<?xml version="1.0" encoding="UTF-8"?>
<osm version="0.6" generator="osmapis">
	<node lat="60.22968889074376" lon="10.368294440665654" id="-18327">
		<tag k="name" v="Samsmoen" />
		<tag k="place" v="quarter" />
		<tag k="ssr:stedsnr" v="5463" />
	</node>
	<node lat="60.23874357232502" lon="10.426485629698186" id="-18328">
		<tag k="fixme" v="consider place=hamlet" />
		<tag k="name" v="Torshov" />
		<tag k="place" v="farm" />
		<tag k="ssr:stedsnr" v="5371" />
	</node>
	<node lat="60.19302777408302" lon="10.310494442921833" id="-18329">
		<tag k="name" v="Randselva" />
		<tag k="ssr:stedsnr" v="5579" />
		<tag k="waterway" v="river" />
	</node>
	<node lat="60.35285833467528" lon="10.24739445333487" id="-18330">
		<tag k="alt_name" v="Bånntjern" />
		<tag k="name" v="Bonntjern" />
		<tag k="natural" v="water" />
		<tag k="ssr:stedsnr" v="5581" />
	</node>
	<node lat="60.36173884024292" lon="10.356704085973597" id="-18331">
		<tag k="fixme" v="consider place=hamlet" />
		<tag k="name" v="Kammerud" />
		<tag k="place" v="farm" />
		<tag k="ssr:stedsnr" v="6012" />
	</node>
	<node lat="60.39112168454529" lon="10.269740428373789" id="-18332">
		<tag k="name" v="Roken" />
		<tag k="natural" v="water" />
		<tag k="ssr:stedsnr" v="6308" />
	</node>
	<node lat="60.32996110827436" lon="10.290441660271158" id="-18333">
		<tag k="alt_name" v="Kimtjennshaugen" />
		<tag k="fixme" v="consider natural=peak for the most distinct mountains in the district" />
		<tag k="name" v="Kimetjernshøgda" />
		<tag k="natural" v="hill" />
		<tag k="place" v="locality" />
		<tag k="ssr:stedsnr" v="6488" />
	</node>
	<node lat="60.34456111056852" lon="10.2703249933658" id="-18334">
		<tag k="name" v="Tangnesputten" />
		<tag k="natural" v="water" />
		<tag k="ssr:stedsnr" v="6600" />
	</node>
	<node lat="60.283230555039275" lon="10.458391672012285" id="-18335">
		<tag k="name" v="Skårud" />
		<tag k="place" v="farm" />
		<tag k="ssr:stedsnr" v="6875" />
	</node>
	<node lat="60.234747225601936" lon="10.366847226537168" id="-18336">
		<tag k="alt_name" v="Bergevika" />
		<tag k="name" v="Bergervika" />
		<tag k="natural" v="bay" />
		<tag k="ssr:stedsnr" v="234776" />
	</node>
	<node lat="60.30686111381911" lon="10.419480553119431" id="-18337">
		<tag k="junction" v="yes" />
		<tag k="name" v="Sognstoppen" />
		<tag k="place" v="locality" />
		<tag k="ssr:stedsnr" v="29678" />
	</node>
	<node lat="60.22278610885794" lon="10.527558340353602" id="-18338">
		<tag k="name" v="Øljehytta" />
		<tag k="place" v="isolated_dwelling" />
		<tag k="ssr:stedsnr" v="32872" />
	</node>
	<node lat="60.20643888526262" lon="10.538024997263781" id="-18339">
		<tag k="name" v="Velomyra" />
		<tag k="natural" v="wetland" />
		<tag k="ssr:stedsnr" v="32881" />
	</node>
	<node lat="60.19089167089921" lon="10.46014721845071" id="-18340">
		<tag k="name" v="Stormyrhytta" />
		<tag k="place" v="isolated_dwelling" />
		<tag k="ssr:stedsnr" v="34598" />
	</node>
	<node lat="60.27841111559364" lon="10.416530547257347" id="-18341">
		<tag k="name" v="Dølerudbekken" />
		<tag k="ssr:stedsnr" v="39102" />
		<tag k="waterway" v="stream" />
	</node>
	<node lat="60.368019441269475" lon="10.227697221057763" id="-18342">
		<tag k="name" v="Kaffehyttdalen" />
		<tag k="natural" v="valley" />
		<tag k="place" v="locality" />
		<tag k="ssr:stedsnr" v="51407" />
	</node>
	<node lat="60.22867500106431" lon="10.342405551026436" id="-18343">
		<tag k="name" v="Musemyra" />
		<tag k="natural" v="wetland" />
		<tag k="ssr:stedsnr" v="51623" />
	</node>
	<node lat="60.276741668059856" lon="10.346258327784547" id="-18344">
		<tag k="name" v="Godbakka" />
		<tag k="natural" v="slope" />
		<tag k="place" v="locality" />
		<tag k="ssr:stedsnr" v="52911" />
	</node>
	<node lat="60.23856666574406" lon="10.392813892436328" id="-18345">
		<tag k="name" v="Løkhaugen" />
		<tag k="natural" v="hill" />
		<tag k="place" v="locality" />
		<tag k="ssr:stedsnr" v="240150" />
	</node>
	<node lat="60.24378611067981" lon="10.476436118178754" id="-18346">
		<tag k="name" v="Bratvalsmyra" />
		<tag k="natural" v="wetland" />
		<tag k="ssr:stedsnr" v="240174" />
	</node>
	<node lat="60.26288611400326" lon="10.4790694499332" id="-18347">
		<tag k="name" v="Søberg" />
		<tag k="place" v="farm" />
		<tag k="ssr:stedsnr" v="58215" />
	</node>
	<node lat="60.32553055545564" lon="10.31524166984432" id="-18348">
		<tag k="alt_name" v="Skarvtjennsbrenna;Skarvetjennsbrenna" />
		<tag k="fixme" v="consider natural=peak for the most distinct mountains in the district" />
		<tag k="name" v="Skarvetjernsbrenna" />
		<tag k="natural" v="hill" />
		<tag k="place" v="locality" />
		<tag k="ssr:stedsnr" v="240469" />
	</node>
	<node lat="60.24551944625123" lon="10.441124997427858" id="-18349">
		<tag k="name" v="Bekkestua" />
		<tag k="place" v="locality" />
		<tag k="ssr:stedsnr" v="66363" />
	</node>
	<node lat="60.20343611108892" lon="10.505438884408635" id="-18350">
		<tag k="name" v="Villingmyra" />
		<tag k="natural" v="wetland" />
		<tag k="ssr:stedsnr" v="66409" />
	</node>
	<node lat="60.25922219130059" lon="10.379025370523495" id="-18351">
		<tag k="fixme" v="consider place=hamlet" />
		<tag k="name" v="Nordby" />
		<tag k="place" v="farm" />
		<tag k="ssr:stedsnr" v="67802" />
	</node>
	<node lat="60.270686872042695" lon="10.525909666684122" id="-18352">
		<tag k="fixme" v="consider place=hamlet" />
		<tag k="name" v="Halvorsrud" />
		<tag k="place" v="farm" />
		<tag k="ssr:stedsnr" v="67812" />
	</node>
	<node lat="60.28092777599125" lon="10.429661110531669" id="-18353">
		<tag k="alt_name" v="Skjennum, nordre" />
		<tag k="name" v="Nordre Skjennum" />
		<tag k="place" v="farm" />
		<tag k="ssr:stedsnr" v="67846" />
	</node>
	<node lat="60.25112777537128" lon="10.35065278585654" id="-18354">
		<tag k="alt_name" v="Jørnsbråtan" />
		<tag k="historic" v="shieling" />
		<tag k="name" v="Jørnsbråtåsætra" />
		<tag k="place" v="isolated_dwelling" />
		<tag k="ssr:stedsnr" v="67753" />
	</node>
	<node lat="60.26748055412023" lon="10.34092777116535" id="-18355">
		<tag k="alt_name" v="Gammalseteråsen" />
		<tag k="fixme" v="consider natural=peak for the most distinct mountains in the district" />
		<tag k="name" v="Gammalsæteråsen" />
		<tag k="natural" v="hill" />
		<tag k="place" v="locality" />
		<tag k="ssr:stedsnr" v="67798" />
	</node>
	<node lat="60.26220555399545" lon="10.34763610427262" id="-18356">
		<tag k="alt_name" v="Nøklebysætra, nedre;Nedre Nøkleby seter" />
		<tag k="historic" v="shieling" />
		<tag k="name" v="Nedre Nøklebysætra" />
		<tag k="place" v="locality" />
		<tag k="ssr:stedsnr" v="67799" />
	</node>
	<node lat="60.26388332954404" lon="10.35422777027976" id="-18357">
		<tag k="alt_name" v="Stormyr" />
		<tag k="name" v="Stormyra" />
		<tag k="natural" v="wetland" />
		<tag k="ssr:stedsnr" v="67800" />
	</node>
	<node lat="60.30404444059183" lon="10.40841944124572" id="-18358">
		<tag k="alt_name" v="Jørve" />
		<tag k="name" v="Gjørve" />
		<tag k="place" v="farm" />
		<tag k="ssr:stedsnr" v="67890" />
	</node>
	<node lat="60.33405526206157" lon="10.344035224476357" id="-18359">
		<tag k="fixme" v="consider place=hamlet" />
		<tag k="name" v="Elnes" />
		<tag k="place" v="farm" />
		<tag k="ssr:stedsnr" v="67993" />
	</node>
	<node lat="60.26970555776279" lon="10.514466664404974" id="-18360">
		<tag k="name" v="Myre" />
		<tag k="place" v="farm" />
		<tag k="ssr:stedsnr" v="93913" />
	</node>
	<node lat="60.270888887407764" lon="10.512977784368372" id="-18361">
		<tag k="name" v="Nordstrand" />
		<tag k="place" v="farm" />
		<tag k="ssr:stedsnr" v="93914" />
	</node>
	<node lat="60.2781333318355" lon="10.301727782688268" id="-18362">
		<tag k="name" v="Trettestykkene" />
		<tag k="place" v="locality" />
		<tag k="ssr:stedsnr" v="95226" />
	</node>
	<node lat="60.28959722551124" lon="10.308108331270132" id="-18363">
		<tag k="name" v="Toputtmyrene" />
		<tag k="natural" v="wetland" />
		<tag k="ssr:stedsnr" v="95230" />
	</node>
	<node lat="60.3685388852123" lon="10.26538610964324" id="-18364">
		<tag k="name" v="Hemvegsputten" />
		<tag k="natural" v="water" />
		<tag k="ssr:stedsnr" v="98472" />
		<tag k="water" v="pond" />
	</node>
	<node lat="60.29739041208404" lon="10.33788425712122" id="-18365">
		<tag k="name" v="Falla" />
		<tag k="place" v="farm" />
		<tag k="ssr:stedsnr" v="98806" />
	</node>
	<node lat="60.31229166618133" lon="10.315038896291949" id="-18366">
		<tag k="alt_name" v="Butjennsmyrene" />
		<tag k="name" v="Butjernsmyrene" />
		<tag k="natural" v="wetland" />
		<tag k="ssr:stedsnr" v="98823" />
	</node>
	<node lat="60.282236115438245" lon="10.449991662887442" id="-18367">
		<tag k="name" v="Vestenga" />
		<tag k="place" v="farm" />
		<tag k="ssr:stedsnr" v="100122" />
	</node>
	<node lat="60.245433336755056" lon="10.395469440791546" id="-18368">
		<tag k="name" v="Randsfjorden" />
		<tag k="natural" v="water" />
		<tag k="ssr:stedsnr" v="248364" />
		<tag k="water" v="lake" />
	</node>
	<node lat="60.235810789608706" lon="10.422395089590394" id="-18369">
		<tag k="fixme" v="consider place=hamlet" />
		<tag k="name" v="Hauger" />
		<tag k="place" v="farm" />
		<tag k="ssr:stedsnr" v="248382" />
	</node>
	<node lat="60.23327222125837" lon="10.4268999933622" id="-18370">
		<tag k="name" v="Haugen" />
		<tag k="place" v="farm" />
		<tag k="ssr:stedsnr" v="248383" />
	</node>
	<node lat="60.23289444285958" lon="10.457580551526949" id="-18371">
		<tag k="name" v="Søtbakkdalen" />
		<tag k="natural" v="valley" />
		<tag k="place" v="locality" />
		<tag k="ssr:stedsnr" v="248384" />
	</node>
	<node lat="60.34394166905539" lon="10.298077779008029" id="-18372">
		<tag k="name" v="Svarttjernsbekken" />
		<tag k="ssr:stedsnr" v="248590" />
		<tag k="waterway" v="stream" />
	</node>
	<node lat="60.3105833356461" lon="10.348113897325934" id="-18373">
		<tag k="name" v="Strandtangen" />
		<tag k="natural" v="cape" />
		<tag k="ssr:stedsnr" v="248884" />
	</node>
	<node lat="60.30011666784658" lon="10.337797215393588" id="-18374">
		<tag k="alt_name" v="Nord-Falla;Falla, nordre" />
		<tag k="name" v="Nordre Falla" />
		<tag k="place" v="farm" />
		<tag k="ssr:stedsnr" v="249391" />
	</node>
	<node lat="60.28815555329354" lon="10.29219999817988" id="-18375">
		<tag k="alt_name" v="Myrheim" />
		<tag k="name" v="Kistefosshytta" />
		<tag k="place" v="isolated_dwelling" />
		<tag k="ssr:stedsnr" v="249404" />
	</node>
	<node lat="60.274150177972444" lon="10.324704479118843" id="-18376">
		<tag k="name" v="Fuglesang" />
		<tag k="place" v="isolated_dwelling" />
		<tag k="ssr:stedsnr" v="249435" />
	</node>
	<node lat="60.26515277904302" lon="10.480363884833555" id="-18377">
		<tag k="name" v="Farmen" />
		<tag k="place" v="farm" />
		<tag k="ssr:stedsnr" v="249746" />
	</node>
	<node lat="60.25114722505059" lon="10.459711111472451" id="-18378">
		<tag k="alt_name" v="Bråtan" />
		<tag k="name" v="Bråtån" />
		<tag k="place" v="locality" />
		<tag k="ssr:stedsnr" v="249763" />
	</node>
	<node lat="60.291295346246855" lon="10.353511726465078" id="-18379">
		<tag k="name" v="Sandvika" />
		<tag k="place" v="farm" />
		<tag k="ssr:stedsnr" v="249862" />
	</node>
	<node lat="60.32153055842999" lon="10.347233338126223" id="-18380">
		<tag k="name" v="Velsandtangen" />
		<tag k="natural" v="cape" />
		<tag k="ssr:stedsnr" v="249961" />
	</node>
	<node lat="60.328438887574364" lon="10.345005554302452" id="-18381">
		<tag k="name" v="Strandberg" />
		<tag k="place" v="isolated_dwelling" />
		<tag k="ssr:stedsnr" v="119480" />
	</node>
	<node lat="60.33694722096741" lon="10.344450003293192" id="-18382">
		<tag k="name" v="Gjerdingen" />
		<tag k="place" v="farm" />
		<tag k="ssr:stedsnr" v="119482" />
	</node>
	<node lat="60.190611106948396" lon="10.563258332658323" id="-18383">
		<tag k="fixme" v="consider natural=peak for the most distinct mountains in the district" />
		<tag k="name" v="Vangshaugen" />
		<tag k="natural" v="hill" />
		<tag k="place" v="locality" />
		<tag k="ssr:stedsnr" v="126052" />
	</node>
	<node lat="60.18630555456605" lon="10.537811116392037" id="-18384">
		<tag k="alt_name" v="Hesteskotjernet" />
		<tag k="name" v="Hesteskovatnet" />
		<tag k="natural" v="water" />
		<tag k="ssr:stedsnr" v="126061" />
	</node>
	<node lat="60.24252594263079" lon="10.314117539264002" id="-18385">
		<tag k="name" v="Skillebekken" />
		<tag k="ssr:stedsnr" v="126994" />
		<tag k="waterway" v="stream" />
	</node>
	<node lat="60.24773888807685" lon="10.35130555245776" id="-18386">
		<tag k="alt_name" v="Loftberga" />
		<tag k="fixme" v="consider natural=peak for the most distinct mountains in the district" />
		<tag k="name" v="Loftberget" />
		<tag k="natural" v="hill" />
		<tag k="place" v="locality" />
		<tag k="ssr:stedsnr" v="127405" />
	</node>
	<node lat="60.24851944328543" lon="10.370649994048247" id="-18387">
		<tag k="name" v="Nordhagen" />
		<tag k="place" v="quarter" />
		<tag k="ssr:stedsnr" v="127453" />
	</node>
	<node lat="60.24847777395979" lon="10.458997227415505" id="-18388">
		<tag k="alt_name" v="Åserud" />
		<tag k="name" v="Åsrud" />
		<tag k="place" v="locality" />
		<tag k="ssr:stedsnr" v="127454" />
	</node>
	<node lat="60.33240278165927" lon="10.311802778811387" id="-18389">
		<tag k="alt_name" v="Gladbakken" />
		<tag k="name" v="Gladbakk" />
		<tag k="place" v="isolated_dwelling" />
		<tag k="ssr:stedsnr" v="127489" />
	</node>
	<node lat="60.33365833079486" lon="10.280249995170387" id="-18390">
		<tag k="alt_name" v="Kimtjennseter" />
		<tag k="historic" v="shieling" />
		<tag k="name" v="Kimetjernsætra" />
		<tag k="place" v="isolated_dwelling" />
		<tag k="ssr:stedsnr" v="127493" />
	</node>
	<node lat="60.33635000057536" lon="10.284480557723565" id="-18391">
		<tag k="name" v="Kalstadfløyta" />
		<tag k="natural" v="water" />
		<tag k="ssr:stedsnr" v="127496" />
	</node>
	<node lat="60.33120555251884" lon="10.303911112621787" id="-18392">
		<tag k="alt_name" v="Kløyvtjenn" />
		<tag k="name" v="Kløvtjern" />
		<tag k="natural" v="water" />
		<tag k="ssr:stedsnr" v="127497" />
	</node>
	<node lat="60.34010277933315" lon="10.261638880002195" id="-18393">
		<tag k="alt_name" v="Halvorsbølesætra, vestre;Vestre Halvorbøleseter" />
		<tag k="historic" v="shieling" />
		<tag k="name" v="Vestre Halvorsbølesætra" />
		<tag k="place" v="isolated_dwelling" />
		<tag k="ssr:stedsnr" v="127622" />
	</node>
	<node lat="60.35942500333103" lon="10.315588891268261" id="-18394">
		<tag k="name" v="Langtjern" />
		<tag k="natural" v="water" />
		<tag k="ssr:stedsnr" v="127623" />
	</node>
	<node lat="60.302950004075306" lon="10.326836104650686" id="-18395">
		<tag k="fixme" v="consider natural=peak for the most distinct mountains in the district" />
		<tag k="name" v="Kilehaugen" />
		<tag k="natural" v="hill" />
		<tag k="place" v="locality" />
		<tag k="ssr:stedsnr" v="127541" />
	</node>
	<node lat="60.30725833260728" lon="10.431850008388972" id="-18396">
		<tag k="alt_name" v="Velo" />
		<tag k="name" v="Vestre Velo" />
		<tag k="old_name" v="Velø" />
		<tag k="place" v="farm" />
		<tag k="ssr:stedsnr" v="127694" />
	</node>
	<node lat="60.25045833776656" lon="10.38748055828608" id="-18397">
		<tag k="name" v="Birkelund" />
		<tag k="place" v="isolated_dwelling" />
		<tag k="ssr:stedsnr" v="127804" />
	</node>
	<node lat="60.264377774988" lon="10.489336118583799" id="-18398">
		<tag k="name" v="Aslaksrud" />
		<tag k="place" v="farm" />
		<tag k="ssr:stedsnr" v="127788" />
	</node>
	<node lat="60.25708333570805" lon="10.489661103983662" id="-18399">
		<tag k="name" v="Myrvoll" />
		<tag k="place" v="farm" />
		<tag k="ssr:stedsnr" v="127789" />
	</node>
	<node lat="60.29771111065754" lon="10.356922225345624" id="-18400">
		<tag k="alt_name" v="Vinnæs" />
		<tag k="name" v="Vindnes" />
		<tag k="natural" v="cape" />
		<tag k="ssr:stedsnr" v="127905" />
	</node>
	<node lat="60.31088109409305" lon="10.423796793709275" id="-18401">
		<tag k="alt_name" v="Velo" />
		<tag k="name" v="Nordre Velo" />
		<tag k="place" v="farm" />
		<tag k="ssr:stedsnr" v="128909" />
	</node>
	<node lat="60.195925002920035" lon="10.54898888620534" id="-18402">
		<tag k="fixme" v="consider natural=peak for the most distinct mountains in the district" />
		<tag k="name" v="Roenseterbrenna" />
		<tag k="natural" v="hill" />
		<tag k="place" v="locality" />
		<tag k="ssr:stedsnr" v="152510" />
	</node>
	<node lat="60.202530553957224" lon="10.54289722973181" id="-18403">
		<tag k="name" v="Gryta" />
		<tag k="natural" v="valley" />
		<tag k="place" v="locality" />
		<tag k="ssr:stedsnr" v="153909" />
	</node>
	<node lat="60.258574995870525" lon="10.501516671235917" id="-18404">
		<tag k="name" v="Kastbekken" />
		<tag k="ssr:stedsnr" v="153951" />
		<tag k="waterway" v="stream" />
	</node>
	<node lat="60.252494445875186" lon="10.493808334980097" id="-18405">
		<tag k="name" v="Gullenmarka" />
		<tag k="natural" v="slope" />
		<tag k="place" v="locality" />
		<tag k="ssr:stedsnr" v="153954" />
	</node>
	<node lat="60.20538610711576" lon="10.444547217534362" id="-18406">
		<tag k="historic" v="shieling" />
		<tag k="name" v="Mosetervollen" />
		<tag k="place" v="locality" />
		<tag k="ssr:stedsnr" v="155654" />
	</node>
	<node lat="60.271636109469334" lon="10.517611115597647" id="-18407">
		<tag k="name" v="Bjerkås" />
		<tag k="old_name" v="Nordstuløkken;Bjerkaas" />
		<tag k="place" v="farm" />
		<tag k="ssr:stedsnr" v="163035" />
	</node>
	<node lat="60.22335833449561" lon="10.344344435469164" id="-18408">
		<tag k="name" v="Bjønnputten" />
		<tag k="natural" v="valley" />
		<tag k="place" v="locality" />
		<tag k="ssr:stedsnr" v="172603" />
	</node>
	<node lat="60.17610110970484" lon="10.56875944769964" id="-18409">
		<tag k="alt_name" v="Fyllingen, store" />
		<tag k="name" v="Store Fyllingen" />
		<tag k="natural" v="water" />
		<tag k="old_name" v="Storfyllingen;st Fidlingen" />
		<tag k="ssr:stedsnr" v="175026" />
		<tag k="water" v="lake" />
	</node>
	<node lat="60.22193333422417" lon="10.468538896266464" id="-18410">
		<tag k="fixme" v="consider highway=path" />
		<tag k="highway" v="track" />
		<tag k="name" v="Finnerudvegen" />
		<tag k="ssr:stedsnr" v="179505" />
	</node>
	<node lat="60.37116944831627" lon="10.30439999120567" id="-18411">
		<tag k="name" v="Putten" />
		<tag k="natural" v="water" />
		<tag k="ssr:stedsnr" v="187572" />
	</node>
	<node lat="60.243113893015085" lon="10.371800000667685" id="-18412">
		<tag k="alt_name" v="Berger" />
		<tag k="name" v="Øvre Berger" />
		<tag k="place" v="farm" />
		<tag k="ssr:stedsnr" v="188425" />
	</node>
	<node lat="60.33291666939934" lon="10.28209999511591" id="-18413">
		<tag k="alt_name" v="Kimtjenn" />
		<tag k="name" v="Kimetjern" />
		<tag k="natural" v="water" />
		<tag k="ssr:stedsnr" v="188500" />
	</node>
	<node lat="60.250806921821294" lon="10.529893566813149" id="-18414">
		<tag k="name" v="Grasbergtjerna" />
		<tag k="natural" v="water" />
		<tag k="ssr:stedsnr" v="188807" />
		<tag k="water" v="lake" />
	</node>
	<node lat="60.2537999972876" lon="10.48051943720555" id="-18415">
		<tag k="name" v="Brattli" />
		<tag k="place" v="farm" />
		<tag k="ssr:stedsnr" v="188808" />
	</node>
	<node lat="60.25285555377548" lon="10.437611116995976" id="-18416">
		<tag k="name" v="Helleksrud" />
		<tag k="place" v="isolated_dwelling" />
		<tag k="ssr:stedsnr" v="188810" />
	</node>
	<node lat="60.27592499896981" lon="10.40794444250564" id="-18417">
		<tag k="alt_name" v="Bjellum, nordre;Bjellum" />
		<tag k="name" v="Nordre Bjellum" />
		<tag k="place" v="farm" />
		<tag k="ssr:stedsnr" v="188814" />
	</node>
	<node lat="60.29236111062591" lon="10.409399995635543" id="-18418">
		<tag k="name" v="Roenhagan" />
		<tag k="place" v="farm" />
		<tag k="ssr:stedsnr" v="188876" />
	</node>
	<node lat="60.31037222272261" lon="10.462397230107932" id="-18419">
		<tag k="name" v="Velotjernet" />
		<tag k="natural" v="water" />
		<tag k="ssr:stedsnr" v="188941" />
	</node>
	<node lat="60.309644441436696" lon="10.38644165914082" id="-18420">
		<tag k="alt_name" v="Bjertnes" />
		<tag k="name" v="Søndre Bjertnes" />
		<tag k="place" v="farm" />
		<tag k="ssr:stedsnr" v="212677" />
	</node>
	<node lat="60.19669444158375" lon="10.561263894749608" id="-18421">
		<tag k="name" v="Roensetermyra" />
		<tag k="natural" v="wetland" />
		<tag k="ssr:stedsnr" v="213508" />
	</node>
	<node lat="60.30253333414006" lon="10.272963897213154" id="-18422">
		<tag k="name" v="Moltetangen" />
		<tag k="natural" v="cape" />
		<tag k="ssr:stedsnr" v="216224" />
	</node>
	<node lat="60.21896944660484" lon="10.467847216994526" id="-18423">
		<tag k="name" v="Sandbekken" />
		<tag k="ssr:stedsnr" v="216673" />
		<tag k="waterway" v="stream" />
	</node>
	<node lat="60.2739194456155" lon="10.41995277073454" id="-18424">
		<tag k="name" v="Rundhaugen" />
		<tag k="natural" v="hill" />
		<tag k="place" v="locality" />
		<tag k="ssr:stedsnr" v="221104" />
	</node>
	<node lat="60.36359722271339" lon="10.243494449247102" id="-18425">
		<tag k="name" v="Hammeren" />
		<tag k="natural" v="hill" />
		<tag k="place" v="locality" />
		<tag k="ssr:stedsnr" v="234988" />
	</node>
	<node lat="60.23827500013559" lon="10.374991665038031" id="-18426">
		<tag k="name" v="Piperbekkhaugen" />
		<tag k="natural" v="hill" />
		<tag k="place" v="locality" />
		<tag k="ssr:stedsnr" v="240205" />
	</node>
	<node lat="60.236122220519654" lon="10.43419166848101" id="-18427">
		<tag k="name" v="Tosobråtan" />
		<tag k="place" v="locality" />
		<tag k="ssr:stedsnr" v="240248" />
	</node>
	<node lat="60.22990277548807" lon="10.439572221110451" id="-18428">
		<tag k="name" v="Korpeberget" />
		<tag k="natural" v="hill" />
		<tag k="place" v="locality" />
		<tag k="ssr:stedsnr" v="240250" />
	</node>
	<node lat="60.254680556178165" lon="10.48290833595158" id="-18429">
		<tag k="name" v="Hestehagen" />
		<tag k="place" v="locality" />
		<tag k="ssr:stedsnr" v="240186" />
	</node>
	<node lat="60.24169444578373" lon="10.468122213469245" id="-18430">
		<tag k="fixme" v="multiple name tags, choose one and add the other to alt_name" />
		<tag k="name" v="Furumyra;Rundhaugmyra" />
		<tag k="natural" v="wetland" />
		<tag k="ssr:stedsnr" v="248359" />
	</node>
	<node lat="60.32590277528901" lon="10.28298334087256" id="-18431">
		<tag k="alt_name" v="Malinemyrene" />
		<tag k="name" v="Malenemyra" />
		<tag k="natural" v="wetland" />
		<tag k="ssr:stedsnr" v="248453" />
	</node>
	<node lat="60.25399999597196" lon="10.310705547081223" id="-18432">
		<tag k="alt_name" v="Buttentjernet" />
		<tag k="name" v="Østre Buttentjern" />
		<tag k="natural" v="water" />
		<tag k="ssr:stedsnr" v="249310" />
	</node>
	<node lat="60.25716111217875" lon="10.33327777792203" id="-18433">
		<tag k="alt_name" v="Kølamyrhøgda" />
		<tag k="fixme" v="consider natural=peak for the most distinct mountains in the district" />
		<tag k="name" v="Kolamyrhøgda" />
		<tag k="natural" v="hill" />
		<tag k="place" v="locality" />
		<tag k="ssr:stedsnr" v="249329" />
	</node>
	<node lat="60.188744447480815" lon="10.571486105087523" id="-18434">
		<tag k="name" v="Vangshøgda" />
		<tag k="natural" v="hill" />
		<tag k="place" v="locality" />
		<tag k="ssr:stedsnr" v="457478" />
	</node>
	<node lat="60.22647222581723" lon="10.525622214595247" id="-18435">
		<tag k="name" v="Stavangerleite" />
		<tag k="place" v="locality" />
		<tag k="ssr:stedsnr" v="457869" />
	</node>
	<node lat="60.18193333339974" lon="10.496733332858902" id="-18436">
		<tag k="name" v="Kingevelta" />
		<tag k="place" v="locality" />
		<tag k="ssr:stedsnr" v="457935" />
	</node>
	<node lat="60.18809167034356" lon="10.502963897086893" id="-18437">
		<tag k="name" v="Ellingsmyra" />
		<tag k="natural" v="wetland" />
		<tag k="ssr:stedsnr" v="457939" />
	</node>
	<node lat="60.206438886316604" lon="10.508519440806078" id="-18438">
		<tag k="name" v="Abrahamsvika" />
		<tag k="natural" v="bay" />
		<tag k="ssr:stedsnr" v="457955" />
	</node>
	<node lat="60.25930833344452" lon="10.435225002218049" id="-18439">
		<tag k="name" v="Prestmoen" />
		<tag k="place" v="quarter" />
		<tag k="ssr:stedsnr" v="267813" />
	</node>
	<node lat="60.20368610686527" lon="10.469822230908578" id="-18440">
		<tag k="name" v="Styggdalen" />
		<tag k="natural" v="valley" />
		<tag k="place" v="locality" />
		<tag k="ssr:stedsnr" v="459635" />
	</node>
	<node lat="60.27228333555841" lon="10.436027776978605" id="-18441">
		<tag k="name" v="Igelstadputten" />
		<tag k="natural" v="water" />
		<tag k="ssr:stedsnr" v="282002" />
		<tag k="water" v="pond" />
	</node>
	<node lat="60.267611110492226" lon="10.44305556456476" id="-18442">
		<tag k="name" v="Prestmoen" />
		<tag k="place" v="locality" />
		<tag k="ssr:stedsnr" v="282107" />
	</node>
	<node lat="60.2664972237479" lon="10.323594446326469" id="-18443">
		<tag k="fixme" v="consider natural=peak for the most distinct mountains in the district" />
		<tag k="name" v="Sameia" />
		<tag k="natural" v="hill" />
		<tag k="place" v="locality" />
		<tag k="ssr:stedsnr" v="294905" />
	</node>
	<node lat="60.23916666435626" lon="10.430786103463728" id="-18444">
		<tag k="name" v="Brenna" />
		<tag k="place" v="locality" />
		<tag k="ssr:stedsnr" v="300203" />
	</node>
	<node lat="60.16516035310534" lon="10.543902804485999" id="-18445">
		<tag k="name" v="Aklangen" />
		<tag k="natural" v="water" />
		<tag k="ssr:stedsnr" v="308022" />
		<tag k="water" v="lake" />
	</node>
	<node lat="60.3078992705045" lon="10.405236660086128" id="-18446">
		<tag k="alt_name" v="Kjerkehøgda" />
		<tag k="loc_name" v="Kjørkehaugen" />
		<tag k="name" v="Kjørkhaugen" />
		<tag k="natural" v="hill" />
		<tag k="place" v="locality" />
		<tag k="ssr:stedsnr" v="465890" />
	</node>
	<node lat="60.29352777862961" lon="10.305255550129422" id="-18447">
		<tag k="alt_name" v="Gråmerrmyrene" />
		<tag k="name" v="Gråmerra" />
		<tag k="natural" v="wetland" />
		<tag k="ssr:stedsnr" v="309439" />
	</node>
	<node lat="60.284316666767786" lon="10.301811113714056" id="-18448">
		<tag k="alt_name" v="Bjønnberget" />
		<tag k="fixme" v="consider natural=peak for the most distinct mountains in the district" />
		<tag k="name" v="Bjørnberget" />
		<tag k="natural" v="hill" />
		<tag k="place" v="locality" />
		<tag k="ssr:stedsnr" v="309440" />
	</node>
	<node lat="60.28259444639695" lon="10.339919451524215" id="-18449">
		<tag k="name" v="Åsbråtan" />
		<tag k="place" v="isolated_dwelling" />
		<tag k="ssr:stedsnr" v="309451" />
	</node>
	<node lat="60.331408336878205" lon="10.31598056220016" id="-18450">
		<tag k="alt_name" v="Skutseter" />
		<tag k="historic" v="shieling" />
		<tag k="name" v="Skutsætra" />
		<tag k="place" v="isolated_dwelling" />
		<tag k="ssr:stedsnr" v="309489" />
	</node>
	<node lat="60.378480558689844" lon="10.239161117519217" id="-18451">
		<tag k="alt_name" v="Tyrispikkhytta" />
		<tag k="name" v="Tyrispikhytta" />
		<tag k="place" v="isolated_dwelling" />
		<tag k="ssr:stedsnr" v="309638" />
	</node>
	<node lat="60.26686388768383" lon="10.50409722782418" id="-18452">
		<tag k="name" v="Vangen" />
		<tag k="place" v="isolated_dwelling" />
		<tag k="ssr:stedsnr" v="309807" />
	</node>
	<node lat="60.25467777638035" lon="10.381875008585098" id="-18453">
		<tag k="alt_name" v="Brørby, nordre" />
		<tag k="name" v="Nordre Brørby" />
		<tag k="place" v="farm" />
		<tag k="ssr:stedsnr" v="309738" />
	</node>
	<node lat="60.2495500041287" lon="10.369205559101253" id="-18454">
		<tag k="alt_name" v="Barbrostuhaugen" />
		<tag k="name" v="Haug" />
		<tag k="place" v="isolated_dwelling" />
		<tag k="ssr:stedsnr" v="309741" />
	</node>
	<node lat="60.31255278093065" lon="10.376169437657007" id="-18455">
		<tag k="name" v="Bjertnestangen" />
		<tag k="natural" v="cape" />
		<tag k="ssr:stedsnr" v="310904" />
	</node>
	<node lat="60.28524999568722" lon="10.412866672164906" id="-18456">
		<tag k="fixme" v="consider place=hamlet" />
		<tag k="name" v="Sløvika" />
		<tag k="place" v="village" />
		<tag k="ssr:stedsnr" v="327477" />
	</node>
	<node lat="60.30766968679712" lon="10.434877232655166" id="-18457">
		<tag k="name" v="Østre Velo" />
		<tag k="place" v="farm" />
		<tag k="ssr:stedsnr" v="333204" />
	</node>
	<node lat="60.277852776367354" lon="10.53556111002043" id="-18458">
		<tag k="name" v="Holteputten" />
		<tag k="natural" v="water" />
		<tag k="ssr:stedsnr" v="335964" />
		<tag k="water" v="pond" />
	</node>
	<node lat="60.32001944541776" lon="10.333058334139931" id="-18459">
		<tag k="fixme" v="consider natural=peak for the most distinct mountains in the district" />
		<tag k="name" v="Velsandmarka" />
		<tag k="natural" v="hill" />
		<tag k="place" v="locality" />
		<tag k="ssr:stedsnr" v="341853" />
	</node>
	<node lat="60.32056666471127" lon="10.32165000178438" id="-18460">
		<tag k="alt_name" v="Skarvetjennsdalen" />
		<tag k="name" v="Skarvetjernsdalen" />
		<tag k="natural" v="valley" />
		<tag k="place" v="locality" />
		<tag k="ssr:stedsnr" v="341855" />
	</node>
	<node lat="60.25636944760001" lon="10.322838888267635" id="-18461">
		<tag k="alt_name" v="Buttentjennshøgda" />
		<tag k="name" v="Buttentjernshøgda" />
		<tag k="natural" v="hill" />
		<tag k="place" v="locality" />
		<tag k="ssr:stedsnr" v="354986" />
	</node>
	<node lat="60.317775001105005" lon="10.278799994894719" id="-18462">
		<tag k="name" v="Fufresa" />
		<tag k="natural" v="bay" />
		<tag k="ssr:stedsnr" v="355809" />
	</node>
	<node lat="60.32223055256956" lon="10.277308339490766" id="-18463">
		<tag k="name" v="Midtskavbekken" />
		<tag k="ssr:stedsnr" v="355810" />
		<tag k="waterway" v="stream" />
	</node>
	<node lat="60.30070277755461" lon="10.444566674064527" id="-18464">
		<tag k="name" v="Velofoss" />
		<tag k="natural" v="waterfall" />
		<tag k="ssr:stedsnr" v="359864" />
	</node>
	<node lat="60.23952778220752" lon="10.349286109245861" id="-18465">
		<tag k="name" v="Mikkelshytta" />
		<tag k="place" v="isolated_dwelling" />
		<tag k="ssr:stedsnr" v="476698" />
	</node>
	<node lat="60.239297225733736" lon="10.35435555960495" id="-18466">
		<tag k="name" v="Merredokka" />
		<tag k="place" v="locality" />
		<tag k="ssr:stedsnr" v="476764" />
	</node>
	<node lat="60.2367166643013" lon="10.361652779805368" id="-18467">
		<tag k="alt_name" v="Bergebakken" />
		<tag k="name" v="Bergerbakken" />
		<tag k="place" v="quarter" />
		<tag k="ssr:stedsnr" v="476756" />
	</node>
	<node lat="60.26487222551215" lon="10.317705555900668" id="-18468">
		<tag k="name" v="Ruggetjern" />
		<tag k="natural" v="water" />
		<tag k="ssr:stedsnr" v="476900" />
	</node>
	<node lat="60.24786666674492" lon="10.365802771945216" id="-18469">
		<tag k="name" v="Pilkollen" />
		<tag k="place" v="quarter" />
		<tag k="ssr:stedsnr" v="476996" />
	</node>
	<node lat="60.18509999809505" lon="10.473355553200506" id="-18470">
		<tag k="alt_name" v="Bjørneputten" />
		<tag k="name" v="Bjønnputten" />
		<tag k="natural" v="water" />
		<tag k="ssr:stedsnr" v="478035" />
	</node>
	<node lat="60.18048611474577" lon="10.523122227815344" id="-18471">
		<tag k="name" v="Svartvika" />
		<tag k="natural" v="bay" />
		<tag k="ssr:stedsnr" v="369031" />
	</node>
	<node lat="60.199969448919546" lon="10.493363888876381" id="-18472">
		<tag k="alt_name" v="Fagervann" />
		<tag k="name" v="Fagervatnet" />
		<tag k="natural" v="water" />
		<tag k="ssr:stedsnr" v="369407" />
	</node>
	<node lat="60.26778055552785" lon="10.494877773106774" id="-18473">
		<tag k="alt_name" v="Østre Olimb;Olum østre;Olum;Olom" />
		<tag k="loc_name" v="Austre-Olum" />
		<tag k="name" v="Østre Olum" />
		<tag k="place" v="farm" />
		<tag k="ssr:stedsnr" v="370823" />
	</node>
	<node lat="60.27180000317289" lon="10.510369437306894" id="-18474">
		<tag k="name" v="Vesletjernet" />
		<tag k="natural" v="water" />
		<tag k="ssr:stedsnr" v="370825" />
	</node>
	<node lat="60.297872807431496" lon="10.388449299246272" id="-18475">
		<tag k="alt_name" v="Igelsrud" />
		<tag k="fixme" v="consider place=hamlet" />
		<tag k="name" v="Igulsrud" />
		<tag k="place" v="farm" />
		<tag k="ssr:stedsnr" v="370867" />
	</node>
	<node lat="60.2158982424042" lon="10.400063476245679" id="-18476">
		<tag k="alt_name" v="Brandalen" />
		<tag k="name" v="Branndalen" />
		<tag k="natural" v="valley" />
		<tag k="place" v="locality" />
		<tag k="ssr:stedsnr" v="482147" />
	</node>
	<node lat="60.24574444403847" lon="10.447113882648765" id="-18477">
		<tag k="name" v="Rønnerudmarka" />
		<tag k="place" v="locality" />
		<tag k="ssr:stedsnr" v="482152" />
	</node>
	<node lat="60.25534722496413" lon="10.429430549551432" id="-18478">
		<tag k="name" v="Solbakken" />
		<tag k="place" v="farm" />
		<tag k="ssr:stedsnr" v="482155" />
	</node>
	<node lat="60.247405559023385" lon="10.429752776909403" id="-18479">
		<tag k="name" v="Rønnerudsenga" />
		<tag k="place" v="isolated_dwelling" />
		<tag k="ssr:stedsnr" v="482157" />
	</node>
	<node lat="60.23669166876277" lon="10.51772778172711" id="-18480">
		<tag k="name" v="Sinnerputten" />
		<tag k="natural" v="water" />
		<tag k="ssr:stedsnr" v="396903" />
		<tag k="water" v="pond" />
	</node>
	<node lat="60.34951667032778" lon="10.27711944113653" id="-18481">
		<tag k="name" v="Godmyrene" />
		<tag k="natural" v="wetland" />
		<tag k="ssr:stedsnr" v="402481" />
	</node>
	<node lat="60.283280661151565" lon="10.454496600458011" id="-18482">
		<tag k="fixme" v="consider place=hamlet" />
		<tag k="name" v="Skårud" />
		<tag k="old_name" v="Skålerud" />
		<tag k="place" v="farm" />
		<tag k="ssr:stedsnr" v="403119" />
	</node>
	<node lat="60.2963138850834" lon="10.35211111788499" id="-18483">
		<tag k="name" v="Auendal" />
		<tag k="natural" v="valley" />
		<tag k="place" v="locality" />
		<tag k="ssr:stedsnr" v="416243" />
	</node>
	<node lat="60.292825000824884" lon="10.333652774499129" id="-18484">
		<tag k="name" v="Øvre Rolfsbråtan" />
		<tag k="place" v="farm" />
		<tag k="ssr:stedsnr" v="416250" />
	</node>
	<node lat="60.19297322500277" lon="10.52895993573267" id="-18485">
		<tag k="historic" v="shieling" />
		<tag k="loc_name" v="Lortholoa" />
		<tag k="name" v="Holoa" />
		<tag k="old_name" v="Holoa Sr;Holosætra;Lorthul Sr" />
		<tag k="place" v="isolated_dwelling" />
		<tag k="ssr:stedsnr" v="418440" />
	</node>
	<node lat="60.2682666682706" lon="10.474900002157279" id="-18486">
		<tag k="name" v="Ragnhildrud" />
		<tag k="place" v="quarter" />
		<tag k="ssr:stedsnr" v="419911" />
	</node>
	<node lat="60.22389444732579" lon="10.446241674611516" id="-18487">
		<tag k="name" v="Karisnaret" />
		<tag k="natural" v="hill" />
		<tag k="place" v="locality" />
		<tag k="ssr:stedsnr" v="422519" />
	</node>
	<node lat="60.18046110896264" lon="10.51751944819018" id="-18488">
		<tag k="alt_name" v="Pershusvann" />
		<tag k="name" v="Pershusvatnet" />
		<tag k="natural" v="water" />
		<tag k="ssr:stedsnr" v="490053" />
		<tag k="water" v="lake" />
	</node>
	<node lat="60.1842638894159" lon="10.495186118209837" id="-18489">
		<tag k="alt_name" v="Nedre Sinnerputten" />
		<tag k="name" v="Nedre Sinderputten" />
		<tag k="natural" v="water" />
		<tag k="ssr:stedsnr" v="490066" />
	</node>
	<node lat="60.24141111257728" lon="10.44236945290495" id="-18490">
		<tag k="name" v="Furumyrbekken" />
		<tag k="ssr:stedsnr" v="490365" />
		<tag k="waterway" v="stream" />
	</node>
	<node lat="60.21699166576749" lon="10.440936116545219" id="-18491">
		<tag k="name" v="Flisemyra" />
		<tag k="natural" v="wetland" />
		<tag k="ssr:stedsnr" v="490469" />
	</node>
	<node lat="60.22570389224084" lon="10.393869078577948" id="-18492">
		<tag k="name" v="Branndalsbekken" />
		<tag k="ssr:stedsnr" v="490480" />
		<tag k="waterway" v="stream" />
	</node>
	<node lat="60.17092777340842" lon="10.556508327213084" id="-18493">
		<tag k="name" v="Målvika" />
		<tag k="natural" v="bay" />
		<tag k="ssr:stedsnr" v="430018" />
	</node>
	<node lat="60.23965833130892" lon="10.334625003639848" id="-18494">
		<tag k="fixme" v="consider natural=peak for the most distinct mountains in the district" />
		<tag k="name" v="Brenteberga" />
		<tag k="natural" v="hill" />
		<tag k="place" v="locality" />
		<tag k="ssr:stedsnr" v="490988" />
	</node>
	<node lat="60.209097220238185" lon="10.483252770671578" id="-18495">
		<tag k="name" v="Svenåputten" />
		<tag k="natural" v="water" />
		<tag k="ssr:stedsnr" v="430419" />
	</node>
	<node lat="60.224794444924974" lon="10.420102785393361" id="-18496">
		<tag k="name" v="Haukerud" />
		<tag k="place" v="locality" />
		<tag k="ssr:stedsnr" v="430449" />
	</node>
	<node lat="60.21011111529116" lon="10.509866671869137" id="-18497">
		<tag k="alt_name" v="Tverrsjøhytta" />
		<tag k="name" v="Tverrsjøstallen" />
		<tag k="place" v="isolated_dwelling" />
		<tag k="ssr:stedsnr" v="430462" />
	</node>
	<node lat="60.267250943685404" lon="10.414111119020498" id="-18498">
		<tag k="fixme" v="consider place=hamlet" />
		<tag k="name" v="Gulla" />
		<tag k="place" v="farm" />
		<tag k="ssr:stedsnr" v="431804" />
	</node>
	<node lat="60.26656666680682" lon="10.467702769430355" id="-18499">
		<tag k="alt_name" v="Lien" />
		<tag k="name" v="Lia" />
		<tag k="place" v="farm" />
		<tag k="ssr:stedsnr" v="431807" />
	</node>
	<node lat="60.28840468871857" lon="10.499345431598783" id="-18500">
		<tag k="alt_name" v="Vadsjø" />
		<tag k="fixme" v="consider place=hamlet" />
		<tag k="name" v="Vassjø" />
		<tag k="place" v="farm" />
		<tag k="ssr:stedsnr" v="431840" />
	</node>
	<node lat="60.28145000372733" lon="10.326305555923053" id="-18501">
		<tag k="name" v="Djupdalsbekken" />
		<tag k="ssr:stedsnr" v="491431" />
		<tag k="waterway" v="stream" />
	</node>
	<node lat="60.3370916624477" lon="10.355961113128338" id="-18502">
		<tag k="name" v="Solstad" />
		<tag k="place" v="isolated_dwelling" />
		<tag k="ssr:stedsnr" v="431996" />
	</node>
	<node lat="60.3349666663863" lon="10.352122219134689" id="-18503">
		<tag k="name" v="Solvik" />
		<tag k="place" v="farm" />
		<tag k="ssr:stedsnr" v="431997" />
	</node>
	<node lat="60.33234722660641" lon="10.322219450781454" id="-18504">
		<tag k="alt_name" v="Elnesseter" />
		<tag k="historic" v="shieling" />
		<tag k="name" v="Elnessætra" />
		<tag k="place" v="isolated_dwelling" />
		<tag k="ssr:stedsnr" v="491465" />
	</node>
	<node lat="60.25236388634876" lon="10.3785638817026" id="-18505">
		<tag k="name" v="Solberg" />
		<tag k="place" v="farm" />
		<tag k="ssr:stedsnr" v="491738" />
	</node>
	<node lat="60.28775555289761" lon="10.492750000402943" id="-18506">
		<tag k="name" v="Mellerud" />
		<tag k="place" v="farm" />
		<tag k="ssr:stedsnr" v="491811" />
	</node>
	<node lat="60.28980906580233" lon="10.41191299478497" id="-18507">
		<tag k="fixme" v="consider place=hamlet" />
		<tag k="name" v="Haga" />
		<tag k="place" v="farm" />
		<tag k="ssr:stedsnr" v="491860" />
	</node>
	<node lat="60.19389444138559" lon="10.457719439775207" id="-18508">
		<tag k="alt_name" v="Stormyr" />
		<tag k="name" v="Nedre Stormyra" />
		<tag k="natural" v="wetland" />
		<tag k="ssr:stedsnr" v="672061" />
	</node>
	<node lat="60.233241664986146" lon="10.461063897794444" id="-18509">
		<tag k="name" v="Søtbakken" />
		<tag k="place" v="farm" />
		<tag k="ssr:stedsnr" v="672375" />
	</node>
	<node lat="60.3606055598057" lon="10.284508335826452" id="-18510">
		<tag k="alt_name" v="Kjerringåslangtjenn" />
		<tag k="name" v="Langtjern" />
		<tag k="natural" v="water" />
		<tag k="ssr:stedsnr" v="672575" />
	</node>
	<node lat="60.37099444459167" lon="10.257336109002075" id="-18511">
		<tag k="name" v="Hemvegsputten" />
		<tag k="natural" v="water" />
		<tag k="ssr:stedsnr" v="672591" />
	</node>
	<node lat="60.35144999633097" lon="10.317133327410842" id="-18512">
		<tag k="alt_name" v="Damtjern, s" />
		<tag k="name" v="Søndre Damtjern" />
		<tag k="natural" v="water" />
		<tag k="ssr:stedsnr" v="672552" />
	</node>
	<node lat="60.30015833114217" lon="10.29314444895389" id="-18513">
		<tag k="name" v="Torvheim" />
		<tag k="place" v="isolated_dwelling" />
		<tag k="ssr:stedsnr" v="459270" />
	</node>
	<node lat="60.3258416647769" lon="10.24994999779726" id="-18514">
		<tag k="name" v="Toputtane" />
		<tag k="natural" v="water" />
		<tag k="ssr:stedsnr" v="673478" />
	</node>
	<node lat="60.32490833454248" lon="10.31852777732425" id="-18515">
		<tag k="alt_name" v="Skarvetjennet" />
		<tag k="name" v="Skarvetjern" />
		<tag k="natural" v="water" />
		<tag k="ssr:stedsnr" v="673480" />
	</node>
	<node lat="60.199647219530824" lon="10.456205559965932" id="-18516">
		<tag k="fixme" v="consider natural=peak for the most distinct mountains in the district" />
		<tag k="name" v="Mosjøbrenna" />
		<tag k="natural" v="hill" />
		<tag k="place" v="locality" />
		<tag k="ssr:stedsnr" v="673481" />
	</node>
	<node lat="60.31100833652138" lon="10.320230559679398" id="-18517">
		<tag k="name" v="Butjern" />
		<tag k="natural" v="water" />
		<tag k="ssr:stedsnr" v="673499" />
	</node>
	<node lat="60.2120638848066" lon="10.420086117877956" id="-18518">
		<tag k="fixme" v="multiple name tags, choose one and add the other to alt_name; consider natural=peak for the most distinct mountains in the district" />
		<tag k="name" v="Kavlebruhøgda;Kavlebruhaugen" />
		<tag k="natural" v="hill" />
		<tag k="place" v="locality" />
		<tag k="ssr:stedsnr" v="673500" />
	</node>
	<node lat="60.21776666863983" lon="10.49271665774399" id="-18519">
		<tag k="alt_name" v="Skjennumseterflakene" />
		<tag k="fixme" v="consider natural=peak for the most distinct mountains in the district" />
		<tag k="name" v="Skjennumsflaka" />
		<tag k="natural" v="hill" />
		<tag k="place" v="locality" />
		<tag k="ssr:stedsnr" v="673502" />
	</node>
	<node lat="60.34582499921486" lon="10.271716669515099" id="-18520">
		<tag k="name" v="Tangnes" />
		<tag k="place" v="isolated_dwelling" />
		<tag k="ssr:stedsnr" v="673588" />
	</node>
	<node lat="60.26139131905695" lon="10.460198685291678" id="-18521">
		<tag k="fixme" v="consider place=hamlet" />
		<tag k="name" v="Hensrud" />
		<tag k="place" v="farm" />
		<tag k="ssr:stedsnr" v="673753" />
	</node>
	<node lat="60.2998111089603" lon="10.4258416622761" id="-18522">
		<tag k="alt_name" v="Løvstad" />
		<tag k="name" v="Lauvstad" />
		<tag k="place" v="isolated_dwelling" />
		<tag k="ssr:stedsnr" v="673861" />
	</node>
	<node lat="60.2639000000835" lon="10.37888610637641" id="-18523">
		<tag k="alt_name" v="Nordengen" />
		<tag k="name" v="Nordenga" />
		<tag k="place" v="farm" />
		<tag k="ssr:stedsnr" v="673797" />
	</node>
	<node lat="60.30510911740584" lon="10.41964655643572" id="-18524">
		<tag k="fixme" v="consider place=hamlet" />
		<tag k="name" v="Sogn" />
		<tag k="place" v="farm" />
		<tag k="ssr:stedsnr" v="673898" />
	</node>
	<node lat="60.27328333614214" lon="10.44169444825359" id="-18525">
		<tag k="name" v="Igelstad" />
		<tag k="place" v="isolated_dwelling" />
		<tag k="ssr:stedsnr" v="464002" />
	</node>
	<node lat="60.282239942962384" lon="10.495942730387519" id="-18526">
		<tag k="alt_name" v="Feldberg;Felberg" />
		<tag k="fixme" v="consider place=hamlet" />
		<tag k="name" v="Fellberg" />
		<tag k="place" v="farm" />
		<tag k="ssr:stedsnr" v="674811" />
	</node>
	<node lat="60.28252499893158" lon="10.410408327971574" id="-18527">
		<tag k="name" v="Sløvika" />
		<tag k="natural" v="bay" />
		<tag k="ssr:stedsnr" v="674828" />
	</node>
	<node lat="60.28101944748027" lon="10.48986945207372" id="-18528">
		<tag k="alt_name" v="Løvås" />
		<tag k="name" v="Lauvås" />
		<tag k="place" v="farm" />
		<tag k="ssr:stedsnr" v="674832" />
	</node>
	<node lat="60.27764722563584" lon="10.451436111003753" id="-18529">
		<tag k="name" v="Engerputten" />
		<tag k="natural" v="water" />
		<tag k="ssr:stedsnr" v="674836" />
	</node>
	<node lat="60.278927288395394" lon="10.450788815053958" id="-18530">
		<tag k="fixme" v="consider place=hamlet" />
		<tag k="name" v="Enger" />
		<tag k="place" v="farm" />
		<tag k="ssr:stedsnr" v="674837" />
	</node>
	<node lat="60.284486114089454" lon="10.345466658070439" id="-18531">
		<tag k="name" v="Fikerud" />
		<tag k="natural" v="hill" />
		<tag k="place" v="locality" />
		<tag k="ssr:stedsnr" v="476252" />
	</node>
	<node lat="60.300408333909225" lon="10.340055555011542" id="-18532">
		<tag k="name" v="Skarvehaugen" />
		<tag k="natural" v="hill" />
		<tag k="place" v="locality" />
		<tag k="ssr:stedsnr" v="476265" />
	</node>
	<node lat="60.38608888757513" lon="10.230616670570212" id="-18533">
		<tag k="name" v="Grymyrsdalen" />
		<tag k="natural" v="valley" />
		<tag k="place" v="locality" />
		<tag k="ssr:stedsnr" v="476368" />
	</node>
	<node lat="60.23261111106212" lon="10.391999998205076" id="-18534">
		<tag k="name" v="Eksersisplassen" />
		<tag k="place" v="locality" />
		<tag k="ssr:stedsnr" v="482116" />
	</node>
	<node lat="60.23735278146874" lon="10.385174998134078" id="-18535">
		<tag k="name" v="Hermanstjernet" />
		<tag k="natural" v="water" />
		<tag k="ssr:stedsnr" v="482129" />
	</node>
	<node lat="60.22429166605575" lon="10.450141664372175" id="-18536">
		<tag k="name" v="Kølabonn" />
		<tag k="place" v="locality" />
		<tag k="ssr:stedsnr" v="482512" />
	</node>
	<node lat="60.230441666093306" lon="10.504466668370329" id="-18537">
		<tag k="alt_name" v="Juthaugene" />
		<tag k="fixme" v="consider natural=peak for the most distinct mountains in the district" />
		<tag k="name" v="Juthaugen" />
		<tag k="natural" v="hill" />
		<tag k="place" v="locality" />
		<tag k="ssr:stedsnr" v="490380" />
	</node>
	<node lat="60.2369472216022" lon="10.360866669810859" id="-18538">
		<tag k="alt_name" v="Stensrud" />
		<tag k="name" v="Steinerud" />
		<tag k="place" v="isolated_dwelling" />
		<tag k="ssr:stedsnr" v="490388" />
	</node>
	<node lat="60.398588890895425" lon="10.192550001979253" id="-18539">
		<tag k="fixme" v="consider natural=peak for the most distinct mountains in the district" />
		<tag k="name" v="Tungeåsen" />
		<tag k="natural" v="hill" />
		<tag k="place" v="locality" />
		<tag k="ssr:stedsnr" v="491283" />
	</node>
	<node lat="60.30522500004331" lon="10.315219441514348" id="-18540">
		<tag k="name" v="Hølbekken" />
		<tag k="ssr:stedsnr" v="491528" />
		<tag k="waterway" v="stream" />
	</node>
	<node lat="60.346894441492246" lon="10.305136107023412" id="-18541">
		<tag k="alt_name" v="Halvorsbølesætra, østre;Halvorbøleseter" />
		<tag k="historic" v="shieling" />
		<tag k="name" v="Østre Halvorsbølesætra" />
		<tag k="place" v="isolated_dwelling" />
		<tag k="ssr:stedsnr" v="491596" />
	</node>
	<node lat="60.27788506715238" lon="10.502261305664115" id="-18542">
		<tag k="alt_name" v="Øvre Tronrud" />
		<tag k="fixme" v="consider place=hamlet" />
		<tag k="name" v="Trondrud" />
		<tag k="place" v="farm" />
		<tag k="ssr:stedsnr" v="491828" />
	</node>
	<node lat="60.303991669995426" lon="10.404802784572428" id="-18543">
		<tag k="name" v="Dalsenga" />
		<tag k="place" v="farm" />
		<tag k="ssr:stedsnr" v="491878" />
	</node>
	<node lat="60.24569444098914" lon="10.495500002879437" id="-18544">
		<tag k="name" v="Klokkermarka" />
		<tag k="place" v="locality" />
		<tag k="ssr:stedsnr" v="517926" />
	</node>
	<node lat="60.26726388630951" lon="10.538330558835698" id="-18545">
		<tag k="name" v="Høghaug" />
		<tag k="place" v="isolated_dwelling" />
		<tag k="ssr:stedsnr" v="517961" />
	</node>
	<node lat="60.21536944487399" lon="10.477147230367141" id="-18546">
		<tag k="name" v="Fiskedammen" />
		<tag k="ssr:stedsnr" v="519707" />
		<tag k="waterway" v="dam" />
	</node>
	<node lat="60.216399999303086" lon="10.47638333301077" id="-18547">
		<tag k="name" v="Luserudsletta" />
		<tag k="place" v="locality" />
		<tag k="ssr:stedsnr" v="519708" />
	</node>
	<node lat="60.263583333879644" lon="10.42516388267014" id="-18548">
		<tag k="name" v="Randsvangen" />
		<tag k="ssr:stedsnr" v="524911" />
		<tag k="tourism" v="hotel" />
	</node>
	<node lat="60.25263610743533" lon="10.320113893595567" id="-18549">
		<tag k="name" v="Setermyrdalen" />
		<tag k="natural" v="wetland" />
		<tag k="ssr:stedsnr" v="536984" />
	</node>
	<node lat="60.221955553632796" lon="10.407850000638625" id="-18550">
		<tag k="name" v="Mosmarka" />
		<tag k="place" v="locality" />
		<tag k="ssr:stedsnr" v="543190" />
	</node>
	<node lat="60.33896110699942" lon="10.355766666927922" id="-18551">
		<tag k="name" v="Hvitberget" />
		<tag k="natural" v="slope" />
		<tag k="place" v="locality" />
		<tag k="ssr:stedsnr" v="544477" />
	</node>
	<node lat="60.187513890045" lon="10.517350003912215" id="-18552">
		<tag k="alt_name" v="Buvann" />
		<tag k="name" v="Buvatn" />
		<tag k="natural" v="water" />
		<tag k="ssr:stedsnr" v="551055" />
	</node>
	<node lat="60.24774722192324" lon="10.377702773038104" id="-18553">
		<tag k="alt_name" v="Nøkleby" />
		<tag k="name" v="Øvre Nøkleby" />
		<tag k="place" v="farm" />
		<tag k="ssr:stedsnr" v="551411" />
	</node>
	<node lat="60.209294447170215" lon="10.45926667405878" id="-18554">
		<tag k="alt_name" v="Århanaputten" />
		<tag k="name" v="Orrhanaputten" />
		<tag k="natural" v="water" />
		<tag k="ssr:stedsnr" v="551420" />
		<tag k="water" v="pond" />
	</node>
	<node lat="60.22022222378997" lon="10.495783325419294" id="-18555">
		<tag k="name" v="Svarttjernet" />
		<tag k="natural" v="water" />
		<tag k="ssr:stedsnr" v="551449" />
	</node>
	<node lat="60.22585278070316" lon="10.44518888077099" id="-18556">
		<tag k="name" v="Svenåa" />
		<tag k="ssr:stedsnr" v="551451" />
		<tag k="waterway" v="stream" />
	</node>
	<node lat="60.38112222090196" lon="10.25500278518962" id="-18557">
		<tag k="alt_name" v="Auretjernsputten, vestre" />
		<tag k="name" v="Vestre Auretjernsputten" />
		<tag k="natural" v="water" />
		<tag k="ssr:stedsnr" v="551608" />
	</node>
	<node lat="60.37281667059858" lon="10.229347215452533" id="-18558">
		<tag k="alt_name" v="Samsjøbergene" />
		<tag k="fixme" v="consider natural=peak for the most distinct mountains in the district" />
		<tag k="name" v="Samsjøberga" />
		<tag k="natural" v="hill" />
		<tag k="place" v="locality" />
		<tag k="ssr:stedsnr" v="551614" />
	</node>
	<node lat="60.28869166248121" lon="10.309436119782136" id="-18559">
		<tag k="name" v="Toputt" />
		<tag k="natural" v="water" />
		<tag k="ssr:stedsnr" v="552437" />
	</node>
	<node lat="60.292650029181615" lon="10.335921814113151" id="-18560">
		<tag k="alt_name" v="Nedre Rolfsbråtan" />
		<tag k="name" v="Rolvsbråtan" />
		<tag k="place" v="farm" />
		<tag k="ssr:stedsnr" v="552440" />
	</node>
	<node lat="60.34308333678752" lon="10.250808331380691" id="-18561">
		<tag k="name" v="Kjørketjern" />
		<tag k="natural" v="water" />
		<tag k="ssr:stedsnr" v="552631" />
	</node>
	<node lat="60.32418889317864" lon="10.301294452613055" id="-18562">
		<tag k="alt_name" v="Kløyvtjennsmyrene" />
		<tag k="name" v="Kløvtjernsmyra" />
		<tag k="natural" v="wetland" />
		<tag k="ssr:stedsnr" v="552535" />
	</node>
	<node lat="60.31817500395634" lon="10.272352779219103" id="-18563">
		<tag k="alt_name" v="Røyberget" />
		<tag k="fixme" v="consider natural=peak for the most distinct mountains in the district" />
		<tag k="name" v="Røyberga" />
		<tag k="natural" v="hill" />
		<tag k="place" v="locality" />
		<tag k="ssr:stedsnr" v="552541" />
	</node>
	<node lat="60.26533333014235" lon="10.432066666935064" id="-18564">
		<tag k="fixme" v="consider natural=peak for the most distinct mountains in the district" />
		<tag k="name" v="Vangsåsen" />
		<tag k="natural" v="hill" />
		<tag k="place" v="locality" />
		<tag k="ssr:stedsnr" v="552806" />
	</node>
	<node lat="60.272116669474826" lon="10.40699166754957" id="-18565">
		<tag k="alt_name" v="Bjellum, søndre;Bjellum" />
		<tag k="name" v="Søndre Bjellum" />
		<tag k="place" v="farm" />
		<tag k="ssr:stedsnr" v="552812" />
	</node>
	<node lat="60.282538890252916" lon="10.513555555149527" id="-18566">
		<tag k="alt_name" v="Stensrud" />
		<tag k="name" v="Steinsrud" />
		<tag k="place" v="farm" />
		<tag k="ssr:stedsnr" v="552847" />
	</node>
	<node lat="60.18705833492998" lon="10.54280000115178" id="-18567">
		<tag k="name" v="Karidalen" />
		<tag k="natural" v="valley" />
		<tag k="place" v="locality" />
		<tag k="ssr:stedsnr" v="578916" />
	</node>
	<node lat="60.2287583301868" lon="10.501011113850646" id="-18568">
		<tag k="name" v="Stormyr" />
		<tag k="natural" v="wetland" />
		<tag k="ssr:stedsnr" v="578846" />
	</node>
	<node lat="60.236030555780985" lon="10.487966660073516" id="-18569">
		<tag k="name" v="Vinterlunnmyra" />
		<tag k="natural" v="wetland" />
		<tag k="ssr:stedsnr" v="578847" />
	</node>
	<node lat="60.22808055986407" lon="10.533427783698281" id="-18570">
		<tag k="name" v="Rampestokk" />
		<tag k="place" v="locality" />
		<tag k="ssr:stedsnr" v="578854" />
	</node>
	<node lat="60.263000001549166" lon="10.496191672271614" id="-18571">
		<tag k="name" v="Sagenga" />
		<tag k="place" v="farm" />
		<tag k="ssr:stedsnr" v="579000" />
	</node>
	<node lat="60.20301944757237" lon="10.442077772593034" id="-18572">
		<tag k="name" v="Sauetangen" />
		<tag k="place" v="locality" />
		<tag k="ssr:stedsnr" v="580648" />
	</node>
	<node lat="60.212622220143245" lon="10.413063889281844" id="-18573">
		<tag k="name" v="Skollerudhaugen" />
		<tag k="natural" v="hill" />
		<tag k="place" v="locality" />
		<tag k="ssr:stedsnr" v="580842" />
	</node>
	<node lat="60.26636666823406" lon="10.45402777827842" id="-18574">
		<tag k="name" v="Karlsrud" />
		<tag k="place" v="farm" />
		<tag k="ssr:stedsnr" v="585109" />
	</node>
	<node lat="60.285558333378525" lon="10.41224166014412" id="-18575">
		<tag k="bridge" v="yes" />
		<tag k="layer" v="1" />
		<tag k="name" v="Sløvika" />
		<tag k="ssr:stedsnr" v="592065" />
	</node>
	<node lat="60.3086027763511" lon="10.393180557892958" id="-18576">
		<tag k="name" v="Grønndal" />
		<tag k="place" v="farm" />
		<tag k="ssr:stedsnr" v="697662" />
	</node>
	<node lat="60.269305557650114" lon="10.332413879976484" id="-18577">
		<tag k="historic" v="shieling" />
		<tag k="name" v="Nordbyseter" />
		<tag k="place" v="isolated_dwelling" />
		<tag k="ssr:stedsnr" v="597907" />
	</node>
	<node lat="60.34458055479931" lon="10.246072224730046" id="-18578">
		<tag k="name" v="Kjørketjernputta" />
		<tag k="natural" v="water" />
		<tag k="ssr:stedsnr" v="597975" />
		<tag k="water" v="pond" />
	</node>
	<node lat="60.245288887469215" lon="10.368194448425493" id="-18579">
		<tag k="name" v="Nordhaugen" />
		<tag k="place" v="quarter" />
		<tag k="ssr:stedsnr" v="598000" />
	</node>
	<node lat="60.24048889221947" lon="10.383338893896921" id="-18580">
		<tag k="name" v="Nesbakken" />
		<tag k="place" v="quarter" />
		<tag k="ssr:stedsnr" v="603161" />
	</node>
	<node lat="60.233763891302395" lon="10.455399994738261" id="-18581">
		<tag k="name" v="Rønnerudbråtåsletta" />
		<tag k="place" v="locality" />
		<tag k="ssr:stedsnr" v="603198" />
	</node>
	<node lat="60.33028888615086" lon="10.340500001632115" id="-18582">
		<tag k="name" v="Elnesenga" />
		<tag k="place" v="locality" />
		<tag k="ssr:stedsnr" v="604460" />
	</node>
	<node lat="60.21311111500712" lon="10.505138882819534" id="-18583">
		<tag k="alt_name" v="Svarttjennsbekken" />
		<tag k="name" v="Svarttjernsbekken" />
		<tag k="ssr:stedsnr" v="699960" />
		<tag k="waterway" v="stream" />
	</node>
	<node lat="60.23415555428215" lon="10.52052221649609" id="-18584">
		<tag k="alt_name" v="Sinnerseter" />
		<tag k="historic" v="shieling" />
		<tag k="name" v="Sindersætra" />
		<tag k="place" v="isolated_dwelling" />
		<tag k="ssr:stedsnr" v="611409" />
	</node>
	<node lat="60.371983332851386" lon="10.326002769183669" id="-18585">
		<tag k="name" v="Stormyrene" />
		<tag k="natural" v="wetland" />
		<tag k="ssr:stedsnr" v="611607" />
	</node>
	<node lat="60.35896111114348" lon="10.261113882969587" id="-18586">
		<tag k="alt_name" v="Samsjøputten, s;Søndre Samsjøputt" />
		<tag k="name" v="Søndre Samsjøputten" />
		<tag k="natural" v="water" />
		<tag k="ssr:stedsnr" v="611611" />
	</node>
	<node lat="60.38198055850294" lon="10.282250002699845" id="-18587">
		<tag k="name" v="Bikkjetjern" />
		<tag k="natural" v="water" />
		<tag k="ssr:stedsnr" v="612628" />
	</node>
	<node lat="60.265822218253575" lon="10.515341658708062" id="-18588">
		<tag k="alt_name" v="Olimbsbråtan;Olimbsbråten" />
		<tag k="name" v="Olumsbråtån" />
		<tag k="place" v="farm" />
		<tag k="ssr:stedsnr" v="612807" />
	</node>
	<node lat="60.278819446651916" lon="10.510958330370771" id="-18589">
		<tag k="name" v="Finnerud" />
		<tag k="place" v="farm" />
		<tag k="ssr:stedsnr" v="612828" />
	</node>
	<node lat="60.25550277647906" lon="10.480649997356043" id="-18590">
		<tag k="name" v="Sørum" />
		<tag k="place" v="farm" />
		<tag k="ssr:stedsnr" v="612774" />
	</node>
	<node lat="60.25101666411416" lon="10.445444448571793" id="-18591">
		<tag k="name" v="Skogtun" />
		<tag k="place" v="isolated_dwelling" />
		<tag k="ssr:stedsnr" v="612776" />
	</node>
	<node lat="60.26861389182423" lon="10.413408331875274" id="-18592">
		<tag k="name" v="Gullavika" />
		<tag k="natural" v="bay" />
		<tag k="ssr:stedsnr" v="612781" />
	</node>
	<node lat="60.35395278147834" lon="10.345172221806106" id="-18593">
		<tag k="fixme" v="consider natural=peak for the most distinct mountains in the district" />
		<tag k="name" v="Onsberget" />
		<tag k="natural" v="hill" />
		<tag k="place" v="locality" />
		<tag k="ssr:stedsnr" v="613068" />
	</node>
	<node lat="60.27335000104604" lon="10.31048332836455" id="-18594">
		<tag k="name" v="Nyseter" />
		<tag k="place" v="locality" />
		<tag k="ssr:stedsnr" v="701342" />
	</node>
	<node lat="60.29029800126805" lon="10.407933575000369" id="-18595">
		<tag k="alt_name" v="Roen" />
		<tag k="name" v="Skjeggerud" />
		<tag k="place" v="farm" />
		<tag k="ssr:stedsnr" v="701489" />
	</node>
	<node lat="60.20240277878964" lon="10.52203333453518" id="-18596">
		<tag k="name" v="Holovika" />
		<tag k="natural" v="bay" />
		<tag k="ssr:stedsnr" v="638993" />
	</node>
	<node lat="60.30994721832804" lon="10.333197214629987" id="-18597">
		<tag k="fixme" v="consider natural=peak for the most distinct mountains in the district" />
		<tag k="name" v="Myremarka" />
		<tag k="natural" v="hill" />
		<tag k="place" v="locality" />
		<tag k="ssr:stedsnr" v="705855" />
	</node>
	<node lat="60.3565888927236" lon="10.256586105131452" id="-18598">
		<tag k="name" v="Børklidalen" />
		<tag k="natural" v="valley" />
		<tag k="place" v="locality" />
		<tag k="ssr:stedsnr" v="644479" />
	</node>
	<node lat="60.281816664862994" lon="10.44794721757552" id="-18599">
		<tag k="name" v="Enerhaugen" />
		<tag k="place" v="farm" />
		<tag k="ssr:stedsnr" v="645113" />
	</node>
	<node lat="60.22749166767519" lon="10.35505277415759" id="-18600">
		<tag k="name" v="Firsprangsletta" />
		<tag k="place" v="locality" />
		<tag k="ssr:stedsnr" v="658580" />
	</node>
	<node lat="60.22231388659191" lon="10.369094447053008" id="-18601">
		<tag k="landuse" v="industrial" />
		<tag k="name" v="Kistefoss" />
		<tag k="power" v="plant" />
		<tag k="ssr:stedsnr" v="658582" />
	</node>
	<node lat="60.229666668745814" lon="10.381636111711922" id="-18602">
		<tag k="name" v="Stordalen" />
		<tag k="natural" v="valley" />
		<tag k="place" v="locality" />
		<tag k="ssr:stedsnr" v="664113" />
	</node>
	<node lat="60.33896110699942" lon="10.355766666927922" id="-18603">
		<tag k="name" v="Furulund" />
		<tag k="place" v="isolated_dwelling" />
		<tag k="ssr:stedsnr" v="665498" />
	</node>
	<node lat="60.233933288662854" lon="10.406694640295765" id="-18604">
		<tag k="alt_name" v="Moe" />
		<tag k="fixme" v="consider place=hamlet" />
		<tag k="name" v="Mo" />
		<tag k="place" v="farm" />
		<tag k="ssr:stedsnr" v="672369" />
	</node>
	<node lat="60.333619446745786" lon="10.337122216927543" id="-18605">
		<tag k="name" v="Sagbekken" />
		<tag k="ssr:stedsnr" v="673457" />
		<tag k="waterway" v="stream" />
	</node>
	<node lat="60.33358055657778" lon="10.270383328955369" id="-18606">
		<tag k="alt_name" v="Kolbotnhytta" />
		<tag k="name" v="Kolabotn" />
		<tag k="place" v="isolated_dwelling" />
		<tag k="ssr:stedsnr" v="673461" />
	</node>
	<node lat="60.30436436058614" lon="10.271260146726855" id="-18607">
		<tag k="name" v="Nordre Vælsvatnet" />
		<tag k="natural" v="water" />
		<tag k="ssr:stedsnr" v="673518" />
		<tag k="water" v="lake" />
	</node>
	<node lat="60.272711114688526" lon="10.339566659289478" id="-18608">
		<tag k="name" v="Saumyrdalen" />
		<tag k="natural" v="valley" />
		<tag k="place" v="locality" />
		<tag k="ssr:stedsnr" v="674407" />
	</node>
	<node lat="60.268772219790065" lon="10.31908611315163" id="-18609">
		<tag k="name" v="Puttmyrene" />
		<tag k="natural" v="wetland" />
		<tag k="ssr:stedsnr" v="674401" />
	</node>
	<node lat="60.29182138320894" lon="10.424065259386525" id="-18610">
		<tag k="alt_name" v="Nordenga;Nordengen" />
		<tag k="name" v="Kjellsrud" />
		<tag k="place" v="isolated_dwelling" />
		<tag k="ssr:stedsnr" v="674857" />
	</node>
	<node lat="60.311966452505594" lon="10.343878388870678" id="-18611">
		<tag k="fixme" v="consider place=hamlet" />
		<tag k="name" v="Myre" />
		<tag k="place" v="farm" />
		<tag k="ssr:stedsnr" v="674898" />
	</node>
	<node lat="60.367011115501995" lon="10.207886108836636" id="-18612">
		<tag k="man_made" v="cairn" />
		<tag k="name" v="Langebrurøysa" />
		<tag k="place" v="locality" />
		<tag k="ssr:stedsnr" v="694989" />
	</node>
	<node lat="60.218844440195745" lon="10.464655546532136" id="-18613">
		<tag k="name" v="Fossen" />
		<tag k="natural" v="waterfall" />
		<tag k="ssr:stedsnr" v="701734" />
	</node>
	<node lat="60.227077776218785" lon="10.338852773536589" id="-18614">
		<tag k="name" v="Skarflågan" />
		<tag k="natural" v="water" />
		<tag k="ssr:stedsnr" v="719587" />
	</node>
	<node lat="60.233336111008484" lon="10.34278610775202" id="-18615">
		<tag k="name" v="Håvardsbråtadalen" />
		<tag k="natural" v="valley" />
		<tag k="place" v="locality" />
		<tag k="ssr:stedsnr" v="719590" />
	</node>
	<node lat="60.25168888626602" lon="10.315152772636777" id="-18616">
		<tag k="alt_name" v="Buttentjennshaugen" />
		<tag k="name" v="Buttentjernshaugen" />
		<tag k="natural" v="hill" />
		<tag k="place" v="locality" />
		<tag k="ssr:stedsnr" v="719873" />
	</node>
	<node lat="60.3436222203422" lon="10.36099722060305" id="-18617">
		<tag k="name" v="Onsaker teglverk" />
		<tag k="place" v="locality" />
		<tag k="ssr:stedsnr" v="725673" />
	</node>
	<node lat="60.289300001595564" lon="10.350291666789486" id="-18618">
		<tag k="name" v="Larsbråtan" />
		<tag k="place" v="locality" />
		<tag k="ssr:stedsnr" v="901228" />
	</node>
	<node lat="60.36751388804258" lon="10.314605550526617" id="-18619">
		<tag k="name" v="Smaltarmen" />
		<tag k="natural" v="water" />
		<tag k="ssr:stedsnr" v="901441" />
	</node>
	<node lat="60.17154543400159" lon="10.517527396044713" id="-18620">
		<tag k="alt_name" v="Finntjernet" />
		<tag k="name" v="Finntjern" />
		<tag k="natural" v="water" />
		<tag k="ssr:stedsnr" v="733043" />
	</node>
	<node lat="60.222455553605386" lon="10.529616658902754" id="-18621">
		<tag k="alt_name" v="Torvmyra" />
		<tag k="name" v="Stavangermyra" />
		<tag k="natural" v="wetland" />
		<tag k="ssr:stedsnr" v="733436" />
	</node>
	<node lat="60.22384444045879" lon="10.387025006882947" id="-18622">
		<tag k="name" v="Kleggerud" />
		<tag k="place" v="farm" />
		<tag k="ssr:stedsnr" v="733440" />
	</node>
	<node lat="60.219180557186256" lon="10.423886110942183" id="-18623">
		<tag k="name" v="Moselva" />
		<tag k="ssr:stedsnr" v="733441" />
		<tag k="waterway" v="stream" />
	</node>
	<node lat="60.200536098221285" lon="10.466863282267484" id="-18624">
		<tag k="fixme" v="consider natural=peak for the most distinct mountains in the district" />
		<tag k="name" v="Langvassbrenna" />
		<tag k="natural" v="hill" />
		<tag k="place" v="locality" />
		<tag k="ssr:stedsnr" v="734489" />
	</node>
	<node lat="60.34340833450296" lon="10.33956944483475" id="-18625">
		<tag k="name" v="Svartbekken" />
		<tag k="ssr:stedsnr" v="734619" />
		<tag k="waterway" v="stream" />
	</node>
	<node lat="60.31470000248964" lon="10.299086103881828" id="-18626">
		<tag k="alt_name" v="Kløyvtjennsbekken" />
		<tag k="name" v="Kløvtjernsbekken" />
		<tag k="ssr:stedsnr" v="734530" />
		<tag k="waterway" v="stream" />
	</node>
	<node lat="60.266705552107425" lon="10.474630553098311" id="-18627">
		<tag k="name" v="Vangli" />
		<tag k="place" v="farm" />
		<tag k="ssr:stedsnr" v="734805" />
	</node>
	<node lat="60.31341666781711" lon="10.346736117733561" id="-18628">
		<tag k="name" v="Myrevoll" />
		<tag k="place" v="farm" />
		<tag k="ssr:stedsnr" v="734913" />
	</node>
	<node lat="60.24804721862316" lon="10.507238891548312" id="-18629">
		<tag k="name" v="Lushattdalen" />
		<tag k="natural" v="valley" />
		<tag k="place" v="locality" />
		<tag k="ssr:stedsnr" v="760915" />
	</node>
	<node lat="60.27661111144924" lon="10.528647214646535" id="-18630">
		<tag k="name" v="Liaputten" />
		<tag k="natural" v="water" />
		<tag k="ssr:stedsnr" v="760957" />
		<tag k="water" v="pond" />
	</node>
	<node lat="60.35653333588155" lon="10.2302111138911" id="-18631">
		<tag k="name" v="Fosshøgget" />
		<tag k="natural" v="hill" />
		<tag k="place" v="locality" />
		<tag k="ssr:stedsnr" v="906242" />
	</node>
	<node lat="60.30541388993738" lon="10.454024993043562" id="-18632">
		<tag k="name" v="Stensli" />
		<tag k="place" v="isolated_dwelling" />
		<tag k="ssr:stedsnr" v="906873" />
	</node>
	<node lat="60.27258055588829" lon="10.498583333999415" id="-18633">
		<tag k="alt_name" v="Olimbshagan;Olimbshagen;Olimhagen;Hagan" />
		<tag k="name" v="Olumshagan" />
		<tag k="place" v="farm" />
		<tag k="ssr:stedsnr" v="906839" />
	</node>
	<node lat="60.255355552381" lon="10.374966658232383" id="-18634">
		<tag k="name" v="Dølerud" />
		<tag k="place" v="farm" />
		<tag k="ssr:stedsnr" v="907076" />
	</node>
	<node lat="60.23815555443363" lon="10.40878055432826" id="-18635">
		<tag k="landuse" v="meadow" />
		<tag k="name" v="Stampeenga" />
		<tag k="ssr:stedsnr" v="907131" />
	</node>
	<node lat="60.233047223749494" lon="10.431133333556733" id="-18636">
		<tag k="name" v="Hauerbakken" />
		<tag k="place" v="locality" />
		<tag k="ssr:stedsnr" v="907194" />
	</node>
	<node lat="60.33344444360154" lon="10.344416662344068" id="-18637">
		<tag k="name" v="Båtflaten" />
		<tag k="place" v="isolated_dwelling" />
		<tag k="ssr:stedsnr" v="908489" />
	</node>
	<node lat="60.29326944492383" lon="10.341386108218497" id="-18638">
		<tag k="name" v="Roensbråtan" />
		<tag k="place" v="locality" />
		<tag k="ssr:stedsnr" v="780250" />
	</node>
	<node lat="60.37535000219764" lon="10.226986102821279" id="-18639">
		<tag k="fixme" v="consider boundary=protected_area and relevant protect_class if not nature reserve" />
		<tag k="leisure" v="nature_reserve" />
		<tag k="name" v="Samsjøberga naturreservat" />
		<tag k="ssr:stedsnr" v="909485" />
	</node>
	<node lat="60.25483055950891" lon="10.467574993663778" id="-18640">
		<tag k="name" v="Røstemarka" />
		<tag k="place" v="locality" />
		<tag k="ssr:stedsnr" v="786162" />
	</node>
	<node lat="60.20508611430534" lon="10.533341662671981" id="-18641">
		<tag k="alt_name" v="Sognsetra" />
		<tag k="historic" v="shieling" />
		<tag k="name" v="Sognsætra" />
		<tag k="place" v="isolated_dwelling" />
		<tag k="ssr:stedsnr" v="794429" />
	</node>
	<node lat="60.214203962236525" lon="10.544868140088994" id="-18642">
		<tag k="alt_name" v="Kolleren" />
		<tag k="fixme" v="consider natural=peak for the most distinct mountains in the district" />
		<tag k="name" v="Kollern" />
		<tag k="natural" v="hill" />
		<tag k="place" v="locality" />
		<tag k="ssr:stedsnr" v="794472" />
	</node>
	<node lat="60.264730551605446" lon="10.511555558566616" id="-18643">
		<tag k="alt_name" v="Langli" />
		<tag k="name" v="Langlia" />
		<tag k="place" v="farm" />
		<tag k="ssr:stedsnr" v="795808" />
	</node>
	<node lat="60.29524166517957" lon="10.467827779054561" id="-18644">
		<tag k="alt_name" v="Østre Vaterud" />
		<tag k="fixme" v="multiple name tags, choose one and add the other to alt_name" />
		<tag k="name" v="Løykebråtån;Østre Hvaterud" />
		<tag k="place" v="farm" />
		<tag k="ssr:stedsnr" v="795867" />
	</node>
	<node lat="60.28531111393912" lon="10.428097222489416" id="-18645">
		<tag k="name" v="Dokka" />
		<tag k="place" v="isolated_dwelling" />
		<tag k="ssr:stedsnr" v="795874" />
	</node>
	<node lat="60.3161555560976" lon="10.402044440379168" id="-18646">
		<tag k="name" v="Nordmarka" />
		<tag k="place" v="isolated_dwelling" />
		<tag k="ssr:stedsnr" v="795913" />
	</node>
	<node lat="60.24261242176373" lon="10.566092401168351" id="-18647">
		<tag k="name" v="Mylla" />
		<tag k="natural" v="water" />
		<tag k="ssr:stedsnr" v="915355" />
		<tag k="water" v="lake" />
	</node>
	<node lat="60.21962108579294" lon="10.52368964984803" id="-18648">
		<tag k="name" v="Ølja" />
		<tag k="natural" v="water" />
		<tag k="ssr:stedsnr" v="915458" />
		<tag k="water" v="lake" />
	</node>
	<node lat="60.34903055714454" lon="10.253180547240039" id="-18649">
		<tag k="name" v="Rundtjern" />
		<tag k="natural" v="water" />
		<tag k="ssr:stedsnr" v="915562" />
	</node>
	<node lat="60.34220788372231" lon="10.356172531522777" id="-18650">
		<tag k="fixme" v="consider place=hamlet" />
		<tag k="name" v="Onsaker" />
		<tag k="place" v="farm" />
		<tag k="ssr:stedsnr" v="916036" />
	</node>
	<node lat="60.277466664575826" lon="10.530141662001244" id="-18651">
		<tag k="alt_name" v="Prestlia" />
		<tag k="name" v="Lia" />
		<tag k="place" v="farm" />
		<tag k="ssr:stedsnr" v="916843" />
	</node>
	<node lat="60.275509336128884" lon="10.48843745385177" id="-18652">
		<tag k="fixme" v="consider place=hamlet" />
		<tag k="name" v="Kinge" />
		<tag k="place" v="farm" />
		<tag k="ssr:stedsnr" v="916858" />
	</node>
	<node lat="60.30175277884717" lon="10.273133330194597" id="-18653">
		<tag k="name" v="Søndre Moltemyrtangen" />
		<tag k="natural" v="cape" />
		<tag k="ssr:stedsnr" v="916505" />
	</node>
	<node lat="60.30848055953969" lon="10.344086118408088" id="-18654">
		<tag k="name" v="Volla" />
		<tag k="place" v="farm" />
		<tag k="ssr:stedsnr" v="916887" />
	</node>
	<node lat="60.34058333482019" lon="10.325016668293792" id="-18655">
		<tag k="name" v="Skålmyrbekken" />
		<tag k="ssr:stedsnr" v="916601" />
		<tag k="waterway" v="stream" />
	</node>
	<node lat="60.338666670378934" lon="10.313102772553847" id="-18656">
		<tag k="historic" v="shieling" />
		<tag k="name" v="Merramyrsætra" />
		<tag k="place" v="isolated_dwelling" />
		<tag k="ssr:stedsnr" v="916602" />
	</node>
	<node lat="60.34532500107438" lon="10.293730550085547" id="-18657">
		<tag k="name" v="Raberget" />
		<tag k="natural" v="hill" />
		<tag k="place" v="locality" />
		<tag k="ssr:stedsnr" v="916606" />
	</node>
	<node lat="60.240869447983385" lon="10.50858610434164" id="-18658">
		<tag k="name" v="Slettdalen" />
		<tag k="natural" v="valley" />
		<tag k="place" v="locality" />
		<tag k="ssr:stedsnr" v="821883" />
	</node>
	<node lat="60.17767499749918" lon="10.51643610441241" id="-18659">
		<tag k="name" v="Pershusøya" />
		<tag k="place" v="island" />
		<tag k="ssr:stedsnr" v="821920" />
	</node>
	<node lat="60.25535000111509" lon="10.495052774136903" id="-18660">
		<tag k="name" v="Torvet" />
		<tag k="place" v="locality" />
		<tag k="ssr:stedsnr" v="821928" />
	</node>
	<node lat="60.2052500035921" lon="10.476049996308179" id="-18661">
		<tag k="name" v="Seksputtmyrene" />
		<tag k="natural" v="wetland" />
		<tag k="ssr:stedsnr" v="823611" />
	</node>
	<node lat="60.30548947459232" lon="10.446620820788294" id="-18662">
		<tag k="fixme" v="consider place=hamlet" />
		<tag k="name" v="Rustad" />
		<tag k="place" v="farm" />
		<tag k="ssr:stedsnr" v="845889" />
	</node>
	<node lat="60.22893612860746" lon="10.415401113417865" id="-18663">
		<tag k="fixme" v="consider place=hamlet" />
		<tag k="name" v="Opperud" />
		<tag k="place" v="farm" />
		<tag k="ssr:stedsnr" v="855394" />
	</node>
	<node lat="60.390983329581765" lon="10.226769439055648" id="-18664">
		<tag k="alt_name" v="Kubruputta" />
		<tag k="name" v="Kubruputtane" />
		<tag k="natural" v="water" />
		<tag k="ssr:stedsnr" v="855489" />
	</node>
	<node lat="60.3637055542019" lon="10.320202783339736" id="-18665">
		<tag k="name" v="Hutjern" />
		<tag k="natural" v="water" />
		<tag k="ssr:stedsnr" v="855609" />
	</node>
	<node lat="60.35651110773187" lon="10.305791671772088" id="-18666">
		<tag k="name" v="Kjørsletjern" />
		<tag k="natural" v="water" />
		<tag k="ssr:stedsnr" v="855610" />
	</node>
	<node lat="60.35474722017267" lon="10.279602771456117" id="-18667">
		<tag k="fixme" v="consider natural=peak for the most distinct mountains in the district" />
		<tag k="name" v="Kjerringåsen" />
		<tag k="natural" v="hill" />
		<tag k="place" v="locality" />
		<tag k="ssr:stedsnr" v="855594" />
	</node>
	<node lat="60.247382791917694" lon="10.320385909276562" id="-18668">
		<tag k="name" v="Kniptjern" />
		<tag k="natural" v="water" />
		<tag k="ssr:stedsnr" v="855993" />
	</node>
	<node lat="60.39215000189815" lon="10.263233325920027" id="-18669">
		<tag k="alt_name" v="Bergervatnet" />
		<tag k="name" v="Bergevatnet" />
		<tag k="natural" v="water" />
		<tag k="ssr:stedsnr" v="856314" />
	</node>
	<node lat="60.31196666844853" lon="10.398555560646288" id="-18670">
		<tag k="name" v="Svartbekken" />
		<tag k="ssr:stedsnr" v="856682" />
		<tag k="waterway" v="stream" />
	</node>
	<node lat="60.1986861080551" lon="10.554780556216594" id="-18671">
		<tag k="historic" v="shieling" />
		<tag k="name" v="Roensetra" />
		<tag k="place" v="isolated_dwelling" />
		<tag k="ssr:stedsnr" v="882258" />
	</node>
	<node lat="60.18831666572645" lon="10.532286103608776" id="-18672">
		<tag k="name" v="Holoputten" />
		<tag k="natural" v="water" />
		<tag k="ssr:stedsnr" v="882906" />
		<tag k="water" v="pond" />
	</node>
	<node lat="60.19269722412254" lon="10.510558326520732" id="-18673">
		<tag k="name" v="Skarvannsoppganga" />
		<tag k="place" v="locality" />
		<tag k="ssr:stedsnr" v="882913" />
	</node>
	<node lat="60.21736944897851" lon="10.502497219598311" id="-18674">
		<tag k="alt_name" v="Svarttjennslia" />
		<tag k="name" v="Svarttjernslia" />
		<tag k="natural" v="slope" />
		<tag k="place" v="locality" />
		<tag k="ssr:stedsnr" v="882951" />
	</node>
	<node lat="60.19907222084099" lon="10.4641611194675" id="-18675">
		<tag k="fixme" v="consider natural=peak for the most distinct mountains in the district" />
		<tag k="name" v="Brannen" />
		<tag k="natural" v="hill" />
		<tag k="place" v="locality" />
		<tag k="ssr:stedsnr" v="883705" />
	</node>
	<node lat="60.21334999892016" lon="10.477469442040402" id="-18676">
		<tag k="name" v="Myrheimdalen" />
		<tag k="natural" v="valley" />
		<tag k="place" v="locality" />
		<tag k="ssr:stedsnr" v="883750" />
	</node>
	<node lat="60.25246944557224" lon="10.309588897182094" id="-18677">
		<tag k="name" v="Buttenheim" />
		<tag k="place" v="isolated_dwelling" />
		<tag k="ssr:stedsnr" v="884251" />
	</node>
	<node lat="60.27371111326956" lon="10.450122227169398" id="-18678">
		<tag k="name" v="Kårstadstua" />
		<tag k="place" v="isolated_dwelling" />
		<tag k="ssr:stedsnr" v="889005" />
	</node>
	<node lat="60.26761666981083" lon="10.433291670619262" id="-18679">
		<tag k="name" v="Vangsmoen" />
		<tag k="natural" v="slope" />
		<tag k="place" v="locality" />
		<tag k="ssr:stedsnr" v="889920" />
	</node>
	<node lat="60.236772220748904" lon="10.367655553953878" id="-18680">
		<tag k="bridge" v="yes" />
		<tag k="layer" v="1" />
		<tag k="name" v="Bergerbakken" />
		<tag k="ssr:stedsnr" v="896066" />
	</node>
	<node lat="60.30453055677512" lon="10.33720278619494" id="-18681">
		<tag k="name" v="Gransberget" />
		<tag k="natural" v="hill" />
		<tag k="place" v="locality" />
		<tag k="ssr:stedsnr" v="901263" />
	</node>
	<node lat="60.37228611147265" lon="10.209925008553352" id="-18682">
		<tag k="fixme" v="consider natural=peak for the most distinct mountains in the district" />
		<tag k="name" v="Søndre Klæstad" />
		<tag k="natural" v="hill" />
		<tag k="place" v="locality" />
		<tag k="ssr:stedsnr" v="901373" />
	</node>
	<node lat="60.22564722209382" lon="10.403438889814833" id="-18683">
		<tag k="name" v="Hesjebråtalia" />
		<tag k="natural" v="slope" />
		<tag k="place" v="locality" />
		<tag k="ssr:stedsnr" v="907150" />
	</node>
	<node lat="60.24607499702032" lon="10.482158333734862" id="-18684">
		<tag k="name" v="Kolhus" />
		<tag k="place" v="locality" />
		<tag k="ssr:stedsnr" v="907153" />
	</node>
	<node lat="60.259758336877354" lon="10.466294440033893" id="-18685">
		<tag k="name" v="Brennaelva" />
		<tag k="ssr:stedsnr" v="907162" />
		<tag k="waterway" v="river" />
	</node>
	<node lat="60.237672220428585" lon="10.396658327047067" id="-18686">
		<tag k="building" v="industrial" />
		<tag k="industrial" v="factory" />
		<tag k="name" v="Hadeland Glassverk" />
		<tag k="old_name" v="Hadelands glassverk" />
		<tag k="ssr:stedsnr" v="915379" />
	</node>
	<node lat="60.370180552071126" lon="10.23736111061034" id="-18687">
		<tag k="name" v="Hammarlangtjernet" />
		<tag k="natural" v="water" />
		<tag k="ssr:stedsnr" v="915594" />
	</node>
	<node lat="60.37094721978853" lon="10.352822229569195" id="-18688">
		<tag k="name" v="Vik" />
		<tag k="place" v="farm" />
		<tag k="ssr:stedsnr" v="916105" />
	</node>
	<node lat="60.20647221936665" lon="10.49710554815021" id="-18689">
		<tag k="name" v="Abrahamshaugen" />
		<tag k="natural" v="hill" />
		<tag k="place" v="locality" />
		<tag k="ssr:stedsnr" v="916468" />
	</node>
	<node lat="60.18530278053964" lon="10.484383332277375" id="-18690">
		<tag k="alt_name" v="Sinnerbrenna" />
		<tag k="fixme" v="consider natural=peak for the most distinct mountains in the district" />
		<tag k="name" v="Sinderbrenna" />
		<tag k="natural" v="hill" />
		<tag k="place" v="locality" />
		<tag k="ssr:stedsnr" v="916477" />
	</node>
	<node lat="60.316191669867855" lon="10.279869439980727" id="-18691">
		<tag k="alt_name" v="Borstuvannet" />
		<tag k="name" v="Borstuvatnet" />
		<tag k="natural" v="water" />
		<tag k="ssr:stedsnr" v="916488" />
	</node>
	<node lat="60.30744999580852" lon="10.323130549537533" id="-18692">
		<tag k="alt_name" v="Sørumseter" />
		<tag k="historic" v="shieling" />
		<tag k="name" v="Sørumsætra" />
		<tag k="place" v="isolated_dwelling" />
		<tag k="ssr:stedsnr" v="916523" />
	</node>
	<node lat="60.30028055265121" lon="10.297483327374904" id="-18693">
		<tag k="alt_name" v="Flekkerøymyra" />
		<tag k="name" v="Flekkrøymyra" />
		<tag k="natural" v="wetland" />
		<tag k="ssr:stedsnr" v="916526" />
	</node>
	<node lat="60.38963611345281" lon="10.201091664424826" id="-18694">
		<tag k="name" v="Hadelandsbekken" />
		<tag k="ssr:stedsnr" v="916534" />
		<tag k="waterway" v="stream" />
	</node>
	<node lat="60.28434722014129" lon="10.439850007120999" id="-18695">
		<tag k="name" v="Engerstykket" />
		<tag k="place" v="isolated_dwelling" />
		<tag k="ssr:stedsnr" v="916878" />
	</node>
	<node lat="60.39198055713746" lon="10.254702785541568" id="-18696">
		<tag k="name" v="Sandungen" />
		<tag k="natural" v="water" />
		<tag k="ssr:stedsnr" v="917258" />
	</node>
	<node lat="60.311383335401615" lon="10.402977778902338" id="-18697">
		<tag k="alt_name" v="Rudsbråtan" />
		<tag k="name" v="Rudsbråtån" />
		<tag k="place" v="farm" />
		<tag k="ssr:stedsnr" v="917905" />
	</node>
	<node lat="60.2366722204546" lon="10.351863887528033" id="-18698">
		<tag k="name" v="Styggdalen" />
		<tag k="natural" v="valley" />
		<tag k="place" v="locality" />
		<tag k="ssr:stedsnr" v="961635" />
	</node>
	<node lat="60.267886111176765" lon="10.338283336269917" id="-18699">
		<tag k="name" v="Saumyra" />
		<tag k="natural" v="wetland" />
		<tag k="ssr:stedsnr" v="962897" />
	</node>
	<node lat="60.213544442641386" lon="10.45270278182104" id="-18700">
		<tag k="alt_name" v="Branntjenn;Branntjernet" />
		<tag k="name" v="Branntjern" />
		<tag k="natural" v="water" />
		<tag k="old_name" v="Brandtjern" />
		<tag k="ssr:stedsnr" v="963534" />
	</node>
	<node lat="60.22930833391816" lon="10.396013895931077" id="-18701">
		<tag k="name" v="Jordbrudalen" />
		<tag k="natural" v="valley" />
		<tag k="place" v="locality" />
		<tag k="ssr:stedsnr" v="968137" />
	</node>
	<node lat="60.23791944622952" lon="10.424880554377665" id="-18702">
		<tag k="amenity" v="school" />
		<tag k="name" v="Toso skole" />
		<tag k="ssr:stedsnr" v="968143" />
	</node>
	<node lat="60.20076680251289" lon="10.462341071223676" id="-18703">
		<tag k="fixme" v="consider boundary=protected_area and relevant protect_class if not nature reserve" />
		<tag k="leisure" v="nature_reserve" />
		<tag k="name" v="Langvassbrenna naturreservat" />
		<tag k="ssr:stedsnr" v="971441" />
	</node>
	<node lat="60.2927793151587" lon="10.280426167141462" id="-18704">
		<tag k="name" v="Vælsvatna" />
		<tag k="natural" v="water" />
		<tag k="ssr:stedsnr" v="978099" />
		<tag k="water" v="lake" />
	</node>
	<node lat="60.301580796673036" lon="10.441605629315925" id="-18705">
		<tag k="name" v="Eng" />
		<tag k="place" v="farm" />
		<tag k="ssr:stedsnr" v="987352" />
	</node>
	<node lat="60.30472731421445" lon="10.421574475508924" id="-18706">
		<tag k="name" v="Sogn" />
		<tag k="place" v="farm" />
		<tag k="ssr:stedsnr" v="987355" />
	</node>
	<node lat="60.304394409100496" lon="10.418796975329949" id="-18707">
		<tag k="name" v="Sogn" />
		<tag k="place" v="farm" />
		<tag k="ssr:stedsnr" v="987360" />
	</node>
	<node lat="60.30431708625779" lon="10.417734461868994" id="-18708">
		<tag k="name" v="Sogn" />
		<tag k="place" v="farm" />
		<tag k="ssr:stedsnr" v="987361" />
	</node>
	<node lat="60.30487443205356" lon="10.415445827264024" id="-18709">
		<tag k="name" v="Sognebu" />
		<tag k="place" v="farm" />
		<tag k="ssr:stedsnr" v="987362" />
	</node>
	<node lat="60.30461525084303" lon="10.41356287637336" id="-18710">
		<tag k="name" v="Engeli" />
		<tag k="place" v="farm" />
		<tag k="ssr:stedsnr" v="987363" />
	</node>
	<node lat="60.29169482789092" lon="10.420000654417777" id="-18711">
		<tag k="name" v="Nordengen" />
		<tag k="place" v="farm" />
		<tag k="ssr:stedsnr" v="987364" />
	</node>
	<node lat="60.22992778219451" lon="10.532027779295177" id="-18712">
		<tag k="name" v="Trantjernet" />
		<tag k="natural" v="water" />
		<tag k="ssr:stedsnr" v="5378" />
	</node>
	<node lat="60.197886106730124" lon="10.454566674570652" id="-18713">
		<tag k="name" v="Øvre Stormyra" />
		<tag k="natural" v="wetland" />
		<tag k="ssr:stedsnr" v="5438" />
	</node>
	<node lat="60.199161109192985" lon="10.527211107096585" id="-18714">
		<tag k="name" v="Bikkjeputten" />
		<tag k="natural" v="water" />
		<tag k="ssr:stedsnr" v="5442" />
	</node>
	<node lat="60.366091666886454" lon="10.259199997689379" id="-18715">
		<tag k="alt_name" v="Samsjøputten, nordre;Nordre Samsjøputt" />
		<tag k="name" v="Nordre Samsjøputten" />
		<tag k="natural" v="water" />
		<tag k="ssr:stedsnr" v="5589" />
	</node>
	<node lat="60.35887500066792" lon="10.287419441825165" id="-18716">
		<tag k="name" v="Langtjernshytta" />
		<tag k="place" v="isolated_dwelling" />
		<tag k="ssr:stedsnr" v="5590" />
	</node>
	<node lat="60.33880277817829" lon="10.352841668136215" id="-18717">
		<tag k="name" v="Halvorsbøle" />
		<tag k="ssr:stedsnr" v="6039" />
		<tag k="tourism" v="hotel" />
	</node>
	<node lat="60.26662500378292" lon="10.529916671236492" id="-18718">
		<tag k="name" v="Halvorsrudbekken" />
		<tag k="place" v="isolated_dwelling" />
		<tag k="ssr:stedsnr" v="6818" />
	</node>
	<node lat="60.277625002452325" lon="10.434672214507557" id="-18719">
		<tag k="alt_name" v="Skjennum, s" />
		<tag k="name" v="Søndre Skjennum" />
		<tag k="place" v="farm" />
		<tag k="ssr:stedsnr" v="6842" />
	</node>
	<node lat="60.28080915173487" lon="10.437819940548573" id="-18720">
		<tag k="fixme" v="consider place=hamlet" />
		<tag k="name" v="Falteinsrud" />
		<tag k="place" v="farm" />
		<tag k="ssr:stedsnr" v="6843" />
	</node>
	<node lat="60.27439942400928" lon="10.480523010296178" id="-18721">
		<tag k="fixme" v="consider place=hamlet" />
		<tag k="name" v="Gårdsrud" />
		<tag k="place" v="farm" />
		<tag k="ssr:stedsnr" v="6846" />
	</node>
	<node lat="60.3109861103922" lon="10.429900001332605" id="-18722">
		<tag k="alt_name" v="Velohagan" />
		<tag k="name" v="Hagan" />
		<tag k="place" v="isolated_dwelling" />
		<tag k="ssr:stedsnr" v="6941" />
	</node>
	<node lat="60.25863508886913" lon="10.4290155955042" id="-18723">
		<tag k="alt_name" v="Vang, øvre" />
		<tag k="fixme" v="consider place=hamlet" />
		<tag k="name" v="Øvre Vang" />
		<tag k="place" v="farm" />
		<tag k="ssr:stedsnr" v="6779" />
	</node>
	<node lat="60.25461666692349" lon="10.507791657755101" id="-18724">
		<tag k="alt_name" v="Slåttbråtan" />
		<tag k="historic" v="shieling" />
		<tag k="name" v="Slåttbråtån" />
		<tag k="place" v="isolated_dwelling" />
		<tag k="ssr:stedsnr" v="6790" />
	</node>
	<node lat="60.27170000272985" lon="10.457824993352691" id="-18725">
		<tag k="name" v="Kårstadtjernet" />
		<tag k="natural" v="water" />
		<tag k="ssr:stedsnr" v="6795" />
	</node>
	<node lat="60.26948888726947" lon="10.473925005444235" id="-18726">
		<tag k="name" v="Ragnhildrud" />
		<tag k="place" v="isolated_dwelling" />
		<tag k="ssr:stedsnr" v="6797" />
	</node>
	<node lat="60.274374744288835" lon="10.469690999558209" id="-18727">
		<tag k="alt_name" v="Greftegreff" />
		<tag k="name" v="Greftegrev" />
		<tag k="place" v="hamlet" />
		<tag k="ssr:stedsnr" v="6798" />
	</node>
	<node lat="60.293491662421275" lon="10.457022229874985" id="-18728">
		<tag k="alt_name" v="Hvaterud, vestre;Vestre Vaterud" />
		<tag k="name" v="Vestre Hvaterud" />
		<tag k="place" v="farm" />
		<tag k="ssr:stedsnr" v="6866" />
	</node>
	<node lat="60.335547224602614" lon="10.348705549446548" id="-18729">
		<tag k="name" v="Engeli" />
		<tag k="place" v="locality" />
		<tag k="ssr:stedsnr" v="6999" />
	</node>
	<node lat="60.25737222522226" lon="10.491191659988411" id="-18730">
		<tag k="name" v="Østby" />
		<tag k="place" v="farm" />
		<tag k="ssr:stedsnr" v="32934" />
	</node>
	<node lat="60.25894166466279" lon="10.495822228069477" id="-18731">
		<tag k="name" v="Orhagen" />
		<tag k="place" v="locality" />
		<tag k="ssr:stedsnr" v="32938" />
	</node>
	<node lat="60.27671111396299" lon="10.500163893217955" id="-18732">
		<tag k="name" v="Tronrud" />
		<tag k="place" v="farm" />
		<tag k="ssr:stedsnr" v="32958" />
	</node>
	<node lat="60.29011666882102" lon="10.482808339927905" id="-18733">
		<tag k="name" v="Markatjernet" />
		<tag k="natural" v="water" />
		<tag k="ssr:stedsnr" v="34283" />
	</node>
	<node lat="60.215463886237345" lon="10.427449999720753" id="-18734">
		<tag k="name" v="Sagfoss-sletta" />
		<tag k="place" v="locality" />
		<tag k="ssr:stedsnr" v="34852" />
	</node>
	<node lat="60.358941665479016" lon="10.310997220664204" id="-18735">
		<tag k="name" v="Utgravningstjernet" />
		<tag k="natural" v="water" />
		<tag k="ssr:stedsnr" v="38460" />
		<tag k="water" v="lake" />
	</node>
	<node lat="60.367938889657744" lon="10.282013885388858" id="-18736">
		<tag k="name" v="Rundøyputten" />
		<tag k="natural" v="water" />
		<tag k="ssr:stedsnr" v="38454" />
		<tag k="water" v="pond" />
	</node>
	<node lat="60.37370277625512" lon="10.233486115414747" id="-18737">
		<tag k="name" v="Langtjernputten" />
		<tag k="natural" v="water" />
		<tag k="ssr:stedsnr" v="51412" />
	</node>
	<node lat="60.37891666611083" lon="10.226011103003062" id="-18738">
		<tag k="name" v="Sjursholen" />
		<tag k="natural" v="hill" />
		<tag k="place" v="locality" />
		<tag k="ssr:stedsnr" v="51427" />
	</node>
	<node lat="60.233163892642104" lon="10.335822227114049" id="-18739">
		<tag k="name" v="Snøplogdalen" />
		<tag k="natural" v="valley" />
		<tag k="place" v="locality" />
		<tag k="ssr:stedsnr" v="51652" />
	</node>
	<node lat="60.27209444775035" lon="10.314094438637612" id="-18740">
		<tag k="name" v="Trettestykke" />
		<tag k="natural" v="wetland" />
		<tag k="ssr:stedsnr" v="52896" />
	</node>
	<node lat="60.266808336908454" lon="10.482355548084238" id="-18741">
		<tag k="alt_name" v="Olum vestre;Olum vestre og mellom;Vestre Olimb" />
		<tag k="loc_name" v="Vestgarden" />
		<tag k="name" v="Vestre Olum" />
		<tag k="old_name" v="Olum vestre og mellem" />
		<tag k="place" v="farm" />
		<tag k="ssr:stedsnr" v="55924" />
	</node>
	<node lat="60.29446209062915" lon="10.422240456364305" id="-18742">
		<tag k="alt_name" v="Lunndal" />
		<tag k="name" v="Lurendal" />
		<tag k="natural" v="valley" />
		<tag k="place" v="locality" />
		<tag k="ssr:stedsnr" v="56852" />
	</node>
	<node lat="60.22636111376416" lon="10.444111116141604" id="-18743">
		<tag k="name" v="Masseløkka" />
		<tag k="place" v="locality" />
		<tag k="ssr:stedsnr" v="58436" />
	</node>
	<node lat="60.22241944360801" lon="10.370338892162692" id="-18744">
		<tag k="name" v="Kistefoss" />
		<tag k="place" v="farm" />
		<tag k="ssr:stedsnr" v="66445" />
	</node>
	<node lat="60.22603333511999" lon="10.348805547631647" id="-18745">
		<tag k="loc_name" v="Bergemoen" />
		<tag k="name" v="Bergermoen" />
		<tag k="place" v="quarter" />
		<tag k="ssr:stedsnr" v="66447" />
	</node>
	<node lat="60.17630000107917" lon="10.492499997430308" id="-18746">
		<tag k="alt_name" v="Store Sinnera;Sinnera" />
		<tag k="name" v="Store Sindera" />
		<tag k="natural" v="water" />
		<tag k="ssr:stedsnr" v="66036" />
	</node>
	<node lat="60.19030833573597" lon="10.496927785861649" id="-18747">
		<tag k="alt_name" v="Øvre Sinnerputten" />
		<tag k="name" v="Øvre Sinderputten" />
		<tag k="natural" v="water" />
		<tag k="ssr:stedsnr" v="66058" />
	</node>
	<node lat="60.258542133853226" lon="10.465665409262565" id="-18748">
		<tag k="fixme" v="consider place=hamlet" />
		<tag k="name" v="Røste" />
		<tag k="place" v="farm" />
		<tag k="ssr:stedsnr" v="67762" />
	</node>
	<node lat="60.26135833643746" lon="10.427469435932089" id="-18749">
		<tag k="name" v="Skogheim" />
		<tag k="place" v="isolated_dwelling" />
		<tag k="ssr:stedsnr" v="67764" />
	</node>
	<node lat="60.25418888982846" lon="10.47777222801042" id="-18750">
		<tag k="alt_name" v="Gullenbråtan" />
		<tag k="name" v="Gullenbråtån" />
		<tag k="place" v="farm" />
		<tag k="ssr:stedsnr" v="67775" />
	</node>
	<node lat="60.25581250278969" lon="10.446767703931394" id="-18751">
		<tag k="alt_name" v="Bratval" />
		<tag k="fixme" v="consider place=hamlet" />
		<tag k="name" v="Brattval" />
		<tag k="place" v="farm" />
		<tag k="ssr:stedsnr" v="67776" />
	</node>
	<node lat="60.33759167048641" lon="10.308133331528218" id="-18752">
		<tag k="name" v="Kroktjern" />
		<tag k="natural" v="water" />
		<tag k="ssr:stedsnr" v="67469" />
	</node>
	<node lat="60.32914639232347" lon="10.341665105772783" id="-18753">
		<tag k="alt_name" v="Skutseter" />
		<tag k="fixme" v="consider place=hamlet" />
		<tag k="name" v="Skutsæter" />
		<tag k="place" v="farm" />
		<tag k="ssr:stedsnr" v="67475" />
	</node>
	<node lat="60.30722499901713" lon="10.284875005145892" id="-18754">
		<tag k="name" v="Smalkalven" />
		<tag k="natural" v="bay" />
		<tag k="ssr:stedsnr" v="67534" />
	</node>
	<node lat="60.30399444555059" lon="10.39469167304776" id="-18755">
		<tag k="name" v="Dal" />
		<tag k="place" v="farm" />
		<tag k="ssr:stedsnr" v="67875" />
	</node>
	<node lat="60.30515833484599" lon="10.466891675734441" id="-18756">
		<tag k="alt_name" v="Bråtatjernet" />
		<tag k="name" v="Bråtåtjernet" />
		<tag k="natural" v="water" />
		<tag k="ssr:stedsnr" v="67886" />
	</node>
	<node lat="60.25067499749801" lon="10.30925000235329" id="-18757">
		<tag k="name" v="Skillebekken" />
		<tag k="ssr:stedsnr" v="87790" />
		<tag k="waterway" v="stream" />
	</node>
	<node lat="60.30788888631731" lon="10.45420278657062" id="-18758">
		<tag k="name" v="Midtlia" />
		<tag k="place" v="locality" />
		<tag k="ssr:stedsnr" v="90145" />
	</node>
	<node lat="60.308486106769934" lon="10.43216666116547" id="-18759">
		<tag k="name" v="Øvre Velo" />
		<tag k="place" v="farm" />
		<tag k="ssr:stedsnr" v="90148" />
	</node>
	<node lat="60.18596666605939" lon="10.533794438108618" id="-18760">
		<tag k="name" v="Kloppmyrene" />
		<tag k="natural" v="wetland" />
		<tag k="ssr:stedsnr" v="93887" />
	</node>
	<node lat="60.190272218233176" lon="10.524252773146976" id="-18761">
		<tag k="name" v="Mariputten" />
		<tag k="natural" v="water" />
		<tag k="ssr:stedsnr" v="93888" />
		<tag k="water" v="pond" />
	</node>
	<node lat="60.206752775964226" lon="10.502855556257305" id="-18762">
		<tag k="name" v="Abrahamsløkka" />
		<tag k="place" v="locality" />
		<tag k="ssr:stedsnr" v="93929" />
	</node>
	<node lat="60.28306388953713" lon="10.5222638917453" id="-18763">
		<tag k="name" v="Hallumsbekken" />
		<tag k="ssr:stedsnr" v="93945" />
		<tag k="waterway" v="stream" />
	</node>
	<node lat="60.2513694459607" lon="10.50799166980639" id="-18764">
		<tag k="name" v="Vanntroa" />
		<tag k="natural" v="spring" />
		<tag k="ssr:stedsnr" v="93904" />
	</node>
	<node lat="60.21516666965343" lon="10.407033340541311" id="-18765">
		<tag k="name" v="Skollerud" />
		<tag k="place" v="locality" />
		<tag k="ssr:stedsnr" v="95884" />
	</node>
	<node lat="60.28218889814347" lon="10.509683683152485" id="-18766">
		<tag k="alt_name" v="Endsrud;Ensrud" />
		<tag k="fixme" v="consider place=hamlet" />
		<tag k="name" v="Prest-Ensrud" />
		<tag k="old_name" v="Præst-Ensrud;Præstensrud" />
		<tag k="place" v="farm" />
		<tag k="ssr:stedsnr" v="102845" />
	</node>
	<node lat="60.23888888979807" lon="10.370377769417988" id="-18767">
		<tag k="bridge" v="yes" />
		<tag k="layer" v="1" />
		<tag k="name" v="Sulland" />
		<tag k="ssr:stedsnr" v="107061" />
	</node>
	<node lat="60.25326388829642" lon="10.347141671791386" id="-18768">
		<tag k="name" v="Midtbråtan" />
		<tag k="place" v="locality" />
		<tag k="ssr:stedsnr" v="112994" />
	</node>
	<node lat="60.230736114138864" lon="10.363444439362397" id="-18769">
		<tag k="name" v="Puttemyra" />
		<tag k="natural" v="wetland" />
		<tag k="ssr:stedsnr" v="112583" />
	</node>
	<node lat="60.27546111533725" lon="10.367308341801495" id="-18770">
		<tag k="name" v="Trengslebergvollen" />
		<tag k="place" v="locality" />
		<tag k="ssr:stedsnr" v="112598" />
	</node>
	<node lat="60.326044443960974" lon="10.26114722591449" id="-18771">
		<tag k="name" v="Midtskauhøgda" />
		<tag k="natural" v="hill" />
		<tag k="place" v="locality" />
		<tag k="ssr:stedsnr" v="112834" />
	</node>
	<node lat="60.24048055314643" lon="10.357925002718" id="-18772">
		<tag k="name" v="Grane" />
		<tag k="place" v="farm" />
		<tag k="ssr:stedsnr" v="113741" />
	</node>
	<node lat="60.2395888855523" lon="10.367572227939023" id="-18773">
		<tag k="amenity" v="school" />
		<tag k="name" v="Jevnaker skole" />
		<tag k="ssr:stedsnr" v="113746" />
	</node>
	<node lat="60.22666389152456" lon="10.390394440099044" id="-18774">
		<tag k="name" v="Midtmoen" />
		<tag k="place" v="locality" />
		<tag k="ssr:stedsnr" v="118139" />
	</node>
	<node lat="60.2570106413478" lon="10.437657828102088" id="-18775">
		<tag k="fixme" v="consider place=hamlet" />
		<tag k="name" v="Prestegården" />
		<tag k="place" v="farm" />
		<tag k="ssr:stedsnr" v="118146" />
	</node>
	<node lat="60.238330556307375" lon="10.354911108245574" id="-18776">
		<tag k="amenity" v="school" />
		<tag k="name" v="Bergerbakken skole" />
		<tag k="ssr:stedsnr" v="119153" />
	</node>
	<node lat="60.231769444953486" lon="10.53416387992259" id="-18777">
		<tag k="name" v="Trantjern" />
		<tag k="place" v="farm" />
		<tag k="ssr:stedsnr" v="126388" />
	</node>
	<node lat="60.212822225410754" lon="10.499405549507031" id="-18778">
		<tag k="alt_name" v="Skjennumsetra" />
		<tag k="historic" v="shieling" />
		<tag k="name" v="Skjennumsætra" />
		<tag k="place" v="isolated_dwelling" />
		<tag k="ssr:stedsnr" v="126486" />
	</node>
	<node lat="60.20583055274493" lon="10.470219442722913" id="-18779">
		<tag k="fixme" v="consider natural=peak for the most distinct mountains in the district" />
		<tag k="name" v="Seksputthøgda" />
		<tag k="natural" v="hill" />
		<tag k="place" v="locality" />
		<tag k="ssr:stedsnr" v="126437" />
	</node>
	<node lat="60.20668333396619" lon="10.443372222179505" id="-18780">
		<tag k="historic" v="shieling" />
		<tag k="name" v="Mosætra" />
		<tag k="place" v="isolated_dwelling" />
		<tag k="ssr:stedsnr" v="126438" />
	</node>
	<node lat="60.20434673613137" lon="10.521890004861085" id="-18781">
		<tag k="name" v="Tverrsjøen" />
		<tag k="natural" v="water" />
		<tag k="ssr:stedsnr" v="126439" />
		<tag k="water" v="lake" />
	</node>
	<node lat="60.35930833750265" lon="10.292308329769305" id="-18782">
		<tag k="name" v="Blekketjern" />
		<tag k="natural" v="water" />
		<tag k="ssr:stedsnr" v="126591" />
	</node>
	<node lat="60.38005555579591" lon="10.295774993792739" id="-18783">
		<tag k="name" v="Otermyrbakken" />
		<tag k="place" v="isolated_dwelling" />
		<tag k="ssr:stedsnr" v="127658" />
	</node>
	<node lat="60.31336389045093" lon="10.287958333895805" id="-18784">
		<tag k="name" v="Svarttjernsmyra" />
		<tag k="natural" v="wetland" />
		<tag k="ssr:stedsnr" v="127528" />
	</node>
	<node lat="60.3147833305344" lon="10.305744448075833" id="-18785">
		<tag k="fixme" v="consider natural=peak for the most distinct mountains in the district" />
		<tag k="name" v="Mjørbråtahaugane" />
		<tag k="natural" v="hill" />
		<tag k="place" v="locality" />
		<tag k="ssr:stedsnr" v="127530" />
	</node>
	<node lat="60.254186113304044" lon="10.375099997797875" id="-18786">
		<tag k="name" v="Tokerud" />
		<tag k="place" v="farm" />
		<tag k="ssr:stedsnr" v="127778" />
	</node>
	<node lat="60.29772222665338" lon="10.456069446181834" id="-18787">
		<tag k="name" v="Nordli" />
		<tag k="place" v="farm" />
		<tag k="ssr:stedsnr" v="127873" />
	</node>
	<node lat="60.26525774886654" lon="10.461222621539985" id="-18788">
		<tag k="fixme" v="consider place=hamlet" />
		<tag k="name" v="Klinkenberg" />
		<tag k="place" v="farm" />
		<tag k="ssr:stedsnr" v="127810" />
	</node>
	<node lat="60.312294444883854" lon="10.44056110709703" id="-18789">
		<tag k="name" v="Bekkestua" />
		<tag k="place" v="isolated_dwelling" />
		<tag k="ssr:stedsnr" v="128919" />
	</node>
	<node lat="60.19488888593224" lon="10.446616668546344" id="-18790">
		<tag k="name" v="Dammen" />
		<tag k="ssr:stedsnr" v="146335" />
		<tag k="waterway" v="dam" />
	</node>
	<node lat="60.18308610886084" lon="10.478691672361064" id="-18791">
		<tag k="name" v="Bjønnputtdalen" />
		<tag k="natural" v="valley" />
		<tag k="place" v="locality" />
		<tag k="ssr:stedsnr" v="147291" />
	</node>
	<node lat="60.164905558434405" lon="10.554569442291614" id="-18792">
		<tag k="name" v="Smalet" />
		<tag k="natural" v="strait" />
		<tag k="ssr:stedsnr" v="147295" />
	</node>
	<node lat="60.236522223125625" lon="10.502530554198774" id="-18793">
		<tag k="name" v="Blautholet" />
		<tag k="natural" v="valley" />
		<tag k="place" v="locality" />
		<tag k="ssr:stedsnr" v="153897" />
	</node>
	<node lat="60.24702221847561" lon="10.495416665613565" id="-18794">
		<tag k="name" v="Høgsetberget" />
		<tag k="natural" v="hill" />
		<tag k="place" v="locality" />
		<tag k="ssr:stedsnr" v="153941" />
	</node>
	<node lat="60.299205552434096" lon="10.419713887334412" id="-18795">
		<tag k="amenity" v="school" />
		<tag k="name" v="Sogn skole" />
		<tag k="ssr:stedsnr" v="155354" />
	</node>
	<node lat="60.303191670962676" lon="10.386144448565872" id="-18796">
		<tag k="name" v="Dalsvika" />
		<tag k="natural" v="bay" />
		<tag k="ssr:stedsnr" v="155454" />
	</node>
	<node lat="60.21518332910429" lon="10.455466662495851" id="-18797">
		<tag k="alt_name" v="Branntjennsdalen" />
		<tag k="name" v="Branntjernsdalen" />
		<tag k="natural" v="valley" />
		<tag k="place" v="locality" />
		<tag k="ssr:stedsnr" v="155688" />
	</node>
	<node lat="60.313544447019815" lon="10.338419437372123" id="-18798">
		<tag k="name" v="Ormeberga" />
		<tag k="natural" v="hill" />
		<tag k="place" v="locality" />
		<tag k="ssr:stedsnr" v="159853" />
	</node>
	<node lat="60.281730559540314" lon="10.528183331247849" id="-18799">
		<tag k="bridge" v="yes" />
		<tag k="layer" v="1" />
		<tag k="name" v="Bekkehallum" />
		<tag k="ssr:stedsnr" v="168083" />
	</node>
	<node lat="60.237286111502094" lon="10.371038881246104" id="-18800">
		<tag k="bridge" v="yes" />
		<tag k="layer" v="1" />
		<tag k="name" v="Bergertjern" />
		<tag k="ssr:stedsnr" v="168086" />
	</node>
	<node lat="60.37910278192785" lon="10.202002775427252" id="-18801">
		<tag k="fixme" v="consider natural=peak for the most distinct mountains in the district" />
		<tag k="name" v="Nordre Klæstad" />
		<tag k="natural" v="hill" />
		<tag k="place" v="locality" />
		<tag k="ssr:stedsnr" v="172375" />
	</node>
	<node lat="60.28837165879586" lon="10.357112567017703" id="-18802">
		<tag k="fixme" v="consider place=hamlet" />
		<tag k="name" v="Næverbekken" />
		<tag k="place" v="farm" />
		<tag k="ssr:stedsnr" v="173245" />
	</node>
	<node lat="60.36665277486625" lon="10.351094450616406" id="-18803">
		<tag k="name" v="Kringelhaugen" />
		<tag k="natural" v="hill" />
		<tag k="place" v="locality" />
		<tag k="ssr:stedsnr" v="173399" />
	</node>
	<node lat="60.27237222570503" lon="10.313366668572424" id="-18804">
		<tag k="name" v="Øvre Berger" />
		<tag k="place" v="locality" />
		<tag k="ssr:stedsnr" v="173891" />
	</node>
	<node lat="60.22759999805822" lon="10.375683325232204" id="-18805">
		<tag k="name" v="Bergerfoss" />
		<tag k="natural" v="waterfall" />
		<tag k="old_name" v="Bergefoss" />
		<tag k="ssr:stedsnr" v="175483" />
	</node>
	<node lat="60.248944445515335" lon="10.479236108480546" id="-18806">
		<tag k="name" v="Klokkermarka" />
		<tag k="place" v="locality" />
		<tag k="ssr:stedsnr" v="179163" />
	</node>
	<node lat="60.23653888988642" lon="10.41714444436838" id="-18807">
		<tag k="landuse" v="meadow" />
		<tag k="name" v="Haugerenga" />
		<tag k="ssr:stedsnr" v="179137" />
	</node>
	<node lat="60.23753333670292" lon="10.414044450590623" id="-18808">
		<tag k="landuse" v="meadow" />
		<tag k="name" v="Støm" />
		<tag k="ssr:stedsnr" v="179140" />
	</node>
	<node lat="60.22845277874022" lon="10.43163611704272" id="-18809">
		<tag k="highway" v="path" />
		<tag k="name" v="Delebakken" />
		<tag k="ssr:stedsnr" v="179393" />
	</node>
	<node lat="60.18897221898124" lon="10.558902783203632" id="-18810">
		<tag k="alt_name" v="Grasdalkollen" />
		<tag k="fixme" v="consider natural=peak for the most distinct mountains in the district" />
		<tag k="name" v="Grasdalskollen" />
		<tag k="natural" v="hill" />
		<tag k="place" v="locality" />
		<tag k="ssr:stedsnr" v="187044" />
	</node>
	<node lat="60.240352567344075" lon="10.52091334070009" id="-18811">
		<tag k="alt_name" v="Elgkollen" />
		<tag k="fixme" v="consider natural=peak for the most distinct mountains in the district" />
		<tag k="name" v="Helgehaugen" />
		<tag k="natural" v="hill" />
		<tag k="place" v="locality" />
		<tag k="ssr:stedsnr" v="187353" />
	</node>
	<node lat="60.23658889062598" lon="10.527819447693155" id="-18812">
		<tag k="alt_name" v="Vestend" />
		<tag k="name" v="Vestenden" />
		<tag k="place" v="farm" />
		<tag k="ssr:stedsnr" v="187354" />
	</node>
	<node lat="60.24296110713932" lon="10.509655553093992" id="-18813">
		<tag k="alt_name" v="Kråkmyra" />
		<tag k="name" v="Kråkemyrene" />
		<tag k="natural" v="wetland" />
		<tag k="ssr:stedsnr" v="187355" />
	</node>
	<node lat="60.2256707805601" lon="10.429170895811371" id="-18814">
		<tag k="fixme" v="consider natural=peak for the most distinct mountains in the district" />
		<tag k="name" v="Ås" />
		<tag k="natural" v="hill" />
		<tag k="place" v="locality" />
		<tag k="ssr:stedsnr" v="187438" />
	</node>
	<node lat="60.22144768120006" lon="10.424749000094398" id="-18815">
		<tag k="alt_name" v="Dælen" />
		<tag k="name" v="Dalen" />
		<tag k="place" v="locality" />
		<tag k="ssr:stedsnr" v="187439" />
	</node>
	<node lat="60.2314055590599" lon="10.35641111759134" id="-18816">
		<tag k="alt_name" v="Grønntjernet" />
		<tag k="name" v="Grøntjernet" />
		<tag k="natural" v="water" />
		<tag k="ssr:stedsnr" v="187446" />
	</node>
	<node lat="60.20888610984428" lon="10.529263889363438" id="-18817">
		<tag k="alt_name" v="Johannestjennet;Johanstjern" />
		<tag k="name" v="Johannestjernet" />
		<tag k="natural" v="water" />
		<tag k="ssr:stedsnr" v="187447" />
	</node>
	<node lat="60.354116668378786" lon="10.313508334096257" id="-18818">
		<tag k="alt_name" v="Damtjern, nordre" />
		<tag k="name" v="Nordre Damtjern" />
		<tag k="natural" v="water" />
		<tag k="ssr:stedsnr" v="187551" />
	</node>
	<node lat="60.362480552467254" lon="10.229505551284735" id="-18819">
		<tag k="alt_name" v="Rompeputta" />
		<tag k="name" v="Rompeputtane" />
		<tag k="natural" v="water" />
		<tag k="ssr:stedsnr" v="187566" />
	</node>
	<node lat="60.37513333287" lon="10.306719439100755" id="-18820">
		<tag k="name" v="Amundskoietjern" />
		<tag k="natural" v="water" />
		<tag k="ssr:stedsnr" v="187569" />
	</node>
	<node lat="60.281361113049385" lon="10.532694449321452" id="-18821">
		<tag k="alt_name" v="Hallumstjernet" />
		<tag k="name" v="Hallomtjernet" />
		<tag k="natural" v="water" />
		<tag k="ssr:stedsnr" v="188846" />
	</node>
	<node lat="60.27663055738764" lon="10.44006944562017" id="-18822">
		<tag k="alt_name" v="Skjennum østre" />
		<tag k="name" v="Skjennumstua" />
		<tag k="place" v="isolated_dwelling" />
		<tag k="ssr:stedsnr" v="188848" />
	</node>
	<node lat="60.301150282508985" lon="10.411917919430643" id="-18823">
		<tag k="fixme" v="consider place=hamlet" />
		<tag k="name" v="Tømmerås" />
		<tag k="place" v="farm" />
		<tag k="ssr:stedsnr" v="188862" />
	</node>
	<node lat="60.29557777653325" lon="10.428013882723272" id="-18824">
		<tag k="name" v="Sløvikelva" />
		<tag k="ssr:stedsnr" v="188864" />
		<tag k="waterway" v="river" />
	</node>
	<node lat="60.30108889182165" lon="10.34871110591396" id="-18825">
		<tag k="name" v="Steinhus" />
		<tag k="place" v="isolated_dwelling" />
		<tag k="ssr:stedsnr" v="188911" />
	</node>
	<node lat="60.19154166797985" lon="10.455513885218325" id="-18826">
		<tag k="name" v="Veslemosjøen" />
		<tag k="natural" v="water" />
		<tag k="ssr:stedsnr" v="207348" />
	</node>
	<node lat="60.219608331507416" lon="10.510708334363358" id="-18827">
		<tag k="alt_name" v="Øljeberga" />
		<tag k="name" v="Oljeberga" />
		<tag k="natural" v="slope" />
		<tag k="place" v="locality" />
		<tag k="ssr:stedsnr" v="214979" />
	</node>
	<node lat="60.21209444868742" lon="10.492811102623282" id="-18828">
		<tag k="name" v="Kjippmyra" />
		<tag k="natural" v="wetland" />
		<tag k="ssr:stedsnr" v="214964" />
	</node>
	<node lat="60.214177777208455" lon="10.52118611474505" id="-18829">
		<tag k="alt_name" v="Johannstjennsbrenna" />
		<tag k="fixme" v="consider natural=peak for the most distinct mountains in the district" />
		<tag k="name" v="Johannestjernsbrenna" />
		<tag k="natural" v="hill" />
		<tag k="place" v="locality" />
		<tag k="ssr:stedsnr" v="214972" />
	</node>
	<node lat="60.28053333466809" lon="10.305458333244102" id="-18830">
		<tag k="name" v="Bjønnbergdalen" />
		<tag k="natural" v="valley" />
		<tag k="place" v="locality" />
		<tag k="ssr:stedsnr" v="216244" />
	</node>
	<node lat="60.30057499655574" lon="10.4029194498045" id="-18831">
		<tag k="alt_name" v="Igelsrudhaugen" />
		<tag k="name" v="Igulsrudhaugen" />
		<tag k="natural" v="hill" />
		<tag k="old_name" v="Ingelsrudhaugen" />
		<tag k="place" v="locality" />
		<tag k="ssr:stedsnr" v="216335" />
	</node>
	<node lat="60.21623611353117" lon="10.471152786648581" id="-18832">
		<tag k="name" v="Svenåa" />
		<tag k="ssr:stedsnr" v="216669" />
		<tag k="waterway" v="river" />
	</node>
	<node lat="60.21776388528394" lon="10.420575001539653" id="-18833">
		<tag k="name" v="Elvelia" />
		<tag k="natural" v="slope" />
		<tag k="place" v="locality" />
		<tag k="ssr:stedsnr" v="216870" />
	</node>
	<node lat="60.2682194486225" lon="10.465208330797209" id="-18834">
		<tag k="name" v="Haug" />
		<tag k="place" v="isolated_dwelling" />
		<tag k="ssr:stedsnr" v="221001" />
	</node>
	<node lat="60.278908329840874" lon="10.47241389049145" id="-18835">
		<tag k="name" v="Linlykja" />
		<tag k="place" v="farm" />
		<tag k="ssr:stedsnr" v="221042" />
	</node>
	<node lat="60.24036110755171" lon="10.408988890244483" id="-18836">
		<tag k="bridge" v="yes" />
		<tag k="layer" v="1" />
		<tag k="name" v="Mo" />
		<tag k="ssr:stedsnr" v="228073" />
	</node>
	<node lat="60.28936111212646" lon="10.508105551819808" id="-18837">
		<tag k="name" v="Østre Vassjø" />
		<tag k="place" v="farm" />
		<tag k="ssr:stedsnr" v="275546" />
	</node>
	<node lat="60.23619166699867" lon="10.491791674553161" id="-18838">
		<tag k="name" v="Tvelessingsmyra" />
		<tag k="natural" v="wetland" />
		<tag k="ssr:stedsnr" v="275849" />
	</node>
	<node lat="60.2600805578654" lon="10.48996388808519" id="-18839">
		<tag k="leisure" v="pitch" />
		<tag k="name" v="Idrettsplass" />
		<tag k="ssr:stedsnr" v="275932" />
	</node>
	<node lat="60.214841669893566" lon="10.48849722809981" id="-18840">
		<tag k="name" v="Rykinhaugen" />
		<tag k="natural" v="hill" />
		<tag k="place" v="locality" />
		<tag k="ssr:stedsnr" v="275957" />
	</node>
	<node lat="60.22451389025634" lon="10.538427775842356" id="-18841">
		<tag k="name" v="Kollerlia" />
		<tag k="natural" v="slope" />
		<tag k="place" v="locality" />
		<tag k="ssr:stedsnr" v="275857" />
	</node>
	<node lat="60.35416666371377" lon="10.337741665477" id="-18842">
		<tag k="name" v="Bergebråtan" />
		<tag k="place" v="locality" />
		<tag k="ssr:stedsnr" v="280439" />
	</node>
	<node lat="60.36542500098422" lon="10.298338886881961" id="-18843">
		<tag k="name" v="Dalamyrene" />
		<tag k="natural" v="wetland" />
		<tag k="ssr:stedsnr" v="280459" />
	</node>
	<node lat="60.35987500291467" lon="10.256466670549006" id="-18844">
		<tag k="name" v="Samsjøputthøgda" />
		<tag k="natural" v="hill" />
		<tag k="place" v="locality" />
		<tag k="ssr:stedsnr" v="280469" />
	</node>
	<node lat="60.35253611250244" lon="10.276297214212306" id="-18845">
		<tag k="name" v="Tangnesbekken" />
		<tag k="ssr:stedsnr" v="281444" />
		<tag k="waterway" v="stream" />
	</node>
	<node lat="60.23916667064436" lon="10.390905552185421" id="-18846">
		<tag k="bridge" v="yes" />
		<tag k="layer" v="1" />
		<tag k="name" v="Hermannstjern" />
		<tag k="ssr:stedsnr" v="289059" />
	</node>
	<node lat="60.23926389112826" lon="10.354088897248726" id="-18847">
		<tag k="name" v="Merradokka" />
		<tag k="place" v="locality" />
		<tag k="ssr:stedsnr" v="294750" />
	</node>
	<node lat="60.263219448371174" lon="10.32007499499942" id="-18848">
		<tag k="name" v="Ruggesteinene" />
		<tag k="place" v="locality" />
		<tag k="ssr:stedsnr" v="294897" />
	</node>
	<node lat="60.24434444139707" lon="10.347949998352279" id="-18849">
		<tag k="name" v="Furumoen" />
		<tag k="place" v="locality" />
		<tag k="ssr:stedsnr" v="295000" />
	</node>
	<node lat="60.23452222591135" lon="10.358274995909262" id="-18850">
		<tag k="loc_name" v="Bergegrinda" />
		<tag k="name" v="Bergergrinda" />
		<tag k="old_name" v="Bergergrina;Bergergrinden" />
		<tag k="place" v="quarter" />
		<tag k="ssr:stedsnr" v="294755" />
	</node>
	<node lat="60.2806861146837" lon="10.51649443910683" id="-18851">
		<tag k="name" v="Østre Igelstad" />
		<tag k="place" v="farm" />
		<tag k="ssr:stedsnr" v="299857" />
	</node>
	<node lat="60.239430552859325" lon="10.396733339684312" id="-18853">
		<tag k="name" v="Verkevika" />
		<tag k="natural" v="bay" />
		<tag k="ssr:stedsnr" v="300154" />
	</node>
	<node lat="60.22179166819578" lon="10.418997225771001" id="-18854">
		<tag k="name" v="Elvelia" />
		<tag k="natural" v="slope" />
		<tag k="place" v="locality" />
		<tag k="ssr:stedsnr" v="300166" />
	</node>
	<node lat="60.23644721850692" lon="10.442261106588251" id="-18855">
		<tag k="name" v="Gråmetra" />
		<tag k="place" v="locality" />
		<tag k="ssr:stedsnr" v="300226" />
	</node>
	<node lat="60.34013333334808" lon="10.316972227276356" id="-18856">
		<tag k="name" v="Lauvlimyra" />
		<tag k="natural" v="wetland" />
		<tag k="ssr:stedsnr" v="301720" />
	</node>
	<node lat="60.35493888955644" lon="10.33300833697789" id="-18857">
		<tag k="name" v="Skavdalen" />
		<tag k="natural" v="valley" />
		<tag k="place" v="locality" />
		<tag k="ssr:stedsnr" v="308563" />
	</node>
	<node lat="60.34749166541045" lon="10.322449993859841" id="-18858">
		<tag k="fixme" v="consider natural=peak for the most distinct mountains in the district" />
		<tag k="name" v="Halvorshaugen" />
		<tag k="natural" v="hill" />
		<tag k="place" v="locality" />
		<tag k="ssr:stedsnr" v="308564" />
	</node>
	<node lat="60.366677782205215" lon="10.316605551648145" id="-18859">
		<tag k="name" v="Vomma" />
		<tag k="natural" v="water" />
		<tag k="ssr:stedsnr" v="308572" />
	</node>
	<node lat="60.35714166287457" lon="10.214038884892357" id="-18860">
		<tag k="alt_name" v="Flåtjernbekken" />
		<tag k="name" v="Flåtjernsbekken" />
		<tag k="ssr:stedsnr" v="308577" />
		<tag k="waterway" v="stream" />
	</node>
	<node lat="60.36858889210588" lon="10.207788885435079" id="-18861">
		<tag k="name" v="Klæstadhytta" />
		<tag k="place" v="isolated_dwelling" />
		<tag k="ssr:stedsnr" v="308587" />
	</node>
	<node lat="60.22863333174658" lon="10.437405556111267" id="-18862">
		<tag k="name" v="Svenådalen" />
		<tag k="natural" v="valley" />
		<tag k="place" v="locality" />
		<tag k="ssr:stedsnr" v="308431" />
	</node>
	<node lat="60.221263892223625" lon="10.502252782150435" id="-18863">
		<tag k="alt_name" v="Svarttjennshøgda" />
		<tag k="fixme" v="consider natural=peak for the most distinct mountains in the district" />
		<tag k="name" v="Svarttjernshøgda" />
		<tag k="natural" v="hill" />
		<tag k="place" v="locality" />
		<tag k="ssr:stedsnr" v="308435" />
	</node>
	<node lat="60.34052777579405" lon="10.291855549230744" id="-18864">
		<tag k="fixme" v="consider natural=peak for the most distinct mountains in the district" />
		<tag k="name" v="Bikjebråtabrenna" />
		<tag k="natural" v="hill" />
		<tag k="place" v="locality" />
		<tag k="ssr:stedsnr" v="309612" />
	</node>
	<node lat="60.19731388590854" lon="10.554986115555979" id="-18865">
		<tag k="alt_name" v="Roenseter" />
		<tag k="historic" v="shieling" />
		<tag k="name" v="Roensætra" />
		<tag k="place" v="isolated_dwelling" />
		<tag k="ssr:stedsnr" v="309494" />
	</node>
	<node lat="60.32209999837042" lon="10.287433329735194" id="-18866">
		<tag k="name" v="Borstudalen" />
		<tag k="natural" v="valley" />
		<tag k="place" v="locality" />
		<tag k="ssr:stedsnr" v="309501" />
	</node>
	<node lat="60.25907895738039" lon="10.481063669772048" id="-18867">
		<tag k="fixme" v="consider place=hamlet" />
		<tag k="name" v="Gullen" />
		<tag k="place" v="farm" />
		<tag k="ssr:stedsnr" v="309761" />
	</node>
	<node lat="60.257699995605996" lon="10.43437777167498" id="-18868">
		<tag k="amenity" v="place_of_worship" />
		<tag k="denomination" v="lutheran" />
		<tag k="name" v="Jevnaker kirke" />
		<tag k="religion" v="christian" />
		<tag k="ssr:stedsnr" v="309763" />
	</node>
	<node lat="60.25209444732845" lon="10.519327781398603" id="-18869">
		<tag k="alt_name" v="Olimbseter" />
		<tag k="historic" v="shieling" />
		<tag k="name" v="Olumsætra" />
		<tag k="place" v="isolated_dwelling" />
		<tag k="ssr:stedsnr" v="309769" />
	</node>
	<node lat="60.25525278204527" lon="10.423897213708345" id="-18870">
		<tag k="alt_name" v="Vang, nedre" />
		<tag k="fixme" v="consider place=hamlet" />
		<tag k="name" v="Nedre Vang" />
		<tag k="place" v="farm" />
		<tag k="ssr:stedsnr" v="309776" />
	</node>
	<node lat="60.29336110839932" lon="10.460797219888654" id="-18871">
		<tag k="alt_name" v="Hvaterud, s;Søndre Vaterud" />
		<tag k="name" v="Søndre Hvaterud" />
		<tag k="place" v="farm" />
		<tag k="ssr:stedsnr" v="309860" />
	</node>
	<node lat="60.28469166358831" lon="10.355205550792574" id="-18872">
		<tag k="alt_name" v="Søråsen;Åsen, s" />
		<tag k="name" v="Søndre Åsen" />
		<tag k="place" v="isolated_dwelling" />
		<tag k="ssr:stedsnr" v="309864" />
	</node>
	<node lat="60.32249221468895" lon="10.344788249262157" id="-18873">
		<tag k="fixme" v="consider place=hamlet" />
		<tag k="name" v="Velsand" />
		<tag k="place" v="farm" />
		<tag k="ssr:stedsnr" v="309954" />
	</node>
	<node lat="60.269638891080916" lon="10.307774997729284" id="-18874">
		<tag k="name" v="Nysetermyrene" />
		<tag k="natural" v="wetland" />
		<tag k="ssr:stedsnr" v="330881" />
	</node>
	<node lat="60.24200278173059" lon="10.517008341881361" id="-18875">
		<tag k="name" v="Snålstykkene" />
		<tag k="place" v="locality" />
		<tag k="ssr:stedsnr" v="335933" />
	</node>
	<node lat="60.30545000209787" lon="10.385127770963827" id="-18877">
		<tag k="building" v="industrial" />
		<tag k="name" v="Bjertnes sag" />
		<tag k="ssr:stedsnr" v="337382" />
	</node>
	<node lat="60.27520833747263" lon="10.423897225666865" id="-18878">
		<tag k="name" v="Gulabråtabekken" />
		<tag k="ssr:stedsnr" v="342887" />
		<tag k="waterway" v="stream" />
	</node>
	<node lat="60.29633889219523" lon="10.328836111032194" id="-18879">
		<tag k="name" v="Merramyra" />
		<tag k="natural" v="wetland" />
		<tag k="ssr:stedsnr" v="355274" />
	</node>
	<node lat="60.248455553951345" lon="10.372763894032657" id="-18880">
		<tag k="name" v="Frydenlund" />
		<tag k="place" v="quarter" />
		<tag k="ssr:stedsnr" v="361078" />
	</node>
	<node lat="60.24412222607921" lon="10.37570833684093" id="-18881">
		<tag k="name" v="Kryteruddalen" />
		<tag k="natural" v="valley" />
		<tag k="place" v="locality" />
		<tag k="ssr:stedsnr" v="361079" />
	</node>
	<node lat="60.24400833050089" lon="10.421550000584313" id="-18882">
		<tag k="building" v="industrial" />
		<tag k="industrial" v="factory" />
		<tag k="name" v="Randsfjord glassverk" />
		<tag k="ssr:stedsnr" v="361085" />
	</node>
	<node lat="60.23338888609727" lon="10.374263882368632" id="-18883">
		<tag k="name" v="Vadhua" />
		<tag k="place" v="isolated_dwelling" />
		<tag k="ssr:stedsnr" v="361136" />
	</node>
	<node lat="60.23874999839952" lon="10.406852778598946" id="-18884">
		<tag k="name" v="Nybygget" />
		<tag k="place" v="quarter" />
		<tag k="ssr:stedsnr" v="361150" />
	</node>
	<node lat="60.2269255300963" lon="10.428640220448543" id="-18885">
		<tag k="name" v="Nordås" />
		<tag k="place" v="locality" />
		<tag k="ssr:stedsnr" v="361167" />
	</node>
	<node lat="60.25362499669142" lon="10.447408338258144" id="-18886">
		<tag k="name" v="Bratvalsgrinda" />
		<tag k="place" v="quarter" />
		<tag k="ssr:stedsnr" v="361179" />
	</node>
	<node lat="60.23470833215326" lon="10.433624991646028" id="-18887">
		<tag k="name" v="Steinbråtan" />
		<tag k="place" v="isolated_dwelling" />
		<tag k="ssr:stedsnr" v="361251" />
	</node>
	<node lat="60.23547777965717" lon="10.474238880400524" id="-18888">
		<tag k="historic" v="shieling" />
		<tag k="name" v="Svarstadvollen" />
		<tag k="place" v="locality" />
		<tag k="ssr:stedsnr" v="361248" />
	</node>
	<node lat="60.34804444475697" lon="10.305211103292468" id="-18889">
		<tag k="alt_name" v="Grymyrsetra" />
		<tag k="historic" v="shieling" />
		<tag k="name" v="Grymyrsætra" />
		<tag k="place" v="isolated_dwelling" />
		<tag k="ssr:stedsnr" v="369531" />
	</node>
	<node lat="60.3488027814507" lon="10.29522222114406" id="-18890">
		<tag k="name" v="Svarttjern" />
		<tag k="natural" v="water" />
		<tag k="ssr:stedsnr" v="369533" />
	</node>
	<node lat="60.35443889190803" lon="10.238719446112485" id="-18891">
		<tag k="name" v="Flåtjern" />
		<tag k="natural" v="water" />
		<tag k="ssr:stedsnr" v="369537" />
	</node>
	<node lat="60.24208610663437" lon="10.424066674826573" id="-18892">
		<tag k="name" v="Lund" />
		<tag k="place" v="farm" />
		<tag k="ssr:stedsnr" v="369349" />
	</node>
	<node lat="60.383938892956394" lon="10.259649996609905" id="-18893">
		<tag k="name" v="Auretjern" />
		<tag k="natural" v="water" />
		<tag k="ssr:stedsnr" v="369442" />
	</node>
	<node lat="60.36704166818713" lon="10.362544440036174" id="-18894">
		<tag k="alt_name" v="Kammerudtangen" />
		<tag k="name" v="Tangen" />
		<tag k="place" v="farm" />
		<tag k="ssr:stedsnr" v="370118" />
	</node>
	<node lat="60.31303333622162" lon="10.328355548259635" id="-18895">
		<tag k="alt_name" v="Myreseter" />
		<tag k="historic" v="shieling" />
		<tag k="name" v="Velsandsætra" />
		<tag k="place" v="isolated_dwelling" />
		<tag k="ssr:stedsnr" v="370528" />
	</node>
	<node lat="60.260874998887104" lon="10.446463888100853" id="-18896">
		<tag k="name" v="Fossholm" />
		<tag k="place" v="farm" />
		<tag k="ssr:stedsnr" v="370780" />
	</node>
	<node lat="60.30075278147872" lon="10.43917777305978" id="-18897">
		<tag k="alt_name" v="Elvebråten" />
		<tag k="name" v="Elvebråtån" />
		<tag k="place" v="farm" />
		<tag k="ssr:stedsnr" v="370872" />
	</node>
	<node lat="60.305286115342675" lon="10.450216673204277" id="-18898">
		<tag k="fixme" v="multiple name tags, choose one and add the other to alt_name" />
		<tag k="name" v="Rustad;Nedre Rustad" />
		<tag k="place" v="farm" />
		<tag k="ssr:stedsnr" v="370895" />
	</node>
	<node lat="60.292389300528434" lon="10.494535640280036" id="-18899">
		<tag k="alt_name" v="Vassjøtjernet" />
		<tag k="name" v="Vassjø" />
		<tag k="natural" v="water" />
		<tag k="ssr:stedsnr" v="370858" />
		<tag k="water" v="lake" />
	</node>
	<node lat="60.309820651327364" lon="10.451198853840822" id="-18900">
		<tag k="name" v="Tjernstua" />
		<tag k="place" v="locality" />
		<tag k="ssr:stedsnr" v="370936" />
	</node>
	<node lat="60.19160000199174" lon="10.54987777055677" id="-18901">
		<tag k="name" v="Karidalen" />
		<tag k="natural" v="valley" />
		<tag k="place" v="locality" />
		<tag k="ssr:stedsnr" v="395485" />
	</node>
	<node lat="60.28179721853268" lon="10.52037499416744" id="-18902">
		<tag k="name" v="Prestbråtan" />
		<tag k="place" v="farm" />
		<tag k="ssr:stedsnr" v="396968" />
	</node>
	<node lat="60.26336388822191" lon="10.505402771511205" id="-18903">
		<tag k="alt_name" v="Olimbsvaet" />
		<tag k="name" v="Olumsvaet" />
		<tag k="place" v="locality" />
		<tag k="ssr:stedsnr" v="396974" />
	</node>
	<node lat="60.27203889005988" lon="10.521752772400324" id="-18904">
		<tag k="name" v="Hellerud" />
		<tag k="place" v="farm" />
		<tag k="ssr:stedsnr" v="396926" />
	</node>
	<node lat="60.286244103361476" lon="10.407720767102761" id="-18905">
		<tag k="name" v="Østre Roen" />
		<tag k="place" v="farm" />
		<tag k="ssr:stedsnr" v="398178" />
	</node>
	<node lat="60.301230558970175" lon="10.283019437555874" id="-18906">
		<tag k="name" v="Kalveholen" />
		<tag k="natural" v="wetland" />
		<tag k="ssr:stedsnr" v="398258" />
	</node>
	<node lat="60.29305555521097" lon="10.28094166903783" id="-18907">
		<tag k="name" v="Brennfu" />
		<tag k="place" v="isolated_dwelling" />
		<tag k="ssr:stedsnr" v="398260" />
	</node>
	<node lat="60.28836666248686" lon="10.288472213553364" id="-18908">
		<tag k="name" v="Kalvehue" />
		<tag k="natural" v="water" />
		<tag k="ssr:stedsnr" v="398261" />
		<tag k="water" v="lake" />
	</node>
	<node lat="60.29278610957671" lon="10.414422221964294" id="-18909">
		<tag k="name" v="Løvli" />
		<tag k="place" v="farm" />
		<tag k="ssr:stedsnr" v="398365" />
	</node>
	<node lat="60.27889444590807" lon="10.479230556181577" id="-18910">
		<tag k="name" v="Bakken" />
		<tag k="place" v="farm" />
		<tag k="ssr:stedsnr" v="403012" />
	</node>
	<node lat="60.27914722222073" lon="10.522216663094449" id="-18911">
		<tag k="bridge" v="yes" />
		<tag k="layer" v="1" />
		<tag k="name" v="Svenskeenga" />
		<tag k="ssr:stedsnr" v="410061" />
	</node>
	<node lat="60.22264999947532" lon="10.347727778533244" id="-18912">
		<tag k="name" v="Eggestein" />
		<tag k="natural" v="stone" />
		<tag k="ssr:stedsnr" v="415631" />
	</node>
	<node lat="60.38756389259874" lon="10.259299994830998" id="-18913">
		<tag k="name" v="Lortemyrene" />
		<tag k="natural" v="wetland" />
		<tag k="ssr:stedsnr" v="415496" />
	</node>
	<node lat="60.23664444785969" lon="10.34773054884616" id="-18914">
		<tag k="name" v="Offerdalen" />
		<tag k="natural" v="valley" />
		<tag k="place" v="locality" />
		<tag k="ssr:stedsnr" v="415667" />
	</node>
	<node lat="60.246852781695125" lon="10.327499993897005" id="-18915">
		<tag k="name" v="Sauehaugen" />
		<tag k="natural" v="hill" />
		<tag k="place" v="locality" />
		<tag k="ssr:stedsnr" v="415995" />
	</node>
	<node lat="60.24670833441165" lon="10.358936106371765" id="-18916">
		<tag k="name" v="Grønsletta" />
		<tag k="place" v="locality" />
		<tag k="ssr:stedsnr" v="415998" />
	</node>
	<node lat="60.27896111104043" lon="10.363638880050653" id="-18917">
		<tag k="name" v="Hansebråtan" />
		<tag k="place" v="locality" />
		<tag k="ssr:stedsnr" v="416550" />
	</node>
	<node lat="60.334011109665774" lon="10.247186102659576" id="-18918">
		<tag k="name" v="Midtskauhøgda" />
		<tag k="natural" v="hill" />
		<tag k="place" v="locality" />
		<tag k="ssr:stedsnr" v="416952" />
	</node>
	<node lat="60.234047219863456" lon="10.421766661913546" id="-18919">
		<tag k="name" v="Svenåa" />
		<tag k="ssr:stedsnr" v="422121" />
		<tag k="waterway" v="stream" />
	</node>
	<node lat="60.23058610992667" lon="10.47797499719559" id="-18920">
		<tag k="historic" v="shieling" />
		<tag k="name" v="Vang seter" />
		<tag k="place" v="isolated_dwelling" />
		<tag k="ssr:stedsnr" v="422135" />
	</node>
	<node lat="60.25316110944479" lon="10.42127777686915" id="-18921">
		<tag k="name" v="Ulverud" />
		<tag k="natural" v="cape" />
		<tag k="ssr:stedsnr" v="422086" />
	</node>
	<node lat="60.2551166669476" lon="10.436650006390819" id="-18922">
		<tag k="name" v="Prestegårdselva" />
		<tag k="ssr:stedsnr" v="422158" />
		<tag k="waterway" v="river" />
	</node>
	<node lat="60.24297777407973" lon="10.426236111081268" id="-18923">
		<tag k="name" v="Tosobekken" />
		<tag k="ssr:stedsnr" v="422180" />
		<tag k="waterway" v="stream" />
	</node>
	<node lat="60.239911109876594" lon="10.43007777069027" id="-18924">
		<tag k="name" v="Kongehaugen" />
		<tag k="natural" v="hill" />
		<tag k="place" v="locality" />
		<tag k="ssr:stedsnr" v="422182" />
	</node>
	<node lat="60.34852777923251" lon="10.318850006132491" id="-18925">
		<tag k="name" v="Skålmyrputten" />
		<tag k="natural" v="water" />
		<tag k="ssr:stedsnr" v="422713" />
	</node>
	<node lat="60.34592777770501" lon="10.340091660529565" id="-18926">
		<tag k="name" v="Onsakermarka" />
		<tag k="place" v="locality" />
		<tag k="ssr:stedsnr" v="422714" />
	</node>
	<node lat="60.341672218248526" lon="10.347091673519081" id="-18927">
		<tag k="name" v="Øllebråtan" />
		<tag k="place" v="farm" />
		<tag k="ssr:stedsnr" v="422715" />
	</node>
	<node lat="60.3280777819286" lon="10.328202775559923" id="-18928">
		<tag k="name" v="Vælsandmarka" />
		<tag k="place" v="locality" />
		<tag k="ssr:stedsnr" v="423481" />
	</node>
	<node lat="60.22584722068007" lon="10.343311103468677" id="-18929">
		<tag k="landuse" v="landfill" />
		<tag k="name" v="Trollmyra" />
		<tag k="ssr:stedsnr" v="429478" />
	</node>
	<node lat="60.178952774372625" lon="10.535636107934195" id="-18930">
		<tag k="fixme" v="consider natural=peak for the most distinct mountains in the district" />
		<tag k="name" v="Aklangsbrenna" />
		<tag k="natural" v="hill" />
		<tag k="place" v="locality" />
		<tag k="ssr:stedsnr" v="430043" />
	</node>
	<node lat="60.2314611154029" lon="10.481533329593047" id="-18931">
		<tag k="historic" v="shieling" />
		<tag k="name" v="Vangsætra" />
		<tag k="place" v="isolated_dwelling" />
		<tag k="ssr:stedsnr" v="430381" />
	</node>
	<node lat="60.20544166856982" lon="10.437188894241357" id="-18932">
		<tag k="alt_name" v="Seterhaugen" />
		<tag k="fixme" v="consider natural=peak for the most distinct mountains in the district" />
		<tag k="name" v="Sæterhaugen" />
		<tag k="natural" v="hill" />
		<tag k="place" v="locality" />
		<tag k="ssr:stedsnr" v="430433" />
	</node>
	<node lat="60.19919483084714" lon="10.47387438797857" id="-18933">
		<tag k="alt_name" v="Langvann" />
		<tag k="name" v="Langvatn" />
		<tag k="natural" v="water" />
		<tag k="ssr:stedsnr" v="430436" />
	</node>
	<node lat="60.29576388931797" lon="10.337888883388853" id="-18934">
		<tag k="alt_name" v="Sør-Falla;Falla, s" />
		<tag k="name" v="Søndre Falla" />
		<tag k="place" v="farm" />
		<tag k="ssr:stedsnr" v="431410" />
	</node>
	<node lat="60.287816664044534" lon="10.342302775224969" id="-18935">
		<tag k="alt_name" v="Djupdalen" />
		<tag k="name" v="Djupdal" />
		<tag k="place" v="isolated_dwelling" />
		<tag k="ssr:stedsnr" v="431434" />
	</node>
	<node lat="60.30828055747402" lon="10.278708340358019" id="-18936">
		<tag k="fixme" v="consider natural=peak for the most distinct mountains in the district" />
		<tag k="name" v="Kalveholen" />
		<tag k="natural" v="hill" />
		<tag k="place" v="locality" />
		<tag k="ssr:stedsnr" v="431542" />
	</node>
	<node lat="60.306999996012905" lon="10.269444448154449" id="-18937">
		<tag k="name" v="Nordre Moltemyrtangen" />
		<tag k="natural" v="cape" />
		<tag k="ssr:stedsnr" v="431543" />
	</node>
	<node lat="60.25588611459668" lon="10.478588881086347" id="-18938">
		<tag k="name" v="Sørenga" />
		<tag k="place" v="farm" />
		<tag k="ssr:stedsnr" v="431799" />
	</node>
	<node lat="60.29794999780011" lon="10.417116668902054" id="-18939">
		<tag k="name" v="Høybråtån" />
		<tag k="place" v="isolated_dwelling" />
		<tag k="ssr:stedsnr" v="431874" />
	</node>
	<node lat="60.29302778208915" lon="10.458377786185137" id="-18940">
		<tag k="alt_name" v="Hvaterud, midtre;Midtre Vaterud" />
		<tag k="name" v="Midtre Hvaterud" />
		<tag k="place" v="farm" />
		<tag k="ssr:stedsnr" v="431878" />
	</node>
	<node lat="60.302155552854245" lon="10.439141669834122" id="-18941">
		<tag k="alt_name" v="Linjeløkka" />
		<tag k="name" v="Linlykkja" />
		<tag k="place" v="farm" />
		<tag k="ssr:stedsnr" v="431905" />
	</node>
	<node lat="60.18213888935736" lon="10.49078334121948" id="-18943">
		<tag k="name" v="Elgemyra" />
		<tag k="natural" v="wetland" />
		<tag k="ssr:stedsnr" v="517936" />
	</node>
	<node lat="60.207530554475625" lon="10.523013880213623" id="-18944">
		<tag k="name" v="Tostenputten" />
		<tag k="natural" v="water" />
		<tag k="ssr:stedsnr" v="517993" />
		<tag k="water" v="pond" />
	</node>
	<node lat="60.27335000104604" lon="10.31048332836455" id="-18945">
		<tag k="name" v="Nyseterdalen" />
		<tag k="natural" v="valley" />
		<tag k="place" v="locality" />
		<tag k="ssr:stedsnr" v="519290" />
	</node>
	<node lat="60.25406944574464" lon="10.429088889364104" id="-18946">
		<tag k="bridge" v="yes" />
		<tag k="layer" v="1" />
		<tag k="name" v="Vang" />
		<tag k="ssr:stedsnr" v="532056" />
	</node>
	<node lat="60.238008331431324" lon="10.368569444583567" id="-18947">
		<tag k="name" v="Rundhaugen" />
		<tag k="place" v="quarter" />
		<tag k="ssr:stedsnr" v="537735" />
	</node>
	<node lat="60.22117777462678" lon="10.381044448367277" id="-18948">
		<tag k="alt_name" v="Frankrik" />
		<tag k="name" v="Frankrike" />
		<tag k="old_name" v="Frankrig" />
		<tag k="place" v="farm" />
		<tag k="ssr:stedsnr" v="539461" />
	</node>
	<node lat="60.228091664818855" lon="10.401541665843347" id="-18949">
		<tag k="name" v="Follum-Minne" />
		<tag k="place" v="locality" />
		<tag k="ssr:stedsnr" v="543194" />
	</node>
	<node lat="60.33007777919456" lon="10.330258335453435" id="-18950">
		<tag k="name" v="Elnesmarka" />
		<tag k="place" v="locality" />
		<tag k="ssr:stedsnr" v="544454" />
	</node>
	<node lat="60.24026388612343" lon="10.489958335510469" id="-18951">
		<tag k="fixme" v="consider natural=peak for the most distinct mountains in the district" />
		<tag k="name" v="Lamannshaugen" />
		<tag k="natural" v="hill" />
		<tag k="place" v="locality" />
		<tag k="ssr:stedsnr" v="551370" />
	</node>
	<node lat="60.23801667052639" lon="10.38175276905306" id="-18952">
		<tag k="amenity" v="place_of_worship" />
		<tag k="denomination" v="lutheran" />
		<tag k="name" v="Randsfjord kirke" />
		<tag k="religion" v="christian" />
		<tag k="ssr:stedsnr" v="551386" />
	</node>
	<node lat="60.21773333135814" lon="10.53500278068447" id="-18953">
		<tag k="alt_name" v="Gunnersjøen" />
		<tag k="name" v="Gunnertjernet" />
		<tag k="natural" v="water" />
		<tag k="ssr:stedsnr" v="551476" />
	</node>
	<node lat="60.3629194430809" lon="10.326205551721715" id="-18954">
		<tag k="fixme" v="consider natural=peak for the most distinct mountains in the district" />
		<tag k="name" v="Skavdalshøgda" />
		<tag k="natural" v="hill" />
		<tag k="place" v="locality" />
		<tag k="ssr:stedsnr" v="551575" />
	</node>
	<node lat="60.34971944646293" lon="10.226202781103758" id="-18955">
		<tag k="alt_name" v="Flåtjernhøgda" />
		<tag k="fixme" v="consider natural=peak for the most distinct mountains in the district" />
		<tag k="name" v="Flåtjernshøgda" />
		<tag k="natural" v="hill" />
		<tag k="place" v="locality" />
		<tag k="ssr:stedsnr" v="551582" />
	</node>
	<node lat="60.195683332833305" lon="10.518072219477055" id="-18956">
		<tag k="alt_name" v="Skarvevann" />
		<tag k="name" v="Skarvvatnet" />
		<tag k="natural" v="water" />
		<tag k="ssr:stedsnr" v="551436" />
		<tag k="water" v="lake" />
	</node>
	<node lat="60.196500002657" lon="10.542855554942694" id="-18957">
		<tag k="alt_name" v="Roenseterbrenna" />
		<tag k="fixme" v="consider natural=peak for the most distinct mountains in the district" />
		<tag k="name" v="Roensæterhøgda" />
		<tag k="natural" v="hill" />
		<tag k="place" v="locality" />
		<tag k="ssr:stedsnr" v="551439" />
	</node>
	<node lat="60.38528888615737" lon="10.274399993015873" id="-18958">
		<tag k="name" v="Kimetjern" />
		<tag k="natural" v="water" />
		<tag k="ssr:stedsnr" v="551497" />
	</node>
	<node lat="60.37647777468376" lon="10.202813890643508" id="-18959">
		<tag k="name" v="Øvre Finneplassen" />
		<tag k="place" v="farm" />
		<tag k="ssr:stedsnr" v="551616" />
	</node>
	<node lat="60.25076944589909" lon="10.525947218576034" id="-18960">
		<tag k="name" v="Høgnes" />
		<tag k="place" v="farm" />
		<tag k="ssr:stedsnr" v="552795" />
	</node>
	<node lat="60.30901388740261" lon="10.291261105789667" id="-18961">
		<tag k="name" v="Svarttjern" />
		<tag k="natural" v="water" />
		<tag k="ssr:stedsnr" v="552577" />
	</node>
	<node lat="60.259961113877196" lon="10.478791675322201" id="-18962">
		<tag k="name" v="Nordli" />
		<tag k="place" v="farm" />
		<tag k="ssr:stedsnr" v="552777" />
	</node>
	<node lat="60.26285277971134" lon="10.456763887653944" id="-18963">
		<tag k="alt_name" v="Presthagen" />
		<tag k="name" v="Presthagan" />
		<tag k="place" v="farm" />
		<tag k="ssr:stedsnr" v="552779" />
	</node>
	<node lat="60.287894222645505" lon="10.401673741521602" id="-18964">
		<tag k="fixme" v="consider place=hamlet" />
		<tag k="name" v="Roen" />
		<tag k="place" v="farm" />
		<tag k="ssr:stedsnr" v="552888" />
	</node>
	<node lat="60.2795888844954" lon="10.479116665355455" id="-18965">
		<tag k="name" v="Tømte" />
		<tag k="place" v="farm" />
		<tag k="ssr:stedsnr" v="552871" />
	</node>
	<node lat="60.29679166996868" lon="10.418549999494639" id="-18966">
		<tag k="name" v="Sognsbråtån" />
		<tag k="place" v="isolated_dwelling" />
		<tag k="ssr:stedsnr" v="552879" />
	</node>
	<node lat="60.35471666467309" lon="10.361322221159169" id="-18967">
		<tag k="name" v="Bjørklund" />
		<tag k="place" v="farm" />
		<tag k="ssr:stedsnr" v="583417" />
	</node>
	<node lat="60.31368889149673" lon="10.347516663137526" id="-18968">
		<tag k="name" v="Myretangen" />
		<tag k="natural" v="cape" />
		<tag k="ssr:stedsnr" v="583831" />
	</node>
	<node lat="60.27424166264189" lon="10.516752776803362" id="-18969">
		<tag k="alt_name" v="Storetjernet" />
		<tag k="name" v="Stortjernet" />
		<tag k="natural" v="water" />
		<tag k="ssr:stedsnr" v="587847" />
	</node>
	<node lat="60.39026389115173" lon="10.23878610391106" id="-18970">
		<tag k="name" v="Sponga" />
		<tag k="natural" v="bay" />
		<tag k="ssr:stedsnr" v="597382" />
	</node>
	<node lat="60.23781111475668" lon="10.354486111767104" id="-18971">
		<tag k="name" v="Trangdalen" />
		<tag k="natural" v="valley" />
		<tag k="place" v="locality" />
		<tag k="ssr:stedsnr" v="597628" />
	</node>
	<node lat="60.25488333249936" lon="10.341849999336452" id="-18972">
		<tag k="name" v="Brubekkdalen" />
		<tag k="natural" v="valley" />
		<tag k="place" v="locality" />
		<tag k="ssr:stedsnr" v="597991" />
	</node>
	<node lat="60.268080897186536" lon="10.489493658657912" id="-18973">
		<tag k="alt_name" v="Olom" />
		<tag k="name" v="Olum" />
		<tag k="place" v="hamlet" />
		<tag k="ssr:stedsnr" v="600930" />
	</node>
	<node lat="60.226502776772804" lon="10.474322218557392" id="-18974">
		<tag k="historic" v="shieling" />
		<tag k="name" v="Finnerudsætra" />
		<tag k="place" v="isolated_dwelling" />
		<tag k="ssr:stedsnr" v="611470" />
	</node>
	<node lat="60.231233329954875" lon="10.452558325288559" id="-18975">
		<tag k="name" v="Midtlia" />
		<tag k="place" v="isolated_dwelling" />
		<tag k="ssr:stedsnr" v="611473" />
	</node>
	<node lat="60.356688889398534" lon="10.244319450623994" id="-18976">
		<tag k="name" v="Flåtjernshytta" />
		<tag k="place" v="isolated_dwelling" />
		<tag k="ssr:stedsnr" v="611597" />
	</node>
	<node lat="60.38709444211216" lon="10.227641675204449" id="-18977">
		<tag k="name" v="Kjerringtjern" />
		<tag k="natural" v="water" />
		<tag k="ssr:stedsnr" v="612537" />
	</node>
	<node lat="60.20328888908281" lon="10.55333333063746" id="-18978">
		<tag k="name" v="Kalvedalen" />
		<tag k="natural" v="valley" />
		<tag k="place" v="locality" />
		<tag k="ssr:stedsnr" v="612470" />
	</node>
	<node lat="60.32839444053596" lon="10.261041672789528" id="-18979">
		<tag k="fixme" v="consider natural=peak for the most distinct mountains in the district" />
		<tag k="name" v="Midtskoghøgda" />
		<tag k="natural" v="hill" />
		<tag k="place" v="locality" />
		<tag k="ssr:stedsnr" v="612493" />
	</node>
	<node lat="60.31064342830629" lon="10.416507731125789" id="-18980">
		<tag k="fixme" v="consider place=hamlet" />
		<tag k="name" v="Rud" />
		<tag k="place" v="farm" />
		<tag k="ssr:stedsnr" v="612877" />
	</node>
	<node lat="60.3322888884544" lon="10.344416660607662" id="-18981">
		<tag k="name" v="Elnesvika" />
		<tag k="natural" v="bay" />
		<tag k="ssr:stedsnr" v="612993" />
	</node>
	<node lat="60.17607499968119" lon="10.552716667762116" id="-18982">
		<tag k="name" v="Målvikdalen" />
		<tag k="natural" v="valley" />
		<tag k="place" v="locality" />
		<tag k="ssr:stedsnr" v="638857" />
	</node>
	<node lat="60.2018749990392" lon="10.563780562826299" id="-18983">
		<tag k="name" v="Kalvedalshytta" />
		<tag k="place" v="isolated_dwelling" />
		<tag k="ssr:stedsnr" v="638273" />
	</node>
	<node lat="60.17955277536589" lon="10.549255558963669" id="-18984">
		<tag k="name" v="Målvikdalen" />
		<tag k="natural" v="valley" />
		<tag k="place" v="locality" />
		<tag k="ssr:stedsnr" v="638423" />
	</node>
	<node lat="60.27844722492363" lon="10.53198056138855" id="-18985">
		<tag k="name" v="Prestlia" />
		<tag k="place" v="farm" />
		<tag k="ssr:stedsnr" v="638950" />
	</node>
	<node lat="60.26468888671199" lon="10.508358330555527" id="-18986">
		<tag k="name" v="Langdalen" />
		<tag k="place" v="farm" />
		<tag k="ssr:stedsnr" v="638970" />
	</node>
	<node lat="60.295250004428425" lon="10.282233334933004" id="-18987">
		<tag k="name" v="Serkoppvika" />
		<tag k="natural" v="bay" />
		<tag k="ssr:stedsnr" v="640300" />
	</node>
	<node lat="60.28511110678704" lon="10.302488888584337" id="-18988">
		<tag k="fixme" v="consider natural=peak for the most distinct mountains in the district" />
		<tag k="name" v="Toputthaugene" />
		<tag k="natural" v="hill" />
		<tag k="place" v="locality" />
		<tag k="ssr:stedsnr" v="640301" />
	</node>
	<node lat="60.288568443624314" lon="10.397824328006639" id="-18989">
		<tag k="name" v="Vestre Roen" />
		<tag k="place" v="farm" />
		<tag k="ssr:stedsnr" v="640435" />
	</node>
	<node lat="60.25804999628954" lon="10.357527775948403" id="-18990">
		<tag k="name" v="Kvennhusbekken" />
		<tag k="ssr:stedsnr" v="658991" />
		<tag k="waterway" v="stream" />
	</node>
	<node lat="60.296927775373725" lon="10.340438886842513" id="-18991">
		<tag k="name" v="Gjerde" />
		<tag k="place" v="farm" />
		<tag k="ssr:stedsnr" v="658271" />
	</node>
	<node lat="60.309611113743735" lon="10.299513896726916" id="-18992">
		<tag k="name" v="Svarttjernsputten" />
		<tag k="natural" v="water" />
		<tag k="ssr:stedsnr" v="658923" />
		<tag k="water" v="pond" />
	</node>
	<node lat="60.276608333967246" lon="10.316044446632201" id="-18993">
		<tag k="name" v="Trollmyra" />
		<tag k="natural" v="wetland" />
		<tag k="ssr:stedsnr" v="658878" />
	</node>
	<node lat="60.341236111322026" lon="10.252494444543311" id="-18994">
		<tag k="name" v="Putten" />
		<tag k="natural" v="water" />
		<tag k="ssr:stedsnr" v="658956" />
		<tag k="water" v="pond" />
	</node>
	<node lat="60.224858331287216" lon="10.432888893825114" id="-18995">
		<tag k="name" v="Åssnaret" />
		<tag k="natural" v="wetland" />
		<tag k="ssr:stedsnr" v="664486" />
	</node>
	<node lat="60.238697218762375" lon="10.450216665854457" id="-18996">
		<tag k="name" v="Rønnerudmarka" />
		<tag k="place" v="locality" />
		<tag k="ssr:stedsnr" v="664200" />
	</node>
	<node lat="60.23578055420962" lon="10.467805559553737" id="-18997">
		<tag k="name" v="Øvre Søtbakken" />
		<tag k="place" v="locality" />
		<tag k="ssr:stedsnr" v="664202" />
	</node>
	<node lat="60.30071666399246" lon="10.445777780554032" id="-18998">
		<tag k="bridge" v="yes" />
		<tag k="layer" v="1" />
		<tag k="name" v="Velofoss" />
		<tag k="ssr:stedsnr" v="714060" />
	</node>
	<node lat="60.23320277943368" lon="10.359716663197766" id="-18999">
		<tag k="bridge" v="yes" />
		<tag k="layer" v="1" />
		<tag k="name" v="Bergermoen" />
		<tag k="ssr:stedsnr" v="714066" />
	</node>
	<node lat="60.28731666962667" lon="10.3501694375991" id="-19000">
		<tag k="name" v="Sandbakken" />
		<tag k="natural" v="slope" />
		<tag k="place" v="locality" />
		<tag k="ssr:stedsnr" v="719255" />
	</node>
	<node lat="60.299091667959566" lon="10.313830556712592" id="-19001">
		<tag k="name" v="Gulberget" />
		<tag k="natural" v="hill" />
		<tag k="place" v="locality" />
		<tag k="ssr:stedsnr" v="719264" />
	</node>
	<node lat="60.225986108573345" lon="10.34364723073746" id="-19002">
		<tag k="name" v="Hansedokka" />
		<tag k="place" v="locality" />
		<tag k="ssr:stedsnr" v="719542" />
	</node>
	<node lat="60.26974444403132" lon="10.48574165842418" id="-19003">
		<tag k="alt_name" v="Midtre Olimb" />
		<tag k="loc_name" v="Austgarden" />
		<tag k="name" v="Midtre Olum" />
		<tag k="old_name" v="Olum mellem" />
		<tag k="place" v="farm" />
		<tag k="ssr:stedsnr" v="722933" />
	</node>
	<node lat="60.24136944319453" lon="10.40109721354519" id="-19004">
		<tag k="name" v="Thorbjørnrud Hotell" />
		<tag k="old_name" v="Torbjørnrud hotell" />
		<tag k="ssr:stedsnr" v="725072" />
		<tag k="tourism" v="hotel" />
	</node>
	<node lat="60.19413611215692" lon="10.499622213831303" id="-19005">
		<tag k="alt_name" v="Sinnerdalen" />
		<tag k="name" v="Sinderdalen" />
		<tag k="natural" v="valley" />
		<tag k="place" v="locality" />
		<tag k="ssr:stedsnr" v="733067" />
	</node>
	<node lat="60.18513611087331" lon="10.506622213252346" id="-19006">
		<tag k="fixme" v="consider natural=peak for the most distinct mountains in the district" />
		<tag k="name" v="Pershusfjellet" />
		<tag k="natural" v="hill" />
		<tag k="place" v="locality" />
		<tag k="ssr:stedsnr" v="733069" />
	</node>
	<node lat="60.24429540400706" lon="10.433690812903546" id="-19007">
		<tag k="fixme" v="consider place=hamlet" />
		<tag k="name" v="Rønnerud" />
		<tag k="place" v="farm" />
		<tag k="ssr:stedsnr" v="733356" />
	</node>
	<node lat="60.2397916635713" lon="10.387086118970043" id="-19008">
		<tag k="name" v="Jevnaker" />
		<tag k="place" v="village" />
		<tag k="ssr:stedsnr" v="733380" />
	</node>
	<node lat="60.35837499947946" lon="10.232869447706825" id="-19009">
		<tag k="name" v="Lomtjern" />
		<tag k="natural" v="water" />
		<tag k="ssr:stedsnr" v="733569" />
	</node>
	<node lat="60.260755554950485" lon="10.325777782917983" id="-19010">
		<tag k="alt_name" v="Jokumstjernt" />
		<tag k="name" v="Jokumstjern" />
		<tag k="natural" v="water" />
		<tag k="ssr:stedsnr" v="734364" />
	</node>
	<node lat="60.27744444148138" lon="10.521863882576273" id="-19011">
		<tag k="alt_name" v="Svenskeenga" />
		<tag k="name" v="Svenskenga" />
		<tag k="place" v="farm" />
		<tag k="ssr:stedsnr" v="734830" />
	</node>
	<node lat="60.28172777809653" lon="10.440494446409398" id="-19012">
		<tag k="alt_name" v="Ødegård" />
		<tag k="name" v="Øgarden" />
		<tag k="place" v="farm" />
		<tag k="ssr:stedsnr" v="734835" />
	</node>
	<node lat="60.38471666843704" lon="10.235913896416845" id="-19013">
		<tag k="alt_name" v="Buvatnseter" />
		<tag k="historic" v="shieling" />
		<tag k="name" v="Buvatnsætra" />
		<tag k="place" v="isolated_dwelling" />
		<tag k="ssr:stedsnr" v="734563" />
	</node>
	<node lat="60.385583337071814" lon="10.26341388850188" id="-19014">
		<tag k="alt_name" v="Auretjernsputten, østre" />
		<tag k="name" v="Østre Auretjernsputten" />
		<tag k="natural" v="water" />
		<tag k="ssr:stedsnr" v="734564" />
	</node>
	<node lat="60.26321667033503" lon="10.383605556764957" id="-19015">
		<tag k="name" v="Nordbytangen" />
		<tag k="natural" v="cape" />
		<tag k="ssr:stedsnr" v="734797" />
	</node>
	<node lat="60.31342222001586" lon="10.43190555257533" id="-19016">
		<tag k="alt_name" v="Velotoppen" />
		<tag k="fixme" v="consider natural=peak for the most distinct mountains in the district" />
		<tag k="name" v="Velohøgda" />
		<tag k="natural" v="hill" />
		<tag k="place" v="locality" />
		<tag k="ssr:stedsnr" v="734927" />
	</node>
	<node lat="60.23180145002635" lon="10.534146938815155" id="-19017">
		<tag k="alt_name" v="Trantjernet" />
		<tag k="fixme" v="consider tourism=alpine_hut or tourism=chalet" />
		<tag k="name" v="Trantjern" />
		<tag k="ssr:stedsnr" v="752545" />
		<tag k="tourism" v="wilderness_hut" />
	</node>
	<node lat="60.24207222278459" lon="10.41781666138174" id="-19018">
		<tag k="name" v="Toso" />
		<tag k="place" v="quarter" />
		<tag k="ssr:stedsnr" v="752926" />
	</node>
	<node lat="60.174705553818015" lon="10.50051111211467" id="-19020">
		<tag k="fixme" v="consider natural=peak for the most distinct mountains in the district" />
		<tag k="name" v="Finnstadbrenna" />
		<tag k="natural" v="hill" />
		<tag k="place" v="locality" />
		<tag k="ssr:stedsnr" v="760883" />
	</node>
	<node lat="60.21527222145143" lon="10.533861117460802" id="-19021">
		<tag k="name" v="Kastet" />
		<tag k="place" v="locality" />
		<tag k="ssr:stedsnr" v="760977" />
	</node>
	<node lat="60.260558336445875" lon="10.491133339314691" id="-19022">
		<tag k="name" v="Myrskogen" />
		<tag k="place" v="locality" />
		<tag k="ssr:stedsnr" v="760926" />
	</node>
	<node lat="60.35139999975581" lon="10.359675001162836" id="-19023">
		<tag k="name" v="Jægersborg" />
		<tag k="place" v="isolated_dwelling" />
		<tag k="ssr:stedsnr" v="765401" />
	</node>
	<node lat="60.23688610745777" lon="10.379705550282344" id="-19024">
		<tag k="bridge" v="yes" />
		<tag k="layer" v="1" />
		<tag k="name" v="Moløkkavegen" />
		<tag k="ssr:stedsnr" v="774071" />
	</node>
	<node lat="60.228780556051404" lon="10.35672499850338" id="-19025">
		<tag k="bridge" v="yes" />
		<tag k="layer" v="1" />
		<tag k="name" v="Samsmoen" />
		<tag k="ssr:stedsnr" v="774074" />
	</node>
	<node lat="60.2352861112327" lon="10.363255558366786" id="-19026">
		<tag k="bridge" v="yes" />
		<tag k="layer" v="1" />
		<tag k="name" v="Bergergrinda" />
		<tag k="ssr:stedsnr" v="774079" />
	</node>
	<node lat="60.22586944587206" lon="10.363999998679146" id="-19027">
		<tag k="name" v="Furumoen" />
		<tag k="place" v="quarter" />
		<tag k="ssr:stedsnr" v="779582" />
	</node>
	<node lat="60.23647499696865" lon="10.343816662058039" id="-19028">
		<tag k="name" v="Midtbråten" />
		<tag k="place" v="locality" />
		<tag k="ssr:stedsnr" v="779619" />
	</node>
	<node lat="60.247872220945155" lon="10.339333339097955" id="-19029">
		<tag k="name" v="Klebersteinsfjellet" />
		<tag k="place" v="locality" />
		<tag k="ssr:stedsnr" v="779996" />
	</node>
	<node lat="60.22961666649233" lon="10.510066669760603" id="-19030">
		<tag k="alt_name" v="Puttmyrane" />
		<tag k="name" v="Puttmyrene" />
		<tag k="natural" v="wetland" />
		<tag k="ssr:stedsnr" v="781473" />
	</node>
	<node lat="60.24427500046747" lon="10.380880551333508" id="-19031">
		<tag k="name" v="Randsfjord stasjon" />
		<tag k="railway" v="station" />
		<tag k="ssr:stedsnr" v="786082" />
		<tag k="train" v="yes" />
	</node>
	<node lat="60.24465833383781" lon="10.376144443305405" id="-19032">
		<tag k="name" v="Randsborg" />
		<tag k="place" v="quarter" />
		<tag k="ssr:stedsnr" v="786084" />
	</node>
	<node lat="60.22573888496237" lon="10.463980556439378" id="-19033">
		<tag k="name" v="Tysklandshaugen" />
		<tag k="natural" v="hill" />
		<tag k="place" v="locality" />
		<tag k="ssr:stedsnr" v="786533" />
	</node>
	<node lat="60.18243610756303" lon="10.550302777097638" id="-19034">
		<tag k="alt_name" v="Grasdalstjernet" />
		<tag k="name" v="Grasdalsputten" />
		<tag k="natural" v="water" />
		<tag k="ssr:stedsnr" v="794040" />
	</node>
	<node lat="60.18757222299756" lon="10.45324443638255" id="-19035">
		<tag k="name" v="Mosjøen" />
		<tag k="natural" v="water" />
		<tag k="old_name" v="Mosjø" />
		<tag k="ssr:stedsnr" v="794048" />
		<tag k="water" v="lake" />
	</node>
	<node lat="60.36276944687896" lon="10.292338880834395" id="-19036">
		<tag k="fixme" v="consider natural=peak for the most distinct mountains in the district" />
		<tag k="name" v="Riggesteinhøgda" />
		<tag k="natural" v="hill" />
		<tag k="place" v="locality" />
		<tag k="ssr:stedsnr" v="794601" />
	</node>
	<node lat="60.33942500434388" lon="10.345650003912006" id="-19037">
		<tag k="name" v="Granli" />
		<tag k="place" v="farm" />
		<tag k="ssr:stedsnr" v="795055" />
	</node>
	<node lat="60.288157134395426" lon="10.472219543989901" id="-19038">
		<tag k="name" v="Galtedalstjerna" />
		<tag k="natural" v="water" />
		<tag k="ssr:stedsnr" v="795825" />
		<tag k="water" v="lake" />
	</node>
	<node lat="60.29553611188451" lon="10.31935277857062" id="-19039">
		<tag k="name" v="Stormyra" />
		<tag k="natural" v="wetland" />
		<tag k="ssr:stedsnr" v="795435" />
	</node>
	<node lat="60.29463644655785" lon="10.289678544259028" id="-19040">
		<tag k="name" v="Kalven" />
		<tag k="natural" v="water" />
		<tag k="ssr:stedsnr" v="795436" />
		<tag k="water" v="lake" />
	</node>
	<node lat="60.24965541656413" lon="10.431722125740812" id="-19041">
		<tag k="alt_name" v="Kveldsrud;Kvelsrud" />
		<tag k="fixme" v="consider place=hamlet" />
		<tag k="name" v="Kvellsrud" />
		<tag k="place" v="farm" />
		<tag k="ssr:stedsnr" v="795781" />
	</node>
	<node lat="60.316272220595465" lon="10.384672223923237" id="-19042">
		<tag k="name" v="Bjertnesbråtan" />
		<tag k="natural" v="slope" />
		<tag k="place" v="locality" />
		<tag k="ssr:stedsnr" v="818677" />
	</node>
	<node lat="60.174988886708086" lon="10.558666675187386" id="-19043">
		<tag k="fixme" v="consider natural=peak for the most distinct mountains in the district" />
		<tag k="name" v="Fyllingsmana" />
		<tag k="natural" v="hill" />
		<tag k="place" v="locality" />
		<tag k="ssr:stedsnr" v="821866" />
	</node>
	<node lat="60.275057026496334" lon="10.512429628333328" id="-19044">
		<tag k="name" v="Liesmarka" />
		<tag k="place" v="farm" />
		<tag k="ssr:stedsnr" v="821935" />
	</node>
	<node lat="60.274013885403185" lon="10.53274721611162" id="-19045">
		<tag k="name" v="Halvorsrud" />
		<tag k="place" v="farm" />
		<tag k="ssr:stedsnr" v="821949" />
	</node>
	<node lat="60.205305552834645" lon="10.449000001849074" id="-19046">
		<tag k="name" v="Moseterhytta" />
		<tag k="place" v="isolated_dwelling" />
		<tag k="ssr:stedsnr" v="823645" />
	</node>
	<node lat="60.21388611409894" lon="10.4321722224246" id="-19047">
		<tag k="name" v="Sagfossletta" />
		<tag k="place" v="locality" />
		<tag k="ssr:stedsnr" v="823649" />
	</node>
	<node lat="60.28976666809669" lon="10.428300003405937" id="-19048">
		<tag k="alt_name" v="Øvre Gunstad" />
		<tag k="name" v="Øvre Gunnstad" />
		<tag k="place" v="farm" />
		<tag k="ssr:stedsnr" v="823900" />
	</node>
	<node lat="60.26743889065785" lon="10.499997219032803" id="-19049">
		<tag k="alt_name" v="Olimb" />
		<tag k="bridge" v="yes" />
		<tag k="layer" v="1" />
		<tag k="name" v="Olum" />
		<tag k="ssr:stedsnr" v="835058" />
	</node>
	<node lat="60.371838890159054" lon="10.261444444631174" id="-19050">
		<tag k="name" v="Vestre Auremyrbekken" />
		<tag k="ssr:stedsnr" v="840453" />
		<tag k="waterway" v="stream" />
	</node>
	<node lat="60.37256666708883" lon="10.272797227810749" id="-19051">
		<tag k="name" v="Østre Auremyrbekken" />
		<tag k="ssr:stedsnr" v="840457" />
		<tag k="waterway" v="stream" />
	</node>
	<node lat="60.299972222171725" lon="10.3533722284642" id="-19052">
		<tag k="name" v="Hamar" />
		<tag k="place" v="farm" />
		<tag k="ssr:stedsnr" v="841261" />
	</node>
	<node lat="60.243247226247114" lon="10.402766669073536" id="-19053">
		<tag k="name" v="Haugerlandet" />
		<tag k="natural" v="cape" />
		<tag k="ssr:stedsnr" v="847096" />
	</node>
	<node lat="60.2581333335986" lon="10.455649999281947" id="-19054">
		<tag k="name" v="Bratvalshagan" />
		<tag k="place" v="farm" />
		<tag k="ssr:stedsnr" v="847181" />
	</node>
	<node lat="60.24701111273913" lon="10.440502782627394" id="-19055">
		<tag k="name" v="Rønnerudstuene" />
		<tag k="place" v="isolated_dwelling" />
		<tag k="ssr:stedsnr" v="847185" />
	</node>
	<node lat="60.25611944759049" lon="10.485033338062506" id="-19056">
		<tag k="name" v="Høglund" />
		<tag k="place" v="farm" />
		<tag k="ssr:stedsnr" v="847192" />
	</node>
	<node lat="60.234822224929914" lon="10.430722222827423" id="-19057">
		<tag k="name" v="Bakken" />
		<tag k="place" v="isolated_dwelling" />
		<tag k="ssr:stedsnr" v="847257" />
	</node>
	<node lat="60.230586109572684" lon="10.38806944245964" id="-19058">
		<tag k="name" v="Mosmoen" />
		<tag k="place" v="locality" />
		<tag k="ssr:stedsnr" v="847144" />
	</node>
	<node lat="60.237172223067574" lon="10.406661107892615" id="-19059">
		<tag k="name" v="Grønland" />
		<tag k="place" v="quarter" />
		<tag k="ssr:stedsnr" v="847150" />
	</node>
	<node lat="60.20729722408582" lon="10.484872216491706" id="-19060">
		<tag k="name" v="Myrheim" />
		<tag k="place" v="isolated_dwelling" />
		<tag k="ssr:stedsnr" v="855423" />
	</node>
	<node lat="60.36969721971937" lon="10.249730552381246" id="-19061">
		<tag k="name" v="Ormetjern" />
		<tag k="natural" v="water" />
		<tag k="ssr:stedsnr" v="855627" />
	</node>
	<node lat="60.2913166671171" lon="10.340836103095208" id="-19062">
		<tag k="name" v="Persbråtan" />
		<tag k="place" v="farm" />
		<tag k="ssr:stedsnr" v="856448" />
	</node>
	<node lat="60.29709368743081" lon="10.336549709961867" id="-19063">
		<tag k="alt_name" v="Midt-Falla;Falla, midtre" />
		<tag k="name" v="Midtre Falla" />
		<tag k="place" v="farm" />
		<tag k="ssr:stedsnr" v="856423" />
	</node>
	<node lat="60.33827500076016" lon="10.27357777717498" id="-19064">
		<tag k="alt_name" v="Tangnesbekken" />
		<tag k="name" v="Midtskogbekken" />
		<tag k="ssr:stedsnr" v="856523" />
		<tag k="waterway" v="stream" />
	</node>
	<node lat="60.29011388968407" lon="10.490436118455975" id="-19065">
		<tag k="name" v="Olerud" />
		<tag k="old_name" v="Olarud" />
		<tag k="place" v="farm" />
		<tag k="ssr:stedsnr" v="856827" />
	</node>
	<node lat="60.28861504548947" lon="10.419776247449215" id="-19066">
		<tag k="alt_name" v="Gunstad" />
		<tag k="fixme" v="consider place=hamlet" />
		<tag k="name" v="Gunnstad" />
		<tag k="place" v="farm" />
		<tag k="ssr:stedsnr" v="856880" />
	</node>
	<node lat="60.29054166554722" lon="10.453400007326731" id="-19067">
		<tag k="name" v="Elsrud" />
		<tag k="place" v="farm" />
		<tag k="ssr:stedsnr" v="856882" />
	</node>
	<node lat="60.31070832932392" lon="10.385583326340464" id="-19068">
		<tag k="alt_name" v="Bjertnes, nordre" />
		<tag k="name" v="Nordre Bjertnes" />
		<tag k="place" v="farm" />
		<tag k="ssr:stedsnr" v="856890" />
	</node>
	<node lat="60.30807777388763" lon="10.392505550284609" id="-19069">
		<tag k="name" v="Grøndal" />
		<tag k="place" v="isolated_dwelling" />
		<tag k="ssr:stedsnr" v="856893" />
	</node>
	<node lat="60.252369263170614" lon="10.380253734441414" id="-19070">
		<tag k="alt_name" v="Brørby;Brørby, s" />
		<tag k="name" v="Søndre Brørby" />
		<tag k="place" v="farm" />
		<tag k="ssr:stedsnr" v="856763" />
	</node>
	<node lat="60.27538332988979" lon="10.40324999602333" id="-19071">
		<tag k="name" v="Bjellumstangen" />
		<tag k="natural" v="cape" />
		<tag k="ssr:stedsnr" v="856849" />
	</node>
	<node lat="60.27334633319139" lon="10.461923304074567" id="-19072">
		<tag k="fixme" v="consider place=hamlet" />
		<tag k="name" v="Kårstad" />
		<tag k="place" v="farm" />
		<tag k="ssr:stedsnr" v="856856" />
	</node>
	<node lat="60.29634999910433" lon="10.41455000011286" id="-19073">
		<tag k="alt_name" v="Roenbråten" />
		<tag k="name" v="Roenbråtån" />
		<tag k="place" v="isolated_dwelling" />
		<tag k="ssr:stedsnr" v="856868" />
	</node>
	<node lat="60.28603611237456" lon="10.352777776189093" id="-19074">
		<tag k="alt_name" v="Nordåsen;Åsen, nordre" />
		<tag k="name" v="Nordre Åsen" />
		<tag k="place" v="farm" />
		<tag k="ssr:stedsnr" v="856876" />
	</node>
	<node lat="60.334744444431344" lon="10.352638879927627" id="-19075">
		<tag k="name" v="Solviktangen" />
		<tag k="natural" v="cape" />
		<tag k="ssr:stedsnr" v="856996" />
	</node>
	<node lat="60.285819443381634" lon="10.40579166010042" id="-19076">
		<tag k="name" v="Roenland" />
		<tag k="ssr:stedsnr" v="874231" />
		<tag k="tourism" v="museum" />
	</node>
	<node lat="60.13472222365132" lon="10.571661102928323" id="-19077">
		<tag k="name" v="Nordmarka" />
		<tag k="natural" v="wood" />
		<tag k="ssr:stedsnr" v="874528" />
	</node>
	<node lat="60.210355558890946" lon="10.500305552435469" id="-19078">
		<tag k="name" v="Tverrsjølia" />
		<tag k="natural" v="slope" />
		<tag k="place" v="locality" />
		<tag k="ssr:stedsnr" v="882942" />
	</node>
	<node lat="60.20132222038719" lon="10.502658338909784" id="-19079">
		<tag k="name" v="Port Arthur" />
		<tag k="natural" v="valley" />
		<tag k="place" v="locality" />
		<tag k="ssr:stedsnr" v="882944" />
	</node>
	<node lat="60.291302778048696" lon="10.296913891425682" id="-19080">
		<tag k="name" v="Enputten" />
		<tag k="natural" v="water" />
		<tag k="ssr:stedsnr" v="884237" />
		<tag k="water" v="pond" />
	</node>
	<node lat="60.29141388951454" lon="10.287094445856505" id="-19081">
		<tag k="name" v="Valhall" />
		<tag k="place" v="isolated_dwelling" />
		<tag k="ssr:stedsnr" v="884245" />
	</node>
	<node lat="60.35378333438929" lon="10.303380549050516" id="-19082">
		<tag k="name" v="Peismyra" />
		<tag k="natural" v="wetland" />
		<tag k="ssr:stedsnr" v="887471" />
	</node>
	<node lat="60.24699722182528" lon="10.309127783509014" id="-19083">
		<tag k="name" v="Skillemyr" />
		<tag k="natural" v="wetland" />
		<tag k="ssr:stedsnr" v="937830" />
	</node>
	<node lat="60.18968888874214" lon="10.491813890162955" id="-19084">
		<tag k="name" v="Minkmyra" />
		<tag k="natural" v="wetland" />
		<tag k="ssr:stedsnr" v="942929" />
	</node>
	<node lat="60.277363886057685" lon="10.50979166878277" id="-19085">
		<tag k="name" v="Finnerudputten" />
		<tag k="natural" v="water" />
		<tag k="ssr:stedsnr" v="942942" />
		<tag k="water" v="pond" />
	</node>
	<node lat="60.207183336281624" lon="10.491833332070973" id="-19086">
		<tag k="name" v="Gulborgmyra" />
		<tag k="natural" v="wetland" />
		<tag k="ssr:stedsnr" v="942950" />
	</node>
	<node lat="60.21102222079491" lon="10.537205556576973" id="-19087">
		<tag k="name" v="Spinnermyra" />
		<tag k="natural" v="wetland" />
		<tag k="ssr:stedsnr" v="942882" />
	</node>
	<node lat="60.21344722085442" lon="10.518683324842227" id="-19088">
		<tag k="name" v="Oljebekken" />
		<tag k="ssr:stedsnr" v="942977" />
		<tag k="waterway" v="stream" />
	</node>
	<node lat="60.242544444572225" lon="10.315275004729937" id="-19089">
		<tag k="name" v="Skilledalen" />
		<tag k="natural" v="valley" />
		<tag k="place" v="locality" />
		<tag k="ssr:stedsnr" v="944316" />
	</node>
	<node lat="60.29894999622278" lon="10.332041667666893" id="-19090">
		<tag k="name" v="Lortsnaret" />
		<tag k="place" v="locality" />
		<tag k="ssr:stedsnr" v="962262" />
	</node>
	<node lat="60.235027125659286" lon="10.372401710836812" id="-19091">
		<tag k="loc_name" v="Bergetjernet" />
		<tag k="name" v="Bergertjernet" />
		<tag k="natural" v="water" />
		<tag k="ssr:stedsnr" v="963440" />
	</node>
	<node lat="60.248922221652606" lon="10.382177769135422" id="-19092">
		<tag k="name" v="Nedre Nøkleby" />
		<tag k="place" v="farm" />
		<tag k="ssr:stedsnr" v="968080" />
	</node>
	<node lat="60.24367222357551" lon="10.465538892889093" id="-19093">
		<tag k="name" v="Rundhaugen" />
		<tag k="natural" v="hill" />
		<tag k="place" v="locality" />
		<tag k="ssr:stedsnr" v="968176" />
	</node>
	<node lat="60.226655553220105" lon="10.458244443647" id="-19094">
		<tag k="historic" v="shieling" />
		<tag k="name" v="Gammelsæter" />
		<tag k="place" v="locality" />
		<tag k="ssr:stedsnr" v="968430" />
	</node>
	<node lat="60.339000695247" lon="10.349378771833425" id="-19095">
		<tag k="fixme" v="consider place=hamlet" />
		<tag k="name" v="Halvorsbøle" />
		<tag k="place" v="farm" />
		<tag k="ssr:stedsnr" v="987865" />
	</node>
	<node lat="60.30576918932057" lon="10.441058998534533" id="-19096">
		<tag k="name" v="Granli" />
		<tag k="old_name" v="Granly" />
		<tag k="place" v="farm" />
		<tag k="ssr:stedsnr" v="987346" />
	</node>
	<node lat="60.30606510382421" lon="10.456860840754649" id="-19097">
		<tag k="name" v="Brenna" />
		<tag k="place" v="farm" />
		<tag k="ssr:stedsnr" v="987347" />
	</node>
	<node lat="60.315011402511" lon="10.46038640375824" id="-19098">
		<tag k="name" v="Rostedbekken" />
		<tag k="ssr:stedsnr" v="987348" />
		<tag k="waterway" v="stream" />
	</node>
	<node lat="60.30873900573268" lon="10.467144493742076" id="-19099">
		<tag k="name" v="Veloelva" />
		<tag k="ssr:stedsnr" v="987349" />
		<tag k="waterway" v="river" />
	</node>
	<node lat="60.30391720185923" lon="10.462104524980857" id="-19100">
		<tag k="name" v="Rustadelva" />
		<tag k="ssr:stedsnr" v="987350" />
		<tag k="waterway" v="river" />
	</node>
	<node lat="60.29391998917318" lon="10.459783406845814" id="-19101">
		<tag k="fixme" v="consider place=hamlet" />
		<tag k="name" v="Hvaterud" />
		<tag k="place" v="farm" />
		<tag k="ssr:stedsnr" v="987962" />
	</node>
	<node lat="60.279321783655355" lon="10.433166077152805" id="-19102">
		<tag k="name" v="Skjennum" />
		<tag k="place" v="hamlet" />
		<tag k="ssr:stedsnr" v="987963" />
	</node>
	<node lat="60.240554571511026" lon="10.400524571317224" id="-19103">
		<tag k="fixme" v="consider place=hamlet" />
		<tag k="name" v="Torbjørnrud" />
		<tag k="place" v="farm" />
		<tag k="ssr:stedsnr" v="987964" />
	</node>
	<node lat="60.2422715160605" lon="10.371749981929323" id="-19104">
		<tag k="fixme" v="consider place=hamlet" />
		<tag k="name" v="Berger" />
		<tag k="place" v="farm" />
		<tag k="ssr:stedsnr" v="987986" />
	</node>
	<node lat="60.24884023812566" lon="10.379123263710548" id="-19105">
		<tag k="fixme" v="consider place=hamlet" />
		<tag k="name" v="Nøkleby" />
		<tag k="place" v="farm" />
		<tag k="ssr:stedsnr" v="987987" />
	</node>
	<node lat="60.2535847135074" lon="10.381270670804035" id="-19106">
		<tag k="fixme" v="consider place=hamlet" />
		<tag k="name" v="Brørby" />
		<tag k="place" v="farm" />
		<tag k="ssr:stedsnr" v="987988" />
	</node>
	<node lat="60.27488946934328" lon="10.406005474598617" id="-19107">
		<tag k="fixme" v="consider place=hamlet" />
		<tag k="name" v="Bjellum" />
		<tag k="place" v="farm" />
		<tag k="ssr:stedsnr" v="987989" />
	</node>
	<node lat="60.30975352380493" lon="10.38420410577591" id="-19108">
		<tag k="fixme" v="consider place=hamlet" />
		<tag k="name" v="Bjertnes" />
		<tag k="place" v="farm" />
		<tag k="ssr:stedsnr" v="988012" />
	</node>
	<node lat="60.30778490129593" lon="10.432464057608716" id="-19109">
		<tag k="name" v="Velo" />
		<tag k="place" v="hamlet" />
		<tag k="ssr:stedsnr" v="988013" />
	</node>
	<node lat="60.30585170815578" lon="10.44678461035715" id="-19110">
		<tag k="fixme" v="multiple name tags, choose one and add the other to alt_name" />
		<tag k="name" v="Rustad;Øvre Rustad" />
		<tag k="place" v="farm" />
		<tag k="ssr:stedsnr" v="989046" />
	</node>
	<node lat="60.30015067853093" lon="10.398823126183757" id="-19137">
		<tag k="fixme" v="consider boundary=protected_area and relevant protect_class if not nature reserve" />
		<tag k="leisure" v="nature_reserve" />
		<tag k="name" v="Igulsrud naturreservat" />
		<tag k="ssr:stedsnr" v="1076674" />
	</node>
	<node lat="60.22267739388584" lon="10.428946209991015" id="-19138">
		<tag k="name" v="Sørås" />
		<tag k="place" v="locality" />
		<tag k="ssr:stedsnr" v="1076841" />
	</node>
	<node lat="60.21953464980158" lon="10.518106738479371" id="-19139">
		<tag k="fixme" v="consider tourism=alpine_hut or tourism=chalet" />
		<tag k="name" v="Bristol" />
		<tag k="ssr:stedsnr" v="1077856" />
		<tag k="tourism" v="wilderness_hut" />
	</node>
	<node lat="60.22031806361056" lon="10.42420073912164" id="-19145">
		<tag k="fixme" v="consider boundary=protected_area and relevant protect_class if not nature reserve" />
		<tag k="leisure" v="nature_reserve" />
		<tag k="name" v="Dælen naturreservat" />
		<tag k="ssr:stedsnr" v="1079537" />
	</node>
	<node lat="60.25604412459396" lon="10.426797543671062" id="-19147">
		<tag k="name" v="Vang" />
		<tag k="place" v="hamlet" />
		<tag k="ssr:stedsnr" v="1080609" />
	</node>
</osm>
