<?xml version="1.0" encoding="UTF-8"?>
<<<<<<< HEAD
<osm version="0.6" generator="osmapis">
	<node lat="60.37535000219764" lon="10.226986102821279" id="-16742">
		<tag k="fixme" v="consider boundary=protected_area and relevant protect_class if not nature reserve" />
		<tag k="leisure" v="nature_reserve" />
		<tag k="name" v="Samsjøberga naturreservat" />
		<tag k="ssr:stedsnr" v="909485" />
	</node>
	<node lat="60.20076680251289" lon="10.462341071223676" id="-16806">
=======
<osm generator="osmapis" version="0.6">
	<node id="-297557" lat="60.3001506785" lon="10.3988231262">
>>>>>>> e1d4bc35ff8a6074a6f2e91616a996b547c36f15
		<tag k="fixme" v="consider boundary=protected_area and relevant protect_class if not nature reserve" />
		<tag k="leisure" v="nature_reserve" />
		<tag k="name" v="Igelsrud naturreservat" />
		<tag k="ssr:stedsnr" v="1076674" />
	</node>
<<<<<<< HEAD
	<node lat="60.30015067853093" lon="10.398823126183757" id="-17240">
=======
	<node id="-297043" lat="60.3753500022" lon="10.2269861028">
>>>>>>> e1d4bc35ff8a6074a6f2e91616a996b547c36f15
		<tag k="fixme" v="consider boundary=protected_area and relevant protect_class if not nature reserve" />
		<tag k="leisure" v="nature_reserve" />
		<tag k="name" v="Igulsrud naturreservat" />
		<tag k="ssr:stedsnr" v="1076674" />
	</node>
	<node lat="60.22031806361056" lon="10.42420073912164" id="-17248">
		<tag k="fixme" v="consider boundary=protected_area and relevant protect_class if not nature reserve" />
		<tag k="leisure" v="nature_reserve" />
		<tag k="name" v="Dælen naturreservat" />
		<tag k="ssr:stedsnr" v="1079537" />
	</node>
	<node id="-297509" lat="60.2007668025" lon="10.4623410712">
		<tag k="fixme" v="consider boundary=protected_area and relevant protect_class if not nature reserve" />
		<tag k="leisure" v="nature_reserve" />
		<tag k="name" v="Langvassbrenna naturreservat" />
		<tag k="ssr:stedsnr" v="971441" />
	</node>
</osm>
