<?xml version="1.0" encoding="UTF-8"?>
<<<<<<< HEAD
<osm version="0.6" generator="osmapis">
	<node lat="60.22968889074376" lon="10.368294440665654" id="-16430">
		<tag k="name" v="Samsmoen" />
		<tag k="place" v="quarter" />
		<tag k="ssr:stedsnr" v="5463" />
	</node>
	<node lat="60.23874357232502" lon="10.426485629698186" id="-16431">
		<tag k="fixme" v="consider place=hamlet" />
		<tag k="name" v="Torshov" />
		<tag k="place" v="farm" />
		<tag k="ssr:stedsnr" v="5371" />
	</node>
	<node lat="60.36173884024292" lon="10.356704085973597" id="-16434">
		<tag k="fixme" v="consider place=hamlet" />
		<tag k="name" v="Kammerud" />
		<tag k="place" v="farm" />
		<tag k="ssr:stedsnr" v="6012" />
	</node>
	<node lat="60.283230555039275" lon="10.458391672012285" id="-16438">
		<tag k="name" v="Skårud" />
		<tag k="place" v="farm" />
		<tag k="ssr:stedsnr" v="6875" />
	</node>
	<node lat="60.22278610885794" lon="10.527558340353602" id="-16441">
		<tag k="name" v="Øljehytta" />
		<tag k="place" v="isolated_dwelling" />
		<tag k="ssr:stedsnr" v="32872" />
	</node>
	<node lat="60.19089167089921" lon="10.46014721845071" id="-16443">
		<tag k="name" v="Stormyrhytta" />
		<tag k="place" v="isolated_dwelling" />
		<tag k="ssr:stedsnr" v="34598" />
	</node>
	<node lat="60.26288611400326" lon="10.4790694499332" id="-16450">
		<tag k="name" v="Søberg" />
		<tag k="place" v="farm" />
		<tag k="ssr:stedsnr" v="58215" />
	</node>
	<node lat="60.24551944625123" lon="10.441124997427858" id="-16452">
		<tag k="name" v="Bekkestua" />
		<tag k="place" v="locality" />
		<tag k="ssr:stedsnr" v="66363" />
	</node>
	<node lat="60.25922219130059" lon="10.379025370523495" id="-16454">
		<tag k="fixme" v="consider place=hamlet" />
		<tag k="name" v="Nordby" />
		<tag k="place" v="farm" />
		<tag k="ssr:stedsnr" v="67802" />
	</node>
	<node lat="60.270686872042695" lon="10.525909666684122" id="-16455">
		<tag k="fixme" v="consider place=hamlet" />
		<tag k="name" v="Halvorsrud" />
		<tag k="place" v="farm" />
		<tag k="ssr:stedsnr" v="67812" />
	</node>
	<node lat="60.28092777599125" lon="10.429661110531669" id="-16456">
		<tag k="alt_name" v="Skjennum, nordre" />
		<tag k="name" v="Nordre Skjennum" />
		<tag k="place" v="farm" />
		<tag k="ssr:stedsnr" v="67846" />
	</node>
	<node lat="60.25112777537128" lon="10.35065278585654" id="-16457">
		<tag k="alt_name" v="Jørnsbråtan" />
		<tag k="historic" v="shieling" />
		<tag k="name" v="Jørnsbråtåsætra" />
		<tag k="place" v="isolated_dwelling" />
		<tag k="ssr:stedsnr" v="67753" />
	</node>
	<node lat="60.30404444059183" lon="10.40841944124572" id="-16461">
		<tag k="alt_name" v="Jørve" />
		<tag k="name" v="Gjørve" />
		<tag k="place" v="farm" />
		<tag k="ssr:stedsnr" v="67890" />
	</node>
	<node lat="60.33405526206157" lon="10.344035224476357" id="-16462">
		<tag k="fixme" v="consider place=hamlet" />
		<tag k="name" v="Elnes" />
		<tag k="place" v="farm" />
		<tag k="ssr:stedsnr" v="67993" />
	</node>
	<node lat="60.26970555776279" lon="10.514466664404974" id="-16463">
		<tag k="name" v="Myre" />
		<tag k="place" v="farm" />
		<tag k="ssr:stedsnr" v="93913" />
	</node>
	<node lat="60.270888887407764" lon="10.512977784368372" id="-16464">
		<tag k="name" v="Nordstrand" />
		<tag k="place" v="farm" />
		<tag k="ssr:stedsnr" v="93914" />
	</node>
	<node lat="60.29739041208404" lon="10.33788425712122" id="-16468">
		<tag k="name" v="Falla" />
		<tag k="place" v="farm" />
		<tag k="ssr:stedsnr" v="98806" />
	</node>
	<node lat="60.282236115438245" lon="10.449991662887442" id="-16470">
		<tag k="name" v="Vestenga" />
		<tag k="place" v="farm" />
		<tag k="ssr:stedsnr" v="100122" />
	</node>
	<node lat="60.235810789608706" lon="10.422395089590394" id="-16472">
		<tag k="fixme" v="consider place=hamlet" />
		<tag k="name" v="Hauger" />
		<tag k="place" v="farm" />
		<tag k="ssr:stedsnr" v="248382" />
	</node>
	<node lat="60.23327222125837" lon="10.4268999933622" id="-16473">
		<tag k="name" v="Haugen" />
		<tag k="place" v="farm" />
		<tag k="ssr:stedsnr" v="248383" />
	</node>
	<node lat="60.30011666784658" lon="10.337797215393588" id="-16477">
		<tag k="alt_name" v="Nord-Falla;Falla, nordre" />
		<tag k="name" v="Nordre Falla" />
		<tag k="place" v="farm" />
		<tag k="ssr:stedsnr" v="249391" />
	</node>
	<node lat="60.28815555329354" lon="10.29219999817988" id="-16478">
		<tag k="alt_name" v="Myrheim" />
		<tag k="name" v="Kistefosshytta" />
		<tag k="place" v="isolated_dwelling" />
		<tag k="ssr:stedsnr" v="249404" />
	</node>
	<node lat="60.274150177972444" lon="10.324704479118843" id="-16479">
		<tag k="name" v="Fuglesang" />
		<tag k="place" v="isolated_dwelling" />
		<tag k="ssr:stedsnr" v="249435" />
	</node>
	<node lat="60.26515277904302" lon="10.480363884833555" id="-16480">
		<tag k="name" v="Farmen" />
		<tag k="place" v="farm" />
		<tag k="ssr:stedsnr" v="249746" />
	</node>
	<node lat="60.25114722505059" lon="10.459711111472451" id="-16481">
		<tag k="alt_name" v="Bråtan" />
		<tag k="name" v="Bråtån" />
=======
<osm generator="osmapis" version="0.6">
	<node id="-296960" lat="60.3119664525" lon="10.3438783889">
		<tag k="fixme" v="consider place=hamlet" />
		<tag k="name" v="Myre" />
		<tag k="place" v="farm" />
		<tag k="ssr:stedsnr" v="674898" />
	</node>
	<node id="-297472" lat="60.2740138854" lon="10.5327472161">
		<tag k="name" v="Halvorsrud" />
		<tag k="place" v="farm" />
		<tag k="ssr:stedsnr" v="821949" />
	</node>
	<node id="-296957" lat="60.2789272884" lon="10.4507888151">
		<tag k="fixme" v="consider place=hamlet" />
		<tag k="name" v="Enger" />
		<tag k="place" v="farm" />
		<tag k="ssr:stedsnr" v="674837" />
	</node>
	<node id="-296955" lat="60.2810194475" lon="10.4898694521">
		<tag k="alt_name" v="Løvås" />
		<tag k="name" v="Lauvås" />
		<tag k="place" v="farm" />
		<tag k="ssr:stedsnr" v="674832" />
	</node>
	<node id="-296954" lat="60.3051091174" lon="10.4196465564">
		<tag k="fixme" v="consider place=hamlet" />
		<tag k="name" v="Sogn" />
		<tag k="place" v="farm" />
		<tag k="ssr:stedsnr" v="673898" />
	</node>
	<node id="-296953" lat="60.299811109" lon="10.4258416623">
		<tag k="alt_name" v="Løvstad" />
		<tag k="name" v="Lauvstad" />
		<tag k="place" v="isolated_dwelling" />
		<tag k="ssr:stedsnr" v="673861" />
	</node>
	<node id="-296952" lat="60.2639000001" lon="10.3788861064">
		<tag k="alt_name" v="Nordengen" />
		<tag k="name" v="Nordenga" />
		<tag k="place" v="farm" />
		<tag k="ssr:stedsnr" v="673797" />
	</node>
	<node id="-296951" lat="60.2613913191" lon="10.4601986853">
		<tag k="fixme" v="consider place=hamlet" />
		<tag k="name" v="Hensrud" />
		<tag k="place" v="farm" />
		<tag k="ssr:stedsnr" v="673753" />
	</node>
	<node id="-296950" lat="60.3458249992" lon="10.2717166695">
		<tag k="name" v="Tangnes" />
		<tag k="place" v="isolated_dwelling" />
		<tag k="ssr:stedsnr" v="673588" />
	</node>
	<node id="-297461" lat="60.3394250043" lon="10.3456500039">
		<tag k="name" v="Granli" />
		<tag k="place" v="farm" />
		<tag k="ssr:stedsnr" v="795055" />
	</node>
	<node id="-297147" lat="60.280927776" lon="10.4296611105">
		<tag k="alt_name" v="Skjennum, nordre" />
		<tag k="name" v="Nordre Skjennum" />
		<tag k="place" v="farm" />
		<tag k="ssr:stedsnr" v="67846" />
	</node>
	<node id="-297456" lat="60.2446583338" lon="10.3761444433">
		<tag k="name" v="Randsborg" />
		<tag k="place" v="quarter" />
		<tag k="ssr:stedsnr" v="786084" />
	</node>
	<node id="-296963" lat="60.273350001" lon="10.3104833284">
		<tag k="name" v="Nyseter" />
		<tag k="place" v="locality" />
		<tag k="ssr:stedsnr" v="701342" />
	</node>
	<node id="-296942" lat="60.3335805566" lon="10.270383329">
		<tag k="alt_name" v="Kolbotnhytta" />
		<tag k="name" v="Kolabotn" />
		<tag k="place" v="isolated_dwelling" />
		<tag k="ssr:stedsnr" v="673461" />
	</node>
	<node id="-297453" lat="60.2932694449" lon="10.3413861082">
		<tag k="name" v="Roensbråtan" />
		<tag k="place" v="locality" />
		<tag k="ssr:stedsnr" v="780250" />
	</node>
	<node id="-296939" lat="60.247405559" lon="10.4297527769">
		<tag k="name" v="Rønnerudsenga" />
		<tag k="place" v="isolated_dwelling" />
		<tag k="ssr:stedsnr" v="482157" />
	</node>
	<node id="-296938" lat="60.255347225" lon="10.4294305496">
		<tag k="name" v="Solbakken" />
		<tag k="place" v="farm" />
		<tag k="ssr:stedsnr" v="482155" />
	</node>
	<node id="-297446" lat="60.3513999998" lon="10.3596750012">
		<tag k="name" v="Jægersborg" />
		<tag k="place" v="isolated_dwelling" />
		<tag k="ssr:stedsnr" v="765401" />
	</node>
	<node id="-296933" lat="60.233241665" lon="10.4610638978">
		<tag k="name" v="Søtbakken" />
		<tag k="place" v="farm" />
		<tag k="ssr:stedsnr" v="672375" />
	</node>
	<node id="-296932" lat="60.2297527819" lon="10.4024611026">
		<tag k="name" v="Gruer" />
>>>>>>> e1d4bc35ff8a6074a6f2e91616a996b547c36f15
		<tag k="place" v="locality" />
		<tag k="ssr:stedsnr" v="672373" />
	</node>
<<<<<<< HEAD
	<node lat="60.291295346246855" lon="10.353511726465078" id="-16482">
		<tag k="name" v="Sandvika" />
		<tag k="place" v="farm" />
		<tag k="ssr:stedsnr" v="249862" />
	</node>
	<node lat="60.328438887574364" lon="10.345005554302452" id="-16484">
		<tag k="name" v="Strandberg" />
		<tag k="place" v="isolated_dwelling" />
		<tag k="ssr:stedsnr" v="119480" />
	</node>
	<node lat="60.33694722096741" lon="10.344450003293192" id="-16485">
		<tag k="name" v="Gjerdingen" />
		<tag k="place" v="farm" />
		<tag k="ssr:stedsnr" v="119482" />
	</node>
	<node lat="60.24851944328543" lon="10.370649994048247" id="-16490">
		<tag k="name" v="Nordhagen" />
		<tag k="place" v="quarter" />
		<tag k="ssr:stedsnr" v="127453" />
	</node>
	<node lat="60.24847777395979" lon="10.458997227415505" id="-16491">
		<tag k="alt_name" v="Åserud" />
		<tag k="name" v="Åsrud" />
		<tag k="place" v="locality" />
		<tag k="ssr:stedsnr" v="127454" />
	</node>
	<node lat="60.33240278165927" lon="10.311802778811387" id="-16492">
		<tag k="alt_name" v="Gladbakken" />
		<tag k="name" v="Gladbakk" />
		<tag k="place" v="isolated_dwelling" />
		<tag k="ssr:stedsnr" v="127489" />
	</node>
	<node lat="60.33365833079486" lon="10.280249995170387" id="-16493">
		<tag k="alt_name" v="Kimtjennseter" />
		<tag k="historic" v="shieling" />
		<tag k="name" v="Kimetjernsætra" />
		<tag k="place" v="isolated_dwelling" />
		<tag k="ssr:stedsnr" v="127493" />
	</node>
	<node lat="60.34010277933315" lon="10.261638880002195" id="-16496">
		<tag k="alt_name" v="Halvorsbølesætra, vestre;Vestre Halvorbøleseter" />
		<tag k="historic" v="shieling" />
		<tag k="name" v="Vestre Halvorsbølesætra" />
		<tag k="place" v="isolated_dwelling" />
		<tag k="ssr:stedsnr" v="127622" />
	</node>
	<node lat="60.30725833260728" lon="10.431850008388972" id="-16499">
		<tag k="alt_name" v="Velo" />
		<tag k="name" v="Vestre Velo" />
		<tag k="old_name" v="Velø" />
		<tag k="place" v="farm" />
		<tag k="ssr:stedsnr" v="127694" />
	</node>
	<node lat="60.25045833776656" lon="10.38748055828608" id="-16500">
		<tag k="name" v="Birkelund" />
		<tag k="place" v="isolated_dwelling" />
		<tag k="ssr:stedsnr" v="127804" />
	</node>
	<node lat="60.264377774988" lon="10.489336118583799" id="-16501">
		<tag k="name" v="Aslaksrud" />
		<tag k="place" v="farm" />
		<tag k="ssr:stedsnr" v="127788" />
	</node>
	<node lat="60.25708333570805" lon="10.489661103983662" id="-16502">
		<tag k="name" v="Myrvoll" />
		<tag k="place" v="farm" />
		<tag k="ssr:stedsnr" v="127789" />
	</node>
	<node lat="60.31088109409305" lon="10.423796793709275" id="-16504">
		<tag k="alt_name" v="Velo" />
		<tag k="name" v="Nordre Velo" />
		<tag k="place" v="farm" />
		<tag k="ssr:stedsnr" v="128909" />
	</node>
	<node lat="60.271636109469334" lon="10.517611115597647" id="-16510">
		<tag k="name" v="Bjerkås" />
		<tag k="old_name" v="Nordstuløkken;Bjerkaas" />
		<tag k="place" v="farm" />
		<tag k="ssr:stedsnr" v="163035" />
	</node>
	<node lat="60.243113893015085" lon="10.371800000667685" id="-16515">
		<tag k="alt_name" v="Berger" />
		<tag k="name" v="Øvre Berger" />
		<tag k="place" v="farm" />
		<tag k="ssr:stedsnr" v="188425" />
	</node>
	<node lat="60.2537999972876" lon="10.48051943720555" id="-16518">
		<tag k="name" v="Brattli" />
		<tag k="place" v="farm" />
		<tag k="ssr:stedsnr" v="188808" />
	</node>
	<node lat="60.25285555377548" lon="10.437611116995976" id="-16519">
		<tag k="name" v="Helleksrud" />
		<tag k="place" v="isolated_dwelling" />
		<tag k="ssr:stedsnr" v="188810" />
	</node>
	<node lat="60.27592499896981" lon="10.40794444250564" id="-16520">
		<tag k="alt_name" v="Bjellum, nordre;Bjellum" />
		<tag k="name" v="Nordre Bjellum" />
		<tag k="place" v="farm" />
		<tag k="ssr:stedsnr" v="188814" />
	</node>
	<node lat="60.29236111062591" lon="10.409399995635543" id="-16521">
		<tag k="name" v="Roenhagan" />
		<tag k="place" v="farm" />
		<tag k="ssr:stedsnr" v="188876" />
	</node>
	<node lat="60.309644441436696" lon="10.38644165914082" id="-16523">
		<tag k="alt_name" v="Bjertnes" />
		<tag k="name" v="Søndre Bjertnes" />
		<tag k="place" v="farm" />
		<tag k="ssr:stedsnr" v="212677" />
	</node>
	<node lat="60.25930833344452" lon="10.435225002218049" id="-16542">
		<tag k="name" v="Prestmoen" />
		<tag k="place" v="quarter" />
		<tag k="ssr:stedsnr" v="267813" />
	</node>
	<node lat="60.28259444639695" lon="10.339919451524215" id="-16552">
		<tag k="name" v="Åsbråtan" />
		<tag k="place" v="isolated_dwelling" />
		<tag k="ssr:stedsnr" v="309451" />
	</node>
	<node lat="60.331408336878205" lon="10.31598056220016" id="-16553">
		<tag k="alt_name" v="Skutseter" />
		<tag k="historic" v="shieling" />
		<tag k="name" v="Skutsætra" />
		<tag k="place" v="isolated_dwelling" />
		<tag k="ssr:stedsnr" v="309489" />
	</node>
	<node lat="60.378480558689844" lon="10.239161117519217" id="-16554">
		<tag k="alt_name" v="Tyrispikkhytta" />
		<tag k="name" v="Tyrispikhytta" />
		<tag k="place" v="isolated_dwelling" />
		<tag k="ssr:stedsnr" v="309638" />
	</node>
	<node lat="60.26686388768383" lon="10.50409722782418" id="-16555">
		<tag k="name" v="Vangen" />
		<tag k="place" v="isolated_dwelling" />
		<tag k="ssr:stedsnr" v="309807" />
	</node>
	<node lat="60.25467777638035" lon="10.381875008585098" id="-16556">
		<tag k="alt_name" v="Brørby, nordre" />
		<tag k="name" v="Nordre Brørby" />
		<tag k="place" v="farm" />
		<tag k="ssr:stedsnr" v="309738" />
	</node>
	<node lat="60.2495500041287" lon="10.369205559101253" id="-16557">
		<tag k="alt_name" v="Barbrostuhaugen" />
		<tag k="name" v="Haug" />
		<tag k="place" v="isolated_dwelling" />
		<tag k="ssr:stedsnr" v="309741" />
	</node>
	<node lat="60.28524999568722" lon="10.412866672164906" id="-16559">
		<tag k="fixme" v="consider place=hamlet" />
		<tag k="name" v="Sløvika" />
		<tag k="place" v="village" />
		<tag k="ssr:stedsnr" v="327477" />
	</node>
	<node lat="60.30766968679712" lon="10.434877232655166" id="-16560">
		<tag k="name" v="Østre Velo" />
		<tag k="place" v="farm" />
		<tag k="ssr:stedsnr" v="333204" />
	</node>
	<node lat="60.23952778220752" lon="10.349286109245861" id="-16568">
		<tag k="name" v="Mikkelshytta" />
		<tag k="place" v="isolated_dwelling" />
		<tag k="ssr:stedsnr" v="476698" />
	</node>
	<node lat="60.239297225733736" lon="10.35435555960495" id="-16569">
		<tag k="name" v="Merredokka" />
		<tag k="place" v="locality" />
		<tag k="ssr:stedsnr" v="476764" />
	</node>
	<node lat="60.2367166643013" lon="10.361652779805368" id="-16570">
		<tag k="alt_name" v="Bergebakken" />
		<tag k="name" v="Bergerbakken" />
		<tag k="place" v="quarter" />
		<tag k="ssr:stedsnr" v="476756" />
	</node>
	<node lat="60.24786666674492" lon="10.365802771945216" id="-16572">
		<tag k="name" v="Pilkollen" />
		<tag k="place" v="quarter" />
		<tag k="ssr:stedsnr" v="476996" />
	</node>
	<node lat="60.26778055552785" lon="10.494877773106774" id="-16576">
		<tag k="alt_name" v="Østre Olimb;Olum østre;Olum;Olom" />
		<tag k="loc_name" v="Austre-Olum" />
		<tag k="name" v="Østre Olum" />
		<tag k="place" v="farm" />
		<tag k="ssr:stedsnr" v="370823" />
	</node>
	<node lat="60.297872807431496" lon="10.388449299246272" id="-16578">
		<tag k="alt_name" v="Igelsrud" />
		<tag k="fixme" v="consider place=hamlet" />
		<tag k="name" v="Igulsrud" />
		<tag k="place" v="farm" />
		<tag k="ssr:stedsnr" v="370867" />
	</node>
	<node lat="60.25534722496413" lon="10.429430549551432" id="-16581">
		<tag k="name" v="Solbakken" />
		<tag k="place" v="farm" />
		<tag k="ssr:stedsnr" v="482155" />
	</node>
	<node lat="60.247405559023385" lon="10.429752776909403" id="-16582">
		<tag k="name" v="Rønnerudsenga" />
		<tag k="place" v="isolated_dwelling" />
		<tag k="ssr:stedsnr" v="482157" />
	</node>
	<node lat="60.283280661151565" lon="10.454496600458011" id="-16585">
		<tag k="fixme" v="consider place=hamlet" />
		<tag k="name" v="Skårud" />
		<tag k="old_name" v="Skålerud" />
		<tag k="place" v="farm" />
		<tag k="ssr:stedsnr" v="403119" />
	</node>
	<node lat="60.292825000824884" lon="10.333652774499129" id="-16587">
		<tag k="name" v="Øvre Rolfsbråtan" />
		<tag k="place" v="farm" />
		<tag k="ssr:stedsnr" v="416250" />
	</node>
	<node lat="60.19297322500277" lon="10.52895993573267" id="-16588">
		<tag k="historic" v="shieling" />
		<tag k="loc_name" v="Lortholoa" />
		<tag k="name" v="Holoa" />
		<tag k="old_name" v="Holoa Sr;Holosætra;Lorthul Sr" />
		<tag k="place" v="isolated_dwelling" />
		<tag k="ssr:stedsnr" v="418440" />
	</node>
	<node lat="60.2682666682706" lon="10.474900002157279" id="-16589">
		<tag k="name" v="Ragnhildrud" />
		<tag k="place" v="quarter" />
		<tag k="ssr:stedsnr" v="419911" />
	</node>
	<node lat="60.224794444924974" lon="10.420102785393361" id="-16599">
		<tag k="name" v="Haukerud" />
		<tag k="place" v="locality" />
		<tag k="ssr:stedsnr" v="430449" />
	</node>
	<node lat="60.21011111529116" lon="10.509866671869137" id="-16600">
		<tag k="alt_name" v="Tverrsjøhytta" />
		<tag k="name" v="Tverrsjøstallen" />
		<tag k="place" v="isolated_dwelling" />
		<tag k="ssr:stedsnr" v="430462" />
	</node>
	<node lat="60.267250943685404" lon="10.414111119020498" id="-16601">
		<tag k="fixme" v="consider place=hamlet" />
		<tag k="name" v="Gulla" />
		<tag k="place" v="farm" />
		<tag k="ssr:stedsnr" v="431804" />
	</node>
	<node lat="60.26656666680682" lon="10.467702769430355" id="-16602">
		<tag k="alt_name" v="Lien" />
		<tag k="name" v="Lia" />
		<tag k="place" v="farm" />
		<tag k="ssr:stedsnr" v="431807" />
	</node>
	<node lat="60.28840468871857" lon="10.499345431598783" id="-16603">
		<tag k="alt_name" v="Vadsjø" />
		<tag k="fixme" v="consider place=hamlet" />
		<tag k="name" v="Vassjø" />
		<tag k="place" v="farm" />
		<tag k="ssr:stedsnr" v="431840" />
	</node>
	<node lat="60.3370916624477" lon="10.355961113128338" id="-16605">
		<tag k="name" v="Solstad" />
		<tag k="place" v="isolated_dwelling" />
		<tag k="ssr:stedsnr" v="431996" />
	</node>
	<node lat="60.3349666663863" lon="10.352122219134689" id="-16606">
		<tag k="name" v="Solvik" />
		<tag k="place" v="farm" />
		<tag k="ssr:stedsnr" v="431997" />
	</node>
	<node lat="60.33234722660641" lon="10.322219450781454" id="-16607">
		<tag k="alt_name" v="Elnesseter" />
		<tag k="historic" v="shieling" />
		<tag k="name" v="Elnessætra" />
		<tag k="place" v="isolated_dwelling" />
		<tag k="ssr:stedsnr" v="491465" />
	</node>
	<node lat="60.25236388634876" lon="10.3785638817026" id="-16608">
		<tag k="name" v="Solberg" />
		<tag k="place" v="farm" />
		<tag k="ssr:stedsnr" v="491738" />
	</node>
	<node lat="60.28775555289761" lon="10.492750000402943" id="-16609">
		<tag k="name" v="Mellerud" />
		<tag k="place" v="farm" />
		<tag k="ssr:stedsnr" v="491811" />
	</node>
	<node lat="60.28980906580233" lon="10.41191299478497" id="-16610">
		<tag k="fixme" v="consider place=hamlet" />
		<tag k="name" v="Haga" />
		<tag k="place" v="farm" />
		<tag k="ssr:stedsnr" v="491860" />
	</node>
	<node lat="60.233241664986146" lon="10.461063897794444" id="-16612">
		<tag k="name" v="Søtbakken" />
		<tag k="place" v="farm" />
		<tag k="ssr:stedsnr" v="672375" />
	</node>
	<node lat="60.30015833114217" lon="10.29314444895389" id="-16616">
		<tag k="name" v="Torvheim" />
		<tag k="place" v="isolated_dwelling" />
		<tag k="ssr:stedsnr" v="459270" />
	</node>
	<node lat="60.34582499921486" lon="10.271716669515099" id="-16623">
		<tag k="name" v="Tangnes" />
		<tag k="place" v="isolated_dwelling" />
		<tag k="ssr:stedsnr" v="673588" />
	</node>
	<node lat="60.26139131905695" lon="10.460198685291678" id="-16624">
		<tag k="fixme" v="consider place=hamlet" />
		<tag k="name" v="Hensrud" />
		<tag k="place" v="farm" />
		<tag k="ssr:stedsnr" v="673753" />
	</node>
	<node lat="60.2998111089603" lon="10.4258416622761" id="-16625">
		<tag k="alt_name" v="Løvstad" />
		<tag k="name" v="Lauvstad" />
		<tag k="place" v="isolated_dwelling" />
		<tag k="ssr:stedsnr" v="673861" />
	</node>
	<node lat="60.2639000000835" lon="10.37888610637641" id="-16626">
		<tag k="alt_name" v="Nordengen" />
		<tag k="name" v="Nordenga" />
		<tag k="place" v="farm" />
		<tag k="ssr:stedsnr" v="673797" />
	</node>
	<node lat="60.30510911740584" lon="10.41964655643572" id="-16627">
		<tag k="fixme" v="consider place=hamlet" />
		<tag k="name" v="Sogn" />
		<tag k="place" v="farm" />
		<tag k="ssr:stedsnr" v="673898" />
	</node>
	<node lat="60.27328333614214" lon="10.44169444825359" id="-16628">
		<tag k="name" v="Igelstad" />
		<tag k="place" v="isolated_dwelling" />
		<tag k="ssr:stedsnr" v="464002" />
	</node>
	<node lat="60.282239942962384" lon="10.495942730387519" id="-16629">
		<tag k="alt_name" v="Feldberg;Felberg" />
		<tag k="fixme" v="consider place=hamlet" />
		<tag k="name" v="Fellberg" />
		<tag k="place" v="farm" />
		<tag k="ssr:stedsnr" v="674811" />
	</node>
	<node lat="60.28101944748027" lon="10.48986945207372" id="-16631">
		<tag k="alt_name" v="Løvås" />
		<tag k="name" v="Lauvås" />
		<tag k="place" v="farm" />
		<tag k="ssr:stedsnr" v="674832" />
	</node>
	<node lat="60.278927288395394" lon="10.450788815053958" id="-16633">
		<tag k="fixme" v="consider place=hamlet" />
		<tag k="name" v="Enger" />
		<tag k="place" v="farm" />
		<tag k="ssr:stedsnr" v="674837" />
	</node>
	<node lat="60.2369472216022" lon="10.360866669810859" id="-16641">
		<tag k="alt_name" v="Stensrud" />
		<tag k="name" v="Steinerud" />
		<tag k="place" v="isolated_dwelling" />
		<tag k="ssr:stedsnr" v="490388" />
	</node>
	<node lat="60.346894441492246" lon="10.305136107023412" id="-16644">
		<tag k="alt_name" v="Halvorsbølesætra, østre;Halvorbøleseter" />
		<tag k="historic" v="shieling" />
		<tag k="name" v="Østre Halvorsbølesætra" />
		<tag k="place" v="isolated_dwelling" />
		<tag k="ssr:stedsnr" v="491596" />
	</node>
	<node lat="60.27788506715238" lon="10.502261305664115" id="-16645">
		<tag k="alt_name" v="Øvre Tronrud" />
		<tag k="fixme" v="consider place=hamlet" />
		<tag k="name" v="Trondrud" />
		<tag k="place" v="farm" />
		<tag k="ssr:stedsnr" v="491828" />
	</node>
	<node lat="60.303991669995426" lon="10.404802784572428" id="-16646">
		<tag k="name" v="Dalsenga" />
		<tag k="place" v="farm" />
		<tag k="ssr:stedsnr" v="491878" />
	</node>
	<node lat="60.26726388630951" lon="10.538330558835698" id="-16648">
		<tag k="name" v="Høghaug" />
		<tag k="place" v="isolated_dwelling" />
		<tag k="ssr:stedsnr" v="517961" />
	</node>
	<node lat="60.263583333879644" lon="10.42516388267014" id="-16651">
		<tag k="name" v="Randsvangen" />
		<tag k="ssr:stedsnr" v="524911" />
		<tag k="tourism" v="hotel" />
	</node>
	<node lat="60.24774722192324" lon="10.377702773038104" id="-16656">
		<tag k="alt_name" v="Nøkleby" />
		<tag k="name" v="Øvre Nøkleby" />
		<tag k="place" v="farm" />
		<tag k="ssr:stedsnr" v="551411" />
	</node>
	<node lat="60.292650029181615" lon="10.335921814113151" id="-16663">
		<tag k="alt_name" v="Nedre Rolfsbråtan" />
		<tag k="name" v="Rolvsbråtan" />
		<tag k="place" v="farm" />
		<tag k="ssr:stedsnr" v="552440" />
	</node>
	<node lat="60.272116669474826" lon="10.40699166754957" id="-16668">
		<tag k="alt_name" v="Bjellum, søndre;Bjellum" />
		<tag k="name" v="Søndre Bjellum" />
		<tag k="place" v="farm" />
		<tag k="ssr:stedsnr" v="552812" />
	</node>
	<node lat="60.282538890252916" lon="10.513555555149527" id="-16669">
		<tag k="alt_name" v="Stensrud" />
		<tag k="name" v="Steinsrud" />
		<tag k="place" v="farm" />
		<tag k="ssr:stedsnr" v="552847" />
	</node>
	<node lat="60.263000001549166" lon="10.496191672271614" id="-16674">
		<tag k="name" v="Sagenga" />
		<tag k="place" v="farm" />
		<tag k="ssr:stedsnr" v="579000" />
	</node>
	<node lat="60.26636666823406" lon="10.45402777827842" id="-16677">
		<tag k="name" v="Karlsrud" />
=======
	<node id="-296931" lat="60.2339332887" lon="10.4066946403">
		<tag k="alt_name" v="Moe" />
		<tag k="fixme" v="consider place=hamlet" />
		<tag k="name" v="Mo" />
		<tag k="place" v="farm" />
		<tag k="ssr:stedsnr" v="672369" />
	</node>
	<node id="-296930" lat="60.2392972257" lon="10.3543555596">
		<tag k="name" v="Merredokka" />
		<tag k="place" v="locality" />
		<tag k="ssr:stedsnr" v="476764" />
	</node>
	<node id="-296929" lat="60.2367166643" lon="10.3616527798">
		<tag k="alt_name" v="Bergebakken" />
		<tag k="name" v="Bergerbakken" />
		<tag k="place" v="quarter" />
		<tag k="ssr:stedsnr" v="476756" />
	</node>
	<node id="-297440" lat="60.2818166649" lon="10.4479472176">
		<tag k="name" v="Enerhaugen" />
		<tag k="place" v="farm" />
		<tag k="ssr:stedsnr" v="645113" />
	</node>
	<node id="-297437" lat="60.2885805576" lon="10.3978277755">
		<tag k="name" v="Vestre Roen" />
		<tag k="place" v="farm" />
		<tag k="ssr:stedsnr" v="640435" />
	</node>
	<node id="-296924" lat="60.2732833361" lon="10.4416944483">
		<tag k="name" v="Igelstad" />
		<tag k="place" v="isolated_dwelling" />
		<tag k="ssr:stedsnr" v="464002" />
	</node>
	<node id="-296923" lat="60.338961107" lon="10.3557666669">
		<tag k="name" v="Furulund" />
		<tag k="place" v="isolated_dwelling" />
		<tag k="ssr:stedsnr" v="665498" />
	</node>
	<node id="-297433" lat="60.2646888867" lon="10.5083583306">
		<tag k="name" v="Langdalen" />
		<tag k="place" v="farm" />
		<tag k="ssr:stedsnr" v="638970" />
	</node>
	<node id="-297432" lat="60.2784472249" lon="10.5319805614">
		<tag k="name" v="Prestlia" />
		<tag k="place" v="farm" />
		<tag k="ssr:stedsnr" v="638950" />
	</node>
	<node id="-297465" lat="60.2853111139" lon="10.4280972225">
		<tag k="name" v="Dokka" />
		<tag k="place" v="isolated_dwelling" />
		<tag k="ssr:stedsnr" v="795874" />
	</node>
	<node id="-297427" lat="60.3106434283" lon="10.4165077311">
		<tag k="fixme" v="consider place=hamlet" />
		<tag k="name" v="Rud" />
		<tag k="place" v="farm" />
		<tag k="ssr:stedsnr" v="612877" />
	</node>
	<node id="-297464" lat="60.2952416652" lon="10.4678277791">
		<tag k="alt_name" v="Østre Vaterud" />
		<tag k="fixme" v="multiple name tags, choose one and add the other to alt_name" />
		<tag k="name" v="Løykebråtån;Østre Hvaterud" />
		<tag k="place" v="farm" />
		<tag k="ssr:stedsnr" v="795867" />
	</node>
	<node id="-296908" lat="60.3021555529" lon="10.4391416698">
		<tag k="alt_name" v="Linjeløkka" />
		<tag k="name" v="Linlykkja" />
		<tag k="place" v="farm" />
		<tag k="ssr:stedsnr" v="431905" />
	</node>
	<node id="-296907" lat="60.2884046887" lon="10.4993454316">
		<tag k="alt_name" v="Vadsjø" />
		<tag k="fixme" v="consider place=hamlet" />
		<tag k="name" v="Vassjø" />
		<tag k="place" v="farm" />
		<tag k="ssr:stedsnr" v="431840" />
	</node>
	<node id="-296906" lat="60.2665666668" lon="10.4677027694">
		<tag k="alt_name" v="Lien" />
		<tag k="name" v="Lia" />
		<tag k="place" v="farm" />
		<tag k="ssr:stedsnr" v="431807" />
	</node>
	<node id="-296905" lat="60.2672509437" lon="10.414111119">
		<tag k="fixme" v="consider place=hamlet" />
		<tag k="name" v="Gulla" />
		<tag k="place" v="farm" />
		<tag k="ssr:stedsnr" v="431804" />
	</node>
	<node id="-296904" lat="60.287816664" lon="10.3423027752">
		<tag k="alt_name" v="Djupdalen" />
		<tag k="name" v="Djupdal" />
		<tag k="place" v="isolated_dwelling" />
		<tag k="ssr:stedsnr" v="431434" />
	</node>
	<node id="-296903" lat="60.2957638893" lon="10.3378888834">
		<tag k="alt_name" v="Sør-Falla;Falla, s" />
		<tag k="name" v="Søndre Falla" />
		<tag k="place" v="farm" />
		<tag k="ssr:stedsnr" v="431410" />
	</node>
	<node id="-296902" lat="60.2247944449" lon="10.4201027854">
		<tag k="name" v="Haukerud" />
		<tag k="place" v="locality" />
		<tag k="ssr:stedsnr" v="430449" />
	</node>
	<node id="-297413" lat="60.2452888875" lon="10.3681944484">
		<tag k="name" v="Nordhaugen" />
		<tag k="place" v="quarter" />
		<tag k="ssr:stedsnr" v="598000" />
	</node>
	<node id="-297410" lat="60.2693055577" lon="10.33241388">
		<tag k="historic" v="shieling" />
		<tag k="name" v="Nordbyseter" />
		<tag k="place" v="locality" />
		<tag k="ssr:stedsnr" v="597907" />
	</node>
	<node id="-297291" lat="60.3054500021" lon="10.385127771">
		<tag k="building" v="industrial" />
		<tag k="name" v="Bjertnes sag" />
		<tag k="ssr:stedsnr" v="337382" />
	</node>
	<node id="-296894" lat="60.3416722182" lon="10.3470916735">
		<tag k="name" v="Øllebråtan" />
		<tag k="place" v="farm" />
		<tag k="ssr:stedsnr" v="422715" />
	</node>
	<node id="-297404" lat="60.3547166647" lon="10.3613222212">
		<tag k="name" v="Bjørklund" />
		<tag k="place" v="farm" />
		<tag k="ssr:stedsnr" v="583417" />
	</node>
	<node id="-296891" lat="60.2682666683" lon="10.4749000022">
		<tag k="name" v="Ragnhildrud" />
		<tag k="place" v="quarter" />
		<tag k="ssr:stedsnr" v="419911" />
	</node>
	<node id="-296890" lat="60.192973225" lon="10.5289599357">
		<tag k="historic" v="shieling" />
		<tag k="loc_name" v="Lortholoa" />
		<tag k="name" v="Holoa" />
		<tag k="old_name" v="Holoa Sr;Holosætra;Lorthul Sr" />
		<tag k="place" v="locality" />
		<tag k="ssr:stedsnr" v="418440" />
	</node>
	<node id="-297401" lat="60.2630000015" lon="10.4961916723">
		<tag k="name" v="Sagenga" />
		<tag k="place" v="farm" />
		<tag k="ssr:stedsnr" v="579000" />
	</node>
	<node id="-296888" lat="60.2832806612" lon="10.4544966005">
		<tag k="fixme" v="consider place=hamlet" />
		<tag k="name" v="Skårud" />
		<tag k="old_name" v="Skålerud" />
		<tag k="place" v="farm" />
		<tag k="ssr:stedsnr" v="403119" />
	</node>
	<node id="-296887" lat="60.2788944459" lon="10.4792305562">
		<tag k="name" v="Bakken" />
		<tag k="place" v="farm" />
		<tag k="ssr:stedsnr" v="403012" />
	</node>
	<node id="-297398" lat="60.2825388903" lon="10.5135555551">
		<tag k="alt_name" v="Stensrud" />
		<tag k="name" v="Steinsrud" />
		<tag k="place" v="farm" />
		<tag k="ssr:stedsnr" v="552847" />
	</node>
	<node id="-296885" lat="60.2269255301" lon="10.4286402204">
		<tag k="name" v="Nordås" />
		<tag k="place" v="locality" />
		<tag k="ssr:stedsnr" v="361167" />
	</node>
	<node id="-296883" lat="60.30399167" lon="10.4048027846">
		<tag k="name" v="Dalsenga" />
		<tag k="place" v="farm" />
		<tag k="ssr:stedsnr" v="491878" />
	</node>
	<node id="-296882" lat="60.2898090658" lon="10.4119129948">
		<tag k="fixme" v="consider place=hamlet" />
		<tag k="name" v="Haga" />
		<tag k="place" v="farm" />
		<tag k="ssr:stedsnr" v="491860" />
	</node>
	<node id="-296881" lat="60.2778850672" lon="10.5022613057">
		<tag k="alt_name" v="Øvre Tronrud" />
		<tag k="fixme" v="consider place=hamlet" />
		<tag k="name" v="Trondrud" />
		<tag k="place" v="farm" />
		<tag k="ssr:stedsnr" v="491828" />
	</node>
	<node id="-296880" lat="60.2877555529" lon="10.4927500004">
		<tag k="name" v="Mellerud" />
		<tag k="place" v="farm" />
		<tag k="ssr:stedsnr" v="491811" />
	</node>
	<node id="-296879" lat="60.2523638863" lon="10.3785638817">
		<tag k="name" v="Solberg" />
		<tag k="place" v="farm" />
		<tag k="ssr:stedsnr" v="491738" />
	</node>
	<node id="-296878" lat="60.3468944415" lon="10.305136107">
		<tag k="alt_name" v="Halvorsbølesætra, østre;Halvorbøleseter" />
		<tag k="historic" v="shieling" />
		<tag k="name" v="Østre Halvorsbølesætra" />
		<tag k="place" v="locality" />
		<tag k="ssr:stedsnr" v="491596" />
	</node>
	<node id="-296876" lat="60.3323472266" lon="10.3222194508">
		<tag k="alt_name" v="Elnesseter" />
		<tag k="historic" v="shieling" />
		<tag k="name" v="Elnessætra" />
		<tag k="place" v="locality" />
		<tag k="ssr:stedsnr" v="491465" />
	</node>
	<node id="-296874" lat="60.2628527797" lon="10.4567638877">
		<tag k="alt_name" v="Presthagen" />
		<tag k="name" v="Presthagan" />
		<tag k="place" v="farm" />
		<tag k="ssr:stedsnr" v="552779" />
	</node>
	<node id="-297384" lat="60.3764777747" lon="10.2028138906">
		<tag k="name" v="Øvre Finneplassen" />
		<tag k="place" v="farm" />
		<tag k="ssr:stedsnr" v="551616" />
	</node>
	<node id="-297372" lat="60.2477472219" lon="10.377702773">
		<tag k="alt_name" v="Nøkleby" />
		<tag k="name" v="Øvre Nøkleby" />
		<tag k="place" v="farm" />
		<tag k="ssr:stedsnr" v="551411" />
	</node>
	<node id="-296870" lat="60.2369472216" lon="10.3608666698">
		<tag k="alt_name" v="Stensrud" />
		<tag k="name" v="Steinerud" />
		<tag k="place" v="isolated_dwelling" />
		<tag k="ssr:stedsnr" v="490388" />
	</node>
	<node id="-297006" lat="60.3134166678" lon="10.3467361177">
		<tag k="name" v="Myrevoll" />
		<tag k="place" v="farm" />
		<tag k="ssr:stedsnr" v="734913" />
	</node>
	<node id="-296860" lat="60.3076696868" lon="10.4348772327">
		<tag k="name" v="Østre Velo" />
		<tag k="place" v="farm" />
		<tag k="ssr:stedsnr" v="333204" />
	</node>
	<node id="-296857" lat="60.2478666667" lon="10.3658027719">
		<tag k="name" v="Pilkollen" />
		<tag k="place" v="quarter" />
		<tag k="ssr:stedsnr" v="476996" />
	</node>
	<node id="-296856" lat="60.2395277822" lon="10.3492861092">
		<tag k="name" v="Mikkelshytta" />
		<tag k="place" v="isolated_dwelling" />
		<tag k="ssr:stedsnr" v="476698" />
	</node>
	<node id="-296855" lat="60.2668638877" lon="10.5040972278">
		<tag k="name" v="Vangen" />
		<tag k="place" v="isolated_dwelling" />
		<tag k="ssr:stedsnr" v="309807" />
	</node>
	<node id="-296854" lat="60.2495500041" lon="10.3692055591">
		<tag k="alt_name" v="Barbrostuhaugen" />
		<tag k="name" v="Haug" />
		<tag k="place" v="isolated_dwelling" />
		<tag k="ssr:stedsnr" v="309741" />
	</node>
	<node id="-297365" lat="60.2211777746" lon="10.3810444484">
		<tag k="alt_name" v="Frankrik" />
		<tag k="name" v="Frankrike" />
		<tag k="old_name" v="Frankrig" />
		<tag k="place" v="farm" />
		<tag k="ssr:stedsnr" v="539461" />
	</node>
	<node id="-297364" lat="60.2380083314" lon="10.3685694446">
		<tag k="name" v="Rundhaugen" />
		<tag k="place" v="quarter" />
		<tag k="ssr:stedsnr" v="537735" />
	</node>
	<node id="-297361" lat="60.2635833339" lon="10.4251638827">
		<tag k="name" v="Randsvangen" />
		<tag k="ssr:stedsnr" v="524911" />
		<tag k="tourism" v="hotel" />
	</node>
	<node id="-297360" lat="60.3349666664" lon="10.3521222191">
		<tag k="name" v="Solvik" />
		<tag k="place" v="farm" />
		<tag k="ssr:stedsnr" v="431997" />
	</node>
	<node id="-297359" lat="60.3370916624" lon="10.3559611131">
		<tag k="name" v="Solstad" />
		<tag k="place" v="isolated_dwelling" />
		<tag k="ssr:stedsnr" v="431996" />
	</node>
	<node id="-297358" lat="60.2558861146" lon="10.4785888811">
		<tag k="name" v="Sørenga" />
		<tag k="place" v="farm" />
		<tag k="ssr:stedsnr" v="431799" />
	</node>
	<node id="-296843" lat="60.3001583311" lon="10.293144449">
		<tag k="name" v="Torvheim" />
		<tag k="place" v="isolated_dwelling" />
		<tag k="ssr:stedsnr" v="459270" />
	</node>
	<node id="-297354" lat="60.2979499978" lon="10.4171166689">
		<tag k="name" v="Høybråtån" />
		<tag k="place" v="isolated_dwelling" />
		<tag k="ssr:stedsnr" v="431874" />
	</node>
	<node id="-297353" lat="60.2101111153" lon="10.5098666719">
		<tag k="alt_name" v="Tverrsjøhytta" />
		<tag k="name" v="Tverrsjøstallen" />
		<tag k="place" v="isolated_dwelling" />
		<tag k="ssr:stedsnr" v="430462" />
	</node>
	<node id="-296840" lat="60.2593083334" lon="10.4352250022">
		<tag k="name" v="Prestmoen" />
		<tag k="place" v="quarter" />
		<tag k="ssr:stedsnr" v="267813" />
	</node>
	<node id="-296835" lat="60.2881555533" lon="10.2921999982">
		<tag k="alt_name" v="Myrheim" />
		<tag k="name" v="Kistefosshytta" />
		<tag k="place" v="isolated_dwelling" />
		<tag k="ssr:stedsnr" v="249404" />
	</node>
	<node id="-297345" lat="60.2305861099" lon="10.4779749972">
		<tag k="historic" v="shieling" />
		<tag k="name" v="Vang seter" />
		<tag k="place" v="locality" />
		<tag k="ssr:stedsnr" v="422135" />
	</node>
	<node id="-296853" lat="60.2546777764" lon="10.3818750086">
		<tag k="alt_name" v="Brørby, nordre" />
		<tag k="name" v="Nordre Brørby" />
		<tag k="place" v="farm" />
		<tag k="ssr:stedsnr" v="309738" />
	</node>
	<node id="-297450" lat="60.2258694459" lon="10.3639999987">
		<tag k="name" v="Furumoen" />
		<tag k="place" v="quarter" />
		<tag k="ssr:stedsnr" v="779582" />
	</node>
	<node id="-297335" lat="60.2928250008" lon="10.3336527745">
		<tag k="name" v="Øvre Rolfsbråtan" />
		<tag k="place" v="farm" />
		<tag k="ssr:stedsnr" v="416250" />
	</node>
	<node id="-297331" lat="60.2927861096" lon="10.414422222">
		<tag k="name" v="Løvli" />
		<tag k="place" v="farm" />
		<tag k="ssr:stedsnr" v="398365" />
	</node>
	<node id="-296818" lat="60.3541666637" lon="10.3377416655">
		<tag k="name" v="Bergebråtan" />
		<tag k="place" v="locality" />
		<tag k="ssr:stedsnr" v="280439" />
	</node>
	<node id="-297329" lat="60.2930555552" lon="10.280941669">
		<tag k="name" v="Brennfu" />
		<tag k="place" v="isolated_dwelling" />
		<tag k="ssr:stedsnr" v="398260" />
	</node>
	<node id="-296816" lat="60.2600805579" lon="10.4899638881">
		<tag k="leisure" v="pitch" />
		<tag k="name" v="Idrettsplass" />
		<tag k="ssr:stedsnr" v="275932" />
	</node>
	<node id="-297327" lat="60.2862527779" lon="10.4077055485">
		<tag k="name" v="Østre Roen" />
		<tag k="place" v="farm" />
		<tag k="ssr:stedsnr" v="398178" />
	</node>
	<node id="-296814" lat="60.2806861147" lon="10.5164944391">
		<tag k="name" v="Østre Igelstad" />
		<tag k="place" v="farm" />
		<tag k="ssr:stedsnr" v="299857" />
	</node>
	<node id="-297325" lat="60.2817972185" lon="10.5203749942">
		<tag k="name" v="Prestbråtan" />
		<tag k="place" v="farm" />
		<tag k="ssr:stedsnr" v="396968" />
	</node>
	<node id="-297324" lat="60.2720388901" lon="10.5217527724">
		<tag k="name" v="Hellerud" />
		<tag k="place" v="farm" />
		<tag k="ssr:stedsnr" v="396926" />
	</node>
	<node id="-296811" lat="60.3108810941" lon="10.4237967937">
		<tag k="alt_name" v="Velo" />
		<tag k="name" v="Nordre Velo" />
>>>>>>> e1d4bc35ff8a6074a6f2e91616a996b547c36f15
		<tag k="place" v="farm" />
		<tag k="ssr:stedsnr" v="128909" />
	</node>
<<<<<<< HEAD
	<node lat="60.3086027763511" lon="10.393180557892958" id="-16679">
		<tag k="name" v="Grønndal" />
		<tag k="place" v="farm" />
		<tag k="ssr:stedsnr" v="697662" />
	</node>
	<node lat="60.269305557650114" lon="10.332413879976484" id="-16680">
		<tag k="historic" v="shieling" />
		<tag k="name" v="Nordbyseter" />
		<tag k="place" v="isolated_dwelling" />
		<tag k="ssr:stedsnr" v="597907" />
	</node>
	<node lat="60.245288887469215" lon="10.368194448425493" id="-16682">
		<tag k="name" v="Nordhaugen" />
		<tag k="place" v="quarter" />
		<tag k="ssr:stedsnr" v="598000" />
	</node>
	<node lat="60.24048889221947" lon="10.383338893896921" id="-16683">
		<tag k="name" v="Nesbakken" />
		<tag k="place" v="quarter" />
		<tag k="ssr:stedsnr" v="603161" />
	</node>
	<node lat="60.23415555428215" lon="10.52052221649609" id="-16687">
		<tag k="alt_name" v="Sinnerseter" />
		<tag k="historic" v="shieling" />
		<tag k="name" v="Sindersætra" />
		<tag k="place" v="isolated_dwelling" />
		<tag k="ssr:stedsnr" v="611409" />
	</node>
	<node lat="60.265822218253575" lon="10.515341658708062" id="-16691">
		<tag k="alt_name" v="Olimbsbråtan;Olimbsbråten" />
		<tag k="name" v="Olumsbråtån" />
		<tag k="place" v="farm" />
		<tag k="ssr:stedsnr" v="612807" />
	</node>
	<node lat="60.278819446651916" lon="10.510958330370771" id="-16692">
		<tag k="name" v="Finnerud" />
		<tag k="place" v="farm" />
		<tag k="ssr:stedsnr" v="612828" />
	</node>
	<node lat="60.25550277647906" lon="10.480649997356043" id="-16693">
		<tag k="name" v="Sørum" />
		<tag k="place" v="farm" />
		<tag k="ssr:stedsnr" v="612774" />
	</node>
	<node lat="60.25101666411416" lon="10.445444448571793" id="-16694">
		<tag k="name" v="Skogtun" />
		<tag k="place" v="isolated_dwelling" />
		<tag k="ssr:stedsnr" v="612776" />
	</node>
	<node lat="60.27335000104604" lon="10.31048332836455" id="-16697">
		<tag k="name" v="Nyseter" />
		<tag k="place" v="locality" />
		<tag k="ssr:stedsnr" v="701342" />
	</node>
	<node lat="60.29029800126805" lon="10.407933575000369" id="-16698">
		<tag k="alt_name" v="Roen" />
		<tag k="name" v="Skjeggerud" />
		<tag k="place" v="farm" />
		<tag k="ssr:stedsnr" v="701489" />
	</node>
	<node lat="60.281816664862994" lon="10.44794721757552" id="-16702">
		<tag k="name" v="Enerhaugen" />
		<tag k="place" v="farm" />
		<tag k="ssr:stedsnr" v="645113" />
	</node>
	<node lat="60.33896110699942" lon="10.355766666927922" id="-16706">
		<tag k="name" v="Furulund" />
		<tag k="place" v="isolated_dwelling" />
		<tag k="ssr:stedsnr" v="665498" />
	</node>
	<node lat="60.233933288662854" lon="10.406694640295765" id="-16707">
		<tag k="alt_name" v="Moe" />
		<tag k="fixme" v="consider place=hamlet" />
		<tag k="name" v="Mo" />
		<tag k="place" v="farm" />
		<tag k="ssr:stedsnr" v="672369" />
	</node>
	<node lat="60.33358055657778" lon="10.270383328955369" id="-16709">
		<tag k="alt_name" v="Kolbotnhytta" />
		<tag k="name" v="Kolabotn" />
		<tag k="place" v="isolated_dwelling" />
		<tag k="ssr:stedsnr" v="673461" />
	</node>
	<node lat="60.29182138320894" lon="10.424065259386525" id="-16713">
		<tag k="alt_name" v="Nordenga;Nordengen" />
		<tag k="name" v="Kjellsrud" />
		<tag k="place" v="isolated_dwelling" />
		<tag k="ssr:stedsnr" v="674857" />
	</node>
	<node lat="60.311966452505594" lon="10.343878388870678" id="-16714">
=======
	<node id="-296809" lat="60.2652577489" lon="10.4612226215">
		<tag k="fixme" v="consider place=hamlet" />
		<tag k="name" v="Klinkenberg" />
		<tag k="place" v="farm" />
		<tag k="ssr:stedsnr" v="127810" />
	</node>
	<node id="-296808" lat="60.2504583378" lon="10.3874805583">
		<tag k="name" v="Birkelund" />
		<tag k="place" v="isolated_dwelling" />
		<tag k="ssr:stedsnr" v="127804" />
	</node>
	<node id="-297319" lat="60.3007527815" lon="10.4391777731">
		<tag k="alt_name" v="Elvebråten" />
		<tag k="name" v="Elvebråtån" />
		<tag k="place" v="farm" />
		<tag k="ssr:stedsnr" v="370872" />
	</node>
	<node id="-297318" lat="60.2978728074" lon="10.3884492992">
		<tag k="alt_name" v="Igelsrud" />
		<tag k="fixme" v="consider place=hamlet" />
		<tag k="name" v="Igulsrud" />
		<tag k="place" v="farm" />
		<tag k="ssr:stedsnr" v="370867" />
	</node>
	<node id="-296804" lat="60.3401027793" lon="10.26163888">
		<tag k="alt_name" v="Halvorsbølesætra, vestre;Vestre Halvorbøleseter" />
		<tag k="historic" v="shieling" />
		<tag k="name" v="Vestre Halvorsbølesætra" />
		<tag k="place" v="locality" />
		<tag k="ssr:stedsnr" v="127622" />
	</node>
	<node id="-297315" lat="60.2677805555" lon="10.4948777731">
		<tag k="alt_name" v="Østre Olimb;Olum østre;Olum;Olom" />
		<tag k="loc_name" v="Austre-Olum" />
		<tag k="name" v="Østre Olum" />
		<tag k="place" v="farm" />
		<tag k="ssr:stedsnr" v="370823" />
	</node>
	<node id="-297314" lat="60.2608749989" lon="10.4464638881">
		<tag k="name" v="Fossholm" />
		<tag k="place" v="farm" />
		<tag k="ssr:stedsnr" v="370780" />
	</node>
	<node id="-296801" lat="60.2822361154" lon="10.4499916629">
		<tag k="name" v="Vestenga" />
		<tag k="place" v="farm" />
		<tag k="ssr:stedsnr" v="100122" />
	</node>
	<node id="-297312" lat="60.3670416682" lon="10.36254444">
		<tag k="alt_name" v="Kammerudtangen" />
		<tag k="name" v="Tangen" />
		<tag k="place" v="farm" />
		<tag k="ssr:stedsnr" v="370118" />
	</node>
	<node id="-296799" lat="60.2973904121" lon="10.3378842571">
		<tag k="name" v="Falla" />
		<tag k="place" v="farm" />
		<tag k="ssr:stedsnr" v="98806" />
	</node>
	<node id="-297309" lat="60.3480444448" lon="10.3052111033">
		<tag k="alt_name" v="Grymyrsetra" />
		<tag k="historic" v="shieling" />
		<tag k="name" v="Grymyrsætra" />
		<tag k="place" v="locality" />
		<tag k="ssr:stedsnr" v="369531" />
	</node>
	<node id="-296796" lat="60.2912953462" lon="10.3535117265">
		<tag k="name" v="Sandvika" />
		<tag k="place" v="farm" />
		<tag k="ssr:stedsnr" v="249862" />
	</node>
	<node id="-296795" lat="60.2511472251" lon="10.4597111115">
		<tag k="alt_name" v="Bråtan" />
		<tag k="name" v="Bråtån" />
		<tag k="place" v="locality" />
		<tag k="ssr:stedsnr" v="249763" />
	</node>
	<node id="-296794" lat="60.265152779" lon="10.4803638848">
		<tag k="name" v="Farmen" />
		<tag k="place" v="farm" />
		<tag k="ssr:stedsnr" v="249746" />
	</node>
	<node id="-296793" lat="60.274150178" lon="10.3247044791">
		<tag k="name" v="Fuglesang" />
		<tag k="place" v="isolated_dwelling" />
		<tag k="ssr:stedsnr" v="249435" />
	</node>
	<node id="-297303" lat="60.2387499984" lon="10.4068527786">
		<tag k="name" v="Nybygget" />
		<tag k="place" v="quarter" />
		<tag k="ssr:stedsnr" v="361150" />
	</node>
	<node id="-297302" lat="60.2333888861" lon="10.3742638824">
		<tag k="name" v="Vadhua" />
		<tag k="place" v="isolated_dwelling" />
		<tag k="ssr:stedsnr" v="361136" />
	</node>
	<node id="-297301" lat="60.2536249967" lon="10.4474083383">
		<tag k="name" v="Bratvalsgrinda" />
		<tag k="place" v="quarter" />
		<tag k="ssr:stedsnr" v="361179" />
	</node>
	<node id="-297300" lat="60.2440083305" lon="10.4215500006">
		<tag k="building" v="industrial" />
		<tag k="industrial" v="factory" />
		<tag k="name" v="Randsfjord glassverk" />
		<tag k="ssr:stedsnr" v="361085" />
	</node>
	<node id="-296787" lat="60.2332722213" lon="10.4268999934">
		<tag k="name" v="Haugen" />
		<tag k="place" v="farm" />
		<tag k="ssr:stedsnr" v="248383" />
	</node>
	<node id="-296786" lat="60.2358107896" lon="10.4223950896">
>>>>>>> e1d4bc35ff8a6074a6f2e91616a996b547c36f15
		<tag k="fixme" v="consider place=hamlet" />
		<tag k="name" v="Hauger" />
		<tag k="place" v="farm" />
		<tag k="ssr:stedsnr" v="248382" />
	</node>
<<<<<<< HEAD
	<node lat="60.22384444045879" lon="10.387025006882947" id="-16725">
		<tag k="name" v="Kleggerud" />
		<tag k="place" v="farm" />
		<tag k="ssr:stedsnr" v="733440" />
	</node>
	<node lat="60.266705552107425" lon="10.474630553098311" id="-16730">
		<tag k="name" v="Vangli" />
		<tag k="place" v="farm" />
		<tag k="ssr:stedsnr" v="734805" />
	</node>
	<node lat="60.31341666781711" lon="10.346736117733561" id="-16731">
		<tag k="name" v="Myrevoll" />
		<tag k="place" v="farm" />
		<tag k="ssr:stedsnr" v="734913" />
	</node>
	<node lat="60.30541388993738" lon="10.454024993043562" id="-16735">
		<tag k="name" v="Stensli" />
		<tag k="place" v="isolated_dwelling" />
		<tag k="ssr:stedsnr" v="906873" />
	</node>
	<node lat="60.27258055588829" lon="10.498583333999415" id="-16736">
		<tag k="alt_name" v="Olimbshagan;Olimbshagen;Olimhagen;Hagan" />
		<tag k="name" v="Olumshagan" />
		<tag k="place" v="farm" />
		<tag k="ssr:stedsnr" v="906839" />
	</node>
	<node lat="60.255355552381" lon="10.374966658232383" id="-16737">
		<tag k="name" v="Dølerud" />
		<tag k="place" v="farm" />
		<tag k="ssr:stedsnr" v="907076" />
	</node>
	<node lat="60.33344444360154" lon="10.344416662344068" id="-16740">
		<tag k="name" v="Båtflaten" />
		<tag k="place" v="isolated_dwelling" />
		<tag k="ssr:stedsnr" v="908489" />
	</node>
	<node lat="60.29326944492383" lon="10.341386108218497" id="-16741">
		<tag k="name" v="Roensbråtan" />
		<tag k="place" v="locality" />
		<tag k="ssr:stedsnr" v="780250" />
	</node>
	<node lat="60.20508611430534" lon="10.533341662671981" id="-16744">
		<tag k="alt_name" v="Sognsetra" />
		<tag k="historic" v="shieling" />
		<tag k="name" v="Sognsætra" />
		<tag k="place" v="isolated_dwelling" />
		<tag k="ssr:stedsnr" v="794429" />
	</node>
	<node lat="60.264730551605446" lon="10.511555558566616" id="-16746">
		<tag k="alt_name" v="Langli" />
		<tag k="name" v="Langlia" />
		<tag k="place" v="farm" />
		<tag k="ssr:stedsnr" v="795808" />
	</node>
	<node lat="60.29524166517957" lon="10.467827779054561" id="-16747">
		<tag k="alt_name" v="Østre Vaterud" />
		<tag k="fixme" v="multiple name tags, choose one and add the other to alt_name" />
		<tag k="name" v="Løykebråtån;Østre Hvaterud" />
		<tag k="place" v="farm" />
		<tag k="ssr:stedsnr" v="795867" />
	</node>
	<node lat="60.28531111393912" lon="10.428097222489416" id="-16748">
		<tag k="name" v="Dokka" />
		<tag k="place" v="isolated_dwelling" />
		<tag k="ssr:stedsnr" v="795874" />
	</node>
	<node lat="60.3161555560976" lon="10.402044440379168" id="-16749">
		<tag k="name" v="Nordmarka" />
		<tag k="place" v="isolated_dwelling" />
		<tag k="ssr:stedsnr" v="795913" />
	</node>
	<node lat="60.34220788372231" lon="10.356172531522777" id="-16753">
		<tag k="fixme" v="consider place=hamlet" />
		<tag k="name" v="Onsaker" />
		<tag k="place" v="farm" />
		<tag k="ssr:stedsnr" v="916036" />
	</node>
	<node lat="60.277466664575826" lon="10.530141662001244" id="-16754">
		<tag k="alt_name" v="Prestlia" />
		<tag k="name" v="Lia" />
		<tag k="place" v="farm" />
		<tag k="ssr:stedsnr" v="916843" />
	</node>
	<node lat="60.275509336128884" lon="10.48843745385177" id="-16755">
		<tag k="fixme" v="consider place=hamlet" />
		<tag k="name" v="Kinge" />
		<tag k="place" v="farm" />
		<tag k="ssr:stedsnr" v="916858" />
	</node>
	<node lat="60.30848055953969" lon="10.344086118408088" id="-16757">
		<tag k="name" v="Volla" />
		<tag k="place" v="farm" />
		<tag k="ssr:stedsnr" v="916887" />
	</node>
	<node lat="60.338666670378934" lon="10.313102772553847" id="-16759">
		<tag k="historic" v="shieling" />
		<tag k="name" v="Merramyrsætra" />
		<tag k="place" v="isolated_dwelling" />
		<tag k="ssr:stedsnr" v="916602" />
	</node>
	<node lat="60.30548947459232" lon="10.446620820788294" id="-16765">
		<tag k="fixme" v="consider place=hamlet" />
		<tag k="name" v="Rustad" />
		<tag k="place" v="farm" />
		<tag k="ssr:stedsnr" v="845889" />
	</node>
	<node lat="60.22893612860746" lon="10.415401113417865" id="-16766">
		<tag k="fixme" v="consider place=hamlet" />
		<tag k="name" v="Opperud" />
		<tag k="place" v="farm" />
		<tag k="ssr:stedsnr" v="855394" />
	</node>
	<node lat="60.1986861080551" lon="10.554780556216594" id="-16774">
		<tag k="historic" v="shieling" />
		<tag k="name" v="Roensetra" />
		<tag k="place" v="isolated_dwelling" />
		<tag k="ssr:stedsnr" v="882258" />
	</node>
	<node lat="60.25246944557224" lon="10.309588897182094" id="-16780">
		<tag k="name" v="Buttenheim" />
		<tag k="place" v="isolated_dwelling" />
		<tag k="ssr:stedsnr" v="884251" />
	</node>
	<node lat="60.27371111326956" lon="10.450122227169398" id="-16781">
		<tag k="name" v="Kårstadstua" />
		<tag k="place" v="isolated_dwelling" />
		<tag k="ssr:stedsnr" v="889005" />
	</node>
	<node lat="60.237672220428585" lon="10.396658327047067" id="-16789">
		<tag k="building" v="industrial" />
		<tag k="industrial" v="factory" />
		<tag k="name" v="Hadeland Glassverk" />
		<tag k="old_name" v="Hadelands glassverk" />
		<tag k="ssr:stedsnr" v="915379" />
	</node>
	<node lat="60.37094721978853" lon="10.352822229569195" id="-16791">
		<tag k="name" v="Vik" />
		<tag k="place" v="farm" />
		<tag k="ssr:stedsnr" v="916105" />
	</node>
	<node lat="60.30744999580852" lon="10.323130549537533" id="-16795">
		<tag k="alt_name" v="Sørumseter" />
		<tag k="historic" v="shieling" />
		<tag k="name" v="Sørumsætra" />
		<tag k="place" v="isolated_dwelling" />
		<tag k="ssr:stedsnr" v="916523" />
	</node>
	<node lat="60.28434722014129" lon="10.439850007120999" id="-16798">
		<tag k="name" v="Engerstykket" />
		<tag k="place" v="isolated_dwelling" />
		<tag k="ssr:stedsnr" v="916878" />
	</node>
	<node lat="60.311383335401615" lon="10.402977778902338" id="-16800">
		<tag k="alt_name" v="Rudsbråtan" />
		<tag k="name" v="Rudsbråtån" />
		<tag k="place" v="farm" />
		<tag k="ssr:stedsnr" v="917905" />
	</node>
	<node lat="60.23791944622952" lon="10.424880554377665" id="-16805">
		<tag k="amenity" v="school" />
		<tag k="name" v="Toso skole" />
		<tag k="ssr:stedsnr" v="968143" />
	</node>
	<node lat="60.301580796673036" lon="10.441605629315925" id="-16808">
		<tag k="name" v="Eng" />
		<tag k="place" v="farm" />
		<tag k="ssr:stedsnr" v="987352" />
	</node>
	<node lat="60.30472731421445" lon="10.421574475508924" id="-16809">
		<tag k="name" v="Sogn" />
		<tag k="place" v="farm" />
		<tag k="ssr:stedsnr" v="987355" />
	</node>
	<node lat="60.304394409100496" lon="10.418796975329949" id="-16810">
		<tag k="name" v="Sogn" />
		<tag k="place" v="farm" />
		<tag k="ssr:stedsnr" v="987360" />
	</node>
	<node lat="60.30431708625779" lon="10.417734461868994" id="-16811">
		<tag k="name" v="Sogn" />
		<tag k="place" v="farm" />
		<tag k="ssr:stedsnr" v="987361" />
	</node>
	<node lat="60.30487443205356" lon="10.415445827264024" id="-16812">
		<tag k="name" v="Sognebu" />
		<tag k="place" v="farm" />
		<tag k="ssr:stedsnr" v="987362" />
	</node>
	<node lat="60.30461525084303" lon="10.41356287637336" id="-16813">
		<tag k="name" v="Engeli" />
		<tag k="place" v="farm" />
		<tag k="ssr:stedsnr" v="987363" />
	</node>
	<node lat="60.29169482789092" lon="10.420000654417777" id="-16814">
		<tag k="name" v="Nordengen" />
		<tag k="place" v="farm" />
		<tag k="ssr:stedsnr" v="987364" />
	</node>
	<node lat="60.35887500066792" lon="10.287419441825165" id="-16819">
		<tag k="name" v="Langtjernshytta" />
		<tag k="place" v="isolated_dwelling" />
		<tag k="ssr:stedsnr" v="5590" />
	</node>
	<node lat="60.33880277817829" lon="10.352841668136215" id="-16820">
		<tag k="name" v="Halvorsbøle" />
		<tag k="ssr:stedsnr" v="6039" />
		<tag k="tourism" v="hotel" />
	</node>
	<node lat="60.26662500378292" lon="10.529916671236492" id="-16821">
		<tag k="name" v="Halvorsrudbekken" />
		<tag k="place" v="isolated_dwelling" />
		<tag k="ssr:stedsnr" v="6818" />
	</node>
	<node lat="60.277625002452325" lon="10.434672214507557" id="-16822">
		<tag k="alt_name" v="Skjennum, s" />
		<tag k="name" v="Søndre Skjennum" />
		<tag k="place" v="farm" />
		<tag k="ssr:stedsnr" v="6842" />
	</node>
	<node lat="60.28080915173487" lon="10.437819940548573" id="-16823">
		<tag k="fixme" v="consider place=hamlet" />
		<tag k="name" v="Falteinsrud" />
		<tag k="place" v="farm" />
		<tag k="ssr:stedsnr" v="6843" />
	</node>
	<node lat="60.27439942400928" lon="10.480523010296178" id="-16824">
		<tag k="fixme" v="consider place=hamlet" />
		<tag k="name" v="Gårdsrud" />
		<tag k="place" v="farm" />
		<tag k="ssr:stedsnr" v="6846" />
	</node>
	<node lat="60.3109861103922" lon="10.429900001332605" id="-16825">
		<tag k="alt_name" v="Velohagan" />
		<tag k="name" v="Hagan" />
		<tag k="place" v="isolated_dwelling" />
		<tag k="ssr:stedsnr" v="6941" />
	</node>
	<node lat="60.25863508886913" lon="10.4290155955042" id="-16826">
		<tag k="alt_name" v="Vang, øvre" />
		<tag k="fixme" v="consider place=hamlet" />
		<tag k="name" v="Øvre Vang" />
		<tag k="place" v="farm" />
		<tag k="ssr:stedsnr" v="6779" />
	</node>
	<node lat="60.25461666692349" lon="10.507791657755101" id="-16827">
		<tag k="alt_name" v="Slåttbråtan" />
		<tag k="historic" v="shieling" />
		<tag k="name" v="Slåttbråtån" />
		<tag k="place" v="isolated_dwelling" />
		<tag k="ssr:stedsnr" v="6790" />
	</node>
	<node lat="60.26948888726947" lon="10.473925005444235" id="-16829">
		<tag k="name" v="Ragnhildrud" />
		<tag k="place" v="isolated_dwelling" />
		<tag k="ssr:stedsnr" v="6797" />
	</node>
	<node lat="60.274374744288835" lon="10.469690999558209" id="-16830">
		<tag k="alt_name" v="Greftegreff" />
		<tag k="name" v="Greftegrev" />
		<tag k="place" v="hamlet" />
		<tag k="ssr:stedsnr" v="6798" />
	</node>
	<node lat="60.293491662421275" lon="10.457022229874985" id="-16831">
		<tag k="alt_name" v="Hvaterud, vestre;Vestre Vaterud" />
		<tag k="name" v="Vestre Hvaterud" />
		<tag k="place" v="farm" />
		<tag k="ssr:stedsnr" v="6866" />
	</node>
	<node lat="60.335547224602614" lon="10.348705549446548" id="-16832">
		<tag k="name" v="Engeli" />
		<tag k="place" v="locality" />
		<tag k="ssr:stedsnr" v="6999" />
	</node>
	<node lat="60.25737222522226" lon="10.491191659988411" id="-16833">
		<tag k="name" v="Østby" />
		<tag k="place" v="farm" />
		<tag k="ssr:stedsnr" v="32934" />
	</node>
	<node lat="60.27671111396299" lon="10.500163893217955" id="-16835">
		<tag k="name" v="Tronrud" />
		<tag k="place" v="farm" />
		<tag k="ssr:stedsnr" v="32958" />
	</node>
	<node lat="60.266808336908454" lon="10.482355548084238" id="-16844">
		<tag k="alt_name" v="Olum vestre;Olum vestre og mellom;Vestre Olimb" />
		<tag k="loc_name" v="Vestgarden" />
		<tag k="name" v="Vestre Olum" />
		<tag k="old_name" v="Olum vestre og mellem" />
		<tag k="place" v="farm" />
		<tag k="ssr:stedsnr" v="55924" />
	</node>
	<node lat="60.22241944360801" lon="10.370338892162692" id="-16847">
		<tag k="name" v="Kistefoss" />
		<tag k="place" v="farm" />
		<tag k="ssr:stedsnr" v="66445" />
	</node>
	<node lat="60.22603333511999" lon="10.348805547631647" id="-16848">
		<tag k="loc_name" v="Bergemoen" />
		<tag k="name" v="Bergermoen" />
		<tag k="place" v="quarter" />
		<tag k="ssr:stedsnr" v="66447" />
	</node>
	<node lat="60.258542133853226" lon="10.465665409262565" id="-16851">
		<tag k="fixme" v="consider place=hamlet" />
		<tag k="name" v="Røste" />
		<tag k="place" v="farm" />
		<tag k="ssr:stedsnr" v="67762" />
	</node>
	<node lat="60.26135833643746" lon="10.427469435932089" id="-16852">
		<tag k="name" v="Skogheim" />
		<tag k="place" v="isolated_dwelling" />
		<tag k="ssr:stedsnr" v="67764" />
	</node>
	<node lat="60.25418888982846" lon="10.47777222801042" id="-16853">
		<tag k="alt_name" v="Gullenbråtan" />
		<tag k="name" v="Gullenbråtån" />
		<tag k="place" v="farm" />
		<tag k="ssr:stedsnr" v="67775" />
	</node>
	<node lat="60.25581250278969" lon="10.446767703931394" id="-16854">
		<tag k="alt_name" v="Bratval" />
		<tag k="fixme" v="consider place=hamlet" />
		<tag k="name" v="Brattval" />
		<tag k="place" v="farm" />
		<tag k="ssr:stedsnr" v="67776" />
	</node>
	<node lat="60.32914639232347" lon="10.341665105772783" id="-16856">
		<tag k="alt_name" v="Skutseter" />
		<tag k="fixme" v="consider place=hamlet" />
		<tag k="name" v="Skutsæter" />
		<tag k="place" v="farm" />
		<tag k="ssr:stedsnr" v="67475" />
	</node>
	<node lat="60.30399444555059" lon="10.39469167304776" id="-16858">
		<tag k="name" v="Dal" />
		<tag k="place" v="farm" />
		<tag k="ssr:stedsnr" v="67875" />
	</node>
	<node lat="60.30788888631731" lon="10.45420278657062" id="-16861">
		<tag k="name" v="Midtlia" />
		<tag k="place" v="locality" />
		<tag k="ssr:stedsnr" v="90145" />
	</node>
	<node lat="60.308486106769934" lon="10.43216666116547" id="-16862">
		<tag k="name" v="Øvre Velo" />
		<tag k="place" v="farm" />
		<tag k="ssr:stedsnr" v="90148" />
	</node>
	<node lat="60.21516666965343" lon="10.407033340541311" id="-16868">
		<tag k="name" v="Skollerud" />
		<tag k="place" v="locality" />
		<tag k="ssr:stedsnr" v="95884" />
	</node>
	<node lat="60.28218889814347" lon="10.509683683152485" id="-16869">
		<tag k="alt_name" v="Endsrud;Ensrud" />
		<tag k="fixme" v="consider place=hamlet" />
		<tag k="name" v="Prest-Ensrud" />
		<tag k="old_name" v="Præst-Ensrud;Præstensrud" />
		<tag k="place" v="farm" />
		<tag k="ssr:stedsnr" v="102845" />
	</node>
	<node lat="60.25326388829642" lon="10.347141671791386" id="-16871">
		<tag k="name" v="Midtbråtan" />
		<tag k="place" v="locality" />
		<tag k="ssr:stedsnr" v="112994" />
	</node>
	<node lat="60.24048055314643" lon="10.357925002718" id="-16875">
		<tag k="name" v="Grane" />
		<tag k="place" v="farm" />
		<tag k="ssr:stedsnr" v="113741" />
	</node>
	<node lat="60.2395888855523" lon="10.367572227939023" id="-16876">
		<tag k="amenity" v="school" />
		<tag k="name" v="Jevnaker skole" />
		<tag k="ssr:stedsnr" v="113746" />
	</node>
	<node lat="60.2570106413478" lon="10.437657828102088" id="-16878">
		<tag k="fixme" v="consider place=hamlet" />
		<tag k="name" v="Prestegården" />
		<tag k="place" v="farm" />
		<tag k="ssr:stedsnr" v="118146" />
	</node>
	<node lat="60.238330556307375" lon="10.354911108245574" id="-16879">
		<tag k="amenity" v="school" />
		<tag k="name" v="Bergerbakken skole" />
		<tag k="ssr:stedsnr" v="119153" />
	</node>
	<node lat="60.231769444953486" lon="10.53416387992259" id="-16880">
		<tag k="name" v="Trantjern" />
		<tag k="place" v="farm" />
		<tag k="ssr:stedsnr" v="126388" />
	</node>
	<node lat="60.212822225410754" lon="10.499405549507031" id="-16881">
		<tag k="alt_name" v="Skjennumsetra" />
		<tag k="historic" v="shieling" />
		<tag k="name" v="Skjennumsætra" />
		<tag k="place" v="isolated_dwelling" />
		<tag k="ssr:stedsnr" v="126486" />
	</node>
	<node lat="60.20668333396619" lon="10.443372222179505" id="-16883">
		<tag k="historic" v="shieling" />
		<tag k="name" v="Mosætra" />
		<tag k="place" v="isolated_dwelling" />
		<tag k="ssr:stedsnr" v="126438" />
	</node>
	<node lat="60.38005555579591" lon="10.295774993792739" id="-16886">
		<tag k="name" v="Otermyrbakken" />
		<tag k="place" v="isolated_dwelling" />
		<tag k="ssr:stedsnr" v="127658" />
	</node>
	<node lat="60.254186113304044" lon="10.375099997797875" id="-16889">
		<tag k="name" v="Tokerud" />
		<tag k="place" v="farm" />
		<tag k="ssr:stedsnr" v="127778" />
	</node>
	<node lat="60.29772222665338" lon="10.456069446181834" id="-16890">
		<tag k="name" v="Nordli" />
		<tag k="place" v="farm" />
		<tag k="ssr:stedsnr" v="127873" />
	</node>
	<node lat="60.26525774886654" lon="10.461222621539985" id="-16891">
		<tag k="fixme" v="consider place=hamlet" />
		<tag k="name" v="Klinkenberg" />
		<tag k="place" v="farm" />
		<tag k="ssr:stedsnr" v="127810" />
	</node>
	<node lat="60.312294444883854" lon="10.44056110709703" id="-16892">
		<tag k="name" v="Bekkestua" />
		<tag k="place" v="isolated_dwelling" />
		<tag k="ssr:stedsnr" v="128919" />
	</node>
	<node lat="60.299205552434096" lon="10.419713887334412" id="-16898">
		<tag k="amenity" v="school" />
		<tag k="name" v="Sogn skole" />
		<tag k="ssr:stedsnr" v="155354" />
	</node>
	<node lat="60.28837165879586" lon="10.357112567017703" id="-16905">
		<tag k="fixme" v="consider place=hamlet" />
		<tag k="name" v="Næverbekken" />
		<tag k="place" v="farm" />
		<tag k="ssr:stedsnr" v="173245" />
	</node>
	<node lat="60.27237222570503" lon="10.313366668572424" id="-16907">
		<tag k="name" v="Øvre Berger" />
		<tag k="place" v="locality" />
		<tag k="ssr:stedsnr" v="173891" />
	</node>
	<node lat="60.23658889062598" lon="10.527819447693155" id="-16915">
		<tag k="alt_name" v="Vestend" />
		<tag k="name" v="Vestenden" />
		<tag k="place" v="farm" />
		<tag k="ssr:stedsnr" v="187354" />
	</node>
	<node lat="60.22144768120006" lon="10.424749000094398" id="-16918">
		<tag k="alt_name" v="Dælen" />
		<tag k="name" v="Dalen" />
		<tag k="place" v="locality" />
		<tag k="ssr:stedsnr" v="187439" />
	</node>
	<node lat="60.27663055738764" lon="10.44006944562017" id="-16925">
		<tag k="alt_name" v="Skjennum østre" />
		<tag k="name" v="Skjennumstua" />
		<tag k="place" v="isolated_dwelling" />
		<tag k="ssr:stedsnr" v="188848" />
	</node>
	<node lat="60.301150282508985" lon="10.411917919430643" id="-16926">
		<tag k="fixme" v="consider place=hamlet" />
		<tag k="name" v="Tømmerås" />
		<tag k="place" v="farm" />
		<tag k="ssr:stedsnr" v="188862" />
	</node>
	<node lat="60.30108889182165" lon="10.34871110591396" id="-16928">
		<tag k="name" v="Steinhus" />
		<tag k="place" v="isolated_dwelling" />
		<tag k="ssr:stedsnr" v="188911" />
	</node>
	<node lat="60.2682194486225" lon="10.465208330797209" id="-16937">
		<tag k="name" v="Haug" />
		<tag k="place" v="isolated_dwelling" />
		<tag k="ssr:stedsnr" v="221001" />
	</node>
	<node lat="60.278908329840874" lon="10.47241389049145" id="-16938">
		<tag k="name" v="Linlykja" />
		<tag k="place" v="farm" />
		<tag k="ssr:stedsnr" v="221042" />
	</node>
	<node lat="60.28936111212646" lon="10.508105551819808" id="-16940">
		<tag k="name" v="Østre Vassjø" />
		<tag k="place" v="farm" />
		<tag k="ssr:stedsnr" v="275546" />
	</node>
	<node lat="60.2600805578654" lon="10.48996388808519" id="-16942">
		<tag k="leisure" v="pitch" />
		<tag k="name" v="Idrettsplass" />
		<tag k="ssr:stedsnr" v="275932" />
	</node>
	<node lat="60.35416666371377" lon="10.337741665477" id="-16945">
		<tag k="name" v="Bergebråtan" />
		<tag k="place" v="locality" />
		<tag k="ssr:stedsnr" v="280439" />
	</node>
	<node lat="60.23452222591135" lon="10.358274995909262" id="-16953">
		<tag k="loc_name" v="Bergegrinda" />
		<tag k="name" v="Bergergrinda" />
		<tag k="old_name" v="Bergergrina;Bergergrinden" />
		<tag k="place" v="quarter" />
		<tag k="ssr:stedsnr" v="294755" />
	</node>
	<node lat="60.2806861146837" lon="10.51649443910683" id="-16954">
		<tag k="name" v="Østre Igelstad" />
		<tag k="place" v="farm" />
		<tag k="ssr:stedsnr" v="299857" />
	</node>
	<node lat="60.36858889210588" lon="10.207788885435079" id="-16964">
		<tag k="name" v="Klæstadhytta" />
		<tag k="place" v="isolated_dwelling" />
		<tag k="ssr:stedsnr" v="308587" />
	</node>
	<node lat="60.19731388590854" lon="10.554986115555979" id="-16968">
		<tag k="alt_name" v="Roenseter" />
		<tag k="historic" v="shieling" />
		<tag k="name" v="Roensætra" />
		<tag k="place" v="isolated_dwelling" />
		<tag k="ssr:stedsnr" v="309494" />
	</node>
	<node lat="60.25907895738039" lon="10.481063669772048" id="-16970">
		<tag k="fixme" v="consider place=hamlet" />
		<tag k="name" v="Gullen" />
		<tag k="place" v="farm" />
		<tag k="ssr:stedsnr" v="309761" />
	</node>
	<node lat="60.25209444732845" lon="10.519327781398603" id="-16972">
		<tag k="alt_name" v="Olimbseter" />
		<tag k="historic" v="shieling" />
		<tag k="name" v="Olumsætra" />
		<tag k="place" v="isolated_dwelling" />
		<tag k="ssr:stedsnr" v="309769" />
	</node>
	<node lat="60.25525278204527" lon="10.423897213708345" id="-16973">
		<tag k="alt_name" v="Vang, nedre" />
		<tag k="fixme" v="consider place=hamlet" />
		<tag k="name" v="Nedre Vang" />
		<tag k="place" v="farm" />
		<tag k="ssr:stedsnr" v="309776" />
	</node>
	<node lat="60.29336110839932" lon="10.460797219888654" id="-16974">
		<tag k="alt_name" v="Hvaterud, s;Søndre Vaterud" />
		<tag k="name" v="Søndre Hvaterud" />
		<tag k="place" v="farm" />
		<tag k="ssr:stedsnr" v="309860" />
	</node>
	<node lat="60.28469166358831" lon="10.355205550792574" id="-16975">
		<tag k="alt_name" v="Søråsen;Åsen, s" />
		<tag k="name" v="Søndre Åsen" />
		<tag k="place" v="isolated_dwelling" />
		<tag k="ssr:stedsnr" v="309864" />
	</node>
	<node lat="60.32249221468895" lon="10.344788249262157" id="-16976">
		<tag k="fixme" v="consider place=hamlet" />
		<tag k="name" v="Velsand" />
		<tag k="place" v="farm" />
		<tag k="ssr:stedsnr" v="309954" />
	</node>
	<node lat="60.30545000209787" lon="10.385127770963827" id="-16980">
		<tag k="building" v="industrial" />
		<tag k="name" v="Bjertnes sag" />
		<tag k="ssr:stedsnr" v="337382" />
	</node>
	<node lat="60.248455553951345" lon="10.372763894032657" id="-16983">
		<tag k="name" v="Frydenlund" />
		<tag k="place" v="quarter" />
		<tag k="ssr:stedsnr" v="361078" />
	</node>
	<node lat="60.24400833050089" lon="10.421550000584313" id="-16985">
		<tag k="building" v="industrial" />
		<tag k="industrial" v="factory" />
		<tag k="name" v="Randsfjord glassverk" />
		<tag k="ssr:stedsnr" v="361085" />
	</node>
	<node lat="60.23338888609727" lon="10.374263882368632" id="-16986">
		<tag k="name" v="Vadhua" />
		<tag k="place" v="isolated_dwelling" />
		<tag k="ssr:stedsnr" v="361136" />
	</node>
	<node lat="60.23874999839952" lon="10.406852778598946" id="-16987">
		<tag k="name" v="Nybygget" />
		<tag k="place" v="quarter" />
		<tag k="ssr:stedsnr" v="361150" />
	</node>
	<node lat="60.2269255300963" lon="10.428640220448543" id="-16988">
		<tag k="name" v="Nordås" />
		<tag k="place" v="locality" />
		<tag k="ssr:stedsnr" v="361167" />
	</node>
	<node lat="60.25362499669142" lon="10.447408338258144" id="-16989">
		<tag k="name" v="Bratvalsgrinda" />
		<tag k="place" v="quarter" />
		<tag k="ssr:stedsnr" v="361179" />
	</node>
	<node lat="60.23470833215326" lon="10.433624991646028" id="-16990">
		<tag k="name" v="Steinbråtan" />
		<tag k="place" v="isolated_dwelling" />
		<tag k="ssr:stedsnr" v="361251" />
	</node>
	<node lat="60.34804444475697" lon="10.305211103292468" id="-16992">
		<tag k="alt_name" v="Grymyrsetra" />
		<tag k="historic" v="shieling" />
		<tag k="name" v="Grymyrsætra" />
		<tag k="place" v="isolated_dwelling" />
		<tag k="ssr:stedsnr" v="369531" />
	</node>
	<node lat="60.24208610663437" lon="10.424066674826573" id="-16995">
		<tag k="name" v="Lund" />
		<tag k="place" v="farm" />
		<tag k="ssr:stedsnr" v="369349" />
	</node>
	<node lat="60.36704166818713" lon="10.362544440036174" id="-16997">
		<tag k="alt_name" v="Kammerudtangen" />
		<tag k="name" v="Tangen" />
		<tag k="place" v="farm" />
		<tag k="ssr:stedsnr" v="370118" />
	</node>
	<node lat="60.31303333622162" lon="10.328355548259635" id="-16998">
		<tag k="alt_name" v="Myreseter" />
		<tag k="historic" v="shieling" />
		<tag k="name" v="Velsandsætra" />
		<tag k="place" v="isolated_dwelling" />
		<tag k="ssr:stedsnr" v="370528" />
	</node>
	<node lat="60.260874998887104" lon="10.446463888100853" id="-16999">
		<tag k="name" v="Fossholm" />
		<tag k="place" v="farm" />
		<tag k="ssr:stedsnr" v="370780" />
	</node>
	<node lat="60.30075278147872" lon="10.43917777305978" id="-17000">
		<tag k="alt_name" v="Elvebråten" />
		<tag k="name" v="Elvebråtån" />
		<tag k="place" v="farm" />
		<tag k="ssr:stedsnr" v="370872" />
	</node>
	<node lat="60.305286115342675" lon="10.450216673204277" id="-17001">
		<tag k="fixme" v="multiple name tags, choose one and add the other to alt_name" />
		<tag k="name" v="Rustad;Nedre Rustad" />
		<tag k="place" v="farm" />
		<tag k="ssr:stedsnr" v="370895" />
	</node>
	<node lat="60.309820651327364" lon="10.451198853840822" id="-17003">
		<tag k="name" v="Tjernstua" />
		<tag k="place" v="locality" />
		<tag k="ssr:stedsnr" v="370936" />
	</node>
	<node lat="60.28179721853268" lon="10.52037499416744" id="-17005">
		<tag k="name" v="Prestbråtan" />
		<tag k="place" v="farm" />
		<tag k="ssr:stedsnr" v="396968" />
	</node>
	<node lat="60.27203889005988" lon="10.521752772400324" id="-17007">
		<tag k="name" v="Hellerud" />
		<tag k="place" v="farm" />
		<tag k="ssr:stedsnr" v="396926" />
	</node>
	<node lat="60.286244103361476" lon="10.407720767102761" id="-17008">
		<tag k="name" v="Østre Roen" />
		<tag k="place" v="farm" />
		<tag k="ssr:stedsnr" v="398178" />
	</node>
	<node lat="60.29305555521097" lon="10.28094166903783" id="-17010">
		<tag k="name" v="Brennfu" />
		<tag k="place" v="isolated_dwelling" />
		<tag k="ssr:stedsnr" v="398260" />
	</node>
	<node lat="60.29278610957671" lon="10.414422221964294" id="-17012">
		<tag k="name" v="Løvli" />
		<tag k="place" v="farm" />
		<tag k="ssr:stedsnr" v="398365" />
	</node>
	<node lat="60.27889444590807" lon="10.479230556181577" id="-17013">
		<tag k="name" v="Bakken" />
		<tag k="place" v="farm" />
		<tag k="ssr:stedsnr" v="403012" />
	</node>
	<node lat="60.27896111104043" lon="10.363638880050653" id="-17020">
		<tag k="name" v="Hansebråtan" />
		<tag k="place" v="locality" />
		<tag k="ssr:stedsnr" v="416550" />
	</node>
	<node lat="60.23058610992667" lon="10.47797499719559" id="-17023">
		<tag k="historic" v="shieling" />
		<tag k="name" v="Vang seter" />
		<tag k="place" v="isolated_dwelling" />
		<tag k="ssr:stedsnr" v="422135" />
	</node>
	<node lat="60.341672218248526" lon="10.347091673519081" id="-17030">
		<tag k="name" v="Øllebråtan" />
		<tag k="place" v="farm" />
		<tag k="ssr:stedsnr" v="422715" />
	</node>
	<node lat="60.2314611154029" lon="10.481533329593047" id="-17034">
		<tag k="historic" v="shieling" />
		<tag k="name" v="Vangsætra" />
		<tag k="place" v="isolated_dwelling" />
		<tag k="ssr:stedsnr" v="430381" />
	</node>
	<node lat="60.29576388931797" lon="10.337888883388853" id="-17037">
		<tag k="alt_name" v="Sør-Falla;Falla, s" />
		<tag k="name" v="Søndre Falla" />
		<tag k="place" v="farm" />
		<tag k="ssr:stedsnr" v="431410" />
	</node>
	<node lat="60.287816664044534" lon="10.342302775224969" id="-17038">
		<tag k="alt_name" v="Djupdalen" />
		<tag k="name" v="Djupdal" />
		<tag k="place" v="isolated_dwelling" />
		<tag k="ssr:stedsnr" v="431434" />
	</node>
	<node lat="60.25588611459668" lon="10.478588881086347" id="-17041">
		<tag k="name" v="Sørenga" />
		<tag k="place" v="farm" />
		<tag k="ssr:stedsnr" v="431799" />
	</node>
	<node lat="60.29794999780011" lon="10.417116668902054" id="-17042">
		<tag k="name" v="Høybråtån" />
		<tag k="place" v="isolated_dwelling" />
		<tag k="ssr:stedsnr" v="431874" />
	</node>
	<node lat="60.29302778208915" lon="10.458377786185137" id="-17043">
		<tag k="alt_name" v="Hvaterud, midtre;Midtre Vaterud" />
		<tag k="name" v="Midtre Hvaterud" />
		<tag k="place" v="farm" />
		<tag k="ssr:stedsnr" v="431878" />
	</node>
	<node lat="60.302155552854245" lon="10.439141669834122" id="-17044">
		<tag k="alt_name" v="Linjeløkka" />
		<tag k="name" v="Linlykkja" />
		<tag k="place" v="farm" />
		<tag k="ssr:stedsnr" v="431905" />
	</node>
	<node lat="60.238008331431324" lon="10.368569444583567" id="-17050">
		<tag k="name" v="Rundhaugen" />
		<tag k="place" v="quarter" />
		<tag k="ssr:stedsnr" v="537735" />
	</node>
	<node lat="60.22117777462678" lon="10.381044448367277" id="-17051">
		<tag k="alt_name" v="Frankrik" />
		<tag k="name" v="Frankrike" />
		<tag k="old_name" v="Frankrig" />
		<tag k="place" v="farm" />
		<tag k="ssr:stedsnr" v="539461" />
	</node>
	<node lat="60.37647777468376" lon="10.202813890643508" id="-17062">
		<tag k="name" v="Øvre Finneplassen" />
		<tag k="place" v="farm" />
		<tag k="ssr:stedsnr" v="551616" />
	</node>
	<node lat="60.25076944589909" lon="10.525947218576034" id="-17063">
		<tag k="name" v="Høgnes" />
		<tag k="place" v="farm" />
		<tag k="ssr:stedsnr" v="552795" />
	</node>
	<node lat="60.259961113877196" lon="10.478791675322201" id="-17065">
		<tag k="name" v="Nordli" />
		<tag k="place" v="farm" />
		<tag k="ssr:stedsnr" v="552777" />
	</node>
	<node lat="60.26285277971134" lon="10.456763887653944" id="-17066">
		<tag k="alt_name" v="Presthagen" />
		<tag k="name" v="Presthagan" />
		<tag k="place" v="farm" />
		<tag k="ssr:stedsnr" v="552779" />
	</node>
	<node lat="60.287894222645505" lon="10.401673741521602" id="-17067">
		<tag k="fixme" v="consider place=hamlet" />
		<tag k="name" v="Roen" />
		<tag k="place" v="farm" />
		<tag k="ssr:stedsnr" v="552888" />
	</node>
	<node lat="60.2795888844954" lon="10.479116665355455" id="-17068">
		<tag k="name" v="Tømte" />
		<tag k="place" v="farm" />
		<tag k="ssr:stedsnr" v="552871" />
	</node>
	<node lat="60.29679166996868" lon="10.418549999494639" id="-17069">
		<tag k="name" v="Sognsbråtån" />
		<tag k="place" v="isolated_dwelling" />
		<tag k="ssr:stedsnr" v="552879" />
	</node>
	<node lat="60.35471666467309" lon="10.361322221159169" id="-17070">
		<tag k="name" v="Bjørklund" />
=======
	<node id="-296783" lat="60.3001166678" lon="10.3377972154">
		<tag k="alt_name" v="Nord-Falla;Falla, nordre" />
		<tag k="name" v="Nordre Falla" />
		<tag k="place" v="farm" />
		<tag k="ssr:stedsnr" v="249391" />
	</node>
	<node id="-296782" lat="60.270686872" lon="10.5259096667">
		<tag k="fixme" v="consider place=hamlet" />
		<tag k="name" v="Halvorsrud" />
		<tag k="place" v="farm" />
		<tag k="ssr:stedsnr" v="67812" />
	</node>
	<node id="-296781" lat="60.2592221913" lon="10.3790253705">
		<tag k="fixme" v="consider place=hamlet" />
		<tag k="name" v="Nordby" />
		<tag k="place" v="farm" />
		<tag k="ssr:stedsnr" v="67802" />
	</node>
	<node id="-296779" lat="60.2260333351" lon="10.3488055476">
		<tag k="loc_name" v="Bergemoen" />
		<tag k="name" v="Bergermoen" />
		<tag k="place" v="quarter" />
		<tag k="ssr:stedsnr" v="66447" />
	</node>
	<node id="-296778" lat="60.2224194436" lon="10.3703388922">
		<tag k="name" v="Kistefoss" />
		<tag k="place" v="farm" />
		<tag k="ssr:stedsnr" v="66445" />
	</node>
	<node id="-296969" lat="60.2663666682" lon="10.4540277783">
		<tag k="name" v="Karlsrud" />
		<tag k="place" v="farm" />
		<tag k="ssr:stedsnr" v="585109" />
	</node>
	<node id="-297287" lat="60.2852499957" lon="10.4128666722">
		<tag k="fixme" v="consider place=hamlet" />
		<tag k="name" v="Sløvika" />
		<tag k="place" v="village" />
		<tag k="ssr:stedsnr" v="327477" />
	</node>
	<node id="-297003" lat="60.2667055521" lon="10.4746305531">
		<tag k="name" v="Vangli" />
		<tag k="place" v="farm" />
		<tag k="ssr:stedsnr" v="734805" />
	</node>
	<node id="-297285" lat="60.3224922147" lon="10.3447882493">
		<tag k="fixme" v="consider place=hamlet" />
		<tag k="name" v="Velsand" />
		<tag k="place" v="farm" />
		<tag k="ssr:stedsnr" v="309954" />
	</node>
	<node id="-297284" lat="60.2846916636" lon="10.3552055508">
		<tag k="alt_name" v="Søråsen;Åsen, s" />
		<tag k="name" v="Søndre Åsen" />
		<tag k="place" v="isolated_dwelling" />
		<tag k="ssr:stedsnr" v="309864" />
	</node>
	<node id="-297283" lat="60.2933611084" lon="10.4607972199">
		<tag k="alt_name" v="Hvaterud, s;Søndre Vaterud" />
		<tag k="name" v="Søndre Hvaterud" />
		<tag k="place" v="farm" />
		<tag k="ssr:stedsnr" v="309860" />
	</node>
	<node id="-297282" lat="60.255252782" lon="10.4238972137">
		<tag k="alt_name" v="Vang, nedre" />
		<tag k="fixme" v="consider place=hamlet" />
		<tag k="name" v="Nedre Vang" />
		<tag k="place" v="farm" />
		<tag k="ssr:stedsnr" v="309776" />
	</node>
	<node id="-297281" lat="60.2520944473" lon="10.5193277814">
		<tag k="alt_name" v="Olimbseter" />
		<tag k="historic" v="shieling" />
		<tag k="name" v="Olumsætra" />
		<tag k="place" v="locality" />
		<tag k="ssr:stedsnr" v="309769" />
	</node>
	<node id="-297280" lat="60.3784805587" lon="10.2391611175">
		<tag k="alt_name" v="Tyrispikkhytta" />
		<tag k="name" v="Tyrispikhytta" />
		<tag k="place" v="isolated_dwelling" />
		<tag k="ssr:stedsnr" v="309638" />
	</node>
	<node id="-296767" lat="60.2590789574" lon="10.4810636698">
		<tag k="fixme" v="consider place=hamlet" />
		<tag k="name" v="Gullen" />
		<tag k="place" v="farm" />
		<tag k="ssr:stedsnr" v="309761" />
	</node>
	<node id="-297277" lat="60.1973138859" lon="10.5549861156">
		<tag k="alt_name" v="Roenseter" />
		<tag k="historic" v="shieling" />
		<tag k="name" v="Roensætra" />
		<tag k="place" v="locality" />
		<tag k="ssr:stedsnr" v="309494" />
	</node>
	<node id="-297276" lat="60.3314083369" lon="10.3159805622">
		<tag k="alt_name" v="Skutseter" />
		<tag k="historic" v="shieling" />
		<tag k="name" v="Skutsætra" />
		<tag k="place" v="locality" />
		<tag k="ssr:stedsnr" v="309489" />
	</node>
	<node id="-297275" lat="60.2825944464" lon="10.3399194515">
		<tag k="name" v="Åsbråtan" />
		<tag k="place" v="isolated_dwelling" />
		<tag k="ssr:stedsnr" v="309451" />
	</node>
	<node id="-297272" lat="60.3685888921" lon="10.2077888854">
		<tag k="name" v="Klæstadhytta" />
		<tag k="place" v="isolated_dwelling" />
		<tag k="ssr:stedsnr" v="308587" />
	</node>
	<node id="-296756" lat="60.3109861104" lon="10.4299000013">
		<tag k="alt_name" v="Velohagan" />
		<tag k="name" v="Hagan" />
		<tag k="place" v="isolated_dwelling" />
		<tag k="ssr:stedsnr" v="6941" />
	</node>
	<node id="-296754" lat="60.274399424" lon="10.4805230103">
		<tag k="fixme" v="consider place=hamlet" />
		<tag k="name" v="Gårdsrud" />
		<tag k="place" v="farm" />
		<tag k="ssr:stedsnr" v="6846" />
	</node>
	<node id="-296753" lat="60.2808091517" lon="10.4378199405">
		<tag k="fixme" v="consider place=hamlet" />
		<tag k="name" v="Falteinsrud" />
		<tag k="place" v="farm" />
		<tag k="ssr:stedsnr" v="6843" />
	</node>
	<node id="-296752" lat="60.2776250025" lon="10.4346722145">
		<tag k="alt_name" v="Skjennum, s" />
		<tag k="name" v="Søndre Skjennum" />
		<tag k="place" v="farm" />
		<tag k="ssr:stedsnr" v="6842" />
	</node>
	<node id="-296751" lat="60.2666250038" lon="10.5299166712">
		<tag k="name" v="Halvorsrudbekken" />
		<tag k="place" v="isolated_dwelling" />
		<tag k="ssr:stedsnr" v="6818" />
	</node>
	<node id="-296750" lat="60.2789083298" lon="10.4724138905">
		<tag k="name" v="Linlykja" />
		<tag k="place" v="farm" />
		<tag k="ssr:stedsnr" v="221042" />
	</node>
	<node id="-296749" lat="60.2682194486" lon="10.4652083308">
		<tag k="name" v="Haug" />
		<tag k="place" v="isolated_dwelling" />
		<tag k="ssr:stedsnr" v="221001" />
	</node>
	<node id="-297259" lat="60.3096444414" lon="10.3864416591">
		<tag k="alt_name" v="Bjertnes" />
		<tag k="name" v="Søndre Bjertnes" />
		<tag k="place" v="farm" />
		<tag k="ssr:stedsnr" v="212677" />
	</node>
	<node id="-297095" lat="60.3074499958" lon="10.3231305495">
		<tag k="alt_name" v="Sørumseter" />
		<tag k="historic" v="shieling" />
		<tag k="name" v="Sørumsætra" />
		<tag k="place" v="locality" />
		<tag k="ssr:stedsnr" v="916523" />
	</node>
	<node id="-297256" lat="60.3010888918" lon="10.3487111059">
		<tag k="name" v="Steinhus" />
		<tag k="place" v="isolated_dwelling" />
		<tag k="ssr:stedsnr" v="188911" />
	</node>
	<node id="-297255" lat="60.2923611106" lon="10.4093999956">
		<tag k="name" v="Roenhagan" />
		<tag k="place" v="farm" />
		<tag k="ssr:stedsnr" v="188876" />
	</node>
	<node id="-297253" lat="60.3011502825" lon="10.4119179194">
		<tag k="fixme" v="consider place=hamlet" />
		<tag k="name" v="Tømmerås" />
		<tag k="place" v="farm" />
		<tag k="ssr:stedsnr" v="188862" />
	</node>
	<node id="-297394" lat="60.2884930916" lon="10.4023498676">
		<tag k="fixme" v="consider place=hamlet" />
		<tag k="name" v="Roen" />
		<tag k="place" v="farm" />
		<tag k="ssr:stedsnr" v="552888" />
	</node>
	<node id="-297250" lat="60.275924999" lon="10.4079444425">
		<tag k="alt_name" v="Bjellum, nordre;Bjellum" />
		<tag k="name" v="Nordre Bjellum" />
		<tag k="place" v="farm" />
		<tag k="ssr:stedsnr" v="188814" />
	</node>
	<node id="-297249" lat="60.2528555538" lon="10.437611117">
		<tag k="name" v="Helleksrud" />
		<tag k="place" v="isolated_dwelling" />
		<tag k="ssr:stedsnr" v="188810" />
	</node>
	<node id="-297248" lat="60.2537999973" lon="10.4805194372">
		<tag k="name" v="Brattli" />
		<tag k="place" v="farm" />
		<tag k="ssr:stedsnr" v="188808" />
	</node>
	<node id="-297008" lat="60.2969277754" lon="10.3404388868">
		<tag k="name" v="Gjerde" />
		<tag k="place" v="farm" />
		<tag k="ssr:stedsnr" v="658271" />
	</node>
	<node id="-297245" lat="60.243113893" lon="10.3718000007">
		<tag k="alt_name" v="Berger" />
		<tag k="name" v="Øvre Berger" />
		<tag k="place" v="farm" />
		<tag k="ssr:stedsnr" v="188425" />
	</node>
	<node id="-297238" lat="60.2214476812" lon="10.4247490001">
		<tag k="alt_name" v="Dælen" />
		<tag k="name" v="Dalen" />
		<tag k="place" v="locality" />
		<tag k="ssr:stedsnr" v="187439" />
	</node>
	<node id="-297391" lat="60.2599611139" lon="10.4787916753">
		<tag k="name" v="Nordli" />
		<tag k="place" v="farm" />
		<tag k="ssr:stedsnr" v="552777" />
	</node>
	<node id="-297235" lat="60.2365888906" lon="10.5278194477">
		<tag k="alt_name" v="Vestend" />
		<tag k="name" v="Vestenden" />
		<tag k="place" v="farm" />
		<tag k="ssr:stedsnr" v="187354" />
	</node>
	<node id="-297352" lat="60.2314611154" lon="10.4815333296">
		<tag k="historic" v="shieling" />
		<tag k="name" v="Vangsætra" />
		<tag k="place" v="locality" />
		<tag k="ssr:stedsnr" v="430381" />
	</node>
	<node id="-297466" lat="60.3161555561" lon="10.4020444404">
		<tag k="name" v="Nordmarka" />
		<tag k="place" v="isolated_dwelling" />
		<tag k="ssr:stedsnr" v="795913" />
	</node>
	<node id="-297005" lat="60.2817277781" lon="10.4404944464">
		<tag k="alt_name" v="Ødegård" />
		<tag k="name" v="Øgarden" />
		<tag k="place" v="farm" />
		<tag k="ssr:stedsnr" v="734835" />
	</node>
	<node id="-297227" lat="60.2723722257" lon="10.3133666686">
		<tag k="name" v="Øvre Berger" />
		<tag k="place" v="locality" />
		<tag k="ssr:stedsnr" v="173891" />
	</node>
	<node id="-297225" lat="60.2883716588" lon="10.357112567">
		<tag k="fixme" v="consider place=hamlet" />
		<tag k="name" v="Næverbekken" />
		<tag k="place" v="farm" />
		<tag k="ssr:stedsnr" v="173245" />
	</node>
	<node id="-297004" lat="60.2774444415" lon="10.5218638826">
		<tag k="alt_name" v="Svenskeenga" />
		<tag k="name" v="Svenskenga" />
		<tag k="place" v="farm" />
		<tag k="ssr:stedsnr" v="734830" />
	</node>
	<node id="-297221" lat="60.2716361095" lon="10.5176111156">
		<tag k="name" v="Bjerkås" />
		<tag k="old_name" v="Nordstuløkken;Bjerkaas" />
		<tag k="place" v="farm" />
		<tag k="ssr:stedsnr" v="163035" />
	</node>
	<node id="-297217" lat="60.2992055524" lon="10.4197138873">
		<tag k="amenity" v="school" />
		<tag k="name" v="Sogn skole" />
		<tag k="ssr:stedsnr" v="155354" />
	</node>
	<node id="-297429" lat="60.201874999" lon="10.5637805628">
		<tag k="name" v="Kalvedalshytta" />
		<tag k="place" v="isolated_dwelling" />
		<tag k="ssr:stedsnr" v="638273" />
	</node>
	<node id="-297011" lat="60.282239943" lon="10.4959427304">
		<tag k="alt_name" v="Feldberg;Felberg" />
		<tag k="fixme" v="consider place=hamlet" />
		<tag k="name" v="Fellberg" />
		<tag k="place" v="farm" />
		<tag k="ssr:stedsnr" v="674811" />
	</node>
	<node id="-297207" lat="60.3122944449" lon="10.4405611071">
		<tag k="name" v="Bekkestua" />
		<tag k="place" v="isolated_dwelling" />
		<tag k="ssr:stedsnr" v="128919" />
	</node>
	<node id="-297206" lat="60.2570833357" lon="10.489661104">
		<tag k="name" v="Myrvoll" />
		<tag k="place" v="farm" />
		<tag k="ssr:stedsnr" v="127789" />
	</node>
	<node id="-297205" lat="60.264377775" lon="10.4893361186">
		<tag k="name" v="Aslaksrud" />
		<tag k="place" v="farm" />
		<tag k="ssr:stedsnr" v="127788" />
	</node>
	<node id="-297204" lat="60.2977222267" lon="10.4560694462">
		<tag k="name" v="Nordli" />
		<tag k="place" v="farm" />
		<tag k="ssr:stedsnr" v="127873" />
	</node>
	<node id="-297203" lat="60.3072583326" lon="10.4318500084">
		<tag k="alt_name" v="Velo" />
		<tag k="name" v="Vestre Velo" />
		<tag k="old_name" v="Velø" />
		<tag k="place" v="farm" />
		<tag k="ssr:stedsnr" v="127694" />
	</node>
	<node id="-297202" lat="60.2541861133" lon="10.3750999978">
		<tag k="name" v="Tokerud" />
		<tag k="place" v="farm" />
		<tag k="ssr:stedsnr" v="127778" />
	</node>
	<node id="-297201" lat="60.3800555558" lon="10.2957749938">
		<tag k="name" v="Otermyrbakken" />
		<tag k="place" v="isolated_dwelling" />
		<tag k="ssr:stedsnr" v="127658" />
	</node>
	<node id="-297198" lat="60.3336583308" lon="10.2802499952">
		<tag k="alt_name" v="Kimtjennseter" />
		<tag k="historic" v="shieling" />
		<tag k="name" v="Kimetjernsætra" />
		<tag k="place" v="locality" />
		<tag k="ssr:stedsnr" v="127493" />
	</node>
	<node id="-297197" lat="60.3324027817" lon="10.3118027788">
		<tag k="alt_name" v="Gladbakken" />
		<tag k="name" v="Gladbakk" />
		<tag k="place" v="isolated_dwelling" />
		<tag k="ssr:stedsnr" v="127489" />
	</node>
	<node id="-297196" lat="60.248477774" lon="10.4589972274">
		<tag k="alt_name" v="Åserud" />
		<tag k="name" v="Åsrud" />
		<tag k="place" v="locality" />
		<tag k="ssr:stedsnr" v="127454" />
	</node>
	<node id="-297195" lat="60.2485194433" lon="10.370649994">
		<tag k="name" v="Nordhagen" />
		<tag k="place" v="quarter" />
		<tag k="ssr:stedsnr" v="127453" />
	</node>
	<node id="-296999" lat="60.3847166684" lon="10.2359138964">
		<tag k="alt_name" v="Buvatnseter" />
		<tag k="historic" v="shieling" />
		<tag k="name" v="Buvatnsætra" />
		<tag k="place" v="locality" />
		<tag k="ssr:stedsnr" v="734563" />
	</node>
	<node id="-297191" lat="60.2128222254" lon="10.4994055495">
		<tag k="alt_name" v="Skjennumsetra" />
		<tag k="historic" v="shieling" />
		<tag k="name" v="Skjennumsætra" />
		<tag k="place" v="locality" />
		<tag k="ssr:stedsnr" v="126486" />
	</node>
	<node id="-297189" lat="60.206683334" lon="10.4433722222">
		<tag k="historic" v="shieling" />
		<tag k="name" v="Mosætra" />
		<tag k="place" v="locality" />
		<tag k="ssr:stedsnr" v="126438" />
	</node>
	<node id="-297187" lat="60.231769445" lon="10.5341638799">
		<tag k="name" v="Trantjern" />
		<tag k="place" v="farm" />
		<tag k="ssr:stedsnr" v="126388" />
	</node>
	<node id="-297510" lat="60.305784655" lon="10.4410729278">
		<tag k="name" v="Granly" />
		<tag k="place" v="farm" />
		<tag k="ssr:stedsnr" v="987346" />
	</node>
	<node id="-296827" lat="60.2345222259" lon="10.3582749959">
		<tag k="loc_name" v="Bergegrinda" />
		<tag k="name" v="Bergergrinda" />
		<tag k="old_name" v="Bergergrina;Bergergrinden" />
		<tag k="place" v="quarter" />
		<tag k="ssr:stedsnr" v="294755" />
	</node>
	<node id="-297184" lat="60.336947221" lon="10.3444500033">
		<tag k="name" v="Gjerdingen" />
		<tag k="place" v="farm" />
		<tag k="ssr:stedsnr" v="119482" />
	</node>
	<node id="-297183" lat="60.3284388876" lon="10.3450055543">
		<tag k="name" v="Strandberg" />
		<tag k="place" v="isolated_dwelling" />
		<tag k="ssr:stedsnr" v="119480" />
	</node>
	<node id="-297182" lat="60.2383305563" lon="10.3549111082">
		<tag k="amenity" v="school" />
		<tag k="name" v="Bergerbakken skole" />
		<tag k="ssr:stedsnr" v="119153" />
	</node>
	<node id="-297181" lat="60.2570106413" lon="10.4376578281">
		<tag k="fixme" v="consider place=hamlet" />
		<tag k="name" v="Prestegården" />
		<tag k="place" v="farm" />
		<tag k="ssr:stedsnr" v="118146" />
	</node>
	<node id="-297179" lat="60.2395888856" lon="10.3675722279">
		<tag k="amenity" v="school" />
		<tag k="name" v="Jevnaker skole" />
		<tag k="ssr:stedsnr" v="113746" />
	</node>
	<node id="-297178" lat="60.2404805531" lon="10.3579250027">
		<tag k="name" v="Grane" />
		<tag k="place" v="farm" />
		<tag k="ssr:stedsnr" v="113741" />
	</node>
	<node id="-297177" lat="60.2532638883" lon="10.3471416718">
		<tag k="name" v="Midtbråtan" />
		<tag k="place" v="locality" />
		<tag k="ssr:stedsnr" v="112994" />
	</node>
	<node id="-297252" lat="60.2766305574" lon="10.4400694456">
		<tag k="alt_name" v="Skjennum østre" />
		<tag k="name" v="Skjennumstua" />
		<tag k="place" v="isolated_dwelling" />
		<tag k="ssr:stedsnr" v="188848" />
	</node>
	<node id="-297173" lat="60.2821888981" lon="10.5096836832">
		<tag k="alt_name" v="Endsrud;Ensrud" />
		<tag k="fixme" v="consider place=hamlet" />
		<tag k="name" v="Prest-Ensrud" />
		<tag k="old_name" v="Præst-Ensrud;Præstensrud" />
		<tag k="place" v="farm" />
		<tag k="ssr:stedsnr" v="102845" />
	</node>
	<node id="-297172" lat="60.2151666697" lon="10.4070333405">
		<tag k="name" v="Skollerud" />
		<tag k="place" v="locality" />
		<tag k="ssr:stedsnr" v="95884" />
	</node>
	<node id="-297167" lat="60.2708888874" lon="10.5129777844">
		<tag k="name" v="Nordstrand" />
		<tag k="place" v="farm" />
		<tag k="ssr:stedsnr" v="93914" />
	</node>
	<node id="-297166" lat="60.2697055578" lon="10.5144666644">
		<tag k="name" v="Myre" />
		<tag k="place" v="farm" />
		<tag k="ssr:stedsnr" v="93913" />
	</node>
	<node id="-297162" lat="60.3084861068" lon="10.4321666612">
		<tag k="name" v="Øvre Velo" />
		<tag k="place" v="farm" />
		<tag k="ssr:stedsnr" v="90148" />
	</node>
	<node id="-297161" lat="60.3078888863" lon="10.4542027866">
		<tag k="name" v="Midtlia" />
		<tag k="place" v="locality" />
		<tag k="ssr:stedsnr" v="90145" />
	</node>
	<node id="-297159" lat="60.3340552621" lon="10.3440352245">
		<tag k="fixme" v="consider place=hamlet" />
		<tag k="name" v="Elnes" />
		<tag k="place" v="farm" />
		<tag k="ssr:stedsnr" v="67993" />
	</node>
	<node id="-297442" lat="60.2420722228" lon="10.4178166614">
		<tag k="name" v="Toso" />
		<tag k="place" v="quarter" />
		<tag k="ssr:stedsnr" v="752926" />
	</node>
	<node id="-296993" lat="60.2238444405" lon="10.3870250069">
		<tag k="name" v="Kleggerud" />
		<tag k="place" v="farm" />
		<tag k="ssr:stedsnr" v="733440" />
	</node>
	<node id="-297155" lat="60.2558125028" lon="10.4467677039">
		<tag k="alt_name" v="Bratval" />
		<tag k="fixme" v="consider place=hamlet" />
		<tag k="name" v="Brattval" />
		<tag k="place" v="farm" />
		<tag k="ssr:stedsnr" v="67776" />
	</node>
	<node id="-297154" lat="60.2541888898" lon="10.477772228">
		<tag k="alt_name" v="Gullenbråtan" />
		<tag k="name" v="Gullenbråtån" />
		<tag k="place" v="farm" />
		<tag k="ssr:stedsnr" v="67775" />
	</node>
	<node id="-297419" lat="60.2265027768" lon="10.4743222186">
		<tag k="historic" v="shieling" />
		<tag k="name" v="Finnerudsætra" />
		<tag k="place" v="locality" />
		<tag k="ssr:stedsnr" v="611470" />
	</node>
	<node id="-297152" lat="60.2585421339" lon="10.4656654093">
		<tag k="fixme" v="consider place=hamlet" />
		<tag k="name" v="Røste" />
		<tag k="place" v="farm" />
		<tag k="ssr:stedsnr" v="67762" />
	</node>
	<node id="-297341" lat="60.278961111" lon="10.3636388801">
		<tag k="name" v="Hansebråtan" />
		<tag k="place" v="locality" />
		<tag k="ssr:stedsnr" v="416550" />
	</node>
	<node id="-297150" lat="60.3040444406" lon="10.4084194412">
		<tag k="alt_name" v="Jørve" />
		<tag k="name" v="Gjørve" />
		<tag k="place" v="farm" />
		<tag k="ssr:stedsnr" v="67890" />
	</node>
	<node id="-297077" lat="60.2970936874" lon="10.33654971">
		<tag k="alt_name" v="Midt-Falla;Falla, midtre" />
		<tag k="name" v="Midtre Falla" />
		<tag k="place" v="farm" />
		<tag k="ssr:stedsnr" v="856423" />
	</node>
	<node id="-297148" lat="60.3039944456" lon="10.394691673">
		<tag k="name" v="Dal" />
		<tag k="place" v="farm" />
		<tag k="ssr:stedsnr" v="67875" />
	</node>
	<node id="-297418" lat="60.3566888894" lon="10.2443194506">
		<tag k="name" v="Flåtjernshytta" />
		<tag k="place" v="isolated_dwelling" />
		<tag k="ssr:stedsnr" v="611597" />
	</node>
	<node id="-297146" lat="60.3291463923" lon="10.3416651058">
		<tag k="alt_name" v="Skutseter" />
		<tag k="fixme" v="consider place=hamlet" />
		<tag k="name" v="Skutsæter" />
		<tag k="place" v="farm" />
		<tag k="ssr:stedsnr" v="67475" />
	</node>
	<node id="-296991" lat="60.2397916636" lon="10.387086119">
		<tag k="name" v="Jevnaker" />
		<tag k="place" v="village" />
		<tag k="ssr:stedsnr" v="733380" />
	</node>
	<node id="-297144" lat="60.2455194463" lon="10.4411249974">
		<tag k="name" v="Bekkestua" />
		<tag k="place" v="locality" />
		<tag k="ssr:stedsnr" v="66363" />
	</node>
	<node id="-297141" lat="60.262886114" lon="10.4790694499">
		<tag k="name" v="Søberg" />
		<tag k="place" v="farm" />
		<tag k="ssr:stedsnr" v="58215" />
	</node>
	<node id="-297139" lat="60.2668083369" lon="10.4823555481">
		<tag k="alt_name" v="Olum vestre;Olum vestre og mellom;Vestre Olimb" />
		<tag k="loc_name" v="Vestgarden" />
		<tag k="name" v="Vestre Olum" />
		<tag k="old_name" v="Olum vestre og mellem" />
		<tag k="place" v="farm" />
		<tag k="ssr:stedsnr" v="55924" />
	</node>
	<node id="-297134" lat="60.1908916709" lon="10.4601472185">
		<tag k="name" v="Stormyrhytta" />
		<tag k="place" v="isolated_dwelling" />
		<tag k="ssr:stedsnr" v="34598" />
	</node>
	<node id="-297521" lat="60.2939199892" lon="10.4597834068">
		<tag k="fixme" v="consider place=hamlet" />
		<tag k="name" v="Hvaterud" />
		<tag k="place" v="farm" />
		<tag k="ssr:stedsnr" v="987962" />
	</node>
	<node id="-297298" lat="60.248455554" lon="10.372763894">
		<tag k="name" v="Frydenlund" />
		<tag k="place" v="quarter" />
		<tag k="ssr:stedsnr" v="361078" />
	</node>
	<node id="-297130" lat="60.2573722252" lon="10.49119166">
		<tag k="name" v="Østby" />
		<tag k="place" v="farm" />
		<tag k="ssr:stedsnr" v="32934" />
	</node>
	<node id="-297415" lat="60.2539833326" lon="10.4284138962">
		<tag k="name" v="Vangsmølla" />
		<tag k="place" v="locality" />
		<tag k="ssr:stedsnr" v="603060" />
	</node>
	<node id="-297128" lat="60.2227861089" lon="10.5275583404">
		<tag k="name" v="Øljehytta" />
		<tag k="place" v="isolated_dwelling" />
		<tag k="ssr:stedsnr" v="32872" />
	</node>
	<node id="-297126" lat="60.3355472246" lon="10.3487055494">
		<tag k="name" v="Engeli" />
		<tag k="place" v="locality" />
		<tag k="ssr:stedsnr" v="6999" />
	</node>
	<node id="-297125" lat="60.283230555" lon="10.458391672">
		<tag k="name" v="Skårud" />
		<tag k="place" v="farm" />
		<tag k="ssr:stedsnr" v="6875" />
	</node>
	<node id="-297124" lat="60.2934916624" lon="10.4570222299">
		<tag k="alt_name" v="Hvaterud, vestre;Vestre Vaterud" />
		<tag k="name" v="Vestre Hvaterud" />
		<tag k="place" v="farm" />
		<tag k="ssr:stedsnr" v="6866" />
	</node>
	<node id="-297123" lat="60.2743747443" lon="10.4696909996">
		<tag k="alt_name" v="Greftegreff" />
		<tag k="name" v="Greftegrev" />
		<tag k="place" v="hamlet" />
		<tag k="ssr:stedsnr" v="6798" />
	</node>
	<node id="-297122" lat="60.2694888873" lon="10.4739250054">
		<tag k="name" v="Ragnhildrud" />
		<tag k="place" v="isolated_dwelling" />
		<tag k="ssr:stedsnr" v="6797" />
	</node>
	<node id="-297305" lat="60.2347083322" lon="10.4336249916">
		<tag k="name" v="Steinbråtan" />
		<tag k="place" v="isolated_dwelling" />
		<tag k="ssr:stedsnr" v="361251" />
	</node>
	<node id="-297120" lat="60.2546166669" lon="10.5077916578">
		<tag k="alt_name" v="Slåttbråtan" />
		<tag k="historic" v="shieling" />
		<tag k="name" v="Slåttbråtån" />
		<tag k="place" v="locality" />
		<tag k="ssr:stedsnr" v="6790" />
	</node>
	<node id="-297119" lat="60.2586350889" lon="10.4290155955">
		<tag k="alt_name" v="Vang, øvre" />
		<tag k="fixme" v="consider place=hamlet" />
		<tag k="name" v="Øvre Vang" />
		<tag k="place" v="farm" />
		<tag k="ssr:stedsnr" v="6779" />
	</node>
	<node id="-297116" lat="60.3388027782" lon="10.3528416681">
		<tag k="name" v="Halvorsbøle" />
		<tag k="ssr:stedsnr" v="6039" />
		<tag k="tourism" v="hotel" />
	</node>
	<node id="-297115" lat="60.3617388402" lon="10.356704086">
		<tag k="fixme" v="consider place=hamlet" />
		<tag k="name" v="Kammerud" />
		<tag k="place" v="farm" />
		<tag k="ssr:stedsnr" v="6012" />
	</node>
	<node id="-297114" lat="60.3588750007" lon="10.2874194418">
		<tag k="name" v="Langtjernshytta" />
		<tag k="place" v="isolated_dwelling" />
		<tag k="ssr:stedsnr" v="5590" />
	</node>
	<node id="-297110" lat="60.2296888907" lon="10.3682944407">
		<tag k="name" v="Samsmoen" />
		<tag k="place" v="quarter" />
		<tag k="ssr:stedsnr" v="5463" />
	</node>
	<node id="-296985" lat="60.2413694432" lon="10.4010972135">
		<tag k="name" v="Thorbjørnrud Hotell" />
		<tag k="old_name" v="Torbjørnrud hotell" />
		<tag k="ssr:stedsnr" v="725072" />
		<tag k="tourism" v="hotel" />
	</node>
	<node id="-297414" lat="60.2680808972" lon="10.4894936587">
		<tag k="alt_name" v="Olom" />
		<tag k="name" v="Olum" />
		<tag k="place" v="hamlet" />
		<tag k="ssr:stedsnr" v="600930" />
	</node>
	<node id="-297106" lat="60.2387435723" lon="10.4264856297">
		<tag k="fixme" v="consider place=hamlet" />
		<tag k="name" v="Torshov" />
		<tag k="place" v="farm" />
		<tag k="ssr:stedsnr" v="5371" />
	</node>
	<node id="-297355" lat="60.2930277821" lon="10.4583777862">
		<tag k="alt_name" v="Hvaterud, midtre;Midtre Vaterud" />
		<tag k="name" v="Midtre Hvaterud" />
		<tag k="place" v="farm" />
		<tag k="ssr:stedsnr" v="431878" />
	</node>
	<node id="-297014" lat="60.1986861081" lon="10.5547805562">
		<tag k="historic" v="shieling" />
		<tag k="name" v="Roensetra" />
		<tag k="place" v="locality" />
		<tag k="ssr:stedsnr" v="882258" />
	</node>
	<node id="-296984" lat="60.269744444" lon="10.4857416584">
		<tag k="alt_name" v="Midtre Olimb" />
		<tag k="loc_name" v="Austgarden" />
		<tag k="name" v="Midtre Olum" />
		<tag k="old_name" v="Olum mellem" />
		<tag k="place" v="farm" />
		<tag k="ssr:stedsnr" v="722933" />
	</node>
	<node id="-297100" lat="60.3113833354" lon="10.4029777789">
		<tag k="alt_name" v="Rudsbråtan" />
		<tag k="name" v="Rudsbråtån" />
		<tag k="place" v="farm" />
		<tag k="ssr:stedsnr" v="917905" />
	</node>
	<node id="-297098" lat="60.2843472201" lon="10.4398500071">
		<tag k="name" v="Engerstykket" />
		<tag k="place" v="isolated_dwelling" />
		<tag k="ssr:stedsnr" v="916878" />
	</node>
	<node id="-297097" lat="60.2755093361" lon="10.4884374539">
		<tag k="fixme" v="consider place=hamlet" />
		<tag k="name" v="Kinge" />
		<tag k="place" v="farm" />
		<tag k="ssr:stedsnr" v="916858" />
	</node>
	<node id="-296812" lat="60.2893611121" lon="10.5081055518">
		<tag k="name" v="Østre Vassjø" />
		<tag k="place" v="farm" />
		<tag k="ssr:stedsnr" v="275546" />
	</node>
	<node id="-297153" lat="60.2613583364" lon="10.4274694359">
		<tag k="name" v="Skogheim" />
		<tag k="place" v="isolated_dwelling" />
		<tag k="ssr:stedsnr" v="67764" />
	</node>
	<node id="-297092" lat="60.3709472198" lon="10.3528222296">
		<tag k="name" v="Vik" />
		<tag k="place" v="farm" />
		<tag k="ssr:stedsnr" v="916105" />
	</node>
	<node id="-296982" lat="60.2658222183" lon="10.5153416587">
		<tag k="alt_name" v="Olimbsbråtan;Olimbsbråten" />
		<tag k="name" v="Olumsbråtån" />
		<tag k="place" v="farm" />
		<tag k="ssr:stedsnr" v="612807" />
	</node>
	<node id="-297089" lat="60.2376722204" lon="10.396658327">
		<tag k="building" v="industrial" />
		<tag k="industrial" v="factory" />
		<tag k="name" v="Hadeland Glassverk" />
		<tag k="old_name" v="Hadelands glassverk" />
		<tag k="ssr:stedsnr" v="915379" />
	</node>
	<node id="-297493" lat="60.2913166671" lon="10.3408361031">
		<tag k="name" v="Persbråtan" />
		<tag k="place" v="farm" />
		<tag k="ssr:stedsnr" v="856448" />
	</node>
	<node id="-297420" lat="60.23123333" lon="10.4525583253">
		<tag k="name" v="Midtlia" />
		<tag k="place" v="isolated_dwelling" />
		<tag k="ssr:stedsnr" v="611473" />
	</node>
	<node id="-296911" lat="60.2672638863" lon="10.5383305588">
		<tag k="name" v="Høghaug" />
		<tag k="place" v="isolated_dwelling" />
		<tag k="ssr:stedsnr" v="517961" />
	</node>
	<node id="-297082" lat="60.2886150455" lon="10.4197762474">
		<tag k="alt_name" v="Gunstad" />
		<tag k="fixme" v="consider place=hamlet" />
		<tag k="name" v="Gunnstad" />
		<tag k="place" v="farm" />
		<tag k="ssr:stedsnr" v="856880" />
	</node>
	<node id="-297151" lat="60.2511277754" lon="10.3506527859">
		<tag k="alt_name" v="Jørnsbråtan" />
		<tag k="historic" v="shieling" />
		<tag k="name" v="Jørnsbråtåsætra" />
		<tag k="place" v="locality" />
		<tag k="ssr:stedsnr" v="67753" />
	</node>
	<node id="-297080" lat="60.2963499991" lon="10.4145500001">
		<tag k="alt_name" v="Roenbråten" />
		<tag k="name" v="Roenbråtån" />
		<tag k="place" v="isolated_dwelling" />
		<tag k="ssr:stedsnr" v="856868" />
	</node>
	<node id="-297079" lat="60.2733463332" lon="10.4619233041">
		<tag k="fixme" v="consider place=hamlet" />
		<tag k="name" v="Kårstad" />
		<tag k="place" v="farm" />
		<tag k="ssr:stedsnr" v="856856" />
	</node>
	<node id="-297078" lat="60.2901138897" lon="10.4904361185">
		<tag k="name" v="Olerud" />
		<tag k="old_name" v="Olarud" />
		<tag k="place" v="farm" />
		<tag k="ssr:stedsnr" v="856827" />
	</node>
	<node id="-297321" lat="60.3098206513" lon="10.4511988538">
		<tag k="name" v="Tjernstua" />
		<tag k="place" v="locality" />
		<tag k="ssr:stedsnr" v="370936" />
	</node>
	<node id="-297075" lat="60.2072972241" lon="10.4848722165">
		<tag k="name" v="Myrheim" />
		<tag k="place" v="isolated_dwelling" />
		<tag k="ssr:stedsnr" v="855423" />
	</node>
	<node id="-297013" lat="60.2918213832" lon="10.4240652594">
		<tag k="alt_name" v="Nordenga;Nordengen" />
		<tag k="name" v="Kjellsrud" />
		<tag k="place" v="isolated_dwelling" />
		<tag k="ssr:stedsnr" v="674857" />
	</node>
	<node id="-297320" lat="60.3052861153" lon="10.4502166732">
		<tag k="fixme" v="multiple name tags, choose one and add the other to alt_name" />
		<tag k="name" v="Nedre Rustad;Rustad" />
		<tag k="place" v="farm" />
		<tag k="ssr:stedsnr" v="370895" />
	</node>
	<node id="-297070" lat="60.2999722222" lon="10.3533722285">
		<tag k="name" v="Hamar" />
		<tag k="place" v="farm" />
		<tag k="ssr:stedsnr" v="841261" />
	</node>
	<node id="-297081" lat="60.2860361124" lon="10.3527777762">
		<tag k="alt_name" v="Nordåsen;Åsen, nordre" />
		<tag k="name" v="Nordre Åsen" />
		<tag k="place" v="farm" />
		<tag k="ssr:stedsnr" v="856876" />
	</node>
	<node id="-297441" lat="60.23180145" lon="10.5341469388">
		<tag k="alt_name" v="Trantjernet" />
		<tag k="fixme" v="consider tourism=alpine_hut or tourism=chalet" />
		<tag k="name" v="Trantjern" />
		<tag k="ssr:stedsnr" v="752545" />
		<tag k="tourism" v="wilderness_hut" />
	</node>
	<node id="-297064" lat="60.2647305516" lon="10.5115555586">
		<tag k="alt_name" v="Langli" />
		<tag k="name" v="Langlia" />
		<tag k="place" v="farm" />
		<tag k="ssr:stedsnr" v="795808" />
	</node>
	<node id="-297063" lat="60.2496554166" lon="10.4317221257">
		<tag k="alt_name" v="Kveldsrud;Kvelsrud" />
		<tag k="fixme" v="consider place=hamlet" />
		<tag k="name" v="Kvellsrud" />
		<tag k="place" v="farm" />
		<tag k="ssr:stedsnr" v="795781" />
	</node>
	<node id="-297062" lat="60.2050861143" lon="10.5333416627">
		<tag k="alt_name" v="Sognsetra" />
		<tag k="historic" v="shieling" />
		<tag k="name" v="Sognsætra" />
		<tag k="place" v="locality" />
		<tag k="ssr:stedsnr" v="794429" />
	</node>
	<node id="-297059" lat="60.2774666646" lon="10.530141662">
		<tag k="alt_name" v="Prestlia" />
		<tag k="name" v="Lia" />
		<tag k="place" v="farm" />
		<tag k="ssr:stedsnr" v="916843" />
	</node>
	<node id="-297058" lat="60.3084805595" lon="10.3440861184">
		<tag k="name" v="Volla" />
		<tag k="place" v="farm" />
		<tag k="ssr:stedsnr" v="916887" />
	</node>
	<node id="-297057" lat="60.3386666704" lon="10.3131027726">
		<tag k="historic" v="shieling" />
		<tag k="name" v="Merramyrsætra" />
		<tag k="place" v="locality" />
		<tag k="ssr:stedsnr" v="916602" />
	</node>
	<node id="-297051" lat="60.3422078837" lon="10.3561725315">
		<tag k="fixme" v="consider place=hamlet" />
		<tag k="name" v="Onsaker" />
		<tag k="place" v="farm" />
		<tag k="ssr:stedsnr" v="916036" />
	</node>
	<node id="-297558" lat="60.2226773939" lon="10.42894621">
		<tag k="name" v="Sørås" />
		<tag k="place" v="locality" />
		<tag k="ssr:stedsnr" v="1076841" />
	</node>
	<node id="-297042" lat="60.3334444436" lon="10.3444166623">
		<tag k="name" v="Båtflaten" />
		<tag k="place" v="isolated_dwelling" />
		<tag k="ssr:stedsnr" v="908489" />
	</node>
	<node id="-297041" lat="60.2330472237" lon="10.4311333336">
		<tag k="name" v="Hauerbakken" />
		<tag k="place" v="locality" />
		<tag k="ssr:stedsnr" v="907194" />
	</node>
	<node id="-297036" lat="60.2553555524" lon="10.3749666582">
		<tag k="name" v="Dølerud" />
		<tag k="place" v="farm" />
		<tag k="ssr:stedsnr" v="907076" />
	</node>
	<node id="-297035" lat="60.2725805559" lon="10.498583334">
		<tag k="alt_name" v="Olimbshagan;Olimbshagen;Olimhagen;Hagan" />
		<tag k="name" v="Olumshagan" />
		<tag k="place" v="farm" />
		<tag k="ssr:stedsnr" v="906839" />
	</node>
	<node id="-297033" lat="60.3054138899" lon="10.454024993">
		<tag k="name" v="Stensli" />
		<tag k="place" v="isolated_dwelling" />
		<tag k="ssr:stedsnr" v="906873" />
	</node>
	<node id="-296972" lat="60.2404888922" lon="10.3833388939">
		<tag k="name" v="Nesbakken" />
		<tag k="place" v="quarter" />
		<tag k="ssr:stedsnr" v="603161" />
	</node>
	<node id="-297313" lat="60.3130333362" lon="10.3283555483">
		<tag k="alt_name" v="Myreseter" />
		<tag k="historic" v="shieling" />
		<tag k="name" v="Velsandsætra" />
		<tag k="place" v="locality" />
		<tag k="ssr:stedsnr" v="370528" />
	</node>
	<node id="-297025" lat="60.3086027764" lon="10.3931805579">
		<tag k="name" v="Grønndal" />
		<tag k="place" v="farm" />
		<tag k="ssr:stedsnr" v="697662" />
	</node>
	<node id="-297024" lat="60.2737111133" lon="10.4501222272">
		<tag k="name" v="Kårstadstua" />
		<tag k="place" v="isolated_dwelling" />
		<tag k="ssr:stedsnr" v="889005" />
	</node>
	<node id="-297023" lat="60.2524694456" lon="10.3095888972">
		<tag k="name" v="Buttenheim" />
		<tag k="place" v="isolated_dwelling" />
		<tag k="ssr:stedsnr" v="884251" />
	</node>
	<node id="-297022" lat="60.2914138895" lon="10.2870944459">
		<tag k="name" v="Valhall" />
		<tag k="place" v="isolated_dwelling" />
		<tag k="ssr:stedsnr" v="884245" />
	</node>
	<node id="-297397" lat="60.2721166695" lon="10.4069916675">
		<tag k="alt_name" v="Bjellum, søndre;Bjellum" />
		<tag k="name" v="Søndre Bjellum" />
		<tag k="place" v="farm" />
		<tag k="ssr:stedsnr" v="552812" />
	</node>
	<node id="-297530" lat="60.3058517082" lon="10.4467846104">
		<tag k="fixme" v="multiple name tags, choose one and add the other to alt_name" />
		<tag k="name" v="Rustad;Øvre Rustad" />
>>>>>>> e1d4bc35ff8a6074a6f2e91616a996b547c36f15
		<tag k="place" v="farm" />
		<tag k="ssr:stedsnr" v="989046" />
	</node>
<<<<<<< HEAD
	<node lat="60.268080897186536" lon="10.489493658657912" id="-17076">
		<tag k="alt_name" v="Olom" />
		<tag k="name" v="Olum" />
		<tag k="place" v="hamlet" />
		<tag k="ssr:stedsnr" v="600930" />
	</node>
	<node lat="60.226502776772804" lon="10.474322218557392" id="-17077">
		<tag k="historic" v="shieling" />
		<tag k="name" v="Finnerudsætra" />
		<tag k="place" v="isolated_dwelling" />
		<tag k="ssr:stedsnr" v="611470" />
	</node>
	<node lat="60.231233329954875" lon="10.452558325288559" id="-17078">
		<tag k="name" v="Midtlia" />
		<tag k="place" v="isolated_dwelling" />
		<tag k="ssr:stedsnr" v="611473" />
	</node>
	<node lat="60.356688889398534" lon="10.244319450623994" id="-17079">
		<tag k="name" v="Flåtjernshytta" />
		<tag k="place" v="isolated_dwelling" />
		<tag k="ssr:stedsnr" v="611597" />
	</node>
	<node lat="60.31064342830629" lon="10.416507731125789" id="-17083">
		<tag k="fixme" v="consider place=hamlet" />
		<tag k="name" v="Rud" />
		<tag k="place" v="farm" />
		<tag k="ssr:stedsnr" v="612877" />
	</node>
	<node lat="60.2018749990392" lon="10.563780562826299" id="-17086">
		<tag k="name" v="Kalvedalshytta" />
		<tag k="place" v="isolated_dwelling" />
		<tag k="ssr:stedsnr" v="638273" />
	</node>
	<node lat="60.27844722492363" lon="10.53198056138855" id="-17088">
		<tag k="name" v="Prestlia" />
		<tag k="place" v="farm" />
		<tag k="ssr:stedsnr" v="638950" />
	</node>
	<node lat="60.26468888671199" lon="10.508358330555527" id="-17089">
		<tag k="name" v="Langdalen" />
		<tag k="place" v="farm" />
		<tag k="ssr:stedsnr" v="638970" />
	</node>
	<node lat="60.288568443624314" lon="10.397824328006639" id="-17092">
		<tag k="name" v="Vestre Roen" />
		<tag k="place" v="farm" />
		<tag k="ssr:stedsnr" v="640435" />
	</node>
	<node lat="60.296927775373725" lon="10.340438886842513" id="-17094">
		<tag k="name" v="Gjerde" />
=======
	<node id="-297529" lat="60.3077849013" lon="10.4324640576">
		<tag k="name" v="Velo" />
		<tag k="place" v="hamlet" />
		<tag k="ssr:stedsnr" v="988013" />
	</node>
	<node id="-297528" lat="60.3097535238" lon="10.3842041058">
		<tag k="fixme" v="consider place=hamlet" />
		<tag k="name" v="Bjertnes" />
		<tag k="place" v="farm" />
		<tag k="ssr:stedsnr" v="988012" />
	</node>
	<node id="-297527" lat="60.2748894693" lon="10.4060054746">
		<tag k="fixme" v="consider place=hamlet" />
		<tag k="name" v="Bjellum" />
		<tag k="place" v="farm" />
		<tag k="ssr:stedsnr" v="987989" />
	</node>
	<node id="-297526" lat="60.2535847135" lon="10.3812706708">
		<tag k="fixme" v="consider place=hamlet" />
		<tag k="name" v="Brørby" />
		<tag k="place" v="farm" />
		<tag k="ssr:stedsnr" v="987988" />
	</node>
	<node id="-297525" lat="60.2488402381" lon="10.3791232637">
		<tag k="fixme" v="consider place=hamlet" />
		<tag k="name" v="Nøkleby" />
		<tag k="place" v="farm" />
		<tag k="ssr:stedsnr" v="987987" />
	</node>
	<node id="-297524" lat="60.2422715161" lon="10.3717499819">
		<tag k="fixme" v="consider place=hamlet" />
		<tag k="name" v="Berger" />
		<tag k="place" v="farm" />
		<tag k="ssr:stedsnr" v="987986" />
	</node>
	<node id="-297523" lat="60.2405545715" lon="10.4005245713">
		<tag k="fixme" v="consider place=hamlet" />
		<tag k="name" v="Torbjørnrud" />
		<tag k="place" v="farm" />
		<tag k="ssr:stedsnr" v="987964" />
	</node>
	<node id="-297522" lat="60.2793217837" lon="10.4331660772">
		<tag k="name" v="Skjennum" />
		<tag k="place" v="hamlet" />
		<tag k="ssr:stedsnr" v="987963" />
	</node>
	<node id="-297395" lat="60.2507694459" lon="10.5259472186">
		<tag k="name" v="Høgnes" />
>>>>>>> e1d4bc35ff8a6074a6f2e91616a996b547c36f15
		<tag k="place" v="farm" />
		<tag k="ssr:stedsnr" v="658271" />
	</node>
	<node lat="60.26974444403132" lon="10.48574165842418" id="-17106">
		<tag k="alt_name" v="Midtre Olimb" />
		<tag k="loc_name" v="Austgarden" />
		<tag k="name" v="Midtre Olum" />
		<tag k="old_name" v="Olum mellem" />
		<tag k="place" v="farm" />
		<tag k="ssr:stedsnr" v="722933" />
	</node>
	<node lat="60.24136944319453" lon="10.40109721354519" id="-17107">
		<tag k="name" v="Thorbjørnrud Hotell" />
		<tag k="old_name" v="Torbjørnrud hotell" />
		<tag k="ssr:stedsnr" v="725072" />
		<tag k="tourism" v="hotel" />
	</node>
<<<<<<< HEAD
	<node lat="60.24429540400706" lon="10.433690812903546" id="-17110">
		<tag k="fixme" v="consider place=hamlet" />
		<tag k="name" v="Rønnerud" />
		<tag k="place" v="farm" />
		<tag k="ssr:stedsnr" v="733356" />
	</node>
	<node lat="60.2397916635713" lon="10.387086118970043" id="-17111">
		<tag k="name" v="Jevnaker" />
		<tag k="place" v="village" />
		<tag k="ssr:stedsnr" v="733380" />
	</node>
	<node lat="60.27744444148138" lon="10.521863882576273" id="-17114">
		<tag k="alt_name" v="Svenskeenga" />
		<tag k="name" v="Svenskenga" />
		<tag k="place" v="farm" />
		<tag k="ssr:stedsnr" v="734830" />
	</node>
	<node lat="60.28172777809653" lon="10.440494446409398" id="-17115">
		<tag k="alt_name" v="Ødegård" />
		<tag k="name" v="Øgarden" />
		<tag k="place" v="farm" />
		<tag k="ssr:stedsnr" v="734835" />
	</node>
	<node lat="60.38471666843704" lon="10.235913896416845" id="-17116">
		<tag k="alt_name" v="Buvatnseter" />
		<tag k="historic" v="shieling" />
		<tag k="name" v="Buvatnsætra" />
		<tag k="place" v="isolated_dwelling" />
		<tag k="ssr:stedsnr" v="734563" />
	</node>
	<node lat="60.23180145002635" lon="10.534146938815155" id="-17120">
		<tag k="alt_name" v="Trantjernet" />
		<tag k="fixme" v="consider tourism=alpine_hut or tourism=chalet" />
		<tag k="name" v="Trantjern" />
		<tag k="ssr:stedsnr" v="752545" />
		<tag k="tourism" v="wilderness_hut" />
	</node>
	<node lat="60.24207222278459" lon="10.41781666138174" id="-17121">
		<tag k="name" v="Toso" />
		<tag k="place" v="quarter" />
		<tag k="ssr:stedsnr" v="752926" />
	</node>
	<node lat="60.35139999975581" lon="10.359675001162836" id="-17126">
		<tag k="name" v="Jægersborg" />
		<tag k="place" v="isolated_dwelling" />
		<tag k="ssr:stedsnr" v="765401" />
	</node>
	<node lat="60.22586944587206" lon="10.363999998679146" id="-17130">
		<tag k="name" v="Furumoen" />
		<tag k="place" v="quarter" />
		<tag k="ssr:stedsnr" v="779582" />
	</node>
	<node lat="60.24465833383781" lon="10.376144443305405" id="-17135">
		<tag k="name" v="Randsborg" />
		<tag k="place" v="quarter" />
		<tag k="ssr:stedsnr" v="786084" />
	</node>
	<node lat="60.33942500434388" lon="10.345650003912006" id="-17140">
		<tag k="name" v="Granli" />
=======
	<node id="-297520" lat="60.3390006952" lon="10.3493787718">
		<tag k="fixme" v="consider place=hamlet" />
		<tag k="name" v="Halvorsbøle" />
		<tag k="place" v="farm" />
		<tag k="ssr:stedsnr" v="987865" />
	</node>
	<node id="-297519" lat="60.2916948279" lon="10.4200006544">
		<tag k="name" v="Nordengen" />
		<tag k="place" v="farm" />
		<tag k="ssr:stedsnr" v="987364" />
	</node>
	<node id="-297518" lat="60.3046152508" lon="10.4135628764">
		<tag k="name" v="Engeli" />
		<tag k="place" v="farm" />
		<tag k="ssr:stedsnr" v="987363" />
	</node>
	<node id="-297517" lat="60.3048744321" lon="10.4154458273">
		<tag k="name" v="Sognebu" />
		<tag k="place" v="farm" />
		<tag k="ssr:stedsnr" v="987362" />
	</node>
	<node id="-297516" lat="60.3043170863" lon="10.4177344619">
		<tag k="name" v="Sogn" />
		<tag k="place" v="farm" />
		<tag k="ssr:stedsnr" v="987361" />
	</node>
	<node id="-297515" lat="60.3043944091" lon="10.4187969753">
		<tag k="name" v="Sogn" />
		<tag k="place" v="farm" />
		<tag k="ssr:stedsnr" v="987360" />
	</node>
	<node id="-297514" lat="60.3047273142" lon="10.4215744755">
		<tag k="name" v="Sogn" />
		<tag k="place" v="farm" />
		<tag k="ssr:stedsnr" v="987355" />
	</node>
	<node id="-297513" lat="60.3015807967" lon="10.4416056293">
		<tag k="name" v="Eng" />
		<tag k="place" v="farm" />
		<tag k="ssr:stedsnr" v="987352" />
	</node>
	<node id="-297511" lat="60.3060651038" lon="10.4568608408">
		<tag k="name" v="Brenna" />
		<tag k="place" v="farm" />
		<tag k="ssr:stedsnr" v="987347" />
	</node>
	<node id="-297386" lat="60.2926500292" lon="10.3359218141">
		<tag k="alt_name" v="Nedre Rolfsbråtan" />
		<tag k="name" v="Rolvsbråtan" />
>>>>>>> e1d4bc35ff8a6074a6f2e91616a996b547c36f15
		<tag k="place" v="farm" />
		<tag k="ssr:stedsnr" v="795055" />
	</node>
<<<<<<< HEAD
	<node lat="60.24965541656413" lon="10.431722125740812" id="-17144">
		<tag k="alt_name" v="Kveldsrud;Kvelsrud" />
		<tag k="fixme" v="consider place=hamlet" />
		<tag k="name" v="Kvellsrud" />
		<tag k="place" v="farm" />
		<tag k="ssr:stedsnr" v="795781" />
	</node>
	<node lat="60.275057026496334" lon="10.512429628333328" id="-17147">
		<tag k="name" v="Liesmarka" />
		<tag k="place" v="farm" />
		<tag k="ssr:stedsnr" v="821935" />
	</node>
	<node lat="60.274013885403185" lon="10.53274721611162" id="-17148">
		<tag k="name" v="Halvorsrud" />
		<tag k="place" v="farm" />
		<tag k="ssr:stedsnr" v="821949" />
	</node>
	<node lat="60.205305552834645" lon="10.449000001849074" id="-17149">
		<tag k="name" v="Moseterhytta" />
		<tag k="place" v="isolated_dwelling" />
		<tag k="ssr:stedsnr" v="823645" />
	</node>
	<node lat="60.28976666809669" lon="10.428300003405937" id="-17151">
		<tag k="alt_name" v="Øvre Gunstad" />
		<tag k="name" v="Øvre Gunnstad" />
		<tag k="place" v="farm" />
		<tag k="ssr:stedsnr" v="823900" />
	</node>
	<node lat="60.299972222171725" lon="10.3533722284642" id="-17155">
		<tag k="name" v="Hamar" />
		<tag k="place" v="farm" />
		<tag k="ssr:stedsnr" v="841261" />
	</node>
	<node lat="60.2581333335986" lon="10.455649999281947" id="-17157">
		<tag k="name" v="Bratvalshagan" />
		<tag k="place" v="farm" />
		<tag k="ssr:stedsnr" v="847181" />
	</node>
	<node lat="60.24701111273913" lon="10.440502782627394" id="-17158">
		<tag k="name" v="Rønnerudstuene" />
		<tag k="place" v="isolated_dwelling" />
		<tag k="ssr:stedsnr" v="847185" />
	</node>
	<node lat="60.25611944759049" lon="10.485033338062506" id="-17159">
		<tag k="name" v="Høglund" />
		<tag k="place" v="farm" />
		<tag k="ssr:stedsnr" v="847192" />
	</node>
	<node lat="60.234822224929914" lon="10.430722222827423" id="-17160">
		<tag k="name" v="Bakken" />
		<tag k="place" v="isolated_dwelling" />
		<tag k="ssr:stedsnr" v="847257" />
	</node>
	<node lat="60.237172223067574" lon="10.406661107892615" id="-17162">
		<tag k="name" v="Grønland" />
		<tag k="place" v="quarter" />
		<tag k="ssr:stedsnr" v="847150" />
	</node>
	<node lat="60.20729722408582" lon="10.484872216491706" id="-17163">
		<tag k="name" v="Myrheim" />
		<tag k="place" v="isolated_dwelling" />
		<tag k="ssr:stedsnr" v="855423" />
	</node>
	<node lat="60.2913166671171" lon="10.340836103095208" id="-17165">
		<tag k="name" v="Persbråtan" />
		<tag k="place" v="farm" />
		<tag k="ssr:stedsnr" v="856448" />
	</node>
	<node lat="60.29709368743081" lon="10.336549709961867" id="-17166">
		<tag k="alt_name" v="Midt-Falla;Falla, midtre" />
		<tag k="name" v="Midtre Falla" />
		<tag k="place" v="farm" />
		<tag k="ssr:stedsnr" v="856423" />
	</node>
	<node lat="60.29011388968407" lon="10.490436118455975" id="-17168">
		<tag k="name" v="Olerud" />
		<tag k="old_name" v="Olarud" />
		<tag k="place" v="farm" />
		<tag k="ssr:stedsnr" v="856827" />
	</node>
	<node lat="60.28861504548947" lon="10.419776247449215" id="-17169">
		<tag k="alt_name" v="Gunstad" />
		<tag k="fixme" v="consider place=hamlet" />
		<tag k="name" v="Gunnstad" />
		<tag k="place" v="farm" />
		<tag k="ssr:stedsnr" v="856880" />
	</node>
	<node lat="60.29054166554722" lon="10.453400007326731" id="-17170">
		<tag k="name" v="Elsrud" />
		<tag k="place" v="farm" />
		<tag k="ssr:stedsnr" v="856882" />
	</node>
	<node lat="60.31070832932392" lon="10.385583326340464" id="-17171">
		<tag k="alt_name" v="Bjertnes, nordre" />
		<tag k="name" v="Nordre Bjertnes" />
		<tag k="place" v="farm" />
		<tag k="ssr:stedsnr" v="856890" />
	</node>
	<node lat="60.30807777388763" lon="10.392505550284609" id="-17172">
		<tag k="name" v="Grøndal" />
		<tag k="place" v="isolated_dwelling" />
		<tag k="ssr:stedsnr" v="856893" />
	</node>
	<node lat="60.252369263170614" lon="10.380253734441414" id="-17173">
		<tag k="alt_name" v="Brørby;Brørby, s" />
		<tag k="name" v="Søndre Brørby" />
		<tag k="place" v="farm" />
		<tag k="ssr:stedsnr" v="856763" />
	</node>
	<node lat="60.27334633319139" lon="10.461923304074567" id="-17175">
		<tag k="fixme" v="consider place=hamlet" />
		<tag k="name" v="Kårstad" />
		<tag k="place" v="farm" />
		<tag k="ssr:stedsnr" v="856856" />
	</node>
	<node lat="60.29634999910433" lon="10.41455000011286" id="-17176">
		<tag k="alt_name" v="Roenbråten" />
		<tag k="name" v="Roenbråtån" />
		<tag k="place" v="isolated_dwelling" />
		<tag k="ssr:stedsnr" v="856868" />
	</node>
	<node lat="60.28603611237456" lon="10.352777776189093" id="-17177">
		<tag k="alt_name" v="Nordåsen;Åsen, nordre" />
		<tag k="name" v="Nordre Åsen" />
		<tag k="place" v="farm" />
		<tag k="ssr:stedsnr" v="856876" />
	</node>
	<node lat="60.29141388951454" lon="10.287094445856505" id="-17184">
		<tag k="name" v="Valhall" />
		<tag k="place" v="isolated_dwelling" />
		<tag k="ssr:stedsnr" v="884245" />
	</node>
	<node lat="60.248922221652606" lon="10.382177769135422" id="-17195">
		<tag k="name" v="Nedre Nøkleby" />
		<tag k="place" v="farm" />
		<tag k="ssr:stedsnr" v="968080" />
	</node>
	<node lat="60.339000695247" lon="10.349378771833425" id="-17198">
		<tag k="fixme" v="consider place=hamlet" />
		<tag k="name" v="Halvorsbøle" />
		<tag k="place" v="farm" />
		<tag k="ssr:stedsnr" v="987865" />
	</node>
	<node lat="60.30576918932057" lon="10.441058998534533" id="-17199">
		<tag k="name" v="Granli" />
		<tag k="old_name" v="Granly" />
		<tag k="place" v="farm" />
		<tag k="ssr:stedsnr" v="987346" />
	</node>
	<node lat="60.30606510382421" lon="10.456860840754649" id="-17200">
		<tag k="name" v="Brenna" />
		<tag k="place" v="farm" />
		<tag k="ssr:stedsnr" v="987347" />
	</node>
	<node lat="60.29391998917318" lon="10.459783406845814" id="-17204">
		<tag k="fixme" v="consider place=hamlet" />
		<tag k="name" v="Hvaterud" />
		<tag k="place" v="farm" />
		<tag k="ssr:stedsnr" v="987962" />
	</node>
	<node lat="60.279321783655355" lon="10.433166077152805" id="-17205">
		<tag k="name" v="Skjennum" />
		<tag k="place" v="hamlet" />
		<tag k="ssr:stedsnr" v="987963" />
	</node>
	<node lat="60.240554571511026" lon="10.400524571317224" id="-17206">
		<tag k="fixme" v="consider place=hamlet" />
		<tag k="name" v="Torbjørnrud" />
		<tag k="place" v="farm" />
		<tag k="ssr:stedsnr" v="987964" />
	</node>
	<node lat="60.2422715160605" lon="10.371749981929323" id="-17207">
		<tag k="fixme" v="consider place=hamlet" />
		<tag k="name" v="Berger" />
		<tag k="place" v="farm" />
		<tag k="ssr:stedsnr" v="987986" />
	</node>
	<node lat="60.24884023812566" lon="10.379123263710548" id="-17208">
		<tag k="fixme" v="consider place=hamlet" />
		<tag k="name" v="Nøkleby" />
		<tag k="place" v="farm" />
		<tag k="ssr:stedsnr" v="987987" />
	</node>
	<node lat="60.2535847135074" lon="10.381270670804035" id="-17209">
		<tag k="fixme" v="consider place=hamlet" />
		<tag k="name" v="Brørby" />
		<tag k="place" v="farm" />
		<tag k="ssr:stedsnr" v="987988" />
	</node>
	<node lat="60.27488946934328" lon="10.406005474598617" id="-17210">
		<tag k="fixme" v="consider place=hamlet" />
		<tag k="name" v="Bjellum" />
		<tag k="place" v="farm" />
		<tag k="ssr:stedsnr" v="987989" />
	</node>
	<node lat="60.30975352380493" lon="10.38420410577591" id="-17211">
		<tag k="fixme" v="consider place=hamlet" />
		<tag k="name" v="Bjertnes" />
		<tag k="place" v="farm" />
		<tag k="ssr:stedsnr" v="988012" />
	</node>
	<node lat="60.30778490129593" lon="10.432464057608716" id="-17212">
		<tag k="name" v="Velo" />
		<tag k="place" v="hamlet" />
		<tag k="ssr:stedsnr" v="988013" />
	</node>
	<node lat="60.30585170815578" lon="10.44678461035715" id="-17213">
		<tag k="fixme" v="multiple name tags, choose one and add the other to alt_name" />
		<tag k="name" v="Rustad;Øvre Rustad" />
		<tag k="place" v="farm" />
		<tag k="ssr:stedsnr" v="989046" />
	</node>
	<node lat="60.22267739388584" lon="10.428946209991015" id="-17241">
		<tag k="name" v="Sørås" />
		<tag k="place" v="locality" />
		<tag k="ssr:stedsnr" v="1076841" />
	</node>
	<node lat="60.21953464980158" lon="10.518106738479371" id="-17242">
		<tag k="fixme" v="consider tourism=alpine_hut or tourism=chalet" />
		<tag k="name" v="Bristol" />
		<tag k="ssr:stedsnr" v="1077856" />
		<tag k="tourism" v="wilderness_hut" />
	</node>
	<node lat="60.25604412459396" lon="10.426797543671062" id="-17250">
		<tag k="name" v="Vang" />
		<tag k="place" v="hamlet" />
		<tag k="ssr:stedsnr" v="1080609" />
=======
	<node id="-297393" lat="60.29679167" lon="10.4185499995">
		<tag k="name" v="Sognsbråtån" />
		<tag k="place" v="isolated_dwelling" />
		<tag k="ssr:stedsnr" v="552879" />
	</node>
	<node id="-297508" lat="60.2379194462" lon="10.4248805544">
		<tag k="amenity" v="school" />
		<tag k="name" v="Toso skole" />
		<tag k="ssr:stedsnr" v="968143" />
	</node>
	<node id="-297506" lat="60.2489222217" lon="10.3821777691">
		<tag k="name" v="Nedre Nøkleby" />
		<tag k="place" v="farm" />
		<tag k="ssr:stedsnr" v="968080" />
	</node>
	<node id="-297307" lat="60.2420861066" lon="10.4240666748">
		<tag k="name" v="Lund" />
		<tag k="place" v="farm" />
		<tag k="ssr:stedsnr" v="369349" />
	</node>
	<node id="-297392" lat="60.2795888845" lon="10.4791166654">
		<tag k="name" v="Tømte" />
		<tag k="place" v="farm" />
		<tag k="ssr:stedsnr" v="552871" />
	</node>
	<node id="-296990" lat="60.244295404" lon="10.4336908129">
		<tag k="fixme" v="consider place=hamlet" />
		<tag k="name" v="Rønnerud" />
		<tag k="place" v="farm" />
		<tag k="ssr:stedsnr" v="733356" />
	</node>
	<node id="-297083" lat="60.2905416655" lon="10.4534000073">
		<tag k="name" v="Elsrud" />
		<tag k="place" v="farm" />
		<tag k="ssr:stedsnr" v="856882" />
	</node>
	<node id="-297497" lat="60.3080777739" lon="10.3925055503">
		<tag k="name" v="Grøndal" />
		<tag k="place" v="isolated_dwelling" />
		<tag k="ssr:stedsnr" v="856893" />
	</node>
	<node id="-297496" lat="60.3107083293" lon="10.3855833263">
		<tag k="alt_name" v="Bjertnes, nordre" />
		<tag k="name" v="Nordre Bjertnes" />
		<tag k="place" v="farm" />
		<tag k="ssr:stedsnr" v="856890" />
	</node>
	<node id="-296983" lat="60.2788194467" lon="10.5109583304">
		<tag k="name" v="Finnerud" />
		<tag k="place" v="farm" />
		<tag k="ssr:stedsnr" v="612828" />
	</node>
	<node id="-297494" lat="60.2523692632" lon="10.3802537344">
		<tag k="alt_name" v="Brørby;Brørby, s" />
		<tag k="name" v="Søndre Brørby" />
		<tag k="place" v="farm" />
		<tag k="ssr:stedsnr" v="856763" />
	</node>
	<node id="-296981" lat="60.2510166641" lon="10.4454444486">
		<tag k="name" v="Skogtun" />
		<tag k="place" v="isolated_dwelling" />
		<tag k="ssr:stedsnr" v="612776" />
	</node>
	<node id="-296980" lat="60.2555027765" lon="10.4806499974">
		<tag k="name" v="Sørum" />
		<tag k="place" v="farm" />
		<tag k="ssr:stedsnr" v="612774" />
	</node>
	<node id="-296977" lat="60.2341555543" lon="10.5205222165">
		<tag k="alt_name" v="Sinnerseter" />
		<tag k="historic" v="shieling" />
		<tag k="name" v="Sindersætra" />
		<tag k="place" v="locality" />
		<tag k="ssr:stedsnr" v="611409" />
	</node>
	<node id="-297485" lat="60.2289361286" lon="10.4154011134">
		<tag k="fixme" v="consider place=hamlet" />
		<tag k="name" v="Opperud" />
		<tag k="place" v="farm" />
		<tag k="ssr:stedsnr" v="855394" />
	</node>
	<node id="-297484" lat="60.2348222249" lon="10.4307222228">
		<tag k="name" v="Bakken" />
		<tag k="place" v="isolated_dwelling" />
		<tag k="ssr:stedsnr" v="847257" />
	</node>
	<node id="-297483" lat="60.2561194476" lon="10.4850333381">
		<tag k="name" v="Høglund" />
		<tag k="place" v="farm" />
		<tag k="ssr:stedsnr" v="847192" />
	</node>
	<node id="-297482" lat="60.2470111127" lon="10.4405027826">
		<tag k="name" v="Rønnerudstuene" />
		<tag k="place" v="isolated_dwelling" />
		<tag k="ssr:stedsnr" v="847185" />
	</node>
	<node id="-297481" lat="60.2581333336" lon="10.4556499993">
		<tag k="name" v="Bratvalshagan" />
		<tag k="place" v="farm" />
		<tag k="ssr:stedsnr" v="847181" />
	</node>
	<node id="-297480" lat="60.2371722231" lon="10.4066611079">
		<tag k="name" v="Grønland" />
		<tag k="place" v="quarter" />
		<tag k="ssr:stedsnr" v="847150" />
	</node>
	<node id="-297132" lat="60.276711114" lon="10.5001638932">
		<tag k="name" v="Tronrud" />
		<tag k="place" v="farm" />
		<tag k="ssr:stedsnr" v="32958" />
	</node>
	<node id="-297477" lat="60.3054894746" lon="10.4466208208">
		<tag k="fixme" v="consider place=hamlet" />
		<tag k="name" v="Rustad" />
		<tag k="place" v="farm" />
		<tag k="ssr:stedsnr" v="845889" />
	</node>
	<node id="-296964" lat="60.2902944437" lon="10.407927778">
		<tag k="name" v="Roen" />
		<tag k="place" v="farm" />
		<tag k="ssr:stedsnr" v="701489" />
	</node>
	<node id="-297475" lat="60.2897666681" lon="10.4283000034">
		<tag k="alt_name" v="Øvre Gunstad" />
		<tag k="name" v="Øvre Gunnstad" />
		<tag k="place" v="farm" />
		<tag k="ssr:stedsnr" v="823900" />
	</node>
	<node id="-297473" lat="60.2053055528" lon="10.4490000018">
		<tag k="name" v="Moseterhytta" />
		<tag k="place" v="isolated_dwelling" />
		<tag k="ssr:stedsnr" v="823645" />
>>>>>>> e1d4bc35ff8a6074a6f2e91616a996b547c36f15
	</node>
</osm>
