<?xml version="1.0" encoding="UTF-8"?>
<<<<<<< HEAD
<osm version="0.6" generator="osmapis">
	<node lat="60.19302777408302" lon="10.310494442921833" id="-16432">
		<tag k="name" v="Randselva" />
		<tag k="ssr:stedsnr" v="5579" />
		<tag k="waterway" v="river" />
	</node>
	<node lat="60.35285833467528" lon="10.24739445333487" id="-16433">
		<tag k="alt_name" v="Bånntjern" />
		<tag k="name" v="Bonntjern" />
		<tag k="natural" v="water" />
		<tag k="ssr:stedsnr" v="5581" />
	</node>
	<node lat="60.39112168454529" lon="10.269740428373789" id="-16435">
		<tag k="name" v="Roken" />
		<tag k="natural" v="water" />
		<tag k="ssr:stedsnr" v="6308" />
	</node>
	<node lat="60.34456111056852" lon="10.2703249933658" id="-16437">
		<tag k="name" v="Tangnesputten" />
		<tag k="natural" v="water" />
		<tag k="ssr:stedsnr" v="6600" />
	</node>
	<node lat="60.234747225601936" lon="10.366847226537168" id="-16439">
		<tag k="alt_name" v="Bergevika" />
		<tag k="name" v="Bergervika" />
		<tag k="natural" v="bay" />
		<tag k="ssr:stedsnr" v="234776" />
	</node>
	<node lat="60.27841111559364" lon="10.416530547257347" id="-16444">
		<tag k="name" v="Dølerudbekken" />
		<tag k="ssr:stedsnr" v="39102" />
		<tag k="waterway" v="stream" />
	</node>
	<node lat="60.3685388852123" lon="10.26538610964324" id="-16467">
=======
<osm generator="osmapis" version="0.6">
	<node id="-297469" lat="60.1776749975" lon="10.5164361044">
		<tag k="name" v="Pershusøya" />
		<tag k="place" v="island" />
		<tag k="ssr:stedsnr" v="821920" />
	</node>
	<node id="-296956" lat="60.2776472256" lon="10.451436111">
		<tag k="name" v="Engerputten" />
		<tag k="natural" v="water" />
		<tag k="ssr:stedsnr" v="674836" />
	</node>
	<node id="-297463" lat="60.2946364466" lon="10.2896785443">
		<tag k="name" v="Kalven" />
		<tag k="natural" v="water" />
		<tag k="ssr:stedsnr" v="795436" />
		<tag k="water" v="lake" />
	</node>
	<node id="-296949" lat="60.3043643606" lon="10.2712601467">
		<tag k="alt_name" v="Vælsvatnet, nordre;Nordre Vælsvann" />
		<tag k="name" v="Nordre Vælsvatnet" />
		<tag k="natural" v="water" />
		<tag k="ssr:stedsnr" v="673518" />
		<tag k="water" v="lake" />
	</node>
	<node id="-296946" lat="60.3110083365" lon="10.3202305597">
		<tag k="name" v="Butjern" />
		<tag k="natural" v="water" />
		<tag k="ssr:stedsnr" v="673499" />
	</node>
	<node id="-296944" lat="60.3249083345" lon="10.3185277773">
		<tag k="alt_name" v="Skarvetjennet" />
		<tag k="name" v="Skarvetjern" />
		<tag k="natural" v="water" />
		<tag k="ssr:stedsnr" v="673480" />
	</node>
	<node id="-296943" lat="60.3258416648" lon="10.2499499978">
		<tag k="name" v="Toputtane" />
		<tag k="natural" v="water" />
		<tag k="ssr:stedsnr" v="673478" />
	</node>
	<node id="-296941" lat="60.3336194467" lon="10.3371222169">
		<tag k="name" v="Sagbekken" />
		<tag k="ssr:stedsnr" v="673457" />
		<tag k="waterway" v="stream" />
	</node>
	<node id="-296936" lat="60.3709944446" lon="10.257336109">
>>>>>>> e1d4bc35ff8a6074a6f2e91616a996b547c36f15
		<tag k="name" v="Hemvegsputten" />
		<tag k="natural" v="water" />
		<tag k="ssr:stedsnr" v="672591" />
	</node>
<<<<<<< HEAD
	<node lat="60.245433336755056" lon="10.395469440791546" id="-16471">
		<tag k="name" v="Randsfjorden" />
		<tag k="natural" v="water" />
		<tag k="ssr:stedsnr" v="248364" />
		<tag k="water" v="lake" />
	</node>
	<node lat="60.34394166905539" lon="10.298077779008029" id="-16475">
		<tag k="name" v="Svarttjernsbekken" />
		<tag k="ssr:stedsnr" v="248590" />
		<tag k="waterway" v="stream" />
	</node>
	<node lat="60.3105833356461" lon="10.348113897325934" id="-16476">
		<tag k="name" v="Strandtangen" />
		<tag k="natural" v="cape" />
		<tag k="ssr:stedsnr" v="248884" />
	</node>
	<node lat="60.32153055842999" lon="10.347233338126223" id="-16483">
		<tag k="name" v="Velsandtangen" />
		<tag k="natural" v="cape" />
		<tag k="ssr:stedsnr" v="249961" />
	</node>
	<node lat="60.18630555456605" lon="10.537811116392037" id="-16487">
		<tag k="alt_name" v="Hesteskotjernet" />
		<tag k="name" v="Hesteskovatnet" />
=======
	<node id="-296935" lat="60.3606055598" lon="10.2845083358">
		<tag k="alt_name" v="Kjerringåslangtjenn" />
		<tag k="name" v="Langtjern" />
		<tag k="natural" v="water" />
		<tag k="ssr:stedsnr" v="672575" />
	</node>
	<node id="-296934" lat="60.3514499963" lon="10.3171333274">
		<tag k="alt_name" v="Damtjern, s" />
		<tag k="name" v="Søndre Damtjern" />
		<tag k="natural" v="water" />
		<tag k="ssr:stedsnr" v="672552" />
	</node>
	<node id="-296785" lat="60.2454333368" lon="10.3954694408">
		<tag k="name" v="Randsfjorden" />
>>>>>>> e1d4bc35ff8a6074a6f2e91616a996b547c36f15
		<tag k="natural" v="water" />
		<tag k="ssr:stedsnr" v="126061" />
	</node>
<<<<<<< HEAD
	<node lat="60.24252594263079" lon="10.314117539264002" id="-16488">
		<tag k="name" v="Skillebekken" />
		<tag k="ssr:stedsnr" v="126994" />
		<tag k="waterway" v="stream" />
	</node>
	<node lat="60.33635000057536" lon="10.284480557723565" id="-16494">
		<tag k="name" v="Kalstadfløyta" />
		<tag k="natural" v="water" />
		<tag k="ssr:stedsnr" v="127496" />
	</node>
	<node lat="60.33120555251884" lon="10.303911112621787" id="-16495">
		<tag k="alt_name" v="Kløyvtjenn" />
		<tag k="name" v="Kløvtjern" />
		<tag k="natural" v="water" />
		<tag k="ssr:stedsnr" v="127497" />
	</node>
	<node lat="60.35942500333103" lon="10.315588891268261" id="-16497">
		<tag k="name" v="Langtjern" />
		<tag k="natural" v="water" />
		<tag k="ssr:stedsnr" v="127623" />
	</node>
	<node lat="60.29771111065754" lon="10.356922225345624" id="-16503">
		<tag k="alt_name" v="Vinnæs" />
		<tag k="name" v="Vindnes" />
		<tag k="natural" v="cape" />
		<tag k="ssr:stedsnr" v="127905" />
	</node>
	<node lat="60.258574995870525" lon="10.501516671235917" id="-16507">
		<tag k="name" v="Kastbekken" />
		<tag k="ssr:stedsnr" v="153951" />
		<tag k="waterway" v="stream" />
	</node>
	<node lat="60.17610110970484" lon="10.56875944769964" id="-16512">
		<tag k="alt_name" v="Fyllingen, store" />
		<tag k="name" v="Store Fyllingen" />
		<tag k="natural" v="water" />
		<tag k="old_name" v="Storfyllingen;st Fidlingen" />
		<tag k="ssr:stedsnr" v="175026" />
		<tag k="water" v="lake" />
	</node>
	<node lat="60.37116944831627" lon="10.30439999120567" id="-16514">
		<tag k="name" v="Putten" />
		<tag k="natural" v="water" />
		<tag k="ssr:stedsnr" v="187572" />
	</node>
	<node lat="60.33291666939934" lon="10.28209999511591" id="-16516">
		<tag k="alt_name" v="Kimtjenn" />
		<tag k="name" v="Kimetjern" />
=======
	<node id="-297444" lat="60.2766111114" lon="10.5286472146">
		<tag k="name" v="Liaputten" />
		<tag k="natural" v="water" />
		<tag k="ssr:stedsnr" v="760957" />
		<tag k="water" v="pond" />
	</node>
	<node id="-297435" lat="60.2952500044" lon="10.2822333349">
		<tag k="name" v="Serkoppvika" />
		<tag k="natural" v="bay" />
		<tag k="ssr:stedsnr" v="640300" />
	</node>
	<node id="-297434" lat="60.2024027788" lon="10.5220333345">
		<tag k="name" v="Holovika" />
		<tag k="natural" v="bay" />
		<tag k="ssr:stedsnr" v="638993" />
	</node>
	<node id="-296917" lat="60.2580499963" lon="10.3575277759">
		<tag k="name" v="Kvennhusbekken" />
		<tag k="ssr:stedsnr" v="658991" />
		<tag k="waterway" v="stream" />
	</node>
	<node id="-296916" lat="60.3412361113" lon="10.2524944445">
		<tag k="name" v="Putten" />
		<tag k="natural" v="water" />
		<tag k="ssr:stedsnr" v="658956" />
		<tag k="water" v="pond" />
	</node>
	<node id="-297426" lat="60.3322888885" lon="10.3444166606">
		<tag k="name" v="Elnesvika" />
		<tag k="natural" v="bay" />
		<tag k="ssr:stedsnr" v="612993" />
	</node>
	<node id="-297425" lat="60.3819805585" lon="10.2822500027">
		<tag k="name" v="Bikkjetjern" />
		<tag k="natural" v="water" />
		<tag k="ssr:stedsnr" v="612628" />
	</node>
	<node id="-297424" lat="60.2686138918" lon="10.4134083319">
		<tag k="name" v="Gullavika" />
		<tag k="natural" v="bay" />
		<tag k="ssr:stedsnr" v="612781" />
	</node>
	<node id="-297423" lat="60.3870944421" lon="10.2276416752">
		<tag k="name" v="Kjerringtjern" />
		<tag k="natural" v="water" />
		<tag k="ssr:stedsnr" v="612537" />
	</node>
	<node id="-296866" lat="60.1842638894" lon="10.4951861182">
		<tag k="alt_name" v="Nedre Sinnerputten" />
		<tag k="name" v="Nedre Sinderputten" />
		<tag k="natural" v="water" />
		<tag k="ssr:stedsnr" v="490066" />
	</node>
	<node id="-296901" lat="60.1991948308" lon="10.473874388">
		<tag k="alt_name" v="Langvann" />
		<tag k="name" v="Langvatn" />
		<tag k="natural" v="water" />
		<tag k="ssr:stedsnr" v="430436" />
	</node>
	<node id="-296899" lat="60.2090972202" lon="10.4832527707">
		<tag k="name" v="Svenåputten" />
>>>>>>> e1d4bc35ff8a6074a6f2e91616a996b547c36f15
		<tag k="natural" v="water" />
		<tag k="ssr:stedsnr" v="188500" />
	</node>
<<<<<<< HEAD
	<node lat="60.250806921821294" lon="10.529893566813149" id="-16517">
		<tag k="name" v="Grasbergtjerna" />
		<tag k="natural" v="water" />
		<tag k="ssr:stedsnr" v="188807" />
		<tag k="water" v="lake" />
	</node>
	<node lat="60.31037222272261" lon="10.462397230107932" id="-16522">
		<tag k="name" v="Velotjernet" />
		<tag k="natural" v="water" />
		<tag k="ssr:stedsnr" v="188941" />
	</node>
	<node lat="60.30253333414006" lon="10.272963897213154" id="-16525">
		<tag k="name" v="Moltetangen" />
=======
	<node id="-296897" lat="60.1709277734" lon="10.5565083272">
		<tag k="name" v="Målvika" />
		<tag k="natural" v="bay" />
		<tag k="ssr:stedsnr" v="430018" />
	</node>
	<node id="-297408" lat="60.3902638912" lon="10.2387861039">
		<tag k="name" v="Sponga" />
		<tag k="natural" v="bay" />
		<tag k="ssr:stedsnr" v="597382" />
	</node>
	<node id="-296895" lat="60.2153694449" lon="10.4771472304">
		<tag k="name" v="Fiskedammen" />
		<tag k="ssr:stedsnr" v="519707" />
		<tag k="waterway" v="dam" />
	</node>
	<node id="-297406" lat="60.2742416626" lon="10.5167527768">
		<tag k="alt_name" v="Storetjernet" />
		<tag k="name" v="Stortjernet" />
		<tag k="natural" v="water" />
		<tag k="ssr:stedsnr" v="587847" />
	</node>
	<node id="-297405" lat="60.3136888915" lon="10.3475166631">
		<tag k="name" v="Myretangen" />
>>>>>>> e1d4bc35ff8a6074a6f2e91616a996b547c36f15
		<tag k="natural" v="cape" />
		<tag k="ssr:stedsnr" v="583831" />
	</node>
<<<<<<< HEAD
	<node lat="60.21896944660484" lon="10.467847216994526" id="-16526">
		<tag k="name" v="Sandbekken" />
		<tag k="ssr:stedsnr" v="216673" />
		<tag k="waterway" v="stream" />
	</node>
	<node lat="60.25399999597196" lon="10.310705547081223" id="-16535">
		<tag k="alt_name" v="Buttentjernet" />
		<tag k="name" v="Østre Buttentjern" />
		<tag k="natural" v="water" />
		<tag k="ssr:stedsnr" v="249310" />
	</node>
	<node lat="60.206438886316604" lon="10.508519440806078" id="-16541">
		<tag k="name" v="Abrahamsvika" />
		<tag k="natural" v="bay" />
		<tag k="ssr:stedsnr" v="457955" />
	</node>
	<node lat="60.27228333555841" lon="10.436027776978605" id="-16544">
		<tag k="name" v="Igelstadputten" />
		<tag k="natural" v="water" />
		<tag k="ssr:stedsnr" v="282002" />
		<tag k="water" v="pond" />
	</node>
	<node lat="60.16516035310534" lon="10.543902804485999" id="-16548">
		<tag k="name" v="Aklangen" />
		<tag k="natural" v="water" />
		<tag k="ssr:stedsnr" v="308022" />
		<tag k="water" v="lake" />
	</node>
	<node lat="60.31255278093065" lon="10.376169437657007" id="-16558">
		<tag k="name" v="Bjertnestangen" />
		<tag k="natural" v="cape" />
		<tag k="ssr:stedsnr" v="310904" />
	</node>
	<node lat="60.277852776367354" lon="10.53556111002043" id="-16561">
		<tag k="name" v="Holteputten" />
		<tag k="natural" v="water" />
		<tag k="ssr:stedsnr" v="335964" />
		<tag k="water" v="pond" />
	</node>
	<node lat="60.317775001105005" lon="10.278799994894719" id="-16565">
		<tag k="name" v="Fufresa" />
		<tag k="natural" v="bay" />
		<tag k="ssr:stedsnr" v="355809" />
	</node>
	<node lat="60.32223055256956" lon="10.277308339490766" id="-16566">
		<tag k="name" v="Midtskavbekken" />
		<tag k="ssr:stedsnr" v="355810" />
		<tag k="waterway" v="stream" />
	</node>
	<node lat="60.30070277755461" lon="10.444566674064527" id="-16567">
		<tag k="name" v="Velofoss" />
		<tag k="natural" v="waterfall" />
		<tag k="ssr:stedsnr" v="359864" />
	</node>
	<node lat="60.26487222551215" lon="10.317705555900668" id="-16571">
		<tag k="name" v="Ruggetjern" />
		<tag k="natural" v="water" />
		<tag k="ssr:stedsnr" v="476900" />
	</node>
	<node lat="60.18509999809505" lon="10.473355553200506" id="-16573">
		<tag k="alt_name" v="Bjørneputten" />
		<tag k="name" v="Bjønnputten" />
		<tag k="natural" v="water" />
		<tag k="ssr:stedsnr" v="478035" />
	</node>
	<node lat="60.18048611474577" lon="10.523122227815344" id="-16574">
		<tag k="name" v="Svartvika" />
		<tag k="natural" v="bay" />
		<tag k="ssr:stedsnr" v="369031" />
	</node>
	<node lat="60.199969448919546" lon="10.493363888876381" id="-16575">
		<tag k="alt_name" v="Fagervann" />
		<tag k="name" v="Fagervatnet" />
		<tag k="natural" v="water" />
		<tag k="ssr:stedsnr" v="369407" />
	</node>
	<node lat="60.27180000317289" lon="10.510369437306894" id="-16577">
		<tag k="name" v="Vesletjernet" />
=======
	<node id="-296892" lat="60.3485277792" lon="10.3188500061">
		<tag k="name" v="Skålmyrputten" />
		<tag k="natural" v="water" />
		<tag k="ssr:stedsnr" v="422713" />
	</node>
	<node id="-296886" lat="60.1999694489" lon="10.4933638889">
		<tag k="alt_name" v="Fagervann" />
		<tag k="name" v="Fagervatnet" />
		<tag k="natural" v="water" />
		<tag k="ssr:stedsnr" v="369407" />
	</node>
	<node id="-296884" lat="60.3007027776" lon="10.4445666741">
		<tag k="name" v="Velofoss" />
		<tag k="natural" v="waterfall" />
		<tag k="ssr:stedsnr" v="359864" />
	</node>
	<node id="-297390" lat="60.3430833368" lon="10.2508083314">
		<tag k="name" v="Kjørketjern" />
		<tag k="natural" v="water" />
		<tag k="ssr:stedsnr" v="552631" />
	</node>
	<node id="-296877" lat="60.305225" lon="10.3152194415">
		<tag k="name" v="Hølbekken" />
		<tag k="ssr:stedsnr" v="491528" />
		<tag k="waterway" v="stream" />
	</node>
	<node id="-296875" lat="60.2814500037" lon="10.3263055559">
		<tag k="name" v="Djupdalsbekken" />
		<tag k="ssr:stedsnr" v="491431" />
		<tag k="waterway" v="stream" />
	</node>
	<node id="-297385" lat="60.2886916625" lon="10.3094361198">
		<tag k="name" v="Toputt" />
		<tag k="natural" v="water" />
		<tag k="ssr:stedsnr" v="552437" />
	</node>
	<node id="-296872" lat="60.2215638907" lon="10.3972166607">
		<tag k="name" v="Branndalsbekken" />
		<tag k="ssr:stedsnr" v="490480" />
		<tag k="waterway" v="stream" />
	</node>
	<node id="-297382" lat="60.3811222209" lon="10.2550027852">
		<tag k="alt_name" v="Auretjernsputten, vestre" />
		<tag k="name" v="Vestre Auretjernsputten" />
		<tag k="natural" v="water" />
		<tag k="ssr:stedsnr" v="551608" />
	</node>
	<node id="-296868" lat="60.2414111126" lon="10.4423694529">
		<tag k="name" v="Furumyrbekken" />
		<tag k="ssr:stedsnr" v="490365" />
		<tag k="waterway" v="stream" />
	</node>
	<node id="-297379" lat="60.3852888862" lon="10.274399993">
		<tag k="name" v="Kimetjern" />
		<tag k="natural" v="water" />
		<tag k="ssr:stedsnr" v="551497" />
	</node>
	<node id="-297378" lat="60.2177333314" lon="10.5350027807">
		<tag k="alt_name" v="Gunnersjøen" />
		<tag k="name" v="Gunnertjernet" />
		<tag k="natural" v="water" />
		<tag k="ssr:stedsnr" v="551476" />
	</node>
	<node id="-297377" lat="60.2258527807" lon="10.4451888808">
		<tag k="name" v="Svenåa" />
		<tag k="ssr:stedsnr" v="551451" />
		<tag k="waterway" v="stream" />
	</node>
	<node id="-297376" lat="60.2202222238" lon="10.4957833254">
		<tag k="name" v="Svarttjernet" />
		<tag k="natural" v="water" />
		<tag k="ssr:stedsnr" v="551449" />
	</node>
	<node id="-296863" lat="60.2373527815" lon="10.3851749981">
		<tag k="name" v="Hermanstjernet" />
		<tag k="natural" v="water" />
		<tag k="ssr:stedsnr" v="482129" />
	</node>
	<node id="-297374" lat="60.1956833328" lon="10.5180722195">
		<tag k="alt_name" v="Skarvevann" />
		<tag k="name" v="Skarvvatnet" />
		<tag k="natural" v="water" />
		<tag k="ssr:stedsnr" v="551436" />
		<tag k="water" v="lake" />
	</node>
	<node id="-296861" lat="60.2778527764" lon="10.53556111">
		<tag k="name" v="Holteputten" />
		<tag k="natural" v="water" />
		<tag k="ssr:stedsnr" v="335964" />
		<tag k="water" v="pond" />
	</node>
	<node id="-296859" lat="60.1850999981" lon="10.4733555532">
		<tag k="alt_name" v="Bjørneputten" />
		<tag k="name" v="Bjønnputten" />
>>>>>>> e1d4bc35ff8a6074a6f2e91616a996b547c36f15
		<tag k="natural" v="water" />
		<tag k="ssr:stedsnr" v="478035" />
	</node>
<<<<<<< HEAD
	<node lat="60.23669166876277" lon="10.51772778172711" id="-16583">
		<tag k="name" v="Sinnerputten" />
		<tag k="natural" v="water" />
		<tag k="ssr:stedsnr" v="396903" />
		<tag k="water" v="pond" />
	</node>
	<node lat="60.18046110896264" lon="10.51751944819018" id="-16591">
		<tag k="alt_name" v="Pershusvann" />
		<tag k="name" v="Pershusvatnet" />
		<tag k="natural" v="water" />
		<tag k="ssr:stedsnr" v="490053" />
		<tag k="water" v="lake" />
	</node>
	<node lat="60.1842638894159" lon="10.495186118209837" id="-16592">
		<tag k="alt_name" v="Nedre Sinnerputten" />
		<tag k="name" v="Nedre Sinderputten" />
		<tag k="natural" v="water" />
		<tag k="ssr:stedsnr" v="490066" />
	</node>
	<node lat="60.24141111257728" lon="10.44236945290495" id="-16593">
		<tag k="name" v="Furumyrbekken" />
		<tag k="ssr:stedsnr" v="490365" />
		<tag k="waterway" v="stream" />
	</node>
	<node lat="60.22570389224084" lon="10.393869078577948" id="-16595">
		<tag k="name" v="Branndalsbekken" />
		<tag k="ssr:stedsnr" v="490480" />
		<tag k="waterway" v="stream" />
	</node>
	<node lat="60.17092777340842" lon="10.556508327213084" id="-16596">
		<tag k="name" v="Målvika" />
		<tag k="natural" v="bay" />
		<tag k="ssr:stedsnr" v="430018" />
	</node>
	<node lat="60.209097220238185" lon="10.483252770671578" id="-16598">
		<tag k="name" v="Svenåputten" />
=======
	<node id="-296858" lat="60.2648722255" lon="10.3177055559">
		<tag k="name" v="Ruggetjern" />
		<tag k="natural" v="water" />
		<tag k="ssr:stedsnr" v="476900" />
	</node>
	<node id="-297369" lat="60.18751389" lon="10.5173500039">
		<tag k="alt_name" v="Buvann" />
		<tag k="name" v="Buvatn" />
		<tag k="natural" v="water" />
		<tag k="ssr:stedsnr" v="551055" />
	</node>
	<node id="-296850" lat="60.2394305529" lon="10.3967333397">
		<tag k="name" v="Verkevika" />
		<tag k="natural" v="bay" />
		<tag k="ssr:stedsnr" v="300154" />
	</node>
	<node id="-297357" lat="60.306999996" lon="10.2694444482">
		<tag k="name" v="Nordre Moltemyrtangen" />
		<tag k="natural" v="cape" />
		<tag k="ssr:stedsnr" v="431543" />
	</node>
	<node id="-296839" lat="60.2064388863" lon="10.5085194408">
		<tag k="name" v="Abrahamsvika" />
		<tag k="natural" v="bay" />
		<tag k="ssr:stedsnr" v="457955" />
	</node>
	<node id="-297347" lat="60.2429777741" lon="10.4262361111">
		<tag k="name" v="Tosobekken" />
		<tag k="ssr:stedsnr" v="422180" />
		<tag k="waterway" v="stream" />
	</node>
	<node id="-296834" lat="60.3439416691" lon="10.298077779">
		<tag k="name" v="Svarttjernsbekken" />
		<tag k="ssr:stedsnr" v="248590" />
		<tag k="waterway" v="stream" />
	</node>
	<node id="-297344" lat="60.2340472199" lon="10.4217666619">
		<tag k="name" v="Svenåa" />
		<tag k="ssr:stedsnr" v="422121" />
		<tag k="waterway" v="stream" />
	</node>
	<node id="-296831" lat="60.3222305526" lon="10.2773083395">
		<tag k="name" v="Midtskavbekken" />
		<tag k="ssr:stedsnr" v="355810" />
		<tag k="waterway" v="stream" />
	</node>
	<node id="-296821" lat="60.3525361125" lon="10.2762972142">
		<tag k="name" v="Tangnesbekken" />
		<tag k="ssr:stedsnr" v="281444" />
		<tag k="waterway" v="stream" />
	</node>
	<node id="-297330" lat="60.2883666625" lon="10.2884722136">
		<tag k="name" v="Kalvehue" />
		<tag k="natural" v="water" />
		<tag k="ssr:stedsnr" v="398261" />
		<tag k="water" v="lake" />
	</node>
	<node id="-297323" lat="60.2366916688" lon="10.5177277817">
		<tag k="name" v="Sinnerputten" />
		<tag k="natural" v="water" />
		<tag k="ssr:stedsnr" v="396903" />
		<tag k="water" v="pond" />
	</node>
	<node id="-296810" lat="60.2977111107" lon="10.3569222253">
		<tag k="alt_name" v="Vinnæs" />
		<tag k="name" v="Vindnes" />
		<tag k="natural" v="cape" />
		<tag k="ssr:stedsnr" v="127905" />
	</node>
	<node id="-296805" lat="60.3594250033" lon="10.3155888913">
		<tag k="name" v="Langtjern" />
		<tag k="natural" v="water" />
		<tag k="ssr:stedsnr" v="127623" />
	</node>
	<node id="-297316" lat="60.2718000032" lon="10.5103694373">
		<tag k="name" v="Vesletjernet" />
		<tag k="natural" v="water" />
		<tag k="ssr:stedsnr" v="370825" />
	</node>
	<node id="-297311" lat="60.3544388919" lon="10.2387194461">
		<tag k="name" v="Flåtjern" />
		<tag k="natural" v="water" />
		<tag k="ssr:stedsnr" v="369537" />
	</node>
	<node id="-296798" lat="60.3685388852" lon="10.2653861096">
		<tag k="name" v="Hemvegsputten" />
		<tag k="natural" v="water" />
		<tag k="ssr:stedsnr" v="98472" />
		<tag k="water" v="pond" />
	</node>
	<node id="-296797" lat="60.3215305584" lon="10.3472333381">
		<tag k="name" v="Velsandtangen" />
		<tag k="natural" v="cape" />
		<tag k="ssr:stedsnr" v="249961" />
	</node>
	<node id="-297308" lat="60.383938893" lon="10.2596499966">
		<tag k="name" v="Auretjern" />
		<tag k="natural" v="water" />
		<tag k="ssr:stedsnr" v="369442" />
	</node>
	<node id="-297306" lat="60.1804861147" lon="10.5231222278">
		<tag k="name" v="Svartvika" />
		<tag k="natural" v="bay" />
		<tag k="ssr:stedsnr" v="369031" />
	</node>
	<node id="-296791" lat="60.253999996" lon="10.3107055471">
		<tag k="alt_name" v="Buttentjernet" />
		<tag k="name" v="Østre Buttentjern" />
		<tag k="natural" v="water" />
		<tag k="ssr:stedsnr" v="249310" />
	</node>
	<node id="-296790" lat="60.3105833356" lon="10.3481138973">
		<tag k="name" v="Strandtangen" />
		<tag k="natural" v="cape" />
		<tag k="ssr:stedsnr" v="248884" />
	</node>
	<node id="-297297" lat="60.3177750011" lon="10.2787999949">
		<tag k="name" v="Fufresa" />
		<tag k="natural" v="bay" />
		<tag k="ssr:stedsnr" v="355809" />
	</node>
	<node id="-297294" lat="60.2752083375" lon="10.4238972257">
		<tag k="name" v="Gulabråtabekken" />
		<tag k="ssr:stedsnr" v="342887" />
		<tag k="waterway" v="stream" />
	</node>
	<node id="-296845" lat="60.2722833356" lon="10.436027777">
		<tag k="name" v="Igelstadputten" />
		<tag k="natural" v="water" />
		<tag k="ssr:stedsnr" v="282002" />
		<tag k="water" v="pond" />
	</node>
	<node id="-296780" lat="60.307224999" lon="10.2848750051">
		<tag k="name" v="Smalkalven" />
		<tag k="natural" v="bay" />
		<tag k="ssr:stedsnr" v="67534" />
	</node>
	<node id="-297271" lat="60.3571416629" lon="10.2140388849">
		<tag k="alt_name" v="Flåtjernbekken" />
		<tag k="name" v="Flåtjernsbekken" />
		<tag k="ssr:stedsnr" v="308577" />
		<tag k="waterway" v="stream" />
	</node>
	<node id="-296776" lat="60.1763000011" lon="10.4924999974">
		<tag k="alt_name" v="Store Sinnera;Sinnera" />
		<tag k="name" v="Store Sindera" />
		<tag k="natural" v="water" />
		<tag k="ssr:stedsnr" v="66036" />
	</node>
	<node id="-297286" lat="60.3125527809" lon="10.3761694377">
		<tag k="name" v="Bjertnestangen" />
		<tag k="natural" v="cape" />
		<tag k="ssr:stedsnr" v="310904" />
	</node>
	<node id="-296758" lat="60.3679388897" lon="10.2820138854">
		<tag k="name" v="Rundøyputten" />
		<tag k="natural" v="water" />
		<tag k="ssr:stedsnr" v="38454" />
		<tag k="water" v="pond" />
	</node>
	<node id="-296761" lat="60.2347472256" lon="10.3668472265">
		<tag k="alt_name" v="Bergevika" />
		<tag k="name" v="Bergervika" />
		<tag k="natural" v="bay" />
		<tag k="ssr:stedsnr" v="234776" />
	</node>
	<node id="-296760" lat="60.2784111156" lon="10.4165305473">
		<tag k="name" v="Dølerudbekken" />
		<tag k="ssr:stedsnr" v="39102" />
		<tag k="waterway" v="stream" />
	</node>
	<node id="-296759" lat="60.3589416655" lon="10.3109972207">
		<tag k="name" v="Utgravningstjernet" />
		<tag k="natural" v="water" />
		<tag k="ssr:stedsnr" v="38460" />
		<tag k="water" v="lake" />
	</node>
	<node id="-297270" lat="60.3666777822" lon="10.3166055516">
		<tag k="name" v="Vomma" />
		<tag k="natural" v="water" />
		<tag k="ssr:stedsnr" v="308572" />
	</node>
	<node id="-297265" lat="60.1651603531" lon="10.5439028045">
		<tag k="name" v="Aklangen" />
		<tag k="natural" v="water" />
		<tag k="ssr:stedsnr" v="308022" />
		<tag k="water" v="lake" />
	</node>
	<node id="-297263" lat="60.3025333341" lon="10.2729638972">
		<tag k="name" v="Moltetangen" />
		<tag k="natural" v="cape" />
		<tag k="ssr:stedsnr" v="216224" />
	</node>
	<node id="-297258" lat="60.191541668" lon="10.4555138852">
		<tag k="name" v="Veslemosjøen" />
		<tag k="natural" v="water" />
		<tag k="ssr:stedsnr" v="207348" />
	</node>
	<node id="-297257" lat="60.3103722227" lon="10.4623972301">
		<tag k="name" v="Velotjernet" />
		<tag k="natural" v="water" />
		<tag k="ssr:stedsnr" v="188941" />
	</node>
	<node id="-297254" lat="60.2955777765" lon="10.4280138827">
		<tag k="name" v="Sløvikelva" />
		<tag k="ssr:stedsnr" v="188864" />
		<tag k="waterway" v="river" />
	</node>
	<node id="-297251" lat="60.281361113" lon="10.5326944493">
		<tag k="alt_name" v="Hallumstjernet" />
		<tag k="name" v="Hallomtjernet" />
		<tag k="natural" v="water" />
		<tag k="ssr:stedsnr" v="188846" />
	</node>
	<node id="-297247" lat="60.2508069218" lon="10.5298935668">
		<tag k="name" v="Grasbergtjerna" />
		<tag k="natural" v="water" />
		<tag k="ssr:stedsnr" v="188807" />
		<tag k="water" v="lake" />
	</node>
	<node id="-297246" lat="60.3329166694" lon="10.2820999951">
		<tag k="alt_name" v="Kimtjenn" />
		<tag k="name" v="Kimetjern" />
		<tag k="natural" v="water" />
		<tag k="ssr:stedsnr" v="188500" />
	</node>
	<node id="-297244" lat="60.3711694483" lon="10.3043999912">
		<tag k="name" v="Putten" />
		<tag k="natural" v="water" />
		<tag k="ssr:stedsnr" v="187572" />
	</node>
	<node id="-297243" lat="60.3751333329" lon="10.3067194391">
		<tag k="name" v="Amundskoietjern" />
		<tag k="natural" v="water" />
		<tag k="ssr:stedsnr" v="187569" />
	</node>
	<node id="-297242" lat="60.3624805525" lon="10.2295055513">
		<tag k="alt_name" v="Rompeputta" />
		<tag k="name" v="Rompeputtane" />
		<tag k="natural" v="water" />
		<tag k="ssr:stedsnr" v="187566" />
	</node>
	<node id="-297241" lat="60.3541166684" lon="10.3135083341">
		<tag k="alt_name" v="Damtjern, nordre" />
		<tag k="name" v="Nordre Damtjern" />
		<tag k="natural" v="water" />
		<tag k="ssr:stedsnr" v="187551" />
	</node>
	<node id="-297240" lat="60.2088861098" lon="10.5292638894">
		<tag k="alt_name" v="Johannestjennet;Johanstjern" />
		<tag k="name" v="Johannestjernet" />
		<tag k="natural" v="water" />
		<tag k="ssr:stedsnr" v="187447" />
	</node>
	<node id="-297239" lat="60.2314055591" lon="10.3564111176">
		<tag k="alt_name" v="Grønntjernet" />
		<tag k="name" v="Grøntjernet" />
		<tag k="natural" v="water" />
		<tag k="ssr:stedsnr" v="187446" />
	</node>
	<node id="-296865" lat="60.180461109" lon="10.5175194482">
		<tag k="alt_name" v="Pershusvann" />
		<tag k="name" v="Pershusvatnet" />
		<tag k="natural" v="water" />
		<tag k="ssr:stedsnr" v="490053" />
		<tag k="water" v="lake" />
	</node>
	<node id="-297229" lat="60.2275999981" lon="10.3756833252">
		<tag k="name" v="Bergerfoss" />
		<tag k="natural" v="waterfall" />
		<tag k="old_name" v="Bergefoss" />
		<tag k="ssr:stedsnr" v="175483" />
	</node>
	<node id="-297228" lat="60.1761011097" lon="10.5687594477">
		<tag k="alt_name" v="Fyllingen, store" />
		<tag k="name" v="Store Fyllingen" />
		<tag k="natural" v="water" />
		<tag k="old_name" v="Storfyllingen;st Fidlingen" />
		<tag k="ssr:stedsnr" v="175026" />
		<tag k="water" v="lake" />
	</node>
	<node id="-297346" lat="60.2551166669" lon="10.4366500064">
		<tag k="name" v="Prestegårdselva" />
		<tag k="ssr:stedsnr" v="422158" />
		<tag k="waterway" v="river" />
	</node>
	<node id="-297218" lat="60.303191671" lon="10.3861444486">
		<tag k="name" v="Dalsvika" />
		<tag k="natural" v="bay" />
		<tag k="ssr:stedsnr" v="155454" />
	</node>
	<node id="-297215" lat="60.2585749959" lon="10.5015166712">
		<tag k="name" v="Kastbekken" />
		<tag k="ssr:stedsnr" v="153951" />
		<tag k="waterway" v="stream" />
	</node>
	<node id="-297210" lat="60.1649055584" lon="10.5545694423">
		<tag k="name" v="Smalet" />
		<tag k="natural" v="strait" />
		<tag k="ssr:stedsnr" v="147295" />
	</node>
	<node id="-297343" lat="60.2531611094" lon="10.4212777769">
		<tag k="name" v="Ulverud" />
		<tag k="natural" v="cape" />
		<tag k="ssr:stedsnr" v="422086" />
	</node>
	<node id="-297208" lat="60.1948888859" lon="10.4466166685">
		<tag k="name" v="Dammen" />
		<tag k="ssr:stedsnr" v="146335" />
		<tag k="waterway" v="dam" />
	</node>
	<node id="-297200" lat="60.3312055525" lon="10.3039111126">
		<tag k="alt_name" v="Kløyvtjenn" />
		<tag k="name" v="Kløvtjern" />
>>>>>>> e1d4bc35ff8a6074a6f2e91616a996b547c36f15
		<tag k="natural" v="water" />
		<tag k="ssr:stedsnr" v="430419" />
	</node>
<<<<<<< HEAD
	<node lat="60.28145000372733" lon="10.326305555923053" id="-16604">
		<tag k="name" v="Djupdalsbekken" />
		<tag k="ssr:stedsnr" v="491431" />
		<tag k="waterway" v="stream" />
	</node>
	<node lat="60.3606055598057" lon="10.284508335826452" id="-16613">
		<tag k="alt_name" v="Kjerringåslangtjenn" />
		<tag k="name" v="Langtjern" />
=======
	<node id="-297199" lat="60.3363500006" lon="10.2844805577">
		<tag k="name" v="Kalstadfløyta" />
		<tag k="natural" v="water" />
		<tag k="ssr:stedsnr" v="127496" />
	</node>
	<node id="-297000" lat="60.3855833371" lon="10.2634138885">
		<tag k="alt_name" v="Auretjernsputten, østre" />
		<tag k="name" v="Østre Auretjernsputten" />
		<tag k="natural" v="water" />
		<tag k="ssr:stedsnr" v="734564" />
	</node>
	<node id="-297193" lat="60.2425259426" lon="10.3141175393">
		<tag k="name" v="Skillebekken" />
		<tag k="ssr:stedsnr" v="126994" />
		<tag k="waterway" v="stream" />
	</node>
	<node id="-297192" lat="60.3593083375" lon="10.2923083298">
		<tag k="name" v="Blekketjern" />
>>>>>>> e1d4bc35ff8a6074a6f2e91616a996b547c36f15
		<tag k="natural" v="water" />
		<tag k="ssr:stedsnr" v="672575" />
	</node>
<<<<<<< HEAD
	<node lat="60.37099444459167" lon="10.257336109002075" id="-16614">
		<tag k="name" v="Hemvegsputten" />
=======
	<node id="-297190" lat="60.2043467361" lon="10.5218900049">
		<tag k="name" v="Tverrsjøen" />
>>>>>>> e1d4bc35ff8a6074a6f2e91616a996b547c36f15
		<tag k="natural" v="water" />
		<tag k="ssr:stedsnr" v="672591" />
	</node>
<<<<<<< HEAD
	<node lat="60.35144999633097" lon="10.317133327410842" id="-16615">
		<tag k="alt_name" v="Damtjern, s" />
		<tag k="name" v="Søndre Damtjern" />
		<tag k="natural" v="water" />
		<tag k="ssr:stedsnr" v="672552" />
	</node>
	<node lat="60.3258416647769" lon="10.24994999779726" id="-16617">
		<tag k="name" v="Toputtane" />
		<tag k="natural" v="water" />
		<tag k="ssr:stedsnr" v="673478" />
	</node>
	<node lat="60.32490833454248" lon="10.31852777732425" id="-16618">
		<tag k="alt_name" v="Skarvetjennet" />
		<tag k="name" v="Skarvetjern" />
=======
	<node id="-297186" lat="60.1863055546" lon="10.5378111164">
		<tag k="alt_name" v="Hesteskotjernet" />
		<tag k="name" v="Hesteskovatnet" />
		<tag k="natural" v="water" />
		<tag k="ssr:stedsnr" v="126061" />
	</node>
	<node id="-296912" lat="60.2075305545" lon="10.5230138802">
		<tag k="name" v="Tostenputten" />
		<tag k="natural" v="water" />
		<tag k="ssr:stedsnr" v="517993" />
		<tag k="water" v="pond" />
	</node>
	<node id="-297169" lat="60.2830638895" lon="10.5222638917">
		<tag k="name" v="Hallumsbekken" />
		<tag k="ssr:stedsnr" v="93945" />
		<tag k="waterway" v="stream" />
	</node>
	<node id="-297165" lat="60.251369446" lon="10.5079916698">
		<tag k="name" v="Vanntroa" />
		<tag k="natural" v="spring" />
		<tag k="ssr:stedsnr" v="93904" />
	</node>
	<node id="-297164" lat="60.1902722182" lon="10.5242527731">
		<tag k="name" v="Mariputten" />
		<tag k="natural" v="water" />
		<tag k="ssr:stedsnr" v="93888" />
		<tag k="water" v="pond" />
	</node>
	<node id="-297050" lat="60.3701805521" lon="10.2373611106">
		<tag k="name" v="Hammarlangtjernet" />
		<tag k="natural" v="water" />
		<tag k="ssr:stedsnr" v="915594" />
	</node>
	<node id="-297160" lat="60.2506749975" lon="10.3092500024">
		<tag k="name" v="Skillebekken" />
		<tag k="ssr:stedsnr" v="87790" />
		<tag k="waterway" v="stream" />
	</node>
	<node id="-297149" lat="60.3051583348" lon="10.4668916757">
		<tag k="alt_name" v="Bråtatjernet" />
		<tag k="name" v="Bråtåtjernet" />
>>>>>>> e1d4bc35ff8a6074a6f2e91616a996b547c36f15
		<tag k="natural" v="water" />
		<tag k="ssr:stedsnr" v="673480" />
	</node>
<<<<<<< HEAD
	<node lat="60.31100833652138" lon="10.320230559679398" id="-16620">
		<tag k="name" v="Butjern" />
=======
	<node id="-297145" lat="60.3375916705" lon="10.3081333315">
		<tag k="name" v="Kroktjern" />
>>>>>>> e1d4bc35ff8a6074a6f2e91616a996b547c36f15
		<tag k="natural" v="water" />
		<tag k="ssr:stedsnr" v="673499" />
	</node>
<<<<<<< HEAD
	<node lat="60.28252499893158" lon="10.410408327971574" id="-16630">
		<tag k="name" v="Sløvika" />
		<tag k="natural" v="bay" />
		<tag k="ssr:stedsnr" v="674828" />
	</node>
	<node lat="60.27764722563584" lon="10.451436111003753" id="-16632">
		<tag k="name" v="Engerputten" />
=======
	<node id="-297143" lat="60.1903083357" lon="10.4969277859">
		<tag k="alt_name" v="Øvre Sinnerputten" />
		<tag k="name" v="Øvre Sinderputten" />
>>>>>>> e1d4bc35ff8a6074a6f2e91616a996b547c36f15
		<tag k="natural" v="water" />
		<tag k="ssr:stedsnr" v="674836" />
	</node>
<<<<<<< HEAD
	<node lat="60.23735278146874" lon="10.385174998134078" id="-16638">
		<tag k="name" v="Hermanstjernet" />
=======
	<node id="-297137" lat="60.3737027763" lon="10.2334861154">
		<tag k="name" v="Langtjernputten" />
>>>>>>> e1d4bc35ff8a6074a6f2e91616a996b547c36f15
		<tag k="natural" v="water" />
		<tag k="ssr:stedsnr" v="482129" />
	</node>
<<<<<<< HEAD
	<node lat="60.30522500004331" lon="10.315219441514348" id="-16643">
		<tag k="name" v="Hølbekken" />
		<tag k="ssr:stedsnr" v="491528" />
		<tag k="waterway" v="stream" />
	</node>
	<node lat="60.21536944487399" lon="10.477147230367141" id="-16649">
		<tag k="name" v="Fiskedammen" />
		<tag k="ssr:stedsnr" v="519707" />
		<tag k="waterway" v="dam" />
	</node>
	<node lat="60.187513890045" lon="10.517350003912215" id="-16655">
		<tag k="alt_name" v="Buvann" />
		<tag k="name" v="Buvatn" />
=======
	<node id="-297373" lat="60.2092944472" lon="10.4592666741">
		<tag k="alt_name" v="Århanaputten" />
		<tag k="name" v="Orrhanaputten" />
		<tag k="natural" v="water" />
		<tag k="ssr:stedsnr" v="551420" />
		<tag k="water" v="pond" />
	</node>
	<node id="-297458" lat="60.1824361076" lon="10.5503027771">
		<tag k="alt_name" v="Grasdalstjernet" />
		<tag k="name" v="Grasdalsputten" />
		<tag k="natural" v="water" />
		<tag k="ssr:stedsnr" v="794040" />
	</node>
	<node id="-297121" lat="60.2717000027" lon="10.4578249934">
		<tag k="name" v="Kårstadtjernet" />
>>>>>>> e1d4bc35ff8a6074a6f2e91616a996b547c36f15
		<tag k="natural" v="water" />
		<tag k="ssr:stedsnr" v="551055" />
	</node>
<<<<<<< HEAD
	<node lat="60.209294447170215" lon="10.45926667405878" id="-16657">
		<tag k="alt_name" v="Århanaputten" />
		<tag k="name" v="Orrhanaputten" />
=======
	<node id="-297118" lat="60.3445611106" lon="10.2703249934">
		<tag k="name" v="Tangnesputten" />
>>>>>>> e1d4bc35ff8a6074a6f2e91616a996b547c36f15
		<tag k="natural" v="water" />
		<tag k="ssr:stedsnr" v="551420" />
		<tag k="water" v="pond" />
	</node>
<<<<<<< HEAD
	<node lat="60.22022222378997" lon="10.495783325419294" id="-16658">
		<tag k="name" v="Svarttjernet" />
=======
	<node id="-297113" lat="60.3660916669" lon="10.2591999977">
		<tag k="alt_name" v="Samsjøputten, nordre;Nordre Samsjøputt" />
		<tag k="name" v="Nordre Samsjøputten" />
>>>>>>> e1d4bc35ff8a6074a6f2e91616a996b547c36f15
		<tag k="natural" v="water" />
		<tag k="ssr:stedsnr" v="551449" />
	</node>
<<<<<<< HEAD
	<node lat="60.22585278070316" lon="10.44518888077099" id="-16659">
		<tag k="name" v="Svenåa" />
		<tag k="ssr:stedsnr" v="551451" />
		<tag k="waterway" v="stream" />
	</node>
	<node lat="60.38112222090196" lon="10.25500278518962" id="-16660">
		<tag k="alt_name" v="Auretjernsputten, vestre" />
		<tag k="name" v="Vestre Auretjernsputten" />
=======
	<node id="-297112" lat="60.3528583347" lon="10.2473944533">
		<tag k="alt_name" v="Bånntjern" />
		<tag k="name" v="Bonntjern" />
>>>>>>> e1d4bc35ff8a6074a6f2e91616a996b547c36f15
		<tag k="natural" v="water" />
		<tag k="ssr:stedsnr" v="551608" />
	</node>
<<<<<<< HEAD
	<node lat="60.28869166248121" lon="10.309436119782136" id="-16662">
		<tag k="name" v="Toputt" />
		<tag k="natural" v="water" />
		<tag k="ssr:stedsnr" v="552437" />
	</node>
	<node lat="60.34308333678752" lon="10.250808331380691" id="-16664">
		<tag k="name" v="Kjørketjern" />
=======
	<node id="-297111" lat="60.1930277741" lon="10.3104944429">
		<tag k="name" v="Randselva" />
		<tag k="ssr:stedsnr" v="5579" />
		<tag k="waterway" v="river" />
	</node>
	<node id="-297109" lat="60.1991611092" lon="10.5272111071">
		<tag k="name" v="Bikkjeputten" />
>>>>>>> e1d4bc35ff8a6074a6f2e91616a996b547c36f15
		<tag k="natural" v="water" />
		<tag k="ssr:stedsnr" v="552631" />
	</node>
<<<<<<< HEAD
	<node lat="60.34458055479931" lon="10.246072224730046" id="-16681">
		<tag k="name" v="Kjørketjernputta" />
=======
	<node id="-297107" lat="60.2299277822" lon="10.5320277793">
		<tag k="name" v="Trantjernet" />
>>>>>>> e1d4bc35ff8a6074a6f2e91616a996b547c36f15
		<tag k="natural" v="water" />
		<tag k="ssr:stedsnr" v="597975" />
		<tag k="water" v="pond" />
	</node>
<<<<<<< HEAD
	<node lat="60.21311111500712" lon="10.505138882819534" id="-16686">
		<tag k="alt_name" v="Svarttjennsbekken" />
		<tag k="name" v="Svarttjernsbekken" />
		<tag k="ssr:stedsnr" v="699960" />
		<tag k="waterway" v="stream" />
	</node>
	<node lat="60.35896111114348" lon="10.261113882969587" id="-16689">
		<tag k="alt_name" v="Samsjøputten, s;Søndre Samsjøputt" />
		<tag k="name" v="Søndre Samsjøputten" />
		<tag k="natural" v="water" />
		<tag k="ssr:stedsnr" v="611611" />
	</node>
	<node lat="60.38198055850294" lon="10.282250002699845" id="-16690">
		<tag k="name" v="Bikkjetjern" />
=======
	<node id="-297411" lat="60.3445805548" lon="10.2460722247">
		<tag k="name" v="Kjørketjernputta" />
		<tag k="natural" v="water" />
		<tag k="ssr:stedsnr" v="597975" />
		<tag k="water" v="pond" />
	</node>
	<node id="-296987" lat="60.171545434" lon="10.517527396">
		<tag k="alt_name" v="Finntjernet" />
		<tag k="name" v="Finntjern" />
		<tag k="natural" v="water" />
		<tag k="ssr:stedsnr" v="733043" />
	</node>
	<node id="-297102" lat="60.2134472209" lon="10.5186833248">
		<tag k="name" v="Oljebekken" />
		<tag k="ssr:stedsnr" v="942977" />
		<tag k="waterway" v="stream" />
	</node>
	<node id="-297099" lat="60.3919805571" lon="10.2547027855">
		<tag k="name" v="Sandungen" />
		<tag k="natural" v="water" />
		<tag k="ssr:stedsnr" v="917258" />
	</node>
	<node id="-297094" lat="60.3017527788" lon="10.2731333302">
		<tag k="name" v="Søndre Moltemyrtangen" />
		<tag k="natural" v="cape" />
		<tag k="ssr:stedsnr" v="916505" />
	</node>
	<node id="-297091" lat="60.3490305571" lon="10.2531805472">
		<tag k="name" v="Rundtjern" />
>>>>>>> e1d4bc35ff8a6074a6f2e91616a996b547c36f15
		<tag k="natural" v="water" />
		<tag k="ssr:stedsnr" v="612628" />
	</node>
<<<<<<< HEAD
	<node lat="60.26861389182423" lon="10.413408331875274" id="-16695">
		<tag k="name" v="Gullavika" />
		<tag k="natural" v="bay" />
		<tag k="ssr:stedsnr" v="612781" />
	</node>
	<node lat="60.20240277878964" lon="10.52203333453518" id="-16699">
		<tag k="name" v="Holovika" />
		<tag k="natural" v="bay" />
		<tag k="ssr:stedsnr" v="638993" />
	</node>
	<node lat="60.333619446745786" lon="10.337122216927543" id="-16708">
		<tag k="name" v="Sagbekken" />
		<tag k="ssr:stedsnr" v="673457" />
		<tag k="waterway" v="stream" />
	</node>
	<node lat="60.30436436058614" lon="10.271260146726855" id="-16710">
		<tag k="name" v="Nordre Vælsvatnet" />
=======
	<node id="-297090" lat="60.2196210858" lon="10.5236896498">
		<tag k="name" v="Ølja" />
>>>>>>> e1d4bc35ff8a6074a6f2e91616a996b547c36f15
		<tag k="natural" v="water" />
		<tag k="ssr:stedsnr" v="673518" />
		<tag k="water" v="lake" />
	</node>
<<<<<<< HEAD
	<node lat="60.218844440195745" lon="10.464655546532136" id="-16716">
		<tag k="name" v="Fossen" />
		<tag k="natural" v="waterfall" />
		<tag k="ssr:stedsnr" v="701734" />
	</node>
	<node lat="60.227077776218785" lon="10.338852773536589" id="-16717">
		<tag k="name" v="Skarflågan" />
		<tag k="natural" v="water" />
		<tag k="ssr:stedsnr" v="719587" />
	</node>
	<node lat="60.36751388804258" lon="10.314605550526617" id="-16722">
		<tag k="name" v="Smaltarmen" />
=======
	<node id="-296979" lat="60.3589611111" lon="10.261113883">
		<tag k="alt_name" v="Samsjøputten, s;Søndre Samsjøputt" />
		<tag k="name" v="Søndre Samsjøputten" />
		<tag k="natural" v="water" />
		<tag k="ssr:stedsnr" v="611611" />
	</node>
	<node id="-297076" lat="60.3921500019" lon="10.2632333259">
		<tag k="alt_name" v="Bergervatnet" />
		<tag k="name" v="Bergevatnet" />
		<tag k="natural" v="water" />
		<tag k="ssr:stedsnr" v="856314" />
	</node>
	<node id="-297073" lat="60.2773638861" lon="10.5097916688">
		<tag k="name" v="Finnerudputten" />
>>>>>>> e1d4bc35ff8a6074a6f2e91616a996b547c36f15
		<tag k="natural" v="water" />
		<tag k="ssr:stedsnr" v="901441" />
	</node>
<<<<<<< HEAD
	<node lat="60.17154543400159" lon="10.517527396044713" id="-16723">
		<tag k="alt_name" v="Finntjernet" />
		<tag k="name" v="Finntjern" />
		<tag k="natural" v="water" />
		<tag k="ssr:stedsnr" v="733043" />
	</node>
	<node lat="60.219180557186256" lon="10.423886110942183" id="-16726">
		<tag k="name" v="Moselva" />
		<tag k="ssr:stedsnr" v="733441" />
		<tag k="waterway" v="stream" />
	</node>
	<node lat="60.34340833450296" lon="10.33956944483475" id="-16728">
		<tag k="name" v="Svartbekken" />
		<tag k="ssr:stedsnr" v="734619" />
		<tag k="waterway" v="stream" />
	</node>
	<node lat="60.31470000248964" lon="10.299086103881828" id="-16729">
		<tag k="alt_name" v="Kløyvtjennsbekken" />
		<tag k="name" v="Kløvtjernsbekken" />
		<tag k="ssr:stedsnr" v="734530" />
		<tag k="waterway" v="stream" />
	</node>
	<node lat="60.27661111144924" lon="10.528647214646535" id="-16733">
		<tag k="name" v="Liaputten" />
=======
	<node id="-297069" lat="60.3725666671" lon="10.2727972278">
		<tag k="name" v="Østre Auremyrbekken" />
		<tag k="ssr:stedsnr" v="840457" />
		<tag k="waterway" v="stream" />
	</node>
	<node id="-297068" lat="60.3718388902" lon="10.2614444446">
		<tag k="name" v="Vestre Auremyrbekken" />
		<tag k="ssr:stedsnr" v="840453" />
		<tag k="waterway" v="stream" />
	</node>
	<node id="-297065" lat="60.2879410053" lon="10.4725345918">
		<tag k="name" v="Galtedalstjerna" />
>>>>>>> e1d4bc35ff8a6074a6f2e91616a996b547c36f15
		<tag k="natural" v="water" />
		<tag k="ssr:stedsnr" v="760957" />
		<tag k="water" v="pond" />
	</node>
<<<<<<< HEAD
	<node lat="60.24261242176373" lon="10.566092401168351" id="-16750">
		<tag k="name" v="Mylla" />
		<tag k="natural" v="water" />
		<tag k="ssr:stedsnr" v="915355" />
		<tag k="water" v="lake" />
	</node>
	<node lat="60.21962108579294" lon="10.52368964984803" id="-16751">
		<tag k="name" v="Ølja" />
=======
	<node id="-297061" lat="60.187572223" lon="10.4532444364">
		<tag k="name" v="Mosjøen" />
>>>>>>> e1d4bc35ff8a6074a6f2e91616a996b547c36f15
		<tag k="natural" v="water" />
		<tag k="ssr:stedsnr" v="915458" />
		<tag k="water" v="lake" />
	</node>
<<<<<<< HEAD
	<node lat="60.34903055714454" lon="10.253180547240039" id="-16752">
		<tag k="name" v="Rundtjern" />
		<tag k="natural" v="water" />
		<tag k="ssr:stedsnr" v="915562" />
	</node>
	<node lat="60.30175277884717" lon="10.273133330194597" id="-16756">
		<tag k="name" v="Søndre Moltemyrtangen" />
		<tag k="natural" v="cape" />
		<tag k="ssr:stedsnr" v="916505" />
	</node>
	<node lat="60.34058333482019" lon="10.325016668293792" id="-16758">
=======
	<node id="-297056" lat="60.3405833348" lon="10.3250166683">
>>>>>>> e1d4bc35ff8a6074a6f2e91616a996b547c36f15
		<tag k="name" v="Skålmyrbekken" />
		<tag k="ssr:stedsnr" v="916601" />
		<tag k="waterway" v="stream" />
	</node>
<<<<<<< HEAD
	<node lat="60.17767499749918" lon="10.51643610441241" id="-16762">
		<tag k="name" v="Pershusøya" />
		<tag k="place" v="island" />
		<tag k="ssr:stedsnr" v="821920" />
	</node>
	<node lat="60.390983329581765" lon="10.226769439055648" id="-16767">
		<tag k="alt_name" v="Kubruputta" />
		<tag k="name" v="Kubruputtane" />
=======
	<node id="-297055" lat="60.3896361135" lon="10.2010916644">
		<tag k="name" v="Hadelandsbekken" />
		<tag k="ssr:stedsnr" v="916534" />
		<tag k="waterway" v="stream" />
	</node>
	<node id="-297054" lat="60.3161916699" lon="10.27986944">
		<tag k="alt_name" v="Borstuvannet" />
		<tag k="name" v="Borstuvatnet" />
>>>>>>> e1d4bc35ff8a6074a6f2e91616a996b547c36f15
		<tag k="natural" v="water" />
		<tag k="ssr:stedsnr" v="855489" />
	</node>
<<<<<<< HEAD
	<node lat="60.3637055542019" lon="10.320202783339736" id="-16768">
		<tag k="name" v="Hutjern" />
		<tag k="natural" v="water" />
		<tag k="ssr:stedsnr" v="855609" />
	</node>
	<node lat="60.35651110773187" lon="10.305791671772088" id="-16769">
		<tag k="name" v="Kjørsletjern" />
		<tag k="natural" v="water" />
		<tag k="ssr:stedsnr" v="855610" />
	</node>
	<node lat="60.247382791917694" lon="10.320385909276562" id="-16771">
		<tag k="name" v="Kniptjern" />
		<tag k="natural" v="water" />
		<tag k="ssr:stedsnr" v="855993" />
	</node>
	<node lat="60.39215000189815" lon="10.263233325920027" id="-16772">
		<tag k="alt_name" v="Bergervatnet" />
		<tag k="name" v="Bergevatnet" />
		<tag k="natural" v="water" />
		<tag k="ssr:stedsnr" v="856314" />
	</node>
	<node lat="60.31196666844853" lon="10.398555560646288" id="-16773">
		<tag k="name" v="Svartbekken" />
		<tag k="ssr:stedsnr" v="856682" />
		<tag k="waterway" v="stream" />
	</node>
	<node lat="60.18831666572645" lon="10.532286103608776" id="-16775">
		<tag k="name" v="Holoputten" />
		<tag k="natural" v="water" />
		<tag k="ssr:stedsnr" v="882906" />
		<tag k="water" v="pond" />
	</node>
	<node lat="60.259758336877354" lon="10.466294440033893" id="-16788">
=======
	<node id="-297317" lat="60.2923893005" lon="10.4945356403">
		<tag k="alt_name" v="Vassjøtjernet" />
		<tag k="name" v="Vassjø" />
		<tag k="natural" v="water" />
		<tag k="ssr:stedsnr" v="370858" />
		<tag k="water" v="lake" />
	</node>
	<node id="-297562" lat="60.3040193039" lon="10.4623734386">
		<tag k="name" v="Rustadelva​" />
		<tag k="ssr:stedsnr" v="987350" />
		<tag k="waterway" v="river" />
	</node>
	<node id="-297561" lat="60.2426869854" lon="10.5667751562">
		<tag k="name" v="Mylla" />
		<tag k="natural" v="water" />
		<tag k="ssr:stedsnr" v="915355" />
		<tag k="water" v="lake" />
	</node>
	<node id="-297560" lat="60.3150114025" lon="10.4603864038">
		<tag k="name" v="Rostedbekken" />
		<tag k="ssr:stedsnr" v="987348" />
		<tag k="waterway" v="stream" />
	</node>
	<node id="-297559" lat="60.3911216845" lon="10.2697404284">
		<tag k="name" v="Roken" />
		<tag k="natural" v="water" />
		<tag k="ssr:stedsnr" v="6308" />
	</node>
	<node id="-297045" lat="60.2189694466" lon="10.467847217">
		<tag k="name" v="Sandbekken" />
		<tag k="ssr:stedsnr" v="216673" />
		<tag k="waterway" v="stream" />
	</node>
	<node id="-297044" lat="60.2162361135" lon="10.4711527866">
		<tag k="name" v="Svenåa" />
		<tag k="ssr:stedsnr" v="216669" />
		<tag k="waterway" v="river" />
	</node>
	<node id="-297040" lat="60.2597583369" lon="10.46629444">
>>>>>>> e1d4bc35ff8a6074a6f2e91616a996b547c36f15
		<tag k="name" v="Brennaelva" />
		<tag k="ssr:stedsnr" v="907162" />
		<tag k="waterway" v="river" />
	</node>
<<<<<<< HEAD
	<node lat="60.370180552071126" lon="10.23736111061034" id="-16790">
		<tag k="name" v="Hammarlangtjernet" />
		<tag k="natural" v="water" />
		<tag k="ssr:stedsnr" v="915594" />
	</node>
	<node lat="60.316191669867855" lon="10.279869439980727" id="-16794">
		<tag k="alt_name" v="Borstuvannet" />
		<tag k="name" v="Borstuvatnet" />
=======
	<node id="-297032" lat="60.367513888" lon="10.3146055505">
		<tag k="name" v="Smaltarmen" />
>>>>>>> e1d4bc35ff8a6074a6f2e91616a996b547c36f15
		<tag k="natural" v="water" />
		<tag k="ssr:stedsnr" v="916488" />
	</node>
<<<<<<< HEAD
	<node lat="60.38963611345281" lon="10.201091664424826" id="-16797">
		<tag k="name" v="Hadelandsbekken" />
		<tag k="ssr:stedsnr" v="916534" />
		<tag k="waterway" v="stream" />
	</node>
	<node lat="60.39198055713746" lon="10.254702785541568" id="-16799">
		<tag k="name" v="Sandungen" />
=======
	<node id="-297028" lat="60.2270777762" lon="10.3388527735">
		<tag k="name" v="Skarflågan" />
		<tag k="natural" v="water" />
		<tag k="ssr:stedsnr" v="719587" />
	</node>
	<node id="-297026" lat="60.213111115" lon="10.5051388828">
		<tag k="alt_name" v="Svarttjennsbekken" />
		<tag k="name" v="Svarttjernsbekken" />
		<tag k="ssr:stedsnr" v="699960" />
		<tag k="waterway" v="stream" />
	</node>
	<node id="-297021" lat="60.291302778" lon="10.2969138914">
		<tag k="name" v="Enputten" />
>>>>>>> e1d4bc35ff8a6074a6f2e91616a996b547c36f15
		<tag k="natural" v="water" />
		<tag k="ssr:stedsnr" v="917258" />
	</node>
<<<<<<< HEAD
	<node lat="60.213544442641386" lon="10.45270278182104" id="-16803">
		<tag k="alt_name" v="Branntjenn;Branntjernet" />
		<tag k="name" v="Branntjern" />
		<tag k="natural" v="water" />
		<tag k="old_name" v="Brandtjern" />
		<tag k="ssr:stedsnr" v="963534" />
	</node>
	<node lat="60.2927793151587" lon="10.280426167141462" id="-16807">
		<tag k="name" v="Vælsvatna" />
=======
	<node id="-297015" lat="60.1883166657" lon="10.5322861036">
		<tag k="name" v="Holoputten" />
>>>>>>> e1d4bc35ff8a6074a6f2e91616a996b547c36f15
		<tag k="natural" v="water" />
		<tag k="ssr:stedsnr" v="978099" />
		<tag k="water" v="lake" />
	</node>
<<<<<<< HEAD
	<node lat="60.22992778219451" lon="10.532027779295177" id="-16815">
		<tag k="name" v="Trantjernet" />
		<tag k="natural" v="water" />
		<tag k="ssr:stedsnr" v="5378" />
	</node>
	<node lat="60.199161109192985" lon="10.527211107096585" id="-16817">
		<tag k="name" v="Bikkjeputten" />
=======
	<node id="-297012" lat="60.2825249989" lon="10.410408328">
		<tag k="name" v="Sløvika" />
		<tag k="natural" v="bay" />
		<tag k="ssr:stedsnr" v="674828" />
	</node>
	<node id="-297310" lat="60.3488027815" lon="10.2952222211">
		<tag k="name" v="Svarttjern" />
		<tag k="natural" v="water" />
		<tag k="ssr:stedsnr" v="369533" />
	</node>
	<node id="-297010" lat="60.3096111137" lon="10.2995138967">
		<tag k="name" v="Svarttjernsputten" />
>>>>>>> e1d4bc35ff8a6074a6f2e91616a996b547c36f15
		<tag k="natural" v="water" />
		<tag k="ssr:stedsnr" v="5442" />
	</node>
<<<<<<< HEAD
	<node lat="60.366091666886454" lon="10.259199997689379" id="-16818">
		<tag k="alt_name" v="Samsjøputten, nordre;Nordre Samsjøputt" />
		<tag k="name" v="Nordre Samsjøputten" />
		<tag k="natural" v="water" />
		<tag k="ssr:stedsnr" v="5589" />
	</node>
	<node lat="60.27170000272985" lon="10.457824993352691" id="-16828">
		<tag k="name" v="Kårstadtjernet" />
		<tag k="natural" v="water" />
		<tag k="ssr:stedsnr" v="6795" />
	</node>
	<node lat="60.29011666882102" lon="10.482808339927905" id="-16836">
		<tag k="name" v="Markatjernet" />
		<tag k="natural" v="water" />
		<tag k="ssr:stedsnr" v="34283" />
	</node>
	<node lat="60.358941665479016" lon="10.310997220664204" id="-16838">
		<tag k="name" v="Utgravningstjernet" />
		<tag k="natural" v="water" />
		<tag k="ssr:stedsnr" v="38460" />
		<tag k="water" v="lake" />
	</node>
	<node lat="60.367938889657744" lon="10.282013885388858" id="-16839">
		<tag k="name" v="Rundøyputten" />
=======
	<node id="-297002" lat="60.2632166703" lon="10.3836055568">
		<tag k="name" v="Nordbytangen" />
		<tag k="natural" v="cape" />
		<tag k="ssr:stedsnr" v="734797" />
	</node>
	<node id="-297001" lat="60.3434083345" lon="10.3395694448">
		<tag k="name" v="Svartbekken" />
		<tag k="ssr:stedsnr" v="734619" />
		<tag k="waterway" v="stream" />
	</node>
	<node id="-297512" lat="60.3087390057" lon="10.4671444937">
		<tag k="name" v="Veloelva​" />
		<tag k="ssr:stedsnr" v="987349" />
		<tag k="waterway" v="river" />
	</node>
	<node id="-296998" lat="60.3147000025" lon="10.2990861039">
		<tag k="alt_name" v="Kløyvtjennsbekken" />
		<tag k="name" v="Kløvtjernsbekken" />
		<tag k="ssr:stedsnr" v="734530" />
		<tag k="waterway" v="stream" />
	</node>
	<node id="-297133" lat="60.2901166688" lon="10.4828083399">
		<tag k="name" v="Markatjernet" />
		<tag k="natural" v="water" />
		<tag k="ssr:stedsnr" v="34283" />
	</node>
	<node id="-296996" lat="60.260755555" lon="10.3257777829">
		<tag k="alt_name" v="Jokumstjernt" />
		<tag k="name" v="Jokumstjern" />
>>>>>>> e1d4bc35ff8a6074a6f2e91616a996b547c36f15
		<tag k="natural" v="water" />
		<tag k="ssr:stedsnr" v="38454" />
		<tag k="water" v="pond" />
	</node>
<<<<<<< HEAD
	<node lat="60.37370277625512" lon="10.233486115414747" id="-16840">
		<tag k="name" v="Langtjernputten" />
=======
	<node id="-296995" lat="60.3583749995" lon="10.2328694477">
		<tag k="name" v="Lomtjern" />
>>>>>>> e1d4bc35ff8a6074a6f2e91616a996b547c36f15
		<tag k="natural" v="water" />
		<tag k="ssr:stedsnr" v="51412" />
	</node>
<<<<<<< HEAD
	<node lat="60.17630000107917" lon="10.492499997430308" id="-16849">
		<tag k="alt_name" v="Store Sinnera;Sinnera" />
		<tag k="name" v="Store Sindera" />
		<tag k="natural" v="water" />
		<tag k="ssr:stedsnr" v="66036" />
	</node>
	<node lat="60.19030833573597" lon="10.496927785861649" id="-16850">
		<tag k="alt_name" v="Øvre Sinnerputten" />
		<tag k="name" v="Øvre Sinderputten" />
=======
	<node id="-296994" lat="60.2191805572" lon="10.4238861109">
		<tag k="name" v="Moselva" />
		<tag k="ssr:stedsnr" v="733441" />
		<tag k="waterway" v="stream" />
	</node>
	<node id="-297505" lat="60.2135444426" lon="10.4527027818">
		<tag k="alt_name" v="Branntjenn;Branntjernet" />
		<tag k="name" v="Branntjern" />
>>>>>>> e1d4bc35ff8a6074a6f2e91616a996b547c36f15
		<tag k="natural" v="water" />
		<tag k="ssr:stedsnr" v="66058" />
	</node>
<<<<<<< HEAD
	<node lat="60.33759167048641" lon="10.308133331528218" id="-16855">
		<tag k="name" v="Kroktjern" />
=======
	<node id="-297504" lat="60.2350271257" lon="10.3724017108">
		<tag k="loc_name" v="Bergetjernet" />
		<tag k="name" v="Bergertjernet" />
>>>>>>> e1d4bc35ff8a6074a6f2e91616a996b547c36f15
		<tag k="natural" v="water" />
		<tag k="ssr:stedsnr" v="67469" />
	</node>
<<<<<<< HEAD
	<node lat="60.30722499901713" lon="10.284875005145892" id="-16857">
		<tag k="name" v="Smalkalven" />
		<tag k="natural" v="bay" />
		<tag k="ssr:stedsnr" v="67534" />
	</node>
	<node lat="60.30515833484599" lon="10.466891675734441" id="-16859">
		<tag k="alt_name" v="Bråtatjernet" />
		<tag k="name" v="Bråtåtjernet" />
		<tag k="natural" v="water" />
		<tag k="ssr:stedsnr" v="67886" />
	</node>
	<node lat="60.25067499749801" lon="10.30925000235329" id="-16860">
		<tag k="name" v="Skillebekken" />
		<tag k="ssr:stedsnr" v="87790" />
		<tag k="waterway" v="stream" />
	</node>
	<node lat="60.190272218233176" lon="10.524252773146976" id="-16864">
		<tag k="name" v="Mariputten" />
		<tag k="natural" v="water" />
		<tag k="ssr:stedsnr" v="93888" />
		<tag k="water" v="pond" />
	</node>
	<node lat="60.28306388953713" lon="10.5222638917453" id="-16866">
		<tag k="name" v="Hallumsbekken" />
		<tag k="ssr:stedsnr" v="93945" />
		<tag k="waterway" v="stream" />
	</node>
	<node lat="60.2513694459607" lon="10.50799166980639" id="-16867">
		<tag k="name" v="Vanntroa" />
		<tag k="natural" v="spring" />
		<tag k="ssr:stedsnr" v="93904" />
	</node>
	<node lat="60.20434673613137" lon="10.521890004861085" id="-16884">
		<tag k="name" v="Tverrsjøen" />
=======
	<node id="-297499" lat="60.3347444444" lon="10.3526388799">
		<tag k="name" v="Solviktangen" />
		<tag k="natural" v="cape" />
		<tag k="ssr:stedsnr" v="856996" />
	</node>
	<node id="-297498" lat="60.2753833299" lon="10.403249996">
		<tag k="name" v="Bjellumstangen" />
		<tag k="natural" v="cape" />
		<tag k="ssr:stedsnr" v="856849" />
	</node>
	<node id="-297495" lat="60.3119666684" lon="10.3985555606">
		<tag k="name" v="Svartbekken" />
		<tag k="ssr:stedsnr" v="856682" />
		<tag k="waterway" v="stream" />
	</node>
	<node id="-297492" lat="60.3382750008" lon="10.2735777772">
		<tag k="alt_name" v="Tangnesbekken" />
		<tag k="name" v="Midtskogbekken" />
		<tag k="ssr:stedsnr" v="856523" />
		<tag k="waterway" v="stream" />
	</node>
	<node id="-297491" lat="60.2473827919" lon="10.3203859093">
		<tag k="name" v="Kniptjern" />
		<tag k="natural" v="water" />
		<tag k="ssr:stedsnr" v="855993" />
	</node>
	<node id="-297490" lat="60.3696972197" lon="10.2497305524">
		<tag k="name" v="Ormetjern" />
>>>>>>> e1d4bc35ff8a6074a6f2e91616a996b547c36f15
		<tag k="natural" v="water" />
		<tag k="ssr:stedsnr" v="126439" />
		<tag k="water" v="lake" />
	</node>
<<<<<<< HEAD
	<node lat="60.35930833750265" lon="10.292308329769305" id="-16885">
		<tag k="name" v="Blekketjern" />
=======
	<node id="-297489" lat="60.3565111077" lon="10.3057916718">
		<tag k="name" v="Kjørsletjern" />
>>>>>>> e1d4bc35ff8a6074a6f2e91616a996b547c36f15
		<tag k="natural" v="water" />
		<tag k="ssr:stedsnr" v="126591" />
	</node>
<<<<<<< HEAD
	<node lat="60.19488888593224" lon="10.446616668546344" id="-16893">
		<tag k="name" v="Dammen" />
		<tag k="ssr:stedsnr" v="146335" />
		<tag k="waterway" v="dam" />
	</node>
	<node lat="60.164905558434405" lon="10.554569442291614" id="-16895">
		<tag k="name" v="Smalet" />
		<tag k="natural" v="strait" />
		<tag k="ssr:stedsnr" v="147295" />
	</node>
	<node lat="60.303191670962676" lon="10.386144448565872" id="-16899">
		<tag k="name" v="Dalsvika" />
		<tag k="natural" v="bay" />
		<tag k="ssr:stedsnr" v="155454" />
	</node>
	<node lat="60.22759999805822" lon="10.375683325232204" id="-16908">
		<tag k="name" v="Bergerfoss" />
=======
	<node id="-297488" lat="60.3637055542" lon="10.3202027833">
		<tag k="name" v="Hutjern" />
		<tag k="natural" v="water" />
		<tag k="ssr:stedsnr" v="855609" />
	</node>
	<node id="-297487" lat="60.3909833296" lon="10.2267694391">
		<tag k="alt_name" v="Kubruputta" />
		<tag k="name" v="Kubruputtane" />
		<tag k="natural" v="water" />
		<tag k="ssr:stedsnr" v="855489" />
	</node>
	<node id="-297389" lat="60.3090138874" lon="10.2912611058">
		<tag k="name" v="Svarttjern" />
		<tag k="natural" v="water" />
		<tag k="ssr:stedsnr" v="552577" />
	</node>
	<node id="-297478" lat="60.2432472262" lon="10.4027666691">
		<tag k="name" v="Haugerlandet" />
		<tag k="natural" v="cape" />
		<tag k="ssr:stedsnr" v="847096" />
	</node>
	<node id="-296965" lat="60.2188444402" lon="10.4646555465">
		<tag k="name" v="Fossen" />
>>>>>>> e1d4bc35ff8a6074a6f2e91616a996b547c36f15
		<tag k="natural" v="waterfall" />
		<tag k="old_name" v="Bergefoss" />
		<tag k="ssr:stedsnr" v="175483" />
	</node>
<<<<<<< HEAD
	<node lat="60.2314055590599" lon="10.35641111759134" id="-16919">
		<tag k="alt_name" v="Grønntjernet" />
		<tag k="name" v="Grøntjernet" />
		<tag k="natural" v="water" />
		<tag k="ssr:stedsnr" v="187446" />
	</node>
	<node lat="60.20888610984428" lon="10.529263889363438" id="-16920">
		<tag k="alt_name" v="Johannestjennet;Johanstjern" />
		<tag k="name" v="Johannestjernet" />
		<tag k="natural" v="water" />
		<tag k="ssr:stedsnr" v="187447" />
	</node>
	<node lat="60.354116668378786" lon="10.313508334096257" id="-16921">
		<tag k="alt_name" v="Damtjern, nordre" />
		<tag k="name" v="Nordre Damtjern" />
		<tag k="natural" v="water" />
		<tag k="ssr:stedsnr" v="187551" />
	</node>
	<node lat="60.362480552467254" lon="10.229505551284735" id="-16922">
		<tag k="alt_name" v="Rompeputta" />
		<tag k="name" v="Rompeputtane" />
		<tag k="natural" v="water" />
		<tag k="ssr:stedsnr" v="187566" />
	</node>
	<node lat="60.37513333287" lon="10.306719439100755" id="-16923">
		<tag k="name" v="Amundskoietjern" />
		<tag k="natural" v="water" />
		<tag k="ssr:stedsnr" v="187569" />
	</node>
	<node lat="60.281361113049385" lon="10.532694449321452" id="-16924">
		<tag k="alt_name" v="Hallumstjernet" />
		<tag k="name" v="Hallomtjernet" />
		<tag k="natural" v="water" />
		<tag k="ssr:stedsnr" v="188846" />
	</node>
	<node lat="60.29557777653325" lon="10.428013882723272" id="-16927">
		<tag k="name" v="Sløvikelva" />
		<tag k="ssr:stedsnr" v="188864" />
		<tag k="waterway" v="river" />
	</node>
	<node lat="60.19154166797985" lon="10.455513885218325" id="-16929">
		<tag k="name" v="Veslemosjøen" />
		<tag k="natural" v="water" />
		<tag k="ssr:stedsnr" v="207348" />
	</node>
	<node lat="60.21623611353117" lon="10.471152786648581" id="-16935">
		<tag k="name" v="Svenåa" />
		<tag k="ssr:stedsnr" v="216669" />
		<tag k="waterway" v="river" />
	</node>
	<node lat="60.35253611250244" lon="10.276297214212306" id="-16948">
		<tag k="name" v="Tangnesbekken" />
		<tag k="ssr:stedsnr" v="281444" />
		<tag k="waterway" v="stream" />
	</node>
	<node lat="60.239430552859325" lon="10.396733339684312" id="-16956">
		<tag k="name" v="Verkevika" />
		<tag k="natural" v="bay" />
		<tag k="ssr:stedsnr" v="300154" />
	</node>
	<node lat="60.366677782205215" lon="10.316605551648145" id="-16962">
		<tag k="name" v="Vomma" />
		<tag k="natural" v="water" />
		<tag k="ssr:stedsnr" v="308572" />
	</node>
	<node lat="60.35714166287457" lon="10.214038884892357" id="-16963">
		<tag k="alt_name" v="Flåtjernbekken" />
		<tag k="name" v="Flåtjernsbekken" />
		<tag k="ssr:stedsnr" v="308577" />
		<tag k="waterway" v="stream" />
	</node>
	<node lat="60.27520833747263" lon="10.423897225666865" id="-16981">
		<tag k="name" v="Gulabråtabekken" />
		<tag k="ssr:stedsnr" v="342887" />
		<tag k="waterway" v="stream" />
	</node>
	<node lat="60.3488027814507" lon="10.29522222114406" id="-16993">
		<tag k="name" v="Svarttjern" />
		<tag k="natural" v="water" />
		<tag k="ssr:stedsnr" v="369533" />
	</node>
	<node lat="60.35443889190803" lon="10.238719446112485" id="-16994">
		<tag k="name" v="Flåtjern" />
		<tag k="natural" v="water" />
		<tag k="ssr:stedsnr" v="369537" />
	</node>
	<node lat="60.383938892956394" lon="10.259649996609905" id="-16996">
		<tag k="name" v="Auretjern" />
		<tag k="natural" v="water" />
		<tag k="ssr:stedsnr" v="369442" />
	</node>
	<node lat="60.292389300528434" lon="10.494535640280036" id="-17002">
		<tag k="alt_name" v="Vassjøtjernet" />
		<tag k="name" v="Vassjø" />
		<tag k="natural" v="water" />
		<tag k="ssr:stedsnr" v="370858" />
		<tag k="water" v="lake" />
	</node>
	<node lat="60.28836666248686" lon="10.288472213553364" id="-17011">
		<tag k="name" v="Kalvehue" />
		<tag k="natural" v="water" />
		<tag k="ssr:stedsnr" v="398261" />
		<tag k="water" v="lake" />
	</node>
	<node lat="60.234047219863456" lon="10.421766661913546" id="-17022">
		<tag k="name" v="Svenåa" />
		<tag k="ssr:stedsnr" v="422121" />
		<tag k="waterway" v="stream" />
	</node>
	<node lat="60.25316110944479" lon="10.42127777686915" id="-17024">
		<tag k="name" v="Ulverud" />
		<tag k="natural" v="cape" />
		<tag k="ssr:stedsnr" v="422086" />
	</node>
	<node lat="60.2551166669476" lon="10.436650006390819" id="-17025">
		<tag k="name" v="Prestegårdselva" />
		<tag k="ssr:stedsnr" v="422158" />
		<tag k="waterway" v="river" />
	</node>
	<node lat="60.24297777407973" lon="10.426236111081268" id="-17026">
		<tag k="name" v="Tosobekken" />
		<tag k="ssr:stedsnr" v="422180" />
		<tag k="waterway" v="stream" />
	</node>
	<node lat="60.34852777923251" lon="10.318850006132491" id="-17028">
		<tag k="name" v="Skålmyrputten" />
		<tag k="natural" v="water" />
		<tag k="ssr:stedsnr" v="422713" />
	</node>
	<node lat="60.19919483084714" lon="10.47387438797857" id="-17036">
		<tag k="alt_name" v="Langvann" />
		<tag k="name" v="Langvatn" />
		<tag k="natural" v="water" />
		<tag k="ssr:stedsnr" v="430436" />
	</node>
	<node lat="60.306999996012905" lon="10.269444448154449" id="-17040">
		<tag k="name" v="Nordre Moltemyrtangen" />
		<tag k="natural" v="cape" />
		<tag k="ssr:stedsnr" v="431543" />
	</node>
	<node lat="60.207530554475625" lon="10.523013880213623" id="-17047">
		<tag k="name" v="Tostenputten" />
		<tag k="natural" v="water" />
		<tag k="ssr:stedsnr" v="517993" />
		<tag k="water" v="pond" />
	</node>
	<node lat="60.21773333135814" lon="10.53500278068447" id="-17056">
		<tag k="alt_name" v="Gunnersjøen" />
		<tag k="name" v="Gunnertjernet" />
		<tag k="natural" v="water" />
		<tag k="ssr:stedsnr" v="551476" />
	</node>
	<node lat="60.195683332833305" lon="10.518072219477055" id="-17059">
		<tag k="alt_name" v="Skarvevann" />
		<tag k="name" v="Skarvvatnet" />
		<tag k="natural" v="water" />
		<tag k="ssr:stedsnr" v="551436" />
		<tag k="water" v="lake" />
	</node>
	<node lat="60.38528888615737" lon="10.274399993015873" id="-17061">
		<tag k="name" v="Kimetjern" />
		<tag k="natural" v="water" />
		<tag k="ssr:stedsnr" v="551497" />
	</node>
	<node lat="60.30901388740261" lon="10.291261105789667" id="-17064">
		<tag k="name" v="Svarttjern" />
		<tag k="natural" v="water" />
		<tag k="ssr:stedsnr" v="552577" />
	</node>
	<node lat="60.31368889149673" lon="10.347516663137526" id="-17071">
		<tag k="name" v="Myretangen" />
		<tag k="natural" v="cape" />
		<tag k="ssr:stedsnr" v="583831" />
	</node>
	<node lat="60.27424166264189" lon="10.516752776803362" id="-17072">
		<tag k="alt_name" v="Storetjernet" />
		<tag k="name" v="Stortjernet" />
		<tag k="natural" v="water" />
		<tag k="ssr:stedsnr" v="587847" />
	</node>
	<node lat="60.39026389115173" lon="10.23878610391106" id="-17073">
		<tag k="name" v="Sponga" />
		<tag k="natural" v="bay" />
		<tag k="ssr:stedsnr" v="597382" />
	</node>
	<node lat="60.38709444211216" lon="10.227641675204449" id="-17080">
		<tag k="name" v="Kjerringtjern" />
		<tag k="natural" v="water" />
		<tag k="ssr:stedsnr" v="612537" />
	</node>
	<node lat="60.3322888884544" lon="10.344416660607662" id="-17084">
		<tag k="name" v="Elnesvika" />
		<tag k="natural" v="bay" />
		<tag k="ssr:stedsnr" v="612993" />
	</node>
	<node lat="60.295250004428425" lon="10.282233334933004" id="-17090">
		<tag k="name" v="Serkoppvika" />
		<tag k="natural" v="bay" />
		<tag k="ssr:stedsnr" v="640300" />
	</node>
	<node lat="60.25804999628954" lon="10.357527775948403" id="-17093">
		<tag k="name" v="Kvennhusbekken" />
		<tag k="ssr:stedsnr" v="658991" />
		<tag k="waterway" v="stream" />
	</node>
	<node lat="60.309611113743735" lon="10.299513896726916" id="-17095">
		<tag k="name" v="Svarttjernsputten" />
		<tag k="natural" v="water" />
		<tag k="ssr:stedsnr" v="658923" />
		<tag k="water" v="pond" />
	</node>
	<node lat="60.341236111322026" lon="10.252494444543311" id="-17097">
		<tag k="name" v="Putten" />
		<tag k="natural" v="water" />
		<tag k="ssr:stedsnr" v="658956" />
		<tag k="water" v="pond" />
	</node>
	<node lat="60.35837499947946" lon="10.232869447706825" id="-17112">
		<tag k="name" v="Lomtjern" />
		<tag k="natural" v="water" />
		<tag k="ssr:stedsnr" v="733569" />
	</node>
	<node lat="60.260755554950485" lon="10.325777782917983" id="-17113">
		<tag k="alt_name" v="Jokumstjernt" />
		<tag k="name" v="Jokumstjern" />
		<tag k="natural" v="water" />
		<tag k="ssr:stedsnr" v="734364" />
	</node>
	<node lat="60.385583337071814" lon="10.26341388850188" id="-17117">
		<tag k="alt_name" v="Auretjernsputten, østre" />
		<tag k="name" v="Østre Auretjernsputten" />
		<tag k="natural" v="water" />
		<tag k="ssr:stedsnr" v="734564" />
	</node>
	<node lat="60.26321667033503" lon="10.383605556764957" id="-17118">
		<tag k="name" v="Nordbytangen" />
		<tag k="natural" v="cape" />
		<tag k="ssr:stedsnr" v="734797" />
	</node>
	<node lat="60.18243610756303" lon="10.550302777097638" id="-17137">
		<tag k="alt_name" v="Grasdalstjernet" />
		<tag k="name" v="Grasdalsputten" />
		<tag k="natural" v="water" />
		<tag k="ssr:stedsnr" v="794040" />
	</node>
	<node lat="60.18757222299756" lon="10.45324443638255" id="-17138">
		<tag k="name" v="Mosjøen" />
		<tag k="natural" v="water" />
		<tag k="old_name" v="Mosjø" />
		<tag k="ssr:stedsnr" v="794048" />
		<tag k="water" v="lake" />
	</node>
	<node lat="60.288157134395426" lon="10.472219543989901" id="-17141">
		<tag k="name" v="Galtedalstjerna" />
		<tag k="natural" v="water" />
		<tag k="ssr:stedsnr" v="795825" />
		<tag k="water" v="lake" />
	</node>
	<node lat="60.29463644655785" lon="10.289678544259028" id="-17143">
		<tag k="name" v="Kalven" />
		<tag k="natural" v="water" />
		<tag k="ssr:stedsnr" v="795436" />
		<tag k="water" v="lake" />
	</node>
	<node lat="60.371838890159054" lon="10.261444444631174" id="-17153">
		<tag k="name" v="Vestre Auremyrbekken" />
		<tag k="ssr:stedsnr" v="840453" />
		<tag k="waterway" v="stream" />
	</node>
	<node lat="60.37256666708883" lon="10.272797227810749" id="-17154">
		<tag k="name" v="Østre Auremyrbekken" />
		<tag k="ssr:stedsnr" v="840457" />
		<tag k="waterway" v="stream" />
	</node>
	<node lat="60.243247226247114" lon="10.402766669073536" id="-17156">
		<tag k="name" v="Haugerlandet" />
		<tag k="natural" v="cape" />
		<tag k="ssr:stedsnr" v="847096" />
	</node>
	<node lat="60.36969721971937" lon="10.249730552381246" id="-17164">
		<tag k="name" v="Ormetjern" />
		<tag k="natural" v="water" />
		<tag k="ssr:stedsnr" v="855627" />
	</node>
	<node lat="60.33827500076016" lon="10.27357777717498" id="-17167">
		<tag k="alt_name" v="Tangnesbekken" />
		<tag k="name" v="Midtskogbekken" />
		<tag k="ssr:stedsnr" v="856523" />
		<tag k="waterway" v="stream" />
	</node>
	<node lat="60.27538332988979" lon="10.40324999602333" id="-17174">
		<tag k="name" v="Bjellumstangen" />
		<tag k="natural" v="cape" />
		<tag k="ssr:stedsnr" v="856849" />
	</node>
	<node lat="60.334744444431344" lon="10.352638879927627" id="-17178">
		<tag k="name" v="Solviktangen" />
		<tag k="natural" v="cape" />
		<tag k="ssr:stedsnr" v="856996" />
	</node>
	<node lat="60.291302778048696" lon="10.296913891425682" id="-17183">
		<tag k="name" v="Enputten" />
		<tag k="natural" v="water" />
		<tag k="ssr:stedsnr" v="884237" />
		<tag k="water" v="pond" />
	</node>
	<node lat="60.277363886057685" lon="10.50979166878277" id="-17188">
		<tag k="name" v="Finnerudputten" />
		<tag k="natural" v="water" />
		<tag k="ssr:stedsnr" v="942942" />
		<tag k="water" v="pond" />
	</node>
	<node lat="60.21344722085442" lon="10.518683324842227" id="-17191">
		<tag k="name" v="Oljebekken" />
		<tag k="ssr:stedsnr" v="942977" />
		<tag k="waterway" v="stream" />
	</node>
	<node lat="60.235027125659286" lon="10.372401710836812" id="-17194">
		<tag k="loc_name" v="Bergetjernet" />
		<tag k="name" v="Bergertjernet" />
		<tag k="natural" v="water" />
		<tag k="ssr:stedsnr" v="963440" />
	</node>
	<node lat="60.315011402511" lon="10.46038640375824" id="-17201">
		<tag k="name" v="Rostedbekken" />
		<tag k="ssr:stedsnr" v="987348" />
		<tag k="waterway" v="stream" />
	</node>
	<node lat="60.30873900573268" lon="10.467144493742076" id="-17202">
		<tag k="name" v="Veloelva" />
		<tag k="ssr:stedsnr" v="987349" />
		<tag k="waterway" v="river" />
	</node>
	<node lat="60.30391720185923" lon="10.462104524980857" id="-17203">
		<tag k="name" v="Rustadelva" />
		<tag k="ssr:stedsnr" v="987350" />
		<tag k="waterway" v="river" />
	</node>
=======
>>>>>>> e1d4bc35ff8a6074a6f2e91616a996b547c36f15
</osm>
