<?xml version="1.0" encoding="UTF-8"?>
<osm version="0.6" generator="osmapis">
	<node lat="63.06407412121642" lon="10.973301343338983" id="-34957">
		<tag k="historic" v="shieling" />
		<tag k="name" v="Haftorslivollen" />
		<tag k="place" v="locality" />
		<tag k="ssr:stedsnr" v="12187" />
	</node>
	<node lat="63.06697222613196" lon="11.290188897523864" id="-34974">
		<tag k="name" v="Kjølen" />
		<tag k="natural" v="wetland" />
		<tag k="ssr:stedsnr" v="34510" />
	</node>
	<node lat="63.28003333748749" lon="10.816991668551543" id="-34976">
		<tag k="name" v="Kneppkjølen" />
		<tag k="natural" v="wetland" />
		<tag k="ssr:stedsnr" v="34428" />
	</node>
	<node lat="63.27738889310092" lon="10.710738887993436" id="-34978">
		<tag k="name" v="Stordalsmyra" />
		<tag k="natural" v="wetland" />
		<tag k="ssr:stedsnr" v="34461" />
	</node>
	<node lat="63.283838891801736" lon="11.097325007275423" id="-34986">
		<tag k="name" v="Litjburet" />
		<tag k="place" v="locality" />
		<tag k="ssr:stedsnr" v="35230" />
	</node>
	<node lat="63.250983337140006" lon="11.055258331941213" id="-34988">
		<tag k="name" v="Låkkåholet" />
		<tag k="place" v="locality" />
		<tag k="ssr:stedsnr" v="35164" />
	</node>
	<node lat="63.26187777794335" lon="11.164386110197906" id="-35000">
		<tag k="name" v="Hølvolløyan" />
		<tag k="place" v="locality" />
		<tag k="ssr:stedsnr" v="35773" />
	</node>
	<node lat="63.06821389039693" lon="11.28449445390191" id="-35003">
		<tag k="name" v="Kjølen" />
		<tag k="natural" v="wetland" />
		<tag k="ssr:stedsnr" v="35919" />
	</node>
	<node lat="63.080938885635696" lon="11.055919452977225" id="-35005">
		<tag k="name" v="Gammelbua" />
		<tag k="place" v="locality" />
		<tag k="ssr:stedsnr" v="36306" />
	</node>
	<node lat="63.23105833462918" lon="10.82830833006538" id="-35007">
		<tag k="name" v="Stormyra" />
		<tag k="natural" v="wetland" />
		<tag k="ssr:stedsnr" v="36402" />
	</node>
	<node lat="63.12425555434162" lon="10.862949992323454" id="-35008">
		<tag k="name" v="Vasskjølen" />
		<tag k="natural" v="wetland" />
		<tag k="ssr:stedsnr" v="36417" />
	</node>
	<node lat="63.1099861148579" lon="10.862563879759678" id="-35009">
		<tag k="name" v="Singeløyan" />
		<tag k="place" v="locality" />
		<tag k="ssr:stedsnr" v="36418" />
	</node>
	<node lat="63.18447777986303" lon="10.917691664183351" id="-35017">
		<tag k="name" v="Åsmyran" />
		<tag k="natural" v="wetland" />
		<tag k="ssr:stedsnr" v="37261" />
	</node>
	<node lat="63.11156944513063" lon="10.914202786543424" id="-35020">
		<tag k="name" v="Maliåsmyra" />
		<tag k="natural" v="wetland" />
		<tag k="ssr:stedsnr" v="37267" />
	</node>
	<node lat="63.12111944892656" lon="10.916569435942769" id="-35021">
		<tag k="name" v="Morsetstorkjølen" />
		<tag k="natural" v="wetland" />
		<tag k="ssr:stedsnr" v="37272" />
	</node>
	<node lat="63.32869999785491" lon="11.022027774964673" id="-35025">
		<tag k="name" v="Lesje" />
		<tag k="place" v="locality" />
		<tag k="ssr:stedsnr" v="37409" />
	</node>
	<node lat="63.1472524282369" lon="10.929862161381626" id="-35026">
		<tag k="name" v="Åsmannsbrettet" />
		<tag k="place" v="locality" />
		<tag k="ssr:stedsnr" v="37301" />
	</node>
	<node lat="63.16236944878271" lon="10.925372212601776" id="-35027">
		<tag k="name" v="Neglåsbjørga" />
		<tag k="place" v="locality" />
		<tag k="ssr:stedsnr" v="37304" />
	</node>
	<node lat="63.27028055852907" lon="11.24970555212465" id="-35028">
		<tag k="name" v="Flotjennin" />
		<tag k="natural" v="wetland" />
		<tag k="ssr:stedsnr" v="37309" />
	</node>
	<node lat="63.28769722452252" lon="10.681600005967153" id="-35030">
		<tag k="name" v="Hebrukjølen" />
		<tag k="natural" v="wetland" />
		<tag k="ssr:stedsnr" v="37610" />
	</node>
	<node lat="63.17351667019758" lon="10.912247212622736" id="-35038">
		<tag k="name" v="Elvbjørga" />
		<tag k="place" v="locality" />
		<tag k="ssr:stedsnr" v="37716" />
	</node>
	<node lat="63.28347500359989" lon="11.126222228550574" id="-35080">
		<tag k="name" v="Åslåtten" />
		<tag k="place" v="locality" />
		<tag k="ssr:stedsnr" v="95525" />
	</node>
	<node lat="63.24575833645824" lon="11.143491667488153" id="-35081">
		<tag k="name" v="Langmyra" />
		<tag k="natural" v="wetland" />
		<tag k="ssr:stedsnr" v="95565" />
	</node>
	<node lat="63.306127782043205" lon="11.162744435480437" id="-35082">
		<tag k="name" v="Hembjørga" />
		<tag k="place" v="locality" />
		<tag k="ssr:stedsnr" v="95575" />
	</node>
	<node lat="63.19034166742821" lon="11.319491667719559" id="-35086">
		<tag k="name" v="Stamnesdiket" />
		<tag k="natural" v="wetland" />
		<tag k="ssr:stedsnr" v="95667" />
	</node>
	<node lat="63.2536638858666" lon="11.202211107072364" id="-35089">
		<tag k="name" v="Vassmyran" />
		<tag k="natural" v="wetland" />
		<tag k="ssr:stedsnr" v="95875" />
	</node>
	<node lat="63.134069443662355" lon="11.069705557190538" id="-35090">
		<tag k="name" v="Knippan" />
		<tag k="place" v="locality" />
		<tag k="ssr:stedsnr" v="95764" />
	</node>
	<node lat="63.296486109306315" lon="11.125202769038419" id="-35092">
		<tag k="name" v="Storsjøbjørga" />
		<tag k="place" v="locality" />
		<tag k="ssr:stedsnr" v="96107" />
	</node>
	<node lat="63.27666388846474" lon="11.17352222054" id="-35093">
		<tag k="name" v="Skardølan" />
		<tag k="place" v="locality" />
		<tag k="ssr:stedsnr" v="96072" />
	</node>
	<node lat="63.08377777412997" lon="11.312044447877263" id="-35098">
		<tag k="historic" v="shieling" />
		<tag k="name" v="Nesåsvollen" />
		<tag k="place" v="locality" />
		<tag k="ssr:stedsnr" v="96915" />
	</node>
	<node lat="63.251861110023846" lon="10.763272216338766" id="-35101">
		<tag k="name" v="Skarvmyran" />
		<tag k="natural" v="wetland" />
		<tag k="ssr:stedsnr" v="97419" />
	</node>
	<node lat="63.19543611311821" lon="10.911258332070577" id="-35115">
		<tag k="name" v="Åsmarka" />
		<tag k="place" v="locality" />
		<tag k="ssr:stedsnr" v="98169" />
	</node>
	<node lat="63.266416663172365" lon="10.854433336745513" id="-35120">
		<tag k="name" v="Gunnaposten" />
		<tag k="place" v="locality" />
		<tag k="ssr:stedsnr" v="98272" />
	</node>
	<node lat="63.33621666429461" lon="11.056463891104396" id="-35128">
		<tag k="name" v="Hårstadkjølen" />
		<tag k="natural" v="wetland" />
		<tag k="ssr:stedsnr" v="98512" />
	</node>
	<node lat="63.21740555539882" lon="10.834113885000145" id="-35178">
		<tag k="name" v="Håmmårknippen" />
		<tag k="place" v="locality" />
		<tag k="ssr:stedsnr" v="155419" />
	</node>
	<node lat="63.08186111317856" lon="11.325808327482806" id="-35179">
		<tag k="name" v="Stenslåtten" />
		<tag k="place" v="locality" />
		<tag k="ssr:stedsnr" v="155570" />
	</node>
	<node lat="63.2487666682547" lon="11.02388332899796" id="-35190">
		<tag k="name" v="Stormyra" />
		<tag k="natural" v="wetland" />
		<tag k="ssr:stedsnr" v="156149" />
	</node>
	<node lat="63.31888611065071" lon="11.019358338771136" id="-35192">
		<tag k="historic" v="shieling" />
		<tag k="name" v="Pundsmidtivollen" />
		<tag k="place" v="locality" />
		<tag k="ssr:stedsnr" v="156159" />
	</node>
	<node lat="63.306863892234524" lon="11.022211107397982" id="-35193">
		<tag k="historic" v="shieling" />
		<tag k="name" v="Høstvollen" />
		<tag k="place" v="locality" />
		<tag k="ssr:stedsnr" v="156160" />
	</node>
	<node lat="63.16711110754599" lon="11.117102776090594" id="-35196">
		<tag k="name" v="Hansmyra" />
		<tag k="natural" v="wetland" />
		<tag k="ssr:stedsnr" v="156214" />
	</node>
	<node lat="63.254936115377326" lon="10.74122500820566" id="-35200">
		<tag k="name" v="Dammyra" />
		<tag k="natural" v="wetland" />
		<tag k="ssr:stedsnr" v="156411" />
	</node>
	<node lat="63.23270277733326" lon="10.749491664782301" id="-35201">
		<tag k="name" v="Garbergsmyran" />
		<tag k="natural" v="wetland" />
		<tag k="ssr:stedsnr" v="156414" />
	</node>
	<node lat="63.24513055749606" lon="11.132591663227688" id="-35202">
		<tag k="name" v="Høgkjølen" />
		<tag k="natural" v="wetland" />
		<tag k="ssr:stedsnr" v="157048" />
	</node>
	<node lat="63.20589999634919" lon="10.991366667849668" id="-35207">
		<tag k="name" v="Dammyra" />
		<tag k="natural" v="wetland" />
		<tag k="ssr:stedsnr" v="158320" />
	</node>
	<node lat="63.245472221239616" lon="10.73938056291095" id="-35217">
		<tag k="name" v="Høgrya" />
		<tag k="natural" v="wetland" />
		<tag k="ssr:stedsnr" v="158400" />
	</node>
	<node lat="63.288319441230925" lon="10.672208331838085" id="-35226">
		<tag k="name" v="Linkjeldskjølen" />
		<tag k="natural" v="wetland" />
		<tag k="ssr:stedsnr" v="158757" />
	</node>
	<node lat="63.2005194440126" lon="10.897675006387628" id="-35241">
		<tag k="name" v="Skogamyran" />
		<tag k="natural" v="wetland" />
		<tag k="ssr:stedsnr" v="159200" />
	</node>
	<node lat="63.17772222350676" lon="10.993213890223076" id="-35242">
		<tag k="name" v="Hundtjennbrettet" />
		<tag k="place" v="locality" />
		<tag k="ssr:stedsnr" v="159303" />
	</node>
	<node lat="63.181525001594466" lon="11.111274991026459" id="-35243">
		<tag k="name" v="Tømmermyra" />
		<tag k="natural" v="wetland" />
		<tag k="ssr:stedsnr" v="159352" />
	</node>
	<node lat="63.31465555189833" lon="10.979991674660882" id="-35244">
		<tag k="historic" v="shieling" />
		<tag k="name" v="Litjvollen" />
		<tag k="place" v="locality" />
		<tag k="ssr:stedsnr" v="159518" />
	</node>
	<node lat="63.340074997252465" lon="11.051699989989682" id="-35270">
		<tag k="name" v="Hundmyra" />
		<tag k="natural" v="wetland" />
		<tag k="ssr:stedsnr" v="195436" />
	</node>
	<node lat="63.247194447825635" lon="10.79155001007445" id="-35278">
		<tag k="name" v="Svenskholet" />
		<tag k="place" v="locality" />
		<tag k="ssr:stedsnr" v="216406" />
	</node>
	<node lat="63.24141388770088" lon="10.734669441835836" id="-35280">
		<tag k="name" v="Storgrubba" />
		<tag k="place" v="locality" />
		<tag k="ssr:stedsnr" v="216397" />
	</node>
	<node lat="63.235572218091406" lon="10.691088891456468" id="-35282">
		<tag k="name" v="Tjurrubukjølen" />
		<tag k="natural" v="wetland" />
		<tag k="ssr:stedsnr" v="216503" />
	</node>
	<node lat="63.163033336531896" lon="10.839727768394292" id="-35283">
		<tag k="name" v="Storra" />
		<tag k="place" v="locality" />
		<tag k="ssr:stedsnr" v="216475" />
	</node>
	<node lat="63.27844721973128" lon="11.165777776602402" id="-35285">
		<tag k="historic" v="shieling" />
		<tag k="name" v="Skardølsvollen" />
		<tag k="place" v="locality" />
		<tag k="ssr:stedsnr" v="216675" />
	</node>
	<node lat="63.062752774910685" lon="11.060250009574409" id="-35288">
		<tag k="name" v="Lian" />
		<tag k="place" v="locality" />
		<tag k="ssr:stedsnr" v="216810" />
	</node>
	<node lat="63.07566388486659" lon="11.055922230564656" id="-35289">
		<tag k="name" v="Slindkjølen" />
		<tag k="natural" v="wetland" />
		<tag k="ssr:stedsnr" v="216812" />
	</node>
	<node lat="63.27843055806426" lon="11.097705547403544" id="-35292">
		<tag k="name" v="Bærmyra" />
		<tag k="natural" v="wetland" />
		<tag k="ssr:stedsnr" v="216772" />
	</node>
	<node lat="63.178575003413656" lon="11.188266665384182" id="-35295">
		<tag k="name" v="Hellan" />
		<tag k="place" v="locality" />
		<tag k="ssr:stedsnr" v="217013" />
	</node>
	<node lat="63.28631389004511" lon="11.17828611119694" id="-35300">
		<tag k="name" v="Sagmyra" />
		<tag k="natural" v="wetland" />
		<tag k="ssr:stedsnr" v="217713" />
	</node>
	<node lat="63.28425277869739" lon="10.959947226674542" id="-35319">
		<tag k="name" v="Sørbustmyra" />
		<tag k="natural" v="wetland" />
		<tag k="ssr:stedsnr" v="219287" />
	</node>
	<node lat="63.2850250038084" lon="10.935130560396633" id="-35320">
		<tag k="name" v="Stenskåren" />
		<tag k="place" v="locality" />
		<tag k="ssr:stedsnr" v="219288" />
	</node>
	<node lat="63.18351388905659" lon="10.964441658273978" id="-35325">
		<tag k="name" v="Kolmyra" />
		<tag k="natural" v="wetland" />
		<tag k="ssr:stedsnr" v="219508" />
	</node>
	<node lat="63.2513805562063" lon="11.230086108018956" id="-35326">
		<tag k="name" v="Septu" />
		<tag k="place" v="locality" />
		<tag k="ssr:stedsnr" v="219509" />
	</node>
	<node lat="63.22399166839707" lon="11.200508342562799" id="-35328">
		<tag k="historic" v="shieling" />
		<tag k="name" v="Hersjøvollen" />
		<tag k="place" v="locality" />
		<tag k="ssr:stedsnr" v="219522" />
	</node>
	<node lat="63.29289444480294" lon="10.75790277773933" id="-35335">
		<tag k="name" v="Vollmyrin" />
		<tag k="natural" v="wetland" />
		<tag k="ssr:stedsnr" v="219720" />
	</node>
	<node lat="63.21478888675064" lon="10.864727785639118" id="-35347">
		<tag k="historic" v="shieling" />
		<tag k="name" v="Vårvollen" />
		<tag k="place" v="locality" />
		<tag k="ssr:stedsnr" v="220173" />
	</node>
	<node lat="63.11959722103287" lon="10.865911110747273" id="-35348">
		<tag k="name" v="Vass-Slættrena" />
		<tag k="place" v="locality" />
		<tag k="ssr:stedsnr" v="220280" />
	</node>
	<node lat="63.123541662263044" lon="10.881591664672353" id="-35349">
		<tag k="name" v="Setermyra" />
		<tag k="natural" v="wetland" />
		<tag k="ssr:stedsnr" v="220282" />
	</node>
	<node lat="63.340236110052885" lon="11.078488891574287" id="-35370">
		<tag k="alt_name" v="Vindsmyra" />
		<tag k="name" v="Vinsmyra" />
		<tag k="natural" v="wetland" />
		<tag k="ssr:stedsnr" v="255412" />
	</node>
	<node lat="63.21260555314756" lon="10.712705563327114" id="-35373">
		<tag k="historic" v="shieling" />
		<tag k="name" v="Kjøsnesvollen" />
		<tag k="place" v="locality" />
		<tag k="ssr:stedsnr" v="255708" />
	</node>
	<node lat="63.20009722279358" lon="11.497469445906301" id="-35377">
		<tag k="historic" v="shieling" />
		<tag k="name" v="Gamle Velvansvollen" />
		<tag k="place" v="locality" />
		<tag k="ssr:stedsnr" v="263207" />
	</node>
	<node lat="63.11368888610335" lon="11.045611111372406" id="-35378">
		<tag k="name" v="Blautkjølene" />
		<tag k="natural" v="wetland" />
		<tag k="ssr:stedsnr" v="263307" />
	</node>
	<node lat="63.24022500300026" lon="10.738113894250375" id="-35383">
		<tag k="name" v="Bekkroken" />
		<tag k="natural" v="wetland" />
		<tag k="ssr:stedsnr" v="459395" />
	</node>
	<node lat="63.245038887617774" lon="10.75326111403723" id="-35384">
		<tag k="name" v="Bjørgamyra" />
		<tag k="natural" v="wetland" />
		<tag k="ssr:stedsnr" v="459397" />
	</node>
	<node lat="63.29570277554332" lon="10.692544441454665" id="-35389">
		<tag k="name" v="Silderkjølen" />
		<tag k="natural" v="wetland" />
		<tag k="ssr:stedsnr" v="459452" />
	</node>
	<node lat="63.3342833304956" lon="11.145391667362512" id="-35391">
		<tag k="name" v="Kvammyra" />
		<tag k="natural" v="wetland" />
		<tag k="ssr:stedsnr" v="459626" />
	</node>
	<node lat="63.292919443353" lon="11.112594444099793" id="-35392">
		<tag k="name" v="Brennkjølen" />
		<tag k="natural" v="wetland" />
		<tag k="ssr:stedsnr" v="459628" />
	</node>
	<node lat="63.29243611159919" lon="11.104472225168406" id="-35393">
		<tag k="name" v="Bersvenmyra" />
		<tag k="natural" v="wetland" />
		<tag k="ssr:stedsnr" v="459631" />
	</node>
	<node lat="63.09868610912387" lon="10.940694439725672" id="-35394">
		<tag k="name" v="Langkjølen" />
		<tag k="natural" v="wetland" />
		<tag k="ssr:stedsnr" v="459483" />
	</node>
	<node lat="63.21872222324051" lon="11.168525006502966" id="-35395">
		<tag k="name" v="Stenslaget" />
		<tag k="place" v="locality" />
		<tag k="ssr:stedsnr" v="459582" />
	</node>
	<node lat="63.08011666580346" lon="11.030866660701225" id="-35396">
		<tag k="name" v="Nålbogsøyan" />
		<tag k="place" v="locality" />
		<tag k="ssr:stedsnr" v="459521" />
	</node>
	<node lat="63.13811388458512" lon="11.033511119503165" id="-35397">
		<tag k="name" v="Klevkjølen" />
		<tag k="natural" v="wetland" />
		<tag k="ssr:stedsnr" v="459525" />
	</node>
	<node lat="63.091749996361656" lon="11.320988894712613" id="-35402">
		<tag k="name" v="Måssåmyran" />
		<tag k="natural" v="wetland" />
		<tag k="ssr:stedsnr" v="459545" />
	</node>
	<node lat="63.170922219822046" lon="11.140522230745939" id="-35410">
		<tag k="name" v="Volløyan" />
		<tag k="place" v="locality" />
		<tag k="ssr:stedsnr" v="459751" />
	</node>
	<node lat="63.10620833149626" lon="11.401130558495767" id="-35412">
		<tag k="historic" v="shieling" />
		<tag k="name" v="Ner Geitvollen" />
		<tag k="place" v="locality" />
		<tag k="ssr:stedsnr" v="459756" />
	</node>
	<node lat="63.133147221969935" lon="11.094477769247636" id="-35413">
		<tag k="name" v="Hogsteren" />
		<tag k="place" v="locality" />
		<tag k="ssr:stedsnr" v="459785" />
	</node>
	<node lat="63.268163886967805" lon="11.099550003479395" id="-35414">
		<tag k="name" v="Hestmyra" />
		<tag k="natural" v="wetland" />
		<tag k="ssr:stedsnr" v="459815" />
	</node>
	<node lat="63.242855553709575" lon="10.741019442051211" id="-35416">
		<tag k="name" v="Litjgrubba" />
		<tag k="natural" v="wetland" />
		<tag k="ssr:stedsnr" v="277405" />
	</node>
	<node lat="63.254541662591" lon="10.685563894632788" id="-35423">
		<tag k="historic" v="shieling" />
		<tag k="name" v="Hånnåvollen" />
		<tag k="place" v="locality" />
		<tag k="ssr:stedsnr" v="277512" />
	</node>
	<node lat="63.250944441130414" lon="10.687094442775212" id="-35424">
		<tag k="historic" v="shieling" />
		<tag k="name" v="Gammelhånnåvollen" />
		<tag k="place" v="locality" />
		<tag k="ssr:stedsnr" v="277513" />
	</node>
	<node lat="63.10919166508468" lon="11.269572224498575" id="-35425">
		<tag k="name" v="Sandrommet" />
		<tag k="place" v="locality" />
		<tag k="ssr:stedsnr" v="277515" />
	</node>
	<node lat="63.18141111424782" lon="11.072013896151928" id="-35426">
		<tag k="name" v="Ner Rødmyra" />
		<tag k="natural" v="wetland" />
		<tag k="ssr:stedsnr" v="277524" />
	</node>
	<node lat="63.28383055705628" lon="11.196311105647535" id="-35429">
		<tag k="name" v="Høgkjølen" />
		<tag k="natural" v="wetland" />
		<tag k="ssr:stedsnr" v="277723" />
	</node>
	<node lat="63.22256389228643" lon="11.218538892277435" id="-35435">
		<tag k="name" v="Blekøyan" />
		<tag k="natural" v="wetland" />
		<tag k="ssr:stedsnr" v="277880" />
	</node>
	<node lat="63.31136111564508" lon="11.137097217445213" id="-35436">
		<tag k="name" v="Langmyra" />
		<tag k="natural" v="wetland" />
		<tag k="ssr:stedsnr" v="278114" />
	</node>
	<node lat="63.28421944638366" lon="11.115213885615939" id="-35439">
		<tag k="name" v="Kneppa" />
		<tag k="place" v="locality" />
		<tag k="ssr:stedsnr" v="278087" />
	</node>
	<node lat="63.2873277790732" lon="10.991574998378923" id="-35441">
		<tag k="name" v="Sandbergsøyan" />
		<tag k="natural" v="wetland" />
		<tag k="ssr:stedsnr" v="278204" />
	</node>
	<node lat="63.29724444144079" lon="11.00254166100343" id="-35443">
		<tag k="historic" v="shieling" />
		<tag k="name" v="Fosshøstvollen" />
		<tag k="place" v="locality" />
		<tag k="ssr:stedsnr" v="278213" />
	</node>
	<node lat="63.25286944856126" lon="11.036488888802149" id="-35444">
		<tag k="name" v="Løkmyra" />
		<tag k="natural" v="wetland" />
		<tag k="ssr:stedsnr" v="278172" />
	</node>
	<node lat="63.30138333079798" lon="11.028974994282208" id="-35461">
		<tag k="name" v="Storbekkøyan" />
		<tag k="natural" v="wetland" />
		<tag k="ssr:stedsnr" v="460226" />
	</node>
	<node lat="63.30008889232866" lon="11.022138893016107" id="-35462">
		<tag k="name" v="Østerkåsa" />
		<tag k="place" v="locality" />
		<tag k="ssr:stedsnr" v="460228" />
	</node>
	<node lat="63.22448055370273" lon="10.775836108436158" id="-35463">
		<tag k="name" v="Tangen" />
		<tag k="place" v="locality" />
		<tag k="ssr:stedsnr" v="279367" />
	</node>
	<node lat="63.23061111286815" lon="10.806122223806874" id="-35464">
		<tag k="name" v="Elgslemyra" />
		<tag k="natural" v="wetland" />
		<tag k="ssr:stedsnr" v="279385" />
	</node>
	<node lat="63.29839444527036" lon="10.673769452349278" id="-35467">
		<tag k="name" v="Sør-Botnan" />
		<tag k="natural" v="wetland" />
		<tag k="ssr:stedsnr" v="279603" />
	</node>
	<node lat="63.232047220885086" lon="11.069641659872618" id="-35468">
		<tag k="name" v="Damet" />
		<tag k="place" v="locality" />
		<tag k="ssr:stedsnr" v="460175" />
	</node>
	<node lat="63.086594440700736" lon="11.26417499592545" id="-35475">
		<tag k="name" v="Kjølen" />
		<tag k="natural" v="wetland" />
		<tag k="ssr:stedsnr" v="280210" />
	</node>
	<node lat="63.197730554444085" lon="10.94405555580426" id="-35477">
		<tag k="name" v="Masmoen" />
		<tag k="place" v="locality" />
		<tag k="ssr:stedsnr" v="280115" />
	</node>
	<node lat="63.155874965113895" lon="10.901833243131179" id="-35478">
		<tag k="name" v="Langmyra" />
		<tag k="natural" v="wetland" />
		<tag k="old_name" v="Langmyran" />
		<tag k="ssr:stedsnr" v="280184" />
	</node>
	<node lat="63.166513891784206" lon="11.104900005743122" id="-35480">
		<tag k="name" v="Stormyra" />
		<tag k="natural" v="wetland" />
		<tag k="ssr:stedsnr" v="280302" />
	</node>
	<node lat="63.08532500443994" lon="11.00909166423149" id="-35482">
		<tag k="name" v="Kvennarbeidet" />
		<tag k="place" v="locality" />
		<tag k="ssr:stedsnr" v="280273" />
	</node>
	<node lat="63.30525278088817" lon="11.09426111933731" id="-35484">
		<tag k="name" v="Trettmyra" />
		<tag k="natural" v="wetland" />
		<tag k="ssr:stedsnr" v="280276" />
	</node>
	<node lat="63.14273333593726" lon="11.100663882286108" id="-35486">
		<tag k="name" v="Bergslåttan" />
		<tag k="place" v="locality" />
		<tag k="ssr:stedsnr" v="280285" />
	</node>
	<node lat="63.20496110807959" lon="11.055622212819253" id="-35492">
		<tag k="name" v="Hoemsøya" />
		<tag k="place" v="locality" />
		<tag k="ssr:stedsnr" v="460394" />
	</node>
	<node lat="63.24834166730601" lon="10.93623889069858" id="-35500">
		<tag k="name" v="Fuglemsmoen" />
		<tag k="place" v="locality" />
		<tag k="ssr:stedsnr" v="281212" />
	</node>
	<node lat="63.191599999574244" lon="10.893916671569123" id="-35502">
		<tag k="name" v="Vallimarka" />
		<tag k="place" v="locality" />
		<tag k="ssr:stedsnr" v="281231" />
	</node>
	<node lat="63.171394444829644" lon="10.87370833013697" id="-35504">
		<tag k="name" v="Renådalmyran" />
		<tag k="natural" v="wetland" />
		<tag k="ssr:stedsnr" v="281120" />
	</node>
	<node lat="63.198352777842366" lon="10.9020972245488" id="-35506">
		<tag k="name" v="Skjøtskaffar-myra" />
		<tag k="natural" v="wetland" />
		<tag k="ssr:stedsnr" v="281186" />
	</node>
	<node lat="63.22565833474976" lon="10.783916675992364" id="-35514">
		<tag k="historic" v="shieling" />
		<tag k="name" v="Eggjaoddvollen" />
		<tag k="place" v="locality" />
		<tag k="ssr:stedsnr" v="461083" />
	</node>
	<node lat="63.1270833327889" lon="10.88871111371912" id="-35518">
		<tag k="name" v="Seterøyan" />
		<tag k="place" v="locality" />
		<tag k="ssr:stedsnr" v="462190" />
	</node>
	<node lat="63.23393055193406" lon="10.824619440169087" id="-35521">
		<tag k="name" v="Rødkjølen" />
		<tag k="natural" v="wetland" />
		<tag k="ssr:stedsnr" v="461377" />
	</node>
	<node lat="63.20781111194466" lon="10.833488897370506" id="-35522">
		<tag k="name" v="Brennåsmyran" />
		<tag k="natural" v="wetland" />
		<tag k="ssr:stedsnr" v="461390" />
	</node>
	<node lat="63.28022499968043" lon="10.808966675548696" id="-35523">
		<tag k="name" v="Storkjølen" />
		<tag k="natural" v="wetland" />
		<tag k="ssr:stedsnr" v="461400" />
	</node>
	<node lat="63.22263610688576" lon="10.85557777281455" id="-35525">
		<tag k="name" v="Svarttjennkjølen" />
		<tag k="natural" v="wetland" />
		<tag k="ssr:stedsnr" v="461281" />
	</node>
	<node lat="63.15516666494742" lon="10.944780551583463" id="-35527">
		<tag k="name" v="Neppågardsmyra" />
		<tag k="natural" v="wetland" />
		<tag k="ssr:stedsnr" v="461287" />
	</node>
	<node lat="63.09494166707747" lon="10.914466658476018" id="-35530">
		<tag k="name" v="Veltet" />
		<tag k="place" v="locality" />
		<tag k="ssr:stedsnr" v="461445" />
	</node>
	<node lat="63.27498611528287" lon="11.232780564138125" id="-35535">
		<tag k="historic" v="shieling" />
		<tag k="name" v="Puttvollen" />
		<tag k="place" v="locality" />
		<tag k="ssr:stedsnr" v="461489" />
	</node>
	<node lat="63.30824999805775" lon="10.937824993512216" id="-35536">
		<tag k="name" v="Viskogsmyra" />
		<tag k="natural" v="wetland" />
		<tag k="ssr:stedsnr" v="461551" />
	</node>
	<node lat="63.206602779612815" lon="11.038769453193305" id="-35537">
		<tag k="name" v="Fætta" />
		<tag k="place" v="locality" />
		<tag k="ssr:stedsnr" v="461556" />
	</node>
	<node lat="63.18746111300955" lon="10.877911116515985" id="-35548">
		<tag k="name" v="Kjøsnesøyan" />
		<tag k="place" v="locality" />
		<tag k="ssr:stedsnr" v="462133" />
	</node>
	<node lat="63.20692499640951" lon="11.476677767612125" id="-35549">
		<tag k="name" v="Kalvskinnfloan" />
		<tag k="natural" v="wetland" />
		<tag k="ssr:stedsnr" v="462253" />
	</node>
	<node lat="63.23472222546386" lon="10.755530559557133" id="-35569">
		<tag k="name" v="Ystermyra" />
		<tag k="natural" v="wetland" />
		<tag k="ssr:stedsnr" v="462691" />
	</node>
	<node lat="63.211588891527306" lon="10.91762778744623" id="-35570">
		<tag k="name" v="Kolvikmyra" />
		<tag k="natural" v="wetland" />
		<tag k="ssr:stedsnr" v="462695" />
	</node>
	<node lat="63.16629444751938" lon="10.864230561983168" id="-35575">
		<tag k="name" v="Stormyra" />
		<tag k="natural" v="wetland" />
		<tag k="ssr:stedsnr" v="463192" />
	</node>
	<node lat="63.22333055118201" lon="11.218563892266552" id="-35599">
		<tag k="name" v="Hokjølen" />
		<tag k="natural" v="wetland" />
		<tag k="ssr:stedsnr" v="324274" />
	</node>
	<node lat="63.11054166767669" lon="11.19606110943294" id="-35601">
		<tag k="historic" v="shieling" />
		<tag k="name" v="Råndalsvollen" />
		<tag k="place" v="locality" />
		<tag k="ssr:stedsnr" v="324316" />
	</node>
	<node lat="63.28645833632699" lon="10.790347216811185" id="-35604">
		<tag k="name" v="Viskogmyrin" />
		<tag k="natural" v="wetland" />
		<tag k="ssr:stedsnr" v="337497" />
	</node>
	<node lat="63.128477774303505" lon="11.09461111167098" id="-35613">
		<tag k="name" v="Stormyra" />
		<tag k="natural" v="wetland" />
		<tag k="ssr:stedsnr" v="337793" />
	</node>
	<node lat="63.231275002730165" lon="11.156730563574431" id="-35616">
		<tag k="name" v="Hersjøkjølen" />
		<tag k="natural" v="wetland" />
		<tag k="ssr:stedsnr" v="338044" />
	</node>
	<node lat="63.11154444493846" lon="10.979233342150385" id="-35618">
		<tag k="name" v="Langsynda" />
		<tag k="place" v="locality" />
		<tag k="ssr:stedsnr" v="338244" />
	</node>
	<node lat="63.25318055799191" lon="11.17149722695332" id="-35623">
		<tag k="name" v="Hogstran" />
		<tag k="place" v="locality" />
		<tag k="ssr:stedsnr" v="338600" />
	</node>
	<node lat="63.29712778178204" lon="11.101808342695906" id="-35627">
		<tag k="name" v="Langkåsen" />
		<tag k="place" v="locality" />
		<tag k="ssr:stedsnr" v="338715" />
	</node>
	<node lat="63.31661944039526" lon="11.16080277831946" id="-35628">
		<tag k="name" v="Langsetstykka" />
		<tag k="place" v="locality" />
		<tag k="ssr:stedsnr" v="338617" />
	</node>
	<node lat="63.20191944467492" lon="11.125894451946651" id="-35629">
		<tag k="name" v="Kallar" />
		<tag k="place" v="locality" />
		<tag k="ssr:stedsnr" v="338630" />
	</node>
	<node lat="63.30830555671216" lon="11.161508330591628" id="-35630">
		<tag k="name" v="Raukjølen" />
		<tag k="natural" v="wetland" />
		<tag k="ssr:stedsnr" v="339115" />
	</node>
	<node lat="63.25038055836309" lon="10.767919436707682" id="-35634">
		<tag k="name" v="Okstadåsmoen" />
		<tag k="place" v="locality" />
		<tag k="ssr:stedsnr" v="340106" />
	</node>
	<node lat="63.27671388827228" lon="10.810305558564309" id="-35635">
		<tag k="name" v="Håggåslåtten" />
		<tag k="natural" v="wetland" />
		<tag k="ssr:stedsnr" v="340113" />
	</node>
	<node lat="63.30249444698809" lon="11.053511102724983" id="-35638">
		<tag k="name" v="Karenaslettet" />
		<tag k="natural" v="wetland" />
		<tag k="ssr:stedsnr" v="340354" />
	</node>
	<node lat="63.28175833667357" lon="11.113980559535714" id="-35641">
		<tag k="name" v="Slåtten" />
		<tag k="place" v="locality" />
		<tag k="ssr:stedsnr" v="340524" />
	</node>
	<node lat="63.21654166288491" lon="11.005008342369276" id="-35647">
		<tag k="name" v="Storøya" />
		<tag k="place" v="locality" />
		<tag k="ssr:stedsnr" v="340558" />
	</node>
	<node lat="63.24026110900213" lon="10.799919453955583" id="-35659">
		<tag k="name" v="Kjerringmyra" />
		<tag k="natural" v="wetland" />
		<tag k="ssr:stedsnr" v="340443" />
	</node>
	<node lat="63.174341669844054" lon="10.926316664748187" id="-35670">
		<tag k="name" v="Rødprikkmyra" />
		<tag k="natural" v="wetland" />
		<tag k="ssr:stedsnr" v="341153" />
	</node>
	<node lat="63.2861611093889" lon="10.845411103063924" id="-35671">
		<tag k="name" v="Litjkleva" />
		<tag k="place" v="locality" />
		<tag k="ssr:stedsnr" v="341159" />
	</node>
	<node lat="63.204899999276485" lon="10.942502774331668" id="-35672">
		<tag k="name" v="Håmmår" />
		<tag k="place" v="locality" />
		<tag k="ssr:stedsnr" v="341193" />
	</node>
	<node lat="63.15401944200657" lon="11.012458338352737" id="-35673">
		<tag k="name" v="Kringelmyra" />
		<tag k="natural" v="wetland" />
		<tag k="ssr:stedsnr" v="341314" />
	</node>
	<node lat="63.280399998906766" lon="10.961891659390112" id="-35675">
		<tag k="name" v="Storkleva" />
		<tag k="place" v="locality" />
		<tag k="ssr:stedsnr" v="341253" />
	</node>
	<node lat="63.196891667574874" lon="11.302880557023583" id="-35686">
		<tag k="historic" v="shieling" />
		<tag k="name" v="Bårdsgardsvollen" />
		<tag k="place" v="locality" />
		<tag k="ssr:stedsnr" v="384203" />
	</node>
	<node lat="63.20903055398711" lon="11.271180551532098" id="-35687">
		<tag k="name" v="Tyskkjølen" />
		<tag k="natural" v="wetland" />
		<tag k="ssr:stedsnr" v="384209" />
	</node>
	<node lat="63.20804999771407" lon="11.269980548502316" id="-35692">
		<tag k="name" v="Tyskkjølen" />
		<tag k="natural" v="wetland" />
		<tag k="ssr:stedsnr" v="398577" />
	</node>
	<node lat="63.246363887608126" lon="11.10872222371317" id="-35694">
		<tag k="name" v="Damet" />
		<tag k="place" v="locality" />
		<tag k="ssr:stedsnr" v="398591" />
	</node>
	<node lat="63.326083337770534" lon="11.156383330749886" id="-35702">
		<tag k="name" v="Langkjølen" />
		<tag k="natural" v="wetland" />
		<tag k="ssr:stedsnr" v="398691" />
	</node>
	<node lat="63.1299638876581" lon="11.312522225698062" id="-35704">
		<tag k="name" v="Rypmyra" />
		<tag k="natural" v="wetland" />
		<tag k="ssr:stedsnr" v="398700" />
	</node>
	<node lat="63.08728888589184" lon="11.070969436499931" id="-35705">
		<tag k="name" v="Storøyan" />
		<tag k="place" v="locality" />
		<tag k="ssr:stedsnr" v="398828" />
	</node>
	<node lat="63.17912500414308" lon="11.086008328149665" id="-35706">
		<tag k="historic" v="shieling" />
		<tag k="name" v="Gammelvollen" />
		<tag k="place" v="locality" />
		<tag k="ssr:stedsnr" v="398781" />
	</node>
	<node lat="63.31014167080135" lon="11.11149445130511" id="-35710">
		<tag k="historic" v="shieling" />
		<tag k="name" v="Staupvollen" />
		<tag k="place" v="locality" />
		<tag k="ssr:stedsnr" v="399086" />
	</node>
	<node lat="63.27760833178799" lon="11.154777774843716" id="-35711">
		<tag k="name" v="Skyss-Skafferholet" />
		<tag k="place" v="locality" />
		<tag k="ssr:stedsnr" v="399095" />
	</node>
	<node lat="63.25416110704865" lon="11.089841665451843" id="-35713">
		<tag k="name" v="Øymoen" />
		<tag k="place" v="locality" />
		<tag k="ssr:stedsnr" v="399176" />
	</node>
	<node lat="63.17506944224423" lon="11.086455559767641" id="-35716">
		<tag k="name" v="Kjerringøyan" />
		<tag k="place" v="locality" />
		<tag k="ssr:stedsnr" v="399384" />
	</node>
	<node lat="63.15838611124254" lon="11.09515832919755" id="-35718">
		<tag k="name" v="Storøyan" />
		<tag k="place" v="locality" />
		<tag k="ssr:stedsnr" v="399394" />
	</node>
	<node lat="63.28799722208462" lon="10.742599999259301" id="-35727">
		<tag k="name" v="Hundholet" />
		<tag k="place" v="locality" />
		<tag k="ssr:stedsnr" v="400403" />
	</node>
	<node lat="63.27708055518448" lon="10.686533332507521" id="-35738">
		<tag k="name" v="Storbergmyra" />
		<tag k="natural" v="wetland" />
		<tag k="ssr:stedsnr" v="401079" />
	</node>
	<node lat="63.15744444498172" lon="10.916422231051907" id="-35739">
		<tag k="name" v="Oksbrua" />
		<tag k="place" v="locality" />
		<tag k="ssr:stedsnr" v="401291" />
	</node>
	<node lat="63.26733888784838" lon="11.10169166614799" id="-35747">
		<tag k="name" v="Kringlåsmyra" />
		<tag k="natural" v="wetland" />
		<tag k="ssr:stedsnr" v="401525" />
	</node>
	<node lat="63.295388889209796" lon="10.701452781479997" id="-35749">
		<tag k="name" v="Kringlåtmyra" />
		<tag k="natural" v="wetland" />
		<tag k="ssr:stedsnr" v="401577" />
	</node>
	<node lat="63.2868944449899" lon="10.636108335305488" id="-35750">
		<tag k="name" v="Bjørkomkjølen" />
		<tag k="natural" v="wetland" />
		<tag k="ssr:stedsnr" v="401578" />
	</node>
	<node lat="63.33588055359389" lon="11.028272221109523" id="-35754">
		<tag k="name" v="Nålmyra" />
		<tag k="natural" v="wetland" />
		<tag k="ssr:stedsnr" v="401492" />
	</node>
	<node lat="63.11528332913966" lon="10.917608342204748" id="-35757">
		<tag k="name" v="Farmannøyan" />
		<tag k="place" v="locality" />
		<tag k="ssr:stedsnr" v="402125" />
	</node>
	<node lat="63.19779999805677" lon="10.894388896664925" id="-35761">
		<tag k="name" v="Rødkjølen" />
		<tag k="natural" v="wetland" />
		<tag k="ssr:stedsnr" v="402191" />
	</node>
	<node lat="63.15460277752536" lon="11.027555558808073" id="-35762">
		<tag k="name" v="Klesetmarka" />
		<tag k="place" v="locality" />
		<tag k="ssr:stedsnr" v="402310" />
	</node>
	<node lat="63.08394444588175" lon="11.314780554925305" id="-35770">
		<tag k="historic" v="shieling" />
		<tag k="name" v="Nesåsvollen" />
		<tag k="place" v="locality" />
		<tag k="ssr:stedsnr" v="437307" />
	</node>
	<node lat="63.288827778105365" lon="10.659316663267552" id="-35781">
		<tag k="name" v="Strindbekkøyan" />
		<tag k="place" v="locality" />
		<tag k="ssr:stedsnr" v="459458" />
	</node>
	<node lat="63.28436388658269" lon="10.670191671775518" id="-35782">
		<tag k="name" v="Terja" />
		<tag k="natural" v="wetland" />
		<tag k="ssr:stedsnr" v="459460" />
	</node>
	<node lat="63.28122222000491" lon="11.107791658179554" id="-35785">
		<tag k="name" v="Myrmannkjølen" />
		<tag k="natural" v="wetland" />
		<tag k="ssr:stedsnr" v="459610" />
	</node>
	<node lat="63.239391670580076" lon="11.138572224864319" id="-35786">
		<tag k="name" v="Blyslåtten" />
		<tag k="place" v="locality" />
		<tag k="ssr:stedsnr" v="459625" />
	</node>
	<node lat="63.21809721857512" lon="11.14520833389689" id="-35788">
		<tag k="historic" v="shieling" />
		<tag k="name" v="Bukkvollen" />
		<tag k="place" v="locality" />
		<tag k="ssr:stedsnr" v="459677" />
	</node>
	<node lat="63.23618610864348" lon="11.192002780422273" id="-35789">
		<tag k="name" v="Litjmyra" />
		<tag k="natural" v="wetland" />
		<tag k="ssr:stedsnr" v="459565" />
	</node>
	<node lat="63.21096389321229" lon="11.142822230474533" id="-35791">
		<tag k="name" v="Langmyra" />
		<tag k="natural" v="wetland" />
		<tag k="ssr:stedsnr" v="459579" />
	</node>
	<node lat="63.32511666420175" lon="11.165230558109972" id="-35793">
		<tag k="landuse" v="meadow" />
		<tag k="name" v="Ludduslåtten" />
		<tag k="ssr:stedsnr" v="459718" />
	</node>
	<node lat="63.098236113513366" lon="11.089941664817408" id="-35795">
		<tag k="name" v="Ratåtøyan" />
		<tag k="place" v="locality" />
		<tag k="ssr:stedsnr" v="459803" />
	</node>
	<node lat="63.22038055198615" lon="11.204913879493983" id="-35798">
		<tag k="historic" v="shieling" />
		<tag k="name" v="Hersjøvollen" />
		<tag k="place" v="locality" />
		<tag k="ssr:stedsnr" v="459880" />
	</node>
	<node lat="63.20370555839176" lon="11.199377771579606" id="-35799">
		<tag k="name" v="Bønntrøa" />
		<tag k="place" v="locality" />
		<tag k="ssr:stedsnr" v="459882" />
	</node>
	<node lat="63.24080555850709" lon="11.124344449974258" id="-35803">
		<tag k="name" v="Hestmyra" />
		<tag k="natural" v="wetland" />
		<tag k="ssr:stedsnr" v="460063" />
	</node>
	<node lat="63.3297972177953" lon="11.010330558737577" id="-35804">
		<tag k="name" v="Vidjeskogan" />
		<tag k="place" v="locality" />
		<tag k="ssr:stedsnr" v="460212" />
	</node>
	<node lat="63.24912500207048" lon="11.033330546818194" id="-35805">
		<tag k="name" v="Rønningen" />
		<tag k="place" v="locality" />
		<tag k="ssr:stedsnr" v="460215" />
	</node>
	<node lat="63.18828333752487" lon="11.391547213426511" id="-35809">
		<tag k="name" v="Floan" />
		<tag k="natural" v="wetland" />
		<tag k="ssr:stedsnr" v="460917" />
	</node>
	<node lat="63.2922111131868" lon="10.677413889174826" id="-35822">
		<tag k="name" v="Bjørnmyra" />
		<tag k="natural" v="wetland" />
		<tag k="ssr:stedsnr" v="461604" />
	</node>
	<node lat="63.19530833252569" lon="11.078452780179859" id="-35823">
		<tag k="name" v="Evjøyan" />
		<tag k="place" v="locality" />
		<tag k="ssr:stedsnr" v="461539" />
	</node>
	<node lat="63.21085277850994" lon="11.026713889707425" id="-35827">
		<tag k="name" v="Hovsengan" />
		<tag k="place" v="locality" />
		<tag k="ssr:stedsnr" v="462260" />
	</node>
	<node lat="63.26384444293716" lon="10.931283336751298" id="-35830">
		<tag k="name" v="Grautmyran" />
		<tag k="natural" v="wetland" />
		<tag k="ssr:stedsnr" v="462272" />
	</node>
	<node lat="63.209216664980616" lon="10.876258333984552" id="-35832">
		<tag k="name" v="Trettholet" />
		<tag k="place" v="locality" />
		<tag k="ssr:stedsnr" v="462158" />
	</node>
	<node lat="63.20858610741973" lon="10.90031110116705" id="-35833">
		<tag k="name" v="Saukjølen" />
		<tag k="natural" v="wetland" />
		<tag k="ssr:stedsnr" v="462161" />
	</node>
	<node lat="63.27528333173855" lon="10.72318889795676" id="-35840">
		<tag k="name" v="Varmdalsbjørga" />
		<tag k="place" v="locality" />
		<tag k="ssr:stedsnr" v="462703" />
	</node>
	<node lat="63.182561108979826" lon="11.031202785349352" id="-35847">
		<tag k="name" v="Klesetmarka" />
		<tag k="place" v="locality" />
		<tag k="ssr:stedsnr" v="463271" />
	</node>
	<node lat="63.11193895993515" lon="10.941416772997453" id="-35871">
		<tag k="historic" v="shieling" />
		<tag k="name" v="Gallivollen" />
		<tag k="place" v="locality" />
		<tag k="ssr:stedsnr" v="680169" />
	</node>
	<node lat="63.21389444542244" lon="11.247686114884644" id="-35923">
		<tag k="historic" v="shieling" />
		<tag k="name" v="Marstadvollen" />
		<tag k="place" v="locality" />
		<tag k="ssr:stedsnr" v="506262" />
	</node>
	<node lat="63.17189166766767" lon="11.318219436791862" id="-35927">
		<tag k="name" v="Bjørkamarka" />
		<tag k="place" v="locality" />
		<tag k="ssr:stedsnr" v="519761" />
	</node>
	<node lat="63.283049997599974" lon="10.697972228871308" id="-35941">
		<tag k="name" v="Trøslætthalla" />
		<tag k="place" v="locality" />
		<tag k="ssr:stedsnr" v="520503" />
	</node>
	<node lat="63.11070277395081" lon="11.319933325572046" id="-35943">
		<tag k="name" v="Smedvelta" />
		<tag k="place" v="locality" />
		<tag k="ssr:stedsnr" v="520575" />
	</node>
	<node lat="63.2037388898393" lon="11.100913888587693" id="-35944">
		<tag k="name" v="Suhrlandsøya" />
		<tag k="place" v="locality" />
		<tag k="ssr:stedsnr" v="520672" />
	</node>
	<node lat="63.30891944732912" lon="11.250997231164595" id="-35945">
		<tag k="name" v="Storkjølen" />
		<tag k="natural" v="wetland" />
		<tag k="ssr:stedsnr" v="520770" />
	</node>
	<node lat="63.217830555816235" lon="11.21022223007773" id="-35946">
		<tag k="name" v="Grimsmyra" />
		<tag k="natural" v="wetland" />
		<tag k="ssr:stedsnr" v="520902" />
	</node>
	<node lat="63.26923333407628" lon="11.10191111195609" id="-35947">
		<tag k="name" v="Duvedskansen" />
		<tag k="place" v="locality" />
		<tag k="ssr:stedsnr" v="521061" />
	</node>
	<node lat="63.29843611319025" lon="11.108108332804186" id="-35948">
		<tag k="name" v="Hestvendmyra" />
		<tag k="natural" v="wetland" />
		<tag k="ssr:stedsnr" v="521076" />
	</node>
	<node lat="63.30034999636307" lon="10.864066669483302" id="-35953">
		<tag k="historic" v="shieling" />
		<tag k="name" v="Dalvollen" />
		<tag k="place" v="locality" />
		<tag k="ssr:stedsnr" v="521265" />
	</node>
	<node lat="63.208275001303875" lon="11.072277783251659" id="-35955">
		<tag k="name" v="Røsset" />
		<tag k="place" v="locality" />
		<tag k="ssr:stedsnr" v="521513" />
	</node>
	<node lat="63.30222777481757" lon="10.871633342531604" id="-35956">
		<tag k="name" v="Storkjølen" />
		<tag k="natural" v="wetland" />
		<tag k="ssr:stedsnr" v="521723" />
	</node>
	<node lat="63.29039444288235" lon="10.91818054775446" id="-35957">
		<tag k="historic" v="shieling" />
		<tag k="name" v="Grøtemsvollen" />
		<tag k="place" v="locality" />
		<tag k="ssr:stedsnr" v="521728" />
	</node>
	<node lat="63.219238893069964" lon="11.262391673882309" id="-35963">
		<tag k="name" v="Storgrana" />
		<tag k="place" v="locality" />
		<tag k="ssr:stedsnr" v="521981" />
	</node>
	<node lat="63.14602222363686" lon="11.261897220123103" id="-35968">
		<tag k="name" v="Kufloan" />
		<tag k="natural" v="wetland" />
		<tag k="ssr:stedsnr" v="522275" />
	</node>
	<node lat="63.22048888803045" lon="10.769077772842204" id="-35971">
		<tag k="name" v="Tangkjølen" />
		<tag k="natural" v="wetland" />
		<tag k="ssr:stedsnr" v="522371" />
	</node>
	<node lat="63.29921944100557" lon="10.79857499548713" id="-35973">
		<tag k="name" v="Brennmyra" />
		<tag k="natural" v="wetland" />
		<tag k="ssr:stedsnr" v="522408" />
	</node>
	<node lat="63.11570833234428" lon="11.376238885064614" id="-35977">
		<tag k="name" v="Bardomyran" />
		<tag k="natural" v="wetland" />
		<tag k="ssr:stedsnr" v="522613" />
	</node>
	<node lat="63.292844443951424" lon="11.032872216363266" id="-35982">
		<tag k="name" v="Skrabbkjølan" />
		<tag k="natural" v="wetland" />
		<tag k="ssr:stedsnr" v="523408" />
	</node>
	<node lat="63.295194441913544" lon="11.026222227505118" id="-35983">
		<tag k="name" v="Litjkjølen" />
		<tag k="natural" v="wetland" />
		<tag k="ssr:stedsnr" v="523427" />
	</node>
	<node lat="63.29113055579053" lon="11.02625278006581" id="-35984">
		<tag k="name" v="Rota" />
		<tag k="place" v="locality" />
		<tag k="ssr:stedsnr" v="523429" />
	</node>
	<node lat="63.07061944855177" lon="11.251491662105328" id="-35985">
		<tag k="historic" v="shieling" />
		<tag k="name" v="Litjvollen" />
		<tag k="place" v="locality" />
		<tag k="ssr:stedsnr" v="523436" />
	</node>
	<node lat="63.12563333694748" lon="11.29215277725349" id="-36015">
		<tag k="name" v="Ståggåmyrin" />
		<tag k="natural" v="wetland" />
		<tag k="old_name" v="Ståggåmyran" />
		<tag k="ssr:stedsnr" v="558259" />
	</node>
	<node lat="63.12541944759474" lon="11.22100277314657" id="-36022">
		<tag k="name" v="Råndalsmyrin" />
		<tag k="natural" v="wetland" />
		<tag k="ssr:stedsnr" v="566229" />
	</node>
	<node lat="63.17252777416972" lon="11.214755565072661" id="-36031">
		<tag k="name" v="Storstein" />
		<tag k="place" v="locality" />
		<tag k="ssr:stedsnr" v="580750" />
	</node>
	<node lat="63.274419444742875" lon="11.098747214467437" id="-36036">
		<tag k="name" v="Bærmyra" />
		<tag k="natural" v="wetland" />
		<tag k="ssr:stedsnr" v="580809" />
	</node>
	<node lat="63.102283330478244" lon="11.112430553636246" id="-36045">
		<tag k="name" v="Spellmyrkjølen" />
		<tag k="natural" v="wetland" />
		<tag k="ssr:stedsnr" v="581250" />
	</node>
	<node lat="63.20109444120377" lon="10.840747230471642" id="-36055">
		<tag k="name" v="Kneppa" />
		<tag k="place" v="locality" />
		<tag k="ssr:stedsnr" v="582092" />
	</node>
	<node lat="63.15837222558007" lon="10.915477779072885" id="-36064">
		<tag k="name" v="Trillåmyrkjølen" />
		<tag k="natural" v="wetland" />
		<tag k="ssr:stedsnr" v="582459" />
	</node>
	<node lat="63.22031666731867" lon="10.863261104504364" id="-36075">
		<tag k="name" v="Hallvardsmyra" />
		<tag k="natural" v="wetland" />
		<tag k="ssr:stedsnr" v="583139" />
	</node>
	<node lat="63.3048472191512" lon="11.03870555796726" id="-36077">
		<tag k="historic" v="shieling" />
		<tag k="name" v="Setsåshøstvollen" />
		<tag k="place" v="locality" />
		<tag k="ssr:stedsnr" v="583302" />
	</node>
	<node lat="63.324300003739616" lon="11.012386103635105" id="-36080">
		<tag k="name" v="Bergvollen" />
		<tag k="place" v="locality" />
		<tag k="ssr:stedsnr" v="583401" />
	</node>
	<node lat="63.30839444652604" lon="11.100813886237308" id="-36083">
		<tag k="name" v="Haldomyra" />
		<tag k="natural" v="wetland" />
		<tag k="ssr:stedsnr" v="583489" />
	</node>
	<node lat="63.19758610888359" lon="11.072561103403954" id="-36092">
		<tag k="name" v="Neset" />
		<tag k="place" v="locality" />
		<tag k="ssr:stedsnr" v="584301" />
	</node>
	<node lat="63.30061944560124" lon="10.843222227291863" id="-36095">
		<tag k="name" v="Brennmyra" />
		<tag k="natural" v="wetland" />
		<tag k="ssr:stedsnr" v="593108" />
	</node>
	<node lat="63.33039444183768" lon="11.028616658598857" id="-36113">
		<tag k="name" v="Korsmyra" />
		<tag k="natural" v="wetland" />
		<tag k="ssr:stedsnr" v="619374" />
	</node>
	<node lat="63.2227611118809" lon="10.781569446066761" id="-36120">
		<tag k="name" v="Rødkjølen" />
		<tag k="natural" v="wetland" />
		<tag k="ssr:stedsnr" v="702396" />
	</node>
	<node lat="63.285463891969826" lon="10.659661116573883" id="-36121">
		<tag k="name" v="Raudmyra" />
		<tag k="natural" v="wetland" />
		<tag k="ssr:stedsnr" v="702480" />
	</node>
	<node lat="63.25475277496649" lon="11.115580550040658" id="-36123">
		<tag k="name" v="Litjbjørga" />
		<tag k="place" v="locality" />
		<tag k="ssr:stedsnr" v="702589" />
	</node>
	<node lat="63.25784999836028" lon="11.11556111743876" id="-36124">
		<tag k="name" v="Sagmyra" />
		<tag k="natural" v="wetland" />
		<tag k="ssr:stedsnr" v="702598" />
	</node>
	<node lat="63.20567777565135" lon="11.30623333541246" id="-36125">
		<tag k="name" v="Storskogan" />
		<tag k="place" v="locality" />
		<tag k="ssr:stedsnr" v="702656" />
	</node>
	<node lat="63.26994166499398" lon="11.154794436612049" id="-36128">
		<tag k="name" v="Halla" />
		<tag k="place" v="locality" />
		<tag k="ssr:stedsnr" v="702694" />
	</node>
	<node lat="63.246697219839675" lon="11.326313890364025" id="-36130">
		<tag k="name" v="Floan" />
		<tag k="natural" v="wetland" />
		<tag k="ssr:stedsnr" v="702841" />
	</node>
	<node lat="63.31995833383262" lon="11.143047229701299" id="-36131">
		<tag k="name" v="Nervollbjørga" />
		<tag k="place" v="locality" />
		<tag k="ssr:stedsnr" v="702852" />
	</node>
	<node lat="63.322627779614486" lon="11.165038893928344" id="-36139">
		<tag k="name" v="Storånvasskjølen" />
		<tag k="natural" v="wetland" />
		<tag k="ssr:stedsnr" v="703093" />
	</node>
	<node lat="63.333916663825356" lon="10.998061118849067" id="-36149">
		<tag k="name" v="Brentoppen" />
		<tag k="place" v="locality" />
		<tag k="ssr:stedsnr" v="703178" />
	</node>
	<node lat="63.13152222256017" lon="11.163847212973712" id="-36151">
		<tag k="name" v="Høgslåtten" />
		<tag k="place" v="locality" />
		<tag k="ssr:stedsnr" v="703265" />
	</node>
	<node lat="63.15436110762397" lon="11.094719437502292" id="-36152">
		<tag k="name" v="Gammelvollbjørga" />
		<tag k="place" v="locality" />
		<tag k="ssr:stedsnr" v="703395" />
	</node>
	<node lat="63.14945555598165" lon="11.248936116926703" id="-36156">
		<tag k="historic" v="shieling" />
		<tag k="name" v="Øråsvollen" />
		<tag k="place" v="locality" />
		<tag k="ssr:stedsnr" v="703947" />
	</node>
	<node lat="63.22018611108086" lon="11.254691676282759" id="-36160">
		<tag k="name" v="Hoemkjølen" />
		<tag k="natural" v="wetland" />
		<tag k="ssr:stedsnr" v="703985" />
	</node>
	<node lat="63.243183330881656" lon="10.775919440439889" id="-36168">
		<tag k="name" v="Gudbrandkjølen" />
		<tag k="natural" v="wetland" />
		<tag k="ssr:stedsnr" v="704387" />
	</node>
	<node lat="63.237474999047485" lon="10.717872225011545" id="-36170">
		<tag k="name" v="Åsdalsbrettet" />
		<tag k="place" v="locality" />
		<tag k="ssr:stedsnr" v="704350" />
	</node>
	<node lat="63.20851388614175" lon="10.820313896852953" id="-36171">
		<tag k="historic" v="shieling" />
		<tag k="name" v="Håmmårvårvollen" />
		<tag k="place" v="locality" />
		<tag k="ssr:stedsnr" v="704357" />
	</node>
	<node lat="63.07955000444214" lon="10.947519439396153" id="-36174">
		<tag k="name" v="Råvollmyran" />
		<tag k="natural" v="wetland" />
		<tag k="ssr:stedsnr" v="704425" />
	</node>
	<node lat="63.09291666546754" lon="10.940041661450332" id="-36175">
		<tag k="name" v="Vadøyan" />
		<tag k="natural" v="wetland" />
		<tag k="ssr:stedsnr" v="704429" />
	</node>
	<node lat="63.12701944483221" lon="10.874177783660919" id="-36178">
		<tag k="historic" v="shieling" />
		<tag k="name" v="Liavollen" />
		<tag k="place" v="locality" />
		<tag k="ssr:stedsnr" v="704437" />
	</node>
	<node lat="63.24856388635599" lon="11.22747222976513" id="-36179">
		<tag k="name" v="Fagerbjørga" />
		<tag k="place" v="locality" />
		<tag k="ssr:stedsnr" v="704454" />
	</node>
	<node lat="63.197588890324496" lon="11.234552769818801" id="-36181">
		<tag k="name" v="Lundebjørga" />
		<tag k="place" v="locality" />
		<tag k="ssr:stedsnr" v="704401" />
	</node>
	<node lat="63.2280416690769" lon="10.679422218503326" id="-36186">
		<tag k="name" v="Grubban" />
		<tag k="place" v="locality" />
		<tag k="ssr:stedsnr" v="704534" />
	</node>
	<node lat="63.279444443482994" lon="10.684308326468543" id="-36187">
		<tag k="name" v="Korsen" />
		<tag k="place" v="locality" />
		<tag k="ssr:stedsnr" v="704542" />
	</node>
	<node lat="63.26149999807117" lon="10.909938896789043" id="-36189">
		<tag k="name" v="Storbrennan" />
		<tag k="place" v="locality" />
		<tag k="ssr:stedsnr" v="704690" />
	</node>
	<node lat="63.247572218045946" lon="10.767661115614747" id="-36195">
		<tag k="name" v="Furuegga" />
		<tag k="place" v="locality" />
		<tag k="ssr:stedsnr" v="705086" />
	</node>
	<node lat="63.12304444725464" lon="10.906874996743674" id="-36197">
		<tag k="name" v="Hånnåkmyra" />
		<tag k="natural" v="wetland" />
		<tag k="ssr:stedsnr" v="705142" />
	</node>
	<node lat="63.18434722590311" lon="10.932905551929725" id="-36201">
		<tag k="name" v="Domvollan" />
		<tag k="place" v="locality" />
		<tag k="ssr:stedsnr" v="705235" />
	</node>
	<node lat="63.1988111096985" lon="10.869797228140516" id="-36202">
		<tag k="name" v="Tømmermyra" />
		<tag k="natural" v="wetland" />
		<tag k="ssr:stedsnr" v="705265" />
	</node>
	<node lat="63.20253333077951" lon="10.888522220360963" id="-36203">
		<tag k="name" v="Rundmyra" />
		<tag k="natural" v="wetland" />
		<tag k="ssr:stedsnr" v="705266" />
	</node>
	<node lat="63.20440278001575" lon="10.89251389266379" id="-36204">
		<tag k="name" v="Vallimarka" />
		<tag k="place" v="locality" />
		<tag k="ssr:stedsnr" v="705268" />
	</node>
	<node lat="63.22489444466977" lon="11.052075007300516" id="-36206">
		<tag k="name" v="Stormyra" />
		<tag k="natural" v="wetland" />
		<tag k="ssr:stedsnr" v="705286" />
	</node>
	<node lat="63.21105278076268" lon="11.036369435918017" id="-36207">
		<tag k="name" v="Hovsengan" />
		<tag k="place" v="locality" />
		<tag k="ssr:stedsnr" v="705322" />
	</node>
	<node lat="63.20624166624931" lon="11.493666657954316" id="-36208">
		<tag k="name" v="Hommelfussen" />
		<tag k="place" v="locality" />
		<tag k="ssr:stedsnr" v="705323" />
	</node>
	<node lat="63.127983331457465" lon="10.904752775083448" id="-36211">
		<tag k="name" v="Morsetgjardøyan" />
		<tag k="place" v="locality" />
		<tag k="ssr:stedsnr" v="705348" />
	</node>
	<node lat="63.310769441498664" lon="11.067622228912969" id="-36222">
		<tag k="name" v="Hundhengja" />
		<tag k="place" v="locality" />
		<tag k="ssr:stedsnr" v="705554" />
	</node>
	<node lat="63.160205553978514" lon="11.062927785782602" id="-36234">
		<tag k="name" v="Stakkholet" />
		<tag k="place" v="locality" />
		<tag k="ssr:stedsnr" v="640830" />
	</node>
	<node lat="63.13107222422783" lon="11.119525000130494" id="-36239">
		<tag k="historic" v="shieling" />
		<tag k="name" v="Andersvollen" />
		<tag k="place" v="locality" />
		<tag k="ssr:stedsnr" v="640784" />
	</node>
	<node lat="63.12776666562979" lon="11.152063883059842" id="-36241">
		<tag k="name" v="Kringeløya" />
		<tag k="place" v="locality" />
		<tag k="ssr:stedsnr" v="640790" />
	</node>
	<node lat="63.29064166693071" lon="10.665341660320038" id="-36243">
		<tag k="name" v="Skjeftmyra" />
		<tag k="natural" v="wetland" />
		<tag k="ssr:stedsnr" v="641381" />
	</node>
	<node lat="63.29493332939533" lon="11.138391666349328" id="-36249">
		<tag k="name" v="Dragsjøbjørga" />
		<tag k="place" v="locality" />
		<tag k="ssr:stedsnr" v="641703" />
	</node>
	<node lat="63.28974167069566" lon="11.252694442701651" id="-36250">
		<tag k="name" v="Vektmyran" />
		<tag k="natural" v="wetland" />
		<tag k="ssr:stedsnr" v="641704" />
	</node>
	<node lat="63.24511110806192" lon="10.758572226935462" id="-36259">
		<tag k="name" v="Ner Renåbjørga" />
		<tag k="place" v="locality" />
		<tag k="ssr:stedsnr" v="643093" />
	</node>
	<node lat="63.24516944748906" lon="10.765261112232976" id="-36260">
		<tag k="name" v="Okstadåsbjørga" />
		<tag k="place" v="locality" />
		<tag k="ssr:stedsnr" v="643095" />
	</node>
	<node lat="63.18704722032063" lon="11.063766675214332" id="-36261">
		<tag k="historic" v="shieling" />
		<tag k="name" v="Øvervollen" />
		<tag k="place" v="locality" />
		<tag k="ssr:stedsnr" v="643212" />
	</node>
	<node lat="63.24680555916627" lon="11.246016672072003" id="-36262">
		<tag k="name" v="Sagmyra" />
		<tag k="natural" v="wetland" />
		<tag k="ssr:stedsnr" v="642987" />
	</node>
	<node lat="63.1705254435647" lon="10.941562880700825" id="-36266">
		<tag k="alt_name" v="Ner Brønnøyan" />
		<tag k="name" v="Bønnøyan" />
		<tag k="place" v="locality" />
		<tag k="ssr:stedsnr" v="643474" />
	</node>
	<node lat="63.15568888775917" lon="10.83014999584268" id="-36270">
		<tag k="name" v="Haustkjølan" />
		<tag k="natural" v="wetland" />
		<tag k="ssr:stedsnr" v="643384" />
	</node>
	<node lat="63.21314722591875" lon="10.830394450229011" id="-36271">
		<tag k="name" v="Gråstenmyra" />
		<tag k="natural" v="wetland" />
		<tag k="ssr:stedsnr" v="643387" />
	</node>
	<node lat="63.225995834199686" lon="10.757585941656709" id="-36277">
		<tag k="historic" v="shieling" />
		<tag k="name" v="Høgåsvollen" />
		<tag k="place" v="locality" />
		<tag k="ssr:stedsnr" v="644098" />
	</node>
	<node lat="63.22305000247498" lon="10.886849999709685" id="-36280">
		<tag k="name" v="Håmmårbjørga" />
		<tag k="place" v="locality" />
		<tag k="ssr:stedsnr" v="644227" />
	</node>
	<node lat="63.26491944762947" lon="10.855800002570032" id="-36283">
		<tag k="name" v="Skorran" />
		<tag k="place" v="locality" />
		<tag k="ssr:stedsnr" v="644137" />
	</node>
	<node lat="63.324777779614855" lon="11.081380547867095" id="-36288">
		<tag k="historic" v="shieling" />
		<tag k="name" v="Storvollen" />
		<tag k="place" v="locality" />
		<tag k="ssr:stedsnr" v="644512" />
	</node>
	<node lat="63.08708055216412" lon="11.31879165854637" id="-36309">
		<tag k="name" v="Merramyra" />
		<tag k="natural" v="wetland" />
		<tag k="ssr:stedsnr" v="680316" />
	</node>
	<node lat="63.29385277347899" lon="10.643072229594363" id="-36321">
		<tag k="name" v="Stormyra" />
		<tag k="natural" v="wetland" />
		<tag k="ssr:stedsnr" v="702518" />
	</node>
	<node lat="63.2144638890711" lon="11.172647221991683" id="-36327">
		<tag k="name" v="Toppkjølen" />
		<tag k="natural" v="wetland" />
		<tag k="ssr:stedsnr" v="702580" />
	</node>
	<node lat="63.285986108422975" lon="11.11369445188043" id="-36328">
		<tag k="name" v="Moaslåtten" />
		<tag k="place" v="locality" />
		<tag k="ssr:stedsnr" v="702612" />
	</node>
	<node lat="63.27484166710365" lon="11.10287500697694" id="-36333">
		<tag k="name" v="Bergkjølen" />
		<tag k="natural" v="wetland" />
		<tag k="ssr:stedsnr" v="702674" />
	</node>
	<node lat="63.32622222111295" lon="11.183077785497083" id="-36334">
		<tag k="name" v="Ånvassbjørga" />
		<tag k="place" v="locality" />
		<tag k="ssr:stedsnr" v="702680" />
	</node>
	<node lat="63.067591666804596" lon="11.071700004504722" id="-36335">
		<tag k="name" v="Smålian" />
		<tag k="place" v="locality" />
		<tag k="ssr:stedsnr" v="702819" />
	</node>
	<node lat="63.161022221280845" lon="11.042152769752834" id="-36336">
		<tag k="name" v="Stenkjølen" />
		<tag k="natural" v="wetland" />
		<tag k="ssr:stedsnr" v="702824" />
	</node>
	<node lat="63.14971666880037" lon="11.11891111100815" id="-36339">
		<tag k="landuse" v="meadow" />
		<tag k="name" v="Storslåtten" />
		<tag k="ssr:stedsnr" v="702766" />
	</node>
	<node lat="63.15190277648853" lon="11.118891659128519" id="-36340">
		<tag k="landuse" v="meadow" />
		<tag k="name" v="Litjslåtten" />
		<tag k="ssr:stedsnr" v="702768" />
	</node>
	<node lat="63.13000555255958" lon="11.066552778332523" id="-36341">
		<tag k="name" v="Nybukjølen" />
		<tag k="natural" v="wetland" />
		<tag k="ssr:stedsnr" v="702770" />
	</node>
	<node lat="63.29338333262882" lon="11.012841667778584" id="-36344">
		<tag k="name" v="Stamnesøyan" />
		<tag k="place" v="locality" />
		<tag k="ssr:stedsnr" v="703222" />
	</node>
	<node lat="63.16860555143445" lon="10.921508338173222" id="-36352">
		<tag k="name" v="Svarråa" />
		<tag k="place" v="locality" />
		<tag k="ssr:stedsnr" v="704258" />
	</node>
	<node lat="63.10778889062887" lon="10.910708340114812" id="-36355">
		<tag k="name" v="Øverøyan" />
		<tag k="place" v="locality" />
		<tag k="ssr:stedsnr" v="704460" />
	</node>
	<node lat="63.197466670786966" lon="11.115833342443656" id="-36356">
		<tag k="name" v="Lianeset" />
		<tag k="place" v="locality" />
		<tag k="ssr:stedsnr" v="704463" />
	</node>
	<node lat="63.14702777904443" lon="10.901913882424623" id="-36357">
		<tag k="historic" v="shieling" />
		<tag k="name" v="Gammelvollen" />
		<tag k="place" v="locality" />
		<tag k="ssr:stedsnr" v="704675" />
	</node>
	<node lat="63.252619448387826" lon="10.710266674053647" id="-36359">
		<tag k="name" v="Bekkøyan" />
		<tag k="place" v="locality" />
		<tag k="ssr:stedsnr" v="704727" />
	</node>
	<node lat="63.304511110547935" lon="11.114744435171838" id="-36367">
		<tag k="name" v="Måssåmyra" />
		<tag k="natural" v="wetland" />
		<tag k="ssr:stedsnr" v="705409" />
	</node>
	<node lat="63.07108055117317" lon="11.233194446621427" id="-36368">
		<tag k="name" v="Koimyra" />
		<tag k="natural" v="wetland" />
		<tag k="ssr:stedsnr" v="705430" />
	</node>
	<node lat="63.22692222266034" lon="11.02818887959263" id="-36372">
		<tag k="name" v="Skulbakken" />
		<tag k="place" v="locality" />
		<tag k="ssr:stedsnr" v="705451" />
	</node>
	<node lat="63.12071666945546" lon="10.901208336993605" id="-36387">
		<tag k="name" v="Djupåkjølen" />
		<tag k="natural" v="wetland" />
		<tag k="ssr:stedsnr" v="740141" />
	</node>
	<node lat="63.336733331214326" lon="11.059352775179915" id="-36402">
		<tag k="name" v="Håstadkjølen" />
		<tag k="natural" v="wetland" />
		<tag k="ssr:stedsnr" v="741384" />
	</node>
	<node lat="63.32026111099858" lon="11.38777499032358" id="-36414">
		<tag k="name" v="Latøyene" />
		<tag k="natural" v="wetland" />
		<tag k="ssr:stedsnr" v="749363" />
	</node>
	<node lat="63.20021111414504" lon="11.104591675309512" id="-36423">
		<tag k="name" v="Kvitlan" />
		<tag k="place" v="locality" />
		<tag k="ssr:stedsnr" v="762645" />
	</node>
	<node lat="63.32234444649868" lon="11.155308323706965" id="-36425">
		<tag k="name" v="Ånvassmyran" />
		<tag k="natural" v="wetland" />
		<tag k="ssr:stedsnr" v="762699" />
	</node>
	<node lat="63.16743889222138" lon="11.06561388122152" id="-36426">
		<tag k="name" v="Vargkjølen" />
		<tag k="natural" v="wetland" />
		<tag k="ssr:stedsnr" v="762817" />
	</node>
	<node lat="63.26829166424945" lon="11.183899997282452" id="-36429">
		<tag k="name" v="Evjbjørga" />
		<tag k="place" v="locality" />
		<tag k="ssr:stedsnr" v="762743" />
	</node>
	<node lat="63.26618610987135" lon="11.307447214382604" id="-36430">
		<tag k="historic" v="shieling" />
		<tag k="name" v="Holmvollen" />
		<tag k="place" v="locality" />
		<tag k="ssr:stedsnr" v="762744" />
	</node>
	<node lat="63.31588055656513" lon="11.132258334327005" id="-36434">
		<tag k="name" v="Litjsjøbjørga" />
		<tag k="place" v="locality" />
		<tag k="ssr:stedsnr" v="763105" />
	</node>
	<node lat="63.12401110844115" lon="11.343424994079493" id="-36444">
		<tag k="name" v="Høgåsvollen" />
		<tag k="place" v="locality" />
		<tag k="ssr:stedsnr" v="763916" />
	</node>
	<node lat="63.162675002734545" lon="11.255669438556756" id="-36446">
		<tag k="name" v="Vekta" />
		<tag k="place" v="locality" />
		<tag k="ssr:stedsnr" v="763948" />
	</node>
	<node lat="63.259677774005795" lon="11.282622230020117" id="-36450">
		<tag k="historic" v="shieling" />
		<tag k="name" v="Øver Vårhusvollen" />
		<tag k="place" v="locality" />
		<tag k="ssr:stedsnr" v="764000" />
	</node>
	<node lat="63.168730555912134" lon="10.84626667499365" id="-36452">
		<tag k="name" v="Dammyran" />
		<tag k="natural" v="wetland" />
		<tag k="ssr:stedsnr" v="764230" />
	</node>
	<node lat="63.157255556139745" lon="10.94096388049925" id="-36462">
		<tag k="name" v="Jørnmyra" />
		<tag k="natural" v="wetland" />
		<tag k="ssr:stedsnr" v="765403" />
	</node>
	<node lat="63.29126388770101" lon="10.753611119228157" id="-36463">
		<tag k="name" v="Vollbjørga" />
		<tag k="place" v="locality" />
		<tag k="ssr:stedsnr" v="765415" />
	</node>
	<node lat="63.23843333464539" lon="10.785822221581384" id="-36466">
		<tag k="name" v="Gråstenmyra" />
		<tag k="natural" v="wetland" />
		<tag k="ssr:stedsnr" v="765431" />
	</node>
	<node lat="63.089147217846396" lon="10.989805554010902" id="-36472">
		<tag k="name" v="Storøyan" />
		<tag k="place" v="locality" />
		<tag k="ssr:stedsnr" v="765368" />
	</node>
	<node lat="63.216469440855874" lon="10.827563896098946" id="-36473">
		<tag k="name" v="Høybygrubba" />
		<tag k="place" v="locality" />
		<tag k="ssr:stedsnr" v="765369" />
	</node>
	<node lat="63.252466662353704" lon="10.722483333224185" id="-36474">
		<tag k="name" v="Skogmyra" />
		<tag k="natural" v="wetland" />
		<tag k="ssr:stedsnr" v="765372" />
	</node>
	<node lat="63.24991111314724" lon="10.694541662712734" id="-36476">
		<tag k="name" v="Flobekkbjørga" />
		<tag k="place" v="locality" />
		<tag k="ssr:stedsnr" v="765747" />
	</node>
	<node lat="63.286933332251294" lon="10.66683056174289" id="-36516">
		<tag k="name" v="Stafakkakjølan" />
		<tag k="natural" v="wetland" />
		<tag k="ssr:stedsnr" v="823513" />
	</node>
	<node lat="63.134427776083726" lon="11.269802769561654" id="-36517">
		<tag k="name" v="Prinsvelta" />
		<tag k="place" v="locality" />
		<tag k="ssr:stedsnr" v="823518" />
	</node>
	<node lat="63.1989944482315" lon="11.190236113552775" id="-36518">
		<tag k="name" v="Lerlaupet" />
		<tag k="place" v="locality" />
		<tag k="ssr:stedsnr" v="823574" />
	</node>
	<node lat="63.253816664222455" lon="11.11399166148439" id="-36519">
		<tag k="name" v="Brenna" />
		<tag k="place" v="locality" />
		<tag k="ssr:stedsnr" v="823581" />
	</node>
	<node lat="63.125544440179375" lon="11.09583056201238" id="-36525">
		<tag k="name" v="Tjørnbakk-kjølen" />
		<tag k="natural" v="wetland" />
		<tag k="ssr:stedsnr" v="824343" />
	</node>
	<node lat="63.182911110807034" lon="11.291505551619116" id="-36529">
		<tag k="name" v="Dolpan" />
		<tag k="place" v="locality" />
		<tag k="ssr:stedsnr" v="824739" />
	</node>
	<node lat="63.26380833364631" lon="11.138597230479341" id="-36530">
		<tag k="name" v="Litjklevmyra" />
		<tag k="natural" v="wetland" />
		<tag k="ssr:stedsnr" v="824749" />
	</node>
	<node lat="63.27335555348114" lon="11.282202769132438" id="-36537">
		<tag k="name" v="Brenntoppkjølen" />
		<tag k="natural" v="wetland" />
		<tag k="ssr:stedsnr" v="824979" />
	</node>
	<node lat="63.248816670769486" lon="11.255622215836574" id="-36539">
		<tag k="name" v="Kvilgrubba" />
		<tag k="place" v="locality" />
		<tag k="ssr:stedsnr" v="824984" />
	</node>
	<node lat="63.20033333086356" lon="10.942708338400552" id="-36540">
		<tag k="name" v="Landlaupet" />
		<tag k="place" v="locality" />
		<tag k="ssr:stedsnr" v="825383" />
	</node>
	<node lat="63.071694443306654" lon="11.00738333914393" id="-36541">
		<tag k="name" v="Ristjennfloan" />
		<tag k="natural" v="wetland" />
		<tag k="ssr:stedsnr" v="825265" />
	</node>
	<node lat="63.256836109521615" lon="10.746419447526852" id="-36551">
		<tag k="name" v="Merrakåsen" />
		<tag k="natural" v="wetland" />
		<tag k="ssr:stedsnr" v="826106" />
	</node>
	<node lat="63.288247218647875" lon="10.77007500392107" id="-36552">
		<tag k="name" v="Råkjølan" />
		<tag k="natural" v="wetland" />
		<tag k="ssr:stedsnr" v="826113" />
	</node>
	<node lat="63.276955555799425" lon="10.80505277417765" id="-36553">
		<tag k="historic" v="shieling" />
		<tag k="name" v="Storvollen" />
		<tag k="place" v="locality" />
		<tag k="ssr:stedsnr" v="826117" />
	</node>
	<node lat="63.31000277533827" lon="11.039583325128104" id="-36555">
		<tag k="name" v="Svarttjennbjørga" />
		<tag k="place" v="locality" />
		<tag k="ssr:stedsnr" v="826408" />
	</node>
	<node lat="63.198547226224925" lon="11.260066665750779" id="-36566">
		<tag k="name" v="Kåsen" />
		<tag k="place" v="locality" />
		<tag k="ssr:stedsnr" v="826365" />
	</node>
	<node lat="63.309669441224365" lon="10.987908338539889" id="-36568">
		<tag k="historic" v="shieling" />
		<tag k="name" v="Fossvollen" />
		<tag k="place" v="locality" />
		<tag k="ssr:stedsnr" v="826378" />
	</node>
	<node lat="63.206908336001824" lon="10.825755564574399" id="-36575">
		<tag k="name" v="Godenget" />
		<tag k="natural" v="wetland" />
		<tag k="ssr:stedsnr" v="922044" />
	</node>
	<node lat="63.19833889227433" lon="10.855138882693435" id="-36582">
		<tag k="name" v="Stormyra" />
		<tag k="natural" v="wetland" />
		<tag k="ssr:stedsnr" v="827112" />
	</node>
	<node lat="63.22780555520386" lon="10.799769453878024" id="-36586">
		<tag k="name" v="Rundmyra" />
		<tag k="natural" v="wetland" />
		<tag k="ssr:stedsnr" v="827062" />
	</node>
	<node lat="63.32626680933551" lon="10.97034898063414" id="-36606">
		<tag k="historic" v="shieling" />
		<tag k="name" v="Litjfjellvollen" />
		<tag k="place" v="locality" />
		<tag k="ssr:stedsnr" v="923413" />
	</node>
	<node lat="63.29239722622841" lon="10.644397230142681" id="-36609">
		<tag k="name" v="Storkjølen" />
		<tag k="natural" v="wetland" />
		<tag k="ssr:stedsnr" v="923834" />
	</node>
	<node lat="63.23137777979085" lon="11.104908333802905" id="-36616">
		<tag k="name" v="Holtmyra" />
		<tag k="natural" v="wetland" />
		<tag k="ssr:stedsnr" v="862005" />
	</node>
	<node lat="63.0799111100948" lon="11.30604167426469" id="-36624">
		<tag k="name" v="Hemmesmyra" />
		<tag k="natural" v="wetland" />
		<tag k="ssr:stedsnr" v="862324" />
	</node>
	<node lat="63.1698944421966" lon="11.30387500775848" id="-36631">
		<tag k="historic" v="shieling" />
		<tag k="name" v="Nedre Bjørgavollen" />
		<tag k="place" v="locality" />
		<tag k="ssr:stedsnr" v="931136" />
	</node>
	<node lat="63.23189166381902" lon="11.462125001399977" id="-36635">
		<tag k="name" v="Kalvskinnsfloene" />
		<tag k="natural" v="wetland" />
		<tag k="ssr:stedsnr" v="931259" />
	</node>
	<node lat="63.22439444776092" lon="11.223433329748943" id="-36641">
		<tag k="name" v="Hokjølen" />
		<tag k="natural" v="wetland" />
		<tag k="ssr:stedsnr" v="884048" />
	</node>
	<node lat="63.13699999755651" lon="11.041786119101072" id="-36643">
		<tag k="name" v="Rødbergmyra" />
		<tag k="natural" v="wetland" />
		<tag k="ssr:stedsnr" v="884514" />
	</node>
	<node lat="63.22952222338697" lon="11.179813882749572" id="-36646">
		<tag k="name" v="Botrømyra" />
		<tag k="natural" v="wetland" />
		<tag k="ssr:stedsnr" v="884552" />
	</node>
	<node lat="63.276647218013224" lon="10.980202770877412" id="-36651">
		<tag k="name" v="Vasstrupan" />
		<tag k="natural" v="wetland" />
		<tag k="ssr:stedsnr" v="884610" />
	</node>
	<node lat="63.27390000211354" lon="10.98319722863961" id="-36652">
		<tag k="name" v="Rødmyra" />
		<tag k="natural" v="wetland" />
		<tag k="ssr:stedsnr" v="884612" />
	</node>
	<node lat="63.28388888532544" lon="11.333166667907111" id="-36657">
		<tag k="historic" v="shieling" />
		<tag k="name" v="Prestøyvollen" />
		<tag k="place" v="locality" />
		<tag k="ssr:stedsnr" v="884846" />
	</node>
	<node lat="63.27198333042785" lon="11.220100000521686" id="-36659">
		<tag k="historic" v="shieling" />
		<tag k="name" v="Ratvollen" />
		<tag k="place" v="locality" />
		<tag k="ssr:stedsnr" v="884854" />
	</node>
	<node lat="63.179141664216594" lon="11.121197217830192" id="-36662">
		<tag k="name" v="Flåkkåmyra" />
		<tag k="natural" v="wetland" />
		<tag k="ssr:stedsnr" v="885007" />
	</node>
	<node lat="63.29183333113157" lon="11.018469445224333" id="-36667">
		<tag k="name" v="Stormyra" />
		<tag k="natural" v="wetland" />
		<tag k="ssr:stedsnr" v="885201" />
	</node>
	<node lat="63.29181666769747" lon="11.03433610960916" id="-36669">
		<tag k="name" v="Hallvardkåsa" />
		<tag k="place" v="locality" />
		<tag k="ssr:stedsnr" v="885206" />
	</node>
	<node lat="63.27079166598148" lon="11.099477776753817" id="-36671">
		<tag k="name" v="Tømmermyra" />
		<tag k="natural" v="wetland" />
		<tag k="ssr:stedsnr" v="885220" />
	</node>
	<node lat="63.10464166855941" lon="11.10019445236825" id="-36674">
		<tag k="name" v="Småøyan" />
		<tag k="place" v="locality" />
		<tag k="ssr:stedsnr" v="885227" />
	</node>
	<node lat="63.120702776820835" lon="11.27416389800023" id="-36676">
		<tag k="name" v="Endamkjølen" />
		<tag k="natural" v="wetland" />
		<tag k="ssr:stedsnr" v="885909" />
	</node>
	<node lat="63.117861112100364" lon="11.280144445420861" id="-36677">
		<tag k="name" v="Hoggkjølen" />
		<tag k="natural" v="wetland" />
		<tag k="ssr:stedsnr" v="885911" />
	</node>
	<node lat="63.138341667393874" lon="11.309566659565194" id="-36679">
		<tag k="historic" v="shieling" />
		<tag k="name" v="Oddvollen" />
		<tag k="place" v="locality" />
		<tag k="ssr:stedsnr" v="885918" />
	</node>
	<node lat="63.11822777429067" lon="10.862747228975941" id="-36691">
		<tag k="name" v="Ystinslættkjølen" />
		<tag k="natural" v="wetland" />
		<tag k="ssr:stedsnr" v="886447" />
	</node>
	<node lat="63.19056110908896" lon="11.247644443023791" id="-36695">
		<tag k="name" v="Tangbjørga" />
		<tag k="place" v="locality" />
		<tag k="ssr:stedsnr" v="886464" />
	</node>
	<node lat="63.117483336848466" lon="10.890716666160797" id="-36703">
		<tag k="name" v="Skogamyra" />
		<tag k="natural" v="wetland" />
		<tag k="ssr:stedsnr" v="887222" />
	</node>
	<node lat="63.08068332925514" lon="11.232336119810006" id="-36714">
		<tag k="name" v="Hårråmyrbrettet" />
		<tag k="place" v="locality" />
		<tag k="ssr:stedsnr" v="887450" />
	</node>
	<node lat="63.16105000175315" lon="10.8604333262057" id="-36723">
		<tag k="name" v="Bergmyra" />
		<tag k="natural" v="wetland" />
		<tag k="ssr:stedsnr" v="888157" />
	</node>
	<node lat="63.14160000091992" lon="11.142499990239571" id="-36758">
		<tag k="name" v="Krutfloen" />
		<tag k="natural" v="wetland" />
		<tag k="ssr:stedsnr" v="944787" />
	</node>
	<node lat="63.17398611199086" lon="11.12616665865982" id="-36760">
		<tag k="name" v="Halvfarmyran" />
		<tag k="natural" v="wetland" />
		<tag k="ssr:stedsnr" v="945004" />
	</node>
	<node lat="63.296916666245316" lon="11.029847214676169" id="-36766">
		<tag k="name" v="Litjbekkøyan" />
		<tag k="natural" v="wetland" />
		<tag k="ssr:stedsnr" v="945185" />
	</node>
	<node lat="63.1379861122258" lon="11.026355556730097" id="-36770">
		<tag k="name" v="Svartpullen" />
		<tag k="place" v="locality" />
		<tag k="ssr:stedsnr" v="945512" />
	</node>
	<node lat="63.1060527810853" lon="11.280497226579472" id="-36771">
		<tag k="name" v="Uthusvollen" />
		<tag k="place" v="locality" />
		<tag k="ssr:stedsnr" v="945530" />
	</node>
	<node lat="63.27799999822058" lon="11.102133327722983" id="-36773">
		<tag k="name" v="Bergkjølen" />
		<tag k="natural" v="wetland" />
		<tag k="ssr:stedsnr" v="945582" />
	</node>
	<node lat="63.31024167037639" lon="11.131500009028333" id="-36775">
		<tag k="name" v="Kloppen" />
		<tag k="place" v="locality" />
		<tag k="ssr:stedsnr" v="945592" />
	</node>
	<node lat="63.24524999585647" lon="11.134877770713594" id="-36776">
		<tag k="name" v="Tjørnan" />
		<tag k="natural" v="wetland" />
		<tag k="ssr:stedsnr" v="945593" />
	</node>
	<node lat="63.24217222532325" lon="10.710350007834055" id="-36777">
		<tag k="name" v="Gammelkjølen" />
		<tag k="natural" v="wetland" />
		<tag k="ssr:stedsnr" v="945480" />
	</node>
	<node lat="63.23541389040468" lon="11.324958327316036" id="-36780">
		<tag k="name" v="Hovkjølen" />
		<tag k="natural" v="wetland" />
		<tag k="ssr:stedsnr" v="945829" />
	</node>
	<node lat="63.323869445167006" lon="11.228822227217723" id="-36781">
		<tag k="name" v="Holman" />
		<tag k="natural" v="wetland" />
		<tag k="ssr:stedsnr" v="945836" />
	</node>
	<node lat="63.1375305535868" lon="11.072855547526913" id="-36785">
		<tag k="name" v="Brennstakkenget" />
		<tag k="place" v="locality" />
		<tag k="ssr:stedsnr" v="946280" />
	</node>
	<node lat="63.29474999567976" lon="10.968402776084352" id="-36786">
		<tag k="historic" v="shieling" />
		<tag k="name" v="Bønnhivollen" />
		<tag k="place" v="locality" />
		<tag k="ssr:stedsnr" v="946692" />
	</node>
	<node lat="63.2607972218703" lon="10.848802775900667" id="-36787">
		<tag k="historic" v="shieling" />
		<tag k="name" v="Gammelvollen" />
		<tag k="place" v="locality" />
		<tag k="ssr:stedsnr" v="946702" />
	</node>
	<node lat="63.26664166377868" lon="11.239272231084163" id="-36788">
		<tag k="name" v="Svampen" />
		<tag k="natural" v="wetland" />
		<tag k="ssr:stedsnr" v="946997" />
	</node>
	<node lat="63.188563886607305" lon="11.061438885657278" id="-36795">
		<tag k="historic" v="shieling" />
		<tag k="name" v="Nervollen" />
		<tag k="place" v="locality" />
		<tag k="ssr:stedsnr" v="947194" />
	</node>
	<node lat="63.24998055168419" lon="11.028197219301179" id="-36801">
		<tag k="name" v="Fuggelmyra" />
		<tag k="natural" v="wetland" />
		<tag k="ssr:stedsnr" v="947528" />
	</node>
	<node lat="63.213000003522936" lon="10.964436106641429" id="-36811">
		<tag k="name" v="Rødmyra" />
		<tag k="natural" v="wetland" />
		<tag k="ssr:stedsnr" v="948221" />
	</node>
	<node lat="63.18016111497998" lon="11.116163885812636" id="-36815">
		<tag k="name" v="Bjørnmyra" />
		<tag k="natural" v="wetland" />
		<tag k="ssr:stedsnr" v="948329" />
	</node>
	<node lat="63.245194446961825" lon="11.020983329871791" id="-36819">
		<tag k="name" v="Flønesberget vestre" />
		<tag k="place" v="locality" />
		<tag k="ssr:stedsnr" v="948430" />
	</node>
	<node lat="63.2252444483884" lon="10.801533334432454" id="-36871">
		<tag k="historic" v="shieling" />
		<tag k="name" v="Eggjavårvollen" />
		<tag k="place" v="locality" />
		<tag k="ssr:stedsnr" v="34386" />
	</node>
	<node lat="63.262386112382934" lon="11.224761117059796" id="-36874">
		<tag k="historic" v="shieling" />
		<tag k="name" v="Gammelvollen" />
		<tag k="place" v="locality" />
		<tag k="ssr:stedsnr" v="35078" />
	</node>
	<node lat="63.28053055813654" lon="11.160844438676492" id="-36876">
		<tag k="name" v="Hårråmyra" />
		<tag k="natural" v="wetland" />
		<tag k="ssr:stedsnr" v="35091" />
	</node>
	<node lat="63.29250277578628" lon="11.106519445588612" id="-36877">
		<tag k="name" v="Sandbergskjølen" />
		<tag k="natural" v="wetland" />
		<tag k="ssr:stedsnr" v="35099" />
	</node>
	<node lat="63.25805277678204" lon="10.669761116810736" id="-36882">
		<tag k="name" v="Haldokneppkjølen" />
		<tag k="natural" v="wetland" />
		<tag k="ssr:stedsnr" v="34469" />
	</node>
	<node lat="63.1015972234798" lon="10.946094436076077" id="-36883">
		<tag k="name" v="Småmyran" />
		<tag k="natural" v="wetland" />
		<tag k="ssr:stedsnr" v="34482" />
	</node>
	<node lat="63.24957222326504" lon="11.190988888028759" id="-36884">
		<tag k="name" v="Høgkjølen" />
		<tag k="natural" v="wetland" />
		<tag k="ssr:stedsnr" v="34570" />
	</node>
	<node lat="63.26059444601646" lon="10.71443055781538" id="-36887">
		<tag k="name" v="Trøholet" />
		<tag k="place" v="locality" />
		<tag k="ssr:stedsnr" v="34534" />
	</node>
	<node lat="63.20541111432977" lon="11.125150008781343" id="-36894">
		<tag k="name" v="Kallarstrøa" />
		<tag k="place" v="locality" />
		<tag k="ssr:stedsnr" v="34642" />
	</node>
	<node lat="63.24314999715622" lon="11.109525004232994" id="-36895">
		<tag k="name" v="Dammyra" />
		<tag k="natural" v="wetland" />
		<tag k="ssr:stedsnr" v="34647" />
	</node>
	<node lat="63.32073055131827" lon="11.154888879441856" id="-36911">
		<tag k="name" v="Dammyra" />
		<tag k="natural" v="wetland" />
		<tag k="ssr:stedsnr" v="34659" />
	</node>
	<node lat="63.188105557727035" lon="11.16078611443371" id="-36914">
		<tag k="name" v="Nydal" />
		<tag k="place" v="locality" />
		<tag k="ssr:stedsnr" v="34741" />
	</node>
	<node lat="63.157808331334756" lon="11.149586109553297" id="-36921">
		<tag k="name" v="Storkjølen" />
		<tag k="natural" v="wetland" />
		<tag k="ssr:stedsnr" v="35019" />
	</node>
	<node lat="63.22956389256485" lon="11.236491672077037" id="-36926">
		<tag k="name" v="Storkjølan" />
		<tag k="natural" v="wetland" />
		<tag k="ssr:stedsnr" v="36395" />
	</node>
	<node lat="63.169636109796095" lon="11.071261119074414" id="-36927">
		<tag k="name" v="Øver Rødmyra" />
		<tag k="natural" v="wetland" />
		<tag k="ssr:stedsnr" v="35430" />
	</node>
	<node lat="63.16780000042195" lon="11.318622221228932" id="-36935">
		<tag k="name" v="Stormyra" />
		<tag k="natural" v="wetland" />
		<tag k="ssr:stedsnr" v="35955" />
	</node>
	<node lat="63.207425002278775" lon="11.045672225588364" id="-36946">
		<tag k="name" v="Skarpkalen" />
		<tag k="place" v="locality" />
		<tag k="ssr:stedsnr" v="36479" />
	</node>
	<node lat="63.26968610911381" lon="10.957708332307208" id="-36948">
		<tag k="name" v="Haugardsmyra" />
		<tag k="natural" v="wetland" />
		<tag k="ssr:stedsnr" v="36695" />
	</node>
	<node lat="63.15920555684022" lon="10.958855564500682" id="-36949">
		<tag k="name" v="Elgmyran" />
		<tag k="natural" v="wetland" />
		<tag k="ssr:stedsnr" v="37428" />
	</node>
	<node lat="63.18402986725535" lon="10.9233491175318" id="-36951">
		<tag k="name" v="Sagtrøa" />
		<tag k="place" v="locality" />
		<tag k="ssr:stedsnr" v="37443" />
	</node>
	<node lat="63.1835833345824" lon="11.084727779887734" id="-36957">
		<tag k="historic" v="shieling" />
		<tag k="name" v="Annavollen" />
		<tag k="place" v="locality" />
		<tag k="ssr:stedsnr" v="37207" />
	</node>
	<node lat="63.28603333281709" lon="11.033769449984735" id="-36961">
		<tag k="name" v="Pundsåsan" />
		<tag k="place" v="locality" />
		<tag k="ssr:stedsnr" v="37385" />
	</node>
	<node lat="63.19378611548783" lon="11.256288886745484" id="-36966">
		<tag k="name" v="Gravbjørga" />
		<tag k="place" v="locality" />
		<tag k="ssr:stedsnr" v="37356" />
	</node>
	<node lat="63.182252778127754" lon="11.135372221130279" id="-36980">
		<tag k="name" v="Rødmyra" />
		<tag k="natural" v="wetland" />
		<tag k="ssr:stedsnr" v="37544" />
	</node>
	<node lat="63.28039444869264" lon="11.174933339616326" id="-36982">
		<tag k="name" v="Rødkjølen" />
		<tag k="natural" v="wetland" />
		<tag k="ssr:stedsnr" v="37551" />
	</node>
	<node lat="63.253841668420556" lon="10.943663895393016" id="-36997">
		<tag k="name" v="Bellåsen" />
		<tag k="place" v="locality" />
		<tag k="ssr:stedsnr" v="38177" />
	</node>
	<node lat="63.30108333548805" lon="10.83453055203024" id="-37001">
		<tag k="landuse" v="meadow" />
		<tag k="name" v="Håvardslåtten" />
		<tag k="ssr:stedsnr" v="47097" />
	</node>
	<node lat="63.24688888501442" lon="10.73568610307769" id="-37033">
		<tag k="name" v="Storfloen" />
		<tag k="natural" v="wetland" />
		<tag k="ssr:stedsnr" v="95367" />
	</node>
	<node lat="63.25346944720863" lon="10.70718610374919" id="-37040">
		<tag k="name" v="Bukk-kjølen" />
		<tag k="natural" v="wetland" />
		<tag k="ssr:stedsnr" v="95460" />
	</node>
	<node lat="63.30196388583868" lon="11.123613897330646" id="-37041">
		<tag k="name" v="Øster Storsjøbjørga" />
		<tag k="place" v="locality" />
		<tag k="ssr:stedsnr" v="95586" />
	</node>
	<node lat="63.242866663115215" lon="11.12218332612118" id="-37043">
		<tag k="name" v="Djupmyra" />
		<tag k="natural" v="wetland" />
		<tag k="ssr:stedsnr" v="95595" />
	</node>
	<node lat="63.271502779272254" lon="11.296058330747355" id="-37044">
		<tag k="name" v="Holmmyra" />
		<tag k="natural" v="wetland" />
		<tag k="ssr:stedsnr" v="95601" />
	</node>
	<node lat="63.32543055111459" lon="11.148822223495236" id="-37045">
		<tag k="landuse" v="meadow" />
		<tag k="name" v="Kallslåtten" />
		<tag k="ssr:stedsnr" v="95675" />
	</node>
	<node lat="63.14853055268627" lon="11.03264443719568" id="-37047">
		<tag k="name" v="Gammelvollbjørga" />
		<tag k="place" v="locality" />
		<tag k="ssr:stedsnr" v="95632" />
	</node>
	<node lat="63.193536113739334" lon="11.222588889679352" id="-37050">
		<tag k="historic" v="shieling" />
		<tag k="name" v="Litjvollen" />
		<tag k="place" v="locality" />
		<tag k="ssr:stedsnr" v="95743" />
	</node>
	<node lat="63.338788888180744" lon="11.152666670912312" id="-37055">
		<tag k="landuse" v="meadow" />
		<tag k="name" v="Tjurrubuslåtten" />
		<tag k="ssr:stedsnr" v="95855" />
	</node>
	<node lat="63.177091666422655" lon="11.269569442930853" id="-37056">
		<tag k="name" v="Ratbjørga" />
		<tag k="place" v="locality" />
		<tag k="ssr:stedsnr" v="95683" />
	</node>
	<node lat="63.26710833515118" lon="11.098491657906298" id="-37058">
		<tag k="name" v="Nylandmyra" />
		<tag k="natural" v="wetland" />
		<tag k="ssr:stedsnr" v="95792" />
	</node>
	<node lat="63.33207777633855" lon="11.0452000034678" id="-37072">
		<tag k="name" v="Stordalsbjørga" />
		<tag k="place" v="locality" />
		<tag k="ssr:stedsnr" v="96196" />
	</node>
	<node lat="63.21350833032584" lon="11.078141676135568" id="-37079">
		<tag k="name" v="Jennmyra" />
		<tag k="natural" v="wetland" />
		<tag k="ssr:stedsnr" v="96154" />
	</node>
	<node lat="63.27216944799167" lon="11.152936119372052" id="-37083">
		<tag k="name" v="Alsetøya" />
		<tag k="place" v="locality" />
		<tag k="ssr:stedsnr" v="96737" />
	</node>
	<node lat="63.07558611365684" lon="11.31128888072261" id="-37084">
		<tag k="name" v="Ellefsdalsmyran" />
		<tag k="natural" v="wetland" />
		<tag k="ssr:stedsnr" v="96899" />
	</node>
	<node lat="63.2248111150069" lon="10.782655554293331" id="-37089">
		<tag k="name" v="Oddbjørga" />
		<tag k="place" v="locality" />
		<tag k="ssr:stedsnr" v="97081" />
	</node>
	<node lat="63.12276944686367" lon="11.309547221718264" id="-37090">
		<tag k="name" v="Seterbrennan" />
		<tag k="place" v="locality" />
		<tag k="ssr:stedsnr" v="96920" />
	</node>
	<node lat="63.29191111036271" lon="10.84645277768448" id="-37095">
		<tag k="historic" v="shieling" />
		<tag k="name" v="Holmtjennvollen" />
		<tag k="place" v="locality" />
		<tag k="ssr:stedsnr" v="97298" />
	</node>
	<node lat="63.22885555730369" lon="10.826850008818216" id="-37096">
		<tag k="name" v="Petter-stormyra" />
		<tag k="natural" v="wetland" />
		<tag k="ssr:stedsnr" v="97383" />
	</node>
	<node lat="63.23659444077846" lon="10.75560000299554" id="-37097">
		<tag k="name" v="Storkjølen" />
		<tag k="natural" v="wetland" />
		<tag k="ssr:stedsnr" v="97389" />
	</node>
	<node lat="63.22886944379728" lon="10.783288880850773" id="-37099">
		<tag k="historic" v="shieling" />
		<tag k="name" v="Okstadvårvollen" />
		<tag k="place" v="locality" />
		<tag k="ssr:stedsnr" v="97400" />
	</node>
	<node lat="63.20231944148236" lon="10.880869440040852" id="-37107">
		<tag k="name" v="Haldorbrøtkjølan" />
		<tag k="natural" v="wetland" />
		<tag k="ssr:stedsnr" v="97444" />
	</node>
	<node lat="63.20083332912305" lon="10.904055554061861" id="-37108">
		<tag k="name" v="Åsmarka" />
		<tag k="place" v="locality" />
		<tag k="ssr:stedsnr" v="97445" />
	</node>
	<node lat="63.25254722436556" lon="11.2384249933352" id="-37110">
		<tag k="historic" v="shieling" />
		<tag k="name" v="Liavollen" />
		<tag k="place" v="locality" />
		<tag k="ssr:stedsnr" v="97469" />
	</node>
	<node lat="63.213966666994246" lon="11.18604999293212" id="-37112">
		<tag k="name" v="Hersjøkjølen" />
		<tag k="natural" v="wetland" />
		<tag k="ssr:stedsnr" v="97485" />
	</node>
	<node lat="63.23237499699572" lon="11.168197226664292" id="-37113">
		<tag k="name" v="Hersjøkjølen" />
		<tag k="natural" v="wetland" />
		<tag k="ssr:stedsnr" v="97487" />
	</node>
	<node lat="63.221169446969334" lon="11.049105554793252" id="-37114">
		<tag k="name" v="Brettet" />
		<tag k="place" v="locality" />
		<tag k="ssr:stedsnr" v="97547" />
	</node>
	<node lat="63.11411944434178" lon="10.913486113702364" id="-37129">
		<tag k="name" v="Kneppan" />
		<tag k="place" v="locality" />
		<tag k="ssr:stedsnr" v="99139" />
	</node>
	<node lat="63.169744444401" lon="10.853972214718416" id="-37132">
		<tag k="name" v="Tangen" />
		<tag k="place" v="locality" />
		<tag k="ssr:stedsnr" v="99226" />
	</node>
	<node lat="63.27335833132134" lon="10.96668612012919" id="-37133">
		<tag k="name" v="Jamtmyra" />
		<tag k="natural" v="wetland" />
		<tag k="ssr:stedsnr" v="99233" />
	</node>
	<node lat="63.28578333584585" lon="10.969094445382549" id="-37134">
		<tag k="name" v="Storslåtten" />
		<tag k="place" v="locality" />
		<tag k="ssr:stedsnr" v="99242" />
	</node>
	<node lat="63.110233337400594" lon="10.960972224413622" id="-37137">
		<tag k="name" v="Vasskjølen" />
		<tag k="natural" v="wetland" />
		<tag k="ssr:stedsnr" v="98288" />
	</node>
	<node lat="63.23441388804225" lon="11.039380546134327" id="-37138">
		<tag k="name" v="Dyrdalsplassen" />
		<tag k="place" v="locality" />
		<tag k="ssr:stedsnr" v="98383" />
	</node>
	<node lat="63.26717222319392" lon="10.937875005812117" id="-37140">
		<tag k="name" v="Hestmyra" />
		<tag k="natural" v="wetland" />
		<tag k="ssr:stedsnr" v="98500" />
	</node>
	<node lat="63.12450833594951" lon="11.26409444762613" id="-37141">
		<tag k="name" v="Engbjørga" />
		<tag k="place" v="locality" />
		<tag k="ssr:stedsnr" v="98237" />
	</node>
	<node lat="63.142719792350526" lon="10.891934804464553" id="-37142">
		<tag k="name" v="Testinmyra" />
		<tag k="natural" v="wetland" />
		<tag k="ssr:stedsnr" v="98247" />
	</node>
	<node lat="63.2417361130832" lon="11.05732221285584" id="-37143">
		<tag k="name" v="Hallgotto" />
		<tag k="place" v="locality" />
		<tag k="ssr:stedsnr" v="98328" />
	</node>
	<node lat="63.13733888984134" lon="11.097750008773492" id="-37161">
		<tag k="name" v="Floan" />
		<tag k="natural" v="wetland" />
		<tag k="ssr:stedsnr" v="133103" />
	</node>
	<node lat="63.1778694445497" lon="11.287616663491354" id="-37170">
		<tag k="historic" v="shieling" />
		<tag k="name" v="Litjvollen" />
		<tag k="place" v="locality" />
		<tag k="ssr:stedsnr" v="133226" />
	</node>
	<node lat="63.2320333296964" lon="11.47067778631368" id="-37186">
		<tag k="historic" v="shieling" />
		<tag k="name" v="Kalvskinnsvollen" />
		<tag k="place" v="locality" />
		<tag k="ssr:stedsnr" v="141249" />
	</node>
	<node lat="63.100777780127444" lon="11.302363892309321" id="-37193">
		<tag k="historic" v="shieling" />
		<tag k="name" v="Åsvollen" />
		<tag k="place" v="locality" />
		<tag k="ssr:stedsnr" v="142151" />
	</node>
	<node lat="63.164213889570426" lon="11.195172218178065" id="-37197">
		<tag k="historic" v="shieling" />
		<tag k="name" v="Kløftvollen" />
		<tag k="place" v="locality" />
		<tag k="ssr:stedsnr" v="155533" />
	</node>
	<node lat="63.246872225515915" lon="10.663488893972225" id="-37201">
		<tag k="name" v="Småvasskjølen" />
		<tag k="natural" v="wetland" />
		<tag k="ssr:stedsnr" v="155468" />
	</node>
	<node lat="63.29821388624747" lon="10.69184999620046" id="-37202">
		<tag k="historic" v="shieling" />
		<tag k="name" v="Vollåsen" />
		<tag k="place" v="locality" />
		<tag k="ssr:stedsnr" v="155471" />
	</node>
	<node lat="63.2776416705149" lon="10.692180553462238" id="-37205">
		<tag k="name" v="Langmyra" />
		<tag k="natural" v="wetland" />
		<tag k="ssr:stedsnr" v="155493" />
	</node>
	<node lat="63.2256472222416" lon="10.6753222286431" id="-37206">
		<tag k="historic" v="shieling" />
		<tag k="name" v="Hestvollen" />
		<tag k="place" v="locality" />
		<tag k="ssr:stedsnr" v="155496" />
	</node>
	<node lat="63.2333194408611" lon="11.111502779059117" id="-37212">
		<tag k="name" v="Dalatrøa" />
		<tag k="place" v="locality" />
		<tag k="ssr:stedsnr" v="155645" />
	</node>
	<node lat="63.32581944451798" lon="11.295072221734243" id="-37213">
		<tag k="historic" v="shieling" />
		<tag k="name" v="Kvellovollen" />
		<tag k="place" v="locality" />
		<tag k="ssr:stedsnr" v="155832" />
	</node>
	<node lat="63.207697224011085" lon="11.018686114371674" id="-37216">
		<tag k="name" v="Stokkenget" />
		<tag k="place" v="locality" />
		<tag k="ssr:stedsnr" v="156129" />
	</node>
	<node lat="63.13064722174699" lon="11.156063884872363" id="-37222">
		<tag k="name" v="Fiskfloan" />
		<tag k="natural" v="wetland" />
		<tag k="ssr:stedsnr" v="155764" />
	</node>
	<node lat="63.158749996131434" lon="11.049019448008636" id="-37225">
		<tag k="name" v="Høgkjølrena" />
		<tag k="place" v="locality" />
		<tag k="ssr:stedsnr" v="155793" />
	</node>
	<node lat="63.26163888440802" lon="11.07395833555752" id="-37229">
		<tag k="name" v="Sirhaugan" />
		<tag k="place" v="locality" />
		<tag k="ssr:stedsnr" v="156193" />
	</node>
	<node lat="63.14614166313662" lon="11.073836104174294" id="-37231">
		<tag k="name" v="Svartholmen" />
		<tag k="natural" v="wetland" />
		<tag k="ssr:stedsnr" v="156328" />
	</node>
	<node lat="63.26183889301483" lon="11.277391659035139" id="-37233">
		<tag k="name" v="Olpålsbjørga" />
		<tag k="place" v="locality" />
		<tag k="ssr:stedsnr" v="156637" />
	</node>
	<node lat="63.23911388838914" lon="11.149800008564364" id="-37236">
		<tag k="name" v="Bergslåttan" />
		<tag k="place" v="locality" />
		<tag k="ssr:stedsnr" v="157041" />
	</node>
</osm>
