<?xml version="1.0" encoding="UTF-8"?>
<osm version="0.6" generator="osmapis">
	<node lat="63.19076460607629" lon="11.145989165608784" id="-32763">
		<tag k="alt_name" v="Litlstokkan" />
		<tag k="fixme" v="consider place=hamlet" />
		<tag k="name" v="Litjstokkan" />
		<tag k="place" v="farm" />
		<tag k="ssr:stedsnr" v="12069" />
	</node>
	<node lat="63.18504798523431" lon="11.189568691665094" id="-32764">
		<tag k="fixme" v="consider place=hamlet" />
		<tag k="name" v="Rollset" />
		<tag k="place" v="farm" />
		<tag k="ssr:stedsnr" v="12076" />
	</node>
	<node lat="63.14718888612055" lon="11.18262778317214" id="-32769">
		<tag k="historic" v="shieling" />
		<tag k="name" v="Sørpåvollen" />
		<tag k="place" v="isolated_dwelling" />
		<tag k="ssr:stedsnr" v="12117" />
	</node>
	<node lat="63.11053524880153" lon="11.314669660953365" id="-32772">
		<tag k="fixme" v="consider place=hamlet" />
		<tag k="name" v="Bakken" />
		<tag k="old_name" v="Bekken" />
		<tag k="place" v="farm" />
		<tag k="ssr:stedsnr" v="12274" />
	</node>
	<node lat="63.11017858603745" lon="11.305281179326265" id="-32773">
		<tag k="fixme" v="consider place=hamlet" />
		<tag k="name" v="Tuset" />
		<tag k="place" v="farm" />
		<tag k="ssr:stedsnr" v="12276" />
	</node>
	<node lat="63.111083328999044" lon="11.308038893393096" id="-32774">
		<tag k="fixme" v="consider place=hamlet" />
		<tag k="name" v="Flora" />
		<tag k="place" v="village" />
		<tag k="ssr:stedsnr" v="12280" />
	</node>
	<node lat="63.270538887239425" lon="10.806516676292482" id="-32779">
		<tag k="name" v="Amdalshaugen" />
		<tag k="place" v="farm" />
		<tag k="ssr:stedsnr" v="13313" />
	</node>
	<node lat="63.323866663130005" lon="11.081061110907957" id="-32783">
		<tag k="name" v="Storvollen" />
		<tag k="place" v="isolated_dwelling" />
		<tag k="ssr:stedsnr" v="13410" />
	</node>
	<node lat="63.114508337339764" lon="11.162113889102544" id="-32799">
		<tag k="historic" v="shieling" />
		<tag k="name" v="Stenvollen" />
		<tag k="place" v="isolated_dwelling" />
		<tag k="ssr:stedsnr" v="35269" />
	</node>
	<node lat="63.290822134205655" lon="11.05912478950738" id="-32801">
		<tag k="alt_name" v="Espet n." />
		<tag k="name" v="Nordre Espet" />
		<tag k="place" v="farm" />
		<tag k="ssr:stedsnr" v="35235" />
	</node>
	<node lat="63.24586388848535" lon="11.09708056119869" id="-32805">
		<tag k="name" v="Nordre Uglan" />
		<tag k="old_name" v="Uglem nordre" />
		<tag k="place" v="farm" />
		<tag k="ssr:stedsnr" v="35175" />
	</node>
	<node lat="63.21028611368787" lon="11.080686110258524" id="-32810">
		<tag k="name" v="Røssetsve" />
		<tag k="place" v="farm" />
		<tag k="ssr:stedsnr" v="35414" />
	</node>
	<node lat="63.2075111119446" lon="11.087424996895358" id="-32811">
		<tag k="name" v="Nordigarden" />
		<tag k="place" v="farm" />
		<tag k="ssr:stedsnr" v="35418" />
	</node>
	<node lat="63.20514999820204" lon="10.96685278533861" id="-32826">
		<tag k="name" v="Gullhaugen" />
		<tag k="place" v="farm" />
		<tag k="ssr:stedsnr" v="37007" />
	</node>
	<node lat="63.202988888477016" lon="11.024925006318153" id="-32827">
		<tag k="name" v="Hårstadmo" />
		<tag k="place" v="farm" />
		<tag k="ssr:stedsnr" v="37069" />
	</node>
	<node lat="63.220877775573854" lon="11.040502774188928" id="-32828">
		<tag k="name" v="Sørli" />
		<tag k="place" v="farm" />
		<tag k="ssr:stedsnr" v="37074" />
	</node>
	<node lat="63.21755555872987" lon="11.045525007919446" id="-32829">
		<tag k="alt_name" v="Hove søndre" />
		<tag k="name" v="Søndre Hove" />
		<tag k="place" v="farm" />
		<tag k="ssr:stedsnr" v="37079" />
	</node>
	<node lat="63.26466666295398" lon="11.110852770623259" id="-32845">
		<tag k="name" v="Langhaug" />
		<tag k="place" v="farm" />
		<tag k="ssr:stedsnr" v="37612" />
	</node>
	<node lat="63.27013802362471" lon="11.012290970211595" id="-32846">
		<tag k="fixme" v="consider place=hamlet" />
		<tag k="name" v="Fossan" />
		<tag k="place" v="farm" />
		<tag k="ssr:stedsnr" v="37560" />
	</node>
	<node lat="63.184277775236836" lon="11.109025005258509" id="-32849">
		<tag k="name" v="Dalen" />
		<tag k="place" v="farm" />
		<tag k="ssr:stedsnr" v="37581" />
	</node>
	<node lat="63.268325002117294" lon="10.809780562663017" id="-32851">
		<tag k="name" v="Nuttudalen" />
		<tag k="place" v="farm" />
		<tag k="ssr:stedsnr" v="37705" />
	</node>
	<node lat="63.28547777975089" lon="11.068561113430976" id="-32855">
		<tag k="amenity" v="kindergarten" />
		<tag k="name" v="Tømra og Innbygda barnehage avdeling Tømra" />
		<tag k="ssr:stedsnr" v="239461" />
	</node>
	<node lat="63.218116669022926" lon="11.039072228735392" id="-32857">
		<tag k="building" v="commercial" />
		<tag k="name" v="Nea Radio" />
		<tag k="ssr:stedsnr" v="59504" />
	</node>
	<node lat="63.23505523990877" lon="11.048592119369806" id="-32858">
		<tag k="fixme" v="consider place=hamlet" />
		<tag k="name" v="Dyrdalen" />
		<tag k="place" v="farm" />
		<tag k="ssr:stedsnr" v="73003" />
	</node>
	<node lat="63.24927126169745" lon="10.953973497088459" id="-32860">
		<tag k="fixme" v="consider place=hamlet" />
		<tag k="name" v="Høyby" />
		<tag k="place" v="farm" />
		<tag k="ssr:stedsnr" v="73020" />
	</node>
	<node lat="63.16083611346383" lon="11.214852775110332" id="-32861">
		<tag k="historic" v="shieling" />
		<tag k="name" v="Høstvollen" />
		<tag k="place" v="isolated_dwelling" />
		<tag k="ssr:stedsnr" v="73120" />
	</node>
	<node lat="63.192244878881205" lon="11.109907035353167" id="-32862">
		<tag k="name" v="Mogardene" />
		<tag k="place" v="hamlet" />
		<tag k="ssr:stedsnr" v="73066" />
	</node>
	<node lat="63.16036944528784" lon="11.459388887945003" id="-32865">
		<tag k="historic" v="shieling" />
		<tag k="name" v="Drøyvollen" />
		<tag k="place" v="isolated_dwelling" />
		<tag k="ssr:stedsnr" v="73222" />
	</node>
	<node lat="63.25117499772225" lon="11.111605554467584" id="-32866">
		<tag k="name" v="Kvelloaunet" />
		<tag k="place" v="farm" />
		<tag k="ssr:stedsnr" v="73362" />
	</node>
	<node lat="63.29251111009224" lon="11.072575008860985" id="-32872">
		<tag k="alt_name" v="Røstad" />
		<tag k="name" v="Røsta" />
		<tag k="place" v="farm" />
		<tag k="ssr:stedsnr" v="74263" />
	</node>
	<node lat="63.29336111273813" lon="11.061024998755016" id="-32873">
		<tag k="name" v="Tømmeråsen" />
		<tag k="place" v="farm" />
		<tag k="ssr:stedsnr" v="74264" />
	</node>
	<node lat="63.29821388503985" lon="11.060733339781843" id="-32874">
		<tag k="name" v="Røsåsen" />
		<tag k="place" v="farm" />
		<tag k="ssr:stedsnr" v="74265" />
	</node>
	<node lat="63.3227444463813" lon="11.144550009773566" id="-32876">
		<tag k="name" v="Såmmårvollen" />
		<tag k="place" v="isolated_dwelling" />
		<tag k="ssr:stedsnr" v="74362" />
	</node>
	<node lat="63.322365538796284" lon="11.087869641289567" id="-32877">
		<tag k="historic" v="shieling" />
		<tag k="name" v="Trøin" />
		<tag k="place" v="isolated_dwelling" />
		<tag k="ssr:stedsnr" v="74363" />
	</node>
	<node lat="63.199748259652786" lon="11.234704745031843" id="-32878">
		<tag k="fixme" v="multiple name tags, choose one and add the other to alt_name" />
		<tag k="historic" v="shieling" />
		<tag k="name" v="Nedre Lunden;Lunden" />
		<tag k="place" v="isolated_dwelling" />
		<tag k="ssr:stedsnr" v="81205" />
	</node>
	<node lat="63.10190555615615" lon="11.343086111597753" id="-32882">
		<tag k="name" v="Tjønnli" />
		<tag k="place" v="farm" />
		<tag k="ssr:stedsnr" v="82139" />
	</node>
	<node lat="63.271472225296094" lon="11.005819446415545" id="-32905">
		<tag k="name" v="Elveli" />
		<tag k="place" v="farm" />
		<tag k="ssr:stedsnr" v="95772" />
	</node>
	<node lat="63.198433334553044" lon="11.243691670391792" id="-32914">
		<tag k="fixme" v="consider place=hamlet" />
		<tag k="name" v="Lund" />
		<tag k="place" v="farm" />
		<tag k="ssr:stedsnr" v="96978" />
	</node>
	<node lat="63.19386389211935" lon="10.940169434989652" id="-32916">
		<tag k="name" v="Stigledet" />
		<tag k="place" v="farm" />
		<tag k="ssr:stedsnr" v="97421" />
	</node>
	<node lat="63.32692717334628" lon="11.173860609855161" id="-32920">
		<tag k="historic" v="shieling" />
		<tag k="name" v="Håmmårsbekkvollen" />
		<tag k="place" v="isolated_dwelling" />
		<tag k="ssr:stedsnr" v="97607" />
	</node>
	<node lat="63.22081389282286" lon="10.970838879997409" id="-32922">
		<tag k="name" v="Ekra" />
		<tag k="place" v="farm" />
		<tag k="ssr:stedsnr" v="98011" />
	</node>
	<node lat="63.23200555286721" lon="10.870749999102625" id="-32923">
		<tag k="name" v="Sjøli" />
		<tag k="place" v="isolated_dwelling" />
		<tag k="ssr:stedsnr" v="98016" />
	</node>
	<node lat="63.20388055261681" lon="11.031697230147884" id="-32924">
		<tag k="name" v="Engset" />
		<tag k="place" v="farm" />
		<tag k="ssr:stedsnr" v="98061" />
	</node>
	<node lat="63.084538888182415" lon="11.09109443812787" id="-32930">
		<tag k="historic" v="shieling" />
		<tag k="name" v="Ytter Skyttholvollen" />
		<tag k="place" v="isolated_dwelling" />
		<tag k="ssr:stedsnr" v="98304" />
	</node>
	<node lat="63.26576666637247" lon="11.231583342601185" id="-32937">
		<tag k="historic" v="shieling" />
		<tag k="name" v="Storvollen" />
		<tag k="place" v="isolated_dwelling" />
		<tag k="ssr:stedsnr" v="98606" />
	</node>
	<node lat="63.1859469405682" lon="11.164968845739967" id="-32949">
		<tag k="name" v="Stokkan" />
		<tag k="place" v="hamlet" />
		<tag k="ssr:stedsnr" v="133059" />
	</node>
	<node lat="63.19275000312825" lon="11.185383330895231" id="-32950">
		<tag k="fixme" v="consider place=hamlet" />
		<tag k="name" v="Rønsberg" />
		<tag k="place" v="farm" />
		<tag k="ssr:stedsnr" v="133063" />
	</node>
	<node lat="63.147930554480894" lon="11.249761108159952" id="-32951">
		<tag k="name" v="Øråsvollen" />
		<tag k="place" v="locality" />
		<tag k="ssr:stedsnr" v="133207" />
	</node>
	<node lat="63.06839221042636" lon="11.249523487758571" id="-32952">
		<tag k="historic" v="shieling" />
		<tag k="name" v="Kløftvollen" />
		<tag k="place" v="isolated_dwelling" />
		<tag k="ssr:stedsnr" v="133267" />
	</node>
	<node lat="63.258548351227084" lon="11.2256346459588" id="-32953">
		<tag k="historic" v="shieling" />
		<tag k="name" v="Liavollen" />
		<tag k="place" v="isolated_dwelling" />
		<tag k="ssr:stedsnr" v="134108" />
	</node>
	<node lat="63.290231247244364" lon="11.060304095267377" id="-32956">
		<tag k="name" v="Espet" />
		<tag k="place" v="locality" />
		<tag k="ssr:stedsnr" v="134356" />
	</node>
	<node lat="63.256872220422856" lon="11.11070834253565" id="-32957">
		<tag k="name" v="Brubakk" />
		<tag k="place" v="farm" />
		<tag k="ssr:stedsnr" v="134365" />
	</node>
	<node lat="63.26305463645307" lon="11.131328273022122" id="-32958">
		<tag k="name" v="Litjmoen" />
		<tag k="place" v="locality" />
		<tag k="ssr:stedsnr" v="134366" />
	</node>
	<node lat="63.15377778103992" lon="11.421280553555583" id="-32961">
		<tag k="historic" v="shieling" />
		<tag k="name" v="Gruvvollen" />
		<tag k="place" v="isolated_dwelling" />
		<tag k="ssr:stedsnr" v="255226" />
	</node>
	<node lat="63.198127773942716" lon="11.242922231593726" id="-32963">
		<tag k="historic" v="shieling" />
		<tag k="name" v="Øvre Lunden" />
		<tag k="place" v="isolated_dwelling" />
		<tag k="ssr:stedsnr" v="255238" />
	</node>
	<node lat="63.206144441361076" lon="11.020725009479532" id="-32967">
		<tag k="name" v="Trøa" />
		<tag k="place" v="farm" />
		<tag k="ssr:stedsnr" v="255042" />
	</node>
	<node lat="63.19926535151631" lon="10.953400172829921" id="-32971">
		<tag k="alt_name" v="Slindmo" />
		<tag k="name" v="Slindmoen" />
		<tag k="place" v="farm" />
		<tag k="ssr:stedsnr" v="255090" />
	</node>
	<node lat="63.21753332914791" lon="11.045672214620012" id="-32972">
		<tag k="name" v="Lekåa" />
		<tag k="place" v="farm" />
		<tag k="ssr:stedsnr" v="255052" />
	</node>
	<node lat="63.176858917169575" lon="11.154730928541065" id="-32975">
		<tag k="historic" v="shieling" />
		<tag k="name" v="Stokkvollen" />
		<tag k="place" v="isolated_dwelling" />
		<tag k="ssr:stedsnr" v="255130" />
	</node>
	<node lat="63.201808330665436" lon="11.13473611455176" id="-32976">
		<tag k="fixme" v="consider place=hamlet" />
		<tag k="name" v="Hyttbakken" />
		<tag k="place" v="village" />
		<tag k="ssr:stedsnr" v="255101" />
	</node>
	<node lat="63.208186113969035" lon="11.531886115693352" id="-32977">
		<tag k="name" v="Svenskmoen" />
		<tag k="place" v="isolated_dwelling" />
		<tag k="ssr:stedsnr" v="255200" />
	</node>
	<node lat="63.117263886841755" lon="10.972644447165555" id="-32978">
		<tag k="historic" v="shieling" />
		<tag k="name" v="Sandvollen" />
		<tag k="place" v="isolated_dwelling" />
		<tag k="ssr:stedsnr" v="255155" />
	</node>
	<node lat="63.108660499137955" lon="11.07673055133703" id="-32979">
		<tag k="historic" v="shieling" />
		<tag k="name" v="Tangvollen" />
		<tag k="place" v="isolated_dwelling" />
		<tag k="ssr:stedsnr" v="255158" />
	</node>
	<node lat="63.17443611039779" lon="11.235725001580684" id="-32980">
		<tag k="historic" v="shieling" />
		<tag k="name" v="Vårvollen" />
		<tag k="place" v="isolated_dwelling" />
		<tag k="ssr:stedsnr" v="255248" />
	</node>
	<node lat="63.304663887378034" lon="11.217233328016475" id="-32986">
		<tag k="name" v="Hovsvollen" />
		<tag k="place" v="locality" />
		<tag k="ssr:stedsnr" v="256269" />
	</node>
	<node lat="63.27317222553965" lon="11.130238887334249" id="-32987">
		<tag k="name" v="Myran" />
		<tag k="place" v="farm" />
		<tag k="ssr:stedsnr" v="256273" />
	</node>
	<node lat="63.26008888589943" lon="11.086291673626276" id="-32990">
		<tag k="name" v="Nyberg" />
		<tag k="place" v="farm" />
		<tag k="ssr:stedsnr" v="256298" />
	</node>
	<node lat="63.11025278184417" lon="11.322508327765117" id="-32994">
		<tag k="building" v="industrial" />
		<tag k="name" v="Smedrommet" />
		<tag k="ssr:stedsnr" v="155571" />
	</node>
	<node lat="63.26401110703706" lon="11.116133339569599" id="-32996">
		<tag k="name" v="Langset" />
		<tag k="place" v="farm" />
		<tag k="ssr:stedsnr" v="155718" />
	</node>
	<node lat="63.19196388603936" lon="11.130916663331696" id="-33000">
		<tag k="name" v="Kråkstadekra" />
		<tag k="place" v="farm" />
		<tag k="ssr:stedsnr" v="155661" />
	</node>
	<node lat="63.289674469725526" lon="11.188812840774977" id="-33018">
		<tag k="historic" v="shieling" />
		<tag k="name" v="Sirvollen" />
		<tag k="place" v="isolated_dwelling" />
		<tag k="ssr:stedsnr" v="157054" />
	</node>
	<node lat="63.25500277887631" lon="10.7900555500474" id="-33027">
		<tag k="name" v="Okstadåsen" />
		<tag k="place" v="farm" />
		<tag k="ssr:stedsnr" v="158403" />
	</node>
	<node lat="63.23936666299405" lon="11.074719439941607" id="-33034">
		<tag k="name" v="Vølsetsve" />
		<tag k="place" v="farm" />
		<tag k="ssr:stedsnr" v="158550" />
	</node>
	<node lat="63.19911666404159" lon="11.144522227951276" id="-33038">
		<tag k="name" v="Nordgard" />
		<tag k="place" v="farm" />
		<tag k="ssr:stedsnr" v="158568" />
	</node>
	<node lat="63.251308337139726" lon="10.930599992778054" id="-33039">
		<tag k="name" v="Negarden" />
		<tag k="place" v="farm" />
		<tag k="ssr:stedsnr" v="158721" />
	</node>
	<node lat="63.10806388510887" lon="11.282138880186784" id="-33045">
		<tag k="name" v="Uthusplassen" />
		<tag k="place" v="farm" />
		<tag k="ssr:stedsnr" v="158617" />
	</node>
	<node lat="63.169011109268745" lon="10.951122215400028" id="-33046">
		<tag k="historic" v="shieling" />
		<tag k="name" v="Kotlivollen" />
		<tag k="place" v="isolated_dwelling" />
		<tag k="ssr:stedsnr" v="159013" />
	</node>
	<node lat="63.259038890297965" lon="10.96270555096124" id="-33047">
		<tag k="alt_name" v="Engan ø." />
		<tag k="name" v="Østre Engan" />
		<tag k="place" v="farm" />
		<tag k="ssr:stedsnr" v="159021" />
	</node>
	<node lat="63.204963886467425" lon="11.021061113155485" id="-33048">
		<tag k="name" v="Grimsplassen" />
		<tag k="place" v="farm" />
		<tag k="ssr:stedsnr" v="159052" />
	</node>
	<node lat="63.31809721906402" lon="11.107927777605502" id="-33058">
		<tag k="historic" v="shieling" />
		<tag k="name" v="Tømmervollen" />
		<tag k="place" v="isolated_dwelling" />
		<tag k="ssr:stedsnr" v="159523" />
	</node>
	<node lat="63.26918055560277" lon="10.993769446541876" id="-33059">
		<tag k="historic" v="shieling" />
		<tag k="name" v="Nygjardet" />
		<tag k="place" v="isolated_dwelling" />
		<tag k="ssr:stedsnr" v="159601" />
	</node>
	<node lat="63.22926666641742" lon="11.035377768796096" id="-33061">
		<tag k="amenity" v="school" />
		<tag k="name" v="Selbu videregående skole" />
		<tag k="ssr:stedsnr" v="179764" />
	</node>
	<node lat="63.15848840690961" lon="11.471126698835254" id="-33063">
		<tag k="name" v="Syndre Hoemsvollen" />
		<tag k="place" v="isolated_dwelling" />
		<tag k="ssr:stedsnr" v="263223" />
	</node>
	<node lat="63.089385151525164" lon="11.28794535272513" id="-33064">
		<tag k="historic" v="shieling" />
		<tag k="name" v="Melavollen" />
		<tag k="place" v="isolated_dwelling" />
		<tag k="ssr:stedsnr" v="263185" />
	</node>
	<node lat="63.084954271734546" lon="10.982207781806233" id="-33069">
		<tag k="name" v="Storlivollen" />
		<tag k="place" v="isolated_dwelling" />
		<tag k="ssr:stedsnr" v="263346" />
	</node>
	<node lat="63.10179059596605" lon="10.98383211767996" id="-33070">
		<tag k="name" v="Aunlivollen" />
		<tag k="place" v="isolated_dwelling" />
		<tag k="ssr:stedsnr" v="263347" />
	</node>
	<node lat="63.26200277528048" lon="11.088522220724258" id="-33076">
		<tag k="alt_name" v="Bjørgen" />
		<tag k="name" v="Garbergsbjørga" />
		<tag k="place" v="farm" />
		<tag k="ssr:stedsnr" v="195348" />
	</node>
	<node lat="63.25777500016323" lon="10.921461105667753" id="-33078">
		<tag k="name" v="Dalen" />
		<tag k="place" v="farm" />
		<tag k="ssr:stedsnr" v="195353" />
	</node>
	<node lat="63.3357972194605" lon="11.071833339891962" id="-33079">
		<tag k="name" v="Grindbjørgin" />
		<tag k="place" v="isolated_dwelling" />
		<tag k="ssr:stedsnr" v="195357" />
	</node>
	<node lat="63.30393889104237" lon="10.934872215410595" id="-33080">
		<tag k="name" v="Grøtemsvollen" />
		<tag k="place" v="isolated_dwelling" />
		<tag k="ssr:stedsnr" v="195369" />
	</node>
	<node lat="63.2441812274001" lon="11.041170825568356" id="-33090">
		<tag k="fixme" v="consider place=hamlet" />
		<tag k="name" v="Flønes" />
		<tag k="place" v="farm" />
		<tag k="ssr:stedsnr" v="268746" />
	</node>
	<node lat="63.20756502595214" lon="11.095443214003502" id="-33107">
		<tag k="fixme" v="multiple name tags, choose one and add the other to alt_name" />
		<tag k="name" v="Evjen;Evja" />
		<tag k="place" v="hamlet" />
		<tag k="ssr:stedsnr" v="217126" />
	</node>
	<node lat="63.19192222211538" lon="11.124458341911325" id="-33110">
		<tag k="name" v="Kråkstad" />
		<tag k="place" v="farm" />
		<tag k="ssr:stedsnr" v="217024" />
	</node>
	<node lat="63.272322224186894" lon="11.005427782512202" id="-33111">
		<tag k="name" v="Dalhaug" />
		<tag k="place" v="farm" />
		<tag k="ssr:stedsnr" v="217210" />
	</node>
	<node lat="63.23423055551374" lon="11.03830278326308" id="-33122">
		<tag k="name" v="Skardstuggu" />
		<tag k="place" v="farm" />
		<tag k="ssr:stedsnr" v="218508" />
	</node>
	<node lat="63.19903333720044" lon="11.04630277951269" id="-33124">
		<tag k="name" v="Kolsettrø" />
		<tag k="place" v="farm" />
		<tag k="ssr:stedsnr" v="218515" />
	</node>
	<node lat="63.24143611345106" lon="11.076233327348017" id="-33142">
		<tag k="name" v="Nykkelmo" />
		<tag k="place" v="farm" />
		<tag k="ssr:stedsnr" v="219526" />
	</node>
	<node lat="63.248505552097576" lon="11.069638896982061" id="-33143">
		<tag k="alt_name" v="Eidemsgjardet nordre" />
		<tag k="name" v="Nordre Eidemsgjardet" />
		<tag k="place" v="farm" />
		<tag k="ssr:stedsnr" v="219528" />
	</node>
	<node lat="63.231663888948475" lon="11.220380547960309" id="-33145">
		<tag k="historic" v="shieling" />
		<tag k="name" v="Vester Blekvollen" />
		<tag k="place" v="isolated_dwelling" />
		<tag k="ssr:stedsnr" v="219580" />
	</node>
	<node lat="63.24916388981824" lon="11.100791670183188" id="-33147">
		<tag k="name" v="Grinda" />
		<tag k="place" v="farm" />
		<tag k="ssr:stedsnr" v="219593" />
	</node>
	<node lat="63.292956084329354" lon="11.293519665916811" id="-33151">
		<tag k="historic" v="shieling" />
		<tag k="name" v="Svartåsvollen" />
		<tag k="place" v="isolated_dwelling" />
		<tag k="ssr:stedsnr" v="219605" />
	</node>
	<node lat="63.283705551522445" lon="11.259808327656689" id="-33152">
		<tag k="historic" v="shieling" />
		<tag k="name" v="Stråsjøvollen" />
		<tag k="place" v="isolated_dwelling" />
		<tag k="ssr:stedsnr" v="219607" />
	</node>
	<node lat="63.28247776256902" lon="11.235299513309261" id="-33153">
		<tag k="historic" v="shieling" />
		<tag k="name" v="Fossan" />
		<tag k="place" v="isolated_dwelling" />
		<tag k="ssr:stedsnr" v="219610" />
	</node>
	<node lat="63.164042554144714" lon="11.31093077269437" id="-33155">
		<tag k="historic" v="shieling" />
		<tag k="name" v="Bjørgavollen" />
		<tag k="place" v="isolated_dwelling" />
		<tag k="ssr:stedsnr" v="219638" />
	</node>
	<node lat="63.25036110853564" lon="10.757780557865713" id="-33157">
		<tag k="name" v="Søndre Renåa" />
		<tag k="old_name" v="Renå søndre" />
		<tag k="place" v="farm" />
		<tag k="ssr:stedsnr" v="220127" />
	</node>
	<node lat="63.27001944222327" lon="10.811033329244175" id="-33158">
		<tag k="fixme" v="consider place=hamlet" />
		<tag k="name" v="Amdal" />
		<tag k="place" v="farm" />
		<tag k="ssr:stedsnr" v="220129" />
	</node>
	<node lat="63.256894442526" lon="10.923291675707876" id="-33159">
		<tag k="name" v="Stenhaugen" />
		<tag k="place" v="farm" />
		<tag k="ssr:stedsnr" v="220030" />
	</node>
	<node lat="63.23678526699276" lon="11.177503150413775" id="-33164">
		<tag k="historic" v="shieling" />
		<tag k="name" v="Litjvollen" />
		<tag k="old_name" v="Lillevollen" />
		<tag k="place" v="isolated_dwelling" />
		<tag k="ssr:stedsnr" v="255004" />
	</node>
	<node lat="63.24177222507562" lon="10.825650002261057" id="-33167">
		<tag k="name" v="Sjøbygda" />
		<tag k="place" v="hamlet" />
		<tag k="ssr:stedsnr" v="255026" />
	</node>
	<node lat="63.20145832979468" lon="11.306741672052226" id="-33169">
		<tag k="historic" v="shieling" />
		<tag k="name" v="Krossåvollen" />
		<tag k="place" v="isolated_dwelling" />
		<tag k="ssr:stedsnr" v="255203" />
	</node>
	<node lat="63.19933308243029" lon="11.470843939305244" id="-33170">
		<tag k="name" v="Øvre Brattslåtten" />
		<tag k="place" v="isolated_dwelling" />
		<tag k="ssr:stedsnr" v="255204" />
	</node>
	<node lat="63.19923391729853" lon="10.945177017382566" id="-33174">
		<tag k="name" v="Aftret" />
		<tag k="place" v="hamlet" />
		<tag k="ssr:stedsnr" v="255110" />
	</node>
	<node lat="63.13465143400209" lon="10.847537140360902" id="-33175">
		<tag k="name" v="Ånbekkvollen" />
		<tag k="place" v="locality" />
		<tag k="ssr:stedsnr" v="255113" />
	</node>
	<node lat="63.125566662138326" lon="11.091205561836263" id="-33176">
		<tag k="historic" v="shieling" />
		<tag k="name" v="Hansvollen" />
		<tag k="place" v="isolated_dwelling" />
		<tag k="ssr:stedsnr" v="255116" />
	</node>
	<node lat="63.11811388631722" lon="11.217705550944656" id="-33179">
		<tag k="historic" v="shieling" />
		<tag k="name" v="Rånøyene" />
		<tag k="place" v="isolated_dwelling" />
		<tag k="ssr:stedsnr" v="255165" />
	</node>
	<node lat="63.07387499792907" lon="10.951230556032288" id="-33180">
		<tag k="historic" v="shieling" />
		<tag k="name" v="Råvollen" />
		<tag k="place" v="isolated_dwelling" />
		<tag k="ssr:stedsnr" v="255180" />
	</node>
	<node lat="63.292777452679275" lon="11.295793185155004" id="-33188">
		<tag k="historic" v="shieling" />
		<tag k="name" v="Svartåsen" />
		<tag k="place" v="isolated_dwelling" />
		<tag k="ssr:stedsnr" v="256077" />
	</node>
	<node lat="63.301277774194695" lon="11.076444435725422" id="-33253">
		<tag k="historic" v="shieling" />
		<tag k="name" v="Flønesvollen" />
		<tag k="place" v="isolated_dwelling" />
		<tag k="ssr:stedsnr" v="278202" />
	</node>
	<node lat="63.28189444413673" lon="11.03320000723689" id="-33255">
		<tag k="alt_name" v="Motrøa vestre" />
		<tag k="name" v="Vestre Motrøa" />
		<tag k="place" v="farm" />
		<tag k="ssr:stedsnr" v="278209" />
	</node>
	<node lat="63.23893888503785" lon="11.070355553797341" id="-33258">
		<tag k="name" v="Bakkgjardet" />
		<tag k="place" v="farm" />
		<tag k="ssr:stedsnr" v="278176" />
	</node>
	<node lat="63.206361110097916" lon="11.102383325779613" id="-33264">
		<tag k="name" v="Neatun" />
		<tag k="place" v="farm" />
		<tag k="ssr:stedsnr" v="460034" />
	</node>
	<node lat="63.211013893064546" lon="10.984336111033674" id="-33273">
		<tag k="name" v="Ryen" />
		<tag k="place" v="farm" />
		<tag k="ssr:stedsnr" v="460156" />
	</node>
	<node lat="63.23016389250363" lon="11.038694451869777" id="-33279">
		<tag k="name" v="Sørli" />
		<tag k="place" v="farm" />
		<tag k="ssr:stedsnr" v="279524" />
	</node>
	<node lat="63.22933055601322" lon="11.034466664282848" id="-33283">
		<tag k="name" v="Soltun" />
		<tag k="place" v="farm" />
		<tag k="ssr:stedsnr" v="460192" />
	</node>
	<node lat="63.22699722513575" lon="11.025572230414594" id="-33284">
		<tag k="name" v="Stormyråsen" />
		<tag k="place" v="farm" />
		<tag k="ssr:stedsnr" v="460197" />
	</node>
	<node lat="63.19624166373535" lon="10.954797223746034" id="-33285">
		<tag k="name" v="Ystermoen" />
		<tag k="place" v="farm" />
		<tag k="ssr:stedsnr" v="280002" />
	</node>
	<node lat="63.19746944190892" lon="10.961066665212448" id="-33286">
		<tag k="name" v="Bortistoggo" />
		<tag k="place" v="farm" />
		<tag k="ssr:stedsnr" v="280009" />
	</node>
	<node lat="63.18824166187365" lon="10.915450388268688" id="-33287">
		<tag k="name" v="Åsan" />
		<tag k="place" v="farm" />
		<tag k="ssr:stedsnr" v="280012" />
	</node>
	<node lat="63.19834444792465" lon="11.048580550782717" id="-33303">
		<tag k="name" v="Kulsetsaga" />
		<tag k="place" v="farm" />
		<tag k="ssr:stedsnr" v="460390" />
	</node>
	<node lat="63.201286109722666" lon="11.081147221878298" id="-33304">
		<tag k="name" v="Reinen" />
		<tag k="place" v="farm" />
		<tag k="ssr:stedsnr" v="460392" />
	</node>
	<node lat="63.18551666945654" lon="11.187177774132273" id="-33307">
		<tag k="name" v="Midttun" />
		<tag k="place" v="farm" />
		<tag k="ssr:stedsnr" v="280571" />
	</node>
	<node lat="63.18742222104316" lon="11.127247230953309" id="-33308">
		<tag k="name" v="Kvernmoen" />
		<tag k="place" v="farm" />
		<tag k="ssr:stedsnr" v="280578" />
	</node>
	<node lat="63.21068333506231" lon="11.102347215787304" id="-33309">
		<tag k="name" v="Evjsvea" />
		<tag k="place" v="farm" />
		<tag k="ssr:stedsnr" v="280581" />
	</node>
	<node lat="63.22333333262836" lon="10.969833335960665" id="-33337">
		<tag k="name" v="Nineset" />
		<tag k="place" v="farm" />
		<tag k="ssr:stedsnr" v="461279" />
	</node>
	<node lat="63.07363610872402" lon="10.945402786890336" id="-33342">
		<tag k="name" v="Overvik og Nervik sameie" />
		<tag k="place" v="locality" />
		<tag k="ssr:stedsnr" v="461442" />
	</node>
	<node lat="63.25738610822601" lon="11.100344452916943" id="-33347">
		<tag k="name" v="Garbergsbakken" />
		<tag k="place" v="farm" />
		<tag k="ssr:stedsnr" v="287376" />
	</node>
	<node lat="63.11319166709892" lon="11.323311114194818" id="-33352">
		<tag k="name" v="Heggstad" />
		<tag k="place" v="farm" />
		<tag k="ssr:stedsnr" v="461611" />
	</node>
	<node lat="63.2029222218562" lon="10.952419445927251" id="-33358">
		<tag k="name" v="Nygård" />
		<tag k="place" v="farm" />
		<tag k="ssr:stedsnr" v="462001" />
	</node>
	<node lat="63.17761944242058" lon="10.926350001960593" id="-33359">
		<tag k="historic" v="shieling" />
		<tag k="name" v="Litjvollen" />
		<tag k="place" v="isolated_dwelling" />
		<tag k="ssr:stedsnr" v="462014" />
	</node>
	<node lat="63.22323611058801" lon="10.971174998807296" id="-33360">
		<tag k="name" v="Nesbakken" />
		<tag k="place" v="farm" />
		<tag k="ssr:stedsnr" v="462018" />
	</node>
	<node lat="63.218230556686756" lon="10.974172222184942" id="-33368">
		<tag k="alt_name" v="Nervik østre" />
		<tag k="name" v="Østre Nervik" />
		<tag k="place" v="farm" />
		<tag k="ssr:stedsnr" v="462513" />
	</node>
	<node lat="63.197486112918845" lon="11.109658338803856" id="-33369">
		<tag k="name" v="Haugen" />
		<tag k="place" v="farm" />
		<tag k="ssr:stedsnr" v="462575" />
	</node>
	<node lat="63.26745231939775" lon="10.990825948814834" id="-33370">
		<tag k="alt_name" v="Sandvik østre" />
		<tag k="fixme" v="consider place=hamlet" />
		<tag k="name" v="Østre Sandvik" />
		<tag k="place" v="farm" />
		<tag k="ssr:stedsnr" v="462521" />
	</node>
	<node lat="63.27591944523275" lon="11.036938881996065" id="-33371">
		<tag k="alt_name" v="Moen vestre" />
		<tag k="name" v="Vestre Moen" />
		<tag k="place" v="farm" />
		<tag k="ssr:stedsnr" v="462526" />
	</node>
	<node lat="63.243077773787306" lon="11.090644437146183" id="-33373">
		<tag k="name" v="Uglemshaug" />
		<tag k="place" v="farm" />
		<tag k="ssr:stedsnr" v="462528" />
	</node>
	<node lat="63.19118055259701" lon="11.1338111102709" id="-33374">
		<tag k="name" v="Rønningen" />
		<tag k="place" v="farm" />
		<tag k="ssr:stedsnr" v="462529" />
	</node>
	<node lat="63.25930833357456" lon="11.110425001796681" id="-33375">
		<tag k="name" v="Trøa" />
		<tag k="place" v="farm" />
		<tag k="ssr:stedsnr" v="462532" />
	</node>
	<node lat="63.25346110848183" lon="11.09743889580628" id="-33376">
		<tag k="name" v="Uglemsmo" />
		<tag k="place" v="farm" />
		<tag k="ssr:stedsnr" v="462533" />
	</node>
	<node lat="63.28231111540529" lon="11.049952773033313" id="-33377">
		<tag k="name" v="Sessåsbakken" />
		<tag k="place" v="isolated_dwelling" />
		<tag k="ssr:stedsnr" v="462535" />
	</node>
	<node lat="63.20952222555652" lon="11.060138894526721" id="-33378">
		<tag k="alt_name" v="Berge nordre" />
		<tag k="name" v="Nordre Berge" />
		<tag k="place" v="farm" />
		<tag k="ssr:stedsnr" v="462548" />
	</node>
	<node lat="63.200650003369084" lon="11.03973611955827" id="-33379">
		<tag k="alt_name" v="Kleset nordre" />
		<tag k="name" v="Nordre Kleset" />
		<tag k="place" v="farm" />
		<tag k="ssr:stedsnr" v="462551" />
	</node>
	<node lat="63.297311113542044" lon="11.074116666620116" id="-33380">
		<tag k="name" v="Røet" />
		<tag k="place" v="farm" />
		<tag k="ssr:stedsnr" v="462757" />
	</node>
	<node lat="63.21266944177643" lon="10.95319166219059" id="-33384">
		<tag k="name" v="Torpet" />
		<tag k="place" v="farm" />
		<tag k="ssr:stedsnr" v="462700" />
	</node>
	<node lat="63.27996866071324" lon="11.02661292617028" id="-33389">
		<tag k="name" v="Stamnesgrenda" />
		<tag k="place" v="hamlet" />
		<tag k="ssr:stedsnr" v="300322" />
	</node>
	<node lat="63.28237222035763" lon="11.053580551602025" id="-33390">
		<tag k="landuse" v="winter_sports" />
		<tag k="name" v="Såslia alpinanlegg" />
		<tag k="piste:type" v="downhill" />
		<tag k="ssr:stedsnr" v="300475" />
	</node>
	<node lat="63.14123888975757" lon="11.252238888106175" id="-33395">
		<tag k="name" v="Langsmoen" />
		<tag k="place" v="locality" />
		<tag k="ssr:stedsnr" v="315252" />
	</node>
	<node lat="63.109925294090345" lon="11.296602897738186" id="-33396">
		<tag k="fixme" v="consider place=hamlet" />
		<tag k="name" v="Uthus" />
		<tag k="place" v="farm" />
		<tag k="ssr:stedsnr" v="315262" />
	</node>
	<node lat="63.1397611087867" lon="11.179213885297054" id="-33400">
		<tag k="historic" v="shieling" />
		<tag k="name" v="Stenen" />
		<tag k="place" v="isolated_dwelling" />
		<tag k="ssr:stedsnr" v="316115" />
	</node>
	<node lat="63.1663638927699" lon="10.936255564420003" id="-33401">
		<tag k="historic" v="shieling" />
		<tag k="name" v="Aunvollen" />
		<tag k="place" v="isolated_dwelling" />
		<tag k="ssr:stedsnr" v="316119" />
	</node>
	<node lat="63.253388890320444" lon="10.957405560066041" id="-33403">
		<tag k="name" v="Østby" />
		<tag k="place" v="farm" />
		<tag k="ssr:stedsnr" v="316410" />
	</node>
	<node lat="63.25281944669246" lon="11.08775832727963" id="-33404">
		<tag k="name" v="Moheim" />
		<tag k="place" v="isolated_dwelling" />
		<tag k="ssr:stedsnr" v="316412" />
	</node>
	<node lat="63.31068610938684" lon="10.994391676056635" id="-33405">
		<tag k="name" v="Vardebu" />
		<tag k="place" v="isolated_dwelling" />
		<tag k="ssr:stedsnr" v="316414" />
	</node>
	<node lat="63.2860083311337" lon="11.03598887905107" id="-33409">
		<tag k="name" v="Pundsåsen" />
		<tag k="place" v="farm" />
		<tag k="ssr:stedsnr" v="316353" />
	</node>
	<node lat="63.26691944882774" lon="11.078391658074004" id="-33411">
		<tag k="name" v="Siran" />
		<tag k="place" v="farm" />
		<tag k="ssr:stedsnr" v="316399" />
	</node>
	<node lat="63.084236111227895" lon="11.095038888118978" id="-33416">
		<tag k="historic" v="shieling" />
		<tag k="name" v="Ytter-Skyttholvollen" />
		<tag k="place" v="isolated_dwelling" />
		<tag k="ssr:stedsnr" v="324317" />
	</node>
	<node lat="63.27081666474741" lon="10.82026110472733" id="-33419">
		<tag k="name" v="Amdal" />
		<tag k="place" v="farm" />
		<tag k="ssr:stedsnr" v="337500" />
	</node>
	<node lat="63.19631110776856" lon="11.053869450299908" id="-33424">
		<tag k="alt_name" v="Kolset vestre" />
		<tag k="fixme" v="consider place=hamlet" />
		<tag k="name" v="Vestre Kolset" />
		<tag k="place" v="farm" />
		<tag k="ssr:stedsnr" v="337815" />
	</node>
	<node lat="63.20576388731289" lon="10.973094453886777" id="-33431">
		<tag k="name" v="Ner-Aunet" />
		<tag k="place" v="farm" />
		<tag k="ssr:stedsnr" v="338098" />
	</node>
	<node lat="63.259533334516995" lon="10.728075006708254" id="-33446">
		<tag k="name" v="Hånnå-Renåsjøbjørg statsskog" />
		<tag k="place" v="locality" />
		<tag k="ssr:stedsnr" v="340094" />
	</node>
	<node lat="63.2148861117268" lon="10.98818055913342" id="-33453">
		<tag k="name" v="Myrvang" />
		<tag k="place" v="farm" />
		<tag k="ssr:stedsnr" v="340504" />
	</node>
	<node lat="63.243555554808715" lon="11.049458326668002" id="-33454">
		<tag k="alt_name" v="Eidem nedre" />
		<tag k="name" v="Nedre Eidem" />
		<tag k="place" v="farm" />
		<tag k="ssr:stedsnr" v="340509" />
	</node>
	<node lat="63.287943337621826" lon="11.06004117945699" id="-33456">
		<tag k="alt_name" v="Espet søre" />
		<tag k="name" v="Søre Espet" />
		<tag k="place" v="farm" />
		<tag k="ssr:stedsnr" v="340526" />
	</node>
	<node lat="63.18500277536826" lon="11.168083334835032" id="-33457">
		<tag k="name" v="Midtstokkan" />
		<tag k="place" v="farm" />
		<tag k="ssr:stedsnr" v="340542" />
	</node>
	<node lat="63.19109166260903" lon="11.113324999090597" id="-33458">
		<tag k="alt_name" v="Mogård Vestre" />
		<tag k="name" v="Vestre Mogård" />
		<tag k="place" v="farm" />
		<tag k="ssr:stedsnr" v="340546" />
	</node>
	<node lat="63.18680555148928" lon="11.1221500024495" id="-33459">
		<tag k="name" v="Granstad" />
		<tag k="place" v="farm" />
		<tag k="ssr:stedsnr" v="340554" />
	</node>
	<node lat="63.193875000367996" lon="11.187405564307179" id="-33460">
		<tag k="name" v="Pe-Hansgjardet" />
		<tag k="place" v="farm" />
		<tag k="ssr:stedsnr" v="340555" />
	</node>
	<node lat="63.18905833657529" lon="10.945963893431914" id="-33470">
		<tag k="name" v="Kvammen" />
		<tag k="place" v="farm" />
		<tag k="ssr:stedsnr" v="340495" />
	</node>
	<node lat="63.266077780501575" lon="11.227905563998531" id="-33475">
		<tag k="historic" v="shieling" />
		<tag k="name" v="Stubbvollen" />
		<tag k="place" v="isolated_dwelling" />
		<tag k="ssr:stedsnr" v="340608" />
	</node>
	<node lat="63.26532221968341" lon="11.12562499868351" id="-33477">
		<tag k="name" v="Nygardsmoan" />
		<tag k="place" v="farm" />
		<tag k="ssr:stedsnr" v="340592" />
	</node>
	<node lat="63.30002777873319" lon="11.131944447229701" id="-33479">
		<tag k="historic" v="shieling" />
		<tag k="name" v="Eivollen" />
		<tag k="place" v="isolated_dwelling" />
		<tag k="ssr:stedsnr" v="340594" />
	</node>
	<node lat="63.21152222106945" lon="10.946811115992423" id="-33482">
		<tag k="name" v="Nilsneset" />
		<tag k="place" v="farm" />
		<tag k="ssr:stedsnr" v="341002" />
	</node>
	<node lat="63.21653610962865" lon="10.960658323769744" id="-33483">
		<tag k="name" v="Pålodden" />
		<tag k="place" v="farm" />
		<tag k="ssr:stedsnr" v="341146" />
	</node>
	<node lat="63.2162916686099" lon="11.403922223592124" id="-33493">
		<tag k="name" v="Lerholet" />
		<tag k="place" v="isolated_dwelling" />
		<tag k="ssr:stedsnr" v="376191" />
	</node>
	<node lat="63.11021538564245" lon="11.265910588133119" id="-33495">
		<tag k="fixme" v="consider place=hamlet" />
		<tag k="name" v="Flaknan" />
		<tag k="place" v="farm" />
		<tag k="ssr:stedsnr" v="376281" />
	</node>
	<node lat="63.113483330934244" lon="11.2562138805636" id="-33496">
		<tag k="alt_name" v="Drivvoll" />
		<tag k="name" v="Drivvollen" />
		<tag k="place" v="farm" />
		<tag k="ssr:stedsnr" v="376283" />
	</node>
	<node lat="63.05592499608456" lon="11.283283330728262" id="-33498">
		<tag k="historic" v="shieling" />
		<tag k="name" v="Bakkdalen" />
		<tag k="place" v="isolated_dwelling" />
		<tag k="ssr:stedsnr" v="376327" />
	</node>
	<node lat="63.19628055897275" lon="11.152125002986748" id="-33502">
		<tag k="name" v="Uststo" />
		<tag k="place" v="farm" />
		<tag k="ssr:stedsnr" v="398012" />
	</node>
	<node lat="63.24509166290122" lon="11.03013611975563" id="-33528">
		<tag k="name" v="Tangtrøa" />
		<tag k="place" v="farm" />
		<tag k="ssr:stedsnr" v="399181" />
	</node>
	<node lat="63.15814180388375" lon="11.471286116339185" id="-33534">
		<tag k="historic" v="shieling" />
		<tag k="name" v="Hoemsvollen" />
		<tag k="place" v="isolated_dwelling" />
		<tag k="ssr:stedsnr" v="399877" />
	</node>
	<node lat="63.13220833720562" lon="11.260144453576695" id="-33538">
		<tag k="name" v="Langsenget" />
		<tag k="place" v="farm" />
		<tag k="ssr:stedsnr" v="399931" />
	</node>
	<node lat="63.20793055497034" lon="10.947216676351777" id="-33544">
		<tag k="name" v="Vallineset" />
		<tag k="place" v="farm" />
		<tag k="ssr:stedsnr" v="400436" />
	</node>
	<node lat="63.20097221871743" lon="10.970725006092104" id="-33546">
		<tag k="name" v="Dalen" />
		<tag k="place" v="farm" />
		<tag k="ssr:stedsnr" v="401008" />
	</node>
	<node lat="63.20243610964327" lon="10.946727787494332" id="-33548">
		<tag k="name" v="Nordpågjardet" />
		<tag k="place" v="farm" />
		<tag k="ssr:stedsnr" v="401134" />
	</node>
	<node lat="63.2253305527878" lon="11.02206945124588" id="-33559">
		<tag k="name" v="Flatås" />
		<tag k="place" v="farm" />
		<tag k="ssr:stedsnr" v="401504" />
	</node>
	<node lat="63.277444447264514" lon="11.05785556280514" id="-33560">
		<tag k="name" v="Sessåsodden" />
		<tag k="place" v="farm" />
		<tag k="ssr:stedsnr" v="401512" />
	</node>
	<node lat="63.30580663829164" lon="11.217939728412205" id="-33565">
		<tag k="historic" v="shieling" />
		<tag k="name" v="Hovsvollen" />
		<tag k="place" v="isolated_dwelling" />
		<tag k="ssr:stedsnr" v="401598" />
	</node>
	<node lat="63.21562499899413" lon="11.049158330863984" id="-33579">
		<tag k="name" v="Brattlia" />
		<tag k="place" v="farm" />
		<tag k="ssr:stedsnr" v="437062" />
	</node>
	<node lat="63.2011722193837" lon="11.08385833604036" id="-33580">
		<tag k="name" v="Evjmoen" />
		<tag k="place" v="farm" />
		<tag k="ssr:stedsnr" v="437112" />
	</node>
	<node lat="63.2104111079125" lon="11.11336387924422" id="-33581">
		<tag k="name" v="Lia" />
		<tag k="place" v="farm" />
		<tag k="ssr:stedsnr" v="437117" />
	</node>
	<node lat="63.099844446874435" lon="11.008086107865413" id="-33583">
		<tag k="historic" v="shieling" />
		<tag k="name" v="Øyvollen" />
		<tag k="place" v="isolated_dwelling" />
		<tag k="ssr:stedsnr" v="437161" />
	</node>
	<node lat="63.19254875025664" lon="11.272648655131375" id="-33585">
		<tag k="historic" v="shieling" />
		<tag k="name" v="Puttvollen" />
		<tag k="place" v="isolated_dwelling" />
		<tag k="ssr:stedsnr" v="437258" />
	</node>
	<node lat="63.197027690989216" lon="11.261499954794985" id="-33586">
		<tag k="historic" v="shieling" />
		<tag k="name" v="Grava" />
		<tag k="place" v="isolated_dwelling" />
		<tag k="ssr:stedsnr" v="437259" />
	</node>
	<node lat="63.31156666464065" lon="11.163561106331771" id="-33589">
		<tag k="name" v="Langsetvollen" />
		<tag k="place" v="isolated_dwelling" />
		<tag k="ssr:stedsnr" v="438349" />
	</node>
	<node lat="63.18702222347419" lon="11.11608887917471" id="-33615">
		<tag k="name" v="Uthuslian" />
		<tag k="place" v="farm" />
		<tag k="ssr:stedsnr" v="460008" />
	</node>
	<node lat="63.189375000813584" lon="11.11309165923377" id="-33616">
		<tag k="name" v="Stokke-Uthus" />
		<tag k="place" v="farm" />
		<tag k="ssr:stedsnr" v="460012" />
	</node>
	<node lat="63.19773611285494" lon="10.947869445190504" id="-33633">
		<tag k="name" v="Ustigarden" />
		<tag k="place" v="farm" />
		<tag k="ssr:stedsnr" v="461428" />
	</node>
	<node lat="63.2059694459528" lon="10.952955559571565" id="-33634">
		<tag k="name" v="Nigarden" />
		<tag k="place" v="farm" />
		<tag k="ssr:stedsnr" v="461429" />
	</node>
	<node lat="63.20807500101382" lon="10.951811106046444" id="-33639">
		<tag k="name" v="Bårdgarden" />
		<tag k="place" v="farm" />
		<tag k="ssr:stedsnr" v="462002" />
	</node>
	<node lat="63.086201957389285" lon="10.931364286199042" id="-33645">
		<tag k="historic" v="shieling" />
		<tag k="name" v="Gammelvollen" />
		<tag k="place" v="isolated_dwelling" />
		<tag k="ssr:stedsnr" v="462116" />
	</node>
	<node lat="63.22721666410477" lon="11.033722229375897" id="-33662">
		<tag k="amenity" v="school" />
		<tag k="name" v="Selbu ungdomsskole" />
		<tag k="ssr:stedsnr" v="482769" />
	</node>
	<node lat="63.20841388964025" lon="11.20586111528007" id="-33665">
		<tag k="historic" v="shieling" />
		<tag k="name" v="Røvollen" />
		<tag k="place" v="isolated_dwelling" />
		<tag k="ssr:stedsnr" v="679096" />
	</node>
	<node lat="63.207373920532376" lon="10.981644538372898" id="-33666">
		<tag k="fixme" v="consider place=hamlet" />
		<tag k="name" v="Såmstad" />
		<tag k="place" v="farm" />
		<tag k="ssr:stedsnr" v="679044" />
	</node>
	<node lat="63.1870066761234" lon="11.102587416944584" id="-33668">
		<tag k="fixme" v="consider place=hamlet" />
		<tag k="name" v="Trondset" />
		<tag k="place" v="farm" />
		<tag k="ssr:stedsnr" v="679063" />
	</node>
	<node lat="63.07787777818396" lon="11.047244445688001" id="-33670">
		<tag k="historic" v="shieling" />
		<tag k="name" v="Nålbogen" />
		<tag k="place" v="isolated_dwelling" />
		<tag k="ssr:stedsnr" v="679163" />
	</node>
	<node lat="63.10842057072137" lon="11.309377688942098" id="-33671">
		<tag k="alt_name" v="Nes" />
		<tag k="fixme" v="consider place=hamlet" />
		<tag k="name" v="Neset" />
		<tag k="place" v="farm" />
		<tag k="ssr:stedsnr" v="679233" />
	</node>
	<node lat="63.106149625717066" lon="11.289248370574677" id="-33672">
		<tag k="alt_name" v="Meland" />
		<tag k="name" v="Melan" />
		<tag k="place" v="farm" />
		<tag k="ssr:stedsnr" v="679236" />
	</node>
	<node lat="63.10722222346869" lon="11.29317221271856" id="-33673">
		<tag k="alt_name" v="Nessmo" />
		<tag k="name" v="Nesmoen" />
		<tag k="place" v="farm" />
		<tag k="ssr:stedsnr" v="679237" />
	</node>
	<node lat="63.112516229214016" lon="11.32270222914285" id="-33674">
		<tag k="fixme" v="consider place=hamlet" />
		<tag k="name" v="Heggset" />
		<tag k="place" v="farm" />
		<tag k="ssr:stedsnr" v="679241" />
	</node>
	<node lat="63.11613278640691" lon="11.312790154763935" id="-33675">
		<tag k="fixme" v="consider place=hamlet" />
		<tag k="name" v="Bjørka" />
		<tag k="place" v="farm" />
		<tag k="ssr:stedsnr" v="679242" />
	</node>
	<node lat="63.234439136288096" lon="11.07563402250384" id="-33676">
		<tag k="fixme" v="consider place=hamlet" />
		<tag k="name" v="Vølset" />
		<tag k="place" v="farm" />
		<tag k="ssr:stedsnr" v="680001" />
	</node>
	<node lat="63.143676124781564" lon="11.018795165996798" id="-33679">
		<tag k="historic" v="shieling" />
		<tag k="name" v="Brandvollen" />
		<tag k="place" v="isolated_dwelling" />
		<tag k="ssr:stedsnr" v="680128" />
	</node>
	<node lat="63.32364722165464" lon="11.34960555741743" id="-33680">
		<tag k="name" v="Alsetvollen" />
		<tag k="place" v="locality" />
		<tag k="ssr:stedsnr" v="680086" />
	</node>
	<node lat="63.31233651643079" lon="11.26911038353028" id="-33681">
		<tag k="historic" v="shieling" />
		<tag k="name" v="Nyvollen" />
		<tag k="place" v="isolated_dwelling" />
		<tag k="ssr:stedsnr" v="680092" />
	</node>
	<node lat="63.18177222628144" lon="11.19974167678024" id="-33683">
		<tag k="fixme" v="multiple name tags, choose one and add the other to alt_name" />
		<tag k="name" v="Midtre Rollsetbakken;Rollsetbakken" />
		<tag k="place" v="farm" />
		<tag k="ssr:stedsnr" v="680136" />
	</node>
	<node lat="63.10664999620092" lon="11.03449999872064" id="-33684">
		<tag k="historic" v="shieling" />
		<tag k="name" v="Svartåsvollen" />
		<tag k="place" v="isolated_dwelling" />
		<tag k="ssr:stedsnr" v="680165" />
	</node>
	<node lat="63.11594967020318" lon="11.13683486322903" id="-33686">
		<tag k="historic" v="shieling" />
		<tag k="name" v="Fiskkjølvollen" />
		<tag k="place" v="isolated_dwelling" />
		<tag k="ssr:stedsnr" v="680157" />
	</node>
	<node lat="63.17265555395398" lon="11.432672214517218" id="-33689">
		<tag k="historic" v="shieling" />
		<tag k="name" v="Nordre Evjvollen" />
		<tag k="place" v="isolated_dwelling" />
		<tag k="ssr:stedsnr" v="680273" />
	</node>
	<node lat="63.17322499716949" lon="11.264138896584852" id="-33690">
		<tag k="historic" v="shieling" />
		<tag k="name" v="Hesjedalen" />
		<tag k="place" v="isolated_dwelling" />
		<tag k="ssr:stedsnr" v="680275" />
	</node>
	<node lat="63.296980557255736" lon="11.199622223581871" id="-33691">
		<tag k="name" v="Krokstaden" />
		<tag k="place" v="isolated_dwelling" />
		<tag k="ssr:stedsnr" v="680293" />
	</node>
	<node lat="63.315084330882904" lon="10.92730235029637" id="-33695">
		<tag k="historic" v="shieling" />
		<tag k="name" v="Engvollen" />
		<tag k="place" v="isolated_dwelling" />
		<tag k="ssr:stedsnr" v="680400" />
	</node>
	<node lat="63.29029777722876" lon="11.08432598504348" id="-33697">
		<tag k="name" v="Garbergsvollen" />
		<tag k="place" v="isolated_dwelling" />
		<tag k="ssr:stedsnr" v="680348" />
	</node>
	<node lat="63.26599313459264" lon="11.000136958331272" id="-33699">
		<tag k="alt_name" v="Løvås" />
		<tag k="fixme" v="consider place=hamlet" />
		<tag k="name" v="Lauvås" />
		<tag k="place" v="farm" />
		<tag k="ssr:stedsnr" v="681314" />
	</node>
	<node lat="63.277661111077215" lon="10.647044448547264" id="-33700">
		<tag k="alt_name" v="Dragstmoen" />
		<tag k="name" v="Drakstmoen" />
		<tag k="place" v="farm" />
		<tag k="ssr:stedsnr" v="680825" />
	</node>
	<node lat="63.24593071801093" lon="11.062477178367288" id="-33702">
		<tag k="name" v="Eidem" />
		<tag k="place" v="hamlet" />
		<tag k="ssr:stedsnr" v="497010" />
	</node>
	<node lat="63.153566668645865" lon="11.254008330556738" id="-33709">
		<tag k="alt_name" v="Ørås" />
		<tag k="fixme" v="consider place=hamlet" />
		<tag k="name" v="Øråsen" />
		<tag k="place" v="farm" />
		<tag k="ssr:stedsnr" v="497217" />
	</node>
	<node lat="63.25416110884241" lon="11.097936106263848" id="-33718">
		<tag k="name" v="Moen" />
		<tag k="place" v="farm" />
		<tag k="ssr:stedsnr" v="498413" />
	</node>
	<node lat="63.25253286220402" lon="10.946032033366857" id="-33723">
		<tag k="fixme" v="consider place=hamlet" />
		<tag k="name" v="Bellet" />
		<tag k="place" v="farm" />
		<tag k="ssr:stedsnr" v="498425" />
	</node>
	<node lat="63.256130551938014" lon="10.956455546592368" id="-33724">
		<tag k="name" v="Nytrøa" />
		<tag k="place" v="farm" />
		<tag k="ssr:stedsnr" v="498426" />
	</node>
	<node lat="63.273325001777614" lon="11.191161116025965" id="-33727">
		<tag k="alt_name" v="Oppigardsvollen" />
		<tag k="historic" v="shieling" />
		<tag k="name" v="Bjørgavollan" />
		<tag k="place" v="isolated_dwelling" />
		<tag k="ssr:stedsnr" v="498343" />
	</node>
	<node lat="63.26449721900496" lon="10.948733334219476" id="-33730">
		<tag k="alt_name" v="Stormyra" />
		<tag k="name" v="Fellessæter" />
		<tag k="place" v="isolated_dwelling" />
		<tag k="ssr:stedsnr" v="498387" />
	</node>
	<node lat="63.32713888850707" lon="11.131213886699149" id="-33731">
		<tag k="name" v="Holvollen" />
		<tag k="place" v="isolated_dwelling" />
		<tag k="ssr:stedsnr" v="498389" />
	</node>
	<node lat="63.25881509088659" lon="10.962146374462861" id="-33732">
		<tag k="fixme" v="consider place=hamlet" />
		<tag k="name" v="Engan" />
		<tag k="place" v="farm" />
		<tag k="ssr:stedsnr" v="498392" />
	</node>
	<node lat="63.273563885177744" lon="11.077836111151681" id="-33733">
		<tag k="name" v="Granby" />
		<tag k="place" v="farm" />
		<tag k="ssr:stedsnr" v="498394" />
	</node>
	<node lat="63.256730505300354" lon="11.086380526598045" id="-33734">
		<tag k="fixme" v="consider place=hamlet" />
		<tag k="name" v="Øyberget" />
		<tag k="place" v="farm" />
		<tag k="ssr:stedsnr" v="681300" />
	</node>
	<node lat="63.17340277664788" lon="11.469080546367412" id="-33735">
		<tag k="name" v="Nordre Hoemsvollen" />
		<tag k="place" v="isolated_dwelling" />
		<tag k="ssr:stedsnr" v="506209" />
	</node>
	<node lat="63.14118889271743" lon="10.805441667522715" id="-33739">
		<tag k="historic" v="shieling" />
		<tag k="name" v="Gullsetfjellvollen" />
		<tag k="place" v="isolated_dwelling" />
		<tag k="ssr:stedsnr" v="506326" />
	</node>
	<node lat="63.193886107641774" lon="11.139558329686913" id="-33746">
		<tag k="name" v="Svea" />
		<tag k="place" v="farm" />
		<tag k="ssr:stedsnr" v="520014" />
	</node>
	<node lat="63.204933336256744" lon="11.138480562809006" id="-33747">
		<tag k="name" v="Vollan" />
		<tag k="place" v="farm" />
		<tag k="ssr:stedsnr" v="520015" />
	</node>
	<node lat="63.20747777524134" lon="11.068458336906096" id="-33768">
		<tag k="name" v="Bergslia" />
		<tag k="place" v="farm" />
		<tag k="ssr:stedsnr" v="521510" />
	</node>
	<node lat="63.20072500150069" lon="11.051686113124955" id="-33778">
		<tag k="name" v="Kolsetbrauta" />
		<tag k="place" v="farm" />
		<tag k="ssr:stedsnr" v="522205" />
	</node>
	<node lat="63.18901389114138" lon="10.950122214773188" id="-33786">
		<tag k="name" v="Eggaberget" />
		<tag k="place" v="farm" />
		<tag k="ssr:stedsnr" v="522503" />
	</node>
	<node lat="63.10956111206846" lon="11.289463889240144" id="-33788">
		<tag k="name" v="Rønningen" />
		<tag k="place" v="farm" />
		<tag k="ssr:stedsnr" v="522602" />
	</node>
	<node lat="63.109825002709925" lon="11.294561103695926" id="-33789">
		<tag k="name" v="Haugan" />
		<tag k="place" v="farm" />
		<tag k="ssr:stedsnr" v="522603" />
	</node>
	<node lat="63.13693610869869" lon="11.256577767830388" id="-33790">
		<tag k="historic" v="shieling" />
		<tag k="name" v="Tuset Langsenget" />
		<tag k="place" v="isolated_dwelling" />
		<tag k="ssr:stedsnr" v="522607" />
	</node>
	<node lat="63.19406388755581" lon="10.953636112196769" id="-33792">
		<tag k="name" v="Moatrøa" />
		<tag k="place" v="farm" />
		<tag k="ssr:stedsnr" v="523009" />
	</node>
	<node lat="63.25404166491715" lon="10.911908330953136" id="-33793">
		<tag k="name" v="Tomashagen" />
		<tag k="place" v="farm" />
		<tag k="ssr:stedsnr" v="523026" />
	</node>
	<node lat="63.3003138871941" lon="11.071411116533694" id="-33804">
		<tag k="historic" v="shieling" />
		<tag k="name" v="Røet fellesseter" />
		<tag k="place" v="isolated_dwelling" />
		<tag k="ssr:stedsnr" v="523602" />
	</node>
	<node lat="63.20991944614608" lon="11.129961112974565" id="-33805">
		<tag k="name" v="Brennås" />
		<tag k="place" v="farm" />
		<tag k="ssr:stedsnr" v="523662" />
	</node>
	<node lat="63.215538888885035" lon="10.96712499323778" id="-33806">
		<tag k="leisure" v="pitch" />
		<tag k="name" v="Vikvarvet grasbane Rødmyra" />
		<tag k="ssr:stedsnr" v="543470" />
	</node>
	<node lat="63.0819911659657" lon="11.091735267832084" id="-33812">
		<tag k="historic" v="shieling" />
		<tag k="name" v="Uthusvollen" />
		<tag k="place" v="isolated_dwelling" />
		<tag k="ssr:stedsnr" v="688320" />
	</node>
	<node lat="63.16506944878633" lon="11.412072217775961" id="-33816">
		<tag k="historic" v="shieling" />
		<tag k="name" v="Gammelvollen" />
		<tag k="place" v="isolated_dwelling" />
		<tag k="ssr:stedsnr" v="557214" />
	</node>
	<node lat="63.21032777791286" lon="11.08069443552139" id="-33817">
		<tag k="name" v="Velva" />
		<tag k="place" v="farm" />
		<tag k="ssr:stedsnr" v="558104" />
	</node>
	<node lat="63.21358721858607" lon="10.978422383999481" id="-33823">
		<tag k="fixme" v="consider place=hamlet" />
		<tag k="name" v="Seter" />
		<tag k="place" v="farm" />
		<tag k="ssr:stedsnr" v="558051" />
	</node>
	<node lat="63.20410951302795" lon="10.973774743310827" id="-33824">
		<tag k="name" v="Aunet" />
		<tag k="place" v="hamlet" />
		<tag k="ssr:stedsnr" v="558097" />
	</node>
	<node lat="63.17180278123867" lon="11.387774996098553" id="-33828">
		<tag k="name" v="Storvollen" />
		<tag k="place" v="locality" />
		<tag k="ssr:stedsnr" v="558255" />
	</node>
	<node lat="63.27811718474825" lon="10.670741156271417" id="-33830">
		<tag k="name" v="Varmdalsåsen" />
		<tag k="place" v="farm" />
		<tag k="ssr:stedsnr" v="558814" />
	</node>
	<node lat="63.2093666699077" lon="11.132472214065965" id="-33839">
		<tag k="name" v="Tryggstad" />
		<tag k="place" v="farm" />
		<tag k="ssr:stedsnr" v="580017" />
	</node>
	<node lat="63.22753315639462" lon="11.152941581581691" id="-33842">
		<tag k="historic" v="shieling" />
		<tag k="name" v="Kallarsvollen" />
		<tag k="place" v="isolated_dwelling" />
		<tag k="ssr:stedsnr" v="580034" />
	</node>
	<node lat="63.26068889323606" lon="11.082627787535369" id="-33858">
		<tag k="name" v="Dalen" />
		<tag k="place" v="farm" />
		<tag k="ssr:stedsnr" v="581244" />
	</node>
	<node lat="63.10716389112703" lon="11.296694434802514" id="-33864">
		<tag k="name" v="Sandmo" />
		<tag k="place" v="farm" />
		<tag k="ssr:stedsnr" v="581942" />
	</node>
	<node lat="63.16151944013572" lon="11.441533341454317" id="-33868">
		<tag k="historic" v="shieling" />
		<tag k="name" v="Evjevollen" />
		<tag k="place" v="isolated_dwelling" />
		<tag k="ssr:stedsnr" v="581901" />
	</node>
	<node lat="63.289466669874415" lon="10.75871111272386" id="-33871">
		<tag k="name" v="Amdalsvollen" />
		<tag k="place" v="locality" />
		<tag k="ssr:stedsnr" v="582095" />
	</node>
	<node lat="63.278002774971675" lon="10.654324990287373" id="-33872">
		<tag k="name" v="Sannavika" />
		<tag k="place" v="farm" />
		<tag k="ssr:stedsnr" v="582098" />
	</node>
	<node lat="63.27838602599879" lon="10.670290275480534" id="-33874">
		<tag k="name" v="Åsen" />
		<tag k="place" v="farm" />
		<tag k="ssr:stedsnr" v="582116" />
	</node>
	<node lat="63.19330000230506" lon="11.073536109854976" id="-33882">
		<tag k="name" v="Nordli" />
		<tag k="place" v="farm" />
		<tag k="ssr:stedsnr" v="582513" />
	</node>
	<node lat="63.244163888875605" lon="11.02698055765687" id="-33883">
		<tag k="alt_name" v="Tangen øvre" />
		<tag k="name" v="Øvre Tangen" />
		<tag k="place" v="farm" />
		<tag k="ssr:stedsnr" v="582524" />
	</node>
	<node lat="63.198391665050856" lon="10.946980553425098" id="-33886">
		<tag k="name" v="Nordistua" />
		<tag k="place" v="farm" />
		<tag k="ssr:stedsnr" v="583119" />
	</node>
	<node lat="63.19408333556809" lon="11.052944438819317" id="-33887">
		<tag k="name" v="Arnstad" />
		<tag k="place" v="farm" />
		<tag k="ssr:stedsnr" v="583043" />
	</node>
	<node lat="63.10680000246997" lon="11.300594437087968" id="-33898">
		<tag k="name" v="Høgmo" />
		<tag k="place" v="farm" />
		<tag k="ssr:stedsnr" v="583612" />
	</node>
	<node lat="63.101311115037355" lon="11.35059445412741" id="-33899">
		<tag k="name" v="Skjetnås" />
		<tag k="place" v="farm" />
		<tag k="ssr:stedsnr" v="583626" />
	</node>
	<node lat="63.10437777766126" lon="11.34508611602681" id="-33900">
		<tag k="name" v="Skogvoll" />
		<tag k="place" v="farm" />
		<tag k="ssr:stedsnr" v="583627" />
	</node>
	<node lat="63.17349444146076" lon="11.237197221163843" id="-33901">
		<tag k="historic" v="shieling" />
		<tag k="name" v="Vårvollen" />
		<tag k="place" v="isolated_dwelling" />
		<tag k="ssr:stedsnr" v="583597" />
	</node>
	<node lat="63.207241670196325" lon="10.971719442452146" id="-33902">
		<tag k="name" v="Nermoen" />
		<tag k="place" v="farm" />
		<tag k="ssr:stedsnr" v="583697" />
	</node>
	<node lat="63.20859999599786" lon="11.095147214324129" id="-33907">
		<tag k="name" v="Oppigarden" />
		<tag k="place" v="farm" />
		<tag k="ssr:stedsnr" v="584303" />
	</node>
	<node lat="63.21014895577186" lon="11.052290348380332" id="-33911">
		<tag k="name" v="Hoem" />
		<tag k="place" v="hamlet" />
		<tag k="ssr:stedsnr" v="618036" />
	</node>
	<node lat="63.160583388297944" lon="11.321783586506141" id="-33915">
		<tag k="fixme" v="multiple name tags, choose one and add the other to alt_name" />
		<tag k="historic" v="shieling" />
		<tag k="name" v="Nyvollen;Bjørkavollen" />
		<tag k="place" v="isolated_dwelling" />
		<tag k="ssr:stedsnr" v="618191" />
	</node>
	<node lat="63.20885833181866" lon="11.122036102054437" id="-33917">
		<tag k="name" v="Stubbtrøa" />
		<tag k="place" v="farm" />
		<tag k="ssr:stedsnr" v="702027" />
	</node>
	<node lat="63.19771519982252" lon="11.148876106347549" id="-33919">
		<tag k="name" v="Mebost" />
		<tag k="place" v="hamlet" />
		<tag k="ssr:stedsnr" v="619075" />
	</node>
	<node lat="63.29901999065233" lon="11.06913177385098" id="-33923">
		<tag k="fixme" v="consider place=hamlet" />
		<tag k="name" v="Røet" />
		<tag k="place" v="farm" />
		<tag k="ssr:stedsnr" v="619296" />
	</node>
	<node lat="63.254533332048645" lon="10.769997219137288" id="-33925">
		<tag k="name" v="Renåøyan" />
		<tag k="place" v="farm" />
		<tag k="ssr:stedsnr" v="619410" />
	</node>
	<node lat="63.26749999595807" lon="10.971955550621812" id="-33928">
		<tag k="name" v="Trøa" />
		<tag k="place" v="farm" />
		<tag k="ssr:stedsnr" v="619380" />
	</node>
	<node lat="63.27686463362328" lon="11.040007895912675" id="-33929">
		<tag k="name" v="Moen" />
		<tag k="place" v="farm" />
		<tag k="ssr:stedsnr" v="619383" />
	</node>
	<node lat="63.20832777367788" lon="11.120044439245376" id="-33936">
		<tag k="name" v="Stubbhaugen" />
		<tag k="place" v="farm" />
		<tag k="ssr:stedsnr" v="702615" />
	</node>
	<node lat="63.26047039469092" lon="11.114581570654433" id="-33948">
		<tag k="name" v="Langsetbakken" />
		<tag k="place" v="farm" />
		<tag k="ssr:stedsnr" v="703067" />
	</node>
	<node lat="63.19465555208316" lon="11.11022777562705" id="-33952">
		<tag k="name" v="Moen" />
		<tag k="place" v="farm" />
		<tag k="ssr:stedsnr" v="703031" />
	</node>
	<node lat="63.23028333515746" lon="11.044944435547661" id="-33956">
		<tag k="name" v="Nordre Håstad" />
		<tag k="old_name" v="Nordre Hårstad;Hårstad nordre" />
		<tag k="place" v="farm" />
		<tag k="ssr:stedsnr" v="703126" />
	</node>
	<node lat="63.22031944244745" lon="11.041933339019442" id="-33957">
		<tag k="name" v="Hove" />
		<tag k="place" v="hamlet" />
		<tag k="ssr:stedsnr" v="703131" />
	</node>
	<node lat="63.216691666676546" lon="10.980988890524937" id="-33958">
		<tag k="name" v="Overvik søndre" />
		<tag k="place" v="farm" />
		<tag k="ssr:stedsnr" v="703138" />
	</node>
	<node lat="63.20733611462869" lon="11.076977771532983" id="-33961">
		<tag k="alt_name" v="Røsset østre" />
		<tag k="fixme" v="consider place=hamlet" />
		<tag k="name" v="Østre Røsset" />
		<tag k="place" v="farm" />
		<tag k="ssr:stedsnr" v="703256" />
	</node>
	<node lat="63.237733330953" lon="11.098100009719863" id="-33962">
		<tag k="name" v="Åsen" />
		<tag k="place" v="farm" />
		<tag k="ssr:stedsnr" v="703173" />
	</node>
	<node lat="63.17647222614138" lon="11.354933327496788" id="-33969">
		<tag k="historic" v="shieling" />
		<tag k="name" v="Nedre Heståsen" />
		<tag k="place" v="isolated_dwelling" />
		<tag k="ssr:stedsnr" v="627220" />
	</node>
	<node lat="63.14945555598165" lon="11.248936116926703" id="-33970">
		<tag k="name" v="Øråsvollen" />
		<tag k="place" v="locality" />
		<tag k="ssr:stedsnr" v="703947" />
	</node>
	<node lat="63.245475002260896" lon="11.3290194423427" id="-33976">
		<tag k="historic" v="shieling" />
		<tag k="name" v="Grønfjellvollen" />
		<tag k="place" v="isolated_dwelling" />
		<tag k="ssr:stedsnr" v="703996" />
	</node>
	<node lat="63.160272217882245" lon="11.460183333186551" id="-33977">
		<tag k="historic" v="shieling" />
		<tag k="name" v="Røssetvollen" />
		<tag k="place" v="isolated_dwelling" />
		<tag k="ssr:stedsnr" v="703901" />
	</node>
	<node lat="63.25376111064181" lon="10.919147229729138" id="-33981">
		<tag k="name" v="Myrplassen" />
		<tag k="place" v="farm" />
		<tag k="ssr:stedsnr" v="704238" />
	</node>
	<node lat="63.17976666529175" lon="11.229013892180527" id="-33994">
		<tag k="historic" v="shieling" />
		<tag k="name" v="Gammelvollen" />
		<tag k="place" v="isolated_dwelling" />
		<tag k="ssr:stedsnr" v="704455" />
	</node>
	<node lat="63.224152779216524" lon="11.03895832596848" id="-33996">
		<tag k="name" v="Øvre Håstad" />
		<tag k="old_name" v="Øvre Hårstad;Hårstad øvre" />
		<tag k="place" v="farm" />
		<tag k="ssr:stedsnr" v="704493" />
	</node>
	<node lat="63.20008889173304" lon="11.051474993296708" id="-34004">
		<tag k="name" v="Utsikten" />
		<tag k="place" v="farm" />
		<tag k="ssr:stedsnr" v="705050" />
	</node>
	<node lat="63.20494579369914" lon="10.972323480815076" id="-34005">
		<tag k="fixme" v="consider place=hamlet" />
		<tag k="name" v="Aunet" />
		<tag k="place" v="farm" />
		<tag k="ssr:stedsnr" v="705067" />
	</node>
	<node lat="63.20617222114555" lon="11.020522219599943" id="-34006">
		<tag k="name" v="Bersvensheim" />
		<tag k="place" v="farm" />
		<tag k="ssr:stedsnr" v="705071" />
	</node>
	<node lat="63.21618888499126" lon="11.038855560273165" id="-34007">
		<tag k="fixme" v="consider place=hamlet" />
		<tag k="name" v="Selbu prestegård" />
		<tag k="place" v="farm" />
		<tag k="ssr:stedsnr" v="705075" />
	</node>
	<node lat="63.23087500215573" lon="11.079127771661234" id="-34008">
		<tag k="alt_name" v="Vølset øvre" />
		<tag k="name" v="Øvre Vølset" />
		<tag k="place" v="farm" />
		<tag k="ssr:stedsnr" v="705078" />
	</node>
	<node lat="63.204558333199955" lon="10.98617500335239" id="-34023">
		<tag k="name" v="Stigen" />
		<tag k="place" v="farm" />
		<tag k="ssr:stedsnr" v="705331" />
	</node>
	<node lat="63.20461389009788" lon="10.975447221113201" id="-34024">
		<tag k="name" v="Øver Aunet" />
		<tag k="place" v="farm" />
		<tag k="ssr:stedsnr" v="705334" />
	</node>
	<node lat="63.20826944844148" lon="11.065908339872422" id="-34027">
		<tag k="alt_name" v="Berge østre" />
		<tag k="name" v="Østre Berge" />
		<tag k="place" v="farm" />
		<tag k="ssr:stedsnr" v="705630" />
	</node>
	<node lat="63.18384722244198" lon="11.174266665152494" id="-34028">
		<tag k="name" v="Stokkgjardet" />
		<tag k="place" v="farm" />
		<tag k="ssr:stedsnr" v="705632" />
	</node>
	<node lat="63.202775002485836" lon="11.13709444399769" id="-34037">
		<tag k="alt_name" v="Vollan øver" />
		<tag k="name" v="Øver Vollan" />
		<tag k="place" v="farm" />
		<tag k="ssr:stedsnr" v="705652" />
	</node>
	<node lat="63.24716666893644" lon="11.071016664563802" id="-34038">
		<tag k="alt_name" v="Eidemsgjardet søndre" />
		<tag k="name" v="Søndre Eidemsgjardet" />
		<tag k="place" v="farm" />
		<tag k="ssr:stedsnr" v="705591" />
	</node>
	<node lat="63.2503944476989" lon="11.06720278115922" id="-34039">
		<tag k="name" v="Eidemshaug" />
		<tag k="place" v="farm" />
		<tag k="ssr:stedsnr" v="705592" />
	</node>
	<node lat="63.31534444327445" lon="11.074586101854763" id="-34040">
		<tag k="historic" v="shieling" />
		<tag k="name" v="Emsvollen" />
		<tag k="place" v="isolated_dwelling" />
		<tag k="ssr:stedsnr" v="705599" />
	</node>
	<node lat="63.29325833179873" lon="11.04469722352619" id="-34041">
		<tag k="name" v="Fuggelleiken" />
		<tag k="place" v="isolated_dwelling" />
		<tag k="ssr:stedsnr" v="705601" />
	</node>
	<node lat="63.24009444388625" lon="11.24398333464824" id="-34042">
		<tag k="historic" v="shieling" />
		<tag k="name" v="Jonsslættet" />
		<tag k="place" v="isolated_dwelling" />
		<tag k="ssr:stedsnr" v="705681" />
	</node>
	<node lat="63.257552779712626" lon="11.096783342154119" id="-34047">
		<tag k="name" v="Utistuggu" />
		<tag k="place" v="farm" />
		<tag k="ssr:stedsnr" v="640826" />
	</node>
	<node lat="63.11604444462642" lon="11.32842778433044" id="-34049">
		<tag k="name" v="Solli" />
		<tag k="place" v="farm" />
		<tag k="ssr:stedsnr" v="705696" />
	</node>
	<node lat="63.11908889112725" lon="11.4023305640808" id="-34050">
		<tag k="historic" v="shieling" />
		<tag k="name" v="Måltoppvollen" />
		<tag k="place" v="isolated_dwelling" />
		<tag k="ssr:stedsnr" v="705704" />
	</node>
	<node lat="63.105311109357444" lon="11.295591664736596" id="-34069">
		<tag k="name" v="Tusentrøa" />
		<tag k="place" v="farm" />
		<tag k="ssr:stedsnr" v="642904" />
	</node>
	<node lat="63.12422500175804" lon="11.26198888297332" id="-34070">
		<tag k="name" v="Flaknengan" />
		<tag k="place" v="farm" />
		<tag k="ssr:stedsnr" v="642923" />
	</node>
	<node lat="63.208447218715314" lon="11.205622212807517" id="-34082">
		<tag k="historic" v="shieling" />
		<tag k="name" v="Bårdsgardsvollen" />
		<tag k="place" v="isolated_dwelling" />
		<tag k="ssr:stedsnr" v="643485" />
	</node>
	<node lat="63.08423619603406" lon="10.982435353420149" id="-34088">
		<tag k="historic" v="shieling" />
		<tag k="name" v="Storlivollen" />
		<tag k="place" v="isolated_dwelling" />
		<tag k="ssr:stedsnr" v="644029" />
	</node>
	<node lat="63.25320000400295" lon="10.765316670228499" id="-34089">
		<tag k="name" v="Nygarden" />
		<tag k="place" v="farm" />
		<tag k="ssr:stedsnr" v="644093" />
	</node>
	<node lat="63.191363886270956" lon="11.1218305626581" id="-34100">
		<tag k="name" v="Nygarden" />
		<tag k="place" v="farm" />
		<tag k="ssr:stedsnr" v="644607" />
	</node>
	<node lat="63.269186112431406" lon="11.003008337158613" id="-34103">
		<tag k="name" v="Storhaugen" />
		<tag k="place" v="farm" />
		<tag k="ssr:stedsnr" v="644581" />
	</node>
	<node lat="63.24776944101718" lon="10.820408330399477" id="-34105">
		<tag k="name" v="Eggjaodden" />
		<tag k="place" v="farm" />
		<tag k="ssr:stedsnr" v="679019" />
	</node>
	<node lat="63.242466669130316" lon="11.086155551710213" id="-34106">
		<tag k="fixme" v="consider place=hamlet" />
		<tag k="name" v="Innbygda" />
		<tag k="place" v="village" />
		<tag k="ssr:stedsnr" v="679023" />
	</node>
	<node lat="63.19422640223834" lon="11.158682354092152" id="-34107">
		<tag k="fixme" v="consider place=hamlet" />
		<tag k="name" v="Bårdsgarden" />
		<tag k="place" v="farm" />
		<tag k="ssr:stedsnr" v="679076" />
	</node>
	<node lat="63.19060265813356" lon="10.914964025789251" id="-34108">
		<tag k="fixme" v="consider place=hamlet" />
		<tag k="name" v="Åsan" />
		<tag k="place" v="farm" />
		<tag k="ssr:stedsnr" v="679080" />
	</node>
	<node lat="63.20260833649347" lon="11.126636113916328" id="-34109">
		<tag k="fixme" v="consider place=hamlet" />
		<tag k="name" v="Kallar" />
		<tag k="place" v="farm" />
		<tag k="ssr:stedsnr" v="679093" />
	</node>
	<node lat="63.23805555571498" lon="10.838216659304072" id="-34112">
		<tag k="name" v="Bjørga" />
		<tag k="place" v="farm" />
		<tag k="ssr:stedsnr" v="680010" />
	</node>
	<node lat="63.234957470887984" lon="10.851284132826233" id="-34113">
		<tag k="fixme" v="consider place=hamlet" />
		<tag k="name" v="Storodden" />
		<tag k="place" v="farm" />
		<tag k="ssr:stedsnr" v="680011" />
	</node>
	<node lat="63.25811667100553" lon="11.2717250076245" id="-34115">
		<tag k="historic" v="shieling" />
		<tag k="name" v="Elvorvollen" />
		<tag k="place" v="isolated_dwelling" />
		<tag k="ssr:stedsnr" v="680125" />
	</node>
	<node lat="63.215662388153056" lon="11.310967607009072" id="-34116">
		<tag k="name" v="Røssetvollen" />
		<tag k="place" v="isolated_dwelling" />
		<tag k="ssr:stedsnr" v="680204" />
	</node>
	<node lat="63.25126388486992" lon="10.912222212257225" id="-34118">
		<tag k="name" v="Myrmoen" />
		<tag k="place" v="farm" />
		<tag k="ssr:stedsnr" v="680405" />
	</node>
	<node lat="63.25106389193633" lon="10.906491665877558" id="-34119">
		<tag k="name" v="Nerhåggån" />
		<tag k="place" v="farm" />
		<tag k="ssr:stedsnr" v="680407" />
	</node>
	<node lat="63.25290821443304" lon="10.879129564294525" id="-34121">
		<tag k="name" v="Solemsåsen" />
		<tag k="place" v="farm" />
		<tag k="ssr:stedsnr" v="680415" />
	</node>
	<node lat="63.27796490719187" lon="10.680174351117145" id="-34124">
		<tag k="fixme" v="consider place=hamlet" />
		<tag k="name" v="Varmdal" />
		<tag k="place" v="farm" />
		<tag k="ssr:stedsnr" v="680816" />
	</node>
	<node lat="63.111061112029034" lon="11.260927771357398" id="-34129">
		<tag k="name" v="Sør-Flaknan" />
		<tag k="place" v="farm" />
		<tag k="ssr:stedsnr" v="688306" />
	</node>
	<node lat="63.26675555801894" lon="10.981808337374895" id="-34160">
		<tag k="name" v="Sandvik" />
		<tag k="place" v="farm" />
		<tag k="ssr:stedsnr" v="703235" />
	</node>
	<node lat="63.09494166963699" lon="11.263894445249859" id="-34162">
		<tag k="name" v="Thomas Angells stiftelser" />
		<tag k="place" v="locality" />
		<tag k="ssr:stedsnr" v="703926" />
	</node>
	<node lat="63.20611389031256" lon="10.97160000187268" id="-34163">
		<tag k="name" v="Øvermoen" />
		<tag k="place" v="farm" />
		<tag k="ssr:stedsnr" v="704103" />
	</node>
	<node lat="63.260608334357" lon="10.680616661087077" id="-34171">
		<tag k="name" v="Hånnåen nedre statsskog" />
		<tag k="place" v="locality" />
		<tag k="ssr:stedsnr" v="704726" />
	</node>
	<node lat="63.25227500264716" lon="10.924833334467799" id="-34173">
		<tag k="name" v="Nilstrøa" />
		<tag k="place" v="farm" />
		<tag k="ssr:stedsnr" v="705017" />
	</node>
	<node lat="63.252838887829206" lon="10.944138888262863" id="-34174">
		<tag k="name" v="Nortrøa" />
		<tag k="place" v="farm" />
		<tag k="ssr:stedsnr" v="705024" />
	</node>
	<node lat="63.250613891848566" lon="10.946013880733307" id="-34175">
		<tag k="name" v="Solhaug" />
		<tag k="place" v="farm" />
		<tag k="ssr:stedsnr" v="705026" />
	</node>
	<node lat="63.24130523121264" lon="10.827650736691155" id="-34176">
		<tag k="alt_name" v="Østre Egga" />
		<tag k="name" v="Vollen" />
		<tag k="place" v="farm" />
		<tag k="ssr:stedsnr" v="705124" />
	</node>
	<node lat="63.20350555158542" lon="10.945224994928143" id="-34177">
		<tag k="name" v="Dalsgjardet" />
		<tag k="place" v="farm" />
		<tag k="ssr:stedsnr" v="705130" />
	</node>
	<node lat="63.23898888609269" lon="11.100724991808722" id="-34187">
		<tag k="name" v="Ustigarden" />
		<tag k="place" v="farm" />
		<tag k="ssr:stedsnr" v="705657" />
	</node>
	<node lat="63.237469448150286" lon="11.10736111091262" id="-34188">
		<tag k="name" v="Einan" />
		<tag k="place" v="farm" />
		<tag k="ssr:stedsnr" v="705661" />
	</node>
	<node lat="63.17744722621514" lon="11.386336120453619" id="-34189">
		<tag k="historic" v="shieling" />
		<tag k="name" v="Drivvollen" />
		<tag k="place" v="isolated_dwelling" />
		<tag k="ssr:stedsnr" v="705712" />
	</node>
	<node lat="63.18568333617563" lon="10.904816659025148" id="-34190">
		<tag k="landuse" v="winter_sports" />
		<tag k="name" v="Vikvarvet alpinanlegg" />
		<tag k="piste:type" v="downhill" />
		<tag k="ssr:stedsnr" v="725429" />
	</node>
	<node lat="63.21003055469747" lon="11.012738887676276" id="-34192">
		<tag k="name" v="Sjursøya" />
		<tag k="place" v="farm" />
		<tag k="ssr:stedsnr" v="740026" />
	</node>
	<node lat="63.21851227801604" lon="10.975276702194327" id="-34194">
		<tag k="name" v="Nervik" />
		<tag k="place" v="hamlet" />
		<tag k="ssr:stedsnr" v="740042" />
	</node>
	<node lat="63.16256388611581" lon="10.98843334016026" id="-34196">
		<tag k="name" v="Eidet" />
		<tag k="place" v="isolated_dwelling" />
		<tag k="ssr:stedsnr" v="740113" />
	</node>
	<node lat="63.10425870742639" lon="11.094461938610976" id="-34201">
		<tag k="historic" v="shieling" />
		<tag k="name" v="Bursåsvollen" />
		<tag k="place" v="isolated_dwelling" />
		<tag k="ssr:stedsnr" v="740147" />
	</node>
	<node lat="63.2445361118876" lon="11.329219440529048" id="-34204">
		<tag k="historic" v="shieling" />
		<tag k="name" v="Kallarsvollen" />
		<tag k="place" v="isolated_dwelling" />
		<tag k="ssr:stedsnr" v="740193" />
	</node>
	<node lat="63.26639928204514" lon="11.218774932156132" id="-34205">
		<tag k="historic" v="shieling" />
		<tag k="name" v="Velvansvollen" />
		<tag k="place" v="isolated_dwelling" />
		<tag k="ssr:stedsnr" v="741103" />
	</node>
	<node lat="63.293586115375014" lon="11.057830547331761" id="-34207">
		<tag k="name" v="Espås" />
		<tag k="place" v="farm" />
		<tag k="ssr:stedsnr" v="741312" />
	</node>
	<node lat="63.27223889125998" lon="11.016774999591544" id="-34209">
		<tag k="name" v="Strandheim" />
		<tag k="place" v="farm" />
		<tag k="ssr:stedsnr" v="741403" />
	</node>
	<node lat="63.25266260659633" lon="10.7917006606354" id="-34211">
		<tag k="fixme" v="consider place=hamlet" />
		<tag k="name" v="Okstad" />
		<tag k="place" v="farm" />
		<tag k="ssr:stedsnr" v="741439" />
	</node>
	<node lat="63.251733336083355" lon="10.885222218877567" id="-34212">
		<tag k="name" v="Solemsgjardet" />
		<tag k="place" v="farm" />
		<tag k="ssr:stedsnr" v="741441" />
	</node>
	<node lat="63.250708337606156" lon="10.814899990743674" id="-34213">
		<tag k="name" v="Sanden" />
		<tag k="place" v="farm" />
		<tag k="ssr:stedsnr" v="741444" />
	</node>
	<node lat="63.330266664028485" lon="11.315075004782216" id="-34214">
		<tag k="historic" v="shieling" />
		<tag k="name" v="Flønesvollen" />
		<tag k="place" v="isolated_dwelling" />
		<tag k="ssr:stedsnr" v="741486" />
	</node>
	<node lat="63.2681083299919" lon="10.809833338837137" id="-34216">
		<tag k="name" v="Dalen" />
		<tag k="place" v="farm" />
		<tag k="ssr:stedsnr" v="741390" />
	</node>
	<node lat="63.26903494139933" lon="11.141285204292446" id="-34217">
		<tag k="fixme" v="consider place=hamlet" />
		<tag k="name" v="Alset" />
		<tag k="place" v="farm" />
		<tag k="ssr:stedsnr" v="741392" />
	</node>
	<node lat="63.26603069243525" lon="11.046131202322398" id="-34219">
		<tag k="name" v="Nesøra" />
		<tag k="place" v="farm" />
		<tag k="ssr:stedsnr" v="741398" />
	</node>
	<node lat="63.12812499970115" lon="10.844299995181181" id="-34224">
		<tag k="historic" v="shieling" />
		<tag k="name" v="Øverøylia" />
		<tag k="place" v="isolated_dwelling" />
		<tag k="ssr:stedsnr" v="749318" />
	</node>
	<node lat="63.200041543023104" lon="11.203208050129028" id="-34226">
		<tag k="historic" v="shieling" />
		<tag k="name" v="Rollsetvollen" />
		<tag k="place" v="isolated_dwelling" />
		<tag k="ssr:stedsnr" v="749327" />
	</node>
	<node lat="63.188055553746665" lon="11.122500004093341" id="-34236">
		<tag k="name" v="Hafellhaugen" />
		<tag k="place" v="farm" />
		<tag k="ssr:stedsnr" v="762656" />
	</node>
	<node lat="63.20771944854888" lon="11.098202778819786" id="-34249">
		<tag k="name" v="Nistoggo" />
		<tag k="place" v="farm" />
		<tag k="ssr:stedsnr" v="763132" />
	</node>
	<node lat="63.21321944560078" lon="11.09733332407985" id="-34251">
		<tag k="alt_name" v="Marstad øvre" />
		<tag k="name" v="Øvre Marstad" />
		<tag k="place" v="farm" />
		<tag k="ssr:stedsnr" v="763157" />
	</node>
	<node lat="63.209844441753134" lon="11.058822214685263" id="-34267">
		<tag k="name" v="Kroken" />
		<tag k="place" v="farm" />
		<tag k="ssr:stedsnr" v="764515" />
	</node>
	<node lat="63.20976944784747" lon="10.951688895547836" id="-34268">
		<tag k="name" v="Nordpå" />
		<tag k="place" v="farm" />
		<tag k="ssr:stedsnr" v="765010" />
	</node>
	<node lat="63.19762222010717" lon="10.962524999723689" id="-34269">
		<tag k="name" v="Frampågjardet" />
		<tag k="place" v="farm" />
		<tag k="ssr:stedsnr" v="765016" />
	</node>
	<node lat="63.15768888711292" lon="11.006591660982533" id="-34270">
		<tag k="historic" v="shieling" />
		<tag k="name" v="Nåldalen" />
		<tag k="place" v="isolated_dwelling" />
		<tag k="ssr:stedsnr" v="765049" />
	</node>
	<node lat="63.203022593416954" lon="11.077234880048954" id="-34271">
		<tag k="name" v="Midttun" />
		<tag k="place" v="farm" />
		<tag k="ssr:stedsnr" v="765057" />
	</node>
	<node lat="63.24802777376006" lon="11.24270832999798" id="-34281">
		<tag k="alt_name" v="Litj-Evjevollen" />
		<tag k="historic" v="shieling" />
		<tag k="name" v="Litl-Evjevollen" />
		<tag k="place" v="isolated_dwelling" />
		<tag k="ssr:stedsnr" v="765328" />
	</node>
	<node lat="63.19796389153084" lon="11.164380561900053" id="-34289">
		<tag k="name" v="Oppheim" />
		<tag k="place" v="farm" />
		<tag k="ssr:stedsnr" v="765496" />
	</node>
	<node lat="63.22287222385537" lon="10.920905557997449" id="-34293">
		<tag k="name" v="Odden" />
		<tag k="place" v="farm" />
		<tag k="ssr:stedsnr" v="765700" />
	</node>
	<node lat="63.20092778139858" lon="11.135386110693249" id="-34295">
		<tag k="amenity" v="school" />
		<tag k="name" v="Øverbygda skole" />
		<tag k="ssr:stedsnr" v="766992" />
	</node>
	<node lat="63.27022222484885" lon="11.003958326605973" id="-34296">
		<tag k="name" v="Trøa" />
		<tag k="place" v="farm" />
		<tag k="ssr:stedsnr" v="768715" />
	</node>
	<node lat="63.22466944444323" lon="11.007688890504912" id="-34298">
		<tag k="leisure" v="pitch" />
		<tag k="name" v="Selbu travbane" />
		<tag k="ssr:stedsnr" v="907424" />
	</node>
	<node lat="63.190988892005365" lon="11.137755557869495" id="-34299">
		<tag k="leisure" v="pitch" />
		<tag k="name" v="Granlund idrettsanlegg" />
		<tag k="ssr:stedsnr" v="907428" />
	</node>
	<node lat="63.19955185327601" lon="11.039710562677412" id="-34301">
		<tag k="fixme" v="consider place=hamlet" />
		<tag k="name" v="Kleset" />
		<tag k="place" v="farm" />
		<tag k="ssr:stedsnr" v="801074" />
	</node>
	<node lat="63.310586112082994" lon="10.954822231627087" id="-34313">
		<tag k="name" v="Ingridvollen" />
		<tag k="place" v="isolated_dwelling" />
		<tag k="ssr:stedsnr" v="802404" />
	</node>
	<node lat="63.25093611239089" lon="11.056763897294173" id="-34314">
		<tag k="name" v="Myraneset" />
		<tag k="place" v="farm" />
		<tag k="ssr:stedsnr" v="802414" />
	</node>
	<node lat="63.26335559831925" lon="11.110264461709347" id="-34315">
		<tag k="fixme" v="consider place=hamlet" />
		<tag k="name" v="Størset" />
		<tag k="place" v="farm" />
		<tag k="ssr:stedsnr" v="802365" />
	</node>
	<node lat="63.26470906948304" lon="10.983032116844583" id="-34317">
		<tag k="alt_name" v="Sandvik" />
		<tag k="name" v="Halldoplassen" />
		<tag k="place" v="farm" />
		<tag k="ssr:stedsnr" v="802376" />
	</node>
	<node lat="63.30507777802902" lon="10.695208332581473" id="-34318">
		<tag k="name" v="Drakstsjøen" />
		<tag k="place" v="farm" />
		<tag k="ssr:stedsnr" v="802863" />
	</node>
	<node lat="63.08695555561752" lon="11.33343611984366" id="-34344">
		<tag k="alt_name" v="Litjvollen" />
		<tag k="name" v="Litlvollen" />
		<tag k="place" v="farm" />
		<tag k="ssr:stedsnr" v="824921" />
	</node>
	<node lat="63.09201111233126" lon="11.296916664826963" id="-34346">
		<tag k="historic" v="shieling" />
		<tag k="name" v="Øver Tusetåsvollen" />
		<tag k="place" v="isolated_dwelling" />
		<tag k="ssr:stedsnr" v="824925" />
	</node>
	<node lat="63.21448333136173" lon="10.954408329601275" id="-34359">
		<tag k="name" v="Skreddarhaugen" />
		<tag k="place" v="farm" />
		<tag k="ssr:stedsnr" v="826016" />
	</node>
	<node lat="63.25329999839071" lon="10.913469442854185" id="-34360">
		<tag k="name" v="Bekken" />
		<tag k="place" v="farm" />
		<tag k="ssr:stedsnr" v="826018" />
	</node>
	<node lat="63.20709693994157" lon="10.982785593951748" id="-34361">
		<tag k="name" v="Såmstad" />
		<tag k="place" v="farm" />
		<tag k="ssr:stedsnr" v="826064" />
	</node>
	<node lat="63.20588333676642" lon="10.987213884711018" id="-34362">
		<tag k="name" v="Berglund" />
		<tag k="place" v="farm" />
		<tag k="ssr:stedsnr" v="826066" />
	</node>
	<node lat="63.2448055592349" lon="11.327533332384695" id="-34374">
		<tag k="historic" v="shieling" />
		<tag k="name" v="Kallarsvollen" />
		<tag k="place" v="isolated_dwelling" />
		<tag k="ssr:stedsnr" v="826607" />
	</node>
	<node lat="63.101511112101605" lon="11.352538883412702" id="-34375">
		<tag k="name" v="Skjettenli" />
		<tag k="place" v="isolated_dwelling" />
		<tag k="ssr:stedsnr" v="826617" />
	</node>
	<node lat="63.20772746084923" lon="11.075180375118903" id="-34377">
		<tag k="name" v="Røsset" />
		<tag k="place" v="hamlet" />
		<tag k="ssr:stedsnr" v="922037" />
	</node>
	<node lat="63.22735833040356" lon="11.035074997147696" id="-34382">
		<tag k="alt_name" v="Bell østre" />
		<tag k="name" v="Østre Bell" />
		<tag k="place" v="farm" />
		<tag k="ssr:stedsnr" v="826515" />
	</node>
	<node lat="63.2480194431999" lon="11.056991676238516" id="-34383">
		<tag k="name" v="Bakneset" />
		<tag k="place" v="farm" />
		<tag k="ssr:stedsnr" v="826518" />
	</node>
	<node lat="63.314618275772595" lon="11.006403083148735" id="-34385">
		<tag k="alt_name" v="Kristenvollen" />
		<tag k="historic" v="shieling" />
		<tag k="name" v="Stamnesvollen" />
		<tag k="place" v="isolated_dwelling" />
		<tag k="ssr:stedsnr" v="826524" />
	</node>
	<node lat="63.21125555232125" lon="10.890799996254513" id="-34386">
		<tag k="name" v="Kvitmyrhaugvollen" />
		<tag k="place" v="isolated_dwelling" />
		<tag k="ssr:stedsnr" v="922043" />
	</node>
	<node lat="63.085558332991134" lon="11.101561108831406" id="-34390">
		<tag k="historic" v="shieling" />
		<tag k="name" v="Skyttholet" />
		<tag k="place" v="isolated_dwelling" />
		<tag k="ssr:stedsnr" v="922141" />
	</node>
	<node lat="63.202469441963586" lon="10.962088890489202" id="-34393">
		<tag k="name" v="Jørngarden" />
		<tag k="place" v="farm" />
		<tag k="ssr:stedsnr" v="827005" />
	</node>
	<node lat="63.27526787638123" lon="11.026125344578269" id="-34403">
		<tag k="name" v="Stamnes" />
		<tag k="place" v="hamlet" />
		<tag k="ssr:stedsnr" v="923196" />
	</node>
	<node lat="63.29561666575798" lon="11.05536110326591" id="-34404">
		<tag k="name" v="Åsen" />
		<tag k="place" v="farm" />
		<tag k="ssr:stedsnr" v="923292" />
	</node>
	<node lat="63.172033337000606" lon="10.951019449924251" id="-34406">
		<tag k="historic" v="shieling" />
		<tag k="name" v="Kotlivollen" />
		<tag k="place" v="isolated_dwelling" />
		<tag k="ssr:stedsnr" v="923154" />
	</node>
	<node lat="63.27990555887776" lon="11.057652773459315" id="-34409">
		<tag k="name" v="Knausen" />
		<tag k="place" v="farm" />
		<tag k="ssr:stedsnr" v="923333" />
	</node>
	<node lat="63.27581110792432" lon="11.043922228798849" id="-34410">
		<tag k="name" v="Moodden" />
		<tag k="place" v="farm" />
		<tag k="ssr:stedsnr" v="923335" />
	</node>
	<node lat="63.26120555863206" lon="11.102933340030862" id="-34411">
		<tag k="name" v="Svean" />
		<tag k="place" v="farm" />
		<tag k="ssr:stedsnr" v="923365" />
	</node>
	<node lat="63.25008888891396" lon="11.112822228058326" id="-34413">
		<tag k="name" v="Almås" />
		<tag k="place" v="farm" />
		<tag k="ssr:stedsnr" v="923396" />
	</node>
	<node lat="63.25426028694473" lon="10.900455270770818" id="-34415">
		<tag k="alt_name" v="Solem;Solem, øvre" />
		<tag k="fixme" v="consider place=hamlet" />
		<tag k="name" v="Øvre Solem" />
		<tag k="place" v="farm" />
		<tag k="ssr:stedsnr" v="923399" />
	</node>
	<node lat="63.2544416707259" lon="10.937675005714441" id="-34416">
		<tag k="alt_name" v="Fuglmoen" />
		<tag k="name" v="Fuglemsmoen" />
		<tag k="place" v="farm" />
		<tag k="ssr:stedsnr" v="923401" />
	</node>
	<node lat="63.20756132936614" lon="11.102350293560276" id="-34423">
		<tag k="name" v="Evja" />
		<tag k="place" v="farm" />
		<tag k="ssr:stedsnr" v="862103" />
	</node>
	<node lat="63.123355555015635" lon="11.077361112039519" id="-34425">
		<tag k="historic" v="shieling" />
		<tag k="name" v="Høstvollen" />
		<tag k="place" v="isolated_dwelling" />
		<tag k="ssr:stedsnr" v="862115" />
	</node>
	<node lat="63.22728026861174" lon="11.153900425115902" id="-34427">
		<tag k="name" v="Tjennbakkvollen" />
		<tag k="place" v="locality" />
		<tag k="ssr:stedsnr" v="862004" />
	</node>
	<node lat="63.24546154275011" lon="11.096214100175166" id="-34429">
		<tag k="name" v="Uglan" />
		<tag k="place" v="hamlet" />
		<tag k="ssr:stedsnr" v="862017" />
	</node>
	<node lat="63.24499999683622" lon="10.821827780510905" id="-34430">
		<tag k="name" v="Eggjahaugen" />
		<tag k="place" v="farm" />
		<tag k="ssr:stedsnr" v="862022" />
	</node>
	<node lat="63.193924999507495" lon="11.053311115732628" id="-34431">
		<tag k="name" v="Moen" />
		<tag k="place" v="farm" />
		<tag k="ssr:stedsnr" v="862071" />
	</node>
	<node lat="63.10609999559917" lon="11.352144453150236" id="-34435">
		<tag k="alt_name" v="Furumo" />
		<tag k="name" v="Furumoen" />
		<tag k="place" v="farm" />
		<tag k="ssr:stedsnr" v="862316" />
	</node>
	<node lat="63.18035833778167" lon="11.348430548437198" id="-34437">
		<tag k="name" v="Øvre Heståsen" />
		<tag k="place" v="isolated_dwelling" />
		<tag k="ssr:stedsnr" v="862258" />
	</node>
	<node lat="63.29368889045591" lon="11.194122218227143" id="-34439">
		<tag k="name" v="Børdalsvollen" />
		<tag k="place" v="isolated_dwelling" />
		<tag k="ssr:stedsnr" v="863244" />
	</node>
	<node lat="63.21616666371865" lon="11.405066676086847" id="-34441">
		<tag k="name" v="Lerholstoggo" />
		<tag k="place" v="isolated_dwelling" />
		<tag k="ssr:stedsnr" v="870213" />
	</node>
	<node lat="63.07621804395253" lon="11.07670377948552" id="-34442">
		<tag k="historic" v="shieling" />
		<tag k="name" v="Skogsvollen" />
		<tag k="place" v="isolated_dwelling" />
		<tag k="ssr:stedsnr" v="870303" />
	</node>
	<node lat="63.221949997313814" lon="11.413508332000381" id="-34446">
		<tag k="name" v="Kvernfjellstoggo" />
		<tag k="place" v="isolated_dwelling" />
		<tag k="ssr:stedsnr" v="931257" />
	</node>
	<node lat="63.2525888918726" lon="11.097833340072873" id="-34477">
		<tag k="alt_name" v="Søndre Moen" />
		<tag k="name" v="Moen søndre" />
		<tag k="place" v="farm" />
		<tag k="ssr:stedsnr" v="885165" />
	</node>
	<node lat="63.26681666947307" lon="10.987383331130744" id="-34482">
		<tag k="alt_name" v="Sandvik vestre" />
		<tag k="fixme" v="consider place=hamlet" />
		<tag k="name" v="Vestre Sandvik" />
		<tag k="place" v="farm" />
		<tag k="ssr:stedsnr" v="885214" />
	</node>
	<node lat="63.20818333206038" lon="11.047788891405865" id="-34484">
		<tag k="alt_name" v="Hoem søndre" />
		<tag k="name" v="Søndre Hoem" />
		<tag k="place" v="farm" />
		<tag k="ssr:stedsnr" v="885223" />
	</node>
	<node lat="63.2083833364202" lon="11.063938893645771" id="-34485">
		<tag k="alt_name" v="Berge midtre" />
		<tag k="name" v="Midtre Berge" />
		<tag k="place" v="farm" />
		<tag k="ssr:stedsnr" v="885225" />
	</node>
	<node lat="63.173116669791476" lon="11.265133338928662" id="-34492">
		<tag k="historic" v="shieling" />
		<tag k="name" v="Rollsetvollen" />
		<tag k="place" v="isolated_dwelling" />
		<tag k="ssr:stedsnr" v="885946" />
	</node>
	<node lat="63.256794441031" lon="11.302572223586766" id="-34508">
		<tag k="historic" v="shieling" />
		<tag k="name" v="Ryvollen" />
		<tag k="place" v="isolated_dwelling" />
		<tag k="ssr:stedsnr" v="886598" />
	</node>
	<node lat="63.21091944079126" lon="11.06446945352535" id="-34511">
		<tag k="name" v="Haugan" />
		<tag k="place" v="farm" />
		<tag k="ssr:stedsnr" v="887051" />
	</node>
	<node lat="63.20471666323519" lon="11.084091670656331" id="-34512">
		<tag k="name" v="Velve" />
		<tag k="place" v="hamlet" />
		<tag k="ssr:stedsnr" v="887053" />
	</node>
	<node lat="63.23593055715812" lon="11.08144445369913" id="-34521">
		<tag k="name" v="Volheim" />
		<tag k="place" v="farm" />
		<tag k="ssr:stedsnr" v="887351" />
	</node>
	<node lat="63.270647222006126" lon="11.13959166860587" id="-34527">
		<tag k="name" v="Kleva" />
		<tag k="place" v="farm" />
		<tag k="ssr:stedsnr" v="887603" />
	</node>
	<node lat="63.28896111038977" lon="11.155163897386887" id="-34528">
		<tag k="historic" v="shieling" />
		<tag k="name" v="Klokkarvollen" />
		<tag k="place" v="isolated_dwelling" />
		<tag k="ssr:stedsnr" v="887605" />
	</node>
	<node lat="63.25715833047696" lon="11.269913895137723" id="-34529">
		<tag k="historic" v="shieling" />
		<tag k="name" v="Elvåvollan" />
		<tag k="place" v="isolated_dwelling" />
		<tag k="ssr:stedsnr" v="887621" />
	</node>
	<node lat="63.11748611523321" lon="11.331372215717812" id="-34530">
		<tag k="name" v="Brauta" />
		<tag k="place" v="farm" />
		<tag k="ssr:stedsnr" v="887633" />
	</node>
	<node lat="63.111316665326356" lon="11.30939722779057" id="-34531">
		<tag k="name" v="Brynnåa" />
		<tag k="place" v="farm" />
		<tag k="ssr:stedsnr" v="887636" />
	</node>
	<node lat="63.107397226451795" lon="11.298388891483112" id="-34532">
		<tag k="name" v="Hansheim" />
		<tag k="place" v="farm" />
		<tag k="ssr:stedsnr" v="887638" />
	</node>
	<node lat="63.19753333152503" lon="10.954827780699866" id="-34533">
		<tag k="name" v="Nordmoen" />
		<tag k="place" v="farm" />
		<tag k="ssr:stedsnr" v="887724" />
	</node>
	<node lat="63.3301166672416" lon="11.359061118946745" id="-34538">
		<tag k="fixme" v="consider tourism=alpine_hut or tourism=chalet" />
		<tag k="name" v="Vindlibua" />
		<tag k="ssr:stedsnr" v="888711" />
		<tag k="tourism" v="wilderness_hut" />
	</node>
	<node lat="63.22426111219745" lon="11.134244434950583" id="-34539">
		<tag k="leisure" v="pitch" />
		<tag k="name" v="Selbu skytesenter" />
		<tag k="ssr:stedsnr" v="907422" />
	</node>
	<node lat="63.228338886959115" lon="11.033741670769965" id="-34540">
		<tag k="amenity" v="school" />
		<tag k="name" v="Bell barneskole" />
		<tag k="ssr:stedsnr" v="907720" />
	</node>
	<node lat="63.17866389109359" lon="10.924641672258389" id="-34542">
		<tag k="historic" v="shieling" />
		<tag k="name" v="Litjvollen" />
		<tag k="place" v="isolated_dwelling" />
		<tag k="ssr:stedsnr" v="922074" />
	</node>
	<node lat="63.181088891212596" lon="10.889133335012133" id="-34543">
		<tag k="historic" v="shieling" />
		<tag k="name" v="Kjøsnesvollen" />
		<tag k="place" v="isolated_dwelling" />
		<tag k="ssr:stedsnr" v="922075" />
	</node>
	<node lat="63.200705557961655" lon="11.05210000612245" id="-34545">
		<tag k="name" v="Brauta" />
		<tag k="place" v="farm" />
		<tag k="ssr:stedsnr" v="922087" />
	</node>
	<node lat="63.19625278053034" lon="11.111677778526309" id="-34546">
		<tag k="name" v="Sørmoen" />
		<tag k="place" v="farm" />
		<tag k="ssr:stedsnr" v="922089" />
	</node>
	<node lat="63.161380559004215" lon="11.50205833139673" id="-34547">
		<tag k="alt_name" v="Liavollen, s" />
		<tag k="historic" v="shieling" />
		<tag k="name" v="Syndre Liavollen" />
		<tag k="place" v="isolated_dwelling" />
		<tag k="ssr:stedsnr" v="922208" />
	</node>
	<node lat="63.107913885564955" lon="11.34549167520198" id="-34548">
		<tag k="alt_name" v="Myrli" />
		<tag k="name" v="Myrlia" />
		<tag k="place" v="farm" />
		<tag k="ssr:stedsnr" v="922249" />
	</node>
	<node lat="63.11309220100263" lon="11.299384777351444" id="-34549">
		<tag k="alt_name" v="Skogan øvre;Øvre Skogan" />
		<tag k="name" v="Skogan" />
		<tag k="place" v="farm" />
		<tag k="ssr:stedsnr" v="922251" />
	</node>
	<node lat="63.28261666408035" lon="11.259494448800053" id="-34552">
		<tag k="historic" v="shieling" />
		<tag k="name" v="Stråsjøvollen" />
		<tag k="place" v="isolated_dwelling" />
		<tag k="ssr:stedsnr" v="923107" />
	</node>
	<node lat="63.255815817465894" lon="11.256184720710054" id="-34554">
		<tag k="alt_name" v="Bjørgavollen" />
		<tag k="historic" v="shieling" />
		<tag k="name" v="Bergtrøa" />
		<tag k="place" v="isolated_dwelling" />
		<tag k="ssr:stedsnr" v="923129" />
	</node>
	<node lat="63.15898333749025" lon="11.002980563414395" id="-34555">
		<tag k="historic" v="shieling" />
		<tag k="name" v="Nåldalen" />
		<tag k="place" v="isolated_dwelling" />
		<tag k="ssr:stedsnr" v="923139" />
	</node>
	<node lat="63.11891944123702" lon="11.093263887948758" id="-34556">
		<tag k="historic" v="shieling" />
		<tag k="name" v="Søvollen" />
		<tag k="place" v="isolated_dwelling" />
		<tag k="ssr:stedsnr" v="923175" />
	</node>
	<node lat="63.117433672240566" lon="11.110126044501957" id="-34558">
		<tag k="historic" v="shieling" />
		<tag k="name" v="Mogardsvollene" />
		<tag k="place" v="isolated_dwelling" />
		<tag k="ssr:stedsnr" v="923179" />
	</node>
	<node lat="63.291216666336425" lon="11.184997226961107" id="-34560">
		<tag k="name" v="Børdalstrøa" />
		<tag k="place" v="farm" />
		<tag k="ssr:stedsnr" v="923283" />
	</node>
	<node lat="63.08509482924396" lon="11.236839963245359" id="-34562">
		<tag k="historic" v="shieling" />
		<tag k="name" v="Yttervollen" />
		<tag k="place" v="isolated_dwelling" />
		<tag k="ssr:stedsnr" v="923319" />
	</node>
	<node lat="63.09741111386067" lon="11.34083889505299" id="-34563">
		<tag k="alt_name" v="Evsjø" />
		<tag k="name" v="Evsjøen" />
		<tag k="place" v="farm" />
		<tag k="ssr:stedsnr" v="923323" />
	</node>
	<node lat="63.26418888787533" lon="10.971769435752156" id="-34564">
		<tag k="name" v="Moan" />
		<tag k="place" v="farm" />
		<tag k="ssr:stedsnr" v="923371" />
	</node>
	<node lat="63.05841110669187" lon="11.28502222128642" id="-34565">
		<tag k="historic" v="shieling" />
		<tag k="name" v="Nesdalen" />
		<tag k="place" v="isolated_dwelling" />
		<tag k="ssr:stedsnr" v="923372" />
	</node>
	<node lat="63.26494999869271" lon="10.826436105343845" id="-34566">
		<tag k="name" v="Grubba" />
		<tag k="place" v="isolated_dwelling" />
		<tag k="ssr:stedsnr" v="923376" />
	</node>
	<node lat="63.27313394922756" lon="11.013846434694724" id="-34567">
		<tag k="alt_name" v="Fossli" />
		<tag k="name" v="Fosslia" />
		<tag k="place" v="farm" />
		<tag k="ssr:stedsnr" v="923383" />
	</node>
	<node lat="63.18937222166115" lon="11.117319445556026" id="-34573">
		<tag k="name" v="Uthus" />
		<tag k="place" v="hamlet" />
		<tag k="ssr:stedsnr" v="945006" />
	</node>
	<node lat="63.208844443482484" lon="10.97441943960177" id="-34575">
		<tag k="name" v="Eggen" />
		<tag k="place" v="farm" />
		<tag k="ssr:stedsnr" v="945107" />
	</node>
	<node lat="63.24267222338365" lon="11.051516664418145" id="-34576">
		<tag k="name" v="Østigarden" />
		<tag k="place" v="farm" />
		<tag k="ssr:stedsnr" v="945130" />
	</node>
	<node lat="63.28258888652794" lon="11.041669448959091" id="-34577">
		<tag k="name" v="Pundsgrenda" />
		<tag k="place" v="hamlet" />
		<tag k="ssr:stedsnr" v="945182" />
	</node>
	<node lat="63.109811110444184" lon="11.196388889309928" id="-34579">
		<tag k="historic" v="shieling" />
		<tag k="name" v="Stokkvollen" />
		<tag k="place" v="isolated_dwelling" />
		<tag k="ssr:stedsnr" v="945213" />
	</node>
	<node lat="63.23042222519746" lon="11.043275008080608" id="-34594">
		<tag k="name" v="Botn" />
		<tag k="place" v="farm" />
		<tag k="ssr:stedsnr" v="946114" />
	</node>
	<node lat="63.2018388895922" lon="11.067697216828615" id="-34611">
		<tag k="name" v="Bergemoen" />
		<tag k="place" v="farm" />
		<tag k="ssr:stedsnr" v="947310" />
	</node>
	<node lat="63.24773055676475" lon="11.094641675021338" id="-34614">
		<tag k="alt_name" v="Fletten n." />
		<tag k="name" v="Nordre Fletten" />
		<tag k="place" v="farm" />
		<tag k="ssr:stedsnr" v="947529" />
	</node>
	<node lat="63.28702777384409" lon="11.068888885078419" id="-34615">
		<tag k="name" v="Tømmerli" />
		<tag k="place" v="farm" />
		<tag k="ssr:stedsnr" v="947531" />
	</node>
	<node lat="63.19355833076953" lon="11.134183338523346" id="-34617">
		<tag k="name" v="Mostad" />
		<tag k="place" v="farm" />
		<tag k="ssr:stedsnr" v="947536" />
	</node>
	<node lat="63.25537222231935" lon="11.274755550518273" id="-34618">
		<tag k="historic" v="shieling" />
		<tag k="name" v="Bergevollen" />
		<tag k="place" v="isolated_dwelling" />
		<tag k="ssr:stedsnr" v="947577" />
	</node>
	<node lat="63.18356110770819" lon="11.331094434897693" id="-34619">
		<tag k="historic" v="shieling" />
		<tag k="name" v="Gråsteinvollen" />
		<tag k="place" v="isolated_dwelling" />
		<tag k="ssr:stedsnr" v="947598" />
	</node>
	<node lat="63.2092666632831" lon="10.946694450802621" id="-34620">
		<tag k="name" v="Arnneset" />
		<tag k="place" v="farm" />
		<tag k="ssr:stedsnr" v="948135" />
	</node>
	<node lat="63.20608333568478" lon="10.95036666750515" id="-34621">
		<tag k="name" v="Oppigarden" />
		<tag k="place" v="farm" />
		<tag k="ssr:stedsnr" v="948008" />
	</node>
	<node lat="63.293241664527635" lon="11.05890276851381" id="-34629">
		<tag k="name" v="Espet" />
		<tag k="place" v="hamlet" />
		<tag k="ssr:stedsnr" v="948397" />
	</node>
	<node lat="63.21746111406775" lon="10.982652785906163" id="-34633">
		<tag k="name" v="Overvik nordre" />
		<tag k="place" v="farm" />
		<tag k="ssr:stedsnr" v="948580" />
	</node>
	<node lat="63.224997218534895" lon="11.032136114773294" id="-34634">
		<tag k="name" v="Marienborg" />
		<tag k="place" v="farm" />
		<tag k="ssr:stedsnr" v="948582" />
	</node>
	<node lat="63.238691670915465" lon="11.078788886617332" id="-34635">
		<tag k="name" v="Vølsetbakken" />
		<tag k="place" v="farm" />
		<tag k="ssr:stedsnr" v="948593" />
	</node>
	<node lat="63.20595483553502" lon="11.111013630031469" id="-34636">
		<tag k="fixme" v="consider place=hamlet" />
		<tag k="name" v="Seienget" />
		<tag k="place" v="farm" />
		<tag k="ssr:stedsnr" v="971900" />
	</node>
	<node lat="63.189675381048225" lon="11.186327495274496" id="-34637">
		<tag k="name" v="Brumoen" />
		<tag k="place" v="farm" />
		<tag k="ssr:stedsnr" v="973929" />
	</node>
	<node lat="63.22078572583759" lon="11.030562271413899" id="-34640">
		<tag k="amenity" v="kindergarten" />
		<tag k="name" v="Kvellohaugen barnehage" />
		<tag k="ssr:stedsnr" v="984040" />
	</node>
	<node lat="63.161227781786394" lon="11.441386106363636" id="-34641">
		<tag k="historic" v="shieling" />
		<tag k="name" v="Syndre Evjvollen" />
		<tag k="place" v="isolated_dwelling" />
		<tag k="ssr:stedsnr" v="12223" />
	</node>
	<node lat="63.17348889152209" lon="11.310697226211893" id="-34642">
		<tag k="name" v="Roltvollen" />
		<tag k="place" v="isolated_dwelling" />
		<tag k="ssr:stedsnr" v="12239" />
	</node>
	<node lat="63.1158861125171" lon="11.32872499645721" id="-34643">
		<tag k="historic" v="shieling" />
		<tag k="name" v="Sollia" />
		<tag k="place" v="isolated_dwelling" />
		<tag k="ssr:stedsnr" v="12243" />
	</node>
	<node lat="63.107791663707324" lon="11.3399527790188" id="-34646">
		<tag k="name" v="Bakkli" />
		<tag k="place" v="farm" />
		<tag k="ssr:stedsnr" v="12260" />
	</node>
	<node lat="63.223983861621775" lon="11.040540568360141" id="-34647">
		<tag k="name" v="Håstad" />
		<tag k="place" v="hamlet" />
		<tag k="ssr:stedsnr" v="12060" />
	</node>
	<node lat="63.22148651691747" lon="11.044910934338061" id="-34648">
		<tag k="name" v="Hovsli" />
		<tag k="place" v="farm" />
		<tag k="ssr:stedsnr" v="12062" />
	</node>
	<node lat="63.20501389239993" lon="11.092944441350163" id="-34650">
		<tag k="name" v="Evjegjardet" />
		<tag k="place" v="farm" />
		<tag k="ssr:stedsnr" v="12097" />
	</node>
	<node lat="63.167656002494375" lon="11.007202686740877" id="-34651">
		<tag k="historic" v="shieling" />
		<tag k="name" v="Åsvollen" />
		<tag k="place" v="isolated_dwelling" />
		<tag k="ssr:stedsnr" v="12134" />
	</node>
	<node lat="63.09643861997114" lon="11.10308767322589" id="-34654">
		<tag k="historic" v="shieling" />
		<tag k="name" v="Gammelvollen" />
		<tag k="place" v="isolated_dwelling" />
		<tag k="ssr:stedsnr" v="12143" />
	</node>
	<node lat="63.211927774100765" lon="11.506430550190037" id="-34655">
		<tag k="fixme" v="consider tourism=alpine_hut or tourism=chalet" />
		<tag k="name" v="Schulzhytta" />
		<tag k="ssr:stedsnr" v="12197" />
		<tag k="tourism" v="wilderness_hut" />
	</node>
	<node lat="63.292763891171404" lon="11.285488887145991" id="-34659">
		<tag k="alt_name" v="Svenngardsvollen" />
		<tag k="historic" v="shieling" />
		<tag k="name" v="Stråsjøen" />
		<tag k="place" v="isolated_dwelling" />
		<tag k="ssr:stedsnr" v="13083" />
	</node>
	<node lat="63.30755874791726" lon="11.30145769794733" id="-34661">
		<tag k="alt_name" v="Kjellstadvollen" />
		<tag k="historic" v="shieling" />
		<tag k="name" v="Varghaugvollen" />
		<tag k="place" v="isolated_dwelling" />
		<tag k="ssr:stedsnr" v="13091" />
	</node>
	<node lat="63.25997777528934" lon="11.107147224570703" id="-34663">
		<tag k="name" v="Garli" />
		<tag k="place" v="farm" />
		<tag k="ssr:stedsnr" v="13342" />
	</node>
	<node lat="63.25733055413095" lon="11.072841671581083" id="-34664">
		<tag k="fixme" v="consider place=hamlet" />
		<tag k="name" v="Siran" />
		<tag k="place" v="farm" />
		<tag k="ssr:stedsnr" v="13344" />
	</node>
	<node lat="63.29356388891076" lon="11.17601666725555" id="-34665">
		<tag k="name" v="Eidemsvollen" />
		<tag k="place" v="isolated_dwelling" />
		<tag k="ssr:stedsnr" v="13284" />
	</node>
	<node lat="63.29494722171871" lon="10.969183342064495" id="-34666">
		<tag k="fixme" v="multiple name tags, choose one and add the other to alt_name" />
		<tag k="name" v="Bønhivollen;Bjørnhivollen" />
		<tag k="place" v="locality" />
		<tag k="ssr:stedsnr" v="13288" />
	</node>
	<node lat="63.307280556671586" lon="11.078027787565002" id="-34667">
		<tag k="name" v="Blomlia" />
		<tag k="place" v="farm" />
		<tag k="ssr:stedsnr" v="13293" />
	</node>
	<node lat="63.270530554504106" lon="11.008163897794816" id="-34668">
		<tag k="name" v="Fossan" />
		<tag k="place" v="farm" />
		<tag k="ssr:stedsnr" v="13376" />
	</node>
	<node lat="63.30784201654583" lon="10.948253582739065" id="-34669">
		<tag k="alt_name" v="Gammelvollstogo" />
		<tag k="historic" v="shieling" />
		<tag k="name" v="Gammelvollstoggo" />
		<tag k="place" v="isolated_dwelling" />
		<tag k="ssr:stedsnr" v="13384" />
	</node>
	<node lat="63.251863888552855" lon="11.020333338640452" id="-34670">
		<tag k="alt_name" v="Nordre Flønesaunet" />
		<tag k="name" v="Flønesnes" />
		<tag k="place" v="farm" />
		<tag k="ssr:stedsnr" v="13390" />
	</node>
	<node lat="63.25568149450841" lon="10.908803996189826" id="-34672">
		<tag k="name" v="Solemstrøa" />
		<tag k="place" v="farm" />
		<tag k="ssr:stedsnr" v="13398" />
	</node>
	<node lat="63.25940277797843" lon="11.112625004406542" id="-34673">
		<tag k="name" v="Trøhaugen" />
		<tag k="place" v="farm" />
		<tag k="ssr:stedsnr" v="13349" />
	</node>
	<node lat="63.19876978050025" lon="11.476087133517966" id="-34677">
		<tag k="name" v="Nedre Brattslåtten" />
		<tag k="place" v="isolated_dwelling" />
		<tag k="ssr:stedsnr" v="20185" />
	</node>
	<node lat="63.289135112320366" lon="11.34157171727619" id="-34680">
		<tag k="fixme" v="consider tourism=alpine_hut or tourism=chalet" />
		<tag k="name" v="Prestøyhytta" />
		<tag k="ssr:stedsnr" v="21357" />
		<tag k="tourism" v="wilderness_hut" />
	</node>
	<node lat="63.255006788708805" lon="11.11194450414129" id="-34685">
		<tag k="fixme" v="consider place=hamlet" />
		<tag k="name" v="Aunet" />
		<tag k="place" v="farm" />
		<tag k="ssr:stedsnr" v="35070" />
	</node>
	<node lat="63.20797777463571" lon="11.093488890922185" id="-34691">
		<tag k="name" v="Farggarden" />
		<tag k="place" v="farm" />
		<tag k="ssr:stedsnr" v="35140" />
	</node>
	<node lat="63.095922226104655" lon="11.338877786028627" id="-34700">
		<tag k="name" v="Myrvoll" />
		<tag k="place" v="farm" />
		<tag k="ssr:stedsnr" v="34536" />
	</node>
	<node lat="63.167125002793476" lon="11.3494611060951" id="-34716">
		<tag k="historic" v="shieling" />
		<tag k="name" v="Svarttjennvollen" />
		<tag k="place" v="isolated_dwelling" />
		<tag k="ssr:stedsnr" v="34681" />
	</node>
	<node lat="63.271969443644934" lon="11.120913892597533" id="-34718">
		<tag k="name" v="Langlihaugen" />
		<tag k="place" v="farm" />
		<tag k="ssr:stedsnr" v="34694" />
	</node>
	<node lat="63.23862777596937" lon="11.093399998625209" id="-34731">
		<tag k="name" v="Rønningen" />
		<tag k="place" v="farm" />
		<tag k="ssr:stedsnr" v="35183" />
	</node>
	<node lat="63.247847222176844" lon="11.018911110260914" id="-34732">
		<tag k="name" v="Flønesaunet søndre" />
		<tag k="place" v="locality" />
		<tag k="ssr:stedsnr" v="35189" />
	</node>
	<node lat="63.20836944625878" lon="11.10645556553986" id="-34734">
		<tag k="name" v="Lia" />
		<tag k="place" v="farm" />
		<tag k="ssr:stedsnr" v="35038" />
	</node>
	<node lat="63.10762222253805" lon="11.302324997780161" id="-34740">
		<tag k="name" v="Fremo" />
		<tag k="place" v="farm" />
		<tag k="ssr:stedsnr" v="35937" />
	</node>
</osm>
