<?xml version="1.0" encoding="UTF-8"?>
<osm version="0.6" generator="osmapis">
	<node lat="63.26678055166722" lon="10.994669453406072" id="-32856">
		<tag k="amenity" v="community_centre" />
		<tag k="name" v="Framheim samfunnshus" />
		<tag k="ssr:stedsnr" v="57426" />
	</node>
	<node lat="63.216680556181565" lon="11.0389722256372" id="-33060">
		<tag k="amenity" v="place_of_worship" />
		<tag k="fixme" v="specify religion=*, denomination=*, building=* etc" />
		<tag k="name" v="Selbu menighetshus" />
		<tag k="ssr:stedsnr" v="179471" />
	</node>
	<node lat="63.19813610988746" lon="11.140072224355354" id="-33910">
		<tag k="amenity" v="community_centre" />
		<tag k="name" v="Hyttvang forsamlingshus" />
		<tag k="ssr:stedsnr" v="603455" />
	</node>
	<node lat="63.25217222087267" lon="10.940869435836" id="-34104">
		<tag k="amenity" v="community_centre" />
		<tag k="name" v="Breidablikk samfunnshus" />
		<tag k="ssr:stedsnr" v="664436" />
	</node>
	<node lat="63.248602778696984" lon="10.951705562631824" id="-34300">
		<tag k="alt_name" v="Selbustrand" />
		<tag k="amenity" v="place_of_worship" />
		<tag k="denomination" v="lutheran" />
		<tag k="name" v="Selbustrand kirke" />
		<tag k="religion" v="christian" />
		<tag k="ssr:stedsnr" v="801015" />
	</node>
	<node lat="63.30438500349868" lon="11.02075982502505" id="-34311">
		<tag k="name" v="Tjurrubugrava" />
		<tag k="place" v="locality" />
		<tag k="ssr:stedsnr" v="802306" />
	</node>
	<node lat="63.22612499879697" lon="11.031474991739449" id="-34422">
		<tag k="alt_name" v="Gimle" />
		<tag k="amenity" v="community_centre" />
		<tag k="name" v="Gimle samfunnshus" />
		<tag k="ssr:stedsnr" v="847487" />
	</node>
	<node lat="63.10898611354847" lon="11.305047215431111" id="-34457">
		<tag k="alt_name" v="Folkvang" />
		<tag k="amenity" v="community_centre" />
		<tag k="name" v="Folkvang samfunnshus" />
		<tag k="ssr:stedsnr" v="884550" />
	</node>
</osm>
