<?xml version="1.0" encoding="UTF-8"?>
<osm version="0.6" generator="osmapis">
	<node lat="63.0744805572592" lon="11.20522500456861" id="-32770">
		<tag k="fixme" v="consider natural=peak for the most distinct mountains in the district" />
		<tag k="name" v="Bringskaftet" />
		<tag k="natural" v="hill" />
		<tag k="place" v="locality" />
		<tag k="ssr:stedsnr" v="12178" />
	</node>
	<node lat="63.25782778112239" lon="10.739994449158084" id="-32782">
		<tag k="fixme" v="consider natural=peak for the most distinct mountains in the district" />
		<tag k="name" v="Renåfjellet" />
		<tag k="natural" v="hill" />
		<tag k="place" v="locality" />
		<tag k="ssr:stedsnr" v="13406" />
	</node>
	<node lat="63.296764822324576" lon="10.674061606857604" id="-32785">
		<tag k="name" v="Botnan" />
		<tag k="natural" v="valley" />
		<tag k="place" v="locality" />
		<tag k="ssr:stedsnr" v="13829" />
	</node>
	<node lat="63.07203611039613" lon="11.189199997021055" id="-32786">
		<tag k="name" v="Storbekkdalen" />
		<tag k="natural" v="valley" />
		<tag k="place" v="locality" />
		<tag k="ssr:stedsnr" v="20303" />
	</node>
	<node lat="63.25458333582276" lon="10.745736108098226" id="-32787">
		<tag k="name" v="Brennhaugen" />
		<tag k="natural" v="hill" />
		<tag k="place" v="locality" />
		<tag k="ssr:stedsnr" v="34375" />
	</node>
	<node lat="63.28213888766836" lon="10.828350008936054" id="-32791">
		<tag k="name" v="Ysterdalsberga" />
		<tag k="natural" v="hill" />
		<tag k="place" v="locality" />
		<tag k="ssr:stedsnr" v="34436" />
	</node>
	<node lat="63.276322220511474" lon="10.685947219756583" id="-32793">
		<tag k="fixme" v="consider natural=peak for the most distinct mountains in the district" />
		<tag k="name" v="Blåhåmmåren" />
		<tag k="natural" v="hill" />
		<tag k="place" v="locality" />
		<tag k="ssr:stedsnr" v="34437" />
	</node>
	<node lat="63.279188889663764" lon="10.650886113741503" id="-32795">
		<tag k="name" v="Svartdalen" />
		<tag k="natural" v="valley" />
		<tag k="place" v="locality" />
		<tag k="ssr:stedsnr" v="34485" />
	</node>
	<node lat="63.16534444380281" lon="11.269644443264442" id="-32796">
		<tag k="name" v="Grønlia" />
		<tag k="natural" v="slope" />
		<tag k="place" v="locality" />
		<tag k="ssr:stedsnr" v="34702" />
	</node>
	<node lat="63.134413887539345" lon="11.302113892390738" id="-32797">
		<tag k="fixme" v="consider natural=peak for the most distinct mountains in the district" />
		<tag k="name" v="Seterbrenntoppen" />
		<tag k="natural" v="hill" />
		<tag k="place" v="locality" />
		<tag k="ssr:stedsnr" v="34720" />
	</node>
	<node lat="63.31024166690068" lon="11.042902770655283" id="-32798">
		<tag k="fixme" v="consider natural=peak for the most distinct mountains in the district" />
		<tag k="name" v="Paulineåsen" />
		<tag k="natural" v="hill" />
		<tag k="place" v="locality" />
		<tag k="ssr:stedsnr" v="35201" />
	</node>
	<node lat="63.30989166229814" lon="11.14967778478067" id="-32803">
		<tag k="name" v="Supen" />
		<tag k="place" v="locality" />
		<tag k="ssr:stedsnr" v="35117" />
	</node>
	<node lat="63.12217222124908" lon="11.092066663169094" id="-32809">
		<tag k="name" v="Kvilgrubba" />
		<tag k="place" v="locality" />
		<tag k="ssr:stedsnr" v="35384" />
	</node>
	<node lat="63.17582500127" lon="11.063105562490085" id="-32812">
		<tag k="fixme" v="consider natural=peak for the most distinct mountains in the district" />
		<tag k="name" v="Gammelvollåsen" />
		<tag k="natural" v="hill" />
		<tag k="place" v="locality" />
		<tag k="ssr:stedsnr" v="35422" />
	</node>
	<node lat="63.07086944848481" lon="11.32115277688446" id="-32815">
		<tag k="fixme" v="consider natural=peak for the most distinct mountains in the district" />
		<tag k="name" v="Storåsen" />
		<tag k="natural" v="hill" />
		<tag k="place" v="locality" />
		<tag k="ssr:stedsnr" v="35913" />
	</node>
	<node lat="63.064708335775165" lon="11.304969446062968" id="-32816">
		<tag k="name" v="Limberget" />
		<tag k="natural" v="hill" />
		<tag k="place" v="locality" />
		<tag k="ssr:stedsnr" v="35918" />
	</node>
	<node lat="63.074475001672276" lon="11.238602772406859" id="-32818">
		<tag k="fixme" v="consider natural=peak for the most distinct mountains in the district" />
		<tag k="name" v="Holåsen" />
		<tag k="natural" v="hill" />
		<tag k="place" v="locality" />
		<tag k="ssr:stedsnr" v="35924" />
	</node>
	<node lat="63.299433337592816" lon="10.83633612098063" id="-32824">
		<tag k="name" v="Rundhaugen" />
		<tag k="natural" v="hill" />
		<tag k="place" v="locality" />
		<tag k="ssr:stedsnr" v="36360" />
	</node>
	<node lat="63.25691389218592" lon="10.85905832605508" id="-32825">
		<tag k="fixme" v="consider natural=peak for the most distinct mountains in the district" />
		<tag k="name" v="Ringneset" />
		<tag k="natural" v="hill" />
		<tag k="place" v="locality" />
		<tag k="ssr:stedsnr" v="36702" />
	</node>
	<node lat="63.26417777714634" lon="10.93891111903699" id="-32830">
		<tag k="name" v="Bønndalen" />
		<tag k="natural" v="valley" />
		<tag k="place" v="locality" />
		<tag k="ssr:stedsnr" v="37203" />
	</node>
	<node lat="63.16883333409712" lon="10.914536110464656" id="-32833">
		<tag k="name" v="Skjenndalen" />
		<tag k="natural" v="valley" />
		<tag k="place" v="locality" />
		<tag k="ssr:stedsnr" v="37264" />
	</node>
	<node lat="63.26416666550896" lon="10.900380561750636" id="-32836">
		<tag k="name" v="Kasberøyan" />
		<tag k="natural" v="hill" />
		<tag k="place" v="locality" />
		<tag k="ssr:stedsnr" v="37282" />
	</node>
	<node lat="63.09664166286849" lon="11.229661108704859" id="-32837">
		<tag k="name" v="Skinnbroka" />
		<tag k="place" v="locality" />
		<tag k="ssr:stedsnr" v="37403" />
	</node>
	<node lat="63.06861388828099" lon="11.235427784396178" id="-32838">
		<tag k="fixme" v="consider natural=peak for the most distinct mountains in the district" />
		<tag k="name" v="Litjliåsen" />
		<tag k="natural" v="hill" />
		<tag k="place" v="locality" />
		<tag k="ssr:stedsnr" v="37404" />
	</node>
	<node lat="63.3247583318301" lon="10.990444449744034" id="-32847">
		<tag k="fixme" v="consider natural=peak for the most distinct mountains in the district" />
		<tag k="name" v="Storåsen" />
		<tag k="natural" v="hill" />
		<tag k="place" v="locality" />
		<tag k="ssr:stedsnr" v="37576" />
	</node>
	<node lat="63.20004722221524" lon="10.944705559670366" id="-32853">
		<tag k="name" v="Gjeldalen" />
		<tag k="natural" v="valley" />
		<tag k="place" v="locality" />
		<tag k="ssr:stedsnr" v="38160" />
	</node>
	<node lat="63.28519167081609" lon="10.951647222509745" id="-32854">
		<tag k="name" v="Balstadskardet" />
		<tag k="natural" v="valley" />
		<tag k="place" v="locality" />
		<tag k="ssr:stedsnr" v="38259" />
	</node>
	<node lat="63.16374166683494" lon="11.267633337459987" id="-32864">
		<tag k="fixme" v="consider natural=peak for the most distinct mountains in the district" />
		<tag k="name" v="Grønlia" />
		<tag k="natural" v="hill" />
		<tag k="place" v="locality" />
		<tag k="ssr:stedsnr" v="73219" />
	</node>
	<node lat="63.003658335210154" lon="11.271336102936102" id="-32867">
		<tag k="name" v="Bukkhåmmåren" />
		<tag k="natural" v="hill" />
		<tag k="place" v="locality" />
		<tag k="ssr:stedsnr" v="73373" />
	</node>
	<node lat="63.0268638870866" lon="11.227650003855908" id="-32868">
		<tag k="fixme" v="consider natural=peak for the most distinct mountains in the district" />
		<tag k="name" v="Blektjennfjellet" />
		<tag k="natural" v="hill" />
		<tag k="place" v="locality" />
		<tag k="ssr:stedsnr" v="73384" />
	</node>
	<node lat="63.29932777357087" lon="11.275830553392996" id="-32869">
		<tag k="fixme" v="consider natural=peak for the most distinct mountains in the district" />
		<tag k="name" v="Bårsetknippen" />
		<tag k="natural" v="hill" />
		<tag k="place" v="locality" />
		<tag k="ssr:stedsnr" v="74074" />
	</node>
	<node lat="63.33812778082481" lon="11.145075001025576" id="-32875">
		<tag k="fixme" v="consider natural=peak for the most distinct mountains in the district" />
		<tag k="name" v="Olemsåsen" />
		<tag k="natural" v="hill" />
		<tag k="place" v="locality" />
		<tag k="ssr:stedsnr" v="74419" />
	</node>
	<node lat="63.20072221961625" lon="11.22876389214684" id="-32879">
		<tag k="name" v="Eggjadalen" />
		<tag k="natural" v="valley" />
		<tag k="place" v="locality" />
		<tag k="ssr:stedsnr" v="81210" />
	</node>
	<node lat="63.20180277479799" lon="11.539130559383313" id="-32881">
		<tag k="fixme" v="consider natural=peak for the most distinct mountains in the district" />
		<tag k="name" v="Svenskmoknippen" />
		<tag k="natural" v="hill" />
		<tag k="place" v="locality" />
		<tag k="ssr:stedsnr" v="81198" />
	</node>
	<node lat="63.237697223476346" lon="11.275422224061465" id="-32884">
		<tag k="name" v="Høglia" />
		<tag k="natural" v="slope" />
		<tag k="place" v="locality" />
		<tag k="ssr:stedsnr" v="82237" />
	</node>
	<node lat="63.20801110861146" lon="10.791541667632025" id="-32888">
		<tag k="name" v="Karilia" />
		<tag k="natural" v="slope" />
		<tag k="place" v="locality" />
		<tag k="ssr:stedsnr" v="95423" />
	</node>
	<node lat="63.25225277610044" lon="10.696272213528596" id="-32890">
		<tag k="name" v="Flobekkøya" />
		<tag k="natural" v="slope" />
		<tag k="place" v="locality" />
		<tag k="ssr:stedsnr" v="95474" />
	</node>
	<node lat="63.0753388897879" lon="11.291549997539816" id="-32891">
		<tag k="name" v="Tortlia" />
		<tag k="natural" v="slope" />
		<tag k="place" v="locality" />
		<tag k="ssr:stedsnr" v="95486" />
	</node>
	<node lat="63.2394527791235" lon="11.272125007279856" id="-32892">
		<tag k="name" v="Høglia" />
		<tag k="natural" v="slope" />
		<tag k="place" v="locality" />
		<tag k="ssr:stedsnr" v="95611" />
	</node>
	<node lat="63.16535278197707" lon="11.285255555498834" id="-32897">
		<tag k="name" v="Elgtjennhaugen" />
		<tag k="natural" v="hill" />
		<tag k="place" v="locality" />
		<tag k="ssr:stedsnr" v="95715" />
	</node>
	<node lat="63.14793055866613" lon="11.304850008098093" id="-32898">
		<tag k="fixme" v="consider natural=peak for the most distinct mountains in the district" />
		<tag k="name" v="Litjliåsen" />
		<tag k="natural" v="hill" />
		<tag k="place" v="locality" />
		<tag k="ssr:stedsnr" v="95717" />
	</node>
	<node lat="63.19921111354091" lon="11.303411111077322" id="-32899">
		<tag k="name" v="Krossåbakken" />
		<tag k="natural" v="slope" />
		<tag k="place" v="locality" />
		<tag k="ssr:stedsnr" v="95661" />
	</node>
	<node lat="63.279108330068404" lon="11.005941663899092" id="-32908">
		<tag k="fixme" v="consider natural=peak for the most distinct mountains in the district" />
		<tag k="name" v="Fossåsen" />
		<tag k="natural" v="hill" />
		<tag k="place" v="locality" />
		<tag k="ssr:stedsnr" v="96214" />
	</node>
	<node lat="63.196455553080256" lon="11.2784972226862" id="-32913">
		<tag k="name" v="Puttvollian" />
		<tag k="natural" v="slope" />
		<tag k="place" v="locality" />
		<tag k="ssr:stedsnr" v="96962" />
	</node>
	<node lat="63.242149996206095" lon="11.25239999820903" id="-32918">
		<tag k="name" v="Storhaugen" />
		<tag k="natural" v="hill" />
		<tag k="place" v="locality" />
		<tag k="ssr:stedsnr" v="97603" />
	</node>
	<node lat="63.303627779814185" lon="11.23864166933155" id="-32919">
		<tag k="name" v="Smørdalen" />
		<tag k="natural" v="valley" />
		<tag k="place" v="locality" />
		<tag k="ssr:stedsnr" v="97606" />
	</node>
	<node lat="63.23072777797506" lon="11.055388893056422" id="-32925">
		<tag k="fixme" v="consider natural=peak for the most distinct mountains in the district" />
		<tag k="name" v="Revåsen" />
		<tag k="natural" v="hill" />
		<tag k="place" v="locality" />
		<tag k="ssr:stedsnr" v="98215" />
	</node>
	<node lat="63.2116805565196" lon="10.929786113343116" id="-32928">
		<tag k="name" v="Stordalen" />
		<tag k="natural" v="valley" />
		<tag k="place" v="locality" />
		<tag k="ssr:stedsnr" v="98167" />
	</node>
	<node lat="63.160713884669974" lon="11.11690000786065" id="-32931">
		<tag k="fixme" v="consider natural=peak for the most distinct mountains in the district" />
		<tag k="name" v="Gulltjennåsen" />
		<tag k="natural" v="hill" />
		<tag k="place" v="locality" />
		<tag k="ssr:stedsnr" v="98312" />
	</node>
	<node lat="63.28875277532783" lon="11.025527787353788" id="-32938">
		<tag k="name" v="Elvbakken" />
		<tag k="natural" v="slope" />
		<tag k="place" v="locality" />
		<tag k="ssr:stedsnr" v="98367" />
	</node>
	<node lat="63.3207944485284" lon="10.979222221986438" id="-32940">
		<tag k="fixme" v="consider natural=peak for the most distinct mountains in the district" />
		<tag k="name" v="Heståsen" />
		<tag k="natural" v="hill" />
		<tag k="place" v="locality" />
		<tag k="ssr:stedsnr" v="98506" />
	</node>
	<node lat="63.337072223418055" lon="11.04714721897748" id="-32941">
		<tag k="name" v="Hundmyrholet" />
		<tag k="place" v="locality" />
		<tag k="ssr:stedsnr" v="98510" />
	</node>
	<node lat="63.29789444647761" lon="10.65001388143146" id="-32943">
		<tag k="name" v="Julskardet" />
		<tag k="natural" v="valley" />
		<tag k="place" v="locality" />
		<tag k="ssr:stedsnr" v="98709" />
	</node>
	<node lat="63.19827499846972" lon="11.053788887012383" id="-32944">
		<tag k="name" v="Storhaugen" />
		<tag k="natural" v="hill" />
		<tag k="place" v="locality" />
		<tag k="ssr:stedsnr" v="99209" />
	</node>
	<node lat="63.28984999705673" lon="11.028619446141455" id="-32955">
		<tag k="name" v="Rota" />
		<tag k="place" v="locality" />
		<tag k="ssr:stedsnr" v="134354" />
	</node>
	<node lat="63.31830555817985" lon="11.004163881697435" id="-32960">
		<tag k="fixme" v="consider natural=peak for the most distinct mountains in the district" />
		<tag k="name" v="Midtivollfjellet" />
		<tag k="natural" v="hill" />
		<tag k="place" v="locality" />
		<tag k="ssr:stedsnr" v="134410" />
	</node>
	<node lat="63.15080555769728" lon="11.27893055778028" id="-32962">
		<tag k="fixme" v="consider natural=peak for the most distinct mountains in the district" />
		<tag k="name" v="Storknippen" />
		<tag k="natural" v="hill" />
		<tag k="place" v="locality" />
		<tag k="ssr:stedsnr" v="255230" />
	</node>
	<node lat="63.18773703149087" lon="10.835760215963314" id="-32965">
		<tag k="fixme" v="consider natural=peak for the most distinct mountains in the district" />
		<tag k="name" v="Svartåsen" />
		<tag k="natural" v="hill" />
		<tag k="place" v="locality" />
		<tag k="ssr:stedsnr" v="141312" />
	</node>
	<node lat="63.22765000133721" lon="11.064980560122496" id="-32973">
		<tag k="name" v="Alfardalen" />
		<tag k="natural" v="valley" />
		<tag k="place" v="locality" />
		<tag k="ssr:stedsnr" v="255060" />
	</node>
	<node lat="63.27986666804037" lon="11.481808331781773" id="-32984">
		<tag k="fixme" v="consider natural=peak for the most distinct mountains in the district" />
		<tag k="name" v="Brennrya" />
		<tag k="natural" v="hill" />
		<tag k="place" v="locality" />
		<tag k="ssr:stedsnr" v="256081" />
	</node>
	<node lat="63.23043333073781" lon="11.311330556993404" id="-32995">
		<tag k="name" v="Bårdshaugen" />
		<tag k="natural" v="hill" />
		<tag k="place" v="locality" />
		<tag k="ssr:stedsnr" v="155713" />
	</node>
	<node lat="63.24936666712632" lon="10.676061120705489" id="-32997">
		<tag k="name" v="Gropdalshøgda" />
		<tag k="natural" v="hill" />
		<tag k="place" v="locality" />
		<tag k="ssr:stedsnr" v="155499" />
	</node>
	<node lat="63.27453333426831" lon="11.083413880559519" id="-33001">
		<tag k="name" v="Granbybakken" />
		<tag k="natural" v="slope" />
		<tag k="place" v="locality" />
		<tag k="ssr:stedsnr" v="155804" />
	</node>
	<node lat="63.262491667290895" lon="11.094377783770858" id="-33002">
		<tag k="fixme" v="consider natural=peak for the most distinct mountains in the district" />
		<tag k="name" v="Kvithåmmåren" />
		<tag k="natural" v="hill" />
		<tag k="place" v="locality" />
		<tag k="ssr:stedsnr" v="155809" />
	</node>
	<node lat="63.09151389123656" lon="11.189791670666633" id="-33012">
		<tag k="name" v="Helvetesdalen" />
		<tag k="natural" v="valley" />
		<tag k="place" v="locality" />
		<tag k="ssr:stedsnr" v="156197" />
	</node>
	<node lat="63.17341666596789" lon="11.016627769745872" id="-33013">
		<tag k="name" v="Finnråa" />
		<tag k="natural" v="hill" />
		<tag k="place" v="locality" />
		<tag k="ssr:stedsnr" v="156305" />
	</node>
	<node lat="63.26886110762483" lon="10.962500002028941" id="-33022">
		<tag k="fixme" v="consider natural=peak for the most distinct mountains in the district" />
		<tag k="name" v="Ratåsen" />
		<tag k="natural" v="hill" />
		<tag k="place" v="locality" />
		<tag k="ssr:stedsnr" v="158322" />
	</node>
	<node lat="63.30142221913133" lon="10.981355562133778" id="-33023">
		<tag k="name" v="Lian" />
		<tag k="natural" v="slope" />
		<tag k="place" v="locality" />
		<tag k="ssr:stedsnr" v="158359" />
	</node>
	<node lat="63.189436106804585" lon="11.077483325158765" id="-33024">
		<tag k="fixme" v="consider natural=peak for the most distinct mountains in the district" />
		<tag k="name" v="Øveråsen" />
		<tag k="natural" v="hill" />
		<tag k="place" v="locality" />
		<tag k="ssr:stedsnr" v="158221" />
	</node>
	<node lat="63.25574721821242" lon="10.87375555653574" id="-33025">
		<tag k="name" v="Djupdalen" />
		<tag k="natural" v="valley" />
		<tag k="place" v="locality" />
		<tag k="ssr:stedsnr" v="158268" />
	</node>
	<node lat="63.22063611247147" lon="11.082411116865076" id="-33026">
		<tag k="name" v="Prekstolen" />
		<tag k="natural" v="hill" />
		<tag k="place" v="locality" />
		<tag k="ssr:stedsnr" v="158270" />
	</node>
	<node lat="63.19430277841275" lon="10.829141663085831" id="-33028">
		<tag k="name" v="Nyvolldalen" />
		<tag k="natural" v="valley" />
		<tag k="place" v="locality" />
		<tag k="ssr:stedsnr" v="158405" />
	</node>
	<node lat="63.20086388819499" lon="11.179147218786952" id="-33032">
		<tag k="fixme" v="consider natural=peak for the most distinct mountains in the district" />
		<tag k="name" v="Høgåsen" />
		<tag k="natural" v="hill" />
		<tag k="place" v="locality" />
		<tag k="ssr:stedsnr" v="158504" />
	</node>
	<node lat="63.229619448910746" lon="10.6864805528256" id="-33036">
		<tag k="name" v="Grønlia" />
		<tag k="natural" v="slope" />
		<tag k="place" v="locality" />
		<tag k="ssr:stedsnr" v="158565" />
	</node>
	<node lat="63.19302499747235" lon="11.229638897180147" id="-33043">
		<tag k="name" v="Stordalen" />
		<tag k="natural" v="valley" />
		<tag k="place" v="locality" />
		<tag k="ssr:stedsnr" v="158501" />
	</node>
	<node lat="63.18942222226078" lon="11.329605550793502" id="-33044">
		<tag k="fixme" v="consider natural=peak for the most distinct mountains in the district" />
		<tag k="name" v="Gråsteinryan" />
		<tag k="natural" v="hill" />
		<tag k="place" v="locality" />
		<tag k="ssr:stedsnr" v="158606" />
	</node>
	<node lat="63.226986112958976" lon="11.039422227129688" id="-33050">
		<tag k="name" v="Hårstadhaugan" />
		<tag k="natural" v="hill" />
		<tag k="place" v="locality" />
		<tag k="ssr:stedsnr" v="159423" />
	</node>
	<node lat="63.16090277464911" lon="11.246477781654018" id="-33051">
		<tag k="name" v="Våttån" />
		<tag k="natural" v="hill" />
		<tag k="place" v="locality" />
		<tag k="ssr:stedsnr" v="159458" />
	</node>
	<node lat="63.21899722527031" lon="10.98463334140302" id="-33052">
		<tag k="name" v="Vikabakken" />
		<tag k="natural" v="slope" />
		<tag k="place" v="locality" />
		<tag k="ssr:stedsnr" v="159459" />
	</node>
	<node lat="63.16416240780801" lon="10.881546227580738" id="-33062">
		<tag k="fixme" v="consider natural=peak for the most distinct mountains in the district" />
		<tag k="loc_name" v="Mørreggtoppen" />
		<tag k="name" v="Mørrøytoppen" />
		<tag k="natural" v="hill" />
		<tag k="place" v="locality" />
		<tag k="ssr:stedsnr" v="263128" />
	</node>
	<node lat="63.13398888439503" lon="11.30301389353492" id="-33066">
		<tag k="fixme" v="consider natural=peak for the most distinct mountains in the district" />
		<tag k="name" v="Seterbrennene" />
		<tag k="natural" v="hill" />
		<tag k="place" v="locality" />
		<tag k="ssr:stedsnr" v="263237" />
	</node>
	<node lat="63.166280554220826" lon="11.00959722292082" id="-33068">
		<tag k="fixme" v="consider natural=peak for the most distinct mountains in the district" />
		<tag k="name" v="Åsvollhøgda" />
		<tag k="natural" v="hill" />
		<tag k="place" v="locality" />
		<tag k="ssr:stedsnr" v="263343" />
	</node>
	<node lat="63.283569442370016" lon="10.730955552104021" id="-33073">
		<tag k="fixme" v="consider natural=peak for the most distinct mountains in the district" />
		<tag k="name" v="Gåttåsfjellet" />
		<tag k="natural" v="hill" />
		<tag k="place" v="locality" />
		<tag k="ssr:stedsnr" v="195334" />
	</node>
	<node lat="63.29211388944769" lon="11.024050008633912" id="-33074">
		<tag k="name" v="Storberget" />
		<tag k="natural" v="hill" />
		<tag k="place" v="locality" />
		<tag k="ssr:stedsnr" v="195339" />
	</node>
	<node lat="63.291799998091186" lon="10.97814721584989" id="-33075">
		<tag k="fixme" v="consider natural=peak for the most distinct mountains in the district" />
		<tag k="name" v="Torsåsen" />
		<tag k="natural" v="hill" />
		<tag k="place" v="locality" />
		<tag k="ssr:stedsnr" v="195341" />
	</node>
	<node lat="63.30540000309839" lon="10.99362777567503" id="-33081">
		<tag k="fixme" v="consider natural=peak for the most distinct mountains in the district" />
		<tag k="name" v="Gjøversalen" />
		<tag k="natural" v="hill" />
		<tag k="place" v="locality" />
		<tag k="ssr:stedsnr" v="195372" />
	</node>
	<node lat="65.11002777597567" lon="13.085422216082504" id="-33084">
		<tag k="fixme" v="consider natural=peak for the most distinct mountains in the district" />
		<tag k="name" v="Kløftfjellet - Sloeptjenguevtele" />
		<tag k="name:no" v="Kløftfjellet" />
		<tag k="name:sma" v="Sloeptjenguevtele" />
		<tag k="natural" v="hill" />
		<tag k="place" v="locality" />
		<tag k="ssr:stedsnr" v="196523" />
	</node>
	<node lat="63.18587499892385" lon="11.020902782091428" id="-33085">
		<tag k="name" v="Kvennhusdalen" />
		<tag k="natural" v="valley" />
		<tag k="place" v="locality" />
		<tag k="ssr:stedsnr" v="203268" />
	</node>
	<node lat="63.139819448302106" lon="10.77162500471218" id="-33087">
		<tag k="fixme" v="consider natural=peak for the most distinct mountains in the district" />
		<tag k="name" v="Rundsnøfonnfjellet" />
		<tag k="natural" v="hill" />
		<tag k="place" v="locality" />
		<tag k="ssr:stedsnr" v="203294" />
	</node>
	<node lat="63.287761110642386" lon="10.802177770539108" id="-33092">
		<tag k="fixme" v="consider natural=peak for the most distinct mountains in the district" />
		<tag k="name" v="Drakstsjøbrembjørga" />
		<tag k="natural" v="hill" />
		<tag k="place" v="locality" />
		<tag k="ssr:stedsnr" v="216451" />
	</node>
	<node lat="63.3128861083484" lon="11.171894440000239" id="-33099">
		<tag k="name" v="Grønlidalen" />
		<tag k="natural" v="valley" />
		<tag k="place" v="locality" />
		<tag k="ssr:stedsnr" v="216680" />
	</node>
	<node lat="63.32277222650741" lon="11.247119451784354" id="-33103">
		<tag k="fixme" v="consider natural=peak for the most distinct mountains in the district" />
		<tag k="name" v="Stentjennåsen" />
		<tag k="natural" v="hill" />
		<tag k="place" v="locality" />
		<tag k="ssr:stedsnr" v="216828" />
	</node>
	<node lat="63.27695000131785" lon="11.097461112794305" id="-33106">
		<tag k="name" v="Korpberga" />
		<tag k="natural" v="hill" />
		<tag k="place" v="locality" />
		<tag k="ssr:stedsnr" v="216786" />
	</node>
	<node lat="63.11386944105964" lon="10.994719434792973" id="-33112">
		<tag k="name" v="Kneppen" />
		<tag k="place" v="locality" />
		<tag k="ssr:stedsnr" v="217310" />
	</node>
	<node lat="63.294941667761236" lon="11.103666661509969" id="-33114">
		<tag k="name" v="Trollan" />
		<tag k="place" v="locality" />
		<tag k="ssr:stedsnr" v="217726" />
	</node>
	<node lat="63.30743055654897" lon="10.921547223417026" id="-33116">
		<tag k="fixme" v="consider natural=peak for the most distinct mountains in the district" />
		<tag k="name" v="Kvittopplifjellet" />
		<tag k="natural" v="hill" />
		<tag k="place" v="locality" />
		<tag k="ssr:stedsnr" v="218276" />
	</node>
	<node lat="63.28355555488883" lon="10.851805554328473" id="-33117">
		<tag k="name" v="Stentjennbakkan" />
		<tag k="natural" v="slope" />
		<tag k="place" v="locality" />
		<tag k="ssr:stedsnr" v="218281" />
	</node>
	<node lat="63.235113890338944" lon="11.346641666077609" id="-33118">
		<tag k="name" v="Hovlian" />
		<tag k="natural" v="slope" />
		<tag k="place" v="locality" />
		<tag k="ssr:stedsnr" v="217978" />
	</node>
	<node lat="63.08784444781035" lon="11.076008328689007" id="-33123">
		<tag k="name" v="Sjøvollbakken" />
		<tag k="natural" v="slope" />
		<tag k="place" v="locality" />
		<tag k="ssr:stedsnr" v="218512" />
	</node>
	<node lat="63.2984361133997" lon="10.900661107620387" id="-33125">
		<tag k="fixme" v="consider natural=peak for the most distinct mountains in the district" />
		<tag k="name" v="Kistan" />
		<tag k="natural" v="hill" />
		<tag k="place" v="locality" />
		<tag k="ssr:stedsnr" v="218711" />
	</node>
	<node lat="63.191650004228116" lon="10.963886116330482" id="-33126">
		<tag k="name" v="Fuglhaugen" />
		<tag k="natural" v="hill" />
		<tag k="place" v="locality" />
		<tag k="ssr:stedsnr" v="219181" />
	</node>
	<node lat="63.2906000035869" lon="10.96205277741073" id="-33131">
		<tag k="fixme" v="consider natural=peak for the most distinct mountains in the district" />
		<tag k="name" v="Våttafjellet" />
		<tag k="natural" v="hill" />
		<tag k="place" v="locality" />
		<tag k="ssr:stedsnr" v="219284" />
	</node>
	<node lat="63.20141666666268" lon="10.935394443148622" id="-33136">
		<tag k="name" v="Tjørnåsdalen" />
		<tag k="natural" v="valley" />
		<tag k="place" v="locality" />
		<tag k="ssr:stedsnr" v="219438" />
	</node>
	<node lat="63.16809444008027" lon="11.249533330877446" id="-33137">
		<tag k="name" v="Litjlia" />
		<tag k="natural" v="slope" />
		<tag k="place" v="locality" />
		<tag k="ssr:stedsnr" v="219502" />
	</node>
	<node lat="63.22315555112381" lon="11.231080558418185" id="-33140">
		<tag k="name" v="Hokjølbakken" />
		<tag k="natural" v="slope" />
		<tag k="place" v="locality" />
		<tag k="ssr:stedsnr" v="219510" />
	</node>
	<node lat="63.19336388715657" lon="11.234880546576308" id="-33154">
		<tag k="name" v="Litjdalen" />
		<tag k="natural" v="valley" />
		<tag k="place" v="locality" />
		<tag k="ssr:stedsnr" v="219620" />
	</node>
	<node lat="63.24526944872366" lon="10.685408338716423" id="-33156">
		<tag k="name" v="Prekstolen" />
		<tag k="natural" v="hill" />
		<tag k="place" v="locality" />
		<tag k="ssr:stedsnr" v="219640" />
	</node>
	<node lat="63.24525555487303" lon="10.742363883769094" id="-33166">
		<tag k="fixme" v="consider natural=peak for the most distinct mountains in the district" />
		<tag k="name" v="Renåbjørga" />
		<tag k="natural" v="hill" />
		<tag k="place" v="locality" />
		<tag k="ssr:stedsnr" v="255024" />
	</node>
	<node lat="63.230252774269275" lon="10.800794452116481" id="-33168">
		<tag k="fixme" v="consider natural=peak for the most distinct mountains in the district" />
		<tag k="name" v="Vaglen" />
		<tag k="natural" v="hill" />
		<tag k="place" v="locality" />
		<tag k="ssr:stedsnr" v="255065" />
	</node>
	<node lat="63.01208055132371" lon="11.212513880646888" id="-33171">
		<tag k="fixme" v="consider natural=peak for the most distinct mountains in the district" />
		<tag k="name" v="Bælingfjella" />
		<tag k="natural" v="hill" />
		<tag k="place" v="locality" />
		<tag k="ssr:stedsnr" v="255206" />
	</node>
	<node lat="63.24097778088458" lon="11.520436117603353" id="-33172">
		<tag k="fixme" v="consider natural=peak for the most distinct mountains in the district" />
		<tag k="name" v="Sprøyten" />
		<tag k="natural" v="hill" />
		<tag k="place" v="locality" />
		<tag k="ssr:stedsnr" v="255213" />
	</node>
	<node lat="63.32827514847487" lon="11.125224856689519" id="-33181">
		<tag k="name" v="Kammen" />
		<tag k="natural" v="hill" />
		<tag k="place" v="locality" />
		<tag k="ssr:stedsnr" v="255322" />
	</node>
	<node lat="63.13898888865052" lon="11.488619445113356" id="-33182">
		<tag k="fixme" v="consider natural=peak for the most distinct mountains in the district" />
		<tag k="name" v="Melshognstupet" />
		<tag k="natural" v="hill" />
		<tag k="place" v="locality" />
		<tag k="ssr:stedsnr" v="255274" />
	</node>
	<node lat="63.325233336969895" lon="11.140938880341581" id="-33184">
		<tag k="fixme" v="consider natural=peak for the most distinct mountains in the district" />
		<tag k="name" v="Brannåsen" />
		<tag k="natural" v="hill" />
		<tag k="place" v="locality" />
		<tag k="ssr:stedsnr" v="255366" />
	</node>
	<node lat="63.32620555254654" lon="11.020172230034955" id="-33185">
		<tag k="name" v="Modalen" />
		<tag k="natural" v="valley" />
		<tag k="place" v="locality" />
		<tag k="ssr:stedsnr" v="255369" />
	</node>
	<node lat="63.17056388646962" lon="10.694930563930768" id="-33187">
		<tag k="name" v="Kvintusen" />
		<tag k="natural" v="hill" />
		<tag k="old_name" v="Kvintussen" />
		<tag k="place" v="locality" />
		<tag k="ssr:stedsnr" v="255804" />
	</node>
	<node lat="63.21062499906558" lon="11.547863892251321" id="-33189">
		<tag k="name" v="Fagerlægda" />
		<tag k="natural" v="slope" />
		<tag k="place" v="locality" />
		<tag k="ssr:stedsnr" v="263203" />
	</node>
	<node lat="63.28880555337731" lon="10.837533334837811" id="-33199">
		<tag k="name" v="Gåstjenndalen" />
		<tag k="natural" v="valley" />
		<tag k="place" v="locality" />
		<tag k="ssr:stedsnr" v="459433" />
	</node>
	<node lat="63.28875555846961" lon="10.725169449865378" id="-33200">
		<tag k="fixme" v="consider natural=peak for the most distinct mountains in the district" />
		<tag k="name" v="Gåttåsan" />
		<tag k="natural" v="hill" />
		<tag k="place" v="locality" />
		<tag k="ssr:stedsnr" v="459435" />
	</node>
	<node lat="63.28116389198076" lon="10.822013897022666" id="-33201">
		<tag k="name" v="Ysterdalen" />
		<tag k="natural" v="valley" />
		<tag k="place" v="locality" />
		<tag k="ssr:stedsnr" v="459441" />
	</node>
	<node lat="63.29913611147063" lon="10.685899999574701" id="-33203">
		<tag k="name" v="Sørungdalen" />
		<tag k="natural" v="valley" />
		<tag k="place" v="locality" />
		<tag k="ssr:stedsnr" v="459456" />
	</node>
	<node lat="63.1081583368844" lon="11.048350006268386" id="-33212">
		<tag k="fixme" v="consider natural=peak for the most distinct mountains in the district" />
		<tag k="name" v="Storåsen" />
		<tag k="natural" v="hill" />
		<tag k="place" v="locality" />
		<tag k="ssr:stedsnr" v="459531" />
	</node>
	<node lat="63.287763892947446" lon="10.713941676500495" id="-33213">
		<tag k="name" v="Branden" />
		<tag k="natural" v="hill" />
		<tag k="place" v="locality" />
		<tag k="ssr:stedsnr" v="459533" />
	</node>
	<node lat="63.20240833032051" lon="11.150824993449099" id="-33217">
		<tag k="fixme" v="consider natural=peak for the most distinct mountains in the district" />
		<tag k="name" v="Mebostkammen" />
		<tag k="natural" v="hill" />
		<tag k="place" v="locality" />
		<tag k="ssr:stedsnr" v="459584" />
	</node>
	<node lat="63.24877500324794" lon="11.136355563176698" id="-33218">
		<tag k="fixme" v="consider natural=peak for the most distinct mountains in the district" />
		<tag k="name" v="Kaldkølåsen" />
		<tag k="natural" v="hill" />
		<tag k="place" v="locality" />
		<tag k="ssr:stedsnr" v="459595" />
	</node>
	<node lat="63.3098138848866" lon="11.151113895912575" id="-33219">
		<tag k="name" v="Hestdalen" />
		<tag k="natural" v="valley" />
		<tag k="place" v="locality" />
		<tag k="ssr:stedsnr" v="459633" />
	</node>
	<node lat="63.133741665393224" lon="11.126927775551387" id="-33220">
		<tag k="name" v="Jonshaugen" />
		<tag k="natural" v="hill" />
		<tag k="place" v="locality" />
		<tag k="ssr:stedsnr" v="459767" />
	</node>
	<node lat="63.143875002910725" lon="11.295486117278466" id="-33221">
		<tag k="name" v="Pallan" />
		<tag k="natural" v="slope" />
		<tag k="place" v="locality" />
		<tag k="ssr:stedsnr" v="459737" />
	</node>
	<node lat="63.1535888898487" lon="11.135591658361303" id="-33224">
		<tag k="fixme" v="consider natural=peak for the most distinct mountains in the district" />
		<tag k="name" v="Klokkarmyråsen" />
		<tag k="natural" v="hill" />
		<tag k="place" v="locality" />
		<tag k="ssr:stedsnr" v="459752" />
	</node>
	<node lat="63.15335833353169" lon="11.072638882797616" id="-33228">
		<tag k="name" v="Kolsetrya" />
		<tag k="natural" v="hill" />
		<tag k="place" v="locality" />
		<tag k="ssr:stedsnr" v="459817" />
	</node>
	<node lat="63.256749999723134" lon="11.149438886413412" id="-33230">
		<tag k="fixme" v="consider natural=peak for the most distinct mountains in the district" />
		<tag k="name" v="Kutjennåsen" />
		<tag k="natural" v="hill" />
		<tag k="place" v="locality" />
		<tag k="ssr:stedsnr" v="277614" />
	</node>
	<node lat="63.27317777843323" lon="11.326008323733124" id="-33231">
		<tag k="name" v="Holmkroken" />
		<tag k="place" v="locality" />
		<tag k="ssr:stedsnr" v="459847" />
	</node>
	<node lat="63.319427774537495" lon="11.302761107294538" id="-33232">
		<tag k="name" v="Bergulen" />
		<tag k="natural" v="hill" />
		<tag k="place" v="locality" />
		<tag k="ssr:stedsnr" v="459855" />
	</node>
	<node lat="63.29227222616999" lon="10.834999996820011" id="-33233">
		<tag k="fixme" v="consider natural=peak for the most distinct mountains in the district" />
		<tag k="name" v="Grasåsen" />
		<tag k="natural" v="hill" />
		<tag k="place" v="locality" />
		<tag k="ssr:stedsnr" v="277503" />
	</node>
	<node lat="63.29090555339363" lon="10.834200002252341" id="-33234">
		<tag k="name" v="Storskardet" />
		<tag k="natural" v="valley" />
		<tag k="place" v="locality" />
		<tag k="ssr:stedsnr" v="277505" />
	</node>
	<node lat="63.079538886730454" lon="10.960108342784368" id="-33235">
		<tag k="fixme" v="consider natural=peak for the most distinct mountains in the district" />
		<tag k="name" v="Kringelåslitoppen" />
		<tag k="natural" v="hill" />
		<tag k="place" v="locality" />
		<tag k="ssr:stedsnr" v="277507" />
	</node>
	<node lat="63.27235277705371" lon="11.107091657876458" id="-33240">
		<tag k="name" v="Langsethaugan" />
		<tag k="natural" v="hill" />
		<tag k="place" v="locality" />
		<tag k="ssr:stedsnr" v="277711" />
	</node>
	<node lat="63.27869999681125" lon="11.092850000714076" id="-33243">
		<tag k="name" v="Pallan" />
		<tag k="natural" v="hill" />
		<tag k="place" v="locality" />
		<tag k="ssr:stedsnr" v="277815" />
	</node>
	<node lat="63.166877775260005" lon="11.204061111781904" id="-33244">
		<tag k="fixme" v="consider natural=peak for the most distinct mountains in the district" />
		<tag k="name" v="Storbakkåsen" />
		<tag k="natural" v="hill" />
		<tag k="place" v="locality" />
		<tag k="ssr:stedsnr" v="277832" />
	</node>
	<node lat="63.337997225254185" lon="11.14883889586151" id="-33247">
		<tag k="name" v="Kågdalen" />
		<tag k="natural" v="valley" />
		<tag k="place" v="locality" />
		<tag k="ssr:stedsnr" v="277872" />
	</node>
	<node lat="63.2922888857513" lon="11.203816671507395" id="-33250">
		<tag k="fixme" v="consider natural=peak for the most distinct mountains in the district" />
		<tag k="name" v="Halstensåsen" />
		<tag k="natural" v="hill" />
		<tag k="place" v="locality" />
		<tag k="ssr:stedsnr" v="278070" />
	</node>
	<node lat="63.15118055994674" lon="11.019594452021867" id="-33262">
		<tag k="fixme" v="consider natural=peak for the most distinct mountains in the district" />
		<tag k="name" v="Tærsjødalsbjørga" />
		<tag k="natural" v="hill" />
		<tag k="place" v="locality" />
		<tag k="ssr:stedsnr" v="278384" />
	</node>
	<node lat="63.16528333421827" lon="11.009152781045591" id="-33263">
		<tag k="name" v="Åsvollhøgda" />
		<tag k="natural" v="hill" />
		<tag k="place" v="locality" />
		<tag k="ssr:stedsnr" v="278386" />
	</node>
	<node lat="63.216766669154495" lon="11.410413880851735" id="-33265">
		<tag k="name" v="Vargdalen" />
		<tag k="natural" v="valley" />
		<tag k="place" v="locality" />
		<tag k="ssr:stedsnr" v="278919" />
	</node>
	<node lat="63.13721389024928" lon="11.22261111308649" id="-33267">
		<tag k="name" v="Stordalen" />
		<tag k="natural" v="valley" />
		<tag k="place" v="locality" />
		<tag k="ssr:stedsnr" v="460286" />
	</node>
	<node lat="63.22484721790165" lon="10.852833336231335" id="-33268">
		<tag k="fixme" v="consider natural=peak for the most distinct mountains in the district" />
		<tag k="name" v="Sandtjennbrettet" />
		<tag k="natural" v="hill" />
		<tag k="place" v="locality" />
		<tag k="ssr:stedsnr" v="279275" />
	</node>
	<node lat="63.27814722571392" lon="10.958963884345085" id="-33270">
		<tag k="name" v="Rødberget" />
		<tag k="natural" v="hill" />
		<tag k="place" v="locality" />
		<tag k="ssr:stedsnr" v="279298" />
	</node>
	<node lat="63.284249996423775" lon="10.819530558823825" id="-33278">
		<tag k="name" v="Gruva" />
		<tag k="natural" v="hill" />
		<tag k="place" v="locality" />
		<tag k="ssr:stedsnr" v="279391" />
	</node>
	<node lat="63.272136112454284" lon="10.973311105115604" id="-33294">
		<tag k="fixme" v="consider natural=peak for the most distinct mountains in the district" />
		<tag k="name" v="Kringlåtåsen" />
		<tag k="natural" v="hill" />
		<tag k="place" v="locality" />
		<tag k="ssr:stedsnr" v="460257" />
	</node>
	<node lat="63.29491666273226" lon="11.003397231888778" id="-33296">
		<tag k="fixme" v="consider natural=peak for the most distinct mountains in the district" />
		<tag k="name" v="Storbuståsen" />
		<tag k="natural" v="hill" />
		<tag k="place" v="locality" />
		<tag k="ssr:stedsnr" v="280274" />
	</node>
	<node lat="63.1292249996054" lon="10.971800008284296" id="-33300">
		<tag k="fixme" v="consider natural=peak for the most distinct mountains in the district" />
		<tag k="name" v="Tjuvhamran" />
		<tag k="natural" v="hill" />
		<tag k="place" v="locality" />
		<tag k="ssr:stedsnr" v="280288" />
	</node>
	<node lat="63.130122220324516" lon="11.148319445233517" id="-33302">
		<tag k="fixme" v="consider natural=peak for the most distinct mountains in the district" />
		<tag k="name" v="Silderåsan" />
		<tag k="natural" v="hill" />
		<tag k="place" v="locality" />
		<tag k="ssr:stedsnr" v="460294" />
	</node>
	<node lat="63.27956666267746" lon="10.898938887097012" id="-33314">
		<tag k="name" v="Finnpålhaugen" />
		<tag k="natural" v="hill" />
		<tag k="place" v="locality" />
		<tag k="ssr:stedsnr" v="281225" />
	</node>
	<node lat="63.1385027792094" lon="11.235708332369958" id="-33322">
		<tag k="fixme" v="consider natural=peak for the most distinct mountains in the district" />
		<tag k="name" v="Julsetrya" />
		<tag k="natural" v="hill" />
		<tag k="place" v="locality" />
		<tag k="ssr:stedsnr" v="460949" />
	</node>
	<node lat="63.15102222046432" lon="11.311980560042597" id="-33323">
		<tag k="fixme" v="consider natural=peak for the most distinct mountains in the district" />
		<tag k="name" v="Storliåsen" />
		<tag k="natural" v="hill" />
		<tag k="place" v="locality" />
		<tag k="ssr:stedsnr" v="460956" />
	</node>
	<node lat="63.24878611495694" lon="11.347102785622685" id="-33324">
		<tag k="name" v="Finnråa" />
		<tag k="place" v="locality" />
		<tag k="ssr:stedsnr" v="460987" />
	</node>
	<node lat="63.25829999848847" lon="11.343947225798555" id="-33326">
		<tag k="fixme" v="consider natural=peak for the most distinct mountains in the district" />
		<tag k="name" v="Turrularsfjellet" />
		<tag k="natural" v="hill" />
		<tag k="place" v="locality" />
		<tag k="ssr:stedsnr" v="460990" />
	</node>
	<node lat="63.27279999891375" lon="10.789197231120975" id="-33329">
		<tag k="name" v="Svartvikbakken" />
		<tag k="natural" v="slope" />
		<tag k="place" v="locality" />
		<tag k="ssr:stedsnr" v="461095" />
	</node>
	<node lat="63.295894447297556" lon="10.807897228507468" id="-33330">
		<tag k="name" v="Koidalen" />
		<tag k="natural" v="valley" />
		<tag k="place" v="locality" />
		<tag k="ssr:stedsnr" v="461096" />
	</node>
	<node lat="63.103280553031745" lon="11.022111111834327" id="-33333">
		<tag k="name" v="Blisterdalen" />
		<tag k="natural" v="valley" />
		<tag k="place" v="locality" />
		<tag k="ssr:stedsnr" v="461323" />
	</node>
	<node lat="63.28743610915951" lon="10.961852778853824" id="-33341">
		<tag k="fixme" v="consider natural=peak for the most distinct mountains in the district" />
		<tag k="name" v="Litjlifjellet" />
		<tag k="natural" v="hill" />
		<tag k="place" v="locality" />
		<tag k="ssr:stedsnr" v="461299" />
	</node>
	<node lat="63.11117778007957" lon="10.854966657897158" id="-33344">
		<tag k="name" v="Saudalen" />
		<tag k="natural" v="valley" />
		<tag k="place" v="locality" />
		<tag k="ssr:stedsnr" v="461456" />
	</node>
	<node lat="63.202597219402854" lon="11.228561105472156" id="-33346">
		<tag k="name" v="Eggadalen" />
		<tag k="natural" v="valley" />
		<tag k="place" v="locality" />
		<tag k="ssr:stedsnr" v="461488" />
	</node>
	<node lat="63.07194721851449" lon="11.289244434950174" id="-33351">
		<tag k="name" v="Fjellslåtten" />
		<tag k="place" v="locality" />
		<tag k="ssr:stedsnr" v="461610" />
	</node>
	<node lat="63.20970000334038" lon="11.264913895560134" id="-33353">
		<tag k="name" v="Omgangsdalen" />
		<tag k="natural" v="valley" />
		<tag k="place" v="locality" />
		<tag k="ssr:stedsnr" v="461621" />
	</node>
	<node lat="63.25608888802463" lon="10.669330560527492" id="-33357">
		<tag k="name" v="Haldokneppa" />
		<tag k="natural" v="hill" />
		<tag k="place" v="locality" />
		<tag k="ssr:stedsnr" v="461639" />
	</node>
	<node lat="63.26655277861785" lon="11.245661102868375" id="-33364">
		<tag k="name" v="Liahøgda" />
		<tag k="natural" v="hill" />
		<tag k="place" v="locality" />
		<tag k="ssr:stedsnr" v="462301" />
	</node>
	<node lat="63.15905555809467" lon="11.241402785359409" id="-33365">
		<tag k="name" v="Lian" />
		<tag k="natural" v="slope" />
		<tag k="place" v="locality" />
		<tag k="ssr:stedsnr" v="462419" />
	</node>
	<node lat="63.30701110957822" lon="10.906188895959" id="-33366">
		<tag k="name" v="Lauvbakkan" />
		<tag k="natural" v="slope" />
		<tag k="place" v="locality" />
		<tag k="ssr:stedsnr" v="462396" />
	</node>
	<node lat="63.16821111461544" lon="10.841744452530978" id="-33381">
		<tag k="fixme" v="consider natural=peak for the most distinct mountains in the district" />
		<tag k="name" v="Heståsen" />
		<tag k="natural" v="hill" />
		<tag k="place" v="locality" />
		<tag k="ssr:stedsnr" v="462689" />
	</node>
	<node lat="63.157258329196125" lon="11.274152771457356" id="-33393">
		<tag k="fixme" v="consider natural=peak for the most distinct mountains in the district" />
		<tag k="name" v="Litjknippen" />
		<tag k="natural" v="hill" />
		<tag k="place" v="locality" />
		<tag k="ssr:stedsnr" v="315203" />
	</node>
	<node lat="63.25951862993159" lon="11.377393733418888" id="-33398">
		<tag k="fixme" v="multiple name tags, choose one and add the other to alt_name; consider natural=peak for the most distinct mountains in the district" />
		<tag k="name" v="Turrularsfjellet;Turrularsen" />
		<tag k="natural" v="hill" />
		<tag k="place" v="locality" />
		<tag k="ssr:stedsnr" v="316109" />
	</node>
	<node lat="63.18993888700893" lon="11.609430559549201" id="-33402">
		<tag k="fixme" v="consider natural=peak for the most distinct mountains in the district" />
		<tag k="name" v="Triknattene" />
		<tag k="natural" v="hill" />
		<tag k="place" v="locality" />
		<tag k="ssr:stedsnr" v="316266" />
	</node>
	<node lat="63.29556666444784" lon="10.962122219267476" id="-33406">
		<tag k="alt_name" v="Strandbygdfjellet" />
		<tag k="name" v="Strandbyggfjellet" />
		<tag k="natural" v="mountain_range" />
		<tag k="ssr:stedsnr" v="316306" />
	</node>
	<node lat="63.298447219059355" lon="10.94108888323301" id="-33407">
		<tag k="name" v="Langjon" />
		<tag k="natural" v="valley" />
		<tag k="place" v="locality" />
		<tag k="ssr:stedsnr" v="316310" />
	</node>
	<node lat="63.30344166564471" lon="11.081025000586827" id="-33408">
		<tag k="name" v="Tømmerdalen" />
		<tag k="natural" v="valley" />
		<tag k="old_name" v="Tommerdalen" />
		<tag k="place" v="locality" />
		<tag k="ssr:stedsnr" v="316313" />
	</node>
	<node lat="63.27117777616864" lon="10.965608328637217" id="-33410">
		<tag k="fixme" v="consider natural=peak for the most distinct mountains in the district" />
		<tag k="name" v="Haukhåmmåren" />
		<tag k="natural" v="hill" />
		<tag k="place" v="locality" />
		<tag k="ssr:stedsnr" v="316398" />
	</node>
	<node lat="63.16720555171836" lon="10.807061107670389" id="-33414">
		<tag k="name" v="Gruvøyene" />
		<tag k="place" v="locality" />
		<tag k="ssr:stedsnr" v="324302" />
	</node>
	<node lat="63.28160555935716" lon="11.053844448818946" id="-33417">
		<tag k="name" v="Såslia" />
		<tag k="natural" v="slope" />
		<tag k="place" v="locality" />
		<tag k="ssr:stedsnr" v="470468" />
	</node>
	<node lat="63.24524166233705" lon="11.31577500196137" id="-33420">
		<tag k="name" v="Knipplia" />
		<tag k="natural" v="slope" />
		<tag k="place" v="locality" />
		<tag k="ssr:stedsnr" v="337716" />
	</node>
	<node lat="63.226355558628526" lon="11.314427783521118" id="-33421">
		<tag k="name" v="Haugan" />
		<tag k="natural" v="hill" />
		<tag k="place" v="locality" />
		<tag k="ssr:stedsnr" v="337717" />
	</node>
	<node lat="63.08530000177378" lon="11.082802773308272" id="-33423">
		<tag k="name" v="Litjdalen" />
		<tag k="natural" v="valley" />
		<tag k="place" v="locality" />
		<tag k="ssr:stedsnr" v="337813" />
	</node>
	<node lat="63.326755552169885" lon="11.134172214245543" id="-33425">
		<tag k="name" v="Haldodalen" />
		<tag k="natural" v="valley" />
		<tag k="place" v="locality" />
		<tag k="ssr:stedsnr" v="337851" />
	</node>
	<node lat="63.33694444060207" lon="11.142227781295764" id="-33426">
		<tag k="fixme" v="consider natural=peak for the most distinct mountains in the district" />
		<tag k="name" v="Olemsåsen" />
		<tag k="natural" v="hill" />
		<tag k="place" v="locality" />
		<tag k="ssr:stedsnr" v="337853" />
	</node>
	<node lat="63.226566668181114" lon="11.064422219551096" id="-33429">
		<tag k="name" v="Elgfardalen" />
		<tag k="natural" v="valley" />
		<tag k="place" v="locality" />
		<tag k="ssr:stedsnr" v="338113" />
	</node>
	<node lat="63.16012500037398" lon="11.121022217126876" id="-33436">
		<tag k="name" v="Åsmyrhaugen" />
		<tag k="natural" v="hill" />
		<tag k="place" v="locality" />
		<tag k="ssr:stedsnr" v="338199" />
	</node>
	<node lat="63.238013885116935" lon="11.174113890696177" id="-33439">
		<tag k="name" v="Blautdalen" />
		<tag k="natural" v="valley" />
		<tag k="place" v="locality" />
		<tag k="ssr:stedsnr" v="338545" />
	</node>
	<node lat="63.21658888734552" lon="11.17946110601451" id="-33440">
		<tag k="name" v="Sagbakken" />
		<tag k="natural" v="slope" />
		<tag k="place" v="locality" />
		<tag k="ssr:stedsnr" v="338549" />
	</node>
	<node lat="63.2574416662898" lon="10.723525007622895" id="-33447">
		<tag k="name" v="Blomdalen" />
		<tag k="natural" v="valley" />
		<tag k="place" v="locality" />
		<tag k="ssr:stedsnr" v="340097" />
	</node>
	<node lat="63.198177778488436" lon="10.825741674976012" id="-33450">
		<tag k="fixme" v="consider natural=peak for the most distinct mountains in the district" />
		<tag k="name" v="Svartåsen" />
		<tag k="natural" v="hill" />
		<tag k="place" v="locality" />
		<tag k="ssr:stedsnr" v="340115" />
	</node>
	<node lat="63.25982777497227" lon="10.894063894787307" id="-33451">
		<tag k="name" v="Lauvlia" />
		<tag k="natural" v="slope" />
		<tag k="place" v="locality" />
		<tag k="ssr:stedsnr" v="340303" />
	</node>
	<node lat="63.284108337438056" lon="10.8392416641324" id="-33465">
		<tag k="name" v="Midtidalen" />
		<tag k="natural" v="valley" />
		<tag k="place" v="locality" />
		<tag k="ssr:stedsnr" v="340405" />
	</node>
	<node lat="63.283852777948916" lon="10.816963895136887" id="-33467">
		<tag k="name" v="Blomdalen" />
		<tag k="natural" v="valley" />
		<tag k="place" v="locality" />
		<tag k="ssr:stedsnr" v="340408" />
	</node>
	<node lat="63.18813055841028" lon="10.968319447163209" id="-33469">
		<tag k="name" v="Grubbdalen" />
		<tag k="natural" v="valley" />
		<tag k="place" v="locality" />
		<tag k="ssr:stedsnr" v="340420" />
	</node>
	<node lat="63.108822225759404" lon="10.923199996804732" id="-33471">
		<tag k="fixme" v="consider natural=peak for the most distinct mountains in the district" />
		<tag k="name" v="Elleftjennåsen" />
		<tag k="natural" v="hill" />
		<tag k="place" v="locality" />
		<tag k="ssr:stedsnr" v="340499" />
	</node>
	<node lat="63.247205551196956" lon="10.67061111923723" id="-33476">
		<tag k="name" v="Gropdalen" />
		<tag k="natural" v="valley" />
		<tag k="place" v="locality" />
		<tag k="ssr:stedsnr" v="340622" />
	</node>
	<node lat="63.09859444600812" lon="11.324547220976575" id="-33478">
		<tag k="name" v="Trongsundet" />
		<tag k="natural" v="valley" />
		<tag k="place" v="locality" />
		<tag k="ssr:stedsnr" v="340593" />
	</node>
	<node lat="63.281897218683746" lon="10.929227771477837" id="-33488">
		<tag k="name" v="Olemsdalen" />
		<tag k="natural" v="valley" />
		<tag k="place" v="locality" />
		<tag k="ssr:stedsnr" v="341214" />
	</node>
	<node lat="63.19644444078831" lon="10.869697215392991" id="-33490">
		<tag k="name" v="Benken" />
		<tag k="place" v="locality" />
		<tag k="ssr:stedsnr" v="341257" />
	</node>
	<node lat="63.11257500195393" lon="11.389530555163475" id="-33494">
		<tag k="name" v="Kubjørga" />
		<tag k="natural" v="slope" />
		<tag k="place" v="locality" />
		<tag k="ssr:stedsnr" v="376277" />
	</node>
	<node lat="63.099005557674964" lon="11.279883339364638" id="-33499">
		<tag k="fixme" v="consider natural=peak for the most distinct mountains in the district" />
		<tag k="name" v="Svartåsen" />
		<tag k="natural" v="hill" />
		<tag k="place" v="locality" />
		<tag k="ssr:stedsnr" v="376508" />
	</node>
	<node lat="63.28391388764894" lon="10.841461120508981" id="-33503">
		<tag k="name" v="Holmtjenndalen" />
		<tag k="natural" v="valley" />
		<tag k="place" v="locality" />
		<tag k="ssr:stedsnr" v="398444" />
	</node>
	<node lat="63.15862222359853" lon="10.836758341517342" id="-33504">
		<tag k="name" v="Grautdalen" />
		<tag k="natural" v="valley" />
		<tag k="place" v="locality" />
		<tag k="ssr:stedsnr" v="398445" />
	</node>
	<node lat="63.24586388682987" lon="11.117455562132564" id="-33507">
		<tag k="fixme" v="consider natural=peak for the most distinct mountains in the district" />
		<tag k="name" v="Storegga" />
		<tag k="natural" v="hill" />
		<tag k="place" v="locality" />
		<tag k="ssr:stedsnr" v="398586" />
	</node>
	<node lat="63.25353333469748" lon="11.129738898096079" id="-33509">
		<tag k="fixme" v="consider natural=peak for the most distinct mountains in the district" />
		<tag k="name" v="Aunknippan" />
		<tag k="natural" v="hill" />
		<tag k="place" v="locality" />
		<tag k="ssr:stedsnr" v="398594" />
	</node>
	<node lat="63.24393055494923" lon="10.687811102655784" id="-33510">
		<tag k="name" v="Bjørnfolldalen" />
		<tag k="natural" v="valley" />
		<tag k="place" v="locality" />
		<tag k="ssr:stedsnr" v="398479" />
	</node>
	<node lat="63.26482499892788" lon="11.273622214854402" id="-33512">
		<tag k="name" v="Livolldalen" />
		<tag k="natural" v="valley" />
		<tag k="place" v="locality" />
		<tag k="ssr:stedsnr" v="398626" />
	</node>
	<node lat="63.27053611505592" lon="10.976999994615559" id="-33513">
		<tag k="fixme" v="consider natural=peak for the most distinct mountains in the district" />
		<tag k="name" v="Sandviktrøin" />
		<tag k="natural" v="hill" />
		<tag k="place" v="locality" />
		<tag k="ssr:stedsnr" v="398635" />
	</node>
	<node lat="63.19056110909104" lon="11.302019449001945" id="-33514">
		<tag k="name" v="Grimslia" />
		<tag k="natural" v="slope" />
		<tag k="place" v="locality" />
		<tag k="ssr:stedsnr" v="398678" />
	</node>
	<node lat="63.264263891822424" lon="11.100494436031461" id="-33515">
		<tag k="name" v="Størsethaugan" />
		<tag k="natural" v="hill" />
		<tag k="place" v="locality" />
		<tag k="ssr:stedsnr" v="398686" />
	</node>
	<node lat="63.32825000248025" lon="11.184330551331444" id="-33517">
		<tag k="fixme" v="consider natural=peak for the most distinct mountains in the district" />
		<tag k="name" v="Kjellaran" />
		<tag k="natural" v="hill" />
		<tag k="place" v="locality" />
		<tag k="ssr:stedsnr" v="398694" />
	</node>
	<node lat="63.32824166586869" lon="11.160500008100422" id="-33521">
		<tag k="fixme" v="consider natural=peak for the most distinct mountains in the district" />
		<tag k="name" v="Åslokken" />
		<tag k="natural" v="hill" />
		<tag k="place" v="locality" />
		<tag k="ssr:stedsnr" v="399110" />
	</node>
	<node lat="63.164324998457744" lon="11.135758341975565" id="-33533">
		<tag k="name" v="Litjdamtjennpynten" />
		<tag k="natural" v="hill" />
		<tag k="place" v="locality" />
		<tag k="ssr:stedsnr" v="399279" />
	</node>
	<node lat="63.1291222217681" lon="11.319205548812638" id="-33537">
		<tag k="name" v="Henberget" />
		<tag k="natural" v="hill" />
		<tag k="place" v="locality" />
		<tag k="ssr:stedsnr" v="399928" />
	</node>
	<node lat="63.069533336256285" lon="11.001647230626135" id="-33539">
		<tag k="name" v="Gunnaøyan" />
		<tag k="place" v="locality" />
		<tag k="ssr:stedsnr" v="400328" />
	</node>
	<node lat="63.2684527814591" lon="10.802755563845988" id="-33542">
		<tag k="name" v="Nesnadalen" />
		<tag k="natural" v="valley" />
		<tag k="place" v="locality" />
		<tag k="ssr:stedsnr" v="400404" />
	</node>
	<node lat="63.26330555349559" lon="10.832905551633097" id="-33543">
		<tag k="name" v="Bekkdalen" />
		<tag k="natural" v="valley" />
		<tag k="place" v="locality" />
		<tag k="ssr:stedsnr" v="400430" />
	</node>
	<node lat="63.286100001422504" lon="10.744755556100936" id="-33547">
		<tag k="fixme" v="consider natural=peak for the most distinct mountains in the district" />
		<tag k="name" v="Grønlifjellet" />
		<tag k="natural" v="hill" />
		<tag k="place" v="locality" />
		<tag k="ssr:stedsnr" v="401105" />
	</node>
	<node lat="63.135819448108535" lon="10.990788889667266" id="-33550">
		<tag k="fixme" v="consider natural=peak for the most distinct mountains in the district" />
		<tag k="name" v="Stenhusvollåsan" />
		<tag k="natural" v="hill" />
		<tag k="place" v="locality" />
		<tag k="ssr:stedsnr" v="401315" />
	</node>
	<node lat="63.251133332143965" lon="11.094069447771307" id="-33551">
		<tag k="name" v="Moheim" />
		<tag k="place" v="locality" />
		<tag k="ssr:stedsnr" v="401328" />
	</node>
	<node lat="63.16868055472678" lon="10.836994445729468" id="-33554">
		<tag k="name" v="Storslættet" />
		<tag k="place" v="locality" />
		<tag k="ssr:stedsnr" v="401402" />
	</node>
	<node lat="63.26718610839866" lon="10.916263892552925" id="-33555">
		<tag k="name" v="Oksbakkan" />
		<tag k="natural" v="slope" />
		<tag k="place" v="locality" />
		<tag k="ssr:stedsnr" v="401407" />
	</node>
	<node lat="63.183438885416486" lon="10.932136112829372" id="-33557">
		<tag k="fixme" v="consider natural=peak for the most distinct mountains in the district" />
		<tag k="name" v="Avliåsen" />
		<tag k="natural" v="hill" />
		<tag k="place" v="locality" />
		<tag k="ssr:stedsnr" v="401432" />
	</node>
	<node lat="63.128836113064274" lon="10.842013895465644" id="-33562">
		<tag k="name" v="Øverøylia" />
		<tag k="natural" v="slope" />
		<tag k="place" v="locality" />
		<tag k="ssr:stedsnr" v="401576" />
	</node>
	<node lat="63.12269166784428" lon="10.858680552531196" id="-33566">
		<tag k="name" v="Fagerlia" />
		<tag k="natural" v="slope" />
		<tag k="place" v="locality" />
		<tag k="ssr:stedsnr" v="401702" />
	</node>
	<node lat="63.063683329850456" lon="10.946161102975859" id="-33572">
		<tag k="name" v="Skardet" />
		<tag k="natural" v="valley" />
		<tag k="place" v="locality" />
		<tag k="ssr:stedsnr" v="402177" />
	</node>
	<node lat="63.19383888481268" lon="10.902261118395927" id="-33573">
		<tag k="name" v="Lia" />
		<tag k="natural" v="slope" />
		<tag k="place" v="locality" />
		<tag k="ssr:stedsnr" v="402186" />
	</node>
	<node lat="63.19564167017637" lon="10.879952770156217" id="-33574">
		<tag k="name" v="Brunberhaugen" />
		<tag k="natural" v="hill" />
		<tag k="place" v="locality" />
		<tag k="ssr:stedsnr" v="402187" />
	</node>
	<node lat="63.15773611403652" lon="11.017205548023" id="-33577">
		<tag k="name" v="Tærsjødalen" />
		<tag k="natural" v="valley" />
		<tag k="place" v="locality" />
		<tag k="ssr:stedsnr" v="402311" />
	</node>
	<node lat="63.33410833208922" lon="11.189188893806806" id="-33591">
		<tag k="name" v="Langlisberget" />
		<tag k="natural" v="hill" />
		<tag k="place" v="locality" />
		<tag k="ssr:stedsnr" v="438407" />
	</node>
	<node lat="63.262472217870275" lon="10.664791668722955" id="-33592">
		<tag k="name" v="Kuvikhøgda" />
		<tag k="natural" v="hill" />
		<tag k="place" v="locality" />
		<tag k="ssr:stedsnr" v="438751" />
	</node>
	<node lat="63.087311113076694" lon="10.925916669493054" id="-33597">
		<tag k="name" v="Gammelvollia" />
		<tag k="natural" v="slope" />
		<tag k="place" v="locality" />
		<tag k="ssr:stedsnr" v="459462" />
	</node>
	<node lat="63.212700001242325" lon="10.859749991415839" id="-33598">
		<tag k="fixme" v="consider natural=peak for the most distinct mountains in the district" />
		<tag k="name" v="Kalmuråsen" />
		<tag k="natural" v="hill" />
		<tag k="place" v="locality" />
		<tag k="ssr:stedsnr" v="459465" />
	</node>
	<node lat="63.19128889123517" lon="11.330080556717608" id="-33601">
		<tag k="fixme" v="consider natural=peak for the most distinct mountains in the district" />
		<tag k="name" v="Gråsteinryan" />
		<tag k="natural" v="hill" />
		<tag k="place" v="locality" />
		<tag k="ssr:stedsnr" v="459668" />
	</node>
	<node lat="63.11890555308204" lon="11.217169446172194" id="-33610">
		<tag k="name" v="Rånøyan" />
		<tag k="place" v="locality" />
		<tag k="ssr:stedsnr" v="459808" />
	</node>
	<node lat="63.19369722544637" lon="11.362838884859695" id="-33611">
		<tag k="fixme" v="consider natural=peak for the most distinct mountains in the district" />
		<tag k="name" v="Heståsen" />
		<tag k="natural" v="hill" />
		<tag k="place" v="locality" />
		<tag k="ssr:stedsnr" v="459873" />
	</node>
	<node lat="63.17556111532628" lon="11.14518332985028" id="-33614">
		<tag k="name" v="Betlitjennhøgda" />
		<tag k="natural" v="hill" />
		<tag k="place" v="locality" />
		<tag k="ssr:stedsnr" v="460006" />
	</node>
	<node lat="63.193663888094484" lon="11.458661117692307" id="-33624">
		<tag k="name" v="Litjknippen" />
		<tag k="natural" v="hill" />
		<tag k="place" v="locality" />
		<tag k="ssr:stedsnr" v="460920" />
	</node>
	<node lat="63.211911107806756" lon="10.958588884380173" id="-33628">
		<tag k="name" v="Fitjan" />
		<tag k="place" v="locality" />
		<tag k="ssr:stedsnr" v="461117" />
	</node>
	<node lat="63.12859444673864" lon="10.846902774992705" id="-33630">
		<tag k="name" v="Øverøylia" />
		<tag k="natural" v="slope" />
		<tag k="place" v="locality" />
		<tag k="ssr:stedsnr" v="461266" />
	</node>
	<node lat="63.27791388533658" lon="10.82644443470842" id="-33631">
		<tag k="name" v="Kløftsvea" />
		<tag k="natural" v="hill" />
		<tag k="place" v="locality" />
		<tag k="ssr:stedsnr" v="461423" />
	</node>
	<node lat="63.274322225386555" lon="10.695947230207146" id="-33638">
		<tag k="fixme" v="consider natural=peak for the most distinct mountains in the district" />
		<tag k="name" v="Drakstburet" />
		<tag k="natural" v="hill" />
		<tag k="place" v="locality" />
		<tag k="ssr:stedsnr" v="461575" />
	</node>
	<node lat="63.16005277704054" lon="11.25734445208375" id="-33640">
		<tag k="name" v="Øråsdalen" />
		<tag k="natural" v="valley" />
		<tag k="place" v="locality" />
		<tag k="ssr:stedsnr" v="462216" />
	</node>
	<node lat="63.275563889939484" lon="10.846327770554094" id="-33642">
		<tag k="name" v="Kilan" />
		<tag k="natural" v="hill" />
		<tag k="place" v="locality" />
		<tag k="ssr:stedsnr" v="462266" />
	</node>
	<node lat="63.23683332898559" lon="10.669980557633753" id="-33652">
		<tag k="name" v="Sandhaugan" />
		<tag k="natural" v="hill" />
		<tag k="place" v="locality" />
		<tag k="ssr:stedsnr" v="462614" />
	</node>
	<node lat="63.27690277524629" lon="10.711461102535496" id="-33653">
		<tag k="name" v="Stordalen" />
		<tag k="natural" v="valley" />
		<tag k="place" v="locality" />
		<tag k="ssr:stedsnr" v="462729" />
	</node>
	<node lat="63.286575003048384" lon="10.866194448681549" id="-33656">
		<tag k="name" v="Storøya" />
		<tag k="natural" v="hill" />
		<tag k="place" v="locality" />
		<tag k="ssr:stedsnr" v="463203" />
	</node>
	<node lat="63.27457222125047" lon="10.970186113994485" id="-33657">
		<tag k="fixme" v="consider natural=peak for the most distinct mountains in the district" />
		<tag k="name" v="Høgåsen" />
		<tag k="natural" v="hill" />
		<tag k="place" v="locality" />
		<tag k="ssr:stedsnr" v="463206" />
	</node>
	<node lat="63.21773055711375" lon="10.882211114035947" id="-33658">
		<tag k="name" v="Nonshaugen" />
		<tag k="natural" v="hill" />
		<tag k="place" v="locality" />
		<tag k="ssr:stedsnr" v="463207" />
	</node>
	<node lat="63.28394166982355" lon="10.969555559899906" id="-33659">
		<tag k="name" v="Kalvdalen" />
		<tag k="natural" v="valley" />
		<tag k="place" v="locality" />
		<tag k="ssr:stedsnr" v="463214" />
	</node>
	<node lat="63.222950003980245" lon="11.0044611207911" id="-33677">
		<tag k="name" v="Vikaengene" />
		<tag k="place" v="locality" />
		<tag k="ssr:stedsnr" v="680066" />
	</node>
	<node lat="63.11630000013303" lon="10.842686109296107" id="-33682">
		<tag k="fixme" v="consider natural=peak for the most distinct mountains in the district" />
		<tag k="name" v="Grønfjellet" />
		<tag k="natural" v="hill" />
		<tag k="place" v="locality" />
		<tag k="ssr:stedsnr" v="680162" />
	</node>
	<node lat="63.11893055535734" lon="10.786658341649376" id="-33687">
		<tag k="loc_name" v="Skrøvelskardet" />
		<tag k="name" v="Grøvelskardet" />
		<tag k="natural" v="valley" />
		<tag k="place" v="locality" />
		<tag k="ssr:stedsnr" v="680159" />
	</node>
	<node lat="63.27493611319749" lon="11.27155555151408" id="-33688">
		<tag k="fixme" v="consider natural=peak for the most distinct mountains in the district" />
		<tag k="name" v="Brenntopp" />
		<tag k="natural" v="hill" />
		<tag k="place" v="locality" />
		<tag k="ssr:stedsnr" v="680183" />
	</node>
	<node lat="63.281591664411856" lon="11.092311105810337" id="-33692">
		<tag k="fixme" v="consider natural=peak for the most distinct mountains in the district" />
		<tag k="name" v="Pallan" />
		<tag k="natural" v="hill" />
		<tag k="place" v="locality" />
		<tag k="ssr:stedsnr" v="680328" />
	</node>
	<node lat="63.33707222253218" lon="11.214113895165438" id="-33694">
		<tag k="name" v="Hestlihaugen" />
		<tag k="natural" v="hill" />
		<tag k="place" v="locality" />
		<tag k="ssr:stedsnr" v="680380" />
	</node>
	<node lat="63.07857777833041" lon="11.337524998375903" id="-33696">
		<tag k="name" v="Stenslåtten" />
		<tag k="natural" v="slope" />
		<tag k="place" v="locality" />
		<tag k="ssr:stedsnr" v="680343" />
	</node>
	<node lat="63.29812222210276" lon="10.6436444463626" id="-33701">
		<tag k="fixme" v="consider natural=peak for the most distinct mountains in the district" />
		<tag k="name" v="Langåsen" />
		<tag k="natural" v="hill" />
		<tag k="place" v="locality" />
		<tag k="ssr:stedsnr" v="680850" />
	</node>
	<node lat="63.14411388477873" lon="11.291566658402806" id="-33710">
		<tag k="fixme" v="consider natural=peak for the most distinct mountains in the district" />
		<tag k="name" v="Grossvollrya" />
		<tag k="natural" v="hill" />
		<tag k="place" v="locality" />
		<tag k="ssr:stedsnr" v="497254" />
	</node>
	<node lat="63.2324027773092" lon="11.29676389796966" id="-33711">
		<tag k="fixme" v="consider natural=peak for the most distinct mountains in the district" />
		<tag k="name" v="Vordfjellet" />
		<tag k="natural" v="hill" />
		<tag k="place" v="locality" />
		<tag k="ssr:stedsnr" v="497198" />
	</node>
	<node lat="63.27762500212986" lon="11.296733333818185" id="-33712">
		<tag k="fixme" v="consider natural=peak for the most distinct mountains in the district" />
		<tag k="name" v="Holmfjellet" />
		<tag k="natural" v="hill" />
		<tag k="place" v="locality" />
		<tag k="ssr:stedsnr" v="498102" />
	</node>
	<node lat="63.275766666779724" lon="11.393516665219538" id="-33713">
		<tag k="fixme" v="consider natural=peak for the most distinct mountains in the district" />
		<tag k="name" v="Høystakken" />
		<tag k="natural" v="hill" />
		<tag k="place" v="locality" />
		<tag k="ssr:stedsnr" v="498103" />
	</node>
	<node lat="63.16541110715469" lon="11.248730553941627" id="-33715">
		<tag k="fixme" v="consider natural=peak for the most distinct mountains in the district" />
		<tag k="name" v="Våttåfjellet" />
		<tag k="natural" v="hill" />
		<tag k="place" v="locality" />
		<tag k="ssr:stedsnr" v="498294" />
	</node>
	<node lat="63.31157991513973" lon="10.932434084834782" id="-33716">
		<tag k="name" v="Vennafjellet" />
		<tag k="natural" v="mountain_range" />
		<tag k="ssr:stedsnr" v="498404" />
	</node>
	<node lat="63.30846666527834" lon="11.198861112860147" id="-33719">
		<tag k="fixme" v="consider natural=peak for the most distinct mountains in the district" />
		<tag k="name" v="Kvennåsen" />
		<tag k="natural" v="hill" />
		<tag k="place" v="locality" />
		<tag k="ssr:stedsnr" v="498414" />
	</node>
	<node lat="63.29940000423768" lon="11.118766661279928" id="-33725">
		<tag k="name" v="Langlisdalen" />
		<tag k="natural" v="valley" />
		<tag k="place" v="locality" />
		<tag k="ssr:stedsnr" v="498337" />
	</node>
	<node lat="63.17929722231102" lon="11.491444434563231" id="-33736">
		<tag k="name" v="Roltdalen" />
		<tag k="natural" v="valley" />
		<tag k="place" v="locality" />
		<tag k="ssr:stedsnr" v="506216" />
	</node>
	<node lat="63.21690096915593" lon="10.850510539497277" id="-33738">
		<tag k="name" v="Stormyrbuhaugen" />
		<tag k="natural" v="hill" />
		<tag k="place" v="locality" />
		<tag k="ssr:stedsnr" v="506318" />
	</node>
	<node lat="63.268969443198976" lon="11.166299997392157" id="-33742">
		<tag k="fixme" v="consider natural=peak for the most distinct mountains in the district" />
		<tag k="name" v="Storåsen" />
		<tag k="natural" v="hill" />
		<tag k="place" v="locality" />
		<tag k="ssr:stedsnr" v="519763" />
	</node>
	<node lat="63.16078889158043" lon="11.143022218971938" id="-33743">
		<tag k="name" v="Kammen" />
		<tag k="natural" v="ridge" />
		<tag k="place" v="locality" />
		<tag k="ssr:stedsnr" v="519777" />
	</node>
	<node lat="63.14099166307426" lon="11.069744446007597" id="-33744">
		<tag k="name" v="Kudalen" />
		<tag k="natural" v="valley" />
		<tag k="place" v="locality" />
		<tag k="ssr:stedsnr" v="519806" />
	</node>
	<node lat="63.17730555940071" lon="11.2169749998017" id="-33745">
		<tag k="name" v="Dugurdshaugen" />
		<tag k="natural" v="hill" />
		<tag k="place" v="locality" />
		<tag k="ssr:stedsnr" v="520008" />
	</node>
	<node lat="63.30233888986383" lon="11.046772214824182" id="-33749">
		<tag k="fixme" v="consider natural=peak for the most distinct mountains in the district" />
		<tag k="name" v="Bursåsen" />
		<tag k="natural" v="hill" />
		<tag k="place" v="locality" />
		<tag k="ssr:stedsnr" v="520170" />
	</node>
	<node lat="63.293380552094256" lon="10.977097231111896" id="-33750">
		<tag k="name" v="Erikdalen" />
		<tag k="natural" v="valley" />
		<tag k="place" v="locality" />
		<tag k="ssr:stedsnr" v="520175" />
	</node>
	<node lat="63.28666944793868" lon="10.984416671863942" id="-33751">
		<tag k="name" v="Gammelvolldalen" />
		<tag k="natural" v="valley" />
		<tag k="place" v="locality" />
		<tag k="ssr:stedsnr" v="520177" />
	</node>
	<node lat="63.1434833289308" lon="11.126397219134276" id="-33754">
		<tag k="name" v="Medamtjenndalen" />
		<tag k="natural" v="valley" />
		<tag k="place" v="locality" />
		<tag k="ssr:stedsnr" v="520217" />
	</node>
	<node lat="63.30840277732648" lon="11.230313888622213" id="-33763">
		<tag k="name" v="Bjørnholet" />
		<tag k="place" v="locality" />
		<tag k="ssr:stedsnr" v="521110" />
	</node>
	<node lat="63.088683335849545" lon="11.0619138877629" id="-33766">
		<tag k="fixme" v="consider natural=peak for the most distinct mountains in the district" />
		<tag k="name" v="Jovassliåsen" />
		<tag k="natural" v="hill" />
		<tag k="place" v="locality" />
		<tag k="ssr:stedsnr" v="521322" />
	</node>
	<node lat="63.168508332578114" lon="11.407647225690534" id="-33772">
		<tag k="fixme" v="consider natural=peak for the most distinct mountains in the district" />
		<tag k="name" v="Gammelvollåsen" />
		<tag k="natural" v="hill" />
		<tag k="place" v="locality" />
		<tag k="ssr:stedsnr" v="521884" />
	</node>
	<node lat="63.073213890309574" lon="11.243108337825637" id="-33774">
		<tag k="name" v="Kløfta" />
		<tag k="natural" v="valley" />
		<tag k="place" v="locality" />
		<tag k="ssr:stedsnr" v="521906" />
	</node>
	<node lat="63.16952222475893" lon="10.868844452886043" id="-33781">
		<tag k="name" v="Kromplia" />
		<tag k="natural" v="slope" />
		<tag k="place" v="locality" />
		<tag k="ssr:stedsnr" v="522271" />
	</node>
	<node lat="63.26709722357771" lon="10.845602784057858" id="-33794">
		<tag k="name" v="Oksdalen" />
		<tag k="natural" v="valley" />
		<tag k="place" v="locality" />
		<tag k="ssr:stedsnr" v="523160" />
	</node>
	<node lat="63.13195278000414" lon="11.014394450403698" id="-33801">
		<tag k="fixme" v="consider natural=peak for the most distinct mountains in the district" />
		<tag k="name" v="Starrmyråsen" />
		<tag k="natural" v="hill" />
		<tag k="place" v="locality" />
		<tag k="ssr:stedsnr" v="523376" />
	</node>
	<node lat="63.29686666942637" lon="10.974955564999647" id="-33802">
		<tag k="name" v="Putten" />
		<tag k="place" v="locality" />
		<tag k="ssr:stedsnr" v="523382" />
	</node>
	<node lat="63.31962222209778" lon="10.964700000293917" id="-33803">
		<tag k="fixme" v="consider natural=peak for the most distinct mountains in the district" />
		<tag k="name" v="Rennsjøåsen" />
		<tag k="natural" v="hill" />
		<tag k="place" v="locality" />
		<tag k="ssr:stedsnr" v="523466" />
	</node>
	<node lat="63.12142777446966" lon="11.246483334120347" id="-33808">
		<tag k="fixme" v="consider natural=peak for the most distinct mountains in the district" />
		<tag k="name" v="Brannen" />
		<tag k="natural" v="hill" />
		<tag k="place" v="locality" />
		<tag k="ssr:stedsnr" v="688243" />
	</node>
	<node lat="63.19538333272967" lon="11.546522219481599" id="-33809">
		<tag k="fixme" v="consider natural=peak for the most distinct mountains in the district" />
		<tag k="name" v="Litjramfjellet" />
		<tag k="natural" v="hill" />
		<tag k="place" v="locality" />
		<tag k="ssr:stedsnr" v="688200" />
	</node>
	<node lat="63.164410090162974" lon="11.375358945011174" id="-33811">
		<tag k="fixme" v="consider natural=peak for the most distinct mountains in the district" />
		<tag k="name" v="Svartåsen" />
		<tag k="natural" v="hill" />
		<tag k="place" v="locality" />
		<tag k="ssr:stedsnr" v="688219" />
	</node>
	<node lat="63.28568611030598" lon="11.36097500563528" id="-33813">
		<tag k="name" v="Kvittytlia" />
		<tag k="natural" v="slope" />
		<tag k="place" v="locality" />
		<tag k="ssr:stedsnr" v="688351" />
	</node>
	<node lat="63.33351111286363" lon="11.235024997983977" id="-33814">
		<tag k="fixme" v="consider natural=peak for the most distinct mountains in the district" />
		<tag k="name" v="Gråvassåsen" />
		<tag k="natural" v="hill" />
		<tag k="place" v="locality" />
		<tag k="ssr:stedsnr" v="688355" />
	</node>
	<node lat="63.13396944653363" lon="11.18825832987184" id="-33818">
		<tag k="fixme" v="consider natural=peak for the most distinct mountains in the district" />
		<tag k="name" v="Stokkfjellet" />
		<tag k="natural" v="hill" />
		<tag k="place" v="locality" />
		<tag k="ssr:stedsnr" v="558119" />
	</node>
	<node lat="63.10230556015261" lon="11.213033327521957" id="-33819">
		<tag k="fixme" v="consider natural=peak for the most distinct mountains in the district" />
		<tag k="name" v="Vorda" />
		<tag k="natural" v="hill" />
		<tag k="place" v="locality" />
		<tag k="ssr:stedsnr" v="558146" />
	</node>
	<node lat="63.298383335910515" lon="10.919397226838457" id="-33832">
		<tag k="fixme" v="consider natural=peak for the most distinct mountains in the district" />
		<tag k="name" v="Klimpan" />
		<tag k="natural" v="hill" />
		<tag k="place" v="locality" />
		<tag k="ssr:stedsnr" v="559247" />
	</node>
	<node lat="63.12680459667726" lon="11.267580874416453" id="-33835">
		<tag k="fixme" v="consider natural=peak for the most distinct mountains in the district" />
		<tag k="name" v="Engbergåsen" />
		<tag k="natural" v="hill" />
		<tag k="place" v="locality" />
		<tag k="ssr:stedsnr" v="566227" />
	</node>
	<node lat="63.19151666261816" lon="10.937788886831123" id="-33837">
		<tag k="name" v="Gullsetborga" />
		<tag k="place" v="locality" />
		<tag k="ssr:stedsnr" v="566310" />
	</node>
	<node lat="63.04283499698677" lon="11.183237401752057" id="-33838">
		<tag k="fixme" v="consider natural=peak for the most distinct mountains in the district" />
		<tag k="name" v="Lurberga" />
		<tag k="natural" v="hill" />
		<tag k="place" v="locality" />
		<tag k="ssr:stedsnr" v="566315" />
	</node>
	<node lat="63.23854722171377" lon="11.223686117746277" id="-33841">
		<tag k="name" v="Høgvollen" />
		<tag k="natural" v="hill" />
		<tag k="place" v="locality" />
		<tag k="ssr:stedsnr" v="580027" />
	</node>
	<node lat="63.284752773470935" lon="11.134441671893049" id="-33843">
		<tag k="name" v="Kjelstadberga" />
		<tag k="natural" v="hill" />
		<tag k="place" v="locality" />
		<tag k="ssr:stedsnr" v="580590" />
	</node>
	<node lat="63.180244440671004" lon="11.276716669659242" id="-33844">
		<tag k="name" v="Storskardet" />
		<tag k="natural" v="valley" />
		<tag k="place" v="locality" />
		<tag k="ssr:stedsnr" v="580708" />
	</node>
	<node lat="63.28718888489682" lon="10.824088893303017" id="-33846">
		<tag k="name" v="Amdalshøgda" />
		<tag k="natural" v="hill" />
		<tag k="place" v="locality" />
		<tag k="ssr:stedsnr" v="580494" />
	</node>
	<node lat="63.28078610705149" lon="10.97277222846679" id="-33847">
		<tag k="name" v="Kongslian" />
		<tag k="natural" v="slope" />
		<tag k="place" v="locality" />
		<tag k="ssr:stedsnr" v="580617" />
	</node>
	<node lat="63.21066944081652" lon="11.133330556045227" id="-33849">
		<tag k="name" v="Synnåsdalen" />
		<tag k="natural" v="valley" />
		<tag k="place" v="locality" />
		<tag k="ssr:stedsnr" v="580655" />
	</node>
	<node lat="63.313927778944226" lon="11.24880832711382" id="-33852">
		<tag k="name" v="Stentjennlia" />
		<tag k="natural" v="slope" />
		<tag k="place" v="locality" />
		<tag k="ssr:stedsnr" v="581144" />
	</node>
	<node lat="63.174955552865846" lon="11.1157111030096" id="-33854">
		<tag k="fixme" v="consider natural=peak for the most distinct mountains in the district" />
		<tag k="name" v="Storåsen" />
		<tag k="natural" v="hill" />
		<tag k="place" v="locality" />
		<tag k="ssr:stedsnr" v="581004" />
	</node>
	<node lat="63.16449999992907" lon="11.141474992962818" id="-33856">
		<tag k="name" v="Tverrdalen" />
		<tag k="natural" v="valley" />
		<tag k="place" v="locality" />
		<tag k="ssr:stedsnr" v="581017" />
	</node>
	<node lat="63.31412499902697" lon="11.175538880766481" id="-33857">
		<tag k="name" v="Uggelhausen" />
		<tag k="natural" v="hill" />
		<tag k="place" v="locality" />
		<tag k="ssr:stedsnr" v="581093" />
	</node>
	<node lat="63.116300003039086" lon="11.228547226406956" id="-33865">
		<tag k="name" v="Høglia" />
		<tag k="natural" v="slope" />
		<tag k="place" v="locality" />
		<tag k="ssr:stedsnr" v="581944" />
	</node>
	<node lat="63.205450002223294" lon="10.84064443643182" id="-33870">
		<tag k="fixme" v="consider natural=peak for the most distinct mountains in the district" />
		<tag k="name" v="Sagåsan" />
		<tag k="natural" v="hill" />
		<tag k="place" v="locality" />
		<tag k="ssr:stedsnr" v="582094" />
	</node>
	<node lat="63.280861113255625" lon="10.836111116326405" id="-33875">
		<tag k="fixme" v="consider natural=peak for the most distinct mountains in the district" />
		<tag k="name" v="Storkleva" />
		<tag k="natural" v="hill" />
		<tag k="place" v="locality" />
		<tag k="ssr:stedsnr" v="582410" />
	</node>
	<node lat="63.07253611341823" lon="10.932688882975315" id="-33876">
		<tag k="fixme" v="consider natural=peak for the most distinct mountains in the district" />
		<tag k="name" v="Tomasåsen" />
		<tag k="natural" v="hill" />
		<tag k="place" v="locality" />
		<tag k="ssr:stedsnr" v="582414" />
	</node>
	<node lat="63.118677774196435" lon="10.877108333287005" id="-33877">
		<tag k="name" v="Kneppa" />
		<tag k="natural" v="slope" />
		<tag k="place" v="locality" />
		<tag k="ssr:stedsnr" v="582453" />
	</node>
	<node lat="63.276600003487054" lon="11.11423888820646" id="-33880">
		<tag k="fixme" v="consider natural=peak for the most distinct mountains in the district" />
		<tag k="name" v="Brennåsen" />
		<tag k="natural" v="hill" />
		<tag k="place" v="locality" />
		<tag k="ssr:stedsnr" v="582502" />
	</node>
	<node lat="63.27494721840333" lon="11.120230555750013" id="-33881">
		<tag k="fixme" v="consider natural=peak for the most distinct mountains in the district" />
		<tag k="name" v="Brattåsen" />
		<tag k="natural" v="hill" />
		<tag k="place" v="locality" />
		<tag k="ssr:stedsnr" v="582503" />
	</node>
	<node lat="63.25884722117574" lon="10.703522216465933" id="-33884">
		<tag k="fixme" v="consider natural=peak for the most distinct mountains in the district" />
		<tag k="name" v="Kjerringrennkammen" />
		<tag k="natural" v="hill" />
		<tag k="place" v="locality" />
		<tag k="ssr:stedsnr" v="582547" />
	</node>
	<node lat="63.26560555361304" lon="10.680080547297162" id="-33885">
		<tag k="fixme" v="consider natural=peak for the most distinct mountains in the district" />
		<tag k="name" v="Krokåtløfta" />
		<tag k="natural" v="hill" />
		<tag k="place" v="locality" />
		<tag k="ssr:stedsnr" v="582551" />
	</node>
	<node lat="63.211127779468946" lon="10.88776665830603" id="-33888">
		<tag k="name" v="Kvitmyrhaugan" />
		<tag k="natural" v="hill" />
		<tag k="place" v="locality" />
		<tag k="ssr:stedsnr" v="583211" />
	</node>
	<node lat="63.20090555862434" lon="11.01451111056773" id="-33895">
		<tag k="name" v="Lisbetmoen" />
		<tag k="place" v="locality" />
		<tag k="ssr:stedsnr" v="583289" />
	</node>
	<node lat="63.105888888040326" lon="10.999269452490429" id="-33896">
		<tag k="name" v="Vargholet" />
		<tag k="place" v="locality" />
		<tag k="ssr:stedsnr" v="583445" />
	</node>
	<node lat="63.21409166389993" lon="10.879386101641288" id="-33904">
		<tag k="fixme" v="consider natural=peak for the most distinct mountains in the district" />
		<tag k="name" v="Rørtjennbrettet" />
		<tag k="natural" v="hill" />
		<tag k="place" v="locality" />
		<tag k="ssr:stedsnr" v="584243" />
	</node>
	<node lat="63.20348333311403" lon="10.877219445224371" id="-33905">
		<tag k="name" v="Bjørnfolla" />
		<tag k="natural" v="slope" />
		<tag k="place" v="locality" />
		<tag k="ssr:stedsnr" v="584257" />
	</node>
	<node lat="63.12498611212359" lon="10.976480559978912" id="-33918">
		<tag k="fixme" v="consider natural=peak for the most distinct mountains in the district" />
		<tag k="name" v="Tjuvhamrene" />
		<tag k="natural" v="hill" />
		<tag k="place" v="locality" />
		<tag k="ssr:stedsnr" v="619107" />
	</node>
	<node lat="63.33115555152797" lon="11.045030565236988" id="-33926">
		<tag k="name" v="Såsdalen" />
		<tag k="natural" v="valley" />
		<tag k="place" v="locality" />
		<tag k="ssr:stedsnr" v="619373" />
	</node>
	<node lat="63.33988610934821" lon="11.20449721340423" id="-33930">
		<tag k="name" v="Sirknippen" />
		<tag k="natural" v="hill" />
		<tag k="place" v="locality" />
		<tag k="ssr:stedsnr" v="619384" />
	</node>
	<node lat="63.25540555545031" lon="10.721236109513882" id="-33932">
		<tag k="name" v="Blomdalen" />
		<tag k="natural" v="valley" />
		<tag k="place" v="locality" />
		<tag k="ssr:stedsnr" v="702389" />
	</node>
	<node lat="63.184966662259164" lon="11.281577780489974" id="-33940">
		<tag k="fixme" v="consider natural=peak for the most distinct mountains in the district" />
		<tag k="name" v="Stjernesåsen" />
		<tag k="natural" v="hill" />
		<tag k="place" v="locality" />
		<tag k="ssr:stedsnr" v="702689" />
	</node>
	<node lat="63.25545833755756" lon="11.203658325521577" id="-33946">
		<tag k="name" v="Trangdalen" />
		<tag k="natural" v="valley" />
		<tag k="place" v="locality" />
		<tag k="ssr:stedsnr" v="702881" />
	</node>
	<node lat="63.2750694431582" lon="11.109597224239806" id="-33949">
		<tag k="name" v="Gaddurdberget" />
		<tag k="natural" v="hill" />
		<tag k="place" v="locality" />
		<tag k="ssr:stedsnr" v="703072" />
	</node>
	<node lat="63.328844445810375" lon="11.155958328496611" id="-33951">
		<tag k="name" v="Kammen" />
		<tag k="natural" v="hill" />
		<tag k="place" v="locality" />
		<tag k="ssr:stedsnr" v="703090" />
	</node>
	<node lat="63.30256944558761" lon="11.297811105670025" id="-33955">
		<tag k="fixme" v="consider natural=peak for the most distinct mountains in the district" />
		<tag k="name" v="Guriliknippen" />
		<tag k="natural" v="hill" />
		<tag k="place" v="locality" />
		<tag k="ssr:stedsnr" v="703100" />
	</node>
	<node lat="63.233872221437295" lon="11.05703332753768" id="-33959">
		<tag k="fixme" v="consider natural=peak for the most distinct mountains in the district" />
		<tag k="name" v="Brattkneppa" />
		<tag k="natural" v="hill" />
		<tag k="place" v="locality" />
		<tag k="ssr:stedsnr" v="703143" />
	</node>
	<node lat="63.33744444339249" lon="11.097172222720523" id="-33964">
		<tag k="fixme" v="consider natural=peak for the most distinct mountains in the district" />
		<tag k="name" v="Ratåsen" />
		<tag k="natural" v="hill" />
		<tag k="place" v="locality" />
		<tag k="ssr:stedsnr" v="703192" />
	</node>
	<node lat="63.17676944339141" lon="11.245038883296894" id="-33971">
		<tag k="name" v="Merkeslia" />
		<tag k="natural" v="slope" />
		<tag k="place" v="locality" />
		<tag k="ssr:stedsnr" v="703954" />
	</node>
	<node lat="63.206052776780815" lon="11.26726943997723" id="-33973">
		<tag k="name" v="Tverrdalen" />
		<tag k="natural" v="valley" />
		<tag k="place" v="locality" />
		<tag k="ssr:stedsnr" v="703964" />
	</node>
	<node lat="63.28931666514095" lon="10.773736112166844" id="-33979">
		<tag k="name" v="Pålrommet" />
		<tag k="place" v="locality" />
		<tag k="ssr:stedsnr" v="704084" />
	</node>
	<node lat="63.253570129690885" lon="10.877593786712856" id="-33980">
		<tag k="fixme" v="consider natural=peak for the most distinct mountains in the district" />
		<tag k="name" v="Solemsåsen" />
		<tag k="natural" v="hill" />
		<tag k="place" v="locality" />
		<tag k="ssr:stedsnr" v="704236" />
	</node>
	<node lat="63.214597221315486" lon="10.81031665749511" id="-33983">
		<tag k="name" v="Futen" />
		<tag k="natural" v="hill" />
		<tag k="place" v="locality" />
		<tag k="ssr:stedsnr" v="704348" />
	</node>
	<node lat="63.19192499924948" lon="10.964724994099988" id="-33986">
		<tag k="name" v="Fuglhaugen" />
		<tag k="natural" v="hill" />
		<tag k="place" v="locality" />
		<tag k="ssr:stedsnr" v="704411" />
	</node>
	<node lat="63.119827774077095" lon="10.850549996900833" id="-33991">
		<tag k="fixme" v="consider natural=peak for the most distinct mountains in the district" />
		<tag k="name" v="Smålifjellet" />
		<tag k="natural" v="hill" />
		<tag k="place" v="locality" />
		<tag k="ssr:stedsnr" v="704435" />
	</node>
	<node lat="63.27493055742537" lon="10.68013333110269" id="-33997">
		<tag k="fixme" v="consider natural=peak for the most distinct mountains in the district" />
		<tag k="name" v="Tommasholet" />
		<tag k="natural" v="hill" />
		<tag k="place" v="locality" />
		<tag k="ssr:stedsnr" v="704519" />
	</node>
	<node lat="63.25851111313313" lon="10.878569450516023" id="-34010">
		<tag k="fixme" v="consider natural=peak for the most distinct mountains in the district" />
		<tag k="name" v="Skallan" />
		<tag k="natural" v="hill" />
		<tag k="place" v="locality" />
		<tag k="ssr:stedsnr" v="705139" />
	</node>
	<node lat="63.07662777437405" lon="11.094027786703634" id="-34019">
		<tag k="name" v="Golia" />
		<tag k="natural" v="slope" />
		<tag k="place" v="locality" />
		<tag k="ssr:stedsnr" v="705273" />
	</node>
	<node lat="63.30791110984972" lon="11.035591670625923" id="-34026">
		<tag k="fixme" v="consider natural=peak for the most distinct mountains in the district" />
		<tag k="name" v="Storåsen" />
		<tag k="natural" v="hill" />
		<tag k="place" v="locality" />
		<tag k="ssr:stedsnr" v="705353" />
	</node>
	<node lat="63.25009444705365" lon="11.031652780620126" id="-34029">
		<tag k="fixme" v="consider natural=peak for the most distinct mountains in the district" />
		<tag k="name" v="Kulåsen" />
		<tag k="natural" v="hill" />
		<tag k="place" v="locality" />
		<tag k="ssr:stedsnr" v="705461" />
	</node>
	<node lat="63.101361112438596" lon="11.000969442563992" id="-34032">
		<tag k="name" v="Bekkalia" />
		<tag k="natural" v="slope" />
		<tag k="place" v="locality" />
		<tag k="ssr:stedsnr" v="705493" />
	</node>
	<node lat="63.096033331657054" lon="11.00824721326105" id="-34033">
		<tag k="fixme" v="consider natural=peak for the most distinct mountains in the district" />
		<tag k="name" v="Stormyråsen" />
		<tag k="natural" v="hill" />
		<tag k="place" v="locality" />
		<tag k="ssr:stedsnr" v="705497" />
	</node>
	<node lat="63.32272777840661" lon="11.055480552051357" id="-34034">
		<tag k="fixme" v="consider natural=peak for the most distinct mountains in the district" />
		<tag k="name" v="Hamran" />
		<tag k="natural" v="hill" />
		<tag k="place" v="locality" />
		<tag k="ssr:stedsnr" v="705559" />
	</node>
	<node lat="63.28565555437576" lon="10.784563897034664" id="-34043">
		<tag k="fixme" v="consider natural=peak for the most distinct mountains in the district" />
		<tag k="name" v="Finnbuåsen" />
		<tag k="natural" v="hill" />
		<tag k="place" v="locality" />
		<tag k="ssr:stedsnr" v="640508" />
	</node>
	<node lat="63.23408055705437" lon="10.706402778134366" id="-34044">
		<tag k="fixme" v="consider natural=peak for the most distinct mountains in the district" />
		<tag k="name" v="Puttbjørga" />
		<tag k="natural" v="hill" />
		<tag k="place" v="locality" />
		<tag k="ssr:stedsnr" v="640576" />
	</node>
	<node lat="63.07335277625776" lon="11.22327222574468" id="-34045">
		<tag k="name" v="Vassdallia" />
		<tag k="natural" v="slope" />
		<tag k="place" v="locality" />
		<tag k="ssr:stedsnr" v="640806" />
	</node>
	<node lat="63.078430556299" lon="11.19870277773138" id="-34046">
		<tag k="name" v="Storbekkdalen" />
		<tag k="natural" v="valley" />
		<tag k="place" v="locality" />
		<tag k="ssr:stedsnr" v="640809" />
	</node>
	<node lat="63.11738333010115" lon="11.322963883450697" id="-34051">
		<tag k="name" v="Brautbakkan" />
		<tag k="natural" v="slope" />
		<tag k="place" v="locality" />
		<tag k="ssr:stedsnr" v="640773" />
	</node>
	<node lat="63.13144722616997" lon="11.122886104049572" id="-34054">
		<tag k="name" v="Fagerlia" />
		<tag k="natural" v="slope" />
		<tag k="place" v="locality" />
		<tag k="ssr:stedsnr" v="640785" />
	</node>
	<node lat="63.22476111134415" lon="11.319766672686054" id="-34060">
		<tag k="name" v="Litjmoen" />
		<tag k="place" v="locality" />
		<tag k="ssr:stedsnr" v="641625" />
	</node>
	<node lat="63.23216666885006" lon="11.276325006203608" id="-34062">
		<tag k="name" v="Bleksjødalen" />
		<tag k="natural" v="valley" />
		<tag k="place" v="locality" />
		<tag k="ssr:stedsnr" v="641504" />
	</node>
	<node lat="63.24202500268316" lon="11.170966673613723" id="-34065">
		<tag k="name" v="Litjdalen" />
		<tag k="natural" v="valley" />
		<tag k="place" v="locality" />
		<tag k="ssr:stedsnr" v="641728" />
	</node>
	<node lat="63.116030552470484" lon="11.048261107550688" id="-34068">
		<tag k="fixme" v="consider natural=peak for the most distinct mountains in the district" />
		<tag k="name" v="Svartåsen" />
		<tag k="natural" v="hill" />
		<tag k="place" v="locality" />
		<tag k="ssr:stedsnr" v="642293" />
	</node>
	<node lat="63.06857778141448" lon="11.25067777303602" id="-34071">
		<tag k="name" v="Usmabakken" />
		<tag k="natural" v="slope" />
		<tag k="place" v="locality" />
		<tag k="ssr:stedsnr" v="642889" />
	</node>
	<node lat="63.2667833321961" lon="10.830272229477105" id="-34077">
		<tag k="name" v="Blåskåra" />
		<tag k="natural" v="hill" />
		<tag k="place" v="locality" />
		<tag k="ssr:stedsnr" v="643413" />
	</node>
	<node lat="63.206438886825204" lon="10.920416669462721" id="-34078">
		<tag k="name" v="Finnarhaugen" />
		<tag k="natural" v="hill" />
		<tag k="place" v="locality" />
		<tag k="ssr:stedsnr" v="643424" />
	</node>
	<node lat="63.18598889287347" lon="10.92978054758038" id="-34080">
		<tag k="name" v="Domvollbakkan" />
		<tag k="natural" v="slope" />
		<tag k="place" v="locality" />
		<tag k="ssr:stedsnr" v="643476" />
	</node>
	<node lat="63.203244440072275" lon="11.244652785887405" id="-34081">
		<tag k="fixme" v="consider natural=peak for the most distinct mountains in the district" />
		<tag k="name" v="Lundåsan" />
		<tag k="natural" v="hill" />
		<tag k="place" v="locality" />
		<tag k="ssr:stedsnr" v="643479" />
	</node>
	<node lat="63.23037222382281" lon="10.785797217170211" id="-34085">
		<tag k="name" v="Vårvolldalen" />
		<tag k="natural" v="valley" />
		<tag k="place" v="locality" />
		<tag k="ssr:stedsnr" v="643389" />
	</node>
	<node lat="63.30252778078952" lon="10.667263883130268" id="-34087">
		<tag k="name" v="Måssåryin" />
		<tag k="natural" v="hill" />
		<tag k="place" v="locality" />
		<tag k="ssr:stedsnr" v="643687" />
	</node>
	<node lat="63.15686944577556" lon="10.864930559479241" id="-34091">
		<tag k="name" v="Smålian" />
		<tag k="natural" v="slope" />
		<tag k="place" v="locality" />
		<tag k="ssr:stedsnr" v="644224" />
	</node>
	<node lat="63.22610278130334" lon="10.887219452292085" id="-34092">
		<tag k="name" v="Korpveltberga" />
		<tag k="natural" v="hill" />
		<tag k="place" v="locality" />
		<tag k="ssr:stedsnr" v="644226" />
	</node>
	<node lat="63.293152781266926" lon="10.924899997063026" id="-34094">
		<tag k="fixme" v="consider natural=peak for the most distinct mountains in the district" />
		<tag k="name" v="Kammen" />
		<tag k="natural" v="hill" />
		<tag k="place" v="locality" />
		<tag k="ssr:stedsnr" v="644112" />
	</node>
	<node lat="63.25851388987702" lon="11.244286117180687" id="-34097">
		<tag k="name" v="Bjørndalen" />
		<tag k="natural" v="valley" />
		<tag k="place" v="locality" />
		<tag k="ssr:stedsnr" v="644325" />
	</node>
	<node lat="63.12858055625109" lon="11.0012861030514" id="-34098">
		<tag k="fixme" v="consider natural=peak for the most distinct mountains in the district" />
		<tag k="name" v="Tømmeråsen" />
		<tag k="natural" v="hill" />
		<tag k="place" v="locality" />
		<tag k="ssr:stedsnr" v="644330" />
	</node>
	<node lat="63.1387833301128" lon="10.962150007244476" id="-34099">
		<tag k="name" v="Skollen" />
		<tag k="natural" v="hill" />
		<tag k="place" v="locality" />
		<tag k="ssr:stedsnr" v="644438" />
	</node>
	<node lat="63.147138891434835" lon="11.313044442888748" id="-34110">
		<tag k="fixme" v="consider natural=peak for the most distinct mountains in the district" />
		<tag k="name" v="Liåsan" />
		<tag k="natural" v="hill" />
		<tag k="place" v="locality" />
		<tag k="ssr:stedsnr" v="679205" />
	</node>
	<node lat="63.28496944624379" lon="10.972591658215322" id="-34123">
		<tag k="fixme" v="consider natural=peak for the most distinct mountains in the district" />
		<tag k="name" v="Dambakkan" />
		<tag k="natural" v="hill" />
		<tag k="place" v="locality" />
		<tag k="ssr:stedsnr" v="680322" />
	</node>
	<node lat="63.115369447820065" lon="11.232133326506139" id="-34125">
		<tag k="fixme" v="consider natural=peak for the most distinct mountains in the district" />
		<tag k="name" v="Høglia" />
		<tag k="natural" v="hill" />
		<tag k="place" v="locality" />
		<tag k="ssr:stedsnr" v="688145" />
	</node>
	<node lat="63.19684444658864" lon="11.514827772411602" id="-34127">
		<tag k="name" v="Bårdsgardsknippen" />
		<tag k="natural" v="hill" />
		<tag k="place" v="locality" />
		<tag k="ssr:stedsnr" v="688207" />
	</node>
	<node lat="63.28719166828311" lon="10.839361120719552" id="-34132">
		<tag k="name" v="Svarttjenndalen" />
		<tag k="natural" v="valley" />
		<tag k="place" v="locality" />
		<tag k="ssr:stedsnr" v="702465" />
	</node>
	<node lat="63.216119447264695" lon="11.266944435564662" id="-34135">
		<tag k="name" v="Hoemslangen" />
		<tag k="place" v="locality" />
		<tag k="ssr:stedsnr" v="702525" />
	</node>
	<node lat="63.19875833122878" lon="11.13846943498989" id="-34144">
		<tag k="name" v="Hyttbakkan" />
		<tag k="natural" v="slope" />
		<tag k="place" v="locality" />
		<tag k="ssr:stedsnr" v="702669" />
	</node>
	<node lat="63.19846944278586" lon="11.35080556134258" id="-34145">
		<tag k="name" v="Skorran" />
		<tag k="place" v="locality" />
		<tag k="ssr:stedsnr" v="702670" />
	</node>
	<node lat="63.1204777758142" lon="11.118091673438851" id="-34151">
		<tag k="name" v="Golia" />
		<tag k="natural" v="slope" />
		<tag k="place" v="locality" />
		<tag k="ssr:stedsnr" v="702762" />
	</node>
	<node lat="63.293967354095585" lon="11.09111280514205" id="-34158">
		<tag k="alt_name" v="Sletnåsen" />
		<tag k="fixme" v="consider natural=peak for the most distinct mountains in the district" />
		<tag k="name" v="Litjsletnåsen" />
		<tag k="natural" v="hill" />
		<tag k="old_name" v="Sletneåse" />
		<tag k="place" v="locality" />
		<tag k="ssr:stedsnr" v="703230" />
	</node>
	<node lat="63.28342499892289" lon="10.864902777146163" id="-34166">
		<tag k="name" v="Budalen" />
		<tag k="natural" v="valley" />
		<tag k="place" v="locality" />
		<tag k="ssr:stedsnr" v="704269" />
	</node>
	<node lat="63.26325555304512" lon="10.903069447484205" id="-34167">
		<tag k="fixme" v="consider natural=peak for the most distinct mountains in the district" />
		<tag k="name" v="Damtjennåsen" />
		<tag k="natural" v="hill" />
		<tag k="place" v="locality" />
		<tag k="ssr:stedsnr" v="704280" />
	</node>
	<node lat="63.12669722305038" lon="11.23823610751688" id="-34186">
		<tag k="name" v="Rusklia" />
		<tag k="natural" v="slope" />
		<tag k="place" v="locality" />
		<tag k="ssr:stedsnr" v="705364" />
	</node>
	<node lat="63.087100000735205" lon="10.966797230088023" id="-34199">
		<tag k="fixme" v="consider natural=peak for the most distinct mountains in the district" />
		<tag k="name" v="Kringelåslia" />
		<tag k="natural" v="hill" />
		<tag k="place" v="locality" />
		<tag k="ssr:stedsnr" v="740128" />
	</node>
	<node lat="63.247952215744355" lon="11.43432024037057" id="-34203">
		<tag k="fixme" v="consider natural=peak for the most distinct mountains in the district" />
		<tag k="name" v="Solemsknippen" />
		<tag k="natural" v="hill" />
		<tag k="place" v="locality" />
		<tag k="ssr:stedsnr" v="740192" />
	</node>
	<node lat="63.258175001865325" lon="11.20415834303381" id="-34210">
		<tag k="fixme" v="consider natural=peak for the most distinct mountains in the district" />
		<tag k="name" v="Høgkjølåsen" />
		<tag k="natural" v="hill" />
		<tag k="place" v="locality" />
		<tag k="ssr:stedsnr" v="741436" />
	</node>
	<node lat="63.268955555455285" lon="10.95288054741691" id="-34218">
		<tag k="fixme" v="consider natural=peak for the most distinct mountains in the district" />
		<tag k="name" v="Haugardsåsen" />
		<tag k="natural" v="hill" />
		<tag k="place" v="locality" />
		<tag k="ssr:stedsnr" v="741396" />
	</node>
	<node lat="63.20766111111339" lon="11.146644452688719" id="-34220">
		<tag k="fixme" v="consider natural=peak for the most distinct mountains in the district" />
		<tag k="name" v="Synnåsen" />
		<tag k="natural" v="hill" />
		<tag k="place" v="locality" />
		<tag k="ssr:stedsnr" v="748310" />
	</node>
	<node lat="63.20703611422281" lon="10.918936104204498" id="-34221">
		<tag k="name" v="Finnarhaugen" />
		<tag k="natural" v="hill" />
		<tag k="place" v="locality" />
		<tag k="ssr:stedsnr" v="748311" />
	</node>
	<node lat="63.08301110684178" lon="10.948941662623398" id="-34228">
		<tag k="fixme" v="consider natural=peak for the most distinct mountains in the district" />
		<tag k="name" v="Nyvollåsen" />
		<tag k="natural" v="hill" />
		<tag k="place" v="locality" />
		<tag k="ssr:stedsnr" v="762503" />
	</node>
	<node lat="63.12035278108927" lon="11.26876944939401" id="-34229">
		<tag k="fixme" v="consider natural=peak for the most distinct mountains in the district" />
		<tag k="name" v="Kolåsen" />
		<tag k="natural" v="hill" />
		<tag k="place" v="locality" />
		<tag k="ssr:stedsnr" v="762512" />
	</node>
	<node lat="63.22655000387822" lon="10.820200008235155" id="-34231">
		<tag k="name" v="Storslættet" />
		<tag k="place" v="locality" />
		<tag k="ssr:stedsnr" v="762414" />
	</node>
	<node lat="63.309119447874814" lon="11.158283331303416" id="-34234">
		<tag k="name" v="Litjberget" />
		<tag k="natural" v="hill" />
		<tag k="place" v="locality" />
		<tag k="ssr:stedsnr" v="762644" />
	</node>
	<node lat="63.31504444865486" lon="11.316336108845304" id="-34239">
		<tag k="name" v="Stubbsokklia" />
		<tag k="natural" v="slope" />
		<tag k="place" v="locality" />
		<tag k="ssr:stedsnr" v="762851" />
	</node>
	<node lat="63.21143333114699" lon="11.21965277880925" id="-34243">
		<tag k="name" v="Fagerlia" />
		<tag k="natural" v="slope" />
		<tag k="place" v="locality" />
		<tag k="ssr:stedsnr" v="762755" />
	</node>
	<node lat="63.14416388767664" lon="11.217438882406276" id="-34244">
		<tag k="name" v="Elgslia" />
		<tag k="natural" v="slope" />
		<tag k="place" v="locality" />
		<tag k="ssr:stedsnr" v="762801" />
	</node>
	<node lat="63.14047222124091" lon="11.127033325351244" id="-34245">
		<tag k="name" v="Vassdalen" />
		<tag k="natural" v="valley" />
		<tag k="place" v="locality" />
		<tag k="ssr:stedsnr" v="763257" />
	</node>
	<node lat="63.30293610880655" lon="11.133794450917097" id="-34247">
		<tag k="name" v="Stordalen" />
		<tag k="natural" v="valley" />
		<tag k="place" v="locality" />
		<tag k="ssr:stedsnr" v="763107" />
	</node>
	<node lat="63.32923055485836" lon="11.191350006671998" id="-34248">
		<tag k="name" v="Tøbakkan" />
		<tag k="natural" v="slope" />
		<tag k="place" v="locality" />
		<tag k="ssr:stedsnr" v="763120" />
	</node>
	<node lat="63.29709722495446" lon="11.270308325823253" id="-34253">
		<tag k="name" v="Bårsetlia" />
		<tag k="natural" v="slope" />
		<tag k="place" v="locality" />
		<tag k="ssr:stedsnr" v="763745" />
	</node>
	<node lat="63.07106666585795" lon="11.30342222973281" id="-34254">
		<tag k="name" v="Bretta" />
		<tag k="natural" v="slope" />
		<tag k="place" v="locality" />
		<tag k="ssr:stedsnr" v="763903" />
	</node>
	<node lat="63.09846388984841" lon="11.327858330629223" id="-34255">
		<tag k="fixme" v="consider natural=peak for the most distinct mountains in the district" />
		<tag k="name" v="Damåsen" />
		<tag k="natural" v="hill" />
		<tag k="place" v="locality" />
		<tag k="ssr:stedsnr" v="763914" />
	</node>
	<node lat="63.085800004378775" lon="11.22831388520205" id="-34257">
		<tag k="name" v="Yttervoll-lia" />
		<tag k="natural" v="slope" />
		<tag k="place" v="locality" />
		<tag k="ssr:stedsnr" v="763919" />
	</node>
	<node lat="63.178677774016755" lon="11.276911119341928" id="-34260">
		<tag k="name" v="Knippen" />
		<tag k="natural" v="hill" />
		<tag k="place" v="locality" />
		<tag k="ssr:stedsnr" v="763953" />
	</node>
	<node lat="63.25876388572915" lon="11.260625009667152" id="-34261">
		<tag k="name" v="Vargdalen" />
		<tag k="natural" v="valley" />
		<tag k="place" v="locality" />
		<tag k="ssr:stedsnr" v="763998" />
	</node>
	<node lat="63.29544444439894" lon="10.893836102100519" id="-34265">
		<tag k="name" v="Lushaugen" />
		<tag k="natural" v="hill" />
		<tag k="place" v="locality" />
		<tag k="ssr:stedsnr" v="764253" />
	</node>
	<node lat="63.28296110961583" lon="10.893641661469315" id="-34266">
		<tag k="name" v="Haukåøyan" />
		<tag k="place" v="locality" />
		<tag k="ssr:stedsnr" v="764256" />
	</node>
	<node lat="63.20877777403757" lon="10.837108333848837" id="-34272">
		<tag k="name" v="Brennåshøgda" />
		<tag k="natural" v="hill" />
		<tag k="place" v="locality" />
		<tag k="ssr:stedsnr" v="765109" />
	</node>
	<node lat="63.20238888719203" lon="11.258344445097224" id="-34273">
		<tag k="fixme" v="consider natural=peak for the most distinct mountains in the district" />
		<tag k="name" v="Gravåsan" />
		<tag k="natural" v="hill" />
		<tag k="place" v="locality" />
		<tag k="ssr:stedsnr" v="765302" />
	</node>
	<node lat="63.10570555220884" lon="11.241758326573024" id="-34276">
		<tag k="fixme" v="consider natural=peak for the most distinct mountains in the district" />
		<tag k="name" v="Våggåskjelet" />
		<tag k="natural" v="hill" />
		<tag k="place" v="locality" />
		<tag k="ssr:stedsnr" v="765420" />
	</node>
	<node lat="63.134977778559495" lon="11.101208328416934" id="-34279">
		<tag k="name" v="Raskgråndalen" />
		<tag k="natural" v="valley" />
		<tag k="place" v="locality" />
		<tag k="ssr:stedsnr" v="765306" />
	</node>
	<node lat="63.09239722024959" lon="11.232927773036735" id="-34283">
		<tag k="name" v="Fagerbakkan" />
		<tag k="natural" v="slope" />
		<tag k="place" v="locality" />
		<tag k="ssr:stedsnr" v="765362" />
	</node>
	<node lat="63.22585555785473" lon="10.803486114084983" id="-34287">
		<tag k="name" v="Korsdalen" />
		<tag k="natural" v="valley" />
		<tag k="place" v="locality" />
		<tag k="ssr:stedsnr" v="765395" />
	</node>
	<node lat="63.189177780699374" lon="11.425622220269103" id="-34290">
		<tag k="name" v="Rishaugen" />
		<tag k="natural" v="hill" />
		<tag k="place" v="locality" />
		<tag k="ssr:stedsnr" v="765604" />
	</node>
	<node lat="63.17913610797708" lon="10.865808339731993" id="-34294">
		<tag k="name" v="Pallan" />
		<tag k="natural" v="hill" />
		<tag k="place" v="locality" />
		<tag k="ssr:stedsnr" v="766107" />
	</node>
	<node lat="63.180780554548456" lon="11.630608339216279" id="-34303">
		<tag k="fixme" v="consider natural=peak for the most distinct mountains in the district" />
		<tag k="name" v="Fongen - Lopmesvaerie" />
		<tag k="name:no" v="Fongen" />
		<tag k="name:sma" v="Lopmesvaerie" />
		<tag k="natural" v="hill" />
		<tag k="place" v="locality" />
		<tag k="ssr:stedsnr" v="801226" />
	</node>
	<node lat="63.22022777846742" lon="11.398255554821908" id="-34309">
		<tag k="fixme" v="consider natural=peak for the most distinct mountains in the district" />
		<tag k="name" v="Vargfjellet" />
		<tag k="natural" v="hill" />
		<tag k="place" v="locality" />
		<tag k="ssr:stedsnr" v="801177" />
	</node>
	<node lat="63.30688055368318" lon="11.256227775770633" id="-34310">
		<tag k="fixme" v="consider natural=peak for the most distinct mountains in the district" />
		<tag k="name" v="Langåsen" />
		<tag k="natural" v="hill" />
		<tag k="place" v="locality" />
		<tag k="ssr:stedsnr" v="802106" />
	</node>
	<node lat="63.26478055235018" lon="10.907855563605365" id="-34316">
		<tag k="fixme" v="consider natural=peak for the most distinct mountains in the district" />
		<tag k="name" v="Storbrennan" />
		<tag k="natural" v="hill" />
		<tag k="place" v="locality" />
		<tag k="ssr:stedsnr" v="802374" />
	</node>
	<node lat="63.16911111452896" lon="11.405136120880746" id="-34319">
		<tag k="fixme" v="consider natural=peak for the most distinct mountains in the district" />
		<tag k="name" v="Gammelvollåsen" />
		<tag k="natural" v="hill" />
		<tag k="place" v="locality" />
		<tag k="ssr:stedsnr" v="809206" />
	</node>
	<node lat="63.18900833115804" lon="11.396847217122742" id="-34320">
		<tag k="name" v="Floene" />
		<tag k="natural" v="hill" />
		<tag k="place" v="locality" />
		<tag k="ssr:stedsnr" v="809195" />
	</node>
	<node lat="63.291491667625436" lon="10.634427770995368" id="-34323">
		<tag k="name" v="Gammelvollhaugen" />
		<tag k="natural" v="hill" />
		<tag k="place" v="locality" />
		<tag k="ssr:stedsnr" v="823473" />
	</node>
	<node lat="63.2780805574365" lon="10.988666669241328" id="-34324">
		<tag k="name" v="Kjellan" />
		<tag k="natural" v="hill" />
		<tag k="place" v="locality" />
		<tag k="ssr:stedsnr" v="823620" />
	</node>
	<node lat="63.215625001039065" lon="11.319002773327783" id="-34325">
		<tag k="name" v="Langfonna" />
		<tag k="natural" v="slope" />
		<tag k="place" v="locality" />
		<tag k="ssr:stedsnr" v="823622" />
	</node>
	<node lat="63.28685833608552" lon="10.6464194492262" id="-34327">
		<tag k="fixme" v="consider natural=peak for the most distinct mountains in the district" />
		<tag k="name" v="Slættmyråsan" />
		<tag k="natural" v="hill" />
		<tag k="place" v="locality" />
		<tag k="ssr:stedsnr" v="823511" />
	</node>
	<node lat="63.19768889158626" lon="11.17551944788119" id="-34332">
		<tag k="fixme" v="consider natural=peak for the most distinct mountains in the district" />
		<tag k="name" v="Høgåsen" />
		<tag k="natural" v="hill" />
		<tag k="place" v="locality" />
		<tag k="ssr:stedsnr" v="824004" />
	</node>
	<node lat="63.15403333451191" lon="11.08710832619594" id="-34334">
		<tag k="name" v="Bønndalen" />
		<tag k="natural" v="valley" />
		<tag k="place" v="locality" />
		<tag k="ssr:stedsnr" v="823763" />
	</node>
	<node lat="63.10152499724449" lon="11.209752780297535" id="-34335">
		<tag k="fixme" v="consider natural=peak for the most distinct mountains in the district" />
		<tag k="name" v="Vordfjellet" />
		<tag k="natural" v="hill" />
		<tag k="place" v="locality" />
		<tag k="ssr:stedsnr" v="823770" />
	</node>
	<node lat="63.14011666724974" lon="11.037049992941837" id="-34336">
		<tag k="fixme" v="consider natural=peak for the most distinct mountains in the district" />
		<tag k="name" v="Villkåsan" />
		<tag k="natural" v="hill" />
		<tag k="place" v="locality" />
		<tag k="ssr:stedsnr" v="824337" />
	</node>
	<node lat="63.0669388851625" lon="11.239199999926452" id="-34345">
		<tag k="fixme" v="consider natural=peak for the most distinct mountains in the district" />
		<tag k="name" v="Heståsen" />
		<tag k="natural" v="hill" />
		<tag k="place" v="locality" />
		<tag k="ssr:stedsnr" v="824924" />
	</node>
	<node lat="63.24973610708019" lon="11.244013890249294" id="-34350">
		<tag k="name" v="Berget" />
		<tag k="natural" v="hill" />
		<tag k="place" v="locality" />
		<tag k="ssr:stedsnr" v="824982" />
	</node>
	<node lat="63.0738166676007" lon="11.044202785225162" id="-34355">
		<tag k="name" v="Gammelvollbjørga" />
		<tag k="natural" v="ridge" />
		<tag k="place" v="locality" />
		<tag k="ssr:stedsnr" v="825285" />
	</node>
	<node lat="63.12121111351441" lon="10.847680565206433" id="-34356">
		<tag k="name" v="Smålian" />
		<tag k="natural" v="slope" />
		<tag k="place" v="locality" />
		<tag k="ssr:stedsnr" v="825406" />
	</node>
	<node lat="63.229263892226754" lon="10.802002769615179" id="-34368">
		<tag k="fixme" v="consider natural=peak for the most distinct mountains in the district" />
		<tag k="name" v="Kringslættåsen" />
		<tag k="natural" v="hill" />
		<tag k="place" v="locality" />
		<tag k="ssr:stedsnr" v="826411" />
	</node>
	<node lat="63.328047217946725" lon="11.01522499061966" id="-34369">
		<tag k="name" v="Hestdalen" />
		<tag k="natural" v="valley" />
		<tag k="place" v="locality" />
		<tag k="ssr:stedsnr" v="826412" />
	</node>
	<node lat="63.198522222292574" lon="10.838997225279353" id="-34370">
		<tag k="name" v="Borggardshaugan" />
		<tag k="natural" v="hill" />
		<tag k="place" v="locality" />
		<tag k="ssr:stedsnr" v="826419" />
	</node>
	<node lat="63.31575555402339" lon="10.964122231507087" id="-34371">
		<tag k="fixme" v="consider natural=peak for the most distinct mountains in the district" />
		<tag k="name" v="Storkjølen" />
		<tag k="natural" v="hill" />
		<tag k="place" v="locality" />
		<tag k="ssr:stedsnr" v="826422" />
	</node>
	<node lat="63.07002499880975" lon="11.251819439085804" id="-34381">
		<tag k="name" v="Lia" />
		<tag k="natural" v="slope" />
		<tag k="place" v="locality" />
		<tag k="ssr:stedsnr" v="826386" />
	</node>
	<node lat="63.20935833338539" lon="10.746547231456768" id="-34388">
		<tag k="fixme" v="consider natural=peak for the most distinct mountains in the district" />
		<tag k="name" v="Rundfjellet" />
		<tag k="natural" v="hill" />
		<tag k="place" v="locality" />
		<tag k="ssr:stedsnr" v="922045" />
	</node>
	<node lat="63.030327777557346" lon="11.19009444437682" id="-34391">
		<tag k="name" v="Garddalen" />
		<tag k="natural" v="valley" />
		<tag k="place" v="locality" />
		<tag k="ssr:stedsnr" v="922152" />
	</node>
	<node lat="63.25277500250849" lon="10.908102786928842" id="-34395">
		<tag k="name" v="Nygarden" />
		<tag k="natural" v="hill" />
		<tag k="place" v="locality" />
		<tag k="ssr:stedsnr" v="827169" />
	</node>
	<node lat="63.08305555792415" lon="10.914280555585352" id="-34396">
		<tag k="name" v="Fiskhuskjølan" />
		<tag k="place" v="locality" />
		<tag k="ssr:stedsnr" v="827179" />
	</node>
	<node lat="63.1795222198867" lon="11.019538885603872" id="-34400">
		<tag k="name" v="Kvennhusdalen" />
		<tag k="natural" v="valley" />
		<tag k="place" v="locality" />
		<tag k="ssr:stedsnr" v="827322" />
	</node>
	<node lat="63.22255277653819" lon="11.12211111712206" id="-34401">
		<tag k="fixme" v="consider natural=peak for the most distinct mountains in the district" />
		<tag k="name" v="Brennmyråsen" />
		<tag k="natural" v="hill" />
		<tag k="place" v="locality" />
		<tag k="ssr:stedsnr" v="923068" />
	</node>
	<node lat="63.26783888716921" lon="11.24131387993081" id="-34402">
		<tag k="name" v="Liahøgda" />
		<tag k="natural" v="hill" />
		<tag k="place" v="locality" />
		<tag k="ssr:stedsnr" v="923100" />
	</node>
	<node lat="63.25675833009687" lon="10.678008332686902" id="-34407">
		<tag k="fixme" v="consider natural=peak for the most distinct mountains in the district" />
		<tag k="name" v="Haldokneppkjølen" />
		<tag k="natural" v="hill" />
		<tag k="place" v="locality" />
		<tag k="ssr:stedsnr" v="923236" />
	</node>
	<node lat="63.27938333076205" lon="10.792933338553828" id="-34408">
		<tag k="fixme" v="consider natural=peak for the most distinct mountains in the district" />
		<tag k="name" v="Litjfjellet" />
		<tag k="natural" v="hill" />
		<tag k="place" v="locality" />
		<tag k="ssr:stedsnr" v="923324" />
	</node>
	<node lat="63.25874444484094" lon="10.898013880161233" id="-34414">
		<tag k="name" v="Lauvlia" />
		<tag k="natural" v="slope" />
		<tag k="place" v="locality" />
		<tag k="ssr:stedsnr" v="923398" />
	</node>
	<node lat="63.3213472230274" lon="11.108877770668157" id="-34417">
		<tag k="name" v="Tømmervollhøgda" />
		<tag k="natural" v="hill" />
		<tag k="place" v="locality" />
		<tag k="ssr:stedsnr" v="923407" />
	</node>
	<node lat="63.279392019348606" lon="10.693613435800387" id="-34420">
		<tag k="fixme" v="consider natural=peak for the most distinct mountains in the district" />
		<tag k="name" v="Hegglifjellet" />
		<tag k="natural" v="hill" />
		<tag k="place" v="locality" />
		<tag k="ssr:stedsnr" v="923816" />
	</node>
	<node lat="63.13322500408102" lon="10.968311106054218" id="-34424">
		<tag k="name" v="Julskardet" />
		<tag k="natural" v="valley" />
		<tag k="place" v="locality" />
		<tag k="ssr:stedsnr" v="862112" />
	</node>
	<node lat="63.31589999655227" lon="11.321186105255196" id="-34432">
		<tag k="fixme" v="consider natural=peak for the most distinct mountains in the district" />
		<tag k="name" v="Grønfjellet" />
		<tag k="natural" v="hill" />
		<tag k="place" v="locality" />
		<tag k="ssr:stedsnr" v="862206" />
	</node>
	<node lat="63.218900001513624" lon="11.51479444596236" id="-34433">
		<tag k="fixme" v="consider natural=peak for the most distinct mountains in the district" />
		<tag k="name" v="Stormoknippene" />
		<tag k="natural" v="hill" />
		<tag k="place" v="locality" />
		<tag k="ssr:stedsnr" v="862221" />
	</node>
	<node lat="63.064808337196226" lon="11.305461103720328" id="-34444">
		<tag k="name" v="Brotta" />
		<tag k="natural" v="hill" />
		<tag k="place" v="locality" />
		<tag k="ssr:stedsnr" v="931182" />
	</node>
	<node lat="63.16883610886451" lon="11.313724993078" id="-34445">
		<tag k="fixme" v="consider natural=peak for the most distinct mountains in the district" />
		<tag k="name" v="Roltbjørga" />
		<tag k="natural" v="hill" />
		<tag k="place" v="locality" />
		<tag k="ssr:stedsnr" v="931189" />
	</node>
	<node lat="63.192652779753836" lon="11.228144450313295" id="-34450">
		<tag k="name" v="Litjdalen" />
		<tag k="natural" v="valley" />
		<tag k="place" v="locality" />
		<tag k="ssr:stedsnr" v="931204" />
	</node>
	<node lat="63.18398333336224" lon="11.428236103103245" id="-34451">
		<tag k="name" v="Evjknippen" />
		<tag k="natural" v="hill" />
		<tag k="place" v="locality" />
		<tag k="ssr:stedsnr" v="931214" />
	</node>
	<node lat="63.10341388894393" lon="11.304911113534184" id="-34456">
		<tag k="name" v="Nonshaugen" />
		<tag k="natural" v="hill" />
		<tag k="place" v="locality" />
		<tag k="ssr:stedsnr" v="884548" />
	</node>
	<node lat="63.24866110671521" lon="11.263013896320084" id="-34459">
		<tag k="fixme" v="consider natural=peak for the most distinct mountains in the district" />
		<tag k="name" v="Kneppåsen" />
		<tag k="natural" v="hill" />
		<tag k="place" v="locality" />
		<tag k="ssr:stedsnr" v="884556" />
	</node>
	<node lat="63.209358328882644" lon="11.175550000302932" id="-34460">
		<tag k="fixme" v="consider natural=peak for the most distinct mountains in the district" />
		<tag k="name" v="Seljåsen" />
		<tag k="natural" v="hill" />
		<tag k="place" v="locality" />
		<tag k="ssr:stedsnr" v="884559" />
	</node>
	<node lat="63.252191670505844" lon="11.122952772808059" id="-34461">
		<tag k="name" v="Aunskaret" />
		<tag k="natural" v="valley" />
		<tag k="place" v="locality" />
		<tag k="ssr:stedsnr" v="884565" />
	</node>
	<node lat="63.20147777962287" lon="11.321047220981587" id="-34466">
		<tag k="name" v="Vassdalen" />
		<tag k="natural" v="valley" />
		<tag k="place" v="locality" />
		<tag k="ssr:stedsnr" v="884646" />
	</node>
	<node lat="63.196697221451075" lon="11.284775006842219" id="-34467">
		<tag k="fixme" v="consider natural=peak for the most distinct mountains in the district" />
		<tag k="name" v="Seiengryan" />
		<tag k="natural" v="hill" />
		<tag k="place" v="locality" />
		<tag k="ssr:stedsnr" v="884655" />
	</node>
	<node lat="63.323305558311844" lon="11.206630565711386" id="-34472">
		<tag k="name" v="Vargholet" />
		<tag k="natural" v="valley" />
		<tag k="place" v="locality" />
		<tag k="ssr:stedsnr" v="884860" />
	</node>
	<node lat="63.15610278128108" lon="11.50908889457386" id="-34473">
		<tag k="name" v="Vælskardet" />
		<tag k="natural" v="valley" />
		<tag k="place" v="locality" />
		<tag k="ssr:stedsnr" v="884861" />
	</node>
	<node lat="63.15946666590725" lon="11.140136104870367" id="-34475">
		<tag k="name" v="Litjseterdalen" />
		<tag k="natural" v="valley" />
		<tag k="place" v="locality" />
		<tag k="ssr:stedsnr" v="885013" />
	</node>
	<node lat="63.29073610780614" lon="11.247427775738196" id="-34476">
		<tag k="name" v="Koppergruvdalen" />
		<tag k="natural" v="valley" />
		<tag k="place" v="locality" />
		<tag k="ssr:stedsnr" v="885107" />
	</node>
	<node lat="63.28108055113101" lon="10.978286120107537" id="-34478">
		<tag k="name" v="Dambakkan" />
		<tag k="natural" v="slope" />
		<tag k="place" v="locality" />
		<tag k="ssr:stedsnr" v="885199" />
	</node>
	<node lat="63.314249997600605" lon="11.197552773584725" id="-34487">
		<tag k="name" v="Kudalen" />
		<tag k="natural" v="valley" />
		<tag k="place" v="locality" />
		<tag k="ssr:stedsnr" v="885746" />
	</node>
	<node lat="63.197366666673524" lon="11.264480559518717" id="-34493">
		<tag k="fixme" v="consider natural=peak for the most distinct mountains in the district" />
		<tag k="name" v="Svartåsen" />
		<tag k="natural" v="hill" />
		<tag k="place" v="locality" />
		<tag k="ssr:stedsnr" v="885956" />
	</node>
	<node lat="63.31018333636259" lon="10.971363898297906" id="-34496">
		<tag k="fixme" v="consider natural=peak for the most distinct mountains in the district" />
		<tag k="name" v="Høgfjellet" />
		<tag k="natural" v="hill" />
		<tag k="place" v="locality" />
		<tag k="ssr:stedsnr" v="886330" />
	</node>
	<node lat="63.285280553744045" lon="10.723097215869743" id="-34498">
		<tag k="fixme" v="consider natural=peak for the most distinct mountains in the district" />
		<tag k="name" v="Bringshåmmåren" />
		<tag k="natural" v="hill" />
		<tag k="place" v="locality" />
		<tag k="ssr:stedsnr" v="886397" />
	</node>
	<node lat="63.22271110978382" lon="10.866113890744767" id="-34500">
		<tag k="name" v="Hallvardsdalen" />
		<tag k="natural" v="valley" />
		<tag k="place" v="locality" />
		<tag k="ssr:stedsnr" v="886261" />
	</node>
	<node lat="63.075888886137754" lon="10.947383327699576" id="-34502">
		<tag k="name" v="Råvolløyan" />
		<tag k="natural" v="slope" />
		<tag k="place" v="locality" />
		<tag k="ssr:stedsnr" v="886424" />
	</node>
	<node lat="63.209994440037576" lon="11.246825001617918" id="-34506">
		<tag k="name" v="Åtollen" />
		<tag k="place" v="locality" />
		<tag k="ssr:stedsnr" v="886463" />
	</node>
	<node lat="63.259877774210935" lon="10.8558083294489" id="-34510">
		<tag k="name" v="Øver Bjørgdalen" />
		<tag k="natural" v="valley" />
		<tag k="place" v="locality" />
		<tag k="ssr:stedsnr" v="887147" />
	</node>
	<node lat="63.26315833204874" lon="10.910497213185815" id="-34514">
		<tag k="fixme" v="consider natural=peak for the most distinct mountains in the district" />
		<tag k="name" v="Storbrennpynten" />
		<tag k="natural" v="hill" />
		<tag k="place" v="locality" />
		<tag k="ssr:stedsnr" v="887209" />
	</node>
	<node lat="63.23042222325166" lon="11.089133325796432" id="-34516">
		<tag k="fixme" v="consider natural=peak for the most distinct mountains in the district" />
		<tag k="name" v="Bårsetåsen" />
		<tag k="natural" v="hill" />
		<tag k="place" v="locality" />
		<tag k="ssr:stedsnr" v="887247" />
	</node>
	<node lat="63.13896110870037" lon="11.2633222280124" id="-34517">
		<tag k="name" v="Buåsdalen" />
		<tag k="natural" v="valley" />
		<tag k="place" v="locality" />
		<tag k="ssr:stedsnr" v="887256" />
	</node>
	<node lat="63.15166944407636" lon="10.918277786797578" id="-34519">
		<tag k="fixme" v="consider natural=peak for the most distinct mountains in the district" />
		<tag k="name" v="Damåsen" />
		<tag k="natural" v="hill" />
		<tag k="place" v="locality" />
		<tag k="ssr:stedsnr" v="887310" />
	</node>
	<node lat="63.30594721797974" lon="11.015922227400251" id="-34520">
		<tag k="name" v="Brålia" />
		<tag k="natural" v="slope" />
		<tag k="place" v="locality" />
		<tag k="ssr:stedsnr" v="887350" />
	</node>
	<node lat="63.218230553029144" lon="11.245772217649183" id="-34522">
		<tag k="fixme" v="consider natural=peak for the most distinct mountains in the district" />
		<tag k="name" v="Røssetvorda" />
		<tag k="natural" v="hill" />
		<tag k="place" v="locality" />
		<tag k="ssr:stedsnr" v="887353" />
	</node>
	<node lat="63.31232222322442" lon="10.986383325493831" id="-34523">
		<tag k="name" v="Rundhaugen" />
		<tag k="natural" v="hill" />
		<tag k="place" v="locality" />
		<tag k="ssr:stedsnr" v="887506" />
	</node>
	<node lat="63.29078611419107" lon="10.943336114254398" id="-34536">
		<tag k="fixme" v="consider natural=peak for the most distinct mountains in the district" />
		<tag k="name" v="Blåfjellet" />
		<tag k="natural" v="hill" />
		<tag k="place" v="locality" />
		<tag k="ssr:stedsnr" v="888162" />
	</node>
	<node lat="63.20823889143656" lon="10.870102771345563" id="-34537">
		<tag k="name" v="Vassdalen" />
		<tag k="natural" v="valley" />
		<tag k="place" v="locality" />
		<tag k="ssr:stedsnr" v="888205" />
	</node>
	<node lat="63.0594888885312" lon="11.095030548483367" id="-34550">
		<tag k="fixme" v="consider natural=peak for the most distinct mountains in the district" />
		<tag k="name" v="Elendfjellet" />
		<tag k="natural" v="hill" />
		<tag k="place" v="locality" />
		<tag k="ssr:stedsnr" v="922174" />
	</node>
	<node lat="63.06991111153665" lon="11.059775006618667" id="-34571">
		<tag k="name" v="Brattlitoppen" />
		<tag k="natural" v="hill" />
		<tag k="place" v="locality" />
		<tag k="ssr:stedsnr" v="944829" />
	</node>
	<node lat="63.2819527811485" lon="10.689466660186122" id="-34581">
		<tag k="name" v="Litjliberget" />
		<tag k="natural" v="hill" />
		<tag k="place" v="locality" />
		<tag k="ssr:stedsnr" v="945440" />
	</node>
	<node lat="63.27997500305225" lon="11.142816670820697" id="-34586">
		<tag k="name" v="Alsethaugan" />
		<tag k="natural" v="hill" />
		<tag k="place" v="locality" />
		<tag k="ssr:stedsnr" v="945588" />
	</node>
	<node lat="63.229233331637715" lon="10.69464445228117" id="-34590">
		<tag k="name" v="Vassdalen" />
		<tag k="natural" v="valley" />
		<tag k="place" v="locality" />
		<tag k="ssr:stedsnr" v="945488" />
	</node>
	<node lat="63.320627779829074" lon="11.19343054618682" id="-34595">
		<tag k="name" v="Bjørndalen" />
		<tag k="natural" v="valley" />
		<tag k="place" v="locality" />
		<tag k="ssr:stedsnr" v="946098" />
	</node>
	<node lat="63.07002222077735" lon="11.206988887901081" id="-34596">
		<tag k="name" v="Gråstengan" />
		<tag k="natural" v="slope" />
		<tag k="place" v="locality" />
		<tag k="ssr:stedsnr" v="946188" />
	</node>
	<node lat="63.27305555356721" lon="10.769530561915838" id="-34601">
		<tag k="fixme" v="consider natural=peak for the most distinct mountains in the district" />
		<tag k="name" v="Erikbjørga" />
		<tag k="natural" v="hill" />
		<tag k="place" v="locality" />
		<tag k="ssr:stedsnr" v="947086" />
	</node>
	<node lat="63.301277776141745" lon="10.961663884135001" id="-34602">
		<tag k="name" v="Gåstjenndalen" />
		<tag k="natural" v="valley" />
		<tag k="place" v="locality" />
		<tag k="ssr:stedsnr" v="947280" />
	</node>
	<node lat="63.175641666327294" lon="10.881147212421675" id="-34604">
		<tag k="fixme" v="consider natural=peak for the most distinct mountains in the district" />
		<tag k="name" v="Kjøsnesåsen" />
		<tag k="natural" v="hill" />
		<tag k="place" v="locality" />
		<tag k="ssr:stedsnr" v="947445" />
	</node>
	<node lat="63.20420833596028" lon="10.866216657524626" id="-34606">
		<tag k="fixme" v="consider natural=peak for the most distinct mountains in the district" />
		<tag k="name" v="Stormyråsen" />
		<tag k="natural" v="hill" />
		<tag k="place" v="locality" />
		<tag k="ssr:stedsnr" v="947465" />
	</node>
	<node lat="63.18944166376121" lon="11.071900005263293" id="-34608">
		<tag k="name" v="Storbekkdalen" />
		<tag k="natural" v="valley" />
		<tag k="place" v="locality" />
		<tag k="ssr:stedsnr" v="947200" />
	</node>
	<node lat="63.27927222479115" lon="10.940663888258587" id="-34609">
		<tag k="name" v="Gråsjøbakkan" />
		<tag k="natural" v="slope" />
		<tag k="place" v="locality" />
		<tag k="ssr:stedsnr" v="947305" />
	</node>
	<node lat="63.16311388925768" lon="10.855277769473197" id="-34622">
		<tag k="name" v="Rensjølia" />
		<tag k="natural" v="slope" />
		<tag k="place" v="locality" />
		<tag k="ssr:stedsnr" v="948203" />
	</node>
	<node lat="63.20070000362397" lon="10.968013896204493" id="-34624">
		<tag k="name" v="Kongsdalen" />
		<tag k="natural" v="valley" />
		<tag k="place" v="locality" />
		<tag k="ssr:stedsnr" v="948225" />
	</node>
	<node lat="63.29290555257567" lon="10.968177777620005" id="-34625">
		<tag k="name" v="Storskardet" />
		<tag k="natural" v="valley" />
		<tag k="place" v="locality" />
		<tag k="ssr:stedsnr" v="948236" />
	</node>
	<node lat="63.16834444556692" lon="11.260108339364823" id="-34630">
		<tag k="name" v="Hesjedalen" />
		<tag k="natural" v="valley" />
		<tag k="place" v="locality" />
		<tag k="ssr:stedsnr" v="948282" />
	</node>
	<node lat="63.124763885460595" lon="11.24482499426715" id="-34632">
		<tag k="name" v="Litjpåldalen" />
		<tag k="natural" v="valley" />
		<tag k="place" v="locality" />
		<tag k="ssr:stedsnr" v="948484" />
	</node>
	<node lat="63.31161851214251" lon="10.925544218267648" id="-34638">
		<tag k="fixme" v="consider natural=peak for the most distinct mountains in the district" />
		<tag k="name" v="Baklifjellet" />
		<tag k="natural" v="hill" />
		<tag k="place" v="locality" />
		<tag k="ssr:stedsnr" v="977782" />
	</node>
	<node lat="63.30888454168745" lon="10.919952057161487" id="-34639">
		<tag k="fixme" v="consider natural=peak for the most distinct mountains in the district" />
		<tag k="name" v="Storlifjellet" />
		<tag k="natural" v="hill" />
		<tag k="place" v="locality" />
		<tag k="ssr:stedsnr" v="977785" />
	</node>
	<node lat="63.13186389040195" lon="11.351294442859068" id="-34644">
		<tag k="name" v="Bangsetlia" />
		<tag k="natural" v="slope" />
		<tag k="place" v="locality" />
		<tag k="ssr:stedsnr" v="12248" />
	</node>
	<node lat="63.01496666390655" lon="11.272947217712732" id="-34657">
		<tag k="fixme" v="consider natural=peak for the most distinct mountains in the district" />
		<tag k="name" v="Bukkhåmmårfjellet" />
		<tag k="natural" v="hill" />
		<tag k="place" v="locality" />
		<tag k="ssr:stedsnr" v="12355" />
	</node>
	<node lat="63.233580556570814" lon="10.711122228994672" id="-34658">
		<tag k="fixme" v="consider natural=peak for the most distinct mountains in the district" />
		<tag k="name" v="Okstadåsfjellet" />
		<tag k="natural" v="hill" />
		<tag k="old_name" v="Okståsfjellet" />
		<tag k="place" v="locality" />
		<tag k="ssr:stedsnr" v="12725" />
	</node>
	<node lat="63.314080558647504" lon="11.441844444773148" id="-34660">
		<tag k="fixme" v="consider natural=peak for the most distinct mountains in the district" />
		<tag k="name" v="Skarvan - Tjohkeleh" />
		<tag k="name:no" v="Skarvan" />
		<tag k="name:sma" v="Tjohkeleh" />
		<tag k="natural" v="hill" />
		<tag k="place" v="locality" />
		<tag k="ssr:stedsnr" v="13086" />
	</node>
	<node lat="63.16916523309412" lon="11.294402840102839" id="-34675">
		<tag k="name" v="Styggdalen" />
		<tag k="natural" v="valley" />
		<tag k="place" v="locality" />
		<tag k="ssr:stedsnr" v="20194" />
	</node>
	<node lat="63.19442222269483" lon="11.395308332307172" id="-34678">
		<tag k="name" v="Nerfjellet" />
		<tag k="natural" v="hill" />
		<tag k="place" v="locality" />
		<tag k="ssr:stedsnr" v="21222" />
	</node>
	<node lat="63.31596388896722" lon="11.429352782536963" id="-34681">
		<tag k="name" v="Skarvsalen" />
		<tag k="natural" v="valley" />
		<tag k="place" v="locality" />
		<tag k="ssr:stedsnr" v="21361" />
	</node>
	<node lat="63.216600004144546" lon="11.214852769849346" id="-34684">
		<tag k="fixme" v="consider natural=peak for the most distinct mountains in the district" />
		<tag k="name" v="Pålåsen" />
		<tag k="natural" v="hill" />
		<tag k="place" v="locality" />
		<tag k="ssr:stedsnr" v="34050" />
	</node>
	<node lat="63.317011113004185" lon="11.18681945112027" id="-34687">
		<tag k="name" v="Hukollen" />
		<tag k="natural" v="hill" />
		<tag k="place" v="locality" />
		<tag k="ssr:stedsnr" v="35088" />
	</node>
	<node lat="63.20816111080675" lon="11.01046944547332" id="-34692">
		<tag k="name" v="Stormoen" />
		<tag k="place" v="locality" />
		<tag k="ssr:stedsnr" v="35152" />
	</node>
	<node lat="63.276899995926755" lon="10.696352774482438" id="-34693">
		<tag k="name" v="Hegglioddberget" />
		<tag k="natural" v="hill" />
		<tag k="place" v="locality" />
		<tag k="ssr:stedsnr" v="34465" />
	</node>
	<node lat="63.08998888994876" lon="11.326205554037157" id="-34701">
		<tag k="fixme" v="consider natural=peak for the most distinct mountains in the district" />
		<tag k="name" v="Evsjøåsan" />
		<tag k="natural" v="hill" />
		<tag k="place" v="locality" />
		<tag k="ssr:stedsnr" v="34542" />
	</node>
	<node lat="63.244941669693645" lon="11.12532500704926" id="-34702">
		<tag k="fixme" v="consider natural=peak for the most distinct mountains in the district" />
		<tag k="name" v="Hestmyråsen" />
		<tag k="natural" v="hill" />
		<tag k="place" v="locality" />
		<tag k="ssr:stedsnr" v="34615" />
	</node>
	<node lat="63.26450555718744" lon="11.281541662025203" id="-34703">
		<tag k="name" v="Stordalen" />
		<tag k="natural" v="valley" />
		<tag k="place" v="locality" />
		<tag k="ssr:stedsnr" v="34621" />
	</node>
	<node lat="63.33790555954587" lon="11.17732222035978" id="-34704">
		<tag k="name" v="Berget" />
		<tag k="natural" v="hill" />
		<tag k="place" v="locality" />
		<tag k="ssr:stedsnr" v="34637" />
	</node>
	<node lat="63.203841665125076" lon="11.119744447286646" id="-34705">
		<tag k="name" v="Litjevjbakken" />
		<tag k="natural" v="slope" />
		<tag k="place" v="locality" />
		<tag k="ssr:stedsnr" v="34640" />
	</node>
	<node lat="63.28435278017284" lon="11.107747214068725" id="-34708">
		<tag k="name" v="Kvitberget" />
		<tag k="natural" v="hill" />
		<tag k="place" v="locality" />
		<tag k="ssr:stedsnr" v="34603" />
	</node>
	<node lat="63.2895722223449" lon="11.1313472315552" id="-34709">
		<tag k="name" v="Tjørnberga" />
		<tag k="natural" v="hill" />
		<tag k="place" v="locality" />
		<tag k="ssr:stedsnr" v="34604" />
	</node>
	<node lat="63.225747223860964" lon="11.157438884726638" id="-34711">
		<tag k="name" v="Kyllorenan" />
		<tag k="natural" v="slope" />
		<tag k="place" v="locality" />
		<tag k="ssr:stedsnr" v="34663" />
	</node>
	<node lat="63.235144444166174" lon="11.109719447224036" id="-34713">
		<tag k="name" v="Duggurdshaugen" />
		<tag k="natural" v="hill" />
		<tag k="place" v="locality" />
		<tag k="ssr:stedsnr" v="34666" />
	</node>
	<node lat="63.21114166337607" lon="11.306286105781705" id="-34714">
		<tag k="name" v="Pellihøken" />
		<tag k="natural" v="hill" />
		<tag k="place" v="locality" />
		<tag k="ssr:stedsnr" v="34669" />
	</node>
	<node lat="63.214044447087325" lon="11.306588895698134" id="-34715">
		<tag k="name" v="Geitdalen" />
		<tag k="natural" v="valley" />
		<tag k="place" v="locality" />
		<tag k="ssr:stedsnr" v="34671" />
	</node>
	<node lat="63.232183330939456" lon="11.1524388869342" id="-34717">
		<tag k="name" v="Bergslåtthøgda" />
		<tag k="natural" v="hill" />
		<tag k="place" v="locality" />
		<tag k="ssr:stedsnr" v="34682" />
	</node>
	<node lat="63.09228055673377" lon="11.07294444492304" id="-34720">
		<tag k="name" v="Rusklia" />
		<tag k="natural" v="slope" />
		<tag k="place" v="locality" />
		<tag k="ssr:stedsnr" v="34782" />
	</node>
	<node lat="63.21794722195306" lon="11.30429167381482" id="-34722">
		<tag k="name" v="Kneppa" />
		<tag k="natural" v="slope" />
		<tag k="place" v="locality" />
		<tag k="ssr:stedsnr" v="34657" />
	</node>
	<node lat="63.31410000090932" lon="11.25727223141944" id="-34724">
		<tag k="name" v="Rødalen" />
		<tag k="natural" v="valley" />
		<tag k="place" v="locality" />
		<tag k="ssr:stedsnr" v="34734" />
	</node>
	<node lat="63.17187222296323" lon="11.19323055303158" id="-34725">
		<tag k="fixme" v="consider natural=peak for the most distinct mountains in the district" />
		<tag k="name" v="Storbakkåsan" />
		<tag k="natural" v="hill" />
		<tag k="place" v="locality" />
		<tag k="ssr:stedsnr" v="34740" />
	</node>
	<node lat="63.162300003227855" lon="11.168097228561068" id="-34727">
		<tag k="name" v="Blomlia" />
		<tag k="natural" v="slope" />
		<tag k="place" v="locality" />
		<tag k="ssr:stedsnr" v="34757" />
	</node>
	<node lat="63.32487221860196" lon="11.222519442174084" id="-34729">
		<tag k="name" v="Holmkroken" />
		<tag k="place" v="locality" />
		<tag k="ssr:stedsnr" v="34855" />
	</node>
	<node lat="63.32570833254103" lon="11.206694438839236" id="-34730">
		<tag k="name" v="Vassdalen" />
		<tag k="natural" v="valley" />
		<tag k="place" v="locality" />
		<tag k="ssr:stedsnr" v="34856" />
	</node>
	<node lat="63.23158333111771" lon="11.095947226651758" id="-34735">
		<tag k="name" v="Spongdalen" />
		<tag k="natural" v="valley" />
		<tag k="place" v="locality" />
		<tag k="ssr:stedsnr" v="35155" />
	</node>
	<node lat="63.079744441810305" lon="10.928899994783235" id="-34736">
		<tag k="name" v="Vassdalen" />
		<tag k="natural" v="valley" />
		<tag k="place" v="locality" />
		<tag k="ssr:stedsnr" v="36370" />
	</node>
	<node lat="63.21748332940819" lon="11.261986106670946" id="-34742">
		<tag k="name" v="Budalen" />
		<tag k="natural" v="valley" />
		<tag k="place" v="locality" />
		<tag k="ssr:stedsnr" v="35985" />
	</node>
	<node lat="63.28790277968514" lon="11.3193944475535" id="-34744">
		<tag k="name" v="Prestøylia" />
		<tag k="natural" v="slope" />
		<tag k="place" v="locality" />
		<tag k="ssr:stedsnr" v="35994" />
	</node>
	<node lat="63.25987222627511" lon="10.719413896582662" id="-34748">
		<tag k="name" v="Midter Blomdalen" />
		<tag k="natural" v="valley" />
		<tag k="place" v="locality" />
		<tag k="ssr:stedsnr" v="37082" />
	</node>
	<node lat="63.259866665648815" lon="10.77999722306619" id="-34749">
		<tag k="name" v="Bjørnbenet" />
		<tag k="natural" v="hill" />
		<tag k="place" v="locality" />
		<tag k="ssr:stedsnr" v="37094" />
	</node>
</osm>
