<?xml version="1.0" encoding="UTF-8"?>
<osm version="0.6" generator="osmapis">
	<node lat="63.19076460607629" lon="11.145989165608784" id="-38098">
		<tag k="alt_name" v="Litlstokkan" />
		<tag k="fixme" v="consider place=hamlet" />
		<tag k="name" v="Litjstokkan" />
		<tag k="place" v="farm" />
		<tag k="ssr:stedsnr" v="12069" />
	</node>
	<node lat="63.18504798523431" lon="11.189568691665094" id="-38099">
		<tag k="fixme" v="consider place=hamlet" />
		<tag k="name" v="Rollset" />
		<tag k="place" v="farm" />
		<tag k="ssr:stedsnr" v="12076" />
	</node>
	<node lat="63.201066056456085" lon="10.988993773644324" id="-38100">
		<tag k="name" v="Såmstadtjenna" />
		<tag k="natural" v="water" />
		<tag k="ssr:stedsnr" v="12086" />
	</node>
	<node lat="63.24585555147958" lon="11.364208331143086" id="-38101">
		<tag k="name" v="Kroktjenna" />
		<tag k="natural" v="water" />
		<tag k="ssr:stedsnr" v="12204" />
	</node>
	<node lat="63.2391583310266" lon="11.422769447321059" id="-38102">
		<tag k="name" v="Stortjennin" />
		<tag k="natural" v="water" />
		<tag k="ssr:stedsnr" v="12211" />
	</node>
	<node lat="63.1293250035533" lon="11.055786106090126" id="-38103">
		<tag k="name" v="Skillitjenna" />
		<tag k="natural" v="water" />
		<tag k="ssr:stedsnr" v="12105" />
	</node>
	<node lat="63.14718888612055" lon="11.18262778317214" id="-38104">
		<tag k="historic" v="shieling" />
		<tag k="name" v="Sørpåvollen" />
		<tag k="place" v="isolated_dwelling" />
		<tag k="ssr:stedsnr" v="12117" />
	</node>
	<node lat="63.0744805572592" lon="11.20522500456861" id="-38105">
		<tag k="fixme" v="consider natural=peak for the most distinct mountains in the district" />
		<tag k="name" v="Bringskaftet" />
		<tag k="natural" v="hill" />
		<tag k="place" v="locality" />
		<tag k="ssr:stedsnr" v="12178" />
	</node>
	<node lat="63.06407412121642" lon="10.973301343338983" id="-38106">
		<tag k="historic" v="shieling" />
		<tag k="name" v="Haftorslivollen" />
		<tag k="place" v="locality" />
		<tag k="ssr:stedsnr" v="12187" />
	</node>
	<node lat="63.11053524880153" lon="11.314669660953365" id="-38107">
		<tag k="fixme" v="consider place=hamlet" />
		<tag k="name" v="Bakken" />
		<tag k="old_name" v="Bekken" />
		<tag k="place" v="farm" />
		<tag k="ssr:stedsnr" v="12274" />
	</node>
	<node lat="63.11017858603745" lon="11.305281179326265" id="-38108">
		<tag k="fixme" v="consider place=hamlet" />
		<tag k="name" v="Tuset" />
		<tag k="place" v="farm" />
		<tag k="ssr:stedsnr" v="12276" />
	</node>
	<node lat="63.111083328999044" lon="11.308038893393096" id="-38109">
		<tag k="fixme" v="consider place=hamlet" />
		<tag k="name" v="Flora" />
		<tag k="place" v="village" />
		<tag k="ssr:stedsnr" v="12280" />
	</node>
	<node lat="63.290380557433096" lon="11.274425007809127" id="-38110">
		<tag k="name" v="Stråsjøen" />
		<tag k="natural" v="water" />
		<tag k="ssr:stedsnr" v="13082" />
		<tag k="water" v="lake" />
	</node>
	<node lat="63.263850003780426" lon="11.5174499984127" id="-38111">
		<tag k="name" v="Nautsjøen" />
		<tag k="natural" v="water" />
		<tag k="ssr:stedsnr" v="13101" />
		<tag k="water" v="lake" />
	</node>
	<node lat="63.256533334915794" lon="11.539511111790805" id="-38112">
		<tag k="name" v="Nauttjenna" />
		<tag k="natural" v="water" />
		<tag k="ssr:stedsnr" v="13123" />
	</node>
	<node lat="63.30393889043292" lon="11.188516675559418" id="-38113">
		<tag k="name" v="Børsjøen" />
		<tag k="natural" v="water" />
		<tag k="ssr:stedsnr" v="13302" />
		<tag k="water" v="lake" />
	</node>
	<node lat="63.270538887239425" lon="10.806516676292482" id="-38114">
		<tag k="name" v="Amdalshaugen" />
		<tag k="place" v="farm" />
		<tag k="ssr:stedsnr" v="13313" />
	</node>
	<node lat="63.269524999651274" lon="10.848988897490582" id="-38115">
		<tag k="name" v="Okstjenna" />
		<tag k="natural" v="water" />
		<tag k="ssr:stedsnr" v="13316" />
	</node>
	<node lat="63.261697221120436" lon="11.145794440579033" id="-38116">
		<tag k="name" v="Storbekken" />
		<tag k="ssr:stedsnr" v="13404" />
		<tag k="waterway" v="stream" />
	</node>
	<node lat="63.25782778112239" lon="10.739994449158084" id="-38117">
		<tag k="fixme" v="consider natural=peak for the most distinct mountains in the district" />
		<tag k="name" v="Renåfjellet" />
		<tag k="natural" v="hill" />
		<tag k="place" v="locality" />
		<tag k="ssr:stedsnr" v="13406" />
	</node>
	<node lat="63.323866663130005" lon="11.081061110907957" id="-38118">
		<tag k="name" v="Storvollen" />
		<tag k="place" v="isolated_dwelling" />
		<tag k="ssr:stedsnr" v="13410" />
	</node>
	<node lat="63.29255000213791" lon="10.665069441172694" id="-38119">
		<tag k="name" v="Strindbekken" />
		<tag k="ssr:stedsnr" v="13806" />
		<tag k="waterway" v="stream" />
	</node>
	<node lat="63.296764822324576" lon="10.674061606857604" id="-38120">
		<tag k="name" v="Botnan" />
		<tag k="natural" v="valley" />
		<tag k="place" v="locality" />
		<tag k="ssr:stedsnr" v="13829" />
	</node>
	<node lat="63.07203611039613" lon="11.189199997021055" id="-38121">
		<tag k="name" v="Storbekkdalen" />
		<tag k="natural" v="valley" />
		<tag k="place" v="locality" />
		<tag k="ssr:stedsnr" v="20303" />
	</node>
	<node lat="63.25458333582276" lon="10.745736108098226" id="-38122">
		<tag k="name" v="Brennhaugen" />
		<tag k="natural" v="hill" />
		<tag k="place" v="locality" />
		<tag k="ssr:stedsnr" v="34375" />
	</node>
	<node lat="63.06697222613196" lon="11.290188897523864" id="-38123">
		<tag k="name" v="Kjølen" />
		<tag k="natural" v="wetland" />
		<tag k="ssr:stedsnr" v="34510" />
	</node>
	<node lat="63.062216669147936" lon="11.032466657489877" id="-38124">
		<tag k="name" v="Ytternåla" />
		<tag k="ssr:stedsnr" v="34521" />
		<tag k="waterway" v="river" />
	</node>
	<node lat="63.28003333748749" lon="10.816991668551543" id="-38125">
		<tag k="name" v="Kneppkjølen" />
		<tag k="natural" v="wetland" />
		<tag k="ssr:stedsnr" v="34428" />
	</node>
	<node lat="63.28213888766836" lon="10.828350008936054" id="-38126">
		<tag k="name" v="Ysterdalsberga" />
		<tag k="natural" v="hill" />
		<tag k="place" v="locality" />
		<tag k="ssr:stedsnr" v="34436" />
	</node>
	<node lat="63.27738889310092" lon="10.710738887993436" id="-38127">
		<tag k="name" v="Stordalsmyra" />
		<tag k="natural" v="wetland" />
		<tag k="ssr:stedsnr" v="34461" />
	</node>
	<node lat="63.276322220511474" lon="10.685947219756583" id="-38128">
		<tag k="fixme" v="consider natural=peak for the most distinct mountains in the district" />
		<tag k="name" v="Blåhåmmåren" />
		<tag k="natural" v="hill" />
		<tag k="place" v="locality" />
		<tag k="ssr:stedsnr" v="34437" />
	</node>
	<node lat="63.28217222455365" lon="10.68374166511276" id="-38129">
		<tag k="name" v="Litjbekken" />
		<tag k="ssr:stedsnr" v="34439" />
		<tag k="waterway" v="stream" />
	</node>
	<node lat="63.279188889663764" lon="10.650886113741503" id="-38130">
		<tag k="name" v="Svartdalen" />
		<tag k="natural" v="valley" />
		<tag k="place" v="locality" />
		<tag k="ssr:stedsnr" v="34485" />
	</node>
	<node lat="63.16534444380281" lon="11.269644443264442" id="-38131">
		<tag k="name" v="Grønlia" />
		<tag k="natural" v="slope" />
		<tag k="place" v="locality" />
		<tag k="ssr:stedsnr" v="34702" />
	</node>
	<node lat="63.134413887539345" lon="11.302113892390738" id="-38132">
		<tag k="fixme" v="consider natural=peak for the most distinct mountains in the district" />
		<tag k="name" v="Seterbrenntoppen" />
		<tag k="natural" v="hill" />
		<tag k="place" v="locality" />
		<tag k="ssr:stedsnr" v="34720" />
	</node>
	<node lat="63.31024166690068" lon="11.042902770655283" id="-38133">
		<tag k="fixme" v="consider natural=peak for the most distinct mountains in the district" />
		<tag k="name" v="Paulineåsen" />
		<tag k="natural" v="hill" />
		<tag k="place" v="locality" />
		<tag k="ssr:stedsnr" v="35201" />
	</node>
	<node lat="63.114508337339764" lon="11.162113889102544" id="-38134">
		<tag k="historic" v="shieling" />
		<tag k="name" v="Stenvollen" />
		<tag k="place" v="isolated_dwelling" />
		<tag k="ssr:stedsnr" v="35269" />
	</node>
	<node lat="63.283838891801736" lon="11.097325007275423" id="-38135">
		<tag k="name" v="Litjburet" />
		<tag k="place" v="locality" />
		<tag k="ssr:stedsnr" v="35230" />
	</node>
	<node lat="63.290822134205655" lon="11.05912478950738" id="-38136">
		<tag k="alt_name" v="Espet n." />
		<tag k="name" v="Nordre Espet" />
		<tag k="place" v="farm" />
		<tag k="ssr:stedsnr" v="35235" />
	</node>
	<node lat="63.250983337140006" lon="11.055258331941213" id="-38137">
		<tag k="name" v="Låkkåholet" />
		<tag k="place" v="locality" />
		<tag k="ssr:stedsnr" v="35164" />
	</node>
	<node lat="63.30989166229814" lon="11.14967778478067" id="-38138">
		<tag k="name" v="Supen" />
		<tag k="place" v="locality" />
		<tag k="ssr:stedsnr" v="35117" />
	</node>
	<node lat="63.32589166770778" lon="11.121427773440587" id="-38139">
		<tag k="name" v="Gammelvollbekken" />
		<tag k="ssr:stedsnr" v="35119" />
		<tag k="waterway" v="stream" />
	</node>
	<node lat="63.24586388848535" lon="11.09708056119869" id="-38140">
		<tag k="name" v="Nordre Uglan" />
		<tag k="old_name" v="Uglem nordre" />
		<tag k="place" v="farm" />
		<tag k="ssr:stedsnr" v="35175" />
	</node>
	<node lat="63.32100277928247" lon="11.279263896242623" id="-38141">
		<tag k="name" v="Storbekken" />
		<tag k="ssr:stedsnr" v="35128" />
		<tag k="waterway" v="stream" />
	</node>
	<node lat="63.245575003587724" lon="11.012533328231276" id="-38142">
		<tag k="name" v="SELBUSJØEN" />
		<tag k="natural" v="water" />
		<tag k="ssr:stedsnr" v="35180" />
		<tag k="water" v="lake" />
	</node>
	<node lat="63.115630558351896" lon="10.987555556570316" id="-38143">
		<tag k="name" v="Bjørndalstjenna" />
		<tag k="natural" v="water" />
		<tag k="ssr:stedsnr" v="35369" />
	</node>
	<node lat="63.12217222124908" lon="11.092066663169094" id="-38144">
		<tag k="name" v="Kvilgrubba" />
		<tag k="place" v="locality" />
		<tag k="ssr:stedsnr" v="35384" />
	</node>
	<node lat="63.21028611368787" lon="11.080686110258524" id="-38145">
		<tag k="name" v="Røssetsve" />
		<tag k="place" v="farm" />
		<tag k="ssr:stedsnr" v="35414" />
	</node>
	<node lat="63.2075111119446" lon="11.087424996895358" id="-38146">
		<tag k="name" v="Nordigarden" />
		<tag k="place" v="farm" />
		<tag k="ssr:stedsnr" v="35418" />
	</node>
	<node lat="63.17582500127" lon="11.063105562490085" id="-38147">
		<tag k="fixme" v="consider natural=peak for the most distinct mountains in the district" />
		<tag k="name" v="Gammelvollåsen" />
		<tag k="natural" v="hill" />
		<tag k="place" v="locality" />
		<tag k="ssr:stedsnr" v="35422" />
	</node>
	<node lat="63.28784722416915" lon="11.288730547136467" id="-38148">
		<tag k="name" v="Kutjenna" />
		<tag k="natural" v="water" />
		<tag k="ssr:stedsnr" v="35762" />
	</node>
	<node lat="63.26187777794335" lon="11.164386110197906" id="-38149">
		<tag k="name" v="Hølvolløyan" />
		<tag k="place" v="locality" />
		<tag k="ssr:stedsnr" v="35773" />
	</node>
	<node lat="63.07086944848481" lon="11.32115277688446" id="-38150">
		<tag k="fixme" v="consider natural=peak for the most distinct mountains in the district" />
		<tag k="name" v="Storåsen" />
		<tag k="natural" v="hill" />
		<tag k="place" v="locality" />
		<tag k="ssr:stedsnr" v="35913" />
	</node>
	<node lat="63.064708335775165" lon="11.304969446062968" id="-38151">
		<tag k="name" v="Limberget" />
		<tag k="natural" v="hill" />
		<tag k="place" v="locality" />
		<tag k="ssr:stedsnr" v="35918" />
	</node>
	<node lat="63.06821389039693" lon="11.28449445390191" id="-38152">
		<tag k="name" v="Kjølen" />
		<tag k="natural" v="wetland" />
		<tag k="ssr:stedsnr" v="35919" />
	</node>
	<node lat="63.074475001672276" lon="11.238602772406859" id="-38153">
		<tag k="fixme" v="consider natural=peak for the most distinct mountains in the district" />
		<tag k="name" v="Holåsen" />
		<tag k="natural" v="hill" />
		<tag k="place" v="locality" />
		<tag k="ssr:stedsnr" v="35924" />
	</node>
	<node lat="63.080938885635696" lon="11.055919452977225" id="-38154">
		<tag k="name" v="Gammelbua" />
		<tag k="place" v="locality" />
		<tag k="ssr:stedsnr" v="36306" />
	</node>
	<node lat="63.07243055860961" lon="10.984788881927326" id="-38155">
		<tag k="name" v="Sandtjenna" />
		<tag k="natural" v="water" />
		<tag k="ssr:stedsnr" v="36307" />
	</node>
	<node lat="63.23105833462918" lon="10.82830833006538" id="-38156">
		<tag k="name" v="Stormyra" />
		<tag k="natural" v="wetland" />
		<tag k="ssr:stedsnr" v="36402" />
	</node>
	<node lat="63.12425555434162" lon="10.862949992323454" id="-38157">
		<tag k="name" v="Vasskjølen" />
		<tag k="natural" v="wetland" />
		<tag k="ssr:stedsnr" v="36417" />
	</node>
	<node lat="63.1099861148579" lon="10.862563879759678" id="-38158">
		<tag k="name" v="Singeløyan" />
		<tag k="place" v="locality" />
		<tag k="ssr:stedsnr" v="36418" />
	</node>
	<node lat="63.299433337592816" lon="10.83633612098063" id="-38159">
		<tag k="name" v="Rundhaugen" />
		<tag k="natural" v="hill" />
		<tag k="place" v="locality" />
		<tag k="ssr:stedsnr" v="36360" />
	</node>
	<node lat="63.25691389218592" lon="10.85905832605508" id="-38160">
		<tag k="fixme" v="consider natural=peak for the most distinct mountains in the district" />
		<tag k="name" v="Ringneset" />
		<tag k="natural" v="hill" />
		<tag k="place" v="locality" />
		<tag k="ssr:stedsnr" v="36702" />
	</node>
	<node lat="63.20514999820204" lon="10.96685278533861" id="-38161">
		<tag k="name" v="Gullhaugen" />
		<tag k="place" v="farm" />
		<tag k="ssr:stedsnr" v="37007" />
	</node>
	<node lat="63.202988888477016" lon="11.024925006318153" id="-38162">
		<tag k="name" v="Hårstadmo" />
		<tag k="place" v="farm" />
		<tag k="ssr:stedsnr" v="37069" />
	</node>
	<node lat="63.220877775573854" lon="11.040502774188928" id="-38163">
		<tag k="name" v="Sørli" />
		<tag k="place" v="farm" />
		<tag k="ssr:stedsnr" v="37074" />
	</node>
	<node lat="63.21755555872987" lon="11.045525007919446" id="-38164">
		<tag k="alt_name" v="Hove søndre" />
		<tag k="name" v="Søndre Hove" />
		<tag k="place" v="farm" />
		<tag k="ssr:stedsnr" v="37079" />
	</node>
	<node lat="63.26417777714634" lon="10.93891111903699" id="-38165">
		<tag k="name" v="Bønndalen" />
		<tag k="natural" v="valley" />
		<tag k="place" v="locality" />
		<tag k="ssr:stedsnr" v="37203" />
	</node>
	<node lat="63.18447777986303" lon="10.917691664183351" id="-38166">
		<tag k="name" v="Åsmyran" />
		<tag k="natural" v="wetland" />
		<tag k="ssr:stedsnr" v="37261" />
	</node>
	<node lat="63.190869446514476" lon="10.937933329910337" id="-38167">
		<tag k="name" v="Stigledtjenna" />
		<tag k="natural" v="water" />
		<tag k="ssr:stedsnr" v="37263" />
	</node>
	<node lat="63.16883333409712" lon="10.914536110464656" id="-38168">
		<tag k="name" v="Skjenndalen" />
		<tag k="natural" v="valley" />
		<tag k="place" v="locality" />
		<tag k="ssr:stedsnr" v="37264" />
	</node>
	<node lat="63.11156944513063" lon="10.914202786543424" id="-38169">
		<tag k="name" v="Maliåsmyra" />
		<tag k="natural" v="wetland" />
		<tag k="ssr:stedsnr" v="37267" />
	</node>
	<node lat="63.12111944892656" lon="10.916569435942769" id="-38170">
		<tag k="name" v="Morsetstorkjølen" />
		<tag k="natural" v="wetland" />
		<tag k="ssr:stedsnr" v="37272" />
	</node>
	<node lat="63.26416666550896" lon="10.900380561750636" id="-38171">
		<tag k="name" v="Kasberøyan" />
		<tag k="natural" v="hill" />
		<tag k="place" v="locality" />
		<tag k="ssr:stedsnr" v="37282" />
	</node>
	<node lat="63.09664166286849" lon="11.229661108704859" id="-38172">
		<tag k="name" v="Skinnbroka" />
		<tag k="place" v="locality" />
		<tag k="ssr:stedsnr" v="37403" />
	</node>
	<node lat="63.06861388828099" lon="11.235427784396178" id="-38173">
		<tag k="fixme" v="consider natural=peak for the most distinct mountains in the district" />
		<tag k="name" v="Litjliåsen" />
		<tag k="natural" v="hill" />
		<tag k="place" v="locality" />
		<tag k="ssr:stedsnr" v="37404" />
	</node>
	<node lat="63.32869999785491" lon="11.022027774964673" id="-38174">
		<tag k="name" v="Lesje" />
		<tag k="place" v="locality" />
		<tag k="ssr:stedsnr" v="37409" />
	</node>
	<node lat="63.1472524282369" lon="10.929862161381626" id="-38175">
		<tag k="name" v="Åsmannsbrettet" />
		<tag k="place" v="locality" />
		<tag k="ssr:stedsnr" v="37301" />
	</node>
	<node lat="63.16236944878271" lon="10.925372212601776" id="-38176">
		<tag k="name" v="Neglåsbjørga" />
		<tag k="place" v="locality" />
		<tag k="ssr:stedsnr" v="37304" />
	</node>
	<node lat="63.27028055852907" lon="11.24970555212465" id="-38177">
		<tag k="name" v="Flotjennin" />
		<tag k="natural" v="wetland" />
		<tag k="ssr:stedsnr" v="37309" />
	</node>
	<node lat="63.14498889321127" lon="11.007677773787414" id="-38178">
		<tag k="name" v="Nåltangen" />
		<tag k="natural" v="cape" />
		<tag k="ssr:stedsnr" v="37312" />
	</node>
	<node lat="63.28769722452252" lon="10.681600005967153" id="-38179">
		<tag k="name" v="Hebrukjølen" />
		<tag k="natural" v="wetland" />
		<tag k="ssr:stedsnr" v="37610" />
	</node>
	<node lat="63.26466666295398" lon="11.110852770623259" id="-38180">
		<tag k="name" v="Langhaug" />
		<tag k="place" v="farm" />
		<tag k="ssr:stedsnr" v="37612" />
	</node>
	<node lat="63.27013802362471" lon="11.012290970211595" id="-38181">
		<tag k="fixme" v="consider place=hamlet" />
		<tag k="name" v="Fossan" />
		<tag k="place" v="farm" />
		<tag k="ssr:stedsnr" v="37560" />
	</node>
	<node lat="63.3247583318301" lon="10.990444449744034" id="-38182">
		<tag k="fixme" v="consider natural=peak for the most distinct mountains in the district" />
		<tag k="name" v="Storåsen" />
		<tag k="natural" v="hill" />
		<tag k="place" v="locality" />
		<tag k="ssr:stedsnr" v="37576" />
	</node>
	<node lat="63.285761111550016" lon="11.061113879745825" id="-38183">
		<tag k="name" v="Espbekken" />
		<tag k="ssr:stedsnr" v="37580" />
		<tag k="waterway" v="stream" />
	</node>
	<node lat="63.184277775236836" lon="11.109025005258509" id="-38184">
		<tag k="name" v="Dalen" />
		<tag k="place" v="farm" />
		<tag k="ssr:stedsnr" v="37581" />
	</node>
	<node lat="63.23764166453145" lon="10.751936119095154" id="-38185">
		<tag k="name" v="Synder Styggdalsbekken" />
		<tag k="ssr:stedsnr" v="37703" />
		<tag k="waterway" v="stream" />
	</node>
	<node lat="63.268325002117294" lon="10.809780562663017" id="-38186">
		<tag k="name" v="Nuttudalen" />
		<tag k="place" v="farm" />
		<tag k="ssr:stedsnr" v="37705" />
	</node>
	<node lat="63.17351667019758" lon="10.912247212622736" id="-38187">
		<tag k="name" v="Elvbjørga" />
		<tag k="place" v="locality" />
		<tag k="ssr:stedsnr" v="37716" />
	</node>
	<node lat="63.20004722221524" lon="10.944705559670366" id="-38188">
		<tag k="name" v="Gjeldalen" />
		<tag k="natural" v="valley" />
		<tag k="place" v="locality" />
		<tag k="ssr:stedsnr" v="38160" />
	</node>
	<node lat="63.28519167081609" lon="10.951647222509745" id="-38189">
		<tag k="name" v="Balstadskardet" />
		<tag k="natural" v="valley" />
		<tag k="place" v="locality" />
		<tag k="ssr:stedsnr" v="38259" />
	</node>
	<node lat="63.28547777975089" lon="11.068561113430976" id="-38190">
		<tag k="amenity" v="kindergarten" />
		<tag k="name" v="Tømra og Innbygda barnehage avdeling Tømra" />
		<tag k="ssr:stedsnr" v="239461" />
	</node>
	<node lat="63.26678055166722" lon="10.994669453406072" id="-38191">
		<tag k="amenity" v="community_centre" />
		<tag k="name" v="Framheim samfunnshus" />
		<tag k="ssr:stedsnr" v="57426" />
	</node>
	<node lat="63.218116669022926" lon="11.039072228735392" id="-38192">
		<tag k="building" v="commercial" />
		<tag k="name" v="Nea Radio" />
		<tag k="ssr:stedsnr" v="59504" />
	</node>
	<node lat="63.23505523990877" lon="11.048592119369806" id="-38193">
		<tag k="fixme" v="consider place=hamlet" />
		<tag k="name" v="Dyrdalen" />
		<tag k="place" v="farm" />
		<tag k="ssr:stedsnr" v="73003" />
	</node>
	<node lat="63.25684906224929" lon="11.040770380948654" id="-38194">
		<tag k="name" v="Flønesneset" />
		<tag k="natural" v="cape" />
		<tag k="ssr:stedsnr" v="73014" />
	</node>
	<node lat="63.24927126169745" lon="10.953973497088459" id="-38195">
		<tag k="fixme" v="consider place=hamlet" />
		<tag k="name" v="Høyby" />
		<tag k="place" v="farm" />
		<tag k="ssr:stedsnr" v="73020" />
	</node>
	<node lat="63.16083611346383" lon="11.214852775110332" id="-38196">
		<tag k="historic" v="shieling" />
		<tag k="name" v="Høstvollen" />
		<tag k="place" v="isolated_dwelling" />
		<tag k="ssr:stedsnr" v="73120" />
	</node>
	<node lat="63.192244878881205" lon="11.109907035353167" id="-38197">
		<tag k="name" v="Mogardene" />
		<tag k="place" v="hamlet" />
		<tag k="ssr:stedsnr" v="73066" />
	</node>
	<node lat="63.22693888799887" lon="11.274813890243184" id="-38198">
		<tag k="name" v="Bleksjøene" />
		<tag k="natural" v="water" />
		<tag k="ssr:stedsnr" v="73210" />
	</node>
	<node lat="63.16374166683494" lon="11.267633337459987" id="-38199">
		<tag k="fixme" v="consider natural=peak for the most distinct mountains in the district" />
		<tag k="name" v="Grønlia" />
		<tag k="natural" v="hill" />
		<tag k="place" v="locality" />
		<tag k="ssr:stedsnr" v="73219" />
	</node>
	<node lat="63.16036944528784" lon="11.459388887945003" id="-38200">
		<tag k="historic" v="shieling" />
		<tag k="name" v="Drøyvollen" />
		<tag k="place" v="isolated_dwelling" />
		<tag k="ssr:stedsnr" v="73222" />
	</node>
	<node lat="63.25117499772225" lon="11.111605554467584" id="-38201">
		<tag k="name" v="Kvelloaunet" />
		<tag k="place" v="farm" />
		<tag k="ssr:stedsnr" v="73362" />
	</node>
	<node lat="63.003658335210154" lon="11.271336102936102" id="-38202">
		<tag k="name" v="Bukkhåmmåren" />
		<tag k="natural" v="hill" />
		<tag k="place" v="locality" />
		<tag k="ssr:stedsnr" v="73373" />
	</node>
	<node lat="63.0268638870866" lon="11.227650003855908" id="-38203">
		<tag k="fixme" v="consider natural=peak for the most distinct mountains in the district" />
		<tag k="name" v="Blektjennfjellet" />
		<tag k="natural" v="hill" />
		<tag k="place" v="locality" />
		<tag k="ssr:stedsnr" v="73384" />
	</node>
	<node lat="63.29932777357087" lon="11.275830553392996" id="-38204">
		<tag k="fixme" v="consider natural=peak for the most distinct mountains in the district" />
		<tag k="name" v="Bårsetknippen" />
		<tag k="natural" v="hill" />
		<tag k="place" v="locality" />
		<tag k="ssr:stedsnr" v="74074" />
	</node>
	<node lat="63.288847226196474" lon="10.86546667063377" id="-38205">
		<tag k="name" v="Halvfartjenna" />
		<tag k="natural" v="water" />
		<tag k="ssr:stedsnr" v="74258" />
	</node>
	<node lat="63.29222961618324" lon="10.907603086618602" id="-38206">
		<tag k="name" v="Svarttjenna" />
		<tag k="natural" v="water" />
		<tag k="ssr:stedsnr" v="74260" />
	</node>
	<node lat="63.29251111009224" lon="11.072575008860985" id="-38207">
		<tag k="alt_name" v="Røstad" />
		<tag k="name" v="Røsta" />
		<tag k="place" v="farm" />
		<tag k="ssr:stedsnr" v="74263" />
	</node>
	<node lat="63.29336111273813" lon="11.061024998755016" id="-38208">
		<tag k="name" v="Tømmeråsen" />
		<tag k="place" v="farm" />
		<tag k="ssr:stedsnr" v="74264" />
	</node>
	<node lat="63.29821388503985" lon="11.060733339781843" id="-38209">
		<tag k="name" v="Røsåsen" />
		<tag k="place" v="farm" />
		<tag k="ssr:stedsnr" v="74265" />
	</node>
	<node lat="63.33812778082481" lon="11.145075001025576" id="-38210">
		<tag k="fixme" v="consider natural=peak for the most distinct mountains in the district" />
		<tag k="name" v="Olemsåsen" />
		<tag k="natural" v="hill" />
		<tag k="place" v="locality" />
		<tag k="ssr:stedsnr" v="74419" />
	</node>
	<node lat="63.3227444463813" lon="11.144550009773566" id="-38211">
		<tag k="name" v="Såmmårvollen" />
		<tag k="place" v="isolated_dwelling" />
		<tag k="ssr:stedsnr" v="74362" />
	</node>
	<node lat="63.322365538796284" lon="11.087869641289567" id="-38212">
		<tag k="historic" v="shieling" />
		<tag k="name" v="Trøin" />
		<tag k="place" v="isolated_dwelling" />
		<tag k="ssr:stedsnr" v="74363" />
	</node>
	<node lat="63.199748259652786" lon="11.234704745031843" id="-38213">
		<tag k="fixme" v="multiple name tags, choose one and add the other to alt_name" />
		<tag k="historic" v="shieling" />
		<tag k="name" v="Nedre Lunden;Lunden" />
		<tag k="place" v="isolated_dwelling" />
		<tag k="ssr:stedsnr" v="81205" />
	</node>
	<node lat="63.20072221961625" lon="11.22876389214684" id="-38214">
		<tag k="name" v="Eggjadalen" />
		<tag k="natural" v="valley" />
		<tag k="place" v="locality" />
		<tag k="ssr:stedsnr" v="81210" />
	</node>
	<node lat="63.146632925744235" lon="10.913015611747587" id="-38215">
		<tag k="name" v="Litjsørungen" />
		<tag k="natural" v="water" />
		<tag k="ssr:stedsnr" v="81286" />
	</node>
	<node lat="63.20180277479799" lon="11.539130559383313" id="-38216">
		<tag k="fixme" v="consider natural=peak for the most distinct mountains in the district" />
		<tag k="name" v="Svenskmoknippen" />
		<tag k="natural" v="hill" />
		<tag k="place" v="locality" />
		<tag k="ssr:stedsnr" v="81198" />
	</node>
	<node lat="63.10190555615615" lon="11.343086111597753" id="-38217">
		<tag k="name" v="Tjønnli" />
		<tag k="place" v="farm" />
		<tag k="ssr:stedsnr" v="82139" />
	</node>
	<node lat="63.246233332941415" lon="11.357766669670958" id="-38218">
		<tag k="name" v="Krossåfossene" />
		<tag k="natural" v="waterfall" />
		<tag k="ssr:stedsnr" v="82197" />
	</node>
	<node lat="63.237697223476346" lon="11.275422224061465" id="-38219">
		<tag k="name" v="Høglia" />
		<tag k="natural" v="slope" />
		<tag k="place" v="locality" />
		<tag k="ssr:stedsnr" v="82237" />
	</node>
	<node lat="63.10596111220108" lon="11.368397215072918" id="-38220">
		<tag k="name" v="Merkesbekken" />
		<tag k="ssr:stedsnr" v="92802" />
		<tag k="waterway" v="stream" />
	</node>
	<node lat="63.29003889207973" lon="10.807616659534343" id="-38221">
		<tag k="name" v="Storalmotjenna" />
		<tag k="natural" v="water" />
		<tag k="ssr:stedsnr" v="95407" />
	</node>
	<node lat="63.29256111302959" lon="10.844325009110177" id="-38222">
		<tag k="name" v="Svarttjenna" />
		<tag k="natural" v="water" />
		<tag k="ssr:stedsnr" v="95414" />
	</node>
	<node lat="63.20801110861146" lon="10.791541667632025" id="-38223">
		<tag k="name" v="Karilia" />
		<tag k="natural" v="slope" />
		<tag k="place" v="locality" />
		<tag k="ssr:stedsnr" v="95423" />
	</node>
	<node lat="63.20293055288735" lon="10.807316657429192" id="-38224">
		<tag k="name" v="Jensbekken" />
		<tag k="ssr:stedsnr" v="95424" />
		<tag k="waterway" v="stream" />
	</node>
	<node lat="63.25225277610044" lon="10.696272213528596" id="-38225">
		<tag k="name" v="Flobekkøya" />
		<tag k="natural" v="slope" />
		<tag k="place" v="locality" />
		<tag k="ssr:stedsnr" v="95474" />
	</node>
	<node lat="63.0753388897879" lon="11.291549997539816" id="-38226">
		<tag k="name" v="Tortlia" />
		<tag k="natural" v="slope" />
		<tag k="place" v="locality" />
		<tag k="ssr:stedsnr" v="95486" />
	</node>
	<node lat="63.2394527791235" lon="11.272125007279856" id="-38227">
		<tag k="name" v="Høglia" />
		<tag k="natural" v="slope" />
		<tag k="place" v="locality" />
		<tag k="ssr:stedsnr" v="95611" />
	</node>
	<node lat="63.23792777814342" lon="11.319200006202585" id="-38228">
		<tag k="name" v="Tibekken" />
		<tag k="ssr:stedsnr" v="95612" />
		<tag k="waterway" v="stream" />
	</node>
	<node lat="63.28347500359989" lon="11.126222228550574" id="-38229">
		<tag k="name" v="Åslåtten" />
		<tag k="place" v="locality" />
		<tag k="ssr:stedsnr" v="95525" />
	</node>
	<node lat="63.24575833645824" lon="11.143491667488153" id="-38230">
		<tag k="name" v="Langmyra" />
		<tag k="natural" v="wetland" />
		<tag k="ssr:stedsnr" v="95565" />
	</node>
	<node lat="63.306127782043205" lon="11.162744435480437" id="-38231">
		<tag k="name" v="Hembjørga" />
		<tag k="place" v="locality" />
		<tag k="ssr:stedsnr" v="95575" />
	</node>
	<node lat="63.16535278197707" lon="11.285255555498834" id="-38232">
		<tag k="name" v="Elgtjennhaugen" />
		<tag k="natural" v="hill" />
		<tag k="place" v="locality" />
		<tag k="ssr:stedsnr" v="95715" />
	</node>
	<node lat="63.14793055866613" lon="11.304850008098093" id="-38233">
		<tag k="fixme" v="consider natural=peak for the most distinct mountains in the district" />
		<tag k="name" v="Litjliåsen" />
		<tag k="natural" v="hill" />
		<tag k="place" v="locality" />
		<tag k="ssr:stedsnr" v="95717" />
	</node>
	<node lat="63.19921111354091" lon="11.303411111077322" id="-38234">
		<tag k="name" v="Krossåbakken" />
		<tag k="natural" v="slope" />
		<tag k="place" v="locality" />
		<tag k="ssr:stedsnr" v="95661" />
	</node>
	<node lat="63.19034166742821" lon="11.319491667719559" id="-38235">
		<tag k="name" v="Stamnesdiket" />
		<tag k="natural" v="wetland" />
		<tag k="ssr:stedsnr" v="95667" />
	</node>
	<node lat="63.09259166388074" lon="11.083497219255612" id="-38236">
		<tag k="name" v="Tangbekken" />
		<tag k="ssr:stedsnr" v="95822" />
		<tag k="waterway" v="stream" />
	</node>
	<node lat="63.253700002268815" lon="11.35106943468233" id="-38237">
		<tag k="name" v="Roltdal statsalmenning" />
		<tag k="place" v="locality" />
		<tag k="ssr:stedsnr" v="95865" />
	</node>
	<node lat="63.2536638858666" lon="11.202211107072364" id="-38238">
		<tag k="name" v="Vassmyran" />
		<tag k="natural" v="wetland" />
		<tag k="ssr:stedsnr" v="95875" />
	</node>
	<node lat="63.134069443662355" lon="11.069705557190538" id="-38239">
		<tag k="name" v="Knippan" />
		<tag k="place" v="locality" />
		<tag k="ssr:stedsnr" v="95764" />
	</node>
	<node lat="63.271472225296094" lon="11.005819446415545" id="-38240">
		<tag k="name" v="Elveli" />
		<tag k="place" v="farm" />
		<tag k="ssr:stedsnr" v="95772" />
	</node>
	<node lat="63.296486109306315" lon="11.125202769038419" id="-38241">
		<tag k="name" v="Storsjøbjørga" />
		<tag k="place" v="locality" />
		<tag k="ssr:stedsnr" v="96107" />
	</node>
	<node lat="63.27666388846474" lon="11.17352222054" id="-38242">
		<tag k="name" v="Skardølan" />
		<tag k="place" v="locality" />
		<tag k="ssr:stedsnr" v="96072" />
	</node>
	<node lat="63.279108330068404" lon="11.005941663899092" id="-38243">
		<tag k="fixme" v="consider natural=peak for the most distinct mountains in the district" />
		<tag k="name" v="Fossåsen" />
		<tag k="natural" v="hill" />
		<tag k="place" v="locality" />
		<tag k="ssr:stedsnr" v="96214" />
	</node>
	<node lat="63.28530000400862" lon="11.027263896207614" id="-38244">
		<tag k="name" v="Stamneselva" />
		<tag k="ssr:stedsnr" v="96221" />
		<tag k="waterway" v="river" />
	</node>
	<node lat="63.22688055305166" lon="10.989991659741204" id="-38245">
		<tag k="name" v="SELBUSJØEN" />
		<tag k="natural" v="water" />
		<tag k="ssr:stedsnr" v="96167" />
		<tag k="water" v="lake" />
	</node>
	<node lat="63.23481388982522" lon="11.071824990662487" id="-38246">
		<tag k="name" v="Kvennbekken" />
		<tag k="ssr:stedsnr" v="96173" />
		<tag k="waterway" v="stream" />
	</node>
	<node lat="63.08377777412997" lon="11.312044447877263" id="-38247">
		<tag k="historic" v="shieling" />
		<tag k="name" v="Nesåsvollen" />
		<tag k="place" v="locality" />
		<tag k="ssr:stedsnr" v="96915" />
	</node>
	<node lat="63.196455553080256" lon="11.2784972226862" id="-38248">
		<tag k="name" v="Puttvollian" />
		<tag k="natural" v="slope" />
		<tag k="place" v="locality" />
		<tag k="ssr:stedsnr" v="96962" />
	</node>
	<node lat="63.198433334553044" lon="11.243691670391792" id="-38249">
		<tag k="fixme" v="consider place=hamlet" />
		<tag k="name" v="Lund" />
		<tag k="place" v="farm" />
		<tag k="ssr:stedsnr" v="96978" />
	</node>
	<node lat="63.251861110023846" lon="10.763272216338766" id="-38250">
		<tag k="name" v="Skarvmyran" />
		<tag k="natural" v="wetland" />
		<tag k="ssr:stedsnr" v="97419" />
	</node>
	<node lat="63.19386389211935" lon="10.940169434989652" id="-38251">
		<tag k="name" v="Stigledet" />
		<tag k="place" v="farm" />
		<tag k="ssr:stedsnr" v="97421" />
	</node>
	<node lat="63.240902773636485" lon="10.819361115835894" id="-38252">
		<tag k="name" v="Eggjabekken" />
		<tag k="ssr:stedsnr" v="97426" />
		<tag k="waterway" v="stream" />
	</node>
	<node lat="63.242149996206095" lon="11.25239999820903" id="-38253">
		<tag k="name" v="Storhaugen" />
		<tag k="natural" v="hill" />
		<tag k="place" v="locality" />
		<tag k="ssr:stedsnr" v="97603" />
	</node>
	<node lat="63.303627779814185" lon="11.23864166933155" id="-38254">
		<tag k="name" v="Smørdalen" />
		<tag k="natural" v="valley" />
		<tag k="place" v="locality" />
		<tag k="ssr:stedsnr" v="97606" />
	</node>
	<node lat="63.32692717334628" lon="11.173860609855161" id="-38255">
		<tag k="historic" v="shieling" />
		<tag k="name" v="Håmmårsbekkvollen" />
		<tag k="place" v="isolated_dwelling" />
		<tag k="ssr:stedsnr" v="97607" />
	</node>
	<node lat="63.227494442017246" lon="10.713377773372137" id="-38256">
		<tag k="name" v="Volltjenna" />
		<tag k="natural" v="water" />
		<tag k="ssr:stedsnr" v="97561" />
	</node>
	<node lat="63.22081389282286" lon="10.970838879997409" id="-38257">
		<tag k="name" v="Ekra" />
		<tag k="place" v="farm" />
		<tag k="ssr:stedsnr" v="98011" />
	</node>
	<node lat="63.23200555286721" lon="10.870749999102625" id="-38258">
		<tag k="name" v="Sjøli" />
		<tag k="place" v="isolated_dwelling" />
		<tag k="ssr:stedsnr" v="98016" />
	</node>
	<node lat="63.20388055261681" lon="11.031697230147884" id="-38259">
		<tag k="name" v="Engset" />
		<tag k="place" v="farm" />
		<tag k="ssr:stedsnr" v="98061" />
	</node>
	<node lat="63.23072777797506" lon="11.055388893056422" id="-38260">
		<tag k="fixme" v="consider natural=peak for the most distinct mountains in the district" />
		<tag k="name" v="Revåsen" />
		<tag k="natural" v="hill" />
		<tag k="place" v="locality" />
		<tag k="ssr:stedsnr" v="98215" />
	</node>
	<node lat="63.069136114164614" lon="10.92908610493929" id="-38261">
		<tag k="name" v="Fisklausbekken" />
		<tag k="ssr:stedsnr" v="98161" />
		<tag k="waterway" v="stream" />
	</node>
	<node lat="63.140221134554636" lon="10.847813624436288" id="-38262">
		<tag k="name" v="Ånbekken" />
		<tag k="ssr:stedsnr" v="98163" />
		<tag k="waterway" v="stream" />
	</node>
	<node lat="63.2116805565196" lon="10.929786113343116" id="-38263">
		<tag k="name" v="Stordalen" />
		<tag k="natural" v="valley" />
		<tag k="place" v="locality" />
		<tag k="ssr:stedsnr" v="98167" />
	</node>
	<node lat="63.19543611311821" lon="10.911258332070577" id="-38264">
		<tag k="name" v="Åsmarka" />
		<tag k="place" v="locality" />
		<tag k="ssr:stedsnr" v="98169" />
	</node>
	<node lat="63.084538888182415" lon="11.09109443812787" id="-38265">
		<tag k="historic" v="shieling" />
		<tag k="name" v="Ytter Skyttholvollen" />
		<tag k="place" v="isolated_dwelling" />
		<tag k="ssr:stedsnr" v="98304" />
	</node>
	<node lat="63.160713884669974" lon="11.11690000786065" id="-38266">
		<tag k="fixme" v="consider natural=peak for the most distinct mountains in the district" />
		<tag k="name" v="Gulltjennåsen" />
		<tag k="natural" v="hill" />
		<tag k="place" v="locality" />
		<tag k="ssr:stedsnr" v="98312" />
	</node>
	<node lat="63.266991668393665" lon="10.886413879046318" id="-38267">
		<tag k="name" v="Lomtjenna" />
		<tag k="natural" v="water" />
		<tag k="ssr:stedsnr" v="98268" />
	</node>
	<node lat="63.275991666564" lon="10.8730666597568" id="-38268">
		<tag k="name" v="Jotjenna" />
		<tag k="natural" v="water" />
		<tag k="ssr:stedsnr" v="98271" />
	</node>
	<node lat="63.266416663172365" lon="10.854433336745513" id="-38269">
		<tag k="name" v="Gunnaposten" />
		<tag k="place" v="locality" />
		<tag k="ssr:stedsnr" v="98272" />
	</node>
	<node lat="63.325519444081365" lon="11.00654722975675" id="-38270">
		<tag k="name" v="Totjenna" />
		<tag k="natural" v="water" />
		<tag k="ssr:stedsnr" v="98417" />
	</node>
	<node lat="63.10003888630224" lon="10.98653054708689" id="-38271">
		<tag k="name" v="Vindranken" />
		<tag k="natural" v="water" />
		<tag k="ssr:stedsnr" v="98424" />
	</node>
	<node lat="63.26576666637247" lon="11.231583342601185" id="-38272">
		<tag k="historic" v="shieling" />
		<tag k="name" v="Storvollen" />
		<tag k="place" v="isolated_dwelling" />
		<tag k="ssr:stedsnr" v="98606" />
	</node>
	<node lat="63.28875277532783" lon="11.025527787353788" id="-38273">
		<tag k="name" v="Elvbakken" />
		<tag k="natural" v="slope" />
		<tag k="place" v="locality" />
		<tag k="ssr:stedsnr" v="98367" />
	</node>
	<node lat="63.24421666513656" lon="10.941891663027105" id="-38274">
		<tag k="name" v="Tystenodden" />
		<tag k="natural" v="cape" />
		<tag k="ssr:stedsnr" v="98502" />
	</node>
	<node lat="63.3207944485284" lon="10.979222221986438" id="-38275">
		<tag k="fixme" v="consider natural=peak for the most distinct mountains in the district" />
		<tag k="name" v="Heståsen" />
		<tag k="natural" v="hill" />
		<tag k="place" v="locality" />
		<tag k="ssr:stedsnr" v="98506" />
	</node>
	<node lat="63.337072223418055" lon="11.04714721897748" id="-38276">
		<tag k="name" v="Hundmyrholet" />
		<tag k="place" v="locality" />
		<tag k="ssr:stedsnr" v="98510" />
	</node>
	<node lat="63.33621666429461" lon="11.056463891104396" id="-38277">
		<tag k="name" v="Hårstadkjølen" />
		<tag k="natural" v="wetland" />
		<tag k="ssr:stedsnr" v="98512" />
	</node>
	<node lat="63.29789444647761" lon="10.65001388143146" id="-38278">
		<tag k="name" v="Julskardet" />
		<tag k="natural" v="valley" />
		<tag k="place" v="locality" />
		<tag k="ssr:stedsnr" v="98709" />
	</node>
	<node lat="63.19827499846972" lon="11.053788887012383" id="-38279">
		<tag k="name" v="Storhaugen" />
		<tag k="natural" v="hill" />
		<tag k="place" v="locality" />
		<tag k="ssr:stedsnr" v="99209" />
	</node>
	<node lat="63.21608055528683" lon="10.967158336639198" id="-38280">
		<tag k="name" v="Låbekken" />
		<tag k="ssr:stedsnr" v="99220" />
		<tag k="waterway" v="stream" />
	</node>
	<node lat="63.30411666463633" lon="10.820463881443938" id="-38281">
		<tag k="name" v="Kvitbergtjenna" />
		<tag k="natural" v="water" />
		<tag k="ssr:stedsnr" v="108105" />
	</node>
	<node lat="63.24029167110121" lon="11.049716671625744" id="-38282">
		<tag k="junction" v="yes" />
		<tag k="name" v="Eidemsvikkrysset" />
		<tag k="place" v="locality" />
		<tag k="ssr:stedsnr" v="110819" />
	</node>
	<node lat="63.259305551915695" lon="10.750047225138783" id="-38283">
		<tag k="fixme" v="consider boundary=protected_area and relevant protect_class if not nature reserve" />
		<tag k="leisure" v="nature_reserve" />
		<tag k="name" v="Renålia naturreservat" />
		<tag k="ssr:stedsnr" v="118275" />
	</node>
	<node lat="63.1859469405682" lon="11.164968845739967" id="-38284">
		<tag k="name" v="Stokkan" />
		<tag k="place" v="hamlet" />
		<tag k="ssr:stedsnr" v="133059" />
	</node>
	<node lat="63.19275000312825" lon="11.185383330895231" id="-38285">
		<tag k="fixme" v="consider place=hamlet" />
		<tag k="name" v="Rønsberg" />
		<tag k="place" v="farm" />
		<tag k="ssr:stedsnr" v="133063" />
	</node>
	<node lat="63.147930554480894" lon="11.249761108159952" id="-38286">
		<tag k="historic" v="shieling" />
		<tag k="name" v="Øråsvollen" />
		<tag k="place" v="isolated_dwelling" />
		<tag k="ssr:stedsnr" v="133207" />
	</node>
	<node lat="63.06839221042636" lon="11.249523487758571" id="-38287">
		<tag k="historic" v="shieling" />
		<tag k="name" v="Kløftvollen" />
		<tag k="place" v="isolated_dwelling" />
		<tag k="ssr:stedsnr" v="133267" />
	</node>
	<node lat="63.258548351227084" lon="11.2256346459588" id="-38288">
		<tag k="historic" v="shieling" />
		<tag k="name" v="Liavollen" />
		<tag k="place" v="isolated_dwelling" />
		<tag k="ssr:stedsnr" v="134108" />
	</node>
	<node lat="63.2794666675352" lon="11.421702778382617" id="-38289">
		<tag k="name" v="Gjeståa" />
		<tag k="ssr:stedsnr" v="134114" />
		<tag k="waterway" v="river" />
	</node>
	<node lat="63.28984999705673" lon="11.028619446141455" id="-38290">
		<tag k="name" v="Rota" />
		<tag k="place" v="locality" />
		<tag k="ssr:stedsnr" v="134354" />
	</node>
	<node lat="63.290231247244364" lon="11.060304095267377" id="-38291">
		<tag k="name" v="Espet" />
		<tag k="place" v="locality" />
		<tag k="ssr:stedsnr" v="134356" />
	</node>
	<node lat="63.256872220422856" lon="11.11070834253565" id="-38292">
		<tag k="name" v="Brubakk" />
		<tag k="place" v="farm" />
		<tag k="ssr:stedsnr" v="134365" />
	</node>
	<node lat="63.26305463645307" lon="11.131328273022122" id="-38293">
		<tag k="name" v="Litjmoen" />
		<tag k="place" v="locality" />
		<tag k="ssr:stedsnr" v="134366" />
	</node>
	<node lat="63.316817906007564" lon="10.926944837842218" id="-38294">
		<tag k="name" v="Engtjenna" />
		<tag k="natural" v="water" />
		<tag k="old_name" v="Engtjørna" />
		<tag k="ssr:stedsnr" v="134407" />
	</node>
	<node lat="63.31830555817985" lon="11.004163881697435" id="-38295">
		<tag k="fixme" v="consider natural=peak for the most distinct mountains in the district" />
		<tag k="name" v="Midtivollfjellet" />
		<tag k="natural" v="hill" />
		<tag k="place" v="locality" />
		<tag k="ssr:stedsnr" v="134410" />
	</node>
	<node lat="63.15377778103992" lon="11.421280553555583" id="-38296">
		<tag k="historic" v="shieling" />
		<tag k="name" v="Gruvvollen" />
		<tag k="place" v="isolated_dwelling" />
		<tag k="ssr:stedsnr" v="255226" />
	</node>
	<node lat="63.15080555769728" lon="11.27893055778028" id="-38297">
		<tag k="fixme" v="consider natural=peak for the most distinct mountains in the district" />
		<tag k="name" v="Storknippen" />
		<tag k="natural" v="hill" />
		<tag k="place" v="locality" />
		<tag k="ssr:stedsnr" v="255230" />
	</node>
	<node lat="63.198127773942716" lon="11.242922231593726" id="-38298">
		<tag k="historic" v="shieling" />
		<tag k="name" v="Øvre Lunden" />
		<tag k="place" v="isolated_dwelling" />
		<tag k="ssr:stedsnr" v="255238" />
	</node>
	<node lat="63.137422225112616" lon="11.523575007082037" id="-38299">
		<tag k="name" v="Veltjennin" />
		<tag k="natural" v="water" />
		<tag k="ssr:stedsnr" v="141207" />
	</node>
	<node lat="63.18773703149087" lon="10.835760215963314" id="-38300">
		<tag k="fixme" v="consider natural=peak for the most distinct mountains in the district" />
		<tag k="name" v="Svartåsen" />
		<tag k="natural" v="hill" />
		<tag k="place" v="locality" />
		<tag k="ssr:stedsnr" v="141312" />
	</node>
	<node lat="63.13737636985762" lon="11.014914739574284" id="-38301">
		<tag k="name" v="Nålfossen" />
		<tag k="natural" v="waterfall" />
		<tag k="ssr:stedsnr" v="142307" />
	</node>
	<node lat="63.206144441361076" lon="11.020725009479532" id="-38302">
		<tag k="name" v="Trøa" />
		<tag k="place" v="farm" />
		<tag k="ssr:stedsnr" v="255042" />
	</node>
	<node lat="63.064594251748545" lon="11.094137261911404" id="-38303">
		<tag k="name" v="Skortjenna" />
		<tag k="natural" v="water" />
		<tag k="ssr:stedsnr" v="142283" />
	</node>
	<node lat="63.163558332258056" lon="11.1345305652348" id="-38304">
		<tag k="name" v="Litjdamtjenna" />
		<tag k="natural" v="water" />
		<tag k="ssr:stedsnr" v="142288" />
	</node>
	<node lat="63.234236115142004" lon="11.02841944064383" id="-38305">
		<tag k="name" v="Haverneset" />
		<tag k="natural" v="cape" />
		<tag k="ssr:stedsnr" v="255001" />
	</node>
	<node lat="63.19926535151631" lon="10.953400172829921" id="-38306">
		<tag k="alt_name" v="Slindmo" />
		<tag k="name" v="Slindmoen" />
		<tag k="place" v="farm" />
		<tag k="ssr:stedsnr" v="255090" />
	</node>
	<node lat="63.21753332914791" lon="11.045672214620012" id="-38307">
		<tag k="name" v="Lekåa" />
		<tag k="place" v="farm" />
		<tag k="ssr:stedsnr" v="255052" />
	</node>
	<node lat="63.22765000133721" lon="11.064980560122496" id="-38308">
		<tag k="name" v="Alfardalen" />
		<tag k="natural" v="valley" />
		<tag k="place" v="locality" />
		<tag k="ssr:stedsnr" v="255060" />
	</node>
	<node lat="63.227601940647915" lon="10.847031521075074" id="-38309">
		<tag k="name" v="Sandtjenna" />
		<tag k="natural" v="water" />
		<tag k="ssr:stedsnr" v="255062" />
	</node>
	<node lat="63.176858917169575" lon="11.154730928541065" id="-38310">
		<tag k="historic" v="shieling" />
		<tag k="name" v="Stokkvollen" />
		<tag k="place" v="isolated_dwelling" />
		<tag k="ssr:stedsnr" v="255130" />
	</node>
	<node lat="63.201808330665436" lon="11.13473611455176" id="-38311">
		<tag k="fixme" v="consider place=hamlet" />
		<tag k="name" v="Hyttbakken" />
		<tag k="place" v="village" />
		<tag k="ssr:stedsnr" v="255101" />
	</node>
	<node lat="63.208186113969035" lon="11.531886115693352" id="-38312">
		<tag k="name" v="Svenskmoen" />
		<tag k="place" v="isolated_dwelling" />
		<tag k="ssr:stedsnr" v="255200" />
	</node>
	<node lat="63.117263886841755" lon="10.972644447165555" id="-38313">
		<tag k="historic" v="shieling" />
		<tag k="name" v="Sandvollen" />
		<tag k="place" v="isolated_dwelling" />
		<tag k="ssr:stedsnr" v="255155" />
	</node>
	<node lat="63.108660499137955" lon="11.07673055133703" id="-38314">
		<tag k="historic" v="shieling" />
		<tag k="name" v="Tangvollen" />
		<tag k="place" v="isolated_dwelling" />
		<tag k="ssr:stedsnr" v="255158" />
	</node>
	<node lat="63.17443611039779" lon="11.235725001580684" id="-38315">
		<tag k="historic" v="shieling" />
		<tag k="name" v="Vårvollen" />
		<tag k="place" v="isolated_dwelling" />
		<tag k="ssr:stedsnr" v="255248" />
	</node>
	<node lat="63.33534722439091" lon="11.135797214046567" id="-38316">
		<tag k="name" v="Stor-Olemstjenna" />
		<tag k="natural" v="water" />
		<tag k="ssr:stedsnr" v="255327" />
	</node>
	<node lat="63.039130551397264" lon="11.299452784062165" id="-38317">
		<tag k="name" v="Kløftbekken" />
		<tag k="ssr:stedsnr" v="255354" />
		<tag k="waterway" v="stream" />
	</node>
	<node lat="63.18610000068539" lon="11.383283326858452" id="-38318">
		<tag k="name" v="Driva" />
		<tag k="ssr:stedsnr" v="255498" />
		<tag k="waterway" v="river" />
	</node>
	<node lat="63.27986666804037" lon="11.481808331781773" id="-38319">
		<tag k="fixme" v="consider natural=peak for the most distinct mountains in the district" />
		<tag k="name" v="Brennrya" />
		<tag k="natural" v="hill" />
		<tag k="place" v="locality" />
		<tag k="ssr:stedsnr" v="256081" />
	</node>
	<node lat="63.30867777553107" lon="11.05856667591297" id="-38320">
		<tag k="name" v="Røsbekken" />
		<tag k="ssr:stedsnr" v="256266" />
		<tag k="waterway" v="stream" />
	</node>
	<node lat="63.304663887378034" lon="11.217233328016475" id="-38321">
		<tag k="name" v="Hovsvollen" />
		<tag k="place" v="locality" />
		<tag k="ssr:stedsnr" v="256269" />
	</node>
	<node lat="63.27317222553965" lon="11.130238887334249" id="-38322">
		<tag k="name" v="Myran" />
		<tag k="place" v="farm" />
		<tag k="ssr:stedsnr" v="256273" />
	</node>
	<node lat="63.26783333292961" lon="10.83612499870556" id="-38323">
		<tag k="name" v="Svarttjenna" />
		<tag k="natural" v="water" />
		<tag k="ssr:stedsnr" v="256310" />
	</node>
	<node lat="63.284443775152596" lon="11.144913204390798" id="-38324">
		<tag k="name" v="Alsettjenna" />
		<tag k="natural" v="water" />
		<tag k="ssr:stedsnr" v="256281" />
	</node>
	<node lat="63.26008888589943" lon="11.086291673626276" id="-38325">
		<tag k="name" v="Nyberg" />
		<tag k="place" v="farm" />
		<tag k="ssr:stedsnr" v="256298" />
	</node>
	<node lat="63.269261112041924" lon="11.059902777886352" id="-38326">
		<tag k="alt_name" v="Setsåsøya" />
		<tag k="name" v="Sessåsøya" />
		<tag k="place" v="islet" />
		<tag k="ssr:stedsnr" v="256321" />
	</node>
	<node lat="63.21740555539882" lon="10.834113885000145" id="-38327">
		<tag k="name" v="Håmmårknippen" />
		<tag k="place" v="locality" />
		<tag k="ssr:stedsnr" v="155419" />
	</node>
	<node lat="63.08186111317856" lon="11.325808327482806" id="-38328">
		<tag k="name" v="Stenslåtten" />
		<tag k="place" v="locality" />
		<tag k="ssr:stedsnr" v="155570" />
	</node>
	<node lat="63.11025278184417" lon="11.322508327765117" id="-38329">
		<tag k="building" v="industrial" />
		<tag k="name" v="Smedrommet" />
		<tag k="ssr:stedsnr" v="155571" />
	</node>
	<node lat="63.23043333073781" lon="11.311330556993404" id="-38330">
		<tag k="name" v="Bårdshaugen" />
		<tag k="natural" v="hill" />
		<tag k="place" v="locality" />
		<tag k="ssr:stedsnr" v="155713" />
	</node>
	<node lat="63.26401110703706" lon="11.116133339569599" id="-38331">
		<tag k="name" v="Langset" />
		<tag k="place" v="farm" />
		<tag k="ssr:stedsnr" v="155718" />
	</node>
	<node lat="63.24936666712632" lon="10.676061120705489" id="-38332">
		<tag k="name" v="Gropdalshøgda" />
		<tag k="natural" v="hill" />
		<tag k="place" v="locality" />
		<tag k="ssr:stedsnr" v="155499" />
	</node>
	<node lat="63.2318333318615" lon="10.700219453233672" id="-38333">
		<tag k="name" v="Hånnåa" />
		<tag k="ssr:stedsnr" v="155500" />
		<tag k="waterway" v="river" />
	</node>
	<node lat="63.23821666455777" lon="11.357783340137544" id="-38334">
		<tag k="name" v="Stenbekken" />
		<tag k="ssr:stedsnr" v="155659" />
		<tag k="waterway" v="stream" />
	</node>
	<node lat="63.19196388603936" lon="11.130916663331696" id="-38335">
		<tag k="name" v="Kråkstadekra" />
		<tag k="place" v="farm" />
		<tag k="ssr:stedsnr" v="155661" />
	</node>
	<node lat="63.27453333426831" lon="11.083413880559519" id="-38336">
		<tag k="name" v="Granbybakken" />
		<tag k="natural" v="slope" />
		<tag k="place" v="locality" />
		<tag k="ssr:stedsnr" v="155804" />
	</node>
	<node lat="63.262491667290895" lon="11.094377783770858" id="-38337">
		<tag k="fixme" v="consider natural=peak for the most distinct mountains in the district" />
		<tag k="name" v="Kvithåmmåren" />
		<tag k="natural" v="hill" />
		<tag k="place" v="locality" />
		<tag k="ssr:stedsnr" v="155809" />
	</node>
	<node lat="63.10414444287161" lon="11.086127768840784" id="-38338">
		<tag k="name" v="Ner Østrungsfossen" />
		<tag k="natural" v="waterfall" />
		<tag k="ssr:stedsnr" v="155823" />
	</node>
	<node lat="63.2487666682547" lon="11.02388332899796" id="-38339">
		<tag k="name" v="Stormyra" />
		<tag k="natural" v="wetland" />
		<tag k="ssr:stedsnr" v="156149" />
	</node>
	<node lat="63.25429166846633" lon="11.02152777587246" id="-38340">
		<tag k="name" v="Litjvika" />
		<tag k="natural" v="bay" />
		<tag k="ssr:stedsnr" v="156151" />
	</node>
	<node lat="63.31888611065071" lon="11.019358338771136" id="-38341">
		<tag k="historic" v="shieling" />
		<tag k="name" v="Pundsmidtivollen" />
		<tag k="place" v="locality" />
		<tag k="ssr:stedsnr" v="156159" />
	</node>
	<node lat="63.306863892234524" lon="11.022211107397982" id="-38342">
		<tag k="historic" v="shieling" />
		<tag k="name" v="Høstvollen" />
		<tag k="place" v="locality" />
		<tag k="ssr:stedsnr" v="156160" />
	</node>
	<node lat="63.20621944617989" lon="11.130180548884475" id="-38343">
		<tag k="name" v="Kallarsbekken" />
		<tag k="ssr:stedsnr" v="156019" />
		<tag k="waterway" v="stream" />
	</node>
	<node lat="63.128572221521274" lon="11.11179444219417" id="-38344">
		<tag k="name" v="Okstjennbekken" />
		<tag k="ssr:stedsnr" v="156203" />
		<tag k="waterway" v="stream" />
	</node>
	<node lat="63.16711110754599" lon="11.117102776090594" id="-38345">
		<tag k="name" v="Hansmyra" />
		<tag k="natural" v="wetland" />
		<tag k="ssr:stedsnr" v="156214" />
	</node>
	<node lat="63.1618250009752" lon="11.114469451270853" id="-38346">
		<tag k="name" v="Gulltjenna" />
		<tag k="natural" v="water" />
		<tag k="ssr:stedsnr" v="156216" />
	</node>
	<node lat="63.09151389123656" lon="11.189791670666633" id="-38347">
		<tag k="name" v="Helvetesdalen" />
		<tag k="natural" v="valley" />
		<tag k="place" v="locality" />
		<tag k="ssr:stedsnr" v="156197" />
	</node>
	<node lat="63.17341666596789" lon="11.016627769745872" id="-38348">
		<tag k="name" v="Finnråa" />
		<tag k="natural" v="hill" />
		<tag k="place" v="locality" />
		<tag k="ssr:stedsnr" v="156305" />
	</node>
	<node lat="63.254936115377326" lon="10.74122500820566" id="-38349">
		<tag k="name" v="Dammyra" />
		<tag k="natural" v="wetland" />
		<tag k="ssr:stedsnr" v="156411" />
	</node>
	<node lat="63.23270277733326" lon="10.749491664782301" id="-38350">
		<tag k="name" v="Garbergsmyran" />
		<tag k="natural" v="wetland" />
		<tag k="ssr:stedsnr" v="156414" />
	</node>
	<node lat="63.24513055749606" lon="11.132591663227688" id="-38351">
		<tag k="name" v="Høgkjølen" />
		<tag k="natural" v="wetland" />
		<tag k="ssr:stedsnr" v="157048" />
	</node>
	<node lat="63.291869447816836" lon="11.209138892259606" id="-38352">
		<tag k="name" v="Grytbekken" />
		<tag k="ssr:stedsnr" v="157051" />
		<tag k="waterway" v="stream" />
	</node>
	<node lat="63.289674469725526" lon="11.188812840774977" id="-38353">
		<tag k="historic" v="shieling" />
		<tag k="name" v="Sirvollen" />
		<tag k="place" v="isolated_dwelling" />
		<tag k="ssr:stedsnr" v="157054" />
	</node>
	<node lat="63.3177750019551" lon="11.195155562508756" id="-38354">
		<tag k="name" v="Børsjøtjenna" />
		<tag k="natural" v="water" />
		<tag k="ssr:stedsnr" v="157066" />
	</node>
	<node lat="63.21232199354213" lon="11.314906847064055" id="-38355">
		<tag k="name" v="Fargåsbekken" />
		<tag k="ssr:stedsnr" v="157966" />
		<tag k="waterway" v="stream" />
	</node>
	<node lat="63.20589999634919" lon="10.991366667849668" id="-38356">
		<tag k="name" v="Dammyra" />
		<tag k="natural" v="wetland" />
		<tag k="ssr:stedsnr" v="158320" />
	</node>
	<node lat="63.26886110762483" lon="10.962500002028941" id="-38357">
		<tag k="fixme" v="consider natural=peak for the most distinct mountains in the district" />
		<tag k="name" v="Ratåsen" />
		<tag k="natural" v="hill" />
		<tag k="place" v="locality" />
		<tag k="ssr:stedsnr" v="158322" />
	</node>
	<node lat="63.30142221913133" lon="10.981355562133778" id="-38358">
		<tag k="name" v="Lian" />
		<tag k="natural" v="slope" />
		<tag k="place" v="locality" />
		<tag k="ssr:stedsnr" v="158359" />
	</node>
	<node lat="63.189436106804585" lon="11.077483325158765" id="-38359">
		<tag k="fixme" v="consider natural=peak for the most distinct mountains in the district" />
		<tag k="name" v="Øveråsen" />
		<tag k="natural" v="hill" />
		<tag k="place" v="locality" />
		<tag k="ssr:stedsnr" v="158221" />
	</node>
	<node lat="63.25574721821242" lon="10.87375555653574" id="-38360">
		<tag k="name" v="Djupdalen" />
		<tag k="natural" v="valley" />
		<tag k="place" v="locality" />
		<tag k="ssr:stedsnr" v="158268" />
	</node>
	<node lat="63.22063611247147" lon="11.082411116865076" id="-38361">
		<tag k="name" v="Prekstolen" />
		<tag k="natural" v="hill" />
		<tag k="place" v="locality" />
		<tag k="ssr:stedsnr" v="158270" />
	</node>
	<node lat="63.25500277887631" lon="10.7900555500474" id="-38362">
		<tag k="name" v="Okstadåsen" />
		<tag k="place" v="farm" />
		<tag k="ssr:stedsnr" v="158403" />
	</node>
	<node lat="63.19430277841275" lon="10.829141663085831" id="-38363">
		<tag k="name" v="Nyvolldalen" />
		<tag k="natural" v="valley" />
		<tag k="place" v="locality" />
		<tag k="ssr:stedsnr" v="158405" />
	</node>
	<node lat="63.19357777767896" lon="10.843272229912577" id="-38364">
		<tag k="name" v="Renåa" />
		<tag k="ssr:stedsnr" v="158412" />
		<tag k="waterway" v="river" />
	</node>
	<node lat="63.296391670093264" lon="10.729780564582244" id="-38365">
		<tag k="name" v="Sagfjorden" />
		<tag k="natural" v="water" />
		<tag k="ssr:stedsnr" v="158422" />
		<tag k="water" v="lake" />
	</node>
	<node lat="63.245472221239616" lon="10.73938056291095" id="-38366">
		<tag k="name" v="Høgrya" />
		<tag k="natural" v="wetland" />
		<tag k="ssr:stedsnr" v="158400" />
	</node>
	<node lat="63.20086388819499" lon="11.179147218786952" id="-38367">
		<tag k="fixme" v="consider natural=peak for the most distinct mountains in the district" />
		<tag k="name" v="Høgåsen" />
		<tag k="natural" v="hill" />
		<tag k="place" v="locality" />
		<tag k="ssr:stedsnr" v="158504" />
	</node>
	<node lat="63.19824166500049" lon="11.114280546375397" id="-38368">
		<tag k="name" v="Kamløken" />
		<tag k="ssr:stedsnr" v="158508" />
		<tag k="waterway" v="river" />
	</node>
	<node lat="63.23936666299405" lon="11.074719439941607" id="-38369">
		<tag k="name" v="Vølsetsve" />
		<tag k="place" v="farm" />
		<tag k="ssr:stedsnr" v="158550" />
	</node>
	<node lat="63.27544722319932" lon="10.678055554639474" id="-38370">
		<tag k="name" v="Varmdalsvika" />
		<tag k="natural" v="bay" />
		<tag k="ssr:stedsnr" v="158563" />
	</node>
	<node lat="63.229619448910746" lon="10.6864805528256" id="-38371">
		<tag k="name" v="Grønlia" />
		<tag k="natural" v="slope" />
		<tag k="place" v="locality" />
		<tag k="ssr:stedsnr" v="158565" />
	</node>
	<node lat="63.23858333293487" lon="10.709169434864437" id="-38372">
		<tag k="name" v="Puttjenna" />
		<tag k="natural" v="water" />
		<tag k="ssr:stedsnr" v="158567" />
	</node>
	<node lat="63.19911666404159" lon="11.144522227951276" id="-38373">
		<tag k="name" v="Nordgard" />
		<tag k="place" v="farm" />
		<tag k="ssr:stedsnr" v="158568" />
	</node>
	<node lat="63.251308337139726" lon="10.930599992778054" id="-38374">
		<tag k="name" v="Negarden" />
		<tag k="place" v="farm" />
		<tag k="ssr:stedsnr" v="158721" />
	</node>
	<node lat="63.288319441230925" lon="10.672208331838085" id="-38375">
		<tag k="name" v="Linkjeldskjølen" />
		<tag k="natural" v="wetland" />
		<tag k="ssr:stedsnr" v="158757" />
	</node>
	<node lat="63.181394443496856" lon="10.845688888390614" id="-38376">
		<tag k="name" v="Renåelva" />
		<tag k="ssr:stedsnr" v="158450" />
		<tag k="waterway" v="river" />
	</node>
	<node lat="63.19674444626994" lon="11.241105559374398" id="-38377">
		<tag k="name" v="Lundabekken" />
		<tag k="ssr:stedsnr" v="158498" />
		<tag k="waterway" v="stream" />
	</node>
	<node lat="63.19302499747235" lon="11.229638897180147" id="-38378">
		<tag k="name" v="Stordalen" />
		<tag k="natural" v="valley" />
		<tag k="place" v="locality" />
		<tag k="ssr:stedsnr" v="158501" />
	</node>
	<node lat="63.18942222226078" lon="11.329605550793502" id="-38379">
		<tag k="fixme" v="consider natural=peak for the most distinct mountains in the district" />
		<tag k="name" v="Gråsteinryan" />
		<tag k="natural" v="hill" />
		<tag k="place" v="locality" />
		<tag k="ssr:stedsnr" v="158606" />
	</node>
	<node lat="63.10806388510887" lon="11.282138880186784" id="-38380">
		<tag k="name" v="Uthusplassen" />
		<tag k="place" v="farm" />
		<tag k="ssr:stedsnr" v="158617" />
	</node>
	<node lat="63.15349999773453" lon="11.25458611711371" id="-38381">
		<tag k="historic" v="shieling" />
		<tag k="name" v="Ørås" />
		<tag k="place" v="isolated_dwelling" />
		<tag k="ssr:stedsnr" v="158621" />
	</node>
	<node lat="63.169011109268745" lon="10.951122215400028" id="-38382">
		<tag k="historic" v="shieling" />
		<tag k="name" v="Kotlivollen" />
		<tag k="place" v="isolated_dwelling" />
		<tag k="ssr:stedsnr" v="159013" />
	</node>
	<node lat="63.259038890297965" lon="10.96270555096124" id="-38383">
		<tag k="alt_name" v="Engan ø." />
		<tag k="name" v="Østre Engan" />
		<tag k="place" v="farm" />
		<tag k="ssr:stedsnr" v="159021" />
	</node>
	<node lat="63.204963886467425" lon="11.021061113155485" id="-38384">
		<tag k="name" v="Grimsplassen" />
		<tag k="place" v="farm" />
		<tag k="ssr:stedsnr" v="159052" />
	</node>
	<node lat="63.24813889127748" lon="10.89370833659441" id="-38385">
		<tag k="name" v="Solemsodden" />
		<tag k="natural" v="cape" />
		<tag k="ssr:stedsnr" v="159252" />
	</node>
	<node lat="63.226986112958976" lon="11.039422227129688" id="-38386">
		<tag k="name" v="Hårstadhaugan" />
		<tag k="natural" v="hill" />
		<tag k="place" v="locality" />
		<tag k="ssr:stedsnr" v="159423" />
	</node>
	<node lat="63.16090277464911" lon="11.246477781654018" id="-38387">
		<tag k="name" v="Våttån" />
		<tag k="natural" v="hill" />
		<tag k="place" v="locality" />
		<tag k="ssr:stedsnr" v="159458" />
	</node>
	<node lat="63.21899722527031" lon="10.98463334140302" id="-38388">
		<tag k="name" v="Vikabakken" />
		<tag k="natural" v="slope" />
		<tag k="place" v="locality" />
		<tag k="ssr:stedsnr" v="159459" />
	</node>
	<node lat="63.091108331067666" lon="10.974522214465651" id="-38389">
		<tag k="name" v="Dissabekken" />
		<tag k="ssr:stedsnr" v="159462" />
		<tag k="waterway" v="stream" />
	</node>
	<node lat="63.2005194440126" lon="10.897675006387628" id="-38390">
		<tag k="name" v="Skogamyran" />
		<tag k="natural" v="wetland" />
		<tag k="ssr:stedsnr" v="159200" />
	</node>
	<node lat="63.17772222350676" lon="10.993213890223076" id="-38391">
		<tag k="name" v="Hundtjennbrettet" />
		<tag k="place" v="locality" />
		<tag k="ssr:stedsnr" v="159303" />
	</node>
	<node lat="63.181525001594466" lon="11.111274991026459" id="-38392">
		<tag k="name" v="Tømmermyra" />
		<tag k="natural" v="wetland" />
		<tag k="ssr:stedsnr" v="159352" />
	</node>
	<node lat="63.31465555189833" lon="10.979991674660882" id="-38393">
		<tag k="historic" v="shieling" />
		<tag k="name" v="Litjvollen" />
		<tag k="place" v="locality" />
		<tag k="ssr:stedsnr" v="159518" />
	</node>
	<node lat="63.31809721906402" lon="11.107927777605502" id="-38394">
		<tag k="historic" v="shieling" />
		<tag k="name" v="Tømmervollen" />
		<tag k="place" v="isolated_dwelling" />
		<tag k="ssr:stedsnr" v="159523" />
	</node>
	<node lat="63.26918055560277" lon="10.993769446541876" id="-38395">
		<tag k="historic" v="shieling" />
		<tag k="name" v="Nygjardet" />
		<tag k="place" v="isolated_dwelling" />
		<tag k="ssr:stedsnr" v="159601" />
	</node>
	<node lat="63.216680556181565" lon="11.0389722256372" id="-38396">
		<tag k="amenity" v="place_of_worship" />
		<tag k="fixme" v="specify religion=*, denomination=*, building=* etc" />
		<tag k="name" v="Selbu menighetshus" />
		<tag k="ssr:stedsnr" v="179471" />
	</node>
	<node lat="63.22926666641742" lon="11.035377768796096" id="-38397">
		<tag k="amenity" v="school" />
		<tag k="name" v="Selbu videregående skole" />
		<tag k="ssr:stedsnr" v="179764" />
	</node>
	<node lat="63.16416240780801" lon="10.881546227580738" id="-38398">
		<tag k="fixme" v="consider natural=peak for the most distinct mountains in the district" />
		<tag k="loc_name" v="Mørreggtoppen" />
		<tag k="name" v="Mørrøytoppen" />
		<tag k="natural" v="hill" />
		<tag k="place" v="locality" />
		<tag k="ssr:stedsnr" v="263128" />
	</node>
	<node lat="63.15848840690961" lon="11.471126698835254" id="-38399">
		<tag k="name" v="Syndre Hoemsvollen" />
		<tag k="place" v="isolated_dwelling" />
		<tag k="ssr:stedsnr" v="263223" />
	</node>
	<node lat="63.089385151525164" lon="11.28794535272513" id="-38400">
		<tag k="historic" v="shieling" />
		<tag k="name" v="Melavollen" />
		<tag k="place" v="isolated_dwelling" />
		<tag k="ssr:stedsnr" v="263185" />
	</node>
	<node lat="63.13232778190707" lon="11.455666675398824" id="-38401">
		<tag k="name" v="Nedre Drøytjenna" />
		<tag k="natural" v="water" />
		<tag k="ssr:stedsnr" v="263236" />
	</node>
	<node lat="63.13398888439503" lon="11.30301389353492" id="-38402">
		<tag k="fixme" v="consider natural=peak for the most distinct mountains in the district" />
		<tag k="name" v="Seterbrennene" />
		<tag k="natural" v="hill" />
		<tag k="place" v="locality" />
		<tag k="ssr:stedsnr" v="263237" />
	</node>
	<node lat="63.140147221497415" lon="11.52182778360951" id="-38403">
		<tag k="name" v="Nedre Veltjenna" />
		<tag k="natural" v="water" />
		<tag k="ssr:stedsnr" v="263239" />
	</node>
	<node lat="63.166280554220826" lon="11.00959722292082" id="-38404">
		<tag k="fixme" v="consider natural=peak for the most distinct mountains in the district" />
		<tag k="name" v="Åsvollhøgda" />
		<tag k="natural" v="hill" />
		<tag k="place" v="locality" />
		<tag k="ssr:stedsnr" v="263343" />
	</node>
	<node lat="63.084954271734546" lon="10.982207781806233" id="-38405">
		<tag k="name" v="Storlivollen" />
		<tag k="place" v="isolated_dwelling" />
		<tag k="ssr:stedsnr" v="263346" />
	</node>
	<node lat="63.10179059596605" lon="10.98383211767996" id="-38406">
		<tag k="name" v="Aunlivollen" />
		<tag k="place" v="isolated_dwelling" />
		<tag k="ssr:stedsnr" v="263347" />
	</node>
	<node lat="63.1446016947188" lon="11.016443096926428" id="-38407">
		<tag k="name" v="Brandfossen" />
		<tag k="natural" v="waterfall" />
		<tag k="ssr:stedsnr" v="263348" />
	</node>
	<node lat="63.181277780318034" lon="11.09012499058661" id="-38408">
		<tag k="name" v="Bønndalsbekken" />
		<tag k="ssr:stedsnr" v="263353" />
		<tag k="waterway" v="stream" />
	</node>
	<node lat="63.283569442370016" lon="10.730955552104021" id="-38409">
		<tag k="fixme" v="consider natural=peak for the most distinct mountains in the district" />
		<tag k="name" v="Gåttåsfjellet" />
		<tag k="natural" v="hill" />
		<tag k="place" v="locality" />
		<tag k="ssr:stedsnr" v="195334" />
	</node>
	<node lat="63.29211388944769" lon="11.024050008633912" id="-38410">
		<tag k="name" v="Storberget" />
		<tag k="natural" v="hill" />
		<tag k="place" v="locality" />
		<tag k="ssr:stedsnr" v="195339" />
	</node>
	<node lat="63.291799998091186" lon="10.97814721584989" id="-38411">
		<tag k="fixme" v="consider natural=peak for the most distinct mountains in the district" />
		<tag k="name" v="Torsåsen" />
		<tag k="natural" v="hill" />
		<tag k="place" v="locality" />
		<tag k="ssr:stedsnr" v="195341" />
	</node>
	<node lat="63.26200277528048" lon="11.088522220724258" id="-38412">
		<tag k="alt_name" v="Bjørgen" />
		<tag k="name" v="Garbergsbjørga" />
		<tag k="place" v="farm" />
		<tag k="ssr:stedsnr" v="195348" />
	</node>
	<node lat="63.26501389197798" lon="10.933102772302867" id="-38413">
		<tag k="name" v="Grøtemselva" />
		<tag k="ssr:stedsnr" v="195352" />
		<tag k="waterway" v="stream" />
	</node>
	<node lat="63.25777500016323" lon="10.921461105667753" id="-38414">
		<tag k="name" v="Dalen" />
		<tag k="place" v="farm" />
		<tag k="ssr:stedsnr" v="195353" />
	</node>
	<node lat="63.3357972194605" lon="11.071833339891962" id="-38415">
		<tag k="name" v="Grindbjørgin" />
		<tag k="place" v="isolated_dwelling" />
		<tag k="ssr:stedsnr" v="195357" />
	</node>
	<node lat="63.30393889104237" lon="10.934872215410595" id="-38416">
		<tag k="name" v="Grøtemsvollen" />
		<tag k="place" v="isolated_dwelling" />
		<tag k="ssr:stedsnr" v="195369" />
	</node>
	<node lat="63.30540000309839" lon="10.99362777567503" id="-38417">
		<tag k="fixme" v="consider natural=peak for the most distinct mountains in the district" />
		<tag k="name" v="Gjøversalen" />
		<tag k="natural" v="hill" />
		<tag k="place" v="locality" />
		<tag k="ssr:stedsnr" v="195372" />
	</node>
	<node lat="63.33822777458674" lon="11.261519446865885" id="-38418">
		<tag k="name" v="Vollsetbekken" />
		<tag k="ssr:stedsnr" v="195429" />
		<tag k="waterway" v="stream" />
	</node>
	<node lat="63.340074997252465" lon="11.051699989989682" id="-38419">
		<tag k="name" v="Hundmyra" />
		<tag k="natural" v="wetland" />
		<tag k="ssr:stedsnr" v="195436" />
	</node>
	<node lat="65.11002777597567" lon="13.085422216082504" id="-38420">
		<tag k="fixme" v="consider natural=peak for the most distinct mountains in the district" />
		<tag k="name" v="Kløftfjellet - Sloeptjenguevtele" />
		<tag k="name:no" v="Kløftfjellet" />
		<tag k="name:sma" v="Sloeptjenguevtele" />
		<tag k="natural" v="hill" />
		<tag k="place" v="locality" />
		<tag k="ssr:stedsnr" v="196523" />
	</node>
	<node lat="63.18587499892385" lon="11.020902782091428" id="-38421">
		<tag k="name" v="Kvennhusdalen" />
		<tag k="natural" v="valley" />
		<tag k="place" v="locality" />
		<tag k="ssr:stedsnr" v="203268" />
	</node>
	<node lat="63.13838888511154" lon="11.013616661244766" id="-38422">
		<tag k="name" v="Nålholet" />
		<tag k="natural" v="bay" />
		<tag k="ssr:stedsnr" v="203293" />
	</node>
	<node lat="63.139819448302106" lon="10.77162500471218" id="-38423">
		<tag k="fixme" v="consider natural=peak for the most distinct mountains in the district" />
		<tag k="name" v="Rundsnøfonnfjellet" />
		<tag k="natural" v="hill" />
		<tag k="place" v="locality" />
		<tag k="ssr:stedsnr" v="203294" />
	</node>
	<node lat="63.154650002425676" lon="11.12990278477818" id="-38424">
		<tag k="name" v="Meddamtjenna" />
		<tag k="natural" v="water" />
		<tag k="ssr:stedsnr" v="203295" />
	</node>
	<node lat="63.27768888895717" lon="11.46202777051194" id="-38425">
		<tag k="name" v="Rensbekken" />
		<tag k="ssr:stedsnr" v="203351" />
		<tag k="waterway" v="stream" />
	</node>
	<node lat="63.2441812274001" lon="11.041170825568356" id="-38426">
		<tag k="fixme" v="consider place=hamlet" />
		<tag k="name" v="Flønes" />
		<tag k="place" v="farm" />
		<tag k="ssr:stedsnr" v="268746" />
	</node>
	<node lat="63.247194447825635" lon="10.79155001007445" id="-38427">
		<tag k="name" v="Svenskholet" />
		<tag k="place" v="locality" />
		<tag k="ssr:stedsnr" v="216406" />
	</node>
	<node lat="63.287761110642386" lon="10.802177770539108" id="-38428">
		<tag k="fixme" v="consider natural=peak for the most distinct mountains in the district" />
		<tag k="name" v="Drakstsjøbrembjørga" />
		<tag k="natural" v="hill" />
		<tag k="place" v="locality" />
		<tag k="ssr:stedsnr" v="216451" />
	</node>
	<node lat="63.24141388770088" lon="10.734669441835836" id="-38429">
		<tag k="name" v="Storgrubba" />
		<tag k="place" v="locality" />
		<tag k="ssr:stedsnr" v="216397" />
	</node>
	<node lat="63.23748055215182" lon="10.832947218292784" id="-38430">
		<tag k="name" v="Svenskbekken" />
		<tag k="ssr:stedsnr" v="216401" />
		<tag k="waterway" v="stream" />
	</node>
	<node lat="63.235572218091406" lon="10.691088891456468" id="-38431">
		<tag k="name" v="Tjurrubukjølen" />
		<tag k="natural" v="wetland" />
		<tag k="ssr:stedsnr" v="216503" />
	</node>
	<node lat="63.163033336531896" lon="10.839727768394292" id="-38432">
		<tag k="name" v="Storra" />
		<tag k="place" v="locality" />
		<tag k="ssr:stedsnr" v="216475" />
	</node>
	<node lat="63.14678055220721" lon="11.345150004210392" id="-38433">
		<tag k="name" v="Kjerringtjennin" />
		<tag k="natural" v="water" />
		<tag k="ssr:stedsnr" v="216672" />
	</node>
	<node lat="63.27844721973128" lon="11.165777776602402" id="-38434">
		<tag k="historic" v="shieling" />
		<tag k="name" v="Skardølsvollen" />
		<tag k="place" v="locality" />
		<tag k="ssr:stedsnr" v="216675" />
	</node>
	<node lat="63.3128861083484" lon="11.171894440000239" id="-38435">
		<tag k="name" v="Grønlidalen" />
		<tag k="natural" v="valley" />
		<tag k="place" v="locality" />
		<tag k="ssr:stedsnr" v="216680" />
	</node>
	<node lat="63.14218888498516" lon="11.20408610093442" id="-38436">
		<tag k="name" v="Romptjenna" />
		<tag k="natural" v="water" />
		<tag k="ssr:stedsnr" v="216805" />
	</node>
	<node lat="63.062752774910685" lon="11.060250009574409" id="-38437">
		<tag k="name" v="Lian" />
		<tag k="place" v="locality" />
		<tag k="ssr:stedsnr" v="216810" />
	</node>
	<node lat="63.07566388486659" lon="11.055922230564656" id="-38438">
		<tag k="name" v="Slindkjølen" />
		<tag k="natural" v="wetland" />
		<tag k="ssr:stedsnr" v="216812" />
	</node>
	<node lat="63.32277222650741" lon="11.247119451784354" id="-38439">
		<tag k="fixme" v="consider natural=peak for the most distinct mountains in the district" />
		<tag k="name" v="Stentjennåsen" />
		<tag k="natural" v="hill" />
		<tag k="place" v="locality" />
		<tag k="ssr:stedsnr" v="216828" />
	</node>
	<node lat="63.26162222332253" lon="11.157652776560735" id="-38440">
		<tag k="name" v="Rærsbekken" />
		<tag k="ssr:stedsnr" v="216577" />
		<tag k="waterway" v="stream" />
	</node>
	<node lat="63.27843055806426" lon="11.097705547403544" id="-38441">
		<tag k="name" v="Bærmyra" />
		<tag k="natural" v="wetland" />
		<tag k="ssr:stedsnr" v="216772" />
	</node>
	<node lat="63.27695000131785" lon="11.097461112794305" id="-38442">
		<tag k="name" v="Korpberga" />
		<tag k="natural" v="hill" />
		<tag k="place" v="locality" />
		<tag k="ssr:stedsnr" v="216786" />
	</node>
	<node lat="63.20756502595214" lon="11.095443214003502" id="-38443">
		<tag k="fixme" v="multiple name tags, choose one and add the other to alt_name" />
		<tag k="name" v="Evjen;Evja" />
		<tag k="place" v="hamlet" />
		<tag k="ssr:stedsnr" v="217126" />
	</node>
	<node lat="63.178575003413656" lon="11.188266665384182" id="-38444">
		<tag k="name" v="Hellan" />
		<tag k="place" v="locality" />
		<tag k="ssr:stedsnr" v="217013" />
	</node>
	<node lat="63.25710277826223" lon="11.106805550682878" id="-38445">
		<tag k="name" v="Dokka" />
		<tag k="place" v="island" />
		<tag k="ssr:stedsnr" v="217072" />
	</node>
	<node lat="63.19192222211538" lon="11.124458341911325" id="-38446">
		<tag k="name" v="Kråkstad" />
		<tag k="place" v="farm" />
		<tag k="ssr:stedsnr" v="217024" />
	</node>
	<node lat="63.272322224186894" lon="11.005427782512202" id="-38447">
		<tag k="name" v="Dalhaug" />
		<tag k="place" v="farm" />
		<tag k="ssr:stedsnr" v="217210" />
	</node>
	<node lat="63.11386944105964" lon="10.994719434792973" id="-38448">
		<tag k="name" v="Kneppen" />
		<tag k="place" v="locality" />
		<tag k="ssr:stedsnr" v="217310" />
	</node>
	<node lat="63.28631389004511" lon="11.17828611119694" id="-38449">
		<tag k="name" v="Sagmyra" />
		<tag k="natural" v="wetland" />
		<tag k="ssr:stedsnr" v="217713" />
	</node>
	<node lat="63.294941667761236" lon="11.103666661509969" id="-38450">
		<tag k="name" v="Trollan" />
		<tag k="place" v="locality" />
		<tag k="ssr:stedsnr" v="217726" />
	</node>
	<node lat="63.18728055842751" lon="11.397472228742036" id="-38451">
		<tag k="name" v="Roltdal statsalmenning" />
		<tag k="place" v="locality" />
		<tag k="ssr:stedsnr" v="217881" />
	</node>
	<node lat="63.30743055654897" lon="10.921547223417026" id="-38452">
		<tag k="fixme" v="consider natural=peak for the most distinct mountains in the district" />
		<tag k="name" v="Kvittopplifjellet" />
		<tag k="natural" v="hill" />
		<tag k="place" v="locality" />
		<tag k="ssr:stedsnr" v="218276" />
	</node>
	<node lat="63.28355555488883" lon="10.851805554328473" id="-38453">
		<tag k="name" v="Stentjennbakkan" />
		<tag k="natural" v="slope" />
		<tag k="place" v="locality" />
		<tag k="ssr:stedsnr" v="218281" />
	</node>
	<node lat="63.235113890338944" lon="11.346641666077609" id="-38454">
		<tag k="name" v="Hovlian" />
		<tag k="natural" v="slope" />
		<tag k="place" v="locality" />
		<tag k="ssr:stedsnr" v="217978" />
	</node>
	<node lat="63.217608334423474" lon="11.254272216273412" id="-38455">
		<tag k="name" v="Hoemsbekken" />
		<tag k="ssr:stedsnr" v="217979" />
		<tag k="waterway" v="stream" />
	</node>
	<node lat="63.095030554171856" lon="11.03903889265332" id="-38456">
		<tag k="name" v="Litjgravtjenna" />
		<tag k="natural" v="water" />
		<tag k="ssr:stedsnr" v="218323" />
	</node>
	<node lat="63.080705553899726" lon="11.08176388589964" id="-38457">
		<tag k="name" v="Tangbekken" />
		<tag k="ssr:stedsnr" v="218329" />
		<tag k="waterway" v="stream" />
	</node>
	<node lat="63.23423055551374" lon="11.03830278326308" id="-38458">
		<tag k="name" v="Skardstuggu" />
		<tag k="place" v="farm" />
		<tag k="ssr:stedsnr" v="218508" />
	</node>
	<node lat="63.08784444781035" lon="11.076008328689007" id="-38459">
		<tag k="name" v="Sjøvollbakken" />
		<tag k="natural" v="slope" />
		<tag k="place" v="locality" />
		<tag k="ssr:stedsnr" v="218512" />
	</node>
	<node lat="63.19903333720044" lon="11.04630277951269" id="-38460">
		<tag k="name" v="Kolsettrø" />
		<tag k="place" v="farm" />
		<tag k="ssr:stedsnr" v="218515" />
	</node>
	<node lat="63.2984361133997" lon="10.900661107620387" id="-38461">
		<tag k="fixme" v="consider natural=peak for the most distinct mountains in the district" />
		<tag k="name" v="Kistan" />
		<tag k="natural" v="hill" />
		<tag k="place" v="locality" />
		<tag k="ssr:stedsnr" v="218711" />
	</node>
	<node lat="63.191650004228116" lon="10.963886116330482" id="-38462">
		<tag k="name" v="Fuglhaugen" />
		<tag k="natural" v="hill" />
		<tag k="place" v="locality" />
		<tag k="ssr:stedsnr" v="219181" />
	</node>
	<node lat="63.12260555502971" lon="11.099191675974664" id="-38463">
		<tag k="name" v="Altentjenna" />
		<tag k="natural" v="water" />
		<tag k="ssr:stedsnr" v="219331" />
	</node>
	<node lat="63.06266110968172" lon="11.00034721629714" id="-38464">
		<tag k="name" v="Bubekken" />
		<tag k="ssr:stedsnr" v="219371" />
		<tag k="waterway" v="stream" />
	</node>
	<node lat="63.241427780240635" lon="11.042613892534531" id="-38465">
		<tag k="name" v="Emstadodden" />
		<tag k="natural" v="cape" />
		<tag k="ssr:stedsnr" v="219374" />
	</node>
	<node lat="63.24902222281397" lon="10.729158325319801" id="-38466">
		<tag k="name" v="Flobekken" />
		<tag k="ssr:stedsnr" v="219375" />
		<tag k="waterway" v="stream" />
	</node>
	<node lat="63.2906000035869" lon="10.96205277741073" id="-38467">
		<tag k="fixme" v="consider natural=peak for the most distinct mountains in the district" />
		<tag k="name" v="Våttafjellet" />
		<tag k="natural" v="hill" />
		<tag k="place" v="locality" />
		<tag k="ssr:stedsnr" v="219284" />
	</node>
	<node lat="63.28425277869739" lon="10.959947226674542" id="-38468">
		<tag k="name" v="Sørbustmyra" />
		<tag k="natural" v="wetland" />
		<tag k="ssr:stedsnr" v="219287" />
	</node>
	<node lat="63.2850250038084" lon="10.935130560396633" id="-38469">
		<tag k="name" v="Stenskåren" />
		<tag k="place" v="locality" />
		<tag k="ssr:stedsnr" v="219288" />
	</node>
	<node lat="63.13117221900326" lon="10.978100005299044" id="-38470">
		<tag k="name" v="Bjørndalsbekken" />
		<tag k="ssr:stedsnr" v="219405" />
		<tag k="waterway" v="stream" />
	</node>
	<node lat="63.117169443526436" lon="10.968936109004792" id="-38471">
		<tag k="name" v="Sandbekken" />
		<tag k="ssr:stedsnr" v="219407" />
		<tag k="waterway" v="stream" />
	</node>
	<node lat="63.20141666666268" lon="10.935394443148622" id="-38472">
		<tag k="name" v="Tjørnåsdalen" />
		<tag k="natural" v="valley" />
		<tag k="place" v="locality" />
		<tag k="ssr:stedsnr" v="219438" />
	</node>
	<node lat="63.16809444008027" lon="11.249533330877446" id="-38473">
		<tag k="name" v="Litjlia" />
		<tag k="natural" v="slope" />
		<tag k="place" v="locality" />
		<tag k="ssr:stedsnr" v="219502" />
	</node>
	<node lat="63.18351388905659" lon="10.964441658273978" id="-38474">
		<tag k="name" v="Kolmyra" />
		<tag k="natural" v="wetland" />
		<tag k="ssr:stedsnr" v="219508" />
	</node>
	<node lat="63.2513805562063" lon="11.230086108018956" id="-38475">
		<tag k="name" v="Septu" />
		<tag k="place" v="locality" />
		<tag k="ssr:stedsnr" v="219509" />
	</node>
	<node lat="63.22315555112381" lon="11.231080558418185" id="-38476">
		<tag k="name" v="Hokjølbakken" />
		<tag k="natural" v="slope" />
		<tag k="place" v="locality" />
		<tag k="ssr:stedsnr" v="219510" />
	</node>
	<node lat="63.22399166839707" lon="11.200508342562799" id="-38477">
		<tag k="historic" v="shieling" />
		<tag k="name" v="Hersjøvollen" />
		<tag k="place" v="locality" />
		<tag k="ssr:stedsnr" v="219522" />
	</node>
	<node lat="63.24143611345106" lon="11.076233327348017" id="-38478">
		<tag k="name" v="Nykkelmo" />
		<tag k="place" v="farm" />
		<tag k="ssr:stedsnr" v="219526" />
	</node>
	<node lat="63.248505552097576" lon="11.069638896982061" id="-38479">
		<tag k="alt_name" v="Eidemsgjardet nordre" />
		<tag k="name" v="Nordre Eidemsgjardet" />
		<tag k="place" v="farm" />
		<tag k="ssr:stedsnr" v="219528" />
	</node>
	<node lat="63.27381944071727" lon="10.690413891927687" id="-38480">
		<tag k="name" v="Storvika" />
		<tag k="natural" v="bay" />
		<tag k="ssr:stedsnr" v="219572" />
	</node>
	<node lat="63.231663888948475" lon="11.220380547960309" id="-38481">
		<tag k="historic" v="shieling" />
		<tag k="name" v="Vester Blekvollen" />
		<tag k="place" v="isolated_dwelling" />
		<tag k="ssr:stedsnr" v="219580" />
	</node>
	<node lat="63.27726944852001" lon="10.666300003565604" id="-38482">
		<tag k="name" v="Øya" />
		<tag k="place" v="island" />
		<tag k="ssr:stedsnr" v="219584" />
	</node>
	<node lat="63.24916388981824" lon="11.100791670183188" id="-38483">
		<tag k="name" v="Grinda" />
		<tag k="place" v="farm" />
		<tag k="ssr:stedsnr" v="219593" />
	</node>
	<node lat="63.29289444480294" lon="10.75790277773933" id="-38484">
		<tag k="name" v="Vollmyrin" />
		<tag k="natural" v="wetland" />
		<tag k="ssr:stedsnr" v="219720" />
	</node>
	<node lat="63.1088416657962" lon="10.943730550209953" id="-38485">
		<tag k="name" v="Gallivollbekken" />
		<tag k="ssr:stedsnr" v="219471" />
		<tag k="waterway" v="stream" />
	</node>
	<node lat="63.12933888648589" lon="10.964508337806596" id="-38486">
		<tag k="name" v="Julskardvika" />
		<tag k="natural" v="bay" />
		<tag k="ssr:stedsnr" v="219479" />
	</node>
	<node lat="63.292956084329354" lon="11.293519665916811" id="-38487">
		<tag k="historic" v="shieling" />
		<tag k="name" v="Svartåsvollen" />
		<tag k="place" v="isolated_dwelling" />
		<tag k="ssr:stedsnr" v="219605" />
	</node>
	<node lat="63.283705551522445" lon="11.259808327656689" id="-38488">
		<tag k="historic" v="shieling" />
		<tag k="name" v="Stråsjøvollen" />
		<tag k="place" v="isolated_dwelling" />
		<tag k="ssr:stedsnr" v="219607" />
	</node>
	<node lat="63.28247776256902" lon="11.235299513309261" id="-38489">
		<tag k="historic" v="shieling" />
		<tag k="name" v="Fossan" />
		<tag k="place" v="isolated_dwelling" />
		<tag k="ssr:stedsnr" v="219610" />
	</node>
	<node lat="63.19336388715657" lon="11.234880546576308" id="-38490">
		<tag k="name" v="Litjdalen" />
		<tag k="natural" v="valley" />
		<tag k="place" v="locality" />
		<tag k="ssr:stedsnr" v="219620" />
	</node>
	<node lat="63.164042554144714" lon="11.31093077269437" id="-38491">
		<tag k="historic" v="shieling" />
		<tag k="name" v="Bjørgavollen" />
		<tag k="place" v="isolated_dwelling" />
		<tag k="ssr:stedsnr" v="219638" />
	</node>
	<node lat="63.24526944872366" lon="10.685408338716423" id="-38492">
		<tag k="name" v="Prekstolen" />
		<tag k="natural" v="hill" />
		<tag k="place" v="locality" />
		<tag k="ssr:stedsnr" v="219640" />
	</node>
	<node lat="63.25036110853564" lon="10.757780557865713" id="-38493">
		<tag k="name" v="Søndre Renåa" />
		<tag k="old_name" v="Renå søndre" />
		<tag k="place" v="farm" />
		<tag k="ssr:stedsnr" v="220127" />
	</node>
	<node lat="63.27001944222327" lon="10.811033329244175" id="-38494">
		<tag k="fixme" v="consider place=hamlet" />
		<tag k="name" v="Amdal" />
		<tag k="place" v="farm" />
		<tag k="ssr:stedsnr" v="220129" />
	</node>
	<node lat="63.256894442526" lon="10.923291675707876" id="-38495">
		<tag k="name" v="Stenhaugen" />
		<tag k="place" v="farm" />
		<tag k="ssr:stedsnr" v="220030" />
	</node>
	<node lat="63.21478888675064" lon="10.864727785639118" id="-38496">
		<tag k="historic" v="shieling" />
		<tag k="name" v="Vårvollen" />
		<tag k="place" v="locality" />
		<tag k="ssr:stedsnr" v="220173" />
	</node>
	<node lat="63.11959722103287" lon="10.865911110747273" id="-38497">
		<tag k="name" v="Vass-Slættrena" />
		<tag k="place" v="locality" />
		<tag k="ssr:stedsnr" v="220280" />
	</node>
	<node lat="63.123541662263044" lon="10.881591664672353" id="-38498">
		<tag k="name" v="Setermyra" />
		<tag k="natural" v="wetland" />
		<tag k="ssr:stedsnr" v="220282" />
	</node>
	<node lat="63.277547225727595" lon="10.666838896055582" id="-38499">
		<tag k="fixme" v="consider boundary=protected_area and relevant protect_class if not nature reserve" />
		<tag k="leisure" v="nature_reserve" />
		<tag k="name" v="Øya friluftsområde" />
		<tag k="ssr:stedsnr" v="239439" />
	</node>
	<node lat="63.23678526699276" lon="11.177503150413775" id="-38500">
		<tag k="historic" v="shieling" />
		<tag k="name" v="Litjvollen" />
		<tag k="old_name" v="Lillevollen" />
		<tag k="place" v="isolated_dwelling" />
		<tag k="ssr:stedsnr" v="255004" />
	</node>
	<node lat="63.23421111296846" lon="10.74904167450506" id="-38501">
		<tag k="name" v="Styggdalsbekken" />
		<tag k="ssr:stedsnr" v="255007" />
		<tag k="waterway" v="stream" />
	</node>
	<node lat="63.24525555487303" lon="10.742363883769094" id="-38502">
		<tag k="fixme" v="consider natural=peak for the most distinct mountains in the district" />
		<tag k="name" v="Renåbjørga" />
		<tag k="natural" v="hill" />
		<tag k="place" v="locality" />
		<tag k="ssr:stedsnr" v="255024" />
	</node>
	<node lat="63.24177222507562" lon="10.825650002261057" id="-38503">
		<tag k="name" v="Sjøbygda" />
		<tag k="place" v="hamlet" />
		<tag k="ssr:stedsnr" v="255026" />
	</node>
	<node lat="63.230252774269275" lon="10.800794452116481" id="-38504">
		<tag k="fixme" v="consider natural=peak for the most distinct mountains in the district" />
		<tag k="name" v="Vaglen" />
		<tag k="natural" v="hill" />
		<tag k="place" v="locality" />
		<tag k="ssr:stedsnr" v="255065" />
	</node>
	<node lat="63.20145832979468" lon="11.306741672052226" id="-38505">
		<tag k="historic" v="shieling" />
		<tag k="name" v="Krossåvollen" />
		<tag k="place" v="isolated_dwelling" />
		<tag k="ssr:stedsnr" v="255203" />
	</node>
	<node lat="63.19933308243029" lon="11.470843939305244" id="-38506">
		<tag k="name" v="Øvre Brattslåtten" />
		<tag k="place" v="isolated_dwelling" />
		<tag k="ssr:stedsnr" v="255204" />
	</node>
	<node lat="63.01208055132371" lon="11.212513880646888" id="-38507">
		<tag k="fixme" v="consider natural=peak for the most distinct mountains in the district" />
		<tag k="name" v="Bælingfjella" />
		<tag k="natural" v="hill" />
		<tag k="place" v="locality" />
		<tag k="ssr:stedsnr" v="255206" />
	</node>
	<node lat="63.24097778088458" lon="11.520436117603353" id="-38508">
		<tag k="fixme" v="consider natural=peak for the most distinct mountains in the district" />
		<tag k="name" v="Sprøyten" />
		<tag k="natural" v="hill" />
		<tag k="place" v="locality" />
		<tag k="ssr:stedsnr" v="255213" />
	</node>
	<node lat="63.24186111116174" lon="11.410091660557056" id="-38509">
		<tag k="name" v="Krossåtjennin" />
		<tag k="natural" v="water" />
		<tag k="ssr:stedsnr" v="255214" />
	</node>
	<node lat="63.19923391729853" lon="10.945177017382566" id="-38510">
		<tag k="name" v="Aftret" />
		<tag k="place" v="hamlet" />
		<tag k="ssr:stedsnr" v="255110" />
	</node>
	<node lat="63.13465143400209" lon="10.847537140360902" id="-38511">
		<tag k="name" v="Ånbekkvollen" />
		<tag k="place" v="locality" />
		<tag k="ssr:stedsnr" v="255113" />
	</node>
	<node lat="63.125566662138326" lon="11.091205561836263" id="-38512">
		<tag k="historic" v="shieling" />
		<tag k="name" v="Hansvollen" />
		<tag k="place" v="isolated_dwelling" />
		<tag k="ssr:stedsnr" v="255116" />
	</node>
	<node lat="63.156946908889985" lon="11.1019531649191" id="-38513">
		<tag k="name" v="Stortjenna" />
		<tag k="natural" v="water" />
		<tag k="ssr:stedsnr" v="255120" />
	</node>
	<node lat="63.14353888587891" lon="10.754077787428269" id="-38514">
		<tag k="name" v="Fjellvatna" />
		<tag k="natural" v="water" />
		<tag k="ssr:stedsnr" v="255121" />
		<tag k="water" v="lake" />
	</node>
	<node lat="63.11811388631722" lon="11.217705550944656" id="-38515">
		<tag k="historic" v="shieling" />
		<tag k="name" v="Rånøyene" />
		<tag k="place" v="isolated_dwelling" />
		<tag k="ssr:stedsnr" v="255165" />
	</node>
	<node lat="63.07387499792907" lon="10.951230556032288" id="-38516">
		<tag k="historic" v="shieling" />
		<tag k="name" v="Råvollen" />
		<tag k="place" v="isolated_dwelling" />
		<tag k="ssr:stedsnr" v="255180" />
	</node>
	<node lat="63.32827514847487" lon="11.125224856689519" id="-38517">
		<tag k="name" v="Kammen" />
		<tag k="natural" v="hill" />
		<tag k="place" v="locality" />
		<tag k="ssr:stedsnr" v="255322" />
	</node>
	<node lat="63.13898888865052" lon="11.488619445113356" id="-38518">
		<tag k="fixme" v="consider natural=peak for the most distinct mountains in the district" />
		<tag k="name" v="Melshognstupet" />
		<tag k="natural" v="hill" />
		<tag k="place" v="locality" />
		<tag k="ssr:stedsnr" v="255274" />
	</node>
	<node lat="63.340236110052885" lon="11.078488891574287" id="-38519">
		<tag k="alt_name" v="Vindsmyra" />
		<tag k="name" v="Vinsmyra" />
		<tag k="natural" v="wetland" />
		<tag k="ssr:stedsnr" v="255412" />
	</node>
	<node lat="63.325233336969895" lon="11.140938880341581" id="-38520">
		<tag k="fixme" v="consider natural=peak for the most distinct mountains in the district" />
		<tag k="name" v="Brannåsen" />
		<tag k="natural" v="hill" />
		<tag k="place" v="locality" />
		<tag k="ssr:stedsnr" v="255366" />
	</node>
	<node lat="63.32620555254654" lon="11.020172230034955" id="-38521">
		<tag k="name" v="Modalen" />
		<tag k="natural" v="valley" />
		<tag k="place" v="locality" />
		<tag k="ssr:stedsnr" v="255369" />
	</node>
	<node lat="63.21260555314756" lon="10.712705563327114" id="-38522">
		<tag k="historic" v="shieling" />
		<tag k="name" v="Kjøsnesvollen" />
		<tag k="place" v="locality" />
		<tag k="ssr:stedsnr" v="255708" />
	</node>
	<node lat="63.17056388646962" lon="10.694930563930768" id="-38523">
		<tag k="name" v="Kvintusen" />
		<tag k="natural" v="hill" />
		<tag k="old_name" v="Kvintussen" />
		<tag k="place" v="locality" />
		<tag k="ssr:stedsnr" v="255804" />
	</node>
	<node lat="63.292777452679275" lon="11.295793185155004" id="-38524">
		<tag k="historic" v="shieling" />
		<tag k="name" v="Svartåsen" />
		<tag k="place" v="isolated_dwelling" />
		<tag k="ssr:stedsnr" v="256077" />
	</node>
	<node lat="63.21062499906558" lon="11.547863892251321" id="-38525">
		<tag k="name" v="Fagerlægda" />
		<tag k="natural" v="slope" />
		<tag k="place" v="locality" />
		<tag k="ssr:stedsnr" v="263203" />
	</node>
	<node lat="63.20009722279358" lon="11.497469445906301" id="-38526">
		<tag k="historic" v="shieling" />
		<tag k="name" v="Gamle Velvansvollen" />
		<tag k="place" v="locality" />
		<tag k="ssr:stedsnr" v="263207" />
	</node>
	<node lat="63.11368888610335" lon="11.045611111372406" id="-38527">
		<tag k="name" v="Blautkjølene" />
		<tag k="natural" v="wetland" />
		<tag k="ssr:stedsnr" v="263307" />
	</node>
	<node lat="63.18359722156718" lon="11.05451111613907" id="-38528">
		<tag k="name" v="Kvennbekken" />
		<tag k="ssr:stedsnr" v="263296" />
		<tag k="waterway" v="stream" />
	</node>
	<node lat="63.12385277347424" lon="11.44347221957623" id="-38529">
		<tag k="name" v="Øvre Drøytjenna" />
		<tag k="natural" v="water" />
		<tag k="ssr:stedsnr" v="270123" />
	</node>
	<node lat="63.233416662800686" lon="11.192655550983497" id="-38530">
		<tag k="name" v="Norstuvika" />
		<tag k="natural" v="bay" />
		<tag k="ssr:stedsnr" v="459050" />
	</node>
	<node lat="63.08634722163179" lon="11.023272219477942" id="-38531">
		<tag k="name" v="Nålbogen statsalmenning" />
		<tag k="place" v="locality" />
		<tag k="ssr:stedsnr" v="459518" />
	</node>
	<node lat="63.24022500300026" lon="10.738113894250375" id="-38532">
		<tag k="name" v="Bekkroken" />
		<tag k="natural" v="wetland" />
		<tag k="ssr:stedsnr" v="459395" />
	</node>
	<node lat="63.245038887617774" lon="10.75326111403723" id="-38533">
		<tag k="name" v="Bjørgamyra" />
		<tag k="natural" v="wetland" />
		<tag k="ssr:stedsnr" v="459397" />
	</node>
	<node lat="63.28125000439898" lon="10.782038895325245" id="-38534">
		<tag k="name" v="Okstjenna" />
		<tag k="natural" v="water" />
		<tag k="ssr:stedsnr" v="459429" />
	</node>
	<node lat="63.28880555337731" lon="10.837533334837811" id="-38535">
		<tag k="name" v="Gåstjenndalen" />
		<tag k="natural" v="valley" />
		<tag k="place" v="locality" />
		<tag k="ssr:stedsnr" v="459433" />
	</node>
	<node lat="63.28875555846961" lon="10.725169449865378" id="-38536">
		<tag k="fixme" v="consider natural=peak for the most distinct mountains in the district" />
		<tag k="name" v="Gåttåsan" />
		<tag k="natural" v="hill" />
		<tag k="place" v="locality" />
		<tag k="ssr:stedsnr" v="459435" />
	</node>
	<node lat="63.28116389198076" lon="10.822013897022666" id="-38537">
		<tag k="name" v="Ysterdalen" />
		<tag k="natural" v="valley" />
		<tag k="place" v="locality" />
		<tag k="ssr:stedsnr" v="459441" />
	</node>
	<node lat="63.29570277554332" lon="10.692544441454665" id="-38538">
		<tag k="name" v="Silderkjølen" />
		<tag k="natural" v="wetland" />
		<tag k="ssr:stedsnr" v="459452" />
	</node>
	<node lat="63.29913611147063" lon="10.685899999574701" id="-38539">
		<tag k="name" v="Sørungdalen" />
		<tag k="natural" v="valley" />
		<tag k="place" v="locality" />
		<tag k="ssr:stedsnr" v="459456" />
	</node>
	<node lat="63.3342833304956" lon="11.145391667362512" id="-38540">
		<tag k="name" v="Kvammyra" />
		<tag k="natural" v="wetland" />
		<tag k="ssr:stedsnr" v="459626" />
	</node>
	<node lat="63.292919443353" lon="11.112594444099793" id="-38541">
		<tag k="name" v="Brennkjølen" />
		<tag k="natural" v="wetland" />
		<tag k="ssr:stedsnr" v="459628" />
	</node>
	<node lat="63.29243611159919" lon="11.104472225168406" id="-38542">
		<tag k="name" v="Bersvenmyra" />
		<tag k="natural" v="wetland" />
		<tag k="ssr:stedsnr" v="459631" />
	</node>
	<node lat="63.09868610912387" lon="10.940694439725672" id="-38543">
		<tag k="name" v="Langkjølen" />
		<tag k="natural" v="wetland" />
		<tag k="ssr:stedsnr" v="459483" />
	</node>
	<node lat="63.21872222324051" lon="11.168525006502966" id="-38544">
		<tag k="name" v="Stenslaget" />
		<tag k="place" v="locality" />
		<tag k="ssr:stedsnr" v="459582" />
	</node>
	<node lat="63.08011666580346" lon="11.030866660701225" id="-38545">
		<tag k="name" v="Nålbogsøyan" />
		<tag k="place" v="locality" />
		<tag k="ssr:stedsnr" v="459521" />
	</node>
	<node lat="63.13811388458512" lon="11.033511119503165" id="-38546">
		<tag k="name" v="Klevkjølen" />
		<tag k="natural" v="wetland" />
		<tag k="ssr:stedsnr" v="459525" />
	</node>
	<node lat="63.06883888886217" lon="11.033144450896675" id="-38547">
		<tag k="name" v="Vålåtjennbekken" />
		<tag k="ssr:stedsnr" v="459527" />
		<tag k="waterway" v="stream" />
	</node>
	<node lat="63.1081583368844" lon="11.048350006268386" id="-38548">
		<tag k="fixme" v="consider natural=peak for the most distinct mountains in the district" />
		<tag k="name" v="Storåsen" />
		<tag k="natural" v="hill" />
		<tag k="place" v="locality" />
		<tag k="ssr:stedsnr" v="459531" />
	</node>
	<node lat="63.287763892947446" lon="10.713941676500495" id="-38549">
		<tag k="name" v="Branden" />
		<tag k="natural" v="hill" />
		<tag k="place" v="locality" />
		<tag k="ssr:stedsnr" v="459533" />
	</node>
	<node lat="63.079388893174055" lon="11.339586107368632" id="-38550">
		<tag k="name" v="Litjvollbekken" />
		<tag k="ssr:stedsnr" v="459540" />
		<tag k="waterway" v="stream" />
	</node>
	<node lat="63.091749996361656" lon="11.320988894712613" id="-38551">
		<tag k="name" v="Måssåmyran" />
		<tag k="natural" v="wetland" />
		<tag k="ssr:stedsnr" v="459545" />
	</node>
	<node lat="63.199858336271255" lon="11.096819440484529" id="-38552">
		<tag k="name" v="Måsøya" />
		<tag k="place" v="island" />
		<tag k="ssr:stedsnr" v="460158" />
	</node>
	<node lat="63.20240833032051" lon="11.150824993449099" id="-38553">
		<tag k="fixme" v="consider natural=peak for the most distinct mountains in the district" />
		<tag k="name" v="Mebostkammen" />
		<tag k="natural" v="hill" />
		<tag k="place" v="locality" />
		<tag k="ssr:stedsnr" v="459584" />
	</node>
	<node lat="63.24877500324794" lon="11.136355563176698" id="-38554">
		<tag k="fixme" v="consider natural=peak for the most distinct mountains in the district" />
		<tag k="name" v="Kaldkølåsen" />
		<tag k="natural" v="hill" />
		<tag k="place" v="locality" />
		<tag k="ssr:stedsnr" v="459595" />
	</node>
	<node lat="63.3098138848866" lon="11.151113895912575" id="-38555">
		<tag k="name" v="Hestdalen" />
		<tag k="natural" v="valley" />
		<tag k="place" v="locality" />
		<tag k="ssr:stedsnr" v="459633" />
	</node>
	<node lat="63.133741665393224" lon="11.126927775551387" id="-38556">
		<tag k="name" v="Jonshaugen" />
		<tag k="natural" v="hill" />
		<tag k="place" v="locality" />
		<tag k="ssr:stedsnr" v="459767" />
	</node>
	<node lat="63.143875002910725" lon="11.295486117278466" id="-38557">
		<tag k="name" v="Pallan" />
		<tag k="natural" v="slope" />
		<tag k="place" v="locality" />
		<tag k="ssr:stedsnr" v="459737" />
	</node>
	<node lat="63.26126111467703" lon="11.175949998942656" id="-38558">
		<tag k="name" v="Svarttjenna" />
		<tag k="natural" v="water" />
		<tag k="ssr:stedsnr" v="459742" />
	</node>
	<node lat="63.170922219822046" lon="11.140522230745939" id="-38559">
		<tag k="name" v="Volløyan" />
		<tag k="place" v="locality" />
		<tag k="ssr:stedsnr" v="459751" />
	</node>
	<node lat="63.1535888898487" lon="11.135591658361303" id="-38560">
		<tag k="fixme" v="consider natural=peak for the most distinct mountains in the district" />
		<tag k="name" v="Klokkarmyråsen" />
		<tag k="natural" v="hill" />
		<tag k="place" v="locality" />
		<tag k="ssr:stedsnr" v="459752" />
	</node>
	<node lat="63.10620833149626" lon="11.401130558495767" id="-38561">
		<tag k="historic" v="shieling" />
		<tag k="name" v="Ner Geitvollen" />
		<tag k="place" v="locality" />
		<tag k="ssr:stedsnr" v="459756" />
	</node>
	<node lat="63.133147221969935" lon="11.094477769247636" id="-38562">
		<tag k="name" v="Hogsteren" />
		<tag k="place" v="locality" />
		<tag k="ssr:stedsnr" v="459785" />
	</node>
	<node lat="63.268163886967805" lon="11.099550003479395" id="-38563">
		<tag k="name" v="Hestmyra" />
		<tag k="natural" v="wetland" />
		<tag k="ssr:stedsnr" v="459815" />
	</node>
	<node lat="63.15335833353169" lon="11.072638882797616" id="-38564">
		<tag k="name" v="Kolsetrya" />
		<tag k="natural" v="hill" />
		<tag k="place" v="locality" />
		<tag k="ssr:stedsnr" v="459817" />
	</node>
	<node lat="63.242855553709575" lon="10.741019442051211" id="-38565">
		<tag k="name" v="Litjgrubba" />
		<tag k="natural" v="wetland" />
		<tag k="ssr:stedsnr" v="277405" />
	</node>
	<node lat="63.256749999723134" lon="11.149438886413412" id="-38566">
		<tag k="fixme" v="consider natural=peak for the most distinct mountains in the district" />
		<tag k="name" v="Kutjennåsen" />
		<tag k="natural" v="hill" />
		<tag k="place" v="locality" />
		<tag k="ssr:stedsnr" v="277614" />
	</node>
	<node lat="63.27317777843323" lon="11.326008323733124" id="-38567">
		<tag k="name" v="Holmkroken" />
		<tag k="place" v="locality" />
		<tag k="ssr:stedsnr" v="459847" />
	</node>
	<node lat="63.319427774537495" lon="11.302761107294538" id="-38568">
		<tag k="name" v="Bergulen" />
		<tag k="natural" v="hill" />
		<tag k="place" v="locality" />
		<tag k="ssr:stedsnr" v="459855" />
	</node>
	<node lat="63.29227222616999" lon="10.834999996820011" id="-38569">
		<tag k="fixme" v="consider natural=peak for the most distinct mountains in the district" />
		<tag k="name" v="Grasåsen" />
		<tag k="natural" v="hill" />
		<tag k="place" v="locality" />
		<tag k="ssr:stedsnr" v="277503" />
	</node>
	<node lat="63.29090555339363" lon="10.834200002252341" id="-38570">
		<tag k="name" v="Storskardet" />
		<tag k="natural" v="valley" />
		<tag k="place" v="locality" />
		<tag k="ssr:stedsnr" v="277505" />
	</node>
	<node lat="63.079538886730454" lon="10.960108342784368" id="-38571">
		<tag k="fixme" v="consider natural=peak for the most distinct mountains in the district" />
		<tag k="name" v="Kringelåslitoppen" />
		<tag k="natural" v="hill" />
		<tag k="place" v="locality" />
		<tag k="ssr:stedsnr" v="277507" />
	</node>
	<node lat="63.254541662591" lon="10.685563894632788" id="-38572">
		<tag k="historic" v="shieling" />
		<tag k="name" v="Hånnåvollen" />
		<tag k="place" v="locality" />
		<tag k="ssr:stedsnr" v="277512" />
	</node>
	<node lat="63.250944441130414" lon="10.687094442775212" id="-38573">
		<tag k="historic" v="shieling" />
		<tag k="name" v="Gammelhånnåvollen" />
		<tag k="place" v="locality" />
		<tag k="ssr:stedsnr" v="277513" />
	</node>
	<node lat="63.10919166508468" lon="11.269572224498575" id="-38574">
		<tag k="name" v="Sandrommet" />
		<tag k="place" v="locality" />
		<tag k="ssr:stedsnr" v="277515" />
	</node>
	<node lat="63.18141111424782" lon="11.072013896151928" id="-38575">
		<tag k="name" v="Ner Rødmyra" />
		<tag k="natural" v="wetland" />
		<tag k="ssr:stedsnr" v="277524" />
	</node>
	<node lat="63.27235277705371" lon="11.107091657876458" id="-38576">
		<tag k="name" v="Langsethaugan" />
		<tag k="natural" v="hill" />
		<tag k="place" v="locality" />
		<tag k="ssr:stedsnr" v="277711" />
	</node>
	<node lat="63.33530000172768" lon="11.183783324450175" id="-38577">
		<tag k="name" v="Kroktjennin" />
		<tag k="natural" v="water" />
		<tag k="ssr:stedsnr" v="277715" />
	</node>
	<node lat="63.28383055705628" lon="11.196311105647535" id="-38578">
		<tag k="name" v="Høgkjølen" />
		<tag k="natural" v="wetland" />
		<tag k="ssr:stedsnr" v="277723" />
	</node>
	<node lat="63.27869999681125" lon="11.092850000714076" id="-38579">
		<tag k="name" v="Pallan" />
		<tag k="natural" v="hill" />
		<tag k="place" v="locality" />
		<tag k="ssr:stedsnr" v="277815" />
	</node>
	<node lat="63.166877775260005" lon="11.204061111781904" id="-38580">
		<tag k="fixme" v="consider natural=peak for the most distinct mountains in the district" />
		<tag k="name" v="Storbakkåsen" />
		<tag k="natural" v="hill" />
		<tag k="place" v="locality" />
		<tag k="ssr:stedsnr" v="277832" />
	</node>
	<node lat="63.070227773653336" lon="11.063613889307428" id="-38581">
		<tag k="name" v="Storfloen" />
		<tag k="natural" v="water" />
		<tag k="ssr:stedsnr" v="277837" />
	</node>
	<node lat="63.116761108648255" lon="11.085352778927186" id="-38582">
		<tag k="name" v="Storholmen" />
		<tag k="place" v="islet" />
		<tag k="ssr:stedsnr" v="277845" />
	</node>
	<node lat="63.337997225254185" lon="11.14883889586151" id="-38583">
		<tag k="name" v="Kågdalen" />
		<tag k="natural" v="valley" />
		<tag k="place" v="locality" />
		<tag k="ssr:stedsnr" v="277872" />
	</node>
	<node lat="63.22256389228643" lon="11.218538892277435" id="-38584">
		<tag k="name" v="Blekøyan" />
		<tag k="natural" v="wetland" />
		<tag k="ssr:stedsnr" v="277880" />
	</node>
	<node lat="63.31136111564508" lon="11.137097217445213" id="-38585">
		<tag k="name" v="Langmyra" />
		<tag k="natural" v="wetland" />
		<tag k="ssr:stedsnr" v="278114" />
	</node>
	<node lat="63.2922888857513" lon="11.203816671507395" id="-38586">
		<tag k="fixme" v="consider natural=peak for the most distinct mountains in the district" />
		<tag k="name" v="Halstensåsen" />
		<tag k="natural" v="hill" />
		<tag k="place" v="locality" />
		<tag k="ssr:stedsnr" v="278070" />
	</node>
	<node lat="63.30385832946173" lon="11.174044442763542" id="-38587">
		<tag k="name" v="Midtibekken" />
		<tag k="ssr:stedsnr" v="278080" />
		<tag k="waterway" v="stream" />
	</node>
	<node lat="63.28421944638366" lon="11.115213885615939" id="-38588">
		<tag k="name" v="Kneppa" />
		<tag k="place" v="locality" />
		<tag k="ssr:stedsnr" v="278087" />
	</node>
	<node lat="63.301277774194695" lon="11.076444435725422" id="-38589">
		<tag k="historic" v="shieling" />
		<tag k="name" v="Flønesvollen" />
		<tag k="place" v="isolated_dwelling" />
		<tag k="ssr:stedsnr" v="278202" />
	</node>
	<node lat="63.2873277790732" lon="10.991574998378923" id="-38590">
		<tag k="name" v="Sandbergsøyan" />
		<tag k="natural" v="wetland" />
		<tag k="ssr:stedsnr" v="278204" />
	</node>
	<node lat="63.28189444413673" lon="11.03320000723689" id="-38591">
		<tag k="alt_name" v="Motrøa vestre" />
		<tag k="name" v="Vestre Motrøa" />
		<tag k="place" v="farm" />
		<tag k="ssr:stedsnr" v="278209" />
	</node>
	<node lat="63.29724444144079" lon="11.00254166100343" id="-38592">
		<tag k="historic" v="shieling" />
		<tag k="name" v="Fosshøstvollen" />
		<tag k="place" v="locality" />
		<tag k="ssr:stedsnr" v="278213" />
	</node>
	<node lat="63.25286944856126" lon="11.036488888802149" id="-38593">
		<tag k="name" v="Løkmyra" />
		<tag k="natural" v="wetland" />
		<tag k="ssr:stedsnr" v="278172" />
	</node>
	<node lat="63.23893888503785" lon="11.070355553797341" id="-38594">
		<tag k="name" v="Bakkgjardet" />
		<tag k="place" v="farm" />
		<tag k="ssr:stedsnr" v="278176" />
	</node>
	<node lat="63.32730833677533" lon="11.012516660503765" id="-38595">
		<tag k="name" v="Svarttjenna" />
		<tag k="natural" v="water" />
		<tag k="ssr:stedsnr" v="278182" />
	</node>
	<node lat="63.18636388769964" lon="11.020452775483648" id="-38596">
		<tag k="name" v="Kvennhusbekken" />
		<tag k="ssr:stedsnr" v="278373" />
		<tag k="waterway" v="stream" />
	</node>
	<node lat="63.17502222118891" lon="11.008286115167312" id="-38597">
		<tag k="name" v="Åsvolltjenna" />
		<tag k="natural" v="water" />
		<tag k="ssr:stedsnr" v="278374" />
	</node>
	<node lat="63.15118055994674" lon="11.019594452021867" id="-38598">
		<tag k="fixme" v="consider natural=peak for the most distinct mountains in the district" />
		<tag k="name" v="Tærsjødalsbjørga" />
		<tag k="natural" v="hill" />
		<tag k="place" v="locality" />
		<tag k="ssr:stedsnr" v="278384" />
	</node>
	<node lat="63.16528333421827" lon="11.009152781045591" id="-38599">
		<tag k="name" v="Åsvollhøgda" />
		<tag k="natural" v="hill" />
		<tag k="place" v="locality" />
		<tag k="ssr:stedsnr" v="278386" />
	</node>
	<node lat="63.206361110097916" lon="11.102383325779613" id="-38600">
		<tag k="name" v="Neatun" />
		<tag k="place" v="farm" />
		<tag k="ssr:stedsnr" v="460034" />
	</node>
	<node lat="63.216766669154495" lon="11.410413880851735" id="-38601">
		<tag k="name" v="Vargdalen" />
		<tag k="natural" v="valley" />
		<tag k="place" v="locality" />
		<tag k="ssr:stedsnr" v="278919" />
	</node>
	<node lat="63.20997222106907" lon="11.40475277669975" id="-38602">
		<tag k="name" v="Roltdal statsalmenning" />
		<tag k="place" v="locality" />
		<tag k="ssr:stedsnr" v="278921" />
	</node>
	<node lat="63.13721389024928" lon="11.22261111308649" id="-38603">
		<tag k="name" v="Stordalen" />
		<tag k="natural" v="valley" />
		<tag k="place" v="locality" />
		<tag k="ssr:stedsnr" v="460286" />
	</node>
	<node lat="63.22484721790165" lon="10.852833336231335" id="-38604">
		<tag k="fixme" v="consider natural=peak for the most distinct mountains in the district" />
		<tag k="name" v="Sandtjennbrettet" />
		<tag k="natural" v="hill" />
		<tag k="place" v="locality" />
		<tag k="ssr:stedsnr" v="279275" />
	</node>
	<node lat="63.216363887206725" lon="10.928549994393226" id="-38605">
		<tag k="name" v="Stordalsbekken" />
		<tag k="ssr:stedsnr" v="279278" />
		<tag k="waterway" v="stream" />
	</node>
	<node lat="63.27814722571392" lon="10.958963884345085" id="-38606">
		<tag k="name" v="Rødberget" />
		<tag k="natural" v="hill" />
		<tag k="place" v="locality" />
		<tag k="ssr:stedsnr" v="279298" />
	</node>
	<node lat="63.26216666291832" lon="10.73396944465894" id="-38607">
		<tag k="name" v="Litjvika" />
		<tag k="natural" v="bay" />
		<tag k="ssr:stedsnr" v="279424" />
	</node>
	<node lat="63.201738888198584" lon="10.99390555021" id="-38608">
		<tag k="name" v="Ausbekken" />
		<tag k="ssr:stedsnr" v="460154" />
		<tag k="waterway" v="stream" />
	</node>
	<node lat="63.211013893064546" lon="10.984336111033674" id="-38609">
		<tag k="name" v="Ryen" />
		<tag k="place" v="farm" />
		<tag k="ssr:stedsnr" v="460156" />
	</node>
	<node lat="63.30138333079798" lon="11.028974994282208" id="-38610">
		<tag k="name" v="Storbekkøyan" />
		<tag k="natural" v="wetland" />
		<tag k="ssr:stedsnr" v="460226" />
	</node>
	<node lat="63.30008889232866" lon="11.022138893016107" id="-38611">
		<tag k="name" v="Østerkåsa" />
		<tag k="place" v="locality" />
		<tag k="ssr:stedsnr" v="460228" />
	</node>
	<node lat="63.22448055370273" lon="10.775836108436158" id="-38612">
		<tag k="name" v="Tangen" />
		<tag k="place" v="locality" />
		<tag k="ssr:stedsnr" v="279367" />
	</node>
	<node lat="63.23061111286815" lon="10.806122223806874" id="-38613">
		<tag k="name" v="Elgslemyra" />
		<tag k="natural" v="wetland" />
		<tag k="ssr:stedsnr" v="279385" />
	</node>
	<node lat="63.284249996423775" lon="10.819530558823825" id="-38614">
		<tag k="name" v="Gruva" />
		<tag k="natural" v="hill" />
		<tag k="place" v="locality" />
		<tag k="ssr:stedsnr" v="279391" />
	</node>
	<node lat="63.23016389250363" lon="11.038694451869777" id="-38615">
		<tag k="name" v="Sørli" />
		<tag k="place" v="farm" />
		<tag k="ssr:stedsnr" v="279524" />
	</node>
	<node lat="63.29839444527036" lon="10.673769452349278" id="-38616">
		<tag k="name" v="Sør-Botnan" />
		<tag k="natural" v="wetland" />
		<tag k="ssr:stedsnr" v="279603" />
	</node>
	<node lat="63.232047220885086" lon="11.069641659872618" id="-38617">
		<tag k="name" v="Damet" />
		<tag k="place" v="locality" />
		<tag k="ssr:stedsnr" v="460175" />
	</node>
	<node lat="63.25415277603672" lon="11.059016660025968" id="-38618">
		<tag k="name" v="SELBUSJØEN" />
		<tag k="natural" v="water" />
		<tag k="ssr:stedsnr" v="460183" />
		<tag k="water" v="lake" />
	</node>
	<node lat="63.22933055601322" lon="11.034466664282848" id="-38619">
		<tag k="name" v="Soltun" />
		<tag k="place" v="farm" />
		<tag k="ssr:stedsnr" v="460192" />
	</node>
	<node lat="63.22699722513575" lon="11.025572230414594" id="-38620">
		<tag k="name" v="Stormyråsen" />
		<tag k="place" v="farm" />
		<tag k="ssr:stedsnr" v="460197" />
	</node>
	<node lat="63.19624166373535" lon="10.954797223746034" id="-38621">
		<tag k="name" v="Ystermoen" />
		<tag k="place" v="farm" />
		<tag k="ssr:stedsnr" v="280002" />
	</node>
	<node lat="63.19746944190892" lon="10.961066665212448" id="-38622">
		<tag k="name" v="Bortistoggo" />
		<tag k="place" v="farm" />
		<tag k="ssr:stedsnr" v="280009" />
	</node>
	<node lat="63.18824166187365" lon="10.915450388268688" id="-38623">
		<tag k="name" v="Åsan" />
		<tag k="place" v="farm" />
		<tag k="ssr:stedsnr" v="280012" />
	</node>
	<node lat="63.086594440700736" lon="11.26417499592545" id="-38624">
		<tag k="name" v="Kjølen" />
		<tag k="natural" v="wetland" />
		<tag k="ssr:stedsnr" v="280210" />
	</node>
	<node lat="63.29027500358828" lon="10.973622213781606" id="-38625">
		<tag k="name" v="Svarttjenna" />
		<tag k="natural" v="water" />
		<tag k="ssr:stedsnr" v="460236" />
	</node>
	<node lat="63.197730554444085" lon="10.94405555580426" id="-38626">
		<tag k="name" v="Masmoen" />
		<tag k="place" v="locality" />
		<tag k="ssr:stedsnr" v="280115" />
	</node>
	<node lat="63.155874965113895" lon="10.901833243131179" id="-38627">
		<tag k="name" v="Langmyra" />
		<tag k="natural" v="wetland" />
		<tag k="old_name" v="Langmyran" />
		<tag k="ssr:stedsnr" v="280184" />
	</node>
	<node lat="63.181144446630825" lon="11.48633056090169" id="-38628">
		<tag k="name" v="Roltdal statsalmenning" />
		<tag k="place" v="locality" />
		<tag k="ssr:stedsnr" v="280199" />
	</node>
	<node lat="63.166513891784206" lon="11.104900005743122" id="-38629">
		<tag k="name" v="Stormyra" />
		<tag k="natural" v="wetland" />
		<tag k="ssr:stedsnr" v="280302" />
	</node>
	<node lat="63.272136112454284" lon="10.973311105115604" id="-38630">
		<tag k="fixme" v="consider natural=peak for the most distinct mountains in the district" />
		<tag k="name" v="Kringlåtåsen" />
		<tag k="natural" v="hill" />
		<tag k="place" v="locality" />
		<tag k="ssr:stedsnr" v="460257" />
	</node>
	<node lat="63.08532500443994" lon="11.00909166423149" id="-38631">
		<tag k="name" v="Kvennarbeidet" />
		<tag k="place" v="locality" />
		<tag k="ssr:stedsnr" v="280273" />
	</node>
	<node lat="63.29491666273226" lon="11.003397231888778" id="-38632">
		<tag k="fixme" v="consider natural=peak for the most distinct mountains in the district" />
		<tag k="name" v="Storbuståsen" />
		<tag k="natural" v="hill" />
		<tag k="place" v="locality" />
		<tag k="ssr:stedsnr" v="280274" />
	</node>
	<node lat="63.30525278088817" lon="11.09426111933731" id="-38633">
		<tag k="name" v="Trettmyra" />
		<tag k="natural" v="wetland" />
		<tag k="ssr:stedsnr" v="280276" />
	</node>
	<node lat="63.25385277625162" lon="11.24574167140957" id="-38634">
		<tag k="name" v="Elvåa" />
		<tag k="ssr:stedsnr" v="280281" />
		<tag k="waterway" v="river" />
	</node>
	<node lat="63.14273333593726" lon="11.100663882286108" id="-38635">
		<tag k="name" v="Bergslåttan" />
		<tag k="place" v="locality" />
		<tag k="ssr:stedsnr" v="280285" />
	</node>
	<node lat="63.1292249996054" lon="10.971800008284296" id="-38636">
		<tag k="fixme" v="consider natural=peak for the most distinct mountains in the district" />
		<tag k="name" v="Tjuvhamran" />
		<tag k="natural" v="hill" />
		<tag k="place" v="locality" />
		<tag k="ssr:stedsnr" v="280288" />
	</node>
	<node lat="63.152233330518705" lon="11.112366664093313" id="-38637">
		<tag k="name" v="Vakkervolltjenna" />
		<tag k="natural" v="water" />
		<tag k="ssr:stedsnr" v="280293" />
	</node>
	<node lat="63.130122220324516" lon="11.148319445233517" id="-38638">
		<tag k="fixme" v="consider natural=peak for the most distinct mountains in the district" />
		<tag k="name" v="Silderåsan" />
		<tag k="natural" v="hill" />
		<tag k="place" v="locality" />
		<tag k="ssr:stedsnr" v="460294" />
	</node>
	<node lat="63.19834444792465" lon="11.048580550782717" id="-38639">
		<tag k="name" v="Kulsetsaga" />
		<tag k="place" v="farm" />
		<tag k="ssr:stedsnr" v="460390" />
	</node>
	<node lat="63.201286109722666" lon="11.081147221878298" id="-38640">
		<tag k="name" v="Reinen" />
		<tag k="place" v="farm" />
		<tag k="ssr:stedsnr" v="460392" />
	</node>
	<node lat="63.20496110807959" lon="11.055622212819253" id="-38641">
		<tag k="name" v="Hoemsøya" />
		<tag k="place" v="locality" />
		<tag k="ssr:stedsnr" v="460394" />
	</node>
	<node lat="63.29632221804624" lon="11.069708341203468" id="-38642">
		<tag k="name" v="Røsbekken" />
		<tag k="ssr:stedsnr" v="280569" />
		<tag k="waterway" v="stream" />
	</node>
	<node lat="63.18551666945654" lon="11.187177774132273" id="-38643">
		<tag k="name" v="Midttun" />
		<tag k="place" v="farm" />
		<tag k="ssr:stedsnr" v="280571" />
	</node>
	<node lat="63.18742222104316" lon="11.127247230953309" id="-38644">
		<tag k="name" v="Kvernmoen" />
		<tag k="place" v="farm" />
		<tag k="ssr:stedsnr" v="280578" />
	</node>
	<node lat="63.21068333506231" lon="11.102347215787304" id="-38645">
		<tag k="name" v="Evjsvea" />
		<tag k="place" v="farm" />
		<tag k="ssr:stedsnr" v="280581" />
	</node>
	<node lat="63.28536389185079" lon="10.681088881010846" id="-38646">
		<tag k="name" v="Stampfossen" />
		<tag k="natural" v="waterfall" />
		<tag k="ssr:stedsnr" v="280708" />
	</node>
	<node lat="63.30558055283564" lon="10.929266666367914" id="-38647">
		<tag k="name" v="Kvittopplitjenna" />
		<tag k="natural" v="water" />
		<tag k="ssr:stedsnr" v="281205" />
	</node>
	<node lat="63.3025138895273" lon="10.91064444507148" id="-38648">
		<tag k="name" v="Krokåtbekken" />
		<tag k="ssr:stedsnr" v="281208" />
		<tag k="waterway" v="stream" />
	</node>
	<node lat="63.24834166730601" lon="10.93623889069858" id="-38649">
		<tag k="name" v="Fuglemsmoen" />
		<tag k="place" v="locality" />
		<tag k="ssr:stedsnr" v="281212" />
	</node>
	<node lat="63.27956666267746" lon="10.898938887097012" id="-38650">
		<tag k="name" v="Finnpålhaugen" />
		<tag k="natural" v="hill" />
		<tag k="place" v="locality" />
		<tag k="ssr:stedsnr" v="281225" />
	</node>
	<node lat="63.191599999574244" lon="10.893916671569123" id="-38651">
		<tag k="name" v="Vallimarka" />
		<tag k="place" v="locality" />
		<tag k="ssr:stedsnr" v="281231" />
	</node>
	<node lat="63.19615833125795" lon="10.853883340268867" id="-38652">
		<tag k="name" v="Aftretsbekken" />
		<tag k="ssr:stedsnr" v="281102" />
		<tag k="waterway" v="stream" />
	</node>
	<node lat="63.171394444829644" lon="10.87370833013697" id="-38653">
		<tag k="name" v="Renådalmyran" />
		<tag k="natural" v="wetland" />
		<tag k="ssr:stedsnr" v="281120" />
	</node>
	<node lat="63.29598611006686" lon="10.957155550018363" id="-38654">
		<tag k="name" v="Balstadtjenna" />
		<tag k="natural" v="water" />
		<tag k="ssr:stedsnr" v="281168" />
	</node>
	<node lat="63.198352777842366" lon="10.9020972245488" id="-38655">
		<tag k="name" v="Skjøtskaffar-myra" />
		<tag k="natural" v="wetland" />
		<tag k="ssr:stedsnr" v="281186" />
	</node>
	<node lat="63.08254444754451" lon="11.248266657933314" id="-38656">
		<tag k="name" v="Usma" />
		<tag k="ssr:stedsnr" v="460928" />
		<tag k="waterway" v="river" />
	</node>
	<node lat="63.089369444390236" lon="11.242636113449787" id="-38657">
		<tag k="name" v="Storbekken" />
		<tag k="ssr:stedsnr" v="460939" />
		<tag k="waterway" v="stream" />
	</node>
	<node lat="63.1385027792094" lon="11.235708332369958" id="-38658">
		<tag k="fixme" v="consider natural=peak for the most distinct mountains in the district" />
		<tag k="name" v="Julsetrya" />
		<tag k="natural" v="hill" />
		<tag k="place" v="locality" />
		<tag k="ssr:stedsnr" v="460949" />
	</node>
	<node lat="63.15102222046432" lon="11.311980560042597" id="-38659">
		<tag k="fixme" v="consider natural=peak for the most distinct mountains in the district" />
		<tag k="name" v="Storliåsen" />
		<tag k="natural" v="hill" />
		<tag k="place" v="locality" />
		<tag k="ssr:stedsnr" v="460956" />
	</node>
	<node lat="63.24878611495694" lon="11.347102785622685" id="-38660">
		<tag k="name" v="Finnråa" />
		<tag k="place" v="locality" />
		<tag k="ssr:stedsnr" v="460987" />
	</node>
	<node lat="63.27429166958602" lon="11.323155552597427" id="-38661">
		<tag k="name" v="Vatnelva" />
		<tag k="ssr:stedsnr" v="460989" />
		<tag k="waterway" v="river" />
	</node>
	<node lat="63.25829999848847" lon="11.343947225798555" id="-38662">
		<tag k="fixme" v="consider natural=peak for the most distinct mountains in the district" />
		<tag k="name" v="Turrularsfjellet" />
		<tag k="natural" v="hill" />
		<tag k="place" v="locality" />
		<tag k="ssr:stedsnr" v="460990" />
	</node>
	<node lat="63.22565833474976" lon="10.783916675992364" id="-38663">
		<tag k="historic" v="shieling" />
		<tag k="name" v="Eggjaoddvollen" />
		<tag k="place" v="locality" />
		<tag k="ssr:stedsnr" v="461083" />
	</node>
	<node lat="63.27456389143641" lon="10.781844451581069" id="-38664">
		<tag k="name" v="Oksvollbekken" />
		<tag k="ssr:stedsnr" v="461094" />
		<tag k="waterway" v="stream" />
	</node>
	<node lat="63.27279999891375" lon="10.789197231120975" id="-38665">
		<tag k="name" v="Svartvikbakken" />
		<tag k="natural" v="slope" />
		<tag k="place" v="locality" />
		<tag k="ssr:stedsnr" v="461095" />
	</node>
	<node lat="63.295894447297556" lon="10.807897228507468" id="-38666">
		<tag k="name" v="Koidalen" />
		<tag k="natural" v="valley" />
		<tag k="place" v="locality" />
		<tag k="ssr:stedsnr" v="461096" />
	</node>
	<node lat="63.1270833327889" lon="10.88871111371912" id="-38667">
		<tag k="name" v="Seterøyan" />
		<tag k="place" v="locality" />
		<tag k="ssr:stedsnr" v="462190" />
	</node>
	<node lat="63.25274166947275" lon="11.05568333441663" id="-38668">
		<tag k="name" v="Myranesodden" />
		<tag k="natural" v="cape" />
		<tag k="ssr:stedsnr" v="462372" />
	</node>
	<node lat="63.103280553031745" lon="11.022111111834327" id="-38669">
		<tag k="name" v="Blisterdalen" />
		<tag k="natural" v="valley" />
		<tag k="place" v="locality" />
		<tag k="ssr:stedsnr" v="461323" />
	</node>
	<node lat="63.23393055193406" lon="10.824619440169087" id="-38670">
		<tag k="name" v="Rødkjølen" />
		<tag k="natural" v="wetland" />
		<tag k="ssr:stedsnr" v="461377" />
	</node>
	<node lat="63.20781111194466" lon="10.833488897370506" id="-38671">
		<tag k="name" v="Brennåsmyran" />
		<tag k="natural" v="wetland" />
		<tag k="ssr:stedsnr" v="461390" />
	</node>
	<node lat="63.28022499968043" lon="10.808966675548696" id="-38672">
		<tag k="name" v="Storkjølen" />
		<tag k="natural" v="wetland" />
		<tag k="ssr:stedsnr" v="461400" />
	</node>
	<node lat="63.22333333262836" lon="10.969833335960665" id="-38673">
		<tag k="name" v="Nineset" />
		<tag k="place" v="farm" />
		<tag k="ssr:stedsnr" v="461279" />
	</node>
	<node lat="63.22263610688576" lon="10.85557777281455" id="-38674">
		<tag k="name" v="Svarttjennkjølen" />
		<tag k="natural" v="wetland" />
		<tag k="ssr:stedsnr" v="461281" />
	</node>
	<node lat="63.16802222186275" lon="10.925605554719777" id="-38675">
		<tag k="name" v="Negltjenna" />
		<tag k="natural" v="water" />
		<tag k="ssr:stedsnr" v="461285" />
	</node>
	<node lat="63.15516666494742" lon="10.944780551583463" id="-38676">
		<tag k="name" v="Neppågardsmyra" />
		<tag k="natural" v="wetland" />
		<tag k="ssr:stedsnr" v="461287" />
	</node>
	<node lat="63.28743610915951" lon="10.961852778853824" id="-38677">
		<tag k="fixme" v="consider natural=peak for the most distinct mountains in the district" />
		<tag k="name" v="Litjlifjellet" />
		<tag k="natural" v="hill" />
		<tag k="place" v="locality" />
		<tag k="ssr:stedsnr" v="461299" />
	</node>
	<node lat="63.07363610872402" lon="10.945402786890336" id="-38678">
		<tag k="name" v="Overvik og Nervik sameie" />
		<tag k="place" v="locality" />
		<tag k="ssr:stedsnr" v="461442" />
	</node>
	<node lat="63.09494166707747" lon="10.914466658476018" id="-38679">
		<tag k="name" v="Veltet" />
		<tag k="place" v="locality" />
		<tag k="ssr:stedsnr" v="461445" />
	</node>
	<node lat="63.11117778007957" lon="10.854966657897158" id="-38680">
		<tag k="name" v="Saudalen" />
		<tag k="natural" v="valley" />
		<tag k="place" v="locality" />
		<tag k="ssr:stedsnr" v="461456" />
	</node>
	<node lat="63.19130277759634" lon="10.951630547624799" id="-38681">
		<tag k="name" v="Slindelva" />
		<tag k="ssr:stedsnr" v="461487" />
		<tag k="waterway" v="river" />
	</node>
	<node lat="63.202597219402854" lon="11.228561105472156" id="-38682">
		<tag k="name" v="Eggadalen" />
		<tag k="natural" v="valley" />
		<tag k="place" v="locality" />
		<tag k="ssr:stedsnr" v="461488" />
	</node>
	<node lat="63.25738610822601" lon="11.100344452916943" id="-38683">
		<tag k="name" v="Garbergsbakken" />
		<tag k="place" v="farm" />
		<tag k="ssr:stedsnr" v="287376" />
	</node>
	<node lat="63.27498611528287" lon="11.232780564138125" id="-38684">
		<tag k="historic" v="shieling" />
		<tag k="name" v="Puttvollen" />
		<tag k="place" v="locality" />
		<tag k="ssr:stedsnr" v="461489" />
	</node>
	<node lat="63.30824999805775" lon="10.937824993512216" id="-38685">
		<tag k="name" v="Viskogsmyra" />
		<tag k="natural" v="wetland" />
		<tag k="ssr:stedsnr" v="461551" />
	</node>
	<node lat="63.206602779612815" lon="11.038769453193305" id="-38686">
		<tag k="name" v="Fætta" />
		<tag k="place" v="locality" />
		<tag k="ssr:stedsnr" v="461556" />
	</node>
	<node lat="63.07194721851449" lon="11.289244434950174" id="-38687">
		<tag k="name" v="Fjellslåtten" />
		<tag k="place" v="locality" />
		<tag k="ssr:stedsnr" v="461610" />
	</node>
	<node lat="63.11319166709892" lon="11.323311114194818" id="-38688">
		<tag k="name" v="Heggstad" />
		<tag k="place" v="farm" />
		<tag k="ssr:stedsnr" v="461611" />
	</node>
	<node lat="63.20970000334038" lon="11.264913895560134" id="-38689">
		<tag k="name" v="Omgangsdalen" />
		<tag k="natural" v="valley" />
		<tag k="place" v="locality" />
		<tag k="ssr:stedsnr" v="461621" />
	</node>
	<node lat="63.24844999893285" lon="10.693075007110233" id="-38690">
		<tag k="name" v="Høgfossen" />
		<tag k="natural" v="waterfall" />
		<tag k="ssr:stedsnr" v="461632" />
	</node>
	<node lat="63.243694445502356" lon="10.695283336771437" id="-38691">
		<tag k="name" v="Vinkelfossen" />
		<tag k="natural" v="waterfall" />
		<tag k="ssr:stedsnr" v="461634" />
	</node>
	<node lat="63.244402777944416" lon="10.666244439296296" id="-38692">
		<tag k="name" v="Småvatna" />
		<tag k="natural" v="water" />
		<tag k="ssr:stedsnr" v="461638" />
		<tag k="water" v="lake" />
	</node>
	<node lat="63.25608888802463" lon="10.669330560527492" id="-38693">
		<tag k="name" v="Haldokneppa" />
		<tag k="natural" v="hill" />
		<tag k="place" v="locality" />
		<tag k="ssr:stedsnr" v="461639" />
	</node>
	<node lat="63.2029222218562" lon="10.952419445927251" id="-38694">
		<tag k="name" v="Nygård" />
		<tag k="place" v="farm" />
		<tag k="ssr:stedsnr" v="462001" />
	</node>
	<node lat="63.17761944242058" lon="10.926350001960593" id="-38695">
		<tag k="historic" v="shieling" />
		<tag k="name" v="Litjvollen" />
		<tag k="place" v="isolated_dwelling" />
		<tag k="ssr:stedsnr" v="462014" />
	</node>
	<node lat="63.22323611058801" lon="10.971174998807296" id="-38696">
		<tag k="name" v="Nesbakken" />
		<tag k="place" v="farm" />
		<tag k="ssr:stedsnr" v="462018" />
	</node>
	<node lat="63.18746111300955" lon="10.877911116515985" id="-38697">
		<tag k="name" v="Kjøsnesøyan" />
		<tag k="place" v="locality" />
		<tag k="ssr:stedsnr" v="462133" />
	</node>
	<node lat="63.20692499640951" lon="11.476677767612125" id="-38698">
		<tag k="name" v="Kalvskinnfloan" />
		<tag k="natural" v="wetland" />
		<tag k="ssr:stedsnr" v="462253" />
	</node>
	<node lat="63.30703610845721" lon="10.989211112703149" id="-38699">
		<tag k="name" v="Nordre Gjøversaltjenna" />
		<tag k="natural" v="water" />
		<tag k="ssr:stedsnr" v="462349" />
	</node>
	<node lat="63.26655277861785" lon="11.245661102868375" id="-38700">
		<tag k="name" v="Liahøgda" />
		<tag k="natural" v="hill" />
		<tag k="place" v="locality" />
		<tag k="ssr:stedsnr" v="462301" />
	</node>
	<node lat="63.15905555809467" lon="11.241402785359409" id="-38701">
		<tag k="name" v="Lian" />
		<tag k="natural" v="slope" />
		<tag k="place" v="locality" />
		<tag k="ssr:stedsnr" v="462419" />
	</node>
	<node lat="63.30701110957822" lon="10.906188895959" id="-38702">
		<tag k="name" v="Lauvbakkan" />
		<tag k="natural" v="slope" />
		<tag k="place" v="locality" />
		<tag k="ssr:stedsnr" v="462396" />
	</node>
	<node lat="63.313647224563724" lon="10.964133341121162" id="-38703">
		<tag k="name" v="Ingridtjenna" />
		<tag k="natural" v="water" />
		<tag k="ssr:stedsnr" v="462400" />
	</node>
	<node lat="63.218230556686756" lon="10.974172222184942" id="-38704">
		<tag k="alt_name" v="Nervik østre" />
		<tag k="name" v="Østre Nervik" />
		<tag k="place" v="farm" />
		<tag k="ssr:stedsnr" v="462513" />
	</node>
	<node lat="63.197486112918845" lon="11.109658338803856" id="-38705">
		<tag k="name" v="Haugen" />
		<tag k="place" v="farm" />
		<tag k="ssr:stedsnr" v="462575" />
	</node>
	<node lat="63.26745231939775" lon="10.990825948814834" id="-38706">
		<tag k="alt_name" v="Sandvik østre" />
		<tag k="fixme" v="consider place=hamlet" />
		<tag k="name" v="Østre Sandvik" />
		<tag k="place" v="farm" />
		<tag k="ssr:stedsnr" v="462521" />
	</node>
	<node lat="63.27591944523275" lon="11.036938881996065" id="-38707">
		<tag k="alt_name" v="Moen vestre" />
		<tag k="name" v="Vestre Moen" />
		<tag k="place" v="farm" />
		<tag k="ssr:stedsnr" v="462526" />
	</node>
	<node lat="63.243077773787306" lon="11.090644437146183" id="-38709">
		<tag k="name" v="Uglemshaug" />
		<tag k="place" v="farm" />
		<tag k="ssr:stedsnr" v="462528" />
	</node>
	<node lat="63.19118055259701" lon="11.1338111102709" id="-38710">
		<tag k="name" v="Rønningen" />
		<tag k="place" v="farm" />
		<tag k="ssr:stedsnr" v="462529" />
	</node>
	<node lat="63.25930833357456" lon="11.110425001796681" id="-38711">
		<tag k="name" v="Trøa" />
		<tag k="place" v="farm" />
		<tag k="ssr:stedsnr" v="462532" />
	</node>
	<node lat="63.25346110848183" lon="11.09743889580628" id="-38712">
		<tag k="name" v="Uglemsmo" />
		<tag k="place" v="farm" />
		<tag k="ssr:stedsnr" v="462533" />
	</node>
	<node lat="63.28231111540529" lon="11.049952773033313" id="-38713">
		<tag k="name" v="Sessåsbakken" />
		<tag k="place" v="isolated_dwelling" />
		<tag k="ssr:stedsnr" v="462535" />
	</node>
	<node lat="63.20952222555652" lon="11.060138894526721" id="-38714">
		<tag k="alt_name" v="Berge nordre" />
		<tag k="name" v="Nordre Berge" />
		<tag k="place" v="farm" />
		<tag k="ssr:stedsnr" v="462548" />
	</node>
	<node lat="63.200650003369084" lon="11.03973611955827" id="-38715">
		<tag k="alt_name" v="Kleset nordre" />
		<tag k="name" v="Nordre Kleset" />
		<tag k="place" v="farm" />
		<tag k="ssr:stedsnr" v="462551" />
	</node>
	<node lat="63.297311113542044" lon="11.074116666620116" id="-38716">
		<tag k="name" v="Røet" />
		<tag k="place" v="farm" />
		<tag k="ssr:stedsnr" v="462757" />
	</node>
	<node lat="63.16821111461544" lon="10.841744452530978" id="-38717">
		<tag k="fixme" v="consider natural=peak for the most distinct mountains in the district" />
		<tag k="name" v="Heståsen" />
		<tag k="natural" v="hill" />
		<tag k="place" v="locality" />
		<tag k="ssr:stedsnr" v="462689" />
	</node>
	<node lat="63.23472222546386" lon="10.755530559557133" id="-38718">
		<tag k="name" v="Ystermyra" />
		<tag k="natural" v="wetland" />
		<tag k="ssr:stedsnr" v="462691" />
	</node>
	<node lat="63.211588891527306" lon="10.91762778744623" id="-38719">
		<tag k="name" v="Kolvikmyra" />
		<tag k="natural" v="wetland" />
		<tag k="ssr:stedsnr" v="462695" />
	</node>
	<node lat="63.21266944177643" lon="10.95319166219059" id="-38720">
		<tag k="name" v="Torpet" />
		<tag k="place" v="farm" />
		<tag k="ssr:stedsnr" v="462700" />
	</node>
	<node lat="63.1882638857826" lon="10.904483332390091" id="-38721">
		<tag k="name" v="Vallibekken" />
		<tag k="ssr:stedsnr" v="463143" />
		<tag k="waterway" v="stream" />
	</node>
	<node lat="63.19382222556637" lon="11.045216666833912" id="-38722">
		<tag k="name" v="Klesetbekken" />
		<tag k="ssr:stedsnr" v="463182" />
		<tag k="waterway" v="stream" />
	</node>
	<node lat="63.22139999571549" lon="10.85729999670495" id="-38723">
		<tag k="name" v="Svarttjenna" />
		<tag k="natural" v="water" />
		<tag k="ssr:stedsnr" v="463188" />
	</node>
	<node lat="63.16629444751938" lon="10.864230561983168" id="-38724">
		<tag k="name" v="Stormyra" />
		<tag k="natural" v="wetland" />
		<tag k="ssr:stedsnr" v="463192" />
	</node>
	<node lat="63.27996866071324" lon="11.02661292617028" id="-38725">
		<tag k="name" v="Stamnesgrenda" />
		<tag k="place" v="hamlet" />
		<tag k="ssr:stedsnr" v="300322" />
	</node>
	<node lat="63.28237222035763" lon="11.053580551602025" id="-38726">
		<tag k="landuse" v="winter_sports" />
		<tag k="name" v="Såslia alpinanlegg" />
		<tag k="piste:type" v="downhill" />
		<tag k="ssr:stedsnr" v="300475" />
	</node>
	<node lat="63.08006666495748" lon="11.140319442791323" id="-38727">
		<tag k="name" v="Bringtjennin" />
		<tag k="natural" v="water" />
		<tag k="ssr:stedsnr" v="315169" />
	</node>
	<node lat="63.049241663857764" lon="11.253263879168388" id="-38728">
		<tag k="name" v="Lauvbekkene" />
		<tag k="ssr:stedsnr" v="315311" />
		<tag k="waterway" v="stream" />
	</node>
	<node lat="63.157258329196125" lon="11.274152771457356" id="-38729">
		<tag k="fixme" v="consider natural=peak for the most distinct mountains in the district" />
		<tag k="name" v="Litjknippen" />
		<tag k="natural" v="hill" />
		<tag k="place" v="locality" />
		<tag k="ssr:stedsnr" v="315203" />
	</node>
	<node lat="63.15357907116549" lon="11.278083901461754" id="-38730">
		<tag k="name" v="Tibekktjenna" />
		<tag k="natural" v="water" />
		<tag k="ssr:stedsnr" v="315218" />
	</node>
	<node lat="63.109925294090345" lon="11.296602897738186" id="-38731">
		<tag k="fixme" v="consider place=hamlet" />
		<tag k="name" v="Uthus" />
		<tag k="place" v="farm" />
		<tag k="ssr:stedsnr" v="315262" />
	</node>
	<node lat="63.22479927689508" lon="11.152932616030656" id="-38732">
		<tag k="name" v="Kallarstjenna" />
		<tag k="natural" v="water" />
		<tag k="ssr:stedsnr" v="316059" />
	</node>
	<node lat="63.25951862993159" lon="11.377393733418888" id="-38733">
		<tag k="fixme" v="multiple name tags, choose one and add the other to alt_name; consider natural=peak for the most distinct mountains in the district" />
		<tag k="name" v="Turrularsfjellet;Turrularsen" />
		<tag k="natural" v="hill" />
		<tag k="place" v="locality" />
		<tag k="ssr:stedsnr" v="316109" />
	</node>
	<node lat="63.134302779085424" lon="10.794230564745416" id="-38734">
		<tag k="name" v="Sandtjennin" />
		<tag k="natural" v="water" />
		<tag k="ssr:stedsnr" v="316113" />
	</node>
	<node lat="63.1397611087867" lon="11.179213885297054" id="-38735">
		<tag k="historic" v="shieling" />
		<tag k="name" v="Stenen" />
		<tag k="place" v="isolated_dwelling" />
		<tag k="ssr:stedsnr" v="316115" />
	</node>
	<node lat="63.1663638927699" lon="10.936255564420003" id="-38736">
		<tag k="historic" v="shieling" />
		<tag k="name" v="Aunvollen" />
		<tag k="place" v="isolated_dwelling" />
		<tag k="ssr:stedsnr" v="316119" />
	</node>
	<node lat="63.18993888700893" lon="11.609430559549201" id="-38737">
		<tag k="fixme" v="consider natural=peak for the most distinct mountains in the district" />
		<tag k="name" v="Triknattene" />
		<tag k="natural" v="hill" />
		<tag k="place" v="locality" />
		<tag k="ssr:stedsnr" v="316266" />
	</node>
	<node lat="63.253388890320444" lon="10.957405560066041" id="-38738">
		<tag k="name" v="Østby" />
		<tag k="place" v="farm" />
		<tag k="ssr:stedsnr" v="316410" />
	</node>
	<node lat="63.25281944669246" lon="11.08775832727963" id="-38739">
		<tag k="name" v="Moheim" />
		<tag k="place" v="isolated_dwelling" />
		<tag k="ssr:stedsnr" v="316412" />
	</node>
	<node lat="63.31068610938684" lon="10.994391676056635" id="-38740">
		<tag k="name" v="Vardebu" />
		<tag k="place" v="isolated_dwelling" />
		<tag k="ssr:stedsnr" v="316414" />
	</node>
	<node lat="63.29556666444784" lon="10.962122219267476" id="-38741">
		<tag k="alt_name" v="Strandbygdfjellet" />
		<tag k="name" v="Strandbyggfjellet" />
		<tag k="natural" v="mountain_range" />
		<tag k="ssr:stedsnr" v="316306" />
	</node>
	<node lat="63.298447219059355" lon="10.94108888323301" id="-38742">
		<tag k="name" v="Langjon" />
		<tag k="natural" v="valley" />
		<tag k="place" v="locality" />
		<tag k="ssr:stedsnr" v="316310" />
	</node>
	<node lat="63.30344166564471" lon="11.081025000586827" id="-38743">
		<tag k="name" v="Tømmerdalen" />
		<tag k="natural" v="valley" />
		<tag k="old_name" v="Tommerdalen" />
		<tag k="place" v="locality" />
		<tag k="ssr:stedsnr" v="316313" />
	</node>
	<node lat="63.2860083311337" lon="11.03598887905107" id="-38744">
		<tag k="name" v="Pundsåsen" />
		<tag k="place" v="farm" />
		<tag k="ssr:stedsnr" v="316353" />
	</node>
	<node lat="63.27117777616864" lon="10.965608328637217" id="-38745">
		<tag k="fixme" v="consider natural=peak for the most distinct mountains in the district" />
		<tag k="name" v="Haukhåmmåren" />
		<tag k="natural" v="hill" />
		<tag k="place" v="locality" />
		<tag k="ssr:stedsnr" v="316398" />
	</node>
	<node lat="63.26691944882774" lon="11.078391658074004" id="-38746">
		<tag k="name" v="Siran" />
		<tag k="place" v="farm" />
		<tag k="ssr:stedsnr" v="316399" />
	</node>
	<node lat="63.105769440842465" lon="11.326547227146536" id="-38747">
		<tag k="name" v="Nekkåa" />
		<tag k="ssr:stedsnr" v="324225" />
		<tag k="waterway" v="stream" />
	</node>
	<node lat="63.22333055118201" lon="11.218563892266552" id="-38748">
		<tag k="name" v="Hokjølen" />
		<tag k="natural" v="wetland" />
		<tag k="ssr:stedsnr" v="324274" />
	</node>
	<node lat="63.16720555171836" lon="10.807061107670389" id="-38749">
		<tag k="name" v="Gruvøyene" />
		<tag k="place" v="locality" />
		<tag k="ssr:stedsnr" v="324302" />
	</node>
	<node lat="63.11054166767669" lon="11.19606110943294" id="-38750">
		<tag k="historic" v="shieling" />
		<tag k="name" v="Råndalsvollen" />
		<tag k="place" v="locality" />
		<tag k="ssr:stedsnr" v="324316" />
	</node>
	<node lat="63.084236111227895" lon="11.095038888118978" id="-38751">
		<tag k="historic" v="shieling" />
		<tag k="name" v="Ytter-Skyttholvollen" />
		<tag k="place" v="isolated_dwelling" />
		<tag k="ssr:stedsnr" v="324317" />
	</node>
	<node lat="63.28160555935716" lon="11.053844448818946" id="-38752">
		<tag k="name" v="Såslia" />
		<tag k="natural" v="slope" />
		<tag k="place" v="locality" />
		<tag k="ssr:stedsnr" v="470468" />
	</node>
	<node lat="63.28645833632699" lon="10.790347216811185" id="-38753">
		<tag k="name" v="Viskogmyrin" />
		<tag k="natural" v="wetland" />
		<tag k="ssr:stedsnr" v="337497" />
	</node>
	<node lat="63.27081666474741" lon="10.82026110472733" id="-38754">
		<tag k="name" v="Amdal" />
		<tag k="place" v="farm" />
		<tag k="ssr:stedsnr" v="337500" />
	</node>
	<node lat="63.24524166233705" lon="11.31577500196137" id="-38755">
		<tag k="name" v="Knipplia" />
		<tag k="natural" v="slope" />
		<tag k="place" v="locality" />
		<tag k="ssr:stedsnr" v="337716" />
	</node>
	<node lat="63.226355558628526" lon="11.314427783521118" id="-38756">
		<tag k="name" v="Haugan" />
		<tag k="natural" v="hill" />
		<tag k="place" v="locality" />
		<tag k="ssr:stedsnr" v="337717" />
	</node>
	<node lat="63.12185278155675" lon="11.265222227036428" id="-38757">
		<tag k="name" v="Engbekken" />
		<tag k="ssr:stedsnr" v="337555" />
		<tag k="waterway" v="stream" />
	</node>
	<node lat="63.08530000177378" lon="11.082802773308272" id="-38758">
		<tag k="name" v="Litjdalen" />
		<tag k="natural" v="valley" />
		<tag k="place" v="locality" />
		<tag k="ssr:stedsnr" v="337813" />
	</node>
	<node lat="63.19631110776856" lon="11.053869450299908" id="-38759">
		<tag k="alt_name" v="Kolset vestre" />
		<tag k="fixme" v="consider place=hamlet" />
		<tag k="name" v="Vestre Kolset" />
		<tag k="place" v="farm" />
		<tag k="ssr:stedsnr" v="337815" />
	</node>
	<node lat="63.326755552169885" lon="11.134172214245543" id="-38760">
		<tag k="name" v="Haldodalen" />
		<tag k="natural" v="valley" />
		<tag k="place" v="locality" />
		<tag k="ssr:stedsnr" v="337851" />
	</node>
	<node lat="63.33694444060207" lon="11.142227781295764" id="-38761">
		<tag k="fixme" v="consider natural=peak for the most distinct mountains in the district" />
		<tag k="name" v="Olemsåsen" />
		<tag k="natural" v="hill" />
		<tag k="place" v="locality" />
		<tag k="ssr:stedsnr" v="337853" />
	</node>
	<node lat="63.128477774303505" lon="11.09461111167098" id="-38762">
		<tag k="name" v="Stormyra" />
		<tag k="natural" v="wetland" />
		<tag k="ssr:stedsnr" v="337793" />
	</node>
	<node lat="63.210036113746995" lon="11.170022216158253" id="-38763">
		<tag k="name" v="Mjølnåa" />
		<tag k="ssr:stedsnr" v="338001" />
		<tag k="waterway" v="river" />
	</node>
	<node lat="63.226566668181114" lon="11.064422219551096" id="-38764">
		<tag k="name" v="Elgfardalen" />
		<tag k="natural" v="valley" />
		<tag k="place" v="locality" />
		<tag k="ssr:stedsnr" v="338113" />
	</node>
	<node lat="63.231275002730165" lon="11.156730563574431" id="-38765">
		<tag k="name" v="Hersjøkjølen" />
		<tag k="natural" v="wetland" />
		<tag k="ssr:stedsnr" v="338044" />
	</node>
	<node lat="63.20576388731289" lon="10.973094453886777" id="-38766">
		<tag k="name" v="Ner-Aunet" />
		<tag k="place" v="farm" />
		<tag k="ssr:stedsnr" v="338098" />
	</node>
	<node lat="63.11154444493846" lon="10.979233342150385" id="-38767">
		<tag k="name" v="Langsynda" />
		<tag k="place" v="locality" />
		<tag k="ssr:stedsnr" v="338244" />
	</node>
	<node lat="63.134172219773774" lon="11.051088895698326" id="-38768">
		<tag k="name" v="Brandelva" />
		<tag k="ssr:stedsnr" v="338247" />
		<tag k="waterway" v="river" />
	</node>
	<node lat="63.12181944260905" lon="11.068702775216646" id="-38769">
		<tag k="name" v="Høstvollvika" />
		<tag k="natural" v="bay" />
		<tag k="ssr:stedsnr" v="338253" />
	</node>
	<node lat="63.303663886195686" lon="11.094002774847455" id="-38770">
		<tag k="name" v="Kutjenna" />
		<tag k="natural" v="water" />
		<tag k="ssr:stedsnr" v="338143" />
	</node>
	<node lat="63.16012500037398" lon="11.121022217126876" id="-38771">
		<tag k="name" v="Åsmyrhaugen" />
		<tag k="natural" v="hill" />
		<tag k="place" v="locality" />
		<tag k="ssr:stedsnr" v="338199" />
	</node>
	<node lat="63.25318055799191" lon="11.17149722695332" id="-38772">
		<tag k="name" v="Hogstran" />
		<tag k="place" v="locality" />
		<tag k="ssr:stedsnr" v="338600" />
	</node>
	<node lat="63.24949722672724" lon="11.173119445627616" id="-38773">
		<tag k="name" v="Rærsbekken" />
		<tag k="ssr:stedsnr" v="338601" />
		<tag k="waterway" v="stream" />
	</node>
	<node lat="63.238013885116935" lon="11.174113890696177" id="-38774">
		<tag k="name" v="Blautdalen" />
		<tag k="natural" v="valley" />
		<tag k="place" v="locality" />
		<tag k="ssr:stedsnr" v="338545" />
	</node>
	<node lat="63.21658888734552" lon="11.17946110601451" id="-38775">
		<tag k="name" v="Sagbakken" />
		<tag k="natural" v="slope" />
		<tag k="place" v="locality" />
		<tag k="ssr:stedsnr" v="338549" />
	</node>
	<node lat="63.29712778178204" lon="11.101808342695906" id="-38776">
		<tag k="name" v="Langkåsen" />
		<tag k="place" v="locality" />
		<tag k="ssr:stedsnr" v="338715" />
	</node>
	<node lat="63.31661944039526" lon="11.16080277831946" id="-38777">
		<tag k="name" v="Langsetstykka" />
		<tag k="place" v="locality" />
		<tag k="ssr:stedsnr" v="338617" />
	</node>
	<node lat="63.20191944467492" lon="11.125894451946651" id="-38778">
		<tag k="name" v="Kallar" />
		<tag k="place" v="locality" />
		<tag k="ssr:stedsnr" v="338630" />
	</node>
	<node lat="63.30830555671216" lon="11.161508330591628" id="-38779">
		<tag k="name" v="Raukjølen" />
		<tag k="natural" v="wetland" />
		<tag k="ssr:stedsnr" v="339115" />
	</node>
	<node lat="63.124983333565766" lon="11.061813893005631" id="-38780">
		<tag k="name" v="Brandelva" />
		<tag k="ssr:stedsnr" v="339503" />
		<tag k="waterway" v="river" />
	</node>
	<node lat="63.259533334516995" lon="10.728075006708254" id="-38781">
		<tag k="name" v="Hånnå-Renåsjøbjørg statsskog" />
		<tag k="place" v="locality" />
		<tag k="ssr:stedsnr" v="340094" />
	</node>
	<node lat="63.2574416662898" lon="10.723525007622895" id="-38782">
		<tag k="name" v="Blomdalen" />
		<tag k="natural" v="valley" />
		<tag k="place" v="locality" />
		<tag k="ssr:stedsnr" v="340097" />
	</node>
	<node lat="63.25038055836309" lon="10.767919436707682" id="-38783">
		<tag k="name" v="Okstadåsmoen" />
		<tag k="place" v="locality" />
		<tag k="ssr:stedsnr" v="340106" />
	</node>
	<node lat="63.27671388827228" lon="10.810305558564309" id="-38784">
		<tag k="name" v="Håggåslåtten" />
		<tag k="natural" v="wetland" />
		<tag k="ssr:stedsnr" v="340113" />
	</node>
	<node lat="63.198177778488436" lon="10.825741674976012" id="-38785">
		<tag k="fixme" v="consider natural=peak for the most distinct mountains in the district" />
		<tag k="name" v="Svartåsen" />
		<tag k="natural" v="hill" />
		<tag k="place" v="locality" />
		<tag k="ssr:stedsnr" v="340115" />
	</node>
	<node lat="63.25982777497227" lon="10.894063894787307" id="-38786">
		<tag k="name" v="Lauvlia" />
		<tag k="natural" v="slope" />
		<tag k="place" v="locality" />
		<tag k="ssr:stedsnr" v="340303" />
	</node>
	<node lat="63.30249444698809" lon="11.053511102724983" id="-38787">
		<tag k="name" v="Karenaslettet" />
		<tag k="natural" v="wetland" />
		<tag k="ssr:stedsnr" v="340354" />
	</node>
	<node lat="63.2148861117268" lon="10.98818055913342" id="-38788">
		<tag k="name" v="Myrvang" />
		<tag k="place" v="farm" />
		<tag k="ssr:stedsnr" v="340504" />
	</node>
	<node lat="63.243555554808715" lon="11.049458326668002" id="-38789">
		<tag k="alt_name" v="Eidem nedre" />
		<tag k="name" v="Nedre Eidem" />
		<tag k="place" v="farm" />
		<tag k="ssr:stedsnr" v="340509" />
	</node>
	<node lat="63.28175833667357" lon="11.113980559535714" id="-38790">
		<tag k="name" v="Slåtten" />
		<tag k="place" v="locality" />
		<tag k="ssr:stedsnr" v="340524" />
	</node>
	<node lat="63.287943337621826" lon="11.06004117945699" id="-38791">
		<tag k="alt_name" v="Espet søre" />
		<tag k="name" v="Søre Espet" />
		<tag k="place" v="farm" />
		<tag k="ssr:stedsnr" v="340526" />
	</node>
	<node lat="63.18500277536826" lon="11.168083334835032" id="-38792">
		<tag k="name" v="Midtstokkan" />
		<tag k="place" v="farm" />
		<tag k="ssr:stedsnr" v="340542" />
	</node>
	<node lat="63.19109166260903" lon="11.113324999090597" id="-38793">
		<tag k="alt_name" v="Mogård Vestre" />
		<tag k="name" v="Vestre Mogård" />
		<tag k="place" v="farm" />
		<tag k="ssr:stedsnr" v="340546" />
	</node>
	<node lat="63.18680555148928" lon="11.1221500024495" id="-38794">
		<tag k="name" v="Granstad" />
		<tag k="place" v="farm" />
		<tag k="ssr:stedsnr" v="340554" />
	</node>
	<node lat="63.193875000367996" lon="11.187405564307179" id="-38795">
		<tag k="name" v="Pe-Hansgjardet" />
		<tag k="place" v="farm" />
		<tag k="ssr:stedsnr" v="340555" />
	</node>
	<node lat="63.21654166288491" lon="11.005008342369276" id="-38796">
		<tag k="name" v="Storøya" />
		<tag k="place" v="locality" />
		<tag k="ssr:stedsnr" v="340558" />
	</node>
	<node lat="63.1609286152819" lon="10.93726647328974" id="-38797">
		<tag k="alt_name" v="Øverbukta;Nerbukta" />
		<tag k="name" v="Bukta" />
		<tag k="natural" v="water" />
		<tag k="ssr:stedsnr" v="340292" />
		<tag k="water" v="lake" />
	</node>
	<node lat="63.20193333580511" lon="11.09260276856519" id="-38798">
		<tag k="name" v="Hestøya" />
		<tag k="place" v="island" />
		<tag k="ssr:stedsnr" v="340296" />
	</node>
	<node lat="63.293605559418886" lon="10.725194437197743" id="-38799">
		<tag k="name" v="Bjørnøybukta" />
		<tag k="natural" v="bay" />
		<tag k="ssr:stedsnr" v="340403" />
	</node>
	<node lat="63.284108337438056" lon="10.8392416641324" id="-38800">
		<tag k="name" v="Midtidalen" />
		<tag k="natural" v="valley" />
		<tag k="place" v="locality" />
		<tag k="ssr:stedsnr" v="340405" />
	</node>
	<node lat="63.28897221987896" lon="10.829541659421986" id="-38801">
		<tag k="name" v="Gåstjennbekken" />
		<tag k="ssr:stedsnr" v="340406" />
		<tag k="waterway" v="stream" />
	</node>
	<node lat="63.283852777948916" lon="10.816963895136887" id="-38802">
		<tag k="name" v="Blomdalen" />
		<tag k="natural" v="valley" />
		<tag k="place" v="locality" />
		<tag k="ssr:stedsnr" v="340408" />
	</node>
	<node lat="63.12082500221103" lon="10.974150000431655" id="-38803">
		<tag k="name" v="Storsandtjenna" />
		<tag k="natural" v="water" />
		<tag k="ssr:stedsnr" v="340414" />
	</node>
	<node lat="63.18813055841028" lon="10.968319447163209" id="-38804">
		<tag k="name" v="Grubbdalen" />
		<tag k="natural" v="valley" />
		<tag k="place" v="locality" />
		<tag k="ssr:stedsnr" v="340420" />
	</node>
	<node lat="63.18905833657529" lon="10.945963893431914" id="-38805">
		<tag k="name" v="Kvammen" />
		<tag k="place" v="farm" />
		<tag k="ssr:stedsnr" v="340495" />
	</node>
	<node lat="63.108822225759404" lon="10.923199996804732" id="-38806">
		<tag k="fixme" v="consider natural=peak for the most distinct mountains in the district" />
		<tag k="name" v="Elleftjennåsen" />
		<tag k="natural" v="hill" />
		<tag k="place" v="locality" />
		<tag k="ssr:stedsnr" v="340499" />
	</node>
	<node lat="63.21300277325934" lon="10.957358340921132" id="-38807">
		<tag k="name" v="Gortjenna" />
		<tag k="natural" v="water" />
		<tag k="ssr:stedsnr" v="340442" />
	</node>
	<node lat="63.24026110900213" lon="10.799919453955583" id="-38808">
		<tag k="name" v="Kjerringmyra" />
		<tag k="natural" v="wetland" />
		<tag k="ssr:stedsnr" v="340443" />
	</node>
	<node lat="63.20354722032736" lon="10.957924999938335" id="-38809">
		<tag k="name" v="Slindelva" />
		<tag k="ssr:stedsnr" v="340445" />
		<tag k="waterway" v="river" />
	</node>
	<node lat="63.266077780501575" lon="11.227905563998531" id="-38810">
		<tag k="historic" v="shieling" />
		<tag k="name" v="Stubbvollen" />
		<tag k="place" v="isolated_dwelling" />
		<tag k="ssr:stedsnr" v="340608" />
	</node>
	<node lat="63.247205551196956" lon="10.67061111923723" id="-38811">
		<tag k="name" v="Gropdalen" />
		<tag k="natural" v="valley" />
		<tag k="place" v="locality" />
		<tag k="ssr:stedsnr" v="340622" />
	</node>
	<node lat="63.26532221968341" lon="11.12562499868351" id="-38812">
		<tag k="name" v="Nygardsmoan" />
		<tag k="place" v="farm" />
		<tag k="ssr:stedsnr" v="340592" />
	</node>
	<node lat="63.09859444600812" lon="11.324547220976575" id="-38813">
		<tag k="name" v="Trongsundet" />
		<tag k="natural" v="valley" />
		<tag k="place" v="locality" />
		<tag k="ssr:stedsnr" v="340593" />
	</node>
	<node lat="63.30002777873319" lon="11.131944447229701" id="-38814">
		<tag k="historic" v="shieling" />
		<tag k="name" v="Eivollen" />
		<tag k="place" v="isolated_dwelling" />
		<tag k="ssr:stedsnr" v="340594" />
	</node>
	<node lat="63.12235833450034" lon="10.960225001755694" id="-38815">
		<tag k="name" v="Sandodden" />
		<tag k="natural" v="cape" />
		<tag k="ssr:stedsnr" v="340704" />
	</node>
	<node lat="63.2574416628791" lon="10.773138894850367" id="-38816">
		<tag k="name" v="Renåa" />
		<tag k="ssr:stedsnr" v="340699" />
		<tag k="waterway" v="river" />
	</node>
	<node lat="63.21152222106945" lon="10.946811115992423" id="-38817">
		<tag k="name" v="Nilsneset" />
		<tag k="place" v="farm" />
		<tag k="ssr:stedsnr" v="341002" />
	</node>
	<node lat="63.21653610962865" lon="10.960658323769744" id="-38818">
		<tag k="name" v="Pålodden" />
		<tag k="place" v="farm" />
		<tag k="ssr:stedsnr" v="341146" />
	</node>
	<node lat="63.174341669844054" lon="10.926316664748187" id="-38819">
		<tag k="name" v="Rødprikkmyra" />
		<tag k="natural" v="wetland" />
		<tag k="ssr:stedsnr" v="341153" />
	</node>
	<node lat="63.2861611093889" lon="10.845411103063924" id="-38820">
		<tag k="name" v="Litjkleva" />
		<tag k="place" v="locality" />
		<tag k="ssr:stedsnr" v="341159" />
	</node>
	<node lat="63.204899999276485" lon="10.942502774331668" id="-38821">
		<tag k="name" v="Håmmår" />
		<tag k="place" v="locality" />
		<tag k="ssr:stedsnr" v="341193" />
	</node>
	<node lat="63.15401944200657" lon="11.012458338352737" id="-38822">
		<tag k="name" v="Kringelmyra" />
		<tag k="natural" v="wetland" />
		<tag k="ssr:stedsnr" v="341314" />
	</node>
	<node lat="63.281897218683746" lon="10.929227771477837" id="-38823">
		<tag k="name" v="Olemsdalen" />
		<tag k="natural" v="valley" />
		<tag k="place" v="locality" />
		<tag k="ssr:stedsnr" v="341214" />
	</node>
	<node lat="63.280399998906766" lon="10.961891659390112" id="-38824">
		<tag k="name" v="Storkleva" />
		<tag k="place" v="locality" />
		<tag k="ssr:stedsnr" v="341253" />
	</node>
	<node lat="63.19644444078831" lon="10.869697215392991" id="-38825">
		<tag k="name" v="Benken" />
		<tag k="place" v="locality" />
		<tag k="ssr:stedsnr" v="341257" />
	</node>
	<node lat="63.228571178399406" lon="11.111275621846602" id="-38826">
		<tag k="name" v="Lomtjenna" />
		<tag k="natural" v="water" />
		<tag k="ssr:stedsnr" v="376003" />
	</node>
	<node lat="63.079309963440316" lon="10.913279952533184" id="-38827">
		<tag k="name" v="Fiskhustjenna" />
		<tag k="natural" v="water" />
		<tag k="ssr:stedsnr" v="376134" />
	</node>
	<node lat="63.2162916686099" lon="11.403922223592124" id="-38828">
		<tag k="name" v="Lerholet" />
		<tag k="place" v="isolated_dwelling" />
		<tag k="ssr:stedsnr" v="376191" />
	</node>
	<node lat="63.11257500195393" lon="11.389530555163475" id="-38829">
		<tag k="name" v="Kubjørga" />
		<tag k="natural" v="slope" />
		<tag k="place" v="locality" />
		<tag k="ssr:stedsnr" v="376277" />
	</node>
	<node lat="63.11021538564245" lon="11.265910588133119" id="-38830">
		<tag k="fixme" v="consider place=hamlet" />
		<tag k="name" v="Flaknan" />
		<tag k="place" v="farm" />
		<tag k="ssr:stedsnr" v="376281" />
	</node>
	<node lat="63.113483330934244" lon="11.2562138805636" id="-38831">
		<tag k="alt_name" v="Drivvoll" />
		<tag k="name" v="Drivvollen" />
		<tag k="place" v="farm" />
		<tag k="ssr:stedsnr" v="376283" />
	</node>
	<node lat="63.061327781034805" lon="11.316683336943191" id="-38832">
		<tag k="name" v="Lomtjenna" />
		<tag k="natural" v="water" />
		<tag k="ssr:stedsnr" v="376323" />
	</node>
	<node lat="63.05592499608456" lon="11.283283330728262" id="-38833">
		<tag k="historic" v="shieling" />
		<tag k="name" v="Bakkdalen" />
		<tag k="place" v="isolated_dwelling" />
		<tag k="ssr:stedsnr" v="376327" />
	</node>
	<node lat="63.099005557674964" lon="11.279883339364638" id="-38834">
		<tag k="fixme" v="consider natural=peak for the most distinct mountains in the district" />
		<tag k="name" v="Svartåsen" />
		<tag k="natural" v="hill" />
		<tag k="place" v="locality" />
		<tag k="ssr:stedsnr" v="376508" />
	</node>
	<node lat="63.196891667574874" lon="11.302880557023583" id="-38835">
		<tag k="historic" v="shieling" />
		<tag k="name" v="Bårdsgardsvollen" />
		<tag k="place" v="locality" />
		<tag k="ssr:stedsnr" v="384203" />
	</node>
	<node lat="63.20903055398711" lon="11.271180551532098" id="-38836">
		<tag k="name" v="Tyskkjølen" />
		<tag k="natural" v="wetland" />
		<tag k="ssr:stedsnr" v="384209" />
	</node>
	<node lat="63.19628055897275" lon="11.152125002986748" id="-38837">
		<tag k="name" v="Uststo" />
		<tag k="place" v="farm" />
		<tag k="ssr:stedsnr" v="398012" />
	</node>
	<node lat="63.28391388764894" lon="10.841461120508981" id="-38838">
		<tag k="name" v="Holmtjenndalen" />
		<tag k="natural" v="valley" />
		<tag k="place" v="locality" />
		<tag k="ssr:stedsnr" v="398444" />
	</node>
	<node lat="63.15862222359853" lon="10.836758341517342" id="-38839">
		<tag k="name" v="Grautdalen" />
		<tag k="natural" v="valley" />
		<tag k="place" v="locality" />
		<tag k="ssr:stedsnr" v="398445" />
	</node>
	<node lat="63.14767499850213" lon="11.163380558839025" id="-38840">
		<tag k="name" v="Kalvåtjenna" />
		<tag k="natural" v="water" />
		<tag k="ssr:stedsnr" v="398530" />
	</node>
	<node lat="63.20804999771407" lon="11.269980548502316" id="-38841">
		<tag k="name" v="Tyskkjølen" />
		<tag k="natural" v="wetland" />
		<tag k="ssr:stedsnr" v="398577" />
	</node>
	<node lat="63.24586388682987" lon="11.117455562132564" id="-38842">
		<tag k="fixme" v="consider natural=peak for the most distinct mountains in the district" />
		<tag k="name" v="Storegga" />
		<tag k="natural" v="hill" />
		<tag k="place" v="locality" />
		<tag k="ssr:stedsnr" v="398586" />
	</node>
	<node lat="63.246363887608126" lon="11.10872222371317" id="-38843">
		<tag k="name" v="Damet" />
		<tag k="place" v="locality" />
		<tag k="ssr:stedsnr" v="398591" />
	</node>
	<node lat="63.25353333469748" lon="11.129738898096079" id="-38844">
		<tag k="fixme" v="consider natural=peak for the most distinct mountains in the district" />
		<tag k="name" v="Aunknippan" />
		<tag k="natural" v="hill" />
		<tag k="place" v="locality" />
		<tag k="ssr:stedsnr" v="398594" />
	</node>
	<node lat="63.24393055494923" lon="10.687811102655784" id="-38845">
		<tag k="name" v="Bjørnfolldalen" />
		<tag k="natural" v="valley" />
		<tag k="place" v="locality" />
		<tag k="ssr:stedsnr" v="398479" />
	</node>
	<node lat="63.27296388897639" lon="10.696847215727104" id="-38846">
		<tag k="name" v="Heggliodden" />
		<tag k="natural" v="cape" />
		<tag k="ssr:stedsnr" v="398482" />
	</node>
	<node lat="63.26482499892788" lon="11.273622214854402" id="-38847">
		<tag k="name" v="Livolldalen" />
		<tag k="natural" v="valley" />
		<tag k="place" v="locality" />
		<tag k="ssr:stedsnr" v="398626" />
	</node>
	<node lat="63.27053611505592" lon="10.976999994615559" id="-38848">
		<tag k="fixme" v="consider natural=peak for the most distinct mountains in the district" />
		<tag k="name" v="Sandviktrøin" />
		<tag k="natural" v="hill" />
		<tag k="place" v="locality" />
		<tag k="ssr:stedsnr" v="398635" />
	</node>
	<node lat="63.19056110909104" lon="11.302019449001945" id="-38849">
		<tag k="name" v="Grimslia" />
		<tag k="natural" v="slope" />
		<tag k="place" v="locality" />
		<tag k="ssr:stedsnr" v="398678" />
	</node>
	<node lat="63.264263891822424" lon="11.100494436031461" id="-38850">
		<tag k="name" v="Størsethaugan" />
		<tag k="natural" v="hill" />
		<tag k="place" v="locality" />
		<tag k="ssr:stedsnr" v="398686" />
	</node>
	<node lat="63.326083337770534" lon="11.156383330749886" id="-38851">
		<tag k="name" v="Langkjølen" />
		<tag k="natural" v="wetland" />
		<tag k="ssr:stedsnr" v="398691" />
	</node>
	<node lat="63.32825000248025" lon="11.184330551331444" id="-38852">
		<tag k="fixme" v="consider natural=peak for the most distinct mountains in the district" />
		<tag k="name" v="Kjellaran" />
		<tag k="natural" v="hill" />
		<tag k="place" v="locality" />
		<tag k="ssr:stedsnr" v="398694" />
	</node>
	<node lat="63.1299638876581" lon="11.312522225698062" id="-38853">
		<tag k="name" v="Rypmyra" />
		<tag k="natural" v="wetland" />
		<tag k="ssr:stedsnr" v="398700" />
	</node>
	<node lat="63.08728888589184" lon="11.070969436499931" id="-38854">
		<tag k="name" v="Storøyan" />
		<tag k="place" v="locality" />
		<tag k="ssr:stedsnr" v="398828" />
	</node>
	<node lat="63.17912500414308" lon="11.086008328149665" id="-38855">
		<tag k="historic" v="shieling" />
		<tag k="name" v="Gammelvollen" />
		<tag k="place" v="locality" />
		<tag k="ssr:stedsnr" v="398781" />
	</node>
	<node lat="63.32824166586869" lon="11.160500008100422" id="-38856">
		<tag k="fixme" v="consider natural=peak for the most distinct mountains in the district" />
		<tag k="name" v="Åslokken" />
		<tag k="natural" v="hill" />
		<tag k="place" v="locality" />
		<tag k="ssr:stedsnr" v="399110" />
	</node>
	<node lat="63.33128611226183" lon="11.261499995963183" id="-38857">
		<tag k="name" v="Stentjennbekken" />
		<tag k="ssr:stedsnr" v="399127" />
		<tag k="waterway" v="stream" />
	</node>
	<node lat="63.18356388855723" lon="11.128175002676569" id="-38858">
		<tag k="name" v="Resbekken" />
		<tag k="ssr:stedsnr" v="399002" />
		<tag k="waterway" v="stream" />
	</node>
	<node lat="63.31014167080135" lon="11.11149445130511" id="-38859">
		<tag k="historic" v="shieling" />
		<tag k="name" v="Staupvollen" />
		<tag k="place" v="locality" />
		<tag k="ssr:stedsnr" v="399086" />
	</node>
	<node lat="63.27760833178799" lon="11.154777774843716" id="-38860">
		<tag k="name" v="Skyss-Skafferholet" />
		<tag k="place" v="locality" />
		<tag k="ssr:stedsnr" v="399095" />
	</node>
	<node lat="63.30978055897758" lon="11.031197230722823" id="-38861">
		<tag k="name" v="Holbekken" />
		<tag k="ssr:stedsnr" v="399205" />
		<tag k="waterway" v="stream" />
	</node>
	<node lat="63.25416110704865" lon="11.089841665451843" id="-38862">
		<tag k="name" v="Øymoen" />
		<tag k="place" v="locality" />
		<tag k="ssr:stedsnr" v="399176" />
	</node>
	<node lat="63.24509166290122" lon="11.03013611975563" id="-38863">
		<tag k="name" v="Tangtrøa" />
		<tag k="place" v="farm" />
		<tag k="ssr:stedsnr" v="399181" />
	</node>
	<node lat="63.19109722363031" lon="11.093155549795929" id="-38864">
		<tag k="name" v="Bogstadelva" />
		<tag k="ssr:stedsnr" v="399380" />
		<tag k="waterway" v="river" />
	</node>
	<node lat="63.17506944224423" lon="11.086455559767641" id="-38865">
		<tag k="name" v="Kjerringøyan" />
		<tag k="place" v="locality" />
		<tag k="ssr:stedsnr" v="399384" />
	</node>
	<node lat="63.17918889156111" lon="11.098033327281835" id="-38866">
		<tag k="name" v="Trondsetbekken" />
		<tag k="ssr:stedsnr" v="399385" />
		<tag k="waterway" v="stream" />
	</node>
	<node lat="63.15838611124254" lon="11.09515832919755" id="-38867">
		<tag k="name" v="Storøyan" />
		<tag k="place" v="locality" />
		<tag k="ssr:stedsnr" v="399394" />
	</node>
	<node lat="63.164324998457744" lon="11.135758341975565" id="-38868">
		<tag k="name" v="Litjdamtjennpynten" />
		<tag k="natural" v="hill" />
		<tag k="place" v="locality" />
		<tag k="ssr:stedsnr" v="399279" />
	</node>
	<node lat="63.15814180388375" lon="11.471286116339185" id="-38869">
		<tag k="historic" v="shieling" />
		<tag k="name" v="Hoemsvollen" />
		<tag k="place" v="isolated_dwelling" />
		<tag k="ssr:stedsnr" v="399877" />
	</node>
	<node lat="63.24768888827179" lon="11.378538895170404" id="-38870">
		<tag k="name" v="Krossåa" />
		<tag k="ssr:stedsnr" v="399892" />
		<tag k="waterway" v="river" />
	</node>
	<node lat="63.2474194439559" lon="11.359022226273312" id="-38871">
		<tag k="name" v="Krossåfossen" />
		<tag k="natural" v="waterfall" />
		<tag k="ssr:stedsnr" v="399894" />
	</node>
	<node lat="63.1291222217681" lon="11.319205548812638" id="-38872">
		<tag k="name" v="Henberget" />
		<tag k="natural" v="hill" />
		<tag k="place" v="locality" />
		<tag k="ssr:stedsnr" v="399928" />
	</node>
	<node lat="63.13220833720562" lon="11.260144453576695" id="-38873">
		<tag k="name" v="Langsenget" />
		<tag k="place" v="farm" />
		<tag k="ssr:stedsnr" v="399931" />
	</node>
	<node lat="63.069533336256285" lon="11.001647230626135" id="-38874">
		<tag k="name" v="Gunnaøyan" />
		<tag k="place" v="locality" />
		<tag k="ssr:stedsnr" v="400328" />
	</node>
	<node lat="63.073713889629815" lon="10.992405560795124" id="-38875">
		<tag k="name" v="Damtjenna" />
		<tag k="natural" v="water" />
		<tag k="ssr:stedsnr" v="400331" />
	</node>
	<node lat="63.28799722208462" lon="10.742599999259301" id="-38876">
		<tag k="name" v="Hundholet" />
		<tag k="place" v="locality" />
		<tag k="ssr:stedsnr" v="400403" />
	</node>
	<node lat="63.2684527814591" lon="10.802755563845988" id="-38877">
		<tag k="name" v="Nesnadalen" />
		<tag k="natural" v="valley" />
		<tag k="place" v="locality" />
		<tag k="ssr:stedsnr" v="400404" />
	</node>
	<node lat="63.26330555349559" lon="10.832905551633097" id="-38878">
		<tag k="name" v="Bekkdalen" />
		<tag k="natural" v="valley" />
		<tag k="place" v="locality" />
		<tag k="ssr:stedsnr" v="400430" />
	</node>
	<node lat="63.20793055497034" lon="10.947216676351777" id="-38879">
		<tag k="name" v="Vallineset" />
		<tag k="place" v="farm" />
		<tag k="ssr:stedsnr" v="400436" />
	</node>
	<node lat="63.1773638908646" lon="10.963358341627078" id="-38880">
		<tag k="name" v="Testinsfossen" />
		<tag k="natural" v="waterfall" />
		<tag k="ssr:stedsnr" v="400486" />
	</node>
	<node lat="63.20097221871743" lon="10.970725006092104" id="-38881">
		<tag k="name" v="Dalen" />
		<tag k="place" v="farm" />
		<tag k="ssr:stedsnr" v="401008" />
	</node>
	<node lat="63.286100001422504" lon="10.744755556100936" id="-38882">
		<tag k="fixme" v="consider natural=peak for the most distinct mountains in the district" />
		<tag k="name" v="Grønlifjellet" />
		<tag k="natural" v="hill" />
		<tag k="place" v="locality" />
		<tag k="ssr:stedsnr" v="401105" />
	</node>
	<node lat="63.20243610964327" lon="10.946727787494332" id="-38883">
		<tag k="name" v="Nordpågjardet" />
		<tag k="place" v="farm" />
		<tag k="ssr:stedsnr" v="401134" />
	</node>
	<node lat="63.29213055408545" lon="11.24970278214907" id="-38884">
		<tag k="name" v="Vekta" />
		<tag k="ssr:stedsnr" v="401306" />
		<tag k="waterway" v="stream" />
	</node>
	<node lat="63.135819448108535" lon="10.990788889667266" id="-38885">
		<tag k="fixme" v="consider natural=peak for the most distinct mountains in the district" />
		<tag k="name" v="Stenhusvollåsan" />
		<tag k="natural" v="hill" />
		<tag k="place" v="locality" />
		<tag k="ssr:stedsnr" v="401315" />
	</node>
	<node lat="63.251133332143965" lon="11.094069447771307" id="-38886">
		<tag k="name" v="Moheim" />
		<tag k="place" v="locality" />
		<tag k="ssr:stedsnr" v="401328" />
	</node>
	<node lat="63.27708055518448" lon="10.686533332507521" id="-38887">
		<tag k="name" v="Storbergmyra" />
		<tag k="natural" v="wetland" />
		<tag k="ssr:stedsnr" v="401079" />
	</node>
	<node lat="63.15744444498172" lon="10.916422231051907" id="-38888">
		<tag k="name" v="Oksbrua" />
		<tag k="place" v="locality" />
		<tag k="ssr:stedsnr" v="401291" />
	</node>
	<node lat="63.16868055472678" lon="10.836994445729468" id="-38889">
		<tag k="name" v="Storslættet" />
		<tag k="place" v="locality" />
		<tag k="ssr:stedsnr" v="401402" />
	</node>
	<node lat="63.26718610839866" lon="10.916263892552925" id="-38890">
		<tag k="name" v="Oksbakkan" />
		<tag k="natural" v="slope" />
		<tag k="place" v="locality" />
		<tag k="ssr:stedsnr" v="401407" />
	</node>
	<node lat="63.116547225158186" lon="10.993666657363132" id="-38891">
		<tag k="name" v="Gunnatjenna" />
		<tag k="natural" v="water" />
		<tag k="ssr:stedsnr" v="401425" />
	</node>
	<node lat="63.183438885416486" lon="10.932136112829372" id="-38892">
		<tag k="fixme" v="consider natural=peak for the most distinct mountains in the district" />
		<tag k="name" v="Avliåsen" />
		<tag k="natural" v="hill" />
		<tag k="place" v="locality" />
		<tag k="ssr:stedsnr" v="401432" />
	</node>
	<node lat="63.25467499616637" lon="10.797424999770543" id="-38893">
		<tag k="name" v="Okstadåsvika" />
		<tag k="natural" v="bay" />
		<tag k="ssr:stedsnr" v="401386" />
	</node>
	<node lat="63.2253305527878" lon="11.02206945124588" id="-38894">
		<tag k="name" v="Flatås" />
		<tag k="place" v="farm" />
		<tag k="ssr:stedsnr" v="401504" />
	</node>
	<node lat="63.277444447264514" lon="11.05785556280514" id="-38895">
		<tag k="name" v="Sessåsodden" />
		<tag k="place" v="farm" />
		<tag k="ssr:stedsnr" v="401512" />
	</node>
	<node lat="63.26733888784838" lon="11.10169166614799" id="-38896">
		<tag k="name" v="Kringlåsmyra" />
		<tag k="natural" v="wetland" />
		<tag k="ssr:stedsnr" v="401525" />
	</node>
	<node lat="63.128836113064274" lon="10.842013895465644" id="-38897">
		<tag k="name" v="Øverøylia" />
		<tag k="natural" v="slope" />
		<tag k="place" v="locality" />
		<tag k="ssr:stedsnr" v="401576" />
	</node>
	<node lat="63.295388889209796" lon="10.701452781479997" id="-38898">
		<tag k="name" v="Kringlåtmyra" />
		<tag k="natural" v="wetland" />
		<tag k="ssr:stedsnr" v="401577" />
	</node>
	<node lat="63.2868944449899" lon="10.636108335305488" id="-38899">
		<tag k="name" v="Bjørkomkjølen" />
		<tag k="natural" v="wetland" />
		<tag k="ssr:stedsnr" v="401578" />
	</node>
	<node lat="63.30580663829164" lon="11.217939728412205" id="-38900">
		<tag k="historic" v="shieling" />
		<tag k="name" v="Hovsvollen" />
		<tag k="place" v="isolated_dwelling" />
		<tag k="ssr:stedsnr" v="401598" />
	</node>
	<node lat="63.12269166784428" lon="10.858680552531196" id="-38901">
		<tag k="name" v="Fagerlia" />
		<tag k="natural" v="slope" />
		<tag k="place" v="locality" />
		<tag k="ssr:stedsnr" v="401702" />
	</node>
	<node lat="63.18404444814579" lon="10.883838894842302" id="-38902">
		<tag k="name" v="Kjøsnesbekken" />
		<tag k="ssr:stedsnr" v="401704" />
		<tag k="waterway" v="stream" />
	</node>
	<node lat="63.33588055359389" lon="11.028272221109523" id="-38903">
		<tag k="name" v="Nålmyra" />
		<tag k="natural" v="wetland" />
		<tag k="ssr:stedsnr" v="401492" />
	</node>
	<node lat="63.24960000442933" lon="10.693297213289974" id="-38904">
		<tag k="name" v="Hånnåa" />
		<tag k="ssr:stedsnr" v="401608" />
		<tag k="waterway" v="river" />
	</node>
	<node lat="63.116508065198104" lon="11.436113614422226" id="-38905">
		<tag k="name" v="Øver Måltopptjenna" />
		<tag k="natural" v="water" />
		<tag k="old_name" v="Måltopptjørna, øvre;Øvre Måltopptjenna" />
		<tag k="ssr:stedsnr" v="401613" />
	</node>
	<node lat="63.11528332913966" lon="10.917608342204748" id="-38906">
		<tag k="name" v="Farmannøyan" />
		<tag k="place" v="locality" />
		<tag k="ssr:stedsnr" v="402125" />
	</node>
	<node lat="63.063683329850456" lon="10.946161102975859" id="-38907">
		<tag k="name" v="Skardet" />
		<tag k="natural" v="valley" />
		<tag k="place" v="locality" />
		<tag k="ssr:stedsnr" v="402177" />
	</node>
	<node lat="63.19383888481268" lon="10.902261118395927" id="-38908">
		<tag k="name" v="Lia" />
		<tag k="natural" v="slope" />
		<tag k="place" v="locality" />
		<tag k="ssr:stedsnr" v="402186" />
	</node>
	<node lat="63.19564167017637" lon="10.879952770156217" id="-38909">
		<tag k="name" v="Brunberhaugen" />
		<tag k="natural" v="hill" />
		<tag k="place" v="locality" />
		<tag k="ssr:stedsnr" v="402187" />
	</node>
	<node lat="63.19779999805677" lon="10.894388896664925" id="-38910">
		<tag k="name" v="Rødkjølen" />
		<tag k="natural" v="wetland" />
		<tag k="ssr:stedsnr" v="402191" />
	</node>
	<node lat="63.15460277752536" lon="11.027555558808073" id="-38911">
		<tag k="name" v="Klesetmarka" />
		<tag k="place" v="locality" />
		<tag k="ssr:stedsnr" v="402310" />
	</node>
	<node lat="63.15773611403652" lon="11.017205548023" id="-38912">
		<tag k="name" v="Tærsjødalen" />
		<tag k="natural" v="valley" />
		<tag k="place" v="locality" />
		<tag k="ssr:stedsnr" v="402311" />
	</node>
	<node lat="63.19285833100899" lon="11.41741110387837" id="-38913">
		<tag k="name" v="Roltdal statsalmenning" />
		<tag k="place" v="locality" />
		<tag k="ssr:stedsnr" v="402296" />
	</node>
	<node lat="63.21562499899413" lon="11.049158330863984" id="-38914">
		<tag k="name" v="Brattlia" />
		<tag k="place" v="farm" />
		<tag k="ssr:stedsnr" v="437062" />
	</node>
	<node lat="63.2011722193837" lon="11.08385833604036" id="-38915">
		<tag k="name" v="Evjmoen" />
		<tag k="place" v="farm" />
		<tag k="ssr:stedsnr" v="437112" />
	</node>
	<node lat="63.2104111079125" lon="11.11336387924422" id="-38916">
		<tag k="name" v="Lia" />
		<tag k="place" v="farm" />
		<tag k="ssr:stedsnr" v="437117" />
	</node>
	<node lat="63.175761109257834" lon="10.822008329817319" id="-38917">
		<tag k="name" v="Fjelløya" />
		<tag k="natural" v="water" />
		<tag k="ssr:stedsnr" v="437151" />
	</node>
	<node lat="63.099844446874435" lon="11.008086107865413" id="-38918">
		<tag k="historic" v="shieling" />
		<tag k="name" v="Øyvollen" />
		<tag k="place" v="isolated_dwelling" />
		<tag k="ssr:stedsnr" v="437161" />
	</node>
	<node lat="63.08394444588175" lon="11.314780554925305" id="-38919">
		<tag k="historic" v="shieling" />
		<tag k="name" v="Nesåsvollen" />
		<tag k="place" v="locality" />
		<tag k="ssr:stedsnr" v="437307" />
	</node>
	<node lat="63.19254875025664" lon="11.272648655131375" id="-38920">
		<tag k="historic" v="shieling" />
		<tag k="name" v="Puttvollen" />
		<tag k="place" v="isolated_dwelling" />
		<tag k="ssr:stedsnr" v="437258" />
	</node>
	<node lat="63.197027690989216" lon="11.261499954794985" id="-38921">
		<tag k="historic" v="shieling" />
		<tag k="name" v="Grava" />
		<tag k="place" v="isolated_dwelling" />
		<tag k="ssr:stedsnr" v="437259" />
	</node>
	<node lat="63.21892777765533" lon="11.000125008546139" id="-38922">
		<tag k="name" v="Nea - Ganka" />
		<tag k="name:no" v="Nea" />
		<tag k="name:sma" v="Ganka" />
		<tag k="ssr:stedsnr" v="437514" />
		<tag k="waterway" v="river" />
	</node>
	<node lat="63.31393055556065" lon="11.152199992996284" id="-38923">
		<tag k="name" v="Lysbekken" />
		<tag k="ssr:stedsnr" v="438348" />
		<tag k="waterway" v="stream" />
	</node>
	<node lat="63.31156666464065" lon="11.163561106331771" id="-38924">
		<tag k="name" v="Langsetvollen" />
		<tag k="place" v="isolated_dwelling" />
		<tag k="ssr:stedsnr" v="438349" />
	</node>
	<node lat="63.290601548873425" lon="10.9986107599323" id="-38925">
		<tag k="name" v="Damtjenna" />
		<tag k="natural" v="water" />
		<tag k="ssr:stedsnr" v="438301" />
	</node>
	<node lat="63.33410833208922" lon="11.189188893806806" id="-38926">
		<tag k="name" v="Langlisberget" />
		<tag k="natural" v="hill" />
		<tag k="place" v="locality" />
		<tag k="ssr:stedsnr" v="438407" />
	</node>
	<node lat="63.262472217870275" lon="10.664791668722955" id="-38927">
		<tag k="name" v="Kuvikhøgda" />
		<tag k="natural" v="hill" />
		<tag k="place" v="locality" />
		<tag k="ssr:stedsnr" v="438751" />
	</node>
	<node lat="63.15080000054909" lon="11.528711114005842" id="-38928">
		<tag k="name" v="Tjenna" />
		<tag k="natural" v="water" />
		<tag k="ssr:stedsnr" v="445180" />
	</node>
	<node lat="63.288827778105365" lon="10.659316663267552" id="-38930">
		<tag k="name" v="Strindbekkøyan" />
		<tag k="place" v="locality" />
		<tag k="ssr:stedsnr" v="459458" />
	</node>
	<node lat="63.28436388658269" lon="10.670191671775518" id="-38931">
		<tag k="name" v="Terja" />
		<tag k="natural" v="wetland" />
		<tag k="ssr:stedsnr" v="459460" />
	</node>
	<node lat="63.087311113076694" lon="10.925916669493054" id="-38932">
		<tag k="name" v="Gammelvollia" />
		<tag k="natural" v="slope" />
		<tag k="place" v="locality" />
		<tag k="ssr:stedsnr" v="459462" />
	</node>
	<node lat="63.212700001242325" lon="10.859749991415839" id="-38933">
		<tag k="fixme" v="consider natural=peak for the most distinct mountains in the district" />
		<tag k="name" v="Kalmuråsen" />
		<tag k="natural" v="hill" />
		<tag k="place" v="locality" />
		<tag k="ssr:stedsnr" v="459465" />
	</node>
	<node lat="63.28122222000491" lon="11.107791658179554" id="-38934">
		<tag k="name" v="Myrmannkjølen" />
		<tag k="natural" v="wetland" />
		<tag k="ssr:stedsnr" v="459610" />
	</node>
	<node lat="63.239391670580076" lon="11.138572224864319" id="-38935">
		<tag k="name" v="Blyslåtten" />
		<tag k="place" v="locality" />
		<tag k="ssr:stedsnr" v="459625" />
	</node>
	<node lat="63.19128889123517" lon="11.330080556717608" id="-38936">
		<tag k="fixme" v="consider natural=peak for the most distinct mountains in the district" />
		<tag k="name" v="Gråsteinryan" />
		<tag k="natural" v="hill" />
		<tag k="place" v="locality" />
		<tag k="ssr:stedsnr" v="459668" />
	</node>
	<node lat="63.21809721857512" lon="11.14520833389689" id="-38937">
		<tag k="historic" v="shieling" />
		<tag k="name" v="Bukkvollen" />
		<tag k="place" v="locality" />
		<tag k="ssr:stedsnr" v="459677" />
	</node>
	<node lat="63.23618610864348" lon="11.192002780422273" id="-38938">
		<tag k="name" v="Litjmyra" />
		<tag k="natural" v="wetland" />
		<tag k="ssr:stedsnr" v="459565" />
	</node>
	<node lat="63.196358332955974" lon="11.269419435775028" id="-38939">
		<tag k="name" v="Puttvollbekken" />
		<tag k="ssr:stedsnr" v="459577" />
		<tag k="waterway" v="stream" />
	</node>
	<node lat="63.21096389321229" lon="11.142822230474533" id="-38940">
		<tag k="name" v="Langmyra" />
		<tag k="natural" v="wetland" />
		<tag k="ssr:stedsnr" v="459579" />
	</node>
	<node lat="63.1677083296694" lon="11.273311103306762" id="-38941">
		<tag k="name" v="Grønlibekken" />
		<tag k="ssr:stedsnr" v="459711" />
		<tag k="waterway" v="stream" />
	</node>
	<node lat="63.32511666420175" lon="11.165230558109972" id="-38942">
		<tag k="landuse" v="meadow" />
		<tag k="name" v="Ludduslåtten" />
		<tag k="ssr:stedsnr" v="459718" />
	</node>
	<node lat="63.322963892230526" lon="11.168286108249243" id="-38943">
		<tag k="name" v="Ånvasselva" />
		<tag k="ssr:stedsnr" v="459720" />
		<tag k="waterway" v="stream" />
	</node>
	<node lat="63.098236113513366" lon="11.089941664817408" id="-38944">
		<tag k="name" v="Ratåtøyan" />
		<tag k="place" v="locality" />
		<tag k="ssr:stedsnr" v="459803" />
	</node>
	<node lat="63.11890555308204" lon="11.217169446172194" id="-38945">
		<tag k="name" v="Rånøyan" />
		<tag k="place" v="locality" />
		<tag k="ssr:stedsnr" v="459808" />
	</node>
	<node lat="63.19369722544637" lon="11.362838884859695" id="-38946">
		<tag k="fixme" v="consider natural=peak for the most distinct mountains in the district" />
		<tag k="name" v="Heståsen" />
		<tag k="natural" v="hill" />
		<tag k="place" v="locality" />
		<tag k="ssr:stedsnr" v="459873" />
	</node>
	<node lat="63.22038055198615" lon="11.204913879493983" id="-38947">
		<tag k="historic" v="shieling" />
		<tag k="name" v="Hersjøvollen" />
		<tag k="place" v="locality" />
		<tag k="ssr:stedsnr" v="459880" />
	</node>
	<node lat="63.20370555839176" lon="11.199377771579606" id="-38948">
		<tag k="name" v="Bønntrøa" />
		<tag k="place" v="locality" />
		<tag k="ssr:stedsnr" v="459882" />
	</node>
	<node lat="63.17556111532628" lon="11.14518332985028" id="-38949">
		<tag k="name" v="Betlitjennhøgda" />
		<tag k="natural" v="hill" />
		<tag k="place" v="locality" />
		<tag k="ssr:stedsnr" v="460006" />
	</node>
	<node lat="63.18702222347419" lon="11.11608887917471" id="-38950">
		<tag k="name" v="Uthuslian" />
		<tag k="place" v="farm" />
		<tag k="ssr:stedsnr" v="460008" />
	</node>
	<node lat="63.189375000813584" lon="11.11309165923377" id="-38951">
		<tag k="name" v="Stokke-Uthus" />
		<tag k="place" v="farm" />
		<tag k="ssr:stedsnr" v="460012" />
	</node>
	<node lat="63.24080555850709" lon="11.124344449974258" id="-38952">
		<tag k="name" v="Hestmyra" />
		<tag k="natural" v="wetland" />
		<tag k="ssr:stedsnr" v="460063" />
	</node>
	<node lat="63.3297972177953" lon="11.010330558737577" id="-38953">
		<tag k="name" v="Vidjeskogan" />
		<tag k="place" v="locality" />
		<tag k="ssr:stedsnr" v="460212" />
	</node>
	<node lat="63.24912500207048" lon="11.033330546818194" id="-38954">
		<tag k="name" v="Rønningen" />
		<tag k="place" v="locality" />
		<tag k="ssr:stedsnr" v="460215" />
	</node>
	<node lat="63.12080555569983" lon="11.169052785186143" id="-38955">
		<tag k="name" v="Stor-Kalvsjøen" />
		<tag k="natural" v="water" />
		<tag k="ssr:stedsnr" v="460274" />
		<tag k="water" v="lake" />
	</node>
	<node lat="63.15899722115354" lon="11.131288895846168" id="-38956">
		<tag k="name" v="Medamtjennbekken" />
		<tag k="ssr:stedsnr" v="460303" />
		<tag k="waterway" v="stream" />
	</node>
	<node lat="63.13417777720824" lon="11.046511112586847" id="-38957">
		<tag k="ford" v="yes" />
		<tag k="name" v="Vadet" />
		<tag k="place" v="locality" />
		<tag k="ssr:stedsnr" v="460366" />
	</node>
	<node lat="63.18828333752487" lon="11.391547213426511" id="-38958">
		<tag k="name" v="Floan" />
		<tag k="natural" v="wetland" />
		<tag k="ssr:stedsnr" v="460917" />
	</node>
	<node lat="63.193663888094484" lon="11.458661117692307" id="-38959">
		<tag k="name" v="Litjknippen" />
		<tag k="natural" v="hill" />
		<tag k="place" v="locality" />
		<tag k="ssr:stedsnr" v="460920" />
	</node>
	<node lat="63.152597219337515" lon="11.27393333271872" id="-38960">
		<tag k="name" v="Tibekken" />
		<tag k="ssr:stedsnr" v="460958" />
		<tag k="waterway" v="stream" />
	</node>
	<node lat="63.209172224214264" lon="11.298058342641689" id="-38961">
		<tag k="name" v="Øver Svarttjenna" />
		<tag k="natural" v="water" />
		<tag k="ssr:stedsnr" v="460970" />
	</node>
	<node lat="63.28433888940242" lon="10.742019439539005" id="-38962">
		<tag k="name" v="Lomtjenna" />
		<tag k="natural" v="water" />
		<tag k="ssr:stedsnr" v="461106" />
	</node>
	<node lat="63.211911107806756" lon="10.958588884380173" id="-38963">
		<tag k="name" v="Fitjan" />
		<tag k="place" v="locality" />
		<tag k="ssr:stedsnr" v="461117" />
	</node>
	<node lat="63.280480558127636" lon="10.774230549847443" id="-38964">
		<tag k="name" v="Kutjenna" />
		<tag k="natural" v="water" />
		<tag k="ssr:stedsnr" v="461404" />
	</node>
	<node lat="63.12859444673864" lon="10.846902774992705" id="-38965">
		<tag k="name" v="Øverøylia" />
		<tag k="natural" v="slope" />
		<tag k="place" v="locality" />
		<tag k="ssr:stedsnr" v="461266" />
	</node>
	<node lat="63.27791388533658" lon="10.82644443470842" id="-38966">
		<tag k="name" v="Kløftsvea" />
		<tag k="natural" v="hill" />
		<tag k="place" v="locality" />
		<tag k="ssr:stedsnr" v="461423" />
	</node>
	<node lat="63.194588887880144" lon="10.920566663238594" id="-38967">
		<tag k="name" v="Åsbekken" />
		<tag k="ssr:stedsnr" v="461425" />
		<tag k="waterway" v="stream" />
	</node>
	<node lat="63.19773611285494" lon="10.947869445190504" id="-38968">
		<tag k="name" v="Ustigarden" />
		<tag k="place" v="farm" />
		<tag k="ssr:stedsnr" v="461428" />
	</node>
	<node lat="63.2059694459528" lon="10.952955559571565" id="-38969">
		<tag k="name" v="Nigarden" />
		<tag k="place" v="farm" />
		<tag k="ssr:stedsnr" v="461429" />
	</node>
	<node lat="63.18050000142206" lon="10.922669444237911" id="-38970">
		<tag k="name" v="Sagtjenna" />
		<tag k="natural" v="water" />
		<tag k="ssr:stedsnr" v="461473" />
	</node>
	<node lat="63.2922111131868" lon="10.677413889174826" id="-38971">
		<tag k="name" v="Bjørnmyra" />
		<tag k="natural" v="wetland" />
		<tag k="ssr:stedsnr" v="461604" />
	</node>
	<node lat="63.19530833252569" lon="11.078452780179859" id="-38972">
		<tag k="name" v="Evjøyan" />
		<tag k="place" v="locality" />
		<tag k="ssr:stedsnr" v="461539" />
	</node>
	<node lat="63.274322225386555" lon="10.695947230207146" id="-38973">
		<tag k="fixme" v="consider natural=peak for the most distinct mountains in the district" />
		<tag k="name" v="Drakstburet" />
		<tag k="natural" v="hill" />
		<tag k="place" v="locality" />
		<tag k="ssr:stedsnr" v="461575" />
	</node>
	<node lat="63.20807500101382" lon="10.951811106046444" id="-38974">
		<tag k="name" v="Bårdgarden" />
		<tag k="place" v="farm" />
		<tag k="ssr:stedsnr" v="462002" />
	</node>
	<node lat="63.16005277704054" lon="11.25734445208375" id="-38975">
		<tag k="name" v="Øråsdalen" />
		<tag k="natural" v="valley" />
		<tag k="place" v="locality" />
		<tag k="ssr:stedsnr" v="462216" />
	</node>
	<node lat="63.21085277850994" lon="11.026713889707425" id="-38976">
		<tag k="name" v="Hovsengan" />
		<tag k="place" v="locality" />
		<tag k="ssr:stedsnr" v="462260" />
	</node>
	<node lat="63.275563889939484" lon="10.846327770554094" id="-38977">
		<tag k="name" v="Kilan" />
		<tag k="natural" v="hill" />
		<tag k="place" v="locality" />
		<tag k="ssr:stedsnr" v="462266" />
	</node>
	<node lat="63.206211112847804" lon="11.00863611305033" id="-38978">
		<tag k="name" v="Ustansbekken" />
		<tag k="ssr:stedsnr" v="462267" />
		<tag k="waterway" v="stream" />
	</node>
	<node lat="63.26384444293716" lon="10.931283336751298" id="-38979">
		<tag k="name" v="Grautmyran" />
		<tag k="natural" v="wetland" />
		<tag k="ssr:stedsnr" v="462272" />
	</node>
	<node lat="63.086201957389285" lon="10.931364286199042" id="-38980">
		<tag k="historic" v="shieling" />
		<tag k="name" v="Gammelvollen" />
		<tag k="place" v="isolated_dwelling" />
		<tag k="ssr:stedsnr" v="462116" />
	</node>
	<node lat="63.209216664980616" lon="10.876258333984552" id="-38981">
		<tag k="name" v="Trettholet" />
		<tag k="place" v="locality" />
		<tag k="ssr:stedsnr" v="462158" />
	</node>
	<node lat="63.20858610741973" lon="10.90031110116705" id="-38982">
		<tag k="name" v="Saukjølen" />
		<tag k="natural" v="wetland" />
		<tag k="ssr:stedsnr" v="462161" />
	</node>
	<node lat="63.24927500241532" lon="11.08653333445787" id="-38983">
		<tag k="name" v="Hundøya" />
		<tag k="natural" v="cape" />
		<tag k="ssr:stedsnr" v="462320" />
	</node>
	<node lat="63.065663887591136" lon="10.97461944495244" id="-38984">
		<tag k="name" v="Haftorslibekken" />
		<tag k="ssr:stedsnr" v="462366" />
		<tag k="waterway" v="stream" />
	</node>
	<node lat="63.26677222467602" lon="10.929147216622411" id="-38985">
		<tag k="name" v="Kråkstadbekken" />
		<tag k="ssr:stedsnr" v="462474" />
		<tag k="waterway" v="stream" />
	</node>
	<node lat="63.277058336910954" lon="11.236099999165727" id="-38986">
		<tag k="name" v="Prestfossen" />
		<tag k="natural" v="waterfall" />
		<tag k="ssr:stedsnr" v="462603" />
	</node>
	<node lat="63.23683332898559" lon="10.669980557633753" id="-38987">
		<tag k="name" v="Sandhaugan" />
		<tag k="natural" v="hill" />
		<tag k="place" v="locality" />
		<tag k="ssr:stedsnr" v="462614" />
	</node>
	<node lat="63.27690277524629" lon="10.711461102535496" id="-38988">
		<tag k="name" v="Stordalen" />
		<tag k="natural" v="valley" />
		<tag k="place" v="locality" />
		<tag k="ssr:stedsnr" v="462729" />
	</node>
	<node lat="63.27528333173855" lon="10.72318889795676" id="-38989">
		<tag k="name" v="Varmdalsbjørga" />
		<tag k="place" v="locality" />
		<tag k="ssr:stedsnr" v="462703" />
	</node>
	<node lat="63.11238889088266" lon="10.913355554033279" id="-38990">
		<tag k="name" v="Farmannsbekken" />
		<tag k="ssr:stedsnr" v="463110" />
		<tag k="waterway" v="stream" />
	</node>
	<node lat="63.286575003048384" lon="10.866194448681549" id="-38991">
		<tag k="name" v="Storøya" />
		<tag k="natural" v="hill" />
		<tag k="place" v="locality" />
		<tag k="ssr:stedsnr" v="463203" />
	</node>
	<node lat="63.27457222125047" lon="10.970186113994485" id="-38992">
		<tag k="fixme" v="consider natural=peak for the most distinct mountains in the district" />
		<tag k="name" v="Høgåsen" />
		<tag k="natural" v="hill" />
		<tag k="place" v="locality" />
		<tag k="ssr:stedsnr" v="463206" />
	</node>
	<node lat="63.21773055711375" lon="10.882211114035947" id="-38993">
		<tag k="name" v="Nonshaugen" />
		<tag k="natural" v="hill" />
		<tag k="place" v="locality" />
		<tag k="ssr:stedsnr" v="463207" />
	</node>
	<node lat="63.28394166982355" lon="10.969555559899906" id="-38994">
		<tag k="name" v="Kalvdalen" />
		<tag k="natural" v="valley" />
		<tag k="place" v="locality" />
		<tag k="ssr:stedsnr" v="463214" />
	</node>
	<node lat="63.197066664400786" lon="11.09285277680147" id="-38995">
		<tag k="name" v="Hestøya" />
		<tag k="place" v="island" />
		<tag k="ssr:stedsnr" v="463270" />
	</node>
	<node lat="63.182561108979826" lon="11.031202785349352" id="-38996">
		<tag k="name" v="Klesetmarka" />
		<tag k="place" v="locality" />
		<tag k="ssr:stedsnr" v="463271" />
	</node>
	<node lat="63.22721666410477" lon="11.033722229375897" id="-38997">
		<tag k="amenity" v="school" />
		<tag k="name" v="Selbu ungdomsskole" />
		<tag k="ssr:stedsnr" v="482769" />
	</node>
	<node lat="63.2364091954892" lon="11.13572546001017" id="-38998">
		<tag k="name" v="Stokktjenna" />
		<tag k="natural" v="water" />
		<tag k="ssr:stedsnr" v="679015" />
	</node>
	<node lat="63.20686111054332" lon="11.163688893530084" id="-38999">
		<tag k="name" v="Mølnåa" />
		<tag k="ssr:stedsnr" v="679095" />
		<tag k="waterway" v="stream" />
	</node>
	<node lat="63.20841388964025" lon="11.20586111528007" id="-39000">
		<tag k="historic" v="shieling" />
		<tag k="name" v="Røvollen" />
		<tag k="place" v="isolated_dwelling" />
		<tag k="ssr:stedsnr" v="679096" />
	</node>
	<node lat="63.207373920532376" lon="10.981644538372898" id="-39001">
		<tag k="fixme" v="consider place=hamlet" />
		<tag k="name" v="Såmstad" />
		<tag k="place" v="farm" />
		<tag k="ssr:stedsnr" v="679044" />
	</node>
	<node lat="63.207091669678064" lon="10.88525556448758" id="-39002">
		<tag k="name" v="Vassdalstjenna" />
		<tag k="natural" v="water" />
		<tag k="ssr:stedsnr" v="679047" />
	</node>
	<node lat="63.1870066761234" lon="11.102587416944584" id="-39003">
		<tag k="fixme" v="consider place=hamlet" />
		<tag k="name" v="Trondset" />
		<tag k="place" v="farm" />
		<tag k="ssr:stedsnr" v="679063" />
	</node>
	<node lat="63.08767500219499" lon="11.053161105961266" id="-39004">
		<tag k="name" v="Jovatnet" />
		<tag k="natural" v="water" />
		<tag k="ssr:stedsnr" v="679132" />
	</node>
	<node lat="63.07787777818396" lon="11.047244445688001" id="-39005">
		<tag k="historic" v="shieling" />
		<tag k="name" v="Nålbogen" />
		<tag k="place" v="isolated_dwelling" />
		<tag k="ssr:stedsnr" v="679163" />
	</node>
	<node lat="63.10842057072137" lon="11.309377688942098" id="-39006">
		<tag k="alt_name" v="Nes" />
		<tag k="fixme" v="consider place=hamlet" />
		<tag k="name" v="Neset" />
		<tag k="place" v="farm" />
		<tag k="ssr:stedsnr" v="679233" />
	</node>
	<node lat="63.106149625717066" lon="11.289248370574677" id="-39007">
		<tag k="alt_name" v="Meland" />
		<tag k="name" v="Melan" />
		<tag k="place" v="farm" />
		<tag k="ssr:stedsnr" v="679236" />
	</node>
	<node lat="63.10722222346869" lon="11.29317221271856" id="-39008">
		<tag k="alt_name" v="Nessmo" />
		<tag k="name" v="Nesmoen" />
		<tag k="place" v="farm" />
		<tag k="ssr:stedsnr" v="679237" />
	</node>
	<node lat="63.112516229214016" lon="11.32270222914285" id="-39009">
		<tag k="fixme" v="consider place=hamlet" />
		<tag k="name" v="Heggset" />
		<tag k="place" v="farm" />
		<tag k="ssr:stedsnr" v="679241" />
	</node>
	<node lat="63.11613278640691" lon="11.312790154763935" id="-39010">
		<tag k="fixme" v="consider place=hamlet" />
		<tag k="name" v="Bjørka" />
		<tag k="place" v="farm" />
		<tag k="ssr:stedsnr" v="679242" />
	</node>
	<node lat="63.234439136288096" lon="11.07563402250384" id="-39011">
		<tag k="fixme" v="consider place=hamlet" />
		<tag k="name" v="Vølset" />
		<tag k="place" v="farm" />
		<tag k="ssr:stedsnr" v="680001" />
	</node>
	<node lat="63.222950003980245" lon="11.0044611207911" id="-39012">
		<tag k="name" v="Vikaengene" />
		<tag k="place" v="locality" />
		<tag k="ssr:stedsnr" v="680066" />
	</node>
	<node lat="63.21973333151785" lon="11.195577783053935" id="-39013">
		<tag k="name" v="Hersjøen" />
		<tag k="natural" v="water" />
		<tag k="ssr:stedsnr" v="680058" />
		<tag k="water" v="lake" />
	</node>
	<node lat="63.143676124781564" lon="11.018795165996798" id="-39014">
		<tag k="historic" v="shieling" />
		<tag k="name" v="Brandvollen" />
		<tag k="place" v="isolated_dwelling" />
		<tag k="ssr:stedsnr" v="680128" />
	</node>
	<node lat="63.32364722165464" lon="11.34960555741743" id="-39015">
		<tag k="name" v="Alsetvollen" />
		<tag k="place" v="locality" />
		<tag k="ssr:stedsnr" v="680086" />
	</node>
	<node lat="63.31233651643079" lon="11.26911038353028" id="-39016">
		<tag k="historic" v="shieling" />
		<tag k="name" v="Nyvollen" />
		<tag k="place" v="isolated_dwelling" />
		<tag k="ssr:stedsnr" v="680092" />
	</node>
	<node lat="63.11630000013303" lon="10.842686109296107" id="-39017">
		<tag k="fixme" v="consider natural=peak for the most distinct mountains in the district" />
		<tag k="name" v="Grønfjellet" />
		<tag k="natural" v="hill" />
		<tag k="place" v="locality" />
		<tag k="ssr:stedsnr" v="680162" />
	</node>
	<node lat="63.18177222628144" lon="11.19974167678024" id="-39018">
		<tag k="fixme" v="multiple name tags, choose one and add the other to alt_name" />
		<tag k="name" v="Midtre Rollsetbakken;Rollsetbakken" />
		<tag k="place" v="farm" />
		<tag k="ssr:stedsnr" v="680136" />
	</node>
	<node lat="63.10664999620092" lon="11.03449999872064" id="-39019">
		<tag k="historic" v="shieling" />
		<tag k="name" v="Svartåsvollen" />
		<tag k="place" v="isolated_dwelling" />
		<tag k="ssr:stedsnr" v="680165" />
	</node>
	<node lat="63.11193895993515" lon="10.941416772997453" id="-39020">
		<tag k="historic" v="shieling" />
		<tag k="name" v="Gallivollen" />
		<tag k="place" v="locality" />
		<tag k="ssr:stedsnr" v="680169" />
	</node>
	<node lat="63.11594967020318" lon="11.13683486322903" id="-39021">
		<tag k="historic" v="shieling" />
		<tag k="name" v="Fiskkjølvollen" />
		<tag k="place" v="isolated_dwelling" />
		<tag k="ssr:stedsnr" v="680157" />
	</node>
	<node lat="63.11893055535734" lon="10.786658341649376" id="-39022">
		<tag k="loc_name" v="Skrøvelskardet" />
		<tag k="name" v="Grøvelskardet" />
		<tag k="natural" v="valley" />
		<tag k="place" v="locality" />
		<tag k="ssr:stedsnr" v="680159" />
	</node>
	<node lat="63.27493611319749" lon="11.27155555151408" id="-39023">
		<tag k="fixme" v="consider natural=peak for the most distinct mountains in the district" />
		<tag k="name" v="Brenntopp" />
		<tag k="natural" v="hill" />
		<tag k="place" v="locality" />
		<tag k="ssr:stedsnr" v="680183" />
	</node>
	<node lat="63.17265555395398" lon="11.432672214517218" id="-39024">
		<tag k="historic" v="shieling" />
		<tag k="name" v="Nordre Evjvollen" />
		<tag k="place" v="isolated_dwelling" />
		<tag k="ssr:stedsnr" v="680273" />
	</node>
	<node lat="63.17322499716949" lon="11.264138896584852" id="-39025">
		<tag k="historic" v="shieling" />
		<tag k="name" v="Hesjedalen" />
		<tag k="place" v="isolated_dwelling" />
		<tag k="ssr:stedsnr" v="680275" />
	</node>
	<node lat="63.296980557255736" lon="11.199622223581871" id="-39026">
		<tag k="name" v="Krokstaden" />
		<tag k="place" v="isolated_dwelling" />
		<tag k="ssr:stedsnr" v="680293" />
	</node>
	<node lat="63.281591664411856" lon="11.092311105810337" id="-39027">
		<tag k="fixme" v="consider natural=peak for the most distinct mountains in the district" />
		<tag k="name" v="Pallan" />
		<tag k="natural" v="hill" />
		<tag k="place" v="locality" />
		<tag k="ssr:stedsnr" v="680328" />
	</node>
	<node lat="63.26795277637971" lon="10.91826944802022" id="-39028">
		<tag k="name" v="Kårstadbekken" />
		<tag k="ssr:stedsnr" v="680376" />
		<tag k="waterway" v="stream" />
	</node>
	<node lat="63.33707222253218" lon="11.214113895165438" id="-39029">
		<tag k="name" v="Hestlihaugen" />
		<tag k="natural" v="hill" />
		<tag k="place" v="locality" />
		<tag k="ssr:stedsnr" v="680380" />
	</node>
	<node lat="63.315084330882904" lon="10.92730235029637" id="-39030">
		<tag k="historic" v="shieling" />
		<tag k="name" v="Engvollen" />
		<tag k="place" v="isolated_dwelling" />
		<tag k="ssr:stedsnr" v="680400" />
	</node>
	<node lat="63.07857777833041" lon="11.337524998375903" id="-39031">
		<tag k="name" v="Stenslåtten" />
		<tag k="natural" v="slope" />
		<tag k="place" v="locality" />
		<tag k="ssr:stedsnr" v="680343" />
	</node>
	<node lat="63.29029777722876" lon="11.08432598504348" id="-39032">
		<tag k="name" v="Garbergsvollen" />
		<tag k="place" v="isolated_dwelling" />
		<tag k="ssr:stedsnr" v="680348" />
	</node>
	<node lat="63.18425833431261" lon="10.844722226840961" id="-39033">
		<tag k="name" v="Renåa" />
		<tag k="ssr:stedsnr" v="680554" />
		<tag k="waterway" v="river" />
	</node>
	<node lat="63.26599313459264" lon="11.000136958331272" id="-39034">
		<tag k="alt_name" v="Løvås" />
		<tag k="fixme" v="consider place=hamlet" />
		<tag k="name" v="Lauvås" />
		<tag k="place" v="farm" />
		<tag k="ssr:stedsnr" v="681314" />
	</node>
	<node lat="63.277661111077215" lon="10.647044448547264" id="-39035">
		<tag k="alt_name" v="Dragstmoen" />
		<tag k="name" v="Drakstmoen" />
		<tag k="place" v="farm" />
		<tag k="ssr:stedsnr" v="680825" />
	</node>
	<node lat="63.29812222210276" lon="10.6436444463626" id="-39036">
		<tag k="fixme" v="consider natural=peak for the most distinct mountains in the district" />
		<tag k="name" v="Langåsen" />
		<tag k="natural" v="hill" />
		<tag k="place" v="locality" />
		<tag k="ssr:stedsnr" v="680850" />
	</node>
	<node lat="63.24593071801093" lon="11.062477178367288" id="-39037">
		<tag k="name" v="Eidem" />
		<tag k="place" v="hamlet" />
		<tag k="ssr:stedsnr" v="497010" />
	</node>
	<node lat="63.14733333399276" lon="10.835547223749023" id="-39038">
		<tag k="name" v="Litjrensjøen" />
		<tag k="natural" v="water" />
		<tag k="old_name" v="Litl-Rensjøen" />
		<tag k="ssr:stedsnr" v="497104" />
	</node>
	<node lat="63.15272778154478" lon="11.0175222302822" id="-39039">
		<tag k="name" v="Tærsjøen" />
		<tag k="natural" v="bay" />
		<tag k="ssr:stedsnr" v="497115" />
	</node>
	<node lat="63.154180552741146" lon="10.79549999611668" id="-39040">
		<tag k="name" v="Tverrelva" />
		<tag k="ssr:stedsnr" v="497116" />
		<tag k="waterway" v="stream" />
	</node>
	<node lat="63.1760999998762" lon="11.185416667227114" id="-39041">
		<tag k="name" v="Kalvåa" />
		<tag k="ssr:stedsnr" v="497117" />
		<tag k="waterway" v="stream" />
	</node>
	<node lat="63.15780833094717" lon="10.926694448764806" id="-39042">
		<tag k="name" v="Neglåstjenna" />
		<tag k="natural" v="water" />
		<tag k="ssr:stedsnr" v="497120" />
	</node>
	<node lat="63.203397220039015" lon="11.210372221432085" id="-39043">
		<tag k="name" v="Rotla" />
		<tag k="ssr:stedsnr" v="497095" />
		<tag k="waterway" v="river" />
	</node>
	<node lat="63.153566668645865" lon="11.254008330556738" id="-39044">
		<tag k="fixme" v="consider place=hamlet" />
		<tag k="name" v="Øråsen" />
		<tag k="place" v="farm" />
		<tag k="ssr:stedsnr" v="497217" />
	</node>
	<node lat="63.14411388477873" lon="11.291566658402806" id="-39045">
		<tag k="fixme" v="consider natural=peak for the most distinct mountains in the district" />
		<tag k="name" v="Grossvollrya" />
		<tag k="natural" v="hill" />
		<tag k="place" v="locality" />
		<tag k="ssr:stedsnr" v="497254" />
	</node>
	<node lat="63.2324027773092" lon="11.29676389796966" id="-39046">
		<tag k="fixme" v="consider natural=peak for the most distinct mountains in the district" />
		<tag k="name" v="Vordfjellet" />
		<tag k="natural" v="hill" />
		<tag k="place" v="locality" />
		<tag k="ssr:stedsnr" v="497198" />
	</node>
</osm>
