<?xml version="1.0" encoding="UTF-8"?>
<osm version="0.6" generator="osmapis">
	<node lat="63.253700002268815" lon="11.35106943468233" id="-44094">
		<tag k="name" v="Roltdal statsalmenning" />
		<tag k="place" v="locality" />
		<tag k="ssr:stedsnr" v="95865" />
	</node>
	<node lat="63.259305551915695" lon="10.750047225138783" id="-44140">
		<tag k="fixme" v="consider boundary=protected_area and relevant protect_class if not nature reserve" />
		<tag k="leisure" v="nature_reserve" />
		<tag k="name" v="Renålia naturreservat" />
		<tag k="ssr:stedsnr" v="118275" />
	</node>
	<node lat="63.18728055842751" lon="11.397472228742036" id="-44308">
		<tag k="name" v="Roltdal statsalmenning" />
		<tag k="place" v="locality" />
		<tag k="ssr:stedsnr" v="217881" />
	</node>
	<node lat="63.277547225727595" lon="10.666838896055582" id="-44356">
		<tag k="fixme" v="consider boundary=protected_area and relevant protect_class if not nature reserve" />
		<tag k="leisure" v="nature_reserve" />
		<tag k="name" v="Øya friluftsområde" />
		<tag k="ssr:stedsnr" v="239439" />
	</node>
	<node lat="63.08634722163179" lon="11.023272219477942" id="-44388">
		<tag k="name" v="Nålbogen statsalmenning" />
		<tag k="place" v="locality" />
		<tag k="ssr:stedsnr" v="459518" />
	</node>
	<node lat="63.20997222106907" lon="11.40475277669975" id="-44459">
		<tag k="name" v="Roltdal statsalmenning" />
		<tag k="place" v="locality" />
		<tag k="ssr:stedsnr" v="278921" />
	</node>
	<node lat="63.181144446630825" lon="11.48633056090169" id="-44485">
		<tag k="name" v="Roltdal statsalmenning" />
		<tag k="place" v="locality" />
		<tag k="ssr:stedsnr" v="280199" />
	</node>
	<node lat="63.19285833100899" lon="11.41741110387837" id="-44770">
		<tag k="name" v="Roltdal statsalmenning" />
		<tag k="place" v="locality" />
		<tag k="ssr:stedsnr" v="402296" />
	</node>
	<node lat="63.17135277941363" lon="11.367808334852734" id="-44948">
		<tag k="name" v="Roltdal statsalmenning" />
		<tag k="place" v="locality" />
		<tag k="ssr:stedsnr" v="520573" />
	</node>
	<node lat="63.16960555806872" lon="11.420822220438252" id="-45040">
		<tag k="name" v="Roltdal statsalmenning" />
		<tag k="place" v="locality" />
		<tag k="ssr:stedsnr" v="580645" />
	</node>
	<node lat="63.21419444105556" lon="11.410236102666891" id="-45354">
		<tag k="name" v="Roltdal statsalmenning" />
		<tag k="place" v="locality" />
		<tag k="ssr:stedsnr" v="703911" />
	</node>
	<node lat="63.161802774887995" lon="11.466136109306593" id="-45485">
		<tag k="name" v="Roltdal statsalmenning" />
		<tag k="place" v="locality" />
		<tag k="ssr:stedsnr" v="765606" />
	</node>
	<node lat="63.212261115329056" lon="10.959322230285652" id="-45491">
		<tag k="fixme" v="consider boundary=protected_area and relevant protect_class if not nature reserve" />
		<tag k="leisure" v="nature_reserve" />
		<tag k="name" v="Fitjan fuglefredningsområde" />
		<tag k="ssr:stedsnr" v="769059" />
	</node>
	<node lat="63.179444440126396" lon="11.425616667206981" id="-45537">
		<tag k="name" v="Roltdal statsalmenning" />
		<tag k="place" v="locality" />
		<tag k="ssr:stedsnr" v="824903" />
	</node>
	<node lat="63.14604167007225" lon="11.370305565333004" id="-45664">
		<tag k="name" v="Roltdal statsalmenning" />
		<tag k="place" v="locality" />
		<tag k="ssr:stedsnr" v="884848" />
	</node>
	<node lat="63.18566110742191" lon="11.497477768868027" id="-45804">
		<tag k="name" v="Roltdal statsalmenning" />
		<tag k="place" v="locality" />
		<tag k="ssr:stedsnr" v="947307" />
	</node>
	<node lat="63.060288892902484" lon="11.044213885045785" id="-45951">
		<tag k="name" v="Nålbogen statsalmenning" />
		<tag k="place" v="locality" />
		<tag k="ssr:stedsnr" v="36477" />
	</node>
	<node lat="63.17094166949028" lon="11.403486118027311" id="-46054">
		<tag k="name" v="Roltdal statsalmenning" />
		<tag k="place" v="locality" />
		<tag k="ssr:stedsnr" v="95645" />
	</node>
	<node lat="63.292827774002795" lon="11.346530557968372" id="-46201">
		<tag k="name" v="Roltdal statsalmenning" />
		<tag k="place" v="locality" />
		<tag k="ssr:stedsnr" v="155857" />
	</node>
	<node lat="63.18001388751469" lon="11.464413887518036" id="-46264">
		<tag k="name" v="Roltdal statsalmenning" />
		<tag k="place" v="locality" />
		<tag k="ssr:stedsnr" v="158325" />
	</node>
	<node lat="63.2281833299211" lon="11.409275009579273" id="-46471">
		<tag k="name" v="Roltdal statsalmenning" />
		<tag k="place" v="locality" />
		<tag k="ssr:stedsnr" v="219648" />
	</node>
	<node lat="63.32579999971432" lon="11.32666665756244" id="-46505">
		<tag k="name" v="Roldal statsalmenning" />
		<tag k="place" v="locality" />
		<tag k="ssr:stedsnr" v="277848" />
	</node>
	<node lat="63.15857222099262" lon="11.482705558046401" id="-46567">
		<tag k="name" v="Roltdal statsalmenning" />
		<tag k="place" v="locality" />
		<tag k="ssr:stedsnr" v="280255" />
	</node>
	<node lat="63.19216944173769" lon="11.395488884979533" id="-46675">
		<tag k="name" v="Roltdal statsalmenning" />
		<tag k="place" v="locality" />
		<tag k="ssr:stedsnr" v="338683" />
	</node>
	<node lat="63.256747218803994" lon="11.348230558357862" id="-46840">
		<tag k="name" v="Roltdal statsalmenning" />
		<tag k="place" v="locality" />
		<tag k="ssr:stedsnr" v="398870" />
	</node>
	<node lat="63.16572778005992" lon="11.504888892439503" id="-46841">
		<tag k="name" v="Roltdal statsalmenning" />
		<tag k="place" v="locality" />
		<tag k="ssr:stedsnr" v="398874" />
	</node>
	<node lat="63.093600002939525" lon="10.884380565533503" id="-46865">
		<tag k="name" v="Sørungen statsalmenning" />
		<tag k="place" v="locality" />
		<tag k="ssr:stedsnr" v="400450" />
	</node>
	<node lat="63.26492222490332" lon="11.50839722353215" id="-46926">
		<tag k="fixme" v="consider boundary=protected_area and relevant protect_class if not nature reserve" />
		<tag k="leisure" v="nature_reserve" />
		<tag k="name" v="Skarvan og Roltdalen nasjonalpark" />
		<tag k="ssr:stedsnr" v="405260" />
	</node>
	<node lat="63.23937222308602" lon="11.397866659691806" id="-47059">
		<tag k="name" v="Roltdal statsalmenning" />
		<tag k="place" v="locality" />
		<tag k="ssr:stedsnr" v="520649" />
	</node>
	<node lat="63.31611666837234" lon="11.326591672772674" id="-47072">
		<tag k="name" v="Roltdal statsalmenning" />
		<tag k="place" v="locality" />
		<tag k="ssr:stedsnr" v="521101" />
	</node>
	<node lat="63.16455277762577" lon="11.387113891154362" id="-47078">
		<tag k="name" v="Roltdal statsalmenning" />
		<tag k="place" v="locality" />
		<tag k="ssr:stedsnr" v="521885" />
	</node>
	<node lat="63.0692083345967" lon="11.04477222540251" id="-47217">
		<tag k="name" v="Nålbogen statsalmenning" />
		<tag k="place" v="locality" />
		<tag k="ssr:stedsnr" v="580519" />
	</node>
	<node lat="63.067375003647484" lon="10.928436105342609" id="-47271">
		<tag k="name" v="Sørungen statsalmenning" />
		<tag k="place" v="locality" />
		<tag k="ssr:stedsnr" v="582079" />
	</node>
	<node lat="63.22869722198833" lon="11.017922214600688" id="-47332">
		<tag k="fixme" v="consider boundary=protected_area and relevant protect_class if not nature reserve" />
		<tag k="leisure" v="nature_reserve" />
		<tag k="name" v="Årsøya fritidspark" />
		<tag k="ssr:stedsnr" v="605484" />
	</node>
	<node lat="63.175224998495345" lon="11.379805546938842" id="-47417">
		<tag k="name" v="Roltdal statsalmenning" />
		<tag k="place" v="locality" />
		<tag k="ssr:stedsnr" v="641654" />
	</node>
	<node lat="63.1009694474252" lon="11.014783324810127" id="-47494">
		<tag k="name" v="Nålbogen statsalmenning" />
		<tag k="place" v="locality" />
		<tag k="ssr:stedsnr" v="644456" />
	</node>
	<node lat="63.0981749978163" lon="10.860308335545486" id="-47499">
		<tag k="name" v="Sørungen statsalmenning" />
		<tag k="place" v="locality" />
		<tag k="ssr:stedsnr" v="644171" />
	</node>
	<node lat="63.21147048130823" lon="10.969683754000583" id="-47511">
		<tag k="fixme" v="consider boundary=protected_area and relevant protect_class if not nature reserve" />
		<tag k="leisure" v="nature_reserve" />
		<tag k="name" v="Låen naturreservat" />
		<tag k="ssr:stedsnr" v="648077" />
	</node>
	<node lat="63.09017500142325" lon="11.039305556404864" id="-47575">
		<tag k="name" v="Nålbogen statsalmenning" />
		<tag k="place" v="locality" />
		<tag k="ssr:stedsnr" v="762534" />
	</node>
</osm>
