<?xml version="1.0" encoding="UTF-8"?>
<osm version="0.6" generator="osmapis">
	<node lat="63.20164308590412" lon="11.050573620496165" id="-85323">
		<tag k="bridge" v="yes" />
		<tag k="layer" v="1" />
		<tag k="name" v="Kolset bru" />
		<tag k="ssr:stedsnr" v="35410" />
	</node>
	<node lat="63.21402133454512" lon="11.039118931556073" id="-85943">
		<tag k="bridge" v="yes" />
		<tag k="layer" v="1" />
		<tag k="name" v="Gjelbakkbrua" />
		<tag k="ssr:stedsnr" v="338102" />
	</node>
	<node lat="63.13417777720824" lon="11.046511112586847" id="-86137">
		<tag k="ford" v="yes" />
		<tag k="name" v="Vadet" />
		<tag k="place" v="locality" />
		<tag k="ssr:stedsnr" v="460366" />
	</node>
	<node lat="63.065116665661286" lon="11.231227768803869" id="-86290">
		<tag k="ford" v="yes" />
		<tag k="name" v="Storvollvadet" />
		<tag k="place" v="locality" />
		<tag k="ssr:stedsnr" v="521912" />
	</node>
	<node lat="63.277605560014656" lon="10.938991665294488" id="-86298">
		<tag k="name" v="Storsvingen" />
		<tag k="place" v="locality" />
		<tag k="ssr:stedsnr" v="522302" />
	</node>
	<node lat="63.338849998713975" lon="11.092436105464595" id="-86394">
		<tag k="fixme" v="consider highway=path" />
		<tag k="highway" v="track" />
		<tag k="name" v="Bakkvollvegen" />
		<tag k="ssr:stedsnr" v="582466" />
	</node>
	<node lat="63.2580805577126" lon="10.871119439360937" id="-86405">
		<tag k="highway" v="path" />
		<tag k="name" v="Stigen" />
		<tag k="ssr:stedsnr" v="583141" />
	</node>
	<node lat="63.20608610877449" lon="10.95869999861846" id="-86418">
		<tag k="ford" v="yes" />
		<tag k="name" v="Geitvadet" />
		<tag k="place" v="locality" />
		<tag k="ssr:stedsnr" v="583698" />
	</node>
	<node lat="63.33743333705654" lon="11.0924722138268" id="-86617">
		<tag k="name" v="Svingen" />
		<tag k="place" v="locality" />
		<tag k="ssr:stedsnr" v="644515" />
	</node>
	<node lat="63.252661114031454" lon="11.262916673725085" id="-86654">
		<tag k="highway" v="path" />
		<tag k="name" v="Kneppa" />
		<tag k="ssr:stedsnr" v="702577" />
	</node>
	<node lat="63.190168925972635" lon="11.18325340432046" id="-86670">
		<tag k="bridge" v="yes" />
		<tag k="layer" v="1" />
		<tag k="name" v="Rotlbrua" />
		<tag k="ssr:stedsnr" v="703013" />
	</node>
	<node lat="63.1978138922182" lon="11.303783334391182" id="-87010">
		<tag k="bridge" v="yes" />
		<tag k="layer" v="1" />
		<tag k="name" v="Krossåbrua" />
		<tag k="ssr:stedsnr" v="885962" />
	</node>
	<node lat="63.28438333282853" lon="11.129227777903312" id="-87248">
		<tag k="fixme" v="consider highway=path" />
		<tag k="highway" v="track" />
		<tag k="name" v="Langlidalsvegen" />
		<tag k="ssr:stedsnr" v="34606" />
	</node>
	<node lat="63.248741667874214" lon="10.78451944597823" id="-87385">
		<tag k="highway" v="path" />
		<tag k="name" v="Mila" />
		<tag k="ssr:stedsnr" v="95385" />
	</node>
	<node lat="63.26576389216789" lon="11.210816671262416" id="-87740">
		<tag k="ford" v="yes" />
		<tag k="name" v="Blankvekkvadet" />
		<tag k="place" v="locality" />
		<tag k="ssr:stedsnr" v="217052" />
	</node>
	<node lat="63.1740083356528" lon="10.930930564595021" id="-87762">
		<tag k="bridge" v="yes" />
		<tag k="layer" v="1" />
		<tag k="name" v="Svulubrua" />
		<tag k="ssr:stedsnr" v="219419" />
	</node>
	<node lat="63.182788650762475" lon="11.18854738121603" id="-87999">
		<tag k="bridge" v="yes" />
		<tag k="layer" v="1" />
		<tag k="name" v="Rollsetbrua" />
		<tag k="ssr:stedsnr" v="338009" />
	</node>
	<node lat="63.2677944407974" lon="11.207824995669625" id="-88186">
		<tag k="ford" v="yes" />
		<tag k="name" v="Nilsvadet" />
		<tag k="place" v="locality" />
		<tag k="ssr:stedsnr" v="399040" />
	</node>
	<node lat="63.18961944209304" lon="11.282408342844656" id="-88409">
		<tag k="bridge" v="yes" />
		<tag k="layer" v="1" />
		<tag k="name" v="Gammelbrua" />
		<tag k="ssr:stedsnr" v="520741" />
	</node>
	<node lat="63.201988892474695" lon="11.19561667503891" id="-88572">
		<tag k="highway" v="path" />
		<tag k="name" v="Stigen" />
		<tag k="ssr:stedsnr" v="581031" />
	</node>
	<node lat="63.27138333073722" lon="10.798991660844788" id="-88621">
		<tag k="highway" v="path" />
		<tag k="name" v="Storløfta" />
		<tag k="ssr:stedsnr" v="582422" />
	</node>
	<node lat="63.12997222580042" lon="11.281197218164902" id="-88747">
		<tag k="highway" v="path" />
		<tag k="name" v="Kinna" />
		<tag k="ssr:stedsnr" v="641538" />
	</node>
	<node lat="63.28445555711368" lon="11.179575006295206" id="-88935">
		<tag k="ford" v="yes" />
		<tag k="name" v="Stenhusvollvadet" />
		<tag k="place" v="locality" />
		<tag k="ssr:stedsnr" v="763070" />
	</node>
	<node lat="63.23762778107402" lon="10.688652769769352" id="-89011">
		<tag k="highway" v="path" />
		<tag k="name" v="Småvasskneppa" />
		<tag k="ssr:stedsnr" v="823493" />
	</node>
	<node lat="63.18168055634651" lon="11.145661120596719" id="-89263">
		<tag k="highway" v="path" />
		<tag k="name" v="Betlitjennvegen" />
		<tag k="ssr:stedsnr" v="884720" />
	</node>
	<node lat="63.1433111095971" lon="11.108358329123119" id="-89312">
		<tag k="highway" v="path" />
		<tag k="name" v="Frosktjennbakken" />
		<tag k="ssr:stedsnr" v="886489" />
	</node>
</osm>
