<?xml version="1.0" encoding="UTF-8"?>
<osm version="0.6" generator="osmapis">
	<node lat="63.201066056456085" lon="10.988993773644324" id="-38100">
		<tag k="name" v="Såmstadtjenna" />
		<tag k="natural" v="water" />
		<tag k="ssr:stedsnr" v="12086" />
	</node>
	<node lat="63.24585555147958" lon="11.364208331143086" id="-38101">
		<tag k="name" v="Kroktjenna" />
		<tag k="natural" v="water" />
		<tag k="ssr:stedsnr" v="12204" />
	</node>
	<node lat="63.2391583310266" lon="11.422769447321059" id="-38102">
		<tag k="name" v="Stortjennin" />
		<tag k="natural" v="water" />
		<tag k="ssr:stedsnr" v="12211" />
	</node>
	<node lat="63.1293250035533" lon="11.055786106090126" id="-38103">
		<tag k="name" v="Skillitjenna" />
		<tag k="natural" v="water" />
		<tag k="ssr:stedsnr" v="12105" />
	</node>
	<node lat="63.290380557433096" lon="11.274425007809127" id="-38110">
		<tag k="name" v="Stråsjøen" />
		<tag k="natural" v="water" />
		<tag k="ssr:stedsnr" v="13082" />
		<tag k="water" v="lake" />
	</node>
	<node lat="63.263850003780426" lon="11.5174499984127" id="-38111">
		<tag k="name" v="Nautsjøen" />
		<tag k="natural" v="water" />
		<tag k="ssr:stedsnr" v="13101" />
		<tag k="water" v="lake" />
	</node>
	<node lat="63.256533334915794" lon="11.539511111790805" id="-38112">
		<tag k="name" v="Nauttjenna" />
		<tag k="natural" v="water" />
		<tag k="ssr:stedsnr" v="13123" />
	</node>
	<node lat="63.30393889043292" lon="11.188516675559418" id="-38113">
		<tag k="name" v="Børsjøen" />
		<tag k="natural" v="water" />
		<tag k="ssr:stedsnr" v="13302" />
		<tag k="water" v="lake" />
	</node>
	<node lat="63.269524999651274" lon="10.848988897490582" id="-38115">
		<tag k="name" v="Okstjenna" />
		<tag k="natural" v="water" />
		<tag k="ssr:stedsnr" v="13316" />
	</node>
	<node lat="63.261697221120436" lon="11.145794440579033" id="-38116">
		<tag k="name" v="Storbekken" />
		<tag k="ssr:stedsnr" v="13404" />
		<tag k="waterway" v="stream" />
	</node>
	<node lat="63.29255000213791" lon="10.665069441172694" id="-38119">
		<tag k="name" v="Strindbekken" />
		<tag k="ssr:stedsnr" v="13806" />
		<tag k="waterway" v="stream" />
	</node>
	<node lat="63.062216669147936" lon="11.032466657489877" id="-38124">
		<tag k="name" v="Ytternåla" />
		<tag k="ssr:stedsnr" v="34521" />
		<tag k="waterway" v="river" />
	</node>
	<node lat="63.28217222455365" lon="10.68374166511276" id="-38129">
		<tag k="name" v="Litjbekken" />
		<tag k="ssr:stedsnr" v="34439" />
		<tag k="waterway" v="stream" />
	</node>
	<node lat="63.32589166770778" lon="11.121427773440587" id="-38139">
		<tag k="name" v="Gammelvollbekken" />
		<tag k="ssr:stedsnr" v="35119" />
		<tag k="waterway" v="stream" />
	</node>
	<node lat="63.32100277928247" lon="11.279263896242623" id="-38141">
		<tag k="name" v="Storbekken" />
		<tag k="ssr:stedsnr" v="35128" />
		<tag k="waterway" v="stream" />
	</node>
	<node lat="63.245575003587724" lon="11.012533328231276" id="-38142">
		<tag k="name" v="SELBUSJØEN" />
		<tag k="natural" v="water" />
		<tag k="ssr:stedsnr" v="35180" />
		<tag k="water" v="lake" />
	</node>
	<node lat="63.115630558351896" lon="10.987555556570316" id="-38143">
		<tag k="name" v="Bjørndalstjenna" />
		<tag k="natural" v="water" />
		<tag k="ssr:stedsnr" v="35369" />
	</node>
	<node lat="63.28784722416915" lon="11.288730547136467" id="-38148">
		<tag k="name" v="Kutjenna" />
		<tag k="natural" v="water" />
		<tag k="ssr:stedsnr" v="35762" />
	</node>
	<node lat="63.07243055860961" lon="10.984788881927326" id="-38155">
		<tag k="name" v="Sandtjenna" />
		<tag k="natural" v="water" />
		<tag k="ssr:stedsnr" v="36307" />
	</node>
	<node lat="63.190869446514476" lon="10.937933329910337" id="-38167">
		<tag k="name" v="Stigledtjenna" />
		<tag k="natural" v="water" />
		<tag k="ssr:stedsnr" v="37263" />
	</node>
	<node lat="63.14498889321127" lon="11.007677773787414" id="-38178">
		<tag k="name" v="Nåltangen" />
		<tag k="natural" v="cape" />
		<tag k="ssr:stedsnr" v="37312" />
	</node>
	<node lat="63.285761111550016" lon="11.061113879745825" id="-38183">
		<tag k="name" v="Espbekken" />
		<tag k="ssr:stedsnr" v="37580" />
		<tag k="waterway" v="stream" />
	</node>
	<node lat="63.23764166453145" lon="10.751936119095154" id="-38185">
		<tag k="name" v="Synder Styggdalsbekken" />
		<tag k="ssr:stedsnr" v="37703" />
		<tag k="waterway" v="stream" />
	</node>
	<node lat="63.25684906224929" lon="11.040770380948654" id="-38194">
		<tag k="name" v="Flønesneset" />
		<tag k="natural" v="cape" />
		<tag k="ssr:stedsnr" v="73014" />
	</node>
	<node lat="63.22693888799887" lon="11.274813890243184" id="-38198">
		<tag k="name" v="Bleksjøene" />
		<tag k="natural" v="water" />
		<tag k="ssr:stedsnr" v="73210" />
	</node>
	<node lat="63.288847226196474" lon="10.86546667063377" id="-38205">
		<tag k="name" v="Halvfartjenna" />
		<tag k="natural" v="water" />
		<tag k="ssr:stedsnr" v="74258" />
	</node>
	<node lat="63.29222961618324" lon="10.907603086618602" id="-38206">
		<tag k="name" v="Svarttjenna" />
		<tag k="natural" v="water" />
		<tag k="ssr:stedsnr" v="74260" />
	</node>
	<node lat="63.146632925744235" lon="10.913015611747587" id="-38215">
		<tag k="name" v="Litjsørungen" />
		<tag k="natural" v="water" />
		<tag k="ssr:stedsnr" v="81286" />
	</node>
	<node lat="63.246233332941415" lon="11.357766669670958" id="-38218">
		<tag k="name" v="Krossåfossene" />
		<tag k="natural" v="waterfall" />
		<tag k="ssr:stedsnr" v="82197" />
	</node>
	<node lat="63.10596111220108" lon="11.368397215072918" id="-38220">
		<tag k="name" v="Merkesbekken" />
		<tag k="ssr:stedsnr" v="92802" />
		<tag k="waterway" v="stream" />
	</node>
	<node lat="63.29003889207973" lon="10.807616659534343" id="-38221">
		<tag k="name" v="Storalmotjenna" />
		<tag k="natural" v="water" />
		<tag k="ssr:stedsnr" v="95407" />
	</node>
	<node lat="63.29256111302959" lon="10.844325009110177" id="-38222">
		<tag k="name" v="Svarttjenna" />
		<tag k="natural" v="water" />
		<tag k="ssr:stedsnr" v="95414" />
	</node>
	<node lat="63.20293055288735" lon="10.807316657429192" id="-38224">
		<tag k="name" v="Jensbekken" />
		<tag k="ssr:stedsnr" v="95424" />
		<tag k="waterway" v="stream" />
	</node>
	<node lat="63.23792777814342" lon="11.319200006202585" id="-38228">
		<tag k="name" v="Tibekken" />
		<tag k="ssr:stedsnr" v="95612" />
		<tag k="waterway" v="stream" />
	</node>
	<node lat="63.09259166388074" lon="11.083497219255612" id="-38236">
		<tag k="name" v="Tangbekken" />
		<tag k="ssr:stedsnr" v="95822" />
		<tag k="waterway" v="stream" />
	</node>
	<node lat="63.28530000400862" lon="11.027263896207614" id="-38244">
		<tag k="name" v="Stamneselva" />
		<tag k="ssr:stedsnr" v="96221" />
		<tag k="waterway" v="river" />
	</node>
	<node lat="63.22688055305166" lon="10.989991659741204" id="-38245">
		<tag k="name" v="SELBUSJØEN" />
		<tag k="natural" v="water" />
		<tag k="ssr:stedsnr" v="96167" />
		<tag k="water" v="lake" />
	</node>
	<node lat="63.23481388982522" lon="11.071824990662487" id="-38246">
		<tag k="name" v="Kvennbekken" />
		<tag k="ssr:stedsnr" v="96173" />
		<tag k="waterway" v="stream" />
	</node>
	<node lat="63.240902773636485" lon="10.819361115835894" id="-38252">
		<tag k="name" v="Eggjabekken" />
		<tag k="ssr:stedsnr" v="97426" />
		<tag k="waterway" v="stream" />
	</node>
	<node lat="63.227494442017246" lon="10.713377773372137" id="-38256">
		<tag k="name" v="Volltjenna" />
		<tag k="natural" v="water" />
		<tag k="ssr:stedsnr" v="97561" />
	</node>
	<node lat="63.069136114164614" lon="10.92908610493929" id="-38261">
		<tag k="name" v="Fisklausbekken" />
		<tag k="ssr:stedsnr" v="98161" />
		<tag k="waterway" v="stream" />
	</node>
	<node lat="63.140221134554636" lon="10.847813624436288" id="-38262">
		<tag k="name" v="Ånbekken" />
		<tag k="ssr:stedsnr" v="98163" />
		<tag k="waterway" v="stream" />
	</node>
	<node lat="63.266991668393665" lon="10.886413879046318" id="-38267">
		<tag k="name" v="Lomtjenna" />
		<tag k="natural" v="water" />
		<tag k="ssr:stedsnr" v="98268" />
	</node>
	<node lat="63.275991666564" lon="10.8730666597568" id="-38268">
		<tag k="name" v="Jotjenna" />
		<tag k="natural" v="water" />
		<tag k="ssr:stedsnr" v="98271" />
	</node>
	<node lat="63.325519444081365" lon="11.00654722975675" id="-38270">
		<tag k="name" v="Totjenna" />
		<tag k="natural" v="water" />
		<tag k="ssr:stedsnr" v="98417" />
	</node>
	<node lat="63.10003888630224" lon="10.98653054708689" id="-38271">
		<tag k="name" v="Vindranken" />
		<tag k="natural" v="water" />
		<tag k="ssr:stedsnr" v="98424" />
	</node>
	<node lat="63.24421666513656" lon="10.941891663027105" id="-38274">
		<tag k="name" v="Tystenodden" />
		<tag k="natural" v="cape" />
		<tag k="ssr:stedsnr" v="98502" />
	</node>
	<node lat="63.21608055528683" lon="10.967158336639198" id="-38280">
		<tag k="name" v="Låbekken" />
		<tag k="ssr:stedsnr" v="99220" />
		<tag k="waterway" v="stream" />
	</node>
	<node lat="63.30411666463633" lon="10.820463881443938" id="-38281">
		<tag k="name" v="Kvitbergtjenna" />
		<tag k="natural" v="water" />
		<tag k="ssr:stedsnr" v="108105" />
	</node>
	<node lat="63.2794666675352" lon="11.421702778382617" id="-38289">
		<tag k="name" v="Gjeståa" />
		<tag k="ssr:stedsnr" v="134114" />
		<tag k="waterway" v="river" />
	</node>
	<node lat="63.316817906007564" lon="10.926944837842218" id="-38294">
		<tag k="name" v="Engtjenna" />
		<tag k="natural" v="water" />
		<tag k="old_name" v="Engtjørna" />
		<tag k="ssr:stedsnr" v="134407" />
	</node>
	<node lat="63.137422225112616" lon="11.523575007082037" id="-38299">
		<tag k="name" v="Veltjennin" />
		<tag k="natural" v="water" />
		<tag k="ssr:stedsnr" v="141207" />
	</node>
	<node lat="63.13737636985762" lon="11.014914739574284" id="-38301">
		<tag k="name" v="Nålfossen" />
		<tag k="natural" v="waterfall" />
		<tag k="ssr:stedsnr" v="142307" />
	</node>
	<node lat="63.064594251748545" lon="11.094137261911404" id="-38303">
		<tag k="name" v="Skortjenna" />
		<tag k="natural" v="water" />
		<tag k="ssr:stedsnr" v="142283" />
	</node>
	<node lat="63.163558332258056" lon="11.1345305652348" id="-38304">
		<tag k="name" v="Litjdamtjenna" />
		<tag k="natural" v="water" />
		<tag k="ssr:stedsnr" v="142288" />
	</node>
	<node lat="63.234236115142004" lon="11.02841944064383" id="-38305">
		<tag k="name" v="Haverneset" />
		<tag k="natural" v="cape" />
		<tag k="ssr:stedsnr" v="255001" />
	</node>
	<node lat="63.227601940647915" lon="10.847031521075074" id="-38309">
		<tag k="name" v="Sandtjenna" />
		<tag k="natural" v="water" />
		<tag k="ssr:stedsnr" v="255062" />
	</node>
	<node lat="63.33534722439091" lon="11.135797214046567" id="-38316">
		<tag k="name" v="Stor-Olemstjenna" />
		<tag k="natural" v="water" />
		<tag k="ssr:stedsnr" v="255327" />
	</node>
	<node lat="63.039130551397264" lon="11.299452784062165" id="-38317">
		<tag k="name" v="Kløftbekken" />
		<tag k="ssr:stedsnr" v="255354" />
		<tag k="waterway" v="stream" />
	</node>
	<node lat="63.18610000068539" lon="11.383283326858452" id="-38318">
		<tag k="name" v="Driva" />
		<tag k="ssr:stedsnr" v="255498" />
		<tag k="waterway" v="river" />
	</node>
	<node lat="63.30867777553107" lon="11.05856667591297" id="-38320">
		<tag k="name" v="Røsbekken" />
		<tag k="ssr:stedsnr" v="256266" />
		<tag k="waterway" v="stream" />
	</node>
	<node lat="63.26783333292961" lon="10.83612499870556" id="-38323">
		<tag k="name" v="Svarttjenna" />
		<tag k="natural" v="water" />
		<tag k="ssr:stedsnr" v="256310" />
	</node>
	<node lat="63.284443775152596" lon="11.144913204390798" id="-38324">
		<tag k="name" v="Alsettjenna" />
		<tag k="natural" v="water" />
		<tag k="ssr:stedsnr" v="256281" />
	</node>
	<node lat="63.269261112041924" lon="11.059902777886352" id="-38326">
		<tag k="alt_name" v="Setsåsøya" />
		<tag k="name" v="Sessåsøya" />
		<tag k="place" v="islet" />
		<tag k="ssr:stedsnr" v="256321" />
	</node>
	<node lat="63.2318333318615" lon="10.700219453233672" id="-38333">
		<tag k="name" v="Hånnåa" />
		<tag k="ssr:stedsnr" v="155500" />
		<tag k="waterway" v="river" />
	</node>
	<node lat="63.23821666455777" lon="11.357783340137544" id="-38334">
		<tag k="name" v="Stenbekken" />
		<tag k="ssr:stedsnr" v="155659" />
		<tag k="waterway" v="stream" />
	</node>
	<node lat="63.10414444287161" lon="11.086127768840784" id="-38338">
		<tag k="name" v="Ner Østrungsfossen" />
		<tag k="natural" v="waterfall" />
		<tag k="ssr:stedsnr" v="155823" />
	</node>
	<node lat="63.25429166846633" lon="11.02152777587246" id="-38340">
		<tag k="name" v="Litjvika" />
		<tag k="natural" v="bay" />
		<tag k="ssr:stedsnr" v="156151" />
	</node>
	<node lat="63.20621944617989" lon="11.130180548884475" id="-38343">
		<tag k="name" v="Kallarsbekken" />
		<tag k="ssr:stedsnr" v="156019" />
		<tag k="waterway" v="stream" />
	</node>
	<node lat="63.128572221521274" lon="11.11179444219417" id="-38344">
		<tag k="name" v="Okstjennbekken" />
		<tag k="ssr:stedsnr" v="156203" />
		<tag k="waterway" v="stream" />
	</node>
	<node lat="63.1618250009752" lon="11.114469451270853" id="-38346">
		<tag k="name" v="Gulltjenna" />
		<tag k="natural" v="water" />
		<tag k="ssr:stedsnr" v="156216" />
	</node>
	<node lat="63.291869447816836" lon="11.209138892259606" id="-38352">
		<tag k="name" v="Grytbekken" />
		<tag k="ssr:stedsnr" v="157051" />
		<tag k="waterway" v="stream" />
	</node>
	<node lat="63.3177750019551" lon="11.195155562508756" id="-38354">
		<tag k="name" v="Børsjøtjenna" />
		<tag k="natural" v="water" />
		<tag k="ssr:stedsnr" v="157066" />
	</node>
	<node lat="63.21232199354213" lon="11.314906847064055" id="-38355">
		<tag k="name" v="Fargåsbekken" />
		<tag k="ssr:stedsnr" v="157966" />
		<tag k="waterway" v="stream" />
	</node>
	<node lat="63.19357777767896" lon="10.843272229912577" id="-38364">
		<tag k="name" v="Renåa" />
		<tag k="ssr:stedsnr" v="158412" />
		<tag k="waterway" v="river" />
	</node>
	<node lat="63.296391670093264" lon="10.729780564582244" id="-38365">
		<tag k="name" v="Sagfjorden" />
		<tag k="natural" v="water" />
		<tag k="ssr:stedsnr" v="158422" />
		<tag k="water" v="lake" />
	</node>
	<node lat="63.19824166500049" lon="11.114280546375397" id="-38368">
		<tag k="name" v="Kamløken" />
		<tag k="ssr:stedsnr" v="158508" />
		<tag k="waterway" v="river" />
	</node>
	<node lat="63.27544722319932" lon="10.678055554639474" id="-38370">
		<tag k="name" v="Varmdalsvika" />
		<tag k="natural" v="bay" />
		<tag k="ssr:stedsnr" v="158563" />
	</node>
	<node lat="63.23858333293487" lon="10.709169434864437" id="-38372">
		<tag k="name" v="Puttjenna" />
		<tag k="natural" v="water" />
		<tag k="ssr:stedsnr" v="158567" />
	</node>
	<node lat="63.181394443496856" lon="10.845688888390614" id="-38376">
		<tag k="name" v="Renåelva" />
		<tag k="ssr:stedsnr" v="158450" />
		<tag k="waterway" v="river" />
	</node>
	<node lat="63.19674444626994" lon="11.241105559374398" id="-38377">
		<tag k="name" v="Lundabekken" />
		<tag k="ssr:stedsnr" v="158498" />
		<tag k="waterway" v="stream" />
	</node>
	<node lat="63.24813889127748" lon="10.89370833659441" id="-38385">
		<tag k="name" v="Solemsodden" />
		<tag k="natural" v="cape" />
		<tag k="ssr:stedsnr" v="159252" />
	</node>
	<node lat="63.091108331067666" lon="10.974522214465651" id="-38389">
		<tag k="name" v="Dissabekken" />
		<tag k="ssr:stedsnr" v="159462" />
		<tag k="waterway" v="stream" />
	</node>
	<node lat="63.13232778190707" lon="11.455666675398824" id="-38401">
		<tag k="name" v="Nedre Drøytjenna" />
		<tag k="natural" v="water" />
		<tag k="ssr:stedsnr" v="263236" />
	</node>
	<node lat="63.140147221497415" lon="11.52182778360951" id="-38403">
		<tag k="name" v="Nedre Veltjenna" />
		<tag k="natural" v="water" />
		<tag k="ssr:stedsnr" v="263239" />
	</node>
	<node lat="63.1446016947188" lon="11.016443096926428" id="-38407">
		<tag k="name" v="Brandfossen" />
		<tag k="natural" v="waterfall" />
		<tag k="ssr:stedsnr" v="263348" />
	</node>
	<node lat="63.181277780318034" lon="11.09012499058661" id="-38408">
		<tag k="name" v="Bønndalsbekken" />
		<tag k="ssr:stedsnr" v="263353" />
		<tag k="waterway" v="stream" />
	</node>
	<node lat="63.26501389197798" lon="10.933102772302867" id="-38413">
		<tag k="name" v="Grøtemselva" />
		<tag k="ssr:stedsnr" v="195352" />
		<tag k="waterway" v="stream" />
	</node>
	<node lat="63.33822777458674" lon="11.261519446865885" id="-38418">
		<tag k="name" v="Vollsetbekken" />
		<tag k="ssr:stedsnr" v="195429" />
		<tag k="waterway" v="stream" />
	</node>
	<node lat="63.13838888511154" lon="11.013616661244766" id="-38422">
		<tag k="name" v="Nålholet" />
		<tag k="natural" v="bay" />
		<tag k="ssr:stedsnr" v="203293" />
	</node>
	<node lat="63.154650002425676" lon="11.12990278477818" id="-38424">
		<tag k="name" v="Meddamtjenna" />
		<tag k="natural" v="water" />
		<tag k="ssr:stedsnr" v="203295" />
	</node>
	<node lat="63.27768888895717" lon="11.46202777051194" id="-38425">
		<tag k="name" v="Rensbekken" />
		<tag k="ssr:stedsnr" v="203351" />
		<tag k="waterway" v="stream" />
	</node>
	<node lat="63.23748055215182" lon="10.832947218292784" id="-38430">
		<tag k="name" v="Svenskbekken" />
		<tag k="ssr:stedsnr" v="216401" />
		<tag k="waterway" v="stream" />
	</node>
	<node lat="63.14678055220721" lon="11.345150004210392" id="-38433">
		<tag k="name" v="Kjerringtjennin" />
		<tag k="natural" v="water" />
		<tag k="ssr:stedsnr" v="216672" />
	</node>
	<node lat="63.14218888498516" lon="11.20408610093442" id="-38436">
		<tag k="name" v="Romptjenna" />
		<tag k="natural" v="water" />
		<tag k="ssr:stedsnr" v="216805" />
	</node>
	<node lat="63.26162222332253" lon="11.157652776560735" id="-38440">
		<tag k="name" v="Rærsbekken" />
		<tag k="ssr:stedsnr" v="216577" />
		<tag k="waterway" v="stream" />
	</node>
	<node lat="63.25710277826223" lon="11.106805550682878" id="-38445">
		<tag k="name" v="Dokka" />
		<tag k="place" v="island" />
		<tag k="ssr:stedsnr" v="217072" />
	</node>
	<node lat="63.217608334423474" lon="11.254272216273412" id="-38455">
		<tag k="name" v="Hoemsbekken" />
		<tag k="ssr:stedsnr" v="217979" />
		<tag k="waterway" v="stream" />
	</node>
	<node lat="63.095030554171856" lon="11.03903889265332" id="-38456">
		<tag k="name" v="Litjgravtjenna" />
		<tag k="natural" v="water" />
		<tag k="ssr:stedsnr" v="218323" />
	</node>
	<node lat="63.080705553899726" lon="11.08176388589964" id="-38457">
		<tag k="name" v="Tangbekken" />
		<tag k="ssr:stedsnr" v="218329" />
		<tag k="waterway" v="stream" />
	</node>
	<node lat="63.12260555502971" lon="11.099191675974664" id="-38463">
		<tag k="name" v="Altentjenna" />
		<tag k="natural" v="water" />
		<tag k="ssr:stedsnr" v="219331" />
	</node>
	<node lat="63.06266110968172" lon="11.00034721629714" id="-38464">
		<tag k="name" v="Bubekken" />
		<tag k="ssr:stedsnr" v="219371" />
		<tag k="waterway" v="stream" />
	</node>
	<node lat="63.241427780240635" lon="11.042613892534531" id="-38465">
		<tag k="name" v="Emstadodden" />
		<tag k="natural" v="cape" />
		<tag k="ssr:stedsnr" v="219374" />
	</node>
	<node lat="63.24902222281397" lon="10.729158325319801" id="-38466">
		<tag k="name" v="Flobekken" />
		<tag k="ssr:stedsnr" v="219375" />
		<tag k="waterway" v="stream" />
	</node>
	<node lat="63.13117221900326" lon="10.978100005299044" id="-38470">
		<tag k="name" v="Bjørndalsbekken" />
		<tag k="ssr:stedsnr" v="219405" />
		<tag k="waterway" v="stream" />
	</node>
	<node lat="63.117169443526436" lon="10.968936109004792" id="-38471">
		<tag k="name" v="Sandbekken" />
		<tag k="ssr:stedsnr" v="219407" />
		<tag k="waterway" v="stream" />
	</node>
	<node lat="63.27381944071727" lon="10.690413891927687" id="-38480">
		<tag k="name" v="Storvika" />
		<tag k="natural" v="bay" />
		<tag k="ssr:stedsnr" v="219572" />
	</node>
	<node lat="63.27726944852001" lon="10.666300003565604" id="-38482">
		<tag k="name" v="Øya" />
		<tag k="place" v="island" />
		<tag k="ssr:stedsnr" v="219584" />
	</node>
	<node lat="63.1088416657962" lon="10.943730550209953" id="-38485">
		<tag k="name" v="Gallivollbekken" />
		<tag k="ssr:stedsnr" v="219471" />
		<tag k="waterway" v="stream" />
	</node>
	<node lat="63.12933888648589" lon="10.964508337806596" id="-38486">
		<tag k="name" v="Julskardvika" />
		<tag k="natural" v="bay" />
		<tag k="ssr:stedsnr" v="219479" />
	</node>
	<node lat="63.23421111296846" lon="10.74904167450506" id="-38501">
		<tag k="name" v="Styggdalsbekken" />
		<tag k="ssr:stedsnr" v="255007" />
		<tag k="waterway" v="stream" />
	</node>
	<node lat="63.24186111116174" lon="11.410091660557056" id="-38509">
		<tag k="name" v="Krossåtjennin" />
		<tag k="natural" v="water" />
		<tag k="ssr:stedsnr" v="255214" />
	</node>
	<node lat="63.156946908889985" lon="11.1019531649191" id="-38513">
		<tag k="name" v="Stortjenna" />
		<tag k="natural" v="water" />
		<tag k="ssr:stedsnr" v="255120" />
	</node>
	<node lat="63.14353888587891" lon="10.754077787428269" id="-38514">
		<tag k="name" v="Fjellvatna" />
		<tag k="natural" v="water" />
		<tag k="ssr:stedsnr" v="255121" />
		<tag k="water" v="lake" />
	</node>
	<node lat="63.18359722156718" lon="11.05451111613907" id="-38528">
		<tag k="name" v="Kvennbekken" />
		<tag k="ssr:stedsnr" v="263296" />
		<tag k="waterway" v="stream" />
	</node>
	<node lat="63.12385277347424" lon="11.44347221957623" id="-38529">
		<tag k="name" v="Øvre Drøytjenna" />
		<tag k="natural" v="water" />
		<tag k="ssr:stedsnr" v="270123" />
	</node>
	<node lat="63.233416662800686" lon="11.192655550983497" id="-38530">
		<tag k="name" v="Norstuvika" />
		<tag k="natural" v="bay" />
		<tag k="ssr:stedsnr" v="459050" />
	</node>
	<node lat="63.28125000439898" lon="10.782038895325245" id="-38534">
		<tag k="name" v="Okstjenna" />
		<tag k="natural" v="water" />
		<tag k="ssr:stedsnr" v="459429" />
	</node>
	<node lat="63.06883888886217" lon="11.033144450896675" id="-38547">
		<tag k="name" v="Vålåtjennbekken" />
		<tag k="ssr:stedsnr" v="459527" />
		<tag k="waterway" v="stream" />
	</node>
	<node lat="63.079388893174055" lon="11.339586107368632" id="-38550">
		<tag k="name" v="Litjvollbekken" />
		<tag k="ssr:stedsnr" v="459540" />
		<tag k="waterway" v="stream" />
	</node>
	<node lat="63.199858336271255" lon="11.096819440484529" id="-38552">
		<tag k="name" v="Måsøya" />
		<tag k="place" v="island" />
		<tag k="ssr:stedsnr" v="460158" />
	</node>
	<node lat="63.26126111467703" lon="11.175949998942656" id="-38558">
		<tag k="name" v="Svarttjenna" />
		<tag k="natural" v="water" />
		<tag k="ssr:stedsnr" v="459742" />
	</node>
	<node lat="63.33530000172768" lon="11.183783324450175" id="-38577">
		<tag k="name" v="Kroktjennin" />
		<tag k="natural" v="water" />
		<tag k="ssr:stedsnr" v="277715" />
	</node>
	<node lat="63.070227773653336" lon="11.063613889307428" id="-38581">
		<tag k="name" v="Storfloen" />
		<tag k="natural" v="water" />
		<tag k="ssr:stedsnr" v="277837" />
	</node>
	<node lat="63.116761108648255" lon="11.085352778927186" id="-38582">
		<tag k="name" v="Storholmen" />
		<tag k="place" v="islet" />
		<tag k="ssr:stedsnr" v="277845" />
	</node>
	<node lat="63.30385832946173" lon="11.174044442763542" id="-38587">
		<tag k="name" v="Midtibekken" />
		<tag k="ssr:stedsnr" v="278080" />
		<tag k="waterway" v="stream" />
	</node>
	<node lat="63.32730833677533" lon="11.012516660503765" id="-38595">
		<tag k="name" v="Svarttjenna" />
		<tag k="natural" v="water" />
		<tag k="ssr:stedsnr" v="278182" />
	</node>
	<node lat="63.18636388769964" lon="11.020452775483648" id="-38596">
		<tag k="name" v="Kvennhusbekken" />
		<tag k="ssr:stedsnr" v="278373" />
		<tag k="waterway" v="stream" />
	</node>
	<node lat="63.17502222118891" lon="11.008286115167312" id="-38597">
		<tag k="name" v="Åsvolltjenna" />
		<tag k="natural" v="water" />
		<tag k="ssr:stedsnr" v="278374" />
	</node>
	<node lat="63.216363887206725" lon="10.928549994393226" id="-38605">
		<tag k="name" v="Stordalsbekken" />
		<tag k="ssr:stedsnr" v="279278" />
		<tag k="waterway" v="stream" />
	</node>
	<node lat="63.26216666291832" lon="10.73396944465894" id="-38607">
		<tag k="name" v="Litjvika" />
		<tag k="natural" v="bay" />
		<tag k="ssr:stedsnr" v="279424" />
	</node>
	<node lat="63.201738888198584" lon="10.99390555021" id="-38608">
		<tag k="name" v="Ausbekken" />
		<tag k="ssr:stedsnr" v="460154" />
		<tag k="waterway" v="stream" />
	</node>
	<node lat="63.25415277603672" lon="11.059016660025968" id="-38618">
		<tag k="name" v="SELBUSJØEN" />
		<tag k="natural" v="water" />
		<tag k="ssr:stedsnr" v="460183" />
		<tag k="water" v="lake" />
	</node>
	<node lat="63.29027500358828" lon="10.973622213781606" id="-38625">
		<tag k="name" v="Svarttjenna" />
		<tag k="natural" v="water" />
		<tag k="ssr:stedsnr" v="460236" />
	</node>
	<node lat="63.25385277625162" lon="11.24574167140957" id="-38634">
		<tag k="name" v="Elvåa" />
		<tag k="ssr:stedsnr" v="280281" />
		<tag k="waterway" v="river" />
	</node>
	<node lat="63.152233330518705" lon="11.112366664093313" id="-38637">
		<tag k="name" v="Vakkervolltjenna" />
		<tag k="natural" v="water" />
		<tag k="ssr:stedsnr" v="280293" />
	</node>
	<node lat="63.29632221804624" lon="11.069708341203468" id="-38642">
		<tag k="name" v="Røsbekken" />
		<tag k="ssr:stedsnr" v="280569" />
		<tag k="waterway" v="stream" />
	</node>
	<node lat="63.28536389185079" lon="10.681088881010846" id="-38646">
		<tag k="name" v="Stampfossen" />
		<tag k="natural" v="waterfall" />
		<tag k="ssr:stedsnr" v="280708" />
	</node>
	<node lat="63.30558055283564" lon="10.929266666367914" id="-38647">
		<tag k="name" v="Kvittopplitjenna" />
		<tag k="natural" v="water" />
		<tag k="ssr:stedsnr" v="281205" />
	</node>
	<node lat="63.3025138895273" lon="10.91064444507148" id="-38648">
		<tag k="name" v="Krokåtbekken" />
		<tag k="ssr:stedsnr" v="281208" />
		<tag k="waterway" v="stream" />
	</node>
	<node lat="63.19615833125795" lon="10.853883340268867" id="-38652">
		<tag k="name" v="Aftretsbekken" />
		<tag k="ssr:stedsnr" v="281102" />
		<tag k="waterway" v="stream" />
	</node>
	<node lat="63.29598611006686" lon="10.957155550018363" id="-38654">
		<tag k="name" v="Balstadtjenna" />
		<tag k="natural" v="water" />
		<tag k="ssr:stedsnr" v="281168" />
	</node>
	<node lat="63.08254444754451" lon="11.248266657933314" id="-38656">
		<tag k="name" v="Usma" />
		<tag k="ssr:stedsnr" v="460928" />
		<tag k="waterway" v="river" />
	</node>
	<node lat="63.089369444390236" lon="11.242636113449787" id="-38657">
		<tag k="name" v="Storbekken" />
		<tag k="ssr:stedsnr" v="460939" />
		<tag k="waterway" v="stream" />
	</node>
	<node lat="63.27429166958602" lon="11.323155552597427" id="-38661">
		<tag k="name" v="Vatnelva" />
		<tag k="ssr:stedsnr" v="460989" />
		<tag k="waterway" v="river" />
	</node>
	<node lat="63.27456389143641" lon="10.781844451581069" id="-38664">
		<tag k="name" v="Oksvollbekken" />
		<tag k="ssr:stedsnr" v="461094" />
		<tag k="waterway" v="stream" />
	</node>
	<node lat="63.25274166947275" lon="11.05568333441663" id="-38668">
		<tag k="name" v="Myranesodden" />
		<tag k="natural" v="cape" />
		<tag k="ssr:stedsnr" v="462372" />
	</node>
	<node lat="63.16802222186275" lon="10.925605554719777" id="-38675">
		<tag k="name" v="Negltjenna" />
		<tag k="natural" v="water" />
		<tag k="ssr:stedsnr" v="461285" />
	</node>
	<node lat="63.19130277759634" lon="10.951630547624799" id="-38681">
		<tag k="name" v="Slindelva" />
		<tag k="ssr:stedsnr" v="461487" />
		<tag k="waterway" v="river" />
	</node>
	<node lat="63.24844999893285" lon="10.693075007110233" id="-38690">
		<tag k="name" v="Høgfossen" />
		<tag k="natural" v="waterfall" />
		<tag k="ssr:stedsnr" v="461632" />
	</node>
	<node lat="63.243694445502356" lon="10.695283336771437" id="-38691">
		<tag k="name" v="Vinkelfossen" />
		<tag k="natural" v="waterfall" />
		<tag k="ssr:stedsnr" v="461634" />
	</node>
	<node lat="63.244402777944416" lon="10.666244439296296" id="-38692">
		<tag k="name" v="Småvatna" />
		<tag k="natural" v="water" />
		<tag k="ssr:stedsnr" v="461638" />
		<tag k="water" v="lake" />
	</node>
	<node lat="63.30703610845721" lon="10.989211112703149" id="-38699">
		<tag k="name" v="Nordre Gjøversaltjenna" />
		<tag k="natural" v="water" />
		<tag k="ssr:stedsnr" v="462349" />
	</node>
	<node lat="63.313647224563724" lon="10.964133341121162" id="-38703">
		<tag k="name" v="Ingridtjenna" />
		<tag k="natural" v="water" />
		<tag k="ssr:stedsnr" v="462400" />
	</node>
	<node lat="63.1882638857826" lon="10.904483332390091" id="-38721">
		<tag k="name" v="Vallibekken" />
		<tag k="ssr:stedsnr" v="463143" />
		<tag k="waterway" v="stream" />
	</node>
	<node lat="63.19382222556637" lon="11.045216666833912" id="-38722">
		<tag k="name" v="Klesetbekken" />
		<tag k="ssr:stedsnr" v="463182" />
		<tag k="waterway" v="stream" />
	</node>
	<node lat="63.22139999571549" lon="10.85729999670495" id="-38723">
		<tag k="name" v="Svarttjenna" />
		<tag k="natural" v="water" />
		<tag k="ssr:stedsnr" v="463188" />
	</node>
	<node lat="63.08006666495748" lon="11.140319442791323" id="-38727">
		<tag k="name" v="Bringtjennin" />
		<tag k="natural" v="water" />
		<tag k="ssr:stedsnr" v="315169" />
	</node>
	<node lat="63.049241663857764" lon="11.253263879168388" id="-38728">
		<tag k="name" v="Lauvbekkene" />
		<tag k="ssr:stedsnr" v="315311" />
		<tag k="waterway" v="stream" />
	</node>
	<node lat="63.15357907116549" lon="11.278083901461754" id="-38730">
		<tag k="name" v="Tibekktjenna" />
		<tag k="natural" v="water" />
		<tag k="ssr:stedsnr" v="315218" />
	</node>
	<node lat="63.22479927689508" lon="11.152932616030656" id="-38732">
		<tag k="name" v="Kallarstjenna" />
		<tag k="natural" v="water" />
		<tag k="ssr:stedsnr" v="316059" />
	</node>
	<node lat="63.134302779085424" lon="10.794230564745416" id="-38734">
		<tag k="name" v="Sandtjennin" />
		<tag k="natural" v="water" />
		<tag k="ssr:stedsnr" v="316113" />
	</node>
	<node lat="63.105769440842465" lon="11.326547227146536" id="-38747">
		<tag k="name" v="Nekkåa" />
		<tag k="ssr:stedsnr" v="324225" />
		<tag k="waterway" v="stream" />
	</node>
	<node lat="63.12185278155675" lon="11.265222227036428" id="-38757">
		<tag k="name" v="Engbekken" />
		<tag k="ssr:stedsnr" v="337555" />
		<tag k="waterway" v="stream" />
	</node>
	<node lat="63.210036113746995" lon="11.170022216158253" id="-38763">
		<tag k="name" v="Mjølnåa" />
		<tag k="ssr:stedsnr" v="338001" />
		<tag k="waterway" v="river" />
	</node>
	<node lat="63.134172219773774" lon="11.051088895698326" id="-38768">
		<tag k="name" v="Brandelva" />
		<tag k="ssr:stedsnr" v="338247" />
		<tag k="waterway" v="river" />
	</node>
	<node lat="63.12181944260905" lon="11.068702775216646" id="-38769">
		<tag k="name" v="Høstvollvika" />
		<tag k="natural" v="bay" />
		<tag k="ssr:stedsnr" v="338253" />
	</node>
	<node lat="63.303663886195686" lon="11.094002774847455" id="-38770">
		<tag k="name" v="Kutjenna" />
		<tag k="natural" v="water" />
		<tag k="ssr:stedsnr" v="338143" />
	</node>
	<node lat="63.24949722672724" lon="11.173119445627616" id="-38773">
		<tag k="name" v="Rærsbekken" />
		<tag k="ssr:stedsnr" v="338601" />
		<tag k="waterway" v="stream" />
	</node>
	<node lat="63.124983333565766" lon="11.061813893005631" id="-38780">
		<tag k="name" v="Brandelva" />
		<tag k="ssr:stedsnr" v="339503" />
		<tag k="waterway" v="river" />
	</node>
	<node lat="63.1609286152819" lon="10.93726647328974" id="-38797">
		<tag k="alt_name" v="Øverbukta;Nerbukta" />
		<tag k="name" v="Bukta" />
		<tag k="natural" v="water" />
		<tag k="ssr:stedsnr" v="340292" />
		<tag k="water" v="lake" />
	</node>
	<node lat="63.20193333580511" lon="11.09260276856519" id="-38798">
		<tag k="name" v="Hestøya" />
		<tag k="place" v="island" />
		<tag k="ssr:stedsnr" v="340296" />
	</node>
	<node lat="63.293605559418886" lon="10.725194437197743" id="-38799">
		<tag k="name" v="Bjørnøybukta" />
		<tag k="natural" v="bay" />
		<tag k="ssr:stedsnr" v="340403" />
	</node>
	<node lat="63.28897221987896" lon="10.829541659421986" id="-38801">
		<tag k="name" v="Gåstjennbekken" />
		<tag k="ssr:stedsnr" v="340406" />
		<tag k="waterway" v="stream" />
	</node>
	<node lat="63.12082500221103" lon="10.974150000431655" id="-38803">
		<tag k="name" v="Storsandtjenna" />
		<tag k="natural" v="water" />
		<tag k="ssr:stedsnr" v="340414" />
	</node>
	<node lat="63.21300277325934" lon="10.957358340921132" id="-38807">
		<tag k="name" v="Gortjenna" />
		<tag k="natural" v="water" />
		<tag k="ssr:stedsnr" v="340442" />
	</node>
	<node lat="63.20354722032736" lon="10.957924999938335" id="-38809">
		<tag k="name" v="Slindelva" />
		<tag k="ssr:stedsnr" v="340445" />
		<tag k="waterway" v="river" />
	</node>
	<node lat="63.12235833450034" lon="10.960225001755694" id="-38815">
		<tag k="name" v="Sandodden" />
		<tag k="natural" v="cape" />
		<tag k="ssr:stedsnr" v="340704" />
	</node>
	<node lat="63.2574416628791" lon="10.773138894850367" id="-38816">
		<tag k="name" v="Renåa" />
		<tag k="ssr:stedsnr" v="340699" />
		<tag k="waterway" v="river" />
	</node>
	<node lat="63.228571178399406" lon="11.111275621846602" id="-38826">
		<tag k="name" v="Lomtjenna" />
		<tag k="natural" v="water" />
		<tag k="ssr:stedsnr" v="376003" />
	</node>
	<node lat="63.079309963440316" lon="10.913279952533184" id="-38827">
		<tag k="name" v="Fiskhustjenna" />
		<tag k="natural" v="water" />
		<tag k="ssr:stedsnr" v="376134" />
	</node>
	<node lat="63.061327781034805" lon="11.316683336943191" id="-38832">
		<tag k="name" v="Lomtjenna" />
		<tag k="natural" v="water" />
		<tag k="ssr:stedsnr" v="376323" />
	</node>
	<node lat="63.14767499850213" lon="11.163380558839025" id="-38840">
		<tag k="name" v="Kalvåtjenna" />
		<tag k="natural" v="water" />
		<tag k="ssr:stedsnr" v="398530" />
	</node>
	<node lat="63.27296388897639" lon="10.696847215727104" id="-38846">
		<tag k="name" v="Heggliodden" />
		<tag k="natural" v="cape" />
		<tag k="ssr:stedsnr" v="398482" />
	</node>
	<node lat="63.33128611226183" lon="11.261499995963183" id="-38857">
		<tag k="name" v="Stentjennbekken" />
		<tag k="ssr:stedsnr" v="399127" />
		<tag k="waterway" v="stream" />
	</node>
	<node lat="63.18356388855723" lon="11.128175002676569" id="-38858">
		<tag k="name" v="Resbekken" />
		<tag k="ssr:stedsnr" v="399002" />
		<tag k="waterway" v="stream" />
	</node>
	<node lat="63.30978055897758" lon="11.031197230722823" id="-38861">
		<tag k="name" v="Holbekken" />
		<tag k="ssr:stedsnr" v="399205" />
		<tag k="waterway" v="stream" />
	</node>
	<node lat="63.19109722363031" lon="11.093155549795929" id="-38864">
		<tag k="name" v="Bogstadelva" />
		<tag k="ssr:stedsnr" v="399380" />
		<tag k="waterway" v="river" />
	</node>
	<node lat="63.17918889156111" lon="11.098033327281835" id="-38866">
		<tag k="name" v="Trondsetbekken" />
		<tag k="ssr:stedsnr" v="399385" />
		<tag k="waterway" v="stream" />
	</node>
	<node lat="63.24768888827179" lon="11.378538895170404" id="-38870">
		<tag k="name" v="Krossåa" />
		<tag k="ssr:stedsnr" v="399892" />
		<tag k="waterway" v="river" />
	</node>
	<node lat="63.2474194439559" lon="11.359022226273312" id="-38871">
		<tag k="name" v="Krossåfossen" />
		<tag k="natural" v="waterfall" />
		<tag k="ssr:stedsnr" v="399894" />
	</node>
	<node lat="63.073713889629815" lon="10.992405560795124" id="-38875">
		<tag k="name" v="Damtjenna" />
		<tag k="natural" v="water" />
		<tag k="ssr:stedsnr" v="400331" />
	</node>
	<node lat="63.1773638908646" lon="10.963358341627078" id="-38880">
		<tag k="name" v="Testinsfossen" />
		<tag k="natural" v="waterfall" />
		<tag k="ssr:stedsnr" v="400486" />
	</node>
	<node lat="63.29213055408545" lon="11.24970278214907" id="-38884">
		<tag k="name" v="Vekta" />
		<tag k="ssr:stedsnr" v="401306" />
		<tag k="waterway" v="stream" />
	</node>
	<node lat="63.116547225158186" lon="10.993666657363132" id="-38891">
		<tag k="name" v="Gunnatjenna" />
		<tag k="natural" v="water" />
		<tag k="ssr:stedsnr" v="401425" />
	</node>
	<node lat="63.25467499616637" lon="10.797424999770543" id="-38893">
		<tag k="name" v="Okstadåsvika" />
		<tag k="natural" v="bay" />
		<tag k="ssr:stedsnr" v="401386" />
	</node>
	<node lat="63.18404444814579" lon="10.883838894842302" id="-38902">
		<tag k="name" v="Kjøsnesbekken" />
		<tag k="ssr:stedsnr" v="401704" />
		<tag k="waterway" v="stream" />
	</node>
	<node lat="63.24960000442933" lon="10.693297213289974" id="-38904">
		<tag k="name" v="Hånnåa" />
		<tag k="ssr:stedsnr" v="401608" />
		<tag k="waterway" v="river" />
	</node>
	<node lat="63.116508065198104" lon="11.436113614422226" id="-38905">
		<tag k="name" v="Øver Måltopptjenna" />
		<tag k="natural" v="water" />
		<tag k="old_name" v="Måltopptjørna, øvre;Øvre Måltopptjenna" />
		<tag k="ssr:stedsnr" v="401613" />
	</node>
	<node lat="63.175761109257834" lon="10.822008329817319" id="-38917">
		<tag k="name" v="Fjelløya" />
		<tag k="natural" v="water" />
		<tag k="ssr:stedsnr" v="437151" />
	</node>
	<node lat="63.21892777765533" lon="11.000125008546139" id="-38922">
		<tag k="name" v="Nea - Ganka" />
		<tag k="name:no" v="Nea" />
		<tag k="name:sma" v="Ganka" />
		<tag k="ssr:stedsnr" v="437514" />
		<tag k="waterway" v="river" />
	</node>
	<node lat="63.31393055556065" lon="11.152199992996284" id="-38923">
		<tag k="name" v="Lysbekken" />
		<tag k="ssr:stedsnr" v="438348" />
		<tag k="waterway" v="stream" />
	</node>
	<node lat="63.290601548873425" lon="10.9986107599323" id="-38925">
		<tag k="name" v="Damtjenna" />
		<tag k="natural" v="water" />
		<tag k="ssr:stedsnr" v="438301" />
	</node>
	<node lat="63.15080000054909" lon="11.528711114005842" id="-38928">
		<tag k="name" v="Tjenna" />
		<tag k="natural" v="water" />
		<tag k="ssr:stedsnr" v="445180" />
	</node>
	<node lat="63.196358332955974" lon="11.269419435775028" id="-38939">
		<tag k="name" v="Puttvollbekken" />
		<tag k="ssr:stedsnr" v="459577" />
		<tag k="waterway" v="stream" />
	</node>
	<node lat="63.1677083296694" lon="11.273311103306762" id="-38941">
		<tag k="name" v="Grønlibekken" />
		<tag k="ssr:stedsnr" v="459711" />
		<tag k="waterway" v="stream" />
	</node>
	<node lat="63.322963892230526" lon="11.168286108249243" id="-38943">
		<tag k="name" v="Ånvasselva" />
		<tag k="ssr:stedsnr" v="459720" />
		<tag k="waterway" v="stream" />
	</node>
	<node lat="63.12080555569983" lon="11.169052785186143" id="-38955">
		<tag k="name" v="Stor-Kalvsjøen" />
		<tag k="natural" v="water" />
		<tag k="ssr:stedsnr" v="460274" />
		<tag k="water" v="lake" />
	</node>
	<node lat="63.15899722115354" lon="11.131288895846168" id="-38956">
		<tag k="name" v="Medamtjennbekken" />
		<tag k="ssr:stedsnr" v="460303" />
		<tag k="waterway" v="stream" />
	</node>
	<node lat="63.152597219337515" lon="11.27393333271872" id="-38960">
		<tag k="name" v="Tibekken" />
		<tag k="ssr:stedsnr" v="460958" />
		<tag k="waterway" v="stream" />
	</node>
	<node lat="63.209172224214264" lon="11.298058342641689" id="-38961">
		<tag k="name" v="Øver Svarttjenna" />
		<tag k="natural" v="water" />
		<tag k="ssr:stedsnr" v="460970" />
	</node>
	<node lat="63.28433888940242" lon="10.742019439539005" id="-38962">
		<tag k="name" v="Lomtjenna" />
		<tag k="natural" v="water" />
		<tag k="ssr:stedsnr" v="461106" />
	</node>
	<node lat="63.280480558127636" lon="10.774230549847443" id="-38964">
		<tag k="name" v="Kutjenna" />
		<tag k="natural" v="water" />
		<tag k="ssr:stedsnr" v="461404" />
	</node>
	<node lat="63.194588887880144" lon="10.920566663238594" id="-38967">
		<tag k="name" v="Åsbekken" />
		<tag k="ssr:stedsnr" v="461425" />
		<tag k="waterway" v="stream" />
	</node>
	<node lat="63.18050000142206" lon="10.922669444237911" id="-38970">
		<tag k="name" v="Sagtjenna" />
		<tag k="natural" v="water" />
		<tag k="ssr:stedsnr" v="461473" />
	</node>
	<node lat="63.206211112847804" lon="11.00863611305033" id="-38978">
		<tag k="name" v="Ustansbekken" />
		<tag k="ssr:stedsnr" v="462267" />
		<tag k="waterway" v="stream" />
	</node>
	<node lat="63.24927500241532" lon="11.08653333445787" id="-38983">
		<tag k="name" v="Hundøya" />
		<tag k="natural" v="cape" />
		<tag k="ssr:stedsnr" v="462320" />
	</node>
	<node lat="63.065663887591136" lon="10.97461944495244" id="-38984">
		<tag k="name" v="Haftorslibekken" />
		<tag k="ssr:stedsnr" v="462366" />
		<tag k="waterway" v="stream" />
	</node>
	<node lat="63.26677222467602" lon="10.929147216622411" id="-38985">
		<tag k="name" v="Kråkstadbekken" />
		<tag k="ssr:stedsnr" v="462474" />
		<tag k="waterway" v="stream" />
	</node>
	<node lat="63.277058336910954" lon="11.236099999165727" id="-38986">
		<tag k="name" v="Prestfossen" />
		<tag k="natural" v="waterfall" />
		<tag k="ssr:stedsnr" v="462603" />
	</node>
	<node lat="63.11238889088266" lon="10.913355554033279" id="-38990">
		<tag k="name" v="Farmannsbekken" />
		<tag k="ssr:stedsnr" v="463110" />
		<tag k="waterway" v="stream" />
	</node>
	<node lat="63.197066664400786" lon="11.09285277680147" id="-38995">
		<tag k="name" v="Hestøya" />
		<tag k="place" v="island" />
		<tag k="ssr:stedsnr" v="463270" />
	</node>
	<node lat="63.2364091954892" lon="11.13572546001017" id="-38998">
		<tag k="name" v="Stokktjenna" />
		<tag k="natural" v="water" />
		<tag k="ssr:stedsnr" v="679015" />
	</node>
	<node lat="63.20686111054332" lon="11.163688893530084" id="-38999">
		<tag k="name" v="Mølnåa" />
		<tag k="ssr:stedsnr" v="679095" />
		<tag k="waterway" v="stream" />
	</node>
	<node lat="63.207091669678064" lon="10.88525556448758" id="-39002">
		<tag k="name" v="Vassdalstjenna" />
		<tag k="natural" v="water" />
		<tag k="ssr:stedsnr" v="679047" />
	</node>
	<node lat="63.08767500219499" lon="11.053161105961266" id="-39004">
		<tag k="name" v="Jovatnet" />
		<tag k="natural" v="water" />
		<tag k="ssr:stedsnr" v="679132" />
	</node>
	<node lat="63.21973333151785" lon="11.195577783053935" id="-39013">
		<tag k="name" v="Hersjøen" />
		<tag k="natural" v="water" />
		<tag k="ssr:stedsnr" v="680058" />
		<tag k="water" v="lake" />
	</node>
	<node lat="63.26795277637971" lon="10.91826944802022" id="-39028">
		<tag k="name" v="Kårstadbekken" />
		<tag k="ssr:stedsnr" v="680376" />
		<tag k="waterway" v="stream" />
	</node>
	<node lat="63.18425833431261" lon="10.844722226840961" id="-39033">
		<tag k="name" v="Renåa" />
		<tag k="ssr:stedsnr" v="680554" />
		<tag k="waterway" v="river" />
	</node>
	<node lat="63.14733333399276" lon="10.835547223749023" id="-39038">
		<tag k="name" v="Litjrensjøen" />
		<tag k="natural" v="water" />
		<tag k="old_name" v="Litl-Rensjøen" />
		<tag k="ssr:stedsnr" v="497104" />
	</node>
	<node lat="63.15272778154478" lon="11.0175222302822" id="-39039">
		<tag k="name" v="Tærsjøen" />
		<tag k="natural" v="bay" />
		<tag k="ssr:stedsnr" v="497115" />
	</node>
	<node lat="63.154180552741146" lon="10.79549999611668" id="-39040">
		<tag k="name" v="Tverrelva" />
		<tag k="ssr:stedsnr" v="497116" />
		<tag k="waterway" v="stream" />
	</node>
	<node lat="63.1760999998762" lon="11.185416667227114" id="-39041">
		<tag k="name" v="Kalvåa" />
		<tag k="ssr:stedsnr" v="497117" />
		<tag k="waterway" v="stream" />
	</node>
	<node lat="63.15780833094717" lon="10.926694448764806" id="-39042">
		<tag k="name" v="Neglåstjenna" />
		<tag k="natural" v="water" />
		<tag k="ssr:stedsnr" v="497120" />
	</node>
	<node lat="63.203397220039015" lon="11.210372221432085" id="-39043">
		<tag k="name" v="Rotla" />
		<tag k="ssr:stedsnr" v="497095" />
		<tag k="waterway" v="river" />
	</node>
</osm>
