<?xml version="1.0" encoding="UTF-8"?>
<osm generator="osmapis" version="0.6">
	<node id="-818176" lat="64.5263828749" lon="11.3558696608">
		<tag k="name" v="Fuglvatnet" />
		<tag k="ssr:date" v="2019-05-30" />
		<tag k="ssr:gruppe" v="veg" />
		<tag k="ssr:hovedgruppe" v="infrastruktur" />
		<tag k="ssr:stedsnr" v="974615" />
		<tag k="ssr:type" v="adressenavn" />
	</node>
	<node id="-818171" lat="64.5371551989" lon="11.3542754662">
		<tag k="name" v="Vindsetvatnet" />
		<tag k="ssr:date" v="2019-05-30" />
		<tag k="ssr:gruppe" v="veg" />
		<tag k="ssr:hovedgruppe" v="infrastruktur" />
		<tag k="ssr:stedsnr" v="974614" />
		<tag k="ssr:type" v="adressenavn" />
	</node>
	<node id="-818166" lat="64.5081148795" lon="11.3545869373">
		<tag k="name" v="Vikalangvatnet" />
		<tag k="ssr:date" v="2019-05-30" />
		<tag k="ssr:gruppe" v="veg" />
		<tag k="ssr:hovedgruppe" v="infrastruktur" />
		<tag k="ssr:stedsnr" v="974613" />
		<tag k="ssr:type" v="adressenavn" />
	</node>
	<node id="-820711" lat="64.5159717658" lon="11.4696418235">
		<tag k="name" v="Gåsneset" />
		<tag k="ssr:date" v="2018-01-09" />
		<tag k="ssr:gruppe" v="veg" />
		<tag k="ssr:hovedgruppe" v="infrastruktur" />
		<tag k="ssr:stedsnr" v="979076" />
		<tag k="ssr:type" v="adressetilleggsnavn" />
	</node>
	<node id="-818146" lat="64.3143492608" lon="11.4237390207">
		<tag k="name" v="Giltvegen" />
		<tag k="ssr:date" v="2019-05-30" />
		<tag k="ssr:gruppe" v="veg" />
		<tag k="ssr:hovedgruppe" v="infrastruktur" />
		<tag k="ssr:stedsnr" v="1036204" />
		<tag k="ssr:type" v="adressenavn" />
	</node>
	<node id="-820703" lat="64.4297757292" lon="11.4936905385">
		<tag k="name" v="Sævik" />
		<tag k="ssr:date" v="2018-01-09" />
		<tag k="ssr:gruppe" v="veg" />
		<tag k="ssr:hovedgruppe" v="infrastruktur" />
		<tag k="ssr:stedsnr" v="979075" />
		<tag k="ssr:type" v="adressetilleggsnavn" />
	</node>
	<node id="-820664" lat="64.6310027806" lon="11.1446805655">
		<tag k="name" v="Jevika" />
		<tag k="ssr:date" v="2018-01-09" />
		<tag k="ssr:gruppe" v="navigasjon" />
		<tag k="ssr:hovedgruppe" v="infrastruktur" />
		<tag k="ssr:stedsnr" v="14433" />
		<tag k="ssr:type" v="fyrlykt" />
	</node>
	<node id="-819107" lat="64.6080138862" lon="11.0244194486">
		<tag k="name" v="Knappholman" />
		<tag k="ssr:date" v="2018-01-09" />
		<tag k="ssr:gruppe" v="navigasjon" />
		<tag k="ssr:hovedgruppe" v="infrastruktur" />
		<tag k="ssr:stedsnr" v="378595" />
		<tag k="ssr:type" v="fyrlykt" />
	</node>
	<node id="-820625" lat="64.4660333298" lon="11.4970305603">
		<tag k="name" v="Namsos kommune" />
		<tag k="ssr:date" v="2018-01-09" />
		<tag k="ssr:gruppe" v="administrativeIndelinger" />
		<tag k="ssr:hovedgruppe" v="offentligAdministrasjon" />
		<tag k="ssr:stedsnr" v="511340" />
		<tag k="ssr:type" v="kommune" />
	</node>
	<node id="-820790" lat="64.6269018059" lon="11.6916518541">
		<tag k="name" v="Auritjønna" />
		<tag k="ssr:date" v="2019-05-30" />
		<tag k="ssr:gruppe" v="veg" />
		<tag k="ssr:hovedgruppe" v="infrastruktur" />
		<tag k="ssr:stedsnr" v="1022524" />
		<tag k="ssr:type" v="adressenavn" />
	</node>
	<node id="-818996" lat="64.4625970526" lon="11.5443139463">
		<tag k="name" v="Kjell Halvarssons plass" />
		<tag k="ssr:date" v="2019-05-30" />
		<tag k="ssr:gruppe" v="veg" />
		<tag k="ssr:hovedgruppe" v="infrastruktur" />
		<tag k="ssr:stedsnr" v="181199" />
		<tag k="ssr:type" v="adressenavn" />
	</node>
	<node id="-820787" lat="64.5872591872" lon="11.5160157689">
		<tag k="name" v="Kjettvatnet" />
		<tag k="ssr:date" v="2019-05-30" />
		<tag k="ssr:gruppe" v="veg" />
		<tag k="ssr:hovedgruppe" v="infrastruktur" />
		<tag k="ssr:stedsnr" v="1022520" />
		<tag k="ssr:type" v="adressenavn" />
	</node>
	<node id="-818480" lat="64.5257472226" lon="11.4687111215">
		<tag k="name" v="Levra" />
		<tag k="ssr:date" v="2018-01-09" />
		<tag k="ssr:gruppe" v="navigasjon" />
		<tag k="ssr:hovedgruppe" v="infrastruktur" />
		<tag k="ssr:stedsnr" v="449335" />
		<tag k="ssr:type" v="fyrlykt" />
	</node>
	<node id="-818224" lat="64.6482478621" lon="11.1081860478">
		<tag k="name" v="Lostranda" />
		<tag k="ssr:date" v="2019-05-30" />
		<tag k="ssr:gruppe" v="veg" />
		<tag k="ssr:hovedgruppe" v="infrastruktur" />
		<tag k="ssr:stedsnr" v="974622" />
		<tag k="ssr:type" v="adressenavn" />
	</node>
	<node id="-820779" lat="64.4843768053" lon="11.5988311809">
		<tag k="name" v="Ålbergvatnet" />
		<tag k="ssr:date" v="2019-05-30" />
		<tag k="ssr:gruppe" v="veg" />
		<tag k="ssr:hovedgruppe" v="infrastruktur" />
		<tag k="ssr:stedsnr" v="1022501" />
		<tag k="ssr:type" v="adressenavn" />
	</node>
	<node id="-820778" lat="64.5567717187" lon="11.3629041774">
		<tag k="name" v="Langnesodden" />
		<tag k="ssr:date" v="2019-05-30" />
		<tag k="ssr:gruppe" v="veg" />
		<tag k="ssr:hovedgruppe" v="infrastruktur" />
		<tag k="ssr:stedsnr" v="1022500" />
		<tag k="ssr:type" v="adressenavn" />
	</node>
	<node id="-818214" lat="64.5966974073" lon="11.1309678162">
		<tag k="name" v="Setervatnet" />
		<tag k="ssr:date" v="2019-05-30" />
		<tag k="ssr:gruppe" v="veg" />
		<tag k="ssr:hovedgruppe" v="infrastruktur" />
		<tag k="ssr:stedsnr" v="974619" />
		<tag k="ssr:type" v="adressenavn" />
	</node>
	<node id="-820445" lat="64.4134742144" lon="11.4794063999">
		<tag k="name" v="Fossheim" />
		<tag k="ssr:date" v="2018-01-09" />
		<tag k="ssr:gruppe" v="veg" />
		<tag k="ssr:hovedgruppe" v="infrastruktur" />
		<tag k="ssr:stedsnr" v="979073" />
		<tag k="ssr:type" v="adressetilleggsnavn" />
	</node>
	<node id="-819924" lat="64.4808933153" lon="11.3106665584">
		<tag k="name" v="Broemsneset" />
		<tag k="ssr:date" v="2018-11-02" />
		<tag k="ssr:gruppe" v="navigasjon" />
		<tag k="ssr:hovedgruppe" v="infrastruktur" />
		<tag k="ssr:stedsnr" v="741047" />
		<tag k="ssr:type" v="fyrlykt" />
	</node>
	<node id="-818208" lat="64.5904409058" lon="11.1630133063">
		<tag k="name" v="Reindalen" />
		<tag k="ssr:date" v="2019-05-30" />
		<tag k="ssr:gruppe" v="veg" />
		<tag k="ssr:hovedgruppe" v="infrastruktur" />
		<tag k="ssr:stedsnr" v="974618" />
		<tag k="ssr:type" v="adressenavn" />
	</node>
	<node id="-818871" lat="64.4853583292" lon="11.4227194532">
		<tag k="name" v="Lokkaren" />
		<tag k="ssr:date" v="2018-01-09" />
		<tag k="ssr:gruppe" v="navigasjon" />
		<tag k="ssr:hovedgruppe" v="infrastruktur" />
		<tag k="ssr:stedsnr" v="802244" />
		<tag k="ssr:type" v="fyrlykt" />
	</node>
	<node id="-820761" lat="64.4067088152" lon="11.6159462866">
		<tag k="name" v="Krokvatnet" />
		<tag k="ssr:date" v="2019-05-30" />
		<tag k="ssr:gruppe" v="veg" />
		<tag k="ssr:hovedgruppe" v="infrastruktur" />
		<tag k="ssr:stedsnr" v="1022458" />
		<tag k="ssr:type" v="adressenavn" />
	</node>
	<node id="-818196" lat="64.537105637" lon="11.2209990723">
		<tag k="name" v="Skavdalen" />
		<tag k="ssr:date" v="2019-05-30" />
		<tag k="ssr:gruppe" v="veg" />
		<tag k="ssr:hovedgruppe" v="infrastruktur" />
		<tag k="ssr:stedsnr" v="974616" />
		<tag k="ssr:type" v="adressenavn" />
	</node>
	<node id="-818289" lat="64.4766757533" lon="11.2576527713">
		<tag k="name" v="Hoddøya" />
		<tag k="ssr:date" v="2019-05-30" />
		<tag k="ssr:gruppe" v="veg" />
		<tag k="ssr:hovedgruppe" v="infrastruktur" />
		<tag k="ssr:stedsnr" v="974611" />
		<tag k="ssr:type" v="adressenavn" />
	</node>
	<node id="-818798" lat="64.6705361068" lon="11.0572722234">
		<tag k="name" v="Flotra" />
		<tag k="ssr:date" v="2018-01-09" />
		<tag k="ssr:gruppe" v="navigasjon" />
		<tag k="ssr:hovedgruppe" v="infrastruktur" />
		<tag k="ssr:stedsnr" v="924994" />
		<tag k="ssr:type" v="fyrlykt" />
	</node>
	<node id="-818282" lat="64.4838211911" lon="11.4350349112">
		<tag k="name" v="Lokkaren" />
		<tag k="ssr:date" v="2019-05-30" />
		<tag k="ssr:gruppe" v="veg" />
		<tag k="ssr:hovedgruppe" v="infrastruktur" />
		<tag k="ssr:stedsnr" v="974610" />
		<tag k="ssr:type" v="adressenavn" />
	</node>
	<node id="-819279" lat="64.4167305568" lon="11.3467194413">
		<tag k="name" v="Bangsund" />
		<tag k="ssr:date" v="2018-01-09" />
		<tag k="ssr:gruppe" v="navigasjon" />
		<tag k="ssr:hovedgruppe" v="infrastruktur" />
		<tag k="ssr:stedsnr" v="742057" />
		<tag k="ssr:type" v="fyrlykt" />
	</node>
	<node id="-820804" lat="64.536417696" lon="11.324387352">
		<tag k="name" v="Gårdsvika" />
		<tag k="ssr:date" v="2019-05-30" />
		<tag k="ssr:gruppe" v="veg" />
		<tag k="ssr:hovedgruppe" v="infrastruktur" />
		<tag k="ssr:stedsnr" v="1023479" />
		<tag k="ssr:type" v="adressenavn" />
	</node>
	<node id="-820803" lat="64.5269295238" lon="11.4468004446">
		<tag k="name" v="Surviksundet" />
		<tag k="ssr:date" v="2019-05-30" />
		<tag k="ssr:gruppe" v="veg" />
		<tag k="ssr:hovedgruppe" v="infrastruktur" />
		<tag k="ssr:stedsnr" v="1023474" />
		<tag k="ssr:type" v="adressenavn" />
	</node>
	<node id="-820802" lat="64.6027287989" lon="11.5481463192">
		<tag k="name" v="Vestgøten" />
		<tag k="ssr:date" v="2019-05-30" />
		<tag k="ssr:gruppe" v="veg" />
		<tag k="ssr:hovedgruppe" v="infrastruktur" />
		<tag k="ssr:stedsnr" v="1023471" />
		<tag k="ssr:type" v="adressenavn" />
	</node>
	<node id="-820801" lat="64.3952010419" lon="11.3563605948">
		<tag k="name" v="Kjølsøya" />
		<tag k="ssr:date" v="2019-05-30" />
		<tag k="ssr:gruppe" v="veg" />
		<tag k="ssr:hovedgruppe" v="infrastruktur" />
		<tag k="ssr:stedsnr" v="1023467" />
		<tag k="ssr:type" v="adressenavn" />
	</node>
	<node id="-820800" lat="64.5428553389" lon="11.488742987">
		<tag k="name" v="Sauvika" />
		<tag k="ssr:date" v="2019-05-30" />
		<tag k="ssr:gruppe" v="veg" />
		<tag k="ssr:hovedgruppe" v="infrastruktur" />
		<tag k="ssr:stedsnr" v="1023464" />
		<tag k="ssr:type" v="adressenavn" />
	</node>
	<node id="-820799" lat="64.2932727942" lon="11.6670265855">
		<tag k="name" v="Høgvatnet" />
		<tag k="ssr:date" v="2019-05-30" />
		<tag k="ssr:gruppe" v="veg" />
		<tag k="ssr:hovedgruppe" v="infrastruktur" />
		<tag k="ssr:stedsnr" v="1023460" />
		<tag k="ssr:type" v="adressenavn" />
	</node>
	<node id="-820798" lat="64.4691177688" lon="11.5053842383">
		<tag k="name" v="Steinsbekkgata" />
		<tag k="ssr:date" v="2019-05-30" />
		<tag k="ssr:gruppe" v="veg" />
		<tag k="ssr:hovedgruppe" v="infrastruktur" />
		<tag k="ssr:stedsnr" v="1023437" />
		<tag k="ssr:type" v="adressenavn" />
	</node>
	<node id="-820797" lat="64.3873231718" lon="11.390236808">
		<tag k="name" v="Naustholmen" />
		<tag k="ssr:date" v="2019-05-30" />
		<tag k="ssr:gruppe" v="veg" />
		<tag k="ssr:hovedgruppe" v="infrastruktur" />
		<tag k="ssr:stedsnr" v="1022534" />
		<tag k="ssr:type" v="adressenavn" />
	</node>
	<node id="-820796" lat="64.5295736879" lon="11.6072089252">
		<tag k="name" v="Løddingsvatnet" />
		<tag k="ssr:date" v="2019-05-30" />
		<tag k="ssr:gruppe" v="veg" />
		<tag k="ssr:hovedgruppe" v="infrastruktur" />
		<tag k="ssr:stedsnr" v="1022533" />
		<tag k="ssr:type" v="adressenavn" />
	</node>
	<node id="-820795" lat="64.5583750165" lon="11.6449290582">
		<tag k="name" v="Bjørkavatnet" />
		<tag k="ssr:date" v="2019-05-30" />
		<tag k="ssr:gruppe" v="veg" />
		<tag k="ssr:hovedgruppe" v="infrastruktur" />
		<tag k="ssr:stedsnr" v="1022532" />
		<tag k="ssr:type" v="adressenavn" />
	</node>
	<node id="-820794" lat="64.6333830365" lon="11.8270766791">
		<tag k="name" v="Stordalen" />
		<tag k="ssr:date" v="2019-05-30" />
		<tag k="ssr:gruppe" v="veg" />
		<tag k="ssr:hovedgruppe" v="infrastruktur" />
		<tag k="ssr:stedsnr" v="1022531" />
		<tag k="ssr:type" v="adressenavn" />
	</node>
	<node id="-820793" lat="64.6076676418" lon="11.7244464375">
		<tag k="name" v="Gravvatnet" />
		<tag k="ssr:date" v="2019-05-30" />
		<tag k="ssr:gruppe" v="veg" />
		<tag k="ssr:hovedgruppe" v="infrastruktur" />
		<tag k="ssr:stedsnr" v="1022529" />
		<tag k="ssr:type" v="adressenavn" />
	</node>
	<node id="-820792" lat="64.6126223691" lon="11.7832856409">
		<tag k="name" v="Utgangsdalen" />
		<tag k="ssr:date" v="2019-05-30" />
		<tag k="ssr:gruppe" v="veg" />
		<tag k="ssr:hovedgruppe" v="infrastruktur" />
		<tag k="ssr:stedsnr" v="1022528" />
		<tag k="ssr:type" v="adressenavn" />
	</node>
	<node id="-820791" lat="64.5941821928" lon="11.602962759">
		<tag k="name" v="Jektvika" />
		<tag k="ssr:date" v="2019-05-30" />
		<tag k="ssr:gruppe" v="veg" />
		<tag k="ssr:hovedgruppe" v="infrastruktur" />
		<tag k="ssr:stedsnr" v="1022527" />
		<tag k="ssr:type" v="adressenavn" />
	</node>
	<node id="-818230" lat="64.3379955053" lon="11.4455348751">
		<tag k="name" v="Flakkfjellet" />
		<tag k="ssr:date" v="2019-05-30" />
		<tag k="ssr:gruppe" v="veg" />
		<tag k="ssr:hovedgruppe" v="infrastruktur" />
		<tag k="ssr:stedsnr" v="974624" />
		<tag k="ssr:type" v="adressenavn" />
	</node>
	<node id="-820789" lat="64.6029932151" lon="11.4931237336">
		<tag k="name" v="Skjærivatnet" />
		<tag k="ssr:date" v="2019-05-30" />
		<tag k="ssr:gruppe" v="veg" />
		<tag k="ssr:hovedgruppe" v="infrastruktur" />
		<tag k="ssr:stedsnr" v="1022523" />
		<tag k="ssr:type" v="adressenavn" />
	</node>
	<node id="-820788" lat="64.5825058474" lon="11.4913615819">
		<tag k="name" v="Andvika" />
		<tag k="ssr:date" v="2019-05-30" />
		<tag k="ssr:gruppe" v="veg" />
		<tag k="ssr:hovedgruppe" v="infrastruktur" />
		<tag k="ssr:stedsnr" v="1022522" />
		<tag k="ssr:type" v="adressenavn" />
	</node>
	<node id="-818227" lat="64.3344321523" lon="11.3894212897">
		<tag k="name" v="Bruin" />
		<tag k="ssr:date" v="2019-05-30" />
		<tag k="ssr:gruppe" v="veg" />
		<tag k="ssr:hovedgruppe" v="infrastruktur" />
		<tag k="ssr:stedsnr" v="974623" />
		<tag k="ssr:type" v="adressenavn" />
	</node>
	<node id="-820786" lat="64.5681548456" lon="11.5543973485">
		<tag k="name" v="Blikkenget" />
		<tag k="ssr:date" v="2019-05-30" />
		<tag k="ssr:gruppe" v="veg" />
		<tag k="ssr:hovedgruppe" v="infrastruktur" />
		<tag k="ssr:stedsnr" v="1022519" />
		<tag k="ssr:type" v="adressenavn" />
	</node>
	<node id="-820785" lat="64.5723344066" lon="11.5119228683">
		<tag k="name" v="Ånenget" />
		<tag k="ssr:date" v="2019-05-30" />
		<tag k="ssr:gruppe" v="veg" />
		<tag k="ssr:hovedgruppe" v="infrastruktur" />
		<tag k="ssr:stedsnr" v="1022517" />
		<tag k="ssr:type" v="adressenavn" />
	</node>
	<node id="-820784" lat="64.5546677563" lon="11.5196047969">
		<tag k="name" v="Saltkjeløya" />
		<tag k="ssr:date" v="2019-05-30" />
		<tag k="ssr:gruppe" v="veg" />
		<tag k="ssr:hovedgruppe" v="infrastruktur" />
		<tag k="ssr:stedsnr" v="1022515" />
		<tag k="ssr:type" v="adressenavn" />
	</node>
	<node id="-820783" lat="64.5635309995" lon="11.5211127741">
		<tag k="name" v="Kjettøya" />
		<tag k="ssr:date" v="2019-05-30" />
		<tag k="ssr:gruppe" v="veg" />
		<tag k="ssr:hovedgruppe" v="infrastruktur" />
		<tag k="ssr:stedsnr" v="1022513" />
		<tag k="ssr:type" v="adressenavn" />
	</node>
	<node id="-820782" lat="64.5580329162" lon="11.5349036877">
		<tag k="name" v="Kjerstivika" />
		<tag k="ssr:date" v="2019-05-30" />
		<tag k="ssr:gruppe" v="veg" />
		<tag k="ssr:hovedgruppe" v="infrastruktur" />
		<tag k="ssr:stedsnr" v="1022509" />
		<tag k="ssr:type" v="adressenavn" />
	</node>
	<node id="-820781" lat="64.5513691709" lon="11.5045246073">
		<tag k="name" v="Haukøya" />
		<tag k="ssr:date" v="2019-05-30" />
		<tag k="ssr:gruppe" v="veg" />
		<tag k="ssr:hovedgruppe" v="infrastruktur" />
		<tag k="ssr:stedsnr" v="1022506" />
		<tag k="ssr:type" v="adressenavn" />
	</node>
	<node id="-820780" lat="64.5740979803" lon="11.4140073653">
		<tag k="name" v="Svanavatnet" />
		<tag k="ssr:date" v="2019-05-30" />
		<tag k="ssr:gruppe" v="veg" />
		<tag k="ssr:hovedgruppe" v="infrastruktur" />
		<tag k="ssr:stedsnr" v="1022503" />
		<tag k="ssr:type" v="adressenavn" />
	</node>
	<node id="-818219" lat="64.6246789543" lon="11.1166315927">
		<tag k="name" v="Aglvatnet" />
		<tag k="ssr:date" v="2019-05-30" />
		<tag k="ssr:gruppe" v="veg" />
		<tag k="ssr:hovedgruppe" v="infrastruktur" />
		<tag k="ssr:stedsnr" v="974621" />
		<tag k="ssr:type" v="adressenavn" />
	</node>
	<node id="-818218" lat="64.5923170551" lon="11.1033961549">
		<tag k="name" v="Myanvikvatnet" />
		<tag k="ssr:date" v="2019-05-30" />
		<tag k="ssr:gruppe" v="veg" />
		<tag k="ssr:hovedgruppe" v="infrastruktur" />
		<tag k="ssr:stedsnr" v="974620" />
		<tag k="ssr:type" v="adressenavn" />
	</node>
	<node id="-820777" lat="64.4374769997" lon="11.4136285408">
		<tag k="name" v="Selnes" />
		<tag k="ssr:date" v="2019-05-30" />
		<tag k="ssr:gruppe" v="veg" />
		<tag k="ssr:hovedgruppe" v="infrastruktur" />
		<tag k="ssr:stedsnr" v="1022498" />
		<tag k="ssr:type" v="adressenavn" />
	</node>
	<node id="-820776" lat="64.4968091545" lon="11.5510220219">
		<tag k="name" v="Fuglmyra" />
		<tag k="ssr:date" v="2019-05-30" />
		<tag k="ssr:gruppe" v="veg" />
		<tag k="ssr:hovedgruppe" v="infrastruktur" />
		<tag k="ssr:stedsnr" v="1022495" />
		<tag k="ssr:type" v="adressenavn" />
	</node>
	<node id="-820775" lat="64.4266588922" lon="11.3805611949">
		<tag k="name" v="Straumsneset" />
		<tag k="ssr:date" v="2019-05-30" />
		<tag k="ssr:gruppe" v="veg" />
		<tag k="ssr:hovedgruppe" v="infrastruktur" />
		<tag k="ssr:stedsnr" v="1022493" />
		<tag k="ssr:type" v="adressenavn" />
	</node>
	<node id="-820774" lat="64.4369530359" lon="11.4382915717">
		<tag k="name" v="Selnesvikan" />
		<tag k="ssr:date" v="2019-05-30" />
		<tag k="ssr:gruppe" v="veg" />
		<tag k="ssr:hovedgruppe" v="infrastruktur" />
		<tag k="ssr:stedsnr" v="1022491" />
		<tag k="ssr:type" v="adressenavn" />
	</node>
	<node id="-820773" lat="64.3695973634" lon="11.3151944871">
		<tag k="name" v="Løgnin" />
		<tag k="ssr:date" v="2019-05-30" />
		<tag k="ssr:gruppe" v="veg" />
		<tag k="ssr:hovedgruppe" v="infrastruktur" />
		<tag k="ssr:stedsnr" v="1022490" />
		<tag k="ssr:type" v="adressenavn" />
	</node>
	<node id="-820772" lat="64.3509543791" lon="11.406868836">
		<tag k="name" v="Flakktjønna" />
		<tag k="ssr:date" v="2019-05-30" />
		<tag k="ssr:gruppe" v="veg" />
		<tag k="ssr:hovedgruppe" v="infrastruktur" />
		<tag k="ssr:stedsnr" v="1022489" />
		<tag k="ssr:type" v="adressenavn" />
	</node>
	<node id="-820771" lat="64.322090373" lon="11.5859011917">
		<tag k="name" v="Gravdalssetran" />
		<tag k="ssr:date" v="2019-05-30" />
		<tag k="ssr:gruppe" v="veg" />
		<tag k="ssr:hovedgruppe" v="infrastruktur" />
		<tag k="ssr:stedsnr" v="1022487" />
		<tag k="ssr:type" v="adressenavn" />
	</node>
	<node id="-820770" lat="64.2795563758" lon="11.4752177723">
		<tag k="name" v="Åltjønna" />
		<tag k="ssr:date" v="2019-05-30" />
		<tag k="ssr:gruppe" v="veg" />
		<tag k="ssr:hovedgruppe" v="infrastruktur" />
		<tag k="ssr:stedsnr" v="1022486" />
		<tag k="ssr:type" v="adressenavn" />
	</node>
	<node id="-820769" lat="64.3458681611" lon="11.6176607936">
		<tag k="name" v="Ramstadsetran" />
		<tag k="ssr:date" v="2019-05-30" />
		<tag k="ssr:gruppe" v="veg" />
		<tag k="ssr:hovedgruppe" v="infrastruktur" />
		<tag k="ssr:stedsnr" v="1022485" />
		<tag k="ssr:type" v="adressenavn" />
	</node>
	<node id="-820768" lat="64.2566320685" lon="11.6677031501">
		<tag k="name" v="Spøtta" />
		<tag k="ssr:date" v="2019-05-30" />
		<tag k="ssr:gruppe" v="veg" />
		<tag k="ssr:hovedgruppe" v="infrastruktur" />
		<tag k="ssr:stedsnr" v="1022481" />
		<tag k="ssr:type" v="adressenavn" />
	</node>
	<node id="-820767" lat="64.3046213991" lon="11.3558036219">
		<tag k="name" v="Fjalseterdalen" />
		<tag k="ssr:date" v="2019-05-30" />
		<tag k="ssr:gruppe" v="veg" />
		<tag k="ssr:hovedgruppe" v="infrastruktur" />
		<tag k="ssr:stedsnr" v="1022478" />
		<tag k="ssr:type" v="adressenavn" />
	</node>
	<node id="-820766" lat="64.3002011328" lon="11.3886088168">
		<tag k="name" v="Vomma" />
		<tag k="ssr:date" v="2019-05-30" />
		<tag k="ssr:gruppe" v="veg" />
		<tag k="ssr:hovedgruppe" v="infrastruktur" />
		<tag k="ssr:stedsnr" v="1022474" />
		<tag k="ssr:type" v="adressenavn" />
	</node>
	<node id="-820765" lat="64.3260335357" lon="11.6426035452">
		<tag k="name" v="Solemsvatnet" />
		<tag k="ssr:date" v="2019-05-30" />
		<tag k="ssr:gruppe" v="veg" />
		<tag k="ssr:hovedgruppe" v="infrastruktur" />
		<tag k="ssr:stedsnr" v="1022471" />
		<tag k="ssr:type" v="adressenavn" />
	</node>
	<node id="-820764" lat="64.3628453216" lon="11.6107777341">
		<tag k="name" v="Spjøtvatnet" />
		<tag k="ssr:date" v="2019-05-30" />
		<tag k="ssr:gruppe" v="veg" />
		<tag k="ssr:hovedgruppe" v="infrastruktur" />
		<tag k="ssr:stedsnr" v="1022466" />
		<tag k="ssr:type" v="adressenavn" />
	</node>
	<node id="-820763" lat="64.3881707873" lon="11.5511426857">
		<tag k="name" v="Fjellsettjønnin" />
		<tag k="ssr:date" v="2019-05-30" />
		<tag k="ssr:gruppe" v="veg" />
		<tag k="ssr:hovedgruppe" v="infrastruktur" />
		<tag k="ssr:stedsnr" v="1022463" />
		<tag k="ssr:type" v="adressenavn" />
	</node>
	<node id="-820762" lat="64.4063304529" lon="11.559399558">
		<tag k="name" v="Barstadvatnet" />
		<tag k="ssr:date" v="2019-05-30" />
		<tag k="ssr:gruppe" v="veg" />
		<tag k="ssr:hovedgruppe" v="infrastruktur" />
		<tag k="ssr:stedsnr" v="1022460" />
		<tag k="ssr:type" v="adressenavn" />
	</node>
	<node id="-818201" lat="64.5607616466" lon="11.1666917318">
		<tag k="name" v="Skorstadvatnet" />
		<tag k="ssr:date" v="2019-05-30" />
		<tag k="ssr:gruppe" v="veg" />
		<tag k="ssr:hovedgruppe" v="infrastruktur" />
		<tag k="ssr:stedsnr" v="974617" />
		<tag k="ssr:type" v="adressenavn" />
	</node>
	<node id="-820760" lat="64.4277544682" lon="11.562499238">
		<tag k="name" v="Spillumsvatnet" />
		<tag k="ssr:date" v="2019-05-30" />
		<tag k="ssr:gruppe" v="veg" />
		<tag k="ssr:hovedgruppe" v="infrastruktur" />
		<tag k="ssr:stedsnr" v="1022453" />
		<tag k="ssr:type" v="adressenavn" />
	</node>
	<node id="-820758" lat="64.4573271215" lon="11.4669104492">
		<tag k="name" v="Mærraneset hytteområde" />
		<tag k="ssr:date" v="2019-05-30" />
		<tag k="ssr:gruppe" v="veg" />
		<tag k="ssr:hovedgruppe" v="infrastruktur" />
		<tag k="ssr:stedsnr" v="984231" />
		<tag k="ssr:type" v="adressenavn" />
	</node>
	<node id="-820757" lat="64.482781029" lon="11.3240376398">
		<tag k="name" v="Oldervika hytteområde" />
		<tag k="ssr:date" v="2019-05-30" />
		<tag k="ssr:gruppe" v="veg" />
		<tag k="ssr:hovedgruppe" v="infrastruktur" />
		<tag k="ssr:stedsnr" v="984230" />
		<tag k="ssr:type" v="adressenavn" />
	</node>
	<node id="-820756" lat="64.6182354952" lon="11.160664245">
		<tag k="name" v="Tangen hytteområde" />
		<tag k="ssr:date" v="2019-05-30" />
		<tag k="ssr:gruppe" v="veg" />
		<tag k="ssr:hovedgruppe" v="infrastruktur" />
		<tag k="ssr:stedsnr" v="984229" />
		<tag k="ssr:type" v="adressenavn" />
	</node>
	<node id="-820755" lat="64.6125009448" lon="11.2105070413">
		<tag k="name" v="Sandvollan hytteområde" />
		<tag k="ssr:date" v="2019-05-30" />
		<tag k="ssr:gruppe" v="veg" />
		<tag k="ssr:hovedgruppe" v="infrastruktur" />
		<tag k="ssr:stedsnr" v="984228" />
		<tag k="ssr:type" v="adressenavn" />
	</node>
	<node id="-820754" lat="64.6205698567" lon="11.1514887617">
		<tag k="name" v="Olavika hytteområde" />
		<tag k="ssr:date" v="2019-05-30" />
		<tag k="ssr:gruppe" v="veg" />
		<tag k="ssr:hovedgruppe" v="infrastruktur" />
		<tag k="ssr:stedsnr" v="984227" />
		<tag k="ssr:type" v="adressenavn" />
	</node>
	<node id="-820753" lat="64.5012096221" lon="11.290107463">
		<tag k="name" v="Nedre Sandvika hytteområde" />
		<tag k="ssr:date" v="2019-05-30" />
		<tag k="ssr:gruppe" v="veg" />
		<tag k="ssr:hovedgruppe" v="infrastruktur" />
		<tag k="ssr:stedsnr" v="984226" />
		<tag k="ssr:type" v="adressenavn" />
	</node>
	<node id="-820752" lat="64.4614125609" lon="11.2244200254">
		<tag k="name" v="Leirvika hytteområde" />
		<tag k="ssr:date" v="2019-05-30" />
		<tag k="ssr:gruppe" v="veg" />
		<tag k="ssr:hovedgruppe" v="infrastruktur" />
		<tag k="ssr:stedsnr" v="984224" />
		<tag k="ssr:type" v="adressenavn" />
	</node>
	<node id="-820751" lat="64.6258992527" lon="11.1478703161">
		<tag k="name" v="Lyktodden hytteområde" />
		<tag k="ssr:date" v="2019-05-30" />
		<tag k="ssr:gruppe" v="veg" />
		<tag k="ssr:hovedgruppe" v="infrastruktur" />
		<tag k="ssr:stedsnr" v="984225" />
		<tag k="ssr:type" v="adressenavn" />
	</node>
	<node id="-820750" lat="64.6218437571" lon="11.1519121127">
		<tag k="name" v="Vestre Finnanger hytteområde" />
		<tag k="ssr:date" v="2019-05-30" />
		<tag k="ssr:gruppe" v="veg" />
		<tag k="ssr:hovedgruppe" v="infrastruktur" />
		<tag k="ssr:stedsnr" v="984223" />
		<tag k="ssr:type" v="adressenavn" />
	</node>
	<node id="-820749" lat="64.5170070426" lon="11.4914320313">
		<tag k="name" v="Ramsvika hytteområde" />
		<tag k="ssr:date" v="2019-05-30" />
		<tag k="ssr:gruppe" v="veg" />
		<tag k="ssr:hovedgruppe" v="infrastruktur" />
		<tag k="ssr:stedsnr" v="984219" />
		<tag k="ssr:type" v="adressenavn" />
	</node>
	<node id="-820748" lat="64.3989204119" lon="11.356498863">
		<tag k="name" v="Strandli hytteområde" />
		<tag k="ssr:date" v="2019-05-30" />
		<tag k="ssr:gruppe" v="veg" />
		<tag k="ssr:hovedgruppe" v="infrastruktur" />
		<tag k="ssr:stedsnr" v="984218" />
		<tag k="ssr:type" v="adressenavn" />
	</node>
	<node id="-820747" lat="64.5912656765" lon="11.3807528445">
		<tag k="name" v="Plassen fritidsområde" />
		<tag k="ssr:date" v="2019-05-30" />
		<tag k="ssr:gruppe" v="veg" />
		<tag k="ssr:hovedgruppe" v="infrastruktur" />
		<tag k="ssr:stedsnr" v="984217" />
		<tag k="ssr:type" v="adressenavn" />
	</node>
	<node id="-820746" lat="64.5776727783" lon="11.6110645567">
		<tag k="name" v="Rypneset hytteområde" />
		<tag k="ssr:date" v="2019-05-30" />
		<tag k="ssr:gruppe" v="veg" />
		<tag k="ssr:hovedgruppe" v="infrastruktur" />
		<tag k="ssr:stedsnr" v="984216" />
		<tag k="ssr:type" v="adressenavn" />
	</node>
	<node id="-820745" lat="64.4577671397" lon="11.3903707938">
		<tag k="name" v="Brannøya hytteområde" />
		<tag k="ssr:date" v="2019-05-30" />
		<tag k="ssr:gruppe" v="veg" />
		<tag k="ssr:hovedgruppe" v="infrastruktur" />
		<tag k="ssr:stedsnr" v="984215" />
		<tag k="ssr:type" v="adressenavn" />
	</node>
	<node id="-820743" lat="64.0144468016" lon="11.4818866293">
		<tag k="fixme" v="multiple name tags, choose one and add the other to alt_name" />
		<tag k="name" v="Trøndelag fylke - Trööndelage;Trööndelagen fylhke" />
		<tag k="name:no" v="Trøndelag fylke" />
		<tag k="name:sma" v="Trööndelage;Trööndelagen fylhke" />
		<tag k="ssr:date" v="2019-11-14" />
		<tag k="ssr:gruppe" v="administrativeIndelinger" />
		<tag k="ssr:hovedgruppe" v="offentligAdministrasjon" />
		<tag k="ssr:stedsnr" v="980645" />
		<tag k="ssr:type" v="fylke" />
	</node>
	<node id="-818179" lat="64.4564171222" lon="11.4416289964">
		<tag k="name" v="Mærraneset" />
		<tag k="ssr:date" v="2019-05-30" />
		<tag k="ssr:gruppe" v="veg" />
		<tag k="ssr:hovedgruppe" v="infrastruktur" />
		<tag k="ssr:stedsnr" v="974625" />
		<tag k="ssr:type" v="adressenavn" />
	</node>
</osm>
