<?xml version="1.0" encoding="UTF-8"?>
<osm version="0.6" generator="osmapis">
	<node id="59989475" lat="62.3704027" lon="6.0291726" version="6" timestamp="2022-08-13T17:39:26Z" changeset="124862296" uid="3497659" user="NKA">
		<tag k="name" v="Hareid" />
		<tag k="place" v="village" />
		<tag k="population" v="3473" />
		<tag k="population:date" v="2021-01-01" />
		<tag k="ref:ssb_tettsted" v="6064" />
		<tag k="source:population" v="SSB - befolkning i tettstedet" />
		<tag k="ssr:stedsnr" v="921868" />
	</node>
	<node id="4775538893" lat="62.4214889" lon="6.0004697" version="2" timestamp="2022-08-13T17:39:26Z" changeset="124862296" uid="3497659" user="NKA">
		<tag k="name" v="Kvitneset" />
		<tag k="natural" v="cape" />
		<tag k="place" v="locality" />
		<tag k="ssr:stedsnr" v="678898" />
	</node>
	<node id="4775538894" lat="62.4187692" lon="6.000694" version="2" timestamp="2022-08-13T17:39:26Z" changeset="124862296" uid="3497659" user="NKA">
		<tag k="name" v="Klombra" />
		<tag k="place" v="isolated_dwelling" />
		<tag k="ssr:stedsnr" v="314897" />
	</node>
	<node id="9951310242" lat="62.3551417" lon="5.9618669" version="1" timestamp="2022-08-13T17:39:26Z" changeset="124862296" uid="3497659" user="NKA">
		<tag k="name" v="Kashaugen" />
		<tag k="place" v="farm" />
		<tag k="ssr:stedsnr" v="338792" />
	</node>
	<node id="9951310243" lat="62.30692" lon="5.9769264" version="1" timestamp="2022-08-13T17:39:26Z" changeset="124862296" uid="3497659" user="NKA">
		<tag k="alt_name" v="Kvammen;Kvamme" />
		<tag k="name" v="Kvamen" />
		<tag k="place" v="hamlet" />
		<tag k="ssr:stedsnr" v="436769" />
	</node>
	<node id="9951310244" lat="62.3649637" lon="6.0301214" version="1" timestamp="2022-08-13T17:39:26Z" changeset="124862296" uid="3497659" user="NKA">
		<tag k="name" v="Aurgotene" />
		<tag k="place" v="farm" />
		<tag k="ssr:stedsnr" v="520608" />
	</node>
	<node id="9951310245" lat="62.360308" lon="5.9764635" version="1" timestamp="2022-08-13T17:39:26Z" changeset="124862296" uid="3497659" user="NKA">
		<tag k="name" v="Bjåstad" />
		<tag k="place" v="hamlet" />
		<tag k="ssr:stedsnr" v="374881" />
	</node>
	<node id="9951310246" lat="62.3396914" lon="5.9994377" version="1" timestamp="2022-08-13T17:39:26Z" changeset="124862296" uid="3497659" user="NKA">
		<tag k="name" v="Instebakken" />
		<tag k="place" v="farm" />
		<tag k="ssr:stedsnr" v="581676" />
	</node>
	<node id="9951310247" lat="62.373029" lon="5.9439005" version="1" timestamp="2022-08-13T17:39:26Z" changeset="124862296" uid="3497659" user="NKA">
		<tag k="alt_name" v="Bjåstadsela" />
		<tag k="historic" v="shieling" />
		<tag k="name" v="Bjåstadsætra" />
		<tag k="place" v="isolated_dwelling" />
		<tag k="ssr:stedsnr" v="131894" />
	</node>
	<node id="9951310248" lat="62.3504276" lon="5.9894652" version="1" timestamp="2022-08-13T17:39:26Z" changeset="124862296" uid="3497659" user="NKA">
		<tag k="name" v="Kråkholen" />
		<tag k="place" v="hamlet" />
		<tag k="ssr:stedsnr" v="921823" />
	</node>
	<node id="9951310249" lat="62.3972476" lon="6.0044965" version="1" timestamp="2022-08-13T17:39:26Z" changeset="124862296" uid="3497659" user="NKA">
		<tag k="name" v="Risegarden" />
		<tag k="place" v="farm" />
		<tag k="ssr:stedsnr" v="945757" />
	</node>
	<node id="9951310250" lat="62.340056" lon="6.0400062" version="1" timestamp="2022-08-13T17:39:26Z" changeset="124862296" uid="3497659" user="NKA">
		<tag k="name" v="Bakken" />
		<tag k="place" v="farm" />
		<tag k="ssr:stedsnr" v="460664" />
	</node>
	<node id="9951310251" lat="62.4023065" lon="6.0091363" version="1" timestamp="2022-08-13T17:39:26Z" changeset="124862296" uid="3497659" user="NKA">
		<tag k="name" v="Ytrenes" />
		<tag k="place" v="farm" />
		<tag k="ssr:stedsnr" v="294915" />
	</node>
	<node id="9951310252" lat="62.3768338" lon="6.0238974" version="1" timestamp="2022-08-13T17:39:26Z" changeset="124862296" uid="3497659" user="NKA">
		<tag k="alt_name" v="Hovlid;Hovli;Hoveledet" />
		<tag k="name" v="Hovled" />
		<tag k="place" v="neighbourhood" />
		<tag k="ssr:stedsnr" v="556869" />
	</node>
	<node id="9951310253" lat="62.3002684" lon="5.9895439" version="1" timestamp="2022-08-13T17:39:26Z" changeset="124862296" uid="3497659" user="NKA">
		<tag k="alt_name" v="Alme Store;Store Alme" />
		<tag k="name" v="Alme" />
		<tag k="place" v="hamlet" />
		<tag k="ssr:stedsnr" v="921153" />
	</node>
	<node id="9951310254" lat="62.3319016" lon="6.0324185" version="1" timestamp="2022-08-13T17:39:26Z" changeset="124862296" uid="3497659" user="NKA">
		<tag k="name" v="Hjørungdalen" />
		<tag k="place" v="hamlet" />
		<tag k="ssr:stedsnr" v="375786" />
	</node>
	<node id="9951310255" lat="62.4142" lon="6.0044559" version="1" timestamp="2022-08-13T17:39:26Z" changeset="124862296" uid="3497659" user="NKA">
		<tag k="name" v="Karlhaugen" />
		<tag k="place" v="farm" />
		<tag k="ssr:stedsnr" v="800923" />
	</node>
	<node id="9951310256" lat="62.4025359" lon="6.0062268" version="1" timestamp="2022-08-13T17:39:26Z" changeset="124862296" uid="3497659" user="NKA">
		<tag k="alt_name" v="Sauebø;Sauebøen" />
		<tag k="name" v="Saudebøen" />
		<tag k="place" v="farm" />
		<tag k="ssr:stedsnr" v="132884" />
	</node>
	<node id="9951310257" lat="62.3179298" lon="6.0326864" version="1" timestamp="2022-08-13T17:39:26Z" changeset="124862296" uid="3497659" user="NKA">
		<tag k="name" v="Haugen" />
		<tag k="place" v="farm" />
		<tag k="ssr:stedsnr" v="254730" />
	</node>
	<node id="9951310258" lat="62.3418122" lon="5.999877" version="1" timestamp="2022-08-13T17:39:26Z" changeset="124862296" uid="3497659" user="NKA">
		<tag k="name" v="Ytstebakken" />
		<tag k="place" v="farm" />
		<tag k="ssr:stedsnr" v="399714" />
	</node>
	<node id="9951310259" lat="62.341175" lon="5.9650435" version="1" timestamp="2022-08-13T17:39:26Z" changeset="124862296" uid="3497659" user="NKA">
		<tag k="name" v="Gabrielmorka" />
		<tag k="place" v="farm" />
		<tag k="ssr:stedsnr" v="520749" />
	</node>
	<node id="9951310260" lat="62.3922072" lon="5.9962955" version="1" timestamp="2022-08-13T17:39:26Z" changeset="124862296" uid="3497659" user="NKA">
		<tag k="name" v="Legene" />
		<tag k="place" v="farm" />
		<tag k="ssr:stedsnr" v="885603" />
	</node>
	<node id="9951310261" lat="62.3946889" lon="6.003192" version="1" timestamp="2022-08-13T17:39:26Z" changeset="124862296" uid="3497659" user="NKA">
		<tag k="name" v="Bakkane" />
		<tag k="place" v="farm" />
		<tag k="ssr:stedsnr" v="861913" />
	</node>
	<node id="9951310262" lat="62.4027536" lon="5.9992509" version="1" timestamp="2022-08-13T17:39:26Z" changeset="124862296" uid="3497659" user="NKA">
		<tag k="alt_name" v="Haugen" />
		<tag k="name" v="Øvrebø" />
		<tag k="place" v="farm" />
		<tag k="ssr:stedsnr" v="11931" />
	</node>
	<node id="9951310263" lat="62.3726305" lon="6.0773086" version="1" timestamp="2022-08-13T17:39:26Z" changeset="124862296" uid="3497659" user="NKA">
		<tag k="name" v="Finnsgarden" />
		<tag k="place" v="farm" />
		<tag k="ssr:stedsnr" v="631579" />
	</node>
	<node id="9951310264" lat="62.3499952" lon="6.0650397" version="1" timestamp="2022-08-13T17:39:26Z" changeset="124862296" uid="3497659" user="NKA">
		<tag k="name" v="Myra" />
		<tag k="place" v="isolated_dwelling" />
		<tag k="ssr:stedsnr" v="173868" />
	</node>
	<node id="9951310265" lat="62.3500639" lon="5.9259226" version="1" timestamp="2022-08-13T17:39:26Z" changeset="124862296" uid="3497659" user="NKA">
		<tag k="name" v="Fram-Rise" />
		<tag k="place" v="farm" />
		<tag k="ssr:stedsnr" v="846801" />
	</node>
	<node id="9951310266" lat="62.3514977" lon="5.9228803" version="1" timestamp="2022-08-13T17:39:26Z" changeset="124862296" uid="3497659" user="NKA">
		<tag k="name" v="Gjerdet" />
		<tag k="place" v="farm" />
		<tag k="ssr:stedsnr" v="703688" />
	</node>
	<node id="9951310267" lat="62.3531426" lon="5.9274331" version="1" timestamp="2022-08-13T17:39:26Z" changeset="124862296" uid="3497659" user="NKA">
		<tag k="name" v="Nevstad" />
		<tag k="place" v="farm" />
		<tag k="ssr:stedsnr" v="435847" />
	</node>
	<node id="9951310268" lat="62.3410945" lon="5.9901142" version="1" timestamp="2022-08-13T17:39:26Z" changeset="124862296" uid="3497659" user="NKA">
		<tag k="name" v="Gjerdet" />
		<tag k="place" v="farm" />
		<tag k="ssr:stedsnr" v="278761" />
	</node>
	<node id="9951310269" lat="62.3416589" lon="6.0786924" version="1" timestamp="2022-08-13T17:39:26Z" changeset="124862296" uid="3497659" user="NKA">
		<tag k="name" v="Bøen" />
		<tag k="place" v="farm" />
		<tag k="ssr:stedsnr" v="72764" />
	</node>
	<node id="9951310270" lat="62.3391032" lon="5.9684359" version="1" timestamp="2022-08-13T17:39:26Z" changeset="124862296" uid="3497659" user="NKA">
		<tag k="name" v="Ytre Mork" />
		<tag k="place" v="farm" />
		<tag k="ssr:stedsnr" v="421914" />
	</node>
	<node id="9951310272" lat="62.3564661" lon="5.9645665" version="1" timestamp="2022-08-13T17:39:26Z" changeset="124862296" uid="3497659" user="NKA">
		<tag k="name" v="Langerysta" />
		<tag k="place" v="farm" />
		<tag k="ssr:stedsnr" v="641782" />
	</node>
	<node id="9951310273" lat="62.3219849" lon="5.9759497" version="1" timestamp="2022-08-13T17:39:26Z" changeset="124862296" uid="3497659" user="NKA">
		<tag k="name" v="Nesset" />
		<tag k="place" v="hamlet" />
		<tag k="ssr:stedsnr" v="617777" />
	</node>
	<node id="9951310274" lat="62.3048712" lon="6.0013887" version="1" timestamp="2022-08-13T17:39:26Z" changeset="124862296" uid="3497659" user="NKA">
		<tag k="name" v="Kåvika" />
		<tag k="place" v="farm" />
		<tag k="ssr:stedsnr" v="496145" />
	</node>
	<node id="9951310275" lat="62.3394489" lon="5.9942037" version="1" timestamp="2022-08-13T17:39:26Z" changeset="124862296" uid="3497659" user="NKA">
		<tag k="name" v="Røyset" />
		<tag k="place" v="hamlet" />
		<tag k="ssr:stedsnr" v="11793" />
	</node>
	<node id="9951310276" lat="62.3115421" lon="6.0152254" version="1" timestamp="2022-08-13T17:39:26Z" changeset="124862296" uid="3497659" user="NKA">
		<tag k="alt_name" v="Alme, lisle;Litl Alme" />
		<tag k="name" v="Lisle Alme" />
		<tag k="place" v="farm" />
		<tag k="ssr:stedsnr" v="72757" />
	</node>
	<node id="9951310277" lat="62.3947252" lon="6.0023598" version="1" timestamp="2022-08-13T17:39:26Z" changeset="124862296" uid="3497659" user="NKA">
		<tag k="name" v="Gjerdet" />
		<tag k="place" v="farm" />
		<tag k="ssr:stedsnr" v="399635" />
	</node>
	<node id="9951310278" lat="62.3476308" lon="5.965384" version="1" timestamp="2022-08-13T17:39:26Z" changeset="124862296" uid="3497659" user="NKA">
		<tag k="name" v="Hovden" />
		<tag k="place" v="hamlet" />
		<tag k="ssr:stedsnr" v="314836" />
	</node>
	<node id="9951310279" lat="62.3446837" lon="5.9985171" version="1" timestamp="2022-08-13T17:39:26Z" changeset="124862296" uid="3497659" user="NKA">
		<tag k="name" v="Legene" />
		<tag k="place" v="farm" />
		<tag k="ssr:stedsnr" v="641647" />
	</node>
	<node id="9951310280" lat="62.3556028" lon="6.0740808" version="1" timestamp="2022-08-13T17:39:26Z" changeset="124862296" uid="3497659" user="NKA">
		<tag k="name" v="Kvernagota" />
		<tag k="place" v="farm" />
		<tag k="ssr:stedsnr" v="739826" />
	</node>
	<node id="9951310281" lat="62.4124152" lon="6.0052633" version="1" timestamp="2022-08-13T17:39:26Z" changeset="124862296" uid="3497659" user="NKA">
		<tag k="alt_name" v="Haugen;Haug" />
		<tag k="name" v="Smottene" />
		<tag k="place" v="farm" />
		<tag k="ssr:stedsnr" v="617927" />
	</node>
	<node id="9951310282" lat="62.3409232" lon="5.9938084" version="1" timestamp="2022-08-13T17:39:26Z" changeset="124862296" uid="3497659" user="NKA">
		<tag k="name" v="Bakken" />
		<tag k="place" v="farm" />
		<tag k="ssr:stedsnr" v="278698" />
	</node>
	<node id="9951310283" lat="62.4004193" lon="6.0086323" version="1" timestamp="2022-08-13T17:39:26Z" changeset="124862296" uid="3497659" user="NKA">
		<tag k="name" v="Brandal" />
		<tag k="old_name" v="Branddal" />
		<tag k="place" v="village" />
		<tag k="population" v="332" />
		<tag k="population:date" v="2021-01-01" />
		<tag k="ref:ssb_tettsted" v="6063" />
		<tag k="source:population" v="SSB - befolkning i tettstedet" />
		<tag k="ssr:stedsnr" v="921876" />
		<tag k="wikidata" v="Q897794" />
	</node>
	<node id="9951310284" lat="62.3456194" lon="5.960167" version="1" timestamp="2022-08-13T17:39:26Z" changeset="124862296" uid="3497659" user="NKA">
		<tag k="historic" v="shieling" />
		<tag k="name" v="Sætra" />
		<tag k="place" v="isolated_dwelling" />
		<tag k="ssr:stedsnr" v="703693" />
	</node>
	<node id="9951310285" lat="62.3520139" lon="5.9512948" version="1" timestamp="2022-08-13T17:39:26Z" changeset="124862296" uid="3497659" user="NKA">
		<tag k="name" v="Myrvoll" />
		<tag k="place" v="farm" />
		<tag k="ssr:stedsnr" v="556839" />
	</node>
	<node id="9951310286" lat="62.3736713" lon="6.0163972" version="1" timestamp="2022-08-13T17:39:26Z" changeset="124862296" uid="3497659" user="NKA">
		<tag k="name" v="Gjerdet" />
		<tag k="place" v="hamlet" />
		<tag k="ssr:stedsnr" v="617867" />
	</node>
	<node id="9951310287" lat="62.3501272" lon="5.9303241" version="1" timestamp="2022-08-13T17:39:26Z" changeset="124862296" uid="3497659" user="NKA">
		<tag k="alt_name" v="Rise, øvre" />
		<tag k="name" v="Øvre Rise" />
		<tag k="place" v="farm" />
		<tag k="ssr:stedsnr" v="556837" />
	</node>
	<node id="9951310288" lat="62.3963722" lon="6.0010087" version="1" timestamp="2022-08-13T17:39:26Z" changeset="124862296" uid="3497659" user="NKA">
		<tag k="name" v="Plassen" />
		<tag k="place" v="farm" />
		<tag k="ssr:stedsnr" v="217607" />
	</node>
	<node id="9951310289" lat="62.3400539" lon="6.0400019" version="1" timestamp="2022-08-13T17:39:26Z" changeset="124862296" uid="3497659" user="NKA">
		<tag k="name" v="Øvre Liaset" />
		<tag k="place" v="farm" />
		<tag k="ssr:stedsnr" v="581748" />
	</node>
	<node id="9951310290" lat="62.3376471" lon="5.9659618" version="1" timestamp="2022-08-13T17:39:26Z" changeset="124862296" uid="3497659" user="NKA">
		<tag k="name" v="Indre Mork" />
		<tag k="place" v="farm" />
		<tag k="ssr:stedsnr" v="118905" />
	</node>
	<node id="9951310291" lat="62.3407218" lon="6.0452036" version="1" timestamp="2022-08-13T17:39:26Z" changeset="124862296" uid="3497659" user="NKA">
		<tag k="name" v="Nedre Liaset" />
		<tag k="place" v="farm" />
		<tag k="ssr:stedsnr" v="520740" />
	</node>
	<node id="9951310292" lat="62.3422722" lon="6.0826058" version="1" timestamp="2022-08-13T17:39:26Z" changeset="124862296" uid="3497659" user="NKA">
		<tag k="name" v="Bakken" />
		<tag k="place" v="farm" />
		<tag k="ssr:stedsnr" v="436778" />
	</node>
	<node id="9951310293" lat="62.3945197" lon="6.0005649" version="1" timestamp="2022-08-13T17:39:26Z" changeset="124862296" uid="3497659" user="NKA">
		<tag k="name" v="Leitet" />
		<tag k="place" v="farm" />
		<tag k="ssr:stedsnr" v="800899" />
	</node>
	<node id="9951310294" lat="62.3385445" lon="6.0400669" version="1" timestamp="2022-08-13T17:39:26Z" changeset="124862296" uid="3497659" user="NKA">
		<tag k="name" v="Grøtet" />
		<tag k="place" v="farm" />
		<tag k="ssr:stedsnr" v="156655" />
	</node>
	<node id="9951310295" lat="62.3665978" lon="6.0336362" version="1" timestamp="2022-08-13T17:39:26Z" changeset="124862296" uid="3497659" user="NKA">
		<tag k="name" v="Flotene" />
		<tag k="place" v="quarter" />
		<tag k="ssr:stedsnr" v="641600" />
	</node>
	<node id="9951310296" lat="62.3640722" lon="5.9167697" version="1" timestamp="2022-08-13T17:39:26Z" changeset="124862296" uid="3497659" user="NKA">
		<tag k="historic" v="shieling" />
		<tag k="name" v="Risesætra" />
		<tag k="place" v="isolated_dwelling" />
		<tag k="ssr:stedsnr" v="496850" />
	</node>
	<node id="9951310297" lat="62.353992" lon="5.9866988" version="1" timestamp="2022-08-13T17:39:26Z" changeset="124862296" uid="3497659" user="NKA">
		<tag k="alt_name" v="Kaldholen" />
		<tag k="name" v="Kaldhol" />
		<tag k="place" v="hamlet" />
		<tag k="ssr:stedsnr" v="11842" />
	</node>
	<node id="9951310298" lat="62.30355" lon="5.9902197" version="1" timestamp="2022-08-13T17:39:26Z" changeset="124862296" uid="3497659" user="NKA">
		<tag k="historic" v="shieling" />
		<tag k="name" v="Koppestøylen" />
		<tag k="place" v="isolated_dwelling" />
		<tag k="ssr:stedsnr" v="945565" />
	</node>
	<node id="9951310299" lat="62.3606445" lon="6.0700586" version="1" timestamp="2022-08-13T17:39:26Z" changeset="124862296" uid="3497659" user="NKA">
		<tag k="name" v="Slettebakken" />
		<tag k="place" v="farm" />
		<tag k="ssr:stedsnr" v="703793" />
	</node>
	<node id="9951310300" lat="62.3566114" lon="5.9670028" version="1" timestamp="2022-08-13T17:39:26Z" changeset="124862296" uid="3497659" user="NKA">
		<tag k="name" v="Bigset" />
		<tag k="place" v="village" />
		<tag k="ssr:stedsnr" v="800798" />
	</node>
	<node id="9951310301" lat="62.3404757" lon="6.0437929" version="1" timestamp="2022-08-13T17:39:26Z" changeset="124862296" uid="3497659" user="NKA">
		<tag k="name" v="Liaset" />
		<tag k="place" v="hamlet" />
		<tag k="ssr:stedsnr" v="739794" />
	</node>
	<node id="9951310302" lat="62.3933583" lon="6.0051836" version="1" timestamp="2022-08-13T17:39:26Z" changeset="124862296" uid="3497659" user="NKA">
		<tag k="name" v="Skarbakken" />
		<tag k="place" v="locality" />
		<tag k="ssr:stedsnr" v="496880" />
	</node>
	<node id="9951310303" lat="62.3295694" lon="6.0350085" version="1" timestamp="2022-08-13T17:39:26Z" changeset="124862296" uid="3497659" user="NKA">
		<tag k="name" v="Myrdal" />
		<tag k="place" v="farm" />
		<tag k="ssr:stedsnr" v="314806" />
	</node>
	<node id="9951310304" lat="62.3369508" lon="6.032633" version="1" timestamp="2022-08-13T17:39:26Z" changeset="124862296" uid="3497659" user="NKA">
		<tag k="alt_name" v="Øvreli;Øvre Lid" />
		<tag k="name" v="Øverli" />
		<tag k="place" v="hamlet" />
		<tag k="ssr:stedsnr" v="375770" />
	</node>
	<node id="9951310305" lat="62.3666313" lon="5.9960733" version="1" timestamp="2022-08-13T17:39:26Z" changeset="124862296" uid="3497659" user="NKA">
		<tag k="name" v="Grimstad" />
		<tag k="place" v="hamlet" />
		<tag k="ssr:stedsnr" v="678849" />
	</node>
	<node id="9951310306" lat="62.3522528" lon="5.938417" version="1" timestamp="2022-08-13T17:39:26Z" changeset="124862296" uid="3497659" user="NKA">
		<tag k="name" v="Ned-Rise" />
		<tag k="place" v="farm" />
		<tag k="ssr:stedsnr" v="421818" />
	</node>
	<node id="9951310307" lat="62.3302444" lon="6.0608447" version="1" timestamp="2022-08-13T17:39:26Z" changeset="124862296" uid="3497659" user="NKA">
		<tag k="name" v="Gamleåsen" />
		<tag k="place" v="farm" />
		<tag k="ssr:stedsnr" v="254789" />
	</node>
	<node id="9951310308" lat="62.358648" lon="6.0740661" version="1" timestamp="2022-08-13T17:39:26Z" changeset="124862296" uid="3497659" user="NKA">
		<tag k="name" v="Ovra" />
		<tag k="place" v="hamlet" />
		<tag k="ssr:stedsnr" v="11826" />
	</node>
	<node id="9951310309" lat="62.3399672" lon="5.9653861" version="1" timestamp="2022-08-13T17:39:26Z" changeset="124862296" uid="3497659" user="NKA">
		<tag k="alt_name" v="Morka" />
		<tag k="name" v="Mork" />
		<tag k="place" v="hamlet" />
		<tag k="ssr:stedsnr" v="678780" />
	</node>
	<node id="9951310310" lat="62.3632167" lon="6.0316364" version="1" timestamp="2022-08-13T17:39:26Z" changeset="124862296" uid="3497659" user="NKA">
		<tag k="alt_name" v="Brubakk" />
		<tag k="name" v="Bruabakken" />
		<tag k="place" v="farm" />
		<tag k="ssr:stedsnr" v="217754" />
	</node>
	<node id="9951310311" lat="62.3471684" lon="6.0629447" version="1" timestamp="2022-08-13T17:39:26Z" changeset="124862296" uid="3497659" user="NKA">
		<tag k="name" v="Hjørungavåg" />
		<tag k="place" v="village" />
		<tag k="population" v="699" />
		<tag k="population:date" v="2021-01-01" />
		<tag k="ref:ssb_tettsted" v="6061" />
		<tag k="source:population" v="SSB - befolkning i tettstedet" />
		<tag k="ssr:stedsnr" v="193815" />
	</node>
	<node id="9951310312" lat="62.342562" lon="6.0805777" version="1" timestamp="2022-08-13T17:39:26Z" changeset="124862296" uid="3497659" user="NKA">
		<tag k="alt_name" v="Korshamna" />
		<tag k="name" v="Korshamn" />
		<tag k="place" v="hamlet" />
		<tag k="ssr:stedsnr" v="617841" />
	</node>
	<node id="9951310313" lat="62.3513663" lon="5.9722158" version="1" timestamp="2022-08-13T17:39:26Z" changeset="124862296" uid="3497659" user="NKA">
		<tag k="name" v="Sandgota" />
		<tag k="place" v="farm" />
		<tag k="ssr:stedsnr" v="824610" />
	</node>
	<node id="9951310314" lat="62.3547913" lon="6.0720401" version="1" timestamp="2022-08-13T17:39:26Z" changeset="124862296" uid="3497659" user="NKA">
		<tag k="alt_name" v="Engane" />
		<tag k="name" v="Engene" />
		<tag k="place" v="farm" />
		<tag k="ssr:stedsnr" v="11829" />
	</node>
	<node id="9951310315" lat="62.3634075" lon="6.0508363" version="1" timestamp="2022-08-13T17:39:26Z" changeset="124862296" uid="3497659" user="NKA">
		<tag k="name" v="Hovleitet" />
		<tag k="place" v="farm" />
		<tag k="ssr:stedsnr" v="217610" />
	</node>
	<node id="9951310316" lat="62.3583981" lon="5.9681398" version="1" timestamp="2022-08-13T17:39:26Z" changeset="124862296" uid="3497659" user="NKA">
		<tag k="name" v="Vonheim" />
		<tag k="place" v="farm" />
		<tag k="ssr:stedsnr" v="399617" />
	</node>
	<node id="9951316417" lat="62.3445181" lon="6.0643871" version="1" timestamp="2022-08-13T17:39:26Z" changeset="124862296" uid="3497659" user="NKA">
		<tag k="name" v="Liavåg" />
		<tag k="place" v="hamlet" />
		<tag k="ssr:stedsnr" v="193846" />
	</node>
	<node id="9951316418" lat="62.3752499" lon="6.0208126" version="1" timestamp="2022-08-13T17:39:26Z" changeset="124862296" uid="3497659" user="NKA">
		<tag k="name" v="Teigane" />
		<tag k="place" v="farm" />
		<tag k="ssr:stedsnr" v="35650" />
	</node>
	<node id="9951316419" lat="62.3710027" lon="6.00793" version="1" timestamp="2022-08-13T17:39:26Z" changeset="124862296" uid="3497659" user="NKA">
		<tag k="name" v="Holstad" />
		<tag k="place" v="hamlet" />
		<tag k="ssr:stedsnr" v="71894" />
	</node>
	<node id="9951316420" lat="62.3807889" lon="5.9789225" version="1" timestamp="2022-08-13T17:39:26Z" changeset="124862296" uid="3497659" user="NKA">
		<tag k="historic" v="shieling" />
		<tag k="name" v="Håbakkselet" />
		<tag k="place" v="isolated_dwelling" />
		<tag k="ssr:stedsnr" v="131902" />
	</node>
	<node id="9951316421" lat="62.3404963" lon="5.9997326" version="1" timestamp="2022-08-13T17:39:26Z" changeset="124862296" uid="3497659" user="NKA">
		<tag k="alt_name" v="Bakken" />
		<tag k="name" v="Røysetbakken" />
		<tag k="place" v="farm" />
		<tag k="ssr:stedsnr" v="11792" />
	</node>
	<node id="9951316422" lat="62.3474611" lon="6.0726308" version="1" timestamp="2022-08-13T17:39:26Z" changeset="124862296" uid="3497659" user="NKA">
		<tag k="alt_name" v="Gåsneset" />
		<tag k="name" v="Gåsnes" />
		<tag k="place" v="farm" />
		<tag k="ssr:stedsnr" v="314835" />
	</node>
	<node id="9951316423" lat="62.3463964" lon="6.0538737" version="1" timestamp="2022-08-13T17:39:26Z" changeset="124862296" uid="3497659" user="NKA">
		<tag k="alt_name" v="Nedrelid;Nedre Li" />
		<tag k="name" v="Nerli" />
		<tag k="place" v="farm" />
		<tag k="ssr:stedsnr" v="678821" />
	</node>
	<node id="9951316424" lat="62.3229394" lon="6.0020001" version="1" timestamp="2022-08-13T17:39:26Z" changeset="124862296" uid="3497659" user="NKA">
		<tag k="name" v="Ulset" />
		<tag k="place" v="hamlet" />
		<tag k="ssr:stedsnr" v="375741" />
	</node>
	<node id="9951316425" lat="62.3378326" lon="5.995183" version="1" timestamp="2022-08-13T17:39:26Z" changeset="124862296" uid="3497659" user="NKA">
		<tag k="name" v="Gjerdingane" />
		<tag k="place" v="farm" />
		<tag k="ssr:stedsnr" v="945643" />
	</node>
	<node id="9951316426" lat="62.3157301" lon="5.9726745" version="1" timestamp="2022-08-13T17:39:26Z" changeset="124862296" uid="3497659" user="NKA">
		<tag k="name" v="Snipsøyr" />
		<tag k="place" v="hamlet" />
		<tag k="ssr:stedsnr" v="739771" />
	</node>
	<node id="9951316427" lat="62.3509759" lon="6.1068541" version="1" timestamp="2022-08-13T17:39:26Z" changeset="124862296" uid="3497659" user="NKA">
		<tag k="name" v="Hjørungneset" />
		<tag k="place" v="hamlet" />
		<tag k="ssr:stedsnr" v="678814" />
	</node>
	<node id="9951316428" lat="62.3029289" lon="5.9967566" version="1" timestamp="2022-08-13T17:39:26Z" changeset="124862296" uid="3497659" user="NKA">
		<tag k="name" v="Gjerdet" />
		<tag k="place" v="isolated_dwelling" />
		<tag k="ssr:stedsnr" v="961801" />
	</node>
	<node id="9951316429" lat="62.3713972" lon="5.9359975" version="1" timestamp="2022-08-13T17:39:26Z" changeset="124862296" uid="3497659" user="NKA">
		<tag k="alt_name" v="Bigsetsela" />
		<tag k="historic" v="shieling" />
		<tag k="name" v="Bigsetsætra" />
		<tag k="place" v="isolated_dwelling" />
		<tag k="ssr:stedsnr" v="860873" />
	</node>
	<node id="9951316430" lat="62.3515181" lon="6.0641236" version="1" timestamp="2022-08-13T17:39:26Z" changeset="124862296" uid="3497659" user="NKA">
		<tag k="alt_name" v="Pilskogane" />
		<tag k="name" v="Pilskog" />
		<tag k="place" v="farm" />
		<tag k="ssr:stedsnr" v="11857" />
	</node>
	<node id="9951316431" lat="62.359987" lon="6.0698838" version="1" timestamp="2022-08-13T17:39:26Z" changeset="124862296" uid="3497659" user="NKA">
		<tag k="name" v="Mon" />
		<tag k="place" v="isolated_dwelling" />
		<tag k="ssr:stedsnr" v="173875" />
	</node>
	<node id="9951316432" lat="62.3355744" lon="5.96466" version="1" timestamp="2022-08-13T17:39:26Z" changeset="124862296" uid="3497659" user="NKA">
		<tag k="name" v="Larsmorka" />
		<tag k="place" v="farm" />
		<tag k="ssr:stedsnr" v="399667" />
	</node>
	<node id="9951316433" lat="62.4085575" lon="6.0048822" version="1" timestamp="2022-08-13T17:39:26Z" changeset="124862296" uid="3497659" user="NKA">
		<tag k="name" v="Liset" />
		<tag k="place" v="farm" />
		<tag k="ssr:stedsnr" v="354914" />
	</node>
	<node id="9951316434" lat="62.3269491" lon="5.9253723" version="1" timestamp="2022-08-13T17:39:26Z" changeset="124862296" uid="3497659" user="NKA">
		<tag k="historic" v="shieling" />
		<tag k="name" v="Hammarstøylen" />
		<tag k="place" v="isolated_dwelling" />
		<tag k="ssr:stedsnr" v="945638" />
	</node>
	<node id="9951316435" lat="62.3689945" lon="6.0239308" version="1" timestamp="2022-08-13T17:39:26Z" changeset="124862296" uid="3497659" user="NKA">
		<tag k="name" v="Pålhaugen" />
		<tag k="place" v="farm" />
		<tag k="ssr:stedsnr" v="763628" />
	</node>
	<node id="9951316436" lat="62.3340117" lon="6.066734" version="1" timestamp="2022-08-13T17:39:26Z" changeset="124862296" uid="3497659" user="NKA">
		<tag k="name" v="Åsen" />
		<tag k="place" v="farm" />
		<tag k="ssr:stedsnr" v="800770" />
	</node>
	<node id="9951316437" lat="62.3247808" lon="6.0446468" version="1" timestamp="2022-08-13T17:39:26Z" changeset="124862296" uid="3497659" user="NKA">
		<tag k="alt_name" v="Engeskaret" />
		<tag k="name" v="Engjaskaret" />
		<tag k="place" v="hamlet" />
		<tag k="ssr:stedsnr" v="739767" />
	</node>
	<node id="9951316438" lat="62.3688056" lon="5.999317" version="1" timestamp="2022-08-13T17:39:26Z" changeset="124862296" uid="3497659" user="NKA">
		<tag k="name" v="Brettgarden" />
		<tag k="place" v="farm" />
		<tag k="ssr:stedsnr" v="860888" />
	</node>
	<node id="9951316439" lat="62.3779729" lon="6.0276154" version="1" timestamp="2022-08-13T17:39:26Z" changeset="124862296" uid="3497659" user="NKA">
		<tag k="alt_name" v="Håbakk" />
		<tag k="name" v="Håbakkane" />
		<tag k="place" v="farm" />
		<tag k="ssr:stedsnr" v="678841" />
	</node>
	<node id="9951316440" lat="62.2885222" lon="5.9565948" version="1" timestamp="2022-08-13T17:39:26Z" changeset="124862296" uid="3497659" user="NKA">
		<tag k="historic" v="shieling" />
		<tag k="name" v="Setra" />
		<tag k="place" v="isolated_dwelling" />
		<tag k="ssr:stedsnr" v="763625" />
	</node>
	<node id="9951316441" lat="62.3574639" lon="5.9738475" version="1" timestamp="2022-08-13T17:39:26Z" changeset="124862296" uid="3497659" user="NKA">
		<tag k="name" v="Toppholen" />
		<tag k="place" v="farm" />
		<tag k="ssr:stedsnr" v="556835" />
	</node>
	<node id="9951316442" lat="62.4063889" lon="5.982578" version="1" timestamp="2022-08-13T17:39:26Z" changeset="124862296" uid="3497659" user="NKA">
		<tag k="historic" v="shieling" />
		<tag k="name" v="Sætra" />
		<tag k="place" v="isolated_dwelling" />
		<tag k="ssr:stedsnr" v="617925" />
	</node>
	<node id="9951316443" lat="62.3767472" lon="5.955128" version="1" timestamp="2022-08-13T17:39:26Z" changeset="124862296" uid="3497659" user="NKA">
		<tag k="historic" v="shieling" />
		<tag k="name" v="Grimstadsætra" />
		<tag k="place" v="isolated_dwelling" />
		<tag k="ssr:stedsnr" v="556861" />
	</node>
</osm>
