<?xml version="1.0" encoding="UTF-8"?>
<osm version="0.6" generator="osmapis">
	<node id="130160764" lat="69.1454396" lon="18.1529623" version="6" timestamp="2022-07-06T09:01:39Z" changeset="123267535" uid="3497659" user="NKA">
		<tag k="name" v="Sørreisa - Orjješ-Ráisa" />
		<tag k="name:no" v="Sørreisa" />
		<tag k="name:se" v="Orjješ-Ráisa" />
		<tag k="old_name:se" v="Årjesraisa" />
		<tag k="place" v="village" />
		<tag k="population" v="1557" />
		<tag k="population:date" v="2021-01-01" />
		<tag k="ref:ssb_tettsted" v="8091" />
		<tag k="source:population" v="SSB - befolkning i tettstedet" />
		<tag k="ssr:stedsnr" v="205564" />
	</node>
	<node id="1394223935" lat="69.1081465" lon="18.0152046" version="2" timestamp="2022-07-06T09:01:39Z" changeset="123267535" uid="3497659" user="NKA">
		<tag k="name" v="Lyshaugen" />
		<tag k="place" v="hamlet" />
		<tag k="ssr:stedsnr" v="696382" />
	</node>
	<node id="9209112012" lat="69.1317376" lon="18.050821" version="2" timestamp="2022-07-06T09:01:39Z" changeset="123267535" uid="3497659" user="NKA">
		<tag k="alt_name" v="Skøelv" />
		<tag k="name" v="Skøelva" />
		<tag k="place" v="village" />
		<tag k="population" v="308" />
		<tag k="population:date" v="2021-01-01" />
		<tag k="ref:ssb_tettsted" v="8092" />
		<tag k="source:population" v="SSB - befolkning i tettstedet" />
		<tag k="ssr:stedsnr" v="564558" />
	</node>
	<node id="9869919171" lat="69.1363945" lon="18.1495749" version="1" timestamp="2022-07-06T09:01:39Z" changeset="123267535" uid="3497659" user="NKA">
		<tag k="name" v="Finntjeldet" />
		<tag k="place" v="locality" />
		<tag k="ssr:stedsnr" v="844860" />
	</node>
	<node id="9869919172" lat="69.0840528" lon="18.2266611" version="1" timestamp="2022-07-06T09:01:39Z" changeset="123267535" uid="3497659" user="NKA">
		<tag k="name" v="Sæterlibakken" />
		<tag k="place" v="farm" />
		<tag k="ssr:stedsnr" v="929573" />
	</node>
	<node id="9869919173" lat="69.0918596" lon="18.3463958" version="1" timestamp="2022-07-06T09:01:39Z" changeset="123267535" uid="3497659" user="NKA">
		<tag k="name" v="Nordhus" />
		<tag k="place" v="farm" />
		<tag k="ssr:stedsnr" v="18570" />
	</node>
	<node id="9869919174" lat="69.2040321" lon="18.2184053" version="1" timestamp="2022-07-06T09:01:39Z" changeset="123267535" uid="3497659" user="NKA">
		<tag k="name" v="Holtet" />
		<tag k="place" v="farm" />
		<tag k="ssr:stedsnr" v="806743" />
	</node>
	<node id="9869919175" lat="69.151975" lon="18.1931528" version="1" timestamp="2022-07-06T09:01:39Z" changeset="123267535" uid="3497659" user="NKA">
		<tag k="name" v="Nordli" />
		<tag k="place" v="farm" />
		<tag k="ssr:stedsnr" v="564544" />
	</node>
	<node id="9869919176" lat="69.1263833" lon="18.2108751" version="1" timestamp="2022-07-06T09:01:39Z" changeset="123267535" uid="3497659" user="NKA">
		<tag k="alt_name" v="Rørsletta" />
		<tag k="name" v="Røyrslett" />
		<tag k="place" v="farm" />
		<tag k="ssr:stedsnr" v="503521" />
	</node>
	<node id="9869919177" lat="69.2078274" lon="18.25052" version="1" timestamp="2022-07-06T09:01:39Z" changeset="123267535" uid="3497659" user="NKA">
		<tag k="alt_name" v="Rensvold" />
		<tag k="name" v="Reinsvoll" />
		<tag k="place" v="farm" />
		<tag k="ssr:stedsnr" v="685681" />
	</node>
	<node id="9869919178" lat="69.2114752" lon="18.2785937" version="1" timestamp="2022-07-06T09:01:39Z" changeset="123267535" uid="3497659" user="NKA">
		<tag k="alt_name" v="Grønvoll;Grønnvoll;Grønvold Mellem" />
		<tag k="name" v="Midtre Grønvoll" />
		<tag k="place" v="farm" />
		<tag k="ssr:stedsnr" v="685683" />
	</node>
	<node id="9869919179" lat="69.1606581" lon="18.1325189" version="1" timestamp="2022-07-06T09:01:39Z" changeset="123267535" uid="3497659" user="NKA">
		<tag k="name" v="Gottersjorda" />
		<tag k="place" v="quarter" />
		<tag k="ssr:stedsnr" v="564523" />
	</node>
	<node id="9869919180" lat="69.1334126" lon="18.071534" version="1" timestamp="2022-07-06T09:01:39Z" changeset="123267535" uid="3497659" user="NKA">
		<tag k="alt_name" v="Bakkejorden;Bakkejord" />
		<tag k="name" v="Bakkejorda" />
		<tag k="place" v="hamlet" />
		<tag k="ssr:stedsnr" v="685554" />
	</node>
	<node id="9869919181" lat="69.1295805" lon="18.2103807" version="1" timestamp="2022-07-06T09:01:39Z" changeset="123267535" uid="3497659" user="NKA">
		<tag k="name" v="Follstad" />
		<tag k="place" v="farm" />
		<tag k="ssr:stedsnr" v="321518" />
	</node>
	<node id="9869919182" lat="69.1468786" lon="18.1802321" version="1" timestamp="2022-07-06T09:01:39Z" changeset="123267535" uid="3497659" user="NKA">
		<tag k="name" v="Slettvoll" />
		<tag k="place" v="farm" />
		<tag k="ssr:stedsnr" v="625531" />
	</node>
	<node id="9869919183" lat="69.1754119" lon="18.1260933" version="1" timestamp="2022-07-06T09:01:39Z" changeset="123267535" uid="3497659" user="NKA">
		<tag k="name" v="Nordmo" />
		<tag k="place" v="farm" />
		<tag k="ssr:stedsnr" v="419671" />
	</node>
	<node id="9869919184" lat="69.2069975" lon="18.2505837" version="1" timestamp="2022-07-06T09:01:39Z" changeset="123267535" uid="3497659" user="NKA">
		<tag k="name" v="Reinelv" />
		<tag k="place" v="hamlet" />
		<tag k="ssr:stedsnr" v="390814" />
	</node>
	<node id="9869919185" lat="69.2127542" lon="18.2827606" version="1" timestamp="2022-07-06T09:01:39Z" changeset="123267535" uid="3497659" user="NKA">
		<tag k="alt_name" v="Grønvoll;Grønnvoll" />
		<tag k="name" v="Østre Grønvoll" />
		<tag k="place" v="farm" />
		<tag k="ssr:stedsnr" v="1077625" />
	</node>
	<node id="9869919186" lat="69.149375" lon="18.1800583" version="1" timestamp="2022-07-06T09:01:39Z" changeset="123267535" uid="3497659" user="NKA">
		<tag k="name" v="Steinsland" />
		<tag k="place" v="farm" />
		<tag k="ssr:stedsnr" v="443533" />
	</node>
	<node id="9869919187" lat="69.1181296" lon="18.4024576" version="1" timestamp="2022-07-06T09:01:39Z" changeset="123267535" uid="3497659" user="NKA">
		<tag k="name" v="Nordhussætra" />
		<tag k="place" v="locality" />
		<tag k="ssr:stedsnr" v="928559" />
	</node>
	<node id="9869919188" lat="69.1347585" lon="18.1593652" version="1" timestamp="2022-07-06T09:01:39Z" changeset="123267535" uid="3497659" user="NKA">
		<tag k="name" v="Sørstraumen" />
		<tag k="place" v="quarter" />
		<tag k="ssr:stedsnr" v="624556" />
	</node>
	<node id="9869919189" lat="69.0780789" lon="18.1989734" version="1" timestamp="2022-07-06T09:01:39Z" changeset="123267535" uid="3497659" user="NKA">
		<tag k="name" v="Fugleli" />
		<tag k="place" v="farm" />
		<tag k="ssr:stedsnr" v="139614" />
	</node>
	<node id="9869919190" lat="69.1293" lon="18.3989806" version="1" timestamp="2022-07-06T09:01:39Z" changeset="123267535" uid="3497659" user="NKA">
		<tag k="historic" v="shieling" />
		<tag k="name" v="Veltasætra" />
		<tag k="place" v="isolated_dwelling" />
		<tag k="ssr:stedsnr" v="719346" />
	</node>
	<node id="9869919191" lat="69.1266" lon="18.1699083" version="1" timestamp="2022-07-06T09:01:39Z" changeset="123267535" uid="3497659" user="NKA">
		<tag k="name" v="Bråten" />
		<tag k="place" v="farm" />
		<tag k="ssr:stedsnr" v="200566" />
	</node>
	<node id="9869919192" lat="69.1175639" lon="18.4088943" version="1" timestamp="2022-07-06T09:01:39Z" changeset="123267535" uid="3497659" user="NKA">
		<tag k="historic" v="shieling" />
		<tag k="name" v="Nystedsætra" />
		<tag k="place" v="isolated_dwelling" />
		<tag k="ssr:stedsnr" v="357899" />
	</node>
	<node id="9869919193" lat="69.1720861" lon="18.0891111" version="1" timestamp="2022-07-06T09:01:39Z" changeset="123267535" uid="3497659" user="NKA">
		<tag k="name" v="Valen" />
		<tag k="place" v="farm" />
		<tag k="ssr:stedsnr" v="55686" />
	</node>
	<node id="9869919194" lat="69.1480917" lon="18.174225" version="1" timestamp="2022-07-06T09:01:39Z" changeset="123267535" uid="3497659" user="NKA">
		<tag k="name" v="Steinhaug" />
		<tag k="place" v="farm" />
		<tag k="ssr:stedsnr" v="239350" />
	</node>
	<node id="9869919195" lat="69.1280321" lon="18.203734" version="1" timestamp="2022-07-06T09:01:39Z" changeset="123267535" uid="3497659" user="NKA">
		<tag k="name" v="Vollstad" />
		<tag k="place" v="farm" />
		<tag k="ssr:stedsnr" v="178349" />
	</node>
	<node id="9869919196" lat="69.1519084" lon="17.9907694" version="1" timestamp="2022-07-06T09:01:39Z" changeset="123267535" uid="3497659" user="NKA">
		<tag k="name" v="Innervik" />
		<tag k="place" v="farm" />
		<tag k="ssr:stedsnr" v="929270" />
	</node>
	<node id="9869919197" lat="69.1194334" lon="18.1833501" version="1" timestamp="2022-07-06T09:01:39Z" changeset="123267535" uid="3497659" user="NKA">
		<tag k="alt_name" v="Garmo" />
		<tag k="name" v="Gardmoen" />
		<tag k="place" v="farm" />
		<tag k="ssr:stedsnr" v="79549" />
	</node>
	<node id="9869919198" lat="69.0511973" lon="17.9360696" version="1" timestamp="2022-07-06T09:01:39Z" changeset="123267535" uid="3497659" user="NKA">
		<tag k="name" v="Nyli" />
		<tag k="place" v="farm" />
		<tag k="ssr:stedsnr" v="746327" />
	</node>
	<node id="9869919199" lat="69.138025" lon="18.1516223" version="1" timestamp="2022-07-06T09:01:39Z" changeset="123267535" uid="3497659" user="NKA">
		<tag k="name" v="Litleng" />
		<tag k="place" v="farm" />
		<tag k="ssr:stedsnr" v="140510" />
	</node>
	<node id="9869919200" lat="69.135525" lon="18.1482806" version="1" timestamp="2022-07-06T09:01:39Z" changeset="123267535" uid="3497659" user="NKA">
		<tag k="name" v="Nyeng" />
		<tag k="place" v="farm" />
		<tag k="ssr:stedsnr" v="140512" />
	</node>
	<node id="9869919201" lat="69.0471885" lon="17.9608155" version="1" timestamp="2022-07-06T09:01:39Z" changeset="123267535" uid="3497659" user="NKA">
		<tag k="name" v="Gumpedalen" />
		<tag k="place" v="hamlet" />
		<tag k="ssr:stedsnr" v="939445" />
	</node>
	<node id="9869919202" lat="69.1529611" lon="18.1573778" version="1" timestamp="2022-07-06T09:01:39Z" changeset="123267535" uid="3497659" user="NKA">
		<tag k="name" v="Nordgård" />
		<tag k="place" v="farm" />
		<tag k="ssr:stedsnr" v="139542" />
	</node>
	<node id="9869919203" lat="69.0495583" lon="17.9405029" version="1" timestamp="2022-07-06T09:01:39Z" changeset="123267535" uid="3497659" user="NKA">
		<tag k="name" v="Tangen" />
		<tag k="place" v="farm" />
		<tag k="ssr:stedsnr" v="748250" />
	</node>
	<node id="9869919204" lat="69.1486513" lon="18.0072809" version="1" timestamp="2022-07-06T09:01:39Z" changeset="123267535" uid="3497659" user="NKA">
		<tag k="name" v="Sildvika" />
		<tag k="place" v="hamlet" />
		<tag k="ssr:stedsnr" v="807518" />
	</node>
	<node id="9869919205" lat="69.0631321" lon="18.3861792" version="1" timestamp="2022-07-06T09:01:39Z" changeset="123267535" uid="3497659" user="NKA">
		<tag k="name" v="Sørhus" />
		<tag k="place" v="farm" />
		<tag k="ssr:stedsnr" v="443876" />
	</node>
	<node id="9869919206" lat="69.0796778" lon="17.9769529" version="1" timestamp="2022-07-06T09:01:39Z" changeset="123267535" uid="3497659" user="NKA">
		<tag k="name" v="Kvilstad" />
		<tag k="place" v="locality" />
		<tag k="ssr:stedsnr" v="597037" />
	</node>
	<node id="9869919207" lat="69.1573667" lon="18.1669335" version="1" timestamp="2022-07-06T09:01:39Z" changeset="123267535" uid="3497659" user="NKA">
		<tag k="name" v="Leirbogen" />
		<tag k="place" v="farm" />
		<tag k="ssr:stedsnr" v="139543" />
	</node>
	<node id="9869919208" lat="69.1462828" lon="18.1545846" version="1" timestamp="2022-07-06T09:01:39Z" changeset="123267535" uid="3497659" user="NKA">
		<tag k="name" v="Nordstraumen" />
		<tag k="place" v="farm" />
		<tag k="ssr:stedsnr" v="55875" />
	</node>
	<node id="9869919209" lat="69.0352889" lon="18.0393471" version="1" timestamp="2022-07-06T09:01:39Z" changeset="123267535" uid="3497659" user="NKA">
		<tag k="name" v="Kvannjorda" />
		<tag k="place" v="locality" />
		<tag k="ssr:stedsnr" v="596147" />
	</node>
	<node id="9869919210" lat="69.1350444" lon="18.1673279" version="1" timestamp="2022-07-06T09:01:39Z" changeset="123267535" uid="3497659" user="NKA">
		<tag k="name" v="Lund" />
		<tag k="place" v="farm" />
		<tag k="ssr:stedsnr" v="55869" />
	</node>
	<node id="9869919211" lat="69.0826472" lon="18.0442527" version="1" timestamp="2022-07-06T09:01:39Z" changeset="123267535" uid="3497659" user="NKA">
		<tag k="name" v="Sætermoen" />
		<tag k="place" v="farm" />
		<tag k="ssr:stedsnr" v="296914" />
	</node>
	<node id="9869919212" lat="69.0406444" lon="18.0082332" version="1" timestamp="2022-07-06T09:01:39Z" changeset="123267535" uid="3497659" user="NKA">
		<tag k="alt_name" v="Austgård" />
		<tag k="name" v="Østgård" />
		<tag k="place" v="farm" />
		<tag k="ssr:stedsnr" v="261868" />
	</node>
	<node id="9869919213" lat="69.0968706" lon="17.9989668" version="1" timestamp="2022-07-06T09:01:39Z" changeset="123267535" uid="3497659" user="NKA">
		<tag k="name" v="Solberg" />
		<tag k="place" v="farm" />
		<tag k="ssr:stedsnr" v="756356" />
	</node>
	<node id="9869919214" lat="69.1254111" lon="18.0351361" version="1" timestamp="2022-07-06T09:01:39Z" changeset="123267535" uid="3497659" user="NKA">
		<tag k="name" v="Pålsjorda" />
		<tag k="place" v="farm" />
		<tag k="ssr:stedsnr" v="443550" />
	</node>
	<node id="9869919215" lat="69.1419965" lon="18.1514942" version="1" timestamp="2022-07-06T09:01:39Z" changeset="123267535" uid="3497659" user="NKA">
		<tag k="name" v="Haugen" />
		<tag k="place" v="farm" />
		<tag k="ssr:stedsnr" v="55853" />
	</node>
	<node id="9869919216" lat="69.2052551" lon="18.2375298" version="1" timestamp="2022-07-06T09:01:39Z" changeset="123267535" uid="3497659" user="NKA">
		<tag k="name" v="Seljemoen" />
		<tag k="place" v="farm" />
		<tag k="ssr:stedsnr" v="928676" />
	</node>
	<node id="9869923517" lat="69.0450083" lon="17.9689389" version="1" timestamp="2022-07-06T09:01:39Z" changeset="123267535" uid="3497659" user="NKA">
		<tag k="alt_name" v="Sandmoen" />
		<tag k="name" v="Sandmo" />
		<tag k="place" v="farm" />
		<tag k="ssr:stedsnr" v="868316" />
	</node>
	<node id="9869923518" lat="69.1967612" lon="18.0689419" version="1" timestamp="2022-07-06T09:01:39Z" changeset="123267535" uid="3497659" user="NKA">
		<tag k="alt_name" v="Hemmingsjord" />
		<tag k="name" v="Hemmingsjorda" />
		<tag k="place" v="hamlet" />
		<tag k="ssr:stedsnr" v="329494" />
	</node>
	<node id="9869923519" lat="69.1339111" lon="18.1879306" version="1" timestamp="2022-07-06T09:01:39Z" changeset="123267535" uid="3497659" user="NKA">
		<tag k="alt_name" v="Varnes" />
		<tag k="name" v="Vardnes" />
		<tag k="place" v="farm" />
		<tag k="ssr:stedsnr" v="382527" />
	</node>
	<node id="9869923520" lat="69.2050083" lon="18.2619971" version="1" timestamp="2022-07-06T09:01:39Z" changeset="123267535" uid="3497659" user="NKA">
		<tag k="name" v="Reinelvmoen" />
		<tag k="place" v="farm" />
		<tag k="ssr:stedsnr" v="685692" />
	</node>
	<node id="9869923521" lat="69.18945" lon="18.0581556" version="1" timestamp="2022-07-06T09:01:39Z" changeset="123267535" uid="3497659" user="NKA">
		<tag k="name" v="Kongsvika" />
		<tag k="place" v="farm" />
		<tag k="ssr:stedsnr" v="564694" />
	</node>
	<node id="9869923522" lat="69.2136864" lon="18.2861668" version="1" timestamp="2022-07-06T09:01:39Z" changeset="123267535" uid="3497659" user="NKA">
		<tag k="name" v="Fagerlund" />
		<tag k="place" v="farm" />
		<tag k="ssr:stedsnr" v="260741" />
	</node>
	<node id="9869923523" lat="69.1790326" lon="18.0668921" version="1" timestamp="2022-07-06T09:01:39Z" changeset="123267535" uid="3497659" user="NKA">
		<tag k="alt_name" v="Grunnreis" />
		<tag k="name" v="Grunnreisa" />
		<tag k="place" v="hamlet" />
		<tag k="ssr:stedsnr" v="26901" />
	</node>
	<node id="9869923524" lat="69.2106878" lon="18.271956" version="1" timestamp="2022-07-06T09:01:39Z" changeset="123267535" uid="3497659" user="NKA">
		<tag k="alt_name" v="Grønvold Vestre;Grønvoll;Grønnvoll" />
		<tag k="name" v="Vestre Grønvoll" />
		<tag k="place" v="farm" />
		<tag k="ssr:stedsnr" v="846209" />
	</node>
	<node id="9869923525" lat="69.132575" lon="18.0821751" version="1" timestamp="2022-07-06T09:01:39Z" changeset="123267535" uid="3497659" user="NKA">
		<tag k="name" v="Vikbakken" />
		<tag k="place" v="farm" />
		<tag k="ssr:stedsnr" v="79515" />
	</node>
	<node id="9869923526" lat="69.039761" lon="18.0159586" version="1" timestamp="2022-07-06T09:01:39Z" changeset="123267535" uid="3497659" user="NKA">
		<tag k="name" v="Nygård" />
		<tag k="place" v="farm" />
		<tag k="ssr:stedsnr" v="19902" />
	</node>
	<node id="9869923527" lat="69.0453389" lon="17.9248889" version="1" timestamp="2022-07-06T09:01:39Z" changeset="123267535" uid="3497659" user="NKA">
		<tag k="name" v="Østlund" />
		<tag k="place" v="farm" />
		<tag k="ssr:stedsnr" v="748251" />
	</node>
	<node id="9869923528" lat="69.0427611" lon="17.988586" version="1" timestamp="2022-07-06T09:01:39Z" changeset="123267535" uid="3497659" user="NKA">
		<tag k="alt_name" v="Vestgård;Westgård" />
		<tag k="name" v="Gumpedalen" />
		<tag k="place" v="farm" />
		<tag k="ssr:stedsnr" v="52058" />
	</node>
	<node id="9869923529" lat="69.0491967" lon="17.9304067" version="1" timestamp="2022-07-06T09:01:39Z" changeset="123267535" uid="3497659" user="NKA">
		<tag k="alt_name" v="Slettli;Slettlien" />
		<tag k="name" v="Slettlia" />
		<tag k="place" v="farm" />
		<tag k="ssr:stedsnr" v="384247" />
	</node>
	<node id="9869923530" lat="69.2181295" lon="18.2998072" version="1" timestamp="2022-07-06T09:01:39Z" changeset="123267535" uid="3497659" user="NKA">
		<tag k="name" v="Grønvoll" />
		<tag k="place" v="hamlet" />
		<tag k="ssr:stedsnr" v="18642" />
	</node>
	<node id="9869923531" lat="69.2086814" lon="18.2085666" version="1" timestamp="2022-07-06T09:01:39Z" changeset="123267535" uid="3497659" user="NKA">
		<tag k="name" v="Langnes" />
		<tag k="place" v="farm" />
		<tag k="ssr:stedsnr" v="138727" />
	</node>
	<node id="9869923532" lat="69.1153444" lon="18.0154499" version="1" timestamp="2022-07-06T09:01:39Z" changeset="123267535" uid="3497659" user="NKA">
		<tag k="name" v="Høgmoen" />
		<tag k="place" v="farm" />
		<tag k="ssr:stedsnr" v="965841" />
	</node>
	<node id="9869923533" lat="69.1649112" lon="18.1055754" version="1" timestamp="2022-07-06T09:01:39Z" changeset="123267535" uid="3497659" user="NKA">
		<tag k="name" v="Gammelheimen" />
		<tag k="place" v="farm" />
		<tag k="ssr:stedsnr" v="1077624" />
	</node>
	<node id="9869923534" lat="69.1704363" lon="18.114831" version="1" timestamp="2022-07-06T09:01:39Z" changeset="123267535" uid="3497659" user="NKA">
		<tag k="alt_name" v="Djupvågen" />
		<tag k="name" v="Djupvåg" />
		<tag k="place" v="village" />
		<tag k="ssr:stedsnr" v="572921" />
	</node>
	<node id="9869923535" lat="69.1622404" lon="18.0917195" version="1" timestamp="2022-07-06T09:01:39Z" changeset="123267535" uid="3497659" user="NKA">
		<tag k="name" v="Forøya" />
		<tag k="place" v="farm" />
		<tag k="ssr:stedsnr" v="564526" />
	</node>
	<node id="9869923536" lat="69.1706469" lon="18.0946638" version="1" timestamp="2022-07-06T09:01:39Z" changeset="123267535" uid="3497659" user="NKA">
		<tag k="name" v="Myrbakken" />
		<tag k="place" v="farm" />
		<tag k="ssr:stedsnr" v="176651" />
	</node>
	<node id="9869923537" lat="69.1611302" lon="18.1174969" version="1" timestamp="2022-07-06T09:01:39Z" changeset="123267535" uid="3497659" user="NKA">
		<tag k="alt_name" v="Gottersjorden;Gottersjord" />
		<tag k="name" v="Gottersjorda" />
		<tag k="place" v="farm" />
		<tag k="ssr:stedsnr" v="451930" />
	</node>
	<node id="9869923538" lat="69.1285" lon="18.0447501" version="1" timestamp="2022-07-06T09:01:39Z" changeset="123267535" uid="3497659" user="NKA">
		<tag k="name" v="Lavollen" />
		<tag k="place" v="farm" />
		<tag k="ssr:stedsnr" v="685552" />
	</node>
	<node id="9869923539" lat="69.162457" lon="18.0998455" version="1" timestamp="2022-07-06T09:01:39Z" changeset="123267535" uid="3497659" user="NKA">
		<tag k="name" v="Furøy" />
		<tag k="old_name" v="Forøya" />
		<tag k="place" v="hamlet" />
		<tag k="ssr:stedsnr" v="147910" />
	</node>
	<node id="9869923540" lat="69.0513527" lon="17.9449861" version="1" timestamp="2022-07-06T09:01:39Z" changeset="123267535" uid="3497659" user="NKA">
		<tag k="name" v="Heimdal" />
		<tag k="place" v="farm" />
		<tag k="ssr:stedsnr" v="504311" />
	</node>
	<node id="9869923541" lat="69.1520944" lon="17.9853306" version="1" timestamp="2022-07-06T09:01:39Z" changeset="123267535" uid="3497659" user="NKA">
		<tag k="name" v="Yttervik" />
		<tag k="place" v="farm" />
		<tag k="ssr:stedsnr" v="382305" />
	</node>
	<node id="9869923542" lat="69.12185" lon="18.0396001" version="1" timestamp="2022-07-06T09:01:39Z" changeset="123267535" uid="3497659" user="NKA">
		<tag k="name" v="Rognlia" />
		<tag k="place" v="farm" />
		<tag k="ssr:stedsnr" v="503526" />
	</node>
	<node id="9869923543" lat="69.1010618" lon="17.9966182" version="1" timestamp="2022-07-06T09:01:39Z" changeset="123267535" uid="3497659" user="NKA">
		<tag k="name" v="Slettnes" />
		<tag k="place" v="farm" />
		<tag k="ssr:stedsnr" v="18241" />
	</node>
	<node id="9869923544" lat="69.1290583" lon="17.9796889" version="1" timestamp="2022-07-06T09:01:39Z" changeset="123267535" uid="3497659" user="NKA">
		<tag k="name" v="Brakka" />
		<tag k="place" v="locality" />
		<tag k="ssr:stedsnr" v="840111" />
	</node>
	<node id="9869923545" lat="69.0995164" lon="18.0283546" version="1" timestamp="2022-07-06T09:01:39Z" changeset="123267535" uid="3497659" user="NKA">
		<tag k="alt_name" v="Skjelhaug" />
		<tag k="name" v="Skjellhaug" />
		<tag k="place" v="farm" />
		<tag k="ssr:stedsnr" v="503552" />
	</node>
	<node id="9869923546" lat="69.115275" lon="18.0294749" version="1" timestamp="2022-07-06T09:01:39Z" changeset="123267535" uid="3497659" user="NKA">
		<tag k="name" v="Forsmoen" />
		<tag k="place" v="farm" />
		<tag k="ssr:stedsnr" v="321542" />
	</node>
	<node id="9869923547" lat="69.1010166" lon="17.9999667" version="1" timestamp="2022-07-06T09:01:39Z" changeset="123267535" uid="3497659" user="NKA">
		<tag k="name" v="Lunde" />
		<tag k="place" v="hamlet" />
		<tag k="ssr:stedsnr" v="355036" />
	</node>
	<node id="9869923548" lat="69.1091028" lon="18.024136" version="1" timestamp="2022-07-06T09:01:39Z" changeset="123267535" uid="3497659" user="NKA">
		<tag k="name" v="Skoglund" />
		<tag k="place" v="farm" />
		<tag k="ssr:stedsnr" v="200579" />
	</node>
	<node id="9869923549" lat="69.0933389" lon="17.9898666" version="1" timestamp="2022-07-06T09:01:39Z" changeset="123267535" uid="3497659" user="NKA">
		<tag k="name" v="Dalgård" />
		<tag k="place" v="farm" />
		<tag k="ssr:stedsnr" v="382239" />
	</node>
	<node id="9869923550" lat="69.0459905" lon="17.970843" version="1" timestamp="2022-07-06T09:01:39Z" changeset="123267535" uid="3497659" user="NKA">
		<tag k="name" v="Kjerreng" />
		<tag k="place" v="farm" />
		<tag k="ssr:stedsnr" v="79316" />
	</node>
	<node id="9869923551" lat="69.0455538" lon="17.9614826" version="1" timestamp="2022-07-06T09:01:39Z" changeset="123267535" uid="3497659" user="NKA">
		<tag k="alt_name" v="Vestgård, nedre" />
		<tag k="name" v="Nedre Vestgård" />
		<tag k="old_name" v="Vestgård" />
		<tag k="place" v="farm" />
		<tag k="ssr:stedsnr" v="868315" />
	</node>
	<node id="9869923552" lat="69.126075" lon="18.0486834" version="1" timestamp="2022-07-06T09:01:39Z" changeset="123267535" uid="3497659" user="NKA">
		<tag k="name" v="Åsland" />
		<tag k="place" v="farm" />
		<tag k="ssr:stedsnr" v="261569" />
	</node>
	<node id="9869923553" lat="69.0994224" lon="18.1917165" version="1" timestamp="2022-07-06T09:01:39Z" changeset="123267535" uid="3497659" user="NKA">
		<tag k="name" v="Sørforsbogen" />
		<tag k="place" v="farm" />
		<tag k="ssr:stedsnr" v="974164" />
	</node>
	<node id="9869923554" lat="69.1170806" lon="18.0372222" version="1" timestamp="2022-07-06T09:01:39Z" changeset="123267535" uid="3497659" user="NKA">
		<tag k="name" v="Fossbakken" />
		<tag k="place" v="farm" />
		<tag k="ssr:stedsnr" v="261582" />
	</node>
	<node id="9869923555" lat="69.1442528" lon="17.9406339" version="1" timestamp="2022-07-06T09:01:39Z" changeset="123267535" uid="3497659" user="NKA">
		<tag k="name" v="Bjørga" />
		<tag k="place" v="hamlet" />
		<tag k="ssr:stedsnr" v="26725" />
	</node>
	<node id="9869923556" lat="69.1237278" lon="18.176336" version="1" timestamp="2022-07-06T09:01:39Z" changeset="123267535" uid="3497659" user="NKA">
		<tag k="name" v="Vårum" />
		<tag k="place" v="farm" />
		<tag k="ssr:stedsnr" v="807564" />
	</node>
	<node id="9869923557" lat="69.089275" lon="18.0356417" version="1" timestamp="2022-07-06T09:01:39Z" changeset="123267535" uid="3497659" user="NKA">
		<tag k="name" v="Middagsmoen" />
		<tag k="place" v="farm" />
		<tag k="ssr:stedsnr" v="200591" />
	</node>
	<node id="9869923558" lat="69.0966151" lon="17.994501" version="1" timestamp="2022-07-06T09:01:39Z" changeset="123267535" uid="3497659" user="NKA">
		<tag k="alt_name" v="Solborg" />
		<tag k="name" v="Solborgtun" />
		<tag k="place" v="farm" />
		<tag k="ssr:stedsnr" v="200255" />
	</node>
	<node id="9869923559" lat="69.0801868" lon="18.1802871" version="1" timestamp="2022-07-06T09:01:39Z" changeset="123267535" uid="3497659" user="NKA">
		<tag k="name" v="Sørforslia" />
		<tag k="place" v="farm" />
		<tag k="ssr:stedsnr" v="322593" />
	</node>
	<node id="9869923560" lat="69.1165333" lon="18.2011332" version="1" timestamp="2022-07-06T09:01:39Z" changeset="123267535" uid="3497659" user="NKA">
		<tag k="name" v="Nermoen" />
		<tag k="place" v="farm" />
		<tag k="ssr:stedsnr" v="261579" />
	</node>
	<node id="9869923561" lat="69.1109088" lon="18.0085465" version="1" timestamp="2022-07-06T09:01:39Z" changeset="123267535" uid="3497659" user="NKA">
		<tag k="name" v="Skøelvdalen" />
		<tag k="place" v="farm" />
		<tag k="ssr:stedsnr" v="51106" />
	</node>
	<node id="9869923562" lat="69.0963804" lon="18.0260827" version="1" timestamp="2022-07-06T09:01:39Z" changeset="123267535" uid="3497659" user="NKA">
		<tag k="name" v="Skogstad" />
		<tag k="place" v="farm" />
		<tag k="ssr:stedsnr" v="139596" />
	</node>
	<node id="9869923563" lat="69.0892212" lon="17.9787917" version="1" timestamp="2022-07-06T09:01:39Z" changeset="123267535" uid="3497659" user="NKA">
		<tag k="alt_name" v="Reinakslen" />
		<tag k="name" v="Reinaksla" />
		<tag k="place" v="farm" />
		<tag k="ssr:stedsnr" v="52038" />
	</node>
	<node id="9869923564" lat="69.1415778" lon="18.1715751" version="1" timestamp="2022-07-06T09:01:39Z" changeset="123267535" uid="3497659" user="NKA">
		<tag k="name" v="Nordstraumen" />
		<tag k="place" v="quarter" />
		<tag k="ssr:stedsnr" v="929520" />
	</node>
	<node id="9869923565" lat="69.1115119" lon="18.1975426" version="1" timestamp="2022-07-06T09:01:39Z" changeset="123267535" uid="3497659" user="NKA">
		<tag k="name" v="Øvermoen" />
		<tag k="place" v="hamlet" />
		<tag k="ssr:stedsnr" v="18528" />
	</node>
	<node id="9869923566" lat="69.1357111" lon="18.1868055" version="1" timestamp="2022-07-06T09:01:39Z" changeset="123267535" uid="3497659" user="NKA">
		<tag k="name" v="Nordstraumen" />
		<tag k="place" v="farm" />
		<tag k="ssr:stedsnr" v="906370" />
	</node>
	<node id="9869923567" lat="69.1471094" lon="18.0561565" version="1" timestamp="2022-07-06T09:01:39Z" changeset="123267535" uid="3497659" user="NKA">
		<tag k="name" v="Smørsgård" />
		<tag k="place" v="hamlet" />
		<tag k="ssr:stedsnr" v="451936" />
	</node>
	<node id="9869923568" lat="69.0765344" lon="18.1943526" version="1" timestamp="2022-07-06T09:01:39Z" changeset="123267535" uid="3497659" user="NKA">
		<tag k="name" v="Rabbåsen" />
		<tag k="place" v="hamlet" />
		<tag k="ssr:stedsnr" v="564615" />
	</node>
	<node id="9869923569" lat="69.0801792" lon="18.2411452" version="1" timestamp="2022-07-06T09:01:39Z" changeset="123267535" uid="3497659" user="NKA">
		<tag k="name" v="Høgli" />
		<tag k="place" v="farm" />
		<tag k="ssr:stedsnr" v="625617" />
	</node>
	<node id="9869923570" lat="69.1099778" lon="18.2147306" version="1" timestamp="2022-07-06T09:01:39Z" changeset="123267535" uid="3497659" user="NKA">
		<tag k="alt_name" v="Åsmo" />
		<tag k="name" v="Åsmoen" />
		<tag k="place" v="farm" />
		<tag k="ssr:stedsnr" v="807557" />
	</node>
	<node id="9869923571" lat="69.0978389" lon="18.2709721" version="1" timestamp="2022-07-06T09:01:39Z" changeset="123267535" uid="3497659" user="NKA">
		<tag k="name" v="Rabban" />
		<tag k="place" v="isolated_dwelling" />
		<tag k="ssr:stedsnr" v="686587" />
	</node>
	<node id="9869923572" lat="69.0858283" lon="18.2338417" version="1" timestamp="2022-07-06T09:01:39Z" changeset="123267535" uid="3497659" user="NKA">
		<tag k="name" v="Sætermoen" />
		<tag k="place" v="farm" />
		<tag k="ssr:stedsnr" v="322604" />
	</node>
	<node id="9869923573" lat="69.0924555" lon="18.0326973" version="1" timestamp="2022-07-06T09:01:39Z" changeset="123267535" uid="3497659" user="NKA">
		<tag k="name" v="Skaret" />
		<tag k="place" v="hamlet" />
		<tag k="ssr:stedsnr" v="357877" />
	</node>
	<node id="9869923574" lat="69.1120611" lon="18.2202001" version="1" timestamp="2022-07-06T09:01:39Z" changeset="123267535" uid="3497659" user="NKA">
		<tag k="alt_name" v="Øvre Finnset" />
		<tag k="name" v="Finnset" />
		<tag k="place" v="farm" />
		<tag k="ssr:stedsnr" v="686577" />
	</node>
	<node id="9869923575" lat="69.0934972" lon="18.3028668" version="1" timestamp="2022-07-06T09:01:39Z" changeset="123267535" uid="3497659" user="NKA">
		<tag k="name" v="Skomakerrommet" />
		<tag k="place" v="locality" />
		<tag k="ssr:stedsnr" v="722366" />
	</node>
	<node id="9869923576" lat="69.1264333" lon="18.217475" version="1" timestamp="2022-07-06T09:01:39Z" changeset="123267535" uid="3497659" user="NKA">
		<tag k="name" v="Lundberg" />
		<tag k="place" v="farm" />
		<tag k="ssr:stedsnr" v="685542" />
	</node>
	<node id="9869923577" lat="69.0738694" lon="18.1904416" version="1" timestamp="2022-07-06T09:01:39Z" changeset="123267535" uid="3497659" user="NKA">
		<tag k="name" v="Storforsli" />
		<tag k="place" v="farm" />
		<tag k="ssr:stedsnr" v="661330" />
	</node>
	<node id="9869923578" lat="69.0865588" lon="18.2314673" version="1" timestamp="2022-07-06T09:01:39Z" changeset="123267535" uid="3497659" user="NKA">
		<tag k="name" v="Sæterli" />
		<tag k="place" v="farm" />
		<tag k="ssr:stedsnr" v="200614" />
	</node>
	<node id="9869923579" lat="69.0761639" lon="18.1820584" version="1" timestamp="2022-07-06T09:01:39Z" changeset="123267535" uid="3497659" user="NKA">
		<tag k="name" v="Solheim" />
		<tag k="place" v="farm" />
		<tag k="ssr:stedsnr" v="261614" />
	</node>
	<node id="9869923580" lat="69.1552382" lon="18.1788478" version="1" timestamp="2022-07-06T09:01:39Z" changeset="123267535" uid="3497659" user="NKA">
		<tag k="alt_name" v="Storflaten" />
		<tag k="name" v="Storflata" />
		<tag k="place" v="farm" />
		<tag k="ssr:stedsnr" v="504539" />
	</node>
	<node id="9869923581" lat="69.0988734" lon="18.3133995" version="1" timestamp="2022-07-06T09:01:39Z" changeset="123267535" uid="3497659" user="NKA">
		<tag k="name" v="Solstad" />
		<tag k="place" v="farm" />
		<tag k="ssr:stedsnr" v="504586" />
	</node>
	<node id="9869923582" lat="69.0959333" lon="18.1923223" version="1" timestamp="2022-07-06T09:01:39Z" changeset="123267535" uid="3497659" user="NKA">
		<tag k="name" v="Sørfossbogen" />
		<tag k="place" v="hamlet" />
		<tag k="ssr:stedsnr" v="479495" />
	</node>
	<node id="9869923583" lat="69.1132833" lon="18.2074416" version="1" timestamp="2022-07-06T09:01:39Z" changeset="123267535" uid="3497659" user="NKA">
		<tag k="name" v="Moen" />
		<tag k="place" v="farm" />
		<tag k="ssr:stedsnr" v="481294" />
	</node>
	<node id="9869923584" lat="69.1751834" lon="18.1308279" version="1" timestamp="2022-07-06T09:01:39Z" changeset="123267535" uid="3497659" user="NKA">
		<tag k="alt_name" v="Sørmo" />
		<tag k="name" v="Sørmoen" />
		<tag k="place" v="farm" />
		<tag k="ssr:stedsnr" v="443708" />
	</node>
	<node id="9869923585" lat="69.1931211" lon="18.0604112" version="1" timestamp="2022-07-06T09:01:39Z" changeset="123267535" uid="3497659" user="NKA">
		<tag k="name" v="Søvika" />
		<tag k="place" v="locality" />
		<tag k="ssr:stedsnr" v="928682" />
	</node>
	<node id="9869923586" lat="69.1038342" lon="18.196915" version="1" timestamp="2022-07-06T09:01:39Z" changeset="123267535" uid="3497659" user="NKA">
		<tag k="name" v="Sørforsbogen" />
		<tag k="place" v="farm" />
		<tag k="ssr:stedsnr" v="443577" />
	</node>
	<node id="9869923587" lat="69.1426436" lon="18.1271005" version="1" timestamp="2022-07-06T09:01:39Z" changeset="123267535" uid="3497659" user="NKA">
		<tag k="name" v="Sørstraumen" />
		<tag k="place" v="quarter" />
		<tag k="ssr:stedsnr" v="389517" />
	</node>
	<node id="9869923588" lat="69.1986611" lon="18.0702527" version="1" timestamp="2022-07-06T09:01:39Z" changeset="123267535" uid="3497659" user="NKA">
		<tag k="alt_name" v="Hemmingsjorden" />
		<tag k="name" v="Hemingjord" />
		<tag k="place" v="farm" />
		<tag k="ssr:stedsnr" v="928680" />
	</node>
	<node id="9869923589" lat="69.1323139" lon="18.1655667" version="1" timestamp="2022-07-06T09:01:39Z" changeset="123267535" uid="3497659" user="NKA">
		<tag k="name" v="Storneset" />
		<tag k="place" v="farm" />
		<tag k="ssr:stedsnr" v="55863" />
	</node>
	<node id="9869923590" lat="69.1189957" lon="18.2207472" version="1" timestamp="2022-07-06T09:01:39Z" changeset="123267535" uid="3497659" user="NKA">
		<tag k="name" v="Finnset" />
		<tag k="place" v="farm" />
		<tag k="ssr:stedsnr" v="299382" />
	</node>
	<node id="9869923591" lat="69.134709" lon="18.0883839" version="1" timestamp="2022-07-06T09:01:39Z" changeset="123267535" uid="3497659" user="NKA">
		<tag k="name" v="Fjellstad" />
		<tag k="place" v="farm" />
		<tag k="ssr:stedsnr" v="79514" />
	</node>
	<node id="9869923592" lat="69.1409635" lon="18.1709244" version="1" timestamp="2022-07-06T09:01:39Z" changeset="123267535" uid="3497659" user="NKA">
		<tag k="name" v="Liland" />
		<tag k="place" v="farm" />
		<tag k="ssr:stedsnr" v="79517" />
	</node>
	<node id="9869923593" lat="69.0606337" lon="18.1998631" version="1" timestamp="2022-07-06T09:01:39Z" changeset="123267535" uid="3497659" user="NKA">
		<tag k="name" v="Lynghaug" />
		<tag k="place" v="farm" />
		<tag k="ssr:stedsnr" v="79875" />
	</node>
	<node id="9869923594" lat="69.112975" lon="18.2134083" version="1" timestamp="2022-07-06T09:01:39Z" changeset="123267535" uid="3497659" user="NKA">
		<tag k="name" v="Finnsete" />
		<tag k="place" v="locality" />
		<tag k="ssr:stedsnr" v="57330" />
	</node>
	<node id="9869923595" lat="69.1194837" lon="18.2154967" version="1" timestamp="2022-07-06T09:01:39Z" changeset="123267535" uid="3497659" user="NKA">
		<tag k="name" v="Finnset" />
		<tag k="place" v="hamlet" />
		<tag k="ssr:stedsnr" v="928544" />
	</node>
	<node id="9869923596" lat="69.0437945" lon="17.982589" version="1" timestamp="2022-07-06T09:01:39Z" changeset="123267535" uid="3497659" user="NKA">
		<tag k="alt_name" v="Vestgård, øvre" />
		<tag k="name" v="Øvre Vestgård" />
		<tag k="place" v="farm" />
		<tag k="ssr:stedsnr" v="746316" />
	</node>
	<node id="9869923597" lat="69.0816667" lon="18.1792417" version="1" timestamp="2022-07-06T09:01:39Z" changeset="123267535" uid="3497659" user="NKA">
		<tag k="alt_name" v="Sørfossmoen" />
		<tag k="name" v="Sørforsmoen" />
		<tag k="place" v="farm" />
		<tag k="ssr:stedsnr" v="18566" />
	</node>
	<node id="9869923598" lat="69.0581778" lon="18.4591749" version="1" timestamp="2022-07-06T09:01:39Z" changeset="123267535" uid="3497659" user="NKA">
		<tag k="name" v="Amundrommet" />
		<tag k="place" v="locality" />
		<tag k="ssr:stedsnr" v="826641" />
	</node>
	<node id="9869923599" lat="69.0809778" lon="18.1949973" version="1" timestamp="2022-07-06T09:01:39Z" changeset="123267535" uid="3497659" user="NKA">
		<tag k="name" v="Sæterslett" />
		<tag k="place" v="farm" />
		<tag k="ssr:stedsnr" v="18565" />
	</node>
	<node id="9869923600" lat="69.1765694" lon="18.0834916" version="1" timestamp="2022-07-06T09:01:39Z" changeset="123267535" uid="3497659" user="NKA">
		<tag k="alt_name" v="Tømmervik" />
		<tag k="name" v="Tømmervika" />
		<tag k="place" v="hamlet" />
		<tag k="ssr:stedsnr" v="18665" />
	</node>
	<node id="9869923601" lat="69.1598806" lon="18.1553251" version="1" timestamp="2022-07-06T09:01:39Z" changeset="123267535" uid="3497659" user="NKA">
		<tag k="name" v="Tunvoll" />
		<tag k="place" v="farm" />
		<tag k="ssr:stedsnr" v="18469" />
	</node>
	<node id="9869923602" lat="69.0966408" lon="18.3264544" version="1" timestamp="2022-07-06T09:01:39Z" changeset="123267535" uid="3497659" user="NKA">
		<tag k="name" v="Nyhus" />
		<tag k="place" v="hamlet" />
		<tag k="ssr:stedsnr" v="443567" />
	</node>
	<node id="9869923603" lat="69.081325" lon="18.3627972" version="1" timestamp="2022-07-06T09:01:39Z" changeset="123267535" uid="3497659" user="NKA">
		<tag k="name" v="Nesvollen" />
		<tag k="place" v="farm" />
		<tag k="ssr:stedsnr" v="686622" />
	</node>
	<node id="9869923604" lat="69.0872389" lon="18.35375" version="1" timestamp="2022-07-06T09:01:39Z" changeset="123267535" uid="3497659" user="NKA">
		<tag k="alt_name" v="Nysted" />
		<tag k="name" v="Nystad" />
		<tag k="place" v="farm" />
		<tag k="ssr:stedsnr" v="382587" />
	</node>
	<node id="9869923605" lat="69.0775473" lon="18.3736444" version="1" timestamp="2022-07-06T09:01:39Z" changeset="123267535" uid="3497659" user="NKA">
		<tag k="name" v="Fagerheim" />
		<tag k="place" v="farm" />
		<tag k="ssr:stedsnr" v="479913" />
	</node>
</osm>
