<?xml version="1.0" encoding="UTF-8"?>
<osm generator="osmapis" version="0.6">
	<node id="-621952" lat="68.4119527816" lon="17.7657055523">
		<tag k="name" v="Ofotbanen" />
		<tag k="ssr:date" v="2016-05-10" />
		<tag k="ssr:gruppe" v="bane" />
		<tag k="ssr:hovedgruppe" v="infrastruktur" />
		<tag k="ssr:stedsnr" v="264696" />
		<tag k="ssr:type" v="banestrekning" />
	</node>
	<node id="-622015" lat="68.2840861068" lon="17.3736083306">
		<tag k="name" v="Aspelund" />
		<tag k="ssr:date" v="2016-05-10" />
		<tag k="ssr:gruppe" v="navigasjon" />
		<tag k="ssr:hovedgruppe" v="infrastruktur" />
		<tag k="ssr:stedsnr" v="442871" />
		<tag k="ssr:type" v="fyrlykt" />
	</node>
	<node id="-621982" lat="68.4276111124" lon="17.4276722108">
		<tag k="name" v="Havneadministrasjon" />
		<tag k="ssr:date" v="2016-05-10" />
		<tag k="ssr:gruppe" v="administrativeIndelinger" />
		<tag k="ssr:hovedgruppe" v="offentligAdministrasjon" />
		<tag k="ssr:stedsnr" v="420943" />
		<tag k="ssr:type" v="annenAdministrativInndeling" />
	</node>
	<node id="-621498" lat="68.4262277745" lon="17.3564138939">
		<tag k="name" v="Narvik" />
		<tag k="ssr:date" v="2016-05-10" />
		<tag k="ssr:gruppe" v="navigasjon" />
		<tag k="ssr:hovedgruppe" v="infrastruktur" />
		<tag k="ssr:stedsnr" v="78981" />
		<tag k="ssr:type" v="fyrlykt" />
	</node>
	<node id="-623255" lat="68.4053000287" lon="17.327902206">
		<tag k="name" v="Grønnlisletta" />
		<tag k="ssr:date" v="2019-05-30" />
		<tag k="ssr:gruppe" v="veg" />
		<tag k="ssr:hovedgruppe" v="infrastruktur" />
		<tag k="ssr:stedsnr" v="978968" />
		<tag k="ssr:type" v="adressenavn" />
	</node>
	<node id="-623093" lat="68.3251583372" lon="17.2569666601">
		<tag k="name" v="Buholmen" />
		<tag k="ssr:date" v="2016-05-11" />
		<tag k="ssr:gruppe" v="navigasjon" />
		<tag k="ssr:hovedgruppe" v="infrastruktur" />
		<tag k="ssr:stedsnr" v="880968" />
		<tag k="ssr:type" v="fyrlykt" />
	</node>
	<node id="-622962" lat="68.4200222199" lon="17.3991694531">
		<tag k="name" v="Indre Vrakbøye" />
		<tag k="ssr:date" v="2016-05-11" />
		<tag k="ssr:gruppe" v="navigasjon" />
		<tag k="ssr:hovedgruppe" v="infrastruktur" />
		<tag k="ssr:stedsnr" v="830996" />
		<tag k="ssr:type" v="lysbøye" />
	</node>
	<node id="-621105" lat="68.4389555555" lon="17.4277444344">
		<tag k="name" v="Narvik kommune" />
		<tag k="ssr:date" v="2016-05-10" />
		<tag k="ssr:gruppe" v="administrativeIndelinger" />
		<tag k="ssr:hovedgruppe" v="offentligAdministrasjon" />
		<tag k="ssr:stedsnr" v="329857" />
		<tag k="ssr:type" v="kommune" />
	</node>
	<node id="-623246" lat="68.4849327361" lon="16.2297866207">
		<tag k="fixme" v="multiple name tags, choose one and add the other to alt_name" />
		<tag k="name" v="Nord-Noreg;Nord-Norge" />
		<tag k="ssr:date" v="2017-05-18" />
		<tag k="ssr:gruppe" v="administrativeIndelinger" />
		<tag k="ssr:hovedgruppe" v="offentligAdministrasjon" />
		<tag k="ssr:stedsnr" v="976106" />
		<tag k="ssr:type" v="annenAdministrativInndeling" />
	</node>
	<node id="-623178" lat="68.3709194439" lon="17.247627775">
		<tag k="name" v="Trong-Skjomneset" />
		<tag k="ssr:date" v="2016-05-11" />
		<tag k="ssr:gruppe" v="navigasjon" />
		<tag k="ssr:hovedgruppe" v="infrastruktur" />
		<tag k="ssr:stedsnr" v="932623" />
		<tag k="ssr:type" v="fyrlykt" />
	</node>
	<node id="-621317" lat="68.4395554307" lon="17.4264560323">
		<tag k="name" v="Kommuneveien" />
		<tag k="ssr:date" v="2019-05-30" />
		<tag k="ssr:gruppe" v="veg" />
		<tag k="ssr:hovedgruppe" v="infrastruktur" />
		<tag k="ssr:stedsnr" v="1004434" />
		<tag k="ssr:type" v="adressenavn" />
	</node>
	<node id="-622530" lat="68.4540194431" lon="17.7054805443">
		<tag k="name" v="Hergot" />
		<tag k="ssr:date" v="2016-05-10" />
		<tag k="ssr:gruppe" v="veg" />
		<tag k="ssr:hovedgruppe" v="infrastruktur" />
		<tag k="ssr:stedsnr" v="634434" />
		<tag k="ssr:type" v="vegstrekning" />
	</node>
	<node id="-620993" lat="68.4256750027" lon="17.3792222221">
		<tag k="name" v="Ytre Vrakbøye" />
		<tag k="ssr:date" v="2016-05-10" />
		<tag k="ssr:gruppe" v="navigasjon" />
		<tag k="ssr:hovedgruppe" v="infrastruktur" />
		<tag k="ssr:stedsnr" v="284000" />
		<tag k="ssr:type" v="lysbøye" />
	</node>
</osm>
