<?xml version="1.0" encoding="UTF-8"?>
<osm generator="osmapis" version="0.6">
	<node id="-328191" lat="59.3536833371" lon="7.36214166102">
		<tag k="name" v="Kroni" />
		<tag k="place" v="farm" />
		<tag k="ssr:stedsnr" v="638928" />
	</node>
	<node id="-327166" lat="59.3146499964" lon="7.36109999902">
		<tag k="name" v="Svingen" />
		<tag k="place" v="isolated_dwelling" />
		<tag k="ssr:stedsnr" v="487558" />
	</node>
	<node id="-327164" lat="59.4842722241" lon="7.42130278502">
		<tag k="name" v="Nylund" />
		<tag k="place" v="farm" />
		<tag k="ssr:stedsnr" v="487535" />
	</node>
	<node id="-327675" lat="59.4523333307" lon="7.398405559">
		<tag k="name" v="Flæmoen" />
		<tag k="old_name" v="Flæmoen hyttefelt" />
		<tag k="place" v="isolated_dwelling" />
		<tag k="ssr:stedsnr" v="569145" />
	</node>
	<node id="-328186" lat="59.3359111114" lon="7.3024611155">
		<tag k="historic" v="shieling" />
		<tag k="name" v="Husfjøddstøylen" />
		<tag k="place" v="locality" />
		<tag k="ssr:stedsnr" v="638902" />
	</node>
	<node id="-327668" lat="59.6308194411" lon="7.4543555486">
		<tag k="name" v="Flottestøylen" />
		<tag k="old_name" v="Flottestølen" />
		<tag k="place" v="locality" />
		<tag k="ssr:stedsnr" v="549511" />
	</node>
	<node id="-327667" lat="59.6465611095" lon="7.25858332685">
		<tag k="fixme" v="consider tourism=alpine_hut or tourism=chalet" />
		<tag k="name" v="Sloaros" />
		<tag k="ssr:stedsnr" v="549432" />
		<tag k="tourism" v="wilderness_hut" />
	</node>
	<node id="-327154" lat="59.3374583323" lon="7.21048333919">
		<tag k="name" v="Strond" />
		<tag k="place" v="locality" />
		<tag k="ssr:stedsnr" v="487276" />
	</node>
	<node id="-327153" lat="59.3489888884" lon="7.33683888754">
		<tag k="name" v="Mosdøl" />
		<tag k="place" v="farm" />
		<tag k="ssr:stedsnr" v="487257" />
	</node>
	<node id="-326127" lat="59.3170444424" lon="7.11642221404">
		<tag k="name" v="Bratteland" />
		<tag k="place" v="isolated_dwelling" />
		<tag k="ssr:stedsnr" v="184279" />
	</node>
	<node id="-326638" lat="59.4089999986" lon="7.45088334095">
		<tag k="historic" v="shieling" />
		<tag k="name" v="Tykkelunden" />
		<tag k="place" v="locality" />
		<tag k="ssr:stedsnr" v="245596" />
	</node>
	<node id="-327148" lat="59.3553805598" lon="7.35236388798">
		<tag k="name" v="Jåro" />
		<tag k="place" v="farm" />
		<tag k="ssr:stedsnr" v="483499" />
	</node>
	<node id="-328171" lat="59.6397944428" lon="7.43941388189">
		<tag k="fixme" v="consider tourism=alpine_hut or tourism=chalet" />
		<tag k="name" v="Bjåen Turistheim" />
		<tag k="ssr:stedsnr" v="638672" />
		<tag k="tourism" v="wilderness_hut" />
	</node>
	<node id="-326634" lat="59.3688888927" lon="7.37229722287">
		<tag k="name" v="Vråstøyl" />
		<tag k="old_name" v="Vråstøl" />
		<tag k="place" v="locality" />
		<tag k="ssr:stedsnr" v="245572" />
	</node>
	<node id="-326140" lat="59.4657361086" lon="7.41330833541">
		<tag k="name" v="Steinsland" />
		<tag k="place" v="farm" />
		<tag k="ssr:stedsnr" v="184396" />
	</node>
	<node id="-326630" lat="59.3146416704" lon="7.39398333571">
		<tag k="historic" v="shieling" />
		<tag k="name" v="Finnfloti" />
		<tag k="place" v="locality" />
		<tag k="ssr:stedsnr" v="245503" />
	</node>
	<node id="-327652" lat="59.3236500011" lon="7.35534166075">
		<tag k="name" v="Støylan" />
		<tag k="old_name" v="Stølane" />
		<tag k="place" v="farm" />
		<tag k="ssr:stedsnr" v="548543" />
	</node>
	<node id="-328614" lat="59.5036555545" lon="7.42872500371">
		<tag k="name" v="Maurli" />
		<tag k="place" v="locality" />
		<tag k="ssr:stedsnr" v="731589" />
	</node>
	<node id="-327650" lat="59.4935166635" lon="7.41801944257">
		<tag k="fixme" v="multiple name tags, choose one and add the other to alt_name; consider tourism=alpine_hut or tourism=chalet" />
		<tag k="name" v="Nordli;Nordli fjellstove" />
		<tag k="ssr:stedsnr" v="548496" />
		<tag k="tourism" v="wilderness_hut" />
	</node>
	<node id="-326651" lat="59.5738138912" lon="7.29040556007">
		<tag k="name" v="Breive" />
		<tag k="place" v="hamlet" />
		<tag k="ssr:stedsnr" v="246287" />
	</node>
	<node id="-327647" lat="59.4471499991" lon="7.43248889178">
		<tag k="name" v="Haugen" />
		<tag k="place" v="farm" />
		<tag k="ssr:stedsnr" v="548414" />
	</node>
	<node id="-326622" lat="59.447594447" lon="7.42857777924">
		<tag k="fixme" v="consider place=hamlet" />
		<tag k="name" v="Berdalen" />
		<tag k="place" v="farm" />
		<tag k="ssr:stedsnr" v="245373" />
	</node>
	<node id="-326621" lat="59.4468722211" lon="7.41749166997">
		<tag k="name" v="Åsland" />
		<tag k="place" v="isolated_dwelling" />
		<tag k="ssr:stedsnr" v="245371" />
	</node>
	<node id="-328668" lat="59.3140055547" lon="7.32619166001">
		<tag k="name" v="Olavshus" />
		<tag k="place" v="farm" />
		<tag k="ssr:stedsnr" v="699844" />
	</node>
	<node id="-326617" lat="59.3276388908" lon="7.31998888001">
		<tag k="name" v="Sanden" />
		<tag k="place" v="farm" />
		<tag k="ssr:stedsnr" v="245291" />
	</node>
	<node id="-323835" lat="59.3798166673" lon="7.38306111949">
		<tag k="name" v="Hageleitet" />
		<tag k="place" v="locality" />
		<tag k="ssr:stedsnr" v="335519" />
	</node>
	<node id="-326615" lat="59.3201638929" lon="7.20075554874">
		<tag k="name" v="Ljosland" />
		<tag k="place" v="isolated_dwelling" />
		<tag k="ssr:stedsnr" v="245275" />
	</node>
	<node id="-326102" lat="59.2809583356" lon="7.05547222362">
		<tag k="fixme" v="consider tourism=alpine_hut or tourism=chalet" />
		<tag k="loc_name" v="Sandvasshytta" />
		<tag k="name" v="Sandvassbu" />
		<tag k="ssr:stedsnr" v="175809" />
		<tag k="tourism" v="wilderness_hut" />
	</node>
	<node id="-327637" lat="59.3899083343" lon="7.27918888957">
		<tag k="name" v="Blomstøyl" />
		<tag k="place" v="isolated_dwelling" />
		<tag k="ssr:stedsnr" v="548353" />
	</node>
	<node id="-326611" lat="59.3466777755" lon="7.2911277706">
		<tag k="name" v="Holen" />
		<tag k="place" v="farm" />
		<tag k="ssr:stedsnr" v="245257" />
	</node>
	<node id="-326610" lat="59.3485499959" lon="7.25847500075">
		<tag k="name" v="Nordbygdi" />
		<tag k="place" v="hamlet" />
		<tag k="ssr:stedsnr" v="245235" />
	</node>
	<node id="-328145" lat="59.3853416707" lon="7.38659722715">
		<tag k="name" v="Libu" />
		<tag k="place" v="isolated_dwelling" />
		<tag k="ssr:stedsnr" v="638460" />
	</node>
	<node id="-328144" lat="59.4135472196" lon="7.09371110425">
		<tag k="name" v="Krokevasskvæven" />
		<tag k="place" v="isolated_dwelling" />
		<tag k="ssr:stedsnr" v="634913" />
	</node>
	<node id="-327627" lat="59.3512194419" lon="7.28170000224">
		<tag k="alt_name" v="Tveiten" />
		<tag k="fixme" v="consider place=hamlet" />
		<tag k="loc_name" v="Heimtveiti" />
		<tag k="name" v="Tveiti" />
		<tag k="place" v="farm" />
		<tag k="ssr:stedsnr" v="548251" />
	</node>
	<node id="-328138" lat="59.3760499973" lon="7.32913056247">
		<tag k="name" v="Øvstebu" />
		<tag k="place" v="locality" />
		<tag k="ssr:stedsnr" v="633857" />
	</node>
	<node id="-330487" lat="59.5478398036" lon="7.36687240276">
		<tag k="historic" v="shieling" />
		<tag k="name" v="Hartevasstøylen" />
		<tag k="place" v="locality" />
		<tag k="ssr:stedsnr" v="933357" />
	</node>
	<node id="-328647" lat="59.4971194419" lon="7.43961666201">
		<tag k="name" v="Øygarden" />
		<tag k="place" v="locality" />
		<tag k="ssr:stedsnr" v="699575" />
	</node>
	<node id="-328646" lat="59.489744443" lon="7.42879444496">
		<tag k="name" v="Persbu" />
		<tag k="place" v="isolated_dwelling" />
		<tag k="ssr:stedsnr" v="699569" />
	</node>
	<node id="-327109" lat="59.5738277791" lon="7.2936027825">
		<tag k="name" v="Haugen" />
		<tag k="place" v="farm" />
		<tag k="ssr:stedsnr" v="456594" />
	</node>
	<node id="-327108" lat="59.5760916649" lon="7.27969722345">
		<tag k="historic" v="shieling" />
		<tag k="name" v="Listøyl" />
		<tag k="place" v="locality" />
		<tag k="ssr:stedsnr" v="456581" />
	</node>
	<node id="-328641" lat="59.5757194435" lon="7.27020278218">
		<tag k="historic" v="shieling" />
		<tag k="name" v="Nystøyl" />
		<tag k="place" v="locality" />
		<tag k="ssr:stedsnr" v="699550" />
	</node>
	<node id="-327103" lat="59.4497305567" lon="7.42407777626">
		<tag k="name" v="Hagen" />
		<tag k="place" v="locality" />
		<tag k="ssr:stedsnr" v="456546" />
	</node>
	<node id="-328125" lat="59.5065055517" lon="7.16773611699">
		<tag k="name" v="Ormsaosen" />
		<tag k="place" v="isolated_dwelling" />
		<tag k="ssr:stedsnr" v="610396" />
	</node>
	<node id="-327099" lat="59.3853805552" lon="7.38110277016">
		<tag k="historic" v="shieling" />
		<tag k="name" v="Seten" />
		<tag k="place" v="locality" />
		<tag k="ssr:stedsnr" v="456509" />
	</node>
	<node id="-329144" lat="59.3210750031" lon="7.35444721845">
		<tag k="name" v="Strondi" />
		<tag k="place" v="farm" />
		<tag k="ssr:stedsnr" v="759824" />
	</node>
	<node id="-328119" lat="59.3432027774" lon="7.41298056107">
		<tag k="name" v="Fossen" />
		<tag k="place" v="locality" />
		<tag k="ssr:stedsnr" v="609529" />
	</node>
	<node id="-327094" lat="59.4000222247" lon="7.08892221891">
		<tag k="name" v="Krokevasshytta" />
		<tag k="place" v="isolated_dwelling" />
		<tag k="ssr:stedsnr" v="452846" />
	</node>
	<node id="-327093" lat="59.3512944452" lon="7.2823027856">
		<tag k="name" v="Heimtveiti" />
		<tag k="place" v="farm" />
		<tag k="ssr:stedsnr" v="452676" />
	</node>
	<node id="-328626" lat="59.3530611129" lon="7.25880277247">
		<tag k="historic" v="shieling" />
		<tag k="name" v="Voddeskard" />
		<tag k="place" v="locality" />
		<tag k="ssr:stedsnr" v="694659" />
	</node>
	<node id="-326643" lat="59.3052555566" lon="7.39947221838">
		<tag k="historic" v="shieling" />
		<tag k="name" v="Løyningsstøylen" />
		<tag k="old_name" v="Løyningsstølen" />
		<tag k="place" v="locality" />
		<tag k="ssr:stedsnr" v="245711" />
	</node>
	<node id="-328620" lat="59.5789416632" lon="7.38953888066">
		<tag k="name" v="Hovden hyttegrend" />
		<tag k="place" v="hamlet" />
		<tag k="ssr:stedsnr" v="690398" />
	</node>
	<node id="-328107" lat="59.4289388909" lon="7.35604721373">
		<tag k="alt_name" v="Heistøyl" />
		<tag k="name" v="Heistøl" />
		<tag k="place" v="isolated_dwelling" />
		<tag k="ssr:stedsnr" v="609403" />
	</node>
	<node id="-328106" lat="59.4479388889" lon="7.42273333395">
		<tag k="alt_name" v="Hagamo" />
		<tag k="name" v="Hagemo" />
		<tag k="place" v="farm" />
		<tag k="ssr:stedsnr" v="609383" />
	</node>
	<node id="-327682" lat="59.3425305577" lon="7.2926027697">
		<tag k="name" v="Brustøylen" />
		<tag k="place" v="locality" />
		<tag k="ssr:stedsnr" v="572837" />
	</node>
	<node id="-328103" lat="59.3752055514" lon="7.28405277185">
		<tag k="historic" v="shieling" />
		<tag k="name" v="Ljoråsen" />
		<tag k="place" v="locality" />
		<tag k="ssr:stedsnr" v="609365" />
	</node>
	<node id="-327078" lat="59.6291805597" lon="7.31562776933">
		<tag k="name" v="Myrekvæven" />
		<tag k="place" v="isolated_dwelling" />
		<tag k="ssr:stedsnr" v="428408" />
	</node>
	<node id="-326641" lat="59.3017055523" lon="7.42397777713">
		<tag k="name" v="Røyrtveit" />
		<tag k="place" v="locality" />
		<tag k="ssr:stedsnr" v="245708" />
	</node>
	<node id="-329633" lat="59.3357694403" lon="7.30548611586">
		<tag k="historic" v="shieling" />
		<tag k="name" v="Mostøyl" />
		<tag k="place" v="locality" />
		<tag k="ssr:stedsnr" v="820912" />
	</node>
	<node id="-328094" lat="59.3118500006" lon="7.1138250002">
		<tag k="historic" v="shieling" />
		<tag k="name" v="Sandbekkstøylen" />
		<tag k="place" v="locality" />
		<tag k="ssr:stedsnr" v="609286" />
	</node>
	<node id="-328605" lat="59.4224444441" lon="7.35998055213">
		<tag k="name" v="Nystøyl" />
		<tag k="old_name" v="Nystøl" />
		<tag k="place" v="isolated_dwelling" />
		<tag k="ssr:stedsnr" v="670413" />
	</node>
	<node id="-329143" lat="59.3213416634" lon="7.33355278452">
		<tag k="name" v="Kroni" />
		<tag k="place" v="farm" />
		<tag k="ssr:stedsnr" v="759821" />
	</node>
	<node id="-327065" lat="59.370500001" lon="7.4141388955">
		<tag k="name" v="Fitjan" />
		<tag k="old_name" v="Fitjane" />
		<tag k="place" v="isolated_dwelling" />
		<tag k="ssr:stedsnr" v="427603" />
	</node>
	<node id="-327064" lat="59.3513611095" lon="7.35450554931">
		<tag k="name" v="Lii" />
		<tag k="place" v="farm" />
		<tag k="ssr:stedsnr" v="427582" />
	</node>
	<node id="-328599" lat="59.461202776" lon="7.37555000035">
		<tag k="name" v="Løyning" />
		<tag k="place" v="farm" />
		<tag k="ssr:stedsnr" v="670381" />
	</node>
	<node id="-330933" lat="59.4689045701" lon="7.37546781034">
		<tag k="fixme" v="consider place=hamlet" />
		<tag k="name" v="Vatnedalen" />
		<tag k="place" v="farm" />
		<tag k="ssr:stedsnr" v="971665" />
	</node>
	<node id="-329109" lat="59.1882944482" lon="6.87702221977">
		<tag k="fixme" v="consider tourism=alpine_hut or tourism=chalet" />
		<tag k="name" v="Litle Aurådal" />
		<tag k="old_name" v="Litle Aurådalen turisthytte;Litle Aurådalen" />
		<tag k="ssr:stedsnr" v="748404" />
		<tag k="tourism" v="wilderness_hut" />
	</node>
	<node id="-326126" lat="59.3170638872" lon="7.09583888454">
		<tag k="name" v="Dysje" />
		<tag k="place" v="isolated_dwelling" />
		<tag k="ssr:stedsnr" v="184275" />
	</node>
	<node id="-328594" lat="59.3880750007" lon="7.28265000781">
		<tag k="historic" v="shieling" />
		<tag k="name" v="Tykkholt" />
		<tag k="place" v="locality" />
		<tag k="ssr:stedsnr" v="670357" />
	</node>
	<node id="-329105" lat="59.301725001" lon="7.31130832638">
		<tag k="name" v="Lislehisdal" />
		<tag k="place" v="locality" />
		<tag k="ssr:stedsnr" v="731419" />
	</node>
	<node id="-327056" lat="59.3662666669" lon="7.31910000091">
		<tag k="historic" v="shieling" />
		<tag k="name" v="Kilane" />
		<tag k="place" v="locality" />
		<tag k="ssr:stedsnr" v="427394" />
	</node>
	<node id="-329624" lat="59.3277555576" lon="7.37124722671">
		<tag k="historic" v="shieling" />
		<tag k="name" v="Slipestellet" />
		<tag k="place" v="locality" />
		<tag k="ssr:stedsnr" v="820816" />
	</node>
	<node id="-329098" lat="59.4449722231" lon="7.46387778174">
		<tag k="historic" v="shieling" />
		<tag k="name" v="Hovden" />
		<tag k="place" v="locality" />
		<tag k="ssr:stedsnr" v="731371" />
	</node>
	<node id="-328585" lat="59.313447222" lon="7.07665000702">
		<tag k="historic" v="shieling" />
		<tag k="name" v="Strondestøyl" />
		<tag k="place" v="locality" />
		<tag k="ssr:stedsnr" v="670306" />
	</node>
	<node id="-326636" lat="59.3891777796" lon="7.39115000546">
		<tag k="historic" v="shieling" />
		<tag k="name" v="Bygdestøylan" />
		<tag k="place" v="locality" />
		<tag k="ssr:stedsnr" v="245588" />
	</node>
	<node id="-327046" lat="59.3227166622" lon="7.18724999878">
		<tag k="name" v="Åsane" />
		<tag k="place" v="isolated_dwelling" />
		<tag k="ssr:stedsnr" v="427314" />
	</node>
	<node id="-328580" lat="59.3261111092" lon="7.16450278632">
		<tag k="alt_name" v="Skardberget" />
		<tag k="name" v="Skarberg" />
		<tag k="place" v="locality" />
		<tag k="ssr:stedsnr" v="670279" />
	</node>
	<node id="-328579" lat="59.5553277794" lon="7.33566944433">
		<tag k="name" v="Hovden" />
		<tag k="place" v="farm" />
		<tag k="ssr:stedsnr" v="670270" />
	</node>
	<node id="-327042" lat="59.3252777807" lon="7.13222500699">
		<tag k="historic" v="shieling" />
		<tag k="name" v="Ånaråstøylen" />
		<tag k="place" v="locality" />
		<tag k="ssr:stedsnr" v="427291" />
	</node>
	<node id="-329601" lat="59.4003500027" lon="7.37909167463">
		<tag k="historic" v="shieling" />
		<tag k="name" v="Steibuskardet" />
		<tag k="place" v="locality" />
		<tag k="ssr:stedsnr" v="820524" />
	</node>
	<node id="-329088" lat="59.3903166639" lon="7.44871389052">
		<tag k="alt_name" v="Lunden" />
		<tag k="name" v="Lundan" />
		<tag k="old_name" v="Lundane" />
		<tag k="place" v="locality" />
		<tag k="ssr:stedsnr" v="730672" />
	</node>
	<node id="-328597" lat="59.366033333" lon="7.30317777822">
		<tag k="alt_name" v="Fit" />
		<tag k="historic" v="shieling" />
		<tag k="name" v="Fet" />
		<tag k="place" v="locality" />
		<tag k="ssr:stedsnr" v="670370" />
	</node>
	<node id="-329592" lat="59.3389277776" lon="7.19901388656">
		<tag k="name" v="Såto" />
		<tag k="place" v="locality" />
		<tag k="ssr:stedsnr" v="816862" />
	</node>
	<node id="-328565" lat="59.3016972251" lon="7.41929444914">
		<tag k="name" v="Listøyl" />
		<tag k="old_name" v="Listøl" />
		<tag k="place" v="locality" />
		<tag k="ssr:stedsnr" v="669709" />
	</node>
	<node id="-328564" lat="59.384774997" lon="7.40130276951">
		<tag k="name" v="Mørkebu" />
		<tag k="place" v="locality" />
		<tag k="ssr:stedsnr" v="669628" />
	</node>
	<node id="-329074" lat="59.3130722249" lon="7.05975276987">
		<tag k="name" v="Bratteli" />
		<tag k="place" v="isolated_dwelling" />
		<tag k="ssr:stedsnr" v="730313" />
	</node>
	<node id="-329583" lat="59.5372500018" lon="7.51907221616">
		<tag k="fixme" v="consider tourism=alpine_hut or tourism=chalet" />
		<tag k="name" v="Tjørnbrotbu" />
		<tag k="old_name" v="Tjørnebrotbu" />
		<tag k="ssr:stedsnr" v="812367" />
		<tag k="tourism" v="wilderness_hut" />
	</node>
	<node id="-326510" lat="59.3548194427" lon="7.35401111605">
		<tag k="name" v="Jarehaugen" />
		<tag k="place" v="farm" />
		<tag k="ssr:stedsnr" v="235351" />
	</node>
	<node id="-329067" lat="59.3552166689" lon="7.34135278124">
		<tag k="name" v="Huldreheimen" />
		<tag k="place" v="isolated_dwelling" />
		<tag k="ssr:stedsnr" v="730256" />
	</node>
	<node id="-328554" lat="59.3673916653" lon="7.31117777512">
		<tag k="alt_name" v="Vedhus" />
		<tag k="historic" v="shieling" />
		<tag k="name" v="Vehus" />
		<tag k="place" v="locality" />
		<tag k="ssr:stedsnr" v="669354" />
	</node>
	<node id="-328550" lat="59.3542083362" lon="7.35738333036">
		<tag k="fixme" v="consider place=hamlet" />
		<tag k="name" v="Bykle" />
		<tag k="place" v="village" />
		<tag k="ssr:stedsnr" v="669268" />
	</node>
	<node id="-329060" lat="59.3542888933" lon="7.34186389018">
		<tag k="name" v="Jåro" />
		<tag k="place" v="farm" />
		<tag k="ssr:stedsnr" v="726480" />
	</node>
	<node id="-327726" lat="59.3042472223" lon="7.40212222037">
		<tag k="historic" v="shieling" />
		<tag k="name" v="Øvre Løken" />
		<tag k="place" v="locality" />
		<tag k="ssr:stedsnr" v="577966" />
	</node>
	<node id="-328543" lat="59.4921194422" lon="7.44084722298">
		<tag k="name" v="Geiskeliskogen" />
		<tag k="place" v="farm" />
		<tag k="ssr:stedsnr" v="665507" />
	</node>
	<node id="-328118" lat="59.336155558" lon="7.39365277499">
		<tag k="name" v="Djupedal" />
		<tag k="place" v="locality" />
		<tag k="ssr:stedsnr" v="609515" />
	</node>
	<node id="-329563" lat="59.3065472205" lon="7.42624999835">
		<tag k="alt_name" v="Gaukestone" />
		<tag k="name" v="Gauketoni" />
		<tag k="place" v="locality" />
		<tag k="ssr:stedsnr" v="791730" />
	</node>
	<node id="-329562" lat="59.2894999985" lon="7.40033055167">
		<tag k="fixme" v="consider place=hamlet" />
		<tag k="name" v="Bjørnarå" />
		<tag k="place" v="farm" />
		<tag k="ssr:stedsnr" v="791701" />
	</node>
	<node id="-328601" lat="59.4450444465" lon="7.50518611627">
		<tag k="historic" v="shieling" />
		<tag k="name" v="Krenkjarsmo" />
		<tag k="old_name" v="Kringsjarsmo" />
		<tag k="place" v="locality" />
		<tag k="ssr:stedsnr" v="670399" />
	</node>
	<node id="-329558" lat="59.3722305548" lon="7.38087778385">
		<tag k="name" v="Kvæven" />
		<tag k="place" v="isolated_dwelling" />
		<tag k="ssr:stedsnr" v="791579" />
	</node>
	<node id="-329557" lat="59.3408916692" lon="7.40547499118">
		<tag k="name" v="Finndalen" />
		<tag k="place" v="locality" />
		<tag k="ssr:stedsnr" v="791550" />
	</node>
	<node id="-324776" lat="59.4329472262" lon="7.39289722125">
		<tag k="fixme" v="consider place=hamlet" />
		<tag k="name" v="Hoslemo" />
		<tag k="place" v="farm" />
		<tag k="ssr:stedsnr" v="2438" />
	</node>
	<node id="-328629" lat="59.3933611139" lon="7.40022221587">
		<tag k="name" v="Nybu" />
		<tag k="place" v="isolated_dwelling" />
		<tag k="ssr:stedsnr" v="699492" />
	</node>
	<node id="-329541" lat="59.3870055583" lon="7.27555278063">
		<tag k="historic" v="shieling" />
		<tag k="name" v="Fosstøyl" />
		<tag k="place" v="locality" />
		<tag k="ssr:stedsnr" v="791332" />
	</node>
	<node id="-324264" lat="59.3878250002" lon="7.27787500665">
		<tag k="historic" v="shieling" />
		<tag k="name" v="Øystøyl" />
		<tag k="place" v="locality" />
		<tag k="ssr:stedsnr" v="366353" />
	</node>
	<node id="-329157" lat="59.3536583332" lon="7.35766110559">
		<tag k="name" v="Haugebakk" />
		<tag k="place" v="farm" />
		<tag k="ssr:stedsnr" v="759929" />
	</node>
	<node id="-324281" lat="59.5742416711" lon="7.28609722997">
		<tag k="name" v="Nordgarden" />
		<tag k="place" v="farm" />
		<tag k="ssr:stedsnr" v="367235" />
	</node>
	<node id="-330044" lat="59.5434249982" lon="7.36670000443">
		<tag k="name" v="Hartholt" />
		<tag k="place" v="isolated_dwelling" />
		<tag k="ssr:stedsnr" v="873363" />
	</node>
	<node id="-329530" lat="59.342208332" lon="7.26581389057">
		<tag k="name" v="Viki" />
		<tag k="place" v="farm" />
		<tag k="ssr:stedsnr" v="791270" />
	</node>
	<node id="-323807" lat="59.6376694463" lon="7.43182777089">
		<tag k="alt_name" v="Vikvodden" />
		<tag k="name" v="Vikvollen" />
		<tag k="place" v="locality" />
		<tag k="ssr:stedsnr" v="306524" />
	</node>
	<node id="-329528" lat="59.3543361142" lon="7.34506388315">
		<tag k="fixme" v="consider place=hamlet" />
		<tag k="name" v="Jåro" />
		<tag k="place" v="farm" />
		<tag k="ssr:stedsnr" v="791253" />
	</node>
	<node id="-324724" lat="59.350522225" lon="7.27819722047">
		<tag k="name" v="Nordtveiti" />
		<tag k="place" v="farm" />
		<tag k="ssr:stedsnr" v="881913" />
	</node>
	<node id="-330037" lat="59.6436027783" lon="7.45571389133">
		<tag k="name" v="Hemlemoen" />
		<tag k="place" v="locality" />
		<tag k="ssr:stedsnr" v="853533" />
	</node>
	<node id="-330462" lat="59.3105972259" lon="7.05769722876">
		<tag k="historic" v="shieling" />
		<tag k="name" v="Flatstøyl" />
		<tag k="place" v="locality" />
		<tag k="ssr:stedsnr" v="913301" />
	</node>
	<node id="-330032" lat="59.5734749996" lon="7.29828334118">
		<tag k="name" v="Flaten" />
		<tag k="place" v="farm" />
		<tag k="ssr:stedsnr" v="853275" />
	</node>
	<node id="-330542" lat="59.3731027765" lon="7.29213889475">
		<tag k="historic" v="shieling" />
		<tag k="name" v="Finnstøyl" />
		<tag k="place" v="locality" />
		<tag k="ssr:stedsnr" v="942872" />
	</node>
	<node id="-330029" lat="59.5712750029" lon="7.13921665891">
		<tag k="name" v="Grøningshylkvelven" />
		<tag k="place" v="isolated_dwelling" />
		<tag k="ssr:stedsnr" v="853272" />
	</node>
	<node id="-330028" lat="59.5820694483" lon="7.24574722173">
		<tag k="name" v="Fiskebekklega" />
		<tag k="place" v="locality" />
		<tag k="ssr:stedsnr" v="853269" />
	</node>
	<node id="-330539" lat="59.3049749961" lon="7.35703889336">
		<tag k="historic" v="shieling" />
		<tag k="name" v="Lomskrostøylen" />
		<tag k="place" v="locality" />
		<tag k="ssr:stedsnr" v="942863" />
	</node>
	<node id="-330536" lat="59.3171666654" lon="7.36668888757">
		<tag k="historic" v="shieling" />
		<tag k="name" v="Øybø" />
		<tag k="place" v="locality" />
		<tag k="ssr:stedsnr" v="942841" />
	</node>
	<node id="-330022" lat="59.3843499982" lon="7.45241944699">
		<tag k="name" v="Stridsmostøylen" />
		<tag k="old_name" v="Stridsmostølen" />
		<tag k="place" v="locality" />
		<tag k="ssr:stedsnr" v="852598" />
	</node>
	<node id="-330533" lat="59.3223499958" lon="7.35385000645">
		<tag k="name" v="Tykkholt" />
		<tag k="place" v="isolated_dwelling" />
		<tag k="ssr:stedsnr" v="942826" />
	</node>
	<node id="-330020" lat="59.3509305547" lon="7.34456666397">
		<tag k="name" v="Byklum" />
		<tag k="place" v="farm" />
		<tag k="ssr:stedsnr" v="852574" />
	</node>
	<node id="-323875" lat="59.3674138874" lon="7.40145277051">
		<tag k="name" v="Myrbuane" />
		<tag k="place" v="locality" />
		<tag k="ssr:stedsnr" v="335980" />
	</node>
	<node id="-330018" lat="59.3550833344" lon="7.385161114">
		<tag k="alt_name" v="Stavenes" />
		<tag k="fixme" v="consider place=hamlet" />
		<tag k="name" v="Stavnes" />
		<tag k="place" v="farm" />
		<tag k="ssr:stedsnr" v="852561" />
	</node>
	<node id="-330015" lat="59.3206750017" lon="7.41544165955">
		<tag k="historic" v="shieling" />
		<tag k="name" v="Strond" />
		<tag k="old_name" v="Strand" />
		<tag k="place" v="locality" />
		<tag k="ssr:stedsnr" v="852522" />
	</node>
	<node id="-323356" lat="59.316902778" lon="7.37661943821">
		<tag k="historic" v="shieling" />
		<tag k="name" v="Øybøstøylen" />
		<tag k="place" v="locality" />
		<tag k="ssr:stedsnr" v="274930" />
	</node>
	<node id="-330523" lat="59.5037361123" lon="7.39622499872">
		<tag k="historic" v="shieling" />
		<tag k="name" v="Gamalstøyl" />
		<tag k="place" v="locality" />
		<tag k="ssr:stedsnr" v="942620" />
	</node>
	<node id="-328188" lat="59.3511833298" lon="7.28197778008">
		<tag k="name" v="Heimtveiti" />
		<tag k="place" v="farm" />
		<tag k="ssr:stedsnr" v="638917" />
	</node>
	<node id="-323860" lat="59.4612999987" lon="7.0524194392">
		<tag k="name" v="Soksehuset" />
		<tag k="place" v="locality" />
		<tag k="ssr:stedsnr" v="335836" />
	</node>
	<node id="-330003" lat="59.4408749963" lon="7.48561388282">
		<tag k="historic" v="shieling" />
		<tag k="name" v="Rjodet" />
		<tag k="place" v="locality" />
		<tag k="ssr:stedsnr" v="852403" />
	</node>
	<node id="-324791" lat="59.3281166676" lon="7.41470277762">
		<tag k="name" v="Troddedalen" />
		<tag k="place" v="isolated_dwelling" />
		<tag k="ssr:stedsnr" v="2552" />
	</node>
	<node id="-328067" lat="59.3351027743" lon="7.20313611182">
		<tag k="name" v="Libu" />
		<tag k="place" v="locality" />
		<tag k="ssr:stedsnr" v="608254" />
	</node>
	<node id="-329999" lat="59.4563305576" lon="7.39135000383">
		<tag k="name" v="Åsheim" />
		<tag k="place" v="farm" />
		<tag k="ssr:stedsnr" v="852384" />
	</node>
	<node id="-323342" lat="59.322661107" lon="7.35688332519">
		<tag k="name" v="Storstein" />
		<tag k="place" v="farm" />
		<tag k="ssr:stedsnr" v="274801" />
	</node>
	<node id="-323853" lat="59.5579638903" lon="7.35590555525">
		<tag k="building" v="civic" />
		<tag k="name" v="Raudekrossen" />
		<tag k="ssr:stedsnr" v="335675" />
	</node>
	<node id="-329070" lat="59.3518833292" lon="7.25323611593">
		<tag k="name" v="Seten" />
		<tag k="place" v="locality" />
		<tag k="ssr:stedsnr" v="730264" />
	</node>
	<node id="-328064" lat="59.3479527799" lon="7.2882500035">
		<tag k="name" v="Lyngtveit" />
		<tag k="place" v="farm" />
		<tag k="ssr:stedsnr" v="608238" />
	</node>
	<node id="-328065" lat="59.3464750007" lon="7.25293332622">
		<tag k="fixme" v="consider place=hamlet" />
		<tag k="name" v="Nesland" />
		<tag k="place" v="farm" />
		<tag k="ssr:stedsnr" v="608240" />
	</node>
	<node id="-330500" lat="59.3973000018" lon="6.97173055374">
		<tag k="fixme" v="consider tourism=alpine_hut or tourism=chalet" />
		<tag k="name" v="Vassdalstjørn" />
		<tag k="old_name" v="Vassdalstjønn" />
		<tag k="ssr:stedsnr" v="938838" />
		<tag k="tourism" v="wilderness_hut" />
	</node>
	<node id="-329986" lat="59.4822999956" lon="7.21008333248">
		<tag k="name" v="Vatndalen" />
		<tag k="place" v="isolated_dwelling" />
		<tag k="ssr:stedsnr" v="852139" />
	</node>
	<node id="-327723" lat="59.3568944412" lon="7.36171111003">
		<tag k="name" v="Sarv" />
		<tag k="place" v="quarter" />
		<tag k="ssr:stedsnr" v="577933" />
	</node>
	<node id="-324352" lat="59.320883332" lon="7.40065000466">
		<tag k="historic" v="shieling" />
		<tag k="name" v="Nystøyl" />
		<tag k="place" v="locality" />
		<tag k="ssr:stedsnr" v="395941" />
	</node>
	<node id="-324863" lat="59.3014666658" lon="7.40598889622">
		<tag k="historic" v="shieling" />
		<tag k="name" v="Nedre Løken" />
		<tag k="place" v="locality" />
		<tag k="ssr:stedsnr" v="31967" />
	</node>
	<node id="-330492" lat="59.4325694425" lon="7.39463054816">
		<tag k="name" v="Hoslemo" />
		<tag k="place" v="hamlet" />
		<tag k="ssr:stedsnr" v="935767" />
	</node>
	<node id="-330491" lat="59.5561166654" lon="7.34183889712">
		<tag k="name" v="Plassen" />
		<tag k="place" v="farm" />
		<tag k="ssr:stedsnr" v="933382" />
	</node>
	<node id="-330490" lat="59.5575638895" lon="7.35821111753">
		<tag k="name" v="Hovden industri" />
		<tag k="place" v="quarter" />
		<tag k="ssr:stedsnr" v="933378" />
	</node>
	<node id="-324345" lat="59.3730333367" lon="7.26972777845">
		<tag k="name" v="Flottebui" />
		<tag k="place" v="locality" />
		<tag k="ssr:stedsnr" v="395893" />
	</node>
	<node id="-323831" lat="59.293199996" lon="6.9597361174">
		<tag k="name" v="Gyvasshytta" />
		<tag k="place" v="isolated_dwelling" />
		<tag k="ssr:stedsnr" v="330442" />
	</node>
	<node id="-330486" lat="59.5405527734" lon="7.33347222155">
		<tag k="historic" v="shieling" />
		<tag k="name" v="Myklestøyl" />
		<tag k="place" v="locality" />
		<tag k="ssr:stedsnr" v="933356" />
	</node>
	<node id="-330485" lat="59.388005556" lon="7.43312499457">
		<tag k="name" v="Takrinden" />
		<tag k="place" v="locality" />
		<tag k="ssr:stedsnr" v="933134" />
	</node>
	<node id="-329988" lat="59.2794472188" lon="6.90805277666">
		<tag k="fixme" v="consider tourism=alpine_hut or tourism=chalet" />
		<tag k="name" v="Storsteinen" />
		<tag k="ssr:stedsnr" v="852150" />
		<tag k="tourism" v="wilderness_hut" />
	</node>
	<node id="-323823" lat="59.3489916656" lon="7.33772500639">
		<tag k="name" v="Berget" />
		<tag k="place" v="farm" />
		<tag k="ssr:stedsnr" v="92892" />
	</node>
	<node id="-324846" lat="59.3277444456" lon="7.36600277213">
		<tag k="historic" v="shieling" />
		<tag k="name" v="Myrstøyl" />
		<tag k="place" v="locality" />
		<tag k="ssr:stedsnr" v="31825" />
	</node>
	<node id="-324845" lat="59.4915027785" lon="7.19334166809">
		<tag k="name" v="Heggli" />
		<tag k="place" v="locality" />
		<tag k="ssr:stedsnr" v="31817" />
	</node>
	<node id="-323820" lat="59.5473138851" lon="7.36650555285">
		<tag k="fixme" v="consider tourism=alpine_hut or tourism=chalet" />
		<tag k="name" v="Hartevassbu" />
		<tag k="ssr:stedsnr" v="307743" />
		<tag k="tourism" v="wilderness_hut" />
	</node>
	<node id="-324843" lat="59.6372722195" lon="7.46473888492">
		<tag k="historic" v="shieling" />
		<tag k="name" v="Buskarstøylen" />
		<tag k="place" v="locality" />
		<tag k="ssr:stedsnr" v="31684" />
	</node>
	<node id="-324841" lat="59.5651222202" lon="7.34596945232">
		<tag k="name" v="Dyregrendi" />
		<tag k="place" v="hamlet" />
		<tag k="ssr:stedsnr" v="31666" />
	</node>
	<node id="-324328" lat="59.5768972198" lon="7.30715000116">
		<tag k="historic" v="shieling" />
		<tag k="name" v="Kvernlistøylen" />
		<tag k="place" v="locality" />
		<tag k="ssr:stedsnr" v="395608" />
	</node>
	<node id="-324305" lat="59.5639777758" lon="7.34832222702">
		<tag k="name" v="Dyregrendi" />
		<tag k="place" v="hamlet" />
		<tag k="ssr:stedsnr" v="387367" />
	</node>
	<node id="-323812" lat="59.6125750025" lon="7.38925555367">
		<tag k="name" v="Breivestøylane" />
		<tag k="old_name" v="Breivestølane" />
		<tag k="place" v="locality" />
		<tag k="ssr:stedsnr" v="306691" />
	</node>
	<node id="-324833" lat="59.4371944438" lon="7.37239722598">
		<tag k="historic" v="shieling" />
		<tag k="name" v="Lognestøyl" />
		<tag k="place" v="locality" />
		<tag k="ssr:stedsnr" v="31583" />
	</node>
	<node id="-324319" lat="59.6398083323" lon="7.42846944217">
		<tag k="fixme" v="consider tourism=alpine_hut or tourism=chalet" />
		<tag k="name" v="Bjåen turisthytte" />
		<tag k="ssr:stedsnr" v="395531" />
		<tag k="tourism" v="wilderness_hut" />
	</node>
	<node id="-323806" lat="59.6378083361" lon="7.41580555571">
		<tag k="name" v="Bringa" />
		<tag k="place" v="locality" />
		<tag k="ssr:stedsnr" v="306523" />
	</node>
	<node id="-323805" lat="59.3249972266" lon="7.34582778398">
		<tag k="fixme" v="consider place=hamlet" />
		<tag k="name" v="Trydal" />
		<tag k="place" v="farm" />
		<tag k="ssr:stedsnr" v="306507" />
	</node>
	<node id="-324823" lat="59.3505944455" lon="7.27798332611">
		<tag k="name" v="Nordtveiti" />
		<tag k="place" v="farm" />
		<tag k="ssr:stedsnr" v="27697" />
	</node>
	<node id="-324788" lat="59.3132305527" lon="7.36469722">
		<tag k="name" v="Optestøyl" />
		<tag k="old_name" v="Optestøl" />
		<tag k="place" v="farm" />
		<tag k="ssr:stedsnr" v="2540" />
	</node>
	<node id="-330452" lat="59.5306222267" lon="7.34075833245">
		<tag k="alt_name" v="Roterjeet" />
		<tag k="name" v="Roteroi" />
		<tag k="place" v="locality" />
		<tag k="ssr:stedsnr" v="913245" />
	</node>
	<node id="-330451" lat="59.5287305589" lon="7.08779166541">
		<tag k="name" v="Odden" />
		<tag k="place" v="isolated_dwelling" />
		<tag k="ssr:stedsnr" v="913241" />
	</node>
	<node id="-323794" lat="59.4257999957" lon="7.37552222807">
		<tag k="name" v="Stedjan" />
		<tag k="old_name" v="Stedjane" />
		<tag k="place" v="isolated_dwelling" />
		<tag k="ssr:stedsnr" v="306412" />
	</node>
	<node id="-324817" lat="59.5558361113" lon="7.35003055518">
		<tag k="name" v="Otrosåsen hyttefelt" />
		<tag k="place" v="neighbourhood" />
		<tag k="ssr:stedsnr" v="23417" />
	</node>
	<node id="-324304" lat="59.5690741729" lon="7.34871864428">
		<tag k="leisure" v="pitch" />
		<tag k="name" v="Hovden skisenter" />
		<tag k="ssr:stedsnr" v="387364" />
	</node>
	<node id="-330445" lat="59.4952083348" lon="7.18988056333">
		<tag k="historic" v="shieling" />
		<tag k="name" v="Listøyl" />
		<tag k="place" v="locality" />
		<tag k="ssr:stedsnr" v="913129" />
	</node>
	<node id="-324811" lat="59.5590694482" lon="7.35586943584">
		<tag k="name" v="Haugly gjesteheim" />
		<tag k="ssr:stedsnr" v="3726" />
		<tag k="tourism" v="hotel" />
	</node>
	<node id="-328658" lat="59.6403194489" lon="7.44101666596">
		<tag k="fixme" v="consider tourism=alpine_hut or tourism=chalet" />
		<tag k="name" v="Breivatn høgfjellstove" />
		<tag k="ssr:stedsnr" v="699649" />
		<tag k="tourism" v="wilderness_hut" />
	</node>
	<node id="-324808" lat="59.6546611069" lon="7.16372499405">
		<tag k="name" v="Storheller" />
		<tag k="place" v="locality" />
		<tag k="ssr:stedsnr" v="3425" />
	</node>
	<node id="-324294" lat="59.5754916659" lon="7.36083889095">
		<tag k="name" v="Lundebuteigen" />
		<tag k="place" v="isolated_dwelling" />
		<tag k="ssr:stedsnr" v="367675" />
	</node>
	<node id="-330437" lat="59.3734888914" lon="7.33840833524">
		<tag k="alt_name" v="Leirfadd" />
		<tag k="name" v="Leirfall" />
		<tag k="place" v="locality" />
		<tag k="ssr:stedsnr" v="912379" />
	</node>
	<node id="-324292" lat="59.6396888869" lon="7.42859444645">
		<tag k="name" v="Bjåland" />
		<tag k="place" v="farm" />
		<tag k="ssr:stedsnr" v="367498" />
	</node>
	<node id="-330434" lat="59.3411305581" lon="7.21665277977">
		<tag k="name" v="Trogumstøylen" />
		<tag k="place" v="isolated_dwelling" />
		<tag k="ssr:stedsnr" v="912288" />
	</node>
	<node id="-330433" lat="59.3455333337" lon="7.30763888968">
		<tag k="alt_name" v="Nygård" />
		<tag k="name" v="Nygard" />
		<tag k="place" v="farm" />
		<tag k="ssr:stedsnr" v="912269" />
	</node>
	<node id="-324798" lat="59.3949055527" lon="7.39718056274">
		<tag k="historic" v="shieling" />
		<tag k="name" v="Dvolo" />
		<tag k="place" v="locality" />
		<tag k="ssr:stedsnr" v="2637" />
	</node>
	<node id="-327029" lat="59.3883500043" lon="7.47160556081">
		<tag k="name" v="Glidbjørg" />
		<tag k="place" v="farm" />
		<tag k="ssr:stedsnr" v="424022" />
	</node>
	<node id="-323771" lat="59.3619666627" lon="7.40870833272">
		<tag k="alt_name" v="Solavodden" />
		<tag k="historic" v="shieling" />
		<tag k="name" v="Solavollen" />
		<tag k="place" v="locality" />
		<tag k="ssr:stedsnr" v="305643" />
	</node>
	<node id="-325306" lat="59.3515222211" lon="7.3487944407">
		<tag k="name" v="Fådapen" />
		<tag k="place" v="farm" />
		<tag k="ssr:stedsnr" v="92910" />
	</node>
	<node id="-323871" lat="59.3510944488" lon="7.34509167205">
		<tag k="name" v="Kultrane" />
		<tag k="place" v="farm" />
		<tag k="ssr:stedsnr" v="335948" />
	</node>
	<node id="-324280" lat="59.5474916673" lon="7.31176389307">
		<tag k="alt_name" v="Brattlistøylen" />
		<tag k="historic" v="shieling" />
		<tag k="name" v="Brattlistølen" />
		<tag k="place" v="locality" />
		<tag k="ssr:stedsnr" v="367227" />
	</node>
	<node id="-330935" lat="59.219256698" lon="6.98128469555">
		<tag k="fixme" v="consider tourism=alpine_hut or tourism=chalet" />
		<tag k="name" v="Smalevassbu" />
		<tag k="ssr:stedsnr" v="979796" />
		<tag k="tourism" v="wilderness_hut" />
	</node>
	<node id="-324790" lat="59.3288472247" lon="7.36512500318">
		<tag k="historic" v="shieling" />
		<tag k="name" v="Borkebu" />
		<tag k="old_name" v="Borkebui" />
		<tag k="place" v="locality" />
		<tag k="ssr:stedsnr" v="2550" />
	</node>
	<node id="-324789" lat="59.3183138884" lon="7.39054722935">
		<tag k="alt_name" v="Berstøyl" />
		<tag k="name" v="Bergsstøyl" />
		<tag k="old_name" v="Berrstøl" />
		<tag k="place" v="locality" />
		<tag k="ssr:stedsnr" v="2543" />
	</node>
	<node id="-324276" lat="59.4082750034" lon="7.41594999487">
		<tag k="alt_name" v="Smylemoen" />
		<tag k="name" v="Moen" />
		<tag k="place" v="farm" />
		<tag k="ssr:stedsnr" v="366621" />
	</node>
	<node id="-330931" lat="59.5617425808" lon="7.35595456081">
		<tag k="fixme" v="consider place=hamlet" />
		<tag k="name" v="Hovden" />
		<tag k="place" v="farm" />
		<tag k="ssr:stedsnr" v="971661" />
	</node>
	<node id="-330930" lat="59.5743511499" lon="7.28619532621">
		<tag k="fixme" v="consider place=hamlet" />
		<tag k="name" v="Breivik" />
		<tag k="place" v="farm" />
		<tag k="ssr:stedsnr" v="971660" />
	</node>
	<node id="-330465" lat="59.3867583353" lon="7.28200833457">
		<tag k="historic" v="shieling" />
		<tag k="name" v="Råsi" />
		<tag k="place" v="locality" />
		<tag k="ssr:stedsnr" v="913342" />
	</node>
	<node id="-324779" lat="59.3048833316" lon="7.16552500599">
		<tag k="name" v="Bekkimillom" />
		<tag k="place" v="isolated_dwelling" />
		<tag k="ssr:stedsnr" v="2464" />
	</node>
	<node id="-324265" lat="59.3855916641" lon="7.28481389717">
		<tag k="historic" v="shieling" />
		<tag k="name" v="Kaupmannsbui" />
		<tag k="place" v="locality" />
		<tag k="ssr:stedsnr" v="366356" />
	</node>
	<node id="-325288" lat="59.4895138871" lon="7.42765833831">
		<tag k="name" v="Solhaugen" />
		<tag k="place" v="isolated_dwelling" />
		<tag k="ssr:stedsnr" v="92609" />
	</node>
	<node id="-327196" lat="59.5718388905" lon="7.35560277892">
		<tag k="historic" v="shieling" />
		<tag k="name" v="Finnstøyl" />
		<tag k="old_name" v="Finnstøl" />
		<tag k="place" v="locality" />
		<tag k="ssr:stedsnr" v="488678" />
	</node>
	<node id="-325233" lat="59.427519441" lon="7.35559166854">
		<tag k="name" v="Lundan" />
		<tag k="old_name" v="Lundane" />
		<tag k="place" v="isolated_dwelling" />
		<tag k="ssr:stedsnr" v="63442" />
	</node>
	<node id="-328134" lat="59.574516667" lon="7.39181388109">
		<tag k="name" v="Hovden Appartements" />
		<tag k="old_name" v="Hovden Appartementhotell" />
		<tag k="ssr:stedsnr" v="629356" />
		<tag k="tourism" v="hotel" />
	</node>
	<node id="-328180" lat="59.3106416624" lon="7.32628888671">
		<tag k="historic" v="shieling" />
		<tag k="name" v="Ytre Støylen" />
		<tag k="place" v="locality" />
		<tag k="ssr:stedsnr" v="638856" />
	</node>
	<node id="-324769" lat="59.4136777736" lon="7.28817500833">
		<tag k="name" v="Steinbui" />
		<tag k="place" v="locality" />
		<tag k="ssr:stedsnr" v="2365" />
	</node>
	<node id="-328133" lat="59.5603111081" lon="7.35673056395">
		<tag k="fixme" v="consider place=hamlet" />
		<tag k="name" v="Hovden" />
		<tag k="place" v="village" />
		<tag k="ssr:stedsnr" v="629348" />
	</node>
	<node id="-324764" lat="59.3224111111" lon="7.14079999768">
		<tag k="name" v="Skolås" />
		<tag k="place" v="locality" />
		<tag k="ssr:stedsnr" v="2307" />
	</node>
	<node id="-330932" lat="59.4343828873" lon="7.39446866719">
		<tag k="fixme" v="consider place=hamlet" />
		<tag k="name" v="Østre Hoslemo" />
		<tag k="place" v="farm" />
		<tag k="ssr:stedsnr" v="971664" />
	</node>
	<node id="-324250" lat="59.338100003" lon="7.31142500321">
		<tag k="name" v="Solli" />
		<tag k="place" v="farm" />
		<tag k="ssr:stedsnr" v="366286" />
	</node>
	<node id="-329071" lat="59.349499996" lon="7.22808333026">
		<tag k="historic" v="shieling" />
		<tag k="name" v="Hisbekk" />
		<tag k="place" v="locality" />
		<tag k="ssr:stedsnr" v="730268" />
	</node>
	<node id="-325272" lat="59.575977781" lon="7.26389722359">
		<tag k="name" v="Osstøyl" />
		<tag k="place" v="locality" />
		<tag k="ssr:stedsnr" v="88338" />
	</node>
	<node id="-324759" lat="59.3527805572" lon="7.27055278136">
		<tag k="historic" v="shieling" />
		<tag k="name" v="Skard" />
		<tag k="place" v="locality" />
		<tag k="ssr:stedsnr" v="2256" />
	</node>
	<node id="-324758" lat="59.3419638853" lon="6.93729167089">
		<tag k="name" v="Storvasshytta" />
		<tag k="place" v="isolated_dwelling" />
		<tag k="ssr:stedsnr" v="2249" />
	</node>
	<node id="-327634" lat="59.3216500032" lon="7.33448333431">
		<tag k="name" v="Skardberg" />
		<tag k="place" v="farm" />
		<tag k="ssr:stedsnr" v="548325" />
	</node>
	<node id="-325267" lat="59.4745111083" lon="7.41648611341">
		<tag k="alt_name" v="Steinsland hyttefelt" />
		<tag k="name" v="Steinsland" />
		<tag k="place" v="neighbourhood" />
		<tag k="ssr:stedsnr" v="84164" />
	</node>
	<node id="-325264" lat="59.6098027734" lon="7.42047500291">
		<tag k="alt_name" v="Lislefjøddstølen" />
		<tag k="historic" v="shieling" />
		<tag k="name" v="Lislefjøddstøylen" />
		<tag k="place" v="locality" />
		<tag k="ssr:stedsnr" v="64719" />
	</node>
	<node id="-325262" lat="59.5666750002" lon="7.35913888779">
		<tag k="name" v="Hovden Resort" />
		<tag k="old_name" v="Quality Hovden Høyfjellshotell" />
		<tag k="ssr:stedsnr" v="64689" />
		<tag k="tourism" v="hotel" />
	</node>
	<node id="-325261" lat="59.6400777793" lon="7.44040278031">
		<tag k="alt_name" v="Bjåen" />
		<tag k="name" v="Bjåi" />
		<tag k="place" v="farm" />
		<tag k="ssr:stedsnr" v="64554" />
	</node>
	<node id="-324748" lat="59.5794373254" lon="7.38929977659">
		<tag k="fixme" v="consider tourism=alpine_hut or tourism=chalet" />
		<tag k="name" v="Hovden Fjellstoge" />
		<tag k="ssr:stedsnr" v="989094" />
		<tag k="tourism" v="wilderness_hut" />
	</node>
	<node id="-329151" lat="59.3507277742" lon="7.34431666787">
		<tag k="name" v="Torsbu" />
		<tag k="place" v="farm" />
		<tag k="ssr:stedsnr" v="759908" />
	</node>
	<node id="-325766" lat="59.6127499979" lon="7.38911666692">
		<tag k="historic" v="shieling" />
		<tag k="name" v="Kloppestøylane" />
		<tag k="place" v="locality" />
		<tag k="ssr:stedsnr" v="153659" />
	</node>
	<node id="-328129" lat="59.5618722229" lon="7.35343332814">
		<tag k="name" v="Hovdehytta Resort" />
		<tag k="place" v="isolated_dwelling" />
		<tag k="ssr:stedsnr" v="610765" />
	</node>
	<node id="-328187" lat="59.3528777759" lon="7.33845555628">
		<tag k="name" v="Oppistog" />
		<tag k="place" v="farm" />
		<tag k="ssr:stedsnr" v="638906" />
	</node>
	<node id="-325763" lat="59.3421361145" lon="7.4108888815">
		<tag k="name" v="Dalebui" />
		<tag k="place" v="locality" />
		<tag k="ssr:stedsnr" v="152993" />
	</node>
	<node id="-325248" lat="59.3818416679" lon="7.39482778356">
		<tag k="alt_name" v="Iverone" />
		<tag k="name" v="Yveroni" />
		<tag k="old_name" v="Yverone" />
		<tag k="place" v="locality" />
		<tag k="ssr:stedsnr" v="63612" />
	</node>
	<node id="-325247" lat="59.3731805516" lon="7.42872777236">
		<tag k="name" v="Finnstøyl" />
		<tag k="old_name" v="Finnstøl" />
		<tag k="place" v="locality" />
		<tag k="ssr:stedsnr" v="63608" />
	</node>
	<node id="-325246" lat="59.3508499965" lon="7.34763333902">
		<tag k="name" v="Gjuvi" />
		<tag k="place" v="farm" />
		<tag k="ssr:stedsnr" v="63593" />
	</node>
	<node id="-325244" lat="59.4920517663" lon="7.44082464631">
		<tag k="name" v="Geiskeli" />
		<tag k="place" v="farm" />
		<tag k="ssr:stedsnr" v="63512" />
	</node>
	<node id="-325755" lat="59.3545916677" lon="7.35266388487">
		<tag k="name" v="Haugen" />
		<tag k="place" v="farm" />
		<tag k="ssr:stedsnr" v="152916" />
	</node>
	<node id="-328562" lat="59.3721777771" lon="7.41236666743">
		<tag k="name" v="Lii" />
		<tag k="place" v="locality" />
		<tag k="ssr:stedsnr" v="669607" />
	</node>
	<node id="-325753" lat="59.3666611076" lon="7.31877500841">
		<tag k="historic" v="shieling" />
		<tag k="name" v="Lislestøyl" />
		<tag k="place" v="locality" />
		<tag k="ssr:stedsnr" v="152896" />
	</node>
	<node id="-325240" lat="59.3067055574" lon="7.2008138858">
		<tag k="name" v="Sleskred" />
		<tag k="place" v="locality" />
		<tag k="ssr:stedsnr" v="63471" />
	</node>
	<node id="-325749" lat="59.6110416658" lon="7.41556388983">
		<tag k="historic" v="shieling" />
		<tag k="name" v="Heimre Løbakken" />
		<tag k="place" v="locality" />
		<tag k="ssr:stedsnr" v="153650" />
	</node>
	<node id="-325236" lat="59.4008055593" lon="7.37406111003">
		<tag k="name" v="Hestekvæven" />
		<tag k="old_name" v="Hestkvæven" />
		<tag k="place" v="isolated_dwelling" />
		<tag k="ssr:stedsnr" v="63457" />
	</node>
	<node id="-325745" lat="59.4904861098" lon="7.43049721418">
		<tag k="name" v="Agdertun" />
		<tag k="place" v="isolated_dwelling" />
		<tag k="ssr:stedsnr" v="153611" />
	</node>
	<node id="-325744" lat="59.5740000031" lon="7.28873332757">
		<tag k="name" v="Solbakken" />
		<tag k="place" v="farm" />
		<tag k="ssr:stedsnr" v="153607" />
	</node>
	<node id="-324718" lat="59.354594442" lon="7.34598889478">
		<tag k="name" v="Myri" />
		<tag k="place" v="farm" />
		<tag k="ssr:stedsnr" v="881889" />
	</node>
	<node id="-323773" lat="59.4931749962" lon="7.18638610972">
		<tag k="historic" v="shieling" />
		<tag k="name" v="Flatestøyl" />
		<tag k="place" v="locality" />
		<tag k="ssr:stedsnr" v="306122" />
	</node>
	<node id="-324274" lat="59.3552111147" lon="7.40937777764">
		<tag k="historic" v="shieling" />
		<tag k="name" v="Rota" />
		<tag k="place" v="locality" />
		<tag k="ssr:stedsnr" v="366582" />
	</node>
	<node id="-324308" lat="59.3472777745" lon="6.85394999278">
		<tag k="name" v="Beinleihytta" />
		<tag k="place" v="isolated_dwelling" />
		<tag k="ssr:stedsnr" v="391441" />
	</node>
	<node id="-325224" lat="59.5970583314" lon="7.2241333284">
		<tag k="name" v="Væringsstølen" />
		<tag k="place" v="isolated_dwelling" />
		<tag k="ssr:stedsnr" v="63331" />
	</node>
	<node id="-325735" lat="59.3930750019" lon="7.38010556186">
		<tag k="historic" v="shieling" />
		<tag k="name" v="Stokkestøyl" />
		<tag k="place" v="locality" />
		<tag k="ssr:stedsnr" v="152543" />
	</node>
	<node id="-330001" lat="59.4508916668" lon="7.4143749913">
		<tag k="name" v="Nordheim" />
		<tag k="place" v="farm" />
		<tag k="ssr:stedsnr" v="852391" />
	</node>
	<node id="-324717" lat="59.3730972215" lon="7.3448777772">
		<tag k="historic" v="shieling" />
		<tag k="name" v="Blomstøylrjodet" />
		<tag k="place" v="locality" />
		<tag k="ssr:stedsnr" v="881887" />
	</node>
	<node id="-325213" lat="59.3514333363" lon="7.28923332812">
		<tag k="name" v="Skarg" />
		<tag k="place" v="farm" />
		<tag k="ssr:stedsnr" v="63266" />
	</node>
	<node id="-323762" lat="59.3408638933" lon="7.20901667145">
		<tag k="name" v="Myrstøyl" />
		<tag k="place" v="isolated_dwelling" />
		<tag k="ssr:stedsnr" v="305273" />
	</node>
	<node id="-323796" lat="59.4118111084" lon="7.39874167108">
		<tag k="name" v="Skardgil" />
		<tag k="place" v="isolated_dwelling" />
		<tag k="ssr:stedsnr" v="306416" />
	</node>
	<node id="-326190" lat="59.3509500012" lon="7.33870000493">
		<tag k="name" v="Austistog" />
		<tag k="place" v="farm" />
		<tag k="ssr:stedsnr" v="213912" />
	</node>
	<node id="-325718" lat="59.3160527816" lon="7.08443888264">
		<tag k="name" v="Stakkslåtta" />
		<tag k="place" v="isolated_dwelling" />
		<tag k="ssr:stedsnr" v="148855" />
	</node>
	<node id="-324245" lat="59.3512250009" lon="7.33926110326">
		<tag k="fixme" v="consider place=hamlet" />
		<tag k="name" v="Byklum" />
		<tag k="place" v="farm" />
		<tag k="ssr:stedsnr" v="366253" />
	</node>
	<node id="-329998" lat="59.4681361127" lon="7.38352777378">
		<tag k="name" v="Dalen" />
		<tag k="place" v="farm" />
		<tag k="ssr:stedsnr" v="852379" />
	</node>
	<node id="-325714" lat="59.3568805571" lon="7.36004999427">
		<tag k="name" v="Sarv" />
		<tag k="place" v="quarter" />
		<tag k="ssr:stedsnr" v="148645" />
	</node>
	<node id="-326223" lat="59.3594777735" lon="7.2978583318">
		<tag k="historic" v="shieling" />
		<tag k="name" v="Listøyl" />
		<tag k="place" v="locality" />
		<tag k="ssr:stedsnr" v="214921" />
	</node>
	<node id="-325709" lat="59.443276744" lon="7.50858832232">
		<tag k="fixme" v="consider tourism=alpine_hut or tourism=chalet" />
		<tag k="loc_name" v="Berdalsbu" />
		<tag k="name" v="Berdalsbu" />
		<tag k="ssr:stedsnr" v="144141" />
		<tag k="tourism" v="wilderness_hut" />
	</node>
	<node id="-328631" lat="59.3775777736" lon="7.39568611916">
		<tag k="name" v="Søylebakkteigen" />
		<tag k="place" v="locality" />
		<tag k="ssr:stedsnr" v="699498" />
	</node>
	<node id="-330934" lat="59.329187448" lon="7.31475179213">
		<tag k="fixme" v="consider place=hamlet" />
		<tag k="name" v="Lambeto" />
		<tag k="place" v="farm" />
		<tag k="ssr:stedsnr" v="971669" />
	</node>
	<node id="-328203" lat="59.6401583371" lon="7.45413888895">
		<tag k="name" v="Bjåen fjellstove" />
		<tag k="ssr:stedsnr" v="731521" />
		<tag k="tourism" v="guest_house" />
	</node>
	<node id="-323765" lat="59.3334527812" lon="7.32509999941">
		<tag k="name" v="Bjones" />
		<tag k="place" v="farm" />
		<tag k="ssr:stedsnr" v="305305" />
	</node>
	<node id="-325692" lat="59.4124472241" lon="7.43364167292">
		<tag k="name" v="Glidbjørg" />
		<tag k="place" v="farm" />
		<tag k="ssr:stedsnr" v="124377" />
	</node>
	<node id="-325690" lat="59.4345055557" lon="7.3619888861">
		<tag k="name" v="Listøyl" />
		<tag k="old_name" v="Listøl" />
		<tag k="place" v="isolated_dwelling" />
		<tag k="ssr:stedsnr" v="124359" />
	</node>
	<node id="-330461" lat="59.3189000038" lon="7.32753611359">
		<tag k="name" v="Moen" />
		<tag k="place" v="farm" />
		<tag k="ssr:stedsnr" v="913294" />
	</node>
	<node id="-327222" lat="59.6116972192" lon="7.40979999881">
		<tag k="historic" v="shieling" />
		<tag k="name" v="Nørdre Løbakken" />
		<tag k="place" v="locality" />
		<tag k="ssr:stedsnr" v="517646" />
	</node>
	<node id="-327689" lat="59.3899777814" lon="7.39054999213">
		<tag k="name" v="Hagabu" />
		<tag k="place" v="isolated_dwelling" />
		<tag k="ssr:stedsnr" v="577514" />
	</node>
	<node id="-327220" lat="59.6097972179" lon="7.41769999878">
		<tag k="historic" v="shieling" />
		<tag k="name" v="Lislefjødd" />
		<tag k="place" v="locality" />
		<tag k="ssr:stedsnr" v="517635" />
	</node>
	<node id="-327201" lat="59.5579638903" lon="7.35590555525">
		<tag k="building" v="civic" />
		<tag k="name" v="Raudekrossen" />
		<tag k="ssr:stedsnr" v="508368" />
	</node>
	<node id="-328108" lat="59.4326111146" lon="7.3565583279">
		<tag k="name" v="Seten" />
		<tag k="place" v="isolated_dwelling" />
		<tag k="ssr:stedsnr" v="609408" />
	</node>
	<node id="-325679" lat="59.3604500022" lon="7.4263416709">
		<tag k="alt_name" v="Reidalstølen;Reindalsstøylen" />
		<tag k="historic" v="shieling" />
		<tag k="name" v="Reidalsstøylen" />
		<tag k="place" v="locality" />
		<tag k="ssr:stedsnr" v="123638" />
	</node>
	<node id="-325678" lat="59.3161222178" lon="7.35826944501">
		<tag k="name" v="Åstog" />
		<tag k="old_name" v="Åsdokk" />
		<tag k="place" v="farm" />
		<tag k="ssr:stedsnr" v="123565" />
	</node>
	<node id="-325676" lat="59.4951638875" lon="7.38652778601">
		<tag k="alt_name" v="Ørnefjødd" />
		<tag k="name" v="Ørnefjell" />
		<tag k="place" v="farm" />
		<tag k="ssr:stedsnr" v="123537" />
	</node>
	<node id="-326187" lat="59.3240194441" lon="7.35320278639">
		<tag k="name" v="Strandestøyl" />
		<tag k="place" v="isolated_dwelling" />
		<tag k="ssr:stedsnr" v="213853" />
	</node>
	<node id="-327722" lat="59.3501722222" lon="7.34074166736">
		<tag k="name" v="Vodden" />
		<tag k="place" v="farm" />
		<tag k="ssr:stedsnr" v="577925" />
	</node>
	<node id="-325673" lat="59.3672083348" lon="7.32582777217">
		<tag k="historic" v="shieling" />
		<tag k="name" v="Nyveltjønn" />
		<tag k="place" v="locality" />
		<tag k="ssr:stedsnr" v="123391" />
	</node>
	<node id="-326181" lat="59.4387277794" lon="7.03250556296">
		<tag k="name" v="Blåbergåskilen" />
		<tag k="place" v="isolated_dwelling" />
		<tag k="ssr:stedsnr" v="210909" />
	</node>
	<node id="-326180" lat="59.3527250004" lon="7.0362916642">
		<tag k="fixme" v="consider tourism=alpine_hut or tourism=chalet" />
		<tag k="name" v="Hovatn" />
		<tag k="ssr:stedsnr" v="209841" />
		<tag k="tourism" v="wilderness_hut" />
	</node>
	<node id="-327235" lat="59.3574750037" lon="7.35595833438">
		<tag k="name" v="Gamlemolii" />
		<tag k="place" v="quarter" />
		<tag k="ssr:stedsnr" v="517918" />
	</node>
	<node id="-326177" lat="59.2388111096" lon="7.03963611943">
		<tag k="fixme" v="consider tourism=alpine_hut or tourism=chalet" />
		<tag k="name" v="Kringlevatn" />
		<tag k="ssr:stedsnr" v="209134" />
		<tag k="tourism" v="wilderness_hut" />
	</node>
	<node id="-324272" lat="59.3176722191" lon="7.35906666086">
		<tag k="name" v="Grasbrokke" />
		<tag k="place" v="farm" />
		<tag k="ssr:stedsnr" v="366539" />
	</node>
	<node id="-325660" lat="59.3370027736" lon="7.2038250072">
		<tag k="historic" v="shieling" />
		<tag k="name" v="Furestøyl" />
		<tag k="place" v="locality" />
		<tag k="ssr:stedsnr" v="123293" />
	</node>
	<node id="-327195" lat="59.6083305588" lon="7.4168416588">
		<tag k="name" v="Fjellbø hyttefelt" />
		<tag k="place" v="neighbourhood" />
		<tag k="ssr:stedsnr" v="488670" />
	</node>
	<node id="-327194" lat="59.3039916694" lon="7.28029999534">
		<tag k="name" v="Hisdal" />
		<tag k="place" v="farm" />
		<tag k="ssr:stedsnr" v="488426" />
	</node>
	<node id="-324248" lat="59.3281083356" lon="7.0500999933">
		<tag k="historic" v="shieling" />
		<tag k="name" v="Brattelistøyl" />
		<tag k="place" v="locality" />
		<tag k="ssr:stedsnr" v="366276" />
	</node>
	<node id="-327700" lat="59.4679416667" lon="7.38367221853">
		<tag k="name" v="Systog" />
		<tag k="place" v="farm" />
		<tag k="ssr:stedsnr" v="577607" />
	</node>
	<node id="-327683" lat="59.3514333368" lon="7.28923610716">
		<tag k="name" v="Ryningen" />
		<tag k="place" v="farm" />
		<tag k="ssr:stedsnr" v="572838" />
	</node>
	<node id="-325647" lat="59.3543055582" lon="7.34117777725">
		<tag k="name" v="Jåro" />
		<tag k="place" v="farm" />
		<tag k="ssr:stedsnr" v="119495" />
	</node>
	<node id="-328609" lat="59.3318527772" lon="7.37644166026">
		<tag k="historic" v="shieling" />
		<tag k="name" v="Fosstøyl" />
		<tag k="old_name" v="Fosstøl" />
		<tag k="place" v="locality" />
		<tag k="ssr:stedsnr" v="670511" />
	</node>
	<node id="-328158" lat="59.4685138909" lon="7.37486389057">
		<tag k="name" v="Nordstog" />
		<tag k="place" v="farm" />
		<tag k="ssr:stedsnr" v="638597" />
	</node>
	<node id="-327180" lat="59.5741944415" lon="7.29063332957">
		<tag k="alt_name" v="Midtbø" />
		<tag k="name" v="Midbø" />
		<tag k="place" v="farm" />
		<tag k="ssr:stedsnr" v="488255" />
	</node>
	<node id="-326155" lat="59.5701500032" lon="7.33638888424">
		<tag k="name" v="Godtstølen" />
		<tag k="place" v="locality" />
		<tag k="ssr:stedsnr" v="185253" />
	</node>
	<node id="-327690" lat="59.3833305536" lon="7.38674999811">
		<tag k="historic" v="shieling" />
		<tag k="name" v="Høymyr" />
		<tag k="place" v="locality" />
		<tag k="ssr:stedsnr" v="577513" />
	</node>
	<node id="-328137" lat="59.3845138904" lon="7.04980000343">
		<tag k="name" v="Den flå dokki" />
		<tag k="place" v="isolated_dwelling" />
		<tag k="ssr:stedsnr" v="633691" />
	</node>
	<node id="-326663" lat="59.4595777737" lon="7.39186666786">
		<tag k="alt_name" v="Haugen hyttefelt" />
		<tag k="name" v="Haugen" />
		<tag k="place" v="neighbourhood" />
		<tag k="ssr:stedsnr" v="266145" />
	</node>
	<node id="-326662" lat="59.331286111" lon="7.42211666313">
		<tag k="name" v="Fitjan" />
		<tag k="place" v="isolated_dwelling" />
		<tag k="ssr:stedsnr" v="266138" />
	</node>
	<node id="-323841" lat="59.4533361119" lon="7.44533332643">
		<tag k="historic" v="shieling" />
		<tag k="name" v="Listøyl" />
		<tag k="place" v="locality" />
		<tag k="ssr:stedsnr" v="335574" />
	</node>
	<node id="-327684" lat="59.4623249996" lon="7.02021388104">
		<tag k="name" v="Grjotdokki" />
		<tag k="place" v="isolated_dwelling" />
		<tag k="ssr:stedsnr" v="573649" />
	</node>
	<node id="-326147" lat="59.3203500038" lon="7.35468610687">
		<tag k="name" v="Hagen" />
		<tag k="place" v="farm" />
		<tag k="ssr:stedsnr" v="184541" />
	</node>
	<node id="-327170" lat="59.3745388934" lon="7.38080278499">
		<tag k="name" v="Rota" />
		<tag k="place" v="isolated_dwelling" />
		<tag k="ssr:stedsnr" v="487651" />
	</node>
	<node id="-327169" lat="59.3593416662" lon="7.36145556285">
		<tag k="name" v="Berg" />
		<tag k="place" v="farm" />
		<tag k="ssr:stedsnr" v="487642" />
	</node>
</osm>
