<?xml version="1.0" encoding="UTF-8"?>
<osm version="0.6" generator="osmapis">
	<node lat="62.230866667121205" lon="10.490394436198638" id="-19774">
		<tag k="name" v="Lauvbekktangen" />
		<tag k="place" v="locality" />
		<tag k="ssr:stedsnr" v="233846" />
	</node>
	<node lat="62.235705558910816" lon="10.344930556768523" id="-19778">
		<tag k="name" v="Veslevangen" />
		<tag k="place" v="locality" />
		<tag k="ssr:stedsnr" v="234067" />
	</node>
	<node lat="62.11573055590338" lon="10.720411119966666" id="-19782">
		<tag k="name" v="Slettan" />
		<tag k="place" v="locality" />
		<tag k="ssr:stedsnr" v="234766" />
	</node>
	<node lat="62.0347777791695" lon="10.808916664876792" id="-19783">
		<tag k="name" v="Skreteigen" />
		<tag k="place" v="locality" />
		<tag k="ssr:stedsnr" v="235708" />
	</node>
	<node lat="62.01698610835558" lon="10.625169445535057" id="-19796">
		<tag k="name" v="Slåttan" />
		<tag k="place" v="locality" />
		<tag k="ssr:stedsnr" v="53674" />
	</node>
	<node lat="62.08140555984624" lon="10.682697228633714" id="-19799">
		<tag k="name" v="Sta" />
		<tag k="place" v="locality" />
		<tag k="ssr:stedsnr" v="53872" />
	</node>
	<node lat="61.9373694471829" lon="10.59508888087505" id="-19824">
		<tag k="name" v="Floan" />
		<tag k="natural" v="wetland" />
		<tag k="ssr:stedsnr" v="252416" />
	</node>
	<node lat="62.05670833653093" lon="10.230883339939906" id="-19839">
		<tag k="name" v="Storriset" />
		<tag k="natural" v="wetland" />
		<tag k="ssr:stedsnr" v="132166" />
	</node>
	<node lat="62.20683888462342" lon="10.694661112002112" id="-19848">
		<tag k="name" v="Soløymyra" />
		<tag k="natural" v="wetland" />
		<tag k="ssr:stedsnr" v="253146" />
	</node>
	<node lat="62.15182222467604" lon="10.518558324346333" id="-19895">
		<tag k="name" v="Bymovangen" />
		<tag k="place" v="locality" />
		<tag k="ssr:stedsnr" v="234692" />
	</node>
	<node lat="62.044200001446086" lon="10.48938610733506" id="-19903">
		<tag k="name" v="Høgkuvmyran" />
		<tag k="natural" v="wetland" />
		<tag k="ssr:stedsnr" v="235905" />
	</node>
	<node lat="62.18394166644835" lon="10.453061105327176" id="-19928">
		<tag k="name" v="Dølplasslia" />
		<tag k="place" v="locality" />
		<tag k="ssr:stedsnr" v="294973" />
	</node>
	<node lat="61.95748332888496" lon="10.647036112754002" id="-19938">
		<tag k="name" v="Myrbærmyra" />
		<tag k="natural" v="wetland" />
		<tag k="ssr:stedsnr" v="313430" />
	</node>
	<node lat="62.086733334815364" lon="10.67687222841952" id="-19988">
		<tag k="name" v="Jordet" />
		<tag k="place" v="locality" />
		<tag k="ssr:stedsnr" v="478841" />
	</node>
	<node lat="62.082261108765394" lon="10.694463887493837" id="-19989">
		<tag k="name" v="Fettan" />
		<tag k="place" v="locality" />
		<tag k="ssr:stedsnr" v="478855" />
	</node>
	<node lat="62.033225000243846" lon="10.171358326280416" id="-20007">
		<tag k="name" v="Stormyra" />
		<tag k="natural" v="wetland" />
		<tag k="ssr:stedsnr" v="374402" />
	</node>
	<node lat="62.212483329657985" lon="10.597024990528803" id="-20021">
		<tag k="name" v="Tøve" />
		<tag k="place" v="locality" />
		<tag k="ssr:stedsnr" v="416701" />
	</node>
	<node lat="62.084444447716805" lon="10.640322214495296" id="-20025">
		<tag k="name" v="Stormyra" />
		<tag k="place" v="locality" />
		<tag k="ssr:stedsnr" v="417900" />
	</node>
	<node lat="62.03024166456211" lon="10.508441657741303" id="-20030">
		<tag k="name" v="Veslemyra" />
		<tag k="natural" v="wetland" />
		<tag k="ssr:stedsnr" v="418888" />
	</node>
	<node lat="62.2110027736682" lon="10.528155557481714" id="-20057">
		<tag k="name" v="Navnesten" />
		<tag k="natural" v="stone" />
		<tag k="ssr:stedsnr" v="477819" />
	</node>
	<node lat="62.025727778712" lon="10.760891673895587" id="-20062">
		<tag k="name" v="Floen" />
		<tag k="natural" v="wetland" />
		<tag k="ssr:stedsnr" v="478676" />
	</node>
	<node lat="62.144222222965794" lon="10.625280555108672" id="-20066">
		<tag k="name" v="Furuset" />
		<tag k="place" v="locality" />
		<tag k="ssr:stedsnr" v="479910" />
	</node>
	<node lat="61.98165555147084" lon="10.888574997916416" id="-20081">
		<tag k="name" v="Stormyra" />
		<tag k="natural" v="wetland" />
		<tag k="ssr:stedsnr" v="678360" />
	</node>
	<node lat="61.98846003839704" lon="10.81072514340682" id="-20083">
		<tag k="historic" v="shieling" />
		<tag k="name" v="Sagsætra" />
		<tag k="place" v="locality" />
		<tag k="ssr:stedsnr" v="678365" />
	</node>
	<node lat="62.08609999611057" lon="10.75354166615225" id="-20123">
		<tag k="name" v="Limåsmyran" />
		<tag k="natural" v="wetland" />
		<tag k="ssr:stedsnr" v="597655" />
	</node>
	<node lat="62.07906111182113" lon="10.396050008426183" id="-20129">
		<tag k="name" v="Heimrøsta" />
		<tag k="place" v="locality" />
		<tag k="ssr:stedsnr" v="598764" />
	</node>
	<node lat="62.1958972230189" lon="10.384266659606675" id="-20154">
		<tag k="name" v="Bussmyra" />
		<tag k="natural" v="wetland" />
		<tag k="ssr:stedsnr" v="658933" />
	</node>
	<node lat="62.16907252261768" lon="10.638208962676087" id="-20159">
		<tag k="name" v="Mjeltstein" />
		<tag k="natural" v="stone" />
		<tag k="ssr:stedsnr" v="659897" />
	</node>
	<node lat="62.116788893433736" lon="10.669163885556912" id="-20165">
		<tag k="name" v="Bethogstet" />
		<tag k="place" v="locality" />
		<tag k="ssr:stedsnr" v="659994" />
	</node>
	<node lat="62.08442222561467" lon="10.626069453972073" id="-20169">
		<tag k="name" v="Gjerdinga" />
		<tag k="place" v="locality" />
		<tag k="ssr:stedsnr" v="660793" />
	</node>
	<node lat="62.23047777548147" lon="10.51797222437624" id="-20191">
		<tag k="name" v="Naustermyra" />
		<tag k="natural" v="wetland" />
		<tag k="ssr:stedsnr" v="719817" />
	</node>
	<node lat="62.118019447194584" lon="10.703666669769962" id="-20198">
		<tag k="name" v="Slettan" />
		<tag k="place" v="locality" />
		<tag k="ssr:stedsnr" v="720997" />
	</node>
	<node lat="61.95538333089155" lon="10.888291658692708" id="-20200">
		<tag k="name" v="Torvmyra" />
		<tag k="natural" v="wetland" />
		<tag k="ssr:stedsnr" v="726669" />
	</node>
	<node lat="62.13948611301314" lon="10.55890278720831" id="-20207">
		<tag k="name" v="Folløyene" />
		<tag k="place" v="locality" />
		<tag k="ssr:stedsnr" v="901693" />
	</node>
	<node lat="62.07854722339726" lon="10.498633338703113" id="-20213">
		<tag k="name" v="Brenna" />
		<tag k="place" v="locality" />
		<tag k="ssr:stedsnr" v="902250" />
	</node>
	<node lat="62.08340277734494" lon="10.479097224810099" id="-20225">
		<tag k="name" v="Storfloen" />
		<tag k="natural" v="wetland" />
		<tag k="ssr:stedsnr" v="739125" />
	</node>
	<node lat="62.08334722383684" lon="10.65169165959366" id="-20238">
		<tag k="name" v="Granholtet" />
		<tag k="place" v="locality" />
		<tag k="ssr:stedsnr" v="903806" />
	</node>
	<node lat="62.162055553517135" lon="10.618491669943385" id="-20256">
		<tag k="name" v="Skjøten" />
		<tag k="place" v="locality" />
		<tag k="ssr:stedsnr" v="781912" />
	</node>
	<node lat="62.08525555374587" lon="10.661638891767478" id="-20259">
		<tag k="name" v="Skauen" />
		<tag k="place" v="locality" />
		<tag k="ssr:stedsnr" v="781860" />
	</node>
	<node lat="62.04040555643685" lon="10.52486388932225" id="-20263">
		<tag k="name" v="Illmyran" />
		<tag k="natural" v="wetland" />
		<tag k="ssr:stedsnr" v="782860" />
	</node>
	<node lat="62.049577780803276" lon="10.59700277244531" id="-20341">
		<tag k="name" v="Blårykjølen" />
		<tag k="natural" v="wetland" />
		<tag k="ssr:stedsnr" v="931324" />
	</node>
	<node lat="62.08379444394047" lon="10.379694439936095" id="-20349">
		<tag k="name" v="Langmyra" />
		<tag k="natural" v="wetland" />
		<tag k="ssr:stedsnr" v="902807" />
	</node>
	<node lat="62.056366665836094" lon="10.740491672107872" id="-20360">
		<tag k="name" v="Hessestømyra" />
		<tag k="natural" v="wetland" />
		<tag k="ssr:stedsnr" v="904658" />
	</node>
	<node lat="62.060375001453146" lon="10.35173334142325" id="-20435">
		<tag k="name" v="Raudbekkmyra" />
		<tag k="natural" v="wetland" />
		<tag k="ssr:stedsnr" v="52757" />
	</node>
	<node lat="62.216069443166795" lon="10.661572213468824" id="-20473">
		<tag k="name" v="Aumenget" />
		<tag k="place" v="locality" />
		<tag k="ssr:stedsnr" v="112762" />
	</node>
	<node lat="62.143627776514734" lon="10.493033333989827" id="-20516">
		<tag k="name" v="Haustenget" />
		<tag k="place" v="locality" />
		<tag k="ssr:stedsnr" v="173646" />
	</node>
	<node lat="62.013597220125234" lon="10.838661118308472" id="-20532">
		<tag k="name" v="Varpstensenget" />
		<tag k="place" v="locality" />
		<tag k="ssr:stedsnr" v="175678" />
	</node>
	<node lat="61.97032222053989" lon="10.856322229315223" id="-20535">
		<tag k="historic" v="shieling" />
		<tag k="name" v="Volsætra" />
		<tag k="place" v="locality" />
		<tag k="ssr:stedsnr" v="175690" />
	</node>
	<node lat="62.034230557395155" lon="10.541755561555473" id="-20539">
		<tag k="name" v="Fallmyran" />
		<tag k="natural" v="wetland" />
		<tag k="ssr:stedsnr" v="175898" />
	</node>
	<node lat="62.0908999958406" lon="10.351705561943799" id="-20641">
		<tag k="name" v="Engetrøa" />
		<tag k="place" v="locality" />
		<tag k="ssr:stedsnr" v="355739" />
	</node>
	<node lat="62.115527779580646" lon="10.441174998633024" id="-20650">
		<tag k="name" v="Radskiftfloen" />
		<tag k="natural" v="wetland" />
		<tag k="ssr:stedsnr" v="355990" />
	</node>
	<node lat="62.09082777845875" lon="10.569691658359373" id="-20653">
		<tag k="name" v="Skardmyrene" />
		<tag k="natural" v="wetland" />
		<tag k="ssr:stedsnr" v="356242" />
	</node>
	<node lat="62.14101388727159" lon="10.643661117300327" id="-20661">
		<tag k="name" v="Tjurumyra" />
		<tag k="natural" v="wetland" />
		<tag k="ssr:stedsnr" v="356937" />
	</node>
	<node lat="62.06569999626985" lon="10.465016674254032" id="-20681">
		<tag k="name" v="Langrøsta" />
		<tag k="natural" v="wetland" />
		<tag k="ssr:stedsnr" v="374161" />
	</node>
	<node lat="62.05040000220885" lon="10.24564166673224" id="-20765">
		<tag k="name" v="Vondriset" />
		<tag k="natural" v="wetland" />
		<tag k="ssr:stedsnr" v="496197" />
	</node>
	<node lat="62.26748888788686" lon="10.361844449428602" id="-20775">
		<tag k="name" v="Torsdikjet" />
		<tag k="natural" v="wetland" />
		<tag k="ssr:stedsnr" v="537782" />
	</node>
	<node lat="62.08795833084281" lon="10.647586117137756" id="-20788">
		<tag k="name" v="Vangsletta" />
		<tag k="place" v="locality" />
		<tag k="ssr:stedsnr" v="539797" />
	</node>
	<node lat="62.03483889212303" lon="10.581891671663563" id="-20804">
		<tag k="name" v="Langmyra" />
		<tag k="natural" v="wetland" />
		<tag k="ssr:stedsnr" v="556197" />
	</node>
	<node lat="62.22663888448369" lon="10.524361116999021" id="-20833">
		<tag k="name" v="Brenna" />
		<tag k="place" v="locality" />
		<tag k="ssr:stedsnr" v="597835" />
	</node>
	<node lat="62.20038888922736" lon="10.426824992957794" id="-20834">
		<tag k="name" v="Gullimomyra" />
		<tag k="natural" v="wetland" />
		<tag k="ssr:stedsnr" v="597983" />
	</node>
	<node lat="62.01973889039163" lon="10.705061113646668" id="-20842">
		<tag k="name" v="Oddvangen" />
		<tag k="place" v="locality" />
		<tag k="ssr:stedsnr" v="599663" />
	</node>
	<node lat="62.113958337343874" lon="10.614611104488437" id="-20844">
		<tag k="name" v="Grimshaugenget" />
		<tag k="place" v="locality" />
		<tag k="ssr:stedsnr" v="599832" />
	</node>
	<node lat="62.10871111537568" lon="10.269722222948873" id="-20876">
		<tag k="name" v="Slåttmyra" />
		<tag k="natural" v="wetland" />
		<tag k="ssr:stedsnr" v="658874" />
	</node>
	<node lat="62.2513777739896" lon="10.408586116799743" id="-20883">
		<tag k="name" v="Bjønnsten" />
		<tag k="natural" v="stone" />
		<tag k="ssr:stedsnr" v="659949" />
	</node>
	<node lat="62.11318333243614" lon="10.304827776288057" id="-20889">
		<tag k="name" v="Svartåsmyra" />
		<tag k="natural" v="wetland" />
		<tag k="ssr:stedsnr" v="719864" />
	</node>
	<node lat="62.162461108928376" lon="10.462383335035568" id="-20897">
		<tag k="name" v="Volenget" />
		<tag k="place" v="locality" />
		<tag k="ssr:stedsnr" v="719973" />
	</node>
	<node lat="62.075308329317004" lon="10.711919441811721" id="-20913">
		<tag k="name" v="Eian" />
		<tag k="place" v="locality" />
		<tag k="ssr:stedsnr" v="721829" />
	</node>
	<node lat="62.20880555682068" lon="10.701327783507264" id="-20950">
		<tag k="name" v="Masingmyra" />
		<tag k="natural" v="wetland" />
		<tag k="ssr:stedsnr" v="780712" />
	</node>
	<node lat="62.080719442167975" lon="10.6742222169211" id="-20953">
		<tag k="name" v="Staholen" />
		<tag k="place" v="locality" />
		<tag k="ssr:stedsnr" v="781866" />
	</node>
	<node lat="62.05456666979732" lon="10.755783340470716" id="-20961">
		<tag k="name" v="Blestermyra" />
		<tag k="natural" v="wetland" />
		<tag k="ssr:stedsnr" v="782643" />
	</node>
	<node lat="62.13042499568302" lon="10.61815834044448" id="-20964">
		<tag k="name" v="Prestenget" />
		<tag k="place" v="locality" />
		<tag k="ssr:stedsnr" v="782930" />
	</node>
	<node lat="61.98640277843059" lon="10.477841665887544" id="-20981">
		<tag k="alt_name" v="Korsbergriset, vestre" />
		<tag k="loc_name" v="Korsbergriset" />
		<tag k="name" v="Vestre Korsbergriset" />
		<tag k="place" v="locality" />
		<tag k="ssr:stedsnr" v="799466" />
	</node>
	<node lat="62.09142222679896" lon="10.387588880385806" id="-20992">
		<tag k="name" v="Nysæterfloen" />
		<tag k="natural" v="wetland" />
		<tag k="ssr:stedsnr" v="800234" />
	</node>
	<node lat="62.08014444457422" lon="10.671697227877509" id="-21007">
		<tag k="name" v="Størfetta" />
		<tag k="place" v="locality" />
		<tag k="ssr:stedsnr" v="842849" />
	</node>
	<node lat="62.12841944828713" lon="10.719549998935872" id="-21047">
		<tag k="name" v="Mellommyra" />
		<tag k="natural" v="wetland" />
		<tag k="ssr:stedsnr" v="962735" />
	</node>
	<node lat="62.154641671065484" lon="10.606105562459692" id="-21055">
		<tag k="alt_name" v="Glåmgård" />
		<tag k="name" v="Glåmgard" />
		<tag k="place" v="locality" />
		<tag k="ssr:stedsnr" v="963918" />
	</node>
</osm>
