<?xml version="1.0" encoding="UTF-8"?>
<osm version="0.6" generator="osmapis">
	<node lat="62.19227222481593" lon="10.430230560603011" id="-20348">
		<tag k="name" v="Tangen" />
		<tag k="place" v="farm" />
		<tag k="ssr:stedsnr" v="10103" />
	</node>
	<node lat="62.025708335556914" lon="10.804802773736272" id="-20349">
		<tag k="name" v="Tufthaugen" />
		<tag k="place" v="farm" />
		<tag k="ssr:stedsnr" v="10044" />
	</node>
	<node lat="62.12560555839547" lon="10.53086666147709" id="-20351">
		<tag k="alt_name" v="Lia, øvre;Øver Lia" />
		<tag k="name" v="Øvre Lia" />
		<tag k="place" v="farm" />
		<tag k="ssr:stedsnr" v="10209" />
	</node>
	<node lat="62.1682999955442" lon="10.499400002407405" id="-20356">
		<tag k="alt_name" v="Månasæter" />
		<tag k="historic" v="shieling" />
		<tag k="name" v="Månsætra" />
		<tag k="place" v="isolated_dwelling" />
		<tag k="ssr:stedsnr" v="11013" />
	</node>
	<node lat="62.133108335051006" lon="10.44203334179574" id="-20357">
		<tag k="historic" v="shieling" />
		<tag k="name" v="Gjota" />
		<tag k="place" v="isolated_dwelling" />
		<tag k="ssr:stedsnr" v="11030" />
	</node>
	<node lat="62.09090139946935" lon="10.45059193663985" id="-20359">
		<tag k="historic" v="shieling" />
		<tag k="name" v="Horøsta" />
		<tag k="place" v="isolated_dwelling" />
		<tag k="ssr:stedsnr" v="11227" />
	</node>
	<node lat="62.12755555899547" lon="10.555958341010019" id="-20368">
		<tag k="name" v="Mæleng" />
		<tag k="place" v="farm" />
		<tag k="ssr:stedsnr" v="234713" />
	</node>
	<node lat="62.0880028867895" lon="10.770652476575696" id="-20369">
		<tag k="name" v="Tylldalsbua" />
		<tag k="place" v="locality" />
		<tag k="ssr:stedsnr" v="234642" />
	</node>
	<node lat="61.96958333740243" lon="10.89816944152212" id="-20373">
		<tag k="name" v="Svebua" />
		<tag k="place" v="locality" />
		<tag k="ssr:stedsnr" v="235721" />
	</node>
	<node lat="62.16663332918472" lon="10.622697213883967" id="-20374">
		<tag k="name" v="Lykkja" />
		<tag k="place" v="farm" />
		<tag k="ssr:stedsnr" v="235894" />
	</node>
	<node lat="62.11485555611204" lon="10.584591663132066" id="-20375">
		<tag k="name" v="Bergly" />
		<tag k="place" v="isolated_dwelling" />
		<tag k="ssr:stedsnr" v="236244" />
	</node>
	<node lat="62.124547225238544" lon="10.603633336436546" id="-20377">
		<tag k="name" v="Grimsgård" />
		<tag k="place" v="farm" />
		<tag k="ssr:stedsnr" v="236952" />
	</node>
	<node lat="62.12578391027939" lon="10.563941353134341" id="-20379">
		<tag k="fixme" v="consider place=hamlet" />
		<tag k="name" v="Follmoen" />
		<tag k="place" v="farm" />
		<tag k="ssr:stedsnr" v="52672" />
	</node>
	<node lat="62.11381667048088" lon="10.631605557750973" id="-20382">
		<tag k="alt_name" v="Thorsheim" />
		<tag k="name" v="Torsheim" />
		<tag k="place" v="farm" />
		<tag k="ssr:stedsnr" v="53779" />
	</node>
	<node lat="62.110305556678725" lon="10.639736107906481" id="-20383">
		<tag k="name" v="Fagertun" />
		<tag k="place" v="isolated_dwelling" />
		<tag k="ssr:stedsnr" v="53782" />
	</node>
	<node lat="62.106972221513715" lon="10.635186105488062" id="-20385">
		<tag k="amenity" v="school" />
		<tag k="name" v="Steigen skole" />
		<tag k="ssr:stedsnr" v="53815" />
	</node>
	<node lat="62.096847221471656" lon="10.657041665100907" id="-20389">
		<tag k="name" v="Nysted" />
		<tag k="place" v="locality" />
		<tag k="ssr:stedsnr" v="53981" />
	</node>
	<node lat="62.16680833722793" lon="10.607661109219562" id="-20392">
		<tag k="alt_name" v="Berget, s" />
		<tag k="name" v="Søndre Berget" />
		<tag k="place" v="farm" />
		<tag k="ssr:stedsnr" v="71009" />
	</node>
	<node lat="62.028463890316196" lon="10.766438884039829" id="-20393">
		<tag k="name" v="Øya" />
		<tag k="place" v="farm" />
		<tag k="ssr:stedsnr" v="71032" />
	</node>
	<node lat="62.06236667046272" lon="10.69966389160503" id="-20394">
		<tag k="name" v="Kvebergsmoen" />
		<tag k="place" v="farm" />
		<tag k="ssr:stedsnr" v="71207" />
	</node>
	<node lat="62.09321388508898" lon="10.628869446930155" id="-20396">
		<tag k="name" v="Eggestad" />
		<tag k="place" v="farm" />
		<tag k="ssr:stedsnr" v="71168" />
	</node>
	<node lat="62.08179730660282" lon="10.628278635099603" id="-20397">
		<tag k="name" v="Lia" />
		<tag k="place" v="locality" />
		<tag k="ssr:stedsnr" v="71179" />
	</node>
	<node lat="62.12862777739018" lon="10.573661107687867" id="-20403">
		<tag k="name" v="Bukkplass" />
		<tag k="place" v="farm" />
		<tag k="ssr:stedsnr" v="113687" />
	</node>
	<node lat="62.12306110669511" lon="10.571541668590891" id="-20404">
		<tag k="loc_name" v="Grågarden" />
		<tag k="name" v="Grågård" />
		<tag k="place" v="farm" />
		<tag k="ssr:stedsnr" v="113689" />
	</node>
	<node lat="62.10102222616269" lon="10.648436102570024" id="-20405">
		<tag k="name" v="Lille Sørhus" />
		<tag k="place" v="farm" />
		<tag k="ssr:stedsnr" v="113768" />
	</node>
	<node lat="62.23668333505305" lon="10.394388895363841" id="-20407">
		<tag k="name" v="Sjøli" />
		<tag k="place" v="farm" />
		<tag k="ssr:stedsnr" v="113920" />
	</node>
	<node lat="62.10350555771796" lon="10.52497222178193" id="-20409">
		<tag k="name" v="Solum" />
		<tag k="place" v="isolated_dwelling" />
		<tag k="ssr:stedsnr" v="114217" />
	</node>
	<node lat="61.99840277379693" lon="10.768755547561602" id="-20410">
		<tag k="historic" v="shieling" />
		<tag k="name" v="Brennrøstsætra" />
		<tag k="place" v="isolated_dwelling" />
		<tag k="ssr:stedsnr" v="114682" />
	</node>
	<node lat="62.04070832906891" lon="10.745408332090767" id="-20416">
		<tag k="name" v="Øykletten" />
		<tag k="place" v="isolated_dwelling" />
		<tag k="ssr:stedsnr" v="131004" />
	</node>
	<node lat="62.04512222513141" lon="10.729666660759477" id="-20417">
		<tag k="name" v="Langodden" />
		<tag k="place" v="farm" />
		<tag k="ssr:stedsnr" v="131010" />
	</node>
	<node lat="62.16366667041399" lon="10.46511389439582" id="-20422">
		<tag k="alt_name" v="Vordenget" />
		<tag k="historic" v="shieling" />
		<tag k="name" v="Volenget" />
		<tag k="place" v="isolated_dwelling" />
		<tag k="ssr:stedsnr" v="132004" />
	</node>
	<node lat="62.054555553162174" lon="10.723225000961897" id="-20423">
		<tag k="alt_name" v="Langleite" />
		<tag k="name" v="Langleitet" />
		<tag k="place" v="farm" />
		<tag k="ssr:stedsnr" v="132010" />
	</node>
	<node lat="62.06223333770522" lon="10.711291667955168" id="-20428">
		<tag k="name" v="Rønningen" />
		<tag k="place" v="farm" />
		<tag k="ssr:stedsnr" v="132170" />
	</node>
	<node lat="62.113866665904084" lon="10.542719445056377" id="-20429">
		<tag k="name" v="Skogstad" />
		<tag k="place" v="farm" />
		<tag k="ssr:stedsnr" v="132186" />
	</node>
	<node lat="62.10391111405187" lon="10.508308327843805" id="-20430">
		<tag k="name" v="Storrøsta" />
		<tag k="place" v="farm" />
		<tag k="ssr:stedsnr" v="132205" />
	</node>
	<node lat="62.10165277564412" lon="10.611763889805124" id="-20431">
		<tag k="name" v="Sandegga" />
		<tag k="place" v="farm" />
		<tag k="ssr:stedsnr" v="132209" />
	</node>
	<node lat="62.239161836980394" lon="10.375167984101822" id="-20432">
		<tag k="fixme" v="consider place=hamlet" />
		<tag k="name" v="Strålberg" />
		<tag k="place" v="farm" />
		<tag k="ssr:stedsnr" v="132411" />
	</node>
	<node lat="62.13851666324051" lon="10.624052772482596" id="-20433">
		<tag k="name" v="Roa" />
		<tag k="place" v="farm" />
		<tag k="ssr:stedsnr" v="253036" />
	</node>
	<node lat="62.02752778080059" lon="10.790977776593158" id="-20435">
		<tag k="alt_name" v="Søgård" />
		<tag k="name" v="Søgard" />
		<tag k="place" v="farm" />
		<tag k="ssr:stedsnr" v="253044" />
	</node>
	<node lat="62.102063892720025" lon="10.734891673945008" id="-20439">
		<tag k="alt_name" v="Kvebergsvangen" />
		<tag k="historic" v="shieling" />
		<tag k="name" v="Kvebergsvangan" />
		<tag k="place" v="isolated_dwelling" />
		<tag k="ssr:stedsnr" v="253060" />
	</node>
	<node lat="62.21661388858389" lon="10.65611389603586" id="-20440">
		<tag k="name" v="Bakkenget" />
		<tag k="place" v="farm" />
		<tag k="ssr:stedsnr" v="253061" />
	</node>
	<node lat="62.080634619198264" lon="10.634110192736683" id="-20441">
		<tag k="alt_name" v="Søstulia" />
		<tag k="name" v="Baugslia" />
		<tag k="place" v="farm" />
		<tag k="ssr:stedsnr" v="253179" />
	</node>
	<node lat="62.098725275220495" lon="10.618716497089228" id="-20445">
		<tag k="fixme" v="consider place=hamlet" />
		<tag k="name" v="Bakken" />
		<tag k="place" v="farm" />
		<tag k="ssr:stedsnr" v="253266" />
	</node>
	<node lat="62.09418358565395" lon="10.485175305696922" id="-20447">
		<tag k="alt_name" v="Skarenget" />
		<tag k="name" v="Skardenget" />
		<tag k="place" v="farm" />
		<tag k="ssr:stedsnr" v="253271" />
	</node>
	<node lat="62.12027499578449" lon="10.613977769151752" id="-20448">
		<tag k="alt_name" v="Glomstad" />
		<tag k="name" v="Glåmstad" />
		<tag k="place" v="farm" />
		<tag k="ssr:stedsnr" v="253272" />
	</node>
	<node lat="62.12063611413609" lon="10.560516668468399" id="-20462">
		<tag k="name" v="Sølnaslottet" />
		<tag k="place" v="farm" />
		<tag k="ssr:stedsnr" v="173663" />
	</node>
	<node lat="62.08276389092398" lon="10.45709444593071" id="-20465">
		<tag k="historic" v="shieling" />
		<tag k="name" v="Blæsterslettet" />
		<tag k="place" v="isolated_dwelling" />
		<tag k="ssr:stedsnr" v="173760" />
	</node>
	<node lat="62.15958333768396" lon="10.473249994427666" id="-20469">
		<tag k="historic" v="shieling" />
		<tag k="name" v="Volenget" />
		<tag k="place" v="isolated_dwelling" />
		<tag k="ssr:stedsnr" v="174715" />
	</node>
	<node lat="62.14500555724948" lon="10.62832776975294" id="-20471">
		<tag k="name" v="Østerud" />
		<tag k="place" v="locality" />
		<tag k="ssr:stedsnr" v="175902" />
	</node>
	<node lat="62.13589167097487" lon="10.57011665856958" id="-20481">
		<tag k="name" v="Stokdal" />
		<tag k="place" v="farm" />
		<tag k="ssr:stedsnr" v="234712" />
	</node>
	<node lat="62.24252756500529" lon="10.382521683740535" id="-20487">
		<tag k="fixme" v="consider place=hamlet" />
		<tag k="name" v="Strålsjøhaug" />
		<tag k="place" v="farm" />
		<tag k="ssr:stedsnr" v="234932" />
	</node>
	<node lat="62.10258611119882" lon="10.523100001633956" id="-20488">
		<tag k="name" v="Liheim" />
		<tag k="place" v="isolated_dwelling" />
		<tag k="ssr:stedsnr" v="235246" />
	</node>
	<node lat="62.11451944048295" lon="10.563672213780032" id="-20489">
		<tag k="name" v="Kjølhaugen" />
		<tag k="place" v="farm" />
		<tag k="ssr:stedsnr" v="235249" />
	</node>
	<node lat="62.09100277780103" lon="10.673802771914918" id="-20492">
		<tag k="name" v="Klokkarrønningen" />
		<tag k="place" v="farm" />
		<tag k="ssr:stedsnr" v="235877" />
	</node>
	<node lat="62.094658330251825" lon="10.660952775321304" id="-20494">
		<tag k="name" v="Nordstad" />
		<tag k="place" v="isolated_dwelling" />
		<tag k="ssr:stedsnr" v="235978" />
	</node>
	<node lat="62.09310278101849" lon="10.622324993642072" id="-20496">
		<tag k="name" v="Fløtten" />
		<tag k="place" v="farm" />
		<tag k="ssr:stedsnr" v="236803" />
	</node>
	<node lat="62.18129999616885" lon="10.61406666418176" id="-20497">
		<tag k="name" v="Berget" />
		<tag k="place" v="farm" />
		<tag k="ssr:stedsnr" v="236895" />
	</node>
	<node lat="62.17395000236869" lon="10.511672223065574" id="-20499">
		<tag k="alt_name" v="Årleite" />
		<tag k="name" v="Orrleitet" />
		<tag k="place" v="farm" />
		<tag k="ssr:stedsnr" v="253007" />
	</node>
	<node lat="62.17895832998471" lon="10.53702222874767" id="-20500">
		<tag k="alt_name" v="Steivangene" />
		<tag k="historic" v="shieling" />
		<tag k="name" v="Steivangan" />
		<tag k="place" v="isolated_dwelling" />
		<tag k="ssr:stedsnr" v="253016" />
	</node>
	<node lat="62.01941388811996" lon="10.628861113370165" id="-20501">
		<tag k="historic" v="shieling" />
		<tag k="name" v="Gammelsætra" />
		<tag k="place" v="isolated_dwelling" />
		<tag k="ssr:stedsnr" v="253203" />
	</node>
	<node lat="62.12762777664019" lon="10.632119436483519" id="-20506">
		<tag k="name" v="Nysted" />
		<tag k="place" v="farm" />
		<tag k="ssr:stedsnr" v="253227" />
	</node>
	<node lat="62.12045833048255" lon="10.40693054933157" id="-20507">
		<tag k="alt_name" v="Tangen" />
		<tag k="name" v="Tangensætra" />
		<tag k="place" v="hamlet" />
		<tag k="ssr:stedsnr" v="253230" />
	</node>
	<node lat="62.131391665912204" lon="10.627391664616546" id="-20509">
		<tag k="name" v="Tronstad" />
		<tag k="place" v="farm" />
		<tag k="ssr:stedsnr" v="253241" />
	</node>
	<node lat="62.09228333095062" lon="10.66405832412778" id="-20522">
		<tag k="name" v="Nestebymoen" />
		<tag k="place" v="farm" />
		<tag k="ssr:stedsnr" v="296847" />
	</node>
	<node lat="62.198363887271235" lon="10.624591662700599" id="-20524">
		<tag k="name" v="Herdalsplass" />
		<tag k="place" v="farm" />
		<tag k="ssr:stedsnr" v="297892" />
	</node>
	<node lat="62.156666666991384" lon="10.623266663147756" id="-20527">
		<tag k="alt_name" v="Skrea" />
		<tag k="name" v="Skreda" />
		<tag k="place" v="farm" />
		<tag k="ssr:stedsnr" v="314060" />
	</node>
	<node lat="62.034149998169575" lon="10.744650007232343" id="-20528">
		<tag k="fixme" v="multiple name tags, choose one and add the other to alt_name" />
		<tag k="name" v="Svartholmbakken;Nørder Hauan" />
		<tag k="place" v="farm" />
		<tag k="ssr:stedsnr" v="314064" />
	</node>
	<node lat="62.21422777578817" lon="10.655100008787242" id="-20529">
		<tag k="alt_name" v="Straumsøya" />
		<tag k="name" v="Strømsøyen" />
		<tag k="place" v="farm" />
		<tag k="ssr:stedsnr" v="314066" />
	</node>
	<node lat="62.123832122480096" lon="10.430698331015147" id="-20531">
		<tag k="historic" v="shieling" />
		<tag k="name" v="Midtsætra" />
		<tag k="place" v="isolated_dwelling" />
		<tag k="ssr:stedsnr" v="314218" />
	</node>
	<node lat="62.119402779004425" lon="10.527902768413169" id="-20532">
		<tag k="name" v="Litrøa" />
		<tag k="place" v="farm" />
		<tag k="ssr:stedsnr" v="314219" />
	</node>
	<node lat="62.20685183761839" lon="10.638251110938688" id="-20535">
		<tag k="fixme" v="consider place=hamlet" />
		<tag k="name" v="Øra" />
		<tag k="place" v="farm" />
		<tag k="ssr:stedsnr" v="314123" />
	</node>
	<node lat="62.202036110074694" lon="10.628402774357381" id="-20536">
		<tag k="name" v="Halvorsgarden" />
		<tag k="place" v="farm" />
		<tag k="ssr:stedsnr" v="314126" />
	</node>
	<node lat="62.20933055288038" lon="10.658127777581955" id="-20537">
		<tag k="name" v="Bjørkli" />
		<tag k="place" v="farm" />
		<tag k="ssr:stedsnr" v="314129" />
	</node>
	<node lat="62.09219331006642" lon="10.587227041541233" id="-20538">
		<tag k="alt_name" v="Skaret" />
		<tag k="fixme" v="consider place=hamlet" />
		<tag k="name" v="Skardet" />
		<tag k="place" v="farm" />
		<tag k="ssr:stedsnr" v="314163" />
	</node>
	<node lat="62.241986109307916" lon="10.394005558349395" id="-20543">
		<tag k="name" v="Trøan" />
		<tag k="place" v="farm" />
		<tag k="ssr:stedsnr" v="314475" />
	</node>
	<node lat="62.24863611441152" lon="10.418850003462538" id="-20544">
		<tag k="name" v="Naustermoen" />
		<tag k="place" v="farm" />
		<tag k="ssr:stedsnr" v="314476" />
	</node>
	<node lat="62.117347223101305" lon="10.550325007061991" id="-20546">
		<tag k="name" v="Amundsplass" />
		<tag k="place" v="farm" />
		<tag k="ssr:stedsnr" v="354722" />
	</node>
	<node lat="62.13021944640812" lon="10.578713884536164" id="-20547">
		<tag k="name" v="Vårtun" />
		<tag k="place" v="farm" />
		<tag k="ssr:stedsnr" v="355716" />
	</node>
	<node lat="62.13149166723113" lon="10.576772226115741" id="-20548">
		<tag k="name" v="Nyrønning" />
		<tag k="place" v="farm" />
		<tag k="ssr:stedsnr" v="355720" />
	</node>
	<node lat="62.08806111487462" lon="10.624291657712112" id="-20551">
		<tag k="name" v="Bakkmoen" />
		<tag k="place" v="farm" />
		<tag k="ssr:stedsnr" v="356829" />
	</node>
	<node lat="62.02761944134992" lon="10.787616672787289" id="-20552">
		<tag k="loc_name" v="Nygard" />
		<tag k="name" v="Nygård" />
		<tag k="place" v="farm" />
		<tag k="ssr:stedsnr" v="357649" />
	</node>
	<node lat="62.087200000054544" lon="10.625155549184063" id="-20559">
		<tag k="name" v="Lier" />
		<tag k="place" v="isolated_dwelling" />
		<tag k="ssr:stedsnr" v="357800" />
	</node>
	<node lat="62.22841944026615" lon="10.509891667052052" id="-20561">
		<tag k="historic" v="shieling" />
		<tag k="name" v="Osvangsætra" />
		<tag k="place" v="isolated_dwelling" />
		<tag k="ssr:stedsnr" v="476824" />
	</node>
	<node lat="62.116205559403014" lon="10.368599996152163" id="-20567">
		<tag k="historic" v="shieling" />
		<tag k="name" v="Storhaugen" />
		<tag k="place" v="isolated_dwelling" />
		<tag k="ssr:stedsnr" v="476993" />
	</node>
	<node lat="62.092152779278344" lon="10.428680554817335" id="-20569">
		<tag k="name" v="Kvernhusøybua" />
		<tag k="place" v="locality" />
		<tag k="ssr:stedsnr" v="477833" />
	</node>
	<node lat="62.126433329902405" lon="10.588716666115028" id="-20570">
		<tag k="name" v="Follsund" />
		<tag k="place" v="farm" />
		<tag k="ssr:stedsnr" v="477769" />
	</node>
	<node lat="62.13386388497888" lon="10.579499996821744" id="-20571">
		<tag k="name" v="Manmoen" />
		<tag k="place" v="farm" />
		<tag k="ssr:stedsnr" v="477776" />
	</node>
	<node lat="62.10861666285852" lon="10.637383342513791" id="-20572">
		<tag k="building" v="commercial" />
		<tag k="name" v="Alvdal næringssenter" />
		<tag k="ssr:stedsnr" v="477797" />
	</node>
	<node lat="62.19680833129831" lon="10.619063882810757" id="-20582">
		<tag k="name" v="Egga" />
		<tag k="place" v="farm" />
		<tag k="ssr:stedsnr" v="374113" />
	</node>
	<node lat="62.173572221823804" lon="10.625763892926528" id="-20583">
		<tag k="name" v="Borsa" />
		<tag k="place" v="farm" />
		<tag k="ssr:stedsnr" v="374009" />
	</node>
	<node lat="61.949941666063474" lon="10.888733333928194" id="-20593">
		<tag k="name" v="Aursjøbekken" />
		<tag k="place" v="farm" />
		<tag k="ssr:stedsnr" v="374346" />
	</node>
	<node lat="62.1320194476665" lon="10.601111112569784" id="-20604">
		<tag k="name" v="Borg" />
		<tag k="place" v="farm" />
		<tag k="ssr:stedsnr" v="479954" />
	</node>
	<node lat="62.166299997354784" lon="10.54087499193171" id="-20605">
		<tag k="name" v="Nordstad" />
		<tag k="place" v="farm" />
		<tag k="ssr:stedsnr" v="375004" />
	</node>
	<node lat="62.19001944422283" lon="10.464180555604585" id="-20606">
		<tag k="alt_name" v="Dølplassen, nedre;Nedre Dølplass" />
		<tag k="name" v="Nedre Dølplassen" />
		<tag k="place" v="farm" />
		<tag k="ssr:stedsnr" v="384320" />
	</node>
	<node lat="62.212094442539104" lon="10.643938895400108" id="-20607">
		<tag k="name" v="Solly" />
		<tag k="place" v="farm" />
		<tag k="ssr:stedsnr" v="416702" />
	</node>
	<node lat="62.10852499704802" lon="10.6347805493122" id="-20611">
		<tag k="amenity" v="townhall" />
		<tag k="name" v="Alvdal kommunehus" />
		<tag k="ssr:stedsnr" v="417791" />
	</node>
	<node lat="62.19348332991511" lon="10.51288610511018" id="-20621">
		<tag k="alt_name" v="Langsætra;Langsetra;Langseteren" />
		<tag k="historic" v="shieling" />
		<tag k="name" v="Steilangsætra" />
		<tag k="old_name" v="Langsr" />
		<tag k="place" v="isolated_dwelling" />
		<tag k="ssr:stedsnr" v="435129" />
	</node>
	<node lat="62.19421666924556" lon="10.623624996847443" id="-20622">
		<tag k="name" v="Lykkja" />
		<tag k="place" v="farm" />
		<tag k="ssr:stedsnr" v="435136" />
	</node>
	<node lat="62.0329388864807" lon="10.771749994879544" id="-20624">
		<tag k="name" v="Øymoen" />
		<tag k="place" v="farm" />
		<tag k="ssr:stedsnr" v="435064" />
	</node>
	<node lat="61.97249166591648" lon="10.445974999118473" id="-20637">
		<tag k="name" v="Kvislåbua" />
		<tag k="place" v="isolated_dwelling" />
		<tag k="ssr:stedsnr" v="677453" />
	</node>
	<node lat="61.974627781882326" lon="10.443263886804504" id="-20638">
		<tag k="fixme" v="consider tourism=alpine_hut or tourism=chalet" />
		<tag k="name" v="Korsberghytta" />
		<tag k="ssr:stedsnr" v="677455" />
		<tag k="tourism" v="wilderness_hut" />
	</node>
	<node lat="62.1203805577902" lon="10.56546388085432" id="-20639">
		<tag k="name" v="Skolestua" />
		<tag k="place" v="isolated_dwelling" />
		<tag k="ssr:stedsnr" v="477727" />
	</node>
	<node lat="62.12539166351263" lon="10.554627779886518" id="-20640">
		<tag k="name" v="Lilleeng" />
		<tag k="place" v="farm" />
		<tag k="ssr:stedsnr" v="477729" />
	</node>
	<node lat="62.10311944818017" lon="10.64371944792525" id="-20642">
		<tag k="alt_name" v="Smestad" />
		<tag k="name" v="Smedstad" />
		<tag k="place" v="farm" />
		<tag k="ssr:stedsnr" v="477810" />
	</node>
	<node lat="62.049713893299284" lon="10.378719445789425" id="-20644">
		<tag k="name" v="Bihaugbua" />
		<tag k="place" v="locality" />
		<tag k="ssr:stedsnr" v="477816" />
	</node>
	<node lat="61.94234999940233" lon="10.278727785420255" id="-20649">
		<tag k="name" v="Rønningsvangen" />
		<tag k="place" v="isolated_dwelling" />
		<tag k="ssr:stedsnr" v="677622" />
	</node>
	<node lat="62.085452781175604" lon="10.684088879755096" id="-20651">
		<tag k="name" v="Gammelstu Haugen" />
		<tag k="place" v="farm" />
		<tag k="ssr:stedsnr" v="478858" />
	</node>
	<node lat="62.14541371765395" lon="10.619715421659869" id="-20653">
		<tag k="name" v="Nordre Bergebakken" />
		<tag k="place" v="farm" />
		<tag k="ssr:stedsnr" v="479909" />
	</node>
	<node lat="62.13444166343842" lon="10.624794442191218" id="-20655">
		<tag k="name" v="Tronsli" />
		<tag k="place" v="farm" />
		<tag k="ssr:stedsnr" v="678043" />
	</node>
	<node lat="62.139702774381234" lon="10.545808332437552" id="-20656">
		<tag k="name" v="Neslund" />
		<tag k="place" v="farm" />
		<tag k="ssr:stedsnr" v="678050" />
	</node>
	<node lat="62.140913892176755" lon="10.625699991502625" id="-20657">
		<tag k="name" v="Nordli" />
		<tag k="place" v="farm" />
		<tag k="ssr:stedsnr" v="678052" />
	</node>
	<node lat="62.02408889226612" lon="10.795744444734554" id="-20658">
		<tag k="alt_name" v="Ness" />
		<tag k="name" v="Nes" />
		<tag k="place" v="farm" />
		<tag k="ssr:stedsnr" v="678053" />
	</node>
	<node lat="62.14083333300984" lon="10.571847231239172" id="-20659">
		<tag k="name" v="Hågensbakken" />
		<tag k="old_name" v="Granlund;Husomteigen;Haugomteigen" />
		<tag k="place" v="farm" />
		<tag k="ssr:stedsnr" v="678056" />
	</node>
	<node lat="62.141647222155775" lon="10.542880563793608" id="-20661">
		<tag k="name" v="Nordli" />
		<tag k="place" v="farm" />
		<tag k="ssr:stedsnr" v="678060" />
	</node>
	<node lat="62.14677778152057" lon="10.538183337264533" id="-20662">
		<tag k="alt_name" v="Nessvangen" />
		<tag k="historic" v="shieling" />
		<tag k="name" v="Nesvangen" />
		<tag k="place" v="isolated_dwelling" />
		<tag k="ssr:stedsnr" v="678061" />
	</node>
	<node lat="62.15032222164489" lon="10.557713882803688" id="-20663">
		<tag k="name" v="Folløya" />
		<tag k="place" v="farm" />
		<tag k="ssr:stedsnr" v="678067" />
	</node>
	<node lat="62.07967222298323" lon="10.677149993816844" id="-20665">
		<tag k="name" v="Stalund" />
		<tag k="place" v="farm" />
		<tag k="ssr:stedsnr" v="678156" />
	</node>
	<node lat="62.081375000339385" lon="10.638169442862564" id="-20666">
		<tag k="alt_name" v="Lieng" />
		<tag k="name" v="Lienget" />
		<tag k="place" v="farm" />
		<tag k="ssr:stedsnr" v="678158" />
	</node>
	<node lat="62.104579033827" lon="10.640233255327407" id="-20667">
		<tag k="alt_name" v="Randmæl Øvergård" />
		<tag k="name" v="Øvergård" />
		<tag k="place" v="farm" />
		<tag k="ssr:stedsnr" v="678265" />
	</node>
	<node lat="61.99441388488566" lon="10.880616657148321" id="-20672">
		<tag k="name" v="Urstrømmen" />
		<tag k="place" v="farm" />
		<tag k="ssr:stedsnr" v="678366" />
	</node>
	<node lat="62.13906002336124" lon="10.612742730838871" id="-20674">
		<tag k="fixme" v="consider place=hamlet" />
		<tag k="name" v="Kåsa" />
		<tag k="place" v="farm" />
		<tag k="ssr:stedsnr" v="495044" />
	</node>
	<node lat="62.12626666772302" lon="10.623711101961163" id="-20675">
		<tag k="name" v="Jordamoen" />
		<tag k="place" v="farm" />
		<tag k="ssr:stedsnr" v="496203" />
	</node>
	<node lat="62.120921098351715" lon="10.568740433259347" id="-20676">
		<tag k="fixme" v="consider place=hamlet" />
		<tag k="name" v="Øya" />
		<tag k="place" v="farm" />
		<tag k="ssr:stedsnr" v="496219" />
	</node>
	<node lat="62.121483335011646" lon="10.609872221698371" id="-20679">
		<tag k="name" v="Vestgård" />
		<tag k="place" v="farm" />
		<tag k="ssr:stedsnr" v="496249" />
	</node>
	<node lat="62.20879444039899" lon="10.597366673245471" id="-20685">
		<tag k="name" v="Sevildal" />
		<tag k="place" v="farm" />
		<tag k="ssr:stedsnr" v="537702" />
	</node>
	<node lat="62.127600000768936" lon="10.569297217561267" id="-20688">
		<tag k="name" v="Andershaugen" />
		<tag k="place" v="farm" />
		<tag k="ssr:stedsnr" v="538706" />
	</node>
	<node lat="62.10406111177228" lon="10.641822231213435" id="-20690">
		<tag k="name" v="Thorrud" />
		<tag k="place" v="farm" />
		<tag k="ssr:stedsnr" v="538786" />
	</node>
	<node lat="61.96748610697121" lon="10.917316663599946" id="-20692">
		<tag k="name" v="Såtåbua" />
		<tag k="place" v="locality" />
		<tag k="ssr:stedsnr" v="539670" />
	</node>
	<node lat="62.19516535954981" lon="10.625149676159523" id="-20693">
		<tag k="name" v="Søndre Sivillhaugen" />
		<tag k="place" v="farm" />
		<tag k="ssr:stedsnr" v="539884" />
	</node>
	<node lat="62.160605559892396" lon="10.556391658494038" id="-20695">
		<tag k="name" v="Skau" />
		<tag k="place" v="farm" />
		<tag k="ssr:stedsnr" v="556003" />
	</node>
	<node lat="62.04464166735294" lon="10.294877782782613" id="-20697">
		<tag k="historic" v="shieling" />
		<tag k="name" v="Follandsvangen" />
		<tag k="place" v="isolated_dwelling" />
		<tag k="ssr:stedsnr" v="556216" />
	</node>
	<node lat="62.12262778080926" lon="10.630658330894038" id="-20698">
		<tag k="name" v="Husan" />
		<tag k="place" v="farm" />
		<tag k="ssr:stedsnr" v="556219" />
	</node>
	<node lat="62.10177500026369" lon="10.545663897767758" id="-20700">
		<tag k="name" v="Vesterheim" />
		<tag k="place" v="farm" />
		<tag k="ssr:stedsnr" v="556261" />
	</node>
	<node lat="62.08447500221788" lon="10.627863895962014" id="-20710">
		<tag k="name" v="Vetlebakken" />
		<tag k="place" v="isolated_dwelling" />
		<tag k="ssr:stedsnr" v="588567" />
	</node>
	<node lat="62.10140555878786" lon="10.643533340356736" id="-20714">
		<tag k="name" v="Nordre Sørhus" />
		<tag k="place" v="farm" />
		<tag k="ssr:stedsnr" v="598755" />
	</node>
	<node lat="62.089952776201464" lon="10.623444451015946" id="-20725">
		<tag k="name" v="Eiemoen" />
		<tag k="place" v="farm" />
		<tag k="ssr:stedsnr" v="600810" />
	</node>
	<node lat="62.04747500159057" lon="10.734730559547284" id="-20730">
		<tag k="name" v="Oddtrøa" />
		<tag k="place" v="farm" />
		<tag k="ssr:stedsnr" v="617009" />
	</node>
	<node lat="62.01729999887107" lon="10.837469451793282" id="-20732">
		<tag k="name" v="Glåmlia" />
		<tag k="place" v="farm" />
		<tag k="ssr:stedsnr" v="617045" />
	</node>
	<node lat="62.14074034311986" lon="10.668564113565514" id="-20733">
		<tag k="alt_name" v="Trondsvangan" />
		<tag k="name" v="Tronsvangene" />
		<tag k="place" v="hamlet" />
		<tag k="ssr:stedsnr" v="617050" />
	</node>
	<node lat="62.021505556354754" lon="10.821236108692696" id="-20734">
		<tag k="name" v="Høyegga" />
		<tag k="place" v="farm" />
		<tag k="ssr:stedsnr" v="617057" />
	</node>
	<node lat="62.1098118073558" lon="10.606150701828568" id="-20737">
		<tag k="name" v="Baugsmoen" />
		<tag k="place" v="farm" />
		<tag k="ssr:stedsnr" v="617286" />
	</node>
	<node lat="62.20448332971407" lon="10.653219443564035" id="-20738">
		<tag k="alt_name" v="Straumsøya" />
		<tag k="name" v="Strømsøyen" />
		<tag k="place" v="farm" />
		<tag k="ssr:stedsnr" v="617707" />
	</node>
	<node lat="62.14833611493456" lon="10.322161114100812" id="-20743">
		<tag k="name" v="Måssåbua" />
		<tag k="place" v="locality" />
		<tag k="ssr:stedsnr" v="659087" />
	</node>
	<node lat="62.16509999686888" lon="10.620419448466109" id="-20746">
		<tag k="name" v="Haugen" />
		<tag k="place" v="farm" />
		<tag k="ssr:stedsnr" v="659895" />
	</node>
	<node lat="62.1741305524863" lon="10.627950009188488" id="-20748">
		<tag k="name" v="Øverhaug" />
		<tag k="place" v="isolated_dwelling" />
		<tag k="ssr:stedsnr" v="659898" />
	</node>
	<node lat="62.09821388544593" lon="10.648919446387074" id="-20749">
		<tag k="name" v="Nestebyjordet" />
		<tag k="place" v="farm" />
		<tag k="ssr:stedsnr" v="659780" />
	</node>
	<node lat="62.03376666306445" lon="10.37414167157672" id="-20750">
		<tag k="name" v="Skanckehytta" />
		<tag k="place" v="isolated_dwelling" />
		<tag k="ssr:stedsnr" v="659781" />
	</node>
	<node lat="62.056533332886175" lon="10.561372215731202" id="-20754">
		<tag k="name" v="Søstølibua" />
		<tag k="place" v="locality" />
		<tag k="ssr:stedsnr" v="660190" />
	</node>
	<node lat="62.0929750016696" lon="10.599294442809407" id="-20758">
		<tag k="name" v="Vesleskaret" />
		<tag k="place" v="farm" />
		<tag k="ssr:stedsnr" v="661811" />
	</node>
	<node lat="62.10386110983664" lon="10.612063896482123" id="-20759">
		<tag k="leisure" v="pitch" />
		<tag k="name" v="Sandeggbakken" />
		<tag k="ssr:stedsnr" v="661813" />
	</node>
	<node lat="62.038899999941336" lon="10.7649611028474" id="-20762">
		<tag k="alt_name" v="Moldstad" />
		<tag k="name" v="Maldstad" />
		<tag k="place" v="farm" />
		<tag k="ssr:stedsnr" v="678006" />
	</node>
	<node lat="62.20880833729312" lon="10.593330552702112" id="-20764">
		<tag k="name" v="Framstad" />
		<tag k="place" v="farm" />
		<tag k="ssr:stedsnr" v="678077" />
	</node>
	<node lat="62.22369999646151" lon="10.524036115848187" id="-20766">
		<tag k="historic" v="shieling" />
		<tag k="name" v="Klettvangen" />
		<tag k="place" v="isolated_dwelling" />
		<tag k="ssr:stedsnr" v="678088" />
	</node>
	<node lat="62.136908332024696" lon="10.624761110713719" id="-20767">
		<tag k="alt_name" v="Trondslia" />
		<tag k="name" v="Tronslia" />
		<tag k="place" v="farm" />
		<tag k="ssr:stedsnr" v="678223" />
	</node>
	<node lat="62.130522222478035" lon="10.568075008753306" id="-20768">
		<tag k="fixme" v="consider place=hamlet" />
		<tag k="name" v="Plassen" />
		<tag k="place" v="village" />
		<tag k="ssr:stedsnr" v="678231" />
	</node>
	<node lat="62.12429166307266" lon="10.60068333462796" id="-20769">
		<tag k="name" v="Murud" />
		<tag k="place" v="farm" />
		<tag k="ssr:stedsnr" v="678234" />
	</node>
	<node lat="62.205113889711726" lon="10.610674999308241" id="-20770">
		<tag k="alt_name" v="Siviltun" />
		<tag k="name" v="Sivillmoen" />
		<tag k="place" v="farm" />
		<tag k="ssr:stedsnr" v="678127" />
	</node>
	<node lat="62.070497217881595" lon="10.705341669930027" id="-20771">
		<tag k="alt_name" v="Gjelten" />
		<tag k="name" v="Gjelta" />
		<tag k="place" v="farm" />
		<tag k="ssr:stedsnr" v="678131" />
	</node>
	<node lat="61.99603044780144" lon="10.869053852847202" id="-20776">
		<tag k="fixme" v="consider place=hamlet" />
		<tag k="name" v="Barkald" />
		<tag k="place" v="farm" />
		<tag k="ssr:stedsnr" v="698203" />
	</node>
	<node lat="62.124036107534536" lon="10.552719445590613" id="-20777">
		<tag k="name" v="Trøa" />
		<tag k="place" v="farm" />
		<tag k="ssr:stedsnr" v="719684" />
	</node>
	<node lat="62.12011938981526" lon="10.550332303947982" id="-20778">
		<tag k="name" v="Syverstrøa" />
		<tag k="place" v="farm" />
		<tag k="ssr:stedsnr" v="719692" />
	</node>
	<node lat="62.09803055329226" lon="10.654491664123867" id="-20782">
		<tag k="name" v="Nordhus" />
		<tag k="place" v="farm" />
		<tag k="ssr:stedsnr" v="720804" />
	</node>
	<node lat="62.12326110879763" lon="10.574913884847414" id="-20785">
		<tag k="name" v="Mortensplass" />
		<tag k="old_name" v="Mortensan" />
		<tag k="place" v="farm" />
		<tag k="ssr:stedsnr" v="720769" />
	</node>
	<node lat="62.11899722655201" lon="10.55006666859969" id="-20791">
		<tag k="name" v="Nymoen" />
		<tag k="place" v="farm" />
		<tag k="ssr:stedsnr" v="901725" />
	</node>
	<node lat="62.121241669329784" lon="10.55103055263287" id="-20793">
		<tag k="name" v="Sandtrøa" />
		<tag k="place" v="farm" />
		<tag k="ssr:stedsnr" v="901730" />
	</node>
	<node lat="62.121183329919994" lon="10.54551110715633" id="-20794">
		<tag k="name" v="Monshaugen" />
		<tag k="place" v="farm" />
		<tag k="ssr:stedsnr" v="901683" />
	</node>
	<node lat="62.11747777769805" lon="10.587902768719962" id="-20802">
		<tag k="alt_name" v="Gulløyen" />
		<tag k="name" v="Gulløya" />
		<tag k="place" v="farm" />
		<tag k="ssr:stedsnr" v="738206" />
	</node>
	<node lat="62.12807500058618" lon="10.492727773537432" id="-20803">
		<tag k="historic" v="shieling" />
		<tag k="name" v="Nysætra" />
		<tag k="place" v="isolated_dwelling" />
		<tag k="ssr:stedsnr" v="738216" />
	</node>
	<node lat="62.07411110939817" lon="10.304202773789742" id="-20805">
		<tag k="name" v="Bakkfjellet" />
		<tag k="place" v="isolated_dwelling" />
		<tag k="ssr:stedsnr" v="738155" />
	</node>
	<node lat="61.97986118278774" lon="10.225230590988616" id="-20808">
		<tag k="name" v="Steimobua" />
		<tag k="old_name" v="Steinmobua" />
		<tag k="place" v="locality" />
		<tag k="ssr:stedsnr" v="738508" />
	</node>
	<node lat="62.188127774938955" lon="10.646186109651973" id="-20811">
		<tag k="alt_name" v="Trondsegga" />
		<tag k="name" v="Tronsegga" />
		<tag k="place" v="farm" />
		<tag k="ssr:stedsnr" v="739025" />
	</node>
	<node lat="62.09939778290998" lon="10.64684220527516" id="-20816">
		<tag k="alt_name" v="Søndre Sørhus;Søndre Sjulhus;Søndre Sjurdhus;Sørhus søndre" />
		<tag k="name" v="Sjurdhusjordet" />
		<tag k="place" v="farm" />
		<tag k="ssr:stedsnr" v="739221" />
	</node>
	<node lat="62.10228363917927" lon="10.642215892377568" id="-20817">
		<tag k="alt_name" v="Sjulhus" />
		<tag k="fixme" v="consider place=hamlet" />
		<tag k="name" v="Sjurdhus" />
		<tag k="place" v="farm" />
		<tag k="ssr:stedsnr" v="739223" />
	</node>
	<node lat="62.10002777599961" lon="10.65069721547186" id="-20818">
		<tag k="alt_name" v="Sørhustrøa" />
		<tag k="name" v="Sjurdhustrøa" />
		<tag k="place" v="farm" />
		<tag k="ssr:stedsnr" v="739224" />
	</node>
	<node lat="62.09062499965779" lon="10.472241670402294" id="-20819">
		<tag k="name" v="Sølna" />
		<tag k="place" v="farm" />
		<tag k="ssr:stedsnr" v="739227" />
	</node>
	<node lat="62.11238611314729" lon="10.479402778068877" id="-20820">
		<tag k="historic" v="shieling" />
		<tag k="name" v="Gammelsætra" />
		<tag k="place" v="isolated_dwelling" />
		<tag k="ssr:stedsnr" v="739234" />
	</node>
	<node lat="62.13065555451005" lon="10.56634999151908" id="-20822">
		<tag k="amenity" v="school" />
		<tag k="name" v="Plassen skole" />
		<tag k="ssr:stedsnr" v="902734" />
	</node>
	<node lat="62.03119722253271" lon="10.512483332275348" id="-20824">
		<tag k="historic" v="shieling" />
		<tag k="name" v="Dølbekksætran" />
		<tag k="place" v="isolated_dwelling" />
		<tag k="ssr:stedsnr" v="739149" />
	</node>
	<node lat="62.073725002274166" lon="10.688024992949217" id="-20829">
		<tag k="name" v="Stamotrøa" />
		<tag k="place" v="locality" />
		<tag k="ssr:stedsnr" v="904844" />
	</node>
	<node lat="62.11885491973951" lon="10.558789646823941" id="-20833">
		<tag k="fixme" v="consider place=hamlet" />
		<tag k="loc_name" v="Plassgarden" />
		<tag k="name" v="Plassgård" />
		<tag k="place" v="farm" />
		<tag k="ssr:stedsnr" v="779713" />
	</node>
	<node lat="62.164397223566795" lon="10.549011104812779" id="-20835">
		<tag k="name" v="Steivanglia" />
		<tag k="place" v="hamlet" />
		<tag k="ssr:stedsnr" v="780618" />
	</node>
	<node lat="62.231402780175756" lon="10.37396667305832" id="-20838">
		<tag k="name" v="Kvernmoen" />
		<tag k="place" v="locality" />
		<tag k="ssr:stedsnr" v="780908" />
	</node>
	<node lat="62.2071055592137" lon="10.437675008046954" id="-20840">
		<tag k="name" v="Pustut" />
		<tag k="place" v="isolated_dwelling" />
		<tag k="ssr:stedsnr" v="780913" />
	</node>
	<node lat="62.191708330512085" lon="10.428775008625074" id="-20841">
		<tag k="name" v="Nysted" />
		<tag k="place" v="isolated_dwelling" />
		<tag k="ssr:stedsnr" v="780956" />
	</node>
	<node lat="62.11115000237201" lon="10.605083325986115" id="-20845">
		<tag k="name" v="Sandeggmoen" />
		<tag k="place" v="farm" />
		<tag k="ssr:stedsnr" v="781848" />
	</node>
	<node lat="62.094561109740965" lon="10.618624993220635" id="-20846">
		<tag k="name" v="Eggtun" />
		<tag k="place" v="farm" />
		<tag k="ssr:stedsnr" v="781853" />
	</node>
	<node lat="62.178297221795304" lon="10.633697225228994" id="-20849">
		<tag k="name" v="Tronbu" />
		<tag k="place" v="isolated_dwelling" />
		<tag k="ssr:stedsnr" v="781897" />
	</node>
	<node lat="62.030502774004056" lon="10.78342222210125" id="-20854">
		<tag k="alt_name" v="Yter Bellingmoen" />
		<tag k="name" v="Bellingmoen" />
		<tag k="place" v="farm" />
		<tag k="ssr:stedsnr" v="799039" />
	</node>
	<node lat="62.0706250023619" lon="10.393402768498506" id="-20855">
		<tag k="historic" v="shieling" />
		<tag k="name" v="Franksætra" />
		<tag k="place" v="isolated_dwelling" />
		<tag k="ssr:stedsnr" v="799146" />
	</node>
	<node lat="62.13312222247353" lon="10.636088896844692" id="-20858">
		<tag k="name" v="Øverli" />
		<tag k="place" v="farm" />
		<tag k="ssr:stedsnr" v="799208" />
	</node>
	<node lat="62.15868333386558" lon="10.559827769318025" id="-20861">
		<tag k="name" v="Brekkli" />
		<tag k="place" v="farm" />
		<tag k="ssr:stedsnr" v="800005" />
	</node>
	<node lat="62.023177778840775" lon="10.189383325071852" id="-20866">
		<tag k="fixme" v="consider tourism=alpine_hut or tourism=chalet" />
		<tag k="name" v="Øvre Flatseter" />
		<tag k="ssr:stedsnr" v="815405" />
		<tag k="tourism" v="wilderness_hut" />
	</node>
	<node lat="62.2092944407829" lon="10.374627768298526" id="-20867">
		<tag k="alt_name" v="Røsta, øvre" />
		<tag k="name" v="Øvre Røsta" />
		<tag k="place" v="farm" />
		<tag k="ssr:stedsnr" v="920072" />
	</node>
	<node lat="62.18369167049457" lon="10.61519999290166" id="-20868">
		<tag k="name" v="Bergerønningen" />
		<tag k="place" v="farm" />
		<tag k="ssr:stedsnr" v="921021" />
	</node>
	<node lat="62.17807499804542" lon="10.503816672647707" id="-20869">
		<tag k="name" v="Follheim" />
		<tag k="place" v="farm" />
		<tag k="ssr:stedsnr" v="921022" />
	</node>
	<node lat="62.18512777835116" lon="10.634291657976757" id="-20870">
		<tag k="alt_name" v="Trondskroken" />
		<tag k="name" v="Tronskroken" />
		<tag k="place" v="farm" />
		<tag k="ssr:stedsnr" v="921027" />
	</node>
	<node lat="62.06668332961377" lon="10.702663893482288" id="-20871">
		<tag k="alt_name" v="Kvebergstuen" />
		<tag k="name" v="Kvebergsstua" />
		<tag k="place" v="farm" />
		<tag k="ssr:stedsnr" v="921124" />
	</node>
	<node lat="62.143738887158996" lon="10.612897221386477" id="-20873">
		<tag k="name" v="Månegga" />
		<tag k="place" v="farm" />
		<tag k="ssr:stedsnr" v="921049" />
	</node>
	<node lat="62.07446666766949" lon="10.394333329566921" id="-20878">
		<tag k="historic" v="shieling" />
		<tag k="name" v="Sølnsætra" />
		<tag k="place" v="isolated_dwelling" />
		<tag k="ssr:stedsnr" v="921135" />
	</node>
	<node lat="62.079619446901965" lon="10.681436107025808" id="-20879">
		<tag k="name" v="Furustad" />
		<tag k="place" v="farm" />
		<tag k="ssr:stedsnr" v="921151" />
	</node>
	<node lat="62.124858335689964" lon="10.61101665753016" id="-20880">
		<tag k="name" v="Steimoen" />
		<tag k="place" v="farm" />
		<tag k="ssr:stedsnr" v="921204" />
	</node>
	<node lat="62.11612500080959" lon="10.579750008564146" id="-20881">
		<tag k="name" v="Moan" />
		<tag k="place" v="hamlet" />
		<tag k="ssr:stedsnr" v="921216" />
	</node>
	<node lat="62.11588333623867" lon="10.590791659437617" id="-20882">
		<tag k="name" v="Gulløymoen" />
		<tag k="place" v="farm" />
		<tag k="ssr:stedsnr" v="921217" />
	</node>
	<node lat="62.10692221877094" lon="10.550727776175693" id="-20885">
		<tag k="name" v="Skaulund" />
		<tag k="place" v="farm" />
		<tag k="ssr:stedsnr" v="921250" />
	</node>
	<node lat="62.10953305827438" lon="10.626496081855926" id="-20886">
		<tag k="alt_name" v="Storsteigen" />
		<tag k="fixme" v="consider place=hamlet" />
		<tag k="name" v="Storsteia" />
		<tag k="place" v="farm" />
		<tag k="ssr:stedsnr" v="921252" />
	</node>
	<node lat="62.128608333797885" lon="10.558022230724372" id="-20887">
		<tag k="alt_name" v="Mælum" />
		<tag k="name" v="Melum" />
		<tag k="place" v="farm" />
		<tag k="ssr:stedsnr" v="921227" />
	</node>
	<node lat="61.99664444752473" lon="10.852469442682741" id="-20888">
		<tag k="name" v="Sagplassen" />
		<tag k="place" v="isolated_dwelling" />
		<tag k="ssr:stedsnr" v="921361" />
	</node>
	<node lat="62.245944440783255" lon="10.39107500465826" id="-20889">
		<tag k="name" v="Strypet" />
		<tag k="place" v="farm" />
		<tag k="ssr:stedsnr" v="921466" />
	</node>
	<node lat="62.23346666639424" lon="10.346652775156011" id="-20890">
		<tag k="historic" v="shieling" />
		<tag k="name" v="Einunnvangen" />
		<tag k="place" v="isolated_dwelling" />
		<tag k="ssr:stedsnr" v="921468" />
	</node>
	<node lat="62.00494999756257" lon="10.844755559762685" id="-20893">
		<tag k="name" v="Nymoen" />
		<tag k="place" v="farm" />
		<tag k="ssr:stedsnr" v="921475" />
	</node>
	<node lat="62.11861944228492" lon="10.534663893429336" id="-20894">
		<tag k="name" v="Øvergard" />
		<tag k="place" v="farm" />
		<tag k="ssr:stedsnr" v="840727" />
	</node>
	<node lat="62.12824999571461" lon="10.583341670688977" id="-20895">
		<tag k="name" v="Måntrøa" />
		<tag k="place" v="farm" />
		<tag k="ssr:stedsnr" v="841729" />
	</node>
	<node lat="62.195675002010795" lon="10.480194438549823" id="-20896">
		<tag k="alt_name" v="Djupdalsætra ytre" />
		<tag k="historic" v="shieling" />
		<tag k="name" v="Ytre Djupdalsætra" />
		<tag k="place" v="isolated_dwelling" />
		<tag k="ssr:stedsnr" v="841782" />
	</node>
	<node lat="62.12931111267457" lon="10.56831111631704" id="-20897">
		<tag k="name" v="Evensplass" />
		<tag k="place" v="farm" />
		<tag k="ssr:stedsnr" v="841684" />
	</node>
	<node lat="62.113277773835286" lon="10.559791673487421" id="-20903">
		<tag k="name" v="Torshaugen" />
		<tag k="place" v="farm" />
		<tag k="ssr:stedsnr" v="843244" />
	</node>
	<node lat="62.12098611398347" lon="10.608033328528505" id="-20906">
		<tag k="name" v="Persheim" />
		<tag k="place" v="isolated_dwelling" />
		<tag k="ssr:stedsnr" v="843932" />
	</node>
	<node lat="62.04338333110597" lon="10.727047226226198" id="-20912">
		<tag k="name" v="Oddstea" />
		<tag k="place" v="farm" />
		<tag k="ssr:stedsnr" v="860009" />
	</node>
	<node lat="62.1667250015189" lon="10.543405551445892" id="-20913">
		<tag k="name" v="Vangli" />
		<tag k="place" v="farm" />
		<tag k="ssr:stedsnr" v="860010" />
	</node>
	<node lat="62.1714166706631" lon="10.623063882901432" id="-20914">
		<tag k="name" v="Nyheim" />
		<tag k="place" v="farm" />
		<tag k="ssr:stedsnr" v="860013" />
	</node>
	<node lat="62.09042469305905" lon="10.626737264496043" id="-20916">
		<tag k="alt_name" v="Baugen" />
		<tag k="name" v="Sveien" />
		<tag k="place" v="farm" />
		<tag k="ssr:stedsnr" v="860175" />
	</node>
	<node lat="62.09381666998567" lon="10.607313896732753" id="-20917">
		<tag k="alt_name" v="Klokkerhaugen" />
		<tag k="name" v="Klokkarhaugen" />
		<tag k="place" v="farm" />
		<tag k="ssr:stedsnr" v="860176" />
	</node>
	<node lat="62.119598976067316" lon="10.683876751216522" id="-20920">
		<tag k="alt_name" v="Sjurhusvangen;Sjulhusvangen" />
		<tag k="historic" v="shieling" />
		<tag k="name" v="Sjurdhusvangan" />
		<tag k="place" v="isolated_dwelling" />
		<tag k="ssr:stedsnr" v="860224" />
	</node>
	<node lat="62.09883611230294" lon="10.614438883657511" id="-20922">
		<tag k="alt_name" v="Bakken" />
		<tag k="name" v="Sandmel" />
		<tag k="place" v="farm" />
		<tag k="ssr:stedsnr" v="860264" />
	</node>
	<node lat="62.09603589432932" lon="10.617102366364897" id="-20923">
		<tag k="fixme" v="consider place=hamlet" />
		<tag k="name" v="Flaten" />
		<tag k="place" v="farm" />
		<tag k="ssr:stedsnr" v="860267" />
	</node>
	<node lat="62.092336114214845" lon="10.335752787284" id="-20924">
		<tag k="historic" v="shieling" />
		<tag k="name" v="Kjemsjøsætra" />
		<tag k="place" v="isolated_dwelling" />
		<tag k="ssr:stedsnr" v="860273" />
	</node>
	<node lat="62.09350555413622" lon="10.439866665538613" id="-20925">
		<tag k="name" v="Bihaug" />
		<tag k="place" v="farm" />
		<tag k="ssr:stedsnr" v="860275" />
	</node>
	<node lat="62.207044440419104" lon="10.661436106826326" id="-20930">
		<tag k="name" v="Strømsøyen" />
		<tag k="place" v="farm" />
		<tag k="ssr:stedsnr" v="878869" />
	</node>
	<node lat="62.13920278183076" lon="10.57211388903037" id="-20931">
		<tag k="name" v="Husanteigen" />
		<tag k="place" v="farm" />
		<tag k="ssr:stedsnr" v="901703" />
	</node>
	<node lat="62.215161111408264" lon="10.656480546064499" id="-20932">
		<tag k="name" v="Løvtun" />
		<tag k="place" v="isolated_dwelling" />
		<tag k="ssr:stedsnr" v="901770" />
	</node>
	<node lat="62.11551110956706" lon="10.577230563590692" id="-20934">
		<tag k="name" v="Bymoen" />
		<tag k="place" v="farm" />
		<tag k="ssr:stedsnr" v="902725" />
	</node>
	<node lat="62.113072224102545" lon="10.630036118045638" id="-20935">
		<tag k="name" v="Øvretun" />
		<tag k="place" v="isolated_dwelling" />
		<tag k="ssr:stedsnr" v="902786" />
	</node>
	<node lat="62.2586833292233" lon="10.390030548470133" id="-20938">
		<tag k="historic" v="shieling" />
		<tag k="name" v="Vassbakken" />
		<tag k="place" v="isolated_dwelling" />
		<tag k="ssr:stedsnr" v="902950" />
	</node>
	<node lat="62.11493055231538" lon="10.579188887033027" id="-20941">
		<tag k="name" v="Gulløytrøa" />
		<tag k="place" v="farm" />
		<tag k="ssr:stedsnr" v="903221" />
	</node>
	<node lat="62.10852777655448" lon="10.551694442623827" id="-20942">
		<tag k="name" v="Storbekkmoen" />
		<tag k="place" v="farm" />
		<tag k="ssr:stedsnr" v="903224" />
	</node>
	<node lat="62.0267527735966" lon="10.778158334323399" id="-20945">
		<tag k="name" v="Øynes" />
		<tag k="place" v="farm" />
		<tag k="ssr:stedsnr" v="903657" />
	</node>
	<node lat="62.09169166743465" lon="10.667216673136878" id="-20946">
		<tag k="name" v="Solbakken" />
		<tag k="place" v="farm" />
		<tag k="ssr:stedsnr" v="903853" />
	</node>
	<node lat="62.06759999642077" lon="10.77092778698709" id="-20947">
		<tag k="historic" v="shieling" />
		<tag k="name" v="Langleitsætra" />
		<tag k="place" v="isolated_dwelling" />
		<tag k="ssr:stedsnr" v="904649" />
	</node>
	<node lat="62.198919445383275" lon="10.625011114106597" id="-20950">
		<tag k="name" v="Haldos" />
		<tag k="place" v="farm" />
		<tag k="ssr:stedsnr" v="904906" />
	</node>
	<node lat="62.13509999902161" lon="10.64559166158559" id="-20953">
		<tag k="name" v="Brenna" />
		<tag k="place" v="farm" />
		<tag k="ssr:stedsnr" v="920193" />
	</node>
	<node lat="61.998533332362534" lon="10.425991668429608" id="-20955">
		<tag k="historic" v="shieling" />
		<tag k="name" v="Kvislåsætra" />
		<tag k="place" v="isolated_dwelling" />
		<tag k="ssr:stedsnr" v="920387" />
	</node>
	<node lat="62.16149166535081" lon="10.620794437252219" id="-20957">
		<tag k="name" v="Huset" />
		<tag k="place" v="farm" />
		<tag k="ssr:stedsnr" v="921003" />
	</node>
	<node lat="62.16608889084365" lon="10.59230000335829" id="-20958">
		<tag k="alt_name" v="Bergevangan" />
		<tag k="historic" v="shieling" />
		<tag k="name" v="Bergevangen" />
		<tag k="place" v="isolated_dwelling" />
		<tag k="ssr:stedsnr" v="921004" />
	</node>
	<node lat="62.02763333347832" lon="10.800166660484118" id="-20961">
		<tag k="name" v="Solheim" />
		<tag k="place" v="farm" />
		<tag k="ssr:stedsnr" v="921046" />
	</node>
	<node lat="62.2008500010905" lon="10.615283335565922" id="-20963">
		<tag k="alt_name" v="Morkli" />
		<tag k="name" v="Markli" />
		<tag k="place" v="farm" />
		<tag k="ssr:stedsnr" v="921093" />
	</node>
	<node lat="62.20001111556699" lon="10.487055561479659" id="-20964">
		<tag k="alt_name" v="Djupdalsætra øvre" />
		<tag k="historic" v="shieling" />
		<tag k="name" v="Djupdalen" />
		<tag k="place" v="isolated_dwelling" />
		<tag k="ssr:stedsnr" v="921112" />
	</node>
	<node lat="62.045347226594146" lon="10.57416388613506" id="-20970">
		<tag k="alt_name" v="Aumdalsætran" />
		<tag k="historic" v="shieling" />
		<tag k="name" v="Aumdalen" />
		<tag k="place" v="isolated_dwelling" />
		<tag k="ssr:stedsnr" v="921199" />
	</node>
	<node lat="62.20624166582361" lon="10.653194452968902" id="-20974">
		<tag k="name" v="Øyanenget" />
		<tag k="place" v="farm" />
		<tag k="ssr:stedsnr" v="962708" />
	</node>
	<node lat="62.028627780084484" lon="10.783130550849858" id="-20977">
		<tag k="name" v="Strandbu" />
		<tag k="place" v="isolated_dwelling" />
		<tag k="ssr:stedsnr" v="963704" />
	</node>
	<node lat="62.18674999714667" lon="10.473777775489516" id="-20983">
		<tag k="alt_name" v="Randmelsøya;Randmelsøyra" />
		<tag k="name" v="Randmælsøya" />
		<tag k="place" v="locality" />
		<tag k="ssr:stedsnr" v="10105" />
	</node>
	<node lat="62.19882221950456" lon="10.626011103238838" id="-20984">
		<tag k="name" v="Jonsmoen" />
		<tag k="place" v="farm" />
		<tag k="ssr:stedsnr" v="10112" />
	</node>
	<node lat="62.1974277769931" lon="10.648124990663522" id="-20985">
		<tag k="name" v="Tronsheim" />
		<tag k="place" v="farm" />
		<tag k="ssr:stedsnr" v="10116" />
	</node>
	<node lat="62.19919722244053" lon="10.449736103813008" id="-20986">
		<tag k="name" v="Sølve" />
		<tag k="place" v="farm" />
		<tag k="ssr:stedsnr" v="10126" />
	</node>
	<node lat="62.21004166580366" lon="10.662661107376348" id="-20987">
		<tag k="name" v="Åsheim" />
		<tag k="place" v="farm" />
		<tag k="ssr:stedsnr" v="10134" />
	</node>
	<node lat="62.13068889230888" lon="10.625400007912962" id="-20988">
		<tag k="name" v="Østlund" />
		<tag k="place" v="farm" />
		<tag k="ssr:stedsnr" v="10193" />
	</node>
	<node lat="62.11485277768075" lon="10.585063888699647" id="-20989">
		<tag k="name" v="Nymoen" />
		<tag k="place" v="farm" />
		<tag k="ssr:stedsnr" v="10197" />
	</node>
	<node lat="62.202547222938456" lon="10.592819442093809" id="-20992">
		<tag k="name" v="Åsen" />
		<tag k="place" v="farm" />
		<tag k="ssr:stedsnr" v="10069" />
	</node>
	<node lat="62.17678333178669" lon="10.610708338539695" id="-21000">
		<tag k="alt_name" v="Berget, nordre" />
		<tag k="name" v="Nordre Berget" />
		<tag k="place" v="farm" />
		<tag k="ssr:stedsnr" v="11017" />
	</node>
	<node lat="62.19225278045627" lon="10.643644443235136" id="-21001">
		<tag k="alt_name" v="Trondsmoen" />
		<tag k="name" v="Tronsmoen" />
		<tag k="place" v="farm" />
		<tag k="ssr:stedsnr" v="11025" />
	</node>
	<node lat="62.096183328995956" lon="10.559880553926245" id="-21004">
		<tag k="name" v="Solberg" />
		<tag k="place" v="farm" />
		<tag k="ssr:stedsnr" v="11217" />
	</node>
	<node lat="62.201905558334936" lon="10.65043888737446" id="-21015">
		<tag k="name" v="Strømsøyen" />
		<tag k="place" v="farm" />
		<tag k="ssr:stedsnr" v="52697" />
	</node>
	<node lat="62.20368055178794" lon="10.632199997284593" id="-21016">
		<tag k="name" v="Nordigarden" />
		<tag k="place" v="farm" />
		<tag k="ssr:stedsnr" v="52698" />
	</node>
	<node lat="62.16316944536171" lon="10.547725004892518" id="-21019">
		<tag k="name" v="Steivang" />
		<tag k="place" v="farm" />
		<tag k="ssr:stedsnr" v="52649" />
	</node>
	<node lat="62.13572777710191" lon="10.604508335838855" id="-21028">
		<tag k="name" v="Måna" />
		<tag k="place" v="farm" />
		<tag k="ssr:stedsnr" v="54947" />
	</node>
	<node lat="61.961597847502475" lon="10.2537248447112" id="-21029">
		<tag k="fixme" v="consider tourism=alpine_hut or tourism=chalet" />
		<tag k="name" v="Breisjøseter" />
		<tag k="old_name" v="Breidsjøsætra;Breisjøsætra" />
		<tag k="ssr:stedsnr" v="70590" />
		<tag k="tourism" v="wilderness_hut" />
	</node>
	<node lat="62.20097222067949" lon="10.390275004483748" id="-21031">
		<tag k="name" v="Trøan" />
		<tag k="place" v="farm" />
		<tag k="ssr:stedsnr" v="71121" />
	</node>
	<node lat="62.19767222045973" lon="10.399336116651593" id="-21032">
		<tag k="alt_name" v="Røsta, nedre" />
		<tag k="name" v="Nedre Røsta" />
		<tag k="place" v="farm" />
		<tag k="ssr:stedsnr" v="71123" />
	</node>
	<node lat="62.07435521673839" lon="10.699198970373011" id="-21033">
		<tag k="alt_name" v="Stamoen, nedre" />
		<tag k="fixme" v="multiple name tags, choose one and add the other to alt_name" />
		<tag k="name" v="Ostermoen;Nedre Stamoen" />
		<tag k="place" v="farm" />
		<tag k="ssr:stedsnr" v="71140" />
	</node>
	<node lat="62.01776111065853" lon="10.676947219907982" id="-21037">
		<tag k="alt_name" v="Urskardsætran" />
		<tag k="historic" v="shieling" />
		<tag k="name" v="Urdskardsætran" />
		<tag k="place" v="isolated_dwelling" />
		<tag k="ssr:stedsnr" v="71200" />
	</node>
	<node lat="62.13370277899174" lon="10.631927786991286" id="-21038">
		<tag k="name" v="Nerli" />
		<tag k="place" v="farm" />
		<tag k="ssr:stedsnr" v="71227" />
	</node>
	<node lat="62.1281583308066" lon="10.541905564838492" id="-21039">
		<tag k="name" v="Dølhaugen" />
		<tag k="place" v="farm" />
		<tag k="ssr:stedsnr" v="71232" />
	</node>
	<node lat="62.130338890948956" lon="10.54281388365592" id="-21040">
		<tag k="alt_name" v="Nordihaugen" />
		<tag k="name" v="Nord i haugan" />
		<tag k="place" v="farm" />
		<tag k="ssr:stedsnr" v="71237" />
	</node>
	<node lat="62.11907221777365" lon="10.639347226710889" id="-21041">
		<tag k="name" v="Skogen" />
		<tag k="place" v="farm" />
		<tag k="ssr:stedsnr" v="71256" />
	</node>
	<node lat="62.10139910568113" lon="10.63927364344547" id="-21048">
		<tag k="alt_name" v="Nedre Randmæl;Nedre Randmelen;Randmelen;Randmæl;Randmel" />
		<tag k="name" v="Nedre Randmælen" />
		<tag k="place" v="farm" />
		<tag k="ssr:stedsnr" v="71724" />
	</node>
	<node lat="62.14177222661476" lon="10.624483340420605" id="-21050">
		<tag k="name" v="Furulund" />
		<tag k="place" v="farm" />
		<tag k="ssr:stedsnr" v="72040" />
	</node>
	<node lat="62.12199271391142" lon="10.54489170906724" id="-21058">
		<tag k="name" v="Fauthaugen" />
		<tag k="place" v="farm" />
		<tag k="ssr:stedsnr" v="112685" />
	</node>
	<node lat="62.12531666868883" lon="10.544433336443" id="-21059">
		<tag k="name" v="Jehanhaugen" />
		<tag k="place" v="farm" />
		<tag k="ssr:stedsnr" v="112686" />
	</node>
	<node lat="62.20332777734249" lon="10.626169442336812" id="-21060">
		<tag k="name" v="Basheim" />
		<tag k="place" v="isolated_dwelling" />
		<tag k="ssr:stedsnr" v="112738" />
	</node>
	<node lat="62.073044441676814" lon="10.394602784162466" id="-21066">
		<tag k="historic" v="shieling" />
		<tag k="name" v="Spellvangen" />
		<tag k="place" v="isolated_dwelling" />
		<tag k="ssr:stedsnr" v="113781" />
	</node>
	<node lat="62.12722777802916" lon="10.575238880050577" id="-21069">
		<tag k="name" v="Eriksplassen" />
		<tag k="place" v="farm" />
		<tag k="ssr:stedsnr" v="113737" />
	</node>
	<node lat="62.11181498099175" lon="10.625672628060489" id="-21070">
		<tag k="name" v="Øvre Steien" />
		<tag k="place" v="farm" />
		<tag k="ssr:stedsnr" v="113761" />
	</node>
	<node lat="62.114724999932186" lon="10.57028055855693" id="-21072">
		<tag k="name" v="Vestre Hyttemoen" />
		<tag k="place" v="farm" />
		<tag k="ssr:stedsnr" v="114229" />
	</node>
	<node lat="62.13510555322442" lon="10.60205832452586" id="-21075">
		<tag k="name" v="Måna" />
		<tag k="place" v="farm" />
		<tag k="ssr:stedsnr" v="131041" />
	</node>
	<node lat="62.135975000170085" lon="10.576825007444864" id="-21076">
		<tag k="fixme" v="multiple name tags, choose one and add the other to alt_name" />
		<tag k="name" v="Trøan;Sandbakken" />
		<tag k="place" v="farm" />
		<tag k="ssr:stedsnr" v="131044" />
	</node>
	<node lat="62.12345699256498" lon="10.534667383070893" id="-21079">
		<tag k="name" v="Lian" />
		<tag k="place" v="hamlet" />
		<tag k="ssr:stedsnr" v="131199" />
	</node>
	<node lat="61.95542500177231" lon="10.64679443835754" id="-21080">
		<tag k="alt_name" v="Tegningsætra, nordre" />
		<tag k="historic" v="shieling" />
		<tag k="name" v="Nordre Tegningsætra" />
		<tag k="old_name" v="Teiningsætra, nordre" />
		<tag k="place" v="isolated_dwelling" />
		<tag k="ssr:stedsnr" v="131421" />
	</node>
	<node lat="62.01295555544298" lon="10.833713893348213" id="-21088">
		<tag k="alt_name" v="Urlimoen" />
		<tag k="name" v="Urdlimoen" />
		<tag k="place" v="farm" />
		<tag k="ssr:stedsnr" v="132030" />
	</node>
	<node lat="62.1417972206266" lon="10.656480550788864" id="-21089">
		<tag k="historic" v="shieling" />
		<tag k="name" v="Gruvvangen" />
		<tag k="place" v="isolated_dwelling" />
		<tag k="ssr:stedsnr" v="132033" />
	</node>
	<node lat="62.02183888888521" lon="10.803383340153104" id="-21090">
		<tag k="alt_name" v="Hardneset, nedre;Hårdnes (Ne'ate)" />
		<tag k="name" v="Nedre Hardneset" />
		<tag k="place" v="farm" />
		<tag k="ssr:stedsnr" v="132036" />
	</node>
	<node lat="62.150994446610675" lon="10.62345834249193" id="-21091">
		<tag k="name" v="Rognset" />
		<tag k="place" v="farm" />
		<tag k="ssr:stedsnr" v="132042" />
	</node>
	<node lat="62.15784722354983" lon="10.56174166216179" id="-21092">
		<tag k="name" v="Holset" />
		<tag k="place" v="farm" />
		<tag k="ssr:stedsnr" v="132048" />
	</node>
	<node lat="62.113594440348756" lon="10.551077771390764" id="-21093">
		<tag k="name" v="Kvernhusøya" />
		<tag k="place" v="farm" />
		<tag k="ssr:stedsnr" v="132188" />
	</node>
	<node lat="62.192597224772406" lon="10.424366671631061" id="-21094">
		<tag k="name" v="Follia" />
		<tag k="place" v="farm" />
		<tag k="ssr:stedsnr" v="132081" />
	</node>
	<node lat="62.19144166465561" lon="10.454372229638535" id="-21099">
		<tag k="alt_name" v="Dølplassen, øvre;Dølplass;Øvre Dølplass;Dølplassen" />
		<tag k="name" v="Øvre Dølplassen" />
		<tag k="place" v="farm" />
		<tag k="ssr:stedsnr" v="141450" />
	</node>
	<node lat="62.114883329837525" lon="10.451527777958582" id="-21105">
		<tag k="historic" v="shieling" />
		<tag k="name" v="Øykjegrubba" />
		<tag k="place" v="isolated_dwelling" />
		<tag k="ssr:stedsnr" v="173732" />
	</node>
	<node lat="62.11576666803898" lon="10.376516663105381" id="-21110">
		<tag k="historic" v="shieling" />
		<tag k="name" v="Veslehaugen" />
		<tag k="place" v="isolated_dwelling" />
		<tag k="ssr:stedsnr" v="173992" />
	</node>
	<node lat="62.226763887092915" lon="10.356424999490152" id="-21114">
		<tag k="name" v="Fossen" />
		<tag k="place" v="isolated_dwelling" />
		<tag k="ssr:stedsnr" v="174945" />
	</node>
	<node lat="62.112288887770426" lon="10.558397214266881" id="-21116">
		<tag k="name" v="Lorentsrøa" />
		<tag k="place" v="isolated_dwelling" />
		<tag k="ssr:stedsnr" v="175232" />
	</node>
	<node lat="62.0956444489475" lon="10.62664166157124" id="-21124">
		<tag k="name" v="Soltun" />
		<tag k="place" v="farm" />
		<tag k="ssr:stedsnr" v="175785" />
	</node>
	<node lat="62.123144447728116" lon="10.62592499591437" id="-21128">
		<tag k="name" v="Steifetten" />
		<tag k="place" v="farm" />
		<tag k="ssr:stedsnr" v="175929" />
	</node>
	<node lat="62.09601111183319" lon="10.625033324431305" id="-21129">
		<tag k="name" v="Nordtun" />
		<tag k="place" v="farm" />
		<tag k="ssr:stedsnr" v="175836" />
	</node>
	<node lat="62.09536392341642" lon="10.617661652827618" id="-21130">
		<tag k="name" v="Søndre Flaten" />
		<tag k="place" v="farm" />
		<tag k="ssr:stedsnr" v="175844" />
	</node>
	<node lat="62.13877499990442" lon="10.57462778468609" id="-21133">
		<tag k="name" v="Nybakk" />
		<tag k="place" v="farm" />
		<tag k="ssr:stedsnr" v="192036" />
	</node>
	<node lat="62.210249995718996" lon="10.597186102602025" id="-21134">
		<tag k="name" v="Alvheim" />
		<tag k="place" v="farm" />
		<tag k="ssr:stedsnr" v="192132" />
	</node>
	<node lat="62.20356666717028" lon="10.62394999941905" id="-21135">
		<tag k="fixme" v="multiple name tags, choose one and add the other to alt_name" />
		<tag k="name" v="Veslstumoen;Eldstad" />
		<tag k="place" v="farm" />
		<tag k="ssr:stedsnr" v="192133" />
	</node>
	<node lat="62.03466944663125" lon="10.764180558380833" id="-21136">
		<tag k="name" v="Kvisli" />
		<tag k="place" v="farm" />
		<tag k="ssr:stedsnr" v="192051" />
	</node>
	<node lat="62.21467222083386" lon="10.37478889279286" id="-21137">
		<tag k="name" v="Krokmoen" />
		<tag k="place" v="farm" />
		<tag k="ssr:stedsnr" v="192083" />
	</node>
	<node lat="62.12582222516846" lon="10.631472212859425" id="-21139">
		<tag k="name" v="Nygård" />
		<tag k="place" v="farm" />
		<tag k="ssr:stedsnr" v="192208" />
	</node>
	<node lat="62.126886110518846" lon="10.63859999983141" id="-21140">
		<tag k="name" v="Østli" />
		<tag k="place" v="farm" />
		<tag k="ssr:stedsnr" v="192209" />
	</node>
	<node lat="62.11830000050867" lon="10.563099990857468" id="-21142">
		<tag k="fixme" v="multiple name tags, choose one and add the other to alt_name" />
		<tag k="name" v="Klokkaran;Øygarden" />
		<tag k="place" v="farm" />
		<tag k="ssr:stedsnr" v="192227" />
	</node>
	<node lat="62.12531388830702" lon="10.565033324908738" id="-21143">
		<tag k="name" v="Plassmoen" />
		<tag k="place" v="hamlet" />
		<tag k="ssr:stedsnr" v="192229" />
	</node>
	<node lat="61.94565555772652" lon="10.65436943719298" id="-21145">
		<tag k="alt_name" v="Tegningsætra, søre" />
		<tag k="historic" v="shieling" />
		<tag k="name" v="Søndre Tegningsætra" />
		<tag k="old_name" v="Teiningsætra, s" />
		<tag k="place" v="isolated_dwelling" />
		<tag k="ssr:stedsnr" v="192466" />
	</node>
	<node lat="62.14933333702114" lon="10.621852778071208" id="-21154">
		<tag k="name" v="Klettli" />
		<tag k="place" v="isolated_dwelling" />
		<tag k="ssr:stedsnr" v="193054" />
	</node>
	<node lat="62.1713138928511" lon="10.609283329189775" id="-21157">
		<tag k="alt_name" v="Berget, midtre;Berget" />
		<tag k="name" v="Midtre Berget" />
		<tag k="place" v="farm" />
		<tag k="ssr:stedsnr" v="193008" />
	</node>
	<node lat="62.17220000183594" lon="10.395852781859782" id="-21158">
		<tag k="historic" v="shieling" />
		<tag k="name" v="Langåsen" />
		<tag k="place" v="isolated_dwelling" />
		<tag k="ssr:stedsnr" v="193012" />
	</node>
	<node lat="62.178636107487584" lon="10.631563893165762" id="-21159">
		<tag k="name" v="Tronly" />
		<tag k="place" v="farm" />
		<tag k="ssr:stedsnr" v="193016" />
	</node>
	<node lat="62.10032777651541" lon="10.624827780436426" id="-21164">
		<tag k="alt_name" v="Engen" />
		<tag k="name" v="Enga" />
		<tag k="place" v="farm" />
		<tag k="ssr:stedsnr" v="193220" />
	</node>
	<node lat="62.11213611186671" lon="10.60429443740009" id="-21165">
		<tag k="name" v="Rosta" />
		<tag k="place" v="farm" />
		<tag k="ssr:stedsnr" v="193224" />
	</node>
	<node lat="62.211761113723874" lon="10.59274167270336" id="-21166">
		<tag k="alt_name" v="Sivildal" />
		<tag k="name" v="Sivilldalen" />
		<tag k="place" v="farm" />
		<tag k="ssr:stedsnr" v="193073" />
	</node>
	<node lat="62.113194442105524" lon="10.639077771960586" id="-21170">
		<tag k="name" v="Jonsgård" />
		<tag k="place" v="farm" />
		<tag k="ssr:stedsnr" v="193227" />
	</node>
	<node lat="62.113963890272785" lon="10.389661111010446" id="-21171">
		<tag k="alt_name" v="Langsetra" />
		<tag k="historic" v="shieling" />
		<tag k="name" v="Langsætra" />
		<tag k="old_name" v="Langsr" />
		<tag k="place" v="isolated_dwelling" />
		<tag k="ssr:stedsnr" v="193231" />
	</node>
	<node lat="62.11142499821408" lon="10.54273332742534" id="-21172">
		<tag k="name" v="Øyset" />
		<tag k="place" v="farm" />
		<tag k="ssr:stedsnr" v="193232" />
	</node>
	<node lat="62.10528055510517" lon="10.5370444403595" id="-21173">
		<tag k="name" v="Tunstad" />
		<tag k="place" v="farm" />
		<tag k="ssr:stedsnr" v="193234" />
	</node>
	<node lat="62.02328055998656" lon="10.190747218710053" id="-21180">
		<tag k="fixme" v="consider tourism=alpine_hut or tourism=chalet" />
		<tag k="name" v="Nedre Flatseter" />
		<tag k="ssr:stedsnr" v="207731" />
		<tag k="tourism" v="wilderness_hut" />
	</node>
	<node lat="62.16176944107488" lon="10.541325003958548" id="-21182">
		<tag k="name" v="Sole" />
		<tag k="place" v="farm" />
		<tag k="ssr:stedsnr" v="294699" />
	</node>
	<node lat="62.185094447739054" lon="10.42845278288605" id="-21186">
		<tag k="name" v="Storsteigbua" />
		<tag k="place" v="locality" />
		<tag k="ssr:stedsnr" v="294971" />
	</node>
	<node lat="62.07031944358001" lon="10.522563885619311" id="-21187">
		<tag k="name" v="Kjølhaugbua" />
		<tag k="place" v="locality" />
		<tag k="ssr:stedsnr" v="295256" />
	</node>
	<node lat="62.127567671805004" lon="10.564018558510773" id="-21188">
		<tag k="name" v="Stenstrøa" />
		<tag k="place" v="farm" />
		<tag k="ssr:stedsnr" v="295714" />
	</node>
	<node lat="62.20464722130615" lon="10.59313611531607" id="-21190">
		<tag k="name" v="Leirtun" />
		<tag k="place" v="isolated_dwelling" />
		<tag k="ssr:stedsnr" v="295817" />
	</node>
	<node lat="62.11007777817704" lon="10.705147214154216" id="-21191">
		<tag k="historic" v="shieling" />
		<tag k="name" v="Homla" />
		<tag k="place" v="isolated_dwelling" />
		<tag k="ssr:stedsnr" v="295995" />
	</node>
	<node lat="61.97946111033426" lon="10.803188887101221" id="-21194">
		<tag k="name" v="Veidebua" />
		<tag k="place" v="isolated_dwelling" />
		<tag k="ssr:stedsnr" v="297651" />
	</node>
	<node lat="62.12007778212359" lon="10.629247228456833" id="-21197">
		<tag k="name" v="Husantunet" />
		<tag k="place" v="farm" />
		<tag k="ssr:stedsnr" v="314266" />
	</node>
	<node lat="62.1602209346278" lon="10.620044695535572" id="-21203">
		<tag k="fixme" v="consider place=hamlet" />
		<tag k="name" v="Brandvålen" />
		<tag k="place" v="farm" />
		<tag k="ssr:stedsnr" v="314001" />
	</node>
	<node lat="62.02725833018293" lon="10.776350005087604" id="-21208">
		<tag k="name" v="Nygard" />
		<tag k="place" v="farm" />
		<tag k="ssr:stedsnr" v="314043" />
	</node>
	<node lat="62.147452775664725" lon="10.613075008630572" id="-21209">
		<tag k="alt_name" v="Paurenget" />
		<tag k="name" v="Paulenget" />
		<tag k="place" v="farm" />
		<tag k="ssr:stedsnr" v="314044" />
	</node>
	<node lat="62.14711111349934" lon="10.623930556678724" id="-21210">
		<tag k="name" v="Lidarende" />
		<tag k="place" v="isolated_dwelling" />
		<tag k="ssr:stedsnr" v="314046" />
	</node>
	<node lat="62.07598333024374" lon="10.436300008542267" id="-21215">
		<tag k="historic" v="shieling" />
		<tag k="name" v="Vardsætra" />
		<tag k="place" v="isolated_dwelling" />
		<tag k="ssr:stedsnr" v="314140" />
	</node>
	<node lat="62.12797499981321" lon="10.51297500053944" id="-21216">
		<tag k="alt_name" v="Åsvangene" />
		<tag k="historic" v="shieling" />
		<tag k="name" v="Åsvangen" />
		<tag k="place" v="isolated_dwelling" />
		<tag k="ssr:stedsnr" v="314231" />
	</node>
	<node lat="62.1976027759259" lon="10.627052787167877" id="-21219">
		<tag k="alt_name" v="Strømsbakken" />
		<tag k="name" v="Bakken" />
		<tag k="place" v="farm" />
		<tag k="ssr:stedsnr" v="314101" />
	</node>
	<node lat="62.0565000012618" lon="10.717622227626773" id="-21220">
		<tag k="name" v="Sætersmoen" />
		<tag k="place" v="farm" />
		<tag k="ssr:stedsnr" v="314193" />
	</node>
	<node lat="62.12846666505348" lon="10.566780548729541" id="-21226">
		<tag k="name" v="Simensplass" />
		<tag k="place" v="farm" />
		<tag k="ssr:stedsnr" v="355678" />
	</node>
	<node lat="62.12539166351263" lon="10.554627779886518" id="-21227">
		<tag k="name" v="Follstad" />
		<tag k="place" v="farm" />
		<tag k="ssr:stedsnr" v="355680" />
	</node>
	<node lat="62.20033610776587" lon="10.383986109996593" id="-21232">
		<tag k="name" v="Einaly" />
		<tag k="place" v="isolated_dwelling" />
		<tag k="ssr:stedsnr" v="355952" />
	</node>
	<node lat="62.13037778094637" lon="10.44069444854465" id="-21234">
		<tag k="historic" v="shieling" />
		<tag k="name" v="Jota" />
		<tag k="place" v="isolated_dwelling" />
		<tag k="ssr:stedsnr" v="355977" />
	</node>
	<node lat="62.11269721867032" lon="10.634022225764348" id="-21242">
		<tag k="amenity" v="nursing_home" />
		<tag k="name" v="Alvdal sjukeheim" />
		<tag k="ssr:stedsnr" v="356770" />
	</node>
	<node lat="62.09836944147257" lon="10.651888893812346" id="-21244">
		<tag k="name" v="Skovro" />
		<tag k="place" v="farm" />
		<tag k="ssr:stedsnr" v="356776" />
	</node>
	<node lat="62.11375555391556" lon="10.597450007739871" id="-21246">
		<tag k="name" v="Sand" />
		<tag k="place" v="isolated_dwelling" />
		<tag k="ssr:stedsnr" v="356844" />
	</node>
	<node lat="62.0940427748572" lon="10.621332740204616" id="-21247">
		<tag k="loc_name" v="Utgard" />
		<tag k="name" v="Utgård" />
		<tag k="place" v="farm" />
		<tag k="ssr:stedsnr" v="356846" />
	</node>
	<node lat="62.0957166668421" lon="10.658672218119946" id="-21251">
		<tag k="building" v="industrial" />
		<tag k="industrial" v="factory" />
		<tag k="name" v="Alvdal Skurlag" />
		<tag k="ssr:stedsnr" v="356975" />
	</node>
	<node lat="62.06187221888326" lon="10.569338889898251" id="-21252">
		<tag k="name" v="Barkaldbua" />
		<tag k="place" v="locality" />
		<tag k="ssr:stedsnr" v="357188" />
	</node>
	<node lat="62.08631110775542" lon="10.680719453258384" id="-21254">
		<tag k="name" v="Trøa" />
		<tag k="place" v="farm" />
		<tag k="ssr:stedsnr" v="357676" />
	</node>
	<node lat="62.12283611227959" lon="10.609733329877198" id="-21257">
		<tag k="name" v="Smedheim" />
		<tag k="place" v="isolated_dwelling" />
		<tag k="ssr:stedsnr" v="357927" />
	</node>
	<node lat="62.123066668431036" lon="10.629527777310942" id="-21258">
		<tag k="name" v="Sundstuen" />
		<tag k="place" v="farm" />
		<tag k="ssr:stedsnr" v="357936" />
	</node>
	<node lat="62.20910278051201" lon="10.600208340890475" id="-21263">
		<tag k="name" v="Skogheim" />
		<tag k="place" v="farm" />
		<tag k="ssr:stedsnr" v="374129" />
	</node>
	<node lat="62.20763333310965" lon="10.63906944448616" id="-21264">
		<tag k="name" v="Ørbakken" />
		<tag k="place" v="farm" />
		<tag k="ssr:stedsnr" v="374136" />
	</node>
	<node lat="62.20840277989346" lon="10.656377773154206" id="-21265">
		<tag k="alt_name" v="Straumsøyan" />
		<tag k="name" v="Strømsøyan" />
		<tag k="place" v="hamlet" />
		<tag k="ssr:stedsnr" v="374139" />
	</node>
	<node lat="62.13235497568082" lon="10.623760016810675" id="-21266">
		<tag k="fixme" v="multiple name tags, choose one and add the other to alt_name" />
		<tag k="name" v="Gunnaren;Tronslimarken" />
		<tag k="place" v="farm" />
		<tag k="ssr:stedsnr" v="374229" />
	</node>
	<node lat="62.06211389055609" lon="10.389555559824595" id="-21270">
		<tag k="alt_name" v="Vesle-Sølnslættet" />
		<tag k="historic" v="shieling" />
		<tag k="name" v="Slættet" />
		<tag k="place" v="isolated_dwelling" />
		<tag k="ssr:stedsnr" v="374163" />
	</node>
	<node lat="62.1249970784988" lon="10.574872739413891" id="-21272">
		<tag k="fixme" v="consider place=hamlet" />
		<tag k="name" v="Enget" />
		<tag k="place" v="farm" />
		<tag k="ssr:stedsnr" v="374239" />
	</node>
	<node lat="62.101072224706385" lon="10.543944440987262" id="-21273">
		<tag k="name" v="Gullmoen" />
		<tag k="place" v="farm" />
		<tag k="ssr:stedsnr" v="374247" />
	</node>
	<node lat="62.11641111268078" lon="10.628697220539875" id="-21274">
		<tag k="name" v="Åsen" />
		<tag k="place" v="farm" />
		<tag k="ssr:stedsnr" v="374260" />
	</node>
	<node lat="62.21011666470537" lon="10.71323888667859" id="-21275">
		<tag k="historic" v="shieling" />
		<tag k="name" v="Brottvangen" />
		<tag k="place" v="isolated_dwelling" />
		<tag k="ssr:stedsnr" v="374072" />
	</node>
	<node lat="62.0811916706054" lon="10.696072226776007" id="-21276">
		<tag k="name" v="Nyegga" />
		<tag k="place" v="farm" />
		<tag k="ssr:stedsnr" v="375123" />
	</node>
	<node lat="62.256608330694796" lon="10.393555561754862" id="-21282">
		<tag k="historic" v="shieling" />
		<tag k="name" v="Gardvikåsen" />
		<tag k="place" v="isolated_dwelling" />
		<tag k="ssr:stedsnr" v="376016" />
	</node>
	<node lat="62.13163888938748" lon="10.695933340770514" id="-21283">
		<tag k="historic" v="shieling" />
		<tag k="name" v="Nysætra" />
		<tag k="place" v="isolated_dwelling" />
		<tag k="ssr:stedsnr" v="495214" />
	</node>
	<node lat="62.20970000004114" lon="10.642297216536248" id="-21285">
		<tag k="name" v="Ørvoll" />
		<tag k="place" v="farm" />
		<tag k="ssr:stedsnr" v="495150" />
	</node>
	<node lat="62.07065555336986" lon="10.39366111940697" id="-21286">
		<tag k="fixme" v="consider tourism=alpine_hut or tourism=chalet" />
		<tag k="name" v="Frankseter" />
		<tag k="old_name" v="Franksetra" />
		<tag k="ssr:stedsnr" v="390776" />
		<tag k="tourism" v="wilderness_hut" />
	</node>
	<node lat="62.12716667029908" lon="10.553524998002587" id="-21290">
		<tag k="name" v="Mælengjordet" />
		<tag k="place" v="farm" />
		<tag k="ssr:stedsnr" v="416659" />
	</node>
	<node lat="62.191627778493284" lon="10.43789721844" id="-21294">
		<tag k="name" v="Hørven" />
		<tag k="place" v="farm" />
		<tag k="ssr:stedsnr" v="416970" />
	</node>
	<node lat="62.101588453842034" lon="10.64679103803804" id="-21296">
		<tag k="name" v="Skulemesterstua" />
		<tag k="place" v="isolated_dwelling" />
		<tag k="ssr:stedsnr" v="417796" />
	</node>
	<node lat="62.103961107592944" lon="10.639083331203356" id="-21297">
		<tag k="building" v="industrial" />
		<tag k="industrial" v="factory" />
		<tag k="name" v="Synnøve Finden Meierier" />
		<tag k="ssr:stedsnr" v="417798" />
	</node>
	<node lat="62.08793611408951" lon="10.67637221569142" id="-21299">
		<tag k="name" v="Bortistu" />
		<tag k="place" v="farm" />
		<tag k="ssr:stedsnr" v="417881" />
	</node>
	<node lat="62.114980559584566" lon="10.575527776275354" id="-21300">
		<tag k="name" v="Østre Hyttemoen" />
		<tag k="place" v="farm" />
		<tag k="ssr:stedsnr" v="418226" />
	</node>
	<node lat="62.11171666967056" lon="10.560105546704774" id="-21301">
		<tag k="name" v="Furuli" />
		<tag k="place" v="farm" />
		<tag k="ssr:stedsnr" v="418229" />
	</node>
	<node lat="62.02722613775679" lon="10.789530066902673" id="-21304">
		<tag k="name" v="Kolstugu" />
		<tag k="place" v="farm" />
		<tag k="ssr:stedsnr" v="418631" />
	</node>
	<node lat="62.184191667677595" lon="10.631530559752381" id="-21305">
		<tag k="name" v="Noreng" />
		<tag k="place" v="isolated_dwelling" />
		<tag k="ssr:stedsnr" v="418861" />
	</node>
	<node lat="62.07167222656547" lon="10.705569448481311" id="-21307">
		<tag k="name" v="Eggset" />
		<tag k="place" v="farm" />
		<tag k="ssr:stedsnr" v="435160" />
	</node>
	<node lat="62.11504113724568" lon="10.571857083427465" id="-21308">
		<tag k="name" v="Hyttemoen" />
		<tag k="place" v="locality" />
		<tag k="ssr:stedsnr" v="435238" />
	</node>
	<node lat="62.12232222092271" lon="10.56897777486029" id="-21309">
		<tag k="alt_name" v="Frank" />
		<tag k="loc_name" v="Franka" />
		<tag k="name" v="Frankplass" />
		<tag k="place" v="farm" />
		<tag k="ssr:stedsnr" v="435253" />
	</node>
	<node lat="62.10193333503308" lon="10.517627779939474" id="-21310">
		<tag k="name" v="Brekke" />
		<tag k="place" v="farm" />
		<tag k="ssr:stedsnr" v="435255" />
	</node>
	<node lat="62.17647221881721" lon="10.627366657655667" id="-21313">
		<tag k="name" v="Nordset" />
		<tag k="place" v="farm" />
		<tag k="ssr:stedsnr" v="435025" />
	</node>
	<node lat="62.191972225106035" lon="10.61942499993805" id="-21314">
		<tag k="alt_name" v="Straumsberget" />
		<tag k="name" v="Strømsberget" />
		<tag k="place" v="farm" />
		<tag k="ssr:stedsnr" v="435044" />
	</node>
	<node lat="62.13026666333391" lon="10.610511119030589" id="-21315">
		<tag k="name" v="Steimoegga" />
		<tag k="place" v="farm" />
		<tag k="ssr:stedsnr" v="435046" />
	</node>
	<node lat="62.13156111286477" lon="10.543669440323926" id="-21321">
		<tag k="name" v="Nørdsti" />
		<tag k="place" v="farm" />
		<tag k="ssr:stedsnr" v="436036" />
	</node>
	<node lat="62.14256944323071" lon="10.564524999011697" id="-21322">
		<tag k="name" v="Øyan" />
		<tag k="place" v="farm" />
		<tag k="ssr:stedsnr" v="436040" />
	</node>
	<node lat="62.14717222559615" lon="10.564347228729957" id="-21323">
		<tag k="name" v="Stenslia" />
		<tag k="place" v="farm" />
		<tag k="ssr:stedsnr" v="436048" />
	</node>
	<node lat="62.226302781429695" lon="10.511722216149659" id="-21326">
		<tag k="historic" v="shieling" />
		<tag k="name" v="Bakkvangan" />
		<tag k="place" v="isolated_dwelling" />
		<tag k="ssr:stedsnr" v="436075" />
	</node>
	<node lat="62.16472499865396" lon="10.549844439314874" id="-21335">
		<tag k="name" v="Brekkmo" />
		<tag k="place" v="farm" />
		<tag k="ssr:stedsnr" v="496002" />
	</node>
	<node lat="62.16658611012752" lon="10.341661110967904" id="-21336">
		<tag k="alt_name" v="Kolvet, øvre;Øvre Kolvsætran" />
		<tag k="historic" v="shieling" />
		<tag k="name" v="Øvre Kolvet" />
		<tag k="place" v="isolated_dwelling" />
		<tag k="ssr:stedsnr" v="496004" />
	</node>
	<node lat="62.16777221829822" lon="10.621444436115137" id="-21337">
		<tag k="name" v="Fløtten" />
		<tag k="place" v="farm" />
		<tag k="ssr:stedsnr" v="496008" />
	</node>
	<node lat="62.067277775459104" lon="10.772191663958628" id="-21338">
		<tag k="alt_name" v="Urstrømsætra" />
		<tag k="historic" v="shieling" />
		<tag k="name" v="Urstraumsætra" />
		<tag k="place" v="isolated_dwelling" />
		<tag k="ssr:stedsnr" v="496019" />
	</node>
	<node lat="62.133349997271104" lon="10.545574990856348" id="-21339">
		<tag k="name" v="Trøenget" />
		<tag k="place" v="farm" />
		<tag k="ssr:stedsnr" v="496034" />
	</node>
	<node lat="62.02912777749008" lon="10.765938894755681" id="-21340">
		<tag k="alt_name" v="Landfastøyen" />
		<tag k="name" v="Landfastøya" />
		<tag k="place" v="farm" />
		<tag k="ssr:stedsnr" v="496038" />
	</node>
	<node lat="62.1430805522487" lon="10.57182778215683" id="-21341">
		<tag k="name" v="Heimly" />
		<tag k="place" v="farm" />
		<tag k="ssr:stedsnr" v="496046" />
	</node>
	<node lat="62.090361113011696" lon="10.618733336794781" id="-21347">
		<tag k="name" v="Vesltrøa" />
		<tag k="place" v="farm" />
		<tag k="ssr:stedsnr" v="496139" />
	</node>
	<node lat="62.12485278148261" lon="10.630480561761209" id="-21354">
		<tag k="name" v="Steihaug" />
		<tag k="place" v="farm" />
		<tag k="ssr:stedsnr" v="496200" />
	</node>
	<node lat="62.022630556582975" lon="10.189516673171484" id="-21358">
		<tag k="historic" v="shieling" />
		<tag k="name" v="Flatsætra" />
		<tag k="place" v="isolated_dwelling" />
		<tag k="ssr:stedsnr" v="512645" />
	</node>
	<node lat="62.13698611197354" lon="10.57082222663389" id="-21359">
		<tag k="name" v="Skogmo" />
		<tag k="place" v="farm" />
		<tag k="ssr:stedsnr" v="537657" />
	</node>
	<node lat="62.14379721926373" lon="10.563730556683053" id="-21360">
		<tag k="name" v="Midtgard" />
		<tag k="place" v="farm" />
		<tag k="ssr:stedsnr" v="537659" />
	</node>
	<node lat="62.14760593120072" lon="10.501028850401699" id="-21361">
		<tag k="name" v="Statensbua" />
		<tag k="place" v="locality" />
		<tag k="ssr:stedsnr" v="537661" />
	</node>
	<node lat="62.20668333042587" lon="10.65705554723892" id="-21362">
		<tag k="name" v="Øyvangen" />
		<tag k="place" v="farm" />
		<tag k="ssr:stedsnr" v="537696" />
	</node>
	<node lat="62.09395000409961" lon="10.661602776378023" id="-21370">
		<tag k="name" v="Nordstumoen" />
		<tag k="place" v="farm" />
		<tag k="ssr:stedsnr" v="538972" />
	</node>
	<node lat="62.085963887428086" lon="10.681983337941213" id="-21373">
		<tag k="name" v="Gammelstu" />
		<tag k="place" v="farm" />
		<tag k="ssr:stedsnr" v="539842" />
	</node>
	<node lat="62.10389999790266" lon="10.531919450063274" id="-21374">
		<tag k="name" v="Brekkheim" />
		<tag k="place" v="farm" />
		<tag k="ssr:stedsnr" v="539188" />
	</node>
	<node lat="62.023066662479344" lon="10.80970555656377" id="-21378">
		<tag k="name" v="Strand" />
		<tag k="place" v="farm" />
		<tag k="ssr:stedsnr" v="556039" />
	</node>
	<node lat="62.029411110631926" lon="10.784486107389165" id="-21379">
		<tag k="fixme" v="consider place=hamlet" />
		<tag k="name" v="Strand" />
		<tag k="place" v="village" />
		<tag k="ssr:stedsnr" v="556047" />
	</node>
	<node lat="62.20461388444129" lon="10.618574999958794" id="-21381">
		<tag k="name" v="Fådalsmoen" />
		<tag k="place" v="farm" />
		<tag k="ssr:stedsnr" v="556137" />
	</node>
	<node lat="62.086772440410044" lon="10.677560271963408" id="-21388">
		<tag k="fixme" v="consider place=hamlet" />
		<tag k="name" v="Kveberg" />
		<tag k="place" v="farm" />
		<tag k="ssr:stedsnr" v="556178" />
	</node>
	<node lat="62.08874839183536" lon="10.625933298934193" id="-21389">
		<tag k="alt_name" v="Blæsterdal" />
		<tag k="fixme" v="consider place=hamlet" />
		<tag k="name" v="Blæsterdalen" />
		<tag k="place" v="farm" />
		<tag k="ssr:stedsnr" v="556180" />
	</node>
	<node lat="62.09179999580229" lon="10.619455548078387" id="-21390">
		<tag k="alt_name" v="Eggen" />
		<tag k="name" v="Egga" />
		<tag k="place" v="farm" />
		<tag k="ssr:stedsnr" v="556181" />
	</node>
	<node lat="62.01412500075557" lon="10.412408340234954" id="-21394">
		<tag k="historic" v="shieling" />
		<tag k="name" v="Stalundvangen" />
		<tag k="place" v="isolated_dwelling" />
		<tag k="ssr:stedsnr" v="556201" />
	</node>
	<node lat="62.12845277692502" lon="10.609405561325206" id="-21395">
		<tag k="alt_name" v="Taraldstea" />
		<tag k="name" v="Stea" />
		<tag k="place" v="farm" />
		<tag k="ssr:stedsnr" v="556244" />
	</node>
	<node lat="62.09440555953175" lon="10.61426111422306" id="-21399">
		<tag k="alt_name" v="Klokkertrøa" />
		<tag k="name" v="Klokkartrøa" />
		<tag k="place" v="farm" />
		<tag k="ssr:stedsnr" v="556264" />
	</node>
	<node lat="62.11279166732814" lon="10.616358340189393" id="-21400">
		<tag k="name" v="Skarpsno" />
		<tag k="place" v="farm" />
		<tag k="ssr:stedsnr" v="556280" />
	</node>
	<node lat="62.11210277384635" lon="10.554258335982155" id="-21402">
		<tag k="alt_name" v="Haugan" />
		<tag k="name" v="Hauan" />
		<tag k="place" v="hamlet" />
		<tag k="ssr:stedsnr" v="556294" />
	</node>
	<node lat="62.10767777996911" lon="10.630708328597274" id="-21404">
		<tag k="name" v="Alvdal" />
		<tag k="place" v="village" />
		<tag k="ssr:stedsnr" v="556296" />
	</node>
	<node lat="62.106077776046156" lon="10.637161102463244" id="-21405">
		<tag k="name" v="Nyhus" />
		<tag k="place" v="farm" />
		<tag k="ssr:stedsnr" v="556297" />
	</node>
	<node lat="61.97212500017785" lon="10.897363886113615" id="-21406">
		<tag k="alt_name" v="Sveheim" />
		<tag k="name" v="Svea" />
		<tag k="place" v="isolated_dwelling" />
		<tag k="ssr:stedsnr" v="556394" />
	</node>
	<node lat="62.245461108931835" lon="10.432099996456976" id="-21407">
		<tag k="historic" v="shieling" />
		<tag k="name" v="Ørvangen" />
		<tag k="place" v="isolated_dwelling" />
		<tag k="ssr:stedsnr" v="556466" />
	</node>
	<node lat="62.241441329266145" lon="10.374437310763602" id="-21408">
		<tag k="fixme" v="consider place=hamlet" />
		<tag k="name" v="Strålsjøvangen" />
		<tag k="place" v="farm" />
		<tag k="ssr:stedsnr" v="556467" />
	</node>
	<node lat="62.24400000393807" lon="10.39418054938369" id="-21409">
		<tag k="name" v="Furulund" />
		<tag k="place" v="farm" />
		<tag k="ssr:stedsnr" v="556470" />
	</node>
	<node lat="62.21946388452797" lon="10.644155561287896" id="-21410">
		<tag k="fixme" v="multiple name tags, choose one and add the other to alt_name" />
		<tag k="name" v="Finktrøa;Strømshoved" />
		<tag k="place" v="farm" />
		<tag k="ssr:stedsnr" v="557070" />
	</node>
	<node lat="62.20208611204882" lon="10.650016658479412" id="-21414">
		<tag k="name" v="Stømsøyen" />
		<tag k="place" v="farm" />
		<tag k="ssr:stedsnr" v="573846" />
	</node>
	<node lat="62.16504444358408" lon="10.547963888661368" id="-21416">
		<tag k="name" v="Rydje" />
		<tag k="place" v="farm" />
		<tag k="ssr:stedsnr" v="597690" />
	</node>
	<node lat="62.20743332935595" lon="10.653116672710802" id="-21418">
		<tag k="name" v="Rønningen" />
		<tag k="place" v="isolated_dwelling" />
		<tag k="ssr:stedsnr" v="597742" />
	</node>
	<node lat="62.12074444681443" lon="10.562625002533883" id="-21425">
		<tag k="name" v="Smithbakken" />
		<tag k="place" v="farm" />
		<tag k="ssr:stedsnr" v="598686" />
	</node>
	<node lat="62.11567777711898" lon="10.589566657949577" id="-21427">
		<tag k="name" v="Morønning" />
		<tag k="place" v="farm" />
		<tag k="ssr:stedsnr" v="598727" />
	</node>
	<node lat="62.11388888909182" lon="10.629669446736973" id="-21428">
		<tag k="name" v="Stortorhaugen" />
		<tag k="place" v="farm" />
		<tag k="ssr:stedsnr" v="598746" />
	</node>
	<node lat="62.102802780225346" lon="10.610516660635286" id="-21433">
		<tag k="name" v="Vestlund" />
		<tag k="place" v="farm" />
		<tag k="ssr:stedsnr" v="600822" />
	</node>
	<node lat="62.132188893195405" lon="10.613244437255949" id="-21435">
		<tag k="name" v="Smedplass" />
		<tag k="place" v="farm" />
		<tag k="ssr:stedsnr" v="600946" />
	</node>
	<node lat="62.13292777993456" lon="10.58584999152808" id="-21436">
		<tag k="name" v="Grønli" />
		<tag k="place" v="farm" />
		<tag k="ssr:stedsnr" v="617034" />
	</node>
	<node lat="62.19239722480827" lon="10.441038897036172" id="-21437">
		<tag k="name" v="Skogtun" />
		<tag k="place" v="farm" />
		<tag k="ssr:stedsnr" v="617127" />
	</node>
	<node lat="62.14297222415656" lon="10.448936109050022" id="-21438">
		<tag k="alt_name" v="Vordsætra" />
		<tag k="historic" v="shieling" />
		<tag k="name" v="Volsætra" />
		<tag k="place" v="isolated_dwelling" />
		<tag k="ssr:stedsnr" v="617059" />
	</node>
	<node lat="62.14854167086688" lon="10.523175005369618" id="-21439">
		<tag k="historic" v="shieling" />
		<tag k="name" v="Haustsætra" />
		<tag k="place" v="isolated_dwelling" />
		<tag k="ssr:stedsnr" v="617060" />
	</node>
	<node lat="62.20631111439155" lon="10.637249995652445" id="-21441">
		<tag k="name" v="Nordihaugen" />
		<tag k="place" v="farm" />
		<tag k="ssr:stedsnr" v="617150" />
	</node>
	<node lat="62.117569442477745" lon="10.541586103980986" id="-21445">
		<tag k="alt_name" v="Ligård" />
		<tag k="name" v="Ligarden" />
		<tag k="place" v="farm" />
		<tag k="ssr:stedsnr" v="617231" />
	</node>
	<node lat="62.18724861031511" lon="10.444446038032869" id="-21447">
		<tag k="fixme" v="consider place=hamlet" />
		<tag k="name" v="Nymoen" />
		<tag k="place" v="farm" />
		<tag k="ssr:stedsnr" v="617133" />
	</node>
	<node lat="62.12368889046211" lon="10.535072214425977" id="-21448">
		<tag k="name" v="Utli" />
		<tag k="place" v="farm" />
		<tag k="ssr:stedsnr" v="617246" />
	</node>
	<node lat="62.12388632326385" lon="10.568379022253838" id="-21449">
		<tag k="alt_name" v="Bjørn" />
		<tag k="loc_name" v="Bjørna" />
		<tag k="name" v="Bjørnplassen" />
		<tag k="place" v="farm" />
		<tag k="ssr:stedsnr" v="617249" />
	</node>
	<node lat="62.09766299929837" lon="10.504024495767762" id="-21450">
		<tag k="fixme" v="consider place=hamlet" />
		<tag k="name" v="Sølna" />
		<tag k="place" v="farm" />
		<tag k="ssr:stedsnr" v="617252" />
	</node>
	<node lat="62.094901677191764" lon="10.650975110589911" id="-21451">
		<tag k="alt_name" v="Nesteby store" />
		<tag k="fixme" v="consider place=hamlet" />
		<tag k="name" v="Nedsteby" />
		<tag k="place" v="farm" />
		<tag k="ssr:stedsnr" v="617261" />
	</node>
	<node lat="62.11803333432297" lon="10.62956111354035" id="-21453">
		<tag k="name" v="Steihaug" />
		<tag k="place" v="farm" />
		<tag k="ssr:stedsnr" v="617268" />
	</node>
	<node lat="62.011588891557345" lon="10.85507221821185" id="-21458">
		<tag k="name" v="Skogsbua" />
		<tag k="place" v="locality" />
		<tag k="ssr:stedsnr" v="658666" />
	</node>
	<node lat="62.16847222400509" lon="10.515972231784994" id="-21462">
		<tag k="name" v="Mælengsætra" />
		<tag k="place" v="farm" />
		<tag k="ssr:stedsnr" v="659661" />
	</node>
	<node lat="62.127219441800555" lon="10.567438891931658" id="-21469">
		<tag k="name" v="Masshaugen" />
		<tag k="place" v="farm" />
		<tag k="ssr:stedsnr" v="659719" />
	</node>
	<node lat="62.11178333103749" lon="10.556866675276463" id="-21473">
		<tag k="name" v="Lorentshaugen" />
		<tag k="place" v="farm" />
		<tag k="ssr:stedsnr" v="660228" />
	</node>
	<node lat="62.12665555728908" lon="10.60454443822416" id="-21474">
		<tag k="leisure" v="pitch" />
		<tag k="name" v="Steimoegga idrettsanlegg" />
		<tag k="ssr:stedsnr" v="661953" />
	</node>
	<node lat="62.11933740237954" lon="10.537171644940788" id="-21478">
		<tag k="name" v="Taraldshaugen" />
		<tag k="place" v="farm" />
		<tag k="ssr:stedsnr" v="719640" />
	</node>
	<node lat="62.12049608351595" lon="10.540295265852098" id="-21479">
		<tag k="alt_name" v="Germundshaugen" />
		<tag k="name" v="Gjermundshaugen" />
		<tag k="place" v="farm" />
		<tag k="ssr:stedsnr" v="719645" />
	</node>
	<node lat="62.12703055409287" lon="10.544788893046777" id="-21480">
		<tag k="name" v="Samuelshaugen" />
		<tag k="place" v="farm" />
		<tag k="ssr:stedsnr" v="719647" />
	</node>
	<node lat="62.13708055857869" lon="10.574788888396647" id="-21481">
		<tag k="name" v="Skogli" />
		<tag k="place" v="farm" />
		<tag k="ssr:stedsnr" v="719663" />
	</node>
	<node lat="62.081605554440884" lon="10.631469438133125" id="-21486">
		<tag k="name" v="Eggemoen" />
		<tag k="old_name" v="Bakkmoen" />
		<tag k="place" v="farm" />
		<tag k="ssr:stedsnr" v="721133" />
	</node>
	<node lat="62.16760278129065" lon="10.516361113881015" id="-21487">
		<tag k="name" v="Nordheim" />
		<tag k="place" v="locality" />
		<tag k="ssr:stedsnr" v="720691" />
	</node>
	<node lat="62.13268610907536" lon="10.576919437941628" id="-21488">
		<tag k="name" v="Utgard" />
		<tag k="place" v="farm" />
		<tag k="ssr:stedsnr" v="720767" />
	</node>
	<node lat="62.1113444404852" lon="10.624161103620201" id="-21489">
		<tag k="name" v="Nordre Steien" />
		<tag k="place" v="farm" />
		<tag k="ssr:stedsnr" v="720788" />
	</node>
	<node lat="62.10741929815805" lon="10.631153848377444" id="-21490">
		<tag k="fixme" v="consider place=hamlet" />
		<tag k="name" v="Lillesteien" />
		<tag k="place" v="farm" />
		<tag k="ssr:stedsnr" v="720790" />
	</node>
	<node lat="62.165663890253214" lon="10.61993610742761" id="-21491">
		<tag k="name" v="Hauen" />
		<tag k="place" v="farm" />
		<tag k="ssr:stedsnr" v="720897" />
	</node>
	<node lat="62.031497220673145" lon="10.787261117230598" id="-21497">
		<tag k="name" v="Øver Bellingmoen" />
		<tag k="place" v="isolated_dwelling" />
		<tag k="ssr:stedsnr" v="721651" />
	</node>
	<node lat="62.00640278062846" lon="10.874500002255953" id="-21498">
		<tag k="name" v="Åsbua" />
		<tag k="place" v="isolated_dwelling" />
		<tag k="ssr:stedsnr" v="721660" />
	</node>
	<node lat="62.09659979927701" lon="10.616579067434703" id="-21500">
		<tag k="name" v="Nordre Flaten" />
		<tag k="place" v="farm" />
		<tag k="ssr:stedsnr" v="721805" />
	</node>
	<node lat="62.13417777328054" lon="10.59922500631674" id="-21503">
		<tag k="name" v="Måna" />
		<tag k="place" v="farm" />
		<tag k="ssr:stedsnr" v="721930" />
	</node>
	<node lat="62.134669444537366" lon="10.642755560082128" id="-21504">
		<tag k="name" v="Svingen" />
		<tag k="place" v="farm" />
		<tag k="ssr:stedsnr" v="721934" />
	</node>
	<node lat="61.95864999781686" lon="10.908377786209414" id="-21505">
		<tag k="name" v="Brennåsbua" />
		<tag k="place" v="isolated_dwelling" />
		<tag k="ssr:stedsnr" v="726867" />
	</node>
	<node lat="62.192533336245816" lon="10.4594194431788" id="-21506">
		<tag k="name" v="Ormbolet" />
		<tag k="place" v="farm" />
		<tag k="ssr:stedsnr" v="738112" />
	</node>
	<node lat="62.13199999926645" lon="10.572400004539357" id="-21507">
		<tag k="alt_name" v="Gjelten" />
		<tag k="name" v="Gjelta" />
		<tag k="place" v="farm" />
		<tag k="ssr:stedsnr" v="738041" />
	</node>
	<node lat="62.12272222565924" lon="10.550808332537317" id="-21509">
		<tag k="fixme" v="multiple name tags, choose one and add the other to alt_name" />
		<tag k="name" v="Melenget;Underegga" />
		<tag k="place" v="farm" />
		<tag k="ssr:stedsnr" v="738219" />
	</node>
	<node lat="62.129102774890725" lon="10.581958334856752" id="-21510">
		<tag k="name" v="Måntrøa" />
		<tag k="place" v="farm" />
		<tag k="ssr:stedsnr" v="738223" />
	</node>
	<node lat="62.20005555223163" lon="10.38767499841147" id="-21511">
		<tag k="name" v="Bakken" />
		<tag k="place" v="farm" />
		<tag k="ssr:stedsnr" v="738130" />
	</node>
	<node lat="62.12073888881239" lon="10.536772228523683" id="-21512">
		<tag k="name" v="Motrøa" />
		<tag k="place" v="farm" />
		<tag k="ssr:stedsnr" v="738202" />
	</node>
	<node lat="61.976413887382044" lon="10.794933336054475" id="-21514">
		<tag k="historic" v="shieling" />
		<tag k="name" v="Aursjøbekksætra" />
		<tag k="place" v="isolated_dwelling" />
		<tag k="ssr:stedsnr" v="738346" />
	</node>
	<node lat="62.16115833302057" lon="10.554969440346932" id="-21518">
		<tag k="name" v="Vangberg" />
		<tag k="place" v="farm" />
		<tag k="ssr:stedsnr" v="739002" />
	</node>
	<node lat="62.21900833652211" lon="10.501108331854121" id="-21523">
		<tag k="historic" v="shieling" />
		<tag k="name" v="Nausterdalen" />
		<tag k="place" v="isolated_dwelling" />
		<tag k="ssr:stedsnr" v="739074" />
	</node>
	<node lat="62.08984166796455" lon="10.671713892794253" id="-21525">
		<tag k="name" v="Norsa" />
		<tag k="place" v="farm" />
		<tag k="ssr:stedsnr" v="739131" />
	</node>
	<node lat="62.07875833672029" lon="10.685972221291989" id="-21526">
		<tag k="name" v="Stamoen" />
		<tag k="place" v="farm" />
		<tag k="ssr:stedsnr" v="739137" />
	</node>
	<node lat="62.079021793208966" lon="10.639290049448606" id="-21527">
		<tag k="fixme" v="consider place=hamlet" />
		<tag k="name" v="Valleråmoen" />
		<tag k="place" v="farm" />
		<tag k="ssr:stedsnr" v="739139" />
	</node>
	<node lat="61.99522499847401" lon="10.86721389484532" id="-21528">
		<tag k="name" v="Barkald" />
		<tag k="place" v="farm" />
		<tag k="ssr:stedsnr" v="739314" />
	</node>
	<node lat="62.11880035431807" lon="10.546420937415709" id="-21534">
		<tag k="name" v="Blostrupmoen" />
		<tag k="place" v="farm" />
		<tag k="ssr:stedsnr" v="779677" />
	</node>
	<node lat="62.14509721791367" lon="10.56234444195628" id="-21535">
		<tag k="name" v="Myrvoll" />
		<tag k="place" v="farm" />
		<tag k="ssr:stedsnr" v="780621" />
	</node>
	<node lat="62.14613055564287" lon="10.570661110106293" id="-21536">
		<tag k="name" v="Vårly" />
		<tag k="place" v="farm" />
		<tag k="ssr:stedsnr" v="780622" />
	</node>
	<node lat="62.02193055995447" lon="10.819288891374212" id="-21543">
		<tag k="name" v="Solvang" />
		<tag k="place" v="farm" />
		<tag k="ssr:stedsnr" v="781688" />
	</node>
	<node lat="62.113138890637806" lon="10.655013890105554" id="-21544">
		<tag k="name" v="Piperud" />
		<tag k="place" v="isolated_dwelling" />
		<tag k="ssr:stedsnr" v="781776" />
	</node>
	<node lat="62.17088889067491" lon="10.625580557872496" id="-21545">
		<tag k="name" v="Norderhaug" />
		<tag k="place" v="isolated_dwelling" />
		<tag k="ssr:stedsnr" v="781894" />
	</node>
	<node lat="62.11360000346757" lon="10.594863884535037" id="-21547">
		<tag k="name" v="Kloppbekkmoen" />
		<tag k="place" v="farm" />
		<tag k="ssr:stedsnr" v="782230" />
	</node>
	<node lat="62.20048055471492" lon="10.624852781426908" id="-21550">
		<tag k="name" v="Plassen" />
		<tag k="place" v="farm" />
		<tag k="ssr:stedsnr" v="782868" />
	</node>
	<node lat="62.14448007863729" lon="10.619733156004745" id="-21551">
		<tag k="name" v="Søndre Bergebakken" />
		<tag k="place" v="farm" />
		<tag k="ssr:stedsnr" v="782884" />
	</node>
	<node lat="62.20292831223182" lon="10.626297278926677" id="-21553">
		<tag k="alt_name" v="Straumen" />
		<tag k="fixme" v="consider place=hamlet" />
		<tag k="name" v="Strømmen" />
		<tag k="place" v="village" />
		<tag k="ssr:stedsnr" v="799110" />
	</node>
	<node lat="62.19969999556412" lon="10.615250001926682" id="-21554">
		<tag k="name" v="Morka" />
		<tag k="place" v="farm" />
		<tag k="ssr:stedsnr" v="799112" />
	</node>
	<node lat="62.196352629862" lon="10.622733243704047" id="-21555">
		<tag k="name" v="Sivillhaugen" />
		<tag k="place" v="locality" />
		<tag k="ssr:stedsnr" v="799113" />
	</node>
	<node lat="62.19313333188478" lon="10.645688887919414" id="-21556">
		<tag k="alt_name" v="Trondshaugen" />
		<tag k="name" v="Tronshaugen" />
		<tag k="place" v="farm" />
		<tag k="ssr:stedsnr" v="799117" />
	</node>
	<node lat="62.1994333348607" lon="10.555238885711752" id="-21557">
		<tag k="alt_name" v="Hamndalsætra" />
		<tag k="historic" v="shieling" />
		<tag k="name" v="Hamndalssætra" />
		<tag k="place" v="isolated_dwelling" />
		<tag k="ssr:stedsnr" v="799126" />
	</node>
	<node lat="62.125305551694474" lon="10.573352787013507" id="-21558">
		<tag k="alt_name" v="Skredderhaugen" />
		<tag k="name" v="Skreddarhaugen" />
		<tag k="place" v="farm" />
		<tag k="ssr:stedsnr" v="799224" />
	</node>
	<node lat="62.03294362823908" lon="10.75199579067743" id="-21559">
		<tag k="fixme" v="multiple name tags, choose one and add the other to alt_name" />
		<tag k="name" v="Haug;Synner Hauan" />
		<tag k="place" v="farm" />
		<tag k="ssr:stedsnr" v="799048" />
	</node>
	<node lat="62.05176389325875" lon="10.689344436957812" id="-21561">
		<tag k="alt_name" v="Vordsætra" />
		<tag k="historic" v="shieling" />
		<tag k="name" v="Volsætra" />
		<tag k="place" v="isolated_dwelling" />
		<tag k="ssr:stedsnr" v="799184" />
	</node>
	<node lat="62.153472222572255" lon="10.62235555668366" id="-21563">
		<tag k="alt_name" v="Nygard" />
		<tag k="name" v="Nygarden" />
		<tag k="place" v="farm" />
		<tag k="ssr:stedsnr" v="800051" />
	</node>
	<node lat="62.08373889289498" lon="10.630105556669623" id="-21572">
		<tag k="name" v="Holen" />
		<tag k="place" v="farm" />
		<tag k="ssr:stedsnr" v="800145" />
	</node>
	<node lat="62.01066388855382" lon="10.36259999192552" id="-21573">
		<tag k="historic" v="shieling" />
		<tag k="name" v="Veslsølnsætra" />
		<tag k="place" v="isolated_dwelling" />
		<tag k="ssr:stedsnr" v="800164" />
	</node>
	<node lat="62.00356880575054" lon="10.711197764711843" id="-21575">
		<tag k="alt_name" v="Urlikjølsætra;Urdlikjølsætra" />
		<tag k="historic" v="shieling" />
		<tag k="name" v="Urdlikjølen" />
		<tag k="place" v="isolated_dwelling" />
		<tag k="ssr:stedsnr" v="800171" />
	</node>
	<node lat="62.05114722534609" lon="10.26696110473358" id="-21577">
		<tag k="historic" v="shieling" />
		<tag k="name" v="Nyhussætra" />
		<tag k="place" v="isolated_dwelling" />
		<tag k="ssr:stedsnr" v="800187" />
	</node>
	<node lat="62.089400595276174" lon="10.62224832133701" id="-21578">
		<tag k="alt_name" v="Vestate" />
		<tag k="fixme" v="multiple name tags, choose one and add the other to alt_name; consider place=hamlet" />
		<tag k="name" v="Vestatil;Baugen" />
		<tag k="place" v="farm" />
		<tag k="ssr:stedsnr" v="800228" />
	</node>
	<node lat="62.09817499895277" lon="10.65724167405432" id="-21579">
		<tag k="fixme" v="multiple name tags, choose one and add the other to alt_name" />
		<tag k="name" v="Nedstebytrøa;Sjultrøa" />
		<tag k="place" v="farm" />
		<tag k="ssr:stedsnr" v="800232" />
	</node>
	<node lat="62.10828055593775" lon="10.632366669514692" id="-21581">
		<tag k="building" v="commercial" />
		<tag k="name" v="Steia" />
		<tag k="ssr:stedsnr" v="800244" />
	</node>
	<node lat="62.236527781771805" lon="10.39691111654677" id="-21584">
		<tag k="name" v="Liheim" />
		<tag k="place" v="farm" />
		<tag k="ssr:stedsnr" v="800425" />
	</node>
	<node lat="62.16494999660246" lon="10.544777786426016" id="-21591">
		<tag k="name" v="Liestad" />
		<tag k="place" v="farm" />
		<tag k="ssr:stedsnr" v="841660" />
	</node>
	<node lat="62.190405558376305" lon="10.436872225321851" id="-21594">
		<tag k="name" v="Hyrve" />
		<tag k="place" v="isolated_dwelling" />
		<tag k="ssr:stedsnr" v="841959" />
	</node>
	<node lat="62.05715555794685" lon="10.71406666840777" id="-21602">
		<tag k="name" v="Nordmo" />
		<tag k="place" v="isolated_dwelling" />
		<tag k="ssr:stedsnr" v="843642" />
	</node>
	<node lat="62.195575002409775" lon="10.626233333185944" id="-21606">
		<tag k="name" v="Nordre Sivillhaugen" />
		<tag k="place" v="farm" />
		<tag k="ssr:stedsnr" v="843892" />
	</node>
	<node lat="61.946449995761334" lon="10.27108333019568" id="-21608">
		<tag k="historic" v="shieling" />
		<tag k="name" v="Bortistusætra" />
		<tag k="place" v="isolated_dwelling" />
		<tag k="ssr:stedsnr" v="859576" />
	</node>
	<node lat="62.16403888662893" lon="10.606338884098841" id="-21611">
		<tag k="name" v="Søberg" />
		<tag k="place" v="farm" />
		<tag k="ssr:stedsnr" v="860002" />
	</node>
	<node lat="62.07645678450169" lon="10.65167566555085" id="-21612">
		<tag k="fixme" v="consider place=hamlet" />
		<tag k="name" v="Stormoen" />
		<tag k="place" v="farm" />
		<tag k="ssr:stedsnr" v="860149" />
	</node>
	<node lat="62.12169722572751" lon="10.534702779317005" id="-21613">
		<tag k="name" v="Morud" />
		<tag k="place" v="farm" />
		<tag k="ssr:stedsnr" v="860229" />
	</node>
	<node lat="62.11972221944228" lon="10.561402772096713" id="-21614">
		<tag k="name" v="Nytrøa" />
		<tag k="place" v="farm" />
		<tag k="ssr:stedsnr" v="860236" />
	</node>
	<node lat="62.02471944443974" lon="10.791774994329296" id="-21615">
		<tag k="alt_name" v="Hårdnes" />
		<tag k="name" v="Hardneset" />
		<tag k="place" v="farm" />
		<tag k="ssr:stedsnr" v="860047" />
	</node>
	<node lat="62.2052833330894" lon="10.41998333523133" id="-21617">
		<tag k="alt_name" v="Follostangen" />
		<tag k="historic" v="shieling" />
		<tag k="name" v="Tangen" />
		<tag k="place" v="isolated_dwelling" />
		<tag k="ssr:stedsnr" v="860076" />
	</node>
	<node lat="62.127633336083136" lon="10.584302778642357" id="-21620">
		<tag k="name" v="Engetrøa" />
		<tag k="place" v="farm" />
		<tag k="ssr:stedsnr" v="860251" />
	</node>
	<node lat="62.25749999587253" lon="10.341694443925634" id="-21625">
		<tag k="name" v="Kløftvangen" />
		<tag k="place" v="neighbourhood" />
		<tag k="ssr:stedsnr" v="861027" />
	</node>
	<node lat="62.14497219045994" lon="10.62004122166649" id="-21627">
		<tag k="name" v="Bergebakken" />
		<tag k="place" v="locality" />
		<tag k="ssr:stedsnr" v="861043" />
	</node>
	<node lat="62.14217403038279" lon="10.621722377152155" id="-21628">
		<tag k="fixme" v="consider place=hamlet" />
		<tag k="name" v="Mellesmoen" />
		<tag k="place" v="farm" />
		<tag k="ssr:stedsnr" v="861046" />
	</node>
	<node lat="62.12573889263377" lon="10.600152781523821" id="-21639">
		<tag k="name" v="Huseidalen" />
		<tag k="place" v="hamlet" />
		<tag k="ssr:stedsnr" v="963723" />
	</node>
	<node lat="62.103116670062285" lon="10.638013883179315" id="-21640">
		<tag k="amenity" v="school" />
		<tag k="name" v="Alvdal ungdomsskole" />
		<tag k="ssr:stedsnr" v="963815" />
	</node>
	<node lat="61.978491669995435" lon="10.893186113905106" id="-21645">
		<tag k="historic" v="shieling" />
		<tag k="name" v="Fossætra" />
		<tag k="place" v="isolated_dwelling" />
		<tag k="ssr:stedsnr" v="964660" />
	</node>
	<node lat="62.12770000148245" lon="10.608930562752866" id="-21646">
		<tag k="name" v="Steimostea" />
		<tag k="place" v="farm" />
		<tag k="ssr:stedsnr" v="964922" />
	</node>
	<node lat="62.125693135323296" lon="10.568587452300628" id="-21647">
		<tag k="name" v="Torsplassen" />
		<tag k="place" v="farm" />
		<tag k="ssr:stedsnr" v="988656" />
	</node>
	<node lat="62.10535325548527" lon="10.63941565963858" id="-21648">
		<tag k="alt_name" v="Randmelen;Randmæl;Randmel" />
		<tag k="name" v="Randmælen" />
		<tag k="place" v="farm" />
		<tag k="ssr:stedsnr" v="988657" />
	</node>
	<node lat="62.110909232520946" lon="10.623233498796544" id="-21649">
		<tag k="name" v="Søndre Steien" />
		<tag k="place" v="farm" />
		<tag k="ssr:stedsnr" v="989077" />
	</node>
	<node lat="62.21902700463046" lon="10.456260831590125" id="-21651">
		<tag k="alt_name" v="Sæter" />
		<tag k="loc_name" v="Nyset;Nyseter;Nysæter" />
		<tag k="name" v="Seter" />
		<tag k="place" v="farm" />
		<tag k="ssr:stedsnr" v="989996" />
	</node>
	<node lat="62.08287673841669" lon="10.627861613155583" id="-21653">
		<tag k="name" v="Nordistulia" />
		<tag k="place" v="farm" />
		<tag k="ssr:stedsnr" v="1073015" />
	</node>
	<node lat="62.116822379064736" lon="10.628428058484202" id="-21659">
		<tag k="fixme" v="consider place=hamlet" />
		<tag k="name" v="Steihaug" />
		<tag k="place" v="farm" />
		<tag k="ssr:stedsnr" v="1076908" />
	</node>
	<node lat="62.19806922839193" lon="10.400790665854375" id="-21660">
		<tag k="fixme" v="consider place=hamlet" />
		<tag k="name" v="Røsta" />
		<tag k="place" v="farm" />
		<tag k="ssr:stedsnr" v="1076910" />
	</node>
	<node lat="62.2453888728834" lon="10.392679974751374" id="-21661">
		<tag k="fixme" v="consider place=hamlet" />
		<tag k="name" v="Strålsjøbekken" />
		<tag k="place" v="farm" />
		<tag k="ssr:stedsnr" v="1076911" />
	</node>
	<node lat="62.027406189388614" lon="10.788737733253663" id="-21662">
		<tag k="alt_name" v="Strandheim" />
		<tag k="name" v="Strandstua" />
		<tag k="place" v="farm" />
		<tag k="ssr:stedsnr" v="1082045" />
	</node>
</osm>
