<?xml version="1.0" encoding="UTF-8"?>
<<<<<<< HEAD
<osm version="0.6" generator="osmapis">
	<node lat="62.13102500286989" lon="10.663275004868138" id="-24278">
		<tag k="name" v="Storbekken" />
		<tag k="ssr:stedsnr" v="10204" />
		<tag k="waterway" v="stream" />
	</node>
	<node lat="61.92772777687537" lon="10.615849996659263" id="-24280">
		<tag k="name" v="Kuvbekken" />
		<tag k="ssr:stedsnr" v="10438" />
		<tag k="waterway" v="stream" />
	</node>
	<node lat="61.977038885743134" lon="10.174900000574274" id="-24283">
		<tag k="alt_name" v="Skriubekken" />
		<tag k="name" v="Skridubekken" />
		<tag k="ssr:stedsnr" v="10499" />
		<tag k="waterway" v="stream" />
	</node>
	<node lat="62.18996388717174" lon="10.564488889675" id="-24286">
		<tag k="name" v="Stortjønna" />
		<tag k="natural" v="water" />
		<tag k="ssr:stedsnr" v="11079" />
	</node>
	<node lat="61.98353600491634" lon="10.216586925944032" id="-24288">
		<tag k="alt_name" v="Midtsjø" />
		<tag k="loc_name" v="Midtfjorden" />
		<tag k="name" v="Midtsjøen" />
		<tag k="natural" v="water" />
		<tag k="ssr:stedsnr" v="11525" />
	</node>
	<node lat="62.25822500404706" lon="10.33727778171591" id="-24292">
		<tag k="name" v="Fosshue" />
		<tag k="place" v="locality" />
		<tag k="ssr:stedsnr" v="234091" />
	</node>
	<node lat="62.02006110850135" lon="10.821402782380595" id="-24300">
		<tag k="name" v="Høyeggdammen" />
		<tag k="ssr:stedsnr" v="235712" />
		<tag k="waterway" v="dam" />
	</node>
	<node lat="62.21333888783252" lon="10.611608333308519" id="-24306">
		<tag k="name" v="Sagbekken" />
		<tag k="ssr:stedsnr" v="52701" />
		<tag k="waterway" v="stream" />
	</node>
	<node lat="62.19409444107658" lon="10.464783327488504" id="-24308">
		<tag k="name" v="Djupdalsbekken" />
		<tag k="ssr:stedsnr" v="52972" />
		<tag k="waterway" v="stream" />
	</node>
	<node lat="62.280686114732326" lon="10.371441667146133" id="-24327">
		<tag k="name" v="Storbekken" />
		<tag k="ssr:stedsnr" v="72882" />
		<tag k="waterway" v="stream" />
	</node>
	<node lat="62.259947218704255" lon="10.442183330486456" id="-24328">
		<tag k="name" v="Skjæret" />
		<tag k="place" v="islet" />
		<tag k="ssr:stedsnr" v="112626" />
	</node>
	<node lat="62.23099722631532" lon="10.380394452926208" id="-24334">
		<tag k="name" v="Ferdamyrbekken" />
		<tag k="ssr:stedsnr" v="113919" />
		<tag k="waterway" v="stream" />
	</node>
	<node lat="61.98138055660896" lon="10.770466670487972" id="-24346">
		<tag k="name" v="Vesltjønna" />
		<tag k="natural" v="water" />
		<tag k="ssr:stedsnr" v="131318" />
	</node>
	<node lat="61.97923611182961" lon="10.895236103408713" id="-24347">
		<tag k="name" v="Barkaldfossen" />
		<tag k="natural" v="waterfall" />
		<tag k="ssr:stedsnr" v="131321" />
	</node>
	<node lat="61.975388886743765" lon="10.25761667296832" id="-24348">
		<tag k="name" v="Storbekken" />
		<tag k="ssr:stedsnr" v="131495" />
		<tag k="waterway" v="stream" />
	</node>
	<node lat="61.96470555709255" lon="10.732269443862204" id="-24354">
		<tag k="name" v="Fjellbekken" />
		<tag k="ssr:stedsnr" v="132115" />
		<tag k="waterway" v="stream" />
	</node>
	<node lat="62.02044166597311" lon="10.230563890390215" id="-24371">
		<tag k="name" v="Håan" />
		<tag k="natural" v="water" />
		<tag k="ssr:stedsnr" v="253187" />
		<tag k="water" v="lake" />
	</node>
	<node lat="62.06701666980682" lon="10.472066674995949" id="-24377">
		<tag k="name" v="Langrøstbekken" />
		<tag k="ssr:stedsnr" v="253166" />
		<tag k="waterway" v="stream" />
	</node>
	<node lat="62.086013892431666" lon="10.38099166115329" id="-24378">
		<tag k="name" v="Verjebekken" />
		<tag k="ssr:stedsnr" v="253169" />
		<tag k="waterway" v="stream" />
	</node>
	<node lat="61.99569166911664" lon="10.791994442198204" id="-24382">
		<tag k="name" v="Kjøltjønnbekken" />
		<tag k="ssr:stedsnr" v="254261" />
		<tag k="waterway" v="stream" />
	</node>
	<node lat="62.266133333374135" lon="10.450088886926231" id="-24383">
		<tag k="name" v="Sandvika" />
		<tag k="natural" v="bay" />
		<tag k="ssr:stedsnr" v="254698" />
	</node>
	<node lat="62.27224444829118" lon="10.34500832708094" id="-24384">
		<tag k="name" v="Marsjøåa" />
		<tag k="ssr:stedsnr" v="254875" />
		<tag k="waterway" v="river" />
	</node>
	<node lat="62.25664166425579" lon="10.450122215254712" id="-24388">
		<tag k="name" v="Hemmeltangen" />
		<tag k="natural" v="cape" />
		<tag k="ssr:stedsnr" v="173462" />
	</node>
	<node lat="62.171788885020646" lon="10.490133324732291" id="-24396">
		<tag k="name" v="Bratthaugbekken" />
		<tag k="ssr:stedsnr" v="174713" />
		<tag k="waterway" v="stream" />
	</node>
	<node lat="62.23742222577595" lon="10.572749995918837" id="-24400">
		<tag k="name" v="Vangbekken" />
		<tag k="ssr:stedsnr" v="263340" />
		<tag k="waterway" v="stream" />
	</node>
	<node lat="61.99774166948914" lon="10.783277787023248" id="-24402">
		<tag k="name" v="Vesle Kjøltjønna" />
		<tag k="natural" v="water" />
		<tag k="ssr:stedsnr" v="207930" />
	</node>
	<node lat="62.0430388858236" lon="10.810680561095207" id="-24403">
		<tag k="name" v="Bellingtjønna" />
=======
<osm generator="osmapis" version="0.6">
	<node id="-354816" lat="62.1114833311" lon="10.5863666728">
		<tag k="name" v="Kloppbekken" />
		<tag k="ssr:stedsnr" v="114231" />
		<tag k="waterway" v="stream" />
	</node>
	<node id="-355327" lat="61.9607888859" lon="10.6478277845">
		<tag k="name" v="Kvanntjønna" />
		<tag k="natural" v="water" />
		<tag k="ssr:stedsnr" v="859429" />
	</node>
	<node id="-355326" lat="61.9686472253" lon="10.622213897">
		<tag k="name" v="Nordre Tegningstjønnan" />
		<tag k="natural" v="water" />
		<tag k="ssr:stedsnr" v="859428" />
		<tag k="water" v="lake" />
	</node>
	<node id="-354389" lat="62.0736333364" lon="10.592372216">
		<tag k="name" v="Volbekken" />
		<tag k="ssr:stedsnr" v="660249" />
		<tag k="waterway" v="stream" />
	</node>
	<node id="-354299" lat="61.9451083315" lon="10.8956833339">
		<tag k="name" v="Veslebekken" />
		<tag k="ssr:stedsnr" v="361667" />
		<tag k="waterway" v="stream" />
	</node>
	<node id="-355321" lat="62.0660277812" lon="10.7515888934">
		<tag k="name" v="Vesleskardbekken" />
		<tag k="ssr:stedsnr" v="843693" />
		<tag k="waterway" v="stream" />
	</node>
	<node id="-354296" lat="62.0899750002" lon="10.6426999909">
		<tag k="name" v="Tovolloken" />
		<tag k="ssr:stedsnr" v="357802" />
		<tag k="waterway" v="stream" />
	</node>
	<node id="-355319" lat="62.0046916683" lon="10.6703500015">
		<tag k="name" v="Gråhøgdbekken" />
		<tag k="ssr:stedsnr" v="843672" />
		<tag k="waterway" v="stream" />
	</node>
	<node id="-354291" lat="62.0236027745" lon="10.7778472165">
		<tag k="name" v="Blesterbekken" />
		<tag k="ssr:stedsnr" v="357652" />
		<tag k="waterway" v="stream" />
	</node>
	<node id="-354802" lat="62.1472833306" lon="10.3272749922">
		<tag k="name" v="Skarvdalsbekken" />
		<tag k="ssr:stedsnr" v="113067" />
		<tag k="waterway" v="stream" />
	</node>
	<node id="-354799" lat="62.1992527809" lon="10.4153111202">
		<tag k="name" v="Grågårdsbekken" />
		<tag k="ssr:stedsnr" v="112958" />
		<tag k="waterway" v="stream" />
	</node>
	<node id="-354286" lat="62.076258335" lon="10.7026194388">
		<tag k="name" v="Osteret" />
		<tag k="natural" v="bay" />
		<tag k="ssr:stedsnr" v="479849" />
	</node>
	<node id="-355309" lat="62.1064194468" lon="10.324299999">
		<tag k="name" v="Langbekken" />
		<tag k="ssr:stedsnr" v="841900" />
		<tag k="waterway" v="stream" />
	</node>
	<node id="-355308" lat="62.1077499956" lon="10.3406027833">
		<tag k="name" v="Sandvikodden" />
		<tag k="natural" v="cape" />
		<tag k="ssr:stedsnr" v="841894" />
	</node>
	<node id="-355304" lat="62.2085250019" lon="10.6464444509">
		<tag k="name" v="Storøra" />
		<tag k="place" v="islet" />
		<tag k="ssr:stedsnr" v="841702" />
	</node>
	<node id="-354790" lat="62.105711113" lon="10.3114222195">
		<tag k="name" v="Langtjønna" />
>>>>>>> e1d4bc35ff8a6074a6f2e91616a996b547c36f15
		<tag k="natural" v="water" />
		<tag k="ssr:stedsnr" v="85943" />
	</node>
<<<<<<< HEAD
	<node lat="62.08376111295939" lon="10.395808325730897" id="-24404">
		<tag k="name" v="Kroktjønna" />
		<tag k="natural" v="water" />
		<tag k="ssr:stedsnr" v="449901" />
	</node>
	<node lat="62.10705555426918" lon="10.279113881353744" id="-24405">
		<tag k="name" v="Lokan" />
		<tag k="natural" v="water" />
		<tag k="ssr:stedsnr" v="233905" />
		<tag k="water" v="lake" />
	</node>
	<node lat="62.108350003971296" lon="10.347316666654207" id="-24408">
		<tag k="name" v="Lortvikodden" />
		<tag k="natural" v="cape" />
		<tag k="ssr:stedsnr" v="233895" />
	</node>
	<node lat="61.997455556328326" lon="10.755397220624513" id="-24418">
		<tag k="name" v="Brennvoltjønna" />
		<tag k="natural" v="water" />
		<tag k="ssr:stedsnr" v="235703" />
	</node>
	<node lat="62.08411388454713" lon="10.685794444094695" id="-24421">
		<tag k="name" v="Fløttan" />
		<tag k="natural" v="beach" />
		<tag k="ssr:stedsnr" v="235879" />
	</node>
	<node lat="62.053944448836255" lon="10.718483331837836" id="-24423">
		<tag k="name" v="Blesterevja" />
		<tag k="natural" v="bay" />
		<tag k="ssr:stedsnr" v="236628" />
	</node>
	<node lat="62.049405559874344" lon="10.22945833212269" id="-24430">
		<tag k="name" v="Fjordungsbekken" />
		<tag k="ssr:stedsnr" v="253209" />
		<tag k="waterway" v="stream" />
	</node>
	<node lat="62.03701111055068" lon="10.312116665110093" id="-24432">
		<tag k="name" v="Store Follandstjønna" />
		<tag k="natural" v="water" />
		<tag k="ssr:stedsnr" v="253214" />
	</node>
	<node lat="62.127594446765855" lon="10.384558339195603" id="-24438">
		<tag k="alt_name" v="Kvitvordbekken" />
		<tag k="name" v="Kvitvolbekken" />
		<tag k="ssr:stedsnr" v="253245" />
		<tag k="waterway" v="stream" />
	</node>
	<node lat="62.067627780675444" lon="10.78130834219735" id="-24439">
		<tag k="name" v="Fjellbekken" />
		<tag k="ssr:stedsnr" v="254023" />
		<tag k="waterway" v="stream" />
	</node>
	<node lat="62.048905554715446" lon="10.507163894765242" id="-24440">
		<tag k="name" v="Vardfjelltjønna" />
		<tag k="natural" v="water" />
		<tag k="ssr:stedsnr" v="267886" />
	</node>
	<node lat="62.107980553166975" lon="10.30279166575911" id="-24441">
		<tag k="name" v="Naustertjønna" />
		<tag k="natural" v="water" />
		<tag k="ssr:stedsnr" v="267931" />
	</node>
	<node lat="62.08064166333913" lon="10.450397218329167" id="-24446">
		<tag k="name" v="Slettbekken" />
		<tag k="ssr:stedsnr" v="295811" />
		<tag k="waterway" v="stream" />
	</node>
	<node lat="62.092838886632585" lon="10.648702772729267" id="-24447">
		<tag k="name" v="Holmen" />
		<tag k="place" v="islet" />
		<tag k="ssr:stedsnr" v="296807" />
	</node>
	<node lat="62.09085000368326" lon="10.652880563311461" id="-24448">
		<tag k="name" v="Kaninholmen" />
		<tag k="place" v="islet" />
		<tag k="ssr:stedsnr" v="296808" />
	</node>
	<node lat="62.090602777003625" lon="10.605047226097222" id="-24451">
		<tag k="name" v="Volbekken" />
		<tag k="ssr:stedsnr" v="297825" />
		<tag k="waterway" v="stream" />
	</node>
	<node lat="61.94600573925118" lon="10.64935901140699" id="-24453">
		<tag k="name" v="Søndre Tegningstjønnan" />
		<tag k="natural" v="water" />
		<tag k="ssr:stedsnr" v="313429" />
		<tag k="water" v="lake" />
	</node>
	<node lat="62.197694442464446" lon="10.594338885677441" id="-24462">
		<tag k="name" v="Vesltjønnbekken" />
		<tag k="ssr:stedsnr" v="314119" />
		<tag k="waterway" v="stream" />
	</node>
	<node lat="62.032077775260625" lon="10.380197221643426" id="-24467">
		<tag k="alt_name" v="Vesle-Sølna" />
		<tag k="name" v="Veslsølna" />
		<tag k="ssr:stedsnr" v="314177" />
		<tag k="waterway" v="river" />
	</node>
	<node lat="62.01004722422256" lon="10.70025278552783" id="-24469">
		<tag k="name" v="Kjølbekken" />
		<tag k="ssr:stedsnr" v="314182" />
		<tag k="waterway" v="stream" />
	</node>
	<node lat="62.21237499618247" lon="10.699941659645107" id="-24477">
		<tag k="name" v="Masingbekken" />
		<tag k="ssr:stedsnr" v="355732" />
		<tag k="waterway" v="stream" />
	</node>
	<node lat="62.186941662409076" lon="10.459658326102868" id="-24478">
		<tag k="name" v="Dølplassbekken" />
		<tag k="ssr:stedsnr" v="355968" />
		<tag k="waterway" v="stream" />
	</node>
	<node lat="62.02360277445084" lon="10.77784721653916" id="-24481">
		<tag k="name" v="Blesterbekken" />
		<tag k="ssr:stedsnr" v="357652" />
		<tag k="waterway" v="stream" />
	</node>
	<node lat="62.0899750001869" lon="10.642699990903623" id="-24485">
		<tag k="name" v="Tovolloken" />
		<tag k="ssr:stedsnr" v="357802" />
		<tag k="waterway" v="stream" />
	</node>
	<node lat="62.089638889353914" lon="10.653363895863386" id="-24486">
		<tag k="name" v="Langsanden" />
		<tag k="place" v="islet" />
		<tag k="ssr:stedsnr" v="357798" />
	</node>
	<node lat="62.16218333732256" lon="10.713369442798358" id="-24490">
		<tag k="name" v="Grøtåa" />
		<tag k="ssr:stedsnr" v="476829" />
		<tag k="waterway" v="stream" />
	</node>
	<node lat="62.14565833213387" lon="10.682958341837724" id="-24491">
		<tag k="name" v="Søndre Tronsåa" />
		<tag k="ssr:stedsnr" v="476835" />
		<tag k="waterway" v="stream" />
	</node>
	<node lat="62.20765555183806" lon="10.645986112539212" id="-24492">
		<tag k="name" v="Lykkjeholmen" />
		<tag k="place" v="islet" />
		<tag k="ssr:stedsnr" v="476735" />
	</node>
	<node lat="62.201647224675945" lon="10.728591666910708" id="-24494">
		<tag k="name" v="Vesle Brandvollstjønna" />
		<tag k="natural" v="water" />
		<tag k="ssr:stedsnr" v="476895" />
	</node>
	<node lat="62.17682500442317" lon="10.642991661172045" id="-24513">
		<tag k="name" v="Kvernbekken" />
		<tag k="ssr:stedsnr" v="374023" />
		<tag k="waterway" v="stream" />
	</node>
	<node lat="62.07625833501539" lon="10.70261943883811" id="-24516">
		<tag k="name" v="Osteret" />
		<tag k="natural" v="bay" />
		<tag k="ssr:stedsnr" v="479849" />
	</node>
	<node lat="61.996236114552154" lon="10.36739999431051" id="-24526">
		<tag k="name" v="Fjordungsbekken" />
		<tag k="ssr:stedsnr" v="374430" />
		<tag k="waterway" v="stream" />
	</node>
	<node lat="61.99385555941363" lon="10.690891671087194" id="-24529">
		<tag k="name" v="Skarvbekken" />
		<tag k="ssr:stedsnr" v="374449" />
		<tag k="waterway" v="stream" />
	</node>
	<node lat="62.22419444063687" lon="10.527897222782522" id="-24538">
		<tag k="name" v="Kloppbekken" />
		<tag k="ssr:stedsnr" v="416812" />
		<tag k="waterway" v="stream" />
	</node>
	<node lat="62.047108331854076" lon="10.591394445768888" id="-24544">
		<tag k="name" v="Blårybekken" />
		<tag k="ssr:stedsnr" v="418886" />
		<tag k="waterway" v="stream" />
	</node>
	<node lat="62.03936944583024" lon="10.546636104230227" id="-24547">
		<tag k="name" v="Fallet" />
		<tag k="natural" v="waterfall" />
		<tag k="ssr:stedsnr" v="418889" />
	</node>
	<node lat="62.073030552232055" lon="10.521111103010131" id="-24553">
		<tag k="name" v="Finnbudalsbekken" />
		<tag k="ssr:stedsnr" v="435168" />
		<tag k="waterway" v="stream" />
	</node>
	<node lat="62.09311111275463" lon="10.706661112968906" id="-24556">
		<tag k="name" v="Kvebergsbekken" />
		<tag k="old_name" v="Kvernbekken" />
		<tag k="ssr:stedsnr" v="435703" />
		<tag k="waterway" v="stream" />
	</node>
	<node lat="62.08390555919821" lon="10.388611102574476" id="-24557">
		<tag k="name" v="Vondtjønna" />
		<tag k="natural" v="water" />
		<tag k="ssr:stedsnr" v="436124" />
	</node>
	<node lat="61.98403055545279" lon="10.75833888793181" id="-24562">
		<tag k="name" v="Stortjønna" />
		<tag k="natural" v="water" />
		<tag k="ssr:stedsnr" v="436306" />
	</node>
	<node lat="62.07926666744934" lon="10.427619448989953" id="-24574">
		<tag k="name" v="Storskardbekken" />
		<tag k="ssr:stedsnr" v="477823" />
		<tag k="waterway" v="stream" />
	</node>
	<node lat="61.93364444447013" lon="10.290324998186556" id="-24576">
		<tag k="name" v="Grisviktjønna" />
		<tag k="natural" v="water" />
		<tag k="ssr:stedsnr" v="677618" />
	</node>
	<node lat="61.97896666974018" lon="10.821400002094599" id="-24596">
		<tag k="name" v="Storbekken" />
		<tag k="ssr:stedsnr" v="678355" />
		<tag k="waterway" v="stream" />
	</node>
	<node lat="62.258663893277195" lon="10.367550007478892" id="-24601">
		<tag k="alt_name" v="Hølbekken" />
		<tag k="name" v="Holbekken" />
		<tag k="ssr:stedsnr" v="679014" />
		<tag k="waterway" v="stream" />
	</node>
	<node lat="62.179522223370256" lon="10.508191670268381" id="-24612">
		<tag k="alt_name" v="Bersvendbekken" />
		<tag k="name" v="Bersvennbekken" />
		<tag k="ssr:stedsnr" v="505307" />
		<tag k="waterway" v="stream" />
	</node>
	<node lat="62.082080556743804" lon="10.409986111331396" id="-24617">
		<tag k="name" v="Verjebekkmælen" />
		<tag k="natural" v="beach" />
		<tag k="ssr:stedsnr" v="538776" />
	</node>
	<node lat="62.15914722175075" lon="10.617119441192832" id="-24619">
		<tag k="name" v="Raurøstbekken" />
		<tag k="ssr:stedsnr" v="538907" />
		<tag k="waterway" v="stream" />
	</node>
	<node lat="62.126994443284275" lon="10.303066661479063" id="-24629">
		<tag k="name" v="Vissmanntjønna" />
		<tag k="natural" v="water" />
		<tag k="ssr:stedsnr" v="556239" />
	</node>
	<node lat="62.03642500056594" lon="10.417497218710267" id="-24630">
		<tag k="name" v="Holbekken" />
		<tag k="ssr:stedsnr" v="688453" />
		<tag k="waterway" v="stream" />
	</node>
	<node lat="61.994524997336796" lon="10.862788886643253" id="-24633">
		<tag k="name" v="Urstrømfossen" />
		<tag k="natural" v="waterfall" />
		<tag k="ssr:stedsnr" v="557322" />
	</node>
	<node lat="62.199608331587925" lon="10.575077777242273" id="-24634">
		<tag k="name" v="Stortjønnbekken" />
		<tag k="ssr:stedsnr" v="566316" />
		<tag k="waterway" v="stream" />
	</node>
	<node lat="62.11931666830909" lon="10.417461114423764" id="-24635">
		<tag k="name" v="Katt-tjønna" />
		<tag k="natural" v="water" />
		<tag k="ssr:stedsnr" v="570727" />
	</node>
	<node lat="62.26088333477491" lon="10.398688897026855" id="-24637">
		<tag k="name" v="Botnlaustjønna" />
		<tag k="natural" v="water" />
		<tag k="ssr:stedsnr" v="572959" />
	</node>
	<node lat="62.175997220379" lon="10.53910832849049" id="-24640">
		<tag k="name" v="Vangbekken" />
		<tag k="ssr:stedsnr" v="597703" />
		<tag k="waterway" v="stream" />
	</node>
	<node lat="61.98065000076359" lon="10.77940834050401" id="-24648">
		<tag k="name" v="Brennvolbekken" />
		<tag k="ssr:stedsnr" v="600623" />
		<tag k="waterway" v="stream" />
	</node>
	<node lat="61.97425833235788" lon="10.782886119582336" id="-24649">
		<tag k="name" v="Drøppelbekken" />
		<tag k="ssr:stedsnr" v="600624" />
		<tag k="waterway" v="stream" />
	</node>
	<node lat="62.0706833367171" lon="10.759572218463651" id="-24651">
		<tag k="name" v="Veslefjellbekken" />
		<tag k="ssr:stedsnr" v="600648" />
		<tag k="waterway" v="stream" />
	</node>
	<node lat="61.996452777428935" lon="10.646063893384518" id="-24654">
		<tag k="name" v="Gråhøgdbekken" />
		<tag k="ssr:stedsnr" v="616402" />
		<tag k="waterway" v="stream" />
	</node>
	<node lat="62.18973055919033" lon="10.387005555336726" id="-24669">
		<tag k="name" v="Persbekken" />
		<tag k="ssr:stedsnr" v="658932" />
		<tag k="waterway" v="stream" />
	</node>
	<node lat="62.09430555532046" lon="10.6758277809897" id="-24680">
		<tag k="name" v="Hauståsbekken" />
		<tag k="ssr:stedsnr" v="659981" />
		<tag k="waterway" v="stream" />
	</node>
	<node lat="62.01189167027991" lon="10.838902770735109" id="-24683">
		<tag k="name" v="Varpstensvika" />
		<tag k="natural" v="bay" />
		<tag k="ssr:stedsnr" v="660680" />
	</node>
	<node lat="61.94295278115791" lon="10.588269450851554" id="-24688">
		<tag k="name" v="Storhøbekken" />
		<tag k="ssr:stedsnr" v="677415" />
		<tag k="waterway" v="stream" />
	</node>
	<node lat="62.1705805546505" lon="10.555102779334053" id="-24691">
		<tag k="name" v="Brekkbekken" />
		<tag k="ssr:stedsnr" v="678013" />
		<tag k="waterway" v="stream" />
	</node>
	<node lat="62.219741663682875" lon="10.390524996644857" id="-24693">
		<tag k="name" v="Buabekken" />
		<tag k="ssr:stedsnr" v="678083" />
		<tag k="waterway" v="stream" />
	</node>
	<node lat="61.99296111036371" lon="10.231649995690692" id="-24702">
		<tag k="alt_name" v="Klettsjøen, s" />
		<tag k="name" v="Søndre Klettsjøen" />
		<tag k="natural" v="water" />
		<tag k="ssr:stedsnr" v="678527" />
	</node>
	<node lat="61.997166665162254" lon="10.310361106630403" id="-24703">
		<tag k="name" v="Klettjønna" />
		<tag k="natural" v="water" />
		<tag k="ssr:stedsnr" v="678528" />
	</node>
	<node lat="62.24929722175628" lon="10.42534722631031" id="-24717">
		<tag k="name" v="Gardvikodden" />
		<tag k="natural" v="cape" />
		<tag k="ssr:stedsnr" v="901632" />
	</node>
	<node lat="62.213730552815505" lon="10.649258342150349" id="-24724">
		<tag k="name" v="Aumøra" />
		<tag k="natural" v="beach" />
		<tag k="ssr:stedsnr" v="901749" />
	</node>
	<node lat="62.19071110699607" lon="10.512688883027774" id="-24725">
		<tag k="name" v="Kløftbekken" />
		<tag k="ssr:stedsnr" v="901798" />
		<tag k="waterway" v="stream" />
	</node>
	<node lat="62.19643333397323" lon="10.422561115617665" id="-24728">
		<tag k="name" v="Follibekken" />
		<tag k="ssr:stedsnr" v="901975" />
		<tag k="waterway" v="stream" />
	</node>
	<node lat="61.931249997210635" lon="10.27624167142938" id="-24734">
		<tag k="name" v="Breidvika" />
		<tag k="natural" v="bay" />
		<tag k="ssr:stedsnr" v="738610" />
	</node>
	<node lat="62.004963885825624" lon="10.53599165858332" id="-24742">
		<tag k="name" v="Øykjeklettbekken" />
		<tag k="ssr:stedsnr" v="739204" />
		<tag k="waterway" v="stream" />
	</node>
	<node lat="62.10010277840884" lon="10.49468612069818" id="-24743">
		<tag k="name" v="Oklebekken" />
		<tag k="ssr:stedsnr" v="739214" />
		<tag k="waterway" v="stream" />
	</node>
	<node lat="62.006297221436284" lon="10.20525554808118" id="-24749">
		<tag k="name" v="Rundhåen" />
		<tag k="natural" v="water" />
		<tag k="ssr:stedsnr" v="739408" />
	</node>
	<node lat="62.082483333938946" lon="10.496230564725346" id="-24751">
		<tag k="name" v="Vardtjønnbekken" />
		<tag k="ssr:stedsnr" v="739147" />
		<tag k="waterway" v="stream" />
	</node>
	<node lat="62.032819448166144" lon="10.645980547240782" id="-24753">
		<tag k="name" v="Urdskardbekken" />
		<tag k="ssr:stedsnr" v="903642" />
		<tag k="waterway" v="stream" />
	</node>
	<node lat="61.99896388649336" lon="10.77621943509144" id="-24755">
		<tag k="name" v="Brennrøstbekken" />
		<tag k="ssr:stedsnr" v="904634" />
		<tag k="waterway" v="stream" />
	</node>
	<node lat="61.975108336842226" lon="10.83306110348929" id="-24756">
		<tag k="name" v="Skardbekken" />
		<tag k="ssr:stedsnr" v="904639" />
		<tag k="waterway" v="stream" />
	</node>
	<node lat="62.19578611054382" lon="10.70936388172662" id="-24758">
		<tag k="name" v="Skrebekken" />
		<tag k="ssr:stedsnr" v="904871" />
		<tag k="waterway" v="stream" />
	</node>
	<node lat="61.96509166919601" lon="10.796480550066335" id="-24760">
		<tag k="name" v="Hølbekktjønna" />
		<tag k="natural" v="water" />
		<tag k="ssr:stedsnr" v="754964" />
	</node>
	<node lat="62.16187777721569" lon="10.521388891251894" id="-24762">
		<tag k="name" v="Follshaugbekken" />
		<tag k="ssr:stedsnr" v="780616" />
		<tag k="waterway" v="stream" />
	</node>
	<node lat="62.238055556630236" lon="10.447674996827692" id="-24767">
		<tag k="name" v="Slettknausbekken" />
		<tag k="ssr:stedsnr" v="780909" />
		<tag k="waterway" v="stream" />
	</node>
	<node lat="62.18263333298526" lon="10.649908333438104" id="-24778">
		<tag k="name" v="Svartbekken" />
		<tag k="ssr:stedsnr" v="782851" />
		<tag k="waterway" v="stream" />
	</node>
	<node lat="62.0502500020679" lon="10.785877771795093" id="-24781">
		<tag k="alt_name" v="Gaupskardbekken, vestre;Gaupskardbekken" />
		<tag k="name" v="Vestre Gaupskardbekken" />
		<tag k="ssr:stedsnr" v="799010" />
		<tag k="waterway" v="stream" />
	</node>
	<node lat="61.99454444577529" lon="10.49522500650609" id="-24787">
		<tag k="name" v="Auma" />
		<tag k="ssr:stedsnr" v="799419" />
		<tag k="waterway" v="river" />
	</node>
	<node lat="61.98863055251864" lon="10.590533324414544" id="-24800">
		<tag k="alt_name" v="Mælbekken" />
		<tag k="name" v="Melbekken" />
		<tag k="ssr:stedsnr" v="920433" />
		<tag k="waterway" v="stream" />
	</node>
	<node lat="62.05040833407" lon="10.598875008124498" id="-24811">
		<tag k="name" v="Blårytjønnan" />
		<tag k="natural" v="water" />
		<tag k="ssr:stedsnr" v="921180" />
		<tag k="water" v="lake" />
	</node>
	<node lat="62.20606666216217" lon="10.723452784216128" id="-24812">
		<tag k="alt_name" v="Brandvollsbekken" />
		<tag k="name" v="Brannvålsbekken" />
		<tag k="ssr:stedsnr" v="921246" />
		<tag k="waterway" v="stream" />
	</node>
	<node lat="62.24799444118526" lon="10.209861114854696" id="-24819">
		<tag k="name" v="Einunna" />
		<tag k="ssr:stedsnr" v="921327" />
		<tag k="waterway" v="river" />
	</node>
	<node lat="62.003561109875655" lon="10.772505559652052" id="-24820">
		<tag k="name" v="Store Kjøltjønna" />
		<tag k="natural" v="water" />
		<tag k="ssr:stedsnr" v="921472" />
	</node>
	<node lat="62.107749995599946" lon="10.340602783296118" id="-24827">
		<tag k="name" v="Sandvikodden" />
		<tag k="natural" v="cape" />
		<tag k="ssr:stedsnr" v="841894" />
	</node>
	<node lat="62.02613611346643" lon="10.771930558153965" id="-24829">
		<tag k="name" v="Slåbekken" />
		<tag k="ssr:stedsnr" v="842683" />
		<tag k="waterway" v="stream" />
	</node>
	<node lat="62.05462500404918" lon="10.73138888501687" id="-24833">
		<tag k="name" v="Myrbekken" />
		<tag k="ssr:stedsnr" v="843684" />
		<tag k="waterway" v="stream" />
	</node>
	<node lat="61.96864722530602" lon="10.622213897045825" id="-24836">
		<tag k="name" v="Nordre Tegningstjønnan" />
		<tag k="natural" v="water" />
		<tag k="ssr:stedsnr" v="859428" />
		<tag k="water" v="lake" />
	</node>
	<node lat="61.96078888593812" lon="10.647827784487792" id="-24837">
		<tag k="name" v="Kvanntjønna" />
		<tag k="natural" v="water" />
		<tag k="ssr:stedsnr" v="859429" />
	</node>
	<node lat="61.98649999592579" lon="10.213627777096468" id="-24839">
		<tag k="alt_name" v="Breidsjøen" />
		<tag k="name" v="Breisjøen" />
		<tag k="natural" v="water" />
		<tag k="old_name" v="Breisjøane" />
		<tag k="ssr:stedsnr" v="859475" />
		<tag k="water" v="lake" />
	</node>
	<node lat="62.015805556897696" lon="10.286163881406704" id="-24847">
		<tag k="name" v="Sølnsjøbekken" />
		<tag k="ssr:stedsnr" v="860205" />
		<tag k="waterway" v="stream" />
	</node>
	<node lat="61.99457201363568" lon="10.202751712613855" id="-24854">
		<tag k="name" v="Blekutjønn" />
		<tag k="natural" v="water" />
		<tag k="ssr:stedsnr" v="860566" />
	</node>
	<node lat="62.132683332219486" lon="10.469099998401788" id="-24861">
		<tag k="name" v="Svartåsbekken" />
		<tag k="ssr:stedsnr" v="901983" />
		<tag k="waterway" v="stream" />
	</node>
	<node lat="62.21776666356673" lon="10.52670833163299" id="-24864">
		<tag k="name" v="Langgardsbekken" />
		<tag k="ssr:stedsnr" v="902799" />
		<tag k="waterway" v="stream" />
	</node>
	<node lat="62.2429888884981" lon="10.455999999101628" id="-24867">
		<tag k="name" v="Slettknausodden" />
		<tag k="natural" v="cape" />
		<tag k="ssr:stedsnr" v="902956" />
	</node>
	<node lat="62.0144944476023" lon="10.596116657616438" id="-24871">
		<tag k="name" v="Svartbekkloken" />
		<tag k="natural" v="water" />
		<tag k="ssr:stedsnr" v="903632" />
	</node>
	<node lat="62.039297223179844" lon="10.59662499173673" id="-24872">
		<tag k="name" v="Sjulhusøya" />
		<tag k="natural" v="cape" />
		<tag k="ssr:stedsnr" v="903635" />
	</node>
	<node lat="62.12139166428824" lon="10.597819450974134" id="-24879">
		<tag k="name" v="Gulløyholmen" />
		<tag k="place" v="island" />
		<tag k="ssr:stedsnr" v="904962" />
	</node>
	<node lat="62.119180555384695" lon="10.626013887002943" id="-24880">
		<tag k="name" v="Husanøra" />
		<tag k="place" v="islet" />
		<tag k="ssr:stedsnr" v="904965" />
	</node>
	<node lat="62.057069446490765" lon="10.62525277209142" id="-24894">
		<tag k="name" v="Valleråtjønna" />
		<tag k="natural" v="water" />
		<tag k="ssr:stedsnr" v="921182" />
	</node>
	<node lat="62.03890833541" lon="10.474475002576" id="-24896">
		<tag k="name" v="Dølbekken" />
		<tag k="ssr:stedsnr" v="921193" />
		<tag k="waterway" v="stream" />
	</node>
	<node lat="62.121147217911606" lon="10.48640000852971" id="-24899">
		<tag k="name" v="Nysætertjønna" />
		<tag k="natural" v="water" />
		<tag k="ssr:stedsnr" v="935936" />
	</node>
	<node lat="62.06988610680072" lon="10.61786666411069" id="-24910">
		<tag k="name" v="Volbekken" />
		<tag k="ssr:stedsnr" v="964601" />
		<tag k="waterway" v="stream" />
	</node>
	<node lat="62.217350002572104" lon="10.652438896713655" id="-24919">
		<tag k="name" v="Auma" />
		<tag k="ssr:stedsnr" v="10067" />
		<tag k="waterway" v="river" />
	</node>
	<node lat="62.02820197658189" lon="10.192303201892004" id="-24921">
		<tag k="name" v="Mjovatnet" />
		<tag k="natural" v="water" />
		<tag k="old_name" v="Mjovatn" />
		<tag k="ssr:stedsnr" v="10389" />
		<tag k="water" v="lake" />
	</node>
	<node lat="62.212547964393636" lon="10.44321929785264" id="-24927">
		<tag k="name" v="Lomsjøen" />
		<tag k="natural" v="water" />
		<tag k="ssr:stedsnr" v="11061" />
		<tag k="water" v="lake" />
	</node>
	<node lat="62.03987500428142" lon="10.513724999049519" id="-24933">
		<tag k="name" v="Rotbekken" />
		<tag k="ssr:stedsnr" v="11146" />
		<tag k="waterway" v="stream" />
	</node>
	<node lat="62.03385555186037" lon="10.571899991396341" id="-24934">
		<tag k="name" v="Svartbekken" />
		<tag k="ssr:stedsnr" v="11148" />
		<tag k="waterway" v="stream" />
	</node>
	<node lat="62.03687499626952" lon="10.397191667458408" id="-24938">
		<tag k="name" v="Kvislåa" />
		<tag k="ssr:stedsnr" v="11172" />
		<tag k="waterway" v="stream" />
	</node>
	<node lat="62.072024998088445" lon="10.78991389050864" id="-24940">
		<tag k="name" v="Blanktjønna" />
		<tag k="natural" v="water" />
		<tag k="ssr:stedsnr" v="26976" />
	</node>
	<node lat="62.158961108864915" lon="10.541033328234255" id="-24942">
		<tag k="name" v="Sognan" />
		<tag k="place" v="locality" />
		<tag k="ssr:stedsnr" v="52646" />
	</node>
	<node lat="62.105002778880284" lon="10.337286120027226" id="-24945">
		<tag k="name" v="Djupodden" />
		<tag k="natural" v="cape" />
		<tag k="ssr:stedsnr" v="52890" />
	</node>
	<node lat="62.104891667250904" lon="10.342705558847559" id="-24946">
		<tag k="name" v="Storsundet" />
		<tag k="natural" v="strait" />
		<tag k="ssr:stedsnr" v="52894" />
	</node>
	<node lat="62.14945833145158" lon="10.554305562698683" id="-24948">
		<tag k="name" v="Veslengholmen" />
		<tag k="place" v="islet" />
		<tag k="ssr:stedsnr" v="52655" />
	</node>
	<node lat="62.22526389148546" lon="10.369250008036135" id="-24949">
		<tag k="name" v="Strålsjøbekken" />
		<tag k="ssr:stedsnr" v="52927" />
		<tag k="waterway" v="stream" />
	</node>
	<node lat="61.958730555685676" lon="10.253152772141288" id="-24958">
		<tag k="name" v="Lona" />
		<tag k="place" v="locality" />
		<tag k="ssr:stedsnr" v="70592" />
	</node>
	<node lat="62.06375000043698" lon="10.628938893460184" id="-24962">
		<tag k="name" v="Valleråa" />
		<tag k="ssr:stedsnr" v="71149" />
		<tag k="waterway" v="river" />
	</node>
	<node lat="62.09406389049945" lon="10.728836104664412" id="-24964">
		<tag k="name" v="Høyåsbekken" />
		<tag k="ssr:stedsnr" v="71116" />
		<tag k="waterway" v="stream" />
	</node>
	<node lat="61.98002499748316" lon="10.704225004074683" id="-24971">
		<tag k="name" v="Fjellbekken" />
		<tag k="ssr:stedsnr" v="71475" />
		<tag k="waterway" v="stream" />
	</node>
	<node lat="61.97029722499344" lon="10.649263894006053" id="-24972">
		<tag k="name" v="Smalhøtjønnan" />
		<tag k="natural" v="water" />
		<tag k="ssr:stedsnr" v="71479" />
		<tag k="water" v="lake" />
	</node>
	<node lat="62.23582500416943" lon="10.470433332158535" id="-24979">
		<tag k="name" v="Sandvika" />
		<tag k="natural" v="bay" />
		<tag k="ssr:stedsnr" v="72405" />
	</node>
	<node lat="62.23900000260023" lon="10.385922231294265" id="-24980">
		<tag k="name" v="Strålsjøen" />
		<tag k="natural" v="water" />
		<tag k="ssr:stedsnr" v="72406" />
		<tag k="water" v="lake" />
	</node>
	<node lat="62.10840833495585" lon="10.307230556735142" id="-24981">
		<tag k="name" v="Vesltjønna" />
		<tag k="natural" v="water" />
		<tag k="ssr:stedsnr" v="85001" />
	</node>
	<node lat="62.10571111303393" lon="10.311422219494103" id="-24982">
		<tag k="name" v="Langtjønna" />
		<tag k="natural" v="water" />
		<tag k="ssr:stedsnr" v="85943" />
	</node>
	<node lat="62.199252780928774" lon="10.415311120239961" id="-24990">
		<tag k="name" v="Grågårdsbekken" />
		<tag k="ssr:stedsnr" v="112958" />
		<tag k="waterway" v="stream" />
	</node>
	<node lat="62.14728333058193" lon="10.327274992230826" id="-24991">
		<tag k="name" v="Skarvdalsbekken" />
		<tag k="ssr:stedsnr" v="113067" />
		<tag k="waterway" v="stream" />
	</node>
	<node lat="62.11148333107604" lon="10.586366672808408" id="-25001">
		<tag k="name" v="Kloppbekken" />
		<tag k="ssr:stedsnr" v="114231" />
		<tag k="waterway" v="stream" />
	</node>
	<node lat="62.10704886378721" lon="10.61663737361508" id="-25002">
		<tag k="name" v="Sauholmen" />
		<tag k="place" v="island" />
		<tag k="ssr:stedsnr" v="114843" />
	</node>
	<node lat="62.04044722470741" lon="10.843925003322399" id="-25005">
		<tag k="name" v="Bellingtjønna" />
		<tag k="natural" v="water" />
		<tag k="ssr:stedsnr" v="131055" />
	</node>
	<node lat="61.96353610679225" lon="10.243966669868678" id="-25012">
		<tag k="name" v="Stubben" />
		<tag k="natural" v="water" />
		<tag k="ssr:stedsnr" v="131600" />
	</node>
	<node lat="62.22835277989261" lon="10.487405549800012" id="-25013">
		<tag k="name" v="Lauvbekken" />
		<tag k="ssr:stedsnr" v="132067" />
		<tag k="waterway" v="stream" />
	</node>
	<node lat="62.07233889019455" lon="10.320425001095426" id="-25023">
		<tag k="name" v="Kjemsjøbekken" />
		<tag k="ssr:stedsnr" v="132110" />
		<tag k="waterway" v="stream" />
	</node>
	<node lat="62.05360278149519" lon="10.769033327189739" id="-25028">
		<tag k="name" v="Vesle Trosttjønna" />
		<tag k="natural" v="water" />
		<tag k="ssr:stedsnr" v="146754" />
	</node>
	<node lat="62.04236944687224" lon="10.550536102228726" id="-25029">
		<tag k="name" v="Hykkeltjønna" />
		<tag k="natural" v="water" />
		<tag k="ssr:stedsnr" v="147953" />
	</node>
	<node lat="62.23231110776984" lon="10.519786103164368" id="-25030">
		<tag k="name" v="Sivilosen" />
		<tag k="natural" v="bay" />
		<tag k="ssr:stedsnr" v="173798" />
	</node>
	<node lat="62.09403055992441" lon="10.684938895815327" id="-25040">
		<tag k="name" v="Lerdiket" />
		<tag k="ssr:stedsnr" v="174977" />
		<tag k="waterway" v="dam" />
	</node>
	<node lat="62.11470702193031" lon="10.556423097963151" id="-25043">
		<tag k="name" v="Sølnadammen" />
		<tag k="ssr:stedsnr" v="175217" />
		<tag k="waterway" v="dam" />
	</node>
	<node lat="62.03681388700208" lon="10.74414721366416" id="-25047">
		<tag k="name" v="Svartholmen" />
		<tag k="place" v="islet" />
		<tag k="ssr:stedsnr" v="175677" />
	</node>
	<node lat="61.970405559621305" lon="10.893463897521015" id="-25049">
		<tag k="name" v="Sveøra" />
		<tag k="natural" v="beach" />
		<tag k="ssr:stedsnr" v="175687" />
	</node>
	<node lat="62.12012777581287" lon="10.326047220125995" id="-25069">
		<tag k="name" v="Vissmannbekken" />
		<tag k="ssr:stedsnr" v="192218" />
		<tag k="waterway" v="stream" />
	</node>
	<node lat="61.99083055921201" lon="10.567002775154112" id="-25072">
		<tag k="name" v="Meltjønnan" />
		<tag k="natural" v="water" />
		<tag k="ssr:stedsnr" v="192448" />
		<tag k="water" v="lake" />
	</node>
	<node lat="61.917200002404485" lon="10.586502776081886" id="-25074">
		<tag k="name" v="Hattjønna" />
		<tag k="natural" v="water" />
		<tag k="ssr:stedsnr" v="192471" />
	</node>
	<node lat="61.959580557415926" lon="10.362538897411069" id="-25077">
		<tag k="name" v="Sølnsjødalstjønna" />
		<tag k="natural" v="water" />
		<tag k="ssr:stedsnr" v="192486" />
	</node>
	<node lat="61.96905555388194" lon="10.443569449352696" id="-25078">
		<tag k="name" v="Kvislåtjønna" />
		<tag k="natural" v="water" />
		<tag k="ssr:stedsnr" v="192488" />
	</node>
	<node lat="61.9172444471275" lon="10.288625008397345" id="-25081">
		<tag k="name" v="Skjellåfloene" />
		<tag k="natural" v="water" />
		<tag k="ssr:stedsnr" v="192595" />
	</node>
	<node lat="62.15441388899775" lon="10.433511118272293" id="-25083">
		<tag k="alt_name" v="Veslbekken" />
		<tag k="name" v="Veslebekken" />
		<tag k="ssr:stedsnr" v="193058" />
		<tag k="waterway" v="stream" />
	</node>
	<node lat="62.13511667005594" lon="10.457405551931208" id="-25089">
		<tag k="name" v="Hausta" />
		<tag k="ssr:stedsnr" v="193033" />
		<tag k="waterway" v="river" />
	</node>
	<node lat="62.08693055351861" lon="10.750533340090229" id="-25090">
		<tag k="name" v="Limåsbekken" />
		<tag k="ssr:stedsnr" v="193095" />
		<tag k="waterway" v="stream" />
	</node>
	<node lat="62.103638890266126" lon="10.465466666963112" id="-25091">
		<tag k="name" v="Radskiftbekken" />
		<tag k="ssr:stedsnr" v="193215" />
		<tag k="waterway" v="stream" />
	</node>
	<node lat="62.22341388977225" lon="10.53831388117291" id="-25096">
		<tag k="name" v="Sivilla" />
		<tag k="ssr:stedsnr" v="193084" />
		<tag k="waterway" v="river" />
	</node>
	<node lat="62.24406110755368" lon="10.462716666033186" id="-25102">
		<tag k="name" v="Savalen" />
		<tag k="natural" v="water" />
		<tag k="ssr:stedsnr" v="193447" />
		<tag k="water" v="lake" />
	</node>
	<node lat="62.111886112602555" lon="10.404449998546337" id="-25107">
		<tag k="name" v="Katt-tjønna" />
		<tag k="natural" v="water" />
		<tag k="ssr:stedsnr" v="206741" />
	</node>
	<node lat="61.97068889299458" lon="10.22908054761989" id="-25109">
		<tag k="name" v="Sørfjorden" />
		<tag k="natural" v="water" />
		<tag k="ssr:stedsnr" v="284693" />
	</node>
	<node lat="62.026405552260236" lon="10.791702781034928" id="-25120">
		<tag k="name" v="Kolstuguholmen" />
		<tag k="place" v="islet" />
		<tag k="ssr:stedsnr" v="296653" />
	</node>
	<node lat="62.037072223946275" lon="10.749763882128857" id="-25123">
		<tag k="name" v="Oppgardsholmen" />
		<tag k="place" v="islet" />
		<tag k="ssr:stedsnr" v="297657" />
	</node>
	<node lat="62.18327777617869" lon="10.394411112435447" id="-25133">
		<tag k="name" v="Skardtjønna" />
		<tag k="natural" v="water" />
		<tag k="ssr:stedsnr" v="314019" />
	</node>
	<node lat="62.184688892668596" lon="10.344533332966385" id="-25134">
		<tag k="alt_name" v="Veslesteibekken" />
		<tag k="name" v="Veslsteibekken" />
		<tag k="ssr:stedsnr" v="314022" />
		<tag k="waterway" v="stream" />
	</node>
	<node lat="62.071830553506196" lon="10.650733329143923" id="-25141">
		<tag k="alt_name" v="Hølbekken" />
		<tag k="name" v="Holbekken" />
		<tag k="ssr:stedsnr" v="314137" />
		<tag k="waterway" v="stream" />
	</node>
	<node lat="62.071761108613444" lon="10.4367749938429" id="-25142">
		<tag k="name" v="Brennrøstbekken" />
		<tag k="ssr:stedsnr" v="314139" />
		<tag k="waterway" v="stream" />
	</node>
	<node lat="62.00887500029251" lon="10.785572216701956" id="-25150">
		<tag k="name" v="Voltjønna" />
		<tag k="natural" v="water" />
		<tag k="old_name" v="Søndre Kjøltjønna" />
		<tag k="ssr:stedsnr" v="314493" />
	</node>
	<node lat="62.16490833442917" lon="10.330961119585686" id="-25153">
		<tag k="name" v="Veslebekken" />
		<tag k="ssr:stedsnr" v="355064" />
		<tag k="waterway" v="stream" />
	</node>
	<node lat="61.945108331532275" lon="10.895683333861552" id="-25187">
		<tag k="name" v="Veslebekken" />
		<tag k="ssr:stedsnr" v="361667" />
		<tag k="waterway" v="stream" />
	</node>
	<node lat="62.082788893047336" lon="10.295638886854995" id="-25199">
		<tag k="name" v="Kjemsjøen" />
		<tag k="natural" v="water" />
		<tag k="ssr:stedsnr" v="374166" />
		<tag k="water" v="lake" />
	</node>
	<node lat="62.07818889177942" lon="10.564894451779002" id="-25205">
		<tag k="name" v="Storbekktjønna" />
		<tag k="natural" v="water" />
		<tag k="ssr:stedsnr" v="375124" />
	</node>
	<node lat="62.00649721829204" lon="10.61454999561128" id="-25209">
		<tag k="name" v="Kløfttjønnan" />
		<tag k="natural" v="water" />
		<tag k="ssr:stedsnr" v="375173" />
		<tag k="water" v="lake" />
	</node>
	<node lat="62.105391667529446" lon="10.32209445307894" id="-25215">
		<tag k="name" v="Fisklaustjønna" />
		<tag k="natural" v="water" />
		<tag k="ssr:stedsnr" v="390961" />
	</node>
	<node lat="62.08353055346408" lon="10.396269446223277" id="-25217">
		<tag k="name" v="Kroktjønna" />
		<tag k="natural" v="water" />
		<tag k="ssr:stedsnr" v="416731" />
	</node>
	<node lat="62.09536111499663" lon="10.256769444838723" id="-25220">
		<tag k="name" v="Skarvdalsbekken" />
		<tag k="ssr:stedsnr" v="416876" />
		<tag k="waterway" v="stream" />
	</node>
	<node lat="62.1049388893283" lon="10.333608342329086" id="-25221">
		<tag k="name" v="Lomvika" />
		<tag k="natural" v="bay" />
		<tag k="ssr:stedsnr" v="416878" />
	</node>
	<node lat="62.10588195625042" lon="10.624185863515834" id="-25226">
		<tag k="name" v="Øya" />
		<tag k="place" v="island" />
		<tag k="ssr:stedsnr" v="417868" />
	</node>
	<node lat="62.13281667085546" lon="10.655144446262378" id="-25230">
		<tag k="name" v="Søndre Tronsåa" />
		<tag k="ssr:stedsnr" v="418928" />
		<tag k="waterway" v="stream" />
	</node>
	<node lat="62.03158888473761" lon="10.781472217017598" id="-25231">
		<tag k="name" v="Bjørfettstøa" />
		<tag k="natural" v="beach" />
		<tag k="ssr:stedsnr" v="418638" />
	</node>
	<node lat="60.93943888528743" lon="11.516244438964907" id="-25234">
		<tag k="fixme" v="multiple name tags, choose one and add the other to alt_name" />
		<tag k="name" v="Glåma;Glomma" />
		<tag k="ssr:stedsnr" v="426301" />
		<tag k="waterway" v="river" />
	</node>
	<node lat="62.077316669155444" lon="10.258811120691918" id="-25240">
		<tag k="name" v="Bakktjønna" />
		<tag k="natural" v="water" />
		<tag k="ssr:stedsnr" v="435190" />
	</node>
	<node lat="61.99054999887963" lon="10.332824995775947" id="-25244">
		<tag k="alt_name" v="Veslesølnsjøen" />
		<tag k="name" v="Veslsølnsjøen" />
		<tag k="natural" v="water" />
		<tag k="ssr:stedsnr" v="435543" />
		<tag k="water" v="lake" />
	</node>
	<node lat="61.975675000879065" lon="10.442347228694421" id="-25245">
		<tag k="name" v="Langtjønna" />
		<tag k="natural" v="water" />
		<tag k="ssr:stedsnr" v="435493" />
	</node>
	<node lat="62.190852778453106" lon="9.509019438877035" id="-25247">
		<tag k="name" v="Folla" />
		<tag k="ssr:stedsnr" v="435746" />
		<tag k="waterway" v="river" />
	</node>
	<node lat="62.028125001335845" lon="10.227291659563656" id="-25252">
		<tag k="name" v="Stråsjøen" />
		<tag k="natural" v="water" />
		<tag k="ssr:stedsnr" v="436138" />
		<tag k="water" v="lake" />
	</node>
	<node lat="61.94225000398913" lon="10.272325006275375" id="-25259">
		<tag k="name" v="Holmsjøen" />
		<tag k="natural" v="water" />
		<tag k="ssr:stedsnr" v="495622" />
		<tag k="water" v="lake" />
	</node>
	<node lat="62.10694861059682" lon="10.345208422412037" id="-25262">
		<tag k="name" v="Haustsjøen" />
		<tag k="natural" v="water" />
		<tag k="ssr:stedsnr" v="496262" />
		<tag k="water" v="lake" />
	</node>
	<node lat="62.225100004326535" lon="10.480186107134765" id="-25271">
		<tag k="name" v="Galtbekken" />
		<tag k="ssr:stedsnr" v="496077" />
		<tag k="waterway" v="stream" />
	</node>
	<node lat="62.03798888920201" lon="10.634313882213808" id="-25278">
		<tag k="name" v="Urdskardtjønna" />
		<tag k="natural" v="water" />
		<tag k="ssr:stedsnr" v="496170" />
	</node>
	<node lat="62.042175001893035" lon="10.297808338016257" id="-25279">
		<tag k="name" v="Vesle Follandstjønna" />
		<tag k="natural" v="water" />
		<tag k="ssr:stedsnr" v="496189" />
	</node>
	<node lat="62.03562500402433" lon="10.429661109189588" id="-25280">
		<tag k="name" v="Høykuvtjønna" />
		<tag k="natural" v="water" />
		<tag k="ssr:stedsnr" v="496192" />
	</node>
	<node lat="62.02693333161694" lon="10.204333338536179" id="-25283">
		<tag k="name" v="Mjovassbekken" />
		<tag k="ssr:stedsnr" v="496445" />
		<tag k="waterway" v="stream" />
	</node>
	<node lat="62.10665833492264" lon="10.292908331544204" id="-25285">
		<tag k="name" v="Kroktjønna" />
		<tag k="natural" v="water" />
		<tag k="ssr:stedsnr" v="510941" />
	</node>
	<node lat="62.23676944503998" lon="10.484827770639097" id="-25292">
		<tag k="name" v="Hammarodden" />
		<tag k="natural" v="cape" />
		<tag k="ssr:stedsnr" v="537798" />
	</node>
	<node lat="62.24484444291037" lon="10.336775000832134" id="-25293">
		<tag k="name" v="Brendryhølen" />
=======
	<node id="-354789" lat="62.108408335" lon="10.3072305567">
		<tag k="name" v="Vesltjønna" />
		<tag k="natural" v="water" />
		<tag k="ssr:stedsnr" v="85001" />
	</node>
	<node id="-355300" lat="62.0978333331" lon="10.3711888886">
		<tag k="name" v="Nysætertjønna" />
		<tag k="natural" v="water" />
		<tag k="ssr:stedsnr" v="815837" />
	</node>
	<node id="-354726" lat="62.0282019766" lon="10.1923032019">
		<tag k="name" v="Mjovatnet" />
		<tag k="natural" v="water" />
		<tag k="old_name" v="Mjovatn" />
		<tag k="ssr:stedsnr" v="10389" />
		<tag k="water" v="lake" />
	</node>
	<node id="-355298" lat="62.1045333327" lon="10.286163892">
		<tag k="alt_name" v="Storhammerbekken" />
		<tag k="name" v="Storhåmmårbekken" />
		<tag k="ssr:stedsnr" v="800246" />
		<tag k="waterway" v="stream" />
	</node>
	<node id="-354270" lat="62.1456583321" lon="10.6829583418">
		<tag k="name" v="Søndre Tronsåa" />
		<tag k="ssr:stedsnr" v="476835" />
		<tag k="waterway" v="stream" />
	</node>
	<node id="-354269" lat="62.2076555518" lon="10.6459861125">
		<tag k="name" v="Lykkjeholmen" />
		<tag k="place" v="islet" />
		<tag k="ssr:stedsnr" v="476735" />
	</node>
	<node id="-355289" lat="62.2286083313" lon="10.4614638934">
		<tag k="name" v="Lomsjøbekken" />
		<tag k="ssr:stedsnr" v="800072" />
		<tag k="waterway" v="stream" />
	</node>
	<node id="-355288" lat="62.2269777799" lon="10.4105694367">
		<tag k="name" v="Buabekktjønna" />
		<tag k="natural" v="water" />
		<tag k="ssr:stedsnr" v="800069" />
	</node>
	<node id="-354775" lat="62.0637500004" lon="10.6289388935">
		<tag k="name" v="Valleråa" />
		<tag k="ssr:stedsnr" v="71149" />
		<tag k="waterway" v="river" />
	</node>
	<node id="-354261" lat="62.0320777753" lon="10.3801972216">
		<tag k="alt_name" v="Vesle-Sølna" />
		<tag k="name" v="Veslsølna" />
		<tag k="ssr:stedsnr" v="314177" />
		<tag k="waterway" v="river" />
	</node>
	<node id="-355284" lat="61.9336888916" lon="10.6311388847">
		<tag k="name" v="Tverråa" />
		<tag k="ssr:stedsnr" v="799462" />
		<tag k="waterway" v="stream" />
	</node>
	<node id="-354257" lat="62.1976944425" lon="10.5943388857">
		<tag k="name" v="Vesltjønnbekken" />
		<tag k="ssr:stedsnr" v="314119" />
		<tag k="waterway" v="stream" />
	</node>
	<node id="-355320" lat="62.054625004" lon="10.731388885">
		<tag k="name" v="Myrbekken" />
		<tag k="ssr:stedsnr" v="843684" />
		<tag k="waterway" v="stream" />
	</node>
	<node id="-354254" lat="62.1832777762" lon="10.3944111124">
		<tag k="name" v="Skardtjønna" />
		<tag k="natural" v="water" />
		<tag k="ssr:stedsnr" v="314019" />
	</node>
	<node id="-355277" lat="62.1101944489" lon="10.7407527705">
		<tag k="name" v="Kvebergstjønna" />
		<tag k="natural" v="water" />
		<tag k="ssr:stedsnr" v="799059" />
	</node>
	<node id="-354251" lat="62.2722444483" lon="10.3450083271">
		<tag k="name" v="Marsjøåa" />
		<tag k="ssr:stedsnr" v="254875" />
		<tag k="waterway" v="river" />
	</node>
	<node id="-354250" lat="61.9956916691" lon="10.7919944422">
		<tag k="name" v="Kjøltjønnbekken" />
		<tag k="ssr:stedsnr" v="254261" />
		<tag k="waterway" v="stream" />
	</node>
	<node id="-354249" lat="62.083761113" lon="10.3958083257">
		<tag k="name" v="Kroktjønna" />
		<tag k="natural" v="water" />
		<tag k="ssr:stedsnr" v="449901" />
	</node>
	<node id="-354247" lat="62.1070555543" lon="10.2791138814">
		<tag k="name" v="Lokan" />
		<tag k="natural" v="water" />
		<tag k="ssr:stedsnr" v="233905" />
		<tag k="water" v="lake" />
	</node>
	<node id="-355270" lat="62.182633333" lon="10.6499083334">
		<tag k="name" v="Svartbekken" />
		<tag k="ssr:stedsnr" v="782851" />
		<tag k="waterway" v="stream" />
	</node>
	<node id="-354245" lat="62.090602777" lon="10.6050472261">
		<tag k="name" v="Volbekken" />
		<tag k="ssr:stedsnr" v="297825" />
		<tag k="waterway" v="stream" />
	</node>
	<node id="-354243" lat="62.0370722239" lon="10.7497638821">
		<tag k="name" v="Oppgardsholmen" />
		<tag k="place" v="islet" />
		<tag k="ssr:stedsnr" v="297657" />
	</node>
	<node id="-355266" lat="62.0781027822" lon="10.5855027755">
		<tag k="name" v="Høgklettbekken" />
		<tag k="ssr:stedsnr" v="782228" />
		<tag k="waterway" v="stream" />
	</node>
	<node id="-354379" lat="62.0943055553" lon="10.675827781">
		<tag k="name" v="Hauståsbekken" />
		<tag k="ssr:stedsnr" v="659981" />
		<tag k="waterway" v="stream" />
	</node>
	<node id="-354752" lat="62.2252638915" lon="10.369250008">
		<tag k="name" v="Strålsjøbekken" />
		<tag k="ssr:stedsnr" v="52927" />
		<tag k="waterway" v="stream" />
	</node>
	<node id="-354238" lat="62.0908500037" lon="10.6528805633">
		<tag k="name" v="Kaninholmen" />
		<tag k="place" v="islet" />
		<tag k="ssr:stedsnr" v="296808" />
	</node>
	<node id="-354237" lat="62.0928388866" lon="10.6487027727">
		<tag k="name" v="Holmen" />
		<tag k="place" v="islet" />
		<tag k="ssr:stedsnr" v="296807" />
	</node>
	<node id="-354236" lat="62.0264055523" lon="10.791702781">
		<tag k="name" v="Kolstuguholmen" />
		<tag k="place" v="islet" />
		<tag k="ssr:stedsnr" v="296653" />
	</node>
	<node id="-354233" lat="62.0806416633" lon="10.4503972183">
		<tag k="name" v="Slettbekken" />
		<tag k="ssr:stedsnr" v="295811" />
		<tag k="waterway" v="stream" />
	</node>
	<node id="-355256" lat="61.9686027797" lon="10.8997249942">
		<tag k="name" v="Svebekken" />
		<tag k="ssr:stedsnr" v="781699" />
		<tag k="waterway" v="stream" />
	</node>
	<node id="-354741" lat="62.1899638872" lon="10.5644888897">
		<tag k="name" v="Stortjønna" />
		<tag k="natural" v="water" />
		<tag k="ssr:stedsnr" v="11079" />
	</node>
	<node id="-354740" lat="62.0368749963" lon="10.3971916675">
		<tag k="name" v="Kvislåa" />
		<tag k="ssr:stedsnr" v="11172" />
		<tag k="waterway" v="stream" />
	</node>
	<node id="-355250" lat="62.2380555566" lon="10.4476749968">
		<tag k="name" v="Slettknausbekken" />
		<tag k="ssr:stedsnr" v="780909" />
		<tag k="waterway" v="stream" />
	</node>
	<node id="-355315" lat="62.0930111155" lon="10.6107222263">
		<tag k="name" v="Kvernbekken" />
		<tag k="ssr:stedsnr" v="843845" />
		<tag k="waterway" v="stream" />
	</node>
	<node id="-354736" lat="62.0338555519" lon="10.5718999914">
		<tag k="name" v="Svartbekken" />
		<tag k="ssr:stedsnr" v="11148" />
		<tag k="waterway" v="stream" />
	</node>
	<node id="-354735" lat="62.0398750043" lon="10.513724999">
		<tag k="name" v="Rotbekken" />
		<tag k="ssr:stedsnr" v="11146" />
		<tag k="waterway" v="stream" />
	</node>
	<node id="-354733" lat="62.2125479644" lon="10.4432192979">
		<tag k="name" v="Lomsjøen" />
		<tag k="natural" v="water" />
		<tag k="ssr:stedsnr" v="11061" />
		<tag k="water" v="lake" />
	</node>
	<node id="-354219" lat="62.2440611076" lon="10.462716666">
		<tag k="name" v="Savalen" />
		<tag k="natural" v="water" />
		<tag k="ssr:stedsnr" v="193447" />
		<tag k="water" v="lake" />
	</node>
	<node id="-354218" lat="62.1351166701" lon="10.4574055519">
		<tag k="name" v="Hausta" />
		<tag k="ssr:stedsnr" v="193033" />
		<tag k="waterway" v="river" />
	</node>
	<node id="-355241" lat="62.1618777772" lon="10.5213888913">
		<tag k="name" v="Follshaugbekken" />
		<tag k="ssr:stedsnr" v="780616" />
		<tag k="waterway" v="stream" />
	</node>
	<node id="-354727" lat="61.9770388857" lon="10.1749000006">
		<tag k="alt_name" v="Skriubekken" />
		<tag k="name" v="Skridubekken" />
		<tag k="ssr:stedsnr" v="10499" />
		<tag k="waterway" v="stream" />
	</node>
	<node id="-355238" lat="61.9650916692" lon="10.7964805501">
		<tag k="name" v="Hølbekktjønna" />
		<tag k="natural" v="water" />
		<tag k="ssr:stedsnr" v="754964" />
	</node>
	<node id="-355237" lat="61.9957262224" lon="10.2068766989">
		<tag k="alt_name" v="Nordsjø" />
		<tag k="loc_name" v="Nordfjorden" />
		<tag k="name" v="Nordsjøen" />
		<tag k="natural" v="water" />
		<tag k="ssr:stedsnr" v="739534" />
	</node>
	<node id="-355236" lat="61.994838893" lon="10.3422305559">
		<tag k="name" v="Stubben" />
		<tag k="natural" v="water" />
		<tag k="ssr:stedsnr" v="739529" />
	</node>
	<node id="-354209" lat="62.1201277758" lon="10.3260472201">
		<tag k="name" v="Vissmannbekken" />
		<tag k="ssr:stedsnr" v="192218" />
		<tag k="waterway" v="stream" />
	</node>
	<node id="-354720" lat="62.2173500026" lon="10.6524388967">
		<tag k="name" v="Auma" />
		<tag k="ssr:stedsnr" v="10067" />
		<tag k="waterway" v="river" />
	</node>
	<node id="-355228" lat="62.0049638858" lon="10.5359916586">
		<tag k="name" v="Øykjeklettbekken" />
		<tag k="ssr:stedsnr" v="739204" />
		<tag k="waterway" v="stream" />
	</node>
	<node id="-355229" lat="62.1001027784" lon="10.4946861207">
		<tag k="name" v="Oklebekken" />
		<tag k="ssr:stedsnr" v="739214" />
		<tag k="waterway" v="stream" />
	</node>
	<node id="-354204" lat="61.970688893" lon="10.2290805476">
		<tag k="name" v="Sørfjorden" />
		<tag k="natural" v="water" />
		<tag k="ssr:stedsnr" v="284693" />
	</node>
	<node id="-354202" lat="62.0423694469" lon="10.5505361022">
		<tag k="name" v="Hykkeltjønna" />
		<tag k="natural" v="water" />
		<tag k="ssr:stedsnr" v="147953" />
	</node>
	<node id="-354201" lat="62.0536027815" lon="10.7690333272">
		<tag k="name" v="Vesle Trosttjønna" />
		<tag k="natural" v="water" />
		<tag k="ssr:stedsnr" v="146754" />
	</node>
	<node id="-354200" lat="62.1079805532" lon="10.3027916658">
		<tag k="name" v="Naustertjønna" />
		<tag k="natural" v="water" />
		<tag k="ssr:stedsnr" v="267931" />
	</node>
	<node id="-354199" lat="62.0489055547" lon="10.5071638948">
		<tag k="name" v="Vardfjelltjønna" />
		<tag k="natural" v="water" />
		<tag k="ssr:stedsnr" v="267886" />
	</node>
	<node id="-354713" lat="62.0760416625" lon="10.6636277841">
		<tag k="name" v="Storbekken" />
		<tag k="ssr:stedsnr" v="963874" />
		<tag k="waterway" v="stream" />
	</node>
	<node id="-354196" lat="61.9647055571" lon="10.7322694439">
		<tag k="name" v="Fjellbekken" />
		<tag k="ssr:stedsnr" v="132115" />
		<tag k="waterway" v="stream" />
	</node>
	<node id="-354195" lat="62.0723388902" lon="10.3204250011">
		<tag k="name" v="Kjemsjøbekken" />
		<tag k="ssr:stedsnr" v="132110" />
		<tag k="waterway" v="stream" />
	</node>
	<node id="-354744" lat="62.0720249981" lon="10.7899138905">
		<tag k="name" v="Blanktjønna" />
		<tag k="natural" v="water" />
		<tag k="ssr:stedsnr" v="26976" />
	</node>
	<node id="-354193" lat="61.9813805566" lon="10.7704666705">
		<tag k="name" v="Vesltjønna" />
		<tag k="natural" v="water" />
		<tag k="ssr:stedsnr" v="131318" />
	</node>
	<node id="-354704" lat="62.1211472179" lon="10.4864000085">
		<tag k="name" v="Nysætertjønna" />
		<tag k="natural" v="water" />
		<tag k="ssr:stedsnr" v="935936" />
	</node>
	<node id="-355224" lat="62.0824833339" lon="10.4962305647">
		<tag k="name" v="Vardtjønnbekken" />
		<tag k="ssr:stedsnr" v="739147" />
		<tag k="waterway" v="stream" />
	</node>
	<node id="-355209" lat="62.1000750018" lon="10.5354611117">
		<tag k="name" v="Sølna" />
		<tag k="ssr:stedsnr" v="738691" />
		<tag k="waterway" v="river" />
	</node>
	<node id="-354184" lat="62.2374222258" lon="10.5727499959">
		<tag k="name" v="Vangbekken" />
		<tag k="ssr:stedsnr" v="263340" />
		<tag k="waterway" v="stream" />
	</node>
	<node id="-354183" lat="62.1070488638" lon="10.6166373736">
		<tag k="name" v="Sauholmen" />
		<tag k="place" v="island" />
		<tag k="ssr:stedsnr" v="114843" />
	</node>
	<node id="-355205" lat="61.9601916672" lon="10.2609583279">
		<tag k="name" v="Veslmyrtjønna" />
		<tag k="natural" v="water" />
		<tag k="ssr:stedsnr" v="738586" />
	</node>
	<node id="-354180" lat="62.2309972263" lon="10.3803944529">
		<tag k="name" v="Ferdamyrbekken" />
		<tag k="ssr:stedsnr" v="113919" />
		<tag k="waterway" v="stream" />
	</node>
	<node id="-354179" lat="62.2661333334" lon="10.4500888869">
		<tag k="name" v="Sandvika" />
		<tag k="natural" v="bay" />
		<tag k="ssr:stedsnr" v="254698" />
	</node>
	<node id="-354178" lat="62.0676277807" lon="10.7813083422">
		<tag k="name" v="Fjellbekken" />
		<tag k="ssr:stedsnr" v="254023" />
		<tag k="waterway" v="stream" />
	</node>
	<node id="-354688" lat="62.1957861105" lon="10.7093638817">
		<tag k="name" v="Skrebekken" />
		<tag k="ssr:stedsnr" v="904871" />
		<tag k="waterway" v="stream" />
	</node>
	<node id="-355007" lat="62.082788893" lon="10.2956388869">
		<tag k="name" v="Kjemsjøen" />
		<tag k="natural" v="water" />
		<tag k="ssr:stedsnr" v="374166" />
		<tag k="water" v="lake" />
	</node>
	<node id="-354709" lat="62.1955972268" lon="10.4522666619">
		<tag k="name" v="Veslesteibekken" />
		<tag k="ssr:stedsnr" v="962977" />
		<tag k="waterway" v="stream" />
	</node>
	<node id="-355050" lat="62.0393694458" lon="10.5466361042">
		<tag k="name" v="Fallet" />
		<tag k="natural" v="waterfall" />
		<tag k="ssr:stedsnr" v="418889" />
	</node>
	<node id="-354169" lat="62.1275944468" lon="10.3845583392">
		<tag k="alt_name" v="Kvitvordbekken" />
		<tag k="name" v="Kvitvolbekken" />
		<tag k="ssr:stedsnr" v="253245" />
		<tag k="waterway" v="stream" />
	</node>
	<node id="-355190" lat="62.0684944457" lon="10.5202249937">
		<tag k="name" v="Finnbudalstjønna" />
		<tag k="natural" v="water" />
		<tag k="ssr:stedsnr" v="875951" />
	</node>
	<node id="-354677" lat="61.9953527756" lon="10.7192111095">
		<tag k="name" v="Skarvdalsbekken" />
		<tag k="ssr:stedsnr" v="861264" />
		<tag k="waterway" v="stream" />
	</node>
	<node id="-355188" lat="61.9816000016" lon="10.7802305538">
		<tag k="name" v="Vesle Brennvoltjønna" />
		<tag k="natural" v="water" />
		<tag k="ssr:stedsnr" v="632951" />
	</node>
	<node id="-354163" lat="62.0370111106" lon="10.3121166651">
		<tag k="name" v="Store Follandstjønna" />
		<tag k="natural" v="water" />
		<tag k="ssr:stedsnr" v="253214" />
	</node>
	<node id="-354161" lat="62.0494055599" lon="10.2294583321">
		<tag k="name" v="Fjordungsbekken" />
		<tag k="ssr:stedsnr" v="253209" />
		<tag k="waterway" v="stream" />
	</node>
	<node id="-354159" lat="62.020441666" lon="10.2305638904">
		<tag k="name" v="Håan" />
		<tag k="natural" v="water" />
		<tag k="ssr:stedsnr" v="253187" />
		<tag k="water" v="lake" />
	</node>
	<node id="-354365" lat="62.0839055592" lon="10.3886111026">
		<tag k="name" v="Vondtjønna" />
		<tag k="natural" v="water" />
		<tag k="ssr:stedsnr" v="436124" />
	</node>
	<node id="-354156" lat="62.0860138924" lon="10.3809916612">
		<tag k="name" v="Verjebekken" />
		<tag k="ssr:stedsnr" v="253169" />
		<tag k="waterway" v="stream" />
	</node>
	<node id="-354155" lat="62.0670166698" lon="10.472066675">
		<tag k="name" v="Langrøstbekken" />
		<tag k="ssr:stedsnr" v="253166" />
		<tag k="waterway" v="stream" />
	</node>
	<node id="-354666" lat="62.0158055569" lon="10.2861638814">
		<tag k="name" v="Sølnsjøbekken" />
		<tag k="ssr:stedsnr" v="860205" />
		<tag k="waterway" v="stream" />
	</node>
	<node id="-354459" lat="61.9945249973" lon="10.8627888866">
		<tag k="name" v="Urstrømfossen" />
		<tag k="natural" v="waterfall" />
		<tag k="ssr:stedsnr" v="557322" />
	</node>
	<node id="-354705" lat="62.118225001" lon="10.467055549">
		<tag k="name" v="Grønåstjønna" />
		<tag k="natural" v="water" />
		<tag k="ssr:stedsnr" v="936939" />
	</node>
	<node id="-354659" lat="61.9864999959" lon="10.2136277771">
		<tag k="alt_name" v="Breidsjøen" />
		<tag k="name" v="Breisjøen" />
		<tag k="natural" v="water" />
		<tag k="old_name" v="Breisjøane" />
		<tag k="ssr:stedsnr" v="859475" />
		<tag k="water" v="lake" />
	</node>
	<node id="-355169" lat="62.1510138894" lon="10.4139083304">
		<tag k="name" v="Storbekken" />
		<tag k="ssr:stedsnr" v="617081" />
		<tag k="waterway" v="stream" />
	</node>
	<node id="-354656" lat="62.0300333347" lon="10.6262555627">
		<tag k="name" v="Storøya" />
		<tag k="natural" v="cape" />
		<tag k="ssr:stedsnr" v="842670" />
	</node>
	<node id="-354651" lat="62.0554638856" lon="10.3677194387">
		<tag k="name" v="Måsadalsbekken" />
		<tag k="ssr:stedsnr" v="841759" />
		<tag k="waterway" v="stream" />
	</node>
	<node id="-354138" lat="62.2390000026" lon="10.3859222313">
		<tag k="name" v="Strålsjøen" />
		<tag k="natural" v="water" />
		<tag k="ssr:stedsnr" v="72406" />
		<tag k="water" v="lake" />
	</node>
	<node id="-354137" lat="62.2358250042" lon="10.4704333322">
		<tag k="name" v="Sandvika" />
		<tag k="natural" v="bay" />
		<tag k="ssr:stedsnr" v="72405" />
	</node>
	<node id="-355160" lat="62.0706833367" lon="10.7595722185">
		<tag k="name" v="Veslefjellbekken" />
		<tag k="ssr:stedsnr" v="600648" />
		<tag k="waterway" v="stream" />
	</node>
	<node id="-354788" lat="62.2806861147" lon="10.3714416671">
		<tag k="name" v="Storbekken" />
		<tag k="ssr:stedsnr" v="72882" />
		<tag k="waterway" v="stream" />
	</node>
	<node id="-355158" lat="61.9742583324" lon="10.7828861196">
		<tag k="name" v="Drøppelbekken" />
		<tag k="ssr:stedsnr" v="600624" />
		<tag k="waterway" v="stream" />
	</node>
	<node id="-355157" lat="61.9806500008" lon="10.7794083405">
		<tag k="name" v="Brennvolbekken" />
		<tag k="ssr:stedsnr" v="600623" />
		<tag k="waterway" v="stream" />
	</node>
	<node id="-354356" lat="62.1328166709" lon="10.6551444463">
		<tag k="name" v="Søndre Tronsåa" />
		<tag k="ssr:stedsnr" v="418928" />
		<tag k="waterway" v="stream" />
	</node>
	<node id="-355155" lat="62.0149916696" lon="10.8342750091">
		<tag k="name" v="Varpstensleite" />
		<tag k="ssr:stedsnr" v="599682" />
		<tag k="waterway" v="rapids" />
	</node>
	<node id="-354639" lat="62.1854055593" lon="10.5797388973">
		<tag k="name" v="Vesltjønna" />
		<tag k="natural" v="water" />
		<tag k="ssr:stedsnr" v="800040" />
	</node>
	<node id="-354126" lat="62.1048916673" lon="10.3427055588">
		<tag k="name" v="Storsundet" />
		<tag k="natural" v="strait" />
		<tag k="ssr:stedsnr" v="52894" />
	</node>
	<node id="-354125" lat="62.1050027789" lon="10.33728612">
		<tag k="name" v="Djupodden" />
		<tag k="natural" v="cape" />
		<tag k="ssr:stedsnr" v="52890" />
	</node>
	<node id="-354124" lat="62.1940944411" lon="10.4647833275">
		<tag k="name" v="Djupdalsbekken" />
		<tag k="ssr:stedsnr" v="52972" />
		<tag k="waterway" v="stream" />
	</node>
	<node id="-355146" lat="62.1941111118" lon="10.4501666632">
		<tag k="name" v="Tormodsbekken" />
		<tag k="ssr:stedsnr" v="597986" />
		<tag k="waterway" v="stream" />
	</node>
	<node id="-354633" lat="62.0017111092" lon="10.2298527785">
		<tag k="name" v="Veslsteitjønna" />
		<tag k="natural" v="water" />
		<tag k="ssr:stedsnr" v="800170" />
	</node>
	<node id="-354117" lat="62.0539444488" lon="10.7184833318">
		<tag k="name" v="Blesterevja" />
		<tag k="natural" v="bay" />
		<tag k="ssr:stedsnr" v="236628" />
	</node>
	<node id="-355140" lat="62.2058249957" lon="10.6458555474">
		<tag k="alt_name" v="Hølskrea" />
		<tag k="name" v="Holskrea" />
		<tag k="ssr:stedsnr" v="597744" />
		<tag k="waterway" v="stream" />
	</node>
	<node id="-354307" lat="62.2251000043" lon="10.4801861071">
		<tag k="name" v="Galtbekken" />
		<tag k="ssr:stedsnr" v="496077" />
		<tag k="waterway" v="stream" />
	</node>
	<node id="-355138" lat="62.1759972204" lon="10.5391083285">
		<tag k="name" v="Vangbekken" />
		<tag k="ssr:stedsnr" v="597703" />
		<tag k="waterway" v="stream" />
	</node>
	<node id="-354625" lat="62.0502500021" lon="10.7858777718">
		<tag k="alt_name" v="Gaupskardbekken, vestre;Gaupskardbekken" />
		<tag k="name" v="Vestre Gaupskardbekken" />
		<tag k="ssr:stedsnr" v="799010" />
		<tag k="waterway" v="stream" />
	</node>
	<node id="-354111" lat="62.0841138845" lon="10.6857944441">
		<tag k="name" v="Fløttan" />
		<tag k="natural" v="beach" />
		<tag k="ssr:stedsnr" v="235879" />
	</node>
	<node id="-355310" lat="62.0261361135" lon="10.7719305582">
		<tag k="name" v="Slåbekken" />
		<tag k="ssr:stedsnr" v="842683" />
		<tag k="waterway" v="stream" />
	</node>
	<node id="-354108" lat="62.0200611085" lon="10.8214027824">
		<tag k="name" v="Høyeggdammen" />
		<tag k="ssr:stedsnr" v="235712" />
		<tag k="waterway" v="dam" />
	</node>
	<node id="-354106" lat="61.9974555563" lon="10.7553972206">
		<tag k="name" v="Brennvoltjønna" />
		<tag k="natural" v="water" />
		<tag k="ssr:stedsnr" v="235703" />
	</node>
	<node id="-354615" lat="62.2060666622" lon="10.7234527842">
		<tag k="alt_name" v="Brandvollsbekken" />
		<tag k="name" v="Brannvålsbekken" />
		<tag k="ssr:stedsnr" v="921246" />
		<tag k="waterway" v="stream" />
	</node>
	<node id="-354355" lat="62.2241944406" lon="10.5278972228">
		<tag k="name" v="Kloppbekken" />
		<tag k="ssr:stedsnr" v="416812" />
		<tag k="waterway" v="stream" />
	</node>
	<node id="-355125" lat="62.1193166683" lon="10.4174611144">
		<tag k="name" v="Katt-tjønna" />
		<tag k="natural" v="water" />
		<tag k="ssr:stedsnr" v="570727" />
	</node>
	<node id="-355124" lat="62.1076111128" lon="10.3113388807">
		<tag k="name" v="Stortjønna" />
		<tag k="natural" v="water" />
		<tag k="ssr:stedsnr" v="570894" />
	</node>
	<node id="-354782" lat="61.970297225" lon="10.649263894">
		<tag k="name" v="Smalhøtjønnan" />
		<tag k="natural" v="water" />
		<tag k="ssr:stedsnr" v="71479" />
		<tag k="water" v="lake" />
	</node>
	<node id="-355123" lat="62.134136114" lon="10.40273056">
		<tag k="alt_name" v="Grønvordbekken" />
		<tag k="name" v="Grønvolbekken" />
		<tag k="ssr:stedsnr" v="557030" />
		<tag k="waterway" v="stream" />
	</node>
	<node id="-354608" lat="62.0389083354" lon="10.4744750026">
		<tag k="name" v="Dølbekken" />
		<tag k="ssr:stedsnr" v="921193" />
		<tag k="waterway" v="stream" />
	</node>
	<node id="-354094" lat="62.258225004" lon="10.3372777817">
		<tag k="name" v="Fosshue" />
		<tag k="place" v="locality" />
		<tag k="ssr:stedsnr" v="234091" />
	</node>
	<node id="-354781" lat="61.9800249975" lon="10.7042250041">
		<tag k="name" v="Fjellbekken" />
		<tag k="ssr:stedsnr" v="71475" />
		<tag k="waterway" v="stream" />
	</node>
	<node id="-354090" lat="62.108350004" lon="10.3473166667">
		<tag k="name" v="Lortvikodden" />
		<tag k="natural" v="cape" />
		<tag k="ssr:stedsnr" v="233895" />
	</node>
	<node id="-354695" lat="61.9886305525" lon="10.5905333244">
		<tag k="alt_name" v="Mælbekken" />
		<tag k="name" v="Melbekken" />
		<tag k="ssr:stedsnr" v="920433" />
		<tag k="waterway" v="stream" />
	</node>
	<node id="-355207" lat="61.9312499972" lon="10.2762416714">
		<tag k="name" v="Breidvika" />
		<tag k="natural" v="bay" />
		<tag k="ssr:stedsnr" v="738610" />
	</node>
	<node id="-354085" lat="61.9835360049" lon="10.2165869259">
		<tag k="alt_name" v="Midtsjø" />
		<tag k="loc_name" v="Midtfjorden" />
		<tag k="name" v="Midtsjøen" />
		<tag k="natural" v="water" />
		<tag k="ssr:stedsnr" v="11525" />
	</node>
	<node id="-355127" lat="62.2608833348" lon="10.398688897">
		<tag k="name" v="Botnlaustjønna" />
		<tag k="natural" v="water" />
		<tag k="ssr:stedsnr" v="572959" />
	</node>
	<node id="-354076" lat="61.9277277769" lon="10.6158499967">
		<tag k="name" v="Kuvbekken" />
		<tag k="ssr:stedsnr" v="10438" />
		<tag k="waterway" v="stream" />
	</node>
	<node id="-354587" lat="62.2479055533" lon="10.4267416758">
		<tag k="name" v="Gardvika" />
		<tag k="natural" v="bay" />
		<tag k="ssr:stedsnr" v="739418" />
	</node>
	<node id="-355098" lat="61.9260500045" lon="10.2817777761">
		<tag k="name" v="Lortvika" />
		<tag k="natural" v="bay" />
		<tag k="ssr:stedsnr" v="555576" />
	</node>
	<node id="-355097" lat="61.9524194249" lon="10.2638678486">
		<tag k="name" v="Angrefttjønnan" />
		<tag k="natural" v="water" />
		<tag k="ssr:stedsnr" v="555561" />
		<tag k="water" v="lake" />
	</node>
	<node id="-355095" lat="62.1306805544" lon="10.6363638874">
		<tag k="name" v="Tronsåa" />
		<tag k="ssr:stedsnr" v="539930" />
		<tag k="waterway" v="stream" />
	</node>
	<node id="-354582" lat="61.9751083368" lon="10.8330611035">
		<tag k="name" v="Skardbekken" />
		<tag k="ssr:stedsnr" v="904639" />
		<tag k="waterway" v="stream" />
	</node>
	<node id="-354581" lat="61.9989638865" lon="10.7762194351">
		<tag k="name" v="Brennrøstbekken" />
		<tag k="ssr:stedsnr" v="904634" />
		<tag k="waterway" v="stream" />
	</node>
	<node id="-354580" lat="62.0328194482" lon="10.6459805472">
		<tag k="name" v="Urdskardbekken" />
		<tag k="ssr:stedsnr" v="903642" />
		<tag k="waterway" v="stream" />
	</node>
	<node id="-355091" lat="62.0952000012" lon="10.5284722302">
		<tag k="name" v="Kjølldalsbekken" />
		<tag k="ssr:stedsnr" v="539189" />
		<tag k="waterway" v="stream" />
	</node>
	<node id="-354578" lat="62.0144944476" lon="10.5961166576">
		<tag k="name" v="Svartbekkloken" />
		<tag k="natural" v="water" />
		<tag k="ssr:stedsnr" v="903632" />
	</node>
	<node id="-355203" lat="61.9844333299" lon="10.783841658">
		<tag k="name" v="Store Brennvoltjønna" />
		<tag k="natural" v="water" />
		<tag k="ssr:stedsnr" v="738347" />
	</node>
	<node id="-355117" lat="62.1269944433" lon="10.3030666615">
		<tag k="name" v="Vissmanntjønna" />
		<tag k="natural" v="water" />
		<tag k="ssr:stedsnr" v="556239" />
	</node>
	<node id="-355084" lat="62.2448444429" lon="10.3367750008">
		<tag k="name" v="Brendryhølen" />
		<tag k="place" v="locality" />
		<tag k="ssr:stedsnr" v="538094" />
	</node>
	<node id="-354690" lat="62.1213916643" lon="10.597819451">
		<tag k="name" v="Gulløyholmen" />
		<tag k="place" v="island" />
		<tag k="ssr:stedsnr" v="904962" />
	</node>
	<node id="-355082" lat="62.236769445" lon="10.4848277706">
		<tag k="name" v="Hammarodden" />
		<tag k="natural" v="cape" />
		<tag k="ssr:stedsnr" v="537798" />
	</node>
	<node id="-354569" lat="62.1326833322" lon="10.4690999984">
		<tag k="name" v="Svartåsbekken" />
		<tag k="ssr:stedsnr" v="901983" />
		<tag k="waterway" v="stream" />
	</node>
	<node id="-354568" lat="62.196433334" lon="10.4225611156">
		<tag k="name" v="Follibekken" />
		<tag k="ssr:stedsnr" v="901975" />
		<tag k="waterway" v="stream" />
	</node>
	<node id="-354566" lat="62.2137305528" lon="10.6492583422">
		<tag k="name" v="Aumøra" />
		<tag k="natural" v="beach" />
		<tag k="ssr:stedsnr" v="901749" />
	</node>
	<node id="-354565" lat="62.190711107" lon="10.512688883">
		<tag k="name" v="Kløftbekken" />
		<tag k="ssr:stedsnr" v="901798" />
		<tag k="waterway" v="stream" />
	</node>
	<node id="-354563" lat="62.2492972218" lon="10.4253472263">
		<tag k="name" v="Gardvikodden" />
		<tag k="natural" v="cape" />
		<tag k="ssr:stedsnr" v="901632" />
	</node>
	<node id="-354347" lat="62.0781888918" lon="10.5648944518">
		<tag k="name" v="Storbekktjønna" />
		<tag k="natural" v="water" />
		<tag k="ssr:stedsnr" v="375124" />
	</node>
	<node id="-355066" lat="61.9905499989" lon="10.3328249958">
		<tag k="alt_name" v="Veslesølnsjøen" />
		<tag k="name" v="Veslsølnsjøen" />
		<tag k="natural" v="water" />
		<tag k="ssr:stedsnr" v="435543" />
		<tag k="water" v="lake" />
	</node>
	<node id="-355063" lat="61.9756750009" lon="10.4423472287">
		<tag k="name" v="Langtjønna" />
		<tag k="natural" v="water" />
		<tag k="ssr:stedsnr" v="435493" />
	</node>
	<node id="-355061" lat="62.0773166692" lon="10.2588111207">
		<tag k="name" v="Bakktjønna" />
		<tag k="natural" v="water" />
		<tag k="ssr:stedsnr" v="435190" />
	</node>
	<node id="-355060" lat="62.0730305522" lon="10.521111103">
		<tag k="name" v="Finnbudalsbekken" />
		<tag k="ssr:stedsnr" v="435168" />
		<tag k="waterway" v="stream" />
	</node>
	<node id="-354546" lat="62.2022638914" lon="10.5285944495">
		<tag k="name" v="Fossåsbekken" />
		<tag k="ssr:stedsnr" v="719758" />
		<tag k="waterway" v="stream" />
	</node>
	<node id="-354544" lat="62.2586638933" lon="10.3675500075">
		<tag k="alt_name" v="Hølbekken" />
		<tag k="name" v="Holbekken" />
		<tag k="ssr:stedsnr" v="679014" />
		<tag k="waterway" v="stream" />
	</node>
	<node id="-354543" lat="61.9929611104" lon="10.2316499957">
		<tag k="alt_name" v="Klettsjøen, s" />
		<tag k="name" v="Søndre Klettsjøen" />
		<tag k="natural" v="water" />
		<tag k="ssr:stedsnr" v="678527" />
	</node>
	<node id="-355051" lat="60.9394388853" lon="11.516244439">
		<tag k="fixme" v="multiple name tags, choose one and add the other to alt_name" />
		<tag k="name" v="Glomma;Glåma" />
		<tag k="ssr:stedsnr" v="426301" />
		<tag k="waterway" v="river" />
	</node>
	<node id="-354538" lat="61.9789666697" lon="10.8214000021">
		<tag k="name" v="Storbekken" />
		<tag k="ssr:stedsnr" v="678355" />
		<tag k="waterway" v="stream" />
	</node>
	<node id="-355047" lat="62.0471083319" lon="10.5913944458">
		<tag k="name" v="Blårybekken" />
		<tag k="ssr:stedsnr" v="418886" />
		<tag k="waterway" v="stream" />
	</node>
	<node id="-355044" lat="62.0315888847" lon="10.781472217">
		<tag k="name" v="Bjørfettstøa" />
		<tag k="natural" v="beach" />
		<tag k="ssr:stedsnr" v="418638" />
	</node>
	<node id="-355037" lat="62.1058819563" lon="10.6241858635">
		<tag k="name" v="Øya" />
		<tag k="place" v="island" />
		<tag k="ssr:stedsnr" v="417868" />
	</node>
	<node id="-354524" lat="62.1705805547" lon="10.5551027793">
		<tag k="name" v="Brekkbekken" />
		<tag k="ssr:stedsnr" v="678013" />
		<tag k="waterway" v="stream" />
	</node>
	<node id="-354255" lat="62.1846888927" lon="10.344533333">
		<tag k="alt_name" v="Veslesteibekken" />
		<tag k="name" v="Veslsteibekken" />
		<tag k="ssr:stedsnr" v="314022" />
		<tag k="waterway" v="stream" />
	</node>
	<node id="-354520" lat="61.9336444445" lon="10.2903249982">
		<tag k="name" v="Grisviktjønna" />
		<tag k="natural" v="water" />
		<tag k="ssr:stedsnr" v="677618" />
	</node>
	<node id="-355031" lat="62.1049388893" lon="10.3336083423">
		<tag k="name" v="Lomvika" />
		<tag k="natural" v="bay" />
		<tag k="ssr:stedsnr" v="416878" />
	</node>
	<node id="-355030" lat="62.095361115" lon="10.2567694448">
		<tag k="name" v="Skarvdalsbekken" />
		<tag k="ssr:stedsnr" v="416876" />
		<tag k="waterway" v="stream" />
	</node>
	<node id="-354681" lat="62.2429888885" lon="10.4559999991">
		<tag k="name" v="Slettknausodden" />
		<tag k="natural" v="cape" />
		<tag k="ssr:stedsnr" v="902956" />
	</node>
	<node id="-354516" lat="61.9429527812" lon="10.5882694509">
		<tag k="name" v="Storhøbekken" />
		<tag k="ssr:stedsnr" v="677415" />
		<tag k="waterway" v="stream" />
	</node>
	<node id="-354514" lat="62.0118916703" lon="10.8389027707">
		<tag k="name" v="Varpstensvika" />
		<tag k="natural" v="bay" />
		<tag k="ssr:stedsnr" v="660680" />
	</node>
	<node id="-355024" lat="62.1053916675" lon="10.3220944531">
		<tag k="name" v="Fisklaustjønna" />
		<tag k="natural" v="water" />
		<tag k="ssr:stedsnr" v="390961" />
	</node>
	<node id="-354765" lat="61.9587305557" lon="10.2531527721">
		<tag k="name" v="Lona" />
		<tag k="place" v="locality" />
		<tag k="ssr:stedsnr" v="70592" />
	</node>
	<node id="-354507" lat="62.1897305592" lon="10.3870055553">
		<tag k="name" v="Persbekken" />
		<tag k="ssr:stedsnr" v="658932" />
		<tag k="waterway" v="stream" />
	</node>
	<node id="-354505" lat="62.1054222245" lon="10.345611108">
		<tag k="name" v="Veslesundet" />
		<tag k="natural" v="strait" />
		<tag k="ssr:stedsnr" v="658877" />
	</node>
	<node id="-355014" lat="61.9962361146" lon="10.3673999943">
		<tag k="name" v="Fjordungsbekken" />
		<tag k="ssr:stedsnr" v="374430" />
		<tag k="waterway" v="stream" />
	</node>
	<node id="-354498" lat="62.0612555518" lon="10.1950611102">
		<tag k="name" v="Fjordungstjønnan" />
		<tag k="natural" v="water" />
		<tag k="ssr:stedsnr" v="617426" />
		<tag k="water" v="lake" />
	</node>
	<node id="-354496" lat="62.0733833301" lon="10.4955527778">
		<tag k="name" v="Vardtjønna" />
		<tag k="natural" v="water" />
		<tag k="ssr:stedsnr" v="617163" />
	</node>
	<node id="-354495" lat="62.2007666703" lon="10.706825002">
		<tag k="name" v="Vesletronfloen" />
		<tag k="natural" v="water" />
		<tag k="ssr:stedsnr" v="721865" />
	</node>
	<node id="-354488" lat="61.9964527774" lon="10.6460638934">
		<tag k="name" v="Gråhøgdbekken" />
		<tag k="ssr:stedsnr" v="616402" />
		<tag k="waterway" v="stream" />
	</node>
	<node id="-355017" lat="61.9938555594" lon="10.6908916711">
		<tag k="name" v="Skarvbekken" />
		<tag k="ssr:stedsnr" v="374449" />
		<tag k="waterway" v="stream" />
	</node>
	<node id="-355187" lat="62.0467777771" lon="10.7592555535">
		<tag k="name" v="Trosttjønnbekken" />
		<tag k="ssr:stedsnr" v="631885" />
		<tag k="waterway" v="stream" />
	</node>
	<node id="-354992" lat="62.0896388894" lon="10.6533638959">
		<tag k="name" v="Langsanden" />
		<tag k="place" v="islet" />
		<tag k="ssr:stedsnr" v="357798" />
	</node>
	<node id="-354629" lat="61.9945444458" lon="10.4952250065">
		<tag k="name" v="Auma" />
		<tag k="ssr:stedsnr" v="799419" />
		<tag k="waterway" v="river" />
	</node>
	<node id="-354606" lat="62.0570694465" lon="10.6252527721">
		<tag k="name" v="Valleråtjønna" />
		<tag k="natural" v="water" />
		<tag k="ssr:stedsnr" v="921182" />
	</node>
	<node id="-354588" lat="62.0890638913" lon="10.6358888844">
		<tag k="name" v="Langtjønna" />
		<tag k="natural" v="water" />
		<tag k="ssr:stedsnr" v="753936" />
	</node>
	<node id="-355185" lat="62.1834749957" lon="10.4285083354">
		<tag k="alt_name" v="Gråbekken" />
		<tag k="name" v="Gråmobekken" />
		<tag k="ssr:stedsnr" v="626472" />
		<tag k="waterway" v="stream" />
	</node>
	<node id="-354075" lat="62.1310250029" lon="10.6632750049">
		<tag k="name" v="Storbekken" />
		<tag k="ssr:stedsnr" v="10204" />
		<tag k="waterway" v="stream" />
	</node>
	<node id="-354463" lat="62.0742944467" lon="10.7062944463">
		<tag k="name" v="Gjeltan" />
		<tag k="natural" v="beach" />
		<tag k="ssr:stedsnr" v="600835" />
	</node>
	<node id="-354367" lat="62.0281250013" lon="10.2272916596">
		<tag k="name" v="Stråsjøen" />
		<tag k="natural" v="water" />
		<tag k="ssr:stedsnr" v="436138" />
		<tag k="water" v="lake" />
	</node>
	<node id="-354460" lat="62.1996083316" lon="10.5750777772">
		<tag k="name" v="Stortjønnbekken" />
		<tag k="ssr:stedsnr" v="566316" />
		<tag k="waterway" v="stream" />
	</node>
	<node id="-354586" lat="62.0062972214" lon="10.2052555481">
		<tag k="name" v="Rundhåen" />
		<tag k="natural" v="water" />
		<tag k="ssr:stedsnr" v="739408" />
	</node>
	<node id="-354970" lat="62.1869416624" lon="10.4596583261">
		<tag k="name" v="Dølplassbekken" />
		<tag k="ssr:stedsnr" v="355968" />
		<tag k="waterway" v="stream" />
	</node>
	<node id="-354435" lat="62.0364250006" lon="10.4174972187">
		<tag k="name" v="Holbekken" />
		<tag k="ssr:stedsnr" v="688453" />
		<tag k="waterway" v="stream" />
	</node>
	<node id="-354963" lat="62.2123749962" lon="10.6999416596">
		<tag k="name" v="Masingbekken" />
		<tag k="ssr:stedsnr" v="355732" />
		<tag k="waterway" v="stream" />
	</node>
	<node id="-354450" lat="62.1004666703" lon="10.3566416596">
		<tag k="name" v="Fisklaustjønna" />
		<tag k="natural" v="water" />
		<tag k="ssr:stedsnr" v="556252" />
	</node>
	<node id="-354957" lat="62.1649083344" lon="10.3309611196">
		<tag k="name" v="Veslebekken" />
		<tag k="ssr:stedsnr" v="355064" />
		<tag k="waterway" v="stream" />
	</node>
	<node id="-354605" lat="62.0504083341" lon="10.5988750081">
		<tag k="name" v="Blårytjønnan" />
		<tag k="natural" v="water" />
		<tag k="ssr:stedsnr" v="921180" />
		<tag k="water" v="lake" />
	</node>
	<node id="-354441" lat="62.0855916704" lon="10.67153333">
		<tag k="name" v="Nesset" />
		<tag k="natural" v="cape" />
		<tag k="ssr:stedsnr" v="539840" />
	</node>
	<node id="-354952" lat="62.0088750003" lon="10.7855722167">
		<tag k="name" v="Voltjønna" />
		<tag k="natural" v="water" />
		<tag k="old_name" v="Søndre Kjøltjønna" />
		<tag k="ssr:stedsnr" v="314493" />
	</node>
	<node id="-354997" lat="62.1768250044" lon="10.6429916612">
		<tag k="name" v="Kvernbekken" />
		<tag k="ssr:stedsnr" v="374023" />
		<tag k="waterway" v="stream" />
	</node>
	<node id="-354437" lat="62.0820805567" lon="10.4099861113">
		<tag k="name" v="Verjebekkmælen" />
		<tag k="natural" v="beach" />
		<tag k="ssr:stedsnr" v="538776" />
	</node>
	<node id="-354673" lat="61.9945720136" lon="10.2027517126">
		<tag k="name" v="Blekutjønn" />
		<tag k="natural" v="water" />
		<tag k="ssr:stedsnr" v="860566" />
	</node>
	<node id="-354947" lat="62.0100472242" lon="10.7002527855">
		<tag k="name" v="Kjølbekken" />
		<tag k="ssr:stedsnr" v="314182" />
		<tag k="waterway" v="stream" />
	</node>
	<node id="-354433" lat="62.1066583349" lon="10.2929083315">
		<tag k="name" v="Kroktjønna" />
		<tag k="natural" v="water" />
		<tag k="ssr:stedsnr" v="510941" />
	</node>
	<node id="-354432" lat="62.1795222234" lon="10.5081916703">
		<tag k="alt_name" v="Bersvendbekken" />
		<tag k="name" v="Bersvennbekken" />
		<tag k="ssr:stedsnr" v="505307" />
		<tag k="waterway" v="stream" />
	</node>
	<node id="-354691" lat="62.1191805554" lon="10.626013887">
		<tag k="name" v="Husanøra" />
		<tag k="place" v="islet" />
		<tag k="ssr:stedsnr" v="904965" />
	</node>
	<node id="-354429" lat="62.1069486106" lon="10.3452084224">
		<tag k="name" v="Haustsjøen" />
		<tag k="natural" v="water" />
		<tag k="ssr:stedsnr" v="496262" />
		<tag k="water" v="lake" />
	</node>
	<node id="-354938" lat="62.0717611086" lon="10.4367749938">
		<tag k="name" v="Brennrøstbekken" />
		<tag k="ssr:stedsnr" v="314139" />
		<tag k="waterway" v="stream" />
	</node>
	<node id="-354937" lat="62.0718305535" lon="10.6507333291">
		<tag k="alt_name" v="Hølbekken" />
		<tag k="name" v="Holbekken" />
		<tag k="ssr:stedsnr" v="314137" />
		<tag k="waterway" v="stream" />
	</node>
	<node id="-354425" lat="61.9971666652" lon="10.3103611066">
		<tag k="name" v="Klettjønna" />
		<tag k="natural" v="water" />
		<tag k="ssr:stedsnr" v="678528" />
	</node>
	<node id="-354750" lat="62.2133388878" lon="10.6116083333">
		<tag k="name" v="Sagbekken" />
		<tag k="ssr:stedsnr" v="52701" />
		<tag k="waterway" v="stream" />
	</node>
	<node id="-354418" lat="62.2197416637" lon="10.3905249966">
		<tag k="name" v="Buabekken" />
		<tag k="ssr:stedsnr" v="678083" />
		<tag k="waterway" v="stream" />
	</node>
	<node id="-354579" lat="62.0392972232" lon="10.5966249917">
		<tag k="name" v="Sjulhusøya" />
		<tag k="natural" v="cape" />
		<tag k="ssr:stedsnr" v="903635" />
	</node>
	<node id="-354927" lat="61.9460057393" lon="10.6493590114">
		<tag k="name" v="Søndre Tegningstjønnan" />
		<tag k="natural" v="water" />
		<tag k="ssr:stedsnr" v="313429" />
		<tag k="water" v="lake" />
	</node>
	<node id="-354796" lat="62.2599472187" lon="10.4421833305">
		<tag k="name" v="Skjæret" />
		<tag k="place" v="islet" />
		<tag k="ssr:stedsnr" v="112626" />
	</node>
	<node id="-354925" lat="62.0430388858" lon="10.8106805611">
		<tag k="name" v="Bellingtjønna" />
		<tag k="natural" v="water" />
		<tag k="ssr:stedsnr" v="208982" />
	</node>
	<node id="-354924" lat="61.9977416695" lon="10.783277787">
		<tag k="name" v="Vesle Kjøltjønna" />
		<tag k="natural" v="water" />
		<tag k="ssr:stedsnr" v="207930" />
	</node>
	<node id="-354921" lat="62.1118861126" lon="10.4044499985">
		<tag k="name" v="Katt-tjønna" />
		<tag k="natural" v="water" />
		<tag k="ssr:stedsnr" v="206741" />
	</node>
	<node id="-354748" lat="62.1589611089" lon="10.5410333282">
		<tag k="name" v="Sognan" />
>>>>>>> e1d4bc35ff8a6074a6f2e91616a996b547c36f15
		<tag k="place" v="locality" />
		<tag k="ssr:stedsnr" v="52646" />
	</node>
<<<<<<< HEAD
	<node lat="62.08559167035661" lon="10.671533330029161" id="-25300">
		<tag k="name" v="Nesset" />
		<tag k="natural" v="cape" />
		<tag k="ssr:stedsnr" v="539840" />
	</node>
	<node lat="62.095200001171136" lon="10.528472230246084" id="-25303">
		<tag k="name" v="Kjølldalsbekken" />
		<tag k="ssr:stedsnr" v="539189" />
		<tag k="waterway" v="stream" />
	</node>
	<node lat="62.130680554380284" lon="10.63636388744286" id="-25305">
		<tag k="name" v="Tronsåa" />
		<tag k="ssr:stedsnr" v="539930" />
		<tag k="waterway" v="stream" />
	</node>
	<node lat="61.95241942488399" lon="10.263867848638643" id="-25313">
		<tag k="name" v="Angrefttjønnan" />
		<tag k="natural" v="water" />
		<tag k="ssr:stedsnr" v="555561" />
		<tag k="water" v="lake" />
	</node>
	<node lat="61.92605000449852" lon="10.281777776134284" id="-25314">
		<tag k="name" v="Lortvika" />
		<tag k="natural" v="bay" />
		<tag k="ssr:stedsnr" v="555576" />
	</node>
	<node lat="62.10046667031726" lon="10.356641659635903" id="-25325">
		<tag k="name" v="Fisklaustjønna" />
		<tag k="natural" v="water" />
		<tag k="ssr:stedsnr" v="556252" />
	</node>
	<node lat="62.19860555734028" lon="10.732944435965619" id="-25331">
		<tag k="alt_name" v="Brannvålstjørnan" />
		<tag k="name" v="Brandvollstjønna" />
		<tag k="natural" v="water" />
		<tag k="ssr:stedsnr" v="556295" />
	</node>
	<node lat="62.13413611395139" lon="10.40273056000824" id="-25340">
		<tag k="alt_name" v="Grønvordbekken" />
		<tag k="name" v="Grønvolbekken" />
		<tag k="ssr:stedsnr" v="557030" />
		<tag k="waterway" v="stream" />
	</node>
	<node lat="62.107611112754796" lon="10.311338880704374" id="-25341">
		<tag k="name" v="Stortjønna" />
		<tag k="natural" v="water" />
		<tag k="ssr:stedsnr" v="570894" />
	</node>
	<node lat="62.205824995654986" lon="10.645855547386999" id="-25347">
		<tag k="alt_name" v="Hølskrea" />
		<tag k="name" v="Holskrea" />
		<tag k="ssr:stedsnr" v="597744" />
		<tag k="waterway" v="stream" />
	</node>
	<node lat="62.19411111182691" lon="10.450166663192713" id="-25351">
		<tag k="name" v="Tormodsbekken" />
		<tag k="ssr:stedsnr" v="597986" />
		<tag k="waterway" v="stream" />
	</node>
	<node lat="62.01499166963201" lon="10.834275009127447" id="-25359">
		<tag k="name" v="Varpstensleite" />
		<tag k="ssr:stedsnr" v="599682" />
		<tag k="waterway" v="rapids" />
	</node>
	<node lat="62.07429444668468" lon="10.706294446267087" id="-25362">
		<tag k="name" v="Gjeltan" />
		<tag k="natural" v="beach" />
		<tag k="ssr:stedsnr" v="600835" />
	</node>
	<node lat="62.15101388944236" lon="10.413908330386295" id="-25368">
		<tag k="name" v="Storbekken" />
		<tag k="ssr:stedsnr" v="617081" />
		<tag k="waterway" v="stream" />
	</node>
	<node lat="62.07338333006733" lon="10.495552777815664" id="-25370">
		<tag k="name" v="Vardtjønna" />
		<tag k="natural" v="water" />
		<tag k="ssr:stedsnr" v="617163" />
	</node>
	<node lat="62.06125555183701" lon="10.195061110169767" id="-25374">
		<tag k="name" v="Fjordungstjønnan" />
		<tag k="natural" v="water" />
		<tag k="ssr:stedsnr" v="617426" />
		<tag k="water" v="lake" />
	</node>
	<node lat="62.183474995681955" lon="10.428508335409784" id="-25382">
		<tag k="alt_name" v="Gråbekken" />
		<tag k="name" v="Gråmobekken" />
		<tag k="ssr:stedsnr" v="626472" />
		<tag k="waterway" v="stream" />
	</node>
	<node lat="62.04677777713953" lon="10.75925555351302" id="-25384">
		<tag k="name" v="Trosttjønnbekken" />
		<tag k="ssr:stedsnr" v="631885" />
		<tag k="waterway" v="stream" />
	</node>
	<node lat="61.981600001649035" lon="10.780230553823133" id="-25385">
		<tag k="name" v="Vesle Brennvoltjønna" />
		<tag k="natural" v="water" />
		<tag k="ssr:stedsnr" v="632951" />
	</node>
	<node lat="62.1646499988291" lon="10.666988882018716" id="-25387">
		<tag k="alt_name" v="Tronsåa nordre" />
		<tag k="name" v="Nordre Tronsåa" />
		<tag k="ssr:stedsnr" v="658813" />
		<tag k="waterway" v="stream" />
	</node>
	<node lat="62.10542222450935" lon="10.345611107989429" id="-25393">
		<tag k="name" v="Veslesundet" />
		<tag k="natural" v="strait" />
		<tag k="ssr:stedsnr" v="658877" />
	</node>
	<node lat="62.15150162347954" lon="10.465420877285036" id="-25395">
		<tag k="name" v="Hammermånbekken" />
		<tag k="ssr:stedsnr" v="658973" />
		<tag k="waterway" v="stream" />
	</node>
	<node lat="62.07363333635143" lon="10.592372215957123" id="-25400">
		<tag k="name" v="Volbekken" />
		<tag k="ssr:stedsnr" v="660249" />
		<tag k="waterway" v="stream" />
	</node>
	<node lat="62.20226389139039" lon="10.528594449516037" id="-25410">
		<tag k="name" v="Fossåsbekken" />
		<tag k="ssr:stedsnr" v="719758" />
		<tag k="waterway" v="stream" />
	</node>
	<node lat="62.20076667032821" lon="10.706825002003779" id="-25430">
		<tag k="name" v="Vesletronfloen" />
		<tag k="natural" v="water" />
		<tag k="ssr:stedsnr" v="721865" />
	</node>
	<node lat="61.9601916672385" lon="10.260958327936343" id="-25436">
		<tag k="name" v="Veslmyrtjønna" />
		<tag k="natural" v="water" />
		<tag k="ssr:stedsnr" v="738586" />
	</node>
	<node lat="61.98443332993579" lon="10.783841658013369" id="-25443">
		<tag k="name" v="Store Brennvoltjønna" />
		<tag k="natural" v="water" />
		<tag k="ssr:stedsnr" v="738347" />
	</node>
	<node lat="62.10007500178004" lon="10.535461111687896" id="-25445">
		<tag k="name" v="Sølna" />
		<tag k="ssr:stedsnr" v="738691" />
		<tag k="waterway" v="river" />
	</node>
	<node lat="62.12687777482767" lon="10.330247225517095" id="-25448">
		<tag k="name" v="Skarvdalsbekken" />
		<tag k="ssr:stedsnr" v="739057" />
		<tag k="waterway" v="stream" />
	</node>
	<node lat="62.247905553329886" lon="10.426741675803077" id="-25458">
		<tag k="name" v="Gardvika" />
		<tag k="natural" v="bay" />
		<tag k="ssr:stedsnr" v="739418" />
	</node>
	<node lat="61.994838893029026" lon="10.342230555896412" id="-25459">
		<tag k="name" v="Stubben" />
		<tag k="natural" v="water" />
		<tag k="ssr:stedsnr" v="739529" />
	</node>
	<node lat="61.99572622239953" lon="10.206876698939949" id="-25460">
		<tag k="alt_name" v="Nordsjø" />
		<tag k="loc_name" v="Nordfjorden" />
		<tag k="name" v="Nordsjøen" />
		<tag k="natural" v="water" />
		<tag k="ssr:stedsnr" v="739534" />
	</node>
	<node lat="62.08906389132048" lon="10.635888884393182" id="-25461">
		<tag k="name" v="Langtjønna" />
		<tag k="natural" v="water" />
		<tag k="ssr:stedsnr" v="753936" />
	</node>
	<node lat="61.96860277965034" lon="10.89972499416458" id="-25470">
		<tag k="name" v="Svebekken" />
		<tag k="ssr:stedsnr" v="781699" />
		<tag k="waterway" v="stream" />
	</node>
	<node lat="62.07810278217115" lon="10.585502775543793" id="-25474">
		<tag k="name" v="Høgklettbekken" />
		<tag k="ssr:stedsnr" v="782228" />
		<tag k="waterway" v="stream" />
	</node>
	<node lat="62.11019444885169" lon="10.740752770473145" id="-25488">
		<tag k="name" v="Kvebergstjønna" />
		<tag k="natural" v="water" />
		<tag k="ssr:stedsnr" v="799059" />
	</node>
	<node lat="62.18540555925326" lon="10.579738897282143" id="-25490">
		<tag k="name" v="Vesltjønna" />
		<tag k="natural" v="water" />
		<tag k="ssr:stedsnr" v="800040" />
	</node>
	<node lat="62.226977779906846" lon="10.410569436724574" id="-25493">
		<tag k="name" v="Buabekktjønna" />
		<tag k="natural" v="water" />
		<tag k="ssr:stedsnr" v="800069" />
	</node>
	<node lat="62.228608331259515" lon="10.461463893406796" id="-25494">
		<tag k="name" v="Lomsjøbekken" />
		<tag k="ssr:stedsnr" v="800072" />
		<tag k="waterway" v="stream" />
	</node>
	<node lat="61.93368889155561" lon="10.631138884679036" id="-25496">
		<tag k="name" v="Tverråa" />
		<tag k="ssr:stedsnr" v="799462" />
		<tag k="waterway" v="stream" />
	</node>
	<node lat="62.050197218977445" lon="10.75795832674571" id="-25498">
		<tag k="alt_name" v="Trosttjønna" />
		<tag k="name" v="Trosttjønnan" />
		<tag k="natural" v="water" />
		<tag k="ssr:stedsnr" v="800018" />
		<tag k="water" v="lake" />
	</node>
	<node lat="62.0017111091752" lon="10.229852778526821" id="-25502">
		<tag k="name" v="Veslsteitjønna" />
		<tag k="natural" v="water" />
		<tag k="ssr:stedsnr" v="800170" />
	</node>
	<node lat="62.104533332652935" lon="10.286163892018614" id="-25510">
		<tag k="alt_name" v="Storhammerbekken" />
		<tag k="name" v="Storhåmmårbekken" />
		<tag k="ssr:stedsnr" v="800246" />
		<tag k="waterway" v="stream" />
	</node>
	<node lat="62.09783333314305" lon="10.371188888621614" id="-25514">
		<tag k="name" v="Nysætertjønna" />
		<tag k="natural" v="water" />
		<tag k="ssr:stedsnr" v="815837" />
	</node>
	<node lat="62.20852500193484" lon="10.646444450875608" id="-25516">
		<tag k="name" v="Storøra" />
		<tag k="place" v="islet" />
		<tag k="ssr:stedsnr" v="841702" />
	</node>
	<node lat="62.10641944679415" lon="10.324299999015201" id="-25517">
		<tag k="name" v="Langbekken" />
		<tag k="ssr:stedsnr" v="841900" />
		<tag k="waterway" v="stream" />
	</node>
	<node lat="62.055463885552676" lon="10.367719438734106" id="-25520">
		<tag k="name" v="Måsadalsbekken" />
		<tag k="ssr:stedsnr" v="841759" />
		<tag k="waterway" v="stream" />
	</node>
	<node lat="62.030033334724" lon="10.626255562661616" id="-25526">
		<tag k="name" v="Storøya" />
		<tag k="natural" v="cape" />
		<tag k="ssr:stedsnr" v="842670" />
	</node>
	<node lat="62.21450277942668" lon="10.49788055601522" id="-25527">
		<tag k="name" v="Nausterdalsbekken" />
		<tag k="ssr:stedsnr" v="842767" />
		<tag k="waterway" v="stream" />
	</node>
	<node lat="62.0660277812177" lon="10.751588893445145" id="-25528">
		<tag k="name" v="Vesleskardbekken" />
		<tag k="ssr:stedsnr" v="843693" />
		<tag k="waterway" v="stream" />
	</node>
	<node lat="62.00469166830961" lon="10.670350001548499" id="-25532">
		<tag k="name" v="Gråhøgdbekken" />
		<tag k="ssr:stedsnr" v="843672" />
		<tag k="waterway" v="stream" />
	</node>
	<node lat="62.09301111550097" lon="10.61072222631444" id="-25533">
		<tag k="name" v="Kvernbekken" />
		<tag k="ssr:stedsnr" v="843845" />
		<tag k="waterway" v="stream" />
	</node>
	<node lat="61.92890000347134" lon="10.239172216092536" id="-25537">
		<tag k="name" v="Skjellåa" />
		<tag k="ssr:stedsnr" v="859599" />
		<tag k="waterway" v="stream" />
	</node>
	<node lat="62.10910832898602" lon="10.651575002260538" id="-25547">
		<tag k="name" v="Kvernbekken" />
		<tag k="ssr:stedsnr" v="860290" />
		<tag k="waterway" v="stream" />
	</node>
	<node lat="61.99535277564705" lon="10.719211109457058" id="-25549">
		<tag k="name" v="Skarvdalsbekken" />
		<tag k="ssr:stedsnr" v="861264" />
		<tag k="waterway" v="stream" />
	</node>
	<node lat="62.089583335810886" lon="10.552124991518513" id="-25550">
		<tag k="name" v="Storbekken" />
		<tag k="ssr:stedsnr" v="860719" />
		<tag k="waterway" v="stream" />
	</node>
	<node lat="62.22221389041567" lon="10.432497213316633" id="-25551">
		<tag k="name" v="Vesltjønna" />
		<tag k="natural" v="water" />
		<tag k="ssr:stedsnr" v="861082" />
	</node>
	<node lat="62.00035833411385" lon="10.697586108242664" id="-25552">
		<tag k="alt_name" v="Skarbekken" />
		<tag k="name" v="Skardbekken" />
		<tag k="ssr:stedsnr" v="861188" />
		<tag k="waterway" v="stream" />
	</node>
	<node lat="62.068494445669835" lon="10.520224993721897" id="-25560">
		<tag k="name" v="Finnbudalstjønna" />
		<tag k="natural" v="water" />
		<tag k="ssr:stedsnr" v="875951" />
	</node>
	<node lat="62.118225001014885" lon="10.467055549037035" id="-25561">
		<tag k="name" v="Grønåstjønna" />
		<tag k="natural" v="water" />
		<tag k="ssr:stedsnr" v="936939" />
	</node>
	<node lat="62.19559722676101" lon="10.452266661944842" id="-25569">
		<tag k="name" v="Veslesteibekken" />
		<tag k="ssr:stedsnr" v="962977" />
		<tag k="waterway" v="stream" />
	</node>
	<node lat="62.076041662473514" lon="10.66362778410066" id="-25570">
		<tag k="name" v="Storbekken" />
		<tag k="ssr:stedsnr" v="963874" />
		<tag k="waterway" v="stream" />
	</node>
=======
	<node id="-355089" lat="62.1591472218" lon="10.6171194412">
		<tag k="name" v="Raurøstbekken" />
		<tag k="ssr:stedsnr" v="538907" />
		<tag k="waterway" v="stream" />
	</node>
	<node id="-354403" lat="62.0792666674" lon="10.427619449">
		<tag k="name" v="Storskardbekken" />
		<tag k="ssr:stedsnr" v="477823" />
		<tag k="waterway" v="stream" />
	</node>
	<node id="-354911" lat="62.1036388903" lon="10.465466667">
		<tag k="name" v="Radskiftbekken" />
		<tag k="ssr:stedsnr" v="193215" />
		<tag k="waterway" v="stream" />
	</node>
	<node id="-354910" lat="62.0869305535" lon="10.7505333401">
		<tag k="name" v="Limåsbekken" />
		<tag k="ssr:stedsnr" v="193095" />
		<tag k="waterway" v="stream" />
	</node>
	<node id="-354397" lat="62.1621833373" lon="10.7133694428">
		<tag k="name" v="Grøtåa" />
		<tag k="ssr:stedsnr" v="476829" />
		<tag k="waterway" v="stream" />
	</node>
	<node id="-354908" lat="62.2234138898" lon="10.5383138812">
		<tag k="name" v="Sivilla" />
		<tag k="ssr:stedsnr" v="193084" />
		<tag k="waterway" v="river" />
	</node>
	<node id="-354905" lat="62.154413889" lon="10.4335111183">
		<tag k="alt_name" v="Veslbekken" />
		<tag k="name" v="Veslebekken" />
		<tag k="ssr:stedsnr" v="193058" />
		<tag k="waterway" v="stream" />
	</node>
	<node id="-354902" lat="61.9690555539" lon="10.4435694494">
		<tag k="name" v="Kvislåtjønna" />
		<tag k="natural" v="water" />
		<tag k="ssr:stedsnr" v="192488" />
	</node>
	<node id="-354901" lat="61.9595805574" lon="10.3625388974">
		<tag k="name" v="Sølnsjødalstjønna" />
		<tag k="natural" v="water" />
		<tag k="ssr:stedsnr" v="192486" />
	</node>
	<node id="-354900" lat="61.9172444471" lon="10.2886250084">
		<tag k="name" v="Skjellåfloene" />
		<tag k="natural" v="water" />
		<tag k="ssr:stedsnr" v="192595" />
	</node>
	<node id="-354897" lat="61.9172000024" lon="10.5865027761">
		<tag k="name" v="Hattjønna" />
		<tag k="natural" v="water" />
		<tag k="ssr:stedsnr" v="192471" />
	</node>
	<node id="-354895" lat="61.9908305592" lon="10.5670027752">
		<tag k="name" v="Meltjønnan" />
		<tag k="natural" v="water" />
		<tag k="ssr:stedsnr" v="192448" />
		<tag k="water" v="lake" />
	</node>
	<node id="-354573" lat="62.2177666636" lon="10.5267083316">
		<tag k="name" v="Langgardsbekken" />
		<tag k="ssr:stedsnr" v="902799" />
		<tag k="waterway" v="stream" />
	</node>
	<node id="-354637" lat="62.050197219" lon="10.7579583267">
		<tag k="alt_name" v="Trosttjønna" />
		<tag k="name" v="Trosttjønnan" />
		<tag k="natural" v="water" />
		<tag k="ssr:stedsnr" v="800018" />
		<tag k="water" v="lake" />
	</node>
	<node id="-354375" lat="62.1646499988" lon="10.666988882">
		<tag k="alt_name" v="Tronsåa nordre" />
		<tag k="name" v="Nordre Tronsåa" />
		<tag k="ssr:stedsnr" v="658813" />
		<tag k="waterway" v="stream" />
	</node>
	<node id="-354657" lat="62.2145027794" lon="10.497880556">
		<tag k="name" v="Nausterdalsbekken" />
		<tag k="ssr:stedsnr" v="842767" />
		<tag k="waterway" v="stream" />
	</node>
	<node id="-354372" lat="62.1515016235" lon="10.4654208773">
		<tag k="name" v="Hammermånbekken" />
		<tag k="ssr:stedsnr" v="658973" />
		<tag k="waterway" v="stream" />
	</node>
	<node id="-354369" lat="61.9840305555" lon="10.7583388879">
		<tag k="name" v="Stortjønna" />
		<tag k="natural" v="water" />
		<tag k="ssr:stedsnr" v="436306" />
	</node>
	<node id="-354879" lat="61.9704055596" lon="10.8934638975">
		<tag k="name" v="Sveøra" />
		<tag k="natural" v="beach" />
		<tag k="ssr:stedsnr" v="175687" />
	</node>
	<node id="-354877" lat="62.036813887" lon="10.7441472137">
		<tag k="name" v="Svartholmen" />
		<tag k="place" v="islet" />
		<tag k="ssr:stedsnr" v="175677" />
	</node>
	<node id="-354364" lat="62.1908527785" lon="9.50901943888">
		<tag k="name" v="Folla" />
		<tag k="ssr:stedsnr" v="435746" />
		<tag k="waterway" v="river" />
	</node>
	<node id="-354363" lat="62.0931111128" lon="10.706661113">
		<tag k="name" v="Kvebergsbekken" />
		<tag k="old_name" v="Kvernbekken" />
		<tag k="ssr:stedsnr" v="435703" />
		<tag k="waterway" v="stream" />
	</node>
	<node id="-354873" lat="62.1147070219" lon="10.556423098">
		<tag k="name" v="Sølnadammen" />
		<tag k="ssr:stedsnr" v="175217" />
		<tag k="waterway" v="dam" />
	</node>
	<node id="-354872" lat="62.0940305599" lon="10.6849388958">
		<tag k="name" v="Lerdiket" />
		<tag k="ssr:stedsnr" v="174977" />
		<tag k="waterway" v="dam" />
	</node>
	<node id="-355381" lat="62.2016472247" lon="10.7285916669">
		<tag k="name" v="Vesle Brandvollstjønna" />
		<tag k="natural" v="water" />
		<tag k="ssr:stedsnr" v="476895" />
	</node>
	<node id="-355380" lat="62.1986055573" lon="10.732944436">
		<tag k="alt_name" v="Brannvålstjørnan" />
		<tag k="name" v="Brandvollstjønna" />
		<tag k="natural" v="water" />
		<tag k="ssr:stedsnr" v="556295" />
	</node>
	<node id="-354867" lat="62.171788885" lon="10.4901333247">
		<tag k="name" v="Bratthaugbekken" />
		<tag k="ssr:stedsnr" v="174713" />
		<tag k="waterway" v="stream" />
	</node>
	<node id="-354354" lat="62.0835305535" lon="10.3962694462">
		<tag k="name" v="Kroktjønna" />
		<tag k="natural" v="water" />
		<tag k="ssr:stedsnr" v="416731" />
	</node>
	<node id="-354348" lat="62.0064972183" lon="10.6145499956">
		<tag k="name" v="Kløfttjønnan" />
		<tag k="natural" v="water" />
		<tag k="ssr:stedsnr" v="375173" />
		<tag k="water" v="lake" />
	</node>
	<node id="-354859" lat="62.2323111078" lon="10.5197861032">
		<tag k="name" v="Sivilosen" />
		<tag k="natural" v="bay" />
		<tag k="ssr:stedsnr" v="173798" />
	</node>
	<node id="-354121" lat="62.1494583315" lon="10.5543055627">
		<tag k="name" v="Veslengholmen" />
		<tag k="place" v="islet" />
		<tag k="ssr:stedsnr" v="52655" />
	</node>
	<node id="-354849" lat="62.2566416643" lon="10.4501222153">
		<tag k="name" v="Hemmeltangen" />
		<tag k="natural" v="cape" />
		<tag k="ssr:stedsnr" v="173462" />
	</node>
	<node id="-355360" lat="62.0698861068" lon="10.6178666641">
		<tag k="name" v="Volbekken" />
		<tag k="ssr:stedsnr" v="964601" />
		<tag k="waterway" v="stream" />
	</node>
	<node id="-354333" lat="62.0269333316" lon="10.2043333385">
		<tag k="name" v="Mjovassbekken" />
		<tag k="ssr:stedsnr" v="496445" />
		<tag k="waterway" v="stream" />
	</node>
	<node id="-355215" lat="62.1268777748" lon="10.3302472255">
		<tag k="name" v="Skarvdalsbekken" />
		<tag k="ssr:stedsnr" v="739057" />
		<tag k="waterway" v="stream" />
	</node>
	<node id="-354840" lat="62.2283527799" lon="10.4874055498">
		<tag k="name" v="Lauvbekken" />
		<tag k="ssr:stedsnr" v="132067" />
		<tag k="waterway" v="stream" />
	</node>
	<node id="-355348" lat="62.0003583341" lon="10.6975861082">
		<tag k="alt_name" v="Skarbekken" />
		<tag k="name" v="Skardbekken" />
		<tag k="ssr:stedsnr" v="861188" />
		<tag k="waterway" v="stream" />
	</node>
	<node id="-354323" lat="62.035625004" lon="10.4296611092">
		<tag k="name" v="Høykuvtjønna" />
		<tag k="natural" v="water" />
		<tag k="ssr:stedsnr" v="496192" />
	</node>
	<node id="-354322" lat="62.0421750019" lon="10.297808338">
		<tag k="name" v="Vesle Follandstjønna" />
		<tag k="natural" v="water" />
		<tag k="ssr:stedsnr" v="496189" />
	</node>
	<node id="-354321" lat="62.0379888892" lon="10.6343138822">
		<tag k="name" v="Urdskardtjønna" />
		<tag k="natural" v="water" />
		<tag k="ssr:stedsnr" v="496170" />
	</node>
	<node id="-354618" lat="62.2479944412" lon="10.2098611149">
		<tag k="name" v="Einunna" />
		<tag k="ssr:stedsnr" v="921327" />
		<tag k="waterway" v="river" />
	</node>
	<node id="-355343" lat="62.2222138904" lon="10.4324972133">
		<tag k="name" v="Vesltjønna" />
		<tag k="natural" v="water" />
		<tag k="ssr:stedsnr" v="861082" />
	</node>
	<node id="-355342" lat="62.0895833358" lon="10.5521249915">
		<tag k="name" v="Storbekken" />
		<tag k="ssr:stedsnr" v="860719" />
		<tag k="waterway" v="stream" />
	</node>
	<node id="-355341" lat="62.109108329" lon="10.6515750023">
		<tag k="name" v="Kvernbekken" />
		<tag k="ssr:stedsnr" v="860290" />
		<tag k="waterway" v="stream" />
	</node>
	<node id="-354306" lat="61.942250004" lon="10.2723250063">
		<tag k="name" v="Holmsjøen" />
		<tag k="natural" v="water" />
		<tag k="ssr:stedsnr" v="495622" />
		<tag k="water" v="lake" />
	</node>
	<node id="-354825" lat="61.9635361068" lon="10.2439666699">
		<tag k="name" v="Stubben" />
		<tag k="natural" v="water" />
		<tag k="ssr:stedsnr" v="131600" />
	</node>
	<node id="-354822" lat="61.9753888867" lon="10.257616673">
		<tag k="name" v="Storbekken" />
		<tag k="ssr:stedsnr" v="131495" />
		<tag k="waterway" v="stream" />
	</node>
	<node id="-354821" lat="62.0404472247" lon="10.8439250033">
		<tag k="name" v="Bellingtjønna" />
		<tag k="natural" v="water" />
		<tag k="ssr:stedsnr" v="131055" />
	</node>
	<node id="-354820" lat="61.9792361118" lon="10.8952361034">
		<tag k="name" v="Barkaldfossen" />
		<tag k="natural" v="waterfall" />
		<tag k="ssr:stedsnr" v="131321" />
	</node>
	<node id="-354134" lat="62.0940638905" lon="10.7288361047">
		<tag k="name" v="Høyåsbekken" />
		<tag k="ssr:stedsnr" v="71116" />
		<tag k="waterway" v="stream" />
	</node>
	<node id="-354622" lat="62.0035611099" lon="10.7725055597">
		<tag k="name" v="Store Kjøltjønna" />
		<tag k="natural" v="water" />
		<tag k="ssr:stedsnr" v="921472" />
	</node>
	<node id="-355329" lat="61.9289000035" lon="10.2391722161">
		<tag k="name" v="Skjellåa" />
		<tag k="ssr:stedsnr" v="859599" />
		<tag k="waterway" v="stream" />
	</node>
>>>>>>> e1d4bc35ff8a6074a6f2e91616a996b547c36f15
</osm>
