<?xml version="1.0" encoding="UTF-8"?>
<<<<<<< HEAD
<osm version="0.6" generator="osmapis">
	<node lat="62.04263333652167" lon="10.752383329777377" id="-24275">
		<tag k="fixme" v="consider natural=peak for the most distinct mountains in the district" />
		<tag k="name" v="Øykletten" />
		<tag k="natural" v="hill" />
		<tag k="place" v="locality" />
		<tag k="ssr:stedsnr" v="10008" />
	</node>
	<node lat="61.96444166756314" lon="10.390719452062012" id="-24281">
		<tag k="fixme" v="consider natural=peak for the most distinct mountains in the district" />
		<tag k="name" v="Sølnsjøskrabbane" />
		<tag k="natural" v="hill" />
		<tag k="old_name" v="Sølensjøskrabbane" />
		<tag k="place" v="locality" />
		<tag k="ssr:stedsnr" v="10444" />
	</node>
	<node lat="61.97595000146063" lon="10.515930553100633" id="-24282">
		<tag k="fixme" v="consider natural=peak for the most distinct mountains in the district" />
		<tag k="name" v="Rundsteinhøa" />
		<tag k="natural" v="hill" />
		<tag k="place" v="locality" />
		<tag k="ssr:stedsnr" v="10447" />
	</node>
	<node lat="62.0895861104491" lon="10.533547214991728" id="-24289">
		<tag k="alt_name" v="Brennbakkmoene" />
		<tag k="name" v="Brennbakkmoen" />
		<tag k="place" v="locality" />
		<tag k="ssr:stedsnr" v="20304" />
	</node>
	<node lat="62.151244442508876" lon="10.66613055383975" id="-24291">
		<tag k="name" v="Kløftet" />
		<tag k="natural" v="valley" />
		<tag k="place" v="locality" />
		<tag k="ssr:stedsnr" v="233859" />
	</node>
	<node lat="62.14343333143901" lon="10.333941674677352" id="-24293">
		<tag k="name" v="Skarvdalen" />
		<tag k="natural" v="valley" />
		<tag k="place" v="locality" />
		<tag k="ssr:stedsnr" v="234063" />
	</node>
	<node lat="62.09686389306294" lon="10.420499990978618" id="-24295">
		<tag k="name" v="Tjønnåssteinlia" />
		<tag k="natural" v="slope" />
		<tag k="place" v="locality" />
		<tag k="ssr:stedsnr" v="25870" />
	</node>
	<node lat="62.0136777773296" lon="10.6436222212725" id="-24304">
		<tag k="name" v="Styggdalen" />
		<tag k="natural" v="valley" />
		<tag k="place" v="locality" />
		<tag k="ssr:stedsnr" v="236610" />
	</node>
	<node lat="62.13320833654528" lon="10.46173333916474" id="-24309">
		<tag k="name" v="Haustmoen" />
		<tag k="place" v="locality" />
		<tag k="ssr:stedsnr" v="52977" />
	</node>
	<node lat="62.07698888699454" lon="10.681383338409" id="-24314">
		<tag k="name" v="Stamoen" />
		<tag k="place" v="locality" />
		<tag k="ssr:stedsnr" v="53870" />
	</node>
	<node lat="62.0836333328553" lon="10.69174721413371" id="-24316">
		<tag k="name" v="Synsegga" />
		<tag k="natural" v="hill" />
		<tag k="place" v="locality" />
		<tag k="ssr:stedsnr" v="53876" />
	</node>
	<node lat="62.03284722182717" lon="10.492719439535728" id="-24318">
		<tag k="name" v="Skrean" />
		<tag k="natural" v="slope" />
		<tag k="place" v="locality" />
		<tag k="ssr:stedsnr" v="54902" />
	</node>
	<node lat="62.05018888456474" lon="10.387436114519158" id="-24323">
		<tag k="alt_name" v="Stenmoen" />
		<tag k="name" v="Steinmoen" />
		<tag k="place" v="locality" />
		<tag k="ssr:stedsnr" v="71213" />
	</node>
	<node lat="62.00275833000817" lon="10.682688894758735" id="-24326">
		<tag k="name" v="Gråhaugen" />
		<tag k="natural" v="hill" />
		<tag k="place" v="locality" />
		<tag k="ssr:stedsnr" v="71193" />
	</node>
	<node lat="62.14517500228089" lon="10.399922215039014" id="-24329">
		<tag k="name" v="Grønvoltangen" />
		<tag k="natural" v="hill" />
		<tag k="place" v="locality" />
		<tag k="ssr:stedsnr" v="112975" />
	</node>
	<node lat="62.12807777344857" lon="10.352247216759457" id="-24330">
		<tag k="name" v="Bjørnhaugen" />
		<tag k="natural" v="hill" />
		<tag k="place" v="locality" />
		<tag k="ssr:stedsnr" v="112979" />
	</node>
	<node lat="62.12846110699275" lon="10.667094446481585" id="-24336">
		<tag k="name" v="Storbekkhalla" />
		<tag k="natural" v="slope" />
		<tag k="place" v="locality" />
		<tag k="ssr:stedsnr" v="113991" />
	</node>
	<node lat="61.99438055986439" lon="10.614775009286458" id="-24339">
		<tag k="name" v="Melbekkdalen" />
		<tag k="natural" v="valley" />
		<tag k="place" v="locality" />
		<tag k="ssr:stedsnr" v="252379" />
	</node>
	<node lat="61.98232499789162" lon="10.373591658714066" id="-24341">
		<tag k="name" v="Fjordungskvolvet" />
		<tag k="natural" v="valley" />
		<tag k="place" v="locality" />
		<tag k="ssr:stedsnr" v="252426" />
	</node>
	<node lat="61.97171388501491" lon="10.263988886489615" id="-24342">
		<tag k="fixme" v="consider natural=peak for the most distinct mountains in the district" />
		<tag k="name" v="Slågån" />
		<tag k="natural" v="hill" />
		<tag k="place" v="locality" />
		<tag k="ssr:stedsnr" v="252560" />
	</node>
	<node lat="61.959788887472556" lon="10.159436103462891" id="-24343">
		<tag k="alt_name" v="Skjellåkinn" />
		<tag k="fixme" v="consider natural=peak for the most distinct mountains in the district" />
		<tag k="name" v="Skjellåkinna" />
		<tag k="natural" v="hill" />
		<tag k="place" v="locality" />
		<tag k="ssr:stedsnr" v="252568" />
	</node>
	<node lat="61.97161111274446" lon="10.212872215131302" id="-24349">
		<tag k="name" v="Sølndalen" />
		<tag k="natural" v="valley" />
		<tag k="place" v="locality" />
		<tag k="ssr:stedsnr" v="131597" />
	</node>
	<node lat="62.17964721974099" lon="10.365172214444739" id="-24352">
		<tag k="name" v="Svartkletten" />
		<tag k="natural" v="hill" />
		<tag k="place" v="locality" />
		<tag k="ssr:stedsnr" v="132016" />
	</node>
	<node lat="62.08079999927655" lon="10.745986101790837" id="-24353">
		<tag k="name" v="Hammardalen" />
		<tag k="natural" v="valley" />
		<tag k="place" v="locality" />
		<tag k="ssr:stedsnr" v="132023" />
	</node>
	<node lat="62.020413886689184" lon="10.75907499271622" id="-24362">
		<tag k="alt_name" v="Urlia" />
		<tag k="name" v="Urdlia" />
		<tag k="natural" v="slope" />
		<tag k="place" v="locality" />
		<tag k="ssr:stedsnr" v="253038" />
	</node>
	<node lat="62.14947500118588" lon="10.710175008222969" id="-24365">
		<tag k="name" v="Sørkletten" />
		<tag k="natural" v="hill" />
		<tag k="place" v="locality" />
		<tag k="ssr:stedsnr" v="253048" />
	</node>
	<node lat="62.15507500052333" lon="10.537436103442543" id="-24366">
		<tag k="alt_name" v="Nesset" />
		<tag k="name" v="Neset" />
		<tag k="place" v="locality" />
		<tag k="ssr:stedsnr" v="253050" />
	</node>
	<node lat="62.07592500268482" lon="10.605802768642729" id="-24370">
		<tag k="alt_name" v="Vorda" />
		<tag k="name" v="Gråvola" />
		<tag k="natural" v="hill" />
		<tag k="place" v="locality" />
		<tag k="ssr:stedsnr" v="253181" />
	</node>
	<node lat="62.1911388933065" lon="10.720966673079404" id="-24372">
		<tag k="alt_name" v="Vesletronden" />
		<tag k="name" v="Vesletron" />
		<tag k="natural" v="hill" />
		<tag k="place" v="locality" />
		<tag k="ssr:stedsnr" v="253265" />
	</node>
	<node lat="62.10002500211104" lon="10.258883339939628" id="-24374">
		<tag k="name" v="Skarvdalen" />
		<tag k="natural" v="valley" />
		<tag k="place" v="locality" />
		<tag k="ssr:stedsnr" v="253269" />
	</node>
	<node lat="62.107572217830715" lon="10.479572219492509" id="-24379">
		<tag k="name" v="Gammelsæterlia" />
		<tag k="natural" v="slope" />
		<tag k="place" v="locality" />
		<tag k="ssr:stedsnr" v="253276" />
	</node>
	<node lat="61.95784166471672" lon="10.898983326753742" id="-24380">
		<tag k="fixme" v="consider natural=peak for the most distinct mountains in the district" />
		<tag k="name" v="Brennåsen" />
		<tag k="natural" v="hill" />
		<tag k="place" v="locality" />
		<tag k="ssr:stedsnr" v="253390" />
	</node>
	<node lat="61.995075000976854" lon="10.300030553118843" id="-24381">
		<tag k="alt_name" v="Veslesølndalen" />
		<tag k="name" v="Veslsølndalen" />
		<tag k="natural" v="valley" />
		<tag k="place" v="locality" />
		<tag k="ssr:stedsnr" v="253550" />
	</node>
	<node lat="61.975827780725844" lon="10.393069443891775" id="-24385">
		<tag k="fixme" v="consider natural=peak for the most distinct mountains in the district" />
		<tag k="name" v="Sølnsjøhøa" />
		<tag k="natural" v="hill" />
		<tag k="place" v="locality" />
		<tag k="ssr:stedsnr" v="143899" />
	</node>
	<node lat="61.967241670001954" lon="10.4349500085756" id="-24386">
		<tag k="fixme" v="consider natural=peak for the most distinct mountains in the district" />
		<tag k="name" v="Kvislåtjønnhøgda" />
		<tag k="natural" v="hill" />
		<tag k="place" v="locality" />
		<tag k="ssr:stedsnr" v="143900" />
	</node>
	<node lat="62.19226110926664" lon="10.589424996243572" id="-24387">
		<tag k="name" v="Vesltjønndalen" />
		<tag k="natural" v="valley" />
		<tag k="place" v="locality" />
		<tag k="ssr:stedsnr" v="145004" />
	</node>
	<node lat="62.07891666588057" lon="10.399113884566002" id="-24392">
		<tag k="name" v="Sølnsætermoen" />
		<tag k="place" v="locality" />
		<tag k="ssr:stedsnr" v="173759" />
	</node>
	<node lat="62.223430556531994" lon="10.509791664464865" id="-24394">
		<tag k="name" v="Nausterdalen" />
		<tag k="natural" v="valley" />
		<tag k="place" v="locality" />
		<tag k="ssr:stedsnr" v="173809" />
	</node>
	<node lat="62.11625833034652" lon="10.515136111908262" id="-24395">
		<tag k="name" v="Skarddalen" />
		<tag k="natural" v="valley" />
		<tag k="place" v="locality" />
		<tag k="ssr:stedsnr" v="174705" />
	</node>
	<node lat="62.04225277520884" lon="10.586433339151569" id="-24401">
		<tag k="name" v="Aumdalen" />
		<tag k="natural" v="valley" />
		<tag k="place" v="locality" />
		<tag k="ssr:stedsnr" v="207235" />
	</node>
	<node lat="62.08089721819286" lon="10.338719453249256" id="-24406">
		<tag k="name" v="Skrabban" />
		<tag k="place" v="locality" />
		<tag k="ssr:stedsnr" v="233912" />
	</node>
	<node lat="62.19146111227284" lon="10.394205548941041" id="-24407">
		<tag k="name" v="Bumoen" />
		<tag k="place" v="locality" />
		<tag k="ssr:stedsnr" v="233955" />
	</node>
	<node lat="62.15486111536111" lon="10.556155557945452" id="-24410">
		<tag k="name" v="Folløymoan" />
		<tag k="place" v="locality" />
		<tag k="ssr:stedsnr" v="234689" />
	</node>
	<node lat="62.101505557860236" lon="10.37834444375225" id="-24412">
		<tag k="name" v="Lauvhauglia" />
		<tag k="natural" v="slope" />
		<tag k="place" v="locality" />
		<tag k="ssr:stedsnr" v="234782" />
	</node>
	<node lat="62.08595833477304" lon="10.417947224348545" id="-24413">
		<tag k="name" v="Stenbakken" />
		<tag k="natural" v="slope" />
		<tag k="place" v="locality" />
		<tag k="ssr:stedsnr" v="234798" />
	</node>
	<node lat="62.19741944385771" lon="10.720102781091843" id="-24414">
		<tag k="name" v="Vesletronlia" />
		<tag k="natural" v="slope" />
		<tag k="place" v="locality" />
		<tag k="ssr:stedsnr" v="234907" />
	</node>
	<node lat="62.16177499741796" lon="10.401533338143725" id="-24426">
		<tag k="alt_name" v="Gjotvorda" />
		<tag k="fixme" v="consider natural=peak for the most distinct mountains in the district" />
		<tag k="name" v="Gjotvola" />
		<tag k="natural" v="hill" />
		<tag k="place" v="locality" />
		<tag k="ssr:stedsnr" v="253004" />
	</node>
	<node lat="62.042850000850116" lon="10.349622230270269" id="-24431">
		<tag k="name" v="Måsådalen" />
		<tag k="natural" v="valley" />
		<tag k="place" v="locality" />
		<tag k="ssr:stedsnr" v="253213" />
	</node>
	<node lat="62.04681389276821" lon="10.52775832871766" id="-24433">
		<tag k="fixme" v="consider natural=peak for the most distinct mountains in the district" />
		<tag k="name" v="Illmyrkletten" />
		<tag k="natural" v="hill" />
		<tag k="place" v="locality" />
		<tag k="ssr:stedsnr" v="253222" />
	</node>
	<node lat="62.12577500412275" lon="10.686422226275276" id="-24436">
		<tag k="fixme" v="consider natural=peak for the most distinct mountains in the district" />
		<tag k="name" v="Heimåsen" />
		<tag k="natural" v="hill" />
		<tag k="place" v="locality" />
		<tag k="ssr:stedsnr" v="253232" />
	</node>
	<node lat="62.17231666807976" lon="10.591586110311216" id="-24442">
		<tag k="name" v="Svartberget" />
		<tag k="natural" v="hill" />
		<tag k="place" v="locality" />
		<tag k="ssr:stedsnr" v="294702" />
	</node>
	<node lat="62.129786114565704" lon="10.450741659436506" id="-24445">
		<tag k="name" v="Jotlia" />
		<tag k="natural" v="slope" />
		<tag k="place" v="locality" />
		<tag k="ssr:stedsnr" v="294983" />
	</node>
	<node lat="62.11396944115457" lon="10.619227771930104" id="-24449">
		<tag k="name" v="Grimshaugen" />
		<tag k="natural" v="hill" />
		<tag k="place" v="locality" />
		<tag k="ssr:stedsnr" v="296820" />
	</node>
	<node lat="62.05271389094612" lon="10.441927781361043" id="-24458">
		<tag k="name" v="Storskardet" />
		<tag k="natural" v="valley" />
		<tag k="place" v="locality" />
		<tag k="ssr:stedsnr" v="314202" />
	</node>
	<node lat="62.12815000430157" lon="9.954827775948555" id="-24461">
		<tag k="name" v="Folldalen" />
		<tag k="natural" v="valley" />
		<tag k="place" v="locality" />
		<tag k="ssr:stedsnr" v="314108" />
	</node>
	<node lat="62.02666111346946" lon="10.461541665144606" id="-24468">
		<tag k="alt_name" v="Dølbekkhøa, vesle" />
		<tag k="name" v="Vesle Dølbekkhøa" />
		<tag k="natural" v="hill" />
		<tag k="place" v="locality" />
		<tag k="ssr:stedsnr" v="314178" />
	</node>
	<node lat="62.06473055240429" lon="10.216650003357142" id="-24470">
		<tag k="fixme" v="consider natural=peak for the most distinct mountains in the district" />
		<tag k="name" v="Småklettan" />
		<tag k="natural" v="hill" />
		<tag k="place" v="locality" />
		<tag k="ssr:stedsnr" v="314419" />
	</node>
	<node lat="62.03480833429912" lon="10.803491674100483" id="-24482">
		<tag k="name" v="Såttåen" />
		<tag k="natural" v="slope" />
		<tag k="place" v="locality" />
		<tag k="ssr:stedsnr" v="357656" />
	</node>
	<node lat="62.06119166574603" lon="10.74131667482489" id="-24483">
		<tag k="name" v="Bråttåvørlet" />
		<tag k="natural" v="slope" />
		<tag k="place" v="locality" />
		<tag k="ssr:stedsnr" v="357665" />
	</node>
	<node lat="62.05915277563626" lon="10.75733888078062" id="-24484">
		<tag k="name" v="Stortorvet" />
		<tag k="place" v="locality" />
		<tag k="ssr:stedsnr" v="357666" />
	</node>
	<node lat="62.216016669261826" lon="10.684408324661398" id="-24488">
		<tag k="name" v="Randegga" />
		<tag k="natural" v="hill" />
		<tag k="place" v="locality" />
		<tag k="ssr:stedsnr" v="476766" />
	</node>
	<node lat="62.133163886563274" lon="10.32249443667975" id="-24493">
		<tag k="name" v="Skarvdalslia" />
		<tag k="natural" v="slope" />
		<tag k="place" v="locality" />
		<tag k="ssr:stedsnr" v="476886" />
	</node>
	<node lat="62.12028611133831" lon="10.390452775227619" id="-24496">
		<tag k="name" v="Tørrhaugen" />
		<tag k="natural" v="hill" />
		<tag k="place" v="locality" />
		<tag k="ssr:stedsnr" v="476995" />
	</node>
	<node lat="62.074458336906666" lon="10.583413897179927" id="-24501">
		<tag k="name" v="Volbekkdalen" />
		<tag k="natural" v="valley" />
		<tag k="place" v="locality" />
		<tag k="ssr:stedsnr" v="478245" />
	</node>
	<node lat="62.01405833531958" lon="10.7915194444985" id="-24502">
		<tag k="name" v="Kvitranden" />
		<tag k="natural" v="ridge" />
		<tag k="place" v="locality" />
		<tag k="ssr:stedsnr" v="478685" />
	</node>
	<node lat="62.09003333746046" lon="10.549291675136814" id="-24503">
		<tag k="name" v="Dyan" />
		<tag k="place" v="locality" />
		<tag k="ssr:stedsnr" v="478691" />
	</node>
	<node lat="62.06154444696964" lon="10.768163879682739" id="-24506">
		<tag k="name" v="Innerenglia" />
		<tag k="natural" v="slope" />
		<tag k="place" v="locality" />
		<tag k="ssr:stedsnr" v="479670" />
	</node>
	<node lat="62.02104722007017" lon="10.632700003438286" id="-24507">
		<tag k="name" v="Bjønnranden" />
		<tag k="natural" v="hill" />
		<tag k="place" v="locality" />
		<tag k="ssr:stedsnr" v="479641" />
	</node>
	<node lat="61.950902776623394" lon="10.233486107377216" id="-24508">
		<tag k="alt_name" v="Langrandin" />
		<tag k="name" v="Langranden" />
		<tag k="natural" v="slope" />
		<tag k="place" v="locality" />
		<tag k="ssr:stedsnr" v="373620" />
	</node>
	<node lat="62.185227773904046" lon="10.396124996046659" id="-24509">
		<tag k="alt_name" v="Skarkletten" />
		<tag k="name" v="Skardkletten" />
		<tag k="natural" v="hill" />
		<tag k="place" v="locality" />
		<tag k="ssr:stedsnr" v="374102" />
	</node>
	<node lat="62.170580558103865" lon="10.382350002589163" id="-24512">
		<tag k="fixme" v="consider natural=peak for the most distinct mountains in the district" />
		<tag k="name" v="Langåsen" />
		<tag k="natural" v="hill" />
		<tag k="place" v="locality" />
		<tag k="ssr:stedsnr" v="374015" />
	</node>
	<node lat="62.03740832957118" lon="10.368677778780595" id="-24514">
		<tag k="alt_name" v="Kolletvorda" />
		<tag k="fixme" v="consider natural=peak for the most distinct mountains in the district" />
		<tag k="name" v="Kolletvola" />
		<tag k="natural" v="hill" />
		<tag k="place" v="locality" />
		<tag k="ssr:stedsnr" v="374202" />
	</node>
	<node lat="62.03854721826017" lon="10.493766667268206" id="-24515">
		<tag k="alt_name" v="Eian" />
		<tag k="name" v="Eggan" />
		<tag k="natural" v="hill" />
		<tag k="place" v="locality" />
		<tag k="ssr:stedsnr" v="374205" />
	</node>
	<node lat="62.070891670379424" lon="10.693555563744319" id="-24517">
		<tag k="name" v="Djupdalen" />
		<tag k="natural" v="valley" />
		<tag k="place" v="locality" />
		<tag k="ssr:stedsnr" v="479851" />
	</node>
	<node lat="62.05737777808388" lon="10.698311120114688" id="-24518">
		<tag k="name" v="Veslenglia" />
		<tag k="natural" v="slope" />
		<tag k="place" v="locality" />
		<tag k="ssr:stedsnr" v="479852" />
	</node>
	<node lat="62.07519999831865" lon="10.533952786880151" id="-24519">
		<tag k="alt_name" v="Dokk-kampen" />
		<tag k="fixme" v="consider natural=peak for the most distinct mountains in the district" />
		<tag k="name" v="Dokkampen" />
		<tag k="natural" v="hill" />
		<tag k="place" v="locality" />
		<tag k="ssr:stedsnr" v="374146" />
	</node>
	<node lat="62.07180833108902" lon="10.567141658455228" id="-24520">
		<tag k="alt_name" v="Skarvklettene" />
		<tag k="fixme" v="consider natural=peak for the most distinct mountains in the district" />
		<tag k="name" v="Skarvklettan" />
		<tag k="natural" v="hill" />
		<tag k="place" v="locality" />
		<tag k="ssr:stedsnr" v="374148" />
	</node>
	<node lat="61.963833335323834" lon="10.769950009067745" id="-24522">
		<tag k="name" v="Kulhøgda" />
		<tag k="natural" v="hill" />
		<tag k="place" v="locality" />
		<tag k="ssr:stedsnr" v="374355" />
	</node>
	<node lat="61.99278332983412" lon="10.533452776080116" id="-24524">
		<tag k="fixme" v="consider natural=peak for the most distinct mountains in the district" />
		<tag k="name" v="Geitryggen" />
		<tag k="natural" v="hill" />
		<tag k="place" v="locality" />
		<tag k="ssr:stedsnr" v="374427" />
	</node>
	<node lat="61.99535277744303" lon="10.463091664028068" id="-24525">
		<tag k="name" v="Kjelkedalen" />
		<tag k="natural" v="valley" />
		<tag k="place" v="locality" />
		<tag k="ssr:stedsnr" v="374428" />
	</node>
	<node lat="62.00886388718164" lon="10.749758328804376" id="-24527">
		<tag k="fixme" v="consider natural=peak for the most distinct mountains in the district" />
		<tag k="name" v="Urdlivola" />
		<tag k="natural" v="hill" />
		<tag k="old_name" v="Urdlivorda" />
		<tag k="place" v="locality" />
		<tag k="ssr:stedsnr" v="374439" />
	</node>
	<node lat="61.935377775557996" lon="10.572500005633763" id="-24528">
		<tag k="fixme" v="consider natural=peak for the most distinct mountains in the district" />
		<tag k="name" v="Storhøaksla" />
		<tag k="natural" v="hill" />
		<tag k="place" v="locality" />
		<tag k="ssr:stedsnr" v="374443" />
	</node>
	<node lat="61.97954999620801" lon="10.436305555218011" id="-24530">
		<tag k="name" v="Kvislåskardet" />
		<tag k="natural" v="valley" />
		<tag k="place" v="locality" />
		<tag k="ssr:stedsnr" v="374451" />
	</node>
	<node lat="62.03921388737225" lon="10.537502773162599" id="-24531">
		<tag k="name" v="Trekantegga" />
		<tag k="natural" v="hill" />
		<tag k="place" v="locality" />
		<tag k="ssr:stedsnr" v="479901" />
	</node>
	<node lat="62.20332777734249" lon="10.626169442336812" id="-24536">
		<tag k="name" v="Basmoen" />
		<tag k="place" v="locality" />
		<tag k="ssr:stedsnr" v="416700" />
	</node>
	<node lat="62.08931388672915" lon="10.699166659407915" id="-24540">
		<tag k="name" v="Vesleberget" />
		<tag k="natural" v="hill" />
=======
<osm generator="osmapis" version="0.6">
	<node id="-354304" lat="61.962786112" lon="10.6717555516">
		<tag k="name" v="Kvolvet" />
		<tag k="natural" v="valley" />
		<tag k="place" v="locality" />
		<tag k="ssr:stedsnr" v="495451" />
	</node>
	<node id="-354303" lat="61.9502166686" lon="10.6297527717">
		<tag k="fixme" v="consider natural=peak for the most distinct mountains in the district" />
		<tag k="name" v="Skarven" />
		<tag k="natural" v="hill" />
		<tag k="place" v="locality" />
		<tag k="ssr:stedsnr" v="495434" />
	</node>
	<node id="-354294" lat="62.0591527756" lon="10.7573388808">
		<tag k="name" v="Stortorvet" />
		<tag k="place" v="locality" />
		<tag k="ssr:stedsnr" v="357666" />
	</node>
	<node id="-354293" lat="62.0611916657" lon="10.7413166748">
		<tag k="name" v="Bråttåvørlet" />
		<tag k="natural" v="slope" />
		<tag k="place" v="locality" />
		<tag k="ssr:stedsnr" v="357665" />
	</node>
	<node id="-354292" lat="62.0348083343" lon="10.8034916741">
		<tag k="name" v="Såttåen" />
		<tag k="natural" v="slope" />
		<tag k="place" v="locality" />
		<tag k="ssr:stedsnr" v="357656" />
	</node>
	<node id="-354290" lat="62.0120305571" lon="10.6103888938">
		<tag k="name" v="Skarven" />
		<tag k="natural" v="hill" />
		<tag k="place" v="locality" />
		<tag k="ssr:stedsnr" v="357627" />
	</node>
	<node id="-354288" lat="62.0392138874" lon="10.5375027732">
		<tag k="name" v="Trekantegga" />
		<tag k="natural" v="hill" />
		<tag k="place" v="locality" />
		<tag k="ssr:stedsnr" v="479901" />
	</node>
	<node id="-354287" lat="62.0708916704" lon="10.6935555637">
		<tag k="name" v="Djupdalen" />
		<tag k="natural" v="valley" />
		<tag k="place" v="locality" />
		<tag k="ssr:stedsnr" v="479851" />
	</node>
	<node id="-354285" lat="62.0210472201" lon="10.6327000034">
		<tag k="name" v="Bjønnranden" />
		<tag k="natural" v="hill" />
		<tag k="place" v="locality" />
		<tag k="ssr:stedsnr" v="479641" />
	</node>
	<node id="-354283" lat="62.1895250036" lon="10.6529638865">
		<tag k="name" v="Langskrea" />
		<tag k="natural" v="slope" />
		<tag k="place" v="locality" />
		<tag k="ssr:stedsnr" v="478878" />
	</node>
	<node id="-354282" lat="62.0900333375" lon="10.5492916751">
		<tag k="name" v="Dyan" />
		<tag k="place" v="locality" />
		<tag k="ssr:stedsnr" v="478691" />
	</node>
	<node id="-354281" lat="62.0140583353" lon="10.7915194445">
		<tag k="name" v="Kvitranden" />
		<tag k="natural" v="ridge" />
		<tag k="place" v="locality" />
		<tag k="ssr:stedsnr" v="478685" />
	</node>
	<node id="-354279" lat="62.0744583369" lon="10.5834138972">
		<tag k="name" v="Volbekkdalen" />
		<tag k="natural" v="valley" />
		<tag k="place" v="locality" />
		<tag k="ssr:stedsnr" v="478245" />
	</node>
	<node id="-354275" lat="62.1331638866" lon="10.3224944367">
		<tag k="name" v="Skarvdalslia" />
		<tag k="natural" v="slope" />
		<tag k="place" v="locality" />
		<tag k="ssr:stedsnr" v="476886" />
	</node>
	<node id="-354274" lat="62.1202861113" lon="10.3904527752">
		<tag k="name" v="Tørrhaugen" />
		<tag k="natural" v="hill" />
		<tag k="place" v="locality" />
		<tag k="ssr:stedsnr" v="476995" />
	</node>
	<node id="-354272" lat="62.1660000007" lon="10.4639277778">
		<tag k="name" v="Ormlia" />
		<tag k="natural" v="slope" />
		<tag k="place" v="locality" />
		<tag k="ssr:stedsnr" v="476970" />
	</node>
	<node id="-354271" lat="62.1700777768" lon="10.4518611143">
		<tag k="name" v="Olbergdalen" />
		<tag k="natural" v="valley" />
		<tag k="place" v="locality" />
		<tag k="ssr:stedsnr" v="476968" />
	</node>
	<node id="-354266" lat="62.0647305524" lon="10.2166500034">
		<tag k="fixme" v="consider natural=peak for the most distinct mountains in the district" />
		<tag k="name" v="Småklettan" />
		<tag k="natural" v="hill" />
		<tag k="place" v="locality" />
		<tag k="ssr:stedsnr" v="314419" />
	</node>
	<node id="-354262" lat="62.0527138909" lon="10.4419277814">
		<tag k="name" v="Storskardet" />
		<tag k="natural" v="valley" />
		<tag k="place" v="locality" />
		<tag k="ssr:stedsnr" v="314202" />
	</node>
	<node id="-354256" lat="62.1510333328" lon="10.6512861034">
		<tag k="name" v="Nordkletten" />
		<tag k="natural" v="hill" />
		<tag k="place" v="locality" />
		<tag k="ssr:stedsnr" v="314054" />
	</node>
	<node id="-354253" lat="62.071902777" lon="10.7859333258">
		<tag k="fixme" v="consider natural=peak for the most distinct mountains in the district" />
		<tag k="name" v="Blanktjønnvola" />
		<tag k="natural" v="hill" />
		<tag k="place" v="locality" />
		<tag k="ssr:stedsnr" v="314018" />
	</node>
	<node id="-354252" lat="62.0012777752" lon="10.5729194494">
		<tag k="fixme" v="consider natural=peak for the most distinct mountains in the district" />
		<tag k="name" v="Øykjekletten" />
		<tag k="natural" v="hill" />
		<tag k="place" v="locality" />
		<tag k="ssr:stedsnr" v="313403" />
	</node>
	<node id="-354244" lat="62.0526666644" lon="10.7471222183">
		<tag k="name" v="Kletten" />
		<tag k="natural" v="hill" />
		<tag k="place" v="locality" />
		<tag k="ssr:stedsnr" v="297670" />
	</node>
	<node id="-354241" lat="62.0016388898" lon="10.7071138848">
		<tag k="name" v="Bakkan" />
		<tag k="natural" v="slope" />
		<tag k="place" v="locality" />
		<tag k="ssr:stedsnr" v="297641" />
	</node>
	<node id="-354239" lat="62.1139694412" lon="10.6192277719">
		<tag k="name" v="Grimshaugen" />
		<tag k="natural" v="hill" />
		<tag k="place" v="locality" />
		<tag k="ssr:stedsnr" v="296820" />
	</node>
	<node id="-354232" lat="62.0901277779" lon="10.3615138851">
		<tag k="name" v="Vollbakken" />
		<tag k="natural" v="slope" />
		<tag k="place" v="locality" />
		<tag k="ssr:stedsnr" v="295776" />
	</node>
	<node id="-354229" lat="62.1297861146" lon="10.4507416594">
		<tag k="name" v="Jotlia" />
		<tag k="natural" v="slope" />
		<tag k="place" v="locality" />
		<tag k="ssr:stedsnr" v="294983" />
	</node>
	<node id="-354226" lat="62.1280999961" lon="10.3471694425">
		<tag k="name" v="Bjørnhaugen" />
		<tag k="natural" v="hill" />
		<tag k="place" v="locality" />
		<tag k="ssr:stedsnr" v="294893" />
	</node>
	<node id="-354225" lat="62.1480000005" lon="10.6756111196">
		<tag k="name" v="Såttåbakkene" />
		<tag k="natural" v="slope" />
		<tag k="place" v="locality" />
		<tag k="ssr:stedsnr" v="294834" />
	</node>
	<node id="-354224" lat="62.212063888" lon="10.7129499952">
		<tag k="name" v="Tylldalsmoen" />
		<tag k="place" v="locality" />
		<tag k="ssr:stedsnr" v="294752" />
	</node>
	<node id="-354222" lat="62.1723166681" lon="10.5915861103">
		<tag k="name" v="Svartberget" />
		<tag k="natural" v="hill" />
		<tag k="place" v="locality" />
		<tag k="ssr:stedsnr" v="294702" />
	</node>
	<node id="-354220" lat="61.9937322146" lon="10.1299441351">
		<tag k="name" v="Jehansskardet" />
		<tag k="natural" v="valley" />
		<tag k="place" v="locality" />
		<tag k="ssr:stedsnr" v="193538" />
	</node>
	<node id="-354217" lat="62.073224997" lon="10.7358833267">
		<tag k="alt_name" v="Vesleskardet" />
		<tag k="name" v="Veslskardet" />
		<tag k="natural" v="valley" />
		<tag k="place" v="locality" />
		<tag k="ssr:stedsnr" v="193018" />
	</node>
	<node id="-354213" lat="62.161049997" lon="10.4416249958">
		<tag k="alt_name" v="Vordengvorda" />
		<tag k="fixme" v="consider natural=peak for the most distinct mountains in the district" />
		<tag k="name" v="Volengvola" />
		<tag k="natural" v="hill" />
		<tag k="place" v="locality" />
		<tag k="ssr:stedsnr" v="193005" />
	</node>
	<node id="-354212" lat="61.9539249972" lon="10.1826638978">
		<tag k="alt_name" v="Skjellåbotn" />
		<tag k="name" v="Skjellåbotnen" />
		<tag k="natural" v="valley" />
		<tag k="place" v="locality" />
		<tag k="ssr:stedsnr" v="192629" />
	</node>
	<node id="-354203" lat="61.971897222" lon="10.764502783">
		<tag k="name" v="Kikkerthaugan" />
		<tag k="natural" v="hill" />
		<tag k="place" v="locality" />
		<tag k="ssr:stedsnr" v="175663" />
	</node>
	<node id="-354197" lat="62.0621527746" lon="10.5044166713">
		<tag k="alt_name" v="Skrefjellet" />
		<tag k="fixme" v="consider natural=peak for the most distinct mountains in the district" />
		<tag k="name" v="Skredfjellet" />
		<tag k="natural" v="hill" />
		<tag k="place" v="locality" />
		<tag k="ssr:stedsnr" v="132116" />
	</node>
	<node id="-354194" lat="62.1180027811" lon="10.4594750043">
		<tag k="fixme" v="consider natural=peak for the most distinct mountains in the district" />
		<tag k="name" v="Høgåsen" />
		<tag k="natural" v="hill" />
		<tag k="place" v="locality" />
		<tag k="ssr:stedsnr" v="131712" />
	</node>
	<node id="-354192" lat="61.9688027807" lon="10.4001083285">
		<tag k="name" v="Slettfatet" />
		<tag k="natural" v="valley" />
		<tag k="place" v="locality" />
		<tag k="ssr:stedsnr" v="131436" />
	</node>
	<node id="-354191" lat="61.9715944427" lon="10.4802305522">
		<tag k="fixme" v="consider natural=peak for the most distinct mountains in the district" />
		<tag k="name" v="Korsberghøa" />
		<tag k="natural" v="hill" />
		<tag k="place" v="locality" />
		<tag k="ssr:stedsnr" v="131427" />
	</node>
	<node id="-354190" lat="61.9755583346" lon="10.433961107">
		<tag k="fixme" v="consider natural=peak for the most distinct mountains in the district" />
		<tag k="name" v="Knatten" />
		<tag k="natural" v="hill" />
		<tag k="place" v="locality" />
		<tag k="ssr:stedsnr" v="131425" />
	</node>
	<node id="-354177" lat="61.995075001" lon="10.3000305531">
		<tag k="alt_name" v="Veslesølndalen" />
		<tag k="name" v="Veslsølndalen" />
		<tag k="natural" v="valley" />
		<tag k="place" v="locality" />
		<tag k="ssr:stedsnr" v="253550" />
	</node>
	<node id="-354176" lat="61.9578416647" lon="10.8989833268">
		<tag k="fixme" v="consider natural=peak for the most distinct mountains in the district" />
		<tag k="name" v="Brennåsen" />
		<tag k="natural" v="hill" />
		<tag k="place" v="locality" />
		<tag k="ssr:stedsnr" v="253390" />
	</node>
	<node id="-354175" lat="62.1075722178" lon="10.4795722195">
		<tag k="name" v="Gammelsæterlia" />
		<tag k="natural" v="slope" />
		<tag k="place" v="locality" />
		<tag k="ssr:stedsnr" v="253276" />
	</node>
	<node id="-354172" lat="62.1000250021" lon="10.2588833399">
		<tag k="name" v="Skarvdalen" />
		<tag k="natural" v="valley" />
>>>>>>> e1d4bc35ff8a6074a6f2e91616a996b547c36f15
		<tag k="place" v="locality" />
		<tag k="ssr:stedsnr" v="417885" />
	</node>
<<<<<<< HEAD
	<node lat="62.128541662470965" lon="10.64645278454907" id="-24542">
		<tag k="name" v="Tronsvanglia" />
		<tag k="natural" v="slope" />
=======
	<node id="-354170" lat="62.1911388933" lon="10.7209666731">
		<tag k="alt_name" v="Vesletronden" />
		<tag k="name" v="Vesletron" />
		<tag k="natural" v="hill" />
>>>>>>> e1d4bc35ff8a6074a6f2e91616a996b547c36f15
		<tag k="place" v="locality" />
		<tag k="ssr:stedsnr" v="418934" />
	</node>
<<<<<<< HEAD
	<node lat="62.03945000017942" lon="10.548125007961277" id="-24543">
		<tag k="name" v="Skårhaugen" />
=======
	<node id="-354167" lat="62.1257750041" lon="10.6864222263">
		<tag k="fixme" v="consider natural=peak for the most distinct mountains in the district" />
		<tag k="name" v="Heimåsen" />
>>>>>>> e1d4bc35ff8a6074a6f2e91616a996b547c36f15
		<tag k="natural" v="hill" />
		<tag k="place" v="locality" />
		<tag k="ssr:stedsnr" v="418885" />
	</node>
<<<<<<< HEAD
	<node lat="62.04612500030709" lon="10.587786102559104" id="-24545">
		<tag k="name" v="Aumdalsbakkan" />
=======
	<node id="-354164" lat="62.0468138928" lon="10.5277583287">
		<tag k="fixme" v="consider natural=peak for the most distinct mountains in the district" />
		<tag k="name" v="Illmyrkletten" />
>>>>>>> e1d4bc35ff8a6074a6f2e91616a996b547c36f15
		<tag k="natural" v="hill" />
		<tag k="place" v="locality" />
		<tag k="ssr:stedsnr" v="418887" />
	</node>
<<<<<<< HEAD
	<node lat="61.94428889342144" lon="10.239049991688399" id="-24548">
		<tag k="name" v="Buska" />
=======
	<node id="-354162" lat="62.0428500009" lon="10.3496222303">
		<tag k="name" v="Måsådalen" />
		<tag k="natural" v="valley" />
>>>>>>> e1d4bc35ff8a6074a6f2e91616a996b547c36f15
		<tag k="place" v="locality" />
		<tag k="ssr:stedsnr" v="434614" />
	</node>
<<<<<<< HEAD
	<node lat="62.17092222516912" lon="10.463480556265251" id="-24551">
		<tag k="name" v="Kletten" />
		<tag k="natural" v="hill" />
		<tag k="place" v="locality" />
		<tag k="ssr:stedsnr" v="435014" />
	</node>
	<node lat="61.952524996566744" lon="10.937761107949015" id="-24554">
		<tag k="fixme" v="consider natural=peak for the most distinct mountains in the district" />
		<tag k="name" v="Barkaldåsen" />
=======
	<node id="-354158" lat="62.0759250027" lon="10.6058027686">
		<tag k="alt_name" v="Vorda" />
		<tag k="name" v="Gråvola" />
		<tag k="natural" v="hill" />
		<tag k="place" v="locality" />
		<tag k="ssr:stedsnr" v="253181" />
	</node>
	<node id="-354151" lat="62.1550750005" lon="10.5374361034">
		<tag k="alt_name" v="Nesset" />
		<tag k="name" v="Neset" />
		<tag k="place" v="locality" />
		<tag k="ssr:stedsnr" v="253050" />
	</node>
	<node id="-354150" lat="62.1494750012" lon="10.7101750082">
		<tag k="name" v="Sørkletten" />
>>>>>>> e1d4bc35ff8a6074a6f2e91616a996b547c36f15
		<tag k="natural" v="hill" />
		<tag k="place" v="locality" />
		<tag k="ssr:stedsnr" v="435375" />
	</node>
<<<<<<< HEAD
	<node lat="61.953202782197636" lon="10.567408338942855" id="-24555">
		<tag k="fixme" v="consider natural=peak for the most distinct mountains in the district" />
		<tag k="name" v="Prekstolen" />
		<tag k="natural" v="hill" />
=======
	<node id="-354148" lat="62.0204138867" lon="10.7590749927">
		<tag k="alt_name" v="Urlia" />
		<tag k="name" v="Urdlia" />
		<tag k="natural" v="slope" />
>>>>>>> e1d4bc35ff8a6074a6f2e91616a996b547c36f15
		<tag k="place" v="locality" />
		<tag k="ssr:stedsnr" v="435485" />
	</node>
<<<<<<< HEAD
	<node lat="62.08558333559758" lon="10.327508326973806" id="-24558">
		<tag k="alt_name" v="Stenflåen" />
=======
	<node id="-354144" lat="62.1617749974" lon="10.4015333381">
		<tag k="alt_name" v="Gjotvorda" />
>>>>>>> e1d4bc35ff8a6074a6f2e91616a996b547c36f15
		<tag k="fixme" v="consider natural=peak for the most distinct mountains in the district" />
		<tag k="name" v="Steinfloen" />
		<tag k="natural" v="hill" />
		<tag k="place" v="locality" />
		<tag k="ssr:stedsnr" v="436125" />
	</node>
<<<<<<< HEAD
	<node lat="62.00687500097083" lon="10.320927777534987" id="-24559">
=======
	<node id="-354143" lat="61.9597888875" lon="10.1594361035">
		<tag k="alt_name" v="Skjellåkinn" />
>>>>>>> e1d4bc35ff8a6074a6f2e91616a996b547c36f15
		<tag k="fixme" v="consider natural=peak for the most distinct mountains in the district" />
		<tag k="name" v="Veslsølnkletten" />
		<tag k="natural" v="hill" />
		<tag k="place" v="locality" />
		<tag k="ssr:stedsnr" v="436156" />
	</node>
<<<<<<< HEAD
	<node lat="62.16204999887209" lon="10.69752499487316" id="-24560">
		<tag k="name" v="Blåskarven" />
=======
	<node id="-354142" lat="61.971713885" lon="10.2639888865">
		<tag k="fixme" v="consider natural=peak for the most distinct mountains in the district" />
		<tag k="name" v="Slågån" />
>>>>>>> e1d4bc35ff8a6074a6f2e91616a996b547c36f15
		<tag k="natural" v="hill" />
		<tag k="place" v="locality" />
		<tag k="ssr:stedsnr" v="436059" />
	</node>
<<<<<<< HEAD
	<node lat="62.23402222428644" lon="10.448699991484288" id="-24561">
		<tag k="name" v="Slettknausen" />
		<tag k="natural" v="hill" />
=======
	<node id="-354141" lat="61.9823249979" lon="10.3735916587">
		<tag k="name" v="Fjordungskvolvet" />
		<tag k="natural" v="valley" />
>>>>>>> e1d4bc35ff8a6074a6f2e91616a996b547c36f15
		<tag k="place" v="locality" />
		<tag k="ssr:stedsnr" v="436402" />
	</node>
<<<<<<< HEAD
	<node lat="62.17007777676723" lon="10.451861114276387" id="-24563">
		<tag k="name" v="Olbergdalen" />
=======
	<node id="-354139" lat="61.9943805599" lon="10.6147750093">
		<tag k="name" v="Melbekkdalen" />
>>>>>>> e1d4bc35ff8a6074a6f2e91616a996b547c36f15
		<tag k="natural" v="valley" />
		<tag k="place" v="locality" />
		<tag k="ssr:stedsnr" v="476968" />
	</node>
<<<<<<< HEAD
	<node lat="62.16600000070155" lon="10.463927777750612" id="-24564">
		<tag k="name" v="Ormlia" />
		<tag k="natural" v="slope" />
=======
	<node id="-354136" lat="62.0501888846" lon="10.3874361145">
		<tag k="alt_name" v="Stenmoen" />
		<tag k="name" v="Steinmoen" />
>>>>>>> e1d4bc35ff8a6074a6f2e91616a996b547c36f15
		<tag k="place" v="locality" />
		<tag k="ssr:stedsnr" v="476970" />
	</node>
<<<<<<< HEAD
	<node lat="61.9529444432958" lon="10.348286112016842" id="-24569">
		<tag k="fixme" v="consider natural=peak for the most distinct mountains in the district" />
		<tag k="name" v="Gråvolan" />
=======
	<node id="-354131" lat="62.0396333371" lon="10.5433277728">
		<tag k="name" v="Rundhaugen" />
>>>>>>> e1d4bc35ff8a6074a6f2e91616a996b547c36f15
		<tag k="natural" v="hill" />
		<tag k="old_name" v="Gråvolvan" />
		<tag k="place" v="locality" />
		<tag k="ssr:stedsnr" v="677424" />
	</node>
<<<<<<< HEAD
	<node lat="62.05421944329432" lon="10.390216671489197" id="-24571">
		<tag k="name" v="Storslettbakken" />
		<tag k="natural" v="slope" />
		<tag k="place" v="locality" />
		<tag k="ssr:stedsnr" v="477813" />
	</node>
	<node lat="61.96708611253896" lon="10.582849999942134" id="-24575">
		<tag k="fixme" v="consider natural=peak for the most distinct mountains in the district" />
		<tag k="name" v="Tverråfjellet" />
		<tag k="natural" v="hill" />
=======
	<node id="-354129" lat="62.0328472218" lon="10.4927194395">
		<tag k="name" v="Skrean" />
		<tag k="natural" v="slope" />
		<tag k="place" v="locality" />
		<tag k="ssr:stedsnr" v="54902" />
	</node>
	<node id="-354128" lat="62.076988887" lon="10.6813833384">
		<tag k="name" v="Stamoen" />
		<tag k="place" v="locality" />
		<tag k="ssr:stedsnr" v="53870" />
	</node>
	<node id="-354116" lat="62.0136777773" lon="10.6436222213">
		<tag k="name" v="Styggdalen" />
		<tag k="natural" v="valley" />
>>>>>>> e1d4bc35ff8a6074a6f2e91616a996b547c36f15
		<tag k="place" v="locality" />
		<tag k="ssr:stedsnr" v="677460" />
	</node>
<<<<<<< HEAD
	<node lat="62.189525003569834" lon="10.652963886532001" id="-24580">
		<tag k="name" v="Langskrea" />
=======
	<node id="-354102" lat="62.1974194439" lon="10.7201027811">
		<tag k="name" v="Vesletronlia" />
>>>>>>> e1d4bc35ff8a6074a6f2e91616a996b547c36f15
		<tag k="natural" v="slope" />
		<tag k="place" v="locality" />
		<tag k="ssr:stedsnr" v="478878" />
	</node>
<<<<<<< HEAD
	<node lat="62.14295000214016" lon="10.462302776306162" id="-24588">
		<tag k="fixme" v="consider natural=peak for the most distinct mountains in the district" />
		<tag k="name" v="Brottåsen" />
		<tag k="natural" v="hill" />
=======
	<node id="-354101" lat="62.0859583348" lon="10.4179472243">
		<tag k="name" v="Stenbakken" />
		<tag k="natural" v="slope" />
>>>>>>> e1d4bc35ff8a6074a6f2e91616a996b547c36f15
		<tag k="place" v="locality" />
		<tag k="ssr:stedsnr" v="678059" />
	</node>
<<<<<<< HEAD
	<node lat="62.06523055881731" lon="10.595108328491213" id="-24592">
		<tag k="fixme" v="consider natural=peak for the most distinct mountains in the district" />
		<tag k="name" v="Klettan" />
		<tag k="natural" v="hill" />
=======
	<node id="-354100" lat="62.1015055579" lon="10.3783444438">
		<tag k="name" v="Lauvhauglia" />
		<tag k="natural" v="slope" />
>>>>>>> e1d4bc35ff8a6074a6f2e91616a996b547c36f15
		<tag k="place" v="locality" />
		<tag k="ssr:stedsnr" v="678143" />
	</node>
<<<<<<< HEAD
	<node lat="61.989127775136346" lon="10.765922226858393" id="-24598">
		<tag k="alt_name" v="Brennvorda" />
		<tag k="fixme" v="consider natural=peak for the most distinct mountains in the district" />
		<tag k="name" v="Brennvola" />
		<tag k="natural" v="hill" />
=======
	<node id="-354095" lat="62.1548611154" lon="10.5561555579">
		<tag k="name" v="Folløymoan" />
>>>>>>> e1d4bc35ff8a6074a6f2e91616a996b547c36f15
		<tag k="place" v="locality" />
		<tag k="ssr:stedsnr" v="678361" />
	</node>
<<<<<<< HEAD
	<node lat="62.007075000861676" lon="10.282950001692889" id="-24605">
		<tag k="name" v="Storfloen" />
=======
	<node id="-354092" lat="62.1434333314" lon="10.3339416747">
		<tag k="name" v="Skarvdalen" />
>>>>>>> e1d4bc35ff8a6074a6f2e91616a996b547c36f15
		<tag k="natural" v="valley" />
		<tag k="place" v="locality" />
		<tag k="ssr:stedsnr" v="496229" />
	</node>
<<<<<<< HEAD
	<node lat="62.003486111301164" lon="10.443350000878997" id="-24606">
		<tag k="fixme" v="consider natural=peak for the most distinct mountains in the district" />
		<tag k="name" v="Fjøshøa" />
		<tag k="natural" v="hill" />
=======
	<node id="-354091" lat="62.1914611123" lon="10.3942055489">
		<tag k="name" v="Bumoen" />
>>>>>>> e1d4bc35ff8a6074a6f2e91616a996b547c36f15
		<tag k="place" v="locality" />
		<tag k="ssr:stedsnr" v="496230" />
	</node>
<<<<<<< HEAD
	<node lat="61.94800555953316" lon="10.739369442274308" id="-24608">
		<tag k="fixme" v="consider natural=peak for the most distinct mountains in the district" />
		<tag k="name" v="Kløftbekkhøgda" />
		<tag k="natural" v="hill" />
=======
	<node id="-354089" lat="62.1512444425" lon="10.6661305538">
		<tag k="name" v="Kløftet" />
		<tag k="natural" v="valley" />
>>>>>>> e1d4bc35ff8a6074a6f2e91616a996b547c36f15
		<tag k="place" v="locality" />
		<tag k="ssr:stedsnr" v="496344" />
	</node>
<<<<<<< HEAD
	<node lat="61.974788888458946" lon="10.845580555978696" id="-24609">
		<tag k="alt_name" v="Barkaldvorda" />
		<tag k="fixme" v="consider natural=peak for the most distinct mountains in the district" />
		<tag k="name" v="Barkaldvola" />
		<tag k="natural" v="hill" />
=======
	<node id="-354087" lat="62.0808972182" lon="10.3387194532">
		<tag k="name" v="Skrabban" />
>>>>>>> e1d4bc35ff8a6074a6f2e91616a996b547c36f15
		<tag k="place" v="locality" />
		<tag k="ssr:stedsnr" v="496357" />
	</node>
<<<<<<< HEAD
	<node lat="62.23664166769243" lon="10.424536108172491" id="-24610">
		<tag k="name" v="Svartknausen" />
		<tag k="natural" v="hill" />
		<tag k="place" v="locality" />
		<tag k="ssr:stedsnr" v="496460" />
	</node>
	<node lat="62.152080555408006" lon="10.638788885890227" id="-24611">
		<tag k="name" v="Heimkletten" />
		<tag k="natural" v="hill" />
		<tag k="place" v="locality" />
		<tag k="ssr:stedsnr" v="505306" />
	</node>
	<node lat="62.100330558028" lon="10.300674994126418" id="-24615">
		<tag k="alt_name" v="Kjemsjøsæterlia" />
		<tag k="name" v="Kjemsjølia" />
		<tag k="natural" v="slope" />
=======
	<node id="-354086" lat="62.0895861104" lon="10.533547215">
		<tag k="alt_name" v="Brennbakkmoene" />
		<tag k="name" v="Brennbakkmoen" />
>>>>>>> e1d4bc35ff8a6074a6f2e91616a996b547c36f15
		<tag k="place" v="locality" />
		<tag k="ssr:stedsnr" v="537878" />
	</node>
<<<<<<< HEAD
	<node lat="62.15145555185684" lon="10.33484721638629" id="-24622">
=======
	<node id="-354082" lat="62.0993304547" lon="10.4146466634">
>>>>>>> e1d4bc35ff8a6074a6f2e91616a996b547c36f15
		<tag k="fixme" v="consider natural=peak for the most distinct mountains in the district" />
		<tag k="name" v="Kløftåsen" />
		<tag k="natural" v="hill" />
		<tag k="place" v="locality" />
		<tag k="ssr:stedsnr" v="687430" />
	</node>
<<<<<<< HEAD
	<node lat="62.00986110851791" lon="10.346424997479462" id="-24624">
		<tag k="alt_name" v="Steinvorda" />
=======
	<node id="-354079" lat="61.9838166633" lon="10.7266777849">
		<tag k="alt_name" v="Fjellrøstvorda" />
>>>>>>> e1d4bc35ff8a6074a6f2e91616a996b547c36f15
		<tag k="fixme" v="consider natural=peak for the most distinct mountains in the district" />
		<tag k="name" v="Steinvola" />
		<tag k="natural" v="hill" />
		<tag k="place" v="locality" />
		<tag k="ssr:stedsnr" v="556208" />
	</node>
<<<<<<< HEAD
	<node lat="62.12165278182499" lon="10.302066663148569" id="-24627">
		<tag k="alt_name" v="Veselåsen" />
=======
	<node id="-354078" lat="61.9759500015" lon="10.5159305531">
>>>>>>> e1d4bc35ff8a6074a6f2e91616a996b547c36f15
		<tag k="fixme" v="consider natural=peak for the most distinct mountains in the district" />
		<tag k="name" v="Veslåsen" />
		<tag k="natural" v="hill" />
		<tag k="place" v="locality" />
		<tag k="ssr:stedsnr" v="556222" />
	</node>
<<<<<<< HEAD
	<node lat="61.97978055771024" lon="10.291975005142529" id="-24631">
		<tag k="alt_name" v="Sølnkletten, store" />
=======
	<node id="-354077" lat="61.9644416676" lon="10.3907194521">
>>>>>>> e1d4bc35ff8a6074a6f2e91616a996b547c36f15
		<tag k="fixme" v="consider natural=peak for the most distinct mountains in the district" />
		<tag k="name" v="Storsølnkletten" />
		<tag k="natural" v="hill" />
		<tag k="place" v="locality" />
		<tag k="ssr:stedsnr" v="556559" />
	</node>
<<<<<<< HEAD
	<node lat="61.99523036282873" lon="10.220916810608719" id="-24632">
		<tag k="alt_name" v="Borren, nordre" />
		<tag k="fixme" v="consider natural=peak for the most distinct mountains in the district" />
		<tag k="name" v="Nørdre Boren" />
		<tag k="natural" v="hill" />
=======
	<node id="-355384" lat="62.1730666665" lon="10.7074722166">
		<tag k="alt_name" v="Tyldalstoppen" />
		<tag k="fixme" v="consider natural=peak for the most distinct mountains in the district" />
		<tag k="name" v="Tylldalstoppen" />
		<tag k="natural" v="hill" />
		<tag k="old_name" v="Tydalstoppen" />
		<tag k="ssr:stedsnr" v="901840" />
	</node>
	<node id="-355382" lat="62.0416500011" lon="10.1656765362">
		<tag k="alt_name" v="Mjovassdalskletten" />
		<tag k="fixme" v="consider natural=peak for the most distinct mountains in the district" />
		<tag k="name" v="Mjovasskletten" />
		<tag k="natural" v="hill" />
		<tag k="place" v="locality" />
		<tag k="ssr:stedsnr" v="314424" />
	</node>
	<node id="-355376" lat="62.1281500043" lon="9.95482777595">
		<tag k="name" v="Folldalen" />
		<tag k="natural" v="valley" />
		<tag k="place" v="locality" />
		<tag k="ssr:stedsnr" v="314108" />
	</node>
	<node id="-355362" lat="62.1973194466" lon="10.6677944522">
		<tag k="name" v="Nyskrea" />
		<tag k="natural" v="valley" />
>>>>>>> e1d4bc35ff8a6074a6f2e91616a996b547c36f15
		<tag k="place" v="locality" />
		<tag k="ssr:stedsnr" v="556568" />
	</node>
<<<<<<< HEAD
	<node lat="62.25872221897518" lon="10.36579722758514" id="-24636">
		<tag k="name" v="Elgtjønnbakken" />
		<tag k="natural" v="slope" />
=======
	<node id="-355361" lat="61.966602779" lon="10.8195305532">
		<tag k="name" v="Heimskardet" />
		<tag k="natural" v="valley" />
>>>>>>> e1d4bc35ff8a6074a6f2e91616a996b547c36f15
		<tag k="place" v="locality" />
		<tag k="ssr:stedsnr" v="572957" />
	</node>
<<<<<<< HEAD
	<node lat="62.19345555337554" lon="10.500377777062658" id="-24641">
		<tag k="name" v="Kvitvola" />
=======
	<node id="-355357" lat="62.1187805538" lon="10.4676805589">
		<tag k="name" v="Grønåsen" />
>>>>>>> e1d4bc35ff8a6074a6f2e91616a996b547c36f15
		<tag k="natural" v="hill" />
		<tag k="place" v="locality" />
		<tag k="ssr:stedsnr" v="597800" />
	</node>
<<<<<<< HEAD
	<node lat="62.059061107390455" lon="10.385766673133574" id="-24643">
		<tag k="name" v="Haugan" />
=======
	<node id="-355356" lat="62.1316500044" lon="10.3629388947">
		<tag k="fixme" v="consider natural=peak for the most distinct mountains in the district" />
		<tag k="name" v="Stenvola" />
>>>>>>> e1d4bc35ff8a6074a6f2e91616a996b547c36f15
		<tag k="natural" v="hill" />
		<tag k="place" v="locality" />
		<tag k="ssr:stedsnr" v="598757" />
	</node>
<<<<<<< HEAD
	<node lat="62.060708335012" lon="10.383625009283746" id="-24644">
		<tag k="name" v="Løpa" />
=======
	<node id="-355355" lat="62.129138891" lon="10.296769439">
		<tag k="name" v="Vissmannlia" />
		<tag k="natural" v="slope" />
>>>>>>> e1d4bc35ff8a6074a6f2e91616a996b547c36f15
		<tag k="place" v="locality" />
		<tag k="ssr:stedsnr" v="598758" />
	</node>
<<<<<<< HEAD
	<node lat="62.080894443542284" lon="10.596511103845595" id="-24646">
		<tag k="name" v="Gråhauan" />
=======
	<node id="-355353" lat="62.1965749985" lon="10.5101333423">
		<tag k="name" v="Geitkletten" />
>>>>>>> e1d4bc35ff8a6074a6f2e91616a996b547c36f15
		<tag k="natural" v="hill" />
		<tag k="place" v="locality" />
		<tag k="ssr:stedsnr" v="599867" />
	</node>
<<<<<<< HEAD
	<node lat="61.97963888654456" lon="10.807633342092737" id="-24647">
		<tag k="name" v="Gammelvanghaugen" />
		<tag k="natural" v="hill" />
=======
	<node id="-355352" lat="62.1356499984" lon="10.4767222308">
		<tag k="name" v="Svartåsmoen" />
>>>>>>> e1d4bc35ff8a6074a6f2e91616a996b547c36f15
		<tag k="place" v="locality" />
		<tag k="ssr:stedsnr" v="600621" />
	</node>
<<<<<<< HEAD
	<node lat="61.96916389249734" lon="10.780455560112587" id="-24650">
		<tag k="name" v="Drøppelhaugen" />
=======
	<node id="-355349" lat="62.086080554" lon="10.6960333273">
		<tag k="alt_name" v="Berget" />
		<tag k="name" v="Kvebergsberget" />
>>>>>>> e1d4bc35ff8a6074a6f2e91616a996b547c36f15
		<tag k="natural" v="hill" />
		<tag k="place" v="locality" />
		<tag k="ssr:stedsnr" v="600626" />
	</node>
<<<<<<< HEAD
	<node lat="62.05542222544672" lon="10.747524993753103" id="-24652">
		<tag k="name" v="Vesletorvet" />
=======
	<node id="-355345" lat="62.1361472262" lon="10.3302777838">
		<tag k="alt_name" v="Skarvdalsvorda" />
		<tag k="fixme" v="consider natural=peak for the most distinct mountains in the district" />
		<tag k="name" v="Skarvdalsvola" />
		<tag k="natural" v="hill" />
>>>>>>> e1d4bc35ff8a6074a6f2e91616a996b547c36f15
		<tag k="place" v="locality" />
		<tag k="ssr:stedsnr" v="600654" />
	</node>
<<<<<<< HEAD
	<node lat="61.99314167058749" lon="10.387805547601568" id="-24655">
		<tag k="name" v="Tverrdalen" />
		<tag k="natural" v="valley" />
		<tag k="place" v="locality" />
		<tag k="ssr:stedsnr" v="616409" />
	</node>
	<node lat="61.96328610844802" lon="10.354925004729278" id="-24656">
		<tag k="name" v="Sølnsjødalen" />
		<tag k="natural" v="valley" />
		<tag k="old_name" v="Sølensjødalen" />
		<tag k="place" v="locality" />
		<tag k="ssr:stedsnr" v="616450" />
	</node>
	<node lat="61.96133333322537" lon="10.290755559043602" id="-24657">
		<tag k="alt_name" v="Veslehøa" />
=======
	<node id="-355336" lat="62.0230500022" lon="10.6700111113">
		<tag k="alt_name" v="Urskardbrotet" />
>>>>>>> e1d4bc35ff8a6074a6f2e91616a996b547c36f15
		<tag k="fixme" v="consider natural=peak for the most distinct mountains in the district" />
		<tag k="name" v="Veslhøa" />
		<tag k="natural" v="hill" />
		<tag k="place" v="locality" />
		<tag k="ssr:stedsnr" v="616594" />
	</node>
<<<<<<< HEAD
	<node lat="62.174358337011526" lon="10.694747230937265" id="-24659">
		<tag k="alt_name" v="Tronden" />
=======
	<node id="-355333" lat="62.2061416686" lon="10.434499993">
		<tag k="alt_name" v="Vesleåsen" />
>>>>>>> e1d4bc35ff8a6074a6f2e91616a996b547c36f15
		<tag k="fixme" v="consider natural=peak for the most distinct mountains in the district" />
		<tag k="loc_name" v="Trondfjell" />
		<tag k="name" v="Tron" />
		<tag k="natural" v="hill" />
		<tag k="place" v="locality" />
		<tag k="ssr:stedsnr" v="617011" />
	</node>
<<<<<<< HEAD
	<node lat="62.21734166323545" lon="10.574861118484105" id="-24663">
		<tag k="name" v="Fossmoen" />
=======
	<node id="-355332" lat="62.0387666661" lon="10.8043638848">
		<tag k="alt_name" v="Nordre Bellingen" />
		<tag k="name" v="Veslbellingen" />
		<tag k="natural" v="hill" />
>>>>>>> e1d4bc35ff8a6074a6f2e91616a996b547c36f15
		<tag k="place" v="locality" />
		<tag k="ssr:stedsnr" v="617093" />
	</node>
<<<<<<< HEAD
	<node lat="62.21680278232153" lon="10.552422218651136" id="-24664">
		<tag k="loc_name" v="Sivildalen" />
		<tag k="name" v="Sivilldalen" />
		<tag k="natural" v="valley" />
=======
	<node id="-355330" lat="62.1577055514" lon="10.6556611026">
		<tag k="name" v="Mellomkletten" />
		<tag k="natural" v="hill" />
>>>>>>> e1d4bc35ff8a6074a6f2e91616a996b547c36f15
		<tag k="place" v="locality" />
		<tag k="ssr:stedsnr" v="617095" />
	</node>
<<<<<<< HEAD
	<node lat="62.12351389205538" lon="10.500824994141748" id="-24667">
=======
	<node id="-355325" lat="61.9374333309" lon="10.6849277791">
>>>>>>> e1d4bc35ff8a6074a6f2e91616a996b547c36f15
		<tag k="fixme" v="consider natural=peak for the most distinct mountains in the district" />
		<tag k="name" v="Svartåsen" />
		<tag k="natural" v="hill" />
		<tag k="place" v="locality" />
		<tag k="ssr:stedsnr" v="617709" />
	</node>
<<<<<<< HEAD
	<node lat="62.13250000331138" lon="10.699383329054585" id="-24668">
		<tag k="name" v="Vesleåsen" />
		<tag k="natural" v="hill" />
=======
	<node id="-355322" lat="62.0649944414" lon="10.7609222127">
		<tag k="name" v="Fjellrøsta" />
		<tag k="natural" v="slope" />
>>>>>>> e1d4bc35ff8a6074a6f2e91616a996b547c36f15
		<tag k="place" v="locality" />
		<tag k="ssr:stedsnr" v="632989" />
	</node>
<<<<<<< HEAD
	<node lat="62.26764444455663" lon="10.324027777856024" id="-24672">
		<tag k="name" v="Marsjølia" />
		<tag k="natural" v="slope" />
		<tag k="place" v="locality" />
		<tag k="ssr:stedsnr" v="659131" />
	</node>
	<node lat="62.11608055120043" lon="10.48188056223667" id="-24673">
		<tag k="name" v="Gruvåsen" />
=======
	<node id="-355318" lat="61.9780944463" lon="10.7259305598">
		<tag k="name" v="Storriset" />
		<tag k="natural" v="slope" />
		<tag k="place" v="locality" />
		<tag k="ssr:stedsnr" v="843665" />
	</node>
	<node id="-355313" lat="62.0680861144" lon="10.5918972214">
		<tag k="name" v="Klokkerkampen" />
		<tag k="natural" v="hill" />
		<tag k="place" v="locality" />
		<tag k="ssr:stedsnr" v="843194" />
	</node>
	<node id="-355307" lat="62.1378500044" lon="10.7090055549">
		<tag k="name" v="Svartåsen" />
>>>>>>> e1d4bc35ff8a6074a6f2e91616a996b547c36f15
		<tag k="natural" v="hill" />
		<tag k="place" v="locality" />
		<tag k="ssr:stedsnr" v="659687" />
	</node>
<<<<<<< HEAD
	<node lat="62.05494166840662" lon="10.395694444084139" id="-24679">
		<tag k="name" v="Veslekamplia" />
		<tag k="natural" v="slope" />
=======
	<node id="-355302" lat="62.2429583317" lon="10.3388583316">
		<tag k="name" v="Langkroken" />
>>>>>>> e1d4bc35ff8a6074a6f2e91616a996b547c36f15
		<tag k="place" v="locality" />
		<tag k="ssr:stedsnr" v="659785" />
	</node>
<<<<<<< HEAD
	<node lat="62.04358888839339" lon="10.564194437413267" id="-24684">
		<tag k="name" v="Aummoen" />
=======
	<node id="-355299" lat="61.9918694485" lon="10.736697222">
		<tag k="alt_name" v="Skarvvorda" />
		<tag k="fixme" v="consider natural=peak for the most distinct mountains in the district" />
		<tag k="name" v="Skarvvola" />
		<tag k="natural" v="hill" />
>>>>>>> e1d4bc35ff8a6074a6f2e91616a996b547c36f15
		<tag k="place" v="locality" />
		<tag k="ssr:stedsnr" v="660685" />
	</node>
<<<<<<< HEAD
	<node lat="62.16583610790628" lon="10.560100009034665" id="-24689">
		<tag k="name" v="Steivanglia" />
		<tag k="natural" v="slope" />
=======
	<node id="-355295" lat="62.0870666693" lon="10.4649416702">
		<tag k="name" v="Vardmoan" />
>>>>>>> e1d4bc35ff8a6074a6f2e91616a996b547c36f15
		<tag k="place" v="locality" />
		<tag k="ssr:stedsnr" v="678003" />
	</node>
<<<<<<< HEAD
	<node lat="62.014630552039634" lon="10.46772499516411" id="-24700">
=======
	<node id="-355290" lat="62.0502777759" lon="10.4079472286">
		<tag k="alt_name" v="Veslekampen" />
>>>>>>> e1d4bc35ff8a6074a6f2e91616a996b547c36f15
		<tag k="fixme" v="consider natural=peak for the most distinct mountains in the district" />
		<tag k="name" v="Dølbekkhøa" />
		<tag k="natural" v="hill" />
		<tag k="place" v="locality" />
		<tag k="ssr:stedsnr" v="678176" />
	</node>
<<<<<<< HEAD
	<node lat="62.0542555546424" lon="10.425402776505951" id="-24701">
		<tag k="fixme" v="consider natural=peak for the most distinct mountains in the district" />
		<tag k="name" v="Kampan" />
=======
	<node id="-355287" lat="62.1502472259" lon="10.5438861192">
		<tag k="name" v="Brenna" />
>>>>>>> e1d4bc35ff8a6074a6f2e91616a996b547c36f15
		<tag k="natural" v="hill" />
		<tag k="place" v="locality" />
		<tag k="ssr:stedsnr" v="678187" />
	</node>
<<<<<<< HEAD
	<node lat="62.1829249988364" lon="10.546899993920487" id="-24708">
		<tag k="name" v="Vangåsen" />
		<tag k="natural" v="hill" />
=======
	<node id="-355286" lat="61.9143694478" lon="10.6165916724">
		<tag k="name" v="Kuven" />
		<tag k="natural" v="valley" />
>>>>>>> e1d4bc35ff8a6074a6f2e91616a996b547c36f15
		<tag k="place" v="locality" />
		<tag k="ssr:stedsnr" v="719785" />
	</node>
<<<<<<< HEAD
	<node lat="62.125713893138034" lon="10.501141672292224" id="-24709">
		<tag k="fixme" v="consider natural=peak for the most distinct mountains in the district" />
		<tag k="name" v="Nysæteråsen" />
=======
	<node id="-355268" lat="62.0598361097" lon="10.7527111045">
		<tag k="name" v="Måna" />
>>>>>>> e1d4bc35ff8a6074a6f2e91616a996b547c36f15
		<tag k="natural" v="hill" />
		<tag k="place" v="locality" />
		<tag k="ssr:stedsnr" v="720675" />
	</node>
<<<<<<< HEAD
	<node lat="62.2149999996247" lon="10.512636105146953" id="-24711">
		<tag k="name" v="Kletten" />
		<tag k="natural" v="ridge" />
=======
	<node id="-355261" lat="62.0781388866" lon="10.6621527769">
		<tag k="name" v="Stormoen" />
>>>>>>> e1d4bc35ff8a6074a6f2e91616a996b547c36f15
		<tag k="place" v="locality" />
		<tag k="ssr:stedsnr" v="720811" />
	</node>
<<<<<<< HEAD
	<node lat="62.06307777600314" lon="10.366538893062534" id="-24712">
		<tag k="name" v="Langhaugen" />
=======
	<node id="-355254" lat="62.1765611078" lon="10.3956722191">
		<tag k="name" v="Sjåarhaugen" />
>>>>>>> e1d4bc35ff8a6074a6f2e91616a996b547c36f15
		<tag k="natural" v="hill" />
		<tag k="place" v="locality" />
		<tag k="ssr:stedsnr" v="720814" />
	</node>
<<<<<<< HEAD
	<node lat="62.08114444241288" lon="10.58575554979196" id="-24715">
		<tag k="name" v="Høgklettrøsta" />
		<tag k="natural" v="ridge" />
=======
	<node id="-355252" lat="62.1999305547" lon="10.4014333302">
		<tag k="name" v="Follia" />
		<tag k="natural" v="slope" />
>>>>>>> e1d4bc35ff8a6074a6f2e91616a996b547c36f15
		<tag k="place" v="locality" />
		<tag k="ssr:stedsnr" v="721224" />
	</node>
<<<<<<< HEAD
	<node lat="62.076305559545865" lon="10.726038893898505" id="-24718">
		<tag k="name" v="Storfjelltangen" />
		<tag k="place" v="locality" />
		<tag k="ssr:stedsnr" v="901648" />
	</node>
	<node lat="62.17306666651116" lon="10.707472216560024" id="-24726">
		<tag k="alt_name" v="Tyldalstoppen" />
		<tag k="fixme" v="consider natural=peak for the most distinct mountains in the district" />
		<tag k="name" v="Tylldalstoppen" />
=======
	<node id="-355248" lat="62.2519111121" lon="10.4025944453">
		<tag k="name" v="Grøtberget" />
>>>>>>> e1d4bc35ff8a6074a6f2e91616a996b547c36f15
		<tag k="natural" v="hill" />
		<tag k="old_name" v="Tydalstoppen" />
		<tag k="place" v="locality" />
		<tag k="ssr:stedsnr" v="901840" />
	</node>
<<<<<<< HEAD
	<node lat="62.11163889090542" lon="10.339155561913817" id="-24727">
		<tag k="name" v="Sjølia" />
=======
	<node id="-355247" lat="62.175472221" lon="10.4822361095">
		<tag k="name" v="Bratthaugan" />
>>>>>>> e1d4bc35ff8a6074a6f2e91616a996b547c36f15
		<tag k="natural" v="slope" />
		<tag k="place" v="locality" />
		<tag k="ssr:stedsnr" v="901898" />
	</node>
<<<<<<< HEAD
	<node lat="62.13144166390477" lon="10.36282499505703" id="-24732">
		<tag k="alt_name" v="Veslekampen" />
		<tag k="fixme" v="consider natural=peak for the most distinct mountains in the district" />
		<tag k="name" v="Veslkampen" />
		<tag k="natural" v="hill" />
=======
	<node id="-355246" lat="62.1855999976" lon="10.5084055462">
		<tag k="name" v="Langsæterlia" />
		<tag k="natural" v="slope" />
>>>>>>> e1d4bc35ff8a6074a6f2e91616a996b547c36f15
		<tag k="place" v="locality" />
		<tag k="ssr:stedsnr" v="738217" />
	</node>
<<<<<<< HEAD
	<node lat="61.92920613165552" lon="10.315286288904362" id="-24735">
		<tag k="fixme" v="multiple name tags, choose one and add the other to alt_name; consider natural=peak for the most distinct mountains in the district" />
		<tag k="name" v="Bogen;Musvola" />
=======
	<node id="-355245" lat="62.0807055577" lon="10.3972555467">
		<tag k="name" v="Rundhaugan" />
>>>>>>> e1d4bc35ff8a6074a6f2e91616a996b547c36f15
		<tag k="natural" v="hill" />
		<tag k="place" v="locality" />
		<tag k="ssr:stedsnr" v="738612" />
	</node>
<<<<<<< HEAD
	<node lat="62.066455555843056" lon="10.737949990617633" id="-24737">
=======
	<node id="-355227" lat="62.0518749988" lon="10.4582499989">
		<tag k="alt_name" v="Høgkuven" />
>>>>>>> e1d4bc35ff8a6074a6f2e91616a996b547c36f15
		<tag k="fixme" v="consider natural=peak for the most distinct mountains in the district" />
		<tag k="name" v="Storfjellet" />
		<tag k="natural" v="hill" />
		<tag k="place" v="locality" />
		<tag k="ssr:stedsnr" v="739016" />
	</node>
<<<<<<< HEAD
	<node lat="62.072919442253145" lon="10.750875008467371" id="-24738">
		<tag k="alt_name" v="Veslefjellet" />
=======
	<node id="-355226" lat="62.0550722265" lon="10.5113611071">
>>>>>>> e1d4bc35ff8a6074a6f2e91616a996b547c36f15
		<tag k="fixme" v="consider natural=peak for the most distinct mountains in the district" />
		<tag k="name" v="Veslfjellet" />
		<tag k="natural" v="hill" />
		<tag k="place" v="locality" />
		<tag k="ssr:stedsnr" v="739018" />
	</node>
<<<<<<< HEAD
	<node lat="62.06817777597256" lon="10.429022217871882" id="-24740">
=======
	<node id="-355219" lat="62.068177776" lon="10.4290222179">
>>>>>>> e1d4bc35ff8a6074a6f2e91616a996b547c36f15
		<tag k="fixme" v="consider natural=peak for the most distinct mountains in the district" />
		<tag k="name" v="Veslskardkampen" />
		<tag k="natural" v="hill" />
		<tag k="place" v="locality" />
		<tag k="ssr:stedsnr" v="739121" />
	</node>
<<<<<<< HEAD
	<node lat="62.183780559935094" lon="10.650327785332072" id="-24759">
		<tag k="name" v="Svartbekkhammeren" />
=======
	<node id="-355217" lat="62.150372222" lon="10.3987222224">
		<tag k="alt_name" v="Grønvorda" />
		<tag k="fixme" v="consider natural=peak for the most distinct mountains in the district" />
		<tag k="name" v="Grønvola" />
>>>>>>> e1d4bc35ff8a6074a6f2e91616a996b547c36f15
		<tag k="natural" v="hill" />
		<tag k="place" v="locality" />
		<tag k="ssr:stedsnr" v="904878" />
	</node>
<<<<<<< HEAD
	<node lat="62.185599997618915" lon="10.508405546180697" id="-24764">
		<tag k="name" v="Langsæterlia" />
		<tag k="natural" v="slope" />
=======
	<node id="-355216" lat="62.1525666656" lon="10.5937583324">
		<tag k="alt_name" v="Steinen" />
		<tag k="fixme" v="consider natural=peak for the most distinct mountains in the district" />
		<tag k="name" v="Sten" />
		<tag k="natural" v="hill" />
>>>>>>> e1d4bc35ff8a6074a6f2e91616a996b547c36f15
		<tag k="place" v="locality" />
		<tag k="ssr:stedsnr" v="780760" />
	</node>
<<<<<<< HEAD
	<node lat="62.175472220999616" lon="10.482236109510893" id="-24765">
		<tag k="name" v="Bratthaugan" />
		<tag k="natural" v="slope" />
		<tag k="place" v="locality" />
		<tag k="ssr:stedsnr" v="780769" />
	</node>
	<node lat="62.1517083378378" lon="10.688244443547175" id="-24770">
		<tag k="name" v="Kluvan" />
		<tag k="natural" v="valley" />
		<tag k="place" v="locality" />
		<tag k="ssr:stedsnr" v="780816" />
	</node>
	<node lat="62.25191111211213" lon="10.402594445264777" id="-24771">
		<tag k="name" v="Grøtberget" />
=======
	<node id="-355214" lat="62.0116916674" lon="10.7622000076">
		<tag k="name" v="Rundhaugen" />
>>>>>>> e1d4bc35ff8a6074a6f2e91616a996b547c36f15
		<tag k="natural" v="hill" />
		<tag k="place" v="locality" />
		<tag k="ssr:stedsnr" v="780900" />
	</node>
	<node lat="62.07813888660007" lon="10.66215277691228" id="-24776">
		<tag k="name" v="Stormoen" />
		<tag k="place" v="locality" />
		<tag k="ssr:stedsnr" v="781862" />
	</node>
	<node lat="62.05501389225708" lon="10.80609166971407" id="-24780">
		<tag k="name" v="Gaupskardet" />
		<tag k="natural" v="valley" />
		<tag k="place" v="locality" />
		<tag k="ssr:stedsnr" v="799009" />
	</node>
<<<<<<< HEAD
	<node lat="62.0594583348563" lon="10.542800003050667" id="-24784">
=======
	<node id="-355212" lat="62.0729194423" lon="10.7508750085">
		<tag k="alt_name" v="Veslefjellet" />
>>>>>>> e1d4bc35ff8a6074a6f2e91616a996b547c36f15
		<tag k="fixme" v="consider natural=peak for the most distinct mountains in the district" />
		<tag k="name" v="Finnbudalskletten" />
		<tag k="natural" v="hill" />
		<tag k="place" v="locality" />
		<tag k="ssr:stedsnr" v="799154" />
	</node>
<<<<<<< HEAD
	<node lat="62.06701666735942" lon="10.445866667828563" id="-24785">
=======
	<node id="-355211" lat="62.0664555558" lon="10.7379499906">
>>>>>>> e1d4bc35ff8a6074a6f2e91616a996b547c36f15
		<tag k="fixme" v="consider natural=peak for the most distinct mountains in the district" />
		<tag k="name" v="Storskardkampen" />
		<tag k="natural" v="hill" />
		<tag k="place" v="locality" />
		<tag k="ssr:stedsnr" v="799155" />
	</node>
<<<<<<< HEAD
	<node lat="61.914369447761594" lon="10.616591672419789" id="-24788">
		<tag k="name" v="Kuven" />
		<tag k="natural" v="valley" />
=======
	<node id="-355208" lat="61.9292061317" lon="10.3152862889">
		<tag k="fixme" v="multiple name tags, choose one and add the other to alt_name; consider natural=peak for the most distinct mountains in the district" />
		<tag k="name" v="Bogen;Musvola" />
		<tag k="natural" v="hill" />
>>>>>>> e1d4bc35ff8a6074a6f2e91616a996b547c36f15
		<tag k="place" v="locality" />
		<tag k="ssr:stedsnr" v="799495" />
	</node>
<<<<<<< HEAD
	<node lat="62.05985277532826" lon="10.785502775688604" id="-24790">
=======
	<node id="-355206" lat="61.9713749958" lon="10.3354250004">
>>>>>>> e1d4bc35ff8a6074a6f2e91616a996b547c36f15
		<tag k="fixme" v="consider natural=peak for the most distinct mountains in the district" />
		<tag k="name" v="Gaupskardkampen" />
		<tag k="natural" v="hill" />
		<tag k="place" v="locality" />
		<tag k="ssr:stedsnr" v="800013" />
	</node>
<<<<<<< HEAD
	<node lat="62.25227499993509" lon="10.438136119817557" id="-24791">
		<tag k="alt_name" v="Svarthugu" />
		<tag k="name" v="Svarthuet" />
=======
	<node id="-355201" lat="61.9656222267" lon="10.8332722228">
		<tag k="alt_name" v="Nordisætervorda" />
		<tag k="fixme" v="consider natural=peak for the most distinct mountains in the district" />
		<tag k="name" v="Nordisætervola" />
>>>>>>> e1d4bc35ff8a6074a6f2e91616a996b547c36f15
		<tag k="natural" v="hill" />
		<tag k="place" v="locality" />
		<tag k="ssr:stedsnr" v="800032" />
	</node>
<<<<<<< HEAD
	<node lat="62.00237500072695" lon="10.913216661709383" id="-24792">
		<tag k="name" v="Jutulhogget" />
		<tag k="natural" v="valley" />
=======
	<node id="-355198" lat="62.1314416639" lon="10.3628249951">
		<tag k="alt_name" v="Veslekampen" />
		<tag k="fixme" v="consider natural=peak for the most distinct mountains in the district" />
		<tag k="name" v="Veslkampen" />
		<tag k="natural" v="hill" />
>>>>>>> e1d4bc35ff8a6074a6f2e91616a996b547c36f15
		<tag k="place" v="locality" />
		<tag k="ssr:stedsnr" v="800435" />
	</node>
<<<<<<< HEAD
	<node lat="61.99186944854765" lon="10.736697222000325" id="-24793">
		<tag k="alt_name" v="Skarvvorda" />
		<tag k="fixme" v="consider natural=peak for the most distinct mountains in the district" />
		<tag k="name" v="Skarvvola" />
=======
	<node id="-355189" lat="62.1325000033" lon="10.6993833291">
		<tag k="name" v="Vesleåsen" />
>>>>>>> e1d4bc35ff8a6074a6f2e91616a996b547c36f15
		<tag k="natural" v="hill" />
		<tag k="place" v="locality" />
		<tag k="ssr:stedsnr" v="800328" />
	</node>
<<<<<<< HEAD
	<node lat="62.143857055612266" lon="10.371188856326135" id="-24802">
=======
	<node id="-355184" lat="62.1235138921" lon="10.5008249941">
>>>>>>> e1d4bc35ff8a6074a6f2e91616a996b547c36f15
		<tag k="fixme" v="consider natural=peak for the most distinct mountains in the district" />
		<tag k="name" v="Storkampen" />
		<tag k="natural" v="hill" />
		<tag k="place" v="locality" />
		<tag k="ssr:stedsnr" v="921052" />
	</node>
<<<<<<< HEAD
	<node lat="62.15121944166456" lon="10.47352499474702" id="-24803">
=======
	<node id="-355180" lat="62.0928722193" lon="10.3130777863">
>>>>>>> e1d4bc35ff8a6074a6f2e91616a996b547c36f15
		<tag k="fixme" v="consider natural=peak for the most distinct mountains in the district" />
		<tag k="name" v="Tollåsen" />
		<tag k="natural" v="hill" />
		<tag k="place" v="locality" />
<<<<<<< HEAD
		<tag k="ssr:stedsnr" v="921057" />
	</node>
	<node lat="62.15906389061421" lon="10.38271388095836" id="-24804">
		<tag k="alt_name" v="Kolletvorda" />
		<tag k="fixme" v="consider natural=peak for the most distinct mountains in the district" />
		<tag k="name" v="Kolletvola" />
		<tag k="natural" v="hill" />
=======
		<tag k="ssr:stedsnr" v="617267" />
	</node>
	<node id="-355171" lat="62.2168027823" lon="10.5524222187">
		<tag k="loc_name" v="Sivildalen" />
		<tag k="name" v="Sivilldalen" />
		<tag k="natural" v="valley" />
		<tag k="place" v="locality" />
		<tag k="ssr:stedsnr" v="617095" />
	</node>
	<node id="-355170" lat="62.2173416632" lon="10.5748611185">
		<tag k="name" v="Fossmoen" />
>>>>>>> e1d4bc35ff8a6074a6f2e91616a996b547c36f15
		<tag k="place" v="locality" />
		<tag k="ssr:stedsnr" v="921060" />
	</node>
<<<<<<< HEAD
	<node lat="62.21774722451578" lon="10.408588893517466" id="-24805">
		<tag k="alt_name" v="Lomnesvorda" />
=======
	<node id="-355165" lat="62.0776916627" lon="10.2825055566">
		<tag k="alt_name" v="Kjemsjøvorda" />
>>>>>>> e1d4bc35ff8a6074a6f2e91616a996b547c36f15
		<tag k="fixme" v="consider natural=peak for the most distinct mountains in the district" />
		<tag k="name" v="Lomnesvola" />
		<tag k="natural" v="hill" />
		<tag k="place" v="locality" />
		<tag k="ssr:stedsnr" v="921069" />
	</node>
<<<<<<< HEAD
	<node lat="62.13754228039885" lon="10.709004729208111" id="-24826">
		<tag k="name" v="Svartåsen" />
		<tag k="natural" v="hill" />
=======
	<node id="-355161" lat="62.0554222254" lon="10.7475249938">
		<tag k="name" v="Vesletorvet" />
>>>>>>> e1d4bc35ff8a6074a6f2e91616a996b547c36f15
		<tag k="place" v="locality" />
		<tag k="ssr:stedsnr" v="841833" />
	</node>
<<<<<<< HEAD
	<node lat="62.068086114355836" lon="10.591897221429983" id="-24830">
		<tag k="name" v="Klokkerkampen" />
=======
	<node id="-355159" lat="61.9691638925" lon="10.7804555601">
		<tag k="name" v="Drøppelhaugen" />
>>>>>>> e1d4bc35ff8a6074a6f2e91616a996b547c36f15
		<tag k="natural" v="hill" />
		<tag k="place" v="locality" />
		<tag k="ssr:stedsnr" v="843194" />
	</node>
<<<<<<< HEAD
	<node lat="61.93743333088896" lon="10.68492777913446" id="-24835">
		<tag k="fixme" v="consider natural=peak for the most distinct mountains in the district" />
		<tag k="name" v="Skardkampen" />
=======
	<node id="-355156" lat="61.9796388865" lon="10.8076333421">
		<tag k="name" v="Gammelvanghaugen" />
>>>>>>> e1d4bc35ff8a6074a6f2e91616a996b547c36f15
		<tag k="natural" v="hill" />
		<tag k="place" v="locality" />
		<tag k="ssr:stedsnr" v="859417" />
	</node>
<<<<<<< HEAD
	<node lat="61.977025004303165" lon="10.15495555229813" id="-24838">
		<tag k="fixme" v="consider natural=peak for the most distinct mountains in the district" />
		<tag k="name" v="Bukletten" />
=======
	<node id="-355153" lat="62.0808944435" lon="10.5965111038">
		<tag k="name" v="Gråhauan" />
>>>>>>> e1d4bc35ff8a6074a6f2e91616a996b547c36f15
		<tag k="natural" v="hill" />
		<tag k="place" v="locality" />
		<tag k="ssr:stedsnr" v="859472" />
	</node>
<<<<<<< HEAD
	<node lat="62.19077778081132" lon="10.576030548275014" id="-24843">
		<tag k="fixme" v="consider natural=peak for the most distinct mountains in the district" />
		<tag k="name" v="Gravåsen" />
		<tag k="natural" v="hill" />
=======
	<node id="-355151" lat="62.1100222244" lon="10.6902250027">
		<tag k="name" v="Djupdalen" />
		<tag k="natural" v="valley" />
>>>>>>> e1d4bc35ff8a6074a6f2e91616a996b547c36f15
		<tag k="place" v="locality" />
		<tag k="ssr:stedsnr" v="860112" />
	</node>
<<<<<<< HEAD
	<node lat="62.03876666609929" lon="10.804363884822184" id="-24846">
		<tag k="alt_name" v="Nordre Bellingen" />
		<tag k="name" v="Veslbellingen" />
=======
	<node id="-355147" lat="62.1198527759" lon="10.3676388935">
		<tag k="name" v="Knausen" />
>>>>>>> e1d4bc35ff8a6074a6f2e91616a996b547c36f15
		<tag k="natural" v="hill" />
		<tag k="place" v="locality" />
		<tag k="ssr:stedsnr" v="860062" />
	</node>
<<<<<<< HEAD
	<node lat="62.12063610905041" lon="10.446561117425377" id="-24849">
		<tag k="alt_name" v="Jotåsen" />
		<tag k="fixme" v="consider natural=peak for the most distinct mountains in the district" />
		<tag k="name" v="Gjotåsen" />
=======
	<node id="-355143" lat="62.1934555534" lon="10.5003777771">
		<tag k="name" v="Kvitvola" />
>>>>>>> e1d4bc35ff8a6074a6f2e91616a996b547c36f15
		<tag k="natural" v="hill" />
		<tag k="place" v="locality" />
		<tag k="ssr:stedsnr" v="860227" />
	</node>
<<<<<<< HEAD
	<node lat="62.039397219673056" lon="10.217549992310108" id="-24855">
		<tag k="name" v="Beithaugen" />
=======
	<node id="-355142" lat="62.1038833363" lon="10.4465694456">
		<tag k="name" v="Tørråsen" />
>>>>>>> e1d4bc35ff8a6074a6f2e91616a996b547c36f15
		<tag k="natural" v="hill" />
		<tag k="place" v="locality" />
		<tag k="ssr:stedsnr" v="860457" />
	</node>
<<<<<<< HEAD
	<node lat="62.218011110627934" lon="10.62413054599839" id="-24856">
		<tag k="fixme" v="consider natural=peak for the most distinct mountains in the district" />
		<tag k="name" v="Brennåsen" />
		<tag k="natural" v="hill" />
=======
	<node id="-355141" lat="62.2038555592" lon="10.6265722151">
		<tag k="name" v="Lillestrøm" />
>>>>>>> e1d4bc35ff8a6074a6f2e91616a996b547c36f15
		<tag k="place" v="locality" />
		<tag k="ssr:stedsnr" v="861070" />
	</node>
<<<<<<< HEAD
	<node lat="62.11223611399364" lon="10.662102782429834" id="-24868">
		<tag k="name" v="Storbrekka" />
		<tag k="natural" v="hill" />
=======
	<node id="-355137" lat="62.1438277796" lon="10.55147778">
		<tag k="name" v="Løengholmen" />
>>>>>>> e1d4bc35ff8a6074a6f2e91616a996b547c36f15
		<tag k="place" v="locality" />
		<tag k="ssr:stedsnr" v="903000" />
	</node>
<<<<<<< HEAD
	<node lat="62.00510000389173" lon="10.898238895926102" id="-24877">
=======
	<node id="-355134" lat="62.2118750035" lon="10.5553611054">
>>>>>>> e1d4bc35ff8a6074a6f2e91616a996b547c36f15
		<tag k="fixme" v="consider natural=peak for the most distinct mountains in the district" />
		<tag k="name" v="Barkaldkjølen" />
		<tag k="natural" v="hill" />
		<tag k="place" v="locality" />
		<tag k="ssr:stedsnr" v="904661" />
	</node>
<<<<<<< HEAD
	<node lat="62.132241669754436" lon="10.296372222207156" id="-24882">
		<tag k="name" v="Vissmannkletten" />
		<tag k="natural" v="hill" />
=======
	<node id="-355132" lat="62.060708335" lon="10.3836250093">
		<tag k="name" v="Løpa" />
>>>>>>> e1d4bc35ff8a6074a6f2e91616a996b547c36f15
		<tag k="place" v="locality" />
		<tag k="ssr:stedsnr" v="920198" />
	</node>
<<<<<<< HEAD
	<node lat="61.949063886870256" lon="10.603286103135856" id="-24884">
		<tag k="name" v="Storhøfløyet" />
=======
	<node id="-355131" lat="62.0590611074" lon="10.3857666731">
		<tag k="name" v="Haugan" />
		<tag k="natural" v="hill" />
>>>>>>> e1d4bc35ff8a6074a6f2e91616a996b547c36f15
		<tag k="place" v="locality" />
		<tag k="ssr:stedsnr" v="920417" />
	</node>
<<<<<<< HEAD
	<node lat="62.19035000051134" lon="10.59716388216986" id="-24887">
		<tag k="name" v="Skifthaugen" />
		<tag k="natural" v="hill" />
=======
	<node id="-355126" lat="62.258722219" lon="10.3657972276">
		<tag k="name" v="Elgtjønnbakken" />
		<tag k="natural" v="slope" />
>>>>>>> e1d4bc35ff8a6074a6f2e91616a996b547c36f15
		<tag k="place" v="locality" />
		<tag k="ssr:stedsnr" v="921032" />
	</node>
<<<<<<< HEAD
	<node lat="62.139494447387776" lon="10.311536109444758" id="-24888">
		<tag k="alt_name" v="Tverrlivorda" />
		<tag k="name" v="Tverrlivola" />
=======
	<node id="-355122" lat="62.2133333341" lon="10.4652305488">
		<tag k="alt_name" v="Lomsjøvorda" />
		<tag k="fixme" v="consider natural=peak for the most distinct mountains in the district" />
		<tag k="name" v="Lomsjøvola" />
>>>>>>> e1d4bc35ff8a6074a6f2e91616a996b547c36f15
		<tag k="natural" v="hill" />
		<tag k="place" v="locality" />
		<tag k="ssr:stedsnr" v="921041" />
	</node>
<<<<<<< HEAD
	<node lat="62.19259166885138" lon="10.541799996190772" id="-24890">
=======
	<node id="-355121" lat="62.0465499994" lon="10.2088194516">
>>>>>>> e1d4bc35ff8a6074a6f2e91616a996b547c36f15
		<tag k="fixme" v="consider natural=peak for the most distinct mountains in the district" />
		<tag k="name" v="Høgåsen" />
		<tag k="natural" v="hill" />
		<tag k="place" v="locality" />
		<tag k="ssr:stedsnr" v="921090" />
	</node>
<<<<<<< HEAD
	<node lat="62.04089166605589" lon="10.439691672458029" id="-24893">
		<tag k="fixme" v="consider natural=peak for the most distinct mountains in the district" />
		<tag k="name" v="Røskåsen" />
=======
	<node id="-355119" lat="62.0990749971" lon="10.3818749993">
		<tag k="name" v="Lauvhaugen" />
>>>>>>> e1d4bc35ff8a6074a6f2e91616a996b547c36f15
		<tag k="natural" v="hill" />
		<tag k="place" v="locality" />
		<tag k="ssr:stedsnr" v="921166" />
	</node>
<<<<<<< HEAD
	<node lat="62.058355552151966" lon="10.492736102194524" id="-24895">
		<tag k="name" v="Vardtjønnskardet" />
=======
	<node id="-355115" lat="62.0383250035" lon="10.6496055618">
		<tag k="alt_name" v="Urskardet" />
		<tag k="name" v="Urdskardet" />
>>>>>>> e1d4bc35ff8a6074a6f2e91616a996b547c36f15
		<tag k="natural" v="valley" />
		<tag k="place" v="locality" />
		<tag k="ssr:stedsnr" v="921183" />
	</node>
<<<<<<< HEAD
	<node lat="62.03850277634326" lon="10.674594442950879" id="-24897">
		<tag k="alt_name" v="Blåvorda" />
=======
	<node id="-355113" lat="62.0252250038" lon="10.5309555604">
>>>>>>> e1d4bc35ff8a6074a6f2e91616a996b547c36f15
		<tag k="fixme" v="consider natural=peak for the most distinct mountains in the district" />
		<tag k="name" v="Blåvola" />
		<tag k="natural" v="hill" />
		<tag k="place" v="locality" />
		<tag k="ssr:stedsnr" v="921197" />
	</node>
<<<<<<< HEAD
	<node lat="62.115649997439405" lon="10.291452777713218" id="-24900">
		<tag k="name" v="Svartåsen" />
		<tag k="natural" v="hill" />
=======
	<node id="-355109" lat="62.1092805512" lon="10.3213055507">
		<tag k="name" v="Haustdalen" />
		<tag k="natural" v="valley" />
>>>>>>> e1d4bc35ff8a6074a6f2e91616a996b547c36f15
		<tag k="place" v="locality" />
		<tag k="ssr:stedsnr" v="937833" />
	</node>
<<<<<<< HEAD
	<node lat="62.13564999839896" lon="10.476722230785587" id="-24901">
		<tag k="name" v="Svartåsmoen" />
=======
	<node id="-355105" lat="62.2066111129" lon="10.6854861086">
		<tag k="fixme" v="consider natural=peak for the most distinct mountains in the district" />
		<tag k="name" v="Aumåsen" />
		<tag k="natural" v="hill" />
>>>>>>> e1d4bc35ff8a6074a6f2e91616a996b547c36f15
		<tag k="place" v="locality" />
		<tag k="ssr:stedsnr" v="962638" />
	</node>
<<<<<<< HEAD
	<node lat="62.196574998468414" lon="10.510133342300165" id="-24903">
		<tag k="name" v="Geitkletten" />
		<tag k="natural" v="hill" />
=======
	<node id="-355096" lat="61.9595527739" lon="10.3278666642">
		<tag k="alt_name" v="Kvolvi, indre" />
		<tag k="name" v="Indre Kvolvet" />
		<tag k="natural" v="valley" />
>>>>>>> e1d4bc35ff8a6074a6f2e91616a996b547c36f15
		<tag k="place" v="locality" />
		<tag k="ssr:stedsnr" v="962786" />
	</node>
<<<<<<< HEAD
	<node lat="62.12913889096455" lon="10.296769438979833" id="-24904">
		<tag k="name" v="Vissmannlia" />
		<tag k="natural" v="slope" />
=======
	<node id="-355088" lat="62.0955055526" lon="10.7068777778">
		<tag k="name" v="Slettmoen" />
>>>>>>> e1d4bc35ff8a6074a6f2e91616a996b547c36f15
		<tag k="place" v="locality" />
		<tag k="ssr:stedsnr" v="962886" />
	</node>
<<<<<<< HEAD
	<node lat="62.02217222469768" lon="10.613694439588903" id="-24906">
		<tag k="name" v="Storhaugen" />
=======
	<node id="-355086" lat="62.2792777741" lon="10.3447333274">
		<tag k="name" v="Rundhaugan" />
>>>>>>> e1d4bc35ff8a6074a6f2e91616a996b547c36f15
		<tag k="natural" v="hill" />
		<tag k="place" v="locality" />
		<tag k="ssr:stedsnr" v="963688" />
	</node>
<<<<<<< HEAD
	<node lat="62.02143055721211" lon="10.63006388792882" id="-24908">
		<tag k="name" v="Bjønndalen" />
		<tag k="natural" v="valley" />
=======
	<node id="-355083" lat="62.100330558" lon="10.3006749941">
		<tag k="alt_name" v="Kjemsjøsæterlia" />
		<tag k="name" v="Kjemsjølia" />
		<tag k="natural" v="slope" />
>>>>>>> e1d4bc35ff8a6074a6f2e91616a996b547c36f15
		<tag k="place" v="locality" />
		<tag k="ssr:stedsnr" v="964611" />
	</node>
<<<<<<< HEAD
	<node lat="62.197319446633244" lon="10.667794452185051" id="-24909">
		<tag k="name" v="Nyskrea" />
		<tag k="natural" v="valley" />
=======
	<node id="-355080" lat="62.113974999" lon="10.4080888942">
		<tag k="name" v="Rya" />
>>>>>>> e1d4bc35ff8a6074a6f2e91616a996b547c36f15
		<tag k="place" v="locality" />
		<tag k="ssr:stedsnr" v="964846" />
	</node>
<<<<<<< HEAD
	<node lat="62.07062499721145" lon="10.233730550377235" id="-24918">
=======
	<node id="-355073" lat="62.006875001" lon="10.3209277775">
>>>>>>> e1d4bc35ff8a6074a6f2e91616a996b547c36f15
		<tag k="fixme" v="consider natural=peak for the most distinct mountains in the district" />
		<tag k="name" v="Langfjellet" />
		<tag k="natural" v="hill" />
		<tag k="place" v="locality" />
		<tag k="ssr:stedsnr" v="10364" />
	</node>
<<<<<<< HEAD
	<node lat="62.053972219195664" lon="10.187038888690678" id="-24922">
		<tag k="name" v="Storrøsta" />
		<tag k="natural" v="valley" />
=======
	<node id="-355071" lat="62.1620499989" lon="10.6975249949">
		<tag k="name" v="Blåskarven" />
		<tag k="natural" v="hill" />
>>>>>>> e1d4bc35ff8a6074a6f2e91616a996b547c36f15
		<tag k="place" v="locality" />
		<tag k="ssr:stedsnr" v="10382" />
	</node>
<<<<<<< HEAD
	<node lat="61.9838166633109" lon="10.726677784882307" id="-24923">
		<tag k="alt_name" v="Fjellrøstvorda" />
=======
	<node id="-355067" lat="62.0790555518" lon="10.7828388873">
>>>>>>> e1d4bc35ff8a6074a6f2e91616a996b547c36f15
		<tag k="fixme" v="consider natural=peak for the most distinct mountains in the district" />
		<tag k="name" v="Fjellrøstvola" />
		<tag k="natural" v="hill" />
		<tag k="place" v="locality" />
		<tag k="ssr:stedsnr" v="10450" />
	</node>
<<<<<<< HEAD
	<node lat="61.95364444303466" lon="10.202844437925378" id="-24924">
		<tag k="alt_name" v="Breidsjøkinn" />
=======
	<node id="-355065" lat="61.9525249966" lon="10.9377611079">
>>>>>>> e1d4bc35ff8a6074a6f2e91616a996b547c36f15
		<tag k="fixme" v="consider natural=peak for the most distinct mountains in the district" />
		<tag k="loc_name" v="Breisjøfjellet" />
		<tag k="name" v="Breidsjøkinna" />
		<tag k="natural" v="hill" />
		<tag k="place" v="locality" />
		<tag k="ssr:stedsnr" v="10625" />
	</node>
<<<<<<< HEAD
	<node lat="62.151927778900095" lon="10.677672219693891" id="-24925">
		<tag k="alt_name" v="Gråvorda" />
		<tag k="name" v="Gråvola" />
=======
	<node id="-355064" lat="61.9639500032" lon="10.5470000063">
		<tag k="fixme" v="consider natural=peak for the most distinct mountains in the district" />
		<tag k="name" v="Storhøa" />
>>>>>>> e1d4bc35ff8a6074a6f2e91616a996b547c36f15
		<tag k="natural" v="hill" />
		<tag k="place" v="locality" />
		<tag k="ssr:stedsnr" v="11050" />
	</node>
<<<<<<< HEAD
	<node lat="62.155127776643155" lon="10.400338895083639" id="-24926">
		<tag k="name" v="Vakkerlia" />
		<tag k="natural" v="slope" />
=======
	<node id="-355062" lat="61.9532027822" lon="10.5674083389">
		<tag k="fixme" v="consider natural=peak for the most distinct mountains in the district" />
		<tag k="name" v="Prekstolen" />
		<tag k="natural" v="hill" />
>>>>>>> e1d4bc35ff8a6074a6f2e91616a996b547c36f15
		<tag k="place" v="locality" />
		<tag k="ssr:stedsnr" v="11055" />
	</node>
<<<<<<< HEAD
	<node lat="62.061027781870294" lon="10.522769450666551" id="-24930">
		<tag k="name" v="Finnbudalen" />
		<tag k="natural" v="valley" />
=======
	<node id="-355058" lat="62.0980388922" lon="10.5895111138">
		<tag k="alt_name" v="Bogsberget" />
		<tag k="name" v="Baugsberget" />
		<tag k="natural" v="hill" />
>>>>>>> e1d4bc35ff8a6074a6f2e91616a996b547c36f15
		<tag k="place" v="locality" />
		<tag k="ssr:stedsnr" v="11119" />
	</node>
<<<<<<< HEAD
	<node lat="62.09933045465387" lon="10.41464666340362" id="-24931">
		<tag k="fixme" v="consider natural=peak for the most distinct mountains in the district" />
		<tag k="name" v="Tjønnåsstein" />
=======
	<node id="-355048" lat="62.0461250003" lon="10.5877861026">
		<tag k="name" v="Aumdalsbakkan" />
>>>>>>> e1d4bc35ff8a6074a6f2e91616a996b547c36f15
		<tag k="natural" v="hill" />
		<tag k="place" v="locality" />
		<tag k="ssr:stedsnr" v="11211" />
	</node>
<<<<<<< HEAD
	<node lat="62.026163886451165" lon="10.342805560295991" id="-24935">
		<tag k="name" v="Kveldshaugen" />
=======
	<node id="-355046" lat="62.0394500002" lon="10.548125008">
		<tag k="name" v="Skårhaugen" />
>>>>>>> e1d4bc35ff8a6074a6f2e91616a996b547c36f15
		<tag k="natural" v="hill" />
		<tag k="place" v="locality" />
		<tag k="ssr:stedsnr" v="11151" />
	</node>
<<<<<<< HEAD
	<node lat="62.01790833330864" lon="10.433505546986932" id="-24936">
		<tag k="fixme" v="consider natural=peak for the most distinct mountains in the district" />
		<tag k="name" v="Nysæterhøa" />
=======
	<node id="-355039" lat="62.0893138867" lon="10.6991666594">
		<tag k="name" v="Vesleberget" />
>>>>>>> e1d4bc35ff8a6074a6f2e91616a996b547c36f15
		<tag k="natural" v="hill" />
		<tag k="place" v="locality" />
		<tag k="ssr:stedsnr" v="11157" />
	</node>
<<<<<<< HEAD
	<node lat="62.05896389000743" lon="10.408424992097185" id="-24937">
		<tag k="fixme" v="consider natural=peak for the most distinct mountains in the district" />
		<tag k="name" v="Storkampen" />
=======
	<node id="-355033" lat="62.1547638904" lon="10.4274416613">
		<tag k="name" v="Veslekletten" />
>>>>>>> e1d4bc35ff8a6074a6f2e91616a996b547c36f15
		<tag k="natural" v="hill" />
		<tag k="place" v="locality" />
		<tag k="ssr:stedsnr" v="11165" />
	</node>
<<<<<<< HEAD
	<node lat="62.05338333516797" lon="10.239297229993754" id="-24939">
		<tag k="name" v="Storkletten" />
		<tag k="natural" v="hill" />
=======
	<node id="-355029" lat="62.2736305559" lon="10.3851888831">
		<tag k="name" v="Finnskjeggjota" />
>>>>>>> e1d4bc35ff8a6074a6f2e91616a996b547c36f15
		<tag k="place" v="locality" />
		<tag k="ssr:stedsnr" v="20434" />
	</node>
<<<<<<< HEAD
	<node lat="62.1333277742608" lon="10.522630551831082" id="-24941">
		<tag k="name" v="Skarvhaugen" />
		<tag k="natural" v="hill" />
=======
	<node id="-355027" lat="62.2033277773" lon="10.6261694423">
		<tag k="name" v="Basmoen" />
>>>>>>> e1d4bc35ff8a6074a6f2e91616a996b547c36f15
		<tag k="place" v="locality" />
		<tag k="ssr:stedsnr" v="52633" />
	</node>
<<<<<<< HEAD
	<node lat="62.09664444692072" lon="10.361744438241171" id="-24950">
		<tag k="name" v="Nysætertangen" />
		<tag k="natural" v="slope" />
=======
	<node id="-355025" lat="62.239219441" lon="10.3399833269">
		<tag k="name" v="Stengrubba" />
		<tag k="natural" v="valley" />
>>>>>>> e1d4bc35ff8a6074a6f2e91616a996b547c36f15
		<tag k="place" v="locality" />
		<tag k="ssr:stedsnr" v="52747" />
	</node>
<<<<<<< HEAD
	<node lat="62.209566663359894" lon="10.487249992791895" id="-24952">
		<tag k="name" v="Storstrypet" />
=======
	<node id="-355022" lat="62.2697888884" lon="10.3721027707">
		<tag k="name" v="Skarvdalen" />
		<tag k="natural" v="valley" />
>>>>>>> e1d4bc35ff8a6074a6f2e91616a996b547c36f15
		<tag k="place" v="locality" />
		<tag k="ssr:stedsnr" v="53798" />
	</node>
<<<<<<< HEAD
	<node lat="62.19585833068487" lon="10.700047222411467" id="-24953">
=======
	<node id="-355021" lat="62.0146388861" lon="10.3905944354">
>>>>>>> e1d4bc35ff8a6074a6f2e91616a996b547c36f15
		<tag k="fixme" v="consider natural=peak for the most distinct mountains in the district" />
		<tag k="name" v="Fjøsrabben" />
		<tag k="natural" v="hill" />
		<tag k="place" v="locality" />
		<tag k="ssr:stedsnr" v="54894" />
	</node>
<<<<<<< HEAD
	<node lat="62.198794446672736" lon="10.67609166123861" id="-24954">
		<tag k="name" v="Hollia" />
		<tag k="natural" v="slope" />
=======
	<node id="-355020" lat="62.1496777783" lon="10.7255444394">
		<tag k="alt_name" v="Flattronden" />
		<tag k="name" v="Flattron" />
>>>>>>> e1d4bc35ff8a6074a6f2e91616a996b547c36f15
		<tag k="place" v="locality" />
		<tag k="ssr:stedsnr" v="54895" />
	</node>
<<<<<<< HEAD
	<node lat="62.03963333710188" lon="10.543327772778438" id="-24955">
		<tag k="name" v="Rundhaugen" />
		<tag k="natural" v="hill" />
=======
	<node id="-355019" lat="62.2290000004" lon="10.3965666721">
		<tag k="name" v="Svartlia" />
		<tag k="natural" v="slope" />
>>>>>>> e1d4bc35ff8a6074a6f2e91616a996b547c36f15
		<tag k="place" v="locality" />
		<tag k="ssr:stedsnr" v="54910" />
	</node>
<<<<<<< HEAD
	<node lat="62.18736388498048" lon="10.423522229384833" id="-24963">
		<tag k="name" v="Gråmoen" />
=======
	<node id="-355018" lat="61.9795499962" lon="10.4363055552">
		<tag k="name" v="Kvislåskardet" />
		<tag k="natural" v="valley" />
>>>>>>> e1d4bc35ff8a6074a6f2e91616a996b547c36f15
		<tag k="place" v="locality" />
		<tag k="ssr:stedsnr" v="71096" />
	</node>
<<<<<<< HEAD
	<node lat="62.11417777606142" lon="10.516300003148151" id="-24970">
=======
	<node id="-355016" lat="61.9353777756" lon="10.5725000056">
>>>>>>> e1d4bc35ff8a6074a6f2e91616a996b547c36f15
		<tag k="fixme" v="consider natural=peak for the most distinct mountains in the district" />
		<tag k="name" v="Brottet" />
		<tag k="natural" v="hill" />
		<tag k="place" v="locality" />
		<tag k="ssr:stedsnr" v="71263" />
	</node>
<<<<<<< HEAD
	<node lat="61.98878332896314" lon="10.661897228781084" id="-24973">
=======
	<node id="-355015" lat="62.0088638872" lon="10.7497583288">
>>>>>>> e1d4bc35ff8a6074a6f2e91616a996b547c36f15
		<tag k="fixme" v="consider natural=peak for the most distinct mountains in the district" />
		<tag k="name" v="Gråhøgda" />
		<tag k="natural" v="hill" />
		<tag k="place" v="locality" />
		<tag k="ssr:stedsnr" v="71481" />
	</node>
<<<<<<< HEAD
	<node lat="62.06528610725597" lon="10.271988894221026" id="-24974">
		<tag k="name" v="Skarddalen" />
=======
	<node id="-355013" lat="61.9953527774" lon="10.463091664">
		<tag k="name" v="Kjelkedalen" />
>>>>>>> e1d4bc35ff8a6074a6f2e91616a996b547c36f15
		<tag k="natural" v="valley" />
		<tag k="place" v="locality" />
		<tag k="ssr:stedsnr" v="71158" />
	</node>
<<<<<<< HEAD
	<node lat="62.0958500026471" lon="10.749819437385556" id="-24975">
=======
	<node id="-355012" lat="61.9927833298" lon="10.5334527761">
>>>>>>> e1d4bc35ff8a6074a6f2e91616a996b547c36f15
		<tag k="fixme" v="consider natural=peak for the most distinct mountains in the district" />
		<tag k="name" v="Høyåsen" />
		<tag k="natural" v="hill" />
		<tag k="place" v="locality" />
		<tag k="ssr:stedsnr" v="71721" />
	</node>
<<<<<<< HEAD
	<node lat="62.14151666933671" lon="10.366816669586035" id="-24977">
		<tag k="alt_name" v="Kvitvorda" />
=======
	<node id="-355004" lat="62.0718083311" lon="10.5671416585">
		<tag k="alt_name" v="Skarvklettene" />
>>>>>>> e1d4bc35ff8a6074a6f2e91616a996b547c36f15
		<tag k="fixme" v="consider natural=peak for the most distinct mountains in the district" />
		<tag k="name" v="Kvitvola" />
		<tag k="natural" v="hill" />
		<tag k="place" v="locality" />
		<tag k="ssr:stedsnr" v="72038" />
	</node>
<<<<<<< HEAD
	<node lat="62.18100555183055" lon="10.561866658304252" id="-24985">
		<tag k="name" v="Brekkbekkdalen" />
		<tag k="natural" v="valley" />
=======
	<node id="-355003" lat="62.0751999983" lon="10.5339527869">
		<tag k="alt_name" v="Dokk-kampen" />
		<tag k="fixme" v="consider natural=peak for the most distinct mountains in the district" />
		<tag k="name" v="Dokkampen" />
		<tag k="natural" v="hill" />
>>>>>>> e1d4bc35ff8a6074a6f2e91616a996b547c36f15
		<tag k="place" v="locality" />
		<tag k="ssr:stedsnr" v="112794" />
	</node>
<<<<<<< HEAD
	<node lat="62.20815833414922" lon="10.521927768780387" id="-24992">
		<tag k="name" v="Klettlia" />
		<tag k="natural" v="slope" />
=======
	<node id="-354999" lat="62.1827777812" lon="10.5303888892">
		<tag k="fixme" v="consider natural=peak for the most distinct mountains in the district" />
		<tag k="name" v="Brottåsen" />
		<tag k="natural" v="hill" />
>>>>>>> e1d4bc35ff8a6074a6f2e91616a996b547c36f15
		<tag k="place" v="locality" />
		<tag k="ssr:stedsnr" v="113778" />
	</node>
<<<<<<< HEAD
	<node lat="62.22021389240988" lon="10.490013895828733" id="-24993">
		<tag k="name" v="Tangen" />
		<tag k="natural" v="slope" />
=======
	<node id="-354998" lat="62.1723333371" lon="10.5928333314">
		<tag k="name" v="Brandvålsberget" />
		<tag k="natural" v="hill" />
>>>>>>> e1d4bc35ff8a6074a6f2e91616a996b547c36f15
		<tag k="place" v="locality" />
		<tag k="ssr:stedsnr" v="113779" />
	</node>
<<<<<<< HEAD
	<node lat="62.067863888960396" lon="10.385688893438843" id="-24995">
		<tag k="name" v="Sølnmoen" />
=======
	<node id="-354996" lat="62.1705805581" lon="10.3823500026">
		<tag k="fixme" v="consider natural=peak for the most distinct mountains in the district" />
		<tag k="name" v="Langåsen" />
		<tag k="natural" v="hill" />
>>>>>>> e1d4bc35ff8a6074a6f2e91616a996b547c36f15
		<tag k="place" v="locality" />
		<tag k="ssr:stedsnr" v="113786" />
	</node>
<<<<<<< HEAD
	<node lat="62.13634167003963" lon="10.590569440662682" id="-24996">
		<tag k="name" v="Måna" />
=======
	<node id="-354994" lat="61.9509027766" lon="10.2334861074">
		<tag k="alt_name" v="Langrandin" />
		<tag k="name" v="Langranden" />
>>>>>>> e1d4bc35ff8a6074a6f2e91616a996b547c36f15
		<tag k="natural" v="slope" />
		<tag k="place" v="locality" />
		<tag k="ssr:stedsnr" v="113730" />
	</node>
<<<<<<< HEAD
	<node lat="62.11093055548262" lon="10.652472223966948" id="-24999">
		<tag k="name" v="Veslebrekka" />
=======
	<node id="-354987" lat="62.1431249999" lon="10.6503666618">
		<tag k="name" v="Berget" />
>>>>>>> e1d4bc35ff8a6074a6f2e91616a996b547c36f15
		<tag k="natural" v="hill" />
		<tag k="place" v="locality" />
		<tag k="ssr:stedsnr" v="113763" />
	</node>
<<<<<<< HEAD
	<node lat="62.12823888616462" lon="10.508077773323695" id="-25006">
		<tag k="alt_name" v="Drivla" />
		<tag k="fixme" v="consider natural=peak for the most distinct mountains in the district" />
		<tag k="name" v="Divlet" />
=======
	<node id="-354986" lat="62.1644888882" lon="10.6206499904">
		<tag k="name" v="Egga" />
>>>>>>> e1d4bc35ff8a6074a6f2e91616a996b547c36f15
		<tag k="natural" v="hill" />
		<tag k="place" v="locality" />
		<tag k="ssr:stedsnr" v="131194" />
	</node>
<<<<<<< HEAD
	<node lat="61.975558334606404" lon="10.433961106971896" id="-25009">
		<tag k="fixme" v="consider natural=peak for the most distinct mountains in the district" />
		<tag k="name" v="Knatten" />
		<tag k="natural" v="hill" />
=======
	<node id="-354980" lat="62.1088999989" lon="10.6456194509">
		<tag k="name" v="Kattmoen" />
>>>>>>> e1d4bc35ff8a6074a6f2e91616a996b547c36f15
		<tag k="place" v="locality" />
		<tag k="ssr:stedsnr" v="131425" />
	</node>
<<<<<<< HEAD
	<node lat="61.97159444267842" lon="10.480230552213923" id="-25010">
		<tag k="fixme" v="consider natural=peak for the most distinct mountains in the district" />
		<tag k="name" v="Korsberghøa" />
		<tag k="natural" v="hill" />
=======
	<node id="-354975" lat="62.1235944472" lon="10.3676138968">
		<tag k="name" v="Jotvola" />
		<tag k="natural" v="slope" />
>>>>>>> e1d4bc35ff8a6074a6f2e91616a996b547c36f15
		<tag k="place" v="locality" />
		<tag k="ssr:stedsnr" v="131427" />
	</node>
<<<<<<< HEAD
	<node lat="61.968802780702944" lon="10.400108328465084" id="-25011">
		<tag k="name" v="Slettfatet" />
		<tag k="natural" v="valley" />
=======
	<node id="-354974" lat="62.1438750015" lon="10.3713638947">
		<tag k="name" v="Storkampen" />
		<tag k="natural" v="hill" />
>>>>>>> e1d4bc35ff8a6074a6f2e91616a996b547c36f15
		<tag k="place" v="locality" />
		<tag k="ssr:stedsnr" v="131436" />
	</node>
<<<<<<< HEAD
	<node lat="61.91407778201436" lon="10.281086114446348" id="-25014">
		<tag k="name" v="Skjellåkroken" />
		<tag k="natural" v="valley" />
		<tag k="place" v="locality" />
		<tag k="ssr:stedsnr" v="131555" />
	</node>
	<node lat="62.11800278108177" lon="10.459475004290539" id="-25015">
		<tag k="fixme" v="consider natural=peak for the most distinct mountains in the district" />
		<tag k="name" v="Høgåsen" />
=======
	<node id="-354973" lat="62.176197218" lon="10.3938722226">
		<tag k="name" v="Skrabben" />
>>>>>>> e1d4bc35ff8a6074a6f2e91616a996b547c36f15
		<tag k="natural" v="hill" />
		<tag k="place" v="locality" />
		<tag k="ssr:stedsnr" v="131712" />
	</node>
<<<<<<< HEAD
	<node lat="62.06215277463045" lon="10.504416671251732" id="-25024">
		<tag k="alt_name" v="Skrefjellet" />
		<tag k="fixme" v="consider natural=peak for the most distinct mountains in the district" />
		<tag k="name" v="Skredfjellet" />
=======
	<node id="-354971" lat="62.1557638892" lon="10.446808331">
		<tag k="name" v="Storkletten" />
>>>>>>> e1d4bc35ff8a6074a6f2e91616a996b547c36f15
		<tag k="natural" v="hill" />
		<tag k="place" v="locality" />
		<tag k="ssr:stedsnr" v="132116" />
	</node>
<<<<<<< HEAD
	<node lat="62.008458333560476" lon="10.634236103122106" id="-25025">
		<tag k="name" v="Rundhaugen" />
		<tag k="natural" v="hill" />
=======
	<node id="-354968" lat="62.1873861092" lon="10.3905055584">
		<tag k="name" v="Øvre Moen" />
>>>>>>> e1d4bc35ff8a6074a6f2e91616a996b547c36f15
		<tag k="place" v="locality" />
		<tag k="ssr:stedsnr" v="132160" />
	</node>
<<<<<<< HEAD
	<node lat="62.104872223673304" lon="10.67347499105107" id="-25026">
		<tag k="fixme" v="consider natural=peak for the most distinct mountains in the district" />
		<tag k="name" v="Hauståsen" />
		<tag k="natural" v="hill" />
=======
	<node id="-354967" lat="62.184883331" lon="10.390936116">
		<tag k="name" v="Langegga" />
		<tag k="natural" v="slope" />
>>>>>>> e1d4bc35ff8a6074a6f2e91616a996b547c36f15
		<tag k="place" v="locality" />
		<tag k="ssr:stedsnr" v="132241" />
	</node>
<<<<<<< HEAD
	<node lat="62.152366666074016" lon="10.498816673161667" id="-25031">
		<tag k="name" v="Hammermåna" />
=======
	<node id="-354966" lat="62.2480416665" lon="10.3682527845">
		<tag k="name" v="Oksbakken" />
>>>>>>> e1d4bc35ff8a6074a6f2e91616a996b547c36f15
		<tag k="natural" v="slope" />
		<tag k="place" v="locality" />
		<tag k="ssr:stedsnr" v="173645" />
	</node>
<<<<<<< HEAD
	<node lat="62.09588889017007" lon="10.401516665152968" id="-25034">
		<tag k="name" v="Middagshaugen" />
		<tag k="natural" v="hill" />
=======
	<node id="-354965" lat="62.0740833334" lon="10.4554277799">
		<tag k="name" v="Vardlia" />
		<tag k="natural" v="slope" />
>>>>>>> e1d4bc35ff8a6074a6f2e91616a996b547c36f15
		<tag k="place" v="locality" />
		<tag k="ssr:stedsnr" v="173741" />
	</node>
<<<<<<< HEAD
	<node lat="62.20086111240309" lon="10.433911109940153" id="-25036">
		<tag k="name" v="Lomsjødalslia" />
=======
	<node id="-354958" lat="62.1195555592" lon="10.5172611054">
		<tag k="name" v="Langbakken" />
>>>>>>> e1d4bc35ff8a6074a6f2e91616a996b547c36f15
		<tag k="natural" v="slope" />
		<tag k="place" v="locality" />
		<tag k="ssr:stedsnr" v="173970" />
	</node>
<<<<<<< HEAD
	<node lat="62.11552221948317" lon="10.447305553953413" id="-25037">
		<tag k="fixme" v="consider natural=peak for the most distinct mountains in the district" />
		<tag k="name" v="Midtsæteråsen" />
=======
	<node id="-354955" lat="62.1088750035" lon="10.7196083328">
		<tag k="name" v="Bjørnåsen" />
>>>>>>> e1d4bc35ff8a6074a6f2e91616a996b547c36f15
		<tag k="natural" v="hill" />
		<tag k="place" v="locality" />
		<tag k="ssr:stedsnr" v="173987" />
	</node>
<<<<<<< HEAD
	<node lat="62.11896110768458" lon="10.314230560339496" id="-25039">
		<tag k="name" v="Brenna" />
=======
	<node id="-354953" lat="62.1984694431" lon="10.5349722257">
		<tag k="alt_name" v="Veslåsen" />
		<tag k="fixme" v="consider natural=peak for the most distinct mountains in the district" />
		<tag k="name" v="Vesleåsen" />
>>>>>>> e1d4bc35ff8a6074a6f2e91616a996b547c36f15
		<tag k="natural" v="hill" />
		<tag k="place" v="locality" />
		<tag k="ssr:stedsnr" v="173882" />
	</node>
<<<<<<< HEAD
	<node lat="62.25467222401964" lon="10.367538894053444" id="-25041">
		<tag k="name" v="Bjørnsmoen" />
=======
	<node id="-354951" lat="62.1060416679" lon="10.6957888872">
		<tag k="fixme" v="consider natural=peak for the most distinct mountains in the district" />
		<tag k="name" v="Juliåsen" />
		<tag k="natural" v="hill" />
>>>>>>> e1d4bc35ff8a6074a6f2e91616a996b547c36f15
		<tag k="place" v="locality" />
		<tag k="ssr:stedsnr" v="174941" />
	</node>
<<<<<<< HEAD
	<node lat="61.97189722198335" lon="10.764502783002325" id="-25045">
		<tag k="name" v="Kikkerthaugan" />
=======
	<node id="-354950" lat="62.0513111139" lon="10.6667666744">
		<tag k="alt_name" v="Veslvorda" />
		<tag k="fixme" v="consider natural=peak for the most distinct mountains in the district" />
		<tag k="name" v="Veslevola" />
>>>>>>> e1d4bc35ff8a6074a6f2e91616a996b547c36f15
		<tag k="natural" v="hill" />
		<tag k="place" v="locality" />
		<tag k="ssr:stedsnr" v="175663" />
	</node>
<<<<<<< HEAD
	<node lat="61.99856110855549" lon="10.699463881307674" id="-25046">
		<tag k="name" v="Fjellbekkdalen" />
		<tag k="natural" v="valley" />
=======
	<node id="-354946" lat="62.0266611135" lon="10.4615416651">
		<tag k="alt_name" v="Dølbekkhøa, vesle" />
		<tag k="name" v="Vesle Dølbekkhøa" />
		<tag k="natural" v="hill" />
>>>>>>> e1d4bc35ff8a6074a6f2e91616a996b547c36f15
		<tag k="place" v="locality" />
		<tag k="ssr:stedsnr" v="175668" />
	</node>
<<<<<<< HEAD
	<node lat="61.96935555228198" lon="10.862341675474001" id="-25050">
		<tag k="name" v="Rådelshaugen" />
=======
	<node id="-354944" lat="62.0860611123" lon="10.7419611154">
		<tag k="fixme" v="consider natural=peak for the most distinct mountains in the district" />
		<tag k="name" v="Limåsen" />
>>>>>>> e1d4bc35ff8a6074a6f2e91616a996b547c36f15
		<tag k="natural" v="hill" />
		<tag k="place" v="locality" />
		<tag k="ssr:stedsnr" v="175689" />
	</node>
<<<<<<< HEAD
	<node lat="62.055013887262795" lon="10.614513884131329" id="-25053">
		<tag k="name" v="Blåryan" />
		<tag k="natural" v="valley" />
=======
	<node id="-354935" lat="62.0208527749" lon="10.8807250023">
		<tag k="name" v="Barkaldkjølen" />
		<tag k="natural" v="ridge" />
>>>>>>> e1d4bc35ff8a6074a6f2e91616a996b547c36f15
		<tag k="place" v="locality" />
		<tag k="ssr:stedsnr" v="175629" />
	</node>
<<<<<<< HEAD
	<node lat="62.18469444441082" lon="10.607794441165073" id="-25054">
		<tag k="name" v="Strømsberget" />
=======
	<node id="-354931" lat="62.0143583376" lon="10.7441138821">
		<tag k="alt_name" v="Vordkampen" />
		<tag k="name" v="Volkampen" />
>>>>>>> e1d4bc35ff8a6074a6f2e91616a996b547c36f15
		<tag k="natural" v="hill" />
		<tag k="place" v="locality" />
		<tag k="ssr:stedsnr" v="175889" />
	</node>
<<<<<<< HEAD
	<node lat="62.07833055481852" lon="10.700975007891" id="-25059">
		<tag k="name" v="Osteregga" />
		<tag k="natural" v="hill" />
=======
	<node id="-354930" lat="61.9371333362" lon="10.2101388842">
		<tag k="name" v="Skjellådalen" />
		<tag k="natural" v="valley" />
>>>>>>> e1d4bc35ff8a6074a6f2e91616a996b547c36f15
		<tag k="place" v="locality" />
		<tag k="ssr:stedsnr" v="175847" />
	</node>
<<<<<<< HEAD
	<node lat="62.05725833232243" lon="10.680652784208423" id="-25060">
=======
	<node id="-354929" lat="61.9595611128" lon="10.6935916633">
>>>>>>> e1d4bc35ff8a6074a6f2e91616a996b547c36f15
		<tag k="fixme" v="consider natural=peak for the most distinct mountains in the district" />
		<tag k="name" v="Kampen" />
		<tag k="natural" v="hill" />
		<tag k="place" v="locality" />
		<tag k="ssr:stedsnr" v="192155" />
	</node>
	<node lat="62.05347500375319" lon="10.435433338420689" id="-25066">
		<tag k="name" v="Storskardet" />
		<tag k="natural" v="valley" />
		<tag k="place" v="locality" />
		<tag k="ssr:stedsnr" v="192201" />
	</node>
<<<<<<< HEAD
	<node lat="61.97550000216801" lon="10.626177772008415" id="-25075">
=======
	<node id="-354926" lat="61.993969442" lon="10.4028500069">
>>>>>>> e1d4bc35ff8a6074a6f2e91616a996b547c36f15
		<tag k="fixme" v="consider natural=peak for the most distinct mountains in the district" />
		<tag k="name" v="Smalhøa" />
		<tag k="natural" v="hill" />
		<tag k="place" v="locality" />
		<tag k="ssr:stedsnr" v="192479" />
	</node>
<<<<<<< HEAD
	<node lat="61.98247777645761" lon="10.409591675732633" id="-25076">
		<tag k="name" v="Kvislåkvolvet" />
=======
	<node id="-354922" lat="62.0422527752" lon="10.5864333392">
		<tag k="name" v="Aumdalen" />
>>>>>>> e1d4bc35ff8a6074a6f2e91616a996b547c36f15
		<tag k="natural" v="valley" />
		<tag k="place" v="locality" />
		<tag k="ssr:stedsnr" v="192482" />
	</node>
<<<<<<< HEAD
	<node lat="61.96823889019958" lon="10.493152774789818" id="-25079">
		<tag k="name" v="Aumskardet" />
		<tag k="natural" v="valley" />
=======
	<node id="-354920" lat="62.2732111118" lon="10.3923777865">
		<tag k="alt_name" v="Veslvorda;Veslvola" />
		<tag k="name" v="Veslevola" />
		<tag k="natural" v="hill" />
>>>>>>> e1d4bc35ff8a6074a6f2e91616a996b547c36f15
		<tag k="place" v="locality" />
		<tag k="ssr:stedsnr" v="192489" />
	</node>
<<<<<<< HEAD
	<node lat="61.95392499717123" lon="10.182663897840968" id="-25080">
		<tag k="alt_name" v="Skjellåbotn" />
		<tag k="name" v="Skjellåbotnen" />
		<tag k="natural" v="valley" />
=======
	<node id="-354919" lat="62.2689833322" lon="10.398130551">
		<tag k="fixme" v="consider natural=peak for the most distinct mountains in the district" />
		<tag k="name" v="Gardvikåsen" />
		<tag k="natural" v="hill" />
>>>>>>> e1d4bc35ff8a6074a6f2e91616a996b547c36f15
		<tag k="place" v="locality" />
		<tag k="ssr:stedsnr" v="192629" />
	</node>
<<<<<<< HEAD
	<node lat="62.16104999703609" lon="10.44162499579662" id="-25084">
		<tag k="alt_name" v="Vordengvorda" />
=======
	<node id="-354918" lat="62.2458555567" lon="10.3561888913">
>>>>>>> e1d4bc35ff8a6074a6f2e91616a996b547c36f15
		<tag k="fixme" v="consider natural=peak for the most distinct mountains in the district" />
		<tag k="name" v="Volengvola" />
		<tag k="natural" v="hill" />
		<tag k="place" v="locality" />
		<tag k="ssr:stedsnr" v="193005" />
	</node>
<<<<<<< HEAD
	<node lat="62.07322499696571" lon="10.735883326728205" id="-25088">
		<tag k="alt_name" v="Vesleskardet" />
		<tag k="name" v="Veslskardet" />
=======
	<node id="-354909" lat="62.0155666655" lon="10.2968750014">
		<tag k="alt_name" v="Sølndalen, vesle" />
		<tag k="name" v="Vesle Sølndalen" />
>>>>>>> e1d4bc35ff8a6074a6f2e91616a996b547c36f15
		<tag k="natural" v="valley" />
		<tag k="place" v="locality" />
		<tag k="ssr:stedsnr" v="193018" />
	</node>
<<<<<<< HEAD
	<node lat="62.226708331963074" lon="10.459299996055666" id="-25095">
=======
	<node id="-354907" lat="62.226708332" lon="10.4592999961">
>>>>>>> e1d4bc35ff8a6074a6f2e91616a996b547c36f15
		<tag k="name" v="Lomsjødalen" />
		<tag k="natural" v="valley" />
		<tag k="place" v="locality" />
		<tag k="ssr:stedsnr" v="193079" />
	</node>
<<<<<<< HEAD
	<node lat="62.01556666546786" lon="10.296875001355554" id="-25097">
		<tag k="alt_name" v="Sølndalen, vesle" />
		<tag k="name" v="Vesle Sølndalen" />
=======
	<node id="-354903" lat="61.9682388902" lon="10.4931527748">
		<tag k="name" v="Aumskardet" />
		<tag k="natural" v="valley" />
		<tag k="place" v="locality" />
		<tag k="ssr:stedsnr" v="192489" />
	</node>
	<node id="-354899" lat="61.9824777765" lon="10.4095916757">
		<tag k="name" v="Kvislåkvolvet" />
>>>>>>> e1d4bc35ff8a6074a6f2e91616a996b547c36f15
		<tag k="natural" v="valley" />
		<tag k="place" v="locality" />
		<tag k="ssr:stedsnr" v="193159" />
	</node>
<<<<<<< HEAD
	<node lat="62.245855556734575" lon="10.35618889132363" id="-25103">
=======
	<node id="-354898" lat="61.9755000022" lon="10.626177772">
>>>>>>> e1d4bc35ff8a6074a6f2e91616a996b547c36f15
		<tag k="fixme" v="consider natural=peak for the most distinct mountains in the district" />
		<tag k="name" v="Strålsjøåsen" />
		<tag k="natural" v="hill" />
		<tag k="place" v="locality" />
		<tag k="ssr:stedsnr" v="193451" />
	</node>
<<<<<<< HEAD
	<node lat="61.993732214550064" lon="10.129944135135991" id="-25104">
		<tag k="name" v="Jehansskardet" />
=======
	<node id="-354894" lat="62.0534750038" lon="10.4354333384">
		<tag k="name" v="Storskardet" />
>>>>>>> e1d4bc35ff8a6074a6f2e91616a996b547c36f15
		<tag k="natural" v="valley" />
		<tag k="place" v="locality" />
		<tag k="ssr:stedsnr" v="193538" />
	</node>
<<<<<<< HEAD
	<node lat="62.268983332173164" lon="10.398130551044046" id="-25105">
=======
	<node id="-354893" lat="62.0572583323" lon="10.6806527842">
>>>>>>> e1d4bc35ff8a6074a6f2e91616a996b547c36f15
		<tag k="fixme" v="consider natural=peak for the most distinct mountains in the district" />
		<tag k="name" v="Gardvikåsen" />
		<tag k="natural" v="hill" />
		<tag k="place" v="locality" />
		<tag k="ssr:stedsnr" v="194865" />
	</node>
<<<<<<< HEAD
	<node lat="62.27321111181088" lon="10.392377786537716" id="-25106">
		<tag k="alt_name" v="Veslvorda;Veslvola" />
		<tag k="name" v="Veslevola" />
=======
	<node id="-354886" lat="62.1846944444" lon="10.6077944412">
		<tag k="name" v="Strømsberget" />
>>>>>>> e1d4bc35ff8a6074a6f2e91616a996b547c36f15
		<tag k="natural" v="hill" />
		<tag k="place" v="locality" />
		<tag k="ssr:stedsnr" v="194866" />
	</node>
<<<<<<< HEAD
	<node lat="62.12809999608414" lon="10.347169442455732" id="-25111">
		<tag k="name" v="Bjørnhaugen" />
=======
	<node id="-354885" lat="62.0783305548" lon="10.7009750079">
		<tag k="name" v="Osteregga" />
>>>>>>> e1d4bc35ff8a6074a6f2e91616a996b547c36f15
		<tag k="natural" v="hill" />
		<tag k="place" v="locality" />
		<tag k="ssr:stedsnr" v="294893" />
	</node>
<<<<<<< HEAD
	<node lat="62.21206388796177" lon="10.712949995213426" id="-25112">
		<tag k="name" v="Tylldalsmoen" />
=======
	<node id="-354880" lat="61.9693555523" lon="10.8623416755">
		<tag k="name" v="Rådelshaugen" />
		<tag k="natural" v="hill" />
>>>>>>> e1d4bc35ff8a6074a6f2e91616a996b547c36f15
		<tag k="place" v="locality" />
		<tag k="ssr:stedsnr" v="294752" />
	</node>
<<<<<<< HEAD
	<node lat="62.14800000049919" lon="10.675611119646058" id="-25113">
		<tag k="name" v="Såttåbakkene" />
		<tag k="natural" v="slope" />
=======
	<node id="-354876" lat="61.9985611086" lon="10.6994638813">
		<tag k="name" v="Fjellbekkdalen" />
		<tag k="natural" v="valley" />
>>>>>>> e1d4bc35ff8a6074a6f2e91616a996b547c36f15
		<tag k="place" v="locality" />
		<tag k="ssr:stedsnr" v="294834" />
	</node>
<<<<<<< HEAD
	<node lat="62.09012777790945" lon="10.361513885120392" id="-25117">
		<tag k="name" v="Vollbakken" />
		<tag k="natural" v="slope" />
=======
	<node id="-354875" lat="62.0550138873" lon="10.6145138841">
		<tag k="name" v="Blåryan" />
		<tag k="natural" v="valley" />
>>>>>>> e1d4bc35ff8a6074a6f2e91616a996b547c36f15
		<tag k="place" v="locality" />
		<tag k="ssr:stedsnr" v="295776" />
	</node>
<<<<<<< HEAD
	<node lat="62.00163888975114" lon="10.707113884791381" id="-25121">
		<tag k="name" v="Bakkan" />
		<tag k="natural" v="slope" />
=======
	<node id="-354869" lat="62.254672224" lon="10.3675388941">
		<tag k="name" v="Bjørnsmoen" />
>>>>>>> e1d4bc35ff8a6074a6f2e91616a996b547c36f15
		<tag k="place" v="locality" />
		<tag k="ssr:stedsnr" v="297641" />
	</node>
<<<<<<< HEAD
	<node lat="62.05266666442234" lon="10.74712221832444" id="-25124">
		<tag k="name" v="Kletten" />
		<tag k="natural" v="hill" />
=======
	<node id="-354866" lat="62.1162583303" lon="10.5151361119">
		<tag k="name" v="Skarddalen" />
		<tag k="natural" v="valley" />
>>>>>>> e1d4bc35ff8a6074a6f2e91616a996b547c36f15
		<tag k="place" v="locality" />
		<tag k="ssr:stedsnr" v="297670" />
	</node>
<<<<<<< HEAD
	<node lat="62.10604166790046" lon="10.695788887180791" id="-25126">
=======
	<node id="-354864" lat="62.1155222195" lon="10.447305554">
>>>>>>> e1d4bc35ff8a6074a6f2e91616a996b547c36f15
		<tag k="fixme" v="consider natural=peak for the most distinct mountains in the district" />
		<tag k="name" v="Juliåsen" />
		<tag k="natural" v="hill" />
		<tag k="place" v="locality" />
		<tag k="ssr:stedsnr" v="314281" />
	</node>
<<<<<<< HEAD
	<node lat="62.00127777520345" lon="10.572919449437546" id="-25127">
		<tag k="fixme" v="consider natural=peak for the most distinct mountains in the district" />
		<tag k="name" v="Øykjekletten" />
		<tag k="natural" v="hill" />
=======
	<node id="-354863" lat="62.2008611124" lon="10.4339111099">
		<tag k="name" v="Lomsjødalslia" />
		<tag k="natural" v="slope" />
>>>>>>> e1d4bc35ff8a6074a6f2e91616a996b547c36f15
		<tag k="place" v="locality" />
		<tag k="ssr:stedsnr" v="313403" />
	</node>
<<<<<<< HEAD
	<node lat="61.99396944202244" lon="10.40285000693968" id="-25128">
		<tag k="fixme" v="consider natural=peak for the most distinct mountains in the district" />
		<tag k="name" v="Kampen" />
=======
	<node id="-354861" lat="62.1189611077" lon="10.3142305603">
		<tag k="name" v="Brenna" />
>>>>>>> e1d4bc35ff8a6074a6f2e91616a996b547c36f15
		<tag k="natural" v="hill" />
		<tag k="place" v="locality" />
		<tag k="ssr:stedsnr" v="313407" />
	</node>
<<<<<<< HEAD
	<node lat="61.95956111277038" lon="10.693591663265034" id="-25129">
		<tag k="fixme" v="consider natural=peak for the most distinct mountains in the district" />
		<tag k="name" v="Tegningshøa" />
		<tag k="natural" v="hill" />
		<tag k="old_name" v="Teiningshøa" />
=======
	<node id="-354860" lat="62.2234305565" lon="10.5097916645">
		<tag k="name" v="Nausterdalen" />
		<tag k="natural" v="valley" />
>>>>>>> e1d4bc35ff8a6074a6f2e91616a996b547c36f15
		<tag k="place" v="locality" />
		<tag k="ssr:stedsnr" v="313446" />
	</node>
<<<<<<< HEAD
	<node lat="61.93713333623967" lon="10.210138884218145" id="-25130">
		<tag k="name" v="Skjellådalen" />
		<tag k="natural" v="valley" />
=======
	<node id="-354857" lat="62.0789166659" lon="10.3991138846">
		<tag k="name" v="Sølnsætermoen" />
>>>>>>> e1d4bc35ff8a6074a6f2e91616a996b547c36f15
		<tag k="place" v="locality" />
		<tag k="ssr:stedsnr" v="313629" />
	</node>
<<<<<<< HEAD
	<node lat="62.071902776962816" lon="10.785933325758899" id="-25132">
		<tag k="fixme" v="consider natural=peak for the most distinct mountains in the district" />
		<tag k="name" v="Blanktjønnvola" />
=======
	<node id="-354855" lat="62.0958888902" lon="10.4015166652">
		<tag k="name" v="Middagshaugen" />
>>>>>>> e1d4bc35ff8a6074a6f2e91616a996b547c36f15
		<tag k="natural" v="hill" />
		<tag k="place" v="locality" />
		<tag k="ssr:stedsnr" v="314018" />
	</node>
<<<<<<< HEAD
	<node lat="62.01435833760341" lon="10.744113882135679" id="-25135">
		<tag k="alt_name" v="Vordkampen" />
		<tag k="name" v="Volkampen" />
		<tag k="natural" v="hill" />
=======
	<node id="-354851" lat="62.1523666661" lon="10.4988166732">
		<tag k="name" v="Hammermåna" />
		<tag k="natural" v="slope" />
>>>>>>> e1d4bc35ff8a6074a6f2e91616a996b547c36f15
		<tag k="place" v="locality" />
		<tag k="ssr:stedsnr" v="314036" />
	</node>
<<<<<<< HEAD
	<node lat="62.020852774865055" lon="10.88072500230047" id="-25139">
		<tag k="name" v="Barkaldkjølen" />
		<tag k="natural" v="ridge" />
=======
	<node id="-354848" lat="62.1922611093" lon="10.5894249962">
		<tag k="name" v="Vesltjønndalen" />
		<tag k="natural" v="valley" />
>>>>>>> e1d4bc35ff8a6074a6f2e91616a996b547c36f15
		<tag k="place" v="locality" />
		<tag k="ssr:stedsnr" v="314050" />
	</node>
<<<<<<< HEAD
	<node lat="62.15103333276817" lon="10.651286103407513" id="-25140">
		<tag k="name" v="Nordkletten" />
=======
	<node id="-354847" lat="61.96724167" lon="10.4349500086">
		<tag k="fixme" v="consider natural=peak for the most distinct mountains in the district" />
		<tag k="name" v="Kvislåtjønnhøgda" />
>>>>>>> e1d4bc35ff8a6074a6f2e91616a996b547c36f15
		<tag k="natural" v="hill" />
		<tag k="place" v="locality" />
		<tag k="ssr:stedsnr" v="314054" />
	</node>
<<<<<<< HEAD
	<node lat="62.041650001090666" lon="10.165676536207743" id="-25145">
		<tag k="alt_name" v="Mjovassdalskletten" />
=======
	<node id="-354846" lat="61.9758277807" lon="10.3930694439">
>>>>>>> e1d4bc35ff8a6074a6f2e91616a996b547c36f15
		<tag k="fixme" v="consider natural=peak for the most distinct mountains in the district" />
		<tag k="name" v="Mjovasskletten" />
		<tag k="natural" v="hill" />
		<tag k="place" v="locality" />
		<tag k="ssr:stedsnr" v="314424" />
	</node>
<<<<<<< HEAD
	<node lat="62.086061112284945" lon="10.741961115421665" id="-25146">
=======
	<node id="-354844" lat="62.1048722237" lon="10.6734749911">
>>>>>>> e1d4bc35ff8a6074a6f2e91616a996b547c36f15
		<tag k="fixme" v="consider natural=peak for the most distinct mountains in the district" />
		<tag k="name" v="Limåsen" />
		<tag k="natural" v="hill" />
		<tag k="place" v="locality" />
<<<<<<< HEAD
		<tag k="ssr:stedsnr" v="314096" />
	</node>
	<node lat="62.05131111389237" lon="10.666766674421387" id="-25149">
		<tag k="alt_name" v="Veslvorda" />
		<tag k="fixme" v="consider natural=peak for the most distinct mountains in the district" />
		<tag k="name" v="Veslevola" />
=======
		<tag k="ssr:stedsnr" v="132241" />
	</node>
	<node id="-354834" lat="62.0807999993" lon="10.7459861018">
		<tag k="name" v="Hammardalen" />
		<tag k="natural" v="valley" />
		<tag k="place" v="locality" />
		<tag k="ssr:stedsnr" v="132023" />
	</node>
	<node id="-354833" lat="62.1796472197" lon="10.3651722144">
		<tag k="name" v="Svartkletten" />
>>>>>>> e1d4bc35ff8a6074a6f2e91616a996b547c36f15
		<tag k="natural" v="hill" />
		<tag k="place" v="locality" />
		<tag k="ssr:stedsnr" v="314194" />
	</node>
<<<<<<< HEAD
	<node lat="62.198469443094474" lon="10.534972225679992" id="-25151">
		<tag k="alt_name" v="Veslåsen" />
		<tag k="fixme" v="consider natural=peak for the most distinct mountains in the district" />
		<tag k="name" v="Vesleåsen" />
		<tag k="natural" v="hill" />
		<tag k="place" v="locality" />
		<tag k="ssr:stedsnr" v="314701" />
	</node>
	<node lat="62.10887500345188" lon="10.719608332843753" id="-25152">
		<tag k="name" v="Bjørnåsen" />
=======
	<node id="-354827" lat="62.0084583336" lon="10.6342361031">
		<tag k="name" v="Rundhaugen" />
		<tag k="natural" v="hill" />
		<tag k="place" v="locality" />
		<tag k="ssr:stedsnr" v="132160" />
	</node>
	<node id="-354824" lat="61.9716111127" lon="10.2128722151">
		<tag k="name" v="Sølndalen" />
		<tag k="natural" v="valley" />
		<tag k="place" v="locality" />
		<tag k="ssr:stedsnr" v="131597" />
	</node>
	<node id="-354823" lat="61.914077782" lon="10.2810861144">
		<tag k="name" v="Skjellåkroken" />
		<tag k="natural" v="valley" />
		<tag k="place" v="locality" />
		<tag k="ssr:stedsnr" v="131555" />
	</node>
	<node id="-354818" lat="62.1282388862" lon="10.5080777733">
		<tag k="alt_name" v="Drivla" />
		<tag k="fixme" v="consider natural=peak for the most distinct mountains in the district" />
		<tag k="name" v="Divlet" />
>>>>>>> e1d4bc35ff8a6074a6f2e91616a996b547c36f15
		<tag k="natural" v="hill" />
		<tag k="place" v="locality" />
		<tag k="ssr:stedsnr" v="354677" />
	</node>
<<<<<<< HEAD
	<node lat="62.119555559172504" lon="10.517261105418887" id="-25156">
		<tag k="name" v="Langbakken" />
		<tag k="natural" v="slope" />
		<tag k="place" v="locality" />
		<tag k="ssr:stedsnr" v="355627" />
	</node>
	<node lat="62.248041666529836" lon="10.368252784450155" id="-25158">
		<tag k="name" v="Oksbakken" />
=======
	<node id="-354814" lat="62.128461107" lon="10.6670944465">
		<tag k="name" v="Storbekkhalla" />
		<tag k="natural" v="slope" />
		<tag k="place" v="locality" />
		<tag k="ssr:stedsnr" v="113991" />
	</node>
	<node id="-354813" lat="62.067863889" lon="10.3856888934">
		<tag k="name" v="Sølnmoen" />
		<tag k="place" v="locality" />
		<tag k="ssr:stedsnr" v="113786" />
	</node>
	<node id="-354811" lat="62.2202138924" lon="10.4900138958">
		<tag k="name" v="Tangen" />
>>>>>>> e1d4bc35ff8a6074a6f2e91616a996b547c36f15
		<tag k="natural" v="slope" />
		<tag k="place" v="locality" />
		<tag k="ssr:stedsnr" v="355921" />
	</node>
<<<<<<< HEAD
	<node lat="62.074083333376166" lon="10.455427779861326" id="-25159">
		<tag k="name" v="Vardlia" />
=======
	<node id="-354810" lat="62.2081583341" lon="10.5219277688">
		<tag k="name" v="Klettlia" />
>>>>>>> e1d4bc35ff8a6074a6f2e91616a996b547c36f15
		<tag k="natural" v="slope" />
		<tag k="place" v="locality" />
		<tag k="ssr:stedsnr" v="355759" />
	</node>
<<<<<<< HEAD
	<node lat="62.1557638892161" lon="10.446808330989855" id="-25161">
		<tag k="name" v="Storkletten" />
=======
	<node id="-354808" lat="62.1109305555" lon="10.652472224">
		<tag k="name" v="Veslebrekka" />
>>>>>>> e1d4bc35ff8a6074a6f2e91616a996b547c36f15
		<tag k="natural" v="hill" />
		<tag k="place" v="locality" />
		<tag k="ssr:stedsnr" v="355974" />
	</node>
<<<<<<< HEAD
	<node lat="62.17619721804057" lon="10.393872222599404" id="-25163">
		<tag k="name" v="Skrabben" />
		<tag k="natural" v="hill" />
=======
	<node id="-354803" lat="62.13634167" lon="10.5905694407">
		<tag k="name" v="Måna" />
		<tag k="natural" v="slope" />
>>>>>>> e1d4bc35ff8a6074a6f2e91616a996b547c36f15
		<tag k="place" v="locality" />
		<tag k="ssr:stedsnr" v="355979" />
	</node>
<<<<<<< HEAD
	<node lat="62.14387500154344" lon="10.371363894735051" id="-25164">
		<tag k="name" v="Storkampen" />
=======
	<node id="-354801" lat="62.1280777734" lon="10.3522472168">
		<tag k="name" v="Bjørnhaugen" />
>>>>>>> e1d4bc35ff8a6074a6f2e91616a996b547c36f15
		<tag k="natural" v="hill" />
		<tag k="place" v="locality" />
		<tag k="ssr:stedsnr" v="355981" />
	</node>
<<<<<<< HEAD
	<node lat="62.123594447249616" lon="10.367613896809805" id="-25165">
		<tag k="name" v="Jotvola" />
		<tag k="natural" v="slope" />
=======
	<node id="-354800" lat="62.1451750023" lon="10.399922215">
		<tag k="name" v="Grønvoltangen" />
		<tag k="natural" v="hill" />
>>>>>>> e1d4bc35ff8a6074a6f2e91616a996b547c36f15
		<tag k="place" v="locality" />
		<tag k="ssr:stedsnr" v="355988" />
	</node>
<<<<<<< HEAD
	<node lat="62.184883330958016" lon="10.390936116043513" id="-25167">
		<tag k="name" v="Langegga" />
		<tag k="natural" v="slope" />
=======
	<node id="-354795" lat="62.1810055518" lon="10.5618666583">
		<tag k="name" v="Brekkbekkdalen" />
		<tag k="natural" v="valley" />
>>>>>>> e1d4bc35ff8a6074a6f2e91616a996b547c36f15
		<tag k="place" v="locality" />
		<tag k="ssr:stedsnr" v="355945" />
	</node>
<<<<<<< HEAD
	<node lat="62.1873861092289" lon="10.390505558426621" id="-25168">
		<tag k="name" v="Øvre Moen" />
=======
	<node id="-354786" lat="62.1415166693" lon="10.3668166696">
		<tag k="alt_name" v="Kvitvorda" />
		<tag k="fixme" v="consider natural=peak for the most distinct mountains in the district" />
		<tag k="name" v="Kvitvola" />
		<tag k="natural" v="hill" />
>>>>>>> e1d4bc35ff8a6074a6f2e91616a996b547c36f15
		<tag k="place" v="locality" />
		<tag k="ssr:stedsnr" v="355947" />
	</node>
<<<<<<< HEAD
	<node lat="62.10889999890822" lon="10.645619450933486" id="-25171">
		<tag k="name" v="Kattmoen" />
=======
	<node id="-354784" lat="62.0958500026" lon="10.7498194374">
		<tag k="fixme" v="consider natural=peak for the most distinct mountains in the district" />
		<tag k="name" v="Høyåsen" />
		<tag k="natural" v="hill" />
>>>>>>> e1d4bc35ff8a6074a6f2e91616a996b547c36f15
		<tag k="place" v="locality" />
		<tag k="ssr:stedsnr" v="356773" />
	</node>
<<<<<<< HEAD
	<node lat="62.14312499985736" lon="10.65036666182971" id="-25176">
		<tag k="name" v="Berget" />
=======
	<node id="-354783" lat="61.988783329" lon="10.6618972288">
		<tag k="fixme" v="consider natural=peak for the most distinct mountains in the district" />
		<tag k="name" v="Gråhøgda" />
>>>>>>> e1d4bc35ff8a6074a6f2e91616a996b547c36f15
		<tag k="natural" v="hill" />
		<tag k="place" v="locality" />
		<tag k="ssr:stedsnr" v="356936" />
	</node>
<<<<<<< HEAD
	<node lat="62.16448888824236" lon="10.620649990424884" id="-25178">
		<tag k="name" v="Egga" />
=======
	<node id="-354779" lat="62.00275833" lon="10.6826888948">
		<tag k="name" v="Gråhaugen" />
>>>>>>> e1d4bc35ff8a6074a6f2e91616a996b547c36f15
		<tag k="natural" v="hill" />
		<tag k="place" v="locality" />
		<tag k="ssr:stedsnr" v="356891" />
	</node>
<<<<<<< HEAD
	<node lat="62.01203055708715" lon="10.61038889383737" id="-25184">
		<tag k="name" v="Skarven" />
		<tag k="natural" v="hill" />
=======
	<node id="-354776" lat="62.0652861073" lon="10.2719888942">
		<tag k="name" v="Skarddalen" />
		<tag k="natural" v="valley" />
>>>>>>> e1d4bc35ff8a6074a6f2e91616a996b547c36f15
		<tag k="place" v="locality" />
		<tag k="ssr:stedsnr" v="357627" />
	</node>
<<<<<<< HEAD
	<node lat="62.04229722228437" lon="10.825116664723021" id="-25188">
		<tag k="alt_name" v="Midtre Bellingen" />
=======
	<node id="-354771" lat="62.1141777761" lon="10.5163000031">
>>>>>>> e1d4bc35ff8a6074a6f2e91616a996b547c36f15
		<tag k="fixme" v="consider natural=peak for the most distinct mountains in the district" />
		<tag k="name" v="Bellingan" />
		<tag k="natural" v="hill" />
		<tag k="place" v="locality" />
		<tag k="ssr:stedsnr" v="374064" />
	</node>
<<<<<<< HEAD
	<node lat="62.17233333705536" lon="10.592833331389704" id="-25189">
		<tag k="name" v="Brandvålsberget" />
		<tag k="natural" v="hill" />
=======
	<node id="-354766" lat="62.187363885" lon="10.4235222294">
		<tag k="name" v="Gråmoen" />
>>>>>>> e1d4bc35ff8a6074a6f2e91616a996b547c36f15
		<tag k="place" v="locality" />
		<tag k="ssr:stedsnr" v="374024" />
	</node>
<<<<<<< HEAD
	<node lat="62.18277778122113" lon="10.530388889236903" id="-25190">
		<tag k="fixme" v="consider natural=peak for the most distinct mountains in the district" />
		<tag k="name" v="Brottåsen" />
		<tag k="natural" v="hill" />
=======
	<node id="-354762" lat="62.1987944467" lon="10.6760916612">
		<tag k="name" v="Hollia" />
		<tag k="natural" v="slope" />
>>>>>>> e1d4bc35ff8a6074a6f2e91616a996b547c36f15
		<tag k="place" v="locality" />
		<tag k="ssr:stedsnr" v="374030" />
	</node>
<<<<<<< HEAD
	<node lat="62.06211111086601" lon="10.60701667288335" id="-25195">
=======
	<node id="-354761" lat="62.1958583307" lon="10.7000472224">
>>>>>>> e1d4bc35ff8a6074a6f2e91616a996b547c36f15
		<tag k="fixme" v="consider natural=peak for the most distinct mountains in the district" />
		<tag k="name" v="Valleråkjølen" />
		<tag k="natural" v="hill" />
		<tag k="place" v="locality" />
		<tag k="ssr:stedsnr" v="374153" />
	</node>
<<<<<<< HEAD
	<node lat="62.05826388550216" lon="10.655433330263595" id="-25196">
		<tag k="name" v="Lauvhaugen" />
=======
	<node id="-354759" lat="62.0836333329" lon="10.6917472141">
		<tag k="name" v="Synsegga" />
>>>>>>> e1d4bc35ff8a6074a6f2e91616a996b547c36f15
		<tag k="natural" v="hill" />
		<tag k="place" v="locality" />
		<tag k="ssr:stedsnr" v="374155" />
	</node>
<<<<<<< HEAD
	<node lat="62.014638886110795" lon="10.39059443543821" id="-25206">
		<tag k="fixme" v="consider natural=peak for the most distinct mountains in the district" />
		<tag k="name" v="Brenna" />
		<tag k="natural" v="hill" />
=======
	<node id="-354757" lat="62.2095666634" lon="10.4872499928">
		<tag k="name" v="Storstrypet" />
>>>>>>> e1d4bc35ff8a6074a6f2e91616a996b547c36f15
		<tag k="place" v="locality" />
		<tag k="ssr:stedsnr" v="375129" />
	</node>
<<<<<<< HEAD
	<node lat="62.14967777829325" lon="10.725544439358492" id="-25207">
		<tag k="alt_name" v="Flattronden" />
		<tag k="name" v="Flattron" />
=======
	<node id="-354753" lat="62.1332083365" lon="10.4617333392">
		<tag k="name" v="Haustmoen" />
>>>>>>> e1d4bc35ff8a6074a6f2e91616a996b547c36f15
		<tag k="place" v="locality" />
		<tag k="ssr:stedsnr" v="375049" />
	</node>
<<<<<<< HEAD
	<node lat="62.229000000417784" lon="10.396566672142214" id="-25208">
		<tag k="name" v="Svartlia" />
=======
	<node id="-354751" lat="62.0966444469" lon="10.3617444382">
		<tag k="name" v="Nysætertangen" />
>>>>>>> e1d4bc35ff8a6074a6f2e91616a996b547c36f15
		<tag k="natural" v="slope" />
		<tag k="place" v="locality" />
		<tag k="ssr:stedsnr" v="375075" />
	</node>
<<<<<<< HEAD
	<node lat="62.26978888844536" lon="10.372102770722481" id="-25212">
		<tag k="name" v="Skarvdalen" />
		<tag k="natural" v="valley" />
=======
	<node id="-354747" lat="62.1333277743" lon="10.5226305518">
		<tag k="name" v="Skarvhaugen" />
		<tag k="natural" v="hill" />
>>>>>>> e1d4bc35ff8a6074a6f2e91616a996b547c36f15
		<tag k="place" v="locality" />
		<tag k="ssr:stedsnr" v="384332" />
	</node>
<<<<<<< HEAD
	<node lat="62.23921944104996" lon="10.339983326916434" id="-25216">
		<tag k="name" v="Stengrubba" />
		<tag k="natural" v="valley" />
=======
	<node id="-354743" lat="62.0968638931" lon="10.420499991">
		<tag k="name" v="Tjønnåssteinlia" />
		<tag k="natural" v="slope" />
>>>>>>> e1d4bc35ff8a6074a6f2e91616a996b547c36f15
		<tag k="place" v="locality" />
		<tag k="ssr:stedsnr" v="416080" />
	</node>
<<<<<<< HEAD
	<node lat="62.27363055588229" lon="10.385188883110933" id="-25219">
		<tag k="name" v="Finnskjeggjota" />
		<tag k="place" v="locality" />
		<tag k="ssr:stedsnr" v="416774" />
	</node>
	<node lat="62.15476389039821" lon="10.427441661342373" id="-25223">
		<tag k="name" v="Veslekletten" />
=======
	<node id="-354742" lat="62.0533833352" lon="10.23929723">
		<tag k="name" v="Storkletten" />
>>>>>>> e1d4bc35ff8a6074a6f2e91616a996b547c36f15
		<tag k="natural" v="hill" />
		<tag k="place" v="locality" />
		<tag k="ssr:stedsnr" v="416972" />
	</node>
<<<<<<< HEAD
	<node lat="62.098038892214916" lon="10.589511113800459" id="-25239">
		<tag k="alt_name" v="Bogsberget" />
		<tag k="name" v="Baugsberget" />
=======
	<node id="-354739" lat="62.05896389" lon="10.4084249921">
		<tag k="fixme" v="consider natural=peak for the most distinct mountains in the district" />
		<tag k="name" v="Storkampen" />
>>>>>>> e1d4bc35ff8a6074a6f2e91616a996b547c36f15
		<tag k="natural" v="hill" />
		<tag k="place" v="locality" />
		<tag k="ssr:stedsnr" v="435256" />
	</node>
<<<<<<< HEAD
	<node lat="61.96395000323677" lon="10.547000006252263" id="-25246">
=======
	<node id="-354738" lat="62.0179083333" lon="10.433505547">
>>>>>>> e1d4bc35ff8a6074a6f2e91616a996b547c36f15
		<tag k="fixme" v="consider natural=peak for the most distinct mountains in the district" />
		<tag k="name" v="Storhøa" />
		<tag k="natural" v="hill" />
		<tag k="place" v="locality" />
		<tag k="ssr:stedsnr" v="435500" />
	</node>
<<<<<<< HEAD
	<node lat="62.07905555179705" lon="10.782838887302988" id="-25248">
		<tag k="fixme" v="consider natural=peak for the most distinct mountains in the district" />
		<tag k="name" v="Raudfjellet" />
=======
	<node id="-354737" lat="62.0261638865" lon="10.3428055603">
		<tag k="name" v="Kveldshaugen" />
>>>>>>> e1d4bc35ff8a6074a6f2e91616a996b547c36f15
		<tag k="natural" v="hill" />
		<tag k="place" v="locality" />
		<tag k="ssr:stedsnr" v="436030" />
	</node>
<<<<<<< HEAD
	<node lat="62.012972222861386" lon="10.42460000537318" id="-25253">
		<tag k="name" v="Kvislådalen" />
=======
	<node id="-354734" lat="62.0610277819" lon="10.5227694507">
		<tag k="name" v="Finnbudalen" />
>>>>>>> e1d4bc35ff8a6074a6f2e91616a996b547c36f15
		<tag k="natural" v="valley" />
		<tag k="place" v="locality" />
		<tag k="ssr:stedsnr" v="436146" />
	</node>
<<<<<<< HEAD
	<node lat="61.950216668584616" lon="10.629752771668816" id="-25256">
		<tag k="fixme" v="consider natural=peak for the most distinct mountains in the district" />
		<tag k="name" v="Skarven" />
		<tag k="natural" v="hill" />
=======
	<node id="-354732" lat="62.1551277766" lon="10.4003388951">
		<tag k="name" v="Vakkerlia" />
		<tag k="natural" v="slope" />
>>>>>>> e1d4bc35ff8a6074a6f2e91616a996b547c36f15
		<tag k="place" v="locality" />
		<tag k="ssr:stedsnr" v="495434" />
	</node>
<<<<<<< HEAD
	<node lat="61.96278611204792" lon="10.671755551628264" id="-25257">
		<tag k="name" v="Kvolvet" />
		<tag k="natural" v="valley" />
=======
	<node id="-354731" lat="62.1519277789" lon="10.6776722197">
		<tag k="alt_name" v="Gråvorda" />
		<tag k="name" v="Gråvola" />
		<tag k="natural" v="hill" />
>>>>>>> e1d4bc35ff8a6074a6f2e91616a996b547c36f15
		<tag k="place" v="locality" />
		<tag k="ssr:stedsnr" v="495451" />
	</node>
<<<<<<< HEAD
	<node lat="61.97450000087088" lon="10.239208334573354" id="-25258">
		<tag k="alt_name" v="Borren, s" />
		<tag k="name" v="Syndre Boren" />
=======
	<node id="-354728" lat="61.953644443" lon="10.2028444379">
		<tag k="alt_name" v="Breidsjøkinn" />
		<tag k="fixme" v="consider natural=peak for the most distinct mountains in the district" />
		<tag k="loc_name" v="Breisjøfjellet" />
		<tag k="name" v="Breidsjøkinna" />
>>>>>>> e1d4bc35ff8a6074a6f2e91616a996b547c36f15
		<tag k="natural" v="hill" />
		<tag k="place" v="locality" />
		<tag k="ssr:stedsnr" v="495504" />
	</node>
<<<<<<< HEAD
	<node lat="61.963158337276624" lon="10.248038896364902" id="-25260">
		<tag k="name" v="Øya" />
=======
	<node id="-354725" lat="62.0539722192" lon="10.1870388887">
		<tag k="name" v="Storrøsta" />
		<tag k="natural" v="valley" />
>>>>>>> e1d4bc35ff8a6074a6f2e91616a996b547c36f15
		<tag k="place" v="locality" />
		<tag k="ssr:stedsnr" v="495597" />
	</node>
<<<<<<< HEAD
	<node lat="62.11180000295088" lon="10.43197500665715" id="-25261">
=======
	<node id="-354724" lat="62.0706249972" lon="10.2337305504">
>>>>>>> e1d4bc35ff8a6074a6f2e91616a996b547c36f15
		<tag k="fixme" v="consider natural=peak for the most distinct mountains in the district" />
		<tag k="name" v="Malenaåsen" />
		<tag k="natural" v="hill" />
		<tag k="place" v="locality" />
		<tag k="ssr:stedsnr" v="496256" />
	</node>
<<<<<<< HEAD
	<node lat="62.226416667170106" lon="10.4248416578458" id="-25272">
=======
	<node id="-354718" lat="62.0426333365" lon="10.7523833298">
>>>>>>> e1d4bc35ff8a6074a6f2e91616a996b547c36f15
		<tag k="fixme" v="consider natural=peak for the most distinct mountains in the district" />
		<tag k="name" v="Vesltjønnvola" />
		<tag k="natural" v="hill" />
		<tag k="place" v="locality" />
<<<<<<< HEAD
		<tag k="ssr:stedsnr" v="496078" />
	</node>
	<node lat="62.19350833719479" lon="10.494994435659503" id="-25273">
		<tag k="name" v="Skammelsberget" />
		<tag k="natural" v="hill" />
		<tag k="place" v="locality" />
		<tag k="ssr:stedsnr" v="496094" />
	</node>
	<node lat="62.195105559249036" lon="10.465513897407117" id="-25274">
		<tag k="name" v="Djupdalen" />
		<tag k="natural" v="valley" />
=======
		<tag k="ssr:stedsnr" v="10008" />
	</node>
	<node id="-354715" lat="62.0214305572" lon="10.6300638879">
		<tag k="name" v="Bjønndalen" />
		<tag k="natural" v="valley" />
		<tag k="place" v="locality" />
		<tag k="ssr:stedsnr" v="964611" />
	</node>
	<node id="-354712" lat="62.0221722247" lon="10.6136944396">
		<tag k="name" v="Storhaugen" />
		<tag k="natural" v="hill" />
		<tag k="place" v="locality" />
		<tag k="ssr:stedsnr" v="963688" />
	</node>
	<node id="-354707" lat="62.1449361123" lon="10.3194250093">
		<tag k="name" v="Tverrlia" />
		<tag k="natural" v="slope" />
		<tag k="place" v="locality" />
		<tag k="ssr:stedsnr" v="962067" />
	</node>
	<node id="-354706" lat="62.1156499974" lon="10.2914527777">
		<tag k="name" v="Svartåsen" />
		<tag k="natural" v="hill" />
>>>>>>> e1d4bc35ff8a6074a6f2e91616a996b547c36f15
		<tag k="place" v="locality" />
		<tag k="ssr:stedsnr" v="496111" />
	</node>
<<<<<<< HEAD
	<node lat="62.078213886755236" lon="10.5795000057324" id="-25276">
=======
	<node id="-354702" lat="62.1925916689" lon="10.5417999962">
>>>>>>> e1d4bc35ff8a6074a6f2e91616a996b547c36f15
		<tag k="fixme" v="consider natural=peak for the most distinct mountains in the district" />
		<tag k="name" v="Høgkletten" />
		<tag k="natural" v="hill" />
		<tag k="place" v="locality" />
		<tag k="ssr:stedsnr" v="496154" />
	</node>
<<<<<<< HEAD
	<node lat="62.0340555568765" lon="10.634349998567153" id="-25277">
		<tag k="alt_name" v="Urskardkampen" />
=======
	<node id="-354701" lat="62.2177472245" lon="10.4085888935">
		<tag k="alt_name" v="Lomnesvorda" />
>>>>>>> e1d4bc35ff8a6074a6f2e91616a996b547c36f15
		<tag k="fixme" v="consider natural=peak for the most distinct mountains in the district" />
		<tag k="name" v="Urdskardkampen" />
		<tag k="natural" v="hill" />
		<tag k="place" v="locality" />
		<tag k="ssr:stedsnr" v="496168" />
	</node>
<<<<<<< HEAD
	<node lat="62.20664166414764" lon="10.513147227093757" id="-25284">
		<tag k="alt_name" v="Naustervorda" />
=======
	<node id="-354700" lat="62.1590638906" lon="10.382713881">
		<tag k="alt_name" v="Kolletvorda" />
>>>>>>> e1d4bc35ff8a6074a6f2e91616a996b547c36f15
		<tag k="fixme" v="consider natural=peak for the most distinct mountains in the district" />
		<tag k="name" v="Naustervola" />
		<tag k="natural" v="hill" />
		<tag k="place" v="locality" />
		<tag k="ssr:stedsnr" v="508763" />
	</node>
<<<<<<< HEAD
	<node lat="62.113974999004114" lon="10.408088894211152" id="-25294">
		<tag k="name" v="Rya" />
=======
	<node id="-354699" lat="62.1512194417" lon="10.4735249947">
		<tag k="fixme" v="consider natural=peak for the most distinct mountains in the district" />
		<tag k="name" v="Tollåsen" />
		<tag k="natural" v="hill" />
>>>>>>> e1d4bc35ff8a6074a6f2e91616a996b547c36f15
		<tag k="place" v="locality" />
		<tag k="ssr:stedsnr" v="537748" />
	</node>
<<<<<<< HEAD
	<node lat="62.14155555603388" lon="10.712108342807605" id="-25295">
		<tag k="name" v="Øykjekletten" />
		<tag k="natural" v="hill" />
=======
	<node id="-354694" lat="61.9490638869" lon="10.6032861031">
		<tag k="name" v="Storhøfløyet" />
>>>>>>> e1d4bc35ff8a6074a6f2e91616a996b547c36f15
		<tag k="place" v="locality" />
		<tag k="ssr:stedsnr" v="537818" />
	</node>
<<<<<<< HEAD
	<node lat="62.2792777740521" lon="10.344733327445438" id="-25296">
		<tag k="name" v="Rundhaugan" />
=======
	<node id="-354687" lat="62.0051000039" lon="10.8982388959">
		<tag k="fixme" v="consider natural=peak for the most distinct mountains in the district" />
		<tag k="name" v="Barkaldkjølen" />
>>>>>>> e1d4bc35ff8a6074a6f2e91616a996b547c36f15
		<tag k="natural" v="hill" />
		<tag k="place" v="locality" />
		<tag k="ssr:stedsnr" v="538129" />
	</node>
<<<<<<< HEAD
	<node lat="62.19484166585517" lon="10.393055550015124" id="-25297">
		<tag k="name" v="Nermoen" />
=======
	<node id="-354676" lat="62.2180111106" lon="10.624130546">
		<tag k="fixme" v="consider natural=peak for the most distinct mountains in the district" />
		<tag k="name" v="Brennåsen" />
		<tag k="natural" v="hill" />
>>>>>>> e1d4bc35ff8a6074a6f2e91616a996b547c36f15
		<tag k="place" v="locality" />
		<tag k="ssr:stedsnr" v="538956" />
	</node>
<<<<<<< HEAD
	<node lat="62.09550555258867" lon="10.70687777783982" id="-25299">
		<tag k="name" v="Slettmoen" />
=======
	<node id="-354675" lat="62.1457778991" lon="10.5658143655">
		<tag k="name" v="Frankmoen" />
>>>>>>> e1d4bc35ff8a6074a6f2e91616a996b547c36f15
		<tag k="place" v="locality" />
		<tag k="ssr:stedsnr" v="539000" />
	</node>
<<<<<<< HEAD
	<node lat="62.03933610676527" lon="10.823919436351678" id="-25308">
		<tag k="name" v="Storbellingen" />
=======
	<node id="-354674" lat="62.0393972197" lon="10.2175499923">
		<tag k="name" v="Beithaugen" />
>>>>>>> e1d4bc35ff8a6074a6f2e91616a996b547c36f15
		<tag k="natural" v="hill" />
		<tag k="place" v="locality" />
		<tag k="ssr:stedsnr" v="556056" />
	</node>
<<<<<<< HEAD
	<node lat="62.20661111294185" lon="10.685486108556791" id="-25310">
=======
	<node id="-354668" lat="62.1206361091" lon="10.4465611174">
		<tag k="alt_name" v="Jotåsen" />
>>>>>>> e1d4bc35ff8a6074a6f2e91616a996b547c36f15
		<tag k="fixme" v="consider natural=peak for the most distinct mountains in the district" />
		<tag k="name" v="Aumåsen" />
		<tag k="natural" v="hill" />
		<tag k="place" v="locality" />
		<tag k="ssr:stedsnr" v="556148" />
	</node>
<<<<<<< HEAD
	<node lat="62.0687833366271" lon="10.353383328537415" id="-25311">
		<tag k="alt_name" v="Brennvorda" />
=======
	<node id="-354663" lat="62.1907777808" lon="10.5760305483">
>>>>>>> e1d4bc35ff8a6074a6f2e91616a996b547c36f15
		<tag k="fixme" v="consider natural=peak for the most distinct mountains in the district" />
		<tag k="name" v="Brennvola" />
		<tag k="natural" v="hill" />
		<tag k="place" v="locality" />
		<tag k="ssr:stedsnr" v="556154" />
	</node>
	<node lat="61.95955277394081" lon="10.327866664212381" id="-25312">
		<tag k="alt_name" v="Kvolvi, indre" />
		<tag k="name" v="Indre Kvolvet" />
		<tag k="natural" v="valley" />
		<tag k="place" v="locality" />
		<tag k="ssr:stedsnr" v="555556" />
	</node>
	<node lat="62.07253610917588" lon="10.280244450228288" id="-25315">
		<tag k="name" v="Storkvolvet" />
		<tag k="natural" v="ridge" />
		<tag k="place" v="locality" />
		<tag k="ssr:stedsnr" v="556169" />
	</node>
<<<<<<< HEAD
	<node lat="62.02522500382417" lon="10.530955560353508" id="-25319">
=======
	<node id="-354658" lat="61.9770250043" lon="10.1549555523">
>>>>>>> e1d4bc35ff8a6074a6f2e91616a996b547c36f15
		<tag k="fixme" v="consider natural=peak for the most distinct mountains in the district" />
		<tag k="name" v="Svartbekkjølen" />
		<tag k="natural" v="hill" />
		<tag k="place" v="locality" />
		<tag k="ssr:stedsnr" v="556194" />
	</node>
<<<<<<< HEAD
	<node lat="62.03832500351526" lon="10.649605561787313" id="-25321">
		<tag k="alt_name" v="Urskardet" />
		<tag k="name" v="Urdskardet" />
=======
	<node id="-354655" lat="62.0091222256" lon="10.7007916654">
		<tag k="name" v="Kjølbekkdalen" />
>>>>>>> e1d4bc35ff8a6074a6f2e91616a996b547c36f15
		<tag k="natural" v="valley" />
		<tag k="place" v="locality" />
		<tag k="ssr:stedsnr" v="556200" />
	</node>
<<<<<<< HEAD
	<node lat="62.09907499705104" lon="10.381874999316041" id="-25324">
		<tag k="name" v="Lauvhaugen" />
		<tag k="natural" v="hill" />
=======
	<node id="-354649" lat="62.1441361101" lon="10.5459916636">
		<tag k="name" v="Løengdalen" />
		<tag k="natural" v="valley" />
>>>>>>> e1d4bc35ff8a6074a6f2e91616a996b547c36f15
		<tag k="place" v="locality" />
		<tag k="ssr:stedsnr" v="556250" />
	</node>
<<<<<<< HEAD
	<node lat="62.04654999944828" lon="10.208819451621826" id="-25326">
=======
	<node id="-354648" lat="62.0767583365" lon="10.6105361113">
		<tag k="alt_name" v="Vorda" />
>>>>>>> e1d4bc35ff8a6074a6f2e91616a996b547c36f15
		<tag k="fixme" v="consider natural=peak for the most distinct mountains in the district" />
		<tag k="name" v="Fjordungskollen" />
		<tag k="natural" v="hill" />
<<<<<<< HEAD
=======
		<tag k="ssr:stedsnr" v="835407" />
	</node>
	<node id="-354645" lat="62.2629638853" lon="10.3769750037">
		<tag k="name" v="Holla" />
		<tag k="natural" v="slope" />
>>>>>>> e1d4bc35ff8a6074a6f2e91616a996b547c36f15
		<tag k="place" v="locality" />
		<tag k="ssr:stedsnr" v="556442" />
	</node>
<<<<<<< HEAD
	<node lat="62.10928055119012" lon="10.32130555065178" id="-25329">
		<tag k="name" v="Haustdalen" />
=======
	<node id="-354644" lat="62.0023750007" lon="10.9132166617">
		<tag k="name" v="Jutulhogget" />
>>>>>>> e1d4bc35ff8a6074a6f2e91616a996b547c36f15
		<tag k="natural" v="valley" />
		<tag k="place" v="locality" />
		<tag k="ssr:stedsnr" v="556283" />
	</node>
<<<<<<< HEAD
	<node lat="62.21333333414218" lon="10.465230548755752" id="-25339">
		<tag k="alt_name" v="Lomsjøvorda" />
=======
	<node id="-354642" lat="62.0062722179" lon="10.1763388916">
>>>>>>> e1d4bc35ff8a6074a6f2e91616a996b547c36f15
		<tag k="fixme" v="consider natural=peak for the most distinct mountains in the district" />
		<tag k="name" v="Lomsjøvola" />
		<tag k="natural" v="hill" />
		<tag k="place" v="locality" />
		<tag k="ssr:stedsnr" v="557080" />
	</node>
<<<<<<< HEAD
	<node lat="62.103883336310865" lon="10.446569445575115" id="-25343">
		<tag k="name" v="Tørråsen" />
=======
	<node id="-354641" lat="62.0185250006" lon="10.1837000065">
		<tag k="fixme" v="consider natural=peak for the most distinct mountains in the district" />
		<tag k="name" v="Storkletten" />
>>>>>>> e1d4bc35ff8a6074a6f2e91616a996b547c36f15
		<tag k="natural" v="hill" />
		<tag k="place" v="locality" />
		<tag k="ssr:stedsnr" v="597764" />
	</node>
<<<<<<< HEAD
	<node lat="62.14382777964312" lon="10.551477779973267" id="-25345">
		<tag k="name" v="Løengholmen" />
=======
	<node id="-354638" lat="62.2522749999" lon="10.4381361198">
		<tag k="alt_name" v="Svarthugu" />
		<tag k="name" v="Svarthuet" />
		<tag k="natural" v="hill" />
>>>>>>> e1d4bc35ff8a6074a6f2e91616a996b547c36f15
		<tag k="place" v="locality" />
		<tag k="ssr:stedsnr" v="597700" />
	</node>
<<<<<<< HEAD
	<node lat="62.203855559219576" lon="10.626572215073738" id="-25348">
		<tag k="name" v="Lillestrøm" />
		<tag k="place" v="locality" />
		<tag k="ssr:stedsnr" v="597746" />
	</node>
	<node lat="62.11985277594206" lon="10.367638893531932" id="-25352">
		<tag k="name" v="Knausen" />
=======
	<node id="-354636" lat="62.0598527753" lon="10.7855027757">
		<tag k="fixme" v="consider natural=peak for the most distinct mountains in the district" />
		<tag k="name" v="Gaupskardkampen" />
>>>>>>> e1d4bc35ff8a6074a6f2e91616a996b547c36f15
		<tag k="natural" v="hill" />
		<tag k="place" v="locality" />
		<tag k="ssr:stedsnr" v="597995" />
	</node>
<<<<<<< HEAD
	<node lat="62.21187500349671" lon="10.555361105402433" id="-25354">
=======
	<node id="-354631" lat="62.0670166674" lon="10.4458666678">
>>>>>>> e1d4bc35ff8a6074a6f2e91616a996b547c36f15
		<tag k="fixme" v="consider natural=peak for the most distinct mountains in the district" />
		<tag k="name" v="Fossåsen" />
		<tag k="natural" v="hill" />
		<tag k="place" v="locality" />
		<tag k="ssr:stedsnr" v="598791" />
	</node>
	<node lat="62.11002222441621" lon="10.69022500269157" id="-25357">
		<tag k="name" v="Djupdalen" />
		<tag k="natural" v="valley" />
		<tag k="place" v="locality" />
		<tag k="ssr:stedsnr" v="598991" />
	</node>
<<<<<<< HEAD
	<node lat="62.06574999601625" lon="10.290308329851538" id="-25371">
		<tag k="alt_name" v="Vorda" />
=======
	<node id="-354630" lat="62.0594583349" lon="10.5428000031">
>>>>>>> e1d4bc35ff8a6074a6f2e91616a996b547c36f15
		<tag k="fixme" v="consider natural=peak for the most distinct mountains in the district" />
		<tag k="name" v="Vola" />
		<tag k="natural" v="hill" />
		<tag k="place" v="locality" />
		<tag k="ssr:stedsnr" v="617172" />
	</node>
<<<<<<< HEAD
	<node lat="62.07769166266461" lon="10.282505556576833" id="-25372">
		<tag k="alt_name" v="Kjemsjøvorda" />
		<tag k="fixme" v="consider natural=peak for the most distinct mountains in the district" />
		<tag k="name" v="Kjemsjøvola" />
		<tag k="natural" v="hill" />
=======
	<node id="-354624" lat="62.0550138923" lon="10.8060916697">
		<tag k="name" v="Gaupskardet" />
		<tag k="natural" v="valley" />
>>>>>>> e1d4bc35ff8a6074a6f2e91616a996b547c36f15
		<tag k="place" v="locality" />
		<tag k="ssr:stedsnr" v="617178" />
	</node>
<<<<<<< HEAD
	<node lat="62.09287221933671" lon="10.313077786300743" id="-25380">
=======
	<node id="-354609" lat="62.0385027763" lon="10.674594443">
		<tag k="alt_name" v="Blåvorda" />
>>>>>>> e1d4bc35ff8a6074a6f2e91616a996b547c36f15
		<tag k="fixme" v="consider natural=peak for the most distinct mountains in the district" />
		<tag k="name" v="Kjemsjøfjellet" />
		<tag k="natural" v="hill" />
		<tag k="place" v="locality" />
		<tag k="ssr:stedsnr" v="617267" />
	</node>
<<<<<<< HEAD
	<node lat="62.14499722251149" lon="10.68466666679838" id="-25388">
		<tag k="name" v="Bokkhammeren" />
=======
	<node id="-354607" lat="62.0583555522" lon="10.4927361022">
		<tag k="name" v="Vardtjønnskardet" />
		<tag k="natural" v="valley" />
>>>>>>> e1d4bc35ff8a6074a6f2e91616a996b547c36f15
		<tag k="place" v="locality" />
		<tag k="ssr:stedsnr" v="658818" />
	</node>
<<<<<<< HEAD
	<node lat="62.18194444542532" lon="10.3889722136529" id="-25389">
		<tag k="name" v="Grandalen" />
		<tag k="natural" v="valley" />
=======
	<node id="-354604" lat="62.0408916661" lon="10.4396916725">
		<tag k="fixme" v="consider natural=peak for the most distinct mountains in the district" />
		<tag k="name" v="Røskåsen" />
		<tag k="natural" v="hill" />
>>>>>>> e1d4bc35ff8a6074a6f2e91616a996b547c36f15
		<tag k="place" v="locality" />
		<tag k="ssr:stedsnr" v="658929" />
	</node>
<<<<<<< HEAD
	<node lat="62.16697222328785" lon="10.461519450094574" id="-25394">
		<tag k="name" v="Kampen" />
=======
	<node id="-354602" lat="62.1438570556" lon="10.3711888563">
		<tag k="fixme" v="consider natural=peak for the most distinct mountains in the district" />
		<tag k="name" v="Storkampen" />
>>>>>>> e1d4bc35ff8a6074a6f2e91616a996b547c36f15
		<tag k="natural" v="hill" />
		<tag k="place" v="locality" />
		<tag k="ssr:stedsnr" v="658967" />
	</node>
<<<<<<< HEAD
	<node lat="62.17635277399171" lon="10.376883337973995" id="-25396">
		<tag k="name" v="Veslevola" />
=======
	<node id="-354599" lat="62.1394944474" lon="10.3115361094">
		<tag k="alt_name" v="Tverrlivorda" />
		<tag k="name" v="Tverrlivola" />
>>>>>>> e1d4bc35ff8a6074a6f2e91616a996b547c36f15
		<tag k="natural" v="hill" />
		<tag k="place" v="locality" />
		<tag k="ssr:stedsnr" v="658978" />
	</node>
<<<<<<< HEAD
	<node lat="62.20476944555635" lon="10.709455562196514" id="-25404">
		<tag k="fixme" v="consider natural=peak for the most distinct mountains in the district" />
		<tag k="name" v="Tovåsen" />
=======
	<node id="-354598" lat="62.1903500005" lon="10.5971638822">
		<tag k="name" v="Skifthaugen" />
>>>>>>> e1d4bc35ff8a6074a6f2e91616a996b547c36f15
		<tag k="natural" v="hill" />
		<tag k="place" v="locality" />
		<tag k="ssr:stedsnr" v="719733" />
	</node>
<<<<<<< HEAD
	<node lat="62.14599167115344" lon="10.454797224635033" id="-25411">
		<tag k="name" v="Vesle-Brottåsen" />
=======
	<node id="-354592" lat="62.1322416698" lon="10.2963722222">
		<tag k="name" v="Vissmannkletten" />
>>>>>>> e1d4bc35ff8a6074a6f2e91616a996b547c36f15
		<tag k="natural" v="hill" />
		<tag k="place" v="locality" />
		<tag k="ssr:stedsnr" v="719969" />
	</node>
<<<<<<< HEAD
	<node lat="62.160086109695435" lon="10.415266659681887" id="-25412">
		<tag k="name" v="Skarvdalen" />
=======
	<node id="-354590" lat="62.1517083378" lon="10.6882444435">
		<tag k="name" v="Kluvan" />
>>>>>>> e1d4bc35ff8a6074a6f2e91616a996b547c36f15
		<tag k="natural" v="valley" />
		<tag k="place" v="locality" />
		<tag k="ssr:stedsnr" v="719971" />
	</node>
<<<<<<< HEAD
	<node lat="62.13948611169349" lon="10.641938895972475" id="-25420">
		<tag k="name" v="Tronslia" />
		<tag k="natural" v="slope" />
=======
	<node id="-354585" lat="62.1837805599" lon="10.6503277853">
		<tag k="name" v="Svartbekkhammeren" />
		<tag k="natural" v="hill" />
>>>>>>> e1d4bc35ff8a6074a6f2e91616a996b547c36f15
		<tag k="place" v="locality" />
		<tag k="ssr:stedsnr" v="720950" />
	</node>
<<<<<<< HEAD
	<node lat="62.23839721948274" lon="10.443016657703717" id="-25421">
		<tag k="name" v="Knauslia" />
		<tag k="natural" v="slope" />
=======
	<node id="-354576" lat="62.112236114" lon="10.6621027824">
		<tag k="name" v="Storbrekka" />
		<tag k="natural" v="hill" />
>>>>>>> e1d4bc35ff8a6074a6f2e91616a996b547c36f15
		<tag k="place" v="locality" />
		<tag k="ssr:stedsnr" v="720951" />
	</node>
<<<<<<< HEAD
	<node lat="61.998911111104874" lon="10.811333326350924" id="-25423">
		<tag k="name" v="Urdliklauva" />
		<tag k="natural" v="valley" />
=======
	<node id="-354567" lat="62.1116388909" lon="10.3391555619">
		<tag k="name" v="Sjølia" />
		<tag k="natural" v="slope" />
>>>>>>> e1d4bc35ff8a6074a6f2e91616a996b547c36f15
		<tag k="place" v="locality" />
		<tag k="ssr:stedsnr" v="721647" />
	</node>
<<<<<<< HEAD
	<node lat="62.05231944846286" lon="10.724638897220109" id="-25424">
		<tag k="name" v="Tjønnmoen" />
=======
	<node id="-354564" lat="62.0763055595" lon="10.7260388939">
		<tag k="name" v="Storfjelltangen" />
>>>>>>> e1d4bc35ff8a6074a6f2e91616a996b547c36f15
		<tag k="place" v="locality" />
		<tag k="ssr:stedsnr" v="721648" />
	</node>
<<<<<<< HEAD
	<node lat="62.0419611112993" lon="10.561544437189129" id="-25427">
		<tag k="name" v="Dølbekkbakkan" />
		<tag k="natural" v="slope" />
=======
	<node id="-354555" lat="62.0811444424" lon="10.5857555498">
		<tag k="name" v="Høgklettrøsta" />
		<tag k="natural" v="ridge" />
>>>>>>> e1d4bc35ff8a6074a6f2e91616a996b547c36f15
		<tag k="place" v="locality" />
		<tag k="ssr:stedsnr" v="721662" />
	</node>
<<<<<<< HEAD
	<node lat="61.96562222672564" lon="10.833272222824847" id="-25441">
		<tag k="alt_name" v="Nordisætervorda" />
		<tag k="fixme" v="consider natural=peak for the most distinct mountains in the district" />
		<tag k="name" v="Nordisætervola" />
=======
	<node id="-354554" lat="62.063077776" lon="10.3665388931">
		<tag k="name" v="Langhaugen" />
>>>>>>> e1d4bc35ff8a6074a6f2e91616a996b547c36f15
		<tag k="natural" v="hill" />
		<tag k="place" v="locality" />
		<tag k="ssr:stedsnr" v="738344" />
	</node>
<<<<<<< HEAD
	<node lat="61.97137499578877" lon="10.335425000358185" id="-25444">
		<tag k="fixme" v="consider natural=peak for the most distinct mountains in the district" />
		<tag k="name" v="Gråkampen" />
		<tag k="natural" v="hill" />
=======
	<node id="-354553" lat="62.2149999996" lon="10.5126361051">
		<tag k="name" v="Kletten" />
		<tag k="natural" v="ridge" />
>>>>>>> e1d4bc35ff8a6074a6f2e91616a996b547c36f15
		<tag k="place" v="locality" />
		<tag k="ssr:stedsnr" v="738599" />
	</node>
<<<<<<< HEAD
	<node lat="62.01169166738949" lon="10.762200007627342" id="-25447">
		<tag k="name" v="Rundhaugen" />
		<tag k="natural" v="hill" />
=======
	<node id="-354548" lat="62.1600861097" lon="10.4152666597">
		<tag k="name" v="Skarvdalen" />
		<tag k="natural" v="valley" />
>>>>>>> e1d4bc35ff8a6074a6f2e91616a996b547c36f15
		<tag k="place" v="locality" />
		<tag k="ssr:stedsnr" v="739038" />
	</node>
<<<<<<< HEAD
	<node lat="62.152566665626466" lon="10.593758332389184" id="-25449">
		<tag k="alt_name" v="Steinen" />
		<tag k="fixme" v="consider natural=peak for the most distinct mountains in the district" />
		<tag k="name" v="Sten" />
=======
	<node id="-354547" lat="62.1459916712" lon="10.4547972246">
		<tag k="name" v="Vesle-Brottåsen" />
>>>>>>> e1d4bc35ff8a6074a6f2e91616a996b547c36f15
		<tag k="natural" v="hill" />
		<tag k="place" v="locality" />
		<tag k="ssr:stedsnr" v="739061" />
	</node>
<<<<<<< HEAD
	<node lat="62.150372222011924" lon="10.398722222409635" id="-25450">
		<tag k="alt_name" v="Grønvorda" />
=======
	<node id="-354540" lat="61.9891277751" lon="10.7659222269">
		<tag k="alt_name" v="Brennvorda" />
>>>>>>> e1d4bc35ff8a6074a6f2e91616a996b547c36f15
		<tag k="fixme" v="consider natural=peak for the most distinct mountains in the district" />
		<tag k="name" v="Grønvola" />
		<tag k="natural" v="hill" />
		<tag k="place" v="locality" />
		<tag k="ssr:stedsnr" v="739064" />
	</node>
<<<<<<< HEAD
	<node lat="62.0550722265294" lon="10.511361107089597" id="-25452">
=======
	<node id="-354536" lat="62.014630552" lon="10.4677249952">
>>>>>>> e1d4bc35ff8a6074a6f2e91616a996b547c36f15
		<tag k="fixme" v="consider natural=peak for the most distinct mountains in the district" />
		<tag k="name" v="Vardfjellet" />
		<tag k="natural" v="hill" />
		<tag k="old_name" v="Varafjell" />
		<tag k="place" v="locality" />
		<tag k="ssr:stedsnr" v="739169" />
	</node>
<<<<<<< HEAD
	<node lat="62.05187499880227" lon="10.458249998882215" id="-25457">
		<tag k="alt_name" v="Høgkuven" />
=======
	<node id="-354527" lat="62.1429500021" lon="10.4623027763">
>>>>>>> e1d4bc35ff8a6074a6f2e91616a996b547c36f15
		<tag k="fixme" v="consider natural=peak for the most distinct mountains in the district" />
		<tag k="name" v="Høykuven" />
		<tag k="natural" v="hill" />
		<tag k="place" v="locality" />
		<tag k="ssr:stedsnr" v="739175" />
	</node>
<<<<<<< HEAD
	<node lat="62.17656110782505" lon="10.395672219136038" id="-25465">
		<tag k="name" v="Sjåarhaugen" />
		<tag k="natural" v="hill" />
=======
	<node id="-354522" lat="62.1658361079" lon="10.560100009">
		<tag k="name" v="Steivanglia" />
		<tag k="natural" v="slope" />
>>>>>>> e1d4bc35ff8a6074a6f2e91616a996b547c36f15
		<tag k="place" v="locality" />
		<tag k="ssr:stedsnr" v="780974" />
	</node>
<<<<<<< HEAD
	<node lat="62.080705557722" lon="10.3972555466653" id="-25467">
		<tag k="name" v="Rundhaugan" />
=======
	<node id="-354519" lat="61.9670861125" lon="10.5828499999">
		<tag k="fixme" v="consider natural=peak for the most distinct mountains in the district" />
		<tag k="name" v="Tverråfjellet" />
>>>>>>> e1d4bc35ff8a6074a6f2e91616a996b547c36f15
		<tag k="natural" v="hill" />
		<tag k="place" v="locality" />
		<tag k="ssr:stedsnr" v="780745" />
	</node>
<<<<<<< HEAD
	<node lat="62.19993055465109" lon="10.401433330171086" id="-25468">
		<tag k="name" v="Follia" />
		<tag k="natural" v="slope" />
=======
	<node id="-354506" lat="62.1819444454" lon="10.3889722137">
		<tag k="name" v="Grandalen" />
		<tag k="natural" v="valley" />
>>>>>>> e1d4bc35ff8a6074a6f2e91616a996b547c36f15
		<tag k="place" v="locality" />
		<tag k="ssr:stedsnr" v="780927" />
	</node>
<<<<<<< HEAD
	<node lat="62.059836109670584" lon="10.752711104488936" id="-25476">
		<tag k="name" v="Måna" />
=======
	<node id="-354497" lat="62.065749996" lon="10.2903083299">
		<tag k="alt_name" v="Vorda" />
		<tag k="fixme" v="consider natural=peak for the most distinct mountains in the district" />
		<tag k="name" v="Vola" />
>>>>>>> e1d4bc35ff8a6074a6f2e91616a996b547c36f15
		<tag k="natural" v="hill" />
		<tag k="place" v="locality" />
		<tag k="ssr:stedsnr" v="782639" />
	</node>
<<<<<<< HEAD
	<node lat="62.150247225924375" lon="10.5438861192055" id="-25492">
		<tag k="name" v="Brenna" />
=======
	<node id="-354493" lat="62.174358337" lon="10.6947472309">
		<tag k="alt_name" v="Tronden" />
		<tag k="fixme" v="consider natural=peak for the most distinct mountains in the district" />
		<tag k="loc_name" v="Trondfjell" />
		<tag k="name" v="Tron" />
>>>>>>> e1d4bc35ff8a6074a6f2e91616a996b547c36f15
		<tag k="natural" v="hill" />
		<tag k="place" v="locality" />
		<tag k="ssr:stedsnr" v="800057" />
	</node>
<<<<<<< HEAD
	<node lat="62.01852500057387" lon="10.183700006549492" id="-25495">
=======
	<node id="-354491" lat="61.9613333332" lon="10.290755559">
		<tag k="alt_name" v="Veslehøa" />
>>>>>>> e1d4bc35ff8a6074a6f2e91616a996b547c36f15
		<tag k="fixme" v="consider natural=peak for the most distinct mountains in the district" />
		<tag k="name" v="Storkletten" />
		<tag k="natural" v="hill" />
		<tag k="place" v="locality" />
		<tag k="ssr:stedsnr" v="800406" />
	</node>
<<<<<<< HEAD
	<node lat="62.08706666932037" lon="10.464941670242416" id="-25499">
		<tag k="name" v="Vardmoan" />
=======
	<node id="-354490" lat="61.9632861084" lon="10.3549250047">
		<tag k="name" v="Sølnsjødalen" />
		<tag k="natural" v="valley" />
		<tag k="old_name" v="Sølensjødalen" />
>>>>>>> e1d4bc35ff8a6074a6f2e91616a996b547c36f15
		<tag k="place" v="locality" />
		<tag k="ssr:stedsnr" v="800131" />
	</node>
<<<<<<< HEAD
	<node lat="62.050277775933246" lon="10.407947228591114" id="-25504">
		<tag k="alt_name" v="Veslekampen" />
		<tag k="fixme" v="consider natural=peak for the most distinct mountains in the district" />
		<tag k="name" v="Veslkampen" />
		<tag k="natural" v="hill" />
=======
	<node id="-354489" lat="61.9931416706" lon="10.3878055476">
		<tag k="name" v="Tverrdalen" />
		<tag k="natural" v="valley" />
>>>>>>> e1d4bc35ff8a6074a6f2e91616a996b547c36f15
		<tag k="place" v="locality" />
		<tag k="ssr:stedsnr" v="800184" />
	</node>
<<<<<<< HEAD
	<node lat="62.00627221787694" lon="10.17633889164139" id="-25511">
		<tag k="fixme" v="consider natural=peak for the most distinct mountains in the district" />
		<tag k="name" v="Småklettan" />
		<tag k="natural" v="hill" />
		<tag k="place" v="locality" />
		<tag k="ssr:stedsnr" v="800412" />
	</node>
	<node lat="62.26296388532305" lon="10.376975003713069" id="-25513">
		<tag k="name" v="Holla" />
=======
	<node id="-354487" lat="62.0419611113" lon="10.5615444372">
		<tag k="name" v="Dølbekkbakkan" />
>>>>>>> e1d4bc35ff8a6074a6f2e91616a996b547c36f15
		<tag k="natural" v="slope" />
		<tag k="place" v="locality" />
		<tag k="ssr:stedsnr" v="809322" />
	</node>
<<<<<<< HEAD
	<node lat="62.0767583365347" lon="10.610536111327933" id="-25515">
		<tag k="alt_name" v="Vorda" />
		<tag k="fixme" v="consider natural=peak for the most distinct mountains in the district" />
		<tag k="name" v="Volpiggen" />
		<tag k="natural" v="hill" />
=======
	<node id="-354484" lat="62.0523194485" lon="10.7246388972">
		<tag k="name" v="Tjønnmoen" />
>>>>>>> e1d4bc35ff8a6074a6f2e91616a996b547c36f15
		<tag k="place" v="locality" />
		<tag k="ssr:stedsnr" v="835407" />
	</node>
<<<<<<< HEAD
	<node lat="62.14413611006749" lon="10.545991663557361" id="-25518">
		<tag k="name" v="Løengdalen" />
=======
	<node id="-354483" lat="61.9989111111" lon="10.8113333264">
		<tag k="name" v="Urdliklauva" />
>>>>>>> e1d4bc35ff8a6074a6f2e91616a996b547c36f15
		<tag k="natural" v="valley" />
		<tag k="place" v="locality" />
		<tag k="ssr:stedsnr" v="841657" />
	</node>
<<<<<<< HEAD
	<node lat="62.0091222256264" lon="10.700791665426689" id="-25525">
		<tag k="name" v="Kjølbekkdalen" />
		<tag k="natural" v="valley" />
		<tag k="place" v="locality" />
		<tag k="ssr:stedsnr" v="842668" />
	</node>
	<node lat="62.06499444141527" lon="10.760922212689186" id="-25529">
		<tag k="name" v="Fjellrøsta" />
=======
	<node id="-354480" lat="62.2383972195" lon="10.4430166577">
		<tag k="name" v="Knauslia" />
>>>>>>> e1d4bc35ff8a6074a6f2e91616a996b547c36f15
		<tag k="natural" v="slope" />
		<tag k="place" v="locality" />
		<tag k="ssr:stedsnr" v="843694" />
	</node>
<<<<<<< HEAD
	<node lat="61.97809444629318" lon="10.72593055983324" id="-25531">
		<tag k="name" v="Storriset" />
=======
	<node id="-354479" lat="62.1394861117" lon="10.641938896">
		<tag k="name" v="Tronslia" />
>>>>>>> e1d4bc35ff8a6074a6f2e91616a996b547c36f15
		<tag k="natural" v="slope" />
		<tag k="place" v="locality" />
		<tag k="ssr:stedsnr" v="843665" />
	</node>
<<<<<<< HEAD
	<node lat="62.24295833167527" lon="10.338858331565943" id="-25535">
		<tag k="name" v="Langkroken" />
		<tag k="place" v="locality" />
		<tag k="ssr:stedsnr" v="841085" />
	</node>
	<node lat="62.15770555140431" lon="10.655661102644876" id="-25538">
		<tag k="name" v="Mellomkletten" />
=======
	<node id="-354474" lat="62.1257138931" lon="10.5011416723">
		<tag k="fixme" v="consider natural=peak for the most distinct mountains in the district" />
		<tag k="name" v="Nysæteråsen" />
>>>>>>> e1d4bc35ff8a6074a6f2e91616a996b547c36f15
		<tag k="natural" v="hill" />
		<tag k="place" v="locality" />
		<tag k="ssr:stedsnr" v="860001" />
	</node>
<<<<<<< HEAD
	<node lat="62.20614166855615" lon="10.434499992954436" id="-25544">
		<tag k="alt_name" v="Vesleåsen" />
=======
	<node id="-354471" lat="62.2047694456" lon="10.7094555622">
>>>>>>> e1d4bc35ff8a6074a6f2e91616a996b547c36f15
		<tag k="fixme" v="consider natural=peak for the most distinct mountains in the district" />
		<tag k="name" v="Veslåsen" />
		<tag k="natural" v="hill" />
		<tag k="place" v="locality" />
		<tag k="ssr:stedsnr" v="860074" />
	</node>
<<<<<<< HEAD
	<node lat="62.02305000219819" lon="10.670011111274341" id="-25546">
		<tag k="alt_name" v="Urskardbrotet" />
		<tag k="fixme" v="consider natural=peak for the most distinct mountains in the district" />
		<tag k="name" v="Urdskardbrottet" />
=======
	<node id="-354464" lat="62.1829249988" lon="10.5468999939">
		<tag k="name" v="Vangåsen" />
>>>>>>> e1d4bc35ff8a6074a6f2e91616a996b547c36f15
		<tag k="natural" v="hill" />
		<tag k="place" v="locality" />
		<tag k="ssr:stedsnr" v="860190" />
	</node>
<<<<<<< HEAD
	<node lat="62.13614722624431" lon="10.33027778377009" id="-25554">
		<tag k="alt_name" v="Skarvdalsvorda" />
=======
	<node id="-354457" lat="61.9952303628" lon="10.2209168106">
		<tag k="alt_name" v="Borren, nordre" />
>>>>>>> e1d4bc35ff8a6074a6f2e91616a996b547c36f15
		<tag k="fixme" v="consider natural=peak for the most distinct mountains in the district" />
		<tag k="name" v="Skarvdalsvola" />
		<tag k="natural" v="hill" />
		<tag k="place" v="locality" />
		<tag k="ssr:stedsnr" v="861038" />
	</node>
<<<<<<< HEAD
	<node lat="62.14577789906319" lon="10.565814365474171" id="-25557">
		<tag k="name" v="Frankmoen" />
		<tag k="place" v="locality" />
		<tag k="ssr:stedsnr" v="861053" />
	</node>
	<node lat="62.086080553988886" lon="10.696033327269532" id="-25558">
		<tag k="alt_name" v="Berget" />
		<tag k="name" v="Kvebergsberget" />
=======
	<node id="-354456" lat="61.9797805577" lon="10.2919750051">
		<tag k="alt_name" v="Sølnkletten, store" />
		<tag k="fixme" v="consider natural=peak for the most distinct mountains in the district" />
		<tag k="name" v="Storsølnkletten" />
>>>>>>> e1d4bc35ff8a6074a6f2e91616a996b547c36f15
		<tag k="natural" v="hill" />
		<tag k="place" v="locality" />
		<tag k="ssr:stedsnr" v="870324" />
	</node>
<<<<<<< HEAD
	<node lat="62.14493611226937" lon="10.319425009336927" id="-25564">
		<tag k="name" v="Tverrlia" />
		<tag k="natural" v="slope" />
=======
	<node id="-354452" lat="62.0725361092" lon="10.2802444502">
		<tag k="name" v="Storkvolvet" />
		<tag k="natural" v="ridge" />
>>>>>>> e1d4bc35ff8a6074a6f2e91616a996b547c36f15
		<tag k="place" v="locality" />
		<tag k="ssr:stedsnr" v="962067" />
	</node>
<<<<<<< HEAD
	<node lat="62.13165000440624" lon="10.36293889470902" id="-25565">
=======
	<node id="-354451" lat="62.0687833366" lon="10.3533833285">
		<tag k="alt_name" v="Brennvorda" />
>>>>>>> e1d4bc35ff8a6074a6f2e91616a996b547c36f15
		<tag k="fixme" v="consider natural=peak for the most distinct mountains in the district" />
		<tag k="name" v="Stenvola" />
		<tag k="natural" v="hill" />
		<tag k="place" v="locality" />
		<tag k="ssr:stedsnr" v="962988" />
	</node>
<<<<<<< HEAD
	<node lat="62.11878055379388" lon="10.467680558913697" id="-25566">
		<tag k="name" v="Grønåsen" />
=======
	<node id="-354449" lat="62.1216527818" lon="10.3020666631">
		<tag k="alt_name" v="Veselåsen" />
		<tag k="fixme" v="consider natural=peak for the most distinct mountains in the district" />
		<tag k="name" v="Veslåsen" />
>>>>>>> e1d4bc35ff8a6074a6f2e91616a996b547c36f15
		<tag k="natural" v="hill" />
		<tag k="place" v="locality" />
		<tag k="ssr:stedsnr" v="962991" />
	</node>
	<node lat="61.96660277896512" lon="10.819530553224796" id="-25572">
		<tag k="name" v="Heimskardet" />
		<tag k="natural" v="valley" />
		<tag k="place" v="locality" />
		<tag k="ssr:stedsnr" v="964634" />
	</node>
	<node id="-354446" lat="62.0098611085" lon="10.3464249975">
		<tag k="alt_name" v="Steinvorda" />
		<tag k="fixme" v="consider natural=peak for the most distinct mountains in the district" />
		<tag k="name" v="Steinvola" />
		<tag k="natural" v="hill" />
		<tag k="place" v="locality" />
		<tag k="ssr:stedsnr" v="556208" />
	</node>
	<node id="-354445" lat="62.0393361068" lon="10.8239194364">
		<tag k="name" v="Storbellingen" />
		<tag k="natural" v="hill" />
		<tag k="place" v="locality" />
		<tag k="ssr:stedsnr" v="556056" />
	</node>
	<node id="-354439" lat="62.1948416659" lon="10.39305555">
		<tag k="name" v="Nermoen" />
		<tag k="place" v="locality" />
		<tag k="ssr:stedsnr" v="538956" />
	</node>
	<node id="-354436" lat="62.141555556" lon="10.7121083428">
		<tag k="name" v="Øykjekletten" />
		<tag k="natural" v="hill" />
		<tag k="place" v="locality" />
		<tag k="ssr:stedsnr" v="537818" />
	</node>
	<node id="-354434" lat="62.1514555519" lon="10.3348472164">
		<tag k="fixme" v="consider natural=peak for the most distinct mountains in the district" />
		<tag k="name" v="Kløftåsen" />
		<tag k="natural" v="hill" />
		<tag k="place" v="locality" />
		<tag k="ssr:stedsnr" v="687430" />
	</node>
	<node id="-354431" lat="62.1520805554" lon="10.6387888859">
		<tag k="name" v="Heimkletten" />
		<tag k="natural" v="hill" />
		<tag k="place" v="locality" />
		<tag k="ssr:stedsnr" v="505306" />
	</node>
	<node id="-354430" lat="62.2366416677" lon="10.4245361082">
		<tag k="name" v="Svartknausen" />
		<tag k="natural" v="hill" />
		<tag k="place" v="locality" />
		<tag k="ssr:stedsnr" v="496460" />
	</node>
	<node id="-354428" lat="62.111800003" lon="10.4319750067">
		<tag k="fixme" v="consider natural=peak for the most distinct mountains in the district" />
		<tag k="name" v="Malenaåsen" />
		<tag k="natural" v="hill" />
		<tag k="place" v="locality" />
		<tag k="ssr:stedsnr" v="496256" />
	</node>
	<node id="-354427" lat="62.1951055592" lon="10.4655138974">
		<tag k="name" v="Djupdalen" />
		<tag k="natural" v="valley" />
		<tag k="place" v="locality" />
		<tag k="ssr:stedsnr" v="496111" />
	</node>
	<node id="-354426" lat="61.9745000009" lon="10.2392083346">
		<tag k="alt_name" v="Borren, s" />
		<tag k="name" v="Syndre Boren" />
		<tag k="natural" v="hill" />
		<tag k="place" v="locality" />
		<tag k="ssr:stedsnr" v="495504" />
	</node>
	<node id="-354421" lat="62.0542555546" lon="10.4254027765">
		<tag k="fixme" v="consider natural=peak for the most distinct mountains in the district" />
		<tag k="name" v="Kampan" />
		<tag k="natural" v="hill" />
		<tag k="place" v="locality" />
		<tag k="ssr:stedsnr" v="678187" />
	</node>
	<node id="-354420" lat="62.0652305588" lon="10.5951083285">
		<tag k="fixme" v="consider natural=peak for the most distinct mountains in the district" />
		<tag k="name" v="Klettan" />
		<tag k="natural" v="hill" />
		<tag k="place" v="locality" />
		<tag k="ssr:stedsnr" v="678143" />
	</node>
	<node id="-354414" lat="61.9529444433" lon="10.348286112">
		<tag k="fixme" v="consider natural=peak for the most distinct mountains in the district" />
		<tag k="name" v="Gråvolan" />
		<tag k="natural" v="hill" />
		<tag k="old_name" v="Gråvolvan" />
		<tag k="place" v="locality" />
		<tag k="ssr:stedsnr" v="677424" />
	</node>
	<node id="-354410" lat="62.0573777781" lon="10.6983111201">
		<tag k="name" v="Veslenglia" />
		<tag k="natural" v="slope" />
		<tag k="place" v="locality" />
		<tag k="ssr:stedsnr" v="479852" />
	</node>
	<node id="-354409" lat="62.061544447" lon="10.7681638797">
		<tag k="name" v="Innerenglia" />
		<tag k="natural" v="slope" />
		<tag k="place" v="locality" />
		<tag k="ssr:stedsnr" v="479670" />
	</node>
	<node id="-354400" lat="62.0542194433" lon="10.3902166715">
		<tag k="name" v="Storslettbakken" />
		<tag k="natural" v="slope" />
		<tag k="place" v="locality" />
		<tag k="ssr:stedsnr" v="477813" />
	</node>
	<node id="-354398" lat="62.2160166693" lon="10.6844083247">
		<tag k="name" v="Randegga" />
		<tag k="natural" v="hill" />
		<tag k="place" v="locality" />
		<tag k="ssr:stedsnr" v="476766" />
	</node>
	<node id="-354390" lat="62.0435888884" lon="10.5641944374">
		<tag k="name" v="Aummoen" />
		<tag k="place" v="locality" />
		<tag k="ssr:stedsnr" v="660685" />
	</node>
	<node id="-354385" lat="62.0549416684" lon="10.3956944441">
		<tag k="name" v="Veslekamplia" />
		<tag k="natural" v="slope" />
		<tag k="place" v="locality" />
		<tag k="ssr:stedsnr" v="659785" />
	</node>
	<node id="-354380" lat="62.1160805512" lon="10.4818805622">
		<tag k="name" v="Gruvåsen" />
		<tag k="natural" v="hill" />
		<tag k="place" v="locality" />
		<tag k="ssr:stedsnr" v="659687" />
	</node>
	<node id="-354378" lat="62.2676444446" lon="10.3240277779">
		<tag k="name" v="Marsjølia" />
		<tag k="natural" v="slope" />
		<tag k="place" v="locality" />
		<tag k="ssr:stedsnr" v="659131" />
	</node>
	<node id="-354376" lat="62.1449972225" lon="10.6846666668">
		<tag k="name" v="Bokkhammeren" />
		<tag k="place" v="locality" />
		<tag k="ssr:stedsnr" v="658818" />
	</node>
	<node id="-354373" lat="62.176352774" lon="10.376883338">
		<tag k="name" v="Veslevola" />
		<tag k="natural" v="hill" />
		<tag k="place" v="locality" />
		<tag k="ssr:stedsnr" v="658978" />
	</node>
	<node id="-354371" lat="62.1669722233" lon="10.4615194501">
		<tag k="name" v="Kampen" />
		<tag k="natural" v="hill" />
		<tag k="place" v="locality" />
		<tag k="ssr:stedsnr" v="658967" />
	</node>
	<node id="-354370" lat="62.2340222243" lon="10.4486999915">
		<tag k="name" v="Slettknausen" />
		<tag k="natural" v="hill" />
		<tag k="place" v="locality" />
		<tag k="ssr:stedsnr" v="436402" />
	</node>
	<node id="-354368" lat="62.0129722229" lon="10.4246000054">
		<tag k="name" v="Kvislådalen" />
		<tag k="natural" v="valley" />
		<tag k="place" v="locality" />
		<tag k="ssr:stedsnr" v="436146" />
	</node>
	<node id="-354366" lat="62.0855833356" lon="10.327508327">
		<tag k="alt_name" v="Stenflåen" />
		<tag k="fixme" v="consider natural=peak for the most distinct mountains in the district" />
		<tag k="name" v="Steinfloen" />
		<tag k="natural" v="hill" />
		<tag k="place" v="locality" />
		<tag k="ssr:stedsnr" v="436125" />
	</node>
	<node id="-354359" lat="62.1709222252" lon="10.4634805563">
		<tag k="name" v="Kletten" />
		<tag k="natural" v="hill" />
		<tag k="place" v="locality" />
		<tag k="ssr:stedsnr" v="435014" />
	</node>
	<node id="-354358" lat="61.9442888934" lon="10.2390499917">
		<tag k="name" v="Buska" />
		<tag k="place" v="locality" />
		<tag k="ssr:stedsnr" v="434614" />
	</node>
	<node id="-354357" lat="62.1285416625" lon="10.6464527845">
		<tag k="name" v="Tronsvanglia" />
		<tag k="natural" v="slope" />
		<tag k="place" v="locality" />
		<tag k="ssr:stedsnr" v="418934" />
	</node>
	<node id="-354351" lat="62.2066416641" lon="10.5131472271">
		<tag k="alt_name" v="Naustervorda" />
		<tag k="fixme" v="consider natural=peak for the most distinct mountains in the district" />
		<tag k="name" v="Naustervola" />
		<tag k="natural" v="hill" />
		<tag k="place" v="locality" />
		<tag k="ssr:stedsnr" v="508763" />
	</node>
	<node id="-354343" lat="61.9638333353" lon="10.7699500091">
		<tag k="name" v="Kulhøgda" />
		<tag k="natural" v="hill" />
		<tag k="place" v="locality" />
		<tag k="ssr:stedsnr" v="374355" />
	</node>
	<node id="-354342" lat="62.0582638855" lon="10.6554333303">
		<tag k="name" v="Lauvhaugen" />
		<tag k="natural" v="hill" />
		<tag k="place" v="locality" />
		<tag k="ssr:stedsnr" v="374155" />
	</node>
	<node id="-354341" lat="62.0621111109" lon="10.6070166729">
		<tag k="fixme" v="consider natural=peak for the most distinct mountains in the district" />
		<tag k="name" v="Valleråkjølen" />
		<tag k="natural" v="hill" />
		<tag k="place" v="locality" />
		<tag k="ssr:stedsnr" v="374153" />
	</node>
	<node id="-354339" lat="62.0385472183" lon="10.4937666673">
		<tag k="alt_name" v="Eian" />
		<tag k="name" v="Eggan" />
		<tag k="natural" v="hill" />
		<tag k="place" v="locality" />
		<tag k="ssr:stedsnr" v="374205" />
	</node>
	<node id="-354338" lat="62.0374083296" lon="10.3686777788">
		<tag k="alt_name" v="Kolletvorda" />
		<tag k="fixme" v="consider natural=peak for the most distinct mountains in the district" />
		<tag k="name" v="Kolletvola" />
		<tag k="natural" v="hill" />
		<tag k="place" v="locality" />
		<tag k="ssr:stedsnr" v="374202" />
	</node>
	<node id="-354336" lat="62.0422972223" lon="10.8251166647">
		<tag k="alt_name" v="Midtre Bellingen" />
		<tag k="fixme" v="consider natural=peak for the most distinct mountains in the district" />
		<tag k="name" v="Bellingan" />
		<tag k="natural" v="hill" />
		<tag k="place" v="locality" />
		<tag k="ssr:stedsnr" v="374064" />
	</node>
	<node id="-354334" lat="62.1852277739" lon="10.396124996">
		<tag k="alt_name" v="Skarkletten" />
		<tag k="name" v="Skardkletten" />
		<tag k="natural" v="hill" />
		<tag k="place" v="locality" />
		<tag k="ssr:stedsnr" v="374102" />
	</node>
	<node id="-354332" lat="61.9747888885" lon="10.845580556">
		<tag k="alt_name" v="Barkaldvorda" />
		<tag k="fixme" v="consider natural=peak for the most distinct mountains in the district" />
		<tag k="name" v="Barkaldvola" />
		<tag k="natural" v="hill" />
		<tag k="place" v="locality" />
		<tag k="ssr:stedsnr" v="496357" />
	</node>
	<node id="-354331" lat="61.9480055595" lon="10.7393694423">
		<tag k="fixme" v="consider natural=peak for the most distinct mountains in the district" />
		<tag k="name" v="Kløftbekkhøgda" />
		<tag k="natural" v="hill" />
		<tag k="place" v="locality" />
		<tag k="ssr:stedsnr" v="496344" />
	</node>
	<node id="-354329" lat="62.0034861113" lon="10.4433500009">
		<tag k="fixme" v="consider natural=peak for the most distinct mountains in the district" />
		<tag k="name" v="Fjøshøa" />
		<tag k="natural" v="hill" />
		<tag k="place" v="locality" />
		<tag k="ssr:stedsnr" v="496230" />
	</node>
	<node id="-354328" lat="62.0070750009" lon="10.2829500017">
		<tag k="name" v="Storfloen" />
		<tag k="natural" v="valley" />
		<tag k="place" v="locality" />
		<tag k="ssr:stedsnr" v="496229" />
	</node>
	<node id="-354320" lat="62.0340555569" lon="10.6343499986">
		<tag k="alt_name" v="Urskardkampen" />
		<tag k="fixme" v="consider natural=peak for the most distinct mountains in the district" />
		<tag k="name" v="Urdskardkampen" />
		<tag k="natural" v="hill" />
		<tag k="place" v="locality" />
		<tag k="ssr:stedsnr" v="496168" />
	</node>
	<node id="-354319" lat="62.0782138868" lon="10.5795000057">
		<tag k="fixme" v="consider natural=peak for the most distinct mountains in the district" />
		<tag k="name" v="Høgkletten" />
		<tag k="natural" v="hill" />
		<tag k="place" v="locality" />
		<tag k="ssr:stedsnr" v="496154" />
	</node>
	<node id="-354317" lat="62.1935083372" lon="10.4949944357">
		<tag k="name" v="Skammelsberget" />
		<tag k="natural" v="hill" />
		<tag k="place" v="locality" />
		<tag k="ssr:stedsnr" v="496094" />
	</node>
	<node id="-354316" lat="62.2264166672" lon="10.4248416578">
		<tag k="fixme" v="consider natural=peak for the most distinct mountains in the district" />
		<tag k="name" v="Vesltjønnvola" />
		<tag k="natural" v="hill" />
		<tag k="place" v="locality" />
		<tag k="ssr:stedsnr" v="496078" />
	</node>
	<node id="-354305" lat="61.9631583373" lon="10.2480388964">
		<tag k="name" v="Øya" />
		<tag k="place" v="locality" />
		<tag k="ssr:stedsnr" v="495597" />
	</node>
</osm>
