<?xml version="1.0" encoding="UTF-8"?>
<<<<<<< HEAD
<osm version="0.6" generator="osmapis">
	<node lat="62.186791667061456" lon="10.61708055462234" id="-24319">
		<tag k="landuse" v="industrial" />
		<tag k="name" v="Savalen kraftverk" />
		<tag k="power" v="plant" />
		<tag k="ssr:stedsnr" v="54906" />
	</node>
	<node lat="62.11284166396889" lon="10.724280553435653" id="-24389">
		<tag k="highway" v="path" />
		<tag k="name" v="Almannavegen" />
		<tag k="ssr:stedsnr" v="173612" />
	</node>
	<node lat="62.05395833604009" lon="10.37913055733649" id="-24391">
		<tag k="fixme" v="consider highway=path" />
		<tag k="highway" v="track" />
		<tag k="name" v="Neslundvegen" />
		<tag k="ssr:stedsnr" v="173754" />
	</node>
	<node lat="62.116142083034084" lon="10.558769712649061" id="-24443">
		<tag k="landuse" v="industrial" />
		<tag k="name" v="Sølna kraftstasjon" />
		<tag k="power" v="plant" />
		<tag k="ssr:stedsnr" v="294723" />
	</node>
	<node lat="62.07824721993612" lon="10.695247219738755" id="-24473">
		<tag k="bridge" v="yes" />
		<tag k="layer" v="1" />
		<tag k="name" v="Kveberg hengebru" />
		<tag k="ssr:stedsnr" v="349423" />
	</node>
	<node lat="62.08285555551031" lon="10.529983323870596" id="-24828">
		<tag k="name" v="Varmvelta" />
		<tag k="place" v="locality" />
		<tag k="ssr:stedsnr" v="842215" />
	</node>
	<node lat="62.02375833297097" lon="10.730061115099998" id="-24907">
=======
<osm generator="osmapis" version="0.6">
	<node id="-355358" lat="62.023758333" lon="10.7300611151">
>>>>>>> e1d4bc35ff8a6074a6f2e91616a996b547c36f15
		<tag k="highway" v="path" />
		<tag k="name" v="Brotvegen" />
		<tag k="ssr:stedsnr" v="963698" />
	</node>
<<<<<<< HEAD
	<node lat="62.110038891752005" lon="10.61323334222685" id="-24984">
		<tag k="bridge" v="yes" />
		<tag k="layer" v="1" />
		<tag k="name" v="Moan bru" />
		<tag k="ssr:stedsnr" v="107363" />
	</node>
	<node lat="62.19775555479474" lon="10.433075001007623" id="-25035">
		<tag k="highway" v="path" />
		<tag k="name" v="Mittlisvegen" />
		<tag k="ssr:stedsnr" v="173969" />
	</node>
	<node lat="62.0122222253013" lon="10.628105560853554" id="-25183">
		<tag k="highway" v="path" />
		<tag k="name" v="Kløftvegen" />
		<tag k="ssr:stedsnr" v="357626" />
	</node>
	<node lat="61.99215832966834" lon="10.88601110744559" id="-25255">
		<tag k="alt_name" v="Barkald" />
		<tag k="name" v="Barkald stasjon" />
		<tag k="railway" v="station" />
		<tag k="ssr:stedsnr" v="436316" />
		<tag k="train" v="yes" />
	</node>
	<node lat="62.0301788764173" lon="10.784968868027686" id="-25270">
		<tag k="name" v="Bellingmo holdeplass" />
		<tag k="railway" v="halt" />
		<tag k="ssr:stedsnr" v="496048" />
		<tag k="train" v="yes" />
	</node>
	<node lat="61.996047217891814" lon="10.69622222508582" id="-25403">
=======
	<node id="-354856" lat="62.053958336" lon="10.3791305573">
		<tag k="fixme" v="consider highway=path" />
		<tag k="highway" v="track" />
		<tag k="name" v="Neslundvegen" />
		<tag k="ssr:stedsnr" v="173754" />
	</node>
	<node id="-354392" lat="61.9960472179" lon="10.6962222251">
>>>>>>> e1d4bc35ff8a6074a6f2e91616a996b547c36f15
		<tag k="highway" v="path" />
		<tag k="name" v="Tegningdalsvegen" />
		<tag k="ssr:stedsnr" v="661619" />
	</node>
<<<<<<< HEAD
	<node lat="62.014844443677255" lon="10.750163896453135" id="-25422">
		<tag k="highway" v="path" />
		<tag k="name" v="Nessvegen" />
		<tag k="ssr:stedsnr" v="721645" />
	</node>
	<node lat="62.26744444567762" lon="10.356813883250858" id="-25559">
=======
	<node id="-355351" lat="62.1071916681" lon="10.6311666673">
		<tag k="bridge" v="yes" />
		<tag k="layer" v="1" />
		<tag k="name" v="Kvernbekken" />
		<tag k="ssr:stedsnr" v="957353" />
	</node>
	<node id="-355350" lat="62.2674444457" lon="10.3568138833">
>>>>>>> e1d4bc35ff8a6074a6f2e91616a996b547c36f15
		<tag k="fixme" v="consider highway=path" />
		<tag k="highway" v="track" />
		<tag k="name" v="Rødalsvegen" />
		<tag k="ssr:stedsnr" v="870328" />
	</node>
<<<<<<< HEAD
	<node lat="62.1071916681004" lon="10.631166667319297" id="-25562">
		<tag k="bridge" v="yes" />
		<tag k="layer" v="1" />
		<tag k="name" v="Kvernbekken" />
		<tag k="ssr:stedsnr" v="957353" />
	</node>
	<node lat="62.10872097633105" lon="10.633084904414003" id="-25580">
		<tag k="name" v="Alvdal stasjon" />
		<tag k="railway" v="station" />
		<tag k="ssr:stedsnr" v="989973" />
		<tag k="train" v="yes" />
=======
	<node id="-354850" lat="62.112841664" lon="10.7242805534">
		<tag k="highway" v="path" />
		<tag k="name" v="Almannavegen" />
		<tag k="ssr:stedsnr" v="173612" />
	</node>
	<node id="-354654" lat="62.0828555555" lon="10.5299833239">
		<tag k="name" v="Varmvelta" />
		<tag k="place" v="locality" />
		<tag k="ssr:stedsnr" v="842215" />
	</node>
	<node id="-354130" lat="62.1867916671" lon="10.6170805546">
		<tag k="landuse" v="industrial" />
		<tag k="name" v="Savalen kraftverk" />
		<tag k="power" v="plant" />
		<tag k="ssr:stedsnr" v="54906" />
	</node>
	<node id="-354289" lat="62.0122222253" lon="10.6281055609">
		<tag k="highway" v="path" />
		<tag k="name" v="Kløftvegen" />
		<tag k="ssr:stedsnr" v="357626" />
>>>>>>> e1d4bc35ff8a6074a6f2e91616a996b547c36f15
	</node>
	<node id="-354223" lat="62.119322226" lon="10.5371888971">
		<tag k="landuse" v="industrial" />
		<tag k="name" v="Sølna kraftstasjon" />
		<tag k="power" v="plant" />
		<tag k="ssr:stedsnr" v="294723" />
	</node>
	<node id="-354862" lat="62.1977555548" lon="10.433075001">
		<tag k="highway" v="path" />
		<tag k="name" v="Mittlisvegen" />
		<tag k="ssr:stedsnr" v="173969" />
	</node>
	<node id="-355368" lat="62.1087209763" lon="10.6330849044">
		<tag k="name" v="Alvdal stasjon" />
		<tag k="railway" v="station" />
		<tag k="ssr:stedsnr" v="989973" />
		<tag k="train" v="yes" />
	</node>
	<node id="-354482" lat="62.0148444437" lon="10.7501638965">
		<tag k="highway" v="path" />
		<tag k="name" v="Nessvegen" />
		<tag k="ssr:stedsnr" v="721645" />
	</node>
	<node id="-354954" lat="62.0782472199" lon="10.6952472197">
		<tag k="bridge" v="yes" />
		<tag k="layer" v="1" />
		<tag k="name" v="Kveberg hengebru" />
		<tag k="ssr:stedsnr" v="349423" />
	</node>
	<node id="-354792" lat="62.1100388918" lon="10.6132333422">
		<tag k="bridge" v="yes" />
		<tag k="layer" v="1" />
		<tag k="name" v="Moan bru" />
		<tag k="ssr:stedsnr" v="107363" />
	</node>
	<node id="-355074" lat="61.9921583297" lon="10.8860111074">
		<tag k="alt_name" v="Barkald" />
		<tag k="name" v="Barkald stasjon" />
		<tag k="railway" v="station" />
		<tag k="ssr:stedsnr" v="436316" />
		<tag k="train" v="yes" />
	</node>
	<node id="-354315" lat="62.0301788764" lon="10.784968868">
		<tag k="name" v="Bellingmo holdeplass" />
		<tag k="railway" v="halt" />
		<tag k="ssr:stedsnr" v="496048" />
		<tag k="train" v="yes" />
	</node>
</osm>
