<?xml version="1.0" encoding="UTF-8"?>
<osm generator="osmapis" version="0.6">
	<node id="-64623" lat="60.0281305517" lon="12.0652805595">
		<tag k="name" v="Eidskog" />
		<tag k="ssr:date" v="2016-05-10" />
		<tag k="ssr:gruppe" v="terrengområder" />
		<tag k="ssr:hovedgruppe" v="terreng" />
		<tag k="ssr:stedsnr" v="89788" />
		<tag k="ssr:type" v="landskapsområde" />
	</node>
	<node id="-66237" lat="59.9855611124" lon="12.1250194507">
		<tag k="name" v="Eidskog kommune" />
		<tag k="ssr:date" v="2016-05-11" />
		<tag k="ssr:gruppe" v="administrativeIndelinger" />
		<tag k="ssr:hovedgruppe" v="offentligAdministrasjon" />
		<tag k="ssr:stedsnr" v="814330" />
		<tag k="ssr:type" v="kommune" />
	</node>
	<node id="-64356" lat="59.9438108606" lon="12.1953455968">
		<tag k="name" v="Ekornvegen" />
		<tag k="ssr:date" v="2019-05-30" />
		<tag k="ssr:gruppe" v="veg" />
		<tag k="ssr:hovedgruppe" v="infrastruktur" />
		<tag k="ssr:stedsnr" v="1005693" />
		<tag k="ssr:type" v="adressenavn" />
	</node>
	<node id="-64355" lat="59.9425634611" lon="12.1983656337">
		<tag k="name" v="Ullbergvegen" />
		<tag k="ssr:date" v="2019-05-30" />
		<tag k="ssr:gruppe" v="veg" />
		<tag k="ssr:hovedgruppe" v="infrastruktur" />
		<tag k="ssr:stedsnr" v="1005646" />
		<tag k="ssr:type" v="adressenavn" />
	</node>
	<node id="-66659" lat="60.5908609473" lon="9.63819281559">
		<tag k="fixme" v="multiple name tags, choose one and add the other to alt_name" />
		<tag k="name" v="Austlandet;Østlandet" />
		<tag k="ssr:date" v="2018-01-09" />
		<tag k="ssr:gruppe" v="administrativeIndelinger" />
		<tag k="ssr:hovedgruppe" v="offentligAdministrasjon" />
		<tag k="ssr:stedsnr" v="974775" />
		<tag k="ssr:type" v="annenAdministrativInndeling" />
	</node>
</osm>
