<?xml version="1.0" encoding="UTF-8"?>
<osm version="0.6" generator="osmapis">
	<node lat="59.08217499957687" lon="9.643622229898964" id="-33111">
		<tag k="name" v="Saltbua lykt" />
		<tag k="ssr:date" v="2019-12-27" />
		<tag k="ssr:gruppe" v="navigasjon" />
		<tag k="ssr:hovedgruppe" v="infrastruktur" />
		<tag k="ssr:stedsnr" v="48339" />
		<tag k="ssr:type" v="fyrlykt" />
	</node>
	<node lat="59.05543629765497" lon="9.664997597923934" id="-33125">
		<tag k="alt_name" v="Flogodden" />
		<tag k="name" v="Flauodden" />
		<tag k="ssr:date" v="2019-12-27" />
		<tag k="ssr:gruppe" v="navigasjon" />
		<tag k="ssr:hovedgruppe" v="infrastruktur" />
		<tag k="ssr:stedsnr" v="244459" />
		<tag k="ssr:type" v="fyrlykt" />
	</node>
	<node lat="59.044025000179374" lon="9.744116669457409" id="-33133">
		<tag k="name" v="Røodden" />
		<tag k="ssr:date" v="2019-12-27" />
		<tag k="ssr:gruppe" v="navigasjon" />
		<tag k="ssr:hovedgruppe" v="infrastruktur" />
		<tag k="ssr:stedsnr" v="101160" />
		<tag k="ssr:type" v="fyrlykt" />
	</node>
	<node lat="59.03912778070213" lon="9.730347218429605" id="-33519">
		<tag k="name" v="Bjørkøybåen" />
		<tag k="ssr:date" v="2019-12-27" />
		<tag k="ssr:gruppe" v="navigasjon" />
		<tag k="ssr:hovedgruppe" v="infrastruktur" />
		<tag k="ssr:stedsnr" v="601302" />
		<tag k="ssr:type" v="lanterne" />
	</node>
	<node lat="59.08177166093596" lon="9.643886896148546" id="-33521">
		<tag k="name" v="Saltbuodden" />
		<tag k="ssr:date" v="2020-09-03" />
		<tag k="ssr:gruppe" v="navigasjon" />
		<tag k="ssr:hovedgruppe" v="infrastruktur" />
		<tag k="ssr:stedsnr" v="608443" />
		<tag k="ssr:type" v="fyrlykt" />
	</node>
	<node lat="59.04506666846696" lon="9.728261117305317" id="-33631">
		<tag k="name" v="Smakkebåen" />
		<tag k="ssr:date" v="2019-12-27" />
		<tag k="ssr:gruppe" v="navigasjon" />
		<tag k="ssr:hovedgruppe" v="infrastruktur" />
		<tag k="ssr:stedsnr" v="723337" />
		<tag k="ssr:type" v="lanterne" />
	</node>
	<node lat="59.00778055528226" lon="9.824013896772398" id="-33644">
		<tag k="name" v="Håøytangen" />
		<tag k="ssr:date" v="2019-12-27" />
		<tag k="ssr:gruppe" v="navigasjon" />
		<tag k="ssr:hovedgruppe" v="infrastruktur" />
		<tag k="ssr:stedsnr" v="769199" />
		<tag k="ssr:type" v="fyrlykt" />
	</node>
	<node lat="59.04079444459179" lon="9.74514443980095" id="-33950">
		<tag k="name" v="Bjørkøya" />
		<tag k="ssr:date" v="2019-12-27" />
		<tag k="ssr:gruppe" v="navigasjon" />
		<tag k="ssr:hovedgruppe" v="infrastruktur" />
		<tag k="ssr:stedsnr" v="162182" />
		<tag k="ssr:type" v="lanterne" />
	</node>
	<node lat="59.14171666735752" lon="9.655558332794131" id="-34001">
		<tag k="alt_name" v="Porsgrunn" />
		<tag k="name" v="Porsgrunn kommune" />
		<tag k="ssr:date" v="2019-12-27" />
		<tag k="ssr:gruppe" v="administrativeIndelinger" />
		<tag k="ssr:hovedgruppe" v="offentligAdministrasjon" />
		<tag k="ssr:stedsnr" v="206026" />
		<tag k="ssr:type" v="kommune" />
	</node>
	<node lat="59.14045832901559" lon="9.647152784047993" id="-34088">
		<tag k="name" v="Skjeret lysbøye" />
		<tag k="old_name" v="Skjeret;Strømtangskjæret" />
		<tag k="ssr:date" v="2019-12-27" />
		<tag k="ssr:gruppe" v="navigasjon" />
		<tag k="ssr:hovedgruppe" v="infrastruktur" />
		<tag k="ssr:stedsnr" v="365635" />
		<tag k="ssr:type" v="fyrlykt" />
	</node>
	<node lat="59.03271667031025" lon="9.775197218764271" id="-34100">
		<tag k="name" v="Brattholmen" />
		<tag k="ssr:date" v="2019-12-27" />
		<tag k="ssr:gruppe" v="navigasjon" />
		<tag k="ssr:hovedgruppe" v="infrastruktur" />
		<tag k="ssr:stedsnr" v="405198" />
		<tag k="ssr:type" v="fyrlykt" />
	</node>
	<node lat="59.06251079524713" lon="9.802340009865988" id="-34544">
		<tag k="name" v="Auenlandet" />
		<tag k="ssr:date" v="2019-12-27" />
		<tag k="ssr:gruppe" v="veg" />
		<tag k="ssr:hovedgruppe" v="infrastruktur" />
		<tag k="ssr:stedsnr" v="1050797" />
		<tag k="ssr:type" v="adressenavn" />
	</node>
	<node lat="59.060475863852936" lon="9.791513621809086" id="-34545">
		<tag k="name" v="Eggholmane" />
		<tag k="ssr:date" v="2019-12-27" />
		<tag k="ssr:gruppe" v="veg" />
		<tag k="ssr:hovedgruppe" v="infrastruktur" />
		<tag k="ssr:stedsnr" v="1050798" />
		<tag k="ssr:type" v="adressenavn" />
	</node>
	<node lat="59.06773653074173" lon="9.79524142046996" id="-34546">
		<tag k="name" v="Rødskjær" />
		<tag k="ssr:date" v="2019-12-27" />
		<tag k="ssr:gruppe" v="veg" />
		<tag k="ssr:hovedgruppe" v="infrastruktur" />
		<tag k="ssr:stedsnr" v="1050799" />
		<tag k="ssr:type" v="adressenavn" />
	</node>
	<node lat="59.0468121722352" lon="9.757527144864662" id="-34547">
		<tag k="name" v="Hestholmen" />
		<tag k="ssr:date" v="2019-12-27" />
		<tag k="ssr:gruppe" v="veg" />
		<tag k="ssr:hovedgruppe" v="infrastruktur" />
		<tag k="ssr:stedsnr" v="1050800" />
		<tag k="ssr:type" v="adressenavn" />
	</node>
	<node lat="59.04652645019922" lon="9.787395885328584" id="-34548">
		<tag k="name" v="Karisholmen" />
		<tag k="ssr:date" v="2019-12-27" />
		<tag k="ssr:gruppe" v="veg" />
		<tag k="ssr:hovedgruppe" v="infrastruktur" />
		<tag k="ssr:stedsnr" v="1050801" />
		<tag k="ssr:type" v="adressenavn" />
	</node>
	<node lat="59.061066281047914" lon="9.738607617106082" id="-34549">
		<tag k="name" v="Finsholmane" />
		<tag k="ssr:date" v="2019-12-27" />
		<tag k="ssr:gruppe" v="veg" />
		<tag k="ssr:hovedgruppe" v="infrastruktur" />
		<tag k="ssr:stedsnr" v="1050802" />
		<tag k="ssr:type" v="adressenavn" />
	</node>
	<node lat="59.03497390657037" lon="9.773859391820816" id="-34550">
		<tag k="name" v="Vestre Brattholmen" />
		<tag k="ssr:date" v="2019-12-27" />
		<tag k="ssr:gruppe" v="veg" />
		<tag k="ssr:hovedgruppe" v="infrastruktur" />
		<tag k="ssr:stedsnr" v="1050803" />
		<tag k="ssr:type" v="adressenavn" />
	</node>
	<node lat="59.02980256983753" lon="9.76511467035935" id="-34551">
		<tag k="name" v="Siktesøya" />
		<tag k="ssr:date" v="2019-12-27" />
		<tag k="ssr:gruppe" v="veg" />
		<tag k="ssr:hovedgruppe" v="infrastruktur" />
		<tag k="ssr:stedsnr" v="1050805" />
		<tag k="ssr:type" v="adressenavn" />
	</node>
	<node lat="59.02741986976391" lon="9.751770053481062" id="-34552">
		<tag k="name" v="Risøya" />
		<tag k="ssr:date" v="2019-12-27" />
		<tag k="ssr:gruppe" v="veg" />
		<tag k="ssr:hovedgruppe" v="infrastruktur" />
		<tag k="ssr:stedsnr" v="1050806" />
		<tag k="ssr:type" v="adressenavn" />
	</node>
	<node lat="59.041877467557526" lon="9.837063156009847" id="-34553">
		<tag k="name" v="Tjærildlia" />
		<tag k="ssr:date" v="2019-12-27" />
		<tag k="ssr:gruppe" v="veg" />
		<tag k="ssr:hovedgruppe" v="infrastruktur" />
		<tag k="ssr:stedsnr" v="1050815" />
		<tag k="ssr:type" v="adressenavn" />
	</node>
	<node lat="59.09354668811127" lon="9.69869084435302" id="-34554">
		<tag k="name" v="Ørstvetøya" />
		<tag k="ssr:date" v="2019-12-27" />
		<tag k="ssr:gruppe" v="veg" />
		<tag k="ssr:hovedgruppe" v="infrastruktur" />
		<tag k="ssr:stedsnr" v="1050825" />
		<tag k="ssr:type" v="adressenavn" />
	</node>
	<node lat="59.143905971183116" lon="9.640426915538937" id="-34555">
		<tag k="name" v="Grønlands plass" />
		<tag k="ssr:date" v="2019-12-27" />
		<tag k="ssr:gruppe" v="veg" />
		<tag k="ssr:hovedgruppe" v="infrastruktur" />
		<tag k="ssr:stedsnr" v="1050826" />
		<tag k="ssr:type" v="adressenavn" />
	</node>
	<node lat="59.141886100109105" lon="9.640266846474459" id="-34556">
		<tag k="name" v="Zimmermannløkka" />
		<tag k="ssr:date" v="2019-12-27" />
		<tag k="ssr:gruppe" v="veg" />
		<tag k="ssr:hovedgruppe" v="infrastruktur" />
		<tag k="ssr:stedsnr" v="1050830" />
		<tag k="ssr:type" v="adressenavn" />
	</node>
	<node lat="59.02844558479905" lon="9.760667476931646" id="-34557">
		<tag k="name" v="Rorholmen" />
		<tag k="ssr:date" v="2019-12-27" />
		<tag k="ssr:gruppe" v="veg" />
		<tag k="ssr:hovedgruppe" v="infrastruktur" />
		<tag k="ssr:stedsnr" v="1050835" />
		<tag k="ssr:type" v="adressenavn" />
	</node>
	<node lat="59.150770795180016" lon="9.636191989017906" id="-34558">
		<tag k="name" v="Rabbenkroken" />
		<tag k="ssr:date" v="2019-12-27" />
		<tag k="ssr:gruppe" v="veg" />
		<tag k="ssr:hovedgruppe" v="infrastruktur" />
		<tag k="ssr:stedsnr" v="1050714" />
		<tag k="ssr:type" v="adressenavn" />
	</node>
	<node lat="59.057388439922306" lon="9.720273775297919" id="-34559">
		<tag k="name" v="Dikkon" />
		<tag k="ssr:date" v="2019-12-27" />
		<tag k="ssr:gruppe" v="veg" />
		<tag k="ssr:hovedgruppe" v="infrastruktur" />
		<tag k="ssr:stedsnr" v="1050742" />
		<tag k="ssr:type" v="adressenavn" />
	</node>
	<node lat="59.04818087549927" lon="9.764564457027607" id="-34560">
		<tag k="name" v="Lajordet" />
		<tag k="ssr:date" v="2019-12-27" />
		<tag k="ssr:gruppe" v="veg" />
		<tag k="ssr:hovedgruppe" v="infrastruktur" />
		<tag k="ssr:stedsnr" v="1050753" />
		<tag k="ssr:type" v="adressenavn" />
	</node>
	<node lat="59.01712229753976" lon="9.830610270637782" id="-34561">
		<tag k="name" v="Håøya" />
		<tag k="ssr:date" v="2019-12-27" />
		<tag k="ssr:gruppe" v="veg" />
		<tag k="ssr:hovedgruppe" v="infrastruktur" />
		<tag k="ssr:stedsnr" v="1050756" />
		<tag k="ssr:type" v="adressenavn" />
	</node>
	<node lat="59.12920641770487" lon="9.687483609128977" id="-34562">
		<tag k="name" v="Vallermyrene leir" />
		<tag k="ssr:date" v="2019-12-27" />
		<tag k="ssr:gruppe" v="veg" />
		<tag k="ssr:hovedgruppe" v="infrastruktur" />
		<tag k="ssr:stedsnr" v="1050730" />
		<tag k="ssr:type" v="adressenavn" />
	</node>
	<node lat="59.05955826782373" lon="9.738470623562144" id="-34563">
		<tag k="name" v="Klokkerholmen" />
		<tag k="ssr:date" v="2019-12-27" />
		<tag k="ssr:gruppe" v="veg" />
		<tag k="ssr:hovedgruppe" v="infrastruktur" />
		<tag k="ssr:stedsnr" v="1050837" />
		<tag k="ssr:type" v="adressenavn" />
	</node>
	<node lat="59.05651735243857" lon="9.740985740652382" id="-34564">
		<tag k="name" v="Løvøya" />
		<tag k="ssr:date" v="2019-12-27" />
		<tag k="ssr:gruppe" v="veg" />
		<tag k="ssr:hovedgruppe" v="infrastruktur" />
		<tag k="ssr:stedsnr" v="1050839" />
		<tag k="ssr:type" v="adressenavn" />
	</node>
	<node lat="59.064056434390665" lon="9.732358968396017" id="-34565">
		<tag k="name" v="Smedholmen" />
		<tag k="ssr:date" v="2019-12-27" />
		<tag k="ssr:gruppe" v="veg" />
		<tag k="ssr:hovedgruppe" v="infrastruktur" />
		<tag k="ssr:stedsnr" v="1050840" />
		<tag k="ssr:type" v="adressenavn" />
	</node>
	<node lat="59.0346526725363" lon="9.755865747345078" id="-34566">
		<tag k="name" v="Bjørkøya" />
		<tag k="ssr:date" v="2019-12-27" />
		<tag k="ssr:gruppe" v="veg" />
		<tag k="ssr:hovedgruppe" v="infrastruktur" />
		<tag k="ssr:stedsnr" v="1050841" />
		<tag k="ssr:type" v="adressenavn" />
	</node>
	<node lat="59.06538958447493" lon="9.723650173590494" id="-34567">
		<tag k="name" v="Oksøya" />
		<tag k="ssr:date" v="2019-12-27" />
		<tag k="ssr:gruppe" v="veg" />
		<tag k="ssr:hovedgruppe" v="infrastruktur" />
		<tag k="ssr:stedsnr" v="1050842" />
		<tag k="ssr:type" v="adressenavn" />
	</node>
	<node lat="59.05770563047802" lon="9.785288466533945" id="-34568">
		<tag k="name" v="Bukkøya" />
		<tag k="ssr:date" v="2019-12-27" />
		<tag k="ssr:gruppe" v="veg" />
		<tag k="ssr:hovedgruppe" v="infrastruktur" />
		<tag k="ssr:stedsnr" v="1050847" />
		<tag k="ssr:type" v="adressenavn" />
	</node>
	<node lat="59.21614767841852" lon="9.611103016923492" id="-34570">
		<tag k="name" v="Vestfold og Telemark fylke" />
		<tag k="ssr:date" v="2021-06-08" />
		<tag k="ssr:gruppe" v="administrativeIndelinger" />
		<tag k="ssr:hovedgruppe" v="offentligAdministrasjon" />
		<tag k="ssr:stedsnr" v="1073927" />
		<tag k="ssr:type" v="fylke" />
	</node>
	<node lat="59.15396461631377" lon="9.685212155028708" id="-34572">
		<tag k="name" v="Austadkroken" />
		<tag k="ssr:date" v="2020-06-30" />
		<tag k="ssr:gruppe" v="veg" />
		<tag k="ssr:hovedgruppe" v="infrastruktur" />
		<tag k="ssr:stedsnr" v="1077532" />
		<tag k="ssr:type" v="adressenavn" />
	</node>
	<node lat="59.089195984799225" lon="9.818333746100208" id="-34573">
		<tag k="name" v="Heirønningen" />
		<tag k="ssr:date" v="2020-11-18" />
		<tag k="ssr:gruppe" v="veg" />
		<tag k="ssr:hovedgruppe" v="infrastruktur" />
		<tag k="ssr:stedsnr" v="1078951" />
		<tag k="ssr:type" v="adressenavn" />
	</node>
	<node lat="59.08914882626189" lon="9.821007970747411" id="-34574">
		<tag k="name" v="Setervegen" />
		<tag k="ssr:date" v="2020-11-18" />
		<tag k="ssr:gruppe" v="veg" />
		<tag k="ssr:hovedgruppe" v="infrastruktur" />
		<tag k="ssr:stedsnr" v="1078952" />
		<tag k="ssr:type" v="adressenavn" />
	</node>
	<node lat="59.087278053447264" lon="9.807258853782049" id="-34575">
		<tag k="name" v="Solliavegen" />
		<tag k="ssr:date" v="2020-11-19" />
		<tag k="ssr:gruppe" v="veg" />
		<tag k="ssr:hovedgruppe" v="infrastruktur" />
		<tag k="ssr:stedsnr" v="1078965" />
		<tag k="ssr:type" v="adressenavn" />
	</node>
	<node lat="59.14935863828729" lon="9.657162232347257" id="-34580">
		<tag k="name" v="Fabriciusgata" />
		<tag k="ssr:date" v="2021-03-10" />
		<tag k="ssr:gruppe" v="veg" />
		<tag k="ssr:hovedgruppe" v="infrastruktur" />
		<tag k="ssr:stedsnr" v="1080347" />
		<tag k="ssr:type" v="adressenavn" />
	</node>
	<node lat="59.077108484568846" lon="9.720485016713734" id="-34581">
		<tag k="name" v="Seivallmoen" />
		<tag k="ssr:date" v="2021-03-23" />
		<tag k="ssr:gruppe" v="veg" />
		<tag k="ssr:hovedgruppe" v="infrastruktur" />
		<tag k="ssr:stedsnr" v="1080592" />
		<tag k="ssr:type" v="adressenavn" />
	</node>
	<node lat="59.0773279651222" lon="9.72219927734957" id="-34582">
		<tag k="name" v="Brønnstadvegen" />
		<tag k="ssr:date" v="2021-03-23" />
		<tag k="ssr:gruppe" v="veg" />
		<tag k="ssr:hovedgruppe" v="infrastruktur" />
		<tag k="ssr:stedsnr" v="1080593" />
		<tag k="ssr:type" v="adressenavn" />
	</node>
	<node lat="59.080614541101454" lon="9.69053995709142" id="-34585">
		<tag k="name" v="Lundejordet" />
		<tag k="ssr:date" v="2021-07-26" />
		<tag k="ssr:gruppe" v="veg" />
		<tag k="ssr:hovedgruppe" v="infrastruktur" />
		<tag k="ssr:stedsnr" v="1081815" />
		<tag k="ssr:type" v="adressenavn" />
	</node>
</osm>
