<?xml version="1.0" encoding="UTF-8"?>
<osm version="0.6" generator="osmapis">
	<node lat="59.05541944374405" lon="9.69591111561798" id="-24563">
		<tag k="name" v="Åsen" />
		<tag k="place" v="quarter" />
		<tag k="ssr:date" v="2019-12-27" />
		<tag k="ssr:gruppe" v="bebyggelsesområder" />
		<tag k="ssr:hovedgruppe" v="bebyggelse" />
		<tag k="ssr:stedsnr" v="229835" />
		<tag k="ssr:type" v="boligfelt" />
	</node>
	<node lat="59.06721388668902" lon="9.797652785725909" id="-24564">
		<tag k="alt_name" v="Rødskjeret" />
		<tag k="name" v="Rødskjær" />
		<tag k="place" v="isolated_dwelling" />
		<tag k="ssr:date" v="2019-12-27" />
		<tag k="ssr:gruppe" v="bolighus" />
		<tag k="ssr:hovedgruppe" v="bebyggelse" />
		<tag k="ssr:stedsnr" v="1408" />
		<tag k="ssr:type" v="fritidsbolig" />
	</node>
	<node lat="59.054658337209" lon="9.690561118105467" id="-24565">
		<tag k="fixme" v="consider natural=peak for the most distinct mountains in the district" />
		<tag k="name" v="Pølseåsen" />
		<tag k="natural" v="hill" />
		<tag k="place" v="locality" />
		<tag k="ssr:date" v="2019-12-27" />
		<tag k="ssr:gruppe" v="høyder" />
		<tag k="ssr:hovedgruppe" v="terreng" />
		<tag k="ssr:stedsnr" v="229837" />
		<tag k="ssr:type" v="ås" />
	</node>
	<node lat="59.13483888483313" lon="9.710558329476212" id="-24566">
		<tag k="name" v="Hegnamyrene" />
		<tag k="natural" v="wetland" />
		<tag k="ssr:date" v="2019-12-27" />
		<tag k="ssr:gruppe" v="våtmark" />
		<tag k="ssr:hovedgruppe" v="markslag" />
		<tag k="ssr:stedsnr" v="229853" />
		<tag k="ssr:type" v="myr" />
	</node>
	<node lat="59.060247219518956" lon="9.781588880186478" id="-24567">
		<tag k="name" v="Odden" />
		<tag k="natural" v="cape" />
		<tag k="ssr:date" v="2019-12-27" />
		<tag k="ssr:gruppe" v="kystkontur" />
		<tag k="ssr:hovedgruppe" v="sjø" />
		<tag k="ssr:stedsnr" v="229864" />
		<tag k="ssr:type" v="nesISjø" />
	</node>
	<node lat="59.06768888630752" lon="9.678752770505724" id="-24568">
		<tag k="fixme" v="consider natural=peak for the most distinct mountains in the district" />
		<tag k="name" v="Brentås" />
		<tag k="natural" v="hill" />
		<tag k="place" v="locality" />
		<tag k="ssr:date" v="2019-12-27" />
		<tag k="ssr:gruppe" v="høyder" />
		<tag k="ssr:hovedgruppe" v="terreng" />
		<tag k="ssr:stedsnr" v="229940" />
		<tag k="ssr:type" v="ås" />
	</node>
	<node lat="59.18580277890564" lon="9.83879444665447" id="-24569">
		<tag k="fixme" v="consider natural=peak for the most distinct mountains in the district" />
		<tag k="name" v="Hestås" />
		<tag k="natural" v="hill" />
		<tag k="place" v="locality" />
		<tag k="ssr:date" v="2019-12-27" />
		<tag k="ssr:gruppe" v="høyder" />
		<tag k="ssr:hovedgruppe" v="terreng" />
		<tag k="ssr:stedsnr" v="229955" />
		<tag k="ssr:type" v="ås" />
	</node>
	<node lat="59.14475000268482" lon="9.698055550712413" id="-24570">
		<tag k="fixme" v="consider natural=peak for the most distinct mountains in the district" />
		<tag k="name" v="Kjerringåsen" />
		<tag k="natural" v="hill" />
		<tag k="place" v="locality" />
		<tag k="ssr:date" v="2019-12-27" />
		<tag k="ssr:gruppe" v="høyder" />
		<tag k="ssr:hovedgruppe" v="terreng" />
		<tag k="ssr:stedsnr" v="229956" />
		<tag k="ssr:type" v="ås" />
	</node>
	<node lat="59.13408333008791" lon="9.824494443844998" id="-24571">
		<tag k="fixme" v="consider natural=peak for the most distinct mountains in the district" />
		<tag k="name" v="Lysemoåsen" />
		<tag k="natural" v="hill" />
		<tag k="place" v="locality" />
		<tag k="ssr:date" v="2019-12-27" />
		<tag k="ssr:gruppe" v="høyder" />
		<tag k="ssr:hovedgruppe" v="terreng" />
		<tag k="ssr:stedsnr" v="229959" />
		<tag k="ssr:type" v="ås" />
	</node>
	<node lat="59.0673527772937" lon="9.757422220660116" id="-24572">
		<tag k="fixme" v="consider natural=peak for the most distinct mountains in the district" />
		<tag k="name" v="Plasseråsen" />
		<tag k="natural" v="hill" />
		<tag k="place" v="locality" />
		<tag k="ssr:date" v="2019-12-27" />
		<tag k="ssr:gruppe" v="høyder" />
		<tag k="ssr:hovedgruppe" v="terreng" />
		<tag k="ssr:stedsnr" v="229960" />
		<tag k="ssr:type" v="ås" />
	</node>
	<node lat="59.049977777294664" lon="9.771855560513586" id="-24573">
		<tag k="fixme" v="consider natural=peak for the most distinct mountains in the district" />
		<tag k="name" v="Lufjell" />
		<tag k="natural" v="hill" />
		<tag k="place" v="locality" />
		<tag k="ssr:date" v="2019-12-27" />
		<tag k="ssr:gruppe" v="høyder" />
		<tag k="ssr:hovedgruppe" v="terreng" />
		<tag k="ssr:stedsnr" v="229962" />
		<tag k="ssr:type" v="ås" />
	</node>
	<node lat="59.12127222482138" lon="9.789477770675619" id="-24574">
		<tag k="fixme" v="consider natural=peak for the most distinct mountains in the district" />
		<tag k="name" v="Heståsen" />
		<tag k="natural" v="hill" />
		<tag k="place" v="locality" />
		<tag k="ssr:date" v="2019-12-27" />
		<tag k="ssr:gruppe" v="høyder" />
		<tag k="ssr:hovedgruppe" v="terreng" />
		<tag k="ssr:stedsnr" v="229967" />
		<tag k="ssr:type" v="ås" />
	</node>
	<node lat="59.02362500223023" lon="9.769436106013758" id="-24575">
		<tag k="name" v="Siktesøya" />
		<tag k="place" v="island" />
		<tag k="ssr:date" v="2019-12-27" />
		<tag k="ssr:gruppe" v="kystkontur" />
		<tag k="ssr:hovedgruppe" v="sjø" />
		<tag k="ssr:stedsnr" v="2283" />
		<tag k="ssr:type" v="øyISjø" />
	</node>
	<node lat="59.089719446876096" lon="9.712172226220384" id="-24576">
		<tag k="fixme" v="consider seamark:type=rock or natural=shoal" />
		<tag k="name" v="Røraskjæret" />
		<tag k="place" v="islet" />
		<tag k="ssr:date" v="2019-12-27" />
		<tag k="ssr:gruppe" v="grunnerISjø" />
		<tag k="ssr:hovedgruppe" v="sjø" />
		<tag k="ssr:stedsnr" v="229916" />
		<tag k="ssr:type" v="skjærISjø" />
	</node>
	<node lat="59.030633334748536" lon="9.807258341674146" id="-24577">
		<tag k="name" v="Suggesund" />
		<tag k="natural" v="strait" />
		<tag k="ssr:date" v="2019-12-27" />
		<tag k="ssr:gruppe" v="kystkontur" />
		<tag k="ssr:hovedgruppe" v="sjø" />
		<tag k="ssr:stedsnr" v="229918" />
		<tag k="ssr:type" v="sundISjø" />
	</node>
	<node lat="59.09455833101909" lon="9.696127772214314" id="-24578">
		<tag k="name" v="Tangendammen" />
		<tag k="ssr:date" v="2019-12-27" />
		<tag k="ssr:gruppe" v="stilleståendeVann" />
		<tag k="ssr:hovedgruppe" v="ferskvann" />
		<tag k="ssr:stedsnr" v="229921" />
		<tag k="ssr:type" v="dam" />
		<tag k="waterway" v="dam" />
	</node>
	<node lat="59.099241667052496" lon="9.765227770719159" id="-24579">
		<tag k="name" v="Omsdalsåsen" />
		<tag k="natural" v="hill" />
		<tag k="place" v="locality" />
		<tag k="ssr:date" v="2019-12-27" />
		<tag k="ssr:gruppe" v="høyder" />
		<tag k="ssr:hovedgruppe" v="terreng" />
		<tag k="ssr:stedsnr" v="2404" />
		<tag k="ssr:type" v="haug" />
	</node>
	<node lat="59.1114611090443" lon="9.648841659293504" id="-24581">
		<tag k="fixme" v="consider place=suburb, village or hamlet" />
		<tag k="name" v="Herøya" />
		<tag k="place" v="quarter" />
		<tag k="ssr:date" v="2019-12-27" />
		<tag k="ssr:gruppe" v="bebyggelsesområder" />
		<tag k="ssr:hovedgruppe" v="bebyggelse" />
		<tag k="ssr:stedsnr" v="25025" />
		<tag k="ssr:type" v="tettbebyggelse" />
	</node>
	<node lat="59.091263892325856" lon="9.797077777442817" id="-24582">
		<tag k="name" v="Kjøya" />
		<tag k="natural" v="cape" />
		<tag k="ssr:date" v="2019-12-27" />
		<tag k="ssr:gruppe" v="kystkontur" />
		<tag k="ssr:hovedgruppe" v="sjø" />
		<tag k="ssr:stedsnr" v="26004" />
		<tag k="ssr:type" v="nesISjø" />
	</node>
	<node lat="59.08991111050322" lon="9.640852775723419" id="-24583">
		<tag k="name" v="Nautelandsbåen" />
		<tag k="place" v="locality" />
		<tag k="seamark:type" v="rock" />
		<tag k="ssr:date" v="2019-12-27" />
		<tag k="ssr:gruppe" v="grunnerISjø" />
		<tag k="ssr:hovedgruppe" v="sjø" />
		<tag k="ssr:stedsnr" v="26005" />
		<tag k="ssr:type" v="båeISjø" />
	</node>
	<node lat="59.064450002883675" lon="9.698274996204375" id="-24584">
		<tag k="name" v="Ørviktangen" />
		<tag k="natural" v="cape" />
		<tag k="ssr:date" v="2019-12-27" />
		<tag k="ssr:gruppe" v="kystkontur" />
		<tag k="ssr:hovedgruppe" v="sjø" />
		<tag k="ssr:stedsnr" v="26096" />
		<tag k="ssr:type" v="nesISjø" />
	</node>
	<node lat="59.084986110174654" lon="9.720241670157318" id="-24585">
		<tag k="fixme" v="consider place=hamlet" />
		<tag k="name" v="Bergsbygda" />
		<tag k="place" v="village" />
		<tag k="ssr:date" v="2019-12-27" />
		<tag k="ssr:gruppe" v="bebyggelsesområder" />
		<tag k="ssr:hovedgruppe" v="bebyggelse" />
		<tag k="ssr:stedsnr" v="27277" />
		<tag k="ssr:type" v="bygdelagBygd" />
	</node>
	<node lat="59.02153611078836" lon="9.79859999699571" id="-24586">
		<tag k="bay" v="fjord" />
		<tag k="name" v="Håøyfjorden" />
		<tag k="natural" v="bay" />
		<tag k="ssr:date" v="2019-12-27" />
		<tag k="ssr:gruppe" v="farvann" />
		<tag k="ssr:hovedgruppe" v="sjø" />
		<tag k="ssr:stedsnr" v="27373" />
		<tag k="ssr:type" v="fjord" />
	</node>
	<node lat="59.141552778514004" lon="9.62456110259651" id="-24587">
		<tag k="name" v="Vrigtekåsa" />
		<tag k="place" v="locality" />
		<tag k="ssr:date" v="2019-12-27" />
		<tag k="ssr:gruppe" v="dyrkamark" />
		<tag k="ssr:hovedgruppe" v="markslag" />
		<tag k="ssr:stedsnr" v="29371" />
		<tag k="ssr:type" v="jorde" />
	</node>
	<node lat="59.120355559444775" lon="9.66271110748018" id="-24588">
		<tag k="highway" v="bus_stop" />
		<tag k="name" v="Stigen" />
		<tag k="ssr:date" v="2019-12-27" />
		<tag k="ssr:gruppe" v="veg" />
		<tag k="ssr:hovedgruppe" v="infrastruktur" />
		<tag k="ssr:stedsnr" v="235586" />
		<tag k="ssr:type" v="busstopp" />
	</node>
	<node lat="59.09896111485468" lon="9.720133335881293" id="-24589">
		<tag k="name" v="Vissevåg" />
		<tag k="place" v="farm" />
		<tag k="ssr:date" v="2019-12-27" />
		<tag k="ssr:gruppe" v="gardsbebyggelse" />
		<tag k="ssr:hovedgruppe" v="bebyggelse" />
		<tag k="ssr:stedsnr" v="237052" />
		<tag k="ssr:type" v="bruk" />
	</node>
	<node lat="59.0752055586315" lon="9.686213881888579" id="-24590">
		<tag k="name" v="Brønnløkka" />
		<tag k="place" v="farm" />
		<tag k="ssr:date" v="2019-12-27" />
		<tag k="ssr:gruppe" v="gardsbebyggelse" />
		<tag k="ssr:hovedgruppe" v="bebyggelse" />
		<tag k="ssr:stedsnr" v="238113" />
		<tag k="ssr:type" v="bruk" />
	</node>
	<node lat="59.10108055136812" lon="9.688741671487367" id="-24591">
		<tag k="bridge" v="yes" />
		<tag k="layer" v="1" />
		<tag k="name" v="Ørstvedt bru" />
		<tag k="ssr:date" v="2019-12-27" />
		<tag k="ssr:gruppe" v="samferdselsanlegg" />
		<tag k="ssr:hovedgruppe" v="infrastruktur" />
		<tag k="ssr:stedsnr" v="46720" />
		<tag k="ssr:type" v="bru" />
	</node>
	<node lat="59.098258335624514" lon="9.680475001232407" id="-24594">
		<tag k="fixme" v="consider natural=peak for the most distinct mountains in the district" />
		<tag k="name" v="Skrikaråsen" />
		<tag k="natural" v="hill" />
		<tag k="place" v="locality" />
		<tag k="ssr:date" v="2019-12-27" />
		<tag k="ssr:gruppe" v="høyder" />
		<tag k="ssr:hovedgruppe" v="terreng" />
		<tag k="ssr:stedsnr" v="46775" />
		<tag k="ssr:type" v="ås" />
	</node>
	<node lat="59.03276666312774" lon="9.813563886647943" id="-24599">
		<tag k="name" v="Auensbukta" />
		<tag k="natural" v="bay" />
		<tag k="ssr:date" v="2019-12-27" />
		<tag k="ssr:gruppe" v="kystkontur" />
		<tag k="ssr:hovedgruppe" v="sjø" />
		<tag k="ssr:stedsnr" v="238360" />
		<tag k="ssr:type" v="vikISjø" />
	</node>
	<node lat="59.03360277874286" lon="9.761922230335752" id="-24600">
		<tag k="name" v="Risesundbåane" />
		<tag k="place" v="locality" />
		<tag k="seamark:type" v="rock" />
		<tag k="ssr:date" v="2019-12-27" />
		<tag k="ssr:gruppe" v="grunnerISjø" />
		<tag k="ssr:hovedgruppe" v="sjø" />
		<tag k="ssr:stedsnr" v="238365" />
		<tag k="ssr:type" v="båeISjø" />
	</node>
	<node lat="59.03276388611469" lon="9.75788055854556" id="-24601">
		<tag k="name" v="Dyreholet" />
		<tag k="natural" v="bay" />
		<tag k="ssr:date" v="2019-12-27" />
		<tag k="ssr:gruppe" v="kystkontur" />
		<tag k="ssr:hovedgruppe" v="sjø" />
		<tag k="ssr:stedsnr" v="238369" />
		<tag k="ssr:type" v="vikISjø" />
	</node>
	<node lat="59.04454444233533" lon="9.777955559429751" id="-24603">
		<tag k="alt_name" v="Kattholmen" />
		<tag k="name" v="Kattholmane" />
		<tag k="place" v="islet" />
		<tag k="ssr:date" v="2019-12-27" />
		<tag k="ssr:gruppe" v="kystkontur" />
		<tag k="ssr:hovedgruppe" v="sjø" />
		<tag k="ssr:stedsnr" v="47882" />
		<tag k="ssr:type" v="holmeISjø" />
	</node>
	<node lat="59.055330556767764" lon="9.75222222398722" id="-24604">
		<tag k="name" v="Lortholmen" />
		<tag k="place" v="islet" />
		<tag k="ssr:date" v="2019-12-27" />
		<tag k="ssr:gruppe" v="kystkontur" />
		<tag k="ssr:hovedgruppe" v="sjø" />
		<tag k="ssr:stedsnr" v="47883" />
		<tag k="ssr:type" v="holmeISjø" />
	</node>
	<node lat="59.09901667087729" lon="9.683511109195571" id="-24606">
		<tag k="highway" v="bus_stop" />
		<tag k="name" v="Skjelsvik" />
		<tag k="ssr:date" v="2019-12-27" />
		<tag k="ssr:gruppe" v="veg" />
		<tag k="ssr:hovedgruppe" v="infrastruktur" />
		<tag k="ssr:stedsnr" v="52303" />
		<tag k="ssr:type" v="busstopp" />
	</node>
	<node lat="59.13851944265227" lon="9.649238896710644" id="-24607">
		<tag k="name" v="Meieritorvet" />
		<tag k="place" v="square" />
		<tag k="ssr:date" v="2019-12-27" />
		<tag k="ssr:gruppe" v="bebyggelsesområder" />
		<tag k="ssr:hovedgruppe" v="bebyggelse" />
		<tag k="ssr:stedsnr" v="52982" />
		<tag k="ssr:type" v="torg" />
	</node>
	<node lat="59.13125833387723" lon="9.655444447762912" id="-24608">
		<tag k="amenity" v="hospital" />
		<tag k="name" v="Sykehuset" />
		<tag k="ssr:date" v="2019-12-27" />
		<tag k="ssr:gruppe" v="institusjoner" />
		<tag k="ssr:hovedgruppe" v="bebyggelse" />
		<tag k="ssr:stedsnr" v="53974" />
		<tag k="ssr:type" v="sykehus" />
	</node>
	<node lat="59.13326389026633" lon="9.656513880673467" id="-24609">
		<tag k="highway" v="bus_stop" />
		<tag k="name" v="Brekka" />
		<tag k="ssr:date" v="2019-12-27" />
		<tag k="ssr:gruppe" v="veg" />
		<tag k="ssr:hovedgruppe" v="infrastruktur" />
		<tag k="ssr:stedsnr" v="53983" />
		<tag k="ssr:type" v="busstopp" />
	</node>
	<node lat="59.05634722340677" lon="9.777700003740238" id="-24610">
		<tag k="name" v="Holandsodden" />
		<tag k="natural" v="cape" />
		<tag k="ssr:date" v="2019-12-27" />
		<tag k="ssr:gruppe" v="kystkontur" />
		<tag k="ssr:hovedgruppe" v="sjø" />
		<tag k="ssr:stedsnr" v="56506" />
		<tag k="ssr:type" v="nesISjø" />
	</node>
	<node lat="59.011191666553216" lon="9.819672225337872" id="-24611">
		<tag k="name" v="Rislillodden" />
		<tag k="natural" v="cape" />
		<tag k="ssr:date" v="2019-12-27" />
		<tag k="ssr:gruppe" v="kystkontur" />
		<tag k="ssr:hovedgruppe" v="sjø" />
		<tag k="ssr:stedsnr" v="56278" />
		<tag k="ssr:type" v="nesISjø" />
	</node>
	<node lat="59.17030833477503" lon="9.870355555885938" id="-24612">
		<tag k="name" v="Stranda" />
		<tag k="place" v="farm" />
		<tag k="ssr:date" v="2019-12-27" />
		<tag k="ssr:gruppe" v="gardsbebyggelse" />
		<tag k="ssr:hovedgruppe" v="bebyggelse" />
		<tag k="ssr:stedsnr" v="62508" />
		<tag k="ssr:type" v="bruk" />
	</node>
	<node lat="59.1600611140491" lon="9.80523333082793" id="-24613">
		<tag k="name" v="Hornevann" />
		<tag k="natural" v="water" />
		<tag k="old_name" v="Hornevatn" />
		<tag k="ssr:date" v="2019-12-27" />
		<tag k="ssr:gruppe" v="stilleståendeVann" />
		<tag k="ssr:hovedgruppe" v="ferskvann" />
		<tag k="ssr:stedsnr" v="62520" />
		<tag k="ssr:type" v="tjern" />
	</node>
	<node lat="59.123813885672654" lon="9.766438880801152" id="-24614">
		<tag k="name" v="Tråholtmyra" />
		<tag k="natural" v="wetland" />
		<tag k="ssr:date" v="2019-12-27" />
		<tag k="ssr:gruppe" v="våtmark" />
		<tag k="ssr:hovedgruppe" v="markslag" />
		<tag k="ssr:stedsnr" v="62585" />
		<tag k="ssr:type" v="myr" />
	</node>
	<node lat="59.14050000424884" lon="9.675072215457595" id="-24615">
		<tag k="alt_name" v="Sanda" />
		<tag k="name" v="Sanna" />
		<tag k="place" v="farm" />
		<tag k="ssr:date" v="2019-12-27" />
		<tag k="ssr:gruppe" v="gardsbebyggelse" />
		<tag k="ssr:hovedgruppe" v="bebyggelse" />
		<tag k="ssr:stedsnr" v="62624" />
		<tag k="ssr:type" v="bruk" />
	</node>
	<node lat="59.07387777940352" lon="9.790916672813177" id="-24616">
		<tag k="bay" v="fjord" />
		<tag k="name" v="Langangsfjorden" />
		<tag k="natural" v="bay" />
		<tag k="ssr:date" v="2019-12-27" />
		<tag k="ssr:gruppe" v="farvann" />
		<tag k="ssr:hovedgruppe" v="sjø" />
		<tag k="ssr:stedsnr" v="244417" />
		<tag k="ssr:type" v="fjord" />
	</node>
	<node lat="59.05465833638807" lon="9.726649997689458" id="-24617">
		<tag k="name" v="Sandøya" />
		<tag k="place" v="island" />
		<tag k="ssr:date" v="2019-12-27" />
		<tag k="ssr:gruppe" v="kystkontur" />
		<tag k="ssr:hovedgruppe" v="sjø" />
		<tag k="ssr:stedsnr" v="244447" />
		<tag k="ssr:type" v="øyISjø" />
	</node>
	<node lat="59.052647218196455" lon="9.7715666641088" id="-24618">
		<tag k="fixme" v="consider place=hamlet" />
		<tag k="name" v="Bjønnes" />
		<tag k="place" v="farm" />
		<tag k="ssr:date" v="2019-12-27" />
		<tag k="ssr:gruppe" v="gardsbebyggelse" />
		<tag k="ssr:hovedgruppe" v="bebyggelse" />
		<tag k="ssr:stedsnr" v="244452" />
		<tag k="ssr:type" v="gard" />
	</node>
	<node lat="59.111230551081164" lon="9.778994448451058" id="-24620">
		<tag k="alt_name" v="Storberget" />
		<tag k="fixme" v="consider natural=peak for the most distinct mountains in the district" />
		<tag k="name" v="Storeberg" />
		<tag k="natural" v="hill" />
		<tag k="place" v="locality" />
		<tag k="ssr:date" v="2019-12-27" />
		<tag k="ssr:gruppe" v="høyder" />
		<tag k="ssr:hovedgruppe" v="terreng" />
		<tag k="ssr:stedsnr" v="244623" />
		<tag k="ssr:type" v="ås" />
	</node>
	<node lat="59.055438890840804" lon="9.695930547249167" id="-24621">
		<tag k="name" v="Brevik" />
		<tag k="place" v="town" />
		<tag k="ssr:date" v="2019-12-27" />
		<tag k="ssr:gruppe" v="bebyggelsesområder" />
		<tag k="ssr:hovedgruppe" v="bebyggelse" />
		<tag k="ssr:stedsnr" v="244530" />
		<tag k="ssr:type" v="by" />
	</node>
	<node lat="59.16738333603058" lon="9.855047225373982" id="-24622">
		<tag k="fixme" v="consider place=hamlet" />
		<tag k="name" v="Bakke" />
		<tag k="place" v="farm" />
		<tag k="ssr:date" v="2019-12-27" />
		<tag k="ssr:gruppe" v="gardsbebyggelse" />
		<tag k="ssr:hovedgruppe" v="bebyggelse" />
		<tag k="ssr:stedsnr" v="244545" />
		<tag k="ssr:type" v="gard" />
	</node>
	<node lat="59.15346666887836" lon="9.676463883588095" id="-24623">
		<tag k="name" v="Haugen" />
		<tag k="place" v="farm" />
		<tag k="ssr:date" v="2019-12-27" />
		<tag k="ssr:gruppe" v="gardsbebyggelse" />
		<tag k="ssr:hovedgruppe" v="bebyggelse" />
		<tag k="ssr:stedsnr" v="244642" />
		<tag k="ssr:type" v="bruk" />
	</node>
	<node lat="59.02731388639682" lon="9.810786114029726" id="-24624">
		<tag k="name" v="Håøya" />
		<tag k="place" v="isolated_dwelling" />
		<tag k="ssr:date" v="2019-12-27" />
		<tag k="ssr:gruppe" v="bolighus" />
		<tag k="ssr:hovedgruppe" v="bebyggelse" />
		<tag k="ssr:stedsnr" v="245254" />
		<tag k="ssr:type" v="fritidsbolig" />
	</node>
	<node lat="59.0769888849333" lon="9.763066667991653" id="-24625">
		<tag k="loc_name" v="Gravtjenn" />
		<tag k="name" v="Gravtjern" />
		<tag k="natural" v="water" />
		<tag k="ssr:date" v="2019-12-27" />
		<tag k="ssr:gruppe" v="stilleståendeVann" />
		<tag k="ssr:hovedgruppe" v="ferskvann" />
		<tag k="ssr:stedsnr" v="85994" />
		<tag k="ssr:type" v="tjern" />
	</node>
	<node lat="59.06687499882659" lon="9.644502771106515" id="-24626">
		<tag k="name" v="Kongkleivbåen" />
		<tag k="place" v="locality" />
		<tag k="seamark:type" v="rock" />
		<tag k="ssr:date" v="2019-12-27" />
		<tag k="ssr:gruppe" v="grunnerISjø" />
		<tag k="ssr:hovedgruppe" v="sjø" />
		<tag k="ssr:stedsnr" v="87086" />
		<tag k="ssr:type" v="båeISjø" />
	</node>
	<node lat="59.087261107356085" lon="9.686616659230552" id="-24628">
		<tag k="bridge" v="yes" />
		<tag k="layer" v="1" />
		<tag k="name" v="Løvsjøtoppen" />
		<tag k="ssr:date" v="2019-12-27" />
		<tag k="ssr:gruppe" v="samferdselsanlegg" />
		<tag k="ssr:hovedgruppe" v="infrastruktur" />
		<tag k="ssr:stedsnr" v="107676" />
		<tag k="ssr:type" v="bru" />
	</node>
	<node lat="59.08585277438755" lon="9.719705554933777" id="-24629">
		<tag k="bridge" v="yes" />
		<tag k="layer" v="1" />
		<tag k="name" v="Røra" />
		<tag k="ssr:date" v="2019-12-27" />
		<tag k="ssr:gruppe" v="samferdselsanlegg" />
		<tag k="ssr:hovedgruppe" v="infrastruktur" />
		<tag k="ssr:stedsnr" v="107682" />
		<tag k="ssr:type" v="bru" />
	</node>
	<node lat="59.1333222203965" lon="9.789527786433757" id="-24631">
		<tag k="name" v="Nedre Solli" />
		<tag k="place" v="farm" />
		<tag k="ssr:date" v="2019-12-27" />
		<tag k="ssr:gruppe" v="gardsbebyggelse" />
		<tag k="ssr:hovedgruppe" v="bebyggelse" />
		<tag k="ssr:stedsnr" v="107918" />
		<tag k="ssr:type" v="bruk" />
	</node>
	<node lat="59.05650000384323" lon="9.723516666655476" id="-24632">
		<tag k="fixme" v="consider natural=peak for the most distinct mountains in the district" />
		<tag k="name" v="Kulåsen" />
		<tag k="natural" v="hill" />
		<tag k="place" v="locality" />
		<tag k="ssr:date" v="2019-12-27" />
		<tag k="ssr:gruppe" v="høyder" />
		<tag k="ssr:hovedgruppe" v="terreng" />
		<tag k="ssr:stedsnr" v="108011" />
		<tag k="ssr:type" v="ås" />
	</node>
	<node lat="59.079338884821794" lon="9.818644442739608" id="-24633">
		<tag k="fixme" v="consider natural=peak for the most distinct mountains in the district" />
		<tag k="name" v="Ospekollen" />
		<tag k="natural" v="hill" />
		<tag k="place" v="locality" />
		<tag k="ssr:date" v="2019-12-27" />
		<tag k="ssr:gruppe" v="høyder" />
		<tag k="ssr:hovedgruppe" v="terreng" />
		<tag k="ssr:stedsnr" v="108015" />
		<tag k="ssr:type" v="ås" />
	</node>
	<node lat="59.14899166900994" lon="9.733369442310348" id="-24634">
		<tag k="name" v="Åleberget" />
		<tag k="natural" v="cape" />
		<tag k="ssr:date" v="2019-12-27" />
		<tag k="ssr:gruppe" v="ferskvannskontur" />
		<tag k="ssr:hovedgruppe" v="ferskvann" />
		<tag k="ssr:stedsnr" v="108382" />
		<tag k="ssr:type" v="nes" />
	</node>
	<node lat="59.08164166771518" lon="9.716297226683153" id="-24635">
		<tag k="name" v="Kråkevika" />
		<tag k="natural" v="bay" />
		<tag k="ssr:date" v="2019-12-27" />
		<tag k="ssr:gruppe" v="kystkontur" />
		<tag k="ssr:hovedgruppe" v="sjø" />
		<tag k="ssr:stedsnr" v="108387" />
		<tag k="ssr:type" v="vikISjø" />
	</node>
	<node lat="59.03437777356142" lon="9.77497222249977" id="-24636">
		<tag k="name" v="Brattholmane" />
		<tag k="place" v="islet" />
		<tag k="ssr:date" v="2019-12-27" />
		<tag k="ssr:gruppe" v="kystkontur" />
		<tag k="ssr:hovedgruppe" v="sjø" />
		<tag k="ssr:stedsnr" v="108479" />
		<tag k="ssr:type" v="holmeISjø" />
	</node>
	<node lat="59.086286108516234" lon="9.680850004648436" id="-24637">
		<tag k="name" v="Lundebekken" />
		<tag k="ssr:date" v="2019-12-27" />
		<tag k="ssr:gruppe" v="rennendeVann" />
		<tag k="ssr:hovedgruppe" v="ferskvann" />
		<tag k="ssr:stedsnr" v="108904" />
		<tag k="ssr:type" v="bekk" />
		<tag k="waterway" v="stream" />
	</node>
	<node lat="59.1599722242851" lon="9.741927772514483" id="-24638">
		<tag k="name" v="Siljantjenn" />
		<tag k="natural" v="water" />
		<tag k="ssr:date" v="2019-12-27" />
		<tag k="ssr:gruppe" v="stilleståendeVann" />
		<tag k="ssr:hovedgruppe" v="ferskvann" />
		<tag k="ssr:stedsnr" v="108675" />
		<tag k="ssr:type" v="tjern" />
	</node>
	<node lat="59.11057222180637" lon="9.70246111092054" id="-24639">
		<tag k="highway" v="bus_stop" />
		<tag k="name" v="Prestealleen" />
		<tag k="ssr:date" v="2019-12-27" />
		<tag k="ssr:gruppe" v="veg" />
		<tag k="ssr:hovedgruppe" v="infrastruktur" />
		<tag k="ssr:stedsnr" v="113279" />
		<tag k="ssr:type" v="busstopp" />
	</node>
	<node lat="59.110336112138526" lon="9.667216668778192" id="-24640">
		<tag k="building" v="commercial" />
		<tag k="name" v="Stridskleivsenteret" />
		<tag k="ssr:date" v="2019-12-27" />
		<tag k="ssr:gruppe" v="næring" />
		<tag k="ssr:hovedgruppe" v="bebyggelse" />
		<tag k="ssr:stedsnr" v="113527" />
		<tag k="ssr:type" v="forretningsbygg" />
	</node>
	<node lat="59.05651666838492" lon="9.690599999058003" id="-24641">
		<tag k="highway" v="bus_stop" />
		<tag k="name" v="Furulund" />
		<tag k="ssr:date" v="2019-12-27" />
		<tag k="ssr:gruppe" v="veg" />
		<tag k="ssr:hovedgruppe" v="infrastruktur" />
		<tag k="ssr:stedsnr" v="113648" />
		<tag k="ssr:type" v="busstopp" />
	</node>
	<node lat="59.08168610880311" lon="9.682955553686622" id="-24642">
		<tag k="highway" v="bus_stop" />
		<tag k="name" v="Grava" />
		<tag k="ssr:date" v="2019-12-27" />
		<tag k="ssr:gruppe" v="veg" />
		<tag k="ssr:hovedgruppe" v="infrastruktur" />
		<tag k="ssr:stedsnr" v="113682" />
		<tag k="ssr:type" v="busstopp" />
	</node>
	<node lat="59.02915277585209" lon="9.802852785089824" id="-24643">
		<tag k="name" v="Ånesteinsmarka" />
		<tag k="place" v="isolated_dwelling" />
		<tag k="ssr:date" v="2019-12-27" />
		<tag k="ssr:gruppe" v="bolighus" />
		<tag k="ssr:hovedgruppe" v="bebyggelse" />
		<tag k="ssr:stedsnr" v="116284" />
		<tag k="ssr:type" v="fritidsbolig" />
	</node>
	<node lat="59.07571944525782" lon="9.653616660006254" id="-24644">
		<tag k="name" v="Hitterød" />
		<tag k="place" v="isolated_dwelling" />
		<tag k="ssr:date" v="2019-12-27" />
		<tag k="ssr:gruppe" v="bolighus" />
		<tag k="ssr:hovedgruppe" v="bebyggelse" />
		<tag k="ssr:stedsnr" v="122409" />
		<tag k="ssr:type" v="eneboligMindreBoligbygg" />
	</node>
	<node lat="59.08399444180499" lon="9.72716388143715" id="-24645">
		<tag k="fixme" v="consider place=hamlet" />
		<tag k="name" v="Berg" />
		<tag k="place" v="farm" />
		<tag k="ssr:date" v="2019-12-27" />
		<tag k="ssr:gruppe" v="gardsbebyggelse" />
		<tag k="ssr:hovedgruppe" v="bebyggelse" />
		<tag k="ssr:stedsnr" v="122423" />
		<tag k="ssr:type" v="gard" />
	</node>
	<node lat="59.06126111419172" lon="9.824019446370528" id="-24646">
		<tag k="name" v="Lauvvikane" />
		<tag k="place" v="farm" />
		<tag k="ssr:date" v="2019-12-27" />
		<tag k="ssr:gruppe" v="gardsbebyggelse" />
		<tag k="ssr:hovedgruppe" v="bebyggelse" />
		<tag k="ssr:stedsnr" v="123504" />
		<tag k="ssr:type" v="bruk" />
	</node>
	<node lat="59.035916667434705" lon="9.761050007045522" id="-24647">
		<tag k="name" v="Kalven" />
		<tag k="natural" v="strait" />
		<tag k="ssr:date" v="2019-12-27" />
		<tag k="ssr:gruppe" v="kystkontur" />
		<tag k="ssr:hovedgruppe" v="sjø" />
		<tag k="ssr:stedsnr" v="123538" />
		<tag k="ssr:type" v="sundISjø" />
	</node>
	<node lat="59.16410277700778" lon="9.746108342014079" id="-24648">
		<tag k="fixme" v="consider place=hamlet" />
		<tag k="name" v="Øgården" />
		<tag k="place" v="farm" />
		<tag k="ssr:date" v="2021-06-08" />
		<tag k="ssr:gruppe" v="gardsbebyggelse" />
		<tag k="ssr:hovedgruppe" v="bebyggelse" />
		<tag k="ssr:stedsnr" v="123561" />
		<tag k="ssr:type" v="gard" />
	</node>
	<node lat="59.16042222087417" lon="9.80314444938933" id="-24649">
		<tag k="name" v="Berg" />
		<tag k="place" v="farm" />
		<tag k="ssr:date" v="2019-12-27" />
		<tag k="ssr:gruppe" v="gardsbebyggelse" />
		<tag k="ssr:hovedgruppe" v="bebyggelse" />
		<tag k="ssr:stedsnr" v="123566" />
		<tag k="ssr:type" v="bruk" />
	</node>
	<node lat="59.12081666470783" lon="9.727244435932612" id="-24650">
		<tag k="name" v="Tråholt" />
		<tag k="place" v="farm" />
		<tag k="ssr:date" v="2019-12-27" />
		<tag k="ssr:gruppe" v="gardsbebyggelse" />
		<tag k="ssr:hovedgruppe" v="bebyggelse" />
		<tag k="ssr:stedsnr" v="123634" />
		<tag k="ssr:type" v="bruk" />
	</node>
	<node lat="59.152252781758165" lon="9.702416669684768" id="-24651">
		<tag k="name" v="Høgset" />
		<tag k="place" v="farm" />
		<tag k="ssr:date" v="2019-12-27" />
		<tag k="ssr:gruppe" v="gardsbebyggelse" />
		<tag k="ssr:hovedgruppe" v="bebyggelse" />
		<tag k="ssr:stedsnr" v="123645" />
		<tag k="ssr:type" v="bruk" />
	</node>
	<node lat="59.14799722431637" lon="9.73098610635662" id="-24652">
		<tag k="name" v="Lundevann" />
		<tag k="natural" v="water" />
		<tag k="old_name" v="Lundevatn" />
		<tag k="ssr:date" v="2019-12-27" />
		<tag k="ssr:gruppe" v="stilleståendeVann" />
		<tag k="ssr:hovedgruppe" v="ferskvann" />
		<tag k="ssr:stedsnr" v="123647" />
		<tag k="ssr:type" v="tjern" />
	</node>
	<node lat="59.05061944088725" lon="9.691788885599925" id="-24653">
		<tag k="name" v="Strømtangen" />
		<tag k="natural" v="cape" />
		<tag k="ssr:date" v="2019-12-27" />
		<tag k="ssr:gruppe" v="kystkontur" />
		<tag k="ssr:hovedgruppe" v="sjø" />
		<tag k="ssr:stedsnr" v="146038" />
		<tag k="ssr:type" v="nesISjø" />
	</node>
	<node lat="59.10265000148033" lon="9.804866666582791" id="-24654">
		<tag k="fixme" v="consider natural=peak for the most distinct mountains in the district" />
		<tag k="name" v="Stueåsen" />
		<tag k="natural" v="hill" />
		<tag k="place" v="locality" />
		<tag k="ssr:date" v="2019-12-27" />
		<tag k="ssr:gruppe" v="høyder" />
		<tag k="ssr:hovedgruppe" v="terreng" />
		<tag k="ssr:stedsnr" v="167764" />
		<tag k="ssr:type" v="ås" />
	</node>
	<node lat="59.076113890007534" lon="9.748944437776029" id="-24656">
		<tag k="fixme" v="consider natural=peak for the most distinct mountains in the district" />
		<tag k="name" v="Kastvegåsen" />
		<tag k="natural" v="hill" />
		<tag k="place" v="locality" />
		<tag k="ssr:date" v="2019-12-27" />
		<tag k="ssr:gruppe" v="høyder" />
		<tag k="ssr:hovedgruppe" v="terreng" />
		<tag k="ssr:stedsnr" v="168007" />
		<tag k="ssr:type" v="ås" />
	</node>
	<node lat="59.11074999671038" lon="9.728638891874457" id="-24657">
		<tag k="fixme" v="consider natural=peak for the most distinct mountains in the district" />
		<tag k="name" v="Skotåsen" />
		<tag k="natural" v="hill" />
		<tag k="place" v="locality" />
		<tag k="ssr:date" v="2019-12-27" />
		<tag k="ssr:gruppe" v="høyder" />
		<tag k="ssr:hovedgruppe" v="terreng" />
		<tag k="ssr:stedsnr" v="168016" />
		<tag k="ssr:type" v="ås" />
	</node>
	<node lat="59.04785833363676" lon="9.745836116189475" id="-24658">
		<tag k="name" v="Kubekken" />
		<tag k="ssr:date" v="2019-12-27" />
		<tag k="ssr:gruppe" v="rennendeVann" />
		<tag k="ssr:hovedgruppe" v="ferskvann" />
		<tag k="ssr:stedsnr" v="168022" />
		<tag k="ssr:type" v="bekk" />
		<tag k="waterway" v="stream" />
	</node>
	<node lat="59.17918055467184" lon="9.774188890927714" id="-24659">
		<tag k="name" v="Tvittingen" />
		<tag k="natural" v="water" />
		<tag k="ssr:date" v="2019-12-27" />
		<tag k="ssr:gruppe" v="stilleståendeVann" />
		<tag k="ssr:hovedgruppe" v="ferskvann" />
		<tag k="ssr:stedsnr" v="168064" />
		<tag k="ssr:type" v="tjern" />
	</node>
	<node lat="59.109555556350294" lon="9.7446277693483" id="-24660">
		<tag k="name" v="Lannerdammen" />
		<tag k="natural" v="water" />
		<tag k="ssr:date" v="2019-12-27" />
		<tag k="ssr:gruppe" v="stilleståendeVann" />
		<tag k="ssr:hovedgruppe" v="ferskvann" />
		<tag k="ssr:stedsnr" v="168065" />
		<tag k="ssr:type" v="vann" />
		<tag k="water" v="lake" />
	</node>
	<node lat="59.05729444535006" lon="9.677555559766663" id="-24661">
		<tag k="name" v="Dammane" />
		<tag k="natural" v="water" />
		<tag k="ssr:date" v="2019-12-27" />
		<tag k="ssr:gruppe" v="stilleståendeVann" />
		<tag k="ssr:hovedgruppe" v="ferskvann" />
		<tag k="ssr:stedsnr" v="168070" />
		<tag k="ssr:type" v="pytt" />
		<tag k="water" v="pond" />
	</node>
	<node lat="59.17143611360332" lon="9.884800005508104" id="-24663">
		<tag k="name" v="Bjønnesodden" />
		<tag k="natural" v="cape" />
		<tag k="ssr:date" v="2019-12-27" />
		<tag k="ssr:gruppe" v="ferskvannskontur" />
		<tag k="ssr:hovedgruppe" v="ferskvann" />
		<tag k="ssr:stedsnr" v="168602" />
		<tag k="ssr:type" v="nes" />
	</node>
	<node lat="59.141675002047606" lon="9.729541674562215" id="-24665">
		<tag k="name" v="Ødegården" />
		<tag k="place" v="locality" />
		<tag k="ssr:date" v="2019-12-27" />
		<tag k="ssr:gruppe" v="bolighus" />
		<tag k="ssr:hovedgruppe" v="bebyggelse" />
		<tag k="ssr:stedsnr" v="168903" />
		<tag k="ssr:type" v="gammelBosettingsplass" />
	</node>
	<node lat="59.0917194459913" lon="9.791869436357176" id="-24666">
		<tag k="name" v="Kokkersvold" />
		<tag k="place" v="farm" />
		<tag k="ssr:date" v="2019-12-27" />
		<tag k="ssr:gruppe" v="gardsbebyggelse" />
		<tag k="ssr:hovedgruppe" v="bebyggelse" />
		<tag k="ssr:stedsnr" v="168908" />
		<tag k="ssr:type" v="bruk" />
	</node>
	<node lat="59.14398055406976" lon="9.78867221658058" id="-24667">
		<tag k="name" v="Dalen" />
		<tag k="place" v="farm" />
		<tag k="ssr:date" v="2019-12-27" />
		<tag k="ssr:gruppe" v="gardsbebyggelse" />
		<tag k="ssr:hovedgruppe" v="bebyggelse" />
		<tag k="ssr:stedsnr" v="168911" />
		<tag k="ssr:type" v="bruk" />
	</node>
	<node lat="59.15545833189175" lon="9.75678055576807" id="-24668">
		<tag k="fixme" v="consider natural=peak for the most distinct mountains in the district" />
		<tag k="name" v="Tommesdalåsen" />
		<tag k="natural" v="hill" />
		<tag k="place" v="locality" />
		<tag k="ssr:date" v="2019-12-27" />
		<tag k="ssr:gruppe" v="høyder" />
		<tag k="ssr:hovedgruppe" v="terreng" />
		<tag k="ssr:stedsnr" v="168918" />
		<tag k="ssr:type" v="ås" />
	</node>
	<node lat="59.10553611160357" lon="9.700522214609931" id="-24669">
		<tag k="highway" v="bus_stop" />
		<tag k="name" v="Øvaldvegen" />
		<tag k="ssr:date" v="2019-12-27" />
		<tag k="ssr:gruppe" v="veg" />
		<tag k="ssr:hovedgruppe" v="infrastruktur" />
		<tag k="ssr:stedsnr" v="173264" />
		<tag k="ssr:type" v="busstopp" />
	</node>
	<node lat="59.07903889194098" lon="9.797508332036161" id="-24670">
		<tag k="name" v="Sjørønningen" />
		<tag k="place" v="farm" />
		<tag k="ssr:date" v="2019-12-27" />
		<tag k="ssr:gruppe" v="gardsbebyggelse" />
		<tag k="ssr:hovedgruppe" v="bebyggelse" />
		<tag k="ssr:stedsnr" v="177020" />
		<tag k="ssr:type" v="bruk" />
	</node>
	<node lat="59.041375002752574" lon="9.835483333946314" id="-24672">
		<tag k="name" v="Linnalia" />
		<tag k="natural" v="slope" />
		<tag k="place" v="locality" />
		<tag k="ssr:date" v="2019-12-27" />
		<tag k="ssr:gruppe" v="skråninger" />
		<tag k="ssr:hovedgruppe" v="terreng" />
		<tag k="ssr:stedsnr" v="177312" />
		<tag k="ssr:type" v="li" />
	</node>
	<node lat="59.06644166533193" lon="9.670686105852727" id="-24673">
		<tag k="name" v="Veitåsen" />
		<tag k="natural" v="hill" />
		<tag k="place" v="locality" />
		<tag k="ssr:date" v="2019-12-27" />
		<tag k="ssr:gruppe" v="høyder" />
		<tag k="ssr:hovedgruppe" v="terreng" />
		<tag k="ssr:stedsnr" v="183365" />
		<tag k="ssr:type" v="haug" />
	</node>
	<node lat="59.14281388910522" lon="9.686027778185025" id="-24674">
		<tag k="name" v="Søli" />
		<tag k="place" v="farm" />
		<tag k="ssr:date" v="2019-12-27" />
		<tag k="ssr:gruppe" v="gardsbebyggelse" />
		<tag k="ssr:hovedgruppe" v="bebyggelse" />
		<tag k="ssr:stedsnr" v="183602" />
		<tag k="ssr:type" v="bruk" />
	</node>
	<node lat="59.13936111536595" lon="9.667383328712779" id="-24675">
		<tag k="name" v="Kjølnes" />
		<tag k="place" v="quarter" />
		<tag k="ssr:date" v="2019-12-27" />
		<tag k="ssr:gruppe" v="bebyggelsesområder" />
		<tag k="ssr:hovedgruppe" v="bebyggelse" />
		<tag k="ssr:stedsnr" v="183603" />
		<tag k="ssr:type" v="industriområde" />
	</node>
	<node lat="59.12992499564324" lon="9.675233334205542" id="-24676">
		<tag k="name" v="Myrane" />
		<tag k="place" v="farm" />
		<tag k="ssr:date" v="2019-12-27" />
		<tag k="ssr:gruppe" v="gardsbebyggelse" />
		<tag k="ssr:hovedgruppe" v="bebyggelse" />
		<tag k="ssr:stedsnr" v="183610" />
		<tag k="ssr:type" v="bruk" />
	</node>
	<node lat="59.087688885948275" lon="9.804602785211996" id="-24677">
		<tag k="fixme" v="consider place=suburb, village or hamlet" />
		<tag k="name" v="Langangen" />
		<tag k="place" v="quarter" />
		<tag k="ssr:date" v="2019-12-27" />
		<tag k="ssr:gruppe" v="bebyggelsesområder" />
		<tag k="ssr:hovedgruppe" v="bebyggelse" />
		<tag k="ssr:stedsnr" v="184444" />
		<tag k="ssr:type" v="tettbebyggelse" />
	</node>
	<node lat="59.052416665387305" lon="9.809408327290383" id="-24678">
		<tag k="fixme" v="consider natural=peak for the most distinct mountains in the district" />
		<tag k="name" v="Barlindåsen" />
		<tag k="natural" v="hill" />
		<tag k="place" v="locality" />
		<tag k="ssr:date" v="2019-12-27" />
		<tag k="ssr:gruppe" v="høyder" />
		<tag k="ssr:hovedgruppe" v="terreng" />
		<tag k="ssr:stedsnr" v="184458" />
		<tag k="ssr:type" v="ås" />
	</node>
	<node lat="59.15995833295371" lon="9.808658337174247" id="-24679">
		<tag k="name" v="Plassen" />
		<tag k="place" v="farm" />
		<tag k="ssr:date" v="2019-12-27" />
		<tag k="ssr:gruppe" v="gardsbebyggelse" />
		<tag k="ssr:hovedgruppe" v="bebyggelse" />
		<tag k="ssr:stedsnr" v="184524" />
		<tag k="ssr:type" v="bruk" />
	</node>
	<node lat="59.109949996756605" lon="9.719280547724306" id="-24680">
		<tag k="name" v="Hasler" />
		<tag k="place" v="farm" />
		<tag k="ssr:date" v="2019-12-27" />
		<tag k="ssr:gruppe" v="gardsbebyggelse" />
		<tag k="ssr:hovedgruppe" v="bebyggelse" />
		<tag k="ssr:stedsnr" v="266823" />
		<tag k="ssr:type" v="bruk" />
	</node>
	<node lat="59.05623333459539" lon="9.758955559976881" id="-24681">
		<tag k="alt_name" v="Kjelkavik" />
		<tag k="name" v="Kjelkevik" />
		<tag k="natural" v="bay" />
		<tag k="ssr:date" v="2019-12-27" />
		<tag k="ssr:gruppe" v="kystkontur" />
		<tag k="ssr:hovedgruppe" v="sjø" />
		<tag k="ssr:stedsnr" v="266848" />
		<tag k="ssr:type" v="vikISjø" />
	</node>
	<node lat="59.117933331417504" lon="9.672463885795347" id="-24682">
		<tag k="name" v="Rød" />
		<tag k="place" v="locality" />
		<tag k="ssr:date" v="2019-12-27" />
		<tag k="ssr:gruppe" v="gardsbebyggelse" />
		<tag k="ssr:hovedgruppe" v="bebyggelse" />
		<tag k="ssr:stedsnr" v="268046" />
		<tag k="ssr:type" v="eiendom" />
	</node>
	<node lat="59.07090000002128" lon="9.691619453024796" id="-24683">
		<tag k="name" v="Ørvika" />
		<tag k="natural" v="bay" />
		<tag k="ssr:date" v="2019-12-27" />
		<tag k="ssr:gruppe" v="kystkontur" />
		<tag k="ssr:hovedgruppe" v="sjø" />
		<tag k="ssr:stedsnr" v="205842" />
		<tag k="ssr:type" v="vikISjø" />
	</node>
	<node lat="59.12084166556097" lon="9.65002221536936" id="-24684">
		<tag k="name" v="Kleivstrand" />
		<tag k="natural" v="beach" />
		<tag k="ssr:date" v="2019-12-27" />
		<tag k="ssr:gruppe" v="kystkontur" />
		<tag k="ssr:hovedgruppe" v="sjø" />
		<tag k="ssr:stedsnr" v="207253" />
		<tag k="ssr:type" v="strandISjø" />
	</node>
	<node lat="59.03670555696771" lon="9.808499999219183" id="-24685">
		<tag k="alt_name" v="Auens hue" />
		<tag k="name" v="Auenshue" />
		<tag k="natural" v="cape" />
		<tag k="ssr:date" v="2019-12-27" />
		<tag k="ssr:gruppe" v="kystkontur" />
		<tag k="ssr:hovedgruppe" v="sjø" />
		<tag k="ssr:stedsnr" v="207342" />
		<tag k="ssr:type" v="nesISjø" />
	</node>
	<node lat="59.05938611009793" lon="9.740158334431124" id="-24686">
		<tag k="name" v="Klokkerholmen" />
		<tag k="place" v="islet" />
		<tag k="ssr:date" v="2019-12-27" />
		<tag k="ssr:gruppe" v="kystkontur" />
		<tag k="ssr:hovedgruppe" v="sjø" />
		<tag k="ssr:stedsnr" v="207391" />
		<tag k="ssr:type" v="holmeISjø" />
	</node>
	<node lat="59.04803611506488" lon="9.761702772643297" id="-24687">
		<tag k="name" v="Sildevika" />
		<tag k="natural" v="bay" />
		<tag k="ssr:date" v="2019-12-27" />
		<tag k="ssr:gruppe" v="kystkontur" />
		<tag k="ssr:hovedgruppe" v="sjø" />
		<tag k="ssr:stedsnr" v="208089" />
		<tag k="ssr:type" v="vikISjø" />
	</node>
	<node lat="59.107761914138784" lon="9.699180068913615" id="-24688">
		<tag k="name" v="Øvall" />
		<tag k="place" v="locality" />
		<tag k="ssr:date" v="2019-12-27" />
		<tag k="ssr:gruppe" v="gardsbebyggelse" />
		<tag k="ssr:hovedgruppe" v="bebyggelse" />
		<tag k="ssr:stedsnr" v="269062" />
		<tag k="ssr:type" v="eiendom" />
	</node>
	<node lat="59.044800002357775" lon="9.734111114963826" id="-24689">
		<tag k="name" v="Kalvehue" />
		<tag k="natural" v="cape" />
		<tag k="ssr:date" v="2019-12-27" />
		<tag k="ssr:gruppe" v="kystkontur" />
		<tag k="ssr:hovedgruppe" v="sjø" />
		<tag k="ssr:stedsnr" v="269110" />
		<tag k="ssr:type" v="nesISjø" />
	</node>
	<node lat="59.04430278207919" lon="9.72986388378915" id="-24690">
		<tag k="name" v="Smakkebåen" />
		<tag k="place" v="locality" />
		<tag k="seamark:type" v="rock" />
		<tag k="ssr:date" v="2019-12-27" />
		<tag k="ssr:gruppe" v="grunnerISjø" />
		<tag k="ssr:hovedgruppe" v="sjø" />
		<tag k="ssr:stedsnr" v="269112" />
		<tag k="ssr:type" v="båeISjø" />
	</node>
	<node lat="59.16492777753616" lon="9.811130553601924" id="-24691">
		<tag k="bridge" v="yes" />
		<tag k="layer" v="1" />
		<tag k="loc_name" v="Løkebru" />
		<tag k="name" v="Løke" />
		<tag k="ssr:date" v="2019-12-27" />
		<tag k="ssr:gruppe" v="samferdselsanlegg" />
		<tag k="ssr:hovedgruppe" v="infrastruktur" />
		<tag k="ssr:stedsnr" v="228707" />
		<tag k="ssr:type" v="bru" />
	</node>
	<node lat="59.105061107109634" lon="9.750788889099532" id="-24692">
		<tag k="bridge" v="yes" />
		<tag k="layer" v="1" />
		<tag k="name" v="Lanner" />
		<tag k="ssr:date" v="2020-10-26" />
		<tag k="ssr:gruppe" v="samferdselsanlegg" />
		<tag k="ssr:hovedgruppe" v="infrastruktur" />
		<tag k="ssr:stedsnr" v="228708" />
		<tag k="ssr:type" v="bru" />
	</node>
	<node lat="59.04872499804248" lon="9.725913897424594" id="-24704">
		<tag k="name" v="Smørtønna" />
		<tag k="place" v="locality" />
		<tag k="seamark:type" v="rock" />
		<tag k="ssr:date" v="2019-12-27" />
		<tag k="ssr:gruppe" v="grunnerISjø" />
		<tag k="ssr:hovedgruppe" v="sjø" />
		<tag k="ssr:stedsnr" v="229996" />
		<tag k="ssr:type" v="båeISjø" />
	</node>
	<node lat="59.02973888752623" lon="9.800930561627549" id="-24705">
		<tag k="name" v="Ånestein" />
		<tag k="place" v="islet" />
		<tag k="ssr:date" v="2019-12-27" />
		<tag k="ssr:gruppe" v="kystkontur" />
		<tag k="ssr:hovedgruppe" v="sjø" />
		<tag k="ssr:stedsnr" v="229883" />
		<tag k="ssr:type" v="holmeISjø" />
	</node>
	<node lat="59.04048610886029" lon="9.764358327460078" id="-24706">
		<tag k="name" v="Kisteholmen" />
		<tag k="place" v="islet" />
		<tag k="ssr:date" v="2019-12-27" />
		<tag k="ssr:gruppe" v="kystkontur" />
		<tag k="ssr:hovedgruppe" v="sjø" />
		<tag k="ssr:stedsnr" v="229885" />
		<tag k="ssr:type" v="holmeISjø" />
	</node>
	<node lat="59.14817221922677" lon="9.753908335125487" id="-24707">
		<tag k="name" v="Dalalegda" />
		<tag k="natural" v="valley" />
		<tag k="place" v="locality" />
		<tag k="ssr:date" v="2019-12-27" />
		<tag k="ssr:gruppe" v="senkninger" />
		<tag k="ssr:hovedgruppe" v="terreng" />
		<tag k="ssr:stedsnr" v="229901" />
		<tag k="ssr:type" v="dal" />
	</node>
	<node lat="59.059461107008154" lon="9.77831111512231" id="-24708">
		<tag k="name" v="Gunnersvika" />
		<tag k="natural" v="bay" />
		<tag k="ssr:date" v="2019-12-27" />
		<tag k="ssr:gruppe" v="kystkontur" />
		<tag k="ssr:hovedgruppe" v="sjø" />
		<tag k="ssr:stedsnr" v="230404" />
		<tag k="ssr:type" v="vikISjø" />
	</node>
	<node lat="59.17896944521392" lon="9.80749999698207" id="-24709">
		<tag k="name" v="Oklungen" />
		<tag k="natural" v="valley" />
		<tag k="place" v="locality" />
		<tag k="ssr:date" v="2019-12-27" />
		<tag k="ssr:gruppe" v="senkninger" />
		<tag k="ssr:hovedgruppe" v="terreng" />
		<tag k="ssr:stedsnr" v="230586" />
		<tag k="ssr:type" v="dal" />
	</node>
	<node lat="59.13490277460523" lon="9.639280553017956" id="-24710">
		<tag k="name" v="Frednes" />
		<tag k="place" v="suburb" />
		<tag k="ssr:date" v="2019-12-27" />
		<tag k="ssr:gruppe" v="bebyggelsesområder" />
		<tag k="ssr:hovedgruppe" v="bebyggelse" />
		<tag k="ssr:stedsnr" v="231733" />
		<tag k="ssr:type" v="bydel" />
	</node>
	<node lat="59.13550555128479" lon="9.768450002460975" id="-24711">
		<tag k="man_made" v="cairn" />
		<tag k="name" v="Fjerdingen" />
		<tag k="place" v="locality" />
		<tag k="ssr:date" v="2019-12-27" />
		<tag k="ssr:gruppe" v="navigasjon" />
		<tag k="ssr:hovedgruppe" v="infrastruktur" />
		<tag k="ssr:stedsnr" v="232096" />
		<tag k="ssr:type" v="varde" />
	</node>
	<node lat="59.09687777815989" lon="9.685458327726558" id="-24712">
		<tag k="highway" v="bus_stop" />
		<tag k="name" v="Skjelsvik midlertidig" />
		<tag k="ssr:date" v="2019-12-27" />
		<tag k="ssr:gruppe" v="veg" />
		<tag k="ssr:hovedgruppe" v="infrastruktur" />
		<tag k="ssr:stedsnr" v="234332" />
		<tag k="ssr:type" v="busstopp" />
	</node>
	<node lat="59.107247218420326" lon="9.672255557583131" id="-24713">
		<tag k="highway" v="bus_stop" />
		<tag k="name" v="Hjortestien" />
		<tag k="ssr:date" v="2019-12-27" />
		<tag k="ssr:gruppe" v="veg" />
		<tag k="ssr:hovedgruppe" v="infrastruktur" />
		<tag k="ssr:stedsnr" v="234537" />
		<tag k="ssr:type" v="busstopp" />
	</node>
	<node lat="59.151499996323814" lon="9.641041666063764" id="-24714">
		<tag k="highway" v="bus_stop" />
		<tag k="name" v="Pors stadion" />
		<tag k="ssr:date" v="2019-12-27" />
		<tag k="ssr:gruppe" v="veg" />
		<tag k="ssr:hovedgruppe" v="infrastruktur" />
		<tag k="ssr:stedsnr" v="234799" />
		<tag k="ssr:type" v="busstopp" />
	</node>
	<node lat="59.05160555151077" lon="9.77466388182293" id="-24715">
		<tag k="name" v="Bjønnesstranda" />
		<tag k="place" v="isolated_dwelling" />
		<tag k="ssr:date" v="2019-12-27" />
		<tag k="ssr:gruppe" v="bolighus" />
		<tag k="ssr:hovedgruppe" v="bebyggelse" />
		<tag k="ssr:stedsnr" v="238503" />
		<tag k="ssr:type" v="fritidsbolig" />
	</node>
	<node lat="59.065722223531886" lon="9.750566661450017" id="-24716">
		<tag k="name" v="Solbakken" />
		<tag k="place" v="farm" />
		<tag k="ssr:date" v="2019-12-27" />
		<tag k="ssr:gruppe" v="gardsbebyggelse" />
		<tag k="ssr:hovedgruppe" v="bebyggelse" />
		<tag k="ssr:stedsnr" v="238522" />
		<tag k="ssr:type" v="bruk" />
	</node>
	<node lat="59.0737055574248" lon="9.727052782047872" id="-24717">
		<tag k="name" v="Ormer" />
		<tag k="place" v="farm" />
		<tag k="ssr:date" v="2019-12-27" />
		<tag k="ssr:gruppe" v="gardsbebyggelse" />
		<tag k="ssr:hovedgruppe" v="bebyggelse" />
		<tag k="ssr:stedsnr" v="451110" />
		<tag k="ssr:type" v="bruk" />
	</node>
	<node lat="59.08166388579654" lon="9.70216667415905" id="-24718">
		<tag k="name" v="Midtfjordbåen" />
		<tag k="place" v="locality" />
		<tag k="seamark:type" v="rock" />
		<tag k="ssr:date" v="2019-12-27" />
		<tag k="ssr:gruppe" v="grunnerISjø" />
		<tag k="ssr:hovedgruppe" v="sjø" />
		<tag k="ssr:stedsnr" v="451189" />
		<tag k="ssr:type" v="båeISjø" />
	</node>
	<node lat="59.03280555113068" lon="9.816161115071887" id="-24719">
		<tag k="name" v="Furuholmen" />
		<tag k="place" v="islet" />
		<tag k="ssr:date" v="2019-12-27" />
		<tag k="ssr:gruppe" v="kystkontur" />
		<tag k="ssr:hovedgruppe" v="sjø" />
		<tag k="ssr:stedsnr" v="471930" />
		<tag k="ssr:type" v="holmeISjø" />
	</node>
	<node lat="59.085677777937725" lon="9.717044449760783" id="-24720">
		<tag k="name" v="Rørabukta" />
		<tag k="natural" v="bay" />
		<tag k="ssr:date" v="2019-12-27" />
		<tag k="ssr:gruppe" v="kystkontur" />
		<tag k="ssr:hovedgruppe" v="sjø" />
		<tag k="ssr:stedsnr" v="471931" />
		<tag k="ssr:type" v="vikISjø" />
	</node>
	<node lat="59.16042221893507" lon="9.778522215292984" id="-24721">
		<tag k="name" v="Skottmyrholene" />
		<tag k="natural" v="wetland" />
		<tag k="ssr:date" v="2019-12-27" />
		<tag k="ssr:gruppe" v="våtmark" />
		<tag k="ssr:hovedgruppe" v="markslag" />
		<tag k="ssr:stedsnr" v="471938" />
		<tag k="ssr:type" v="myr" />
	</node>
	<node lat="59.135180559851" lon="9.808913890630402" id="-24722">
		<tag k="fixme" v="consider natural=peak for the most distinct mountains in the district" />
		<tag k="name" v="Brentåsen" />
		<tag k="natural" v="hill" />
		<tag k="place" v="locality" />
		<tag k="ssr:date" v="2019-12-27" />
		<tag k="ssr:gruppe" v="høyder" />
		<tag k="ssr:hovedgruppe" v="terreng" />
		<tag k="ssr:stedsnr" v="471950" />
		<tag k="ssr:type" v="ås" />
	</node>
	<node lat="59.08203611062576" lon="9.7991999976278" id="-24723">
		<tag k="fixme" v="consider place=hamlet" />
		<tag k="name" v="Halvarp" />
		<tag k="place" v="farm" />
		<tag k="ssr:date" v="2019-12-27" />
		<tag k="ssr:gruppe" v="gardsbebyggelse" />
		<tag k="ssr:hovedgruppe" v="bebyggelse" />
		<tag k="ssr:stedsnr" v="244428" />
		<tag k="ssr:type" v="gard" />
	</node>
	<node lat="59.07762222052277" lon="9.726297219951256" id="-24724">
		<tag k="fixme" v="consider place=hamlet" />
		<tag k="loc_name" v="Leerstang" />
		<tag k="name" v="Lerstang" />
		<tag k="place" v="farm" />
		<tag k="ssr:date" v="2019-12-27" />
		<tag k="ssr:gruppe" v="gardsbebyggelse" />
		<tag k="ssr:hovedgruppe" v="bebyggelse" />
		<tag k="ssr:stedsnr" v="244431" />
		<tag k="ssr:type" v="gard" />
	</node>
	<node lat="59.084202781955234" lon="9.718827782094758" id="-24725">
		<tag k="alt_name" v="Rørarød" />
		<tag k="fixme" v="consider place=hamlet" />
		<tag k="name" v="Rød" />
		<tag k="place" v="farm" />
		<tag k="ssr:date" v="2019-12-27" />
		<tag k="ssr:gruppe" v="gardsbebyggelse" />
		<tag k="ssr:hovedgruppe" v="bebyggelse" />
		<tag k="ssr:stedsnr" v="244432" />
		<tag k="ssr:type" v="gard" />
	</node>
	<node lat="59.095749996437746" lon="9.693255550830662" id="-24726">
		<tag k="name" v="Tangen" />
		<tag k="place" v="farm" />
		<tag k="ssr:date" v="2019-12-27" />
		<tag k="ssr:gruppe" v="gardsbebyggelse" />
		<tag k="ssr:hovedgruppe" v="bebyggelse" />
		<tag k="ssr:stedsnr" v="244394" />
		<tag k="ssr:type" v="bruk" />
	</node>
	<node lat="59.09931389014094" lon="9.618383326226644" id="-24727">
		<tag k="alt_name" v="Frierfjorden" />
		<tag k="bay" v="fjord" />
		<tag k="name" v="Frier" />
		<tag k="natural" v="bay" />
		<tag k="ssr:date" v="2019-12-27" />
		<tag k="ssr:gruppe" v="farvann" />
		<tag k="ssr:hovedgruppe" v="sjø" />
		<tag k="ssr:stedsnr" v="244395" />
		<tag k="ssr:type" v="fjord" />
	</node>
	<node lat="59.04619166578781" lon="9.789041659364084" id="-24728">
		<tag k="alt_name" v="Karisholmen" />
		<tag k="name" v="Karisholmane" />
		<tag k="place" v="islet" />
		<tag k="ssr:date" v="2019-12-27" />
		<tag k="ssr:gruppe" v="kystkontur" />
		<tag k="ssr:hovedgruppe" v="sjø" />
		<tag k="ssr:stedsnr" v="244506" />
		<tag k="ssr:type" v="holmegruppeISjø" />
	</node>
	<node lat="59.12931389308564" lon="9.820288880302414" id="-24729">
		<tag k="fixme" v="consider natural=peak for the most distinct mountains in the district" />
		<tag k="name" v="Metalen" />
		<tag k="natural" v="hill" />
		<tag k="place" v="locality" />
		<tag k="ssr:date" v="2019-12-27" />
		<tag k="ssr:gruppe" v="høyder" />
		<tag k="ssr:hovedgruppe" v="terreng" />
		<tag k="ssr:stedsnr" v="244608" />
		<tag k="ssr:type" v="ås" />
	</node>
	<node lat="59.1825333319107" lon="9.779811112917686" id="-24730">
		<tag k="name" v="Dreierrønningen" />
		<tag k="place" v="farm" />
		<tag k="ssr:date" v="2021-06-08" />
		<tag k="ssr:gruppe" v="gardsbebyggelse" />
		<tag k="ssr:hovedgruppe" v="bebyggelse" />
		<tag k="ssr:stedsnr" v="244587" />
		<tag k="ssr:type" v="bruk" />
	</node>
	<node lat="59.180155554985674" lon="9.765827777237412" id="-24731">
		<tag k="name" v="Flata" />
		<tag k="place" v="locality" />
		<tag k="ssr:date" v="2019-12-27" />
		<tag k="ssr:gruppe" v="bolighus" />
		<tag k="ssr:hovedgruppe" v="bebyggelse" />
		<tag k="ssr:stedsnr" v="244589" />
		<tag k="ssr:type" v="gammelBosettingsplass" />
	</node>
	<node lat="59.142919442510596" lon="9.641711112060072" id="-24732">
		<tag k="amenity" v="place_of_worship" />
		<tag k="denomination" v="lutheran" />
		<tag k="name" v="Vestre kirke" />
		<tag k="religion" v="christian" />
		<tag k="ssr:date" v="2019-12-27" />
		<tag k="ssr:gruppe" v="kulturinstitusjoner" />
		<tag k="ssr:hovedgruppe" v="kultur" />
		<tag k="ssr:stedsnr" v="454338" />
		<tag k="ssr:type" v="kirke" />
	</node>
	<node lat="59.15391111521676" lon="9.664805561494402" id="-24733">
		<tag k="man_made" v="tower" />
		<tag k="name" v="NRK Telemark" />
		<tag k="ssr:date" v="2019-12-27" />
		<tag k="ssr:gruppe" v="kommunikasjon" />
		<tag k="ssr:hovedgruppe" v="infrastruktur" />
		<tag k="ssr:stedsnr" v="454724" />
		<tag k="ssr:type" v="tV-Radio-EllerMobiltelefontårn" />
		<tag k="tower:type" v="communications" />
	</node>
	<node lat="59.02693055299413" lon="9.761636113113685" id="-24734">
		<tag k="name" v="Rorholmen" />
		<tag k="place" v="islet" />
		<tag k="ssr:date" v="2019-12-27" />
		<tag k="ssr:gruppe" v="kystkontur" />
		<tag k="ssr:hovedgruppe" v="sjø" />
		<tag k="ssr:stedsnr" v="267723" />
		<tag k="ssr:type" v="holmeISjø" />
	</node>
	<node lat="59.05659444263077" lon="9.807849997180845" id="-24735">
		<tag k="name" v="Barlindmarka" />
		<tag k="place" v="locality" />
		<tag k="ssr:date" v="2019-12-27" />
		<tag k="ssr:gruppe" v="vegetasjon" />
		<tag k="ssr:hovedgruppe" v="markslag" />
		<tag k="ssr:stedsnr" v="458883" />
		<tag k="ssr:type" v="skog" />
	</node>
	<node lat="59.09993333394617" lon="9.677008330408905" id="-24736">
		<tag k="bridge" v="yes" />
		<tag k="layer" v="1" />
		<tag k="name" v="Skjelsvikdalen" />
		<tag k="ssr:date" v="2019-12-27" />
		<tag k="ssr:gruppe" v="samferdselsanlegg" />
		<tag k="ssr:hovedgruppe" v="infrastruktur" />
		<tag k="ssr:stedsnr" v="289728" />
		<tag k="ssr:type" v="bru" />
	</node>
	<node lat="59.05218611503426" lon="9.695019439509082" id="-24737">
		<tag k="bridge" v="yes" />
		<tag k="layer" v="1" />
		<tag k="name" v="Trosvikvegen" />
		<tag k="ssr:date" v="2019-12-27" />
		<tag k="ssr:gruppe" v="samferdselsanlegg" />
		<tag k="ssr:hovedgruppe" v="infrastruktur" />
		<tag k="ssr:stedsnr" v="289730" />
		<tag k="ssr:type" v="bru" />
	</node>
	<node lat="59.10528611203982" lon="9.8024305493397" id="-24742">
		<tag k="name" v="Vestgård" />
		<tag k="place" v="farm" />
		<tag k="ssr:date" v="2019-12-27" />
		<tag k="ssr:gruppe" v="gardsbebyggelse" />
		<tag k="ssr:hovedgruppe" v="bebyggelse" />
		<tag k="ssr:stedsnr" v="289899" />
		<tag k="ssr:type" v="bruk" />
	</node>
	<node lat="59.07707500251017" lon="9.81415833050848" id="-24743">
		<tag k="fixme" v="consider natural=peak for the most distinct mountains in the district" />
		<tag k="name" v="Liåsen" />
		<tag k="natural" v="hill" />
		<tag k="place" v="locality" />
		<tag k="ssr:date" v="2019-12-27" />
		<tag k="ssr:gruppe" v="høyder" />
		<tag k="ssr:hovedgruppe" v="terreng" />
		<tag k="ssr:stedsnr" v="290010" />
		<tag k="ssr:type" v="ås" />
	</node>
	<node lat="59.013744441981" lon="9.771269438057763" id="-24744">
		<tag k="name" v="Skjulsund" />
		<tag k="natural" v="strait" />
		<tag k="ssr:date" v="2019-12-27" />
		<tag k="ssr:gruppe" v="kystkontur" />
		<tag k="ssr:hovedgruppe" v="sjø" />
		<tag k="ssr:stedsnr" v="290031" />
		<tag k="ssr:type" v="sundISjø" />
	</node>
	<node lat="59.12909721906767" lon="9.772324995242696" id="-24745">
		<tag k="name" v="Storemyr" />
		<tag k="natural" v="wetland" />
		<tag k="ssr:date" v="2019-12-27" />
		<tag k="ssr:gruppe" v="våtmark" />
		<tag k="ssr:hovedgruppe" v="markslag" />
		<tag k="ssr:stedsnr" v="290032" />
		<tag k="ssr:type" v="myr" />
	</node>
	<node lat="59.05509722349071" lon="9.756697218398227" id="-24746">
		<tag k="name" v="Grisholmen" />
		<tag k="place" v="islet" />
		<tag k="ssr:date" v="2019-12-27" />
		<tag k="ssr:gruppe" v="kystkontur" />
		<tag k="ssr:hovedgruppe" v="sjø" />
		<tag k="ssr:stedsnr" v="290034" />
		<tag k="ssr:type" v="holmeISjø" />
	</node>
	<node lat="59.10933333744947" lon="9.789969446487264" id="-24749">
		<tag k="fixme" v="consider natural=peak for the most distinct mountains in the district" />
		<tag k="name" v="Furuås" />
		<tag k="natural" v="hill" />
		<tag k="place" v="locality" />
		<tag k="ssr:date" v="2019-12-27" />
		<tag k="ssr:gruppe" v="høyder" />
		<tag k="ssr:hovedgruppe" v="terreng" />
		<tag k="ssr:stedsnr" v="289780" />
		<tag k="ssr:type" v="ås" />
	</node>
	<node lat="59.17593055678229" lon="9.839199998324558" id="-24750">
		<tag k="fixme" v="consider natural=peak for the most distinct mountains in the district" />
		<tag k="name" v="Grasås" />
		<tag k="natural" v="hill" />
		<tag k="place" v="locality" />
		<tag k="ssr:date" v="2019-12-27" />
		<tag k="ssr:gruppe" v="høyder" />
		<tag k="ssr:hovedgruppe" v="terreng" />
		<tag k="ssr:stedsnr" v="289783" />
		<tag k="ssr:type" v="ås" />
	</node>
	<node lat="59.14501388805805" lon="9.808833336231723" id="-24751">
		<tag k="fixme" v="consider natural=peak for the most distinct mountains in the district" />
		<tag k="name" v="Kjerråsen" />
		<tag k="natural" v="hill" />
		<tag k="place" v="locality" />
		<tag k="ssr:date" v="2019-12-27" />
		<tag k="ssr:gruppe" v="høyder" />
		<tag k="ssr:hovedgruppe" v="terreng" />
		<tag k="ssr:stedsnr" v="289788" />
		<tag k="ssr:type" v="ås" />
	</node>
	<node lat="59.05121944710219" lon="9.766897224947673" id="-24752">
		<tag k="name" v="Linekra" />
		<tag k="natural" v="slope" />
		<tag k="place" v="locality" />
		<tag k="ssr:date" v="2019-12-27" />
		<tag k="ssr:gruppe" v="skråninger" />
		<tag k="ssr:hovedgruppe" v="terreng" />
		<tag k="ssr:stedsnr" v="289926" />
		<tag k="ssr:type" v="li" />
	</node>
	<node lat="59.033144442232754" lon="9.757297223327997" id="-24756">
		<tag k="name" v="Dambukta" />
		<tag k="natural" v="bay" />
		<tag k="ssr:date" v="2019-12-27" />
		<tag k="ssr:gruppe" v="kystkontur" />
		<tag k="ssr:hovedgruppe" v="sjø" />
		<tag k="ssr:stedsnr" v="290603" />
		<tag k="ssr:type" v="vikISjø" />
	</node>
	<node lat="59.128055557871384" lon="9.80780277905552" id="-24757">
		<tag k="name" v="Viersdalsvannet" />
		<tag k="natural" v="water" />
		<tag k="ssr:date" v="2019-12-27" />
		<tag k="ssr:gruppe" v="stilleståendeVann" />
		<tag k="ssr:hovedgruppe" v="ferskvann" />
		<tag k="ssr:stedsnr" v="290629" />
		<tag k="ssr:type" v="vann" />
		<tag k="water" v="lake" />
	</node>
	<node lat="59.13570277622325" lon="9.750052782310009" id="-24758">
		<tag k="fixme" v="consider natural=peak for the most distinct mountains in the district" />
		<tag k="name" v="Skavråkåsen" />
		<tag k="natural" v="hill" />
		<tag k="place" v="locality" />
		<tag k="ssr:date" v="2019-12-27" />
		<tag k="ssr:gruppe" v="høyder" />
		<tag k="ssr:hovedgruppe" v="terreng" />
		<tag k="ssr:stedsnr" v="290906" />
		<tag k="ssr:type" v="ås" />
	</node>
	<node lat="59.10021944322933" lon="9.67335556173879" id="-24759">
		<tag k="loc_name" v="Ørstvetmyra" />
		<tag k="name" v="Ørstveitmyra" />
		<tag k="natural" v="wetland" />
		<tag k="ssr:date" v="2019-12-27" />
		<tag k="ssr:gruppe" v="våtmark" />
		<tag k="ssr:hovedgruppe" v="markslag" />
		<tag k="ssr:stedsnr" v="290907" />
		<tag k="ssr:type" v="myr" />
	</node>
	<node lat="59.0929499995018" lon="9.775230560746573" id="-24760">
		<tag k="alt_name" v="Bergåsen" />
		<tag k="fixme" v="consider natural=peak for the most distinct mountains in the district" />
		<tag k="name" v="Bergsåsen" />
		<tag k="natural" v="hill" />
		<tag k="place" v="locality" />
		<tag k="ssr:date" v="2019-12-27" />
		<tag k="ssr:gruppe" v="høyder" />
		<tag k="ssr:hovedgruppe" v="terreng" />
		<tag k="ssr:stedsnr" v="290934" />
		<tag k="ssr:type" v="ås" />
	</node>
	<node lat="59.14246389221911" lon="9.706958326948236" id="-24761">
		<tag k="fixme" v="consider natural=peak for the most distinct mountains in the district" />
		<tag k="name" v="Omberget" />
		<tag k="natural" v="hill" />
		<tag k="place" v="locality" />
		<tag k="ssr:date" v="2019-12-27" />
		<tag k="ssr:gruppe" v="høyder" />
		<tag k="ssr:hovedgruppe" v="terreng" />
		<tag k="ssr:stedsnr" v="290977" />
		<tag k="ssr:type" v="ås" />
	</node>
	<node lat="59.10911388636937" lon="9.69319166613434" id="-24762">
		<tag k="name" v="Kromsdalen" />
		<tag k="natural" v="valley" />
		<tag k="place" v="locality" />
		<tag k="ssr:date" v="2019-12-27" />
		<tag k="ssr:gruppe" v="senkninger" />
		<tag k="ssr:hovedgruppe" v="terreng" />
		<tag k="ssr:stedsnr" v="290987" />
		<tag k="ssr:type" v="dal" />
	</node>
	<node lat="59.05090833660601" lon="9.706472215107746" id="-24763">
		<tag k="name" v="Blokkhustangen" />
		<tag k="natural" v="cape" />
		<tag k="ssr:date" v="2019-12-27" />
		<tag k="ssr:gruppe" v="kystkontur" />
		<tag k="ssr:hovedgruppe" v="sjø" />
		<tag k="ssr:stedsnr" v="290995" />
		<tag k="ssr:type" v="nesISjø" />
	</node>
	<node lat="59.09515833554772" lon="9.796416667784705" id="-24764">
		<tag k="name" v="Sundsåsdalen" />
		<tag k="natural" v="valley" />
		<tag k="place" v="locality" />
		<tag k="ssr:date" v="2019-12-27" />
		<tag k="ssr:gruppe" v="senkninger" />
		<tag k="ssr:hovedgruppe" v="terreng" />
		<tag k="ssr:stedsnr" v="290884" />
		<tag k="ssr:type" v="dal" />
	</node>
	<node lat="59.10201389073805" lon="9.786711117537827" id="-24765">
		<tag k="fixme" v="consider natural=peak for the most distinct mountains in the district" />
		<tag k="name" v="Sundsåsblåfjell" />
		<tag k="natural" v="hill" />
		<tag k="place" v="locality" />
		<tag k="ssr:date" v="2019-12-27" />
		<tag k="ssr:gruppe" v="høyder" />
		<tag k="ssr:hovedgruppe" v="terreng" />
		<tag k="ssr:stedsnr" v="290897" />
		<tag k="ssr:type" v="ås" />
	</node>
	<node lat="59.14296388553166" lon="9.672186112876261" id="-24766">
		<tag k="name" v="Sanda" />
		<tag k="place" v="farm" />
		<tag k="ssr:date" v="2019-12-27" />
		<tag k="ssr:gruppe" v="gardsbebyggelse" />
		<tag k="ssr:hovedgruppe" v="bebyggelse" />
		<tag k="ssr:stedsnr" v="291526" />
		<tag k="ssr:type" v="bruk" />
	</node>
	<node lat="59.0755138868456" lon="9.720130552062834" id="-24767">
		<tag k="fixme" v="consider natural=peak for the most distinct mountains in the district" />
		<tag k="name" v="Blåbæråsen" />
		<tag k="natural" v="hill" />
		<tag k="place" v="locality" />
		<tag k="ssr:date" v="2019-12-27" />
		<tag k="ssr:gruppe" v="høyder" />
		<tag k="ssr:hovedgruppe" v="terreng" />
		<tag k="ssr:stedsnr" v="462040" />
		<tag k="ssr:type" v="ås" />
	</node>
	<node lat="59.12409444365577" lon="9.649227785031256" id="-24768">
		<tag k="name" v="Kikut" />
		<tag k="place" v="isolated_dwelling" />
		<tag k="ssr:date" v="2019-12-27" />
		<tag k="ssr:gruppe" v="bolighus" />
		<tag k="ssr:hovedgruppe" v="bebyggelse" />
		<tag k="ssr:stedsnr" v="291683" />
		<tag k="ssr:type" v="eneboligMindreBoligbygg" />
	</node>
	<node lat="59.14028055936144" lon="9.670244451551433" id="-24769">
		<tag k="name" v="Oselva" />
		<tag k="ssr:date" v="2019-12-27" />
		<tag k="ssr:gruppe" v="rennendeVann" />
		<tag k="ssr:hovedgruppe" v="ferskvann" />
		<tag k="ssr:stedsnr" v="291802" />
		<tag k="ssr:type" v="elv" />
		<tag k="waterway" v="river" />
	</node>
	<node lat="59.03590555477545" lon="9.745366670359116" id="-24771">
		<tag k="alt_name" v="Bjerkøya" />
		<tag k="fixme" v="consider place=hamlet" />
		<tag k="name" v="Bjørkøya" />
		<tag k="place" v="farm" />
		<tag k="ssr:date" v="2019-12-27" />
		<tag k="ssr:gruppe" v="gardsbebyggelse" />
		<tag k="ssr:hovedgruppe" v="bebyggelse" />
		<tag k="ssr:stedsnr" v="305516" />
		<tag k="ssr:type" v="gard" />
	</node>
	<node lat="59.10774444822431" lon="9.748724994234301" id="-24772">
		<tag k="name" v="Lanner" />
		<tag k="place" v="farm" />
		<tag k="ssr:date" v="2020-10-26" />
		<tag k="ssr:gruppe" v="gardsbebyggelse" />
		<tag k="ssr:hovedgruppe" v="bebyggelse" />
		<tag k="ssr:stedsnr" v="305420" />
		<tag k="ssr:type" v="bruk" />
	</node>
	<node lat="59.086636108705704" lon="9.789936107344941" id="-24773">
		<tag k="name" v="Tangen" />
		<tag k="place" v="farm" />
		<tag k="ssr:date" v="2019-12-27" />
		<tag k="ssr:gruppe" v="gardsbebyggelse" />
		<tag k="ssr:hovedgruppe" v="bebyggelse" />
		<tag k="ssr:stedsnr" v="305456" />
		<tag k="ssr:type" v="bruk" />
	</node>
	<node lat="59.050772223680795" lon="9.738680559414084" id="-24774">
		<tag k="name" v="Solvang" />
		<tag k="place" v="farm" />
		<tag k="ssr:date" v="2019-12-27" />
		<tag k="ssr:gruppe" v="gardsbebyggelse" />
		<tag k="ssr:hovedgruppe" v="bebyggelse" />
		<tag k="ssr:stedsnr" v="305461" />
		<tag k="ssr:type" v="bruk" />
	</node>
	<node lat="59.05306110752807" lon="9.760452782147588" id="-24775">
		<tag k="name" v="Krysstangen" />
		<tag k="place" v="farm" />
		<tag k="ssr:date" v="2019-12-27" />
		<tag k="ssr:gruppe" v="gardsbebyggelse" />
		<tag k="ssr:hovedgruppe" v="bebyggelse" />
		<tag k="ssr:stedsnr" v="305467" />
		<tag k="ssr:type" v="bruk" />
	</node>
	<node lat="59.0616305587968" lon="9.693230551574821" id="-24776">
		<tag k="name" v="Dalsbukta" />
		<tag k="natural" v="bay" />
		<tag k="ssr:date" v="2019-12-27" />
		<tag k="ssr:gruppe" v="kystkontur" />
		<tag k="ssr:hovedgruppe" v="sjø" />
		<tag k="ssr:stedsnr" v="329103" />
		<tag k="ssr:type" v="vikISjø" />
	</node>
	<node lat="59.15253611187793" lon="9.641725001212277" id="-24777">
		<tag k="leisure" v="pitch" />
		<tag k="name" v="Pors stadion" />
		<tag k="ssr:date" v="2019-12-27" />
		<tag k="ssr:gruppe" v="fritidsanlegg" />
		<tag k="ssr:hovedgruppe" v="bebyggelse" />
		<tag k="ssr:stedsnr" v="332356" />
		<tag k="ssr:type" v="idrettsanlegg" />
	</node>
	<node lat="59.05414444727876" lon="9.80167500310861" id="-24778">
		<tag k="fixme" v="consider natural=peak for the most distinct mountains in the district" />
		<tag k="name" v="Tjuveråsen" />
		<tag k="natural" v="hill" />
		<tag k="place" v="locality" />
		<tag k="ssr:date" v="2019-12-27" />
		<tag k="ssr:gruppe" v="høyder" />
		<tag k="ssr:hovedgruppe" v="terreng" />
		<tag k="ssr:stedsnr" v="471101" />
		<tag k="ssr:type" v="ås" />
	</node>
	<node lat="59.052330556579875" lon="9.802991668803394" id="-24779">
		<tag k="name" v="Askedalen" />
		<tag k="natural" v="valley" />
		<tag k="place" v="locality" />
		<tag k="ssr:date" v="2019-12-27" />
		<tag k="ssr:gruppe" v="senkninger" />
		<tag k="ssr:hovedgruppe" v="terreng" />
		<tag k="ssr:stedsnr" v="471043" />
		<tag k="ssr:type" v="dal" />
	</node>
	<node lat="59.05169444384566" lon="9.693988890992927" id="-24780">
		<tag k="fixme" v="consider natural=peak for the most distinct mountains in the district" />
		<tag k="name" v="Torskeberget" />
		<tag k="natural" v="hill" />
		<tag k="place" v="locality" />
		<tag k="ssr:date" v="2019-12-27" />
		<tag k="ssr:gruppe" v="høyder" />
		<tag k="ssr:hovedgruppe" v="terreng" />
		<tag k="ssr:stedsnr" v="471047" />
		<tag k="ssr:type" v="ås" />
	</node>
	<node lat="59.05078333438761" lon="9.738647223660866" id="-24781">
		<tag k="name" v="Jordet" />
		<tag k="place" v="farm" />
		<tag k="ssr:date" v="2019-12-27" />
		<tag k="ssr:gruppe" v="gardsbebyggelse" />
		<tag k="ssr:hovedgruppe" v="bebyggelse" />
		<tag k="ssr:stedsnr" v="471589" />
		<tag k="ssr:type" v="bruk" />
	</node>
	<node lat="59.15567777523781" lon="9.760544442214885" id="-24782">
		<tag k="name" v="Damtjenn" />
		<tag k="natural" v="water" />
		<tag k="ssr:date" v="2019-12-27" />
		<tag k="ssr:gruppe" v="stilleståendeVann" />
		<tag k="ssr:hovedgruppe" v="ferskvann" />
		<tag k="ssr:stedsnr" v="471689" />
		<tag k="ssr:type" v="tjern" />
	</node>
	<node lat="59.13448321201057" lon="9.629559010757452" id="-24784">
		<tag k="bridge" v="yes" />
		<tag k="layer" v="1" />
		<tag k="name" v="Frednesbrua" />
		<tag k="ssr:date" v="2019-12-27" />
		<tag k="ssr:gruppe" v="samferdselsanlegg" />
		<tag k="ssr:hovedgruppe" v="infrastruktur" />
		<tag k="ssr:stedsnr" v="471641" />
		<tag k="ssr:type" v="bru" />
	</node>
	<node lat="59.0775277768074" lon="9.664194444870391" id="-24785">
		<tag k="bridge" v="yes" />
		<tag k="layer" v="1" />
		<tag k="name" v="Friervegen" />
		<tag k="ssr:date" v="2019-12-27" />
		<tag k="ssr:gruppe" v="samferdselsanlegg" />
		<tag k="ssr:hovedgruppe" v="infrastruktur" />
		<tag k="ssr:stedsnr" v="471642" />
		<tag k="ssr:type" v="bru" />
	</node>
	<node lat="59.10210277789219" lon="9.719230558694576" id="-24787">
		<tag k="bridge" v="yes" />
		<tag k="layer" v="1" />
		<tag k="name" v="Rødtu" />
		<tag k="ssr:date" v="2019-12-27" />
		<tag k="ssr:gruppe" v="samferdselsanlegg" />
		<tag k="ssr:hovedgruppe" v="infrastruktur" />
		<tag k="ssr:stedsnr" v="471653" />
		<tag k="ssr:type" v="bru" />
	</node>
	<node lat="59.07544166701902" lon="9.665077778998572" id="-24789">
		<tag k="bridge" v="yes" />
		<tag k="layer" v="1" />
		<tag k="name" v="Kjørholtvegen" />
		<tag k="ssr:date" v="2019-12-27" />
		<tag k="ssr:gruppe" v="samferdselsanlegg" />
		<tag k="ssr:hovedgruppe" v="infrastruktur" />
		<tag k="ssr:stedsnr" v="471655" />
		<tag k="ssr:type" v="bru" />
	</node>
	<node lat="59.061733330504666" lon="9.82872222756671" id="-24792">
		<tag k="fixme" v="consider natural=peak for the most distinct mountains in the district" />
		<tag k="name" v="Plonkevikåsen" />
		<tag k="natural" v="hill" />
		<tag k="place" v="locality" />
		<tag k="ssr:date" v="2019-12-27" />
		<tag k="ssr:gruppe" v="høyder" />
		<tag k="ssr:hovedgruppe" v="terreng" />
		<tag k="ssr:stedsnr" v="471720" />
		<tag k="ssr:type" v="ås" />
	</node>
	<node lat="59.11584444532845" lon="9.770313893127836" id="-24796">
		<tag k="historic" v="shieling" />
		<tag k="name" v="Kisteseter" />
		<tag k="place" v="isolated_dwelling" />
		<tag k="ssr:date" v="2019-12-27" />
		<tag k="ssr:gruppe" v="gardsbebyggelse" />
		<tag k="ssr:hovedgruppe" v="bebyggelse" />
		<tag k="ssr:stedsnr" v="471854" />
		<tag k="ssr:type" v="seterStøl" />
	</node>
	<node lat="59.031291670835884" lon="9.811333339570542" id="-24797">
		<tag k="name" v="Kjesund" />
		<tag k="natural" v="strait" />
		<tag k="ssr:date" v="2019-12-27" />
		<tag k="ssr:gruppe" v="kystkontur" />
		<tag k="ssr:hovedgruppe" v="sjø" />
		<tag k="ssr:stedsnr" v="471993" />
		<tag k="ssr:type" v="sundISjø" />
	</node>
	<node lat="59.1040472247497" lon="9.844688880900827" id="-24798">
		<tag k="fixme" v="consider natural=peak for the most distinct mountains in the district" />
		<tag k="name" v="Plankåsen" />
		<tag k="natural" v="hill" />
		<tag k="place" v="locality" />
		<tag k="ssr:date" v="2019-12-27" />
		<tag k="ssr:gruppe" v="høyder" />
		<tag k="ssr:hovedgruppe" v="terreng" />
		<tag k="ssr:stedsnr" v="472287" />
		<tag k="ssr:type" v="ås" />
	</node>
	<node lat="59.16621388900022" lon="9.858516664433438" id="-24799">
		<tag k="name" v="Bakkepollen" />
		<tag k="natural" v="bay" />
		<tag k="ssr:date" v="2019-12-27" />
		<tag k="ssr:gruppe" v="ferskvannskontur" />
		<tag k="ssr:hovedgruppe" v="ferskvann" />
		<tag k="ssr:stedsnr" v="472337" />
		<tag k="ssr:type" v="vik" />
	</node>
	<node lat="59.08394722090711" lon="9.788008329916208" id="-24800">
		<tag k="name" v="Slåtta" />
		<tag k="natural" v="water" />
		<tag k="ssr:date" v="2019-12-27" />
		<tag k="ssr:gruppe" v="stilleståendeVann" />
		<tag k="ssr:hovedgruppe" v="ferskvann" />
		<tag k="ssr:stedsnr" v="472898" />
		<tag k="ssr:type" v="tjern" />
	</node>
	<node lat="59.09972500449511" lon="9.700408328754301" id="-24801">
		<tag k="fixme" v="consider tourism=alpine_hut or tourism=chalet" />
		<tag k="name" v="Mule Varde" />
		<tag k="ssr:date" v="2019-12-27" />
		<tag k="ssr:gruppe" v="næring" />
		<tag k="ssr:hovedgruppe" v="bebyggelse" />
		<tag k="ssr:stedsnr" v="344202" />
		<tag k="ssr:type" v="turisthytte" />
		<tag k="tourism" v="wilderness_hut" />
	</node>
	<node lat="59.07857777819622" lon="9.660302784060098" id="-24802">
		<tag k="name" v="Husmyra" />
		<tag k="place" v="farm" />
		<tag k="ssr:date" v="2019-12-27" />
		<tag k="ssr:gruppe" v="gardsbebyggelse" />
		<tag k="ssr:hovedgruppe" v="bebyggelse" />
		<tag k="ssr:stedsnr" v="473533" />
		<tag k="ssr:type" v="bruk" />
	</node>
	<node lat="59.12760555982067" lon="9.610702780434744" id="-24803">
		<tag k="name" v="Knappnæringen" />
		<tag k="place" v="isolated_dwelling" />
		<tag k="ssr:date" v="2019-12-27" />
		<tag k="ssr:gruppe" v="bolighus" />
		<tag k="ssr:hovedgruppe" v="bebyggelse" />
		<tag k="ssr:stedsnr" v="473641" />
		<tag k="ssr:type" v="eneboligMindreBoligbygg" />
	</node>
	<node lat="59.13399166277222" lon="9.647458325914448" id="-24804">
		<tag k="fixme" v="consider place=suburb, village or hamlet" />
		<tag k="name" v="Jønnholt" />
		<tag k="place" v="quarter" />
		<tag k="ssr:date" v="2019-12-27" />
		<tag k="ssr:gruppe" v="bebyggelsesområder" />
		<tag k="ssr:hovedgruppe" v="bebyggelse" />
		<tag k="ssr:stedsnr" v="473688" />
		<tag k="ssr:type" v="tettbebyggelse" />
	</node>
	<node lat="59.0458222190145" lon="9.83381388560689" id="-24810">
		<tag k="fixme" v="consider natural=peak for the most distinct mountains in the district" />
		<tag k="name" v="Sagåsen" />
		<tag k="natural" v="hill" />
		<tag k="place" v="locality" />
		<tag k="ssr:date" v="2019-12-27" />
		<tag k="ssr:gruppe" v="høyder" />
		<tag k="ssr:hovedgruppe" v="terreng" />
		<tag k="ssr:stedsnr" v="350008" />
		<tag k="ssr:type" v="ås" />
	</node>
	<node lat="59.155577775452066" lon="9.727897230798161" id="-24811">
		<tag k="name" v="Feiermyra" />
		<tag k="natural" v="wetland" />
		<tag k="ssr:date" v="2019-12-27" />
		<tag k="ssr:gruppe" v="våtmark" />
		<tag k="ssr:hovedgruppe" v="markslag" />
		<tag k="ssr:stedsnr" v="350055" />
		<tag k="ssr:type" v="myr" />
	</node>
	<node lat="59.12063333252671" lon="9.71351944102481" id="-24813">
		<tag k="bridge" v="yes" />
		<tag k="layer" v="1" />
		<tag k="name" v="Moheim" />
		<tag k="ssr:date" v="2019-12-27" />
		<tag k="ssr:gruppe" v="samferdselsanlegg" />
		<tag k="ssr:hovedgruppe" v="infrastruktur" />
		<tag k="ssr:stedsnr" v="350614" />
		<tag k="ssr:type" v="bru" />
	</node>
	<node lat="59.12320277340023" lon="9.739036117161278" id="-24817">
		<tag k="fixme" v="consider natural=peak for the most distinct mountains in the district" />
		<tag k="name" v="Spiråsen" />
		<tag k="natural" v="hill" />
		<tag k="place" v="locality" />
		<tag k="ssr:date" v="2019-12-27" />
		<tag k="ssr:gruppe" v="høyder" />
		<tag k="ssr:hovedgruppe" v="terreng" />
		<tag k="ssr:stedsnr" v="350902" />
		<tag k="ssr:type" v="ås" />
	</node>
	<node lat="59.159377778480824" lon="9.76985832510995" id="-24818">
		<tag k="fixme" v="consider natural=peak for the most distinct mountains in the district" />
		<tag k="name" v="Skottmyråsen" />
		<tag k="natural" v="hill" />
		<tag k="place" v="locality" />
		<tag k="ssr:date" v="2019-12-27" />
		<tag k="ssr:gruppe" v="høyder" />
		<tag k="ssr:hovedgruppe" v="terreng" />
		<tag k="ssr:stedsnr" v="350905" />
		<tag k="ssr:type" v="ås" />
	</node>
	<node lat="59.017338893319746" lon="9.774016658431732" id="-24819">
		<tag k="name" v="Svensvika" />
		<tag k="natural" v="bay" />
		<tag k="ssr:date" v="2019-12-27" />
		<tag k="ssr:gruppe" v="kystkontur" />
		<tag k="ssr:hovedgruppe" v="sjø" />
		<tag k="ssr:stedsnr" v="350908" />
		<tag k="ssr:type" v="vikISjø" />
	</node>
	<node lat="59.02950277935854" lon="9.812686105720658" id="-24820">
		<tag k="name" v="Vervebukta" />
		<tag k="natural" v="bay" />
		<tag k="ssr:date" v="2019-12-27" />
		<tag k="ssr:gruppe" v="kystkontur" />
		<tag k="ssr:hovedgruppe" v="sjø" />
		<tag k="ssr:stedsnr" v="350920" />
		<tag k="ssr:type" v="vikISjø" />
	</node>
	<node lat="59.0982027738544" lon="9.667347220594106" id="-24821">
		<tag k="fixme" v="consider natural=peak for the most distinct mountains in the district" />
		<tag k="name" v="Hvalsåsen" />
		<tag k="natural" v="hill" />
		<tag k="place" v="locality" />
		<tag k="ssr:date" v="2019-12-27" />
		<tag k="ssr:gruppe" v="høyder" />
		<tag k="ssr:hovedgruppe" v="terreng" />
		<tag k="ssr:stedsnr" v="350921" />
		<tag k="ssr:type" v="ås" />
	</node>
	<node lat="59.07862499573481" lon="9.791916658312873" id="-24822">
		<tag k="fixme" v="consider seamark:type=rock or natural=shoal" />
		<tag k="name" v="Kultane" />
		<tag k="place" v="islet" />
		<tag k="ssr:date" v="2019-12-27" />
		<tag k="ssr:gruppe" v="grunnerISjø" />
		<tag k="ssr:hovedgruppe" v="sjø" />
		<tag k="ssr:stedsnr" v="350924" />
		<tag k="ssr:type" v="skjærISjø" />
	</node>
	<node lat="59.06966388443672" lon="9.83871667472043" id="-24823">
		<tag k="fixme" v="consider natural=peak for the most distinct mountains in the district" />
		<tag k="name" v="Bokås" />
		<tag k="natural" v="hill" />
		<tag k="place" v="locality" />
		<tag k="ssr:date" v="2019-12-27" />
		<tag k="ssr:gruppe" v="høyder" />
		<tag k="ssr:hovedgruppe" v="terreng" />
		<tag k="ssr:stedsnr" v="350926" />
		<tag k="ssr:type" v="ås" />
	</node>
	<node lat="59.1741916709727" lon="9.814786108226995" id="-24824">
		<tag k="fixme" v="consider natural=peak for the most distinct mountains in the district" />
		<tag k="name" v="Seterkollen" />
		<tag k="natural" v="hill" />
		<tag k="place" v="locality" />
		<tag k="ssr:date" v="2019-12-27" />
		<tag k="ssr:gruppe" v="høyder" />
		<tag k="ssr:hovedgruppe" v="terreng" />
		<tag k="ssr:stedsnr" v="350944" />
		<tag k="ssr:type" v="ås" />
	</node>
	<node lat="59.05963055712571" lon="9.665308337123642" id="-24825">
		<tag k="fixme" v="consider natural=peak for the most distinct mountains in the district" />
		<tag k="name" v="Kolbjørn" />
		<tag k="natural" v="hill" />
		<tag k="place" v="locality" />
		<tag k="ssr:date" v="2019-12-27" />
		<tag k="ssr:gruppe" v="høyder" />
		<tag k="ssr:hovedgruppe" v="terreng" />
		<tag k="ssr:stedsnr" v="350952" />
		<tag k="ssr:type" v="ås" />
	</node>
	<node lat="59.12637221801115" lon="9.64675555506594" id="-24826">
		<tag k="name" v="Rønningen" />
		<tag k="place" v="square" />
		<tag k="ssr:date" v="2019-12-27" />
		<tag k="ssr:gruppe" v="bebyggelsesområder" />
		<tag k="ssr:hovedgruppe" v="bebyggelse" />
		<tag k="ssr:stedsnr" v="350964" />
		<tag k="ssr:type" v="torg" />
	</node>
	<node lat="59.08527777712521" lon="9.777324998235025" id="-24827">
		<tag k="name" v="Almedalstjenna" />
		<tag k="natural" v="water" />
		<tag k="ssr:date" v="2019-12-27" />
		<tag k="ssr:gruppe" v="stilleståendeVann" />
		<tag k="ssr:hovedgruppe" v="ferskvann" />
		<tag k="ssr:stedsnr" v="350662" />
		<tag k="ssr:type" v="tjern" />
	</node>
	<node lat="59.08652222311136" lon="9.811433339397482" id="-24830">
		<tag k="name" v="Kopledalen" />
		<tag k="natural" v="valley" />
		<tag k="place" v="locality" />
		<tag k="ssr:date" v="2019-12-27" />
		<tag k="ssr:gruppe" v="senkninger" />
		<tag k="ssr:hovedgruppe" v="terreng" />
		<tag k="ssr:stedsnr" v="351315" />
		<tag k="ssr:type" v="dal" />
	</node>
	<node lat="59.12313889148113" lon="9.693458337460541" id="-24831">
		<tag k="highway" v="bus_stop" />
		<tag k="name" v="Stasjonsvegen" />
		<tag k="ssr:date" v="2019-12-27" />
		<tag k="ssr:gruppe" v="veg" />
		<tag k="ssr:hovedgruppe" v="infrastruktur" />
		<tag k="ssr:stedsnr" v="356433" />
		<tag k="ssr:type" v="busstopp" />
	</node>
	<node lat="59.07018611327595" lon="9.786891667603518" id="-24832">
		<tag k="name" v="Bjønnhistranda" />
		<tag k="natural" v="beach" />
		<tag k="ssr:date" v="2019-12-27" />
		<tag k="ssr:gruppe" v="kystkontur" />
		<tag k="ssr:hovedgruppe" v="sjø" />
		<tag k="ssr:stedsnr" v="359005" />
		<tag k="ssr:type" v="strandISjø" />
	</node>
	<node lat="59.07915832995336" lon="9.791230557149872" id="-24833">
		<tag k="name" v="Vika" />
		<tag k="natural" v="bay" />
		<tag k="ssr:date" v="2019-12-27" />
		<tag k="ssr:gruppe" v="kystkontur" />
		<tag k="ssr:hovedgruppe" v="sjø" />
		<tag k="ssr:stedsnr" v="359010" />
		<tag k="ssr:type" v="vikISjø" />
	</node>
	<node lat="59.0482111135116" lon="9.787975007337034" id="-24834">
		<tag k="name" v="Hønseholmen" />
		<tag k="place" v="islet" />
		<tag k="ssr:date" v="2019-12-27" />
		<tag k="ssr:gruppe" v="kystkontur" />
		<tag k="ssr:hovedgruppe" v="sjø" />
		<tag k="ssr:stedsnr" v="359352" />
		<tag k="ssr:type" v="holmeISjø" />
	</node>
	<node lat="59.02895277741019" lon="9.773633338746553" id="-24835">
		<tag k="name" v="Brønnebukta" />
		<tag k="natural" v="bay" />
		<tag k="ssr:date" v="2019-12-27" />
		<tag k="ssr:gruppe" v="kystkontur" />
		<tag k="ssr:hovedgruppe" v="sjø" />
		<tag k="ssr:stedsnr" v="359364" />
		<tag k="ssr:type" v="vikISjø" />
	</node>
	<node lat="59.13628333220448" lon="9.659647217814173" id="-24836">
		<tag k="highway" v="bus_stop" />
		<tag k="name" v="Louis Vauverts gate" />
		<tag k="ssr:date" v="2019-12-27" />
		<tag k="ssr:gruppe" v="veg" />
		<tag k="ssr:hovedgruppe" v="infrastruktur" />
		<tag k="ssr:stedsnr" v="477035" />
		<tag k="ssr:type" v="busstopp" />
	</node>
	<node lat="59.09563055814051" lon="9.68331944633815" id="-24837">
		<tag k="amenity" v="school" />
		<tag k="name" v="Brattås skole" />
		<tag k="ssr:date" v="2019-12-27" />
		<tag k="ssr:gruppe" v="institusjoner" />
		<tag k="ssr:hovedgruppe" v="bebyggelse" />
		<tag k="ssr:stedsnr" v="477301" />
		<tag k="ssr:type" v="skole" />
	</node>
	<node lat="59.095288891343266" lon="9.686805556352637" id="-24838">
		<tag k="highway" v="bus_stop" />
		<tag k="name" v="Skjelsvik senter" />
		<tag k="ssr:date" v="2019-12-27" />
		<tag k="ssr:gruppe" v="veg" />
		<tag k="ssr:hovedgruppe" v="infrastruktur" />
		<tag k="ssr:stedsnr" v="477351" />
		<tag k="ssr:type" v="busstopp" />
	</node>
	<node lat="59.094344447768606" lon="9.678738890820071" id="-24839">
		<tag k="highway" v="bus_stop" />
		<tag k="name" v="Luna ring" />
		<tag k="ssr:date" v="2019-12-27" />
		<tag k="ssr:gruppe" v="veg" />
		<tag k="ssr:hovedgruppe" v="infrastruktur" />
		<tag k="ssr:stedsnr" v="477687" />
		<tag k="ssr:type" v="busstopp" />
	</node>
	<node lat="59.11019721898927" lon="9.759308338674472" id="-24840">
		<tag k="loc_name" v="Lillegårdseter" />
		<tag k="name" v="Lillegårdssætret" />
		<tag k="old_name" v="Lillegårdsæter" />
		<tag k="place" v="farm" />
		<tag k="ssr:date" v="2019-12-27" />
		<tag k="ssr:gruppe" v="gardsbebyggelse" />
		<tag k="ssr:hovedgruppe" v="bebyggelse" />
		<tag k="ssr:stedsnr" v="365414" />
		<tag k="ssr:type" v="bruk" />
	</node>
	<node lat="59.10514444289332" lon="9.677555557740757" id="-24841">
		<tag k="name" v="Hovet" />
		<tag k="place" v="farm" />
		<tag k="ssr:date" v="2019-12-27" />
		<tag k="ssr:gruppe" v="gardsbebyggelse" />
		<tag k="ssr:hovedgruppe" v="bebyggelse" />
		<tag k="ssr:stedsnr" v="365419" />
		<tag k="ssr:type" v="bruk" />
	</node>
	<node lat="59.051172221440424" lon="9.837219446584568" id="-24842">
		<tag k="fixme" v="consider place=hamlet" />
		<tag k="name" v="Saga" />
		<tag k="place" v="farm" />
		<tag k="ssr:date" v="2019-12-27" />
		<tag k="ssr:gruppe" v="gardsbebyggelse" />
		<tag k="ssr:hovedgruppe" v="bebyggelse" />
		<tag k="ssr:stedsnr" v="365456" />
		<tag k="ssr:type" v="gard" />
	</node>
	<node lat="59.16622222591758" lon="9.829427781999737" id="-24843">
		<tag k="name" v="Holmen" />
		<tag k="place" v="isolated_dwelling" />
		<tag k="ssr:date" v="2019-12-27" />
		<tag k="ssr:gruppe" v="bolighus" />
		<tag k="ssr:hovedgruppe" v="bebyggelse" />
		<tag k="ssr:stedsnr" v="365509" />
		<tag k="ssr:type" v="eneboligMindreBoligbygg" />
	</node>
	<node lat="59.11881666471305" lon="9.721613880321385" id="-24844">
		<tag k="name" v="Slevollen" />
		<tag k="old_name" v="Slevolden" />
		<tag k="place" v="farm" />
		<tag k="ssr:date" v="2019-12-27" />
		<tag k="ssr:gruppe" v="gardsbebyggelse" />
		<tag k="ssr:hovedgruppe" v="bebyggelse" />
		<tag k="ssr:stedsnr" v="365600" />
		<tag k="ssr:type" v="bruk" />
	</node>
	<node lat="59.11764721974037" lon="9.632827770428271" id="-24845">
		<tag k="fixme" v="multiple name tags, choose one and add the other to alt_name" />
		<tag k="name" v="Herøya;Herøya industripark" />
		<tag k="place" v="quarter" />
		<tag k="ssr:date" v="2019-12-27" />
		<tag k="ssr:gruppe" v="bebyggelsesområder" />
		<tag k="ssr:hovedgruppe" v="bebyggelse" />
		<tag k="ssr:stedsnr" v="365606" />
		<tag k="ssr:type" v="industriområde" />
	</node>
	<node lat="59.15171111535241" lon="9.690511108749657" id="-24846">
		<tag k="name" v="Bjørketvet" />
		<tag k="old_name" v="Bjørketveit" />
		<tag k="place" v="farm" />
		<tag k="ssr:date" v="2019-12-27" />
		<tag k="ssr:gruppe" v="gardsbebyggelse" />
		<tag k="ssr:hovedgruppe" v="bebyggelse" />
		<tag k="ssr:stedsnr" v="366603" />
		<tag k="ssr:type" v="bruk" />
	</node>
	<node lat="59.15649166685704" lon="9.754808340334534" id="-24847">
		<tag k="fixme" v="consider natural=peak for the most distinct mountains in the district" />
		<tag k="loc_name" v="Busterødåsen" />
		<tag k="name" v="Busteråsen" />
		<tag k="natural" v="hill" />
		<tag k="place" v="locality" />
		<tag k="ssr:date" v="2019-12-27" />
		<tag k="ssr:gruppe" v="høyder" />
		<tag k="ssr:hovedgruppe" v="terreng" />
		<tag k="ssr:stedsnr" v="366542" />
		<tag k="ssr:type" v="ås" />
	</node>
	<node lat="59.1085138909605" lon="9.685880552615474" id="-24848">
		<tag k="name" v="Grønli" />
		<tag k="place" v="farm" />
		<tag k="ssr:date" v="2019-12-27" />
		<tag k="ssr:gruppe" v="gardsbebyggelse" />
		<tag k="ssr:hovedgruppe" v="bebyggelse" />
		<tag k="ssr:stedsnr" v="480086" />
		<tag k="ssr:type" v="bruk" />
	</node>
	<node lat="59.050713890381864" lon="9.7288666655579" id="-24849">
		<tag k="name" v="Sand" />
		<tag k="place" v="hamlet" />
		<tag k="ssr:date" v="2019-12-27" />
		<tag k="ssr:gruppe" v="bebyggelsesområder" />
		<tag k="ssr:hovedgruppe" v="bebyggelse" />
		<tag k="ssr:stedsnr" v="480426" />
		<tag k="ssr:type" v="grend" />
	</node>
	<node lat="59.140588892089234" lon="9.640905551864392" id="-24850">
		<tag k="bridge" v="yes" />
		<tag k="layer" v="1" />
		<tag k="name" v="Vippebru" />
		<tag k="ssr:date" v="2019-12-27" />
		<tag k="ssr:gruppe" v="samferdselsanlegg" />
		<tag k="ssr:hovedgruppe" v="infrastruktur" />
		<tag k="ssr:stedsnr" v="480727" />
		<tag k="ssr:type" v="bru" />
	</node>
	<node lat="59.14653055432111" lon="9.733630561527947" id="-24851">
		<tag k="fixme" v="consider place=hamlet" />
		<tag k="loc_name" v="Bjørkedal" />
		<tag k="name" v="Bjørkedalen" />
		<tag k="place" v="village" />
		<tag k="ssr:date" v="2019-12-27" />
		<tag k="ssr:gruppe" v="bebyggelsesområder" />
		<tag k="ssr:hovedgruppe" v="bebyggelse" />
		<tag k="ssr:stedsnr" v="388857" />
		<tag k="ssr:type" v="bygdelagBygd" />
	</node>
	<node lat="59.046450000295195" lon="9.776344450338229" id="-24852">
		<tag k="name" v="Sildevika" />
		<tag k="natural" v="bay" />
		<tag k="ssr:date" v="2019-12-27" />
		<tag k="ssr:gruppe" v="kystkontur" />
		<tag k="ssr:hovedgruppe" v="sjø" />
		<tag k="ssr:stedsnr" v="389091" />
		<tag k="ssr:type" v="vikISjø" />
	</node>
	<node lat="59.0692916627106" lon="9.725216666436193" id="-24853">
		<tag k="name" v="Solheim" />
		<tag k="place" v="farm" />
		<tag k="ssr:date" v="2019-12-27" />
		<tag k="ssr:gruppe" v="gardsbebyggelse" />
		<tag k="ssr:hovedgruppe" v="bebyggelse" />
		<tag k="ssr:stedsnr" v="486442" />
		<tag k="ssr:type" v="bruk" />
	</node>
	<node lat="59.084147220983844" lon="9.742958326984537" id="-24854">
		<tag k="fixme" v="consider place=hamlet" />
		<tag k="name" v="Stamland" />
		<tag k="place" v="farm" />
		<tag k="ssr:date" v="2019-12-27" />
		<tag k="ssr:gruppe" v="gardsbebyggelse" />
		<tag k="ssr:hovedgruppe" v="bebyggelse" />
		<tag k="ssr:stedsnr" v="486445" />
		<tag k="ssr:type" v="gard" />
	</node>
	<node lat="59.08134166569638" lon="9.735900000681148" id="-24855">
		<tag k="name" v="Rønningen" />
		<tag k="place" v="farm" />
		<tag k="ssr:date" v="2019-12-27" />
		<tag k="ssr:gruppe" v="gardsbebyggelse" />
		<tag k="ssr:hovedgruppe" v="bebyggelse" />
		<tag k="ssr:stedsnr" v="486447" />
		<tag k="ssr:type" v="bruk" />
	</node>
	<node lat="59.136181474391385" lon="9.698583011581775" id="-24856">
		<tag k="fixme" v="consider natural=peak for the most distinct mountains in the district" />
		<tag k="loc_name" v="Valleråsen" />
		<tag k="name" v="Valleråsane" />
		<tag k="natural" v="hill" />
		<tag k="place" v="locality" />
		<tag k="ssr:date" v="2019-12-27" />
		<tag k="ssr:gruppe" v="høyder" />
		<tag k="ssr:hovedgruppe" v="terreng" />
		<tag k="ssr:stedsnr" v="410721" />
		<tag k="ssr:type" v="ås" />
	</node>
	<node lat="59.05471388765311" lon="9.679963881951" id="-24859">
		<tag k="fixme" v="consider place=suburb, village or hamlet" />
		<tag k="name" v="Blekebakken" />
		<tag k="place" v="quarter" />
		<tag k="ssr:date" v="2019-12-27" />
		<tag k="ssr:gruppe" v="bebyggelsesområder" />
		<tag k="ssr:hovedgruppe" v="bebyggelse" />
		<tag k="ssr:stedsnr" v="411038" />
		<tag k="ssr:type" v="tettbebyggelse" />
	</node>
	<node lat="59.08695555459185" lon="9.737558338814114" id="-24860">
		<tag k="fixme" v="consider natural=peak for the most distinct mountains in the district" />
		<tag k="name" v="Tveitåsen" />
		<tag k="natural" v="hill" />
		<tag k="place" v="locality" />
		<tag k="ssr:date" v="2019-12-27" />
		<tag k="ssr:gruppe" v="høyder" />
		<tag k="ssr:hovedgruppe" v="terreng" />
		<tag k="ssr:stedsnr" v="411053" />
		<tag k="ssr:type" v="ås" />
	</node>
	<node lat="59.01175555237885" lon="9.82164166894526" id="-24861">
		<tag k="name" v="Bukkevika" />
		<tag k="place" v="isolated_dwelling" />
		<tag k="ssr:date" v="2019-12-27" />
		<tag k="ssr:gruppe" v="bolighus" />
		<tag k="ssr:hovedgruppe" v="bebyggelse" />
		<tag k="ssr:stedsnr" v="487329" />
		<tag k="ssr:type" v="fritidsbolig" />
	</node>
	<node lat="59.075919441440874" lon="9.691388897211445" id="-24862">
		<tag k="name" v="Vershaugen" />
		<tag k="natural" v="hill" />
		<tag k="place" v="locality" />
		<tag k="ssr:date" v="2019-12-27" />
		<tag k="ssr:gruppe" v="høyder" />
		<tag k="ssr:hovedgruppe" v="terreng" />
		<tag k="ssr:stedsnr" v="411353" />
		<tag k="ssr:type" v="haug" />
	</node>
	<node lat="59.01868611200574" lon="9.817830553784379" id="-24866">
		<tag k="loc_name" v="Jordsbukta" />
		<tag k="name" v="Jordbukta" />
		<tag k="natural" v="bay" />
		<tag k="ssr:date" v="2019-12-27" />
		<tag k="ssr:gruppe" v="kystkontur" />
		<tag k="ssr:hovedgruppe" v="sjø" />
		<tag k="ssr:stedsnr" v="411650" />
		<tag k="ssr:type" v="vikISjø" />
	</node>
	<node lat="59.02521944395649" lon="9.808283332192065" id="-24867">
		<tag k="name" v="Store Vesta" />
		<tag k="natural" v="bay" />
		<tag k="ssr:date" v="2019-12-27" />
		<tag k="ssr:gruppe" v="kystkontur" />
		<tag k="ssr:hovedgruppe" v="sjø" />
		<tag k="ssr:stedsnr" v="411652" />
		<tag k="ssr:type" v="vikISjø" />
	</node>
	<node lat="59.0948972262748" lon="9.661922225384941" id="-24868">
		<tag k="name" v="Rød" />
		<tag k="place" v="farm" />
		<tag k="ssr:date" v="2019-12-27" />
		<tag k="ssr:gruppe" v="gardsbebyggelse" />
		<tag k="ssr:hovedgruppe" v="bebyggelse" />
		<tag k="ssr:stedsnr" v="487421" />
		<tag k="ssr:type" v="bruk" />
	</node>
	<node lat="59.06445833260944" lon="9.757550002096874" id="-24869">
		<tag k="fixme" v="consider natural=peak for the most distinct mountains in the district" />
		<tag k="name" v="Svarteputt" />
		<tag k="natural" v="hill" />
		<tag k="place" v="locality" />
		<tag k="ssr:date" v="2019-12-27" />
		<tag k="ssr:gruppe" v="høyder" />
		<tag k="ssr:hovedgruppe" v="terreng" />
		<tag k="ssr:stedsnr" v="411916" />
		<tag k="ssr:type" v="ås" />
	</node>
	<node lat="59.08227777668858" lon="9.75303889086848" id="-24870">
		<tag k="name" v="Demningane" />
		<tag k="natural" v="water" />
		<tag k="ssr:date" v="2019-12-27" />
		<tag k="ssr:gruppe" v="stilleståendeVann" />
		<tag k="ssr:hovedgruppe" v="ferskvann" />
		<tag k="ssr:stedsnr" v="411932" />
		<tag k="ssr:type" v="pytt" />
		<tag k="water" v="pond" />
	</node>
	<node lat="59.09021388904606" lon="9.718116660096385" id="-24872">
		<tag k="fixme" v="consider place=hamlet" />
		<tag k="name" v="Røra" />
		<tag k="place" v="farm" />
		<tag k="ssr:date" v="2019-12-27" />
		<tag k="ssr:gruppe" v="gardsbebyggelse" />
		<tag k="ssr:hovedgruppe" v="bebyggelse" />
		<tag k="ssr:stedsnr" v="487459" />
		<tag k="ssr:type" v="gard" />
	</node>
	<node lat="59.14550555815424" lon="9.769408333891702" id="-24873">
		<tag k="highway" v="path" />
		<tag k="name" v="Kjerkebakkleiva" />
		<tag k="ssr:date" v="2019-12-27" />
		<tag k="ssr:gruppe" v="veg" />
		<tag k="ssr:hovedgruppe" v="infrastruktur" />
		<tag k="ssr:stedsnr" v="411890" />
		<tag k="ssr:type" v="sti" />
	</node>
	<node lat="59.13914722439981" lon="9.795969449806393" id="-24874">
		<tag k="name" v="Øvre Solli" />
		<tag k="place" v="farm" />
		<tag k="ssr:date" v="2019-12-27" />
		<tag k="ssr:gruppe" v="gardsbebyggelse" />
		<tag k="ssr:hovedgruppe" v="bebyggelse" />
		<tag k="ssr:stedsnr" v="411900" />
		<tag k="ssr:type" v="bruk" />
	</node>
	<node lat="59.10239999875625" lon="9.798505562840628" id="-24875">
		<tag k="fixme" v="consider place=hamlet" />
		<tag k="name" v="Sundsåsen" />
		<tag k="old_name" v="Sundsås" />
		<tag k="place" v="farm" />
		<tag k="ssr:date" v="2019-12-27" />
		<tag k="ssr:gruppe" v="gardsbebyggelse" />
		<tag k="ssr:hovedgruppe" v="bebyggelse" />
		<tag k="ssr:stedsnr" v="487430" />
		<tag k="ssr:type" v="gard" />
	</node>
	<node lat="59.073566667823336" lon="9.737219449031409" id="-24876">
		<tag k="name" v="Smedvika" />
		<tag k="natural" v="bay" />
		<tag k="ssr:date" v="2019-12-27" />
		<tag k="ssr:gruppe" v="kystkontur" />
		<tag k="ssr:hovedgruppe" v="sjø" />
		<tag k="ssr:stedsnr" v="411990" />
		<tag k="ssr:type" v="vikISjø" />
	</node>
	<node lat="59.167283329784034" lon="9.80664721696167" id="-24877">
		<tag k="name" v="Humlemyra" />
		<tag k="natural" v="wetland" />
		<tag k="ssr:date" v="2019-12-27" />
		<tag k="ssr:gruppe" v="våtmark" />
		<tag k="ssr:hovedgruppe" v="markslag" />
		<tag k="ssr:stedsnr" v="411992" />
		<tag k="ssr:type" v="myr" />
	</node>
	<node lat="59.05229166340465" lon="9.704527776546573" id="-24878">
		<tag k="name" v="Sylterøya" />
		<tag k="place" v="island" />
		<tag k="ssr:date" v="2019-12-27" />
		<tag k="ssr:gruppe" v="kystkontur" />
		<tag k="ssr:hovedgruppe" v="sjø" />
		<tag k="ssr:stedsnr" v="487469" />
		<tag k="ssr:type" v="øyISjø" />
	</node>
	<node lat="59.0548249985729" lon="9.68781111958046" id="-24879">
		<tag k="building" v="industrial" />
		<tag k="industrial" v="factory" />
		<tag k="name" v="Trosvik" />
		<tag k="ssr:date" v="2019-12-27" />
		<tag k="ssr:gruppe" v="næring" />
		<tag k="ssr:hovedgruppe" v="bebyggelse" />
		<tag k="ssr:stedsnr" v="487471" />
		<tag k="ssr:type" v="fabrikk" />
	</node>
	<node lat="59.059466663835885" lon="9.724083332438203" id="-24880">
		<tag k="fixme" v="consider natural=beach + surface=sand" />
		<tag k="leisure" v="swimming_area" />
		<tag k="name" v="Dikkon" />
		<tag k="place" v="locality" />
		<tag k="ssr:date" v="2019-12-27" />
		<tag k="ssr:gruppe" v="fritidsanlegg" />
		<tag k="ssr:hovedgruppe" v="bebyggelse" />
		<tag k="ssr:stedsnr" v="487492" />
		<tag k="ssr:type" v="badeplass" />
	</node>
	<node lat="59.061658332146656" lon="9.689774994207932" id="-24881">
		<tag k="building" v="industrial" />
		<tag k="industrial" v="factory" />
		<tag k="loc_name" v="Dalen" />
		<tag k="name" v="Dalen Portland" />
		<tag k="ssr:date" v="2019-12-27" />
		<tag k="ssr:gruppe" v="næring" />
		<tag k="ssr:hovedgruppe" v="bebyggelse" />
		<tag k="ssr:stedsnr" v="487497" />
		<tag k="ssr:type" v="fabrikk" />
	</node>
	<node lat="59.15704999786356" lon="9.742038882307567" id="-24882">
		<tag k="fixme" v="consider place=hamlet" />
		<tag k="name" v="Siljan" />
		<tag k="place" v="farm" />
		<tag k="ssr:date" v="2019-12-27" />
		<tag k="ssr:gruppe" v="gardsbebyggelse" />
		<tag k="ssr:hovedgruppe" v="bebyggelse" />
		<tag k="ssr:stedsnr" v="487566" />
		<tag k="ssr:type" v="gard" />
	</node>
	<node lat="59.18454999706375" lon="9.77285555462278" id="-24883">
		<tag k="name" v="Loppetjenn" />
		<tag k="natural" v="water" />
		<tag k="ssr:date" v="2021-06-08" />
		<tag k="ssr:gruppe" v="stilleståendeVann" />
		<tag k="ssr:hovedgruppe" v="ferskvann" />
		<tag k="ssr:stedsnr" v="487580" />
		<tag k="ssr:type" v="tjern" />
	</node>
	<node lat="59.18990555846399" lon="9.824944452523251" id="-24884">
		<tag k="historic" v="shieling" />
		<tag k="name" v="Tjennane" />
		<tag k="place" v="isolated_dwelling" />
		<tag k="ssr:date" v="2021-06-08" />
		<tag k="ssr:gruppe" v="gardsbebyggelse" />
		<tag k="ssr:hovedgruppe" v="bebyggelse" />
		<tag k="ssr:stedsnr" v="487582" />
		<tag k="ssr:type" v="seterStøl" />
	</node>
	<node lat="59.175280557142216" lon="9.87359722036614" id="-24885">
		<tag k="name" v="Hustufttjenna" />
		<tag k="natural" v="water" />
		<tag k="ssr:date" v="2021-06-08" />
		<tag k="ssr:gruppe" v="stilleståendeVann" />
		<tag k="ssr:hovedgruppe" v="ferskvann" />
		<tag k="ssr:stedsnr" v="487595" />
		<tag k="ssr:type" v="tjern" />
	</node>
	<node lat="59.12001944842766" lon="9.74579721720121" id="-24886">
		<tag k="alt_name" v="Sortilen" />
		<tag k="name" v="Sortilsvatnet" />
		<tag k="natural" v="water" />
		<tag k="ssr:date" v="2019-12-27" />
		<tag k="ssr:gruppe" v="stilleståendeVann" />
		<tag k="ssr:hovedgruppe" v="ferskvann" />
		<tag k="ssr:stedsnr" v="487633" />
		<tag k="ssr:type" v="tjern" />
	</node>
	<node lat="59.15030833496891" lon="9.659219443426714" id="-24887">
		<tag k="name" v="Osebakken" />
		<tag k="railway" v="halt" />
		<tag k="ssr:date" v="2019-12-27" />
		<tag k="ssr:gruppe" v="bane" />
		<tag k="ssr:hovedgruppe" v="infrastruktur" />
		<tag k="ssr:stedsnr" v="487647" />
		<tag k="ssr:type" v="holdeplass" />
		<tag k="train" v="yes" />
	</node>
	<node lat="59.10731944243037" lon="9.647549993919922" id="-24888">
		<tag k="name" v="Granli" />
		<tag k="place" v="isolated_dwelling" />
		<tag k="ssr:date" v="2019-12-27" />
		<tag k="ssr:gruppe" v="bolighus" />
		<tag k="ssr:hovedgruppe" v="bebyggelse" />
		<tag k="ssr:stedsnr" v="413644" />
		<tag k="ssr:type" v="eneboligMindreBoligbygg" />
	</node>
	<node lat="59.19357777896221" lon="9.870702782815417" id="-24889">
		<tag k="fixme" v="consider natural=peak for the most distinct mountains in the district" />
		<tag k="name" v="Sprenaåsane" />
		<tag k="natural" v="hill" />
		<tag k="place" v="locality" />
		<tag k="ssr:date" v="2021-06-08" />
		<tag k="ssr:gruppe" v="høyder" />
		<tag k="ssr:hovedgruppe" v="terreng" />
		<tag k="ssr:stedsnr" v="487748" />
		<tag k="ssr:type" v="ås" />
	</node>
	<node lat="59.14342500400081" lon="9.667963893624139" id="-24890">
		<tag k="name" v="Roland" />
		<tag k="place" v="isolated_dwelling" />
		<tag k="ssr:date" v="2019-12-27" />
		<tag k="ssr:gruppe" v="bolighus" />
		<tag k="ssr:hovedgruppe" v="bebyggelse" />
		<tag k="ssr:stedsnr" v="413546" />
		<tag k="ssr:type" v="eneboligMindreBoligbygg" />
	</node>
	<node lat="59.09541110750964" lon="9.685811112536857" id="-24891">
		<tag k="building" v="commercial" />
		<tag k="name" v="Skjelsvik senter" />
		<tag k="ssr:date" v="2019-12-27" />
		<tag k="ssr:gruppe" v="næring" />
		<tag k="ssr:hovedgruppe" v="bebyggelse" />
		<tag k="ssr:stedsnr" v="417309" />
		<tag k="ssr:type" v="forretningsbygg" />
	</node>
	<node lat="59.141363885798555" lon="9.640380560953439" id="-24892">
		<tag k="highway" v="bus_stop" />
		<tag k="name" v="Porsgrunn porselen" />
		<tag k="ssr:date" v="2019-12-27" />
		<tag k="ssr:gruppe" v="veg" />
		<tag k="ssr:hovedgruppe" v="infrastruktur" />
		<tag k="ssr:stedsnr" v="417987" />
		<tag k="ssr:type" v="busstopp" />
	</node>
	<node lat="59.14063055385262" lon="9.639666663488928" id="-24893">
		<tag k="building" v="industrial" />
		<tag k="industrial" v="factory" />
		<tag k="name" v="Porsgrunn porselenfabrikk" />
		<tag k="ssr:date" v="2019-12-27" />
		<tag k="ssr:gruppe" v="næring" />
		<tag k="ssr:hovedgruppe" v="bebyggelse" />
		<tag k="ssr:stedsnr" v="417989" />
		<tag k="ssr:type" v="fabrikk" />
	</node>
	<node lat="59.09707777413004" lon="9.72114166085501" id="-24894">
		<tag k="name" v="Vågheim" />
		<tag k="place" v="farm" />
		<tag k="ssr:date" v="2019-12-27" />
		<tag k="ssr:gruppe" v="gardsbebyggelse" />
		<tag k="ssr:hovedgruppe" v="bebyggelse" />
		<tag k="ssr:stedsnr" v="420037" />
		<tag k="ssr:type" v="bruk" />
	</node>
	<node lat="59.11460833663956" lon="9.688536114753168" id="-24895">
		<tag k="name" v="Sølverød" />
		<tag k="place" v="farm" />
		<tag k="ssr:date" v="2019-12-27" />
		<tag k="ssr:gruppe" v="gardsbebyggelse" />
		<tag k="ssr:hovedgruppe" v="bebyggelse" />
		<tag k="ssr:stedsnr" v="420089" />
		<tag k="ssr:type" v="bruk" />
	</node>
	<node lat="59.03856944411419" lon="9.806436117772142" id="-24896">
		<tag k="name" v="Auenslandet" />
		<tag k="place" v="neighbourhood" />
		<tag k="ssr:date" v="2019-12-27" />
		<tag k="ssr:gruppe" v="bebyggelsesområder" />
		<tag k="ssr:hovedgruppe" v="bebyggelse" />
		<tag k="ssr:stedsnr" v="420339" />
		<tag k="ssr:type" v="hyttefelt" />
	</node>
	<node lat="59.035916667434705" lon="9.761050007045522" id="-24897">
		<tag k="name" v="Kalven" />
		<tag k="natural" v="strait" />
		<tag k="ssr:date" v="2019-12-27" />
		<tag k="ssr:gruppe" v="kystkontur" />
		<tag k="ssr:hovedgruppe" v="sjø" />
		<tag k="ssr:stedsnr" v="420343" />
		<tag k="ssr:type" v="sundISjø" />
	</node>
	<node lat="59.03070832897633" lon="9.768149996029235" id="-24898">
		<tag k="name" v="Odden" />
		<tag k="natural" v="cape" />
		<tag k="ssr:date" v="2019-12-27" />
		<tag k="ssr:gruppe" v="kystkontur" />
		<tag k="ssr:hovedgruppe" v="sjø" />
		<tag k="ssr:stedsnr" v="420347" />
		<tag k="ssr:type" v="nesISjø" />
	</node>
	<node lat="59.03105278006651" lon="9.76496943955116" id="-24899">
		<tag k="name" v="Risesundodden" />
		<tag k="natural" v="cape" />
		<tag k="ssr:date" v="2019-12-27" />
		<tag k="ssr:gruppe" v="kystkontur" />
		<tag k="ssr:hovedgruppe" v="sjø" />
		<tag k="ssr:stedsnr" v="420351" />
		<tag k="ssr:type" v="nesISjø" />
	</node>
	<node lat="59.066930551378746" lon="9.73058888451028" id="-24900">
		<tag k="name" v="Eiklund" />
		<tag k="place" v="isolated_dwelling" />
		<tag k="ssr:date" v="2019-12-27" />
		<tag k="ssr:gruppe" v="bolighus" />
		<tag k="ssr:hovedgruppe" v="bebyggelse" />
		<tag k="ssr:stedsnr" v="420494" />
		<tag k="ssr:type" v="fritidsbolig" />
	</node>
	<node lat="59.10049079685564" lon="9.658027691094725" id="-24901">
		<tag k="fixme" v="consider boundary=protected_area and relevant protect_class if not nature reserve" />
		<tag k="leisure" v="nature_reserve" />
		<tag k="name" v="Søndre Versvik naturreservat" />
		<tag k="ssr:date" v="2019-12-27" />
		<tag k="ssr:gruppe" v="verne-OgBruksområder" />
		<tag k="ssr:hovedgruppe" v="offentligAdministrasjon" />
		<tag k="ssr:stedsnr" v="421438" />
		<tag k="ssr:type" v="verneområde" />
	</node>
	<node lat="59.08169444179688" lon="9.644330555636618" id="-24902">
		<tag k="name" v="Saltbua" />
		<tag k="place" v="farm" />
		<tag k="ssr:date" v="2019-12-27" />
		<tag k="ssr:gruppe" v="gardsbebyggelse" />
		<tag k="ssr:hovedgruppe" v="bebyggelse" />
		<tag k="ssr:stedsnr" v="426410" />
		<tag k="ssr:type" v="bruk" />
	</node>
	<node lat="59.05913888455534" lon="9.792566659974737" id="-24903">
		<tag k="name" v="Eggholmane" />
		<tag k="place" v="islet" />
		<tag k="ssr:date" v="2019-12-27" />
		<tag k="ssr:gruppe" v="kystkontur" />
		<tag k="ssr:hovedgruppe" v="sjø" />
		<tag k="ssr:stedsnr" v="426432" />
		<tag k="ssr:type" v="holmegruppeISjø" />
	</node>
	<node lat="59.16748333636291" lon="9.792866667782263" id="-24904">
		<tag k="name" v="Fiskeløs" />
		<tag k="natural" v="water" />
		<tag k="ssr:date" v="2021-06-08" />
		<tag k="ssr:gruppe" v="stilleståendeVann" />
		<tag k="ssr:hovedgruppe" v="ferskvann" />
		<tag k="ssr:stedsnr" v="426488" />
		<tag k="ssr:type" v="tjern" />
	</node>
	<node lat="59.16822500003328" lon="9.86631388536866" id="-24905">
		<tag k="name" v="Todal" />
		<tag k="place" v="farm" />
		<tag k="ssr:date" v="2019-12-27" />
		<tag k="ssr:gruppe" v="gardsbebyggelse" />
		<tag k="ssr:hovedgruppe" v="bebyggelse" />
		<tag k="ssr:stedsnr" v="426490" />
		<tag k="ssr:type" v="bruk" />
	</node>
	<node lat="59.145280555506936" lon="9.739861102508069" id="-24906">
		<tag k="fixme" v="consider place=hamlet" />
		<tag k="name" v="Flogstad" />
		<tag k="place" v="farm" />
		<tag k="ssr:date" v="2019-12-27" />
		<tag k="ssr:gruppe" v="gardsbebyggelse" />
		<tag k="ssr:hovedgruppe" v="bebyggelse" />
		<tag k="ssr:stedsnr" v="426608" />
		<tag k="ssr:type" v="gard" />
	</node>
	<node lat="59.111008331918505" lon="9.712419441529477" id="-24907">
		<tag k="name" v="Herregårdsstranda" />
		<tag k="natural" v="beach" />
		<tag k="ssr:date" v="2019-12-27" />
		<tag k="ssr:gruppe" v="kystkontur" />
		<tag k="ssr:hovedgruppe" v="sjø" />
		<tag k="ssr:stedsnr" v="426585" />
		<tag k="ssr:type" v="strandISjø" />
	</node>
	<node lat="59.100997225390834" lon="9.732063882836256" id="-24908">
		<tag k="alt_name" v="Holtåsen" />
		<tag k="fixme" v="consider natural=peak for the most distinct mountains in the district" />
		<tag k="name" v="Holtsåsen" />
		<tag k="natural" v="hill" />
		<tag k="place" v="locality" />
		<tag k="ssr:date" v="2019-12-27" />
		<tag k="ssr:gruppe" v="høyder" />
		<tag k="ssr:hovedgruppe" v="terreng" />
		<tag k="ssr:stedsnr" v="427407" />
		<tag k="ssr:type" v="ås" />
	</node>
	<node lat="59.09740555824974" lon="9.71721945246423" id="-24909">
		<tag k="alt_name" v="Vissevåg" />
		<tag k="name" v="Vissevåga" />
		<tag k="natural" v="bay" />
		<tag k="ssr:date" v="2019-12-27" />
		<tag k="ssr:gruppe" v="kystkontur" />
		<tag k="ssr:hovedgruppe" v="sjø" />
		<tag k="ssr:stedsnr" v="427408" />
		<tag k="ssr:type" v="vikISjø" />
	</node>
	<node lat="59.03642222120729" lon="9.780230558865245" id="-24910">
		<tag k="name" v="Østre Brattholmen" />
		<tag k="place" v="islet" />
		<tag k="ssr:date" v="2019-12-27" />
		<tag k="ssr:gruppe" v="kystkontur" />
		<tag k="ssr:hovedgruppe" v="sjø" />
		<tag k="ssr:stedsnr" v="449719" />
		<tag k="ssr:type" v="holmeISjø" />
	</node>
	<node lat="59.17592221943218" lon="9.809561103221032" id="-24911">
		<tag k="name" v="Oklungen" />
		<tag k="place" v="hamlet" />
		<tag k="ssr:date" v="2019-12-27" />
		<tag k="ssr:gruppe" v="bebyggelsesområder" />
		<tag k="ssr:hovedgruppe" v="bebyggelse" />
		<tag k="ssr:stedsnr" v="449775" />
		<tag k="ssr:type" v="grend" />
	</node>
	<node lat="59.090677781524825" lon="9.712436105575591" id="-24912">
		<tag k="name" v="Røratangen" />
		<tag k="natural" v="cape" />
		<tag k="ssr:date" v="2019-12-27" />
		<tag k="ssr:gruppe" v="kystkontur" />
		<tag k="ssr:hovedgruppe" v="sjø" />
		<tag k="ssr:stedsnr" v="451017" />
		<tag k="ssr:type" v="nesISjø" />
	</node>
	<node lat="59.03943333701738" lon="9.73179999832696" id="-24913">
		<tag k="name" v="Bjørkøybåen" />
		<tag k="place" v="locality" />
		<tag k="seamark:type" v="rock" />
		<tag k="ssr:date" v="2019-12-27" />
		<tag k="ssr:gruppe" v="grunnerISjø" />
		<tag k="ssr:hovedgruppe" v="sjø" />
		<tag k="ssr:stedsnr" v="451114" />
		<tag k="ssr:type" v="båeISjø" />
	</node>
	<node lat="59.0547527775435" lon="9.824997219298695" id="-24914">
		<tag k="fixme" v="consider natural=peak for the most distinct mountains in the district" />
		<tag k="name" v="Hallingåsen" />
		<tag k="natural" v="hill" />
		<tag k="place" v="locality" />
		<tag k="ssr:date" v="2019-12-27" />
		<tag k="ssr:gruppe" v="høyder" />
		<tag k="ssr:hovedgruppe" v="terreng" />
		<tag k="ssr:stedsnr" v="471002" />
		<tag k="ssr:type" v="ås" />
	</node>
	<node lat="59.08484722481408" lon="9.771225005455523" id="-24915">
		<tag k="fixme" v="consider natural=peak for the most distinct mountains in the district" />
		<tag k="name" v="Gibraltar" />
		<tag k="natural" v="hill" />
		<tag k="place" v="locality" />
		<tag k="ssr:date" v="2019-12-27" />
		<tag k="ssr:gruppe" v="høyder" />
		<tag k="ssr:hovedgruppe" v="terreng" />
		<tag k="ssr:stedsnr" v="471003" />
		<tag k="ssr:type" v="ås" />
	</node>
	<node lat="59.112338887923904" lon="9.84740834163278" id="-24916">
		<tag k="fixme" v="consider natural=peak for the most distinct mountains in the district" />
		<tag k="name" v="Lamåsen" />
		<tag k="natural" v="hill" />
		<tag k="place" v="locality" />
		<tag k="ssr:date" v="2019-12-27" />
		<tag k="ssr:gruppe" v="høyder" />
		<tag k="ssr:hovedgruppe" v="terreng" />
		<tag k="ssr:stedsnr" v="471005" />
		<tag k="ssr:type" v="ås" />
	</node>
	<node lat="59.08054444263798" lon="9.74497499649985" id="-24917">
		<tag k="fixme" v="consider natural=peak for the most distinct mountains in the district" />
		<tag k="name" v="Skifteåsen" />
		<tag k="natural" v="hill" />
		<tag k="place" v="locality" />
		<tag k="ssr:date" v="2019-12-27" />
		<tag k="ssr:gruppe" v="høyder" />
		<tag k="ssr:hovedgruppe" v="terreng" />
		<tag k="ssr:stedsnr" v="471008" />
		<tag k="ssr:type" v="ås" />
	</node>
	<node lat="59.039416667780095" lon="9.747344447696658" id="-24918">
		<tag k="name" v="Hegna" />
		<tag k="natural" v="slope" />
		<tag k="place" v="locality" />
		<tag k="ssr:date" v="2019-12-27" />
		<tag k="ssr:gruppe" v="skråninger" />
		<tag k="ssr:hovedgruppe" v="terreng" />
		<tag k="ssr:stedsnr" v="471466" />
		<tag k="ssr:type" v="li" />
	</node>
	<node lat="59.09259444512099" lon="9.7895500078772" id="-24923">
		<tag k="name" v="Kokkersvollbakkane" />
		<tag k="natural" v="valley" />
		<tag k="place" v="locality" />
		<tag k="ssr:date" v="2019-12-27" />
		<tag k="ssr:gruppe" v="senkninger" />
		<tag k="ssr:hovedgruppe" v="terreng" />
		<tag k="ssr:stedsnr" v="471914" />
		<tag k="ssr:type" v="dal" />
	</node>
	<node lat="59.14188888534402" lon="9.713605561672397" id="-24924">
		<tag k="fixme" v="consider natural=peak for the most distinct mountains in the district" />
		<tag k="name" v="Lundekollen" />
		<tag k="natural" v="hill" />
		<tag k="place" v="locality" />
		<tag k="ssr:date" v="2019-12-27" />
		<tag k="ssr:gruppe" v="høyder" />
		<tag k="ssr:hovedgruppe" v="terreng" />
		<tag k="ssr:stedsnr" v="471961" />
		<tag k="ssr:type" v="ås" />
	</node>
	<node lat="59.08900555409509" lon="9.773902778059272" id="-24925">
		<tag k="fixme" v="consider natural=peak for the most distinct mountains in the district" />
		<tag k="name" v="Rolighetsåsen" />
		<tag k="natural" v="hill" />
		<tag k="place" v="locality" />
		<tag k="ssr:date" v="2019-12-27" />
		<tag k="ssr:gruppe" v="høyder" />
		<tag k="ssr:hovedgruppe" v="terreng" />
		<tag k="ssr:stedsnr" v="471963" />
		<tag k="ssr:type" v="ås" />
	</node>
	<node lat="59.074486112331016" lon="9.787216671605535" id="-24926">
		<tag k="fixme" v="consider natural=peak for the most distinct mountains in the district" />
		<tag k="name" v="Haugåsen" />
		<tag k="natural" v="hill" />
		<tag k="place" v="locality" />
		<tag k="ssr:date" v="2019-12-27" />
		<tag k="ssr:gruppe" v="høyder" />
		<tag k="ssr:hovedgruppe" v="terreng" />
		<tag k="ssr:stedsnr" v="471967" />
		<tag k="ssr:type" v="ås" />
	</node>
	<node lat="59.05338753091423" lon="9.834547806090885" id="-24928">
		<tag k="bridge" v="yes" />
		<tag k="layer" v="1" />
		<tag k="name" v="Svartkjenn" />
		<tag k="ssr:date" v="2019-12-27" />
		<tag k="ssr:gruppe" v="samferdselsanlegg" />
		<tag k="ssr:hovedgruppe" v="infrastruktur" />
		<tag k="ssr:stedsnr" v="471681" />
		<tag k="ssr:type" v="bru" />
	</node>
	<node lat="59.1113888898706" lon="9.830288893152554" id="-24929">
		<tag k="name" v="Mellomtjenna" />
		<tag k="natural" v="water" />
		<tag k="ssr:date" v="2019-12-27" />
		<tag k="ssr:gruppe" v="stilleståendeVann" />
		<tag k="ssr:hovedgruppe" v="ferskvann" />
		<tag k="ssr:stedsnr" v="471683" />
		<tag k="ssr:type" v="tjern" />
	</node>
	<node lat="59.0513055529279" lon="9.77521665792228" id="-24930">
		<tag k="man_made" v="quay" />
		<tag k="name" v="Bjønnesbrygga" />
		<tag k="place" v="locality" />
		<tag k="ssr:date" v="2019-12-27" />
		<tag k="ssr:gruppe" v="sjøfart" />
		<tag k="ssr:hovedgruppe" v="infrastruktur" />
		<tag k="ssr:stedsnr" v="472409" />
		<tag k="ssr:type" v="brygge" />
	</node>
	<node lat="59.085047218974026" lon="9.720697229407463" id="-24931">
		<tag k="amenity" v="school" />
		<tag k="name" v="Bergsbygda" />
		<tag k="ssr:date" v="2019-12-27" />
		<tag k="ssr:gruppe" v="institusjoner" />
		<tag k="ssr:hovedgruppe" v="bebyggelse" />
		<tag k="ssr:stedsnr" v="472902" />
		<tag k="ssr:type" v="skole" />
	</node>
	<node lat="59.14736389042411" lon="9.638305557753531" id="-24932">
		<tag k="name" v="Steinsrød" />
		<tag k="place" v="isolated_dwelling" />
		<tag k="ssr:date" v="2019-12-27" />
		<tag k="ssr:gruppe" v="bolighus" />
		<tag k="ssr:hovedgruppe" v="bebyggelse" />
		<tag k="ssr:stedsnr" v="473463" />
		<tag k="ssr:type" v="eneboligMindreBoligbygg" />
	</node>
	<node lat="59.14042499603181" lon="9.647161103522564" id="-24933">
		<tag k="name" v="Strømtangskjæret" />
		<tag k="place" v="islet" />
		<tag k="ssr:date" v="2019-12-27" />
		<tag k="ssr:gruppe" v="grunnerIFerskvann" />
		<tag k="ssr:hovedgruppe" v="ferskvann" />
		<tag k="ssr:stedsnr" v="473666" />
		<tag k="ssr:type" v="skjær" />
	</node>
	<node lat="59.12619722656806" lon="9.65482499291325" id="-24935">
		<tag k="highway" v="bus_stop" />
		<tag k="name" v="Grønli" />
		<tag k="ssr:date" v="2019-12-27" />
		<tag k="ssr:gruppe" v="veg" />
		<tag k="ssr:hovedgruppe" v="infrastruktur" />
		<tag k="ssr:stedsnr" v="477966" />
		<tag k="ssr:type" v="busstopp" />
	</node>
	<node lat="59.043800003780184" lon="9.838330559437507" id="-24936">
		<tag k="name" v="Stranda" />
		<tag k="natural" v="beach" />
		<tag k="ssr:date" v="2019-12-27" />
		<tag k="ssr:gruppe" v="kystkontur" />
		<tag k="ssr:hovedgruppe" v="sjø" />
		<tag k="ssr:stedsnr" v="480275" />
		<tag k="ssr:type" v="strandISjø" />
	</node>
	<node lat="59.065744442884764" lon="9.733824996146327" id="-24937">
		<tag k="name" v="Bakstebergholmen" />
		<tag k="place" v="islet" />
		<tag k="ssr:date" v="2019-12-27" />
		<tag k="ssr:gruppe" v="kystkontur" />
		<tag k="ssr:hovedgruppe" v="sjø" />
		<tag k="ssr:stedsnr" v="480462" />
		<tag k="ssr:type" v="holmeISjø" />
	</node>
	<node lat="59.147858337568096" lon="9.702791674800489" id="-24938">
		<tag k="name" v="Svinholt" />
		<tag k="place" v="farm" />
		<tag k="ssr:date" v="2019-12-27" />
		<tag k="ssr:gruppe" v="gardsbebyggelse" />
		<tag k="ssr:hovedgruppe" v="bebyggelse" />
		<tag k="ssr:stedsnr" v="486627" />
		<tag k="ssr:type" v="bruk" />
	</node>
	<node lat="59.168186110519606" lon="9.768411105102144" id="-24939">
		<tag k="name" v="Brudalskollen" />
		<tag k="natural" v="hill" />
		<tag k="place" v="locality" />
		<tag k="ssr:date" v="2019-12-27" />
		<tag k="ssr:gruppe" v="høyder" />
		<tag k="ssr:hovedgruppe" v="terreng" />
		<tag k="ssr:stedsnr" v="486510" />
		<tag k="ssr:type" v="haug" />
	</node>
	<node lat="59.17363529263106" lon="9.820047623980692" id="-24940">
		<tag k="fixme" v="consider place=hamlet" />
		<tag k="name" v="Ragnhildrød" />
		<tag k="place" v="farm" />
		<tag k="ssr:date" v="2019-12-27" />
		<tag k="ssr:gruppe" v="gardsbebyggelse" />
		<tag k="ssr:hovedgruppe" v="bebyggelse" />
		<tag k="ssr:stedsnr" v="486516" />
		<tag k="ssr:type" v="gard" />
	</node>
	<node lat="59.209311109209224" lon="9.794869437505358" id="-24941">
		<tag k="fixme" v="consider natural=peak for the most distinct mountains in the district" />
		<tag k="name" v="Svarteberget" />
		<tag k="natural" v="hill" />
		<tag k="place" v="locality" />
		<tag k="ssr:date" v="2021-06-08" />
		<tag k="ssr:gruppe" v="høyder" />
		<tag k="ssr:hovedgruppe" v="terreng" />
		<tag k="ssr:stedsnr" v="487736" />
		<tag k="ssr:type" v="ås" />
	</node>
	<node lat="59.059697221257196" lon="9.741977773056226" id="-24942">
		<tag k="name" v="Finnsholmane" />
		<tag k="place" v="islet" />
		<tag k="ssr:date" v="2019-12-27" />
		<tag k="ssr:gruppe" v="kystkontur" />
		<tag k="ssr:hovedgruppe" v="sjø" />
		<tag k="ssr:stedsnr" v="487479" />
		<tag k="ssr:type" v="holmegruppeISjø" />
	</node>
	<node lat="59.02901666862368" lon="9.764261104508945" id="-24944">
		<tag k="name" v="Risøysundet" />
		<tag k="natural" v="strait" />
		<tag k="ssr:date" v="2019-12-27" />
		<tag k="ssr:gruppe" v="kystkontur" />
		<tag k="ssr:hovedgruppe" v="sjø" />
		<tag k="ssr:stedsnr" v="509705" />
		<tag k="ssr:type" v="sundISjø" />
	</node>
	<node lat="59.17299721948341" lon="9.863374992794327" id="-24945">
		<tag k="fixme" v="consider natural=peak for the most distinct mountains in the district" />
		<tag k="name" v="Brentås" />
		<tag k="natural" v="hill" />
		<tag k="place" v="locality" />
		<tag k="ssr:date" v="2019-12-27" />
		<tag k="ssr:gruppe" v="høyder" />
		<tag k="ssr:hovedgruppe" v="terreng" />
		<tag k="ssr:stedsnr" v="522002" />
		<tag k="ssr:type" v="ås" />
	</node>
	<node lat="59.06108611504482" lon="9.816397222474896" id="-24954">
		<tag k="name" v="Svarttjønn" />
		<tag k="natural" v="water" />
		<tag k="ssr:date" v="2019-12-27" />
		<tag k="ssr:gruppe" v="stilleståendeVann" />
		<tag k="ssr:hovedgruppe" v="ferskvann" />
		<tag k="ssr:stedsnr" v="532093" />
		<tag k="ssr:type" v="tjern" />
	</node>
	<node lat="59.04556666819138" lon="9.749324995439732" id="-24955">
		<tag k="fixme" v="consider seamark:type=rock or natural=shoal" />
		<tag k="name" v="Brentaskjæra" />
		<tag k="place" v="islet" />
		<tag k="ssr:date" v="2019-12-27" />
		<tag k="ssr:gruppe" v="grunnerISjø" />
		<tag k="ssr:hovedgruppe" v="sjø" />
		<tag k="ssr:stedsnr" v="532570" />
		<tag k="ssr:type" v="skjærISjø" />
	</node>
	<node lat="59.14889444135417" lon="9.77488610658092" id="-24958">
		<tag k="name" v="Storåsdalen" />
		<tag k="natural" v="valley" />
		<tag k="place" v="locality" />
		<tag k="ssr:date" v="2019-12-27" />
		<tag k="ssr:gruppe" v="senkninger" />
		<tag k="ssr:hovedgruppe" v="terreng" />
		<tag k="ssr:stedsnr" v="532925" />
		<tag k="ssr:type" v="dal" />
	</node>
	<node lat="59.043636112850045" lon="9.804480552713605" id="-24960">
		<tag k="landuse" v="quarry" />
		<tag k="name" v="Auenbrottet" />
		<tag k="ssr:date" v="2019-12-27" />
		<tag k="ssr:gruppe" v="uttakOgDeponi" />
		<tag k="ssr:hovedgruppe" v="markslag" />
		<tag k="ssr:stedsnr" v="532876" />
		<tag k="ssr:type" v="grustakSteinbrudd" />
	</node>
	<node lat="59.060919442304595" lon="9.72148055968455" id="-24961">
		<tag k="name" v="Trompetholmen" />
		<tag k="place" v="islet" />
		<tag k="ssr:date" v="2019-12-27" />
		<tag k="ssr:gruppe" v="kystkontur" />
		<tag k="ssr:hovedgruppe" v="sjø" />
		<tag k="ssr:stedsnr" v="532878" />
		<tag k="ssr:type" v="holmeISjø" />
	</node>
	<node lat="59.13373611222255" lon="9.642894447743608" id="-24962">
		<tag k="amenity" v="community_centre" />
		<tag k="name" v="Øvre Frednes" />
		<tag k="ssr:date" v="2019-12-27" />
		<tag k="ssr:gruppe" v="kulturinstitusjoner" />
		<tag k="ssr:hovedgruppe" v="kultur" />
		<tag k="ssr:stedsnr" v="532879" />
		<tag k="ssr:type" v="forsamlingshusKulturhus" />
	</node>
	<node lat="59.14632222366697" lon="9.636575002092448" id="-24963">
		<tag k="name" v="Klyve" />
		<tag k="place" v="isolated_dwelling" />
		<tag k="ssr:date" v="2019-12-27" />
		<tag k="ssr:gruppe" v="bolighus" />
		<tag k="ssr:hovedgruppe" v="bebyggelse" />
		<tag k="ssr:stedsnr" v="534443" />
		<tag k="ssr:type" v="eneboligMindreBoligbygg" />
	</node>
	<node lat="59.08623888551697" lon="9.717841669755996" id="-24965">
		<tag k="name" v="Strandjordet" />
		<tag k="place" v="farm" />
		<tag k="ssr:date" v="2019-12-27" />
		<tag k="ssr:gruppe" v="gardsbebyggelse" />
		<tag k="ssr:hovedgruppe" v="bebyggelse" />
		<tag k="ssr:stedsnr" v="541044" />
		<tag k="ssr:type" v="bruk" />
	</node>
	<node lat="59.07265277782931" lon="9.68970277076479" id="-24966">
		<tag k="name" v="Eiklund" />
		<tag k="place" v="farm" />
		<tag k="ssr:date" v="2019-12-27" />
		<tag k="ssr:gruppe" v="gardsbebyggelse" />
		<tag k="ssr:hovedgruppe" v="bebyggelse" />
		<tag k="ssr:stedsnr" v="541117" />
		<tag k="ssr:type" v="bruk" />
	</node>
	<node lat="59.04278889033477" lon="9.7403250044047" id="-24967">
		<tag k="name" v="Kalvsundet" />
		<tag k="natural" v="strait" />
		<tag k="ssr:date" v="2019-12-27" />
		<tag k="ssr:gruppe" v="kystkontur" />
		<tag k="ssr:hovedgruppe" v="sjø" />
		<tag k="ssr:stedsnr" v="541372" />
		<tag k="ssr:type" v="sundISjø" />
	</node>
	<node lat="59.04978888591807" lon="9.777969436780946" id="-24968">
		<tag k="name" v="Linnatangen" />
		<tag k="natural" v="cape" />
		<tag k="ssr:date" v="2019-12-27" />
		<tag k="ssr:gruppe" v="kystkontur" />
		<tag k="ssr:hovedgruppe" v="sjø" />
		<tag k="ssr:stedsnr" v="541506" />
		<tag k="ssr:type" v="nesISjø" />
	</node>
	<node lat="59.13088888927537" lon="9.732577784772683" id="-24969">
		<tag k="fixme" v="consider place=hamlet" />
		<tag k="name" v="Grønsholt" />
		<tag k="place" v="farm" />
		<tag k="ssr:date" v="2019-12-27" />
		<tag k="ssr:gruppe" v="gardsbebyggelse" />
		<tag k="ssr:hovedgruppe" v="bebyggelse" />
		<tag k="ssr:stedsnr" v="547615" />
		<tag k="ssr:type" v="gard" />
	</node>
	<node lat="59.14576389277329" lon="9.766319450050664" id="-24970">
		<tag k="name" v="Holtedalen" />
		<tag k="natural" v="valley" />
		<tag k="place" v="locality" />
		<tag k="ssr:date" v="2019-12-27" />
		<tag k="ssr:gruppe" v="senkninger" />
		<tag k="ssr:hovedgruppe" v="terreng" />
		<tag k="ssr:stedsnr" v="547663" />
		<tag k="ssr:type" v="dal" />
	</node>
	<node lat="59.093206305669774" lon="9.792483533784978" id="-24971">
		<tag k="name" v="Blåfjell" />
		<tag k="natural" v="hill" />
		<tag k="place" v="locality" />
		<tag k="ssr:date" v="2020-08-25" />
		<tag k="ssr:gruppe" v="høyder" />
		<tag k="ssr:hovedgruppe" v="terreng" />
		<tag k="ssr:stedsnr" v="548406" />
		<tag k="ssr:type" v="haug" />
	</node>
	<node lat="59.098561109047935" lon="9.686327773704727" id="-24972">
		<tag k="alt_name" v="Ørstvet" />
		<tag k="fixme" v="consider place=hamlet" />
		<tag k="name" v="Ørstveit" />
		<tag k="place" v="farm" />
		<tag k="ssr:date" v="2019-12-27" />
		<tag k="ssr:gruppe" v="gardsbebyggelse" />
		<tag k="ssr:hovedgruppe" v="bebyggelse" />
		<tag k="ssr:stedsnr" v="693014" />
		<tag k="ssr:type" v="gard" />
	</node>
	<node lat="59.05233611180535" lon="9.70461666992285" id="-24973">
		<tag k="name" v="Øya" />
		<tag k="place" v="island" />
		<tag k="ssr:date" v="2019-12-27" />
		<tag k="ssr:gruppe" v="kystkontur" />
		<tag k="ssr:hovedgruppe" v="sjø" />
		<tag k="ssr:stedsnr" v="693094" />
		<tag k="ssr:type" v="øyISjø" />
	</node>
	<node lat="59.01310833091006" lon="9.829172217260487" id="-24974">
		<tag k="name" v="Vikane" />
		<tag k="place" v="isolated_dwelling" />
		<tag k="ssr:date" v="2019-12-27" />
		<tag k="ssr:gruppe" v="bolighus" />
		<tag k="ssr:hovedgruppe" v="bebyggelse" />
		<tag k="ssr:stedsnr" v="570718" />
		<tag k="ssr:type" v="fritidsbolig" />
	</node>
	<node lat="59.055632096783306" lon="9.73953627694717" id="-24975">
		<tag k="name" v="Flyndra" />
		<tag k="natural" v="strait" />
		<tag k="ssr:date" v="2019-12-27" />
		<tag k="ssr:gruppe" v="kystkontur" />
		<tag k="ssr:hovedgruppe" v="sjø" />
		<tag k="ssr:stedsnr" v="571117" />
		<tag k="ssr:type" v="sundISjø" />
	</node>
	<node lat="59.1053416655709" lon="9.721280559241924" id="-24976">
		<tag k="name" v="Døvika" />
		<tag k="place" v="hamlet" />
		<tag k="ssr:date" v="2019-12-27" />
		<tag k="ssr:gruppe" v="bebyggelsesområder" />
		<tag k="ssr:hovedgruppe" v="bebyggelse" />
		<tag k="ssr:stedsnr" v="570856" />
		<tag k="ssr:type" v="grend" />
	</node>
	<node lat="59.05686944782531" lon="9.698836116032671" id="-24977">
		<tag k="fixme" v="consider place=suburb, village or hamlet" />
		<tag k="name" v="Setre" />
		<tag k="place" v="quarter" />
		<tag k="ssr:date" v="2019-12-27" />
		<tag k="ssr:gruppe" v="bebyggelsesområder" />
		<tag k="ssr:hovedgruppe" v="bebyggelse" />
		<tag k="ssr:stedsnr" v="572108" />
		<tag k="ssr:type" v="tettbebyggelse" />
	</node>
	<node lat="59.07371667045492" lon="9.716725008610812" id="-24978">
		<tag k="name" v="Seivall" />
		<tag k="place" v="isolated_dwelling" />
		<tag k="ssr:date" v="2019-12-27" />
		<tag k="ssr:gruppe" v="bolighus" />
		<tag k="ssr:hovedgruppe" v="bebyggelse" />
		<tag k="ssr:stedsnr" v="572119" />
		<tag k="ssr:type" v="fritidsbolig" />
	</node>
	<node lat="59.13727222231318" lon="9.619191665620258" id="-24979">
		<tag k="fixme" v="consider natural=peak for the most distinct mountains in the district" />
		<tag k="name" v="Skipperåsen" />
		<tag k="natural" v="hill" />
		<tag k="place" v="locality" />
		<tag k="ssr:date" v="2019-12-27" />
		<tag k="ssr:gruppe" v="høyder" />
		<tag k="ssr:hovedgruppe" v="terreng" />
		<tag k="ssr:stedsnr" v="574397" />
		<tag k="ssr:type" v="ås" />
	</node>
	<node lat="59.1442277804522" lon="9.64900832747413" id="-24980">
		<tag k="fixme" v="consider natural=peak for the most distinct mountains in the district" />
		<tag k="name" v="Høgås" />
		<tag k="natural" v="hill" />
		<tag k="place" v="locality" />
		<tag k="ssr:date" v="2019-12-27" />
		<tag k="ssr:gruppe" v="høyder" />
		<tag k="ssr:hovedgruppe" v="terreng" />
		<tag k="ssr:stedsnr" v="575297" />
		<tag k="ssr:type" v="ås" />
	</node>
	<node lat="59.146108332857864" lon="9.637819443576761" id="-24981">
		<tag k="amenity" v="school" />
		<tag k="name" v="Vestsiden skole" />
		<tag k="ssr:date" v="2019-12-27" />
		<tag k="ssr:gruppe" v="institusjoner" />
		<tag k="ssr:hovedgruppe" v="bebyggelse" />
		<tag k="ssr:stedsnr" v="575301" />
		<tag k="ssr:type" v="skole" />
	</node>
	<node lat="59.049711106998345" lon="9.760722219352248" id="-24982">
		<tag k="fixme" v="consider tourism=alpine_hut or tourism=chalet" />
		<tag k="name" v="Sildevika" />
		<tag k="ssr:date" v="2019-12-27" />
		<tag k="ssr:gruppe" v="næring" />
		<tag k="ssr:hovedgruppe" v="bebyggelse" />
		<tag k="ssr:stedsnr" v="586995" />
		<tag k="ssr:type" v="turisthytte" />
		<tag k="tourism" v="wilderness_hut" />
	</node>
	<node lat="59.09208611494674" lon="9.79962499383555" id="-24983">
		<tag k="bridge" v="yes" />
		<tag k="layer" v="1" />
		<tag k="name" v="Langangen vest" />
		<tag k="ssr:date" v="2019-12-27" />
		<tag k="ssr:gruppe" v="samferdselsanlegg" />
		<tag k="ssr:hovedgruppe" v="infrastruktur" />
		<tag k="ssr:stedsnr" v="592702" />
		<tag k="ssr:type" v="bru" />
	</node>
	<node lat="59.13009999644291" lon="9.616955548788631" id="-24984">
		<tag k="bridge" v="yes" />
		<tag k="layer" v="1" />
		<tag k="name" v="Knardalstrand" />
		<tag k="ssr:date" v="2019-12-27" />
		<tag k="ssr:gruppe" v="samferdselsanlegg" />
		<tag k="ssr:hovedgruppe" v="infrastruktur" />
		<tag k="ssr:stedsnr" v="592705" />
		<tag k="ssr:type" v="bru" />
	</node>
	<node lat="59.06015277866283" lon="9.761033330769862" id="-24985">
		<tag k="bridge" v="yes" />
		<tag k="layer" v="1" />
		<tag k="name" v="Solvika" />
		<tag k="ssr:date" v="2019-12-27" />
		<tag k="ssr:gruppe" v="samferdselsanlegg" />
		<tag k="ssr:hovedgruppe" v="infrastruktur" />
		<tag k="ssr:stedsnr" v="592710" />
		<tag k="ssr:type" v="bru" />
	</node>
	<node lat="59.150222219790244" lon="9.656313892776062" id="-24991">
		<tag k="name" v="Osebakken" />
		<tag k="place" v="suburb" />
		<tag k="ssr:date" v="2019-12-27" />
		<tag k="ssr:gruppe" v="bebyggelsesområder" />
		<tag k="ssr:hovedgruppe" v="bebyggelse" />
		<tag k="ssr:stedsnr" v="592921" />
		<tag k="ssr:type" v="bydel" />
	</node>
	<node lat="59.115100002585955" lon="9.713833328239001" id="-24992">
		<tag k="name" v="Herregårdsbekken" />
		<tag k="ssr:date" v="2019-12-27" />
		<tag k="ssr:gruppe" v="rennendeVann" />
		<tag k="ssr:hovedgruppe" v="ferskvann" />
		<tag k="ssr:stedsnr" v="592954" />
		<tag k="ssr:type" v="bekk" />
		<tag k="waterway" v="stream" />
	</node>
	<node lat="59.148041666041635" lon="9.744099996350991" id="-24993">
		<tag k="fixme" v="consider natural=peak for the most distinct mountains in the district" />
		<tag k="name" v="Slottet" />
		<tag k="natural" v="hill" />
		<tag k="place" v="locality" />
		<tag k="ssr:date" v="2019-12-27" />
		<tag k="ssr:gruppe" v="høyder" />
		<tag k="ssr:hovedgruppe" v="terreng" />
		<tag k="ssr:stedsnr" v="593051" />
		<tag k="ssr:type" v="ås" />
	</node>
	<node lat="59.073108330345235" lon="9.722869440420272" id="-24994">
		<tag k="fixme" v="consider natural=peak for the most distinct mountains in the district" />
		<tag k="name" v="Vardåsen" />
		<tag k="natural" v="hill" />
		<tag k="place" v="locality" />
		<tag k="ssr:date" v="2019-12-27" />
		<tag k="ssr:gruppe" v="høyder" />
		<tag k="ssr:hovedgruppe" v="terreng" />
		<tag k="ssr:stedsnr" v="593054" />
		<tag k="ssr:type" v="ås" />
	</node>
	<node lat="59.15712222337606" lon="9.732913880210576" id="-24995">
		<tag k="name" v="Ramsdal" />
		<tag k="natural" v="valley" />
		<tag k="place" v="locality" />
		<tag k="ssr:date" v="2019-12-27" />
		<tag k="ssr:gruppe" v="senkninger" />
		<tag k="ssr:hovedgruppe" v="terreng" />
		<tag k="ssr:stedsnr" v="593058" />
		<tag k="ssr:type" v="dal" />
	</node>
	<node lat="59.116383335268715" lon="9.677183328631541" id="-24996">
		<tag k="fixme" v="consider natural=peak for the most distinct mountains in the district" />
		<tag k="name" v="Rødåsen" />
		<tag k="natural" v="hill" />
		<tag k="place" v="locality" />
		<tag k="ssr:date" v="2019-12-27" />
		<tag k="ssr:gruppe" v="høyder" />
		<tag k="ssr:hovedgruppe" v="terreng" />
		<tag k="ssr:stedsnr" v="593305" />
		<tag k="ssr:type" v="ås" />
	</node>
	<node lat="59.11243888551626" lon="9.705711106044768" id="-24997">
		<tag k="fixme" v="consider place=hamlet" />
		<tag k="name" v="Eidanger prestegård" />
		<tag k="place" v="farm" />
		<tag k="ssr:date" v="2019-12-27" />
		<tag k="ssr:gruppe" v="gardsbebyggelse" />
		<tag k="ssr:hovedgruppe" v="bebyggelse" />
		<tag k="ssr:stedsnr" v="593311" />
		<tag k="ssr:type" v="gard" />
	</node>
	<node lat="59.11742777441085" lon="9.718319450663484" id="-24998">
		<tag k="junction" v="yes" />
		<tag k="name" v="Lillegårdskrysset" />
		<tag k="place" v="locality" />
		<tag k="ssr:date" v="2019-12-27" />
		<tag k="ssr:gruppe" v="veg" />
		<tag k="ssr:hovedgruppe" v="infrastruktur" />
		<tag k="ssr:stedsnr" v="593313" />
		<tag k="ssr:type" v="vegkryss" />
	</node>
	<node lat="59.15036111402694" lon="9.698136114625216" id="-24999">
		<tag k="name" v="Svinholtdammen nedre" />
		<tag k="natural" v="water" />
		<tag k="ssr:date" v="2019-12-27" />
		<tag k="ssr:gruppe" v="stilleståendeVann" />
		<tag k="ssr:hovedgruppe" v="ferskvann" />
		<tag k="ssr:stedsnr" v="593355" />
		<tag k="ssr:type" v="pytt" />
		<tag k="water" v="pond" />
	</node>
	<node lat="59.02284444760319" lon="9.758602772213976" id="-25001">
		<tag k="name" v="Vestreholmen" />
		<tag k="place" v="islet" />
		<tag k="ssr:date" v="2019-12-27" />
		<tag k="ssr:gruppe" v="kystkontur" />
		<tag k="ssr:hovedgruppe" v="sjø" />
		<tag k="ssr:stedsnr" v="593551" />
		<tag k="ssr:type" v="holmeISjø" />
	</node>
	<node lat="59.128636114856484" lon="9.677966670659208" id="-25004">
		<tag k="name" v="Spissløkka" />
		<tag k="place" v="isolated_dwelling" />
		<tag k="ssr:date" v="2019-12-27" />
		<tag k="ssr:gruppe" v="bolighus" />
		<tag k="ssr:hovedgruppe" v="bebyggelse" />
		<tag k="ssr:stedsnr" v="593801" />
		<tag k="ssr:type" v="eneboligMindreBoligbygg" />
	</node>
	<node lat="59.151888885690546" lon="9.799483328664449" id="-25005">
		<tag k="name" v="Rienbekken" />
		<tag k="ssr:date" v="2019-12-27" />
		<tag k="ssr:gruppe" v="rennendeVann" />
		<tag k="ssr:hovedgruppe" v="ferskvann" />
		<tag k="ssr:stedsnr" v="593805" />
		<tag k="ssr:type" v="bekk" />
		<tag k="waterway" v="stream" />
	</node>
	<node lat="59.165833333017545" lon="9.808483325981685" id="-25006">
		<tag k="fixme" v="consider natural=peak for the most distinct mountains in the district" />
		<tag k="name" v="Seterskogen" />
		<tag k="natural" v="hill" />
		<tag k="place" v="locality" />
		<tag k="ssr:date" v="2019-12-27" />
		<tag k="ssr:gruppe" v="høyder" />
		<tag k="ssr:hovedgruppe" v="terreng" />
		<tag k="ssr:stedsnr" v="593807" />
		<tag k="ssr:type" v="ås" />
	</node>
	<node lat="59.04383055492203" lon="9.772763886356493" id="-25007">
		<tag k="fixme" v="consider natural=peak for the most distinct mountains in the district" />
		<tag k="name" v="Bjørsundåsen" />
		<tag k="natural" v="hill" />
		<tag k="place" v="locality" />
		<tag k="ssr:date" v="2019-12-27" />
		<tag k="ssr:gruppe" v="høyder" />
		<tag k="ssr:hovedgruppe" v="terreng" />
		<tag k="ssr:stedsnr" v="593961" />
		<tag k="ssr:type" v="ås" />
	</node>
	<node lat="59.1397444405991" lon="9.737522226603744" id="-25008">
		<tag k="name" v="Kvestad" />
		<tag k="place" v="farm" />
		<tag k="ssr:date" v="2019-12-27" />
		<tag k="ssr:gruppe" v="gardsbebyggelse" />
		<tag k="ssr:hovedgruppe" v="bebyggelse" />
		<tag k="ssr:stedsnr" v="593969" />
		<tag k="ssr:type" v="bruk" />
	</node>
	<node lat="59.09403333474779" lon="9.735649996824431" id="-25009">
		<tag k="name" v="Oksumdalen" />
		<tag k="natural" v="valley" />
		<tag k="place" v="locality" />
		<tag k="ssr:date" v="2019-12-27" />
		<tag k="ssr:gruppe" v="senkninger" />
		<tag k="ssr:hovedgruppe" v="terreng" />
		<tag k="ssr:stedsnr" v="594406" />
		<tag k="ssr:type" v="dal" />
	</node>
	<node lat="59.125863890071095" lon="9.691261119865507" id="-25010">
		<tag k="highway" v="bus_stop" />
		<tag k="name" v="Enger" />
		<tag k="ssr:date" v="2019-12-27" />
		<tag k="ssr:gruppe" v="veg" />
		<tag k="ssr:hovedgruppe" v="infrastruktur" />
		<tag k="ssr:stedsnr" v="598416" />
		<tag k="ssr:type" v="busstopp" />
	</node>
	<node lat="59.138202778959624" lon="9.653094443170149" id="-25011">
		<tag k="highway" v="bus_stop" />
		<tag k="name" v="Aallsgate" />
		<tag k="ssr:date" v="2019-12-27" />
		<tag k="ssr:gruppe" v="veg" />
		<tag k="ssr:hovedgruppe" v="infrastruktur" />
		<tag k="ssr:stedsnr" v="598963" />
		<tag k="ssr:type" v="busstopp" />
	</node>
	<node lat="59.06016666538691" lon="9.688474993758957" id="-25012">
		<tag k="highway" v="bus_stop" />
		<tag k="name" v="Setrevegen" />
		<tag k="ssr:date" v="2019-12-27" />
		<tag k="ssr:gruppe" v="veg" />
		<tag k="ssr:hovedgruppe" v="infrastruktur" />
		<tag k="ssr:stedsnr" v="599209" />
		<tag k="ssr:type" v="busstopp" />
	</node>
	<node lat="59.13880277630342" lon="9.681261110545368" id="-25014">
		<tag k="name" v="Slettene" />
		<tag k="place" v="farm" />
		<tag k="ssr:date" v="2019-12-27" />
		<tag k="ssr:gruppe" v="gardsbebyggelse" />
		<tag k="ssr:hovedgruppe" v="bebyggelse" />
		<tag k="ssr:stedsnr" v="607612" />
		<tag k="ssr:type" v="bruk" />
	</node>
</osm>
