<?xml version="1.0" encoding="UTF-8"?>
<<<<<<< HEAD
<osm version="0.6" generator="osmapis">
	<node lat="60.68738122659771" lon="7.76192529334972" id="-20772">
		<tag k="historic" v="shieling" />
		<tag k="name" v="Stølebotnen" />
		<tag k="place" v="locality" />
		<tag k="ssr:stedsnr" v="68388" />
	</node>
	<node lat="60.59066666477684" lon="8.299191660105144" id="-20782">
		<tag k="historic" v="shieling" />
		<tag k="name" v="Bjørnstølen" />
		<tag k="place" v="locality" />
		<tag k="ssr:stedsnr" v="68684" />
	</node>
	<node lat="60.44343333086212" lon="8.24083056441701" id="-20792">
		<tag k="name" v="Stormyran" />
=======
<osm generator="osmapis" version="0.6">
	<node id="-278952" lat="60.6449972245" lon="8.11127499872">
		<tag k="historic" v="shieling" />
		<tag k="name" v="Sisselstølen" />
		<tag k="place" v="locality" />
		<tag k="ssr:stedsnr" v="907341" />
	</node>
	<node id="-280044" lat="60.6123861146" lon="8.31288055534">
		<tag k="landuse" v="meadow" />
		<tag k="name" v="Løingane" />
		<tag k="ssr:stedsnr" v="587546" />
	</node>
	<node id="-279017" lat="60.3482972259" lon="8.06227499823">
		<tag k="historic" v="shieling" />
		<tag k="name" v="Kroken" />
		<tag k="place" v="locality" />
		<tag k="ssr:stedsnr" v="794797" />
	</node>
	<node id="-280040" lat="60.5984253828" lon="8.37532067139">
		<tag k="historic" v="shieling" />
		<tag k="name" v="Øvrestølen" />
		<tag k="place" v="locality" />
		<tag k="ssr:stedsnr" v="587005" />
	</node>
	<node id="-280037" lat="60.5915166657" lon="8.38013888345">
		<tag k="historic" v="shieling" />
		<tag k="name" v="Markaslette" />
		<tag k="place" v="locality" />
		<tag k="ssr:stedsnr" v="587063" />
	</node>
	<node id="-278497" lat="60.4170944438" lon="8.36148888426">
		<tag k="name" v="Hovdestølmyran" />
		<tag k="natural" v="wetland" />
		<tag k="ssr:stedsnr" v="430121" />
	</node>
	<node id="-279007" lat="60.5785138873" lon="8.32255832691">
		<tag k="historic" v="shieling" />
		<tag k="name" v="Branes" />
		<tag k="place" v="locality" />
		<tag k="ssr:stedsnr" v="787979" />
	</node>
	<node id="-278494" lat="60.700569447" lon="7.8727722209">
		<tag k="historic" v="shieling" />
		<tag k="name" v="Plassen" />
		<tag k="place" v="locality" />
		<tag k="ssr:stedsnr" v="423520" />
	</node>
	<node id="-278483" lat="60.5345666655" lon="8.2210583296">
		<tag k="name" v="Feten" />
		<tag k="place" v="locality" />
		<tag k="ssr:stedsnr" v="403759" />
	</node>
	<node id="-278482" lat="60.5247777785" lon="8.14863889756">
		<tag k="landuse" v="meadow" />
		<tag k="name" v="Mo-Feten" />
		<tag k="ssr:stedsnr" v="403225" />
	</node>
	<node id="-278993" lat="60.634308335" lon="8.28294444877">
		<tag k="name" v="Stormyri" />
>>>>>>> e1d4bc35ff8a6074a6f2e91616a996b547c36f15
		<tag k="natural" v="wetland" />
		<tag k="ssr:stedsnr" v="917586" />
	</node>
<<<<<<< HEAD
	<node lat="60.531399997812706" lon="8.142325001964265" id="-20793">
=======
	<node id="-280000" lat="60.6460777786" lon="8.13404722667">
>>>>>>> e1d4bc35ff8a6074a6f2e91616a996b547c36f15
		<tag k="historic" v="shieling" />
		<tag k="name" v="Skriuslettane" />
		<tag k="place" v="locality" />
		<tag k="ssr:stedsnr" v="100203" />
	</node>
<<<<<<< HEAD
	<node lat="60.518136112483674" lon="8.29728055896279" id="-20857">
		<tag k="name" v="Nystølmyre" />
		<tag k="natural" v="wetland" />
		<tag k="ssr:stedsnr" v="118639" />
	</node>
	<node lat="60.594752780615096" lon="8.403008331682614" id="-20859">
		<tag k="name" v="Skarmyre" />
		<tag k="natural" v="wetland" />
		<tag k="ssr:stedsnr" v="119080" />
	</node>
	<node lat="60.61015555424094" lon="8.342136116690364" id="-20863">
=======
	<node id="-279200" lat="60.6699277778" lon="7.58024722832">
		<tag k="name" v="Storfonn" />
		<tag k="place" v="locality" />
		<tag k="ssr:stedsnr" v="7223" />
	</node>
	<node id="-279485" lat="60.4531777773" lon="8.4404916659">
		<tag k="fixme" v="multiple name tags, choose one and add the other to alt_name" />
		<tag k="historic" v="shieling" />
		<tag k="name" v="Dekkanseter;Kvamsdekkan" />
		<tag k="place" v="locality" />
		<tag k="ssr:stedsnr" v="187146" />
	</node>
	<node id="-278453" lat="60.7933944478" lon="7.97847221478">
>>>>>>> e1d4bc35ff8a6074a6f2e91616a996b547c36f15
		<tag k="historic" v="shieling" />
		<tag k="name" v="Venevollane" />
		<tag k="place" v="locality" />
		<tag k="ssr:stedsnr" v="119928" />
	</node>
<<<<<<< HEAD
	<node lat="60.627724996667474" lon="8.1651361131059" id="-20866">
=======
	<node id="-279476" lat="60.5117861095" lon="7.86851944076">
>>>>>>> e1d4bc35ff8a6074a6f2e91616a996b547c36f15
		<tag k="landuse" v="meadow" />
		<tag k="name" v="Overvoll" />
		<tag k="ssr:stedsnr" v="119881" />
	</node>
<<<<<<< HEAD
	<node lat="60.56554167035733" lon="8.362977768879281" id="-20867">
		<tag k="name" v="Nystøltjødne" />
		<tag k="natural" v="wetland" />
		<tag k="ssr:stedsnr" v="119961" />
	</node>
	<node lat="60.584952777501364" lon="8.362997217835192" id="-20869">
		<tag k="alt_name" v="Fintoppøyne" />
		<tag k="name" v="Finntoppøyne" />
=======
	<node id="-278448" lat="60.636913886" lon="8.35762223096">
		<tag k="historic" v="shieling" />
		<tag k="name" v="Hølet" />
		<tag k="place" v="locality" />
		<tag k="ssr:stedsnr" v="362820" />
	</node>
	<node id="-278957" lat="60.4180055586" lon="8.35295554708">
		<tag k="alt_name" v="Høvda" />
		<tag k="historic" v="shieling" />
		<tag k="name" v="Hovdestølen" />
>>>>>>> e1d4bc35ff8a6074a6f2e91616a996b547c36f15
		<tag k="place" v="locality" />
		<tag k="ssr:stedsnr" v="119977" />
	</node>
<<<<<<< HEAD
	<node lat="60.575166668791624" lon="8.276483337666711" id="-20870">
		<tag k="name" v="Flåmyrane" />
		<tag k="natural" v="wetland" />
		<tag k="ssr:stedsnr" v="120186" />
	</node>
	<node lat="60.443050004465285" lon="8.174583328742726" id="-20881">
		<tag k="historic" v="shieling" />
		<tag k="name" v="Hallestølen" />
		<tag k="place" v="locality" />
		<tag k="ssr:stedsnr" v="126142" />
	</node>
	<node lat="60.59156111179456" lon="8.409802773773428" id="-20933">
=======
	<node id="-279465" lat="60.5733277803" lon="8.16321666887">
		<tag k="name" v="Sandane" />
		<tag k="natural" v="beach" />
		<tag k="ssr:stedsnr" v="176183" />
		<tag k="surface" v="sand" />
	</node>
	<node id="-278440" lat="60.5575277736" lon="8.32746666793">
		<tag k="historic" v="shieling" />
		<tag k="name" v="Bergastølen" />
		<tag k="place" v="locality" />
		<tag k="ssr:stedsnr" v="492727" />
	</node>
	<node id="-279457" lat="60.6273777772" lon="8.14834722146">
		<tag k="landuse" v="meadow" />
		<tag k="name" v="Øspedøkki" />
		<tag k="ssr:stedsnr" v="161937" />
	</node>
	<node id="-279454" lat="60.6456083299" lon="8.08761111278">
>>>>>>> e1d4bc35ff8a6074a6f2e91616a996b547c36f15
		<tag k="historic" v="shieling" />
		<tag k="name" v="Søre Heimstølen" />
		<tag k="place" v="locality" />
<<<<<<< HEAD
		<tag k="ssr:stedsnr" v="180066" />
	</node>
	<node lat="60.64385003601683" lon="8.087690915612987" id="-20957">
		<tag k="historic" v="shieling" />
		<tag k="name" v="Mostølen" />
		<tag k="place" v="locality" />
		<tag k="ssr:stedsnr" v="189393" />
	</node>
	<node lat="60.45913333005522" lon="8.205938884574158" id="-20981">
		<tag k="historic" v="shieling" />
		<tag k="name" v="Nordrestølen" />
=======
		<tag k="ssr:stedsnr" v="161145" />
	</node>
	<node id="-278934" lat="60.4412444458" lon="8.27133888916">
		<tag k="name" v="Fiskmyran" />
		<tag k="natural" v="wetland" />
		<tag k="ssr:stedsnr" v="733162" />
	</node>
	<node id="-278933" lat="60.4363527742" lon="8.31080000538">
		<tag k="name" v="Stongarmyran" />
		<tag k="natural" v="wetland" />
		<tag k="ssr:stedsnr" v="733145" />
	</node>
	<node id="-279377" lat="60.5947527806" lon="8.40300833168">
		<tag k="name" v="Skarmyre" />
		<tag k="natural" v="wetland" />
		<tag k="ssr:stedsnr" v="119080" />
	</node>
	<node id="-278928" lat="60.6219388863" lon="8.15452222025">
		<tag k="name" v="Håkonset" />
>>>>>>> e1d4bc35ff8a6074a6f2e91616a996b547c36f15
		<tag k="place" v="locality" />
		<tag k="ssr:stedsnr" v="223831" />
	</node>
<<<<<<< HEAD
	<node lat="60.607291670411065" lon="8.298358335983771" id="-20987">
=======
	<node id="-278765" lat="60.6393694465" lon="8.12139165942">
		<tag k="historic" v="shieling" />
		<tag k="name" v="Vollebakkane" />
		<tag k="place" v="locality" />
		<tag k="ssr:stedsnr" v="725347" />
	</node>
	<node id="-279946" lat="60.3806944444" lon="8.36769721855">
>>>>>>> e1d4bc35ff8a6074a6f2e91616a996b547c36f15
		<tag k="historic" v="shieling" />
		<tag k="name" v="Hellingslåtta" />
		<tag k="place" v="locality" />
		<tag k="ssr:stedsnr" v="224416" />
	</node>
<<<<<<< HEAD
	<node lat="60.63374166769156" lon="8.34757777028509" id="-21005">
		<tag k="name" v="Langemyrane" />
=======
	<node id="-279944" lat="60.4126138905" lon="8.34275000359">
		<tag k="name" v="Grothovdmyran" />
>>>>>>> e1d4bc35ff8a6074a6f2e91616a996b547c36f15
		<tag k="natural" v="wetland" />
		<tag k="ssr:stedsnr" v="241815" />
	</node>
<<<<<<< HEAD
	<node lat="60.40361944398998" lon="8.545961118972333" id="-21014">
=======
	<node id="-278764" lat="60.5213861092" lon="8.12429999346">
		<tag k="name" v="Hermosletto" />
		<tag k="place" v="locality" />
		<tag k="ssr:stedsnr" v="768097" />
	</node>
	<node id="-278917" lat="60.6002972245" lon="8.31213333422">
>>>>>>> e1d4bc35ff8a6074a6f2e91616a996b547c36f15
		<tag k="historic" v="shieling" />
		<tag k="name" v="Vestreimsætri" />
		<tag k="place" v="locality" />
		<tag k="ssr:stedsnr" v="248361" />
	</node>
<<<<<<< HEAD
	<node lat="60.60287222547035" lon="8.389363882042222" id="-21039">
		<tag k="name" v="Tubbemyre" />
		<tag k="natural" v="wetland" />
		<tag k="ssr:stedsnr" v="298887" />
	</node>
	<node lat="60.524759024471734" lon="8.146866807747488" id="-21046">
=======
	<node id="-278403" lat="60.5038277768" lon="7.91523888166">
>>>>>>> e1d4bc35ff8a6074a6f2e91616a996b547c36f15
		<tag k="historic" v="shieling" />
		<tag k="name" v="Fossgard-Feten" />
		<tag k="place" v="locality" />
<<<<<<< HEAD
		<tag k="ssr:stedsnr" v="464249" />
	</node>
	<node lat="60.63506944736836" lon="8.209550006451439" id="-21074">
=======
		<tag k="ssr:stedsnr" v="492455" />
	</node>
	<node id="-279426" lat="60.5586027753" lon="8.00083611731">
		<tag k="name" v="Eimefonni" />
		<tag k="natural" v="glacier" />
		<tag k="ssr:stedsnr" v="128360" />
	</node>
	<node id="-279701" lat="60.5249249962" lon="8.26115278437">
		<tag k="historic" v="shieling" />
		<tag k="name" v="Øvre Jonstølen" />
		<tag k="place" v="locality" />
		<tag k="ssr:stedsnr" v="345594" />
	</node>
	<node id="-278904" lat="60.5940694403" lon="8.36922777626">
>>>>>>> e1d4bc35ff8a6074a6f2e91616a996b547c36f15
		<tag k="historic" v="shieling" />
		<tag k="name" v="Vindåsen" />
		<tag k="place" v="locality" />
		<tag k="ssr:stedsnr" v="310614" />
	</node>
<<<<<<< HEAD
	<node lat="60.524908201341496" lon="7.757845860662242" id="-21084">
=======
	<node id="-278903" lat="60.5947416682" lon="8.37120276933">
>>>>>>> e1d4bc35ff8a6074a6f2e91616a996b547c36f15
		<tag k="historic" v="shieling" />
		<tag k="name" v="Bergsmulstølane" />
		<tag k="place" v="locality" />
		<tag k="ssr:stedsnr" v="310401" />
	</node>
<<<<<<< HEAD
	<node lat="60.666608333634784" lon="7.8206888874422935" id="-21104">
		<tag k="name" v="Øynane" />
		<tag k="place" v="locality" />
		<tag k="ssr:stedsnr" v="466737" />
	</node>
	<node lat="60.52627222206413" lon="8.13967222528602" id="-21109">
=======
	<node id="-279923" lat="60.6042472229" lon="8.39952778567">
		<tag k="name" v="Skutustein" />
		<tag k="natural" v="stone" />
		<tag k="ssr:stedsnr" v="544086" />
	</node>
	<node id="-279919" lat="60.5802722235" lon="8.39688888066">
>>>>>>> e1d4bc35ff8a6074a6f2e91616a996b547c36f15
		<tag k="landuse" v="meadow" />
		<tag k="name" v="Skarset" />
		<tag k="ssr:stedsnr" v="342208" />
	</node>
<<<<<<< HEAD
	<node lat="60.59118333229445" lon="8.375819436341194" id="-21113">
=======
	<node id="-279915" lat="60.534863886" lon="8.26900000766">
>>>>>>> e1d4bc35ff8a6074a6f2e91616a996b547c36f15
		<tag k="historic" v="shieling" />
		<tag k="name" v="Skarvestølen" />
		<tag k="place" v="locality" />
		<tag k="ssr:stedsnr" v="344053" />
	</node>
<<<<<<< HEAD
	<node lat="60.57913333512497" lon="8.196044438267302" id="-21137">
		<tag k="name" v="Røogjerda" />
		<tag k="place" v="locality" />
		<tag k="ssr:stedsnr" v="479181" />
	</node>
	<node lat="60.52492537540009" lon="8.148879609672802" id="-21189">
		<tag k="historic" v="shieling" />
		<tag k="name" v="Mo-Feten" />
		<tag k="place" v="locality" />
		<tag k="ssr:stedsnr" v="403225" />
	</node>
	<node lat="60.63397778055346" lon="8.335213895682953" id="-21202">
		<tag k="name" v="Støngemyrane" />
		<tag k="natural" v="wetland" />
		<tag k="ssr:stedsnr" v="423849" />
	</node>
	<node lat="60.503827776826135" lon="7.915238881663175" id="-21266">
=======
	<node id="-279911" lat="60.6239027801" lon="8.14566111165">
		<tag k="landuse" v="meadow" />
		<tag k="name" v="Gautedøkki" />
		<tag k="ssr:stedsnr" v="541844" />
	</node>
	<node id="-279398" lat="60.4430500045" lon="8.17458332874">
>>>>>>> e1d4bc35ff8a6074a6f2e91616a996b547c36f15
		<tag k="historic" v="shieling" />
		<tag k="name" v="Vikastølen" />
		<tag k="place" v="locality" />
		<tag k="ssr:stedsnr" v="492455" />
	</node>
<<<<<<< HEAD
	<node lat="60.79339444777524" lon="7.978472214777581" id="-21282">
=======
	<node id="-278884" lat="60.636727776" lon="8.09952500284">
>>>>>>> e1d4bc35ff8a6074a6f2e91616a996b547c36f15
		<tag k="historic" v="shieling" />
		<tag k="name" v="Nutestølen" />
		<tag k="place" v="locality" />
<<<<<<< HEAD
		<tag k="ssr:stedsnr" v="493728" />
	</node>
	<node lat="60.69465278094772" lon="7.781266657584775" id="-21312">
		<tag k="historic" v="shieling" />
		<tag k="name" v="Mestølen" />
		<tag k="place" v="locality" />
		<tag k="ssr:stedsnr" v="674334" />
	</node>
	<node lat="60.62111388537062" lon="8.122638893614361" id="-21339">
		<tag k="name" v="Skraddarmoen" />
		<tag k="place" v="locality" />
		<tag k="ssr:stedsnr" v="466660" />
	</node>
	<node lat="60.63802221858612" lon="8.35277499227871" id="-21356">
		<tag k="historic" v="shieling" />
		<tag k="name" v="Skølidn" />
		<tag k="place" v="locality" />
		<tag k="ssr:stedsnr" v="480016" />
	</node>
	<node lat="60.567791663357724" lon="8.295894438376761" id="-21366">
=======
		<tag k="ssr:stedsnr" v="674610" />
	</node>
	<node id="-279905" lat="60.551016666" lon="8.17181665888">
		<tag k="name" v="Havsdalstein" />
		<tag k="natural" v="stone" />
		<tag k="ssr:stedsnr" v="540149" />
	</node>
	<node id="-279391" lat="60.5751666688" lon="8.27648333767">
		<tag k="name" v="Flåmyrane" />
		<tag k="natural" v="wetland" />
		<tag k="ssr:stedsnr" v="120186" />
	</node>
	<node id="-279389" lat="60.5849527775" lon="8.36299721784">
		<tag k="alt_name" v="Fintoppøyne" />
		<tag k="name" v="Finntoppøyne" />
		<tag k="place" v="locality" />
		<tag k="ssr:stedsnr" v="119977" />
	</node>
	<node id="-279387" lat="60.5655416704" lon="8.36297776888">
		<tag k="name" v="Nystøltjødne" />
		<tag k="natural" v="wetland" />
		<tag k="ssr:stedsnr" v="119961" />
	</node>
	<node id="-279386" lat="60.6101555542" lon="8.34213611669">
		<tag k="historic" v="shieling" />
		<tag k="name" v="Venevollane" />
		<tag k="place" v="locality" />
		<tag k="ssr:stedsnr" v="119928" />
	</node>
	<node id="-279380" lat="60.6277249967" lon="8.16513611311">
>>>>>>> e1d4bc35ff8a6074a6f2e91616a996b547c36f15
		<tag k="landuse" v="meadow" />
		<tag k="name" v="Høljeslåtta" />
		<tag k="ssr:stedsnr" v="484002" />
	</node>
<<<<<<< HEAD
	<node lat="60.58550555928022" lon="8.360050002218323" id="-21368">
		<tag k="name" v="Kjellaren" />
		<tag k="place" v="locality" />
		<tag k="ssr:stedsnr" v="483979" />
	</node>
	<node lat="60.43789444301118" lon="8.405088880203873" id="-21371">
=======
	<node id="-278355" lat="60.437894443" lon="8.4050888802">
>>>>>>> e1d4bc35ff8a6074a6f2e91616a996b547c36f15
		<tag k="alt_name" v="Fekjastølen" />
		<tag k="historic" v="shieling" />
		<tag k="name" v="Fetjastølen" />
		<tag k="place" v="locality" />
		<tag k="ssr:stedsnr" v="490132" />
	</node>
<<<<<<< HEAD
	<node lat="60.55752777357183" lon="8.327466667934416" id="-21419">
=======
	<node id="-279889" lat="60.8100666629" lon="7.89704166392">
>>>>>>> e1d4bc35ff8a6074a6f2e91616a996b547c36f15
		<tag k="historic" v="shieling" />
		<tag k="name" v="Bergastølen" />
		<tag k="place" v="locality" />
		<tag k="ssr:stedsnr" v="492727" />
	</node>
<<<<<<< HEAD
	<node lat="60.56893611218585" lon="8.168566667593725" id="-21436">
		<tag k="name" v="Budalsmyrane" />
		<tag k="natural" v="wetland" />
		<tag k="ssr:stedsnr" v="540173" />
	</node>
	<node lat="60.53486388604296" lon="8.269000007659063" id="-21444">
		<tag k="historic" v="shieling" />
		<tag k="name" v="Randistølen" />
		<tag k="place" v="locality" />
		<tag k="ssr:stedsnr" v="542669" />
	</node>
	<node lat="60.58027222350649" lon="8.39688888066339" id="-21445">
		<tag k="landuse" v="meadow" />
		<tag k="name" v="Åkreslåtta" />
		<tag k="ssr:stedsnr" v="543272" />
	</node>
	<node lat="60.65037500285325" lon="8.023663887604547" id="-21447">
		<tag k="name" v="Løkjeslåtta" />
=======
	<node id="-278863" lat="60.5339222202" lon="8.11224167572">
		<tag k="name" v="Villevieren" />
>>>>>>> e1d4bc35ff8a6074a6f2e91616a996b547c36f15
		<tag k="place" v="locality" />
		<tag k="ssr:stedsnr" v="543620" />
	</node>
<<<<<<< HEAD
	<node lat="60.59842538278866" lon="8.375320671394583" id="-21499">
=======
	<node id="-278348" lat="60.6282694437" lon="8.30430000201">
>>>>>>> e1d4bc35ff8a6074a6f2e91616a996b547c36f15
		<tag k="historic" v="shieling" />
		<tag k="name" v="Øvrestølen" />
		<tag k="place" v="locality" />
		<tag k="ssr:stedsnr" v="587005" />
	</node>
<<<<<<< HEAD
	<node lat="60.612386114566725" lon="8.312880555341307" id="-21504">
		<tag k="landuse" v="meadow" />
		<tag k="name" v="Løingane" />
		<tag k="ssr:stedsnr" v="587546" />
	</node>
	<node lat="60.40665832960978" lon="8.387325004322232" id="-21523">
		<tag k="name" v="Slåttemyre" />
		<tag k="natural" v="wetland" />
		<tag k="ssr:stedsnr" v="611177" />
	</node>
	<node lat="60.53392222020676" lon="8.11224167572355" id="-21585">
		<tag k="name" v="Villevieren" />
		<tag k="place" v="locality" />
		<tag k="ssr:stedsnr" v="665097" />
	</node>
	<node lat="60.594741668183666" lon="8.371202769331537" id="-21610">
=======
	<node id="-279366" lat="60.5791999974" lon="8.12371944721">
		<tag k="name" v="Hølet" />
		<tag k="place" v="locality" />
		<tag k="ssr:stedsnr" v="116064" />
	</node>
	<node id="-278340" lat="60.5855055593" lon="8.36005000222">
		<tag k="name" v="Kjellaren" />
		<tag k="place" v="locality" />
		<tag k="ssr:stedsnr" v="483979" />
	</node>
	<node id="-278849" lat="60.6184944427" lon="8.15799165836">
		<tag k="landuse" v="meadow" />
		<tag k="name" v="Larsgardslåttun" />
		<tag k="ssr:stedsnr" v="735646" />
	</node>
	<node id="-279350" lat="60.599708334" lon="8.36714443828">
>>>>>>> e1d4bc35ff8a6074a6f2e91616a996b547c36f15
		<tag k="historic" v="shieling" />
		<tag k="name" v="Fløto" />
		<tag k="place" v="locality" />
		<tag k="ssr:stedsnr" v="891045" />
	</node>
<<<<<<< HEAD
	<node lat="60.636727775973505" lon="8.099525002841212" id="-21622">
		<tag k="historic" v="shieling" />
		<tag k="name" v="Bryslåtto" />
=======
	<node id="-278325" lat="60.5791333351" lon="8.19604443827">
		<tag k="name" v="Røogjerda" />
>>>>>>> e1d4bc35ff8a6074a6f2e91616a996b547c36f15
		<tag k="place" v="locality" />
		<tag k="ssr:stedsnr" v="674610" />
	</node>
<<<<<<< HEAD
	<node lat="60.60029722449074" lon="8.312133334216272" id="-21645">
=======
	<node id="-279348" lat="60.605575004" lon="8.30676111721">
>>>>>>> e1d4bc35ff8a6074a6f2e91616a996b547c36f15
		<tag k="historic" v="shieling" />
		<tag k="name" v="Levordslåtta" />
		<tag k="place" v="locality" />
		<tag k="ssr:stedsnr" v="892698" />
	</node>
<<<<<<< HEAD
	<node lat="60.634330555071195" lon="8.291919453480228" id="-21652">
		<tag k="name" v="Storemyr" />
		<tag k="natural" v="wetland" />
		<tag k="ssr:stedsnr" v="708518" />
	</node>
	<node lat="60.586747218504456" lon="8.306836119858287" id="-21653">
=======
	<node id="-280371" lat="60.5994472193" lon="8.28711388408">
		<tag k="name" v="Kringlemyr" />
		<tag k="natural" v="wetland" />
		<tag k="ssr:stedsnr" v="950687" />
	</node>
	<node id="-280367" lat="60.8025361124" lon="7.94923889241">
>>>>>>> e1d4bc35ff8a6074a6f2e91616a996b547c36f15
		<tag k="historic" v="shieling" />
		<tag k="name" v="Turidstølen" />
		<tag k="place" v="locality" />
		<tag k="ssr:stedsnr" v="708697" />
	</node>
<<<<<<< HEAD
	<node lat="60.436352774175454" lon="8.310800005377105" id="-21677">
		<tag k="name" v="Stongarmyran" />
		<tag k="natural" v="wetland" />
		<tag k="ssr:stedsnr" v="733145" />
	</node>
	<node lat="60.414313886907586" lon="8.51056110879169" id="-21685">
		<tag k="historic" v="shieling" />
		<tag k="name" v="Mosætri" />
=======
	<node id="-279152" lat="60.6208805524" lon="8.16470832581">
		<tag k="landuse" v="meadow" />
		<tag k="name" v="Hamreplassen" />
		<tag k="ssr:stedsnr" v="969917" />
	</node>
	<node id="-279340" lat="60.7114638914" lon="7.83627222745">
		<tag k="name" v="Gjerda" />
>>>>>>> e1d4bc35ff8a6074a6f2e91616a996b547c36f15
		<tag k="place" v="locality" />
		<tag k="ssr:stedsnr" v="734098" />
	</node>
<<<<<<< HEAD
	<node lat="60.61529721825897" lon="8.135000002874689" id="-21724">
		<tag k="historic" v="shieling" />
		<tag k="name" v="Gjermundsplassen" />
		<tag k="place" v="locality" />
		<tag k="ssr:stedsnr" v="905774" />
	</node>
	<node lat="60.53742500240886" lon="8.259411110650023" id="-21727">
		<tag k="historic" v="shieling" />
		<tag k="name" v="Levorstølen" />
=======
	<node id="-278823" lat="60.6095055547" lon="7.71590832564">
		<tag k="loc_name" v="Hellevassfonne" />
		<tag k="name" v="Hellevassfonni" />
		<tag k="natural" v="glacier" />
		<tag k="ssr:stedsnr" v="735285" />
	</node>
	<node id="-278304" lat="60.6666083336" lon="7.82068888744">
		<tag k="name" v="Øynane" />
>>>>>>> e1d4bc35ff8a6074a6f2e91616a996b547c36f15
		<tag k="place" v="locality" />
		<tag k="ssr:stedsnr" v="767948" />
	</node>
<<<<<<< HEAD
	<node lat="60.521386109194715" lon="8.124299993462275" id="-21728">
		<tag k="name" v="Hermosletto" />
		<tag k="place" v="locality" />
		<tag k="ssr:stedsnr" v="768097" />
	</node>
	<node lat="60.64499722453293" lon="8.11127499871646" id="-21731">
=======
	<node id="-278297" lat="60.6028722255" lon="8.38936388204">
		<tag k="name" v="Tubbemyre" />
		<tag k="natural" v="wetland" />
		<tag k="ssr:stedsnr" v="298887" />
	</node>
	<node id="-279318" lat="60.5906666648" lon="8.29919166011">
>>>>>>> e1d4bc35ff8a6074a6f2e91616a996b547c36f15
		<tag k="historic" v="shieling" />
		<tag k="name" v="Sisselstølen" />
		<tag k="place" v="locality" />
		<tag k="ssr:stedsnr" v="907341" />
	</node>
<<<<<<< HEAD
	<node lat="60.579380552457806" lon="8.305916669674907" id="-21734">
=======
	<node id="-278293" lat="60.5252694479" lon="8.14685833711">
>>>>>>> e1d4bc35ff8a6074a6f2e91616a996b547c36f15
		<tag k="landuse" v="meadow" />
		<tag k="name" v="Lislelie" />
		<tag k="ssr:stedsnr" v="770155" />
	</node>
<<<<<<< HEAD
	<node lat="60.60800833368638" lon="8.342269443440669" id="-21741">
		<tag k="name" v="Slettokamben" />
		<tag k="place" v="locality" />
		<tag k="ssr:stedsnr" v="908941" />
	</node>
	<node lat="60.593386107611536" lon="8.392336119879154" id="-21747">
		<tag k="historic" v="shieling" />
		<tag k="name" v="Liastølen" />
		<tag k="place" v="locality" />
		<tag k="ssr:stedsnr" v="783898" />
	</node>
	<node lat="60.59083055672547" lon="8.419491659794568" id="-21750">
		<tag k="historic" v="shieling" />
		<tag k="name" v="Lykkjun" />
		<tag k="place" v="locality" />
		<tag k="ssr:stedsnr" v="787054" />
	</node>
	<node lat="60.61140277631123" lon="8.356997218941622" id="-21755">
		<tag k="name" v="Undarstein" />
		<tag k="natural" v="stone" />
		<tag k="ssr:stedsnr" v="787917" />
	</node>
	<node lat="60.418005558551656" lon="8.352955547082214" id="-21796">
		<tag k="alt_name" v="Høvda" />
=======
	<node id="-279828" lat="60.6339777806" lon="8.33521389568">
		<tag k="name" v="Støngemyrane" />
		<tag k="natural" v="wetland" />
		<tag k="ssr:stedsnr" v="423849" />
	</node>
	<node id="-278288" lat="60.6337416677" lon="8.34757777029">
		<tag k="name" v="Langemyrane" />
		<tag k="natural" v="wetland" />
		<tag k="ssr:stedsnr" v="241815" />
	</node>
	<node id="-278795" lat="60.6491500037" lon="8.04542778563">
		<tag k="landuse" v="meadow" />
		<tag k="name" v="Lauvstakkhaugen" />
		<tag k="ssr:stedsnr" v="646070" />
	</node>
	<node id="-280325" lat="60.5828250027" lon="8.37623611065">
>>>>>>> e1d4bc35ff8a6074a6f2e91616a996b547c36f15
		<tag k="historic" v="shieling" />
		<tag k="name" v="Hovdestølen" />
		<tag k="place" v="locality" />
		<tag k="ssr:stedsnr" v="915137" />
	</node>
<<<<<<< HEAD
	<node lat="60.63276388685521" lon="7.940325006264048" id="-21819">
		<tag k="name" v="Krokløkene" />
=======
	<node id="-278273" lat="60.3937194464" lon="8.34581666427">
		<tag k="name" v="Heimhøvdmyran" />
>>>>>>> e1d4bc35ff8a6074a6f2e91616a996b547c36f15
		<tag k="natural" v="wetland" />
		<tag k="ssr:stedsnr" v="917376" />
	</node>
<<<<<<< HEAD
	<node lat="60.63611111127447" lon="8.026855550282747" id="-21820">
		<tag k="alt_name" v="Nonstølen" />
=======
	<node id="-279803" lat="60.6157500024" lon="8.16526110289">
>>>>>>> e1d4bc35ff8a6074a6f2e91616a996b547c36f15
		<tag k="historic" v="shieling" />
		<tag k="name" v="Nonsstølen" />
		<tag k="place" v="locality" />
		<tag k="ssr:stedsnr" v="917385" />
	</node>
<<<<<<< HEAD
	<node lat="60.63430833500904" lon="8.282944448771028" id="-21827">
		<tag k="name" v="Stormyri" />
=======
	<node id="-280312" lat="60.5758305573" lon="8.30002499616">
		<tag k="landuse" v="meadow" />
		<tag k="name" v="Rudningen" />
		<tag k="ssr:stedsnr" v="848059" />
	</node>
	<node id="-280302" lat="60.6176000009" lon="8.3387499948">
		<tag k="name" v="Gørrmyre" />
>>>>>>> e1d4bc35ff8a6074a6f2e91616a996b547c36f15
		<tag k="natural" v="wetland" />
		<tag k="ssr:stedsnr" v="917586" />
	</node>
<<<<<<< HEAD
	<node lat="60.59406944032004" lon="8.36922777626077" id="-21891">
		<tag k="historic" v="shieling" />
		<tag k="name" v="Løgneliflate" />
		<tag k="place" v="locality" />
		<tag k="ssr:stedsnr" v="891051" />
	</node>
	<node lat="60.59944721933061" lon="8.287113884079464" id="-21939">
		<tag k="name" v="Kringlemyr" />
		<tag k="natural" v="wetland" />
		<tag k="ssr:stedsnr" v="950687" />
	</node>
	<node lat="60.66992777776799" lon="7.5802472283248274" id="-21995">
		<tag k="name" v="Storfonn" />
		<tag k="place" v="locality" />
		<tag k="ssr:stedsnr" v="7223" />
	</node>
	<node lat="60.526171503804974" lon="8.151333840719168" id="-22014">
		<tag k="historic" v="shieling" />
		<tag k="name" v="Gullstein-Feten" />
		<tag k="place" v="locality" />
		<tag k="ssr:stedsnr" v="39176" />
	</node>
	<node lat="60.40406388801981" lon="8.393616660930547" id="-22033">
=======
	<node id="-278253" lat="60.5915611118" lon="8.40980277377">
		<tag k="historic" v="shieling" />
		<tag k="name" v="Søre Heimstølen" />
		<tag k="place" v="locality" />
		<tag k="ssr:stedsnr" v="180066" />
	</node>
	<node id="-279788" lat="60.5523666686" lon="8.33111111907">
		<tag k="historic" v="shieling" />
		<tag k="name" v="Birgitstølen" />
		<tag k="place" v="locality" />
		<tag k="ssr:stedsnr" v="371734" />
	</node>
	<node id="-279275" lat="60.6113187286" lon="8.37316131826">
		<tag k="name" v="Dammyre" />
		<tag k="natural" v="wetland" />
		<tag k="ssr:stedsnr" v="59512" />
	</node>
	<node id="-279272" lat="60.404063888" lon="8.39361666093">
>>>>>>> e1d4bc35ff8a6074a6f2e91616a996b547c36f15
		<tag k="name" v="Hestemyr" />
		<tag k="natural" v="wetland" />
		<tag k="ssr:stedsnr" v="59389" />
	</node>
<<<<<<< HEAD
	<node lat="60.61131872862936" lon="8.373161318263739" id="-22034">
		<tag k="name" v="Dammyre" />
=======
	<node id="-278241" lat="60.5930111112" lon="8.37141945291">
		<tag k="name" v="Gommoberget" />
		<tag k="place" v="locality" />
		<tag k="ssr:stedsnr" v="284037" />
	</node>
	<node id="-280284" lat="60.6180944471" lon="8.18466110857">
		<tag k="name" v="Grønholamyrane" />
>>>>>>> e1d4bc35ff8a6074a6f2e91616a996b547c36f15
		<tag k="natural" v="wetland" />
		<tag k="ssr:stedsnr" v="59512" />
	</node>
<<<<<<< HEAD
	<node lat="60.71146389138355" lon="7.83627222744628" id="-22095">
		<tag k="name" v="Gjerda" />
		<tag k="place" v="locality" />
		<tag k="ssr:stedsnr" v="100450" />
	</node>
	<node lat="60.6055750040095" lon="8.306761117205564" id="-22106">
=======
	<node id="-280277" lat="60.5942222189" lon="8.37331389694">
>>>>>>> e1d4bc35ff8a6074a6f2e91616a996b547c36f15
		<tag k="historic" v="shieling" />
		<tag k="name" v="Løingslåtta" />
		<tag k="place" v="locality" />
<<<<<<< HEAD
		<tag k="ssr:stedsnr" v="101714" />
	</node>
	<node lat="60.59970833397049" lon="8.367144438275895" id="-22107">
		<tag k="historic" v="shieling" />
		<tag k="name" v="Nystølen" />
=======
		<tag k="ssr:stedsnr" v="830040" />
	</node>
	<node id="-280276" lat="60.6067222232" lon="8.36393888762">
		<tag k="name" v="Kalvemyr" />
		<tag k="natural" v="wetland" />
		<tag k="ssr:stedsnr" v="830033" />
	</node>
	<node id="-278736" lat="60.6143749966" lon="8.21566389334">
		<tag k="name" v="Grøtsslåtta" />
>>>>>>> e1d4bc35ff8a6074a6f2e91616a996b547c36f15
		<tag k="place" v="locality" />
		<tag k="ssr:stedsnr" v="102044" />
	</node>
<<<<<<< HEAD
	<node lat="60.57919999735032" lon="8.123719447211224" id="-22116">
		<tag k="name" v="Hølet" />
		<tag k="place" v="locality" />
		<tag k="ssr:stedsnr" v="116064" />
	</node>
	<node lat="60.55860277531106" lon="8.000836117308207" id="-22146">
		<tag k="name" v="Eimefonni" />
		<tag k="natural" v="glacier" />
		<tag k="ssr:stedsnr" v="128360" />
	</node>
	<node lat="60.52473611296388" lon="8.122969437666638" id="-22173">
=======
	<node id="-278735" lat="60.5845083333" lon="8.36592777164">
		<tag k="name" v="Sagenøyne" />
		<tag k="place" v="locality" />
		<tag k="ssr:stedsnr" v="604969" />
	</node>
	<node id="-279239" lat="60.5262749974" lon="8.15129443853">
		<tag k="landuse" v="meadow" />
		<tag k="name" v="Gullstein-Feten" />
		<tag k="ssr:stedsnr" v="39176" />
	</node>
	<node id="-278214" lat="60.524736113" lon="8.12296943767">
>>>>>>> e1d4bc35ff8a6074a6f2e91616a996b547c36f15
		<tag k="historic" v="shieling" />
		<tag k="name" v="Sørestølen" />
		<tag k="place" v="locality" />
		<tag k="ssr:stedsnr" v="161113" />
	</node>
<<<<<<< HEAD
	<node lat="60.64560832985117" lon="8.087611112779964" id="-22175">
=======
	<node id="-280260" lat="60.7992916694" lon="7.93080555827">
>>>>>>> e1d4bc35ff8a6074a6f2e91616a996b547c36f15
		<tag k="historic" v="shieling" />
		<tag k="name" v="Hesjabakkane" />
		<tag k="place" v="locality" />
		<tag k="ssr:stedsnr" v="161145" />
	</node>
	<node lat="60.62737777721521" lon="8.148347221460368" id="-22178">
		<tag k="landuse" v="meadow" />
		<tag k="name" v="Øspedøkki" />
		<tag k="ssr:stedsnr" v="161937" />
	</node>
	<node lat="60.573327780338225" lon="8.163216668867978" id="-22184">
		<tag k="name" v="Sandane" />
		<tag k="natural" v="beach" />
		<tag k="ssr:stedsnr" v="176183" />
		<tag k="surface" v="sand" />
	</node>
<<<<<<< HEAD
	<node lat="60.51178610954786" lon="7.868519440756785" id="-22192">
		<tag k="landuse" v="meadow" />
		<tag k="name" v="Feten" />
		<tag k="ssr:stedsnr" v="180328" />
	</node>
	<node lat="60.45317777725729" lon="8.440491665898824" id="-22199">
		<tag k="fixme" v="multiple name tags, choose one and add the other to alt_name" />
=======
	<node id="-278719" lat="60.6449194452" lon="8.09298888158">
>>>>>>> e1d4bc35ff8a6074a6f2e91616a996b547c36f15
		<tag k="historic" v="shieling" />
		<tag k="name" v="Kvamsdekkan;Dekkanseter" />
		<tag k="place" v="locality" />
		<tag k="ssr:stedsnr" v="187146" />
	</node>
<<<<<<< HEAD
	<node lat="60.678741667457565" lon="8.06176111017538" id="-22278">
=======
	<node id="-278711" lat="60.5867472185" lon="8.30683611986">
>>>>>>> e1d4bc35ff8a6074a6f2e91616a996b547c36f15
		<tag k="historic" v="shieling" />
		<tag k="name" v="Feten" />
		<tag k="place" v="locality" />
		<tag k="ssr:stedsnr" v="224372" />
	</node>
<<<<<<< HEAD
	<node lat="60.59301111116328" lon="8.371419452908427" id="-22293">
		<tag k="name" v="Gommoberget" />
		<tag k="place" v="locality" />
		<tag k="ssr:stedsnr" v="284037" />
	</node>
	<node lat="60.39371944637487" lon="8.345816664267403" id="-22298">
		<tag k="name" v="Heimhøvdmyran" />
		<tag k="natural" v="wetland" />
		<tag k="ssr:stedsnr" v="298344" />
	</node>
	<node lat="60.443949998650496" lon="8.424041660609866" id="-22311">
		<tag k="alt_name" v="Baklistulen" />
		<tag k="historic" v="shieling" />
		<tag k="name" v="Baklistølen" />
		<tag k="place" v="locality" />
		<tag k="ssr:stedsnr" v="308126" />
	</node>
	<node lat="60.624261110708545" lon="8.23945556134349" id="-22346">
		<tag k="alt_name" v="Nyestølen" />
		<tag k="historic" v="shieling" />
		<tag k="name" v="Vikastølen" />
		<tag k="place" v="locality" />
		<tag k="ssr:stedsnr" v="310646" />
	</node>
	<node lat="60.63954999761267" lon="8.290911116852993" id="-22358">
		<tag k="name" v="Helediki" />
=======
	<node id="-278709" lat="60.6343305551" lon="8.29191945348">
		<tag k="name" v="Storemyr" />
		<tag k="natural" v="wetland" />
		<tag k="ssr:stedsnr" v="708518" />
	</node>
	<node id="-278189" lat="60.5181361125" lon="8.29728055896">
		<tag k="name" v="Nystølmyre" />
>>>>>>> e1d4bc35ff8a6074a6f2e91616a996b547c36f15
		<tag k="natural" v="wetland" />
		<tag k="ssr:stedsnr" v="343481" />
	</node>
<<<<<<< HEAD
	<node lat="60.6017388886325" lon="8.360422215503077" id="-22366">
		<tag k="historic" v="shieling" />
		<tag k="name" v="Skraddarstølen" />
		<tag k="place" v="locality" />
		<tag k="ssr:stedsnr" v="344033" />
	</node>
	<node lat="60.61802499589296" lon="8.195130556921141" id="-22368">
		<tag k="name" v="Hestodden" />
=======
	<node id="-278696" lat="60.6503750029" lon="8.0236638876">
		<tag k="name" v="Løkjeslåtta" />
>>>>>>> e1d4bc35ff8a6074a6f2e91616a996b547c36f15
		<tag k="place" v="locality" />
		<tag k="ssr:stedsnr" v="344948" />
	</node>
<<<<<<< HEAD
	<node lat="60.628269443693355" lon="8.304300002013914" id="-22370">
=======
	<node id="-278182" lat="60.5313999978" lon="8.14232500196">
>>>>>>> e1d4bc35ff8a6074a6f2e91616a996b547c36f15
		<tag k="historic" v="shieling" />
		<tag k="name" v="Øvrestølen" />
		<tag k="place" v="locality" />
<<<<<<< HEAD
		<tag k="ssr:stedsnr" v="345372" />
	</node>
	<node lat="60.52492499621719" lon="8.26115278437434" id="-22372">
=======
		<tag k="ssr:stedsnr" v="100203" />
	</node>
	<node id="-279717" lat="60.5892361082" lon="8.39600833424">
		<tag k="name" v="Krokmyre" />
		<tag k="natural" v="wetland" />
		<tag k="ssr:stedsnr" v="362078" />
	</node>
	<node id="-280227" lat="60.620136115" lon="8.17662222585">
		<tag k="name" v="Tranamyrane" />
		<tag k="natural" v="wetland" />
		<tag k="ssr:stedsnr" v="795637" />
	</node>
	<node id="-278689" lat="60.5689361122" lon="8.16856666759">
		<tag k="name" v="Budalsmyrane" />
		<tag k="natural" v="wetland" />
		<tag k="ssr:stedsnr" v="540173" />
	</node>
	<node id="-279712" lat="60.6329055542" lon="8.20002500158">
>>>>>>> e1d4bc35ff8a6074a6f2e91616a996b547c36f15
		<tag k="historic" v="shieling" />
		<tag k="name" v="Øvre Jonstølen" />
		<tag k="place" v="locality" />
		<tag k="ssr:stedsnr" v="345594" />
	</node>
<<<<<<< HEAD
	<node lat="60.62452222613146" lon="8.342352772926782" id="-22391">
=======
	<node id="-279711" lat="60.6245222261" lon="8.34235277293">
>>>>>>> e1d4bc35ff8a6074a6f2e91616a996b547c36f15
		<tag k="historic" v="shieling" />
		<tag k="name" v="Nystølen" />
		<tag k="place" v="locality" />
		<tag k="ssr:stedsnr" v="359626" />
	</node>
<<<<<<< HEAD
	<node lat="60.63290555423579" lon="8.200025001578425" id="-22392">
		<tag k="historic" v="shieling" />
		<tag k="name" v="Veslestølen" />
		<tag k="place" v="locality" />
		<tag k="ssr:stedsnr" v="359787" />
	</node>
	<node lat="60.58923610819461" lon="8.396008334235038" id="-22403">
		<tag k="name" v="Krokmyre" />
=======
	<node id="-278678" lat="60.5987916706" lon="8.36549999987">
		<tag k="historic" v="shieling" />
		<tag k="name" v="Kvenidn" />
		<tag k="place" v="locality" />
		<tag k="ssr:stedsnr" v="526034" />
	</node>
	<node id="-280213" lat="60.4097472239" lon="8.37455833976">
		<tag k="name" v="Ljosemyre" />
>>>>>>> e1d4bc35ff8a6074a6f2e91616a996b547c36f15
		<tag k="natural" v="wetland" />
		<tag k="ssr:stedsnr" v="362078" />
	</node>
<<<<<<< HEAD
	<node lat="60.6369138860173" lon="8.357622230964147" id="-22410">
		<tag k="historic" v="shieling" />
		<tag k="name" v="Hølet" />
		<tag k="place" v="locality" />
		<tag k="ssr:stedsnr" v="362820" />
	</node>
	<node lat="60.55236666862667" lon="8.331111119069398" id="-22450">
		<tag k="historic" v="shieling" />
		<tag k="name" v="Birgitstølen" />
		<tag k="place" v="locality" />
		<tag k="ssr:stedsnr" v="371734" />
	</node>
	<node lat="60.53456666552262" lon="8.221058329599117" id="-22466">
		<tag k="name" v="Feten" />
		<tag k="place" v="locality" />
		<tag k="ssr:stedsnr" v="403759" />
	</node>
	<node lat="60.61575000241395" lon="8.165261102893549" id="-22473">
=======
	<node id="-279698" lat="60.6180249959" lon="8.19513055692">
		<tag k="name" v="Hestodden" />
		<tag k="place" v="locality" />
		<tag k="ssr:stedsnr" v="344948" />
	</node>
	<node id="-280209" lat="60.6114027763" lon="8.35699721894">
		<tag k="name" v="Undarstein" />
		<tag k="natural" v="stone" />
		<tag k="ssr:stedsnr" v="787917" />
	</node>
	<node id="-280206" lat="60.685430554" lon="8.10098610676">
		<tag k="name" v="Birgitstølmyrane" />
		<tag k="natural" v="wetland" />
		<tag k="ssr:stedsnr" v="787477" />
	</node>
	<node id="-279693" lat="60.5911833323" lon="8.37581943634">
>>>>>>> e1d4bc35ff8a6074a6f2e91616a996b547c36f15
		<tag k="historic" v="shieling" />
		<tag k="name" v="Buserud" />
		<tag k="place" v="locality" />
		<tag k="ssr:stedsnr" v="405979" />
	</node>
<<<<<<< HEAD
	<node lat="60.70056944700186" lon="7.872772220899869" id="-22494">
=======
	<node id="-279692" lat="60.6017388886" lon="8.3604222155">
>>>>>>> e1d4bc35ff8a6074a6f2e91616a996b547c36f15
		<tag k="historic" v="shieling" />
		<tag k="name" v="Plassen" />
		<tag k="place" v="locality" />
		<tag k="ssr:stedsnr" v="423520" />
	</node>
<<<<<<< HEAD
	<node lat="60.41709444381599" lon="8.36148888426332" id="-22501">
		<tag k="name" v="Hovdestølmyran" />
		<tag k="natural" v="wetland" />
		<tag k="ssr:stedsnr" v="430121" />
	</node>
	<node lat="60.53506110820648" lon="8.27759443922086" id="-22556">
=======
	<node id="-280203" lat="60.5908305567" lon="8.41949165979">
		<tag k="historic" v="shieling" />
		<tag k="name" v="Lykkjun" />
		<tag k="place" v="locality" />
		<tag k="ssr:stedsnr" v="787054" />
	</node>
	<node id="-279683" lat="60.6395499976" lon="8.29091111685">
		<tag k="name" v="Helediki" />
		<tag k="natural" v="wetland" />
		<tag k="ssr:stedsnr" v="343481" />
	</node>
	<node id="-279680" lat="60.5262722221" lon="8.13967222529">
		<tag k="landuse" v="meadow" />
		<tag k="name" v="Skarset" />
		<tag k="ssr:stedsnr" v="342208" />
	</node>
	<node id="-280190" lat="60.5933861076" lon="8.39233611988">
>>>>>>> e1d4bc35ff8a6074a6f2e91616a996b547c36f15
		<tag k="historic" v="shieling" />
		<tag k="name" v="Bratterud" />
		<tag k="place" v="locality" />
		<tag k="ssr:stedsnr" v="432747" />
	</node>
<<<<<<< HEAD
	<node lat="60.810066662855064" lon="7.897041663919265" id="-22562">
		<tag k="historic" v="shieling" />
		<tag k="name" v="Gamlestølen" />
		<tag k="place" v="locality" />
		<tag k="ssr:stedsnr" v="433700" />
	</node>
	<node lat="60.598791670568914" lon="8.365499999873462" id="-22572">
		<tag k="historic" v="shieling" />
		<tag k="name" v="Kvenidn" />
		<tag k="place" v="locality" />
		<tag k="ssr:stedsnr" v="526034" />
	</node>
	<node lat="60.551016665957306" lon="8.17181665888219" id="-22585">
		<tag k="name" v="Havsdalstein" />
		<tag k="natural" v="stone" />
		<tag k="ssr:stedsnr" v="540149" />
	</node>
	<node lat="60.62390278014331" lon="8.145661111647101" id="-22591">
		<tag k="landuse" v="meadow" />
		<tag k="name" v="Gautedøkki" />
		<tag k="ssr:stedsnr" v="541844" />
	</node>
	<node lat="60.604247222887096" lon="8.399527785672433" id="-22597">
		<tag k="name" v="Skutustein" />
		<tag k="natural" v="stone" />
		<tag k="ssr:stedsnr" v="544086" />
	</node>
	<node lat="60.412613890522906" lon="8.342750003587357" id="-22608">
		<tag k="name" v="Grothovdmyran" />
		<tag k="natural" v="wetland" />
		<tag k="ssr:stedsnr" v="551188" />
	</node>
	<node lat="60.38069444440306" lon="8.36769721854937" id="-22610">
		<tag k="historic" v="shieling" />
		<tag k="name" v="Ingebjørgsætre" />
		<tag k="place" v="locality" />
		<tag k="ssr:stedsnr" v="551223" />
	</node>
	<node lat="60.646077778560894" lon="8.134047226665015" id="-22649">
		<tag k="historic" v="shieling" />
		<tag k="name" v="Leine" />
		<tag k="place" v="locality" />
		<tag k="ssr:stedsnr" v="553563" />
	</node>
	<node lat="60.64491944524576" lon="8.092988881584187" id="-22665">
=======
	<node id="-278804" lat="60.4143138869" lon="8.51056110879">
		<tag k="historic" v="shieling" />
		<tag k="name" v="Mosætri" />
		<tag k="place" v="locality" />
		<tag k="ssr:stedsnr" v="734098" />
	</node>
	<node id="-280176" lat="60.5793805525" lon="8.30591666967">
		<tag k="landuse" v="meadow" />
		<tag k="name" v="Lislelie" />
		<tag k="ssr:stedsnr" v="770155" />
	</node>
	<node id="-278125" lat="60.403619444" lon="8.54596111897">
		<tag k="historic" v="shieling" />
		<tag k="name" v="Vestreimsætri" />
		<tag k="place" v="locality" />
		<tag k="ssr:stedsnr" v="248361" />
	</node>
	<node id="-279146" lat="60.6759444445" lon="7.98807499905">
		<tag k="name" v="Gardlifekjane" />
		<tag k="place" v="locality" />
		<tag k="ssr:stedsnr" v="965711" />
	</node>
	<node id="-280169" lat="60.6149611125" lon="8.38602776978">
		<tag k="name" v="Røyshallidn" />
		<tag k="natural" v="scree" />
		<tag k="ssr:stedsnr" v="768485" />
	</node>
	<node id="-278119" lat="60.4434333309" lon="8.24083056442">
		<tag k="name" v="Stormyran" />
		<tag k="natural" v="wetland" />
		<tag k="ssr:stedsnr" v="248151" />
	</node>
	<node id="-279142" lat="60.6741083298" lon="8.09824443951">
		<tag k="name" v="Karimyrane" />
		<tag k="natural" v="wetland" />
		<tag k="ssr:stedsnr" v="952410" />
	</node>
	<node id="-279652" lat="60.6350694474" lon="8.20955000645">
>>>>>>> e1d4bc35ff8a6074a6f2e91616a996b547c36f15
		<tag k="historic" v="shieling" />
		<tag k="name" v="Plassen" />
		<tag k="place" v="locality" />
		<tag k="ssr:stedsnr" v="585133" />
	</node>
<<<<<<< HEAD
	<node lat="60.59151666574802" lon="8.380138883451703" id="-22677">
=======
	<node id="-278618" lat="60.6946527809" lon="7.78126665758">
>>>>>>> e1d4bc35ff8a6074a6f2e91616a996b547c36f15
		<tag k="historic" v="shieling" />
		<tag k="name" v="Markaslette" />
		<tag k="place" v="locality" />
		<tag k="ssr:stedsnr" v="587063" />
	</node>
<<<<<<< HEAD
	<node lat="60.584508333289456" lon="8.365927771640353" id="-22695">
		<tag k="name" v="Sagenøyne" />
		<tag k="place" v="locality" />
		<tag k="ssr:stedsnr" v="604969" />
	</node>
	<node lat="60.61437499659288" lon="8.215663893335973" id="-22696">
		<tag k="name" v="Grøtsslåtta" />
		<tag k="place" v="locality" />
		<tag k="ssr:stedsnr" v="604988" />
	</node>
	<node lat="60.608555558840095" lon="8.35869721320593" id="-22700">
		<tag k="name" v="Storemyr" />
=======
	<node id="-278612" lat="60.5677916634" lon="8.29589443838">
		<tag k="landuse" v="meadow" />
		<tag k="name" v="Høljeslåtta" />
		<tag k="ssr:stedsnr" v="484002" />
	</node>
	<node id="-279113" lat="60.6327638869" lon="7.94032500626">
		<tag k="name" v="Krokløkene" />
>>>>>>> e1d4bc35ff8a6074a6f2e91616a996b547c36f15
		<tag k="natural" v="wetland" />
		<tag k="ssr:stedsnr" v="604929" />
	</node>
<<<<<<< HEAD
	<node lat="60.59500555996058" lon="8.411202776786668" id="-22703">
		<tag k="name" v="Dammyre" />
		<tag k="natural" v="wetland" />
		<tag k="ssr:stedsnr" v="605084" />
	</node>
	<node lat="60.675738888572056" lon="7.997999997450559" id="-22735">
=======
	<node id="-280167" lat="60.5374250024" lon="8.25941111065">
		<tag k="historic" v="shieling" />
		<tag k="name" v="Levorstølen" />
		<tag k="place" v="locality" />
		<tag k="ssr:stedsnr" v="767948" />
	</node>
	<node id="-278586" lat="60.6380222186" lon="8.35277499228">
		<tag k="historic" v="shieling" />
		<tag k="name" v="Skølidn" />
		<tag k="place" v="locality" />
		<tag k="ssr:stedsnr" v="480016" />
	</node>
	<node id="-280120" lat="60.6757388886" lon="7.99799999745">
>>>>>>> e1d4bc35ff8a6074a6f2e91616a996b547c36f15
		<tag k="name" v="Vetremyrane" />
		<tag k="natural" v="wetland" />
		<tag k="ssr:stedsnr" v="613326" />
	</node>
<<<<<<< HEAD
	<node lat="60.64915000366238" lon="8.045427785627771" id="-22759">
		<tag k="landuse" v="meadow" />
		<tag k="name" v="Lauvstakkhaugen" />
		<tag k="ssr:stedsnr" v="646070" />
	</node>
	<node lat="60.620888891852616" lon="8.111369438279766" id="-22773">
		<tag k="landuse" v="meadow" />
		<tag k="name" v="Marihagen" />
		<tag k="ssr:stedsnr" v="662375" />
	</node>
	<node lat="60.63936944651514" lon="8.121391659422782" id="-22791">
=======
	<node id="-279092" lat="60.6080083337" lon="8.34226944344">
		<tag k="name" v="Slettokamben" />
		<tag k="place" v="locality" />
		<tag k="ssr:stedsnr" v="908941" />
	</node>
	<node id="-279655" lat="60.6242611107" lon="8.23945556134">
		<tag k="alt_name" v="Nyestølen" />
		<tag k="historic" v="shieling" />
		<tag k="name" v="Vikastølen" />
		<tag k="place" v="locality" />
		<tag k="ssr:stedsnr" v="310646" />
	</node>
	<node id="-279087" lat="60.6152972183" lon="8.13500000287">
>>>>>>> e1d4bc35ff8a6074a6f2e91616a996b547c36f15
		<tag k="historic" v="shieling" />
		<tag k="name" v="Vollebakkane" />
		<tag k="place" v="locality" />
		<tag k="ssr:stedsnr" v="725347" />
	</node>
<<<<<<< HEAD
	<node lat="60.6219388862896" lon="8.154522220254867" id="-22796">
		<tag k="name" v="Håkonset" />
=======
	<node id="-279593" lat="60.4439499987" lon="8.42404166061">
		<tag k="alt_name" v="Baklistulen" />
		<tag k="historic" v="shieling" />
		<tag k="name" v="Baklistølen" />
>>>>>>> e1d4bc35ff8a6074a6f2e91616a996b547c36f15
		<tag k="place" v="locality" />
		<tag k="ssr:stedsnr" v="726960" />
	</node>
<<<<<<< HEAD
	<node lat="60.44124444578516" lon="8.271338889157695" id="-22799">
		<tag k="name" v="Fiskmyran" />
		<tag k="natural" v="wetland" />
		<tag k="ssr:stedsnr" v="733162" />
	</node>
	<node lat="60.60950555465137" lon="7.715908325635202" id="-22822">
		<tag k="loc_name" v="Hellevassfonne" />
		<tag k="name" v="Hellevassfonni" />
		<tag k="natural" v="glacier" />
		<tag k="ssr:stedsnr" v="735285" />
	</node>
	<node lat="60.6184944426506" lon="8.157991658355035" id="-22835">
		<tag k="landuse" v="meadow" />
		<tag k="name" v="Larsgardslåttun" />
		<tag k="ssr:stedsnr" v="735646" />
	</node>
	<node lat="60.614961112506876" lon="8.386027769780403" id="-22848">
		<tag k="name" v="Røyshallidn" />
		<tag k="natural" v="scree" />
		<tag k="ssr:stedsnr" v="768485" />
	</node>
	<node lat="60.68543055402523" lon="8.100986106755338" id="-22881">
		<tag k="name" v="Birgitstølmyrane" />
		<tag k="natural" v="wetland" />
		<tag k="ssr:stedsnr" v="787477" />
	</node>
	<node lat="60.57851388728841" lon="8.322558326911375" id="-22886">
		<tag k="historic" v="shieling" />
		<tag k="name" v="Branes" />
		<tag k="place" v="locality" />
		<tag k="ssr:stedsnr" v="787979" />
	</node>
	<node lat="60.40974722390759" lon="8.374558339761952" id="-22894">
		<tag k="name" v="Ljosemyre" />
		<tag k="natural" v="wetland" />
		<tag k="ssr:stedsnr" v="794160" />
	</node>
	<node lat="60.348297225922884" lon="8.062274998234374" id="-22899">
=======
	<node id="-278567" lat="60.6211138854" lon="8.12263889361">
		<tag k="name" v="Skraddarmoen" />
		<tag k="place" v="locality" />
		<tag k="ssr:stedsnr" v="466660" />
	</node>
	<node id="-278036" lat="60.6072916704" lon="8.29835833598">
>>>>>>> e1d4bc35ff8a6074a6f2e91616a996b547c36f15
		<tag k="historic" v="shieling" />
		<tag k="name" v="Kroken" />
		<tag k="place" v="locality" />
<<<<<<< HEAD
		<tag k="ssr:stedsnr" v="794797" />
	</node>
	<node lat="60.620136115020244" lon="8.17662222585373" id="-22909">
		<tag k="name" v="Tranamyrane" />
=======
		<tag k="ssr:stedsnr" v="224416" />
	</node>
	<node id="-278546" lat="60.6208888919" lon="8.11136943828">
		<tag k="landuse" v="meadow" />
		<tag k="name" v="Marihagen" />
		<tag k="ssr:stedsnr" v="662375" />
	</node>
	<node id="-278033" lat="60.6787416675" lon="8.06176111018">
		<tag k="historic" v="shieling" />
		<tag k="name" v="Feten" />
		<tag k="place" v="locality" />
		<tag k="ssr:stedsnr" v="224372" />
	</node>
	<node id="-280080" lat="60.4066583296" lon="8.38732500432">
		<tag k="name" v="Slåttemyre" />
>>>>>>> e1d4bc35ff8a6074a6f2e91616a996b547c36f15
		<tag k="natural" v="wetland" />
		<tag k="ssr:stedsnr" v="795637" />
	</node>
<<<<<<< HEAD
	<node lat="60.79929166940901" lon="7.930805558265311" id="-22929">
=======
	<node id="-278029" lat="60.4591333301" lon="8.20593888457">
>>>>>>> e1d4bc35ff8a6074a6f2e91616a996b547c36f15
		<tag k="historic" v="shieling" />
		<tag k="name" v="Øyestølen" />
		<tag k="place" v="locality" />
		<tag k="ssr:stedsnr" v="797717" />
	</node>
<<<<<<< HEAD
	<node lat="60.60672222319788" lon="8.363938887621494" id="-22942">
		<tag k="name" v="Kalvemyr" />
		<tag k="natural" v="wetland" />
		<tag k="ssr:stedsnr" v="830033" />
	</node>
	<node lat="60.59422221893427" lon="8.373313896943207" id="-22943">
=======
	<node id="-278538" lat="60.5350611082" lon="8.27759443922">
>>>>>>> e1d4bc35ff8a6074a6f2e91616a996b547c36f15
		<tag k="historic" v="shieling" />
		<tag k="name" v="Brennune" />
		<tag k="place" v="locality" />
		<tag k="ssr:stedsnr" v="830040" />
	</node>
<<<<<<< HEAD
	<node lat="60.61809444713925" lon="8.184661108574696" id="-22950">
		<tag k="name" v="Grønholamyrane" />
=======
	<node id="-280072" lat="60.59500556" lon="8.41120277679">
		<tag k="name" v="Dammyre" />
>>>>>>> e1d4bc35ff8a6074a6f2e91616a996b547c36f15
		<tag k="natural" v="wetland" />
		<tag k="ssr:stedsnr" v="830965" />
	</node>
<<<<<<< HEAD
	<node lat="60.6176000009044" lon="8.338749994796128" id="-22962">
		<tag k="name" v="Gørrmyre" />
		<tag k="natural" v="wetland" />
		<tag k="ssr:stedsnr" v="845653" />
	</node>
	<node lat="60.584355559462956" lon="8.335961107897635" id="-22967">
=======
	<node id="-280069" lat="60.6085555588" lon="8.35869721321">
		<tag k="name" v="Storemyr" />
		<tag k="natural" v="wetland" />
		<tag k="ssr:stedsnr" v="604929" />
	</node>
	<node id="-279042" lat="60.5843555595" lon="8.3359611079">
>>>>>>> e1d4bc35ff8a6074a6f2e91616a996b547c36f15
		<tag k="landuse" v="meadow" />
		<tag k="name" v="Halteplassen" />
		<tag k="ssr:stedsnr" v="846920" />
	</node>
<<<<<<< HEAD
	<node lat="60.575830557298836" lon="8.300024996162108" id="-22974">
		<tag k="landuse" v="meadow" />
		<tag k="name" v="Rudningen" />
		<tag k="ssr:stedsnr" v="848059" />
	</node>
	<node lat="60.58282500269244" lon="8.376236110646138" id="-22981">
		<tag k="historic" v="shieling" />
		<tag k="name" v="Lamberstølen" />
		<tag k="place" v="locality" />
		<tag k="ssr:stedsnr" v="848940" />
	</node>
	<node lat="60.802536112387045" lon="7.949238892407767" id="-23003">
		<tag k="historic" v="shieling" />
		<tag k="name" v="Geitestølen" />
		<tag k="place" v="locality" />
		<tag k="ssr:stedsnr" v="858731" />
	</node>
	<node lat="60.67410832980011" lon="8.09824443951175" id="-23046">
		<tag k="name" v="Karimyrane" />
		<tag k="natural" v="wetland" />
		<tag k="ssr:stedsnr" v="952410" />
	</node>
	<node lat="60.67594444452788" lon="7.988074999052833" id="-23057">
		<tag k="name" v="Gardlifekjane" />
		<tag k="place" v="locality" />
		<tag k="ssr:stedsnr" v="965711" />
	</node>
	<node lat="60.62088055239296" lon="8.164708325805453" id="-23068">
		<tag k="landuse" v="meadow" />
		<tag k="name" v="Hamreplassen" />
		<tag k="ssr:stedsnr" v="969917" />
	</node>
=======
>>>>>>> e1d4bc35ff8a6074a6f2e91616a996b547c36f15
</osm>
