<?xml version="1.0" encoding="UTF-8"?>
<osm version="0.6" generator="osmapis">
	<node lat="60.70970833630014" lon="7.823925006802413" id="-32233">
		<tag k="name" v="Lauvneset" />
		<tag k="place" v="island" />
		<tag k="ssr:stedsnr" v="7271" />
	</node>
	<node lat="60.6374388930938" lon="8.07703056162324" id="-32234">
		<tag k="alt_name" v="Jøkultjødnane" />
		<tag k="name" v="Jøkultjørnane" />
		<tag k="natural" v="water" />
		<tag k="ssr:stedsnr" v="7413" />
	</node>
	<node lat="60.52113130815135" lon="7.8556068465029965" id="-32238">
		<tag k="alt_name" v="Tjødngravtjødn" />
		<tag k="loc_name" v="Lillevann" />
		<tag k="name" v="Tjørngravtjørni" />
		<tag k="natural" v="water" />
		<tag k="ssr:stedsnr" v="7460" />
	</node>
	<node lat="60.60334444350806" lon="8.332119452607504" id="-32252">
		<tag k="name" v="Tubbodden" />
		<tag k="natural" v="cape" />
		<tag k="ssr:stedsnr" v="39860" />
	</node>
	<node lat="60.613852780628356" lon="8.29441666228186" id="-32254">
		<tag k="name" v="Nerolsviki" />
		<tag k="natural" v="bay" />
		<tag k="ssr:stedsnr" v="42404" />
	</node>
	<node lat="60.59830832913318" lon="8.40100833427952" id="-32278">
		<tag k="name" v="Dekkatjødn" />
		<tag k="natural" v="water" />
		<tag k="ssr:stedsnr" v="59079" />
	</node>
	<node lat="60.63615555982792" lon="8.331094447662732" id="-32281">
		<tag k="name" v="Løken" />
		<tag k="ssr:stedsnr" v="59678" />
		<tag k="waterway" v="river" />
	</node>
	<node lat="60.676863889012" lon="8.119527770297294" id="-32288">
		<tag k="name" v="Svultastrøk" />
		<tag k="natural" v="water" />
		<tag k="ssr:stedsnr" v="241449" />
		<tag k="water" v="pond" />
	</node>
	<node lat="60.476111107671315" lon="8.492386108148112" id="-32291">
		<tag k="name" v="Rambergåi" />
		<tag k="ssr:stedsnr" v="67103" />
		<tag k="waterway" v="stream" />
	</node>
	<node lat="60.41952723610038" lon="8.553045905770123" id="-32293">
		<tag k="alt_name" v="Svangtjørni, øvre;Øvre Svantjørn" />
		<tag k="loc_name" v="Øvre Svangtjønne" />
		<tag k="name" v="Øvre Svangtjørni" />
		<tag k="natural" v="water" />
		<tag k="ssr:stedsnr" v="67115" />
	</node>
	<node lat="60.49932221814084" lon="8.094383340983722" id="-32297">
		<tag k="name" v="Høgefoss" />
		<tag k="natural" v="waterfall" />
		<tag k="ssr:stedsnr" v="241773" />
	</node>
	<node lat="60.64991944445553" lon="7.877758335148627" id="-32301">
		<tag k="alt_name" v="Faugeliåne" />
		<tag k="name" v="Faugeliåni" />
		<tag k="ssr:stedsnr" v="67428" />
		<tag k="waterway" v="stream" />
	</node>
	<node lat="60.712605552457894" lon="7.730738895504795" id="-32303">
		<tag k="name" v="Skarvåni" />
		<tag k="ssr:stedsnr" v="67301" />
		<tag k="waterway" v="stream" />
	</node>
	<node lat="60.56929444605938" lon="8.392022222378705" id="-32307">
		<tag k="name" v="Driva" />
		<tag k="ssr:stedsnr" v="67706" />
		<tag k="waterway" v="stream" />
	</node>
	<node lat="60.76930000052883" lon="7.980849994572472" id="-32328">
		<tag k="alt_name" v="Stolsvatnet, øvre" />
		<tag k="name" v="Øvre Stolsvatnet" />
		<tag k="natural" v="water" />
		<tag k="ssr:stedsnr" v="69582" />
		<tag k="water" v="lake" />
	</node>
	<node lat="60.714313891131305" lon="7.687208335672359" id="-32338">
		<tag k="name" v="Sandbekktjødnane" />
		<tag k="natural" v="water" />
		<tag k="ssr:stedsnr" v="100264" />
	</node>
	<node lat="60.626472224007244" lon="8.075377772545348" id="-32340">
		<tag k="name" v="Torsteinhølen" />
		<tag k="place" v="locality" />
		<tag k="ssr:stedsnr" v="102011" />
	</node>
	<node lat="60.41149722063445" lon="7.820347217197601" id="-32346">
		<tag k="name" v="Heinungen" />
		<tag k="natural" v="water" />
		<tag k="ssr:stedsnr" v="248973" />
	</node>
	<node lat="60.48801765649506" lon="7.97179323307474" id="-32348">
		<tag k="alt_name" v="Digrenes" />
		<tag k="name" v="Digernes" />
		<tag k="place" v="island" />
		<tag k="ssr:stedsnr" v="248988" />
	</node>
	<node lat="60.49299722331639" lon="8.03957500842365" id="-32349">
		<tag k="alt_name" v="Øyne" />
		<tag k="name" v="Øyni" />
		<tag k="place" v="island" />
		<tag k="ssr:stedsnr" v="248991" />
	</node>
	<node lat="60.71111111294939" lon="7.97739999461011" id="-32353">
		<tag k="alt_name" v="Flyvatnet, nedre" />
		<tag k="name" v="Nedre Flyvatnet" />
		<tag k="natural" v="water" />
		<tag k="ssr:stedsnr" v="249356" />
		<tag k="water" v="lake" />
	</node>
	<node lat="60.6112638849253" lon="8.07331110348707" id="-32355">
		<tag k="name" v="Hivjufossen" />
		<tag k="natural" v="waterfall" />
		<tag k="ssr:stedsnr" v="249387" />
	</node>
	<node lat="60.68932220037503" lon="7.557854384936311" id="-32369">
		<tag k="name" v="Bakkahellertjørnane" />
		<tag k="natural" v="water" />
		<tag k="ssr:stedsnr" v="250226" />
		<tag k="water" v="lake" />
	</node>
	<node lat="60.50992777355852" lon="7.907355551464962" id="-32381">
		<tag k="name" v="Karistølbekken" />
		<tag k="ssr:stedsnr" v="250467" />
		<tag k="waterway" v="stream" />
	</node>
	<node lat="60.50968055141533" lon="7.835080561030547" id="-32383">
		<tag k="name" v="Vindodden" />
		<tag k="natural" v="cape" />
		<tag k="ssr:stedsnr" v="250479" />
	</node>
	<node lat="60.66679444783945" lon="8.244052780150813" id="-32389">
		<tag k="name" v="Varaldsetvatnet" />
		<tag k="natural" v="water" />
		<tag k="ssr:stedsnr" v="250585" />
		<tag k="water" v="lake" />
	</node>
	<node lat="60.66012222524946" lon="8.158205560800189" id="-32392">
		<tag k="name" v="Hundetjødn" />
		<tag k="natural" v="water" />
		<tag k="ssr:stedsnr" v="116787" />
	</node>
	<node lat="60.50828055657621" lon="7.843747221577263" id="-32405">
		<tag k="name" v="Nygardsdammen" />
		<tag k="ssr:stedsnr" v="119506" />
		<tag k="waterway" v="dam" />
	</node>
	<node lat="60.51957500420649" lon="8.100102780594776" id="-32409">
		<tag k="name" v="Sprekksundgrove" />
		<tag k="ssr:stedsnr" v="119874" />
		<tag k="waterway" v="stream" />
	</node>
	<node lat="60.76258758952843" lon="7.857622811488021" id="-32416">
		<tag k="alt_name" v="Flyvatnet, øvre;Flyvatnet" />
		<tag k="name" v="Øvre Flyvatnet" />
		<tag k="natural" v="water" />
		<tag k="ssr:stedsnr" v="251565" />
		<tag k="water" v="lake" />
	</node>
	<node lat="60.447327780869145" lon="7.74580000792165" id="-32430">
		<tag k="name" v="Storekrækkja" />
		<tag k="natural" v="water" />
		<tag k="old_name" v="Store Krækja V.;Store Krækja Sn" />
		<tag k="ssr:stedsnr" v="126930" />
		<tag k="water" v="lake" />
	</node>
	<node lat="60.457738886148555" lon="8.126794436556198" id="-32434">
		<tag k="name" v="Tindebekken" />
		<tag k="ssr:stedsnr" v="126820" />
		<tag k="waterway" v="stream" />
	</node>
	<node lat="60.5024083331391" lon="8.109955550847372" id="-32436">
		<tag k="name" v="Biskolabekken" />
		<tag k="ssr:stedsnr" v="127806" />
		<tag k="waterway" v="stream" />
	</node>
	<node lat="60.73092500094514" lon="8.005977776383578" id="-32447">
		<tag k="name" v="Stolsdammen" />
		<tag k="ssr:stedsnr" v="128249" />
		<tag k="waterway" v="dam" />
	</node>
	<node lat="60.602536111365126" lon="8.335844440023951" id="-32453">
		<tag k="name" v="Holsfjorden" />
		<tag k="natural" v="water" />
		<tag k="ssr:stedsnr" v="128883" />
		<tag k="water" v="lake" />
	</node>
	<node lat="60.6156416666763" lon="8.228294438029955" id="-32482">
		<tag k="name" v="Brattåksøynane" />
		<tag k="place" v="island" />
		<tag k="ssr:stedsnr" v="180970" />
	</node>
	<node lat="60.541819442612784" lon="8.073527785160577" id="-32495">
		<tag k="name" v="Eima" />
		<tag k="ssr:stedsnr" v="189367" />
		<tag k="waterway" v="river" />
	</node>
	<node lat="60.551580551748025" lon="7.866761112893733" id="-32496">
		<tag k="name" v="Raggebekken" />
		<tag k="ssr:stedsnr" v="189371" />
		<tag k="waterway" v="stream" />
	</node>
	<node lat="60.55499999945475" lon="7.66732499507333" id="-32505">
		<tag k="name" v="Hestebotnvatnet" />
		<tag k="natural" v="water" />
		<tag k="ssr:stedsnr" v="189268" />
		<tag k="water" v="lake" />
	</node>
	<node lat="60.62176111255613" lon="7.924350003341667" id="-32507">
		<tag k="name" v="Vierbotngrovi" />
		<tag k="ssr:stedsnr" v="189405" />
		<tag k="waterway" v="stream" />
	</node>
	<node lat="60.61009999696738" lon="8.084047213638616" id="-32508">
		<tag k="alt_name" v="Andresstølgrove" />
		<tag k="name" v="Andresstølgrovi" />
		<tag k="ssr:stedsnr" v="189412" />
		<tag k="waterway" v="stream" />
	</node>
	<node lat="60.603541670443576" lon="8.328883333943578" id="-32526">
		<tag k="name" v="Grønodden" />
		<tag k="natural" v="cape" />
		<tag k="ssr:stedsnr" v="222779" />
	</node>
	<node lat="60.52276944698888" lon="8.133716670295156" id="-32530">
		<tag k="name" v="Juvefossen" />
		<tag k="natural" v="waterfall" />
		<tag k="ssr:stedsnr" v="224225" />
	</node>
	<node lat="60.612822225256494" lon="8.292922229289118" id="-32532">
		<tag k="name" v="Skabbøyne" />
		<tag k="place" v="islet" />
		<tag k="ssr:stedsnr" v="224415" />
	</node>
	<node lat="60.605077778282855" lon="8.323316658604652" id="-32537">
		<tag k="name" v="Seimsodden" />
		<tag k="natural" v="cape" />
		<tag k="ssr:stedsnr" v="224692" />
	</node>
	<node lat="60.58637777928499" lon="8.362313883698594" id="-32540">
		<tag k="name" v="Svarvarøy" />
		<tag k="place" v="island" />
		<tag k="ssr:stedsnr" v="224988" />
	</node>
	<node lat="60.44044999911403" lon="8.555013889544076" id="-32564">
		<tag k="alt_name" v="Brattlitjørn" />
		<tag k="name" v="Brattelitjørni" />
		<tag k="natural" v="water" />
		<tag k="ssr:stedsnr" v="249108" />
	</node>
	<node lat="60.542319442635375" lon="8.24852500737482" id="-32571">
		<tag k="name" v="Åmot" />
		<tag k="natural" v="cape" />
		<tag k="ssr:stedsnr" v="282785" />
	</node>
	<node lat="60.494211113719444" lon="7.95069443567969" id="-32594">
		<tag k="name" v="Sprogi" />
		<tag k="place" v="island" />
		<tag k="ssr:stedsnr" v="464984" />
	</node>
	<node lat="60.42095555813738" lon="8.212516666128844" id="-32598">
		<tag k="name" v="Usgrimsløken" />
		<tag k="ssr:stedsnr" v="308114" />
		<tag k="waterway" v="stream" />
	</node>
	<node lat="60.45274999843144" lon="7.829900004283698" id="-32601">
		<tag k="name" v="Lægreidvatnet" />
		<tag k="natural" v="water" />
		<tag k="ssr:stedsnr" v="308941" />
	</node>
	<node lat="60.459619442021236" lon="8.221308330357386" id="-32602">
		<tag k="name" v="Ufysja" />
		<tag k="ssr:stedsnr" v="308837" />
		<tag k="waterway" v="river" />
	</node>
	<node lat="60.38932500067803" lon="7.827974999826674" id="-32604">
		<tag k="alt_name" v="Vestre Krækkjeodden" />
		<tag k="name" v="Vestre Krækkjaodden" />
		<tag k="natural" v="cape" />
		<tag k="ssr:stedsnr" v="309788" />
	</node>
	<node lat="60.73566148392957" lon="7.636154708589654" id="-32605">
		<tag k="name" v="Rossdalstjørnane" />
		<tag k="natural" v="water" />
		<tag k="ssr:stedsnr" v="310212" />
		<tag k="water" v="lake" />
	</node>
	<node lat="60.43681110883293" lon="8.585336113031971" id="-32607">
		<tag k="name" v="Kultebekken" />
		<tag k="ssr:stedsnr" v="310109" />
		<tag k="waterway" v="stream" />
	</node>
	<node lat="60.533066669016215" lon="7.843899998336526" id="-32614">
		<tag k="name" v="Haugastølbekken" />
		<tag k="ssr:stedsnr" v="310409" />
		<tag k="waterway" v="stream" />
	</node>
	<node lat="60.650888886155016" lon="8.034963886750965" id="-32615">
		<tag k="alt_name" v="Badstuguviki" />
		<tag k="name" v="Badstugviki" />
		<tag k="natural" v="bay" />
		<tag k="ssr:stedsnr" v="310412" />
	</node>
	<node lat="60.50385425233048" lon="7.9991694931153035" id="-32620">
		<tag k="alt_name" v="Ustevatnet, Vesle" />
		<tag k="fixme" v="multiple name tags, choose one and add the other to alt_name" />
		<tag k="name" v="Vesle-Usta;Vesle Ustevatnet" />
		<tag k="natural" v="water" />
		<tag k="ssr:stedsnr" v="310499" />
		<tag k="water" v="lake" />
	</node>
	<node lat="60.545263892078566" lon="7.732361105913086" id="-32629">
		<tag k="name" v="Ustekveikja" />
		<tag k="ssr:stedsnr" v="310387" />
		<tag k="waterway" v="river" />
	</node>
	<node lat="60.53872499659198" lon="7.803138882766525" id="-32630">
		<tag k="name" v="Vikaåni" />
		<tag k="ssr:stedsnr" v="310392" />
		<tag k="waterway" v="stream" />
	</node>
	<node lat="60.76447876424067" lon="8.021643521935216" id="-32645">
		<tag k="alt_name" v="Søndre Bjørnsenn" />
		<tag k="name" v="Søre Bjørnsenn" />
		<tag k="old_name" v="Bjørnsenn" />
		<tag k="place" v="island" />
		<tag k="ssr:stedsnr" v="311575" />
	</node>
	<node lat="60.66195000092576" lon="8.03623055821496" id="-32663">
		<tag k="name" v="Langetjødn" />
		<tag k="natural" v="water" />
		<tag k="ssr:stedsnr" v="344093" />
	</node>
	<node lat="60.68038610707553" lon="8.159322230690414" id="-32670">
		<tag k="name" v="Turrhaugtjødne" />
		<tag k="natural" v="water" />
		<tag k="ssr:stedsnr" v="359255" />
	</node>
	<node lat="60.66475833574218" lon="8.114058335839664" id="-32672">
		<tag k="name" v="Nedre Nyestøltjødne" />
		<tag k="natural" v="water" />
		<tag k="ssr:stedsnr" v="360264" />
	</node>
	<node lat="60.63975555998149" lon="8.135169450488739" id="-32673">
		<tag k="name" v="Djupskarvatnet" />
		<tag k="natural" v="water" />
		<tag k="ssr:stedsnr" v="360323" />
		<tag k="water" v="lake" />
	</node>
	<node lat="59.49672500301199" lon="9.926219438829566" id="-32675">
		<tag k="alt_name" v="Numedalslågen" />
		<tag k="name" v="Lågen" />
		<tag k="ssr:stedsnr" v="366578" />
		<tag k="waterway" v="river" />
	</node>
	<node lat="60.4697333341572" lon="8.214555557918644" id="-32682">
		<tag k="alt_name" v="Pålgardtjødn" />
		<tag k="name" v="Pålgardvatnet" />
		<tag k="natural" v="water" />
		<tag k="ssr:stedsnr" v="369805" />
	</node>
	<node lat="60.48145000299707" lon="7.771755547999123" id="-32688">
		<tag k="name" v="Trestiklan" />
		<tag k="natural" v="water" />
		<tag k="ssr:stedsnr" v="369997" />
		<tag k="water" v="lake" />
	</node>
	<node lat="60.74846019303872" lon="7.752472925901309" id="-32689">
		<tag k="name" v="Tyrvlesvatnet" />
		<tag k="natural" v="water" />
		<tag k="ssr:stedsnr" v="370305" />
		<tag k="water" v="lake" />
	</node>
	<node lat="60.659047223305436" lon="7.848355557105569" id="-32693">
		<tag k="alt_name" v="Skarvåne" />
		<tag k="name" v="Skarvåni" />
		<tag k="ssr:stedsnr" v="370461" />
		<tag k="waterway" v="stream" />
	</node>
	<node lat="60.66963611503937" lon="7.874580554959209" id="-32698">
		<tag k="name" v="Faugelifjorden" />
		<tag k="natural" v="water" />
		<tag k="ssr:stedsnr" v="371312" />
	</node>
	<node lat="60.51784166968392" lon="8.059341673413407" id="-32705">
		<tag k="alt_name" v="Smettbakgrove" />
		<tag k="name" v="Smettbakgrovi" />
		<tag k="ssr:stedsnr" v="371458" />
		<tag k="waterway" v="stream" />
	</node>
	<node lat="60.61124815622105" lon="8.372381960103935" id="-32709">
		<tag k="name" v="Vesleløken" />
		<tag k="ssr:stedsnr" v="371626" />
		<tag k="waterway" v="stream" />
	</node>
	<node lat="60.52659999568656" lon="8.1889666673253" id="-32715">
		<tag k="name" v="Veslefjorden" />
		<tag k="place" v="locality" />
		<tag k="ssr:stedsnr" v="371765" />
	</node>
	<node lat="60.55144444830623" lon="8.289941671909977" id="-32724">
		<tag k="name" v="Melandgrove" />
		<tag k="ssr:stedsnr" v="481929" />
		<tag k="waterway" v="stream" />
	</node>
	<node lat="60.48269166791858" lon="8.370044444616287" id="-32731">
		<tag k="alt_name" v="Skjærtjødn" />
		<tag k="name" v="Skjærtjørn" />
		<tag k="natural" v="water" />
		<tag k="ssr:stedsnr" v="483618" />
	</node>
	<node lat="60.55035555489916" lon="8.342163897100361" id="-32750">
		<tag k="name" v="Kringletjødn" />
		<tag k="natural" v="water" />
		<tag k="ssr:stedsnr" v="421743" />
	</node>
	<node lat="60.42225277369029" lon="8.035719441251874" id="-32762">
		<tag k="name" v="Korta" />
		<tag k="natural" v="water" />
		<tag k="ssr:stedsnr" v="490967" />
	</node>
	<node lat="60.38245556005889" lon="8.377275002308206" id="-32763">
		<tag k="alt_name" v="Smiubekk" />
		<tag k="name" v="Smiubekken" />
		<tag k="ssr:stedsnr" v="430203" />
		<tag k="waterway" v="stream" />
	</node>
	<node lat="60.37460555893834" lon="8.173738895374278" id="-32765">
		<tag k="name" v="Kolsfettangen" />
		<tag k="natural" v="cape" />
		<tag k="ssr:stedsnr" v="430210" />
	</node>
	<node lat="60.434324997284975" lon="8.471963893726372" id="-32776">
		<tag k="alt_name" v="Storebekktjørn;Storebekk - Damtjørn" />
		<tag k="name" v="Storebekktjørni" />
		<tag k="natural" v="water" />
		<tag k="ssr:stedsnr" v="491119" />
	</node>
	<node lat="60.42798197880937" lon="8.582419007733947" id="-32780">
		<tag k="name" v="Nedre Svangtjønne" />
		<tag k="natural" v="water" />
		<tag k="ssr:stedsnr" v="431120" />
	</node>
	<node lat="60.59808055412108" lon="8.088750006584299" id="-32789">
		<tag k="name" v="Hivjuåni" />
		<tag k="old_name" v="Evje Aaen" />
		<tag k="ssr:stedsnr" v="432411" />
		<tag k="waterway" v="stream" />
	</node>
	<node lat="60.55159444374878" lon="8.212700004133314" id="-32797">
		<tag k="fixme" v="multiple name tags, choose one and add the other to alt_name" />
		<tag k="name" v="Budøla;Bardøla" />
		<tag k="ssr:stedsnr" v="432730" />
		<tag k="waterway" v="river" />
	</node>
	<node lat="60.521194689953305" lon="7.924118232938237" id="-32802">
		<tag k="alt_name" v="Karistøltjødne" />
		<tag k="name" v="Karistøltjørni" />
		<tag k="natural" v="water" />
		<tag k="ssr:stedsnr" v="432896" />
	</node>
	<node lat="60.77541426637566" lon="8.001104982133754" id="-32803">
		<tag k="name" v="Nordre Bjørnsenn" />
		<tag k="place" v="island" />
		<tag k="ssr:stedsnr" v="433531" />
	</node>
	<node lat="60.72002777839479" lon="7.5657999987701645" id="-32811">
		<tag k="alt_name" v="Varga, fremste" />
		<tag k="name" v="Fremste Varga" />
		<tag k="ssr:stedsnr" v="492193" />
		<tag k="waterway" v="stream" />
	</node>
	<node lat="60.68945277521434" lon="8.040513897601565" id="-32815">
		<tag k="name" v="Greinefossen" />
		<tag k="natural" v="waterfall" />
		<tag k="ssr:stedsnr" v="492349" />
	</node>
	<node lat="60.51139444410055" lon="7.985125006997399" id="-32816">
		<tag k="alt_name" v="Øyneåne" />
		<tag k="name" v="Øyneåni" />
		<tag k="ssr:stedsnr" v="492450" />
		<tag k="waterway" v="stream" />
	</node>
	<node lat="60.60903610909908" lon="8.297261109257947" id="-32828">
		<tag k="name" v="Kalveviki" />
		<tag k="natural" v="bay" />
		<tag k="ssr:stedsnr" v="492643" />
	</node>
	<node lat="60.7647425516541" lon="7.9070379913866065" id="-32838">
		<tag k="alt_name" v="Flyvatnet, nedre" />
		<tag k="name" v="Nedre Flyvatnet" />
		<tag k="natural" v="water" />
		<tag k="ssr:stedsnr" v="494766" />
		<tag k="water" v="lake" />
	</node>
	<node lat="60.45403888549569" lon="8.32429721750881" id="-32840">
		<tag k="name" v="Sandbekken" />
		<tag k="ssr:stedsnr" v="672130" />
		<tag k="waterway" v="stream" />
	</node>
	<node lat="60.408919443657666" lon="8.311836110528066" id="-32844">
		<tag k="name" v="Vierbekken" />
		<tag k="ssr:stedsnr" v="672157" />
		<tag k="waterway" v="stream" />
	</node>
	<node lat="60.461916662256606" lon="8.281877780929197" id="-32847">
		<tag k="name" v="Dagsjordbekken" />
		<tag k="ssr:stedsnr" v="672846" />
		<tag k="waterway" v="stream" />
	</node>
	<node lat="60.40385277907163" lon="7.712402770900391" id="-32848">
		<tag k="name" v="Halnefjorden" />
		<tag k="natural" v="water" />
		<tag k="ssr:stedsnr" v="672919" />
		<tag k="water" v="lake" />
	</node>
	<node lat="60.44792499772075" lon="8.540049997594068" id="-32852">
		<tag k="name" v="Brattlibekken" />
		<tag k="ssr:stedsnr" v="673082" />
		<tag k="waterway" v="stream" />
	</node>
	<node lat="60.59277500114101" lon="7.661225005728369" id="-32860">
		<tag k="name" v="Lengjedalsvatnet" />
		<tag k="natural" v="water" />
		<tag k="ssr:stedsnr" v="674295" />
		<tag k="water" v="lake" />
	</node>
	<node lat="60.707030555486384" lon="8.01301944818186" id="-32862">
		<tag k="name" v="Flådøla" />
		<tag k="ssr:stedsnr" v="674323" />
		<tag k="waterway" v="stream" />
	</node>
	<node lat="60.528495678786236" lon="7.939223216682613" id="-32866">
		<tag k="name" v="Embretstøltjørni" />
		<tag k="natural" v="water" />
		<tag k="ssr:stedsnr" v="674378" />
	</node>
	<node lat="60.66926388914362" lon="7.874524992387684" id="-32872">
		<tag k="name" v="Strandavatnet" />
		<tag k="natural" v="water" />
		<tag k="old_name" v="Strandefjorden" />
		<tag k="ssr:stedsnr" v="674343" />
		<tag k="water" v="lake" />
	</node>
	<node lat="60.81250241478272" lon="7.848955412968227" id="-32906">
		<tag k="name" v="Øvre Skorpetindtjørne" />
		<tag k="natural" v="water" />
		<tag k="ssr:stedsnr" v="676676" />
	</node>
	<node lat="60.40098333525003" lon="8.429936106169256" id="-32912">
		<tag k="name" v="Ismalfossen" />
		<tag k="natural" v="waterfall" />
		<tag k="ssr:stedsnr" v="480565" />
	</node>
	<node lat="60.48290277498673" lon="7.996877782073859" id="-32915">
		<tag k="name" v="Moseholmen" />
		<tag k="place" v="islet" />
		<tag k="ssr:stedsnr" v="481760" />
	</node>
	<node lat="60.38025833114714" lon="8.274641658909479" id="-32923">
		<tag k="name" v="Bjørkelundbekken" />
		<tag k="ssr:stedsnr" v="490210" />
		<tag k="waterway" v="stream" />
	</node>
	<node lat="60.45793333009336" lon="8.122097218665521" id="-32926">
		<tag k="name" v="Tindekulpen" />
		<tag k="natural" v="water" />
		<tag k="ssr:stedsnr" v="490822" />
	</node>
	<node lat="60.44086388815376" lon="8.083252783456727" id="-32931">
		<tag k="name" v="Holværvatnet" />
		<tag k="natural" v="water" />
		<tag k="ssr:stedsnr" v="490953" />
		<tag k="water" v="lake" />
	</node>
	<node lat="60.472449467399144" lon="8.556220561228002" id="-32935">
		<tag k="name" v="Pollen" />
		<tag k="natural" v="water" />
		<tag k="ssr:stedsnr" v="491090" />
	</node>
	<node lat="60.496924997196245" lon="7.923811103139407" id="-32937">
		<tag k="name" v="Karistølneset" />
		<tag k="natural" v="cape" />
		<tag k="ssr:stedsnr" v="491982" />
	</node>
	<node lat="60.48869096691617" lon="7.77242557774309" id="-32938">
		<tag k="alt_name" v="Trestiklan, øvre" />
		<tag k="name" v="Øvre Trestiklan" />
		<tag k="natural" v="water" />
		<tag k="ssr:stedsnr" v="491996" />
		<tag k="water" v="lake" />
	</node>
	<node lat="60.572702779193236" lon="8.18426945177056" id="-32963">
		<tag k="alt_name" v="Budalsvatn" />
		<tag k="name" v="Budalsvatnet" />
		<tag k="natural" v="water" />
		<tag k="ssr:stedsnr" v="492683" />
		<tag k="water" v="lake" />
	</node>
	<node lat="60.63654722314188" lon="8.236716670108585" id="-32967">
		<tag k="alt_name" v="Helgesettjødne" />
		<tag k="name" v="Helgesetvatnet" />
		<tag k="natural" v="water" />
		<tag k="ssr:stedsnr" v="492572" />
	</node>
	<node lat="60.6456831988434" lon="8.326631221726236" id="-32968">
		<tag k="name" v="Øystlivatnet" />
		<tag k="natural" v="water" />
		<tag k="old_name" v="Ostlid V;Øyslidvatnet;Austlivatnet" />
		<tag k="ssr:stedsnr" v="492590" />
		<tag k="water" v="lake" />
	</node>
	<node lat="60.59527221976959" lon="8.167213884976467" id="-32985">
		<tag k="name" v="Belvasstøltjødn" />
		<tag k="natural" v="water" />
		<tag k="ssr:stedsnr" v="527987" />
	</node>
	<node lat="60.624661107902305" lon="8.185152784842188" id="-32988">
		<tag k="name" v="Ruefossen" />
		<tag k="natural" v="waterfall" />
		<tag k="ssr:stedsnr" v="527891" />
	</node>
	<node lat="60.666166663974835" lon="8.159602780603343" id="-32993">
		<tag k="name" v="Nedre Hævatn" />
		<tag k="natural" v="water" />
		<tag k="ssr:stedsnr" v="541803" />
	</node>
	<node lat="60.50154722080389" lon="8.34411944298984" id="-32998">
		<tag k="name" v="Sveinungtjødn" />
		<tag k="natural" v="water" />
		<tag k="ssr:stedsnr" v="542726" />
	</node>
	<node lat="60.584611114330215" lon="8.219105564423549" id="-33004">
		<tag k="name" v="Rundetjødn" />
		<tag k="natural" v="water" />
		<tag k="ssr:stedsnr" v="544027" />
		<tag k="water" v="pond" />
	</node>
	<node lat="60.680027780119836" lon="7.980805549838845" id="-33008">
		<tag k="name" v="Vesleåne" />
		<tag k="ssr:stedsnr" v="544727" />
		<tag k="waterway" v="river" />
	</node>
	<node lat="60.50957777716178" lon="7.846524997578426" id="-33009">
		<tag k="name" v="Fjellbergkulpen" />
		<tag k="natural" v="water" />
		<tag k="ssr:stedsnr" v="544467" />
	</node>
	<node lat="60.47497499994352" lon="8.433802783944296" id="-33017">
		<tag k="name" v="Kvernhusbekken" />
		<tag k="ssr:stedsnr" v="551834" />
		<tag k="waterway" v="stream" />
	</node>
	<node lat="60.569549997308485" lon="8.067380551502952" id="-33033">
		<tag k="name" v="Tjørnbotntjørni" />
		<tag k="natural" v="water" />
		<tag k="ssr:stedsnr" v="553379" />
	</node>
	<node lat="60.61339343842182" lon="8.394716490124928" id="-33040">
		<tag k="alt_name" v="Langesendvatnet" />
		<tag k="name" v="Langesennvatnet" />
		<tag k="natural" v="water" />
		<tag k="ssr:stedsnr" v="553641" />
		<tag k="water" v="lake" />
	</node>
	<node lat="60.533407092048634" lon="8.217894372024151" id="-33045">
		<tag k="name" v="Slåttahølen" />
		<tag k="place" v="locality" />
		<tag k="ssr:stedsnr" v="585740" />
	</node>
	<node lat="60.61363888570581" lon="8.397855557903178" id="-33051">
		<tag k="name" v="Uksevømbe" />
		<tag k="place" v="islet" />
		<tag k="ssr:stedsnr" v="586554" />
	</node>
	<node lat="60.49221110940922" lon="8.15883056151617" id="-33068">
		<tag k="name" v="Kroktjødn" />
		<tag k="natural" v="water" />
		<tag k="ssr:stedsnr" v="603800" />
	</node>
	<node lat="60.42473533194093" lon="8.092698515160393" id="-33074">
		<tag k="alt_name" v="Bjørkevatnet, øvre;Vidbuvatnet" />
		<tag k="name" v="Øvre Bjørkevatnet" />
		<tag k="natural" v="water" />
		<tag k="ssr:stedsnr" v="611122" />
		<tag k="water" v="lake" />
	</node>
	<node lat="60.69639999681036" lon="7.673325004838778" id="-33084">
		<tag k="name" v="Skarvåi" />
		<tag k="ssr:stedsnr" v="613211" />
		<tag k="waterway" v="stream" />
	</node>
	<node lat="60.84296245071629" lon="7.765970974726011" id="-33101">
		<tag k="alt_name" v="Øljuvatnet, vesle" />
		<tag k="name" v="Vesle Øljuvatnet" />
		<tag k="natural" v="water" />
		<tag k="ssr:stedsnr" v="615702" />
		<tag k="water" v="lake" />
	</node>
	<node lat="60.522522225225366" lon="8.037424991032372" id="-33103">
		<tag k="name" v="Dansarfløtene" />
		<tag k="place" v="locality" />
		<tag k="ssr:stedsnr" v="707264" />
	</node>
	<node lat="60.636650001438696" lon="8.069711108783252" id="-33119">
		<tag k="name" v="Jøkulbekken" />
		<tag k="ssr:stedsnr" v="707187" />
		<tag k="waterway" v="stream" />
	</node>
	<node lat="60.59623332913497" lon="8.186561119439512" id="-33121">
		<tag k="name" v="Rustivatn" />
		<tag k="natural" v="water" />
		<tag k="ssr:stedsnr" v="648999" />
	</node>
	<node lat="60.49997545108776" lon="7.9912443112201945" id="-33124">
		<tag k="name" v="Uggetjødn" />
		<tag k="natural" v="water" />
		<tag k="ssr:stedsnr" v="707924" />
	</node>
	<node lat="60.57549722576772" lon="8.252024999920764" id="-33140">
		<tag k="name" v="Gjølmedike" />
		<tag k="natural" v="water" />
		<tag k="ssr:stedsnr" v="665043" />
		<tag k="water" v="pond" />
	</node>
	<node lat="60.3971694436987" lon="8.395597221615834" id="-33142">
		<tag k="name" v="Ellingløken" />
		<tag k="ssr:stedsnr" v="665440" />
		<tag k="waterway" v="stream" />
	</node>
	<node lat="60.619208334917964" lon="8.193274998987507" id="-33149">
		<tag k="name" v="Ellingøyne" />
		<tag k="place" v="island" />
		<tag k="ssr:stedsnr" v="665938" />
	</node>
	<node lat="60.61478611083044" lon="8.391402779173516" id="-33160">
		<tag k="name" v="Fjøsviki" />
		<tag k="natural" v="bay" />
		<tag k="ssr:stedsnr" v="890538" />
	</node>
	<node lat="60.46838333205362" lon="8.367427784422654" id="-33162">
		<tag k="name" v="Liabekken" />
		<tag k="ssr:stedsnr" v="672820" />
		<tag k="waterway" v="stream" />
	</node>
	<node lat="60.416649998914075" lon="8.485600002695296" id="-33167">
		<tag k="alt_name" v="Motjørn" />
		<tag k="name" v="Motjørni" />
		<tag k="natural" v="water" />
		<tag k="ssr:stedsnr" v="674113" />
	</node>
	<node lat="60.61535483186495" lon="8.058145580374392" id="-33169">
		<tag k="alt_name" v="Hivjutjødn" />
		<tag k="name" v="Hivjuvatnet" />
		<tag k="natural" v="water" />
		<tag k="old_name" v="Seimstj.;Hivjudalstjørni;Evjekj." />
		<tag k="ssr:stedsnr" v="674413" />
	</node>
	<node lat="60.52264698021991" lon="7.899406829458034" id="-33176">
		<tag k="alt_name" v="Karistøltjødne" />
		<tag k="name" v="Karistøltjørni" />
		<tag k="natural" v="water" />
		<tag k="ssr:stedsnr" v="674459" />
	</node>
	<node lat="60.51830605790922" lon="7.962549845035516" id="-33177">
		<tag k="alt_name" v="Åkerstøltjødn" />
		<tag k="name" v="Åkerstøltjørni" />
		<tag k="natural" v="water" />
		<tag k="ssr:stedsnr" v="674467" />
	</node>
	<node lat="60.64699444702031" lon="8.293069437826388" id="-33189">
		<tag k="alt_name" v="Vetløy" />
		<tag k="loc_name" v="Vesleøyne" />
		<tag k="name" v="Vesleøyni" />
		<tag k="natural" v="cape" />
		<tag k="ssr:stedsnr" v="675642" />
	</node>
	<node lat="60.80487499906429" lon="7.835049996099808" id="-33194">
		<tag k="name" v="Nedre Skorpetindtjørne" />
		<tag k="natural" v="water" />
		<tag k="ssr:stedsnr" v="676687" />
	</node>
	<node lat="60.60271111370273" lon="8.191694438556437" id="-33200">
		<tag k="name" v="Kleppestølgrove" />
		<tag k="ssr:stedsnr" v="892000" />
		<tag k="waterway" v="stream" />
	</node>
	<node lat="60.622777776655816" lon="8.34187777952206" id="-33212">
		<tag k="name" v="Nystøltjødne" />
		<tag k="natural" v="water" />
		<tag k="ssr:stedsnr" v="723593" />
	</node>
	<node lat="60.62308332990937" lon="8.134116660687043" id="-33215">
		<tag k="name" v="Nykketjødnane" />
		<tag k="natural" v="water" />
		<tag k="ssr:stedsnr" v="723818" />
	</node>
	<node lat="60.61567777964217" lon="8.218758329124816" id="-33233">
		<tag k="name" v="Nese" />
		<tag k="natural" v="cape" />
		<tag k="ssr:stedsnr" v="726980" />
	</node>
	<node lat="60.38235000161266" lon="8.078024992952695" id="-33240">
		<tag k="name" v="Bjordalsbekken" />
		<tag k="ssr:stedsnr" v="733781" />
		<tag k="waterway" v="stream" />
	</node>
	<node lat="60.46247222405714" lon="7.934897220085917" id="-33241">
		<tag k="name" v="Steinkulpen" />
		<tag k="natural" v="water" />
		<tag k="ssr:stedsnr" v="733931" />
	</node>
	<node lat="60.43115277828178" lon="7.88474721435301" id="-33242">
		<tag k="name" v="Lonin" />
		<tag k="natural" v="water" />
		<tag k="ssr:stedsnr" v="733937" />
		<tag k="water" v="lake" />
	</node>
	<node lat="60.716378828034735" lon="8.14117285699339" id="-33245">
		<tag k="name" v="Frosen" />
		<tag k="natural" v="water" />
		<tag k="old_name" v="Frosten" />
		<tag k="ssr:stedsnr" v="734578" />
		<tag k="water" v="lake" />
	</node>
	<node lat="60.49840555790234" lon="7.987022220111405" id="-33249">
		<tag k="name" v="Uggen" />
		<tag k="natural" v="cape" />
		<tag k="ssr:stedsnr" v="734987" />
	</node>
	<node lat="60.49509444695921" lon="8.035616674978206" id="-33250">
		<tag k="name" v="Buodden" />
		<tag k="natural" v="cape" />
		<tag k="ssr:stedsnr" v="734997" />
	</node>
	<node lat="60.69787500269343" lon="7.8800777691204615" id="-33256">
		<tag k="alt_name" v="Strønde" />
		<tag k="loc_name" v="Strond" />
		<tag k="name" v="Stronde" />
		<tag k="natural" v="beach" />
		<tag k="ssr:stedsnr" v="735350" />
	</node>
	<node lat="60.639966667963236" lon="8.144286105537718" id="-33289">
		<tag k="name" v="Tintjødne" />
		<tag k="natural" v="water" />
		<tag k="ssr:stedsnr" v="907325" />
	</node>
	<node lat="60.61203055636968" lon="8.357075006537556" id="-33301">
		<tag k="name" v="Undartjødne" />
		<tag k="natural" v="water" />
		<tag k="ssr:stedsnr" v="908947" />
	</node>
	<node lat="60.585211109230166" lon="8.369763880288954" id="-33314">
		<tag k="name" v="Helgegutøyne" />
		<tag k="place" v="island" />
		<tag k="ssr:stedsnr" v="787946" />
	</node>
	<node lat="60.38415555817662" lon="7.847952777115544" id="-33318">
		<tag k="alt_name" v="Austre Krækkjaodden;Ø Krækkjeodden;Øystre Krækkjeodden" />
		<tag k="name" v="Øystre Krækkjaodden" />
		<tag k="natural" v="cape" />
		<tag k="ssr:stedsnr" v="794784" />
	</node>
	<node lat="60.67118356634278" lon="7.520706043751696" id="-33330">
		<tag k="name" v="Omnsvatnet" />
		<tag k="natural" v="water" />
		<tag k="old_name" v="Omsvatnet" />
		<tag k="ssr:stedsnr" v="796217" />
		<tag k="water" v="lake" />
	</node>
	<node lat="60.77408109906438" lon="8.012064084414865" id="-33352">
		<tag k="name" v="Bjørnsenntjørni" />
		<tag k="natural" v="water" />
		<tag k="ssr:stedsnr" v="797555" />
	</node>
	<node lat="60.456599119530644" lon="8.395631019802815" id="-33357">
		<tag k="alt_name" v="Hydnekuven" />
		<tag k="name" v="Hyrnekuven" />
		<tag k="natural" v="water" />
		<tag k="ssr:stedsnr" v="915144" />
		<tag k="water" v="lake" />
	</node>
	<node lat="60.4243999969829" lon="7.790527777488805" id="-33361">
		<tag k="name" v="Veslekrækkja" />
		<tag k="natural" v="water" />
		<tag k="old_name" v="L. Krækja V.;L. Krækja Sn" />
		<tag k="ssr:stedsnr" v="915957" />
		<tag k="water" v="lake" />
	</node>
	<node lat="60.667041666185014" lon="7.9000583347661015" id="-33376">
		<tag k="name" v="Stryknasfjorden" />
		<tag k="natural" v="water" />
		<tag k="ssr:stedsnr" v="917284" />
	</node>
	<node lat="60.68798611414127" lon="7.772216674648338" id="-33381">
		<tag k="name" v="Stølebotntjørni" />
		<tag k="natural" v="water" />
		<tag k="ssr:stedsnr" v="917330" />
	</node>
	<node lat="60.72181667112871" lon="7.736249994079433" id="-33397">
		<tag k="name" v="Skriuvatnet" />
		<tag k="natural" v="water" />
		<tag k="ssr:stedsnr" v="829279" />
	</node>
	<node lat="60.412769448071785" lon="8.47043333220541" id="-33406">
		<tag k="name" v="Lamøye" />
		<tag k="place" v="island" />
		<tag k="ssr:stedsnr" v="848326" />
	</node>
	<node lat="60.513422217715416" lon="7.85593054953605" id="-33408">
		<tag k="name" v="Haugastølviki" />
		<tag k="natural" v="bay" />
		<tag k="ssr:stedsnr" v="848495" />
	</node>
	<node lat="60.6548277781635" lon="8.279927780603442" id="-33409">
		<tag k="name" v="Storetjødne" />
		<tag k="natural" v="water" />
		<tag k="ssr:stedsnr" v="848712" />
	</node>
	<node lat="60.508844444691235" lon="8.323886111069395" id="-33426">
		<tag k="name" v="Løken" />
		<tag k="ssr:stedsnr" v="856805" />
		<tag k="waterway" v="stream" />
	</node>
	<node lat="60.582070207127025" lon="7.767482541391828" id="-33429">
		<tag k="alt_name" v="Hellevatnet, øvre;Hellevatnet" />
		<tag k="name" v="Øvre Hellevatnet" />
		<tag k="natural" v="water" />
		<tag k="ssr:stedsnr" v="857409" />
		<tag k="water" v="lake" />
	</node>
	<node lat="60.49067777823237" lon="7.877061104616475" id="-33442">
		<tag k="name" v="Ørterfossen" />
		<tag k="natural" v="waterfall" />
		<tag k="ssr:stedsnr" v="889453" />
	</node>
	<node lat="60.507741669224224" lon="8.016394449651015" id="-33446">
		<tag k="name" v="Lorthølbekken" />
		<tag k="ssr:stedsnr" v="889940" />
		<tag k="waterway" v="stream" />
	</node>
	<node lat="60.675714188527685" lon="8.257819054236675" id="-33447">
		<tag k="name" v="Fisketjødne" />
		<tag k="natural" v="water" />
		<tag k="ssr:stedsnr" v="890330" />
	</node>
	<node lat="60.67997222390858" lon="8.253224996895657" id="-33448">
		<tag k="name" v="Heimtjødne" />
		<tag k="natural" v="water" />
		<tag k="ssr:stedsnr" v="890299" />
	</node>
	<node lat="60.499713889865255" lon="7.9630055594154" id="-33459">
		<tag k="name" v="Øyestøltangen" />
		<tag k="natural" v="cape" />
		<tag k="ssr:stedsnr" v="905653" />
	</node>
	<node lat="60.63300833479502" lon="8.348050006321479" id="-33461">
		<tag k="name" v="Langemyrløken" />
		<tag k="ssr:stedsnr" v="908861" />
		<tag k="waterway" v="stream" />
	</node>
	<node lat="60.441625002061095" lon="8.390027772354125" id="-33464">
		<tag k="name" v="Halvorstølbekken" />
		<tag k="ssr:stedsnr" v="915127" />
		<tag k="waterway" v="stream" />
	</node>
	<node lat="60.40547777896492" lon="8.537724997454148" id="-33472">
		<tag k="name" v="Leiråi" />
		<tag k="ssr:stedsnr" v="916407" />
		<tag k="waterway" v="stream" />
	</node>
	<node lat="60.3560499990328" lon="8.057300000489704" id="-33473">
		<tag k="name" v="Situbekken" />
		<tag k="ssr:stedsnr" v="916821" />
		<tag k="waterway" v="stream" />
	</node>
	<node lat="60.5099111068376" lon="7.871716667060467" id="-33477">
		<tag k="name" v="Fetaviki" />
		<tag k="natural" v="bay" />
		<tag k="ssr:stedsnr" v="917466" />
	</node>
	<node lat="60.668274715535" lon="8.167254013870423" id="-33490">
		<tag k="name" v="Heivotni" />
		<tag k="natural" v="water" />
		<tag k="ssr:stedsnr" v="917572" />
		<tag k="water" v="lake" />
	</node>
	<node lat="60.837477778673176" lon="7.752174999251482" id="-33494">
		<tag k="name" v="Ølja" />
		<tag k="ssr:stedsnr" v="919704" />
		<tag k="waterway" v="stream" />
	</node>
	<node lat="60.601613889446305" lon="8.366194452278137" id="-33505">
		<tag k="name" v="Solheimsgrove" />
		<tag k="ssr:stedsnr" v="951036" />
		<tag k="waterway" v="stream" />
	</node>
	<node lat="60.495536111998334" lon="8.230786118406382" id="-33507">
		<tag k="name" v="Fjelltjødn" />
		<tag k="natural" v="water" />
		<tag k="ssr:stedsnr" v="951787" />
	</node>
	<node lat="60.524797222453934" lon="8.168952778669059" id="-33513">
		<tag k="name" v="Fekjagranden" />
		<tag k="place" v="islet" />
		<tag k="ssr:stedsnr" v="966586" />
	</node>
	<node lat="60.569497225090174" lon="8.29116944688211" id="-33517">
		<tag k="name" v="Høljeslåttgrove" />
		<tag k="ssr:stedsnr" v="969001" />
		<tag k="waterway" v="stream" />
	</node>
	<node lat="60.44114722344459" lon="7.859574996080303" id="-33533">
		<tag k="name" v="Veslevatnet" />
		<tag k="natural" v="water" />
		<tag k="ssr:stedsnr" v="5940" />
	</node>
	<node lat="60.50113333771161" lon="7.951583339925268" id="-33540">
		<tag k="alt_name" v="Ustevatn" />
		<tag k="fixme" v="multiple name tags, choose one and add the other to alt_name" />
		<tag k="name" v="Ustevatnet;Usta" />
		<tag k="natural" v="water" />
		<tag k="ssr:stedsnr" v="5983" />
		<tag k="water" v="lake" />
	</node>
	<node lat="60.64641638091079" lon="7.647812066733245" id="-33552">
		<tag k="loc_name" v="Kyrkjedørsvatne" />
		<tag k="name" v="Kyrkjedørsvatni" />
		<tag k="natural" v="water" />
		<tag k="ssr:stedsnr" v="7195" />
		<tag k="water" v="lake" />
	</node>
	<node lat="60.70440278280354" lon="7.662901292883143" id="-33554">
		<tag k="name" v="Vierbotnvatni" />
		<tag k="natural" v="water" />
		<tag k="ssr:stedsnr" v="7222" />
		<tag k="water" v="lake" />
	</node>
	<node lat="60.52994999904431" lon="7.787611113542834" id="-33558">
		<tag k="alt_name" v="Tangevatnet, vesle" />
		<tag k="name" v="Vesle Tangevatnet" />
		<tag k="natural" v="water" />
		<tag k="ssr:stedsnr" v="7400" />
	</node>
	<node lat="60.73204999996928" lon="7.928066673967126" id="-33559">
		<tag k="loc_name" v="Flyåne" />
		<tag k="name" v="Flyåni" />
		<tag k="ssr:stedsnr" v="7280" />
		<tag k="waterway" v="river" />
	</node>
	<node lat="60.56373583842784" lon="7.78901268243664" id="-33560">
		<tag k="alt_name" v="Hellevatnet, nedre" />
		<tag k="name" v="Nedre Hellevatnet" />
		<tag k="natural" v="water" />
		<tag k="ssr:stedsnr" v="7380" />
		<tag k="water" v="lake" />
	</node>
	<node lat="60.56449444750586" lon="7.735961111943055" id="-33561">
		<tag k="name" v="Grytåni" />
		<tag k="ssr:stedsnr" v="7385" />
		<tag k="waterway" v="stream" />
	</node>
	<node lat="60.76639999623864" lon="7.993652784353706" id="-33572">
		<tag k="name" v="Stolsvatnet" />
		<tag k="natural" v="water" />
		<tag k="ssr:stedsnr" v="24090" />
		<tag k="water" v="lake" />
	</node>
	<node lat="60.5768972238649" lon="8.194730554653258" id="-33584">
		<tag k="alt_name" v="Endrestøltjødne" />
		<tag k="loc_name" v="Endrestøltjørne" />
		<tag k="name" v="Endrestøltjørni" />
		<tag k="natural" v="water" />
		<tag k="ssr:stedsnr" v="52691" />
	</node>
	<node lat="60.546619447576894" lon="7.914175008108815" id="-33585">
		<tag k="name" v="Embrekstøl Elv" />
		<tag k="ssr:stedsnr" v="53232" />
		<tag k="waterway" v="river" />
	</node>
	<node lat="60.63281388582274" lon="8.179133328693123" id="-33589">
		<tag k="name" v="Senda" />
		<tag k="ssr:stedsnr" v="56793" />
		<tag k="waterway" v="stream" />
	</node>
	<node lat="60.614680555220424" lon="8.342555549723166" id="-33590">
		<tag k="name" v="Skarsettjødne" />
		<tag k="natural" v="water" />
		<tag k="ssr:stedsnr" v="56888" />
	</node>
	<node lat="60.46368611061539" lon="8.298566662125856" id="-33594">
		<tag k="name" v="Mysetholmen" />
		<tag k="place" v="island" />
		<tag k="ssr:stedsnr" v="59652" />
	</node>
	<node lat="60.69136388830508" lon="8.103291667174712" id="-33597">
		<tag k="name" v="Goddalsbekken" />
		<tag k="ssr:stedsnr" v="59466" />
		<tag k="waterway" v="stream" />
	</node>
	<node lat="60.63169999577492" lon="8.16726110789517" id="-33600">
		<tag k="name" v="Katakjell" />
		<tag k="ssr:stedsnr" v="59816" />
		<tag k="waterway" v="stream" />
	</node>
	<node lat="60.61521944536342" lon="8.355277783426763" id="-33601">
		<tag k="name" v="Uksetjødne" />
		<tag k="natural" v="water" />
		<tag k="ssr:stedsnr" v="59917" />
	</node>
	<node lat="60.470486348186206" lon="8.463303348682203" id="-33610">
		<tag k="name" v="Rambergvatnet" />
		<tag k="natural" v="water" />
		<tag k="old_name" v="Ravatnet;Holems Vd" />
		<tag k="ssr:stedsnr" v="66824" />
		<tag k="water" v="lake" />
	</node>
	<node lat="60.45791111171407" lon="8.106644441131385" id="-33611">
		<tag k="name" v="Tindevatnet" />
		<tag k="natural" v="water" />
		<tag k="ssr:stedsnr" v="66825" />
	</node>
	<node lat="60.49279999769582" lon="7.919474991986283" id="-33617">
		<tag k="name" v="Sundet" />
		<tag k="natural" v="strait" />
		<tag k="ssr:stedsnr" v="66977" />
	</node>
	<node lat="60.75038562181212" lon="7.82500469996251" id="-33623">
		<tag k="alt_name" v="Skorpetindvatnet" />
		<tag k="name" v="Skorpetindvatni" />
		<tag k="natural" v="water" />
		<tag k="ssr:stedsnr" v="67285" />
		<tag k="water" v="lake" />
	</node>
	<node lat="60.723000003148194" lon="7.653724996119137" id="-33624">
		<tag k="name" v="Skardvatnet" />
		<tag k="natural" v="water" />
		<tag k="ssr:stedsnr" v="67238" />
	</node>
	<node lat="60.808011107102274" lon="7.869155547297336" id="-33651">
		<tag k="name" v="Iungsdøla" />
		<tag k="ssr:stedsnr" v="69723" />
		<tag k="waterway" v="river" />
	</node>
	<node lat="60.78184057585438" lon="7.791352017000171" id="-33652">
		<tag k="alt_name" v="Volavatnet, austre" />
		<tag k="name" v="Austre Volavatnet" />
		<tag k="natural" v="water" />
		<tag k="ssr:stedsnr" v="69743" />
		<tag k="water" v="lake" />
	</node>
	<node lat="60.82475555552281" lon="7.77665000472442" id="-33653">
		<tag k="name" v="Grøna" />
		<tag k="ssr:stedsnr" v="69763" />
		<tag k="waterway" v="stream" />
	</node>
	<node lat="60.48902222579884" lon="7.919361114476357" id="-33655">
		<tag k="name" v="Lauvvikbekken" />
		<tag k="ssr:stedsnr" v="100447" />
		<tag k="waterway" v="stream" />
	</node>
	<node lat="60.61728611145947" lon="8.202255555163054" id="-33672">
		<tag k="name" v="Gjerdeøyne" />
		<tag k="place" v="island" />
		<tag k="ssr:stedsnr" v="102948" />
	</node>
	<node lat="60.62259999633868" lon="8.139611102619735" id="-33680">
		<tag k="name" v="Tjuløken" />
		<tag k="natural" v="water" />
		<tag k="ssr:stedsnr" v="116762" />
		<tag k="water" v="pond" />
	</node>
	<node lat="60.666102774655975" lon="7.993963893252504" id="-33684">
		<tag k="name" v="Juvefossen" />
		<tag k="natural" v="waterfall" />
		<tag k="ssr:stedsnr" v="118584" />
	</node>
	<node lat="60.482905554830424" lon="7.7485027810717995" id="-33694">
		<tag k="alt_name" v="Trestiklan, nedre" />
		<tag k="name" v="Nedre Trestiklan" />
		<tag k="natural" v="water" />
		<tag k="ssr:stedsnr" v="126985" />
	</node>
	<node lat="60.41272502081458" lon="8.40849893206415" id="-33696">
		<tag k="alt_name" v="Åsbergløken" />
		<tag k="name" v="Løken" />
		<tag k="ssr:stedsnr" v="127636" />
		<tag k="waterway" v="stream" />
	</node>
	<node lat="60.53290000062361" lon="7.775744452399704" id="-33712">
		<tag k="alt_name" v="Tangevatnet, store" />
		<tag k="name" v="Store Tangevatnet" />
		<tag k="natural" v="water" />
		<tag k="ssr:stedsnr" v="128368" />
	</node>
	<node lat="60.52090671662024" lon="8.168519163687419" id="-33725">
		<tag k="name" v="Ustedalsfjorden" />
		<tag k="natural" v="water" />
		<tag k="ssr:stedsnr" v="128751" />
		<tag k="water" v="lake" />
	</node>
	<node lat="60.488477778257675" lon="7.893280549385489" id="-33739">
		<tag k="name" v="Rundebekken" />
		<tag k="ssr:stedsnr" v="161456" />
		<tag k="waterway" v="stream" />
	</node>
	<node lat="60.43917500349379" lon="7.77537500448159" id="-33753">
		<tag k="alt_name" v="Krækkjeungen" />
		<tag k="name" v="Krækkjaungen" />
		<tag k="natural" v="bay" />
		<tag k="ssr:stedsnr" v="176938" />
	</node>
	<node lat="60.62952222344739" lon="8.344224999017715" id="-33761">
		<tag k="alt_name" v="Krossløkidn" />
		<tag k="name" v="Krossløkin" />
		<tag k="ssr:stedsnr" v="180825" />
		<tag k="waterway" v="river" />
	</node>
	<node lat="60.42015277394443" lon="8.3140666579975" id="-33762">
		<tag k="alt_name" v="Breisetbekken" />
		<tag k="name" v="Breidsetbekken" />
		<tag k="ssr:stedsnr" v="187140" />
		<tag k="waterway" v="stream" />
	</node>
	<node lat="60.45097500102798" lon="8.221933325694812" id="-33768">
		<tag k="name" v="Ljosevassåe" />
		<tag k="old_name" v="Ljose E." />
		<tag k="ssr:stedsnr" v="187164" />
		<tag k="waterway" v="stream" />
	</node>
	<node lat="60.39228900738417" lon="8.135321829155421" id="-33769">
		<tag k="name" v="Orsjøtjørne" />
		<tag k="natural" v="water" />
		<tag k="ssr:stedsnr" v="187167" />
		<tag k="water" v="lake" />
	</node>
	<node lat="60.36616944082384" lon="8.196797218499997" id="-33774">
		<tag k="name" v="Grotbekken" />
		<tag k="ssr:stedsnr" v="187194" />
		<tag k="waterway" v="stream" />
	</node>
	<node lat="60.475624248115636" lon="7.926792529991805" id="-33778">
		<tag k="name" v="Rundetjørne" />
		<tag k="natural" v="water" />
		<tag k="ssr:stedsnr" v="187995" />
	</node>
	<node lat="60.43115277665086" lon="8.492433342033886" id="-33785">
		<tag k="alt_name" v="Storebekk" />
		<tag k="name" v="Storebekken" />
		<tag k="ssr:stedsnr" v="188134" />
		<tag k="waterway" v="stream" />
	</node>
	<node lat="60.567424996194234" lon="8.18757777661135" id="-33790">
		<tag k="name" v="Storeholken" />
		<tag k="natural" v="water" />
		<tag k="ssr:stedsnr" v="189660" />
	</node>
	<node lat="60.67517499599083" lon="7.695627778954753" id="-33794">
		<tag k="name" v="Ynglesvatnet" />
		<tag k="natural" v="water" />
		<tag k="ssr:stedsnr" v="189194" />
		<tag k="water" v="lake" />
	</node>
	<node lat="60.51442499728886" lon="7.789991670473705" id="-33799">
		<tag k="name" v="Bergsmulfjorden" />
		<tag k="natural" v="water" />
		<tag k="ssr:stedsnr" v="189446" />
		<tag k="water" v="lake" />
	</node>
	<node lat="60.51291452232942" lon="7.817494393817119" id="-33800">
		<tag k="name" v="Nygardsvatnet" />
		<tag k="natural" v="water" />
		<tag k="ssr:stedsnr" v="189447" />
		<tag k="water" v="lake" />
	</node>
	<node lat="60.72266666501321" lon="7.983449992546161" id="-33809">
		<tag k="alt_name" v="Økletjødn;Økletjødne" />
		<tag k="loc_name" v="Okletjørnane" />
		<tag k="name" v="Økletjørnane" />
		<tag k="natural" v="water" />
		<tag k="ssr:stedsnr" v="189242" />
		<tag k="water" v="lake" />
	</node>
	<node lat="60.525217115222205" lon="8.304788686832044" id="-33825">
		<tag k="alt_name" v="Syningstøltjødn" />
		<tag k="loc_name" v="Syningstøltjørne" />
		<tag k="name" v="Syningstøltjørni" />
		<tag k="natural" v="water" />
		<tag k="ssr:stedsnr" v="189743" />
	</node>
	<node lat="60.677516667457965" lon="8.240963897677608" id="-33853">
		<tag k="name" v="Reinstjødne" />
		<tag k="natural" v="water" />
		<tag k="ssr:stedsnr" v="283238" />
	</node>
	<node lat="60.38842777426685" lon="7.822019448459581" id="-33862">
		<tag k="alt_name" v="Hein, øvre" />
		<tag k="name" v="Øvre Hein" />
		<tag k="natural" v="water" />
		<tag k="old_name" v="Heieren" />
		<tag k="ssr:stedsnr" v="295819" />
		<tag k="water" v="lake" />
	</node>
	<node lat="60.399236114907055" lon="8.307666667283227" id="-33867">
		<tag k="name" v="Øyan" />
		<tag k="place" v="island" />
		<tag k="ssr:stedsnr" v="298350" />
	</node>
	<node lat="60.41796496504216" lon="8.104159960803003" id="-33876">
		<tag k="alt_name" v="Bjørkevatnet, nedre;Bjørkevatnet" />
		<tag k="name" v="Nedre Bjørkevatnet" />
		<tag k="natural" v="water" />
		<tag k="ssr:stedsnr" v="308117" />
		<tag k="water" v="lake" />
	</node>
	<node lat="60.472661109455906" lon="8.240786104782828" id="-33887">
		<tag k="name" v="Skurdalselvi" />
		<tag k="ssr:stedsnr" v="308825" />
		<tag k="waterway" v="river" />
	</node>
	<node lat="60.37184722668365" lon="7.788775006616253" id="-33892">
		<tag k="name" v="Bølo" />
		<tag k="natural" v="cape" />
		<tag k="ssr:stedsnr" v="309779" />
	</node>
	<node lat="60.41133585457376" lon="7.934535403459521" id="-33894">
		<tag k="name" v="Grønevatnet" />
		<tag k="natural" v="water" />
		<tag k="ssr:stedsnr" v="309965" />
		<tag k="water" v="lake" />
	</node>
	<node lat="60.73119999966584" lon="7.774474992219682" id="-33900">
		<tag k="name" v="Tyrvla" />
		<tag k="ssr:stedsnr" v="310272" />
		<tag k="waterway" v="river" />
	</node>
	<node lat="60.63086666232538" lon="8.057961112729135" id="-33904">
		<tag k="alt_name" v="Osgrove" />
		<tag k="name" v="Osegrovi" />
		<tag k="ssr:stedsnr" v="310441" />
		<tag k="waterway" v="stream" />
	</node>
	<node lat="60.57426110829172" lon="8.162955555997785" id="-33912">
		<tag k="name" v="Budalsløken" />
		<tag k="ssr:stedsnr" v="310714" />
		<tag k="waterway" v="stream" />
	</node>
	<node lat="60.54866944714502" lon="8.258605550239452" id="-33922">
		<tag k="alt_name" v="Ustedøla" />
		<tag k="name" v="Usteåne" />
		<tag k="old_name" v="Ustaelve;Ustedalselvi;Usta" />
		<tag k="ssr:stedsnr" v="310748" />
		<tag k="waterway" v="river" />
	</node>
	<node lat="60.65226111540764" lon="7.898661111337639" id="-33932">
		<tag k="name" v="Fekjastølgrove" />
		<tag k="ssr:stedsnr" v="343713" />
		<tag k="waterway" v="stream" />
	</node>
	<node lat="60.35114774520907" lon="8.199717233151311" id="-33934">
		<tag k="name" v="Grottjønnan" />
		<tag k="natural" v="water" />
		<tag k="ssr:stedsnr" v="343761" />
		<tag k="water" v="lake" />
	</node>
	<node lat="60.52542777559585" lon="8.185405559961863" id="-33939">
		<tag k="name" v="Storisøyne" />
		<tag k="place" v="island" />
		<tag k="ssr:stedsnr" v="344531" />
	</node>
	<node lat="60.530799999001644" lon="8.13853055092376" id="-33941">
		<tag k="name" v="Øyestølgrove" />
		<tag k="ssr:stedsnr" v="345159" />
		<tag k="waterway" v="stream" />
	</node>
	<node lat="60.47442222581525" lon="8.317072225196075" id="-33953">
		<tag k="name" v="Grovebekken" />
		<tag k="ssr:stedsnr" v="369857" />
		<tag k="waterway" v="stream" />
	</node>
	<node lat="60.60419722511691" lon="8.386725000079053" id="-33960">
		<tag k="name" v="Møretjødn" />
		<tag k="natural" v="water" />
		<tag k="ssr:stedsnr" v="358878" />
	</node>
	<node lat="60.66269444766618" lon="8.154497223724432" id="-33966">
		<tag k="name" v="Fiskegryta" />
		<tag k="natural" v="water" />
		<tag k="ssr:stedsnr" v="359794" />
	</node>
	<node lat="60.669330558190644" lon="8.17180000487228" id="-33967">
		<tag k="name" v="Hævatnet" />
		<tag k="natural" v="water" />
		<tag k="ssr:stedsnr" v="359795" />
	</node>
	<node lat="60.495197225368855" lon="7.998427779731682" id="-33972">
		<tag k="name" v="Fiskeviki" />
		<tag k="natural" v="bay" />
		<tag k="ssr:stedsnr" v="360756" />
	</node>
	<node lat="60.61540278233799" lon="8.211966673808094" id="-33982">
		<tag k="name" v="Mørkaøyne" />
		<tag k="place" v="island" />
		<tag k="ssr:stedsnr" v="362969" />
	</node>
	<node lat="60.44123610669374" lon="8.658224993898413" id="-33999">
		<tag k="name" v="Pålsbufjorden" />
		<tag k="natural" v="water" />
		<tag k="ssr:stedsnr" v="370148" />
		<tag k="water" v="lake" />
	</node>
	<node lat="60.44173305066018" lon="8.510375876333928" id="-34000">
		<tag k="alt_name" v="Toresbutjørn" />
		<tag k="name" v="Toresbutjørnan" />
		<tag k="natural" v="water" />
		<tag k="ssr:stedsnr" v="370157" />
		<tag k="water" v="lake" />
	</node>
	<node lat="60.426000002245424" lon="8.061272226706082" id="-34003">
		<tag k="name" v="Breidvatnet" />
		<tag k="natural" v="water" />
		<tag k="ssr:stedsnr" v="369940" />
		<tag k="water" v="lake" />
	</node>
	<node lat="60.44490277547945" lon="8.52498611012144" id="-34004">
		<tag k="alt_name" v="Toresbubekk" />
		<tag k="name" v="Toresbubekken" />
		<tag k="ssr:stedsnr" v="370094" />
		<tag k="waterway" v="stream" />
	</node>
	<node lat="60.54682499905185" lon="7.673349997831291" id="-34006">
		<tag k="name" v="Brattfoss" />
		<tag k="natural" v="waterfall" />
		<tag k="ssr:stedsnr" v="370350" />
	</node>
	<node lat="60.71142499897542" lon="7.587949995287954" id="-34013">
		<tag k="name" v="Vasshellertjørnane" />
		<tag k="natural" v="water" />
		<tag k="ssr:stedsnr" v="371187" />
		<tag k="water" v="lake" />
	</node>
	<node lat="60.69682500161631" lon="7.585175007310865" id="-34014">
		<tag k="name" v="Geitryggvatnet" />
		<tag k="natural" v="water" />
		<tag k="ssr:stedsnr" v="371198" />
		<tag k="water" v="lake" />
	</node>
	<node lat="60.74396667092597" lon="8.009613889525232" id="-34016">
		<tag k="alt_name" v="Stolsvatnet, nedre;Søre Stolsvatnet" />
		<tag k="name" v="Nedre Stolsvatnet" />
		<tag k="natural" v="water" />
		<tag k="ssr:stedsnr" v="371241" />
		<tag k="water" v="lake" />
	</node>
	<node lat="60.73886542517101" lon="8.09733884120419" id="-34017">
		<tag k="name" v="Buvatnet" />
		<tag k="natural" v="water" />
		<tag k="ssr:stedsnr" v="371242" />
		<tag k="water" v="lake" />
	</node>
	<node lat="60.630583334929696" lon="8.37653610651722" id="-34029">
		<tag k="alt_name" v="Stokksendvatnet" />
		<tag k="name" v="Stokksennvatnet" />
		<tag k="natural" v="water" />
		<tag k="ssr:stedsnr" v="371640" />
		<tag k="water" v="lake" />
	</node>
	<node lat="60.47409166952272" lon="8.242827786480763" id="-34045">
		<tag k="name" v="Brendehaugtjødn" />
		<tag k="natural" v="water" />
		<tag k="ssr:stedsnr" v="404934" />
	</node>
	<node lat="60.505930558373656" lon="8.203958326313082" id="-34063">
		<tag k="name" v="Vesle Hakkesettjødne" />
		<tag k="natural" v="water" />
		<tag k="ssr:stedsnr" v="419656" />
	</node>
	<node lat="60.36400555293036" lon="8.103758335932286" id="-34076">
		<tag k="name" v="Bekken" />
		<tag k="natural" v="cape" />
		<tag k="ssr:stedsnr" v="430182" />
	</node>
	<node lat="60.43444166884883" lon="8.149455549274581" id="-34079">
		<tag k="name" v="Medbrotbekken" />
		<tag k="ssr:stedsnr" v="430136" />
		<tag k="waterway" v="stream" />
	</node>
	<node lat="60.460064778313054" lon="8.334433894015518" id="-34083">
		<tag k="name" v="Holmevatnet" />
		<tag k="natural" v="water" />
		<tag k="ssr:stedsnr" v="430834" />
		<tag k="water" v="lake" />
	</node>
	<node lat="60.394511111222414" lon="7.699683332727392" id="-34084">
		<tag k="alt_name" v="Skurdeviki" />
		<tag k="name" v="Skulevike" />
		<tag k="natural" v="bay" />
		<tag k="ssr:stedsnr" v="430925" />
	</node>
	<node lat="60.45087500105759" lon="7.72415000763872" id="-34085">
		<tag k="name" v="Langodden" />
		<tag k="natural" v="cape" />
		<tag k="ssr:stedsnr" v="430940" />
	</node>
	<node lat="60.50125555613228" lon="7.880844441970306" id="-34092">
		<tag k="name" v="Tangen" />
		<tag k="natural" v="cape" />
		<tag k="ssr:stedsnr" v="431532" />
	</node>
	<node lat="60.49997500260917" lon="8.00690278435381" id="-34093">
		<tag k="alt_name" v="Fiskeøynane" />
		<tag k="name" v="Fiskeøyane" />
		<tag k="place" v="island" />
		<tag k="ssr:stedsnr" v="431534" />
	</node>
	<node lat="60.662194443934446" lon="7.809891664753314" id="-34095">
		<tag k="name" v="Raggsteindøla" />
		<tag k="ssr:stedsnr" v="431365" />
		<tag k="waterway" v="stream" />
	</node>
	<node lat="60.68111018955106" lon="7.665644765650153" id="-34096">
		<tag k="name" v="Skarvåtjørnane" />
		<tag k="natural" v="water" />
		<tag k="ssr:stedsnr" v="432189" />
		<tag k="water" v="lake" />
	</node>
	<node lat="60.632866670353756" lon="8.236602779280737" id="-34100">
		<tag k="alt_name" v="Bjødnstjødne" />
		<tag k="name" v="Bjørntjørni" />
		<tag k="natural" v="water" />
		<tag k="ssr:stedsnr" v="431626" />
	</node>
	<node lat="60.487130558532684" lon="8.157977785582267" id="-34102">
		<tag k="alt_name" v="Langetjørni, øvre;Øvre Langetjødn" />
		<tag k="name" v="Øvre Langetjørni" />
		<tag k="natural" v="water" />
		<tag k="ssr:stedsnr" v="431883" />
	</node>
	<node lat="60.69445555952113" lon="7.788288897478031" id="-34104">
		<tag k="name" v="Mestøltjørni" />
		<tag k="natural" v="water" />
		<tag k="ssr:stedsnr" v="432314" />
	</node>
	<node lat="60.687091668078466" lon="7.848449991084824" id="-34113">
		<tag k="name" v="Sprengviki" />
		<tag k="natural" v="bay" />
		<tag k="ssr:stedsnr" v="432344" />
	</node>
	<node lat="60.55602777716018" lon="7.783952774015321" id="-34117">
		<tag k="alt_name" v="Tungevatnet, vesle" />
		<tag k="name" v="Vesle Tungevatnet" />
		<tag k="natural" v="water" />
		<tag k="ssr:stedsnr" v="432352" />
		<tag k="water" v="lake" />
	</node>
	<node lat="60.529530554316004" lon="8.316658328970535" id="-34135">
		<tag k="alt_name" v="Storestøltjødn" />
		<tag k="name" v="Storestøltjørni" />
		<tag k="natural" v="water" />
		<tag k="ssr:stedsnr" v="432758" />
	</node>
	<node lat="60.805917572764855" lon="7.763203884943038" id="-34137">
		<tag k="alt_name" v="Øljuvatnet, store" />
		<tag k="name" v="Store Øljuvatnet" />
		<tag k="natural" v="water" />
		<tag k="old_name" v="Øljuvatn" />
		<tag k="ssr:stedsnr" v="433692" />
		<tag k="water" v="lake" />
	</node>
	<node lat="60.51973611448457" lon="8.150883334904172" id="-34146">
		<tag k="name" v="Grunntjødne" />
		<tag k="natural" v="bay" />
		<tag k="ssr:stedsnr" v="525245" />
	</node>
	<node lat="60.489202782100996" lon="8.065691661955631" id="-34148">
		<tag k="name" v="Reinsvadet" />
		<tag k="natural" v="water" />
		<tag k="ssr:stedsnr" v="525791" />
	</node>
	<node lat="60.68172777545632" lon="8.11538611707416" id="-34155">
		<tag k="name" v="Svultastrøkbekken" />
		<tag k="ssr:stedsnr" v="527506" />
		<tag k="waterway" v="stream" />
	</node>
	<node lat="60.63045277941994" lon="8.071972227188608" id="-34159">
		<tag k="name" v="Sudndalsoset" />
		<tag k="natural" v="bay" />
		<tag k="ssr:stedsnr" v="533237" />
	</node>
	<node lat="60.64361944737325" lon="8.12983611375702" id="-34171">
		<tag k="name" v="Leinetjødne" />
		<tag k="natural" v="water" />
		<tag k="ssr:stedsnr" v="543390" />
	</node>
	<node lat="60.64503610784768" lon="8.118897216123761" id="-34172">
		<tag k="name" v="Hiegrove" />
		<tag k="ssr:stedsnr" v="543395" />
		<tag k="waterway" v="stream" />
	</node>
	<node lat="60.435333330123946" lon="8.503600006098816" id="-34192">
		<tag k="name" v="Rundtjørni" />
		<tag k="natural" v="water" />
		<tag k="ssr:stedsnr" v="552134" />
	</node>
	<node lat="60.54511077651837" lon="7.703758945595144" id="-34193">
		<tag k="name" v="Tungevatnet" />
		<tag k="natural" v="water" />
		<tag k="ssr:stedsnr" v="552295" />
		<tag k="water" v="lake" />
	</node>
	<node lat="60.4211750010722" lon="7.9027027837668" id="-34198">
		<tag k="name" v="Grønehølen" />
		<tag k="natural" v="water" />
		<tag k="ssr:stedsnr" v="551957" />
	</node>
	<node lat="60.42103990210142" lon="7.969172602125144" id="-34203">
		<tag k="name" v="Skjerjavatnet" />
		<tag k="natural" v="water" />
		<tag k="ssr:stedsnr" v="551971" />
		<tag k="water" v="lake" />
	</node>
	<node lat="60.61304167090592" lon="8.0795055639146" id="-34217">
		<tag k="alt_name" v="Hivjuåni" />
		<tag k="loc_name" v="Hivjuåne" />
		<tag k="name" v="Hivju" />
		<tag k="ssr:stedsnr" v="552485" />
		<tag k="waterway" v="river" />
	</node>
	<node lat="60.61420901049345" lon="8.238011009215665" id="-34226">
		<tag k="name" v="Hovsfjorden" />
		<tag k="natural" v="water" />
		<tag k="ssr:stedsnr" v="553626" />
		<tag k="water" v="lake" />
	</node>
	<node lat="60.5171972195912" lon="7.818238896609197" id="-34227">
		<tag k="name" v="Nygardsviki" />
		<tag k="natural" v="bay" />
		<tag k="ssr:stedsnr" v="553463" />
	</node>
	<node lat="60.592069445223686" lon="8.136516665446917" id="-34242">
		<tag k="name" v="Maristøltjørne" />
		<tag k="natural" v="water" />
		<tag k="ssr:stedsnr" v="565969" />
	</node>
	<node lat="60.35033827726297" lon="8.192237860467188" id="-34273">
		<tag k="name" v="Øvre Grottjønne" />
		<tag k="natural" v="water" />
		<tag k="old_name" v="Grøttjørnane, øvre;Øvre Grottjørnan" />
		<tag k="ssr:stedsnr" v="603180" />
	</node>
	<node lat="60.77875914731188" lon="7.770383567593359" id="-34279">
		<tag k="alt_name" v="Volavatn" />
		<tag k="name" v="Volavatnet" />
		<tag k="natural" v="water" />
		<tag k="ssr:stedsnr" v="604364" />
		<tag k="water" v="lake" />
	</node>
	<node lat="60.395788889886234" lon="8.387075003043824" id="-34296">
		<tag k="name" v="Elgvadet" />
		<tag k="place" v="locality" />
		<tag k="ssr:stedsnr" v="611158" />
	</node>
	<node lat="60.44296933142712" lon="8.475925087746575" id="-34308">
		<tag k="alt_name" v="Toresbutjørn" />
		<tag k="name" v="Toresbutjørnan" />
		<tag k="natural" v="water" />
		<tag k="ssr:stedsnr" v="612083" />
		<tag k="water" v="lake" />
	</node>
	<node lat="60.62665000243035" lon="7.905361112401935" id="-34326">
		<tag k="name" v="Storegrovi" />
		<tag k="ssr:stedsnr" v="613432" />
		<tag k="waterway" v="stream" />
	</node>
	<node lat="60.80511952016813" lon="7.939135930104223" id="-34336">
		<tag k="name" v="Iungsdalsvatnet" />
		<tag k="natural" v="water" />
		<tag k="ssr:stedsnr" v="615670" />
	</node>
	<node lat="60.62013889057236" lon="8.100172231066418" id="-34358">
		<tag k="name" v="Bryøyne" />
		<tag k="place" v="island" />
		<tag k="ssr:stedsnr" v="662399" />
	</node>
	<node lat="60.618358337608505" lon="8.130844438195906" id="-34361">
		<tag k="name" v="Båtsøyne" />
		<tag k="place" v="island" />
		<tag k="ssr:stedsnr" v="662770" />
	</node>
	<node lat="60.35194999954585" lon="8.210988886940473" id="-34362">
		<tag k="name" v="Nedre Grottjønne" />
		<tag k="natural" v="water" />
		<tag k="old_name" v="Grottjørnane, nedre;Nedre Grottjørnan" />
		<tag k="ssr:stedsnr" v="664180" />
	</node>
	<node lat="60.480294448276354" lon="8.145855554075432" id="-34366">
		<tag k="name" v="Lonene" />
		<tag k="natural" v="water" />
		<tag k="ssr:stedsnr" v="665826" />
		<tag k="water" v="lake" />
	</node>
	<node lat="60.488227773455826" lon="7.913052787013643" id="-34372">
		<tag k="name" v="Lysthusbekken" />
		<tag k="ssr:stedsnr" v="889441" />
		<tag k="waterway" v="stream" />
	</node>
	<node lat="60.71657974398731" lon="8.161053047248318" id="-34375">
		<tag k="name" v="Mjåvatnet" />
		<tag k="natural" v="bay" />
		<tag k="ssr:stedsnr" v="723217" />
	</node>
	<node lat="60.62855832977769" lon="8.179313886649389" id="-34384">
		<tag k="name" v="Senda" />
		<tag k="ssr:stedsnr" v="726863" />
		<tag k="waterway" v="stream" />
	</node>
	<node lat="60.40855278093048" lon="8.189324992562895" id="-34394">
		<tag k="name" v="Ljosevatnet" />
		<tag k="natural" v="water" />
		<tag k="ssr:stedsnr" v="733178" />
		<tag k="water" v="lake" />
	</node>
	<node lat="60.721266664523995" lon="8.020613897158281" id="-34400">
		<tag k="name" v="Urunda" />
		<tag k="ssr:stedsnr" v="735264" />
		<tag k="waterway" v="river" />
	</node>
	<node lat="60.4677999968621" lon="7.792225003439696" id="-34406">
		<tag k="name" v="Ørteren" />
		<tag k="natural" v="water" />
		<tag k="ssr:stedsnr" v="733985" />
		<tag k="water" v="lake" />
	</node>
	<node lat="60.65912500264871" lon="8.136933337175313" id="-34420">
		<tag k="alt_name" v="Tjødnbotn" />
		<tag k="name" v="Tjørnbotn" />
		<tag k="natural" v="water" />
		<tag k="ssr:stedsnr" v="735565" />
	</node>
	<node lat="60.79031388694597" lon="7.995686102982504" id="-34430">
		<tag k="name" v="Halsane" />
		<tag k="natural" v="strait" />
		<tag k="ssr:stedsnr" v="736738" />
	</node>
	<node lat="60.78157271822952" lon="7.749269543761682" id="-34431">
		<tag k="alt_name" v="Volavatnet, vestre" />
		<tag k="name" v="Vestre Volavatnet" />
		<tag k="natural" v="water" />
		<tag k="ssr:stedsnr" v="736743" />
		<tag k="water" v="lake" />
	</node>
	<node lat="60.491861106621045" lon="7.91504166171782" id="-34435">
		<tag k="name" v="Sundodden" />
		<tag k="natural" v="cape" />
		<tag k="ssr:stedsnr" v="767461" />
	</node>
	<node lat="60.603397218270175" lon="8.335916675579345" id="-34442">
		<tag k="name" v="Neseikra" />
		<tag k="natural" v="cape" />
		<tag k="ssr:stedsnr" v="768866" />
	</node>
	<node lat="60.680049999339765" lon="8.233324997144186" id="-34448">
		<tag k="name" v="Stokkesteintjødne" />
		<tag k="natural" v="water" />
		<tag k="ssr:stedsnr" v="769288" />
	</node>
	<node lat="60.529200000275836" lon="8.13117499098295" id="-34449">
		<tag k="name" v="Bjødnagrove" />
		<tag k="ssr:stedsnr" v="770137" />
		<tag k="waterway" v="stream" />
	</node>
	<node lat="60.56774444841934" lon="8.18498055248668" id="-34459">
		<tag k="name" v="Vesleholken" />
		<tag k="natural" v="water" />
		<tag k="ssr:stedsnr" v="783137" />
	</node>
	<node lat="60.506005556899076" lon="8.194286116242669" id="-34461">
		<tag k="name" v="Økletjødne" />
		<tag k="natural" v="water" />
		<tag k="ssr:stedsnr" v="783654" />
	</node>
	<node lat="60.66579166698896" lon="8.116830562944001" id="-34464">
		<tag k="name" v="Øvre Nyestøltjødne" />
		<tag k="natural" v="water" />
		<tag k="ssr:stedsnr" v="785277" />
	</node>
	<node lat="60.51613611339135" lon="7.856344440580739" id="-34469">
		<tag k="name" v="Haugastølbekken" />
		<tag k="ssr:stedsnr" v="786346" />
		<tag k="waterway" v="stream" />
	</node>
	<node lat="60.58577500054475" lon="8.36398610491116" id="-34477">
		<tag k="name" v="Luøyne" />
		<tag k="place" v="island" />
		<tag k="ssr:stedsnr" v="787966" />
	</node>
	<node lat="60.379452773809675" lon="8.295047227074837" id="-34480">
		<tag k="name" v="Steinhusbekken" />
		<tag k="ssr:stedsnr" v="794199" />
		<tag k="waterway" v="stream" />
	</node>
	<node lat="60.49099444788004" lon="8.153799997348425" id="-34490">
		<tag k="alt_name" v="Langetjørni, nedre;Nedre Langetjødn" />
		<tag k="name" v="Nedre Langetjørni" />
		<tag k="natural" v="water" />
		<tag k="ssr:stedsnr" v="794845" />
	</node>
	<node lat="60.456422221190074" lon="7.75819722069612" id="-34493">
		<tag k="name" v="Kristenviki" />
		<tag k="natural" v="bay" />
		<tag k="ssr:stedsnr" v="794956" />
	</node>
	<node lat="60.43465000135153" lon="7.873324996031245" id="-34494">
		<tag k="name" v="Grøna" />
		<tag k="ssr:stedsnr" v="794957" />
		<tag k="waterway" v="river" />
	</node>
	<node lat="60.548549997936654" lon="7.702850006519827" id="-34498">
		<tag k="name" v="Skiljebekktjørni" />
		<tag k="natural" v="water" />
		<tag k="ssr:stedsnr" v="795335" />
	</node>
	<node lat="60.647099999339595" lon="7.589477768808145" id="-34506">
		<tag k="loc_name" v="Flakvatnet" />
		<tag k="name" v="Flakavatnet" />
		<tag k="natural" v="water" />
		<tag k="ssr:stedsnr" v="796192" />
		<tag k="water" v="lake" />
	</node>
	<node lat="60.68554166700492" lon="8.120552785592452" id="-34509">
		<tag k="alt_name" v="Hersend" />
		<tag k="name" v="Hersennvatnet" />
		<tag k="natural" v="water" />
		<tag k="ssr:stedsnr" v="796545" />
		<tag k="water" v="lake" />
	</node>
	<node lat="60.47625355615922" lon="7.924223551152895" id="-34525">
		<tag k="name" v="Lysthustjørne" />
		<tag k="natural" v="water" />
		<tag k="ssr:stedsnr" v="809036" />
	</node>
	<node lat="60.59615833719584" lon="8.205113893939153" id="-34532">
		<tag k="name" v="Rundetjødn" />
		<tag k="natural" v="water" />
		<tag k="ssr:stedsnr" v="831994" />
	</node>
	<node lat="60.672561112762374" lon="8.250908331898332" id="-34538">
		<tag k="name" v="Langetjødne" />
		<tag k="natural" v="water" />
		<tag k="ssr:stedsnr" v="830302" />
	</node>
	<node lat="60.533997220360305" lon="8.137444436457683" id="-34541">
		<tag k="name" v="Skriuslettgrove" />
		<tag k="ssr:stedsnr" v="831152" />
		<tag k="waterway" v="stream" />
	</node>
	<node lat="60.523722217902126" lon="8.167886112273202" id="-34556">
		<tag k="name" v="Fekjaodden" />
		<tag k="natural" v="cape" />
		<tag k="ssr:stedsnr" v="845616" />
	</node>
	<node lat="60.39495277610511" lon="8.350400003645005" id="-34580">
		<tag k="alt_name" v="Magnusbekk" />
		<tag k="name" v="Magnusbekken" />
		<tag k="ssr:stedsnr" v="855161" />
		<tag k="waterway" v="stream" />
	</node>
	<node lat="60.39469722347118" lon="8.062372217428512" id="-34585">
		<tag k="name" v="Bjordalsvatnet" />
		<tag k="natural" v="water" />
		<tag k="ssr:stedsnr" v="855822" />
	</node>
	<node lat="60.64999722214435" lon="7.887636120134731" id="-34593">
		<tag k="name" v="Byrkjedøla" />
		<tag k="ssr:stedsnr" v="856478" />
		<tag k="waterway" v="river" />
	</node>
	<node lat="60.627147225189006" lon="8.356391672070517" id="-34603">
		<tag k="name" v="Storeløken" />
		<tag k="ssr:stedsnr" v="856664" />
		<tag k="waterway" v="stream" />
	</node>
	<node lat="60.706341670572" lon="7.997686116215198" id="-34609">
		<tag k="name" v="Veslevatnet" />
		<tag k="natural" v="water" />
		<tag k="ssr:stedsnr" v="857368" />
	</node>
	<node lat="60.51008888899685" lon="8.051597223635993" id="-34617">
		<tag k="alt_name" v="Kulthauggrove" />
		<tag k="name" v="Kulthauggrovi" />
		<tag k="ssr:stedsnr" v="857490" />
		<tag k="waterway" v="stream" />
	</node>
	<node lat="60.59645277382656" lon="8.347600004599164" id="-34623">
		<tag k="name" v="Hagafossen" />
		<tag k="natural" v="waterfall" />
		<tag k="ssr:stedsnr" v="857653" />
	</node>
	<node lat="60.7522333519211" lon="8.045659279651655" id="-34626">
		<tag k="name" v="Riskevatnet" />
		<tag k="natural" v="water" />
		<tag k="ssr:stedsnr" v="858552" />
		<tag k="water" v="lake" />
	</node>
	<node lat="60.39145277454127" lon="7.854897220108563" id="-34648">
		<tag k="alt_name" v="Krækkjebekken" />
		<tag k="name" v="Krækkjabekken" />
		<tag k="ssr:stedsnr" v="964767" />
		<tag k="waterway" v="stream" />
	</node>
	<node lat="60.49642777694102" lon="7.920041666650896" id="-34651">
		<tag k="name" v="Karistøltangen" />
		<tag k="natural" v="cape" />
		<tag k="ssr:stedsnr" v="965650" />
	</node>
	<node lat="60.51577777590618" lon="8.170986107506499" id="-34652">
		<tag k="name" v="Nonsnutviki" />
		<tag k="natural" v="bay" />
		<tag k="ssr:stedsnr" v="965661" />
	</node>
	<node lat="60.51640832917802" lon="8.16710834102213" id="-34653">
		<tag k="name" v="Natteviki" />
		<tag k="natural" v="bay" />
		<tag k="ssr:stedsnr" v="965665" />
	</node>
	<node lat="60.517175003726095" lon="8.127088884278432" id="-34659">
		<tag k="name" v="Uthusøyne" />
		<tag k="place" v="island" />
		<tag k="ssr:stedsnr" v="968874" />
	</node>
	<node lat="60.52136110870534" lon="8.129783335462596" id="-34660">
		<tag k="name" v="Sekshusøyne" />
		<tag k="place" v="island" />
		<tag k="ssr:stedsnr" v="968876" />
	</node>
	<node lat="60.501361112432875" lon="7.850694443345081" id="-34664">
		<tag k="name" v="Kvenneskarbekken" />
		<tag k="ssr:stedsnr" v="969478" />
		<tag k="waterway" v="stream" />
	</node>
</osm>
