<?xml version="1.0" encoding="UTF-8"?>
<osm version="0.6" generator="osmapis">
	<node lat="60.3748583350487" lon="8.12921111115081" id="-16519">
		<tag k="fixme" v="consider natural=peak for the most distinct mountains in the district" />
		<tag k="name" v="Hårånatten" />
		<tag k="natural" v="hill" />
		<tag k="place" v="locality" />
		<tag k="ssr:stedsnr" v="5220" />
	</node>
	<node lat="60.44667499684898" lon="8.477880548445736" id="-16522">
		<tag k="alt_name" v="Uværshøvda" />
		<tag k="name" v="Uvershovda" />
		<tag k="natural" v="hill" />
		<tag k="place" v="locality" />
		<tag k="ssr:stedsnr" v="6067" />
	</node>
	<node lat="60.578616668250625" lon="8.103933327221878" id="-16523">
		<tag k="alt_name" v="Store - Budalen" />
		<tag k="name" v="Store Budalen" />
		<tag k="natural" v="valley" />
		<tag k="place" v="locality" />
		<tag k="ssr:stedsnr" v="6718" />
	</node>
	<node lat="60.63457221850947" lon="8.018858338614395" id="-16529">
		<tag k="alt_name" v="Nonstølnattane" />
		<tag k="name" v="Nonsstølnattane" />
		<tag k="natural" v="hill" />
		<tag k="place" v="locality" />
		<tag k="ssr:stedsnr" v="7426" />
	</node>
	<node lat="60.62066903951234" lon="8.071849196810453" id="-16535">
		<tag k="name" v="Skardsetlie" />
		<tag k="natural" v="slope" />
		<tag k="place" v="locality" />
		<tag k="ssr:stedsnr" v="7625" />
	</node>
	<node lat="60.58991111112843" lon="8.19378611576792" id="-16537">
		<tag k="name" v="Vedalshøgde" />
		<tag k="natural" v="hill" />
		<tag k="place" v="locality" />
		<tag k="ssr:stedsnr" v="7645" />
	</node>
	<node lat="60.44914444831959" lon="8.20460000377705" id="-16543">
		<tag k="fixme" v="consider natural=peak for the most distinct mountains in the district" />
		<tag k="name" v="Åmotstølnatten" />
		<tag k="natural" v="hill" />
		<tag k="place" v="locality" />
		<tag k="ssr:stedsnr" v="20090" />
	</node>
	<node lat="60.43676111254287" lon="8.233302772249475" id="-16544">
		<tag k="fixme" v="consider natural=peak for the most distinct mountains in the district" />
		<tag k="name" v="Femvardanuten" />
		<tag k="natural" v="hill" />
		<tag k="place" v="locality" />
		<tag k="ssr:stedsnr" v="20104" />
	</node>
	<node lat="60.557380555772426" lon="8.205427783679264" id="-16547">
		<tag k="name" v="Bardølsgardjuvet" />
		<tag k="natural" v="gorge" />
		<tag k="ssr:stedsnr" v="237362" />
	</node>
	<node lat="60.579538891993714" lon="8.061461116952346" id="-16550">
		<tag k="name" v="Storhallene" />
		<tag k="natural" v="slope" />
		<tag k="place" v="locality" />
		<tag k="ssr:stedsnr" v="237510" />
	</node>
	<node lat="60.50911944395887" lon="8.158811102290485" id="-16554">
		<tag k="name" v="Jehanslie" />
		<tag k="natural" v="slope" />
		<tag k="place" v="locality" />
		<tag k="ssr:stedsnr" v="237698" />
	</node>
	<node lat="60.61854166433454" lon="8.333122214129228" id="-16559">
		<tag k="name" v="Ågotdøkk" />
		<tag k="natural" v="valley" />
		<tag k="place" v="locality" />
		<tag k="ssr:stedsnr" v="238625" />
	</node>
	<node lat="60.51197777841009" lon="8.316608332665032" id="-16560">
		<tag k="name" v="Kråkehammeren" />
		<tag k="natural" v="hill" />
		<tag k="place" v="locality" />
		<tag k="ssr:stedsnr" v="239725" />
	</node>
	<node lat="60.51846110967046" lon="8.153577784255903" id="-16561">
		<tag k="name" v="Gullsteinhaugane" />
		<tag k="natural" v="hill" />
		<tag k="place" v="locality" />
		<tag k="ssr:stedsnr" v="55612" />
	</node>
	<node lat="60.536313892355736" lon="8.340516673409384" id="-16566">
		<tag k="name" v="Halfarhovda" />
		<tag k="natural" v="hill" />
		<tag k="place" v="locality" />
		<tag k="ssr:stedsnr" v="57702" />
	</node>
	<node lat="60.51183333240738" lon="7.874036115088713" id="-16568">
		<tag k="name" v="Skurvenuten" />
		<tag k="natural" v="hill" />
		<tag k="place" v="locality" />
		<tag k="ssr:stedsnr" v="240347" />
	</node>
	<node lat="60.618130553150806" lon="8.251913886878334" id="-16569">
		<tag k="name" v="Vikabergi" />
		<tag k="natural" v="cliff" />
		<tag k="ssr:stedsnr" v="58989" />
	</node>
	<node lat="60.50471388459781" lon="8.135527780179583" id="-16577">
		<tag k="name" v="Salttjødnnuten" />
		<tag k="natural" v="hill" />
		<tag k="place" v="locality" />
		<tag k="ssr:stedsnr" v="240856" />
	</node>
	<node lat="60.5954055583326" lon="8.400238884418863" id="-16580">
		<tag k="name" v="Snøyerholt" />
		<tag k="natural" v="hill" />
		<tag k="place" v="locality" />
		<tag k="ssr:stedsnr" v="241095" />
	</node>
	<node lat="60.38112778053587" lon="8.14448054750944" id="-16582">
		<tag k="fixme" v="consider natural=peak for the most distinct mountains in the district" />
		<tag k="name" v="Urdelinatten" />
		<tag k="natural" v="hill" />
		<tag k="place" v="locality" />
		<tag k="ssr:stedsnr" v="66197" />
	</node>
	<node lat="60.48374999623701" lon="8.459961107676703" id="-16585">
		<tag k="alt_name" v="Halldalsøksle" />
		<tag k="fixme" v="consider natural=peak for the most distinct mountains in the district" />
		<tag k="name" v="Halldalsoksli" />
		<tag k="natural" v="hill" />
		<tag k="place" v="locality" />
		<tag k="ssr:stedsnr" v="67104" />
	</node>
	<node lat="60.72096388504816" lon="7.868005563628266" id="-16592">
		<tag k="alt_name" v="Flishovd, nordre" />
		<tag k="fixme" v="consider natural=peak for the most distinct mountains in the district" />
		<tag k="name" v="Nørdre Flishovd" />
		<tag k="natural" v="hill" />
		<tag k="place" v="locality" />
		<tag k="ssr:stedsnr" v="67296" />
	</node>
	<node lat="60.72965287922816" lon="7.973662347117922" id="-16597">
		<tag k="alt_name" v="Økle;Oksli" />
		<tag k="fixme" v="consider natural=peak for the most distinct mountains in the district" />
		<tag k="name" v="Økli" />
		<tag k="natural" v="hill" />
		<tag k="place" v="locality" />
		<tag k="ssr:stedsnr" v="67304" />
	</node>
	<node lat="60.577658337100374" lon="8.329347215696043" id="-16599">
		<tag k="fixme" v="consider natural=peak for the most distinct mountains in the district" />
		<tag k="name" v="Urshovdnatten" />
		<tag k="natural" v="hill" />
		<tag k="place" v="locality" />
		<tag k="ssr:stedsnr" v="67704" />
	</node>
	<node lat="60.58420833012091" lon="8.161619443740763" id="-16602">
		<tag k="fixme" v="consider natural=peak for the most distinct mountains in the district" />
		<tag k="name" v="Budalshøgdin" />
		<tag k="natural" v="hill" />
		<tag k="place" v="locality" />
		<tag k="ssr:stedsnr" v="67711" />
	</node>
	<node lat="60.58924166833301" lon="7.93105278073448" id="-16608">
		<tag k="loc_name" v="Storekvelve" />
		<tag k="name" v="Storekvelvi" />
		<tag k="natural" v="valley" />
		<tag k="old_name" v="Store Qvelv" />
		<tag k="place" v="locality" />
		<tag k="ssr:stedsnr" v="68402" />
	</node>
	<node lat="60.536486108199405" lon="7.821925004406812" id="-16610">
		<tag k="fixme" v="consider natural=peak for the most distinct mountains in the district" />
		<tag k="name" v="Slåttehallnuten" />
		<tag k="natural" v="hill" />
		<tag k="place" v="locality" />
		<tag k="ssr:stedsnr" v="68416" />
	</node>
	<node lat="60.51975555537508" lon="7.833861109952016" id="-16611">
		<tag k="name" v="Beinstigranden" />
		<tag k="natural" v="hill" />
		<tag k="place" v="locality" />
		<tag k="ssr:stedsnr" v="68490" />
	</node>
	<node lat="60.50747222380429" lon="8.190369444133433" id="-16613">
		<tag k="fixme" v="consider natural=peak for the most distinct mountains in the district" />
		<tag k="loc_name" v="Okla" />
		<tag k="name" v="Økle" />
		<tag k="natural" v="hill" />
		<tag k="place" v="locality" />
		<tag k="ssr:stedsnr" v="68792" />
	</node>
	<node lat="60.5891611087366" lon="8.310050006681964" id="-16615">
		<tag k="name" v="Storeberg" />
		<tag k="natural" v="hill" />
		<tag k="place" v="locality" />
		<tag k="ssr:stedsnr" v="68682" />
	</node>
	<node lat="60.54842777587109" lon="7.779130555236982" id="-16619">
		<tag k="fixme" v="consider natural=peak for the most distinct mountains in the district" />
		<tag k="name" v="Vesletunga" />
		<tag k="natural" v="hill" />
		<tag k="place" v="locality" />
		<tag k="ssr:stedsnr" v="68882" />
	</node>
	<node lat="60.757352773727035" lon="7.729327776410476" id="-16620">
		<tag k="fixme" v="consider natural=peak for the most distinct mountains in the district" />
		<tag k="name" v="Langvasseggi" />
		<tag k="natural" v="hill" />
		<tag k="place" v="locality" />
		<tag k="ssr:stedsnr" v="69579" />
	</node>
	<node lat="60.85377499757223" lon="7.780602786365607" id="-16622">
		<tag k="alt_name" v="Øljunuten, vesle" />
		<tag k="fixme" v="consider natural=peak for the most distinct mountains in the district" />
		<tag k="name" v="Vesle Øljunuten" />
		<tag k="natural" v="hill" />
		<tag k="place" v="locality" />
		<tag k="ssr:stedsnr" v="69694" />
	</node>
	<node lat="60.09894999981634" lon="7.487983339709965" id="-16623">
		<tag k="name" v="Hardangervidda" />
		<tag k="natural" v="plateau" />
		<tag k="ssr:stedsnr" v="85109" />
	</node>
	<node lat="60.421038889551504" lon="8.178680559156675" id="-16625">
		<tag k="fixme" v="consider natural=peak for the most distinct mountains in the district" />
		<tag k="name" v="Ljosevasstuva" />
		<tag k="natural" v="hill" />
		<tag k="place" v="locality" />
		<tag k="ssr:stedsnr" v="248139" />
	</node>
	<node lat="60.71829999966156" lon="7.74335278448646" id="-16630">
		<tag k="name" v="Sleaskaret" />
		<tag k="natural" v="valley" />
		<tag k="place" v="locality" />
		<tag k="ssr:stedsnr" v="100263" />
	</node>
	<node lat="60.48196944023237" lon="8.06340832711204" id="-16635">
		<tag k="name" v="Ustaberglie" />
		<tag k="natural" v="slope" />
		<tag k="place" v="locality" />
		<tag k="ssr:stedsnr" v="102828" />
	</node>
	<node lat="60.590705554012395" lon="8.201724992727039" id="-16636">
		<tag k="name" v="Skaret" />
		<tag k="natural" v="valley" />
		<tag k="place" v="locality" />
		<tag k="ssr:stedsnr" v="102998" />
	</node>
	<node lat="60.41542500234283" lon="7.870199999278419" id="-16639">
		<tag k="fixme" v="consider natural=peak for the most distinct mountains in the district" />
		<tag k="name" v="Krækkjahæe" />
		<tag k="natural" v="hill" />
		<tag k="old_name" v="Krækja Heia;Krækkjehei;Krækjeheia" />
		<tag k="place" v="locality" />
		<tag k="ssr:stedsnr" v="248974" />
	</node>
	<node lat="60.70432500289139" lon="7.545224993848412" id="-16643">
		<tag k="fixme" v="consider natural=peak for the most distinct mountains in the district" />
		<tag k="name" v="Bakkahellertunga" />
		<tag k="natural" v="hill" />
		<tag k="place" v="locality" />
		<tag k="ssr:stedsnr" v="249185" />
	</node>
	<node lat="60.72607500443191" lon="7.683799994880531" id="-16644">
		<tag k="name" v="Urdvassberget" />
		<tag k="natural" v="hill" />
		<tag k="place" v="locality" />
		<tag k="ssr:stedsnr" v="249186" />
	</node>
	<node lat="60.6472638862254" lon="7.815811112979719" id="-16650">
		<tag k="fixme" v="consider natural=peak for the most distinct mountains in the district" />
		<tag k="name" v="Grønehallnuten" />
		<tag k="natural" v="hill" />
		<tag k="place" v="locality" />
		<tag k="ssr:stedsnr" v="249424" />
	</node>
	<node lat="60.63503055743984" lon="8.080983332659782" id="-16652">
		<tag k="fixme" v="consider natural=peak for the most distinct mountains in the district" />
		<tag k="name" v="Jøkulnatten" />
		<tag k="natural" v="hill" />
		<tag k="place" v="locality" />
		<tag k="ssr:stedsnr" v="249441" />
	</node>
	<node lat="60.54644999584709" lon="8.190183335457725" id="-16655">
		<tag k="name" v="Havsdalen" />
		<tag k="natural" v="valley" />
		<tag k="place" v="locality" />
		<tag k="ssr:stedsnr" v="249702" />
	</node>
	<node lat="60.54107500256329" lon="8.132441662926832" id="-16656">
		<tag k="fixme" v="consider natural=peak for the most distinct mountains in the district" />
		<tag k="name" v="Vardahovdun" />
		<tag k="natural" v="hill" />
		<tag k="place" v="locality" />
		<tag k="ssr:stedsnr" v="249703" />
	</node>
	<node lat="60.66819444397415" lon="7.763777783152481" id="-16665">
		<tag k="name" v="Syningshovda" />
		<tag k="natural" v="hill" />
		<tag k="place" v="locality" />
		<tag k="ssr:stedsnr" v="250315" />
	</node>
	<node lat="60.68371388979742" lon="7.841969448957778" id="-16670">
		<tag k="name" v="Sprengviknuten" />
		<tag k="natural" v="hill" />
		<tag k="place" v="locality" />
		<tag k="ssr:stedsnr" v="250367" />
	</node>
	<node lat="60.5155249964853" lon="7.843636116049348" id="-16674">
		<tag k="fixme" v="consider natural=peak for the most distinct mountains in the district" />
		<tag k="name" v="Fjellbergnuten" />
		<tag k="natural" v="hill" />
		<tag k="place" v="locality" />
		<tag k="ssr:stedsnr" v="250472" />
	</node>
	<node lat="60.64189444427479" lon="8.116313888701518" id="-16677">
		<tag k="name" v="Sisseldalen" />
		<tag k="natural" v="valley" />
		<tag k="place" v="locality" />
		<tag k="ssr:stedsnr" v="250550" />
	</node>
	<node lat="60.5134972232886" lon="8.293083336993105" id="-16692">
		<tag k="name" v="Lomrehøgde" />
		<tag k="natural" v="hill" />
		<tag k="place" v="locality" />
		<tag k="ssr:stedsnr" v="118657" />
	</node>
	<node lat="60.40445555363654" lon="8.395080554438906" id="-16696">
		<tag k="fixme" v="consider natural=peak for the most distinct mountains in the district" />
		<tag k="name" v="Heimåsen" />
		<tag k="natural" v="hill" />
		<tag k="place" v="locality" />
		<tag k="ssr:stedsnr" v="119420" />
	</node>
	<node lat="60.49863610938999" lon="8.109658341947695" id="-16698">
		<tag k="name" v="Bekreholtnuten" />
		<tag k="natural" v="hill" />
		<tag k="place" v="locality" />
		<tag k="ssr:stedsnr" v="119823" />
	</node>
	<node lat="60.76410236897514" lon="7.763778409637705" id="-16707">
		<tag k="fixme" v="consider natural=peak for the most distinct mountains in the district" />
		<tag k="name" v="Volanuten" />
		<tag k="natural" v="hill" />
		<tag k="place" v="locality" />
		<tag k="ssr:stedsnr" v="251566" />
	</node>
	<node lat="60.420277780874805" lon="8.437825005239675" id="-16710">
		<tag k="name" v="Storhovda" />
		<tag k="natural" v="hill" />
		<tag k="place" v="locality" />
		<tag k="ssr:stedsnr" v="126121" />
	</node>
	<node lat="60.43033333023227" lon="8.333144443899279" id="-16711">
		<tag k="name" v="Glitreberget" />
		<tag k="natural" v="hill" />
		<tag k="place" v="locality" />
		<tag k="ssr:stedsnr" v="126123" />
	</node>
	<node lat="60.417538885751725" lon="8.371666674052275" id="-16712">
		<tag k="name" v="Grotdalen" />
		<tag k="natural" v="valley" />
		<tag k="place" v="locality" />
		<tag k="ssr:stedsnr" v="126127" />
	</node>
	<node lat="60.39543333304568" lon="8.324241672120962" id="-16717">
		<tag k="alt_name" v="Simonseternutan" />
		<tag k="fixme" v="consider natural=peak for the most distinct mountains in the district" />
		<tag k="name" v="Simonsæternutane" />
		<tag k="natural" v="hill" />
		<tag k="old_name" v="Simonseternutanne" />
		<tag k="place" v="locality" />
		<tag k="ssr:stedsnr" v="126150" />
	</node>
	<node lat="60.41668332984985" lon="8.431349992774878" id="-16718">
		<tag k="name" v="Åsbergberget" />
		<tag k="natural" v="hill" />
		<tag k="place" v="locality" />
		<tag k="ssr:stedsnr" v="126165" />
	</node>
	<node lat="60.659330558839734" lon="7.776691661578401" id="-16733">
		<tag k="name" v="Resestølskuta" />
		<tag k="natural" v="hill" />
		<tag k="place" v="locality" />
		<tag k="ssr:stedsnr" v="128311" />
	</node>
	<node lat="60.785013889369864" lon="7.928005546926457" id="-16745">
		<tag k="fixme" v="consider natural=peak for the most distinct mountains in the district" />
		<tag k="name" v="Grevskardnuten" />
		<tag k="natural" v="hill" />
		<tag k="place" v="locality" />
		<tag k="ssr:stedsnr" v="129731" />
	</node>
	<node lat="60.667516663572115" lon="7.800452771737569" id="-16752">
		<tag k="name" v="Sleaskaret" />
		<tag k="natural" v="valley" />
		<tag k="place" v="locality" />
		<tag k="ssr:stedsnr" v="163510" />
	</node>
	<node lat="60.60460000026491" lon="8.314177782753893" id="-16755">
		<tag k="name" v="Grønlie" />
		<tag k="natural" v="slope" />
		<tag k="place" v="locality" />
		<tag k="ssr:stedsnr" v="163673" />
	</node>
	<node lat="60.47814166428786" lon="8.058297218096412" id="-16756">
		<tag k="name" v="Karihovda" />
		<tag k="natural" v="hill" />
		<tag k="place" v="locality" />
		<tag k="ssr:stedsnr" v="163809" />
	</node>
	<node lat="60.63888333299818" lon="8.346941660618267" id="-16759">
		<tag k="name" v="Belvafet" />
		<tag k="place" v="locality" />
		<tag k="ssr:stedsnr" v="177014" />
	</node>
	<node lat="60.522877781395906" lon="8.165030552523024" id="-16760">
		<tag k="name" v="Steinhaugen" />
		<tag k="natural" v="hill" />
		<tag k="place" v="locality" />
		<tag k="ssr:stedsnr" v="177603" />
	</node>
	<node lat="60.68312222327304" lon="7.999347222119363" id="-16762">
		<tag k="name" v="Snehallene" />
		<tag k="natural" v="slope" />
		<tag k="place" v="locality" />
		<tag k="ssr:stedsnr" v="177764" />
	</node>
	<node lat="60.56120277778593" lon="8.25171666922322" id="-16768">
		<tag k="name" v="Hellebergi" />
		<tag k="natural" v="hill" />
		<tag k="place" v="locality" />
		<tag k="ssr:stedsnr" v="180270" />
	</node>
	<node lat="60.6154611153464" lon="8.267836108722967" id="-16771">
		<tag k="name" v="Kvamshaugen" />
		<tag k="natural" v="valley" />
		<tag k="place" v="locality" />
		<tag k="ssr:stedsnr" v="180969" />
	</node>
	<node lat="60.58514722165225" lon="8.321980551118495" id="-16774">
		<tag k="name" v="Hamaren" />
		<tag k="place" v="locality" />
		<tag k="ssr:stedsnr" v="180978" />
	</node>
	<node lat="60.425480557560114" lon="8.384336113687288" id="-16775">
		<tag k="alt_name" v="Roahøvda" />
		<tag k="name" v="Roehovda" />
		<tag k="natural" v="hill" />
		<tag k="place" v="locality" />
		<tag k="ssr:stedsnr" v="187127" />
	</node>
	<node lat="60.37607500204176" lon="7.815097228182454" id="-16779">
		<tag k="fixme" v="consider natural=peak for the most distinct mountains in the district" />
		<tag k="name" v="Melrakkhovda" />
		<tag k="natural" v="hill" />
		<tag k="place" v="locality" />
		<tag k="ssr:stedsnr" v="187772" />
	</node>
	<node lat="60.492797219553786" lon="8.0911249956084" id="-16782">
		<tag k="name" v="Rennedalen" />
		<tag k="natural" v="valley" />
		<tag k="place" v="locality" />
		<tag k="ssr:stedsnr" v="187982" />
	</node>
	<node lat="60.5305749990295" lon="8.01223055916754" id="-16787">
		<tag k="alt_name" v="Storhalline" />
		<tag k="name" v="Storhallin" />
		<tag k="natural" v="slope" />
		<tag k="place" v="locality" />
		<tag k="ssr:stedsnr" v="189376" />
	</node>
	<node lat="60.61215000420865" lon="8.067586109503372" id="-16799">
		<tag k="name" v="Ørneberget" />
		<tag k="natural" v="hill" />
		<tag k="place" v="locality" />
		<tag k="ssr:stedsnr" v="189413" />
	</node>
	<node lat="60.50311605809794" lon="8.056835160327548" id="-16800">
		<tag k="fixme" v="consider natural=peak for the most distinct mountains in the district" />
		<tag k="name" v="Skuggelen" />
		<tag k="natural" v="hill" />
		<tag k="place" v="locality" />
		<tag k="ssr:stedsnr" v="189417" />
	</node>
	<node lat="60.544027773393566" lon="8.228469435870322" id="-16805">
		<tag k="name" v="Geilomoen" />
		<tag k="place" v="locality" />
		<tag k="ssr:stedsnr" v="189688" />
	</node>
	<node lat="60.50677222490015" lon="8.169705553165864" id="-16810">
		<tag k="name" v="Natten" />
		<tag k="natural" v="hill" />
		<tag k="place" v="locality" />
		<tag k="ssr:stedsnr" v="189766" />
	</node>
	<node lat="60.51702221818319" lon="8.121502774763858" id="-16812">
		<tag k="name" v="Storhovda" />
		<tag k="natural" v="hill" />
		<tag k="place" v="locality" />
		<tag k="ssr:stedsnr" v="221793" />
	</node>
	<node lat="60.61168333746116" lon="8.416486119979858" id="-16822">
		<tag k="name" v="Steinhushaugen" />
		<tag k="natural" v="hill" />
		<tag k="place" v="locality" />
		<tag k="ssr:stedsnr" v="224511" />
	</node>
	<node lat="60.61708333496344" lon="8.405136114358157" id="-16823">
		<tag k="name" v="Urehovda" />
		<tag k="natural" v="hill" />
		<tag k="place" v="locality" />
		<tag k="ssr:stedsnr" v="224540" />
	</node>
	<node lat="60.47896944504576" lon="8.064694437273458" id="-16826">
		<tag k="name" v="Øyestølranden" />
		<tag k="natural" v="ridge" />
		<tag k="place" v="locality" />
		<tag k="ssr:stedsnr" v="224804" />
	</node>
	<node lat="60.580986110791" lon="8.147141659232103" id="-16829">
		<tag k="name" v="Svarteberg" />
		<tag k="natural" v="hill" />
		<tag k="place" v="locality" />
		<tag k="ssr:stedsnr" v="237085" />
	</node>
	<node lat="60.40323332927009" lon="8.315024993512019" id="-16830">
		<tag k="name" v="Ormehøvda" />
		<tag k="natural" v="hill" />
		<tag k="place" v="locality" />
		<tag k="ssr:stedsnr" v="237383" />
	</node>
	<node lat="60.62861388957034" lon="8.097066667556485" id="-16831">
		<tag k="name" v="Urundlie" />
		<tag k="natural" v="slope" />
		<tag k="place" v="locality" />
		<tag k="ssr:stedsnr" v="238438" />
	</node>
	<node lat="60.527836108176665" lon="8.16120278420138" id="-16832">
		<tag k="name" v="Kvednhushaugane" />
		<tag k="natural" v="ridge" />
		<tag k="place" v="locality" />
		<tag k="ssr:stedsnr" v="238638" />
	</node>
	<node lat="60.54531110844569" lon="8.342577768830589" id="-16835">
		<tag k="name" v="Birgitstøllia" />
		<tag k="natural" v="slope" />
		<tag k="place" v="locality" />
		<tag k="ssr:stedsnr" v="239820" />
	</node>
	<node lat="60.38781944332749" lon="8.382016659992829" id="-16844">
		<tag k="name" v="Smiuhovda" />
		<tag k="natural" v="hill" />
		<tag k="place" v="locality" />
		<tag k="ssr:stedsnr" v="248205" />
	</node>
	<node lat="60.38916944844319" lon="8.43915833156029" id="-16847">
		<tag k="name" v="Perstølbonden" />
		<tag k="place" v="locality" />
		<tag k="ssr:stedsnr" v="248160" />
	</node>
	<node lat="60.441133335068024" lon="8.489108328810898" id="-16852">
		<tag k="name" v="Toresbuhøgdin" />
		<tag k="natural" v="hill" />
		<tag k="place" v="locality" />
		<tag k="ssr:stedsnr" v="249120" />
	</node>
	<node lat="60.50791111513309" lon="8.119255549675033" id="-16857">
		<tag k="name" v="Eirikstøldalen" />
		<tag k="natural" v="valley" />
		<tag k="place" v="locality" />
		<tag k="ssr:stedsnr" v="282802" />
	</node>
	<node lat="60.48982499917046" lon="8.077577770180357" id="-16859">
		<tag k="name" v="Rennedalhovda" />
		<tag k="natural" v="hill" />
		<tag k="place" v="locality" />
		<tag k="ssr:stedsnr" v="282787" />
	</node>
	<node lat="60.564891666630665" lon="8.143955564530604" id="-16863">
		<tag k="name" v="Storekrokhaugane" />
		<tag k="natural" v="ridge" />
		<tag k="place" v="locality" />
		<tag k="ssr:stedsnr" v="284089" />
	</node>
	<node lat="60.557205554247176" lon="8.106625006278255" id="-16864">
		<tag k="name" v="Budalsskarvranden" />
		<tag k="natural" v="ridge" />
		<tag k="place" v="locality" />
		<tag k="ssr:stedsnr" v="284093" />
	</node>
	<node lat="60.42179722520877" lon="8.460300002945168" id="-16866">
		<tag k="name" v="Hallandsberget" />
		<tag k="natural" v="hill" />
		<tag k="place" v="locality" />
		<tag k="ssr:stedsnr" v="284590" />
	</node>
	<node lat="60.67698055735031" lon="8.111544451405521" id="-16869">
		<tag k="name" v="Økle" />
		<tag k="natural" v="hill" />
		<tag k="place" v="locality" />
		<tag k="ssr:stedsnr" v="285411" />
	</node>
	<node lat="60.594361107434864" lon="8.329638888894985" id="-16874">
		<tag k="name" v="Kjerringvelta" />
		<tag k="natural" v="slope" />
		<tag k="place" v="locality" />
		<tag k="ssr:stedsnr" v="299144" />
	</node>
	<node lat="60.54911110968008" lon="8.228586110489658" id="-16875">
		<tag k="name" v="Dokken" />
		<tag k="natural" v="slope" />
		<tag k="place" v="locality" />
		<tag k="ssr:stedsnr" v="300474" />
	</node>
	<node lat="60.65731666977963" lon="8.045002772491507" id="-16878">
		<tag k="name" v="Haradalsbergi" />
		<tag k="natural" v="hill" />
		<tag k="place" v="locality" />
		<tag k="ssr:stedsnr" v="464084" />
	</node>
	<node lat="60.39071110675917" lon="8.183600005809835" id="-16886">
		<tag k="fixme" v="consider natural=peak for the most distinct mountains in the district" />
		<tag k="name" v="Dritarsteinranden" />
		<tag k="natural" v="hill" />
		<tag k="place" v="locality" />
		<tag k="ssr:stedsnr" v="308144" />
	</node>
	<node lat="60.48527500213678" lon="8.469608331496067" id="-16890">
		<tag k="name" v="Ørnekulten" />
		<tag k="natural" v="hill" />
		<tag k="place" v="locality" />
		<tag k="ssr:stedsnr" v="309091" />
	</node>
	<node lat="60.741125003272266" lon="8.072544447318021" id="-16893">
		<tag k="alt_name" v="Ørnehøgdi, søre" />
		<tag k="name" v="Søre Ørnehøgdi" />
		<tag k="natural" v="hill" />
		<tag k="place" v="locality" />
		<tag k="ssr:stedsnr" v="310235" />
	</node>
	<node lat="60.635250000832734" lon="7.688949991166144" id="-16896">
		<tag k="fixme" v="consider natural=peak for the most distinct mountains in the district" />
		<tag k="name" v="Ljøtebotnberget" />
		<tag k="natural" v="hill" />
		<tag k="place" v="locality" />
		<tag k="ssr:stedsnr" v="310185" />
	</node>
	<node lat="60.69167500043539" lon="7.627075001829361" id="-16897">
		<tag k="name" v="Kittilsbuflaten" />
		<tag k="place" v="locality" />
		<tag k="ssr:stedsnr" v="310201" />
	</node>
	<node lat="60.652783329515024" lon="8.062825007985463" id="-16902">
		<tag k="fixme" v="consider natural=peak for the most distinct mountains in the district" />
		<tag k="name" v="Sudndalsåsen" />
		<tag k="natural" v="hill" />
		<tag k="place" v="locality" />
		<tag k="ssr:stedsnr" v="310430" />
	</node>
	<node lat="60.62898055507764" lon="7.890430555871045" id="-16903">
		<tag k="fixme" v="consider natural=peak for the most distinct mountains in the district" />
		<tag k="name" v="Vesleskuta" />
		<tag k="natural" v="hill" />
		<tag k="place" v="locality" />
		<tag k="ssr:stedsnr" v="310438" />
	</node>
	<node lat="60.50923889221796" lon="8.012508325929343" id="-16919">
		<tag k="alt_name" v="Lortholhøgdi" />
		<tag k="name" v="Lorthølhøgde" />
		<tag k="natural" v="hill" />
		<tag k="place" v="locality" />
		<tag k="ssr:stedsnr" v="310503" />
	</node>
	<node lat="60.50850555380433" lon="7.995938880711027" id="-16921">
		<tag k="alt_name" v="Høgde" />
		<tag k="name" v="Høgdi" />
		<tag k="natural" v="hill" />
		<tag k="place" v="locality" />
		<tag k="ssr:stedsnr" v="310505" />
	</node>
	<node lat="60.53820833640049" lon="8.137258333331076" id="-16922">
		<tag k="name" v="Urundberget" />
		<tag k="natural" v="hill" />
		<tag k="place" v="locality" />
		<tag k="ssr:stedsnr" v="310728" />
	</node>
	<node lat="60.529688892394155" lon="8.134697216223715" id="-16928">
		<tag k="name" v="Tuftelie" />
		<tag k="natural" v="slope" />
		<tag k="place" v="locality" />
		<tag k="ssr:stedsnr" v="466149" />
	</node>
	<node lat="60.52368333301407" lon="8.137755563950996" id="-16929">
		<tag k="name" v="Veslestølberget" />
		<tag k="natural" v="hill" />
		<tag k="place" v="locality" />
		<tag k="ssr:stedsnr" v="466259" />
	</node>
	<node lat="60.61732777872904" lon="8.409552781053781" id="-16936">
		<tag k="name" v="Øyestølhovda" />
		<tag k="natural" v="hill" />
		<tag k="place" v="locality" />
		<tag k="ssr:stedsnr" v="466588" />
	</node>
	<node lat="60.468741664024684" lon="8.169130559527026" id="-16937">
		<tag k="name" v="Ragnhilddokk" />
		<tag k="natural" v="valley" />
		<tag k="place" v="locality" />
		<tag k="ssr:stedsnr" v="466821" />
	</node>
	<node lat="60.47327222360356" lon="8.133888887390583" id="-16942">
		<tag k="name" v="Grønebakken" />
		<tag k="natural" v="slope" />
		<tag k="place" v="locality" />
		<tag k="ssr:stedsnr" v="324091" />
	</node>
	<node lat="60.72948333288303" lon="7.769705561065522" id="-16944">
		<tag k="name" v="Vardahovd" />
		<tag k="natural" v="hill" />
		<tag k="place" v="locality" />
		<tag k="ssr:stedsnr" v="342241" />
	</node>
	<node lat="60.52165278054468" lon="8.037488883729726" id="-16945">
		<tag k="name" v="Mjølhaugane" />
		<tag k="natural" v="hill" />
		<tag k="place" v="locality" />
		<tag k="ssr:stedsnr" v="342193" />
	</node>
	<node lat="60.51536389147147" lon="7.926424991302923" id="-16957">
		<tag k="name" v="Karistølbotn" />
		<tag k="place" v="locality" />
		<tag k="ssr:stedsnr" v="359663" />
	</node>
	<node lat="60.44015555948362" lon="8.367361108386936" id="-16962">
		<tag k="name" v="Halvorsstølhovda" />
		<tag k="natural" v="hill" />
		<tag k="place" v="locality" />
		<tag k="ssr:stedsnr" v="369122" />
	</node>
	<node lat="60.58064166811546" lon="8.190058329846558" id="-16970">
		<tag k="name" v="Nystølen" />
		<tag k="natural" v="valley" />
		<tag k="place" v="locality" />
		<tag k="ssr:stedsnr" v="479177" />
	</node>
	<node lat="60.55451389094224" lon="8.168172223970815" id="-16977">
		<tag k="name" v="Økle" />
		<tag k="natural" v="hill" />
		<tag k="place" v="locality" />
		<tag k="ssr:stedsnr" v="479133" />
	</node>
	<node lat="60.56133611399807" lon="8.15940555021488" id="-16978">
		<tag k="name" v="Krokhaugane" />
		<tag k="natural" v="ridge" />
		<tag k="place" v="locality" />
		<tag k="ssr:stedsnr" v="479135" />
	</node>
	<node lat="60.72785000444303" lon="7.70027499397642" id="-16982">
		<tag k="name" v="Hestebotn" />
		<tag k="natural" v="valley" />
		<tag k="place" v="locality" />
		<tag k="ssr:stedsnr" v="371217" />
	</node>
	<node lat="60.60405833398485" lon="8.05832222572226" id="-16986">
		<tag k="name" v="Nuten" />
		<tag k="natural" v="hill" />
		<tag k="place" v="locality" />
		<tag k="ssr:stedsnr" v="371367" />
	</node>
	<node lat="60.539200000612745" lon="7.8532638802171455" id="-16987">
		<tag k="name" v="Grønehallet" />
		<tag k="natural" v="slope" />
		<tag k="place" v="locality" />
		<tag k="ssr:stedsnr" v="371373" />
	</node>
	<node lat="60.64785555316422" lon="8.203183335585187" id="-16999">
		<tag k="fixme" v="consider natural=peak for the most distinct mountains in the district" />
		<tag k="name" v="Kalveskallen" />
		<tag k="natural" v="hill" />
		<tag k="place" v="locality" />
		<tag k="ssr:stedsnr" v="371561" />
	</node>
	<node lat="60.5322277816448" lon="8.324255555137274" id="-17008">
		<tag k="name" v="Storestølhovda" />
		<tag k="natural" v="hill" />
		<tag k="place" v="locality" />
		<tag k="ssr:stedsnr" v="481700" />
	</node>
	<node lat="60.59090555228275" lon="8.405908329464715" id="-17012">
		<tag k="name" v="Heimstølbergi" />
		<tag k="natural" v="hill" />
		<tag k="place" v="locality" />
		<tag k="ssr:stedsnr" v="483081" />
	</node>
	<node lat="60.62120833769251" lon="8.226297225031066" id="-17020">
		<tag k="name" v="Brattåksbakkane" />
		<tag k="natural" v="slope" />
		<tag k="place" v="locality" />
		<tag k="ssr:stedsnr" v="483986" />
	</node>
	<node lat="60.41899999742054" lon="8.343311112371703" id="-17026">
		<tag k="name" v="Høvdoberget" />
		<tag k="natural" v="hill" />
		<tag k="place" v="locality" />
		<tag k="ssr:stedsnr" v="404508" />
	</node>
	<node lat="60.738750000119275" lon="8.080219437146255" id="-17027">
		<tag k="name" v="Ørnehovdune" />
		<tag k="natural" v="hill" />
		<tag k="place" v="locality" />
		<tag k="ssr:stedsnr" v="405438" />
	</node>
	<node lat="60.69028611551558" lon="7.993391675127107" id="-17031">
		<tag k="name" v="Storesteindalane" />
		<tag k="natural" v="valley" />
		<tag k="place" v="locality" />
		<tag k="ssr:stedsnr" v="420749" />
	</node>
	<node lat="60.633997222625595" lon="8.33954722113202" id="-17037">
		<tag k="name" v="Langemyrbrøtet" />
		<tag k="natural" v="hill" />
		<tag k="place" v="locality" />
		<tag k="ssr:stedsnr" v="423852" />
	</node>
	<node lat="60.44359444711779" lon="7.927297221667819" id="-17041">
		<tag k="fixme" v="consider natural=peak for the most distinct mountains in the district" />
		<tag k="name" v="Monsbuhæe" />
		<tag k="natural" v="hill" />
		<tag k="place" v="locality" />
		<tag k="ssr:stedsnr" v="490954" />
	</node>
	<node lat="60.40775000253988" lon="8.37748332998827" id="-17051">
		<tag k="fixme" v="consider natural=peak for the most distinct mountains in the district" />
		<tag k="name" v="Heimåsen" />
		<tag k="natural" v="hill" />
		<tag k="place" v="locality" />
		<tag k="ssr:stedsnr" v="430166" />
	</node>
	<node lat="60.45777499896251" lon="7.7458999989068476" id="-17056">
		<tag k="fixme" v="consider natural=peak for the most distinct mountains in the district" />
		<tag k="name" v="Svonuten" />
		<tag k="natural" v="hill" />
		<tag k="place" v="locality" />
		<tag k="ssr:stedsnr" v="490995" />
	</node>
	<node lat="60.40744999930938" lon="7.741449997904336" id="-17057">
		<tag k="fixme" v="consider natural=peak for the most distinct mountains in the district" />
		<tag k="name" v="Midnuten" />
		<tag k="natural" v="hill" />
		<tag k="place" v="locality" />
		<tag k="ssr:stedsnr" v="490969" />
	</node>
	<node lat="60.4543999990246" lon="7.78604721810629" id="-17060">
		<tag k="fixme" v="consider natural=peak for the most distinct mountains in the district" />
		<tag k="name" v="Kristennuten" />
		<tag k="natural" v="hill" />
		<tag k="place" v="locality" />
		<tag k="ssr:stedsnr" v="430945" />
	</node>
	<node lat="60.47247222516595" lon="7.841497215686034" id="-17062">
		<tag k="name" v="Varden" />
		<tag k="natural" v="hill" />
		<tag k="place" v="locality" />
		<tag k="ssr:stedsnr" v="430996" />
	</node>
	<node lat="60.649513893056145" lon="7.748238895786668" id="-17066">
		<tag k="name" v="Urdebotn" />
		<tag k="natural" v="valley" />
		<tag k="place" v="locality" />
		<tag k="ssr:stedsnr" v="431361" />
	</node>
	<node lat="60.73586111044291" lon="7.770827784414297" id="-17069">
		<tag k="fixme" v="consider natural=peak for the most distinct mountains in the district" />
		<tag k="name" v="Tyrvlesnuten" />
		<tag k="natural" v="hill" />
		<tag k="place" v="locality" />
		<tag k="ssr:stedsnr" v="432240" />
	</node>
	<node lat="60.63596111102089" lon="8.042577772448674" id="-17071">
		<tag k="name" v="Holmeslåtta" />
		<tag k="natural" v="slope" />
		<tag k="place" v="locality" />
		<tag k="ssr:stedsnr" v="432409" />
	</node>
	<node lat="60.61463889114575" lon="7.896591665156373" id="-17073">
		<tag k="name" v="Grogardnibben" />
		<tag k="natural" v="hill" />
		<tag k="place" v="locality" />
		<tag k="ssr:stedsnr" v="432414" />
	</node>
	<node lat="60.663561106809354" lon="7.945425004494624" id="-17074">
		<tag k="name" v="Gurostølnøse" />
		<tag k="natural" v="hill" />
		<tag k="place" v="locality" />
		<tag k="ssr:stedsnr" v="432302" />
	</node>
	<node lat="60.53602777940742" lon="8.302158334250851" id="-17084">
		<tag k="fixme" v="consider natural=peak for the most distinct mountains in the district" />
		<tag k="name" v="Bjørkehovda" />
		<tag k="natural" v="hill" />
		<tag k="place" v="locality" />
		<tag k="ssr:stedsnr" v="432894" />
	</node>
	<node lat="60.48715000372342" lon="8.166619439101757" id="-17090">
		<tag k="alt_name" v="Birgithøvda" />
		<tag k="name" v="Birgithovda" />
		<tag k="natural" v="hill" />
		<tag k="place" v="locality" />
		<tag k="ssr:stedsnr" v="491849" />
	</node>
	<node lat="60.64422499737317" lon="7.620875008353033" id="-17092">
		<tag k="name" v="Kyrkjedøri" />
		<tag k="natural" v="valley" />
		<tag k="place" v="locality" />
		<tag k="ssr:stedsnr" v="492153" />
	</node>
	<node lat="60.723305552256825" lon="7.74103055067508" id="-17093">
		<tag k="name" v="Skriunøse" />
		<tag k="natural" v="hill" />
		<tag k="place" v="locality" />
		<tag k="ssr:stedsnr" v="492247" />
	</node>
	<node lat="60.73954722477899" lon="7.788411107964432" id="-17095">
		<tag k="name" v="Tyrvlesbotnane" />
		<tag k="natural" v="valley" />
		<tag k="place" v="locality" />
		<tag k="ssr:stedsnr" v="492216" />
	</node>
	<node lat="60.69411944789565" lon="8.195188895695003" id="-17101">
		<tag k="fixme" v="consider natural=peak for the most distinct mountains in the district" />
		<tag k="loc_name" v="Mjellshovda" />
		<tag k="name" v="Mjelshovda" />
		<tag k="natural" v="hill" />
		<tag k="place" v="locality" />
		<tag k="ssr:stedsnr" v="492466" />
	</node>
	<node lat="60.5896444481516" lon="8.27057222411259" id="-17107">
		<tag k="fixme" v="consider natural=peak for the most distinct mountains in the district" />
		<tag k="loc_name" v="Ådnnakk;Odnakk" />
		<tag k="name" v="Oddnakk" />
		<tag k="natural" v="hill" />
		<tag k="place" v="locality" />
		<tag k="ssr:stedsnr" v="492636" />
	</node>
	<node lat="60.779649997305775" lon="7.99815000702722" id="-17114">
		<tag k="fixme" v="consider natural=peak for the most distinct mountains in the district" />
		<tag k="name" v="Bjørnsennuten" />
		<tag k="natural" v="hill" />
		<tag k="place" v="locality" />
		<tag k="ssr:stedsnr" v="493543" />
	</node>
	<node lat="60.77598888952014" lon="7.888258326325858" id="-17117">
		<tag k="fixme" v="consider natural=peak for the most distinct mountains in the district" />
		<tag k="name" v="Stolsbergi" />
		<tag k="natural" v="hill" />
		<tag k="place" v="locality" />
		<tag k="ssr:stedsnr" v="493735" />
	</node>
	<node lat="60.446175001128545" lon="8.580249994199793" id="-17119">
		<tag k="name" v="Løstekulten" />
		<tag k="natural" v="hill" />
		<tag k="place" v="locality" />
		<tag k="ssr:stedsnr" v="552078" />
	</node>
	<node lat="60.80946666400132" lon="7.881916658409615" id="-17120">
		<tag k="name" v="Eivindbotn" />
		<tag k="natural" v="valley" />
		<tag k="place" v="locality" />
		<tag k="ssr:stedsnr" v="494656" />
	</node>
	<node lat="60.3858333290153" lon="8.435750003483507" id="-17128">
		<tag k="fixme" v="consider natural=peak for the most distinct mountains in the district" />
		<tag k="name" v="Perstulhovda" />
		<tag k="natural" v="hill" />
		<tag k="place" v="locality" />
		<tag k="ssr:stedsnr" v="672193" />
	</node>
	<node lat="60.48020833619181" lon="8.228730558430533" id="-17138">
		<tag k="alt_name" v="Ørneberg" />
		<tag k="name" v="Ørneberget" />
		<tag k="natural" v="hill" />
		<tag k="place" v="locality" />
		<tag k="ssr:stedsnr" v="673855" />
	</node>
	<node lat="60.61282500022022" lon="7.666247216214875" id="-17140">
		<tag k="fixme" v="consider natural=peak for the most distinct mountains in the district" />
		<tag k="name" v="Hallingskarvet" />
		<tag k="natural" v="hill" />
		<tag k="place" v="locality" />
		<tag k="ssr:stedsnr" v="674286" />
	</node>
	<node lat="60.67689999612571" lon="7.596275008949658" id="-17141">
		<tag k="fixme" v="consider natural=peak for the most distinct mountains in the district" />
		<tag k="loc_name" v="Storfonnøse" />
		<tag k="name" v="Storfonnosi" />
		<tag k="natural" v="hill" />
		<tag k="place" v="locality" />
		<tag k="ssr:stedsnr" v="674209" />
	</node>
	<node lat="60.67332500373132" lon="7.499675004277023" id="-17142">
		<tag k="name" v="Omnsbakkane" />
		<tag k="natural" v="slope" />
		<tag k="place" v="locality" />
		<tag k="ssr:stedsnr" v="674212" />
	</node>
	<node lat="60.58319999868121" lon="8.025099996426606" id="-17147">
		<tag k="name" v="Såtebotn" />
		<tag k="natural" v="valley" />
		<tag k="place" v="locality" />
		<tag k="ssr:stedsnr" v="674364" />
	</node>
	<node lat="60.55296944452431" lon="7.732366673859822" id="-17148">
		<tag k="fixme" v="consider natural=peak for the most distinct mountains in the district" />
		<tag k="name" v="Gråskallen" />
		<tag k="natural" v="hill" />
		<tag k="place" v="locality" />
		<tag k="ssr:stedsnr" v="674372" />
	</node>
	<node lat="60.63385555971513" lon="7.904363886396641" id="-17150">
		<tag k="name" v="Byrkjedalen" />
		<tag k="natural" v="valley" />
		<tag k="place" v="locality" />
		<tag k="ssr:stedsnr" v="674391" />
	</node>
	<node lat="60.63914444483663" lon="8.006175005956063" id="-17151">
		<tag k="alt_name" v="Vardhovda" />
		<tag k="name" v="Vardahovda" />
		<tag k="natural" v="hill" />
		<tag k="place" v="locality" />
		<tag k="ssr:stedsnr" v="674394" />
	</node>
	<node lat="60.62386389234294" lon="8.084438896575588" id="-17153">
		<tag k="name" v="Brynuten" />
		<tag k="natural" v="hill" />
		<tag k="place" v="locality" />
		<tag k="ssr:stedsnr" v="674400" />
	</node>
	<node lat="60.692808335294025" lon="8.09792221791259" id="-17159">
		<tag k="alt_name" v="Goddalane" />
		<tag k="name" v="Goddalen" />
		<tag k="natural" v="valley" />
		<tag k="place" v="locality" />
		<tag k="ssr:stedsnr" v="674498" />
	</node>
	<node lat="60.656527776981484" lon="8.241622219697058" id="-17160">
		<tag k="fixme" v="consider natural=peak for the most distinct mountains in the district" />
		<tag k="name" v="Varaldsetfjellet" />
		<tag k="natural" v="hill" />
		<tag k="place" v="locality" />
		<tag k="ssr:stedsnr" v="674582" />
	</node>
	<node lat="60.60980833254071" lon="8.253752779927288" id="-17164">
		<tag k="name" v="Osebergi" />
		<tag k="natural" v="hill" />
		<tag k="place" v="locality" />
		<tag k="ssr:stedsnr" v="674682" />
	</node>
	<node lat="60.60921667096492" lon="8.180391664228708" id="-17165">
		<tag k="fixme" v="consider natural=peak for the most distinct mountains in the district" />
		<tag k="name" v="Villandsnipen" />
		<tag k="natural" v="hill" />
		<tag k="place" v="locality" />
		<tag k="ssr:stedsnr" v="674640" />
	</node>
	<node lat="60.53862499692122" lon="8.17495833742636" id="-17167">
		<tag k="fixme" v="consider natural=peak for the most distinct mountains in the district" />
		<tag k="name" v="Gullsteinhovda" />
		<tag k="natural" v="hill" />
		<tag k="place" v="locality" />
		<tag k="ssr:stedsnr" v="674729" />
	</node>
	<node lat="60.55935277999253" lon="8.331605552183227" id="-17169">
		<tag k="fixme" v="consider natural=peak for the most distinct mountains in the district" />
		<tag k="name" v="Bergastølhovda" />
		<tag k="natural" v="hill" />
		<tag k="place" v="locality" />
		<tag k="ssr:stedsnr" v="674746" />
	</node>
	<node lat="60.71884722393256" lon="7.8398722264603515" id="-17170">
		<tag k="name" v="Hyllune" />
		<tag k="place" v="locality" />
		<tag k="ssr:stedsnr" v="466070" />
	</node>
	<node lat="60.58271944749334" lon="7.682911102145381" id="-17181">
		<tag k="name" v="Lengjedalen" />
		<tag k="natural" v="valley" />
		<tag k="place" v="locality" />
		<tag k="ssr:stedsnr" v="675336" />
	</node>
	<node lat="60.643425000562516" lon="8.269997214787052" id="-17183">
		<tag k="fixme" v="consider natural=peak for the most distinct mountains in the district" />
		<tag k="name" v="Nysetfjellet" />
		<tag k="natural" v="hill" />
		<tag k="place" v="locality" />
		<tag k="ssr:stedsnr" v="675577" />
	</node>
	<node lat="60.40424999808942" lon="7.760722224772422" id="-17189">
		<tag k="name" v="Halnetunga" />
		<tag k="natural" v="hill" />
		<tag k="place" v="locality" />
		<tag k="ssr:stedsnr" v="733945" />
	</node>
	<node lat="60.6990249996929" lon="8.150630553029758" id="-17191">
		<tag k="name" v="Djupskarnuten" />
		<tag k="natural" v="slope" />
		<tag k="place" v="locality" />
		<tag k="ssr:stedsnr" v="480207" />
	</node>
	<node lat="60.627297220339074" lon="8.381919448789768" id="-17192">
		<tag k="name" v="Dansarberget" />
		<tag k="natural" v="hill" />
		<tag k="place" v="locality" />
		<tag k="ssr:stedsnr" v="480411" />
	</node>
	<node lat="60.51834166881633" lon="7.948622224513116" id="-17195">
		<tag k="name" v="Åkerstølhallin" />
		<tag k="natural" v="slope" />
		<tag k="place" v="locality" />
		<tag k="ssr:stedsnr" v="480665" />
	</node>
	<node lat="60.519977773994434" lon="8.297788883775068" id="-17197">
		<tag k="name" v="Nystølhalle" />
		<tag k="natural" v="slope" />
		<tag k="place" v="locality" />
		<tag k="ssr:stedsnr" v="481666" />
	</node>
	<node lat="60.47246944697461" lon="8.29755833296662" id="-17208">
		<tag k="name" v="Skurdalen" />
		<tag k="natural" v="valley" />
		<tag k="place" v="locality" />
		<tag k="ssr:stedsnr" v="490836" />
	</node>
	<node lat="60.45479722673302" lon="7.869025008738047" id="-17210">
		<tag k="fixme" v="consider natural=peak for the most distinct mountains in the district" />
		<tag k="name" v="Monsbunuten" />
		<tag k="natural" v="hill" />
		<tag k="place" v="locality" />
		<tag k="ssr:stedsnr" v="490933" />
	</node>
	<node lat="60.43376110966346" lon="8.51308333417047" id="-17214">
		<tag k="name" v="Bukkesteinhovda" />
		<tag k="natural" v="hill" />
		<tag k="place" v="locality" />
		<tag k="ssr:stedsnr" v="491127" />
	</node>
	<node lat="60.43681111005086" lon="8.547661110801767" id="-17215">
		<tag k="alt_name" v="Brattli" />
		<tag k="name" v="Brattelihovda" />
		<tag k="natural" v="hill" />
		<tag k="place" v="locality" />
		<tag k="ssr:stedsnr" v="491128" />
	</node>
	<node lat="60.58062499997648" lon="7.710974994972098" id="-17221">
		<tag k="name" v="Lengjedalslægret" />
		<tag k="place" v="locality" />
		<tag k="ssr:stedsnr" v="492283" />
	</node>
	<node lat="60.61005277954324" lon="7.873974993271403" id="-17224">
		<tag k="fixme" v="consider natural=peak for the most distinct mountains in the district" />
		<tag k="name" v="Storeskuta" />
		<tag k="natural" v="hill" />
		<tag k="place" v="locality" />
		<tag k="ssr:stedsnr" v="492408" />
	</node>
	<node lat="60.70864999554101" lon="7.596899995448202" id="-17225">
		<tag k="name" v="Vasshelleren" />
		<tag k="natural" v="valley" />
		<tag k="place" v="locality" />
		<tag k="ssr:stedsnr" v="492170" />
	</node>
	<node lat="60.69069999992827" lon="7.601577784678638" id="-17226">
		<tag k="fixme" v="consider natural=peak for the most distinct mountains in the district" />
		<tag k="name" v="Kittilsbunosi" />
		<tag k="natural" v="hill" />
		<tag k="place" v="locality" />
		<tag k="ssr:stedsnr" v="492172" />
	</node>
	<node lat="60.73485000329015" lon="7.613449991837354" id="-17227">
		<tag k="name" v="Rossdalen" />
		<tag k="natural" v="valley" />
		<tag k="place" v="locality" />
		<tag k="ssr:stedsnr" v="492182" />
	</node>
	<node lat="60.65746111488451" lon="7.982300007852873" id="-17228">
		<tag k="loc_name" v="Langehalle" />
		<tag k="name" v="Langehallet" />
		<tag k="natural" v="hill" />
		<tag k="place" v="locality" />
		<tag k="ssr:stedsnr" v="492303" />
	</node>
	<node lat="60.64641111527594" lon="7.96507499165952" id="-17229">
		<tag k="fixme" v="consider natural=peak for the most distinct mountains in the district" />
		<tag k="name" v="Gurostølfjellet" />
		<tag k="natural" v="hill" />
		<tag k="place" v="locality" />
		<tag k="ssr:stedsnr" v="492304" />
	</node>
	<node lat="60.538516666443996" lon="7.96089999936568" id="-17233">
		<tag k="name" v="Djuptjørnhovda" />
		<tag k="natural" v="hill" />
		<tag k="place" v="locality" />
		<tag k="ssr:stedsnr" v="492379" />
	</node>
	<node lat="60.646561112902916" lon="7.927324995015789" id="-17237">
		<tag k="fixme" v="consider natural=peak for the most distinct mountains in the district" />
		<tag k="name" v="Millomfjellet" />
		<tag k="natural" v="hill" />
		<tag k="old_name" v="Gurostølfjellet" />
		<tag k="place" v="locality" />
		<tag k="ssr:stedsnr" v="492392" />
	</node>
	<node lat="60.69138611534114" lon="8.162441667091741" id="-17239">
		<tag k="fixme" v="consider natural=peak for the most distinct mountains in the district" />
		<tag k="name" v="Nuten" />
		<tag k="natural" v="hill" />
		<tag k="place" v="locality" />
		<tag k="ssr:stedsnr" v="492513" />
	</node>
	<node lat="60.53857499661633" lon="8.165316670219346" id="-17250">
		<tag k="alt_name" v="Verpeshøvda" />
		<tag k="name" v="Verpehovda" />
		<tag k="natural" v="hill" />
		<tag k="place" v="locality" />
		<tag k="ssr:stedsnr" v="492712" />
	</node>
	<node lat="60.424202782002084" lon="8.434505554611915" id="-17257">
		<tag k="fixme" v="consider natural=peak for the most distinct mountains in the district" />
		<tag k="name" v="Snohovda" />
		<tag k="natural" v="hill" />
		<tag k="place" v="locality" />
		<tag k="ssr:stedsnr" v="506113" />
	</node>
	<node lat="60.489105558809136" lon="8.23494444737787" id="-17262">
		<tag k="name" v="Skomakarnut" />
		<tag k="natural" v="hill" />
		<tag k="place" v="locality" />
		<tag k="ssr:stedsnr" v="526787" />
	</node>
	<node lat="60.61773610913109" lon="8.412413896208605" id="-17265">
		<tag k="name" v="Geitekyrkja" />
		<tag k="natural" v="hill" />
		<tag k="place" v="locality" />
		<tag k="ssr:stedsnr" v="527572" />
	</node>
	<node lat="60.60389444623608" lon="8.393124990949572" id="-17271">
		<tag k="name" v="Bakselabakken" />
		<tag k="natural" v="slope" />
		<tag k="place" v="locality" />
		<tag k="ssr:stedsnr" v="540907" />
	</node>
	<node lat="60.40206389155268" lon="8.295538889146432" id="-17272">
		<tag k="name" v="Hytteroberget" />
		<tag k="natural" v="hill" />
		<tag k="place" v="locality" />
		<tag k="ssr:stedsnr" v="541410" />
	</node>
	<node lat="60.6359249981766" lon="8.203661109998336" id="-17274">
		<tag k="name" v="Vindåsane" />
		<tag k="natural" v="hill" />
		<tag k="place" v="locality" />
		<tag k="ssr:stedsnr" v="541808" />
	</node>
	<node lat="60.55940555144405" lon="8.242000006626306" id="-17284">
		<tag k="name" v="Hyttehovda" />
		<tag k="natural" v="hill" />
		<tag k="place" v="locality" />
		<tag k="ssr:stedsnr" v="544283" />
	</node>
	<node lat="60.56743055139013" lon="8.316441668431652" id="-17285">
		<tag k="name" v="Krabbelie" />
		<tag k="natural" v="slope" />
		<tag k="place" v="locality" />
		<tag k="ssr:stedsnr" v="544177" />
	</node>
	<node lat="60.61326111513093" lon="8.264577774128606" id="-17290">
		<tag k="name" v="Djupedalen" />
		<tag k="natural" v="valley" />
		<tag k="place" v="locality" />
		<tag k="ssr:stedsnr" v="544978" />
	</node>
	<node lat="60.462216668480536" lon="8.185697216234418" id="-17295">
		<tag k="alt_name" v="Kvanneskarberget" />
		<tag k="name" v="Kvanneskardberget" />
		<tag k="natural" v="hill" />
		<tag k="place" v="locality" />
		<tag k="ssr:stedsnr" v="551831" />
	</node>
	<node lat="60.422861109589086" lon="8.481566669616619" id="-17301">
		<tag k="alt_name" v="Rambergberget" />
		<tag k="name" v="Ramberget" />
		<tag k="natural" v="hill" />
		<tag k="place" v="locality" />
		<tag k="ssr:stedsnr" v="552111" />
	</node>
	<node lat="60.7155194449268" lon="8.00995555216508" id="-17309">
		<tag k="name" v="Rundhovd" />
		<tag k="natural" v="hill" />
		<tag k="place" v="locality" />
		<tag k="ssr:stedsnr" v="553341" />
	</node>
	<node lat="60.61948889203204" lon="8.404597216567437" id="-17318">
		<tag k="alt_name" v="Kyhovda" />
		<tag k="fixme" v="consider natural=peak for the most distinct mountains in the district" />
		<tag k="name" v="Kyrhovda" />
		<tag k="natural" v="hill" />
		<tag k="place" v="locality" />
		<tag k="ssr:stedsnr" v="553637" />
	</node>
	<node lat="60.635463893174006" lon="8.090311115020176" id="-17322">
		<tag k="name" v="Bleikihjallen" />
		<tag k="natural" v="slope" />
		<tag k="place" v="locality" />
		<tag k="ssr:stedsnr" v="585155" />
	</node>
	<node lat="60.51584166581675" lon="8.141513893878242" id="-17323">
		<tag k="name" v="Høgehaug" />
		<tag k="natural" v="hill" />
		<tag k="place" v="locality" />
		<tag k="ssr:stedsnr" v="585833" />
	</node>
	<node lat="60.73289166629123" lon="8.08354166327749" id="-17327">
		<tag k="alt_name" v="Storhovda" />
		<tag k="loc_name" v="Storehovda" />
		<tag k="name" v="Buhovd" />
		<tag k="natural" v="hill" />
		<tag k="old_name" v="Olsendnuten" />
		<tag k="place" v="locality" />
		<tag k="ssr:stedsnr" v="586292" />
	</node>
	<node lat="60.6300388876683" lon="8.295669449660528" id="-17328">
		<tag k="name" v="Grønefløtidn" />
		<tag k="natural" v="slope" />
		<tag k="place" v="locality" />
		<tag k="ssr:stedsnr" v="586502" />
	</node>
	<node lat="60.63266944493385" lon="8.30069444592605" id="-17329">
		<tag k="name" v="Leirtjødnhaugen" />
		<tag k="natural" v="hill" />
		<tag k="place" v="locality" />
		<tag k="ssr:stedsnr" v="586509" />
	</node>
	<node lat="60.53738611207087" lon="8.154886111943993" id="-17332">
		<tag k="name" v="Maradokki" />
		<tag k="place" v="locality" />
		<tag k="ssr:stedsnr" v="586694" />
	</node>
	<node lat="60.39615833753527" lon="8.318422227225401" id="-17340">
		<tag k="name" v="Mjeltelihøvda" />
		<tag k="natural" v="hill" />
		<tag k="place" v="locality" />
		<tag k="ssr:stedsnr" v="601356" />
	</node>
	<node lat="60.51066388906298" lon="8.129541664597838" id="-17348">
		<tag k="name" v="Nystølhjallane" />
		<tag k="natural" v="hill" />
		<tag k="place" v="locality" />
		<tag k="ssr:stedsnr" v="604862" />
	</node>
	<node lat="60.60179166722398" lon="8.394844444865287" id="-17349">
		<tag k="name" v="Grønebakken" />
		<tag k="natural" v="slope" />
		<tag k="place" v="locality" />
		<tag k="ssr:stedsnr" v="605117" />
	</node>
	<node lat="60.38433055300526" lon="8.290533333581127" id="-17354">
		<tag k="name" v="Nybrenna" />
		<tag k="natural" v="hill" />
		<tag k="place" v="locality" />
		<tag k="ssr:stedsnr" v="611205" />
	</node>
	<node lat="60.433147222862324" lon="8.075222221251734" id="-17359">
		<tag k="name" v="Nilsnuten" />
		<tag k="natural" v="hill" />
		<tag k="place" v="locality" />
		<tag k="ssr:stedsnr" v="611966" />
	</node>
	<node lat="60.35654444138812" lon="8.175836105352586" id="-17361">
		<tag k="fixme" v="consider natural=peak for the most distinct mountains in the district" />
		<tag k="name" v="Ryltesteinbrotet" />
		<tag k="natural" v="hill" />
		<tag k="place" v="locality" />
		<tag k="ssr:stedsnr" v="612213" />
	</node>
	<node lat="60.673008330973715" lon="8.049627773306268" id="-17366">
		<tag k="name" v="Storestølnuten" />
		<tag k="natural" v="hill" />
		<tag k="place" v="locality" />
		<tag k="ssr:stedsnr" v="613319" />
	</node>
	<node lat="60.71389167075713" lon="7.852338888750124" id="-17367">
		<tag k="name" v="Storestølbergi" />
		<tag k="natural" v="hill" />
		<tag k="place" v="locality" />
		<tag k="ssr:stedsnr" v="613266" />
	</node>
	<node lat="60.53220833256772" lon="8.024194437561567" id="-17368">
		<tag k="alt_name" v="Flein" />
		<tag k="name" v="Flæin" />
		<tag k="place" v="locality" />
		<tag k="ssr:stedsnr" v="613412" />
	</node>
	<node lat="60.518511109197114" lon="7.796161111241831" id="-17371">
		<tag k="fixme" v="consider natural=peak for the most distinct mountains in the district" />
		<tag k="name" v="Nygardnøse" />
		<tag k="natural" v="hill" />
		<tag k="place" v="locality" />
		<tag k="ssr:stedsnr" v="613484" />
	</node>
	<node lat="60.51468055255024" lon="8.08671665778921" id="-17374">
		<tag k="alt_name" v="Såbalbergi" />
		<tag k="name" v="Såbalberget" />
		<tag k="natural" v="hill" />
		<tag k="place" v="locality" />
		<tag k="ssr:stedsnr" v="613500" />
	</node>
	<node lat="60.701136115072195" lon="7.785363889300654" id="-17376">
		<tag k="fixme" v="consider natural=peak for the most distinct mountains in the district" />
		<tag k="name" v="Ynglesnøse" />
		<tag k="natural" v="hill" />
		<tag k="place" v="locality" />
		<tag k="ssr:stedsnr" v="613370" />
	</node>
	<node lat="60.81634999617577" lon="7.761425005657251" id="-17381">
		<tag k="fixme" v="consider natural=peak for the most distinct mountains in the district" />
		<tag k="name" v="Øljuhelleren" />
		<tag k="natural" v="hill" />
		<tag k="place" v="locality" />
		<tag k="ssr:stedsnr" v="615731" />
	</node>
	<node lat="60.42709444710976" lon="8.355116659962091" id="-17383">
		<tag k="fixme" v="consider natural=peak for the most distinct mountains in the district" />
		<tag k="name" v="Lauvåsen" />
		<tag k="natural" v="hill" />
		<tag k="place" v="locality" />
		<tag k="ssr:stedsnr" v="646525" />
	</node>
	<node lat="60.650177774889116" lon="7.882344444130371" id="-17386">
		<tag k="fixme" v="consider natural=peak for the most distinct mountains in the district" />
		<tag k="name" v="Bakåsen" />
		<tag k="natural" v="hill" />
		<tag k="place" v="locality" />
		<tag k="ssr:stedsnr" v="647710" />
	</node>
	<node lat="60.65035277955082" lon="7.899219444024149" id="-17388">
		<tag k="name" v="Hovda" />
		<tag k="natural" v="hill" />
		<tag k="place" v="locality" />
		<tag k="ssr:stedsnr" v="647691" />
	</node>
	<node lat="60.481255553787804" lon="8.04035833918987" id="-17397">
		<tag k="name" v="Vikastøllie" />
		<tag k="natural" v="slope" />
		<tag k="place" v="locality" />
		<tag k="ssr:stedsnr" v="648789" />
	</node>
	<node lat="60.59044166630291" lon="8.214875008606567" id="-17399">
		<tag k="name" v="Øyestøldalen" />
		<tag k="natural" v="valley" />
		<tag k="place" v="locality" />
		<tag k="ssr:stedsnr" v="648998" />
	</node>
	<node lat="60.49200000034439" lon="7.870938881542432" id="-17402">
		<tag k="name" v="Ørterdalnuten" />
		<tag k="natural" v="hill" />
		<tag k="place" v="locality" />
		<tag k="ssr:stedsnr" v="707471" />
	</node>
	<node lat="60.644347220835165" lon="8.29162778409341" id="-17405">
		<tag k="name" v="Trøstadaladn" />
		<tag k="natural" v="valley" />
		<tag k="place" v="locality" />
		<tag k="ssr:stedsnr" v="708537" />
	</node>
	<node lat="60.553008330450204" lon="8.070819439711283" id="-17409">
		<tag k="name" v="Prestholthallene" />
		<tag k="natural" v="slope" />
		<tag k="place" v="locality" />
		<tag k="ssr:stedsnr" v="709088" />
	</node>
	<node lat="60.5687444411111" lon="8.121686117772828" id="-17410">
		<tag k="name" v="Rundehaug" />
		<tag k="natural" v="hill" />
		<tag k="place" v="locality" />
		<tag k="ssr:stedsnr" v="709092" />
	</node>
	<node lat="60.67780277673057" lon="7.9788805512370145" id="-17412">
		<tag k="name" v="Einsethaugane" />
		<tag k="natural" v="hill" />
		<tag k="place" v="locality" />
		<tag k="ssr:stedsnr" v="661686" />
	</node>
	<node lat="60.54646110716359" lon="8.374419436896437" id="-17415">
		<tag k="name" v="Hestedekkane" />
		<tag k="natural" v="valley" />
		<tag k="place" v="locality" />
		<tag k="ssr:stedsnr" v="663736" />
	</node>
	<node lat="60.58099722228297" lon="8.204391674829736" id="-17417">
		<tag k="name" v="Skaret" />
		<tag k="natural" v="valley" />
		<tag k="place" v="locality" />
		<tag k="ssr:stedsnr" v="665034" />
	</node>
	<node lat="60.62291111067593" lon="8.186438892625075" id="-17428">
		<tag k="name" v="Båtstøhaugen" />
		<tag k="natural" v="hill" />
		<tag k="place" v="locality" />
		<tag k="ssr:stedsnr" v="665940" />
	</node>
	<node lat="60.62103333001388" lon="8.199680562157095" id="-17429">
		<tag k="name" v="Rultemoen" />
		<tag k="place" v="locality" />
		<tag k="ssr:stedsnr" v="665944" />
	</node>
	<node lat="60.61438611472127" lon="8.175747220132477" id="-17430">
		<tag k="name" v="Bjødnadekkane" />
		<tag k="natural" v="slope" />
		<tag k="place" v="locality" />
		<tag k="ssr:stedsnr" v="709958" />
	</node>
	<node lat="60.41261111283756" lon="8.232036102672488" id="-17434">
		<tag k="fixme" v="consider natural=peak for the most distinct mountains in the district" />
		<tag k="name" v="Usgrimshovda" />
		<tag k="natural" v="hill" />
		<tag k="place" v="locality" />
		<tag k="ssr:stedsnr" v="672123" />
	</node>
	<node lat="60.36234444349291" lon="8.161866668808234" id="-17443">
		<tag k="fixme" v="consider natural=peak for the most distinct mountains in the district" />
		<tag k="name" v="Kolsfetbrotet" />
		<tag k="natural" v="hill" />
		<tag k="place" v="locality" />
		<tag k="ssr:stedsnr" v="673213" />
	</node>
	<node lat="60.73501111473492" lon="7.835205559727461" id="-17446">
		<tag k="fixme" v="consider natural=peak for the most distinct mountains in the district" />
		<tag k="name" v="Blåbergsnuten" />
		<tag k="natural" v="hill" />
		<tag k="place" v="locality" />
		<tag k="ssr:stedsnr" v="674268" />
	</node>
	<node lat="60.61492500407896" lon="7.919144452860398" id="-17448">
		<tag k="name" v="Revufonnbotn" />
		<tag k="natural" v="valley" />
		<tag k="place" v="locality" />
		<tag k="ssr:stedsnr" v="674417" />
	</node>
	<node lat="60.68455278226509" lon="7.893566664966795" id="-17452">
		<tag k="alt_name" v="Oddelie" />
		<tag k="name" v="Oddelii" />
		<tag k="natural" v="slope" />
		<tag k="place" v="locality" />
		<tag k="ssr:stedsnr" v="674361" />
	</node>
	<node lat="60.612783336961" lon="7.7861111108543115" id="-17453">
		<tag k="fixme" v="consider natural=peak for the most distinct mountains in the district" />
		<tag k="name" v="Folarskardnuten" />
		<tag k="natural" v="hill" />
		<tag k="place" v="locality" />
		<tag k="ssr:stedsnr" v="674402" />
	</node>
	<node lat="60.62021110668425" lon="8.378124992122514" id="-17460">
		<tag k="name" v="Reinsdalen" />
		<tag k="natural" v="valley" />
		<tag k="place" v="locality" />
		<tag k="ssr:stedsnr" v="674654" />
	</node>
	<node lat="60.564797219217276" lon="8.236527780103842" id="-17463">
		<tag k="alt_name" v="Liabrøtet" />
		<tag k="fixme" v="consider natural=peak for the most distinct mountains in the district" />
		<tag k="name" v="Liabrotet" />
		<tag k="natural" v="hill" />
		<tag k="place" v="locality" />
		<tag k="ssr:stedsnr" v="674712" />
	</node>
	<node lat="60.51342499679082" lon="8.134258327796063" id="-17468">
		<tag k="fixme" v="consider natural=peak for the most distinct mountains in the district" />
		<tag k="name" v="Nystølhovda" />
		<tag k="natural" v="hill" />
		<tag k="place" v="locality" />
		<tag k="ssr:stedsnr" v="675804" />
	</node>
	<node lat="60.52764444180525" lon="8.305947221058226" id="-17471">
		<tag k="alt_name" v="Syninghovda" />
		<tag k="fixme" v="consider natural=peak for the most distinct mountains in the district" />
		<tag k="name" v="Syningshovda" />
		<tag k="natural" v="hill" />
		<tag k="place" v="locality" />
		<tag k="ssr:stedsnr" v="675802" />
	</node>
	<node lat="60.82747499988821" lon="7.841083330731984" id="-17474">
		<tag k="fixme" v="consider natural=peak for the most distinct mountains in the district" />
		<tag k="loc_name" v="Galdan" />
		<tag k="name" v="Galdane" />
		<tag k="natural" v="hill" />
		<tag k="place" v="locality" />
		<tag k="ssr:stedsnr" v="676734" />
	</node>
	<node lat="60.80854890900331" lon="7.819048833959404" id="-17475">
		<tag k="fixme" v="consider natural=peak for the most distinct mountains in the district" />
		<tag k="name" v="Skorpetinden" />
		<tag k="natural" v="hill" />
		<tag k="place" v="locality" />
		<tag k="ssr:stedsnr" v="676742" />
	</node>
	<node lat="60.611058337446664" lon="8.393080556789169" id="-17483">
		<tag k="name" v="Vedahovda" />
		<tag k="natural" v="hill" />
		<tag k="place" v="locality" />
		<tag k="ssr:stedsnr" v="707515" />
	</node>
	<node lat="60.636458335404434" lon="8.348619437010782" id="-17489">
		<tag k="name" v="Mjelshøgd" />
		<tag k="natural" v="hill" />
		<tag k="place" v="locality" />
		<tag k="ssr:stedsnr" v="723015" />
	</node>
	<node lat="60.625074999109174" lon="8.137936119263772" id="-17492">
		<tag k="name" v="Skiftesdalen" />
		<tag k="natural" v="valley" />
		<tag k="place" v="locality" />
		<tag k="ssr:stedsnr" v="723805" />
	</node>
	<node lat="60.53458888938512" lon="8.10449722892842" id="-17495">
		<tag k="name" v="Fleddidn" />
		<tag k="natural" v="slope" />
		<tag k="place" v="locality" />
		<tag k="ssr:stedsnr" v="726090" />
	</node>
	<node lat="60.503347222619404" lon="7.838188883762953" id="-17496">
		<tag k="name" v="Ureranden" />
		<tag k="natural" v="ridge" />
		<tag k="place" v="locality" />
		<tag k="ssr:stedsnr" v="726482" />
	</node>
	<node lat="60.61819166585343" lon="8.274716672821485" id="-17506">
		<tag k="name" v="Husarabergi" />
		<tag k="natural" v="hill" />
		<tag k="place" v="locality" />
		<tag k="ssr:stedsnr" v="726781" />
	</node>
	<node lat="60.48066388681881" lon="8.45228055907552" id="-17514">
		<tag k="fixme" v="consider natural=peak for the most distinct mountains in the district" />
		<tag k="name" v="Sollihøgde" />
		<tag k="natural" v="hill" />
		<tag k="old_name" v="Sollihøvda;Sollihovdi;Sollihd" />
		<tag k="place" v="locality" />
		<tag k="ssr:stedsnr" v="733861" />
	</node>
	<node lat="60.505122963823396" lon="8.34091373821586" id="-17523">
		<tag k="alt_name" v="Rauløkdalen" />
		<tag k="name" v="Raudløkdalen" />
		<tag k="natural" v="valley" />
		<tag k="place" v="locality" />
		<tag k="ssr:stedsnr" v="734790" />
	</node>
	<node lat="60.69732877608684" lon="7.558383228453831" id="-17526">
		<tag k="name" v="Bakkahelleren" />
		<tag k="place" v="locality" />
		<tag k="ssr:stedsnr" v="735214" />
	</node>
	<node lat="60.72054999565795" lon="7.635649997231074" id="-17527">
		<tag k="fixme" v="consider natural=peak for the most distinct mountains in the district" />
		<tag k="name" v="Sundhellerskarvet" />
		<tag k="natural" v="hill" />
		<tag k="place" v="locality" />
		<tag k="ssr:stedsnr" v="735229" />
	</node>
	<node lat="60.67629166375814" lon="7.910122227771747" id="-17529">
		<tag k="name" v="Tronsgardnuten" />
		<tag k="natural" v="hill" />
		<tag k="place" v="locality" />
		<tag k="ssr:stedsnr" v="735330" />
	</node>
	<node lat="60.65986944423215" lon="7.863802768943768" id="-17530">
		<tag k="alt_name" v="Svarthamar" />
		<tag k="name" v="Svarthammar" />
		<tag k="natural" v="hill" />
		<tag k="place" v="locality" />
		<tag k="ssr:stedsnr" v="735344" />
	</node>
	<node lat="60.57145555170544" lon="8.03695554992965" id="-17532">
		<tag k="fixme" v="consider natural=peak for the most distinct mountains in the district" />
		<tag k="name" v="Storesåta" />
		<tag k="natural" v="hill" />
		<tag k="place" v="locality" />
		<tag k="ssr:stedsnr" v="735381" />
	</node>
	<node lat="60.538875002268895" lon="8.00686110700402" id="-17533">
		<tag k="name" v="Hesteberget" />
		<tag k="natural" v="hill" />
		<tag k="place" v="locality" />
		<tag k="ssr:stedsnr" v="735387" />
	</node>
	<node lat="60.70892777736984" lon="8.106502786081219" id="-17536">
		<tag k="fixme" v="consider natural=peak for the most distinct mountains in the district" />
		<tag k="name" v="Kvasshovd" />
		<tag k="natural" v="hill" />
		<tag k="place" v="locality" />
		<tag k="ssr:stedsnr" v="735510" />
	</node>
	<node lat="60.50988888796241" lon="7.802052784442681" id="-17537">
		<tag k="name" v="Botn" />
		<tag k="place" v="locality" />
		<tag k="ssr:stedsnr" v="735472" />
	</node>
	<node lat="60.70049166925767" lon="8.145224994382776" id="-17538">
		<tag k="fixme" v="consider natural=peak for the most distinct mountains in the district" />
		<tag k="name" v="Djupskardhovda" />
		<tag k="natural" v="hill" />
		<tag k="place" v="locality" />
		<tag k="ssr:stedsnr" v="735490" />
	</node>
	<node lat="60.636230556956306" lon="8.187419444595974" id="-17544">
		<tag k="fixme" v="consider natural=peak for the most distinct mountains in the district" />
		<tag k="name" v="Ruetoppen" />
		<tag k="natural" v="hill" />
		<tag k="place" v="locality" />
		<tag k="ssr:stedsnr" v="735599" />
	</node>
	<node lat="60.55641389208603" lon="8.175380563309748" id="-17547">
		<tag k="alt_name" v="Havsdalhøvda" />
		<tag k="fixme" v="consider natural=peak for the most distinct mountains in the district" />
		<tag k="name" v="Havsdalshovda" />
		<tag k="natural" v="hill" />
		<tag k="place" v="locality" />
		<tag k="ssr:stedsnr" v="735738" />
	</node>
	<node lat="60.761108331441385" lon="7.815416660625419" id="-17548">
		<tag k="fixme" v="consider natural=peak for the most distinct mountains in the district" />
		<tag k="name" v="Skorpetinden" />
		<tag k="natural" v="hill" />
		<tag k="place" v="locality" />
		<tag k="ssr:stedsnr" v="736523" />
	</node>
	<node lat="60.579674997070654" lon="8.159969443152576" id="-17554">
		<tag k="name" v="Øyestølhalle" />
		<tag k="natural" v="slope" />
		<tag k="place" v="locality" />
		<tag k="ssr:stedsnr" v="905159" />
	</node>
	<node lat="60.55868611113847" lon="8.206308328293524" id="-17555">
		<tag k="name" v="Nilsejuvet" />
		<tag k="natural" v="gorge" />
		<tag k="ssr:stedsnr" v="905339" />
	</node>
	<node lat="60.61982500242683" lon="8.336877770833905" id="-17556">
		<tag k="name" v="Ureskaret" />
		<tag k="natural" v="valley" />
		<tag k="place" v="locality" />
		<tag k="ssr:stedsnr" v="905638" />
	</node>
	<node lat="60.61946944846295" lon="8.348469441082562" id="-17557">
		<tag k="alt_name" v="Knutsskar" />
		<tag k="name" v="Knutsskard" />
		<tag k="natural" v="valley" />
		<tag k="place" v="locality" />
		<tag k="ssr:stedsnr" v="905644" />
	</node>
	<node lat="60.57124722515138" lon="8.299211109976218" id="-17567">
		<tag k="name" v="Tiureggi" />
		<tag k="natural" v="ridge" />
		<tag k="place" v="locality" />
		<tag k="ssr:stedsnr" v="770153" />
	</node>
	<node lat="60.52552499768759" lon="8.130927786831215" id="-17569">
		<tag k="name" v="Lauvlie" />
		<tag k="natural" v="slope" />
		<tag k="place" v="locality" />
		<tag k="ssr:stedsnr" v="770169" />
	</node>
	<node lat="60.703075002601274" lon="8.064438883891876" id="-17570">
		<tag k="name" v="Skurvenatten" />
		<tag k="natural" v="hill" />
		<tag k="place" v="locality" />
		<tag k="ssr:stedsnr" v="770355" />
	</node>
	<node lat="60.58128888567413" lon="8.195991670163565" id="-17580">
		<tag k="name" v="Hjallane" />
		<tag k="natural" v="slope" />
		<tag k="place" v="locality" />
		<tag k="ssr:stedsnr" v="783147" />
	</node>
	<node lat="60.62285278184951" lon="8.346041660315779" id="-17582">
		<tag k="name" v="Bjødnaskaret" />
		<tag k="natural" v="valley" />
		<tag k="place" v="locality" />
		<tag k="ssr:stedsnr" v="784636" />
	</node>
	<node lat="60.51297777525885" lon="8.137311107104237" id="-17583">
		<tag k="name" v="Nordmannsleine" />
		<tag k="natural" v="slope" />
		<tag k="place" v="locality" />
		<tag k="ssr:stedsnr" v="786865" />
	</node>
	<node lat="60.52871666346671" lon="8.104386114451312" id="-17585">
		<tag k="name" v="Rennerudhøvda" />
		<tag k="natural" v="hill" />
		<tag k="place" v="locality" />
		<tag k="ssr:stedsnr" v="787099" />
	</node>
	<node lat="60.36710000127942" lon="8.306027775945468" id="-17591">
		<tag k="alt_name" v="Mosehøvda" />
		<tag k="fixme" v="consider natural=peak for the most distinct mountains in the district" />
		<tag k="loc_name" v="Mosohovda" />
		<tag k="name" v="Mosehovda" />
		<tag k="natural" v="hill" />
		<tag k="place" v="locality" />
		<tag k="ssr:stedsnr" v="794172" />
	</node>
	<node lat="60.498186114988265" lon="7.742613891984064" id="-17593">
		<tag k="fixme" v="consider natural=peak for the most distinct mountains in the district" />
		<tag k="name" v="Nygardsnutan" />
		<tag k="natural" v="hill" />
		<tag k="place" v="locality" />
		<tag k="ssr:stedsnr" v="794982" />
	</node>
	<node lat="60.45753889216731" lon="8.538652777841854" id="-17598">
		<tag k="alt_name" v="Kjerbuhøvda" />
		<tag k="fixme" v="consider natural=peak for the most distinct mountains in the district" />
		<tag k="name" v="Kjerbuhovda" />
		<tag k="natural" v="hill" />
		<tag k="place" v="locality" />
		<tag k="ssr:stedsnr" v="795107" />
	</node>
	<node lat="60.4334000036567" lon="8.52739721728083" id="-17599">
		<tag k="alt_name" v="Smettehøvda" />
		<tag k="name" v="Smettehovda" />
		<tag k="natural" v="hill" />
		<tag k="place" v="locality" />
		<tag k="ssr:stedsnr" v="795161" />
	</node>
	<node lat="60.69494166904272" lon="8.150647228293854" id="-17600">
		<tag k="fixme" v="consider natural=peak for the most distinct mountains in the district" />
		<tag k="name" v="Flishovd" />
		<tag k="natural" v="hill" />
		<tag k="place" v="locality" />
		<tag k="ssr:stedsnr" v="795565" />
	</node>
	<node lat="60.679144444828644" lon="7.957055558741431" id="-17609">
		<tag k="name" v="Hallenuten" />
		<tag k="natural" v="hill" />
		<tag k="place" v="locality" />
		<tag k="ssr:stedsnr" v="796325" />
	</node>
	<node lat="60.70881666977543" lon="8.006169441134015" id="-17610">
		<tag k="name" v="Flådalen" />
		<tag k="natural" v="valley" />
		<tag k="place" v="locality" />
		<tag k="ssr:stedsnr" v="796354" />
	</node>
	<node lat="60.68749166872094" lon="8.079155561823026" id="-17612">
		<tag k="fixme" v="consider natural=peak for the most distinct mountains in the district" />
		<tag k="name" v="Bølhovd" />
		<tag k="natural" v="hill" />
		<tag k="place" v="locality" />
		<tag k="ssr:stedsnr" v="796370" />
	</node>
	<node lat="60.691083336145084" lon="7.971813888489787" id="-17613">
		<tag k="alt_name" v="Langehallet" />
		<tag k="name" v="Langehalle" />
		<tag k="natural" v="slope" />
		<tag k="place" v="locality" />
		<tag k="ssr:stedsnr" v="796374" />
	</node>
	<node lat="60.68066666260944" lon="7.895400008125444" id="-17614">
		<tag k="fixme" v="consider natural=peak for the most distinct mountains in the district" />
		<tag k="name" v="Oddefjellet" />
		<tag k="natural" v="hill" />
		<tag k="place" v="locality" />
		<tag k="ssr:stedsnr" v="796380" />
	</node>
	<node lat="60.57559999756764" lon="7.836869435734162" id="-17615">
		<tag k="alt_name" v="Bjørnabuhøgdine" />
		<tag k="fixme" v="consider natural=peak for the most distinct mountains in the district" />
		<tag k="name" v="Bjørnabuhøgdin" />
		<tag k="natural" v="hill" />
		<tag k="place" v="locality" />
		<tag k="ssr:stedsnr" v="796381" />
	</node>
	<node lat="60.81509166939792" lon="7.829036111999205" id="-17627">
		<tag k="fixme" v="consider natural=peak for the most distinct mountains in the district" />
		<tag k="name" v="Uthusnøse" />
		<tag k="natural" v="hill" />
		<tag k="place" v="locality" />
		<tag k="ssr:stedsnr" v="797706" />
	</node>
	<node lat="60.480158331739005" lon="8.419197213814886" id="-17638">
		<tag k="name" v="Myrepytthovda" />
		<tag k="natural" v="hill" />
		<tag k="old_name" v="Myrputthd" />
		<tag k="place" v="locality" />
		<tag k="ssr:stedsnr" v="915864" />
	</node>
	<node lat="60.6015750010191" lon="8.420375000567047" id="-17641">
		<tag k="fixme" v="consider natural=peak for the most distinct mountains in the district" />
		<tag k="name" v="Kvannehovda" />
		<tag k="natural" v="hill" />
		<tag k="place" v="locality" />
		<tag k="ssr:stedsnr" v="917634" />
	</node>
	<node lat="60.5661138844941" lon="8.161358337330945" id="-17646">
		<tag k="fixme" v="consider natural=peak for the most distinct mountains in the district" />
		<tag k="name" v="Holkan" />
		<tag k="natural" v="hill" />
		<tag k="place" v="locality" />
		<tag k="ssr:stedsnr" v="917680" />
	</node>
	<node lat="60.57837777396669" lon="8.209274997858452" id="-17647">
		<tag k="name" v="Ørneberg" />
		<tag k="natural" v="hill" />
		<tag k="place" v="locality" />
		<tag k="ssr:stedsnr" v="917689" />
	</node>
	<node lat="60.548402781310514" lon="8.16595832659825" id="-17649">
		<tag k="fixme" v="consider natural=peak for the most distinct mountains in the district" />
		<tag k="name" v="Knippen" />
		<tag k="natural" v="hill" />
		<tag k="place" v="locality" />
		<tag k="ssr:stedsnr" v="917739" />
	</node>
	<node lat="60.67750000158288" lon="7.939644449974616" id="-17651">
		<tag k="fixme" v="consider natural=peak for the most distinct mountains in the district" />
		<tag k="name" v="Einsetnuten" />
		<tag k="natural" v="hill" />
		<tag k="place" v="locality" />
		<tag k="ssr:stedsnr" v="917294" />
	</node>
	<node lat="60.70513774608664" lon="8.059755917027678" id="-17656">
		<tag k="name" v="Urhovd" />
		<tag k="natural" v="hill" />
		<tag k="place" v="locality" />
		<tag k="ssr:stedsnr" v="917332" />
	</node>
	<node lat="60.677202778574376" lon="7.82696110440649" id="-17657">
		<tag k="name" v="Storhovda" />
		<tag k="natural" v="hill" />
		<tag k="place" v="locality" />
		<tag k="ssr:stedsnr" v="917346" />
	</node>
	<node lat="60.691383336699054" lon="7.921491657651135" id="-17658">
		<tag k="fixme" v="consider natural=peak for the most distinct mountains in the district" />
		<tag k="name" v="Leinefjellet" />
		<tag k="natural" v="hill" />
		<tag k="place" v="locality" />
		<tag k="ssr:stedsnr" v="917351" />
	</node>
	<node lat="60.586877777276854" lon="7.976852773800297" id="-17659">
		<tag k="name" v="Veslekvelvi" />
		<tag k="natural" v="valley" />
		<tag k="old_name" v="Vesle Qvelve" />
		<tag k="place" v="locality" />
		<tag k="ssr:stedsnr" v="917354" />
	</node>
	<node lat="60.79409166367852" lon="7.9587749977190505" id="-17666">
		<tag k="fixme" v="consider natural=peak for the most distinct mountains in the district" />
		<tag k="name" v="Stolsnuten" />
		<tag k="natural" v="hill" />
		<tag k="place" v="locality" />
		<tag k="ssr:stedsnr" v="918777" />
	</node>
	<node lat="60.780200000272394" lon="7.857775003245179" id="-17667">
		<tag k="fixme" v="consider natural=peak for the most distinct mountains in the district" />
		<tag k="name" v="Skorpa" />
		<tag k="natural" v="hill" />
		<tag k="place" v="locality" />
		<tag k="ssr:stedsnr" v="918781" />
	</node>
	<node lat="60.69083333524105" lon="8.234772229065246" id="-17672">
		<tag k="name" v="Vardehøgda" />
		<tag k="natural" v="hill" />
		<tag k="place" v="locality" />
		<tag k="ssr:stedsnr" v="830268" />
	</node>
	<node lat="60.61701944162803" lon="8.396622217022825" id="-17674">
		<tag k="name" v="Rundhaug" />
		<tag k="natural" v="hill" />
		<tag k="place" v="locality" />
		<tag k="ssr:stedsnr" v="831528" />
	</node>
	<node lat="60.680783335564726" lon="7.955299996213736" id="-17677">
		<tag k="name" v="Persetdalen" />
		<tag k="place" v="locality" />
		<tag k="ssr:stedsnr" v="844687" />
	</node>
	<node lat="60.68371388484891" lon="7.9850111037184766" id="-17678">
		<tag k="name" v="Hesteskar" />
		<tag k="natural" v="valley" />
		<tag k="place" v="locality" />
		<tag k="ssr:stedsnr" v="845775" />
	</node>
	<node lat="60.62416388733622" lon="8.174091671323206" id="-17684">
		<tag k="name" v="Andresslåtta" />
		<tag k="place" v="locality" />
		<tag k="ssr:stedsnr" v="848907" />
	</node>
	<node lat="60.43275555153031" lon="8.424547230882084" id="-17688">
		<tag k="alt_name" v="Gråvarhovda" />
		<tag k="name" v="Gravarhovda" />
		<tag k="natural" v="hill" />
		<tag k="place" v="locality" />
		<tag k="ssr:stedsnr" v="855134" />
	</node>
	<node lat="60.37496666596438" lon="8.263044447801803" id="-17689">
		<tag k="name" v="Hauknuten" />
		<tag k="natural" v="hill" />
		<tag k="place" v="locality" />
		<tag k="ssr:stedsnr" v="855217" />
	</node>
	<node lat="60.47324721859839" lon="8.422047217388137" id="-17690">
		<tag k="alt_name" v="Kosaberget" />
		<tag k="name" v="Køsaberget" />
		<tag k="natural" v="hill" />
		<tag k="place" v="locality" />
		<tag k="ssr:stedsnr" v="855844" />
	</node>
	<node lat="60.4402805524621" lon="8.590125002405296" id="-17693">
		<tag k="name" v="Dagalidokki" />
		<tag k="natural" v="valley" />
		<tag k="place" v="locality" />
		<tag k="ssr:stedsnr" v="856105" />
	</node>
	<node lat="60.727747224585265" lon="7.903061103138587" id="-17694">
		<tag k="name" v="Flyane" />
		<tag k="place" v="locality" />
		<tag k="ssr:stedsnr" v="856303" />
	</node>
	<node lat="60.57265000088617" lon="7.656149994340187" id="-17698">
		<tag k="fixme" v="consider natural=peak for the most distinct mountains in the district" />
		<tag k="name" v="Storetunga" />
		<tag k="natural" v="hill" />
		<tag k="place" v="locality" />
		<tag k="ssr:stedsnr" v="856336" />
	</node>
	<node lat="60.681458335600965" lon="8.039833334963859" id="-17701">
		<tag k="name" v="Grytenuten" />
		<tag k="natural" v="hill" />
		<tag k="place" v="locality" />
		<tag k="ssr:stedsnr" v="857345" />
	</node>
	<node lat="60.59595000044119" lon="8.044313889842531" id="-17702">
		<tag k="name" v="Langeberget" />
		<tag k="natural" v="hill" />
		<tag k="place" v="locality" />
		<tag k="ssr:stedsnr" v="857407" />
	</node>
	<node lat="60.660863885683575" lon="8.150427782029148" id="-17704">
		<tag k="name" v="Kotet" />
		<tag k="natural" v="hill" />
		<tag k="place" v="locality" />
		<tag k="ssr:stedsnr" v="857596" />
	</node>
	<node lat="60.54091944050585" lon="8.197722216985593" id="-17705">
		<tag k="fixme" v="consider natural=peak for the most distinct mountains in the district" />
		<tag k="name" v="Geilohovda" />
		<tag k="natural" v="hill" />
		<tag k="place" v="locality" />
		<tag k="ssr:stedsnr" v="857739" />
	</node>
	<node lat="60.605916663303006" lon="8.202208332248812" id="-17706">
		<tag k="name" v="Fløtaberget" />
		<tag k="natural" v="hill" />
		<tag k="place" v="locality" />
		<tag k="ssr:stedsnr" v="857672" />
	</node>
	<node lat="60.79831388898365" lon="7.813913888359778" id="-17707">
		<tag k="fixme" v="consider natural=peak for the most distinct mountains in the district" />
		<tag k="name" v="Iungsdalsnøse" />
		<tag k="natural" v="hill" />
		<tag k="place" v="locality" />
		<tag k="ssr:stedsnr" v="858721" />
	</node>
	<node lat="60.829208334547374" lon="7.762724996253157" id="-17708">
		<tag k="alt_name" v="Øljubotn, store" />
		<tag k="name" v="Store Øljubotn" />
		<tag k="natural" v="valley" />
		<tag k="place" v="locality" />
		<tag k="ssr:stedsnr" v="858768" />
	</node>
	<node lat="60.470349997116955" lon="8.061286110954159" id="-17713">
		<tag k="fixme" v="consider natural=peak for the most distinct mountains in the district" />
		<tag k="name" v="Storhovda" />
		<tag k="natural" v="hill" />
		<tag k="place" v="locality" />
		<tag k="ssr:stedsnr" v="931033" />
	</node>
	<node lat="60.512836108832026" lon="7.979905561518886" id="-17718">
		<tag k="name" v="Veslenuten" />
		<tag k="natural" v="hill" />
		<tag k="place" v="locality" />
		<tag k="ssr:stedsnr" v="889911" />
	</node>
	<node lat="60.46876111557368" lon="8.206286114103218" id="-17730">
		<tag k="name" v="Øyestøl" />
		<tag k="natural" v="valley" />
		<tag k="place" v="locality" />
		<tag k="ssr:stedsnr" v="891818" />
	</node>
	<node lat="60.61259721961793" lon="8.357011104668006" id="-17736">
		<tag k="name" v="Undartjødnhovdune" />
		<tag k="natural" v="hill" />
		<tag k="place" v="locality" />
		<tag k="ssr:stedsnr" v="908949" />
	</node>
	<node lat="60.57044444515374" lon="8.382111116967215" id="-17737">
		<tag k="name" v="Brennudn" />
		<tag k="natural" v="slope" />
		<tag k="place" v="locality" />
		<tag k="ssr:stedsnr" v="908968" />
	</node>
	<node lat="60.42632777816185" lon="8.475280557516417" id="-17745">
		<tag k="name" v="Hestehovda" />
		<tag k="natural" v="hill" />
		<tag k="place" v="locality" />
		<tag k="ssr:stedsnr" v="916117" />
	</node>
	<node lat="60.62139999882249" lon="8.247325001209205" id="-17753">
		<tag k="alt_name" v="Eidsbergi" />
		<tag k="name" v="Eidsberget" />
		<tag k="natural" v="hill" />
		<tag k="place" v="locality" />
		<tag k="ssr:stedsnr" v="917613" />
	</node>
	<node lat="60.60076388826176" lon="8.079288884215629" id="-17756">
		<tag k="name" v="Storedalen" />
		<tag k="natural" v="valley" />
		<tag k="place" v="locality" />
		<tag k="ssr:stedsnr" v="917360" />
	</node>
	<node lat="60.6815638856747" lon="8.103930550489048" id="-17759">
		<tag k="fixme" v="consider natural=peak for the most distinct mountains in the district" />
		<tag k="name" v="Birgitstølhovda" />
		<tag k="natural" v="hill" />
		<tag k="place" v="locality" />
		<tag k="ssr:stedsnr" v="917528" />
	</node>
	<node lat="60.65735555810127" lon="8.30844444373326" id="-17761">
		<tag k="alt_name" v="Vasslie" />
		<tag k="loc_name" v="Vatslie" />
		<tag k="name" v="Vasslii" />
		<tag k="natural" v="slope" />
		<tag k="place" v="locality" />
		<tag k="ssr:stedsnr" v="917563" />
	</node>
	<node lat="60.66210277402088" lon="8.115722214808878" id="-17763">
		<tag k="name" v="Randehøgde" />
		<tag k="natural" v="hill" />
		<tag k="place" v="locality" />
		<tag k="ssr:stedsnr" v="917570" />
	</node>
	<node lat="60.81848333433941" lon="7.797061108728991" id="-17770">
		<tag k="name" v="Saupsengene" />
		<tag k="natural" v="slope" />
		<tag k="place" v="locality" />
		<tag k="ssr:stedsnr" v="919723" />
	</node>
	<node lat="60.60456111154464" lon="8.332988885506586" id="-17774">
		<tag k="name" v="Svenskebergi" />
		<tag k="natural" v="hill" />
		<tag k="place" v="locality" />
		<tag k="ssr:stedsnr" v="950803" />
	</node>
	<node lat="60.54949444791232" lon="8.201975006742138" id="-17786">
		<tag k="name" v="Moseranden" />
		<tag k="natural" v="ridge" />
		<tag k="place" v="locality" />
		<tag k="ssr:stedsnr" v="965342" />
	</node>
	<node lat="60.49909999822116" lon="8.125536108189454" id="-17793">
		<tag k="name" v="Biskolanuten" />
		<tag k="natural" v="hill" />
		<tag k="place" v="locality" />
		<tag k="ssr:stedsnr" v="969787" />
	</node>
	<node lat="60.4790305586454" lon="8.105136119591545" id="-17794">
		<tag k="name" v="Grønebakken" />
		<tag k="natural" v="slope" />
		<tag k="place" v="locality" />
		<tag k="ssr:stedsnr" v="969790" />
	</node>
	<node lat="60.40450833077542" lon="8.329244446520491" id="-17798">
		<tag k="alt_name" v="Seterdalen" />
		<tag k="name" v="Sæterdalen" />
		<tag k="natural" v="valley" />
		<tag k="place" v="locality" />
		<tag k="ssr:stedsnr" v="5186" />
	</node>
	<node lat="60.362402781611394" lon="8.209577769958548" id="-17800">
		<tag k="name" v="Bekktind" />
		<tag k="natural" v="hill" />
		<tag k="place" v="locality" />
		<tag k="ssr:stedsnr" v="5196" />
	</node>
	<node lat="60.45755278041582" lon="8.249102779861339" id="-17802">
		<tag k="fixme" v="consider natural=peak for the most distinct mountains in the district" />
		<tag k="name" v="Dagalihovda" />
		<tag k="natural" v="hill" />
		<tag k="place" v="locality" />
		<tag k="ssr:stedsnr" v="5145" />
	</node>
	<node lat="60.40365278027189" lon="8.404186107657061" id="-17805">
		<tag k="name" v="Hallberget" />
		<tag k="natural" v="hill" />
		<tag k="place" v="locality" />
		<tag k="ssr:stedsnr" v="5156" />
	</node>
	<node lat="60.445899996935154" lon="7.982602782643459" id="-17806">
		<tag k="name" v="Berhellernuten" />
		<tag k="natural" v="hill" />
		<tag k="place" v="locality" />
		<tag k="ssr:stedsnr" v="5939" />
	</node>
	<node lat="60.408822226437614" lon="8.048552774629503" id="-17810">
		<tag k="fixme" v="consider natural=peak for the most distinct mountains in the district" />
		<tag k="name" v="Bjordalshøgdin" />
		<tag k="natural" v="hill" />
		<tag k="place" v="locality" />
		<tag k="ssr:stedsnr" v="5949" />
	</node>
	<node lat="60.4693750044204" lon="7.821100000915022" id="-17815">
		<tag k="name" v="Veahovda" />
		<tag k="natural" v="hill" />
		<tag k="place" v="locality" />
		<tag k="ssr:stedsnr" v="5992" />
	</node>
	<node lat="60.409074996368126" lon="8.55850834180553" id="-17817">
		<tag k="name" v="Raunehallin" />
		<tag k="natural" v="slope" />
		<tag k="place" v="locality" />
		<tag k="ssr:stedsnr" v="6113" />
	</node>
	<node lat="60.63577500353172" lon="8.309347226739979" id="-17820">
		<tag k="name" v="Øystlihovda" />
		<tag k="natural" v="hill" />
		<tag k="old_name" v="Øslihøvden" />
		<tag k="place" v="locality" />
		<tag k="ssr:stedsnr" v="6633" />
	</node>
	<node lat="60.63563055202461" lon="8.132022214997283" id="-17821">
		<tag k="name" v="Gjerdeberget" />
		<tag k="natural" v="hill" />
		<tag k="place" v="locality" />
		<tag k="ssr:stedsnr" v="6636" />
	</node>
	<node lat="60.525622224248536" lon="8.25895000002608" id="-17824">
		<tag k="fixme" v="consider natural=peak for the most distinct mountains in the district" />
		<tag k="name" v="Jonstølhovda" />
		<tag k="natural" v="hill" />
		<tag k="place" v="locality" />
		<tag k="ssr:stedsnr" v="7740" />
	</node>
	<node lat="60.668025002031506" lon="7.7092000017103866" id="-17825">
		<tag k="name" v="Ynglesflaten" />
		<tag k="place" v="locality" />
		<tag k="ssr:stedsnr" v="7191" />
	</node>
	<node lat="60.70467499885837" lon="7.640999994554675" id="-17827">
		<tag k="name" v="Vierbotn" />
		<tag k="natural" v="valley" />
		<tag k="place" v="locality" />
		<tag k="ssr:stedsnr" v="7217" />
	</node>
	<node lat="60.6722611121181" lon="8.088461107134496" id="-17831">
		<tag k="fixme" v="consider natural=peak for the most distinct mountains in the district" />
		<tag k="name" v="Dugurdshovda" />
		<tag k="natural" v="hill" />
		<tag k="place" v="locality" />
		<tag k="ssr:stedsnr" v="7338" />
	</node>
	<node lat="60.751077773452614" lon="7.951136119373857" id="-17845">
		<tag k="fixme" v="consider natural=peak for the most distinct mountains in the district" />
		<tag k="name" v="Flishovda" />
		<tag k="natural" v="hill" />
		<tag k="place" v="locality" />
		<tag k="ssr:stedsnr" v="8556" />
	</node>
	<node lat="60.50733055917873" lon="8.066719451580797" id="-17847">
		<tag k="name" v="Høgehaug" />
		<tag k="natural" v="hill" />
		<tag k="place" v="locality" />
		<tag k="ssr:stedsnr" v="39164" />
	</node>
	<node lat="60.61377777670767" lon="8.34160556358552" id="-17864">
		<tag k="name" v="Skarsethaugen" />
		<tag k="natural" v="hill" />
		<tag k="place" v="locality" />
		<tag k="ssr:stedsnr" v="56889" />
	</node>
	<node lat="60.5581722234015" lon="8.337611108830401" id="-17865">
		<tag k="name" v="Geitekyrkja" />
		<tag k="natural" v="valley" />
		<tag k="place" v="locality" />
		<tag k="ssr:stedsnr" v="57842" />
	</node>
	<node lat="60.66257777651" lon="8.283688885834328" id="-17871">
		<tag k="name" v="Varaldsetjuvet" />
		<tag k="natural" v="gorge" />
		<tag k="ssr:stedsnr" v="59685" />
	</node>
	<node lat="60.62450278179379" lon="8.159572215729716" id="-17875">
		<tag k="name" v="Årebakkhaugane" />
		<tag k="natural" v="hill" />
		<tag k="place" v="locality" />
		<tag k="ssr:stedsnr" v="59944" />
	</node>
	<node lat="60.65639999621451" lon="8.052566667357864" id="-17881">
		<tag k="name" v="Leineberget" />
		<tag k="natural" v="hill" />
		<tag k="place" v="locality" />
		<tag k="ssr:stedsnr" v="67355" />
	</node>
	<node lat="60.3672722249543" lon="8.046725000648214" id="-17885">
		<tag k="fixme" v="consider natural=peak for the most distinct mountains in the district" />
		<tag k="name" v="Situnuten" />
		<tag k="natural" v="hill" />
		<tag k="place" v="locality" />
		<tag k="ssr:stedsnr" v="66783" />
	</node>
	<node lat="60.488625000952915" lon="7.9300555644635295" id="-17890">
		<tag k="fixme" v="consider natural=peak for the most distinct mountains in the district" />
		<tag k="name" v="Lauvvikfjellet" />
		<tag k="natural" v="hill" />
		<tag k="place" v="locality" />
		<tag k="ssr:stedsnr" v="66982" />
	</node>
	<node lat="60.449697219347414" lon="7.9738472156947156" id="-17894">
		<tag k="name" v="Berhellerbotn" />
		<tag k="natural" v="valley" />
		<tag k="place" v="locality" />
		<tag k="ssr:stedsnr" v="66930" />
	</node>
	<node lat="60.61004999934729" lon="7.926688891964435" id="-17898">
		<tag k="name" v="Skåki" />
		<tag k="natural" v="hill" />
		<tag k="place" v="locality" />
		<tag k="ssr:stedsnr" v="67455" />
	</node>
	<node lat="60.66396111083302" lon="7.791450007121347" id="-17902">
		<tag k="name" v="Sledaskardnuten" />
		<tag k="natural" v="hill" />
		<tag k="place" v="locality" />
		<tag k="ssr:stedsnr" v="68320" />
	</node>
	<node lat="60.63702723563266" lon="8.117339879027218" id="-17910">
		<tag k="alt_name" v="Øvre Skarnuten" />
		<tag k="fixme" v="consider natural=peak for the most distinct mountains in the district" />
		<tag k="name" v="Skardnuten" />
		<tag k="natural" v="hill" />
		<tag k="place" v="locality" />
		<tag k="ssr:stedsnr" v="68580" />
	</node>
	<node lat="60.60159166889499" lon="8.177186102938386" id="-17913">
		<tag k="fixme" v="consider natural=peak for the most distinct mountains in the district" />
		<tag k="name" v="Storhovda" />
		<tag k="natural" v="hill" />
		<tag k="place" v="locality" />
		<tag k="ssr:stedsnr" v="68649" />
	</node>
	<node lat="60.66224166421188" lon="8.096033325865632" id="-17918">
		<tag k="name" v="Langeberget" />
		<tag k="natural" v="hill" />
		<tag k="place" v="locality" />
		<tag k="ssr:stedsnr" v="68596" />
	</node>
	<node lat="60.669683335859254" lon="8.19596387973917" id="-17919">
		<tag k="fixme" v="consider natural=peak for the most distinct mountains in the district" />
		<tag k="name" v="Hæe" />
		<tag k="natural" v="hill" />
		<tag k="place" v="locality" />
		<tag k="ssr:stedsnr" v="68600" />
	</node>
	<node lat="60.81147777721616" lon="7.819150006729171" id="-17921">
		<tag k="name" v="Skardet" />
		<tag k="natural" v="valley" />
		<tag k="place" v="locality" />
		<tag k="ssr:stedsnr" v="69721" />
	</node>
	<node lat="60.80885555847036" lon="7.863941671539901" id="-17922">
		<tag k="name" v="Vadbotn" />
		<tag k="natural" v="valley" />
		<tag k="place" v="locality" />
		<tag k="ssr:stedsnr" v="69722" />
	</node>
	<node lat="60.509897224759904" lon="7.980727773053768" id="-17930">
		<tag k="name" v="Veslestølhalle" />
		<tag k="natural" v="slope" />
		<tag k="place" v="locality" />
		<tag k="ssr:stedsnr" v="100894" />
	</node>
	<node lat="60.50936388641307" lon="8.114952783721483" id="-17932">
		<tag k="name" v="Klinkenberg" />
		<tag k="natural" v="hill" />
		<tag k="place" v="locality" />
		<tag k="ssr:stedsnr" v="100786" />
	</node>
	<node lat="60.50619444641122" lon="8.112016665009733" id="-17933">
		<tag k="name" v="Hytteliane" />
		<tag k="natural" v="slope" />
		<tag k="place" v="locality" />
		<tag k="ssr:stedsnr" v="100790" />
	</node>
	<node lat="60.424488885181525" lon="8.45566111115519" id="-17939">
		<tag k="name" v="Gnellarhøvda" />
		<tag k="natural" v="hill" />
		<tag k="place" v="locality" />
		<tag k="ssr:stedsnr" v="102639" />
	</node>
	<node lat="60.687891664305404" lon="8.085225003851868" id="-17942">
		<tag k="name" v="Veslebølhovd" />
		<tag k="natural" v="hill" />
		<tag k="place" v="locality" />
		<tag k="ssr:stedsnr" v="102461" />
	</node>
	<node lat="60.531505552767364" lon="8.081619440500958" id="-17948">
		<tag k="alt_name" v="Fossebrekkhallidn;Fossebrekkhallane" />
		<tag k="name" v="Fossebrekkhallin" />
		<tag k="natural" v="slope" />
		<tag k="place" v="locality" />
		<tag k="ssr:stedsnr" v="113381" />
	</node>
	<node lat="60.69927222079327" lon="8.147197217848321" id="-17959">
		<tag k="name" v="Djupskaret" />
		<tag k="natural" v="valley" />
		<tag k="place" v="locality" />
		<tag k="ssr:stedsnr" v="119494" />
	</node>
	<node lat="60.458383335919166" lon="8.140322221569097" id="-17963">
		<tag k="name" v="Storhovda" />
		<tag k="natural" v="hill" />
		<tag k="place" v="locality" />
		<tag k="ssr:stedsnr" v="126788" />
	</node>
	<node lat="60.44650277484381" lon="8.584374993156155" id="-17966">
		<tag k="name" v="Kultedokki" />
		<tag k="natural" v="valley" />
		<tag k="place" v="locality" />
		<tag k="ssr:stedsnr" v="127069" />
	</node>
	<node lat="60.71638888502787" lon="7.925166670476888" id="-17973">
		<tag k="alt_name" v="Flishovd, søre;Flishovd" />
		<tag k="name" v="Søre Flishovd" />
		<tag k="natural" v="hill" />
		<tag k="place" v="locality" />
		<tag k="ssr:stedsnr" v="128325" />
	</node>
	<node lat="60.68525833417706" lon="7.9910055474153765" id="-17974">
		<tag k="name" v="Knutsgjerda" />
		<tag k="natural" v="hill" />
		<tag k="place" v="locality" />
		<tag k="ssr:stedsnr" v="128330" />
	</node>
	<node lat="60.64921111057362" lon="7.989766668257901" id="-17975">
		<tag k="name" v="Kvannebergbotnane" />
		<tag k="natural" v="valley" />
		<tag k="place" v="locality" />
		<tag k="ssr:stedsnr" v="128389" />
	</node>
	<node lat="60.648025000989236" lon="7.666950001047787" id="-17977">
		<tag k="fixme" v="consider natural=peak for the most distinct mountains in the district" />
		<tag k="name" v="Simlenutane" />
		<tag k="natural" v="hill" />
		<tag k="place" v="locality" />
		<tag k="ssr:stedsnr" v="128168" />
	</node>
	<node lat="60.63265277870016" lon="7.635905546753704" id="-17978">
		<tag k="fixme" v="consider natural=peak for the most distinct mountains in the district" />
		<tag k="name" v="Kyrkjedørsnuten" />
		<tag k="natural" v="hill" />
		<tag k="place" v="locality" />
		<tag k="ssr:stedsnr" v="128175" />
	</node>
	<node lat="60.69205000065012" lon="7.688752770579241" id="-17979">
		<tag k="fixme" v="consider natural=peak for the most distinct mountains in the district" />
		<tag k="loc_name" v="Såtegge" />
		<tag k="name" v="Såteggi" />
		<tag k="natural" v="hill" />
		<tag k="place" v="locality" />
		<tag k="ssr:stedsnr" v="128182" />
	</node>
	<node lat="60.565252773870405" lon="8.052572228033616" id="-17981">
		<tag k="name" v="Tjørnbotn" />
		<tag k="natural" v="valley" />
		<tag k="place" v="locality" />
		<tag k="ssr:stedsnr" v="128362" />
	</node>
	<node lat="60.577469448450934" lon="8.006099992132315" id="-17982">
		<tag k="fixme" v="consider natural=peak for the most distinct mountains in the district" />
		<tag k="loc_name" v="Myljonuten" />
		<tag k="name" v="Miljonuten" />
		<tag k="natural" v="hill" />
		<tag k="place" v="locality" />
		<tag k="ssr:stedsnr" v="128364" />
	</node>
	<node lat="60.52740555831735" lon="7.829011104862461" id="-17985">
		<tag k="fixme" v="consider natural=peak for the most distinct mountains in the district" />
		<tag k="name" v="Nygardsnuten" />
		<tag k="natural" v="hill" />
		<tag k="place" v="locality" />
		<tag k="ssr:stedsnr" v="128379" />
	</node>
	<node lat="60.5272777810588" lon="7.885374995305448" id="-17988">
		<tag k="name" v="Kvasshovd" />
		<tag k="natural" v="hill" />
		<tag k="place" v="locality" />
		<tag k="ssr:stedsnr" v="128448" />
	</node>
	<node lat="60.52028610794804" lon="8.00538611987429" id="-17989">
		<tag k="alt_name" v="Rukenhovda" />
		<tag k="name" v="Rukehovda" />
		<tag k="natural" v="hill" />
		<tag k="place" v="locality" />
		<tag k="ssr:stedsnr" v="128451" />
	</node>
	<node lat="60.50068611215188" lon="7.849708327182182" id="-17991">
		<tag k="name" v="Kvanneskardet" />
		<tag k="natural" v="valley" />
		<tag k="place" v="locality" />
		<tag k="ssr:stedsnr" v="128463" />
	</node>
	<node lat="60.50161944703325" lon="7.939819436659407" id="-17992">
		<tag k="name" v="Rundehaug" />
		<tag k="natural" v="hill" />
		<tag k="place" v="locality" />
		<tag k="ssr:stedsnr" v="128468" />
	</node>
	<node lat="60.81402499856502" lon="7.90883611694964" id="-17999">
		<tag k="fixme" v="consider natural=peak for the most distinct mountains in the district" />
		<tag k="name" v="Iungsdalsnuten" />
		<tag k="natural" v="hill" />
		<tag k="place" v="locality" />
		<tag k="ssr:stedsnr" v="130653" />
	</node>
	<node lat="60.80569166750056" lon="7.886016659687451" id="-18000">
		<tag k="name" v="Iungsdalen" />
		<tag k="natural" v="valley" />
		<tag k="place" v="locality" />
		<tag k="ssr:stedsnr" v="130667" />
	</node>
	<node lat="60.39816944732356" lon="8.02335833287884" id="-18005">
		<tag k="fixme" v="consider natural=peak for the most distinct mountains in the district" />
		<tag k="name" v="Kortenuten" />
		<tag k="natural" v="hill" />
		<tag k="place" v="locality" />
		<tag k="ssr:stedsnr" v="141111" />
	</node>
	<node lat="60.53031110738604" lon="8.120158326352866" id="-18008">
		<tag k="name" v="Grasjuve" />
		<tag k="natural" v="gorge" />
		<tag k="ssr:stedsnr" v="161117" />
	</node>
	<node lat="60.61643333526324" lon="8.400341669610418" id="-18014">
		<tag k="name" v="Brendhaug" />
		<tag k="natural" v="hill" />
		<tag k="place" v="locality" />
		<tag k="ssr:stedsnr" v="163532" />
	</node>
	<node lat="60.722063890051835" lon="7.706469450217219" id="-18017">
		<tag k="alt_name" v="Urdvassbotn;Urvassbotn" />
		<tag k="loc_name" v="Urdevassbotn" />
		<tag k="name" v="Urevassbotn" />
		<tag k="natural" v="valley" />
		<tag k="old_name" v="Ulevasbotten;Ulevasbotn" />
		<tag k="place" v="locality" />
		<tag k="ssr:stedsnr" v="174238" />
	</node>
	<node lat="60.625569447354295" lon="8.34715832874208" id="-18023">
		<tag k="name" v="Løkjestøllie" />
		<tag k="natural" v="slope" />
		<tag k="place" v="locality" />
		<tag k="ssr:stedsnr" v="177653" />
	</node>
	<node lat="60.42079444224285" lon="8.134394449298775" id="-18031">
		<tag k="fixme" v="consider natural=peak for the most distinct mountains in the district" />
		<tag k="name" v="Reinshorntuva" />
		<tag k="natural" v="hill" />
		<tag k="place" v="locality" />
		<tag k="ssr:stedsnr" v="187144" />
	</node>
	<node lat="60.43282499703586" lon="8.106788890363632" id="-18035">
		<tag k="name" v="Hestehovda" />
		<tag k="natural" v="hill" />
		<tag k="place" v="locality" />
		<tag k="ssr:stedsnr" v="187157" />
	</node>
	<node lat="60.45897222506961" lon="7.760041671234339" id="-18045">
		<tag k="name" v="Svøe" />
		<tag k="place" v="locality" />
		<tag k="ssr:stedsnr" v="187992" />
	</node>
	<node lat="60.472574997389295" lon="7.7285749973577325" id="-18048">
		<tag k="fixme" v="consider natural=peak for the most distinct mountains in the district" />
		<tag k="name" v="Flånuten" />
		<tag k="natural" v="hill" />
		<tag k="place" v="locality" />
		<tag k="ssr:stedsnr" v="188000" />
	</node>
	<node lat="60.366225001790355" lon="8.075275003527722" id="-18050">
		<tag k="fixme" v="consider natural=peak for the most distinct mountains in the district" />
		<tag k="name" v="Briskelognutan" />
		<tag k="natural" v="hill" />
		<tag k="place" v="locality" />
		<tag k="ssr:stedsnr" v="187765" />
	</node>
	<node lat="60.434263887285645" lon="8.564244437420394" id="-18052">
		<tag k="alt_name" v="Seterfjellet" />
		<tag k="name" v="Sæterkulten" />
		<tag k="natural" v="hill" />
		<tag k="place" v="locality" />
		<tag k="ssr:stedsnr" v="188132" />
	</node>
	<node lat="60.630049996265164" lon="7.6963750016974535" id="-18061">
		<tag k="name" v="Ljøtebotnane" />
		<tag k="natural" v="valley" />
		<tag k="place" v="locality" />
		<tag k="ssr:stedsnr" v="189186" />
	</node>
	<node lat="60.7441249973316" lon="7.614777775822633" id="-18063">
		<tag k="fixme" v="consider natural=peak for the most distinct mountains in the district" />
		<tag k="name" v="Bolhovd" />
		<tag k="natural" v="hill" />
		<tag k="place" v="locality" />
		<tag k="ssr:stedsnr" v="189202" />
	</node>
	<node lat="60.66497777765935" lon="7.986497231256122" id="-18066">
		<tag k="fixme" v="consider natural=peak for the most distinct mountains in the district" />
		<tag k="name" v="Skarabakkfjellet" />
		<tag k="natural" v="hill" />
		<tag k="place" v="locality" />
		<tag k="ssr:stedsnr" v="189309" />
	</node>
	<node lat="60.50423888797077" lon="7.806469445257502" id="-18071">
		<tag k="name" v="Andersranden" />
		<tag k="natural" v="hill" />
		<tag k="place" v="locality" />
		<tag k="ssr:stedsnr" v="189452" />
	</node>
	<node lat="60.522866666964845" lon="7.697988884151563" id="-18075">
		<tag k="fixme" v="consider natural=peak for the most distinct mountains in the district" />
		<tag k="name" v="Bergsmulen" />
		<tag k="natural" v="hill" />
		<tag k="place" v="locality" />
		<tag k="ssr:stedsnr" v="189228" />
	</node>
	<node lat="60.69239166411389" lon="8.000138894830192" id="-18082">
		<tag k="name" v="Bukkehovda" />
		<tag k="natural" v="hill" />
		<tag k="place" v="locality" />
		<tag k="ssr:stedsnr" v="189342" />
	</node>
	<node lat="60.58251666344311" lon="8.08283888794936" id="-18084">
		<tag k="fixme" v="consider natural=peak for the most distinct mountains in the district" />
		<tag k="name" v="Kopen" />
		<tag k="natural" v="hill" />
		<tag k="place" v="locality" />
		<tag k="ssr:stedsnr" v="189361" />
	</node>
	<node lat="60.82452778194935" lon="7.91770833346931" id="-18096">
		<tag k="alt_name" v="Fødalen, vesle" />
		<tag k="name" v="Vesle Fødalen" />
		<tag k="natural" v="valley" />
		<tag k="place" v="locality" />
		<tag k="ssr:stedsnr" v="190750" />
	</node>
	<node lat="60.711699998285" lon="7.6130750057654994" id="-18102">
		<tag k="name" v="Geiteryggen" />
		<tag k="natural" v="ridge" />
		<tag k="old_name" v="Gjeteryg" />
		<tag k="place" v="locality" />
		<tag k="ssr:stedsnr" v="221552" />
	</node>
	<node lat="60.536188885606485" lon="8.165725000225926" id="-18106">
		<tag k="name" v="Brennebergi" />
		<tag k="natural" v="slope" />
		<tag k="place" v="locality" />
		<tag k="ssr:stedsnr" v="222667" />
	</node>
	<node lat="60.604516663432136" lon="8.357080560851314" id="-18107">
		<tag k="name" v="Reinskar" />
		<tag k="natural" v="valley" />
		<tag k="place" v="locality" />
		<tag k="ssr:stedsnr" v="222942" />
	</node>
	<node lat="60.596913891593815" lon="8.368972217342083" id="-18109">
		<tag k="name" v="Solheimslie" />
		<tag k="natural" v="slope" />
		<tag k="place" v="locality" />
		<tag k="ssr:stedsnr" v="223035" />
	</node>
	<node lat="60.481447221094506" lon="8.036877777692471" id="-18114">
		<tag k="name" v="Vikastølhovda" />
		<tag k="natural" v="hill" />
		<tag k="place" v="locality" />
		<tag k="ssr:stedsnr" v="224748" />
	</node>
	<node lat="60.526894440303025" lon="8.041266660785698" id="-18116">
		<tag k="name" v="Storhallene" />
		<tag k="natural" v="slope" />
		<tag k="place" v="locality" />
		<tag k="ssr:stedsnr" v="282194" />
	</node>
	<node lat="60.60610000387125" lon="8.330527776782455" id="-18118">
		<tag k="name" v="Seimsbergi" />
		<tag k="natural" v="hill" />
		<tag k="place" v="locality" />
		<tag k="ssr:stedsnr" v="282821" />
	</node>
	<node lat="60.51132500415525" lon="8.027450005446607" id="-18119">
		<tag k="name" v="Nyestølhovda" />
		<tag k="natural" v="hill" />
		<tag k="place" v="locality" />
		<tag k="ssr:stedsnr" v="282951" />
	</node>
	<node lat="60.71190833048304" lon="7.859841665287485" id="-18122">
		<tag k="name" v="Nedrestølbergi" />
		<tag k="natural" v="hill" />
		<tag k="place" v="locality" />
		<tag k="ssr:stedsnr" v="283430" />
	</node>
	<node lat="60.63773611256921" lon="8.28590555222546" id="-18124">
		<tag k="name" v="Svartetjødnnuten" />
		<tag k="natural" v="hill" />
		<tag k="place" v="locality" />
		<tag k="ssr:stedsnr" v="283459" />
	</node>
	<node lat="60.60843889333398" lon="8.387119442520563" id="-18125">
		<tag k="name" v="Eilevtjødndalen" />
		<tag k="natural" v="valley" />
		<tag k="place" v="locality" />
		<tag k="ssr:stedsnr" v="283464" />
	</node>
	<node lat="60.68194722572251" lon="7.960827772453364" id="-18134">
		<tag k="name" v="Kvannurreset" />
		<tag k="natural" v="slope" />
		<tag k="place" v="locality" />
		<tag k="ssr:stedsnr" v="298658" />
	</node>
	<node lat="60.6829638880568" lon="7.95054167418208" id="-18135">
		<tag k="name" v="Minnestølreset" />
		<tag k="natural" v="slope" />
		<tag k="place" v="locality" />
		<tag k="ssr:stedsnr" v="298660" />
	</node>
	<node lat="60.622383335326276" lon="8.223383335663723" id="-18138">
		<tag k="name" v="Skjerpingbakkane" />
		<tag k="natural" v="slope" />
		<tag k="place" v="locality" />
		<tag k="ssr:stedsnr" v="301990" />
	</node>
	<node lat="60.625183331790595" lon="8.369899996374642" id="-18139">
		<tag k="name" v="Ølmelie" />
		<tag k="natural" v="slope" />
		<tag k="place" v="locality" />
		<tag k="ssr:stedsnr" v="302484" />
	</node>
	<node lat="60.44441111311073" lon="8.156719441763771" id="-18141">
		<tag k="name" v="Svarahovda" />
		<tag k="natural" v="hill" />
		<tag k="place" v="locality" />
		<tag k="ssr:stedsnr" v="308118" />
	</node>
	<node lat="60.434719448401914" lon="8.203208325830062" id="-18144">
		<tag k="name" v="Løkjehøgdi" />
		<tag k="natural" v="hill" />
		<tag k="place" v="locality" />
		<tag k="ssr:stedsnr" v="308125" />
	</node>
	<node lat="60.359572219059864" lon="8.26859444911367" id="-18155">
		<tag k="fixme" v="consider natural=peak for the most distinct mountains in the district" />
		<tag k="name" v="Synsnuten" />
		<tag k="natural" v="hill" />
		<tag k="place" v="locality" />
		<tag k="ssr:stedsnr" v="309229" />
	</node>
	<node lat="60.72017778184126" lon="8.018669451634526" id="-18163">
		<tag k="name" v="Ganastein" />
		<tag k="natural" v="hill" />
		<tag k="place" v="locality" />
		<tag k="ssr:stedsnr" v="310263" />
	</node>
	<node lat="60.71303333000407" lon="8.05528056394256" id="-18166">
		<tag k="name" v="Olsennhallin" />
		<tag k="natural" v="slope" />
		<tag k="place" v="locality" />
		<tag k="ssr:stedsnr" v="310356" />
	</node>
	<node lat="60.668963885535085" lon="7.796550004916266" id="-18170">
		<tag k="name" v="Sledaskardet" />
		<tag k="natural" v="valley" />
		<tag k="place" v="locality" />
		<tag k="ssr:stedsnr" v="310318" />
	</node>
	<node lat="60.643544440398415" lon="8.177780554804219" id="-18178">
		<tag k="fixme" v="consider natural=peak for the most distinct mountains in the district" />
		<tag k="name" v="Torsbunatten" />
		<tag k="natural" v="hill" />
		<tag k="place" v="locality" />
		<tag k="ssr:stedsnr" v="310566" />
	</node>
	<node lat="60.60017222655849" lon="8.40763888124863" id="-18183">
		<tag k="fixme" v="consider natural=peak for the most distinct mountains in the district" />
		<tag k="name" v="Storhovd" />
		<tag k="natural" v="hill" />
		<tag k="place" v="locality" />
		<tag k="ssr:stedsnr" v="310666" />
	</node>
	<node lat="60.78843889131945" lon="7.779102777177123" id="-18187">
		<tag k="fixme" v="consider natural=peak for the most distinct mountains in the district" />
		<tag k="name" v="Volavasseggi" />
		<tag k="natural" v="hill" />
		<tag k="place" v="locality" />
		<tag k="ssr:stedsnr" v="311756" />
	</node>
	<node lat="60.48833611391747" lon="8.358327772728897" id="-18191">
		<tag k="fixme" v="consider natural=peak for the most distinct mountains in the district" />
		<tag k="name" v="Skurdalsåsen" />
		<tag k="natural" v="hill" />
		<tag k="place" v="locality" />
		<tag k="ssr:stedsnr" v="327686" />
	</node>
	<node lat="60.637144448446136" lon="8.29781943727252" id="-18193">
		<tag k="name" v="Fekjadn" />
		<tag k="place" v="locality" />
		<tag k="ssr:stedsnr" v="343484" />
	</node>
	<node lat="60.53898611457988" lon="8.154808327496086" id="-18195">
		<tag k="name" v="Marapiggen" />
		<tag k="natural" v="hill" />
		<tag k="place" v="locality" />
		<tag k="ssr:stedsnr" v="343729" />
	</node>
	<node lat="60.596797224600266" lon="8.18892222662208" id="-18209">
		<tag k="name" v="Skurvhovda" />
		<tag k="natural" v="hill" />
		<tag k="place" v="locality" />
		<tag k="ssr:stedsnr" v="346000" />
	</node>
	<node lat="60.60144444644601" lon="8.413238881116577" id="-18220">
		<tag k="name" v="Venevieren" />
		<tag k="natural" v="valley" />
		<tag k="place" v="locality" />
		<tag k="ssr:stedsnr" v="362057" />
	</node>
	<node lat="60.40680277547738" lon="8.436658342314962" id="-18221">
		<tag k="name" v="Åsbergmogen" />
		<tag k="place" v="locality" />
		<tag k="ssr:stedsnr" v="358569" />
	</node>
	<node lat="60.59808611469949" lon="8.391333336476144" id="-18223">
		<tag k="name" v="Dekkabakken" />
		<tag k="natural" v="slope" />
		<tag k="place" v="locality" />
		<tag k="ssr:stedsnr" v="358892" />
	</node>
	<node lat="60.63022222373473" lon="8.196069437912643" id="-18227">
		<tag k="name" v="Kamben" />
		<tag k="natural" v="slope" />
		<tag k="place" v="locality" />
		<tag k="ssr:stedsnr" v="359792" />
	</node>
	<node lat="60.56086111141634" lon="8.334874997367294" id="-18232">
		<tag k="name" v="Dalsteinen" />
		<tag k="natural" v="hill" />
		<tag k="place" v="locality" />
		<tag k="ssr:stedsnr" v="360820" />
	</node>
	<node lat="60.5943499983721" lon="8.399255548589709" id="-18236">
		<tag k="name" v="Heimstølnatten" />
		<tag k="natural" v="hill" />
		<tag k="place" v="locality" />
		<tag k="ssr:stedsnr" v="362074" />
	</node>
	<node lat="60.658188885908444" lon="8.27551944655975" id="-18241">
		<tag k="name" v="Varaldsetlie" />
		<tag k="natural" v="slope" />
		<tag k="place" v="locality" />
		<tag k="ssr:stedsnr" v="362722" />
	</node>
	<node lat="60.473597220853435" lon="8.432775002360426" id="-18254">
		<tag k="name" v="Kulten" />
		<tag k="natural" v="hill" />
		<tag k="place" v="locality" />
		<tag k="ssr:stedsnr" v="369793" />
	</node>
	<node lat="60.44607499705205" lon="8.473738889259067" id="-18264">
		<tag k="alt_name" v="Kvilarøksle" />
		<tag k="name" v="Gvilarsoksli" />
		<tag k="natural" v="hill" />
		<tag k="place" v="locality" />
		<tag k="ssr:stedsnr" v="370095" />
	</node>
	<node lat="60.63533888729008" lon="8.164972228230877" id="-18267">
		<tag k="fixme" v="consider natural=peak for the most distinct mountains in the district" />
		<tag k="name" v="Orrhamar" />
		<tag k="natural" v="hill" />
		<tag k="place" v="locality" />
		<tag k="ssr:stedsnr" v="370626" />
	</node>
	<node lat="60.56956944203101" lon="8.111063887735051" id="-18269">
		<tag k="alt_name" v="Skinilhøvda" />
		<tag k="fixme" v="consider natural=peak for the most distinct mountains in the district" />
		<tag k="name" v="Skinilhovda" />
		<tag k="natural" v="hill" />
		<tag k="place" v="locality" />
		<tag k="ssr:stedsnr" v="370699" />
	</node>
	<node lat="60.67054999810196" lon="7.615825000780242" id="-18274">
		<tag k="fixme" v="consider natural=peak for the most distinct mountains in the district" />
		<tag k="name" v="Godfjell" />
		<tag k="natural" v="hill" />
		<tag k="place" v="locality" />
		<tag k="ssr:stedsnr" v="371201" />
	</node>
	<node lat="60.73398888670881" lon="8.032586112674705" id="-18277">
		<tag k="fixme" v="consider natural=peak for the most distinct mountains in the district" />
		<tag k="name" v="Ryssefjellet" />
		<tag k="natural" v="hill" />
		<tag k="place" v="locality" />
		<tag k="ssr:stedsnr" v="371255" />
	</node>
	<node lat="60.68875278109635" lon="8.004408329832593" id="-18278">
		<tag k="name" v="Skrubbeskard" />
		<tag k="natural" v="valley" />
		<tag k="place" v="locality" />
		<tag k="ssr:stedsnr" v="371344" />
	</node>
	<node lat="60.682469447099" lon="7.989188897469282" id="-18279">
		<tag k="name" v="Gardlihovda" />
		<tag k="natural" v="hill" />
		<tag k="place" v="locality" />
		<tag k="ssr:stedsnr" v="371347" />
	</node>
	<node lat="60.55446667000936" lon="8.385405561312128" id="-18283">
		<tag k="fixme" v="consider natural=peak for the most distinct mountains in the district" />
		<tag k="name" v="Bjørkehovda" />
		<tag k="natural" v="hill" />
		<tag k="place" v="locality" />
		<tag k="ssr:stedsnr" v="371731" />
	</node>
	<node lat="60.546300004501056" lon="8.303961118394799" id="-18285">
		<tag k="fixme" v="consider natural=peak for the most distinct mountains in the district" />
		<tag k="name" v="Randan" />
		<tag k="natural" v="hill" />
		<tag k="place" v="locality" />
		<tag k="ssr:stedsnr" v="371742" />
	</node>
	<node lat="60.65785833210126" lon="8.22163055913471" id="-18286">
		<tag k="fixme" v="consider natural=peak for the most distinct mountains in the district" />
		<tag k="name" v="Brenthovd" />
		<tag k="natural" v="hill" />
		<tag k="place" v="locality" />
		<tag k="ssr:stedsnr" v="371552" />
	</node>
	<node lat="60.53068055162425" lon="8.354844438900814" id="-18289">
		<tag k="fixme" v="consider natural=peak for the most distinct mountains in the district" />
		<tag k="name" v="Brennun" />
		<tag k="natural" v="hill" />
		<tag k="place" v="locality" />
		<tag k="ssr:stedsnr" v="371782" />
	</node>
	<node lat="60.56097222369939" lon="8.241561119522624" id="-18291">
		<tag k="name" v="Lien" />
		<tag k="natural" v="slope" />
		<tag k="place" v="locality" />
		<tag k="ssr:stedsnr" v="371752" />
	</node>
	<node lat="60.48091944563445" lon="8.03290833411312" id="-18296">
		<tag k="fixme" v="consider natural=peak for the most distinct mountains in the district" />
		<tag k="name" v="Meinsethovda" />
		<tag k="natural" v="hill" />
		<tag k="place" v="locality" />
		<tag k="ssr:stedsnr" v="384038" />
	</node>
	<node lat="60.415125003119584" lon="8.127302778957782" id="-18299">
		<tag k="name" v="Dugurdsnuten" />
		<tag k="natural" v="hill" />
		<tag k="place" v="locality" />
		<tag k="ssr:stedsnr" v="384132" />
	</node>
	<node lat="60.647288893006824" lon="8.068177773353389" id="-18303">
		<tag k="name" v="Kleivstølskaret" />
		<tag k="natural" v="valley" />
		<tag k="place" v="locality" />
		<tag k="ssr:stedsnr" v="404168" />
	</node>
	<node lat="60.60518055219267" lon="8.331405550536813" id="-18305">
		<tag k="name" v="Bergahølu" />
		<tag k="natural" v="valley" />
		<tag k="place" v="locality" />
		<tag k="ssr:stedsnr" v="404808" />
	</node>
	<node lat="60.60778333475507" lon="8.399297223522103" id="-18319">
		<tag k="fixme" v="consider natural=peak for the most distinct mountains in the district" />
		<tag k="loc_name" v="Skarhovdun" />
		<tag k="name" v="Skarhovdune" />
		<tag k="natural" v="hill" />
		<tag k="place" v="locality" />
		<tag k="ssr:stedsnr" v="413824" />
	</node>
	<node lat="60.682133337016886" lon="7.927316662663022" id="-18322">
		<tag k="name" v="Kalken" />
		<tag k="place" v="locality" />
		<tag k="ssr:stedsnr" v="419663" />
	</node>
	<node lat="60.37347778049461" lon="8.3510472240838" id="-18332">
		<tag k="alt_name" v="Djupeskar" />
		<tag k="fixme" v="consider natural=peak for the most distinct mountains in the district" />
		<tag k="name" v="Djupeskard" />
		<tag k="natural" v="hill" />
		<tag k="place" v="locality" />
		<tag k="ssr:stedsnr" v="430180" />
	</node>
	<node lat="60.42708333231056" lon="8.294830556015983" id="-18334">
		<tag k="alt_name" v="Breisethøvda" />
		<tag k="fixme" v="consider natural=peak for the most distinct mountains in the district" />
		<tag k="name" v="Breidsethovda" />
		<tag k="natural" v="hill" />
		<tag k="place" v="locality" />
		<tag k="ssr:stedsnr" v="430117" />
	</node>
	<node lat="60.389274998942156" lon="7.88790000678332" id="-18343">
		<tag k="name" v="Grensehøgda" />
		<tag k="natural" v="hill" />
		<tag k="place" v="locality" />
		<tag k="ssr:stedsnr" v="430781" />
	</node>
	<node lat="60.430375001605555" lon="8.010499992963373" id="-18344">
		<tag k="name" v="Rundenuten" />
		<tag k="natural" v="hill" />
		<tag k="place" v="locality" />
		<tag k="ssr:stedsnr" v="430964" />
	</node>
	<node lat="60.44552500078344" lon="8.569399998149411" id="-18345">
		<tag k="alt_name" v="Løstekulten, vesle" />
		<tag k="name" v="Vesle Løstekulten" />
		<tag k="natural" v="hill" />
		<tag k="place" v="locality" />
		<tag k="ssr:stedsnr" v="431081" />
	</node>
	<node lat="60.44062500269329" lon="8.53217500443084" id="-18347">
		<tag k="name" v="Trollhovda" />
		<tag k="natural" v="hill" />
		<tag k="place" v="locality" />
		<tag k="ssr:stedsnr" v="431141" />
	</node>
	<node lat="60.51008055978236" lon="7.938813884415646" id="-18348">
		<tag k="alt_name" v="Kjersundliene, nordre;Nordre Kjersundlien" />
		<tag k="name" v="Nørdre Kjersundliene" />
		<tag k="natural" v="slope" />
		<tag k="place" v="locality" />
		<tag k="ssr:stedsnr" v="431530" />
	</node>
	<node lat="60.74722222591577" lon="7.921713896037095" id="-18351">
		<tag k="fixme" v="consider natural=peak for the most distinct mountains in the district" />
		<tag k="name" v="Grønehæe" />
		<tag k="natural" v="hill" />
		<tag k="place" v="locality" />
		<tag k="ssr:stedsnr" v="431278" />
	</node>
	<node lat="60.50791389279571" lon="8.07964999340342" id="-18354">
		<tag k="name" v="Vardaskardet" />
		<tag k="natural" v="valley" />
		<tag k="place" v="locality" />
		<tag k="ssr:stedsnr" v="431538" />
	</node>
	<node lat="60.698519446057325" lon="8.118150005370865" id="-18356">
		<tag k="fixme" v="consider natural=peak for the most distinct mountains in the district" />
		<tag k="name" v="Storhovd" />
		<tag k="natural" v="hill" />
		<tag k="place" v="locality" />
		<tag k="ssr:stedsnr" v="431548" />
	</node>
	<node lat="60.72311389019949" lon="7.815247226848601" id="-18360">
		<tag k="name" v="Hjallane" />
		<tag k="natural" v="slope" />
		<tag k="place" v="locality" />
		<tag k="ssr:stedsnr" v="432256" />
	</node>
	<node lat="60.513222224553935" lon="7.978747230797856" id="-18367">
		<tag k="name" v="Storenuten" />
		<tag k="natural" v="hill" />
		<tag k="place" v="locality" />
		<tag k="ssr:stedsnr" v="432462" />
	</node>
	<node lat="60.50130000286959" lon="7.814749991165626" id="-18368">
		<tag k="alt_name" v="Heirkvelve" />
		<tag k="name" v="Heirkvelvi" />
		<tag k="natural" v="slope" />
		<tag k="place" v="locality" />
		<tag k="ssr:stedsnr" v="432466" />
	</node>
	<node lat="60.69213888757643" lon="7.984288883072333" id="-18369">
		<tag k="name" v="Buhovd" />
		<tag k="natural" v="hill" />
		<tag k="place" v="locality" />
		<tag k="ssr:stedsnr" v="432335" />
	</node>
	<node lat="60.56688610918478" lon="7.896177774106346" id="-18375">
		<tag k="name" v="Hyllun" />
		<tag k="natural" v="hill" />
		<tag k="place" v="locality" />
		<tag k="ssr:stedsnr" v="432357" />
	</node>
	<node lat="60.53173055438519" lon="8.052780564497988" id="-18376">
		<tag k="fixme" v="consider natural=peak for the most distinct mountains in the district" />
		<tag k="name" v="Eimehæe" />
		<tag k="natural" v="hill" />
		<tag k="place" v="locality" />
		<tag k="ssr:stedsnr" v="432378" />
	</node>
	<node lat="60.55346944688811" lon="8.29815556343659" id="-18383">
		<tag k="name" v="Ustedalen" />
		<tag k="natural" v="valley" />
		<tag k="place" v="locality" />
		<tag k="ssr:stedsnr" v="432721" />
	</node>
	<node lat="60.60891944259294" lon="8.368827779807388" id="-18386">
		<tag k="fixme" v="consider natural=peak for the most distinct mountains in the district" />
		<tag k="name" v="Damnuten" />
		<tag k="natural" v="hill" />
		<tag k="place" v="locality" />
		<tag k="ssr:stedsnr" v="432659" />
	</node>
	<node lat="60.60537777677459" lon="8.395288897953497" id="-18387">
		<tag k="alt_name" v="Skardhovd;Skarhovda" />
		<tag k="fixme" v="consider natural=peak for the most distinct mountains in the district" />
		<tag k="name" v="Skarhovd" />
		<tag k="natural" v="hill" />
		<tag k="place" v="locality" />
		<tag k="ssr:stedsnr" v="432660" />
	</node>
	<node lat="60.78182500303237" lon="7.92185000256232" id="-18397">
		<tag k="name" v="Grevskardet" />
		<tag k="natural" v="valley" />
		<tag k="place" v="locality" />
		<tag k="ssr:stedsnr" v="433727" />
	</node>
	<node lat="60.402466667613496" lon="8.284222218640172" id="-18400">
		<tag k="fixme" v="consider natural=peak for the most distinct mountains in the district" />
		<tag k="name" v="Gvonnestulberget" />
		<tag k="natural" v="hill" />
		<tag k="place" v="locality" />
		<tag k="ssr:stedsnr" v="445113" />
	</node>
	<node lat="60.613802774336534" lon="8.184402772154597" id="-18410">
		<tag k="name" v="Grønholabergi" />
		<tag k="place" v="locality" />
		<tag k="ssr:stedsnr" v="526955" />
	</node>
	<node lat="60.66491389313981" lon="7.799708325707292" id="-18412">
		<tag k="name" v="Sleaskarhovda" />
		<tag k="natural" v="hill" />
		<tag k="place" v="locality" />
		<tag k="ssr:stedsnr" v="527541" />
	</node>
	<node lat="60.47928055742284" lon="8.060555556097182" id="-18413">
		<tag k="name" v="Kjøsleranden" />
		<tag k="natural" v="ridge" />
		<tag k="place" v="locality" />
		<tag k="ssr:stedsnr" v="527800" />
	</node>
	<node lat="60.68585833537154" lon="8.03337223128331" id="-18416">
		<tag k="alt_name" v="Fårlefjellet;Fålefjell" />
		<tag k="fixme" v="consider natural=peak for the most distinct mountains in the district" />
		<tag k="name" v="Fårlefjell" />
		<tag k="natural" v="hill" />
		<tag k="old_name" v="Farlig Fj." />
		<tag k="place" v="locality" />
		<tag k="ssr:stedsnr" v="537348" />
	</node>
	<node lat="60.50364444268099" lon="8.170786105192771" id="-18421">
		<tag k="fixme" v="consider natural=peak for the most distinct mountains in the district" />
		<tag k="name" v="Natteranden" />
		<tag k="natural" v="hill" />
		<tag k="place" v="locality" />
		<tag k="ssr:stedsnr" v="541698" />
	</node>
	<node lat="60.583180552407654" lon="8.410905546592778" id="-18429">
		<tag k="name" v="Kleivebergi" />
		<tag k="place" v="locality" />
		<tag k="ssr:stedsnr" v="543263" />
	</node>
	<node lat="60.632608337197496" lon="8.325663883649261" id="-18432">
		<tag k="name" v="Urelie" />
		<tag k="natural" v="slope" />
		<tag k="place" v="locality" />
		<tag k="ssr:stedsnr" v="544828" />
	</node>
	<node lat="60.573519440767214" lon="8.351236105047175" id="-18437">
		<tag k="name" v="Grovedalen" />
		<tag k="natural" v="valley" />
		<tag k="place" v="locality" />
		<tag k="ssr:stedsnr" v="544994" />
	</node>
	<node lat="60.575063888689144" lon="8.292669451967443" id="-18438">
		<tag k="name" v="Bjørnagrovhovda" />
		<tag k="natural" v="hill" />
		<tag k="place" v="locality" />
		<tag k="ssr:stedsnr" v="545001" />
	</node>
	<node lat="60.3867444414745" lon="8.249624996827636" id="-18441">
		<tag k="fixme" v="consider natural=peak for the most distinct mountains in the district" />
		<tag k="name" v="Naustelihovda" />
		<tag k="natural" v="hill" />
		<tag k="place" v="locality" />
		<tag k="ssr:stedsnr" v="551183" />
	</node>
	<node lat="60.42923610961943" lon="8.444136102187173" id="-18443">
		<tag k="alt_name" v="Kjønåsen" />
		<tag k="fixme" v="consider natural=peak for the most distinct mountains in the district" />
		<tag k="name" v="Tjørnåsen" />
		<tag k="natural" v="hill" />
		<tag k="place" v="locality" />
		<tag k="ssr:stedsnr" v="551137" />
	</node>
	<node lat="60.40387500003135" lon="8.494647216586845" id="-18449">
		<tag k="name" v="Hugarhaugen" />
		<tag k="natural" v="hill" />
		<tag k="place" v="locality" />
		<tag k="ssr:stedsnr" v="552420" />
	</node>
	<node lat="60.4696333378716" lon="8.174036119135856" id="-18451">
		<tag k="name" v="Flåmyrhøgdi" />
		<tag k="natural" v="hill" />
		<tag k="place" v="locality" />
		<tag k="ssr:stedsnr" v="551869" />
	</node>
	<node lat="60.65699166384529" lon="7.798344437182917" id="-18461">
		<tag k="name" v="Raggsteindalen" />
		<tag k="natural" v="valley" />
		<tag k="place" v="locality" />
		<tag k="ssr:stedsnr" v="552382" />
	</node>
	<node lat="60.64788333031313" lon="7.863380550685052" id="-18462">
		<tag k="alt_name" v="Randefonne" />
		<tag k="fixme" v="consider natural=peak for the most distinct mountains in the district" />
		<tag k="name" v="Randefonni" />
		<tag k="natural" v="hill" />
		<tag k="place" v="locality" />
		<tag k="ssr:stedsnr" v="552458" />
	</node>
	<node lat="60.63548611343769" lon="7.765730555292907" id="-18463">
		<tag k="name" v="Veslebotn" />
		<tag k="natural" v="valley" />
		<tag k="place" v="locality" />
		<tag k="ssr:stedsnr" v="552469" />
	</node>
	<node lat="60.64223055590566" lon="7.762730563934803" id="-18465">
		<tag k="fixme" v="consider natural=peak for the most distinct mountains in the district" />
		<tag k="name" v="Raggsteinnuten" />
		<tag k="natural" v="hill" />
		<tag k="place" v="locality" />
		<tag k="ssr:stedsnr" v="552474" />
	</node>
	<node lat="60.62574722460559" lon="8.061763886106698" id="-18466">
		<tag k="alt_name" v="Osberget" />
		<tag k="name" v="Oseberget" />
		<tag k="natural" v="hill" />
		<tag k="place" v="locality" />
		<tag k="ssr:stedsnr" v="552478" />
	</node>
	<node lat="60.50686111357273" lon="7.957333331298827" id="-18468">
		<tag k="name" v="Øyestølhovda" />
		<tag k="natural" v="hill" />
		<tag k="place" v="locality" />
		<tag k="ssr:stedsnr" v="552573" />
	</node>
	<node lat="60.60537595284159" lon="8.049496453651626" id="-18473">
		<tag k="name" v="Hivjudalen" />
		<tag k="natural" v="valley" />
		<tag k="place" v="locality" />
		<tag k="ssr:stedsnr" v="552490" />
	</node>
	<node lat="60.606420316984384" lon="7.800642907902749" id="-18474">
		<tag k="name" v="Folarskardet" />
		<tag k="natural" v="valley" />
		<tag k="place" v="locality" />
		<tag k="ssr:stedsnr" v="552496" />
	</node>
	<node lat="60.58031388729032" lon="8.173455563652793" id="-18477">
		<tag k="alt_name" v="Høvdestølvarden" />
		<tag k="fixme" v="consider natural=peak for the most distinct mountains in the district" />
		<tag k="name" v="Hovdestølvarden" />
		<tag k="natural" v="hill" />
		<tag k="place" v="locality" />
		<tag k="ssr:stedsnr" v="552744" />
	</node>
	<node lat="60.54967777455545" lon="7.898025005397752" id="-18480">
		<tag k="alt_name" v="Raggenutane" />
		<tag k="fixme" v="consider natural=peak for the most distinct mountains in the district" />
		<tag k="loc_name" v="Raggenutan" />
		<tag k="name" v="Raggenuten" />
		<tag k="natural" v="hill" />
		<tag k="place" v="locality" />
		<tag k="ssr:stedsnr" v="553385" />
	</node>
	<node lat="60.529322218691256" lon="8.12548889231586" id="-18486">
		<tag k="fixme" v="consider natural=peak for the most distinct mountains in the district" />
		<tag k="name" v="Fjellstølhovda" />
		<tag k="natural" v="hill" />
		<tag k="place" v="locality" />
		<tag k="ssr:stedsnr" v="553744" />
	</node>
	<node lat="60.56518889233735" lon="8.26477500469173" id="-18487">
		<tag k="fixme" v="consider natural=peak for the most distinct mountains in the district" />
		<tag k="name" v="Fosshovda" />
		<tag k="natural" v="hill" />
		<tag k="place" v="locality" />
		<tag k="ssr:stedsnr" v="553757" />
	</node>
	<node lat="60.55122222104681" lon="8.137605563989576" id="-18488">
		<tag k="fixme" v="consider natural=peak for the most distinct mountains in the district" />
		<tag k="name" v="Snøhovda" />
		<tag k="natural" v="hill" />
		<tag k="place" v="locality" />
		<tag k="ssr:stedsnr" v="553763" />
	</node>
	<node lat="60.839224999131574" lon="7.818691665553079" id="-18492">
		<tag k="fixme" v="consider natural=peak for the most distinct mountains in the district" />
		<tag k="loc_name" v="Haldalshøgde" />
		<tag k="name" v="Haldalshøgdi" />
		<tag k="natural" v="hill" />
		<tag k="place" v="locality" />
		<tag k="ssr:stedsnr" v="554755" />
	</node>
	<node lat="60.594036111664465" lon="8.14331111296142" id="-18493">
		<tag k="fixme" v="consider natural=peak for the most distinct mountains in the district" />
		<tag k="name" v="Belvassnuten" />
		<tag k="natural" v="hill" />
		<tag k="place" v="locality" />
		<tag k="ssr:stedsnr" v="565959" />
	</node>
	<node lat="60.49356666878874" lon="8.068352776715768" id="-18500">
		<tag k="name" v="Måfådalen" />
		<tag k="natural" v="valley" />
		<tag k="place" v="locality" />
		<tag k="ssr:stedsnr" v="585772" />
	</node>
	<node lat="60.52650555992016" lon="8.11483334031083" id="-18502">
		<tag k="name" v="Fossgardhovda" />
		<tag k="natural" v="hill" />
		<tag k="place" v="locality" />
		<tag k="ssr:stedsnr" v="586085" />
	</node>
	<node lat="60.61830277571063" lon="8.392361117004187" id="-18503">
		<tag k="name" v="Hestehovda" />
		<tag k="natural" v="hill" />
		<tag k="place" v="locality" />
		<tag k="ssr:stedsnr" v="586510" />
	</node>
	<node lat="60.60304722107242" lon="8.359408326876952" id="-18507">
		<tag k="name" v="Kamben" />
		<tag k="place" v="locality" />
		<tag k="ssr:stedsnr" v="587037" />
	</node>
	<node lat="60.48892499676378" lon="8.231600006501615" id="-18514">
		<tag k="name" v="Raneidstølhovda" />
		<tag k="natural" v="hill" />
		<tag k="place" v="locality" />
		<tag k="ssr:stedsnr" v="587785" />
	</node>
	<node lat="60.629891665179954" lon="8.190155547848171" id="-18520">
		<tag k="name" v="Klufte" />
		<tag k="natural" v="slope" />
		<tag k="place" v="locality" />
		<tag k="ssr:stedsnr" v="601778" />
	</node>
	<node lat="60.52266944340257" lon="8.312922229884915" id="-18522">
		<tag k="name" v="Skarsetstølen" />
		<tag k="natural" v="hill" />
		<tag k="place" v="locality" />
		<tag k="ssr:stedsnr" v="602719" />
	</node>
	<node lat="60.51802777476867" lon="7.80868056022418" id="-18527">
		<tag k="name" v="Nøsaberget" />
		<tag k="natural" v="hill" />
		<tag k="place" v="locality" />
		<tag k="ssr:stedsnr" v="604475" />
	</node>
	<node lat="60.59154444892613" lon="8.415974998384753" id="-18535">
		<tag k="name" v="Lykkjebergi" />
		<tag k="natural" v="hill" />
		<tag k="place" v="locality" />
		<tag k="ssr:stedsnr" v="605060" />
	</node>
	<node lat="60.42118888468211" lon="8.348352778864445" id="-18539">
		<tag k="alt_name" v="Grothøvda" />
		<tag k="name" v="Grothovda" />
		<tag k="natural" v="hill" />
		<tag k="place" v="locality" />
		<tag k="ssr:stedsnr" v="611127" />
	</node>
	<node lat="60.41118889077043" lon="8.26128055806921" id="-18540">
		<tag k="fixme" v="consider natural=peak for the most distinct mountains in the district" />
		<tag k="name" v="Kyrkjehovda" />
		<tag k="natural" v="hill" />
		<tag k="place" v="locality" />
		<tag k="ssr:stedsnr" v="611132" />
	</node>
	<node lat="60.45664444858471" lon="8.302080559835035" id="-18541">
		<tag k="name" v="Nysæterlii" />
		<tag k="natural" v="slope" />
		<tag k="place" v="locality" />
		<tag k="ssr:stedsnr" v="611136" />
	</node>
	<node lat="60.44523055765057" lon="8.174527780279757" id="-18544">
		<tag k="name" v="Hallenatten" />
		<tag k="natural" v="hill" />
		<tag k="place" v="locality" />
		<tag k="ssr:stedsnr" v="611149" />
	</node>
	<node lat="60.47037222451165" lon="8.385577782081212" id="-18549">
		<tag k="fixme" v="consider natural=peak for the most distinct mountains in the district" />
		<tag k="name" v="Halldishovda" />
		<tag k="natural" v="hill" />
		<tag k="old_name" v="Haldis Hövde" />
		<tag k="place" v="locality" />
		<tag k="ssr:stedsnr" v="611833" />
	</node>
	<node lat="60.46216111016856" lon="8.206483330255535" id="-18554">
		<tag k="name" v="Grønleinsbrotet" />
		<tag k="natural" v="ridge" />
		<tag k="place" v="locality" />
		<tag k="ssr:stedsnr" v="611860" />
	</node>
	<node lat="60.6488027802144" lon="7.696766669963141" id="-18562">
		<tag k="fixme" v="consider natural=peak for the most distinct mountains in the district" />
		<tag k="name" v="Finnebotneggi" />
		<tag k="natural" v="hill" />
		<tag k="place" v="locality" />
		<tag k="ssr:stedsnr" v="613192" />
	</node>
	<node lat="60.68691111555434" lon="7.777916663655481" id="-18566">
		<tag k="name" v="Ynglesdalen" />
		<tag k="natural" v="valley" />
		<tag k="place" v="locality" />
		<tag k="ssr:stedsnr" v="613381" />
	</node>
	<node lat="60.56064722500621" lon="8.050080554915056" id="-18567">
		<tag k="fixme" v="consider natural=peak for the most distinct mountains in the district" />
		<tag k="name" v="Skarvsenden" />
		<tag k="natural" v="hill" />
		<tag k="place" v="locality" />
		<tag k="ssr:stedsnr" v="613392" />
	</node>
	<node lat="60.7041083340675" lon="7.9522638912175845" id="-18573">
		<tag k="name" v="Flynuten" />
		<tag k="natural" v="hill" />
		<tag k="place" v="locality" />
		<tag k="ssr:stedsnr" v="613354" />
	</node>
	<node lat="60.619241668165564" lon="8.042000003501277" id="-18576">
		<tag k="name" v="Skurven" />
		<tag k="natural" v="hill" />
		<tag k="place" v="locality" />
		<tag k="ssr:stedsnr" v="613439" />
	</node>
	<node lat="60.795927778416456" lon="7.861883324874171" id="-18582">
		<tag k="fixme" v="consider natural=peak for the most distinct mountains in the district" />
		<tag k="name" v="Gjerdesbergi" />
		<tag k="natural" v="hill" />
		<tag k="place" v="locality" />
		<tag k="ssr:stedsnr" v="614737" />
	</node>
	<node lat="60.812411114639964" lon="7.87859999571485" id="-18584">
		<tag k="name" v="Hyllene" />
		<tag k="natural" v="slope" />
		<tag k="place" v="locality" />
		<tag k="ssr:stedsnr" v="615663" />
	</node>
	<node lat="60.8045361093522" lon="7.856338891809021" id="-18586">
		<tag k="name" v="Skorpetindbotn" />
		<tag k="natural" v="valley" />
		<tag k="place" v="locality" />
		<tag k="ssr:stedsnr" v="615671" />
	</node>
	<node lat="60.43157222602509" lon="7.926352783249874" id="-18589">
		<tag k="fixme" v="consider natural=peak for the most distinct mountains in the district" />
		<tag k="name" v="Håkonhovda" />
		<tag k="natural" v="hill" />
		<tag k="place" v="locality" />
		<tag k="ssr:stedsnr" v="627034" />
	</node>
	<node lat="60.39034166717336" lon="8.341947227367497" id="-18591">
		<tag k="fixme" v="consider natural=peak for the most distinct mountains in the district" />
		<tag k="name" v="Heimhovdun" />
		<tag k="natural" v="hill" />
		<tag k="place" v="locality" />
		<tag k="ssr:stedsnr" v="627118" />
	</node>
	<node lat="60.49004999874262" lon="7.8634333417091" id="-18594">
		<tag k="name" v="Ørterdalen" />
		<tag k="natural" v="valley" />
		<tag k="place" v="locality" />
		<tag k="ssr:stedsnr" v="646446" />
	</node>
	<node lat="60.50781944901003" lon="8.147900008043585" id="-18597">
		<tag k="name" v="Skarabergi" />
		<tag k="natural" v="slope" />
		<tag k="place" v="locality" />
		<tag k="ssr:stedsnr" v="646843" />
	</node>
	<node lat="60.49342221898194" lon="8.170155549552822" id="-18611">
		<tag k="fixme" v="consider natural=peak for the most distinct mountains in the district" />
		<tag k="name" v="Beinstigranden" />
		<tag k="natural" v="hill" />
		<tag k="old_name" v="Beinstigtranden" />
		<tag k="place" v="locality" />
		<tag k="ssr:stedsnr" v="664819" />
	</node>
	<node lat="60.568652777395855" lon="8.2416027859123" id="-18612">
		<tag k="name" v="Herborglie" />
		<tag k="natural" v="slope" />
		<tag k="place" v="locality" />
		<tag k="ssr:stedsnr" v="665075" />
	</node>
	<node lat="60.63221110845021" lon="8.343238890421945" id="-18614">
		<tag k="name" v="Langemyrlie" />
		<tag k="natural" v="slope" />
		<tag k="place" v="locality" />
		<tag k="ssr:stedsnr" v="665863" />
	</node>
	<node lat="60.628838893378656" lon="8.154852773158451" id="-18623">
		<tag k="name" v="Bergsbergi" />
		<tag k="natural" v="hill" />
		<tag k="place" v="locality" />
		<tag k="ssr:stedsnr" v="723759" />
	</node>
	<node lat="60.505552773660625" lon="8.308913890321556" id="-18624">
		<tag k="name" v="Geiteberget" />
		<tag k="natural" v="hill" />
		<tag k="place" v="locality" />
		<tag k="ssr:stedsnr" v="724658" />
	</node>
	<node lat="60.64928332934435" lon="8.253038892314656" id="-18628">
		<tag k="name" v="Hæbrøtet" />
		<tag k="natural" v="hill" />
		<tag k="place" v="locality" />
		<tag k="ssr:stedsnr" v="726856" />
	</node>
	<node lat="60.39038889339307" lon="8.115008335381223" id="-18634">
		<tag k="fixme" v="consider natural=peak for the most distinct mountains in the district" />
		<tag k="name" v="Hellerhovdun" />
		<tag k="natural" v="hill" />
		<tag k="place" v="locality" />
		<tag k="ssr:stedsnr" v="733166" />
	</node>
	<node lat="60.665399997091356" lon="7.46652499316195" id="-18642">
		<tag k="name" v="Såtedalen" />
		<tag k="natural" v="valley" />
		<tag k="place" v="locality" />
		<tag k="ssr:stedsnr" v="735187" />
	</node>
	<node lat="60.64266944118929" lon="7.706888882595214" id="-18643">
		<tag k="name" v="Nordbotnane" />
		<tag k="natural" v="valley" />
		<tag k="place" v="locality" />
		<tag k="ssr:stedsnr" v="735202" />
	</node>
	<node lat="60.396269446598986" lon="8.090677776562659" id="-18647">
		<tag k="fixme" v="consider natural=peak for the most distinct mountains in the district" />
		<tag k="name" v="Falkenuten" />
		<tag k="natural" v="hill" />
		<tag k="place" v="locality" />
		<tag k="ssr:stedsnr" v="733767" />
	</node>
	<node lat="60.447824995959316" lon="7.791022221899436" id="-18649">
		<tag k="fixme" v="consider natural=peak for the most distinct mountains in the district" />
		<tag k="loc_name" v="Oklenutan" />
		<tag k="name" v="Øklenutan" />
		<tag k="natural" v="hill" />
		<tag k="place" v="locality" />
		<tag k="ssr:stedsnr" v="733928" />
	</node>
	<node lat="60.45842777564665" lon="8.090275003050781" id="-18650">
		<tag k="fixme" v="consider natural=peak for the most distinct mountains in the district" />
		<tag k="name" v="Ustetind" />
		<tag k="natural" v="hill" />
		<tag k="old_name" v="Ustetinden" />
		<tag k="place" v="locality" />
		<tag k="ssr:stedsnr" v="733930" />
	</node>
	<node lat="60.4781722229442" lon="8.043669446337347" id="-18653">
		<tag k="name" v="Usteberget" />
		<tag k="natural" v="hill" />
		<tag k="place" v="locality" />
		<tag k="ssr:stedsnr" v="733997" />
	</node>
	<node lat="60.41783055112184" lon="7.936600001344579" id="-18654">
		<tag k="alt_name" v="Grønenuten, vesle" />
		<tag k="name" v="Vesle Grønenuten" />
		<tag k="natural" v="hill" />
		<tag k="place" v="locality" />
		<tag k="ssr:stedsnr" v="733956" />
	</node>
	<node lat="60.424474996796434" lon="8.550908329899643" id="-18655">
		<tag k="name" v="Sleppekulten" />
		<tag k="natural" v="hill" />
		<tag k="place" v="locality" />
		<tag k="ssr:stedsnr" v="734125" />
	</node>
	<node lat="60.56255905282736" lon="8.007056323843912" id="-18657">
		<tag k="fixme" v="consider natural=peak for the most distinct mountains in the district" />
		<tag k="name" v="Prestholtskarvet" />
		<tag k="natural" v="hill" />
		<tag k="old_name" v="Præstholt-skarve" />
		<tag k="place" v="locality" />
		<tag k="ssr:stedsnr" v="735374" />
	</node>
	<node lat="60.55806111225884" lon="8.045036115764969" id="-18658">
		<tag k="name" v="Prestholtskardet" />
		<tag k="natural" v="valley" />
		<tag k="place" v="locality" />
		<tag k="ssr:stedsnr" v="735376" />
	</node>
	<node lat="60.64817499827926" lon="7.7713916641568375" id="-18659">
		<tag k="name" v="Botnane" />
		<tag k="natural" v="valley" />
		<tag k="place" v="locality" />
		<tag k="ssr:stedsnr" v="735406" />
	</node>
	<node lat="60.63378611416712" lon="8.003391673819547" id="-18661">
		<tag k="name" v="Nattane" />
		<tag k="natural" v="hill" />
		<tag k="place" v="locality" />
		<tag k="ssr:stedsnr" v="735417" />
	</node>
	<node lat="60.66558889250126" lon="8.143441664052586" id="-18663">
		<tag k="fixme" v="consider natural=peak for the most distinct mountains in the district" />
		<tag k="name" v="Storleinnuten" />
		<tag k="natural" v="hill" />
		<tag k="place" v="locality" />
		<tag k="ssr:stedsnr" v="735582" />
	</node>
	<node lat="60.61158888447688" lon="8.139191670439365" id="-18667">
		<tag k="alt_name" v="Bråsetjuvet" />
		<tag k="name" v="Bråsetgjuvet" />
		<tag k="natural" v="gorge" />
		<tag k="ssr:stedsnr" v="735641" />
	</node>
	<node lat="60.51984444531489" lon="8.274383329667844" id="-18674">
		<tag k="alt_name" v="Merakhovda;Melrakkhovda" />
		<tag k="fixme" v="consider natural=peak for the most distinct mountains in the district" />
		<tag k="name" v="Merakkhovda" />
		<tag k="natural" v="hill" />
		<tag k="place" v="locality" />
		<tag k="ssr:stedsnr" v="735762" />
	</node>
	<node lat="60.84608055371433" lon="7.780658324624662" id="-18677">
		<tag k="alt_name" v="Øljubotn, vesle" />
		<tag k="name" v="Vesle Øljubotn" />
		<tag k="natural" v="valley" />
		<tag k="place" v="locality" />
		<tag k="ssr:stedsnr" v="736760" />
	</node>
	<node lat="60.610002777911326" lon="8.090936102799754" id="-18688">
		<tag k="name" v="Rosenskar" />
		<tag k="natural" v="valley" />
		<tag k="place" v="locality" />
		<tag k="ssr:stedsnr" v="769038" />
	</node>
	<node lat="60.687424999478615" lon="8.236994445885012" id="-18691">
		<tag k="name" v="Ælihaugen" />
		<tag k="natural" v="hill" />
		<tag k="place" v="locality" />
		<tag k="ssr:stedsnr" v="769287" />
	</node>
	<node lat="60.62141666966721" lon="8.324527773002202" id="-18696">
		<tag k="name" v="Branden" />
		<tag k="natural" v="hill" />
		<tag k="place" v="locality" />
		<tag k="ssr:stedsnr" v="770502" />
	</node>
	<node lat="60.59926388613594" lon="8.346191672717396" id="-18699">
		<tag k="name" v="Tingvollane" />
		<tag k="natural" v="hill" />
		<tag k="place" v="locality" />
		<tag k="ssr:stedsnr" v="770938" />
	</node>
	<node lat="60.61351666250691" lon="8.258727772784798" id="-18712">
		<tag k="name" v="Osbakken" />
		<tag k="natural" v="slope" />
		<tag k="place" v="locality" />
		<tag k="ssr:stedsnr" v="786989" />
	</node>
	<node lat="60.38118055423128" lon="8.302736111130768" id="-18723">
		<tag k="name" v="Bergsnuten" />
		<tag k="natural" v="hill" />
		<tag k="place" v="locality" />
		<tag k="ssr:stedsnr" v="794200" />
	</node>
	<node lat="60.39188333172529" lon="8.207994452418315" id="-18726">
		<tag k="fixme" v="consider natural=peak for the most distinct mountains in the district" />
		<tag k="name" v="Synshovda" />
		<tag k="natural" v="hill" />
		<tag k="place" v="locality" />
		<tag k="ssr:stedsnr" v="794156" />
	</node>
	<node lat="60.39323889185434" lon="8.240350005773728" id="-18727">
		<tag k="fixme" v="consider natural=peak for the most distinct mountains in the district" />
		<tag k="name" v="Skomakarnuten" />
		<tag k="natural" v="hill" />
		<tag k="place" v="locality" />
		<tag k="ssr:stedsnr" v="794157" />
	</node>
	<node lat="60.43105278159476" lon="8.538622223163895" id="-18737">
		<tag k="alt_name" v="Mosebuhøvda" />
		<tag k="name" v="Mosæterhovda" />
		<tag k="natural" v="hill" />
		<tag k="place" v="locality" />
		<tag k="ssr:stedsnr" v="795150" />
	</node>
	<node lat="60.659733331084986" lon="7.926083329284235" id="-18738">
		<tag k="name" v="Stryknasnøse" />
		<tag k="natural" v="hill" />
		<tag k="place" v="locality" />
		<tag k="ssr:stedsnr" v="795388" />
	</node>
	<node lat="60.508519446229336" lon="7.94522500028467" id="-18741">
		<tag k="name" v="Veiehovda" />
		<tag k="natural" v="hill" />
		<tag k="place" v="locality" />
		<tag k="ssr:stedsnr" v="795551" />
	</node>
	<node lat="60.50887499806828" lon="7.902761113291531" id="-18742">
		<tag k="alt_name" v="Karistølhøgde" />
		<tag k="name" v="Karistølhøgdi" />
		<tag k="natural" v="hill" />
		<tag k="place" v="locality" />
		<tag k="ssr:stedsnr" v="795555" />
	</node>
	<node lat="60.66872500177751" lon="7.692375008560299" id="-18746">
		<tag k="fixme" v="consider natural=peak for the most distinct mountains in the district" />
		<tag k="name" v="Ynglesnuten" />
		<tag k="natural" v="hill" />
		<tag k="place" v="locality" />
		<tag k="ssr:stedsnr" v="796185" />
	</node>
	<node lat="60.60518888509192" lon="8.071019449016857" id="-18748">
		<tag k="name" v="Dugurdshovda" />
		<tag k="natural" v="hill" />
		<tag k="place" v="locality" />
		<tag k="ssr:stedsnr" v="796386" />
	</node>
	<node lat="60.62048610935534" lon="8.358386119088099" id="-18752">
		<tag k="fixme" v="consider natural=peak for the most distinct mountains in the district" />
		<tag k="name" v="Søthovd" />
		<tag k="natural" v="hill" />
		<tag k="place" v="locality" />
		<tag k="ssr:stedsnr" v="796634" />
	</node>
	<node lat="60.600130554671345" lon="8.169077770504853" id="-18757">
		<tag k="fixme" v="consider natural=peak for the most distinct mountains in the district" />
		<tag k="name" v="Steinbergnipen" />
		<tag k="natural" v="hill" />
		<tag k="place" v="locality" />
		<tag k="ssr:stedsnr" v="796691" />
	</node>
	<node lat="60.62531944646823" lon="8.343836107456355" id="-18759">
		<tag k="fixme" v="consider natural=peak for the most distinct mountains in the district" />
		<tag k="name" v="Nystølhovda" />
		<tag k="natural" v="hill" />
		<tag k="place" v="locality" />
		<tag k="ssr:stedsnr" v="796645" />
	</node>
	<node lat="60.5310750020401" lon="8.103883331623559" id="-18762">
		<tag k="name" v="Hesteberget" />
		<tag k="natural" v="hill" />
		<tag k="place" v="locality" />
		<tag k="ssr:stedsnr" v="796740" />
	</node>
	<node lat="60.77344444594298" lon="7.8994944358621195" id="-18765">
		<tag k="fixme" v="consider natural=peak for the most distinct mountains in the district" />
		<tag k="name" v="Skorpa" />
		<tag k="natural" v="hill" />
		<tag k="place" v="locality" />
		<tag k="ssr:stedsnr" v="797736" />
	</node>
	<node lat="60.44492500272136" lon="8.219061111625527" id="-18768">
		<tag k="name" v="Vaktarskardet" />
		<tag k="natural" v="valley" />
		<tag k="place" v="locality" />
		<tag k="ssr:stedsnr" v="809110" />
	</node>
	<node lat="60.39424444417438" lon="8.26683611781886" id="-18770">
		<tag k="fixme" v="consider natural=peak for the most distinct mountains in the district" />
		<tag k="name" v="Skriunuten" />
		<tag k="natural" v="hill" />
		<tag k="place" v="locality" />
		<tag k="ssr:stedsnr" v="809122" />
	</node>
	<node lat="60.48728889159486" lon="8.066838889846041" id="-18772">
		<tag k="name" v="Reinsvadhaugane" />
		<tag k="natural" v="hill" />
		<tag k="place" v="locality" />
		<tag k="ssr:stedsnr" v="828783" />
	</node>
	<node lat="60.59493889051971" lon="8.353783338650835" id="-18774">
		<tag k="name" v="Høgehaug" />
		<tag k="natural" v="hill" />
		<tag k="place" v="locality" />
		<tag k="ssr:stedsnr" v="831999" />
	</node>
	<node lat="60.42137221853965" lon="8.489036107169534" id="-18780">
		<tag k="name" v="Ørnedalen" />
		<tag k="natural" v="valley" />
		<tag k="place" v="locality" />
		<tag k="ssr:stedsnr" v="830610" />
	</node>
	<node lat="60.50407222636104" lon="8.184574991046789" id="-18791">
		<tag k="name" v="Grødalen" />
		<tag k="natural" v="valley" />
		<tag k="place" v="locality" />
		<tag k="ssr:stedsnr" v="844697" />
	</node>
	<node lat="60.51897222034663" lon="7.9353027812468095" id="-18792">
		<tag k="name" v="Embrikstølhallene" />
		<tag k="natural" v="slope" />
		<tag k="place" v="locality" />
		<tag k="ssr:stedsnr" v="844667" />
	</node>
	<node lat="60.42334722300343" lon="7.831852776421474" id="-18793">
		<tag k="alt_name" v="Krækkjenuten" />
		<tag k="fixme" v="consider natural=peak for the most distinct mountains in the district" />
		<tag k="name" v="Krækkjanuten" />
		<tag k="natural" v="hill" />
		<tag k="place" v="locality" />
		<tag k="ssr:stedsnr" v="844965" />
	</node>
	<node lat="60.61828055995752" lon="8.094613894273254" id="-18795">
		<tag k="name" v="Sluteberget" />
		<tag k="natural" v="hill" />
		<tag k="place" v="locality" />
		<tag k="ssr:stedsnr" v="845447" />
	</node>
	<node lat="60.63460555291149" lon="8.116533325045538" id="-18800">
		<tag k="name" v="Nedre Skarnuten" />
		<tag k="natural" v="hill" />
		<tag k="place" v="locality" />
		<tag k="ssr:stedsnr" v="846356" />
	</node>
	<node lat="60.53736111064652" lon="8.143788890011928" id="-18804">
		<tag k="name" v="Urunddalen" />
		<tag k="natural" v="valley" />
		<tag k="place" v="locality" />
		<tag k="ssr:stedsnr" v="848101" />
	</node>
	<node lat="60.60818333747821" lon="8.352477775704665" id="-18805">
		<tag k="name" v="Fuglebrenna" />
		<tag k="natural" v="slope" />
		<tag k="place" v="locality" />
		<tag k="ssr:stedsnr" v="848899" />
	</node>
	<node lat="60.56378610921014" lon="8.262655553397405" id="-18809">
		<tag k="name" v="Grønskarhovda" />
		<tag k="natural" v="hill" />
		<tag k="place" v="locality" />
		<tag k="ssr:stedsnr" v="848336" />
	</node>
	<node lat="60.52096388806985" lon="8.13638888871695" id="-18813">
		<tag k="name" v="Kleivane" />
		<tag k="natural" v="slope" />
		<tag k="place" v="locality" />
		<tag k="ssr:stedsnr" v="848843" />
	</node>
	<node lat="60.51488333498958" lon="8.130922222137084" id="-18814">
		<tag k="name" v="Nystøllie" />
		<tag k="natural" v="slope" />
		<tag k="place" v="locality" />
		<tag k="ssr:stedsnr" v="848847" />
	</node>
	<node lat="60.40280277714623" lon="7.802577777610485" id="-18822">
		<tag k="name" v="Tverrhogget" />
		<tag k="natural" v="valley" />
		<tag k="place" v="locality" />
		<tag k="ssr:stedsnr" v="855971" />
	</node>
	<node lat="60.43632499965588" lon="7.755472231181267" id="-18827">
		<tag k="name" v="Båtstjørnnuten" />
		<tag k="natural" v="hill" />
		<tag k="place" v="locality" />
		<tag k="ssr:stedsnr" v="855957" />
	</node>
	<node lat="60.50388611533015" lon="8.084891670737996" id="-18832">
		<tag k="alt_name" v="Vardeggi" />
		<tag k="name" v="Vardegg" />
		<tag k="natural" v="hill" />
		<tag k="place" v="locality" />
		<tag k="ssr:stedsnr" v="856549" />
	</node>
	<node lat="60.73822221939238" lon="7.827361110173082" id="-18836">
		<tag k="fixme" v="consider natural=peak for the most distinct mountains in the district" />
		<tag k="name" v="Blåbergi" />
		<tag k="natural" v="hill" />
		<tag k="old_name" v="Blåberge" />
		<tag k="place" v="locality" />
		<tag k="ssr:stedsnr" v="856266" />
	</node>
	<node lat="60.79531667035012" lon="7.828538883418387" id="-18838">
		<tag k="alt_name" v="Iungsdalen, vestre" />
		<tag k="name" v="Vestre Iungsdalen" />
		<tag k="natural" v="valley" />
		<tag k="place" v="locality" />
		<tag k="ssr:stedsnr" v="858740" />
	</node>
	<node lat="60.553224998135725" lon="8.100061114139379" id="-18842">
		<tag k="fixme" v="consider natural=peak for the most distinct mountains in the district" />
		<tag k="loc_name" v="Prestholtskarvranden" />
		<tag k="name" v="Skarvranden" />
		<tag k="natural" v="hill" />
		<tag k="place" v="locality" />
		<tag k="ssr:stedsnr" v="856742" />
	</node>
	<node lat="60.69283888739393" lon="7.825624998058995" id="-18849">
		<tag k="name" v="Larsstølnuten" />
		<tag k="natural" v="hill" />
		<tag k="place" v="locality" />
		<tag k="ssr:stedsnr" v="857371" />
	</node>
	<node lat="60.713177774763345" lon="7.656827771923559" id="-18851">
		<tag k="name" v="Sandbekkhyllene" />
		<tag k="place" v="locality" />
		<tag k="ssr:stedsnr" v="857226" />
	</node>
	<node lat="60.71260000053758" lon="7.622824999365796" id="-18852">
		<tag k="fixme" v="consider natural=peak for the most distinct mountains in the district" />
		<tag k="name" v="Vasshellerbrotet" />
		<tag k="natural" v="hill" />
		<tag k="place" v="locality" />
		<tag k="ssr:stedsnr" v="857233" />
	</node>
	<node lat="60.704758331974055" lon="7.879991662022814" id="-18853">
		<tag k="name" v="Vardahovda" />
		<tag k="natural" v="hill" />
		<tag k="place" v="locality" />
		<tag k="ssr:stedsnr" v="857379" />
	</node>
	<node lat="60.59050833548663" lon="8.289355560262475" id="-18862">
		<tag k="fixme" v="consider natural=peak for the most distinct mountains in the district" />
		<tag k="name" v="Skurvenatten" />
		<tag k="natural" v="hill" />
		<tag k="place" v="locality" />
		<tag k="ssr:stedsnr" v="857656" />
	</node>
	<node lat="60.75097500028164" lon="7.909013889122534" id="-18865">
		<tag k="fixme" v="consider natural=peak for the most distinct mountains in the district" />
		<tag k="name" v="Grønehæe" />
		<tag k="natural" v="hill" />
		<tag k="place" v="locality" />
		<tag k="ssr:stedsnr" v="858553" />
	</node>
	<node lat="60.75794999940026" lon="7.788005554123989" id="-18866">
		<tag k="name" v="Storfonnløypet" />
		<tag k="natural" v="slope" />
		<tag k="place" v="locality" />
		<tag k="ssr:stedsnr" v="858558" />
	</node>
	<node lat="60.59395277835805" lon="8.30932500210445" id="-18868">
		<tag k="loc_name" v="Dalsokla" />
		<tag k="name" v="Dalsøkle" />
		<tag k="natural" v="hill" />
		<tag k="place" v="locality" />
		<tag k="ssr:stedsnr" v="869965" />
	</node>
	<node lat="60.481744446864745" lon="8.073930554991117" id="-18871">
		<tag k="name" v="Rundehovda" />
		<tag k="natural" v="hill" />
		<tag k="place" v="locality" />
		<tag k="ssr:stedsnr" v="950790" />
	</node>
	<node lat="60.627191668679735" lon="8.291766675118277" id="-18879">
		<tag k="name" v="Kvannolhovda" />
		<tag k="natural" v="hill" />
		<tag k="place" v="locality" />
		<tag k="ssr:stedsnr" v="952404" />
	</node>
	<node lat="60.59125555518828" lon="8.21109721710468" id="-18881">
		<tag k="name" v="Veneleine" />
		<tag k="natural" v="slope" />
		<tag k="place" v="locality" />
		<tag k="ssr:stedsnr" v="952998" />
	</node>
	<node lat="60.50542222199091" lon="7.952208340374745" id="-18887">
		<tag k="name" v="Søre Kjersundlien" />
		<tag k="natural" v="slope" />
		<tag k="place" v="locality" />
		<tag k="ssr:stedsnr" v="965637" />
	</node>
	<node lat="60.60619721788977" lon="8.351950002307236" id="-18892">
		<tag k="name" v="Moltemyrskaret" />
		<tag k="natural" v="valley" />
		<tag k="place" v="locality" />
		<tag k="ssr:stedsnr" v="965976" />
	</node>
</osm>
