<?xml version="1.0" encoding="UTF-8"?>
<osm version="0.6" generator="osmapis">
	<node lat="60.6150666686502" lon="8.300191668127974" id="-34206">
		<tag k="amenity" v="place_of_worship" />
		<tag k="denomination" v="lutheran" />
		<tag k="name" v="Hol gamle kyrkje" />
		<tag k="religion" v="christian" />
		<tag k="ssr:stedsnr" v="94005" />
	</node>
	<node lat="60.55596666632696" lon="8.221694446828874" id="-34275">
		<tag k="name" v="Spelemannhaugen" />
		<tag k="place" v="locality" />
		<tag k="ssr:stedsnr" v="118414" />
	</node>
	<node lat="60.54920000398201" lon="8.350247227119022" id="-34597">
		<tag k="name" v="Rypevieren" />
		<tag k="place" v="locality" />
		<tag k="ssr:stedsnr" v="481728" />
	</node>
	<node lat="60.5982583325072" lon="8.347891667131588" id="-34669">
		<tag k="alt_name" v="Hol" />
		<tag k="amenity" v="place_of_worship" />
		<tag k="denomination" v="lutheran" />
		<tag k="name" v="Hol kyrkje" />
		<tag k="religion" v="christian" />
		<tag k="ssr:stedsnr" v="432632" />
	</node>
	<node lat="60.62275833316361" lon="8.157630555546428" id="-34755">
		<tag k="alt_name" v="Hovet" />
		<tag k="amenity" v="place_of_worship" />
		<tag k="denomination" v="lutheran" />
		<tag k="name" v="Hovet kyrkje" />
		<tag k="old_name" v="Hovet kapell" />
		<tag k="religion" v="christian" />
		<tag k="ssr:stedsnr" v="674592" />
	</node>
	<node lat="60.52331944882115" lon="8.162558324433213" id="-34788">
		<tag k="name" v="Båtstøene" />
		<tag k="place" v="locality" />
		<tag k="ssr:stedsnr" v="480579" />
	</node>
	<node lat="60.57777778154561" lon="8.313924993925488" id="-34887">
		<tag k="amenity" v="community_centre" />
		<tag k="name" v="Kvislatun" />
		<tag k="ssr:stedsnr" v="544984" />
	</node>
	<node lat="60.55803333333873" lon="8.274658338090262" id="-34942">
		<tag k="name" v="Bosshaugen" />
		<tag k="place" v="locality" />
		<tag k="ssr:stedsnr" v="603849" />
	</node>
	<node lat="60.651975003183864" lon="7.912113889426427" id="-34983">
		<tag k="name" v="Haugebustein" />
		<tag k="place" v="locality" />
		<tag k="ssr:stedsnr" v="647684" />
	</node>
	<node lat="60.476313885432155" lon="8.30096944783659" id="-35038">
		<tag k="alt_name" v="Skurdalen kirke;Skurdalen;Skurdalen kapell" />
		<tag k="amenity" v="place_of_worship" />
		<tag k="denomination" v="lutheran" />
		<tag k="name" v="Skurdalskyrkja" />
		<tag k="religion" v="christian" />
		<tag k="ssr:stedsnr" v="672826" />
	</node>
	<node lat="60.54044167074102" lon="8.100308336561797" id="-35390">
		<tag k="name" v="Eimekroken" />
		<tag k="place" v="locality" />
		<tag k="ssr:stedsnr" v="969100" />
	</node>
	<node lat="60.59642777987244" lon="8.412144435564471" id="-35562">
		<tag k="name" v="Larshus" />
		<tag k="place" v="locality" />
		<tag k="ssr:stedsnr" v="119052" />
	</node>
	<node lat="60.45270000050293" lon="7.863274995313615" id="-35568">
		<tag k="name" v="Monsbulægret" />
		<tag k="place" v="locality" />
		<tag k="ssr:stedsnr" v="126935" />
	</node>
	<node lat="60.43435000183353" lon="7.77369723120722" id="-35608">
		<tag k="name" v="Samegammun" />
		<tag k="ssr:stedsnr" v="141031" />
		<tag k="tourism" v="attraction" />
	</node>
	<node lat="60.53529721798479" lon="8.210480559102836" id="-35799">
		<tag k="amenity" v="place_of_worship" />
		<tag k="denomination" v="lutheran" />
		<tag k="name" v="Geilo kyrkje" />
		<tag k="religion" v="christian" />
		<tag k="ssr:stedsnr" v="323761" />
	</node>
	<node lat="60.41653055918772" lon="8.468797220680806" id="-35871">
		<tag k="alt_name" v="Dagali;Dagali kyrkje" />
		<tag k="amenity" v="place_of_worship" />
		<tag k="denomination" v="lutheran" />
		<tag k="name" v="Dagali kirke" />
		<tag k="religion" v="christian" />
		<tag k="ssr:stedsnr" v="370137" />
	</node>
	<node lat="60.46859444010943" lon="8.516391672205431" id="-36347">
		<tag k="name" v="Knippenborg skog" />
		<tag k="place" v="locality" />
		<tag k="ssr:stedsnr" v="787475" />
	</node>
	<node lat="60.41405000000568" lon="7.834750004802031" id="-36466">
		<tag k="name" v="Nordlægret" />
		<tag k="place" v="locality" />
		<tag k="ssr:stedsnr" v="855961" />
	</node>
	<node lat="60.53089783791184" lon="8.209197344000689" id="-36544">
		<tag k="amenity" v="place_of_worship" />
		<tag k="denomination" v="lutheran" />
		<tag k="name" v="Geilo kulturkyrkje" />
		<tag k="religion" v="christian" />
		<tag k="ssr:stedsnr" v="991036" />
	</node>
</osm>
