<?xml version="1.0" encoding="UTF-8"?>
<<<<<<< HEAD
<osm version="0.6" generator="osmapis">
	<node lat="60.533194441947494" lon="8.209366660862738" id="-20723">
=======
<osm generator="osmapis" version="0.6">
	<node id="-278272" lat="60.5740333296" lon="8.15980556107">
		<tag k="ford" v="yes" />
		<tag k="name" v="Sandvadet" />
		<tag k="place" v="locality" />
		<tag k="ssr:stedsnr" v="298164" />
	</node>
	<node id="-279420" lat="60.496350004" lon="8.04545000071">
		<tag k="name" v="Ustaoset stasjon" />
		<tag k="railway" v="station" />
		<tag k="ssr:stedsnr" v="127989" />
		<tag k="train" v="yes" />
	</node>
	<node id="-279815" lat="60.6157944481" lon="8.08543055857">
		<tag k="bridge" v="yes" />
		<tag k="layer" v="1" />
		<tag k="name" v="Bakke" />
		<tag k="ssr:stedsnr" v="410964" />
	</node>
	<node id="-279274" lat="60.5001416673" lon="7.83418889231">
		<tag k="highway" v="path" />
		<tag k="name" v="Krækkjavegen" />
		<tag k="ssr:stedsnr" v="59467" />
	</node>
	<node id="-278268" lat="60.514311114" lon="7.85594721768">
		<tag k="bridge" v="yes" />
		<tag k="layer" v="1" />
		<tag k="name" v="Vegmannsbu" />
		<tag k="ssr:stedsnr" v="289977" />
	</node>
	<node id="-279392" lat="60.5345888933" lon="8.20675277295">
		<tag k="name" v="Geilo stasjon" />
		<tag k="railway" v="station" />
		<tag k="ssr:stedsnr" v="120518" />
		<tag k="train" v="yes" />
	</node>
	<node id="-280158" lat="60.4446249973" lon="8.39129166286">
		<tag k="bridge" v="yes" />
		<tag k="layer" v="1" />
		<tag k="name" v="Halvorstøl" />
		<tag k="ssr:stedsnr" v="653962" />
	</node>
	<node id="-279901" lat="60.6767888912" lon="7.9854694502">
		<tag k="bridge" v="yes" />
		<tag k="layer" v="1" />
		<tag k="name" v="Vesleåni" />
		<tag k="ssr:stedsnr" v="532942" />
	</node>
	<node id="-279769" lat="60.5759388926" lon="8.36702500716">
		<tag k="name" v="Hol stasjon" />
		<tag k="railway" v="station" />
		<tag k="ssr:stedsnr" v="370703" />
		<tag k="train" v="yes" />
	</node>
	<node id="-279256" lat="60.5231583374" lon="8.12841389239">
		<tag k="bridge" v="yes" />
		<tag k="layer" v="1" />
		<tag k="name" v="Eimå" />
		<tag k="ssr:stedsnr" v="46972" />
	</node>
	<node id="-279255" lat="60.5331944419" lon="8.20936666086">
		<tag k="bridge" v="yes" />
		<tag k="layer" v="1" />
		<tag k="name" v="Bakkegård" />
		<tag k="ssr:stedsnr" v="46971" />
	</node>
	<node id="-279254" lat="60.5304888879" lon="8.22575556461">
		<tag k="bridge" v="yes" />
		<tag k="layer" v="1" />
		<tag k="name" v="Geilobekken" />
		<tag k="ssr:stedsnr" v="46966" />
	</node>
	<node id="-279253" lat="60.5305388863" lon="8.18616945126">
		<tag k="bridge" v="yes" />
		<tag k="layer" v="1" />
		<tag k="name" v="Ustedalen" />
		<tag k="ssr:stedsnr" v="46965" />
	</node>
	<node id="-280399" lat="60.55188611" lon="8.28183611988">
>>>>>>> e1d4bc35ff8a6074a6f2e91616a996b547c36f15
		<tag k="bridge" v="yes" />
		<tag k="layer" v="1" />
		<tag k="name" v="Bakkegård" />
		<tag k="ssr:stedsnr" v="46971" />
	</node>
<<<<<<< HEAD
	<node lat="60.52315833736228" lon="8.12841389239351" id="-20724">
		<tag k="bridge" v="yes" />
		<tag k="layer" v="1" />
		<tag k="name" v="Eimå" />
		<tag k="ssr:stedsnr" v="46972" />
	</node>
	<node lat="60.65374166641681" lon="8.330600000139105" id="-20755">
		<tag k="highway" v="path" />
		<tag k="name" v="Fjellvegen" />
		<tag k="ssr:stedsnr" v="241715" />
	</node>
	<node lat="60.534588893275334" lon="8.206752772951287" id="-20871">
		<tag k="name" v="Geilo stasjon" />
=======
	<node id="-278606" lat="60.5185861073" lon="7.84250555531">
		<tag k="highway" v="path" />
		<tag k="name" v="Beinstigen" />
		<tag k="ssr:stedsnr" v="483369" />
	</node>
	<node id="-278349" lat="60.5231777743" lon="8.23083610819">
		<tag k="bridge" v="yes" />
		<tag k="layer" v="1" />
		<tag k="name" v="Vestlia" />
		<tag k="ssr:stedsnr" v="350934" />
	</node>
	<node id="-279881" lat="60.5112500006" lon="7.86993889757">
		<tag k="name" v="Haugastøl stasjon" />
>>>>>>> e1d4bc35ff8a6074a6f2e91616a996b547c36f15
		<tag k="railway" v="station" />
		<tag k="ssr:stedsnr" v="120518" />
		<tag k="train" v="yes" />
	</node>
<<<<<<< HEAD
	<node lat="60.59237222028302" lon="8.343897217168207" id="-20977">
		<tag k="junction" v="yes" />
		<tag k="name" v="Veidal" />
		<tag k="place" v="locality" />
		<tag k="ssr:stedsnr" v="262964" />
	</node>
	<node lat="60.56337499628314" lon="8.299547219609229" id="-21002">
=======
	<node id="-280391" lat="60.6143861096" lon="8.26933056024">
		<tag k="bridge" v="yes" />
		<tag k="layer" v="1" />
		<tag k="name" v="Djupedal" />
		<tag k="ssr:stedsnr" v="957961" />
	</node>
	<node id="-280390" lat="60.4368388853" lon="7.78291111185">
>>>>>>> e1d4bc35ff8a6074a6f2e91616a996b547c36f15
		<tag k="bridge" v="yes" />
		<tag k="layer" v="1" />
		<tag k="name" v="Årsetbrue" />
		<tag k="ssr:stedsnr" v="239908" />
	</node>
<<<<<<< HEAD
	<node lat="60.45890000285803" lon="7.818097223033356" id="-21007">
=======
	<node id="-280389" lat="60.723099999" lon="7.76967222195">
>>>>>>> e1d4bc35ff8a6074a6f2e91616a996b547c36f15
		<tag k="bridge" v="yes" />
		<tag k="layer" v="1" />
		<tag k="name" v="Legereid" />
		<tag k="ssr:stedsnr" v="471956" />
	</node>
<<<<<<< HEAD
	<node lat="60.50525278168091" lon="8.01134722185487" id="-21008">
=======
	<node id="-280388" lat="60.4083833322" lon="8.44000276903">
>>>>>>> e1d4bc35ff8a6074a6f2e91616a996b547c36f15
		<tag k="bridge" v="yes" />
		<tag k="layer" v="1" />
		<tag k="name" v="Lorthølbekken" />
		<tag k="ssr:stedsnr" v="471957" />
	</node>
<<<<<<< HEAD
	<node lat="60.51431111401071" lon="7.85594721767979" id="-21037">
=======
	<node id="-279362" lat="60.4171583324" lon="8.45954444533">
>>>>>>> e1d4bc35ff8a6074a6f2e91616a996b547c36f15
		<tag k="bridge" v="yes" />
		<tag k="layer" v="1" />
		<tag k="name" v="Vegmannsbu" />
		<tag k="ssr:stedsnr" v="289977" />
	</node>
<<<<<<< HEAD
	<node lat="60.56182222461619" lon="8.222136108082418" id="-21077">
		<tag k="highway" v="path" />
		<tag k="name" v="Gamle Budalsvegen" />
		<tag k="ssr:stedsnr" v="466095" />
	</node>
	<node lat="60.52317777432379" lon="8.230836108188349" id="-21119">
		<tag k="bridge" v="yes" />
		<tag k="layer" v="1" />
		<tag k="name" v="Vestlia" />
		<tag k="ssr:stedsnr" v="350934" />
	</node>
	<node lat="60.57593889256729" lon="8.367025007161292" id="-21146">
		<tag k="name" v="Hol stasjon" />
		<tag k="railway" v="station" />
		<tag k="ssr:stedsnr" v="370703" />
		<tag k="train" v="yes" />
	</node>
	<node lat="60.53158611190715" lon="8.207694436240596" id="-21196">
=======
	<node id="-279361" lat="60.5002166636" lon="8.07679444528">
		<tag k="bridge" v="yes" />
		<tag k="layer" v="1" />
		<tag k="name" v="Smettbakk" />
		<tag k="ssr:stedsnr" v="107967" />
	</node>
	<node id="-278068" lat="60.5633749963" lon="8.29954721961">
>>>>>>> e1d4bc35ff8a6074a6f2e91616a996b547c36f15
		<tag k="bridge" v="yes" />
		<tag k="layer" v="1" />
		<tag k="name" v="Trekanten" />
		<tag k="ssr:stedsnr" v="410953" />
	</node>
<<<<<<< HEAD
	<node lat="60.550388887107125" lon="8.264272229683314" id="-21338">
		<tag k="bridge" v="yes" />
		<tag k="layer" v="1" />
		<tag k="name" v="Åkerbrue" />
		<tag k="ssr:stedsnr" v="466505" />
	</node>
	<node lat="60.54347777605862" lon="8.23341944259959" id="-21353">
=======
	<node id="-278733" lat="60.6730500017" lon="7.90245276948">
		<tag k="man_made" v="quay" />
		<tag k="name" v="Tronskai" />
		<tag k="place" v="locality" />
		<tag k="ssr:stedsnr" v="603589" />
	</node>
	<node id="-278193" lat="60.5923722203" lon="8.34389721717">
		<tag k="junction" v="yes" />
		<tag k="name" v="Veidal" />
		<tag k="place" v="locality" />
		<tag k="ssr:stedsnr" v="262964" />
	</node>
	<node id="-278315" lat="60.5434777761" lon="8.2334194426">
>>>>>>> e1d4bc35ff8a6074a6f2e91616a996b547c36f15
		<tag k="bridge" v="yes" />
		<tag k="layer" v="1" />
		<tag k="name" v="Bardøla" />
		<tag k="ssr:stedsnr" v="471964" />
	</node>
<<<<<<< HEAD
	<node lat="60.51858610729823" lon="7.84250555530597" id="-21364">
		<tag k="highway" v="path" />
		<tag k="name" v="Beinstigen" />
		<tag k="ssr:stedsnr" v="483369" />
	</node>
	<node lat="60.48660278131307" lon="7.856008340285716" id="-21718">
=======
	<node id="-278314" lat="60.5052527817" lon="8.01134722185">
>>>>>>> e1d4bc35ff8a6074a6f2e91616a996b547c36f15
		<tag k="bridge" v="yes" />
		<tag k="layer" v="1" />
		<tag k="name" v="Ørterdal" />
		<tag k="ssr:stedsnr" v="228957" />
	</node>
<<<<<<< HEAD
	<node lat="60.532872225054064" lon="8.204661106777152" id="-21719">
=======
	<node id="-278313" lat="60.4589000029" lon="7.81809722303">
>>>>>>> e1d4bc35ff8a6074a6f2e91616a996b547c36f15
		<tag k="bridge" v="yes" />
		<tag k="layer" v="1" />
		<tag k="name" v="Vesleslåtten" />
		<tag k="ssr:stedsnr" v="228964" />
	</node>
<<<<<<< HEAD
	<node lat="60.408383332160874" lon="8.440002769028968" id="-21950">
		<tag k="bridge" v="yes" />
		<tag k="layer" v="1" />
		<tag k="name" v="Åsberg" />
		<tag k="ssr:stedsnr" v="957945" />
	</node>
	<node lat="60.59596667015796" lon="8.347500005162361" id="-21963">
		<tag k="bridge" v="yes" />
		<tag k="layer" v="1" />
		<tag k="name" v="Hagafoss" />
		<tag k="ssr:stedsnr" v="228967" />
	</node>
	<node lat="60.53053888625429" lon="8.186169451257543" id="-22022">
		<tag k="bridge" v="yes" />
		<tag k="layer" v="1" />
		<tag k="name" v="Ustedalen" />
		<tag k="ssr:stedsnr" v="46965" />
	</node>
	<node lat="60.53048888785783" lon="8.225755564607715" id="-22023">
		<tag k="bridge" v="yes" />
		<tag k="layer" v="1" />
		<tag k="name" v="Geilobekken" />
		<tag k="ssr:stedsnr" v="46966" />
	</node>
	<node lat="60.50014166729729" lon="7.83418889230913" id="-22036">
=======
	<node id="-278566" lat="60.5503888871" lon="8.26427222968">
		<tag k="bridge" v="yes" />
		<tag k="layer" v="1" />
		<tag k="name" v="Åkerbrue" />
		<tag k="ssr:stedsnr" v="466505" />
	</node>
	<node id="-280223" lat="60.4156638863" lon="8.5020250027">
		<tag k="aeroway" v="aerodrome" />
		<tag k="name" v="Dagali flyplass" />
		<tag k="ssr:stedsnr" v="795142" />
	</node>
	<node id="-278300" lat="60.5618222246" lon="8.22213610808">
		<tag k="highway" v="path" />
		<tag k="name" v="Gamle Budalsvegen" />
		<tag k="ssr:stedsnr" v="466095" />
	</node>
	<node id="-278680" lat="60.6149388858" lon="8.0854638895">
		<tag k="highway" v="path" />
		<tag k="name" v="Steget" />
		<tag k="ssr:stedsnr" v="526041" />
	</node>
	<node id="-279044" lat="60.4892611135" lon="8.15941388346">
		<tag k="highway" v="path" />
		<tag k="name" v="Fjellsetvegen" />
		<tag k="ssr:stedsnr" v="848832" />
	</node>
	<node id="-278287" lat="60.6537416664" lon="8.33060000014">
		<tag k="highway" v="path" />
		<tag k="name" v="Fjellvegen" />
		<tag k="ssr:stedsnr" v="241715" />
	</node>
	<node id="-278669" lat="60.3002583374" lon="8.33541945006">
		<tag k="alt_name" v="Nordmannslepa" />
>>>>>>> e1d4bc35ff8a6074a6f2e91616a996b547c36f15
		<tag k="highway" v="path" />
		<tag k="name" v="Krækkjavegen" />
		<tag k="ssr:stedsnr" v="59467" />
	</node>
<<<<<<< HEAD
	<node lat="60.50021666358331" lon="8.076794445284829" id="-22112">
=======
	<node id="-278281" lat="60.5959666702" lon="8.34750000516">
>>>>>>> e1d4bc35ff8a6074a6f2e91616a996b547c36f15
		<tag k="bridge" v="yes" />
		<tag k="layer" v="1" />
		<tag k="name" v="Smettbakk" />
		<tag k="ssr:stedsnr" v="107967" />
	</node>
<<<<<<< HEAD
	<node lat="60.41715833237606" lon="8.459544445326658" id="-22113">
		<tag k="bridge" v="yes" />
		<tag k="layer" v="1" />
		<tag k="name" v="Kvisla" />
		<tag k="ssr:stedsnr" v="107969" />
	</node>
	<node lat="60.49635000395268" lon="8.045450000711025" id="-22138">
		<tag k="name" v="Ustaoset stasjon" />
		<tag k="railway" v="station" />
		<tag k="ssr:stedsnr" v="127989" />
		<tag k="train" v="yes" />
	</node>
	<node lat="60.57403332956748" lon="8.159805561067843" id="-22297">
		<tag k="ford" v="yes" />
		<tag k="name" v="Sandvadet" />
		<tag k="place" v="locality" />
		<tag k="ssr:stedsnr" v="298164" />
	</node>
	<node lat="60.566988889589794" lon="8.296091670878" id="-22482">
=======
	<node id="-278280" lat="60.5328722251" lon="8.20466110678">
		<tag k="bridge" v="yes" />
		<tag k="layer" v="1" />
		<tag k="name" v="Vesleslåtten" />
		<tag k="ssr:stedsnr" v="228964" />
	</node>
	<node id="-278279" lat="60.4866027813" lon="7.85600834029">
		<tag k="bridge" v="yes" />
		<tag k="layer" v="1" />
		<tag k="name" v="Ørterdal" />
		<tag k="ssr:stedsnr" v="228957" />
	</node>
	<node id="-279814" lat="60.5121250037" lon="7.8634333377">
		<tag k="bridge" v="yes" />
		<tag k="layer" v="1" />
		<tag k="name" v="Haugastøl" />
		<tag k="ssr:stedsnr" v="410960" />
	</node>
	<node id="-279813" lat="60.5669888896" lon="8.29609167088">
>>>>>>> e1d4bc35ff8a6074a6f2e91616a996b547c36f15
		<tag k="bridge" v="yes" />
		<tag k="layer" v="1" />
		<tag k="name" v="Helgeslått" />
		<tag k="ssr:stedsnr" v="410959" />
	</node>
<<<<<<< HEAD
	<node lat="60.512125003721195" lon="7.8634333377045795" id="-22483">
		<tag k="bridge" v="yes" />
		<tag k="layer" v="1" />
		<tag k="name" v="Haugastøl" />
		<tag k="ssr:stedsnr" v="410960" />
	</node>
	<node lat="60.615794448136036" lon="8.085430558568511" id="-22484">
		<tag k="bridge" v="yes" />
		<tag k="layer" v="1" />
		<tag k="name" v="Bakke" />
		<tag k="ssr:stedsnr" v="410964" />
	</node>
	<node lat="60.51125000057792" lon="7.86993889757164" id="-22532">
		<tag k="name" v="Haugastøl stasjon" />
		<tag k="railway" v="station" />
		<tag k="ssr:stedsnr" v="432456" />
		<tag k="train" v="yes" />
	</node>
	<node lat="60.30025833741443" lon="8.33541945005592" id="-22567">
		<tag k="alt_name" v="Nordmannslepa" />
		<tag k="highway" v="path" />
		<tag k="name" v="Nordmannsslepa" />
		<tag k="ssr:stedsnr" v="507938" />
	</node>
	<node lat="60.614938885834" lon="8.08546388949744" id="-22574">
		<tag k="highway" v="path" />
		<tag k="name" v="Steget" />
		<tag k="ssr:stedsnr" v="526041" />
	</node>
	<node lat="60.67678889117323" lon="7.985469450196197" id="-22580">
		<tag k="bridge" v="yes" />
		<tag k="layer" v="1" />
		<tag k="name" v="Vesleåni" />
		<tag k="ssr:stedsnr" v="532942" />
	</node>
	<node lat="60.67305000169163" lon="7.902452769484096" id="-22691">
		<tag k="man_made" v="quay" />
		<tag k="name" v="Tronskai" />
		<tag k="place" v="locality" />
		<tag k="ssr:stedsnr" v="603589" />
	</node>
	<node lat="60.44462499733929" lon="8.391291662860585" id="-22770">
		<tag k="bridge" v="yes" />
		<tag k="layer" v="1" />
		<tag k="name" v="Halvorstøl" />
		<tag k="ssr:stedsnr" v="653962" />
	</node>
	<node lat="60.41566388627362" lon="8.502025002700927" id="-22902">
		<tag k="aeroway" v="aerodrome" />
		<tag k="name" v="Dagali flyplass" />
		<tag k="ssr:stedsnr" v="795142" />
	</node>
	<node lat="60.50611666904875" lon="7.988880550999835" id="-22956">
		<tag k="bridge" v="yes" />
		<tag k="layer" v="1" />
		<tag k="name" v="Øynaden" />
		<tag k="ssr:stedsnr" v="835967" />
	</node>
	<node lat="60.4892611134622" lon="8.159413883456878" id="-22978">
		<tag k="highway" v="path" />
		<tag k="name" v="Fjellsetvegen" />
		<tag k="ssr:stedsnr" v="848832" />
	</node>
	<node lat="60.72309999895023" lon="7.769672221953947" id="-23048">
		<tag k="bridge" v="yes" />
		<tag k="layer" v="1" />
		<tag k="name" v="Tyrvla" />
		<tag k="ssr:stedsnr" v="957952" />
	</node>
	<node lat="60.43683888530225" lon="7.782911111854386" id="-23049">
		<tag k="bridge" v="yes" />
		<tag k="layer" v="1" />
		<tag k="name" v="Krekkja" />
		<tag k="ssr:stedsnr" v="957957" />
	</node>
	<node lat="60.61438610957443" lon="8.269330560244908" id="-23050">
		<tag k="bridge" v="yes" />
		<tag k="layer" v="1" />
		<tag k="name" v="Djupedal" />
		<tag k="ssr:stedsnr" v="957961" />
	</node>
	<node lat="60.55188610997955" lon="8.281836119881243" id="-23061">
		<tag k="bridge" v="yes" />
		<tag k="layer" v="1" />
		<tag k="name" v="Gunnarstølen" />
		<tag k="ssr:stedsnr" v="967848" />
	</node>
=======
	<node id="-279812" lat="60.5315861119" lon="8.20769443624">
		<tag k="bridge" v="yes" />
		<tag k="layer" v="1" />
		<tag k="name" v="Trekanten" />
		<tag k="ssr:stedsnr" v="410953" />
	</node>
	<node id="-279041" lat="60.506116669" lon="7.988880551">
		<tag k="bridge" v="yes" />
		<tag k="layer" v="1" />
		<tag k="name" v="Øynaden" />
		<tag k="ssr:stedsnr" v="835967" />
	</node>
>>>>>>> e1d4bc35ff8a6074a6f2e91616a996b547c36f15
</osm>
