<?xml version="1.0" encoding="UTF-8"?>
<osm version="0.6" generator="osmapis">
	<node lat="58.470616664277074" lon="6.6197138863637495" id="-20847">
		<tag k="name" v="Rolfsvik" />
		<tag k="natural" v="bay" />
		<tag k="ssr:stedsnr" v="27486" />
	</node>
	<node lat="58.4947499979049" lon="6.801041668636367" id="-20861">
		<tag k="name" v="Feittjødn" />
		<tag k="natural" v="water" />
		<tag k="ssr:stedsnr" v="42109" />
	</node>
	<node lat="58.26134722612811" lon="6.649952774080432" id="-20863">
		<tag k="name" v="Trollå" />
		<tag k="ssr:stedsnr" v="42174" />
		<tag k="waterway" v="river" />
	</node>
	<node lat="58.26360278038833" lon="6.60280832528072" id="-20864">
		<tag k="name" v="Eigelandstjødn" />
		<tag k="natural" v="water" />
		<tag k="ssr:stedsnr" v="42177" />
	</node>
	<node lat="58.269186108046995" lon="6.675361106283086" id="-20865">
		<tag k="name" v="Neset" />
		<tag k="natural" v="cape" />
		<tag k="ssr:stedsnr" v="42188" />
	</node>
	<node lat="58.19749167009965" lon="6.626333333274708" id="-20866">
		<tag k="name" v="Klubsvannet" />
		<tag k="natural" v="water" />
		<tag k="ssr:stedsnr" v="42022" />
	</node>
	<node lat="58.246188890643204" lon="6.6583444445864925" id="-20868">
		<tag k="name" v="Bolhustjødn" />
		<tag k="natural" v="water" />
		<tag k="ssr:stedsnr" v="42085" />
	</node>
	<node lat="58.434427777607254" lon="6.768702773930822" id="-20874">
		<tag k="name" v="Rupetjødn" />
		<tag k="natural" v="water" />
		<tag k="ssr:stedsnr" v="42408" />
	</node>
	<node lat="58.224727779646486" lon="6.588219451014361" id="-20883">
		<tag k="name" v="Igletjødna" />
		<tag k="natural" v="water" />
		<tag k="ssr:stedsnr" v="42372" />
	</node>
	<node lat="58.431555551866445" lon="6.782527771206515" id="-20886">
		<tag k="name" v="Øytjødn" />
		<tag k="natural" v="water" />
		<tag k="ssr:stedsnr" v="42385" />
	</node>
	<node lat="58.279711108859814" lon="6.491566671926434" id="-20887">
		<tag k="name" v="Heptetjødn" />
		<tag k="natural" v="water" />
		<tag k="ssr:stedsnr" v="42386" />
	</node>
	<node lat="58.297288889185346" lon="6.760391661988239" id="-20896">
		<tag k="name" v="Murtetjødn" />
		<tag k="natural" v="water" />
		<tag k="ssr:stedsnr" v="42578" />
	</node>
	<node lat="58.22743333713207" lon="6.7188749916702015" id="-20898">
		<tag k="name" v="Heietjødn" />
		<tag k="natural" v="water" />
		<tag k="ssr:stedsnr" v="42584" />
	</node>
	<node lat="58.35687221842222" lon="6.787861104820805" id="-20917">
		<tag k="name" v="Hommetjødn" />
		<tag k="natural" v="water" />
		<tag k="ssr:stedsnr" v="43317" />
		<tag k="water" v="lake" />
	</node>
	<node lat="58.360483331826735" lon="6.781105548921996" id="-20918">
		<tag k="name" v="Heimretjødn" />
		<tag k="natural" v="water" />
		<tag k="ssr:stedsnr" v="43318" />
	</node>
	<node lat="58.33005278141418" lon="6.812747218429934" id="-20922">
		<tag k="name" v="Stemtjødn" />
		<tag k="natural" v="water" />
		<tag k="ssr:stedsnr" v="43701" />
	</node>
	<node lat="58.315752781543374" lon="6.750805547701133" id="-20923">
		<tag k="name" v="Kjerringvik" />
		<tag k="natural" v="water" />
		<tag k="ssr:stedsnr" v="43714" />
	</node>
	<node lat="58.37276388950997" lon="6.712569438640527" id="-20927">
		<tag k="name" v="Husetjødn" />
		<tag k="natural" v="water" />
		<tag k="ssr:stedsnr" v="43685" />
	</node>
	<node lat="58.49503333463961" lon="6.674908338435526" id="-20928">
		<tag k="name" v="Djupa vika" />
		<tag k="natural" v="bay" />
		<tag k="ssr:stedsnr" v="43927" />
	</node>
	<node lat="58.469422222428676" lon="6.684563881000001" id="-20932">
		<tag k="name" v="Krågodden" />
		<tag k="natural" v="cape" />
		<tag k="ssr:stedsnr" v="43997" />
	</node>
	<node lat="58.256408337136605" lon="6.63364999425594" id="-20940">
		<tag k="alt_name" v="Ålkartjødn" />
		<tag k="name" v="Ålekarstjørna" />
		<tag k="natural" v="water" />
		<tag k="ssr:stedsnr" v="60306" />
	</node>
	<node lat="58.27289167014582" lon="6.4981750018371125" id="-20942">
		<tag k="alt_name" v="Nestjødn" />
		<tag k="name" v="Nesvatnet" />
		<tag k="natural" v="water" />
		<tag k="ssr:stedsnr" v="61007" />
	</node>
	<node lat="58.497815046498296" lon="6.842802349694138" id="-20944">
		<tag k="name" v="Øyvatnet" />
		<tag k="natural" v="water" />
		<tag k="ssr:stedsnr" v="61032" />
		<tag k="water" v="lake" />
	</node>
	<node lat="58.38434999780236" lon="6.725211113498882" id="-20950">
		<tag k="name" v="Lølandsvatnet" />
		<tag k="natural" v="water" />
		<tag k="ssr:stedsnr" v="61401" />
		<tag k="water" v="lake" />
	</node>
	<node lat="58.37094722497859" lon="6.817174997045332" id="-20952">
		<tag k="name" v="Råna" />
		<tag k="place" v="locality" />
		<tag k="ssr:stedsnr" v="61408" />
	</node>
	<node lat="58.373061112361896" lon="6.876358327651228" id="-20955">
		<tag k="alt_name" v="Honnstjødn" />
		<tag k="name" v="Honnstjørna" />
		<tag k="natural" v="water" />
		<tag k="ssr:stedsnr" v="61414" />
	</node>
	<node lat="58.40562431370732" lon="6.708279486445522" id="-20959">
		<tag k="alt_name" v="Ljosevatnet" />
		<tag k="name" v="Ljosvatn" />
		<tag k="natural" v="water" />
		<tag k="ssr:stedsnr" v="61377" />
		<tag k="water" v="lake" />
	</node>
	<node lat="58.3899749984267" lon="6.69805277873092" id="-20961">
		<tag k="name" v="Helledalsvatnet" />
		<tag k="natural" v="water" />
		<tag k="ssr:stedsnr" v="61386" />
		<tag k="water" v="lake" />
	</node>
	<node lat="58.334608329012084" lon="6.7696027745019665" id="-20966">
		<tag k="name" v="Dunsædvatnet" />
		<tag k="natural" v="water" />
		<tag k="ssr:stedsnr" v="242424" />
		<tag k="water" v="lake" />
	</node>
	<node lat="58.459155551160045" lon="6.711358326652794" id="-20971">
		<tag k="alt_name" v="Stortjødn" />
		<tag k="name" v="Stortjørn" />
		<tag k="natural" v="water" />
		<tag k="ssr:stedsnr" v="243057" />
	</node>
	<node lat="58.28617499971659" lon="6.575925001108188" id="-20972">
		<tag k="alt_name" v="Langevann" />
		<tag k="name" v="Langevatnet" />
		<tag k="natural" v="water" />
		<tag k="ssr:stedsnr" v="243003" />
		<tag k="water" v="lake" />
	</node>
	<node lat="58.27969432493945" lon="6.516161601282825" id="-20973">
		<tag k="alt_name" v="Slåkstjødnan" />
		<tag k="name" v="Slagstjørnan" />
		<tag k="natural" v="water" />
		<tag k="ssr:stedsnr" v="243008" />
		<tag k="water" v="lake" />
	</node>
	<node lat="58.48550832970878" lon="6.620663889812487" id="-20975">
		<tag k="alt_name" v="Feittjødn" />
		<tag k="name" v="Feittjørn" />
		<tag k="natural" v="water" />
		<tag k="ssr:stedsnr" v="243025" />
	</node>
	<node lat="58.4935499977121" lon="6.863755560926349" id="-20976">
		<tag k="name" v="Kråkelandsvatna" />
		<tag k="natural" v="water" />
		<tag k="ssr:stedsnr" v="243030" />
		<tag k="water" v="lake" />
	</node>
	<node lat="58.47663333556715" lon="6.830666670503481" id="-20978">
		<tag k="alt_name" v="Veisbetjødn" />
		<tag k="name" v="Veisbekktjørn" />
		<tag k="natural" v="water" />
		<tag k="ssr:stedsnr" v="243062" />
	</node>
	<node lat="58.468194443567214" lon="6.732897230289852" id="-20979">
		<tag k="alt_name" v="Eitlandsvatn, l;Ytra Eitlandsvatnet" />
		<tag k="loc_name" v="Lille Eitlandsvannet" />
		<tag k="name" v="Lille Eitlandsvatn" />
		<tag k="natural" v="water" />
		<tag k="ssr:stedsnr" v="243066" />
		<tag k="water" v="lake" />
	</node>
	<node lat="58.471205551785495" lon="6.719300000591683" id="-20980">
		<tag k="alt_name" v="Mystevatnet" />
		<tag k="name" v="Mystevatn" />
		<tag k="natural" v="water" />
		<tag k="ssr:stedsnr" v="243069" />
	</node>
	<node lat="58.27530278134889" lon="6.634252775181963" id="-20985">
		<tag k="alt_name" v="Skolla" />
		<tag k="name" v="Skåla" />
		<tag k="natural" v="water" />
		<tag k="ssr:stedsnr" v="243267" />
		<tag k="water" v="lake" />
	</node>
	<node lat="58.517922218184296" lon="6.6355722216283475" id="-20987">
		<tag k="alt_name" v="Stølstjødna" />
		<tag k="name" v="Stølstjørna" />
		<tag k="natural" v="water" />
		<tag k="ssr:stedsnr" v="243354" />
	</node>
	<node lat="58.395674999768296" lon="6.6783277781756" id="-20991">
		<tag k="alt_name" v="Stora Lomtjødn" />
		<tag k="name" v="Lomtjørn" />
		<tag k="natural" v="water" />
		<tag k="ssr:stedsnr" v="243400" />
	</node>
	<node lat="58.34177500226834" lon="6.655883332152576" id="-20992">
		<tag k="alt_name" v="Logja" />
		<tag k="loc_name" v="Loja" />
		<tag k="name" v="Loia" />
		<tag k="natural" v="water" />
		<tag k="ssr:stedsnr" v="243452" />
		<tag k="water" v="lake" />
	</node>
	<node lat="58.373947224667084" lon="6.725152772834348" id="-20993">
		<tag k="alt_name" v="Urtjødna" />
		<tag k="name" v="Ørtjørn" />
		<tag k="natural" v="water" />
		<tag k="ssr:stedsnr" v="243422" />
	</node>
	<node lat="58.40317222520953" lon="6.820977772130405" id="-21002">
		<tag k="name" v="Heptetjødn" />
		<tag k="natural" v="water" />
		<tag k="ssr:stedsnr" v="99165" />
	</node>
	<node lat="58.284555552915535" lon="6.435250005508253" id="-21006">
		<tag k="name" v="Stemmen" />
		<tag k="natural" v="water" />
		<tag k="ssr:stedsnr" v="99309" />
	</node>
	<node lat="58.3211555511801" lon="6.601858337817345" id="-21009">
		<tag k="name" v="Øvre Grasdalstjødn" />
		<tag k="natural" v="water" />
		<tag k="ssr:stedsnr" v="99219" />
	</node>
	<node lat="58.30089166375949" lon="6.476561107771837" id="-21012">
		<tag k="name" v="Osen" />
		<tag k="natural" v="bay" />
		<tag k="ssr:stedsnr" v="99272" />
	</node>
	<node lat="58.26361944709791" lon="6.713058333388623" id="-21017">
		<tag k="name" v="Hisknuttjødn" />
		<tag k="natural" v="water" />
		<tag k="ssr:stedsnr" v="99562" />
	</node>
	<node lat="58.40400555706071" lon="6.715408338740104" id="-21020">
		<tag k="name" v="Tanjen" />
		<tag k="natural" v="water" />
		<tag k="ssr:stedsnr" v="99580" />
	</node>
	<node lat="58.31861944385686" lon="6.572352775359177" id="-21031">
		<tag k="name" v="Slettetjødn" />
		<tag k="natural" v="water" />
		<tag k="ssr:stedsnr" v="103003" />
	</node>
	<node lat="58.30289444615943" lon="6.516288896253006" id="-21032">
		<tag k="name" v="Orrebakktjødn" />
		<tag k="natural" v="water" />
		<tag k="ssr:stedsnr" v="103004" />
	</node>
	<node lat="58.206291668530405" lon="6.619425004384419" id="-21036">
		<tag k="name" v="Stemmetjødna" />
		<tag k="natural" v="water" />
		<tag k="ssr:stedsnr" v="103025" />
	</node>
	<node lat="58.284624998803395" lon="6.62093611840711" id="-21039">
		<tag k="name" v="Keisernes" />
		<tag k="natural" v="cape" />
		<tag k="ssr:stedsnr" v="103114" />
	</node>
	<node lat="58.287949998165445" lon="6.683800004070705" id="-21041">
		<tag k="name" v="Storenes" />
		<tag k="natural" v="cape" />
		<tag k="ssr:stedsnr" v="103131" />
	</node>
	<node lat="58.49802221817642" lon="6.763413891657576" id="-21042">
		<tag k="name" v="Litleå" />
		<tag k="ssr:stedsnr" v="103076" />
		<tag k="waterway" v="stream" />
	</node>
	<node lat="58.3987388847769" lon="6.75421111551595" id="-21045">
		<tag k="name" v="Neset" />
		<tag k="natural" v="cape" />
		<tag k="ssr:stedsnr" v="103301" />
	</node>
	<node lat="58.22871666422606" lon="6.588966669869207" id="-21047">
		<tag k="alt_name" v="Grønnåsvannet" />
		<tag k="name" v="Grønnåsvatnet" />
		<tag k="natural" v="water" />
		<tag k="ssr:stedsnr" v="103405" />
		<tag k="water" v="lake" />
	</node>
	<node lat="58.273047223861056" lon="6.502597217930082" id="-21066">
		<tag k="name" v="Litle Nestjødn" />
		<tag k="natural" v="water" />
		<tag k="ssr:stedsnr" v="103492" />
	</node>
	<node lat="58.276463885380174" lon="6.625588888586714" id="-21067">
		<tag k="name" v="Kallandsbekken" />
		<tag k="ssr:stedsnr" v="103603" />
		<tag k="waterway" v="stream" />
	</node>
	<node lat="58.54731666787218" lon="6.698152784811998" id="-21073">
		<tag k="name" v="Skregeliodden" />
		<tag k="natural" v="cape" />
		<tag k="ssr:stedsnr" v="103623" />
	</node>
	<node lat="58.281472218458134" lon="6.454413890711242" id="-21080">
		<tag k="name" v="Kollfattjødn" />
		<tag k="natural" v="water" />
		<tag k="ssr:stedsnr" v="103709" />
	</node>
	<node lat="58.32732222605577" lon="6.733111112394007" id="-21085">
		<tag k="name" v="Supen" />
		<tag k="natural" v="water" />
		<tag k="ssr:stedsnr" v="103728" />
		<tag k="water" v="lake" />
	</node>
	<node lat="58.493955554638426" lon="6.638375003720881" id="-21092">
		<tag k="name" v="Staksmyrhølen" />
		<tag k="place" v="locality" />
		<tag k="ssr:stedsnr" v="103904" />
	</node>
	<node lat="58.48940833186245" lon="6.682900006070534" id="-21097">
		<tag k="name" v="Siringsvik" />
		<tag k="natural" v="bay" />
		<tag k="ssr:stedsnr" v="103883" />
	</node>
	<node lat="58.299700003069894" lon="6.472077772567234" id="-21115">
		<tag k="alt_name" v="Helvedsfossen" />
		<tag k="name" v="Helvetesfossen" />
		<tag k="natural" v="waterfall" />
		<tag k="ssr:stedsnr" v="121015" />
	</node>
	<node lat="58.44383888916635" lon="6.871436104262284" id="-21116">
		<tag k="name" v="Store Kyrkjevatn" />
		<tag k="natural" v="water" />
		<tag k="ssr:stedsnr" v="121025" />
		<tag k="water" v="lake" />
	</node>
	<node lat="58.27975000328047" lon="6.747755555821268" id="-21119">
		<tag k="alt_name" v="Ljosevann" />
		<tag k="name" v="Ljosevatnet" />
		<tag k="natural" v="water" />
		<tag k="ssr:stedsnr" v="121274" />
		<tag k="water" v="lake" />
	</node>
	<node lat="58.34536111095431" lon="6.5950611196266085" id="-21122">
		<tag k="alt_name" v="Megårdsvann" />
		<tag k="name" v="Megardsvatnet" />
		<tag k="natural" v="water" />
		<tag k="ssr:stedsnr" v="121422" />
		<tag k="water" v="lake" />
	</node>
	<node lat="58.257038884868486" lon="6.765333335574703" id="-21126">
		<tag k="name" v="Fiskelausvannet" />
		<tag k="natural" v="water" />
		<tag k="ssr:stedsnr" v="153915" />
		<tag k="water" v="lake" />
	</node>
	<node lat="58.26130277672378" lon="6.686774998792345" id="-21130">
		<tag k="name" v="Reinsbekken" />
		<tag k="ssr:stedsnr" v="161912" />
		<tag k="waterway" v="stream" />
	</node>
	<node lat="58.44956666454632" lon="6.73139722869842" id="-21135">
		<tag k="name" v="Store Tverrbekken" />
		<tag k="ssr:stedsnr" v="163357" />
		<tag k="waterway" v="stream" />
	</node>
	<node lat="58.229127777927694" lon="6.605169448054216" id="-21160">
		<tag k="name" v="Stemmetjødna" />
		<tag k="natural" v="water" />
		<tag k="ssr:stedsnr" v="164073" />
	</node>
	<node lat="58.30127777842049" lon="6.5794027834594875" id="-21166">
		<tag k="name" v="Barlønntjødn" />
		<tag k="natural" v="water" />
		<tag k="ssr:stedsnr" v="164505" />
	</node>
	<node lat="58.35064166316833" lon="6.841183338532097" id="-21168">
		<tag k="name" v="Bukksodden" />
		<tag k="natural" v="cape" />
		<tag k="ssr:stedsnr" v="164264" />
	</node>
	<node lat="58.3019638849792" lon="6.483513891474451" id="-21171">
		<tag k="name" v="Litle Kalvevik" />
		<tag k="natural" v="bay" />
		<tag k="ssr:stedsnr" v="164413" />
	</node>
	<node lat="58.30291666861318" lon="6.4864972175954145" id="-21172">
		<tag k="name" v="Store Kalvevik" />
		<tag k="natural" v="bay" />
		<tag k="ssr:stedsnr" v="164415" />
	</node>
	<node lat="58.42369722319893" lon="6.7490972282137625" id="-21175">
		<tag k="name" v="Håbakksvika" />
		<tag k="natural" v="bay" />
		<tag k="ssr:stedsnr" v="164423" />
	</node>
	<node lat="58.29817777611832" lon="6.720758338091152" id="-21180">
		<tag k="name" v="Heimre Foreneset" />
		<tag k="natural" v="cape" />
		<tag k="ssr:stedsnr" v="164675" />
	</node>
	<node lat="58.3835722224615" lon="6.676036114620233" id="-21184">
		<tag k="name" v="Bakketangen" />
		<tag k="natural" v="cape" />
		<tag k="ssr:stedsnr" v="164870" />
	</node>
	<node lat="58.545394444713914" lon="6.647344442231695" id="-21185">
		<tag k="name" v="Stemvannsbekken" />
		<tag k="ssr:stedsnr" v="164810" />
		<tag k="waterway" v="stream" />
	</node>
	<node lat="58.31258055728453" lon="6.766883326653291" id="-21186">
		<tag k="name" v="Gristjødn" />
		<tag k="natural" v="water" />
		<tag k="ssr:stedsnr" v="164714" />
	</node>
	<node lat="58.43343333562397" lon="6.820297217023696" id="-21189">
		<tag k="name" v="Kalfossen" />
		<tag k="natural" v="waterfall" />
		<tag k="ssr:stedsnr" v="164720" />
	</node>
	<node lat="58.34282594698539" lon="6.733869052708649" id="-21190">
		<tag k="name" v="Høgåstjødnan" />
		<tag k="natural" v="water" />
		<tag k="ssr:stedsnr" v="164761" />
		<tag k="water" v="lake" />
	</node>
	<node lat="58.22272222005013" lon="6.610675005996679" id="-21211">
		<tag k="alt_name" v="Teinelaget" />
		<tag k="name" v="Teinelaga" />
		<tag k="natural" v="water" />
		<tag k="ssr:stedsnr" v="182118" />
		<tag k="water" v="lake" />
	</node>
	<node lat="58.22386111432895" lon="6.664258337073267" id="-21212">
		<tag k="alt_name" v="Engelsvannet" />
		<tag k="name" v="Engelsvatnet" />
		<tag k="natural" v="water" />
		<tag k="ssr:stedsnr" v="182120" />
		<tag k="water" v="lake" />
	</node>
	<node lat="58.37954166583025" lon="6.812938891188421" id="-21215">
		<tag k="alt_name" v="Fedogvatnet" />
		<tag k="name" v="Fedåkvatnet" />
		<tag k="natural" v="water" />
		<tag k="ssr:stedsnr" v="182411" />
		<tag k="water" v="lake" />
	</node>
	<node lat="58.369583332626135" lon="6.912455548305002" id="-21217">
		<tag k="alt_name" v="Øygardstjødn" />
		<tag k="name" v="Øygardstjørn" />
		<tag k="natural" v="water" />
		<tag k="ssr:stedsnr" v="182426" />
	</node>
	<node lat="58.35785555270565" lon="6.754099998419758" id="-21218">
		<tag k="alt_name" v="Ljosevann" />
		<tag k="name" v="Ljosevatnet" />
		<tag k="natural" v="water" />
		<tag k="ssr:stedsnr" v="182432" />
		<tag k="water" v="lake" />
	</node>
	<node lat="58.329513885308344" lon="6.849105552123168" id="-21221">
		<tag k="name" v="Lonen" />
		<tag k="natural" v="water" />
		<tag k="ssr:stedsnr" v="182469" />
	</node>
	<node lat="58.38681666484796" lon="6.690786112597505" id="-21222">
		<tag k="alt_name" v="Hamartjødn" />
		<tag k="name" v="Hamartjørn" />
		<tag k="natural" v="water" />
		<tag k="ssr:stedsnr" v="182399" />
	</node>
	<node lat="58.26310000296149" lon="6.529122224565124" id="-21223">
		<tag k="name" v="Store Bjelkhomtjødn" />
		<tag k="natural" v="water" />
		<tag k="ssr:stedsnr" v="268906" />
	</node>
	<node lat="58.39270555921005" lon="6.768138884913726" id="-21228">
		<tag k="name" v="Stronna" />
		<tag k="natural" v="beach" />
		<tag k="ssr:stedsnr" v="220625" />
	</node>
	<node lat="58.28363610999282" lon="6.412858339940359" id="-21234">
		<tag k="name" v="Rododden" />
		<tag k="natural" v="cape" />
		<tag k="ssr:stedsnr" v="221217" />
	</node>
	<node lat="58.492224997322666" lon="6.801869441455579" id="-21239">
		<tag k="name" v="Lona" />
		<tag k="natural" v="water" />
		<tag k="ssr:stedsnr" v="224040" />
		<tag k="water" v="lake" />
	</node>
	<node lat="58.504900000777326" lon="6.812966664546953" id="-21241">
		<tag k="name" v="Krogtjødn" />
		<tag k="natural" v="water" />
		<tag k="ssr:stedsnr" v="224128" />
		<tag k="water" v="lake" />
	</node>
	<node lat="58.287438892362765" lon="6.521277784657498" id="-21253">
		<tag k="name" v="Lonen" />
		<tag k="natural" v="water" />
		<tag k="ssr:stedsnr" v="224499" />
		<tag k="water" v="lake" />
	</node>
	<node lat="58.466419440012565" lon="6.829266667615466" id="-21255">
		<tag k="name" v="Tangheibekken" />
		<tag k="ssr:stedsnr" v="224610" />
		<tag k="waterway" v="stream" />
	</node>
	<node lat="58.246144440234374" lon="6.631425000694673" id="-21262">
		<tag k="name" v="Stråndebekken" />
		<tag k="ssr:stedsnr" v="224544" />
		<tag k="waterway" v="stream" />
	</node>
	<node lat="58.346502780166574" lon="6.90829167390942" id="-21266">
		<tag k="name" v="Nord-krøblevatn" />
		<tag k="natural" v="water" />
		<tag k="ssr:stedsnr" v="224689" />
	</node>
	<node lat="58.4186760754419" lon="6.858695436204072" id="-21273">
		<tag k="name" v="Risdalstjødn" />
		<tag k="natural" v="water" />
		<tag k="ssr:stedsnr" v="225183" />
	</node>
	<node lat="58.410327924506426" lon="6.818942772593758" id="-21275">
		<tag k="name" v="Lauvtjødn" />
		<tag k="natural" v="water" />
		<tag k="ssr:stedsnr" v="225187" />
	</node>
	<node lat="58.27553611326322" lon="6.696722225844465" id="-21279">
		<tag k="name" v="Linddalstjødna" />
		<tag k="natural" v="water" />
		<tag k="ssr:stedsnr" v="225196" />
	</node>
	<node lat="58.278100003146925" lon="6.467697219807436" id="-21281">
		<tag k="name" v="Runde tjødna" />
		<tag k="natural" v="water" />
		<tag k="ssr:stedsnr" v="225319" />
	</node>
	<node lat="58.2173166649216" lon="6.600986109714187" id="-21286">
		<tag k="name" v="Gulltjødna" />
		<tag k="natural" v="water" />
		<tag k="ssr:stedsnr" v="225095" />
	</node>
	<node lat="58.357080556498744" lon="6.8545833339428555" id="-21287">
		<tag k="name" v="Innstetjødn" />
		<tag k="natural" v="water" />
		<tag k="ssr:stedsnr" v="225234" />
	</node>
	<node lat="58.347347218345234" lon="6.798316663343855" id="-21292">
		<tag k="name" v="Stølsvatn" />
		<tag k="natural" v="water" />
		<tag k="ssr:stedsnr" v="225392" />
		<tag k="water" v="lake" />
	</node>
	<node lat="58.38209444084855" lon="6.788280550182008" id="-21302">
		<tag k="name" v="Mattjødn" />
		<tag k="natural" v="water" />
		<tag k="ssr:stedsnr" v="225668" />
	</node>
	<node lat="58.3767361137397" lon="6.81153610259945" id="-21303">
		<tag k="name" v="Gullbergodden" />
		<tag k="natural" v="cape" />
		<tag k="ssr:stedsnr" v="225671" />
	</node>
	<node lat="58.33071667122428" lon="6.839380558510297" id="-21304">
		<tag k="name" v="Naveråstjødn" />
		<tag k="natural" v="water" />
		<tag k="ssr:stedsnr" v="225690" />
	</node>
	<node lat="58.37115000438654" lon="6.654788891072763" id="-21305">
		<tag k="name" v="Lauvåstjødnan" />
		<tag k="natural" v="water" />
		<tag k="ssr:stedsnr" v="225840" />
	</node>
	<node lat="58.374216665083395" lon="6.706458338704131" id="-21306">
		<tag k="name" v="Vevtjødn" />
		<tag k="natural" v="water" />
		<tag k="ssr:stedsnr" v="225843" />
	</node>
	<node lat="58.4770833308662" lon="6.682566665525962" id="-21309">
		<tag k="name" v="Øyrodden" />
		<tag k="natural" v="cape" />
		<tag k="ssr:stedsnr" v="225889" />
	</node>
	<node lat="58.435547218662755" lon="6.843897217299805" id="-21327">
		<tag k="alt_name" v="Gytjødn" />
		<tag k="name" v="Gytjørn" />
		<tag k="natural" v="water" />
		<tag k="ssr:stedsnr" v="242090" />
	</node>
	<node lat="58.337974997551655" lon="6.673800005297932" id="-21329">
		<tag k="alt_name" v="Banetjødn" />
		<tag k="name" v="Banetjørn" />
		<tag k="natural" v="water" />
		<tag k="ssr:stedsnr" v="242427" />
	</node>
	<node lat="58.357133331739924" lon="6.849880559158598" id="-21330">
		<tag k="alt_name" v="Bjortjødn" />
		<tag k="name" v="Bjortjørn" />
		<tag k="natural" v="water" />
		<tag k="ssr:stedsnr" v="243435" />
	</node>
	<node lat="58.36621666782199" lon="6.870061103015752" id="-21331">
		<tag k="alt_name" v="Skånlandstjødn" />
		<tag k="name" v="Skålandstjørn" />
		<tag k="natural" v="water" />
		<tag k="ssr:stedsnr" v="243438" />
	</node>
	<node lat="58.33085894154861" lon="6.77182179342547" id="-21336">
		<tag k="name" v="Skiftingsholman" />
		<tag k="place" v="island" />
		<tag k="ssr:stedsnr" v="274424" />
	</node>
	<node lat="58.27701944815473" lon="6.7190750055533695" id="-21342">
		<tag k="name" v="Hommetjødn" />
		<tag k="natural" v="water" />
		<tag k="ssr:stedsnr" v="281610" />
	</node>
	<node lat="58.39883055858428" lon="6.63529444815521" id="-21350">
		<tag k="name" v="Loppetjødn" />
		<tag k="natural" v="water" />
		<tag k="ssr:stedsnr" v="281970" />
	</node>
	<node lat="58.301908331642885" lon="6.560299999303043" id="-21352">
		<tag k="name" v="Uskartjødn" />
		<tag k="natural" v="water" />
		<tag k="ssr:stedsnr" v="285003" />
	</node>
	<node lat="58.397736111395055" lon="6.760691669772267" id="-21372">
		<tag k="name" v="Floskjeret" />
		<tag k="place" v="islet" />
		<tag k="ssr:stedsnr" v="285303" />
	</node>
	<node lat="58.34122777962016" lon="6.582155562550902" id="-21377">
		<tag k="name" v="Litle Kålevik" />
		<tag k="natural" v="bay" />
		<tag k="ssr:stedsnr" v="285503" />
	</node>
	<node lat="58.434333331387755" lon="6.7713944504604875" id="-21381">
		<tag k="name" v="Svartatjødn" />
		<tag k="natural" v="water" />
		<tag k="ssr:stedsnr" v="285427" />
	</node>
	<node lat="58.49288611547924" lon="6.682466665286858" id="-21400">
		<tag k="name" v="Ytre Skarvesodden" />
		<tag k="natural" v="cape" />
		<tag k="ssr:stedsnr" v="285877" />
	</node>
	<node lat="58.50178333495757" lon="6.684030558593403" id="-21401">
		<tag k="name" v="Skarvesodden" />
		<tag k="natural" v="cape" />
		<tag k="ssr:stedsnr" v="285894" />
	</node>
	<node lat="58.45693611378404" lon="6.670227777624361" id="-21403">
		<tag k="name" v="Regevik" />
		<tag k="natural" v="bay" />
		<tag k="ssr:stedsnr" v="285983" />
	</node>
	<node lat="58.46619166984361" lon="6.681994440124086" id="-21406">
		<tag k="name" v="Hundsrauodden" />
		<tag k="natural" v="cape" />
		<tag k="ssr:stedsnr" v="285998" />
	</node>
	<node lat="58.25410555454649" lon="6.708747222833119" id="-21409">
		<tag k="name" v="Litle Stemtjødn" />
		<tag k="natural" v="water" />
		<tag k="ssr:stedsnr" v="286540" />
	</node>
	<node lat="58.31154444188054" lon="6.758633339020469" id="-21412">
		<tag k="name" v="Gomsetjødn" />
		<tag k="natural" v="water" />
		<tag k="ssr:stedsnr" v="286730" />
	</node>
	<node lat="58.37860000108574" lon="6.674533332738148" id="-21413">
		<tag k="name" v="Svartevannet" />
		<tag k="natural" v="water" />
		<tag k="ssr:stedsnr" v="286884" />
	</node>
	<node lat="58.411097225682255" lon="6.874719440972722" id="-21418">
		<tag k="name" v="Stora støa" />
		<tag k="natural" v="bay" />
		<tag k="ssr:stedsnr" v="463139" />
	</node>
	<node lat="58.33357777930772" lon="6.691941671768868" id="-21426">
		<tag k="name" v="Stemmetjødn" />
		<tag k="natural" v="water" />
		<tag k="ssr:stedsnr" v="463180" />
	</node>
	<node lat="58.32322499691031" lon="6.699305559801792" id="-21427">
		<tag k="name" v="Kjeodden" />
		<tag k="natural" v="cape" />
		<tag k="ssr:stedsnr" v="463195" />
	</node>
	<node lat="58.33338888448185" lon="6.684672224408928" id="-21428">
		<tag k="name" v="Aurevikbekken" />
		<tag k="ssr:stedsnr" v="463198" />
		<tag k="waterway" v="stream" />
	</node>
	<node lat="58.53796110880845" lon="6.640880555347055" id="-21431">
		<tag k="name" v="Heimre Skultjødn" />
		<tag k="natural" v="water" />
		<tag k="ssr:stedsnr" v="463236" />
	</node>
	<node lat="58.45880833187609" lon="6.7500666724222445" id="-21436">
		<tag k="name" v="Poddetjødn" />
		<tag k="natural" v="water" />
		<tag k="ssr:stedsnr" v="463452" />
	</node>
	<node lat="58.29043332967726" lon="6.752694446409345" id="-21441">
		<tag k="name" v="Lyngnes" />
		<tag k="natural" v="cape" />
		<tag k="ssr:stedsnr" v="463562" />
	</node>
	<node lat="58.496316666924315" lon="6.737977784541556" id="-21442">
		<tag k="name" v="Kroktjødn" />
		<tag k="natural" v="water" />
		<tag k="ssr:stedsnr" v="463538" />
	</node>
	<node lat="58.283494442002144" lon="6.716930555963976" id="-21444">
		<tag k="name" v="Røyrvik" />
		<tag k="natural" v="bay" />
		<tag k="ssr:stedsnr" v="463550" />
	</node>
	<node lat="58.37633889072395" lon="6.632266668368522" id="-21446">
		<tag k="name" v="Rekevikstjødna" />
		<tag k="natural" v="water" />
		<tag k="ssr:stedsnr" v="463883" />
	</node>
	<node lat="58.30878611299191" lon="6.6759000073373125" id="-21448">
		<tag k="name" v="Eidsvika" />
		<tag k="natural" v="bay" />
		<tag k="ssr:stedsnr" v="463916" />
	</node>
	<node lat="58.428152777892215" lon="6.720502780635949" id="-21455">
		<tag k="alt_name" v="Husmannstjødn" />
		<tag k="name" v="Husmannstjørn" />
		<tag k="natural" v="water" />
		<tag k="ssr:stedsnr" v="303105" />
	</node>
	<node lat="58.482108334867625" lon="6.737172226215774" id="-21458">
		<tag k="alt_name" v="Korsvika" />
		<tag k="name" v="Kåsvika" />
		<tag k="natural" v="bay" />
		<tag k="ssr:stedsnr" v="303089" />
	</node>
	<node lat="58.23178610787418" lon="6.58371944962594" id="-21459">
		<tag k="alt_name" v="Urstadvann" />
		<tag k="name" v="Urstadvatnet" />
		<tag k="natural" v="water" />
		<tag k="ssr:stedsnr" v="303092" />
	</node>
	<node lat="58.327761111490986" lon="6.861000005959162" id="-21462">
		<tag k="alt_name" v="Grassvatnet" />
		<tag k="name" v="Grasvatnet" />
		<tag k="natural" v="water" />
		<tag k="ssr:stedsnr" v="303478" />
		<tag k="water" v="lake" />
	</node>
	<node lat="58.30727777466428" lon="6.7496083267471105" id="-21464">
		<tag k="alt_name" v="Gompevannet" />
		<tag k="name" v="Gompevatn" />
		<tag k="natural" v="water" />
		<tag k="ssr:stedsnr" v="303499" />
		<tag k="water" v="lake" />
	</node>
	<node lat="58.31173055242018" lon="6.590269446602217" id="-21466">
		<tag k="alt_name" v="Langevann" />
		<tag k="loc_name" v="Langevannet" />
		<tag k="name" v="Langevatnet" />
		<tag k="natural" v="water" />
		<tag k="ssr:stedsnr" v="304033" />
		<tag k="water" v="lake" />
	</node>
	<node lat="58.268068761230126" lon="6.73565035971982" id="-21467">
		<tag k="alt_name" v="Skogevann" />
		<tag k="name" v="Skogevatnet" />
		<tag k="natural" v="water" />
		<tag k="ssr:stedsnr" v="304275" />
		<tag k="water" v="lake" />
	</node>
	<node lat="58.42891666562996" lon="6.768458331116311" id="-21471">
		<tag k="name" v="Siritjødn" />
		<tag k="natural" v="water" />
		<tag k="ssr:stedsnr" v="467289" />
	</node>
	<node lat="58.41531944624129" lon="6.75626389014534" id="-21472">
		<tag k="name" v="Osen" />
		<tag k="natural" v="strait" />
		<tag k="ssr:stedsnr" v="467290" />
	</node>
	<node lat="58.28744167090336" lon="6.640422220937955" id="-21485">
		<tag k="name" v="Sveigetjødna" />
		<tag k="natural" v="water" />
		<tag k="ssr:stedsnr" v="467112" />
	</node>
	<node lat="58.331577775429665" lon="6.649063883090182" id="-21499">
		<tag k="name" v="Øvre Hølen" />
		<tag k="natural" v="water" />
		<tag k="ssr:stedsnr" v="467197" />
	</node>
	<node lat="58.35666667042488" lon="6.818136107138493" id="-21501">
		<tag k="name" v="Elgnesodden" />
		<tag k="natural" v="cape" />
		<tag k="ssr:stedsnr" v="467215" />
	</node>
	<node lat="58.35144166597948" lon="6.855016663483804" id="-21504">
		<tag k="name" v="Liebekken" />
		<tag k="ssr:stedsnr" v="467224" />
		<tag k="waterway" v="stream" />
	</node>
	<node lat="58.36217778064546" lon="6.8135222295179325" id="-21512">
		<tag k="name" v="Klunglandstjødn" />
		<tag k="natural" v="water" />
		<tag k="ssr:stedsnr" v="467395" />
	</node>
	<node lat="58.43083610763683" lon="6.796383329078258" id="-21521">
		<tag k="name" v="Åtlandsåna" />
		<tag k="ssr:stedsnr" v="467437" />
		<tag k="waterway" v="river" />
	</node>
	<node lat="58.27513423960589" lon="6.587205606943465" id="-21526">
		<tag k="name" v="Tvillingtjødnan" />
		<tag k="natural" v="water" />
		<tag k="ssr:stedsnr" v="467477" />
		<tag k="water" v="lake" />
	</node>
	<node lat="58.380611112740134" lon="6.73106388105493" id="-21555">
		<tag k="name" v="Gausdalsvika" />
		<tag k="natural" v="bay" />
		<tag k="ssr:stedsnr" v="467653" />
	</node>
	<node lat="58.49883055252074" lon="6.850388897209371" id="-21563">
		<tag k="name" v="Jakobstjødna" />
		<tag k="natural" v="water" />
		<tag k="ssr:stedsnr" v="467689" />
	</node>
	<node lat="58.4926472200805" lon="6.848661113337361" id="-21564">
		<tag k="name" v="Blokketjødn" />
		<tag k="natural" v="water" />
		<tag k="ssr:stedsnr" v="467693" />
	</node>
	<node lat="58.3015444438089" lon="6.744449993628722" id="-21565">
		<tag k="name" v="Kråketjødn" />
		<tag k="natural" v="water" />
		<tag k="ssr:stedsnr" v="467696" />
	</node>
	<node lat="58.24885555761572" lon="6.738277775064238" id="-21588">
		<tag k="name" v="Jordsvann" />
		<tag k="natural" v="water" />
		<tag k="ssr:stedsnr" v="467838" />
		<tag k="water" v="lake" />
	</node>
	<node lat="58.449877775962904" lon="6.652663893764668" id="-21603">
		<tag k="name" v="Storebekk" />
		<tag k="ssr:stedsnr" v="467983" />
		<tag k="waterway" v="stream" />
	</node>
	<node lat="58.47337222418011" lon="6.617677784549606" id="-21605">
		<tag k="name" v="Store Øya" />
		<tag k="place" v="islet" />
		<tag k="ssr:stedsnr" v="467950" />
	</node>
	<node lat="58.4533944412369" lon="6.664630557152956" id="-21608">
		<tag k="name" v="Dugodden" />
		<tag k="natural" v="cape" />
		<tag k="ssr:stedsnr" v="467992" />
	</node>
	<node lat="58.36701666250953" lon="6.8315861126331745" id="-21618">
		<tag k="name" v="Storøy" />
		<tag k="place" v="island" />
		<tag k="ssr:stedsnr" v="341629" />
	</node>
	<node lat="58.40695555813707" lon="6.639702772576416" id="-21625">
		<tag k="name" v="Mobekken" />
		<tag k="ssr:stedsnr" v="341928" />
		<tag k="waterway" v="stream" />
	</node>
	<node lat="58.425025000375484" lon="6.644358331328209" id="-21627">
		<tag k="name" v="Odden" />
		<tag k="natural" v="cape" />
		<tag k="ssr:stedsnr" v="341949" />
	</node>
	<node lat="58.282499996025926" lon="6.442408326655024" id="-21628">
		<tag k="name" v="Danskelægtjødn" />
		<tag k="natural" v="water" />
		<tag k="ssr:stedsnr" v="342292" />
	</node>
	<node lat="58.303736112135226" lon="6.700544446858444" id="-21629">
		<tag k="name" v="Skorvøy" />
		<tag k="place" v="island" />
		<tag k="ssr:stedsnr" v="342191" />
	</node>
	<node lat="58.308347220337" lon="6.693975007232273" id="-21630">
		<tag k="name" v="Skiftingsvika" />
		<tag k="natural" v="bay" />
		<tag k="ssr:stedsnr" v="342195" />
	</node>
	<node lat="58.50013332973791" lon="6.723894448552355" id="-21635">
		<tag k="name" v="Kuaua" />
		<tag k="natural" v="water" />
		<tag k="ssr:stedsnr" v="345106" />
	</node>
	<node lat="58.378030552646266" lon="6.901158327291256" id="-21639">
		<tag k="name" v="Klubben" />
		<tag k="natural" v="cape" />
		<tag k="ssr:stedsnr" v="345224" />
	</node>
	<node lat="58.46765278085305" lon="6.830236115304955" id="-21642">
		<tag k="name" v="Håballsbekken" />
		<tag k="ssr:stedsnr" v="345612" />
		<tag k="waterway" v="stream" />
	</node>
	<node lat="58.28181388709435" lon="6.6343805628893975" id="-21665">
		<tag k="name" v="Litle Dibla" />
		<tag k="natural" v="water" />
		<tag k="ssr:stedsnr" v="346108" />
	</node>
	<node lat="58.28953889330108" lon="6.612102778649689" id="-21666">
		<tag k="name" v="Hundodden" />
		<tag k="natural" v="cape" />
		<tag k="ssr:stedsnr" v="346111" />
	</node>
	<node lat="58.26390555134673" lon="6.640672224389498" id="-21670">
		<tag k="name" v="Fossevann" />
		<tag k="natural" v="water" />
		<tag k="ssr:stedsnr" v="346156" />
	</node>
	<node lat="58.33306944536823" lon="6.63541110595201" id="-21673">
		<tag k="name" v="Stolpetjødn" />
		<tag k="natural" v="water" />
		<tag k="ssr:stedsnr" v="346166" />
	</node>
	<node lat="58.3199083359574" lon="6.593205555225152" id="-21677">
		<tag k="name" v="Skrubbetjødn" />
		<tag k="natural" v="water" />
		<tag k="ssr:stedsnr" v="346004" />
	</node>
	<node lat="58.304124999300555" lon="6.580999996594739" id="-21678">
		<tag k="name" v="Endestadtjødn" />
		<tag k="natural" v="water" />
		<tag k="ssr:stedsnr" v="346011" />
	</node>
	<node lat="58.36436388656356" lon="6.76023610713209" id="-21685">
		<tag k="name" v="Svarttjødn" />
		<tag k="natural" v="water" />
		<tag k="ssr:stedsnr" v="346368" />
		<tag k="water" v="lake" />
	</node>
	<node lat="58.42030277677587" lon="6.714102776930015" id="-21688">
		<tag k="name" v="Krossvika" />
		<tag k="natural" v="bay" />
		<tag k="ssr:stedsnr" v="346374" />
	</node>
	<node lat="58.292525004567906" lon="6.590711118489074" id="-21699">
		<tag k="name" v="Gobbatjødn" />
		<tag k="natural" v="water" />
		<tag k="ssr:stedsnr" v="346455" />
	</node>
	<node lat="58.42744166875611" lon="6.694283329157426" id="-21708">
		<tag k="name" v="Varptjødn" />
		<tag k="natural" v="water" />
		<tag k="ssr:stedsnr" v="346805" />
	</node>
	<node lat="58.357063885210614" lon="6.659352771373887" id="-21712">
		<tag k="name" v="Røysebekk" />
		<tag k="ssr:stedsnr" v="346820" />
		<tag k="waterway" v="stream" />
	</node>
	<node lat="58.360230555888485" lon="6.623497221383967" id="-21714">
		<tag k="name" v="Trossevika" />
		<tag k="natural" v="bay" />
		<tag k="ssr:stedsnr" v="346833" />
	</node>
	<node lat="58.3772055561968" lon="6.654780562260666" id="-21716">
		<tag k="name" v="Neset" />
		<tag k="natural" v="cape" />
		<tag k="ssr:stedsnr" v="346861" />
	</node>
	<node lat="58.36618611475047" lon="6.747624994930454" id="-21717">
		<tag k="name" v="Rullandsvik" />
		<tag k="natural" v="bay" />
		<tag k="ssr:stedsnr" v="346704" />
	</node>
	<node lat="58.37022500111105" lon="6.750524993861471" id="-21719">
		<tag k="name" v="Austretjødn" />
		<tag k="natural" v="water" />
		<tag k="ssr:stedsnr" v="346709" />
	</node>
	<node lat="58.31650833768133" lon="6.716958335493613" id="-21720">
		<tag k="name" v="Klubben" />
		<tag k="natural" v="cape" />
		<tag k="ssr:stedsnr" v="346714" />
	</node>
	<node lat="58.30478610786287" lon="6.708394440376046" id="-21721">
		<tag k="name" v="Labbodden" />
		<tag k="natural" v="cape" />
		<tag k="ssr:stedsnr" v="346719" />
	</node>
	<node lat="58.31332500071297" lon="6.563391672302329" id="-21737">
		<tag k="alt_name" v="Bjørnlitjødn" />
		<tag k="name" v="Bjørnlitjørna" />
		<tag k="natural" v="water" />
		<tag k="ssr:stedsnr" v="364024" />
	</node>
	<node lat="58.44383888916635" lon="6.871436104262284" id="-21742">
		<tag k="name" v="Kyrkjevatna" />
		<tag k="natural" v="water" />
		<tag k="ssr:stedsnr" v="364117" />
		<tag k="water" v="lake" />
	</node>
	<node lat="58.42402222549766" lon="6.714763888477246" id="-21743">
		<tag k="name" v="Ersdalsvatnet" />
		<tag k="natural" v="water" />
		<tag k="ssr:stedsnr" v="364119" />
		<tag k="water" v="lake" />
	</node>
	<node lat="58.39643055332686" lon="6.876944444245806" id="-21747">
		<tag k="alt_name" v="Krogevatnet" />
		<tag k="name" v="Krokevatnet" />
		<tag k="natural" v="water" />
		<tag k="ssr:stedsnr" v="364410" />
		<tag k="water" v="lake" />
	</node>
	<node lat="58.25721666773034" lon="6.764749993847992" id="-21748">
		<tag k="alt_name" v="Fiskelausvannet" />
		<tag k="name" v="Fiskelaus" />
		<tag k="natural" v="water" />
		<tag k="ssr:stedsnr" v="364304" />
	</node>
	<node lat="58.306883329914385" lon="6.614524998876637" id="-21749">
		<tag k="alt_name" v="Stølsvann" />
		<tag k="name" v="Stølsvatnet" />
		<tag k="natural" v="water" />
		<tag k="ssr:stedsnr" v="364487" />
		<tag k="water" v="lake" />
	</node>
	<node lat="58.48677778128148" lon="6.778199993077453" id="-21753">
		<tag k="alt_name" v="Sandvatn" />
		<tag k="name" v="Sandvatnet" />
		<tag k="natural" v="water" />
		<tag k="ssr:stedsnr" v="485034" />
		<tag k="water" v="lake" />
	</node>
	<node lat="58.27969166898055" lon="6.5711611048337115" id="-21756">
		<tag k="alt_name" v="Torsvann" />
		<tag k="name" v="Torsvatnet" />
		<tag k="natural" v="water" />
		<tag k="ssr:stedsnr" v="485052" />
		<tag k="water" v="lake" />
	</node>
	<node lat="58.44489722249226" lon="6.775847224459156" id="-21760">
		<tag k="alt_name" v="Langatjødn" />
		<tag k="name" v="Langatjørn" />
		<tag k="natural" v="water" />
		<tag k="ssr:stedsnr" v="485099" />
	</node>
	<node lat="58.3253277786835" lon="6.671516660499296" id="-21762">
		<tag k="name" v="Lomtjødn" />
		<tag k="natural" v="water" />
		<tag k="ssr:stedsnr" v="402195" />
	</node>
	<node lat="58.29757499655264" lon="6.719472216756997" id="-21767">
		<tag k="name" v="Tjørebergodden" />
		<tag k="natural" v="cape" />
		<tag k="ssr:stedsnr" v="402606" />
	</node>
	<node lat="58.389472220879746" lon="6.711286109316465" id="-21771">
		<tag k="alt_name" v="Helledalstjødn" />
		<tag k="name" v="Stitjørna" />
		<tag k="natural" v="water" />
		<tag k="ssr:stedsnr" v="485342" />
	</node>
	<node lat="58.308352780135735" lon="6.703619441196878" id="-21772">
		<tag k="name" v="Selura" />
		<tag k="natural" v="water" />
		<tag k="ssr:stedsnr" v="485437" />
		<tag k="water" v="lake" />
	</node>
	<node lat="58.31887222028914" lon="6.6079833305375" id="-21783">
		<tag k="name" v="Borknelitjødn" />
		<tag k="natural" v="water" />
		<tag k="ssr:stedsnr" v="403174" />
	</node>
	<node lat="58.540749997025124" lon="6.615000000801919" id="-21788">
		<tag k="alt_name" v="Trodlevatnet" />
		<tag k="name" v="Trollevatnet" />
		<tag k="natural" v="water" />
		<tag k="ssr:stedsnr" v="485687" />
		<tag k="water" v="lake" />
	</node>
	<node lat="58.503194446996204" lon="6.814963880378179" id="-21796">
		<tag k="name" v="Kattetjødn" />
		<tag k="natural" v="water" />
		<tag k="ssr:stedsnr" v="406106" />
	</node>
	<node lat="58.43867222009154" lon="6.77625832694182" id="-21798">
		<tag k="name" v="Store Bortjødn" />
		<tag k="natural" v="water" />
		<tag k="ssr:stedsnr" v="406450" />
	</node>
	<node lat="58.43740277923318" lon="6.777972227459447" id="-21799">
		<tag k="name" v="Litle Bortjødn" />
		<tag k="natural" v="water" />
		<tag k="ssr:stedsnr" v="406458" />
	</node>
	<node lat="58.44878055802497" lon="6.732047230458142" id="-21802">
		<tag k="name" v="Litle Tverrbekken" />
		<tag k="ssr:stedsnr" v="406399" />
		<tag k="waterway" v="stream" />
	</node>
	<node lat="58.31697222438181" lon="6.562691662632495" id="-21804">
		<tag k="name" v="Dyrlitjødn" />
		<tag k="natural" v="water" />
		<tag k="ssr:stedsnr" v="406560" />
	</node>
	<node lat="58.31526111453269" lon="6.586705546913719" id="-21817">
		<tag k="name" v="Forebakkodden" />
		<tag k="natural" v="cape" />
		<tag k="ssr:stedsnr" v="407008" />
	</node>
	<node lat="58.36465555336502" lon="6.830630555814651" id="-21822">
		<tag k="name" v="Brennøy" />
		<tag k="place" v="island" />
		<tag k="ssr:stedsnr" v="407252" />
	</node>
	<node lat="58.35361389284562" lon="6.831558338797898" id="-21823">
		<tag k="name" v="Kvitesand" />
		<tag k="natural" v="bay" />
		<tag k="ssr:stedsnr" v="407255" />
	</node>
	<node lat="58.34581667003816" lon="6.794838894426654" id="-21833">
		<tag k="name" v="Kalvesundet" />
		<tag k="natural" v="strait" />
		<tag k="ssr:stedsnr" v="407391" />
	</node>
	<node lat="58.26383888491956" lon="6.514224997604791" id="-21842">
		<tag k="name" v="Ravneknutvannet" />
		<tag k="natural" v="water" />
		<tag k="ssr:stedsnr" v="407501" />
	</node>
	<node lat="58.37701389279197" lon="6.778180554256351" id="-21845">
		<tag k="name" v="Eikåstjødna" />
		<tag k="natural" v="water" />
		<tag k="ssr:stedsnr" v="407698" />
		<tag k="water" v="lake" />
	</node>
	<node lat="58.25121388845611" lon="6.7314750023823935" id="-21847">
		<tag k="name" v="Endevann" />
		<tag k="natural" v="water" />
		<tag k="ssr:stedsnr" v="407586" />
	</node>
	<node lat="58.37269722059234" lon="6.7891361095302365" id="-21848">
		<tag k="name" v="Skårtjødn" />
		<tag k="natural" v="water" />
		<tag k="ssr:stedsnr" v="407706" />
		<tag k="water" v="lake" />
	</node>
	<node lat="58.32961666949057" lon="6.844638886518643" id="-21849">
		<tag k="name" v="Markehølen" />
		<tag k="natural" v="water" />
		<tag k="ssr:stedsnr" v="407725" />
		<tag k="water" v="lake" />
	</node>
	<node lat="58.31676667043128" lon="6.756255548073128" id="-21851">
		<tag k="name" v="Ruskelitjødn" />
		<tag k="natural" v="water" />
		<tag k="ssr:stedsnr" v="407740" />
	</node>
	<node lat="58.43636389121685" lon="6.6679972203400535" id="-21859">
		<tag k="name" v="Smørnesodden" />
		<tag k="natural" v="cape" />
		<tag k="ssr:stedsnr" v="407945" />
	</node>
	<node lat="58.27002500115725" lon="6.4808111174147776" id="-21866">
		<tag k="alt_name" v="Svartevann" />
		<tag k="name" v="Svartevatn" />
		<tag k="natural" v="water" />
		<tag k="ssr:stedsnr" v="425053" />
		<tag k="water" v="lake" />
	</node>
	<node lat="58.46350277551132" lon="6.744302772663276" id="-21867">
		<tag k="alt_name" v="Skartjødn" />
		<tag k="name" v="Skardtjørn" />
		<tag k="natural" v="water" />
		<tag k="ssr:stedsnr" v="425060" />
	</node>
	<node lat="58.29780833423272" lon="6.617930548162492" id="-21876">
		<tag k="alt_name" v="Gluvskarvann" />
		<tag k="name" v="Glupskårvatnet" />
		<tag k="natural" v="water" />
		<tag k="ssr:stedsnr" v="425261" />
		<tag k="water" v="lake" />
	</node>
	<node lat="58.37783610843526" lon="6.657283340657468" id="-21878">
		<tag k="alt_name" v="Fodnestølvannet" />
		<tag k="name" v="Fodnestølvatnet" />
		<tag k="natural" v="water" />
		<tag k="ssr:stedsnr" v="425409" />
		<tag k="water" v="lake" />
	</node>
	<node lat="58.35821666885712" lon="6.691166674954724" id="-21880">
		<tag k="alt_name" v="Veisevann" />
		<tag k="name" v="Veisævatnet" />
		<tag k="natural" v="water" />
		<tag k="ssr:stedsnr" v="425422" />
		<tag k="water" v="lake" />
	</node>
	<node lat="58.32731110702888" lon="6.758761104293966" id="-21883">
		<tag k="alt_name" v="Nattholtjødn" />
		<tag k="name" v="Natholtjørna" />
		<tag k="natural" v="water" />
		<tag k="ssr:stedsnr" v="425463" />
	</node>
	<node lat="58.39056944172119" lon="6.741599999530657" id="-21884">
		<tag k="alt_name" v="Mjåvatnet" />
		<tag k="name" v="Mjåvatn" />
		<tag k="natural" v="water" />
		<tag k="ssr:stedsnr" v="425399" />
		<tag k="water" v="lake" />
	</node>
	<node lat="58.30746111329347" lon="6.695305557798806" id="-21888">
		<tag k="name" v="Rossnesodden" />
		<tag k="natural" v="cape" />
		<tag k="ssr:stedsnr" v="463204" />
	</node>
	<node lat="58.3208361081831" lon="6.700308329092672" id="-21890">
		<tag k="name" v="Legenesodden" />
		<tag k="natural" v="cape" />
		<tag k="ssr:stedsnr" v="463211" />
	</node>
	<node lat="58.38305277960871" lon="6.63222222311681" id="-21893">
		<tag k="name" v="Loppetjødna" />
		<tag k="natural" v="water" />
		<tag k="ssr:stedsnr" v="463222" />
	</node>
	<node lat="58.25909999957802" lon="6.717216662726954" id="-21898">
		<tag k="name" v="Smørholvann" />
		<tag k="natural" v="water" />
		<tag k="ssr:stedsnr" v="463516" />
	</node>
	<node lat="58.48652222074281" lon="6.713261117191853" id="-21900">
		<tag k="name" v="Ytra Førevatnet" />
		<tag k="natural" v="water" />
		<tag k="ssr:stedsnr" v="463868" />
		<tag k="water" v="lake" />
	</node>
	<node lat="58.31235000193072" lon="6.591952775841093" id="-21906">
		<tag k="name" v="Heljesneset" />
		<tag k="natural" v="cape" />
		<tag k="ssr:stedsnr" v="467010" />
	</node>
	<node lat="58.31038055911351" lon="6.581080559176065" id="-21907">
		<tag k="name" v="Pytten" />
		<tag k="natural" v="water" />
		<tag k="ssr:stedsnr" v="467012" />
		<tag k="water" v="pond" />
	</node>
	<node lat="58.313524999705166" lon="6.579922227669614" id="-21908">
		<tag k="name" v="Gjertrudstjødn" />
		<tag k="natural" v="water" />
		<tag k="ssr:stedsnr" v="467014" />
	</node>
	<node lat="58.491597221621994" lon="6.7706499999958645" id="-21909">
		<tag k="name" v="Sandvassåna" />
		<tag k="ssr:stedsnr" v="467016" />
		<tag k="waterway" v="river" />
	</node>
	<node lat="58.38539727709153" lon="6.90144773874668" id="-21920">
		<tag k="name" v="Småtjødnene" />
		<tag k="natural" v="water" />
		<tag k="ssr:stedsnr" v="467208" />
		<tag k="water" v="lake" />
	</node>
	<node lat="58.30117222623786" lon="6.49938055847046" id="-21922">
		<tag k="name" v="Lutjødn" />
		<tag k="natural" v="water" />
		<tag k="ssr:stedsnr" v="467403" />
	</node>
	<node lat="58.436505557240956" lon="6.759430556407972" id="-21925">
		<tag k="name" v="Ola tjødn" />
		<tag k="natural" v="water" />
		<tag k="ssr:stedsnr" v="467412" />
	</node>
	<node lat="58.43185555586008" lon="6.734277775663417" id="-21926">
		<tag k="name" v="Rinnbekken" />
		<tag k="ssr:stedsnr" v="467419" />
		<tag k="waterway" v="stream" />
	</node>
	<node lat="58.28882777482297" lon="6.508336113870632" id="-21928">
		<tag k="name" v="Kvednhusvika" />
		<tag k="natural" v="bay" />
		<tag k="ssr:stedsnr" v="467462" />
	</node>
	<node lat="58.39209722046458" lon="6.74489166120984" id="-21930">
		<tag k="name" v="Fenvika" />
		<tag k="natural" v="bay" />
		<tag k="ssr:stedsnr" v="467308" />
	</node>
	<node lat="58.32641388765106" lon="6.566874994007492" id="-21943">
		<tag k="name" v="Spirodden" />
		<tag k="natural" v="cape" />
		<tag k="ssr:stedsnr" v="467506" />
	</node>
	<node lat="58.32534722175459" lon="6.597494444347787" id="-21945">
		<tag k="name" v="Millarheitjødn" />
		<tag k="natural" v="water" />
		<tag k="ssr:stedsnr" v="467514" />
	</node>
	<node lat="58.27758888554939" lon="6.61761389127486" id="-21952">
		<tag k="name" v="Tuevann" />
		<tag k="natural" v="water" />
		<tag k="ssr:stedsnr" v="467620" />
	</node>
	<node lat="58.31920555955988" lon="6.7403000022903115" id="-21964">
		<tag k="name" v="Indre Høgheitjødn" />
		<tag k="natural" v="water" />
		<tag k="ssr:stedsnr" v="467715" />
	</node>
	<node lat="58.468013117911106" lon="6.620587680290888" id="-21967">
		<tag k="name" v="Søyltjødn" />
		<tag k="natural" v="water" />
		<tag k="ssr:stedsnr" v="467768" />
	</node>
	<node lat="58.47316666686832" lon="6.61668889730422" id="-21972">
		<tag k="name" v="Øydnevaet" />
		<tag k="place" v="locality" />
		<tag k="ssr:stedsnr" v="467775" />
	</node>
	<node lat="58.47580277478627" lon="6.675513880809092" id="-21975">
		<tag k="name" v="Sagevika" />
		<tag k="natural" v="bay" />
		<tag k="ssr:stedsnr" v="467910" />
	</node>
	<node lat="58.38332221791035" lon="6.655577771946746" id="-21977">
		<tag k="name" v="Vidlåstjødn" />
		<tag k="natural" v="water" />
		<tag k="ssr:stedsnr" v="467864" />
	</node>
	<node lat="58.250511111150516" lon="6.645380556903791" id="-21982">
		<tag k="name" v="Kvellandselva" />
		<tag k="ssr:stedsnr" v="480882" />
		<tag k="waterway" v="stream" />
	</node>
	<node lat="58.28951110674088" lon="6.752749994269955" id="-21992">
		<tag k="alt_name" v="Rødlandsvann" />
		<tag k="name" v="Røydlandsvatnet" />
		<tag k="natural" v="water" />
		<tag k="ssr:stedsnr" v="485207" />
		<tag k="water" v="lake" />
	</node>
	<node lat="58.27203917956601" lon="6.615977304583733" id="-21994">
		<tag k="alt_name" v="Lonen" />
		<tag k="name" v="Lonan" />
		<tag k="natural" v="water" />
		<tag k="ssr:stedsnr" v="485219" />
	</node>
	<node lat="58.40229166268967" lon="6.662299995048384" id="-21996">
		<tag k="alt_name" v="Lønsketjødn" />
		<tag k="name" v="Lønsketjørn" />
		<tag k="natural" v="water" />
		<tag k="ssr:stedsnr" v="485318" />
	</node>
	<node lat="58.33909999671972" lon="6.874661117256233" id="-21998">
		<tag k="alt_name" v="Jelevatn" />
		<tag k="name" v="Gilevatnet" />
		<tag k="natural" v="water" />
		<tag k="ssr:stedsnr" v="485406" />
	</node>
	<node lat="58.331344440826896" lon="6.734647228930124" id="-22000">
		<tag k="alt_name" v="Stortjødn" />
		<tag k="name" v="Stortjørna" />
		<tag k="natural" v="water" />
		<tag k="ssr:stedsnr" v="485414" />
	</node>
	<node lat="58.52952777525144" lon="6.608961107553243" id="-22001">
		<tag k="alt_name" v="Svarttjødn" />
		<tag k="name" v="Svarttjørn" />
		<tag k="natural" v="water" />
		<tag k="ssr:stedsnr" v="485663" />
	</node>
	<node lat="58.54148333564139" lon="6.685063882262721" id="-22003">
		<tag k="alt_name" v="Holmetjødn" />
		<tag k="name" v="Holmetjørna" />
		<tag k="natural" v="water" />
		<tag k="ssr:stedsnr" v="485670" />
	</node>
	<node lat="58.27366110946973" lon="6.456613883206563" id="-22004">
		<tag k="name" v="Vatlandstjødna" />
		<tag k="natural" v="water" />
		<tag k="ssr:stedsnr" v="511977" />
		<tag k="water" v="lake" />
	</node>
	<node lat="58.29364444436787" lon="6.4715444427869295" id="-22005">
		<tag k="name" v="Krokvannan" />
		<tag k="natural" v="water" />
		<tag k="ssr:stedsnr" v="511980" />
		<tag k="water" v="lake" />
	</node>
	<node lat="58.32506944277128" lon="6.658013881150838" id="-22008">
		<tag k="name" v="Ytre Hølen" />
		<tag k="natural" v="water" />
		<tag k="ssr:stedsnr" v="523207" />
	</node>
	<node lat="58.25836111210391" lon="6.741936117076325" id="-22014">
		<tag k="name" v="Grasdalstjødn" />
		<tag k="natural" v="water" />
		<tag k="ssr:stedsnr" v="523626" />
	</node>
	<node lat="58.32255555915034" lon="6.608655552893819" id="-22022">
		<tag k="name" v="Igletjødn" />
		<tag k="natural" v="water" />
		<tag k="ssr:stedsnr" v="524164" />
	</node>
	<node lat="58.3205777745741" lon="6.615950006441939" id="-22024">
		<tag k="name" v="Myrlitjødn" />
		<tag k="natural" v="water" />
		<tag k="ssr:stedsnr" v="524168" />
	</node>
	<node lat="58.27955555460016" lon="6.598969451605102" id="-22048">
		<tag k="name" v="Bjønnlivannan" />
		<tag k="natural" v="water" />
		<tag k="ssr:stedsnr" v="527616" />
		<tag k="water" v="lake" />
	</node>
	<node lat="58.27117222670568" lon="6.672391665587151" id="-22051">
		<tag k="name" v="Skeivannet" />
		<tag k="natural" v="water" />
		<tag k="ssr:stedsnr" v="527632" />
		<tag k="water" v="lake" />
	</node>
	<node lat="58.29086389196688" lon="6.690238891511267" id="-22052">
		<tag k="name" v="Pramstø" />
		<tag k="natural" v="bay" />
		<tag k="ssr:stedsnr" v="528131" />
	</node>
	<node lat="58.30699444688096" lon="6.575227777616465" id="-22054">
		<tag k="name" v="Litle Einervann" />
		<tag k="natural" v="water" />
		<tag k="ssr:stedsnr" v="528008" />
	</node>
	<node lat="58.27151667095074" lon="6.421699998995111" id="-22063">
		<tag k="name" v="Øvre Glovsteintjødn" />
		<tag k="natural" v="water" />
		<tag k="ssr:stedsnr" v="528328" />
	</node>
	<node lat="58.36140000152487" lon="6.7785194394530635" id="-22065">
		<tag k="name" v="Nordatjødn" />
		<tag k="natural" v="water" />
		<tag k="ssr:stedsnr" v="528380" />
	</node>
	<node lat="58.266730559025675" lon="6.49840000633924" id="-22072">
		<tag k="name" v="Stemmen" />
		<tag k="natural" v="water" />
		<tag k="ssr:stedsnr" v="528502" />
	</node>
	<node lat="58.312291665398604" lon="6.528574994786205" id="-22076">
		<tag k="name" v="Aurevika" />
		<tag k="natural" v="bay" />
		<tag k="ssr:stedsnr" v="528523" />
	</node>
	<node lat="58.32862221820565" lon="6.817899994443549" id="-22078">
		<tag k="name" v="Tornevika" />
		<tag k="natural" v="bay" />
		<tag k="ssr:stedsnr" v="528677" />
	</node>
	<node lat="58.33288055825057" lon="6.856525006002245" id="-22079">
		<tag k="name" v="Putletjødn" />
		<tag k="natural" v="water" />
		<tag k="ssr:stedsnr" v="528678" />
	</node>
	<node lat="58.32860555442712" lon="6.831736109967501" id="-22080">
		<tag k="name" v="Rosebekken" />
		<tag k="ssr:stedsnr" v="528679" />
		<tag k="waterway" v="stream" />
	</node>
	<node lat="58.488633330478194" lon="6.847211117373225" id="-22081">
		<tag k="name" v="Reiershola" />
		<tag k="natural" v="water" />
		<tag k="ssr:stedsnr" v="528689" />
		<tag k="water" v="pond" />
	</node>
	<node lat="58.3505777803159" lon="6.666952783258669" id="-22085">
		<tag k="name" v="Midtdammen" />
		<tag k="natural" v="water" />
		<tag k="ssr:stedsnr" v="528810" />
		<tag k="water" v="pond" />
	</node>
	<node lat="58.35903888707989" lon="6.677272214590301" id="-22087">
		<tag k="name" v="Nedre Lonetjødna" />
		<tag k="natural" v="water" />
		<tag k="ssr:stedsnr" v="528823" />
	</node>
	<node lat="58.36260555584801" lon="6.679741669975237" id="-22088">
		<tag k="name" v="Øvre Lonetjødna" />
		<tag k="natural" v="water" />
		<tag k="ssr:stedsnr" v="528824" />
	</node>
	<node lat="58.49836944665826" lon="6.614991660534164" id="-22100">
		<tag k="name" v="Djuptjødn" />
		<tag k="natural" v="water" />
		<tag k="ssr:stedsnr" v="528913" />
	</node>
	<node lat="58.50176388670792" lon="6.620733325923347" id="-22101">
		<tag k="name" v="Svarttjødn" />
		<tag k="natural" v="water" />
		<tag k="ssr:stedsnr" v="528914" />
	</node>
	<node lat="58.4385444441642" lon="6.832949994356845" id="-22117">
		<tag k="alt_name" v="Stemtjødn" />
		<tag k="name" v="Stemtjørn" />
		<tag k="natural" v="water" />
		<tag k="ssr:stedsnr" v="546110" />
	</node>
	<node lat="58.441162203523774" lon="6.6380013559044455" id="-22119">
		<tag k="name" v="Einarvatnet" />
		<tag k="natural" v="water" />
		<tag k="ssr:stedsnr" v="546127" />
		<tag k="water" v="lake" />
	</node>
	<node lat="58.45381110909351" lon="6.699352784658805" id="-22120">
		<tag k="alt_name" v="Stemvatn" />
		<tag k="name" v="Stemmevatnet" />
		<tag k="natural" v="water" />
		<tag k="ssr:stedsnr" v="546132" />
		<tag k="water" v="lake" />
	</node>
	<node lat="58.334202774294674" lon="6.625458341272646" id="-22124">
		<tag k="alt_name" v="Stemmetjødn" />
		<tag k="name" v="Stemtjørn" />
		<tag k="natural" v="water" />
		<tag k="ssr:stedsnr" v="546428" />
	</node>
	<node lat="58.36836110849789" lon="6.65461111423532" id="-22127">
		<tag k="alt_name" v="Lauvåstjødnan" />
		<tag k="name" v="Lauvåstjørnan" />
		<tag k="natural" v="water" />
		<tag k="ssr:stedsnr" v="546391" />
	</node>
	<node lat="58.24639722466301" lon="6.603991674534971" id="-22149">
		<tag k="name" v="Litjødn" />
		<tag k="natural" v="water" />
		<tag k="ssr:stedsnr" v="588059" />
	</node>
	<node lat="58.4997722241322" lon="6.790849994320692" id="-22152">
		<tag k="name" v="Fiskelausvatnet" />
		<tag k="natural" v="water" />
		<tag k="ssr:stedsnr" v="588104" />
		<tag k="water" v="lake" />
	</node>
	<node lat="58.272113887182535" lon="6.6935555506911655" id="-22158">
		<tag k="name" v="Tjødna" />
		<tag k="natural" v="water" />
		<tag k="ssr:stedsnr" v="588177" />
	</node>
	<node lat="58.305222218142745" lon="6.538500003833165" id="-22174">
		<tag k="name" v="Stemmetjødn" />
		<tag k="natural" v="water" />
		<tag k="ssr:stedsnr" v="588472" />
	</node>
	<node lat="58.54911666618377" lon="6.658288892465253" id="-22193">
		<tag k="name" v="Kregetjødn" />
		<tag k="natural" v="water" />
		<tag k="ssr:stedsnr" v="588614" />
	</node>
	<node lat="58.324863887710826" lon="6.733433332808246" id="-22208">
		<tag k="name" v="Ramnsåstjødna" />
		<tag k="natural" v="water" />
		<tag k="ssr:stedsnr" v="588754" />
		<tag k="water" v="lake" />
	</node>
	<node lat="58.44344849287555" lon="6.6451957373545465" id="-22224">
		<tag k="name" v="Paddetjødn" />
		<tag k="natural" v="bay" />
		<tag k="ssr:stedsnr" v="588973" />
	</node>
	<node lat="58.36833442450344" lon="6.882477763709157" id="-22225">
		<tag k="name" v="Lonen" />
		<tag k="natural" v="water" />
		<tag k="ssr:stedsnr" v="589228" />
		<tag k="water" v="lake" />
	</node>
	<node lat="58.30691666556765" lon="6.746750005271795" id="-22232">
		<tag k="name" v="Nesan" />
		<tag k="natural" v="cape" />
		<tag k="ssr:stedsnr" v="589727" />
	</node>
	<node lat="58.33367500165162" lon="6.738686114416105" id="-22235">
		<tag k="name" v="Skogåkertjødn" />
		<tag k="natural" v="water" />
		<tag k="ssr:stedsnr" v="589768" />
		<tag k="water" v="lake" />
	</node>
	<node lat="58.46209896136797" lon="6.617996729901335" id="-22251">
		<tag k="alt_name" v="Krokvatnet, heimre;Heimre Krokevatnet" />
		<tag k="name" v="Heimra Krokevatnet" />
		<tag k="natural" v="water" />
		<tag k="ssr:stedsnr" v="606070" />
		<tag k="water" v="lake" />
	</node>
	<node lat="58.478661113870764" lon="6.620091668007512" id="-22259">
		<tag k="alt_name" v="Indra Krokevatnet" />
		<tag k="name" v="Indre Krokvatnet" />
		<tag k="natural" v="water" />
		<tag k="ssr:stedsnr" v="606093" />
		<tag k="water" v="lake" />
	</node>
	<node lat="58.52219167059289" lon="6.678986117615056" id="-22260">
		<tag k="alt_name" v="Spjottjødn" />
		<tag k="name" v="Spjottjørna" />
		<tag k="natural" v="water" />
		<tag k="ssr:stedsnr" v="606326" />
	</node>
	<node lat="58.524141671091705" lon="6.671313889027905" id="-22261">
		<tag k="alt_name" v="Grytåna" />
		<tag k="name" v="Gryteåna" />
		<tag k="ssr:stedsnr" v="606328" />
		<tag k="waterway" v="river" />
	</node>
	<node lat="58.399475003256164" lon="6.645149993866821" id="-22262">
		<tag k="alt_name" v="Omdalsvatnet" />
		<tag k="name" v="Amdalsvatnet" />
		<tag k="natural" v="water" />
		<tag k="ssr:stedsnr" v="606366" />
		<tag k="water" v="lake" />
	</node>
	<node lat="58.39638055407572" lon="6.812366671626536" id="-22263">
		<tag k="alt_name" v="Svartetjødn" />
		<tag k="name" v="Svartatjørn" />
		<tag k="natural" v="water" />
		<tag k="ssr:stedsnr" v="606370" />
	</node>
	<node lat="58.326138886657255" lon="6.818536118965264" id="-22264">
		<tag k="name" v="Selandsvatnet" />
		<tag k="natural" v="water" />
		<tag k="ssr:stedsnr" v="606456" />
	</node>
	<node lat="58.316691667360004" lon="6.745627769370511" id="-22265">
		<tag k="alt_name" v="Vassendvannet" />
		<tag k="name" v="Vassendvatnet" />
		<tag k="natural" v="water" />
		<tag k="ssr:stedsnr" v="606462" />
		<tag k="water" v="lake" />
	</node>
	<node lat="58.315233337067795" lon="6.602741669393682" id="-22266">
		<tag k="alt_name" v="Storevann" />
		<tag k="name" v="Storevatnet" />
		<tag k="natural" v="water" />
		<tag k="ssr:stedsnr" v="606465" />
		<tag k="water" v="lake" />
	</node>
	<node lat="58.45441110902102" lon="6.692727773640838" id="-22270">
		<tag k="alt_name" v="Fiskelausvatnet" />
		<tag k="name" v="Fiskelaus" />
		<tag k="natural" v="water" />
		<tag k="ssr:stedsnr" v="607120" />
		<tag k="water" v="lake" />
	</node>
	<node lat="58.3258500007065" lon="6.7044944378933975" id="-22280">
		<tag k="name" v="Kalvenes" />
		<tag k="natural" v="cape" />
		<tag k="ssr:stedsnr" v="706185" />
	</node>
	<node lat="58.29032777738042" lon="6.484319436762487" id="-22284">
		<tag k="name" v="Skittjødn" />
		<tag k="natural" v="water" />
		<tag k="ssr:stedsnr" v="706291" />
	</node>
	<node lat="58.30550277518874" lon="6.631072223886674" id="-22289">
		<tag k="name" v="Gullandtjødn" />
		<tag k="natural" v="water" />
		<tag k="ssr:stedsnr" v="644204" />
	</node>
	<node lat="58.285816671248845" lon="6.422830563004797" id="-22302">
		<tag k="name" v="Egrodden" />
		<tag k="natural" v="cape" />
		<tag k="ssr:stedsnr" v="645229" />
	</node>
	<node lat="58.31802777926505" lon="6.598933334059641" id="-22306">
		<tag k="name" v="Vestre Trillingtjødn" />
		<tag k="natural" v="water" />
		<tag k="ssr:stedsnr" v="645174" />
	</node>
	<node lat="58.3254750001705" lon="6.695125006624499" id="-22308">
		<tag k="name" v="Sådenesodden" />
		<tag k="natural" v="cape" />
		<tag k="ssr:stedsnr" v="645183" />
	</node>
	<node lat="58.380144447470705" lon="6.65589721557754" id="-22310">
		<tag k="name" v="Tverrbekken" />
		<tag k="ssr:stedsnr" v="645877" />
		<tag k="waterway" v="stream" />
	</node>
	<node lat="58.35983332936876" lon="6.616194442104009" id="-22317">
		<tag k="name" v="Nesan" />
		<tag k="natural" v="cape" />
		<tag k="ssr:stedsnr" v="645925" />
	</node>
	<node lat="58.50602499597836" lon="6.7931749939261366" id="-22334">
		<tag k="name" v="Ådnestjødn" />
		<tag k="natural" v="water" />
		<tag k="ssr:stedsnr" v="648116" />
	</node>
	<node lat="58.37003333273939" lon="6.90839443904739" id="-22338">
		<tag k="name" v="Stemtjødn" />
		<tag k="natural" v="water" />
		<tag k="ssr:stedsnr" v="648238" />
		<tag k="water" v="lake" />
	</node>
	<node lat="58.316033332969" lon="6.576719448017045" id="-22348">
		<tag k="name" v="Bjørkebakktjødn" />
		<tag k="natural" v="water" />
		<tag k="ssr:stedsnr" v="649010" />
	</node>
	<node lat="58.36373333207629" lon="6.835550002714758" id="-22359">
		<tag k="name" v="Selandsøy" />
		<tag k="place" v="island" />
		<tag k="ssr:stedsnr" v="649208" />
	</node>
	<node lat="58.278350001912536" lon="6.411730558267446" id="-22363">
		<tag k="name" v="Skogebakktjødn" />
		<tag k="natural" v="water" />
		<tag k="ssr:stedsnr" v="649303" />
	</node>
	<node lat="58.2661527787373" lon="6.511394439577612" id="-22373">
		<tag k="name" v="Litle Bjelkhomtjødn" />
		<tag k="natural" v="water" />
		<tag k="ssr:stedsnr" v="649505" />
	</node>
	<node lat="58.43535832979901" lon="6.866638885943737" id="-22380">
		<tag k="name" v="Litle Kyrkjevatn" />
		<tag k="natural" v="water" />
		<tag k="ssr:stedsnr" v="649687" />
		<tag k="water" v="lake" />
	</node>
	<node lat="58.32662777529331" lon="6.8167027748484275" id="-22382">
		<tag k="name" v="Kvernhusvika" />
		<tag k="natural" v="bay" />
		<tag k="ssr:stedsnr" v="649690" />
	</node>
	<node lat="58.36976666699117" lon="6.759541669808774" id="-22383">
		<tag k="name" v="Klauvtjødn" />
		<tag k="natural" v="water" />
		<tag k="ssr:stedsnr" v="649692" />
	</node>
	<node lat="58.315955553625116" lon="6.7223527733315676" id="-22394">
		<tag k="name" v="Furenes" />
		<tag k="natural" v="cape" />
		<tag k="ssr:stedsnr" v="649705" />
	</node>
	<node lat="58.31975278141159" lon="6.641230547484367" id="-22396">
		<tag k="name" v="Straumlandstjødn" />
		<tag k="natural" v="water" />
		<tag k="ssr:stedsnr" v="649738" />
	</node>
	<node lat="58.285594444305765" lon="6.490816662752781" id="-22431">
		<tag k="alt_name" v="Botnevann" />
		<tag k="name" v="Botnevatnet" />
		<tag k="natural" v="water" />
		<tag k="ssr:stedsnr" v="667003" />
		<tag k="water" v="lake" />
	</node>
	<node lat="58.46558610791546" lon="6.638566664748959" id="-22439">
		<tag k="alt_name" v="Vindtjødn" />
		<tag k="name" v="Vindtjørn" />
		<tag k="natural" v="water" />
		<tag k="ssr:stedsnr" v="667111" />
	</node>
	<node lat="58.48889722151816" lon="6.801333338064296" id="-22442">
		<tag k="alt_name" v="Mosteinsvatnet" />
		<tag k="name" v="Måsteinsvatnet" />
		<tag k="natural" v="water" />
		<tag k="ssr:stedsnr" v="667117" />
	</node>
	<node lat="58.443650003842784" lon="6.710955563112314" id="-22446">
		<tag k="alt_name" v="Timlitjødn" />
		<tag k="name" v="Timlitjørn" />
		<tag k="natural" v="water" />
		<tag k="ssr:stedsnr" v="667137" />
	</node>
	<node lat="58.52028333573497" lon="6.602200001351796" id="-22455">
		<tag k="name" v="Krossvatnet" />
		<tag k="natural" v="water" />
		<tag k="ssr:stedsnr" v="667344" />
		<tag k="water" v="lake" />
	</node>
	<node lat="58.38490555668296" lon="6.767483329682326" id="-22456">
		<tag k="alt_name" v="Lomtjødn" />
		<tag k="name" v="Lomtjørn" />
		<tag k="natural" v="water" />
		<tag k="ssr:stedsnr" v="667389" />
	</node>
	<node lat="58.380961108762655" lon="6.764427771808664" id="-22458">
		<tag k="alt_name" v="Torgeirvatnet" />
		<tag k="name" v="Torjevatn" />
		<tag k="natural" v="water" />
		<tag k="ssr:stedsnr" v="667402" />
		<tag k="water" v="lake" />
	</node>
	<node lat="58.37889166846658" lon="6.868311115868922" id="-22466">
		<tag k="name" v="Jomfrutjødn" />
		<tag k="natural" v="water" />
		<tag k="ssr:stedsnr" v="710056" />
		<tag k="water" v="lake" />
	</node>
	<node lat="58.37524444191077" lon="6.851811116610085" id="-22467">
		<tag k="name" v="Fedjestadtjødna" />
		<tag k="natural" v="water" />
		<tag k="ssr:stedsnr" v="710060" />
		<tag k="water" v="lake" />
	</node>
	<node lat="58.49998333646978" lon="6.774036113853787" id="-22469">
		<tag k="name" v="Seljordbekken" />
		<tag k="ssr:stedsnr" v="710115" />
		<tag k="waterway" v="stream" />
	</node>
	<node lat="58.417144442299154" lon="6.769291673294807" id="-22473">
		<tag k="name" v="Svetjødn" />
		<tag k="natural" v="water" />
		<tag k="ssr:stedsnr" v="710282" />
	</node>
	<node lat="58.27920000028369" lon="6.429450005211311" id="-22477">
		<tag k="name" v="Spekeholmen" />
		<tag k="place" v="islet" />
		<tag k="ssr:stedsnr" v="710300" />
	</node>
	<node lat="58.26489166514303" lon="6.473080555364762" id="-22490">
		<tag k="name" v="Djupa tjødna" />
		<tag k="natural" v="water" />
		<tag k="ssr:stedsnr" v="710359" />
	</node>
	<node lat="58.45205832974533" lon="6.77882222346405" id="-22493">
		<tag k="name" v="Stemtjødn" />
		<tag k="natural" v="water" />
		<tag k="ssr:stedsnr" v="710439" />
	</node>
	<node lat="58.34358332914081" lon="6.584527776728674" id="-22499">
		<tag k="name" v="Blinda skjæret" />
		<tag k="place" v="islet" />
		<tag k="ssr:stedsnr" v="710511" />
	</node>
	<node lat="58.28512222214865" lon="6.500811106141316" id="-22504">
		<tag k="name" v="Sandvika" />
		<tag k="natural" v="bay" />
		<tag k="ssr:stedsnr" v="710462" />
	</node>
	<node lat="58.34033055184288" lon="6.853291661194794" id="-22509">
		<tag k="name" v="Litlatjødn" />
		<tag k="natural" v="water" />
		<tag k="ssr:stedsnr" v="710689" />
		<tag k="water" v="lake" />
	</node>
	<node lat="58.31897777393347" lon="6.584558342089317" id="-22510">
		<tag k="name" v="Litle Neset" />
		<tag k="natural" v="cape" />
		<tag k="ssr:stedsnr" v="892001" />
	</node>
	<node lat="58.495613886235006" lon="6.715794437691162" id="-22513">
		<tag k="name" v="Store Førevatn" />
		<tag k="natural" v="water" />
		<tag k="ssr:stedsnr" v="892084" />
		<tag k="water" v="lake" />
	</node>
	<node lat="58.295752773341704" lon="6.603505554089026" id="-22514">
		<tag k="name" v="Osen" />
		<tag k="natural" v="bay" />
		<tag k="ssr:stedsnr" v="892086" />
	</node>
	<node lat="58.291477780960086" lon="6.639158328823047" id="-22515">
		<tag k="name" v="Grimetjødn" />
		<tag k="natural" v="water" />
		<tag k="ssr:stedsnr" v="892090" />
	</node>
	<node lat="58.36402777939371" lon="6.85070278132402" id="-22523">
		<tag k="name" v="Haugarvika" />
		<tag k="natural" v="bay" />
		<tag k="ssr:stedsnr" v="892226" />
	</node>
	<node lat="58.34351666610237" lon="6.881997214775305" id="-22527">
		<tag k="name" v="Sauelona" />
		<tag k="natural" v="water" />
		<tag k="ssr:stedsnr" v="892238" />
		<tag k="water" v="lake" />
	</node>
	<node lat="58.36343055256453" lon="6.885216672682265" id="-22528">
		<tag k="name" v="Kalven" />
		<tag k="natural" v="water" />
		<tag k="ssr:stedsnr" v="892243" />
		<tag k="water" v="lake" />
	</node>
	<node lat="58.26136556130436" lon="6.487213776817255" id="-22529">
		<tag k="name" v="Tvillingtjødnan" />
		<tag k="natural" v="water" />
		<tag k="ssr:stedsnr" v="892322" />
		<tag k="water" v="lake" />
	</node>
	<node lat="58.34607500358148" lon="6.777258325371355" id="-22543">
		<tag k="name" v="Tydnevika" />
		<tag k="natural" v="bay" />
		<tag k="ssr:stedsnr" v="892355" />
	</node>
	<node lat="58.35058332915754" lon="6.787658338608486" id="-22544">
		<tag k="name" v="Saunesodden" />
		<tag k="natural" v="cape" />
		<tag k="ssr:stedsnr" v="892356" />
	</node>
	<node lat="58.32969444442301" lon="6.572897213996151" id="-22559">
		<tag k="name" v="Vika" />
		<tag k="natural" v="bay" />
		<tag k="ssr:stedsnr" v="892546" />
	</node>
	<node lat="58.33917222323804" lon="6.634694441491423" id="-22572">
		<tag k="name" v="Solandsvann" />
		<tag k="natural" v="water" />
		<tag k="ssr:stedsnr" v="892594" />
		<tag k="water" v="lake" />
	</node>
	<node lat="58.44813333032404" lon="6.865705556019762" id="-22575">
		<tag k="name" v="Poddetjødn" />
		<tag k="natural" v="water" />
		<tag k="ssr:stedsnr" v="892632" />
	</node>
	<node lat="58.43556388575353" lon="6.876999993894984" id="-22579">
		<tag k="name" v="Lauvåstjønn" />
		<tag k="natural" v="water" />
		<tag k="ssr:stedsnr" v="892641" />
	</node>
	<node lat="58.48972499851606" lon="6.822991658365358" id="-22586">
		<tag k="name" v="Lundepytten" />
		<tag k="natural" v="water" />
		<tag k="ssr:stedsnr" v="892669" />
		<tag k="water" v="pond" />
	</node>
	<node lat="58.37275555783358" lon="6.749727771645579" id="-22587">
		<tag k="name" v="Heimretjødn" />
		<tag k="natural" v="water" />
		<tag k="ssr:stedsnr" v="892671" />
	</node>
	<node lat="58.4830750002141" lon="6.613258327392262" id="-22593">
		<tag k="name" v="Tverrbekken" />
		<tag k="ssr:stedsnr" v="892786" />
		<tag k="waterway" v="stream" />
	</node>
	<node lat="58.2604749990963" lon="6.729566664779085" id="-22598">
		<tag k="name" v="Neset" />
		<tag k="natural" v="cape" />
		<tag k="ssr:stedsnr" v="892808" />
	</node>
	<node lat="58.361338892428115" lon="6.677616663072737" id="-22600">
		<tag k="name" v="Åletjødna" />
		<tag k="natural" v="water" />
		<tag k="ssr:stedsnr" v="892813" />
	</node>
	<node lat="58.36295555832636" lon="6.629577784571211" id="-22604">
		<tag k="name" v="Åstjødna" />
		<tag k="natural" v="water" />
		<tag k="ssr:stedsnr" v="892827" />
	</node>
	<node lat="58.366052774061714" lon="6.669419450092955" id="-22607">
		<tag k="name" v="Sultetjødn" />
		<tag k="natural" v="water" />
		<tag k="ssr:stedsnr" v="892842" />
	</node>
	<node lat="58.49057777767608" lon="6.618230551125276" id="-22610">
		<tag k="name" v="Presten" />
		<tag k="natural" v="water" />
		<tag k="ssr:stedsnr" v="892733" />
		<tag k="water" v="lake" />
	</node>
	<node lat="58.38890833602833" lon="6.65298333702821" id="-22617">
		<tag k="name" v="Kyretjødn" />
		<tag k="natural" v="water" />
		<tag k="ssr:stedsnr" v="892757" />
	</node>
	<node lat="58.502791670330794" lon="6.664916667178795" id="-22618">
		<tag k="name" v="Børentjødna" />
		<tag k="natural" v="water" />
		<tag k="ssr:stedsnr" v="892896" />
	</node>
	<node lat="58.46517222606241" lon="6.667566671201261" id="-22624">
		<tag k="name" v="Leirvik" />
		<tag k="natural" v="bay" />
		<tag k="ssr:stedsnr" v="892981" />
	</node>
	<node lat="58.328952911953344" lon="6.857914943794544" id="-22630">
		<tag k="name" v="Geitespranget" />
		<tag k="natural" v="strait" />
		<tag k="ssr:stedsnr" v="698467" />
	</node>
	<node lat="58.44294100414108" lon="6.879084322501426" id="-22634">
		<tag k="name" v="Kyrkjevatn" />
		<tag k="natural" v="water" />
		<tag k="ssr:stedsnr" v="702961" />
		<tag k="water" v="lake" />
	</node>
	<node lat="58.40225555479272" lon="6.8175666696016135" id="-22636">
		<tag k="name" v="Staurtjødn" />
		<tag k="natural" v="water" />
		<tag k="ssr:stedsnr" v="705522" />
	</node>
	<node lat="58.27044722292141" lon="6.751058337670724" id="-22639">
		<tag k="name" v="Lille Hestesprangvann" />
		<tag k="natural" v="water" />
		<tag k="ssr:stedsnr" v="705665" />
		<tag k="water" v="lake" />
	</node>
	<node lat="58.31409999778659" lon="6.652288881135457" id="-22643">
		<tag k="name" v="Prestantjødn" />
		<tag k="natural" v="water" />
		<tag k="ssr:stedsnr" v="706179" />
	</node>
	<node lat="58.38481111521829" lon="6.842916672556205" id="-22656">
		<tag k="name" v="Birkelandsodden" />
		<tag k="natural" v="cape" />
		<tag k="ssr:stedsnr" v="709037" />
	</node>
	<node lat="58.2613972230428" lon="6.63746666688824" id="-22666">
		<tag k="name" v="Flotmyrtjødn" />
		<tag k="natural" v="water" />
		<tag k="ssr:stedsnr" v="710179" />
	</node>
	<node lat="58.266827773649275" lon="6.671852782583294" id="-22667">
		<tag k="name" v="Kuneset" />
		<tag k="natural" v="cape" />
		<tag k="ssr:stedsnr" v="710183" />
	</node>
	<node lat="58.277799997025255" lon="6.414816675313791" id="-22671">
		<tag k="name" v="Valbakktjødn" />
		<tag k="natural" v="water" />
		<tag k="ssr:stedsnr" v="710303" />
	</node>
	<node lat="58.26906944636375" lon="6.452897215020039" id="-22675">
		<tag k="name" v="Torskartjødn" />
		<tag k="natural" v="water" />
		<tag k="ssr:stedsnr" v="710376" />
	</node>
	<node lat="58.23411944430903" lon="6.590916667370148" id="-22683">
		<tag k="name" v="Sommerhustjødna" />
		<tag k="natural" v="water" />
		<tag k="ssr:stedsnr" v="710426" />
	</node>
	<node lat="58.460208332986056" lon="6.817374993885854" id="-22685">
		<tag k="name" v="Litjødn" />
		<tag k="natural" v="water" />
		<tag k="ssr:stedsnr" v="710432" />
	</node>
	<node lat="58.233336114648594" lon="6.573116658261927" id="-22686">
		<tag k="alt_name" v="Marstadvatnet" />
		<tag k="name" v="Marstadvann" />
		<tag k="natural" v="water" />
		<tag k="ssr:stedsnr" v="710435" />
		<tag k="water" v="lake" />
	</node>
	<node lat="58.26353610779692" lon="6.538555548812272" id="-22690">
		<tag k="name" v="Ålkartjødn" />
		<tag k="natural" v="water" />
		<tag k="ssr:stedsnr" v="710495" />
	</node>
	<node lat="58.33777777721324" lon="6.5806611171129" id="-22704">
		<tag k="name" v="Store Kålevik" />
		<tag k="natural" v="bay" />
		<tag k="ssr:stedsnr" v="710526" />
	</node>
	<node lat="58.303305553210684" lon="6.72852500421575" id="-22710">
		<tag k="name" v="Selandstronda" />
		<tag k="natural" v="beach" />
		<tag k="ssr:stedsnr" v="710714" />
	</node>
	<node lat="58.285272221250814" lon="6.453230551153836" id="-22715">
		<tag k="name" v="Myrebekken" />
		<tag k="ssr:stedsnr" v="710736" />
		<tag k="waterway" v="stream" />
	</node>
	<node lat="58.34059444849471" lon="6.837377772142215" id="-22716">
		<tag k="name" v="Rauaneset" />
		<tag k="natural" v="cape" />
		<tag k="ssr:stedsnr" v="710676" />
	</node>
	<node lat="58.310702781693095" lon="6.766252780318784" id="-22717">
		<tag k="name" v="Kattetjødn" />
		<tag k="natural" v="water" />
		<tag k="ssr:stedsnr" v="710679" />
	</node>
	<node lat="58.42213888822802" lon="6.64508333137772" id="-22718">
		<tag k="name" v="Vestød" />
		<tag k="natural" v="bay" />
		<tag k="ssr:stedsnr" v="710804" />
	</node>
	<node lat="58.48765000107099" lon="6.615977776856557" id="-22724">
		<tag k="name" v="Blyanttjødn" />
		<tag k="natural" v="water" />
		<tag k="ssr:stedsnr" v="710910" />
	</node>
	<node lat="58.460813884640814" lon="6.670002781672047" id="-22727">
		<tag k="name" v="Svartavika" />
		<tag k="natural" v="bay" />
		<tag k="ssr:stedsnr" v="710983" />
	</node>
	<node lat="58.276925003207275" lon="6.4398111156016205" id="-22732">
		<tag k="fixme" v="multiple name tags, choose one and add the other to alt_name" />
		<tag k="name" v="Ystebøvatnet;Stemmevannet" />
		<tag k="natural" v="water" />
		<tag k="ssr:stedsnr" v="728009" />
		<tag k="water" v="lake" />
	</node>
	<node lat="58.29640000444218" lon="6.545975001169211" id="-22733">
		<tag k="alt_name" v="Hallandsvann" />
		<tag k="name" v="Hallandsvatnet" />
		<tag k="natural" v="water" />
		<tag k="ssr:stedsnr" v="728017" />
		<tag k="water" v="lake" />
	</node>
	<node lat="58.30592732600487" lon="6.524558896525748" id="-22735">
		<tag k="alt_name" v="Surtjødn" />
		<tag k="name" v="Surtjørn" />
		<tag k="natural" v="water" />
		<tag k="ssr:stedsnr" v="728023" />
	</node>
	<node lat="58.45529722473276" lon="6.867219445319435" id="-22736">
		<tag k="alt_name" v="Store Fiskelausvatn" />
		<tag k="name" v="Fiskelaus" />
		<tag k="natural" v="water" />
		<tag k="ssr:stedsnr" v="728103" />
	</node>
	<node lat="58.2463444443893" lon="6.7448305622471425" id="-22737">
		<tag k="alt_name" v="Holmevann" />
		<tag k="name" v="Holmevatnet" />
		<tag k="natural" v="water" />
		<tag k="ssr:stedsnr" v="728106" />
		<tag k="water" v="lake" />
	</node>
	<node lat="58.393119446781405" lon="6.828311110463099" id="-22747">
		<tag k="alt_name" v="Kvidingstjødn" />
		<tag k="name" v="Kvitingstjørn" />
		<tag k="natural" v="water" />
		<tag k="ssr:stedsnr" v="728377" />
	</node>
	<node lat="58.37376110928449" lon="6.671325005164904" id="-22750">
		<tag k="alt_name" v="Ljosevann" />
		<tag k="name" v="Ljosvatnet" />
		<tag k="natural" v="water" />
		<tag k="ssr:stedsnr" v="728392" />
	</node>
	<node lat="58.55432778140746" lon="6.666655563439499" id="-22753">
		<tag k="alt_name" v="Kjersvatnet" />
		<tag k="name" v="Kjerrsvatnet" />
		<tag k="natural" v="water" />
		<tag k="ssr:stedsnr" v="728713" />
		<tag k="water" v="lake" />
	</node>
	<node lat="58.26329444822384" lon="6.756969442993931" id="-22760">
		<tag k="name" v="Diblan" />
		<tag k="natural" v="water" />
		<tag k="ssr:stedsnr" v="766594" />
		<tag k="water" v="lake" />
	</node>
	<node lat="58.507669440951474" lon="6.803588893633008" id="-22773">
		<tag k="name" v="Kvineslitjødn" />
		<tag k="natural" v="water" />
		<tag k="ssr:stedsnr" v="770105" />
	</node>
	<node lat="58.43746666892793" lon="6.773483330766802" id="-22776">
		<tag k="name" v="Budalslona" />
		<tag k="natural" v="water" />
		<tag k="ssr:stedsnr" v="770409" />
		<tag k="water" v="lake" />
	</node>
	<node lat="58.437147222931536" lon="6.7614305594284705" id="-22783">
		<tag k="name" v="Gofar tjødn" />
		<tag k="natural" v="water" />
		<tag k="ssr:stedsnr" v="770357" />
	</node>
	<node lat="58.24198611470321" lon="6.73366666370651" id="-22786">
		<tag k="name" v="Bjellandsvann" />
		<tag k="natural" v="water" />
		<tag k="ssr:stedsnr" v="770513" />
		<tag k="water" v="lake" />
	</node>
	<node lat="58.26483610912874" lon="6.612244443959123" id="-22794">
		<tag k="name" v="Ljosevann" />
		<tag k="natural" v="water" />
		<tag k="ssr:stedsnr" v="770571" />
		<tag k="water" v="lake" />
	</node>
	<node lat="58.53915277998264" lon="6.649538888151806" id="-22799">
		<tag k="name" v="Teinebekken" />
		<tag k="ssr:stedsnr" v="770776" />
		<tag k="waterway" v="stream" />
	</node>
	<node lat="58.46671667045124" lon="6.662219450803996" id="-22801">
		<tag k="name" v="Storebekk" />
		<tag k="ssr:stedsnr" v="770967" />
		<tag k="waterway" v="stream" />
	</node>
	<node lat="58.275416664984" lon="6.6443777807923" id="-22804">
		<tag k="name" v="Skårdalsvann" />
		<tag k="natural" v="water" />
		<tag k="ssr:stedsnr" v="771162" />
	</node>
	<node lat="58.262691665851726" lon="6.632572218548546" id="-22807">
		<tag k="name" v="Røde hav" />
		<tag k="natural" v="water" />
		<tag k="ssr:stedsnr" v="771174" />
	</node>
	<node lat="58.273394448718214" lon="6.486088896001369" id="-22811">
		<tag k="name" v="Pyttetjødn" />
		<tag k="natural" v="water" />
		<tag k="ssr:stedsnr" v="771319" />
	</node>
	<node lat="58.39821389213721" lon="6.755338895863275" id="-22812">
		<tag k="name" v="Krekleholmen" />
		<tag k="place" v="islet" />
		<tag k="ssr:stedsnr" v="771329" />
	</node>
	<node lat="58.26893611304688" lon="6.468511113389428" id="-22814">
		<tag k="name" v="Foreholmen" />
		<tag k="place" v="islet" />
		<tag k="ssr:stedsnr" v="771368" />
	</node>
	<node lat="58.255205557235634" lon="6.580783337924077" id="-22820">
		<tag k="name" v="Kvednhylen" />
		<tag k="natural" v="water" />
		<tag k="ssr:stedsnr" v="771407" />
	</node>
	<node lat="58.312761114885824" lon="6.726263896139277" id="-22826">
		<tag k="name" v="Eldsberget" />
		<tag k="natural" v="cape" />
		<tag k="ssr:stedsnr" v="771719" />
	</node>
	<node lat="58.550688892632884" lon="6.695105551860295" id="-22829">
		<tag k="name" v="Skregeli brygga" />
		<tag k="natural" v="beach" />
		<tag k="old_name" v="Sregeli brygga" />
		<tag k="ssr:stedsnr" v="771624" />
	</node>
	<node lat="58.54822222158851" lon="6.674174995084651" id="-22830">
		<tag k="name" v="Tjødna med floren" />
		<tag k="natural" v="water" />
		<tag k="ssr:stedsnr" v="771627" />
	</node>
	<node lat="58.40355000084831" lon="6.621425007342877" id="-22832">
		<tag k="name" v="Ytra Neset" />
		<tag k="natural" v="cape" />
		<tag k="ssr:stedsnr" v="771804" />
	</node>
	<node lat="58.44215555262584" lon="6.697205563381683" id="-22840">
		<tag k="name" v="Litle Stemmen" />
		<tag k="natural" v="water" />
		<tag k="ssr:stedsnr" v="771959" />
		<tag k="water" v="lake" />
	</node>
	<node lat="58.439430551871595" lon="6.644772214748613" id="-22843">
		<tag k="name" v="Storåstjødna" />
		<tag k="natural" v="water" />
		<tag k="ssr:stedsnr" v="771975" />
	</node>
	<node lat="58.48211638208003" lon="6.663592790676416" id="-22847">
		<tag k="alt_name" v="Briklandstjødn" />
		<tag k="name" v="Briklandstjørn" />
		<tag k="natural" v="water" />
		<tag k="ssr:stedsnr" v="910039" />
		<tag k="water" v="lake" />
	</node>
	<node lat="58.491630557463075" lon="6.723997230306957" id="-22848">
		<tag k="fixme" v="multiple name tags, choose one and add the other to alt_name" />
		<tag k="name" v="Stokketjørn;Storetjødn" />
		<tag k="natural" v="water" />
		<tag k="ssr:stedsnr" v="910050" />
	</node>
	<node lat="58.49421666909997" lon="6.8088638837490905" id="-22850">
		<tag k="name" v="Stølsvatnet" />
		<tag k="natural" v="water" />
		<tag k="ssr:stedsnr" v="910059" />
		<tag k="water" v="lake" />
	</node>
	<node lat="58.25960277497638" lon="6.497613884249283" id="-22851">
		<tag k="alt_name" v="Vindskollvannet" />
		<tag k="name" v="Vindskolla" />
		<tag k="natural" v="water" />
		<tag k="ssr:stedsnr" v="910062" />
		<tag k="water" v="lake" />
	</node>
	<node lat="58.44973055815608" lon="6.639649999586447" id="-22853">
		<tag k="alt_name" v="Store Stemmen" />
		<tag k="name" v="Stemmen" />
		<tag k="natural" v="water" />
		<tag k="ssr:stedsnr" v="910077" />
	</node>
	<node lat="58.21507500221037" lon="6.667474992956394" id="-22865">
		<tag k="alt_name" v="Djupedalsvannet" />
		<tag k="name" v="Djupedalsvatnet" />
		<tag k="natural" v="water" />
		<tag k="ssr:stedsnr" v="910147" />
	</node>
	<node lat="58.509369448145684" lon="6.597666671955383" id="-22868">
		<tag k="name" v="Steinsvatnet" />
		<tag k="natural" v="water" />
		<tag k="ssr:stedsnr" v="910345" />
	</node>
	<node lat="58.342316662806546" lon="6.75392222395821" id="-22869">
		<tag k="alt_name" v="Knibetjødn" />
		<tag k="name" v="Knibetjørn" />
		<tag k="natural" v="water" />
		<tag k="ssr:stedsnr" v="910452" />
	</node>
	<node lat="58.31900833529364" lon="6.6178500031185585" id="-22871">
		<tag k="alt_name" v="Store Bergtjødn" />
		<tag k="name" v="Bærtjørn" />
		<tag k="natural" v="water" />
		<tag k="ssr:stedsnr" v="910470" />
	</node>
	<node lat="58.53581488031395" lon="6.628472249438907" id="-22873">
		<tag k="alt_name" v="Midtre Skultjødn" />
		<tag k="name" v="Skultjørnan" />
		<tag k="natural" v="water" />
		<tag k="ssr:stedsnr" v="910708" />
		<tag k="water" v="lake" />
	</node>
	<node lat="58.25162499569548" lon="6.751211115093498" id="-22881">
		<tag k="alt_name" v="Raunebærvann" />
		<tag k="name" v="Raunbærvatnet" />
		<tag k="natural" v="water" />
		<tag k="ssr:stedsnr" v="788303" />
	</node>
	<node lat="58.25597500313047" lon="6.647569443330578" id="-22882">
		<tag k="alt_name" v="Trollåtjødn" />
		<tag k="name" v="Trollåtjørna" />
		<tag k="natural" v="water" />
		<tag k="ssr:stedsnr" v="788312" />
	</node>
	<node lat="58.417900000851304" lon="6.8198777741000445" id="-22884">
		<tag k="alt_name" v="Litjødn" />
		<tag k="name" v="Litjørn" />
		<tag k="natural" v="water" />
		<tag k="ssr:stedsnr" v="788362" />
	</node>
	<node lat="58.4579999962854" lon="6.632252776980633" id="-22890">
		<tag k="alt_name" v="Djupetjødn" />
		<tag k="name" v="Djupetjørn" />
		<tag k="natural" v="water" />
		<tag k="ssr:stedsnr" v="789066" />
	</node>
	<node lat="58.388305553996695" lon="6.626866662852077" id="-22895">
		<tag k="alt_name" v="Råmervatnet" />
		<tag k="name" v="Råmarkvatn" />
		<tag k="natural" v="water" />
		<tag k="ssr:stedsnr" v="789417" />
		<tag k="water" v="lake" />
	</node>
	<node lat="58.328016662922785" lon="6.654633341477558" id="-22902">
		<tag k="name" v="Midtre Hølen" />
		<tag k="natural" v="water" />
		<tag k="ssr:stedsnr" v="827213" />
	</node>
	<node lat="58.48117222087857" lon="6.7853888963176" id="-22915">
		<tag k="name" v="Trongtjødn" />
		<tag k="natural" v="water" />
		<tag k="ssr:stedsnr" v="831036" />
	</node>
	<node lat="58.28206389279245" lon="6.708719444812066" id="-22936">
		<tag k="name" v="Nulandsvika" />
		<tag k="natural" v="bay" />
		<tag k="ssr:stedsnr" v="831782" />
	</node>
	<node lat="58.414022223654946" lon="6.756322224069748" id="-22947">
		<tag k="name" v="Lonen" />
		<tag k="natural" v="water" />
		<tag k="ssr:stedsnr" v="832313" />
		<tag k="water" v="lake" />
	</node>
	<node lat="58.278613884627994" lon="6.465783329938536" id="-22948">
		<tag k="name" v="Lange tjødna" />
		<tag k="natural" v="water" />
		<tag k="ssr:stedsnr" v="832330" />
	</node>
	<node lat="58.271255557875016" lon="6.449474993221304" id="-22949">
		<tag k="name" v="Duetjødn" />
		<tag k="natural" v="water" />
		<tag k="ssr:stedsnr" v="832333" />
	</node>
	<node lat="58.29830000324417" lon="6.647716668459577" id="-22951">
		<tag k="alt_name" v="Søylandstjørna" />
		<tag k="name" v="Søylandstjødn" />
		<tag k="natural" v="water" />
		<tag k="ssr:stedsnr" v="832089" />
	</node>
	<node lat="58.268086111546864" lon="6.448747214675557" id="-22967">
		<tag k="name" v="Husetjødn" />
		<tag k="natural" v="water" />
		<tag k="ssr:stedsnr" v="832380" />
	</node>
	<node lat="58.36856111431319" lon="6.791758336371022" id="-22969">
		<tag k="name" v="Sparkeidet" />
		<tag k="place" v="locality" />
		<tag k="ssr:stedsnr" v="832389" />
	</node>
	<node lat="58.2706555517328" lon="6.501911109531262" id="-22972">
		<tag k="name" v="Stemmetjødnan" />
		<tag k="natural" v="water" />
		<tag k="ssr:stedsnr" v="832505" />
		<tag k="water" v="lake" />
	</node>
	<node lat="58.30459999617357" lon="6.514361105873661" id="-22973">
		<tag k="name" v="Surpet" />
		<tag k="natural" v="water" />
		<tag k="ssr:stedsnr" v="832508" />
		<tag k="water" v="pond" />
	</node>
	<node lat="58.329561112652236" lon="6.592588885912082" id="-22974">
		<tag k="name" v="Stølstjødn" />
		<tag k="natural" v="water" />
		<tag k="ssr:stedsnr" v="832529" />
	</node>
	<node lat="58.339319440919915" lon="6.577930560337328" id="-22975">
		<tag k="name" v="Kråkodden" />
		<tag k="natural" v="cape" />
		<tag k="ssr:stedsnr" v="832535" />
	</node>
	<node lat="58.367272224496475" lon="6.769619451448231" id="-22984">
		<tag k="name" v="Siritjødn" />
		<tag k="natural" v="water" />
		<tag k="ssr:stedsnr" v="832683" />
	</node>
	<node lat="58.33786110716456" lon="6.8357888952790145" id="-22985">
		<tag k="name" v="Struben" />
		<tag k="natural" v="water" />
		<tag k="ssr:stedsnr" v="832689" />
		<tag k="water" v="lake" />
	</node>
	<node lat="58.33376944331139" lon="6.853272214423112" id="-22986">
		<tag k="name" v="Stemtjødn" />
		<tag k="natural" v="water" />
		<tag k="ssr:stedsnr" v="832697" />
		<tag k="water" v="lake" />
	</node>
	<node lat="58.256491663623414" lon="6.7190250004965115" id="-23005">
		<tag k="name" v="Skogefjellvann" />
		<tag k="natural" v="water" />
		<tag k="ssr:stedsnr" v="848531" />
	</node>
	<node lat="58.30186110804415" lon="6.576986108262685" id="-23007">
		<tag k="alt_name" v="Fiskervann" />
		<tag k="name" v="Fiskevatnet" />
		<tag k="natural" v="water" />
		<tag k="ssr:stedsnr" v="849030" />
		<tag k="water" v="lake" />
	</node>
	<node lat="58.34862500200901" lon="6.92361388382577" id="-23008">
		<tag k="alt_name" v="Gåsetjødn" />
		<tag k="name" v="Gåsetjørn" />
		<tag k="natural" v="water" />
		<tag k="ssr:stedsnr" v="849472" />
	</node>
	<node lat="58.39514999667198" lon="6.667066660842704" id="-23023">
		<tag k="alt_name" v="Krogtjødn" />
		<tag k="name" v="Kroktjørn" />
		<tag k="natural" v="water" />
		<tag k="ssr:stedsnr" v="850415" />
	</node>
	<node lat="58.53202499880277" lon="6.6475694388821305" id="-23026">
		<tag k="alt_name" v="Moldtjødn" />
		<tag k="name" v="Moldtjørn" />
		<tag k="natural" v="water" />
		<tag k="ssr:stedsnr" v="850703" />
	</node>
	<node lat="58.30031423828744" lon="6.473757387942033" id="-23027">
		<tag k="name" v="Svarthøl" />
		<tag k="place" v="locality" />
		<tag k="ssr:stedsnr" v="876967" />
	</node>
	<node lat="58.29335000014564" lon="6.479705562521333" id="-23033">
		<tag k="name" v="Grønåstjødn" />
		<tag k="natural" v="water" />
		<tag k="ssr:stedsnr" v="888263" />
	</node>
	<node lat="58.26388055990469" lon="6.749161105203768" id="-23036">
		<tag k="name" v="Breitjødn" />
		<tag k="natural" v="water" />
		<tag k="ssr:stedsnr" v="888504" />
	</node>
	<node lat="58.2613111098685" lon="6.616872223979173" id="-23056">
		<tag k="name" v="Rodetjødn" />
		<tag k="natural" v="water" />
		<tag k="ssr:stedsnr" v="892149" />
	</node>
	<node lat="58.216594442421275" lon="6.665922226723587" id="-23066">
		<tag k="name" v="Dugårdstjødn" />
		<tag k="natural" v="water" />
		<tag k="ssr:stedsnr" v="892075" />
	</node>
	<node lat="58.34714999663805" lon="6.84386666008861" id="-23069">
		<tag k="name" v="Tynesodden" />
		<tag k="natural" v="cape" />
		<tag k="ssr:stedsnr" v="892222" />
	</node>
	<node lat="58.357186112903584" lon="6.7976833380903505" id="-23072">
		<tag k="name" v="Lombetjødn" />
		<tag k="natural" v="water" />
		<tag k="ssr:stedsnr" v="892366" />
	</node>
	<node lat="58.38140833613027" lon="6.7226749998822894" id="-23089">
		<tag k="name" v="Lomsneset" />
		<tag k="natural" v="cape" />
		<tag k="ssr:stedsnr" v="892610" />
	</node>
	<node lat="58.4656305553223" lon="6.865194447214369" id="-23090">
		<tag k="name" v="Storfisktjødn" />
		<tag k="natural" v="water" />
		<tag k="ssr:stedsnr" v="892612" />
	</node>
	<node lat="58.439427781716404" lon="6.667244449265017" id="-23107">
		<tag k="name" v="Sølvkrona" />
		<tag k="natural" v="cape" />
		<tag k="ssr:stedsnr" v="892935" />
	</node>
	<node lat="58.44484166341135" lon="6.637644438552345" id="-23117">
		<tag k="name" v="Einarstø" />
		<tag k="natural" v="bay" />
		<tag k="ssr:stedsnr" v="892962" />
	</node>
	<node lat="58.286649264194956" lon="6.513627444253999" id="-23125">
		<tag k="name" v="Skolla" />
		<tag k="natural" v="water" />
		<tag k="ssr:stedsnr" v="910003" />
	</node>
	<node lat="58.29339999837064" lon="6.554711113516244" id="-23126">
		<tag k="alt_name" v="Ålekartjødn" />
		<tag k="name" v="Ålekarstjørna" />
		<tag k="natural" v="water" />
		<tag k="ssr:stedsnr" v="910014" />
	</node>
	<node lat="58.314433333048456" lon="6.649613887786922" id="-23137">
		<tag k="alt_name" v="Helletjødn;Helletjørna" />
		<tag k="name" v="Helletjørn" />
		<tag k="natural" v="water" />
		<tag k="ssr:stedsnr" v="910492" />
	</node>
	<node lat="58.3495555555438" lon="6.773866670011912" id="-23141">
		<tag k="name" v="Mevatnet" />
		<tag k="natural" v="water" />
		<tag k="ssr:stedsnr" v="911452" />
		<tag k="water" v="lake" />
	</node>
	<node lat="58.33808333489782" lon="6.654888888412672" id="-23142">
		<tag k="name" v="Birkenes" />
		<tag k="natural" v="cape" />
		<tag k="ssr:stedsnr" v="948209" />
	</node>
	<node lat="58.31744722294179" lon="6.6909388940603876" id="-23144">
		<tag k="name" v="Sandvika" />
		<tag k="natural" v="bay" />
		<tag k="ssr:stedsnr" v="948232" />
	</node>
	<node lat="58.25819999921832" lon="6.749480556050182" id="-23149">
		<tag k="name" v="Heietjødn" />
		<tag k="natural" v="water" />
		<tag k="ssr:stedsnr" v="948615" />
	</node>
	<node lat="58.34100277730787" lon="6.8781805499061335" id="-23150">
		<tag k="name" v="Sortebakktjødn" />
		<tag k="natural" v="water" />
		<tag k="ssr:stedsnr" v="948627" />
	</node>
	<node lat="58.300627776482656" lon="6.47583332824986" id="-23157">
		<tag k="name" v="Struben" />
		<tag k="ssr:stedsnr" v="949240" />
		<tag k="waterway" v="dam" />
	</node>
	<node lat="58.48687778186973" lon="6.726775001812414" id="-23174">
		<tag k="name" v="Kvednebekken" />
		<tag k="ssr:stedsnr" v="952151" />
		<tag k="waterway" v="stream" />
	</node>
	<node lat="58.39576388513455" lon="6.734394444851471" id="-23195">
		<tag k="name" v="Breilivika" />
		<tag k="natural" v="bay" />
		<tag k="ssr:stedsnr" v="953308" />
	</node>
	<node lat="58.40458610726586" lon="6.743819446058732" id="-23197">
		<tag k="name" v="Storeholmen" />
		<tag k="place" v="islet" />
		<tag k="ssr:stedsnr" v="953318" />
	</node>
	<node lat="58.35734167027955" lon="6.883041666678018" id="-23207">
		<tag k="name" v="Hellertjødn" />
		<tag k="natural" v="water" />
		<tag k="ssr:stedsnr" v="953248" />
		<tag k="water" v="lake" />
	</node>
	<node lat="58.42591110795733" lon="6.7488222198418795" id="-23217">
		<tag k="name" v="Bustodden" />
		<tag k="natural" v="cape" />
		<tag k="ssr:stedsnr" v="953395" />
	</node>
	<node lat="58.42673055648717" lon="6.730813887143202" id="-23218">
		<tag k="name" v="Sautjødn" />
		<tag k="natural" v="water" />
		<tag k="ssr:stedsnr" v="953397" />
	</node>
	<node lat="58.265277781416664" lon="6.528113889687185" id="-23219">
		<tag k="name" v="Røvertjødn" />
		<tag k="natural" v="water" />
		<tag k="ssr:stedsnr" v="953509" />
	</node>
	<node lat="58.30944721858998" lon="6.76211667050267" id="-23222">
		<tag k="name" v="Krosstjødn" />
		<tag k="natural" v="water" />
		<tag k="ssr:stedsnr" v="953703" />
	</node>
	<node lat="58.33166110691861" lon="6.817955548044686" id="-23224">
		<tag k="name" v="Strånda" />
		<tag k="natural" v="beach" />
		<tag k="ssr:stedsnr" v="953711" />
	</node>
	<node lat="58.33538611086797" lon="6.855697224509442" id="-23225">
		<tag k="name" v="Beintjødn" />
		<tag k="natural" v="water" />
		<tag k="ssr:stedsnr" v="953713" />
		<tag k="water" v="lake" />
	</node>
	<node lat="58.321125003772146" lon="6.711499994870994" id="-23228">
		<tag k="name" v="Ryggsteinen" />
		<tag k="natural" v="cape" />
		<tag k="ssr:stedsnr" v="953722" />
	</node>
	<node lat="58.31541111255071" lon="6.737083339061946" id="-23229">
		<tag k="name" v="Heimre Høgheitjødn" />
		<tag k="natural" v="water" />
		<tag k="ssr:stedsnr" v="953723" />
	</node>
	<node lat="58.37003889268212" lon="6.809619436049531" id="-23232">
		<tag k="name" v="Mannetjødn" />
		<tag k="natural" v="water" />
		<tag k="ssr:stedsnr" v="953696" />
	</node>
	<node lat="58.49459722330521" lon="6.607430555018646" id="-23241">
		<tag k="name" v="Ormetjødn" />
		<tag k="natural" v="water" />
		<tag k="ssr:stedsnr" v="953904" />
	</node>
	<node lat="58.47126111375283" lon="6.689727778003052" id="-23247">
		<tag k="name" v="Bjertebekken" />
		<tag k="ssr:stedsnr" v="953996" />
		<tag k="waterway" v="stream" />
	</node>
</osm>
