<?xml version="1.0" encoding="UTF-8"?>
<osm version="0.6" generator="osmapis">
	<node lat="58.2877638848491" lon="6.60691111433786" id="-32815">
		<tag k="bridge" v="yes" />
		<tag k="layer" v="1" />
		<tag k="name" v="Fiskebekk" />
		<tag k="ssr:stedsnr" v="45108" />
	</node>
	<node lat="58.236933333635285" lon="6.559158331991368" id="-32816">
		<tag k="bridge" v="yes" />
		<tag k="layer" v="1" />
		<tag k="name" v="Eide" />
		<tag k="ssr:stedsnr" v="45109" />
	</node>
	<node lat="58.52461110803915" lon="6.677649998418828" id="-32817">
		<tag k="bridge" v="yes" />
		<tag k="layer" v="1" />
		<tag k="name" v="Grytåna" />
		<tag k="ssr:stedsnr" v="45123" />
	</node>
	<node lat="58.29431111486666" lon="6.66042222967535" id="-32818">
		<tag k="man_made" v="quay" />
		<tag k="name" v="Tollbukaia" />
		<tag k="place" v="locality" />
		<tag k="ssr:stedsnr" v="57111" />
	</node>
	<node lat="58.294505556241816" lon="6.66169445146634" id="-32951">
		<tag k="name" v="Elva" />
		<tag k="ssr:stedsnr" v="103611" />
		<tag k="waterway" v="canal" />
	</node>
	<node lat="58.35374722411942" lon="6.816172214266366" id="-32992">
		<tag k="bridge" v="yes" />
		<tag k="layer" v="1" />
		<tag k="name" v="Kjeåna" />
		<tag k="ssr:stedsnr" v="106124" />
	</node>
	<node lat="58.40425555933596" lon="6.622658336581232" id="-33080">
		<tag k="bridge" v="yes" />
		<tag k="layer" v="1" />
		<tag k="name" v="Sireåen" />
		<tag k="ssr:stedsnr" v="168121" />
	</node>
	<node lat="58.279486114186156" lon="6.627077771131694" id="-33081">
		<tag k="bridge" v="yes" />
		<tag k="layer" v="1" />
		<tag k="name" v="Skolla" />
		<tag k="ssr:stedsnr" v="168122" />
	</node>
	<node lat="58.356422223427984" lon="6.6302750019224215" id="-33097">
		<tag k="name" v="Flikkeid" />
		<tag k="railway" v="station" />
		<tag k="ssr:stedsnr" v="182418" />
		<tag k="train" v="yes" />
	</node>
	<node lat="58.349705559218776" lon="6.797274995863586" id="-33172">
		<tag k="man_made" v="quay" />
		<tag k="name" v="Stølstø" />
		<tag k="place" v="locality" />
		<tag k="ssr:stedsnr" v="225391" />
	</node>
	<node lat="58.2951499978571" lon="6.6675527754733075" id="-33205">
		<tag k="name" v="Flekkefjord stasjon" />
		<tag k="railway" v="station" />
		<tag k="ssr:stedsnr" v="239137" />
		<tag k="train" v="yes" />
	</node>
	<node lat="58.329741666341555" lon="6.651283326966129" id="-33240">
		<tag k="bridge" v="yes" />
		<tag k="layer" v="1" />
		<tag k="name" v="Løgane" />
		<tag k="ssr:stedsnr" v="285131" />
	</node>
	<node lat="58.51038888699465" lon="6.6671333255619105" id="-33277">
		<tag k="highway" v="path" />
		<tag k="name" v="Tronsveien" />
		<tag k="ssr:stedsnr" v="285912" />
	</node>
	<node lat="58.34761944097298" lon="6.662947230209837" id="-33295">
		<tag k="bridge" v="yes" />
		<tag k="layer" v="1" />
		<tag k="name" v="Flikka" />
		<tag k="ssr:stedsnr" v="288110" />
	</node>
	<node lat="58.477727773287604" lon="6.809122214608642" id="-33368">
		<tag k="bridge" v="yes" />
		<tag k="layer" v="1" />
		<tag k="name" v="Mydland" />
		<tag k="ssr:stedsnr" v="467115" />
	</node>
	<node lat="58.4021388849002" lon="6.7721194427257325" id="-33412">
		<tag k="highway" v="path" />
		<tag k="name" v="Øystølstien" />
		<tag k="ssr:stedsnr" v="467490" />
	</node>
	<node lat="58.36404444607345" lon="6.810736119418521" id="-33491">
		<tag k="bridge" v="yes" />
		<tag k="layer" v="1" />
		<tag k="name" v="Klungland" />
		<tag k="ssr:stedsnr" v="470094" />
	</node>
	<node lat="58.27789444532542" lon="6.628811105901917" id="-33492">
		<tag k="bridge" v="yes" />
		<tag k="layer" v="1" />
		<tag k="name" v="Halsåvassbekk bru" />
		<tag k="ssr:stedsnr" v="470097" />
	</node>
	<node lat="58.46112499553557" lon="6.789952776889813" id="-33549">
		<tag k="bridge" v="yes" />
		<tag k="layer" v="1" />
		<tag k="name" v="Nordheim" />
		<tag k="ssr:stedsnr" v="346124" />
	</node>
	<node lat="58.3801972218808" lon="6.7326111111894384" id="-33613">
		<tag k="bridge" v="yes" />
		<tag k="layer" v="1" />
		<tag k="name" v="Årsvassbekk" />
		<tag k="ssr:stedsnr" v="350061" />
	</node>
	<node lat="58.25006666821037" lon="6.6975361029364535" id="-33651">
		<tag k="alt_name" v="Ståbystrand" />
		<tag k="man_made" v="quay" />
		<tag k="name" v="Ståbystranda" />
		<tag k="place" v="locality" />
		<tag k="ssr:stedsnr" v="485240" />
	</node>
	<node lat="58.4178138847169" lon="6.660461111303377" id="-33697">
		<tag k="name" v="Sira" />
		<tag k="railway" v="station" />
		<tag k="ssr:stedsnr" v="406875" />
		<tag k="train" v="yes" />
	</node>
	<node lat="58.2238361153212" lon="6.569330554373308" id="-33709">
		<tag k="alt_name" v="Urstadstranda" />
		<tag k="landuse" v="harbour" />
		<tag k="name" v="Urstadstrand" />
		<tag k="seamark:type" v="harbour" />
		<tag k="ssr:stedsnr" v="407426" />
	</node>
	<node lat="58.45135555341587" lon="6.79658333257743" id="-33743">
		<tag k="bridge" v="yes" />
		<tag k="layer" v="1" />
		<tag k="name" v="Rygg" />
		<tag k="ssr:stedsnr" v="410111" />
	</node>
	<node lat="58.28259166732237" lon="6.451305563924863" id="-33744">
		<tag k="bridge" v="yes" />
		<tag k="layer" v="1" />
		<tag k="name" v="Berefjord" />
		<tag k="ssr:stedsnr" v="410101" />
	</node>
	<node lat="58.215913887491254" lon="6.634902772427636" id="-33755">
		<tag k="alt_name" v="Langelandsstranda;Langlandstrand" />
		<tag k="landuse" v="harbour" />
		<tag k="name" v="Langelandsstrand" />
		<tag k="seamark:type" v="harbour" />
		<tag k="ssr:stedsnr" v="425157" />
	</node>
	<node lat="58.31258055916324" lon="6.676122224497674" id="-33860">
		<tag k="bridge" v="yes" />
		<tag k="layer" v="1" />
		<tag k="name" v="Sæluråna" />
		<tag k="ssr:stedsnr" v="471062" />
	</node>
	<node lat="58.47474999865318" lon="6.814349992551595" id="-33861">
		<tag k="bridge" v="yes" />
		<tag k="layer" v="1" />
		<tag k="name" v="Stølsbekk" />
		<tag k="ssr:stedsnr" v="471107" />
	</node>
	<node lat="58.362269448601424" lon="6.738191671246027" id="-33947">
		<tag k="highway" v="path" />
		<tag k="name" v="Stien" />
		<tag k="ssr:stedsnr" v="528382" />
	</node>
	<node lat="58.469627782095145" lon="6.826347225705506" id="-34035">
		<tag k="bridge" v="yes" />
		<tag k="layer" v="1" />
		<tag k="name" v="Laugstølåna" />
		<tag k="ssr:stedsnr" v="588122" />
	</node>
	<node lat="58.40398055503332" lon="6.834624999736708" id="-34164">
		<tag k="junction" v="yes" />
		<tag k="name" v="Krossen" />
		<tag k="place" v="locality" />
		<tag k="ssr:stedsnr" v="706141" />
	</node>
	<node lat="58.36260277762802" lon="6.739277779157907" id="-34247">
		<tag k="highway" v="path" />
		<tag k="name" v="Fjellstien" />
		<tag k="ssr:stedsnr" v="649345" />
	</node>
	<node lat="58.23639722197713" lon="6.611980550786423" id="-34281">
		<tag k="alt_name" v="Launes;Launes ferjekai" />
		<tag k="amenity" v="ferry_terminal" />
		<tag k="name" v="Lauvnes ferjekai" />
		<tag k="ssr:stedsnr" v="649744" />
	</node>
	<node lat="58.24178889019774" lon="6.633416673768578" id="-34282">
		<tag k="amenity" v="ferry_terminal" />
		<tag k="name" v="Kvellandstrand" />
		<tag k="ssr:stedsnr" v="649745" />
	</node>
	<node lat="58.23989444156693" lon="6.649875001551111" id="-34294">
		<tag k="bridge" v="yes" />
		<tag k="layer" v="1" />
		<tag k="name" v="Abelsnes bru" />
		<tag k="ssr:stedsnr" v="652088" />
	</node>
	<node lat="58.30308611429863" lon="6.64406111532039" id="-34512">
		<tag k="bridge" v="yes" />
		<tag k="layer" v="1" />
		<tag k="name" v="Søyland" />
		<tag k="ssr:stedsnr" v="896054" />
	</node>
	<node lat="58.312816668714056" lon="6.679324998332795" id="-34513">
		<tag k="bridge" v="yes" />
		<tag k="layer" v="1" />
		<tag k="name" v="Selura" />
		<tag k="ssr:stedsnr" v="896099" />
	</node>
	<node lat="58.37061389285143" lon="6.816930548132217" id="-34514">
		<tag k="bridge" v="yes" />
		<tag k="layer" v="1" />
		<tag k="name" v="Råna bru" />
		<tag k="ssr:stedsnr" v="896102" />
	</node>
	<node lat="58.32867777702812" lon="6.662513890360506" id="-34635">
		<tag k="highway" v="path" />
		<tag k="name" v="Stien" />
		<tag k="ssr:stedsnr" v="766196" />
	</node>
	<node lat="58.42416110960415" lon="6.677105547223418" id="-34644">
		<tag k="fixme" v="consider highway=path" />
		<tag k="highway" v="track" />
		<tag k="name" v="Presteveien" />
		<tag k="ssr:stedsnr" v="766916" />
	</node>
	<node lat="58.29291944691988" lon="6.662408337896973" id="-34652">
		<tag k="man_made" v="quay" />
		<tag k="name" v="Jernbanekaia" />
		<tag k="place" v="locality" />
		<tag k="ssr:stedsnr" v="907130" />
	</node>
	<node lat="58.29673055512036" lon="6.651330562432315" id="-34726">
		<tag k="bridge" v="yes" />
		<tag k="layer" v="1" />
		<tag k="name" v="Dalens garveri" />
		<tag k="ssr:stedsnr" v="774107" />
	</node>
	<node lat="58.43418610694458" lon="6.702730550160433" id="-34727">
		<tag k="bridge" v="yes" />
		<tag k="layer" v="1" />
		<tag k="name" v="Stemvassbekk" />
		<tag k="ssr:stedsnr" v="775102" />
	</node>
	<node lat="58.24282500248791" lon="6.596899999933781" id="-34885">
		<tag k="fixme" v="verify maritime location" />
		<tag k="mooring" v="yes" />
		<tag k="name" v="Røytlandstøa" />
		<tag k="place" v="locality" />
		<tag k="ssr:stedsnr" v="848110" />
	</node>
	<node lat="58.38476111242582" lon="6.840555555073522" id="-34905">
		<tag k="alt_name" v="Gyland st." />
		<tag k="name" v="Gyland" />
		<tag k="railway" v="station" />
		<tag k="ssr:stedsnr" v="850439" />
		<tag k="train" v="yes" />
	</node>
	<node lat="58.3397416686041" lon="6.68890834022712" id="-34909">
		<tag k="highway" v="path" />
		<tag k="name" v="Sjurstien" />
		<tag k="ssr:stedsnr" v="888145" />
	</node>
	<node lat="58.408352781138916" lon="6.800886118428681" id="-34951">
		<tag k="highway" v="path" />
		<tag k="name" v="Rostestien" />
		<tag k="ssr:stedsnr" v="892307" />
	</node>
	<node lat="58.27039444500958" lon="6.747780562105204" id="-35003">
		<tag k="bridge" v="yes" />
		<tag k="layer" v="1" />
		<tag k="name" v="Krogebakken" />
		<tag k="ssr:stedsnr" v="895115" />
	</node>
	<node lat="58.29464285100784" lon="6.657898751506739" id="-35139">
		<tag k="man_made" v="quay" />
		<tag k="name" v="Eschebrygga" />
		<tag k="place" v="locality" />
		<tag k="ssr:stedsnr" v="975941" />
	</node>
	<node lat="58.35985277970037" lon="6.737269442511731" id="-35285">
		<tag k="highway" v="path" />
		<tag k="name" v="Bustien" />
		<tag k="ssr:stedsnr" v="43325" />
	</node>
	<node lat="58.41317499722142" lon="6.654941666243331" id="-35326">
		<tag k="bridge" v="yes" />
		<tag k="layer" v="1" />
		<tag k="name" v="Bakke" />
		<tag k="ssr:stedsnr" v="45114" />
	</node>
	<node lat="58.29285278110567" lon="6.444183326388737" id="-35349">
		<tag k="bridge" v="yes" />
		<tag k="layer" v="1" />
		<tag k="name" v="Åna-Sira" />
		<tag k="ssr:stedsnr" v="229275" />
	</node>
	<node lat="58.278677781498544" lon="6.479691668218175" id="-35491">
		<tag k="bridge" v="yes" />
		<tag k="layer" v="1" />
		<tag k="name" v="Botnevann" />
		<tag k="ssr:stedsnr" v="106117" />
	</node>
	<node lat="58.41408619575348" lon="6.826686035273039" id="-35591">
		<tag k="highway" v="path" />
		<tag k="name" v="Storstien" />
		<tag k="ssr:stedsnr" v="164204" />
	</node>
	<node lat="58.42733333631148" lon="6.8376972241119365" id="-35664">
		<tag k="bridge" v="yes" />
		<tag k="layer" v="1" />
		<tag k="name" v="Gyland" />
		<tag k="ssr:stedsnr" v="166136" />
	</node>
	<node lat="58.34173889004322" lon="6.687400007807869" id="-35695">
		<tag k="highway" v="path" />
		<tag k="name" v="Kolerstien" />
		<tag k="ssr:stedsnr" v="220209" />
	</node>
	<node lat="58.36123610980437" lon="6.738425008345764" id="-35749">
		<tag k="highway" v="path" />
		<tag k="name" v="Midtstien" />
		<tag k="ssr:stedsnr" v="225350" />
	</node>
	<node lat="58.34668055815157" lon="6.667633331575556" id="-35820">
		<tag k="bridge" v="yes" />
		<tag k="layer" v="1" />
		<tag k="name" v="Flikka Armco" />
		<tag k="ssr:stedsnr" v="227120" />
	</node>
	<node lat="58.50006944891613" lon="6.6628111117636575" id="-35821">
		<tag k="bridge" v="yes" />
		<tag k="layer" v="1" />
		<tag k="name" v="Berghøyden" />
		<tag k="ssr:stedsnr" v="227123" />
	</node>
	<node lat="58.28606111478304" lon="6.649780553072034" id="-35822">
		<tag k="bridge" v="yes" />
		<tag k="layer" v="1" />
		<tag k="name" v="Sveige" />
		<tag k="ssr:stedsnr" v="228114" />
	</node>
	<node lat="58.35105555696261" lon="6.848827775807868" id="-36017">
		<tag k="man_made" v="quay" />
		<tag k="name" v="Grøttelandsstøa" />
		<tag k="place" v="locality" />
		<tag k="ssr:stedsnr" v="345237" />
	</node>
	<node lat="58.426025002060044" lon="6.782983340651898" id="-36069">
		<tag k="highway" v="path" />
		<tag k="name" v="Røsingstien" />
		<tag k="ssr:stedsnr" v="346288" />
	</node>
	<node lat="58.284830555242145" lon="6.542300006332869" id="-36131">
		<tag k="bridge" v="yes" />
		<tag k="layer" v="1" />
		<tag k="name" v="Kvanvik østre" />
		<tag k="ssr:stedsnr" v="348110" />
	</node>
	<node lat="58.35137222285704" lon="6.6685972170597765" id="-36132">
		<tag k="bridge" v="yes" />
		<tag k="layer" v="1" />
		<tag k="name" v="Årdalsbekken" />
		<tag k="ssr:stedsnr" v="350062" />
	</node>
	<node lat="58.24843888491251" lon="6.715897225488599" id="-36225">
		<tag k="highway" v="path" />
		<tag k="name" v="Bjellandsvegen" />
		<tag k="ssr:stedsnr" v="406828" />
	</node>
</osm>
