<?xml version="1.0" encoding="UTF-8"?>
<osm generator="osmapis" version="0.6">
	<node id="-515390" lat="58.3939250021" lon="6.66361388132">
		<tag k="name" v="Skreppehei Varden" />
		<tag k="ssr:stedsnr" v="892739" />
		<tag k="tourism" v="viewpoint" />
	</node>
	<node id="-515964" lat="58.4115444478" lon="6.79157500584">
		<tag k="alt_name" v="Gyland kyrkje" />
		<tag k="amenity" v="place_of_worship" />
		<tag k="denomination" v="lutheran" />
		<tag k="name" v="Gyland" />
		<tag k="religion" v="christian" />
		<tag k="ssr:stedsnr" v="61375" />
	</node>
	<node id="-517850" lat="58.2900444439" lon="6.67353889535">
		<tag k="name" v="Sjåsam" />
		<tag k="ssr:stedsnr" v="832129" />
		<tag k="tourism" v="viewpoint" />
	</node>
	<node id="-514361" lat="58.2917805592" lon="6.62875277876">
		<tag k="name" v="Høge varden" />
		<tag k="ssr:stedsnr" v="346107" />
		<tag k="tourism" v="viewpoint" />
	</node>
	<node id="-513587" lat="58.2313361083" lon="6.55331111661">
		<tag k="amenity" v="community_centre" />
		<tag k="name" v="Fritun" />
		<tag k="ssr:stedsnr" v="225414" />
	</node>
	<node id="-516562" lat="58.2351305597" lon="6.55651945217">
		<tag k="amenity" v="community_centre" />
		<tag k="name" v="Vonheim" />
		<tag k="ssr:stedsnr" v="346435" />
	</node>
	<node id="-517715" lat="58.2271555521" lon="6.53841943807">
		<tag k="amenity" v="place_of_worship" />
		<tag k="denomination" v="lutheran" />
		<tag k="name" v="Hidra" />
		<tag k="religion" v="christian" />
		<tag k="ssr:stedsnr" v="789078" />
	</node>
	<node id="-513548" lat="58.2916638857" lon="6.6627361191">
		<tag k="name" v="Olsbys utsikt" />
		<tag k="ssr:stedsnr" v="225135" />
		<tag k="tourism" v="viewpoint" />
	</node>
	<node id="-513704" lat="58.2698000028" lon="6.46035000824">
		<tag k="amenity" v="community_centre" />
		<tag k="name" v="Strandebakken" />
		<tag k="ssr:stedsnr" v="243046" />
	</node>
	<node id="-515108" lat="58.2960722247" lon="6.66187777527">
		<tag k="amenity" v="place_of_worship" />
		<tag k="denomination" v="lutheran" />
		<tag k="name" v="Flekkefjord" />
		<tag k="religion" v="christian" />
		<tag k="ssr:stedsnr" v="724114" />
	</node>
	<node id="-517475" lat="58.4133055563" lon="6.69925000604">
		<tag k="name" v="Gråheivarden" />
		<tag k="ssr:stedsnr" v="649799" />
		<tag k="tourism" v="viewpoint" />
	</node>
	<node id="-514561" lat="58.4113638865" lon="6.65754999791">
		<tag k="amenity" v="place_of_worship" />
		<tag k="denomination" v="lutheran" />
		<tag k="name" v="Bakke" />
		<tag k="religion" v="christian" />
		<tag k="ssr:stedsnr" v="667126" />
	</node>
</osm>
