<?xml version="1.0" encoding="UTF-8"?>
<osm version="0.6" generator="osmapis">
	<node lat="58.250583330975715" lon="6.547952778440427" id="-32718">
		<tag k="fixme" v="consider place=hamlet" />
		<tag k="name" v="Li" />
		<tag k="place" v="farm" />
		<tag k="ssr:stedsnr" v="53" />
	</node>
	<node lat="58.241361113092026" lon="6.535858340130785" id="-32720">
		<tag k="alt_name" v="Kåde" />
		<tag k="fixme" v="consider place=hamlet" />
		<tag k="name" v="Kåda" />
		<tag k="place" v="farm" />
		<tag k="ssr:stedsnr" v="69" />
	</node>
	<node lat="58.28870000386178" lon="6.648866669702292" id="-32723">
		<tag k="fixme" v="consider place=hamlet" />
		<tag k="name" v="Sveiga" />
		<tag k="place" v="village" />
		<tag k="ssr:stedsnr" v="271" />
	</node>
	<node lat="58.379013889592706" lon="6.754291664576555" id="-32725">
		<tag k="fixme" v="consider place=hamlet" />
		<tag k="name" v="Hellestøl" />
		<tag k="place" v="farm" />
		<tag k="ssr:stedsnr" v="422" />
	</node>
	<node lat="58.56022777413378" lon="6.693000001322062" id="-32727">
		<tag k="fixme" v="consider place=hamlet" />
		<tag k="name" v="Hommannsdal" />
		<tag k="place" v="farm" />
		<tag k="ssr:stedsnr" v="745" />
	</node>
	<node lat="58.298550004153284" lon="6.654955562810922" id="-32776">
		<tag k="name" v="Lilleheia" />
		<tag k="place" v="quarter" />
		<tag k="ssr:stedsnr" v="42574" />
	</node>
	<node lat="58.33264444394838" lon="6.747574992183758" id="-32781">
		<tag k="fixme" v="consider place=hamlet" />
		<tag k="name" v="Lille Løyning" />
		<tag k="place" v="farm" />
		<tag k="ssr:stedsnr" v="42712" />
	</node>
	<node lat="58.27434999945165" lon="6.48630277101527" id="-32822">
		<tag k="name" v="Åsnes" />
		<tag k="place" v="farm" />
		<tag k="ssr:stedsnr" v="61005" />
	</node>
	<node lat="58.49775555713601" lon="6.6299527695213785" id="-32824">
		<tag k="alt_name" v="Furustøl" />
		<tag k="fixme" v="consider place=hamlet" />
		<tag k="name" v="Furstøl" />
		<tag k="place" v="farm" />
		<tag k="ssr:stedsnr" v="61029" />
	</node>
	<node lat="58.43081389009315" lon="6.839725008457598" id="-32828">
		<tag k="fixme" v="consider place=hamlet" />
		<tag k="name" v="Gyland" />
		<tag k="place" v="village" />
		<tag k="ssr:stedsnr" v="61084" />
	</node>
	<node lat="58.36971666911076" lon="6.777555547205183" id="-32834">
		<tag k="alt_name" v="Eikås, l" />
		<tag k="fixme" v="consider place=hamlet" />
		<tag k="name" v="Lille Eikås" />
		<tag k="place" v="farm" />
		<tag k="ssr:stedsnr" v="61411" />
	</node>
	<node lat="58.36284166679162" lon="6.730650003625607" id="-32837">
		<tag k="fixme" v="consider place=hamlet" />
		<tag k="name" v="Lindeland" />
		<tag k="place" v="farm" />
		<tag k="ssr:stedsnr" v="61421" />
	</node>
	<node lat="58.36813333697373" lon="6.710063888426106" id="-32838">
		<tag k="fixme" v="consider place=hamlet" />
		<tag k="name" v="Skailand" />
		<tag k="place" v="farm" />
		<tag k="ssr:stedsnr" v="61422" />
	</node>
	<node lat="58.4030805588333" lon="6.833911109246304" id="-32841">
		<tag k="fixme" v="consider place=hamlet" />
		<tag k="name" v="Nedland" />
		<tag k="place" v="farm" />
		<tag k="ssr:stedsnr" v="61381" />
	</node>
	<node lat="58.39356111102684" lon="6.762336110372333" id="-32843">
		<tag k="name" v="Hamar" />
		<tag k="place" v="farm" />
		<tag k="ssr:stedsnr" v="61388" />
	</node>
	<node lat="58.37791110867902" lon="6.780247227558295" id="-32844">
		<tag k="name" v="Eikås" />
		<tag k="place" v="hamlet" />
		<tag k="ssr:stedsnr" v="241143" />
	</node>
	<node lat="58.24272777501443" lon="6.640391660359245" id="-32863">
		<tag k="name" v="Myran" />
		<tag k="place" v="hamlet" />
		<tag k="ssr:stedsnr" v="243103" />
	</node>
	<node lat="58.2943027758009" lon="6.607350005230798" id="-32865">
		<tag k="alt_name" v="Midtfjells;Midtre Fjeldså" />
		<tag k="fixme" v="consider place=hamlet" />
		<tag k="name" v="Midtfjellsæ" />
		<tag k="place" v="farm" />
		<tag k="ssr:stedsnr" v="243243" />
	</node>
	<node lat="58.40980000432043" lon="6.646208325416684" id="-32867">
		<tag k="fixme" v="consider place=hamlet" />
		<tag k="name" v="Sirnes" />
		<tag k="place" v="village" />
		<tag k="ssr:stedsnr" v="243386" />
	</node>
	<node lat="58.50286110824942" lon="6.6616055603436495" id="-32869">
		<tag k="alt_name" v="Berghøyden" />
		<tag k="name" v="Berghyrne" />
		<tag k="place" v="farm" />
		<tag k="ssr:stedsnr" v="243369" />
	</node>
	<node lat="58.42079999608316" lon="6.837699993330946" id="-32870">
		<tag k="name" v="Li" />
		<tag k="place" v="farm" />
		<tag k="ssr:stedsnr" v="243381" />
	</node>
	<node lat="58.40045000455671" lon="6.758183337553877" id="-32871">
		<tag k="fixme" v="consider place=hamlet" />
		<tag k="name" v="Netland" />
		<tag k="place" v="farm" />
		<tag k="ssr:stedsnr" v="243396" />
	</node>
	<node lat="58.37827499647082" lon="6.840594452939572" id="-32875">
		<tag k="fixme" v="multiple name tags, choose one and add the other to alt_name; consider place=hamlet" />
		<tag k="name" v="Kongevoll;Kumlevoll" />
		<tag k="place" v="farm" />
		<tag k="ssr:stedsnr" v="243425" />
	</node>
	<node lat="58.36931667081729" lon="6.806861112285993" id="-32876">
		<tag k="fixme" v="consider place=hamlet" />
		<tag k="name" v="Tesåk" />
		<tag k="place" v="farm" />
		<tag k="ssr:stedsnr" v="243426" />
	</node>
	<node lat="58.309474995707774" lon="6.643455549665975" id="-32878">
		<tag k="fixme" v="consider place=hamlet" />
		<tag k="name" v="Helle" />
		<tag k="place" v="farm" />
		<tag k="ssr:stedsnr" v="243482" />
	</node>
	<node lat="58.55736110716308" lon="6.64465555969687" id="-32879">
		<tag k="alt_name" v="Skrekkelistølen;Skrekelistølen" />
		<tag k="historic" v="shieling" />
		<tag k="name" v="Skregelidstølen" />
		<tag k="place" v="isolated_dwelling" />
		<tag k="ssr:stedsnr" v="85665" />
	</node>
	<node lat="58.45786944483503" lon="6.75901111949081" id="-32895">
		<tag k="fixme" v="consider place=hamlet" />
		<tag k="name" v="Budal" />
		<tag k="place" v="farm" />
		<tag k="ssr:stedsnr" v="99473" />
	</node>
	<node lat="58.21043333417138" lon="6.580244449106281" id="-32910">
		<tag k="name" v="Eikenes" />
		<tag k="place" v="isolated_dwelling" />
		<tag k="ssr:stedsnr" v="101670" />
	</node>
	<node lat="58.47501944680774" lon="6.670555554737332" id="-32979">
		<tag k="name" v="Blåsenborg" />
		<tag k="place" v="farm" />
		<tag k="ssr:stedsnr" v="103898" />
	</node>
	<node lat="58.254322223997754" lon="6.546605553408744" id="-32998">
		<tag k="fixme" v="consider place=hamlet" />
		<tag k="name" v="Dåtland" />
		<tag k="place" v="farm" />
		<tag k="ssr:stedsnr" v="121065" />
	</node>
	<node lat="58.28184166825765" lon="6.716355553908383" id="-33001">
		<tag k="fixme" v="consider place=hamlet" />
		<tag k="name" v="Nuland" />
		<tag k="place" v="farm" />
		<tag k="ssr:stedsnr" v="121282" />
	</node>
	<node lat="58.2769444459856" lon="6.670552779745254" id="-33002">
		<tag k="fixme" v="consider place=hamlet" />
		<tag k="name" v="Lauvik" />
		<tag k="place" v="farm" />
		<tag k="ssr:stedsnr" v="121283" />
	</node>
	<node lat="58.357455553469194" lon="6.878211102959355" id="-33004">
		<tag k="fixme" v="multiple name tags, choose one and add the other to alt_name" />
		<tag k="name" v="Espeli;Lian" />
		<tag k="place" v="isolated_dwelling" />
		<tag k="ssr:stedsnr" v="121424" />
	</node>
	<node lat="58.396705555540784" lon="6.773133337237464" id="-33008">
		<tag k="name" v="Bjørja" />
		<tag k="place" v="isolated_dwelling" />
		<tag k="ssr:stedsnr" v="159498" />
	</node>
	<node lat="58.293647220663836" lon="6.663502775447032" id="-33033">
		<tag k="name" v="Verven" />
		<tag k="place" v="quarter" />
		<tag k="ssr:stedsnr" v="164128" />
	</node>
	<node lat="58.41478888867814" lon="6.815138895837995" id="-33045">
		<tag k="name" v="Skaret" />
		<tag k="place" v="farm" />
		<tag k="ssr:stedsnr" v="164367" />
	</node>
	<node lat="58.462488888123225" lon="6.7857638837781415" id="-33083">
		<tag k="name" v="Sørbø" />
		<tag k="place" v="farm" />
		<tag k="ssr:stedsnr" v="182054" />
	</node>
	<node lat="58.46913889066041" lon="6.819211118233363" id="-33084">
		<tag k="alt_name" v="Laugstøl" />
		<tag k="fixme" v="consider place=hamlet" />
		<tag k="name" v="Lavstøl" />
		<tag k="place" v="farm" />
		<tag k="ssr:stedsnr" v="182064" />
	</node>
	<node lat="58.23197222207744" lon="6.538505556905414" id="-33085">
		<tag k="name" v="Kirkehamn" />
		<tag k="place" v="village" />
		<tag k="ssr:stedsnr" v="182068" />
	</node>
	<node lat="58.22690833195605" lon="6.545513888550961" id="-33087">
		<tag k="name" v="Ulland" />
		<tag k="place" v="farm" />
		<tag k="ssr:stedsnr" v="182075" />
	</node>
	<node lat="58.34632499953355" lon="6.860700007011653" id="-33101">
		<tag k="fixme" v="consider place=hamlet" />
		<tag k="name" v="Grøtteland" />
		<tag k="place" v="farm" />
		<tag k="ssr:stedsnr" v="182443" />
	</node>
	<node lat="58.36526389102414" lon="6.715405562370476" id="-33108">
		<tag k="name" v="Jordet" />
		<tag k="place" v="farm" />
		<tag k="ssr:stedsnr" v="220621" />
	</node>
	<node lat="58.3025888901392" lon="6.640077778957831" id="-33117">
		<tag k="name" v="Søyland" />
		<tag k="place" v="quarter" />
		<tag k="ssr:stedsnr" v="222605" />
	</node>
	<node lat="58.43606388666857" lon="6.814716669997231" id="-33130">
		<tag k="name" v="Krogan" />
		<tag k="place" v="farm" />
		<tag k="ssr:stedsnr" v="224426" />
	</node>
	<node lat="58.25015278198237" lon="6.636150003800305" id="-33148">
		<tag k="fixme" v="consider place=hamlet" />
		<tag k="name" v="Kvelland" />
		<tag k="place" v="village" />
		<tag k="ssr:stedsnr" v="224690" />
	</node>
	<node lat="58.42066666393648" lon="6.8162916660920665" id="-33170">
		<tag k="name" v="Geitebu" />
		<tag k="place" v="isolated_dwelling" />
		<tag k="ssr:stedsnr" v="225298" />
	</node>
	<node lat="58.29515833103349" lon="6.668950001140443" id="-33203">
		<tag k="amenity" v="school" />
		<tag k="name" v="Sunde skole" />
		<tag k="ssr:stedsnr" v="239134" />
	</node>
	<node lat="58.43401667053024" lon="6.807416666767757" id="-33207">
		<tag k="alt_name" v="Tømmerli" />
		<tag k="fixme" v="consider place=hamlet" />
		<tag k="name" v="Timmerli" />
		<tag k="place" v="farm" />
		<tag k="ssr:stedsnr" v="242088" />
	</node>
	<node lat="58.25355832963728" lon="6.618975000516606" id="-33209">
		<tag k="fixme" v="consider place=hamlet" />
		<tag k="name" v="Haugeland" />
		<tag k="place" v="farm" />
		<tag k="ssr:stedsnr" v="242293" />
	</node>
	<node lat="58.305818086465585" lon="6.738115410556763" id="-33213">
		<tag k="fixme" v="consider place=hamlet" />
		<tag k="name" v="Reppen" />
		<tag k="place" v="farm" />
		<tag k="ssr:stedsnr" v="243495" />
	</node>
	<node lat="58.300358331854" lon="6.64874165963779" id="-33232">
		<tag k="name" v="Nesmarka" />
		<tag k="place" v="quarter" />
		<tag k="ssr:stedsnr" v="283610" />
	</node>
	<node lat="58.37207222608947" lon="6.781547224934432" id="-33291">
		<tag k="name" v="Egra" />
		<tag k="place" v="farm" />
		<tag k="ssr:stedsnr" v="286683" />
	</node>
	<node lat="58.402772218136995" lon="6.840674993611746" id="-33302">
		<tag k="name" v="Hauan" />
		<tag k="place" v="farm" />
		<tag k="ssr:stedsnr" v="463151" />
	</node>
	<node lat="58.222691664930984" lon="6.55246388279705" id="-33338">
		<tag k="alt_name" v="Sæle" />
		<tag k="fixme" v="consider place=hamlet" />
		<tag k="name" v="Sele" />
		<tag k="place" v="farm" />
		<tag k="ssr:stedsnr" v="303088" />
	</node>
	<node lat="58.41498889296497" lon="6.6500749952059826" id="-33341">
		<tag k="fixme" v="consider place=hamlet" />
		<tag k="name" v="Lende" />
		<tag k="place" v="farm" />
		<tag k="ssr:stedsnr" v="303100" />
	</node>
	<node lat="58.38881388818478" lon="6.810025004951734" id="-33342">
		<tag k="alt_name" v="Fedog" />
		<tag k="fixme" v="consider place=hamlet" />
		<tag k="name" v="Fedåk" />
		<tag k="place" v="farm" />
		<tag k="ssr:stedsnr" v="303404" />
	</node>
	<node lat="58.25099166673515" lon="6.614602782343425" id="-33349">
		<tag k="name" v="Kulåsen" />
		<tag k="place" v="farm" />
		<tag k="ssr:stedsnr" v="464723" />
	</node>
	<node lat="58.41543154817644" lon="6.820924073939666" id="-33374">
		<tag k="name" v="Bjødnevollen" />
		<tag k="place" v="farm" />
		<tag k="ssr:stedsnr" v="467133" />
	</node>
	<node lat="58.23323333428483" lon="6.555419437576423" id="-33395">
		<tag k="name" v="Lega" />
		<tag k="place" v="farm" />
		<tag k="ssr:stedsnr" v="467399" />
	</node>
	<node lat="58.465083330588136" lon="6.66571666314373" id="-33451">
		<tag k="name" v="Indre Sandsmark" />
		<tag k="place" v="hamlet" />
		<tag k="ssr:stedsnr" v="467738" />
	</node>
	<node lat="58.22801944875205" lon="6.5351555535633805" id="-33453">
		<tag k="alt_name" v="Østre Fidje" />
		<tag k="fixme" v="consider place=hamlet" />
		<tag k="name" v="Fidje" />
		<tag k="place" v="farm" />
		<tag k="ssr:stedsnr" v="467741" />
	</node>
	<node lat="58.464774995572974" lon="6.73027776973359" id="-33501">
		<tag k="historic" v="shieling" />
		<tag k="name" v="Kleivstølen" />
		<tag k="place" v="isolated_dwelling" />
		<tag k="ssr:stedsnr" v="341513" />
	</node>
	<node lat="58.46833055856899" lon="6.8269083397759385" id="-33522">
		<tag k="name" v="Plasset" />
		<tag k="place" v="farm" />
		<tag k="ssr:stedsnr" v="345611" />
	</node>
	<node lat="58.360658333059824" lon="6.634611113912005" id="-33555">
		<tag k="name" v="Øvre Eie" />
		<tag k="place" v="hamlet" />
		<tag k="ssr:stedsnr" v="345855" />
	</node>
	<node lat="58.24810277688631" lon="6.55236666477971" id="-33568">
		<tag k="alt_name" v="Lille Botne" />
		<tag k="fixme" v="consider place=hamlet" />
		<tag k="name" v="Botna" />
		<tag k="place" v="farm" />
		<tag k="ssr:stedsnr" v="346371" />
	</node>
	<node lat="58.46082500239027" lon="6.63173610404156" id="-33606">
		<tag k="historic" v="shieling" />
		<tag k="name" v="Sandsmarkstølen" />
		<tag k="place" v="isolated_dwelling" />
		<tag k="ssr:stedsnr" v="346769" />
	</node>
	<node lat="58.22026995762643" lon="6.592180454653935" id="-33620">
		<tag k="alt_name" v="Veisdal, øvre;Veisdal" />
		<tag k="fixme" v="consider place=hamlet" />
		<tag k="name" v="Øvre Veisdal" />
		<tag k="place" v="farm" />
		<tag k="ssr:stedsnr" v="364102" />
	</node>
	<node lat="58.42685555176414" lon="6.803999996505093" id="-33621">
		<tag k="fixme" v="consider place=hamlet" />
		<tag k="name" v="Åtland" />
		<tag k="place" v="farm" />
		<tag k="ssr:stedsnr" v="364107" />
	</node>
	<node lat="58.438252780732185" lon="6.688308334739819" id="-33625">
		<tag k="alt_name" v="Vestre Ersdal" />
		<tag k="fixme" v="consider place=hamlet" />
		<tag k="name" v="Ersdal" />
		<tag k="place" v="farm" />
		<tag k="ssr:stedsnr" v="364121" />
	</node>
	<node lat="58.441155556157746" lon="6.808966659143005" id="-33626">
		<tag k="name" v="Solheim" />
		<tag k="place" v="farm" />
		<tag k="ssr:stedsnr" v="364127" />
	</node>
	<node lat="58.26786389057403" lon="6.43391944104492" id="-33635">
		<tag k="name" v="Tele" />
		<tag k="place" v="isolated_dwelling" />
		<tag k="ssr:stedsnr" v="485047" />
	</node>
	<node lat="58.32673611111244" lon="6.572477769370867" id="-33647">
		<tag k="alt_name" v="Østre Fjeldså" />
		<tag k="fixme" v="consider place=hamlet" />
		<tag k="name" v="Øvstefjellså" />
		<tag k="place" v="farm" />
		<tag k="ssr:stedsnr" v="485184" />
	</node>
	<node lat="58.50238055729254" lon="6.800083338794054" id="-33657">
		<tag k="historic" v="shieling" />
		<tag k="name" v="Seljordstølen" />
		<tag k="place" v="isolated_dwelling" />
		<tag k="ssr:stedsnr" v="402590" />
	</node>
	<node lat="58.33001666831109" lon="6.641613890020565" id="-33659">
		<tag k="alt_name" v="Strømland" />
		<tag k="fixme" v="consider place=hamlet" />
		<tag k="name" v="Straumland" />
		<tag k="place" v="farm" />
		<tag k="ssr:stedsnr" v="485400" />
	</node>
	<node lat="58.537527778359085" lon="6.654213889589818" id="-33661">
		<tag k="historic" v="shieling" />
		<tag k="name" v="Ramslistølen" />
		<tag k="place" v="isolated_dwelling" />
		<tag k="ssr:stedsnr" v="403230" />
	</node>
	<node lat="58.23143055924251" lon="6.558158338910942" id="-33708">
		<tag k="fixme" v="consider place=hamlet" />
		<tag k="name" v="Ågenes" />
		<tag k="place" v="farm" />
		<tag k="ssr:stedsnr" v="407418" />
	</node>
	<node lat="58.29344097242144" lon="6.4478124136635575" id="-33746">
		<tag k="alt_name" v="Austhom" />
		<tag k="name" v="Austerheim" />
		<tag k="place" v="isolated_dwelling" />
		<tag k="ssr:stedsnr" v="425013" />
	</node>
	<node lat="58.240144443850234" lon="6.548169438901852" id="-33749">
		<tag k="fixme" v="consider place=hamlet" />
		<tag k="name" v="Reistad" />
		<tag k="place" v="farm" />
		<tag k="ssr:stedsnr" v="425064" />
	</node>
	<node lat="58.22949999567945" lon="6.557341662830637" id="-33750">
		<tag k="name" v="Havsvik" />
		<tag k="place" v="farm" />
		<tag k="ssr:stedsnr" v="425068" />
	</node>
	<node lat="58.46968610999179" lon="6.6933249950184495" id="-33751">
		<tag k="alt_name" v="Modalslien" />
		<tag k="fixme" v="consider place=hamlet" />
		<tag k="name" v="Modalsli" />
		<tag k="place" v="farm" />
		<tag k="ssr:stedsnr" v="425069" />
	</node>
	<node lat="58.44590277524002" lon="6.8089555492356055" id="-33753">
		<tag k="alt_name" v="Uglandskaret;Uglandsskar" />
		<tag k="fixme" v="consider place=hamlet" />
		<tag k="name" v="Uglandskard" />
		<tag k="place" v="farm" />
		<tag k="ssr:stedsnr" v="425107" />
	</node>
	<node lat="58.202519448024326" lon="6.615197222275921" id="-33756">
		<tag k="alt_name" v="Hitterøkalven" />
		<tag k="fixme" v="consider place=hamlet" />
		<tag k="name" v="Kalven" />
		<tag k="place" v="farm" />
		<tag k="ssr:stedsnr" v="425167" />
	</node>
	<node lat="58.39305000187951" lon="6.720786104051862" id="-33758">
		<tag k="fixme" v="consider place=hamlet" />
		<tag k="name" v="Løland" />
		<tag k="place" v="farm" />
		<tag k="ssr:stedsnr" v="425402" />
	</node>
	<node lat="58.326252774380706" lon="6.828436110742605" id="-33762">
		<tag k="name" v="Krossli" />
		<tag k="place" v="farm" />
		<tag k="ssr:stedsnr" v="425458" />
	</node>
	<node lat="58.38701111202108" lon="6.712211107867953" id="-33766">
		<tag k="fixme" v="consider place=hamlet" />
		<tag k="name" v="Helledal" />
		<tag k="place" v="farm" />
		<tag k="ssr:stedsnr" v="425400" />
	</node>
	<node lat="58.334219447134046" lon="6.816855547174464" id="-33839">
		<tag k="name" v="Skarvollen" />
		<tag k="place" v="farm" />
		<tag k="ssr:stedsnr" v="467674" />
	</node>
	<node lat="58.2322166681529" lon="6.543474994665247" id="-33868">
		<tag k="alt_name" v="Kråkedal" />
		<tag k="fixme" v="consider place=hamlet" />
		<tag k="name" v="Krågedal" />
		<tag k="place" v="farm" />
		<tag k="ssr:stedsnr" v="485071" />
	</node>
	<node lat="58.46686389054092" lon="6.665205561397196" id="-33869">
		<tag k="alt_name" v="Sandsmork, in;Indre Sandsmork" />
		<tag k="fixme" v="consider place=hamlet" />
		<tag k="name" v="Indre Sandsmark" />
		<tag k="place" v="farm" />
		<tag k="ssr:stedsnr" v="485072" />
	</node>
	<node lat="58.41941666362062" lon="6.815541658512926" id="-33876">
		<tag k="fixme" v="consider place=hamlet" />
		<tag k="loc_name" v="Heggeland" />
		<tag k="name" v="Heggland" />
		<tag k="place" v="farm" />
		<tag k="ssr:stedsnr" v="485309" />
	</node>
	<node lat="58.34886944162487" lon="6.813719440666655" id="-33878">
		<tag k="alt_name" v="Lauvland" />
		<tag k="fixme" v="consider place=hamlet" />
		<tag k="name" v="Løvland" />
		<tag k="place" v="farm" />
		<tag k="ssr:stedsnr" v="485382" />
	</node>
	<node lat="58.32214444724221" lon="6.688636105887484" id="-33880">
		<tag k="alt_name" v="Glendrange" />
		<tag k="fixme" v="consider place=hamlet" />
		<tag k="name" v="Glendranga" />
		<tag k="place" v="farm" />
		<tag k="ssr:stedsnr" v="485411" />
	</node>
	<node lat="58.47790555359385" lon="6.674430560870919" id="-33995">
		<tag k="fixme" v="consider place=hamlet" />
		<tag k="name" v="Mjåsund" />
		<tag k="place" v="farm" />
		<tag k="ssr:stedsnr" v="546092" />
	</node>
	<node lat="58.478874995678076" lon="6.786824994358804" id="-33996">
		<tag k="name" v="Nordbø" />
		<tag k="place" v="farm" />
		<tag k="ssr:stedsnr" v="546093" />
	</node>
	<node lat="58.446766664717074" lon="6.798286109726023" id="-33999">
		<tag k="fixme" v="consider place=hamlet" />
		<tag k="name" v="Rygg" />
		<tag k="place" v="farm" />
		<tag k="ssr:stedsnr" v="546125" />
	</node>
	<node lat="58.35378055756278" lon="6.794358334678239" id="-34002">
		<tag k="alt_name" v="Rossestøl (Stølen)" />
		<tag k="fixme" v="consider place=hamlet" />
		<tag k="name" v="Røssestøl" />
		<tag k="place" v="farm" />
		<tag k="ssr:stedsnr" v="546413" />
	</node>
	<node lat="58.3488765895034" lon="6.765929459032873" id="-34003">
		<tag k="fixme" v="consider place=hamlet" />
		<tag k="name" v="Dunsæd" />
		<tag k="place" v="farm" />
		<tag k="ssr:stedsnr" v="546422" />
	</node>
	<node lat="58.32930833147654" lon="6.655119439320569" id="-34006">
		<tag k="alt_name" v="Logja" />
		<tag k="name" v="Loga" />
		<tag k="place" v="hamlet" />
		<tag k="ssr:stedsnr" v="546429" />
	</node>
	<node lat="58.38597499694615" lon="6.735611107284649" id="-34007">
		<tag k="fixme" v="consider place=hamlet" />
		<tag k="name" v="Haugland" />
		<tag k="place" v="farm" />
		<tag k="ssr:stedsnr" v="546373" />
	</node>
	<node lat="58.309527777171716" lon="6.589830551186054" id="-34131">
		<tag k="fixme" v="consider place=hamlet" />
		<tag k="name" v="Grønsund" />
		<tag k="place" v="farm" />
		<tag k="ssr:stedsnr" v="606010" />
	</node>
	<node lat="58.470844444097764" lon="6.789566663140499" id="-34134">
		<tag k="fixme" v="consider place=hamlet" />
		<tag k="name" v="Mydland" />
		<tag k="place" v="farm" />
		<tag k="ssr:stedsnr" v="606075" />
	</node>
	<node lat="58.480586107813515" lon="6.658249999767491" id="-34137">
		<tag k="fixme" v="consider place=hamlet" />
		<tag k="name" v="Brikland" />
		<tag k="place" v="farm" />
		<tag k="ssr:stedsnr" v="606085" />
	</node>
	<node lat="58.2346166697609" lon="6.589833336235428" id="-34139">
		<tag k="alt_name" v="Bukstad" />
		<tag k="name" v="Bukkstad" />
		<tag k="place" v="farm" />
		<tag k="ssr:stedsnr" v="606091" />
	</node>
	<node lat="58.37979722254731" lon="6.895461117241604" id="-34149">
		<tag k="fixme" v="consider place=hamlet" />
		<tag k="name" v="Homme" />
		<tag k="place" v="farm" />
		<tag k="ssr:stedsnr" v="606396" />
	</node>
	<node lat="58.30826944788594" lon="6.674194436863237" id="-34180">
		<tag k="name" v="Øvreeid" />
		<tag k="place" v="hamlet" />
		<tag k="ssr:stedsnr" v="645214" />
	</node>
	<node lat="58.2410916647533" lon="6.664780548872252" id="-34202">
		<tag k="name" v="Stampen" />
		<tag k="place" v="neighbourhood" />
		<tag k="ssr:stedsnr" v="646628" />
	</node>
	<node lat="58.47968889057489" lon="6.712513887282249" id="-34210">
		<tag k="name" v="Kleppestøl" />
		<tag k="place" v="farm" />
		<tag k="ssr:stedsnr" v="648014" />
	</node>
	<node lat="58.30045555143142" lon="6.643958325469601" id="-34283">
		<tag k="fixme" v="consider place=hamlet" />
		<tag k="name" v="Søyland" />
		<tag k="place" v="farm" />
		<tag k="ssr:stedsnr" v="649747" />
	</node>
	<node lat="58.45163888675841" lon="6.639127779787265" id="-34289">
		<tag k="historic" v="shieling" />
		<tag k="name" v="Tjødnelitoa" />
		<tag k="place" v="isolated_dwelling" />
		<tag k="ssr:stedsnr" v="649948" />
	</node>
	<node lat="58.34876210470983" lon="6.765306185727693" id="-34293">
		<tag k="name" v="Dunsæd" />
		<tag k="place" v="farm" />
		<tag k="ssr:stedsnr" v="707461" />
	</node>
	<node lat="58.25019722316309" lon="6.54840555969197" id="-34298">
		<tag k="fixme" v="consider tourism=alpine_hut or tourism=chalet" />
		<tag k="name" v="Gården Li" />
		<tag k="ssr:stedsnr" v="708193" />
		<tag k="tourism" v="wilderness_hut" />
	</node>
	<node lat="58.48673888930729" lon="6.773563885259279" id="-34302">
		<tag k="name" v="Hjuringhuset" />
		<tag k="place" v="farm" />
		<tag k="ssr:stedsnr" v="709053" />
	</node>
	<node lat="58.27925277904699" lon="6.395194445438252" id="-34314">
		<tag k="alt_name" v="Roligheta" />
		<tag k="name" v="Roligheten" />
		<tag k="place" v="hamlet" />
		<tag k="ssr:stedsnr" v="667007" />
	</node>
	<node lat="58.27484166273756" lon="6.454308332116647" id="-34316">
		<tag k="fixme" v="consider place=hamlet" />
		<tag k="name" v="Vatland" />
		<tag k="place" v="farm" />
		<tag k="ssr:stedsnr" v="667013" />
	</node>
	<node lat="58.22248055645066" lon="6.582775003239357" id="-34321">
		<tag k="alt_name" v="Hestad" />
		<tag k="fixme" v="consider place=hamlet" />
		<tag k="name" v="Hæstad" />
		<tag k="place" v="farm" />
		<tag k="ssr:stedsnr" v="667112" />
	</node>
	<node lat="58.4783305572952" lon="6.847666672263064" id="-34322">
		<tag k="name" v="Fossheim" />
		<tag k="place" v="farm" />
		<tag k="ssr:stedsnr" v="667113" />
	</node>
	<node lat="58.336308331993976" lon="6.764811112801396" id="-34331">
		<tag k="fixme" v="consider place=hamlet" />
		<tag k="name" v="Eikedal" />
		<tag k="place" v="farm" />
		<tag k="ssr:stedsnr" v="667419" />
	</node>
	<node lat="58.330069445887474" lon="6.682327776656854" id="-34332">
		<tag k="alt_name" v="Fladen" />
		<tag k="fixme" v="consider place=hamlet" />
		<tag k="name" v="Flaten" />
		<tag k="place" v="farm" />
		<tag k="ssr:stedsnr" v="667433" />
	</node>
	<node lat="58.388738885013886" lon="6.792700005691417" id="-34338">
		<tag k="fixme" v="consider place=hamlet" />
		<tag k="name" v="Øystøl" />
		<tag k="place" v="farm" />
		<tag k="ssr:stedsnr" v="667393" />
	</node>
	<node lat="58.284402781675844" lon="6.62308333807416" id="-34343">
		<tag k="name" v="Bestyrarinnas Recidens" />
		<tag k="place" v="isolated_dwelling" />
		<tag k="ssr:stedsnr" v="710098" />
	</node>
	<node lat="58.27250833421758" lon="6.678336112929704" id="-34361">
		<tag k="fixme" v="consider place=hamlet" />
		<tag k="name" v="Djupvik" />
		<tag k="place" v="village" />
		<tag k="ssr:stedsnr" v="710168" />
	</node>
	<node lat="58.22992499969668" lon="6.55193055801193" id="-34365">
		<tag k="name" v="Fredheim" />
		<tag k="place" v="farm" />
		<tag k="ssr:stedsnr" v="710417" />
	</node>
	<node lat="58.44932777919652" lon="6.804366672224678" id="-34434">
		<tag k="name" v="Nesheim" />
		<tag k="place" v="farm" />
		<tag k="ssr:stedsnr" v="892441" />
	</node>
	<node lat="58.44656666775867" lon="6.6792861114354976" id="-34504">
		<tag k="name" v="Øigarden" />
		<tag k="place" v="locality" />
		<tag k="ssr:stedsnr" v="892974" />
	</node>
	<node lat="58.30510832907288" lon="6.676541673935797" id="-34529">
		<tag k="name" v="Kråketona" />
		<tag k="place" v="quarter" />
		<tag k="ssr:stedsnr" v="706914" />
	</node>
	<node lat="58.22848611493928" lon="6.5662055564883435" id="-34563">
		<tag k="name" v="Helle" />
		<tag k="place" v="hamlet" />
		<tag k="ssr:stedsnr" v="710416" />
	</node>
	<node lat="58.29984722400069" lon="6.734919444937677" id="-34579">
		<tag k="name" v="Øvre Lian" />
		<tag k="place" v="farm" />
		<tag k="ssr:stedsnr" v="710631" />
	</node>
	<node lat="58.32610555398031" lon="6.572922229606436" id="-34586">
		<tag k="name" v="Øvstefjells" />
		<tag k="place" v="hamlet" />
		<tag k="ssr:stedsnr" v="710529" />
	</node>
	<node lat="58.24724722669128" lon="6.705077777890457" id="-34619">
		<tag k="fixme" v="consider place=hamlet" />
		<tag k="name" v="Ståby" />
		<tag k="place" v="farm" />
		<tag k="ssr:stedsnr" v="728109" />
	</node>
	<node lat="58.23198055223848" lon="6.672091668513577" id="-34620">
		<tag k="fixme" v="consider place=suburb, village or hamlet" />
		<tag k="name" v="Andabeløy" />
		<tag k="place" v="quarter" />
		<tag k="ssr:stedsnr" v="728121" />
	</node>
	<node lat="58.4289249980733" lon="6.662575007616366" id="-34622">
		<tag k="name" v="Osen" />
		<tag k="place" v="farm" />
		<tag k="ssr:stedsnr" v="728076" />
	</node>
	<node lat="58.3552055554127" lon="6.78637500139972" id="-34623">
		<tag k="alt_name" v="Øysæd" />
		<tag k="fixme" v="consider place=hamlet" />
		<tag k="name" v="Øysæ" />
		<tag k="place" v="farm" />
		<tag k="ssr:stedsnr" v="728412" />
	</node>
	<node lat="58.5108861103197" lon="6.6796666703968235" id="-34624">
		<tag k="fixme" v="consider place=hamlet" />
		<tag k="name" v="Espelund" />
		<tag k="place" v="farm" />
		<tag k="ssr:stedsnr" v="728309" />
	</node>
	<node lat="58.380508335234985" lon="6.847694445684775" id="-34629">
		<tag k="alt_name" v="Fedjestad;Fidjesdal" />
		<tag k="fixme" v="consider place=hamlet" />
		<tag k="name" v="Fedjesdal" />
		<tag k="place" v="farm" />
		<tag k="ssr:stedsnr" v="728389" />
	</node>
	<node lat="58.371541670869384" lon="6.628216674178011" id="-34630">
		<tag k="alt_name" v="Regevik" />
		<tag k="fixme" v="consider place=hamlet" />
		<tag k="name" v="Rekevik" />
		<tag k="place" v="farm" />
		<tag k="ssr:stedsnr" v="728391" />
	</node>
	<node lat="58.31114722497286" lon="6.670152774694331" id="-34632">
		<tag k="name" v="Drangeid" />
		<tag k="place" v="suburb" />
		<tag k="ssr:stedsnr" v="728475" />
	</node>
	<node lat="58.23644166829856" lon="6.596005556219563" id="-34633">
		<tag k="alt_name" v="Bukstad" />
		<tag k="fixme" v="consider place=hamlet" />
		<tag k="name" v="Bukkstad" />
		<tag k="place" v="farm" />
		<tag k="ssr:stedsnr" v="728694" />
	</node>
	<node lat="58.296411110835095" lon="6.659822227431276" id="-34648">
		<tag k="building" v="civic" />
		<tag k="name" v="Flekkefjord politistasjon" />
		<tag k="ssr:stedsnr" v="907127" />
	</node>
	<node lat="58.49923333524537" lon="6.861238892601857" id="-34661">
		<tag k="name" v="Stølen" />
		<tag k="place" v="farm" />
		<tag k="ssr:stedsnr" v="770656" />
	</node>
	<node lat="58.29208889111724" lon="6.516502785026111" id="-34669">
		<tag k="fixme" v="multiple name tags, choose one and add the other to alt_name; consider place=hamlet" />
		<tag k="name" v="Botna;Botne på heien" />
		<tag k="place" v="farm" />
		<tag k="ssr:stedsnr" v="770517" />
	</node>
	<node lat="58.27468889210301" lon="6.52538611053725" id="-34733">
		<tag k="fixme" v="consider place=hamlet" />
		<tag k="name" v="Dåstøl" />
		<tag k="place" v="farm" />
		<tag k="ssr:stedsnr" v="910073" />
	</node>
	<node lat="58.45998333035421" lon="6.784675002586856" id="-34735">
		<tag k="name" v="Nordheim" />
		<tag k="place" v="farm" />
		<tag k="ssr:stedsnr" v="910081" />
	</node>
	<node lat="58.23874346353473" lon="6.561777035352818" id="-34736">
		<tag k="alt_name" v="Eide" />
		<tag k="name" v="Eie" />
		<tag k="place" v="farm" />
		<tag k="ssr:stedsnr" v="910085" />
	</node>
	<node lat="58.473316668281235" lon="6.727699998430666" id="-34738">
		<tag k="fixme" v="consider place=hamlet" />
		<tag k="name" v="Eitland" />
		<tag k="place" v="farm" />
		<tag k="ssr:stedsnr" v="910094" />
	</node>
	<node lat="58.227394443723014" lon="6.556824994742292" id="-34739">
		<tag k="fixme" v="consider place=hamlet" />
		<tag k="name" v="Våge" />
		<tag k="place" v="farm" />
		<tag k="ssr:stedsnr" v="910095" />
	</node>
	<node lat="58.41117499904714" lon="6.636561111992315" id="-34741">
		<tag k="fixme" v="consider place=hamlet" />
		<tag k="name" v="Sira" />
		<tag k="place" v="farm" />
		<tag k="ssr:stedsnr" v="910104" />
	</node>
	<node lat="58.245444443045294" lon="6.636533325020074" id="-34743">
		<tag k="alt_name" v="Snørebrot" />
		<tag k="name" v="Snørebråt" />
		<tag k="place" v="farm" />
		<tag k="ssr:stedsnr" v="910117" />
	</node>
	<node lat="58.44992777683246" lon="6.660344437021964" id="-34744">
		<tag k="alt_name" v="Sandsmork, yt;Ytre Sandsmork" />
		<tag k="fixme" v="consider place=hamlet" />
		<tag k="name" v="Ytre Sandsmark" />
		<tag k="place" v="farm" />
		<tag k="ssr:stedsnr" v="910128" />
	</node>
	<node lat="58.360688884474136" lon="6.63433610556294" id="-34748">
		<tag k="fixme" v="consider place=hamlet" />
		<tag k="name" v="Eide" />
		<tag k="place" v="farm" />
		<tag k="ssr:stedsnr" v="910426" />
	</node>
	<node lat="58.33382500283537" lon="6.825574991990069" id="-34753">
		<tag k="alt_name" v="Krosli" />
		<tag k="fixme" v="consider place=hamlet" />
		<tag k="name" v="Krossli" />
		<tag k="place" v="farm" />
		<tag k="ssr:stedsnr" v="910475" />
	</node>
	<node lat="58.25003610825698" lon="6.637430560446043" id="-34758">
		<tag k="fixme" v="consider place=hamlet" />
		<tag k="name" v="Kvelland" />
		<tag k="place" v="farm" />
		<tag k="ssr:stedsnr" v="910890" />
	</node>
	<node lat="58.45574999979063" lon="6.791933328581214" id="-34759">
		<tag k="name" v="Sørheim" />
		<tag k="place" v="farm" />
		<tag k="ssr:stedsnr" v="911121" />
	</node>
	<node lat="58.27761110869491" lon="6.528591666995395" id="-34760">
		<tag k="fixme" v="consider place=hamlet" />
		<tag k="name" v="Hogstad" />
		<tag k="place" v="farm" />
		<tag k="ssr:stedsnr" v="788050" />
	</node>
	<node lat="58.41563055585944" lon="6.800638883963843" id="-34764">
		<tag k="fixme" v="consider place=hamlet" />
		<tag k="name" v="Nuland" />
		<tag k="place" v="farm" />
		<tag k="ssr:stedsnr" v="788358" />
	</node>
	<node lat="58.24894444553526" lon="6.73321667245496" id="-34769">
		<tag k="fixme" v="consider place=hamlet" />
		<tag k="name" v="Bjelland" />
		<tag k="place" v="farm" />
		<tag k="ssr:stedsnr" v="789123" />
	</node>
	<node lat="58.46905555287764" lon="6.789841667041807" id="-34772">
		<tag k="name" v="Bø" />
		<tag k="place" v="farm" />
		<tag k="ssr:stedsnr" v="789070" />
	</node>
	<node lat="58.37890277761299" lon="6.780408334389097" id="-34777">
		<tag k="alt_name" v="Eikås, store" />
		<tag k="fixme" v="consider place=hamlet" />
		<tag k="name" v="Store Eikås" />
		<tag k="place" v="farm" />
		<tag k="ssr:stedsnr" v="789423" />
	</node>
	<node lat="58.37838611346829" lon="6.80356389362807" id="-34778">
		<tag k="alt_name" v="Eikeland" />
		<tag k="fixme" v="consider place=hamlet" />
		<tag k="loc_name" v="Eikjeland" />
		<tag k="name" v="Eigeland" />
		<tag k="place" v="farm" />
		<tag k="ssr:stedsnr" v="789424" />
	</node>
	<node lat="58.34966387911888" lon="6.765164486550429" id="-34790">
		<tag k="name" v="Dunsæd" />
		<tag k="place" v="farm" />
		<tag k="ssr:stedsnr" v="829468" />
	</node>
	<node lat="58.46735833510385" lon="6.816463894793487" id="-34803">
		<tag k="name" v="Unnevoll" />
		<tag k="place" v="farm" />
		<tag k="ssr:stedsnr" v="831384" />
	</node>
	<node lat="58.409217696610085" lon="6.82173463910941" id="-34826">
		<tag k="name" v="Bjørkevollen" />
		<tag k="place" v="farm" />
		<tag k="ssr:stedsnr" v="832192" />
	</node>
	<node lat="58.29669166271408" lon="6.64423888250551" id="-34833">
		<tag k="amenity" v="nursing_home" />
		<tag k="name" v="Tjørsvågheimen" />
		<tag k="ssr:stedsnr" v="832095" />
	</node>
	<node lat="58.363297217882504" lon="6.864905561100992" id="-34835">
		<tag k="name" v="Skåland" />
		<tag k="place" v="farm" />
		<tag k="ssr:stedsnr" v="832239" />
	</node>
	<node lat="58.29214722670373" lon="6.746750007426628" id="-34863">
		<tag k="name" v="Slåta" />
		<tag k="place" v="farm" />
		<tag k="ssr:stedsnr" v="832629" />
	</node>
	<node lat="58.4856222190079" lon="6.635011113255514" id="-34882">
		<tag k="historic" v="shieling" />
		<tag k="name" v="Briklandstølen" />
		<tag k="place" v="isolated_dwelling" />
		<tag k="ssr:stedsnr" v="832894" />
	</node>
	<node lat="58.30614999859826" lon="6.533791662534619" id="-34887">
		<tag k="fixme" v="consider place=hamlet" />
		<tag k="name" v="Allestad" />
		<tag k="place" v="farm" />
		<tag k="ssr:stedsnr" v="849029" />
	</node>
	<node lat="58.22976111137898" lon="6.5432500012083485" id="-34895">
		<tag k="fixme" v="consider place=hamlet" />
		<tag k="name" v="Auland" />
		<tag k="place" v="farm" />
		<tag k="ssr:stedsnr" v="850079" />
	</node>
	<node lat="58.237827775665444" lon="6.5561916625983665" id="-34896">
		<tag k="alt_name" v="Vimmervåg" />
		<tag k="fixme" v="consider place=hamlet" />
		<tag k="name" v="Vimrevåg" />
		<tag k="place" v="farm" />
		<tag k="ssr:stedsnr" v="850080" />
	</node>
	<node lat="58.47835833128207" lon="6.856758340950087" id="-34897">
		<tag k="alt_name" v="Østre Hamar" />
		<tag k="fixme" v="consider place=hamlet" />
		<tag k="name" v="Hamar" />
		<tag k="place" v="farm" />
		<tag k="ssr:stedsnr" v="850082" />
	</node>
	<node lat="58.22658055438716" lon="6.534280562522722" id="-34898">
		<tag k="alt_name" v="Østhus" />
		<tag k="fixme" v="consider place=hamlet" />
		<tag k="name" v="Ysthus" />
		<tag k="place" v="farm" />
		<tag k="ssr:stedsnr" v="850096" />
	</node>
	<node lat="58.50568055703349" lon="6.67189444385704" id="-34902">
		<tag k="fixme" v="consider place=hamlet" />
		<tag k="name" v="Lindeli" />
		<tag k="place" v="farm" />
		<tag k="ssr:stedsnr" v="850387" />
	</node>
	<node lat="58.32347778099264" lon="6.6566166700900915" id="-34910">
		<tag k="name" v="Logaåsen" />
		<tag k="place" v="quarter" />
		<tag k="ssr:stedsnr" v="888163" />
	</node>
	<node lat="58.3420194406035" lon="6.781986104634257" id="-34923">
		<tag k="name" v="Dunsæd" />
		<tag k="place" v="farm" />
		<tag k="ssr:stedsnr" v="890506" />
	</node>
	<node lat="58.294852781114294" lon="6.690677770484302" id="-34930">
		<tag k="fixme" v="consider place=hamlet" />
		<tag k="name" v="Austad" />
		<tag k="place" v="village" />
		<tag k="ssr:stedsnr" v="892118" />
	</node>
	<node lat="58.41199354886978" lon="6.829884841188731" id="-34936">
		<tag k="name" v="Steian" />
		<tag k="place" v="farm" />
		<tag k="ssr:stedsnr" v="892136" />
	</node>
	<node lat="58.24758888808629" lon="6.637163894320899" id="-34942">
		<tag k="name" v="Fredli" />
		<tag k="place" v="farm" />
		<tag k="ssr:stedsnr" v="892057" />
	</node>
	<node lat="58.37913055611363" lon="6.850241658422716" id="-34945">
		<tag k="name" v="Krabban" />
		<tag k="place" v="farm" />
		<tag k="ssr:stedsnr" v="892064" />
	</node>
	<node lat="58.226316662556464" lon="6.55148611600476" id="-34955">
		<tag k="name" v="Myran" />
		<tag k="place" v="farm" />
		<tag k="ssr:stedsnr" v="892371" />
	</node>
	<node lat="58.40289166254668" lon="6.625122218528456" id="-34994">
		<tag k="name" v="Skjeggestad" />
		<tag k="place" v="hamlet" />
		<tag k="ssr:stedsnr" v="892858" />
	</node>
	<node lat="58.286161108163384" lon="6.426433340697634" id="-35008">
		<tag k="alt_name" v="Midtbø" />
		<tag k="fixme" v="consider place=hamlet" />
		<tag k="name" v="Midbø" />
		<tag k="place" v="farm" />
		<tag k="ssr:stedsnr" v="910019" />
	</node>
	<node lat="58.29012499958743" lon="6.712175000707833" id="-35012">
		<tag k="alt_name" v="Egenes" />
		<tag k="name" v="Eikenes" />
		<tag k="place" v="farm" />
		<tag k="ssr:stedsnr" v="910252" />
	</node>
	<node lat="58.28811667106843" lon="6.65967221976765" id="-35014">
		<tag k="name" v="Grønnes" />
		<tag k="place" v="hamlet" />
		<tag k="ssr:stedsnr" v="910256" />
	</node>
	<node lat="58.29726388548892" lon="6.644136110928331" id="-35015">
		<tag k="name" v="Tjørsvåg" />
		<tag k="place" v="suburb" />
		<tag k="ssr:stedsnr" v="910260" />
	</node>
	<node lat="58.284358332986145" lon="6.747311106630392" id="-35016">
		<tag k="fixme" v="consider place=hamlet" />
		<tag k="name" v="Nedrejord" />
		<tag k="place" v="farm" />
		<tag k="ssr:stedsnr" v="910270" />
	</node>
	<node lat="58.26150833193355" lon="6.751266664720148" id="-35020">
		<tag k="fixme" v="consider place=hamlet" />
		<tag k="name" v="Birkeland" />
		<tag k="place" v="farm" />
		<tag k="ssr:stedsnr" v="911304" />
	</node>
	<node lat="58.356852776622056" lon="6.765683340663363" id="-35021">
		<tag k="fixme" v="consider place=hamlet" />
		<tag k="name" v="Listøl" />
		<tag k="place" v="farm" />
		<tag k="ssr:stedsnr" v="911451" />
	</node>
	<node lat="58.238836110223986" lon="6.5309611085013435" id="-35084">
		<tag k="name" v="Kjøydevåg" />
		<tag k="place" v="hamlet" />
		<tag k="ssr:stedsnr" v="953356" />
	</node>
	<node lat="58.2191361150495" lon="6.573136112603458" id="-35093">
		<tag k="name" v="Vaulevik" />
		<tag k="place" v="farm" />
		<tag k="ssr:stedsnr" v="953429" />
	</node>
	<node lat="58.280775002253094" lon="6.402930554429435" id="-35102">
		<tag k="name" v="Østebø" />
		<tag k="place" v="hamlet" />
		<tag k="ssr:stedsnr" v="953741" />
	</node>
	<node lat="58.29792777676713" lon="6.663188897108402" id="-35133">
		<tag k="building" v="civic" />
		<tag k="name" v="Flekkefjord havnevesen" />
		<tag k="ssr:stedsnr" v="967110" />
	</node>
	<node lat="58.299552774651495" lon="6.669958335481496" id="-35134">
		<tag k="leisure" v="pitch" />
		<tag k="name" v="Uenes stadion" />
		<tag k="ssr:stedsnr" v="967111" />
	</node>
	<node lat="58.330080354050715" lon="6.65189943179417" id="-35144">
		<tag k="fixme" v="consider place=hamlet" />
		<tag k="name" v="Loga" />
		<tag k="place" v="farm" />
		<tag k="ssr:stedsnr" v="978282" />
	</node>
	<node lat="58.39411313387327" lon="6.762488379183532" id="-35145">
		<tag k="fixme" v="consider place=hamlet" />
		<tag k="name" v="Nordre Hammer" />
		<tag k="place" v="farm" />
		<tag k="ssr:stedsnr" v="978416" />
	</node>
	<node lat="58.43238926971321" lon="6.737771182345842" id="-35146">
		<tag k="fixme" v="consider place=hamlet" />
		<tag k="name" v="Vestre Fossdal" />
		<tag k="place" v="farm" />
		<tag k="ssr:stedsnr" v="978417" />
	</node>
	<node lat="58.286563629147174" lon="6.651163329599149" id="-35147">
		<tag k="fixme" v="consider place=hamlet" />
		<tag k="name" v="Sveige" />
		<tag k="place" v="farm" />
		<tag k="ssr:stedsnr" v="978269" />
	</node>
	<node lat="58.296673344978174" lon="6.6424317587313935" id="-35148">
		<tag k="fixme" v="consider place=hamlet" />
		<tag k="name" v="Tjørsvåg" />
		<tag k="place" v="farm" />
		<tag k="ssr:stedsnr" v="978270" />
	</node>
	<node lat="58.302209297818216" lon="6.6582424215072855" id="-35149">
		<tag k="fixme" v="consider place=hamlet" />
		<tag k="name" v="Nes" />
		<tag k="place" v="farm" />
		<tag k="ssr:stedsnr" v="978271" />
	</node>
	<node lat="58.462279172520375" lon="6.722216811205926" id="-35150">
		<tag k="fixme" v="consider place=hamlet" />
		<tag k="name" v="Vestre Eitlandskleiv" />
		<tag k="place" v="farm" />
		<tag k="ssr:stedsnr" v="978418" />
	</node>
	<node lat="58.363346705997806" lon="6.8104091349483555" id="-35151">
		<tag k="fixme" v="consider place=hamlet" />
		<tag k="name" v="Østre Klungland" />
		<tag k="place" v="farm" />
		<tag k="ssr:stedsnr" v="978421" />
	</node>
	<node lat="58.337912171597395" lon="6.820661651346618" id="-35152">
		<tag k="fixme" v="consider place=hamlet" />
		<tag k="name" v="Seland" />
		<tag k="place" v="farm" />
		<tag k="ssr:stedsnr" v="978423" />
	</node>
	<node lat="58.35742542030224" lon="6.875728287379124" id="-35153">
		<tag k="fixme" v="consider place=hamlet" />
		<tag k="name" v="Espeli" />
		<tag k="place" v="farm" />
		<tag k="ssr:stedsnr" v="978424" />
	</node>
	<node lat="58.399757854645856" lon="6.882059431370662" id="-35154">
		<tag k="fixme" v="consider place=hamlet" />
		<tag k="name" v="Ronås" />
		<tag k="place" v="farm" />
		<tag k="ssr:stedsnr" v="978425" />
	</node>
	<node lat="58.42039060453926" lon="6.82885811637646" id="-35155">
		<tag k="fixme" v="consider place=hamlet" />
		<tag k="name" v="Lie" />
		<tag k="place" v="farm" />
		<tag k="ssr:stedsnr" v="978426" />
	</node>
	<node lat="58.43009949790888" lon="6.839254788757796" id="-35156">
		<tag k="fixme" v="consider place=hamlet" />
		<tag k="name" v="Gyland" />
		<tag k="place" v="farm" />
		<tag k="ssr:stedsnr" v="978427" />
	</node>
	<node lat="58.23120833413945" lon="6.563561115248624" id="-35161">
		<tag k="fixme" v="consider place=hamlet" />
		<tag k="name" v="Marstad" />
		<tag k="place" v="farm" />
		<tag k="ssr:stedsnr" v="82" />
	</node>
	<node lat="58.2340138915062" lon="6.5353166656379" id="-35162">
		<tag k="name" v="Festevoll" />
		<tag k="place" v="quarter" />
		<tag k="ssr:stedsnr" v="87" />
	</node>
	<node lat="58.45684721944664" lon="6.783036118388946" id="-35164">
		<tag k="name" v="Vestheim" />
		<tag k="place" v="farm" />
		<tag k="ssr:stedsnr" v="129" />
	</node>
	<node lat="58.2953138923501" lon="6.773850004618404" id="-35167">
		<tag k="fixme" v="consider place=hamlet" />
		<tag k="name" v="Lian" />
		<tag k="place" v="farm" />
		<tag k="ssr:stedsnr" v="274" />
	</node>
	<node lat="58.31611666584777" lon="6.773016665472476" id="-35169">
		<tag k="fixme" v="consider place=hamlet" />
		<tag k="name" v="Osen" />
		<tag k="place" v="farm" />
		<tag k="ssr:stedsnr" v="482" />
	</node>
	<node lat="58.30730555609439" lon="6.670186116569822" id="-35198">
		<tag k="name" v="Nedreeid" />
		<tag k="place" v="hamlet" />
		<tag k="ssr:stedsnr" v="39188" />
	</node>
	<node lat="58.41486944253837" lon="6.652433341046901" id="-35250">
		<tag k="fixme" v="consider place=hamlet" />
		<tag k="name" v="Lende" />
		<tag k="place" v="village" />
		<tag k="ssr:stedsnr" v="42679" />
	</node>
	<node lat="58.29061666870687" lon="6.648586109382978" id="-35256">
		<tag k="fixme" v="consider place=suburb, village or hamlet" />
		<tag k="name" v="Fagerstrand" />
		<tag k="place" v="quarter" />
		<tag k="ssr:stedsnr" v="43093" />
	</node>
	<node lat="58.23718333080881" lon="6.59743611974003" id="-35301">
		<tag k="name" v="Bukstad" />
		<tag k="place" v="hamlet" />
		<tag k="ssr:stedsnr" v="43754" />
	</node>
	<node lat="58.2408027739974" lon="6.540227784558498" id="-35340">
		<tag k="alt_name" v="Omland" />
		<tag k="fixme" v="consider place=hamlet" />
		<tag k="name" v="Åmland" />
		<tag k="place" v="farm" />
		<tag k="ssr:stedsnr" v="61062" />
	</node>
	<node lat="58.40436110960017" lon="6.63967500590324" id="-35346">
		<tag k="alt_name" v="Omdal" />
		<tag k="name" v="Åmdal" />
		<tag k="place" v="farm" />
		<tag k="ssr:stedsnr" v="61369" />
	</node>
	<node lat="58.24958333562995" lon="6.733958336676301" id="-35348">
		<tag k="name" v="Bjelland" />
		<tag k="place" v="farm" />
		<tag k="ssr:stedsnr" v="61874" />
	</node>
	<node lat="58.4109055519289" lon="6.635361113431152" id="-35351">
		<tag k="name" v="Sira" />
		<tag k="place" v="hamlet" />
		<tag k="ssr:stedsnr" v="89826" />
	</node>
	<node lat="58.41058611398783" lon="6.623313892271688" id="-35363">
		<tag k="name" v="Stuen" />
		<tag k="place" v="locality" />
		<tag k="ssr:stedsnr" v="99925" />
	</node>
	<node lat="58.38981667030662" lon="6.683388884157155" id="-35446">
		<tag k="fixme" v="multiple name tags, choose one and add the other to alt_name; consider place=hamlet" />
		<tag k="name" v="Hamar;Hamre" />
		<tag k="place" v="farm" />
		<tag k="ssr:stedsnr" v="103757" />
	</node>
	<node lat="58.5159472232152" lon="6.634702785119675" id="-35450">
		<tag k="historic" v="shieling" />
		<tag k="name" v="Lindelistølen" />
		<tag k="place" v="isolated_dwelling" />
		<tag k="ssr:stedsnr" v="103769" />
	</node>
	<node lat="58.35153888554952" lon="6.649305563062394" id="-35453">
		<tag k="name" v="Lavoll" />
		<tag k="place" v="hamlet" />
		<tag k="ssr:stedsnr" v="103855" />
	</node>
	<node lat="58.438877781017865" lon="6.6890777848318" id="-35454">
		<tag k="name" v="Ersdal" />
		<tag k="place" v="hamlet" />
		<tag k="ssr:stedsnr" v="103864" />
	</node>
	<node lat="58.41764444153949" lon="6.837827772978991" id="-35472">
		<tag k="amenity" v="school" />
		<tag k="name" v="Lilunden" />
		<tag k="ssr:stedsnr" v="104145" />
	</node>
	<node lat="58.42077258024502" lon="6.82505270230604" id="-35480">
		<tag k="name" v="Øvre Li" />
		<tag k="place" v="farm" />
		<tag k="ssr:stedsnr" v="104243" />
	</node>
	<node lat="58.25039721936074" lon="6.660127779493951" id="-35486">
		<tag k="name" v="Bolshus" />
		<tag k="place" v="farm" />
		<tag k="ssr:stedsnr" v="104745" />
	</node>
	<node lat="58.35887778123436" lon="6.632183337320556" id="-35487">
		<tag k="name" v="Nedre Eie" />
		<tag k="place" v="hamlet" />
		<tag k="ssr:stedsnr" v="104835" />
	</node>
	<node lat="58.28023333483547" lon="6.404588882267466" id="-35497">
		<tag k="alt_name" v="Østebø" />
		<tag k="fixme" v="consider place=hamlet" />
		<tag k="name" v="Ystebø" />
		<tag k="place" v="farm" />
		<tag k="ssr:stedsnr" v="121008" />
	</node>
	<node lat="58.50034999723535" lon="6.774761116469734" id="-35504">
		<tag k="fixme" v="consider place=hamlet" />
		<tag k="name" v="Seljord" />
		<tag k="place" v="farm" />
		<tag k="ssr:stedsnr" v="121359" />
	</node>
	<node lat="58.412349997284494" lon="6.734900000723304" id="-35505">
		<tag k="alt_name" v="Nordre Klungland" />
		<tag k="fixme" v="consider place=hamlet" />
		<tag k="name" v="Klungland" />
		<tag k="place" v="farm" />
		<tag k="ssr:stedsnr" v="121378" />
	</node>
	<node lat="58.28557778145134" lon="6.775461114966992" id="-35521">
		<tag k="fixme" v="consider place=hamlet" />
		<tag k="name" v="Solli" />
		<tag k="place" v="farm" />
		<tag k="ssr:stedsnr" v="159652" />
	</node>
	<node lat="58.2203361086874" lon="6.63445556121204" id="-35541">
		<tag k="name" v="Furua" />
		<tag k="place" v="isolated_dwelling" />
		<tag k="ssr:stedsnr" v="161738" />
	</node>
	<node lat="58.29641111420753" lon="6.64969443919151" id="-35584">
		<tag k="leisure" v="park" />
		<tag k="name" v="Fjellparken" />
		<tag k="ssr:stedsnr" v="164099" />
	</node>
	<node lat="58.249675001163055" lon="6.731741660212189" id="-35636">
		<tag k="name" v="Bjelland" />
		<tag k="place" v="hamlet" />
		<tag k="ssr:stedsnr" v="164756" />
	</node>
	<node lat="58.43776110688501" lon="6.655458335353671" id="-35652">
		<tag k="alt_name" v="Målløs" />
		<tag k="fixme" v="consider place=hamlet" />
		<tag k="name" v="Mållaus" />
		<tag k="place" v="farm" />
		<tag k="ssr:stedsnr" v="164972" />
	</node>
	<node lat="58.28843055265241" lon="6.7434527735920815" id="-35667">
		<tag k="alt_name" v="Rødland" />
		<tag k="fixme" v="consider place=hamlet" />
		<tag k="name" v="Røydland" />
		<tag k="place" v="farm" />
		<tag k="ssr:stedsnr" v="182245" />
	</node>
	<node lat="58.488613890687915" lon="6.751286105094035" id="-35670">
		<tag k="alt_name" v="Birkeland" />
		<tag k="fixme" v="consider place=hamlet" />
		<tag k="name" v="Byrkjeland" />
		<tag k="place" v="farm" />
		<tag k="ssr:stedsnr" v="182033" />
	</node>
	<node lat="58.253300001935685" lon="6.56821388463829" id="-35672">
		<tag k="alt_name" v="Litle Håland;Lille Håland" />
		<tag k="fixme" v="consider place=hamlet" />
		<tag k="name" v="Håland, l" />
		<tag k="place" v="farm" />
		<tag k="ssr:stedsnr" v="182041" />
	</node>
	<node lat="58.304800003632636" lon="6.645113890343475" id="-35675">
		<tag k="name" v="Søyland" />
		<tag k="place" v="farm" />
		<tag k="ssr:stedsnr" v="182483" />
	</node>
	<node lat="58.2133277790721" lon="6.610602778973051" id="-35679">
		<tag k="fixme" v="consider place=hamlet" />
		<tag k="name" v="Langeland" />
		<tag k="place" v="farm" />
		<tag k="ssr:stedsnr" v="182143" />
	</node>
	<node lat="58.296802774659014" lon="6.752508333643985" id="-35680">
		<tag k="alt_name" v="Store Løyning" />
		<tag k="fixme" v="consider place=hamlet" />
		<tag k="name" v="Løyning" />
		<tag k="place" v="farm" />
		<tag k="ssr:stedsnr" v="182253" />
	</node>
	<node lat="58.28359166301958" lon="6.6717750074181" id="-35681">
		<tag k="alt_name" v="Rauli" />
		<tag k="name" v="Raudli" />
		<tag k="place" v="farm" />
		<tag k="ssr:stedsnr" v="182266" />
	</node>
	<node lat="58.25729444074202" lon="6.703805553209074" id="-35683">
		<tag k="alt_name" v="Grundevik" />
		<tag k="fixme" v="consider place=hamlet" />
		<tag k="name" v="Grunnevik" />
		<tag k="place" v="farm" />
		<tag k="ssr:stedsnr" v="182286" />
	</node>
	<node lat="58.420550002332035" lon="6.711849999930171" id="-35685">
		<tag k="name" v="Nyvik" />
		<tag k="place" v="farm" />
		<tag k="ssr:stedsnr" v="182369" />
	</node>
	<node lat="58.43529722529531" lon="6.738738894834417" id="-35691">
		<tag k="name" v="Fåsdal" />
		<tag k="place" v="hamlet" />
		<tag k="ssr:stedsnr" v="206483" />
	</node>
	<node lat="58.436780555317206" lon="6.867288891201366" id="-35737">
		<tag k="historic" v="shieling" />
		<tag k="name" v="Klaustølen" />
		<tag k="place" v="isolated_dwelling" />
		<tag k="ssr:stedsnr" v="224624" />
	</node>
	<node lat="58.445833334427654" lon="6.658402772047231" id="-35774">
		<tag k="name" v="Øigarden" />
		<tag k="place" v="locality" />
		<tag k="ssr:stedsnr" v="224981" />
	</node>
	<node lat="58.22786111521617" lon="6.548022229224054" id="-35789">
		<tag k="name" v="Ulland" />
		<tag k="place" v="hamlet" />
		<tag k="ssr:stedsnr" v="225433" />
	</node>
	<node lat="58.421886110401346" lon="6.66085277159493" id="-35833">
		<tag k="fixme" v="consider place=suburb, village or hamlet" />
		<tag k="name" v="Prestmoen" />
		<tag k="place" v="quarter" />
		<tag k="ssr:stedsnr" v="281935" />
	</node>
	<node lat="58.24473611430525" lon="6.694772220686995" id="-35850">
		<tag k="name" v="Litle Helle" />
		<tag k="place" v="farm" />
		<tag k="ssr:stedsnr" v="285061" />
	</node>
	<node lat="58.44132500318753" lon="6.858455557090282" id="-35901">
		<tag k="historic" v="shieling" />
		<tag k="name" v="Hommestølen" />
		<tag k="place" v="isolated_dwelling" />
		<tag k="ssr:stedsnr" v="285650" />
	</node>
	<node lat="58.469522220007335" lon="6.686299999171588" id="-35935">
		<tag k="name" v="Krågen" />
		<tag k="place" v="farm" />
		<tag k="ssr:stedsnr" v="285967" />
	</node>
	<node lat="58.41079924809547" lon="6.826341240213277" id="-35940">
		<tag k="name" v="Stykket" />
		<tag k="place" v="farm" />
		<tag k="ssr:stedsnr" v="286143" />
	</node>
	<node lat="58.35177500412661" lon="6.769277773476452" id="-35945">
		<tag k="name" v="Uglandskar" />
		<tag k="place" v="farm" />
		<tag k="ssr:stedsnr" v="286379" />
	</node>
	<node lat="58.29848055960114" lon="6.66591666689787" id="-35960">
		<tag k="amenity" v="hospital" />
		<tag k="name" v="Flekkefjord sykehus" />
		<tag k="ssr:stedsnr" v="300146" />
	</node>
	<node lat="58.259900000660906" lon="6.592536114610243" id="-35966">
		<tag k="fixme" v="consider place=hamlet" />
		<tag k="name" v="Itland" />
		<tag k="place" v="farm" />
		<tag k="ssr:stedsnr" v="303050" />
	</node>
	<node lat="58.45772222622553" lon="6.6587611039453" id="-35967">
		<tag k="alt_name" v="Konstali" />
		<tag k="fixme" v="consider place=hamlet" />
		<tag k="name" v="Konnstali" />
		<tag k="place" v="farm" />
		<tag k="ssr:stedsnr" v="303059" />
	</node>
	<node lat="58.46334166341692" lon="6.700858339667908" id="-35968">
		<tag k="fixme" v="consider place=hamlet" />
		<tag k="name" v="Modal" />
		<tag k="place" v="farm" />
		<tag k="ssr:stedsnr" v="303071" />
	</node>
	<node lat="58.30161666284355" lon="6.752852781931816" id="-35973">
		<tag k="fixme" v="consider place=hamlet" />
		<tag k="name" v="Helland" />
		<tag k="place" v="farm" />
		<tag k="ssr:stedsnr" v="303262" />
	</node>
	<node lat="58.41289999860802" lon="6.779411115363458" id="-35974">
		<tag k="fixme" v="consider place=hamlet" />
		<tag k="name" v="Voilås" />
		<tag k="place" v="farm" />
		<tag k="ssr:stedsnr" v="303372" />
	</node>
	<node lat="58.39923888948128" lon="6.797286117609962" id="-35975">
		<tag k="alt_name" v="Hjellesæ;Jellesæd" />
		<tag k="fixme" v="consider place=hamlet" />
		<tag k="name" v="Hjelleset" />
		<tag k="place" v="farm" />
		<tag k="ssr:stedsnr" v="303389" />
	</node>
	<node lat="58.36286666434023" lon="6.811175002778375" id="-35978">
		<tag k="name" v="Klungland" />
		<tag k="place" v="farm" />
		<tag k="ssr:stedsnr" v="303430" />
	</node>
	<node lat="58.33728610709194" lon="6.636933332468706" id="-35982">
		<tag k="fixme" v="consider place=hamlet" />
		<tag k="name" v="Soland" />
		<tag k="place" v="farm" />
		<tag k="ssr:stedsnr" v="303456" />
	</node>
	<node lat="58.501719444665746" lon="6.807124999657714" id="-35985">
		<tag k="alt_name" v="Slettebø" />
		<tag k="name" v="Slettabø" />
		<tag k="place" v="isolated_dwelling" />
		<tag k="ssr:stedsnr" v="304361" />
	</node>
	<node lat="58.34910543903496" lon="6.765985158321074" id="-35999">
		<tag k="name" v="Dunsæd" />
		<tag k="place" v="farm" />
		<tag k="ssr:stedsnr" v="343461" />
	</node>
	<node lat="58.3833805538457" lon="6.836833325852585" id="-36014">
		<tag k="name" v="Lunden" />
		<tag k="place" v="quarter" />
		<tag k="ssr:stedsnr" v="345062" />
	</node>
	<node lat="58.284791663297646" lon="6.5433027697764174" id="-36117">
		<tag k="name" v="Kvanvik" />
		<tag k="place" v="hamlet" />
		<tag k="ssr:stedsnr" v="346748" />
	</node>
	<node lat="58.23850277889234" lon="6.535619439776522" id="-36141">
		<tag k="alt_name" v="Kjøyta;Kjøide" />
		<tag k="fixme" v="consider place=hamlet" />
		<tag k="name" v="Kjøyda" />
		<tag k="place" v="farm" />
		<tag k="ssr:stedsnr" v="364068" />
	</node>
	<node lat="58.27347500064591" lon="6.725183334970545" id="-36145">
		<tag k="alt_name" v="Tjærland" />
		<tag k="fixme" v="consider place=hamlet" />
		<tag k="name" v="Tjersland" />
		<tag k="place" v="farm" />
		<tag k="ssr:stedsnr" v="364294" />
	</node>
	<node lat="58.42033888783709" lon="6.85611111484828" id="-36146">
		<tag k="alt_name" v="Ytre Stølan" />
		<tag k="name" v="Stølen, yt" />
		<tag k="place" v="isolated_dwelling" />
		<tag k="ssr:stedsnr" v="364391" />
	</node>
	<node lat="58.46490278175496" lon="6.724913890109752" id="-36151">
		<tag k="alt_name" v="Østre Eitlandskleiv" />
		<tag k="fixme" v="consider place=hamlet" />
		<tag k="name" v="Kleiva" />
		<tag k="place" v="farm" />
		<tag k="ssr:stedsnr" v="364075" />
	</node>
	<node lat="58.22225833005686" lon="6.5441944431221515" id="-36153">
		<tag k="name" v="Råga" />
		<tag k="place" v="farm" />
		<tag k="ssr:stedsnr" v="364088" />
	</node>
	<node lat="58.22630277722633" lon="6.573044450510536" id="-36154">
		<tag k="alt_name" v="Nedre Urstad" />
		<tag k="fixme" v="consider place=hamlet" />
		<tag k="name" v="Urstad" />
		<tag k="place" v="farm" />
		<tag k="ssr:stedsnr" v="364090" />
	</node>
	<node lat="58.420552775389254" lon="6.662988883888207" id="-36156">
		<tag k="name" v="Sira" />
		<tag k="place" v="village" />
		<tag k="ssr:stedsnr" v="364099" />
	</node>
	<node lat="58.21767343184877" lon="6.587495183397651" id="-36157">
		<tag k="alt_name" v="Nedre Veisdal;Veisdal, ytre" />
		<tag k="fixme" v="consider place=hamlet" />
		<tag k="name" v="Ytre Veisdal" />
		<tag k="place" v="farm" />
		<tag k="ssr:stedsnr" v="364100" />
	</node>
	<node lat="58.375649999583345" lon="6.640888894063726" id="-36162">
		<tag k="fixme" v="consider place=hamlet" />
		<tag k="name" v="Fodnestøl" />
		<tag k="place" v="farm" />
		<tag k="ssr:stedsnr" v="364420" />
	</node>
	<node lat="58.362361115409286" lon="6.6536416615817755" id="-36164">
		<tag k="alt_name" v="Lauås" />
		<tag k="fixme" v="consider place=hamlet" />
		<tag k="name" v="Lauvås" />
		<tag k="place" v="farm" />
		<tag k="ssr:stedsnr" v="364432" />
	</node>
	<node lat="58.54576666856366" lon="6.652383330677391" id="-36167">
		<tag k="alt_name" v="Indre Jendal" />
		<tag k="fixme" v="consider place=hamlet" />
		<tag k="name" v="Jendal" />
		<tag k="place" v="farm" />
		<tag k="ssr:stedsnr" v="364760" />
	</node>
	<node lat="58.279252777322675" lon="6.395211111881085" id="-36200">
		<tag k="fixme" v="consider place=suburb, village or hamlet" />
		<tag k="name" v="Stornes" />
		<tag k="place" v="quarter" />
		<tag k="ssr:stedsnr" v="403288" />
	</node>
	<node lat="58.24647222629001" lon="6.654372220713159" id="-36233">
		<tag k="name" v="Erikstemmen" />
		<tag k="place" v="quarter" />
		<tag k="ssr:stedsnr" v="406587" />
	</node>
	<node lat="58.3627111124293" lon="6.683641661030031" id="-36244">
		<tag k="name" v="Lona" />
		<tag k="place" v="hamlet" />
		<tag k="ssr:stedsnr" v="406876" />
	</node>
	<node lat="58.20323888948757" lon="6.594516666867381" id="-36287">
		<tag k="name" v="Steian" />
		<tag k="place" v="locality" />
		<tag k="ssr:stedsnr" v="407362" />
	</node>
</osm>
