<?xml version="1.0" encoding="UTF-8"?>
<osm version="0.6" generator="osmapis">
	<node lat="58.38746111275507" lon="6.890111105438539" id="-20843">
		<tag k="name" v="Ovaldsteinen" />
		<tag k="natural" v="stone" />
		<tag k="ssr:stedsnr" v="415" />
	</node>
	<node lat="58.4026166692225" lon="6.81222500047305" id="-20849">
		<tag k="name" v="Diblan" />
		<tag k="natural" v="wetland" />
		<tag k="ssr:stedsnr" v="38503" />
	</node>
	<node lat="58.488102780340746" lon="6.809080550217091" id="-20867">
		<tag k="name" v="Pytten" />
		<tag k="natural" v="wetland" />
		<tag k="ssr:stedsnr" v="42023" />
	</node>
	<node lat="58.379241670514595" lon="6.901727778514703" id="-20870">
		<tag k="name" v="Methommen" />
		<tag k="place" v="locality" />
		<tag k="ssr:stedsnr" v="42214" />
	</node>
	<node lat="58.303922224433" lon="6.526172218837013" id="-20875">
		<tag k="name" v="Skådåsmyra" />
		<tag k="natural" v="wetland" />
		<tag k="ssr:stedsnr" v="42475" />
	</node>
	<node lat="58.43231110995014" lon="6.8586888948970985" id="-20882">
		<tag k="name" v="Lislåta" />
		<tag k="natural" v="wetland" />
		<tag k="ssr:stedsnr" v="42628" />
	</node>
	<node lat="58.475255555316885" lon="6.644408330512619" id="-20908">
		<tag k="name" v="Lange myran" />
		<tag k="natural" v="wetland" />
		<tag k="ssr:stedsnr" v="42904" />
	</node>
	<node lat="58.44423055950462" lon="6.696763884098827" id="-20931">
		<tag k="name" v="Steian" />
		<tag k="natural" v="wetland" />
		<tag k="ssr:stedsnr" v="43978" />
	</node>
	<node lat="58.289388889848894" lon="6.467058327747669" id="-21005">
		<tag k="name" v="Lundemyr" />
		<tag k="natural" v="wetland" />
		<tag k="ssr:stedsnr" v="99307" />
	</node>
	<node lat="58.287708334554516" lon="6.4479972176281395" id="-21007">
		<tag k="name" v="Torvmyra" />
		<tag k="natural" v="wetland" />
		<tag k="ssr:stedsnr" v="99311" />
	</node>
	<node lat="58.26718055510218" lon="6.732308333735994" id="-21018">
		<tag k="name" v="Katteholet" />
		<tag k="natural" v="wetland" />
		<tag k="ssr:stedsnr" v="99563" />
	</node>
	<node lat="58.476363890100465" lon="6.7819888922138425" id="-21037">
		<tag k="name" v="Kringlemyr" />
		<tag k="natural" v="wetland" />
		<tag k="ssr:stedsnr" v="103028" />
	</node>
	<node lat="58.216327777638924" lon="6.600041666508785" id="-21044">
		<tag k="name" v="Saksemyra" />
		<tag k="natural" v="wetland" />
		<tag k="ssr:stedsnr" v="103083" />
	</node>
	<node lat="58.25560278028647" lon="6.538116659226211" id="-21057">
		<tag k="name" v="Ytre Botna" />
		<tag k="natural" v="wetland" />
		<tag k="ssr:stedsnr" v="103383" />
	</node>
	<node lat="58.26856944853006" lon="6.533472226152489" id="-21063">
		<tag k="name" v="Diblemyra" />
		<tag k="natural" v="wetland" />
		<tag k="ssr:stedsnr" v="103486" />
	</node>
	<node lat="58.40714166264924" lon="6.7834305526760055" id="-21065">
		<tag k="name" v="Kallemyr" />
		<tag k="natural" v="wetland" />
		<tag k="ssr:stedsnr" v="103490" />
	</node>
	<node lat="58.55065277502425" lon="6.671024992319627" id="-21069">
		<tag k="name" v="Kallemyr" />
		<tag k="natural" v="wetland" />
		<tag k="ssr:stedsnr" v="103608" />
	</node>
	<node lat="58.48432500421288" lon="6.625855548267853" id="-21093">
		<tag k="name" v="Feittjødnmyran" />
		<tag k="natural" v="wetland" />
		<tag k="ssr:stedsnr" v="103906" />
	</node>
	<node lat="58.475913892764396" lon="6.6659388951662795" id="-21099">
		<tag k="name" v="Stora myra" />
		<tag k="natural" v="wetland" />
		<tag k="ssr:stedsnr" v="103899" />
	</node>
	<node lat="58.40971111206437" lon="6.849058329613303" id="-21100">
		<tag k="name" v="Stora myra" />
		<tag k="natural" v="wetland" />
		<tag k="ssr:stedsnr" v="104189" />
	</node>
	<node lat="58.30466110690809" lon="6.7545194530232475" id="-21109">
		<tag k="name" v="Veisa" />
		<tag k="natural" v="wetland" />
		<tag k="ssr:stedsnr" v="104724" />
	</node>
	<node lat="58.49075000013493" lon="6.794888885374144" id="-21132">
		<tag k="name" v="Kleivsholet" />
		<tag k="natural" v="wetland" />
		<tag k="ssr:stedsnr" v="163022" />
	</node>
	<node lat="58.34410555674072" lon="6.842322224426122" id="-21133">
		<tag k="name" v="Ingeridsteinen" />
		<tag k="natural" v="stone" />
		<tag k="ssr:stedsnr" v="163216" />
	</node>
	<node lat="58.29433333643121" lon="6.6227583279202" id="-21149">
		<tag k="name" v="Store Myra" />
		<tag k="natural" v="wetland" />
		<tag k="ssr:stedsnr" v="164108" />
	</node>
	<node lat="58.28666388742874" lon="6.620658333989758" id="-21150">
		<tag k="name" v="Lindevikura" />
		<tag k="natural" v="scree" />
		<tag k="ssr:stedsnr" v="164114" />
	</node>
	<node lat="58.31411388797133" lon="6.572580558231018" id="-21156">
		<tag k="name" v="Flinturmyra" />
		<tag k="natural" v="wetland" />
		<tag k="ssr:stedsnr" v="164004" />
	</node>
	<node lat="58.24375277767662" lon="6.7011138860192965" id="-21158">
		<tag k="name" v="Slåtedalsholet" />
		<tag k="natural" v="wetland" />
		<tag k="ssr:stedsnr" v="164071" />
	</node>
	<node lat="58.25280277836834" lon="6.742858339113397" id="-21178">
		<tag k="name" v="Folkefjellmyra" />
		<tag k="natural" v="wetland" />
		<tag k="ssr:stedsnr" v="164603" />
	</node>
	<node lat="58.54598333190758" lon="6.674961107789227" id="-21182">
		<tag k="name" v="Stora myra" />
		<tag k="natural" v="wetland" />
		<tag k="ssr:stedsnr" v="164682" />
	</node>
	<node lat="58.40770833595322" lon="6.691008331434547" id="-21183">
		<tag k="name" v="Tjødnemyr" />
		<tag k="natural" v="wetland" />
		<tag k="ssr:stedsnr" v="164803" />
	</node>
	<node lat="58.434791669348094" lon="6.829127786160496" id="-21188">
		<tag k="name" v="Diblemyr" />
		<tag k="natural" v="wetland" />
		<tag k="ssr:stedsnr" v="164719" />
	</node>
	<node lat="58.33614167089502" lon="6.7468722264563885" id="-21191">
		<tag k="name" v="Langemyr" />
		<tag k="natural" v="wetland" />
		<tag k="ssr:stedsnr" v="164762" />
	</node>
	<node lat="58.3279972235187" lon="6.726113892845527" id="-21192">
		<tag k="name" v="Uran" />
		<tag k="natural" v="scree" />
		<tag k="ssr:stedsnr" v="164766" />
	</node>
	<node lat="58.34311666633159" lon="6.723438887686407" id="-21193">
		<tag k="name" v="Fidjan" />
		<tag k="place" v="locality" />
		<tag k="ssr:stedsnr" v="164768" />
	</node>
	<node lat="58.283552776360956" lon="6.416158332183734" id="-21233">
		<tag k="name" v="Monen" />
		<tag k="place" v="locality" />
		<tag k="ssr:stedsnr" v="221216" />
	</node>
	<node lat="58.23889444460644" lon="6.588169451697786" id="-21235">
		<tag k="name" v="Duenesurda" />
		<tag k="natural" v="scree" />
		<tag k="ssr:stedsnr" v="222725" />
	</node>
	<node lat="58.429944444834426" lon="6.799238895664849" id="-21246">
		<tag k="name" v="Klovsteinan" />
		<tag k="natural" v="stone" />
		<tag k="ssr:stedsnr" v="224402" />
	</node>
	<node lat="58.43253889255629" lon="6.7551833274966935" id="-21248">
		<tag k="name" v="Raunetona" />
		<tag k="natural" v="wetland" />
		<tag k="ssr:stedsnr" v="224424" />
	</node>
	<node lat="58.29944166573149" lon="6.534124993645182" id="-21258">
		<tag k="name" v="Moltemyra" />
		<tag k="natural" v="wetland" />
		<tag k="ssr:stedsnr" v="224504" />
	</node>
	<node lat="58.26428889247582" lon="6.585344448337882" id="-21260">
		<tag k="name" v="Lagden" />
		<tag k="natural" v="wetland" />
		<tag k="ssr:stedsnr" v="224510" />
	</node>
	<node lat="58.426422766827" lon="6.858193178153858" id="-21276">
		<tag k="name" v="Krogstemyra" />
		<tag k="natural" v="wetland" />
		<tag k="ssr:stedsnr" v="225188" />
	</node>
	<node lat="58.425630559706875" lon="6.8096166605733615" id="-21283">
		<tag k="name" v="Langemyr" />
		<tag k="natural" v="wetland" />
		<tag k="ssr:stedsnr" v="225325" />
	</node>
	<node lat="58.2717000011103" lon="6.575361117928066" id="-21299">
		<tag k="name" v="Mørkedalsmyra" />
		<tag k="natural" v="wetland" />
		<tag k="ssr:stedsnr" v="225485" />
	</node>
	<node lat="58.399886110991446" lon="6.6747138870977905" id="-21316">
		<tag k="name" v="Stora myra" />
		<tag k="natural" v="wetland" />
		<tag k="ssr:stedsnr" v="225939" />
	</node>
	<node lat="58.458280556144395" lon="6.704888886502467" id="-21318">
		<tag k="name" v="Hjertamyr" />
		<tag k="natural" v="wetland" />
		<tag k="ssr:stedsnr" v="225993" />
	</node>
	<node lat="58.47206944221224" lon="6.694372216375008" id="-21321">
		<tag k="name" v="Ørnemyr" />
		<tag k="natural" v="wetland" />
		<tag k="ssr:stedsnr" v="226000" />
	</node>
	<node lat="58.37243332883873" lon="6.697922219086444" id="-21334">
		<tag k="name" v="Åsmyr" />
		<tag k="natural" v="wetland" />
		<tag k="ssr:stedsnr" v="267430" />
	</node>
	<node lat="58.3899416686531" lon="6.776536105574109" id="-21344">
		<tag k="name" v="Uran" />
		<tag k="natural" v="scree" />
		<tag k="ssr:stedsnr" v="281506" />
	</node>
	<node lat="58.47742499684869" lon="6.721286118428409" id="-21355">
		<tag k="name" v="Hapte" />
		<tag k="place" v="locality" />
		<tag k="ssr:stedsnr" v="285009" />
	</node>
	<node lat="58.48377777478776" lon="6.757402779006904" id="-21356">
		<tag k="name" v="Rydlandskogen" />
		<tag k="place" v="locality" />
		<tag k="ssr:stedsnr" v="285012" />
	</node>
	<node lat="58.22745000168956" lon="6.5101472272433485" id="-21369">
		<tag k="name" v="Storamyra" />
		<tag k="natural" v="wetland" />
		<tag k="ssr:stedsnr" v="285405" />
	</node>
	<node lat="58.54968055163042" lon="6.688336111248246" id="-21387">
		<tag k="name" v="Kringlemyr" />
		<tag k="natural" v="wetland" />
		<tag k="ssr:stedsnr" v="285616" />
	</node>
	<node lat="58.45792777787873" lon="6.626222223524683" id="-21405">
		<tag k="name" v="Raunekleivmyr" />
		<tag k="natural" v="wetland" />
		<tag k="ssr:stedsnr" v="285988" />
	</node>
	<node lat="58.369183336998596" lon="6.886213880336238" id="-21407">
		<tag k="name" v="Nordre Myra" />
		<tag k="natural" v="wetland" />
		<tag k="ssr:stedsnr" v="286211" />
	</node>
	<node lat="58.331488886625394" lon="6.657286112580017" id="-21424">
		<tag k="name" v="Stormyra" />
		<tag k="natural" v="wetland" />
		<tag k="ssr:stedsnr" v="463176" />
	</node>
	<node lat="58.408080558329104" lon="6.788741665527702" id="-21434">
		<tag k="name" v="Trollemyra" />
		<tag k="natural" v="wetland" />
		<tag k="ssr:stedsnr" v="463439" />
	</node>
	<node lat="58.458738892476546" lon="6.734975000639085" id="-21435">
		<tag k="name" v="Sølfermyra" />
		<tag k="natural" v="wetland" />
		<tag k="ssr:stedsnr" v="463447" />
	</node>
	<node lat="58.292108329979385" lon="6.758083330515735" id="-21440">
		<tag k="name" v="Hestemyr" />
		<tag k="natural" v="wetland" />
		<tag k="ssr:stedsnr" v="463561" />
	</node>
	<node lat="58.31627222606277" lon="6.632877775888916" id="-21450">
		<tag k="name" v="Trettingsmyran" />
		<tag k="natural" v="wetland" />
		<tag k="ssr:stedsnr" v="463901" />
	</node>
	<node lat="58.42711944434051" lon="6.62930554828031" id="-21452">
		<tag k="name" v="Bronnemyra" />
		<tag k="natural" v="wetland" />
		<tag k="ssr:stedsnr" v="463945" />
	</node>
	<node lat="58.43031666975159" lon="6.624927784509555" id="-21453">
		<tag k="name" v="Loggmyra" />
		<tag k="natural" v="wetland" />
		<tag k="ssr:stedsnr" v="463947" />
	</node>
	<node lat="58.49990555432695" lon="6.732319443438923" id="-21473">
		<tag k="name" v="Birkelandshommen" />
		<tag k="place" v="locality" />
		<tag k="ssr:stedsnr" v="467084" />
	</node>
	<node lat="58.29425555391313" lon="6.598147224426514" id="-21476">
		<tag k="name" v="Trøen" />
		<tag k="natural" v="wetland" />
		<tag k="ssr:stedsnr" v="467095" />
	</node>
	<node lat="58.25345555168206" lon="6.634530562278314" id="-21479">
		<tag k="name" v="Bulæga" />
		<tag k="natural" v="wetland" />
		<tag k="ssr:stedsnr" v="467049" />
	</node>
	<node lat="58.48916944614895" lon="6.783747229817862" id="-21480">
		<tag k="name" v="Smieura" />
		<tag k="natural" v="scree" />
		<tag k="ssr:stedsnr" v="467050" />
	</node>
	<node lat="58.28316111436264" lon="6.692366662192414" id="-21490">
		<tag k="name" v="Skiftingsmyra" />
		<tag k="natural" v="wetland" />
		<tag k="ssr:stedsnr" v="467124" />
	</node>
	<node lat="58.27307777501889" lon="6.604022218890698" id="-21492">
		<tag k="name" v="Piggsteinen" />
		<tag k="natural" v="stone" />
		<tag k="ssr:stedsnr" v="467132" />
	</node>
	<node lat="58.41438013567695" lon="6.86616851927206" id="-21495">
		<tag k="name" v="Bjørkholtmyra" />
		<tag k="natural" v="wetland" />
		<tag k="ssr:stedsnr" v="467145" />
	</node>
	<node lat="58.42011110793235" lon="6.80019443640196" id="-21503">
		<tag k="name" v="Storemyr" />
		<tag k="natural" v="wetland" />
		<tag k="ssr:stedsnr" v="467322" />
	</node>
	<node lat="58.434736111806856" lon="6.780138887055706" id="-21520">
		<tag k="name" v="Ingridshylen" />
		<tag k="natural" v="wetland" />
		<tag k="ssr:stedsnr" v="467431" />
	</node>
	<node lat="58.29206666313827" lon="6.523466664804741" id="-21524">
		<tag k="name" v="Errekjerr" />
		<tag k="natural" v="wetland" />
		<tag k="ssr:stedsnr" v="467470" />
	</node>
	<node lat="58.40209166945426" lon="6.737211119419159" id="-21529">
		<tag k="name" v="Stora myra" />
		<tag k="natural" v="wetland" />
		<tag k="ssr:stedsnr" v="467486" />
	</node>
	<node lat="58.25425555201297" lon="6.73716666140976" id="-21539">
		<tag k="name" v="Skillingmyra" />
		<tag k="natural" v="wetland" />
		<tag k="ssr:stedsnr" v="467541" />
	</node>
	<node lat="58.25025277546352" lon="6.75040277866384" id="-21541">
		<tag k="name" v="Slåten" />
		<tag k="natural" v="wetland" />
		<tag k="ssr:stedsnr" v="467546" />
	</node>
	<node lat="58.33924999584997" lon="6.71368332725207" id="-21575">
		<tag k="name" v="Bråtan" />
		<tag k="place" v="locality" />
		<tag k="ssr:stedsnr" v="467754" />
	</node>
	<node lat="58.37032221839609" lon="6.664163880639491" id="-21584">
		<tag k="name" v="Stormyr" />
		<tag k="natural" v="wetland" />
		<tag k="ssr:stedsnr" v="467867" />
	</node>
	<node lat="58.292988889739014" lon="6.719691664749645" id="-21590">
		<tag k="name" v="Ytre Uran" />
		<tag k="natural" v="scree" />
		<tag k="ssr:stedsnr" v="467848" />
	</node>
	<node lat="58.54022222229707" lon="6.678397225725195" id="-21592">
		<tag k="name" v="Gråmannsmyra" />
		<tag k="natural" v="wetland" />
		<tag k="ssr:stedsnr" v="467858" />
	</node>
	<node lat="58.47368055492762" lon="6.7092555478541955" id="-21596">
		<tag k="name" v="Skjønnemyr" />
		<tag k="natural" v="wetland" />
		<tag k="ssr:stedsnr" v="467894" />
	</node>
	<node lat="58.55701388899459" lon="6.6308444468771155" id="-21597">
		<tag k="name" v="Kvassteinsmyr" />
		<tag k="natural" v="wetland" />
		<tag k="ssr:stedsnr" v="467896" />
	</node>
	<node lat="58.475277780128046" lon="6.719936110721979" id="-21616">
		<tag k="name" v="Lian" />
		<tag k="natural" v="wetland" />
		<tag k="ssr:stedsnr" v="341622" />
	</node>
	<node lat="58.498486110198655" lon="6.753672217018468" id="-21617">
		<tag k="name" v="Lian" />
		<tag k="place" v="locality" />
		<tag k="ssr:stedsnr" v="341625" />
	</node>
	<node lat="58.47803333122722" lon="6.796975002752205" id="-21634">
		<tag k="name" v="Drittsteinen" />
		<tag k="natural" v="stone" />
		<tag k="ssr:stedsnr" v="345005" />
	</node>
	<node lat="58.37946389090855" lon="6.885266667358435" id="-21636">
		<tag k="name" v="Surtemyr" />
		<tag k="natural" v="wetland" />
		<tag k="ssr:stedsnr" v="345211" />
	</node>
	<node lat="58.492874998124535" lon="6.860880562207778" id="-21644">
		<tag k="name" v="Indre Diblemyr" />
		<tag k="natural" v="wetland" />
		<tag k="ssr:stedsnr" v="345670" />
	</node>
	<node lat="58.52127777558001" lon="6.615138885751017" id="-21652">
		<tag k="name" v="Uran" />
		<tag k="natural" v="scree" />
		<tag k="ssr:stedsnr" v="345708" />
	</node>
	<node lat="58.4978388887909" lon="6.636666667605351" id="-21656">
		<tag k="name" v="Torvmyr" />
		<tag k="natural" v="wetland" />
		<tag k="ssr:stedsnr" v="345756" />
	</node>
	<node lat="58.51429444612088" lon="6.640394436067572" id="-21657">
		<tag k="name" v="Søyran" />
		<tag k="natural" v="wetland" />
		<tag k="ssr:stedsnr" v="345761" />
	</node>
	<node lat="58.29119444607739" lon="6.646461116145207" id="-21663">
		<tag k="name" v="Brattastykket" />
		<tag k="place" v="locality" />
		<tag k="ssr:stedsnr" v="346105" />
	</node>
	<node lat="58.216511108406905" lon="6.605280551784243" id="-21680">
		<tag k="name" v="Tjødnemyra" />
		<tag k="natural" v="wetland" />
		<tag k="ssr:stedsnr" v="346070" />
	</node>
	<node lat="58.327350004093034" lon="6.590249992841244" id="-21690">
		<tag k="name" v="Stølsmyra" />
		<tag k="natural" v="wetland" />
		<tag k="ssr:stedsnr" v="346520" />
	</node>
	<node lat="58.41529444281868" lon="6.773766667821622" id="-21692">
		<tag k="name" v="Skodemyr" />
		<tag k="natural" v="wetland" />
		<tag k="ssr:stedsnr" v="346263" />
	</node>
	<node lat="58.34166111218245" lon="6.830416666294028" id="-21707">
		<tag k="name" v="Surtemyr" />
		<tag k="natural" v="wetland" />
		<tag k="ssr:stedsnr" v="346677" />
	</node>
	<node lat="58.371875004429626" lon="6.707058332578952" id="-21715">
		<tag k="name" v="Myra" />
		<tag k="natural" v="wetland" />
		<tag k="ssr:stedsnr" v="346855" />
	</node>
	<node lat="58.36662499761006" lon="6.726302780931639" id="-21718">
		<tag k="name" v="Lintona" />
		<tag k="natural" v="wetland" />
		<tag k="ssr:stedsnr" v="346706" />
	</node>
	<node lat="58.33924444145591" lon="6.71705833050858" id="-21724">
		<tag k="name" v="Storbakkan" />
		<tag k="place" v="locality" />
		<tag k="ssr:stedsnr" v="346756" />
	</node>
	<node lat="58.48752499851708" lon="6.650855551451011" id="-21728">
		<tag k="name" v="Midbu" />
		<tag k="place" v="locality" />
		<tag k="ssr:stedsnr" v="346905" />
	</node>
	<node lat="58.243061115066155" lon="6.5241555588848525" id="-21752">
		<tag k="name" v="Urdagrå" />
		<tag k="natural" v="scree" />
		<tag k="ssr:stedsnr" v="483129" />
	</node>
	<node lat="58.41122777476457" lon="6.775361116873823" id="-21777">
		<tag k="name" v="Stemmen" />
		<tag k="natural" v="wetland" />
		<tag k="ssr:stedsnr" v="402599" />
	</node>
	<node lat="58.31069999552148" lon="6.657794436367685" id="-21782">
		<tag k="name" v="Trollura" />
		<tag k="natural" v="scree" />
		<tag k="ssr:stedsnr" v="403220" />
	</node>
	<node lat="58.485724998851516" lon="6.832891674967904" id="-21814">
		<tag k="name" v="Lunnemyr" />
		<tag k="natural" v="wetland" />
		<tag k="ssr:stedsnr" v="406699" />
	</node>
	<node lat="58.22152221799527" lon="6.631044441684437" id="-21821">
		<tag k="name" v="Stormyra" />
		<tag k="natural" v="wetland" />
		<tag k="ssr:stedsnr" v="407101" />
	</node>
	<node lat="58.275549996356915" lon="6.574444451572136" id="-21840">
		<tag k="name" v="Middagssletta" />
		<tag k="natural" v="wetland" />
		<tag k="ssr:stedsnr" v="407495" />
	</node>
	<node lat="58.3269555526539" lon="6.819663886084803" id="-21850">
		<tag k="name" v="Kjehagen" />
		<tag k="place" v="locality" />
		<tag k="ssr:stedsnr" v="407726" />
	</node>
	<node lat="58.4554277774361" lon="6.629736115023184" id="-21854">
		<tag k="name" v="Skotsmyr" />
		<tag k="natural" v="wetland" />
		<tag k="ssr:stedsnr" v="407790" />
	</node>
	<node lat="58.399499998004316" lon="6.855658337792339" id="-21899">
		<tag k="name" v="Diblemyran" />
		<tag k="natural" v="wetland" />
		<tag k="ssr:stedsnr" v="463612" />
	</node>
	<node lat="58.21008610845067" lon="6.608177782993437" id="-21910">
		<tag k="name" v="Diblemyra" />
		<tag k="natural" v="wetland" />
		<tag k="ssr:stedsnr" v="467021" />
	</node>
	<node lat="58.41741388582611" lon="6.7904111080337595" id="-21921">
		<tag k="name" v="Langemyr" />
		<tag k="natural" v="wetland" />
		<tag k="ssr:stedsnr" v="467271" />
	</node>
	<node lat="58.23331388597054" lon="6.593827783067495" id="-21924">
		<tag k="name" v="Bjønnsemyra" />
		<tag k="natural" v="wetland" />
		<tag k="ssr:stedsnr" v="467411" />
	</node>
	<node lat="58.40687221772814" lon="6.758411107087089" id="-21933">
		<tag k="name" v="Vollen" />
		<tag k="natural" v="wetland" />
		<tag k="ssr:stedsnr" v="467313" />
	</node>
	<node lat="58.251555556704695" lon="6.583638888992356" id="-21937">
		<tag k="name" v="Tverrdalsmyr" />
		<tag k="natural" v="wetland" />
		<tag k="ssr:stedsnr" v="467368" />
	</node>
	<node lat="58.258094448327675" lon="6.537847220494533" id="-21942">
		<tag k="name" v="Indre Botna" />
		<tag k="natural" v="wetland" />
		<tag k="ssr:stedsnr" v="467382" />
	</node>
	<node lat="58.33267222272731" lon="6.854900002526658" id="-21960">
		<tag k="name" v="Trettemyr" />
		<tag k="natural" v="wetland" />
		<tag k="ssr:stedsnr" v="467682" />
	</node>
	<node lat="58.46031110989007" lon="6.636744450754708" id="-21969">
		<tag k="name" v="Sandsmarkbotnan" />
		<tag k="natural" v="wetland" />
		<tag k="ssr:stedsnr" v="467772" />
	</node>
	<node lat="58.5143972225158" lon="6.6579361072214756" id="-21971">
		<tag k="name" v="Stora Myra" />
		<tag k="natural" v="wetland" />
		<tag k="ssr:stedsnr" v="467774" />
	</node>
	<node lat="58.3120722232282" lon="6.636516661950031" id="-22009">
		<tag k="name" v="Bjønnsbærmyra" />
		<tag k="natural" v="wetland" />
		<tag k="ssr:stedsnr" v="523223" />
	</node>
	<node lat="58.397241671241105" lon="6.798469448039133" id="-22010">
		<tag k="name" v="Huskevollen" />
		<tag k="place" v="locality" />
		<tag k="ssr:stedsnr" v="523511" />
	</node>
	<node lat="58.310208330862885" lon="6.755605559427121" id="-22013">
		<tag k="name" v="Bærbakkan" />
		<tag k="place" v="locality" />
		<tag k="ssr:stedsnr" v="523624" />
	</node>
	<node lat="58.45710833669565" lon="6.767247221831751" id="-22036">
		<tag k="name" v="Kjerringpytten" />
		<tag k="natural" v="wetland" />
		<tag k="ssr:stedsnr" v="527407" />
	</node>
	<node lat="58.24602222450397" lon="6.717811110164857" id="-22037">
		<tag k="name" v="Hestefjellmyr" />
		<tag k="natural" v="wetland" />
		<tag k="ssr:stedsnr" v="527528" />
	</node>
	<node lat="58.248955556335964" lon="6.728416674853433" id="-22039">
		<tag k="name" v="Digemyra" />
		<tag k="natural" v="wetland" />
		<tag k="ssr:stedsnr" v="527530" />
	</node>
	<node lat="58.263800000169056" lon="6.631447213823019" id="-22059">
		<tag k="name" v="Stakkemyr" />
		<tag k="natural" v="wetland" />
		<tag k="ssr:stedsnr" v="528177" />
	</node>
	<node lat="58.27446944209602" lon="6.403491658590608" id="-22062">
		<tag k="name" v="Torvmyra" />
		<tag k="natural" v="wetland" />
		<tag k="ssr:stedsnr" v="528327" />
	</node>
	<node lat="58.26813333665751" lon="6.480094436015717" id="-22071">
		<tag k="name" v="Ulveura" />
		<tag k="natural" v="scree" />
		<tag k="ssr:stedsnr" v="528394" />
	</node>
	<node lat="58.53651944367707" lon="6.663891670190686" id="-22083">
		<tag k="name" v="Stormyr" />
		<tag k="natural" v="wetland" />
		<tag k="ssr:stedsnr" v="528805" />
	</node>
	<node lat="58.479791666847625" lon="6.681877773451935" id="-22099">
		<tag k="name" v="Nodura" />
		<tag k="natural" v="scree" />
		<tag k="ssr:stedsnr" v="528903" />
	</node>
	<node lat="58.31604722011884" lon="6.571708334813417" id="-22110">
		<tag k="name" v="Lange myran" />
		<tag k="natural" v="wetland" />
		<tag k="ssr:stedsnr" v="710575" />
	</node>
	<node lat="58.38323333759958" lon="6.709536107857278" id="-22130">
		<tag k="name" v="Myra" />
		<tag k="natural" v="wetland" />
		<tag k="ssr:stedsnr" v="710651" />
	</node>
	<node lat="58.468441663259995" lon="6.839549998888515" id="-22131">
		<tag k="name" v="Ørnemyr" />
		<tag k="natural" v="wetland" />
		<tag k="ssr:stedsnr" v="710655" />
	</node>
	<node lat="58.32585555911206" lon="6.656569436091819" id="-22134">
		<tag k="name" v="Sandvollen" />
		<tag k="place" v="locality" />
		<tag k="ssr:stedsnr" v="584203" />
	</node>
	<node lat="58.33263055952635" lon="6.69680554811769" id="-22135">
		<tag k="name" v="Torekjerr" />
		<tag k="natural" v="wetland" />
		<tag k="ssr:stedsnr" v="584214" />
	</node>
	<node lat="58.512683334256394" lon="6.822811111516518" id="-22137">
		<tag k="name" v="Dabeslåta" />
		<tag k="place" v="locality" />
		<tag k="ssr:stedsnr" v="584504" />
	</node>
	<node lat="58.503830551493465" lon="6.790544439631707" id="-22153">
		<tag k="name" v="Brende bakken" />
		<tag k="place" v="locality" />
		<tag k="ssr:stedsnr" v="588105" />
	</node>
	<node lat="58.26188889072731" lon="6.620288882074855" id="-22156">
		<tag k="name" v="Eigelandsmyra" />
		<tag k="natural" v="wetland" />
		<tag k="ssr:stedsnr" v="588158" />
	</node>
	<node lat="58.42321666320566" lon="6.816024996484819" id="-22161">
		<tag k="name" v="Steinskarmyra" />
		<tag k="natural" v="wetland" />
		<tag k="ssr:stedsnr" v="588254" />
	</node>
	<node lat="58.29810833754887" lon="6.515388894231216" id="-22167">
		<tag k="name" v="Porsmyr" />
		<tag k="natural" v="wetland" />
		<tag k="ssr:stedsnr" v="588427" />
	</node>
	<node lat="58.30393610840519" lon="6.501861118540443" id="-22173">
		<tag k="name" v="Karensmyr" />
		<tag k="natural" v="wetland" />
		<tag k="ssr:stedsnr" v="588471" />
	</node>
	<node lat="58.532761108449144" lon="6.659347217387406" id="-22180">
		<tag k="name" v="Hestedalslega" />
		<tag k="natural" v="wetland" />
		<tag k="ssr:stedsnr" v="588524" />
	</node>
	<node lat="58.26680833459282" lon="6.627608325188512" id="-22192">
		<tag k="name" v="Hellermyr" />
		<tag k="natural" v="wetland" />
		<tag k="ssr:stedsnr" v="588612" />
	</node>
	<node lat="58.43817499673755" lon="6.821308336135469" id="-22196">
		<tag k="name" v="Krogemonen" />
		<tag k="natural" v="wetland" />
		<tag k="ssr:stedsnr" v="588666" />
	</node>
	<node lat="58.42497777947331" lon="6.676558336392235" id="-22199">
		<tag k="name" v="Memyr" />
		<tag k="natural" v="wetland" />
		<tag k="ssr:stedsnr" v="588807" />
	</node>
	<node lat="58.354799998449344" lon="6.633933332022466" id="-22206">
		<tag k="name" v="Dragsmyra" />
		<tag k="place" v="locality" />
		<tag k="ssr:stedsnr" v="588857" />
	</node>
	<node lat="58.45309722002213" lon="6.632027772788166" id="-22211">
		<tag k="name" v="Kregemyr" />
		<tag k="natural" v="wetland" />
		<tag k="ssr:stedsnr" v="588767" />
	</node>
	<node lat="58.4709750034023" lon="6.663377775921881" id="-22212">
		<tag k="name" v="Hellarfed" />
		<tag k="natural" v="wetland" />
		<tag k="ssr:stedsnr" v="588769" />
	</node>
	<node lat="58.41623333557845" lon="6.84002777292354" id="-22226">
		<tag k="name" v="Litle Lunden" />
		<tag k="place" v="locality" />
		<tag k="ssr:stedsnr" v="589172" />
	</node>
	<node lat="58.30396388912743" lon="6.732727772112939" id="-22231">
		<tag k="name" v="Porsmyr" />
		<tag k="place" v="locality" />
		<tag k="ssr:stedsnr" v="589717" />
	</node>
	<node lat="58.333975000616775" lon="6.720177783747948" id="-22233">
		<tag k="name" v="Floran" />
		<tag k="place" v="locality" />
		<tag k="ssr:stedsnr" v="589762" />
	</node>
	<node lat="58.33488055712484" lon="6.7349777783128575" id="-22234">
		<tag k="name" v="Skogåkeren" />
		<tag k="place" v="locality" />
		<tag k="ssr:stedsnr" v="589766" />
	</node>
	<node lat="58.478839056348605" lon="6.61032904699649" id="-22272">
		<tag k="name" v="Måvrestølen" />
		<tag k="place" v="locality" />
		<tag k="ssr:stedsnr" v="633494" />
	</node>
	<node lat="58.342786108041096" lon="6.675850003695813" id="-22274">
		<tag k="name" v="Torvmyra" />
		<tag k="natural" v="wetland" />
		<tag k="ssr:stedsnr" v="705196" />
	</node>
	<node lat="58.41608889206752" lon="6.7887666598752325" id="-22275">
		<tag k="name" v="Bjørndalsbergan" />
		<tag k="place" v="locality" />
		<tag k="ssr:stedsnr" v="705636" />
	</node>
	<node lat="58.35978888494594" lon="6.740913880888576" id="-22276">
		<tag k="name" v="Store myra" />
		<tag k="natural" v="wetland" />
		<tag k="ssr:stedsnr" v="705640" />
	</node>
	<node lat="58.36702777632267" lon="6.878158336213756" id="-22279">
		<tag k="name" v="Maurvollen" />
		<tag k="place" v="locality" />
		<tag k="ssr:stedsnr" v="705586" />
	</node>
	<node lat="58.40171111459447" lon="6.822136103594602" id="-22281">
		<tag k="name" v="Hove" />
		<tag k="natural" v="stone" />
		<tag k="ssr:stedsnr" v="706131" />
	</node>
	<node lat="58.52136666475639" lon="6.618919439404744" id="-22287">
		<tag k="name" v="Ursteinen" />
		<tag k="natural" v="stone" />
		<tag k="ssr:stedsnr" v="706240" />
	</node>
	<node lat="58.40421389215917" lon="6.788561114336429" id="-22290">
		<tag k="name" v="Pigsteinen" />
		<tag k="natural" v="stone" />
		<tag k="ssr:stedsnr" v="644499" />
	</node>
	<node lat="58.39597500202449" lon="6.806936110428123" id="-22292">
		<tag k="landuse" v="meadow" />
		<tag k="name" v="Kleivmyr" />
		<tag k="ssr:stedsnr" v="644614" />
	</node>
	<node lat="58.25798055631033" lon="6.759875001615161" id="-22296">
		<tag k="name" v="Bekkemyr" />
		<tag k="natural" v="wetland" />
		<tag k="ssr:stedsnr" v="644588" />
	</node>
	<node lat="58.3569194420948" lon="6.6168972226384986" id="-22316">
		<tag k="name" v="Nesmyran" />
		<tag k="natural" v="wetland" />
		<tag k="ssr:stedsnr" v="645924" />
	</node>
	<node lat="58.479158336321746" lon="6.802533332215591" id="-22331">
		<tag k="name" v="Moland" />
		<tag k="place" v="locality" />
		<tag k="ssr:stedsnr" v="648002" />
	</node>
	<node lat="58.500591666498536" lon="6.728438882621034" id="-22332">
		<tag k="name" v="Greftebakken" />
		<tag k="natural" v="wetland" />
		<tag k="ssr:stedsnr" v="648103" />
	</node>
	<node lat="58.494549999508756" lon="6.768763895508509" id="-22333">
		<tag k="name" v="Haugeli" />
		<tag k="natural" v="wetland" />
		<tag k="ssr:stedsnr" v="648109" />
	</node>
	<node lat="58.50077500047063" lon="6.761936107879746" id="-22335">
		<tag k="landuse" v="meadow" />
		<tag k="name" v="Nesan" />
		<tag k="ssr:stedsnr" v="648087" />
	</node>
	<node lat="58.49630833655317" lon="6.7566166688849405" id="-22336">
		<tag k="name" v="Liemyr" />
		<tag k="natural" v="wetland" />
		<tag k="ssr:stedsnr" v="648089" />
	</node>
	<node lat="58.43050832954067" lon="6.795902777576282" id="-22341">
		<tag k="name" v="Storemyr" />
		<tag k="natural" v="wetland" />
		<tag k="ssr:stedsnr" v="648412" />
	</node>
	<node lat="58.383319440492144" lon="6.884966671942159" id="-22358">
		<tag k="name" v="Langemyr" />
		<tag k="natural" v="wetland" />
		<tag k="ssr:stedsnr" v="649204" />
	</node>
	<node lat="58.422499995748225" lon="6.733075000293007" id="-22369">
		<tag k="name" v="Farligbustø" />
		<tag k="natural" v="wetland" />
		<tag k="ssr:stedsnr" v="649393" />
	</node>
	<node lat="58.42611666998162" lon="6.734691659266532" id="-22370">
		<tag k="name" v="Kringlemyr" />
		<tag k="natural" v="wetland" />
		<tag k="ssr:stedsnr" v="649394" />
	</node>
	<node lat="58.23771388505759" lon="6.552377774105416" id="-22371">
		<tag k="name" v="Lauåsmyr" />
		<tag k="natural" v="wetland" />
		<tag k="ssr:stedsnr" v="649399" />
	</node>
	<node lat="58.2548916634418" lon="6.728052779069203" id="-22379">
		<tag k="name" v="Feiformyra" />
		<tag k="natural" v="wetland" />
		<tag k="ssr:stedsnr" v="649552" />
	</node>
	<node lat="58.498155553480174" lon="6.8453027859083395" id="-22381">
		<tag k="name" v="Studemyr" />
		<tag k="natural" v="wetland" />
		<tag k="ssr:stedsnr" v="649688" />
	</node>
	<node lat="58.49224166440359" lon="6.82467499653123" id="-22385">
		<tag k="name" v="Torkildslåten" />
		<tag k="natural" v="wetland" />
		<tag k="ssr:stedsnr" v="649697" />
	</node>
	<node lat="58.288313891619495" lon="6.758608336203792" id="-22393">
		<tag k="name" v="Brunnmyra" />
		<tag k="natural" v="wetland" />
		<tag k="ssr:stedsnr" v="649851" />
	</node>
	<node lat="58.48499721961251" lon="6.787344452915324" id="-22420">
		<tag k="landuse" v="meadow" />
		<tag k="name" v="Storemyr" />
		<tag k="ssr:stedsnr" v="709047" />
	</node>
	<node lat="58.48519166613528" lon="6.81571389115526" id="-22422">
		<tag k="name" v="Skarmyr" />
		<tag k="natural" v="wetland" />
		<tag k="ssr:stedsnr" v="709054" />
	</node>
	<node lat="58.37353611476569" lon="6.85023888013844" id="-22424">
		<tag k="name" v="Rosvollen" />
		<tag k="place" v="locality" />
		<tag k="ssr:stedsnr" v="709062" />
	</node>
	<node lat="58.49132778206839" lon="6.818572226669909" id="-22459">
		<tag k="name" v="Gamlemyra" />
		<tag k="natural" v="wetland" />
		<tag k="ssr:stedsnr" v="710030" />
	</node>
	<node lat="58.49823333078388" lon="6.746394450184156" id="-22472">
		<tag k="name" v="Jomfruhola" />
		<tag k="natural" v="wetland" />
		<tag k="ssr:stedsnr" v="710075" />
	</node>
	<node lat="58.42281388565868" lon="6.788058339231086" id="-22474">
		<tag k="name" v="Midtmyr" />
		<tag k="natural" v="wetland" />
		<tag k="ssr:stedsnr" v="710284" />
	</node>
	<node lat="58.420550001674314" lon="6.792863896169892" id="-22475">
		<tag k="name" v="Hellebrokka" />
		<tag k="place" v="locality" />
		<tag k="ssr:stedsnr" v="710285" />
	</node>
	<node lat="58.35305555676844" lon="6.8096749920557516" id="-22483">
		<tag k="name" v="Kjemyr" />
		<tag k="natural" v="wetland" />
		<tag k="ssr:stedsnr" v="710395" />
	</node>
	<node lat="58.35397500005859" lon="6.709988890705232" id="-22488">
		<tag k="name" v="Skiftingsmyran" />
		<tag k="natural" v="wetland" />
		<tag k="ssr:stedsnr" v="710354" />
	</node>
	<node lat="58.299822223449496" lon="6.580444452084978" id="-22497">
		<tag k="name" v="Litle Staksmyr" />
		<tag k="natural" v="wetland" />
		<tag k="ssr:stedsnr" v="710450" />
	</node>
	<node lat="58.2949416678484" lon="6.596463895614413" id="-22498">
		<tag k="name" v="Trømyr" />
		<tag k="natural" v="wetland" />
		<tag k="ssr:stedsnr" v="710451" />
	</node>
	<node lat="58.28903333438065" lon="6.535055557243336" id="-22505">
		<tag k="name" v="Flekkedalsmyra" />
		<tag k="natural" v="wetland" />
		<tag k="ssr:stedsnr" v="710466" />
	</node>
	<node lat="58.33474999954148" lon="6.590336117191926" id="-22508">
		<tag k="name" v="Skogemyr" />
		<tag k="natural" v="wetland" />
		<tag k="ssr:stedsnr" v="710525" />
	</node>
	<node lat="58.370661108209354" lon="6.865947229698231" id="-22522">
		<tag k="name" v="Torvmyra" />
		<tag k="natural" v="wetland" />
		<tag k="ssr:stedsnr" v="892055" />
	</node>
	<node lat="58.399577779183595" lon="6.741480549191973" id="-22537">
		<tag k="name" v="Jordhola" />
		<tag k="natural" v="wetland" />
		<tag k="ssr:stedsnr" v="892292" />
	</node>
	<node lat="58.43223610728833" lon="6.760127778854439" id="-22552">
		<tag k="name" v="Skiftingsdalen" />
		<tag k="natural" v="wetland" />
		<tag k="ssr:stedsnr" v="892438" />
	</node>
	<node lat="58.25472777860825" lon="6.5661027773508485" id="-22563">
		<tag k="name" v="Bormyr" />
		<tag k="natural" v="wetland" />
		<tag k="ssr:stedsnr" v="892498" />
	</node>
	<node lat="58.26911944829389" lon="6.609013882628284" id="-22568">
		<tag k="name" v="Skuggemyr" />
		<tag k="natural" v="wetland" />
		<tag k="ssr:stedsnr" v="892574" />
	</node>
	<node lat="58.296380553493854" lon="6.741541664605985" id="-22570">
		<tag k="name" v="Myran" />
		<tag k="natural" v="wetland" />
		<tag k="ssr:stedsnr" v="892589" />
	</node>
	<node lat="58.2938944433099" lon="6.485494436177609" id="-22582">
		<tag k="name" v="Store Myra" />
		<tag k="natural" v="wetland" />
		<tag k="ssr:stedsnr" v="892710" />
	</node>
	<node lat="58.3614999964114" lon="6.695074992143128" id="-22602">
		<tag k="name" v="Moltemyr" />
		<tag k="natural" v="wetland" />
		<tag k="ssr:stedsnr" v="892818" />
	</node>
	<node lat="58.48235833694852" lon="6.631169437588175" id="-22609">
		<tag k="name" v="Snoremyr" />
		<tag k="natural" v="wetland" />
		<tag k="ssr:stedsnr" v="892728" />
	</node>
	<node lat="58.45042222147342" lon="6.647661114819731" id="-22621">
		<tag k="name" v="Litle Stemmen" />
		<tag k="natural" v="wetland" />
		<tag k="ssr:stedsnr" v="892964" />
	</node>
	<node lat="58.33665833142312" lon="6.686877781938375" id="-22635">
		<tag k="name" v="Surtemyr" />
		<tag k="natural" v="wetland" />
		<tag k="ssr:stedsnr" v="705220" />
	</node>
	<node lat="58.370136115527934" lon="6.630841668951547" id="-22641">
		<tag k="name" v="Åsmyra" />
		<tag k="natural" v="wetland" />
		<tag k="ssr:stedsnr" v="706207" />
	</node>
	<node lat="58.47127778071272" lon="6.733633341508167" id="-22644">
		<tag k="name" v="Steian" />
		<tag k="place" v="locality" />
		<tag k="ssr:stedsnr" v="706425" />
	</node>
	<node lat="58.466127779041656" lon="6.753072221925574" id="-22645">
		<tag k="name" v="Kleivs Budal" />
		<tag k="natural" v="wetland" />
		<tag k="ssr:stedsnr" v="706429" />
	</node>
	<node lat="58.42913055159011" lon="6.682744450614949" id="-22650">
		<tag k="name" v="Botnemyr" />
		<tag k="natural" v="wetland" />
		<tag k="ssr:stedsnr" v="706920" />
	</node>
	<node lat="58.48116944239927" lon="6.72474166063363" id="-22655">
		<tag k="name" v="Jeleskarmyra" />
		<tag k="natural" v="wetland" />
		<tag k="ssr:stedsnr" v="709010" />
	</node>
	<node lat="58.274224999647785" lon="6.410027777916144" id="-22673">
		<tag k="name" v="Djupa myra" />
		<tag k="natural" v="wetland" />
		<tag k="ssr:stedsnr" v="710308" />
	</node>
	<node lat="58.4250861133566" lon="6.744183341564323" id="-22678">
		<tag k="name" v="Langesteinen" />
		<tag k="natural" v="stone" />
		<tag k="ssr:stedsnr" v="710384" />
	</node>
	<node lat="58.26267777784264" lon="6.532172220421889" id="-22689">
		<tag k="name" v="Porsmyr" />
		<tag k="natural" v="wetland" />
		<tag k="ssr:stedsnr" v="710492" />
	</node>
	<node lat="58.211486111622165" lon="6.6007861127396605" id="-22707">
		<tag k="name" v="Langamyra" />
		<tag k="natural" v="wetland" />
		<tag k="ssr:stedsnr" v="710596" />
	</node>
	<node lat="58.48348610920665" lon="6.844102786068547" id="-22709">
		<tag k="name" v="Viamyra" />
		<tag k="natural" v="wetland" />
		<tag k="ssr:stedsnr" v="710706" />
	</node>
	<node lat="58.35496111171684" lon="6.639202771942111" id="-22722">
		<tag k="name" v="Langevollen" />
		<tag k="place" v="locality" />
		<tag k="ssr:stedsnr" v="710833" />
	</node>
	<node lat="58.486955555317785" lon="6.626744446925258" id="-22723">
		<tag k="name" v="Grimestølen" />
		<tag k="natural" v="wetland" />
		<tag k="ssr:stedsnr" v="710907" />
	</node>
	<node lat="58.3250194464545" lon="6.605777782931404" id="-22765">
		<tag k="name" v="Høge myran" />
		<tag k="natural" v="wetland" />
		<tag k="ssr:stedsnr" v="767147" />
	</node>
	<node lat="58.496580559497836" lon="6.645044436349407" id="-22795">
		<tag k="name" v="Bjødlemyr" />
		<tag k="natural" v="wetland" />
		<tag k="ssr:stedsnr" v="770756" />
	</node>
	<node lat="58.50337777579799" lon="6.6476999923590645" id="-22796">
		<tag k="name" v="Pininghola" />
		<tag k="natural" v="wetland" />
		<tag k="ssr:stedsnr" v="770763" />
	</node>
	<node lat="58.27811944198249" lon="6.647633328738758" id="-22805">
		<tag k="name" v="Uran" />
		<tag k="natural" v="scree" />
		<tag k="ssr:stedsnr" v="771163" />
	</node>
	<node lat="58.41982777945587" lon="6.739716662158099" id="-22808">
		<tag k="name" v="Lykkemyr" />
		<tag k="natural" v="wetland" />
		<tag k="ssr:stedsnr" v="771304" />
	</node>
	<node lat="58.20794166344112" lon="6.595702773821898" id="-22813">
		<tag k="name" v="Mågefjellmyr" />
		<tag k="natural" v="wetland" />
		<tag k="ssr:stedsnr" v="771360" />
	</node>
	<node lat="58.36316111353963" lon="6.91350554820831" id="-22817">
		<tag k="name" v="Hommenesan" />
		<tag k="place" v="locality" />
		<tag k="ssr:stedsnr" v="771262" />
	</node>
	<node lat="58.304516669428146" lon="6.50619722900782" id="-22824">
		<tag k="name" v="Store Ropemyr" />
		<tag k="natural" v="wetland" />
		<tag k="ssr:stedsnr" v="771504" />
	</node>
	<node lat="58.407650003969934" lon="6.681511110609955" id="-22833">
		<tag k="name" v="Hestmyr" />
		<tag k="natural" v="wetland" />
		<tag k="ssr:stedsnr" v="771806" />
	</node>
	<node lat="58.5104805526951" lon="6.66563056321381" id="-22839">
		<tag k="name" v="Timrehola" />
		<tag k="natural" v="wetland" />
		<tag k="ssr:stedsnr" v="771924" />
	</node>
	<node lat="58.326044443100734" lon="6.685902779581467" id="-22900">
		<tag k="name" v="Bjørntjødnmyr" />
		<tag k="natural" v="wetland" />
		<tag k="ssr:stedsnr" v="827206" />
	</node>
	<node lat="58.34149444163203" lon="6.891486109142989" id="-22905">
		<tag k="name" v="Litla Kartemyra" />
		<tag k="natural" v="wetland" />
		<tag k="ssr:stedsnr" v="827614" />
	</node>
	<node lat="58.36793611029743" lon="6.904552778133144" id="-22917">
		<tag k="name" v="Vonda fænet" />
		<tag k="natural" v="wetland" />
		<tag k="ssr:stedsnr" v="831208" />
	</node>
	<node lat="58.409572220039266" lon="6.7714583381432325" id="-22957">
		<tag k="name" v="Torvmyra" />
		<tag k="natural" v="wetland" />
		<tag k="ssr:stedsnr" v="832289" />
	</node>
	<node lat="58.35583611287606" lon="6.80916667478905" id="-22963">
		<tag k="name" v="Kjerran" />
		<tag k="place" v="locality" />
		<tag k="ssr:stedsnr" v="832414" />
	</node>
	<node lat="58.26900000297576" lon="6.579872214798192" id="-22977">
		<tag k="name" v="Litle Flåmyr" />
		<tag k="natural" v="wetland" />
		<tag k="ssr:stedsnr" v="832483" />
	</node>
	<node lat="58.39823888513892" lon="6.710761118134586" id="-22979">
		<tag k="name" v="Sølvgrova" />
		<tag k="natural" v="wetland" />
		<tag k="ssr:stedsnr" v="832494" />
	</node>
	<node lat="58.461752779614734" lon="6.660661108771171" id="-22996">
		<tag k="name" v="Høstbreislåta" />
		<tag k="place" v="locality" />
		<tag k="ssr:stedsnr" v="832994" />
	</node>
	<node lat="58.497563889168994" lon="6.657472218866898" id="-23002">
		<tag k="name" v="Nedre Stakksmyr" />
		<tag k="natural" v="wetland" />
		<tag k="ssr:stedsnr" v="832902" />
	</node>
	<node lat="58.4991083336489" lon="6.7831916676569675" id="-23051">
		<tag k="name" v="Fluseli" />
		<tag k="natural" v="wetland" />
		<tag k="ssr:stedsnr" v="892121" />
	</node>
	<node lat="58.31084999715852" lon="6.567133329429546" id="-23059">
		<tag k="name" v="Blaute myra" />
		<tag k="natural" v="wetland" />
		<tag k="ssr:stedsnr" v="892009" />
	</node>
	<node lat="58.22013610871627" lon="6.66572499205328" id="-23067">
		<tag k="name" v="Piptersteinen" />
		<tag k="natural" v="stone" />
		<tag k="ssr:stedsnr" v="892077" />
	</node>
	<node lat="58.441433335839164" lon="6.760783335708482" id="-23073">
		<tag k="name" v="Lødalsmyra" />
		<tag k="natural" v="wetland" />
		<tag k="ssr:stedsnr" v="892369" />
	</node>
	<node lat="58.44603333519524" lon="6.739558335182372" id="-23076">
		<tag k="name" v="Gullbergtoa" />
		<tag k="natural" v="wetland" />
		<tag k="ssr:stedsnr" v="892377" />
	</node>
	<node lat="58.29780277852139" lon="6.530252774270282" id="-23077">
		<tag k="name" v="Langa myra" />
		<tag k="natural" v="wetland" />
		<tag k="ssr:stedsnr" v="892506" />
	</node>
	<node lat="58.38411388693796" lon="6.713519449575146" id="-23092">
		<tag k="name" v="Hundemyr" />
		<tag k="natural" v="wetland" />
		<tag k="ssr:stedsnr" v="892617" />
	</node>
	<node lat="58.4511388894049" lon="6.861105559695725" id="-23095">
		<tag k="name" v="Nerkleivmyran" />
		<tag k="natural" v="wetland" />
		<tag k="ssr:stedsnr" v="892624" />
	</node>
	<node lat="58.38526944383977" lon="6.760644450515249" id="-23109">
		<tag k="name" v="Botnen" />
		<tag k="place" v="locality" />
		<tag k="ssr:stedsnr" v="892659" />
	</node>
	<node lat="58.478961112556476" lon="6.704966658863444" id="-23116">
		<tag k="name" v="Skrubbemyr" />
		<tag k="natural" v="wetland" />
		<tag k="ssr:stedsnr" v="892873" />
	</node>
	<node lat="58.37334167092604" lon="6.83545278510971" id="-23151">
		<tag k="name" v="Vestre Kilan" />
		<tag k="natural" v="wetland" />
		<tag k="ssr:stedsnr" v="948584" />
	</node>
	<node lat="58.35890833169401" lon="6.875736113061454" id="-23152">
		<tag k="name" v="Skaren" />
		<tag k="place" v="locality" />
		<tag k="ssr:stedsnr" v="948589" />
	</node>
	<node lat="58.47468611342544" lon="6.786472220680856" id="-23168">
		<tag k="name" v="Lynghaugen" />
		<tag k="place" v="locality" />
		<tag k="ssr:stedsnr" v="952046" />
	</node>
	<node lat="58.48463333088846" lon="6.785355562343101" id="-23169">
		<tag k="landuse" v="meadow" />
		<tag k="name" v="Monan" />
		<tag k="ssr:stedsnr" v="952053" />
	</node>
	<node lat="58.37570555958727" lon="6.8894305558926305" id="-23170">
		<tag k="name" v="Klymre" />
		<tag k="natural" v="scree" />
		<tag k="ssr:stedsnr" v="952243" />
	</node>
	<node lat="58.50229444589561" lon="6.7738694378024125" id="-23171">
		<tag k="name" v="Rydlen" />
		<tag k="place" v="locality" />
		<tag k="ssr:stedsnr" v="952119" />
	</node>
	<node lat="58.49545555849705" lon="6.804997215048098" id="-23173">
		<tag k="name" v="Tangan" />
		<tag k="natural" v="wetland" />
		<tag k="ssr:stedsnr" v="952149" />
	</node>
	<node lat="58.48731388825255" lon="6.718611103177396" id="-23175">
		<tag k="name" v="Steinstova" />
		<tag k="natural" v="stone" />
		<tag k="ssr:stedsnr" v="952153" />
	</node>
	<node lat="58.44060000192154" lon="6.753655556062494" id="-23177">
		<tag k="name" v="Kleivmyr" />
		<tag k="natural" v="wetland" />
		<tag k="ssr:stedsnr" v="952449" />
	</node>
	<node lat="58.45898889027748" lon="6.8384999928409655" id="-23178">
		<tag k="name" v="Stimyran" />
		<tag k="natural" v="wetland" />
		<tag k="ssr:stedsnr" v="952614" />
	</node>
	<node lat="58.44383888914545" lon="6.84229166006663" id="-23179">
		<tag k="name" v="Høylandsmyra" />
		<tag k="natural" v="wetland" />
		<tag k="ssr:stedsnr" v="952625" />
	</node>
	<node lat="58.24700555829638" lon="6.72659722147938" id="-23185">
		<tag k="name" v="Hestefjellmyra" />
		<tag k="natural" v="wetland" />
		<tag k="ssr:stedsnr" v="952795" />
	</node>
	<node lat="58.20758888526666" lon="6.618405559967491" id="-23193">
		<tag k="name" v="Kolmyra" />
		<tag k="natural" v="wetland" />
		<tag k="ssr:stedsnr" v="953025" />
	</node>
	<node lat="58.3657083314408" lon="6.878558333266313" id="-23206">
		<tag k="name" v="Skålandsmyr" />
		<tag k="natural" v="wetland" />
		<tag k="ssr:stedsnr" v="953229" />
	</node>
	<node lat="58.551172217893935" lon="6.690080547613501" id="-23237">
		<tag k="name" v="Slåtta" />
		<tag k="natural" v="wetland" />
		<tag k="ssr:stedsnr" v="953794" />
	</node>
	<node lat="58.481922225108086" lon="6.638508338079114" id="-23243">
		<tag k="name" v="Takholtmyr" />
		<tag k="natural" v="wetland" />
		<tag k="ssr:stedsnr" v="953908" />
	</node>
</osm>
