<?xml version="1.0" encoding="UTF-8"?>
<osm version="0.6" generator="osmapis">
	<node lat="58.2383277741134" lon="6.526119447443541" id="-20838">
		<tag k="alt_name" v="Kjøytevåg" />
		<tag k="name" v="Kjøydevåg" />
		<tag k="natural" v="bay" />
		<tag k="ssr:stedsnr" v="68" />
	</node>
	<node lat="58.22070000325853" lon="6.7194861106187025" id="-20840">
		<tag k="alt_name" v="Austre Stolsodden;Stolen, austre" />
		<tag k="name" v="Austre Stolen" />
		<tag k="natural" v="cape" />
		<tag k="ssr:stedsnr" v="161" />
	</node>
	<node lat="58.25558333437269" lon="6.502083333955407" id="-20889">
		<tag k="name" v="Hellevika" />
		<tag k="natural" v="bay" />
		<tag k="ssr:stedsnr" v="42505" />
	</node>
	<node lat="58.201575003090454" lon="6.59158334153906" id="-20920">
		<tag k="name" v="Saueholman" />
		<tag k="place" v="island" />
		<tag k="ssr:stedsnr" v="43321" />
	</node>
	<node lat="58.239305555049924" lon="6.6560722282674" id="-20933">
		<tag k="name" v="Feideodden" />
		<tag k="natural" v="cape" />
		<tag k="ssr:stedsnr" v="237962" />
	</node>
	<node lat="58.2516833365892" lon="6.369824999264927" id="-20938">
		<tag k="name" v="Kringen" />
		<tag k="natural" v="shoal" />
		<tag k="place" v="locality" />
		<tag k="ssr:stedsnr" v="240147" />
	</node>
	<node lat="58.2777027779354" lon="6.383391673063376" id="-20939">
		<tag k="bay" v="fjord" />
		<tag k="name" v="Åna" />
		<tag k="natural" v="bay" />
		<tag k="ssr:stedsnr" v="60020" />
	</node>
	<node lat="58.22447499951038" lon="6.565641670220992" id="-20945">
		<tag k="name" v="Rasvågen" />
		<tag k="natural" v="bay" />
		<tag k="ssr:stedsnr" v="61078" />
	</node>
	<node lat="58.2044666666782" lon="6.57249167255721" id="-20946">
		<tag k="alt_name" v="Høgahaugøy" />
		<tag k="name" v="Haugøya" />
		<tag k="place" v="island" />
		<tag k="ssr:stedsnr" v="61082" />
	</node>
	<node lat="58.195838892600854" lon="6.580830558085332" id="-20948">
		<tag k="name" v="Innerholmen" />
		<tag k="place" v="islet" />
		<tag k="ssr:stedsnr" v="61092" />
	</node>
	<node lat="58.2505694416742" lon="6.5379666666615" id="-20964">
		<tag k="name" v="Listranda" />
		<tag k="natural" v="beach" />
		<tag k="ssr:stedsnr" v="241094" />
	</node>
	<node lat="58.26766944799817" lon="6.463372218646169" id="-20968">
		<tag k="alt_name" v="Berrefjord" />
		<tag k="bay" v="fjord" />
		<tag k="name" v="Berefjord" />
		<tag k="natural" v="bay" />
		<tag k="ssr:stedsnr" v="243036" />
	</node>
	<node lat="58.20059722271049" lon="6.625027772377443" id="-20977">
		<tag k="name" v="Klubben" />
		<tag k="natural" v="cape" />
		<tag k="ssr:stedsnr" v="243153" />
	</node>
	<node lat="58.23520277876946" lon="6.644261118959771" id="-20983">
		<tag k="name" v="Vardnes" />
		<tag k="natural" v="cape" />
		<tag k="ssr:stedsnr" v="243128" />
	</node>
	<node lat="58.30433055208462" lon="6.664538885545175" id="-20996">
		<tag k="alt_name" v="Unes" />
		<tag k="name" v="Uenes" />
		<tag k="natural" v="cape" />
		<tag k="ssr:stedsnr" v="243480" />
	</node>
	<node lat="58.24530833320031" lon="6.567644450820831" id="-21022">
		<tag k="name" v="Bådeberget" />
		<tag k="natural" v="cape" />
		<tag k="ssr:stedsnr" v="100005" />
	</node>
	<node lat="58.221605559484445" lon="6.535180562391085" id="-21027">
		<tag k="fixme" v="multiple name tags, choose one and add the other to alt_name" />
		<tag k="name" v="Helleodden;Djupedalsodden" />
		<tag k="natural" v="cape" />
		<tag k="ssr:stedsnr" v="100361" />
	</node>
	<node lat="58.24833611275873" lon="6.694077772556813" id="-21028">
		<tag k="name" v="Vondavika" />
		<tag k="natural" v="bay" />
		<tag k="ssr:stedsnr" v="100903" />
	</node>
	<node lat="58.21521111161773" lon="6.637197215803932" id="-21030">
		<tag k="name" v="Langholmen" />
		<tag k="place" v="islet" />
		<tag k="ssr:stedsnr" v="101767" />
	</node>
	<node lat="58.19881666337487" lon="6.61985000848926" id="-21035">
		<tag k="name" v="Stoblevika" />
		<tag k="natural" v="bay" />
		<tag k="ssr:stedsnr" v="103022" />
	</node>
	<node lat="58.232697223277654" lon="6.67315000492626" id="-21043">
		<tag k="name" v="Vika" />
		<tag k="natural" v="bay" />
		<tag k="ssr:stedsnr" v="103078" />
	</node>
	<node lat="58.2555166653263" lon="6.491722215920684" id="-21054">
		<tag k="name" v="Vindskollvika" />
		<tag k="natural" v="bay" />
		<tag k="ssr:stedsnr" v="103329" />
	</node>
	<node lat="58.241977779352645" lon="6.54887222341639" id="-21055">
		<tag k="name" v="Selstø" />
		<tag k="natural" v="bay" />
		<tag k="ssr:stedsnr" v="103377" />
	</node>
	<node lat="58.2505638907787" lon="6.531080556388543" id="-21056">
		<tag k="name" v="Nappbukta" />
		<tag k="natural" v="bay" />
		<tag k="ssr:stedsnr" v="103379" />
	</node>
	<node lat="58.240255554213824" lon="6.510844437852529" id="-21059">
		<tag k="name" v="Stokholm" />
		<tag k="place" v="islet" />
		<tag k="ssr:stedsnr" v="103393" />
	</node>
	<node lat="58.23844999767917" lon="6.5251805583083815" id="-21060">
		<tag k="name" v="Langholmen" />
		<tag k="place" v="islet" />
		<tag k="ssr:stedsnr" v="103395" />
	</node>
	<node lat="58.25611388778155" lon="6.483449994641817" id="-21071">
		<tag k="alt_name" v="Djupavika" />
		<tag k="name" v="Djupa vika" />
		<tag k="natural" v="bay" />
		<tag k="ssr:stedsnr" v="103617" />
	</node>
	<node lat="58.211694446178846" lon="6.557311109479849" id="-21086">
		<tag k="name" v="Kåløysundet" />
		<tag k="natural" v="strait" />
		<tag k="ssr:stedsnr" v="103730" />
	</node>
	<node lat="58.20483611537311" lon="6.566088884351735" id="-21112">
		<tag k="name" v="Hovudflua" />
		<tag k="natural" v="shoal" />
		<tag k="place" v="locality" />
		<tag k="ssr:stedsnr" v="118664" />
	</node>
	<node lat="58.214500001404865" lon="6.538269450666303" id="-21113">
		<tag k="fixme" v="consider seamark:type=rock or natural=shoal" />
		<tag k="name" v="Tviskjera" />
		<tag k="place" v="islet" />
		<tag k="ssr:stedsnr" v="118669" />
	</node>
	<node lat="58.254152779319945" lon="6.5129305505898545" id="-21118">
		<tag k="fixme" v="multiple name tags, choose one and add the other to alt_name" />
		<tag k="name" v="Støholmane;Kjeholmen" />
		<tag k="place" v="islet" />
		<tag k="ssr:stedsnr" v="121066" />
	</node>
	<node lat="58.201608331346854" lon="6.631497218972756" id="-21129">
		<tag k="name" v="Djupevika" />
		<tag k="natural" v="bay" />
		<tag k="ssr:stedsnr" v="161801" />
	</node>
	<node lat="58.247099995586964" lon="6.693169438760716" id="-21159">
		<tag k="name" v="Raudholm" />
		<tag k="place" v="islet" />
		<tag k="ssr:stedsnr" v="164072" />
	</node>
	<node lat="58.21328888993306" lon="6.564011115219131" id="-21170">
		<tag k="name" v="Sigden" />
		<tag k="natural" v="cape" />
		<tag k="ssr:stedsnr" v="164408" />
	</node>
	<node lat="58.23582221879217" lon="6.497841673858607" id="-21176">
		<tag k="name" v="Ytre Nabben" />
		<tag k="place" v="islet" />
		<tag k="ssr:stedsnr" v="164426" />
	</node>
	<node lat="58.22994444059826" lon="6.529319440826743" id="-21177">
		<tag k="name" v="Brattholmen" />
		<tag k="place" v="islet" />
		<tag k="ssr:stedsnr" v="164483" />
	</node>
	<node lat="58.22223333696271" lon="6.527300006503422" id="-21208">
		<tag k="alt_name" v="Grønavika" />
		<tag k="name" v="Grønevika" />
		<tag k="natural" v="bay" />
		<tag k="ssr:stedsnr" v="182078" />
	</node>
	<node lat="58.229627773431794" lon="6.624555561353405" id="-21213">
		<tag k="name" v="Støytland" />
		<tag k="natural" v="cape" />
		<tag k="ssr:stedsnr" v="182122" />
	</node>
	<node lat="58.211627773447226" lon="6.63324166315557" id="-21214">
		<tag k="alt_name" v="Megåsvika" />
		<tag k="name" v="Mekjervågen" />
		<tag k="natural" v="bay" />
		<tag k="ssr:stedsnr" v="182152" />
	</node>
	<node lat="58.254649996063584" lon="6.699905553947672" id="-21237">
		<tag k="name" v="Litlevika" />
		<tag k="natural" v="bay" />
		<tag k="ssr:stedsnr" v="222913" />
	</node>
	<node lat="58.24758531804362" lon="6.5057335598904515" id="-21325">
		<tag k="name" v="Kådøyflua" />
		<tag k="natural" v="shoal" />
		<tag k="place" v="locality" />
		<tag k="ssr:stedsnr" v="240937" />
	</node>
	<node lat="58.223488891248614" lon="6.653758341419335" id="-21363">
		<tag k="alt_name" v="Hummarvika" />
		<tag k="name" v="Hummervika" />
		<tag k="natural" v="bay" />
		<tag k="ssr:stedsnr" v="285095" />
	</node>
	<node lat="58.26878610703747" lon="6.406266660570171" id="-21366">
		<tag k="fixme" v="consider seamark:type=rock or natural=shoal" />
		<tag k="name" v="Skinanskjæran" />
		<tag k="place" v="islet" />
		<tag k="ssr:stedsnr" v="285298" />
	</node>
	<node lat="58.226830558246036" lon="6.531988892673753" id="-21371">
		<tag k="alt_name" v="Lindholmen" />
		<tag k="name" v="Lindøy" />
		<tag k="place" v="island" />
		<tag k="ssr:stedsnr" v="285409" />
	</node>
	<node lat="58.27485833724727" lon="6.38462778167729" id="-21432">
		<tag k="name" v="Sandvika" />
		<tag k="natural" v="bay" />
		<tag k="ssr:stedsnr" v="463290" />
	</node>
	<node lat="58.238197224403066" lon="6.649586103303679" id="-21438">
		<tag k="name" v="Skipevika" />
		<tag k="natural" v="bay" />
		<tag k="ssr:stedsnr" v="298946" />
	</node>
	<node lat="58.19915000258615" lon="6.586975004307941" id="-21456">
		<tag k="alt_name" v="Skarveskjær;Skarveskjeret" />
		<tag k="fixme" v="consider seamark:type=rock or natural=shoal" />
		<tag k="name" v="Skarveskjer" />
		<tag k="place" v="islet" />
		<tag k="ssr:stedsnr" v="303108" />
	</node>
	<node lat="58.234749999311596" lon="6.558263880575216" id="-21469">
		<tag k="name" v="Eidsholmen" />
		<tag k="natural" v="cape" />
		<tag k="ssr:stedsnr" v="464724" />
	</node>
	<node lat="58.241030556773325" lon="6.5743083305556596" id="-21470">
		<tag k="name" v="Seltebåodden" />
		<tag k="natural" v="cape" />
		<tag k="ssr:stedsnr" v="464726" />
	</node>
	<node lat="58.23731944190595" lon="6.611730558938272" id="-21478">
		<tag k="alt_name" v="Launes" />
		<tag k="name" v="Lauvnes" />
		<tag k="natural" v="cape" />
		<tag k="ssr:stedsnr" v="467041" />
	</node>
	<node lat="58.28994166594181" lon="6.651086107246146" id="-21484">
		<tag k="name" v="Duenes" />
		<tag k="natural" v="cape" />
		<tag k="ssr:stedsnr" v="467111" />
	</node>
	<node lat="58.29426944184872" lon="6.646844443122075" id="-21496">
		<tag k="name" v="Tjørsvågstrand" />
		<tag k="natural" v="beach" />
		<tag k="ssr:stedsnr" v="467099" />
	</node>
	<node lat="58.259163885453" lon="6.669838884591555" id="-21498">
		<tag k="name" v="Langenes" />
		<tag k="natural" v="cape" />
		<tag k="ssr:stedsnr" v="467184" />
	</node>
	<node lat="58.2542388931902" lon="6.509144440513003" id="-21510">
		<tag k="name" v="Gule holmen" />
		<tag k="place" v="islet" />
		<tag k="ssr:stedsnr" v="467386" />
	</node>
	<node lat="58.253827776460334" lon="6.519230547841806" id="-21631">
		<tag k="name" v="Springflua" />
		<tag k="natural" v="shoal" />
		<tag k="place" v="locality" />
		<tag k="ssr:stedsnr" v="343006" />
	</node>
	<node lat="58.223822225401484" lon="6.532938889391765" id="-21632">
		<tag k="name" v="Litle Grotøya" />
		<tag k="place" v="islet" />
		<tag k="ssr:stedsnr" v="343775" />
	</node>
	<node lat="58.20769722009424" lon="6.5824055548135645" id="-21633">
		<tag k="name" v="Nesvika" />
		<tag k="natural" v="bay" />
		<tag k="ssr:stedsnr" v="343700" />
	</node>
	<node lat="58.30964166952497" lon="6.660902772397542" id="-21650">
		<tag k="name" v="Grisen" />
		<tag k="place" v="islet" />
		<tag k="ssr:stedsnr" v="345705" />
	</node>
	<node lat="58.28432499998383" lon="6.665930549632608" id="-21667">
		<tag k="name" v="Kyrodden" />
		<tag k="natural" v="cape" />
		<tag k="ssr:stedsnr" v="346121" />
	</node>
	<node lat="58.26460833643186" lon="6.646894438092643" id="-21669">
		<tag k="name" v="Byggvika" />
		<tag k="natural" v="bay" />
		<tag k="ssr:stedsnr" v="346155" />
	</node>
	<node lat="58.26713332901856" lon="6.6589944447660985" id="-21672">
		<tag k="name" v="Pollsundet" />
		<tag k="natural" v="strait" />
		<tag k="ssr:stedsnr" v="346163" />
	</node>
	<node lat="58.3035055560282" lon="6.671586110223349" id="-21675">
		<tag k="name" v="Austadvika" />
		<tag k="natural" v="bay" />
		<tag k="ssr:stedsnr" v="345856" />
	</node>
	<node lat="58.23692500041979" lon="6.700702786007791" id="-21679">
		<tag k="name" v="Byttingsvika" />
		<tag k="natural" v="bay" />
		<tag k="ssr:stedsnr" v="346062" />
	</node>
	<node lat="58.23311111361922" lon="6.703647218743812" id="-21681">
		<tag k="name" v="Hagevika" />
		<tag k="natural" v="bay" />
		<tag k="ssr:stedsnr" v="346073" />
	</node>
	<node lat="58.24849722570692" lon="6.54622499672499" id="-21686">
		<tag k="name" v="Dåtlandstrånda" />
		<tag k="natural" v="beach" />
		<tag k="ssr:stedsnr" v="346369" />
	</node>
	<node lat="58.24409722058804" lon="6.52775832497785" id="-21697">
		<tag k="name" v="Kvalsvika" />
		<tag k="natural" v="bay" />
		<tag k="ssr:stedsnr" v="346410" />
	</node>
	<node lat="58.23763055832721" lon="6.649455563661105" id="-21733">
		<tag k="name" v="Sildeneset" />
		<tag k="natural" v="cape" />
		<tag k="ssr:stedsnr" v="358957" />
	</node>
	<node lat="58.240463888605355" lon="6.666783329602223" id="-21734">
		<tag k="name" v="Draumneset" />
		<tag k="natural" v="cape" />
		<tag k="ssr:stedsnr" v="358960" />
	</node>
	<node lat="58.23153055782878" lon="6.6580305577240155" id="-21738">
		<tag k="fixme" v="multiple name tags, choose one and add the other to alt_name" />
		<tag k="name" v="Engelsholmen;Holmengrå" />
		<tag k="place" v="islet" />
		<tag k="ssr:stedsnr" v="364150" />
	</node>
	<node lat="58.212775001599155" lon="6.534250000009805" id="-21741">
		<tag k="fixme" v="consider seamark:type=rock or natural=shoal" />
		<tag k="name" v="Matkoven" />
		<tag k="place" v="islet" />
		<tag k="ssr:stedsnr" v="364108" />
	</node>
	<node lat="58.252438887412225" lon="6.6718194401745246" id="-21746">
		<tag k="name" v="Olsøy" />
		<tag k="place" v="island" />
		<tag k="ssr:stedsnr" v="364300" />
	</node>
	<node lat="58.270486110194234" lon="6.646441661025207" id="-21750">
		<tag k="name" v="Fjellsebukta" />
		<tag k="natural" v="bay" />
		<tag k="ssr:stedsnr" v="480885" />
	</node>
	<node lat="58.215088888385225" lon="6.564297216582427" id="-21751">
		<tag k="name" v="Breidlia" />
		<tag k="natural" v="bay" />
		<tag k="ssr:stedsnr" v="482672" />
	</node>
	<node lat="58.249458337370655" lon="6.676463889843115" id="-21769">
		<tag k="name" v="Austre Bjørnøy" />
		<tag k="place" v="island" />
		<tag k="ssr:stedsnr" v="485239" />
	</node>
	<node lat="58.25107221879621" lon="6.521211110597133" id="-21784">
		<tag k="name" v="Stavflua" />
		<tag k="natural" v="shoal" />
		<tag k="place" v="locality" />
		<tag k="ssr:stedsnr" v="404011" />
	</node>
	<node lat="58.24332777900261" lon="6.583591663162906" id="-21785">
		<tag k="name" v="Skiftingdalodden" />
		<tag k="natural" v="cape" />
		<tag k="ssr:stedsnr" v="404012" />
	</node>
	<node lat="58.26538610986693" lon="6.657830548510962" id="-21786">
		<tag k="alt_name" v="Store Torsøya" />
		<tag k="name" v="Torsøy" />
		<tag k="place" v="island" />
		<tag k="ssr:stedsnr" v="404413" />
	</node>
	<node lat="58.25346944263841" lon="6.698772227479475" id="-21787">
		<tag k="name" v="Grunnevika" />
		<tag k="natural" v="bay" />
		<tag k="ssr:stedsnr" v="404921" />
	</node>
	<node lat="58.25629999807682" lon="6.518125006868777" id="-21825">
		<tag k="name" v="Roholmen" />
		<tag k="place" v="islet" />
		<tag k="ssr:stedsnr" v="407402" />
	</node>
	<node lat="58.20976111395454" lon="6.564105550009539" id="-21831">
		<tag k="name" v="Vestre Utfallsund" />
		<tag k="natural" v="strait" />
		<tag k="ssr:stedsnr" v="407349" />
	</node>
	<node lat="58.20896944246799" lon="6.581961113110647" id="-21832">
		<tag k="name" v="Sandvika" />
		<tag k="natural" v="bay" />
		<tag k="ssr:stedsnr" v="407350" />
	</node>
	<node lat="58.24113055420599" lon="6.567769445201706" id="-21834">
		<tag k="alt_name" v="Sønnevik" />
		<tag k="name" v="Sundevika" />
		<tag k="natural" v="bay" />
		<tag k="ssr:stedsnr" v="407392" />
	</node>
	<node lat="58.240372222874974" lon="6.556388893429369" id="-21835">
		<tag k="name" v="Vågen" />
		<tag k="natural" v="bay" />
		<tag k="ssr:stedsnr" v="407393" />
	</node>
	<node lat="58.240969440230565" lon="6.570597220533297" id="-21864">
		<tag k="name" v="Svartaberget" />
		<tag k="natural" v="cape" />
		<tag k="ssr:stedsnr" v="421542" />
	</node>
	<node lat="58.20644166395309" lon="6.571394443519852" id="-21871">
		<tag k="alt_name" v="Husøya" />
		<tag k="name" v="Husøy" />
		<tag k="place" v="islet" />
		<tag k="ssr:stedsnr" v="425096" />
	</node>
	<node lat="58.21627221782128" lon="6.719330548800932" id="-21873">
		<tag k="bay" v="fjord" />
		<tag k="name" v="Fedafjorden" />
		<tag k="natural" v="bay" />
		<tag k="ssr:stedsnr" v="425118" />
	</node>
	<node lat="58.19648055965972" lon="6.592288881980793" id="-21902">
		<tag k="name" v="Sjonga" />
		<tag k="place" v="locality" />
		<tag k="seamark:type" v="rock" />
		<tag k="ssr:stedsnr" v="464665" />
	</node>
	<node lat="58.23312500360805" lon="6.6192583300197185" id="-21903">
		<tag k="name" v="Kråkenes" />
		<tag k="natural" v="cape" />
		<tag k="ssr:stedsnr" v="674689" />
	</node>
	<node lat="58.21822222036644" lon="6.654397225634231" id="-21915">
		<tag k="name" v="Skipsvika" />
		<tag k="natural" v="bay" />
		<tag k="ssr:stedsnr" v="467079" />
	</node>
	<node lat="58.22487222142263" lon="6.531916660314769" id="-21927">
		<tag k="alt_name" v="Store Grotøya" />
		<tag k="name" v="Grotøy" />
		<tag k="place" v="island" />
		<tag k="ssr:stedsnr" v="467422" />
	</node>
	<node lat="58.23439722550408" lon="6.509452776583063" id="-21939">
		<tag k="name" v="Indre Nabben" />
		<tag k="natural" v="cape" />
		<tag k="ssr:stedsnr" v="467373" />
	</node>
	<node lat="58.24838610882893" lon="6.664183337569983" id="-21981">
		<tag k="name" v="Bolshussundet" />
		<tag k="natural" v="strait" />
		<tag k="ssr:stedsnr" v="480880" />
	</node>
	<node lat="58.28341944280646" lon="6.669177776612348" id="-21983">
		<tag k="name" v="Raudlibukta" />
		<tag k="natural" v="bay" />
		<tag k="ssr:stedsnr" v="481174" />
	</node>
	<node lat="58.2231611101595" lon="6.712344448643012" id="-21985">
		<tag k="alt_name" v="Vestre Stolsodden;Stolen, vestre" />
		<tag k="name" v="Vestre Stolen" />
		<tag k="natural" v="cape" />
		<tag k="ssr:stedsnr" v="485120" />
	</node>
	<node lat="58.22593611433187" lon="6.641052784941837" id="-21986">
		<tag k="bay" v="fjord" />
		<tag k="name" v="Strandsfjorden" />
		<tag k="natural" v="bay" />
		<tag k="ssr:stedsnr" v="485127" />
	</node>
	<node lat="58.22045555864112" lon="6.515972224073859" id="-21990">
		<tag k="alt_name" v="Guleodden" />
		<tag k="name" v="Gulodden" />
		<tag k="natural" v="cape" />
		<tag k="ssr:stedsnr" v="485081" />
	</node>
	<node lat="58.23785832987513" lon="6.560094440331085" id="-22030">
		<tag k="name" v="Eidekanalen" />
		<tag k="natural" v="strait" />
		<tag k="ssr:stedsnr" v="525712" />
	</node>
	<node lat="58.23795277455913" lon="6.601150001452919" id="-22031">
		<tag k="name" v="Kunesbukta" />
		<tag k="natural" v="bay" />
		<tag k="ssr:stedsnr" v="525717" />
	</node>
	<node lat="58.25910277433194" lon="6.682330553183275" id="-22032">
		<tag k="name" v="Borkneholet" />
		<tag k="natural" v="bay" />
		<tag k="ssr:stedsnr" v="525906" />
	</node>
	<node lat="58.30912499920771" lon="6.664027776382839" id="-22043">
		<tag k="name" v="Sagodden" />
		<tag k="natural" v="cape" />
		<tag k="ssr:stedsnr" v="527725" />
	</node>
	<node lat="58.23916944770001" lon="6.663100000799886" id="-22056">
		<tag k="name" v="Sauholmen" />
		<tag k="place" v="islet" />
		<tag k="ssr:stedsnr" v="528075" />
	</node>
	<node lat="58.259669448382354" lon="6.664958333912521" id="-22060">
		<tag k="name" v="Djupvikbukta" />
		<tag k="natural" v="bay" />
		<tag k="ssr:stedsnr" v="528180" />
	</node>
	<node lat="58.20761111479" lon="6.550575002995668" id="-22064">
		<tag k="name" v="Midtodden" />
		<tag k="place" v="islet" />
		<tag k="ssr:stedsnr" v="528378" />
	</node>
	<node lat="58.20230000134264" lon="6.573275003961285" id="-22068">
		<tag k="name" v="Tinnan" />
		<tag k="place" v="islet" />
		<tag k="ssr:stedsnr" v="528388" />
	</node>
	<node lat="58.24997222566573" lon="6.528019444808592" id="-22112">
		<tag k="alt_name" v="Nappodden" />
		<tag k="name" v="Napp" />
		<tag k="natural" v="cape" />
		<tag k="ssr:stedsnr" v="546080" />
	</node>
	<node lat="58.24378333181745" lon="6.492252777092014" id="-22113">
		<tag k="alt_name" v="Svertingan" />
		<tag k="fixme" v="consider seamark:type=rock or natural=shoal" />
		<tag k="name" v="Svertingane" />
		<tag k="place" v="islet" />
		<tag k="ssr:stedsnr" v="546083" />
	</node>
	<node lat="58.21681666422416" lon="6.534941662994099" id="-22116">
		<tag k="alt_name" v="Kjellnes" />
		<tag k="name" v="Kjellenes" />
		<tag k="natural" v="cape" />
		<tag k="ssr:stedsnr" v="546105" />
	</node>
	<node lat="58.25961944480823" lon="6.679569452880356" id="-22128">
		<tag k="bay" v="fjord" />
		<tag k="name" v="Vollesfjorden" />
		<tag k="natural" v="bay" />
		<tag k="ssr:stedsnr" v="710644" />
	</node>
	<node lat="58.235750001616594" lon="6.522877771653954" id="-22147">
		<tag k="name" v="Lyngnes" />
		<tag k="natural" v="cape" />
		<tag k="ssr:stedsnr" v="585711" />
	</node>
	<node lat="58.22717222668671" lon="6.5665861124425255" id="-22148">
		<tag k="name" v="Innerstøbukta" />
		<tag k="natural" v="bay" />
		<tag k="ssr:stedsnr" v="585694" />
	</node>
	<node lat="58.251797221608555" lon="6.698513896583649" id="-22150">
		<tag k="name" v="Hepte" />
		<tag k="natural" v="bay" />
		<tag k="ssr:stedsnr" v="588073" />
	</node>
	<node lat="58.2068916685791" lon="6.582386118044687" id="-22160">
		<tag k="name" v="Neset" />
		<tag k="natural" v="cape" />
		<tag k="ssr:stedsnr" v="588318" />
	</node>
	<node lat="58.24093055605612" lon="6.518630558719222" id="-22178">
		<tag k="name" v="Kjøydeflåna" />
		<tag k="natural" v="bay" />
		<tag k="ssr:stedsnr" v="588513" />
	</node>
	<node lat="58.29304444538794" lon="6.661427782894861" id="-22246">
		<tag k="name" v="Lauvika" />
		<tag k="natural" v="bay" />
		<tag k="ssr:stedsnr" v="603122" />
	</node>
	<node lat="58.21337777892387" lon="6.654344446745152" id="-22247">
		<tag k="name" v="Øvre Sandvikodden" />
		<tag k="natural" v="cape" />
		<tag k="ssr:stedsnr" v="603401" />
	</node>
	<node lat="58.204961107846074" lon="6.568072226902328" id="-22248">
		<tag k="name" v="Kobben" />
		<tag k="natural" v="shoal" />
		<tag k="place" v="locality" />
		<tag k="ssr:stedsnr" v="603655" />
	</node>
	<node lat="58.24284444799707" lon="6.5063611075000045" id="-22254">
		<tag k="alt_name" v="Kådøy" />
		<tag k="name" v="Kådøya" />
		<tag k="place" v="island" />
		<tag k="ssr:stedsnr" v="606076" />
	</node>
	<node lat="58.27343333583832" lon="6.386258335311681" id="-22285">
		<tag k="fixme" v="consider seamark:type=rock or natural=shoal" />
		<tag k="name" v="Kodneskjæret" />
		<tag k="place" v="islet" />
		<tag k="ssr:stedsnr" v="706297" />
	</node>
	<node lat="58.276330558277145" lon="6.3798805592059775" id="-22305">
		<tag k="alt_name" v="Egderholmen" />
		<tag k="name" v="Egdeholmen" />
		<tag k="place" v="islet" />
		<tag k="ssr:stedsnr" v="645284" />
	</node>
	<node lat="58.22074722009247" lon="6.510622223440269" id="-22315">
		<tag k="name" v="Skårodden" />
		<tag k="natural" v="cape" />
		<tag k="ssr:stedsnr" v="706626" />
	</node>
	<node lat="58.257752777767976" lon="6.675822217093387" id="-22320">
		<tag k="fixme" v="multiple name tags, choose one and add the other to alt_name" />
		<tag k="name" v="Markenesodden;Austre Langenesodden" />
		<tag k="natural" v="cape" />
		<tag k="ssr:stedsnr" v="646136" />
	</node>
	<node lat="58.23206666731316" lon="6.518788888720747" id="-22322">
		<tag k="name" v="Stegleflua" />
		<tag k="place" v="locality" />
		<tag k="seamark:type" v="rock" />
		<tag k="ssr:stedsnr" v="646714" />
	</node>
	<node lat="58.203763886974436" lon="6.630944451159907" id="-22323">
		<tag k="name" v="Skudeneset" />
		<tag k="natural" v="cape" />
		<tag k="ssr:stedsnr" v="646791" />
	</node>
	<node lat="58.213583330881626" lon="6.6361972276335655" id="-22330">
		<tag k="name" v="Ytreholmen" />
		<tag k="place" v="islet" />
		<tag k="ssr:stedsnr" v="647785" />
	</node>
	<node lat="58.23420277960743" lon="6.665147215488527" id="-22352">
		<tag k="name" v="Risholmen" />
		<tag k="place" v="islet" />
		<tag k="ssr:stedsnr" v="649086" />
	</node>
	<node lat="58.289680556646246" lon="6.660127770697619" id="-22353">
		<tag k="name" v="Skottevika" />
		<tag k="natural" v="bay" />
		<tag k="ssr:stedsnr" v="649113" />
	</node>
	<node lat="58.286430554793256" lon="6.653913893363497" id="-22356">
		<tag k="name" v="Holmesundet" />
		<tag k="natural" v="strait" />
		<tag k="ssr:stedsnr" v="649132" />
	</node>
	<node lat="58.22489166562304" lon="6.561936113878081" id="-22360">
		<tag k="name" v="Vågsholman" />
		<tag k="place" v="island" />
		<tag k="ssr:stedsnr" v="649436" />
	</node>
	<node lat="58.21415277831483" lon="6.580208340805111" id="-22362">
		<tag k="name" v="Veisevågen" />
		<tag k="natural" v="bay" />
		<tag k="ssr:stedsnr" v="649442" />
	</node>
	<node lat="58.20922777345643" lon="6.551130556558315" id="-22365">
		<tag k="name" v="Sandsundholmen" />
		<tag k="place" v="islet" />
		<tag k="ssr:stedsnr" v="649342" />
	</node>
	<node lat="58.300383336629764" lon="6.6651777717722265" id="-22397">
		<tag k="name" v="Dannevika" />
		<tag k="natural" v="bay" />
		<tag k="ssr:stedsnr" v="649739" />
	</node>
	<node lat="58.24098055649295" lon="6.52341667137998" id="-22414">
		<tag k="name" v="Rasen" />
		<tag k="natural" v="cape" />
		<tag k="ssr:stedsnr" v="707745" />
	</node>
	<node lat="58.23695833226655" lon="6.524002775956898" id="-22415">
		<tag k="fixme" v="consider seamark:type=rock or natural=shoal" />
		<tag k="name" v="Otreskjera" />
		<tag k="place" v="islet" />
		<tag k="ssr:stedsnr" v="707748" />
	</node>
	<node lat="58.25547500441229" lon="6.6864388963023" id="-22416">
		<tag k="name" v="Svaberget" />
		<tag k="natural" v="cape" />
		<tag k="ssr:stedsnr" v="707923" />
	</node>
	<node lat="58.25865833472918" lon="6.656330547476619" id="-22429">
		<tag k="name" v="Håsundet" />
		<tag k="natural" v="strait" />
		<tag k="ssr:stedsnr" v="709624" />
	</node>
	<node lat="58.235038886481604" lon="6.51937777246292" id="-22437">
		<tag k="alt_name" v="Store Brattøya" />
		<tag k="name" v="Brattøy" />
		<tag k="place" v="islet" />
		<tag k="ssr:stedsnr" v="667109" />
	</node>
	<node lat="58.229791663242025" lon="6.500261112193218" id="-22438">
		<tag k="alt_name" v="Rossøya" />
		<tag k="name" v="Rossøy" />
		<tag k="old_name" v="Rassøy" />
		<tag k="place" v="island" />
		<tag k="ssr:stedsnr" v="667110" />
	</node>
	<node lat="58.22244722113609" lon="6.513374992250291" id="-22443">
		<tag k="alt_name" v="Håvåg" />
		<tag k="name" v="Håvågen" />
		<tag k="natural" v="bay" />
		<tag k="ssr:stedsnr" v="667125" />
	</node>
	<node lat="58.22827499778761" lon="6.656708332593428" id="-22452">
		<tag k="name" v="Lusevika" />
		<tag k="natural" v="bay" />
		<tag k="ssr:stedsnr" v="710089" />
	</node>
	<node lat="58.198033334861925" lon="6.609130562120258" id="-22460">
		<tag k="alt_name" v="Hopmannen" />
		<tag k="fixme" v="consider seamark:type=rock or natural=shoal" />
		<tag k="name" v="Hobmannen" />
		<tag k="place" v="islet" />
		<tag k="ssr:stedsnr" v="710032" />
	</node>
	<node lat="58.240225003060765" lon="6.664083330426349" id="-22468">
		<tag k="name" v="Stampen" />
		<tag k="natural" v="bay" />
		<tag k="ssr:stedsnr" v="710071" />
	</node>
	<node lat="58.23060833114356" lon="6.676002781965516" id="-22471">
		<tag k="name" v="Hølen" />
		<tag k="natural" v="bay" />
		<tag k="ssr:stedsnr" v="710074" />
	</node>
	<node lat="58.21167499732979" lon="6.544452774731385" id="-22485">
		<tag k="alt_name" v="Duenes" />
		<tag k="name" v="Dunes" />
		<tag k="natural" v="cape" />
		<tag k="ssr:stedsnr" v="710342" />
	</node>
	<node lat="58.26159444878313" lon="6.471483329979694" id="-22491">
		<tag k="name" v="Flata vika" />
		<tag k="natural" v="bay" />
		<tag k="ssr:stedsnr" v="710361" />
	</node>
	<node lat="58.29346944117122" lon="6.649152778995839" id="-22516">
		<tag k="name" v="Tjørsvågbukta" />
		<tag k="natural" v="bay" />
		<tag k="old_name" v="Tjørsvågvika" />
		<tag k="ssr:stedsnr" v="892091" />
	</node>
	<node lat="58.237663892069854" lon="6.603055560843331" id="-22520">
		<tag k="alt_name" v="Kuneset" />
		<tag k="name" v="Kunes" />
		<tag k="natural" v="cape" />
		<tag k="ssr:stedsnr" v="892051" />
	</node>
	<node lat="58.26286944161742" lon="6.678841670861811" id="-22524">
		<tag k="name" v="Skutevikodden" />
		<tag k="natural" v="cape" />
		<tag k="ssr:stedsnr" v="892188" />
	</node>
	<node lat="58.214394445783135" lon="6.578250008028748" id="-22530">
		<tag k="name" v="Lille Kjerkesund" />
		<tag k="natural" v="strait" />
		<tag k="ssr:stedsnr" v="892326" />
	</node>
	<node lat="58.268247226171894" lon="6.4183416625611605" id="-22535">
		<tag k="name" v="Lindevika" />
		<tag k="natural" v="bay" />
		<tag k="ssr:stedsnr" v="892290" />
	</node>
	<node lat="58.254391665512024" lon="6.50741667160799" id="-22564">
		<tag k="name" v="Håsundet" />
		<tag k="natural" v="strait" />
		<tag k="ssr:stedsnr" v="892500" />
	</node>
	<node lat="58.305972218385996" lon="6.670502784885147" id="-22628">
		<tag k="name" v="Gunnarstø" />
		<tag k="natural" v="beach" />
		<tag k="ssr:stedsnr" v="893724" />
	</node>
	<node lat="58.232708335987915" lon="6.560463888725418" id="-22651">
		<tag k="name" v="Kjerringodden" />
		<tag k="natural" v="cape" />
		<tag k="ssr:stedsnr" v="707722" />
	</node>
	<node lat="58.20866944861148" lon="6.6537861171772335" id="-22652">
		<tag k="name" v="Petterholet" />
		<tag k="natural" v="bay" />
		<tag k="ssr:stedsnr" v="708769" />
	</node>
	<node lat="58.218341664196416" lon="6.636444449041422" id="-22653">
		<tag k="fixme" v="consider seamark:type=rock or natural=shoal" />
		<tag k="name" v="Prinsen" />
		<tag k="place" v="islet" />
		<tag k="ssr:stedsnr" v="708771" />
	</node>
	<node lat="58.22099722272445" lon="6.654344451389482" id="-22664">
		<tag k="name" v="Djupavika" />
		<tag k="natural" v="bay" />
		<tag k="ssr:stedsnr" v="710085" />
	</node>
	<node lat="58.24833055142517" lon="6.550180550362103" id="-22677">
		<tag k="name" v="Botnastrånda" />
		<tag k="natural" v="bay" />
		<tag k="ssr:stedsnr" v="710381" />
	</node>
	<node lat="58.233827777743244" lon="6.6764500052533995" id="-22730">
		<tag k="fixme" v="consider seamark:type=rock or natural=shoal" />
		<tag k="name" v="Åleskjera" />
		<tag k="place" v="islet" />
		<tag k="ssr:stedsnr" v="725442" />
	</node>
	<node lat="58.208044445123875" lon="6.566938887746591" id="-22740">
		<tag k="alt_name" v="Urstadøy" />
		<tag k="name" v="Urstadøya" />
		<tag k="place" v="island" />
		<tag k="ssr:stedsnr" v="728072" />
	</node>
	<node lat="58.21595833746431" lon="6.566466666218024" id="-22770">
		<tag k="name" v="Breidliholmen" />
		<tag k="place" v="islet" />
		<tag k="ssr:stedsnr" v="767642" />
	</node>
	<node lat="58.24526388767647" lon="6.5287749939540545" id="-22822">
		<tag k="name" v="Kvalsberget" />
		<tag k="natural" v="cape" />
		<tag k="ssr:stedsnr" v="771411" />
	</node>
	<node lat="58.238400002694476" lon="6.500811114277176" id="-22856">
		<tag k="alt_name" v="Prestøy" />
		<tag k="name" v="Prestøya" />
		<tag k="place" v="island" />
		<tag k="ssr:stedsnr" v="910090" />
	</node>
	<node lat="58.21855277835533" lon="6.5725222181945995" id="-22874">
		<tag k="name" v="Vaulevika" />
		<tag k="natural" v="bay" />
		<tag k="ssr:stedsnr" v="785651" />
	</node>
	<node lat="58.22125555818431" lon="6.56673611013626" id="-22875">
		<tag k="name" v="Snekkerodden" />
		<tag k="natural" v="cape" />
		<tag k="ssr:stedsnr" v="785652" />
	</node>
	<node lat="58.2220833307381" lon="6.6533083256068375" id="-22876">
		<tag k="alt_name" v="Hummervikodden, ned" />
		<tag k="name" v="Nedre Hummarvikodden" />
		<tag k="natural" v="cape" />
		<tag k="ssr:stedsnr" v="786517" />
	</node>
	<node lat="58.26359999927486" lon="6.460277781104823" id="-22880">
		<tag k="name" v="Holmen" />
		<tag k="place" v="islet" />
		<tag k="ssr:stedsnr" v="788054" />
	</node>
	<node lat="58.24047499974685" lon="6.634744436529492" id="-22886">
		<tag k="name" v="Kvellandstranda" />
		<tag k="natural" v="beach" />
		<tag k="ssr:stedsnr" v="789105" />
	</node>
	<node lat="58.20933610693433" lon="6.581238892036789" id="-22910">
		<tag k="name" v="Eikenesodden" />
		<tag k="natural" v="cape" />
		<tag k="ssr:stedsnr" v="829679" />
	</node>
	<node lat="58.20146110935419" lon="6.592852776507592" id="-22911">
		<tag k="name" v="Påskeflua" />
		<tag k="place" v="locality" />
		<tag k="seamark:type" v="rock" />
		<tag k="ssr:stedsnr" v="829688" />
	</node>
	<node lat="58.265094444229085" lon="6.659294443192835" id="-22944">
		<tag k="name" v="Pollen" />
		<tag k="natural" v="bay" />
		<tag k="ssr:stedsnr" v="832183" />
	</node>
	<node lat="58.25248889107983" lon="6.525722216945524" id="-22962">
		<tag k="name" v="Vidhalsbukta" />
		<tag k="natural" v="bay" />
		<tag k="ssr:stedsnr" v="832412" />
	</node>
	<node lat="58.25529166878212" lon="6.5167694475229885" id="-22965">
		<tag k="name" v="Ospeholmen" />
		<tag k="place" v="islet" />
		<tag k="ssr:stedsnr" v="832416" />
	</node>
	<node lat="58.26211667084582" lon="6.468544448237654" id="-22968">
		<tag k="name" v="Skarpodden" />
		<tag k="natural" v="cape" />
		<tag k="ssr:stedsnr" v="832381" />
	</node>
	<node lat="58.26660555305983" lon="6.460388891133139" id="-22970">
		<tag k="name" v="Neset" />
		<tag k="natural" v="cape" />
		<tag k="ssr:stedsnr" v="832392" />
	</node>
	<node lat="58.4442138848112" lon="6.636150002768179" id="-22994">
		<tag k="name" v="Støå" />
		<tag k="natural" v="beach" />
		<tag k="ssr:stedsnr" v="832983" />
	</node>
	<node lat="58.20865000387105" lon="6.563086118684814" id="-23003">
		<tag k="name" v="Utfallsundet" />
		<tag k="natural" v="strait" />
		<tag k="ssr:stedsnr" v="846672" />
	</node>
	<node lat="58.22469722271571" lon="6.578722215341166" id="-23009">
		<tag k="name" v="Hidra" />
		<tag k="place" v="island" />
		<tag k="ssr:stedsnr" v="850104" />
	</node>
	<node lat="58.194316664363214" lon="6.613652782654308" id="-23010">
		<tag k="bay" v="fjord" />
		<tag k="name" v="Listafjorden" />
		<tag k="natural" v="bay" />
		<tag k="ssr:stedsnr" v="850111" />
	</node>
	<node lat="58.256838888547875" lon="6.476161119217983" id="-23012">
		<tag k="name" v="Halsodden" />
		<tag k="natural" v="cape" />
		<tag k="ssr:stedsnr" v="850041" />
	</node>
	<node lat="58.249933333299886" lon="6.670216666809984" id="-23043">
		<tag k="name" v="Bjørnøyane" />
		<tag k="place" v="island" />
		<tag k="ssr:stedsnr" v="890447" />
	</node>
	<node lat="58.20746388695421" lon="6.673902776610413" id="-23044">
		<tag k="name" v="Grindholodden" />
		<tag k="natural" v="cape" />
		<tag k="ssr:stedsnr" v="890777" />
	</node>
	<node lat="58.2185333316906" lon="6.68313889249889" id="-23045">
		<tag k="name" v="Torkilsvaglen" />
		<tag k="natural" v="cape" />
		<tag k="ssr:stedsnr" v="890778" />
	</node>
	<node lat="58.28916388671657" lon="6.649358339378522" id="-23046">
		<tag k="name" v="Sveigevika" />
		<tag k="natural" v="bay" />
		<tag k="ssr:stedsnr" v="892103" />
	</node>
	<node lat="58.29596388771554" lon="6.6536222259696185" id="-23050">
		<tag k="name" v="Trellevika" />
		<tag k="natural" v="bay" />
		<tag k="ssr:stedsnr" v="892120" />
	</node>
	<node lat="58.20975833614008" lon="6.632222224905543" id="-23060">
		<tag k="name" v="Kvednhusvika" />
		<tag k="natural" v="bay" />
		<tag k="ssr:stedsnr" v="892017" />
	</node>
	<node lat="58.25087777889333" lon="6.691866669133462" id="-23062">
		<tag k="name" v="Spjodenesodden" />
		<tag k="natural" v="cape" />
		<tag k="ssr:stedsnr" v="892058" />
	</node>
	<node lat="58.25008055710754" lon="6.675286107140761" id="-23063">
		<tag k="name" v="Jensøy" />
		<tag k="place" v="islet" />
		<tag k="ssr:stedsnr" v="892063" />
	</node>
	<node lat="58.23381111557741" lon="6.663058333219231" id="-23065">
		<tag k="alt_name" v="Laksholmen" />
		<tag k="name" v="Nedre Svineholmen" />
		<tag k="place" v="islet" />
		<tag k="ssr:stedsnr" v="892070" />
	</node>
	<node lat="58.24485555311967" lon="6.665233327030292" id="-23123">
		<tag k="name" v="Timrevikflua" />
		<tag k="place" v="locality" />
		<tag k="seamark:type" v="rock" />
		<tag k="ssr:stedsnr" v="905963" />
	</node>
	<node lat="58.241166668562755" lon="6.6971333350148035" id="-23124">
		<tag k="name" v="Skutevikholet" />
		<tag k="natural" v="bay" />
		<tag k="ssr:stedsnr" v="905964" />
	</node>
	<node lat="58.20269166857689" lon="6.64901944588797" id="-23128">
		<tag k="alt_name" v="Katterova" />
		<tag k="name" v="Katteraua" />
		<tag k="place" v="islet" />
		<tag k="ssr:stedsnr" v="910170" />
	</node>
	<node lat="58.20063055640946" lon="6.617227785379508" id="-23129">
		<tag k="alt_name" v="Ytre Kalven;Kalvekilen, yt" />
		<tag k="name" v="Ytre Kalvekilen" />
		<tag k="natural" v="bay" />
		<tag k="ssr:stedsnr" v="910172" />
	</node>
	<node lat="58.19511944620071" lon="6.594405559978601" id="-23159">
		<tag k="fixme" v="consider seamark:type=rock or natural=shoal" />
		<tag k="name" v="Båan" />
		<tag k="place" v="islet" />
		<tag k="ssr:stedsnr" v="949613" />
	</node>
	<node lat="58.2131972181473" lon="6.578200003448646" id="-23201">
		<tag k="name" v="Gunnersholmen" />
		<tag k="place" v="islet" />
		<tag k="ssr:stedsnr" v="953350" />
	</node>
	<node lat="58.20893055261534" lon="6.5531666658942935" id="-23202">
		<tag k="name" v="Svarteholmen" />
		<tag k="place" v="islet" />
		<tag k="ssr:stedsnr" v="953352" />
	</node>
	<node lat="58.2373055533329" lon="6.511511105775497" id="-23211">
		<tag k="alt_name" v="Narvøya" />
		<tag k="name" v="Narvøy" />
		<tag k="place" v="islet" />
		<tag k="ssr:stedsnr" v="953413" />
	</node>
	<node lat="58.22228611304589" lon="6.5340166731366045" id="-23213">
		<tag k="name" v="Saltklumpen" />
		<tag k="natural" v="cape" />
		<tag k="ssr:stedsnr" v="953431" />
	</node>
	<node lat="58.26557500040291" lon="6.64760277262394" id="-23250">
		<tag k="name" v="Fjellseodden" />
		<tag k="natural" v="cape" />
		<tag k="ssr:stedsnr" v="965880" />
	</node>
</osm>
