<?xml version="1.0" encoding="UTF-8"?>
<osm generator="osmapis" version="0.6">
	<node changeset="66772044" id="6247114240" lat="59.6456722" lon="10.9719667" timestamp="2019-01-30T14:11:14Z" uid="633013" user="Honning" version="1">
		<tag k="name" v="Vestereng" />
		<tag k="place" v="farm" />
		<tag k="ssr:stedsnr" v="325804" />
	</node>
	<node changeset="66772044" id="6247114241" lat="59.667" lon="11.0006917" timestamp="2019-01-30T14:11:14Z" uid="633013" user="Honning" version="1">
		<tag k="name" v="Gran" />
		<tag k="place" v="farm" />
		<tag k="ssr:stedsnr" v="325811" />
	</node>
	<node changeset="66772044" id="6247114242" lat="59.6033889" lon="10.9992472" timestamp="2019-01-30T14:11:14Z" uid="633013" user="Honning" version="1">
		<tag k="name" v="Bråten" />
		<tag k="place" v="farm" />
		<tag k="ssr:stedsnr" v="325734" />
	</node>
	<node changeset="66772044" id="6247114243" lat="59.6198278" lon="11.0261389" timestamp="2019-01-30T14:11:15Z" uid="633013" user="Honning" version="1">
		<tag k="name" v="Linnestad" />
		<tag k="place" v="farm" />
		<tag k="ssr:stedsnr" v="325746" />
	</node>
	<node changeset="66772044" id="6247114245" lat="59.5334472" lon="10.8074528" timestamp="2019-01-30T14:11:15Z" uid="633013" user="Honning" version="1">
		<tag k="name" v="Jerpelotten" />
		<tag k="place" v="locality" />
		<tag k="ssr:stedsnr" v="325880" />
	</node>
	<node changeset="66781766" id="5422624774" lat="59.6608561" lon="10.9995635" timestamp="2019-01-30T19:44:22Z" uid="633013" user="Honning" version="2">
		<tag k="name" v="Tomter" />
		<tag k="place" v="village" />
		<tag k="population" v="1804" />
		<tag k="population:date" v="2017-01-01" />
		<tag k="ssr:stedsnr" v="124428" />
	</node>
	<node changeset="66772044" id="6247114247" lat="59.559975" lon="10.8186056" timestamp="2019-01-30T14:11:15Z" uid="633013" user="Honning" version="1">
		<tag k="name" v="Smertu" />
		<tag k="place" v="farm" />
		<tag k="ssr:stedsnr" v="326870" />
	</node>
	<node changeset="66781766" id="6247114248" lat="59.5528" lon="10.8435028" timestamp="2019-01-30T19:44:23Z" uid="633013" user="Honning" version="2">
		<tag k="name" v="Bekkensten" />
		<tag k="place" v="farm" />
		<tag k="ssr:stedsnr" v="326925" />
	</node>
	<node changeset="66781766" id="6247114249" lat="59.5525667" lon="10.8602778" timestamp="2019-01-30T19:44:23Z" uid="633013" user="Honning" version="2">
		<tag k="name" v="Høyfoss" />
		<tag k="place" v="farm" />
		<tag k="ssr:stedsnr" v="326928" />
	</node>
	<node changeset="66781766" id="6247114250" lat="59.5613104" lon="10.8405617" timestamp="2019-01-30T19:44:23Z" uid="633013" user="Honning" version="2">
		<tag k="name" v="Ringstad" />
		<tag k="place" v="hamlet" />
		<tag k="ssr:stedsnr" v="354980" />
	</node>
	<node changeset="66772044" id="6247114252" lat="59.6417667" lon="10.9537389" timestamp="2019-01-30T14:11:15Z" uid="633013" user="Honning" version="1">
		<tag k="alt_name" v="Hestehagen" />
		<tag k="name" v="Hesthagen" />
		<tag k="place" v="farm" />
		<tag k="ssr:stedsnr" v="367233" />
	</node>
	<node changeset="66772044" id="6247114253" lat="59.6431278" lon="10.9944861" timestamp="2019-01-30T14:11:15Z" uid="633013" user="Honning" version="1">
		<tag k="alt_name" v="Lilleby, vestre;Lilleby" />
		<tag k="name" v="Vestre Lilleby" />
		<tag k="place" v="farm" />
		<tag k="ssr:stedsnr" v="367236" />
	</node>
	<node changeset="66772044" id="6247114254" lat="59.6187" lon="11.0093472" timestamp="2019-01-30T14:11:15Z" uid="633013" user="Honning" version="1">
		<tag k="name" v="Rakelstad" />
		<tag k="place" v="farm" />
		<tag k="ssr:stedsnr" v="367292" />
	</node>
	<node changeset="66772044" id="6247114255" lat="59.5985972" lon="10.912625" timestamp="2019-01-30T14:11:15Z" uid="633013" user="Honning" version="1">
		<tag k="name" v="Årås" />
		<tag k="place" v="farm" />
		<tag k="ssr:stedsnr" v="368156" />
	</node>
	<node changeset="66772044" id="6247114256" lat="59.5488" lon="10.8542611" timestamp="2019-01-30T14:11:15Z" uid="633013" user="Honning" version="1">
		<tag k="name" v="Svelgen" />
		<tag k="place" v="farm" />
		<tag k="ssr:stedsnr" v="368234" />
	</node>
	<node changeset="66772044" id="6247114257" lat="59.5500222" lon="10.8920167" timestamp="2019-01-30T14:11:15Z" uid="633013" user="Honning" version="1">
		<tag k="name" v="Tønnerud" />
		<tag k="place" v="farm" />
		<tag k="ssr:stedsnr" v="368254" />
	</node>
	<node changeset="66772044" id="6247114258" lat="59.5515917" lon="10.860025" timestamp="2019-01-30T14:11:15Z" uid="633013" user="Honning" version="1">
		<tag k="alt_name" v="Høyfoss" />
		<tag k="name" v="Høgfoss" />
		<tag k="place" v="farm" />
		<tag k="ssr:stedsnr" v="368256" />
	</node>
	<node changeset="66772044" id="6247114259" lat="59.6222639" lon="10.9613722" timestamp="2019-01-30T14:11:16Z" uid="633013" user="Honning" version="1">
		<tag k="name" v="Klingenberg" />
		<tag k="place" v="farm" />
		<tag k="ssr:stedsnr" v="385783" />
	</node>
	<node changeset="66772044" id="6247114260" lat="59.5262361" lon="10.8048306" timestamp="2019-01-30T14:11:16Z" uid="633013" user="Honning" version="1">
		<tag k="name" v="Ødegården" />
		<tag k="place" v="locality" />
		<tag k="ssr:stedsnr" v="385879" />
	</node>
	<node changeset="66772044" id="6247114261" lat="59.6045167" lon="10.8959722" timestamp="2019-01-30T14:11:16Z" uid="633013" user="Honning" version="1">
		<tag k="name" v="Hulsnesa" />
		<tag k="place" v="isolated_dwelling" />
		<tag k="ssr:stedsnr" v="385960" />
	</node>
	<node changeset="66781766" id="6247114262" lat="59.621725" lon="11.0492861" timestamp="2019-01-30T19:44:23Z" uid="633013" user="Honning" version="2">
		<tag k="name" v="Hollebøltangen" />
		<tag k="place" v="farm" />
		<tag k="ssr:stedsnr" v="386755" />
	</node>
	<node changeset="66772044" id="6247114263" lat="59.6222278" lon="11.0292722" timestamp="2019-01-30T14:11:16Z" uid="633013" user="Honning" version="1">
		<tag k="alt_name" v="Knapstad vestre;Knapstad" />
		<tag k="name" v="Vestre Knapstad" />
		<tag k="place" v="farm" />
		<tag k="ssr:stedsnr" v="386770" />
	</node>
	<node changeset="66772044" id="6247114264" lat="59.5587333" lon="10.7910222" timestamp="2019-01-30T14:11:16Z" uid="633013" user="Honning" version="1">
		<tag k="name" v="Bjonerneset" />
		<tag k="place" v="locality" />
		<tag k="ssr:stedsnr" v="386869" />
	</node>
	<node changeset="66772044" id="6247114265" lat="59.5523278" lon="10.7776278" timestamp="2019-01-30T14:11:16Z" uid="633013" user="Honning" version="1">
		<tag k="alt_name" v="Brånen søndre" />
		<tag k="name" v="Søndre Brånen" />
		<tag k="place" v="farm" />
		<tag k="ssr:stedsnr" v="386875" />
	</node>
	<node changeset="66772044" id="6247114266" lat="59.550025" lon="10.8773111" timestamp="2019-01-30T14:11:16Z" uid="633013" user="Honning" version="1">
		<tag k="name" v="Rognelund" />
		<tag k="place" v="isolated_dwelling" />
		<tag k="ssr:stedsnr" v="386918" />
	</node>
	<node changeset="66772044" id="6247114267" lat="59.5849222" lon="10.8448583" timestamp="2019-01-30T14:11:16Z" uid="633013" user="Honning" version="1">
		<tag k="name" v="Sagbakken" />
		<tag k="place" v="farm" />
		<tag k="ssr:stedsnr" v="387929" />
	</node>
	<node changeset="66772044" id="6247114268" lat="59.62965" lon="11.0345667" timestamp="2019-01-30T14:11:16Z" uid="633013" user="Honning" version="1">
		<tag k="name" v="Sørli" />
		<tag k="place" v="farm" />
		<tag k="ssr:stedsnr" v="245306" />
	</node>
	<node changeset="66772044" id="6247114269" lat="59.637875" lon="11.0254667" timestamp="2019-01-30T14:11:16Z" uid="633013" user="Honning" version="1">
		<tag k="alt_name" v="Elverud" />
		<tag k="name" v="Elverød" />
		<tag k="place" v="farm" />
		<tag k="ssr:stedsnr" v="245309" />
	</node>
	<node changeset="66772044" id="6247114270" lat="59.5732389" lon="10.8796417" timestamp="2019-01-30T14:11:16Z" uid="633013" user="Honning" version="1">
		<tag k="name" v="Nylenda" />
		<tag k="place" v="farm" />
		<tag k="ssr:stedsnr" v="266907" />
	</node>
	<node changeset="66772044" id="6247114271" lat="59.6108111" lon="10.9247" timestamp="2019-01-30T14:11:16Z" uid="633013" user="Honning" version="1">
		<tag k="alt_name" v="Hvitstein nordre" />
		<tag k="name" v="Nordre Hvitstein" />
		<tag k="place" v="farm" />
		<tag k="ssr:stedsnr" v="3140" />
	</node>
	<node changeset="66772044" id="6247114272" lat="59.6045167" lon="10.9954222" timestamp="2019-01-30T14:11:16Z" uid="633013" user="Honning" version="1">
		<tag k="alt_name" v="Krok, østre;Krok" />
		<tag k="name" v="Østre Krok" />
		<tag k="place" v="farm" />
		<tag k="ssr:stedsnr" v="3142" />
	</node>
	<node changeset="66772044" id="6247114273" lat="59.6444667" lon="11.0197611" timestamp="2019-01-30T14:11:16Z" uid="633013" user="Honning" version="1">
		<tag k="alt_name" v="Homlerud" />
		<tag k="name" v="Homlerød" />
		<tag k="place" v="farm" />
		<tag k="ssr:stedsnr" v="3266" />
	</node>
	<node changeset="66772044" id="6247114274" lat="59.6408583" lon="11.0323528" timestamp="2019-01-30T14:11:16Z" uid="633013" user="Honning" version="1">
		<tag k="name" v="Smalopp" />
		<tag k="place" v="farm" />
		<tag k="ssr:stedsnr" v="3267" />
	</node>
	<node changeset="66772044" id="6247114275" lat="59.6307556" lon="10.9883583" timestamp="2019-01-30T14:11:16Z" uid="633013" user="Honning" version="1">
		<tag k="name" v="Nordby" />
		<tag k="place" v="farm" />
		<tag k="ssr:stedsnr" v="3287" />
	</node>
	<node changeset="66772044" id="6247114276" lat="59.6179056" lon="10.89025" timestamp="2019-01-30T14:11:17Z" uid="633013" user="Honning" version="1">
		<tag k="name" v="Dalås" />
		<tag k="place" v="farm" />
		<tag k="ssr:stedsnr" v="3308" />
	</node>
	<node changeset="66772044" id="6247114246" lat="59.5713417" lon="10.9713222" timestamp="2019-01-30T14:11:15Z" uid="633013" user="Honning" version="1">
		<tag k="name" v="Ramstadstykket" />
		<tag k="place" v="locality" />
		<tag k="ssr:stedsnr" v="325965" />
	</node>
	<node changeset="66772044" id="6247114278" lat="59.6685417" lon="11.0312056" timestamp="2019-01-30T14:11:17Z" uid="633013" user="Honning" version="1">
		<tag k="alt_name" v="Hov Søndre;Hov" />
		<tag k="name" v="Søndre Hov" />
		<tag k="place" v="farm" />
		<tag k="ssr:stedsnr" v="3429" />
	</node>
	<node changeset="66772044" id="6247114279" lat="59.6603722" lon="11.0187639" timestamp="2019-01-30T14:11:17Z" uid="633013" user="Honning" version="1">
		<tag k="alt_name" v="Finnstad" />
		<tag k="name" v="Finstad" />
		<tag k="place" v="farm" />
		<tag k="ssr:stedsnr" v="3435" />
	</node>
	<node changeset="66772044" id="6247114280" lat="59.6025083" lon="10.9468528" timestamp="2019-01-30T14:11:17Z" uid="633013" user="Honning" version="1">
		<tag k="name" v="Huken" />
		<tag k="place" v="farm" />
		<tag k="ssr:stedsnr" v="4134" />
	</node>
	<node changeset="66772044" id="6247114281" lat="59.5728" lon="10.8729861" timestamp="2019-01-30T14:11:17Z" uid="633013" user="Honning" version="1">
		<tag k="name" v="Stubberud" />
		<tag k="place" v="farm" />
		<tag k="ssr:stedsnr" v="4205" />
	</node>
	<node changeset="66792411" id="6247114282" lat="59.5546361" lon="10.8753056" timestamp="2019-01-31T07:08:38Z" uid="633013" user="Honning" version="2">
		<tag k="name" v="Holo" />
		<tag k="place" v="hamlet" />
		<tag k="ssr:stedsnr" v="4240" />
	</node>
	<node changeset="66772044" id="6247114283" lat="59.5539528" lon="10.7814639" timestamp="2019-01-30T14:11:17Z" uid="633013" user="Honning" version="1">
		<tag k="name" v="Brånen" />
		<tag k="place" v="farm" />
		<tag k="ssr:stedsnr" v="4243" />
	</node>
	<node changeset="66781766" id="6247114284" lat="59.5594361" lon="10.7971667" timestamp="2019-01-30T19:44:23Z" uid="633013" user="Honning" version="2">
		<tag k="name" v="Bjonerhytta" />
		<tag k="place" v="isolated_dwelling" />
		<tag k="ssr:stedsnr" v="22862" />
	</node>
	<node changeset="66772044" id="6247114286" lat="59.5732611" lon="10.8702611" timestamp="2019-01-30T14:11:17Z" uid="633013" user="Honning" version="1">
		<tag k="name" v="Sandbekk" />
		<tag k="place" v="farm" />
		<tag k="ssr:stedsnr" v="23923" />
	</node>
	<node changeset="66772044" id="6247114287" lat="59.6475222" lon="10.9735778" timestamp="2019-01-30T14:11:17Z" uid="633013" user="Honning" version="1">
		<tag k="name" v="Holen" />
		<tag k="place" v="farm" />
		<tag k="ssr:stedsnr" v="63290" />
	</node>
	<node changeset="9803328" id="1499769392" lat="59.6461449" lon="10.951819" timestamp="2011-11-12T11:01:11Z" uid="164049" user="kche" version="1" />
	<node changeset="66772044" id="6247114289" lat="59.6296" lon="10.940175" timestamp="2019-01-30T14:11:17Z" uid="633013" user="Honning" version="1">
		<tag k="name" v="Skog" />
		<tag k="place" v="farm" />
		<tag k="ssr:stedsnr" v="63336" />
	</node>
	<node changeset="66772044" id="6247114290" lat="59.6667861" lon="11.0004556" timestamp="2019-01-30T14:11:17Z" uid="633013" user="Honning" version="1">
		<tag k="name" v="Knatrebakk" />
		<tag k="place" v="farm" />
		<tag k="ssr:stedsnr" v="63499" />
	</node>
	<node changeset="66772044" id="6247114095" lat="59.5580972" lon="10.9188861" timestamp="2019-01-30T14:11:06Z" uid="633013" user="Honning" version="1">
		<tag k="name" v="Pipen" />
		<tag k="place" v="locality" />
		<tag k="ssr:stedsnr" v="508928" />
	</node>
	<node changeset="66772044" id="6247114292" lat="59.5432361" lon="10.8173389" timestamp="2019-01-30T14:11:17Z" uid="633013" user="Honning" version="1">
		<tag k="alt_name" v="Bråte søndre" />
		<tag k="name" v="Bråte" />
		<tag k="place" v="farm" />
		<tag k="ssr:stedsnr" v="64024" />
	</node>
	<node changeset="66772044" id="6247114293" lat="59.6293417" lon="10.9373278" timestamp="2019-01-30T14:11:17Z" uid="633013" user="Honning" version="1">
		<tag k="alt_name" v="Pegstad;Pigstad;Pigstad øvre" />
		<tag k="name" v="Øvre Pigstad" />
		<tag k="place" v="farm" />
		<tag k="ssr:stedsnr" v="64340" />
	</node>
	<node changeset="66772044" id="6247114294" lat="59.6187139" lon="10.9033028" timestamp="2019-01-30T14:11:18Z" uid="633013" user="Honning" version="1">
		<tag k="name" v="Høgda" />
		<tag k="place" v="farm" />
		<tag k="ssr:stedsnr" v="64352" />
	</node>
	<node changeset="66772044" id="6247114295" lat="59.6146083" lon="10.9665917" timestamp="2019-01-30T14:11:18Z" uid="633013" user="Honning" version="1">
		<tag k="alt_name" v="Smedebøl" />
		<tag k="name" v="Smedabøl" />
		<tag k="place" v="farm" />
		<tag k="ssr:stedsnr" v="64359" />
	</node>
	<node changeset="66772044" id="6247114296" lat="59.6970056" lon="10.9914167" timestamp="2019-01-30T14:11:18Z" uid="633013" user="Honning" version="1">
		<tag k="name" v="Gaupesteinhytta" />
		<tag k="place" v="isolated_dwelling" />
		<tag k="ssr:stedsnr" v="64402" />
	</node>
	<node changeset="66772044" id="6247114297" lat="59.5403361" lon="10.8771639" timestamp="2019-01-30T14:11:18Z" uid="633013" user="Honning" version="1">
		<tag k="name" v="Enga" />
		<tag k="place" v="farm" />
		<tag k="ssr:stedsnr" v="65020" />
	</node>
	<node changeset="66772044" id="6247114298" lat="59.5208111" lon="10.783875" timestamp="2019-01-30T14:11:18Z" uid="633013" user="Honning" version="1">
		<tag k="name" v="Haglerud" />
		<tag k="place" v="farm" />
		<tag k="ssr:stedsnr" v="65043" />
	</node>
	<node changeset="66772044" id="6247114299" lat="59.5840528" lon="10.8454167" timestamp="2019-01-30T14:11:18Z" uid="633013" user="Honning" version="1">
		<tag k="alt_name" v="Låsken" />
		<tag k="name" v="Loska" />
		<tag k="place" v="isolated_dwelling" />
		<tag k="ssr:stedsnr" v="65166" />
	</node>
	<node changeset="66772044" id="6247114300" lat="59.686175" lon="10.9994083" timestamp="2019-01-30T14:11:18Z" uid="633013" user="Honning" version="1">
		<tag k="name" v="Tyrihjellen" />
		<tag k="place" v="farm" />
		<tag k="ssr:stedsnr" v="65407" />
	</node>
	<node changeset="9803328" id="1499769405" lat="59.6461508" lon="10.9520549" timestamp="2011-11-12T11:01:11Z" uid="164049" user="kche" version="1" />
	<node changeset="66772044" id="6247114302" lat="59.6784972" lon="10.9880389" timestamp="2019-01-30T14:11:18Z" uid="633013" user="Honning" version="1">
		<tag k="name" v="Kølabånn" />
		<tag k="place" v="farm" />
		<tag k="ssr:stedsnr" v="82848" />
	</node>
	<node changeset="66772044" id="6247114303" lat="59.671525" lon="11.0163278" timestamp="2019-01-30T14:11:18Z" uid="633013" user="Honning" version="1">
		<tag k="name" v="Solli" />
		<tag k="place" v="farm" />
		<tag k="ssr:stedsnr" v="82736" />
	</node>
	<node changeset="66772044" id="6247114304" lat="59.6747778" lon="11.0260167" timestamp="2019-01-30T14:11:18Z" uid="633013" user="Honning" version="1">
		<tag k="name" v="Nordal" />
		<tag k="place" v="isolated_dwelling" />
		<tag k="ssr:stedsnr" v="82745" />
	</node>
	<node changeset="66772044" id="6247114305" lat="59.6035722" lon="10.9958278" timestamp="2019-01-30T14:11:18Z" uid="633013" user="Honning" version="1">
		<tag k="name" v="Krok" />
		<tag k="place" v="farm" />
		<tag k="ssr:stedsnr" v="82749" />
	</node>
	<node changeset="66772044" id="6247114306" lat="59.6233917" lon="10.9615944" timestamp="2019-01-30T14:11:18Z" uid="633013" user="Honning" version="1">
		<tag k="name" v="Jonsrud" />
		<tag k="place" v="isolated_dwelling" />
		<tag k="ssr:stedsnr" v="82762" />
	</node>
	<node changeset="66772044" id="6247114308" lat="59.6057139" lon="10.9394028" timestamp="2019-01-30T14:11:18Z" uid="633013" user="Honning" version="1">
		<tag k="name" v="Jonsrud" />
		<tag k="place" v="isolated_dwelling" />
		<tag k="ssr:stedsnr" v="82949" />
	</node>
	<node changeset="66772044" id="6247114309" lat="59.5695667" lon="10.8532722" timestamp="2019-01-30T14:11:18Z" uid="633013" user="Honning" version="1">
		<tag k="alt_name" v="Saksebøl nedre" />
		<tag k="name" v="Nedre Saksebøl" />
		<tag k="place" v="farm" />
		<tag k="ssr:stedsnr" v="82960" />
	</node>
	<node changeset="66772044" id="6247114310" lat="59.5975056" lon="10.9355583" timestamp="2019-01-30T14:11:18Z" uid="633013" user="Honning" version="1">
		<tag k="name" v="Bjerkelund" />
		<tag k="place" v="locality" />
		<tag k="ssr:stedsnr" v="82961" />
	</node>
	<node changeset="66772044" id="6247114312" lat="59.6866389" lon="11.0366722" timestamp="2019-01-30T14:11:19Z" uid="633013" user="Honning" version="1">
		<tag k="alt_name" v="Svikebøl nedre" />
		<tag k="name" v="Nedre Svikebøl" />
		<tag k="place" v="farm" />
		<tag k="ssr:stedsnr" v="125444" />
	</node>
	<node changeset="66772044" id="6247114313" lat="59.685825" lon="11.04585" timestamp="2019-01-30T14:11:19Z" uid="633013" user="Honning" version="1">
		<tag k="alt_name" v="Jaren Nedre" />
		<tag k="name" v="Nedre Jaren" />
		<tag k="place" v="farm" />
		<tag k="ssr:stedsnr" v="125445" />
	</node>
	<node changeset="66772044" id="6247114314" lat="59.6524056" lon="10.9870361" timestamp="2019-01-30T14:11:19Z" uid="633013" user="Honning" version="1">
		<tag k="alt_name" v="Tolshus" />
		<tag k="name" v="Tolfshus" />
		<tag k="place" v="farm" />
		<tag k="ssr:stedsnr" v="124215" />
	</node>
	<node changeset="66772044" id="6247114315" lat="59.6393556" lon="10.9673167" timestamp="2019-01-30T14:11:19Z" uid="633013" user="Honning" version="1">
		<tag k="alt_name" v="Bjørkeskog" />
		<tag k="name" v="Bjerkeskog" />
		<tag k="place" v="farm" />
		<tag k="ssr:stedsnr" v="124240" />
	</node>
	<node changeset="66772044" id="6247114316" lat="59.6327528" lon="11.0260556" timestamp="2019-01-30T14:11:19Z" uid="633013" user="Honning" version="1">
		<tag k="alt_name" v="Toen" />
		<tag k="name" v="Ton" />
		<tag k="place" v="farm" />
		<tag k="ssr:stedsnr" v="124271" />
	</node>
	<node changeset="66772044" id="6247114317" lat="59.6808306" lon="11.0211556" timestamp="2019-01-30T14:11:19Z" uid="633013" user="Honning" version="1">
		<tag k="alt_name" v="Syversby" />
		<tag k="name" v="Surby" />
		<tag k="place" v="farm" />
		<tag k="ssr:stedsnr" v="124405" />
	</node>
	<node changeset="66772044" id="279007822" lat="59.5588187" lon="10.8467247" timestamp="2019-01-30T14:11:22Z" uid="633013" user="Honning" version="6">
		<tag k="name" v="Ringvoll" />
		<tag k="place" v="village" />
		<tag k="population" v="548" />
		<tag k="population:date" v="2017-01-01" />
		<tag k="ssr:stedsnr" v="752437" />
	</node>
	<node changeset="66772044" id="6247114319" lat="59.5928667" lon="10.9423083" timestamp="2019-01-30T14:11:19Z" uid="633013" user="Honning" version="1">
		<tag k="name" v="Nyborg" />
		<tag k="place" v="isolated_dwelling" />
		<tag k="ssr:stedsnr" v="125203" />
	</node>
	<node changeset="66772044" id="6247114320" lat="59.587375" lon="10.9125" timestamp="2019-01-30T14:11:19Z" uid="633013" user="Honning" version="1">
		<tag k="name" v="Daler" />
		<tag k="place" v="farm" />
		<tag k="ssr:stedsnr" v="125206" />
	</node>
	<node changeset="66772044" id="6247114321" lat="59.5456583" lon="10.7896417" timestamp="2019-01-30T14:11:19Z" uid="633013" user="Honning" version="1">
		<tag k="name" v="Åsheim" />
		<tag k="place" v="farm" />
		<tag k="ssr:stedsnr" v="125251" />
	</node>
	<node changeset="66781766" id="6247114322" lat="59.5575556" lon="10.8652389" timestamp="2019-01-30T19:44:23Z" uid="633013" user="Honning" version="2">
		<tag k="alt_name" v="Aspeli" />
		<tag k="name" v="Espeli" />
		<tag k="place" v="isolated_dwelling" />
		<tag k="ssr:stedsnr" v="125263" />
	</node>
	<node changeset="66772044" id="6247114323" lat="59.6265778" lon="10.9773167" timestamp="2019-01-30T14:11:19Z" uid="633013" user="Honning" version="1">
		<tag k="name" v="Fosshøgda" />
		<tag k="place" v="farm" />
		<tag k="ssr:stedsnr" v="143754" />
	</node>
	<node changeset="66772044" id="6247114324" lat="59.6943667" lon="11.0216806" timestamp="2019-01-30T14:11:19Z" uid="633013" user="Honning" version="1">
		<tag k="name" v="Skogen" />
		<tag k="place" v="isolated_dwelling" />
		<tag k="ssr:stedsnr" v="143776" />
	</node>
	<node changeset="66772044" id="6247114325" lat="59.6412139" lon="11.0392611" timestamp="2019-01-30T14:11:19Z" uid="633013" user="Honning" version="1">
		<tag k="name" v="Moa" />
		<tag k="place" v="isolated_dwelling" />
		<tag k="ssr:stedsnr" v="143785" />
	</node>
	<node changeset="66772044" id="6247114326" lat="59.64525" lon="10.9915222" timestamp="2019-01-30T14:11:19Z" uid="633013" user="Honning" version="1">
		<tag k="name" v="Lilleby" />
		<tag k="place" v="farm" />
		<tag k="ssr:stedsnr" v="143808" />
	</node>
	<node changeset="66781766" id="6247114327" lat="59.5216944" lon="10.8013444" timestamp="2019-01-30T19:44:24Z" uid="633013" user="Honning" version="2">
		<tag k="name" v="Sandli" />
		<tag k="place" v="isolated_dwelling" />
		<tag k="ssr:stedsnr" v="143860" />
	</node>
	<node changeset="66772044" id="6247114328" lat="59.5492972" lon="10.773275" timestamp="2019-01-30T14:11:20Z" uid="633013" user="Honning" version="1">
		<tag k="name" v="Verpe" />
		<tag k="place" v="locality" />
		<tag k="ssr:stedsnr" v="143893" />
	</node>
	<node changeset="66772044" id="6247114329" lat="59.6102139" lon="10.9006333" timestamp="2019-01-30T14:11:20Z" uid="633013" user="Honning" version="1">
		<tag k="name" v="Bråten" />
		<tag k="place" v="locality" />
		<tag k="ssr:stedsnr" v="143949" />
	</node>
	<node changeset="66772044" id="6247114330" lat="59.5600417" lon="10.8641889" timestamp="2019-01-30T14:11:20Z" uid="633013" user="Honning" version="1">
		<tag k="name" v="Hvamshytta" />
		<tag k="place" v="isolated_dwelling" />
		<tag k="ssr:stedsnr" v="144909" />
	</node>
	<node changeset="66772044" id="6247114331" lat="59.5679556" lon="10.8960833" timestamp="2019-01-30T14:11:20Z" uid="633013" user="Honning" version="1">
		<tag k="name" v="Trinnenborg" />
		<tag k="place" v="locality" />
		<tag k="ssr:stedsnr" v="144910" />
	</node>
	<node changeset="66772044" id="6247114333" lat="59.6021" lon="10.9820583" timestamp="2019-01-30T14:11:20Z" uid="633013" user="Honning" version="1">
		<tag k="alt_name" v="Krok;Krok, vestre" />
		<tag k="name" v="Vestre Krok" />
		<tag k="place" v="farm" />
		<tag k="ssr:stedsnr" v="185138" />
	</node>
	<node changeset="66772044" id="6247114334" lat="59.6472" lon="11.0167139" timestamp="2019-01-30T14:11:20Z" uid="633013" user="Honning" version="1">
		<tag k="name" v="Hagen" />
		<tag k="place" v="farm" />
		<tag k="ssr:stedsnr" v="185250" />
	</node>
	<node changeset="66772044" id="6247114335" lat="59.6256972" lon="10.9491" timestamp="2019-01-30T14:11:20Z" uid="633013" user="Honning" version="1">
		<tag k="name" v="Nærbøl" />
		<tag k="place" v="farm" />
		<tag k="ssr:stedsnr" v="185318" />
	</node>
	<node changeset="66772044" id="6247114336" lat="59.628175" lon="11.0205194" timestamp="2019-01-30T14:11:20Z" uid="633013" user="Honning" version="1">
		<tag k="name" v="Haugen" />
		<tag k="place" v="farm" />
		<tag k="ssr:stedsnr" v="185326" />
	</node>
	<node changeset="66772044" id="6247114337" lat="59.6260611" lon="11.03655" timestamp="2019-01-30T14:11:20Z" uid="633013" user="Honning" version="1">
		<tag k="alt_name" v="Ekeberg" />
		<tag k="name" v="Eikeberg" />
		<tag k="place" v="farm" />
		<tag k="ssr:stedsnr" v="185327" />
	</node>
	<node changeset="66772044" id="6247114338" lat="59.6200806" lon="10.9844139" timestamp="2019-01-30T14:11:20Z" uid="633013" user="Honning" version="1">
		<tag k="name" v="Foss" />
		<tag k="place" v="farm" />
		<tag k="ssr:stedsnr" v="185335" />
	</node>
	<node changeset="66772044" id="6247114339" lat="59.6190861" lon="11.0189278" timestamp="2019-01-30T14:11:20Z" uid="633013" user="Honning" version="1">
		<tag k="name" v="Dammen" />
		<tag k="place" v="farm" />
		<tag k="ssr:stedsnr" v="185338" />
	</node>
	<node changeset="66772044" id="6247114340" lat="59.616675" lon="10.9342167" timestamp="2019-01-30T14:11:20Z" uid="633013" user="Honning" version="1">
		<tag k="alt_name" v="Greaker" />
		<tag k="name" v="Greåker" />
		<tag k="place" v="farm" />
		<tag k="ssr:stedsnr" v="185343" />
	</node>
	<node changeset="66772044" id="6247114341" lat="59.6178278" lon="10.9581667" timestamp="2019-01-30T14:11:20Z" uid="633013" user="Honning" version="1">
		<tag k="alt_name" v="Bovum, s" />
		<tag k="name" v="Bovim" />
		<tag k="place" v="farm" />
		<tag k="ssr:stedsnr" v="185346" />
	</node>
	<node changeset="66772044" id="6247114342" lat="59.6716167" lon="11.0076111" timestamp="2019-01-30T14:11:20Z" uid="633013" user="Honning" version="1">
		<tag k="name" v="Vegger" />
		<tag k="place" v="farm" />
		<tag k="ssr:stedsnr" v="185437" />
	</node>
	<node changeset="66772044" id="6247114343" lat="59.5308111" lon="10.7857417" timestamp="2019-01-30T14:11:20Z" uid="633013" user="Honning" version="1">
		<tag k="name" v="Dal" />
		<tag k="place" v="farm" />
		<tag k="ssr:stedsnr" v="186004" />
	</node>
	<node changeset="66772044" id="6247114344" lat="59.5968639" lon="10.8712417" timestamp="2019-01-30T14:11:20Z" uid="633013" user="Honning" version="1">
		<tag k="name" v="Hol" />
		<tag k="place" v="farm" />
		<tag k="ssr:stedsnr" v="186131" />
	</node>
	<node changeset="66781766" id="6247114165" lat="59.5553417" lon="10.9120445" timestamp="2019-01-30T19:44:23Z" uid="633013" user="Honning" version="2">
		<tag k="name" v="Tyrihjellen" />
		<tag k="place" v="isolated_dwelling" />
		<tag k="ssr:stedsnr" v="691898" />
	</node>
	<node changeset="66772044" id="6247114346" lat="59.5935556" lon="10.9229" timestamp="2019-01-30T14:11:21Z" uid="633013" user="Honning" version="1">
		<tag k="name" v="Mære" />
		<tag k="place" v="farm" />
		<tag k="ssr:stedsnr" v="186180" />
	</node>
	<node changeset="66772044" id="6247114347" lat="59.549525" lon="10.8026944" timestamp="2019-01-30T14:11:21Z" uid="633013" user="Honning" version="1">
		<tag k="alt_name" v="Vestby" />
		<tag k="name" v="Vesterby" />
		<tag k="place" v="farm" />
		<tag k="ssr:stedsnr" v="186215" />
	</node>
	<node changeset="66772044" id="6247114348" lat="59.555325" lon="10.8365889" timestamp="2019-01-30T14:11:21Z" uid="633013" user="Honning" version="1">
		<tag k="name" v="Kongshaug" />
		<tag k="place" v="farm" />
		<tag k="ssr:stedsnr" v="186235" />
	</node>
	<node changeset="66772044" id="6247114349" lat="59.5533556" lon="10.8131417" timestamp="2019-01-30T14:11:21Z" uid="633013" user="Honning" version="1">
		<tag k="alt_name" v="Skinnerud;Skinnerød vestre;Skinnerud vestre" />
		<tag k="name" v="Vestre Skinnerud" />
		<tag k="place" v="farm" />
		<tag k="ssr:stedsnr" v="186239" />
	</node>
	<node changeset="66772044" id="6247114350" lat="59.6559583" lon="11.0387917" timestamp="2019-01-30T14:11:21Z" uid="633013" user="Honning" version="1">
		<tag k="name" v="Monsrud" />
		<tag k="place" v="farm" />
		<tag k="ssr:stedsnr" v="204785" />
	</node>
	<node changeset="66772044" id="6247114351" lat="59.6718722" lon="10.9887056" timestamp="2019-01-30T14:11:21Z" uid="633013" user="Honning" version="1">
		<tag k="name" v="Føskerenga" />
		<tag k="place" v="farm" />
		<tag k="ssr:stedsnr" v="204813" />
	</node>
	<node changeset="66781766" id="6247114352" lat="59.554775" lon="10.9223639" timestamp="2019-01-30T19:44:24Z" uid="633013" user="Honning" version="2">
		<tag k="name" v="Storebråten" />
		<tag k="place" v="isolated_dwelling" />
		<tag k="ssr:stedsnr" v="205932" />
	</node>
	<node changeset="66772044" id="6247114353" lat="59.5857806" lon="10.87055" timestamp="2019-01-30T14:11:21Z" uid="633013" user="Honning" version="1">
		<tag k="name" v="Nygårhytta" />
		<tag k="place" v="isolated_dwelling" />
		<tag k="ssr:stedsnr" v="205943" />
	</node>
	<node changeset="66772044" id="6247114354" lat="59.6447361" lon="10.9796417" timestamp="2019-01-30T14:11:21Z" uid="633013" user="Honning" version="1">
		<tag k="alt_name" v="Brekke" />
		<tag k="name" v="Brekka" />
		<tag k="place" v="farm" />
		<tag k="ssr:stedsnr" v="245274" />
	</node>
	<node changeset="66772044" id="6247114355" lat="59.6294472" lon="10.9834056" timestamp="2019-01-30T14:11:21Z" uid="633013" user="Honning" version="1">
		<tag k="name" v="Hollen" />
		<tag k="place" v="farm" />
		<tag k="ssr:stedsnr" v="245299" />
	</node>
	<node changeset="66772044" id="6247114356" lat="59.6366111" lon="10.9983389" timestamp="2019-01-30T14:11:21Z" uid="633013" user="Honning" version="1">
		<tag k="name" v="Berg" />
		<tag k="place" v="farm" />
		<tag k="ssr:stedsnr" v="245301" />
	</node>
	<node changeset="66772044" id="6247114358" lat="59.5448583" lon="10.871275" timestamp="2019-01-30T14:11:21Z" uid="633013" user="Honning" version="1">
		<tag k="name" v="Tømt" />
		<tag k="place" v="farm" />
		<tag k="ssr:stedsnr" v="246019" />
	</node>
	<node changeset="66772044" id="6247114359" lat="59.5981528" lon="10.8928611" timestamp="2019-01-30T14:11:21Z" uid="633013" user="Honning" version="1">
		<tag k="name" v="Hul" />
		<tag k="place" v="farm" />
		<tag k="ssr:stedsnr" v="246137" />
	</node>
	<node changeset="66772044" id="6247114360" lat="59.607475" lon="10.931425" timestamp="2019-01-30T14:11:21Z" uid="633013" user="Honning" version="1">
		<tag k="name" v="Skjolden" />
		<tag k="place" v="farm" />
		<tag k="ssr:stedsnr" v="246146" />
	</node>
	<node changeset="66772044" id="6247114361" lat="59.62125" lon="11.0172333" timestamp="2019-01-30T14:11:21Z" uid="633013" user="Honning" version="1">
		<tag k="alt_name" v="Lippestad søndre;Søndre Lippestad;Leppestad" />
		<tag k="name" v="Søndre Leppestad" />
		<tag k="place" v="farm" />
		<tag k="ssr:stedsnr" v="246324" />
	</node>
	<node changeset="66781766" id="6247114362" lat="59.6289806" lon="11.014475" timestamp="2019-01-30T19:44:24Z" uid="633013" user="Honning" version="2">
		<tag k="alt_name" v="Øvre Lippestad;Lippestad nordre" />
		<tag k="fixme" v="multiple name tags, choose one and add the other to alt_name" />
		<tag k="name" v="Nordre Lippestad" />
		<tag k="place" v="farm" />
		<tag k="ssr:stedsnr" v="246328" />
	</node>
	<node changeset="66772044" id="6247114363" lat="59.6213111" lon="10.97075" timestamp="2019-01-30T14:11:22Z" uid="633013" user="Honning" version="1">
		<tag k="name" v="Vestereng" />
		<tag k="place" v="farm" />
		<tag k="ssr:stedsnr" v="246330" />
	</node>
	<node changeset="66792411" id="6247114364" lat="59.6252639" lon="10.9180583" timestamp="2019-01-31T07:08:38Z" uid="633013" user="Honning" version="2">
		<tag k="name" v="Gustvet" />
		<tag k="place" v="hamlet" />
		<tag k="ssr:stedsnr" v="246336" />
	</node>
	<node changeset="66781766" id="6247114365" lat="59.6140148" lon="10.8899158" timestamp="2019-01-30T19:44:24Z" uid="633013" user="Honning" version="2">
		<tag k="name" v="Haug" />
		<tag k="place" v="hamlet" />
		<tag k="ssr:stedsnr" v="246342" />
	</node>
	<node changeset="66772044" id="6247114366" lat="59.6091389" lon="10.9143278" timestamp="2019-01-30T14:11:22Z" uid="633013" user="Honning" version="1">
		<tag k="name" v="Orskog" />
		<tag k="place" v="farm" />
		<tag k="ssr:stedsnr" v="246359" />
	</node>
	<node changeset="66792411" id="6247114367" lat="59.679275" lon="11.0024056" timestamp="2019-01-31T07:08:38Z" uid="633013" user="Honning" version="2">
		<tag k="name" v="Unås" />
		<tag k="place" v="hamlet" />
		<tag k="ssr:stedsnr" v="246422" />
	</node>
	<node changeset="66772044" id="6247114368" lat="59.52955" lon="10.8715056" timestamp="2019-01-30T14:11:22Z" uid="633013" user="Honning" version="1">
		<tag k="name" v="Slutningen" />
		<tag k="place" v="isolated_dwelling" />
		<tag k="ssr:stedsnr" v="247011" />
	</node>
	<node changeset="66772044" id="6247114091" lat="59.6132778" lon="10.8887278" timestamp="2019-01-30T14:11:06Z" uid="633013" user="Honning" version="1">
		<tag k="alt_name" v="Haug søndre" />
		<tag k="name" v="Søndre Haug" />
		<tag k="place" v="farm" />
		<tag k="ssr:stedsnr" v="507966" />
	</node>
	<node changeset="66772044" id="6247114092" lat="59.5606111" lon="10.8064583" timestamp="2019-01-30T14:11:06Z" uid="633013" user="Honning" version="1">
		<tag k="alt_name" v="Bjoner øvre" />
		<tag k="name" v="Øvre Bjoner" />
		<tag k="place" v="farm" />
		<tag k="ssr:stedsnr" v="508885" />
	</node>
	<node changeset="66772044" id="2082610829" lat="59.6229121" lon="10.9507461" timestamp="2019-01-30T14:11:23Z" uid="633013" user="Honning" version="4">
		<tag k="name" v="Elvestad" />
		<tag k="place" v="hamlet" />
		<tag k="ssr:stedsnr" v="792315" />
	</node>
	<node changeset="9803328" id="1499769453" lat="59.6465161" lon="10.9526696" timestamp="2011-11-12T11:01:12Z" uid="164049" user="kche" version="1" />
	<node changeset="66772044" id="6247114222" lat="59.576225" lon="10.8835722" timestamp="2019-01-30T14:11:13Z" uid="633013" user="Honning" version="1">
		<tag k="name" v="Eng" />
		<tag k="place" v="farm" />
		<tag k="ssr:stedsnr" v="914231" />
	</node>
	<node changeset="66772044" id="6247114094" lat="59.5651444" lon="10.89005" timestamp="2019-01-30T14:11:06Z" uid="633013" user="Honning" version="1">
		<tag k="name" v="Røstad" />
		<tag k="place" v="locality" />
		<tag k="ssr:stedsnr" v="508926" />
	</node>
	<node changeset="9803328" id="1499769498" lat="59.6466118" lon="10.9526889" timestamp="2011-11-12T11:01:13Z" uid="164049" user="kche" version="1" />
	<node changeset="8291574" id="1305791855" lat="59.6483582" lon="10.9511952" timestamp="2011-05-30T13:07:17Z" uid="160202" user="Vedeler" version="1" />
	<node changeset="66772044" id="6247114127" lat="59.6558667" lon="11.0438639" timestamp="2019-01-30T14:11:08Z" uid="633013" user="Honning" version="1">
		<tag k="name" v="Trosterud" />
		<tag k="place" v="farm" />
		<tag k="ssr:stedsnr" v="609242" />
	</node>
	<node changeset="9803328" id="1499769504" lat="59.6466782" lon="10.951502" timestamp="2011-11-12T11:01:13Z" uid="164049" user="kche" version="1" />
	<node changeset="70217030" id="6247114096" lat="59.603425" lon="10.9085833" timestamp="2019-05-14T05:08:47Z" uid="3497659" user="NKA" version="3">
		<tag k="name" v="Gamle Hagen skole" />
		<tag k="place" v="locality" />
		<tag k="ssr:stedsnr" v="508938" />
		<tag k="was:amenity" v="school" />
	</node>
	<node changeset="9802790" id="1305791857" lat="59.64815" lon="10.9502002" timestamp="2011-11-12T09:35:44Z" uid="164049" user="kche" version="2" />
	<node changeset="66772044" id="6247114183" lat="59.6638806" lon="11.019375" timestamp="2019-01-30T14:11:11Z" uid="633013" user="Honning" version="1">
		<tag k="name" v="Kråkerud" />
		<tag k="place" v="farm" />
		<tag k="ssr:stedsnr" v="791467" />
	</node>
	<node changeset="66772044" id="6247114093" lat="59.5710389" lon="10.87165" timestamp="2019-01-30T14:11:06Z" uid="633013" user="Honning" version="1">
		<tag k="name" v="Sandvollen" />
		<tag k="place" v="farm" />
		<tag k="ssr:stedsnr" v="508921" />
	</node>
	<node changeset="66772044" id="6247114099" lat="59.6373639" lon="11.0107833" timestamp="2019-01-30T14:11:06Z" uid="633013" user="Honning" version="1">
		<tag k="name" v="Sølvberg" />
		<tag k="place" v="farm" />
		<tag k="ssr:stedsnr" v="549322" />
	</node>
	<node changeset="66772044" id="6247114100" lat="59.6254472" lon="11.0140333" timestamp="2019-01-30T14:11:06Z" uid="633013" user="Honning" version="1">
		<tag k="alt_name" v="Lippestad m;Leppestad" />
		<tag k="name" v="Nordre Leppestad" />
		<tag k="place" v="farm" />
		<tag k="ssr:stedsnr" v="549338" />
	</node>
	<node changeset="66772044" id="6247114186" lat="59.63575" lon="10.9629889" timestamp="2019-01-30T14:11:11Z" uid="633013" user="Honning" version="1">
		<tag k="alt_name" v="Bjørkeskog" />
		<tag k="name" v="Bjerkeskog" />
		<tag k="place" v="farm" />
		<tag k="ssr:stedsnr" v="792039" />
	</node>
	<node changeset="66772044" id="6247114101" lat="59.6179417" lon="10.9008167" timestamp="2019-01-30T14:11:06Z" uid="633013" user="Honning" version="1">
		<tag k="name" v="Østerdal" />
		<tag k="place" v="farm" />
		<tag k="ssr:stedsnr" v="549360" />
	</node>
	<node changeset="66772044" id="6247114164" lat="59.5687139" lon="10.8709528" timestamp="2019-01-30T14:11:10Z" uid="633013" user="Honning" version="1">
		<tag k="name" v="Sørli" />
		<tag k="place" v="farm" />
		<tag k="ssr:stedsnr" v="691887" />
	</node>
	<node changeset="66772044" id="6247114175" lat="59.5540889" lon="10.7820861" timestamp="2019-01-30T14:11:11Z" uid="633013" user="Honning" version="1">
		<tag k="alt_name" v="Brånen nordre" />
		<tag k="name" v="Nordre Brånen" />
		<tag k="place" v="farm" />
		<tag k="ssr:stedsnr" v="750852" />
	</node>
	<node changeset="66772044" id="6247114102" lat="59.6201833" lon="10.9900583" timestamp="2019-01-30T14:11:06Z" uid="633013" user="Honning" version="1">
		<tag k="name" v="Melleby" />
		<tag k="place" v="farm" />
		<tag k="ssr:stedsnr" v="549359" />
	</node>
	<node changeset="66772044" id="1891782060" lat="59.5928444" lon="10.9210722" timestamp="2019-01-30T14:11:22Z" uid="633013" user="Honning" version="2">
		<tag k="name" v="Mjærum" />
		<tag k="place" v="farm" />
		<tag k="source:name" v="Vegskilt" />
		<tag k="ssr:stedsnr" v="691917" />
	</node>
	<node changeset="66772044" id="6247114103" lat="59.592725" lon="10.9301111" timestamp="2019-01-30T14:11:06Z" uid="633013" user="Honning" version="1">
		<tag k="name" v="Skvetta" />
		<tag k="place" v="farm" />
		<tag k="ssr:stedsnr" v="550190" />
	</node>
	<node changeset="66772044" id="1891782061" lat="59.6160667" lon="10.9778472" timestamp="2019-01-30T14:11:23Z" uid="633013" user="Honning" version="2">
		<tag k="name" v="Riggesem" />
		<tag k="place" v="farm" />
		<tag k="ssr:stedsnr" v="204748" />
	</node>
	<node changeset="66772044" id="6247114161" lat="59.5528944" lon="10.8244333" timestamp="2019-01-30T14:11:10Z" uid="633013" user="Honning" version="1">
		<tag k="name" v="Sandaker" />
		<tag k="place" v="farm" />
		<tag k="ssr:stedsnr" v="690890" />
	</node>
	<node changeset="66772044" id="6247114104" lat="59.5905806" lon="10.8886639" timestamp="2019-01-30T14:11:06Z" uid="633013" user="Honning" version="1">
		<tag k="alt_name" v="Hvitstein, s" />
		<tag k="name" v="Hvitsten" />
		<tag k="place" v="farm" />
		<tag k="ssr:stedsnr" v="550193" />
	</node>
	<node changeset="66792411" id="6247114105" lat="59.5478222" lon="10.8456731" timestamp="2019-01-31T07:08:38Z" uid="633013" user="Honning" version="3">
		<tag k="alt_name" v="Skjelstad" />
		<tag k="name" v="Skjellfoss" />
		<tag k="place" v="hamlet" />
		<tag k="ssr:stedsnr" v="792037;22922;550219;914264" />
	</node>
	<node changeset="66772044" id="6247114106" lat="59.5471167" lon="10.7906583" timestamp="2019-01-30T14:11:07Z" uid="633013" user="Honning" version="1">
		<tag k="alt_name" v="Narvestad øvre" />
		<tag k="name" v="Narvestad" />
		<tag k="place" v="farm" />
		<tag k="ssr:stedsnr" v="550221" />
	</node>
	<node changeset="66772044" id="6247114277" lat="59.6760167" lon="10.9777389" timestamp="2019-01-30T14:11:17Z" uid="633013" user="Honning" version="1">
		<tag k="alt_name" v="Vien;Vien søndre" />
		<tag k="name" v="Søndre Vien" />
		<tag k="place" v="farm" />
		<tag k="ssr:stedsnr" v="3390" />
	</node>
	<node changeset="66772044" id="6247114107" lat="59.5603972" lon="10.8401111" timestamp="2019-01-30T14:11:07Z" uid="633013" user="Honning" version="1">
		<tag k="alt_name" v="Ringstad søndre" />
		<tag k="name" v="Søndre Ringstad" />
		<tag k="place" v="farm" />
		<tag k="ssr:stedsnr" v="610235" />
	</node>
	<node changeset="9803328" id="1499769571" lat="59.6469596" lon="10.9524453" timestamp="2011-11-12T11:01:14Z" uid="164049" user="kche" version="1" />
	<node changeset="66772044" id="6247114108" lat="59.5611639" lon="10.8552083" timestamp="2019-01-30T14:11:07Z" uid="633013" user="Honning" version="1">
		<tag k="name" v="Hvam" />
		<tag k="place" v="farm" />
		<tag k="ssr:stedsnr" v="610240" />
	</node>
	<node changeset="66772044" id="6247114109" lat="59.5608278" lon="10.8033667" timestamp="2019-01-30T14:11:07Z" uid="633013" user="Honning" version="1">
		<tag k="name" v="Bjoner" />
		<tag k="place" v="farm" />
		<tag k="ssr:stedsnr" v="610242" />
	</node>
	<node changeset="9803328" id="1499769585" lat="59.6470475" lon="10.9521825" timestamp="2011-11-12T11:01:14Z" uid="164049" user="kche" version="1" />
	<node changeset="9803328" id="1499769443" lat="59.6463911" lon="10.9530098" timestamp="2011-11-12T11:01:12Z" uid="164049" user="kche" version="1" />
	<node changeset="66772044" id="6247114131" lat="59.6723389" lon="10.9797944" timestamp="2019-01-30T14:11:08Z" uid="633013" user="Honning" version="1">
		<tag k="alt_name" v="Stokstad" />
		<tag k="name" v="Stokkstad" />
		<tag k="place" v="farm" />
		<tag k="ssr:stedsnr" v="609453" />
	</node>
	<node changeset="66772044" id="6247114238" lat="59.5513278" lon="10.8822528" timestamp="2019-01-30T14:11:14Z" uid="633013" user="Honning" version="1">
		<tag k="name" v="Skistad" />
		<tag k="place" v="farm" />
		<tag k="ssr:stedsnr" v="307276" />
	</node>
	<node changeset="66772044" id="6247114151" lat="59.614325" lon="10.9984694" timestamp="2019-01-30T14:11:09Z" uid="633013" user="Honning" version="1">
		<tag k="name" v="Grimsrud" />
		<tag k="place" v="farm" />
		<tag k="ssr:stedsnr" v="670360" />
	</node>
	<node changeset="66772044" id="6247114153" lat="59.6635833" lon="11.0371389" timestamp="2019-01-30T14:11:09Z" uid="633013" user="Honning" version="1">
		<tag k="name" v="Sørli" />
		<tag k="place" v="isolated_dwelling" />
		<tag k="ssr:stedsnr" v="670456" />
	</node>
	<node changeset="66772044" id="6247114097" lat="59.5611917" lon="10.9808028" timestamp="2019-01-30T14:11:06Z" uid="633013" user="Honning" version="1">
		<tag k="name" v="Seut" />
		<tag k="place" v="isolated_dwelling" />
		<tag k="ssr:stedsnr" v="549192" />
	</node>
	<node changeset="66781766" id="6247114085" lat="59.5670583" lon="10.880175" timestamp="2019-01-30T19:44:23Z" uid="633013" user="Honning" version="2">
		<tag k="name" v="Lier" />
		<tag k="place" v="farm" />
		<tag k="ssr:stedsnr" v="489219" />
	</node>
	<node changeset="66772044" id="6247114200" lat="59.6362361" lon="11.04655" timestamp="2019-01-30T14:11:12Z" uid="633013" user="Honning" version="1">
		<tag k="name" v="Igsi" />
		<tag k="place" v="farm" />
		<tag k="ssr:stedsnr" v="853302" />
	</node>
	<node changeset="9802790" id="1097874713" lat="59.647968" lon="10.9499162" timestamp="2011-11-12T09:35:43Z" uid="164049" user="kche" version="3" />
	<node changeset="66772044" id="6247114152" lat="59.6716972" lon="10.9971972" timestamp="2019-01-30T14:11:09Z" uid="633013" user="Honning" version="1">
		<tag k="name" v="Føsker" />
		<tag k="place" v="farm" />
		<tag k="ssr:stedsnr" v="670452" />
	</node>
	<node changeset="66772044" id="6247114086" lat="59.545825" lon="10.867475" timestamp="2019-01-30T14:11:05Z" uid="633013" user="Honning" version="1">
		<tag k="name" v="Karlstad" />
		<tag k="place" v="farm" />
		<tag k="ssr:stedsnr" v="489252" />
	</node>
	<node changeset="9802790" id="1499693878" lat="59.645957" lon="10.9527428" timestamp="2011-11-12T09:34:59Z" uid="164049" user="kche" version="1" />
	<node changeset="9802790" id="1499693879" lat="59.6459673" lon="10.9529807" timestamp="2011-11-12T09:34:59Z" uid="164049" user="kche" version="1" />
	<node changeset="66792411" id="6247114088" lat="59.6553333" lon="11.02345" timestamp="2019-01-31T07:08:38Z" uid="633013" user="Honning" version="2">
		<tag k="name" v="Roås" />
		<tag k="place" v="farm" />
		<tag k="ssr:stedsnr" v="913249;507801" />
	</node>
	<node changeset="66772044" id="6247114169" lat="59.6796528" lon="10.9771528" timestamp="2019-01-30T14:11:10Z" uid="633013" user="Honning" version="1">
		<tag k="alt_name" v="Vien nordre" />
		<tag k="name" v="Nordre Vien" />
		<tag k="place" v="farm" />
		<tag k="ssr:stedsnr" v="731407" />
	</node>
	<node changeset="66772044" id="6247114087" lat="59.553925" lon="10.9165139" timestamp="2019-01-30T14:11:06Z" uid="633013" user="Honning" version="1">
		<tag k="alt_name" v="Kjernsli" />
		<tag k="name" v="Tjernsli" />
		<tag k="place" v="farm" />
		<tag k="ssr:stedsnr" v="489270" />
	</node>
	<node changeset="9802790" id="1499693892" lat="59.6460792" lon="10.9522301" timestamp="2011-11-12T09:34:59Z" uid="164049" user="kche" version="1" />
	<node changeset="9802790" id="1499693893" lat="59.6461083" lon="10.9529437" timestamp="2011-11-12T09:34:59Z" uid="164049" user="kche" version="1" />
	<node changeset="9802790" id="1499693897" lat="59.6461684" lon="10.9526607" timestamp="2011-11-12T09:34:59Z" uid="164049" user="kche" version="1" />
	<node changeset="9802790" id="1499693905" lat="59.6462596" lon="10.9526402" timestamp="2011-11-12T09:35:00Z" uid="164049" user="kche" version="1" />
	<node changeset="66781766" id="6247114126" lat="59.6863223" lon="11.0375549" timestamp="2019-01-30T19:44:23Z" uid="633013" user="Honning" version="2">
		<tag k="name" v="Svikebøl" />
		<tag k="place" v="hamlet" />
		<tag k="ssr:stedsnr" v="600333" />
	</node>
	<node changeset="66772044" id="6247113048" lat="59.5334972" lon="10.796675" timestamp="2019-01-30T14:11:03Z" uid="633013" user="Honning" version="1">
		<tag k="alt_name" v="Vang (Blekkhus)" />
		<tag k="name" v="Vang" />
		<tag k="place" v="farm" />
		<tag k="ssr:stedsnr" v="247022" />
	</node>
	<node changeset="66772044" id="6247113049" lat="59.58" lon="10.886975" timestamp="2019-01-30T14:11:03Z" uid="633013" user="Honning" version="1">
		<tag k="alt_name" v="Rygge nedre" />
		<tag k="name" v="Nedre Rygge" />
		<tag k="place" v="farm" />
		<tag k="ssr:stedsnr" v="247170" />
	</node>
	<node changeset="66772044" id="6247113050" lat="59.5913583" lon="10.90375" timestamp="2019-01-30T14:11:03Z" uid="633013" user="Honning" version="1">
		<tag k="name" v="Riser" />
		<tag k="place" v="farm" />
		<tag k="ssr:stedsnr" v="247183" />
	</node>
	<node changeset="66772044" id="6247113051" lat="59.5716667" lon="10.8588139" timestamp="2019-01-30T14:11:04Z" uid="633013" user="Honning" version="1">
		<tag k="alt_name" v="Gleden" />
		<tag k="name" v="Gleda" />
		<tag k="place" v="farm" />
		<tag k="ssr:stedsnr" v="247212" />
	</node>
	<node changeset="9802790" id="1499693971" lat="59.6483425" lon="10.9507413" timestamp="2011-11-12T09:35:01Z" uid="164049" user="kche" version="1" />
	<node changeset="66772044" id="6247113053" lat="59.6115694" lon="10.9867583" timestamp="2019-01-30T14:11:04Z" uid="633013" user="Honning" version="1">
		<tag k="name" v="Sandaker" />
		<tag k="place" v="farm" />
		<tag k="ssr:stedsnr" v="264759" />
	</node>
	<node changeset="66792411" id="6247113054" lat="59.6311056" lon="10.9579944" timestamp="2019-01-31T07:08:38Z" uid="633013" user="Honning" version="2">
		<tag k="name" v="Støttum" />
		<tag k="place" v="farm" />
		<tag k="ssr:stedsnr" v="264773;670304;750750" />
	</node>
	<node changeset="66772044" id="6247113055" lat="59.6731889" lon="10.9708194" timestamp="2019-01-30T14:11:04Z" uid="633013" user="Honning" version="1">
		<tag k="name" v="Svanesund" />
		<tag k="place" v="farm" />
		<tag k="ssr:stedsnr" v="264790" />
	</node>
	<node changeset="66772044" id="6247113056" lat="59.6588889" lon="11.0051806" timestamp="2019-01-30T14:11:04Z" uid="633013" user="Honning" version="1">
		<tag k="name" v="Engen" />
		<tag k="place" v="farm" />
		<tag k="ssr:stedsnr" v="264813" />
	</node>
	<node changeset="66772044" id="6247113057" lat="59.5521667" lon="10.8010889" timestamp="2019-01-30T14:11:04Z" uid="633013" user="Honning" version="1">
		<tag k="name" v="Nygård" />
		<tag k="place" v="farm" />
		<tag k="ssr:stedsnr" v="264891" />
	</node>
	<node changeset="66772044" id="6247113058" lat="59.6125833" lon="10.9273417" timestamp="2019-01-30T14:11:04Z" uid="633013" user="Honning" version="1">
		<tag k="alt_name" v="Hvitsten øvre" />
		<tag k="name" v="Øvre Hvitsten" />
		<tag k="place" v="farm" />
		<tag k="ssr:stedsnr" v="264958" />
	</node>
	<node changeset="66772044" id="6247113059" lat="59.6151083" lon="10.8887833" timestamp="2019-01-30T14:11:04Z" uid="633013" user="Honning" version="1">
		<tag k="alt_name" v="Haug nordre" />
		<tag k="name" v="Nordre Haug" />
		<tag k="place" v="farm" />
		<tag k="ssr:stedsnr" v="265954" />
	</node>
	<node changeset="66772044" id="6247113060" lat="59.6574611" lon="11.0351167" timestamp="2019-01-30T14:11:04Z" uid="633013" user="Honning" version="1">
		<tag k="name" v="Vesterby" />
		<tag k="place" v="farm" />
		<tag k="ssr:stedsnr" v="427494" />
	</node>
	<node changeset="66772044" id="6247113061" lat="59.641" lon="11.0009583" timestamp="2019-01-30T14:11:04Z" uid="633013" user="Honning" version="1">
		<tag k="alt_name" v="Lilleby, østre;Lilleby" />
		<tag k="name" v="Østre Lilleby" />
		<tag k="place" v="farm" />
		<tag k="ssr:stedsnr" v="428269" />
	</node>
	<node changeset="66772044" id="6247113062" lat="59.6165556" lon="10.8811306" timestamp="2019-01-30T14:11:04Z" uid="633013" user="Honning" version="1">
		<tag k="alt_name" v="Haugjordet" />
		<tag k="name" v="Haugsjordet" />
		<tag k="place" v="farm" />
		<tag k="ssr:stedsnr" v="428321" />
	</node>
	<node changeset="66772044" id="6247113063" lat="59.6064972" lon="10.91435" timestamp="2019-01-30T14:11:04Z" uid="633013" user="Honning" version="1">
		<tag k="alt_name" v="Stenbøl" />
		<tag k="name" v="Steinbøl" />
		<tag k="place" v="farm" />
		<tag k="ssr:stedsnr" v="428332" />
	</node>
	<node changeset="66772044" id="6247113064" lat="59.6935278" lon="11.0527639" timestamp="2019-01-30T14:11:04Z" uid="633013" user="Honning" version="1">
		<tag k="name" v="Bognerud" />
		<tag k="place" v="farm" />
		<tag k="ssr:stedsnr" v="428378" />
	</node>
	<node changeset="66772044" id="6247114089" lat="59.6469056" lon="10.9461167" timestamp="2019-01-30T14:11:06Z" uid="633013" user="Honning" version="1">
		<tag k="name" v="Støttumhøgda" />
		<tag k="place" v="farm" />
		<tag k="ssr:stedsnr" v="507841" />
	</node>
	<node changeset="66772044" id="6247114090" lat="59.6166194" lon="10.9234445" timestamp="2019-01-30T14:11:06Z" uid="633013" user="Honning" version="1">
		<tag k="name" v="Hestehagen" />
		<tag k="place" v="farm" />
		<tag k="ssr:stedsnr" v="507957" />
	</node>
	<node changeset="66772044" id="6247113067" lat="59.588825" lon="10.8664028" timestamp="2019-01-30T14:11:04Z" uid="633013" user="Honning" version="1">
		<tag k="name" v="Nygård" />
		<tag k="place" v="farm" />
		<tag k="ssr:stedsnr" v="429171" />
	</node>
	<node changeset="66772044" id="6247113068" lat="59.5877611" lon="10.895875" timestamp="2019-01-30T14:11:04Z" uid="633013" user="Honning" version="1">
		<tag k="alt_name" v="Rygge øvre" />
		<tag k="name" v="Øvre Rygge" />
		<tag k="place" v="farm" />
		<tag k="ssr:stedsnr" v="429178" />
	</node>
	<node changeset="66772044" id="6247113069" lat="59.5429111" lon="10.8151111" timestamp="2019-01-30T14:11:05Z" uid="633013" user="Honning" version="1">
		<tag k="name" v="Berg" />
		<tag k="place" v="farm" />
		<tag k="ssr:stedsnr" v="446901" />
	</node>
	<node changeset="66781766" id="6247113070" lat="59.5844694" lon="10.8747806" timestamp="2019-01-30T19:44:22Z" uid="633013" user="Honning" version="2">
		<tag k="name" v="Grønnsletta" />
		<tag k="place" v="farm" />
		<tag k="ssr:stedsnr" v="446936" />
	</node>
	<node changeset="66772044" id="6247113071" lat="59.6040639" lon="10.9846194" timestamp="2019-01-30T14:11:05Z" uid="633013" user="Honning" version="1">
		<tag k="name" v="Krok" />
		<tag k="place" v="farm" />
		<tag k="ssr:stedsnr" v="447730" />
	</node>
	<node changeset="66772044" id="6247113072" lat="59.5539944" lon="10.8279889" timestamp="2019-01-30T14:11:05Z" uid="633013" user="Honning" version="1">
		<tag k="name" v="Skog" />
		<tag k="place" v="farm" />
		<tag k="ssr:stedsnr" v="447861" />
	</node>
	<node changeset="66772044" id="6247113073" lat="59.5465417" lon="10.8321972" timestamp="2019-01-30T14:11:05Z" uid="633013" user="Honning" version="1">
		<tag k="name" v="Komnes" />
		<tag k="place" v="locality" />
		<tag k="ssr:stedsnr" v="447908" />
	</node>
	<node changeset="66772044" id="6247113074" lat="59.5459417" lon="10.8622361" timestamp="2019-01-30T14:11:05Z" uid="633013" user="Honning" version="1">
		<tag k="name" v="Bardus" />
		<tag k="place" v="isolated_dwelling" />
		<tag k="ssr:stedsnr" v="447911" />
	</node>
	<node changeset="66772044" id="6247113075" lat="59.5693194" lon="10.8752611" timestamp="2019-01-30T14:11:05Z" uid="633013" user="Honning" version="1">
		<tag k="name" v="Høgda" />
		<tag k="place" v="farm" />
		<tag k="ssr:stedsnr" v="448922" />
	</node>
	<node changeset="66772044" id="6247113076" lat="59.6183667" lon="10.9166472" timestamp="2019-01-30T14:11:05Z" uid="633013" user="Honning" version="1">
		<tag k="name" v="Gustvethytta" />
		<tag k="place" v="isolated_dwelling" />
		<tag k="ssr:stedsnr" v="448931" />
	</node>
	<node changeset="66772044" id="6247113077" lat="59.6104306" lon="10.9636361" timestamp="2019-01-30T14:11:05Z" uid="633013" user="Honning" version="1">
		<tag k="alt_name" v="Sterkhytta" />
		<tag k="name" v="Sterkehytta" />
		<tag k="place" v="isolated_dwelling" />
		<tag k="ssr:stedsnr" v="488137" />
	</node>
	<node changeset="66772044" id="6247113078" lat="59.6297639" lon="10.9665389" timestamp="2019-01-30T14:11:05Z" uid="633013" user="Honning" version="1">
		<tag k="name" v="Haskilt" />
		<tag k="place" v="farm" />
		<tag k="ssr:stedsnr" v="488280" />
	</node>
	<node changeset="66772044" id="6247113079" lat="59.6267028" lon="10.9591083" timestamp="2019-01-30T14:11:05Z" uid="633013" user="Honning" version="1">
		<tag k="alt_name" v="Nesset" />
		<tag k="name" v="Neset" />
		<tag k="place" v="farm" />
		<tag k="ssr:stedsnr" v="488299" />
	</node>
	<node changeset="66772044" id="6247113080" lat="59.621775" lon="10.9437833" timestamp="2019-01-30T14:11:05Z" uid="633013" user="Honning" version="1">
		<tag k="name" v="Tingulstad" />
		<tag k="place" v="farm" />
		<tag k="ssr:stedsnr" v="488302" />
	</node>
	<node changeset="66772044" id="6247113081" lat="59.6229" lon="11.0023833" timestamp="2019-01-30T14:11:05Z" uid="633013" user="Honning" version="1">
		<tag k="name" v="Holt" />
		<tag k="place" v="farm" />
		<tag k="ssr:stedsnr" v="488315" />
	</node>
	<node changeset="66772044" id="6247113082" lat="59.6150528" lon="10.951975" timestamp="2019-01-30T14:11:05Z" uid="633013" user="Honning" version="1">
		<tag k="name" v="Gusland" />
		<tag k="place" v="farm" />
		<tag k="ssr:stedsnr" v="488333" />
	</node>
	<node changeset="66772044" id="6247113083" lat="59.620925" lon="10.95725" timestamp="2019-01-30T14:11:05Z" uid="633013" user="Honning" version="1">
		<tag k="alt_name" v="Bovum, nordre" />
		<tag k="name" v="Bovim" />
		<tag k="place" v="farm" />
		<tag k="ssr:stedsnr" v="488335" />
	</node>
	<node changeset="66772044" id="6247113084" lat="59.6733944" lon="11.0284472" timestamp="2019-01-30T14:11:05Z" uid="633013" user="Honning" version="1">
		<tag k="alt_name" v="Hov Nordre" />
		<tag k="name" v="Nordre Hov" />
		<tag k="place" v="farm" />
		<tag k="ssr:stedsnr" v="488447" />
	</node>
	<node changeset="66772044" id="6247113066" lat="59.5795639" lon="10.916575" timestamp="2019-01-30T14:11:04Z" uid="633013" user="Honning" version="1">
		<tag k="name" v="Bøler" />
		<tag k="place" v="farm" />
		<tag k="ssr:stedsnr" v="429163" />
	</node>
	<node changeset="66772044" id="6247114110" lat="59.5727639" lon="10.9765083" timestamp="2019-01-30T14:11:07Z" uid="633013" user="Honning" version="1">
		<tag k="name" v="Mærehytta" />
		<tag k="place" v="isolated_dwelling" />
		<tag k="ssr:stedsnr" v="610256" />
	</node>
	<node changeset="66772044" id="6247114111" lat="59.6297972" lon="10.9351722" timestamp="2019-01-30T14:11:07Z" uid="633013" user="Honning" version="1">
		<tag k="alt_name" v="Pigstad;Pekstad øvre;Greåker" />
		<tag k="name" v="Øvre Pekstad" />
		<tag k="place" v="farm" />
		<tag k="ssr:stedsnr" v="553923" />
	</node>
	<node changeset="66772044" id="6247114112" lat="59.6806056" lon="11.0171778" timestamp="2019-01-30T14:11:07Z" uid="633013" user="Honning" version="1">
		<tag k="name" v="Lund" />
		<tag k="place" v="isolated_dwelling" />
		<tag k="ssr:stedsnr" v="567746" />
	</node>
	<node changeset="66772044" id="6247114113" lat="59.6078083" lon="10.9451778" timestamp="2019-01-30T14:11:07Z" uid="633013" user="Honning" version="1">
		<tag k="name" v="Kasperhytta" />
		<tag k="place" v="isolated_dwelling" />
		<tag k="ssr:stedsnr" v="567752" />
	</node>
	<node changeset="66772044" id="6247114114" lat="59.6282917" lon="10.9647695" timestamp="2019-01-30T14:11:07Z" uid="633013" user="Honning" version="1">
		<tag k="name" v="Sulebru" />
		<tag k="place" v="farm" />
		<tag k="ssr:stedsnr" v="567758" />
	</node>
	<node changeset="66772044" id="6247114115" lat="59.6226528" lon="10.9956972" timestamp="2019-01-30T14:11:07Z" uid="633013" user="Honning" version="1">
		<tag k="name" v="Holtskolen" />
		<tag k="place" v="farm" />
		<tag k="ssr:stedsnr" v="567763" />
	</node>
	<node changeset="66772044" id="6247114116" lat="59.6395472" lon="10.9714833" timestamp="2019-01-30T14:11:07Z" uid="633013" user="Honning" version="1">
		<tag k="name" v="Nesset" />
		<tag k="place" v="farm" />
		<tag k="ssr:stedsnr" v="567832" />
	</node>
	<node changeset="66792411" id="6247114117" lat="59.6641028" lon="10.9955222" timestamp="2019-01-31T07:08:38Z" uid="633013" user="Honning" version="2">
		<tag k="name" v="Øyen" />
		<tag k="place" v="farm" />
		<tag k="ssr:stedsnr" v="567838;63505" />
	</node>
	<node changeset="66772044" id="6247114118" lat="59.6066694" lon="10.8913055" timestamp="2019-01-30T14:11:07Z" uid="633013" user="Honning" version="1">
		<tag k="name" v="Trollhetta" />
		<tag k="place" v="isolated_dwelling" />
		<tag k="ssr:stedsnr" v="567961" />
	</node>
	<node changeset="66772044" id="6247114119" lat="59.5608528" lon="10.8037833" timestamp="2019-01-30T14:11:07Z" uid="633013" user="Honning" version="1">
		<tag k="alt_name" v="Bjoner nedre" />
		<tag k="name" v="Nedre Bjoner" />
		<tag k="place" v="farm" />
		<tag k="ssr:stedsnr" v="568863" />
	</node>
	<node changeset="66792411" id="6247114120" lat="59.6205694" lon="10.9217528" timestamp="2019-01-31T07:08:38Z" uid="633013" user="Honning" version="3">
		<tag k="name" v="Groterud" />
		<tag k="place" v="farm" />
		<tag k="ssr:stedsnr" v="872967;568962" />
	</node>
	<node changeset="66772044" id="6247114121" lat="59.5728444" lon="10.8481111" timestamp="2019-01-30T14:11:07Z" uid="633013" user="Honning" version="1">
		<tag k="name" v="Vestereng" />
		<tag k="place" v="farm" />
		<tag k="ssr:stedsnr" v="569871" />
	</node>
	<node changeset="66772044" id="6247114122" lat="59.5681917" lon="10.880375" timestamp="2019-01-30T14:11:08Z" uid="633013" user="Honning" version="1">
		<tag k="name" v="Østereng" />
		<tag k="place" v="farm" />
		<tag k="ssr:stedsnr" v="569872" />
	</node>
	<node changeset="66772044" id="6247114123" lat="59.5694278" lon="10.8549972" timestamp="2019-01-30T14:11:08Z" uid="633013" user="Honning" version="1">
		<tag k="alt_name" v="Saksebøl øvre" />
		<tag k="name" v="Øvre Saksebøl" />
		<tag k="place" v="farm" />
		<tag k="ssr:stedsnr" v="569879" />
	</node>
	<node changeset="66781766" id="6247114124" lat="59.5842472" lon="10.880325" timestamp="2019-01-30T19:44:23Z" uid="633013" user="Honning" version="2">
		<tag k="name" v="Skogrom" />
		<tag k="place" v="isolated_dwelling" />
		<tag k="ssr:stedsnr" v="569912" />
	</node>
	<node changeset="9803328" id="1499769742" lat="59.6478055" lon="10.9505239" timestamp="2011-11-12T11:01:17Z" uid="164049" user="kche" version="1" />
	<node changeset="9802790" id="1499693967" lat="59.6480606" lon="10.9504008" timestamp="2011-11-12T09:35:01Z" uid="164049" user="kche" version="1" />
	<node changeset="66772044" id="6247114128" lat="59.635175" lon="10.9740056" timestamp="2019-01-30T14:11:08Z" uid="633013" user="Honning" version="1">
		<tag k="name" v="Finnholt" />
		<tag k="place" v="farm" />
		<tag k="ssr:stedsnr" v="609304" />
	</node>
	<node changeset="9802790" id="1499693969" lat="59.6482368" lon="10.9499702" timestamp="2011-11-12T09:35:01Z" uid="164049" user="kche" version="1" />
	<node changeset="66772044" id="6247114130" lat="59.6680389" lon="10.9884889" timestamp="2019-01-30T14:11:08Z" uid="633013" user="Honning" version="1">
		<tag k="name" v="Villumstad" />
		<tag k="place" v="farm" />
		<tag k="ssr:stedsnr" v="609451" />
	</node>
	<node changeset="9803328" id="1499769747" lat="59.64787" lon="10.9508796" timestamp="2011-11-12T11:01:17Z" uid="164049" user="kche" version="1" />
	<node changeset="66772044" id="6247114132" lat="59.5440306" lon="10.7850639" timestamp="2019-01-30T14:11:08Z" uid="633013" user="Honning" version="1">
		<tag k="alt_name" v="Narvestad nedre" />
		<tag k="name" v="Narvestad" />
		<tag k="place" v="farm" />
		<tag k="ssr:stedsnr" v="610027" />
	</node>
	<node changeset="66772044" id="6247114133" lat="59.5341389" lon="10.8701722" timestamp="2019-01-30T14:11:08Z" uid="633013" user="Honning" version="1">
		<tag k="name" v="Holmen" />
		<tag k="place" v="farm" />
		<tag k="ssr:stedsnr" v="610029" />
	</node>
	<node changeset="66792411" id="6247114134" lat="59.6009389" lon="10.9309389" timestamp="2019-01-31T07:08:38Z" uid="633013" user="Honning" version="2">
		<tag k="name" v="Hovin" />
		<tag k="place" v="farm" />
		<tag k="ssr:stedsnr" v="628959;610033;186135" />
	</node>
	<node changeset="66772044" id="6247114135" lat="59.597225" lon="11.0275389" timestamp="2019-01-30T14:11:08Z" uid="633013" user="Honning" version="1">
		<tag k="alt_name" v="Levestad" />
		<tag k="name" v="Levorstad" />
		<tag k="place" v="farm" />
		<tag k="ssr:stedsnr" v="610146" />
	</node>
	<node changeset="66772044" id="6247114136" lat="59.5952361" lon="10.9344556" timestamp="2019-01-30T14:11:08Z" uid="633013" user="Honning" version="1">
		<tag k="alt_name" v="Hovinshytta" />
		<tag k="name" v="Hovin" />
		<tag k="place" v="farm" />
		<tag k="ssr:stedsnr" v="610163" />
	</node>
	<node changeset="66772044" id="6247114137" lat="59.6750722" lon="10.9550917" timestamp="2019-01-30T14:11:08Z" uid="633013" user="Honning" version="1">
		<tag k="name" v="Bjørnehjellen" />
		<tag k="place" v="farm" />
		<tag k="ssr:stedsnr" v="610479" />
	</node>
	<node changeset="66772044" id="6247114138" lat="59.5459" lon="10.7989556" timestamp="2019-01-30T14:11:08Z" uid="633013" user="Honning" version="1">
		<tag k="name" v="Stubberud" />
		<tag k="place" v="farm" />
		<tag k="ssr:stedsnr" v="628875" />
	</node>
	<node changeset="66772044" id="6247114098" lat="59.6374306" lon="10.9740139" timestamp="2019-01-30T14:11:06Z" uid="633013" user="Honning" version="1">
		<tag k="name" v="Tassebakke" />
		<tag k="place" v="farm" />
		<tag k="ssr:stedsnr" v="549312" />
	</node>
	<node changeset="66792411" id="1495167900" lat="59.5549389" lon="10.9335055" timestamp="2019-01-31T07:08:38Z" uid="633013" user="Honning" version="3">
		<tag k="name" v="Bærøe" />
		<tag k="place" v="hamlet" />
		<tag k="ssr:stedsnr" v="4230" />
	</node>
	<node changeset="66772044" id="6247114141" lat="59.5731278" lon="10.9818611" timestamp="2019-01-30T14:11:09Z" uid="633013" user="Honning" version="1">
		<tag k="alt_name" v="Tretterstykker" />
		<tag k="name" v="Tretterstykke" />
		<tag k="place" v="locality" />
		<tag k="ssr:stedsnr" v="628965" />
	</node>
	<node changeset="9803328" id="1499769758" lat="59.6478895" lon="10.9512855" timestamp="2011-11-12T11:01:18Z" uid="164049" user="kche" version="1" />
	<node changeset="66772044" id="6247114143" lat="59.5702306" lon="10.8733556" timestamp="2019-01-30T14:11:09Z" uid="633013" user="Honning" version="1">
		<tag k="name" v="Fjellstad" />
		<tag k="place" v="farm" />
		<tag k="ssr:stedsnr" v="629917" />
	</node>
	<node changeset="9803328" id="1499769761" lat="59.6479085" lon="10.9499307" timestamp="2011-11-12T11:01:18Z" uid="164049" user="kche" version="1" />
	<node changeset="66772044" id="6247114146" lat="59.554925" lon="10.8097944" timestamp="2019-01-30T14:11:09Z" uid="633013" user="Honning" version="1">
		<tag k="name" v="Råken" />
		<tag k="place" v="farm" />
		<tag k="ssr:stedsnr" v="671241" />
	</node>
	<node changeset="66772044" id="6247114139" lat="59.5318833" lon="10.8362667" timestamp="2019-01-30T14:11:09Z" uid="633013" user="Honning" version="1">
		<tag k="name" v="Høyås" />
		<tag k="old_name" v="Hoyås;Høiaas;Nordre Heiaas" />
		<tag k="place" v="farm" />
		<tag k="ssr:stedsnr" v="628905" />
	</node>
	<node changeset="66772044" id="6247114148" lat="59.6424611" lon="11.01235" timestamp="2019-01-30T14:11:09Z" uid="633013" user="Honning" version="1">
		<tag k="name" v="Kjærbu" />
		<tag k="place" v="farm" />
		<tag k="ssr:stedsnr" v="670282" />
	</node>
	<node changeset="66792411" id="1891782054" lat="59.6076528" lon="10.9164806" timestamp="2019-01-31T07:08:38Z" uid="633013" user="Honning" version="3">
		<tag k="name" v="Bilitt" />
		<tag k="place" v="hamlet" />
		<tag k="ssr:stedsnr" v="853116;82945" />
	</node>
	<node changeset="66772044" id="1891782055" lat="59.5928222" lon="11.02065" timestamp="2019-01-30T14:11:22Z" uid="633013" user="Honning" version="2">
		<tag k="name" v="Bøler" />
		<tag k="place" v="farm" />
		<tag k="ssr:stedsnr" v="125144" />
	</node>
	<node changeset="66772044" id="1891782056" lat="59.6117278" lon="10.9423333" timestamp="2019-01-30T14:11:22Z" uid="633013" user="Honning" version="2">
		<tag k="alt_name" v="Fjeld" />
		<tag k="name" v="Fjell" />
		<tag k="place" v="farm" />
		<tag k="source:name" v="Privat skilt" />
		<tag k="ssr:stedsnr" v="246350" />
	</node>
	<node changeset="66772044" id="1891782057" lat="59.6013389" lon="10.9384917" timestamp="2019-01-30T14:11:22Z" uid="633013" user="Honning" version="2">
		<tag k="name" v="Haslerud" />
		<tag k="place" v="farm" />
		<tag k="source:name" v="Postkasseskilt" />
		<tag k="ssr:stedsnr" v="550146" />
	</node>
	<node changeset="66772044" id="6247114154" lat="59.6626972" lon="10.9830972" timestamp="2019-01-30T14:11:09Z" uid="633013" user="Honning" version="1">
		<tag k="name" v="Solberg" />
		<tag k="place" v="farm" />
		<tag k="ssr:stedsnr" v="670459" />
	</node>
	<node changeset="66772044" id="1891782059" lat="59.6034861" lon="11.0088667" timestamp="2019-01-30T14:11:22Z" uid="633013" user="Honning" version="3">
		<tag k="name" v="Lure" />
		<tag k="place" v="farm" />
		<tag k="ssr:stedsnr" v="670154" />
	</node>
	<node changeset="66772044" id="6247114156" lat="59.5614361" lon="10.8789583" timestamp="2019-01-30T14:11:09Z" uid="633013" user="Honning" version="1">
		<tag k="alt_name" v="Bakknesa" />
		<tag k="name" v="Bakkneset" />
		<tag k="place" v="farm" />
		<tag k="ssr:stedsnr" v="671196" />
	</node>
	<node changeset="66772044" id="6247114157" lat="59.68375" lon="11.0346028" timestamp="2019-01-30T14:11:10Z" uid="633013" user="Honning" version="1">
		<tag k="alt_name" v="Svikebøl Øvre" />
		<tag k="name" v="Øvre Svikebøl" />
		<tag k="place" v="farm" />
		<tag k="ssr:stedsnr" v="671409" />
	</node>
	<node changeset="66772044" id="6247114158" lat="59.7001611" lon="10.9756833" timestamp="2019-01-30T14:11:10Z" uid="633013" user="Honning" version="1">
		<tag k="name" v="Holshytta" />
		<tag k="place" v="isolated_dwelling" />
		<tag k="ssr:stedsnr" v="689789" />
	</node>
	<node changeset="66772044" id="6247114159" lat="59.6498667" lon="10.9872861" timestamp="2019-01-30T14:11:10Z" uid="633013" user="Honning" version="1">
		<tag k="name" v="Tolfshus" />
		<tag k="place" v="farm" />
		<tag k="ssr:stedsnr" v="689797" />
	</node>
	<node changeset="66772044" id="6247114160" lat="59.6793889" lon="10.9842444" timestamp="2019-01-30T14:11:10Z" uid="633013" user="Honning" version="1">
		<tag k="name" v="Burås" />
		<tag k="place" v="isolated_dwelling" />
		<tag k="ssr:stedsnr" v="689805" />
	</node>
	<node changeset="9803328" id="1499769416" lat="59.6462602" lon="10.9515793" timestamp="2011-11-12T11:01:12Z" uid="164049" user="kche" version="1" />
	<node changeset="66772044" id="6247114162" lat="59.6020889" lon="10.8944417" timestamp="2019-01-30T14:11:10Z" uid="633013" user="Honning" version="1">
		<tag k="name" v="Hulsbråten" />
		<tag k="place" v="farm" />
		<tag k="ssr:stedsnr" v="690962" />
	</node>
	<node changeset="66772044" id="6247114163" lat="59.6100167" lon="10.9227222" timestamp="2019-01-30T14:11:10Z" uid="633013" user="Honning" version="1">
		<tag k="name" v="Hvitsten" />
		<tag k="place" v="farm" />
		<tag k="ssr:stedsnr" v="690964" />
	</node>
	<node changeset="66772044" id="6247113065" lat="59.6808333" lon="10.9786472" timestamp="2019-01-30T14:11:04Z" uid="633013" user="Honning" version="1">
		<tag k="name" v="Bergerud" />
		<tag k="place" v="locality" />
		<tag k="ssr:stedsnr" v="428400" />
	</node>
	<node changeset="66772044" id="6247114142" lat="59.5598222" lon="10.8218" timestamp="2019-01-30T14:11:09Z" uid="633013" user="Honning" version="1">
		<tag k="name" v="Holtet" />
		<tag k="place" v="farm" />
		<tag k="ssr:stedsnr" v="629894" />
	</node>
	<node changeset="66772044" id="6247114166" lat="59.6471583" lon="11.0023583" timestamp="2019-01-30T14:11:10Z" uid="633013" user="Honning" version="1">
		<tag k="alt_name" v="Kinnerud" />
		<tag k="name" v="Kinnerød" />
		<tag k="place" v="farm" />
		<tag k="ssr:stedsnr" v="731216" />
	</node>
	<node changeset="66772044" id="6247114167" lat="59.639575" lon="10.9823528" timestamp="2019-01-30T14:11:10Z" uid="633013" user="Honning" version="1">
		<tag k="name" v="Lyshaug" />
		<tag k="place" v="farm" />
		<tag k="ssr:stedsnr" v="731238" />
	</node>
	<node changeset="66772044" id="6247114168" lat="59.6105972" lon="10.8958278" timestamp="2019-01-30T14:11:10Z" uid="633013" user="Honning" version="1">
		<tag k="name" v="Kattås" />
		<tag k="place" v="farm" />
		<tag k="ssr:stedsnr" v="731329" />
	</node>
	<node changeset="66772044" id="1286742872" lat="59.6650528" lon="11.0239833" timestamp="2019-01-30T14:11:22Z" uid="633013" user="Honning" version="2">
		<tag k="name" v="Myra" />
		<tag k="place" v="farm" />
		<tag k="ssr:stedsnr" v="791455" />
	</node>
	<node changeset="66772044" id="6247114170" lat="59.6807778" lon="11.0195667" timestamp="2019-01-30T14:11:10Z" uid="633013" user="Honning" version="1">
		<tag k="name" v="Kroken" />
		<tag k="place" v="farm" />
		<tag k="ssr:stedsnr" v="731433" />
	</node>
	<node changeset="66781766" id="6247114171" lat="59.5648806" lon="10.8837528" timestamp="2019-01-30T19:44:23Z" uid="633013" user="Honning" version="2">
		<tag k="name" v="Granrud" />
		<tag k="place" v="farm" />
		<tag k="ssr:stedsnr" v="732206" />
	</node>
	<node changeset="66772044" id="6247114172" lat="59.5543611" lon="10.8912167" timestamp="2019-01-30T14:11:10Z" uid="633013" user="Honning" version="1">
		<tag k="name" v="Kornetta" />
		<tag k="place" v="farm" />
		<tag k="ssr:stedsnr" v="732252" />
	</node>
	<node changeset="66772044" id="6247114174" lat="59.6815083" lon="11.0149056" timestamp="2019-01-30T14:11:10Z" uid="633013" user="Honning" version="1">
		<tag k="name" v="Sanner" />
		<tag k="place" v="isolated_dwelling" />
		<tag k="ssr:stedsnr" v="750773" />
	</node>
	<node changeset="9803328" id="1499769791" lat="59.6480966" lon="10.9512932" timestamp="2011-11-12T11:01:18Z" uid="164049" user="kche" version="1" />
	<node changeset="66772044" id="6247114176" lat="59.5479167" lon="10.8094694" timestamp="2019-01-30T14:11:11Z" uid="633013" user="Honning" version="1">
		<tag k="alt_name" v="Bråte vestre" />
		<tag k="name" v="Vestre Bråte" />
		<tag k="place" v="farm" />
		<tag k="ssr:stedsnr" v="750886" />
	</node>
	<node changeset="66772044" id="6247114177" lat="59.6182889" lon="10.935175" timestamp="2019-01-30T14:11:11Z" uid="633013" user="Honning" version="1">
		<tag k="alt_name" v="Greaker øvre" />
		<tag k="name" v="Øvre Greaker" />
		<tag k="place" v="farm" />
		<tag k="ssr:stedsnr" v="750959" />
	</node>
	<node changeset="66772044" id="6247114178" lat="59.5930778" lon="10.9404472" timestamp="2019-01-30T14:11:11Z" uid="633013" user="Honning" version="1">
		<tag k="name" v="Sofiatomta" />
		<tag k="place" v="isolated_dwelling" />
		<tag k="ssr:stedsnr" v="751950" />
	</node>
	<node changeset="66772044" id="6247114179" lat="59.6551917" lon="11.016875" timestamp="2019-01-30T14:11:11Z" uid="633013" user="Honning" version="1">
		<tag k="alt_name" v="Blikksland" />
		<tag k="name" v="Bliksland" />
		<tag k="place" v="farm" />
		<tag k="ssr:stedsnr" v="791252" />
	</node>
	<node changeset="66772044" id="6247114180" lat="59.6393833" lon="10.9484556" timestamp="2019-01-30T14:11:11Z" uid="633013" user="Honning" version="1">
		<tag k="name" v="Bråten" />
		<tag k="place" v="farm" />
		<tag k="ssr:stedsnr" v="791277" />
	</node>
	<node changeset="66772044" id="6247114181" lat="59.6449667" lon="10.9918944" timestamp="2019-01-30T14:11:11Z" uid="633013" user="Honning" version="1">
		<tag k="name" v="Vestby" />
		<tag k="place" v="farm" />
		<tag k="ssr:stedsnr" v="791284" />
	</node>
	<node changeset="66792411" id="6247114182" lat="59.6562" lon="11.0109528" timestamp="2019-01-31T07:08:38Z" uid="633013" user="Honning" version="2">
		<tag k="name" v="Nygård" />
		<tag k="place" v="hamlet" />
		<tag k="ssr:stedsnr" v="791464" />
	</node>
	<node changeset="66772044" id="6247114145" lat="59.6233639" lon="10.9420944" timestamp="2019-01-30T14:11:09Z" uid="633013" user="Honning" version="1">
		<tag k="alt_name" v="Tingulstad øvre" />
		<tag k="name" v="Øvre Tingulstad" />
		<tag k="place" v="farm" />
		<tag k="ssr:stedsnr" v="629973" />
	</node>
	<node changeset="66772044" id="6247114184" lat="59.6607111" lon="11.0263722" timestamp="2019-01-30T14:11:11Z" uid="633013" user="Honning" version="1">
		<tag k="alt_name" v="Østereng" />
		<tag k="name" v="Geiteberg" />
		<tag k="place" v="farm" />
		<tag k="ssr:stedsnr" v="791468" />
	</node>
	<node changeset="66772044" id="6247114129" lat="59.6040194" lon="10.9044472" timestamp="2019-01-30T14:11:08Z" uid="633013" user="Honning" version="1">
		<tag k="name" v="Bjerve" />
		<tag k="place" v="farm" />
		<tag k="ssr:stedsnr" v="609360" />
	</node>
	<node changeset="66772044" id="6247114187" lat="59.5941278" lon="10.9182528" timestamp="2019-01-30T14:11:11Z" uid="633013" user="Honning" version="1">
		<tag k="name" v="Berger" />
		<tag k="place" v="farm" />
		<tag k="ssr:stedsnr" v="792133" />
	</node>
	<node changeset="66772044" id="6247114188" lat="59.593825" lon="11.0146139" timestamp="2019-01-30T14:11:11Z" uid="633013" user="Honning" version="1">
		<tag k="name" v="Sagbakken" />
		<tag k="place" v="farm" />
		<tag k="ssr:stedsnr" v="792140" />
	</node>
	<node changeset="66772044" id="6247114189" lat="59.5497" lon="10.7931111" timestamp="2019-01-30T14:11:11Z" uid="633013" user="Honning" version="1">
		<tag k="name" v="Oddestad" />
		<tag k="place" v="farm" />
		<tag k="ssr:stedsnr" v="792218" />
	</node>
	<node changeset="66772044" id="6247114190" lat="59.6277306" lon="10.9774722" timestamp="2019-01-30T14:11:11Z" uid="633013" user="Honning" version="1">
		<tag k="alt_name" v="Vestgård" />
		<tag k="name" v="Vestgard" />
		<tag k="place" v="farm" />
		<tag k="ssr:stedsnr" v="792311" />
	</node>
	<node changeset="66772044" id="6247114191" lat="59.6125972" lon="10.9206" timestamp="2019-01-30T14:11:12Z" uid="633013" user="Honning" version="1">
		<tag k="name" v="Rød" />
		<tag k="place" v="farm" />
		<tag k="ssr:stedsnr" v="792346" />
	</node>
	<node changeset="66772044" id="6247114192" lat="59.6773472" lon="10.9829861" timestamp="2019-01-30T14:11:12Z" uid="633013" user="Honning" version="1">
		<tag k="alt_name" v="Svanebakke" />
		<tag k="name" v="Svanebakk" />
		<tag k="place" v="farm" />
		<tag k="ssr:stedsnr" v="792451" />
	</node>
	<node changeset="66772044" id="6247114193" lat="59.5497333" lon="10.7993556" timestamp="2019-01-30T14:11:12Z" uid="633013" user="Honning" version="1">
		<tag k="alt_name" v="Oddestad østre" />
		<tag k="name" v="Østre Oddestad" />
		<tag k="place" v="farm" />
		<tag k="ssr:stedsnr" v="810913" />
	</node>
	<node changeset="66772044" id="6247114194" lat="59.670675" lon="11.0219833" timestamp="2019-01-30T14:11:12Z" uid="633013" user="Honning" version="1">
		<tag k="name" v="Møllerstua" />
		<tag k="place" v="isolated_dwelling" />
		<tag k="ssr:stedsnr" v="811729" />
	</node>
	<node changeset="66772044" id="6247114147" lat="59.639225" lon="11.0076" timestamp="2019-01-30T14:11:09Z" uid="633013" user="Honning" version="1">
		<tag k="name" v="Lundeby" />
		<tag k="place" v="farm" />
		<tag k="ssr:stedsnr" v="670281" />
	</node>
	<node changeset="66772044" id="6247114196" lat="59.5827528" lon="10.83875" timestamp="2019-01-30T14:11:12Z" uid="633013" user="Honning" version="1">
		<tag k="name" v="Låsken" />
		<tag k="place" v="farm" />
		<tag k="ssr:stedsnr" v="812941" />
	</node>
	<node changeset="66772044" id="6247114197" lat="59.5872028" lon="10.8754083" timestamp="2019-01-30T14:11:12Z" uid="633013" user="Honning" version="1">
		<tag k="name" v="Snippen" />
		<tag k="place" v="isolated_dwelling" />
		<tag k="ssr:stedsnr" v="812944" />
	</node>
	<node changeset="66772044" id="6247114198" lat="59.5302799" lon="10.8800075" timestamp="2019-01-30T14:11:12Z" uid="633013" user="Honning" version="1">
		<tag k="fixme" v="consider tourism=wilderness_hut or tourism=chalet" />
		<tag k="name" v="Askerødhytta" />
		<tag k="ssr:stedsnr" v="844894" />
		<tag k="tourism" v="alpine_hut" />
	</node>
	<node changeset="66772044" id="6247114199" lat="59.6573667" lon="10.9956722" timestamp="2019-01-30T14:11:12Z" uid="633013" user="Honning" version="1">
		<tag k="name" v="Brøholt" />
		<tag k="place" v="farm" />
		<tag k="ssr:stedsnr" v="852474" />
	</node>
	<node changeset="66792411" id="6247113052" lat="59.6684472" lon="11.0286972" timestamp="2019-01-31T07:08:38Z" uid="633013" user="Honning" version="2">
		<tag k="name" v="Vaglen" />
		<tag k="place" v="farm" />
		<tag k="ssr:stedsnr" v="264752;245462;671019" />
	</node>
	<node changeset="66781766" id="6247114201" lat="59.6161901" lon="10.9778633" timestamp="2019-01-30T19:44:23Z" uid="633013" user="Honning" version="2">
		<tag k="alt_name" v="Riggesem" />
		<tag k="name" v="Riggesum" />
		<tag k="place" v="hamlet" />
		<tag k="ssr:stedsnr" v="853352" />
	</node>
	<node changeset="66772044" id="6247114202" lat="59.6055806" lon="10.9093944" timestamp="2019-01-30T14:11:12Z" uid="633013" user="Honning" version="1">
		<tag k="name" v="Åsen" />
		<tag k="place" v="farm" />
		<tag k="ssr:stedsnr" v="853366" />
	</node>
	<node changeset="66772044" id="6247114203" lat="59.5322833" lon="10.8003056" timestamp="2019-01-30T14:11:12Z" uid="633013" user="Honning" version="1">
		<tag k="alt_name" v="Daltun" />
		<tag k="name" v="Bekkhusmyra" />
		<tag k="place" v="farm" />
		<tag k="ssr:stedsnr" v="854005" />
	</node>
	<node changeset="66772044" id="6247114204" lat="59.5725222" lon="10.8857361" timestamp="2019-01-30T14:11:12Z" uid="633013" user="Honning" version="1">
		<tag k="name" v="Tisbjørnrud" />
		<tag k="place" v="farm" />
		<tag k="ssr:stedsnr" v="854197" />
	</node>
	<node changeset="66772044" id="6247114205" lat="59.6830972" lon="11.0494083" timestamp="2019-01-30T14:11:12Z" uid="633013" user="Honning" version="1">
		<tag k="alt_name" v="Jaren Øvre" />
		<tag k="name" v="Øvre Jaren" />
		<tag k="place" v="farm" />
		<tag k="ssr:stedsnr" v="854408" />
	</node>
	<node changeset="66772044" id="6247114206" lat="59.6742361" lon="10.9700639" timestamp="2019-01-30T14:11:12Z" uid="633013" user="Honning" version="1">
		<tag k="name" v="Svanesund" />
		<tag k="place" v="farm" />
		<tag k="ssr:stedsnr" v="871761" />
	</node>
	<node changeset="66792411" id="6247114207" lat="59.6498833" lon="11.0121194" timestamp="2019-01-31T07:08:38Z" uid="633013" user="Honning" version="2">
		<tag k="name" v="Tomter" />
		<tag k="place" v="farm" />
		<tag k="ssr:stedsnr" v="367222;325774;871774" />
	</node>
	<node changeset="66772044" id="6247114208" lat="59.6422417" lon="10.9737611" timestamp="2019-01-30T14:11:13Z" uid="633013" user="Honning" version="1">
		<tag k="name" v="Sagbakken" />
		<tag k="place" v="farm" />
		<tag k="ssr:stedsnr" v="871806" />
	</node>
	<node changeset="66772044" id="6247114209" lat="59.5498611" lon="10.7937111" timestamp="2019-01-30T14:11:13Z" uid="633013" user="Honning" version="1">
		<tag k="alt_name" v="Oddestad vestre" />
		<tag k="name" v="Vestre Oddestad" />
		<tag k="place" v="farm" />
		<tag k="ssr:stedsnr" v="871878" />
	</node>
	<node changeset="66772044" id="6247114211" lat="59.5712333" lon="10.8686" timestamp="2019-01-30T14:11:13Z" uid="633013" user="Honning" version="1">
		<tag k="name" v="Kolstad" />
		<tag k="place" v="farm" />
		<tag k="ssr:stedsnr" v="873894" />
	</node>
	<node changeset="66772044" id="6247114212" lat="59.5543444" lon="10.91365" timestamp="2019-01-30T14:11:13Z" uid="633013" user="Honning" version="1">
		<tag k="name" v="Bakken" />
		<tag k="place" v="locality" />
		<tag k="ssr:stedsnr" v="873912" />
	</node>
	<node changeset="66772044" id="6247114150" lat="59.6204167" lon="10.9965972" timestamp="2019-01-30T14:11:09Z" uid="633013" user="Honning" version="1">
		<tag k="name" v="Jaren" />
		<tag k="place" v="farm" />
		<tag k="ssr:stedsnr" v="670349" />
	</node>
	<node changeset="66772044" id="6247114214" lat="59.6348222" lon="10.938825" timestamp="2019-01-30T14:11:13Z" uid="633013" user="Honning" version="1">
		<tag k="name" v="Skog" />
		<tag k="place" v="farm" />
		<tag k="ssr:stedsnr" v="913297" />
	</node>
	<node changeset="66772044" id="6247114215" lat="59.6315306" lon="11.0527361" timestamp="2019-01-30T14:11:13Z" uid="633013" user="Honning" version="1">
		<tag k="name" v="Hollebøl" />
		<tag k="place" v="farm" />
		<tag k="ssr:stedsnr" v="913305" />
	</node>
	<node changeset="66772044" id="6247114216" lat="59.6326" lon="11.0158361" timestamp="2019-01-30T14:11:13Z" uid="633013" user="Honning" version="1">
		<tag k="name" v="Nordenga" />
		<tag k="place" v="farm" />
		<tag k="ssr:stedsnr" v="913307" />
	</node>
	<node changeset="66772044" id="6247114217" lat="59.6275639" lon="10.9848361" timestamp="2019-01-30T14:11:13Z" uid="633013" user="Honning" version="1">
		<tag k="name" v="Torp" />
		<tag k="place" v="farm" />
		<tag k="ssr:stedsnr" v="913324" />
	</node>
	<node changeset="66772044" id="6247114218" lat="59.6684278" lon="11.015325" timestamp="2019-01-30T14:11:13Z" uid="633013" user="Honning" version="1">
		<tag k="name" v="Kråkeruddalen" />
		<tag k="place" v="farm" />
		<tag k="ssr:stedsnr" v="913444" />
	</node>
	<node changeset="66772044" id="6247114219" lat="59.577125" lon="10.9424833" timestamp="2019-01-30T14:11:13Z" uid="633013" user="Honning" version="1">
		<tag k="name" v="Gaukestua" />
		<tag k="place" v="isolated_dwelling" />
		<tag k="ssr:stedsnr" v="914178" />
	</node>
	<node changeset="66772044" id="6247114220" lat="59.5653056" lon="10.8785528" timestamp="2019-01-30T14:11:13Z" uid="633013" user="Honning" version="1">
		<tag k="name" v="Rom" />
		<tag k="place" v="farm" />
		<tag k="ssr:stedsnr" v="914204" />
	</node>
	<node changeset="66772044" id="6247114221" lat="59.5710583" lon="10.8907361" timestamp="2019-01-30T14:11:13Z" uid="633013" user="Honning" version="1">
		<tag k="name" v="Holstad" />
		<tag k="place" v="farm" />
		<tag k="ssr:stedsnr" v="914227" />
	</node>
	<node changeset="66781766" id="6247114195" lat="59.5577583" lon="10.9206917" timestamp="2019-01-30T19:44:23Z" uid="633013" user="Honning" version="2">
		<tag k="name" v="Piskopp" />
		<tag k="place" v="farm" />
		<tag k="ssr:stedsnr" v="812918" />
	</node>
	<node changeset="66792411" id="6247114223" lat="59.5472833" lon="10.8141139" timestamp="2019-01-31T07:08:38Z" uid="633013" user="Honning" version="2">
		<tag k="name" v="Bråte" />
		<tag k="place" v="hamlet" />
		<tag k="ssr:stedsnr" v="914241" />
	</node>
	<node changeset="66772044" id="6247114225" lat="59.6289833" lon="10.9478444" timestamp="2019-01-30T14:11:13Z" uid="633013" user="Honning" version="1">
		<tag k="name" v="Nærbølhagen" />
		<tag k="place" v="farm" />
		<tag k="ssr:stedsnr" v="932738" />
	</node>
	<node changeset="66772044" id="6247114226" lat="59.6349222" lon="10.9388472" timestamp="2019-01-30T14:11:14Z" uid="633013" user="Honning" version="1">
		<tag k="alt_name" v="Skog søndre" />
		<tag k="name" v="Søndre Skog" />
		<tag k="place" v="farm" />
		<tag k="ssr:stedsnr" v="933928" />
	</node>
	<node changeset="66772044" id="6247114227" lat="59.6371389" lon="10.9397361" timestamp="2019-01-30T14:11:14Z" uid="633013" user="Honning" version="1">
		<tag k="alt_name" v="Skog nordre" />
		<tag k="name" v="Nordre Skog" />
		<tag k="place" v="farm" />
		<tag k="ssr:stedsnr" v="933930" />
	</node>
	<node changeset="8291574" id="1097874932" lat="59.6462872" lon="10.9530512" timestamp="2011-05-30T12:56:18Z" uid="160202" user="Vedeler" version="2" />
	<node changeset="66772044" id="6247114229" lat="59.6461389" lon="11.0255055" timestamp="2019-01-30T14:11:14Z" uid="633013" user="Honning" version="1">
		<tag k="alt_name" v="Ødegård" />
		<tag k="name" v="Ødegården" />
		<tag k="place" v="farm" />
		<tag k="ssr:stedsnr" v="306280" />
	</node>
	<node changeset="66772044" id="6247114230" lat="59.630425" lon="10.9988222" timestamp="2019-01-30T14:11:14Z" uid="633013" user="Honning" version="1">
		<tag k="name" v="Dullerud" />
		<tag k="place" v="farm" />
		<tag k="ssr:stedsnr" v="306303" />
	</node>
	<node changeset="66772044" id="6247114231" lat="59.5517472" lon="10.8176444" timestamp="2019-01-30T14:11:14Z" uid="633013" user="Honning" version="1">
		<tag k="alt_name" v="Skinnerud;Skinnerud østre;Skinnerød østre" />
		<tag k="name" v="Østre Skinnerud" />
		<tag k="place" v="farm" />
		<tag k="ssr:stedsnr" v="307033" />
	</node>
	<node changeset="69690343" id="6247114232" lat="59.5324155" lon="10.8809454" timestamp="2019-04-29T10:45:45Z" uid="4198735" user="michalzz" version="2">
		<tag k="name" v="Tjernshagen" />
		<tag k="place" v="farm" />
		<tag k="ssr:stedsnr" v="307035" />
	</node>
	<node changeset="66772044" id="6247114233" lat="59.5619278" lon="10.8311111" timestamp="2019-01-30T14:11:14Z" uid="633013" user="Honning" version="1">
		<tag k="alt_name" v="Nommestad" />
		<tag k="name" v="Nummestad" />
		<tag k="place" v="farm" />
		<tag k="ssr:stedsnr" v="307211" />
	</node>
	<node changeset="66772044" id="6247114234" lat="59.5658639" lon="10.8443" timestamp="2019-01-30T14:11:14Z" uid="633013" user="Honning" version="1">
		<tag k="name" v="Li" />
		<tag k="place" v="farm" />
		<tag k="ssr:stedsnr" v="307214" />
	</node>
	<node changeset="66772044" id="6247114235" lat="59.5632472" lon="10.8443028" timestamp="2019-01-30T14:11:14Z" uid="633013" user="Honning" version="1">
		<tag k="alt_name" v="Ringstad nordre" />
		<tag k="name" v="Nordre Ringstad" />
		<tag k="place" v="farm" />
		<tag k="ssr:stedsnr" v="307213" />
	</node>
	<node changeset="66772044" id="6247114236" lat="59.5694611" lon="10.8521972" timestamp="2019-01-30T14:11:14Z" uid="633013" user="Honning" version="1">
		<tag k="name" v="Saksebøl" />
		<tag k="place" v="farm" />
		<tag k="ssr:stedsnr" v="307247" />
	</node>
	<node changeset="66772044" id="6247114237" lat="59.5506" lon="10.864375" timestamp="2019-01-30T14:11:14Z" uid="633013" user="Honning" version="1">
		<tag k="name" v="Karlstad" />
		<tag k="place" v="farm" />
		<tag k="ssr:stedsnr" v="307274" />
	</node>
	<node changeset="66772044" id="6247114228" lat="59.6282167" lon="10.9255611" timestamp="2019-01-30T14:11:14Z" uid="633013" user="Honning" version="1">
		<tag k="name" v="Kølabonn" />
		<tag k="place" v="farm" />
		<tag k="ssr:stedsnr" v="933931" />
	</node>
	<node changeset="66772044" id="6247114239" lat="59.681675" lon="10.9744556" timestamp="2019-01-30T14:11:14Z" uid="633013" user="Honning" version="1">
		<tag k="name" v="Myrvoll" />
		<tag k="place" v="farm" />
		<tag k="ssr:stedsnr" v="307445" />
	</node>
	<way changeset="70392081" id="690920249" timestamp="2019-05-18T17:02:01Z" uid="36147" user="Øystein Bjørndal" version="1">
		<tag k="landuse" v="farmyard" />
		<tag k="name" v="Lilleskog" />
		<tag k="ssr:stedsnr" v="82843" />
		<nd ref="1499769758" />
		<nd ref="1499769747" />
		<nd ref="1499769742" />
		<nd ref="1499769761" />
		<nd ref="1097874713" />
		<nd ref="1499693969" />
		<nd ref="1305791857" />
		<nd ref="1499693967" />
		<nd ref="1499693971" />
		<nd ref="1305791855" />
		<nd ref="1499769791" />
		<nd ref="1499769758" />
	</way>
	<way changeset="70392081" id="690920250" timestamp="2019-05-18T17:02:01Z" uid="36147" user="Øystein Bjørndal" version="1">
		<tag k="landuse" v="farmyard" />
		<tag k="name" v="Stubberud" />
		<tag k="ssr:stedsnr" v="63310" />
		<nd ref="1499693878" />
		<nd ref="1499693879" />
		<nd ref="1499693893" />
		<nd ref="1499693897" />
		<nd ref="1499693905" />
		<nd ref="1097874932" />
		<nd ref="1499769443" />
		<nd ref="1499769453" />
		<nd ref="1499769498" />
		<nd ref="1499769571" />
		<nd ref="1499769585" />
		<nd ref="1499769504" />
		<nd ref="1499769416" />
		<nd ref="1499769392" />
		<nd ref="1499769405" />
		<nd ref="1499693892" />
		<nd ref="1499693878" />
	</way>
</osm>
