<?xml version="1.0" encoding="UTF-8"?>
<osm generator="osmapis" version="0.6">
	<node id="-164010" lat="60.1741333423" lon="10.3200621222">
		<tag k="alt_name" v="Haug" />
		<tag k="amenity" v="place_of_worship" />
		<tag k="denomination" v="lutheran" />
		<tag k="name" v="Haug kirke" />
		<tag k="religion" v="christian" />
		<tag k="ssr:stedsnr" v="247599" />
	</node>
	<node id="-161783" lat="60.2462250042" lon="10.171605556">
		<tag k="name" v="Gåsføtt" />
		<tag k="place" v="locality" />
		<tag k="ssr:stedsnr" v="269305" />
	</node>
	<node id="-165236" lat="60.3396332156" lon="9.84378523163">
		<tag k="amenity" v="place_of_worship" />
		<tag k="denomination" v="lutheran" />
		<tag k="name" v="Strømsoddbygda kapell" />
		<tag k="old_name" v="Strømsoddbygda" />
		<tag k="religion" v="christian" />
		<tag k="ssr:stedsnr" v="613848" />
	</node>
	<node id="-163571" lat="60.4187000028" lon="10.0042694462">
		<tag k="name" v="Skåpet" />
		<tag k="place" v="locality" />
		<tag k="ssr:stedsnr" v="150194" />
	</node>
	<node id="-164721" lat="60.6038555572" lon="9.9749305577">
		<tag k="name" v="Hengslet" />
		<tag k="place" v="locality" />
		<tag k="ssr:stedsnr" v="514749" />
	</node>
	<node id="-166384" lat="60.1671277781" lon="10.0206055536">
		<tag k="name" v="Langedalsgruvene" />
		<tag k="place" v="locality" />
		<tag k="ssr:stedsnr" v="818342" />
	</node>
	<node id="-164077" lat="60.2678833297" lon="10.1747833377">
		<tag k="alt_name" v="Hval" />
		<tag k="amenity" v="place_of_worship" />
		<tag k="denomination" v="lutheran" />
		<tag k="name" v="Hval kirke" />
		<tag k="old_name" v="Ytre Ådal" />
		<tag k="religion" v="christian" />
		<tag k="ssr:stedsnr" v="249453" />
	</node>
	<node id="-163817" lat="60.1904749976" lon="10.364513883">
		<tag k="amenity" v="community_centre" />
		<tag k="name" v="Salem" />
		<tag k="ssr:stedsnr" v="206912" />
	</node>
	<node id="-162152" lat="60.1626722209" lon="10.0214749942">
		<tag k="name" v="Tysklandsgruvene" />
		<tag k="place" v="locality" />
		<tag k="ssr:stedsnr" v="332326" />
	</node>
	<node id="-164327" lat="60.3311888933" lon="10.1481722231">
		<tag k="name" v="Storglaneren" />
		<tag k="ssr:stedsnr" v="451969" />
		<tag k="tourism" v="viewpoint" />
	</node>
	<node id="-165603" lat="60.1214694406" lon="10.4143694487">
		<tag k="name" v="Helleramshula" />
		<tag k="place" v="locality" />
		<tag k="ssr:stedsnr" v="693043" />
	</node>
	<node id="-162144" lat="60.4715472189" lon="9.98820277828">
		<tag k="name" v="Kølamila" />
		<tag k="place" v="locality" />
		<tag k="ssr:stedsnr" v="332160" />
	</node>
	<node id="-163678" lat="60.206797223" lon="10.0858361145">
		<tag k="alt_name" v="Veme" />
		<tag k="amenity" v="place_of_worship" />
		<tag k="denomination" v="lutheran" />
		<tag k="name" v="Veme kirke" />
		<tag k="religion" v="christian" />
		<tag k="ssr:stedsnr" v="186595" />
	</node>
	<node id="-164061" lat="60.4717666638" lon="10.0631083306">
		<tag k="amenity" v="community_centre" />
		<tag k="name" v="Framnes" />
		<tag k="ssr:stedsnr" v="248698" />
	</node>
	<node id="-166356" lat="60.3802027747" lon="10.0420055573">
		<tag k="name" v="Bekkekroken" />
		<tag k="place" v="locality" />
		<tag k="ssr:stedsnr" v="817869" />
	</node>
	<node id="-166670" lat="60.1182111151" lon="10.0259805597">
		<tag k="name" v="Tjuenborgen" />
		<tag k="place" v="locality" />
		<tag k="ssr:stedsnr" v="878393" />
	</node>
	<node id="-165970" lat="60.1268500027" lon="10.4431333421">
		<tag k="fixme" v="multiple name tags, choose one and add the other to alt_name" />
		<tag k="name" v="Tolveren;Hjulhuset" />
		<tag k="place" v="locality" />
		<tag k="ssr:stedsnr" v="754493" />
	</node>
	<node id="-166979" lat="60.2319111144" lon="10.2124972191">
		<tag k="name" v="Milestøtta" />
		<tag k="old_name" v="Minestøtta" />
		<tag k="place" v="locality" />
		<tag k="ssr:stedsnr" v="937502" />
	</node>
	<node id="-163901" lat="60.4782972199" lon="10.0109416742">
		<tag k="name" v="Elgegravene" />
		<tag k="place" v="locality" />
		<tag k="ssr:stedsnr" v="211221" />
	</node>
	<node id="-162492" lat="60.3595916665" lon="9.923452785">
		<tag k="name" v="Områdecella" />
		<tag k="ssr:stedsnr" v="393030" />
		<tag k="tourism" v="attraction" />
	</node>
	<node id="-165663" lat="60.4493472224" lon="9.97440000124">
		<tag k="name" v="Fisketjernfurua" />
		<tag k="place" v="locality" />
		<tag k="ssr:stedsnr" v="696117" />
	</node>
	<node id="-163126" lat="60.2766500009" lon="9.79613611148">
		<tag k="amenity" v="community_centre" />
		<tag k="name" v="Breidablikk" />
		<tag k="ssr:stedsnr" v="67656" />
	</node>
	<node id="-163337" lat="60.1714960874" lon="10.3900169094">
		<tag k="amenity" v="place_of_worship" />
		<tag k="denomination" v="lutheran" />
		<tag k="name" v="Ringkollkapellet" />
		<tag k="religion" v="christian" />
		<tag k="ssr:stedsnr" v="126012" />
	</node>
	<node id="-163507" lat="60.1370111092" lon="10.2769166685">
		<tag k="amenity" v="community_centre" />
		<tag k="name" v="Njardarhov" />
		<tag k="ssr:stedsnr" v="147849" />
	</node>
	<node id="-164339" lat="60.4259999991" lon="10.0386055569">
		<tag k="name" v="Tobakkrullen" />
		<tag k="place" v="locality" />
		<tag k="ssr:stedsnr" v="453465" />
	</node>
	<node id="-166317" lat="60.311597223" lon="10.1778194439">
		<tag k="name" v="Kjemperingen" />
		<tag k="place" v="locality" />
		<tag k="ssr:stedsnr" v="815654" />
	</node>
	<node id="-164266" lat="60.1892916709" lon="10.3488833385">
		<tag k="name" v="Guribråten" />
		<tag k="place" v="locality" />
		<tag k="ssr:stedsnr" v="449881" />
	</node>
	<node id="-164775" lat="60.4782861125" lon="10.011641668">
		<tag k="name" v="Elgegravene" />
		<tag k="place" v="locality" />
		<tag k="ssr:stedsnr" v="527445" />
	</node>
	<node id="-165030" lat="60.5264944472" lon="9.89218332787">
		<tag k="name" v="Storfurustubben" />
		<tag k="place" v="locality" />
		<tag k="ssr:stedsnr" v="575260" />
	</node>
	<node id="-165541" lat="60.4494194478" lon="10.0399666743">
		<tag k="alt_name" v="Viker" />
		<tag k="amenity" v="place_of_worship" />
		<tag k="denomination" v="lutheran" />
		<tag k="name" v="Viker kirke" />
		<tag k="religion" v="christian" />
		<tag k="ssr:stedsnr" v="673533" />
	</node>
	<node id="-163620" lat="60.6190555563" lon="9.96153889312">
		<tag k="name" v="Russerleiren" />
		<tag k="place" v="locality" />
		<tag k="ssr:stedsnr" v="150903" />
	</node>
	<node id="-163235" lat="60.4077055558" lon="10.0952166599">
		<tag k="name" v="Kirkesteinen" />
		<tag k="place" v="locality" />
		<tag k="ssr:stedsnr" v="89886" />
	</node>
	<node id="-166815" lat="60.0861194461" lon="10.0975916591">
		<tag k="alt_name" v="Tyristrand" />
		<tag k="amenity" v="place_of_worship" />
		<tag k="denomination" v="lutheran" />
		<tag k="name" v="Tyristrand kirke" />
		<tag k="religion" v="christian" />
		<tag k="ssr:stedsnr" v="915286" />
	</node>
	<node id="-165278" lat="60.3014750036" lon="10.1709611191">
		<tag k="amenity" v="community_centre" />
		<tag k="name" v="Somdalen grendehus" />
		<tag k="ssr:stedsnr" v="632570" />
	</node>
	<node id="-165019" lat="60.3654638872" lon="9.92200555321">
		<tag k="name" v="Distriktscella" />
		<tag k="ssr:stedsnr" v="575022" />
		<tag k="tourism" v="attraction" />
	</node>
	<node id="-161816" lat="60.4225777797" lon="10.1110722271">
		<tag k="name" v="Roligkastet" />
		<tag k="place" v="locality" />
		<tag k="ssr:stedsnr" v="271536" />
	</node>
	<node id="-162436" lat="60.5728750009" lon="10.0555611187">
		<tag k="name" v="Brannvakt" />
		<tag k="ssr:stedsnr" v="390139" />
		<tag k="tourism" v="viewpoint" />
	</node>
	<node id="-163222" lat="60.2042611103" lon="10.1001472229">
		<tag k="amenity" v="community_centre" />
		<tag k="name" v="Folkets hus" />
		<tag k="ssr:stedsnr" v="89803" />
	</node>
	<node id="-163860" lat="60.1802444438" lon="10.2583111038">
		<tag k="alt_name" v="Ullerål" />
		<tag k="amenity" v="place_of_worship" />
		<tag k="denomination" v="lutheran" />
		<tag k="name" v="Ullerål kirke" />
		<tag k="religion" v="christian" />
		<tag k="ssr:stedsnr" v="208816" />
	</node>
	<node id="-163864" lat="60.1452861095" lon="10.2757027713">
		<tag k="name" v="Galgefurua" />
		<tag k="place" v="locality" />
		<tag k="ssr:stedsnr" v="208915" />
	</node>
	<node id="-166030" lat="60.4681972263" lon="9.9969944383">
		<tag k="name" v="Bjørneåta" />
		<tag k="place" v="locality" />
		<tag k="ssr:stedsnr" v="757170" />
	</node>
	<node id="-164107" lat="60.5638916676" lon="9.98561943942">
		<tag k="alt_name" v="Nes" />
		<tag k="amenity" v="place_of_worship" />
		<tag k="denomination" v="lutheran" />
		<tag k="name" v="Nes kirke" />
		<tag k="religion" v="christian" />
		<tag k="ssr:stedsnr" v="250600" />
	</node>
	<node id="-166921" lat="60.1666666703" lon="10.260302779">
		<tag k="alt_name" v="Hønefoss" />
		<tag k="amenity" v="place_of_worship" />
		<tag k="denomination" v="lutheran" />
		<tag k="name" v="Hønefoss kirke" />
		<tag k="religion" v="christian" />
		<tag k="ssr:stedsnr" v="935632" />
	</node>
	<node id="-163335" lat="60.1313124748" lon="10.2699541627">
		<tag k="alt_name" v="Norderhov" />
		<tag k="amenity" v="place_of_worship" />
		<tag k="denomination" v="lutheran" />
		<tag k="name" v="Norderhov kirke" />
		<tag k="religion" v="christian" />
		<tag k="ssr:stedsnr" v="125734" />
	</node>
	<node id="-162702" lat="60.2419055542" lon="9.92842777032">
		<tag k="alt_name" v="Lunder" />
		<tag k="amenity" v="place_of_worship" />
		<tag k="denomination" v="lutheran" />
		<tag k="name" v="Lunder kirke" />
		<tag k="religion" v="christian" />
		<tag k="ssr:stedsnr" v="4231" />
	</node>
	<node id="-164851" lat="60.137816671" lon="10.1807111113">
		<tag k="alt_name" v="Ask kirke;Ask" />
		<tag k="amenity" v="place_of_worship" />
		<tag k="denomination" v="lutheran" />
		<tag k="name" v="Ask kapell" />
		<tag k="religion" v="christian" />
		<tag k="ssr:stedsnr" v="551683" />
	</node>
	<node id="-163934" lat="60.585130553" lon="9.99112221792">
		<tag k="alt_name" v="Kommunahaugen" />
		<tag k="name" v="Kommunehaugen" />
		<tag k="place" v="locality" />
		<tag k="ssr:stedsnr" v="211753" />
	</node>
</osm>
