<?xml version="1.0" encoding="UTF-8"?>
<osm generator="osmapis" version="0.6">
	<node id="-166400" lat="60.5746194407" lon="9.95231667376">
		<tag k="name" v="Aurtjernslegga" />
		<tag k="place" v="locality" />
		<tag k="ssr:stedsnr" v="818678" />
	</node>
	<node id="-163832" lat="60.1693916707" lon="10.2427749954">
		<tag k="name" v="Hønefoss stasjon" />
		<tag k="railway" v="station" />
		<tag k="ssr:stedsnr" v="208006" />
		<tag k="train" v="yes" />
	</node>
	<node id="-164777" lat="60.3098388872" lon="9.9029777829">
		<tag k="bridge" v="yes" />
		<tag k="layer" v="1" />
		<tag k="name" v="Lyså" />
		<tag k="ssr:stedsnr" v="531879" />
	</node>
	<node id="-166383" lat="60.5587277778" lon="9.87760278229">
		<tag k="name" v="Liavelta" />
		<tag k="place" v="locality" />
		<tag k="ssr:stedsnr" v="818320" />
	</node>
	<node id="-163306" lat="60.1890083328" lon="10.2320194366">
		<tag k="bridge" v="yes" />
		<tag k="layer" v="1" />
		<tag k="name" v="Glederud" />
		<tag k="ssr:stedsnr" v="107899" />
	</node>
	<node id="-163305" lat="60.1638277746" lon="10.2461444505">
		<tag k="bridge" v="yes" />
		<tag k="layer" v="1" />
		<tag k="name" v="Ring" />
		<tag k="ssr:stedsnr" v="107871" />
	</node>
	<node id="-163297" lat="60.1891277764" lon="10.1707972286">
		<tag k="bridge" v="yes" />
		<tag k="layer" v="1" />
		<tag k="name" v="Hallsteinrud jordbruksundergang" />
		<tag k="ssr:stedsnr" v="100935" />
	</node>
	<node id="-164320" lat="60.3185583294" lon="10.2045944367">
		<tag k="bridge" v="yes" />
		<tag k="layer" v="1" />
		<tag k="name" v="Granbrua" />
		<tag k="ssr:stedsnr" v="451576" />
	</node>
	<node id="-163293" lat="60.2947555518" lon="9.74665555897">
		<tag k="highway" v="path" />
		<tag k="name" v="Plassereset" />
		<tag k="ssr:stedsnr" v="91881" />
	</node>
	<node id="-162266" lat="60.1741333299" lon="10.3429194518">
		<tag k="bridge" v="yes" />
		<tag k="layer" v="1" />
		<tag k="name" v="Furuset" />
		<tag k="ssr:stedsnr" v="349916" />
	</node>
	<node id="-162265" lat="60.5465583328" lon="10.0531416703">
		<tag k="bridge" v="yes" />
		<tag k="layer" v="1" />
		<tag k="name" v="Gråbeinbekk" />
		<tag k="ssr:stedsnr" v="349914" />
	</node>
	<node id="-162264" lat="60.2004083319" lon="10.2604277698">
		<tag k="bridge" v="yes" />
		<tag k="layer" v="1" />
		<tag k="name" v="Risesletta" />
		<tag k="ssr:stedsnr" v="349893" />
	</node>
	<node id="-162263" lat="60.2318472247" lon="10.232422231">
		<tag k="bridge" v="yes" />
		<tag k="layer" v="1" />
		<tag k="name" v="Hensmoen" />
		<tag k="ssr:stedsnr" v="349890" />
	</node>
	<node id="-162262" lat="60.174222222" lon="10.2196194412">
		<tag k="bridge" v="yes" />
		<tag k="layer" v="1" />
		<tag k="name" v="Toppen" />
		<tag k="ssr:stedsnr" v="349802" />
	</node>
	<node id="-162259" lat="60.2280055592" lon="9.96784443979">
		<tag k="name" v="Skraperud" />
		<tag k="railway" v="halt" />
		<tag k="ssr:stedsnr" v="345560" />
		<tag k="train" v="yes" />
	</node>
	<node id="-163268" lat="60.568377777" lon="9.93749999395">
		<tag k="name" v="Fyrendrepen" />
		<tag k="place" v="locality" />
		<tag k="ssr:stedsnr" v="90643" />
	</node>
	<node id="-164799" lat="60.2188044539" lon="10.2261735191">
		<tag k="name" v="Hen stasjon" />
		<tag k="railway" v="station" />
		<tag k="ssr:stedsnr" v="550494" />
		<tag k="train" v="yes" />
	</node>
	<node id="-164286" lat="60.1712670792" lon="10.2631763774">
		<tag k="bridge" v="yes" />
		<tag k="layer" v="1" />
		<tag k="loc_name" v="Hvitebrua" />
		<tag k="name" v="Overmannsund" />
		<tag k="ssr:stedsnr" v="450651" />
	</node>
	<node id="-166843" lat="60.1109138899" lon="10.1409805496">
		<tag k="name" v="Veholt" />
		<tag k="railway" v="halt" />
		<tag k="ssr:stedsnr" v="915737" />
		<tag k="train" v="yes" />
	</node>
	<node id="-165806" lat="60.0769103512" lon="10.1013604799">
		<tag k="name" v="Hagabru holdeplass" />
		<tag k="railway" v="halt" />
		<tag k="ssr:stedsnr" v="733240" />
		<tag k="train" v="yes" />
	</node>
	<node id="-162219" lat="60.3823555533" lon="9.84341666691">
		<tag k="junction" v="yes" />
		<tag k="name" v="Hestefallet" />
		<tag k="place" v="locality" />
		<tag k="ssr:stedsnr" v="333017" />
	</node>
	<node id="-164778" lat="60.1533250007" lon="10.2575500064">
		<tag k="bridge" v="yes" />
		<tag k="layer" v="1" />
		<tag k="name" v="Dalsbråten" />
		<tag k="ssr:stedsnr" v="531902" />
	</node>
	<node id="-163241" lat="60.3943083305" lon="9.86678888219">
		<tag k="ford" v="yes" />
		<tag k="name" v="Vadstein" />
		<tag k="place" v="locality" />
		<tag k="ssr:stedsnr" v="90002" />
	</node>
	<node id="-164776" lat="60.1455749986" lon="10.2333611161">
		<tag k="bridge" v="yes" />
		<tag k="layer" v="1" />
		<tag k="name" v="Storelva" />
		<tag k="ssr:stedsnr" v="531791" />
	</node>
	<node id="-166641" lat="60.2361499975" lon="10.2443250077">
		<tag k="ford" v="yes" />
		<tag k="name" v="Setervad" />
		<tag k="place" v="locality" />
		<tag k="ssr:stedsnr" v="876476" />
	</node>
	<node id="-163652" lat="60.3538111134" lon="10.0865749998">
		<tag k="bridge" v="yes" />
		<tag k="layer" v="1" />
		<tag k="name" v="Killingstrømmen" />
		<tag k="ssr:stedsnr" v="167860" />
	</node>
	<node id="-164746" lat="60.3786222219" lon="9.83294445288">
		<tag k="ford" v="yes" />
		<tag k="name" v="Tungevad" />
		<tag k="place" v="locality" />
		<tag k="ssr:stedsnr" v="515017" />
	</node>
	<node id="-164743" lat="60.6162694424" lon="9.94172499447">
		<tag k="fixme" v="verify maritime location" />
		<tag k="mooring" v="yes" />
		<tag k="name" v="Seterstøa" />
		<tag k="place" v="locality" />
		<tag k="ssr:stedsnr" v="514924" />
	</node>
	<node id="-165766" lat="60.4935166701" lon="10.0708166678">
		<tag k="bridge" v="yes" />
		<tag k="layer" v="1" />
		<tag k="name" v="Briskodden" />
		<tag k="ssr:stedsnr" v="713876" />
	</node>
	<node id="-165765" lat="60.2684805544" lon="10.1742805523">
		<tag k="bridge" v="yes" />
		<tag k="layer" v="1" />
		<tag k="name" v="Hval" />
		<tag k="ssr:stedsnr" v="713864" />
	</node>
	<node id="-165764" lat="60.1902888932" lon="10.1597916684">
		<tag k="bridge" v="yes" />
		<tag k="layer" v="1" />
		<tag k="name" v="Sætra" />
		<tag k="ssr:stedsnr" v="713792" />
	</node>
	<node id="-162687" lat="60.2480102902" lon="10.1021334469">
		<tag k="highway" v="path" />
		<tag k="name" v="Vassfarstien" />
		<tag k="ssr:stedsnr" v="988992" />
	</node>
	<node id="-165751" lat="60.5281972231" lon="9.81563056388">
		<tag k="highway" v="path" />
		<tag k="name" v="Angerskleiv" />
		<tag k="ssr:stedsnr" v="697362" />
	</node>
	<node id="-165749" lat="60.5569083329" lon="9.86741388153">
		<tag k="name" v="Tiurvelta" />
		<tag k="place" v="locality" />
		<tag k="ssr:stedsnr" v="697327" />
	</node>
	<node id="-165748" lat="60.5538305593" lon="9.81273611264">
		<tag k="highway" v="path" />
		<tag k="name" v="Kleiva" />
		<tag k="ssr:stedsnr" v="697312" />
	</node>
	<node id="-164715" lat="60.5815833353" lon="9.9250194396">
		<tag k="name" v="Bjørnstadbakkane" />
		<tag k="place" v="locality" />
		<tag k="ssr:stedsnr" v="514676" />
	</node>
	<node id="-166756" lat="60.5912972191" lon="9.98054167035">
		<tag k="junction" v="yes" />
		<tag k="name" v="Korsvegane" />
		<tag k="place" v="locality" />
		<tag k="ssr:stedsnr" v="879751" />
	</node>
	<node id="-165094" lat="60.5555305532" lon="9.89931388808">
		<tag k="bridge" v="yes" />
		<tag k="layer" v="1" />
		<tag k="name" v="Flatbråten" />
		<tag k="ssr:stedsnr" v="591870" />
	</node>
	<node id="-163672" lat="60.0933609234" lon="10.1245582288">
		<tag k="name" v="Tangen holdeplass" />
		<tag k="railway" v="halt" />
		<tag k="ssr:stedsnr" v="186283" />
		<tag k="train" v="yes" />
	</node>
	<node id="-163156" lat="60.5234666663" lon="10.1137250031">
		<tag k="name" v="Løkvelta" />
		<tag k="place" v="locality" />
		<tag k="ssr:stedsnr" v="86191" />
	</node>
	<node id="-163151" lat="60.2118500019" lon="10.311661112">
		<tag k="aeroway" v="aerodrome" />
		<tag k="fixme" v="multiple name tags, choose one and add the other to alt_name" />
		<tag k="name" v="Eggemoen;Hønefoss flyplass, Eggemoen" />
		<tag k="ssr:stedsnr" v="85439" />
	</node>
	<node id="-163655" lat="60.5411055573" lon="10.1189888891">
		<tag k="bridge" v="yes" />
		<tag k="layer" v="1" />
		<tag k="name" v="Auretjern" />
		<tag k="ssr:stedsnr" v="167879" />
	</node>
	<node id="-163654" lat="60.1232444479" lon="10.2416638801">
		<tag k="bridge" v="yes" />
		<tag k="layer" v="1" />
		<tag k="name" v="Lahaug nord" />
		<tag k="ssr:stedsnr" v="167874" />
	</node>
	<node id="-163653" lat="60.2262666699" lon="9.83318333839">
		<tag k="bridge" v="yes" />
		<tag k="layer" v="1" />
		<tag k="name" v="Langvassbråten" />
		<tag k="ssr:stedsnr" v="167873" />
	</node>
	<node id="-162116" lat="60.2051222205" lon="10.222500005">
		<tag k="highway" v="path" />
		<tag k="name" v="Torget" />
		<tag k="ssr:stedsnr" v="330474" />
	</node>
	<node id="-163651" lat="60.155808336" lon="10.2188666605">
		<tag k="bridge" v="yes" />
		<tag k="layer" v="1" />
		<tag k="name" v="Sørumsmarka" />
		<tag k="ssr:stedsnr" v="167792" />
	</node>
	<node id="-163650" lat="60.267738885" lon="10.1477722188">
		<tag k="bridge" v="yes" />
		<tag k="layer" v="1" />
		<tag k="name" v="Skollerud" />
		<tag k="ssr:stedsnr" v="167788" />
	</node>
	<node id="-162625" lat="60.2381771492" lon="10.2064706758">
		<tag k="highway" v="bus_stop" />
		<tag k="name" v="Skårflågan" />
		<tag k="ssr:stedsnr" v="985798" />
	</node>
	<node id="-165087" lat="60.1985329435" lon="10.1539631038">
		<tag k="bridge" v="yes" />
		<tag k="layer" v="1" />
		<tag k="name" v="Tveita jernbaneundergang" />
		<tag k="ssr:stedsnr" v="585928" />
	</node>
	<node id="-165686" lat="60.1822583313" lon="9.96348888732">
		<tag k="name" v="Stupbakka" />
		<tag k="place" v="locality" />
		<tag k="ssr:stedsnr" v="696675" />
	</node>
	<node id="-165129" lat="60.0434723239" lon="10.0579762861">
		<tag k="name" v="Nakkerud holdeplass" />
		<tag k="railway" v="halt" />
		<tag k="ssr:stedsnr" v="611319" />
		<tag k="train" v="yes" />
	</node>
	<node id="-166109" lat="60.1681500041" lon="10.256566674">
		<tag k="bridge" v="yes" />
		<tag k="layer" v="1" />
		<tag k="name" v="Hønefoss" />
		<tag k="ssr:stedsnr" v="774865" />
	</node>
	<node id="-163628" lat="60.3680638931" lon="9.92641389327">
		<tag k="name" v="Leintjernvelta" />
		<tag k="place" v="locality" />
		<tag k="ssr:stedsnr" v="151027" />
	</node>
	<node id="-162597" lat="60.2312750021" lon="9.87152500488">
		<tag k="bridge" v="yes" />
		<tag k="layer" v="1" />
		<tag k="name" v="Land" />
		<tag k="ssr:stedsnr" v="895852" />
	</node>
	<node id="-162596" lat="60.5670249995" lon="9.98284165966">
		<tag k="bridge" v="yes" />
		<tag k="layer" v="1" />
		<tag k="name" v="Søkkmyr" />
		<tag k="ssr:stedsnr" v="895763" />
	</node>
	<node id="-162595" lat="60.1741833374" lon="10.2200527856">
		<tag k="bridge" v="yes" />
		<tag k="layer" v="1" />
		<tag k="name" v="Veien" />
		<tag k="ssr:stedsnr" v="895764" />
	</node>
	<node id="-162594" lat="60.2414694431" lon="9.92191943616">
		<tag k="bridge" v="yes" />
		<tag k="layer" v="1" />
		<tag k="name" v="Sokna" />
		<tag k="ssr:stedsnr" v="895761" />
	</node>
	<node id="-165424" lat="60.2015249974" lon="10.1272138916">
		<tag k="bridge" v="yes" />
		<tag k="layer" v="1" />
		<tag k="name" v="Hegga" />
		<tag k="ssr:stedsnr" v="652837" />
	</node>
	<node id="-164741" lat="60.6223027781" lon="9.9705722223">
		<tag k="name" v="Storvelta" />
		<tag k="place" v="locality" />
		<tag k="ssr:stedsnr" v="514909" />
	</node>
	<node id="-166682" lat="60.4518638903" lon="10.0708611163">
		<tag k="highway" v="path" />
		<tag k="name" v="Geitekleiva" />
		<tag k="ssr:stedsnr" v="878690" />
	</node>
	<node id="-165423" lat="60.2116666688" lon="9.9715388942">
		<tag k="bridge" v="yes" />
		<tag k="layer" v="1" />
		<tag k="name" v="Tranby" />
		<tag k="ssr:stedsnr" v="652760" />
	</node>
	<node id="-165647" lat="60.3670111155" lon="10.2078861088">
		<tag k="man_made" v="cairn" />
		<tag k="name" v="Langebrurøysa" />
		<tag k="place" v="locality" />
		<tag k="ssr:stedsnr" v="694989" />
	</node>
	<node id="-166445" lat="60.1724694452" lon="10.2114388819">
		<tag k="bridge" v="yes" />
		<tag k="layer" v="1" />
		<tag k="name" v="Veshall" />
		<tag k="ssr:stedsnr" v="835789" />
	</node>
	<node id="-162569" lat="60.1392166632" lon="10.1825194399">
		<tag k="bridge" v="yes" />
		<tag k="layer" v="1" />
		<tag k="name" v="Bjerke" />
		<tag k="ssr:stedsnr" v="410867" />
	</node>
	<node id="-162568" lat="60.1772944434" lon="10.2020861147">
		<tag k="bridge" v="yes" />
		<tag k="layer" v="1" />
		<tag k="name" v="Ramsrud" />
		<tag k="ssr:stedsnr" v="410857" />
	</node>
	<node id="-162567" lat="60.3316694401" lon="10.1186333409">
		<tag k="bridge" v="yes" />
		<tag k="layer" v="1" />
		<tag k="name" v="Kirstistu" />
		<tag k="ssr:stedsnr" v="410849" />
	</node>
	<node id="-162566" lat="60.3014749955" lon="10.1725416726">
		<tag k="bridge" v="yes" />
		<tag k="layer" v="1" />
		<tag k="name" v="Somma" />
		<tag k="ssr:stedsnr" v="410765" />
	</node>
	<node id="-164605" lat="60.1884500043" lon="10.2382055554">
		<tag k="landuse" v="industrial" />
		<tag k="name" v="Follum kraftstasjon" />
		<tag k="power" v="plant" />
		<tag k="ssr:stedsnr" v="510181" />
	</node>
	<node id="-165624" lat="60.4403944468" lon="10.1790277744">
		<tag k="name" v="Storlunnelegga" />
		<tag k="place" v="locality" />
		<tag k="ssr:stedsnr" v="693787" />
	</node>
	<node id="-163569" lat="60.4738888877" lon="9.99462221715">
		<tag k="name" v="Bjelkevelta" />
		<tag k="old_name" v="Bjørkevelta" />
		<tag k="place" v="locality" />
		<tag k="ssr:stedsnr" v="150178" />
	</node>
	<node id="-162540" lat="60.2217166637" lon="9.83892499578">
		<tag k="name" v="Sollibakken" />
		<tag k="place" v="locality" />
		<tag k="ssr:stedsnr" v="394128" />
	</node>
	<node id="-166630" lat="60.1691083361" lon="10.2030222246">
		<tag k="landuse" v="industrial" />
		<tag k="name" v="Ringerike trafostasjon" />
		<tag k="power" v="plant" />
		<tag k="ssr:stedsnr" v="876003" />
	</node>
	<node id="-165093" lat="60.5466694436" lon="9.81494443607">
		<tag k="bridge" v="yes" />
		<tag k="layer" v="1" />
		<tag k="name" v="Fesja" />
		<tag k="ssr:stedsnr" v="591871" />
	</node>
	<node id="-165092" lat="60.1775305529" lon="10.2265722137">
		<tag k="bridge" v="yes" />
		<tag k="layer" v="1" />
		<tag k="name" v="Hallumsdalen" />
		<tag k="ssr:stedsnr" v="591866" />
	</node>
	<node id="-165091" lat="60.1452416676" lon="10.2588250058">
		<tag k="bridge" v="yes" />
		<tag k="layer" v="1" />
		<tag k="name" v="Hvervenkastet" />
		<tag k="ssr:stedsnr" v="591842" />
	</node>
	<node id="-166111" lat="60.3965472215" lon="10.0488861069">
		<tag k="bridge" v="yes" />
		<tag k="layer" v="1" />
		<tag k="name" v="Gryteelva" />
		<tag k="ssr:stedsnr" v="774893" />
	</node>
	<node id="-166110" lat="60.5266722252" lon="10.0911583308">
		<tag k="bridge" v="yes" />
		<tag k="layer" v="1" />
		<tag k="name" v="Bjonevika" />
		<tag k="ssr:stedsnr" v="774880" />
	</node>
	<node id="-166621" lat="60.1966916708" lon="10.1614805646">
		<tag k="name" v="Nøkleby" />
		<tag k="railway" v="halt" />
		<tag k="ssr:stedsnr" v="875539" />
		<tag k="train" v="yes" />
	</node>
	<node id="-166108" lat="60.1515416706" lon="10.2192333262">
		<tag k="bridge" v="yes" />
		<tag k="layer" v="1" />
		<tag k="name" v="Styggedal" />
		<tag k="ssr:stedsnr" v="774792" />
	</node>
	<node id="-166104" lat="60.1774333378" lon="10.202272217">
		<tag k="bridge" v="yes" />
		<tag k="layer" v="1" />
		<tag k="name" v="Ramsrud undergang" />
		<tag k="ssr:stedsnr" v="768953" />
	</node>
	<node id="-162005" lat="60.1563893946" lon="10.3727568147">
		<tag k="amenity" v="parking" />
		<tag k="name" v="Jaklefoss" />
		<tag k="ssr:stedsnr" v="309011" />
	</node>
	<node id="-166449" lat="60.146322221" lon="10.2405944367">
		<tag k="bridge" v="yes" />
		<tag k="layer" v="1" />
		<tag k="name" v="Folefoss" />
		<tag k="ssr:stedsnr" v="835897" />
	</node>
	<node id="-167123" lat="60.2881778943" lon="9.7163325068">
		<tag k="layer" v="-1" />
		<tag k="name" v="Ørgenviktunnelen" />
		<tag k="ssr:stedsnr" v="976066" />
		<tag k="tunnel" v="yes" />
	</node>
	<node id="-167122" lat="60.2649481436" lon="9.81801889527">
		<tag k="layer" v="-1" />
		<tag k="name" v="Rallerudtunnelen" />
		<tag k="ssr:stedsnr" v="976101" />
		<tag k="tunnel" v="yes" />
	</node>
	<node id="-163021" lat="60.3227333307" lon="10.1109555522">
		<tag k="bridge" v="yes" />
		<tag k="layer" v="1" />
		<tag k="name" v="Berg" />
		<tag k="ssr:stedsnr" v="46889" />
	</node>
	<node id="-163020" lat="60.2350611116" lon="10.2116027716">
		<tag k="bridge" v="yes" />
		<tag k="layer" v="1" />
		<tag k="name" v="Kudalen" />
		<tag k="ssr:stedsnr" v="46883" />
	</node>
	<node id="-163019" lat="60.211713885" lon="10.2568777812">
		<tag k="bridge" v="yes" />
		<tag k="layer" v="1" />
		<tag k="name" v="Nymoen" />
		<tag k="ssr:stedsnr" v="46871" />
	</node>
	<node id="-163018" lat="60.2031555577" lon="10.1268444416">
		<tag k="bridge" v="yes" />
		<tag k="layer" v="1" />
		<tag k="name" v="Heggen" />
		<tag k="ssr:stedsnr" v="46869" />
	</node>
	<node id="-163017" lat="60.5602194419" lon="9.94491943645">
		<tag k="bridge" v="yes" />
		<tag k="layer" v="1" />
		<tag k="name" v="Jeggerudstad" />
		<tag k="ssr:stedsnr" v="46862" />
	</node>
	<node id="-163016" lat="60.2836583307" lon="10.1951555613">
		<tag k="bridge" v="yes" />
		<tag k="layer" v="1" />
		<tag k="name" v="Juterud" />
		<tag k="ssr:stedsnr" v="46863" />
	</node>
	<node id="-163015" lat="60.5228722214" lon="10.1150222309">
		<tag k="bridge" v="yes" />
		<tag k="layer" v="1" />
		<tag k="name" v="Kanalen" />
		<tag k="ssr:stedsnr" v="46858" />
	</node>
	<node id="-163014" lat="60.2057277809" lon="10.0353333276">
		<tag k="bridge" v="yes" />
		<tag k="layer" v="1" />
		<tag k="name" v="Støvern" />
		<tag k="ssr:stedsnr" v="46796" />
	</node>
	<node id="-163958" lat="60.3973111106" lon="9.87047777906">
		<tag k="junction" v="yes" />
		<tag k="name" v="Olsern" />
		<tag k="place" v="locality" />
		<tag k="ssr:stedsnr" v="212010" />
	</node>
	<node id="-167105" lat="60.2195222217" lon="9.97577499496">
		<tag k="bridge" v="yes" />
		<tag k="layer" v="1" />
		<tag k="name" v="Evju" />
		<tag k="ssr:stedsnr" v="956899" />
	</node>
	<node id="-167104" lat="60.1917583345" lon="10.2331916588">
		<tag k="bridge" v="yes" />
		<tag k="layer" v="1" />
		<tag k="name" v="Follum" />
		<tag k="ssr:stedsnr" v="956896" />
	</node>
	<node id="-167103" lat="60.2687666626" lon="10.1847944517">
		<tag k="bridge" v="yes" />
		<tag k="layer" v="1" />
		<tag k="name" v="Hallingby" />
		<tag k="ssr:stedsnr" v="956888" />
	</node>
	<node id="-167102" lat="60.5228666704" lon="10.1159166686">
		<tag k="bridge" v="yes" />
		<tag k="layer" v="1" />
		<tag k="name" v="Bjoneelva" />
		<tag k="ssr:stedsnr" v="956876" />
	</node>
	<node id="-167101" lat="60.2859638865" lon="9.92792500052">
		<tag k="alt_name" v="Halvassbru" />
		<tag k="bridge" v="yes" />
		<tag k="layer" v="1" />
		<tag k="name" v="Halvassbrua" />
		<tag k="ssr:stedsnr" v="956863" />
	</node>
	<node id="-167100" lat="60.1678750032" lon="10.3263694398">
		<tag k="bridge" v="yes" />
		<tag k="layer" v="1" />
		<tag k="name" v="Klekken" />
		<tag k="ssr:stedsnr" v="956855" />
	</node>
	<node id="-167099" lat="60.1250083301" lon="10.3596083325">
		<tag k="bridge" v="yes" />
		<tag k="layer" v="1" />
		<tag k="name" v="Åsa" />
		<tag k="ssr:stedsnr" v="956791" />
	</node>
	<node id="-166063" lat="60.5544000002" lon="9.93315832556">
		<tag k="name" v="Langvelta" />
		<tag k="place" v="locality" />
		<tag k="ssr:stedsnr" v="757774" />
	</node>
	<node id="-167064" lat="60.2855861109" lon="9.93825833633">
		<tag k="name" v="Leiren" />
		<tag k="place" v="locality" />
		<tag k="ssr:stedsnr" v="939884" />
	</node>
	<node id="-163982" lat="60.1938666647" lon="10.2363361066">
		<tag k="bridge" v="yes" />
		<tag k="layer" v="1" />
		<tag k="name" v="Begnamoen" />
		<tag k="ssr:stedsnr" v="228891" />
	</node>
	<node id="-165508" lat="60.1242638893" lon="10.1525333421">
		<tag k="name" v="Egge" />
		<tag k="railway" v="halt" />
		<tag k="ssr:stedsnr" v="672631" />
		<tag k="train" v="yes" />
	</node>
	<node id="-162432" lat="60.4188222208" lon="10.1587500035">
		<tag k="ford" v="yes" />
		<tag k="name" v="Bergevadet" />
		<tag k="place" v="locality" />
		<tag k="ssr:stedsnr" v="389961" />
	</node>
	<node id="-167036" lat="60.4233722196" lon="10.11916388">
		<tag k="bridge" v="yes" />
		<tag k="layer" v="1" />
		<tag k="name" v="Hølkloppa" />
		<tag k="ssr:stedsnr" v="939479" />
	</node>
	<node id="-161911" lat="60.5569888912" lon="9.8667388883">
		<tag k="bridge" v="yes" />
		<tag k="layer" v="1" />
		<tag k="name" v="Gildre" />
		<tag k="ssr:stedsnr" v="288878" />
	</node>
	<node id="-161910" lat="60.1339194477" lon="10.2739638845">
		<tag k="bridge" v="yes" />
		<tag k="layer" v="1" />
		<tag k="name" v="Botilrud" />
		<tag k="ssr:stedsnr" v="288862" />
	</node>
	<node id="-161909" lat="60.1722222216" lon="10.2297277726">
		<tag k="bridge" v="yes" />
		<tag k="layer" v="1" />
		<tag k="name" v="Skoleveien" />
		<tag k="ssr:stedsnr" v="288850" />
	</node>
	<node id="-161908" lat="60.237074996" lon="9.93289721657">
		<tag k="bridge" v="yes" />
		<tag k="layer" v="1" />
		<tag k="name" v="Hovland" />
		<tag k="ssr:stedsnr" v="288845" />
	</node>
	<node id="-161907" lat="60.1768888908" lon="10.3450750021">
		<tag k="bridge" v="yes" />
		<tag k="layer" v="1" />
		<tag k="name" v="Smeden" />
		<tag k="ssr:stedsnr" v="288745" />
	</node>
	<node id="-164645" lat="60.2665861145" lon="10.2857972265">
		<tag k="man_made" v="cairn" />
		<tag k="name" v="Varden" />
		<tag k="place" v="locality" />
		<tag k="ssr:stedsnr" v="511790" />
	</node>
	<node id="-163943" lat="60.5526777802" lon="9.91596943855">
		<tag k="name" v="Veslevelta" />
		<tag k="place" v="locality" />
		<tag k="ssr:stedsnr" v="211818" />
	</node>
	<node id="-164452" lat="60.1956666635" lon="10.2433194354">
		<tag k="bridge" v="yes" />
		<tag k="layer" v="1" />
		<tag k="name" v="Børdalsmoen" />
		<tag k="ssr:stedsnr" v="470881" />
	</node>
	<node id="-164451" lat="60.1223166703" lon="10.2396888871">
		<tag k="bridge" v="yes" />
		<tag k="layer" v="1" />
		<tag k="name" v="Lahaug sør" />
		<tag k="ssr:stedsnr" v="470862" />
	</node>
	<node id="-164450" lat="60.079325" lon="10.0936250089">
		<tag k="bridge" v="yes" />
		<tag k="layer" v="1" />
		<tag k="name" v="Trollborgen" />
		<tag k="ssr:stedsnr" v="470786" />
	</node>
	<node id="-164954" lat="60.3767583336" lon="10.1533138932">
		<tag k="name" v="Vesle Samsjøvelta" />
		<tag k="place" v="locality" />
		<tag k="ssr:stedsnr" v="572271" />
	</node>
	<node id="-161872" lat="60.5733027813" lon="9.93147778208">
		<tag k="ford" v="yes" />
		<tag k="name" v="Veslesetervad" />
		<tag k="place" v="locality" />
		<tag k="ssr:stedsnr" v="272625" />
	</node>
	<node id="-162873" lat="60.1348472236" lon="10.2736888829">
		<tag k="junction" v="yes" />
		<tag k="name" v="Hønensvingen" />
		<tag k="place" v="locality" />
		<tag k="ssr:stedsnr" v="26830" />
	</node>
	<node id="-165429" lat="60.2257027795" lon="10.2501694384">
		<tag k="bridge" v="yes" />
		<tag k="layer" v="1" />
		<tag k="name" v="Geiteryggen" />
		<tag k="ssr:stedsnr" v="652862" />
	</node>
	<node id="-165428" lat="60.198436115" lon="10.2842916734">
		<tag k="bridge" v="yes" />
		<tag k="layer" v="1" />
		<tag k="name" v="Haga" />
		<tag k="ssr:stedsnr" v="652859" />
	</node>
	<node id="-165427" lat="60.2689249993" lon="10.1847527777">
		<tag k="bridge" v="yes" />
		<tag k="layer" v="1" />
		<tag k="name" v="Nilsedalen" />
		<tag k="ssr:stedsnr" v="652846" />
	</node>
	<node id="-165426" lat="60.4360499958" lon="10.0980000026">
		<tag k="bridge" v="yes" />
		<tag k="layer" v="1" />
		<tag k="name" v="Rinna" />
		<tag k="ssr:stedsnr" v="652845" />
	</node>
	<node id="-165425" lat="60.1880750038" lon="10.2969611038">
		<tag k="bridge" v="yes" />
		<tag k="layer" v="1" />
		<tag k="name" v="Hvalsmoen" />
		<tag k="ssr:stedsnr" v="652836" />
	</node>
	<node id="-166448" lat="60.0876388885" lon="10.1043083397">
		<tag k="bridge" v="yes" />
		<tag k="layer" v="1" />
		<tag k="name" v="Skjærdalen" />
		<tag k="ssr:stedsnr" v="835869" />
	</node>
	<node id="-166447" lat="60.2484416629" lon="10.1516472214">
		<tag k="bridge" v="yes" />
		<tag k="layer" v="1" />
		<tag k="name" v="Semmen" />
		<tag k="ssr:stedsnr" v="835867" />
	</node>
	<node id="-166446" lat="60.1472888871" lon="10.2499611189">
		<tag k="bridge" v="yes" />
		<tag k="layer" v="1" />
		<tag k="name" v="Hverven" />
		<tag k="ssr:stedsnr" v="835864" />
	</node>
	<node id="-163373" lat="60.1364250028" lon="10.1471583297">
		<tag k="name" v="Hjellebråtan" />
		<tag k="place" v="locality" />
		<tag k="ssr:stedsnr" v="126673" />
	</node>
	<node id="-166444" lat="60.4142916645" lon="10.0541333272">
		<tag k="bridge" v="yes" />
		<tag k="layer" v="1" />
		<tag k="name" v="Tossevikelva" />
		<tag k="ssr:stedsnr" v="835787" />
	</node>
	<node id="-166440" lat="60.1987805531" lon="10.1360388895">
		<tag k="bridge" v="yes" />
		<tag k="layer" v="1" />
		<tag k="name" v="Kjeldsberga gang- og sykkelundergang" />
		<tag k="ssr:stedsnr" v="829948" />
	</node>
	<node id="-165395" lat="60.3939833295" lon="9.86155278325">
		<tag k="junction" v="yes" />
		<tag k="name" v="Torvet" />
		<tag k="place" v="locality" />
		<tag k="ssr:stedsnr" v="636002" />
	</node>
	<node id="-164362" lat="60.3803388918" lon="9.83423888645">
		<tag k="name" v="Brattvelta" />
		<tag k="place" v="locality" />
		<tag k="ssr:stedsnr" v="454019" />
	</node>
</osm>
