<?xml version="1.0" encoding="UTF-8"?>
<<<<<<< HEAD
<osm version="0.6" generator="osmapis">
	<node lat="60.537313886354305" lon="11.813955562013815" id="-18638">
		<tag k="name" v="Fjølåa" />
		<tag k="ssr:stedsnr" v="7253" />
		<tag k="waterway" v="stream" />
	</node>
	<node lat="60.52828333403903" lon="11.72914999504703" id="-18639">
		<tag k="name" v="Bossmyrtjernet" />
		<tag k="natural" v="water" />
		<tag k="ssr:stedsnr" v="7263" />
	</node>
	<node lat="60.8438525458588" lon="12.269110595373949" id="-18652">
		<tag k="name" v="Høgsjøen" />
		<tag k="natural" v="water" />
		<tag k="ssr:stedsnr" v="9703" />
		<tag k="water" v="lake" />
	</node>
	<node lat="60.768480552468766" lon="12.245622229302162" id="-18653">
		<tag k="alt_name" v="Hørningen, vesle" />
		<tag k="name" v="Veslehørningen" />
		<tag k="natural" v="water" />
		<tag k="ssr:stedsnr" v="9741" />
	</node>
	<node lat="60.82035277373982" lon="12.259674993586247" id="-18654">
		<tag k="name" v="Steinåa" />
		<tag k="ssr:stedsnr" v="9744" />
		<tag k="waterway" v="stream" />
	</node>
	<node lat="60.555177781761344" lon="12.196861112334265" id="-18668">
		<tag k="name" v="Østerdølpa" />
		<tag k="natural" v="water" />
		<tag k="ssr:stedsnr" v="42484" />
		<tag k="water" v="pond" />
	</node>
	<node lat="60.700566665840725" lon="12.387613880921862" id="-18669">
		<tag k="fixme" v="multiple name tags, choose one and add the other to alt_name" />
		<tag k="name" v="Kvernbekken;Høklingsbekken" />
		<tag k="ssr:stedsnr" v="42380" />
		<tag k="waterway" v="stream" />
	</node>
	<node lat="60.60731388906449" lon="12.498600008881217" id="-18680">
		<tag k="name" v="Daurlamp" />
		<tag k="natural" v="water" />
		<tag k="ssr:stedsnr" v="239253" />
	</node>
	<node lat="60.63529166316266" lon="12.41424444476821" id="-18690">
		<tag k="name" v="Greinbekken" />
		<tag k="ssr:stedsnr" v="55625" />
		<tag k="waterway" v="stream" />
	</node>
	<node lat="60.578241670153446" lon="12.021025009205886" id="-18697">
		<tag k="name" v="Kvesetevja" />
		<tag k="natural" v="water" />
		<tag k="ssr:stedsnr" v="57485" />
	</node>
	<node lat="60.69154722404946" lon="12.266847221742319" id="-18707">
		<tag k="name" v="Steinkjelda" />
		<tag k="natural" v="spring" />
		<tag k="ssr:stedsnr" v="241075" />
	</node>
	<node lat="60.63021111382274" lon="12.029816659044812" id="-18712">
		<tag k="name" v="Sjusætrefossen" />
		<tag k="natural" v="waterfall" />
		<tag k="ssr:stedsnr" v="241947" />
	</node>
	<node lat="60.74208333154647" lon="12.041577775416181" id="-18721">
		<tag k="alt_name" v="Svartåstjerna" />
		<tag k="name" v="Svartåstjernet" />
		<tag k="natural" v="water" />
		<tag k="ssr:stedsnr" v="68204" />
	</node>
	<node lat="60.74706666429441" lon="12.221758326684673" id="-18732">
		<tag k="name" v="Gransjøen" />
		<tag k="natural" v="water" />
		<tag k="ssr:stedsnr" v="68905" />
	</node>
	<node lat="60.74556944565175" lon="12.245822223928949" id="-18733">
		<tag k="alt_name" v="Serven" />
		<tag k="name" v="Stor-Serven" />
		<tag k="natural" v="water" />
		<tag k="ssr:stedsnr" v="68906" />
	</node>
	<node lat="60.7929388909969" lon="12.193900006239895" id="-18741">
		<tag k="name" v="Gjerda" />
		<tag k="ssr:stedsnr" v="70630" />
		<tag k="waterway" v="river" />
	</node>
	<node lat="60.75925832968278" lon="12.187569452003515" id="-18742">
		<tag k="name" v="Rogsjøen" />
		<tag k="natural" v="water" />
		<tag k="ssr:stedsnr" v="70506" />
	</node>
	<node lat="60.779355361979235" lon="12.1350410397163" id="-18744">
		<tag k="name" v="Trolltjerna" />
		<tag k="natural" v="water" />
		<tag k="ssr:stedsnr" v="70531" />
		<tag k="water" v="lake" />
	</node>
	<node lat="60.69854166549843" lon="12.441586119742581" id="-18762">
		<tag k="name" v="Hakatjernet" />
		<tag k="natural" v="water" />
		<tag k="ssr:stedsnr" v="102742" />
	</node>
	<node lat="60.635863887239935" lon="12.153950007727845" id="-18767">
		<tag k="name" v="Morttjernet" />
		<tag k="natural" v="water" />
		<tag k="ssr:stedsnr" v="249812" />
	</node>
	<node lat="60.569911111896346" lon="12.336649992852282" id="-18778">
		<tag k="name" v="Langtjern" />
		<tag k="natural" v="water" />
		<tag k="ssr:stedsnr" v="249560" />
	</node>
	<node lat="60.58435833059762" lon="11.888288897538175" id="-18782">
		<tag k="name" v="Velttjernet" />
		<tag k="natural" v="water" />
		<tag k="ssr:stedsnr" v="249741" />
	</node>
	<node lat="60.684950003196214" lon="12.10182777478159" id="-18793">
		<tag k="name" v="Gjesbekken" />
		<tag k="ssr:stedsnr" v="250014" />
		<tag k="waterway" v="stream" />
	</node>
	<node lat="60.66218889214698" lon="11.979033340777605" id="-18801">
		<tag k="name" v="Melsnestjernet" />
		<tag k="natural" v="water" />
		<tag k="ssr:stedsnr" v="250113" />
	</node>
	<node lat="60.51237499923615" lon="11.777025000786084" id="-18805">
		<tag k="name" v="Steinsjøen" />
		<tag k="natural" v="water" />
		<tag k="ssr:stedsnr" v="250240" />
	</node>
	<node lat="60.51033215734786" lon="11.733077927671152" id="-18806">
		<tag k="name" v="Tannsjøene" />
		<tag k="natural" v="water" />
		<tag k="old_name" v="Tannsjøane" />
		<tag k="ssr:stedsnr" v="250243" />
		<tag k="water" v="lake" />
	</node>
	<node lat="60.64567777510562" lon="12.233108329233572" id="-18809">
		<tag k="name" v="Vesleneset" />
		<tag k="natural" v="cape" />
		<tag k="ssr:stedsnr" v="113579" />
	</node>
	<node lat="60.68695277499626" lon="12.243938888367325" id="-18814">
		<tag k="name" v="Storbekken" />
		<tag k="ssr:stedsnr" v="250552" />
		<tag k="waterway" v="stream" />
	</node>
	<node lat="60.54605000111182" lon="12.3923055640051" id="-18819">
		<tag k="name" v="Vestre Aurtjernet" />
		<tag k="natural" v="water" />
		<tag k="ssr:stedsnr" v="116020" />
	</node>
	<node lat="60.608261107559635" lon="12.126791674375943" id="-18833">
		<tag k="name" v="Kløvbekken" />
		<tag k="ssr:stedsnr" v="250834" />
		<tag k="waterway" v="stream" />
	</node>
	<node lat="60.5471388852063" lon="12.545794450643" id="-18835">
		<tag k="name" v="Folkvernfløyta" />
		<tag k="natural" v="water" />
		<tag k="ssr:stedsnr" v="118680" />
	</node>
	<node lat="60.73079999717171" lon="12.367638891716743" id="-18839">
		<tag k="name" v="Krokåa" />
		<tag k="ssr:stedsnr" v="250909" />
		<tag k="waterway" v="river" />
	</node>
	<node lat="60.74984444207258" lon="12.373808340650498" id="-18848">
		<tag k="name" v="Igletjernet" />
		<tag k="natural" v="water" />
		<tag k="ssr:stedsnr" v="119388" />
	</node>
	<node lat="60.53758055904491" lon="11.893836112390591" id="-18851">
		<tag k="name" v="Åstjern" />
		<tag k="natural" v="water" />
		<tag k="ssr:stedsnr" v="250998" />
	</node>
	<node lat="60.73038889152003" lon="11.981216669122528" id="-18857">
		<tag k="name" v="Svartbekken" />
		<tag k="ssr:stedsnr" v="251984" />
		<tag k="waterway" v="stream" />
	</node>
	<node lat="60.51073610807562" lon="11.84065555147656" id="-18864">
		<tag k="name" v="Odalstjernet" />
		<tag k="natural" v="water" />
		<tag k="ssr:stedsnr" v="128203" />
	</node>
	<node lat="60.650436112668785" lon="12.467424994898598" id="-18871">
		<tag k="name" v="Furubekken" />
		<tag k="ssr:stedsnr" v="128597" />
		<tag k="waterway" v="stream" />
	</node>
	<node lat="60.63284999629122" lon="12.488111109787301" id="-18873">
		<tag k="alt_name" v="Djuptjern;Djuptjennet" />
		<tag k="loc_name" v="Syvalampi" />
		<tag k="name" v="Djuptjernet" />
		<tag k="natural" v="water" />
		<tag k="ssr:stedsnr" v="128483" />
	</node>
	<node lat="60.970711113285454" lon="12.028455553485863" id="-18878">
		<tag k="name" v="Ulvåa" />
		<tag k="old_name" v="Ulvåa, store" />
		<tag k="ssr:stedsnr" v="252369" />
		<tag k="waterway" v="river" />
	</node>
	<node lat="60.566675001922384" lon="11.858288885137572" id="-18880">
		<tag k="name" v="Langåstjernet" />
		<tag k="natural" v="water" />
		<tag k="ssr:stedsnr" v="128788" />
	</node>
	<node lat="60.735205553880796" lon="12.292652775196878" id="-18882">
		<tag k="alt_name" v="Gjerda" />
		<tag k="name" v="Gjera" />
		<tag k="ssr:stedsnr" v="128906" />
		<tag k="waterway" v="stream" />
	</node>
	<node lat="60.808830552671964" lon="12.16175000304034" id="-18890">
		<tag k="name" v="Stortjernet" />
		<tag k="natural" v="water" />
		<tag k="ssr:stedsnr" v="252467" />
	</node>
	<node lat="60.78822499607659" lon="12.2044027792098" id="-18891">
		<tag k="name" v="Melsjøen" />
		<tag k="natural" v="water" />
		<tag k="ssr:stedsnr" v="252508" />
	</node>
	<node lat="60.53884999752335" lon="12.361625007175453" id="-18893">
		<tag k="name" v="Aurbekken" />
		<tag k="ssr:stedsnr" v="129975" />
		<tag k="waterway" v="stream" />
	</node>
	<node lat="60.84191388542151" lon="12.204663886338727" id="-18894">
		<tag k="fixme" v="multiple name tags, choose one and add the other to alt_name" />
		<tag k="name" v="Steinsjøbekken;Kubekken" />
		<tag k="ssr:stedsnr" v="130595" />
		<tag k="waterway" v="stream" />
	</node>
	<node lat="60.548511112519186" lon="11.777211114733406" id="-18915">
		<tag k="name" v="Fjølåbekken" />
		<tag k="ssr:stedsnr" v="178562" />
		<tag k="waterway" v="stream" />
	</node>
	<node lat="60.663536112591856" lon="12.291213887988055" id="-18919">
		<tag k="name" v="Eftasbergfossen" />
		<tag k="natural" v="waterfall" />
		<tag k="ssr:stedsnr" v="179478" />
	</node>
	<node lat="60.63466111122614" lon="12.266666665921742" id="-18920">
		<tag k="name" v="Veltertjernet" />
		<tag k="natural" v="water" />
		<tag k="ssr:stedsnr" v="180167" />
		<tag k="water" v="lake" />
	</node>
	<node lat="60.56800000014986" lon="12.449763884039486" id="-18928">
		<tag k="name" v="Aurbekken" />
		<tag k="ssr:stedsnr" v="189516" />
		<tag k="waterway" v="stream" />
	</node>
	<node lat="60.571613886470004" lon="12.437366659174083" id="-18930">
		<tag k="name" v="Spiksjøen" />
		<tag k="natural" v="water" />
		<tag k="ssr:stedsnr" v="189523" />
	</node>
	<node lat="60.551638888589295" lon="12.443566667634066" id="-18931">
		<tag k="name" v="Lauvtjern" />
		<tag k="natural" v="water" />
		<tag k="ssr:stedsnr" v="189663" />
	</node>
	<node lat="60.542113892026315" lon="12.45362778457903" id="-18933">
		<tag k="name" v="Merratjernet" />
		<tag k="natural" v="water" />
		<tag k="ssr:stedsnr" v="189670" />
	</node>
	<node lat="60.64108055214628" lon="12.079419442883149" id="-18934">
		<tag k="name" v="Grindbekken" />
		<tag k="ssr:stedsnr" v="189814" />
		<tag k="waterway" v="stream" />
	</node>
	<node lat="60.50815555875945" lon="11.864419445995388" id="-18939">
		<tag k="name" v="Moldåstjernet" />
		<tag k="natural" v="water" />
		<tag k="ssr:stedsnr" v="189919" />
	</node>
	<node lat="60.74987465484708" lon="12.319069205030392" id="-18941">
		<tag k="name" v="Glorvikstjerna" />
		<tag k="natural" v="water" />
		<tag k="ssr:stedsnr" v="191602" />
		<tag k="water" v="lake" />
	</node>
	<node lat="60.7936166664929" lon="12.262341670054521" id="-18942">
		<tag k="name" v="Langtjernet" />
		<tag k="natural" v="water" />
		<tag k="ssr:stedsnr" v="191663" />
	</node>
	<node lat="60.789097220222345" lon="12.349355548691156" id="-18943">
		<tag k="alt_name" v="Gjuvbergstjerna;Juvbergstjenna" />
		<tag k="name" v="Juvbergstjerna" />
		<tag k="natural" v="water" />
		<tag k="ssr:stedsnr" v="191672" />
		<tag k="water" v="lake" />
	</node>
	<node lat="60.784502779856204" lon="12.258847226323565" id="-18946">
		<tag k="name" v="Jakobstjernet" />
		<tag k="natural" v="water" />
		<tag k="ssr:stedsnr" v="222004" />
	</node>
	<node lat="60.58119166640512" lon="12.204211109136146" id="-18951">
		<tag k="name" v="Gravholbekken" />
		<tag k="ssr:stedsnr" v="222226" />
		<tag k="waterway" v="stream" />
	</node>
	<node lat="60.66590277861342" lon="12.01530833613943" id="-18953">
		<tag k="name" v="Bakåa" />
		<tag k="ssr:stedsnr" v="222973" />
		<tag k="waterway" v="stream" />
	</node>
	<node lat="60.66233888587995" lon="11.985686107079763" id="-18955">
		<tag k="name" v="Fagerbekken" />
		<tag k="ssr:stedsnr" v="222993" />
		<tag k="waterway" v="stream" />
	</node>
	<node lat="60.55171242699649" lon="12.037290919316984" id="-18959">
		<tag k="alt_name" v="Presttjennet" />
		<tag k="name" v="Presttjernet" />
		<tag k="natural" v="water" />
		<tag k="ssr:stedsnr" v="223826" />
	</node>
	<node lat="60.68794721937685" lon="12.39758611205714" id="-18960">
		<tag k="name" v="Sundholmen" />
		<tag k="place" v="islet" />
		<tag k="ssr:stedsnr" v="224411" />
	</node>
	<node lat="60.705794448453425" lon="12.359641659633292" id="-18962">
		<tag k="name" v="Merrasundet" />
		<tag k="natural" v="strait" />
		<tag k="ssr:stedsnr" v="224398" />
	</node>
	<node lat="60.82531944521234" lon="12.229016671662546" id="-18966">
		<tag k="name" v="Søndre Bjørketjernet" />
		<tag k="natural" v="water" />
		<tag k="ssr:stedsnr" v="237009" />
	</node>
	<node lat="60.60776944024755" lon="12.446505557162023" id="-18967">
		<tag k="name" v="Tyskedammen" />
		<tag k="ssr:stedsnr" v="450537" />
		<tag k="waterway" v="dam" />
	</node>
	<node lat="60.754433333594996" lon="12.263619441249245" id="-18968">
		<tag k="name" v="Gjeddbekken" />
		<tag k="ssr:stedsnr" v="239039" />
		<tag k="waterway" v="stream" />
	</node>
	<node lat="60.64128055620967" lon="12.271002772944895" id="-18971">
		<tag k="name" v="Valbyfossen" />
		<tag k="natural" v="waterfall" />
		<tag k="ssr:stedsnr" v="241133" />
	</node>
	<node lat="60.52071111228068" lon="11.802033341558646" id="-18976">
		<tag k="alt_name" v="Fagervatn, vesle" />
		<tag k="name" v="Velt-Fagervatnet" />
		<tag k="natural" v="water" />
		<tag k="ssr:stedsnr" v="249197" />
	</node>
	<node lat="60.65672222589433" lon="12.229788897745413" id="-18978">
		<tag k="name" v="Pålstranda" />
		<tag k="natural" v="beach" />
		<tag k="ssr:stedsnr" v="283089" />
	</node>
	<node lat="60.54776944162228" lon="12.033999996933103" id="-18993">
		<tag k="name" v="Borgkilen" />
		<tag k="natural" v="water" />
		<tag k="ssr:stedsnr" v="298494" />
	</node>
	<node lat="60.8458638898745" lon="12.254886111484087" id="-18997">
		<tag k="name" v="Igletjernet" />
		<tag k="natural" v="water" />
		<tag k="ssr:stedsnr" v="300293" />
	</node>
	<node lat="60.68183610949805" lon="12.236847225181462" id="-19001">
		<tag k="name" v="Styggbekken" />
		<tag k="ssr:stedsnr" v="302103" />
		<tag k="waterway" v="stream" />
	</node>
	<node lat="60.44350278020745" lon="12.375066665884649" id="-19004">
		<tag k="name" v="Rotna" />
		<tag k="ssr:stedsnr" v="309132" />
		<tag k="waterway" v="river" />
	</node>
	<node lat="60.6032722221818" lon="12.024044448702917" id="-19022">
		<tag k="loc_name" v="Bjerkeneset;Børkeneset" />
		<tag k="name" v="Syverstuneset" />
		<tag k="natural" v="cape" />
		<tag k="ssr:stedsnr" v="310775" />
	</node>
	<node lat="60.76440833247504" lon="12.262180560298313" id="-19041">
		<tag k="name" v="Slotjernet" />
		<tag k="natural" v="water" />
		<tag k="ssr:stedsnr" v="312626" />
	</node>
	<node lat="60.662716993747104" lon="12.197130276195859" id="-19046">
		<tag k="name" v="Gullholmkilen" />
		<tag k="natural" v="bay" />
		<tag k="ssr:stedsnr" v="343108" />
	</node>
	<node lat="60.5784083372393" lon="12.423508328180914" id="-19054">
		<tag k="name" v="Oksøyet" />
		<tag k="natural" v="water" />
		<tag k="ssr:stedsnr" v="345311" />
	</node>
	<node lat="60.53486944153972" lon="12.563302769065965" id="-19055">
		<tag k="name" v="Fallsjødammen" />
		<tag k="ssr:stedsnr" v="345603" />
		<tag k="waterway" v="dam" />
	</node>
	<node lat="60.503580918946774" lon="11.771373895144595" id="-19058">
		<tag k="name" v="Øvre Gransjøtjernet" />
		<tag k="natural" v="water" />
		<tag k="ssr:stedsnr" v="350861" />
	</node>
	<node lat="60.7672388850332" lon="12.284852780056736" id="-19061">
		<tag k="name" v="Nedre Ristjern" />
		<tag k="natural" v="water" />
		<tag k="ssr:stedsnr" v="358310" />
	</node>
	<node lat="60.61041666250276" lon="12.378952776149733" id="-19068">
		<tag k="name" v="Sandtjerna" />
		<tag k="natural" v="water" />
		<tag k="ssr:stedsnr" v="370562" />
		<tag k="water" v="lake" />
	</node>
	<node lat="60.58301111199862" lon="12.177169451337372" id="-19072">
		<tag k="name" v="Karusstjernet" />
		<tag k="natural" v="water" />
		<tag k="ssr:stedsnr" v="479237" />
	</node>
	<node lat="60.865508337191635" lon="12.210708336135434" id="-19073">
		<tag k="name" v="Bjønntjernet" />
		<tag k="natural" v="water" />
		<tag k="ssr:stedsnr" v="479249" />
		<tag k="water" v="pond" />
	</node>
	<node lat="60.66816666656572" lon="11.969794448250786" id="-19079">
		<tag k="name" v="Svarthagatjernet" />
		<tag k="natural" v="water" />
		<tag k="ssr:stedsnr" v="371107" />
	</node>
	<node lat="60.75401389230304" lon="12.002866666747618" id="-19096">
		<tag k="name" v="Granbergstjernet" />
		<tag k="natural" v="water" />
		<tag k="ssr:stedsnr" v="479692" />
	</node>
	<node lat="60.75886944639402" lon="12.089119443545398" id="-19097">
		<tag k="name" v="Jonsokbekken" />
		<tag k="ssr:stedsnr" v="373549" />
		<tag k="waterway" v="stream" />
	</node>
	<node lat="60.679824996283905" lon="12.416933336400472" id="-19102">
		<tag k="name" v="Hestnebben" />
		<tag k="natural" v="cape" />
		<tag k="ssr:stedsnr" v="480686" />
	</node>
	<node lat="60.62285555274863" lon="12.350475006960544" id="-19103">
		<tag k="name" v="Grasbekken" />
		<tag k="ssr:stedsnr" v="480496" />
		<tag k="waterway" v="stream" />
	</node>
	<node lat="60.77008888973679" lon="12.160222221409121" id="-19106">
		<tag k="name" v="Dalatjerna" />
		<tag k="natural" v="water" />
		<tag k="ssr:stedsnr" v="481833" />
		<tag k="water" v="lake" />
	</node>
	<node lat="60.817152776327084" lon="12.312925004103768" id="-19108">
		<tag k="name" v="Larstjernsholmen" />
		<tag k="place" v="islet" />
		<tag k="ssr:stedsnr" v="483381" />
	</node>
	<node lat="60.57844722648728" lon="11.924508337604104" id="-19114">
		<tag k="name" v="Obekken" />
		<tag k="ssr:stedsnr" v="484585" />
		<tag k="waterway" v="stream" />
	</node>
	<node lat="60.5494583320495" lon="12.195730561059152" id="-19124">
		<tag k="alt_name" v="Plantjennet" />
		<tag k="name" v="Plantjernet" />
		<tag k="natural" v="water" />
		<tag k="ssr:stedsnr" v="404445" />
	</node>
	<node lat="60.65661666600236" lon="12.003808333791143" id="-19127">
		<tag k="name" v="Mortskjæret" />
		<tag k="place" v="islet" />
		<tag k="ssr:stedsnr" v="404990" />
	</node>
	<node lat="60.595444439950704" lon="12.27258889251844" id="-19128">
		<tag k="name" v="Rådelsbekken" />
		<tag k="ssr:stedsnr" v="405204" />
		<tag k="waterway" v="stream" />
	</node>
	<node lat="60.605466663596076" lon="12.125633340336531" id="-19130">
		<tag k="name" v="Brusbekken" />
		<tag k="ssr:stedsnr" v="405952" />
		<tag k="waterway" v="stream" />
	</node>
	<node lat="60.690927778499855" lon="12.394927779891479" id="-19132">
		<tag k="name" v="Æla" />
		<tag k="natural" v="shoal" />
		<tag k="place" v="locality" />
		<tag k="ssr:stedsnr" v="406440" />
	</node>
	<node lat="60.52844444776927" lon="12.561791659717443" id="-19134">
		<tag k="name" v="Kvernfossen" />
		<tag k="natural" v="waterfall" />
		<tag k="ssr:stedsnr" v="406616" />
	</node>
	<node lat="60.59800278095135" lon="12.258733342704154" id="-19136">
		<tag k="name" v="Bjønndalsbekken" />
		<tag k="ssr:stedsnr" v="419193" />
		<tag k="waterway" v="stream" />
	</node>
	<node lat="60.68125437731756" lon="11.983931607243907" id="-19157">
		<tag k="name" v="Gjesåssjøen" />
		<tag k="natural" v="water" />
		<tag k="ssr:stedsnr" v="432008" />
		<tag k="water" v="lake" />
	</node>
	<node lat="60.71793611349623" lon="11.984847223966536" id="-19159">
		<tag k="alt_name" v="Skya" />
		<tag k="name" v="Skyåa" />
		<tag k="ssr:stedsnr" v="432039" />
		<tag k="waterway" v="stream" />
	</node>
	<node lat="60.56808333468164" lon="12.413219439630685" id="-19162">
		<tag k="name" v="Sætersjøen" />
		<tag k="natural" v="water" />
		<tag k="ssr:stedsnr" v="432520" />
		<tag k="water" v="lake" />
	</node>
	<node lat="60.623944441150435" lon="12.492216670754056" id="-19168">
		<tag k="name" v="Lorttjernet" />
		<tag k="natural" v="water" />
		<tag k="ssr:stedsnr" v="432495" />
	</node>
	<node lat="60.535997223871675" lon="12.337255552536911" id="-19171">
		<tag k="alt_name" v="Aursjøen, store" />
		<tag k="name" v="Store Aursjøen" />
		<tag k="natural" v="water" />
		<tag k="ssr:stedsnr" v="432679" />
	</node>
	<node lat="60.54937499764617" lon="12.510152785307115" id="-19172">
		<tag k="name" v="Abbortjernet" />
		<tag k="natural" v="water" />
		<tag k="ssr:stedsnr" v="432682" />
	</node>
	<node lat="60.742305552865766" lon="12.296594451243456" id="-19177">
		<tag k="alt_name" v="Igletjernet" />
		<tag k="name" v="Egertjern" />
		<tag k="natural" v="water" />
		<tag k="ssr:stedsnr" v="432910" />
	</node>
	<node lat="60.72398055210637" lon="12.285686111779679" id="-19179">
		<tag k="name" v="Blandtjern" />
		<tag k="natural" v="water" />
		<tag k="ssr:stedsnr" v="432913" />
	</node>
	<node lat="60.55803055140974" lon="11.681136118751006" id="-19182">
		<tag k="name" v="Fløytdalstjernet" />
		<tag k="natural" v="water" />
		<tag k="ssr:stedsnr" v="492098" />
	</node>
	<node lat="60.52564999727779" lon="11.847313885053527" id="-19204">
		<tag k="name" v="Våltjernet" />
		<tag k="natural" v="water" />
		<tag k="ssr:stedsnr" v="492892" />
	</node>
	<node lat="60.53484444422531" lon="12.156413887821506" id="-19205">
		<tag k="name" v="Grautåa" />
		<tag k="ssr:stedsnr" v="492893" />
		<tag k="waterway" v="river" />
	</node>
	<node lat="60.7822000027047" lon="12.366677779322183" id="-19213">
		<tag k="name" v="Svarttjernet" />
		<tag k="natural" v="water" />
		<tag k="ssr:stedsnr" v="494699" />
	</node>
	<node lat="60.70897499847328" lon="12.178569443262493" id="-19216">
		<tag k="name" v="Styggbekken" />
		<tag k="ssr:stedsnr" v="674048" />
		<tag k="waterway" v="stream" />
	</node>
	<node lat="60.552411109187666" lon="12.378224991070555" id="-19229">
		<tag k="name" v="Abborsjøen" />
		<tag k="natural" v="water" />
		<tag k="ssr:stedsnr" v="674698" />
	</node>
	<node lat="60.71158888473684" lon="12.330361119722694" id="-19234">
		<tag k="name" v="Vermundsåa" />
		<tag k="ssr:stedsnr" v="466405" />
		<tag k="waterway" v="river" />
	</node>
	<node lat="60.82569999789597" lon="12.288305547380341" id="-19240">
		<tag k="name" v="Hedemarkingskjelda" />
		<tag k="natural" v="spring" />
		<tag k="ssr:stedsnr" v="466375" />
	</node>
	<node lat="60.53649722227415" lon="12.557183337826501" id="-19243">
		<tag k="name" v="Kivilahti" />
		<tag k="natural" v="bay" />
		<tag k="ssr:stedsnr" v="466648" />
	</node>
	<node lat="60.56394444173136" lon="12.152044448496964" id="-19247">
		<tag k="name" v="Svartbekken" />
		<tag k="ssr:stedsnr" v="674931" />
		<tag k="waterway" v="stream" />
	</node>
	<node lat="60.552116668448534" lon="12.200330554546559" id="-19252">
		<tag k="alt_name" v="Appelgåstjennet" />
		<tag k="name" v="Appelgåstjernet" />
		<tag k="natural" v="water" />
		<tag k="ssr:stedsnr" v="467513" />
	</node>
	<node lat="60.77234166626419" lon="12.251750002365096" id="-19255">
		<tag k="alt_name" v="Hørningen, store" />
		<tag k="name" v="Storhørningen" />
		<tag k="natural" v="water" />
		<tag k="ssr:stedsnr" v="676721" />
	</node>
	<node lat="60.78771111136519" lon="12.080369442559507" id="-19257">
		<tag k="name" v="Fløgåa" />
		<tag k="ssr:stedsnr" v="677551" />
		<tag k="waterway" v="river" />
	</node>
	<node lat="60.52020000219498" lon="11.78600555766908" id="-19273">
		<tag k="alt_name" v="Fagervatn, store" />
		<tag k="name" v="Stor-Fagervatnet" />
=======
<osm generator="osmapis" version="0.6">
	<node id="-325627" lat="60.7157333365" lon="12.1225861151">
		<tag k="name" v="Smørtjernet" />
		<tag k="natural" v="water" />
		<tag k="ssr:stedsnr" v="432040" />
	</node>
	<node id="-325626" lat="60.7179361135" lon="11.984847224">
		<tag k="alt_name" v="Skya" />
		<tag k="name" v="Skyåa" />
		<tag k="ssr:stedsnr" v="432039" />
		<tag k="waterway" v="stream" />
	</node>
	<node id="-325624" lat="60.6823000016" lon="11.9804944368">
		<tag k="name" v="Gjesåssjøen" />
		<tag k="natural" v="water" />
		<tag k="ssr:stedsnr" v="432008" />
		<tag k="water" v="lake" />
	</node>
	<node id="-325620" lat="60.5999944488" lon="12.1344527826">
		<tag k="alt_name" v="Kleivtjernet" />
		<tag k="name" v="Kløvtjernet" />
		<tag k="natural" v="water" />
		<tag k="ssr:stedsnr" v="431767" />
	</node>
	<node id="-325618" lat="60.5846250007" lon="12.4094305513">
		<tag k="name" v="Gråbergstjernet" />
		<tag k="natural" v="water" />
		<tag k="ssr:stedsnr" v="431571" />
	</node>
	<node id="-325616" lat="60.6026999983" lon="12.3499416621">
		<tag k="name" v="Fallbekken" />
		<tag k="ssr:stedsnr" v="431562" />
		<tag k="waterway" v="stream" />
	</node>
	<node id="-325614" lat="60.9394388853" lon="11.516244439">
		<tag k="fixme" v="multiple name tags, choose one and add the other to alt_name" />
		<tag k="name" v="Glomma;Glåma" />
		<tag k="ssr:stedsnr" v="426301" />
		<tag k="waterway" v="river" />
	</node>
	<node id="-325609" lat="60.7866777808" lon="12.1064083284">
		<tag k="name" v="Fløgoset" />
		<tag k="natural" v="bay" />
		<tag k="ssr:stedsnr" v="423769" />
	</node>
	<node id="-325606" lat="60.7884469617" lon="12.3519139665">
		<tag k="name" v="Vesle Juvbergstjernet" />
		<tag k="natural" v="water" />
		<tag k="ssr:stedsnr" v="423383" />
	</node>
	<node id="-325605" lat="60.7177888927" lon="12.2690527751">
		<tag k="name" v="Fallåsbekken" />
		<tag k="ssr:stedsnr" v="423082" />
		<tag k="waterway" v="stream" />
	</node>
	<node id="-325602" lat="60.563924996" lon="12.3331000066">
		<tag k="name" v="Heggedulpa" />
		<tag k="natural" v="water" />
		<tag k="ssr:stedsnr" v="423030" />
	</node>
	<node id="-325600" lat="60.8517583296" lon="12.2555722231">
		<tag k="name" v="Ormtjernet" />
		<tag k="natural" v="water" />
		<tag k="ssr:stedsnr" v="422256" />
	</node>
	<node id="-325598" lat="60.6528749964" lon="12.2900055605">
		<tag k="name" v="Hanakneet" />
		<tag k="natural" v="cape" />
		<tag k="ssr:stedsnr" v="422487" />
	</node>
	<node id="-325596" lat="60.6588333377" lon="12.1001916707">
		<tag k="name" v="Kjellåsevja" />
		<tag k="place" v="locality" />
		<tag k="ssr:stedsnr" v="421863" />
	</node>
	<node id="-325584" lat="60.6825250006" lon="12.4363194516">
		<tag k="name" v="Gammelåa" />
		<tag k="ssr:stedsnr" v="419667" />
		<tag k="waterway" v="stream" />
	</node>
	<node id="-325577" lat="60.5162333347" lon="11.8549999948">
		<tag k="name" v="Ommestadsæterbekken" />
		<tag k="ssr:stedsnr" v="419654" />
		<tag k="waterway" v="stream" />
	</node>
	<node id="-325575" lat="60.598002781" lon="12.2587333427">
		<tag k="name" v="Bjønndalsbekken" />
		<tag k="ssr:stedsnr" v="419193" />
		<tag k="waterway" v="stream" />
	</node>
	<node id="-325573" lat="60.7235555591" lon="12.2873888892">
		<tag k="name" v="Tjernslotjerna" />
		<tag k="natural" v="water" />
		<tag k="ssr:stedsnr" v="406387" />
		<tag k="water" v="lake" />
	</node>
	<node id="-325571" lat="60.6968888924" lon="12.2976305553">
		<tag k="name" v="Dæsbekken" />
		<tag k="ssr:stedsnr" v="406384" />
		<tag k="waterway" v="stream" />
	</node>
	<node id="-325569" lat="60.6909277785" lon="12.3949277799">
		<tag k="name" v="Æla" />
		<tag k="natural" v="shoal" />
		<tag k="place" v="locality" />
		<tag k="ssr:stedsnr" v="406440" />
	</node>
	<node id="-325564" lat="60.656616666" lon="12.0038083338">
		<tag k="name" v="Mortskjæret" />
		<tag k="place" v="islet" />
		<tag k="ssr:stedsnr" v="404990" />
	</node>
	<node id="-325560" lat="60.549458332" lon="12.1957305611">
		<tag k="alt_name" v="Plantjennet" />
		<tag k="name" v="Plantjernet" />
		<tag k="natural" v="water" />
		<tag k="ssr:stedsnr" v="404445" />
	</node>
	<node id="-325551" lat="60.8093750036" lon="12.3012138981">
		<tag k="name" v="Lindåa" />
		<tag k="ssr:stedsnr" v="373747" />
		<tag k="waterway" v="stream" />
	</node>
	<node id="-325547" lat="60.7588694464" lon="12.0891194435">
		<tag k="name" v="Jonsokbekken" />
		<tag k="ssr:stedsnr" v="373549" />
		<tag k="waterway" v="stream" />
	</node>
	<node id="-325533" lat="60.5715611128" lon="12.3425000058">
		<tag k="name" v="Kverntjern" />
		<tag k="natural" v="water" />
		<tag k="ssr:stedsnr" v="371539" />
	</node>
	<node id="-325518" lat="60.6104166625" lon="12.3789527761">
		<tag k="name" v="Sandtjerna" />
		<tag k="natural" v="water" />
		<tag k="ssr:stedsnr" v="370562" />
		<tag k="water" v="lake" />
	</node>
	<node id="-325509" lat="60.815227778" lon="12.29375833">
		<tag k="name" v="Skybakkmyrbekken" />
		<tag k="ssr:stedsnr" v="362375" />
		<tag k="waterway" v="stream" />
	</node>
	<node id="-325500" lat="60.5796333298" lon="11.9951583414">
		<tag k="name" v="Evja" />
		<tag k="natural" v="water" />
		<tag k="ssr:stedsnr" v="360492" />
	</node>
	<node id="-325498" lat="60.7683055579" lon="12.292400005">
		<tag k="name" v="Øvre Mastholttjern" />
		<tag k="natural" v="water" />
		<tag k="ssr:stedsnr" v="360341" />
	</node>
	<node id="-325495" lat="60.7367888878" lon="12.0897916696">
		<tag k="name" v="Haraldsåsdammen" />
		<tag k="ssr:stedsnr" v="358793" />
		<tag k="waterway" v="dam" />
	</node>
	<node id="-325494" lat="60.5482194425" lon="11.7603249969">
		<tag k="name" v="Svartbekken" />
		<tag k="ssr:stedsnr" v="358677" />
		<tag k="waterway" v="stream" />
	</node>
	<node id="-325485" lat="60.5035809189" lon="11.7713738951">
		<tag k="name" v="Øvre Gransjøtjernet" />
		<tag k="natural" v="water" />
		<tag k="ssr:stedsnr" v="350861" />
	</node>
	<node id="-325484" lat="60.5086739583" lon="11.742418344">
		<tag k="name" v="Velt-Tannsjøen" />
		<tag k="natural" v="water" />
		<tag k="ssr:stedsnr" v="349448" />
		<tag k="water" v="lake" />
	</node>
	<node id="-325482" lat="60.8229194454" lon="12.3132388915">
		<tag k="name" v="Vidjefløyta" />
		<tag k="natural" v="water" />
		<tag k="ssr:stedsnr" v="345333" />
		<tag k="water" v="lake" />
	</node>
	<node id="-325477" lat="60.6762555595" lon="12.1285499951">
		<tag k="name" v="Knapneset" />
		<tag k="natural" v="cape" />
		<tag k="ssr:stedsnr" v="343888" />
	</node>
	<node id="-325462" lat="60.6627169937" lon="12.1971302762">
		<tag k="name" v="Gullholmkilen" />
		<tag k="natural" v="bay" />
		<tag k="ssr:stedsnr" v="343108" />
	</node>
	<node id="-325456" lat="60.7673583301" lon="12.1133944422">
		<tag k="name" v="Aurbekken" />
		<tag k="ssr:stedsnr" v="313545" />
		<tag k="waterway" v="stream" />
	</node>
	<node id="-325451" lat="60.5441583373" lon="11.9902333428">
		<tag k="name" v="Strandsjøen" />
		<tag k="natural" v="water" />
		<tag k="ssr:stedsnr" v="310994" />
		<tag k="water" v="lake" />
	</node>
	<node id="-325441" lat="60.6284555544" lon="12.1727555468">
		<tag k="alt_name" v="Løksjøen" />
		<tag k="name" v="Lauksjøen" />
		<tag k="natural" v="water" />
		<tag k="ssr:stedsnr" v="310859" />
	</node>
	<node id="-325428" lat="60.6032722222" lon="12.0240444487">
		<tag k="loc_name" v="Bjerkeneset;Børkeneset" />
		<tag k="name" v="Syverstuneset" />
		<tag k="natural" v="cape" />
		<tag k="ssr:stedsnr" v="310775" />
	</node>
	<node id="-323890" lat="60.7420833315" lon="12.0415777754">
		<tag k="alt_name" v="Svartåstjerna" />
		<tag k="name" v="Svartåstjernet" />
		<tag k="natural" v="water" />
		<tag k="ssr:stedsnr" v="68204" />
	</node>
	<node id="-325400" lat="60.4435027802" lon="12.3750666659">
		<tag k="name" v="Rotna" />
		<tag k="ssr:stedsnr" v="309132" />
		<tag k="waterway" v="river" />
	</node>
	<node id="-325399" lat="60.8052194436" lon="12.1651444473">
		<tag k="name" v="Grastjernet" />
		<tag k="natural" v="water" />
		<tag k="ssr:stedsnr" v="312520" />
	</node>
	<node id="-325398" lat="60.8022833353" lon="12.1692305601">
		<tag k="alt_name" v="Åborfosstjernet" />
		<tag k="name" v="Abborfosstjernet" />
		<tag k="natural" v="water" />
		<tag k="ssr:stedsnr" v="312518" />
	</node>
	<node id="-325386" lat="60.8263750031" lon="12.2555388862">
		<tag k="name" v="Steinsjøen" />
		<tag k="natural" v="water" />
		<tag k="ssr:stedsnr" v="191690" />
	</node>
	<node id="-325384" lat="60.7890972202" lon="12.3493555487">
		<tag k="alt_name" v="Gjuvbergstjerna;Juvbergstjenna" />
		<tag k="name" v="Juvbergstjerna" />
		<tag k="natural" v="water" />
		<tag k="ssr:stedsnr" v="191672" />
		<tag k="water" v="lake" />
	</node>
	<node id="-325383" lat="60.7936166665" lon="12.2623416701">
		<tag k="name" v="Langtjernet" />
		<tag k="natural" v="water" />
		<tag k="ssr:stedsnr" v="191663" />
	</node>
	<node id="-325376" lat="60.5081555588" lon="11.864419446">
		<tag k="name" v="Moldåstjernet" />
		<tag k="natural" v="water" />
		<tag k="ssr:stedsnr" v="189919" />
	</node>
	<node id="-325371" lat="60.6410805521" lon="12.0794194429">
		<tag k="name" v="Grindbekken" />
		<tag k="ssr:stedsnr" v="189814" />
		<tag k="waterway" v="stream" />
	</node>
	<node id="-325361" lat="60.542113892" lon="12.4536277846">
		<tag k="name" v="Merratjernet" />
		<tag k="natural" v="water" />
		<tag k="ssr:stedsnr" v="189670" />
	</node>
	<node id="-325359" lat="60.5516388886" lon="12.4435666676">
		<tag k="name" v="Lauvtjern" />
		<tag k="natural" v="water" />
		<tag k="ssr:stedsnr" v="189663" />
	</node>
	<node id="-325358" lat="60.5963472215" lon="12.2930583265">
		<tag k="name" v="Sørma" />
		<tag k="ssr:stedsnr" v="189576" />
		<tag k="waterway" v="river" />
	</node>
	<node id="-325353" lat="60.5716138865" lon="12.4373666592">
		<tag k="name" v="Spiksjøen" />
		<tag k="natural" v="water" />
		<tag k="ssr:stedsnr" v="189523" />
	</node>
	<node id="-325351" lat="60.5680000001" lon="12.449763884">
		<tag k="name" v="Aurbekken" />
		<tag k="ssr:stedsnr" v="189516" />
		<tag k="waterway" v="stream" />
	</node>
	<node id="-325349" lat="60.5886055564" lon="12.2408750091">
		<tag k="alt_name" v="Ombergsætertjennet" />
		<tag k="name" v="Arnebergsætertjernet" />
		<tag k="natural" v="water" />
		<tag k="ssr:stedsnr" v="189489" />
	</node>
	<node id="-325335" lat="60.4950694403" lon="11.8082194459">
		<tag k="name" v="Ljustjernet" />
		<tag k="natural" v="water" />
		<tag k="ssr:stedsnr" v="188264" />
	</node>
	<node id="-325334" lat="60.4963543632" lon="11.7845922442">
		<tag k="name" v="Gransjøtjerna" />
		<tag k="natural" v="water" />
		<tag k="ssr:stedsnr" v="188263" />
		<tag k="water" v="lake" />
	</node>
	<node id="-325323" lat="60.6635361126" lon="12.291213888">
		<tag k="name" v="Eftasbergfossen" />
		<tag k="natural" v="waterfall" />
		<tag k="ssr:stedsnr" v="179478" />
	</node>
	<node id="-325322" lat="60.8446305575" lon="12.2642666587">
		<tag k="name" v="Høgsjøvika" />
		<tag k="natural" v="bay" />
		<tag k="ssr:stedsnr" v="179293" />
	</node>
	<node id="-325321" lat="60.8586555562" lon="12.2207138899">
		<tag k="name" v="Øvre Aurtjernet" />
		<tag k="natural" v="water" />
		<tag k="ssr:stedsnr" v="179281" />
	</node>
	<node id="-325320" lat="60.8513305574" lon="12.2650583419">
		<tag k="name" v="Lekkergåstjernet" />
		<tag k="natural" v="water" />
		<tag k="ssr:stedsnr" v="179279" />
	</node>
	<node id="-325310" lat="60.7521972241" lon="12.2410361091">
		<tag k="name" v="Halavadammen" />
		<tag k="ssr:stedsnr" v="178044" />
		<tag k="waterway" v="dam" />
	</node>
	<node id="-325308" lat="60.75968333" lon="12.0885999926">
		<tag k="name" v="Jonsoktjernet" />
		<tag k="natural" v="water" />
		<tag k="ssr:stedsnr" v="176788" />
	</node>
	<node id="-325288" lat="60.7262194431" lon="12.3332722309">
		<tag k="name" v="Busktjerna" />
		<tag k="natural" v="water" />
		<tag k="ssr:stedsnr" v="163347" />
		<tag k="water" v="lake" />
	</node>
	<node id="-325287" lat="60.5514638846" lon="12.5040944411">
		<tag k="name" v="Storbråtåtjernet" />
		<tag k="natural" v="water" />
		<tag k="ssr:stedsnr" v="163296" />
	</node>
	<node id="-325286" lat="60.569144441" lon="12.482494435">
		<tag k="name" v="Geittjernsbekken" />
		<tag k="ssr:stedsnr" v="163295" />
		<tag k="waterway" v="stream" />
	</node>
	<node id="-325285" lat="60.5901027819" lon="12.5142027728">
		<tag k="name" v="Aliansholmen" />
		<tag k="place" v="islet" />
		<tag k="ssr:stedsnr" v="163290" />
	</node>
	<node id="-325278" lat="60.7125916707" lon="12.3814583327">
		<tag k="name" v="Bjørnstadkilda" />
		<tag k="natural" v="spring" />
		<tag k="ssr:stedsnr" v="161398" />
	</node>
	<node id="-325273" lat="60.8458638899" lon="12.2548861115">
		<tag k="name" v="Igletjernet" />
		<tag k="natural" v="water" />
		<tag k="ssr:stedsnr" v="300293" />
	</node>
	<node id="-325270" lat="60.8419138854" lon="12.2046638863">
		<tag k="fixme" v="multiple name tags, choose one and add the other to alt_name" />
		<tag k="name" v="Kubekken;Steinsjøbekken" />
		<tag k="ssr:stedsnr" v="130595" />
		<tag k="waterway" v="stream" />
	</node>
	<node id="-325269" lat="60.8102583309" lon="12.2742277747">
		<tag k="name" v="Gråtarvika" />
		<tag k="natural" v="bay" />
		<tag k="ssr:stedsnr" v="130696" />
	</node>
	<node id="-325268" lat="60.779886114" lon="12.2862249962">
		<tag k="name" v="Bryntjernet" />
		<tag k="natural" v="water" />
		<tag k="ssr:stedsnr" v="130688" />
	</node>
	<node id="-325267" lat="60.7813944441" lon="12.3138638963">
		<tag k="alt_name" v="Flisfallet, nedre;Nedre-Flisfallet" />
		<tag k="name" v="Nedre Flisfallet" />
		<tag k="natural" v="waterfall" />
		<tag k="ssr:stedsnr" v="130686" />
	</node>
	<node id="-325265" lat="60.7706888849" lon="12.1498861144">
		<tag k="name" v="Sævsjøen" />
		<tag k="natural" v="water" />
		<tag k="ssr:stedsnr" v="130535" />
	</node>
	<node id="-325264" lat="60.5388499975" lon="12.3616250072">
		<tag k="name" v="Aurbekken" />
		<tag k="ssr:stedsnr" v="129975" />
		<tag k="waterway" v="stream" />
	</node>
	<node id="-325263" lat="60.5944638879" lon="12.0740083264">
		<tag k="name" v="Sæteråa" />
		<tag k="ssr:stedsnr" v="129972" />
		<tag k="waterway" v="river" />
	</node>
	<node id="-325257" lat="60.5649083356" lon="12.0631861197">
		<tag k="alt_name" v="Jammerdalsåa" />
		<tag k="name" v="Jammerdalselva" />
		<tag k="ssr:stedsnr" v="128956" />
		<tag k="waterway" v="stream" />
	</node>
	<node id="-325252" lat="60.6187444408" lon="12.1987361175">
		<tag k="name" v="Klokktjernet" />
		<tag k="natural" v="water" />
		<tag k="ssr:stedsnr" v="128849" />
	</node>
	<node id="-325246" lat="60.5621583345" lon="12.1799805577">
		<tag k="name" v="Grautåa" />
		<tag k="ssr:stedsnr" v="128930" />
		<tag k="waterway" v="stream" />
	</node>
	<node id="-325242" lat="60.5666750019" lon="11.8582888851">
		<tag k="name" v="Langåstjernet" />
		<tag k="natural" v="water" />
		<tag k="ssr:stedsnr" v="128788" />
	</node>
	<node id="-325239" lat="60.6047861114" lon="12.0720583383">
		<tag k="name" v="Losmyrbekken" />
		<tag k="ssr:stedsnr" v="128777" />
		<tag k="waterway" v="stream" />
	</node>
	<node id="-325234" lat="60.5368777747" lon="12.5503527831">
		<tag k="name" v="Gombalamb" />
		<tag k="natural" v="water" />
		<tag k="ssr:stedsnr" v="128680" />
	</node>
	<node id="-325233" lat="60.5578361095" lon="12.3850499959">
		<tag k="name" v="Kroksjøen" />
		<tag k="natural" v="water" />
		<tag k="ssr:stedsnr" v="128672" />
	</node>
	<node id="-325230" lat="60.6504361127" lon="12.4674249949">
		<tag k="name" v="Furubekken" />
		<tag k="ssr:stedsnr" v="128597" />
		<tag k="waterway" v="stream" />
	</node>
	<node id="-325220" lat="60.6328499963" lon="12.4881111098">
		<tag k="alt_name" v="Djuptjern;Djuptjennet" />
		<tag k="loc_name" v="Syvalampi" />
		<tag k="name" v="Djuptjernet" />
		<tag k="natural" v="water" />
		<tag k="ssr:stedsnr" v="128483" />
	</node>
	<node id="-325199" lat="60.6243860096" lon="11.9203488313">
		<tag k="alt_name" v="Øysettjennet" />
		<tag k="name" v="Øysettjernet" />
		<tag k="natural" v="water" />
		<tag k="ssr:stedsnr" v="119464" />
	</node>
	<node id="-325197" lat="60.7498444421" lon="12.3738083407">
		<tag k="name" v="Igletjernet" />
		<tag k="natural" v="water" />
		<tag k="ssr:stedsnr" v="119388" />
	</node>
	<node id="-325193" lat="60.7444666633" lon="12.184558326">
		<tag k="name" v="Buråstjernet" />
		<tag k="natural" v="water" />
		<tag k="ssr:stedsnr" v="118040" />
	</node>
	<node id="-325192" lat="60.7387805524" lon="12.323372215">
		<tag k="name" v="Reinbekken" />
		<tag k="ssr:stedsnr" v="117386" />
		<tag k="waterway" v="stream" />
	</node>
	<node id="-325183" lat="60.6456777751" lon="12.2331083292">
		<tag k="name" v="Vesleneset" />
		<tag k="natural" v="cape" />
		<tag k="ssr:stedsnr" v="113579" />
	</node>
	<node id="-325180" lat="60.5367750044" lon="12.513183331">
		<tag k="name" v="Rompotjernet" />
		<tag k="natural" v="water" />
		<tag k="ssr:stedsnr" v="102947" />
	</node>
	<node id="-325173" lat="60.6985416655" lon="12.4415861197">
		<tag k="name" v="Hakatjernet" />
		<tag k="natural" v="water" />
		<tag k="ssr:stedsnr" v="102742" />
	</node>
	<node id="-325169" lat="60.7300972259" lon="12.3201527814">
		<tag k="name" v="Krokåoset" />
		<tag k="natural" v="bay" />
		<tag k="ssr:stedsnr" v="102441" />
	</node>
	<node id="-325166" lat="60.5796694418" lon="12.4722555472">
		<tag k="name" v="Kontmyrbekken" />
		<tag k="ssr:stedsnr" v="102396" />
		<tag k="waterway" v="stream" />
	</node>
	<node id="-325159" lat="60.7765750043" lon="12.2622611044">
		<tag k="name" v="Kvennbekken" />
		<tag k="ssr:stedsnr" v="102062" />
		<tag k="waterway" v="stream" />
	</node>
	<node id="-325157" lat="60.6546416671" lon="12.0098055488">
		<tag k="name" v="Olufskjæret" />
		<tag k="place" v="islet" />
		<tag k="ssr:stedsnr" v="101991" />
	</node>
	<node id="-325154" lat="60.6219472244" lon="12.0003472159">
		<tag k="name" v="Antonsdammen" />
		<tag k="ssr:stedsnr" v="101963" />
		<tag k="waterway" v="dam" />
	</node>
	<node id="-325153" lat="60.5252833377" lon="11.9635888837">
		<tag k="name" v="Persbydammen" />
		<tag k="ssr:stedsnr" v="101591" />
		<tag k="waterway" v="dam" />
	</node>
	<node id="-325139" lat="60.7721833301" lon="12.2819527743">
		<tag k="name" v="Elgtjernet" />
		<tag k="natural" v="water" />
		<tag k="ssr:stedsnr" v="70740" />
	</node>
	<node id="-325129" lat="60.7455694457" lon="12.2458222239">
		<tag k="alt_name" v="Serven" />
		<tag k="name" v="Stor-Serven" />
		<tag k="natural" v="water" />
		<tag k="ssr:stedsnr" v="68906" />
	</node>
	<node id="-325128" lat="60.7470666643" lon="12.2217583267">
		<tag k="name" v="Gransjøen" />
		<tag k="natural" v="water" />
		<tag k="ssr:stedsnr" v="68905" />
	</node>
	<node id="-325126" lat="60.532749999" lon="12.5710249923">
		<tag k="alt_name" v="Dolasinlamb" />
		<tag k="name" v="Dollasinlamb" />
		<tag k="natural" v="water" />
		<tag k="ssr:stedsnr" v="68734" />
	</node>
	<node id="-325123" lat="60.6820472265" lon="12.4429805596">
		<tag k="alt_name" v="Midtskogsåa" />
		<tag k="name" v="Medskogsåa" />
		<tag k="ssr:stedsnr" v="68598" />
		<tag k="waterway" v="stream" />
	</node>
	<node id="-323840" lat="60.7743722223" lon="12.2553888869">
		<tag k="name" v="Hørningsbekken" />
		<tag k="ssr:stedsnr" v="41061" />
		<tag k="waterway" v="stream" />
	</node>
	<node id="-325117" lat="60.6590792149" lon="12.0028821925">
		<tag k="name" v="Baksjøen" />
		<tag k="natural" v="water" />
		<tag k="ssr:stedsnr" v="68092" />
		<tag k="water" v="lake" />
	</node>
	<node id="-325113" lat="60.7125861135" lon="12.093269449">
		<tag k="name" v="Hemsæterbekken" />
		<tag k="ssr:stedsnr" v="68045" />
		<tag k="waterway" v="stream" />
	</node>
	<node id="-325102" lat="60.5836999986" lon="12.4486083345">
		<tag k="name" v="Aurtjernet" />
		<tag k="natural" v="water" />
		<tag k="ssr:stedsnr" v="67571" />
	</node>
	<node id="-325101" lat="60.6065666679" lon="12.453083325">
		<tag k="loc_name" v="Tyskesjøen" />
		<tag k="name" v="Tysken" />
		<tag k="natural" v="water" />
		<tag k="ssr:stedsnr" v="67568" />
	</node>
	<node id="-325093" lat="60.7048972251" lon="12.329905551">
		<tag k="name" v="Vintervika" />
		<tag k="natural" v="bay" />
		<tag k="ssr:stedsnr" v="59433" />
	</node>
	<node id="-325081" lat="60.5782416702" lon="12.0210250092">
		<tag k="name" v="Kvesetevja" />
		<tag k="natural" v="water" />
		<tag k="ssr:stedsnr" v="57485" />
	</node>
	<node id="-325079" lat="60.7416333373" lon="12.3326444461">
		<tag k="name" v="Alentjernet" />
		<tag k="natural" v="water" />
		<tag k="ssr:stedsnr" v="57350" />
	</node>
	<node id="-325077" lat="60.7601805572" lon="12.3011277837">
		<tag k="name" v="Bringtjernet" />
		<tag k="natural" v="water" />
		<tag k="ssr:stedsnr" v="57346" />
	</node>
	<node id="-325073" lat="60.739022226" lon="12.2147444394">
		<tag k="name" v="Damsloen" />
		<tag k="natural" v="water" />
		<tag k="ssr:stedsnr" v="57041" />
		<tag k="water" v="lake" />
	</node>
	<node id="-325062" lat="60.5081194448" lon="11.8038944367">
		<tag k="name" v="Veltfagervassbekken" />
		<tag k="ssr:stedsnr" v="55635" />
		<tag k="waterway" v="stream" />
	</node>
	<node id="-325059" lat="60.6352916632" lon="12.4142444448">
		<tag k="name" v="Greinbekken" />
		<tag k="ssr:stedsnr" v="55625" />
		<tag k="waterway" v="stream" />
	</node>
	<node id="-325054" lat="60.5551777818" lon="12.1968611123">
		<tag k="name" v="Østerdølpa" />
		<tag k="natural" v="water" />
		<tag k="ssr:stedsnr" v="42484" />
		<tag k="water" v="pond" />
	</node>
	<node id="-324170" lat="60.5784083372" lon="12.4235083282">
		<tag k="name" v="Oksøyet" />
		<tag k="natural" v="water" />
		<tag k="ssr:stedsnr" v="345311" />
	</node>
	<node id="-325050" lat="60.7005666658" lon="12.3876138809">
		<tag k="fixme" v="multiple name tags, choose one and add the other to alt_name" />
		<tag k="name" v="Høklingsbekken;Kvernbekken" />
		<tag k="ssr:stedsnr" v="42380" />
		<tag k="waterway" v="stream" />
	</node>
	<node id="-325049" lat="60.7040888886" lon="12.333499999">
		<tag k="name" v="Salmsundsodden" />
		<tag k="natural" v="cape" />
		<tag k="ssr:stedsnr" v="42367" />
	</node>
	<node id="-325047" lat="60.7071444427" lon="12.3036166708">
		<tag k="name" v="Blandtjernbekken" />
		<tag k="ssr:stedsnr" v="42362" />
		<tag k="waterway" v="stream" />
	</node>
	<node id="-325043" lat="60.5365027788" lon="12.5314777738">
		<tag k="name" v="Vestre Ompalamp" />
		<tag k="natural" v="water" />
		<tag k="ssr:stedsnr" v="41633" />
	</node>
	<node id="-325038" lat="60.5281055519" lon="12.2745611093">
		<tag k="name" v="Storsteinholbekken" />
		<tag k="ssr:stedsnr" v="40494" />
		<tag k="waterway" v="stream" />
	</node>
	<node id="-325035" lat="60.7862861085" lon="12.0686555575">
		<tag k="name" v="Måsåfløgsjøen" />
		<tag k="natural" v="water" />
		<tag k="ssr:stedsnr" v="33954" />
	</node>
	<node id="-325033" lat="60.7602416679" lon="12.3577555536">
		<tag k="loc_name" v="Karusstjernet" />
		<tag k="name" v="Karustjernet" />
		<tag k="natural" v="water" />
		<tag k="ssr:stedsnr" v="9641" />
	</node>
	<node id="-325032" lat="60.8059555538" lon="12.2284861133">
		<tag k="name" v="Knebekken" />
		<tag k="ssr:stedsnr" v="9749" />
		<tag k="waterway" v="stream" />
	</node>
	<node id="-325031" lat="60.7896583342" lon="12.1248027742">
		<tag k="name" v="Sautjernet" />
		<tag k="natural" v="water" />
		<tag k="ssr:stedsnr" v="9557" />
	</node>
	<node id="-325019" lat="60.6261583306" lon="11.9450361186">
		<tag k="name" v="Hasla" />
		<tag k="old_name" v="Halsa" />
		<tag k="ssr:stedsnr" v="7815" />
		<tag k="waterway" v="river" />
	</node>
	<node id="-325015" lat="60.5847277798" lon="12.1050027723">
		<tag k="name" v="Aurbekken" />
		<tag k="ssr:stedsnr" v="7793" />
		<tag k="waterway" v="stream" />
	</node>
	<node id="-325010" lat="60.5388916622" lon="12.4562750045">
		<tag k="name" v="Holttjernet" />
		<tag k="natural" v="water" />
		<tag k="ssr:stedsnr" v="7680" />
	</node>
	<node id="-325002" lat="60.582074998" lon="12.2372444436">
		<tag k="name" v="Kampebekken" />
		<tag k="ssr:stedsnr" v="7533" />
		<tag k="waterway" v="stream" />
	</node>
	<node id="-324994" lat="60.6266916659" lon="12.3259111149">
		<tag k="name" v="Sandbekken" />
		<tag k="ssr:stedsnr" v="7497" />
		<tag k="waterway" v="stream" />
	</node>
	<node id="-324992" lat="60.528283334" lon="11.729149995">
		<tag k="name" v="Bossmyrtjernet" />
		<tag k="natural" v="water" />
		<tag k="ssr:stedsnr" v="7263" />
	</node>
	<node id="-324991" lat="60.5373138864" lon="11.813955562">
		<tag k="name" v="Fjølåa" />
		<tag k="ssr:stedsnr" v="7253" />
		<tag k="waterway" v="stream" />
	</node>
	<node id="-324988" lat="60.5008027759" lon="11.8126277702">
		<tag k="alt_name" v="Svarttjennet" />
		<tag k="name" v="Svarttjernet" />
		<tag k="natural" v="water" />
		<tag k="ssr:stedsnr" v="7240" />
	</node>
	<node id="-324986" lat="60.552900001" lon="11.6809444389">
		<tag k="name" v="Huldertjernet" />
		<tag k="natural" v="water" />
		<tag k="ssr:stedsnr" v="7152" />
	</node>
	<node id="-324975" lat="60.6971111083" lon="12.1131527729">
		<tag k="name" v="Olderbekken" />
		<tag k="ssr:stedsnr" v="7023" />
		<tag k="waterway" v="stream" />
	</node>
	<node id="-323815" lat="60.551712427" lon="12.0372909193">
		<tag k="alt_name" v="Presttjennet" />
		<tag k="name" v="Presttjernet" />
		<tag k="natural" v="water" />
		<tag k="ssr:stedsnr" v="223826" />
	</node>
	<node id="-324155" lat="60.6798249963" lon="12.4169333364">
		<tag k="name" v="Hestnebben" />
		<tag k="natural" v="cape" />
		<tag k="ssr:stedsnr" v="480686" />
	</node>
	<node id="-324959" lat="60.6587861092" lon="12.0894416714">
		<tag k="name" v="Myrbekken" />
		<tag k="ssr:stedsnr" v="967825" />
		<tag k="waterway" v="stream" />
	</node>
	<node id="-324958" lat="60.6457888872" lon="12.0955833375">
		<tag k="name" v="Gropdalsbekken" />
		<tag k="ssr:stedsnr" v="967823" />
		<tag k="waterway" v="stream" />
	</node>
	<node id="-324957" lat="60.6385777798" lon="12.0721472221">
		<tag k="name" v="Kallåsevja" />
		<tag k="natural" v="bay" />
		<tag k="ssr:stedsnr" v="967821" />
	</node>
	<node id="-324955" lat="60.5539888874" lon="12.5766027848">
		<tag k="name" v="Nabben" />
		<tag k="natural" v="cape" />
		<tag k="ssr:stedsnr" v="967660" />
	</node>
	<node id="-323812" lat="60.6623388859" lon="11.9856861071">
		<tag k="name" v="Fagerbekken" />
		<tag k="ssr:stedsnr" v="222993" />
		<tag k="waterway" v="stream" />
	</node>
	<node id="-324945" lat="60.6973833346" lon="12.393755559">
		<tag k="name" v="Langnebbvika" />
		<tag k="natural" v="bay" />
		<tag k="ssr:stedsnr" v="952423" />
	</node>
	<node id="-324152" lat="60.7540138923" lon="12.0028666667">
		<tag k="name" v="Granbergstjernet" />
		<tag k="natural" v="water" />
		<tag k="ssr:stedsnr" v="479692" />
	</node>
	<node id="-324942" lat="60.6563722266" lon="11.9948388859">
		<tag k="name" v="Ringstadbekken" />
		<tag k="ssr:stedsnr" v="950993" />
		<tag k="waterway" v="stream" />
	</node>
	<node id="-324940" lat="60.7824277738" lon="12.3563750056">
		<tag k="name" v="Sjutomstjernet" />
>>>>>>> e1d4bc35ff8a6074a6f2e91616a996b547c36f15
		<tag k="natural" v="water" />
		<tag k="ssr:stedsnr" v="919708" />
	</node>
<<<<<<< HEAD
	<node lat="60.56417499748737" lon="12.33603889259979" id="-19274">
		<tag k="name" v="Blekkbenken" />
		<tag k="natural" v="water" />
		<tag k="ssr:stedsnr" v="492509" />
	</node>
	<node lat="60.568983337598" lon="12.348933334522156" id="-19275">
		<tag k="name" v="Husua" />
		<tag k="ssr:stedsnr" v="492510" />
		<tag k="waterway" v="stream" />
	</node>
	<node lat="60.64332778205549" lon="12.327680560167247" id="-19281">
		<tag k="name" v="Muslitjernet" />
		<tag k="natural" v="water" />
		<tag k="ssr:stedsnr" v="492582" />
	</node>
	<node lat="60.553933333515005" lon="12.192819452087036" id="-19287">
		<tag k="alt_name" v="Grautsjøtjennet" />
		<tag k="name" v="Grautsjøtjernet" />
		<tag k="natural" v="water" />
		<tag k="ssr:stedsnr" v="492986" />
	</node>
	<node lat="60.78308333159861" lon="12.067572225682156" id="-19289">
		<tag k="alt_name" v="Suppertjernet" />
		<tag k="name" v="Suppertjern" />
		<tag k="natural" v="water" />
		<tag k="ssr:stedsnr" v="494477" />
	</node>
	<node lat="60.77398333084702" lon="12.044933333349622" id="-19290">
		<tag k="name" v="Røbekken" />
		<tag k="ssr:stedsnr" v="494523" />
		<tag k="waterway" v="stream" />
	</node>
	<node lat="60.77328610991944" lon="12.317894439702808" id="-19291">
		<tag k="name" v="Knapptjern" />
		<tag k="natural" v="water" />
		<tag k="ssr:stedsnr" v="494706" />
	</node>
	<node lat="60.76822012232829" lon="12.285079503265889" id="-19292">
		<tag k="name" v="Ristjerna" />
		<tag k="natural" v="water" />
		<tag k="ssr:stedsnr" v="494708" />
		<tag k="water" v="lake" />
	</node>
	<node lat="60.81502500211312" lon="12.245552769490192" id="-19293">
		<tag k="alt_name" v="Slaggerudsbekken" />
		<tag k="name" v="Slagerudsbekken" />
		<tag k="ssr:stedsnr" v="494712" />
		<tag k="waterway" v="stream" />
	</node>
	<node lat="60.75677499654556" lon="12.194430550482377" id="-19294">
		<tag k="name" v="Svarttjernet" />
		<tag k="natural" v="water" />
		<tag k="ssr:stedsnr" v="495520" />
	</node>
	<node lat="60.77901389300257" lon="12.25060556299502" id="-19297">
		<tag k="name" v="Geittjernet" />
		<tag k="natural" v="water" />
		<tag k="ssr:stedsnr" v="525007" />
	</node>
	<node lat="60.711597223353415" lon="12.378919437013627" id="-19299">
		<tag k="name" v="Skolehusbekken" />
		<tag k="ssr:stedsnr" v="525415" />
		<tag k="waterway" v="stream" />
	</node>
	<node lat="60.52353055402189" lon="11.947494451316304" id="-19300">
		<tag k="name" v="Katisnebben" />
		<tag k="natural" v="cape" />
		<tag k="ssr:stedsnr" v="525578" />
	</node>
	<node lat="60.56539999753387" lon="12.448791662758136" id="-19303">
		<tag k="name" v="Elgbekken" />
		<tag k="ssr:stedsnr" v="527331" />
		<tag k="waterway" v="stream" />
	</node>
	<node lat="60.5126888852858" lon="11.729297217273613" id="-19312">
		<tag k="name" v="Store Tannsjøen" />
		<tag k="natural" v="water" />
		<tag k="ssr:stedsnr" v="531403" />
		<tag k="water" v="lake" />
	</node>
	<node lat="60.80336666552029" lon="12.2636444447458" id="-19313">
		<tag k="name" v="Reverudsvika" />
		<tag k="natural" v="bay" />
		<tag k="ssr:stedsnr" v="540010" />
	</node>
	<node lat="60.830936108406426" lon="12.227483341049894" id="-19314">
		<tag k="name" v="Nordre Bjørketjernet" />
		<tag k="natural" v="water" />
		<tag k="ssr:stedsnr" v="540013" />
	</node>
	<node lat="60.61045832910026" lon="12.387969450757467" id="-19316">
		<tag k="name" v="Grenbekken" />
		<tag k="ssr:stedsnr" v="540484" />
		<tag k="waterway" v="stream" />
	</node>
	<node lat="60.84904444869956" lon="12.225705560765816" id="-19322">
		<tag k="name" v="Aurbekken" />
		<tag k="ssr:stedsnr" v="543302" />
		<tag k="waterway" v="stream" />
	</node>
	<node lat="60.54587777721849" lon="11.775358329040277" id="-19325">
		<tag k="name" v="Svanbekken" />
		<tag k="ssr:stedsnr" v="543565" />
		<tag k="waterway" v="stream" />
	</node>
	<node lat="60.56677500370009" lon="12.288474998191944" id="-19333">
		<tag k="name" v="Sørmsjøen" />
		<tag k="natural" v="water" />
		<tag k="ssr:stedsnr" v="552619" />
	</node>
	<node lat="60.65328611263064" lon="12.343483325877509" id="-19334">
		<tag k="name" v="Grasåsbekken" />
		<tag k="ssr:stedsnr" v="552653" />
		<tag k="waterway" v="stream" />
	</node>
	<node lat="60.58125000420673" lon="12.143355549612542" id="-19335">
		<tag k="name" v="Knapptjernet" />
		<tag k="natural" v="water" />
		<tag k="ssr:stedsnr" v="552809" />
	</node>
	<node lat="60.711933335944245" lon="12.01561667388545" id="-19341">
		<tag k="alt_name" v="Ålitjernet" />
		<tag k="name" v="Årlitjernet" />
		<tag k="natural" v="water" />
		<tag k="ssr:stedsnr" v="553042" />
	</node>
	<node lat="60.62563333740075" lon="12.43143334215936" id="-19347">
		<tag k="name" v="Tyskåa" />
		<tag k="ssr:stedsnr" v="553506" />
		<tag k="waterway" v="stream" />
	</node>
	<node lat="60.55951944118659" lon="12.490661114371537" id="-19350">
		<tag k="name" v="Langfløyta" />
		<tag k="natural" v="water" />
		<tag k="ssr:stedsnr" v="553707" />
	</node>
	<node lat="60.52480555455278" lon="12.557563882891522" id="-19352">
		<tag k="alt_name" v="Rotnebergsåa" />
		<tag k="name" v="Rotbergsåa" />
		<tag k="ssr:stedsnr" v="553737" />
		<tag k="waterway" v="river" />
	</node>
	<node lat="60.55603888731735" lon="11.873261118339073" id="-19357">
		<tag k="name" v="Tjernsmyrtjernet" />
		<tag k="natural" v="water" />
		<tag k="ssr:stedsnr" v="553937" />
	</node>
	<node lat="60.807144446085495" lon="12.2649277757498" id="-19359">
		<tag k="name" v="Lindsjøen" />
		<tag k="natural" v="water" />
		<tag k="ssr:stedsnr" v="554781" />
		<tag k="water" v="lake" />
	</node>
	<node lat="60.762869443563055" lon="12.242683342245977" id="-19361">
		<tag k="name" v="Blanken" />
		<tag k="natural" v="water" />
		<tag k="ssr:stedsnr" v="555612" />
	</node>
	<node lat="60.66396388699521" lon="12.19737500578118" id="-19369">
		<tag k="name" v="Gullholmen" />
		<tag k="natural" v="cape" />
		<tag k="ssr:stedsnr" v="586090" />
	</node>
	<node lat="60.533005559380754" lon="12.587986116376642" id="-19372">
		<tag k="name" v="Brattfosstjernet" />
		<tag k="natural" v="water" />
		<tag k="ssr:stedsnr" v="586716" />
	</node>
	<node lat="60.72653611055204" lon="12.295147216571962" id="-19374">
		<tag k="name" v="Skådamfossen" />
		<tag k="natural" v="waterfall" />
		<tag k="ssr:stedsnr" v="587402" />
	</node>
	<node lat="60.67375833392634" lon="12.007366657874416" id="-19380">
		<tag k="name" v="Sjøstrand" />
		<tag k="natural" v="beach" />
		<tag k="ssr:stedsnr" v="587912" />
	</node>
	<node lat="60.50675000231745" lon="11.794838888471332" id="-19391">
		<tag k="name" v="Storfagervassbekken" />
		<tag k="ssr:stedsnr" v="601665" />
		<tag k="waterway" v="stream" />
	</node>
	<node lat="60.55906110735462" lon="12.063741667667847" id="-19393">
		<tag k="name" v="Sagdammen" />
		<tag k="natural" v="water" />
		<tag k="ssr:stedsnr" v="601811" />
	</node>
	<node lat="60.674127779664346" lon="11.911736111768906" id="-19397">
		<tag k="name" v="Åmot" />
		<tag k="place" v="locality" />
		<tag k="ssr:stedsnr" v="604451" />
	</node>
	<node lat="60.47592222166846" lon="11.759013880708872" id="-19398">
		<tag k="name" v="Bjørbekken" />
		<tag k="ssr:stedsnr" v="604918" />
		<tag k="waterway" v="stream" />
	</node>
	<node lat="60.65050000001814" lon="12.13540833978984" id="-19402">
		<tag k="name" v="Morttjernsbekken" />
		<tag k="ssr:stedsnr" v="613072" />
		<tag k="waterway" v="stream" />
	</node>
	<node lat="60.74614722340518" lon="12.063591675077063" id="-19405">
		<tag k="name" v="Svartbekken" />
		<tag k="ssr:stedsnr" v="613202" />
		<tag k="waterway" v="stream" />
	</node>
	<node lat="60.544561111891056" lon="12.094530564061918" id="-19419">
		<tag k="name" v="Sorka" />
		<tag k="ssr:stedsnr" v="613902" />
		<tag k="waterway" v="stream" />
	</node>
	<node lat="60.74797499767174" lon="12.279788880625864" id="-19420">
		<tag k="name" v="Kampetjern" />
		<tag k="natural" v="water" />
		<tag k="ssr:stedsnr" v="613908" />
	</node>
	<node lat="60.76396110870107" lon="12.29189443583177" id="-19423">
		<tag k="name" v="Risbekken" />
		<tag k="ssr:stedsnr" v="615622" />
		<tag k="waterway" v="stream" />
	</node>
	<node lat="60.800188888753006" lon="12.304680555039667" id="-19424">
		<tag k="alt_name" v="Flisfallet, øvre" />
		<tag k="name" v="Øvre Flisfallet" />
		<tag k="natural" v="waterfall" />
		<tag k="ssr:stedsnr" v="615692" />
	</node>
	<node lat="60.79861389091984" lon="12.283002771252589" id="-19425">
		<tag k="name" v="Storabbortjernet" />
		<tag k="natural" v="water" />
		<tag k="ssr:stedsnr" v="615693" />
	</node>
	<node lat="60.79683611297748" lon="12.264083339424165" id="-19426">
		<tag k="name" v="Rundabbortjernet" />
		<tag k="natural" v="water" />
		<tag k="ssr:stedsnr" v="615695" />
	</node>
	<node lat="60.786630554181414" lon="12.324775001053442" id="-19427">
		<tag k="name" v="Tellåsbekken" />
		<tag k="ssr:stedsnr" v="615703" />
		<tag k="waterway" v="stream" />
	</node>
	<node lat="60.81984444097962" lon="12.250569451881931" id="-19431">
		<tag k="name" v="Frysarskjulbekken" />
		<tag k="ssr:stedsnr" v="615734" />
		<tag k="waterway" v="stream" />
	</node>
	<node lat="60.80514999720973" lon="12.295469438888114" id="-19432">
		<tag k="alt_name" v="Fiskelaustjennet;Fiskeløstjennet" />
		<tag k="name" v="Fiskelaustjernet" />
		<tag k="natural" v="water" />
		<tag k="ssr:stedsnr" v="615741" />
	</node>
	<node lat="60.780658334003114" lon="12.225405554757028" id="-19433">
		<tag k="name" v="Baskalamp" />
		<tag k="natural" v="water" />
		<tag k="ssr:stedsnr" v="646004" />
		<tag k="water" v="pond" />
	</node>
	<node lat="60.65215000334133" lon="12.230438897259551" id="-19435">
		<tag k="name" v="Storneset" />
		<tag k="natural" v="cape" />
		<tag k="ssr:stedsnr" v="646106" />
	</node>
	<node lat="60.729258330212254" lon="12.307547212969727" id="-19442">
		<tag k="name" v="Gjerdoset" />
		<tag k="natural" v="bay" />
		<tag k="ssr:stedsnr" v="648389" />
	</node>
	<node lat="60.56534999633231" lon="12.219916669804716" id="-19449">
		<tag k="name" v="Lilletjernet" />
		<tag k="natural" v="water" />
		<tag k="ssr:stedsnr" v="707243" />
	</node>
	<node lat="60.54948055463032" lon="11.937669441245852" id="-19456">
		<tag k="name" v="Lomtjernet" />
		<tag k="natural" v="water" />
		<tag k="ssr:stedsnr" v="707596" />
	</node>
	<node lat="60.77157221896736" lon="12.292505554127661" id="-19473">
		<tag k="name" v="Raudrokkebekken" />
		<tag k="ssr:stedsnr" v="662313" />
		<tag k="waterway" v="stream" />
	</node>
	<node lat="60.73316389125118" lon="12.281555563717959" id="-19477">
		<tag k="name" v="Krokfossen" />
		<tag k="natural" v="waterfall" />
		<tag k="ssr:stedsnr" v="709381" />
	</node>
	<node lat="60.69959167001098" lon="12.38527500446912" id="-19481">
		<tag k="name" v="Langnebbodden" />
		<tag k="natural" v="cape" />
		<tag k="ssr:stedsnr" v="709420" />
	</node>
	<node lat="60.670819444118074" lon="12.357100000206655" id="-19482">
		<tag k="name" v="Grønholsbekken" />
		<tag k="ssr:stedsnr" v="709424" />
		<tag k="waterway" v="stream" />
	</node>
	<node lat="60.526777780603744" lon="12.02748610688036" id="-19486">
		<tag k="name" v="Haugsjøen" />
		<tag k="natural" v="water" />
		<tag k="ssr:stedsnr" v="709613" />
	</node>
	<node lat="60.60642777775609" lon="12.277158328002328" id="-19493">
		<tag k="name" v="Storbergsbekken" />
		<tag k="ssr:stedsnr" v="890155" />
		<tag k="waterway" v="stream" />
	</node>
	<node lat="60.788227775831515" lon="12.179672218218697" id="-19494">
		<tag k="name" v="Skaltjernet" />
		<tag k="natural" v="water" />
		<tag k="ssr:stedsnr" v="890065" />
	</node>
	<node lat="60.575744447010166" lon="12.184519443531453" id="-19495">
		<tag k="name" v="Blekkhælet" />
		<tag k="natural" v="water" />
		<tag k="ssr:stedsnr" v="890262" />
		<tag k="water" v="pond" />
	</node>
	<node lat="60.69348610740029" lon="12.167933338153382" id="-19502">
		<tag k="alt_name" v="Nya" />
		<tag k="name" v="Nyåa" />
		<tag k="ssr:stedsnr" v="674027" />
		<tag k="waterway" v="river" />
	</node>
	<node lat="60.73334722100167" lon="12.074497230472545" id="-19511">
		<tag k="name" v="Stortjernet" />
		<tag k="natural" v="water" />
		<tag k="ssr:stedsnr" v="674189" />
	</node>
	<node lat="60.76710555596537" lon="12.272158337069751" id="-19512">
		<tag k="name" v="Møkkaplogtjernet" />
		<tag k="natural" v="water" />
		<tag k="ssr:stedsnr" v="891082" />
	</node>
	<node lat="60.63859444050427" lon="12.338738883179209" id="-19513">
		<tag k="alt_name" v="Aluntjern;Aluntjennet" />
		<tag k="name" v="Aluntjernet" />
		<tag k="natural" v="water" />
		<tag k="ssr:stedsnr" v="674606" />
	</node>
	<node lat="60.55510278103807" lon="12.541583328344254" id="-19516">
		<tag k="name" v="Lomtjernet" />
		<tag k="natural" v="water" />
		<tag k="ssr:stedsnr" v="674703" />
	</node>
	<node lat="60.61747499622973" lon="12.380386117847587" id="-19529">
		<tag k="name" v="Kverntjern" />
		<tag k="natural" v="water" />
		<tag k="ssr:stedsnr" v="675526" />
	</node>
	<node lat="60.83148333192427" lon="12.162441667252578" id="-19534">
		<tag k="fixme" v="multiple name tags, choose one and add the other to alt_name" />
		<tag k="name" v="Svantjernsbekken;Finnbekken" />
		<tag k="ssr:stedsnr" v="676604" />
		<tag k="waterway" v="stream" />
	</node>
	<node lat="60.75634999618195" lon="12.342038885589023" id="-19538">
		<tag k="name" v="Kolåsbekken" />
		<tag k="ssr:stedsnr" v="676637" />
		<tag k="waterway" v="stream" />
	</node>
	<node lat="60.63031388443405" lon="12.088136111777256" id="-19543">
		<tag k="name" v="Melsbekken" />
		<tag k="ssr:stedsnr" v="891918" />
		<tag k="waterway" v="stream" />
	</node>
	<node lat="60.56092499847506" lon="11.809413888565187" id="-19549">
		<tag k="name" v="Tuefløyta" />
		<tag k="natural" v="water" />
		<tag k="ssr:stedsnr" v="892181" />
		<tag k="water" v="lake" />
	</node>
	<node lat="60.53906666624749" lon="12.537963890365292" id="-19554">
		<tag k="name" v="Østre Ompalamp" />
		<tag k="natural" v="water" />
		<tag k="ssr:stedsnr" v="709625" />
	</node>
	<node lat="60.60784999783555" lon="12.131761103108325" id="-19557">
		<tag k="name" v="Normannskjelda" />
		<tag k="natural" v="spring" />
		<tag k="ssr:stedsnr" v="709934" />
	</node>
	<node lat="60.69068055177159" lon="11.919888888309337" id="-19559">
		<tag k="name" v="Søndre Hasla" />
		<tag k="ssr:stedsnr" v="711675" />
		<tag k="waterway" v="river" />
	</node>
	<node lat="60.70294166231708" lon="12.324261106902258" id="-19561">
		<tag k="alt_name" v="Vermundstjennet" />
		<tag k="loc_name" v="Tjernmotjennet" />
		<tag k="name" v="Vermundstjernet" />
		<tag k="natural" v="water" />
		<tag k="ssr:stedsnr" v="720630" />
		<tag k="water" v="lake" />
	</node>
	<node lat="60.69678610926442" lon="12.025083328532904" id="-19581">
		<tag k="name" v="Damtjernet" />
		<tag k="natural" v="water" />
		<tag k="ssr:stedsnr" v="735017" />
	</node>
	<node lat="60.56305000153205" lon="11.81637500581103" id="-19583">
		<tag k="name" v="Tuefløyta" />
		<tag k="natural" v="water" />
		<tag k="ssr:stedsnr" v="735116" />
	</node>
	<node lat="60.48341388485007" lon="11.794666675016822" id="-19586">
		<tag k="name" v="Nøklevatnet" />
		<tag k="natural" v="water" />
		<tag k="ssr:stedsnr" v="735227" />
	</node>
	<node lat="60.54987499930505" lon="12.331755561949066" id="-19592">
		<tag k="name" v="Kalbråtåsjøen" />
		<tag k="natural" v="water" />
		<tag k="ssr:stedsnr" v="735678" />
	</node>
	<node lat="60.54244044564086" lon="12.333781758219208" id="-19593">
		<tag k="alt_name" v="Aursjøen, vesle" />
		<tag k="name" v="Vesle Aursjøen" />
		<tag k="natural" v="water" />
		<tag k="ssr:stedsnr" v="735680" />
	</node>
	<node lat="60.60240555705079" lon="12.147502777829782" id="-19600">
		<tag k="alt_name" v="Løksjøåa" />
		<tag k="name" v="Lauksjøåa" />
		<tag k="ssr:stedsnr" v="735772" />
		<tag k="waterway" v="stream" />
	</node>
	<node lat="60.58855278160964" lon="12.199036119118585" id="-19606">
		<tag k="name" v="Frauåstjernet" />
		<tag k="natural" v="water" />
		<tag k="ssr:stedsnr" v="735794" />
	</node>
	<node lat="60.51168888677453" lon="11.990802768762682" id="-19613">
		<tag k="name" v="Auståa" />
		<tag k="ssr:stedsnr" v="735884" />
		<tag k="waterway" v="river" />
	</node>
	<node lat="60.68053888454987" lon="12.410072224286939" id="-19622">
		<tag k="name" v="Flåvelta" />
		<tag k="natural" v="cape" />
		<tag k="ssr:stedsnr" v="905697" />
	</node>
	<node lat="60.564525001146286" lon="11.980613890082287" id="-19625">
		<tag k="name" v="Bjørkåa" />
		<tag k="ssr:stedsnr" v="906538" />
		<tag k="waterway" v="stream" />
	</node>
	<node lat="60.84878333488599" lon="12.29096389060303" id="-19631">
		<tag k="name" v="Trollkjelda" />
		<tag k="natural" v="spring" />
		<tag k="ssr:stedsnr" v="768413" />
	</node>
	<node lat="60.58390833297465" lon="11.891833341452088" id="-19632">
		<tag k="name" v="Siggebekken" />
		<tag k="ssr:stedsnr" v="768602" />
		<tag k="waterway" v="stream" />
	</node>
	<node lat="60.53503333119209" lon="12.582280555785196" id="-19633">
		<tag k="name" v="Machatjernsvika" />
		<tag k="natural" v="bay" />
		<tag k="ssr:stedsnr" v="768725" />
	</node>
	<node lat="60.85529444612561" lon="12.220027770440689" id="-19634">
		<tag k="name" v="Midtre Aurtjernet" />
		<tag k="natural" v="water" />
		<tag k="ssr:stedsnr" v="907239" />
	</node>
	<node lat="60.768033337759746" lon="12.265122219496146" id="-19636">
		<tag k="name" v="Slotjernsbekken" />
		<tag k="ssr:stedsnr" v="769050" />
		<tag k="waterway" v="stream" />
	</node>
	<node lat="60.831469441156514" lon="12.307497215945924" id="-19643">
		<tag k="name" v="Flissæterkjelda" />
		<tag k="natural" v="spring" />
		<tag k="ssr:stedsnr" v="770308" />
	</node>
	<node lat="60.54106944820298" lon="12.158097214720529" id="-19646">
		<tag k="name" v="Grautsjøbekken" />
		<tag k="ssr:stedsnr" v="907797" />
		<tag k="waterway" v="stream" />
	</node>
	<node lat="60.80219444638828" lon="12.303797227781244" id="-19650">
		<tag k="name" v="Tollporten" />
		<tag k="ssr:stedsnr" v="908389" />
		<tag k="waterway" v="rapids" />
	</node>
	<node lat="60.67628888513517" lon="12.278111105725573" id="-19652">
		<tag k="name" v="Vollbekken" />
		<tag k="ssr:stedsnr" v="909085" />
		<tag k="waterway" v="stream" />
	</node>
	<node lat="60.63954444745927" lon="12.041772231546696" id="-19658">
		<tag k="name" v="Libergsfossen" />
		<tag k="natural" v="waterfall" />
		<tag k="ssr:stedsnr" v="909940" />
	</node>
	<node lat="60.5154638880753" lon="11.911358329567234" id="-19660">
		<tag k="name" v="Komperudsdammen" />
		<tag k="ssr:stedsnr" v="783067" />
		<tag k="waterway" v="dam" />
	</node>
	<node lat="60.783277777605825" lon="12.08627776964031" id="-19663">
		<tag k="name" v="Lomtjernet" />
		<tag k="natural" v="water" />
		<tag k="ssr:stedsnr" v="783747" />
	</node>
	<node lat="60.73301666980209" lon="12.117638892197265" id="-19664">
		<tag k="name" v="Brattfossen" />
		<tag k="natural" v="waterfall" />
		<tag k="ssr:stedsnr" v="783763" />
	</node>
	<node lat="60.74733889332425" lon="12.140252780149636" id="-19665">
		<tag k="name" v="Buråstjernet" />
		<tag k="natural" v="water" />
		<tag k="ssr:stedsnr" v="783765" />
	</node>
	<node lat="60.762547221848834" lon="12.074975005470963" id="-19668">
		<tag k="name" v="Bukketjernet" />
		<tag k="natural" v="water" />
		<tag k="ssr:stedsnr" v="783802" />
	</node>
	<node lat="60.63628332955325" lon="12.299822227717966" id="-19672">
		<tag k="name" v="Saubekken" />
		<tag k="ssr:stedsnr" v="785458" />
		<tag k="waterway" v="stream" />
	</node>
	<node lat="60.49218055445216" lon="11.818172222530741" id="-19679">
		<tag k="name" v="Agnåbekken" />
		<tag k="ssr:stedsnr" v="787643" />
		<tag k="waterway" v="stream" />
	</node>
	<node lat="60.61194999655762" lon="12.481136105848034" id="-19680">
		<tag k="name" v="Gransjøbekken" />
		<tag k="ssr:stedsnr" v="795569" />
		<tag k="waterway" v="stream" />
	</node>
	<node lat="60.619149998299335" lon="12.406350001486217" id="-19690">
		<tag k="loc_name" v="Haarapuro" />
		<tag k="name" v="Grasmyrbekken" />
		<tag k="ssr:stedsnr" v="796505" />
		<tag k="waterway" v="stream" />
	</node>
	<node lat="60.69962500280448" lon="12.377008337091864" id="-19699">
		<tag k="alt_name" v="Vermunden" />
		<tag k="name" v="Vermundsjøen" />
		<tag k="natural" v="water" />
		<tag k="ssr:stedsnr" v="796573" />
		<tag k="water" v="lake" />
	</node>
	<node lat="60.53652763354352" lon="12.268726857231742" id="-19700">
		<tag k="alt_name" v="Kerstitjennet" />
		<tag k="name" v="Kerstitjerna" />
		<tag k="natural" v="water" />
		<tag k="ssr:stedsnr" v="796706" />
		<tag k="water" v="lake" />
	</node>
	<node lat="60.54980555550974" lon="12.458883341182482" id="-19701">
		<tag k="name" v="Kosmannstjernet" />
		<tag k="natural" v="water" />
		<tag k="ssr:stedsnr" v="796709" />
	</node>
	<node lat="60.81995555521742" lon="12.197016662020705" id="-19708">
		<tag k="name" v="Svantjernet" />
		<tag k="natural" v="water" />
		<tag k="ssr:stedsnr" v="798493" />
	</node>
	<node lat="60.764166668771225" lon="12.24663610968985" id="-19710">
		<tag k="name" v="Grunntjernet" />
		<tag k="natural" v="water" />
		<tag k="ssr:stedsnr" v="798611" />
	</node>
	<node lat="60.757205554255" lon="12.263855554866225" id="-19711">
		<tag k="name" v="Gjeddtjernet" />
		<tag k="natural" v="water" />
		<tag k="ssr:stedsnr" v="798616" />
	</node>
	<node lat="60.69972040906419" lon="12.04065793411283" id="-19716">
		<tag k="name" v="Vålåstjerna" />
		<tag k="natural" v="water" />
		<tag k="ssr:stedsnr" v="917022" />
		<tag k="water" v="lake" />
	</node>
	<node lat="60.56253055239538" lon="12.50596389499116" id="-19719">
		<tag k="alt_name" v="Vesle Fløyta" />
		<tag k="name" v="Veslefløyta" />
		<tag k="natural" v="water" />
		<tag k="ssr:stedsnr" v="917674" />
	</node>
	<node lat="60.52978888794157" lon="12.29225277279999" id="-19720">
		<tag k="alt_name" v="Kvennbekken" />
		<tag k="name" v="Kvernbekken" />
		<tag k="ssr:stedsnr" v="917682" />
		<tag k="waterway" v="stream" />
	</node>
	<node lat="60.75728055242811" lon="12.25454999351217" id="-19737">
		<tag k="name" v="Brynhildstjernet" />
		<tag k="natural" v="water" />
		<tag k="ssr:stedsnr" v="919623" />
	</node>
	<node lat="60.621772221495156" lon="12.280491674524201" id="-19740">
		<tag k="name" v="Kanalen" />
		<tag k="ssr:stedsnr" v="829132" />
		<tag k="waterway" v="stream" />
	</node>
	<node lat="60.69006944625105" lon="12.391141659072623" id="-19760">
		<tag k="name" v="Krusvikholmen" />
		<tag k="place" v="islet" />
		<tag k="ssr:stedsnr" v="831412" />
	</node>
	<node lat="60.80425555732296" lon="12.290172218133401" id="-19762">
		<tag k="alt_name" v="Utgravartjennet" />
		<tag k="name" v="Utgravartjernet" />
		<tag k="natural" v="water" />
		<tag k="ssr:stedsnr" v="841015" />
	</node>
	<node lat="60.542580559960136" lon="12.048149998537413" id="-19763">
		<tag k="name" v="Skromsholmen" />
		<tag k="place" v="island" />
		<tag k="ssr:stedsnr" v="844507" />
	</node>
	<node lat="60.68787499879439" lon="12.440838886937106" id="-19769">
		<tag k="name" v="Hakabekken" />
		<tag k="ssr:stedsnr" v="844693" />
		<tag k="waterway" v="stream" />
	</node>
	<node lat="60.567916669449666" lon="12.27273888686418" id="-19770">
		<tag k="name" v="Skallbekken" />
		<tag k="ssr:stedsnr" v="846203" />
		<tag k="waterway" v="stream" />
	</node>
	<node lat="60.61641388584064" lon="12.50478889727175" id="-19771">
		<tag k="name" v="Gransjødammen" />
		<tag k="ssr:stedsnr" v="846228" />
		<tag k="waterway" v="dam" />
	</node>
	<node lat="60.581911112904436" lon="11.981425001431152" id="-19773">
		<tag k="name" v="Dauvatnet" />
		<tag k="natural" v="water" />
		<tag k="ssr:stedsnr" v="846508" />
	</node>
	<node lat="60.693858337425524" lon="12.276005556126155" id="-19778">
		<tag k="name" v="Elgkjelda" />
		<tag k="natural" v="spring" />
		<tag k="ssr:stedsnr" v="848073" />
	</node>
	<node lat="60.59478611430899" lon="12.47442500256899" id="-19789">
		<tag k="name" v="Damstjern" />
		<tag k="natural" v="water" />
		<tag k="ssr:stedsnr" v="856587" />
	</node>
	<node lat="60.67487499636987" lon="12.113825008543373" id="-19800">
		<tag k="alt_name" v="Håkon-Neset" />
		<tag k="name" v="Håkenneset" />
		<tag k="natural" v="cape" />
		<tag k="ssr:stedsnr" v="857127" />
	</node>
	<node lat="60.52621111480022" lon="11.7700611071021" id="-19802">
		<tag k="name" v="Blomtjernet" />
		<tag k="natural" v="water" />
		<tag k="ssr:stedsnr" v="857278" />
	</node>
	<node lat="60.5511055593923" lon="12.411791671227745" id="-19806">
		<tag k="name" v="Kutjern" />
		<tag k="natural" v="water" />
		<tag k="ssr:stedsnr" v="857706" />
	</node>
	<node lat="60.79572499994468" lon="12.177663894162357" id="-19813">
		<tag k="name" v="Moldbergsjøen" />
		<tag k="natural" v="water" />
		<tag k="ssr:stedsnr" v="859462" />
		<tag k="water" v="lake" />
	</node>
	<node lat="60.76171111160821" lon="12.35223888655006" id="-19816">
		<tag k="name" v="Keikjetjernet" />
		<tag k="natural" v="water" />
		<tag k="ssr:stedsnr" v="859618" />
	</node>
	<node lat="60.78548055682791" lon="12.265077775427155" id="-19817">
		<tag k="name" v="Reiarsjøen" />
		<tag k="natural" v="water" />
		<tag k="ssr:stedsnr" v="859707" />
	</node>
	<node lat="60.56940555119913" lon="11.807600001682003" id="-19831">
		<tag k="name" v="Fiskelaustjernet" />
		<tag k="natural" v="water" />
		<tag k="ssr:stedsnr" v="892174" />
	</node>
	<node lat="60.73387499752273" lon="12.119497225862505" id="-19835">
		<tag k="name" v="Svartbekkevja" />
		<tag k="natural" v="water" />
		<tag k="ssr:stedsnr" v="905763" />
	</node>
	<node lat="60.72743889112801" lon="12.053486117642237" id="-19836">
		<tag k="name" v="Balderstjerna" />
		<tag k="natural" v="water" />
		<tag k="ssr:stedsnr" v="905765" />
		<tag k="water" v="lake" />
	</node>
	<node lat="60.751811115090355" lon="12.140669452389881" id="-19837">
		<tag k="name" v="Sævsjøtjerna" />
		<tag k="natural" v="water" />
		<tag k="ssr:stedsnr" v="905802" />
		<tag k="water" v="lake" />
	</node>
	<node lat="60.543208333446366" lon="11.80369722309961" id="-19845">
		<tag k="name" v="Fjølådammen" />
		<tag k="ssr:stedsnr" v="907525" />
		<tag k="waterway" v="dam" />
	</node>
	<node lat="60.633630554867146" lon="12.143097219613129" id="-19849">
		<tag k="name" v="Gørrtjernet" />
		<tag k="natural" v="water" />
		<tag k="ssr:stedsnr" v="908958" />
	</node>
	<node lat="60.664394444607744" lon="12.11066110403816" id="-19850">
		<tag k="name" v="Kjellåsdammen" />
		<tag k="ssr:stedsnr" v="909809" />
		<tag k="waterway" v="dam" />
	</node>
	<node lat="60.5456361143996" lon="11.718844453754466" id="-19858">
		<tag k="name" v="Djupdalsbekken" />
		<tag k="ssr:stedsnr" v="917113" />
		<tag k="waterway" v="stream" />
	</node>
	<node lat="60.57867499834123" lon="11.643552776977824" id="-19859">
		<tag k="name" v="Nedre Gåsvatn" />
		<tag k="natural" v="water" />
		<tag k="old_name" v="Gårdsvatn, nedre;Gaardsvand søndre" />
		<tag k="ssr:stedsnr" v="917115" />
	</node>
	<node lat="60.608555557364454" lon="12.31768054954694" id="-19863">
		<tag k="name" v="Kanalen" />
		<tag k="ssr:stedsnr" v="917508" />
		<tag k="waterway" v="stream" />
	</node>
	<node lat="60.59110555398749" lon="12.51813889567945" id="-19865">
		<tag k="alt_name" v="Kotteren" />
		<tag k="name" v="Kottern" />
		<tag k="natural" v="water" />
		<tag k="ssr:stedsnr" v="917517" />
	</node>
	<node lat="60.66522499572553" lon="12.37797778643186" id="-19871">
		<tag k="name" v="Grasåstjernet" />
		<tag k="natural" v="water" />
		<tag k="ssr:stedsnr" v="917564" />
	</node>
	<node lat="60.59878055795809" lon="11.971744442516743" id="-19874">
		<tag k="name" v="Kneppsund" />
		<tag k="natural" v="strait" />
		<tag k="ssr:stedsnr" v="917763" />
	</node>
	<node lat="60.78242777378856" lon="12.356375005569376" id="-19884">
		<tag k="name" v="Sjutomstjernet" />
		<tag k="natural" v="water" />
		<tag k="ssr:stedsnr" v="919708" />
	</node>
	<node lat="60.7850333361663" lon="12.363925005865797" id="-19885">
		<tag k="name" v="Kroktjernet" />
		<tag k="natural" v="water" />
		<tag k="ssr:stedsnr" v="919700" />
	</node>
	<node lat="60.75830555569357" lon="12.122613888142379" id="-19886">
		<tag k="name" v="Persætersjøen" />
		<tag k="natural" v="water" />
		<tag k="ssr:stedsnr" v="920518" />
	</node>
	<node lat="60.79616666272628" lon="12.184997228231923" id="-19887">
		<tag k="name" v="Moldbergsdammen" />
		<tag k="ssr:stedsnr" v="950060" />
		<tag k="waterway" v="dam" />
	</node>
	<node lat="60.656372226555206" lon="11.994838885949406" id="-19892">
		<tag k="name" v="Ringstadbekken" />
		<tag k="ssr:stedsnr" v="950993" />
		<tag k="waterway" v="stream" />
	</node>
	<node lat="60.54107221966978" lon="12.519738881020322" id="-19897">
		<tag k="name" v="La'halamp" />
		<tag k="natural" v="water" />
		<tag k="ssr:stedsnr" v="952603" />
		<tag k="water" v="pond" />
	</node>
	<node lat="60.54465277435651" lon="12.429533338762125" id="-19899">
		<tag k="name" v="Rådelsbekken" />
		<tag k="ssr:stedsnr" v="952912" />
		<tag k="waterway" v="stream" />
	</node>
	<node lat="60.65277836957297" lon="12.292003996799119" id="-19903">
		<tag k="name" v="Hanaknefossen" />
		<tag k="natural" v="waterfall" />
		<tag k="ssr:stedsnr" v="967437" />
	</node>
	<node lat="60.6385777797805" lon="12.072147222125604" id="-19908">
		<tag k="name" v="Kallåsevja" />
		<tag k="natural" v="bay" />
		<tag k="ssr:stedsnr" v="967821" />
	</node>
	<node lat="60.645788887213214" lon="12.095583337540392" id="-19909">
		<tag k="name" v="Gropdalsbekken" />
		<tag k="ssr:stedsnr" v="967823" />
		<tag k="waterway" v="stream" />
	</node>
	<node lat="60.658786109224586" lon="12.08944167141281" id="-19910">
		<tag k="name" v="Myrbekken" />
		<tag k="ssr:stedsnr" v="967825" />
		<tag k="waterway" v="stream" />
	</node>
	<node lat="60.49381389126749" lon="11.790388890866298" id="-19912">
		<tag k="name" v="Gransjøbekken" />
		<tag k="ssr:stedsnr" v="969636" />
		<tag k="waterway" v="stream" />
	</node>
	<node lat="60.55290000095614" lon="11.680944438896995" id="-19916">
		<tag k="name" v="Huldertjernet" />
		<tag k="natural" v="water" />
		<tag k="ssr:stedsnr" v="7152" />
	</node>
	<node lat="60.697111108340344" lon="12.113152772875381" id="-19926">
		<tag k="name" v="Olderbekken" />
		<tag k="ssr:stedsnr" v="7023" />
		<tag k="waterway" v="stream" />
	</node>
	<node lat="60.626158330605" lon="11.945036118594622" id="-19930">
		<tag k="name" v="Hasla" />
		<tag k="old_name" v="Halsa" />
		<tag k="ssr:stedsnr" v="7815" />
		<tag k="waterway" v="river" />
	</node>
	<node lat="60.500802775853806" lon="11.812627770165317" id="-19936">
		<tag k="alt_name" v="Svarttjennet" />
		<tag k="name" v="Svarttjernet" />
		<tag k="natural" v="water" />
		<tag k="ssr:stedsnr" v="7240" />
	</node>
	<node lat="60.626691665901056" lon="12.325911114891197" id="-19942">
		<tag k="name" v="Sandbekken" />
		<tag k="ssr:stedsnr" v="7497" />
		<tag k="waterway" v="stream" />
	</node>
	<node lat="60.58207499803892" lon="12.237244443605231" id="-19945">
		<tag k="name" v="Kampebekken" />
		<tag k="ssr:stedsnr" v="7533" />
		<tag k="waterway" v="stream" />
	</node>
	<node lat="60.53889166218841" lon="12.456275004497884" id="-19952">
		<tag k="name" v="Holttjernet" />
		<tag k="natural" v="water" />
		<tag k="ssr:stedsnr" v="7680" />
	</node>
	<node lat="60.58472777978004" lon="12.105002772294082" id="-19957">
		<tag k="name" v="Aurbekken" />
		<tag k="ssr:stedsnr" v="7793" />
		<tag k="waterway" v="stream" />
	</node>
	<node lat="60.78965833420179" lon="12.124802774176818" id="-19961">
		<tag k="name" v="Sautjernet" />
		<tag k="natural" v="water" />
		<tag k="ssr:stedsnr" v="9557" />
	</node>
	<node lat="60.76024166787834" lon="12.357755553551774" id="-19962">
		<tag k="loc_name" v="Karusstjernet" />
		<tag k="name" v="Karustjernet" />
		<tag k="natural" v="water" />
		<tag k="ssr:stedsnr" v="9641" />
	</node>
	<node lat="60.798820474973326" lon="12.269304916901906" id="-19964">
		<tag k="alt_name" v="Grettabbortjennet;Gretåbortjennet" />
		<tag k="name" v="Grettabbortjernet" />
		<tag k="natural" v="water" />
		<tag k="ssr:stedsnr" v="9728" />
	</node>
	<node lat="60.77709166851439" lon="12.246163896488031" id="-19965">
		<tag k="alt_name" v="Mauksjøen" />
		<tag k="name" v="Mjauksjøen" />
		<tag k="natural" v="water" />
		<tag k="ssr:stedsnr" v="9729" />
	</node>
	<node lat="60.80595555381246" lon="12.228486113298688" id="-19967">
		<tag k="name" v="Knebekken" />
		<tag k="ssr:stedsnr" v="9749" />
		<tag k="waterway" v="stream" />
	</node>
	<node lat="60.78628610851683" lon="12.068655557546295" id="-19968">
		<tag k="name" v="Måsåfløgsjøen" />
		<tag k="natural" v="water" />
		<tag k="ssr:stedsnr" v="33954" />
	</node>
	<node lat="60.528105551850935" lon="12.274561109321535" id="-19973">
		<tag k="name" v="Storsteinholbekken" />
		<tag k="ssr:stedsnr" v="40494" />
		<tag k="waterway" v="stream" />
	</node>
	<node lat="60.77437222232446" lon="12.255388886907179" id="-19979">
		<tag k="name" v="Hørningsbekken" />
		<tag k="ssr:stedsnr" v="41061" />
		<tag k="waterway" v="stream" />
	</node>
	<node lat="60.53650277876104" lon="12.531477773804388" id="-19980">
		<tag k="name" v="Vestre Ompalamp" />
		<tag k="natural" v="water" />
		<tag k="ssr:stedsnr" v="41633" />
	</node>
	<node lat="60.70714444266734" lon="12.303616670812142" id="-19984">
		<tag k="name" v="Blandtjernbekken" />
		<tag k="ssr:stedsnr" v="42362" />
		<tag k="waterway" v="stream" />
	</node>
	<node lat="60.70408888857904" lon="12.333499998950861" id="-19986">
		<tag k="name" v="Salmsundsodden" />
		<tag k="natural" v="cape" />
		<tag k="ssr:stedsnr" v="42367" />
	</node>
	<node lat="60.50811944481548" lon="11.80389443670242" id="-19998">
		<tag k="name" v="Veltfagervassbekken" />
		<tag k="ssr:stedsnr" v="55635" />
		<tag k="waterway" v="stream" />
	</node>
	<node lat="60.739022226033" lon="12.214744439413767" id="-20001">
		<tag k="name" v="Damsloen" />
		<tag k="natural" v="water" />
		<tag k="ssr:stedsnr" v="57041" />
		<tag k="water" v="lake" />
	</node>
	<node lat="60.7601805571926" lon="12.301127783702075" id="-20002">
		<tag k="name" v="Bringtjernet" />
		<tag k="natural" v="water" />
		<tag k="ssr:stedsnr" v="57346" />
	</node>
	<node lat="60.741633337325325" lon="12.33264444607349" id="-20004">
		<tag k="name" v="Alentjernet" />
		<tag k="natural" v="water" />
		<tag k="ssr:stedsnr" v="57350" />
	</node>
	<node lat="60.70489722514932" lon="12.329905551042359" id="-20014">
		<tag k="name" v="Vintervika" />
		<tag k="natural" v="bay" />
		<tag k="ssr:stedsnr" v="59433" />
	</node>
	<node lat="60.65580000075587" lon="12.420819441235318" id="-20023">
		<tag k="alt_name" v="Motjern;Motjennet" />
		<tag k="name" v="Motjernet" />
		<tag k="natural" v="water" />
		<tag k="ssr:stedsnr" v="67618" />
	</node>
	<node lat="60.60656666786441" lon="12.453083324983302" id="-20025">
		<tag k="loc_name" v="Tyskesjøen" />
		<tag k="name" v="Tysken" />
		<tag k="natural" v="water" />
		<tag k="ssr:stedsnr" v="67568" />
	</node>
	<node lat="60.58369999864231" lon="12.448608334456255" id="-20026">
		<tag k="name" v="Aurtjernet" />
		<tag k="natural" v="water" />
		<tag k="ssr:stedsnr" v="67571" />
	</node>
	<node lat="60.7125861134534" lon="12.093269449007302" id="-20032">
		<tag k="name" v="Hemsæterbekken" />
		<tag k="ssr:stedsnr" v="68045" />
		<tag k="waterway" v="stream" />
	</node>
	<node lat="60.659079214862224" lon="12.002882192477209" id="-20036">
		<tag k="name" v="Baksjøen" />
		<tag k="natural" v="water" />
		<tag k="ssr:stedsnr" v="68092" />
		<tag k="water" v="lake" />
	</node>
	<node lat="60.532749999029534" lon="12.571024992259126" id="-20039">
		<tag k="alt_name" v="Dolasinlamb" />
		<tag k="name" v="Dollasinlamb" />
		<tag k="natural" v="water" />
		<tag k="ssr:stedsnr" v="68734" />
	</node>
	<node lat="60.68204722649844" lon="12.44298055961598" id="-20047">
		<tag k="alt_name" v="Midtskogsåa" />
		<tag k="name" v="Medskogsåa" />
		<tag k="ssr:stedsnr" v="68598" />
		<tag k="waterway" v="stream" />
	</node>
	<node lat="60.639188885666975" lon="12.319533326385786" id="-20049">
		<tag k="name" v="Alunbekken" />
		<tag k="ssr:stedsnr" v="68620" />
		<tag k="waterway" v="stream" />
	</node>
	<node lat="60.77218333012848" lon="12.281952774252735" id="-20054">
		<tag k="name" v="Elgtjernet" />
		<tag k="natural" v="water" />
		<tag k="ssr:stedsnr" v="70740" />
	</node>
	<node lat="60.5252833377359" lon="11.963588883734134" id="-20060">
		<tag k="name" v="Persbydammen" />
		<tag k="ssr:stedsnr" v="101591" />
		<tag k="waterway" v="dam" />
	</node>
	<node lat="60.65464166713228" lon="12.009805548797695" id="-20062">
		<tag k="name" v="Olufskjæret" />
		<tag k="place" v="islet" />
		<tag k="ssr:stedsnr" v="101991" />
	</node>
	<node lat="60.62194722442627" lon="12.000347215850429" id="-20064">
		<tag k="name" v="Antonsdammen" />
		<tag k="ssr:stedsnr" v="101963" />
		<tag k="waterway" v="dam" />
	</node>
	<node lat="60.77657500428218" lon="12.262261104414591" id="-20066">
		<tag k="name" v="Kvennbekken" />
		<tag k="ssr:stedsnr" v="102062" />
		<tag k="waterway" v="stream" />
	</node>
	<node lat="60.579669441790976" lon="12.47225554723557" id="-20068">
		<tag k="name" v="Kontmyrbekken" />
		<tag k="ssr:stedsnr" v="102396" />
		<tag k="waterway" v="stream" />
	</node>
	<node lat="60.73009722588787" lon="12.320152781448478" id="-20071">
		<tag k="name" v="Krokåoset" />
		<tag k="natural" v="bay" />
		<tag k="ssr:stedsnr" v="102441" />
	</node>
	<node lat="60.53677500440772" lon="12.513183330978688" id="-20078">
		<tag k="name" v="Rompotjernet" />
		<tag k="natural" v="water" />
		<tag k="ssr:stedsnr" v="102947" />
	</node>
	<node lat="60.73878055235043" lon="12.323372214990918" id="-20085">
		<tag k="name" v="Reinbekken" />
		<tag k="ssr:stedsnr" v="117386" />
		<tag k="waterway" v="stream" />
	</node>
	<node lat="60.76746110913694" lon="12.153741674872787" id="-20087">
		<tag k="name" v="Breifløyta" />
		<tag k="natural" v="water" />
		<tag k="ssr:stedsnr" v="117812" />
		<tag k="water" v="lake" />
	</node>
	<node lat="60.74446666333432" lon="12.184558326013407" id="-20088">
		<tag k="name" v="Buråstjernet" />
		<tag k="natural" v="water" />
		<tag k="ssr:stedsnr" v="118040" />
	</node>
	<node lat="60.62438600963008" lon="11.920348831284628" id="-20096">
		<tag k="alt_name" v="Øysettjennet" />
		<tag k="name" v="Øysettjernet" />
		<tag k="natural" v="water" />
		<tag k="ssr:stedsnr" v="119464" />
	</node>
	<node lat="60.70276666963057" lon="12.092819436378257" id="-20106">
		<tag k="name" v="Risholbekken" />
		<tag k="ssr:stedsnr" v="128024" />
		<tag k="waterway" v="stream" />
	</node>
	<node lat="60.55783610954467" lon="12.385049995892418" id="-20115">
		<tag k="name" v="Kroksjøen" />
		<tag k="natural" v="water" />
		<tag k="ssr:stedsnr" v="128672" />
	</node>
	<node lat="60.61874444075892" lon="12.198736117545801" id="-20117">
		<tag k="name" v="Klokktjernet" />
		<tag k="natural" v="water" />
		<tag k="ssr:stedsnr" v="128849" />
	</node>
	<node lat="60.564908335591205" lon="12.063186119738871" id="-20121">
		<tag k="alt_name" v="Jammerdalsåa" />
		<tag k="name" v="Jammerdalselva" />
		<tag k="ssr:stedsnr" v="128956" />
		<tag k="waterway" v="stream" />
	</node>
	<node lat="60.53687777467894" lon="12.550352783095233" id="-20125">
		<tag k="name" v="Gombalamb" />
		<tag k="natural" v="water" />
		<tag k="ssr:stedsnr" v="128680" />
	</node>
	<node lat="60.604786111363055" lon="12.07205833833534" id="-20131">
		<tag k="name" v="Losmyrbekken" />
		<tag k="ssr:stedsnr" v="128777" />
		<tag k="waterway" v="stream" />
	</node>
	<node lat="60.56215833451683" lon="12.179980557696988" id="-20136">
		<tag k="name" v="Grautåa" />
		<tag k="ssr:stedsnr" v="128930" />
		<tag k="waterway" v="stream" />
	</node>
	<node lat="60.59446388788665" lon="12.074008326391438" id="-20138">
		<tag k="name" v="Sæteråa" />
		<tag k="ssr:stedsnr" v="129972" />
		<tag k="waterway" v="river" />
	</node>
	<node lat="60.77068888492032" lon="12.149886114368291" id="-20139">
		<tag k="name" v="Sævsjøen" />
		<tag k="natural" v="water" />
		<tag k="ssr:stedsnr" v="130535" />
	</node>
	<node lat="60.781394444076575" lon="12.31386389627233" id="-20141">
		<tag k="alt_name" v="Flisfallet, nedre;Nedre-Flisfallet" />
		<tag k="name" v="Nedre Flisfallet" />
		<tag k="natural" v="waterfall" />
		<tag k="ssr:stedsnr" v="130686" />
	</node>
	<node lat="60.77988611404257" lon="12.286224996224153" id="-20142">
		<tag k="name" v="Bryntjernet" />
		<tag k="natural" v="water" />
		<tag k="ssr:stedsnr" v="130688" />
	</node>
	<node lat="60.81025833087617" lon="12.274227774673964" id="-20143">
		<tag k="name" v="Gråtarvika" />
		<tag k="natural" v="bay" />
		<tag k="ssr:stedsnr" v="130696" />
	</node>
	<node lat="60.72939167013334" lon="12.394177780081051" id="-20145">
		<tag k="name" v="Høklingsbekken" />
		<tag k="ssr:stedsnr" v="160327" />
		<tag k="waterway" v="stream" />
	</node>
	<node lat="60.71259167072434" lon="12.381458332676221" id="-20152">
		<tag k="name" v="Bjørnstadkilda" />
		<tag k="natural" v="spring" />
		<tag k="ssr:stedsnr" v="161398" />
	</node>
	<node lat="60.590102781936665" lon="12.5142027727753" id="-20159">
		<tag k="name" v="Aliansholmen" />
		<tag k="place" v="islet" />
		<tag k="ssr:stedsnr" v="163290" />
	</node>
	<node lat="60.5691444410244" lon="12.482494434976173" id="-20160">
		<tag k="name" v="Geittjernsbekken" />
		<tag k="ssr:stedsnr" v="163295" />
		<tag k="waterway" v="stream" />
	</node>
	<node lat="60.551463884616716" lon="12.50409444106975" id="-20161">
		<tag k="name" v="Storbråtåtjernet" />
		<tag k="natural" v="water" />
		<tag k="ssr:stedsnr" v="163296" />
	</node>
	<node lat="60.72621944308749" lon="12.333272230945733" id="-20162">
		<tag k="name" v="Busktjerna" />
		<tag k="natural" v="water" />
		<tag k="ssr:stedsnr" v="163347" />
		<tag k="water" v="lake" />
	</node>
	<node lat="60.75968333000764" lon="12.088599992634608" id="-20181">
		<tag k="name" v="Jonsoktjernet" />
		<tag k="natural" v="water" />
		<tag k="ssr:stedsnr" v="176788" />
	</node>
	<node lat="60.75219722405113" lon="12.24103610912779" id="-20183">
		<tag k="name" v="Halavadammen" />
		<tag k="ssr:stedsnr" v="178044" />
		<tag k="waterway" v="dam" />
	</node>
	<node lat="60.851330557372705" lon="12.265058341929844" id="-20193">
		<tag k="name" v="Lekkergåstjernet" />
		<tag k="natural" v="water" />
		<tag k="ssr:stedsnr" v="179279" />
	</node>
	<node lat="60.85865555619835" lon="12.220713889893695" id="-20194">
		<tag k="name" v="Øvre Aurtjernet" />
		<tag k="natural" v="water" />
		<tag k="ssr:stedsnr" v="179281" />
	</node>
	<node lat="60.844630557513305" lon="12.26426665870531" id="-20195">
		<tag k="name" v="Høgsjøvika" />
		<tag k="natural" v="bay" />
		<tag k="ssr:stedsnr" v="179293" />
	</node>
	<node lat="60.49635436315894" lon="11.784592244228069" id="-20204">
		<tag k="name" v="Gransjøtjerna" />
		<tag k="natural" v="water" />
		<tag k="ssr:stedsnr" v="188263" />
		<tag k="water" v="lake" />
	</node>
	<node lat="60.495069440335385" lon="11.808219445880733" id="-20205">
		<tag k="name" v="Ljustjernet" />
		<tag k="natural" v="water" />
		<tag k="ssr:stedsnr" v="188264" />
	</node>
	<node lat="60.588605556431226" lon="12.240875009065709" id="-20225">
		<tag k="alt_name" v="Ombergsætertjennet" />
		<tag k="name" v="Arnebergsætertjernet" />
		<tag k="natural" v="water" />
		<tag k="ssr:stedsnr" v="189489" />
	</node>
	<node lat="60.596347221460384" lon="12.293058326487213" id="-20228">
		<tag k="name" v="Sørma" />
		<tag k="ssr:stedsnr" v="189576" />
		<tag k="waterway" v="river" />
	</node>
	<node lat="60.82637500309052" lon="12.25553888621658" id="-20246">
		<tag k="name" v="Steinsjøen" />
		<tag k="natural" v="water" />
		<tag k="ssr:stedsnr" v="191690" />
	</node>
	<node lat="60.78132221778316" lon="12.241172229387992" id="-20249">
		<tag k="name" v="Svarttjernet" />
		<tag k="natural" v="water" />
		<tag k="ssr:stedsnr" v="222001" />
	</node>
	<node lat="60.700580555551625" lon="12.431263888697538" id="-20270">
		<tag k="name" v="Rønningsbekken" />
		<tag k="ssr:stedsnr" v="224662" />
		<tag k="waterway" v="stream" />
	</node>
	<node lat="60.54430832891145" lon="12.45048055451599" id="-20279">
		<tag k="name" v="Kosmannsbekken" />
		<tag k="ssr:stedsnr" v="284922" />
		<tag k="waterway" v="stream" />
	</node>
	<node lat="60.71871111293351" lon="12.317833341170562" id="-20283">
		<tag k="name" v="Vermundsoset" />
		<tag k="natural" v="bay" />
		<tag k="ssr:stedsnr" v="284389" />
	</node>
	<node lat="60.70707499889706" lon="12.34975277062814" id="-20284">
		<tag k="name" v="Nordsjøen" />
		<tag k="natural" v="water" />
		<tag k="ssr:stedsnr" v="284420" />
	</node>
	<node lat="60.82360832877535" lon="12.305113894462066" id="-20285">
		<tag k="name" v="Gjøssdavan" />
		<tag k="natural" v="water" />
		<tag k="ssr:stedsnr" v="284355" />
		<tag k="water" v="pond" />
	</node>
	<node lat="60.497904115902195" lon="11.776500940932458" id="-20295">
		<tag k="name" v="Midtre Gransjøtjernet" />
		<tag k="natural" v="water" />
		<tag k="ssr:stedsnr" v="290857" />
	</node>
	<node lat="60.83563055196436" lon="12.248427777945047" id="-20297">
		<tag k="name" v="Morttjernet" />
		<tag k="natural" v="water" />
		<tag k="ssr:stedsnr" v="298017" />
	</node>
	<node lat="60.734580552559244" lon="12.058377782671341" id="-20306">
		<tag k="name" v="Veslenyåa" />
		<tag k="ssr:stedsnr" v="298753" />
		<tag k="waterway" v="stream" />
	</node>
	<node lat="60.734188892003935" lon="12.240538898210476" id="-20308">
		<tag k="name" v="Kynnfallene" />
		<tag k="natural" v="waterfall" />
		<tag k="ssr:stedsnr" v="299032" />
	</node>
	<node lat="60.593580552898736" lon="12.036916675231835" id="-20313">
		<tag k="name" v="Bjerkeskilen" />
		<tag k="natural" v="bay" />
		<tag k="ssr:stedsnr" v="299543" />
	</node>
	<node lat="60.54415833730339" lon="11.990233342790258" id="-20340">
		<tag k="name" v="Strandsjøen" />
=======
	<node id="-324938" lat="60.7572805524" lon="12.2545499935">
		<tag k="name" v="Brynhildstjernet" />
		<tag k="natural" v="water" />
		<tag k="ssr:stedsnr" v="919623" />
	</node>
	<node id="-324932" lat="60.5625305524" lon="12.505963895">
		<tag k="alt_name" v="Vesle Fløyta" />
		<tag k="name" v="Veslefløyta" />
		<tag k="natural" v="water" />
		<tag k="ssr:stedsnr" v="917674" />
	</node>
	<node id="-324930" lat="60.598780558" lon="11.9717444425">
		<tag k="name" v="Kneppsund" />
		<tag k="natural" v="strait" />
		<tag k="ssr:stedsnr" v="917763" />
	</node>
	<node id="-324927" lat="60.6652249957" lon="12.3779777864">
		<tag k="name" v="Grasåstjernet" />
		<tag k="natural" v="water" />
		<tag k="ssr:stedsnr" v="917564" />
	</node>
	<node id="-324925" lat="60.6085555574" lon="12.3176805495">
		<tag k="name" v="Kanalen" />
		<tag k="ssr:stedsnr" v="917508" />
		<tag k="waterway" v="stream" />
	</node>
	<node id="-324921" lat="60.6997204091" lon="12.0406579341">
		<tag k="name" v="Vålåstjerna" />
		<tag k="natural" v="water" />
		<tag k="ssr:stedsnr" v="917022" />
		<tag k="water" v="lake" />
	</node>
	<node id="-324912" lat="60.7274388911" lon="12.0534861176">
		<tag k="name" v="Balderstjerna" />
		<tag k="natural" v="water" />
		<tag k="ssr:stedsnr" v="905765" />
		<tag k="water" v="lake" />
	</node>
	<node id="-324911" lat="60.7338749975" lon="12.1194972259">
		<tag k="name" v="Svartbekkevja" />
		<tag k="natural" v="water" />
		<tag k="ssr:stedsnr" v="905763" />
	</node>
	<node id="-324907" lat="60.572186115" lon="12.2135027798">
		<tag k="name" v="Brennvinsbekken" />
		<tag k="ssr:stedsnr" v="950237" />
		<tag k="waterway" v="stream" />
	</node>
	<node id="-324905" lat="60.5818805529" lon="12.2015805518">
		<tag k="name" v="Frauåsbekken" />
		<tag k="ssr:stedsnr" v="950262" />
		<tag k="waterway" v="stream" />
	</node>
	<node id="-324898" lat="60.7961666627" lon="12.1849972282">
		<tag k="name" v="Moldbergsdammen" />
		<tag k="ssr:stedsnr" v="950060" />
		<tag k="waterway" v="dam" />
	</node>
	<node id="-324895" lat="60.7854805568" lon="12.2650777754">
		<tag k="name" v="Reiarsjøen" />
		<tag k="natural" v="water" />
		<tag k="ssr:stedsnr" v="859707" />
	</node>
	<node id="-324894" lat="60.7617111116" lon="12.3522388866">
		<tag k="name" v="Keikjetjernet" />
		<tag k="natural" v="water" />
		<tag k="ssr:stedsnr" v="859618" />
	</node>
	<node id="-324891" lat="60.7957249999" lon="12.1776638942">
		<tag k="name" v="Moldbergsjøen" />
		<tag k="natural" v="water" />
		<tag k="ssr:stedsnr" v="859462" />
		<tag k="water" v="lake" />
	</node>
	<node id="-324881" lat="60.5511055594" lon="12.4117916712">
		<tag k="name" v="Kutjern" />
		<tag k="natural" v="water" />
		<tag k="ssr:stedsnr" v="857706" />
	</node>
	<node id="-324878" lat="60.5262111148" lon="11.7700611071">
		<tag k="name" v="Blomtjernet" />
		<tag k="natural" v="water" />
		<tag k="ssr:stedsnr" v="857278" />
	</node>
	<node id="-324873" lat="60.6748749964" lon="12.1138250085">
		<tag k="alt_name" v="Håkon-Neset" />
		<tag k="name" v="Håkenneset" />
		<tag k="natural" v="cape" />
		<tag k="ssr:stedsnr" v="857127" />
	</node>
	<node id="-324867" lat="60.5556944432" lon="11.8165861168">
		<tag k="name" v="Veståa" />
		<tag k="ssr:stedsnr" v="856173" />
		<tag k="waterway" v="river" />
	</node>
	<node id="-324863" lat="60.5432305552" lon="12.153488898">
		<tag k="name" v="Kontsloa" />
		<tag k="ssr:stedsnr" v="846837" />
		<tag k="waterway" v="river" />
	</node>
	<node id="-324138" lat="60.6818361095" lon="12.2368472252">
		<tag k="name" v="Styggbekken" />
		<tag k="ssr:stedsnr" v="302103" />
		<tag k="waterway" v="stream" />
	</node>
	<node id="-324858" lat="60.8042555573" lon="12.2901722181">
		<tag k="alt_name" v="Utgravartjennet" />
		<tag k="name" v="Utgravartjernet" />
		<tag k="natural" v="water" />
		<tag k="ssr:stedsnr" v="841015" />
	</node>
	<node id="-324851" lat="60.7572055543" lon="12.2638555549">
		<tag k="name" v="Gjeddtjernet" />
		<tag k="natural" v="water" />
		<tag k="ssr:stedsnr" v="798616" />
	</node>
	<node id="-324850" lat="60.7641666688" lon="12.2466361097">
		<tag k="name" v="Grunntjernet" />
		<tag k="natural" v="water" />
		<tag k="ssr:stedsnr" v="798611" />
	</node>
	<node id="-324827" lat="60.6119499966" lon="12.4811361058">
		<tag k="name" v="Gransjøbekken" />
		<tag k="ssr:stedsnr" v="795569" />
		<tag k="waterway" v="stream" />
	</node>
	<node id="-324826" lat="60.7901750033" lon="12.3466666735">
		<tag k="name" v="Store Juvbergstjernet" />
		<tag k="natural" v="water" />
		<tag k="ssr:stedsnr" v="787355" />
	</node>
	<node id="-324825" lat="60.7583055557" lon="12.1226138881">
		<tag k="name" v="Persætersjøen" />
		<tag k="natural" v="water" />
		<tag k="ssr:stedsnr" v="920518" />
	</node>
	<node id="-324824" lat="60.7850333362" lon="12.3639250059">
		<tag k="name" v="Kroktjernet" />
		<tag k="natural" v="water" />
		<tag k="ssr:stedsnr" v="919700" />
	</node>
	<node id="-324803" lat="60.5297888879" lon="12.2922527728">
		<tag k="alt_name" v="Kvennbekken" />
		<tag k="name" v="Kvernbekken" />
		<tag k="ssr:stedsnr" v="917682" />
		<tag k="waterway" v="stream" />
	</node>
	<node id="-324797" lat="60.591105554" lon="12.5181388957">
		<tag k="alt_name" v="Kotteren" />
		<tag k="name" v="Kottern" />
		<tag k="natural" v="water" />
		<tag k="ssr:stedsnr" v="917517" />
	</node>
	<node id="-324793" lat="60.5786749983" lon="11.643552777">
		<tag k="name" v="Nedre Gåsvatn" />
		<tag k="natural" v="water" />
		<tag k="old_name" v="Gårdsvatn, nedre;Gaardsvand søndre" />
		<tag k="ssr:stedsnr" v="917115" />
	</node>
	<node id="-324792" lat="60.5456361144" lon="11.7188444538">
		<tag k="name" v="Djupdalsbekken" />
		<tag k="ssr:stedsnr" v="917113" />
		<tag k="waterway" v="stream" />
	</node>
	<node id="-324786" lat="60.4951663869" lon="11.7839768126">
		<tag k="name" v="Nedre Gransjøtjernet" />
		<tag k="natural" v="water" />
		<tag k="ssr:stedsnr" v="775870" />
	</node>
	<node id="-324784" lat="60.8314694412" lon="12.3074972159">
		<tag k="name" v="Flissæterkjelda" />
		<tag k="natural" v="spring" />
		<tag k="ssr:stedsnr" v="770308" />
	</node>
	<node id="-324779" lat="60.5350333312" lon="12.5822805558">
		<tag k="name" v="Machatjernsvika" />
		<tag k="natural" v="bay" />
		<tag k="ssr:stedsnr" v="768725" />
	</node>
	<node id="-324777" lat="60.8487833349" lon="12.2909638906">
		<tag k="name" v="Trollkjelda" />
		<tag k="natural" v="spring" />
		<tag k="ssr:stedsnr" v="768413" />
	</node>
	<node id="-324773" lat="60.6210444428" lon="12.2689694452">
		<tag k="name" v="Jonsokbekken" />
		<tag k="ssr:stedsnr" v="768131" />
		<tag k="waterway" v="stream" />
	</node>
	<node id="-324772" lat="60.6395444475" lon="12.0417722315">
		<tag k="name" v="Libergsfossen" />
		<tag k="natural" v="waterfall" />
		<tag k="ssr:stedsnr" v="909940" />
	</node>
	<node id="-324769" lat="60.6643944446" lon="12.110661104">
		<tag k="name" v="Kjellåsdammen" />
		<tag k="ssr:stedsnr" v="909809" />
		<tag k="waterway" v="dam" />
	</node>
	<node id="-324766" lat="60.6762888851" lon="12.2781111057">
		<tag k="name" v="Vollbekken" />
		<tag k="ssr:stedsnr" v="909085" />
		<tag k="waterway" v="stream" />
	</node>
	<node id="-324764" lat="60.6336305549" lon="12.1430972196">
		<tag k="name" v="Gørrtjernet" />
		<tag k="natural" v="water" />
		<tag k="ssr:stedsnr" v="908958" />
	</node>
	<node id="-324762" lat="60.8021944464" lon="12.3037972278">
		<tag k="name" v="Tollporten" />
		<tag k="ssr:stedsnr" v="908389" />
		<tag k="waterway" v="rapids" />
	</node>
	<node id="-324757" lat="60.5410694482" lon="12.1580972147">
		<tag k="name" v="Grautsjøbekken" />
		<tag k="ssr:stedsnr" v="907797" />
		<tag k="waterway" v="stream" />
	</node>
	<node id="-324755" lat="60.5432083334" lon="11.8036972231">
		<tag k="name" v="Fjølådammen" />
		<tag k="ssr:stedsnr" v="907525" />
		<tag k="waterway" v="dam" />
	</node>
	<node id="-324120" lat="60.7070749989" lon="12.3497527706">
		<tag k="name" v="Nordsjøen" />
		<tag k="natural" v="water" />
		<tag k="ssr:stedsnr" v="284420" />
	</node>
	<node id="-324750" lat="60.8552944461" lon="12.2200277704">
		<tag k="name" v="Midtre Aurtjernet" />
		<tag k="natural" v="water" />
		<tag k="ssr:stedsnr" v="907239" />
	</node>
	<node id="-324746" lat="60.5645250011" lon="11.9806138901">
		<tag k="name" v="Bjørkåa" />
		<tag k="ssr:stedsnr" v="906538" />
		<tag k="waterway" v="stream" />
	</node>
	<node id="-324743" lat="60.7518111151" lon="12.1406694524">
		<tag k="name" v="Sævsjøtjerna" />
		<tag k="natural" v="water" />
		<tag k="ssr:stedsnr" v="905802" />
		<tag k="water" v="lake" />
	</node>
	<node id="-324742" lat="60.6805388845" lon="12.4100722243">
		<tag k="name" v="Flåvelta" />
		<tag k="natural" v="cape" />
		<tag k="ssr:stedsnr" v="905697" />
	</node>
	<node id="-324727" lat="60.8090222208" lon="12.1620916577">
		<tag k="name" v="Stortjernet" />
		<tag k="natural" v="water" />
		<tag k="ssr:stedsnr" v="722007" />
	</node>
	<node id="-324723" lat="60.5609249985" lon="11.8094138886">
		<tag k="name" v="Tuefløyta" />
		<tag k="natural" v="water" />
		<tag k="ssr:stedsnr" v="892181" />
		<tag k="water" v="lake" />
	</node>
	<node id="-324721" lat="60.5694055512" lon="11.8076000017">
		<tag k="name" v="Fiskelaustjernet" />
		<tag k="natural" v="water" />
		<tag k="ssr:stedsnr" v="892174" />
	</node>
	<node id="-324710" lat="60.767105556" lon="12.2721583371">
		<tag k="name" v="Møkkaplogtjernet" />
		<tag k="natural" v="water" />
		<tag k="ssr:stedsnr" v="891082" />
	</node>
	<node id="-324698" lat="60.6303138844" lon="12.0881361118">
		<tag k="name" v="Melsbekken" />
		<tag k="ssr:stedsnr" v="891918" />
		<tag k="waterway" v="stream" />
	</node>
	<node id="-324697" lat="60.575744447" lon="12.1845194435">
		<tag k="name" v="Blekkhælet" />
		<tag k="natural" v="water" />
		<tag k="ssr:stedsnr" v="890262" />
		<tag k="water" v="pond" />
	</node>
	<node id="-324696" lat="60.6064277778" lon="12.277158328">
		<tag k="name" v="Storbergsbekken" />
		<tag k="ssr:stedsnr" v="890155" />
		<tag k="waterway" v="stream" />
	</node>
	<node id="-324694" lat="60.7882277758" lon="12.1796722182">
		<tag k="name" v="Skaltjernet" />
		<tag k="natural" v="water" />
		<tag k="ssr:stedsnr" v="890065" />
	</node>
	<node id="-324692" lat="60.7723416663" lon="12.2517500024">
		<tag k="alt_name" v="Hørningen, store" />
		<tag k="name" v="Storhørningen" />
		<tag k="natural" v="water" />
		<tag k="ssr:stedsnr" v="676721" />
	</node>
	<node id="-324689" lat="60.8314833319" lon="12.1624416673">
		<tag k="fixme" v="multiple name tags, choose one and add the other to alt_name" />
		<tag k="name" v="Finnbekken;Svantjernsbekken" />
		<tag k="ssr:stedsnr" v="676604" />
		<tag k="waterway" v="stream" />
	</node>
	<node id="-324688" lat="60.6174749962" lon="12.3803861178">
		<tag k="name" v="Kverntjern" />
		<tag k="natural" v="water" />
		<tag k="ssr:stedsnr" v="675526" />
	</node>
	<node id="-324677" lat="60.6385944405" lon="12.3387388832">
		<tag k="alt_name" v="Aluntjern;Aluntjennet" />
		<tag k="name" v="Aluntjernet" />
		<tag k="natural" v="water" />
		<tag k="ssr:stedsnr" v="674606" />
	</node>
	<node id="-324664" lat="60.7155666688" lon="11.9886583318">
		<tag k="name" v="Atthaldsdammen" />
		<tag k="natural" v="water" />
		<tag k="ssr:stedsnr" v="665913" />
	</node>
	<node id="-324661" lat="60.6431861131" lon="12.2790444394">
		<tag k="name" v="Veltfossen" />
		<tag k="natural" v="waterfall" />
		<tag k="ssr:stedsnr" v="665148" />
	</node>
	<node id="-324659" lat="60.852436107" lon="12.2255999966">
		<tag k="name" v="Nedre Aurtjernet" />
		<tag k="natural" v="water" />
		<tag k="ssr:stedsnr" v="664257" />
	</node>
	<node id="-324104" lat="60.7345805526" lon="12.0583777827">
		<tag k="name" v="Veslenyåa" />
		<tag k="ssr:stedsnr" v="298753" />
		<tag k="waterway" v="stream" />
	</node>
	<node id="-324654" lat="60.771572219" lon="12.2925055541">
		<tag k="name" v="Raudrokkebekken" />
		<tag k="ssr:stedsnr" v="662313" />
		<tag k="waterway" v="stream" />
	</node>
	<node id="-324642" lat="60.7363166633" lon="12.2212277761">
		<tag k="name" v="Kynndammen" />
		<tag k="ssr:stedsnr" v="735912" />
		<tag k="waterway" v="dam" />
	</node>
	<node id="-324637" lat="60.5116888868" lon="11.9908027688">
		<tag k="name" v="Auståa" />
		<tag k="ssr:stedsnr" v="735884" />
		<tag k="waterway" v="river" />
	</node>
	<node id="-324627" lat="60.5842555511" lon="12.0350694512">
		<tag k="name" v="Nesevja" />
		<tag k="place" v="locality" />
		<tag k="ssr:stedsnr" v="735799" />
	</node>
	<node id="-324625" lat="60.5885527816" lon="12.1990361191">
		<tag k="name" v="Frauåstjernet" />
		<tag k="natural" v="water" />
		<tag k="ssr:stedsnr" v="735794" />
	</node>
	<node id="-324619" lat="60.6024055571" lon="12.1475027778">
		<tag k="alt_name" v="Løksjøåa" />
		<tag k="name" v="Lauksjøåa" />
		<tag k="ssr:stedsnr" v="735772" />
		<tag k="waterway" v="stream" />
	</node>
	<node id="-324614" lat="60.5501750011" lon="12.4225527845">
		<tag k="name" v="Helveteskjelda" />
		<tag k="natural" v="water" />
		<tag k="ssr:stedsnr" v="735687" />
	</node>
	<node id="-324612" lat="60.5424404456" lon="12.3337817582">
		<tag k="alt_name" v="Aursjøen, vesle" />
		<tag k="name" v="Vesle Aursjøen" />
		<tag k="natural" v="water" />
		<tag k="ssr:stedsnr" v="735680" />
	</node>
	<node id="-324611" lat="60.5498749993" lon="12.3317555619">
		<tag k="name" v="Kalbråtåsjøen" />
		<tag k="natural" v="water" />
		<tag k="ssr:stedsnr" v="735678" />
	</node>
	<node id="-324601" lat="60.5642138917" lon="12.301191672">
		<tag k="name" v="Rauktjern" />
		<tag k="natural" v="water" />
		<tag k="ssr:stedsnr" v="735539" />
	</node>
	<node id="-324596" lat="60.4834138849" lon="11.794666675">
		<tag k="name" v="Nøklevatnet" />
		<tag k="natural" v="water" />
		<tag k="ssr:stedsnr" v="735227" />
	</node>
	<node id="-324594" lat="60.553358334" lon="11.6919444502">
		<tag k="name" v="Tjernshaugtjernet" />
		<tag k="natural" v="water" />
		<tag k="ssr:stedsnr" v="735120" />
	</node>
	<node id="-324593" lat="60.5630500015" lon="11.8163750058">
		<tag k="name" v="Tuefløyta" />
		<tag k="natural" v="water" />
		<tag k="ssr:stedsnr" v="735116" />
	</node>
	<node id="-324591" lat="60.6444694402" lon="11.9946361092">
		<tag k="name" v="Skjeppåstjernet" />
		<tag k="natural" v="water" />
		<tag k="ssr:stedsnr" v="735070" />
	</node>
	<node id="-324587" lat="60.6967861093" lon="12.0250833285">
		<tag k="name" v="Damtjernet" />
		<tag k="natural" v="water" />
		<tag k="ssr:stedsnr" v="735017" />
	</node>
	<node id="-324574" lat="60.6521500033" lon="12.2304388973">
		<tag k="name" v="Storneset" />
		<tag k="natural" v="cape" />
		<tag k="ssr:stedsnr" v="646106" />
	</node>
	<node id="-324571" lat="60.5672555514" lon="12.3375055546">
		<tag k="name" v="Rundtjern" />
		<tag k="natural" v="water" />
		<tag k="ssr:stedsnr" v="735530" />
	</node>
	<node id="-324555" lat="60.562149998" lon="12.5485250029">
		<tag k="name" v="Nordåa" />
		<tag k="ssr:stedsnr" v="724684" />
		<tag k="waterway" v="stream" />
	</node>
	<node id="-324553" lat="60.5802583341" lon="11.98409722">
		<tag k="name" v="Mojordsverken" />
		<tag k="ssr:stedsnr" v="724508" />
		<tag k="waterway" v="dam" />
	</node>
	<node id="-324551" lat="60.7677694439" lon="12.2979388962">
		<tag k="name" v="Nedre Mastholttjern" />
		<tag k="natural" v="water" />
		<tag k="ssr:stedsnr" v="724338" />
	</node>
	<node id="-324545" lat="60.5763277817" lon="12.3944472276">
		<tag k="name" v="Huskebrutjernet" />
		<tag k="natural" v="water" />
		<tag k="ssr:stedsnr" v="722496" />
	</node>
	<node id="-324539" lat="60.7639611087" lon="12.2918944358">
		<tag k="name" v="Risbekken" />
		<tag k="ssr:stedsnr" v="615622" />
		<tag k="waterway" v="stream" />
	</node>
	<node id="-324530" lat="60.7053277799" lon="12.3587944455">
		<tag k="name" v="Tangen" />
		<tag k="natural" v="cape" />
		<tag k="ssr:stedsnr" v="613566" />
	</node>
	<node id="-324528" lat="60.5398111111" lon="11.6986777795">
		<tag k="name" v="Deldalsbekken" />
		<tag k="ssr:stedsnr" v="613232" />
		<tag k="waterway" v="stream" />
	</node>
	<node id="-324524" lat="60.7461472234" lon="12.0635916751">
		<tag k="name" v="Svartbekken" />
		<tag k="ssr:stedsnr" v="613202" />
		<tag k="waterway" v="stream" />
	</node>
	<node id="-324521" lat="60.7029416623" lon="12.3242611069">
		<tag k="alt_name" v="Vermundstjennet" />
		<tag k="loc_name" v="Tjernmotjennet" />
		<tag k="name" v="Vermundstjernet" />
		<tag k="natural" v="water" />
		<tag k="ssr:stedsnr" v="720630" />
		<tag k="water" v="lake" />
	</node>
	<node id="-324519" lat="60.8122111074" lon="12.3013055536">
		<tag k="name" v="Lindmyrtjernet" />
		<tag k="natural" v="water" />
		<tag k="ssr:stedsnr" v="604362" />
	</node>
	<node id="-324517" lat="60.7501638875" lon="12.1913972263">
		<tag k="name" v="Svarvarneset" />
		<tag k="natural" v="cape" />
		<tag k="ssr:stedsnr" v="603031" />
	</node>
	<node id="-324515" lat="60.5590611074" lon="12.0637416677">
		<tag k="name" v="Sagdammen" />
		<tag k="natural" v="water" />
		<tag k="ssr:stedsnr" v="601811" />
	</node>
	<node id="-324508" lat="60.5573250045" lon="12.372402772">
		<tag k="name" v="Bokkhelltjernet" />
		<tag k="natural" v="water" />
		<tag k="ssr:stedsnr" v="601016" />
	</node>
	<node id="-324502" lat="60.6906805518" lon="11.9198888883">
		<tag k="name" v="Søndre Hasla" />
		<tag k="ssr:stedsnr" v="711675" />
		<tag k="waterway" v="river" />
	</node>
	<node id="-324501" lat="60.6737583339" lon="12.0073666579">
		<tag k="name" v="Sjøstrand" />
		<tag k="natural" v="beach" />
		<tag k="ssr:stedsnr" v="587912" />
	</node>
	<node id="-324498" lat="60.7265361106" lon="12.2951472166">
		<tag k="name" v="Skådamfossen" />
		<tag k="natural" v="waterfall" />
		<tag k="ssr:stedsnr" v="587402" />
	</node>
	<node id="-324493" lat="60.5315861094" lon="12.2717638817">
		<tag k="alt_name" v="Kerstitjennbekken" />
		<tag k="name" v="Kerstitjernbekken" />
		<tag k="ssr:stedsnr" v="586482" />
		<tag k="waterway" v="stream" />
	</node>
	<node id="-324487" lat="60.6078499978" lon="12.1317611031">
		<tag k="name" v="Normannskjelda" />
		<tag k="natural" v="spring" />
		<tag k="ssr:stedsnr" v="709934" />
	</node>
	<node id="-324483" lat="60.5390666662" lon="12.5379638904">
		<tag k="name" v="Østre Ompalamp" />
		<tag k="natural" v="water" />
		<tag k="ssr:stedsnr" v="709625" />
	</node>
	<node id="-324482" lat="60.5267777806" lon="12.0274861069">
		<tag k="name" v="Haugsjøen" />
		<tag k="natural" v="water" />
		<tag k="ssr:stedsnr" v="709613" />
	</node>
	<node id="-324479" lat="60.6708194441" lon="12.3571000002">
		<tag k="name" v="Grønholsbekken" />
		<tag k="ssr:stedsnr" v="709424" />
		<tag k="waterway" v="stream" />
	</node>
	<node id="-324478" lat="60.69959167" lon="12.3852750045">
		<tag k="name" v="Langnebbodden" />
		<tag k="natural" v="cape" />
		<tag k="ssr:stedsnr" v="709420" />
	</node>
	<node id="-324476" lat="60.7331638913" lon="12.2815555637">
		<tag k="name" v="Krokfossen" />
		<tag k="natural" v="waterfall" />
		<tag k="ssr:stedsnr" v="709381" />
	</node>
	<node id="-324462" lat="60.5494805546" lon="11.9376694412">
		<tag k="name" v="Lomtjernet" />
		<tag k="natural" v="water" />
		<tag k="ssr:stedsnr" v="707596" />
	</node>
	<node id="-324455" lat="60.5653499963" lon="12.2199166698">
		<tag k="name" v="Lilletjernet" />
		<tag k="natural" v="water" />
		<tag k="ssr:stedsnr" v="707243" />
	</node>
	<node id="-324447" lat="60.8545868669" lon="12.2211837896">
		<tag k="name" v="Aurtjerna" />
		<tag k="natural" v="water" />
		<tag k="ssr:stedsnr" v="555665" />
		<tag k="water" v="lake" />
	</node>
	<node id="-324440" lat="60.5935805529" lon="12.0369166752">
		<tag k="name" v="Bjerkeskilen" />
		<tag k="natural" v="bay" />
		<tag k="ssr:stedsnr" v="299543" />
	</node>
	<node id="-324430" lat="60.8490444487" lon="12.2257055608">
		<tag k="name" v="Aurbekken" />
		<tag k="ssr:stedsnr" v="543302" />
		<tag k="waterway" v="stream" />
	</node>
	<node id="-324066" lat="60.5485111125" lon="11.7772111147">
		<tag k="name" v="Fjølåbekken" />
		<tag k="ssr:stedsnr" v="178562" />
		<tag k="waterway" v="stream" />
	</node>
	<node id="-324424" lat="60.8309361084" lon="12.227483341">
		<tag k="name" v="Nordre Bjørketjernet" />
		<tag k="natural" v="water" />
		<tag k="ssr:stedsnr" v="540013" />
	</node>
	<node id="-324423" lat="60.8033666655" lon="12.2636444447">
		<tag k="name" v="Reverudsvika" />
		<tag k="natural" v="bay" />
		<tag k="ssr:stedsnr" v="540010" />
	</node>
	<node id="-324420" lat="60.7115972234" lon="12.378919437">
		<tag k="name" v="Skolehusbekken" />
		<tag k="ssr:stedsnr" v="525415" />
		<tag k="waterway" v="stream" />
	</node>
	<node id="-324417" lat="60.779013893" lon="12.250605563">
		<tag k="name" v="Geittjernet" />
		<tag k="natural" v="water" />
		<tag k="ssr:stedsnr" v="525007" />
	</node>
	<node id="-324415" lat="60.8150250021" lon="12.2455527695">
		<tag k="alt_name" v="Slaggerudsbekken" />
		<tag k="name" v="Slagerudsbekken" />
		<tag k="ssr:stedsnr" v="494712" />
		<tag k="waterway" v="stream" />
	</node>
	<node id="-324414" lat="60.7682201223" lon="12.2850795033">
		<tag k="name" v="Ristjerna" />
		<tag k="natural" v="water" />
		<tag k="ssr:stedsnr" v="494708" />
		<tag k="water" v="lake" />
	</node>
	<node id="-324413" lat="60.7732861099" lon="12.3178944397">
		<tag k="name" v="Knapptjern" />
		<tag k="natural" v="water" />
		<tag k="ssr:stedsnr" v="494706" />
	</node>
	<node id="-324411" lat="60.7877111114" lon="12.0803694426">
		<tag k="name" v="Fløgåa" />
		<tag k="ssr:stedsnr" v="677551" />
		<tag k="waterway" v="river" />
	</node>
	<node id="-324409" lat="60.7563499962" lon="12.3420388856">
		<tag k="name" v="Kolåsbekken" />
		<tag k="ssr:stedsnr" v="676637" />
		<tag k="waterway" v="stream" />
	</node>
	<node id="-324393" lat="60.5639444417" lon="12.1520444485">
		<tag k="name" v="Svartbekken" />
		<tag k="ssr:stedsnr" v="674931" />
		<tag k="waterway" v="stream" />
	</node>
	<node id="-324388" lat="60.555102781" lon="12.5415833283">
		<tag k="name" v="Lomtjernet" />
		<tag k="natural" v="water" />
		<tag k="ssr:stedsnr" v="674703" />
	</node>
	<node id="-324387" lat="60.5524111092" lon="12.3782249911">
		<tag k="name" v="Abborsjøen" />
		<tag k="natural" v="water" />
		<tag k="ssr:stedsnr" v="674698" />
	</node>
	<node id="-324376" lat="60.733347221" lon="12.0744972305">
		<tag k="name" v="Stortjernet" />
		<tag k="natural" v="water" />
		<tag k="ssr:stedsnr" v="674189" />
	</node>
	<node id="-324374" lat="60.7089749985" lon="12.1785694433">
		<tag k="name" v="Styggbekken" />
		<tag k="ssr:stedsnr" v="674048" />
		<tag k="waterway" v="stream" />
	</node>
	<node id="-324373" lat="60.6934861074" lon="12.1679333382">
		<tag k="alt_name" v="Nya" />
		<tag k="name" v="Nyåa" />
		<tag k="ssr:stedsnr" v="674027" />
		<tag k="waterway" v="river" />
	</node>
	<node id="-324360" lat="60.7115888847" lon="12.3303611197">
		<tag k="name" v="Vermundsåa" />
		<tag k="ssr:stedsnr" v="466405" />
		<tag k="waterway" v="river" />
	</node>
	<node id="-324344" lat="60.6792499999" lon="12.2667527821">
		<tag k="name" v="Kontbekken" />
		<tag k="ssr:stedsnr" v="666079" />
		<tag k="waterway" v="stream" />
	</node>
	<node id="-324330" lat="60.6453527763" lon="12.0813583302">
		<tag k="name" v="Buskenebbholmen" />
		<tag k="place" v="islet" />
		<tag k="ssr:stedsnr" v="663849" />
	</node>
	<node id="-324327" lat="60.7361777754" lon="12.2599277821">
		<tag k="name" v="Brorfossen" />
		<tag k="natural" v="waterfall" />
		<tag k="ssr:stedsnr" v="663029" />
	</node>
	<node id="-324322" lat="60.6077694402" lon="12.4465055572">
		<tag k="name" v="Tyskedammen" />
		<tag k="ssr:stedsnr" v="450537" />
		<tag k="waterway" v="dam" />
	</node>
	<node id="-324317" lat="60.7791777774" lon="12.2155555596">
		<tag k="name" v="Gjerdsjøen" />
		<tag k="natural" v="water" />
		<tag k="ssr:stedsnr" v="434517" />
		<tag k="water" v="lake" />
	</node>
	<node id="-324315" lat="60.7423055529" lon="12.2965944512">
		<tag k="alt_name" v="Igletjernet" />
		<tag k="name" v="Egertjern" />
		<tag k="natural" v="water" />
		<tag k="ssr:stedsnr" v="432910" />
	</node>
	<node id="-324305" lat="60.66680833" lon="12.2778777696">
		<tag k="name" v="Vollbekken" />
		<tag k="ssr:stedsnr" v="423113" />
		<tag k="waterway" v="stream" />
	</node>
	<node id="-324299" lat="60.7525388917" lon="12.2686999928">
		<tag k="name" v="Valderskvennfossen" />
		<tag k="natural" v="waterfall" />
		<tag k="ssr:stedsnr" v="421035" />
	</node>
	<node id="-324298" lat="60.7544083324" lon="12.2577333316">
		<tag k="name" v="Brynhildsbekken" />
		<tag k="ssr:stedsnr" v="421030" />
		<tag k="waterway" v="stream" />
	</node>
	<node id="-324291" lat="60.5284444478" lon="12.5617916597">
		<tag k="name" v="Kvernfossen" />
		<tag k="natural" v="waterfall" />
		<tag k="ssr:stedsnr" v="406616" />
	</node>
	<node id="-324289" lat="60.6054666636" lon="12.1256333403">
		<tag k="name" v="Brusbekken" />
		<tag k="ssr:stedsnr" v="405952" />
		<tag k="waterway" v="stream" />
	</node>
	<node id="-324288" lat="60.59544444" lon="12.2725888925">
		<tag k="name" v="Rådelsbekken" />
		<tag k="ssr:stedsnr" v="405204" />
		<tag k="waterway" v="stream" />
	</node>
	<node id="-324287" lat="60.7720527736" lon="12.2220777816">
		<tag k="name" v="Gjerdsjødammen" />
		<tag k="ssr:stedsnr" v="405053" />
		<tag k="waterway" v="dam" />
	</node>
	<node id="-324279" lat="60.734188892" lon="12.2405388982">
		<tag k="name" v="Kynnfallene" />
		<tag k="natural" v="waterfall" />
		<tag k="ssr:stedsnr" v="299032" />
	</node>
	<node id="-324271" lat="60.5813027785" lon="11.89491944">
		<tag k="name" v="Stortjernet" />
		<tag k="natural" v="water" />
		<tag k="ssr:stedsnr" v="371806" />
	</node>
	<node id="-324266" lat="60.7442305564" lon="12.1110222292">
		<tag k="alt_name" v="Jønsokbekken" />
		<tag k="name" v="Jonsokbekken" />
		<tag k="ssr:stedsnr" v="371205" />
		<tag k="waterway" v="stream" />
	</node>
	<node id="-324257" lat="60.6681666666" lon="11.9697944483">
		<tag k="name" v="Svarthagatjernet" />
		<tag k="natural" v="water" />
		<tag k="ssr:stedsnr" v="371107" />
	</node>
	<node id="-324253" lat="60.7567749965" lon="12.1944305505">
		<tag k="name" v="Svarttjernet" />
		<tag k="natural" v="water" />
		<tag k="ssr:stedsnr" v="495520" />
	</node>
	<node id="-324251" lat="60.7822000027" lon="12.3666777793">
		<tag k="name" v="Svarttjernet" />
		<tag k="natural" v="water" />
		<tag k="ssr:stedsnr" v="494699" />
	</node>
	<node id="-324249" lat="60.7739833308" lon="12.0449333333">
		<tag k="name" v="Røbekken" />
		<tag k="ssr:stedsnr" v="494523" />
		<tag k="waterway" v="stream" />
	</node>
	<node id="-324248" lat="60.7830833316" lon="12.0675722257">
		<tag k="alt_name" v="Suppertjernet" />
		<tag k="name" v="Suppertjern" />
		<tag k="natural" v="water" />
		<tag k="ssr:stedsnr" v="494477" />
	</node>
	<node id="-324244" lat="60.5539333335" lon="12.1928194521">
		<tag k="alt_name" v="Grautsjøtjennet" />
		<tag k="name" v="Grautsjøtjernet" />
		<tag k="natural" v="water" />
		<tag k="ssr:stedsnr" v="492986" />
	</node>
	<node id="-324237" lat="60.5348444442" lon="12.1564138878">
		<tag k="name" v="Grautåa" />
		<tag k="ssr:stedsnr" v="492893" />
		<tag k="waterway" v="river" />
	</node>
	<node id="-324236" lat="60.5256499973" lon="11.8473138851">
		<tag k="name" v="Våltjernet" />
		<tag k="natural" v="water" />
		<tag k="ssr:stedsnr" v="492892" />
	</node>
	<node id="-324227" lat="60.5719583329" lon="12.2933222184">
		<tag k="name" v="Sørmdammen" />
		<tag k="ssr:stedsnr" v="362518" />
		<tag k="waterway" v="dam" />
	</node>
	<node id="-324219" lat="60.6426944479" lon="12.2542722203">
		<tag k="name" v="Utneskroken" />
		<tag k="natural" v="cape" />
		<tag k="ssr:stedsnr" v="362168" />
	</node>
	<node id="-324210" lat="60.6433277821" lon="12.3276805602">
		<tag k="name" v="Muslitjernet" />
		<tag k="natural" v="water" />
		<tag k="ssr:stedsnr" v="492582" />
	</node>
	<node id="-324202" lat="60.5689833376" lon="12.3489333345">
		<tag k="name" v="Husua" />
		<tag k="ssr:stedsnr" v="492510" />
		<tag k="waterway" v="stream" />
	</node>
	<node id="-324201" lat="60.5641749975" lon="12.3360388926">
		<tag k="name" v="Blekkbenken" />
		<tag k="natural" v="water" />
		<tag k="ssr:stedsnr" v="492509" />
	</node>
	<node id="-324193" lat="60.767238885" lon="12.2848527801">
		<tag k="name" v="Nedre Ristjern" />
		<tag k="natural" v="water" />
		<tag k="ssr:stedsnr" v="358310" />
	</node>
	<node id="-324190" lat="60.8228944475" lon="12.2583916676">
		<tag k="name" v="Steinådammen" />
		<tag k="ssr:stedsnr" v="358009" />
		<tag k="waterway" v="dam" />
	</node>
	<node id="-324189" lat="60.5202000022" lon="11.7860055577">
		<tag k="alt_name" v="Fagervatn, store" />
		<tag k="name" v="Stor-Fagervatnet" />
		<tag k="natural" v="water" />
		<tag k="ssr:stedsnr" v="492179" />
		<tag k="water" v="lake" />
	</node>
	<node id="-324187" lat="60.5580305514" lon="11.6811361188">
		<tag k="name" v="Fløytdalstjernet" />
		<tag k="natural" v="water" />
		<tag k="ssr:stedsnr" v="492098" />
	</node>
	<node id="-326229" lat="60.4938138913" lon="11.7903888909">
		<tag k="name" v="Gransjøbekken" />
		<tag k="ssr:stedsnr" v="969636" />
		<tag k="waterway" v="stream" />
	</node>
	<node id="-326224" lat="60.5739833291" lon="12.3311638954">
		<tag k="name" v="Heggebærhølet" />
		<tag k="natural" v="water" />
		<tag k="ssr:stedsnr" v="969031" />
	</node>
	<node id="-324174" lat="60.5348694415" lon="12.5633027691">
		<tag k="name" v="Fallsjødammen" />
		<tag k="ssr:stedsnr" v="345603" />
		<tag k="waterway" v="dam" />
	</node>
	<node id="-324173" lat="60.7288305598" lon="12.3172361098">
		<tag k="name" v="Kynnoset" />
		<tag k="natural" v="bay" />
		<tag k="ssr:stedsnr" v="345362" />
	</node>
	<node id="-324172" lat="60.7282527737" lon="12.2904222159">
		<tag k="name" v="Kjepphelvetesfløyta" />
		<tag k="natural" v="water" />
		<tag k="ssr:stedsnr" v="345360" />
		<tag k="water" v="lake" />
	</node>
	<node id="-326219" lat="60.7679805512" lon="12.1356111138">
		<tag k="name" v="Rådelsbekken" />
		<tag k="ssr:stedsnr" v="967774" />
		<tag k="waterway" v="stream" />
	</node>
	<node id="-326218" lat="60.5230666701" lon="11.8158472146">
		<tag k="name" v="Kamphullet" />
		<tag k="natural" v="water" />
		<tag k="ssr:stedsnr" v="967548" />
	</node>
	<node id="-326214" lat="60.6527783696" lon="12.2920039968">
		<tag k="name" v="Hanaknefossen" />
		<tag k="natural" v="waterfall" />
		<tag k="ssr:stedsnr" v="967437" />
	</node>
	<node id="-324163" lat="60.5784472265" lon="11.9245083376">
		<tag k="name" v="Obekken" />
		<tag k="ssr:stedsnr" v="484585" />
		<tag k="waterway" v="stream" />
	</node>
	<node id="-324159" lat="60.8171527763" lon="12.3129250041">
		<tag k="name" v="Larstjernsholmen" />
		<tag k="place" v="islet" />
		<tag k="ssr:stedsnr" v="483381" />
	</node>
	<node id="-324157" lat="60.7700888897" lon="12.1602222214">
		<tag k="name" v="Dalatjerna" />
		<tag k="natural" v="water" />
		<tag k="ssr:stedsnr" v="481833" />
		<tag k="water" v="lake" />
	</node>
	<node id="-326203" lat="60.5446527744" lon="12.4295333388">
		<tag k="name" v="Rådelsbekken" />
		<tag k="ssr:stedsnr" v="952912" />
		<tag k="waterway" v="stream" />
	</node>
	<node id="-324154" lat="60.6228555527" lon="12.350475007">
		<tag k="name" v="Grasbekken" />
		<tag k="ssr:stedsnr" v="480496" />
		<tag k="waterway" v="stream" />
	</node>
	<node id="-326201" lat="60.5410722197" lon="12.519738881">
		<tag k="name" v="La'halamp" />
		<tag k="natural" v="water" />
		<tag k="ssr:stedsnr" v="952603" />
		<tag k="water" v="pond" />
	</node>
	<node id="-326200" lat="60.5584222192" lon="12.1918722257">
		<tag k="name" v="Kalanshullet" />
		<tag k="natural" v="water" />
		<tag k="ssr:stedsnr" v="952500" />
	</node>
	<node id="-324148" lat="60.8655083372" lon="12.2107083361">
		<tag k="name" v="Bjønntjernet" />
		<tag k="natural" v="water" />
		<tag k="ssr:stedsnr" v="479249" />
		<tag k="water" v="pond" />
	</node>
	<node id="-324147" lat="60.583011112" lon="12.1771694513">
		<tag k="name" v="Karusstjernet" />
		<tag k="natural" v="water" />
		<tag k="ssr:stedsnr" v="479237" />
	</node>
	<node id="-326191" lat="60.5669805567" lon="11.8019583271">
		<tag k="name" v="Klokkerbekken" />
		<tag k="ssr:stedsnr" v="952194" />
		<tag k="waterway" v="stream" />
	</node>
	<node id="-324142" lat="60.7644083325" lon="12.2621805603">
		<tag k="name" v="Slotjernet" />
		<tag k="natural" v="water" />
		<tag k="ssr:stedsnr" v="312626" />
	</node>
	<node id="-324141" lat="60.5577777806" lon="12.0563416597">
		<tag k="name" v="Austadsjøen" />
		<tag k="natural" v="water" />
		<tag k="ssr:stedsnr" v="310958" />
	</node>
	<node id="-326186" lat="60.6729999965" lon="12.1376805553">
		<tag k="name" v="Bjørnsholmene" />
		<tag k="place" v="islet" />
		<tag k="ssr:stedsnr" v="950844" />
	</node>
	<node id="-324135" lat="60.5521166684" lon="12.2003305545">
		<tag k="alt_name" v="Appelgåstjennet" />
		<tag k="name" v="Appelgåstjernet" />
		<tag k="natural" v="water" />
		<tag k="ssr:stedsnr" v="467513" />
	</node>
	<node id="-326181" lat="60.767783331" lon="12.3179138868">
		<tag k="name" v="Knapptjerna" />
		<tag k="natural" v="water" />
		<tag k="ssr:stedsnr" v="859651" />
		<tag k="water" v="lake" />
	</node>
	<node id="-326180" lat="60.8503277767" lon="12.2833583268">
		<tag k="name" v="Høgsjøbekken" />
		<tag k="ssr:stedsnr" v="859680" />
		<tag k="waterway" v="stream" />
	</node>
	<node id="-324131" lat="60.5364972223" lon="12.5571833378">
		<tag k="name" v="Kivilahti" />
		<tag k="natural" v="bay" />
		<tag k="ssr:stedsnr" v="466648" />
	</node>
	<node id="-324129" lat="60.8256999979" lon="12.2883055474">
		<tag k="name" v="Hedemarkingskjelda" />
		<tag k="natural" v="spring" />
		<tag k="ssr:stedsnr" v="466375" />
	</node>
	<node id="-324121" lat="60.4979041159" lon="11.7765009409">
		<tag k="name" v="Midtre Gransjøtjernet" />
		<tag k="natural" v="water" />
		<tag k="ssr:stedsnr" v="290857" />
	</node>
	<node id="-326168" lat="60.513474996" lon="11.7591694399">
		<tag k="name" v="Gransjøen" />
		<tag k="natural" v="water" />
		<tag k="ssr:stedsnr" v="857247" />
	</node>
	<node id="-326167" lat="60.7467333291" lon="12.2015305617">
		<tag k="name" v="Kynna" />
		<tag k="ssr:stedsnr" v="857240" />
		<tag k="waterway" v="river" />
	</node>
	<node id="-324118" lat="60.7882249961" lon="12.2044027792">
		<tag k="name" v="Melsjøen" />
		<tag k="natural" v="water" />
		<tag k="ssr:stedsnr" v="252508" />
	</node>
	<node id="-324110" lat="60.691547224" lon="12.2668472217">
		<tag k="name" v="Steinkjelda" />
		<tag k="natural" v="spring" />
		<tag k="ssr:stedsnr" v="241075" />
	</node>
	<node id="-324108" lat="60.6073138891" lon="12.4986000089">
		<tag k="name" v="Daurlamp" />
		<tag k="natural" v="water" />
		<tag k="ssr:stedsnr" v="239253" />
	</node>
	<node id="-324107" lat="60.8253194452" lon="12.2290166717">
		<tag k="name" v="Søndre Bjørketjernet" />
		<tag k="natural" v="water" />
		<tag k="ssr:stedsnr" v="237009" />
	</node>
	<node id="-326154" lat="60.4969500043" lon="11.9417611204">
		<tag k="name" v="Hukusjøen" />
		<tag k="natural" v="water" />
		<tag k="ssr:stedsnr" v="856685" />
		<tag k="water" v="lake" />
	</node>
	<node id="-326152" lat="60.5947861143" lon="12.4744250026">
		<tag k="name" v="Damstjern" />
		<tag k="natural" v="water" />
		<tag k="ssr:stedsnr" v="856587" />
	</node>
	<node id="-324100" lat="60.5477694416" lon="12.0339999969">
		<tag k="name" v="Borgkilen" />
		<tag k="natural" v="water" />
		<tag k="ssr:stedsnr" v="298494" />
	</node>
	<node id="-326144" lat="60.6762555599" lon="12.2965194508">
		<tag k="name" v="Strandfossen" />
		<tag k="natural" v="waterfall" />
		<tag k="ssr:stedsnr" v="848467" />
	</node>
	<node id="-324089" lat="60.835630552" lon="12.2484277779">
		<tag k="name" v="Morttjernet" />
		<tag k="natural" v="water" />
		<tag k="ssr:stedsnr" v="298017" />
	</node>
	<node id="-324086" lat="60.7498746548" lon="12.319069205">
		<tag k="name" v="Glorvikstjerna" />
		<tag k="natural" v="water" />
		<tag k="ssr:stedsnr" v="191602" />
		<tag k="water" v="lake" />
	</node>
	<node id="-326131" lat="60.6938583374" lon="12.2760055561">
		<tag k="name" v="Elgkjelda" />
		<tag k="natural" v="spring" />
		<tag k="ssr:stedsnr" v="848073" />
	</node>
	<node id="-326128" lat="60.5051055552" lon="11.7386527774">
		<tag k="name" v="Aurtjernsbekken" />
		<tag k="ssr:stedsnr" v="847939" />
		<tag k="waterway" v="stream" />
	</node>
	<node id="-326123" lat="60.5819111129" lon="11.9814250014">
		<tag k="name" v="Dauvatnet" />
		<tag k="natural" v="water" />
		<tag k="ssr:stedsnr" v="846508" />
	</node>
	<node id="-324070" lat="60.6346611112" lon="12.2666666659">
		<tag k="name" v="Veltertjernet" />
		<tag k="natural" v="water" />
		<tag k="ssr:stedsnr" v="180167" />
		<tag k="water" v="lake" />
	</node>
	<node id="-326116" lat="60.6164138858" lon="12.5047888973">
		<tag k="name" v="Gransjødammen" />
		<tag k="ssr:stedsnr" v="846228" />
		<tag k="waterway" v="dam" />
	</node>
	<node id="-326114" lat="60.5679166694" lon="12.2727388869">
		<tag k="name" v="Skallbekken" />
		<tag k="ssr:stedsnr" v="846203" />
		<tag k="waterway" v="stream" />
	</node>
	<node id="-324064" lat="60.5443083289" lon="12.4504805545">
		<tag k="name" v="Kosmannsbekken" />
		<tag k="ssr:stedsnr" v="284922" />
		<tag k="waterway" v="stream" />
	</node>
	<node id="-326109" lat="60.6878749988" lon="12.4408388869">
		<tag k="name" v="Hakabekken" />
		<tag k="ssr:stedsnr" v="844693" />
		<tag k="waterway" v="stream" />
	</node>
	<node id="-326105" lat="60.54258056" lon="12.0481499985">
		<tag k="name" v="Skromsholmen" />
		<tag k="place" v="island" />
		<tag k="ssr:stedsnr" v="844507" />
	</node>
	<node id="-324053" lat="60.7187111129" lon="12.3178333412">
		<tag k="name" v="Vermundsoset" />
		<tag k="natural" v="bay" />
		<tag k="ssr:stedsnr" v="284389" />
	</node>
	<node id="-326100" lat="60.541577777" lon="12.3387805472">
		<tag k="name" v="Oksvolltjernet" />
		<tag k="natural" v="water" />
		<tag k="ssr:stedsnr" v="844013" />
	</node>
	<node id="-324050" lat="60.8236083288" lon="12.3051138945">
		<tag k="name" v="Gjøssdavan" />
		<tag k="natural" v="water" />
		<tag k="ssr:stedsnr" v="284355" />
		<tag k="water" v="pond" />
	</node>
	<node id="-326096" lat="60.5354083346" lon="12.4747194531">
		<tag k="name" v="Girveslamp" />
		<tag k="natural" v="water" />
		<tag k="ssr:stedsnr" v="831919" />
	</node>
	<node id="-326090" lat="60.6900694463" lon="12.3911416591">
		<tag k="name" v="Krusvikholmen" />
		<tag k="place" v="islet" />
		<tag k="ssr:stedsnr" v="831412" />
	</node>
	<node id="-324041" lat="60.6567222259" lon="12.2297888977">
		<tag k="name" v="Pålstranda" />
		<tag k="natural" v="beach" />
		<tag k="ssr:stedsnr" v="283089" />
	</node>
	<node id="-326080" lat="60.7763500029" lon="12.255952773">
		<tag k="name" v="Mjauksjøbekken" />
		<tag k="ssr:stedsnr" v="831066" />
		<tag k="waterway" v="stream" />
	</node>
	<node id="-323876" lat="60.6412805562" lon="12.2710027729">
		<tag k="name" v="Valbyfossen" />
		<tag k="natural" v="waterfall" />
		<tag k="ssr:stedsnr" v="241133" />
	</node>
	<node id="-324023" lat="60.7293916701" lon="12.3941777801">
		<tag k="name" v="Høklingsbekken" />
		<tag k="ssr:stedsnr" v="160327" />
		<tag k="waterway" v="stream" />
	</node>
	<node id="-324019" lat="60.7352055539" lon="12.2926527752">
		<tag k="alt_name" v="Gjerda" />
		<tag k="name" v="Gjera" />
		<tag k="ssr:stedsnr" v="128906" />
		<tag k="waterway" v="stream" />
	</node>
	<node id="-324012" lat="60.5107361081" lon="11.8406555515">
		<tag k="name" v="Odalstjernet" />
		<tag k="natural" v="water" />
		<tag k="ssr:stedsnr" v="128203" />
	</node>
	<node id="-326059" lat="60.6334722245" lon="12.2302277871">
		<tag k="name" v="Kyvveltbekken" />
		<tag k="ssr:stedsnr" v="829136" />
		<tag k="waterway" v="stream" />
	</node>
	<node id="-326058" lat="60.6217722215" lon="12.2804916745">
		<tag k="name" v="Kanalen" />
		<tag k="ssr:stedsnr" v="829132" />
		<tag k="waterway" v="stream" />
	</node>
	<node id="-324009" lat="60.7027666696" lon="12.0928194364">
		<tag k="name" v="Risholbekken" />
		<tag k="ssr:stedsnr" v="128024" />
		<tag k="waterway" v="stream" />
	</node>
	<node id="-326056" lat="60.7763135772" lon="12.3465409728">
		<tag k="name" v="Tellåstjennet" />
		<tag k="natural" v="water" />
		<tag k="old_name" v="Tullåstjernet" />
		<tag k="ssr:stedsnr" v="798688" />
	</node>
	<node id="-326055" lat="60.7795138909" lon="12.3690999946">
		<tag k="name" v="Blomtjernet" />
		<tag k="natural" v="water" />
		<tag k="ssr:stedsnr" v="798682" />
	</node>
	<node id="-326052" lat="60.8199555552" lon="12.197016662">
		<tag k="name" v="Svantjernet" />
		<tag k="natural" v="water" />
		<tag k="ssr:stedsnr" v="798493" />
	</node>
	<node id="-324001" lat="60.5471388852" lon="12.5457944506">
		<tag k="name" v="Folkvernfløyta" />
		<tag k="natural" v="water" />
		<tag k="ssr:stedsnr" v="118680" />
	</node>
	<node id="-323997" lat="60.7674611091" lon="12.1537416749">
		<tag k="name" v="Breifløyta" />
		<tag k="natural" v="water" />
		<tag k="ssr:stedsnr" v="117812" />
		<tag k="water" v="lake" />
	</node>
	<node id="-326044" lat="60.7323054869" lon="12.3921441107">
		<tag k="name" v="Kroksjøen" />
		<tag k="natural" v="water" />
		<tag k="ssr:stedsnr" v="796928" />
		<tag k="water" v="lake" />
	</node>
	<node id="-323992" lat="60.5460500011" lon="12.392305564">
		<tag k="name" v="Vestre Aurtjernet" />
		<tag k="natural" v="water" />
		<tag k="ssr:stedsnr" v="116020" />
	</node>
	<node id="-326035" lat="60.5498055555" lon="12.4588833412">
		<tag k="name" v="Kosmannstjernet" />
		<tag k="natural" v="water" />
		<tag k="ssr:stedsnr" v="796709" />
	</node>
	<node id="-326034" lat="60.5365276335" lon="12.2687268572">
		<tag k="alt_name" v="Kerstitjennet" />
		<tag k="name" v="Kerstitjerna" />
		<tag k="natural" v="water" />
		<tag k="ssr:stedsnr" v="796706" />
		<tag k="water" v="lake" />
	</node>
	<node id="-326033" lat="60.5520555548" lon="12.3032222303">
		<tag k="alt_name" v="Rådalsbekken" />
		<tag k="name" v="Rådelsbekken" />
		<tag k="ssr:stedsnr" v="796697" />
		<tag k="waterway" v="stream" />
	</node>
	<node id="-326032" lat="60.5467027772" lon="12.2784611073">
		<tag k="name" v="Sætersjøen" />
		<tag k="natural" v="water" />
		<tag k="ssr:stedsnr" v="796693" />
	</node>
	<node id="-323983" lat="60.7303888915" lon="11.9812166691">
		<tag k="name" v="Svartbekken" />
		<tag k="ssr:stedsnr" v="251984" />
		<tag k="waterway" v="stream" />
	</node>
	<node id="-326029" lat="60.5622111087" lon="12.3999666662">
		<tag k="name" v="Mellomsjøen" />
		<tag k="natural" v="water" />
		<tag k="ssr:stedsnr" v="796542" />
	</node>
	<node id="-326027" lat="60.6191499983" lon="12.4063500015">
		<tag k="loc_name" v="Haarapuro" />
		<tag k="name" v="Grasmyrbekken" />
		<tag k="ssr:stedsnr" v="796505" />
		<tag k="waterway" v="stream" />
	</node>
	<node id="-326023" lat="60.6996250028" lon="12.3770083371">
		<tag k="alt_name" v="Vermunden" />
		<tag k="name" v="Vermundsjøen" />
		<tag k="natural" v="water" />
		<tag k="ssr:stedsnr" v="796573" />
		<tag k="water" v="lake" />
	</node>
	<node id="-323972" lat="60.7307999972" lon="12.3676388917">
		<tag k="name" v="Krokåa" />
		<tag k="ssr:stedsnr" v="250909" />
		<tag k="waterway" v="river" />
	</node>
	<node id="-323966" lat="60.6082611076" lon="12.1267916744">
		<tag k="name" v="Kløvbekken" />
		<tag k="ssr:stedsnr" v="250834" />
		<tag k="waterway" v="stream" />
	</node>
	<node id="-326012" lat="60.5245249998" lon="11.876483337">
		<tag k="name" v="Raudåstjernet" />
		<tag k="natural" v="water" />
		<tag k="ssr:stedsnr" v="795896" />
	</node>
	<node id="-326004" lat="60.6260972215" lon="12.0203777839">
		<tag k="name" v="Ingelsrudbekken" />
		<tag k="ssr:stedsnr" v="787934" />
		<tag k="waterway" v="stream" />
	</node>
	<node id="-326001" lat="60.4921805545" lon="11.8181722225">
		<tag k="name" v="Agnåbekken" />
		<tag k="ssr:stedsnr" v="787643" />
		<tag k="waterway" v="stream" />
	</node>
	<node id="-323951" lat="60.5103321573" lon="11.7330779277">
		<tag k="name" v="Tannsjøene" />
>>>>>>> e1d4bc35ff8a6074a6f2e91616a996b547c36f15
		<tag k="natural" v="water" />
		<tag k="old_name" v="Tannsjøane" />
		<tag k="ssr:stedsnr" v="250243" />
		<tag k="water" v="lake" />
	</node>
<<<<<<< HEAD
	<node lat="60.628455554422615" lon="12.172755546790498" id="-20349">
		<tag k="alt_name" v="Løksjøen" />
		<tag k="name" v="Lauksjøen" />
		<tag k="natural" v="water" />
		<tag k="ssr:stedsnr" v="310859" />
	</node>
	<node lat="60.557777780558396" lon="12.056341659720685" id="-20352">
		<tag k="name" v="Austadsjøen" />
		<tag k="natural" v="water" />
		<tag k="ssr:stedsnr" v="310958" />
	</node>
	<node lat="60.80228333528735" lon="12.169230560121708" id="-20354">
		<tag k="alt_name" v="Åborfosstjernet" />
		<tag k="name" v="Abborfosstjernet" />
=======
	<node id="-323950" lat="60.5123749992" lon="11.7770250008">
		<tag k="name" v="Steinsjøen" />
		<tag k="natural" v="water" />
		<tag k="ssr:stedsnr" v="250240" />
	</node>
	<node id="-325995" lat="60.6477055593" lon="12.1176916719">
		<tag k="name" v="Kjellåsbekken" />
		<tag k="ssr:stedsnr" v="785851" />
		<tag k="waterway" v="stream" />
	</node>
	<node id="-323944" lat="60.6621888921" lon="11.9790333408">
		<tag k="name" v="Melsnestjernet" />
		<tag k="natural" v="water" />
		<tag k="ssr:stedsnr" v="250113" />
	</node>
	<node id="-323985" lat="60.8088305527" lon="12.161750003">
		<tag k="name" v="Stortjernet" />
>>>>>>> e1d4bc35ff8a6074a6f2e91616a996b547c36f15
		<tag k="natural" v="water" />
		<tag k="ssr:stedsnr" v="252467" />
	</node>
<<<<<<< HEAD
	<node lat="60.80521944355464" lon="12.165144447259657" id="-20355">
		<tag k="name" v="Grastjernet" />
		<tag k="natural" v="water" />
		<tag k="ssr:stedsnr" v="312520" />
	</node>
	<node lat="60.767358330077414" lon="12.113394442189135" id="-20357">
		<tag k="name" v="Aurbekken" />
		<tag k="ssr:stedsnr" v="313545" />
		<tag k="waterway" v="stream" />
	</node>
	<node lat="60.67625555951617" lon="12.128549995129328" id="-20372">
		<tag k="name" v="Knapneset" />
		<tag k="natural" v="cape" />
		<tag k="ssr:stedsnr" v="343888" />
	</node>
	<node lat="60.7282527736537" lon="12.290422215857653" id="-20376">
		<tag k="name" v="Kjepphelvetesfløyta" />
		<tag k="natural" v="water" />
		<tag k="ssr:stedsnr" v="345360" />
		<tag k="water" v="lake" />
	</node>
	<node lat="60.72883055977098" lon="12.317236109825734" id="-20377">
		<tag k="name" v="Kynnoset" />
		<tag k="natural" v="bay" />
		<tag k="ssr:stedsnr" v="345362" />
	</node>
	<node lat="60.822919445400984" lon="12.31323889154894" id="-20378">
		<tag k="name" v="Vidjefløyta" />
		<tag k="natural" v="water" />
		<tag k="ssr:stedsnr" v="345333" />
		<tag k="water" v="lake" />
	</node>
	<node lat="60.50867395829757" lon="11.742418343998157" id="-20381">
		<tag k="name" v="Velt-Tannsjøen" />
		<tag k="natural" v="water" />
		<tag k="ssr:stedsnr" v="349448" />
		<tag k="water" v="lake" />
	</node>
	<node lat="60.822894447493155" lon="12.258391667633711" id="-20383">
		<tag k="name" v="Steinådammen" />
		<tag k="ssr:stedsnr" v="358009" />
		<tag k="waterway" v="dam" />
	</node>
	<node lat="60.54821944249956" lon="11.760324996914397" id="-20394">
		<tag k="name" v="Svartbekken" />
		<tag k="ssr:stedsnr" v="358677" />
		<tag k="waterway" v="stream" />
	</node>
	<node lat="60.736788887813965" lon="12.089791669624082" id="-20395">
		<tag k="name" v="Haraldsåsdammen" />
		<tag k="ssr:stedsnr" v="358793" />
		<tag k="waterway" v="dam" />
	</node>
	<node lat="60.768305557945624" lon="12.292400005009632" id="-20398">
		<tag k="name" v="Øvre Mastholttjern" />
		<tag k="natural" v="water" />
		<tag k="ssr:stedsnr" v="360341" />
	</node>
	<node lat="60.579633329783974" lon="11.995158341408906" id="-20401">
		<tag k="name" v="Evja" />
		<tag k="natural" v="water" />
		<tag k="ssr:stedsnr" v="360492" />
	</node>
	<node lat="60.64269444787364" lon="12.254272220259788" id="-20413">
		<tag k="name" v="Utneskroken" />
		<tag k="natural" v="cape" />
		<tag k="ssr:stedsnr" v="362168" />
	</node>
	<node lat="60.815227778043074" lon="12.293758330005021" id="-20415">
		<tag k="name" v="Skybakkmyrbekken" />
		<tag k="ssr:stedsnr" v="362375" />
		<tag k="waterway" v="stream" />
	</node>
	<node lat="60.57195833293892" lon="12.293322218350598" id="-20418">
		<tag k="name" v="Sørmdammen" />
		<tag k="ssr:stedsnr" v="362518" />
		<tag k="waterway" v="dam" />
	</node>
	<node lat="60.74423055642826" lon="12.111022229196498" id="-20436">
		<tag k="alt_name" v="Jønsokbekken" />
		<tag k="name" v="Jonsokbekken" />
		<tag k="ssr:stedsnr" v="371205" />
		<tag k="waterway" v="stream" />
	</node>
	<node lat="60.57156111276785" lon="12.3425000057757" id="-20438">
		<tag k="name" v="Kverntjern" />
		<tag k="natural" v="water" />
		<tag k="ssr:stedsnr" v="371539" />
	</node>
	<node lat="60.581302778531295" lon="11.894919440022544" id="-20443">
		<tag k="name" v="Stortjernet" />
		<tag k="natural" v="water" />
		<tag k="ssr:stedsnr" v="371806" />
	</node>
	<node lat="60.80937500357279" lon="12.30121389813571" id="-20458">
		<tag k="name" v="Lindåa" />
		<tag k="ssr:stedsnr" v="373747" />
		<tag k="waterway" v="stream" />
	</node>
	<node lat="60.772052773557256" lon="12.222077781641174" id="-20469">
		<tag k="name" v="Gjerdsjødammen" />
		<tag k="ssr:stedsnr" v="405053" />
		<tag k="waterway" v="dam" />
	</node>
	<node lat="60.6968888923996" lon="12.297630555263163" id="-20474">
		<tag k="name" v="Dæsbekken" />
		<tag k="ssr:stedsnr" v="406384" />
		<tag k="waterway" v="stream" />
	</node>
	<node lat="60.72355555908566" lon="12.287388889163594" id="-20476">
		<tag k="name" v="Tjernslotjerna" />
		<tag k="natural" v="water" />
		<tag k="ssr:stedsnr" v="406387" />
		<tag k="water" v="lake" />
	</node>
	<node lat="60.51623333471441" lon="11.854999994758007" id="-20484">
		<tag k="name" v="Ommestadsæterbekken" />
		<tag k="ssr:stedsnr" v="419654" />
		<tag k="waterway" v="stream" />
	</node>
	<node lat="60.68252500060755" lon="12.436319451554052" id="-20485">
		<tag k="name" v="Gammelåa" />
		<tag k="ssr:stedsnr" v="419667" />
		<tag k="waterway" v="stream" />
	</node>
	<node lat="60.65883333773474" lon="12.100191670737768" id="-20490">
		<tag k="name" v="Kjellåsevja" />
		<tag k="place" v="locality" />
		<tag k="ssr:stedsnr" v="421863" />
	</node>
	<node lat="60.754408332382795" lon="12.257733331631977" id="-20491">
		<tag k="name" v="Brynhildsbekken" />
		<tag k="ssr:stedsnr" v="421030" />
		<tag k="waterway" v="stream" />
	</node>
	<node lat="60.75253889174163" lon="12.26869999275362" id="-20492">
		<tag k="name" v="Valderskvennfossen" />
		<tag k="natural" v="waterfall" />
		<tag k="ssr:stedsnr" v="421035" />
	</node>
	<node lat="60.85175832959453" lon="12.255572223126034" id="-20497">
		<tag k="name" v="Ormtjernet" />
		<tag k="natural" v="water" />
		<tag k="ssr:stedsnr" v="422256" />
	</node>
	<node lat="60.65287499643213" lon="12.290005560532615" id="-20500">
		<tag k="name" v="Hanakneet" />
		<tag k="natural" v="cape" />
		<tag k="ssr:stedsnr" v="422487" />
	</node>
	<node lat="60.66680832995339" lon="12.27787776958438" id="-20501">
		<tag k="name" v="Vollbekken" />
		<tag k="ssr:stedsnr" v="423113" />
		<tag k="waterway" v="stream" />
	</node>
	<node lat="60.56392499596642" lon="12.33310000664219" id="-20502">
		<tag k="name" v="Heggedulpa" />
		<tag k="natural" v="water" />
		<tag k="ssr:stedsnr" v="423030" />
	</node>
	<node lat="60.71778889273452" lon="12.269052775091417" id="-20505">
		<tag k="name" v="Fallåsbekken" />
		<tag k="ssr:stedsnr" v="423082" />
		<tag k="waterway" v="stream" />
	</node>
	<node lat="60.788446961660554" lon="12.351913966472445" id="-20506">
		<tag k="name" v="Vesle Juvbergstjernet" />
		<tag k="natural" v="water" />
		<tag k="ssr:stedsnr" v="423383" />
	</node>
	<node lat="60.78667778079993" lon="12.10640832841578" id="-20511">
		<tag k="name" v="Fløgoset" />
		<tag k="natural" v="bay" />
		<tag k="ssr:stedsnr" v="423769" />
	</node>
	<node lat="60.93943888528743" lon="11.516244438964907" id="-20513">
		<tag k="fixme" v="multiple name tags, choose one and add the other to alt_name" />
		<tag k="name" v="Glåma;Glomma" />
		<tag k="ssr:stedsnr" v="426301" />
		<tag k="waterway" v="river" />
	</node>
	<node lat="60.60269999832231" lon="12.349941662113903" id="-20517">
		<tag k="name" v="Fallbekken" />
		<tag k="ssr:stedsnr" v="431562" />
		<tag k="waterway" v="stream" />
	</node>
	<node lat="60.58462500070914" lon="12.409430551334596" id="-20519">
		<tag k="name" v="Gråbergstjernet" />
		<tag k="natural" v="water" />
		<tag k="ssr:stedsnr" v="431571" />
	</node>
	<node lat="60.59999444876402" lon="12.134452782550031" id="-20521">
		<tag k="alt_name" v="Kleivtjernet" />
		<tag k="name" v="Kløvtjernet" />
		<tag k="natural" v="water" />
		<tag k="ssr:stedsnr" v="431767" />
	</node>
	<node lat="60.71573333648981" lon="12.122586115141626" id="-20529">
		<tag k="name" v="Smørtjernet" />
		<tag k="natural" v="water" />
		<tag k="ssr:stedsnr" v="432040" />
	</node>
	<node lat="60.55776388893722" lon="12.338716658287266" id="-20539">
		<tag k="name" v="Langfløyta" />
		<tag k="natural" v="water" />
		<tag k="ssr:stedsnr" v="432673" />
	</node>
	<node lat="60.59756944575674" lon="11.838277774033697" id="-20549">
		<tag k="name" v="Tverråa" />
		<tag k="ssr:stedsnr" v="433964" />
		<tag k="waterway" v="river" />
	</node>
	<node lat="60.77917777743843" lon="12.215555559593241" id="-20551">
		<tag k="name" v="Gjerdsjøen" />
		<tag k="natural" v="water" />
		<tag k="ssr:stedsnr" v="434517" />
		<tag k="water" v="lake" />
	</node>
	<node lat="60.78628610851683" lon="12.068655557546295" id="-20552">
		<tag k="name" v="Måsåfløgsjøen" />
		<tag k="natural" v="water" />
		<tag k="ssr:stedsnr" v="434531" />
	</node>
	<node lat="60.68971389201015" lon="12.38889999721055" id="-20567">
		<tag k="name" v="Krusvika" />
		<tag k="natural" v="bay" />
		<tag k="ssr:stedsnr" v="527433" />
	</node>
	<node lat="60.66141111191207" lon="12.209580556653906" id="-20575">
		<tag k="name" v="Heggbærholmen" />
		<tag k="place" v="islet" />
		<tag k="ssr:stedsnr" v="540125" />
	</node>
	<node lat="60.735716667730415" lon="12.26556944373732" id="-20580">
		<tag k="name" v="Brattfossen" />
		<tag k="natural" v="waterfall" />
		<tag k="ssr:stedsnr" v="542032" />
	</node>
	<node lat="60.74917777566583" lon="12.239238881917919" id="-20581">
		<tag k="name" v="Vesle-Serven" />
		<tag k="natural" v="water" />
		<tag k="ssr:stedsnr" v="542040" />
	</node>
	<node lat="60.58623611452018" lon="12.151411119706566" id="-20595">
		<tag k="name" v="Løvlibekken" />
		<tag k="ssr:stedsnr" v="544886" />
		<tag k="waterway" v="stream" />
	</node>
	<node lat="60.522891663408274" lon="11.725041658520968" id="-20597">
		<tag k="name" v="Holbekken" />
		<tag k="ssr:stedsnr" v="544933" />
		<tag k="waterway" v="stream" />
	</node>
	<node lat="60.58973963000541" lon="12.154092728164228" id="-20601">
		<tag k="alt_name" v="Lauvlitjennet;Løvlitjennet" />
		<tag k="name" v="Lauvlitjernet" />
		<tag k="natural" v="water" />
		<tag k="ssr:stedsnr" v="552825" />
	</node>
	<node lat="60.65818611082389" lon="12.414555557087978" id="-20603">
		<tag k="name" v="Tyskåa" />
		<tag k="ssr:stedsnr" v="552656" />
		<tag k="waterway" v="river" />
	</node>
	<node lat="60.630086113556914" lon="11.972066669420492" id="-20605">
		<tag k="name" v="Maskindammen" />
		<tag k="natural" v="water" />
		<tag k="ssr:stedsnr" v="552852" />
	</node>
	<node lat="60.570800001329786" lon="12.231494440653751" id="-20608">
		<tag k="name" v="Malisjøen" />
		<tag k="natural" v="water" />
		<tag k="ssr:stedsnr" v="552600" />
	</node>
	<node lat="60.544980093972804" lon="12.573830660682168" id="-20617">
		<tag k="fixme" v="multiple name tags, choose one and add the other to alt_name" />
		<tag k="name" v="Fallsjøen;Nordre Røgden" />
		<tag k="natural" v="water" />
		<tag k="ssr:stedsnr" v="553724" />
		<tag k="water" v="lake" />
	</node>
	<node lat="60.574663886335784" lon="12.475130562783146" id="-20621">
		<tag k="name" v="Geittjernet" />
		<tag k="natural" v="water" />
		<tag k="ssr:stedsnr" v="553561" />
	</node>
	<node lat="60.527661115710835" lon="12.592149996955694" id="-20625">
		<tag k="name" v="Igletjern" />
		<tag k="natural" v="water" />
		<tag k="ssr:stedsnr" v="553742" />
	</node>
	<node lat="60.854586866853296" lon="12.221183789606041" id="-20635">
		<tag k="name" v="Aurtjerna" />
		<tag k="natural" v="water" />
		<tag k="ssr:stedsnr" v="555665" />
		<tag k="water" v="lake" />
	</node>
	<node lat="60.53158610941731" lon="12.271763881699583" id="-20643">
		<tag k="alt_name" v="Kerstitjennbekken" />
		<tag k="name" v="Kerstitjernbekken" />
		<tag k="ssr:stedsnr" v="586482" />
		<tag k="waterway" v="stream" />
	</node>
	<node lat="60.71726944178503" lon="12.294700008030405" id="-20646">
		<tag k="name" v="Kynneggbekken" />
		<tag k="ssr:stedsnr" v="587388" />
		<tag k="waterway" v="stream" />
	</node>
	<node lat="60.708222225783004" lon="12.349575002475" id="-20649">
		<tag k="name" v="Sterke-Perholmen" />
		<tag k="place" v="islet" />
		<tag k="ssr:stedsnr" v="586413" />
	</node>
	<node lat="60.593916665904764" lon="12.065941660890068" id="-20653">
		<tag k="name" v="Sætredammen" />
		<tag k="natural" v="water" />
		<tag k="ssr:stedsnr" v="587891" />
	</node>
	<node lat="60.557325004532565" lon="12.372402772020418" id="-20660">
		<tag k="name" v="Bokkhelltjernet" />
		<tag k="natural" v="water" />
		<tag k="ssr:stedsnr" v="601016" />
	</node>
	<node lat="60.768458335668946" lon="12.283274999677973" id="-20664">
		<tag k="name" v="Øvre Ristjern" />
		<tag k="natural" v="water" />
		<tag k="ssr:stedsnr" v="601316" />
	</node>
	<node lat="60.7355500014729" lon="12.251294439620619" id="-20673">
		<tag k="name" v="Kontraskjæret" />
		<tag k="natural" v="waterfall" />
		<tag k="ssr:stedsnr" v="602031" />
	</node>
	<node lat="60.740588887836175" lon="12.248172224996226" id="-20674">
		<tag k="name" v="Nattmeita" />
		<tag k="natural" v="water" />
		<tag k="ssr:stedsnr" v="602034" />
	</node>
	<node lat="60.75016388747742" lon="12.191397226276168" id="-20681">
		<tag k="name" v="Svarvarneset" />
		<tag k="natural" v="cape" />
		<tag k="ssr:stedsnr" v="603031" />
	</node>
	<node lat="60.812211107425995" lon="12.301305553557409" id="-20683">
		<tag k="name" v="Lindmyrtjernet" />
		<tag k="natural" v="water" />
		<tag k="ssr:stedsnr" v="604362" />
	</node>
	<node lat="60.6315138889576" lon="12.162408341742193" id="-20685">
		<tag k="name" v="Torkilsmyrtjernet" />
		<tag k="natural" v="water" />
		<tag k="ssr:stedsnr" v="604944" />
	</node>
	<node lat="60.70176944178691" lon="12.135869440654348" id="-20690">
		<tag k="name" v="Haukåstjernet" />
		<tag k="natural" v="water" />
		<tag k="ssr:stedsnr" v="613038" />
	</node>
	<node lat="60.712636114608415" lon="12.04264722155945" id="-20693">
		<tag k="alt_name" v="Durar'n" />
		<tag k="name" v="Duraren" />
		<tag k="ssr:stedsnr" v="613053" />
		<tag k="waterway" v="stream" />
	</node>
	<node lat="60.66491388850713" lon="12.184900008754054" id="-20694">
		<tag k="name" v="Flisa" />
		<tag k="ssr:stedsnr" v="613086" />
		<tag k="waterway" v="river" />
	</node>
	<node lat="60.539811111096476" lon="11.69867777954288" id="-20700">
		<tag k="name" v="Deldalsbekken" />
		<tag k="ssr:stedsnr" v="613232" />
		<tag k="waterway" v="stream" />
	</node>
	<node lat="60.7053277799248" lon="12.35879444552345" id="-20702">
		<tag k="name" v="Tangen" />
		<tag k="natural" v="cape" />
		<tag k="ssr:stedsnr" v="613566" />
	</node>
	<node lat="60.557625358964856" lon="12.525510763523737" id="-20709">
		<tag k="alt_name" v="Breidsjøen" />
		<tag k="name" v="Breisjøen" />
		<tag k="natural" v="water" />
		<tag k="ssr:stedsnr" v="613673" />
		<tag k="water" v="lake" />
	</node>
	<node lat="60.54181944120338" lon="12.44728332506458" id="-20710">
		<tag k="name" v="Langtjernet" />
		<tag k="natural" v="water" />
		<tag k="ssr:stedsnr" v="613694" />
	</node>
	<node lat="60.65979166721366" lon="12.240555551599593" id="-20723">
		<tag k="name" v="Doktorkjelda" />
		<tag k="natural" v="spring" />
		<tag k="ssr:stedsnr" v="646099" />
	</node>
	<node lat="60.655413888532664" lon="12.011661112122185" id="-20736">
		<tag k="name" v="Pålsrudslandet" />
		<tag k="natural" v="beach" />
		<tag k="ssr:stedsnr" v="647985" />
	</node>
	<node lat="60.73617777542105" lon="12.259927782119574" id="-20745">
		<tag k="name" v="Brorfossen" />
		<tag k="natural" v="waterfall" />
		<tag k="ssr:stedsnr" v="663029" />
	</node>
	<node lat="60.64535277634405" lon="12.081358330166221" id="-20748">
		<tag k="name" v="Buskenebbholmen" />
		<tag k="place" v="islet" />
		<tag k="ssr:stedsnr" v="663849" />
	</node>
	<node lat="60.852436107010256" lon="12.225599996559712" id="-20754">
		<tag k="name" v="Nedre Aurtjernet" />
		<tag k="natural" v="water" />
		<tag k="ssr:stedsnr" v="664257" />
	</node>
	<node lat="60.64318611308556" lon="12.279044439437877" id="-20756">
		<tag k="name" v="Veltfossen" />
		<tag k="natural" v="waterfall" />
		<tag k="ssr:stedsnr" v="665148" />
	</node>
	<node lat="60.715566668835216" lon="11.988658331811074" id="-20760">
		<tag k="name" v="Atthaldsdammen" />
		<tag k="natural" v="water" />
		<tag k="ssr:stedsnr" v="665913" />
	</node>
	<node lat="60.67924999988213" lon="12.26675278212175" id="-20769">
		<tag k="name" v="Kontbekken" />
		<tag k="ssr:stedsnr" v="666079" />
		<tag k="waterway" v="stream" />
	</node>
	<node lat="60.809022220849684" lon="12.16209165771375" id="-20776">
		<tag k="name" v="Stortjernet" />
		<tag k="natural" v="water" />
		<tag k="ssr:stedsnr" v="722007" />
	</node>
	<node lat="60.576327781690054" lon="12.394447227566717" id="-20784">
		<tag k="name" v="Huskebrutjernet" />
		<tag k="natural" v="water" />
		<tag k="ssr:stedsnr" v="722496" />
	</node>
	<node lat="60.767769443905586" lon="12.297938896224837" id="-20787">
		<tag k="name" v="Nedre Mastholttjern" />
		<tag k="natural" v="water" />
		<tag k="ssr:stedsnr" v="724338" />
	</node>
	<node lat="60.58025833410288" lon="11.98409721996324" id="-20789">
		<tag k="name" v="Mojordsverken" />
		<tag k="ssr:stedsnr" v="724508" />
		<tag k="waterway" v="dam" />
	</node>
	<node lat="60.56214999797425" lon="12.548525002861531" id="-20790">
		<tag k="name" v="Nordåa" />
		<tag k="ssr:stedsnr" v="724684" />
		<tag k="waterway" v="stream" />
	</node>
	<node lat="60.55335833404598" lon="11.69194445020569" id="-20798">
		<tag k="name" v="Tjernshaugtjernet" />
		<tag k="natural" v="water" />
		<tag k="ssr:stedsnr" v="735120" />
	</node>
	<node lat="60.73631666330654" lon="12.221227776122783" id="-20802">
		<tag k="name" v="Kynndammen" />
		<tag k="ssr:stedsnr" v="735912" />
		<tag k="waterway" v="dam" />
	</node>
	<node lat="60.64446944018827" lon="11.994636109183222" id="-20806">
		<tag k="name" v="Skjeppåstjernet" />
		<tag k="natural" v="water" />
		<tag k="ssr:stedsnr" v="735070" />
	</node>
	<node lat="60.567255551393245" lon="12.337505554606736" id="-20808">
		<tag k="name" v="Rundtjern" />
		<tag k="natural" v="water" />
		<tag k="ssr:stedsnr" v="735530" />
	</node>
	<node lat="60.56421389167576" lon="12.301191671959076" id="-20809">
		<tag k="name" v="Rauktjern" />
		<tag k="natural" v="water" />
		<tag k="ssr:stedsnr" v="735539" />
	</node>
	<node lat="60.55017500109034" lon="12.422552784541754" id="-20814">
		<tag k="name" v="Helveteskjelda" />
		<tag k="natural" v="water" />
		<tag k="ssr:stedsnr" v="735687" />
	</node>
	<node lat="60.58425555107983" lon="12.035069451248706" id="-20816">
		<tag k="name" v="Nesevja" />
		<tag k="place" v="locality" />
		<tag k="ssr:stedsnr" v="735799" />
	</node>
	<node lat="60.8126055598154" lon="12.28776665841989" id="-20832">
		<tag k="name" v="Elgtjernet" />
		<tag k="natural" v="water" />
		<tag k="ssr:stedsnr" v="737734" />
	</node>
	<node lat="60.67186667083603" lon="11.966027776051185" id="-20834">
		<tag k="name" v="Svarthagabekken" />
		<tag k="ssr:stedsnr" v="767581" />
		<tag k="waterway" v="stream" />
	</node>
	<node lat="60.68722222514498" lon="11.957394440191772" id="-20835">
		<tag k="name" v="Kråknesodden" />
		<tag k="natural" v="cape" />
		<tag k="ssr:stedsnr" v="767585" />
	</node>
	<node lat="60.621044442822814" lon="12.268969445150011" id="-20837">
		<tag k="name" v="Jonsokbekken" />
		<tag k="ssr:stedsnr" v="768131" />
		<tag k="waterway" v="stream" />
	</node>
	<node lat="60.62188610865128" lon="12.023383335232378" id="-20842">
		<tag k="name" v="Kravdalsbekken" />
		<tag k="ssr:stedsnr" v="768956" />
		<tag k="waterway" v="stream" />
	</node>
	<node lat="60.694838884352556" lon="12.378900003967857" id="-20850">
		<tag k="name" v="Åbborhølet" />
		<tag k="natural" v="bay" />
		<tag k="ssr:stedsnr" v="770390" />
	</node>
	<node lat="60.495166386917894" lon="11.783976812582178" id="-20857">
		<tag k="name" v="Nedre Gransjøtjernet" />
		<tag k="natural" v="water" />
		<tag k="ssr:stedsnr" v="775870" />
	</node>
	<node lat="60.5881287962139" lon="12.364695160381439" id="-20860">
		<tag k="loc_name" v="Tjennbergstjenna" />
		<tag k="name" v="Tjernbergstjerna" />
		<tag k="natural" v="water" />
		<tag k="ssr:stedsnr" v="782640" />
		<tag k="water" v="lake" />
	</node>
	<node lat="60.51039444251921" lon="11.816730558663819" id="-20867">
		<tag k="name" v="Blekktjernet" />
		<tag k="natural" v="water" />
		<tag k="ssr:stedsnr" v="783658" />
	</node>
	<node lat="60.686297226650986" lon="12.42929165989213" id="-20868">
		<tag k="name" v="Kasperbekken" />
		<tag k="ssr:stedsnr" v="783667" />
		<tag k="waterway" v="stream" />
	</node>
	<node lat="60.64770555925006" lon="12.117691671893724" id="-20873">
		<tag k="name" v="Kjellåsbekken" />
		<tag k="ssr:stedsnr" v="785851" />
		<tag k="waterway" v="stream" />
	</node>
	<node lat="60.79017500333966" lon="12.34666667347044" id="-20878">
		<tag k="name" v="Store Juvbergstjernet" />
		<tag k="natural" v="water" />
		<tag k="ssr:stedsnr" v="787355" />
	</node>
	<node lat="60.62609722154625" lon="12.020377783907565" id="-20881">
		<tag k="name" v="Ingelsrudbekken" />
		<tag k="ssr:stedsnr" v="787934" />
		<tag k="waterway" v="stream" />
	</node>
	<node lat="60.524524999801905" lon="11.876483337021336" id="-20895">
		<tag k="name" v="Raudåstjernet" />
		<tag k="natural" v="water" />
		<tag k="ssr:stedsnr" v="795896" />
	</node>
	<node lat="60.56221110865691" lon="12.399966666201424" id="-20908">
		<tag k="name" v="Mellomsjøen" />
		<tag k="natural" v="water" />
		<tag k="ssr:stedsnr" v="796542" />
	</node>
	<node lat="60.54670277717407" lon="12.278461107257522" id="-20913">
		<tag k="name" v="Sætersjøen" />
		<tag k="natural" v="water" />
		<tag k="ssr:stedsnr" v="796693" />
	</node>
	<node lat="60.552055554777354" lon="12.303222230279593" id="-20914">
		<tag k="alt_name" v="Rådalsbekken" />
		<tag k="name" v="Rådelsbekken" />
		<tag k="ssr:stedsnr" v="796697" />
		<tag k="waterway" v="stream" />
	</node>
	<node lat="60.73230548691668" lon="12.392144110718533" id="-20916">
		<tag k="name" v="Kroksjøen" />
		<tag k="natural" v="water" />
		<tag k="ssr:stedsnr" v="796928" />
		<tag k="water" v="lake" />
	</node>
	<node lat="60.779513890903615" lon="12.36909999457767" id="-20925">
		<tag k="name" v="Blomtjernet" />
		<tag k="natural" v="water" />
		<tag k="ssr:stedsnr" v="798682" />
	</node>
	<node lat="60.776313577224876" lon="12.346540972772415" id="-20926">
		<tag k="name" v="Tellåstjennet" />
		<tag k="natural" v="water" />
		<tag k="old_name" v="Tullåstjernet" />
		<tag k="ssr:stedsnr" v="798688" />
	</node>
	<node lat="60.6334722245203" lon="12.230227787065202" id="-20927">
		<tag k="name" v="Kyvveltbekken" />
		<tag k="ssr:stedsnr" v="829136" />
		<tag k="waterway" v="stream" />
	</node>
	<node lat="60.77635000288765" lon="12.255952773043681" id="-20939">
		<tag k="name" v="Mjauksjøbekken" />
		<tag k="ssr:stedsnr" v="831066" />
		<tag k="waterway" v="stream" />
	</node>
	<node lat="60.53540833458101" lon="12.474719453120692" id="-20947">
		<tag k="name" v="Girveslamp" />
		<tag k="natural" v="water" />
		<tag k="ssr:stedsnr" v="831919" />
	</node>
	<node lat="60.541577776999716" lon="12.338780547225396" id="-20955">
		<tag k="name" v="Oksvolltjernet" />
		<tag k="natural" v="water" />
		<tag k="ssr:stedsnr" v="844013" />
	</node>
	<node lat="60.54323055519788" lon="12.153488897971448" id="-20973">
		<tag k="name" v="Kontsloa" />
		<tag k="ssr:stedsnr" v="846837" />
		<tag k="waterway" v="river" />
	</node>
	<node lat="60.505105555234074" lon="11.738652777417544" id="-20975">
		<tag k="name" v="Aurtjernsbekken" />
		<tag k="ssr:stedsnr" v="847939" />
		<tag k="waterway" v="stream" />
	</node>
	<node lat="60.67625555990499" lon="12.2965194507964" id="-20983">
		<tag k="name" v="Strandfossen" />
		<tag k="natural" v="waterfall" />
		<tag k="ssr:stedsnr" v="848467" />
	</node>
	<node lat="60.55569444317556" lon="11.816586116753422" id="-20988">
		<tag k="name" v="Veståa" />
		<tag k="ssr:stedsnr" v="856173" />
		<tag k="waterway" v="river" />
	</node>
	<node lat="60.49695000428285" lon="11.94176112035101" id="-20989">
		<tag k="name" v="Hukusjøen" />
		<tag k="natural" v="water" />
		<tag k="ssr:stedsnr" v="856685" />
		<tag k="water" v="lake" />
	</node>
	<node lat="60.746733329139744" lon="12.201530561680393" id="-21000">
		<tag k="name" v="Kynna" />
		<tag k="ssr:stedsnr" v="857240" />
		<tag k="waterway" v="river" />
	</node>
	<node lat="60.51347499604931" lon="11.759169439942243" id="-21001">
		<tag k="name" v="Gransjøen" />
		<tag k="natural" v="water" />
		<tag k="ssr:stedsnr" v="857247" />
	</node>
	<node lat="60.85032777666077" lon="12.283358326754692" id="-21014">
		<tag k="name" v="Høgsjøbekken" />
		<tag k="ssr:stedsnr" v="859680" />
		<tag k="waterway" v="stream" />
	</node>
	<node lat="60.76778333104031" lon="12.317913886847288" id="-21016">
		<tag k="name" v="Knapptjerna" />
		<tag k="natural" v="water" />
		<tag k="ssr:stedsnr" v="859651" />
		<tag k="water" v="lake" />
	</node>
	<node lat="60.57218611500476" lon="12.213502779845772" id="-21022">
		<tag k="name" v="Brennvinsbekken" />
		<tag k="ssr:stedsnr" v="950237" />
		<tag k="waterway" v="stream" />
	</node>
	<node lat="60.58188055294881" lon="12.201580551841328" id="-21024">
		<tag k="name" v="Frauåsbekken" />
		<tag k="ssr:stedsnr" v="950262" />
		<tag k="waterway" v="stream" />
	</node>
	<node lat="60.67299999646093" lon="12.137680555299923" id="-21027">
		<tag k="name" v="Bjørnsholmene" />
		<tag k="place" v="islet" />
		<tag k="ssr:stedsnr" v="950844" />
	</node>
	<node lat="60.566980556672235" lon="11.801958327111084" id="-21030">
		<tag k="name" v="Klokkerbekken" />
		<tag k="ssr:stedsnr" v="952194" />
		<tag k="waterway" v="stream" />
	</node>
	<node lat="60.55842221916371" lon="12.19187222566679" id="-21038">
		<tag k="name" v="Kalanshullet" />
		<tag k="natural" v="water" />
		<tag k="ssr:stedsnr" v="952500" />
	</node>
	<node lat="60.697383334607025" lon="12.393755558964584" id="-21040">
		<tag k="name" v="Langnebbvika" />
		<tag k="natural" v="bay" />
		<tag k="ssr:stedsnr" v="952423" />
	</node>
	<node lat="60.52306667009201" lon="11.815847214632855" id="-21056">
		<tag k="name" v="Kamphullet" />
		<tag k="natural" v="water" />
		<tag k="ssr:stedsnr" v="967548" />
	</node>
	<node lat="60.55398888743372" lon="12.576602784809923" id="-21058">
		<tag k="name" v="Nabben" />
		<tag k="natural" v="cape" />
		<tag k="ssr:stedsnr" v="967660" />
	</node>
	<node lat="60.76798055115097" lon="12.135611113773251" id="-21060">
		<tag k="name" v="Rådelsbekken" />
		<tag k="ssr:stedsnr" v="967774" />
		<tag k="waterway" v="stream" />
	</node>
	<node lat="60.573983329051636" lon="12.33116389544144" id="-21066">
		<tag k="name" v="Heggebærhølet" />
		<tag k="natural" v="water" />
		<tag k="ssr:stedsnr" v="969031" />
=======
	<node id="-325988" lat="60.6362833296" lon="12.2998222277">
		<tag k="name" v="Saubekken" />
		<tag k="ssr:stedsnr" v="785458" />
		<tag k="waterway" v="stream" />
	</node>
	<node id="-323936" lat="60.6849500032" lon="12.1018277748">
		<tag k="name" v="Gjesbekken" />
		<tag k="ssr:stedsnr" v="250014" />
		<tag k="waterway" v="stream" />
	</node>
	<node id="-323984" lat="60.9707111133" lon="12.0284555535">
		<tag k="name" v="Ulvåa" />
		<tag k="old_name" v="Ulvåa, store" />
		<tag k="ssr:stedsnr" v="252369" />
		<tag k="waterway" v="river" />
	</node>
	<node id="-325982" lat="60.7625472218" lon="12.0749750055">
		<tag k="name" v="Bukketjernet" />
		<tag k="natural" v="water" />
		<tag k="ssr:stedsnr" v="783802" />
	</node>
	<node id="-325978" lat="60.7473388933" lon="12.1402527801">
		<tag k="name" v="Buråstjernet" />
		<tag k="natural" v="water" />
		<tag k="ssr:stedsnr" v="783765" />
	</node>
	<node id="-325977" lat="60.7330166698" lon="12.1176388922">
		<tag k="name" v="Brattfossen" />
		<tag k="natural" v="waterfall" />
		<tag k="ssr:stedsnr" v="783763" />
	</node>
	<node id="-325976" lat="60.7832777776" lon="12.0862777696">
		<tag k="name" v="Lomtjernet" />
		<tag k="natural" v="water" />
		<tag k="ssr:stedsnr" v="783747" />
	</node>
	<node id="-323927" lat="60.6358638872" lon="12.1539500077">
		<tag k="name" v="Morttjernet" />
		<tag k="natural" v="water" />
		<tag k="ssr:stedsnr" v="249812" />
	</node>
	<node id="-325974" lat="60.6862972267" lon="12.4292916599">
		<tag k="name" v="Kasperbekken" />
		<tag k="ssr:stedsnr" v="783667" />
		<tag k="waterway" v="stream" />
	</node>
	<node id="-325973" lat="60.5103944425" lon="11.8167305587">
		<tag k="name" v="Blekktjernet" />
		<tag k="natural" v="water" />
		<tag k="ssr:stedsnr" v="783658" />
	</node>
	<node id="-323924" lat="60.5843583306" lon="11.8882888975">
		<tag k="name" v="Velttjernet" />
		<tag k="natural" v="water" />
		<tag k="ssr:stedsnr" v="249741" />
	</node>
	<node id="-323921" lat="60.5699111119" lon="12.3366499929">
		<tag k="name" v="Langtjern" />
		<tag k="natural" v="water" />
		<tag k="ssr:stedsnr" v="249560" />
	</node>
	<node id="-325964" lat="60.5154638881" lon="11.9113583296">
		<tag k="name" v="Komperudsdammen" />
		<tag k="ssr:stedsnr" v="783067" />
		<tag k="waterway" v="dam" />
	</node>
	<node id="-325962" lat="60.5881287962" lon="12.3646951604">
		<tag k="loc_name" v="Tjennbergstjenna" />
		<tag k="name" v="Tjernbergstjerna" />
		<tag k="natural" v="water" />
		<tag k="ssr:stedsnr" v="782640" />
		<tag k="water" v="lake" />
	</node>
	<node id="-323912" lat="60.5207111123" lon="11.8020333416">
		<tag k="alt_name" v="Fagervatn, vesle" />
		<tag k="name" v="Velt-Fagervatnet" />
		<tag k="natural" v="water" />
		<tag k="ssr:stedsnr" v="249197" />
	</node>
	<node id="-325957" lat="60.6948388844" lon="12.378900004">
		<tag k="name" v="Åbborhølet" />
		<tag k="natural" v="bay" />
		<tag k="ssr:stedsnr" v="770390" />
	</node>
	<node id="-323907" lat="60.792938891" lon="12.1939000062">
		<tag k="name" v="Gjerda" />
		<tag k="ssr:stedsnr" v="70630" />
		<tag k="waterway" v="river" />
	</node>
	<node id="-323906" lat="60.779355362" lon="12.1350410397">
		<tag k="name" v="Trolltjerna" />
		<tag k="natural" v="water" />
		<tag k="ssr:stedsnr" v="70531" />
		<tag k="water" v="lake" />
	</node>
	<node id="-323979" lat="60.537580559" lon="11.8938361124">
		<tag k="name" v="Åstjern" />
		<tag k="natural" v="water" />
		<tag k="ssr:stedsnr" v="250998" />
	</node>
	<node id="-323904" lat="60.7592583297" lon="12.187569452">
		<tag k="name" v="Rogsjøen" />
		<tag k="natural" v="water" />
		<tag k="ssr:stedsnr" v="70506" />
	</node>
	<node id="-325946" lat="60.7680333378" lon="12.2651222195">
		<tag k="name" v="Slotjernsbekken" />
		<tag k="ssr:stedsnr" v="769050" />
		<tag k="waterway" v="stream" />
	</node>
	<node id="-323897" lat="60.6391888857" lon="12.3195333264">
		<tag k="name" v="Alunbekken" />
		<tag k="ssr:stedsnr" v="68620" />
		<tag k="waterway" v="stream" />
	</node>
	<node id="-325943" lat="60.6218861087" lon="12.0233833352">
		<tag k="name" v="Kravdalsbekken" />
		<tag k="ssr:stedsnr" v="768956" />
		<tag k="waterway" v="stream" />
	</node>
	<node id="-325941" lat="60.583908333" lon="11.8918333415">
		<tag k="name" v="Siggebekken" />
		<tag k="ssr:stedsnr" v="768602" />
		<tag k="waterway" v="stream" />
	</node>
	<node id="-325939" lat="60.6872222251" lon="11.9573944402">
		<tag k="name" v="Kråknesodden" />
		<tag k="natural" v="cape" />
		<tag k="ssr:stedsnr" v="767585" />
	</node>
	<node id="-325938" lat="60.6718666708" lon="11.9660277761">
		<tag k="name" v="Svarthagabekken" />
		<tag k="ssr:stedsnr" v="767581" />
		<tag k="waterway" v="stream" />
	</node>
	<node id="-325935" lat="60.8126055598" lon="12.2877666584">
		<tag k="name" v="Elgtjernet" />
		<tag k="natural" v="water" />
		<tag k="ssr:stedsnr" v="737734" />
	</node>
	<node id="-323882" lat="60.6558000008" lon="12.4208194412">
		<tag k="alt_name" v="Motjern;Motjennet" />
		<tag k="name" v="Motjernet" />
		<tag k="natural" v="water" />
		<tag k="ssr:stedsnr" v="67618" />
	</node>
	<node id="-323881" lat="60.6302111138" lon="12.029816659">
		<tag k="name" v="Sjusætrefossen" />
		<tag k="natural" v="waterfall" />
		<tag k="ssr:stedsnr" v="241947" />
	</node>
	<node id="-325924" lat="60.7292583302" lon="12.307547213">
		<tag k="name" v="Gjerdoset" />
		<tag k="natural" v="bay" />
		<tag k="ssr:stedsnr" v="648389" />
	</node>
	<node id="-325916" lat="60.6554138885" lon="12.0116611121">
		<tag k="name" v="Pålsrudslandet" />
		<tag k="natural" v="beach" />
		<tag k="ssr:stedsnr" v="647985" />
	</node>
	<node id="-323863" lat="60.7544333336" lon="12.2636194412">
		<tag k="name" v="Gjeddbekken" />
		<tag k="ssr:stedsnr" v="239039" />
		<tag k="waterway" v="stream" />
	</node>
	<node id="-325906" lat="60.780658334" lon="12.2254055548">
		<tag k="name" v="Baskalamp" />
		<tag k="natural" v="water" />
		<tag k="ssr:stedsnr" v="646004" />
		<tag k="water" v="pond" />
	</node>
	<node id="-325905" lat="60.6597916672" lon="12.2405555516">
		<tag k="name" v="Doktorkjelda" />
		<tag k="natural" v="spring" />
		<tag k="ssr:stedsnr" v="646099" />
	</node>
	<node id="-325902" lat="60.8051499972" lon="12.2954694389">
		<tag k="alt_name" v="Fiskelaustjennet;Fiskeløstjennet" />
		<tag k="name" v="Fiskelaustjernet" />
		<tag k="natural" v="water" />
		<tag k="ssr:stedsnr" v="615741" />
	</node>
	<node id="-325901" lat="60.819844441" lon="12.2505694519">
		<tag k="name" v="Frysarskjulbekken" />
		<tag k="ssr:stedsnr" v="615734" />
		<tag k="waterway" v="stream" />
	</node>
	<node id="-325897" lat="60.7866305542" lon="12.3247750011">
		<tag k="name" v="Tellåsbekken" />
		<tag k="ssr:stedsnr" v="615703" />
		<tag k="waterway" v="stream" />
	</node>
	<node id="-325895" lat="60.796836113" lon="12.2640833394">
		<tag k="name" v="Rundabbortjernet" />
		<tag k="natural" v="water" />
		<tag k="ssr:stedsnr" v="615695" />
	</node>
	<node id="-325894" lat="60.7986138909" lon="12.2830027713">
		<tag k="name" v="Storabbortjernet" />
		<tag k="natural" v="water" />
		<tag k="ssr:stedsnr" v="615693" />
	</node>
	<node id="-325893" lat="60.8001888888" lon="12.304680555">
		<tag k="alt_name" v="Flisfallet, øvre" />
		<tag k="name" v="Øvre Flisfallet" />
		<tag k="natural" v="waterfall" />
		<tag k="ssr:stedsnr" v="615692" />
	</node>
	<node id="-325889" lat="60.7479749977" lon="12.2797888806">
		<tag k="name" v="Kampetjern" />
		<tag k="natural" v="water" />
		<tag k="ssr:stedsnr" v="613908" />
	</node>
	<node id="-325888" lat="60.5445611119" lon="12.0945305641">
		<tag k="name" v="Sorka" />
		<tag k="ssr:stedsnr" v="613902" />
		<tag k="waterway" v="stream" />
	</node>
	<node id="-325886" lat="60.5418194412" lon="12.4472833251">
		<tag k="name" v="Langtjernet" />
		<tag k="natural" v="water" />
		<tag k="ssr:stedsnr" v="613694" />
	</node>
	<node id="-325885" lat="60.557625359" lon="12.5255107635">
		<tag k="alt_name" v="Breidsjøen" />
		<tag k="name" v="Breisjøen" />
		<tag k="natural" v="water" />
		<tag k="ssr:stedsnr" v="613673" />
		<tag k="water" v="lake" />
	</node>
	<node id="-323827" lat="60.7005805556" lon="12.4312638887">
		<tag k="name" v="Rønningsbekken" />
		<tag k="ssr:stedsnr" v="224662" />
		<tag k="waterway" v="stream" />
	</node>
	<node id="-323825" lat="60.6879472194" lon="12.3975861121">
		<tag k="name" v="Sundholmen" />
		<tag k="place" v="islet" />
		<tag k="ssr:stedsnr" v="224411" />
	</node>
	<node id="-323824" lat="60.7057944485" lon="12.3596416596">
		<tag k="name" v="Merrasundet" />
		<tag k="natural" v="strait" />
		<tag k="ssr:stedsnr" v="224398" />
	</node>
	<node id="-325867" lat="60.6649138885" lon="12.1849000088">
		<tag k="name" v="Flisa" />
		<tag k="ssr:stedsnr" v="613086" />
		<tag k="waterway" v="river" />
	</node>
	<node id="-325864" lat="60.6505" lon="12.1354083398">
		<tag k="name" v="Morttjernsbekken" />
		<tag k="ssr:stedsnr" v="613072" />
		<tag k="waterway" v="stream" />
	</node>
	<node id="-325863" lat="60.7126361146" lon="12.0426472216">
		<tag k="alt_name" v="Durar'n" />
		<tag k="name" v="Duraren" />
		<tag k="ssr:stedsnr" v="613053" />
		<tag k="waterway" v="stream" />
	</node>
	<node id="-325860" lat="60.7017694418" lon="12.1358694407">
		<tag k="name" v="Haukåstjernet" />
		<tag k="natural" v="water" />
		<tag k="ssr:stedsnr" v="613038" />
	</node>
	<node id="-323810" lat="60.6659027786" lon="12.0153083361">
		<tag k="name" v="Bakåa" />
		<tag k="ssr:stedsnr" v="222973" />
		<tag k="waterway" v="stream" />
	</node>
	<node id="-325852" lat="60.631513889" lon="12.1624083417">
		<tag k="name" v="Torkilsmyrtjernet" />
		<tag k="natural" v="water" />
		<tag k="ssr:stedsnr" v="604944" />
	</node>
	<node id="-325851" lat="60.4759222217" lon="11.7590138807">
		<tag k="name" v="Bjørbekken" />
		<tag k="ssr:stedsnr" v="604918" />
		<tag k="waterway" v="stream" />
	</node>
	<node id="-325850" lat="60.6741277797" lon="11.9117361118">
		<tag k="name" v="Åmot" />
		<tag k="place" v="locality" />
		<tag k="ssr:stedsnr" v="604451" />
	</node>
	<node id="-323798" lat="60.8203527737" lon="12.2596749936">
		<tag k="name" v="Steinåa" />
		<tag k="ssr:stedsnr" v="9744" />
		<tag k="waterway" v="stream" />
	</node>
	<node id="-323797" lat="60.7684805525" lon="12.2456222293">
		<tag k="alt_name" v="Hørningen, vesle" />
		<tag k="name" v="Veslehørningen" />
		<tag k="natural" v="water" />
		<tag k="ssr:stedsnr" v="9741" />
	</node>
	<node id="-323795" lat="60.7770916685" lon="12.2461638965">
		<tag k="alt_name" v="Mauksjøen" />
		<tag k="name" v="Mjauksjøen" />
		<tag k="natural" v="water" />
		<tag k="ssr:stedsnr" v="9729" />
	</node>
	<node id="-323794" lat="60.798820475" lon="12.2693049169">
		<tag k="alt_name" v="Grettabbortjennet;Gretåbortjennet" />
		<tag k="name" v="Grettabbortjernet" />
		<tag k="natural" v="water" />
		<tag k="ssr:stedsnr" v="9728" />
	</node>
	<node id="-323793" lat="60.8438555576" lon="12.2691027824">
		<tag k="name" v="Høgsjøen" />
		<tag k="natural" v="water" />
		<tag k="ssr:stedsnr" v="9703" />
		<tag k="water" v="lake" />
	</node>
	<node id="-325839" lat="60.7405888878" lon="12.248172225">
		<tag k="name" v="Nattmeita" />
		<tag k="natural" v="water" />
		<tag k="ssr:stedsnr" v="602034" />
	</node>
	<node id="-325838" lat="60.7355500015" lon="12.2512944396">
		<tag k="name" v="Kontraskjæret" />
		<tag k="natural" v="waterfall" />
		<tag k="ssr:stedsnr" v="602031" />
	</node>
	<node id="-323784" lat="60.7845027799" lon="12.2588472263">
		<tag k="name" v="Jakobstjernet" />
		<tag k="natural" v="water" />
		<tag k="ssr:stedsnr" v="222004" />
	</node>
	<node id="-323783" lat="60.7813222178" lon="12.2411722294">
		<tag k="name" v="Svarttjernet" />
		<tag k="natural" v="water" />
		<tag k="ssr:stedsnr" v="222001" />
	</node>
	<node id="-325828" lat="60.5067500023" lon="11.7948388885">
		<tag k="name" v="Storfagervassbekken" />
		<tag k="ssr:stedsnr" v="601665" />
		<tag k="waterway" v="stream" />
	</node>
	<node id="-325826" lat="60.7684583357" lon="12.2832749997">
		<tag k="name" v="Øvre Ristjern" />
		<tag k="natural" v="water" />
		<tag k="ssr:stedsnr" v="601316" />
	</node>
	<node id="-325818" lat="60.5939166659" lon="12.0659416609">
		<tag k="name" v="Sætredammen" />
		<tag k="natural" v="water" />
		<tag k="ssr:stedsnr" v="587891" />
	</node>
	<node id="-323956" lat="60.686952775" lon="12.2439388884">
		<tag k="name" v="Storbekken" />
		<tag k="ssr:stedsnr" v="250552" />
		<tag k="waterway" v="stream" />
	</node>
	<node id="-325812" lat="60.7172694418" lon="12.294700008">
		<tag k="name" v="Kynneggbekken" />
		<tag k="ssr:stedsnr" v="587388" />
		<tag k="waterway" v="stream" />
	</node>
	<node id="-325808" lat="60.5330055594" lon="12.5879861164">
		<tag k="name" v="Brattfosstjernet" />
		<tag k="natural" v="water" />
		<tag k="ssr:stedsnr" v="586716" />
	</node>
	<node id="-325807" lat="60.7082222258" lon="12.3495750025">
		<tag k="name" v="Sterke-Perholmen" />
		<tag k="place" v="islet" />
		<tag k="ssr:stedsnr" v="586413" />
	</node>
	<node id="-325799" lat="60.663963887" lon="12.1973750058">
		<tag k="name" v="Gullholmen" />
		<tag k="natural" v="cape" />
		<tag k="ssr:stedsnr" v="586090" />
	</node>
	<node id="-325793" lat="60.7628694436" lon="12.2426833422">
		<tag k="name" v="Blanken" />
		<tag k="natural" v="water" />
		<tag k="ssr:stedsnr" v="555612" />
	</node>
	<node id="-325792" lat="60.8071444461" lon="12.2649277757">
		<tag k="name" v="Lindsjøen" />
		<tag k="natural" v="water" />
		<tag k="ssr:stedsnr" v="554781" />
		<tag k="water" v="lake" />
	</node>
	<node id="-325787" lat="60.5560388873" lon="11.8732611183">
		<tag k="name" v="Tjernsmyrtjernet" />
		<tag k="natural" v="water" />
		<tag k="ssr:stedsnr" v="553937" />
	</node>
	<node id="-325778" lat="60.5276611157" lon="12.592149997">
		<tag k="name" v="Igletjern" />
		<tag k="natural" v="water" />
		<tag k="ssr:stedsnr" v="553742" />
	</node>
	<node id="-325777" lat="60.5248055546" lon="12.5575638829">
		<tag k="alt_name" v="Rotnebergsåa" />
		<tag k="name" v="Rotbergsåa" />
		<tag k="ssr:stedsnr" v="553737" />
		<tag k="waterway" v="river" />
	</node>
	<node id="-325775" lat="60.544980094" lon="12.5738306607">
		<tag k="fixme" v="multiple name tags, choose one and add the other to alt_name" />
		<tag k="name" v="Fallsjøen;Nordre Røgden" />
		<tag k="natural" v="water" />
		<tag k="ssr:stedsnr" v="553724" />
		<tag k="water" v="lake" />
	</node>
	<node id="-325774" lat="60.5595194412" lon="12.4906611144">
		<tag k="name" v="Langfløyta" />
		<tag k="natural" v="water" />
		<tag k="ssr:stedsnr" v="553707" />
	</node>
	<node id="-325767" lat="60.5746638863" lon="12.4751305628">
		<tag k="name" v="Geittjernet" />
		<tag k="natural" v="water" />
		<tag k="ssr:stedsnr" v="553561" />
	</node>
	<node id="-325764" lat="60.6256333374" lon="12.4314333422">
		<tag k="name" v="Tyskåa" />
		<tag k="ssr:stedsnr" v="553506" />
		<tag k="waterway" v="stream" />
	</node>
	<node id="-325761" lat="60.7119333359" lon="12.0156166739">
		<tag k="alt_name" v="Ålitjernet" />
		<tag k="name" v="Årlitjernet" />
		<tag k="natural" v="water" />
		<tag k="ssr:stedsnr" v="553042" />
	</node>
	<node id="-325751" lat="60.58973963" lon="12.1540927282">
		<tag k="alt_name" v="Lauvlitjennet;Løvlitjennet" />
		<tag k="name" v="Lauvlitjernet" />
		<tag k="natural" v="water" />
		<tag k="ssr:stedsnr" v="552825" />
	</node>
	<node id="-325748" lat="60.5812500042" lon="12.1433555496">
		<tag k="name" v="Knapptjernet" />
		<tag k="natural" v="water" />
		<tag k="ssr:stedsnr" v="552809" />
	</node>
	<node id="-325743" lat="60.6300861136" lon="11.9720666694">
		<tag k="name" v="Maskindammen" />
		<tag k="natural" v="water" />
		<tag k="ssr:stedsnr" v="552852" />
	</node>
	<node id="-325741" lat="60.5667750037" lon="12.2884749982">
		<tag k="name" v="Sørmsjøen" />
		<tag k="natural" v="water" />
		<tag k="ssr:stedsnr" v="552619" />
	</node>
	<node id="-325740" lat="60.5708000013" lon="12.2314944407">
		<tag k="name" v="Malisjøen" />
		<tag k="natural" v="water" />
		<tag k="ssr:stedsnr" v="552600" />
	</node>
	<node id="-325737" lat="60.6581861108" lon="12.4145555571">
		<tag k="name" v="Tyskåa" />
		<tag k="ssr:stedsnr" v="552656" />
		<tag k="waterway" v="river" />
	</node>
	<node id="-325736" lat="60.6532861126" lon="12.3434833259">
		<tag k="name" v="Grasåsbekken" />
		<tag k="ssr:stedsnr" v="552653" />
		<tag k="waterway" v="stream" />
	</node>
	<node id="-325734" lat="60.5862361145" lon="12.1514111197">
		<tag k="name" v="Løvlibekken" />
		<tag k="ssr:stedsnr" v="544886" />
		<tag k="waterway" v="stream" />
	</node>
	<node id="-325730" lat="60.5228916634" lon="11.7250416585">
		<tag k="name" v="Holbekken" />
		<tag k="ssr:stedsnr" v="544933" />
		<tag k="waterway" v="stream" />
	</node>
	<node id="-325721" lat="60.5458777772" lon="11.775358329">
		<tag k="name" v="Svanbekken" />
		<tag k="ssr:stedsnr" v="543565" />
		<tag k="waterway" v="stream" />
	</node>
	<node id="-325713" lat="60.7491777757" lon="12.2392388819">
		<tag k="name" v="Vesle-Serven" />
		<tag k="natural" v="water" />
		<tag k="ssr:stedsnr" v="542040" />
	</node>
	<node id="-325712" lat="60.7357166677" lon="12.2655694437">
		<tag k="name" v="Brattfossen" />
		<tag k="natural" v="waterfall" />
		<tag k="ssr:stedsnr" v="542032" />
	</node>
	<node id="-325707" lat="60.6104583291" lon="12.3879694508">
		<tag k="name" v="Grenbekken" />
		<tag k="ssr:stedsnr" v="540484" />
		<tag k="waterway" v="stream" />
	</node>
	<node id="-325703" lat="60.6614111119" lon="12.2095805567">
		<tag k="name" v="Heggbærholmen" />
		<tag k="place" v="islet" />
		<tag k="ssr:stedsnr" v="540125" />
	</node>
	<node id="-325700" lat="60.5126888853" lon="11.7292972173">
		<tag k="name" v="Store Tannsjøen" />
		<tag k="natural" v="water" />
		<tag k="ssr:stedsnr" v="531403" />
		<tag k="water" v="lake" />
	</node>
	<node id="-325694" lat="60.689713892" lon="12.3888999972">
		<tag k="name" v="Krusvika" />
		<tag k="natural" v="bay" />
		<tag k="ssr:stedsnr" v="527433" />
	</node>
	<node id="-325687" lat="60.5653999975" lon="12.4487916628">
		<tag k="name" v="Elgbekken" />
		<tag k="ssr:stedsnr" v="527331" />
		<tag k="waterway" v="stream" />
	</node>
	<node id="-325677" lat="60.523530554" lon="11.9474944513">
		<tag k="name" v="Katisnebben" />
		<tag k="natural" v="cape" />
		<tag k="ssr:stedsnr" v="525578" />
	</node>
	<node id="-325672" lat="60.7862861085" lon="12.0686555575">
		<tag k="name" v="Måsåfløgsjøen" />
		<tag k="natural" v="water" />
		<tag k="ssr:stedsnr" v="434531" />
	</node>
	<node id="-325668" lat="60.5975694458" lon="11.838277774">
		<tag k="name" v="Tverråa" />
		<tag k="ssr:stedsnr" v="433964" />
		<tag k="waterway" v="river" />
	</node>
	<node id="-325663" lat="60.7239805521" lon="12.2856861118">
		<tag k="name" v="Blandtjern" />
		<tag k="natural" v="water" />
		<tag k="ssr:stedsnr" v="432913" />
	</node>
	<node id="-325645" lat="60.5680833347" lon="12.4132194396">
		<tag k="name" v="Sætersjøen" />
		<tag k="natural" v="water" />
		<tag k="ssr:stedsnr" v="432520" />
		<tag k="water" v="lake" />
	</node>
	<node id="-323791" lat="60.5811916664" lon="12.2042111091">
		<tag k="name" v="Gravholbekken" />
		<tag k="ssr:stedsnr" v="222226" />
		<tag k="waterway" v="stream" />
	</node>
	<node id="-325642" lat="60.6239444412" lon="12.4922166708">
		<tag k="name" v="Lorttjernet" />
		<tag k="natural" v="water" />
		<tag k="ssr:stedsnr" v="432495" />
	</node>
	<node id="-325637" lat="60.5493749976" lon="12.5101527853">
		<tag k="name" v="Abbortjernet" />
		<tag k="natural" v="water" />
		<tag k="ssr:stedsnr" v="432682" />
	</node>
	<node id="-325636" lat="60.5359972239" lon="12.3372555525">
		<tag k="alt_name" v="Aursjøen, store" />
		<tag k="name" v="Store Aursjøen" />
		<tag k="natural" v="water" />
		<tag k="ssr:stedsnr" v="432679" />
	</node>
	<node id="-325635" lat="60.5577638889" lon="12.3387166583">
		<tag k="name" v="Langfløyta" />
		<tag k="natural" v="water" />
		<tag k="ssr:stedsnr" v="432673" />
>>>>>>> e1d4bc35ff8a6074a6f2e91616a996b547c36f15
	</node>
</osm>
