<?xml version="1.0" encoding="UTF-8"?>
<osm generator="osmapis" version="0.6">
	<node id="-323583" lat="60.5352666668" lon="12.2792527732">
		<tag k="name" v="Smalmyrdalen" />
		<tag k="natural" v="wetland" />
		<tag k="ssr:stedsnr" v="101478" />
	</node>
	<node id="-323582" lat="60.5539305538" lon="12.2623222197">
		<tag k="name" v="Sjøbergsmyra" />
		<tag k="natural" v="wetland" />
		<tag k="ssr:stedsnr" v="101460" />
	</node>
	<node id="-323581" lat="60.8423805529" lon="12.3139361184">
		<tag k="name" v="Lekkaskjæra" />
		<tag k="place" v="locality" />
		<tag k="ssr:stedsnr" v="101419" />
	</node>
	<node id="-323580" lat="60.7057416657" lon="12.3958305533">
		<tag k="name" v="Odlingsmyra" />
		<tag k="natural" v="wetland" />
		<tag k="ssr:stedsnr" v="101395" />
	</node>
	<node id="-323579" lat="60.5753027818" lon="12.2137888968">
		<tag k="name" v="Østre Gjeinstigmyra" />
		<tag k="natural" v="wetland" />
		<tag k="ssr:stedsnr" v="101202" />
	</node>
	<node id="-323576" lat="60.6493222198" lon="11.9637138837">
		<tag k="name" v="Sletthellmyrene" />
		<tag k="natural" v="wetland" />
		<tag k="ssr:stedsnr" v="100583" />
	</node>
	<node id="-323573" lat="60.6543555536" lon="12.3361861135">
		<tag k="name" v="Brannfeltet" />
		<tag k="place" v="locality" />
		<tag k="ssr:stedsnr" v="100431" />
	</node>
	<node id="-323563" lat="60.7453277777" lon="12.3205138954">
		<tag k="name" v="Glorvikmyra" />
		<tag k="natural" v="wetland" />
		<tag k="ssr:stedsnr" v="68910" />
	</node>
	<node id="-323557" lat="60.534449996" lon="12.4898194466">
		<tag k="alt_name" v="Hevåso" />
		<tag k="name" v="Hevosso" />
		<tag k="natural" v="wetland" />
		<tag k="ssr:stedsnr" v="68731" />
	</node>
	<node id="-323550" lat="60.7280555597" lon="12.0930333346">
		<tag k="name" v="Eriksmyra" />
		<tag k="natural" v="wetland" />
		<tag k="ssr:stedsnr" v="68195" />
	</node>
	<node id="-323543" lat="60.6856888894" lon="12.0813944488">
		<tag k="name" v="Gjesmyra" />
		<tag k="natural" v="wetland" />
		<tag k="ssr:stedsnr" v="68014" />
	</node>
	<node id="-324269" lat="60.7398472178" lon="12.1397722241">
		<tag k="name" v="Brenninga" />
		<tag k="place" v="locality" />
		<tag k="ssr:stedsnr" v="601749" />
	</node>
	<node id="-323518" lat="60.5734083362" lon="12.0641944493">
		<tag k="name" v="Krokmyra" />
		<tag k="natural" v="wetland" />
		<tag k="ssr:stedsnr" v="57890" />
	</node>
	<node id="-323517" lat="60.5820416688" lon="12.3710972137">
		<tag k="name" v="Storhæsmyra" />
		<tag k="natural" v="wetland" />
		<tag k="ssr:stedsnr" v="57692" />
	</node>
	<node id="-323515" lat="60.6628638886" lon="12.4474972267">
		<tag k="name" v="Furubergsmyra" />
		<tag k="natural" v="wetland" />
		<tag k="ssr:stedsnr" v="57635" />
	</node>
	<node id="-323510" lat="60.7403722239" lon="12.31561112">
		<tag k="name" v="Reinmoen" />
		<tag k="place" v="locality" />
		<tag k="ssr:stedsnr" v="57348" />
	</node>
	<node id="-323504" lat="60.7349972241" lon="12.1527472157">
		<tag k="name" v="Vestre Buråsen" />
		<tag k="place" v="locality" />
		<tag k="ssr:stedsnr" v="55737" />
	</node>
	<node id="-323500" lat="60.5678722199" lon="12.0245472191">
		<tag k="name" v="Kvesetenga" />
		<tag k="place" v="locality" />
		<tag k="ssr:stedsnr" v="55480" />
	</node>
	<node id="-323498" lat="60.6133250021" lon="12.3342805502">
		<tag k="name" v="Dansmyra" />
		<tag k="natural" v="wetland" />
		<tag k="ssr:stedsnr" v="55467" />
	</node>
	<node id="-323496" lat="60.6152138927" lon="12.4554333297">
		<tag k="name" v="Mørkmyra" />
		<tag k="natural" v="wetland" />
		<tag k="ssr:stedsnr" v="55245" />
	</node>
	<node id="-323495" lat="60.6121638927" lon="12.4026611095">
		<tag k="name" v="Grasmyra" />
		<tag k="natural" v="wetland" />
		<tag k="ssr:stedsnr" v="55243" />
	</node>
	<node id="-323493" lat="60.531902777" lon="11.8616138826">
		<tag k="name" v="Tagmyra" />
		<tag k="natural" v="wetland" />
		<tag k="ssr:stedsnr" v="55631" />
	</node>
	<node id="-323492" lat="60.4986888859" lon="11.8693638867">
		<tag k="name" v="Stormyra" />
		<tag k="natural" v="wetland" />
		<tag k="ssr:stedsnr" v="55628" />
	</node>
	<node id="-323490" lat="60.591944443" lon="12.2161194395">
		<tag k="name" v="Gravholen" />
		<tag k="place" v="locality" />
		<tag k="ssr:stedsnr" v="55229" />
	</node>
	<node id="-323484" lat="60.6837444455" lon="12.3463777733">
		<tag k="name" v="Sautjernsmyra" />
		<tag k="natural" v="wetland" />
		<tag k="ssr:stedsnr" v="42410" />
	</node>
	<node id="-323480" lat="60.7303083343" lon="12.3560861182">
		<tag k="name" v="Nesturønn" />
		<tag k="natural" v="wetland" />
		<tag k="ssr:stedsnr" v="42364" />
	</node>
	<node id="-323474" lat="60.6758972209" lon="12.0531777716">
		<tag k="alt_name" v="Lindtjennsmyra" />
		<tag k="name" v="Lindtjernsmyra" />
		<tag k="natural" v="wetland" />
		<tag k="ssr:stedsnr" v="40895" />
	</node>
	<node id="-323473" lat="60.6691194415" lon="12.1273666693">
		<tag k="name" v="Eriksmyra" />
		<tag k="natural" v="wetland" />
		<tag k="ssr:stedsnr" v="40880" />
	</node>
	<node id="-323449" lat="60.6331000029" lon="12.1705250008">
		<tag k="name" v="Torkilsmyra" />
		<tag k="natural" v="wetland" />
		<tag k="ssr:stedsnr" v="7804" />
	</node>
	<node id="-322531" lat="60.6268583335" lon="12.2956166667">
		<tag k="name" v="Sjusætermyra" />
		<tag k="natural" v="wetland" />
		<tag k="ssr:stedsnr" v="298466" />
	</node>
	<node id="-323396" lat="60.6543749999" lon="12.1353444481">
		<tag k="name" v="Trangsmyra" />
		<tag k="natural" v="wetland" />
		<tag k="ssr:stedsnr" v="969814" />
	</node>
	<node id="-323395" lat="60.5746416681" lon="12.3144194368">
		<tag k="name" v="Risfellmyra" />
		<tag k="natural" v="wetland" />
		<tag k="ssr:stedsnr" v="969526" />
	</node>
	<node id="-323394" lat="60.6889472183" lon="12.279772226">
		<tag k="name" v="Geitmyra" />
		<tag k="natural" v="wetland" />
		<tag k="ssr:stedsnr" v="969076" />
	</node>
	<node id="-323392" lat="60.6416083362" lon="12.2642861026">
		<tag k="name" v="Søkkediet" />
		<tag k="natural" v="wetland" />
		<tag k="ssr:stedsnr" v="968167" />
	</node>
	<node id="-323384" lat="60.5778250044" lon="12.3741083352">
		<tag k="name" v="Graslimyra" />
		<tag k="natural" v="wetland" />
		<tag k="ssr:stedsnr" v="965506" />
	</node>
	<node id="-323381" lat="60.8067472209" lon="12.1963027848">
		<tag k="historic" v="shieling" />
		<tag k="name" v="Nordsætra" />
		<tag k="place" v="locality" />
		<tag k="ssr:stedsnr" v="965010" />
	</node>
	<node id="-323380" lat="60.8004111088" lon="12.1952944376">
		<tag k="historic" v="shieling" />
		<tag k="name" v="Kokkinvollen" />
		<tag k="place" v="locality" />
		<tag k="ssr:stedsnr" v="965007" />
	</node>
	<node id="-323365" lat="60.6344487827" lon="12.1419044481">
		<tag k="alt_name" v="Gørtjernsmyra;Gørrtjennsmyra" />
		<tag k="name" v="Gørrtjernsmyra" />
		<tag k="natural" v="wetland" />
		<tag k="ssr:stedsnr" v="917815" />
	</node>
	<node id="-323347" lat="60.64428611" lon="12.4825277777">
		<tag k="name" v="Pålsmyra" />
		<tag k="natural" v="wetland" />
		<tag k="ssr:stedsnr" v="906663" />
	</node>
	<node id="-323346" lat="60.6330083328" lon="12.301050001">
		<tag k="name" v="Startrættarmyrholtet" />
		<tag k="place" v="locality" />
		<tag k="ssr:stedsnr" v="906504" />
	</node>
	<node id="-323338" lat="60.5640750002" lon="12.2018499948">
		<tag k="name" v="Gråhesten" />
		<tag k="natural" v="stone" />
		<tag k="ssr:stedsnr" v="950236" />
	</node>
	<node id="-323336" lat="60.6307527794" lon="12.2562944377">
		<tag k="name" v="Stormyra" />
		<tag k="natural" v="wetland" />
		<tag k="ssr:stedsnr" v="950163" />
	</node>
	<node id="-323335" lat="60.6589138922" lon="12.2396333273">
		<tag k="name" v="Sotbråtan" />
		<tag k="place" v="locality" />
		<tag k="ssr:stedsnr" v="950140" />
	</node>
	<node id="-323311" lat="60.6202250043" lon="12.2638750009">
		<tag k="name" v="Jonsokmyra" />
		<tag k="natural" v="wetland" />
		<tag k="ssr:stedsnr" v="857508" />
	</node>
	<node id="-323309" lat="60.7310027789" lon="12.0317416695">
		<tag k="name" v="Baldersmyra" />
		<tag k="natural" v="wetland" />
		<tag k="ssr:stedsnr" v="857207" />
	</node>
	<node id="-323300" lat="60.604158335" lon="12.4344333362">
		<tag k="name" v="Rundmyra" />
		<tag k="natural" v="wetland" />
		<tag k="ssr:stedsnr" v="856573" />
	</node>
	<node id="-323292" lat="60.7079555535" lon="12.1563027703">
		<tag k="name" v="Sibirien" />
		<tag k="place" v="locality" />
		<tag k="ssr:stedsnr" v="844844" />
	</node>
	<node id="-323287" lat="60.8426388864" lon="12.2914916673">
		<tag k="name" v="Pukskjæra" />
		<tag k="place" v="locality" />
		<tag k="ssr:stedsnr" v="829435" />
	</node>
	<node id="-323285" lat="60.7112638848" lon="12.3437583351">
		<tag k="name" v="Pillismyra" />
		<tag k="natural" v="wetland" />
		<tag k="ssr:stedsnr" v="829406" />
	</node>
	<node id="-323255" lat="60.8145583366" lon="12.17008056">
		<tag k="name" v="Veltdigerheden" />
		<tag k="place" v="locality" />
		<tag k="ssr:stedsnr" v="919530" />
	</node>
	<node id="-322504" lat="60.5732111099" lon="11.8327694454">
		<tag k="name" v="Mungmyra" />
		<tag k="natural" v="wetland" />
		<tag k="ssr:stedsnr" v="285190" />
	</node>
	<node id="-323223" lat="60.709091669" lon="12.0897250005">
		<tag k="name" v="Rishola" />
		<tag k="place" v="locality" />
		<tag k="ssr:stedsnr" v="917040" />
	</node>
	<node id="-323215" lat="60.5666805566" lon="12.4897527843">
		<tag k="name" v="Skjulmyra" />
		<tag k="natural" v="wetland" />
		<tag k="ssr:stedsnr" v="770304" />
	</node>
	<node id="-323214" lat="60.56788333" lon="12.5098944368">
		<tag k="name" v="Mottimyra" />
		<tag k="natural" v="wetland" />
		<tag k="ssr:stedsnr" v="770303" />
	</node>
	<node id="-323210" lat="60.5336138925" lon="12.2818138975">
		<tag k="name" v="Smalmyra" />
		<tag k="natural" v="wetland" />
		<tag k="ssr:stedsnr" v="768470" />
	</node>
	<node id="-323207" lat="60.6311805534" lon="12.2670972205">
		<tag k="name" v="Sloen" />
		<tag k="place" v="locality" />
		<tag k="ssr:stedsnr" v="768135" />
	</node>
	<node id="-323203" lat="60.5976638934" lon="12.112024994">
		<tag k="name" v="Stormyra" />
		<tag k="natural" v="wetland" />
		<tag k="ssr:stedsnr" v="909888" />
	</node>
	<node id="-323199" lat="60.7215249984" lon="12.2127638822">
		<tag k="name" v="Stormyra" />
		<tag k="natural" v="wetland" />
		<tag k="ssr:stedsnr" v="909094" />
	</node>
	<node id="-323197" lat="60.6837222238" lon="12.2668027737">
		<tag k="name" v="Sleggemyra" />
		<tag k="natural" v="wetland" />
		<tag k="ssr:stedsnr" v="909078" />
	</node>
	<node id="-324543" lat="60.7144138919" lon="12.0806500019">
		<tag k="name" v="Hemsætermyra" />
		<tag k="natural" v="wetland" />
		<tag k="ssr:stedsnr" v="844774" />
	</node>
	<node id="-323192" lat="60.6263555573" lon="12.1902555537">
		<tag k="name" v="Sjømyra" />
		<tag k="natural" v="wetland" />
		<tag k="ssr:stedsnr" v="908156" />
	</node>
	<node id="-323188" lat="60.5417666691" lon="11.7889805603">
		<tag k="name" v="Svartnakken" />
		<tag k="place" v="locality" />
		<tag k="ssr:stedsnr" v="907526" />
	</node>
	<node id="-323186" lat="60.5519916703" lon="11.8031361055">
		<tag k="name" v="Hestberget" />
		<tag k="place" v="locality" />
		<tag k="ssr:stedsnr" v="907520" />
	</node>
	<node id="-323183" lat="60.8420722201" lon="12.2593416701">
		<tag k="name" v="Skjulmyrbrenna" />
		<tag k="place" v="locality" />
		<tag k="ssr:stedsnr" v="907250" />
	</node>
	<node id="-323177" lat="60.7524138906" lon="12.3285138959">
		<tag k="name" v="Jonsokholbrenna" />
		<tag k="place" v="locality" />
		<tag k="ssr:stedsnr" v="906369" />
	</node>
	<node id="-323173" lat="60.6415388908" lon="12.4234444393">
		<tag k="name" v="Kasklandsmyra" />
		<tag k="natural" v="wetland" />
		<tag k="ssr:stedsnr" v="905690" />
	</node>
	<node id="-323172" lat="60.5920416649" lon="12.2279583316">
		<tag k="name" v="Nordre Stormyra" />
		<tag k="natural" v="wetland" />
		<tag k="ssr:stedsnr" v="905187" />
	</node>
	<node id="-323171" lat="60.5059222191" lon="11.8859083354">
		<tag k="name" v="Storholtmyra" />
		<tag k="natural" v="wetland" />
		<tag k="ssr:stedsnr" v="905079" />
	</node>
	<node id="-323167" lat="60.718500002" lon="12.2768361055">
		<tag k="name" v="Lågarennet" />
		<tag k="natural" v="wetland" />
		<tag k="ssr:stedsnr" v="727031" />
	</node>
	<node id="-323165" lat="60.6370333332" lon="12.1887444521">
		<tag k="name" v="Gosen" />
		<tag k="place" v="locality" />
		<tag k="ssr:stedsnr" v="726161" />
	</node>
	<node id="-323164" lat="60.6457166696" lon="12.4883249925">
		<tag k="name" v="Pålsmyrholmen" />
		<tag k="place" v="locality" />
		<tag k="ssr:stedsnr" v="724625" />
	</node>
	<node id="-323162" lat="60.6018277746" lon="12.2284972231">
		<tag k="name" v="Ruskhaugmyra" />
		<tag k="natural" v="wetland" />
		<tag k="ssr:stedsnr" v="722215" />
	</node>
	<node id="-323161" lat="60.5962638846" lon="12.235677781">
		<tag k="name" v="Bjerkesmyra" />
		<tag k="natural" v="wetland" />
		<tag k="ssr:stedsnr" v="722212" />
	</node>
	<node id="-323160" lat="60.8345499991" lon="12.2693666591">
		<tag k="name" v="Brursteinen" />
		<tag k="natural" v="stone" />
		<tag k="ssr:stedsnr" v="722013" />
	</node>
	<node id="-323157" lat="60.5622972192" lon="12.4827583266">
		<tag k="name" v="Hansmyra" />
		<tag k="natural" v="wetland" />
		<tag k="ssr:stedsnr" v="709333" />
	</node>
	<node id="-323151" lat="60.6978333359" lon="12.411705547">
		<tag k="name" v="Nybråtan" />
		<tag k="place" v="locality" />
		<tag k="ssr:stedsnr" v="891724" />
	</node>
	<node id="-323145" lat="60.5929555581" lon="12.4054666593">
		<tag k="name" v="Guskvernmyra" />
		<tag k="natural" v="wetland" />
		<tag k="ssr:stedsnr" v="891373" />
	</node>
	<node id="-323141" lat="60.7627138829" lon="12.2078792335">
		<tag k="historic" v="shieling" />
		<tag k="name" v="Lakomekvollen" />
		<tag k="place" v="locality" />
		<tag k="ssr:stedsnr" v="891064" />
	</node>
	<node id="-323137" lat="60.6811527778" lon="12.0714138969">
		<tag k="name" v="Jugarhans" />
		<tag k="place" v="locality" />
		<tag k="ssr:stedsnr" v="890874" />
	</node>
	<node id="-323133" lat="60.5408472234" lon="12.492869448">
		<tag k="name" v="Nikkivaisso" />
		<tag k="natural" v="wetland" />
		<tag k="ssr:stedsnr" v="891943" />
	</node>
	<node id="-323131" lat="60.5605055594" lon="12.4135944523">
		<tag k="name" v="Gjertrudmyra" />
		<tag k="natural" v="wetland" />
		<tag k="ssr:stedsnr" v="891923" />
	</node>
	<node id="-322483" lat="60.7048194461" lon="12.2905888802">
		<tag k="name" v="Drømerholmyra" />
		<tag k="natural" v="wetland" />
		<tag k="ssr:stedsnr" v="284372" />
	</node>
	<node id="-323112" lat="60.6114388929" lon="12.1399527804">
		<tag k="name" v="Brusen" />
		<tag k="place" v="locality" />
		<tag k="ssr:stedsnr" v="674774" />
	</node>
	<node id="-323098" lat="60.7319055599" lon="12.2739305484">
		<tag k="name" v="Kremmersemoen" />
		<tag k="place" v="locality" />
		<tag k="ssr:stedsnr" v="666036" />
	</node>
	<node id="-323088" lat="60.5931472192" lon="12.3813527839">
		<tag k="name" v="Fallbekkhola" />
		<tag k="place" v="locality" />
		<tag k="ssr:stedsnr" v="662508" />
	</node>
	<node id="-322475" lat="60.578355557" lon="12.1902361031">
		<tag k="name" v="Småmyrene" />
		<tag k="natural" v="wetland" />
		<tag k="ssr:stedsnr" v="283213" />
	</node>
	<node id="-323031" lat="60.6340194441" lon="12.5055833248">
		<tag k="alt_name" v="Klintmyra" />
		<tag k="name" v="Klintmyrene" />
		<tag k="natural" v="wetland" />
		<tag k="ssr:stedsnr" v="735487" />
	</node>
	<node id="-323027" lat="60.5494138848" lon="11.7728388901">
		<tag k="alt_name" v="Steinløsholen" />
		<tag k="name" v="Steinlausholen" />
		<tag k="place" v="locality" />
		<tag k="ssr:stedsnr" v="735128" />
	</node>
	<node id="-323022" lat="60.6520944422" lon="12.2144944382">
		<tag k="name" v="Langmyra" />
		<tag k="natural" v="wetland" />
		<tag k="ssr:stedsnr" v="735057" />
	</node>
	<node id="-323020" lat="60.7018305588" lon="12.0593499937">
		<tag k="name" v="Vålåsmyra" />
		<tag k="natural" v="wetland" />
		<tag k="ssr:stedsnr" v="735031" />
	</node>
	<node id="-323001" lat="60.6510527795" lon="12.4187500013">
		<tag k="name" v="Søndre Momyra" />
		<tag k="natural" v="wetland" />
		<tag k="ssr:stedsnr" v="299683" />
	</node>
	<node id="-322998" lat="60.5639444441" lon="12.1299583297">
		<tag k="name" v="Grågåsmyra" />
		<tag k="natural" v="wetland" />
		<tag k="ssr:stedsnr" v="727878" />
	</node>
	<node id="-322997" lat="60.5745416639" lon="12.1470361167">
		<tag k="name" v="Jonsokmyra" />
		<tag k="natural" v="wetland" />
		<tag k="ssr:stedsnr" v="727872" />
	</node>
	<node id="-322996" lat="60.6558527736" lon="12.1562500035">
		<tag k="name" v="Butteråsskjæra" />
		<tag k="place" v="locality" />
		<tag k="ssr:stedsnr" v="727815" />
	</node>
	<node id="-322995" lat="60.5775111144" lon="12.3314333395">
		<tag k="name" v="Dulpemyra" />
		<tag k="natural" v="wetland" />
		<tag k="ssr:stedsnr" v="727503" />
	</node>
	<node id="-322994" lat="60.731747223" lon="12.2415861193">
		<tag k="name" v="Karibrennstupen" />
		<tag k="place" v="locality" />
		<tag k="ssr:stedsnr" v="727094" />
	</node>
	<node id="-322981" lat="60.6300638884" lon="12.4091666696">
		<tag k="name" v="Sandtjerna" />
		<tag k="natural" v="wetland" />
		<tag k="ssr:stedsnr" v="722669" />
	</node>
	<node id="-322978" lat="60.5866416675" lon="12.3371666606">
		<tag k="name" v="Breisand" />
		<tag k="place" v="locality" />
		<tag k="ssr:stedsnr" v="722497" />
	</node>
	<node id="-322976" lat="60.5939361139" lon="12.3957500076">
		<tag k="name" v="Guskovermyrene" />
		<tag k="natural" v="wetland" />
		<tag k="ssr:stedsnr" v="722490" />
	</node>
	<node id="-322975" lat="60.6180916662" lon="12.3181305524">
		<tag k="name" v="Sørsåsen" />
		<tag k="place" v="locality" />
		<tag k="ssr:stedsnr" v="722481" />
	</node>
	<node id="-322974" lat="60.7748083302" lon="12.2995694514">
		<tag k="name" v="Sisselrotsteinen" />
		<tag k="natural" v="stone" />
		<tag k="ssr:stedsnr" v="722331" />
	</node>
	<node id="-322973" lat="60.5942166644" lon="12.1779222291">
		<tag k="name" v="Bokkeskjulmyra" />
		<tag k="natural" v="wetland" />
		<tag k="ssr:stedsnr" v="722247" />
	</node>
	<node id="-322950" lat="60.7453027751" lon="12.3582138944">
		<tag k="name" v="Kornstadbråten" />
		<tag k="place" v="locality" />
		<tag k="ssr:stedsnr" v="604408" />
	</node>
	<node id="-322945" lat="60.8722388874" lon="12.2139555544">
		<tag k="name" v="Flisbrufossmyra" />
		<tag k="natural" v="wetland" />
		<tag k="ssr:stedsnr" v="601225" />
	</node>
	<node id="-322944" lat="60.5983749965" lon="12.1910194395">
		<tag k="name" v="Eftasberget" />
		<tag k="place" v="locality" />
		<tag k="ssr:stedsnr" v="601210" />
	</node>
	<node id="-322942" lat="60.5984388883" lon="12.2180333302">
		<tag k="name" v="Gryta" />
		<tag k="natural" v="wetland" />
		<tag k="ssr:stedsnr" v="601205" />
	</node>
	<node id="-322941" lat="60.5435500018" lon="12.3945388861">
		<tag k="name" v="Aurbekkmyra" />
		<tag k="natural" v="wetland" />
		<tag k="ssr:stedsnr" v="601017" />
	</node>
	<node id="-322939" lat="60.8069194435" lon="12.2108666605">
		<tag k="name" v="Jonsokmyra" />
		<tag k="natural" v="wetland" />
		<tag k="ssr:stedsnr" v="601005" />
	</node>
	<node id="-322926" lat="60.5378472186" lon="12.2750055577">
		<tag k="name" v="Svingmyra" />
		<tag k="natural" v="wetland" />
		<tag k="ssr:stedsnr" v="586488" />
	</node>
	<node id="-322920" lat="60.617672218" lon="12.0855500006">
		<tag k="name" v="Trettarhøgda" />
		<tag k="place" v="locality" />
		<tag k="ssr:stedsnr" v="709936" />
	</node>
	<node id="-322916" lat="60.6955472198" lon="12.4345916667">
		<tag k="name" v="Leikmyra" />
		<tag k="natural" v="wetland" />
		<tag k="ssr:stedsnr" v="709678" />
	</node>
	<node id="-322912" lat="60.5542416681" lon="12.180358338">
		<tag k="name" v="Østre Krokmyra" />
		<tag k="natural" v="wetland" />
		<tag k="ssr:stedsnr" v="709499" />
	</node>
	<node id="-322907" lat="60.6934000044" lon="12.2836888806">
		<tag k="name" v="Evensmyra" />
		<tag k="natural" v="wetland" />
		<tag k="ssr:stedsnr" v="709374" />
	</node>
	<node id="-322906" lat="60.7715055567" lon="12.2099999929">
		<tag k="name" v="Østre Rogberget" />
		<tag k="place" v="locality" />
		<tag k="ssr:stedsnr" v="709069" />
	</node>
	<node id="-322904" lat="60.7656361078" lon="12.1923138934">
		<tag k="name" v="Vestre Rogberget" />
		<tag k="place" v="locality" />
		<tag k="ssr:stedsnr" v="709060" />
	</node>
	<node id="-322903" lat="60.6646944469" lon="11.971730562">
		<tag k="name" v="Gørrtjernsmyra" />
		<tag k="natural" v="wetland" />
		<tag k="ssr:stedsnr" v="708990" />
	</node>
	<node id="-322900" lat="60.6792694482" lon="12.1163166755">
		<tag k="name" v="Østre Skansen" />
		<tag k="place" v="locality" />
		<tag k="ssr:stedsnr" v="708839" />
	</node>
	<node id="-322899" lat="60.5581638849" lon="12.2570555477">
		<tag k="name" v="Grasbergsmyra" />
		<tag k="natural" v="wetland" />
		<tag k="ssr:stedsnr" v="708497" />
	</node>
	<node id="-322898" lat="60.5467305557" lon="12.2622249989">
		<tag k="name" v="Dølpa" />
		<tag k="natural" v="wetland" />
		<tag k="ssr:stedsnr" v="708479" />
	</node>
	<node id="-322896" lat="60.5925527737" lon="11.9459305555">
		<tag k="name" v="Ny-Jord" />
		<tag k="place" v="locality" />
		<tag k="ssr:stedsnr" v="707615" />
	</node>
	<node id="-322890" lat="60.6509611144" lon="12.3706138889">
		<tag k="name" v="Lauvbråtabrenna" />
		<tag k="place" v="locality" />
		<tag k="ssr:stedsnr" v="707466" />
	</node>
	<node id="-322889" lat="60.6633972256" lon="12.372883342">
		<tag k="name" v="Grasåsmyra" />
		<tag k="natural" v="wetland" />
		<tag k="ssr:stedsnr" v="707463" />
	</node>
	<node id="-322888" lat="60.6661722245" lon="12.3492861071">
		<tag k="name" v="Grasåsbrenna" />
		<tag k="place" v="locality" />
		<tag k="ssr:stedsnr" v="707462" />
	</node>
	<node id="-322886" lat="60.5724527797" lon="12.1989777733">
		<tag k="name" v="Øvre Kvennmyra" />
		<tag k="natural" v="wetland" />
		<tag k="ssr:stedsnr" v="707237" />
	</node>
	<node id="-322885" lat="60.6093583353" lon="12.2358444492">
		<tag k="name" v="Bjerkesmyra" />
		<tag k="natural" v="wetland" />
		<tag k="ssr:stedsnr" v="707197" />
	</node>
	<node id="-322873" lat="60.6373277766" lon="12.4691638888">
		<tag k="name" v="Smalmyra" />
		<tag k="natural" v="wetland" />
		<tag k="ssr:stedsnr" v="299648" />
	</node>
	<node id="-322871" lat="60.596197223" lon="12.0324583299">
		<tag k="name" v="Bjerkesenga" />
		<tag k="place" v="locality" />
		<tag k="ssr:stedsnr" v="299541" />
	</node>
	<node id="-322866" lat="60.7327944477" lon="11.9688999923">
		<tag k="name" v="Vermland" />
		<tag k="place" v="locality" />
		<tag k="ssr:stedsnr" v="544425" />
	</node>
	<node id="-322863" lat="60.680880554" lon="12.1983194365">
		<tag k="name" v="Brattlia" />
		<tag k="place" v="locality" />
		<tag k="ssr:stedsnr" v="543705" />
	</node>
	<node id="-322859" lat="60.6271638854" lon="12.4995444414">
		<tag k="name" v="Bjørnehimyra" />
		<tag k="natural" v="wetland" />
		<tag k="ssr:stedsnr" v="542614" />
	</node>
	<node id="-322857" lat="60.7102361111" lon="12.1263888868">
		<tag k="name" v="Melbymyra" />
		<tag k="natural" v="wetland" />
		<tag k="ssr:stedsnr" v="540832" />
	</node>
	<node id="-322854" lat="60.6750972223" lon="12.3583583407">
		<tag k="name" v="Grønholen" />
		<tag k="natural" v="wetland" />
		<tag k="ssr:stedsnr" v="527423" />
	</node>
	<node id="-322850" lat="60.6203138896" lon="12.2136083267">
		<tag k="name" v="Rundmyra" />
		<tag k="natural" v="wetland" />
		<tag k="ssr:stedsnr" v="525187" />
	</node>
	<node id="-322839" lat="60.8144250005" lon="12.2604916744">
		<tag k="name" v="Lindbergskjerka" />
		<tag k="natural" v="stone" />
		<tag k="ssr:stedsnr" v="676741" />
	</node>
	<node id="-322836" lat="60.6699722211" lon="12.3547416694">
		<tag k="alt_name" v="Langtrøya" />
		<tag k="name" v="Langtrøa" />
		<tag k="natural" v="wetland" />
		<tag k="ssr:stedsnr" v="675605" />
	</node>
	<node id="-322821" lat="60.546194447" lon="12.4397250015">
		<tag k="name" v="Spikbrenna" />
		<tag k="place" v="locality" />
		<tag k="ssr:stedsnr" v="674713" />
	</node>
	<node id="-322802" lat="60.6911083306" lon="12.2768166612">
		<tag k="name" v="Myrholmyra" />
		<tag k="natural" v="wetland" />
		<tag k="ssr:stedsnr" v="484068" />
	</node>
	<node id="-322797" lat="60.617672222" lon="12.4007499955">
		<tag k="name" v="Storsteinsholen" />
		<tag k="place" v="locality" />
		<tag k="ssr:stedsnr" v="480213" />
	</node>
	<node id="-322795" lat="60.5955888849" lon="12.2516138965">
		<tag k="name" v="Tallåsmyra" />
		<tag k="natural" v="wetland" />
		<tag k="ssr:stedsnr" v="479204" />
	</node>
	<node id="-322794" lat="60.5542138886" lon="11.9569694389">
		<tag k="name" v="Brattåsen" />
		<tag k="place" v="locality" />
		<tag k="ssr:stedsnr" v="466618" />
	</node>
	<node id="-322785" lat="60.7876499973" lon="12.1678111126">
		<tag k="name" v="Apoteket" />
		<tag k="natural" v="wetland" />
		<tag k="ssr:stedsnr" v="465052" />
	</node>
	<node id="-322782" lat="60.6671583362" lon="12.1224944443">
		<tag k="name" v="Eriksmyra" />
		<tag k="natural" v="wetland" />
		<tag k="ssr:stedsnr" v="666798" />
	</node>
	<node id="-322781" lat="60.5708972266" lon="12.3129388815">
		<tag k="name" v="Skotterudsmyra" />
		<tag k="natural" v="wetland" />
		<tag k="ssr:stedsnr" v="666507" />
	</node>
	<node id="-322779" lat="60.6919749975" lon="12.1716583375">
		<tag k="name" v="Styggbekkrønningen" />
		<tag k="place" v="locality" />
		<tag k="ssr:stedsnr" v="666099" />
	</node>
	<node id="-322775" lat="60.6746138893" lon="12.2558388846">
		<tag k="name" v="Huskeholen" />
		<tag k="place" v="locality" />
		<tag k="ssr:stedsnr" v="666074" />
	</node>
	<node id="-322773" lat="60.814097221" lon="12.1116305503">
		<tag k="name" v="Rundmyra" />
		<tag k="natural" v="wetland" />
		<tag k="ssr:stedsnr" v="665753" />
	</node>
	<node id="-322772" lat="60.8114083318" lon="12.3395833414">
		<tag k="name" v="Juvberget" />
		<tag k="place" v="locality" />
		<tag k="ssr:stedsnr" v="665418" />
	</node>
	<node id="-322757" lat="60.8249666639" lon="12.2644138924">
		<tag k="name" v="Stormyra" />
		<tag k="natural" v="wetland" />
		<tag k="ssr:stedsnr" v="662007" />
	</node>
	<node id="-322751" lat="60.8185527789" lon="12.277524997">
		<tag k="name" v="Skybakkmyra" />
		<tag k="natural" v="wetland" />
		<tag k="ssr:stedsnr" v="434705" />
	</node>
	<node id="-322740" lat="60.5794027787" lon="11.9092194483">
		<tag k="name" v="Negardshøgda" />
		<tag k="place" v="locality" />
		<tag k="ssr:stedsnr" v="423637" />
	</node>
	<node id="-322736" lat="60.6373361079" lon="12.4807305565">
		<tag k="name" v="Tjernsmyrene" />
		<tag k="natural" v="wetland" />
		<tag k="ssr:stedsnr" v="421623" />
	</node>
	<node id="-322735" lat="60.61172778" lon="12.5117027787">
		<tag k="name" v="Eliasholtet" />
		<tag k="place" v="locality" />
		<tag k="ssr:stedsnr" v="421617" />
	</node>
	<node id="-322734" lat="60.6109194424" lon="12.5081972129">
		<tag k="name" v="Brumyra" />
		<tag k="natural" v="wetland" />
		<tag k="ssr:stedsnr" v="421616" />
	</node>
	<node id="-322728" lat="60.8356750011" lon="12.2571972195">
		<tag k="name" v="Mosebossa" />
		<tag k="natural" v="wetland" />
		<tag k="ssr:stedsnr" v="419012" />
	</node>
	<node id="-322725" lat="60.6000277788" lon="12.4775694396">
		<tag k="name" v="Damsberget" />
		<tag k="place" v="locality" />
		<tag k="ssr:stedsnr" v="406322" />
	</node>
	<node id="-322724" lat="60.5276694461" lon="12.5743749992">
		<tag k="name" v="Titmyra" />
		<tag k="natural" v="wetland" />
		<tag k="ssr:stedsnr" v="406618" />
	</node>
	<node id="-322722" lat="60.693944447" lon="12.3581083367">
		<tag k="name" v="Rundmyra" />
		<tag k="natural" v="wetland" />
		<tag k="ssr:stedsnr" v="406457" />
	</node>
	<node id="-322713" lat="60.7826305538" lon="12.2445111094">
		<tag k="name" v="Sundvollen" />
		<tag k="place" v="locality" />
		<tag k="ssr:stedsnr" v="404006" />
	</node>
	<node id="-322712" lat="60.7474083365" lon="12.2551194423">
		<tag k="name" v="Jonsokbrenna" />
		<tag k="place" v="locality" />
		<tag k="ssr:stedsnr" v="299036" />
	</node>
	<node id="-322705" lat="60.569672636" lon="12.0458033817">
		<tag k="alt_name" v="Ugerudsmyra" />
		<tag k="name" v="Uggerudmyra" />
		<tag k="natural" v="wetland" />
		<tag k="ssr:stedsnr" v="371956" />
	</node>
	<node id="-322657" lat="60.5763722212" lon="12.2869194461">
		<tag k="name" v="Migarbekkholen" />
		<tag k="place" v="locality" />
		<tag k="ssr:stedsnr" v="362504" />
	</node>
	<node id="-322655" lat="60.56742778" lon="11.924155555">
		<tag k="name" v="Gardsmyra" />
		<tag k="natural" v="wetland" />
		<tag k="ssr:stedsnr" v="362605" />
	</node>
	<node id="-322648" lat="60.6992638853" lon="12.2427777803">
		<tag k="name" v="Elgeholtet" />
		<tag k="place" v="locality" />
		<tag k="ssr:stedsnr" v="362076" />
	</node>
	<node id="-322641" lat="60.5255333367" lon="11.8934250049">
		<tag k="name" v="Kunebben" />
		<tag k="place" v="locality" />
		<tag k="ssr:stedsnr" v="360565" />
	</node>
	<node id="-322635" lat="60.5558555533" lon="12.2401722188">
		<tag k="name" v="Stormyra" />
		<tag k="natural" v="wetland" />
		<tag k="ssr:stedsnr" v="492520" />
	</node>
	<node id="-322628" lat="60.6244194453" lon="12.3261388945">
		<tag k="name" v="Dansmyrene" />
		<tag k="natural" v="wetland" />
		<tag k="ssr:stedsnr" v="358472" />
	</node>
	<node id="-322624" lat="60.7757055602" lon="12.3127777737">
		<tag k="historic" v="shieling" />
		<tag k="name" v="Posåssætra" />
		<tag k="place" v="locality" />
		<tag k="ssr:stedsnr" v="358308" />
	</node>
	<node id="-322623" lat="60.8311416692" lon="12.2643749945">
		<tag k="name" v="Gravbergskogen" />
		<tag k="place" v="locality" />
		<tag k="ssr:stedsnr" v="358012" />
	</node>
	<node id="-324660" lat="60.7940111155" lon="12.3516666605">
		<tag k="name" v="Langmyra" />
		<tag k="natural" v="wetland" />
		<tag k="ssr:stedsnr" v="969351" />
	</node>
	<node id="-324652" lat="60.7693611102" lon="12.0963499991">
		<tag k="name" v="Kjeltjernet" />
		<tag k="natural" v="wetland" />
		<tag k="ssr:stedsnr" v="967775" />
	</node>
	<node id="-322603" lat="60.7178777819" lon="12.2829388943">
		<tag k="name" v="Kumyra" />
		<tag k="natural" v="wetland" />
		<tag k="ssr:stedsnr" v="345357" />
	</node>
	<node id="-324649" lat="60.5756583379" lon="11.9993944359">
		<tag k="name" v="Storenga" />
		<tag k="place" v="locality" />
		<tag k="ssr:stedsnr" v="967494" />
	</node>
	<node id="-324647" lat="60.6513500001" lon="12.2926083358">
		<tag k="name" v="Tuvmyra" />
		<tag k="natural" v="wetland" />
		<tag k="ssr:stedsnr" v="967438" />
	</node>
	<node id="-324644" lat="60.589702774" lon="12.1951472241">
		<tag k="name" v="Frauåsmyrene" />
		<tag k="natural" v="wetland" />
		<tag k="ssr:stedsnr" v="965237" />
	</node>
	<node id="-324642" lat="60.5999111086" lon="12.2425222184">
		<tag k="name" v="Blekkmyra" />
		<tag k="natural" v="wetland" />
		<tag k="ssr:stedsnr" v="965202" />
	</node>
	<node id="-322592" lat="60.8081750036" lon="12.2899388969">
		<tag k="name" v="Blautslåttene" />
		<tag k="natural" v="wetland" />
		<tag k="ssr:stedsnr" v="483384" />
	</node>
	<node id="-324639" lat="60.5516333349" lon="12.3724777767">
		<tag k="name" v="Abborsjømyra" />
		<tag k="natural" v="wetland" />
		<tag k="ssr:stedsnr" v="965028" />
	</node>
	<node id="-324638" lat="60.54308611" lon="12.3776972276">
		<tag k="name" v="Skjærbråtemyra" />
		<tag k="natural" v="wetland" />
		<tag k="ssr:stedsnr" v="965027" />
	</node>
	<node id="-324510" lat="60.6613527785" lon="11.9770722218">
		<tag k="name" v="Melsnesmyra" />
		<tag k="natural" v="wetland" />
		<tag k="ssr:stedsnr" v="829994" />
	</node>
	<node id="-324634" lat="60.6704999976" lon="11.9899277772">
		<tag k="name" v="Bratthaugmyra" />
		<tag k="natural" v="wetland" />
		<tag k="ssr:stedsnr" v="952909" />
	</node>
	<node id="-322585" lat="60.751166666" lon="12.1296694434">
		<tag k="name" v="Sævsjømyrene" />
		<tag k="natural" v="wetland" />
		<tag k="ssr:stedsnr" v="479796" />
	</node>
	<node id="-324631" lat="60.7129472242" lon="12.2811777817">
		<tag k="name" v="Damholmyra" />
		<tag k="natural" v="wetland" />
		<tag k="ssr:stedsnr" v="952384" />
	</node>
	<node id="-324630" lat="60.8393749979" lon="12.3114277736">
		<tag k="name" v="Hareholmen" />
		<tag k="place" v="locality" />
		<tag k="ssr:stedsnr" v="952340" />
	</node>
	<node id="-324628" lat="60.5891527736" lon="12.4929666715">
		<tag k="name" v="Storsteinsmyra" />
		<tag k="natural" v="wetland" />
		<tag k="ssr:stedsnr" v="952328" />
	</node>
	<node id="-324625" lat="60.6012555563" lon="12.2769277869">
		<tag k="name" v="Huaberget" />
		<tag k="place" v="locality" />
		<tag k="ssr:stedsnr" v="952240" />
	</node>
	<node id="-322575" lat="60.8400111126" lon="12.2563916673">
		<tag k="name" v="Skjulmyra" />
		<tag k="natural" v="wetland" />
		<tag k="ssr:stedsnr" v="312716" />
	</node>
	<node id="-322568" lat="60.5313861129" lon="11.8117916726">
		<tag k="name" v="Villberget" />
		<tag k="place" v="locality" />
		<tag k="ssr:stedsnr" v="300569" />
	</node>
	<node id="-324615" lat="60.6406499963" lon="11.9553027762">
		<tag k="name" v="Knutmyra" />
		<tag k="natural" v="wetland" />
		<tag k="ssr:stedsnr" v="950582" />
	</node>
	<node id="-322566" lat="60.5563388848" lon="12.1752777852">
		<tag k="name" v="Kallholmyra" />
		<tag k="natural" v="wetland" />
		<tag k="ssr:stedsnr" v="467509" />
	</node>
	<node id="-322560" lat="60.5266555561" lon="12.2980444524">
		<tag k="name" v="Slåttmyra" />
		<tag k="natural" v="wetland" />
		<tag k="ssr:stedsnr" v="466283" />
	</node>
	<node id="-322558" lat="60.5880833308" lon="12.2560361114">
		<tag k="name" v="Langmyra" />
		<tag k="natural" v="wetland" />
		<tag k="ssr:stedsnr" v="466231" />
	</node>
	<node id="-322555" lat="60.5800694428" lon="12.1832111094">
		<tag k="name" v="Kolhusbrenna" />
		<tag k="place" v="locality" />
		<tag k="ssr:stedsnr" v="465249" />
	</node>
	<node id="-324598" lat="60.7080499978" lon="11.9835583354">
		<tag k="name" v="Tjernsmyra" />
		<tag k="natural" v="wetland" />
		<tag k="ssr:stedsnr" v="857044" />
	</node>
	<node id="-322387" lat="60.6103888902" lon="12.2428777754">
		<tag k="alt_name" v="Maliberget" />
		<tag k="historic" v="shieling" />
		<tag k="name" v="Malibergsætrene" />
		<tag k="place" v="locality" />
		<tag k="ssr:stedsnr" v="250513" />
	</node>
	<node id="-322544" lat="60.5176944447" lon="11.9871611146">
		<tag k="name" v="Østmofeltet" />
		<tag k="place" v="locality" />
		<tag k="ssr:stedsnr" v="241610" />
	</node>
	<node id="-322543" lat="60.7830388885" lon="12.1297611067">
		<tag k="name" v="Dalplassen" />
		<tag k="place" v="locality" />
		<tag k="ssr:stedsnr" v="241714" />
	</node>
	<node id="-324579" lat="60.6051527737" lon="12.0472472135">
		<tag k="name" v="Bjerkesmoen" />
		<tag k="place" v="locality" />
		<tag k="ssr:stedsnr" v="848936" />
	</node>
	<node id="-322530" lat="60.7661388928" lon="12.3758916581">
		<tag k="name" v="Landsmyra" />
		<tag k="natural" v="wetland" />
		<tag k="ssr:stedsnr" v="298299" />
	</node>
	<node id="-322529" lat="60.58323889" lon="12.1742805562">
		<tag k="name" v="Karussmyra" />
		<tag k="natural" v="wetland" />
		<tag k="ssr:stedsnr" v="298212" />
	</node>
	<node id="-322528" lat="60.6001916655" lon="12.2342611129">
		<tag k="name" v="Bjørnebymyra" />
		<tag k="natural" v="wetland" />
		<tag k="ssr:stedsnr" v="298184" />
	</node>
	<node id="-322525" lat="60.5100916658" lon="11.8976361126">
		<tag k="name" v="Komperudlia" />
		<tag k="place" v="locality" />
		<tag k="ssr:stedsnr" v="298090" />
	</node>
	<node id="-324571" lat="60.7409249955" lon="12.3815222292">
		<tag k="name" v="Røyrmyra" />
		<tag k="natural" v="wetland" />
		<tag k="ssr:stedsnr" v="848415" />
	</node>
	<node id="-322522" lat="60.5469055518" lon="12.3007472214">
		<tag k="name" v="Brusbekkmyra" />
		<tag k="natural" v="wetland" />
		<tag k="ssr:stedsnr" v="298020" />
	</node>
	<node id="-324569" lat="60.795619446" lon="12.3476388799">
		<tag k="name" v="Juvbergsholen" />
		<tag k="place" v="locality" />
		<tag k="ssr:stedsnr" v="848371" />
	</node>
	<node id="-324567" lat="60.6339944479" lon="12.2159944363">
		<tag k="name" v="Steinholen" />
		<tag k="place" v="locality" />
		<tag k="ssr:stedsnr" v="848158" />
	</node>
	<node id="-324565" lat="60.7094722188" lon="12.2607444487">
		<tag k="name" v="Tøresmyra" />
		<tag k="natural" v="wetland" />
		<tag k="ssr:stedsnr" v="848079" />
	</node>
	<node id="-324564" lat="60.703530555" lon="12.2407805546">
		<tag k="name" v="Lensmannsmyra" />
		<tag k="natural" v="wetland" />
		<tag k="ssr:stedsnr" v="848077" />
	</node>
	<node id="-324562" lat="60.6805194482" lon="12.228761119">
		<tag k="name" v="Kringelmyra" />
		<tag k="natural" v="wetland" />
		<tag k="ssr:stedsnr" v="848071" />
	</node>
	<node id="-324554" lat="60.6295972236" lon="12.2867138943">
		<tag k="name" v="Styggmarken" />
		<tag k="place" v="locality" />
		<tag k="ssr:stedsnr" v="846468" />
	</node>
	<node id="-322505" lat="60.5722111113" lon="11.8692333268">
		<tag k="historic" v="shieling" />
		<tag k="name" v="Langåssætra" />
		<tag k="place" v="locality" />
		<tag k="ssr:stedsnr" v="285199" />
	</node>
	<node id="-324552" lat="60.8806916645" lon="12.1544305492">
		<tag k="name" v="Gravbergskoven" />
		<tag k="place" v="locality" />
		<tag k="ssr:stedsnr" v="846354" />
	</node>
	<node id="-322503" lat="60.6770666681" lon="12.2339555645">
		<tag k="name" v="Fjølabruholtet" />
		<tag k="place" v="locality" />
		<tag k="ssr:stedsnr" v="181074" />
	</node>
	<node id="-324547" lat="60.6095972266" lon="12.4653166624">
		<tag k="name" v="Myrholmen" />
		<tag k="natural" v="wetland" />
		<tag k="ssr:stedsnr" v="846221" />
	</node>
	<node id="-324545" lat="60.5783222231" lon="12.2782888921">
		<tag k="name" v="Uggerudsberget" />
		<tag k="place" v="locality" />
		<tag k="ssr:stedsnr" v="846201" />
	</node>
	<node id="-324544" lat="60.7506166672" lon="12.062141671">
		<tag k="name" v="Steinsmyra" />
		<tag k="natural" v="wetland" />
		<tag k="ssr:stedsnr" v="844797" />
	</node>
	<node id="-322495" lat="60.6376944482" lon="12.490188891">
		<tag k="name" v="Klintrudsmyra" />
		<tag k="natural" v="wetland" />
		<tag k="ssr:stedsnr" v="178604" />
	</node>
	<node id="-324542" lat="60.7767222184" lon="12.0721388803">
		<tag k="name" v="Sjølisæterberget" />
		<tag k="place" v="locality" />
		<tag k="ssr:stedsnr" v="844761" />
	</node>
	<node id="-322493" lat="60.5849527734" lon="12.5251000047">
		<tag k="name" v="Skjærmyra" />
		<tag k="natural" v="wetland" />
		<tag k="ssr:stedsnr" v="284763" />
	</node>
	<node id="-324540" lat="60.5205527788" lon="11.8300750041">
		<tag k="name" v="Vestre Lauvberget" />
		<tag k="place" v="locality" />
		<tag k="ssr:stedsnr" v="844685" />
	</node>
	<node id="-324538" lat="60.634791667" lon="12.4432916694">
		<tag k="name" v="Bekkmyra" />
		<tag k="natural" v="wetland" />
		<tag k="ssr:stedsnr" v="844675" />
	</node>
	<node id="-324536" lat="60.8608861114" lon="12.2155638881">
		<tag k="name" v="Gudmundsåsmyra" />
		<tag k="natural" v="wetland" />
		<tag k="ssr:stedsnr" v="844243" />
	</node>
	<node id="-324535" lat="60.5848694484" lon="12.1762527722">
		<tag k="name" v="Karussholtet" />
		<tag k="place" v="locality" />
		<tag k="ssr:stedsnr" v="844221" />
	</node>
	<node id="-322486" lat="60.6727194399" lon="12.3266805634">
		<tag k="name" v="Hettmyra" />
		<tag k="natural" v="wetland" />
		<tag k="ssr:stedsnr" v="284441" />
	</node>
	<node id="-324531" lat="60.8102111135" lon="12.1951083256">
		<tag k="historic" v="shieling" />
		<tag k="name" v="Kalgardsvollen" />
		<tag k="place" v="locality" />
		<tag k="ssr:stedsnr" v="844007" />
	</node>
	<node id="-322481" lat="60.5981555569" lon="12.5132055556">
		<tag k="name" v="Bråtån" />
		<tag k="place" v="locality" />
		<tag k="ssr:stedsnr" v="284327" />
	</node>
	<node id="-322477" lat="60.5544194433" lon="12.2115972204">
		<tag k="name" v="Fagerlia" />
		<tag k="place" v="locality" />
		<tag k="ssr:stedsnr" v="283428" />
	</node>
	<node id="-324523" lat="60.5329527747" lon="12.5272916591">
		<tag k="name" v="Slettmoen" />
		<tag k="place" v="locality" />
		<tag k="ssr:stedsnr" v="831577" />
	</node>
	<node id="-322474" lat="60.5637638846" lon="12.1827694441">
		<tag k="name" v="Steindæssmyra" />
		<tag k="natural" v="wetland" />
		<tag k="ssr:stedsnr" v="283199" />
	</node>
	<node id="-324521" lat="60.6768777777" lon="12.353149992">
		<tag k="name" v="Eftasmyra" />
		<tag k="natural" v="wetland" />
		<tag k="ssr:stedsnr" v="831399" />
	</node>
	<node id="-324517" lat="60.8264472256" lon="12.3134333405">
		<tag k="historic" v="shieling" />
		<tag k="name" v="Flissætra" />
		<tag k="place" v="locality" />
		<tag k="ssr:stedsnr" v="831332" />
	</node>
	<node id="-324515" lat="60.6043583319" lon="12.5129972207">
		<tag k="name" v="Linnmyra" />
		<tag k="natural" v="wetland" />
		<tag k="ssr:stedsnr" v="831310" />
	</node>
	<node id="-322462" lat="60.5842722212" lon="11.8807888883">
		<tag k="name" v="Perslomyra" />
		<tag k="natural" v="wetland" />
		<tag k="ssr:stedsnr" v="163161" />
	</node>
	<node id="-324509" lat="60.6593527808" lon="11.9773694486">
		<tag k="name" v="Langmyra" />
		<tag k="natural" v="wetland" />
		<tag k="ssr:stedsnr" v="829988" />
	</node>
	<node id="-324508" lat="60.6590750032" lon="11.9695888903">
		<tag k="name" v="Østlimyra" />
		<tag k="natural" v="wetland" />
		<tag k="ssr:stedsnr" v="829986" />
	</node>
	<node id="-322459" lat="60.5265055553" lon="12.2769027724">
		<tag k="name" v="Slåttmyra" />
		<tag k="natural" v="wetland" />
		<tag k="ssr:stedsnr" v="161460" />
	</node>
	<node id="-322458" lat="60.5799416678" lon="12.17155834">
		<tag k="name" v="Myra på berget" />
		<tag k="natural" v="wetland" />
		<tag k="ssr:stedsnr" v="161261" />
	</node>
	<node id="-322457" lat="60.7923361124" lon="12.2339499983">
		<tag k="name" v="Østre Lindberget" />
		<tag k="place" v="locality" />
		<tag k="ssr:stedsnr" v="161005" />
	</node>
	<node id="-322456" lat="60.7968083312" lon="12.2065388909">
		<tag k="name" v="Vestre Lindberget" />
		<tag k="place" v="locality" />
		<tag k="ssr:stedsnr" v="161003" />
	</node>
	<node id="-324501" lat="60.6697333365" lon="12.0669027732">
		<tag k="name" v="Momålingen" />
		<tag k="place" v="locality" />
		<tag k="ssr:stedsnr" v="829886" />
	</node>
	<node id="-324496" lat="60.5485305549" lon="11.9363583307">
		<tag k="name" v="Lomtjernsmyra" />
		<tag k="natural" v="wetland" />
		<tag k="ssr:stedsnr" v="829592" />
	</node>
	<node id="-322446" lat="60.5427333318" lon="11.8188777814">
		<tag k="name" v="Stormyra" />
		<tag k="natural" v="wetland" />
		<tag k="ssr:stedsnr" v="128211" />
	</node>
	<node id="-324492" lat="60.5756805599" lon="12.2080861073">
		<tag k="name" v="Vestre Gjeinstigmyra" />
		<tag k="natural" v="wetland" />
		<tag k="ssr:stedsnr" v="829214" />
	</node>
	<node id="-322443" lat="60.492330554" lon="11.767686115">
		<tag k="historic" v="shieling" />
		<tag k="name" v="Balnessætra" />
		<tag k="place" v="locality" />
		<tag k="ssr:stedsnr" v="128202" />
	</node>
	<node id="-322434" lat="60.6649861105" lon="12.0744249936">
		<tag k="name" v="Skamyra" />
		<tag k="natural" v="wetland" />
		<tag k="ssr:stedsnr" v="118813" />
	</node>
	<node id="-322426" lat="60.5958555531" lon="12.3459666649">
		<tag k="name" v="Lekkerkoimyra" />
		<tag k="natural" v="wetland" />
		<tag k="ssr:stedsnr" v="116506" />
	</node>
	<node id="-322423" lat="60.745266669" lon="12.2177749938">
		<tag k="name" v="Gransjøåsen" />
		<tag k="place" v="locality" />
		<tag k="ssr:stedsnr" v="300046" />
	</node>
	<node id="-322419" lat="60.7585805575" lon="12.3565083317">
		<tag k="name" v="Stormyra" />
		<tag k="natural" v="wetland" />
		<tag k="ssr:stedsnr" v="252597" />
	</node>
	<node id="-322405" lat="60.5070166662" lon="12.0247750043">
		<tag k="name" v="Reinmyra" />
		<tag k="natural" v="wetland" />
		<tag k="ssr:stedsnr" v="250915" />
	</node>
	<node id="-322402" lat="60.739425003" lon="12.3486111179">
		<tag k="name" v="Sønsterudmyra" />
		<tag k="natural" v="wetland" />
		<tag k="ssr:stedsnr" v="250907" />
	</node>
	<node id="-322389" lat="60.7126388902" lon="12.2780916702">
		<tag k="name" v="Blektjernsmyra" />
		<tag k="natural" v="wetland" />
		<tag k="ssr:stedsnr" v="250567" />
	</node>
	<node id="-324435" lat="60.5823083369" lon="12.3120527719">
		<tag k="name" v="Fiskemyra" />
		<tag k="natural" v="wetland" />
		<tag k="ssr:stedsnr" v="787519" />
	</node>
	<node id="-324432" lat="60.7445638874" lon="12.3805111069">
		<tag k="name" v="Smørbølsrønningen" />
		<tag k="place" v="locality" />
		<tag k="ssr:stedsnr" v="787382" />
	</node>
	<node id="-324430" lat="60.6875694417" lon="12.2464638851">
		<tag k="name" v="Steinholmyra" />
		<tag k="natural" v="wetland" />
		<tag k="ssr:stedsnr" v="787081" />
	</node>
	<node id="-322381" lat="60.7167944461" lon="11.9870499981">
		<tag k="name" v="Bårdsbrumyra" />
		<tag k="natural" v="wetland" />
		<tag k="ssr:stedsnr" v="250206" />
	</node>
	<node id="-324428" lat="60.626063891" lon="11.9444055521">
		<tag k="name" v="Ansetholmen" />
		<tag k="place" v="locality" />
		<tag k="ssr:stedsnr" v="786442" />
	</node>
	<node id="-322379" lat="60.7284000036" lon="12.1260222248">
		<tag k="alt_name" v="Svulmyra" />
		<tag k="name" v="Svullmyra" />
		<tag k="natural" v="wetland" />
		<tag k="ssr:stedsnr" v="250197" />
	</node>
	<node id="-324424" lat="60.5598166702" lon="11.793277774">
		<tag k="name" v="Svantjennsmyra" />
		<tag k="natural" v="wetland" />
		<tag k="ssr:stedsnr" v="785559" />
	</node>
	<node id="-324422" lat="60.5490472211" lon="11.8801666701">
		<tag k="historic" v="shieling" />
		<tag k="name" v="Titsangen" />
		<tag k="place" v="locality" />
		<tag k="ssr:stedsnr" v="785553" />
	</node>
	<node id="-324421" lat="60.5904999987" lon="12.0448055535">
		<tag k="name" v="Nesset" />
		<tag k="place" v="locality" />
		<tag k="ssr:stedsnr" v="785502" />
	</node>
	<node id="-324418" lat="60.8621611125" lon="12.2262166592">
		<tag k="name" v="Fugleleikmyra" />
		<tag k="natural" v="wetland" />
		<tag k="ssr:stedsnr" v="785253" />
	</node>
	<node id="-324417" lat="60.7445027818" lon="12.2695083299">
		<tag k="name" v="Jonsokmyrene" />
		<tag k="natural" v="wetland" />
		<tag k="ssr:stedsnr" v="785041" />
	</node>
	<node id="-324415" lat="60.7502722203" lon="12.0944888816">
		<tag k="name" v="Vestberget" />
		<tag k="place" v="locality" />
		<tag k="ssr:stedsnr" v="783804" />
	</node>
	<node id="-324412" lat="60.721819446" lon="12.066863884">
		<tag k="name" v="Siljuåsmyra" />
		<tag k="natural" v="wetland" />
		<tag k="ssr:stedsnr" v="783768" />
	</node>
	<node id="-322360" lat="60.6310194425" lon="12.0683611195">
		<tag k="name" v="Kalåsmyra" />
		<tag k="natural" v="wetland" />
		<tag k="ssr:stedsnr" v="249815" />
	</node>
	<node id="-324407" lat="60.7602138877" lon="12.0377277734">
		<tag k="name" v="Ringholtmyra" />
		<tag k="natural" v="wetland" />
		<tag k="ssr:stedsnr" v="783691" />
	</node>
	<node id="-322358" lat="60.5763722242" lon="12.0630138806">
		<tag k="name" v="Krokmyra" />
		<tag k="natural" v="wetland" />
		<tag k="ssr:stedsnr" v="249780" />
	</node>
	<node id="-324398" lat="60.5945277793" lon="12.2450194536">
		<tag k="name" v="Rundmyra" />
		<tag k="natural" v="wetland" />
		<tag k="ssr:stedsnr" v="783169" />
	</node>
	<node id="-322348" lat="60.6124666686" lon="12.4095027766">
		<tag k="alt_name" v="Greinbergskjerka" />
		<tag k="name" v="Greinkjerka" />
		<tag k="natural" v="stone" />
		<tag k="ssr:stedsnr" v="249538" />
	</node>
	<node id="-322346" lat="60.6050999976" lon="12.4213000011">
		<tag k="name" v="Greinmyra" />
		<tag k="natural" v="wetland" />
		<tag k="ssr:stedsnr" v="249527" />
	</node>
	<node id="-324391" lat="60.688652775" lon="12.2850333348">
		<tag k="name" v="Geitmyrhalsen" />
		<tag k="natural" v="wetland" />
		<tag k="ssr:stedsnr" v="770423" />
	</node>
	<node id="-322342" lat="60.5473750021" lon="11.7974277812">
		<tag k="name" v="Vollmyra" />
		<tag k="natural" v="wetland" />
		<tag k="ssr:stedsnr" v="249130" />
	</node>
	<node id="-324387" lat="60.5530333339" lon="12.1761500065">
		<tag k="name" v="Vestre Krokmyra" />
		<tag k="natural" v="wetland" />
		<tag k="ssr:stedsnr" v="770485" />
	</node>
	<node id="-324385" lat="60.5828250004" lon="12.5075222209">
		<tag k="name" v="Lortmyra" />
		<tag k="natural" v="wetland" />
		<tag k="ssr:stedsnr" v="770315" />
	</node>
	<node id="-324381" lat="60.6239388871" lon="12.1180111091">
		<tag k="name" v="Digerheden" />
		<tag k="place" v="locality" />
		<tag k="ssr:stedsnr" v="769939" />
	</node>
	<node id="-324379" lat="60.7706916647" lon="12.2444527743">
		<tag k="name" v="Hørningsholen" />
		<tag k="place" v="locality" />
		<tag k="ssr:stedsnr" v="769052" />
	</node>
	<node id="-324377" lat="60.7617916625" lon="12.1698888853">
		<tag k="name" v="Dalamyrene" />
		<tag k="natural" v="wetland" />
		<tag k="ssr:stedsnr" v="769049" />
	</node>
	<node id="-324376" lat="60.633761113" lon="11.9848249914">
		<tag k="name" v="Ramsåsmyra" />
		<tag k="natural" v="wetland" />
		<tag k="ssr:stedsnr" v="768989" />
	</node>
	<node id="-324360" lat="60.6181138866" lon="12.0899722161">
		<tag k="name" v="Kjeldmyra" />
		<tag k="natural" v="wetland" />
		<tag k="ssr:stedsnr" v="648951" />
	</node>
	<node id="-324359" lat="60.6820138895" lon="12.2867833311">
		<tag k="name" v="Djupmyrhalsen" />
		<tag k="natural" v="wetland" />
		<tag k="ssr:stedsnr" v="648431" />
	</node>
	<node id="-324357" lat="60.7159166677" lon="12.3650305569">
		<tag k="name" v="Svarsemoen" />
		<tag k="place" v="locality" />
		<tag k="ssr:stedsnr" v="648390" />
	</node>
	<node id="-322303" lat="60.6467611155" lon="12.4938027774">
		<tag k="name" v="Vesle Leikmyra" />
		<tag k="natural" v="wetland" />
		<tag k="ssr:stedsnr" v="239629" />
	</node>
	<node id="-322302" lat="60.6270694464" lon="12.5088805646">
		<tag k="name" v="Dulpemyra" />
		<tag k="natural" v="wetland" />
		<tag k="ssr:stedsnr" v="239626" />
	</node>
	<node id="-322300" lat="60.7526833341" lon="12.3049000001">
		<tag k="name" v="Bringmoen" />
		<tag k="place" v="locality" />
		<tag k="ssr:stedsnr" v="239351" />
	</node>
	<node id="-322299" lat="60.7606916702" lon="12.2909305489">
		<tag k="name" v="Langsmala" />
		<tag k="natural" v="wetland" />
		<tag k="ssr:stedsnr" v="239343" />
	</node>
	<node id="-322298" lat="60.8572416629" lon="12.2284666731">
		<tag k="name" v="Kallgardsmyra" />
		<tag k="natural" v="wetland" />
		<tag k="ssr:stedsnr" v="239266" />
	</node>
	<node id="-324341" lat="60.707211107" lon="12.3608472204">
		<tag k="name" v="Bølkaso" />
		<tag k="natural" v="wetland" />
		<tag k="ssr:stedsnr" v="646379" />
	</node>
	<node id="-324340" lat="60.5753888891" lon="12.2228166687">
		<tag k="name" v="Kampmyrene" />
		<tag k="natural" v="wetland" />
		<tag k="ssr:stedsnr" v="646222" />
	</node>
	<node id="-322291" lat="60.5534694417" lon="11.7349749925">
		<tag k="name" v="Gammelsæterskogen" />
		<tag k="place" v="locality" />
		<tag k="ssr:stedsnr" v="237682" />
	</node>
	<node id="-322286" lat="60.7706777796" lon="12.3045888966">
		<tag k="name" v="Mastholtet" />
		<tag k="place" v="locality" />
		<tag k="ssr:stedsnr" v="237349" />
	</node>
	<node id="-322280" lat="60.8093027776" lon="12.1533750084">
		<tag k="name" v="Koieholen" />
		<tag k="place" v="locality" />
		<tag k="ssr:stedsnr" v="240746" />
	</node>
	<node id="-322279" lat="60.8022666632" lon="12.14021667">
		<tag k="historic" v="shieling" />
		<tag k="name" v="Bergevollen" />
		<tag k="place" v="locality" />
		<tag k="ssr:stedsnr" v="240738" />
	</node>
	<node id="-322278" lat="60.804175" lon="12.1408138963">
		<tag k="historic" v="shieling" />
		<tag k="name" v="Britt-torpet" />
		<tag k="place" v="locality" />
		<tag k="ssr:stedsnr" v="240737" />
	</node>
	<node id="-322277" lat="60.5911027763" lon="12.437922218">
		<tag k="name" v="Spikmyra" />
		<tag k="natural" v="wetland" />
		<tag k="ssr:stedsnr" v="42325" />
	</node>
	<node id="-322273" lat="60.7702472249" lon="12.2313805517">
		<tag k="name" v="Gjerd-brenna" />
		<tag k="place" v="locality" />
		<tag k="ssr:stedsnr" v="41065" />
	</node>
	<node id="-324313" lat="60.5949638881" lon="12.422288897">
		<tag k="name" v="Lensmannsmyra" />
		<tag k="natural" v="wetland" />
		<tag k="ssr:stedsnr" v="613541" />
	</node>
	<node id="-322262" lat="60.5774166666" lon="12.5273416725">
		<tag k="name" v="Øvre Fåfengmyra" />
		<tag k="natural" v="wetland" />
		<tag k="ssr:stedsnr" v="224669" />
	</node>
	<node id="-322261" lat="60.6974222212" lon="12.4360666633">
		<tag k="name" v="Hakamyra" />
		<tag k="natural" v="wetland" />
		<tag k="ssr:stedsnr" v="224666" />
	</node>
	<node id="-322260" lat="60.6972416659" lon="12.4280333403">
		<tag k="name" v="Svertmyra" />
		<tag k="natural" v="wetland" />
		<tag k="ssr:stedsnr" v="224664" />
	</node>
	<node id="-322258" lat="60.7088722227" lon="12.4190638925">
		<tag k="name" v="Trestanderholen" />
		<tag k="place" v="locality" />
		<tag k="ssr:stedsnr" v="224658" />
	</node>
	<node id="-322255" lat="60.7093888875" lon="12.2944666589">
		<tag k="name" v="Stormyra" />
		<tag k="natural" v="wetland" />
		<tag k="ssr:stedsnr" v="224348" />
	</node>
	<node id="-322254" lat="60.5732916682" lon="12.5089916597">
		<tag k="name" v="Brusbarmyra" />
		<tag k="natural" v="wetland" />
		<tag k="ssr:stedsnr" v="224317" />
	</node>
	<node id="-322252" lat="60.5709888889" lon="12.4817583315">
		<tag k="name" v="Siljabaika" />
		<tag k="natural" v="wetland" />
		<tag k="ssr:stedsnr" v="224305" />
	</node>
	<node id="-322251" lat="60.5967111139" lon="12.4993861195">
		<tag k="name" v="Tjurumilmyra" />
		<tag k="natural" v="wetland" />
		<tag k="ssr:stedsnr" v="224303" />
	</node>
	<node id="-322250" lat="60.5931138858" lon="12.4966000051">
		<tag k="name" v="Langmyra" />
		<tag k="natural" v="wetland" />
		<tag k="ssr:stedsnr" v="224302" />
	</node>
	<node id="-322249" lat="60.6006027765" lon="12.4905555502">
		<tag k="name" v="Saubråtamyra" />
		<tag k="natural" v="wetland" />
		<tag k="ssr:stedsnr" v="224301" />
	</node>
	<node id="-324288" lat="60.5730750001" lon="12.1202194459">
		<tag k="name" v="Norrandimyra" />
		<tag k="natural" v="wetland" />
		<tag k="ssr:stedsnr" v="605891" />
	</node>
	<node id="-322239" lat="60.6689944489" lon="11.9842222178">
		<tag k="name" v="Gutuhammaren" />
		<tag k="place" v="locality" />
		<tag k="ssr:stedsnr" v="222885" />
	</node>
	<node id="-324286" lat="60.6887777776" lon="12.2673111079">
		<tag k="name" v="Steinkjeldsmyra" />
		<tag k="natural" v="wetland" />
		<tag k="ssr:stedsnr" v="605097" />
	</node>
	<node id="-324280" lat="60.6904916673" lon="12.0389361176">
		<tag k="name" v="Røsberget" />
		<tag k="place" v="locality" />
		<tag k="ssr:stedsnr" v="603897" />
	</node>
	<node id="-324279" lat="60.6589083347" lon="12.3162555509">
		<tag k="name" v="Muslia" />
		<tag k="place" v="locality" />
		<tag k="ssr:stedsnr" v="603465" />
	</node>
	<node id="-324277" lat="60.7703222229" lon="12.1466166615">
		<tag k="name" v="Puterudsloen" />
		<tag k="place" v="locality" />
		<tag k="ssr:stedsnr" v="602822" />
	</node>
	<node id="-324275" lat="60.6430999984" lon="12.4711666723">
		<tag k="name" v="Lombergsmyra" />
		<tag k="natural" v="wetland" />
		<tag k="ssr:stedsnr" v="602644" />
	</node>
	<node id="-324272" lat="60.7549666696" lon="12.0587388846">
		<tag k="name" v="Ruskeberget" />
		<tag k="place" v="locality" />
		<tag k="ssr:stedsnr" v="601785" />
	</node>
	<node id="-322222" lat="60.5819527744" lon="12.2206250067">
		<tag k="name" v="Stormyra" />
		<tag k="natural" v="wetland" />
		<tag k="ssr:stedsnr" v="222219" />
	</node>
	<node id="-322221" lat="60.5701499969" lon="12.218583336">
		<tag k="name" v="Malisjøholene" />
		<tag k="place" v="locality" />
		<tag k="ssr:stedsnr" v="222193" />
	</node>
	<node id="-324268" lat="60.7238000033" lon="12.1598999965">
		<tag k="name" v="Brumyra" />
		<tag k="natural" v="wetland" />
		<tag k="ssr:stedsnr" v="601745" />
	</node>
	<node id="-322218" lat="60.6169138914" lon="12.1947222294">
		<tag k="name" v="Klokksmyrene" />
		<tag k="natural" v="wetland" />
		<tag k="ssr:stedsnr" v="222147" />
	</node>
	<node id="-324263" lat="60.5913499993" lon="12.3527111154">
		<tag k="name" v="Barkebråtaholet" />
		<tag k="place" v="locality" />
		<tag k="ssr:stedsnr" v="601481" />
	</node>
	<node id="-322213" lat="60.6862166708" lon="12.1241749953">
		<tag k="name" v="Haukåsfeltet" />
		<tag k="place" v="locality" />
		<tag k="ssr:stedsnr" v="7004" />
	</node>
	<node id="-324259" lat="60.6412027745" lon="12.4133833399">
		<tag k="landuse" v="quarry" />
		<tag k="name" v="Sandbrøttet" />
		<tag k="ssr:stedsnr" v="601657" />
	</node>
	<node id="-324253" lat="60.5570499978" lon="12.1895472304">
		<tag k="name" v="Kalanshullmyra" />
		<tag k="natural" v="wetland" />
		<tag k="ssr:stedsnr" v="588482" />
	</node>
	<node id="-324249" lat="60.5808166693" lon="11.8504916617">
		<tag k="historic" v="shieling" />
		<tag k="name" v="Nysætra" />
		<tag k="place" v="locality" />
		<tag k="ssr:stedsnr" v="588179" />
	</node>
	<node id="-324248" lat="60.5679055592" lon="11.8196777696">
		<tag k="name" v="Bjørnholen" />
		<tag k="place" v="locality" />
		<tag k="ssr:stedsnr" v="588172" />
	</node>
	<node id="-324247" lat="60.6741055587" lon="12.3590972135">
		<tag k="name" v="Grønholsmyra" />
		<tag k="natural" v="wetland" />
		<tag k="ssr:stedsnr" v="587442" />
	</node>
	<node id="-324246" lat="60.7272027748" lon="12.3273083402">
		<tag k="name" v="Buskmyrene" />
		<tag k="natural" v="wetland" />
		<tag k="ssr:stedsnr" v="587397" />
	</node>
	<node id="-324245" lat="60.7036722249" lon="12.2948694496">
		<tag k="name" v="Firingsmyra" />
		<tag k="natural" v="wetland" />
		<tag k="ssr:stedsnr" v="587393" />
	</node>
	<node id="-324243" lat="60.8244111077" lon="12.29543889">
		<tag k="name" v="Geitsteinen" />
		<tag k="natural" v="stone" />
		<tag k="ssr:stedsnr" v="587371" />
	</node>
	<node id="-324242" lat="60.5788277776" lon="12.4793166727">
		<tag k="name" v="Brattmyra" />
		<tag k="natural" v="wetland" />
		<tag k="ssr:stedsnr" v="587366" />
	</node>
	<node id="-324241" lat="60.8368972256" lon="12.2954999916">
		<tag k="name" v="Gravbergskogen" />
		<tag k="place" v="locality" />
		<tag k="ssr:stedsnr" v="587359" />
	</node>
	<node id="-324238" lat="60.7126000046" lon="12.3884361033">
		<tag k="name" v="Svartbråtan" />
		<tag k="place" v="locality" />
		<tag k="ssr:stedsnr" v="586412" />
	</node>
	<node id="-324229" lat="60.6624527743" lon="12.3405527741">
		<tag k="name" v="Steinbekkmyra" />
		<tag k="natural" v="wetland" />
		<tag k="ssr:stedsnr" v="585402" />
	</node>
	<node id="-324208" lat="60.5312972229" lon="12.4747416664">
		<tag k="name" v="Stormyra" />
		<tag k="natural" v="wetland" />
		<tag k="ssr:stedsnr" v="553732" />
	</node>
	<node id="-324201" lat="60.687766663" lon="12.3592500015">
		<tag k="fixme" v="multiple name tags, choose one and add the other to alt_name" />
		<tag k="name" v="Langmyra;Stormyra" />
		<tag k="natural" v="wetland" />
		<tag k="ssr:stedsnr" v="553566" />
	</node>
	<node id="-324165" lat="60.5710638879" lon="11.8865555498">
		<tag k="historic" v="shieling" />
		<tag k="name" v="Brattbergsvollen" />
		<tag k="place" v="locality" />
		<tag k="ssr:stedsnr" v="544594" />
	</node>
	<node id="-324159" lat="60.5621055579" lon="12.105002774">
		<tag k="name" v="Halvorsholtet" />
		<tag k="place" v="locality" />
		<tag k="ssr:stedsnr" v="543876" />
	</node>
	<node id="-324156" lat="60.68419444" lon="12.2464916751">
		<tag k="name" v="Tellesrøftet" />
		<tag k="place" v="locality" />
		<tag k="ssr:stedsnr" v="544068" />
	</node>
	<node id="-324154" lat="60.5415916631" lon="11.8472666595">
		<tag k="name" v="Hvilinga" />
		<tag k="place" v="locality" />
		<tag k="ssr:stedsnr" v="543567" />
	</node>
	<node id="-324151" lat="60.8524583297" lon="12.2311000026">
		<tag k="name" v="Saumyra" />
		<tag k="natural" v="wetland" />
		<tag k="ssr:stedsnr" v="543300" />
	</node>
	<node id="-324149" lat="60.5729361136" lon="12.2830611079">
		<tag k="name" v="Migarmyra" />
		<tag k="natural" v="wetland" />
		<tag k="ssr:stedsnr" v="543266" />
	</node>
	<node id="-324146" lat="60.5969888924" lon="11.9938055525">
		<tag k="name" v="Lauta" />
		<tag k="place" v="locality" />
		<tag k="ssr:stedsnr" v="542524" />
	</node>
	<node id="-324143" lat="60.611422218" lon="12.4998055585">
		<tag k="historic" v="shieling" />
		<tag k="name" v="Innmålinga" />
		<tag k="place" v="locality" />
		<tag k="ssr:stedsnr" v="542260" />
	</node>
	<node id="-324137" lat="60.552402776" lon="11.7202138797">
		<tag k="name" v="Gammelsæterberget" />
		<tag k="place" v="locality" />
		<tag k="ssr:stedsnr" v="540660" />
	</node>
	<node id="-324136" lat="60.6825805565" lon="12.4517805605">
		<tag k="name" v="Sjømyra" />
		<tag k="natural" v="wetland" />
		<tag k="ssr:stedsnr" v="540659" />
	</node>
	<node id="-322311" lat="60.5813416638" lon="12.31083889">
		<tag k="name" v="Gampeskrøttmyra" />
		<tag k="natural" v="wetland" />
		<tag k="ssr:stedsnr" v="241488" />
	</node>
	<node id="-324131" lat="60.5304194476" lon="12.5027944519">
		<tag k="name" v="Kistmyra" />
		<tag k="natural" v="wetland" />
		<tag k="ssr:stedsnr" v="527931" />
	</node>
	<node id="-324129" lat="60.5971555559" lon="12.1050722267">
		<tag k="name" v="Grastumyra" />
		<tag k="natural" v="wetland" />
		<tag k="ssr:stedsnr" v="527881" />
	</node>
	<node id="-324128" lat="60.7113944461" lon="12.4128472221">
		<tag k="name" v="Danielsundbråtan" />
		<tag k="place" v="locality" />
		<tag k="ssr:stedsnr" v="527704" />
	</node>
	<node id="-324125" lat="60.7005750002" lon="12.3104333286">
		<tag k="name" v="Tjernsmyrene" />
		<tag k="natural" v="wetland" />
		<tag k="ssr:stedsnr" v="527374" />
	</node>
	<node id="-324122" lat="60.6938833317" lon="12.4309722188">
		<tag k="name" v="Leikmyrholen" />
		<tag k="place" v="locality" />
		<tag k="ssr:stedsnr" v="527691" />
	</node>
	<node id="-324116" lat="60.6440944486" lon="11.9841527788">
		<tag k="name" v="Bukkelia" />
		<tag k="place" v="locality" />
		<tag k="ssr:stedsnr" v="526989" />
	</node>
	<node id="-324113" lat="60.5577805575" lon="12.269719439">
		<tag k="name" v="Pilgrimsmyra" />
		<tag k="natural" v="wetland" />
		<tag k="ssr:stedsnr" v="526486" />
	</node>
	<node id="-324105" lat="60.5789222237" lon="12.21385833">
		<tag k="name" v="Djupdalsmyra" />
		<tag k="natural" v="wetland" />
		<tag k="ssr:stedsnr" v="525269" />
	</node>
	<node id="-324083" lat="60.6778833335" lon="12.2633611041">
		<tag k="alt_name" v="Måsåmyra" />
		<tag k="name" v="Måsamyra" />
		<tag k="natural" v="wetland" />
		<tag k="ssr:stedsnr" v="432566" />
	</node>
	<node id="-324060" lat="60.6636999959" lon="12.1407805563">
		<tag k="name" v="Steinsmyra" />
		<tag k="natural" v="wetland" />
		<tag k="ssr:stedsnr" v="432072" />
	</node>
	<node id="-324043" lat="60.6289166676" lon="12.1305388849">
		<tag k="name" v="Digerhedmyra" />
		<tag k="natural" v="wetland" />
		<tag k="ssr:stedsnr" v="423949" />
	</node>
	<node id="-324042" lat="60.530563892" lon="11.7570277771">
		<tag k="name" v="Gråbeinmyrene" />
		<tag k="natural" v="wetland" />
		<tag k="ssr:stedsnr" v="423946" />
	</node>
	<node id="-324036" lat="60.6719138931" lon="12.2486750039">
		<tag k="name" v="Neverholen" />
		<tag k="place" v="locality" />
		<tag k="ssr:stedsnr" v="423071" />
	</node>
	<node id="-324035" lat="60.7162944438" lon="12.2682361131">
		<tag k="name" v="Bolke-Rasta" />
		<tag k="place" v="locality" />
		<tag k="ssr:stedsnr" v="423036" />
	</node>
	<node id="-324033" lat="60.8480027759" lon="12.2628972169">
		<tag k="name" v="Finnmarksporse" />
		<tag k="place" v="locality" />
		<tag k="ssr:stedsnr" v="422265" />
	</node>
	<node id="-324026" lat="60.7712194456" lon="12.0784277726">
		<tag k="name" v="Stormyra" />
		<tag k="natural" v="wetland" />
		<tag k="ssr:stedsnr" v="421831" />
	</node>
	<node id="-324025" lat="60.7394805587" lon="12.1689166604">
		<tag k="name" v="Østre Buråsen" />
		<tag k="place" v="locality" />
		<tag k="ssr:stedsnr" v="422058" />
	</node>
	<node id="-324024" lat="60.5579416664" lon="11.8218194528">
		<tag k="name" v="Klundsætermarka" />
		<tag k="place" v="locality" />
		<tag k="ssr:stedsnr" v="421571" />
	</node>
	<node id="-324022" lat="60.7511999965" lon="12.3004694374">
		<tag k="name" v="Stormyra" />
		<tag k="natural" v="wetland" />
		<tag k="ssr:stedsnr" v="421356" />
	</node>
	<node id="-324018" lat="60.7285333323" lon="12.1557111088">
		<tag k="name" v="Gullsteinmyra" />
		<tag k="natural" v="wetland" />
		<tag k="ssr:stedsnr" v="419760" />
	</node>
	<node id="-324011" lat="60.5649333366" lon="12.3692500046">
		<tag k="name" v="Klintmyra" />
		<tag k="natural" v="wetland" />
		<tag k="ssr:stedsnr" v="419486" />
	</node>
	<node id="-324010" lat="60.5886972198" lon="12.3961222134">
		<tag k="name" v="Granskrokkhølet" />
		<tag k="place" v="locality" />
		<tag k="ssr:stedsnr" v="419480" />
	</node>
	<node id="-324008" lat="60.6461388858" lon="12.4484472229">
		<tag k="name" v="Steinmyra" />
		<tag k="natural" v="wetland" />
		<tag k="ssr:stedsnr" v="419653" />
	</node>
	<node id="-324002" lat="60.6981833289" lon="12.2899944452">
		<tag k="name" v="Hæraberget" />
		<tag k="place" v="locality" />
		<tag k="ssr:stedsnr" v="406377" />
	</node>
	<node id="-324000" lat="60.5751972249" lon="12.4863138938">
		<tag k="name" v="Heikismyrene" />
		<tag k="natural" v="wetland" />
		<tag k="ssr:stedsnr" v="406347" />
	</node>
	<node id="-323999" lat="60.8236666696" lon="12.2849833402">
		<tag k="name" v="Hedemarkingsholtet" />
		<tag k="place" v="locality" />
		<tag k="ssr:stedsnr" v="406335" />
	</node>
	<node id="-323997" lat="60.5265138882" lon="12.2867916687">
		<tag k="name" v="Stamyra" />
		<tag k="natural" v="wetland" />
		<tag k="ssr:stedsnr" v="405251" />
	</node>
	<node id="-323193" lat="60.7929666688" lon="12.3130222255">
		<tag k="name" v="Venmyra" />
		<tag k="natural" v="wetland" />
		<tag k="ssr:stedsnr" v="908365" />
	</node>
	<node id="-323995" lat="60.646091669" lon="11.9808611182">
		<tag k="name" v="Barkåsen" />
		<tag k="place" v="locality" />
		<tag k="ssr:stedsnr" v="404983" />
	</node>
	<node id="-323991" lat="60.5328611136" lon="12.5917388833">
		<tag k="name" v="Markusslåtten" />
		<tag k="place" v="locality" />
		<tag k="ssr:stedsnr" v="404693" />
	</node>
	<node id="-323982" lat="60.8160194439" lon="12.3009250032">
		<tag k="name" v="Lindmyra" />
		<tag k="natural" v="wetland" />
		<tag k="ssr:stedsnr" v="373744" />
	</node>
	<node id="-323978" lat="60.8146444398" lon="12.1347638971">
		<tag k="name" v="Digerholtet" />
		<tag k="place" v="locality" />
		<tag k="ssr:stedsnr" v="373532" />
	</node>
	<node id="-323971" lat="60.6226888862" lon="12.0695277696">
		<tag k="name" v="Losmyra" />
		<tag k="natural" v="wetland" />
		<tag k="ssr:stedsnr" v="371865" />
	</node>
	<node id="-323954" lat="60.642277778" lon="11.9731277787">
		<tag k="alt_name" v="Skjeftmyra" />
		<tag k="name" v="Kjeftmyra" />
		<tag k="natural" v="wetland" />
		<tag k="ssr:stedsnr" v="370857" />
	</node>
	<node id="-323945" lat="60.6338111123" lon="12.1189527714">
		<tag k="name" v="Langsmale" />
		<tag k="natural" v="wetland" />
		<tag k="ssr:stedsnr" v="362932" />
	</node>
	<node id="-323942" lat="60.5705888934" lon="12.1224749914">
		<tag k="name" v="Salberget" />
		<tag k="place" v="locality" />
		<tag k="ssr:stedsnr" v="362886" />
	</node>
	<node id="-323940" lat="60.790394447" lon="12.3378833415">
		<tag k="name" v="Bjørnbrenna" />
		<tag k="place" v="locality" />
		<tag k="ssr:stedsnr" v="362364" />
	</node>
	<node id="-323937" lat="60.7015583297" lon="12.2027499962">
		<tag k="name" v="Tellesætermyra" />
		<tag k="natural" v="wetland" />
		<tag k="ssr:stedsnr" v="362091" />
	</node>
	<node id="-323936" lat="60.7236194476" lon="12.2648111036">
		<tag k="name" v="Vakkerholen" />
		<tag k="place" v="locality" />
		<tag k="ssr:stedsnr" v="362087" />
	</node>
	<node id="-323935" lat="60.7266611075" lon="12.2322305578">
		<tag k="name" v="Stor-Stein" />
		<tag k="natural" v="stone" />
		<tag k="ssr:stedsnr" v="362084" />
	</node>
	<node id="-323931" lat="60.6352611127" lon="12.3674833403">
		<tag k="historic" v="shieling" />
		<tag k="name" v="Hansvollen" />
		<tag k="place" v="locality" />
		<tag k="ssr:stedsnr" v="360435" />
	</node>
	<node id="-323929" lat="60.8416638903" lon="12.2386444459">
		<tag k="historic" v="shieling" />
		<tag k="name" v="Linnerud" />
		<tag k="place" v="locality" />
		<tag k="ssr:stedsnr" v="360238" />
	</node>
	<node id="-323928" lat="60.6564416669" lon="12.2675388912">
		<tag k="name" v="Langrustmyra" />
		<tag k="natural" v="wetland" />
		<tag k="ssr:stedsnr" v="360097" />
	</node>
	<node id="-323925" lat="60.6229027815" lon="12.3440805508">
		<tag k="name" v="Grasbekkmyra" />
		<tag k="natural" v="wetland" />
		<tag k="ssr:stedsnr" v="358482" />
	</node>
	<node id="-323924" lat="60.6093722185" lon="12.3019250024">
		<tag k="name" v="Gorokorsmyra" />
		<tag k="natural" v="wetland" />
		<tag k="ssr:stedsnr" v="358477" />
	</node>
	<node id="-323923" lat="60.8800277822" lon="12.1807111123">
		<tag k="name" v="Strandgulvet" />
		<tag k="natural" v="wetland" />
		<tag k="ssr:stedsnr" v="358245" />
	</node>
	<node id="-323921" lat="60.5998361123" lon="12.2189750045">
		<tag k="name" v="Dalfeirmyra" />
		<tag k="natural" v="wetland" />
		<tag k="ssr:stedsnr" v="358217" />
	</node>
	<node id="-323913" lat="60.5651694435" lon="11.9447861082">
		<tag k="name" v="Auråsmyra" />
		<tag k="natural" v="wetland" />
		<tag k="ssr:stedsnr" v="345548" />
	</node>
	<node id="-323912" lat="60.5634666639" lon="11.7871250026">
		<tag k="name" v="Knartmyra" />
		<tag k="natural" v="wetland" />
		<tag k="ssr:stedsnr" v="345188" />
	</node>
	<node id="-323911" lat="60.5681555587" lon="11.7989138971">
		<tag k="name" v="Kristiansand" />
		<tag k="place" v="locality" />
		<tag k="ssr:stedsnr" v="345184" />
	</node>
	<node id="-323908" lat="60.6728527734" lon="12.1130777764">
		<tag k="name" v="Trond-Neset" />
		<tag k="place" v="locality" />
		<tag k="ssr:stedsnr" v="343882" />
	</node>
	<node id="-323907" lat="60.6755333308" lon="12.1247499939">
		<tag k="name" v="Eike-Neset" />
		<tag k="place" v="locality" />
		<tag k="ssr:stedsnr" v="343881" />
	</node>
	<node id="-323902" lat="60.5450194422" lon="11.8974083377">
		<tag k="name" v="Retteråsen" />
		<tag k="place" v="locality" />
		<tag k="ssr:stedsnr" v="343599" />
	</node>
	<node id="-323900" lat="60.5351861147" lon="11.9382805649">
		<tag k="name" v="Hukusjømyra" />
		<tag k="natural" v="wetland" />
		<tag k="ssr:stedsnr" v="343590" />
	</node>
	<node id="-323899" lat="60.5817805561" lon="12.2122194358">
		<tag k="name" v="Djupdalsholen" />
		<tag k="place" v="locality" />
		<tag k="ssr:stedsnr" v="343233" />
	</node>
	<node id="-323898" lat="60.5735194428" lon="12.1882916739">
		<tag k="name" v="Kjellmyra" />
		<tag k="natural" v="wetland" />
		<tag k="ssr:stedsnr" v="343208" />
	</node>
	<node id="-323897" lat="60.6184444431" lon="12.1838222213">
		<tag k="historic" v="shieling" />
		<tag k="name" v="Nysætra" />
		<tag k="place" v="locality" />
		<tag k="ssr:stedsnr" v="343166" />
	</node>
	<node id="-323871" lat="60.6125277767" lon="12.1299666606">
		<tag k="name" v="Brusmyra" />
		<tag k="natural" v="wetland" />
		<tag k="ssr:stedsnr" v="310852" />
	</node>
	<node id="-323842" lat="60.6612083306" lon="11.9946000043">
		<tag k="name" v="Baksjømyra" />
		<tag k="natural" v="wetland" />
		<tag k="ssr:stedsnr" v="310088" />
	</node>
	<node id="-323826" lat="60.6738305569" lon="12.2444472273">
		<tag k="name" v="Kjellmyra" />
		<tag k="natural" v="wetland" />
		<tag k="ssr:stedsnr" v="302095" />
	</node>
	<node id="-323823" lat="60.805844442" lon="12.1276416667">
		<tag k="historic" v="shieling" />
		<tag k="name" v="Bråtevollen" />
		<tag k="place" v="locality" />
		<tag k="ssr:stedsnr" v="301732" />
	</node>
	<node id="-322594" lat="60.5766888922" lon="12.309111109">
		<tag k="name" v="Lusterudsmyra" />
		<tag k="natural" v="wetland" />
		<tag k="ssr:stedsnr" v="484491" />
	</node>
	<node id="-323764" lat="60.7192194442" lon="12.2668111187">
		<tag k="name" v="Tores-myra" />
		<tag k="natural" v="wetland" />
		<tag k="ssr:stedsnr" v="181093" />
	</node>
	<node id="-323762" lat="60.5302138915" lon="11.7263444358">
		<tag k="name" v="Bossmyrene" />
		<tag k="natural" v="wetland" />
		<tag k="ssr:stedsnr" v="180935" />
	</node>
	<node id="-323761" lat="60.7984305578" lon="12.1285361172">
		<tag k="historic" v="shieling" />
		<tag k="name" v="Rustenvollen" />
		<tag k="place" v="locality" />
		<tag k="ssr:stedsnr" v="180720" />
	</node>
	<node id="-323759" lat="60.5646555529" lon="11.8990166644">
		<tag k="name" v="Lemyra" />
		<tag k="natural" v="wetland" />
		<tag k="ssr:stedsnr" v="180596" />
	</node>
	<node id="-323749" lat="60.6592638879" lon="12.4870666623">
		<tag k="name" v="Store Leikemyra" />
		<tag k="natural" v="wetland" />
		<tag k="ssr:stedsnr" v="178643" />
	</node>
	<node id="-323746" lat="60.6573916693" lon="12.4206388877">
		<tag k="name" v="Nordre Momyra" />
		<tag k="natural" v="wetland" />
		<tag k="ssr:stedsnr" v="178634" />
	</node>
	<node id="-323745" lat="60.6432361083" lon="12.3379166752">
		<tag k="name" v="Aluntjernsmyrene" />
		<tag k="natural" v="wetland" />
		<tag k="ssr:stedsnr" v="178488" />
	</node>
	<node id="-323731" lat="60.7768694481" lon="12.3541527852">
		<tag k="name" v="Hundholen" />
		<tag k="place" v="locality" />
		<tag k="ssr:stedsnr" v="176299" />
	</node>
	<node id="-323729" lat="60.5865444434" lon="12.2359555574">
		<tag k="historic" v="shieling" />
		<tag k="name" v="Arnebergsætra" />
		<tag k="place" v="locality" />
		<tag k="ssr:stedsnr" v="176200" />
	</node>
	<node id="-323728" lat="60.8368388901" lon="12.2319333422">
		<tag k="name" v="Plaumyra" />
		<tag k="natural" v="wetland" />
		<tag k="ssr:stedsnr" v="176011" />
	</node>
	<node id="-323726" lat="60.5357638883" lon="12.5135694521">
		<tag k="name" v="Rompomyra" />
		<tag k="natural" v="wetland" />
		<tag k="ssr:stedsnr" v="163950" />
	</node>
	<node id="-323725" lat="60.5408694434" lon="12.5135861135">
		<tag k="name" v="La'halampso" />
		<tag k="natural" v="wetland" />
		<tag k="ssr:stedsnr" v="163949" />
	</node>
	<node id="-323724" lat="60.5407805565" lon="12.4853472288">
		<tag k="name" v="Rianso" />
		<tag k="natural" v="wetland" />
		<tag k="ssr:stedsnr" v="163947" />
	</node>
	<node id="-323723" lat="60.605219444" lon="12.1505277749">
		<tag k="name" v="Spjutholen" />
		<tag k="place" v="locality" />
		<tag k="ssr:stedsnr" v="163945" />
	</node>
	<node id="-323722" lat="60.5737472209" lon="12.5257611082">
		<tag k="name" v="Nedre Fåfengmyra" />
		<tag k="natural" v="wetland" />
		<tag k="ssr:stedsnr" v="163677" />
	</node>
	<node id="-323721" lat="60.5322083322" lon="12.5625166627">
		<tag k="name" v="Fiskefløyta" />
		<tag k="natural" v="wetland" />
		<tag k="ssr:stedsnr" v="163601" />
	</node>
	<node id="-323715" lat="60.5253222244" lon="12.291125004">
		<tag k="name" v="Lauvmyra" />
		<tag k="natural" v="wetland" />
		<tag k="ssr:stedsnr" v="162239" />
	</node>
	<node id="-323714" lat="60.5397472234" lon="12.2937166721">
		<tag k="name" v="Blækamyra" />
		<tag k="natural" v="wetland" />
		<tag k="ssr:stedsnr" v="162237" />
	</node>
	<node id="-323713" lat="60.6658361153" lon="11.9815638961">
		<tag k="name" v="Hammermyra" />
		<tag k="natural" v="wetland" />
		<tag k="ssr:stedsnr" v="161990" />
	</node>
	<node id="-323709" lat="60.6549638864" lon="12.2250694496">
		<tag k="name" v="Langhavet" />
		<tag k="natural" v="wetland" />
		<tag k="ssr:stedsnr" v="161129" />
	</node>
	<node id="-323708" lat="60.5702444448" lon="12.2117583244">
		<tag k="name" v="Bjørkesnaret" />
		<tag k="place" v="locality" />
		<tag k="ssr:stedsnr" v="161221" />
	</node>
	<node id="-323707" lat="60.570422221" lon="12.1903416754">
		<tag k="name" v="Nedre Kvennmyra" />
		<tag k="natural" v="wetland" />
		<tag k="ssr:stedsnr" v="161220" />
	</node>
	<node id="-323706" lat="60.666724999" lon="12.3881416657">
		<tag k="name" v="Rådelsmyra" />
		<tag k="natural" v="wetland" />
		<tag k="ssr:stedsnr" v="160393" />
	</node>
	<node id="-322238" lat="60.6699277777" lon="12.148705564">
		<tag k="name" v="Grindjua" />
		<tag k="place" v="locality" />
		<tag k="ssr:stedsnr" v="222851" />
	</node>
	<node id="-323688" lat="60.5694944423" lon="12.0903111115">
		<tag k="name" v="Prestmyra" />
		<tag k="natural" v="wetland" />
		<tag k="ssr:stedsnr" v="128950" />
	</node>
	<node id="-323667" lat="60.5307111126" lon="12.553780559">
		<tag k="name" v="Langmyra" />
		<tag k="natural" v="wetland" />
		<tag k="ssr:stedsnr" v="128693" />
	</node>
	<node id="-322231" lat="60.5483083335" lon="12.1978083364">
		<tag k="name" v="Plantjernsmyra" />
		<tag k="natural" v="wetland" />
		<tag k="ssr:stedsnr" v="222436" />
	</node>
	<node id="-323651" lat="60.6093888858" lon="12.2938194412">
		<tag k="fixme" v="multiple name tags, choose one and add the other to alt_name" />
		<tag k="name" v="Kjeldmyra;Tjeldmyra" />
		<tag k="natural" v="wetland" />
		<tag k="ssr:stedsnr" v="128510" />
	</node>
	<node id="-323649" lat="60.5456500014" lon="11.7917527741">
		<tag k="name" v="Vogmyra" />
		<tag k="natural" v="wetland" />
		<tag k="ssr:stedsnr" v="128101" />
	</node>
	<node id="-323642" lat="60.5772305601" lon="12.3042055513">
		<tag k="name" v="Fiskerholen" />
		<tag k="place" v="locality" />
		<tag k="ssr:stedsnr" v="120486" />
	</node>
	<node id="-323640" lat="60.6779138889" lon="11.9109611045">
		<tag k="name" v="Småjenteskogen" />
		<tag k="place" v="locality" />
		<tag k="ssr:stedsnr" v="120422" />
	</node>
	<node id="-323639" lat="60.7174750023" lon="12.2392361085">
		<tag k="name" v="Fallåsholen" />
		<tag k="place" v="locality" />
		<tag k="ssr:stedsnr" v="120087" />
	</node>
	<node id="-323638" lat="60.6894888912" lon="12.2487861028">
		<tag k="name" v="Mugginrusta" />
		<tag k="place" v="locality" />
		<tag k="ssr:stedsnr" v="120080" />
	</node>
	<node id="-323637" lat="60.6703861072" lon="12.2608138818">
		<tag k="name" v="Røgstadmyra" />
		<tag k="natural" v="wetland" />
		<tag k="ssr:stedsnr" v="120074" />
	</node>
	<node id="-323635" lat="60.8164333357" lon="12.1804277807">
		<tag k="historic" v="shieling" />
		<tag k="name" v="Myrvollen" />
		<tag k="place" v="locality" />
		<tag k="ssr:stedsnr" v="119724" />
	</node>
	<node id="-323626" lat="60.6385138914" lon="12.3806638897">
		<tag k="name" v="Høttmyra" />
		<tag k="natural" v="wetland" />
		<tag k="ssr:stedsnr" v="118434" />
	</node>
	<node id="-323622" lat="60.5408222192" lon="11.7514527685">
		<tag k="name" v="Kloppmyra" />
		<tag k="natural" v="wetland" />
		<tag k="ssr:stedsnr" v="116676" />
	</node>
	<node id="-323621" lat="60.615744448" lon="12.3018888881">
		<tag k="name" v="Eftasdølpa" />
		<tag k="natural" v="wetland" />
		<tag k="ssr:stedsnr" v="116494" />
	</node>
	<node id="-322224" lat="60.5800888924" lon="12.1986083359">
		<tag k="name" v="Gropåsmyra" />
		<tag k="natural" v="wetland" />
		<tag k="ssr:stedsnr" v="222227" />
	</node>
	<node id="-323614" lat="60.7290277812" lon="12.2657861046">
		<tag k="name" v="Linkamyra" />
		<tag k="natural" v="wetland" />
		<tag k="ssr:stedsnr" v="110395" />
	</node>
	<node id="-323611" lat="60.6267111147" lon="12.1496499989">
		<tag k="name" v="Halåsen" />
		<tag k="place" v="locality" />
		<tag k="ssr:stedsnr" v="102944" />
	</node>
	<node id="-323610" lat="60.6128833322" lon="12.1627277774">
		<tag k="name" v="Klokken" />
		<tag k="place" v="locality" />
		<tag k="ssr:stedsnr" v="102938" />
	</node>
	<node id="-323608" lat="60.7218500019" lon="12.0295194393">
		<tag k="name" v="Smalmyra" />
		<tag k="natural" v="wetland" />
		<tag k="ssr:stedsnr" v="102819" />
	</node>
	<node id="-323607" lat="60.7008583296" lon="12.0207916714">
		<tag k="name" v="Hola" />
		<tag k="place" v="locality" />
		<tag k="ssr:stedsnr" v="102815" />
	</node>
	<node id="-323604" lat="60.5397361111" lon="12.5321194384">
		<tag k="name" v="Kaldmyra" />
		<tag k="natural" v="wetland" />
		<tag k="ssr:stedsnr" v="102685" />
	</node>
	<node id="-323603" lat="60.5317722191" lon="12.5417805635">
		<tag k="name" v="Jonaskaskin" />
		<tag k="natural" v="wetland" />
		<tag k="ssr:stedsnr" v="102681" />
	</node>
	<node id="-323602" lat="60.5782694423" lon="11.947141665">
		<tag k="name" v="Ny-Jord" />
		<tag k="place" v="locality" />
		<tag k="ssr:stedsnr" v="102663" />
	</node>
	<node id="-323599" lat="60.5830972224" lon="12.4707722168">
		<tag k="name" v="Kontmyra" />
		<tag k="natural" v="wetland" />
		<tag k="ssr:stedsnr" v="102398" />
	</node>
	<node id="-323597" lat="60.5897055523" lon="12.4987194413">
		<tag k="name" v="Vålbergsmyra" />
		<tag k="natural" v="wetland" />
		<tag k="ssr:stedsnr" v="102379" />
	</node>
	<node id="-323596" lat="60.6046388892" lon="12.49694444">
		<tag k="name" v="Daurlambsmyrene" />
		<tag k="natural" v="wetland" />
		<tag k="ssr:stedsnr" v="102375" />
	</node>
	<node id="-323595" lat="60.599255556" lon="12.483850008">
		<tag k="name" v="Blekkyrberget" />
		<tag k="place" v="locality" />
		<tag k="ssr:stedsnr" v="102374" />
	</node>
	<node id="-323592" lat="60.5908277789" lon="12.2621777847">
		<tag k="historic" v="shieling" />
		<tag k="name" v="Østre Venberget" />
		<tag k="place" v="locality" />
		<tag k="ssr:stedsnr" v="102235" />
	</node>
	<node id="-323590" lat="60.775463893" lon="12.1794805565">
		<tag k="name" v="Slåttbråtåmyra" />
		<tag k="natural" v="wetland" />
		<tag k="ssr:stedsnr" v="102057" />
	</node>
	<node id="-323588" lat="60.6558583335" lon="11.9845972199">
		<tag k="name" v="Blekedalsmyra" />
		<tag k="natural" v="wetland" />
		<tag k="ssr:stedsnr" v="101988" />
	</node>
</osm>
