<?xml version="1.0" encoding="UTF-8"?>
<osm generator="osmapis" version="0.6">
	<node id="-41071" lat="60.6406111091" lon="12.4616111085">
		<tag k="name" v="Høgberget" />
		<tag k="natural" v="hill" />
		<tag k="place" v="locality" />
		<tag k="ssr:stedsnr" v="7495" />
	</node>
	<node id="-40447" lat="60.6605944461" lon="12.2595694536">
		<tag k="name" v="Fullmektigsvingen" />
		<tag k="place" v="locality" />
		<tag k="ssr:stedsnr" v="482112" />
	</node>
	<node id="-40958" lat="60.5524583333" lon="12.2668749942">
		<tag k="name" v="Sjøberget" />
		<tag k="natural" v="hill" />
		<tag k="place" v="locality" />
		<tag k="ssr:stedsnr" v="857574" />
	</node>
	<node id="-40789" lat="60.5915972208" lon="12.2456555553">
		<tag k="name" v="Kujohandalen" />
		<tag k="natural" v="valley" />
		<tag k="place" v="locality" />
		<tag k="ssr:stedsnr" v="891240" />
	</node>
	<node id="-41468" lat="60.8136972227" lon="12.1297611162">
		<tag k="fixme" v="consider natural=peak for the most distinct mountains in the district" />
		<tag k="name" v="Stormoldberget" />
		<tag k="natural" v="hill" />
		<tag k="place" v="locality" />
		<tag k="ssr:stedsnr" v="301728" />
	</node>
	<node id="-40874" lat="60.5888611154" lon="12.5013416639">
		<tag k="name" v="Vålberget" />
		<tag k="natural" v="hill" />
		<tag k="place" v="locality" />
		<tag k="ssr:stedsnr" v="917515" />
	</node>
	<node id="-40954" lat="60.6468194438" lon="11.9637499966">
		<tag k="alt_name" v="Hollberget" />
		<tag k="name" v="Hollarberget" />
		<tag k="natural" v="hill" />
		<tag k="place" v="locality" />
		<tag k="ssr:stedsnr" v="857074" />
	</node>
	<node id="-41465" lat="60.603486115" lon="12.3716361076">
		<tag k="name" v="Finnskogen" />
		<tag k="natural" v="wood" />
		<tag k="ssr:stedsnr" v="203474" />
	</node>
	<node id="-41470" lat="60.7885194403" lon="12.155133332">
		<tag k="name" v="Halifaksdalen" />
		<tag k="natural" v="valley" />
		<tag k="place" v="locality" />
		<tag k="ssr:stedsnr" v="301734" />
	</node>
	<node id="-39922" lat="60.5949805511" lon="12.483416675">
		<tag k="name" v="Hararisbakken" />
		<tag k="natural" v="slope" />
		<tag k="place" v="locality" />
		<tag k="ssr:stedsnr" v="42308" />
	</node>
	<node id="-39921" lat="60.6254555582" lon="12.0594972212">
		<tag k="name" v="Strandvikhauga" />
		<tag k="natural" v="hill" />
		<tag k="place" v="locality" />
		<tag k="ssr:stedsnr" v="41909" />
	</node>
	<node id="-39920" lat="60.5503138865" lon="12.417513896">
		<tag k="fixme" v="consider natural=peak for the most distinct mountains in the district" />
		<tag k="name" v="Gammeltorpberget" />
		<tag k="natural" v="hill" />
		<tag k="place" v="locality" />
		<tag k="ssr:stedsnr" v="41901" />
	</node>
	<node id="-40943" lat="60.7945388917" lon="12.1490722141">
		<tag k="fixme" v="consider natural=peak for the most distinct mountains in the district" />
		<tag k="name" v="Velt-Moldberget" />
		<tag k="natural" v="hill" />
		<tag k="place" v="locality" />
		<tag k="ssr:stedsnr" v="847736" />
	</node>
	<node id="-40430" lat="60.6688416714" lon="12.3337194358">
		<tag k="name" v="Bjørndalen" />
		<tag k="natural" v="valley" />
		<tag k="place" v="locality" />
		<tag k="ssr:stedsnr" v="464454" />
	</node>
	<node id="-40429" lat="60.6450194436" lon="12.03555834">
		<tag k="name" v="Skomakerhaugen" />
		<tag k="natural" v="hill" />
		<tag k="place" v="locality" />
		<tag k="ssr:stedsnr" v="666939" />
	</node>
	<node id="-39915" lat="60.5940666644" lon="11.9203805642">
		<tag k="name" v="Moen" />
		<tag k="place" v="locality" />
		<tag k="ssr:stedsnr" v="40611" />
	</node>
	<node id="-39914" lat="60.7125250023" lon="12.3951416587">
		<tag k="name" v="Mellemhøklingen" />
		<tag k="natural" v="hill" />
		<tag k="place" v="locality" />
		<tag k="ssr:stedsnr" v="40418" />
	</node>
	<node id="-39913" lat="60.6677111105" lon="12.2470277759">
		<tag k="name" v="Sæbuberget" />
		<tag k="natural" v="hill" />
		<tag k="place" v="locality" />
		<tag k="ssr:stedsnr" v="40120" />
	</node>
	<node id="-40423" lat="60.6807138867" lon="12.2703694473">
		<tag k="name" v="Kjinntrillhælet" />
		<tag k="natural" v="valley" />
		<tag k="place" v="locality" />
		<tag k="ssr:stedsnr" v="666091" />
	</node>
	<node id="-41956" lat="60.6003416683" lon="12.5156944425">
		<tag k="alt_name" v="Gråbergshetta" />
		<tag k="loc_name" v="Harmaamaki" />
		<tag k="name" v="Gråberget" />
		<tag k="natural" v="hill" />
		<tag k="place" v="locality" />
		<tag k="ssr:stedsnr" v="613526" />
	</node>
	<node id="-42080" lat="60.6721805545" lon="12.2859166609">
		<tag k="name" v="Skuggensdal" />
		<tag k="natural" v="valley" />
		<tag k="place" v="locality" />
		<tag k="ssr:stedsnr" v="787468" />
	</node>
	<node id="-41166" lat="60.5646888855" lon="12.2788444413">
		<tag k="name" v="Skallberget" />
		<tag k="natural" v="hill" />
		<tag k="place" v="locality" />
		<tag k="ssr:stedsnr" v="58412" />
	</node>
	<node id="-41978" lat="60.7726000016" lon="12.337558339">
		<tag k="alt_name" v="Kolåsen" />
		<tag k="name" v="Kolåshøgda" />
		<tag k="natural" v="hill" />
		<tag k="place" v="locality" />
		<tag k="ssr:stedsnr" v="615716" />
	</node>
	<node id="-41432" lat="60.681041668" lon="12.3715027803">
		<tag k="name" v="Vermundsberget" />
		<tag k="natural" v="hill" />
		<tag k="place" v="locality" />
		<tag k="ssr:stedsnr" v="189553" />
	</node>
	<node id="-40918" lat="60.5877027799" lon="12.1073249989">
		<tag k="name" v="Tallknuten" />
		<tag k="natural" v="hill" />
		<tag k="old_name" v="Talknuten" />
		<tag k="place" v="locality" />
		<tag k="ssr:stedsnr" v="796811" />
	</node>
	<node id="-40404" lat="60.5580972249" lon="12.3152666647">
		<tag k="name" v="Bringfuruhaugen" />
		<tag k="natural" v="hill" />
		<tag k="place" v="locality" />
		<tag k="ssr:stedsnr" v="662017" />
	</node>
	<node id="-40915" lat="60.6896361118" lon="12.219763886">
		<tag k="alt_name" v="Flobuåsen" />
		<tag k="fixme" v="consider natural=peak for the most distinct mountains in the district" />
		<tag k="name" v="Flobergsåsen" />
		<tag k="natural" v="hill" />
		<tag k="place" v="locality" />
		<tag k="ssr:stedsnr" v="796558" />
	</node>
	<node id="-41426" lat="60.5144583329" lon="11.8130500031">
		<tag k="fixme" v="consider natural=peak for the most distinct mountains in the district" />
		<tag k="name" v="Kirkemofjellet" />
		<tag k="natural" v="hill" />
		<tag k="place" v="locality" />
		<tag k="ssr:stedsnr" v="189197" />
	</node>
	<node id="-41425" lat="60.7373555585" lon="12.034525004">
		<tag k="fixme" v="consider natural=peak for the most distinct mountains in the district" />
		<tag k="name" v="Risbergåsen" />
		<tag k="natural" v="hill" />
		<tag k="place" v="locality" />
		<tag k="ssr:stedsnr" v="189188" />
	</node>
	<node id="-41936" lat="60.7223583352" lon="12.0178833245">
		<tag k="fixme" v="consider natural=peak for the most distinct mountains in the district" />
		<tag k="name" v="Digeråsen" />
		<tag k="natural" v="hill" />
		<tag k="place" v="locality" />
		<tag k="ssr:stedsnr" v="613194" />
	</node>
	<node id="-40911" lat="60.7016750019" lon="11.9810999924">
		<tag k="fixme" v="consider natural=peak for the most distinct mountains in the district" />
		<tag k="name" v="Glorvikåsen" />
		<tag k="natural" v="hill" />
		<tag k="place" v="locality" />
		<tag k="ssr:stedsnr" v="796029" />
	</node>
	<node id="-41933" lat="60.8766305517" lon="12.1882805581">
		<tag k="name" v="Paris" />
		<tag k="place" v="locality" />
		<tag k="ssr:stedsnr" v="605132" />
	</node>
	<node id="-40907" lat="60.5995249986" lon="12.1285611201">
		<tag k="name" v="Hellberget" />
		<tag k="natural" v="hill" />
		<tag k="place" v="locality" />
		<tag k="ssr:stedsnr" v="795762" />
	</node>
	<node id="-40394" lat="60.7602250025" lon="12.058080556">
		<tag k="name" v="Sjølisæterberget" />
		<tag k="natural" v="hill" />
		<tag k="place" v="locality" />
		<tag k="ssr:stedsnr" v="434503" />
	</node>
	<node id="-40391" lat="60.6084111131" lon="12.2070000023">
		<tag k="name" v="Lauvberget" />
		<tag k="natural" v="hill" />
		<tag k="place" v="locality" />
		<tag k="ssr:stedsnr" v="432749" />
	</node>
	<node id="-39878" lat="60.55902778" lon="12.254569437">
		<tag k="name" v="Grasberget" />
		<tag k="natural" v="hill" />
		<tag k="place" v="locality" />
		<tag k="ssr:stedsnr" v="222438" />
	</node>
	<node id="-41411" lat="60.4933750023" lon="11.7630583256">
		<tag k="name" v="Balnesberget" />
		<tag k="natural" v="hill" />
		<tag k="place" v="locality" />
		<tag k="ssr:stedsnr" v="188261" />
	</node>
	<node id="-41920" lat="60.6402972247" lon="12.3290222188">
		<tag k="name" v="Aluntjernsmoen" />
		<tag k="place" v="locality" />
		<tag k="ssr:stedsnr" v="602496" />
	</node>
	<node id="-41919" lat="60.7334555556" lon="12.0630916611">
		<tag k="name" v="Storhaugen" />
		<tag k="natural" v="hill" />
		<tag k="place" v="locality" />
		<tag k="ssr:stedsnr" v="601787" />
	</node>
	<node id="-41406" lat="60.8091361113" lon="12.1207138906">
		<tag k="name" v="Bergtjernsdalen" />
		<tag k="natural" v="valley" />
		<tag k="place" v="locality" />
		<tag k="ssr:stedsnr" v="180719" />
	</node>
	<node id="-40379" lat="60.5505638859" lon="12.5376861133">
		<tag k="name" v="Fallkverna" />
		<tag k="place" v="locality" />
		<tag k="ssr:stedsnr" v="421708" />
	</node>
	<node id="-39866" lat="60.571352781" lon="12.202877779">
		<tag k="name" v="Skjultomtbakken" />
		<tag k="natural" v="slope" />
		<tag k="place" v="locality" />
		<tag k="ssr:stedsnr" v="222190" />
	</node>
	<node id="-39865" lat="60.6066972224" lon="12.2003777793">
		<tag k="name" v="Lauvhaugen" />
		<tag k="natural" v="hill" />
		<tag k="place" v="locality" />
		<tag k="ssr:stedsnr" v="222156" />
	</node>
	<node id="-39863" lat="60.6623666636" lon="12.2478472218">
		<tag k="name" v="Rønnesæterberget" />
		<tag k="natural" v="hill" />
		<tag k="place" v="locality" />
		<tag k="ssr:stedsnr" v="222104" />
	</node>
	<node id="-40886" lat="60.5998083374" lon="12.1512499922">
		<tag k="fixme" v="consider natural=peak for the most distinct mountains in the district" />
		<tag k="name" v="Takåsen" />
		<tag k="natural" v="hill" />
		<tag k="place" v="locality" />
		<tag k="ssr:stedsnr" v="917742" />
	</node>
	<node id="-40884" lat="60.5960138933" lon="12.3101638854">
		<tag k="name" v="Knallen" />
		<tag k="natural" v="hill" />
		<tag k="place" v="locality" />
		<tag k="ssr:stedsnr" v="777285" />
	</node>
	<node id="-41907" lat="60.6866972216" lon="12.4514638976">
		<tag k="name" v="Kampbergsbakken" />
		<tag k="natural" v="slope" />
		<tag k="place" v="locality" />
		<tag k="ssr:stedsnr" v="601670" />
	</node>
	<node id="-40879" lat="60.5997555596" lon="12.2472027729">
		<tag k="name" v="Storberget" />
		<tag k="natural" v="hill" />
		<tag k="place" v="locality" />
		<tag k="ssr:stedsnr" v="917494" />
	</node>
	<node id="-40877" lat="60.5960833292" lon="12.4463333338">
		<tag k="alt_name" v="Skjærberget" />
		<tag k="name" v="Skjerberget" />
		<tag k="natural" v="hill" />
		<tag k="place" v="locality" />
		<tag k="ssr:stedsnr" v="917524" />
	</node>
	<node id="-41000" lat="60.5305749975" lon="11.7440527806">
		<tag k="name" v="Bossberget" />
		<tag k="natural" v="hill" />
		<tag k="place" v="locality" />
		<tag k="ssr:stedsnr" v="917204" />
	</node>
	<node id="-40363" lat="60.5626250009" lon="12.196608332">
		<tag k="name" v="Gråvidalen" />
		<tag k="natural" v="valley" />
		<tag k="place" v="locality" />
		<tag k="ssr:stedsnr" v="404224" />
	</node>
	<node id="-40362" lat="60.5738666654" lon="12.1993888907">
		<tag k="name" v="Verket" />
		<tag k="place" v="locality" />
		<tag k="ssr:stedsnr" v="404220" />
	</node>
	<node id="-41589" lat="60.5249333372" lon="11.7608916599">
		<tag k="name" v="Blomtjernshøgda" />
		<tag k="natural" v="hill" />
		<tag k="place" v="locality" />
		<tag k="ssr:stedsnr" v="362930" />
	</node>
	<node id="-41384" lat="60.7267333333" lon="12.1372611097">
		<tag k="name" v="Lyarhaugen" />
		<tag k="natural" v="hill" />
		<tag k="place" v="locality" />
		<tag k="ssr:stedsnr" v="176759" />
	</node>
	<node id="-41383" lat="60.690336115" lon="12.4458500001">
		<tag k="fixme" v="consider natural=peak for the most distinct mountains in the district" />
		<tag k="name" v="Hakaberget" />
		<tag k="natural" v="hill" />
		<tag k="place" v="locality" />
		<tag k="ssr:stedsnr" v="176666" />
	</node>
	<node id="-41475" lat="60.66095278" lon="12.1453277811">
		<tag k="name" v="Svenskehaugen" />
		<tag k="natural" v="hill" />
		<tag k="place" v="locality" />
		<tag k="ssr:stedsnr" v="302800" />
	</node>
	<node id="-41969" lat="60.818783335" lon="12.1048666747">
		<tag k="name" v="Rundberget" />
		<tag k="natural" v="hill" />
		<tag k="place" v="locality" />
		<tag k="ssr:stedsnr" v="615521" />
	</node>
	<node id="-40355" lat="60.789447219" lon="12.1862361167">
		<tag k="name" v="Skalberget" />
		<tag k="natural" v="hill" />
		<tag k="place" v="locality" />
		<tag k="ssr:stedsnr" v="373571" />
	</node>
	<node id="-40353" lat="60.7670638888" lon="12.1254111082">
		<tag k="alt_name" v="Ruskeberget" />
		<tag k="name" v="Ruskberget" />
		<tag k="natural" v="hill" />
		<tag k="place" v="locality" />
		<tag k="ssr:stedsnr" v="373552" />
	</node>
	<node id="-41376" lat="60.598658337" lon="12.2281583354">
		<tag k="name" v="Ruskhaugen" />
		<tag k="natural" v="hill" />
		<tag k="place" v="locality" />
		<tag k="ssr:stedsnr" v="176205" />
	</node>
	<node id="-41186" lat="60.5316861079" lon="11.9050694526">
		<tag k="name" v="Raudåsberget" />
		<tag k="natural" v="hill" />
		<tag k="place" v="locality" />
		<tag k="ssr:stedsnr" v="67986" />
	</node>
	<node id="-41373" lat="60.5575611151" lon="11.7062083269">
		<tag k="loc_name" v="Lettelsens sukk" />
		<tag k="name" v="Lettelsen sukk" />
		<tag k="natural" v="slope" />
		<tag k="place" v="locality" />
		<tag k="ssr:stedsnr" v="300539" />
	</node>
	<node id="-40360" lat="60.7818250032" lon="12.1618888803">
		<tag k="name" v="Moldbergsmota" />
		<tag k="natural" v="slope" />
		<tag k="place" v="locality" />
		<tag k="ssr:stedsnr" v="404060" />
	</node>
	<node id="-40859" lat="60.592927779" lon="12.0699027824">
		<tag k="name" v="Hammeren" />
		<tag k="natural" v="hill" />
		<tag k="place" v="locality" />
		<tag k="ssr:stedsnr" v="769862" />
	</node>
	<node id="-41879" lat="60.7830250038" lon="12.2381472192">
		<tag k="name" v="Svarttjernsbakkene" />
		<tag k="natural" v="slope" />
		<tag k="place" v="locality" />
		<tag k="ssr:stedsnr" v="586001" />
	</node>
	<node id="-40341" lat="60.7014138865" lon="12.1317749993">
		<tag k="fixme" v="consider natural=peak for the most distinct mountains in the district" />
		<tag k="name" v="Haukåsen" />
		<tag k="natural" v="hill" />
		<tag k="place" v="locality" />
		<tag k="ssr:stedsnr" v="371012" />
	</node>
	<node id="-40338" lat="60.5720611135" lon="11.6606999946">
		<tag k="name" v="Myrhaugen" />
		<tag k="natural" v="hill" />
		<tag k="place" v="locality" />
		<tag k="ssr:stedsnr" v="371157" />
	</node>
	<node id="-40337" lat="60.55440278" lon="11.6883277796">
		<tag k="name" v="Tjernshaugen" />
		<tag k="natural" v="hill" />
		<tag k="place" v="locality" />
		<tag k="ssr:stedsnr" v="371127" />
	</node>
	<node id="-41872" lat="60.7587916658" lon="12.1498750029">
		<tag k="name" v="Sævsjøberget" />
		<tag k="natural" v="hill" />
		<tag k="place" v="locality" />
		<tag k="ssr:stedsnr" v="555480" />
	</node>
	<node id="-40846" lat="60.577680553" lon="11.8998888875">
		<tag k="name" v="Bekkhullet" />
		<tag k="natural" v="valley" />
		<tag k="place" v="locality" />
		<tag k="ssr:stedsnr" v="909598" />
	</node>
	<node id="-41357" lat="60.6617083297" lon="11.9492305579">
		<tag k="name" v="Tallåsdalen" />
		<tag k="natural" v="valley" />
		<tag k="place" v="locality" />
		<tag k="ssr:stedsnr" v="161576" />
	</node>
	<node id="-40332" lat="60.7595611129" lon="12.0983638847">
		<tag k="name" v="Persæterberget" />
		<tag k="natural" v="hill" />
		<tag k="place" v="locality" />
		<tag k="ssr:stedsnr" v="495526" />
	</node>
	<node id="-41537" lat="60.230299997" lon="12.0507111097">
		<tag k="name" v="Glåmdalen" />
		<tag k="natural" v="valley" />
		<tag k="place" v="locality" />
		<tag k="ssr:stedsnr" v="331783" />
	</node>
	<node id="-41387" lat="60.7492722264" lon="12.0778888837">
		<tag k="fixme" v="consider natural=peak for the most distinct mountains in the district" />
		<tag k="name" v="Haraldsåsen" />
		<tag k="natural" v="hill" />
		<tag k="place" v="locality" />
		<tag k="ssr:stedsnr" v="176789" />
	</node>
	<node id="-41344" lat="60.7906249993" lon="12.2823138886">
		<tag k="alt_name" v="Reiarsåsen" />
		<tag k="fixme" v="consider natural=peak for the most distinct mountains in the district" />
		<tag k="name" v="Reiarsjøåsen" />
		<tag k="natural" v="hill" />
		<tag k="place" v="locality" />
		<tag k="ssr:stedsnr" v="130684" />
	</node>
	<node id="-40830" lat="60.8527083298" lon="12.2408972146">
		<tag k="name" v="Søndre Knapp" />
		<tag k="natural" v="hill" />
		<tag k="place" v="locality" />
		<tag k="ssr:stedsnr" v="907251" />
	</node>
	<node id="-40317" lat="60.7266194442" lon="12.245280547">
		<tag k="alt_name" v="Slettberget" />
		<tag k="name" v="Sleppberget" />
		<tag k="natural" v="hill" />
		<tag k="place" v="locality" />
		<tag k="ssr:stedsnr" v="492914" />
	</node>
	<node id="-40825" lat="60.6509888895" lon="12.4278000008">
		<tag k="name" v="Barkberget" />
		<tag k="natural" v="hill" />
		<tag k="place" v="locality" />
		<tag k="ssr:stedsnr" v="906693" />
	</node>
	<node id="-40555" lat="60.7035416692" lon="12.3407277828">
		<tag k="name" v="Basbakken" />
		<tag k="natural" v="slope" />
		<tag k="place" v="locality" />
		<tag k="ssr:stedsnr" v="709416" />
	</node>
	<node id="-41612" lat="60.6882111104" lon="12.3515805575">
		<tag k="fixme" v="consider natural=peak for the most distinct mountains in the district" />
		<tag k="name" v="Lauvåsen" />
		<tag k="natural" v="hill" />
		<tag k="place" v="locality" />
		<tag k="ssr:stedsnr" v="371546" />
	</node>
	<node id="-40822" lat="60.7362138899" lon="12.2535472228">
		<tag k="name" v="Kynnskjula" />
		<tag k="place" v="locality" />
		<tag k="ssr:stedsnr" v="906028" />
	</node>
	<node id="-41844" lat="60.5589611107" lon="12.2922611092">
		<tag k="name" v="Sørmberget" />
		<tag k="natural" v="hill" />
		<tag k="place" v="locality" />
		<tag k="ssr:stedsnr" v="553552" />
	</node>
	<node id="-41022" lat="60.5627555596" lon="11.8832277837">
		<tag k="name" v="Høgberget" />
		<tag k="natural" v="hill" />
		<tag k="place" v="locality" />
		<tag k="ssr:stedsnr" v="952203" />
	</node>
	<node id="-40306" lat="60.6254132129" lon="11.9890118616">
		<tag k="name" v="Kjølaberget" />
		<tag k="natural" v="hill" />
		<tag k="place" v="locality" />
		<tag k="ssr:stedsnr" v="492819" />
	</node>
	<node id="-41841" lat="60.6424111131" lon="12.5111833321">
		<tag k="alt_name" v="Elgeklinten" />
		<tag k="name" v="Elgklinten" />
		<tag k="natural" v="hill" />
		<tag k="place" v="locality" />
		<tag k="ssr:stedsnr" v="553500" />
	</node>
	<node id="-41840" lat="60.7119777816" lon="12.2120805549">
		<tag k="name" v="Storberget" />
		<tag k="natural" v="hill" />
		<tag k="place" v="locality" />
		<tag k="ssr:stedsnr" v="553049" />
	</node>
	<node id="-41327" lat="60.6385777772" lon="11.9810861093">
		<tag k="alt_name" v="Ramåsen" />
		<tag k="fixme" v="consider natural=peak for the most distinct mountains in the district" />
		<tag k="name" v="Ramsåsen" />
		<tag k="natural" v="hill" />
		<tag k="place" v="locality" />
		<tag k="ssr:stedsnr" v="128840" />
	</node>
	<node id="-40814" lat="60.605211111" lon="12.2742027726">
		<tag k="name" v="Springarbakken" />
		<tag k="natural" v="slope" />
		<tag k="place" v="locality" />
		<tag k="ssr:stedsnr" v="735512" />
	</node>
	<node id="-40812" lat="60.6135805545" lon="12.0403111115">
		<tag k="name" v="Pindalen" />
		<tag k="natural" v="valley" />
		<tag k="place" v="locality" />
		<tag k="ssr:stedsnr" v="726957" />
	</node>
	<node id="-40299" lat="60.589947222" lon="12.1875472205">
		<tag k="fixme" v="consider natural=peak for the most distinct mountains in the district" />
		<tag k="name" v="Frauåsen" />
		<tag k="natural" v="hill" />
		<tag k="place" v="locality" />
		<tag k="ssr:stedsnr" v="492790" />
	</node>
	<node id="-41832" lat="60.6327916666" lon="12.1211611108">
		<tag k="alt_name" v="Losberget" />
		<tag k="name" v="Losåsen" />
		<tag k="natural" v="hill" />
		<tag k="place" v="locality" />
		<tag k="ssr:stedsnr" v="552845" />
	</node>
	<node id="-41276" lat="60.6351972225" lon="12.1740555584">
		<tag k="name" v="Dælkelia" />
		<tag k="natural" v="slope" />
		<tag k="place" v="locality" />
		<tag k="ssr:stedsnr" v="119160" />
	</node>
	<node id="-41873" lat="60.7809583351" lon="12.1901333245">
		<tag k="name" v="Ruskhaugen" />
		<tag k="natural" v="hill" />
		<tag k="place" v="locality" />
		<tag k="ssr:stedsnr" v="555495" />
	</node>
	<node id="-40290" lat="60.5458833375" lon="12.2920611158">
		<tag k="name" v="Kvesetberget" />
		<tag k="natural" v="hill" />
		<tag k="place" v="locality" />
		<tag k="ssr:stedsnr" v="492669" />
	</node>
	<node id="-40289" lat="60.6548611122" lon="12.0859583312">
		<tag k="name" v="Krokmoen" />
		<tag k="place" v="locality" />
		<tag k="ssr:stedsnr" v="360814" />
	</node>
	<node id="-40800" lat="60.579041669" lon="11.854625005">
		<tag k="name" v="Astriddalen" />
		<tag k="natural" v="valley" />
		<tag k="place" v="locality" />
		<tag k="ssr:stedsnr" v="892178" />
	</node>
	<node id="-42128" lat="60.8094472224" lon="12.2068722195">
		<tag k="name" v="Lindberget" />
		<tag k="natural" v="hill" />
		<tag k="place" v="locality" />
		<tag k="ssr:stedsnr" v="798481" />
	</node>
	<node id="-40794" lat="60.7037666663" lon="12.3190416629">
		<tag k="name" v="Tjernsmoen" />
		<tag k="place" v="locality" />
		<tag k="ssr:stedsnr" v="891421" />
	</node>
	<node id="-40793" lat="60.7094833335" lon="12.332213889">
		<tag k="name" v="Mærkarplassen" />
		<tag k="place" v="locality" />
		<tag k="ssr:stedsnr" v="891413" />
	</node>
	<node id="-40792" lat="60.8181805545" lon="12.3486027865">
		<tag k="fixme" v="consider natural=peak for the most distinct mountains in the district" />
		<tag k="name" v="Svenske Juvbergshetta" />
		<tag k="natural" v="hill" />
		<tag k="ssr:stedsnr" v="891396" />
	</node>
	<node id="-41303" lat="60.5688333378" lon="12.529266662">
		<tag k="alt_name" v="Breidsjøberget" />
		<tag k="name" v="Breisjøberget" />
		<tag k="natural" v="hill" />
		<tag k="place" v="locality" />
		<tag k="ssr:stedsnr" v="128539" />
	</node>
	<node id="-41302" lat="60.5894555531" lon="12.4431750018">
		<tag k="name" v="Spikknappen" />
		<tag k="natural" v="hill" />
		<tag k="place" v="locality" />
		<tag k="ssr:stedsnr" v="128529" />
	</node>
	<node id="-40277" lat="60.6391083353" lon="12.4710194428">
		<tag k="name" v="Lomberget" />
		<tag k="natural" v="hill" />
		<tag k="place" v="locality" />
		<tag k="ssr:stedsnr" v="492471" />
	</node>
	<node id="-40275" lat="60.6142500043" lon="12.3182944507">
		<tag k="name" v="Kjæringnakkbakken" />
		<tag k="natural" v="slope" />
		<tag k="place" v="locality" />
		<tag k="ssr:stedsnr" v="358475" />
	</node>
	<node id="-40273" lat="60.6151277821" lon="12.338011119">
		<tag k="name" v="Fåfengfallet" />
		<tag k="natural" v="slope" />
		<tag k="place" v="locality" />
		<tag k="ssr:stedsnr" v="358471" />
	</node>
	<node id="-41296" lat="60.737555555" lon="11.9964638942">
		<tag k="fixme" v="consider natural=peak for the most distinct mountains in the district" />
		<tag k="name" v="Buråsen" />
		<tag k="natural" v="hill" />
		<tag k="place" v="locality" />
		<tag k="ssr:stedsnr" v="128177" />
	</node>
	<node id="-41970" lat="60.8543250027" lon="12.2387500006">
		<tag k="name" v="Aurtjernsberget" />
		<tag k="natural" v="hill" />
		<tag k="place" v="locality" />
		<tag k="ssr:stedsnr" v="615667" />
	</node>
	<node id="-40077" lat="60.6632083321" lon="12.268727777">
		<tag k="name" v="Kolbotn" />
		<tag k="place" v="locality" />
		<tag k="ssr:stedsnr" v="118109" />
	</node>
	<node id="-40780" lat="60.5528388867" lon="12.1962805481">
		<tag k="name" v="Østern" />
		<tag k="natural" v="hill" />
		<tag k="place" v="locality" />
		<tag k="ssr:stedsnr" v="890495" />
	</node>
	<node id="-41803" lat="60.7047999986" lon="12.177138882">
		<tag k="name" v="Styggdalen" />
		<tag k="natural" v="valley" />
		<tag k="place" v="locality" />
		<tag k="ssr:stedsnr" v="544079" />
	</node>
	<node id="-41290" lat="60.4960916682" lon="11.8463361154">
		<tag k="alt_name" v="Galterudsfjellet" />
		<tag k="name" v="Galterudfjellet" />
		<tag k="natural" v="hill" />
		<tag k="place" v="locality" />
		<tag k="ssr:stedsnr" v="127696" />
	</node>
	<node id="-41015" lat="60.5422833363" lon="12.1852138826">
		<tag k="name" v="Grautsjøberget" />
		<tag k="natural" v="hill" />
		<tag k="place" v="locality" />
		<tag k="ssr:stedsnr" v="917974" />
	</node>
	<node id="-41287" lat="60.6733388872" lon="12.288919438">
		<tag k="name" v="Flisegga" />
		<tag k="natural" v="ridge" />
		<tag k="place" v="locality" />
		<tag k="ssr:stedsnr" v="120436" />
	</node>
	<node id="-41798" lat="60.5542416667" lon="11.7073111032">
		<tag k="name" v="Vestberget" />
		<tag k="natural" v="hill" />
		<tag k="place" v="locality" />
		<tag k="ssr:stedsnr" v="543528" />
	</node>
	<node id="-40773" lat="60.6094694403" lon="12.2593944369">
		<tag k="name" v="Lauvknappen" />
		<tag k="natural" v="hill" />
		<tag k="place" v="locality" />
		<tag k="ssr:stedsnr" v="890153" />
	</node>
	<node id="-41282" lat="60.5029833322" lon="11.7519805625">
		<tag k="name" v="Balnesberget" />
		<tag k="natural" v="hill" />
		<tag k="place" v="locality" />
		<tag k="ssr:stedsnr" v="119944" />
	</node>
	<node id="-40768" lat="60.8281055556" lon="12.1947194416">
		<tag k="name" v="Presthaugen" />
		<tag k="natural" v="hill" />
		<tag k="place" v="locality" />
		<tag k="ssr:stedsnr" v="676606" />
	</node>
	<node id="-42303" lat="60.6375027736" lon="12.1301555543">
		<tag k="name" v="Bjønnknuten" />
		<tag k="natural" v="hill" />
		<tag k="place" v="locality" />
		<tag k="ssr:stedsnr" v="968938" />
	</node>
	<node id="-40765" lat="60.6288833324" lon="12.4954583373">
		<tag k="fixme" v="consider natural=peak for the most distinct mountains in the district" />
		<tag k="name" v="Lorttjernsknappen" />
		<tag k="natural" v="hill" />
		<tag k="place" v="locality" />
		<tag k="ssr:stedsnr" v="675519" />
	</node>
	<node id="-41788" lat="60.6159388865" lon="12.5002138818">
		<tag k="name" v="Aldergodt" />
		<tag k="natural" v="slope" />
		<tag k="place" v="locality" />
		<tag k="ssr:stedsnr" v="542256" />
	</node>
	<node id="-41786" lat="60.5887138855" lon="12.3479666687">
		<tag k="name" v="Sysselknappen" />
		<tag k="natural" v="hill" />
		<tag k="place" v="locality" />
		<tag k="ssr:stedsnr" v="540489" />
	</node>
	<node id="-41695" lat="60.6148805519" lon="12.4255027703">
		<tag k="alt_name" v="Greinbergshetta" />
		<tag k="loc_name" v="Haaramaki" />
		<tag k="name" v="Greinberget" />
		<tag k="natural" v="hill" />
		<tag k="place" v="locality" />
		<tag k="ssr:stedsnr" v="431570" />
	</node>
	<node id="-41131" lat="60.6978388845" lon="12.3521638869">
		<tag k="name" v="Geitryggen" />
		<tag k="natural" v="ridge" />
		<tag k="place" v="locality" />
		<tag k="ssr:stedsnr" v="42417" />
	</node>
	<node id="-40246" lat="60.5387000015" lon="12.3033472231">
		<tag k="name" v="Tystbastskjæra" />
		<tag k="natural" v="hill" />
		<tag k="place" v="locality" />
		<tag k="ssr:stedsnr" v="344255" />
	</node>
	<node id="-40756" lat="60.6429055531" lon="12.3895499964">
		<tag k="name" v="Hetta" />
		<tag k="natural" v="hill" />
		<tag k="place" v="locality" />
		<tag k="ssr:stedsnr" v="674613" />
	</node>
	<node id="-42291" lat="60.7521666652" lon="12.0190222243">
		<tag k="name" v="Kinadalen" />
		<tag k="natural" v="valley" />
		<tag k="place" v="locality" />
		<tag k="ssr:stedsnr" v="965680" />
	</node>
	<node id="-42289" lat="60.6023972187" lon="12.2193333365">
		<tag k="name" v="Dalfeiret" />
		<tag k="natural" v="slope" />
		<tag k="place" v="locality" />
		<tag k="ssr:stedsnr" v="965234" />
	</node>
	<node id="-41776" lat="60.5545999994" lon="12.4316249959">
		<tag k="fixme" v="consider natural=peak for the most distinct mountains in the district" />
		<tag k="name" v="Lauvtjernsberget" />
		<tag k="natural" v="hill" />
		<tag k="place" v="locality" />
		<tag k="ssr:stedsnr" v="527926" />
	</node>
	<node id="-41263" lat="60.6007861147" lon="12.2591611131">
		<tag k="name" v="Steinbråten" />
		<tag k="natural" v="slope" />
		<tag k="place" v="locality" />
		<tag k="ssr:stedsnr" v="116175" />
	</node>
	<node id="-42286" lat="60.8389583338" lon="12.1811666661">
		<tag k="name" v="Kubekkdalen" />
		<tag k="natural" v="valley" />
		<tag k="place" v="locality" />
		<tag k="ssr:stedsnr" v="965269" />
	</node>
	<node id="-41770" lat="60.7083083317" lon="12.3125944404">
		<tag k="name" v="Storskjæret" />
		<tag k="natural" v="hill" />
		<tag k="place" v="locality" />
		<tag k="ssr:stedsnr" v="527372" />
	</node>
	<node id="-40743" lat="60.7193555566" lon="12.0066000015">
		<tag k="fixme" v="consider natural=peak for the most distinct mountains in the district" />
		<tag k="name" v="Vesleåsen" />
		<tag k="natural" v="hill" />
		<tag k="place" v="locality" />
		<tag k="ssr:stedsnr" v="665914" />
	</node>
	<node id="-41766" lat="60.5737722207" lon="12.4870194389">
		<tag k="name" v="Aliansgrava" />
		<tag k="place" v="locality" />
		<tag k="ssr:stedsnr" v="527338" />
	</node>
	<node id="-40229" lat="60.5410749989" lon="12.0112861198">
		<tag k="name" v="Hofsletta" />
		<tag k="place" v="locality" />
		<tag k="ssr:stedsnr" v="479493" />
	</node>
	<node id="-41252" lat="60.5835250014" lon="12.5367333299">
		<tag k="name" v="Mostagalli" />
		<tag k="natural" v="valley" />
		<tag k="place" v="locality" />
		<tag k="ssr:stedsnr" v="102747" />
	</node>
	<node id="-42275" lat="60.5719444442" lon="12.4649777849">
		<tag k="fixme" v="consider natural=peak for the most distinct mountains in the district" />
		<tag k="name" v="Geittjernsberget" />
		<tag k="natural" v="hill" />
		<tag k="place" v="locality" />
		<tag k="ssr:stedsnr" v="952332" />
	</node>
	<node id="-40738" lat="60.5732444443" lon="12.2099333424">
		<tag k="name" v="Myssmørbakkene" />
		<tag k="natural" v="slope" />
		<tag k="place" v="locality" />
		<tag k="ssr:stedsnr" v="664705" />
	</node>
	<node id="-41761" lat="60.6092750017" lon="12.025294436">
		<tag k="name" v="Myrmoen" />
		<tag k="place" v="locality" />
		<tag k="ssr:stedsnr" v="526973" />
	</node>
	<node id="-42272" lat="60.6015749963" lon="12.4059583309">
		<tag k="name" v="Nordre Knappen" />
		<tag k="natural" v="hill" />
		<tag k="place" v="locality" />
		<tag k="ssr:stedsnr" v="952326" />
	</node>
	<node id="-41264" lat="60.5940361081" lon="12.2553277724">
		<tag k="name" v="Bjønndalen" />
		<tag k="natural" v="valley" />
		<tag k="place" v="locality" />
		<tag k="ssr:stedsnr" v="116178" />
	</node>
	<node id="-42270" lat="60.5932583352" lon="11.8777722164">
		<tag k="name" v="Røsåsen" />
		<tag k="natural" v="hill" />
		<tag k="place" v="locality" />
		<tag k="ssr:stedsnr" v="952200" />
	</node>
	<node id="-41757" lat="60.6544611115" lon="12.3889527724">
		<tag k="name" v="Finnland" />
		<tag k="natural" v="slope" />
		<tag k="place" v="locality" />
		<tag k="ssr:stedsnr" v="525452" />
	</node>
	<node id="-40239" lat="60.6367555527" lon="12.1587277827">
		<tag k="name" v="Morttjernshauga" />
		<tag k="natural" v="hill" />
		<tag k="place" v="locality" />
		<tag k="ssr:stedsnr" v="483947" />
	</node>
	<node id="-40210" lat="60.7025333341" lon="12.4304305562">
		<tag k="name" v="Fåfengsfallet" />
		<tag k="natural" v="slope" />
		<tag k="place" v="locality" />
		<tag k="ssr:stedsnr" v="466728" />
	</node>
	<node id="-41233" lat="60.6643250032" lon="12.0194666625">
		<tag k="name" v="Bakåsmoen" />
		<tag k="place" v="locality" />
		<tag k="ssr:stedsnr" v="101981" />
	</node>
	<node id="-42029" lat="60.5936472218" lon="12.4100472187">
		<tag k="name" v="Søndre Knappen" />
		<tag k="natural" v="hill" />
		<tag k="place" v="locality" />
		<tag k="ssr:stedsnr" v="770296" />
	</node>
	<node id="-41739" lat="60.6180888908" lon="12.085563882">
		<tag k="name" v="Karlstadberget" />
		<tag k="natural" v="hill" />
		<tag k="place" v="locality" />
		<tag k="ssr:stedsnr" v="432873" />
	</node>
	<node id="-42250" lat="60.5619416629" lon="12.4533194362">
		<tag k="alt_name" v="Fjølahola" />
		<tag k="name" v="Fjølaholen" />
		<tag k="natural" v="hill" />
		<tag k="place" v="locality" />
		<tag k="ssr:stedsnr" v="857701" />
	</node>
	<node id="-40790" lat="60.5863444411" lon="12.4267416628">
		<tag k="name" v="Storgråberget" />
		<tag k="natural" v="hill" />
		<tag k="place" v="locality" />
		<tag k="ssr:stedsnr" v="891371" />
	</node>
	<node id="-41223" lat="60.6690833376" lon="12.1688555651">
		<tag k="name" v="Kilenga" />
		<tag k="place" v="locality" />
		<tag k="ssr:stedsnr" v="101069" />
	</node>
	<node id="-39995" lat="60.5909361108" lon="12.3678694402">
		<tag k="loc_name" v="Tjennberget" />
		<tag k="name" v="Tjernberget" />
		<tag k="natural" v="hill" />
		<tag k="place" v="locality" />
		<tag k="ssr:stedsnr" v="249545" />
	</node>
	<node id="-41898" lat="60.6713666684" lon="11.9912833403">
		<tag k="name" v="Bratthaugen" />
		<tag k="natural" v="hill" />
		<tag k="place" v="locality" />
		<tag k="ssr:stedsnr" v="587914" />
	</node>
	<node id="-42243" lat="60.5659500042" lon="11.666763896">
		<tag k="name" v="Skurvhetta" />
		<tag k="natural" v="hill" />
		<tag k="place" v="locality" />
		<tag k="ssr:stedsnr" v="857139" />
	</node>
	<node id="-41725" lat="60.7060444435" lon="12.4262555586">
		<tag k="name" v="Storhøklingen" />
		<tag k="natural" v="hill" />
		<tag k="place" v="locality" />
		<tag k="ssr:stedsnr" v="432545" />
	</node>
	<node id="-41718" lat="60.6349416709" lon="12.286363893">
		<tag k="fixme" v="consider natural=peak for the most distinct mountains in the district" />
		<tag k="name" v="Skaftet" />
		<tag k="natural" v="hill" />
		<tag k="place" v="locality" />
		<tag k="ssr:stedsnr" v="432484" />
	</node>
	<node id="-40693" lat="60.5466333352" lon="12.4835472232">
		<tag k="alt_name" v="Garranorrfjellet;Garranårrå" />
		<tag k="fixme" v="consider natural=peak for the most distinct mountains in the district" />
		<tag k="name" v="Fjellet" />
		<tag k="natural" v="hill" />
		<tag k="place" v="locality" />
		<tag k="ssr:stedsnr" v="735695" />
	</node>
	<node id="-41716" lat="60.5684916634" lon="11.9323694526">
		<tag k="name" v="Haugamoen" />
		<tag k="place" v="locality" />
		<tag k="ssr:stedsnr" v="432775" />
	</node>
	<node id="-41711" lat="60.7194916688" lon="12.0373694521">
		<tag k="fixme" v="consider natural=peak for the most distinct mountains in the district" />
		<tag k="name" v="Jernbuåsen" />
		<tag k="natural" v="hill" />
		<tag k="place" v="locality" />
		<tag k="ssr:stedsnr" v="432179" />
	</node>
	<node id="-40170" lat="60.5586916644" lon="12.2921166591">
		<tag k="name" v="Storrauken" />
		<tag k="natural" v="hill" />
		<tag k="place" v="locality" />
		<tag k="ssr:stedsnr" v="298025" />
	</node>
	<node id="-40169" lat="60.5517777822" lon="12.2930444419">
		<tag k="name" v="Merrasprengen" />
		<tag k="natural" v="slope" />
		<tag k="place" v="locality" />
		<tag k="ssr:stedsnr" v="298024" />
	</node>
	<node id="-40680" lat="60.5620666623" lon="12.430930564">
		<tag k="fixme" v="consider natural=peak for the most distinct mountains in the district" />
		<tag k="name" v="Husuberget" />
		<tag k="natural" v="hill" />
		<tag k="place" v="locality" />
		<tag k="ssr:stedsnr" v="735542" />
	</node>
	<node id="-40676" lat="60.5275138902" lon="11.7896138917">
		<tag k="name" v="Fagervassberget" />
		<tag k="natural" v="hill" />
		<tag k="place" v="locality" />
		<tag k="ssr:stedsnr" v="735236" />
	</node>
	<node id="-40675" lat="60.5416944461" lon="11.8013972274">
		<tag k="alt_name" v="Damhaugen" />
		<tag k="name" v="Damberget" />
		<tag k="natural" v="hill" />
		<tag k="place" v="locality" />
		<tag k="ssr:stedsnr" v="735232" />
	</node>
	<node id="-40162" lat="60.5413194448" lon="11.7106750071">
		<tag k="name" v="Holsæterhøgda" />
		<tag k="natural" v="hill" />
		<tag k="place" v="locality" />
		<tag k="ssr:stedsnr" v="189125" />
	</node>
	<node id="-41697" lat="60.5088638924" lon="11.9726527854">
		<tag k="alt_name" v="Rønåsberget" />
		<tag k="name" v="Rønnåsberget" />
		<tag k="natural" v="hill" />
		<tag k="place" v="locality" />
		<tag k="ssr:stedsnr" v="431696" />
	</node>
	<node id="-40160" lat="60.6683749996" lon="11.9544305532">
		<tag k="name" v="Oppsalknappen" />
		<tag k="natural" v="hill" />
		<tag k="place" v="locality" />
		<tag k="ssr:stedsnr" v="189104" />
	</node>
	<node id="-42207" lat="60.6872944452" lon="12.2334388941">
		<tag k="name" v="Storbergsbrenna" />
		<tag k="natural" v="slope" />
		<tag k="place" v="locality" />
		<tag k="ssr:stedsnr" v="848070" />
	</node>
	<node id="-41182" lat="60.6436694451" lon="12.0050277753">
		<tag k="fixme" v="consider natural=peak for the most distinct mountains in the district" />
		<tag k="name" v="Skjeppåsen" />
		<tag k="natural" v="hill" />
		<tag k="place" v="locality" />
		<tag k="ssr:stedsnr" v="67849" />
	</node>
	<node id="-42205" lat="60.6668583334" lon="12.480986102">
		<tag k="fixme" v="consider natural=peak for the most distinct mountains in the district" />
		<tag k="name" v="Medskogberget" />
		<tag k="natural" v="hill" />
		<tag k="place" v="locality" />
		<tag k="ssr:stedsnr" v="846649" />
	</node>
	<node id="-42204" lat="60.6448416694" lon="12.5040472313">
		<tag k="name" v="Rogndalen" />
		<tag k="natural" v="valley" />
		<tag k="place" v="locality" />
		<tag k="ssr:stedsnr" v="846616" />
	</node>
	<node id="-41590" lat="60.5234027811" lon="11.7130194424">
		<tag k="name" v="Deldalen" />
		<tag k="natural" v="valley" />
		<tag k="place" v="locality" />
		<tag k="ssr:stedsnr" v="362931" />
	</node>
	<node id="-41911" lat="60.5582361122" lon="12.0071277755">
		<tag k="name" v="Sparbymoen" />
		<tag k="place" v="locality" />
		<tag k="ssr:stedsnr" v="601500" />
	</node>
	<node id="-40152" lat="60.5738416679" lon="11.643286118">
		<tag k="name" v="Gåsvassdalen" />
		<tag k="natural" v="valley" />
		<tag k="place" v="locality" />
		<tag k="ssr:stedsnr" v="285743" />
	</node>
	<node id="-42199" lat="60.656180559" lon="12.2879527752">
		<tag k="name" v="Grønnsletta" />
		<tag k="place" v="locality" />
		<tag k="ssr:stedsnr" v="846450" />
	</node>
	<node id="-41173" lat="60.687080551" lon="11.9096166728">
		<tag k="name" v="Nordermoen" />
		<tag k="place" v="locality" />
		<tag k="ssr:stedsnr" v="59450" />
	</node>
	<node id="-42196" lat="60.8590611111" lon="12.2368750058">
		<tag k="name" v="Nordre Knapp" />
		<tag k="natural" v="hill" />
		<tag k="place" v="locality" />
		<tag k="ssr:stedsnr" v="846240" />
	</node>
	<node id="-42195" lat="60.6102805524" lon="12.5028055596">
		<tag k="name" v="Sæterknappen" />
		<tag k="natural" v="hill" />
		<tag k="place" v="locality" />
		<tag k="ssr:stedsnr" v="846230" />
	</node>
	<node id="-40658" lat="60.5372111078" lon="12.496030552">
		<tag k="name" v="Rissokompo" />
		<tag k="natural" v="slope" />
		<tag k="place" v="locality" />
		<tag k="ssr:stedsnr" v="648937" />
	</node>
	<node id="-41763" lat="60.8225277791" lon="12.1930416593">
		<tag k="name" v="Finnbekkdalen" />
		<tag k="natural" v="valley" />
		<tag k="place" v="locality" />
		<tag k="ssr:stedsnr" v="527273" />
	</node>
	<node id="-40654" lat="60.4775833326" lon="11.7739083255">
		<tag k="name" v="Lauvberget" />
		<tag k="natural" v="hill" />
		<tag k="place" v="locality" />
		<tag k="ssr:stedsnr" v="734272" />
	</node>
	<node id="-41677" lat="60.6393999992" lon="12.3832194386">
		<tag k="fixme" v="consider natural=peak for the most distinct mountains in the district" />
		<tag k="name" v="Veslehetta" />
		<tag k="natural" v="hill" />
		<tag k="ssr:stedsnr" v="422492" />
	</node>
	<node id="-41675" lat="60.6612361111" lon="12.2856111161">
		<tag k="name" v="Brattveltbakken" />
		<tag k="natural" v="hill" />
		<tag k="place" v="locality" />
		<tag k="ssr:stedsnr" v="422484" />
	</node>
	<node id="-40137" lat="60.5745000014" lon="12.5410638902">
		<tag k="name" v="Norddalen" />
		<tag k="natural" v="valley" />
		<tag k="place" v="locality" />
		<tag k="ssr:stedsnr" v="284738" />
	</node>
	<node id="-40646" lat="60.5770027735" lon="12.1231861115">
		<tag k="name" v="Djupdalen" />
		<tag k="natural" v="valley" />
		<tag k="place" v="locality" />
		<tag k="ssr:stedsnr" v="727881" />
	</node>
	<node id="-40133" lat="60.5739972264" lon="11.9617527808">
		<tag k="fixme" v="consider natural=peak for the most distinct mountains in the district" />
		<tag k="name" v="Arnebergsåsen" />
		<tag k="natural" v="hill" />
		<tag k="place" v="locality" />
		<tag k="ssr:stedsnr" v="284607" />
	</node>
	<node id="-42180" lat="60.597280552" lon="12.2062777746">
		<tag k="fixme" v="consider natural=peak for the most distinct mountains in the district" />
		<tag k="name" v="Skallberget" />
		<tag k="natural" v="hill" />
		<tag k="place" v="locality" />
		<tag k="ssr:stedsnr" v="844217" />
	</node>
	<node id="-42179" lat="60.6502749968" lon="12.1738222307">
		<tag k="name" v="Dulpa" />
		<tag k="place" v="locality" />
		<tag k="ssr:stedsnr" v="844117" />
	</node>
	<node id="-40130" lat="60.7202138846" lon="12.3037194445">
		<tag k="name" v="Kynnegg-eggene" />
		<tag k="natural" v="ridge" />
		<tag k="place" v="locality" />
		<tag k="ssr:stedsnr" v="284373" />
	</node>
	<node id="-41931" lat="60.7030999987" lon="12.2642861042">
		<tag k="name" v="Balkerasta" />
		<tag k="natural" v="slope" />
		<tag k="place" v="locality" />
		<tag k="ssr:stedsnr" v="605089" />
	</node>
	<node id="-41152" lat="60.615147225" lon="12.503155556">
		<tag k="name" v="Damhaugen" />
		<tag k="natural" v="hill" />
		<tag k="place" v="locality" />
		<tag k="ssr:stedsnr" v="57209" />
	</node>
	<node id="-40639" lat="60.5387583305" lon="11.721616664">
		<tag k="name" v="Djupdalen" />
		<tag k="natural" v="valley" />
		<tag k="place" v="locality" />
		<tag k="ssr:stedsnr" v="726942" />
	</node>
	<node id="-42173" lat="60.6324305555" lon="12.0535638806">
		<tag k="name" v="Djupdalen" />
		<tag k="natural" v="valley" />
		<tag k="place" v="locality" />
		<tag k="ssr:stedsnr" v="831913" />
	</node>
	<node id="-40122" lat="60.5574416667" lon="12.2209083359">
		<tag k="name" v="Skarpberget" />
		<tag k="natural" v="hill" />
		<tag k="place" v="locality" />
		<tag k="ssr:stedsnr" v="283427" />
	</node>
	<node id="-40266" lat="60.7245277781" lon="11.9952694353">
		<tag k="name" v="Basknappen" />
		<tag k="natural" v="hill" />
		<tag k="place" v="locality" />
		<tag k="ssr:stedsnr" v="492156" />
	</node>
	<node id="-40632" lat="60.6628111152" lon="12.0962499959">
		<tag k="name" v="Bråtebekkdalen" />
		<tag k="natural" v="valley" />
		<tag k="place" v="locality" />
		<tag k="ssr:stedsnr" v="724838" />
	</node>
	<node id="-41143" lat="60.6256944442" lon="12.3818194532">
		<tag k="fixme" v="consider natural=peak for the most distinct mountains in the district" />
		<tag k="name" v="Søberget" />
		<tag k="natural" v="hill" />
		<tag k="place" v="locality" />
		<tag k="ssr:stedsnr" v="55466" />
	</node>
	<node id="-40117" lat="60.6591111083" lon="12.341597219">
		<tag k="name" v="Steinbekkdalen" />
		<tag k="natural" v="valley" />
		<tag k="place" v="locality" />
		<tag k="ssr:stedsnr" v="282429" />
	</node>
	<node id="-42164" lat="60.8179006366" lon="12.3375515809">
		<tag k="fixme" v="consider natural=peak for the most distinct mountains in the district" />
		<tag k="name" v="Norske Juvbergshetta" />
		<tag k="natural" v="hill" />
		<tag k="ssr:stedsnr" v="831333" />
	</node>
	<node id="-42162" lat="60.5575138914" lon="12.4762138937">
		<tag k="name" v="Fløytberget" />
		<tag k="natural" v="hill" />
		<tag k="place" v="locality" />
		<tag k="ssr:stedsnr" v="831316" />
	</node>
	<node id="-40112" lat="60.5371999977" lon="12.573911109">
		<tag k="name" v="Damhaugen" />
		<tag k="natural" v="hill" />
		<tag k="place" v="locality" />
		<tag k="ssr:stedsnr" v="163604" />
	</node>
	<node id="-40111" lat="60.5278305574" lon="12.5292222279">
		<tag k="name" v="Gråbokkiberget" />
		<tag k="natural" v="hill" />
		<tag k="place" v="locality" />
		<tag k="ssr:stedsnr" v="163603" />
	</node>
	<node id="-41133" lat="60.5639722225" lon="12.5306000024">
		<tag k="name" v="Villbonaskjæra" />
		<tag k="natural" v="hill" />
		<tag k="place" v="locality" />
		<tag k="ssr:stedsnr" v="42654" />
	</node>
	<node id="-40107" lat="60.5728527772" lon="11.8151222179">
		<tag k="name" v="Gråhesten" />
		<tag k="natural" v="hill" />
		<tag k="place" v="locality" />
		<tag k="ssr:stedsnr" v="163160" />
	</node>
	<node id="-41415" lat="60.710663886" lon="12.0570638796">
		<tag k="alt_name" v="Valåsen" />
		<tag k="fixme" v="consider natural=peak for the most distinct mountains in the district" />
		<tag k="name" v="Vålåsen" />
		<tag k="natural" v="hill" />
		<tag k="place" v="locality" />
		<tag k="ssr:stedsnr" v="189045" />
	</node>
	<node id="-41213" lat="60.5639611108" lon="12.0914611086">
		<tag k="name" v="Arneberget" />
		<tag k="natural" v="hill" />
		<tag k="place" v="locality" />
		<tag k="ssr:stedsnr" v="68933" />
	</node>
	<node id="-39956" lat="60.6754027771" lon="12.2886027712">
		<tag k="name" v="Hæragropa" />
		<tag k="natural" v="valley" />
		<tag k="place" v="locality" />
		<tag k="ssr:stedsnr" v="241434" />
	</node>
	<node id="-42287" lat="60.8563388879" lon="12.2063055524">
		<tag k="name" v="Gudmundsåsen" />
		<tag k="natural" v="ridge" />
		<tag k="place" v="locality" />
		<tag k="ssr:stedsnr" v="965276" />
	</node>
	<node id="-41329" lat="60.636608333" lon="11.9582333424">
		<tag k="name" v="Storknuten" />
		<tag k="natural" v="hill" />
		<tag k="place" v="locality" />
		<tag k="ssr:stedsnr" v="128844" />
	</node>
	<node id="-41124" lat="60.713336111" lon="12.4211333394">
		<tag k="name" v="Ottransfallet" />
		<tag k="natural" v="slope" />
		<tag k="place" v="locality" />
		<tag k="ssr:stedsnr" v="42659" />
	</node>
	<node id="-41414" lat="60.6700833299" lon="12.4744166616">
		<tag k="alt_name" v="Skjerberget" />
		<tag k="fixme" v="consider natural=peak for the most distinct mountains in the district" />
		<tag k="name" v="Skjærberget" />
		<tag k="natural" v="hill" />
		<tag k="place" v="locality" />
		<tag k="ssr:stedsnr" v="188651" />
	</node>
	<node id="-40609" lat="60.6623305581" lon="12.3497305598">
		<tag k="fixme" v="consider natural=peak for the most distinct mountains in the district" />
		<tag k="name" v="Grasåsen" />
		<tag k="natural" v="hill" />
		<tag k="place" v="locality" />
		<tag k="ssr:stedsnr" v="613573" />
	</node>
	<node id="-42143" lat="60.5529027757" lon="11.8919888872">
		<tag k="name" v="Lønnerudsdalen" />
		<tag k="natural" v="valley" />
		<tag k="place" v="locality" />
		<tag k="ssr:stedsnr" v="829596" />
	</node>
	<node id="-41117" lat="60.5211694463" lon="11.9209277778">
		<tag k="fixme" v="consider natural=peak for the most distinct mountains in the district" />
		<tag k="name" v="Komperudberget" />
		<tag k="natural" v="hill" />
		<tag k="place" v="locality" />
		<tag k="ssr:stedsnr" v="40591" />
	</node>
	<node id="-41627" lat="60.8182594524" lon="12.3369119044">
		<tag k="alt_name" v="Gjuvbergshetta" />
		<tag k="name" v="Juvbergshetta" />
		<tag k="natural" v="hill" />
		<tag k="place" v="locality" />
		<tag k="ssr:stedsnr" v="373743" />
	</node>
	<node id="-41626" lat="60.8376083289" lon="12.2845750009">
		<tag k="name" v="Høgsjøberget" />
		<tag k="natural" v="hill" />
		<tag k="place" v="locality" />
		<tag k="ssr:stedsnr" v="373740" />
	</node>
	<node id="-40047" lat="60.7466250033" lon="12.2308194362">
		<tag k="name" v="Rogberget" />
		<tag k="natural" v="hill" />
		<tag k="place" v="locality" />
		<tag k="ssr:stedsnr" v="250899" />
	</node>
	<node id="-41112" lat="60.7573173226" lon="12.3788880462">
		<tag k="fixme" v="consider natural=peak for the most distinct mountains in the district" />
		<tag k="name" v="Possåsen" />
		<tag k="natural" v="hill" />
		<tag k="place" v="locality" />
		<tag k="ssr:stedsnr" v="9653" />
	</node>
	<node id="-41623" lat="60.807077778" lon="12.1191444508">
		<tag k="name" v="Tronshatten" />
		<tag k="natural" v="hill" />
		<tag k="place" v="locality" />
		<tag k="ssr:stedsnr" v="373528" />
	</node>
	<node id="-40729" lat="60.783163885" lon="12.0770472248">
		<tag k="name" v="Grasåsen" />
		<tag k="natural" v="hill" />
		<tag k="place" v="locality" />
		<tag k="ssr:stedsnr" v="661717" />
	</node>
	<node id="-41838" lat="60.7085555561" lon="12.0153083343">
		<tag k="name" v="Gardsknappen" />
		<tag k="natural" v="hill" />
		<tag k="place" v="locality" />
		<tag k="ssr:stedsnr" v="553041" />
	</node>
	<node id="-41618" lat="60.6228777798" lon="12.1651111096">
		<tag k="fixme" v="consider natural=peak for the most distinct mountains in the district" />
		<tag k="name" v="Knappen" />
		<tag k="natural" v="hill" />
		<tag k="place" v="locality" />
		<tag k="ssr:stedsnr" v="371869" />
	</node>
	<node id="-40081" lat="60.6504555528" lon="12.2766361122">
		<tag k="name" v="Egga" />
		<tag k="natural" v="hill" />
		<tag k="place" v="locality" />
		<tag k="ssr:stedsnr" v="300126" />
	</node>
	<node id="-40592" lat="60.5964527789" lon="12.2629583293">
		<tag k="name" v="Våleggingen" />
		<tag k="natural" v="slope" />
		<tag k="place" v="locality" />
		<tag k="ssr:stedsnr" v="601177" />
	</node>
	<node id="-40589" lat="60.6009777817" lon="12.1967777869">
		<tag k="name" v="Kalroa" />
		<tag k="natural" v="valley" />
		<tag k="place" v="locality" />
		<tag k="ssr:stedsnr" v="601208" />
	</node>
	<node id="-40076" lat="60.8550527803" lon="12.2749583365">
		<tag k="name" v="Spellmannsplassen" />
		<tag k="place" v="locality" />
		<tag k="ssr:stedsnr" v="118249" />
	</node>
	<node id="-41610" lat="60.5768749994" lon="12.3708277763">
		<tag k="name" v="Graslia" />
		<tag k="natural" v="hill" />
		<tag k="place" v="locality" />
		<tag k="ssr:stedsnr" v="371535" />
	</node>
	<node id="-40584" lat="60.5643666668" lon="11.8617583344">
		<tag k="fixme" v="consider natural=peak for the most distinct mountains in the district" />
		<tag k="name" v="Langåsen" />
		<tag k="natural" v="hill" />
		<tag k="place" v="locality" />
		<tag k="ssr:stedsnr" v="598955" />
	</node>
	<node id="-40071" lat="60.5932749963" lon="12.2127722216">
		<tag k="name" v="Bjønnhiet" />
		<tag k="place" v="locality" />
		<tag k="ssr:stedsnr" v="116221" />
	</node>
	<node id="-41094" lat="60.6346333376" lon="12.1941083299">
		<tag k="fixme" v="consider natural=peak for the most distinct mountains in the district" />
		<tag k="name" v="Elsåsen" />
		<tag k="natural" v="hill" />
		<tag k="place" v="locality" />
		<tag k="ssr:stedsnr" v="7802" />
	</node>
	<node id="-41665" lat="60.6074362818" lon="12.4907494627">
		<tag k="fixme" v="consider natural=peak for the most distinct mountains in the district" />
		<tag k="name" v="Brennbergstoppen" />
		<tag k="natural" v="hill" />
		<tag k="ssr:stedsnr" v="421246" />
	</node>
	<node id="-40068" lat="60.6841583362" lon="12.3773861069">
		<tag k="name" v="Dalbråten" />
		<tag k="natural" v="valley" />
		<tag k="place" v="locality" />
		<tag k="ssr:stedsnr" v="102492" />
	</node>
	<node id="-42114" lat="60.5302194478" lon="12.5174499944">
		<tag k="alt_name" v="Rompeberget" />
		<tag k="name" v="Rompoberget" />
		<tag k="natural" v="hill" />
		<tag k="place" v="locality" />
		<tag k="ssr:stedsnr" v="796727" />
	</node>
	<node id="-40577" lat="60.6829361082" lon="12.2968777747">
		<tag k="name" v="Svenskebakken" />
		<tag k="natural" v="slope" />
		<tag k="place" v="locality" />
		<tag k="ssr:stedsnr" v="587457" />
	</node>
	<node id="-40093" lat="60.5990749954" lon="12.402366674">
		<tag k="name" v="Lensmannsknappen" />
		<tag k="natural" v="hill" />
		<tag k="place" v="locality" />
		<tag k="ssr:stedsnr" v="128502" />
	</node>
	<node id="-41599" lat="60.6034000012" lon="12.2178055529">
		<tag k="name" v="Vangberget" />
		<tag k="natural" v="hill" />
		<tag k="place" v="locality" />
		<tag k="ssr:stedsnr" v="370761" />
	</node>
	<node id="-42108" lat="60.5637083364" lon="12.3649611089">
		<tag k="name" v="Evensbergklinten" />
		<tag k="natural" v="hill" />
		<tag k="place" v="locality" />
		<tag k="ssr:stedsnr" v="796544" />
	</node>
	<node id="-41595" lat="60.6092566568" lon="12.4893279679">
		<tag k="name" v="Brennberget" />
		<tag k="natural" v="hill" />
		<tag k="place" v="locality" />
		<tag k="ssr:stedsnr" v="370560" />
	</node>
	<node id="-41017" lat="60.7612250039" lon="12.2737416708">
		<tag k="fixme" v="consider natural=peak for the most distinct mountains in the district" />
		<tag k="name" v="Kortgardsåsen" />
		<tag k="natural" v="hill" />
		<tag k="place" v="locality" />
		<tag k="ssr:stedsnr" v="919624" />
	</node>
	<node id="-42103" lat="60.6135916699" lon="12.2414083298">
		<tag k="name" v="Malibergshetta" />
		<tag k="natural" v="hill" />
		<tag k="place" v="locality" />
		<tag k="ssr:stedsnr" v="796496" />
	</node>
	<node id="-42102" lat="60.6734694455" lon="12.3294027789">
		<tag k="name" v="Eftasberget" />
		<tag k="natural" v="hill" />
		<tag k="place" v="locality" />
		<tag k="ssr:stedsnr" v="796585" />
	</node>
	<node id="-41077" lat="60.5833944445" lon="12.5249916661">
		<tag k="name" v="Banaberget" />
		<tag k="natural" v="hill" />
		<tag k="place" v="locality" />
		<tag k="ssr:stedsnr" v="7523" />
	</node>
	<node id="-41076" lat="60.5854361128" lon="12.3927805497">
		<tag k="alt_name" v="Storberget" />
		<tag k="name" v="Storgråberget" />
		<tag k="natural" v="hill" />
		<tag k="place" v="locality" />
		<tag k="ssr:stedsnr" v="7513" />
	</node>
	<node id="-42099" lat="60.7309444473" lon="12.1659000069">
		<tag k="name" v="Gullsteinberget" />
		<tag k="natural" v="hill" />
		<tag k="place" v="locality" />
		<tag k="ssr:stedsnr" v="796191" />
	</node>
	<node id="-42098" lat="60.565177779" lon="11.7099194507">
		<tag k="fixme" v="consider natural=peak for the most distinct mountains in the district" />
		<tag k="name" v="Råknappen" />
		<tag k="natural" v="hill" />
		<tag k="place" v="locality" />
		<tag k="ssr:stedsnr" v="796119" />
	</node>
	<node id="-42097" lat="60.5627305548" lon="11.7613416617">
		<tag k="name" v="Djupdalen" />
		<tag k="natural" v="valley" />
		<tag k="place" v="locality" />
		<tag k="ssr:stedsnr" v="796117" />
	</node>
	<node id="-40559" lat="60.5588972206" lon="12.1765250032">
		<tag k="name" v="Huskarhaugen" />
		<tag k="natural" v="hill" />
		<tag k="place" v="locality" />
		<tag k="ssr:stedsnr" v="709501" />
	</node>
	<node id="-41304" lat="60.5626111073" lon="12.2634277718">
		<tag k="alt_name" v="Skallberget" />
		<tag k="name" v="Skarberget" />
		<tag k="natural" v="hill" />
		<tag k="place" v="locality" />
		<tag k="ssr:stedsnr" v="128547" />
	</node>
	<node id="-42092" lat="60.6533583308" lon="12.1368055517">
		<tag k="name" v="Trangen" />
		<tag k="natural" v="valley" />
		<tag k="place" v="locality" />
		<tag k="ssr:stedsnr" v="796072" />
	</node>
	<node id="-42091" lat="60.7163805522" lon="12.0294638889">
		<tag k="name" v="Brattberget" />
		<tag k="natural" v="hill" />
		<tag k="place" v="locality" />
		<tag k="ssr:stedsnr" v="796047" />
	</node>
	<node id="-41065" lat="60.7245305594" lon="12.1946916589">
		<tag k="fixme" v="consider natural=peak for the most distinct mountains in the district" />
		<tag k="name" v="Gveppen" />
		<tag k="natural" v="hill" />
		<tag k="place" v="locality" />
		<tag k="ssr:stedsnr" v="7202" />
	</node>
	<node id="-40987" lat="60.8030972221" lon="12.2712027837">
		<tag k="name" v="Lindsjøhaugene" />
		<tag k="natural" v="hill" />
		<tag k="place" v="locality" />
		<tag k="ssr:stedsnr" v="905006" />
	</node>
	<node id="-40977" lat="60.7798916668" lon="12.1834500069">
		<tag k="fixme" v="consider natural=peak for the most distinct mountains in the district" />
		<tag k="name" v="Lønnknappen" />
		<tag k="natural" v="hill" />
		<tag k="place" v="locality" />
		<tag k="ssr:stedsnr" v="950064" />
	</node>
	<node id="-40891" lat="60.5775999988" lon="12.1266583298">
		<tag k="fixme" v="consider natural=peak for the most distinct mountains in the district" />
		<tag k="name" v="Poselia" />
		<tag k="natural" v="hill" />
		<tag k="place" v="locality" />
		<tag k="ssr:stedsnr" v="917775" />
	</node>
	<node id="-40032" lat="60.6408499983" lon="12.3873799503">
		<tag k="name" v="Tyskeberget" />
		<tag k="natural" v="hill" />
		<tag k="place" v="locality" />
		<tag k="ssr:stedsnr" v="250504" />
	</node>
	<node id="-41565" lat="60.556288891" lon="12.3692749927">
		<tag k="name" v="Evensbergshetta" />
		<tag k="natural" v="hill" />
		<tag k="place" v="locality" />
		<tag k="ssr:stedsnr" v="358020" />
	</node>
	<node id="-41052" lat="60.5343194456" lon="11.9574249957">
		<tag k="alt_name" v="Donåsberget" />
		<tag k="name" v="Dønåsberget" />
		<tag k="natural" v="hill" />
		<tag k="place" v="locality" />
		<tag k="ssr:stedsnr" v="6993" />
	</node>
	<node id="-41658" lat="60.598899997" lon="12.3246916656">
		<tag k="name" v="Fallbekkhaugene" />
		<tag k="natural" v="hill" />
		<tag k="place" v="locality" />
		<tag k="ssr:stedsnr" v="419488" />
	</node>
	<node id="-40026" lat="60.7195527743" lon="12.0702027779">
		<tag k="alt_name" v="Siljubergåsen" />
		<tag k="fixme" v="consider natural=peak for the most distinct mountains in the district" />
		<tag k="name" v="Siljuåsen" />
		<tag k="natural" v="hill" />
		<tag k="place" v="locality" />
		<tag k="ssr:stedsnr" v="250204" />
	</node>
	<node id="-41049" lat="60.5895250025" lon="11.9052083391">
		<tag k="name" v="Hovelsåsberget" />
		<tag k="natural" v="hill" />
		<tag k="place" v="locality" />
		<tag k="ssr:stedsnr" v="6764" />
	</node>
	<node id="-42072" lat="60.6207833298" lon="12.5012027779">
		<tag k="fixme" v="consider natural=peak for the most distinct mountains in the district" />
		<tag k="name" v="Gransjøberget" />
		<tag k="natural" v="hill" />
		<tag k="place" v="locality" />
		<tag k="ssr:stedsnr" v="785601" />
	</node>
	<node id="-42071" lat="60.5212055551" lon="11.8914666733">
		<tag k="name" v="Kronhaugen" />
		<tag k="natural" v="hill" />
		<tag k="place" v="locality" />
		<tag k="ssr:stedsnr" v="785561" />
	</node>
	<node id="-41913" lat="60.6801638926" lon="12.4623805637">
		<tag k="name" v="Medskogberget" />
		<tag k="natural" v="slope" />
		<tag k="place" v="locality" />
		<tag k="ssr:stedsnr" v="601682" />
	</node>
	<node id="-40530" lat="60.6126611101" lon="12.1766666666">
		<tag k="name" v="Klokksprunga" />
		<tag k="natural" v="cliff" />
		<tag k="ssr:stedsnr" v="707188" />
	</node>
	<node id="-41039" lat="60.8021416669" lon="12.1491305564">
		<tag k="fixme" v="consider natural=peak for the most distinct mountains in the district" />
		<tag k="name" v="Tullkambrenna" />
		<tag k="natural" v="hill" />
		<tag k="place" v="locality" />
		<tag k="ssr:stedsnr" v="968762" />
	</node>
	<node id="-41114" lat="60.6815750028" lon="12.2186999927">
		<tag k="name" v="Hybelbrenna" />
		<tag k="natural" v="slope" />
		<tag k="place" v="locality" />
		<tag k="ssr:stedsnr" v="40076" />
	</node>
	<node id="-42057" lat="60.7218944488" lon="12.0527527703">
		<tag k="name" v="Brånåbergsmyra" />
		<tag k="natural" v="slope" />
		<tag k="place" v="locality" />
		<tag k="ssr:stedsnr" v="783766" />
	</node>
	<node id="-41419" lat="60.6574833297" lon="12.1249027785">
		<tag k="fixme" v="consider natural=peak for the most distinct mountains in the district" />
		<tag k="name" v="Kjellåsen" />
		<tag k="natural" v="hill" />
		<tag k="place" v="locality" />
		<tag k="ssr:stedsnr" v="189076" />
	</node>
	<node id="-41542" lat="60.6182194408" lon="12.1666611086">
		<tag k="name" v="Knappsloen" />
		<tag k="natural" v="slope" />
		<tag k="place" v="locality" />
		<tag k="ssr:stedsnr" v="343163" />
	</node>
	<node id="-41029" lat="60.7656694437" lon="12.2928250008">
		<tag k="fixme" v="consider natural=peak for the most distinct mountains in the district" />
		<tag k="name" v="Elgåsen" />
		<tag k="natural" v="hill" />
		<tag k="place" v="locality" />
		<tag k="ssr:stedsnr" v="965368" />
	</node>
	<node id="-39894" lat="60.5996666628" lon="12.4642722288">
		<tag k="name" v="Hansfallet" />
		<tag k="natural" v="valley" />
		<tag k="place" v="locality" />
		<tag k="ssr:stedsnr" v="224299" />
	</node>
	<node id="-40003" lat="60.5796277805" lon="12.1747194411">
		<tag k="name" v="Kontberget" />
		<tag k="natural" v="hill" />
		<tag k="place" v="locality" />
		<tag k="ssr:stedsnr" v="249769" />
	</node>
	<node id="-40513" lat="60.6781833371" lon="11.9218777866">
		<tag k="name" v="Brennmoen" />
		<tag k="place" v="locality" />
		<tag k="ssr:stedsnr" v="544435" />
	</node>
	<node id="-41024" lat="60.6791416706" lon="12.3947722228">
		<tag k="name" v="Sandbakken" />
		<tag k="natural" v="slope" />
		<tag k="place" v="locality" />
		<tag k="ssr:stedsnr" v="952430" />
	</node>
	<node id="-40511" lat="60.6419222191" lon="12.1813138904">
		<tag k="name" v="Gammelbrenna" />
		<tag k="natural" v="slope" />
		<tag k="place" v="locality" />
		<tag k="ssr:stedsnr" v="544148" />
	</node>
	<node id="-40510" lat="60.6450361074" lon="12.26911945">
		<tag k="name" v="Fløytamoen" />
		<tag k="place" v="locality" />
		<tag k="ssr:stedsnr" v="544133" />
	</node>
	<node id="-42165" lat="60.6913527804" lon="12.2914000034">
		<tag k="name" v="Elggropa" />
		<tag k="natural" v="valley" />
		<tag k="place" v="locality" />
		<tag k="ssr:stedsnr" v="831348" />
	</node>
	<node id="-39933" lat="60.8758972238" lon="12.1691000026">
		<tag k="name" v="Lusgrøftdalen" />
		<tag k="natural" v="valley" />
		<tag k="place" v="locality" />
		<tag k="ssr:stedsnr" v="55252" />
	</node>
	<node id="-40506" lat="60.626386113" lon="12.5037083329">
		<tag k="name" v="Lorttjernsknappen" />
		<tag k="natural" v="hill" />
		<tag k="place" v="locality" />
		<tag k="ssr:stedsnr" v="542618" />
	</node>
	<node id="-42041" lat="60.8301222208" lon="12.2573277841">
		<tag k="name" v="Bekkshygge" />
		<tag k="place" v="locality" />
		<tag k="ssr:stedsnr" v="783008" />
	</node>
	<node id="-40504" lat="60.704747225" lon="12.0743638955">
		<tag k="name" v="Brattlia" />
		<tag k="natural" v="slope" />
		<tag k="place" v="locality" />
		<tag k="ssr:stedsnr" v="540752" />
	</node>
	<node id="-39991" lat="60.5965055581" lon="12.2248750058">
		<tag k="name" v="Ruskhøgda" />
		<tag k="natural" v="hill" />
		<tag k="place" v="locality" />
		<tag k="ssr:stedsnr" v="249521" />
	</node>
	<node id="-41526" lat="60.564019446" lon="11.8619249968">
		<tag k="fixme" v="consider natural=peak for the most distinct mountains in the district" />
		<tag k="name" v="Knappen" />
		<tag k="natural" v="hill" />
		<tag k="place" v="locality" />
		<tag k="ssr:stedsnr" v="310945" />
	</node>
	<node id="-42249" lat="60.7208249989" lon="12.3975805536">
		<tag k="name" v="Høklingsbrenna" />
		<tag k="natural" v="hill" />
		<tag k="place" v="locality" />
		<tag k="ssr:stedsnr" v="857593" />
	</node>
	<node id="-41528" lat="60.5532583293" lon="12.1327361043">
		<tag k="name" v="Salberget" />
		<tag k="natural" v="hill" />
		<tag k="place" v="locality" />
		<tag k="ssr:stedsnr" v="310991" />
	</node>
	<node id="-41874" lat="60.6109361067" lon="11.9516666719">
		<tag k="name" v="Kalgårdsmoen" />
		<tag k="place" v="locality" />
		<tag k="ssr:stedsnr" v="585565" />
	</node>
	<node id="-42034" lat="60.6956055558" lon="12.3595833289">
		<tag k="name" v="Kampmyrdalen" />
		<tag k="natural" v="valley" />
		<tag k="place" v="locality" />
		<tag k="ssr:stedsnr" v="770389" />
	</node>
	<node id="-41480" lat="60.679322221" lon="12.0529249995">
		<tag k="name" v="Gjesåsberget" />
		<tag k="natural" v="hill" />
		<tag k="place" v="locality" />
		<tag k="ssr:stedsnr" v="310010" />
	</node>
	<node id="-41006" lat="60.6734388895" lon="12.2372500046">
		<tag k="name" v="Sæbuberget" />
		<tag k="natural" v="hill" />
		<tag k="place" v="locality" />
		<tag k="ssr:stedsnr" v="917571" />
	</node>
	<node id="-39981" lat="60.5566888932" lon="12.5391694374">
		<tag k="alt_name" v="Breidsjøåsen" />
		<tag k="fixme" v="consider natural=peak for the most distinct mountains in the district" />
		<tag k="name" v="Breisjøåsen" />
		<tag k="natural" v="hill" />
		<tag k="place" v="locality" />
		<tag k="ssr:stedsnr" v="68717" />
	</node>
	<node id="-42028" lat="60.6091972186" lon="12.0905222129">
		<tag k="fixme" v="consider natural=peak for the most distinct mountains in the district" />
		<tag k="name" v="Åslihøgda" />
		<tag k="natural" v="hill" />
		<tag k="place" v="locality" />
		<tag k="ssr:stedsnr" v="769942" />
	</node>
	<node id="-41515" lat="60.6147777807" lon="12.1834777801">
		<tag k="fixme" v="consider natural=peak for the most distinct mountains in the district" />
		<tag k="name" v="Klokken" />
		<tag k="natural" v="hill" />
		<tag k="place" v="locality" />
		<tag k="ssr:stedsnr" v="310845" />
	</node>
	<node id="-41512" lat="60.5883833373" lon="12.1295833394">
		<tag k="name" v="Juberget" />
		<tag k="natural" v="hill" />
		<tag k="place" v="locality" />
		<tag k="ssr:stedsnr" v="310796" />
	</node>
	<node id="-41669" lat="60.6657388907" lon="12.457652772">
		<tag k="fixme" v="consider natural=peak for the most distinct mountains in the district" />
		<tag k="name" v="Furuberget" />
		<tag k="natural" v="hill" />
		<tag k="place" v="locality" />
		<tag k="ssr:stedsnr" v="421660" />
	</node>
	<node id="-41328" lat="60.6378888907" lon="12.0247249938">
		<tag k="name" v="Liberget" />
		<tag k="natural" v="hill" />
		<tag k="place" v="locality" />
		<tag k="ssr:stedsnr" v="128841" />
	</node>
	<node id="-39973" lat="60.653711113" lon="12.49791389">
		<tag k="name" v="Heiberget" />
		<tag k="natural" v="hill" />
		<tag k="place" v="locality" />
		<tag k="ssr:stedsnr" v="68604" />
	</node>
	<node id="-41507" lat="60.5764500034" lon="12.0984444494">
		<tag k="fixme" v="consider natural=peak for the most distinct mountains in the district" />
		<tag k="name" v="Gjersåsen" />
		<tag k="natural" v="hill" />
		<tag k="place" v="locality" />
		<tag k="ssr:stedsnr" v="310782" />
	</node>
	<node id="-39970" lat="60.5105749975" lon="11.769705561">
		<tag k="name" v="Gransjøknappen" />
		<tag k="natural" v="hill" />
		<tag k="place" v="locality" />
		<tag k="ssr:stedsnr" v="68236" />
	</node>
	<node id="-39965" lat="60.6316916633" lon="11.9285916687">
		<tag k="name" v="Ansetmoen" />
		<tag k="place" v="locality" />
		<tag k="ssr:stedsnr" v="67828" />
	</node>
	<node id="-40988" lat="60.6058249975" lon="12.3735194494">
		<tag k="name" v="Skjærberget" />
		<tag k="natural" v="slope" />
		<tag k="place" v="locality" />
		<tag k="ssr:stedsnr" v="905518" />
	</node>
	<node id="-40282" lat="60.5638694461" lon="12.2345499947">
		<tag k="name" v="Trollholmen" />
		<tag k="natural" v="hill" />
		<tag k="place" v="locality" />
		<tag k="ssr:stedsnr" v="360210" />
	</node>
	<node id="-42159" lat="60.5686305585" lon="11.7876972211">
		<tag k="name" v="Vesleknarten" />
		<tag k="natural" v="hill" />
		<tag k="place" v="locality" />
		<tag k="ssr:stedsnr" v="831176" />
	</node>
	<node id="-41496" lat="60.6267750037" lon="12.4670583341">
		<tag k="name" v="Vindberget" />
		<tag k="natural" v="hill" />
		<tag k="place" v="locality" />
		<tag k="ssr:stedsnr" v="310522" />
	</node>
	<node id="-42197" lat="60.8435833372" lon="12.2736416603">
		<tag k="name" v="Sjølia" />
		<tag k="natural" v="slope" />
		<tag k="place" v="locality" />
		<tag k="ssr:stedsnr" v="846243" />
	</node>
	<node id="-39958" lat="60.7172166681" lon="12.02214167">
		<tag k="name" v="Styggdalen" />
		<tag k="natural" v="valley" />
		<tag k="place" v="locality" />
		<tag k="ssr:stedsnr" v="241897" />
	</node>
	<node id="-40468" lat="60.6250166676" lon="12.0485194528">
		<tag k="alt_name" v="Bashammeren" />
		<tag k="name" v="Basshammaren" />
		<tag k="natural" v="hill" />
		<tag k="place" v="locality" />
		<tag k="ssr:stedsnr" v="674864" />
	</node>
	<node id="-40707" lat="60.6450583342" lon="12.1577777776">
		<tag k="fixme" v="consider natural=peak for the most distinct mountains in the district" />
		<tag k="name" v="Butteråsen" />
		<tag k="natural" v="hill" />
		<tag k="place" v="locality" />
		<tag k="ssr:stedsnr" v="735825" />
	</node>
	<node id="-39952" lat="60.6454138878" lon="12.0602972167">
		<tag k="name" v="Sønsterudmoen" />
		<tag k="place" v="locality" />
		<tag k="ssr:stedsnr" v="239873" />
	</node>
	<node id="-41999" lat="60.5747916678" lon="12.4717138814">
		<tag k="name" v="Rytomta" />
		<tag k="place" v="locality" />
		<tag k="ssr:stedsnr" v="648343" />
	</node>
	<node id="-41997" lat="60.5870472248" lon="12.4693666662">
		<tag k="name" v="Kontmyrdalen" />
		<tag k="natural" v="valley" />
		<tag k="place" v="locality" />
		<tag k="ssr:stedsnr" v="648333" />
	</node>
	<node id="-40460" lat="60.5696416624" lon="12.3202277757">
		<tag k="alt_name" v="Lindberget" />
		<tag k="name" v="Linberget" />
		<tag k="natural" v="hill" />
		<tag k="place" v="locality" />
		<tag k="ssr:stedsnr" v="674544" />
	</node>
	<node id="-40459" lat="60.5950000006" lon="12.2595888892">
		<tag k="name" v="Venbergsknappen" />
		<tag k="natural" v="hill" />
		<tag k="place" v="locality" />
		<tag k="ssr:stedsnr" v="674538" />
	</node>
	<node id="-40457" lat="60.566999978" lon="11.7767234243">
		<tag k="fixme" v="multiple name tags, choose one and add the other to alt_name; consider natural=peak for the most distinct mountains in the district" />
		<tag k="name" v="Geitknarten;Storknarten" />
		<tag k="natural" v="hill" />
		<tag k="place" v="locality" />
		<tag k="ssr:stedsnr" v="674128" />
	</node>
	<node id="-41992" lat="60.6100999965" lon="11.9916277804">
		<tag k="name" v="Gaukberget" />
		<tag k="natural" v="slope" />
		<tag k="place" v="locality" />
		<tag k="ssr:stedsnr" v="647965" />
	</node>
	<node id="-41685" lat="60.6151027781" lon="11.9337444362">
		<tag k="name" v="Kolgårdmoen" />
		<tag k="place" v="locality" />
		<tag k="ssr:stedsnr" v="423474" />
	</node>
	<node id="-41985" lat="60.5815972185" lon="12.1756833334">
		<tag k="name" v="Karusshaugen" />
		<tag k="natural" v="hill" />
		<tag k="place" v="locality" />
		<tag k="ssr:stedsnr" v="646217" />
	</node>
	<node id="-40964" lat="60.5094111116" lon="11.858161119">
		<tag k="fixme" v="consider natural=peak for the most distinct mountains in the district" />
		<tag k="name" v="Nakken" />
		<tag k="natural" v="hill" />
		<tag k="place" v="locality" />
		<tag k="ssr:stedsnr" v="857921" />
	</node>
	<node id="-39939" lat="60.7470611126" lon="12.0435833345">
		<tag k="fixme" v="consider natural=peak for the most distinct mountains in the district" />
		<tag k="name" v="Svartåsen" />
		<tag k="natural" v="hill" />
		<tag k="place" v="locality" />
		<tag k="ssr:stedsnr" v="237690" />
	</node>
	<node id="-39938" lat="60.5085555548" lon="11.7989750084">
		<tag k="name" v="Eftashaugen" />
		<tag k="natural" v="hill" />
		<tag k="place" v="locality" />
		<tag k="ssr:stedsnr" v="237683" />
	</node>
	<node id="-40449" lat="60.7142944434" lon="12.2400833411">
		<tag k="name" v="Myssmørbakken" />
		<tag k="natural" v="slope" />
		<tag k="place" v="locality" />
		<tag k="ssr:stedsnr" v="484073" />
	</node>
</osm>
