<?xml version="1.0" encoding="UTF-8"?>
<<<<<<< HEAD
<osm version="0.6" generator="osmapis">
	<node lat="60.599933329981276" lon="12.138308338323174" id="-18664">
=======
<osm generator="osmapis" version="0.6">
	<node id="-326175" lat="60.5510222227" lon="12.017794441">
		<tag k="amenity" v="place_of_worship" />
		<tag k="denomination" v="lutheran" />
		<tag k="name" v="Hof kirke" />
		<tag k="religion" v="christian" />
		<tag k="ssr:stedsnr" v="857942" />
	</node>
	<node id="-324186" lat="60.6784083357" lon="12.024650008">
		<tag k="amenity" v="place_of_worship" />
		<tag k="denomination" v="lutheran" />
		<tag k="name" v="Gjesåsen kirke" />
		<tag k="religion" v="christian" />
		<tag k="ssr:stedsnr" v="492095" />
	</node>
	<node id="-324954" lat="60.6668944446" lon="12.4370472202">
		<tag k="amenity" v="community_centre" />
		<tag k="name" v="Bakken grendehus" />
		<tag k="ssr:stedsnr" v="967615" />
	</node>
	<node id="-324463" lat="60.5550638914" lon="11.9027138877">
		<tag k="name" v="Kariskjæret" />
		<tag k="ssr:stedsnr" v="707598" />
		<tag k="tourism" v="viewpoint" />
	</node>
	<node id="-325044" lat="60.59993333" lon="12.1383083383">
>>>>>>> e1d4bc35ff8a6074a6f2e91616a996b547c36f15
		<tag k="name" v="Skakkelure" />
		<tag k="place" v="locality" />
		<tag k="ssr:stedsnr" v="41880" />
	</node>
<<<<<<< HEAD
	<node lat="60.68559721958423" lon="12.24560834155733" id="-18706">
		<tag k="name" v="Globussvingen" />
		<tag k="place" v="locality" />
		<tag k="ssr:stedsnr" v="241070" />
	</node>
	<node lat="60.67736944222836" lon="12.109061110055439" id="-18802">
		<tag k="amenity" v="community_centre" />
		<tag k="name" v="Skansen" />
		<tag k="ssr:stedsnr" v="250122" />
	</node>
	<node lat="60.68420555105764" lon="12.453463891215522" id="-18823">
		<tag k="amenity" v="community_centre" />
		<tag k="name" v="Linnheim" />
		<tag k="ssr:stedsnr" v="116679" />
	</node>
	<node lat="60.55250555188189" lon="12.02267222254154" id="-19089">
		<tag k="amenity" v="community_centre" />
		<tag k="name" v="Hof Samfunnshus" />
		<tag k="ssr:stedsnr" v="479488" />
	</node>
	<node lat="60.67840833566913" lon="12.024650008007304" id="-19181">
		<tag k="amenity" v="place_of_worship" />
		<tag k="denomination" v="lutheran" />
		<tag k="name" v="Gjesåsen kirke" />
		<tag k="religion" v="christian" />
		<tag k="ssr:stedsnr" v="492095" />
	</node>
	<node lat="60.57913055734652" lon="12.263033327876206" id="-19321">
		<tag k="amenity" v="community_centre" />
		<tag k="name" v="Nysæter grendehus" />
		<tag k="ssr:stedsnr" v="543268" />
	</node>
	<node lat="60.55506389140365" lon="11.902713887694897" id="-19457">
		<tag k="name" v="Kariskjæret" />
		<tag k="ssr:stedsnr" v="707598" />
		<tag k="tourism" v="viewpoint" />
	</node>
	<node lat="60.70389166893134" lon="12.379413891644306" id="-19698">
		<tag k="amenity" v="place_of_worship" />
		<tag k="denomination" v="lutheran" />
		<tag k="name" v="Åsnes Finnskog kirke" />
		<tag k="old_name" v="Finnskog" />
		<tag k="religion" v="christian" />
		<tag k="ssr:stedsnr" v="796571" />
	</node>
	<node lat="60.661974998189656" lon="12.14929443612309" id="-19915">
=======
	<node id="-325718" lat="60.5791305573" lon="12.2630333279">
		<tag k="amenity" v="community_centre" />
		<tag k="name" v="Nysæter grendehus" />
		<tag k="ssr:stedsnr" v="543268" />
	</node>
	<node id="-324149" lat="60.5525055519" lon="12.0226722225">
		<tag k="amenity" v="community_centre" />
		<tag k="name" v="Hof Samfunnshus" />
		<tag k="ssr:stedsnr" v="479488" />
	</node>
	<node id="-324980" lat="60.6619749982" lon="12.1492944361">
>>>>>>> e1d4bc35ff8a6074a6f2e91616a996b547c36f15
		<tag k="name" v="Dreierstøtta" />
		<tag k="old_name" v="Kapt. Dreyer 1808" />
		<tag k="place" v="locality" />
		<tag k="ssr:stedsnr" v="7090" />
	</node>
<<<<<<< HEAD
	<node lat="60.56770833539743" lon="12.058397221504604" id="-20548">
=======
	<node id="-325780" lat="60.6100416649" lon="11.9762583344">
>>>>>>> e1d4bc35ff8a6074a6f2e91616a996b547c36f15
		<tag k="amenity" v="place_of_worship" />
		<tag k="denomination" v="lutheran" />
		<tag k="name" v="Åsnes kirke" />
		<tag k="religion" v="christian" />
<<<<<<< HEAD
		<tag k="ssr:stedsnr" v="432954" />
	</node>
	<node lat="60.61004166494552" lon="11.976258334447405" id="-20628">
		<tag k="amenity" v="place_of_worship" />
		<tag k="denomination" v="lutheran" />
		<tag k="name" v="Åsnes kirke" />
		<tag k="religion" v="christian" />
		<tag k="ssr:stedsnr" v="553865" />
	</node>
	<node lat="60.63748889057479" lon="12.274313888023569" id="-20757">
		<tag k="amenity" v="community_centre" />
		<tag k="name" v="Sandberg" />
		<tag k="ssr:stedsnr" v="665158" />
	</node>
	<node lat="60.57671944851293" lon="12.338030560662359" id="-20910">
=======
		<tag k="ssr:stedsnr" v="553865" />
	</node>
	<node id="-326031" lat="60.5767194485" lon="12.3380305607">
>>>>>>> e1d4bc35ff8a6074a6f2e91616a996b547c36f15
		<tag k="amenity" v="place_of_worship" />
		<tag k="denomination" v="lutheran" />
		<tag k="name" v="Hof Finnskog kirke" />
		<tag k="religion" v="christian" />
		<tag k="ssr:stedsnr" v="796550" />
	</node>
<<<<<<< HEAD
	<node lat="60.70811110833997" lon="12.361630560094142" id="-20930">
=======
	<node id="-326062" lat="60.7081111083" lon="12.3616305601">
>>>>>>> e1d4bc35ff8a6074a6f2e91616a996b547c36f15
		<tag k="cemetery" v="grave" />
		<tag k="name" v="Nordre Gravlund" />
		<tag k="place" v="locality" />
		<tag k="ssr:stedsnr" v="829402" />
	</node>
<<<<<<< HEAD
	<node lat="60.551022222669715" lon="12.0177944410447" id="-21005">
		<tag k="amenity" v="place_of_worship" />
		<tag k="denomination" v="lutheran" />
		<tag k="name" v="Hof kirke" />
		<tag k="religion" v="christian" />
		<tag k="ssr:stedsnr" v="857942" />
	</node>
	<node lat="60.66689444464619" lon="12.437047220170221" id="-21057">
		<tag k="amenity" v="community_centre" />
		<tag k="name" v="Bakken grendehus" />
		<tag k="ssr:stedsnr" v="967615" />
=======
	<node id="-324109" lat="60.6855972196" lon="12.2456083416">
		<tag k="name" v="Globussvingen" />
		<tag k="place" v="locality" />
		<tag k="ssr:stedsnr" v="241070" />
	</node>
	<node id="-323945" lat="60.6773694422" lon="12.1090611101">
		<tag k="amenity" v="community_centre" />
		<tag k="name" v="Skansen" />
		<tag k="ssr:stedsnr" v="250122" />
	</node>
	<node id="-325191" lat="60.6842055511" lon="12.4534638912">
		<tag k="amenity" v="community_centre" />
		<tag k="name" v="Linnheim" />
		<tag k="ssr:stedsnr" v="116679" />
	</node>
	<node id="-326022" lat="60.7038916689" lon="12.3794138916">
		<tag k="amenity" v="place_of_worship" />
		<tag k="denomination" v="lutheran" />
		<tag k="name" v="Åsnes Finnskog kirke" />
		<tag k="old_name" v="Finnskog" />
		<tag k="religion" v="christian" />
		<tag k="ssr:stedsnr" v="796571" />
	</node>
	<node id="-324337" lat="60.6374888906" lon="12.274313888">
		<tag k="amenity" v="community_centre" />
		<tag k="name" v="Sandberg" />
		<tag k="ssr:stedsnr" v="665158" />
	</node>
	<node id="-325666" lat="60.5677083354" lon="12.0583972215">
		<tag k="amenity" v="place_of_worship" />
		<tag k="denomination" v="lutheran" />
		<tag k="name" v="Arneberg kirke" />
		<tag k="religion" v="christian" />
		<tag k="ssr:stedsnr" v="432954" />
>>>>>>> e1d4bc35ff8a6074a6f2e91616a996b547c36f15
	</node>
</osm>
