<?xml version="1.0" encoding="UTF-8"?>
<osm version="0.6" generator="osmapis">
	<node lat="60.529008329930335" lon="11.840983326317165" id="-37485">
		<tag k="fixme" v="consider highway=path" />
		<tag k="highway" v="track" />
		<tag k="name" v="Beitnessætervegen" />
		<tag k="ssr:stedsnr" v="237676" />
	</node>
	<node lat="60.70568333191329" lon="12.306022225953907" id="-37492">
		<tag k="bridge" v="yes" />
		<tag k="layer" v="1" />
		<tag k="name" v="Blandtjernbekk" />
		<tag k="ssr:stedsnr" v="46715" />
	</node>
	<node lat="60.580774221941645" lon="12.292118110405625" id="-37493">
		<tag k="bridge" v="yes" />
		<tag k="layer" v="1" />
		<tag k="name" v="Sorma bru" />
		<tag k="ssr:stedsnr" v="46727" />
	</node>
	<node lat="60.70580261413859" lon="12.359310825927054" id="-37595">
		<tag k="bridge" v="yes" />
		<tag k="layer" v="1" />
		<tag k="name" v="Tangen bru" />
		<tag k="ssr:stedsnr" v="107706" />
	</node>
	<node lat="60.60903610840295" lon="11.977388893588216" id="-37597">
		<tag k="bridge" v="yes" />
		<tag k="layer" v="1" />
		<tag k="name" v="Kirkegropbrua O/Nsb" />
		<tag k="ssr:stedsnr" v="107697" />
	</node>
	<node lat="60.56161944780756" lon="12.050772220031226" id="-37725">
		<tag k="bridge" v="yes" />
		<tag k="layer" v="1" />
		<tag k="name" v="Austaddammen" />
		<tag k="ssr:stedsnr" v="167706" />
	</node>
	<node lat="60.58311944162277" lon="12.048683337276914" id="-37752">
		<tag k="junction" v="yes" />
		<tag k="name" v="Kløfta" />
		<tag k="place" v="locality" />
		<tag k="ssr:stedsnr" v="189772" />
	</node>
	<node lat="60.64433888526825" lon="12.207172215668614" id="-37789">
		<tag k="highway" v="path" />
		<tag k="name" v="Mindavegen" />
		<tag k="ssr:stedsnr" v="241137" />
	</node>
	<node lat="60.23234721891594" lon="12.45742222348456" id="-37794">
		<tag k="highway" v="path" />
		<tag k="name" v="Finnskogleden" />
		<tag k="ssr:stedsnr" v="265983" />
	</node>
	<node lat="60.72968113938562" lon="12.312636675327083" id="-37804">
		<tag k="bridge" v="yes" />
		<tag k="layer" v="1" />
		<tag k="name" v="Kynna bru" />
		<tag k="ssr:stedsnr" v="289729" />
	</node>
	<node lat="60.77555833631938" lon="12.272147218253256" id="-37836">
		<tag k="highway" v="path" />
		<tag k="name" v="Mastvegen" />
		<tag k="ssr:stedsnr" v="466065" />
	</node>
	<node lat="60.689501463551686" lon="11.918642921181545" id="-37863">
		<tag k="bridge" v="yes" />
		<tag k="layer" v="1" />
		<tag k="name" v="Søndre Hasla bru" />
		<tag k="ssr:stedsnr" v="471686" />
	</node>
	<node lat="60.68028055233372" lon="12.28783889335116" id="-37871">
		<tag k="fixme" v="consider highway=path" />
		<tag k="highway" v="track" />
		<tag k="name" v="Svenskevegen" />
		<tag k="ssr:stedsnr" v="345413" />
	</node>
	<node lat="60.64762777454996" lon="12.293819450876645" id="-37875">
		<tag k="bridge" v="yes" />
		<tag k="layer" v="1" />
		<tag k="name" v="Alunbekken" />
		<tag k="ssr:stedsnr" v="349709" />
	</node>
	<node lat="60.556611108602276" lon="12.065299994723011" id="-37876">
		<tag k="bridge" v="yes" />
		<tag k="layer" v="1" />
		<tag k="name" v="Jammerdalsbekken" />
		<tag k="ssr:stedsnr" v="349721" />
	</node>
	<node lat="60.772105551184545" lon="12.295647222433633" id="-37881">
		<tag k="highway" v="path" />
		<tag k="name" v="Mastvegen" />
		<tag k="ssr:stedsnr" v="358311" />
	</node>
	<node lat="60.57843333512022" lon="12.051575006474783" id="-37926">
		<tag k="junction" v="yes" />
		<tag k="name" v="Skorkorset" />
		<tag k="place" v="locality" />
		<tag k="ssr:stedsnr" v="482883" />
	</node>
	<node lat="60.67029200343397" lon="12.171689517723177" id="-38072">
		<tag k="bridge" v="yes" />
		<tag k="layer" v="1" />
		<tag k="name" v="Nyå bru" />
		<tag k="ssr:stedsnr" v="471677" />
	</node>
	<node lat="60.68564622557719" lon="12.452053653681407" id="-38073">
		<tag k="bridge" v="yes" />
		<tag k="layer" v="1" />
		<tag k="name" v="Midtskog bru" />
		<tag k="ssr:stedsnr" v="471679" />
	</node>
	<node lat="60.522434982415106" lon="12.016579902434861" id="-38074">
		<tag k="bridge" v="yes" />
		<tag k="layer" v="1" />
		<tag k="name" v="Haug bru" />
		<tag k="ssr:stedsnr" v="471682" />
	</node>
	<node lat="60.84346350650437" lon="12.310523409314216" id="-38135">
		<tag k="alt_name" v="Ytre Ulvå bru" />
		<tag k="bridge" v="yes" />
		<tag k="layer" v="1" />
		<tag k="name" v="Ulvå bru" />
		<tag k="ssr:stedsnr" v="532674" />
	</node>
	<node lat="60.70658333733387" lon="12.392311117097972" id="-38194">
		<tag k="highway" v="path" />
		<tag k="name" v="Mastvegen" />
		<tag k="ssr:stedsnr" v="586410" />
	</node>
	<node lat="60.62549389114294" lon="11.98889472391383" id="-38260">
		<tag k="man_made" v="cairn" />
		<tag k="name" v="Varden" />
		<tag k="place" v="locality" />
		<tag k="ssr:stedsnr" v="647990" />
	</node>
	<node lat="60.54367222333271" lon="12.502136102395584" id="-38263">
		<tag k="fixme" v="consider highway=path" />
		<tag k="highway" v="track" />
		<tag k="name" v="Fjortenvegen" />
		<tag k="ssr:stedsnr" v="648346" />
	</node>
	<node lat="60.62543333747535" lon="12.021755558237583" id="-38281">
		<tag k="bridge" v="yes" />
		<tag k="layer" v="1" />
		<tag k="name" v="Ingelsrud bru" />
		<tag k="ssr:stedsnr" v="653689" />
	</node>
	<node lat="60.64134814072851" lon="12.270059223267772" id="-38282">
		<tag k="bridge" v="yes" />
		<tag k="layer" v="1" />
		<tag k="name" v="Valby bru" />
		<tag k="ssr:stedsnr" v="653693" />
	</node>
	<node lat="60.561647226150335" lon="12.100374993075603" id="-38283">
		<tag k="bridge" v="yes" />
		<tag k="layer" v="1" />
		<tag k="name" v="Sorka" />
		<tag k="ssr:stedsnr" v="653697" />
	</node>
	<node lat="60.61314721956596" lon="12.01090555563703" id="-38286">
		<tag k="junction" v="yes" />
		<tag k="name" v="Kjølakrysset" />
		<tag k="place" v="locality" />
		<tag k="ssr:stedsnr" v="708943" />
	</node>
	<node lat="60.86742778016057" lon="12.212800006914254" id="-38293">
		<tag k="highway" v="path" />
		<tag k="name" v="Kirkevegen" />
		<tag k="ssr:stedsnr" v="661235" />
	</node>
	<node lat="60.61262331620624" lon="12.036172779897658" id="-38349">
		<tag k="alt_name" v="Flissundet" />
		<tag k="bridge" v="yes" />
		<tag k="layer" v="1" />
		<tag k="name" v="Flissundet bru" />
		<tag k="ssr:stedsnr" v="674851" />
	</node>
	<node lat="60.605855557440236" lon="12.175136120377449" id="-38371">
		<tag k="fixme" v="consider highway=path" />
		<tag k="highway" v="track" />
		<tag k="name" v="Øvre Malibergsvegen" />
		<tag k="ssr:stedsnr" v="891940" />
	</node>
	<node lat="60.63922539394485" lon="12.04077249813149" id="-38376">
		<tag k="bridge" v="yes" />
		<tag k="layer" v="1" />
		<tag k="name" v="Libergfoss bru" />
		<tag k="ssr:stedsnr" v="896725" />
	</node>
	<node lat="60.68945833705218" lon="12.300583328471316" id="-38377">
		<tag k="bridge" v="yes" />
		<tag k="layer" v="1" />
		<tag k="name" v="Flisa Østre" />
		<tag k="ssr:stedsnr" v="896727" />
	</node>
	<node lat="60.562119446808566" lon="12.12181389493968" id="-38400">
		<tag k="fixme" v="consider highway=path" />
		<tag k="highway" v="track" />
		<tag k="name" v="Finnvegen" />
		<tag k="ssr:stedsnr" v="727879" />
	</node>
	<node lat="60.553004666228965" lon="12.534844665303668" id="-38477">
		<tag k="bridge" v="yes" />
		<tag k="layer" v="1" />
		<tag k="name" v="Breisjøå bru" />
		<tag k="ssr:stedsnr" v="774718" />
	</node>
	<node lat="60.55283055501808" lon="12.022002781914514" id="-38488">
		<tag k="junction" v="yes" />
		<tag k="name" v="Norheim" />
		<tag k="place" v="locality" />
		<tag k="ssr:stedsnr" v="783504" />
	</node>
	<node lat="60.662713892001086" lon="11.956091658901968" id="-38572">
		<tag k="fixme" v="consider highway=path" />
		<tag k="highway" v="track" />
		<tag k="name" v="Kjerkevegen" />
		<tag k="ssr:stedsnr" v="829620" />
	</node>
	<node lat="60.8093583289764" lon="12.3099916658999" id="-38646">
		<tag k="alt_name" v="Renvadet" />
		<tag k="ford" v="yes" />
		<tag k="name" v="Reinvadet" />
		<tag k="place" v="locality" />
		<tag k="ssr:stedsnr" v="859720" />
	</node>
	<node lat="60.56990555750646" lon="12.209730551965853" id="-38647">
		<tag k="bridge" v="yes" />
		<tag k="layer" v="1" />
		<tag k="name" v="Midtre Grautå" />
		<tag k="ssr:stedsnr" v="228718" />
	</node>
	<node lat="60.56732777344066" lon="12.280561115082577" id="-38668">
		<tag k="fixme" v="consider highway=path" />
		<tag k="highway" v="track" />
		<tag k="name" v="Voldsnesvegen" />
		<tag k="ssr:stedsnr" v="907209" />
	</node>
	<node lat="60.60585278074355" lon="11.921797225325376" id="-38678">
		<tag k="bridge" v="yes" />
		<tag k="layer" v="1" />
		<tag k="name" v="Tverrå Nedre" />
		<tag k="ssr:stedsnr" v="228729" />
	</node>
	<node lat="60.630466670023466" lon="12.235344451576857" id="-38716">
		<tag k="highway" v="path" />
		<tag k="name" v="Myrveltvegen" />
		<tag k="ssr:stedsnr" v="950158" />
	</node>
	<node lat="60.792247219483045" lon="12.353461111522593" id="-38840">
		<tag k="highway" v="path" />
		<tag k="name" v="Finnvegen" />
		<tag k="ssr:stedsnr" v="59342" />
	</node>
	<node lat="60.57602500277229" lon="12.508327772221927" id="-38897">
		<tag k="highway" v="path" />
		<tag k="name" v="Gamle Breisjøbergsvegen" />
		<tag k="ssr:stedsnr" v="102400" />
	</node>
	<node lat="60.87286196987825" lon="12.218839112868737" id="-38999">
		<tag k="bridge" v="yes" />
		<tag k="layer" v="1" />
		<tag k="name" v="Ulvåa bru" />
		<tag k="ssr:stedsnr" v="176245" />
	</node>
	<node lat="60.585400004161045" lon="11.920113893306663" id="-39108">
		<tag k="junction" v="yes" />
		<tag k="name" v="Lotteriet" />
		<tag k="place" v="locality" />
		<tag k="ssr:stedsnr" v="283564" />
	</node>
	<node lat="60.68841111434635" lon="12.01030556228924" id="-39122">
		<tag k="bridge" v="yes" />
		<tag k="layer" v="1" />
		<tag k="name" v="Skyå bru" />
		<tag k="ssr:stedsnr" v="289741" />
	</node>
	<node lat="60.608219303787095" lon="12.446220246719509" id="-39123">
		<tag k="bridge" v="yes" />
		<tag k="layer" v="1" />
		<tag k="name" v="Tyskå bru" />
		<tag k="ssr:stedsnr" v="289744" />
	</node>
	<node lat="60.53556388987208" lon="11.879594441619808" id="-39134">
		<tag k="junction" v="yes" />
		<tag k="name" v="Branes" />
		<tag k="place" v="locality" />
		<tag k="ssr:stedsnr" v="298654" />
	</node>
	<node lat="60.759972222238844" lon="12.294327777535717" id="-39139">
		<tag k="highway" v="path" />
		<tag k="name" v="Tolvervegen" />
		<tag k="ssr:stedsnr" v="299384" />
	</node>
	<node lat="60.635833329895824" lon="12.230594446591102" id="-39194">
		<tag k="highway" v="path" />
		<tag k="name" v="Kyvveltvegen" />
		<tag k="ssr:stedsnr" v="343136" />
	</node>
	<node lat="60.721730556286374" lon="12.294899997643585" id="-39304">
		<tag k="highway" v="path" />
		<tag k="name" v="Kremmersemovegen" />
		<tag k="ssr:stedsnr" v="406386" />
	</node>
	<node lat="60.64192188268033" lon="12.232353354994624" id="-39307">
		<tag k="bridge" v="yes" />
		<tag k="layer" v="1" />
		<tag k="name" v="Sørma bru" />
		<tag k="ssr:stedsnr" v="410693" />
	</node>
	<node lat="60.66304105419401" lon="11.934567705334596" id="-39308">
		<tag k="bridge" v="yes" />
		<tag k="layer" v="1" />
		<tag k="name" v="Sjølikvern bru" />
		<tag k="ssr:stedsnr" v="410694" />
	</node>
	<node lat="60.677988888002254" lon="12.153194439987452" id="-39317">
		<tag k="junction" v="yes" />
		<tag k="name" v="Sørsås" />
		<tag k="place" v="locality" />
		<tag k="ssr:stedsnr" v="419830" />
	</node>
	<node lat="60.53456944147695" lon="11.996719450812513" id="-39359">
		<tag k="junction" v="yes" />
		<tag k="name" v="Korsmo" />
		<tag k="place" v="locality" />
		<tag k="ssr:stedsnr" v="431983" />
	</node>
	<node lat="60.749736110219246" lon="12.197738880517836" id="-39418">
		<tag k="ford" v="yes" />
		<tag k="name" v="Rogbergsvaet" />
		<tag k="place" v="locality" />
		<tag k="ssr:stedsnr" v="543054" />
	</node>
	<node lat="60.59873332917601" lon="12.01986111308724" id="-39440">
		<tag k="name" v="Flisa stasjon" />
		<tag k="railway" v="station" />
		<tag k="ssr:stedsnr" v="552774" />
		<tag k="train" v="yes" />
	</node>
	<node lat="60.611608337608125" lon="12.282630552763539" id="-39473">
		<tag k="junction" v="yes" />
		<tag k="name" v="Sørmbrua" />
		<tag k="place" v="locality" />
		<tag k="ssr:stedsnr" v="586136" />
	</node>
	<node lat="60.55841574484839" lon="12.032114314379607" id="-39488">
		<tag k="bridge" v="yes" />
		<tag k="layer" v="1" />
		<tag k="name" v="Arneberg bru" />
		<tag k="ssr:stedsnr" v="591643" />
	</node>
	<node lat="60.616031312125095" lon="11.976353723128298" id="-39489">
		<tag k="bridge" v="yes" />
		<tag k="layer" v="1" />
		<tag k="name" v="Bjørneby bru" />
		<tag k="ssr:stedsnr" v="591647" />
	</node>
	<node lat="60.64949444110971" lon="12.331402772738679" id="-39559">
		<tag k="highway" v="path" />
		<tag k="name" v="Sætervegen" />
		<tag k="ssr:stedsnr" v="646436" />
	</node>
	<node lat="60.50569948036555" lon="11.928779235491497" id="-39574">
		<tag k="bridge" v="yes" />
		<tag k="layer" v="1" />
		<tag k="name" v="Hol bru" />
		<tag k="ssr:stedsnr" v="652657" />
	</node>
	<node lat="60.80678333524888" lon="12.30646110904154" id="-39575">
		<tag k="bridge" v="yes" />
		<tag k="layer" v="1" />
		<tag k="name" v="Lindåa" />
		<tag k="ssr:stedsnr" v="653686" />
	</node>
	<node lat="60.780636107709654" lon="12.121213883004705" id="-39601">
		<tag k="ford" v="yes" />
		<tag k="name" v="Moldbergsbrua" />
		<tag k="place" v="locality" />
		<tag k="ssr:stedsnr" v="665769" />
	</node>
	<node lat="60.570902780099665" lon="12.193836103002177" id="-39606">
		<tag k="bridge" v="yes" />
		<tag k="layer" v="1" />
		<tag k="name" v="Vestre Grautå" />
		<tag k="ssr:stedsnr" v="714653" />
	</node>
	<node lat="60.567061111655846" lon="12.226238892577838" id="-39607">
		<tag k="bridge" v="yes" />
		<tag k="layer" v="1" />
		<tag k="name" v="Østre Grautå" />
		<tag k="ssr:stedsnr" v="714654" />
	</node>
	<node lat="60.603938884458906" lon="12.26688055987764" id="-39678">
		<tag k="junction" v="yes" />
		<tag k="name" v="Linatorvet" />
		<tag k="place" v="locality" />
		<tag k="ssr:stedsnr" v="769193" />
	</node>
	<node lat="60.570872225889914" lon="12.54993055025827" id="-39681">
		<tag k="highway" v="path" />
		<tag k="name" v="Villbonavegen" />
		<tag k="ssr:stedsnr" v="770684" />
	</node>
	<node lat="60.69093333174407" lon="12.096236104290133" id="-39705">
		<tag k="junction" v="yes" />
		<tag k="name" v="Karlstadvelta" />
		<tag k="place" v="locality" />
		<tag k="ssr:stedsnr" v="783775" />
	</node>
	<node lat="60.66105833448988" lon="12.190716659797394" id="-39762">
		<tag k="fixme" v="consider highway=path" />
		<tag k="highway" v="track" />
		<tag k="name" v="Vegen over tolvmilsskogen" />
		<tag k="ssr:stedsnr" v="829111" />
	</node>
	<node lat="60.70360277422109" lon="12.429525006456515" id="-39778">
		<tag k="fixme" v="consider highway=path" />
		<tag k="highway" v="track" />
		<tag k="name" v="Noppahåvegen" />
		<tag k="ssr:stedsnr" v="831647" />
	</node>
	<node lat="60.711900003797524" lon="12.419611114734177" id="-39779">
		<tag k="highway" v="path" />
		<tag k="name" v="Linnmyrhullvegen" />
		<tag k="ssr:stedsnr" v="831660" />
	</node>
	<node lat="60.536266669646075" lon="12.028116671868451" id="-39782">
		<tag k="bridge" v="yes" />
		<tag k="layer" v="1" />
		<tag k="name" v="Sauerenga bru" />
		<tag k="ssr:stedsnr" v="835712" />
	</node>
	<node lat="60.76530833375075" lon="12.305627772223934" id="-39783">
		<tag k="bridge" v="yes" />
		<tag k="layer" v="1" />
		<tag k="name" v="Risbekken" />
		<tag k="ssr:stedsnr" v="835713" />
	</node>
	<node lat="60.61728492036706" lon="11.969727985595101" id="-39784">
		<tag k="bridge" v="yes" />
		<tag k="layer" v="1" />
		<tag k="name" v="Hasla bru" />
		<tag k="ssr:stedsnr" v="835714" />
	</node>
	<node lat="60.69895000276105" lon="12.303666659119129" id="-39838">
		<tag k="ford" v="yes" />
		<tag k="name" v="Finnvadet" />
		<tag k="place" v="locality" />
		<tag k="ssr:stedsnr" v="857586" />
	</node>
	<node lat="60.567244441994895" lon="12.184516675179054" id="-39858">
		<tag k="junction" v="yes" />
		<tag k="name" v="Laterskjæringa" />
		<tag k="place" v="locality" />
		<tag k="ssr:stedsnr" v="950240" />
	</node>
	<node lat="60.68423611439951" lon="12.364077781792867" id="-39877">
		<tag k="highway" v="path" />
		<tag k="name" v="Kirkevegen" />
		<tag k="ssr:stedsnr" v="952431" />
	</node>
	<node lat="60.66270832946769" lon="12.436874990679515" id="-39878">
		<tag k="bridge" v="yes" />
		<tag k="layer" v="1" />
		<tag k="name" v="Furubekken" />
		<tag k="ssr:stedsnr" v="957662" />
	</node>
	<node lat="60.83900277850572" lon="12.226091657557745" id="-39880">
		<tag k="bridge" v="yes" />
		<tag k="layer" v="1" />
		<tag k="name" v="Kloppen" />
		<tag k="ssr:stedsnr" v="965019" />
	</node>
	<node lat="60.64524167074604" lon="12.125872224422634" id="-39903">
		<tag k="highway" v="path" />
		<tag k="name" v="Oldenbråtevegen" />
		<tag k="ssr:stedsnr" v="968941" />
	</node>
	<node lat="60.78716944554482" lon="12.310358340640276" id="-39905">
		<tag k="bridge" v="yes" />
		<tag k="layer" v="1" />
		<tag k="name" v="Tollporten" />
		<tag k="ssr:stedsnr" v="969350" />
	</node>
	<node lat="60.56812718609887" lon="12.468443639950063" id="-40277">
		<tag k="highway" v="path" />
		<tag k="name" v="Kjerkevegen" />
		<tag k="ssr:stedsnr" v="1073439" />
	</node>
</osm>
