<?xml version="1.0" encoding="UTF-8"?>
<osm generator="osmapis" version="0.6">
	<node id="-32495" lat="59.8728643512" lon="11.2106768723">
		<tag k="name" v="Blesahagan" />
		<tag k="ssr:date" v="2019-05-31" />
		<tag k="ssr:gruppe" v="veg" />
		<tag k="ssr:hovedgruppe" v="infrastruktur" />
		<tag k="ssr:stedsnr" v="988986" />
		<tag k="ssr:type" v="adressenavn" />
	</node>
	<node id="-32494" lat="59.8706454988" lon="11.2149601177">
		<tag k="name" v="Blesaveien" />
		<tag k="ssr:date" v="2019-05-31" />
		<tag k="ssr:gruppe" v="veg" />
		<tag k="ssr:hovedgruppe" v="infrastruktur" />
		<tag k="ssr:stedsnr" v="988985" />
		<tag k="ssr:type" v="adressenavn" />
	</node>
	<node id="-32493" lat="59.9196717247" lon="11.1946464051">
		<tag k="name" v="Funkellia" />
		<tag k="ssr:date" v="2019-05-31" />
		<tag k="ssr:gruppe" v="veg" />
		<tag k="ssr:hovedgruppe" v="infrastruktur" />
		<tag k="ssr:stedsnr" v="983015" />
		<tag k="ssr:type" v="adressenavn" />
	</node>
	<node id="-32492" lat="59.9189345137" lon="11.1952239022">
		<tag k="name" v="Funkelveien" />
		<tag k="ssr:date" v="2019-05-31" />
		<tag k="ssr:gruppe" v="veg" />
		<tag k="ssr:hovedgruppe" v="infrastruktur" />
		<tag k="ssr:stedsnr" v="983013" />
		<tag k="ssr:type" v="adressenavn" />
	</node>
	<node id="-32491" lat="59.9193432484" lon="11.1976483457">
		<tag k="name" v="Funkelbråtan" />
		<tag k="ssr:date" v="2019-05-31" />
		<tag k="ssr:gruppe" v="veg" />
		<tag k="ssr:hovedgruppe" v="infrastruktur" />
		<tag k="ssr:stedsnr" v="983014" />
		<tag k="ssr:type" v="adressenavn" />
	</node>
	<node id="-32490" lat="59.9202001792" lon="11.1941982321">
		<tag k="name" v="Salongbakken" />
		<tag k="ssr:date" v="2019-05-31" />
		<tag k="ssr:gruppe" v="veg" />
		<tag k="ssr:hovedgruppe" v="infrastruktur" />
		<tag k="ssr:stedsnr" v="983012" />
		<tag k="ssr:type" v="adressenavn" />
	</node>
	<node id="-32489" lat="59.9178491524" lon="11.1924328405">
		<tag k="name" v="Steingardsgrinda" />
		<tag k="ssr:date" v="2019-05-31" />
		<tag k="ssr:gruppe" v="veg" />
		<tag k="ssr:hovedgruppe" v="infrastruktur" />
		<tag k="ssr:stedsnr" v="983010" />
		<tag k="ssr:type" v="adressenavn" />
	</node>
	<node id="-32488" lat="59.9170929648" lon="11.1946907738">
		<tag k="name" v="Ovarenna" />
		<tag k="ssr:date" v="2019-05-31" />
		<tag k="ssr:gruppe" v="veg" />
		<tag k="ssr:hovedgruppe" v="infrastruktur" />
		<tag k="ssr:stedsnr" v="983011" />
		<tag k="ssr:type" v="adressenavn" />
	</node>
	<node id="-32487" lat="59.9149913493" lon="11.1876468424">
		<tag k="name" v="Trevaliglia" />
		<tag k="ssr:date" v="2019-05-31" />
		<tag k="ssr:gruppe" v="veg" />
		<tag k="ssr:hovedgruppe" v="infrastruktur" />
		<tag k="ssr:stedsnr" v="983009" />
		<tag k="ssr:type" v="adressenavn" />
	</node>
	<node id="-32486" lat="59.9150414745" lon="11.1889560372">
		<tag k="name" v="Gråtassveien" />
		<tag k="ssr:date" v="2019-05-31" />
		<tag k="ssr:gruppe" v="veg" />
		<tag k="ssr:hovedgruppe" v="infrastruktur" />
		<tag k="ssr:stedsnr" v="983008" />
		<tag k="ssr:type" v="adressenavn" />
	</node>
	<node id="-32485" lat="59.9154594695" lon="11.1929907542">
		<tag k="name" v="Tømmerlunna" />
		<tag k="ssr:date" v="2019-05-31" />
		<tag k="ssr:gruppe" v="veg" />
		<tag k="ssr:hovedgruppe" v="infrastruktur" />
		<tag k="ssr:stedsnr" v="983007" />
		<tag k="ssr:type" v="adressenavn" />
	</node>
	<node id="-32484" lat="59.9152210662" lon="11.1900412112">
		<tag k="name" v="Vangsjordet" />
		<tag k="ssr:date" v="2019-05-31" />
		<tag k="ssr:gruppe" v="veg" />
		<tag k="ssr:hovedgruppe" v="infrastruktur" />
		<tag k="ssr:stedsnr" v="983005" />
		<tag k="ssr:type" v="adressenavn" />
	</node>
	<node id="-32483" lat="59.9145889961" lon="11.1918599886">
		<tag k="name" v="Gulliksplassen" />
		<tag k="ssr:date" v="2019-05-31" />
		<tag k="ssr:gruppe" v="veg" />
		<tag k="ssr:hovedgruppe" v="infrastruktur" />
		<tag k="ssr:stedsnr" v="983006" />
		<tag k="ssr:type" v="adressenavn" />
	</node>
	<node id="-32482" lat="59.9119686387" lon="11.1917050716">
		<tag k="name" v="Nystuveien" />
		<tag k="ssr:date" v="2019-05-31" />
		<tag k="ssr:gruppe" v="veg" />
		<tag k="ssr:hovedgruppe" v="infrastruktur" />
		<tag k="ssr:stedsnr" v="983004" />
		<tag k="ssr:type" v="adressenavn" />
	</node>
	<node id="-32481" lat="79.7811515144" lon="15.196030073">
		<tag k="name" v="Nordgardsveien" />
		<tag k="ssr:date" v="2019-05-31" />
		<tag k="ssr:gruppe" v="veg" />
		<tag k="ssr:hovedgruppe" v="infrastruktur" />
		<tag k="ssr:stedsnr" v="983003" />
		<tag k="ssr:type" v="adressenavn" />
	</node>
	<node id="-32480" lat="59.9133651772" lon="11.189829476">
		<tag k="name" v="Opparstuveien" />
		<tag k="ssr:date" v="2019-05-31" />
		<tag k="ssr:gruppe" v="veg" />
		<tag k="ssr:hovedgruppe" v="infrastruktur" />
		<tag k="ssr:stedsnr" v="983002" />
		<tag k="ssr:type" v="adressenavn" />
	</node>
	<node id="-32473" lat="59.9293002103" lon="11.1663716822">
		<tag k="name" v="Fetsund Brygge" />
		<tag k="ssr:date" v="2019-05-31" />
		<tag k="ssr:gruppe" v="veg" />
		<tag k="ssr:hovedgruppe" v="infrastruktur" />
		<tag k="ssr:stedsnr" v="1068886" />
		<tag k="ssr:type" v="adressenavn" />
	</node>
	<node id="-32472" lat="59.9253970039" lon="11.2025258827">
		<tag k="name" v="Kanalen" />
		<tag k="ssr:date" v="2019-05-31" />
		<tag k="ssr:gruppe" v="veg" />
		<tag k="ssr:hovedgruppe" v="infrastruktur" />
		<tag k="ssr:stedsnr" v="1068863" />
		<tag k="ssr:type" v="adressenavn" />
	</node>
	<node id="-32471" lat="59.7569344232" lon="11.3295319557">
		<tag k="name" v="Grorudfjellet" />
		<tag k="ssr:date" v="2019-05-31" />
		<tag k="ssr:gruppe" v="veg" />
		<tag k="ssr:hovedgruppe" v="infrastruktur" />
		<tag k="ssr:stedsnr" v="1068775" />
		<tag k="ssr:type" v="adressenavn" />
	</node>
	<node id="-32958" lat="59.9221583374" lon="11.1677749939">
		<tag k="name" v="Fet kommune" />
		<tag k="ssr:date" v="2016-05-10" />
		<tag k="ssr:gruppe" v="administrativeIndelinger" />
		<tag k="ssr:hovedgruppe" v="offentligAdministrasjon" />
		<tag k="ssr:stedsnr" v="631604" />
		<tag k="ssr:type" v="kommune" />
	</node>
	<node id="-32530" lat="59.9458527747" lon="11.2392250042">
		<tag k="name" v="Varsjøen" />
		<tag k="ssr:date" v="2019-05-31" />
		<tag k="ssr:gruppe" v="veg" />
		<tag k="ssr:hovedgruppe" v="infrastruktur" />
		<tag k="ssr:stedsnr" v="55859" />
		<tag k="ssr:type" v="adressenavn" />
	</node>
	<node id="-33287" lat="60.5908609473" lon="9.63819281559">
		<tag k="fixme" v="multiple name tags, choose one and add the other to alt_name" />
		<tag k="name" v="Austlandet;Østlandet" />
		<tag k="ssr:date" v="2018-01-09" />
		<tag k="ssr:gruppe" v="administrativeIndelinger" />
		<tag k="ssr:hovedgruppe" v="offentligAdministrasjon" />
		<tag k="ssr:stedsnr" v="974775" />
		<tag k="ssr:type" v="annenAdministrativInndeling" />
	</node>
</osm>
