<?xml version="1.0" encoding="UTF-8"?>
<osm version="0.6" generator="osmapis">
	<node lat="70.36829444792886" lon="25.093544261925558" id="-36936">
		<tag k="name" v="Ytre Billefjord" />
		<tag k="name:no" v="Ytre Billefjord" />
		<tag k="ssr:date" v="2019-12-27" />
		<tag k="ssr:gruppe" v="navigasjon" />
		<tag k="ssr:hovedgruppe" v="infrastruktur" />
		<tag k="ssr:stedsnr" v="450251" />
		<tag k="ssr:type" v="fyrlykt" />
	</node>
	<node lat="70.26149167210832" lon="24.792138719080423" id="-37029">
		<tag k="loc_name:se" v="Porsáŋgu" />
		<tag k="name" v="Porsanger" />
		<tag k="name:no" v="Porsanger" />
		<tag k="ssr:date" v="2019-12-27" />
		<tag k="ssr:gruppe" v="terrengområder" />
		<tag k="ssr:hovedgruppe" v="terreng" />
		<tag k="ssr:stedsnr" v="269787" />
		<tag k="ssr:type" v="landskapsområde" />
	</node>
	<node lat="70.3670388998429" lon="25.4633442166255" id="-37164">
		<tag k="name" v="Holmfjord molo" />
		<tag k="name:no" v="Holmfjord molo" />
		<tag k="ssr:date" v="2021-06-08" />
		<tag k="ssr:gruppe" v="navigasjon" />
		<tag k="ssr:hovedgruppe" v="infrastruktur" />
		<tag k="ssr:stedsnr" v="389246" />
		<tag k="ssr:type" v="fyrlykt" />
	</node>
	<node lat="70.25105989099266" lon="25.355033338816234" id="-37165">
		<tag k="name" v="Ainek" />
		<tag k="name:no" v="Ainek" />
		<tag k="ssr:date" v="2020-09-10" />
		<tag k="ssr:gruppe" v="navigasjon" />
		<tag k="ssr:hovedgruppe" v="infrastruktur" />
		<tag k="ssr:stedsnr" v="389812" />
		<tag k="ssr:type" v="fyrlykt" />
	</node>
	<node lat="70.48873215893799" lon="25.66316713326139" id="-38126">
		<tag k="name" v="Hjellneset" />
		<tag k="name:no" v="Hjellneset" />
		<tag k="ssr:date" v="2020-11-10" />
		<tag k="ssr:gruppe" v="navigasjon" />
		<tag k="ssr:hovedgruppe" v="infrastruktur" />
		<tag k="ssr:stedsnr" v="25829" />
		<tag k="ssr:type" v="fyrlykt" />
	</node>
	<node lat="70.30299576840821" lon="25.32647170366946" id="-38127">
		<tag k="name" v="Skjåholmen" />
		<tag k="name:no" v="Skjåholmen" />
		<tag k="ssr:date" v="2021-06-08" />
		<tag k="ssr:gruppe" v="navigasjon" />
		<tag k="ssr:hovedgruppe" v="infrastruktur" />
		<tag k="ssr:stedsnr" v="25830" />
		<tag k="ssr:type" v="fyrlykt" />
	</node>
	<node lat="70.21227537431783" lon="25.227226018075076" id="-38277">
		<tag k="loc_name:fkv" v="Suolffas" />
		<tag k="loc_name:se" v="Čuolddagas" />
		<tag k="name" v="Cuoldagas" />
		<tag k="name:no" v="Cuoldagas" />
		<tag k="ssr:date" v="2021-07-01" />
		<tag k="ssr:gruppe" v="navigasjon" />
		<tag k="ssr:hovedgruppe" v="infrastruktur" />
		<tag k="ssr:stedsnr" v="85434" />
		<tag k="ssr:type" v="fyrlykt" />
	</node>
</osm>
