<?xml version="1.0" encoding="UTF-8"?>
<osm generator="osmapis" version="0.6">
	<node id="-470912" lat="60.1884841104" lon="5.33178978623">
		<tag k="name" v="Skotøya" />
		<tag k="ssr:date" v="2019-05-31" />
		<tag k="ssr:gruppe" v="veg" />
		<tag k="ssr:hovedgruppe" v="infrastruktur" />
		<tag k="ssr:stedsnr" v="1040262" />
		<tag k="ssr:type" v="adressenavn" />
	</node>
	<node id="-470911" lat="60.1360588268" lon="5.41719536">
		<tag k="name" v="Halhjemsøya" />
		<tag k="ssr:date" v="2019-05-31" />
		<tag k="ssr:gruppe" v="veg" />
		<tag k="ssr:hovedgruppe" v="infrastruktur" />
		<tag k="ssr:stedsnr" v="1040258" />
		<tag k="ssr:type" v="adressenavn" />
	</node>
	<node id="-470910" lat="60.1395770392" lon="5.40078346848">
		<tag k="name" v="Ytterøya" />
		<tag k="ssr:date" v="2019-05-31" />
		<tag k="ssr:gruppe" v="veg" />
		<tag k="ssr:hovedgruppe" v="infrastruktur" />
		<tag k="ssr:stedsnr" v="1040254" />
		<tag k="ssr:type" v="adressenavn" />
	</node>
	<node id="-470909" lat="60.1416751617" lon="5.38971110324">
		<tag k="name" v="Bjørnarøya" />
		<tag k="ssr:date" v="2019-05-31" />
		<tag k="ssr:gruppe" v="veg" />
		<tag k="ssr:hovedgruppe" v="infrastruktur" />
		<tag k="ssr:stedsnr" v="1040282" />
		<tag k="ssr:type" v="adressenavn" />
	</node>
	<node id="-470908" lat="60.1341584438" lon="5.41904196134">
		<tag k="name" v="Ramsholmen" />
		<tag k="ssr:date" v="2019-05-31" />
		<tag k="ssr:gruppe" v="veg" />
		<tag k="ssr:hovedgruppe" v="infrastruktur" />
		<tag k="ssr:stedsnr" v="1040278" />
		<tag k="ssr:type" v="adressenavn" />
	</node>
	<node id="-470907" lat="60.1725330192" lon="5.31798315959">
		<tag k="name" v="Skorpo" />
		<tag k="ssr:date" v="2019-05-30" />
		<tag k="ssr:gruppe" v="veg" />
		<tag k="ssr:hovedgruppe" v="infrastruktur" />
		<tag k="ssr:stedsnr" v="1040178" />
		<tag k="ssr:type" v="adressenavn" />
	</node>
	<node id="-470906" lat="60.1582939386" lon="5.32459292699">
		<tag k="name" v="Forstrøno" />
		<tag k="ssr:date" v="2019-05-30" />
		<tag k="ssr:gruppe" v="veg" />
		<tag k="ssr:hovedgruppe" v="infrastruktur" />
		<tag k="ssr:stedsnr" v="1040174" />
		<tag k="ssr:type" v="adressenavn" />
	</node>
	<node id="-471711" lat="60.138861108" lon="5.42741388919">
		<tag k="name" v="Bleikja" />
		<tag k="ssr:date" v="2016-05-10" />
		<tag k="ssr:gruppe" v="navigasjon" />
		<tag k="ssr:hovedgruppe" v="infrastruktur" />
		<tag k="ssr:stedsnr" v="611983" />
		<tag k="ssr:type" v="fyrlykt" />
	</node>
	<node id="-472078" lat="60.1854694457" lon="5.46964722288">
		<tag k="alt_name" v="Os" />
		<tag k="name" v="Os kommune" />
		<tag k="ssr:date" v="2019-02-26" />
		<tag k="ssr:gruppe" v="administrativeIndelinger" />
		<tag k="ssr:hovedgruppe" v="offentligAdministrasjon" />
		<tag k="ssr:stedsnr" v="935898" />
		<tag k="ssr:type" v="kommune" />
	</node>
	<node id="-471786" lat="60.1309194482" lon="5.35900000322">
		<tag k="name" v="Røtingatangen" />
		<tag k="ssr:date" v="2016-05-10" />
		<tag k="ssr:gruppe" v="navigasjon" />
		<tag k="ssr:hovedgruppe" v="infrastruktur" />
		<tag k="ssr:stedsnr" v="672975" />
		<tag k="ssr:type" v="fyrlykt" />
	</node>
	<node id="-472122" lat="60.8816104596" lon="6.30047518531">
		<tag k="name" v="Vestlandet" />
		<tag k="ssr:date" v="2019-01-06" />
		<tag k="ssr:gruppe" v="administrativeIndelinger" />
		<tag k="ssr:hovedgruppe" v="offentligAdministrasjon" />
		<tag k="ssr:stedsnr" v="974777" />
		<tag k="ssr:type" v="annenAdministrativInndeling" />
	</node>
	<node id="-470916" lat="60.2563279258" lon="5.43983510822">
		<tag k="name" v="Bahusstraumen" />
		<tag k="ssr:date" v="2019-05-31" />
		<tag k="ssr:gruppe" v="veg" />
		<tag k="ssr:hovedgruppe" v="infrastruktur" />
		<tag k="ssr:stedsnr" v="1040330" />
		<tag k="ssr:type" v="adressenavn" />
	</node>
	<node id="-470915" lat="60.2217523435" lon="5.35108774333">
		<tag k="name" v="Johnsholmen" />
		<tag k="ssr:date" v="2019-05-31" />
		<tag k="ssr:gruppe" v="veg" />
		<tag k="ssr:hovedgruppe" v="infrastruktur" />
		<tag k="ssr:stedsnr" v="1040313" />
		<tag k="ssr:type" v="adressenavn" />
	</node>
	<node id="-470914" lat="60.1584524392" lon="5.40146563704">
		<tag k="name" v="Geitarøya" />
		<tag k="ssr:date" v="2019-05-31" />
		<tag k="ssr:gruppe" v="veg" />
		<tag k="ssr:hovedgruppe" v="infrastruktur" />
		<tag k="ssr:stedsnr" v="1040309" />
		<tag k="ssr:type" v="adressenavn" />
	</node>
	<node id="-470913" lat="60.144700253" lon="5.42465386398">
		<tag k="name" v="Innerøya" />
		<tag k="ssr:date" v="2019-05-31" />
		<tag k="ssr:gruppe" v="veg" />
		<tag k="ssr:hovedgruppe" v="infrastruktur" />
		<tag k="ssr:stedsnr" v="1040266" />
		<tag k="ssr:type" v="adressenavn" />
	</node>
</osm>
