<?xml version="1.0" encoding="UTF-8"?>
<osm generator="osmapis" version="0.6">
	<node id="-192512" lat="60.0552638889" lon="9.19208055007">
		<tag k="name" v="Torshøgsten" />
		<tag k="natural" v="valley" />
		<tag k="place" v="locality" />
		<tag k="ssr:stedsnr" v="332139" />
	</node>
	<node id="-192511" lat="60.0562055592" lon="9.24409445044">
		<tag k="name" v="Trappin" />
		<tag k="natural" v="hill" />
		<tag k="place" v="locality" />
		<tag k="ssr:stedsnr" v="332126" />
	</node>
	<node id="-192510" lat="60.0554194443" lon="9.23348332558">
		<tag k="name" v="Vebrandsbrekka" />
		<tag k="natural" v="slope" />
		<tag k="place" v="locality" />
		<tag k="ssr:stedsnr" v="332124" />
	</node>
	<node id="-192509" lat="60.0813888879" lon="9.28499165876">
		<tag k="fixme" v="consider natural=peak for the most distinct mountains in the district" />
		<tag k="name" v="Nysethøgde" />
		<tag k="natural" v="hill" />
		<tag k="place" v="locality" />
		<tag k="ssr:stedsnr" v="332111" />
	</node>
	<node id="-192507" lat="60.0783166682" lon="9.20663610219">
		<tag k="fixme" v="consider natural=peak for the most distinct mountains in the district" />
		<tag k="name" v="Haukeliåsen" />
		<tag k="natural" v="hill" />
		<tag k="place" v="locality" />
		<tag k="ssr:stedsnr" v="332096" />
	</node>
	<node id="-192506" lat="60.0762805544" lon="9.3009861169">
		<tag k="name" v="Tjønndalen" />
		<tag k="natural" v="valley" />
		<tag k="place" v="locality" />
		<tag k="ssr:stedsnr" v="332090" />
	</node>
	<node id="-192500" lat="60.0562805561" lon="9.104425002">
		<tag k="name" v="Brekkeåsen" />
		<tag k="natural" v="slope" />
		<tag k="place" v="locality" />
		<tag k="ssr:stedsnr" v="90241" />
	</node>
	<node id="-192499" lat="60.0665277801" lon="9.12608889167">
		<tag k="name" v="Trollhøløye" />
		<tag k="natural" v="hill" />
		<tag k="place" v="locality" />
		<tag k="ssr:stedsnr" v="90231" />
	</node>
	<node id="-192498" lat="60.0828999956" lon="9.19466111035">
		<tag k="name" v="Langvassdalen" />
		<tag k="natural" v="valley" />
		<tag k="place" v="locality" />
		<tag k="ssr:stedsnr" v="308726" />
	</node>
	<node id="-192490" lat="60.0270777764" lon="9.33786665895">
		<tag k="fixme" v="consider natural=peak for the most distinct mountains in the district" />
		<tag k="name" v="Geiteskallen" />
		<tag k="natural" v="hill" />
		<tag k="place" v="locality" />
		<tag k="ssr:stedsnr" v="308029" />
	</node>
	<node id="-192486" lat="59.9469250009" lon="9.21540278146">
		<tag k="fixme" v="consider natural=peak for the most distinct mountains in the district" />
		<tag k="name" v="Turtebergåsen" />
		<tag k="natural" v="hill" />
		<tag k="place" v="locality" />
		<tag k="ssr:stedsnr" v="307574" />
	</node>
	<node id="-192467" lat="59.9829805579" lon="9.3833444398">
		<tag k="name" v="Skodalsmyre" />
		<tag k="natural" v="valley" />
		<tag k="place" v="locality" />
		<tag k="ssr:stedsnr" v="272989" />
	</node>
	<node id="-192466" lat="59.9878500021" lon="9.35115277696">
		<tag k="name" v="Lauvåsen" />
		<tag k="natural" v="slope" />
		<tag k="place" v="locality" />
		<tag k="ssr:stedsnr" v="272909" />
	</node>
	<node id="-192464" lat="59.9931027738" lon="9.34610833283">
		<tag k="fixme" v="consider natural=peak for the most distinct mountains in the district" />
		<tag k="name" v="Torsrudåsen" />
		<tag k="natural" v="hill" />
		<tag k="place" v="locality" />
		<tag k="ssr:stedsnr" v="272902" />
	</node>
	<node id="-192460" lat="59.9847611081" lon="9.31365832741">
		<tag k="name" v="Djupedokk" />
		<tag k="natural" v="valley" />
		<tag k="place" v="locality" />
		<tag k="ssr:stedsnr" v="272860" />
	</node>
	<node id="-192458" lat="59.9087499975" lon="9.33016944894">
		<tag k="name" v="Skarvin" />
		<tag k="natural" v="slope" />
		<tag k="place" v="locality" />
		<tag k="ssr:stedsnr" v="272833" />
	</node>
	<node id="-192456" lat="59.9197083315" lon="9.37952221448">
		<tag k="name" v="Kollen" />
		<tag k="natural" v="hill" />
		<tag k="place" v="locality" />
		<tag k="ssr:stedsnr" v="272823" />
	</node>
	<node id="-192454" lat="59.9563499977" lon="9.33300277203">
		<tag k="name" v="Storekleiv" />
		<tag k="natural" v="cliff" />
		<tag k="ssr:stedsnr" v="272771" />
	</node>
	<node id="-192453" lat="59.8945194454" lon="9.23636389435">
		<tag k="name" v="Butjønnhøgde" />
		<tag k="natural" v="slope" />
		<tag k="place" v="locality" />
		<tag k="ssr:stedsnr" v="272770" />
	</node>
	<node id="-192452" lat="59.9347055554" lon="9.27482499293">
		<tag k="name" v="Søysetlie" />
		<tag k="natural" v="slope" />
		<tag k="place" v="locality" />
		<tag k="ssr:stedsnr" v="272755" />
	</node>
	<node id="-192451" lat="59.9509305574" lon="9.30459166779">
		<tag k="fixme" v="consider natural=peak for the most distinct mountains in the district" />
		<tag k="name" v="Engjeåsen" />
		<tag k="natural" v="hill" />
		<tag k="place" v="locality" />
		<tag k="ssr:stedsnr" v="272751" />
	</node>
	<node id="-192450" lat="59.9260611079" lon="9.30921667547">
		<tag k="name" v="Sjåberg" />
		<tag k="natural" v="ridge" />
		<tag k="place" v="locality" />
		<tag k="ssr:stedsnr" v="272728" />
	</node>
	<node id="-192449" lat="59.9246250026" lon="9.3381472182">
		<tag k="name" v="Fangarhaugen" />
		<tag k="natural" v="hill" />
		<tag k="place" v="locality" />
		<tag k="ssr:stedsnr" v="272720" />
	</node>
	<node id="-192446" lat="60.0014583341" lon="9.16878333551">
		<tag k="name" v="Fjøsehallin" />
		<tag k="natural" v="slope" />
		<tag k="place" v="locality" />
		<tag k="ssr:stedsnr" v="272642" />
	</node>
	<node id="-192445" lat="59.9725249969" lon="9.12436944909">
		<tag k="name" v="Skjerbrekklie" />
		<tag k="natural" v="slope" />
		<tag k="place" v="locality" />
		<tag k="ssr:stedsnr" v="272643" />
	</node>
	<node id="-192442" lat="60.0418416707" lon="9.11494999395">
		<tag k="name" v="Glanarberget" />
		<tag k="natural" v="hill" />
		<tag k="place" v="locality" />
		<tag k="ssr:stedsnr" v="272613" />
	</node>
	<node id="-192441" lat="60.031361108" lon="9.14799721879">
		<tag k="name" v="Tørrhaug" />
		<tag k="natural" v="hill" />
		<tag k="place" v="locality" />
		<tag k="ssr:stedsnr" v="272598" />
	</node>
	<node id="-192439" lat="60.0219999976" lon="9.03088889737">
		<tag k="name" v="Mjogetjønndalen" />
		<tag k="natural" v="valley" />
		<tag k="place" v="locality" />
		<tag k="ssr:stedsnr" v="272423" />
	</node>
	<node id="-192438" lat="59.9653194447" lon="9.05779444079">
		<tag k="fixme" v="consider natural=peak for the most distinct mountains in the district" />
		<tag k="name" v="Spjeldsetnuten" />
		<tag k="natural" v="hill" />
		<tag k="place" v="locality" />
		<tag k="ssr:stedsnr" v="272410" />
	</node>
	<node id="-192436" lat="60.0551064091" lon="9.35870695122">
		<tag k="fixme" v="consider natural=peak for the most distinct mountains in the district" />
		<tag k="name" v="Trånatten" />
		<tag k="natural" v="hill" />
		<tag k="place" v="locality" />
		<tag k="ssr:stedsnr" v="272316" />
	</node>
	<node id="-192435" lat="60.0473972187" lon="9.35150277589">
		<tag k="fixme" v="consider natural=peak for the most distinct mountains in the district" />
		<tag k="name" v="Langseterlie" />
		<tag k="natural" v="hill" />
		<tag k="place" v="locality" />
		<tag k="ssr:stedsnr" v="272313" />
	</node>
	<node id="-192430" lat="60.0547138887" lon="9.11691944708">
		<tag k="name" v="Bjørnegjengje" />
		<tag k="natural" v="valley" />
		<tag k="place" v="locality" />
		<tag k="ssr:stedsnr" v="272261" />
	</node>
	<node id="-192429" lat="60.0609000029" lon="9.12623054818">
		<tag k="name" v="Helleøye" />
		<tag k="place" v="locality" />
		<tag k="ssr:stedsnr" v="272257" />
	</node>
	<node id="-192428" lat="59.9818972237" lon="9.04374443607">
		<tag k="name" v="Viergrødalen" />
		<tag k="natural" v="valley" />
		<tag k="place" v="locality" />
		<tag k="ssr:stedsnr" v="272177" />
	</node>
	<node id="-192420" lat="60.0173250039" lon="9.22641389343">
		<tag k="name" v="Brattås" />
		<tag k="natural" v="ridge" />
		<tag k="place" v="locality" />
		<tag k="ssr:stedsnr" v="271839" />
	</node>
	<node id="-192418" lat="60.0143300393" lon="9.286024117">
		<tag k="name" v="Hågåsen" />
		<tag k="natural" v="hill" />
		<tag k="place" v="locality" />
		<tag k="ssr:stedsnr" v="271820" />
	</node>
	<node id="-192416" lat="60.0063722222" lon="9.37373889204">
		<tag k="fixme" v="consider natural=peak for the most distinct mountains in the district" />
		<tag k="name" v="Barketjønnåsen" />
		<tag k="natural" v="hill" />
		<tag k="place" v="locality" />
		<tag k="ssr:stedsnr" v="271787" />
	</node>
	<node id="-192413" lat="60.0847777734" lon="9.2353305533">
		<tag k="name" v="Fagerli" />
		<tag k="natural" v="slope" />
		<tag k="place" v="locality" />
		<tag k="ssr:stedsnr" v="271421" />
	</node>
	<node id="-192411" lat="60.0374388912" lon="9.22665277434">
		<tag k="name" v="Flåtengsdalen" />
		<tag k="natural" v="valley" />
		<tag k="place" v="locality" />
		<tag k="ssr:stedsnr" v="271298" />
	</node>
	<node id="-192408" lat="60.0594222216" lon="9.24898888953">
		<tag k="name" v="Svarthøl" />
		<tag k="natural" v="valley" />
		<tag k="place" v="locality" />
		<tag k="ssr:stedsnr" v="271219" />
	</node>
	<node id="-192407" lat="60.057050001" lon="9.29383054851">
		<tag k="name" v="Svarthogsten" />
		<tag k="natural" v="slope" />
		<tag k="place" v="locality" />
		<tag k="ssr:stedsnr" v="271207" />
	</node>
	<node id="-192406" lat="60.0564472179" lon="9.19968611808">
		<tag k="fixme" v="consider natural=peak for the most distinct mountains in the district" />
		<tag k="name" v="Jerveåsen" />
		<tag k="natural" v="hill" />
		<tag k="place" v="locality" />
		<tag k="ssr:stedsnr" v="271176" />
	</node>
	<node id="-192405" lat="60.0557535869" lon="9.22636733903">
		<tag k="name" v="Søre Kleiv" />
		<tag k="natural" v="slope" />
		<tag k="place" v="locality" />
		<tag k="ssr:stedsnr" v="271167" />
	</node>
	<node id="-192404" lat="60.0445499969" lon="9.00788888542">
		<tag k="name" v="Nattens skole" />
		<tag k="natural" v="hill" />
		<tag k="place" v="locality" />
		<tag k="ssr:stedsnr" v="271153" />
	</node>
	<node id="-194194" lat="60.0258083326" lon="9.03434166015">
		<tag k="name" v="Vegglifjell" />
		<tag k="natural" v="mountain_range" />
		<tag k="ssr:stedsnr" v="969370" />
	</node>
	<node id="-194190" lat="60.0134416631" lon="9.26192500143">
		<tag k="name" v="Pukksteinhaugen" />
		<tag k="natural" v="hill" />
		<tag k="place" v="locality" />
		<tag k="ssr:stedsnr" v="939990" />
	</node>
	<node id="-194189" lat="60.015149996" lon="9.24653055505">
		<tag k="name" v="Holmanskarvet" />
		<tag k="natural" v="slope" />
		<tag k="place" v="locality" />
		<tag k="ssr:stedsnr" v="939989" />
	</node>
	<node id="-194184" lat="59.9856361098" lon="9.34947499523">
		<tag k="name" v="Glanarberget" />
		<tag k="natural" v="ridge" />
		<tag k="place" v="locality" />
		<tag k="ssr:stedsnr" v="939903" />
	</node>
	<node id="-194182" lat="59.9995972192" lon="9.40802221991">
		<tag k="name" v="Søysetlie" />
		<tag k="natural" v="slope" />
		<tag k="place" v="locality" />
		<tag k="ssr:stedsnr" v="939898" />
	</node>
	<node id="-194180" lat="59.982388892" lon="9.21960277037">
		<tag k="name" v="Skjørkleiv" />
		<tag k="natural" v="slope" />
		<tag k="place" v="locality" />
		<tag k="ssr:stedsnr" v="939879" />
	</node>
	<node id="-194177" lat="60.0437555598" lon="9.21988610834">
		<tag k="name" v="Lauvvasshølet" />
		<tag k="natural" v="slope" />
		<tag k="place" v="locality" />
		<tag k="ssr:stedsnr" v="939851" />
	</node>
	<node id="-194172" lat="60.0094888865" lon="9.23761666339">
		<tag k="name" v="Rennun" />
		<tag k="natural" v="slope" />
		<tag k="place" v="locality" />
		<tag k="ssr:stedsnr" v="939810" />
	</node>
	<node id="-194167" lat="60.0087916704" lon="9.28085833938">
		<tag k="name" v="Tjuvehaugen" />
		<tag k="natural" v="hill" />
		<tag k="place" v="locality" />
		<tag k="ssr:stedsnr" v="939762" />
	</node>
	<node id="-194165" lat="59.9960519732" lon="9.07975223396">
		<tag k="name" v="Smylehaugtjønn" />
		<tag k="natural" v="hill" />
		<tag k="place" v="locality" />
		<tag k="ssr:stedsnr" v="939738" />
	</node>
	<node id="-194162" lat="59.9949194482" lon="9.27222500189">
		<tag k="name" v="Haugen" />
		<tag k="natural" v="hill" />
		<tag k="place" v="locality" />
		<tag k="ssr:stedsnr" v="939585" />
	</node>
	<node id="-194158" lat="60.1013055519" lon="9.13646389765">
		<tag k="name" v="Høghaug" />
		<tag k="natural" v="hill" />
		<tag k="place" v="locality" />
		<tag k="ssr:stedsnr" v="939525" />
	</node>
	<node id="-194157" lat="60.0973999998" lon="9.1844222226">
		<tag k="name" v="Smylehaug" />
		<tag k="natural" v="hill" />
		<tag k="place" v="locality" />
		<tag k="ssr:stedsnr" v="939520" />
	</node>
	<node id="-194156" lat="60.0875999993" lon="9.13777222985">
		<tag k="fixme" v="consider natural=peak for the most distinct mountains in the district" />
		<tag k="name" v="Årveltaåsen" />
		<tag k="natural" v="hill" />
		<tag k="place" v="locality" />
		<tag k="ssr:stedsnr" v="939513" />
	</node>
	<node id="-194154" lat="60.0719861078" lon="9.1047638946">
		<tag k="name" v="Kjerrelie" />
		<tag k="natural" v="slope" />
		<tag k="place" v="locality" />
		<tag k="ssr:stedsnr" v="939506" />
	</node>
	<node id="-194153" lat="60.0824333326" lon="9.13118611777">
		<tag k="name" v="Rabberud" />
		<tag k="natural" v="hill" />
		<tag k="place" v="locality" />
		<tag k="ssr:stedsnr" v="939505" />
	</node>
	<node id="-194150" lat="60.1254416635" lon="9.17373055696">
		<tag k="name" v="Hovdeåsen" />
		<tag k="natural" v="slope" />
		<tag k="place" v="locality" />
		<tag k="ssr:stedsnr" v="939471" />
	</node>
	<node id="-194149" lat="60.0097416708" lon="9.02678055388">
		<tag k="name" v="Gyggerhaugen" />
		<tag k="natural" v="hill" />
		<tag k="place" v="locality" />
		<tag k="ssr:stedsnr" v="939459" />
	</node>
	<node id="-194148" lat="60.0217333359" lon="9.02319166958">
		<tag k="name" v="Rotihaug" />
		<tag k="natural" v="hill" />
		<tag k="place" v="locality" />
		<tag k="ssr:stedsnr" v="939455" />
	</node>
	<node id="-194147" lat="60.1067666667" lon="9.22170555287">
		<tag k="fixme" v="consider natural=peak for the most distinct mountains in the district" />
		<tag k="name" v="Damtjønnhøgde" />
		<tag k="natural" v="hill" />
		<tag k="place" v="locality" />
		<tag k="ssr:stedsnr" v="939398" />
	</node>
	<node id="-194142" lat="60.0468027785" lon="9.11541943654">
		<tag k="name" v="Geiteskørrin" />
		<tag k="natural" v="valley" />
		<tag k="place" v="locality" />
		<tag k="ssr:stedsnr" v="939274" />
	</node>
	<node id="-194141" lat="60.0421277748" lon="9.23624722828">
		<tag k="name" v="Treåshaugen" />
		<tag k="natural" v="hill" />
		<tag k="place" v="locality" />
		<tag k="ssr:stedsnr" v="939259" />
	</node>
	<node id="-194138" lat="59.9707305598" lon="9.05815278501">
		<tag k="name" v="Vestligrøn" />
		<tag k="natural" v="slope" />
		<tag k="place" v="locality" />
		<tag k="ssr:stedsnr" v="939190" />
	</node>
	<node id="-194136" lat="59.8876416644" lon="9.18804999859">
		<tag k="name" v="Vesle Åklinuten" />
		<tag k="natural" v="ridge" />
		<tag k="place" v="locality" />
		<tag k="ssr:stedsnr" v="939171" />
	</node>
	<node id="-194135" lat="60.0463777809" lon="9.19658611343">
		<tag k="name" v="Flatin" />
		<tag k="place" v="locality" />
		<tag k="ssr:stedsnr" v="939158" />
	</node>
	<node id="-194133" lat="60.056402777" lon="9.23404721389">
		<tag k="name" v="Gampeskørre" />
		<tag k="natural" v="valley" />
		<tag k="place" v="locality" />
		<tag k="ssr:stedsnr" v="939140" />
	</node>
	<node id="-194132" lat="60.0493416624" lon="8.9947694393">
		<tag k="name" v="Hvilingshaugen" />
		<tag k="natural" v="hill" />
		<tag k="place" v="locality" />
		<tag k="ssr:stedsnr" v="939123" />
	</node>
	<node id="-194131" lat="60.0839805588" lon="9.28170278242">
		<tag k="name" v="Nysetlian" />
		<tag k="natural" v="slope" />
		<tag k="place" v="locality" />
		<tag k="ssr:stedsnr" v="939119" />
	</node>
	<node id="-194128" lat="60.0204194453" lon="9.1241833374">
		<tag k="name" v="Langeli" />
		<tag k="natural" v="slope" />
		<tag k="place" v="locality" />
		<tag k="ssr:stedsnr" v="939672" />
	</node>
	<node id="-194125" lat="60.0287388919" lon="9.33614166288">
		<tag k="name" v="Geiteryggen" />
		<tag k="natural" v="ridge" />
		<tag k="place" v="locality" />
		<tag k="ssr:stedsnr" v="939654" />
	</node>
	<node id="-194124" lat="60.0392916634" lon="9.31263332718">
		<tag k="name" v="Lefseli" />
		<tag k="natural" v="slope" />
		<tag k="place" v="locality" />
		<tag k="ssr:stedsnr" v="939642" />
	</node>
	<node id="-194113" lat="60.1352666655" lon="9.21035000266">
		<tag k="fixme" v="consider natural=peak for the most distinct mountains in the district" />
		<tag k="name" v="Vardeåsen" />
		<tag k="natural" v="hill" />
		<tag k="place" v="locality" />
		<tag k="ssr:stedsnr" v="915483" />
	</node>
	<node id="-194109" lat="60.04453611" lon="9.35622778629">
		<tag k="fixme" v="consider natural=peak for the most distinct mountains in the district" />
		<tag k="name" v="Langseterfjellet" />
		<tag k="natural" v="hill" />
		<tag k="place" v="locality" />
		<tag k="ssr:stedsnr" v="915072" />
	</node>
	<node id="-194108" lat="60.0332305578" lon="9.36438055564">
		<tag k="name" v="Minneskleivnuten" />
		<tag k="natural" v="hill" />
		<tag k="place" v="locality" />
		<tag k="ssr:stedsnr" v="915053" />
	</node>
	<node id="-194103" lat="59.9972333354" lon="9.04589166027">
		<tag k="fixme" v="consider natural=peak for the most distinct mountains in the district" />
		<tag k="name" v="Grånatten" />
		<tag k="natural" v="hill" />
		<tag k="place" v="locality" />
		<tag k="ssr:stedsnr" v="914912" />
	</node>
	<node id="-194102" lat="59.9797583374" lon="9.09274167192">
		<tag k="fixme" v="consider natural=peak for the most distinct mountains in the district" />
		<tag k="name" v="Myrefjell" />
		<tag k="natural" v="hill" />
		<tag k="place" v="locality" />
		<tag k="ssr:stedsnr" v="914898" />
	</node>
	<node id="-194085" lat="59.9061805591" lon="9.24869721766">
		<tag k="name" v="Haugskollen" />
		<tag k="natural" v="hill" />
		<tag k="place" v="locality" />
		<tag k="ssr:stedsnr" v="914234" />
	</node>
	<node id="-194079" lat="60.0420472193" lon="9.3853166649">
		<tag k="name" v="Grunntjønnlie" />
		<tag k="natural" v="slope" />
		<tag k="place" v="locality" />
		<tag k="ssr:stedsnr" v="879922" />
	</node>
	<node id="-194078" lat="59.9881583311" lon="9.32192222903">
		<tag k="name" v="Vasedokkhaugen" />
		<tag k="natural" v="hill" />
		<tag k="place" v="locality" />
		<tag k="ssr:stedsnr" v="879896" />
	</node>
	<node id="-194075" lat="60.0720694431" lon="9.31683610865">
		<tag k="name" v="Ristjønndalen" />
		<tag k="natural" v="valley" />
		<tag k="place" v="locality" />
		<tag k="ssr:stedsnr" v="879560" />
	</node>
	<node id="-194073" lat="60.0115166625" lon="9.26407777141">
		<tag k="name" v="Beinstigberget" />
		<tag k="natural" v="hill" />
		<tag k="place" v="locality" />
		<tag k="ssr:stedsnr" v="878991" />
	</node>
	<node id="-194071" lat="60.0092000008" lon="9.37970554684">
		<tag k="name" v="Skåli" />
		<tag k="natural" v="slope" />
		<tag k="place" v="locality" />
		<tag k="ssr:stedsnr" v="878947" />
	</node>
	<node id="-194068" lat="59.94653056" lon="9.25153888062">
		<tag k="name" v="Brødruva" />
		<tag k="natural" v="hill" />
		<tag k="place" v="locality" />
		<tag k="ssr:stedsnr" v="878853" />
	</node>
	<node id="-194066" lat="59.9778416705" lon="9.36239721647">
		<tag k="fixme" v="consider natural=peak for the most distinct mountains in the district" />
		<tag k="name" v="Høghaugen" />
		<tag k="natural" v="hill" />
		<tag k="place" v="locality" />
		<tag k="ssr:stedsnr" v="878838" />
	</node>
	<node id="-194063" lat="59.9651861133" lon="9.35233888937">
		<tag k="name" v="Vrågåli" />
		<tag k="natural" v="slope" />
		<tag k="place" v="locality" />
		<tag k="ssr:stedsnr" v="878828" />
	</node>
	<node id="-194062" lat="59.9000611087" lon="9.19910554818">
		<tag k="name" v="Storegrøhallin" />
		<tag k="natural" v="slope" />
		<tag k="place" v="locality" />
		<tag k="ssr:stedsnr" v="878819" />
	</node>
	<node id="-194061" lat="59.8842194423" lon="9.21178332981">
		<tag k="name" v="Revlihallin" />
		<tag k="natural" v="slope" />
		<tag k="place" v="locality" />
		<tag k="ssr:stedsnr" v="878814" />
	</node>
	<node id="-194058" lat="60.0145138895" lon="9.22809999789">
		<tag k="name" v="Løyndomskjelleren" />
		<tag k="natural" v="cliff" />
		<tag k="ssr:stedsnr" v="878808" />
	</node>
	<node id="-194046" lat="59.999619445" lon="9.2619361045">
		<tag k="name" v="Hengeskørr" />
		<tag k="natural" v="valley" />
		<tag k="place" v="locality" />
		<tag k="ssr:stedsnr" v="878584" />
	</node>
	<node id="-194045" lat="60.067905559" lon="9.11730000178">
		<tag k="name" v="Saghaugen" />
		<tag k="natural" v="ridge" />
		<tag k="place" v="locality" />
		<tag k="ssr:stedsnr" v="878581" />
	</node>
	<node id="-194042" lat="60.0731611106" lon="9.18813333818">
		<tag k="name" v="Storli" />
		<tag k="natural" v="slope" />
		<tag k="place" v="locality" />
		<tag k="ssr:stedsnr" v="878556" />
	</node>
	<node id="-194041" lat="60.03028056" lon="9.01729167486">
		<tag k="name" v="Veadalen" />
		<tag k="natural" v="valley" />
		<tag k="place" v="locality" />
		<tag k="ssr:stedsnr" v="878470" />
	</node>
	<node id="-194038" lat="60.0584527812" lon="9.18291110853">
		<tag k="name" v="Helleren" />
		<tag k="place" v="locality" />
		<tag k="ssr:stedsnr" v="878370" />
	</node>
	<node id="-194037" lat="60.054616663" lon="9.14366666042">
		<tag k="name" v="Ospevikje" />
		<tag k="natural" v="valley" />
		<tag k="place" v="locality" />
		<tag k="ssr:stedsnr" v="878363" />
	</node>
	<node id="-194036" lat="60.0553944426" lon="9.17183332741">
		<tag k="name" v="Oreflaten" />
		<tag k="place" v="locality" />
		<tag k="ssr:stedsnr" v="878352" />
	</node>
	<node id="-194035" lat="60.0605500043" lon="9.17157777804">
		<tag k="fixme" v="consider natural=peak for the most distinct mountains in the district" />
		<tag k="name" v="Ingebretsåsen" />
		<tag k="natural" v="hill" />
		<tag k="place" v="locality" />
		<tag k="ssr:stedsnr" v="878350" />
	</node>
	<node id="-194033" lat="60.0463388923" lon="9.11847778569">
		<tag k="name" v="Hesteberget" />
		<tag k="natural" v="slope" />
		<tag k="place" v="locality" />
		<tag k="ssr:stedsnr" v="878288" />
	</node>
	<node id="-194032" lat="60.0485305557" lon="9.11642500138">
		<tag k="name" v="Kalveløypa" />
		<tag k="natural" v="cliff" />
		<tag k="ssr:stedsnr" v="878287" />
	</node>
	<node id="-194031" lat="60.0464416692" lon="9.17696943788">
		<tag k="name" v="Mydalen" />
		<tag k="natural" v="valley" />
		<tag k="place" v="locality" />
		<tag k="ssr:stedsnr" v="878281" />
	</node>
	<node id="-194029" lat="60.0380583296" lon="9.21814721516">
		<tag k="name" v="Brudeberget" />
		<tag k="natural" v="ridge" />
		<tag k="place" v="locality" />
		<tag k="ssr:stedsnr" v="878276" />
	</node>
	<node id="-194028" lat="60.0438999974" lon="9.23415833182">
		<tag k="name" v="Gylvikhaugen" />
		<tag k="natural" v="hill" />
		<tag k="place" v="locality" />
		<tag k="ssr:stedsnr" v="878264" />
	</node>
	<node id="-194026" lat="60.0261138887" lon="9.23174722909">
		<tag k="name" v="Skrivarkleive" />
		<tag k="natural" v="cliff" />
		<tag k="ssr:stedsnr" v="878250" />
	</node>
	<node id="-194024" lat="60.0302472189" lon="9.24394443666">
		<tag k="name" v="Sagbakken" />
		<tag k="natural" v="slope" />
		<tag k="place" v="locality" />
		<tag k="ssr:stedsnr" v="878247" />
	</node>
	<node id="-194019" lat="60.0867166677" lon="9.21838056062">
		<tag k="name" v="Ostebrekka" />
		<tag k="natural" v="slope" />
		<tag k="place" v="locality" />
		<tag k="ssr:stedsnr" v="878121" />
	</node>
	<node id="-194016" lat="59.9738833338" lon="9.05050000787">
		<tag k="name" v="Dorsetdokken" />
		<tag k="natural" v="slope" />
		<tag k="place" v="locality" />
		<tag k="ssr:stedsnr" v="875503" />
	</node>
	<node id="-194004" lat="60.0778305591" lon="8.99289999946">
		<tag k="fixme" v="consider natural=peak for the most distinct mountains in the district" />
		<tag k="name" v="Storegrønut" />
		<tag k="natural" v="hill" />
		<tag k="place" v="locality" />
		<tag k="ssr:stedsnr" v="854680" />
	</node>
	<node id="-194000" lat="60.0487611156" lon="9.11352222249">
		<tag k="fixme" v="consider natural=peak for the most distinct mountains in the district" />
		<tag k="name" v="Tveitåsen" />
		<tag k="natural" v="hill" />
		<tag k="place" v="locality" />
		<tag k="ssr:stedsnr" v="854611" />
	</node>
	<node id="-193997" lat="60.1111749975" lon="9.12668888594">
		<tag k="name" v="Markasethaugen" />
		<tag k="natural" v="hill" />
		<tag k="place" v="locality" />
		<tag k="ssr:stedsnr" v="854523" />
	</node>
	<node id="-193996" lat="60.0952027768" lon="9.23960000471">
		<tag k="fixme" v="consider natural=peak for the most distinct mountains in the district" />
		<tag k="name" v="Meseterhøgde" />
		<tag k="natural" v="hill" />
		<tag k="place" v="locality" />
		<tag k="ssr:stedsnr" v="854392" />
	</node>
	<node id="-193986" lat="59.9797583324" lon="9.20685555005">
		<tag k="fixme" v="consider natural=peak for the most distinct mountains in the district" />
		<tag k="name" v="Dalfjellet" />
		<tag k="natural" v="hill" />
		<tag k="place" v="locality" />
		<tag k="ssr:stedsnr" v="853913" />
	</node>
	<node id="-193984" lat="59.9724333349" lon="9.38521111913">
		<tag k="fixme" v="consider natural=peak for the most distinct mountains in the district" />
		<tag k="name" v="Fagerbuåsen" />
		<tag k="natural" v="hill" />
		<tag k="place" v="locality" />
		<tag k="ssr:stedsnr" v="853303" />
	</node>
	<node id="-193981" lat="59.9884305573" lon="9.38069999863">
		<tag k="fixme" v="consider natural=peak for the most distinct mountains in the district" />
		<tag k="name" v="Langevassåsen" />
		<tag k="natural" v="hill" />
		<tag k="place" v="locality" />
		<tag k="ssr:stedsnr" v="853282" />
	</node>
	<node id="-193976" lat="59.9953333362" lon="9.36516667251">
		<tag k="fixme" v="consider natural=peak for the most distinct mountains in the district" />
		<tag k="name" v="Svartetjønnåsen" />
		<tag k="natural" v="hill" />
		<tag k="place" v="locality" />
		<tag k="ssr:stedsnr" v="853220" />
	</node>
	<node id="-193975" lat="59.9936361093" lon="9.38515277798">
		<tag k="name" v="Oksle" />
		<tag k="natural" v="hill" />
		<tag k="place" v="locality" />
		<tag k="ssr:stedsnr" v="853221" />
	</node>
	<node id="-193968" lat="59.971255559" lon="9.18950833181">
		<tag k="name" v="Trappin" />
		<tag k="natural" v="valley" />
		<tag k="place" v="locality" />
		<tag k="ssr:stedsnr" v="819000" />
	</node>
	<node id="-193966" lat="59.979605556" lon="9.3773499927">
		<tag k="name" v="Baksælabakken" />
		<tag k="natural" v="slope" />
		<tag k="place" v="locality" />
		<tag k="ssr:stedsnr" v="818988" />
	</node>
	<node id="-193963" lat="59.9619027735" lon="9.28308889297">
		<tag k="name" v="Høgåsen" />
		<tag k="natural" v="cliff" />
		<tag k="ssr:stedsnr" v="818955" />
	</node>
	<node id="-193962" lat="59.9633472225" lon="9.3221749951">
		<tag k="name" v="Ulvestupet" />
		<tag k="natural" v="slope" />
		<tag k="place" v="locality" />
		<tag k="ssr:stedsnr" v="818946" />
	</node>
	<node id="-193959" lat="59.9942638898" lon="9.22805277071">
		<tag k="name" v="Ståvåfjellhallin" />
		<tag k="natural" v="slope" />
		<tag k="place" v="locality" />
		<tag k="ssr:stedsnr" v="818893" />
	</node>
	<node id="-193958" lat="59.902613885" lon="9.31291111565">
		<tag k="name" v="Flaberga" />
		<tag k="natural" v="slope" />
		<tag k="place" v="locality" />
		<tag k="ssr:stedsnr" v="818870" />
	</node>
	<node id="-193957" lat="59.9112527794" lon="9.32135556293">
		<tag k="fixme" v="consider natural=peak for the most distinct mountains in the district" />
		<tag k="name" v="Smattebergåsen" />
		<tag k="natural" v="hill" />
		<tag k="place" v="locality" />
		<tag k="ssr:stedsnr" v="818868" />
	</node>
	<node id="-193954" lat="59.9595222224" lon="9.35219443722">
		<tag k="name" v="Vrågåhallet" />
		<tag k="natural" v="slope" />
		<tag k="place" v="locality" />
		<tag k="ssr:stedsnr" v="818818" />
	</node>
	<node id="-193953" lat="59.9540166623" lon="9.34537500071">
		<tag k="name" v="Rundåsen" />
		<tag k="natural" v="hill" />
		<tag k="place" v="locality" />
		<tag k="ssr:stedsnr" v="818809" />
	</node>
	<node id="-193951" lat="59.9451638871" lon="9.31031945287">
		<tag k="name" v="Surtedalen" />
		<tag k="natural" v="valley" />
		<tag k="place" v="locality" />
		<tag k="ssr:stedsnr" v="818786" />
	</node>
	<node id="-193949" lat="59.9543194489" lon="9.36893889104">
		<tag k="name" v="Kittillyudalen" />
		<tag k="natural" v="valley" />
		<tag k="place" v="locality" />
		<tag k="ssr:stedsnr" v="818775" />
	</node>
	<node id="-193945" lat="59.975380552" lon="9.10896388114">
		<tag k="name" v="Bubbenutdalen" />
		<tag k="natural" v="valley" />
		<tag k="place" v="locality" />
		<tag k="ssr:stedsnr" v="818704" />
	</node>
	<node id="-193942" lat="60.0356361115" lon="9.15096666504">
		<tag k="name" v="Kvasshaug" />
		<tag k="natural" v="hill" />
		<tag k="place" v="locality" />
		<tag k="ssr:stedsnr" v="818659" />
	</node>
	<node id="-193934" lat="60.051983333" lon="9.15836111155">
		<tag k="name" v="Stordal" />
		<tag k="natural" v="valley" />
		<tag k="place" v="locality" />
		<tag k="ssr:stedsnr" v="818326" />
	</node>
	<node id="-193932" lat="60.0603166644" lon="9.0778138964">
		<tag k="name" v="Gråberget" />
		<tag k="natural" v="hill" />
		<tag k="place" v="locality" />
		<tag k="ssr:stedsnr" v="818285" />
	</node>
	<node id="-193931" lat="60.0465361123" lon="9.18684445002">
		<tag k="name" v="Stegaberg" />
		<tag k="natural" v="slope" />
		<tag k="place" v="locality" />
		<tag k="ssr:stedsnr" v="818269" />
	</node>
	<node id="-193929" lat="60.0254444437" lon="9.23573054872">
		<tag k="name" v="Fetjankleive" />
		<tag k="natural" v="cliff" />
		<tag k="ssr:stedsnr" v="818205" />
	</node>
	<node id="-193927" lat="60.0625444459" lon="9.20401944388">
		<tag k="name" v="Hallingkøs" />
		<tag k="place" v="locality" />
		<tag k="ssr:stedsnr" v="818141" />
	</node>
	<node id="-193924" lat="60.0267722201" lon="9.25221388227">
		<tag k="name" v="Helleberget" />
		<tag k="natural" v="hill" />
		<tag k="place" v="locality" />
		<tag k="ssr:stedsnr" v="817867" />
	</node>
	<node id="-193923" lat="60.032763889" lon="9.26810277519">
		<tag k="name" v="Trollhovddalen" />
		<tag k="natural" v="valley" />
		<tag k="place" v="locality" />
		<tag k="ssr:stedsnr" v="817862" />
	</node>
	<node id="-193921" lat="60.0032361146" lon="9.31985556255">
		<tag k="name" v="Ingridsåsen" />
		<tag k="natural" v="ridge" />
		<tag k="place" v="locality" />
		<tag k="ssr:stedsnr" v="817750" />
	</node>
	<node id="-193919" lat="60.044911109" lon="9.37343333722">
		<tag k="name" v="Grønlie" />
		<tag k="natural" v="slope" />
		<tag k="place" v="locality" />
		<tag k="ssr:stedsnr" v="817640" />
	</node>
	<node id="-193918" lat="60.0660250044" lon="9.22286944739">
		<tag k="name" v="Sletteberg" />
		<tag k="natural" v="ridge" />
		<tag k="place" v="locality" />
		<tag k="ssr:stedsnr" v="817156" />
	</node>
	<node id="-193916" lat="60.0127972212" lon="9.2272666651">
		<tag k="name" v="Løyndomskollen" />
		<tag k="natural" v="hill" />
		<tag k="place" v="locality" />
		<tag k="ssr:stedsnr" v="814616" />
	</node>
	<node id="-193914" lat="60.0041111077" lon="9.38105833357">
		<tag k="name" v="Ørneflaget" />
		<tag k="natural" v="cliff" />
		<tag k="ssr:stedsnr" v="814554" />
	</node>
	<node id="-193900" lat="60.0496527768" lon="9.02687499393">
		<tag k="name" v="Baklie" />
		<tag k="natural" v="slope" />
		<tag k="place" v="locality" />
		<tag k="ssr:stedsnr" v="793664" />
	</node>
	<node id="-193899" lat="59.9694638884" lon="9.05443889571">
		<tag k="fixme" v="consider natural=peak for the most distinct mountains in the district" />
		<tag k="name" v="Vorsetfjellet" />
		<tag k="natural" v="hill" />
		<tag k="place" v="locality" />
		<tag k="ssr:stedsnr" v="793639" />
	</node>
	<node id="-193895" lat="59.9549416671" lon="9.23654721566">
		<tag k="fixme" v="consider natural=peak for the most distinct mountains in the district" />
		<tag k="name" v="Salrud" />
		<tag k="natural" v="hill" />
		<tag k="place" v="locality" />
		<tag k="ssr:stedsnr" v="793366" />
	</node>
	<node id="-193881" lat="60.0020888912" lon="9.35824722715">
		<tag k="fixme" v="consider natural=peak for the most distinct mountains in the district" />
		<tag k="name" v="Bufjellnatten" />
		<tag k="natural" v="hill" />
		<tag k="place" v="locality" />
		<tag k="ssr:stedsnr" v="793008" />
	</node>
	<node id="-193878" lat="59.9743305513" lon="9.22355554918">
		<tag k="fixme" v="consider natural=peak for the most distinct mountains in the district" />
		<tag k="name" v="Trihynnefjellet" />
		<tag k="natural" v="hill" />
		<tag k="place" v="locality" />
		<tag k="ssr:stedsnr" v="792287" />
	</node>
	<node id="-193877" lat="59.9799352835" lon="9.4388125722">
		<tag k="fixme" v="consider natural=peak for the most distinct mountains in the district" />
		<tag k="name" v="Tekslehogget" />
		<tag k="natural" v="hill" />
		<tag k="place" v="locality" />
		<tag k="ssr:stedsnr" v="792278" />
	</node>
	<node id="-193872" lat="59.9634277753" lon="9.26737500204">
		<tag k="name" v="Skådamman" />
		<tag k="place" v="locality" />
		<tag k="ssr:stedsnr" v="757971" />
	</node>
	<node id="-193871" lat="59.962033333" lon="9.3251444497">
		<tag k="name" v="Høghaugen" />
		<tag k="natural" v="hill" />
		<tag k="place" v="locality" />
		<tag k="ssr:stedsnr" v="757961" />
	</node>
	<node id="-193867" lat="60.0257333322" lon="9.36656666254">
		<tag k="name" v="Veslehovda" />
		<tag k="natural" v="hill" />
		<tag k="place" v="locality" />
		<tag k="ssr:stedsnr" v="757930" />
	</node>
	<node id="-193863" lat="59.9419583321" lon="9.27246111376">
		<tag k="name" v="Middagsnatten" />
		<tag k="natural" v="hill" />
		<tag k="place" v="locality" />
		<tag k="ssr:stedsnr" v="757891" />
	</node>
	<node id="-193861" lat="59.9131805533" lon="9.3065555519">
		<tag k="name" v="Bjørnåtedalen" />
		<tag k="natural" v="valley" />
		<tag k="place" v="locality" />
		<tag k="ssr:stedsnr" v="757850" />
	</node>
	<node id="-193856" lat="59.9492138878" lon="9.32020277714">
		<tag k="name" v="Tuftin" />
		<tag k="natural" v="hill" />
		<tag k="place" v="locality" />
		<tag k="ssr:stedsnr" v="757749" />
	</node>
	<node id="-193855" lat="59.8869388922" lon="9.23299166539">
		<tag k="fixme" v="consider natural=peak for the most distinct mountains in the district" />
		<tag k="name" v="Kroktjønnhøgde" />
		<tag k="natural" v="hill" />
		<tag k="place" v="locality" />
		<tag k="ssr:stedsnr" v="757745" />
	</node>
	<node id="-193852" lat="60.0193666686" lon="9.37195556256">
		<tag k="name" v="Skåpet" />
		<tag k="place" v="locality" />
		<tag k="ssr:stedsnr" v="757695" />
	</node>
	<node id="-193851" lat="60.0439805558" lon="9.10801667013">
		<tag k="fixme" v="consider natural=peak for the most distinct mountains in the district" />
		<tag k="name" v="Tveitåsen" />
		<tag k="natural" v="hill" />
		<tag k="place" v="locality" />
		<tag k="ssr:stedsnr" v="757637" />
	</node>
	<node id="-193845" lat="60.0732166667" lon="9.31579166034">
		<tag k="fixme" v="consider natural=peak for the most distinct mountains in the district" />
		<tag k="name" v="Ristjønnhøgde" />
		<tag k="natural" v="hill" />
		<tag k="place" v="locality" />
		<tag k="ssr:stedsnr" v="757576" />
	</node>
	<node id="-193843" lat="60.0697111067" lon="9.10205556154">
		<tag k="name" v="Valleåsen" />
		<tag k="natural" v="ridge" />
		<tag k="place" v="locality" />
		<tag k="ssr:stedsnr" v="757486" />
	</node>
	<node id="-193841" lat="60.1204166656" lon="9.14594444109">
		<tag k="name" v="Markasetli" />
		<tag k="natural" v="slope" />
		<tag k="place" v="locality" />
		<tag k="ssr:stedsnr" v="757449" />
	</node>
	<node id="-193840" lat="60.016927775" lon="9.04581667289">
		<tag k="name" v="Anderslyuhaugen" />
		<tag k="natural" v="hill" />
		<tag k="place" v="locality" />
		<tag k="ssr:stedsnr" v="757435" />
	</node>
	<node id="-193838" lat="60.0534138861" lon="9.08447222849">
		<tag k="name" v="Kortedokk" />
		<tag k="natural" v="hill" />
		<tag k="place" v="locality" />
		<tag k="ssr:stedsnr" v="757266" />
	</node>
	<node id="-193837" lat="60.0290472183" lon="9.23661110324">
		<tag k="name" v="Angjerdshaugen" />
		<tag k="natural" v="hill" />
		<tag k="place" v="locality" />
		<tag k="ssr:stedsnr" v="757229" />
	</node>
	<node id="-193834" lat="60.0364194436" lon="8.99991388526">
		<tag k="name" v="Deveggkista" />
		<tag k="natural" v="hill" />
		<tag k="place" v="locality" />
		<tag k="ssr:stedsnr" v="757120" />
	</node>
	<node id="-193829" lat="60.0179305548" lon="9.28610833355">
		<tag k="name" v="Bekkedalen" />
		<tag k="natural" v="valley" />
		<tag k="place" v="locality" />
		<tag k="ssr:stedsnr" v="756786" />
	</node>
	<node id="-193828" lat="60.014663891" lon="9.28872776925">
		<tag k="name" v="Bakåsen" />
		<tag k="natural" v="slope" />
		<tag k="place" v="locality" />
		<tag k="ssr:stedsnr" v="756781" />
	</node>
	<node id="-193827" lat="60.0051916695" lon="9.32371110732">
		<tag k="name" v="Slokodalen" />
		<tag k="natural" v="valley" />
		<tag k="place" v="locality" />
		<tag k="ssr:stedsnr" v="756756" />
	</node>
	<node id="-193826" lat="60.0912277743" lon="9.23754445045">
		<tag k="fixme" v="consider natural=peak for the most distinct mountains in the district" />
		<tag k="name" v="Meseteråsen" />
		<tag k="natural" v="hill" />
		<tag k="place" v="locality" />
		<tag k="ssr:stedsnr" v="756381" />
	</node>
	<node id="-193823" lat="60.055824997" lon="9.02309166603">
		<tag k="name" v="Olhovdnuten" />
		<tag k="natural" v="hill" />
		<tag k="place" v="locality" />
		<tag k="ssr:stedsnr" v="752346" />
	</node>
	<node id="-193821" lat="60.0727333309" lon="9.18732499154">
		<tag k="fixme" v="consider natural=peak for the most distinct mountains in the district" />
		<tag k="name" v="Storliåsen" />
		<tag k="natural" v="hill" />
		<tag k="place" v="locality" />
		<tag k="ssr:stedsnr" v="733710" />
	</node>
	<node id="-193815" lat="60.019502776" lon="9.0114027756">
		<tag k="name" v="Storhaug" />
		<tag k="natural" v="hill" />
		<tag k="place" v="locality" />
		<tag k="ssr:stedsnr" v="733299" />
	</node>
	<node id="-193814" lat="60.0148750017" lon="9.00139166503">
		<tag k="fixme" v="consider natural=peak for the most distinct mountains in the district" />
		<tag k="name" v="Slettefjell" />
		<tag k="natural" v="hill" />
		<tag k="place" v="locality" />
		<tag k="ssr:stedsnr" v="733298" />
	</node>
	<node id="-193805" lat="59.991805552" lon="9.21939167156">
		<tag k="fixme" v="consider natural=peak for the most distinct mountains in the district" />
		<tag k="name" v="Ståvåfjell" />
		<tag k="natural" v="hill" />
		<tag k="old_name" v="Stave Fj." />
		<tag k="place" v="locality" />
		<tag k="ssr:stedsnr" v="732874" />
	</node>
	<node id="-193803" lat="60.1269083333" lon="9.21457499779">
		<tag k="fixme" v="consider natural=peak for the most distinct mountains in the district" />
		<tag k="name" v="Nybufjell" />
		<tag k="natural" v="hill" />
		<tag k="place" v="locality" />
		<tag k="ssr:stedsnr" v="732591" />
	</node>
	<node id="-193798" lat="60.0264250036" lon="9.09950277422">
		<tag k="name" v="Juvet" />
		<tag k="natural" v="valley" />
		<tag k="place" v="locality" />
		<tag k="ssr:stedsnr" v="732364" />
	</node>
	<node id="-193794" lat="59.9664527784" lon="9.40956944986">
		<tag k="fixme" v="consider natural=peak for the most distinct mountains in the district" />
		<tag k="name" v="Kløvsteinnatten" />
		<tag k="natural" v="hill" />
		<tag k="place" v="locality" />
		<tag k="ssr:stedsnr" v="732324" />
	</node>
	<node id="-193790" lat="59.9285305597" lon="9.30804165819">
		<tag k="name" v="Gøyvetunkollen" />
		<tag k="natural" v="hill" />
		<tag k="place" v="locality" />
		<tag k="ssr:stedsnr" v="732200" />
	</node>
	<node id="-193781" lat="59.9996694448" lon="9.38916945321">
		<tag k="name" v="Nysethaugan" />
		<tag k="natural" v="hill" />
		<tag k="place" v="locality" />
		<tag k="ssr:stedsnr" v="696987" />
	</node>
	<node id="-193779" lat="59.9632416629" lon="9.34084444261">
		<tag k="fixme" v="consider natural=peak for the most distinct mountains in the district" />
		<tag k="name" v="Raunedalsskarvet" />
		<tag k="natural" v="hill" />
		<tag k="place" v="locality" />
		<tag k="ssr:stedsnr" v="696952" />
	</node>
	<node id="-193778" lat="59.9670138905" lon="9.33395000016">
		<tag k="name" v="Erik Personberget" />
		<tag k="natural" v="hill" />
		<tag k="place" v="locality" />
		<tag k="ssr:stedsnr" v="696950" />
	</node>
	<node id="-193777" lat="59.9761972221" lon="9.32894722819">
		<tag k="fixme" v="consider natural=peak for the most distinct mountains in the district" />
		<tag k="name" v="Skarvin" />
		<tag k="natural" v="hill" />
		<tag k="place" v="locality" />
		<tag k="ssr:stedsnr" v="696949" />
	</node>
	<node id="-193774" lat="59.9810333312" lon="9.31643889335">
		<tag k="name" v="Ålbågan" />
		<tag k="place" v="locality" />
		<tag k="ssr:stedsnr" v="696909" />
	</node>
	<node id="-193771" lat="59.9163805582" lon="9.34118333018">
		<tag k="name" v="Kvernhaugen" />
		<tag k="natural" v="hill" />
		<tag k="place" v="locality" />
		<tag k="ssr:stedsnr" v="696883" />
	</node>
	<node id="-193765" lat="59.9496777761" lon="9.29238610548">
		<tag k="name" v="Granli" />
		<tag k="natural" v="slope" />
		<tag k="place" v="locality" />
		<tag k="ssr:stedsnr" v="696836" />
	</node>
	<node id="-193763" lat="60.0095250041" lon="9.24204722709">
		<tag k="name" v="Rennebakken" />
		<tag k="natural" v="slope" />
		<tag k="place" v="locality" />
		<tag k="ssr:stedsnr" v="696812" />
	</node>
	<node id="-193762" lat="60.0071000021" lon="9.23497500105">
		<tag k="name" v="Trollumjuvet" />
		<tag k="natural" v="gorge" />
		<tag k="ssr:stedsnr" v="696810" />
	</node>
	<node id="-193760" lat="59.9523138892" lon="9.33732777391">
		<tag k="name" v="Gygrestigen" />
		<tag k="natural" v="slope" />
		<tag k="place" v="locality" />
		<tag k="ssr:stedsnr" v="696803" />
	</node>
	<node id="-193757" lat="59.9541000044" lon="9.30584166968">
		<tag k="name" v="Nørsteberg" />
		<tag k="natural" v="hill" />
		<tag k="place" v="locality" />
		<tag k="ssr:stedsnr" v="696790" />
	</node>
	<node id="-193755" lat="59.923525004" lon="9.27585277821">
		<tag k="name" v="Raustein" />
		<tag k="natural" v="hill" />
		<tag k="place" v="locality" />
		<tag k="ssr:stedsnr" v="696789" />
	</node>
	<node id="-193753" lat="60.0196583307" lon="9.22939721668">
		<tag k="name" v="Grafsdalen" />
		<tag k="natural" v="valley" />
		<tag k="place" v="locality" />
		<tag k="ssr:stedsnr" v="696787" />
	</node>
	<node id="-193752" lat="59.9388472248" lon="9.33159443646">
		<tag k="fixme" v="consider natural=peak for the most distinct mountains in the district" />
		<tag k="name" v="Høgåsen" />
		<tag k="natural" v="hill" />
		<tag k="place" v="locality" />
		<tag k="ssr:stedsnr" v="696784" />
	</node>
	<node id="-193751" lat="59.9380444469" lon="9.39761666991">
		<tag k="name" v="Bamsåsen" />
		<tag k="natural" v="ridge" />
		<tag k="place" v="locality" />
		<tag k="ssr:stedsnr" v="696771" />
	</node>
	<node id="-193748" lat="59.9350472249" lon="9.32690554707">
		<tag k="name" v="Grindehaugen" />
		<tag k="natural" v="hill" />
		<tag k="place" v="locality" />
		<tag k="ssr:stedsnr" v="696760" />
	</node>
	<node id="-193745" lat="60.0180083315" lon="9.40666944922">
		<tag k="name" v="Høyenhaug" />
		<tag k="natural" v="hill" />
		<tag k="place" v="locality" />
		<tag k="ssr:stedsnr" v="696721" />
	</node>
	<node id="-193742" lat="59.980177781" lon="9.07739166371">
		<tag k="name" v="Devegghaugen" />
		<tag k="natural" v="hill" />
		<tag k="place" v="locality" />
		<tag k="ssr:stedsnr" v="696557" />
	</node>
	<node id="-193740" lat="59.9991499999" lon="9.26102778507">
		<tag k="fixme" v="consider natural=peak for the most distinct mountains in the district" />
		<tag k="name" v="Ulstadåsen" />
		<tag k="natural" v="hill" />
		<tag k="place" v="locality" />
		<tag k="ssr:stedsnr" v="696536" />
	</node>
	<node id="-193738" lat="60.1275361111" lon="9.15643611324">
		<tag k="name" v="Elghølet" />
		<tag k="natural" v="valley" />
		<tag k="place" v="locality" />
		<tag k="ssr:stedsnr" v="696484" />
	</node>
	<node id="-193737" lat="60.009697223" lon="9.05228888514">
		<tag k="name" v="Svarteløklie" />
		<tag k="natural" v="slope" />
		<tag k="place" v="locality" />
		<tag k="ssr:stedsnr" v="696419" />
	</node>
	<node id="-193736" lat="60.0639416658" lon="9.11001389569">
		<tag k="name" v="Kvasshaug" />
		<tag k="natural" v="hill" />
		<tag k="place" v="locality" />
		<tag k="ssr:stedsnr" v="696272" />
	</node>
	<node id="-193735" lat="60.1381444466" lon="9.21312222346">
		<tag k="name" v="Blåtjønndalen" />
		<tag k="natural" v="valley" />
		<tag k="place" v="locality" />
		<tag k="ssr:stedsnr" v="696269" />
	</node>
	<node id="-193731" lat="60.0629722206" lon="9.26459721615">
		<tag k="name" v="Konnulihøgde" />
		<tag k="natural" v="ridge" />
		<tag k="place" v="locality" />
		<tag k="ssr:stedsnr" v="696197" />
	</node>
	<node id="-193730" lat="60.0522083331" lon="9.26635833721">
		<tag k="name" v="Djupedalen" />
		<tag k="natural" v="valley" />
		<tag k="place" v="locality" />
		<tag k="ssr:stedsnr" v="696193" />
	</node>
	<node id="-193729" lat="59.8851055577" lon="9.20501111017">
		<tag k="name" v="Pikern" />
		<tag k="natural" v="hill" />
		<tag k="place" v="locality" />
		<tag k="ssr:stedsnr" v="696181" />
	</node>
	<node id="-193727" lat="60.0536194404" lon="9.20289999601">
		<tag k="fixme" v="consider natural=peak for the most distinct mountains in the district" />
		<tag k="name" v="Haukereiråsen" />
		<tag k="natural" v="hill" />
		<tag k="place" v="locality" />
		<tag k="ssr:stedsnr" v="696151" />
	</node>
	<node id="-193725" lat="60.0475805562" lon="9.13546665864">
		<tag k="name" v="Tveithallin" />
		<tag k="natural" v="slope" />
		<tag k="place" v="locality" />
		<tag k="ssr:stedsnr" v="696323" />
	</node>
	<node id="-193718" lat="60.0102583329" lon="9.28050277085">
		<tag k="name" v="Tisle" />
		<tag k="place" v="locality" />
		<tag k="ssr:stedsnr" v="693563" />
	</node>
	<node id="-193717" lat="60.0097277798" lon="9.42782222341">
		<tag k="name" v="Lunnan" />
		<tag k="natural" v="slope" />
		<tag k="place" v="locality" />
		<tag k="ssr:stedsnr" v="693546" />
	</node>
	<node id="-193710" lat="60.0910083318" lon="9.18906666768">
		<tag k="name" v="Gampedalen" />
		<tag k="natural" v="valley" />
		<tag k="place" v="locality" />
		<tag k="ssr:stedsnr" v="672695" />
	</node>
	<node id="-193701" lat="60.0549638876" lon="9.11688888648">
		<tag k="fixme" v="consider natural=peak for the most distinct mountains in the district" />
		<tag k="name" v="Tårånsonåsen" />
		<tag k="natural" v="hill" />
		<tag k="place" v="locality" />
		<tag k="ssr:stedsnr" v="672607" />
	</node>
	<node id="-193700" lat="60.1299166696" lon="9.1978027807">
		<tag k="fixme" v="consider natural=peak for the most distinct mountains in the district" />
		<tag k="name" v="Nybuåsen" />
		<tag k="natural" v="hill" />
		<tag k="place" v="locality" />
		<tag k="ssr:stedsnr" v="672465" />
	</node>
	<node id="-193698" lat="60.0398416658" lon="9.04373611218">
		<tag k="name" v="Elehovda" />
		<tag k="natural" v="hill" />
		<tag k="place" v="locality" />
		<tag k="ssr:stedsnr" v="672318" />
	</node>
	<node id="-193691" lat="60.0487833354" lon="9.29969999821">
		<tag k="fixme" v="consider natural=peak for the most distinct mountains in the district" />
		<tag k="name" v="Bjørnhølfjellet" />
		<tag k="natural" v="hill" />
		<tag k="place" v="locality" />
		<tag k="ssr:stedsnr" v="672070" />
	</node>
	<node id="-193673" lat="59.9695749995" lon="9.15480278125">
		<tag k="name" v="Stakkeli" />
		<tag k="natural" v="slope" />
		<tag k="place" v="locality" />
		<tag k="ssr:stedsnr" v="671615" />
	</node>
	<node id="-193672" lat="59.9685583322" lon="9.18273055833">
		<tag k="fixme" v="consider natural=peak for the most distinct mountains in the district" />
		<tag k="name" v="Iglenatten" />
		<tag k="natural" v="hill" />
		<tag k="place" v="locality" />
		<tag k="ssr:stedsnr" v="671611" />
	</node>
	<node id="-193671" lat="59.968291664" lon="9.16771944927">
		<tag k="fixme" v="consider natural=peak for the most distinct mountains in the district" />
		<tag k="name" v="Grohølsfjell" />
		<tag k="natural" v="hill" />
		<tag k="place" v="locality" />
		<tag k="ssr:stedsnr" v="671591" />
	</node>
	<node id="-193667" lat="60.1211277784" lon="9.15593055506">
		<tag k="name" v="Raudhaug" />
		<tag k="natural" v="hill" />
		<tag k="place" v="locality" />
		<tag k="ssr:stedsnr" v="671548" />
	</node>
	<node id="-193647" lat="59.9754527757" lon="9.3390083305">
		<tag k="name" v="Flaberga" />
		<tag k="natural" v="slope" />
		<tag k="place" v="locality" />
		<tag k="ssr:stedsnr" v="635935" />
	</node>
	<node id="-193640" lat="59.9982166649" lon="9.39349722568">
		<tag k="name" v="Nysetlian" />
		<tag k="natural" v="slope" />
		<tag k="place" v="locality" />
		<tag k="ssr:stedsnr" v="635871" />
	</node>
	<node id="-193638" lat="59.990161114" lon="9.40713889689">
		<tag k="fixme" v="consider natural=peak for the most distinct mountains in the district" />
		<tag k="name" v="Smalmyråsen" />
		<tag k="natural" v="hill" />
		<tag k="place" v="locality" />
		<tag k="ssr:stedsnr" v="635868" />
	</node>
	<node id="-193636" lat="59.9099166684" lon="9.32131667238">
		<tag k="name" v="Svartordokka" />
		<tag k="natural" v="valley" />
		<tag k="place" v="locality" />
		<tag k="ssr:stedsnr" v="635835" />
	</node>
	<node id="-193635" lat="59.9306250006" lon="9.37195833544">
		<tag k="fixme" v="consider natural=peak for the most distinct mountains in the district" />
		<tag k="name" v="Liaråsen" />
		<tag k="natural" v="hill" />
		<tag k="place" v="locality" />
		<tag k="ssr:stedsnr" v="635832" />
	</node>
	<node id="-193634" lat="59.9242499968" lon="9.37110834031">
		<tag k="fixme" v="consider natural=peak for the most distinct mountains in the district" />
		<tag k="name" v="Kloppåsen" />
		<tag k="natural" v="hill" />
		<tag k="place" v="locality" />
		<tag k="ssr:stedsnr" v="635829" />
	</node>
	<node id="-193632" lat="59.9424000013" lon="9.26005556408">
		<tag k="name" v="Svartli" />
		<tag k="natural" v="slope" />
		<tag k="place" v="locality" />
		<tag k="ssr:stedsnr" v="635804" />
	</node>
	<node id="-193631" lat="60.0113138902" lon="9.23574722397">
		<tag k="name" v="Løsningen" />
		<tag k="natural" v="slope" />
		<tag k="place" v="locality" />
		<tag k="ssr:stedsnr" v="635792" />
	</node>
	<node id="-193629" lat="60.0061194475" lon="9.22571944777">
		<tag k="name" v="Nysetlie" />
		<tag k="natural" v="slope" />
		<tag k="place" v="locality" />
		<tag k="ssr:stedsnr" v="635785" />
	</node>
	<node id="-193627" lat="59.9549916678" lon="9.31687500107">
		<tag k="fixme" v="consider natural=peak for the most distinct mountains in the district" />
		<tag k="name" v="Bratterudåsen" />
		<tag k="natural" v="hill" />
		<tag k="place" v="locality" />
		<tag k="ssr:stedsnr" v="635770" />
	</node>
	<node id="-193626" lat="59.929758331" lon="9.20120555953">
		<tag k="name" v="Geiteklypa" />
		<tag k="natural" v="valley" />
		<tag k="place" v="locality" />
		<tag k="ssr:stedsnr" v="635771" />
	</node>
	<node id="-193625" lat="59.9573361086" lon="9.39727222888">
		<tag k="name" v="Fagerli" />
		<tag k="natural" v="slope" />
		<tag k="place" v="locality" />
		<tag k="ssr:stedsnr" v="635754" />
	</node>
	<node id="-193624" lat="59.9525250007" lon="9.35882777276">
		<tag k="name" v="Ørnepynten" />
		<tag k="natural" v="ridge" />
		<tag k="place" v="locality" />
		<tag k="ssr:stedsnr" v="635753" />
	</node>
	<node id="-193622" lat="60.0157694433" lon="9.14668888014">
		<tag k="name" v="Kyralberget" />
		<tag k="natural" v="ridge" />
		<tag k="place" v="locality" />
		<tag k="ssr:stedsnr" v="635718" />
	</node>
	<node id="-193619" lat="60.0306250015" lon="9.16984722141">
		<tag k="name" v="Leirdal" />
		<tag k="natural" v="valley" />
		<tag k="place" v="locality" />
		<tag k="ssr:stedsnr" v="635672" />
	</node>
	<node id="-193613" lat="60.0351277772" lon="9.13274443963">
		<tag k="name" v="Trompedalen" />
		<tag k="natural" v="valley" />
		<tag k="place" v="locality" />
		<tag k="ssr:stedsnr" v="635629" />
	</node>
	<node id="-193612" lat="60.0348694404" lon="9.32865833247">
		<tag k="name" v="Geiterova" />
		<tag k="natural" v="valley" />
		<tag k="place" v="locality" />
		<tag k="ssr:stedsnr" v="635624" />
	</node>
	<node id="-193611" lat="60.066408336" lon="9.33795834177">
		<tag k="fixme" v="consider natural=peak for the most distinct mountains in the district" />
		<tag k="name" v="Dagfiskeåsen" />
		<tag k="natural" v="hill" />
		<tag k="place" v="locality" />
		<tag k="ssr:stedsnr" v="635577" />
	</node>
	<node id="-193610" lat="59.9822888882" lon="9.2518083321">
		<tag k="name" v="Trettehaugen" />
		<tag k="natural" v="hill" />
		<tag k="place" v="locality" />
		<tag k="ssr:stedsnr" v="635559" />
	</node>
	<node id="-193609" lat="60.0003972224" lon="9.26618610259">
		<tag k="name" v="Kong Ulfs haug" />
		<tag k="natural" v="hill" />
		<tag k="place" v="locality" />
		<tag k="ssr:stedsnr" v="635555" />
	</node>
	<node id="-193608" lat="59.9687583335" lon="9.09077499886">
		<tag k="name" v="Kroktjønnhaugen" />
		<tag k="natural" v="hill" />
		<tag k="place" v="locality" />
		<tag k="ssr:stedsnr" v="635545" />
	</node>
	<node id="-193606" lat="60.0982388854" lon="9.18070556102">
		<tag k="name" v="Gunnarshølet" />
		<tag k="natural" v="valley" />
		<tag k="place" v="locality" />
		<tag k="ssr:stedsnr" v="635503" />
	</node>
	<node id="-193602" lat="60.0116194463" lon="9.0517888899">
		<tag k="name" v="Bråtålihaugen" />
		<tag k="natural" v="ridge" />
		<tag k="place" v="locality" />
		<tag k="ssr:stedsnr" v="635443" />
	</node>
	<node id="-193601" lat="60.012244443" lon="9.04744722421">
		<tag k="name" v="Nordre Svarteløkfjell" />
		<tag k="natural" v="hill" />
		<tag k="place" v="locality" />
		<tag k="ssr:stedsnr" v="635442" />
	</node>
	<node id="-193599" lat="60.0151698566" lon="8.98884586387">
		<tag k="alt_name" v="Søndre Skirvenuten" />
		<tag k="loc_name" v="Søre Skirvenatten" />
		<tag k="name" v="Søre Skirvenuten" />
		<tag k="natural" v="hill" />
		<tag k="place" v="locality" />
		<tag k="ssr:stedsnr" v="635406" />
	</node>
	<node id="-193596" lat="60.04693056" lon="9.10034444447">
		<tag k="name" v="Flathaug" />
		<tag k="natural" v="hill" />
		<tag k="place" v="locality" />
		<tag k="ssr:stedsnr" v="635265" />
	</node>
	<node id="-193594" lat="60.0400944409" lon="9.22142777665">
		<tag k="name" v="Hushaugen" />
		<tag k="natural" v="hill" />
		<tag k="place" v="locality" />
		<tag k="ssr:stedsnr" v="635237" />
	</node>
	<node id="-193593" lat="60.0445305567" lon="9.22514721895">
		<tag k="name" v="Gylvikskørre" />
		<tag k="natural" v="valley" />
		<tag k="place" v="locality" />
		<tag k="ssr:stedsnr" v="635234" />
	</node>
	<node id="-193592" lat="60.0237055551" lon="9.2422499947">
		<tag k="name" v="Kattekleivberget" />
		<tag k="natural" v="ridge" />
		<tag k="place" v="locality" />
		<tag k="ssr:stedsnr" v="635225" />
	</node>
	<node id="-193590" lat="60.0400194466" lon="9.23865277586">
		<tag k="name" v="Gyldenrudhaugen" />
		<tag k="natural" v="hill" />
		<tag k="place" v="locality" />
		<tag k="ssr:stedsnr" v="635221" />
	</node>
	<node id="-193588" lat="60.0615583372" lon="9.26116667287">
		<tag k="name" v="Hestefarberget" />
		<tag k="natural" v="hill" />
		<tag k="place" v="locality" />
		<tag k="ssr:stedsnr" v="635175" />
	</node>
	<node id="-193587" lat="60.0636055584" lon="9.25012223075">
		<tag k="name" v="Skrubben" />
		<tag k="natural" v="hill" />
		<tag k="place" v="locality" />
		<tag k="ssr:stedsnr" v="635174" />
	</node>
	<node id="-193585" lat="60.0613027759" lon="9.19686111773">
		<tag k="name" v="Leiketjønnlie" />
		<tag k="natural" v="slope" />
		<tag k="place" v="locality" />
		<tag k="ssr:stedsnr" v="635147" />
	</node>
	<node id="-193584" lat="60.0554555525" lon="9.24491943807">
		<tag k="name" v="Rådyrholtet" />
		<tag k="natural" v="valley" />
		<tag k="place" v="locality" />
		<tag k="ssr:stedsnr" v="635132" />
	</node>
	<node id="-193583" lat="60.0333222251" lon="9.00018055841">
		<tag k="name" v="Deveggklemma" />
		<tag k="natural" v="valley" />
		<tag k="place" v="locality" />
		<tag k="ssr:stedsnr" v="635117" />
	</node>
	<node id="-193580" lat="59.920938888" lon="9.36362776901">
		<tag k="name" v="Tjønnåsen" />
		<tag k="natural" v="hill" />
		<tag k="place" v="locality" />
		<tag k="ssr:stedsnr" v="632508" />
	</node>
	<node id="-193571" lat="60.0599888883" lon="9.01355278619">
		<tag k="name" v="Fjellihøgde" />
		<tag k="natural" v="hill" />
		<tag k="place" v="locality" />
		<tag k="ssr:stedsnr" v="611661" />
	</node>
	<node id="-193569" lat="60.1094888849" lon="9.21107500309">
		<tag k="fixme" v="consider natural=peak for the most distinct mountains in the district" />
		<tag k="name" v="Damtjønnåsen" />
		<tag k="natural" v="hill" />
		<tag k="place" v="locality" />
		<tag k="ssr:stedsnr" v="611555" />
	</node>
	<node id="-193550" lat="59.8921611084" lon="9.209275007">
		<tag k="name" v="Revlidalen" />
		<tag k="natural" v="valley" />
		<tag k="place" v="locality" />
		<tag k="ssr:stedsnr" v="610754" />
	</node>
	<node id="-193549" lat="59.9616583368" lon="9.20423611418">
		<tag k="fixme" v="consider natural=peak for the most distinct mountains in the district" />
		<tag k="name" v="Senhovd" />
		<tag k="natural" v="hill" />
		<tag k="old_name" v="Synhövd;Synhovd" />
		<tag k="ssr:stedsnr" v="610623" />
	</node>
	<node id="-193541" lat="59.9335250033" lon="9.26589723074">
		<tag k="fixme" v="consider natural=peak for the most distinct mountains in the district" />
		<tag k="name" v="Brigdenatten" />
		<tag k="natural" v="hill" />
		<tag k="place" v="locality" />
		<tag k="ssr:stedsnr" v="610173" />
	</node>
	<node id="-193536" lat="59.9691388876" lon="9.32434167364">
		<tag k="name" v="Krinkhaug" />
		<tag k="natural" v="hill" />
		<tag k="place" v="locality" />
		<tag k="ssr:stedsnr" v="575934" />
	</node>
	<node id="-193535" lat="59.9634305522" lon="9.31671666059">
		<tag k="name" v="Trea" />
		<tag k="natural" v="slope" />
		<tag k="place" v="locality" />
		<tag k="ssr:stedsnr" v="575928" />
	</node>
	<node id="-193532" lat="59.9991194433" lon="9.31552777475">
		<tag k="name" v="Trillarberg" />
		<tag k="natural" v="slope" />
		<tag k="place" v="locality" />
		<tag k="ssr:stedsnr" v="575867" />
	</node>
	<node id="-193531" lat="59.9937722184" lon="9.30874721819">
		<tag k="name" v="Narvekøsåsen" />
		<tag k="natural" v="ridge" />
		<tag k="place" v="locality" />
		<tag k="ssr:stedsnr" v="575864" />
	</node>
	<node id="-193527" lat="59.9223888909" lon="9.28291944595">
		<tag k="fixme" v="consider natural=peak for the most distinct mountains in the district" />
		<tag k="name" v="Langåsen" />
		<tag k="natural" v="hill" />
		<tag k="place" v="locality" />
		<tag k="ssr:stedsnr" v="575757" />
	</node>
	<node id="-193526" lat="59.9437250001" lon="9.33709999465">
		<tag k="name" v="Jenteåsen" />
		<tag k="natural" v="hill" />
		<tag k="place" v="locality" />
		<tag k="ssr:stedsnr" v="575756" />
	</node>
	<node id="-193525" lat="59.9419805587" lon="9.33023333945">
		<tag k="name" v="Jote" />
		<tag k="natural" v="valley" />
		<tag k="place" v="locality" />
		<tag k="ssr:stedsnr" v="575753" />
	</node>
	<node id="-193518" lat="60.0023749985" lon="9.26041389127">
		<tag k="name" v="Fetjanskørre" />
		<tag k="natural" v="valley" />
		<tag k="place" v="locality" />
		<tag k="ssr:stedsnr" v="575578" />
	</node>
	<node id="-193517" lat="60.0681666643" lon="9.14268332795">
		<tag k="name" v="Svartedokke" />
		<tag k="natural" v="valley" />
		<tag k="place" v="locality" />
		<tag k="ssr:stedsnr" v="575473" />
	</node>
	<node id="-193516" lat="60.0821583349" lon="9.09612777123">
		<tag k="name" v="Løyteshaugen" />
		<tag k="natural" v="ridge" />
		<tag k="place" v="locality" />
		<tag k="ssr:stedsnr" v="575462" />
	</node>
	<node id="-193514" lat="60.0884611142" lon="9.12708055717">
		<tag k="name" v="Kulthaug" />
		<tag k="natural" v="hill" />
		<tag k="place" v="locality" />
		<tag k="ssr:stedsnr" v="575435" />
	</node>
	<node id="-193513" lat="60.0517111126" lon="9.17099165781">
		<tag k="fixme" v="consider natural=peak for the most distinct mountains in the district" />
		<tag k="name" v="Nedre Toenåsen" />
		<tag k="natural" v="hill" />
		<tag k="place" v="locality" />
		<tag k="ssr:stedsnr" v="575291" />
	</node>
	<node id="-193511" lat="60.0511805518" lon="9.11601667322">
		<tag k="name" v="Glanarberget" />
		<tag k="natural" v="hill" />
		<tag k="place" v="locality" />
		<tag k="ssr:stedsnr" v="575249" />
	</node>
	<node id="-193510" lat="59.9808999974" lon="9.06674167306">
		<tag k="name" v="Devegglie" />
		<tag k="natural" v="slope" />
		<tag k="place" v="locality" />
		<tag k="ssr:stedsnr" v="575173" />
	</node>
	<node id="-193509" lat="60.0065166622" lon="9.24616388025">
		<tag k="name" v="Flaggåsen" />
		<tag k="natural" v="cliff" />
		<tag k="ssr:stedsnr" v="574996" />
	</node>
	<node id="-193505" lat="59.97719444" lon="9.24714443849">
		<tag k="name" v="Stegaberg" />
		<tag k="natural" v="slope" />
		<tag k="place" v="locality" />
		<tag k="ssr:stedsnr" v="574965" />
	</node>
	<node id="-193500" lat="60.0117666636" lon="9.23800000423">
		<tag k="name" v="Klypa" />
		<tag k="natural" v="valley" />
		<tag k="place" v="locality" />
		<tag k="ssr:stedsnr" v="574862" />
	</node>
	<node id="-193499" lat="60.0035722209" lon="9.21685278215">
		<tag k="name" v="Tverrberget" />
		<tag k="natural" v="ridge" />
		<tag k="place" v="locality" />
		<tag k="ssr:stedsnr" v="574860" />
	</node>
	<node id="-193498" lat="60.0022666637" lon="9.19848611647">
		<tag k="name" v="Turnhøgde" />
		<tag k="natural" v="hill" />
		<tag k="place" v="locality" />
		<tag k="ssr:stedsnr" v="574858" />
	</node>
	<node id="-193492" lat="59.9850444429" lon="9.25470833796">
		<tag k="name" v="Ivarskørr" />
		<tag k="natural" v="valley" />
		<tag k="place" v="locality" />
		<tag k="ssr:stedsnr" v="574616" />
	</node>
	<node id="-193491" lat="59.9991416639" lon="9.27036389641">
		<tag k="name" v="Dansarhaugen" />
		<tag k="natural" v="hill" />
		<tag k="place" v="locality" />
		<tag k="ssr:stedsnr" v="574610" />
	</node>
	<node id="-193488" lat="59.9641111141" lon="9.17592777471">
		<tag k="name" v="Tverrmosberg" />
		<tag k="natural" v="hill" />
		<tag k="place" v="locality" />
		<tag k="ssr:stedsnr" v="574592" />
	</node>
	<node id="-193485" lat="60.0428333306" lon="9.23088333791">
		<tag k="name" v="Oreflaten" />
		<tag k="place" v="locality" />
		<tag k="ssr:stedsnr" v="574282" />
	</node>
	<node id="-193483" lat="60.0591944479" lon="9.25368889132">
		<tag k="name" v="Kjøvslebuin" />
		<tag k="natural" v="slope" />
		<tag k="place" v="locality" />
		<tag k="ssr:stedsnr" v="574208" />
	</node>
	<node id="-193479" lat="60.0508111117" lon="9.24113610632">
		<tag k="fixme" v="consider natural=peak for the most distinct mountains in the district" />
		<tag k="name" v="Brennåsen" />
		<tag k="natural" v="hill" />
		<tag k="place" v="locality" />
		<tag k="ssr:stedsnr" v="574159" />
	</node>
	<node id="-193476" lat="60.0374527802" lon="9.01100554852">
		<tag k="name" v="Klypeåsen" />
		<tag k="natural" v="ridge" />
		<tag k="place" v="locality" />
		<tag k="ssr:stedsnr" v="574138" />
	</node>
	<node id="-193474" lat="60.0822166678" lon="9.26192777051">
		<tag k="name" v="Størrdalshaugan" />
		<tag k="natural" v="hill" />
		<tag k="place" v="locality" />
		<tag k="ssr:stedsnr" v="574131" />
	</node>
	<node id="-193473" lat="60.0840972223" lon="9.25723334218">
		<tag k="fixme" v="consider natural=peak for the most distinct mountains in the district" />
		<tag k="name" v="Størrdalsåsen" />
		<tag k="natural" v="hill" />
		<tag k="place" v="locality" />
		<tag k="ssr:stedsnr" v="574130" />
	</node>
	<node id="-193472" lat="60.0826861084" lon="9.25771666981">
		<tag k="name" v="Størrdalen" />
		<tag k="natural" v="valley" />
		<tag k="place" v="locality" />
		<tag k="ssr:stedsnr" v="574129" />
	</node>
	<node id="-193471" lat="60.0864555534" lon="9.20264999714">
		<tag k="name" v="Krokbekkliene" />
		<tag k="natural" v="slope" />
		<tag k="place" v="locality" />
		<tag k="ssr:stedsnr" v="574111" />
	</node>
	<node id="-193470" lat="60.0721277743" lon="9.25513888489">
		<tag k="fixme" v="consider natural=peak for the most distinct mountains in the district" />
		<tag k="name" v="Grautenebbåsen" />
		<tag k="natural" v="hill" />
		<tag k="place" v="locality" />
		<tag k="ssr:stedsnr" v="574108" />
	</node>
	<node id="-193466" lat="59.9427027782" lon="9.19951944853">
		<tag k="name" v="Kyrdalen" />
		<tag k="natural" v="valley" />
		<tag k="place" v="locality" />
		<tag k="ssr:stedsnr" v="571543" />
	</node>
	<node id="-193464" lat="60.0040861153" lon="9.32800000871">
		<tag k="name" v="Bjørndalsjuvet" />
		<tag k="natural" v="gorge" />
		<tag k="ssr:stedsnr" v="570351" />
	</node>
	<node id="-193460" lat="59.9106444433" lon="9.22198055429">
		<tag k="fixme" v="consider natural=peak for the most distinct mountains in the district" />
		<tag k="name" v="Ormehogg" />
		<tag k="natural" v="hill" />
		<tag k="place" v="locality" />
		<tag k="ssr:stedsnr" v="610258" />
	</node>
	<node id="-193452" lat="60.0240833331" lon="9.37278611041">
		<tag k="fixme" v="consider natural=peak for the most distinct mountains in the district" />
		<tag k="name" v="Hovda" />
		<tag k="natural" v="hill" />
		<tag k="place" v="locality" />
		<tag k="ssr:stedsnr" v="551031" />
	</node>
	<node id="-193450" lat="59.9977000212" lon="9.08090129255">
		<tag k="name" v="Smylehaug" />
		<tag k="natural" v="hill" />
		<tag k="place" v="locality" />
		<tag k="ssr:stedsnr" v="550911" />
	</node>
	<node id="-193438" lat="59.9411222237" lon="9.21048056021">
		<tag k="fixme" v="consider natural=peak for the most distinct mountains in the district" />
		<tag k="name" v="Langåsen" />
		<tag k="natural" v="hill" />
		<tag k="place" v="locality" />
		<tag k="ssr:stedsnr" v="550531" />
	</node>
	<node id="-193437" lat="60.1102555517" lon="9.15499167456">
		<tag k="name" v="Pjokkebråtan" />
		<tag k="place" v="locality" />
		<tag k="ssr:stedsnr" v="550519" />
	</node>
	<node id="-193428" lat="59.9312805574" lon="9.28717222459">
		<tag k="fixme" v="consider natural=peak for the most distinct mountains in the district" />
		<tag k="name" v="Bergseidnatten" />
		<tag k="natural" v="hill" />
		<tag k="place" v="locality" />
		<tag k="ssr:stedsnr" v="550156" />
	</node>
	<node id="-193427" lat="59.9422416664" lon="9.33380000003">
		<tag k="name" v="Smiukollen" />
		<tag k="natural" v="hill" />
		<tag k="place" v="locality" />
		<tag k="ssr:stedsnr" v="550147" />
	</node>
	<node id="-193426" lat="60.0444499994" lon="9.27065000359">
		<tag k="fixme" v="consider natural=peak for the most distinct mountains in the district" />
		<tag k="name" v="Storhovd" />
		<tag k="natural" v="hill" />
		<tag k="place" v="locality" />
		<tag k="ssr:stedsnr" v="550068" />
	</node>
	<node id="-193424" lat="60.0093777742" lon="9.34837499396">
		<tag k="fixme" v="consider natural=peak for the most distinct mountains in the district" />
		<tag k="name" v="Fagerliåsen" />
		<tag k="natural" v="hill" />
		<tag k="place" v="locality" />
		<tag k="ssr:stedsnr" v="550010" />
	</node>
	<node id="-193423" lat="59.8932416676" lon="9.21569721673">
		<tag k="name" v="Linattan" />
		<tag k="natural" v="hill" />
		<tag k="place" v="locality" />
		<tag k="ssr:stedsnr" v="549710" />
	</node>
	<node id="-193412" lat="60.0076305531" lon="9.37257500477">
		<tag k="name" v="Holmetjønnhaugan" />
		<tag k="natural" v="hill" />
		<tag k="place" v="locality" />
		<tag k="ssr:stedsnr" v="514922" />
	</node>
	<node id="-193410" lat="59.9999722184" lon="9.34071667174">
		<tag k="name" v="Kølsethaugen" />
		<tag k="natural" v="hill" />
		<tag k="place" v="locality" />
		<tag k="ssr:stedsnr" v="514885" />
	</node>
	<node id="-193409" lat="60.0012861131" lon="9.20744165776">
		<tag k="name" v="Svartetjønnhaugen" />
		<tag k="natural" v="ridge" />
		<tag k="place" v="locality" />
		<tag k="ssr:stedsnr" v="514879" />
	</node>
	<node id="-193406" lat="59.9967666694" lon="9.30519443739">
		<tag k="name" v="Langkøsdalen" />
		<tag k="natural" v="valley" />
		<tag k="place" v="locality" />
		<tag k="ssr:stedsnr" v="514865" />
	</node>
	<node id="-193403" lat="60.029705556" lon="9.20155833908">
		<tag k="name" v="Budalen" />
		<tag k="natural" v="valley" />
		<tag k="place" v="locality" />
		<tag k="ssr:stedsnr" v="514836" />
	</node>
	<node id="-193401" lat="60.0415055582" lon="9.21216667385">
		<tag k="name" v="Hallingdokken" />
		<tag k="natural" v="slope" />
		<tag k="place" v="locality" />
		<tag k="ssr:stedsnr" v="514820" />
	</node>
	<node id="-193397" lat="59.9558361111" lon="9.21557222084">
		<tag k="name" v="Trihynnehaugan" />
		<tag k="natural" v="hill" />
		<tag k="place" v="locality" />
		<tag k="ssr:stedsnr" v="514785" />
	</node>
	<node id="-193393" lat="59.943272224" lon="9.317441665">
		<tag k="name" v="Gampedalen" />
		<tag k="natural" v="valley" />
		<tag k="place" v="locality" />
		<tag k="ssr:stedsnr" v="514772" />
	</node>
	<node id="-193392" lat="59.9263602856" lon="9.31234502789">
		<tag k="name" v="Solskinnslie" />
		<tag k="natural" v="slope" />
		<tag k="place" v="locality" />
		<tag k="ssr:stedsnr" v="514757" />
	</node>
	<node id="-193390" lat="60.0168583369" lon="9.30090833844">
		<tag k="name" v="Storliåsen" />
		<tag k="natural" v="ridge" />
		<tag k="place" v="locality" />
		<tag k="ssr:stedsnr" v="514746" />
	</node>
	<node id="-193388" lat="59.9218333365" lon="9.30917222997">
		<tag k="name" v="Korpefløget" />
		<tag k="natural" v="valley" />
		<tag k="place" v="locality" />
		<tag k="ssr:stedsnr" v="514740" />
	</node>
	<node id="-193387" lat="59.9201450582" lon="9.30893498184">
		<tag k="name" v="Jommetjønnkleive" />
		<tag k="natural" v="slope" />
		<tag k="place" v="locality" />
		<tag k="ssr:stedsnr" v="514741" />
	</node>
	<node id="-193380" lat="60.0412305568" lon="9.33027499275">
		<tag k="fixme" v="consider natural=peak for the most distinct mountains in the district" />
		<tag k="name" v="Brenne" />
		<tag k="natural" v="hill" />
		<tag k="place" v="locality" />
		<tag k="ssr:stedsnr" v="514662" />
	</node>
	<node id="-193379" lat="60.0299777807" lon="9.15121388025">
		<tag k="name" v="Gudbrandsdalen" />
		<tag k="natural" v="valley" />
		<tag k="place" v="locality" />
		<tag k="ssr:stedsnr" v="514659" />
	</node>
	<node id="-193377" lat="60.0958777779" lon="9.17784444695">
		<tag k="name" v="Bjørnegjengje" />
		<tag k="natural" v="valley" />
		<tag k="place" v="locality" />
		<tag k="ssr:stedsnr" v="514527" />
	</node>
	<node id="-193376" lat="60.0707972225" lon="9.1660027755">
		<tag k="name" v="Damtjønnhøgde" />
		<tag k="natural" v="hill" />
		<tag k="place" v="locality" />
		<tag k="ssr:stedsnr" v="514516" />
	</node>
	<node id="-193375" lat="60.1170555593" lon="9.16671388341">
		<tag k="name" v="Nysetli" />
		<tag k="natural" v="slope" />
		<tag k="place" v="locality" />
		<tag k="ssr:stedsnr" v="514507" />
	</node>
	<node id="-193374" lat="60.10621667" lon="9.1218694482">
		<tag k="name" v="Storøye" />
		<tag k="place" v="locality" />
		<tag k="ssr:stedsnr" v="514479" />
	</node>
	<node id="-193373" lat="60.0116000028" lon="9.02319443755">
		<tag k="name" v="Mjeltelie" />
		<tag k="natural" v="slope" />
		<tag k="place" v="locality" />
		<tag k="ssr:stedsnr" v="514452" />
	</node>
	<node id="-193369" lat="60.0103361082" lon="9.36116387997">
		<tag k="name" v="Saltbrekklie" />
		<tag k="natural" v="slope" />
		<tag k="place" v="locality" />
		<tag k="ssr:stedsnr" v="514319" />
	</node>
	<node id="-193365" lat="60.0434611115" lon="9.21544722276">
		<tag k="name" v="Høghaug" />
		<tag k="natural" v="hill" />
		<tag k="place" v="locality" />
		<tag k="ssr:stedsnr" v="514262" />
	</node>
	<node id="-193364" lat="60.0623944448" lon="9.25694999685">
		<tag k="name" v="Kjåhallin" />
		<tag k="natural" v="slope" />
		<tag k="place" v="locality" />
		<tag k="ssr:stedsnr" v="514215" />
	</node>
	<node id="-193346" lat="60.0957000016" lon="9.11070000715">
		<tag k="name" v="Ørnenatten" />
		<tag k="natural" v="hill" />
		<tag k="place" v="locality" />
		<tag k="ssr:stedsnr" v="490711" />
	</node>
	<node id="-193345" lat="60.0733916648" lon="9.09211389129">
		<tag k="fixme" v="consider natural=peak for the most distinct mountains in the district" />
		<tag k="name" v="Skavlemåsen" />
		<tag k="natural" v="hill" />
		<tag k="place" v="locality" />
		<tag k="ssr:stedsnr" v="490701" />
	</node>
	<node id="-193331" lat="60.0050999972" lon="9.00625000265">
		<tag k="name" v="Ljosvasskollen" />
		<tag k="natural" v="hill" />
		<tag k="place" v="locality" />
		<tag k="ssr:stedsnr" v="490267" />
	</node>
	<node id="-193330" lat="60.0361444412" lon="9.37799999407">
		<tag k="fixme" v="consider natural=peak for the most distinct mountains in the district" />
		<tag k="name" v="Steinfjellet" />
		<tag k="natural" v="hill" />
		<tag k="place" v="locality" />
		<tag k="ssr:stedsnr" v="490060" />
	</node>
	<node id="-193322" lat="60.0652638884" lon="9.06859722324">
		<tag k="name" v="Austmannskarven" />
		<tag k="natural" v="hill" />
		<tag k="place" v="locality" />
		<tag k="ssr:stedsnr" v="489685" />
	</node>
	<node id="-193320" lat="60.0565999987" lon="8.98616388107">
		<tag k="fixme" v="consider natural=peak for the most distinct mountains in the district" />
		<tag k="name" v="Tjønngrønuten" />
		<tag k="natural" v="hill" />
		<tag k="place" v="locality" />
		<tag k="ssr:stedsnr" v="489675" />
	</node>
	<node id="-193318" lat="60.0525249984" lon="9.01911667289">
		<tag k="name" v="Lauvhovdnuten" />
		<tag k="natural" v="hill" />
		<tag k="place" v="locality" />
		<tag k="ssr:stedsnr" v="489670" />
	</node>
	<node id="-193313" lat="59.9598861147" lon="9.39586110702">
		<tag k="name" v="Fagerli" />
		<tag k="natural" v="slope" />
		<tag k="place" v="locality" />
		<tag k="ssr:stedsnr" v="489374" />
	</node>
	<node id="-193306" lat="59.8945444431" lon="9.2707888934">
		<tag k="fixme" v="consider natural=peak for the most distinct mountains in the district" />
		<tag k="name" v="Elgåsen" />
		<tag k="natural" v="hill" />
		<tag k="old_name" v="Elsnut" />
		<tag k="place" v="locality" />
		<tag k="ssr:stedsnr" v="489258" />
	</node>
	<node id="-193300" lat="59.9444250028" lon="9.40677500711">
		<tag k="fixme" v="consider natural=peak for the most distinct mountains in the district" />
		<tag k="name" v="Gvitåsen" />
		<tag k="natural" v="hill" />
		<tag k="place" v="locality" />
		<tag k="ssr:stedsnr" v="489135" />
	</node>
	<node id="-193296" lat="59.9992749988" lon="9.36143056028">
		<tag k="name" v="Gampedalen" />
		<tag k="natural" v="valley" />
		<tag k="place" v="locality" />
		<tag k="ssr:stedsnr" v="454995" />
	</node>
	<node id="-193294" lat="59.9719250009" lon="9.32499444603">
		<tag k="name" v="Veltetjønnbakken" />
		<tag k="natural" v="slope" />
		<tag k="place" v="locality" />
		<tag k="ssr:stedsnr" v="454952" />
	</node>
	<node id="-193293" lat="59.9613888904" lon="9.33260832793">
		<tag k="name" v="Hesteryggen" />
		<tag k="natural" v="ridge" />
		<tag k="place" v="locality" />
		<tag k="ssr:stedsnr" v="454953" />
	</node>
	<node id="-193288" lat="59.9348305576" lon="9.35915000053">
		<tag k="name" v="Robakken" />
		<tag k="natural" v="slope" />
		<tag k="place" v="locality" />
		<tag k="ssr:stedsnr" v="454876" />
	</node>
	<node id="-193287" lat="59.9256166674" lon="9.36726944595">
		<tag k="name" v="Gampedalen" />
		<tag k="natural" v="valley" />
		<tag k="place" v="locality" />
		<tag k="ssr:stedsnr" v="454872" />
	</node>
	<node id="-193285" lat="59.8935888873" lon="9.23628889238">
		<tag k="fixme" v="consider natural=peak for the most distinct mountains in the district" />
		<tag k="name" v="Butjønnhøgde" />
		<tag k="natural" v="hill" />
		<tag k="place" v="locality" />
		<tag k="ssr:stedsnr" v="454816" />
	</node>
	<node id="-193284" lat="59.9184555597" lon="9.21448333264">
		<tag k="name" v="Smørgrø" />
		<tag k="natural" v="slope" />
		<tag k="place" v="locality" />
		<tag k="ssr:stedsnr" v="454814" />
	</node>
	<node id="-193279" lat="59.9867916702" lon="9.15326667169">
		<tag k="name" v="Helleåbrottet" />
		<tag k="natural" v="valley" />
		<tag k="place" v="locality" />
		<tag k="ssr:stedsnr" v="454717" />
	</node>
	<node id="-193278" lat="60.02646389" lon="9.16896110302">
		<tag k="name" v="Håvardshaug" />
		<tag k="natural" v="hill" />
		<tag k="place" v="locality" />
		<tag k="ssr:stedsnr" v="454707" />
	</node>
	<node id="-193276" lat="60.0845305518" lon="9.30622500783">
		<tag k="name" v="Tjønndalen" />
		<tag k="natural" v="valley" />
		<tag k="place" v="locality" />
		<tag k="ssr:stedsnr" v="454598" />
	</node>
	<node id="-193273" lat="59.9958194426" lon="9.29839445257">
		<tag k="name" v="Kaståsen" />
		<tag k="natural" v="ridge" />
		<tag k="place" v="locality" />
		<tag k="ssr:stedsnr" v="454568" />
	</node>
	<node id="-193269" lat="60.0924444466" lon="9.17271110897">
		<tag k="name" v="Skriubekkflate" />
		<tag k="place" v="locality" />
		<tag k="ssr:stedsnr" v="454469" />
	</node>
	<node id="-193266" lat="60.0503238384" lon="9.18493192107">
		<tag k="name" v="Møllbrekkbakken" />
		<tag k="natural" v="slope" />
		<tag k="place" v="locality" />
		<tag k="ssr:stedsnr" v="454266" />
	</node>
	<node id="-193264" lat="60.0107638928" lon="9.26366389103">
		<tag k="name" v="Kjeldokken" />
		<tag k="natural" v="valley" />
		<tag k="place" v="locality" />
		<tag k="ssr:stedsnr" v="453997" />
	</node>
	<node id="-193263" lat="60.0032888876" lon="9.2455777862">
		<tag k="name" v="Flagget" />
		<tag k="natural" v="cliff" />
		<tag k="ssr:stedsnr" v="453993" />
	</node>
	<node id="-193261" lat="60.0199555594" lon="9.26505554736">
		<tag k="name" v="Kleive" />
		<tag k="natural" v="slope" />
		<tag k="place" v="locality" />
		<tag k="ssr:stedsnr" v="453989" />
	</node>
	<node id="-193259" lat="59.9744722212" lon="9.26401388534">
		<tag k="name" v="Blekkje" />
		<tag k="place" v="locality" />
		<tag k="ssr:stedsnr" v="453953" />
	</node>
	<node id="-193258" lat="59.9999027804" lon="9.2093944458">
		<tag k="name" v="Elgklypa" />
		<tag k="natural" v="valley" />
		<tag k="place" v="locality" />
		<tag k="ssr:stedsnr" v="453901" />
	</node>
	<node id="-193257" lat="60.0324333369" lon="9.28922777064">
		<tag k="name" v="Bjørnåsen" />
		<tag k="natural" v="ridge" />
		<tag k="place" v="locality" />
		<tag k="ssr:stedsnr" v="453840" />
	</node>
	<node id="-193256" lat="60.0058000025" lon="9.1963472208">
		<tag k="name" v="Tyrihjallåsen" />
		<tag k="natural" v="hill" />
		<tag k="place" v="locality" />
		<tag k="ssr:stedsnr" v="453836" />
	</node>
	<node id="-193255" lat="60.0210472181" lon="9.23136945279">
		<tag k="fixme" v="consider natural=peak for the most distinct mountains in the district" />
		<tag k="name" v="Høgkleivåsen" />
		<tag k="natural" v="hill" />
		<tag k="place" v="locality" />
		<tag k="ssr:stedsnr" v="453812" />
	</node>
	<node id="-193249" lat="59.9903611071" lon="9.26359167013">
		<tag k="name" v="Gampeskørr" />
		<tag k="natural" v="valley" />
		<tag k="place" v="locality" />
		<tag k="ssr:stedsnr" v="453544" />
	</node>
	<node id="-193248" lat="59.9982833323" lon="9.2576722303">
		<tag k="name" v="Ravneskørr" />
		<tag k="natural" v="valley" />
		<tag k="place" v="locality" />
		<tag k="ssr:stedsnr" v="453539" />
	</node>
	<node id="-193247" lat="60.0006555586" lon="9.26241110651">
		<tag k="name" v="Bergskørr" />
		<tag k="natural" v="valley" />
		<tag k="place" v="locality" />
		<tag k="ssr:stedsnr" v="453536" />
	</node>
	<node id="-193246" lat="60.0894055532" lon="9.23323611391">
		<tag k="name" v="Bikkjetjønnhaugen" />
		<tag k="natural" v="hill" />
		<tag k="place" v="locality" />
		<tag k="ssr:stedsnr" v="453398" />
	</node>
	<node id="-193245" lat="60.0967416663" lon="9.21275278389">
		<tag k="fixme" v="consider natural=peak for the most distinct mountains in the district" />
		<tag k="name" v="Nybuåsen" />
		<tag k="natural" v="hill" />
		<tag k="place" v="locality" />
		<tag k="ssr:stedsnr" v="453393" />
	</node>
	<node id="-193243" lat="60.1296777812" lon="9.23351389157">
		<tag k="fixme" v="consider natural=peak for the most distinct mountains in the district" />
		<tag k="name" v="Harkildsdalåsen" />
		<tag k="natural" v="hill" />
		<tag k="place" v="locality" />
		<tag k="ssr:stedsnr" v="453327" />
	</node>
	<node id="-193242" lat="60.1284111126" lon="9.22403333784">
		<tag k="name" v="Tverrdalen" />
		<tag k="natural" v="valley" />
		<tag k="place" v="locality" />
		<tag k="ssr:stedsnr" v="453324" />
	</node>
	<node id="-193240" lat="60.0619027738" lon="9.23194166252">
		<tag k="name" v="Fjorhøgstbrottet" />
		<tag k="natural" v="hill" />
		<tag k="place" v="locality" />
		<tag k="ssr:stedsnr" v="453159" />
	</node>
	<node id="-193239" lat="60.0505555521" lon="9.23457777292">
		<tag k="fixme" v="consider natural=peak for the most distinct mountains in the district" />
		<tag k="name" v="Delesmyråsen" />
		<tag k="natural" v="hill" />
		<tag k="place" v="locality" />
		<tag k="ssr:stedsnr" v="453154" />
	</node>
	<node id="-193238" lat="60.0492027777" lon="9.23136666405">
		<tag k="fixme" v="consider natural=peak for the most distinct mountains in the district" />
		<tag k="name" v="Kullhusåsen" />
		<tag k="natural" v="hill" />
		<tag k="place" v="locality" />
		<tag k="ssr:stedsnr" v="453152" />
	</node>
	<node id="-193223" lat="60.0441222216" lon="9.01873889462">
		<tag k="name" v="Lisetnatten" />
		<tag k="natural" v="hill" />
		<tag k="place" v="locality" />
		<tag k="ssr:stedsnr" v="429665" />
	</node>
	<node id="-193215" lat="59.9693583358" lon="9.17676943941">
		<tag k="fixme" v="consider natural=peak for the most distinct mountains in the district" />
		<tag k="name" v="Tvillingnattan" />
		<tag k="natural" v="hill" />
		<tag k="place" v="locality" />
		<tag k="ssr:stedsnr" v="429597" />
	</node>
	<node id="-193207" lat="60.0136638918" lon="9.02754167096">
		<tag k="fixme" v="consider natural=peak for the most distinct mountains in the district" />
		<tag k="name" v="Trytetjønnfjellet" />
		<tag k="natural" v="hill" />
		<tag k="place" v="locality" />
		<tag k="ssr:stedsnr" v="429307" />
	</node>
	<node id="-193204" lat="60.002775003" lon="9.04747222963">
		<tag k="fixme" v="consider natural=peak for the most distinct mountains in the district" />
		<tag k="name" v="Svarteløkfjellet" />
		<tag k="natural" v="hill" />
		<tag k="place" v="locality" />
		<tag k="ssr:stedsnr" v="429265" />
	</node>
	<node id="-193201" lat="60.0519583315" lon="9.3089416649">
		<tag k="name" v="Kløvdalen" />
		<tag k="natural" v="valley" />
		<tag k="place" v="locality" />
		<tag k="ssr:stedsnr" v="429065" />
	</node>
	<node id="-193197" lat="59.9474638926" lon="9.19680833534">
		<tag k="fixme" v="consider natural=peak for the most distinct mountains in the district" />
		<tag k="name" v="Rjupeåsen" />
		<tag k="natural" v="hill" />
		<tag k="place" v="locality" />
		<tag k="ssr:stedsnr" v="428520" />
	</node>
	<node id="-193190" lat="59.991877779" lon="9.22617500048">
		<tag k="fixme" v="consider natural=peak for the most distinct mountains in the district" />
		<tag k="name" v="Nøvet" />
		<tag k="natural" v="hill" />
		<tag k="place" v="locality" />
		<tag k="ssr:stedsnr" v="428241" />
	</node>
	<node id="-193186" lat="60.0005249968" lon="9.09520833801">
		<tag k="name" v="Oksehaug" />
		<tag k="natural" v="hill" />
		<tag k="place" v="locality" />
		<tag k="ssr:stedsnr" v="267333" />
	</node>
	<node id="-193182" lat="59.9930972191" lon="9.17089167506">
		<tag k="name" v="Hovdedalen" />
		<tag k="natural" v="valley" />
		<tag k="place" v="locality" />
		<tag k="ssr:stedsnr" v="247936" />
	</node>
	<node id="-193172" lat="60.063233337" lon="8.98931388316">
		<tag k="name" v="Krokgrøe" />
		<tag k="natural" v="valley" />
		<tag k="place" v="locality" />
		<tag k="ssr:stedsnr" v="247620" />
	</node>
	<node id="-193171" lat="60.0471305572" lon="8.98988610544">
		<tag k="name" v="Killingskardet" />
		<tag k="natural" v="valley" />
		<tag k="place" v="locality" />
		<tag k="ssr:stedsnr" v="247611" />
	</node>
	<node id="-193145" lat="59.981697221" lon="9.2450555508">
		<tag k="name" v="Dyreskardhaugen" />
		<tag k="natural" v="hill" />
		<tag k="place" v="locality" />
		<tag k="ssr:stedsnr" v="246284" />
	</node>
	<node id="-193140" lat="59.9187777773" lon="9.22394722131">
		<tag k="fixme" v="consider natural=peak for the most distinct mountains in the district" />
		<tag k="name" v="Killingen" />
		<tag k="natural" v="hill" />
		<tag k="place" v="locality" />
		<tag k="ssr:stedsnr" v="246180" />
	</node>
	<node id="-193138" lat="59.9854361135" lon="9.43041110756">
		<tag k="name" v="Stupa" />
		<tag k="natural" v="slope" />
		<tag k="place" v="locality" />
		<tag k="ssr:stedsnr" v="211994" />
	</node>
	<node id="-193137" lat="59.9954583335" lon="9.38449167111">
		<tag k="fixme" v="consider natural=peak for the most distinct mountains in the district" />
		<tag k="name" v="Lunkebuåsen" />
		<tag k="natural" v="hill" />
		<tag k="place" v="locality" />
		<tag k="ssr:stedsnr" v="211991" />
	</node>
	<node id="-193136" lat="60.012441667" lon="9.24621111073">
		<tag k="name" v="Rugkåsbakken" />
		<tag k="natural" v="slope" />
		<tag k="place" v="locality" />
		<tag k="ssr:stedsnr" v="211986" />
	</node>
	<node id="-193134" lat="59.9747527765" lon="9.33660555188">
		<tag k="name" v="Finntoppflata" />
		<tag k="place" v="locality" />
		<tag k="ssr:stedsnr" v="211939" />
	</node>
	<node id="-193131" lat="59.9986777783" lon="9.34241666447">
		<tag k="name" v="Tobakksrullen" />
		<tag k="natural" v="slope" />
		<tag k="place" v="locality" />
		<tag k="ssr:stedsnr" v="211895" />
	</node>
	<node id="-193124" lat="59.9522194413" lon="9.29966943762">
		<tag k="name" v="Glitrehaugen" />
		<tag k="natural" v="hill" />
		<tag k="place" v="locality" />
		<tag k="ssr:stedsnr" v="211825" />
	</node>
	<node id="-193123" lat="60.0162861107" lon="9.21030277197">
		<tag k="name" v="Skodsberg" />
		<tag k="natural" v="hill" />
		<tag k="place" v="locality" />
		<tag k="ssr:stedsnr" v="211813" />
	</node>
	<node id="-193122" lat="59.9496416669" lon="9.33941666264">
		<tag k="name" v="Brennåsen" />
		<tag k="natural" v="hill" />
		<tag k="place" v="locality" />
		<tag k="ssr:stedsnr" v="211795" />
	</node>
	<node id="-193119" lat="60.0208805522" lon="9.23755000332">
		<tag k="name" v="Haugeskørre" />
		<tag k="natural" v="valley" />
		<tag k="place" v="locality" />
		<tag k="ssr:stedsnr" v="211781" />
	</node>
	<node id="-193118" lat="59.9439611074" lon="9.33556667108">
		<tag k="name" v="Bjørnegjenge" />
		<tag k="natural" v="valley" />
		<tag k="place" v="locality" />
		<tag k="ssr:stedsnr" v="211778" />
	</node>
	<node id="-193117" lat="60.0152638872" lon="9.22609166723">
		<tag k="name" v="Andehølet" />
		<tag k="natural" v="slope" />
		<tag k="place" v="locality" />
		<tag k="ssr:stedsnr" v="211779" />
	</node>
	<node id="-193111" lat="59.9870333314" lon="9.08001666946">
		<tag k="name" v="Devegghaugen" />
		<tag k="natural" v="hill" />
		<tag k="place" v="locality" />
		<tag k="ssr:stedsnr" v="211729" />
	</node>
	<node id="-193109" lat="60.014852775" lon="9.1804499934">
		<tag k="name" v="Nirisetdalen" />
		<tag k="natural" v="valley" />
		<tag k="place" v="locality" />
		<tag k="ssr:stedsnr" v="211719" />
	</node>
	<node id="-193102" lat="59.9894249976" lon="9.26279722315">
		<tag k="name" v="Kyrskørr" />
		<tag k="natural" v="valley" />
		<tag k="place" v="locality" />
		<tag k="ssr:stedsnr" v="211528" />
	</node>
	<node id="-193101" lat="59.9966805557" lon="9.25822221554">
		<tag k="name" v="Storskørr" />
		<tag k="natural" v="valley" />
		<tag k="place" v="locality" />
		<tag k="ssr:stedsnr" v="211522" />
	</node>
	<node id="-193099" lat="60.09697222" lon="9.17468888721">
		<tag k="name" v="Gampedalen" />
		<tag k="natural" v="valley" />
		<tag k="place" v="locality" />
		<tag k="ssr:stedsnr" v="211499" />
	</node>
	<node id="-193098" lat="60.0961333299" lon="9.16032500233">
		<tag k="name" v="Løkjemyrdalen" />
		<tag k="natural" v="valley" />
		<tag k="place" v="locality" />
		<tag k="ssr:stedsnr" v="211497" />
	</node>
	<node id="-193092" lat="60.0389249996" lon="9.06602778253">
		<tag k="name" v="Årsethaugen" />
		<tag k="natural" v="hill" />
		<tag k="place" v="locality" />
		<tag k="ssr:stedsnr" v="211419" />
	</node>
	<node id="-193089" lat="60.0572944477" lon="9.15893332708">
		<tag k="name" v="Storeskørr" />
		<tag k="natural" v="slope" />
		<tag k="place" v="locality" />
		<tag k="ssr:stedsnr" v="211325" />
	</node>
	<node id="-193087" lat="60.059505557" lon="9.1674055645">
		<tag k="name" v="Rabberudskørre" />
		<tag k="natural" v="slope" />
		<tag k="place" v="locality" />
		<tag k="ssr:stedsnr" v="211317" />
	</node>
	<node id="-193086" lat="60.0502194403" lon="9.12259999219">
		<tag k="name" v="Snusbakken" />
		<tag k="natural" v="slope" />
		<tag k="place" v="locality" />
		<tag k="ssr:stedsnr" v="211274" />
	</node>
	<node id="-193084" lat="59.9798111126" lon="9.05502221399">
		<tag k="name" v="Deveggnatten" />
		<tag k="natural" v="hill" />
		<tag k="place" v="locality" />
		<tag k="ssr:stedsnr" v="211184" />
	</node>
	<node id="-193083" lat="60.0564833378" lon="9.24548333299">
		<tag k="fixme" v="consider natural=peak for the most distinct mountains in the district" />
		<tag k="name" v="Flatåsen" />
		<tag k="natural" v="hill" />
		<tag k="place" v="locality" />
		<tag k="ssr:stedsnr" v="211148" />
	</node>
	<node id="-193080" lat="60.0478083324" lon="8.99059444386">
		<tag k="name" v="Killingdal" />
		<tag k="natural" v="valley" />
		<tag k="place" v="locality" />
		<tag k="ssr:stedsnr" v="211129" />
	</node>
	<node id="-193077" lat="60.0775638852" lon="9.20791110529">
		<tag k="name" v="Bjørnegjengje" />
		<tag k="natural" v="valley" />
		<tag k="place" v="locality" />
		<tag k="ssr:stedsnr" v="211110" />
	</node>
	<node id="-193076" lat="60.0772472186" lon="9.19338610458">
		<tag k="name" v="Heimseteråsen" />
		<tag k="natural" v="ridge" />
		<tag k="place" v="locality" />
		<tag k="ssr:stedsnr" v="211109" />
	</node>
	<node id="-193073" lat="60.0602222217" lon="9.18254167086">
		<tag k="name" v="Nedre Rauneset" />
		<tag k="natural" v="hill" />
		<tag k="place" v="locality" />
		<tag k="ssr:stedsnr" v="211315" />
	</node>
	<node id="-193072" lat="59.9868583333" lon="9.2365194373">
		<tag k="fixme" v="consider natural=peak for the most distinct mountains in the district" />
		<tag k="name" v="Kalveskallen" />
		<tag k="natural" v="hill" />
		<tag k="place" v="locality" />
		<tag k="ssr:stedsnr" v="207664" />
	</node>
	<node id="-193066" lat="60.0730361112" lon="8.98143333535">
		<tag k="fixme" v="consider natural=peak for the most distinct mountains in the district" />
		<tag k="name" v="Rustnuten" />
		<tag k="natural" v="hill" />
		<tag k="place" v="locality" />
		<tag k="ssr:stedsnr" v="187692" />
	</node>
	<node id="-193063" lat="60.0917805542" lon="9.20410833705">
		<tag k="name" v="Åkroken" />
		<tag k="natural" v="valley" />
		<tag k="place" v="locality" />
		<tag k="ssr:stedsnr" v="187660" />
	</node>
	<node id="-193061" lat="60.0810972259" lon="9.23381944776">
		<tag k="fixme" v="consider natural=peak for the most distinct mountains in the district" />
		<tag k="name" v="Tonuten" />
		<tag k="natural" v="hill" />
		<tag k="place" v="locality" />
		<tag k="ssr:stedsnr" v="187095" />
	</node>
	<node id="-193060" lat="59.9839638885" lon="9.05941943748">
		<tag k="fixme" v="consider natural=peak for the most distinct mountains in the district" />
		<tag k="name" v="Deveggnatten" />
		<tag k="natural" v="hill" />
		<tag k="place" v="locality" />
		<tag k="ssr:stedsnr" v="186880" />
	</node>
	<node id="-193059" lat="60.0201416656" lon="9.25127499745">
		<tag k="fixme" v="consider natural=peak for the most distinct mountains in the district" />
		<tag k="name" v="Bråtååsen" />
		<tag k="natural" v="hill" />
		<tag k="place" v="locality" />
		<tag k="ssr:stedsnr" v="187038" />
	</node>
	<node id="-193054" lat="60.0919472201" lon="9.1671277834">
		<tag k="name" v="Skridubekkjuvet" />
		<tag k="natural" v="valley" />
		<tag k="place" v="locality" />
		<tag k="ssr:stedsnr" v="186741" />
	</node>
	<node id="-193053" lat="59.9538277772" lon="9.20495554668">
		<tag k="fixme" v="consider natural=peak for the most distinct mountains in the district" />
		<tag k="name" v="Oksetjønnatten" />
		<tag k="natural" v="hill" />
		<tag k="place" v="locality" />
		<tag k="ssr:stedsnr" v="186637" />
	</node>
	<node id="-193048" lat="60.0284861124" lon="9.03762500426">
		<tag k="name" v="Svartli" />
		<tag k="natural" v="slope" />
		<tag k="place" v="locality" />
		<tag k="ssr:stedsnr" v="186378" />
	</node>
	<node id="-193047" lat="59.9628861107" lon="9.34351666716">
		<tag k="name" v="Raunedalen" />
		<tag k="natural" v="valley" />
		<tag k="place" v="locality" />
		<tag k="ssr:stedsnr" v="186377" />
	</node>
	<node id="-193042" lat="59.9007416647" lon="9.26093610578">
		<tag k="name" v="Vindhøgde" />
		<tag k="natural" v="hill" />
		<tag k="place" v="locality" />
		<tag k="ssr:stedsnr" v="186224" />
	</node>
	<node id="-193034" lat="59.9919611121" lon="9.37968332745">
		<tag k="fixme" v="consider natural=peak for the most distinct mountains in the district" />
		<tag k="name" v="Bjørnåsen" />
		<tag k="natural" v="hill" />
		<tag k="place" v="locality" />
		<tag k="ssr:stedsnr" v="185286" />
	</node>
	<node id="-193028" lat="60.0183527756" lon="9.4051388814">
		<tag k="name" v="Revsrovedalen" />
		<tag k="natural" v="valley" />
		<tag k="place" v="locality" />
		<tag k="ssr:stedsnr" v="268544" />
	</node>
	<node id="-193027" lat="59.9962361068" lon="9.38028332884">
		<tag k="name" v="Kaste" />
		<tag k="natural" v="slope" />
		<tag k="place" v="locality" />
		<tag k="ssr:stedsnr" v="150988" />
	</node>
	<node id="-193026" lat="59.981586107" lon="9.24277777945">
		<tag k="name" v="Dyreskardhalsen" />
		<tag k="natural" v="valley" />
		<tag k="place" v="locality" />
		<tag k="ssr:stedsnr" v="150953" />
	</node>
	<node id="-193016" lat="59.9577805576" lon="9.33490556269">
		<tag k="fixme" v="consider natural=peak for the most distinct mountains in the district" />
		<tag k="name" v="Ørneflaget" />
		<tag k="natural" v="hill" />
		<tag k="place" v="locality" />
		<tag k="ssr:stedsnr" v="150773" />
	</node>
	<node id="-193014" lat="59.8924944414" lon="9.24014167431">
		<tag k="name" v="Butjønnhallin" />
		<tag k="natural" v="slope" />
		<tag k="place" v="locality" />
		<tag k="ssr:stedsnr" v="150767" />
	</node>
	<node id="-193012" lat="59.9362083346" lon="9.26499167453">
		<tag k="name" v="Elgedalen" />
		<tag k="natural" v="valley" />
		<tag k="place" v="locality" />
		<tag k="ssr:stedsnr" v="150757" />
	</node>
	<node id="-193011" lat="59.9427222202" lon="9.40572222861">
		<tag k="name" v="Gvitåslie" />
		<tag k="natural" v="slope" />
		<tag k="place" v="locality" />
		<tag k="ssr:stedsnr" v="150752" />
	</node>
	<node id="-193010" lat="59.9511638899" lon="9.31499444583">
		<tag k="name" v="Åjuvet" />
		<tag k="natural" v="gorge" />
		<tag k="ssr:stedsnr" v="150749" />
	</node>
	<node id="-193007" lat="59.9886722178" lon="9.11763888481">
		<tag k="name" v="Fjordungsbekkhaugen" />
		<tag k="natural" v="hill" />
		<tag k="place" v="locality" />
		<tag k="ssr:stedsnr" v="150714" />
	</node>
	<node id="-193006" lat="60.0151083378" lon="9.37844721423">
		<tag k="name" v="Heggebrekka" />
		<tag k="place" v="locality" />
		<tag k="ssr:stedsnr" v="150696" />
	</node>
	<node id="-193005" lat="59.9848166658" lon="9.16260554762">
		<tag k="fixme" v="consider natural=peak for the most distinct mountains in the district" />
		<tag k="name" v="Røynebuåsen" />
		<tag k="natural" v="hill" />
		<tag k="place" v="locality" />
		<tag k="ssr:stedsnr" v="150672" />
	</node>
	<node id="-193001" lat="60.0272472256" lon="9.14840554667">
		<tag k="name" v="Glaimhaugen" />
		<tag k="natural" v="ridge" />
		<tag k="place" v="locality" />
		<tag k="ssr:stedsnr" v="150627" />
	</node>
	<node id="-193000" lat="60.0268166697" lon="9.13275555129">
		<tag k="name" v="Møllbrekka" />
		<tag k="natural" v="valley" />
		<tag k="place" v="locality" />
		<tag k="ssr:stedsnr" v="150624" />
	</node>
	<node id="-192997" lat="59.9833750018" lon="9.26285277364">
		<tag k="name" v="Mogekås" />
		<tag k="natural" v="slope" />
		<tag k="place" v="locality" />
		<tag k="ssr:stedsnr" v="150560" />
	</node>
	<node id="-192994" lat="59.9876166677" lon="9.29408332661">
		<tag k="fixme" v="consider natural=peak for the most distinct mountains in the district" />
		<tag k="loc_name" v="Bjergeåsen" />
		<tag k="name" v="Bjørgeåsen" />
		<tag k="natural" v="hill" />
		<tag k="place" v="locality" />
		<tag k="ssr:stedsnr" v="150548" />
	</node>
	<node id="-192993" lat="60.0945444436" lon="9.16945554766">
		<tag k="name" v="Ospegjengje" />
		<tag k="natural" v="valley" />
		<tag k="place" v="locality" />
		<tag k="ssr:stedsnr" v="150510" />
	</node>
	<node id="-192992" lat="60.0838138851" lon="9.13612221773">
		<tag k="name" v="Saghaugen" />
		<tag k="natural" v="hill" />
		<tag k="place" v="locality" />
		<tag k="ssr:stedsnr" v="150501" />
	</node>
	<node id="-192990" lat="60.0670972222" lon="9.18308332439">
		<tag k="name" v="Trytetjønnhøgde" />
		<tag k="natural" v="hill" />
		<tag k="place" v="locality" />
		<tag k="ssr:stedsnr" v="150492" />
	</node>
	<node id="-192988" lat="60.1087638932" lon="9.12998055115">
		<tag k="name" v="Tjuvejakobdalen" />
		<tag k="natural" v="valley" />
		<tag k="place" v="locality" />
		<tag k="ssr:stedsnr" v="150456" />
	</node>
	<node id="-192985" lat="60.0559714667" lon="9.16218289673">
		<tag k="name" v="Svartebergåsen" />
		<tag k="natural" v="ridge" />
		<tag k="place" v="locality" />
		<tag k="ssr:stedsnr" v="150321" />
	</node>
	<node id="-192983" lat="60.0622861115" lon="9.18447500021">
		<tag k="name" v="Øvre Rauneset" />
		<tag k="natural" v="hill" />
		<tag k="place" v="locality" />
		<tag k="ssr:stedsnr" v="150311" />
	</node>
	<node id="-192982" lat="60.0555416631" lon="9.11814166324">
		<tag k="fixme" v="consider natural=peak for the most distinct mountains in the district" />
		<tag k="name" v="Trollhovdåsen" />
		<tag k="natural" v="hill" />
		<tag k="place" v="locality" />
		<tag k="ssr:stedsnr" v="150275" />
	</node>
	<node id="-192980" lat="59.9674277742" lon="9.0702444517">
		<tag k="name" v="Vorsetdalen" />
		<tag k="natural" v="valley" />
		<tag k="place" v="locality" />
		<tag k="ssr:stedsnr" v="150187" />
	</node>
	<node id="-192979" lat="60.0485111077" lon="9.25660278222">
		<tag k="name" v="Heimseternatten" />
		<tag k="natural" v="hill" />
		<tag k="place" v="locality" />
		<tag k="ssr:stedsnr" v="150185" />
	</node>
	<node id="-192978" lat="59.8825388892" lon="9.21325554877">
		<tag k="name" v="Barbrodalen" />
		<tag k="natural" v="valley" />
		<tag k="place" v="locality" />
		<tag k="ssr:stedsnr" v="150163" />
	</node>
	<node id="-192976" lat="60.0657888879" lon="9.20605556114">
		<tag k="name" v="Steintøyre" />
		<tag k="place" v="locality" />
		<tag k="ssr:stedsnr" v="150156" />
	</node>
	<node id="-192975" lat="60.0507861138" lon="9.19048056124">
		<tag k="name" v="Dekkan" />
		<tag k="place" v="locality" />
		<tag k="ssr:stedsnr" v="150143" />
	</node>
	<node id="-192974" lat="60.0270888851" lon="9.01068332718">
		<tag k="name" v="Kråkåshaugen" />
		<tag k="natural" v="hill" />
		<tag k="place" v="locality" />
		<tag k="ssr:stedsnr" v="150105" />
	</node>
	<node id="-192973" lat="60.0081888905" lon="9.23183054726">
		<tag k="name" v="Bjørnelinatten" />
		<tag k="natural" v="hill" />
		<tag k="place" v="locality" />
		<tag k="ssr:stedsnr" v="149827" />
	</node>
	<node id="-192967" lat="60.1109194486" lon="9.23488610887">
		<tag k="name" v="Trolldalen" />
		<tag k="natural" v="valley" />
		<tag k="place" v="locality" />
		<tag k="ssr:stedsnr" v="149295" />
	</node>
	<node id="-192966" lat="60.035783332" lon="9.21895000587">
		<tag k="name" v="Skøllhaug" />
		<tag k="natural" v="hill" />
		<tag k="place" v="locality" />
		<tag k="ssr:stedsnr" v="149235" />
	</node>
	<node id="-192963" lat="60.0746785096" lon="9.33074148126">
		<tag k="name" v="Haranatten" />
		<tag k="natural" v="hill" />
		<tag k="place" v="locality" />
		<tag k="ssr:stedsnr" v="146376" />
	</node>
	<node id="-192962" lat="60.0152055529" lon="9.0067138836">
		<tag k="name" v="Nordmannskjerka" />
		<tag k="natural" v="hill" />
		<tag k="place" v="locality" />
		<tag k="ssr:stedsnr" v="145345" />
	</node>
	<node id="-192957" lat="60.0685555513" lon="9.17672500817">
		<tag k="fixme" v="consider natural=peak for the most distinct mountains in the district" />
		<tag k="name" v="Langåsen" />
		<tag k="natural" v="hill" />
		<tag k="place" v="locality" />
		<tag k="ssr:stedsnr" v="126425" />
	</node>
	<node id="-192953" lat="59.994858331" lon="9.16428611123">
		<tag k="name" v="Vamrehovda" />
		<tag k="natural" v="hill" />
		<tag k="place" v="locality" />
		<tag k="ssr:stedsnr" v="125899" />
	</node>
	<node id="-192952" lat="59.9889583373" lon="9.19630278596">
		<tag k="name" v="Elgtjønndalen" />
		<tag k="natural" v="valley" />
		<tag k="place" v="locality" />
		<tag k="ssr:stedsnr" v="125898" />
	</node>
	<node id="-192948" lat="60.0962499971" lon="9.21691110701">
		<tag k="name" v="Nybulie" />
		<tag k="natural" v="slope" />
		<tag k="place" v="locality" />
		<tag k="ssr:stedsnr" v="125729" />
	</node>
	<node id="-192947" lat="60.0416805545" lon="8.98915000763">
		<tag k="fixme" v="consider natural=peak for the most distinct mountains in the district" />
		<tag k="name" v="Daggrønuten" />
		<tag k="natural" v="hill" />
		<tag k="place" v="locality" />
		<tag k="ssr:stedsnr" v="125700" />
	</node>
	<node id="-192940" lat="60.059775001" lon="9.1705499915">
		<tag k="name" v="Hestenatten" />
		<tag k="natural" v="hill" />
		<tag k="place" v="locality" />
		<tag k="ssr:stedsnr" v="125644" />
	</node>
	<node id="-192937" lat="59.9665027793" lon="9.19545277271">
		<tag k="fixme" v="consider natural=peak for the most distinct mountains in the district" />
		<tag k="name" v="Veslesenhovd" />
		<tag k="natural" v="hill" />
		<tag k="place" v="locality" />
		<tag k="ssr:stedsnr" v="125604" />
	</node>
	<node id="-192933" lat="59.9211444445" lon="9.2102999978">
		<tag k="fixme" v="consider natural=peak for the most distinct mountains in the district" />
		<tag k="name" v="Sørkjefjell" />
		<tag k="natural" v="hill" />
		<tag k="place" v="locality" />
		<tag k="ssr:stedsnr" v="125527" />
	</node>
	<node id="-192929" lat="59.9600972211" lon="9.35951389061">
		<tag k="name" v="Vrågå" />
		<tag k="old_name" v="Vraage" />
		<tag k="place" v="locality" />
		<tag k="ssr:stedsnr" v="125367" />
	</node>
	<node id="-192924" lat="59.9103763206" lon="9.26960972677">
		<tag k="name" v="Smylinatten" />
		<tag k="natural" v="hill" />
		<tag k="place" v="locality" />
		<tag k="ssr:stedsnr" v="125245" />
	</node>
	<node id="-192921" lat="60.0560416644" lon="9.26885834006">
		<tag k="fixme" v="consider natural=peak for the most distinct mountains in the district" />
		<tag k="name" v="Konnuliåsen" />
		<tag k="natural" v="hill" />
		<tag k="place" v="locality" />
		<tag k="ssr:stedsnr" v="125078" />
	</node>
	<node id="-192919" lat="60.0142805539" lon="9.35857776967">
		<tag k="fixme" v="consider natural=peak for the most distinct mountains in the district" />
		<tag k="name" v="Raudsteinvarden" />
		<tag k="natural" v="hill" />
		<tag k="place" v="locality" />
		<tag k="ssr:stedsnr" v="125030" />
	</node>
	<node id="-192913" lat="59.9891694441" lon="9.37002778441">
		<tag k="fixme" v="consider natural=peak for the most distinct mountains in the district" />
		<tag k="name" v="Hovsåta" />
		<tag k="natural" v="hill" />
		<tag k="place" v="locality" />
		<tag k="ssr:stedsnr" v="125310" />
	</node>
	<node id="-192909" lat="59.9845055545" lon="9.31682222568">
		<tag k="name" v="Siljudalen" />
		<tag k="natural" v="valley" />
		<tag k="place" v="locality" />
		<tag k="ssr:stedsnr" v="90891" />
	</node>
	<node id="-192905" lat="59.9724472244" lon="9.41683889281">
		<tag k="fixme" v="consider natural=peak for the most distinct mountains in the district" />
		<tag k="name" v="Lauvåsen" />
		<tag k="natural" v="hill" />
		<tag k="place" v="locality" />
		<tag k="ssr:stedsnr" v="90786" />
	</node>
	<node id="-192904" lat="59.9418166648" lon="9.31655833285">
		<tag k="name" v="Skammelhaugan" />
		<tag k="natural" v="hill" />
		<tag k="place" v="locality" />
		<tag k="ssr:stedsnr" v="90760" />
	</node>
	<node id="-192903" lat="59.9419499961" lon="9.32039166148">
		<tag k="name" v="Kleive" />
		<tag k="natural" v="slope" />
		<tag k="place" v="locality" />
		<tag k="ssr:stedsnr" v="90758" />
	</node>
	<node id="-192901" lat="59.9176194401" lon="9.31845833508">
		<tag k="name" v="Storeskarv" />
		<tag k="natural" v="hill" />
		<tag k="place" v="locality" />
		<tag k="ssr:stedsnr" v="90731" />
	</node>
	<node id="-192899" lat="60.0272027735" lon="9.13730278063">
		<tag k="name" v="Tørrfuruhaugen" />
		<tag k="natural" v="hill" />
		<tag k="place" v="locality" />
		<tag k="ssr:stedsnr" v="90623" />
	</node>
	<node id="-192898" lat="60.1061388898" lon="9.13555000189">
		<tag k="name" v="Leinin" />
		<tag k="natural" v="valley" />
		<tag k="place" v="locality" />
		<tag k="ssr:stedsnr" v="90483" />
	</node>
	<node id="-192897" lat="60.0724194476" lon="9.08930834087">
		<tag k="name" v="Bjørnelauge" />
		<tag k="natural" v="valley" />
		<tag k="place" v="locality" />
		<tag k="ssr:stedsnr" v="90470" />
	</node>
	<node id="-192896" lat="60.1128333304" lon="9.17936389626">
		<tag k="fixme" v="consider natural=peak for the most distinct mountains in the district" />
		<tag k="name" v="Langåsen" />
		<tag k="natural" v="hill" />
		<tag k="place" v="locality" />
		<tag k="ssr:stedsnr" v="90465" />
	</node>
	<node id="-192895" lat="60.0997055579" lon="9.11088334125">
		<tag k="name" v="Skørraskørre" />
		<tag k="natural" v="cliff" />
		<tag k="ssr:stedsnr" v="90445" />
	</node>
	<node id="-192893" lat="60.0329638895" lon="9.06979721983">
		<tag k="name" v="Årsethaugan" />
		<tag k="natural" v="hill" />
		<tag k="place" v="locality" />
		<tag k="ssr:stedsnr" v="90394" />
	</node>
	<node id="-192891" lat="60.0538083344" lon="9.1389638821">
		<tag k="name" v="Tromperudberget" />
		<tag k="natural" v="hill" />
		<tag k="place" v="locality" />
		<tag k="ssr:stedsnr" v="90295" />
	</node>
	<node id="-192890" lat="60.0635777763" lon="9.17076945117">
		<tag k="name" v="Slåttemyrnatten" />
		<tag k="natural" v="hill" />
		<tag k="place" v="locality" />
		<tag k="ssr:stedsnr" v="90283" />
	</node>
	<node id="-192889" lat="60.0544944425" lon="9.16788055192">
		<tag k="name" v="Bjørneberget" />
		<tag k="natural" v="slope" />
		<tag k="place" v="locality" />
		<tag k="ssr:stedsnr" v="90278" />
	</node>
	<node id="-192887" lat="60.0135194464" lon="9.26639166756">
		<tag k="name" v="Skøllebakken" />
		<tag k="natural" v="slope" />
		<tag k="place" v="locality" />
		<tag k="ssr:stedsnr" v="89998" />
	</node>
	<node id="-192885" lat="60.0067638919" lon="9.25918611847">
		<tag k="name" v="Glanarberget" />
		<tag k="natural" v="hill" />
		<tag k="place" v="locality" />
		<tag k="ssr:stedsnr" v="89996" />
	</node>
	<node id="-192884" lat="59.9656166707" lon="9.27418333361">
		<tag k="name" v="Skreppehaugen" />
		<tag k="natural" v="hill" />
		<tag k="place" v="locality" />
		<tag k="ssr:stedsnr" v="89970" />
	</node>
	<node id="-192882" lat="59.9412833345" lon="9.27922499204">
		<tag k="name" v="Øvre Deileskarvet" />
		<tag k="natural" v="ridge" />
		<tag k="place" v="locality" />
		<tag k="ssr:stedsnr" v="89906" />
	</node>
	<node id="-192879" lat="59.955272222" lon="9.29986110685">
		<tag k="name" v="Løkåsen" />
		<tag k="natural" v="hill" />
		<tag k="place" v="locality" />
		<tag k="ssr:stedsnr" v="89844" />
	</node>
	<node id="-192871" lat="60.0439944407" lon="9.13308610689">
		<tag k="name" v="Søre Kittilsland" />
		<tag k="natural" v="hill" />
		<tag k="place" v="locality" />
		<tag k="ssr:stedsnr" v="89698" />
	</node>
	<node id="-192866" lat="59.9961111081" lon="9.28845554764">
		<tag k="fixme" v="consider natural=peak for the most distinct mountains in the district" />
		<tag k="name" v="Hølaåsen" />
		<tag k="natural" v="hill" />
		<tag k="place" v="locality" />
		<tag k="ssr:stedsnr" v="89579" />
	</node>
	<node id="-192865" lat="59.9874111072" lon="9.26063055898">
		<tag k="name" v="Svarthøl" />
		<tag k="place" v="locality" />
		<tag k="ssr:stedsnr" v="89550" />
	</node>
	<node id="-192863" lat="59.9948777752" lon="9.2593194513">
		<tag k="name" v="Tømmerskørr" />
		<tag k="natural" v="valley" />
		<tag k="place" v="locality" />
		<tag k="ssr:stedsnr" v="89541" />
	</node>
	<node id="-192860" lat="60.054744447" lon="9.25059167093">
		<tag k="fixme" v="consider natural=peak for the most distinct mountains in the district" />
		<tag k="name" v="Gjenstigåsen" />
		<tag k="natural" v="hill" />
		<tag k="place" v="locality" />
		<tag k="ssr:stedsnr" v="89201" />
	</node>
	<node id="-192859" lat="60.047963891" lon="9.28763888257">
		<tag k="name" v="Pipetjønndalen" />
		<tag k="natural" v="valley" />
		<tag k="place" v="locality" />
		<tag k="ssr:stedsnr" v="89192" />
	</node>
	<node id="-192858" lat="60.063500002" lon="9.19140000468">
		<tag k="name" v="Morsdalen" />
		<tag k="natural" v="valley" />
		<tag k="place" v="locality" />
		<tag k="ssr:stedsnr" v="89175" />
	</node>
	<node id="-192855" lat="60.052608332" lon="9.21802777339">
		<tag k="name" v="Møllbrekka" />
		<tag k="natural" v="slope" />
		<tag k="place" v="locality" />
		<tag k="ssr:stedsnr" v="89165" />
	</node>
	<node id="-192854" lat="60.0511611134" lon="9.22416667452">
		<tag k="name" v="Sjugurdåsen" />
		<tag k="natural" v="ridge" />
		<tag k="place" v="locality" />
		<tag k="ssr:stedsnr" v="89157" />
	</node>
	<node id="-192852" lat="60.0383694413" lon="9.31716666803">
		<tag k="name" v="Lefselikollen" />
		<tag k="natural" v="hill" />
		<tag k="place" v="locality" />
		<tag k="ssr:stedsnr" v="85504" />
	</node>
	<node id="-192845" lat="59.9974861151" lon="9.19636667306">
		<tag k="fixme" v="consider natural=peak for the most distinct mountains in the district" />
		<tag k="name" v="Saunatten" />
		<tag k="natural" v="hill" />
		<tag k="place" v="locality" />
		<tag k="ssr:stedsnr" v="65946" />
	</node>
	<node id="-192841" lat="60.0862916625" lon="9.18217500438">
		<tag k="fixme" v="consider natural=peak for the most distinct mountains in the district" />
		<tag k="name" v="Slåttemyråsen" />
		<tag k="natural" v="hill" />
		<tag k="place" v="locality" />
		<tag k="ssr:stedsnr" v="65691" />
	</node>
	<node id="-192838" lat="60.0512416623" lon="9.18327778117">
		<tag k="fixme" v="consider natural=peak for the most distinct mountains in the district" />
		<tag k="name" v="Møllbrekkåsen" />
		<tag k="natural" v="hill" />
		<tag k="place" v="locality" />
		<tag k="ssr:stedsnr" v="65669" />
	</node>
	<node id="-192836" lat="60.0626027791" lon="9.19495555062">
		<tag k="fixme" v="consider natural=peak for the most distinct mountains in the district" />
		<tag k="name" v="Gaukebergåsen" />
		<tag k="natural" v="hill" />
		<tag k="place" v="locality" />
		<tag k="ssr:stedsnr" v="65615" />
	</node>
	<node id="-192833" lat="59.8986611112" lon="9.28145833695">
		<tag k="fixme" v="consider natural=peak for the most distinct mountains in the district" />
		<tag k="name" v="Langåsen" />
		<tag k="natural" v="hill" />
		<tag k="place" v="locality" />
		<tag k="ssr:stedsnr" v="65608" />
	</node>
	<node id="-192830" lat="59.9559972207" lon="9.12003054787">
		<tag k="fixme" v="consider natural=peak for the most distinct mountains in the district" />
		<tag k="name" v="Velebufjellet" />
		<tag k="natural" v="hill" />
		<tag k="place" v="locality" />
		<tag k="ssr:stedsnr" v="65569" />
	</node>
	<node id="-192828" lat="59.9456527818" lon="9.25786944656">
		<tag k="name" v="Svartlibrottet" />
		<tag k="natural" v="hill" />
		<tag k="place" v="locality" />
		<tag k="ssr:stedsnr" v="65132" />
	</node>
	<node id="-192817" lat="59.9906638881" lon="9.23024166059">
		<tag k="fixme" v="consider natural=peak for the most distinct mountains in the district" />
		<tag k="name" v="Flatåsen" />
		<tag k="natural" v="hill" />
		<tag k="place" v="locality" />
		<tag k="ssr:stedsnr" v="64251" />
	</node>
	<node id="-192812" lat="60.0028666671" lon="9.02652222126">
		<tag k="fixme" v="consider natural=peak for the most distinct mountains in the district" />
		<tag k="name" v="Vardefjell" />
		<tag k="natural" v="hill" />
		<tag k="old_name" v="Valefjeldet" />
		<tag k="place" v="locality" />
		<tag k="ssr:stedsnr" v="65309" />
	</node>
	<node id="-192807" lat="60.008094441" lon="9.26043889526">
		<tag k="name" v="Hølet" />
		<tag k="natural" v="valley" />
		<tag k="place" v="locality" />
		<tag k="ssr:stedsnr" v="29991" />
	</node>
	<node id="-192806" lat="59.9840596206" lon="9.38009490307">
		<tag k="name" v="Gørrbuåsen" />
		<tag k="natural" v="ridge" />
		<tag k="place" v="locality" />
		<tag k="ssr:stedsnr" v="29985" />
	</node>
	<node id="-192805" lat="59.9648277819" lon="9.26999167208">
		<tag k="name" v="Tambaklia" />
		<tag k="natural" v="slope" />
		<tag k="place" v="locality" />
		<tag k="ssr:stedsnr" v="29956" />
	</node>
	<node id="-192802" lat="59.9900111125" lon="9.35386665992">
		<tag k="name" v="Lisetdokka" />
		<tag k="natural" v="valley" />
		<tag k="place" v="locality" />
		<tag k="ssr:stedsnr" v="29919" />
	</node>
	<node id="-192800" lat="59.9945472183" lon="9.40754444154">
		<tag k="name" v="Elddalsjuvet" />
		<tag k="natural" v="gorge" />
		<tag k="ssr:stedsnr" v="29878" />
	</node>
	<node id="-192799" lat="59.9968083368" lon="9.19863889257">
		<tag k="name" v="Saunatten" />
		<tag k="natural" v="hill" />
		<tag k="place" v="locality" />
		<tag k="ssr:stedsnr" v="29875" />
	</node>
	<node id="-192798" lat="59.9829666694" lon="9.39480833921">
		<tag k="name" v="Saupsetdalen" />
		<tag k="natural" v="valley" />
		<tag k="place" v="locality" />
		<tag k="ssr:stedsnr" v="29876" />
	</node>
	<node id="-192797" lat="59.9807138877" lon="9.31110833273">
		<tag k="name" v="Krommelåsen" />
		<tag k="natural" v="hill" />
		<tag k="place" v="locality" />
		<tag k="ssr:stedsnr" v="29866" />
	</node>
	<node id="-192796" lat="59.99325" lon="9.30368055297">
		<tag k="name" v="Skrubbesteinan" />
		<tag k="natural" v="slope" />
		<tag k="place" v="locality" />
		<tag k="ssr:stedsnr" v="29865" />
	</node>
	<node id="-192795" lat="59.9237444432" lon="9.27929167491">
		<tag k="name" v="Rausteindalen" />
		<tag k="natural" v="valley" />
		<tag k="place" v="locality" />
		<tag k="ssr:stedsnr" v="29790" />
	</node>
	<node id="-192791" lat="59.9500472225" lon="9.40340555136">
		<tag k="name" v="Skropulie" />
		<tag k="natural" v="slope" />
		<tag k="place" v="locality" />
		<tag k="ssr:stedsnr" v="29773" />
	</node>
	<node id="-192785" lat="59.9925472183" lon="9.17733611249">
		<tag k="name" v="Erikstjønnurene" />
		<tag k="natural" v="slope" />
		<tag k="place" v="locality" />
		<tag k="ssr:stedsnr" v="29701" />
	</node>
	<node id="-192784" lat="59.9900722262" lon="9.16819444268">
		<tag k="name" v="Møllbakken" />
		<tag k="natural" v="slope" />
		<tag k="place" v="locality" />
		<tag k="ssr:stedsnr" v="29703" />
	</node>
	<node id="-192783" lat="60.0606416686" lon="9.3383138912">
		<tag k="fixme" v="consider natural=peak for the most distinct mountains in the district" />
		<tag k="name" v="Øytjønnfjellet" />
		<tag k="natural" v="hill" />
		<tag k="place" v="locality" />
		<tag k="ssr:stedsnr" v="29598" />
	</node>
	<node id="-192779" lat="60.036819444" lon="9.14342222179">
		<tag k="name" v="Steinbru" />
		<tag k="place" v="locality" />
		<tag k="ssr:stedsnr" v="29657" />
	</node>
	<node id="-192778" lat="60.0350416631" lon="9.13878889719">
		<tag k="name" v="Kjørkjebrua" />
		<tag k="place" v="locality" />
		<tag k="ssr:stedsnr" v="29652" />
	</node>
	<node id="-192777" lat="60.0329000036" lon="9.15215833459">
		<tag k="name" v="Bakkan" />
		<tag k="natural" v="slope" />
		<tag k="place" v="locality" />
		<tag k="ssr:stedsnr" v="29645" />
	</node>
	<node id="-192776" lat="59.9005382713" lon="9.18290809755">
		<tag k="name" v="Fjelldalen" />
		<tag k="natural" v="valley" />
		<tag k="place" v="locality" />
		<tag k="ssr:stedsnr" v="29632" />
	</node>
	<node id="-192774" lat="60.0553333291" lon="9.18219166008">
		<tag k="name" v="Myre" />
		<tag k="place" v="locality" />
		<tag k="ssr:stedsnr" v="29338" />
	</node>
	<node id="-192772" lat="60.0512388857" lon="9.17668888745">
		<tag k="name" v="Skrubbeskørre" />
		<tag k="natural" v="valley" />
		<tag k="place" v="locality" />
		<tag k="ssr:stedsnr" v="29334" />
	</node>
	<node id="-192766" lat="60.0112706322" lon="9.00911787622">
		<tag k="name" v="Gaupetjønnlie" />
		<tag k="natural" v="slope" />
		<tag k="place" v="locality" />
		<tag k="ssr:stedsnr" v="29411" />
	</node>
	<node id="-192765" lat="60.0557972202" lon="9.07671389174">
		<tag k="name" v="Kortedokkhøgde" />
		<tag k="natural" v="hill" />
		<tag k="place" v="locality" />
		<tag k="ssr:stedsnr" v="29287" />
	</node>
	<node id="-192763" lat="60.0730388858" lon="9.19797221872">
		<tag k="name" v="Kølbottli" />
		<tag k="natural" v="slope" />
		<tag k="place" v="locality" />
		<tag k="ssr:stedsnr" v="29102" />
	</node>
	<node id="-192762" lat="60.0718625975" lon="9.01974410302">
		<tag k="name" v="Viersetli" />
		<tag k="natural" v="slope" />
		<tag k="place" v="locality" />
		<tag k="ssr:stedsnr" v="29002" />
	</node>
	<node id="-192760" lat="60.0747944458" lon="8.99112221671">
		<tag k="fixme" v="consider natural=peak for the most distinct mountains in the district" />
		<tag k="name" v="Rustfjell" />
		<tag k="natural" v="hill" />
		<tag k="place" v="locality" />
		<tag k="ssr:stedsnr" v="28556" />
	</node>
	<node id="-192759" lat="60.0519722216" lon="9.36770278475">
		<tag k="name" v="Tråtjønnlie" />
		<tag k="natural" v="slope" />
		<tag k="place" v="locality" />
		<tag k="ssr:stedsnr" v="28658" />
	</node>
	<node id="-192757" lat="60.050366663" lon="9.2513222228">
		<tag k="fixme" v="consider natural=peak for the most distinct mountains in the district" />
		<tag k="name" v="Tørrfuruåsen" />
		<tag k="natural" v="hill" />
		<tag k="place" v="locality" />
		<tag k="ssr:stedsnr" v="28197" />
	</node>
	<node id="-192756" lat="60.0602805554" lon="9.28721945289">
		<tag k="name" v="Hellesåslie" />
		<tag k="natural" v="slope" />
		<tag k="place" v="locality" />
		<tag k="ssr:stedsnr" v="28190" />
	</node>
	<node id="-192755" lat="60.0556638851" lon="9.210600007">
		<tag k="name" v="Åmot" />
		<tag k="place" v="locality" />
		<tag k="ssr:stedsnr" v="28174" />
	</node>
	<node id="-192754" lat="60.0541499978" lon="9.24255277574">
		<tag k="fixme" v="consider natural=peak for the most distinct mountains in the district" />
		<tag k="name" v="Tørrfuruåsen" />
		<tag k="natural" v="hill" />
		<tag k="place" v="locality" />
		<tag k="ssr:stedsnr" v="28153" />
	</node>
	<node id="-192752" lat="60.0040222194" lon="9.09955000415">
		<tag k="name" v="Kloppåsen" />
		<tag k="natural" v="hill" />
		<tag k="place" v="locality" />
		<tag k="ssr:stedsnr" v="24353" />
	</node>
	<node id="-192749" lat="60.0669750043" lon="9.1437500087">
		<tag k="fixme" v="consider natural=peak for the most distinct mountains in the district" />
		<tag k="name" v="Kalvåsen" />
		<tag k="natural" v="hill" />
		<tag k="place" v="locality" />
		<tag k="ssr:stedsnr" v="5712" />
	</node>
	<node id="-192739" lat="59.9818694401" lon="9.08364166857">
		<tag k="name" v="Høghaug" />
		<tag k="natural" v="hill" />
		<tag k="place" v="locality" />
		<tag k="ssr:stedsnr" v="4917" />
	</node>
	<node id="-192738" lat="59.9838888891" lon="9.05612499778">
		<tag k="fixme" v="consider natural=peak for the most distinct mountains in the district" />
		<tag k="name" v="Skomakarnatten" />
		<tag k="natural" v="hill" />
		<tag k="place" v="locality" />
		<tag k="ssr:stedsnr" v="4893" />
	</node>
	<node id="-192736" lat="60.0962277784" lon="9.1557250001">
		<tag k="fixme" v="consider natural=peak for the most distinct mountains in the district" />
		<tag k="name" v="Ormåsen" />
		<tag k="natural" v="hill" />
		<tag k="place" v="locality" />
		<tag k="ssr:stedsnr" v="4721" />
	</node>
	<node id="-192730" lat="60.0636388875" lon="9.18767500291">
		<tag k="name" v="Raunesethøgde" />
		<tag k="natural" v="hill" />
		<tag k="place" v="locality" />
		<tag k="ssr:stedsnr" v="4629" />
	</node>
	<node id="-192727" lat="59.9682111147" lon="9.1288861087">
		<tag k="name" v="Skjerbrekkdalen" />
		<tag k="natural" v="valley" />
		<tag k="place" v="locality" />
		<tag k="ssr:stedsnr" v="4594" />
	</node>
	<node id="-192717" lat="60.0184416664" lon="9.21715277369">
		<tag k="name" v="Tutarberget" />
		<tag k="natural" v="hill" />
		<tag k="place" v="locality" />
		<tag k="ssr:stedsnr" v="4326" />
	</node>
	<node id="-192716" lat="59.9136527743" lon="9.31098055404">
		<tag k="name" v="Rundingsnatten" />
		<tag k="natural" v="hill" />
		<tag k="place" v="locality" />
		<tag k="ssr:stedsnr" v="4202" />
	</node>
	<node id="-192715" lat="59.9347833333" lon="9.23668888978">
		<tag k="name" v="Nybuhaugen" />
		<tag k="natural" v="hill" />
		<tag k="place" v="locality" />
		<tag k="ssr:stedsnr" v="4142" />
	</node>
	<node id="-192711" lat="60.0393083304" lon="9.27504166212">
		<tag k="fixme" v="consider natural=peak for the most distinct mountains in the district" />
		<tag k="name" v="Trollhovdåsen" />
		<tag k="natural" v="hill" />
		<tag k="place" v="locality" />
		<tag k="ssr:stedsnr" v="4063" />
	</node>
	<node id="-192706" lat="59.9794999965" lon="9.25689445225">
		<tag k="name" v="Bratteberg" />
		<tag k="natural" v="slope" />
		<tag k="place" v="locality" />
		<tag k="ssr:stedsnr" v="3259" />
	</node>
	<node id="-192688" lat="59.9675777759" lon="9.31418054911">
		<tag k="name" v="Skøllhaug" />
		<tag k="natural" v="hill" />
		<tag k="place" v="locality" />
		<tag k="ssr:stedsnr" v="393942" />
	</node>
	<node id="-192684" lat="60.0005530928" lon="9.35802112407">
		<tag k="name" v="Kvigeberget" />
		<tag k="natural" v="ridge" />
		<tag k="place" v="locality" />
		<tag k="ssr:stedsnr" v="393909" />
	</node>
	<node id="-192683" lat="59.9461250025" lon="9.28941111596">
		<tag k="name" v="Nedre Deileskarvet" />
		<tag k="natural" v="ridge" />
		<tag k="place" v="locality" />
		<tag k="ssr:stedsnr" v="393895" />
	</node>
	<node id="-192681" lat="59.9849916695" lon="9.39144999266">
		<tag k="name" v="Lisledal" />
		<tag k="natural" v="valley" />
		<tag k="place" v="locality" />
		<tag k="ssr:stedsnr" v="393887" />
	</node>
	<node id="-192678" lat="59.9203222235" lon="9.21869443726">
		<tag k="name" v="Galdegrø" />
		<tag k="natural" v="slope" />
		<tag k="place" v="locality" />
		<tag k="ssr:stedsnr" v="393809" />
	</node>
	<node id="-192677" lat="59.9177666643" lon="9.23972778466">
		<tag k="name" v="Bufargrø" />
		<tag k="natural" v="slope" />
		<tag k="place" v="locality" />
		<tag k="ssr:stedsnr" v="393807" />
	</node>
	<node id="-192676" lat="59.9043277814" lon="9.23012777776">
		<tag k="name" v="Blomdølene" />
		<tag k="natural" v="slope" />
		<tag k="place" v="locality" />
		<tag k="ssr:stedsnr" v="393796" />
	</node>
	<node id="-192675" lat="59.9575638729" lon="9.33944083868">
		<tag k="name" v="Lekåskleiv" />
		<tag k="natural" v="slope" />
		<tag k="place" v="locality" />
		<tag k="ssr:stedsnr" v="393792" />
	</node>
	<node id="-192672" lat="59.9451444461" lon="9.33343611857">
		<tag k="name" v="Bjørnedalen" />
		<tag k="natural" v="valley" />
		<tag k="place" v="locality" />
		<tag k="ssr:stedsnr" v="393772" />
	</node>
	<node id="-192671" lat="59.938691666" lon="9.31903055459">
		<tag k="name" v="Køseberget" />
		<tag k="natural" v="ridge" />
		<tag k="place" v="locality" />
		<tag k="ssr:stedsnr" v="393768" />
	</node>
	<node id="-192669" lat="59.930497219" lon="9.3479888955">
		<tag k="name" v="Kallehølåsen" />
		<tag k="natural" v="ridge" />
		<tag k="place" v="locality" />
		<tag k="ssr:stedsnr" v="393733" />
	</node>
	<node id="-192668" lat="59.9905777754" lon="9.08209722243">
		<tag k="name" v="Sundtjønnskarven" />
		<tag k="natural" v="hill" />
		<tag k="place" v="locality" />
		<tag k="ssr:stedsnr" v="393720" />
	</node>
	<node id="-192667" lat="60.0089249996" lon="9.145636108">
		<tag k="name" v="Hovda" />
		<tag k="natural" v="hill" />
		<tag k="place" v="locality" />
		<tag k="ssr:stedsnr" v="393704" />
	</node>
	<node id="-192666" lat="60.0446055528" lon="9.13290277523">
		<tag k="name" v="Meland" />
		<tag k="natural" v="hill" />
		<tag k="place" v="locality" />
		<tag k="ssr:stedsnr" v="393670" />
	</node>
	<node id="-192659" lat="60.0767805567" lon="9.11762221629">
		<tag k="name" v="Hallinghaug" />
		<tag k="natural" v="hill" />
		<tag k="place" v="locality" />
		<tag k="ssr:stedsnr" v="393479" />
	</node>
	<node id="-192657" lat="59.9817409019" lon="9.03299531195">
		<tag k="name" v="Viergrønatten" />
		<tag k="natural" v="hill" />
		<tag k="place" v="locality" />
		<tag k="ssr:stedsnr" v="393436" />
	</node>
	<node id="-192654" lat="60.0337388849" lon="9.02186110576">
		<tag k="name" v="Deveggdalen" />
		<tag k="natural" v="valley" />
		<tag k="place" v="locality" />
		<tag k="ssr:stedsnr" v="393402" />
	</node>
	<node id="-192652" lat="60.0593805582" lon="9.09874445061">
		<tag k="name" v="Brøtli" />
		<tag k="natural" v="slope" />
		<tag k="place" v="locality" />
		<tag k="ssr:stedsnr" v="393264" />
	</node>
	<node id="-192650" lat="60.0510583327" lon="8.99415277442">
		<tag k="name" v="Skurvenatten" />
		<tag k="natural" v="hill" />
		<tag k="place" v="locality" />
		<tag k="ssr:stedsnr" v="393135" />
	</node>
	<node id="-192643" lat="60.0364277775" lon="9.1942777712">
		<tag k="name" v="Puttedalen" />
		<tag k="natural" v="valley" />
		<tag k="place" v="locality" />
		<tag k="ssr:stedsnr" v="392869" />
	</node>
	<node id="-192638" lat="60.0184166651" lon="9.30803334213">
		<tag k="name" v="Fyrisetåsen" />
		<tag k="natural" v="ridge" />
		<tag k="place" v="locality" />
		<tag k="ssr:stedsnr" v="392788" />
	</node>
	<node id="-192637" lat="60.001666669" lon="9.3396166657">
		<tag k="name" v="Hestespreng" />
		<tag k="natural" v="slope" />
		<tag k="place" v="locality" />
		<tag k="ssr:stedsnr" v="392782" />
	</node>
	<node id="-192636" lat="60.0140722217" lon="9.38241389488">
		<tag k="name" v="Tjøstølvberget" />
		<tag k="natural" v="ridge" />
		<tag k="place" v="locality" />
		<tag k="ssr:stedsnr" v="392771" />
	</node>
	<node id="-192634" lat="60.0056611129" lon="9.36561667351">
		<tag k="name" v="Himmelsynnatten" />
		<tag k="natural" v="hill" />
		<tag k="place" v="locality" />
		<tag k="ssr:stedsnr" v="392767" />
	</node>
	<node id="-192629" lat="60.0560833341" lon="9.21676667276">
		<tag k="name" v="Nordkleiv" />
		<tag k="natural" v="slope" />
		<tag k="place" v="locality" />
		<tag k="ssr:stedsnr" v="392167" />
	</node>
	<node id="-192625" lat="60.0200277786" lon="9.34898610458">
		<tag k="fixme" v="consider natural=peak for the most distinct mountains in the district" />
		<tag k="name" v="Langåsen" />
		<tag k="natural" v="hill" />
		<tag k="place" v="locality" />
		<tag k="ssr:stedsnr" v="389565" />
	</node>
	<node id="-192616" lat="60.0308583338" lon="9.35712222894">
		<tag k="fixme" v="consider natural=peak for the most distinct mountains in the district" />
		<tag k="name" v="Seteråsen" />
		<tag k="natural" v="hill" />
		<tag k="place" v="locality" />
		<tag k="ssr:stedsnr" v="369380" />
	</node>
	<node id="-192615" lat="60.0383416677" lon="8.98466388367">
		<tag k="name" v="Daggrødalen" />
		<tag k="natural" v="valley" />
		<tag k="place" v="locality" />
		<tag k="ssr:stedsnr" v="369329" />
	</node>
	<node id="-192613" lat="59.990097226" lon="9.15711111321">
		<tag k="name" v="Gygeråsen" />
		<tag k="natural" v="hill" />
		<tag k="place" v="locality" />
		<tag k="ssr:stedsnr" v="368931" />
	</node>
	<node id="-192605" lat="59.9683777754" lon="9.19711111877">
		<tag k="name" v="Storskørre" />
		<tag k="natural" v="slope" />
		<tag k="place" v="locality" />
		<tag k="ssr:stedsnr" v="368652" />
	</node>
	<node id="-192604" lat="60.1062249964" lon="9.11548611184">
		<tag k="name" v="Steintjønndalen" />
		<tag k="natural" v="valley" />
		<tag k="place" v="locality" />
		<tag k="ssr:stedsnr" v="368564" />
	</node>
	<node id="-192603" lat="60.1029027743" lon="9.17546389476">
		<tag k="fixme" v="consider natural=peak for the most distinct mountains in the district" />
		<tag k="name" v="Langåsen" />
		<tag k="natural" v="hill" />
		<tag k="place" v="locality" />
		<tag k="ssr:stedsnr" v="368561" />
	</node>
	<node id="-192597" lat="60.0073749992" lon="9.07819999692">
		<tag k="fixme" v="consider natural=peak for the most distinct mountains in the district" />
		<tag k="name" v="Halvfaråsen" />
		<tag k="natural" v="hill" />
		<tag k="place" v="locality" />
		<tag k="ssr:stedsnr" v="368347" />
	</node>
	<node id="-192579" lat="59.9276194401" lon="9.27163333732">
		<tag k="name" v="Hestelie" />
		<tag k="natural" v="slope" />
		<tag k="place" v="locality" />
		<tag k="ssr:stedsnr" v="367138" />
	</node>
	<node id="-192567" lat="59.9607472262" lon="9.26511944643">
		<tag k="name" v="Rundehaugen" />
		<tag k="natural" v="hill" />
		<tag k="place" v="locality" />
		<tag k="ssr:stedsnr" v="332950" />
	</node>
	<node id="-192563" lat="59.9973416652" lon="9.34090833507">
		<tag k="name" v="Måsåvadberget" />
		<tag k="natural" v="slope" />
		<tag k="place" v="locality" />
		<tag k="ssr:stedsnr" v="332876" />
	</node>
	<node id="-192560" lat="59.9539611121" lon="9.25438055937">
		<tag k="name" v="Hugarberget" />
		<tag k="natural" v="hill" />
		<tag k="place" v="locality" />
		<tag k="ssr:stedsnr" v="332810" />
	</node>
	<node id="-192556" lat="59.9774333324" lon="9.36763332573">
		<tag k="name" v="Kalveåsen" />
		<tag k="natural" v="hill" />
		<tag k="place" v="locality" />
		<tag k="ssr:stedsnr" v="332800" />
	</node>
	<node id="-192555" lat="59.9765249996" lon="9.31038333165">
		<tag k="name" v="Gormehaugen" />
		<tag k="natural" v="hill" />
		<tag k="place" v="locality" />
		<tag k="ssr:stedsnr" v="332796" />
	</node>
	<node id="-192553" lat="59.8967333301" lon="9.28341110703">
		<tag k="name" v="Aksla" />
		<tag k="natural" v="ridge" />
		<tag k="place" v="locality" />
		<tag k="ssr:stedsnr" v="332782" />
	</node>
	<node id="-192551" lat="59.9290444468" lon="9.2863888841">
		<tag k="name" v="Hestespreng" />
		<tag k="natural" v="slope" />
		<tag k="place" v="locality" />
		<tag k="ssr:stedsnr" v="332779" />
	</node>
	<node id="-192548" lat="59.9390361126" lon="9.38172499872">
		<tag k="name" v="Tjønnåsen" />
		<tag k="natural" v="hill" />
		<tag k="place" v="locality" />
		<tag k="ssr:stedsnr" v="332763" />
	</node>
	<node id="-192546" lat="60.0051666709" lon="9.322150001">
		<tag k="name" v="Brennebergåsen" />
		<tag k="natural" v="ridge" />
		<tag k="place" v="locality" />
		<tag k="ssr:stedsnr" v="332725" />
	</node>
	<node id="-192544" lat="60.0224916708" lon="9.1482250056">
		<tag k="name" v="Brennhaugen" />
		<tag k="natural" v="hill" />
		<tag k="place" v="locality" />
		<tag k="ssr:stedsnr" v="332724" />
	</node>
	<node id="-192543" lat="60.0154138928" lon="9.13472222405">
		<tag k="name" v="Skinntjønnjuvet" />
		<tag k="natural" v="gorge" />
		<tag k="ssr:stedsnr" v="332720" />
	</node>
	<node id="-192541" lat="60.0188333345" lon="9.39285000311">
		<tag k="name" v="Kastet" />
		<tag k="natural" v="slope" />
		<tag k="place" v="locality" />
		<tag k="ssr:stedsnr" v="332709" />
	</node>
	<node id="-192539" lat="60.0373250027" lon="9.1398083335">
		<tag k="name" v="Kjemhushaugen" />
		<tag k="natural" v="hill" />
		<tag k="place" v="locality" />
		<tag k="ssr:stedsnr" v="332681" />
	</node>
	<node id="-192538" lat="60.0518250031" lon="9.34511666733">
		<tag k="fixme" v="consider natural=peak for the most distinct mountains in the district" />
		<tag k="name" v="Brennåsen" />
		<tag k="natural" v="hill" />
		<tag k="place" v="locality" />
		<tag k="ssr:stedsnr" v="332666" />
	</node>
	<node id="-192537" lat="60.0452777795" lon="9.1266194377">
		<tag k="name" v="Skriudalen" />
		<tag k="natural" v="valley" />
		<tag k="place" v="locality" />
		<tag k="ssr:stedsnr" v="332663" />
	</node>
	<node id="-192534" lat="60.0267222217" lon="9.15422222906">
		<tag k="name" v="Blåhus" />
		<tag k="place" v="locality" />
		<tag k="ssr:stedsnr" v="332647" />
	</node>
	<node id="-192529" lat="59.9886888933" lon="9.26274167127">
		<tag k="name" v="Kalveskørr" />
		<tag k="natural" v="valley" />
		<tag k="place" v="locality" />
		<tag k="ssr:stedsnr" v="332514" />
	</node>
	<node id="-192528" lat="59.989644441" lon="9.26611667252">
		<tag k="name" v="Høgrudskørr" />
		<tag k="natural" v="valley" />
		<tag k="place" v="locality" />
		<tag k="ssr:stedsnr" v="332512" />
	</node>
	<node id="-192527" lat="59.990769441" lon="9.24821110726">
		<tag k="name" v="Medskørr" />
		<tag k="natural" v="valley" />
		<tag k="place" v="locality" />
		<tag k="ssr:stedsnr" v="332507" />
	</node>
	<node id="-192523" lat="60.0242666693" lon="9.05928888351">
		<tag k="name" v="Hekanlyu" />
		<tag k="place" v="locality" />
		<tag k="ssr:stedsnr" v="332431" />
	</node>
	<node id="-192521" lat="60.0347777754" lon="9.05363610801">
		<tag k="name" v="Røståbrekka" />
		<tag k="natural" v="valley" />
		<tag k="place" v="locality" />
		<tag k="ssr:stedsnr" v="332411" />
	</node>
	<node id="-192520" lat="60.033988891" lon="9.05189722653">
		<tag k="name" v="Bjørneli" />
		<tag k="natural" v="slope" />
		<tag k="place" v="locality" />
		<tag k="ssr:stedsnr" v="332402" />
	</node>
	<node id="-192518" lat="60.0889555578" lon="9.22344999446">
		<tag k="name" v="Langegjengje" />
		<tag k="natural" v="valley" />
		<tag k="place" v="locality" />
		<tag k="ssr:stedsnr" v="332378" />
	</node>
	<node id="-192517" lat="60.0662666678" lon="9.13892222393">
		<tag k="fixme" v="consider natural=peak for the most distinct mountains in the district" />
		<tag k="name" v="Vårfjøsåsen" />
		<tag k="natural" v="hill" />
		<tag k="place" v="locality" />
		<tag k="ssr:stedsnr" v="332313" />
	</node>
	<node id="-192516" lat="60.0613444421" lon="9.11536111227">
		<tag k="name" v="Brekkeberget" />
		<tag k="natural" v="hill" />
		<tag k="place" v="locality" />
		<tag k="ssr:stedsnr" v="332260" />
	</node>
	<node id="-192515" lat="60.057463893" lon="9.27899443775">
		<tag k="name" v="Pipetjønnbrottet" />
		<tag k="natural" v="valley" />
		<tag k="place" v="locality" />
		<tag k="ssr:stedsnr" v="332170" />
	</node>
	<node id="-192514" lat="59.8862361119" lon="9.19909167437">
		<tag k="name" v="Grautenatten" />
		<tag k="natural" v="hill" />
		<tag k="place" v="locality" />
		<tag k="ssr:stedsnr" v="332152" />
	</node>
	<node id="-192513" lat="60.0458194431" lon="9.18973332574">
		<tag k="name" v="Kjerringhaugen" />
		<tag k="natural" v="hill" />
		<tag k="place" v="locality" />
		<tag k="ssr:stedsnr" v="332141" />
	</node>
</osm>
