<?xml version="1.0" encoding="UTF-8"?>
<osm generator="osmapis" version="0.6">
	<node id="-193536" lat="60.048705557" lon="9.05425556438">
		<tag k="alt_name" v="Persbumyra" />
		<tag k="name" v="Persbumyre" />
		<tag k="natural" v="wetland" />
		<tag k="ssr:stedsnr" v="454102" />
	</node>
	<node id="-194046" lat="59.9952166645" lon="9.3178388878">
		<tag k="landuse" v="meadow" />
		<tag k="name" v="Knutekøse" />
		<tag k="ssr:stedsnr" v="696911" />
	</node>
	<node id="-193533" lat="60.0160499995" lon="9.25146667317">
		<tag k="name" v="Storebråtan" />
		<tag k="place" v="locality" />
		<tag k="ssr:stedsnr" v="453991" />
	</node>
	<node id="-194044" lat="59.9835138898" lon="9.33644443963">
		<tag k="landuse" v="meadow" />
		<tag k="name" v="Eivindsrud" />
		<tag k="ssr:stedsnr" v="696903" />
	</node>
	<node id="-194041" lat="59.9159805556" lon="9.33963333442">
		<tag k="landuse" v="quarry" />
		<tag k="name" v="Pikopbrottet" />
		<tag k="ssr:stedsnr" v="696880" />
	</node>
	<node id="-194040" lat="59.923452778" lon="9.33626944623">
		<tag k="name" v="Øygarden" />
		<tag k="place" v="locality" />
		<tag k="ssr:stedsnr" v="696877" />
	</node>
	<node id="-193013" lat="59.9917666641" lon="9.11276388837">
		<tag k="name" v="Storemyr" />
		<tag k="natural" v="wetland" />
		<tag k="ssr:stedsnr" v="4942" />
	</node>
	<node id="-193523" lat="60.0133305511" lon="9.29844444208">
		<tag k="landuse" v="meadow" />
		<tag k="name" v="Storlikøs" />
		<tag k="ssr:stedsnr" v="453791" />
	</node>
	<node id="-193522" lat="60.0467138893" lon="9.32032500611">
		<tag k="name" v="Trytetjønnhogsten" />
		<tag k="place" v="locality" />
		<tag k="ssr:stedsnr" v="453701" />
	</node>
	<node id="-193008" lat="60.0976500026" lon="9.14226111423">
		<tag k="name" v="Briskemyran" />
		<tag k="natural" v="wetland" />
		<tag k="ssr:stedsnr" v="4723" />
	</node>
	<node id="-193004" lat="60.0445527755" lon="9.07292499103">
		<tag k="name" v="Storemyr" />
		<tag k="natural" v="wetland" />
		<tag k="ssr:stedsnr" v="4659" />
	</node>
	<node id="-193512" lat="60.0520749965" lon="9.19717222149">
		<tag k="landuse" v="meadow" />
		<tag k="name" v="Damkøse" />
		<tag k="ssr:stedsnr" v="453171" />
	</node>
	<node id="-194459" lat="59.9722166658" lon="9.26988333269">
		<tag k="landuse" v="meadow" />
		<tag k="name" v="Tinneskøse" />
		<tag k="ssr:stedsnr" v="939956" />
	</node>
	<node id="-194015" lat="59.9899749971" lon="9.17691666599">
		<tag k="name" v="Ulehogstene" />
		<tag k="place" v="locality" />
		<tag k="ssr:stedsnr" v="696702" />
	</node>
	<node id="-193496" lat="60.0975333298" lon="9.12855834173">
		<tag k="name" v="Høghaugmyre" />
		<tag k="natural" v="wetland" />
		<tag k="ssr:stedsnr" v="429706" />
	</node>
	<node id="-194005" lat="60.0472999965" lon="9.12167500705">
		<tag k="landuse" v="meadow" />
		<tag k="name" v="Orekøse" />
		<tag k="ssr:stedsnr" v="696262" />
	</node>
	<node id="-193040" lat="60.0933722192" lon="9.16277777703">
		<tag k="name" v="Løkjemyr" />
		<tag k="natural" v="wetland" />
		<tag k="ssr:stedsnr" v="29513" />
	</node>
	<node id="-193997" lat="60.0517444487" lon="9.22873889017">
		<tag k="name" v="Landemyr" />
		<tag k="natural" v="wetland" />
		<tag k="ssr:stedsnr" v="696146" />
	</node>
	<node id="-193994" lat="60.0621833351" lon="9.1758194516">
		<tag k="name" v="Storemyr" />
		<tag k="natural" v="wetland" />
		<tag k="ssr:stedsnr" v="696315" />
	</node>
	<node id="-192758" lat="60.0631833326" lon="9.04732777314">
		<tag k="name" v="Flæun" />
		<tag k="natural" v="wetland" />
		<tag k="ssr:stedsnr" v="327365" />
	</node>
	<node id="-193269" lat="60.0128861144" lon="9.19996388881">
		<tag k="historic" v="shieling" />
		<tag k="name" v="Gamle Grånåbu" />
		<tag k="place" v="locality" />
		<tag k="ssr:stedsnr" v="150571" />
	</node>
	<node id="-193779" lat="60.0158499984" lon="9.25633888471">
		<tag k="name" v="Rensla" />
		<tag k="place" v="locality" />
		<tag k="ssr:stedsnr" v="574995" />
	</node>
	<node id="-193968" lat="60.0325249958" lon="9.06452777825">
		<tag k="name" v="Årsetmyran" />
		<tag k="natural" v="wetland" />
		<tag k="ssr:stedsnr" v="672312" />
	</node>
	<node id="-192937" lat="59.9872166709" lon="9.34816110551">
		<tag k="landuse" v="meadow" />
		<tag k="name" v="Løytekøse" />
		<tag k="ssr:stedsnr" v="393889" />
	</node>
	<node id="-192929" lat="59.9007166645" lon="9.20485832468">
		<tag k="historic" v="shieling" />
		<tag k="name" v="Storegrø" />
		<tag k="place" v="locality" />
		<tag k="ssr:stedsnr" v="393787" />
	</node>
	<node id="-193127" lat="60.0527388908" lon="9.21039999317">
		<tag k="landuse" v="meadow" />
		<tag k="name" v="Skarvekøs" />
		<tag k="ssr:stedsnr" v="89167" />
	</node>
	<node id="-192925" lat="59.9389749997" lon="9.37900554823">
		<tag k="name" v="Bruremyr" />
		<tag k="natural" v="wetland" />
		<tag k="ssr:stedsnr" v="393747" />
	</node>
	<node id="-193947" lat="60.0577888849" lon="9.02799165805">
		<tag k="name" v="Olhovdmyre" />
		<tag k="natural" v="wetland" />
		<tag k="ssr:stedsnr" v="671661" />
	</node>
	<node id="-194458" lat="60.0004666627" lon="9.30888055663">
		<tag k="landuse" v="meadow" />
		<tag k="name" v="Gamlekøsin" />
		<tag k="ssr:stedsnr" v="939917" />
	</node>
	<node id="-194457" lat="59.9991194461" lon="9.31936389612">
		<tag k="landuse" v="meadow" />
		<tag k="name" v="Herbrandskøs" />
		<tag k="ssr:stedsnr" v="939913" />
	</node>
	<node id="-194456" lat="59.9954916664" lon="9.32065833">
		<tag k="landuse" v="meadow" />
		<tag k="name" v="Røysa" />
		<tag k="ssr:stedsnr" v="939911" />
	</node>
	<node id="-194454" lat="59.9969500042" lon="9.40209721788">
		<tag k="name" v="Nysetmyran" />
		<tag k="natural" v="wetland" />
		<tag k="ssr:stedsnr" v="939899" />
	</node>
	<node id="-192665" lat="60.0443027795" lon="9.23682499655">
		<tag k="landuse" v="meadow" />
		<tag k="name" v="Orekøs" />
		<tag k="ssr:stedsnr" v="271285" />
	</node>
	<node id="-192915" lat="60.0741259778" lon="9.13069629556">
		<tag k="landuse" v="meadow" />
		<tag k="name" v="Halsteinkøs" />
		<tag k="ssr:stedsnr" v="393484" />
	</node>
	<node id="-194450" lat="59.913877778" lon="9.34843888652">
		<tag k="landuse" v="meadow" />
		<tag k="name" v="Engane" />
		<tag k="ssr:stedsnr" v="939863" />
	</node>
	<node id="-194449" lat="60.0316833293" lon="9.22437222351">
		<tag k="name" v="Guterud" />
		<tag k="place" v="locality" />
		<tag k="ssr:stedsnr" v="939859" />
	</node>
	<node id="-193935" lat="60.1058999999" lon="9.14816111831">
		<tag k="name" v="Lyumyran" />
		<tag k="natural" v="wetland" />
		<tag k="ssr:stedsnr" v="671532" />
	</node>
	<node id="-194446" lat="60.0240111095" lon="9.25732500296">
		<tag k="name" v="Katten" />
		<tag k="place" v="locality" />
		<tag k="ssr:stedsnr" v="939832" />
	</node>
	<node id="-192903" lat="60.0613055523" lon="9.03470556031">
		<tag k="historic" v="shieling" />
		<tag k="name" v="Kjerrevollen" />
		<tag k="place" v="locality" />
		<tag k="ssr:stedsnr" v="393120" />
	</node>
	<node id="-192901" lat="60.021969445" lon="9.25355833626">
		<tag k="name" v="Torvmyra" />
		<tag k="natural" v="wetland" />
		<tag k="ssr:stedsnr" v="392987" />
	</node>
	<node id="-192751" lat="60.070614451" lon="9.03195514363">
		<tag k="name" v="Viersetmyre" />
		<tag k="natural" v="wetland" />
		<tag k="ssr:stedsnr" v="308702" />
	</node>
	<node id="-193923" lat="59.9925694476" lon="9.39509999135">
		<tag k="name" v="Tjyruhjallmyre" />
		<tag k="natural" v="wetland" />
		<tag k="ssr:stedsnr" v="635992" />
	</node>
	<node id="-194434" lat="60.0093861155" lon="9.40267499972">
		<tag k="name" v="Rundhaugmyre" />
		<tag k="natural" v="wetland" />
		<tag k="ssr:stedsnr" v="939718" />
	</node>
	<node id="-194431" lat="59.9898250002" lon="9.29676110396">
		<tag k="name" v="Deilesmyr" />
		<tag k="natural" v="wetland" />
		<tag k="ssr:stedsnr" v="939568" />
	</node>
	<node id="-194430" lat="60.0702194443" lon="9.12074722341">
		<tag k="landuse" v="meadow" />
		<tag k="name" v="Langkøs" />
		<tag k="ssr:stedsnr" v="939534" />
	</node>
	<node id="-193173" lat="59.9358194406" lon="9.31141945151">
		<tag k="name" v="Køsemyr" />
		<tag k="natural" v="wetland" />
		<tag k="ssr:stedsnr" v="90744" />
	</node>
	<node id="-193404" lat="59.976508335" lon="9.26279722332">
		<tag k="landuse" v="meadow" />
		<tag k="name" v="Mogekøse" />
		<tag k="ssr:stedsnr" v="211937" />
	</node>
	<node id="-193915" lat="60.0373444428" lon="9.31116111958">
		<tag k="historic" v="shieling" />
		<tag k="name" v="Rollagsetre" />
		<tag k="place" v="locality" />
		<tag k="ssr:stedsnr" v="635919" />
	</node>
	<node id="-194426" lat="60.085491665" lon="9.15057221682">
		<tag k="name" v="Diplemyr" />
		<tag k="natural" v="wetland" />
		<tag k="ssr:stedsnr" v="939511" />
	</node>
	<node id="-193912" lat="59.9988972198" lon="9.33672500202">
		<tag k="landuse" v="meadow" />
		<tag k="name" v="Nilsset" />
		<tag k="ssr:stedsnr" v="635879" />
	</node>
	<node id="-193399" lat="59.9104416687" lon="9.31931389325">
		<tag k="name" v="Rundingsmyre" />
		<tag k="natural" v="wetland" />
		<tag k="ssr:stedsnr" v="211868" />
	</node>
	<node id="-192883" lat="60.0460250023" lon="9.23593334203">
		<tag k="landuse" v="meadow" />
		<tag k="name" v="Hesjakøs" />
		<tag k="ssr:stedsnr" v="392148" />
	</node>
	<node id="-194417" lat="60.101680555" lon="9.2322749984">
		<tag k="name" v="Hellevollen" />
		<tag k="place" v="locality" />
		<tag k="ssr:stedsnr" v="939336" />
	</node>
	<node id="-194415" lat="60.1109472245" lon="9.19429999842">
		<tag k="name" v="Langemyr" />
		<tag k="natural" v="wetland" />
		<tag k="ssr:stedsnr" v="939314" />
	</node>
	<node id="-192878" lat="60.0190777773" lon="9.38421389257">
		<tag k="historic" v="shieling" />
		<tag k="name" v="Stakkeli" />
		<tag k="place" v="locality" />
		<tag k="ssr:stedsnr" v="389559" />
	</node>
	<node id="-193387" lat="59.9435833298" lon="9.32322778443">
		<tag k="name" v="Bergemyran" />
		<tag k="natural" v="wetland" />
		<tag k="ssr:stedsnr" v="211773" />
	</node>
	<node id="-193386" lat="59.9301694479" lon="9.30709443577">
		<tag k="historic" v="shieling" />
		<tag k="name" v="Kleiverud heimsetre" />
		<tag k="place" v="locality" />
		<tag k="ssr:stedsnr" v="211748" />
	</node>
	<node id="-194408" lat="60.0528222217" lon="9.25495833267">
		<tag k="name" v="Øvre Dammen" />
		<tag k="natural" v="wetland" />
		<tag k="ssr:stedsnr" v="939185" />
	</node>
	<node id="-193379" lat="60.0054027801" lon="9.31290833035">
		<tag k="landuse" v="meadow" />
		<tag k="name" v="Løtakøs" />
		<tag k="ssr:stedsnr" v="211717" />
	</node>
	<node id="-193378" lat="60.0048194412" lon="9.38932500294">
		<tag k="name" v="Kjørkestein" />
		<tag k="natural" v="stone" />
		<tag k="ssr:stedsnr" v="211700" />
	</node>
	<node id="-193887" lat="60.0455249982" lon="9.3410194393">
		<tag k="name" v="Kalveløkmyran" />
		<tag k="natural" v="wetland" />
		<tag k="ssr:stedsnr" v="635641" />
	</node>
	<node id="-192861" lat="60.0641500007" lon="9.17351667367">
		<tag k="name" v="Slåttemyre" />
		<tag k="natural" v="wetland" />
		<tag k="ssr:stedsnr" v="368670" />
	</node>
	<node id="-194447" lat="60.0349861075" lon="9.25215834189">
		<tag k="name" v="Dammyr" />
		<tag k="natural" v="wetland" />
		<tag k="ssr:stedsnr" v="939834" />
	</node>
	<node id="-193368" lat="60.0720861131" lon="9.07741111471">
		<tag k="landuse" v="meadow" />
		<tag k="name" v="Lågårgardsmyran" />
		<tag k="ssr:stedsnr" v="211487" />
	</node>
	<node id="-193878" lat="59.9855916632" lon="9.24633888535">
		<tag k="name" v="Delesmyr" />
		<tag k="natural" v="wetland" />
		<tag k="ssr:stedsnr" v="635525" />
	</node>
	<node id="-193874" lat="60.1231138901" lon="9.1576111133">
		<tag k="name" v="Buflaten" />
		<tag k="natural" v="wetland" />
		<tag k="ssr:stedsnr" v="635457" />
	</node>
	<node id="-193871" lat="60.0349527785" lon="9.04588888427">
		<tag k="name" v="Høggerudsetermyran" />
		<tag k="natural" v="wetland" />
		<tag k="ssr:stedsnr" v="635420" />
	</node>
	<node id="-193039" lat="60.0877111138" lon="9.16083055615">
		<tag k="name" v="Nysetmyr" />
		<tag k="natural" v="wetland" />
		<tag k="ssr:stedsnr" v="29506" />
	</node>
	<node id="-193356" lat="60.0465361082" lon="9.12350556027">
		<tag k="landuse" v="meadow" />
		<tag k="name" v="Dalerslåtten" />
		<tag k="ssr:stedsnr" v="211275" />
	</node>
	<node id="-193353" lat="60.0520250005" lon="9.23509999639">
		<tag k="name" v="Delesmyr" />
		<tag k="natural" v="wetland" />
		<tag k="ssr:stedsnr" v="211146" />
	</node>
	<node id="-193350" lat="60.0494249995" lon="9.05576111368">
		<tag k="name" v="Hegna" />
		<tag k="place" v="locality" />
		<tag k="ssr:stedsnr" v="211112" />
	</node>
	<node id="-193349" lat="60.0474749998" lon="9.06525000787">
		<tag k="name" v="Storemyr" />
		<tag k="natural" v="wetland" />
		<tag k="ssr:stedsnr" v="211113" />
	</node>
	<node id="-194136" lat="60.0007361073" lon="9.31548334111">
		<tag k="landuse" v="meadow" />
		<tag k="name" v="Køsin" />
		<tag k="ssr:stedsnr" v="757901" />
	</node>
	<node id="-192820" lat="60.007955554" lon="9.38524166969">
		<tag k="name" v="Siljubråtån" />
		<tag k="place" v="locality" />
		<tag k="ssr:stedsnr" v="332916" />
	</node>
	<node id="-192821" lat="59.9685194466" lon="9.33587499927">
		<tag k="name" v="Storekøsmyre" />
		<tag k="natural" v="wetland" />
		<tag k="ssr:stedsnr" v="332927" />
	</node>
	<node id="-193844" lat="60.0882722191" lon="9.14918055581">
		<tag k="name" v="Øygardsmyre" />
		<tag k="natural" v="wetland" />
		<tag k="ssr:stedsnr" v="611695" />
	</node>
	<node id="-192819" lat="59.9926361111" lon="9.35363888434">
		<tag k="name" v="Gamlesetmyre" />
		<tag k="natural" v="wetland" />
		<tag k="ssr:stedsnr" v="332906" />
	</node>
	<node id="-194354" lat="59.9333138902" lon="9.38139166972">
		<tag k="name" v="Liarmyran" />
		<tag k="natural" v="wetland" />
		<tag k="ssr:stedsnr" v="914169" />
	</node>
	<node id="-192816" lat="60.0381944483" lon="9.29324166029">
		<tag k="name" v="Dammyran" />
		<tag k="natural" v="wetland" />
		<tag k="ssr:stedsnr" v="332813" />
	</node>
	<node id="-192813" lat="60.013447221" lon="9.20644999316">
		<tag k="name" v="Storemyr" />
		<tag k="natural" v="wetland" />
		<tag k="ssr:stedsnr" v="332802" />
	</node>
	<node id="-194340" lat="59.9236277802" lon="9.33817222119">
		<tag k="landuse" v="meadow" />
		<tag k="name" v="Engje" />
		<tag k="ssr:stedsnr" v="878906" />
	</node>
	<node id="-194338" lat="59.9723861152" lon="9.36198611394">
		<tag k="historic" v="shieling" />
		<tag k="name" v="Gyltevollen" />
		<tag k="place" v="locality" />
		<tag k="ssr:stedsnr" v="878837" />
	</node>
	<node id="-194336" lat="60.0084749997" lon="9.22337499985">
		<tag k="name" v="Køytemyr" />
		<tag k="natural" v="wetland" />
		<tag k="ssr:stedsnr" v="878834" />
	</node>
	<node id="-194328" lat="60.0017833375" lon="9.29368333356">
		<tag k="name" v="Storemyr" />
		<tag k="natural" v="wetland" />
		<tag k="ssr:stedsnr" v="878803" />
	</node>
	<node id="-194327" lat="59.9446277734" lon="9.31003610292">
		<tag k="landuse" v="meadow" />
		<tag k="name" v="Torsbråtån" />
		<tag k="ssr:stedsnr" v="878800" />
	</node>
	<node id="-194325" lat="59.9271944409" lon="9.30860555456">
		<tag k="historic" v="shieling" />
		<tag k="name" v="Gøyveton" />
		<tag k="place" v="locality" />
		<tag k="ssr:stedsnr" v="878791" />
	</node>
	<node id="-192788" lat="60.0373444428" lon="9.31116111958">
		<tag k="name" v="Fugleleikmyran" />
		<tag k="natural" v="wetland" />
		<tag k="ssr:stedsnr" v="332646" />
	</node>
	<node id="-194322" lat="60.0069666677" lon="9.3527111199">
		<tag k="name" v="Snikjestein" />
		<tag k="natural" v="stone" />
		<tag k="ssr:stedsnr" v="878754" />
	</node>
	<node id="-193296" lat="59.9623555564" lon="9.27303888956">
		<tag k="name" v="Storemyr" />
		<tag k="natural" v="wetland" />
		<tag k="ssr:stedsnr" v="150948" />
	</node>
	<node id="-194319" lat="59.996713891" lon="9.293363896">
		<tag k="name" v="Myre" />
		<tag k="natural" v="wetland" />
		<tag k="ssr:stedsnr" v="878620" />
	</node>
	<node id="-192781" lat="60.0716333344" lon="9.14240277418">
		<tag k="landuse" v="meadow" />
		<tag k="name" v="Solbergkøse" />
		<tag k="ssr:stedsnr" v="332485" />
	</node>
	<node id="-193804" lat="59.9799111079" lon="9.3418944392">
		<tag k="landuse" v="meadow" />
		<tag k="name" v="Myrankøsin" />
		<tag k="ssr:stedsnr" v="575882" />
	</node>
	<node id="-193291" lat="60.0038250039" lon="9.42991111996">
		<tag k="name" v="Steinmyran" />
		<tag k="natural" v="wetland" />
		<tag k="ssr:stedsnr" v="150917" />
	</node>
	<node id="-194314" lat="60.0752138923" lon="9.10562500533">
		<tag k="landuse" v="meadow" />
		<tag k="name" v="Nedre Skavlem" />
		<tag k="ssr:stedsnr" v="878558" />
	</node>
	<node id="-193800" lat="59.9441166689" lon="9.29946389029">
		<tag k="name" v="Tovsrud" />
		<tag k="place" v="locality" />
		<tag k="ssr:stedsnr" v="575811" />
	</node>
	<node id="-194311" lat="60.0990472223" lon="9.19850278088">
		<tag k="name" v="Skjulsmyre" />
		<tag k="natural" v="wetland" />
		<tag k="ssr:stedsnr" v="878452" />
	</node>
	<node id="-193284" lat="59.9579805513" lon="9.32578054685">
		<tag k="historic" v="shieling" />
		<tag k="name" v="Krinkerud" />
		<tag k="place" v="locality" />
		<tag k="ssr:stedsnr" v="150765" />
	</node>
	<node id="-193792" lat="60.0343249972" lon="9.18723055689">
		<tag k="name" v="Lykkja" />
		<tag k="place" v="locality" />
		<tag k="ssr:stedsnr" v="575663" />
	</node>
	<node id="-192895" lat="60.0028944414" lon="9.27955278078">
		<tag k="name" v="Saksemyr" />
		<tag k="natural" v="wetland" />
		<tag k="ssr:stedsnr" v="392809" />
	</node>
	<node id="-194294" lat="60.054603956" lon="9.22283760105">
		<tag k="name" v="Ivarset" />
		<tag k="place" v="locality" />
		<tag k="ssr:stedsnr" v="878165" />
	</node>
	<node id="-194293" lat="60.0487666688" lon="9.22654721426">
		<tag k="landuse" v="meadow" />
		<tag k="name" v="Larsekøs" />
		<tag k="ssr:stedsnr" v="878153" />
	</node>
	<node id="-194292" lat="60.0484083376" lon="9.23800555794">
		<tag k="landuse" v="meadow" />
		<tag k="name" v="Storekøs" />
		<tag k="ssr:stedsnr" v="878151" />
	</node>
	<node id="-194291" lat="60.0336250044" lon="9.00653610922">
		<tag k="name" v="Deveggmyran" />
		<tag k="natural" v="wetland" />
		<tag k="ssr:stedsnr" v="878139" />
	</node>
	<node id="-193775" lat="60.0256083348" lon="9.20682222479">
		<tag k="name" v="Livrud" />
		<tag k="place" v="locality" />
		<tag k="ssr:stedsnr" v="574901" />
	</node>
	<node id="-193773" lat="60.0372694473" lon="9.25293611839">
		<tag k="landuse" v="meadow" />
		<tag k="name" v="Stalskøs" />
		<tag k="ssr:stedsnr" v="574873" />
	</node>
	<node id="-193257" lat="60.0378027764" lon="9.07111944968">
		<tag k="name" v="Raubekkmyr" />
		<tag k="natural" v="wetland" />
		<tag k="ssr:stedsnr" v="150412" />
	</node>
	<node id="-193255" lat="60.0610222198" lon="9.17031389343">
		<tag k="name" v="Helderudkøsmyr" />
		<tag k="natural" v="wetland" />
		<tag k="ssr:stedsnr" v="150319" />
	</node>
	<node id="-194277" lat="60.0745749997" lon="9.16016667536">
		<tag k="name" v="Fremstemyr" />
		<tag k="natural" v="wetland" />
		<tag k="ssr:stedsnr" v="854719" />
	</node>
	<node id="-193252" lat="60.0502722238" lon="9.17910834019">
		<tag k="landuse" v="meadow" />
		<tag k="name" v="Nilskøs" />
		<tag k="ssr:stedsnr" v="150261" />
	</node>
	<node id="-193243" lat="60.0031222217" lon="9.34204166933">
		<tag k="name" v="Bjørkeset" />
		<tag k="place" v="locality" />
		<tag k="ssr:stedsnr" v="149743" />
	</node>
	<node id="-193751" lat="60.0474805511" lon="9.22023054748">
		<tag k="name" v="Sønstrud" />
		<tag k="place" v="locality" />
		<tag k="ssr:stedsnr" v="574166" />
	</node>
	<node id="-193749" lat="60.0459500028" lon="9.22096389121">
		<tag k="name" v="Tranåmyr" />
		<tag k="natural" v="wetland" />
		<tag k="ssr:stedsnr" v="574154" />
	</node>
	<node id="-193748" lat="60.0453944459" lon="9.22895556067">
		<tag k="name" v="Svartemyr" />
		<tag k="natural" v="wetland" />
		<tag k="ssr:stedsnr" v="574151" />
	</node>
	<node id="-192720" lat="59.9954388888" lon="9.35302221783">
		<tag k="historic" v="shieling" />
		<tag k="name" v="Gamleset" />
		<tag k="place" v="locality" />
		<tag k="ssr:stedsnr" v="272907" />
	</node>
	<node id="-193400" lat="59.9857366073" lon="9.34497378404">
		<tag k="landuse" v="meadow" />
		<tag k="name" v="Torsplassen" />
		<tag k="ssr:stedsnr" v="211891" />
	</node>
	<node id="-192716" lat="59.9925305516" lon="9.30778332824">
		<tag k="name" v="Narvekøsmyran" />
		<tag k="natural" v="wetland" />
		<tag k="ssr:stedsnr" v="272863" />
	</node>
	<node id="-192802" lat="60.0121083309" lon="9.13540000632">
		<tag k="historic" v="shieling" />
		<tag k="name" v="Plassevollen" />
		<tag k="place" v="locality" />
		<tag k="ssr:stedsnr" v="332730" />
	</node>
	<node id="-192710" lat="59.9541666705" lon="9.28547500609">
		<tag k="landuse" v="meadow" />
		<tag k="name" v="Liarkøs" />
		<tag k="ssr:stedsnr" v="272801" />
	</node>
	<node id="-192703" lat="59.9173916672" lon="9.34807777887">
		<tag k="landuse" v="meadow" />
		<tag k="name" v="Hellengje" />
		<tag k="ssr:stedsnr" v="272717" />
	</node>
	<node id="-194238" lat="59.9880361107" lon="9.4273555602">
		<tag k="name" v="Korsfurumyran" />
		<tag k="natural" v="wetland" />
		<tag k="ssr:stedsnr" v="818996" />
	</node>
	<node id="-193715" lat="60.0911166628" lon="9.185149992">
		<tag k="name" v="Flottmyre" />
		<tag k="natural" v="wetland" />
		<tag k="ssr:stedsnr" v="550685" />
	</node>
	<node id="-192689" lat="60.0569944454" lon="9.18237500145">
		<tag k="name" v="Danielsrud" />
		<tag k="place" v="locality" />
		<tag k="ssr:stedsnr" v="272310" />
	</node>
	<node id="-192687" lat="60.047661111" lon="9.17134445185">
		<tag k="name" v="Tolvmålåkeren" />
		<tag k="place" v="locality" />
		<tag k="ssr:stedsnr" v="272293" />
	</node>
	<node id="-192686" lat="60.0658194439" lon="9.18914166674">
		<tag k="name" v="Nedre Kalvemyr" />
		<tag k="natural" v="wetland" />
		<tag k="ssr:stedsnr" v="272285" />
	</node>
	<node id="-192681" lat="59.9603277741" lon="9.21749167048">
		<tag k="historic" v="shieling" />
		<tag k="name" v="Landsverkvollen" />
		<tag k="old_name" v="Landsværksætre;Landsverk" />
		<tag k="place" v="locality" />
		<tag k="ssr:stedsnr" v="272000" />
	</node>
	<node id="-192678" lat="60.0387305558" lon="9.19679167472">
		<tag k="name" v="Putten" />
		<tag k="place" v="locality" />
		<tag k="ssr:stedsnr" v="271881" />
	</node>
	<node id="-194209" lat="60.0780111076" lon="9.1844416754">
		<tag k="name" v="Langemyr" />
		<tag k="natural" v="wetland" />
		<tag k="ssr:stedsnr" v="818508" />
	</node>
	<node id="-193181" lat="59.9675861095" lon="9.3383722247">
		<tag k="landuse" v="meadow" />
		<tag k="name" v="Storekøslie" />
		<tag k="ssr:stedsnr" v="90928" />
	</node>
	<node id="-194204" lat="60.0633777751" lon="9.17600832492">
		<tag k="name" v="Mogenmyre" />
		<tag k="natural" v="wetland" />
		<tag k="ssr:stedsnr" v="818323" />
	</node>
	<node id="-193179" lat="59.9830305543" lon="9.3236416679">
		<tag k="name" v="Diplemyr" />
		<tag k="natural" v="wetland" />
		<tag k="ssr:stedsnr" v="90887" />
	</node>
	<node id="-193178" lat="59.9254527757" lon="9.33920555502">
		<tag k="name" v="Labben" />
		<tag k="place" v="locality" />
		<tag k="ssr:stedsnr" v="90861" />
	</node>
	<node id="-193177" lat="59.9664666684" lon="9.3981944465">
		<tag k="name" v="Kløvsteinmyran" />
		<tag k="natural" v="wetland" />
		<tag k="ssr:stedsnr" v="90788" />
	</node>
	<node id="-193685" lat="59.9786527811" lon="9.42668610787">
		<tag k="historic" v="shieling" />
		<tag k="name" v="Hellevollane" />
		<tag k="place" v="locality" />
		<tag k="ssr:stedsnr" v="514993" />
	</node>
	<node id="-193682" lat="59.9810666655" lon="9.32337221868">
		<tag k="name" v="Småmyran" />
		<tag k="natural" v="wetland" />
		<tag k="ssr:stedsnr" v="514889" />
	</node>
	<node id="-194193" lat="60.0058972216" lon="9.19032777776">
		<tag k="name" v="Bjørnemyran" />
		<tag k="natural" v="wetland" />
		<tag k="ssr:stedsnr" v="817848" />
	</node>
	<node id="-192656" lat="60.0494749992" lon="9.04553055836">
		<tag k="name" v="Diplemyr" />
		<tag k="natural" v="wetland" />
		<tag k="ssr:stedsnr" v="271130" />
	</node>
	<node id="-194191" lat="60.0161761931" lon="9.38850730655">
		<tag k="name" v="Ånestjønnmyre" />
		<tag k="natural" v="wetland" />
		<tag k="ssr:stedsnr" v="817732" />
	</node>
	<node id="-192791" lat="60.0335361147" lon="9.10064999411">
		<tag k="name" v="Lienmyr" />
		<tag k="natural" v="wetland" />
		<tag k="ssr:stedsnr" v="332654" />
	</node>
	<node id="-192879" lat="60.0262472223" lon="9.36035832563">
		<tag k="historic" v="shieling" />
		<tag k="name" v="Gamlevollsetre" />
		<tag k="place" v="locality" />
		<tag k="ssr:stedsnr" v="389564" />
	</node>
	<node id="-193671" lat="60.0440249984" lon="9.19661666924">
		<tag k="name" v="Årud" />
		<tag k="place" v="locality" />
		<tag k="ssr:stedsnr" v="514811" />
	</node>
	<node id="-193666" lat="59.95383222" lon="9.3089454611">
		<tag k="landuse" v="meadow" />
		<tag k="name" v="Stuvengje" />
		<tag k="ssr:stedsnr" v="514777" />
	</node>
	<node id="-193662" lat="60.0123499956" lon="9.2710916599">
		<tag k="name" v="Kalvedokken" />
		<tag k="place" v="locality" />
		<tag k="ssr:stedsnr" v="514753" />
	</node>
	<node id="-193149" lat="60.0386500027" lon="9.2547111119">
		<tag k="landuse" v="meadow" />
		<tag k="name" v="Hengekøs" />
		<tag k="ssr:stedsnr" v="89842" />
	</node>
	<node id="-193146" lat="60.0062472179" lon="9.27487499759">
		<tag k="name" v="Deilesmyr" />
		<tag k="natural" v="wetland" />
		<tag k="ssr:stedsnr" v="89782" />
	</node>
	<node id="-193144" lat="60.0016361104" lon="9.31371667312">
		<tag k="landuse" v="meadow" />
		<tag k="name" v="Skørrakøs" />
		<tag k="ssr:stedsnr" v="89749" />
	</node>
	<node id="-194324" lat="60.0165250029" lon="9.286930564">
		<tag k="landuse" v="meadow" />
		<tag k="name" v="Vårfjøskøse" />
		<tag k="ssr:stedsnr" v="878784" />
	</node>
	<node id="-193653" lat="60.0396249971" lon="9.11856111617">
		<tag k="name" v="Rukøset" />
		<tag k="place" v="locality" />
		<tag k="ssr:stedsnr" v="514675" />
	</node>
	<node id="-192702" lat="60.0107333331" lon="9.15317222697">
		<tag k="name" v="Klasehågån" />
		<tag k="place" v="locality" />
		<tag k="ssr:stedsnr" v="272687" />
	</node>
	<node id="-193649" lat="60.0006833352" lon="9.29972778346">
		<tag k="landuse" v="meadow" />
		<tag k="name" v="Surtekøsåsen" />
		<tag k="ssr:stedsnr" v="514592" />
	</node>
	<node id="-193132" lat="60.0283527778" lon="9.24258610946">
		<tag k="name" v="Langemyr" />
		<tag k="natural" v="wetland" />
		<tag k="ssr:stedsnr" v="89252" />
	</node>
	<node id="-193643" lat="60.138430553" lon="9.1828583364">
		<tag k="landuse" v="meadow" />
		<tag k="name" v="Hovdekøse" />
		<tag k="ssr:stedsnr" v="514450" />
	</node>
	<node id="-193641" lat="60.0481472252" lon="9.16931111509">
		<tag k="landuse" v="meadow" />
		<tag k="name" v="Nylende" />
		<tag k="ssr:stedsnr" v="514341" />
	</node>
	<node id="-193128" lat="60.0535388912" lon="9.19859166615">
		<tag k="landuse" v="meadow" />
		<tag k="name" v="Djupedalskøse" />
		<tag k="ssr:stedsnr" v="89170" />
	</node>
	<node id="-193639" lat="60.0498750015" lon="9.09001667393">
		<tag k="name" v="Hallingsetmyre" />
		<tag k="natural" v="wetland" />
		<tag k="ssr:stedsnr" v="514302" />
	</node>
	<node id="-193808" lat="59.9963388879" lon="9.44324444648">
		<tag k="name" v="Bjørnestein" />
		<tag k="natural" v="stone" />
		<tag k="ssr:stedsnr" v="575972" />
	</node>
	<node id="-194140" lat="59.9703527782" lon="9.35664444305">
		<tag k="name" v="Kjommesetermyre" />
		<tag k="natural" v="wetland" />
		<tag k="ssr:stedsnr" v="757946" />
	</node>
	<node id="-194139" lat="59.9740444468" lon="9.32260000637">
		<tag k="name" v="Hestemyr" />
		<tag k="natural" v="wetland" />
		<tag k="ssr:stedsnr" v="757942" />
	</node>
	<node id="-193406" lat="59.9753000031" lon="9.35148610643">
		<tag k="landuse" v="meadow" />
		<tag k="name" v="Køsin" />
		<tag k="ssr:stedsnr" v="211942" />
	</node>
	<node id="-194137" lat="59.9875499966" lon="9.35780833795">
		<tag k="name" v="Goplemyr" />
		<tag k="natural" v="wetland" />
		<tag k="ssr:stedsnr" v="757914" />
	</node>
	<node id="-193914" lat="59.9916277821" lon="9.34914722661">
		<tag k="historic" v="shieling" />
		<tag k="name" v="Lilleset" />
		<tag k="place" v="locality" />
		<tag k="ssr:stedsnr" v="635915" />
	</node>
	<node id="-194135" lat="59.9821027791" lon="9.31901110803">
		<tag k="name" v="Veamyr" />
		<tag k="natural" v="wetland" />
		<tag k="ssr:stedsnr" v="757894" />
	</node>
	<node id="-194133" lat="59.985116669" lon="9.32948611216">
		<tag k="name" v="Storemyr" />
		<tag k="natural" v="wetland" />
		<tag k="ssr:stedsnr" v="757889" />
	</node>
	<node id="-194129" lat="59.9434055534" lon="9.31404445168">
		<tag k="name" v="Brumsdalsmyran" />
		<tag k="natural" v="wetland" />
		<tag k="ssr:stedsnr" v="757770" />
	</node>
	<node id="-192911" lat="60.0346777743" lon="9.0413083296">
		<tag k="name" v="Høggerudseteråe" />
		<tag k="natural" v="wetland" />
		<tag k="ssr:stedsnr" v="393412" />
	</node>
	<node id="-194120" lat="60.0347555519" lon="9.15568332961">
		<tag k="landuse" v="meadow" />
		<tag k="name" v="Steinkøse" />
		<tag k="ssr:stedsnr" v="757619" />
	</node>
	<node id="-194115" lat="60.0870944464" lon="9.18774999251">
		<tag k="name" v="Slåttemyr" />
		<tag k="natural" v="wetland" />
		<tag k="ssr:stedsnr" v="757491" />
	</node>
	<node id="-194107" lat="60.0550166641" lon="9.20351110424">
		<tag k="name" v="Rismyr" />
		<tag k="natural" v="wetland" />
		<tag k="ssr:stedsnr" v="757139" />
	</node>
	<node id="-193631" lat="60.0518333296" lon="9.24277778146">
		<tag k="name" v="Dammyr" />
		<tag k="natural" v="wetland" />
		<tag k="ssr:stedsnr" v="514158" />
	</node>
	<node id="-194101" lat="60.0053111083" lon="9.29103611778">
		<tag k="name" v="Styggemyr" />
		<tag k="natural" v="wetland" />
		<tag k="ssr:stedsnr" v="756813" />
	</node>
	<node id="-194091" lat="60.0660000044" lon="9.06166111701">
		<tag k="name" v="Storemyran" />
		<tag k="natural" v="wetland" />
		<tag k="ssr:stedsnr" v="733698" />
	</node>
	<node id="-193065" lat="59.9228722217" lon="9.24960278355">
		<tag k="historic" v="shieling" />
		<tag k="name" v="Sørset" />
		<tag k="place" v="locality" />
		<tag k="ssr:stedsnr" v="29789" />
	</node>
	<node id="-193628" lat="60.0674138865" lon="9.18978888915">
		<tag k="name" v="Øvre Kalvemyr" />
		<tag k="natural" v="wetland" />
		<tag k="ssr:stedsnr" v="514116" />
	</node>
	<node id="-193061" lat="59.9332527773" lon="9.33046943741">
		<tag k="landuse" v="meadow" />
		<tag k="name" v="Bakke" />
		<tag k="ssr:stedsnr" v="29771" />
	</node>
	<node id="-193051" lat="60.0385194477" lon="9.12521388722">
		<tag k="name" v="Lyuflate" />
		<tag k="place" v="locality" />
		<tag k="ssr:stedsnr" v="29664" />
	</node>
	<node id="-193562" lat="59.958605557" lon="9.34361111761">
		<tag k="name" v="Bleikemyr" />
		<tag k="natural" v="wetland" />
		<tag k="ssr:stedsnr" v="454944" />
	</node>
	<node id="-193560" lat="59.9880305534" lon="9.34388333616">
		<tag k="landuse" v="meadow" />
		<tag k="name" v="Danielskøse" />
		<tag k="ssr:stedsnr" v="454903" />
	</node>
	<node id="-193046" lat="60.0805388886" lon="9.11801110841">
		<tag k="name" v="Svenskemyr" />
		<tag k="natural" v="wetland" />
		<tag k="ssr:stedsnr" v="29492" />
	</node>
	<node id="-193044" lat="60.0570555544" lon="9.18848054797">
		<tag k="name" v="Danielsrudmyran" />
		<tag k="natural" v="wetland" />
		<tag k="old_name" v="Danilelsrudmyran" />
		<tag k="ssr:stedsnr" v="29337" />
	</node>
	<node id="-193041" lat="60.0907833305" lon="9.15276110868">
		<tag k="name" v="Ormemyr" />
		<tag k="natural" v="wetland" />
		<tag k="ssr:stedsnr" v="29515" />
	</node>
	<node id="-193552" lat="59.9165111149" lon="9.35175278179">
		<tag k="landuse" v="meadow" />
		<tag k="name" v="Bjørkengje" />
		<tag k="ssr:stedsnr" v="454777" />
	</node>
	<node id="-193551" lat="60.0138222263" lon="9.16188611042">
		<tag k="name" v="Matmyr" />
		<tag k="natural" v="wetland" />
		<tag k="ssr:stedsnr" v="454754" />
	</node>
	<node id="-193035" lat="60.0822416666" lon="9.20012222572">
		<tag k="name" v="Lislemyr" />
		<tag k="natural" v="wetland" />
		<tag k="ssr:stedsnr" v="29098" />
	</node>
	<node id="-193623" lat="59.9901305539" lon="9.25921388274">
		<tag k="name" v="Lauvhogsten" />
		<tag k="place" v="locality" />
		<tag k="ssr:stedsnr" v="514547" />
	</node>
	<node id="-194051" lat="59.9860555518" lon="9.36580834196">
		<tag k="name" v="Goplemyr" />
		<tag k="natural" v="wetland" />
		<tag k="ssr:stedsnr" v="696986" />
	</node>
</osm>
