<?xml version="1.0" encoding="UTF-8"?>
<osm generator="osmapis" version="0.6">
	<node id="-194452" lat="59.9897420152" lon="9.40157376832">
		<tag k="name" v="Karttjønn" />
		<tag k="natural" v="water" />
		<tag k="ssr:stedsnr" v="939895" />
	</node>
	<node id="-194442" lat="59.9533527809" lon="9.31480554979">
		<tag k="name" v="Lomholmen" />
		<tag k="place" v="islet" />
		<tag k="ssr:stedsnr" v="939789" />
	</node>
	<node id="-194441" lat="59.9350833299" lon="9.28276111206">
		<tag k="name" v="Søysetfossen" />
		<tag k="natural" v="waterfall" />
		<tag k="ssr:stedsnr" v="939787" />
	</node>
	<node id="-194439" lat="60.0080666681" lon="9.26843332499">
		<tag k="name" v="Fetjantjønn" />
		<tag k="natural" v="water" />
		<tag k="ssr:stedsnr" v="939764" />
	</node>
	<node id="-194437" lat="60.0054180747" lon="9.27524308038">
		<tag k="name" v="Rykkintjønn" />
		<tag k="natural" v="water" />
		<tag k="ssr:stedsnr" v="939760" />
	</node>
	<node id="-194435" lat="60.0151305546" lon="9.08639443912">
		<tag k="name" v="Soterudbekken" />
		<tag k="ssr:stedsnr" v="939731" />
		<tag k="waterway" v="stream" />
	</node>
	<node id="-194432" lat="59.9912638925" lon="9.28065555571">
		<tag k="name" v="Deilesrabben" />
		<tag k="natural" v="cape" />
		<tag k="ssr:stedsnr" v="939572" />
	</node>
	<node id="-194422" lat="60.125411111" lon="9.1592277802">
		<tag k="name" v="Fremstetjønnbekken" />
		<tag k="ssr:stedsnr" v="939472" />
		<tag k="waterway" v="stream" />
	</node>
	<node id="-194410" lat="60.0522866156" lon="9.27140506862">
		<tag k="name" v="Repetjønnan" />
		<tag k="natural" v="water" />
		<tag k="ssr:stedsnr" v="939191" />
	</node>
	<node id="-194405" lat="60.0530000028" lon="9.22311667283">
		<tag k="name" v="Brøtningsbekken" />
		<tag k="ssr:stedsnr" v="939143" />
		<tag k="waterway" v="stream" />
	</node>
	<node id="-194401" lat="60.0793722223" lon="9.27022221677">
		<tag k="name" v="Ambjørgstjønn" />
		<tag k="natural" v="water" />
		<tag k="ssr:stedsnr" v="939103" />
	</node>
	<node id="-194400" lat="60.0802879574" lon="9.27492514139">
		<tag k="name" v="Svartetjønn" />
		<tag k="natural" v="water" />
		<tag k="ssr:stedsnr" v="939100" />
	</node>
	<node id="-194398" lat="60.0146499989" lon="9.11752777534">
		<tag k="name" v="Langelibekken" />
		<tag k="ssr:stedsnr" v="939668" />
		<tag k="waterway" v="stream" />
	</node>
	<node id="-194397" lat="60.0395555556" lon="9.08796666066">
		<tag k="name" v="Stakkestubekken" />
		<tag k="ssr:stedsnr" v="939661" />
		<tag k="waterway" v="stream" />
	</node>
	<node id="-194394" lat="60.0125277747" lon="9.27391389171">
		<tag k="name" v="Vierholmen" />
		<tag k="place" v="islet" />
		<tag k="ssr:stedsnr" v="935542" />
	</node>
	<node id="-194393" lat="60.0060722218" lon="9.27015555249">
		<tag k="name" v="Vårvikøy" />
		<tag k="place" v="island" />
		<tag k="ssr:stedsnr" v="935540" />
	</node>
	<node id="-194389" lat="60.0693473739" lon="9.16343365227">
		<tag k="name" v="Damtjønn" />
		<tag k="natural" v="water" />
		<tag k="ssr:stedsnr" v="915717" />
	</node>
	<node id="-194388" lat="60.071594014" lon="9.15891315301">
		<tag k="name" v="Dipilen" />
		<tag k="natural" v="water" />
		<tag k="ssr:stedsnr" v="915714" />
	</node>
	<node id="-194387" lat="60.0736361586" lon="8.98387510078">
		<tag k="name" v="Rusttjønn" />
		<tag k="natural" v="water" />
		<tag k="ssr:stedsnr" v="915704" />
	</node>
	<node id="-194383" lat="60.1357671188" lon="9.21665999529">
		<tag k="alt_name" v="Blåtjørnan" />
		<tag k="name" v="Blåtjønnan" />
		<tag k="natural" v="water" />
		<tag k="ssr:stedsnr" v="915481" />
	</node>
	<node id="-194382" lat="60.119737691" lon="9.22896649245">
		<tag k="name" v="Grasbekktjønnan" />
		<tag k="natural" v="water" />
		<tag k="ssr:stedsnr" v="915364" />
		<tag k="water" v="lake" />
	</node>
	<node id="-194381" lat="60.0078999964" lon="9.10826944536">
		<tag k="name" v="Åkroken" />
		<tag k="place" v="locality" />
		<tag k="ssr:stedsnr" v="915275" />
	</node>
	<node id="-194366" lat="60.0597711545" lon="9.19979666596">
		<tag k="name" v="Leiketjønn" />
		<tag k="natural" v="water" />
		<tag k="ssr:stedsnr" v="914652" />
	</node>
	<node id="-194365" lat="59.9500944093" lon="9.21081684094">
		<tag k="name" v="Øvre Svartetjønn" />
		<tag k="natural" v="water" />
		<tag k="ssr:stedsnr" v="914585" />
	</node>
	<node id="-194362" lat="60.0304777812" lon="9.08354999358">
		<tag k="name" v="Årsetåe" />
		<tag k="ssr:stedsnr" v="914362" />
		<tag k="waterway" v="river" />
	</node>
	<node id="-194358" lat="59.9816147477" lon="9.42072302388">
		<tag k="name" v="Kjommetjønn" />
		<tag k="natural" v="water" />
		<tag k="ssr:stedsnr" v="914295" />
	</node>
	<node id="-194352" lat="59.9433828094" lon="9.24770954904">
		<tag k="name" v="Hugartjønn" />
		<tag k="natural" v="water" />
		<tag k="ssr:stedsnr" v="914146" />
	</node>
	<node id="-194348" lat="59.9405194473" lon="9.14869444044">
		<tag k="name" v="Slaggodden" />
		<tag k="natural" v="cape" />
		<tag k="ssr:stedsnr" v="879582" />
	</node>
	<node id="-194347" lat="60.069880559" lon="9.31260833268">
		<tag k="name" v="Ristjønn" />
		<tag k="natural" v="water" />
		<tag k="ssr:stedsnr" v="879563" />
	</node>
	<node id="-194345" lat="59.9612750044" lon="9.08336111741">
		<tag k="name" v="Kroktjønnbekken" />
		<tag k="ssr:stedsnr" v="879506" />
		<tag k="waterway" v="stream" />
	</node>
	<node id="-194331" lat="59.9566277753" lon="9.30995555792">
		<tag k="name" v="Rudstryken" />
		<tag k="ssr:stedsnr" v="878812" />
		<tag k="waterway" v="rapids" />
	</node>
	<node id="-194320" lat="59.9941833351" lon="9.27634443954">
		<tag k="name" v="Killingfetøy" />
		<tag k="place" v="islet" />
		<tag k="ssr:stedsnr" v="878626" />
	</node>
	<node id="-194318" lat="59.9739222236" lon="9.13092499506">
		<tag k="name" v="Skjerbrekktjønn" />
		<tag k="natural" v="water" />
		<tag k="ssr:stedsnr" v="878604" />
	</node>
	<node id="-194310" lat="60.043963885" lon="9.19053333095">
		<tag k="name" v="Gvamsvikje" />
		<tag k="natural" v="water" />
		<tag k="ssr:stedsnr" v="878376" />
		<tag k="water" v="pond" />
	</node>
	<node id="-194298" lat="60.0399361073" lon="9.22379166843">
		<tag k="name" v="Heggenga" />
		<tag k="natural" v="cape" />
		<tag k="ssr:stedsnr" v="878260" />
	</node>
	<node id="-194289" lat="60.0189750007" lon="9.41520000252">
		<tag k="name" v="Mjøgespol" />
		<tag k="natural" v="strait" />
		<tag k="ssr:stedsnr" v="875543" />
	</node>
	<node id="-194288" lat="59.9870240786" lon="9.22574775985">
		<tag k="name" v="Nedre Trytetjønn" />
		<tag k="natural" v="water" />
		<tag k="ssr:stedsnr" v="875506" />
	</node>
	<node id="-194281" lat="60.0377535948" lon="8.99569981525">
		<tag k="name" v="Tjønngrøtjønn" />
		<tag k="natural" v="water" />
		<tag k="ssr:stedsnr" v="855347" />
	</node>
	<node id="-194280" lat="60.0748499974" lon="9.34059999228">
		<tag k="name" v="Skålavatn" />
		<tag k="natural" v="water" />
		<tag k="ssr:stedsnr" v="855098" />
	</node>
	<node id="-194279" lat="60.0262583313" lon="9.28895277627">
		<tag k="name" v="Nordåe" />
		<tag k="ssr:stedsnr" v="855029" />
		<tag k="waterway" v="stream" />
	</node>
	<node id="-194276" lat="60.0982182753" lon="9.18961044953">
		<tag k="name" v="Igletjønn" />
		<tag k="natural" v="water" />
		<tag k="ssr:stedsnr" v="854690" />
	</node>
	<node id="-194274" lat="60.0916638898" lon="9.11524999573">
		<tag k="name" v="Bratterudfossen" />
		<tag k="natural" v="waterfall" />
		<tag k="ssr:stedsnr" v="854670" />
	</node>
	<node id="-194269" lat="59.9639922004" lon="9.1338471917">
		<tag k="name" v="Fetjantjønn" />
		<tag k="natural" v="water" />
		<tag k="ssr:stedsnr" v="854583" />
	</node>
	<node id="-194264" lat="60.0184805541" lon="9.082752783">
		<tag k="name" v="Fossebrottet" />
		<tag k="natural" v="waterfall" />
		<tag k="ssr:stedsnr" v="854310" />
	</node>
	<node id="-194262" lat="59.9448447876" lon="9.22911302258">
		<tag k="name" v="Deilestjønn" />
		<tag k="natural" v="water" />
		<tag k="ssr:stedsnr" v="854121" />
	</node>
	<node id="-194259" lat="60.0097008512" lon="9.37510024907">
		<tag k="name" v="Holmetjønn" />
		<tag k="natural" v="water" />
		<tag k="ssr:stedsnr" v="854010" />
	</node>
	<node id="-194254" lat="59.989163939" lon="9.45533793499">
		<tag k="name" v="Uksetjønn" />
		<tag k="natural" v="water" />
		<tag k="ssr:stedsnr" v="853289" />
	</node>
	<node id="-194251" lat="59.9806161297" lon="9.36927732653">
		<tag k="name" v="Møretjønn" />
		<tag k="natural" v="water" />
		<tag k="ssr:stedsnr" v="853279" />
	</node>
	<node id="-194248" lat="59.984816666" lon="9.24965277094">
		<tag k="name" v="Ulstadåe" />
		<tag k="ssr:stedsnr" v="853235" />
		<tag k="waterway" v="stream" />
	</node>
	<node id="-194227" lat="59.9789999986" lon="9.30463056233">
		<tag k="name" v="Nesevju" />
		<tag k="natural" v="bay" />
		<tag k="ssr:stedsnr" v="818821" />
	</node>
	<node id="-194219" lat="59.9210227242" lon="9.30239205935">
		<tag k="name" v="Jommetjønn" />
		<tag k="natural" v="water" />
		<tag k="ssr:stedsnr" v="818760" />
	</node>
	<node id="-194218" lat="59.9841777755" lon="9.07354445056">
		<tag k="name" v="Løken" />
		<tag k="ssr:stedsnr" v="818753" />
		<tag k="waterway" v="stream" />
	</node>
	<node id="-194217" lat="59.9906611112" lon="9.15917777937">
		<tag k="name" v="Gygerhølen" />
		<tag k="place" v="locality" />
		<tag k="ssr:stedsnr" v="818711" />
	</node>
	<node id="-194208" lat="60.1192348193" lon="9.19003025537">
		<tag k="name" v="Slåttemyrtjønn" />
		<tag k="natural" v="water" />
		<tag k="ssr:stedsnr" v="818466" />
	</node>
	<node id="-194207" lat="60.1122861141" lon="9.13615556267">
		<tag k="name" v="Skarvetjønnbekken" />
		<tag k="ssr:stedsnr" v="818462" />
		<tag k="waterway" v="stream" />
	</node>
	<node id="-194188" lat="60.0682444455" lon="9.27905000872">
		<tag k="name" v="Sagbekk" />
		<tag k="ssr:stedsnr" v="817105" />
		<tag k="waterway" v="stream" />
	</node>
	<node id="-194180" lat="60.1317013763" lon="9.17303772129">
		<tag k="name" v="Fremstetjønn" />
		<tag k="natural" v="water" />
		<tag k="ssr:stedsnr" v="794489" />
	</node>
	<node id="-194177" lat="60.0723584149" lon="9.33538287278">
		<tag k="name" v="Lonin" />
		<tag k="natural" v="water" />
		<tag k="ssr:stedsnr" v="794081" />
		<tag k="water" v="lake" />
	</node>
	<node id="-194176" lat="59.9992383333" lon="9.21171371144">
		<tag k="name" v="Nysettjønnan" />
		<tag k="natural" v="water" />
		<tag k="ssr:stedsnr" v="793946" />
	</node>
	<node id="-194169" lat="59.9593659879" lon="9.10652233853">
		<tag k="name" v="Molteskarvtjønn" />
		<tag k="natural" v="water" />
		<tag k="ssr:stedsnr" v="793626" />
	</node>
	<node id="-194167" lat="60.1217917829" lon="9.21557206858">
		<tag k="name" v="Skjolbekktjønn" />
		<tag k="natural" v="water" />
		<tag k="ssr:stedsnr" v="793583" />
	</node>
	<node id="-194160" lat="60.0098027804" lon="9.01169166449">
		<tag k="name" v="Gaupetjønn" />
		<tag k="natural" v="water" />
		<tag k="ssr:stedsnr" v="793341" />
	</node>
	<node id="-194158" lat="59.9111027774" lon="9.33127221965">
		<tag k="name" v="Rostadelve" />
		<tag k="ssr:stedsnr" v="793226" />
		<tag k="waterway" v="stream" />
	</node>
	<node id="-194157" lat="60.0571447804" lon="9.36859643823">
		<tag k="loc_name" v="Tråtjønnan" />
		<tag k="name" v="Tråenvatna" />
		<tag k="natural" v="water" />
		<tag k="ssr:stedsnr" v="793074" />
		<tag k="water" v="lake" />
	</node>
	<node id="-194156" lat="60.0526277768" lon="9.32169721541">
		<tag k="name" v="Vomtjønn" />
		<tag k="natural" v="water" />
		<tag k="ssr:stedsnr" v="793068" />
	</node>
	<node id="-194155" lat="60.0413610577" lon="9.39210523789">
		<tag k="name" v="Grunntjønn" />
		<tag k="natural" v="water" />
		<tag k="ssr:stedsnr" v="793055" />
		<tag k="water" v="lake" />
	</node>
	<node id="-194151" lat="59.9801472227" lon="9.18696388061">
		<tag k="name" v="Kravsa" />
		<tag k="ssr:stedsnr" v="792868" />
		<tag k="waterway" v="stream" />
	</node>
	<node id="-194150" lat="59.9716194452" lon="9.41475555629">
		<tag k="name" v="Lauvåstjønn" />
		<tag k="natural" v="water" />
		<tag k="ssr:stedsnr" v="792296" />
	</node>
	<node id="-194146" lat="59.9419444485" lon="9.34891112006">
		<tag k="name" v="Helletjønnelve" />
		<tag k="ssr:stedsnr" v="792164" />
		<tag k="waterway" v="stream" />
	</node>
	<node id="-194141" lat="59.9670694411" lon="9.30845555665">
		<tag k="name" v="Ryggenes" />
		<tag k="natural" v="cape" />
		<tag k="ssr:stedsnr" v="757953" />
	</node>
	<node id="-194130" lat="59.950186114" lon="9.22463056099">
		<tag k="name" v="Mikkelshøl" />
		<tag k="natural" v="bay" />
		<tag k="ssr:stedsnr" v="757777" />
	</node>
	<node id="-194128" lat="59.948894443" lon="9.33864166756">
		<tag k="name" v="Ulvikhølen" />
		<tag k="place" v="locality" />
		<tag k="ssr:stedsnr" v="757768" />
	</node>
	<node id="-194124" lat="60.0093138854" lon="9.16100832997">
		<tag k="name" v="Flåtabekk" />
		<tag k="ssr:stedsnr" v="757715" />
		<tag k="waterway" v="stream" />
	</node>
	<node id="-194119" lat="60.0313333378" lon="9.15773889198">
		<tag k="name" v="Kvennedammen" />
		<tag k="ssr:stedsnr" v="757610" />
		<tag k="waterway" v="dam" />
	</node>
	<node id="-194118" lat="59.9079888868" lon="9.26746665831">
		<tag k="name" v="Sølvtjønnbekken" />
		<tag k="ssr:stedsnr" v="757602" />
		<tag k="waterway" v="stream" />
	</node>
	<node id="-194106" lat="60.0469416684" lon="8.98551666725">
		<tag k="name" v="Killingdaltjønn" />
		<tag k="natural" v="water" />
		<tag k="ssr:stedsnr" v="757119" />
	</node>
	<node id="-194104" lat="60.0742166663" lon="9.26796666322">
		<tag k="name" v="Trollholmen" />
		<tag k="place" v="islet" />
		<tag k="ssr:stedsnr" v="757095" />
	</node>
	<node id="-194096" lat="60.0198749975" lon="9.27186665923">
		<tag k="name" v="Tjuvholmen" />
		<tag k="place" v="islet" />
		<tag k="ssr:stedsnr" v="753490" />
	</node>
	<node id="-194095" lat="60.0021305594" lon="9.27039167445">
		<tag k="name" v="Ulstadøy" />
		<tag k="place" v="island" />
		<tag k="ssr:stedsnr" v="753488" />
	</node>
	<node id="-194087" lat="60.0134500022" lon="9.1499527733">
		<tag k="name" v="Åkroken" />
		<tag k="place" v="locality" />
		<tag k="ssr:stedsnr" v="733316" />
	</node>
	<node id="-194081" lat="60.0215166666" lon="9.33186388323">
		<tag k="name" v="Tverråe" />
		<tag k="ssr:stedsnr" v="733044" />
		<tag k="waterway" v="stream" />
	</node>
	<node id="-194078" lat="59.988910947" lon="9.0697672642">
		<tag k="name" v="Sundtjønn" />
		<tag k="natural" v="water" />
		<tag k="ssr:stedsnr" v="732924" />
		<tag k="water" v="lake" />
	</node>
	<node id="-194077" lat="59.9791844906" lon="9.07336660486">
		<tag k="name" v="Lomtjønn" />
		<tag k="natural" v="water" />
		<tag k="ssr:stedsnr" v="732885" />
	</node>
	<node id="-194075" lat="59.9855895591" lon="9.01202567574">
		<tag k="name" v="Haugetjønn" />
		<tag k="natural" v="water" />
		<tag k="ssr:stedsnr" v="732868" />
	</node>
	<node id="-194073" lat="60.1032361137" lon="9.12250834216">
		<tag k="name" v="Nedre Puttetjønn" />
		<tag k="natural" v="water" />
		<tag k="ssr:stedsnr" v="732578" />
	</node>
	<node id="-194072" lat="60.105327782" lon="9.12820000693">
		<tag k="name" v="Leinetjønn" />
		<tag k="natural" v="water" />
		<tag k="ssr:stedsnr" v="732576" />
	</node>
	<node id="-194070" lat="60.0224138927" lon="9.025608331">
		<tag k="name" v="Mjogetjønn" />
		<tag k="natural" v="water" />
		<tag k="ssr:stedsnr" v="732370" />
	</node>
	<node id="-194068" lat="59.9505333309" lon="9.40903332864">
		<tag k="name" v="Nordre Damtjønn" />
		<tag k="natural" v="water" />
		<tag k="ssr:stedsnr" v="732344" />
		<tag k="water" v="lake" />
	</node>
	<node id="-194060" lat="59.9379864155" lon="9.27378298493">
		<tag k="name" v="Elgstjønn" />
		<tag k="natural" v="water" />
		<tag k="ssr:stedsnr" v="732163" />
		<tag k="water" v="lake" />
	</node>
	<node id="-194058" lat="60.0616215463" lon="9.35591731133">
		<tag k="name" v="Store Øytjønn" />
		<tag k="natural" v="water" />
		<tag k="ssr:stedsnr" v="732093" />
	</node>
	<node id="-194057" lat="60.0611305519" lon="9.31101944024">
		<tag k="name" v="Torbjørnstjønn" />
		<tag k="natural" v="water" />
		<tag k="ssr:stedsnr" v="732092" />
	</node>
	<node id="-194047" lat="60.0390583295" lon="9.39143611791">
		<tag k="name" v="Deilestangen" />
		<tag k="natural" v="cape" />
		<tag k="ssr:stedsnr" v="696938" />
	</node>
	<node id="-194039" lat="59.9227388866" lon="9.36677221472">
		<tag k="name" v="Klopptjønn" />
		<tag k="natural" v="water" />
		<tag k="ssr:stedsnr" v="696852" />
	</node>
	<node id="-194032" lat="59.9376944418" lon="9.2340111024">
		<tag k="name" v="Fyrisetløken" />
		<tag k="place" v="locality" />
		<tag k="ssr:stedsnr" v="696806" />
	</node>
	<node id="-194017" lat="60.004386109" lon="9.26742222202">
		<tag k="name" v="Glitretjønn" />
		<tag k="natural" v="water" />
		<tag k="ssr:stedsnr" v="696759" />
	</node>
	<node id="-194014" lat="60.0030472224" lon="9.25799443941">
		<tag k="name" v="Søre Fetjanbekk" />
		<tag k="ssr:stedsnr" v="696608" />
		<tag k="waterway" v="stream" />
	</node>
	<node id="-194012" lat="59.9766749997" lon="9.13754166075">
		<tag k="name" v="Steintjønnbekken" />
		<tag k="ssr:stedsnr" v="696549" />
		<tag k="waterway" v="stream" />
	</node>
	<node id="-194010" lat="60.1169416682" lon="9.12528888823">
		<tag k="name" v="Nilshøl" />
		<tag k="place" v="locality" />
		<tag k="ssr:stedsnr" v="696500" />
	</node>
	<node id="-194003" lat="59.9891666694" lon="9.05297221361">
		<tag k="name" v="Skomakarbekken" />
		<tag k="ssr:stedsnr" v="696198" />
		<tag k="waterway" v="stream" />
	</node>
	<node id="-193999" lat="59.8932111091" lon="9.24608611076">
		<tag k="name" v="Butjønn" />
		<tag k="natural" v="water" />
		<tag k="ssr:stedsnr" v="696178" />
	</node>
	<node id="-193995" lat="60.1267083373" lon="9.23210555658">
		<tag k="name" v="Harkildsdalelva" />
		<tag k="ssr:stedsnr" v="696317" />
		<tag k="waterway" v="stream" />
	</node>
	<node id="-193993" lat="60.1138333303" lon="9.23377221556">
		<tag k="name" v="Rovetjønn" />
		<tag k="natural" v="water" />
		<tag k="ssr:stedsnr" v="696314" />
	</node>
	<node id="-193992" lat="60.0130361146" lon="9.27699166312">
		<tag k="name" v="Tråholmen" />
		<tag k="place" v="islet" />
		<tag k="ssr:stedsnr" v="693577" />
	</node>
	<node id="-193986" lat="60.079405177" lon="9.21709509712">
		<tag k="name" v="Letjønn" />
		<tag k="natural" v="water" />
		<tag k="ssr:stedsnr" v="672741" />
	</node>
	<node id="-193966" lat="60.0231527779" lon="9.14714722473">
		<tag k="name" v="Medåe" />
		<tag k="ssr:stedsnr" v="672292" />
		<tag k="waterway" v="stream" />
	</node>
	<node id="-193961" lat="60.0439614585" lon="9.3618241026">
		<tag k="name" v="Vardetjønn" />
		<tag k="natural" v="water" />
		<tag k="ssr:stedsnr" v="672058" />
	</node>
	<node id="-193960" lat="60.0454061696" lon="9.32719190268">
		<tag k="name" v="Rollagstjønn" />
		<tag k="natural" v="water" />
		<tag k="ssr:stedsnr" v="672056" />
	</node>
	<node id="-193959" lat="60.032602782" lon="9.40687222955">
		<tag k="name" v="Rebbe" />
		<tag k="natural" v="water" />
		<tag k="ssr:stedsnr" v="672053" />
	</node>
	<node id="-193956" lat="60.0331749992" lon="9.31938889691">
		<tag k="name" v="Søråe" />
		<tag k="ssr:stedsnr" v="672035" />
		<tag k="waterway" v="stream" />
	</node>
	<node id="-193953" lat="60.0128361146" lon="9.25179722819">
		<tag k="name" v="Okseåe" />
		<tag k="ssr:stedsnr" v="672027" />
		<tag k="waterway" v="stream" />
	</node>
	<node id="-193950" lat="59.9983144338" lon="9.01772238816">
		<tag k="name" v="Størrtjønne" />
		<tag k="natural" v="water" />
		<tag k="ssr:stedsnr" v="671911" />
	</node>
	<node id="-193949" lat="59.9762333357" lon="9.07698056176">
		<tag k="name" v="Nordre Vorsetvatn" />
		<tag k="natural" v="water" />
		<tag k="ssr:stedsnr" v="671907" />
	</node>
	<node id="-193948" lat="59.9742811658" lon="9.0382523829">
		<tag k="name" v="Rjupetjønn" />
		<tag k="natural" v="water" />
		<tag k="ssr:stedsnr" v="671897" />
	</node>
	<node id="-193941" lat="59.9587944445" lon="9.17621388056">
		<tag k="name" v="Nysetertjønnan" />
		<tag k="natural" v="water" />
		<tag k="ssr:stedsnr" v="671574" />
	</node>
	<node id="-193940" lat="59.9400849038" lon="9.17266157908">
		<tag k="name" v="Sørkjevatn" />
		<tag k="natural" v="water" />
		<tag k="old_name" v="Sorkje(vandet)" />
		<tag k="ssr:stedsnr" v="671556" />
		<tag k="water" v="lake" />
	</node>
	<node id="-193936" lat="60.1188606405" lon="9.13394674439">
		<tag k="name" v="Markavatnet" />
		<tag k="natural" v="water" />
		<tag k="ssr:stedsnr" v="671540" />
	</node>
	<node id="-193934" lat="59.9655638858" lon="9.27779722286">
		<tag k="name" v="Tinnesbekken" />
		<tag k="ssr:stedsnr" v="671346" />
		<tag k="waterway" v="stream" />
	</node>
	<node id="-193929" lat="59.9238605671" lon="9.26267424638">
		<tag k="name" v="Fiskeløysen" />
		<tag k="natural" v="water" />
		<tag k="ssr:stedsnr" v="671163" />
	</node>
	<node id="-193908" lat="59.9032500032" lon="9.30033055686">
		<tag k="name" v="Løken" />
		<tag k="place" v="locality" />
		<tag k="ssr:stedsnr" v="635843" />
	</node>
	<node id="-193899" lat="59.91418611" lon="9.30125555804">
		<tag k="name" v="Svarttjønn" />
		<tag k="natural" v="water" />
		<tag k="ssr:stedsnr" v="635775" />
	</node>
	<node id="-193892" lat="60.0082166663" lon="9.39606110479">
		<tag k="loc_name" v="Bjergebekken" />
		<tag k="name" v="Bjørgebekken" />
		<tag k="ssr:stedsnr" v="635704" />
		<tag k="waterway" v="stream" />
	</node>
	<node id="-193891" lat="60.0117749995" lon="9.40599443756">
		<tag k="name" v="Løken" />
		<tag k="ssr:stedsnr" v="635702" />
		<tag k="waterway" v="stream" />
	</node>
	<node id="-193889" lat="60.0316472264" lon="9.16511945034">
		<tag k="name" v="Langebakkbekken" />
		<tag k="ssr:stedsnr" v="635670" />
		<tag k="waterway" v="stream" />
	</node>
	<node id="-193885" lat="60.0334805526" lon="9.12083056003">
		<tag k="name" v="Høgrudbekken" />
		<tag k="ssr:stedsnr" v="635635" />
		<tag k="waterway" v="stream" />
	</node>
	<node id="-193876" lat="60.0830472216" lon="9.14636388386">
		<tag k="name" v="Hegnebekken" />
		<tag k="ssr:stedsnr" v="635495" />
		<tag k="waterway" v="stream" />
	</node>
	<node id="-193869" lat="60.0532039382" lon="9.37183187531">
		<tag k="name" v="Nedre Tråtjønn" />
		<tag k="natural" v="water" />
		<tag k="ssr:stedsnr" v="635391" />
	</node>
	<node id="-193868" lat="60.0919634147" lon="9.25999832267">
		<tag k="name" v="Nedre Bekartjønn" />
		<tag k="natural" v="water" />
		<tag k="ssr:stedsnr" v="635389" />
	</node>
	<node id="-193862" lat="60.0382583346" lon="9.23049721975">
		<tag k="name" v="Sundholmen" />
		<tag k="place" v="islet" />
		<tag k="ssr:stedsnr" v="635222" />
	</node>
	<node id="-193857" lat="60.0549277764" lon="9.28098888032">
		<tag k="name" v="Pipetjønn" />
		<tag k="natural" v="water" />
		<tag k="ssr:stedsnr" v="635164" />
	</node>
	<node id="-193853" lat="60.070516663" lon="9.26689722959">
		<tag k="name" v="Løytnantsholmen" />
		<tag k="place" v="islet" />
		<tag k="ssr:stedsnr" v="635092" />
	</node>
	<node id="-193852" lat="59.9437777775" lon="9.18832778449">
		<tag k="name" v="Sagbekken" />
		<tag k="ssr:stedsnr" v="632549" />
		<tag k="waterway" v="stream" />
	</node>
	<node id="-193845" lat="60.0856388894" lon="9.16523610608">
		<tag k="name" v="Djupedalsbekken" />
		<tag k="ssr:stedsnr" v="611697" />
		<tag k="waterway" v="stream" />
	</node>
	<node id="-193841" lat="60.0380250018" lon="9.06098610778">
		<tag k="name" v="Persbuåe" />
		<tag k="ssr:stedsnr" v="611657" />
		<tag k="waterway" v="stream" />
	</node>
	<node id="-193839" lat="60.1073495935" lon="9.12391024262">
		<tag k="name" v="Øvre Puttetjønn" />
		<tag k="natural" v="water" />
		<tag k="ssr:stedsnr" v="611540" />
	</node>
	<node id="-193835" lat="60.0183611093" lon="9.0797194463">
		<tag k="name" v="Hekanåe" />
		<tag k="ssr:stedsnr" v="611344" />
		<tag k="waterway" v="river" />
	</node>
	<node id="-193834" lat="60.0105555571" lon="9.02169999856">
		<tag k="name" v="Votndalsvatn" />
		<tag k="natural" v="water" />
		<tag k="ssr:stedsnr" v="611343" />
	</node>
	<node id="-193833" lat="60.0156395975" lon="8.99322769798">
		<tag k="name" v="Rjupetjønn" />
		<tag k="natural" v="water" />
		<tag k="ssr:stedsnr" v="611307" />
	</node>
	<node id="-193832" lat="60.0092645802" lon="9.05785739973">
		<tag k="name" v="Søre Svarteløken" />
		<tag k="natural" v="water" />
		<tag k="ssr:stedsnr" v="611286" />
	</node>
	<node id="-193828" lat="60.0691897153" lon="9.26739924134">
		<tag k="name" v="Låkåsetvatnet" />
		<tag k="natural" v="water" />
		<tag k="ssr:stedsnr" v="611085" />
	</node>
	<node id="-193826" lat="60.0268215103" lon="9.36232637835">
		<tag k="name" v="Gamlevolltjønnan" />
		<tag k="natural" v="water" />
		<tag k="ssr:stedsnr" v="611037" />
		<tag k="water" v="lake" />
	</node>
	<node id="-193825" lat="60.0169355287" lon="9.33594016339">
		<tag k="name" v="Søre Geiteskalltjønn" />
		<tag k="natural" v="water" />
		<tag k="ssr:stedsnr" v="611034" />
	</node>
	<node id="-193823" lat="60.0115777751" lon="9.37092785379">
		<tag k="name" v="Langevatn" />
		<tag k="natural" v="water" />
		<tag k="ssr:stedsnr" v="611013" />
	</node>
	<node id="-193822" lat="59.9986444453" lon="9.15239167417">
		<tag k="name" v="Hølaåe" />
		<tag k="ssr:stedsnr" v="610948" />
		<tag k="waterway" v="stream" />
	</node>
	<node id="-193816" lat="59.9752540379" lon="9.43293283815">
		<tag k="name" v="Hagatjønn" />
		<tag k="natural" v="water" />
		<tag k="ssr:stedsnr" v="610353" />
	</node>
	<node id="-193815" lat="59.9915541671" lon="9.38303245167">
		<tag k="name" v="Purketjønn" />
		<tag k="natural" v="water" />
		<tag k="ssr:stedsnr" v="610338" />
	</node>
	<node id="-193801" lat="59.9122222214" lon="9.35023332686">
		<tag k="name" v="Dugurdsholmen" />
		<tag k="place" v="islet" />
		<tag k="ssr:stedsnr" v="575836" />
	</node>
	<node id="-193793" lat="60.0058027819" lon="9.17768889576">
		<tag k="name" v="Halvfartjønn" />
		<tag k="natural" v="water" />
		<tag k="ssr:stedsnr" v="575706" />
	</node>
	<node id="-193790" lat="60.0471472192" lon="9.33245277804">
		<tag k="name" v="Kalveløken" />
		<tag k="ssr:stedsnr" v="575640" />
		<tag k="waterway" v="stream" />
	</node>
	<node id="-193786" lat="60.0764138933" lon="9.12381110945">
		<tag k="name" v="Bogstrandåe" />
		<tag k="ssr:stedsnr" v="575458" />
		<tag k="waterway" v="stream" />
	</node>
	<node id="-193768" lat="60.0026083332" lon="9.20560833194">
		<tag k="name" v="Svartetjønn" />
		<tag k="natural" v="water" />
		<tag k="ssr:stedsnr" v="574855" />
	</node>
	<node id="-193757" lat="60.0684166667" lon="9.22808610385">
		<tag k="name" v="Smørdulp" />
		<tag k="natural" v="water" />
		<tag k="ssr:stedsnr" v="574455" />
		<tag k="water" v="pond" />
	</node>
	<node id="-193746" lat="60.0795472258" lon="9.29462500417">
		<tag k="name" v="Bekartjønn" />
		<tag k="natural" v="water" />
		<tag k="ssr:stedsnr" v="574136" />
	</node>
	<node id="-193740" lat="60.0081055584" lon="9.27497776917">
		<tag k="name" v="Rønningsøy" />
		<tag k="place" v="island" />
		<tag k="ssr:stedsnr" v="571551" />
	</node>
	<node id="-193738" lat="59.9421444477" lon="9.18353055872">
		<tag k="name" v="Matholmen" />
		<tag k="place" v="islet" />
		<tag k="ssr:stedsnr" v="571545" />
	</node>
	<node id="-193733" lat="59.986416666" lon="9.22053333246">
		<tag k="name" v="Øvre Trytetjønn" />
		<tag k="natural" v="water" />
		<tag k="ssr:stedsnr" v="610300" />
	</node>
	<node id="-193732" lat="59.997123371" lon="9.42250369985">
		<tag k="name" v="Elddalstjønn" />
		<tag k="natural" v="water" />
		<tag k="ssr:stedsnr" v="610294" />
	</node>
	<node id="-193725" lat="60.0299805589" lon="9.16825554821">
		<tag k="name" v="Sønsteåe" />
		<tag k="ssr:stedsnr" v="551336" />
		<tag k="waterway" v="stream" />
	</node>
	<node id="-193720" lat="59.9800984511" lon="9.1898245635">
		<tag k="name" v="Kravsetjønn" />
		<tag k="natural" v="water" />
		<tag k="ssr:stedsnr" v="550898" />
	</node>
	<node id="-193719" lat="59.9926591343" lon="9.1811224143">
		<tag k="name" v="Erikstjønn" />
		<tag k="natural" v="water" />
		<tag k="ssr:stedsnr" v="550883" />
	</node>
	<node id="-193718" lat="60.0829833304" lon="9.19778611568">
		<tag k="name" v="Krokbekken" />
		<tag k="ssr:stedsnr" v="550730" />
		<tag k="waterway" v="stream" />
	</node>
	<node id="-193714" lat="60.0904143698" lon="9.1511800846">
		<tag k="name" v="Bogstrandåe" />
		<tag k="ssr:stedsnr" v="550679" />
		<tag k="waterway" v="stream" />
	</node>
	<node id="-193713" lat="60.0462111132" lon="9.04126666532">
		<tag k="name" v="Baklibekken" />
		<tag k="ssr:stedsnr" v="550637" />
		<tag k="waterway" v="stream" />
	</node>
	<node id="-193711" lat="59.9741222266" lon="9.09401388269">
		<tag k="name" v="Lågetjønn" />
		<tag k="natural" v="water" />
		<tag k="ssr:stedsnr" v="550600" />
	</node>
	<node id="-193710" lat="59.9375858082" lon="9.1717629289">
		<tag k="name" v="Moltetangen" />
		<tag k="natural" v="cape" />
		<tag k="ssr:stedsnr" v="550537" />
	</node>
	<node id="-193707" lat="59.9245116238" lon="9.19826177861">
		<tag k="name" v="Nuttjønn" />
		<tag k="natural" v="water" />
		<tag k="ssr:stedsnr" v="550518" />
	</node>
	<node id="-193706" lat="60.0238736183" lon="8.99414880357">
		<tag k="name" v="Søre Daggrøtjønn" />
		<tag k="natural" v="water" />
		<tag k="ssr:stedsnr" v="550356" />
	</node>
	<node id="-193701" lat="59.9129462048" lon="9.31790327542">
		<tag k="name" v="Rundingstjønn" />
		<tag k="natural" v="water" />
		<tag k="ssr:stedsnr" v="550206" />
	</node>
	<node id="-193700" lat="59.9145416669" lon="9.32330555419">
		<tag k="name" v="Liartjønn" />
		<tag k="natural" v="water" />
		<tag k="ssr:stedsnr" v="550205" />
	</node>
	<node id="-193692" lat="59.9761277332" lon="9.42382569016">
		<tag k="name" v="Bukketjønn" />
		<tag k="natural" v="water" />
		<tag k="ssr:stedsnr" v="549297" />
	</node>
	<node id="-193684" lat="59.9830833354" lon="9.36335556034">
		<tag k="name" v="Svartekulp" />
		<tag k="natural" v="water" />
		<tag k="ssr:stedsnr" v="514989" />
	</node>
	<node id="-193679" lat="59.986652779" lon="9.19480832757">
		<tag k="name" v="Jakobstjønnbekken" />
		<tag k="ssr:stedsnr" v="514877" />
		<tag k="waterway" v="stream" />
	</node>
	<node id="-193675" lat="59.9113194457" lon="9.3470777719">
		<tag k="name" v="Vabekk" />
		<tag k="ssr:stedsnr" v="514838" />
		<tag k="waterway" v="stream" />
	</node>
	<node id="-193669" lat="59.953883333" lon="9.29917776972">
		<tag k="name" v="Øvre Løken" />
		<tag k="place" v="locality" />
		<tag k="ssr:stedsnr" v="514805" />
	</node>
	<node id="-193667" lat="59.9272277804" lon="9.21412778064">
		<tag k="name" v="Sandtjønnbekken" />
		<tag k="ssr:stedsnr" v="514778" />
		<tag k="waterway" v="stream" />
	</node>
	<node id="-193665" lat="59.914158331" lon="9.28039167441">
		<tag k="name" v="Haugsetbekken" />
		<tag k="ssr:stedsnr" v="514774" />
		<tag k="waterway" v="stream" />
	</node>
	<node id="-193657" lat="60.0128698854" lon="9.32646373532">
		<tag k="name" v="Narvestjønn" />
		<tag k="natural" v="water" />
		<tag k="ssr:stedsnr" v="514726" />
	</node>
	<node id="-193642" lat="60.0596666681" lon="9.36518333154">
		<tag k="name" v="Øvre Tråtjønn" />
		<tag k="natural" v="water" />
		<tag k="old_name" v="Trøentjern" />
		<tag k="ssr:stedsnr" v="514402" />
	</node>
	<node id="-193634" lat="60.0461638914" lon="9.27901110345">
		<tag k="name" v="Storhovdtjønn" />
		<tag k="natural" v="water" />
		<tag k="ssr:stedsnr" v="514207" />
	</node>
	<node id="-193633" lat="60.058624288" lon="9.19346547842">
		<tag k="name" v="Blommetjønn" />
		<tag k="natural" v="water" />
		<tag k="ssr:stedsnr" v="514176" />
	</node>
	<node id="-193629" lat="60.0835478264" lon="9.29043610392">
		<tag k="name" v="Nysettjønnan" />
		<tag k="natural" v="water" />
		<tag k="ssr:stedsnr" v="514138" />
		<tag k="water" v="lake" />
	</node>
	<node id="-193625" lat="60.0730027819" lon="9.26806110375">
		<tag k="name" v="Østholmen" />
		<tag k="place" v="islet" />
		<tag k="ssr:stedsnr" v="514111" />
	</node>
	<node id="-193624" lat="59.9478416697" lon="9.37926944544">
		<tag k="name" v="Brattvollbekken" />
		<tag k="ssr:stedsnr" v="514762" />
		<tag k="waterway" v="stream" />
	</node>
	<node id="-193621" lat="60.0161555561" lon="9.36316389074">
		<tag k="name" v="Donhølen" />
		<tag k="natural" v="water" />
		<tag k="ssr:stedsnr" v="509364" />
	</node>
	<node id="-193618" lat="60.0673444415" lon="9.02388610822">
		<tag k="name" v="Nordre Ruståe" />
		<tag k="ssr:stedsnr" v="490726" />
		<tag k="waterway" v="stream" />
	</node>
	<node id="-193613" lat="60.0350194431" lon="9.01885278362">
		<tag k="name" v="Deveggbekken" />
		<tag k="ssr:stedsnr" v="490341" />
		<tag k="waterway" v="stream" />
	</node>
	<node id="-193610" lat="60.0196861118" lon="9.04915278089">
		<tag k="name" v="Kjølvassbekken" />
		<tag k="ssr:stedsnr" v="490327" />
		<tag k="waterway" v="stream" />
	</node>
	<node id="-193609" lat="60.0187249967" lon="9.03558333207">
		<tag k="name" v="Trytetjønn" />
		<tag k="natural" v="water" />
		<tag k="ssr:stedsnr" v="490322" />
	</node>
	<node id="-193605" lat="60.0134555585" lon="9.01371944386">
		<tag k="name" v="Surtetjønn" />
		<tag k="natural" v="water" />
		<tag k="ssr:stedsnr" v="490300" />
	</node>
	<node id="-193598" lat="59.9980227266" lon="9.2168166807">
		<tag k="name" v="Elgtjønn" />
		<tag k="natural" v="water" />
		<tag k="ssr:stedsnr" v="489927" />
	</node>
	<node id="-193596" lat="59.9821555521" lon="9.1287444359">
		<tag k="name" v="Skjerbrekkdammen" />
		<tag k="natural" v="water" />
		<tag k="ssr:stedsnr" v="489892" />
	</node>
	<node id="-193594" lat="60.0623999964" lon="9.03525277702">
		<tag k="name" v="Ruståe" />
		<tag k="ssr:stedsnr" v="489686" />
		<tag k="waterway" v="stream" />
	</node>
	<node id="-193590" lat="60.0523024379" lon="9.02629438173">
		<tag k="name" v="Lauvhovdtjønn" />
		<tag k="natural" v="water" />
		<tag k="ssr:stedsnr" v="489671" />
	</node>
	<node id="-193587" lat="59.9661944471" lon="9.09286111537">
		<tag k="name" v="Kroktjønn" />
		<tag k="natural" v="water" />
		<tag k="ssr:stedsnr" v="489627" />
	</node>
	<node id="-193585" lat="60.1090299576" lon="9.21660823647">
		<tag k="name" v="Damtjønn" />
		<tag k="natural" v="water" />
		<tag k="ssr:stedsnr" v="489564" />
	</node>
	<node id="-193583" lat="60.0282388933" lon="9.12066110981">
		<tag k="name" v="Nørdsteåe" />
		<tag k="ssr:stedsnr" v="489368" />
		<tag k="waterway" v="river" />
	</node>
	<node id="-193581" lat="59.9717194483" lon="9.34384444594">
		<tag k="name" v="Kjommeåe" />
		<tag k="ssr:stedsnr" v="489345" />
		<tag k="waterway" v="stream" />
	</node>
	<node id="-193580" lat="59.9849493209" lon="9.37262933286">
		<tag k="name" v="Trytetjønn" />
		<tag k="natural" v="water" />
		<tag k="ssr:stedsnr" v="489316" />
	</node>
	<node id="-193578" lat="59.9929134816" lon="9.22255282987">
		<tag k="name" v="Ståvåfjelltjønn" />
		<tag k="natural" v="water" />
		<tag k="ssr:stedsnr" v="489294" />
	</node>
	<node id="-193575" lat="59.9326777818" lon="9.36023334157">
		<tag k="name" v="Liarbekken" />
		<tag k="ssr:stedsnr" v="489184" />
		<tag k="waterway" v="stream" />
	</node>
	<node id="-193574" lat="59.9339835264" lon="9.24819246024">
		<tag k="name" v="Vestre Hågåtjønn" />
		<tag k="natural" v="water" />
		<tag k="ssr:stedsnr" v="489155" />
	</node>
	<node id="-193573" lat="59.9507499987" lon="9.28917778324">
		<tag k="name" v="Sjåframbekken" />
		<tag k="ssr:stedsnr" v="489152" />
		<tag k="waterway" v="stream" />
	</node>
	<node id="-193569" lat="59.8839276074" lon="9.22068889618">
		<tag k="name" v="Nordre Revlivatn" />
		<tag k="natural" v="water" />
		<tag k="ssr:stedsnr" v="484355" />
	</node>
	<node id="-193561" lat="60.0376777758" lon="9.3983027733">
		<tag k="name" v="Grunntjønnelve" />
		<tag k="ssr:stedsnr" v="454930" />
		<tag k="waterway" v="river" />
	</node>
	<node id="-193557" lat="59.9698388921" lon="9.3651694395">
		<tag k="name" v="Fløtterudtjønn" />
		<tag k="natural" v="water" />
		<tag k="ssr:stedsnr" v="454823" />
	</node>
	<node id="-193554" lat="59.9535888923" lon="9.31092778606">
		<tag k="name" v="Skjærøye" />
		<tag k="place" v="island" />
		<tag k="ssr:stedsnr" v="454811" />
	</node>
	<node id="-193553" lat="59.9522833303" lon="9.31509723007">
		<tag k="name" v="Bergseidelve" />
		<tag k="ssr:stedsnr" v="454799" />
		<tag k="waterway" v="stream" />
	</node>
	<node id="-193542" lat="60.0684055598" lon="9.11959166941">
		<tag k="name" v="Trollhøl" />
		<tag k="place" v="locality" />
		<tag k="ssr:stedsnr" v="454517" />
	</node>
	<node id="-193521" lat="60.0377502729" lon="9.33061049965">
		<tag k="name" v="Åkroken" />
		<tag k="natural" v="water" />
		<tag k="ssr:stedsnr" v="453670" />
		<tag k="water" v="pond" />
	</node>
	<node id="-193515" lat="60.0950166647" lon="9.25527222007">
		<tag k="name" v="Øvre Bekartjønn" />
		<tag k="natural" v="water" />
		<tag k="ssr:stedsnr" v="453385" />
	</node>
	<node id="-193507" lat="60.0699661366" lon="9.18237490881">
		<tag k="name" v="Trytetjønn" />
		<tag k="natural" v="water" />
		<tag k="ssr:stedsnr" v="430720" />
	</node>
	<node id="-193502" lat="60.0768750499" lon="9.25779929615">
		<tag k="name" v="Lislevatn" />
		<tag k="natural" v="water" />
		<tag k="ssr:stedsnr" v="430091" />
	</node>
	<node id="-193499" lat="59.9912888924" lon="9.04285555898">
		<tag k="name" v="Gjermundsetåe" />
		<tag k="ssr:stedsnr" v="429932" />
		<tag k="waterway" v="stream" />
	</node>
	<node id="-193498" lat="59.9914111087" lon="9.10411666805">
		<tag k="name" v="Nirisetbekken" />
		<tag k="ssr:stedsnr" v="429898" />
		<tag k="waterway" v="stream" />
	</node>
	<node id="-193495" lat="60.0947305525" lon="9.13701666997">
		<tag k="name" v="Grasbekktjønn" />
		<tag k="natural" v="water" />
		<tag k="ssr:stedsnr" v="429703" />
	</node>
	<node id="-193492" lat="60.0522666649" lon="9.20803889527">
		<tag k="name" v="Tondra" />
		<tag k="ssr:stedsnr" v="429658" />
		<tag k="waterway" v="river" />
	</node>
	<node id="-193490" lat="60.0581646943" lon="8.99237293527">
		<tag k="name" v="Tveittjønnan" />
		<tag k="natural" v="water" />
		<tag k="ssr:stedsnr" v="429619" />
	</node>
	<node id="-193484" lat="60.1031258261" lon="9.24581264014">
		<tag k="name" v="Langvatn" />
		<tag k="natural" v="water" />
		<tag k="ssr:stedsnr" v="429380" />
	</node>
	<node id="-193483" lat="60.0279917065" lon="9.01852002003">
		<tag k="name" v="Lutegryte" />
		<tag k="natural" v="water" />
		<tag k="ssr:stedsnr" v="429344" />
	</node>
	<node id="-193470" lat="60.0057117192" lon="9.35646993515">
		<tag k="name" v="Bufjelltjønne" />
		<tag k="natural" v="water" />
		<tag k="ssr:stedsnr" v="429008" />
	</node>
	<node id="-193467" lat="59.9696833371" lon="9.27955000017">
		<tag k="name" v="Stærnesbekken" />
		<tag k="old_name" v="Sternes B:" />
		<tag k="ssr:stedsnr" v="428320" />
		<tag k="waterway" v="stream" />
	</node>
	<node id="-193465" lat="59.9780851382" lon="9.38586615106">
		<tag k="name" v="Saupsettjønn" />
		<tag k="natural" v="water" />
		<tag k="ssr:stedsnr" v="428270" />
	</node>
	<node id="-193452" lat="59.993134536" lon="9.01895360196">
		<tag k="name" v="Søre Krokvatnet" />
		<tag k="natural" v="water" />
		<tag k="ssr:stedsnr" v="247906" />
	</node>
	<node id="-193451" lat="59.9739638908" lon="9.06939722635">
		<tag k="name" v="Grunnløken" />
		<tag k="place" v="locality" />
		<tag k="ssr:stedsnr" v="247886" />
	</node>
	<node id="-193446" lat="60.0424944405" lon="9.06125555786">
		<tag k="name" v="Åsmobekk" />
		<tag k="ssr:stedsnr" v="247643" />
		<tag k="waterway" v="stream" />
	</node>
	<node id="-193431" lat="60.0103850581" lon="9.03959015782">
		<tag k="name" v="Nordre Kjølvatn" />
		<tag k="natural" v="water" />
		<tag k="ssr:stedsnr" v="247267" />
	</node>
	<node id="-193430" lat="59.9410028095" lon="9.25377437045">
		<tag k="name" v="Svartekulp" />
		<tag k="natural" v="water" />
		<tag k="ssr:stedsnr" v="247135" />
	</node>
	<node id="-193427" lat="60.0440661697" lon="9.37655679493">
		<tag k="name" v="Grønlitjønn" />
		<tag k="natural" v="water" />
		<tag k="ssr:stedsnr" v="247048" />
	</node>
	<node id="-193425" lat="59.9967611119" lon="9.32408333831">
		<tag k="name" v="Bjørndalsbekken" />
		<tag k="ssr:stedsnr" v="247009" />
		<tag k="waterway" v="stream" />
	</node>
	<node id="-193423" lat="59.98654722" lon="9.20555278492">
		<tag k="name" v="Jakobstjønn" />
		<tag k="natural" v="water" />
		<tag k="ssr:stedsnr" v="246866" />
	</node>
	<node id="-193420" lat="59.9578666648" lon="9.27728888137">
		<tag k="name" v="Ragnhildsrudbekken" />
		<tag k="ssr:stedsnr" v="246312" />
		<tag k="waterway" v="stream" />
	</node>
	<node id="-193417" lat="59.9709305525" lon="9.31964722462">
		<tag k="name" v="Stabbåe" />
		<tag k="ssr:stedsnr" v="246285" />
		<tag k="waterway" v="stream" />
	</node>
	<node id="-193414" lat="59.9886972207" lon="9.30985554698">
		<tag k="name" v="Liåe" />
		<tag k="ssr:stedsnr" v="246260" />
		<tag k="waterway" v="stream" />
	</node>
	<node id="-193412" lat="59.9206935692" lon="9.35543599113">
		<tag k="name" v="Tjønnringen" />
		<tag k="natural" v="water" />
		<tag k="ssr:stedsnr" v="246204" />
	</node>
	<node id="-193396" lat="59.9137555546" lon="9.35159999488">
		<tag k="name" v="Holmen" />
		<tag k="place" v="islet" />
		<tag k="ssr:stedsnr" v="211862" />
	</node>
	<node id="-193391" lat="59.934699998" lon="9.25683056174">
		<tag k="name" v="Østre Hågåtjønn" />
		<tag k="natural" v="water" />
		<tag k="ssr:stedsnr" v="211780" />
	</node>
	<node id="-193381" lat="60.0115166692" lon="9.18470833933">
		<tag k="name" v="Nirisetbekken" />
		<tag k="ssr:stedsnr" v="211722" />
		<tag k="waterway" v="stream" />
	</node>
	<node id="-193374" lat="59.9938472251" lon="9.27524166376">
		<tag k="name" v="Killingfet" />
		<tag k="natural" v="cape" />
		<tag k="ssr:stedsnr" v="211559" />
	</node>
	<node id="-193365" lat="59.9936476779" lon="9.06359494093">
		<tag k="name" v="Kringletjønn" />
		<tag k="natural" v="water" />
		<tag k="ssr:stedsnr" v="211449" />
	</node>
	<node id="-193362" lat="60.0277888878" lon="8.99141388306">
		<tag k="name" v="Daggrøtjønnan" />
		<tag k="natural" v="water" />
		<tag k="ssr:stedsnr" v="211408" />
	</node>
	<node id="-193352" lat="60.0598777792" lon="8.99900278136">
		<tag k="name" v="Tveittjønnbekken" />
		<tag k="ssr:stedsnr" v="211133" />
		<tag k="waterway" v="stream" />
	</node>
	<node id="-193346" lat="60.0681527773" lon="9.26437500208">
		<tag k="name" v="Vestholmen" />
		<tag k="place" v="islet" />
		<tag k="ssr:stedsnr" v="211106" />
	</node>
	<node id="-193345" lat="60.0796972265" lon="9.30151111409">
		<tag k="name" v="Tjønndalstjønnan" />
		<tag k="natural" v="water" />
		<tag k="ssr:stedsnr" v="211099" />
	</node>
	<node id="-193335" lat="60.139466669" lon="9.21105555629">
		<tag k="name" v="Fjellbekk" />
		<tag k="ssr:stedsnr" v="187477" />
		<tag k="waterway" v="stream" />
	</node>
	<node id="-193328" lat="60.0012499997" lon="9.00618611257">
		<tag k="name" v="Ljosvatn" />
		<tag k="natural" v="water" />
		<tag k="ssr:stedsnr" v="186915" />
	</node>
	<node id="-193327" lat="59.9977294292" lon="9.00155046018">
		<tag k="name" v="Austmannbutjønn" />
		<tag k="natural" v="water" />
		<tag k="ssr:stedsnr" v="186912" />
	</node>
	<node id="-193326" lat="60.1024111099" lon="9.20902499889">
		<tag k="name" v="Damtjønnbekken" />
		<tag k="ssr:stedsnr" v="186743" />
		<tag k="waterway" v="stream" />
	</node>
	<node id="-193322" lat="60.0473888909" lon="9.02072222094">
		<tag k="name" v="Lisetåe" />
		<tag k="ssr:stedsnr" v="186676" />
		<tag k="waterway" v="stream" />
	</node>
	<node id="-193321" lat="60.0517517543" lon="8.98436027109">
		<tag k="name" v="Svarttjønn" />
		<tag k="natural" v="water" />
		<tag k="ssr:stedsnr" v="186672" />
	</node>
	<node id="-193317" lat="60.0226944457" lon="9.04141388303">
		<tag k="name" v="Trytetjønnbekken" />
		<tag k="ssr:stedsnr" v="186376" />
		<tag k="waterway" v="stream" />
	</node>
	<node id="-193316" lat="59.8944466397" lon="9.25884122293">
		<tag k="name" v="Fiskeløysen" />
		<tag k="natural" v="water" />
		<tag k="ssr:stedsnr" v="186253" />
		<tag k="water" v="lake" />
	</node>
	<node id="-193315" lat="59.893295068" lon="9.23145221635">
		<tag k="name" v="Kroktjønn" />
		<tag k="natural" v="water" />
		<tag k="ssr:stedsnr" v="186230" />
	</node>
	<node id="-193314" lat="59.9006055572" lon="9.22186110495">
		<tag k="name" v="Kroktjønnbekken" />
		<tag k="ssr:stedsnr" v="186228" />
		<tag k="waterway" v="stream" />
	</node>
	<node id="-193310" lat="59.9159361972" lon="9.29320267315">
		<tag k="name" v="Stabekktjønn" />
		<tag k="natural" v="water" />
		<tag k="ssr:stedsnr" v="186194" />
	</node>
	<node id="-193306" lat="59.9902055576" lon="9.45030000552">
		<tag k="name" v="Ellingstjønnbekken" />
		<tag k="ssr:stedsnr" v="185289" />
		<tag k="waterway" v="stream" />
	</node>
	<node id="-193302" lat="59.9276638922" lon="9.23749443741">
		<tag k="name" v="Skriubekken" />
		<tag k="ssr:stedsnr" v="185143" />
		<tag k="waterway" v="stream" />
	</node>
	<node id="-193289" lat="59.9491926808" lon="9.24358617488">
		<tag k="name" v="Salrudtjønn" />
		<tag k="natural" v="water" />
		<tag k="ssr:stedsnr" v="150798" />
	</node>
	<node id="-193288" lat="59.9421888848" lon="9.18694722678">
		<tag k="name" v="Sindertangen" />
		<tag k="natural" v="cape" />
		<tag k="ssr:stedsnr" v="150776" />
	</node>
	<node id="-193280" lat="59.9350916631" lon="9.3304666686">
		<tag k="name" v="Kvernhusroe" />
		<tag k="natural" v="bay" />
		<tag k="ssr:stedsnr" v="150734" />
	</node>
	<node id="-193273" lat="60.0296722231" lon="9.10643333445">
		<tag k="name" v="Lienbekken" />
		<tag k="ssr:stedsnr" v="150634" />
		<tag k="waterway" v="stream" />
	</node>
	<node id="-193262" lat="59.9808638932" lon="9.29586944939">
		<tag k="name" v="Igletjønn" />
		<tag k="natural" v="water" />
		<tag k="ssr:stedsnr" v="150499" />
	</node>
	<node id="-193258" lat="59.9818362787" lon="9.06513797013">
		<tag k="name" v="Vorsetbekken" />
		<tag k="ssr:stedsnr" v="150443" />
		<tag k="waterway" v="stream" />
	</node>
	<node id="-193242" lat="60.0198038548" lon="9.36378495918">
		<tag k="name" v="Breiva" />
		<tag k="natural" v="water" />
		<tag k="ssr:stedsnr" v="149739" />
	</node>
	<node id="-193240" lat="60.0449083295" lon="9.38556666891">
		<tag k="name" v="Grønlibekken" />
		<tag k="ssr:stedsnr" v="149643" />
		<tag k="waterway" v="stream" />
	</node>
	<node id="-193239" lat="60.0670149378" lon="9.33301978343">
		<tag k="name" v="Dagfisket" />
		<tag k="natural" v="water" />
		<tag k="ssr:stedsnr" v="149630" />
	</node>
	<node id="-193236" lat="60.042799999" lon="9.22790278356">
		<tag k="name" v="Paddevikje" />
		<tag k="natural" v="water" />
		<tag k="ssr:stedsnr" v="149222" />
		<tag k="water" v="lake" />
	</node>
	<node id="-193230" lat="60.0774999958" lon="9.21225555672">
		<tag k="name" v="Letjønnbekken" />
		<tag k="ssr:stedsnr" v="126719" />
		<tag k="waterway" v="stream" />
	</node>
	<node id="-193225" lat="60.0663549735" lon="9.29431719142">
		<tag k="name" v="Myklevatn" />
		<tag k="natural" v="water" />
		<tag k="old_name" v="Myke V." />
		<tag k="ssr:stedsnr" v="126085" />
		<tag k="water" v="lake" />
	</node>
	<node id="-193222" lat="59.9972166647" lon="9.14470555402">
		<tag k="name" v="Helleåe" />
		<tag k="ssr:stedsnr" v="125939" />
		<tag k="waterway" v="stream" />
	</node>
	<node id="-193221" lat="59.9884666666" lon="9.12709444704">
		<tag k="name" v="Skjerbrekka" />
		<tag k="ssr:stedsnr" v="125937" />
		<tag k="waterway" v="stream" />
	</node>
	<node id="-193220" lat="59.9924210665" lon="9.01401738398">
		<tag k="name" v="Nordre Krokvatnet" />
		<tag k="natural" v="water" />
		<tag k="ssr:stedsnr" v="125917" />
	</node>
	<node id="-193215" lat="59.941633336" lon="9.1453916631">
		<tag k="name" v="Breivik" />
		<tag k="natural" v="bay" />
		<tag k="ssr:stedsnr" v="125569" />
	</node>
	<node id="-193210" lat="59.9698803715" lon="9.08156996837">
		<tag k="name" v="Søre Vorsetvatn" />
		<tag k="natural" v="water" />
		<tag k="ssr:stedsnr" v="125630" />
	</node>
	<node id="-193209" lat="59.9704934365" lon="9.09871444797">
		<tag k="name" v="Fjelltjønn" />
		<tag k="natural" v="water" />
		<tag k="ssr:stedsnr" v="125627" />
	</node>
	<node id="-193206" lat="60.1181638851" lon="9.20909722048">
		<tag k="name" v="Skjolbekken" />
		<tag k="ssr:stedsnr" v="125549" />
		<tag k="waterway" v="stream" />
	</node>
	<node id="-193205" lat="60.1106972254" lon="9.14081388323">
		<tag k="name" v="Skarvetjønn" />
		<tag k="natural" v="water" />
		<tag k="ssr:stedsnr" v="125542" />
	</node>
	<node id="-193203" lat="59.9213638777" lon="9.20682264081">
		<tag k="name" v="Sandtjønn" />
		<tag k="natural" v="water" />
		<tag k="ssr:stedsnr" v="125526" />
	</node>
	<node id="-193202" lat="60.0302861114" lon="8.98881388837">
		<tag k="name" v="Nordre Daggrøtjønn" />
		<tag k="natural" v="water" />
		<tag k="ssr:stedsnr" v="125383" />
	</node>
	<node id="-193198" lat="59.9904527733" lon="9.25266389775">
		<tag k="name" v="Sandbekken" />
		<tag k="ssr:stedsnr" v="125286" />
		<tag k="waterway" v="stream" />
	</node>
	<node id="-193194" lat="59.9262111072" lon="9.22447500486">
		<tag k="name" v="Djupedalsbekken" />
		<tag k="ssr:stedsnr" v="125173" />
		<tag k="waterway" v="stream" />
	</node>
	<node id="-193193" lat="59.934502776" lon="9.2224611067">
		<tag k="name" v="Sørkjeåe" />
		<tag k="ssr:stedsnr" v="125150" />
		<tag k="waterway" v="stream" />
	</node>
	<node id="-193189" lat="60.0173583327" lon="9.30653332813">
		<tag k="name" v="Fyrisetbekken" />
		<tag k="ssr:stedsnr" v="125022" />
		<tag k="waterway" v="stream" />
	</node>
	<node id="-193185" lat="59.9921074983" lon="9.37026316323">
		<tag k="name" v="Tjønnesetertjønn" />
		<tag k="natural" v="water" />
		<tag k="ssr:stedsnr" v="125312" />
	</node>
	<node id="-193183" lat="59.9845313918" lon="9.46006607698">
		<tag k="name" v="Ellingstjønn" />
		<tag k="natural" v="water" />
		<tag k="ssr:stedsnr" v="125309" />
	</node>
	<node id="-193171" lat="60.0343416627" lon="9.07734444053">
		<tag k="name" v="Raudbekk" />
		<tag k="ssr:stedsnr" v="90638" />
		<tag k="waterway" v="stream" />
	</node>
	<node id="-193165" lat="59.9918938523" lon="9.0438426774">
		<tag k="name" v="Størrtjønn" />
		<tag k="natural" v="water" />
		<tag k="ssr:stedsnr" v="90430" />
	</node>
	<node id="-193159" lat="59.9756249983" lon="9.05590556267">
		<tag k="name" v="Fjellbekken" />
		<tag k="ssr:stedsnr" v="90153" />
		<tag k="waterway" v="stream" />
	</node>
	<node id="-193154" lat="59.9784055553" lon="9.29960000429">
		<tag k="name" v="Svanesand" />
		<tag k="natural" v="cape" />
		<tag k="ssr:stedsnr" v="89951" />
	</node>
	<node id="-193152" lat="59.9972611121" lon="9.22553055441">
		<tag k="name" v="Ståvåfjellbekken" />
		<tag k="ssr:stedsnr" v="89895" />
		<tag k="waterway" v="stream" />
	</node>
	<node id="-193145" lat="59.9919833325" lon="9.09631667016">
		<tag k="name" v="Skjenholttjønn" />
		<tag k="natural" v="water" />
		<tag k="ssr:stedsnr" v="89771" />
	</node>
	<node id="-193143" lat="60.01698611" lon="9.38754166106">
		<tag k="name" v="Ånestjønn" />
		<tag k="natural" v="water" />
		<tag k="ssr:stedsnr" v="89734" />
		<tag k="water" v="pond" />
	</node>
	<node id="-193124" lat="60.0783416675" lon="9.2492666708">
		<tag k="name" v="Raubekk" />
		<tag k="ssr:stedsnr" v="89134" />
		<tag k="waterway" v="stream" />
	</node>
	<node id="-193122" lat="60.1354083947" lon="9.17908620983">
		<tag k="name" v="Metjønn" />
		<tag k="natural" v="water" />
		<tag k="ssr:stedsnr" v="66475" />
	</node>
	<node id="-193115" lat="59.9957298243" lon="9.15621177338">
		<tag k="name" v="Røynebuvatnet" />
		<tag k="natural" v="water" />
		<tag k="ssr:stedsnr" v="65944" />
	</node>
	<node id="-193114" lat="60.0034363412" lon="9.03887954686">
		<tag k="name" v="Søre Kjølvatn" />
		<tag k="natural" v="water" />
		<tag k="ssr:stedsnr" v="65928" />
	</node>
	<node id="-193113" lat="60.0655777766" lon="9.01029443595">
		<tag k="name" v="Søre Ruståe" />
		<tag k="ssr:stedsnr" v="65719" />
		<tag k="waterway" v="stream" />
	</node>
	<node id="-193103" lat="59.9704638855" lon="9.11170555618">
		<tag k="name" v="Søtelibekken" />
		<tag k="ssr:stedsnr" v="65596" />
		<tag k="waterway" v="stream" />
	</node>
	<node id="-193102" lat="59.9622823744" lon="9.11150081644">
		<tag k="name" v="Søtelitjønn" />
		<tag k="natural" v="water" />
		<tag k="ssr:stedsnr" v="65580" />
	</node>
	<node id="-193100" lat="60.0272895812" lon="9.02194709978">
		<tag k="name" v="Kråkåsløken" />
		<tag k="natural" v="water" />
		<tag k="ssr:stedsnr" v="65349" />
	</node>
	<node id="-193097" lat="59.9402333296" lon="9.37646666755">
		<tag k="name" v="Helletjønnan" />
		<tag k="natural" v="water" />
		<tag k="ssr:stedsnr" v="65115" />
	</node>
	<node id="-193095" lat="60.0536444485" lon="9.35250278542">
		<tag k="name" v="Vesle Øytjønn" />
		<tag k="natural" v="water" />
		<tag k="ssr:stedsnr" v="65055" />
	</node>
	<node id="-193094" lat="60.0146337205" lon="9.34863569278">
		<tag k="name" v="Bikkjetjønnan" />
		<tag k="natural" v="water" />
		<tag k="ssr:stedsnr" v="65025" />
		<tag k="water" v="lake" />
	</node>
	<node id="-193091" lat="59.9597472217" lon="9.25208054868">
		<tag k="name" v="Trihynneelve" />
		<tag k="ssr:stedsnr" v="64325" />
		<tag k="waterway" v="stream" />
	</node>
	<node id="-193080" lat="60.0145749962" lon="9.1981055587">
		<tag k="name" v="Grånåbubekken" />
		<tag k="ssr:stedsnr" v="65260" />
		<tag k="waterway" v="stream" />
	</node>
	<node id="-193072" lat="59.9785111109" lon="9.33563888438">
		<tag k="name" v="Berganbekken" />
		<tag k="ssr:stedsnr" v="29885" />
		<tag k="waterway" v="stream" />
	</node>
	<node id="-193057" lat="60.0191333309" lon="9.14092222814">
		<tag k="name" v="Haugefoss" />
		<tag k="natural" v="waterfall" />
		<tag k="ssr:stedsnr" v="29739" />
	</node>
	<node id="-193042" lat="60.0506785656" lon="9.15321531463">
		<tag k="name" v="Gåsetjønn" />
		<tag k="natural" v="water" />
		<tag k="ssr:stedsnr" v="29330" />
	</node>
	<node id="-193038" lat="60.1378536795" lon="9.18912727484">
		<tag k="name" v="Lensmannslauge" />
		<tag k="natural" v="water" />
		<tag k="ssr:stedsnr" v="29441" />
	</node>
	<node id="-193032" lat="60.0033666624" lon="9.23355278071">
		<tag k="name" v="Stavafjellbekken" />
		<tag k="ssr:stedsnr" v="28851" />
		<tag k="waterway" v="stream" />
	</node>
	<node id="-193019" lat="60.0729499989" lon="9.10216388685">
		<tag k="name" v="Skavlembekken" />
		<tag k="ssr:stedsnr" v="5703" />
		<tag k="waterway" v="stream" />
	</node>
	<node id="-193018" lat="60.1500500021" lon="9.2117777851">
		<tag k="name" v="Repetjønn" />
		<tag k="natural" v="water" />
		<tag k="ssr:stedsnr" v="5503" />
	</node>
	<node id="-193017" lat="60.0084251587" lon="9.00183941113">
		<tag k="name" v="Vestre Ingebjørgtjønn" />
		<tag k="natural" v="water" />
		<tag k="ssr:stedsnr" v="5317" />
	</node>
	<node id="-193012" lat="60.0031333315" lon="9.11723889325">
		<tag k="name" v="Fjordungsbekken" />
		<tag k="ssr:stedsnr" v="4939" />
		<tag k="waterway" v="stream" />
	</node>
	<node id="-193011" lat="59.9876694401" lon="9.04231111573">
		<tag k="name" v="Viergrøbekken" />
		<tag k="ssr:stedsnr" v="4937" />
		<tag k="waterway" v="stream" />
	</node>
	<node id="-193006" lat="60.0910523446" lon="9.13252736714">
		<tag k="name" v="Lomtjønn" />
		<tag k="natural" v="water" />
		<tag k="ssr:stedsnr" v="4696" />
	</node>
	<node id="-193000" lat="59.9693742389" lon="9.14607294266">
		<tag k="name" v="Steintjønn" />
		<tag k="natural" v="water" />
		<tag k="ssr:stedsnr" v="4616" />
	</node>
	<node id="-192999" lat="59.9649723892" lon="9.08383187732">
		<tag k="name" v="Larsetjønn" />
		<tag k="natural" v="water" />
		<tag k="ssr:stedsnr" v="4596" />
	</node>
	<node id="-192995" lat="59.9166833369" lon="9.1961138815">
		<tag k="name" v="Buåe" />
		<tag k="ssr:stedsnr" v="4514" />
		<tag k="waterway" v="stream" />
	</node>
	<node id="-192994" lat="59.9569594839" lon="9.22680141483">
		<tag k="name" v="Trihynnevatnet" />
		<tag k="natural" v="water" />
		<tag k="old_name" v="Trehöine V.;Trehynne" />
		<tag k="ssr:stedsnr" v="4352" />
		<tag k="water" v="lake" />
	</node>
	<node id="-192990" lat="59.9556249975" lon="9.29142221328">
		<tag k="name" v="Vesleåe" />
		<tag k="ssr:stedsnr" v="4336" />
		<tag k="waterway" v="stream" />
	</node>
	<node id="-192979" lat="59.9871222265" lon="9.42099166606">
		<tag k="name" v="Svartekulp" />
		<tag k="place" v="locality" />
		<tag k="ssr:stedsnr" v="3283" />
	</node>
	<node id="-192976" lat="59.9993110047" lon="9.37072668729">
		<tag k="name" v="Svartetjønn" />
		<tag k="natural" v="water" />
		<tag k="ssr:stedsnr" v="3253" />
	</node>
	<node id="-192969" lat="60.1150749971" lon="9.25987221977">
		<tag k="alt_name" v="Grasbekken" />
		<tag k="name" v="Grasbekk" />
		<tag k="ssr:stedsnr" v="368409" />
		<tag k="waterway" v="stream" />
	</node>
	<node id="-192942" lat="59.9770673877" lon="9.29923633162">
		<tag k="loc_name" v="Stærnestjønne" />
		<tag k="name" v="Stærnestjønn" />
		<tag k="natural" v="water" />
		<tag k="ssr:stedsnr" v="393941" />
	</node>
	<node id="-192941" lat="59.9650888893" lon="9.3105305607">
		<tag k="name" v="Kjommeevju" />
		<tag k="natural" v="bay" />
		<tag k="ssr:stedsnr" v="393938" />
	</node>
	<node id="-192934" lat="59.9050416631" lon="9.31885833067">
		<tag k="name" v="Nedre Løken" />
		<tag k="place" v="locality" />
		<tag k="ssr:stedsnr" v="393868" />
	</node>
	<node id="-192918" lat="60.0274000028" lon="9.11364722214">
		<tag k="name" v="Storbekken" />
		<tag k="ssr:stedsnr" v="393638" />
		<tag k="waterway" v="stream" />
	</node>
	<node id="-192917" lat="59.9832083315" lon="9.252511104">
		<tag k="name" v="Trettetjønn" />
		<tag k="natural" v="water" />
		<tag k="ssr:stedsnr" v="393562" />
	</node>
	<node id="-192913" lat="60.0920888931" lon="9.11503056182">
		<tag k="name" v="Helveteshølet" />
		<tag k="place" v="locality" />
		<tag k="ssr:stedsnr" v="393445" />
	</node>
	<node id="-192910" lat="60.0390388894" lon="9.06841667219">
		<tag k="name" v="Raubekk" />
		<tag k="ssr:stedsnr" v="393405" />
		<tag k="waterway" v="stream" />
	</node>
	<node id="-192908" lat="60.0466611146" lon="9.15043054997">
		<tag k="name" v="Mykstufoss" />
		<tag k="natural" v="waterfall" />
		<tag k="ssr:stedsnr" v="393314" />
	</node>
	<node id="-192890" lat="60.0152361092" lon="9.40868333723">
		<tag k="name" v="Brisketjønnan" />
		<tag k="natural" v="water" />
		<tag k="ssr:stedsnr" v="392766" />
	</node>
	<node id="-192888" lat="60.0496194407" lon="9.31545277648">
		<tag k="name" v="Bikkjetjønn" />
		<tag k="natural" v="water" />
		<tag k="ssr:stedsnr" v="392725" />
	</node>
	<node id="-192887" lat="60.0395916677" lon="9.32715833903">
		<tag k="name" v="Vesle Rollagstjønn" />
		<tag k="natural" v="water" />
		<tag k="ssr:stedsnr" v="392707" />
	</node>
	<node id="-192885" lat="60.0884305575" lon="9.23411111208">
		<tag k="name" v="Bikkjetjønn" />
		<tag k="natural" v="water" />
		<tag k="ssr:stedsnr" v="392422" />
	</node>
	<node id="-192882" lat="60.0752555572" lon="9.26402500191">
		<tag k="name" v="Stuttåe" />
		<tag k="ssr:stedsnr" v="392109" />
		<tag k="waterway" v="stream" />
	</node>
	<node id="-192881" lat="60.0148690959" lon="9.36853456788">
		<tag k="name" v="Svartekulp" />
		<tag k="natural" v="water" />
		<tag k="ssr:stedsnr" v="392037" />
	</node>
	<node id="-192877" lat="60.0210444473" lon="9.33879167015">
		<tag k="name" v="Nordre Geiteskalltjønn" />
		<tag k="natural" v="water" />
		<tag k="ssr:stedsnr" v="388378" />
	</node>
	<node id="-192876" lat="60.0799499987" lon="9.19623889611">
		<tag k="name" v="Langvassåe" />
		<tag k="ssr:stedsnr" v="369699" />
		<tag k="waterway" v="river" />
	</node>
	<node id="-192874" lat="60.0690000037" lon="9.11698610856">
		<tag k="name" v="Kjerredammen" />
		<tag k="ssr:stedsnr" v="369688" />
		<tag k="waterway" v="dam" />
	</node>
	<node id="-192869" lat="59.9993000024" lon="9.0858638901">
		<tag k="name" v="Sundtjønnåe" />
		<tag k="ssr:stedsnr" v="369275" />
		<tag k="waterway" v="stream" />
	</node>
	<node id="-192853" lat="60.0182149737" lon="9.01929030587">
		<tag k="name" v="Langevatn" />
		<tag k="natural" v="water" />
		<tag k="ssr:stedsnr" v="368355" />
	</node>
	<node id="-192851" lat="59.9050666626" lon="9.25737499708">
		<tag k="name" v="Sølvtjønn" />
		<tag k="natural" v="water" />
		<tag k="ssr:stedsnr" v="368243" />
	</node>
	<node id="-192844" lat="59.9513166112" lon="9.2140334785">
		<tag k="name" v="Nedre Svartetjønn" />
		<tag k="natural" v="water" />
		<tag k="ssr:stedsnr" v="367524" />
	</node>
	<node id="-192843" lat="59.9718342023" lon="9.3822143435">
		<tag k="name" v="Fagerbutjønn" />
		<tag k="natural" v="water" />
		<tag k="ssr:stedsnr" v="367260" />
	</node>
	<node id="-192842" lat="59.9879436815" lon="9.37657709845">
		<tag k="name" v="Langevatn" />
		<tag k="natural" v="water" />
		<tag k="ssr:stedsnr" v="367243" />
	</node>
	<node id="-192829" lat="59.9636130821" lon="9.41950186124">
		<tag k="name" v="Igletjønn" />
		<tag k="natural" v="water" />
		<tag k="ssr:stedsnr" v="356360" />
	</node>
	<node id="-192825" lat="60.0166000044" lon="9.06103333511">
		<tag k="name" v="Svarteløkbekken" />
		<tag k="ssr:stedsnr" v="126344" />
		<tag k="waterway" v="stream" />
	</node>
	<node id="-192824" lat="60.0095749974" lon="9.00711389673">
		<tag k="name" v="Østre Ingebjørgtjønn" />
		<tag k="natural" v="water" />
		<tag k="ssr:stedsnr" v="126329" />
	</node>
	<node id="-192823" lat="59.9841750015" lon="9.42413611959">
		<tag k="name" v="Vesle Kjommetjønn" />
		<tag k="natural" v="water" />
		<tag k="ssr:stedsnr" v="332992" />
	</node>
	<node id="-192812" lat="60.0193916672" lon="9.2116888838">
		<tag k="name" v="Hekteåe" />
		<tag k="ssr:stedsnr" v="332801" />
		<tag k="waterway" v="stream" />
	</node>
	<node id="-192800" lat="60.0105277758" lon="9.32325278088">
		<tag k="name" v="Ambjørgtjønn" />
		<tag k="natural" v="water" />
		<tag k="ssr:stedsnr" v="332723" />
	</node>
	<node id="-192797" lat="60.0059907209" lon="9.36792810877">
		<tag k="name" v="Barketjønn" />
		<tag k="natural" v="water" />
		<tag k="ssr:stedsnr" v="332713" />
	</node>
	<node id="-192790" lat="60.024980557" lon="9.15264167044">
		<tag k="name" v="Bakkebekken" />
		<tag k="ssr:stedsnr" v="332649" />
		<tag k="waterway" v="stream" />
	</node>
	<node id="-192786" lat="59.9404750024" lon="9.13935555336">
		<tag k="name" v="Breivikbekken" />
		<tag k="ssr:stedsnr" v="332619" />
		<tag k="waterway" v="stream" />
	</node>
	<node id="-192785" lat="59.9902694426" lon="9.28163334007">
		<tag k="name" v="Langetangen" />
		<tag k="natural" v="cape" />
		<tag k="ssr:stedsnr" v="332552" />
	</node>
	<node id="-192779" lat="59.9930305537" lon="9.00750000723">
		<tag k="name" v="Austmannbubekken" />
		<tag k="ssr:stedsnr" v="332436" />
		<tag k="waterway" v="stream" />
	</node>
	<node id="-192774" lat="60.0308009197" lon="9.02731970347">
		<tag k="name" v="Gversettjønn" />
		<tag k="natural" v="water" />
		<tag k="ssr:stedsnr" v="332400" />
	</node>
	<node id="-192763" lat="60.0344602554" lon="9.00662967032">
		<tag k="name" v="Deveggtjønn" />
		<tag k="natural" v="water" />
		<tag k="ssr:stedsnr" v="332102" />
	</node>
	<node id="-192750" lat="60.0927888866" lon="9.1778972215">
		<tag k="name" v="Skriubekken" />
		<tag k="ssr:stedsnr" v="308661" />
		<tag k="waterway" v="stream" />
	</node>
	<node id="-192742" lat="60.0407999982" lon="9.03860554949">
		<tag k="name" v="Svartetjønn" />
		<tag k="natural" v="water" />
		<tag k="ssr:stedsnr" v="307677" />
	</node>
	<node id="-192740" lat="60.1175027805" lon="9.19459999381">
		<tag k="name" v="Langevatn" />
		<tag k="natural" v="water" />
		<tag k="ssr:stedsnr" v="307558" />
	</node>
	<node id="-192739" lat="60.1094694427" lon="9.18491111052">
		<tag k="name" v="Karvetjønn" />
		<tag k="natural" v="water" />
		<tag k="ssr:stedsnr" v="307551" />
	</node>
	<node id="-192737" lat="60.0133472447" lon="9.05622000385">
		<tag k="name" v="Nordre Svarteløken" />
		<tag k="natural" v="water" />
		<tag k="ssr:stedsnr" v="308259" />
	</node>
	<node id="-192736" lat="60.0074416648" lon="9.07262500369">
		<tag k="name" v="Halvfartjønn" />
		<tag k="natural" v="water" />
		<tag k="ssr:stedsnr" v="308256" />
	</node>
	<node id="-192734" lat="59.8905296894" lon="9.25177859504">
		<tag k="name" v="Einarstjønn" />
		<tag k="natural" v="water" />
		<tag k="ssr:stedsnr" v="307289" />
	</node>
	<node id="-192731" lat="59.9622184" lon="9.38504660585">
		<tag k="name" v="Ulvikdamtjønn" />
		<tag k="natural" v="water" />
		<tag k="ssr:stedsnr" v="307360" />
	</node>
	<node id="-192730" lat="60.0263305512" lon="9.09223611811">
		<tag k="name" v="Åmotet" />
		<tag k="place" v="locality" />
		<tag k="ssr:stedsnr" v="307359" />
	</node>
	<node id="-192727" lat="59.9788083331" lon="9.43433889554">
		<tag k="name" v="Ormetjønnan" />
		<tag k="natural" v="water" />
		<tag k="ssr:stedsnr" v="307319" />
	</node>
	<node id="-192714" lat="59.9075833312" lon="9.32761388199">
		<tag k="name" v="Åbogen" />
		<tag k="place" v="locality" />
		<tag k="ssr:stedsnr" v="272837" />
	</node>
	<node id="-192712" lat="59.9132861093" lon="9.35562778631">
		<tag k="name" v="Steinkloppbekken" />
		<tag k="ssr:stedsnr" v="272827" />
		<tag k="waterway" v="stream" />
	</node>
	<node id="-192688" lat="60.0476666678" lon="9.16292777177">
		<tag k="name" v="Fivildokk" />
		<tag k="natural" v="beach" />
		<tag k="old_name" v="Frivildokk" />
		<tag k="ssr:stedsnr" v="272295" />
	</node>
	<node id="-192682" lat="59.9730138916" lon="9.0427277783">
		<tag k="name" v="Steintjønn" />
		<tag k="natural" v="water" />
		<tag k="ssr:stedsnr" v="272164" />
	</node>
	<node id="-192679" lat="59.9546166688" lon="9.30231110238">
		<tag k="name" v="Storåe" />
		<tag k="ssr:stedsnr" v="271934" />
		<tag k="waterway" v="river" />
	</node>
	<node id="-192677" lat="60.0411999973" lon="9.19215277336">
		<tag k="name" v="Oreholmen" />
		<tag k="place" v="islet" />
		<tag k="ssr:stedsnr" v="271879" />
	</node>
	<node id="-192674" lat="60.0191444418" lon="9.24373056405">
		<tag k="name" v="Holmanplass" />
		<tag k="natural" v="cape" />
		<tag k="ssr:stedsnr" v="271840" />
	</node>
	<node id="-192669" lat="60.0022055517" lon="9.41424999943">
		<tag k="name" v="Sauetjønnan" />
		<tag k="natural" v="water" />
		<tag k="ssr:stedsnr" v="271771" />
	</node>
	<node id="-192667" lat="60.0921527756" lon="9.22892222207">
		<tag k="name" v="Venekolltjønn" />
		<tag k="natural" v="water" />
		<tag k="ssr:stedsnr" v="271388" />
	</node>
	<node id="-192658" lat="60.026241666" lon="9.00760000685">
		<tag k="name" v="Kråkåstjønn" />
		<tag k="natural" v="water" />
		<tag k="ssr:stedsnr" v="271141" />
	</node>
</osm>
