<?xml version="1.0" encoding="UTF-8"?>
<osm generator="osmapis" version="0.6">
	<node id="-192505" lat="60.0263444466" lon="9.41045834077">
		<tag k="name" v="Tjyruomnen" />
		<tag k="place" v="isolated_dwelling" />
		<tag k="ssr:stedsnr" v="328501" />
	</node>
	<node id="-192504" lat="60.1245561897" lon="9.2172240253">
		<tag k="historic" v="shieling" />
		<tag k="name" v="Skjolbekksetre" />
		<tag k="place" v="locality" />
		<tag k="ssr:stedsnr" v="328261" />
	</node>
	<node id="-192502" lat="60.0635361128" lon="9.09224444039">
		<tag k="historic" v="shieling" />
		<tag k="name" v="Nordre Skavlemsetre" />
		<tag k="place" v="locality" />
		<tag k="ssr:stedsnr" v="90248" />
	</node>
	<node id="-192501" lat="60.0608777798" lon="9.09229722803">
		<tag k="historic" v="shieling" />
		<tag k="name" v="Vallesetre" />
		<tag k="place" v="locality" />
		<tag k="ssr:stedsnr" v="90247" />
	</node>
	<node id="-192497" lat="60.0789499976" lon="9.09743333011">
		<tag k="alt_name" v="Skavlem, nordre" />
		<tag k="name" v="Nordre Skavlem" />
		<tag k="place" v="farm" />
		<tag k="ssr:stedsnr" v="308714" />
	</node>
	<node id="-192494" lat="60.0358944449" lon="9.00658054749">
		<tag k="name" v="Devegg" />
		<tag k="place" v="isolated_dwelling" />
		<tag k="ssr:stedsnr" v="308327" />
	</node>
	<node id="-192493" lat="60.030674999" lon="9.11850277978">
		<tag k="name" v="Bøle" />
		<tag k="place" v="farm" />
		<tag k="ssr:stedsnr" v="308323" />
	</node>
	<node id="-192492" lat="60.030400002" lon="9.16027499901">
		<tag k="name" v="Bakke" />
		<tag k="place" v="farm" />
		<tag k="ssr:stedsnr" v="308317" />
	</node>
	<node id="-192491" lat="60.0266222196" lon="9.26542499393">
		<tag k="name" v="Hågån" />
		<tag k="place" v="farm" />
		<tag k="ssr:stedsnr" v="308040" />
	</node>
	<node id="-192489" lat="59.9918083302" lon="8.9979361182">
		<tag k="name" v="Austmannbu" />
		<tag k="place" v="locality" />
		<tag k="ssr:stedsnr" v="307919" />
	</node>
	<node id="-192488" lat="60.0564333295" lon="9.1705138952">
		<tag k="name" v="Nesterud" />
		<tag k="place" v="farm" />
		<tag k="ssr:stedsnr" v="307687" />
	</node>
	<node id="-192483" lat="60.1055861099" lon="9.20173888256">
		<tag k="historic" v="shieling" />
		<tag k="name" v="Løkjeset" />
		<tag k="place" v="locality" />
		<tag k="ssr:stedsnr" v="307550" />
	</node>
	<node id="-192480" lat="60.0103305537" lon="9.17934999952">
		<tag k="historic" v="shieling" />
		<tag k="name" v="Niriset" />
		<tag k="place" v="locality" />
		<tag k="ssr:stedsnr" v="308253" />
	</node>
	<node id="-192478" lat="59.9239111094" lon="9.32764167357">
		<tag k="name" v="Haugan" />
		<tag k="place" v="farm" />
		<tag k="ssr:stedsnr" v="307204" />
	</node>
	<node id="-192477" lat="59.9349388858" lon="9.33785834025">
		<tag k="alt_name" v="Helle" />
		<tag k="name" v="Søre Helle" />
		<tag k="place" v="farm" />
		<tag k="ssr:stedsnr" v="307157" />
	</node>
	<node id="-192474" lat="59.9495777813" lon="9.33405278054">
		<tag k="name" v="Bakli" />
		<tag k="place" v="farm" />
		<tag k="ssr:stedsnr" v="307354" />
	</node>
	<node id="-192473" lat="59.9600472211" lon="9.29202500115">
		<tag k="name" v="Venås" />
		<tag k="place" v="farm" />
		<tag k="ssr:stedsnr" v="307337" />
	</node>
	<node id="-192471" lat="59.9977527742" lon="9.26998889363">
		<tag k="alt_name" v="Søre Ulstad" />
		<tag k="name" v="Ulstad" />
		<tag k="place" v="farm" />
		<tag k="ssr:stedsnr" v="307309" />
	</node>
	<node id="-192468" lat="59.9539611121" lon="9.25438055937">
		<tag k="name" v="Gvasshaug" />
		<tag k="place" v="isolated_dwelling" />
		<tag k="ssr:stedsnr" v="29816" />
	</node>
	<node id="-192463" lat="59.9952888912" lon="9.32414722411">
		<tag k="name" v="Gråten" />
		<tag k="place" v="locality" />
		<tag k="ssr:stedsnr" v="272890" />
	</node>
	<node id="-192462" lat="59.9948694456" lon="9.32105276957">
		<tag k="name" v="Uren" />
		<tag k="place" v="locality" />
		<tag k="ssr:stedsnr" v="272888" />
	</node>
	<node id="-192444" lat="60.0285638909" lon="9.17209444425">
		<tag k="alt_name" v="Øvre Høyset" />
		<tag k="name" v="Øvre Høgset" />
		<tag k="place" v="farm" />
		<tag k="ssr:stedsnr" v="272633" />
	</node>
	<node id="-192443" lat="60.0436583361" lon="9.14345277189">
		<tag k="name" v="Mykstu" />
		<tag k="place" v="farm" />
		<tag k="ssr:stedsnr" v="272631" />
	</node>
	<node id="-192440" lat="59.9801805562" lon="9.28150276972">
		<tag k="name" v="Søre Landsverk" />
		<tag k="place" v="farm" />
		<tag k="ssr:stedsnr" v="272511" />
	</node>
	<node id="-192425" lat="59.9595166648" lon="9.28016110716">
		<tag k="name" v="Ragnhildsrud" />
		<tag k="place" v="locality" />
		<tag k="ssr:stedsnr" v="271967" />
	</node>
	<node id="-192421" lat="60.0259666676" lon="9.27884444539">
		<tag k="name" v="Petersplass" />
		<tag k="place" v="locality" />
		<tag k="ssr:stedsnr" v="271868" />
	</node>
	<node id="-192417" lat="60.0141329882" lon="9.28800853112">
		<tag k="name" v="Ragnhildslykkja" />
		<tag k="place" v="locality" />
		<tag k="ssr:stedsnr" v="271818" />
	</node>
	<node id="-192415" lat="60.0109722217" lon="9.37335554741">
		<tag k="name" v="Holmetjønnhytta" />
		<tag k="place" v="isolated_dwelling" />
		<tag k="ssr:stedsnr" v="271786" />
	</node>
	<node id="-192409" lat="60.0381916624" lon="9.24255277958">
		<tag k="name" v="Nordre Fulsås" />
		<tag k="place" v="farm" />
		<tag k="ssr:stedsnr" v="271238" />
	</node>
	<node id="-192402" lat="60.0494499979" lon="9.06328054667">
		<tag k="name" v="Raubekklia" />
		<tag k="place" v="isolated_dwelling" />
		<tag k="ssr:stedsnr" v="271132" />
	</node>
	<node id="-194205" lat="60.029491885" lon="9.14492380852">
		<tag k="fixme" v="consider place=hamlet" />
		<tag k="name" v="Gladheim" />
		<tag k="place" v="farm" />
		<tag k="ssr:stedsnr" v="973413" />
	</node>
	<node id="-194204" lat="60.0484841033" lon="9.14051228692">
		<tag k="fixme" v="consider place=hamlet" />
		<tag k="name" v="Gardar" />
		<tag k="place" v="farm" />
		<tag k="ssr:stedsnr" v="973417" />
	</node>
	<node id="-194174" lat="59.956197224" lon="9.28245277736">
		<tag k="name" v="Gunnulfsbakken" />
		<tag k="place" v="locality" />
		<tag k="ssr:stedsnr" v="939823" />
	</node>
	<node id="-194173" lat="59.9771750035" lon="9.31004444005">
		<tag k="name" v="Mehov" />
		<tag k="place" v="farm" />
		<tag k="ssr:stedsnr" v="939812" />
	</node>
	<node id="-194169" lat="59.9344027753" lon="9.32771110311">
		<tag k="name" v="Bakkebråtån" />
		<tag k="place" v="locality" />
		<tag k="ssr:stedsnr" v="939765" />
	</node>
	<node id="-194152" lat="60.0716083338" lon="9.12618332898">
		<tag k="name" v="Vreitemyran" />
		<tag k="place" v="isolated_dwelling" />
		<tag k="ssr:stedsnr" v="939503" />
	</node>
	<node id="-194145" lat="60.0539694448" lon="9.15330833876">
		<tag k="name" v="Gulliksrud" />
		<tag k="place" v="locality" />
		<tag k="ssr:stedsnr" v="939322" />
	</node>
	<node id="-194143" lat="60.0915500027" lon="9.25020277214">
		<tag k="name" v="Mesetre" />
		<tag k="place" v="locality" />
		<tag k="ssr:stedsnr" v="939305" />
	</node>
	<node id="-194140" lat="60.0379444477" lon="9.2004333418">
		<tag k="name" v="Solheim" />
		<tag k="place" v="farm" />
		<tag k="ssr:stedsnr" v="939230" />
	</node>
	<node id="-194121" lat="60.0039916693" lon="9.34843054693">
		<tag k="name" v="Milebotten" />
		<tag k="place" v="locality" />
		<tag k="ssr:stedsnr" v="935522" />
	</node>
	<node id="-194120" lat="60.0119333345" lon="9.19427500101">
		<tag k="historic" v="shieling" />
		<tag k="name" v="Grånåbu" />
		<tag k="place" v="locality" />
		<tag k="ssr:stedsnr" v="935475" />
	</node>
	<node id="-194119" lat="60.0795861104" lon="9.10350833825">
		<tag k="name" v="Vindegg" />
		<tag k="place" v="farm" />
		<tag k="ssr:stedsnr" v="915722" />
	</node>
	<node id="-194115" lat="60.0399861113" lon="9.13578610475">
		<tag k="name" v="Kyrkjorden" />
		<tag k="place" v="farm" />
		<tag k="ssr:stedsnr" v="915636" />
	</node>
	<node id="-194114" lat="60.1374916671" lon="9.18525277989">
		<tag k="name" v="Kulpeset" />
		<tag k="place" v="neighbourhood" />
		<tag k="ssr:stedsnr" v="915492" />
	</node>
	<node id="-194107" lat="60.0376888854" lon="9.2358444393">
		<tag k="name" v="Prestmoen" />
		<tag k="place" v="farm" />
		<tag k="ssr:stedsnr" v="915047" />
	</node>
	<node id="-194106" lat="60.0280472191" lon="9.25336111435">
		<tag k="name" v="Nordre Skogen" />
		<tag k="place" v="farm" />
		<tag k="ssr:stedsnr" v="915041" />
	</node>
	<node id="-194105" lat="60.0088083331" lon="9.35514999858">
		<tag k="fixme" v="multiple name tags, choose one and add the other to alt_name" />
		<tag k="name" v="Bufjell;Øvre Bufjell" />
		<tag k="place" v="isolated_dwelling" />
		<tag k="ssr:stedsnr" v="915010" />
	</node>
	<node id="-194104" lat="59.9943194429" lon="9.13042221986">
		<tag k="name" v="Sagstugo" />
		<tag k="place" v="isolated_dwelling" />
		<tag k="ssr:stedsnr" v="914942" />
	</node>
	<node id="-194101" lat="59.8815611146" lon="9.18900556413">
		<tag k="fixme" v="consider tourism=alpine_hut or tourism=chalet" />
		<tag k="name" v="Eriksbu" />
		<tag k="ssr:stedsnr" v="914734" />
		<tag k="tourism" v="wilderness_hut" />
	</node>
	<node id="-194100" lat="60.0423750008" lon="9.0257000037">
		<tag k="historic" v="shieling" />
		<tag k="name" v="Liset" />
		<tag k="place" v="locality" />
		<tag k="ssr:stedsnr" v="914702" />
	</node>
	<node id="-194099" lat="60.050249998" lon="9.14875554955">
		<tag k="name" v="Tonstad" />
		<tag k="place" v="isolated_dwelling" />
		<tag k="ssr:stedsnr" v="914698" />
	</node>
	<node id="-194098" lat="60.0490527803" lon="9.19566666949">
		<tag k="name" v="Gvammen" />
		<tag k="place" v="farm" />
		<tag k="ssr:stedsnr" v="914695" />
	</node>
	<node id="-194097" lat="60.0400249959" lon="9.11157500085">
		<tag k="historic" v="shieling" />
		<tag k="name" v="Frågått" />
		<tag k="place" v="locality" />
		<tag k="ssr:stedsnr" v="914683" />
	</node>
	<node id="-194096" lat="60.049791665" lon="9.127375008">
		<tag k="alt_name" v="Tveiten, nordre" />
		<tag k="name" v="Nordre Tveiten" />
		<tag k="place" v="farm" />
		<tag k="ssr:stedsnr" v="914684" />
	</node>
	<node id="-194093" lat="59.9314805514" lon="9.19189999705">
		<tag k="name" v="Viermyr" />
		<tag k="place" v="locality" />
		<tag k="ssr:stedsnr" v="914549" />
	</node>
	<node id="-194092" lat="60.1205638922" lon="9.23760833167">
		<tag k="historic" v="shieling" />
		<tag k="name" v="Vardefjellsetre" />
		<tag k="place" v="locality" />
		<tag k="ssr:stedsnr" v="914431" />
	</node>
	<node id="-194090" lat="59.9519250022" lon="9.3106416606">
		<tag k="name" v="Engje" />
		<tag k="place" v="farm" />
		<tag k="ssr:stedsnr" v="914344" />
	</node>
	<node id="-194089" lat="60.0255083334" lon="9.18422499799">
		<tag k="name" v="Skogli" />
		<tag k="place" v="farm" />
		<tag k="ssr:stedsnr" v="914326" />
	</node>
	<node id="-194088" lat="60.0246250034" lon="9.15658888828">
		<tag k="name" v="Landerud" />
		<tag k="place" v="farm" />
		<tag k="ssr:stedsnr" v="914321" />
	</node>
	<node id="-194086" lat="59.9918472215" lon="9.28645834097">
		<tag k="name" v="Tørrhaug" />
		<tag k="place" v="farm" />
		<tag k="ssr:stedsnr" v="914276" />
	</node>
	<node id="-194084" lat="59.9150749983" lon="9.34276944795">
		<tag k="name" v="Rostad" />
		<tag k="place" v="farm" />
		<tag k="ssr:stedsnr" v="914211" />
	</node>
	<node id="-194082" lat="59.9372722228" lon="9.32780834015">
		<tag k="name" v="Myran" />
		<tag k="place" v="farm" />
		<tag k="ssr:stedsnr" v="914150" />
	</node>
	<node id="-194080" lat="59.9953333335" lon="9.32809166994">
		<tag k="name" v="Søre Skuggerud" />
		<tag k="place" v="farm" />
		<tag k="ssr:stedsnr" v="879930" />
	</node>
	<node id="-194072" lat="59.9708472252" lon="9.31368333863">
		<tag k="name" v="Haugan" />
		<tag k="place" v="isolated_dwelling" />
		<tag k="ssr:stedsnr" v="878957" />
	</node>
	<node id="-194070" lat="60.0111638853" lon="9.32712500497">
		<tag k="historic" v="shieling" />
		<tag k="name" v="Skarpmosetre" />
		<tag k="place" v="locality" />
		<tag k="ssr:stedsnr" v="878941" />
	</node>
	<node id="-194064" lat="59.9750861099" lon="9.31598610649">
		<tag k="name" v="Myran" />
		<tag k="place" v="locality" />
		<tag k="ssr:stedsnr" v="878835" />
	</node>
	<node id="-194059" lat="60.0162916652" lon="9.23096110325">
		<tag k="name" v="Brattås" />
		<tag k="place" v="locality" />
		<tag k="ssr:stedsnr" v="878806" />
	</node>
	<node id="-194055" lat="59.9483472265" lon="9.30292777867">
		<tag k="name" v="Nygard" />
		<tag k="place" v="locality" />
		<tag k="ssr:stedsnr" v="878796" />
	</node>
	<node id="-194052" lat="60.0065444467" lon="9.2946361102">
		<tag k="name" v="Vibrandsrud" />
		<tag k="place" v="locality" />
		<tag k="ssr:stedsnr" v="878779" />
	</node>
	<node id="-194050" lat="60.0413111149" lon="9.14567778209">
		<tag k="name" v="Søre Veggli" />
		<tag k="place" v="farm" />
		<tag k="ssr:stedsnr" v="878674" />
	</node>
	<node id="-194044" lat="60.0749972242" lon="9.15670554977">
		<tag k="name" v="Londestaden" />
		<tag k="place" v="isolated_dwelling" />
		<tag k="ssr:stedsnr" v="878565" />
	</node>
	<node id="-194034" lat="60.0460500016" lon="9.12202500394">
		<tag k="name" v="Tårånsonplassen" />
		<tag k="place" v="locality" />
		<tag k="ssr:stedsnr" v="878297" />
	</node>
	<node id="-194030" lat="60.0321500041" lon="9.21706667375">
		<tag k="name" v="Nordre Kleivan" />
		<tag k="place" v="farm" />
		<tag k="ssr:stedsnr" v="878277" />
	</node>
	<node id="-194025" lat="60.035141668" lon="9.23966943867">
		<tag k="name" v="Øllebakkan" />
		<tag k="place" v="isolated_dwelling" />
		<tag k="ssr:stedsnr" v="878249" />
	</node>
	<node id="-194015" lat="60.0631666629" lon="9.35171110711">
		<tag k="historic" v="shieling" />
		<tag k="name" v="Øytjønnsetre" />
		<tag k="place" v="locality" />
		<tag k="ssr:stedsnr" v="874586" />
	</node>
	<node id="-194014" lat="60.102447222" lon="9.12320833479">
		<tag k="name" v="Puttetjønnhytta" />
		<tag k="place" v="isolated_dwelling" />
		<tag k="ssr:stedsnr" v="874356" />
	</node>
	<node id="-194013" lat="60.0414805593" lon="9.17246389358">
		<tag k="name" v="Mogen" />
		<tag k="place" v="farm" />
		<tag k="ssr:stedsnr" v="855689" />
	</node>
	<node id="-194011" lat="60.0478111151" lon="9.13305277372">
		<tag k="name" v="Neretveiten" />
		<tag k="place" v="farm" />
		<tag k="ssr:stedsnr" v="855677" />
	</node>
	<node id="-194007" lat="60.0775083339" lon="9.19808334055">
		<tag k="historic" v="shieling" />
		<tag k="name" v="Øvre Toensetre" />
		<tag k="place" v="locality" />
		<tag k="ssr:stedsnr" v="854726" />
	</node>
	<node id="-194002" lat="60.0488499956" lon="9.13905278596">
		<tag k="name" v="Nordre Gardar" />
		<tag k="place" v="farm" />
		<tag k="ssr:stedsnr" v="854657" />
	</node>
	<node id="-194001" lat="60.0562500006" lon="9.20829999439">
		<tag k="name" v="Juvet" />
		<tag k="place" v="farm" />
		<tag k="ssr:stedsnr" v="854648" />
	</node>
	<node id="-193999" lat="60.0545500041" lon="9.1000000062">
		<tag k="name" v="Brekkesetre" />
		<tag k="place" v="isolated_dwelling" />
		<tag k="ssr:stedsnr" v="854609" />
	</node>
	<node id="-193995" lat="59.9497472225" lon="9.22895555802">
		<tag k="historic" v="shieling" />
		<tag k="name" v="Alfstadnyset" />
		<tag k="old_name" v="Nysætri;Nyset" />
		<tag k="place" v="locality" />
		<tag k="ssr:stedsnr" v="854321" />
	</node>
	<node id="-193994" lat="60.0307138887" lon="9.19178888393">
		<tag k="name" v="Hagen" />
		<tag k="place" v="farm" />
		<tag k="ssr:stedsnr" v="854314" />
	</node>
	<node id="-193992" lat="60.0048500008" lon="9.15857500795">
		<tag k="historic" v="shieling" />
		<tag k="name" v="Risteigen" />
		<tag k="place" v="locality" />
		<tag k="ssr:stedsnr" v="854261" />
	</node>
	<node id="-193990" lat="59.9477694463" lon="9.3874666579">
		<tag k="historic" v="shieling" />
		<tag k="name" v="Hellesetre" />
		<tag k="place" v="locality" />
		<tag k="ssr:stedsnr" v="854114" />
	</node>
	<node id="-193989" lat="60.0089361076" lon="9.25481110266">
		<tag k="name" v="Sørensplassen" />
		<tag k="place" v="isolated_dwelling" />
		<tag k="ssr:stedsnr" v="854015" />
	</node>
	<node id="-193987" lat="60.0022249966" lon="9.26616388773">
		<tag k="name" v="Berg" />
		<tag k="place" v="farm" />
		<tag k="ssr:stedsnr" v="854002" />
	</node>
	<node id="-193985" lat="59.9719916652" lon="9.31082777991">
		<tag k="name" v="Sørhov" />
		<tag k="place" v="farm" />
		<tag k="ssr:stedsnr" v="853343" />
	</node>
	<node id="-193982" lat="59.9862916671" lon="9.33890833337">
		<tag k="name" v="Bergangrende" />
		<tag k="place" v="hamlet" />
		<tag k="ssr:stedsnr" v="853285" />
	</node>
	<node id="-193979" lat="59.9819166637" lon="9.35613056445">
		<tag k="historic" v="shieling" />
		<tag k="name" v="Mehovsetre" />
		<tag k="place" v="locality" />
		<tag k="ssr:stedsnr" v="853277" />
	</node>
	<node id="-193978" lat="59.9912333312" lon="9.31944999595">
		<tag k="fixme" v="consider place=hamlet" />
		<tag k="name" v="Våsådokk" />
		<tag k="old_name" v="Vassedok" />
		<tag k="place" v="farm" />
		<tag k="ssr:stedsnr" v="853244" />
	</node>
	<node id="-193974" lat="59.9307166647" lon="9.3420750058">
		<tag k="name" v="Deildokk" />
		<tag k="place" v="farm" />
		<tag k="ssr:stedsnr" v="853147" />
	</node>
	<node id="-193973" lat="59.915347224" lon="9.24992778254">
		<tag k="historic" v="shieling" />
		<tag k="name" v="Mesetre" />
		<tag k="old_name" v="Mellem Sr" />
		<tag k="place" v="locality" />
		<tag k="ssr:stedsnr" v="853142" />
	</node>
	<node id="-193964" lat="60.0066666703" lon="9.26461388214">
		<tag k="amenity" v="school" />
		<tag k="name" v="Numedal Folkehøgskole Idrettsskolen" />
		<tag k="ssr:stedsnr" v="818963" />
	</node>
	<node id="-193960" lat="59.9848749979" lon="9.34207221402">
		<tag k="name" v="Nordre Bergan" />
		<tag k="place" v="farm" />
		<tag k="ssr:stedsnr" v="818938" />
	</node>
	<node id="-193955" lat="59.9781222202" lon="9.31046389045">
		<tag k="name" v="Toreshov" />
		<tag k="place" v="farm" />
		<tag k="ssr:stedsnr" v="818820" />
	</node>
	<node id="-193952" lat="59.9571527744" lon="9.3145361067">
		<tag k="name" v="Bakkan" />
		<tag k="place" v="locality" />
		<tag k="ssr:stedsnr" v="818801" />
	</node>
	<node id="-193944" lat="60.0402972199" lon="9.17318056075">
		<tag k="building" v="industrial" />
		<tag k="name" v="Sag" />
		<tag k="ssr:stedsnr" v="818696" />
	</node>
	<node id="-193943" lat="60.0409805598" lon="9.12483611717">
		<tag k="name" v="Nordlandsplassen" />
		<tag k="place" v="locality" />
		<tag k="ssr:stedsnr" v="818671" />
	</node>
	<node id="-193941" lat="59.984313892" lon="9.27670555248">
		<tag k="name" v="Londehaug" />
		<tag k="place" v="locality" />
		<tag k="ssr:stedsnr" v="818579" />
	</node>
	<node id="-193939" lat="60.100727779" lon="9.18906944327">
		<tag k="historic" v="shieling" />
		<tag k="name" v="Kloppin" />
		<tag k="place" v="locality" />
		<tag k="ssr:stedsnr" v="818516" />
	</node>
	<node id="-193935" lat="60.0395439973" lon="9.05860322486">
		<tag k="alt_name" v="Nordre Årsetvoll" />
		<tag k="historic" v="shieling" />
		<tag k="name" v="Nordre Årsetvollen" />
		<tag k="place" v="locality" />
		<tag k="ssr:stedsnr" v="818410" />
	</node>
	<node id="-193930" lat="60.0381916624" lon="9.24255277958">
		<tag k="name" v="Nordre Fulsås" />
		<tag k="place" v="farm" />
		<tag k="ssr:stedsnr" v="818212" />
	</node>
	<node id="-193926" lat="60.0239027803" lon="9.2226166737">
		<tag k="name" v="Knipetak" />
		<tag k="place" v="locality" />
		<tag k="ssr:stedsnr" v="817888" />
	</node>
	<node id="-193915" lat="59.9495999984" lon="9.16758333033">
		<tag k="name" v="Kaldehølvollen" />
		<tag k="place" v="isolated_dwelling" />
		<tag k="ssr:stedsnr" v="814567" />
	</node>
	<node id="-193913" lat="60.0673277814" lon="9.13223055339">
		<tag k="name" v="Hellerud" />
		<tag k="place" v="farm" />
		<tag k="ssr:stedsnr" v="794727" />
	</node>
	<node id="-193912" lat="60.042908335" lon="9.16867222082">
		<tag k="name" v="Søre Bjørkgarden" />
		<tag k="place" v="farm" />
		<tag k="ssr:stedsnr" v="794683" />
	</node>
	<node id="-193911" lat="60.0474138851" lon="9.18588888473">
		<tag k="name" v="Bergerud" />
		<tag k="place" v="isolated_dwelling" />
		<tag k="ssr:stedsnr" v="794682" />
	</node>
	<node id="-193910" lat="60.0419805594" lon="9.13366943901">
		<tag k="alt_name" v="Haukjem" />
		<tag k="name" v="Nedre Haukjem" />
		<tag k="place" v="farm" />
		<tag k="ssr:stedsnr" v="794669" />
	</node>
	<node id="-193908" lat="60.0349833304" lon="9.12948333956">
		<tag k="name" v="Høggerud" />
		<tag k="place" v="farm" />
		<tag k="ssr:stedsnr" v="794329" />
	</node>
	<node id="-193907" lat="60.0381916696" lon="9.11718332768">
		<tag k="historic" v="shieling" />
		<tag k="name" v="Gardarsetre" />
		<tag k="place" v="locality" />
		<tag k="ssr:stedsnr" v="794328" />
	</node>
	<node id="-193904" lat="60.0795305553" lon="9.13751110358">
		<tag k="name" v="Setre" />
		<tag k="place" v="farm" />
		<tag k="ssr:stedsnr" v="793763" />
	</node>
	<node id="-193903" lat="60.0882305592" lon="9.10837499515">
		<tag k="name" v="Kvisle" />
		<tag k="place" v="farm" />
		<tag k="ssr:stedsnr" v="793710" />
	</node>
	<node id="-193902" lat="60.0514638852" lon="9.15201110862">
		<tag k="name" v="Toenlykkja" />
		<tag k="place" v="farm" />
		<tag k="ssr:stedsnr" v="793698" />
	</node>
	<node id="-193901" lat="60.0549305564" lon="9.03896111503">
		<tag k="historic" v="shieling" />
		<tag k="name" v="Persbu" />
		<tag k="place" v="locality" />
		<tag k="ssr:stedsnr" v="793665" />
	</node>
	<node id="-193897" lat="59.9532361105" lon="9.15145834172">
		<tag k="name" v="Nansenhytta" />
		<tag k="place" v="isolated_dwelling" />
		<tag k="ssr:stedsnr" v="793611" />
	</node>
	<node id="-193894" lat="59.9557499957" lon="9.31452499882">
		<tag k="name" v="Bratterud" />
		<tag k="place" v="farm" />
		<tag k="ssr:stedsnr" v="793363" />
	</node>
	<node id="-193893" lat="60.0322583336" lon="9.21826945162">
		<tag k="alt_name" v="Søre Kleivan" />
		<tag k="name" v="Kleivan" />
		<tag k="place" v="farm" />
		<tag k="ssr:stedsnr" v="793359" />
	</node>
	<node id="-193892" lat="60.0145750018" lon="9.07141388155">
		<tag k="name" v="Halvfarbue" />
		<tag k="place" v="isolated_dwelling" />
		<tag k="ssr:stedsnr" v="793353" />
	</node>
	<node id="-193891" lat="60.0166638858" lon="9.08621666256">
		<tag k="name" v="Soterud" />
		<tag k="place" v="isolated_dwelling" />
		<tag k="ssr:stedsnr" v="793351" />
	</node>
	<node id="-193890" lat="60.0158083357" lon="9.12418889626">
		<tag k="name" v="Langelihytta" />
		<tag k="place" v="isolated_dwelling" />
		<tag k="ssr:stedsnr" v="793348" />
	</node>
	<node id="-193888" lat="59.9061555512" lon="9.29921944032">
		<tag k="name" v="Haugsetre" />
		<tag k="place" v="isolated_dwelling" />
		<tag k="ssr:stedsnr" v="793227" />
	</node>
	<node id="-193883" lat="60.0436749973" lon="9.29845000484">
		<tag k="historic" v="shieling" />
		<tag k="name" v="Bjørnhølet" />
		<tag k="place" v="locality" />
		<tag k="ssr:stedsnr" v="793052" />
	</node>
	<node id="-193882" lat="60.0179444443" lon="9.2489888819">
		<tag k="name" v="Bråtån" />
		<tag k="place" v="farm" />
		<tag k="ssr:stedsnr" v="793017" />
	</node>
	<node id="-193876" lat="59.9225583317" lon="9.3773166611">
		<tag k="name" v="Nedre Brattås" />
		<tag k="place" v="farm" />
		<tag k="ssr:stedsnr" v="792183" />
	</node>
	<node id="-193860" lat="60.0253555537" lon="9.19831388069">
		<tag k="name" v="Levorsplassen" />
		<tag k="place" v="locality" />
		<tag k="ssr:stedsnr" v="757844" />
	</node>
	<node id="-193854" lat="59.9484222206" lon="9.38791110521">
		<tag k="historic" v="shieling" />
		<tag k="name" v="Godstadsetre" />
		<tag k="place" v="locality" />
		<tag k="ssr:stedsnr" v="757743" />
	</node>
	<node id="-193850" lat="60.0354611133" lon="9.13580278365">
		<tag k="name" v="Leikanrud" />
		<tag k="place" v="locality" />
		<tag k="ssr:stedsnr" v="757622" />
	</node>
	<node id="-193846" lat="59.9829833357" lon="9.29675278497">
		<tag k="name" v="Raggenes" />
		<tag k="place" v="isolated_dwelling" />
		<tag k="ssr:stedsnr" v="757582" />
	</node>
	<node id="-193842" lat="60.0891888868" lon="9.1069166676">
		<tag k="name" v="Kvisle" />
		<tag k="place" v="isolated_dwelling" />
		<tag k="ssr:stedsnr" v="757456" />
	</node>
	<node id="-193832" lat="60.0247444415" lon="9.21277222358">
		<tag k="name" v="Smedplass" />
		<tag k="place" v="locality" />
		<tag k="ssr:stedsnr" v="756902" />
	</node>
	<node id="-193831" lat="60.0047861096" lon="9.29571666739">
		<tag k="name" v="Lillerud" />
		<tag k="place" v="isolated_dwelling" />
		<tag k="ssr:stedsnr" v="756816" />
	</node>
	<node id="-193822" lat="60.0758852378" lon="9.14483961994">
		<tag k="alt_name" v="Strysse" />
		<tag k="name" v="Øvre Strysse" />
		<tag k="place" v="farm" />
		<tag k="ssr:stedsnr" v="733726" />
	</node>
	<node id="-193819" lat="60.0450166631" lon="9.18255278671">
		<tag k="name" v="Øye" />
		<tag k="place" v="farm" />
		<tag k="ssr:stedsnr" v="733636" />
	</node>
	<node id="-193818" lat="60.0726305583" lon="9.20129167141">
		<tag k="historic" v="shieling" />
		<tag k="name" v="Nedre Toensetre" />
		<tag k="place" v="locality" />
		<tag k="ssr:stedsnr" v="733611" />
	</node>
	<node id="-193817" lat="60.0356416682" lon="9.06204444796">
		<tag k="name" v="Årset" />
		<tag k="place" v="locality" />
		<tag k="ssr:stedsnr" v="733333" />
	</node>
	<node id="-193813" lat="60.0110527749" lon="9.13790832601">
		<tag k="name" v="Blakkstadsetre" />
		<tag k="place" v="isolated_dwelling" />
		<tag k="ssr:stedsnr" v="733277" />
	</node>
	<node id="-193812" lat="60.0731055519" lon="9.26186388743">
		<tag k="historic" v="shieling" />
		<tag k="name" v="Låkåset" />
		<tag k="place" v="locality" />
		<tag k="ssr:stedsnr" v="733097" />
	</node>
	<node id="-193811" lat="60.035616663" lon="9.22920833618">
		<tag k="name" v="Søre Laugje" />
		<tag k="place" v="farm" />
		<tag k="ssr:stedsnr" v="733059" />
	</node>
	<node id="-193809" lat="60.0024166687" lon="9.40929722109">
		<tag k="name" v="Søyset" />
		<tag k="place" v="isolated_dwelling" />
		<tag k="ssr:stedsnr" v="733003" />
	</node>
	<node id="-193808" lat="59.9834944466" lon="9.09743611068">
		<tag k="historic" v="shieling" />
		<tag k="name" v="Myrefjell" />
		<tag k="place" v="locality" />
		<tag k="ssr:stedsnr" v="732928" />
	</node>
	<node id="-193796" lat="59.969311115" lon="9.31297222208">
		<tag k="name" v="Larsgard" />
		<tag k="place" v="farm" />
		<tag k="ssr:stedsnr" v="732338" />
	</node>
	<node id="-193795" lat="60.0288500032" lon="9.17449999521">
		<tag k="alt_name" v="Høyset" />
		<tag k="fixme" v="consider place=hamlet" />
		<tag k="name" v="Høgset" />
		<tag k="place" v="farm" />
		<tag k="ssr:stedsnr" v="732330" />
	</node>
	<node id="-193793" lat="59.9823749989" lon="9.40607500109">
		<tag k="historic" v="shieling" />
		<tag k="name" v="Saupset" />
		<tag k="place" v="locality" />
		<tag k="ssr:stedsnr" v="732295" />
	</node>
	<node id="-193792" lat="59.9982583352" lon="9.28219443729">
		<tag k="alt_name" v="Øvre Skarpmoen" />
		<tag k="name" v="Skarpmoen" />
		<tag k="place" v="farm" />
		<tag k="ssr:stedsnr" v="732285" />
	</node>
	<node id="-193791" lat="59.9952083319" lon="9.39067223078">
		<tag k="name" v="Bergeset" />
		<tag k="place" v="isolated_dwelling" />
		<tag k="ssr:stedsnr" v="732266" />
	</node>
	<node id="-193788" lat="59.9366828205" lon="9.24587209882">
		<tag k="historic" v="shieling" />
		<tag k="name" v="Hågåtjønnsetre" />
		<tag k="place" v="locality" />
		<tag k="ssr:stedsnr" v="732157" />
	</node>
	<node id="-193785" lat="60.049677781" lon="9.2183333349">
		<tag k="name" v="Øvstrud" />
		<tag k="place" v="farm" />
		<tag k="ssr:stedsnr" v="732081" />
	</node>
	<node id="-193772" lat="59.9869333316" lon="9.2046499915">
		<tag k="name" v="Jakobstjønnhytta" />
		<tag k="place" v="isolated_dwelling" />
		<tag k="ssr:stedsnr" v="696896" />
	</node>
	<node id="-193767" lat="59.918486115" lon="9.37821665813">
		<tag k="name" v="Tangen" />
		<tag k="place" v="locality" />
		<tag k="ssr:stedsnr" v="696853" />
	</node>
	<node id="-193766" lat="60.0334749969" lon="9.24704166522">
		<tag k="name" v="Søre Fulsås" />
		<tag k="place" v="farm" />
		<tag k="ssr:stedsnr" v="696838" />
	</node>
	<node id="-193759" lat="59.9512861153" lon="9.34033889395">
		<tag k="name" v="Berg" />
		<tag k="place" v="locality" />
		<tag k="ssr:stedsnr" v="696802" />
	</node>
	<node id="-193758" lat="60.0193416629" lon="9.23830000066">
		<tag k="name" v="Skørre" />
		<tag k="place" v="locality" />
		<tag k="ssr:stedsnr" v="696792" />
	</node>
	<node id="-193756" lat="59.9554555568" lon="9.33009444954">
		<tag k="name" v="Skørre" />
		<tag k="place" v="locality" />
		<tag k="ssr:stedsnr" v="696788" />
	</node>
	<node id="-193754" lat="59.9511527803" lon="9.32523054891">
		<tag k="name" v="Østre Bergseid" />
		<tag k="place" v="farm" />
		<tag k="ssr:stedsnr" v="696786" />
	</node>
	<node id="-193750" lat="59.9477083297" lon="9.38960833997">
		<tag k="historic" v="shieling" />
		<tag k="name" v="Ødegarden" />
		<tag k="place" v="locality" />
		<tag k="ssr:stedsnr" v="696769" />
	</node>
	<node id="-193749" lat="59.9514444444" lon="9.37624444178">
		<tag k="historic" v="shieling" />
		<tag k="name" v="Brattvoll" />
		<tag k="place" v="locality" />
		<tag k="ssr:stedsnr" v="696766" />
	</node>
	<node id="-193747" lat="60.0038222215" lon="9.26541666434">
		<tag k="name" v="Tuftin" />
		<tag k="place" v="isolated_dwelling" />
		<tag k="ssr:stedsnr" v="696758" />
	</node>
	<node id="-193733" lat="60.0512416623" lon="9.18327778117">
		<tag k="name" v="Bergerud" />
		<tag k="place" v="isolated_dwelling" />
		<tag k="ssr:stedsnr" v="696260" />
	</node>
	<node id="-193720" lat="60.0055555534" lon="9.19668333014">
		<tag k="name" v="Valhall" />
		<tag k="place" v="isolated_dwelling" />
		<tag k="ssr:stedsnr" v="692430" />
	</node>
	<node id="-193719" lat="60.0401111127" lon="9.14035834094">
		<tag k="name" v="Kjemhus" />
		<tag k="place" v="farm" />
		<tag k="ssr:stedsnr" v="692353" />
	</node>
	<node id="-193716" lat="60.09008889" lon="9.16636110218">
		<tag k="historic" v="shieling" />
		<tag k="name" v="Nyseter" />
		<tag k="place" v="locality" />
		<tag k="ssr:stedsnr" v="692295" />
	</node>
	<node id="-193714" lat="60.0787444469" lon="9.169763897">
		<tag k="historic" v="shieling" />
		<tag k="name" v="Tåtasetre" />
		<tag k="place" v="locality" />
		<tag k="ssr:stedsnr" v="672734" />
	</node>
	<node id="-193713" lat="60.072811107" lon="9.10977777449">
		<tag k="name" v="Kjerre" />
		<tag k="place" v="farm" />
		<tag k="ssr:stedsnr" v="672724" />
	</node>
	<node id="-193712" lat="60.0718555567" lon="9.11662499674">
		<tag k="name" v="Bogstrand" />
		<tag k="place" v="farm" />
		<tag k="ssr:stedsnr" v="672720" />
	</node>
	<node id="-193711" lat="60.0683694478" lon="9.07753055488">
		<tag k="historic" v="shieling" />
		<tag k="name" v="Lågårgardsetre" />
		<tag k="place" v="locality" />
		<tag k="ssr:stedsnr" v="672715" />
	</node>
	<node id="-193709" lat="60.0992888919" lon="9.15710276912">
		<tag k="historic" v="shieling" />
		<tag k="name" v="Løkjemyrdalen" />
		<tag k="place" v="locality" />
		<tag k="ssr:stedsnr" v="672692" />
	</node>
	<node id="-193708" lat="60.1003055519" lon="9.12050000532">
		<tag k="name" v="Damstuhytta" />
		<tag k="place" v="isolated_dwelling" />
		<tag k="ssr:stedsnr" v="672686" />
	</node>
	<node id="-193707" lat="60.0872249984" lon="9.11137499839">
		<tag k="name" v="Bratterudjordet" />
		<tag k="place" v="farm" />
		<tag k="ssr:stedsnr" v="672672" />
	</node>
	<node id="-193706" lat="60.0553833374" lon="9.15464999248">
		<tag k="name" v="Klomre" />
		<tag k="place" v="farm" />
		<tag k="ssr:stedsnr" v="672657" />
	</node>
	<node id="-193705" lat="60.0533249986" lon="9.17622499366">
		<tag k="alt_name" v="Toen, øvre" />
		<tag k="name" v="Øvre Toen" />
		<tag k="place" v="farm" />
		<tag k="ssr:stedsnr" v="672652" />
	</node>
	<node id="-193704" lat="60.0420583319" lon="9.20721111939">
		<tag k="alt_name" v="Nordre Kongsjorden" />
		<tag k="name" v="Kongsjorden" />
		<tag k="place" v="farm" />
		<tag k="ssr:stedsnr" v="672644" />
	</node>
	<node id="-193703" lat="60.0461888845" lon="9.12907778009">
		<tag k="name" v="Øvre-Tveiten" />
		<tag k="place" v="farm" />
		<tag k="ssr:stedsnr" v="672634" />
	</node>
	<node id="-193702" lat="60.048899997" lon="9.13546665911">
		<tag k="name" v="Østre Tveiten" />
		<tag k="place" v="farm" />
		<tag k="ssr:stedsnr" v="672630" />
	</node>
	<node id="-193699" lat="60.0273777792" lon="9.08525834129">
		<tag k="name" v="Bølesetre" />
		<tag k="place" v="locality" />
		<tag k="ssr:stedsnr" v="672329" />
	</node>
	<node id="-193696" lat="60.0333277814" lon="9.20960834224">
		<tag k="alt_name" v="Bekkjorden, s" />
		<tag k="name" v="Søre Bekkjorden" />
		<tag k="place" v="farm" />
		<tag k="ssr:stedsnr" v="672303" />
	</node>
	<node id="-193694" lat="60.0061055582" lon="9.12133610474">
		<tag k="name" v="Juvsjordet" />
		<tag k="place" v="isolated_dwelling" />
		<tag k="ssr:stedsnr" v="672262" />
	</node>
	<node id="-193693" lat="60.0859416666" lon="9.29412222333">
		<tag k="name" v="Nyset" />
		<tag k="place" v="locality" />
		<tag k="ssr:stedsnr" v="672108" />
	</node>
	<node id="-193692" lat="60.0527722267" lon="9.2455777798">
		<tag k="name" v="Dammyrstugu" />
		<tag k="place" v="isolated_dwelling" />
		<tag k="ssr:stedsnr" v="672071" />
	</node>
	<node id="-193687" lat="60.0323333375" lon="9.36745834187">
		<tag k="name" v="Minneskleiv" />
		<tag k="place" v="isolated_dwelling" />
		<tag k="ssr:stedsnr" v="672052" />
	</node>
	<node id="-193686" lat="60.0310527806" lon="9.24101943605">
		<tag k="name" v="Roe" />
		<tag k="place" v="isolated_dwelling" />
		<tag k="ssr:stedsnr" v="672051" />
	</node>
	<node id="-193684" lat="60.0267944417" lon="9.31095000713">
		<tag k="historic" v="shieling" />
		<tag k="name" v="Langebakke" />
		<tag k="place" v="locality" />
		<tag k="ssr:stedsnr" v="672034" />
	</node>
	<node id="-193681" lat="60.0053500024" lon="9.26581111043">
		<tag k="name" v="Glitre" />
		<tag k="place" v="farm" />
		<tag k="ssr:stedsnr" v="672021" />
	</node>
	<node id="-193680" lat="60.0103999979" lon="9.29755833002">
		<tag k="alt_name" v="Rydningen" />
		<tag k="loc_name" v="Runningen" />
		<tag k="name" v="Rønningen" />
		<tag k="place" v="farm" />
		<tag k="ssr:stedsnr" v="672011" />
	</node>
	<node id="-193675" lat="60.0582638888" lon="9.13936111714">
		<tag k="alt_name" v="Helle, s" />
		<tag k="name" v="Søre Helle" />
		<tag k="place" v="farm" />
		<tag k="ssr:stedsnr" v="671659" />
	</node>
	<node id="-193674" lat="60.0536249966" lon="9.02534999498">
		<tag k="historic" v="shieling" />
		<tag k="name" v="Lauvhovd" />
		<tag k="place" v="locality" />
		<tag k="ssr:stedsnr" v="671644" />
	</node>
	<node id="-193668" lat="59.9476944409" lon="9.18903056026">
		<tag k="name" v="Stærnessetre" />
		<tag k="place" v="isolated_dwelling" />
		<tag k="ssr:stedsnr" v="671554" />
	</node>
	<node id="-193666" lat="59.9318222191" lon="9.20329999241">
		<tag k="historic" v="shieling" />
		<tag k="name" v="Sørkjeseter" />
		<tag k="old_name" v="Sørkje" />
		<tag k="place" v="locality" />
		<tag k="ssr:stedsnr" v="671543" />
	</node>
	<node id="-193662" lat="59.9752527798" lon="9.35700833295">
		<tag k="name" v="Hovsetre" />
		<tag k="place" v="locality" />
		<tag k="ssr:stedsnr" v="671339" />
	</node>
	<node id="-193661" lat="59.9890416642" lon="9.3378722248">
		<tag k="historic" v="shieling" />
		<tag k="name" v="Gunnbjørnsrud" />
		<tag k="place" v="locality" />
		<tag k="ssr:stedsnr" v="671299" />
	</node>
	<node id="-193660" lat="59.9760666702" lon="9.29744999583">
		<tag k="alt_name" v="Søndre Stærnes" />
		<tag k="name" v="Søre Stærnes" />
		<tag k="place" v="farm" />
		<tag k="ssr:stedsnr" v="671281" />
	</node>
	<node id="-193657" lat="59.9047583346" lon="9.30887778386">
		<tag k="historic" v="shieling" />
		<tag k="name" v="Rostadsetre" />
		<tag k="place" v="locality" />
		<tag k="ssr:stedsnr" v="671214" />
	</node>
	<node id="-193653" lat="59.9589777753" lon="9.22955833268">
		<tag k="name" v="Stærneshytta" />
		<tag k="place" v="isolated_dwelling" />
		<tag k="ssr:stedsnr" v="635994" />
	</node>
	<node id="-193651" lat="60.0187222204" lon="9.26414444135">
		<tag k="name" v="Skogly" />
		<tag k="place" v="isolated_dwelling" />
		<tag k="ssr:stedsnr" v="635983" />
	</node>
	<node id="-193650" lat="59.9671777738" lon="9.28505833065">
		<tag k="name" v="Nordre Nordåsen" />
		<tag k="place" v="locality" />
		<tag k="ssr:stedsnr" v="635952" />
	</node>
	<node id="-193648" lat="59.9731888884" lon="9.27193056395">
		<tag k="name" v="Plassestykket" />
		<tag k="place" v="locality" />
		<tag k="ssr:stedsnr" v="635938" />
	</node>
	<node id="-193642" lat="59.9931277806" lon="9.32883610221">
		<tag k="name" v="Hågån" />
		<tag k="place" v="locality" />
		<tag k="ssr:stedsnr" v="635882" />
	</node>
	<node id="-193639" lat="59.9995888906" lon="9.39837777637">
		<tag k="name" v="Nyset" />
		<tag k="place" v="locality" />
		<tag k="ssr:stedsnr" v="635870" />
	</node>
	<node id="-193633" lat="59.9567444429" lon="9.29698332852">
		<tag k="name" v="Årud" />
		<tag k="place" v="locality" />
		<tag k="ssr:stedsnr" v="635808" />
	</node>
	<node id="-193630" lat="60.0056388879" lon="9.23762777972">
		<tag k="name" v="Kikkut" />
		<tag k="place" v="isolated_dwelling" />
		<tag k="ssr:stedsnr" v="635788" />
	</node>
	<node id="-193623" lat="60.0050166705" lon="9.27894722319">
		<tag k="name" v="Rykkin" />
		<tag k="place" v="isolated_dwelling" />
		<tag k="ssr:stedsnr" v="635744" />
	</node>
	<node id="-193617" lat="60.02728611" lon="9.16512500311">
		<tag k="alt_name" v="Lille Høyset" />
		<tag k="name" v="Vesle Høgset" />
		<tag k="place" v="isolated_dwelling" />
		<tag k="ssr:stedsnr" v="635669" />
	</node>
	<node id="-193615" lat="60.0351194471" lon="9.11525277943">
		<tag k="historic" v="shieling" />
		<tag k="name" v="Nordre Veggli heimsetre" />
		<tag k="place" v="locality" />
		<tag k="ssr:stedsnr" v="635637" />
	</node>
	<node id="-193604" lat="60.0777444461" lon="9.13463889687">
		<tag k="name" v="Krosshaug" />
		<tag k="place" v="isolated_dwelling" />
		<tag k="ssr:stedsnr" v="635491" />
	</node>
	<node id="-193595" lat="60.0625444412" lon="9.11294443826">
		<tag k="amenity" v="school" />
		<tag k="name" v="Kallerud skole" />
		<tag k="ssr:stedsnr" v="635264" />
	</node>
	<node id="-193589" lat="60.0362916657" lon="9.24467499313">
		<tag k="name" v="Nordre Fulsås" />
		<tag k="place" v="farm" />
		<tag k="ssr:stedsnr" v="635198" />
	</node>
	<node id="-193579" lat="60.0341555526" lon="9.30475833145">
		<tag k="name" v="Trugegråne" />
		<tag k="place" v="isolated_dwelling" />
		<tag k="ssr:stedsnr" v="631583" />
	</node>
	<node id="-193578" lat="60.0674111113" lon="9.12860278513">
		<tag k="name" v="Fantekleiv" />
		<tag k="place" v="isolated_dwelling" />
		<tag k="ssr:stedsnr" v="631362" />
	</node>
	<node id="-193577" lat="60.0709722257" lon="9.13374722011">
		<tag k="historic" v="shieling" />
		<tag k="name" v="Dokka" />
		<tag k="place" v="locality" />
		<tag k="ssr:stedsnr" v="611739" />
	</node>
	<node id="-193576" lat="60.0717611076" lon="9.07094999453">
		<tag k="historic" v="shieling" />
		<tag k="name" v="Vindeggsetre" />
		<tag k="place" v="locality" />
		<tag k="ssr:stedsnr" v="611733" />
	</node>
	<node id="-193575" lat="60.0944777772" lon="9.18286388881">
		<tag k="historic" v="shieling" />
		<tag k="name" v="Sjondalsåsen" />
		<tag k="place" v="locality" />
		<tag k="ssr:stedsnr" v="611717" />
	</node>
	<node id="-193572" lat="60.0885027738" lon="9.1159055611">
		<tag k="name" v="Solbakken" />
		<tag k="place" v="isolated_dwelling" />
		<tag k="ssr:stedsnr" v="611692" />
	</node>
	<node id="-193567" lat="60.0310724063" lon="9.12871423246">
		<tag k="alt_name" v="Svensrud, øvre" />
		<tag k="name" v="Øvre Svensrud" />
		<tag k="place" v="farm" />
		<tag k="ssr:stedsnr" v="611355" />
	</node>
	<node id="-193566" lat="60.0326277814" lon="9.13326110862">
		<tag k="alt_name" v="Svensrud, nedre" />
		<tag k="name" v="Nedre Svensrud" />
		<tag k="place" v="farm" />
		<tag k="ssr:stedsnr" v="611353" />
	</node>
	<node id="-193565" lat="60.0312249964" lon="9.20656110293">
		<tag k="alt_name" v="Vamre, øvre" />
		<tag k="name" v="Øvre Vamre" />
		<tag k="place" v="farm" />
		<tag k="ssr:stedsnr" v="611352" />
	</node>
	<node id="-193560" lat="60.0004083331" lon="9.15102500577">
		<tag k="name" v="Hølasetre" />
		<tag k="place" v="locality" />
		<tag k="ssr:stedsnr" v="611278" />
	</node>
	<node id="-193559" lat="60.0077500042" lon="9.20715000675">
		<tag k="name" v="Lauvlund" />
		<tag k="place" v="isolated_dwelling" />
		<tag k="ssr:stedsnr" v="611276" />
	</node>
	<node id="-193558" lat="60.0891305591" lon="9.25036111263">
		<tag k="name" v="Mesetre" />
		<tag k="place" v="locality" />
		<tag k="ssr:stedsnr" v="611108" />
	</node>
	<node id="-193556" lat="60.0302277792" lon="9.22908055325">
		<tag k="name" v="Kulthaug" />
		<tag k="place" v="farm" />
		<tag k="ssr:stedsnr" v="611051" />
	</node>
	<node id="-193553" lat="60.018419448" lon="9.23560000725">
		<tag k="name" v="Kleiv" />
		<tag k="place" v="farm" />
		<tag k="ssr:stedsnr" v="611029" />
	</node>
	<node id="-193548" lat="59.9671611117" lon="9.3154583295">
		<tag k="name" v="Nordre Kjomme" />
		<tag k="place" v="farm" />
		<tag k="ssr:stedsnr" v="610376" />
	</node>
	<node id="-193547" lat="59.9733055531" lon="9.34998333683">
		<tag k="historic" v="shieling" />
		<tag k="name" v="Larsgardkøsin" />
		<tag k="place" v="locality" />
		<tag k="ssr:stedsnr" v="610375" />
	</node>
	<node id="-193546" lat="59.9661305577" lon="9.31732777206">
		<tag k="alt_name" v="Søndre Kjomme" />
		<tag k="name" v="Søre Kjomme" />
		<tag k="place" v="farm" />
		<tag k="ssr:stedsnr" v="610373" />
	</node>
	<node id="-193543" lat="59.9861888914" lon="9.31103332908">
		<tag k="loc_name" v="Nord-Li" />
		<tag k="name" v="Nordre Li" />
		<tag k="place" v="farm" />
		<tag k="ssr:stedsnr" v="610327" />
	</node>
	<node id="-193542" lat="59.9877444438" lon="9.25102776924">
		<tag k="name" v="Ulstadsetre" />
		<tag k="place" v="isolated_dwelling" />
		<tag k="ssr:stedsnr" v="610301" />
	</node>
	<node id="-193540" lat="59.9419472178" lon="9.33717777177">
		<tag k="name" v="Åsan" />
		<tag k="place" v="farm" />
		<tag k="ssr:stedsnr" v="610147" />
	</node>
	<node id="-193538" lat="59.9801055531" lon="9.28169999785">
		<tag k="fixme" v="consider place=hamlet" />
		<tag k="name" v="Landsverk" />
		<tag k="place" v="farm" />
		<tag k="ssr:stedsnr" v="587816" />
	</node>
	<node id="-193534" lat="59.970713886" lon="9.33516666755">
		<tag k="name" v="Gunnbjørnsrud" />
		<tag k="place" v="locality" />
		<tag k="ssr:stedsnr" v="575923" />
	</node>
	<node id="-193528" lat="59.9572222214" lon="9.27147222205">
		<tag k="name" v="Kustighytta" />
		<tag k="place" v="isolated_dwelling" />
		<tag k="ssr:stedsnr" v="575804" />
	</node>
	<node id="-193524" lat="59.934191667" lon="9.32324999335">
		<tag k="name" v="Bråtån" />
		<tag k="place" v="locality" />
		<tag k="ssr:stedsnr" v="575738" />
	</node>
	<node id="-193523" lat="59.9261249969" lon="9.3406750065">
		<tag k="name" v="Kokkerud" />
		<tag k="place" v="locality" />
		<tag k="ssr:stedsnr" v="575733" />
	</node>
	<node id="-193520" lat="60.0359250018" lon="9.17194722094">
		<tag k="name" v="Tronsplassen" />
		<tag k="place" v="locality" />
		<tag k="ssr:stedsnr" v="575661" />
	</node>
	<node id="-193512" lat="60.0470083366" lon="9.15239444657">
		<tag k="name" v="Brobakken" />
		<tag k="place" v="isolated_dwelling" />
		<tag k="ssr:stedsnr" v="575283" />
	</node>
	<node id="-193507" lat="59.9737583331" lon="9.28484167045">
		<tag k="name" v="Maurud" />
		<tag k="place" v="locality" />
		<tag k="ssr:stedsnr" v="574968" />
	</node>
	<node id="-193506" lat="59.972769447" lon="9.29403611588">
		<tag k="name" v="Spelemannstugu" />
		<tag k="place" v="isolated_dwelling" />
		<tag k="ssr:stedsnr" v="574967" />
	</node>
	<node id="-193503" lat="60.0281694452" lon="9.19752221875">
		<tag k="name" v="Aslaksplassen" />
		<tag k="place" v="locality" />
		<tag k="ssr:stedsnr" v="574897" />
	</node>
	<node id="-193501" lat="60.0284027742" lon="9.29715278457">
		<tag k="name" v="Auksjon" />
		<tag k="place" v="locality" />
		<tag k="ssr:stedsnr" v="574869" />
	</node>
	<node id="-193496" lat="60.0143083342" lon="9.25997500356">
		<tag k="name" v="Nedre Mogen" />
		<tag k="place" v="farm" />
		<tag k="ssr:stedsnr" v="574822" />
	</node>
	<node id="-193495" lat="60.0254777822" lon="9.1691000015">
		<tag k="name" v="Haugje" />
		<tag k="place" v="locality" />
		<tag k="ssr:stedsnr" v="574739" />
	</node>
	<node id="-193494" lat="60.0349888914" lon="9.18025000682">
		<tag k="name" v="Vestre Risteigen" />
		<tag k="place" v="farm" />
		<tag k="ssr:stedsnr" v="574722" />
	</node>
	<node id="-193490" lat="59.996925" lon="9.28363887993">
		<tag k="name" v="Furuheim" />
		<tag k="place" v="isolated_dwelling" />
		<tag k="ssr:stedsnr" v="574605" />
	</node>
	<node id="-193489" lat="59.9856083293" lon="9.30010278388">
		<tag k="amenity" v="school" />
		<tag k="name" v="Rollag skole" />
		<tag k="ssr:stedsnr" v="574600" />
	</node>
	<node id="-193484" lat="60.0442277771" lon="9.22758055651">
		<tag k="name" v="Nordre Gylvik" />
		<tag k="place" v="isolated_dwelling" />
		<tag k="ssr:stedsnr" v="574276" />
	</node>
	<node id="-193468" lat="60.0213027772" lon="9.41003333441">
		<tag k="historic" v="shieling" />
		<tag k="name" v="Nybu" />
		<tag k="place" v="locality" />
		<tag k="ssr:stedsnr" v="571548" />
	</node>
	<node id="-193465" lat="59.9728805541" lon="9.20681111872">
		<tag k="historic" v="shieling" />
		<tag k="name" v="Ulfstaddalen" />
		<tag k="place" v="locality" />
		<tag k="ssr:stedsnr" v="571506" />
	</node>
	<node id="-193463" lat="60.0261577635" lon="9.3981932798">
		<tag k="historic" v="shieling" />
		<tag k="name" v="Nedre Fjøslien" />
		<tag k="place" v="locality" />
		<tag k="ssr:stedsnr" v="570352" />
	</node>
	<node id="-193459" lat="59.9265027791" lon="9.32591388901">
		<tag k="name" v="Stabekk" />
		<tag k="place" v="farm" />
		<tag k="ssr:stedsnr" v="610222" />
	</node>
	<node id="-193458" lat="60.069236109" lon="9.11184999392">
		<tag k="name" v="Valle" />
		<tag k="place" v="farm" />
		<tag k="ssr:stedsnr" v="551737" />
	</node>
	<node id="-193457" lat="60.0747000033" lon="9.1008527746">
		<tag k="alt_name" v="Skavlem, s" />
		<tag k="name" v="Søre Skavlem" />
		<tag k="place" v="farm" />
		<tag k="ssr:stedsnr" v="551735" />
	</node>
	<node id="-193456" lat="60.0710583367" lon="9.02484166561">
		<tag k="historic" v="shieling" />
		<tag k="name" v="Vierset" />
		<tag k="place" v="locality" />
		<tag k="ssr:stedsnr" v="551728" />
	</node>
	<node id="-193455" lat="60.0318388865" lon="9.18184167288">
		<tag k="alt_name" v="Fjøse, nordre;Fjøse" />
		<tag k="name" v="Nordre Fjøse" />
		<tag k="place" v="farm" />
		<tag k="ssr:stedsnr" v="551338" />
	</node>
	<node id="-193453" lat="60.0705055551" lon="9.25560833152">
		<tag k="historic" v="shieling" />
		<tag k="name" v="Grautenebb" />
		<tag k="place" v="locality" />
		<tag k="ssr:stedsnr" v="551091" />
	</node>
	<node id="-193451" lat="59.9836111094" lon="9.1614527701">
		<tag k="historic" v="shieling" />
		<tag k="name" v="Øvre Røynebuin" />
		<tag k="place" v="locality" />
		<tag k="ssr:stedsnr" v="550937" />
	</node>
	<node id="-193446" lat="60.0786638853" lon="9.14013056418">
		<tag k="historic" v="shieling" />
		<tag k="name" v="Risbu" />
		<tag k="place" v="locality" />
		<tag k="ssr:stedsnr" v="550725" />
	</node>
	<node id="-193445" lat="60.08028611" lon="9.11570000738">
		<tag k="alt_name" v="Lofthus, nordre" />
		<tag k="name" v="Lofthus" />
		<tag k="place" v="farm" />
		<tag k="ssr:stedsnr" v="550720" />
	</node>
	<node id="-193441" lat="60.0613611142" lon="9.21459999364">
		<tag k="historic" v="shieling" />
		<tag k="name" v="Gvamssetre" />
		<tag k="place" v="locality" />
		<tag k="ssr:stedsnr" v="550618" />
	</node>
	<node id="-193434" lat="59.9614388845" lon="9.31264721869">
		<tag k="loc_name" v="Floterud" />
		<tag k="name" v="Fløtterud" />
		<tag k="old_name" v="Flåterud;Flaaterud" />
		<tag k="place" v="farm" />
		<tag k="ssr:stedsnr" v="550353" />
	</node>
	<node id="-193433" lat="60.0284055547" lon="9.09243888677">
		<tag k="name" v="Barkejuvet" />
		<tag k="place" v="isolated_dwelling" />
		<tag k="ssr:stedsnr" v="550352" />
	</node>
	<node id="-193432" lat="60.034208337" lon="9.20311667312">
		<tag k="alt_name" v="Vamre, nedre" />
		<tag k="name" v="Nedre Vamre" />
		<tag k="place" v="farm" />
		<tag k="ssr:stedsnr" v="550331" />
	</node>
	<node id="-193431" lat="60.0080611151" lon="9.1476972255">
		<tag k="historic" v="shieling" />
		<tag k="name" v="Hovda" />
		<tag k="place" v="locality" />
		<tag k="ssr:stedsnr" v="550279" />
	</node>
	<node id="-193425" lat="60.0084467829" lon="9.26535593076">
		<tag k="name" v="Nordre Fetjan" />
		<tag k="place" v="farm" />
		<tag k="ssr:stedsnr" v="550022" />
	</node>
	<node id="-193422" lat="59.9923749959" lon="9.38947500327">
		<tag k="historic" v="shieling" />
		<tag k="name" v="Repeset" />
		<tag k="place" v="locality" />
		<tag k="ssr:stedsnr" v="549308" />
	</node>
	<node id="-193420" lat="59.9831500019" lon="9.34333056346">
		<tag k="alt_name" v="Bergan" />
		<tag k="name" v="Søre Bergan" />
		<tag k="place" v="farm" />
		<tag k="ssr:stedsnr" v="549292" />
	</node>
	<node id="-193419" lat="59.984999998" lon="9.28079166189">
		<tag k="name" v="Nordre Landsverk" />
		<tag k="place" v="farm" />
		<tag k="ssr:stedsnr" v="549289" />
	</node>
	<node id="-193418" lat="59.9779833365" lon="9.29424167243">
		<tag k="name" v="Nordre Stærnes" />
		<tag k="place" v="farm" />
		<tag k="ssr:stedsnr" v="549286" />
	</node>
	<node id="-193417" lat="59.9280944475" lon="9.33582223016">
		<tag k="name" v="Øye" />
		<tag k="place" v="isolated_dwelling" />
		<tag k="ssr:stedsnr" v="549189" />
	</node>
	<node id="-193407" lat="59.9815222215" lon="9.30815833182">
		<tag k="name" v="Li skole" />
		<tag k="place" v="isolated_dwelling" />
		<tag k="ssr:stedsnr" v="514870" />
	</node>
	<node id="-193405" lat="59.9175861094" lon="9.34091388583">
		<tag k="name" v="Søre Haugen" />
		<tag k="place" v="farm" />
		<tag k="ssr:stedsnr" v="514858" />
	</node>
	<node id="-193402" lat="59.9274611114" lon="9.36889722404">
		<tag k="name" v="Lia" />
		<tag k="place" v="locality" />
		<tag k="ssr:stedsnr" v="514833" />
	</node>
	<node id="-193399" lat="60.0267833357" lon="9.26571943734">
		<tag k="name" v="Nedre Solberg" />
		<tag k="place" v="farm" />
		<tag k="ssr:stedsnr" v="514806" />
	</node>
	<node id="-193389" lat="60.0081777817" lon="9.29860833179">
		<tag k="name" v="Haltet" />
		<tag k="place" v="locality" />
		<tag k="ssr:stedsnr" v="514742" />
	</node>
	<node id="-193385" lat="60.0139916637" lon="9.09980000882">
		<tag k="historic" v="shieling" />
		<tag k="name" v="Gamlesetre" />
		<tag k="place" v="locality" />
		<tag k="ssr:stedsnr" v="514722" />
	</node>
	<node id="-193384" lat="59.9897833368" lon="9.14835278476">
		<tag k="historic" v="shieling" />
		<tag k="name" v="Røynebuin" />
		<tag k="place" v="locality" />
		<tag k="ssr:stedsnr" v="514702" />
	</node>
	<node id="-193383" lat="60.0391305539" lon="9.13445000108">
		<tag k="name" v="Kyrkjorden" />
		<tag k="place" v="isolated_dwelling" />
		<tag k="ssr:stedsnr" v="514687" />
	</node>
	<node id="-193381" lat="60.0076972202" lon="9.35741110366">
		<tag k="name" v="Nedre Bufjell" />
		<tag k="place" v="isolated_dwelling" />
		<tag k="ssr:stedsnr" v="514668" />
	</node>
	<node id="-193367" lat="60.0481388926" lon="9.14012778026">
		<tag k="name" v="Søre Gardar" />
		<tag k="place" v="farm" />
		<tag k="ssr:stedsnr" v="514293" />
	</node>
	<node id="-193366" lat="60.0410222262" lon="9.23081666589">
		<tag k="amenity" v="school" />
		<tag k="name" v="Prestmoen skole" />
		<tag k="ssr:stedsnr" v="514279" />
	</node>
	<node id="-193356" lat="60.049966663" lon="9.04080276968">
		<tag k="name" v="Rennemogen" />
		<tag k="place" v="isolated_dwelling" />
		<tag k="ssr:stedsnr" v="514117" />
	</node>
	<node id="-193355" lat="60.0511277804" lon="9.04358889591">
		<tag k="historic" v="shieling" />
		<tag k="name" v="Nordmannsvollen" />
		<tag k="place" v="locality" />
		<tag k="ssr:stedsnr" v="514114" />
	</node>
	<node id="-193351" lat="60.0759753776" lon="9.14332456995">
		<tag k="name" v="Nedre Strysse" />
		<tag k="place" v="farm" />
		<tag k="ssr:stedsnr" v="510261" />
	</node>
	<node id="-193349" lat="60.0131638932" lon="9.2819444503">
		<tag k="name" v="Nordtråen" />
		<tag k="place" v="farm" />
		<tag k="ssr:stedsnr" v="509357" />
	</node>
	<node id="-193348" lat="60.0726250023" lon="9.13647499912">
		<tag k="name" v="Koto" />
		<tag k="place" v="farm" />
		<tag k="ssr:stedsnr" v="490742" />
	</node>
	<node id="-193344" lat="60.0469861148" lon="9.20874165944">
		<tag k="name" v="Rud" />
		<tag k="place" v="farm" />
		<tag k="ssr:stedsnr" v="490672" />
	</node>
	<node id="-193343" lat="60.045311114" lon="9.13216666909">
		<tag k="name" v="Kittilsland" />
		<tag k="place" v="farm" />
		<tag k="ssr:stedsnr" v="490661" />
	</node>
	<node id="-193341" lat="60.0366472259" lon="9.11943055302">
		<tag k="name" v="Ålmannhågån" />
		<tag k="place" v="locality" />
		<tag k="ssr:stedsnr" v="490339" />
	</node>
	<node id="-193340" lat="60.0371750033" lon="9.1827999965">
		<tag k="alt_name" v="Risteigen" />
		<tag k="name" v="Øvre Risteigen" />
		<tag k="place" v="farm" />
		<tag k="ssr:stedsnr" v="490338" />
	</node>
	<node id="-193337" lat="60.0287277736" lon="9.21461111991">
		<tag k="alt_name" v="Nordre Haslerud" />
		<tag k="name" v="Haslerud" />
		<tag k="place" v="farm" />
		<tag k="ssr:stedsnr" v="490309" />
	</node>
	<node id="-193336" lat="60.0282388857" lon="9.20659999379">
		<tag k="name" v="Bekkjordskåset" />
		<tag k="place" v="farm" />
		<tag k="ssr:stedsnr" v="490307" />
	</node>
	<node id="-193335" lat="60.024086115" lon="9.19247499348">
		<tag k="name" v="Torsgard" />
		<tag k="place" v="farm" />
		<tag k="ssr:stedsnr" v="490308" />
	</node>
	<node id="-193333" lat="60.0078999972" lon="9.13927500734">
		<tag k="name" v="Nyset" />
		<tag k="place" v="isolated_dwelling" />
		<tag k="ssr:stedsnr" v="490277" />
	</node>
	<node id="-193332" lat="59.9997805567" lon="9.05799166912">
		<tag k="historic" v="shieling" />
		<tag k="name" v="Svarteløk" />
		<tag k="place" v="locality" />
		<tag k="ssr:stedsnr" v="490266" />
	</node>
	<node id="-193328" lat="60.0284294187" lon="9.39721131777">
		<tag k="historic" v="shieling" />
		<tag k="name" v="Øvre Fjøslien" />
		<tag k="old_name" v="Fjoslid;Fjøslid" />
		<tag k="place" v="locality" />
		<tag k="ssr:stedsnr" v="490047" />
	</node>
	<node id="-193326" lat="59.9922861084" lon="9.06962500637">
		<tag k="historic" v="shieling" />
		<tag k="name" v="Sundtjønnsetre" />
		<tag k="place" v="locality" />
		<tag k="ssr:stedsnr" v="489906" />
	</node>
	<node id="-193324" lat="60.0423249995" lon="9.11269166247">
		<tag k="historic" v="shieling" />
		<tag k="name" v="Melandsetre" />
		<tag k="place" v="locality" />
		<tag k="ssr:stedsnr" v="489694" />
	</node>
	<node id="-193321" lat="60.0604972266" lon="9.13214722475">
		<tag k="alt_name" v="Helle, nordre" />
		<tag k="name" v="Nordre Helle" />
		<tag k="place" v="farm" />
		<tag k="ssr:stedsnr" v="489682" />
	</node>
	<node id="-193317" lat="59.9757694407" lon="9.2008999995">
		<tag k="historic" v="shieling" />
		<tag k="name" v="Vårvikdalen" />
		<tag k="place" v="locality" />
		<tag k="ssr:stedsnr" v="489641" />
	</node>
	<node id="-193315" lat="60.121099996" lon="9.13808054947">
		<tag k="historic" v="shieling" />
		<tag k="name" v="Markaset" />
		<tag k="place" v="locality" />
		<tag k="ssr:stedsnr" v="489584" />
	</node>
	<node id="-193311" lat="59.9526333353" lon="9.3216750051">
		<tag k="name" v="Strand" />
		<tag k="place" v="farm" />
		<tag k="ssr:stedsnr" v="489352" />
	</node>
	<node id="-193308" lat="59.9840222197" lon="9.31178334062">
		<tag k="alt_name" v="Mellom-Li" />
		<tag k="loc_name" v="Med-Li" />
		<tag k="name" v="Midtre Li" />
		<tag k="old_name" v="Li mellem" />
		<tag k="place" v="farm" />
		<tag k="ssr:stedsnr" v="489315" />
	</node>
	<node id="-193305" lat="59.9231861142" lon="9.33090556135">
		<tag k="name" v="Myra" />
		<tag k="place" v="isolated_dwelling" />
		<tag k="ssr:stedsnr" v="489201" />
	</node>
	<node id="-193301" lat="59.9401527736" lon="9.32885556057">
		<tag k="name" v="Kleiverud" />
		<tag k="place" v="farm" />
		<tag k="ssr:stedsnr" v="489137" />
	</node>
	<node id="-193299" lat="60.0115250043" lon="9.39276666529">
		<tag k="historic" v="shieling" />
		<tag k="name" v="Sølset" />
		<tag k="place" v="locality" />
		<tag k="ssr:stedsnr" v="489031" />
	</node>
	<node id="-193295" lat="59.9661222234" lon="9.32574444213">
		<tag k="name" v="Bergelien" />
		<tag k="place" v="locality" />
		<tag k="ssr:stedsnr" v="454956" />
	</node>
	<node id="-193292" lat="59.9709305525" lon="9.32609445231">
		<tag k="name" v="Soterud" />
		<tag k="place" v="locality" />
		<tag k="ssr:stedsnr" v="454949" />
	</node>
	<node id="-193277" lat="60.0386333293" lon="9.16358888744">
		<tag k="name" v="Nymoen" />
		<tag k="place" v="quarter" />
		<tag k="ssr:stedsnr" v="454646" />
	</node>
	<node id="-193275" lat="59.9802694442" lon="9.26423889303">
		<tag k="name" v="Nilskøs" />
		<tag k="place" v="locality" />
		<tag k="ssr:stedsnr" v="454587" />
	</node>
	<node id="-193274" lat="59.9984111119" lon="9.26928889772">
		<tag k="name" v="Nordre Ulstad" />
		<tag k="place" v="farm" />
		<tag k="ssr:stedsnr" v="454570" />
	</node>
	<node id="-193272" lat="59.9881361075" lon="9.28630554996">
		<tag k="loc_name" v="Nordbjerge" />
		<tag k="name" v="Nordre Bjørge" />
		<tag k="place" v="farm" />
		<tag k="ssr:stedsnr" v="454555" />
	</node>
	<node id="-193270" lat="60.0813361068" lon="9.10532499823">
		<tag k="name" v="Vindeggjordet" />
		<tag k="place" v="locality" />
		<tag k="ssr:stedsnr" v="454497" />
	</node>
	<node id="-193268" lat="60.0581499993" lon="9.16295833437">
		<tag k="name" v="Sebjørnsplass" />
		<tag k="place" v="locality" />
		<tag k="ssr:stedsnr" v="454310" />
	</node>
	<node id="-193267" lat="60.0621638895" lon="9.12974444092">
		<tag k="name" v="Grenderoe" />
		<tag k="place" v="isolated_dwelling" />
		<tag k="ssr:stedsnr" v="454268" />
	</node>
	<node id="-193260" lat="59.9639444446" lon="9.2893027697">
		<tag k="name" v="Nordåsen" />
		<tag k="place" v="locality" />
		<tag k="ssr:stedsnr" v="453962" />
	</node>
	<node id="-193254" lat="60.0121861134" lon="9.28322777081">
		<tag k="alt_name" v="Mellem Tråen" />
		<tag k="name" v="Med-Tråen" />
		<tag k="place" v="farm" />
		<tag k="ssr:stedsnr" v="453795" />
	</node>
	<node id="-193253" lat="60.0167872274" lon="9.28372758128">
		<tag k="name" v="Nordre Tråen" />
		<tag k="place" v="farm" />
		<tag k="ssr:stedsnr" v="453794" />
	</node>
	<node id="-193235" lat="60.0663999981" lon="9.02995555459">
		<tag k="name" v="Nordre Rustsetre" />
		<tag k="place" v="isolated_dwelling" />
		<tag k="ssr:stedsnr" v="430716" />
	</node>
	<node id="-193234" lat="60.0227472256" lon="9.21930555331">
		<tag k="name" v="Søre Vidhåmmår" />
		<tag k="place" v="farm" />
		<tag k="ssr:stedsnr" v="430407" />
	</node>
	<node id="-193233" lat="60.0312749987" lon="9.10515278208">
		<tag k="name" v="Framlien" />
		<tag k="place" v="farm" />
		<tag k="ssr:stedsnr" v="430347" />
	</node>
	<node id="-193232" lat="60.0351750001" lon="9.09170555122">
		<tag k="historic" v="shieling" />
		<tag k="name" v="Svensrudsetre" />
		<tag k="place" v="locality" />
		<tag k="ssr:stedsnr" v="430345" />
	</node>
	<node id="-193230" lat="60.0304833321" lon="9.28358055701">
		<tag k="alt_name" v="Hanseplass" />
		<tag k="name" v="Øvre Hanseplass" />
		<tag k="place" v="farm" />
		<tag k="ssr:stedsnr" v="430049" />
	</node>
	<node id="-193229" lat="60.0364888869" lon="9.22232221494">
		<tag k="name" v="Nord-Laugje" />
		<tag k="place" v="farm" />
		<tag k="ssr:stedsnr" v="430046" />
	</node>
	<node id="-193226" lat="60.0820472241" lon="9.13435834012">
		<tag k="name" v="Rikhaug" />
		<tag k="place" v="isolated_dwelling" />
		<tag k="ssr:stedsnr" v="429734" />
	</node>
	<node id="-193222" lat="60.0460166631" lon="9.03198333161">
		<tag k="name" v="Veggli Fjellstue" />
		<tag k="ssr:stedsnr" v="429662" />
		<tag k="tourism" v="guest_house" />
	</node>
	<node id="-193220" lat="60.0625083372" lon="9.09079166116">
		<tag k="historic" v="shieling" />
		<tag k="name" v="Søre Skavlemsetre" />
		<tag k="place" v="locality" />
		<tag k="ssr:stedsnr" v="429628" />
	</node>
	<node id="-193218" lat="60.0557055598" lon="9.13221944462">
		<tag k="name" v="Tveitkøse" />
		<tag k="place" v="farm" />
		<tag k="ssr:stedsnr" v="429614" />
	</node>
	<node id="-193217" lat="60.0539805551" lon="9.12316388986">
		<tag k="name" v="Åsheim" />
		<tag k="place" v="farm" />
		<tag k="ssr:stedsnr" v="429615" />
	</node>
	<node id="-193216" lat="59.9750361085" lon="9.08056110766">
		<tag k="historic" v="shieling" />
		<tag k="name" v="Vorset" />
		<tag k="place" v="locality" />
		<tag k="ssr:stedsnr" v="429603" />
	</node>
	<node id="-193214" lat="60.1242499961" lon="9.19555278541">
		<tag k="historic" v="shieling" />
		<tag k="name" v="Nybu" />
		<tag k="place" v="locality" />
		<tag k="ssr:stedsnr" v="429529" />
	</node>
	<node id="-193211" lat="60.0250027808" lon="9.08704999927">
		<tag k="name" v="Plassesetre" />
		<tag k="place" v="isolated_dwelling" />
		<tag k="ssr:stedsnr" v="429337" />
	</node>
	<node id="-193210" lat="60.0306083351" lon="9.10259444711">
		<tag k="name" v="Vestre Lien" />
		<tag k="place" v="farm" />
		<tag k="ssr:stedsnr" v="429336" />
	</node>
	<node id="-193209" lat="59.9490861112" lon="9.31072221959">
		<tag k="name" v="Myran" />
		<tag k="place" v="farm" />
		<tag k="ssr:stedsnr" v="429315" />
	</node>
	<node id="-193208" lat="60.0338249968" lon="9.20625278483">
		<tag k="alt_name" v="Bekkjorden, nordre" />
		<tag k="name" v="Nordre Bekkjorden" />
		<tag k="place" v="farm" />
		<tag k="ssr:stedsnr" v="429309" />
	</node>
	<node id="-193206" lat="60.0273083305" lon="9.16031389323">
		<tag k="name" v="Blakkstad" />
		<tag k="place" v="farm" />
		<tag k="ssr:stedsnr" v="429295" />
	</node>
	<node id="-193205" lat="60.0039777748" lon="9.14602500429">
		<tag k="name" v="Gørrbu" />
		<tag k="place" v="locality" />
		<tag k="ssr:stedsnr" v="429266" />
	</node>
	<node id="-193203" lat="59.9400888865" lon="9.23269999562">
		<tag k="historic" v="shieling" />
		<tag k="name" v="Fyriset" />
		<tag k="old_name" v="Furuset;Furusæt" />
		<tag k="place" v="locality" />
		<tag k="ssr:stedsnr" v="429135" />
	</node>
	<node id="-193202" lat="60.084172222" lon="9.31772500207">
		<tag k="historic" v="shieling" />
		<tag k="name" v="Åset" />
		<tag k="place" v="locality" />
		<tag k="ssr:stedsnr" v="429110" />
	</node>
	<node id="-193200" lat="60.0095527806" lon="9.3298333379">
		<tag k="historic" v="shieling" />
		<tag k="name" v="Skarpmosetre" />
		<tag k="place" v="locality" />
		<tag k="ssr:stedsnr" v="429010" />
	</node>
	<node id="-193198" lat="59.9875222215" lon="9.16256666587">
		<tag k="historic" v="shieling" />
		<tag k="name" v="Nedre Røynebuin" />
		<tag k="place" v="locality" />
		<tag k="ssr:stedsnr" v="428924" />
	</node>
	<node id="-193195" lat="59.9690333333" lon="9.37161111909">
		<tag k="historic" v="shieling" />
		<tag k="name" v="Fløtterudsetre" />
		<tag k="place" v="locality" />
		<tag k="ssr:stedsnr" v="428315" />
	</node>
	<node id="-193193" lat="59.9788083369" lon="9.3102138856">
		<tag k="name" v="Nordhov" />
		<tag k="place" v="farm" />
		<tag k="ssr:stedsnr" v="428267" />
	</node>
	<node id="-193192" lat="59.9824277796" lon="9.31085555714">
		<tag k="alt_name" v="Søndre Li" />
		<tag k="name" v="Søre Li" />
		<tag k="place" v="farm" />
		<tag k="ssr:stedsnr" v="428264" />
	</node>
	<node id="-193191" lat="59.9992777816" lon="9.32709444599">
		<tag k="name" v="Bjørndalen" />
		<tag k="place" v="farm" />
		<tag k="ssr:stedsnr" v="428259" />
	</node>
	<node id="-193189" lat="59.9163083646" lon="9.28819795634">
		<tag k="historic" v="shieling" />
		<tag k="name" v="Stabekksetre" />
		<tag k="place" v="locality" />
		<tag k="ssr:stedsnr" v="428179" />
	</node>
	<node id="-193188" lat="59.9377250009" lon="9.33414722574">
		<tag k="name" v="Langerud" />
		<tag k="place" v="farm" />
		<tag k="ssr:stedsnr" v="428121" />
	</node>
	<node id="-193187" lat="60.0396166686" lon="9.176377775">
		<tag k="name" v="Øygarden" />
		<tag k="place" v="farm" />
		<tag k="ssr:stedsnr" v="267335" />
	</node>
	<node id="-193185" lat="60.0010444406" lon="9.27653333138">
		<tag k="name" v="Skarpmoen" />
		<tag k="place" v="farm" />
		<tag k="ssr:stedsnr" v="248405" />
	</node>
	<node id="-193184" lat="60.0319500039" lon="9.25003611521">
		<tag k="name" v="Nirigard" />
		<tag k="place" v="farm" />
		<tag k="ssr:stedsnr" v="248047" />
	</node>
	<node id="-193183" lat="60.035380556" lon="9.24516111385">
		<tag k="alt_name" v="Mellem Fulsås" />
		<tag k="name" v="Fulsås" />
		<tag k="place" v="farm" />
		<tag k="ssr:stedsnr" v="248045" />
	</node>
	<node id="-193179" lat="60.0776527745" lon="9.17530832813">
		<tag k="historic" v="shieling" />
		<tag k="name" v="Nattestadsetre" />
		<tag k="place" v="locality" />
		<tag k="ssr:stedsnr" v="247743" />
	</node>
	<node id="-193178" lat="60.0768499973" lon="9.10761666164">
		<tag k="name" v="Haugen" />
		<tag k="place" v="farm" />
		<tag k="ssr:stedsnr" v="247730" />
	</node>
	<node id="-193177" lat="60.0741999977" lon="9.13461388566">
		<tag k="historic" v="shieling" />
		<tag k="name" v="Finngardsplassen" />
		<tag k="place" v="locality" />
		<tag k="ssr:stedsnr" v="247728" />
	</node>
	<node id="-193176" lat="60.0862999999" lon="9.13744999316">
		<tag k="name" v="Årvelta" />
		<tag k="place" v="farm" />
		<tag k="ssr:stedsnr" v="247673" />
	</node>
	<node id="-193174" lat="60.0642388895" lon="9.10791666105">
		<tag k="name" v="Lykkja" />
		<tag k="place" v="farm" />
		<tag k="ssr:stedsnr" v="247635" />
	</node>
	<node id="-193173" lat="60.0590500038" lon="9.12022499447">
		<tag k="name" v="Brekkshaugen" />
		<tag k="place" v="farm" />
		<tag k="ssr:stedsnr" v="247627" />
	</node>
	<node id="-193170" lat="59.9562527813" lon="9.18074722164">
		<tag k="name" v="Nyset" />
		<tag k="place" v="locality" />
		<tag k="ssr:stedsnr" v="247558" />
	</node>
	<node id="-193169" lat="59.9150361151" lon="9.21670000815">
		<tag k="name" v="Bergseidfjellbuin" />
		<tag k="old_name" v="Fjeldbuin" />
		<tag k="place" v="locality" />
		<tag k="ssr:stedsnr" v="247497" />
	</node>
	<node id="-193168" lat="60.0298361136" lon="9.112344437">
		<tag k="name" v="Lillebøle" />
		<tag k="place" v="farm" />
		<tag k="ssr:stedsnr" v="247345" />
	</node>
	<node id="-193167" lat="60.0295833357" lon="9.14653889722">
		<tag k="name" v="Søre Gladheim" />
		<tag k="place" v="farm" />
		<tag k="ssr:stedsnr" v="247343" />
	</node>
	<node id="-193166" lat="60.0340888891" lon="9.10474722466">
		<tag k="name" v="Augunsrud" />
		<tag k="place" v="farm" />
		<tag k="ssr:stedsnr" v="247337" />
	</node>
	<node id="-193165" lat="59.9541055523" lon="9.33269999305">
		<tag k="name" v="Selsteigen" />
		<tag k="place" v="farm" />
		<tag k="ssr:stedsnr" v="247322" />
	</node>
	<node id="-193164" lat="60.0317611145" lon="9.18578889363">
		<tag k="alt_name" v="Fjøse, s" />
		<tag k="name" v="Søre Fjøse" />
		<tag k="place" v="farm" />
		<tag k="ssr:stedsnr" v="247318" />
	</node>
	<node id="-193163" lat="60.0257527768" lon="9.19466666764">
		<tag k="name" v="Brenna" />
		<tag k="place" v="isolated_dwelling" />
		<tag k="ssr:stedsnr" v="247310" />
	</node>
	<node id="-193162" lat="60.005474997" lon="9.12922500264">
		<tag k="name" v="Halvorset" />
		<tag k="place" v="locality" />
		<tag k="ssr:stedsnr" v="247273" />
	</node>
	<node id="-193161" lat="60.003974996" lon="9.12328333462">
		<tag k="name" v="Brennbu" />
		<tag k="place" v="locality" />
		<tag k="ssr:stedsnr" v="247270" />
	</node>
	<node id="-193158" lat="59.9410805524" lon="9.34506111558">
		<tag k="name" v="Djupdal" />
		<tag k="place" v="farm" />
		<tag k="ssr:stedsnr" v="247119" />
	</node>
	<node id="-193157" lat="60.0539944409" lon="9.32656111165">
		<tag k="name" v="Bergestulen" />
		<tag k="place" v="locality" />
		<tag k="ssr:stedsnr" v="247059" />
	</node>
	<node id="-193155" lat="60.0043111117" lon="9.3019611045">
		<tag k="name" v="Asbjørnrud" />
		<tag k="place" v="farm" />
		<tag k="ssr:stedsnr" v="247013" />
	</node>
	<node id="-193153" lat="60.0011861145" lon="9.24193332717">
		<tag k="name" v="Hovdeset" />
		<tag k="place" v="locality" />
		<tag k="ssr:stedsnr" v="247001" />
	</node>
	<node id="-193151" lat="59.9484222206" lon="9.18750555239">
		<tag k="historic" v="shieling" />
		<tag k="name" v="Landsverksetre" />
		<tag k="place" v="locality" />
		<tag k="ssr:stedsnr" v="246532" />
	</node>
	<node id="-193150" lat="59.9650694423" lon="9.29928333125">
		<tag k="name" v="Alstad" />
		<tag k="old_name" v="Ælfstad" />
		<tag k="place" v="farm" />
		<tag k="ssr:stedsnr" v="246357" />
	</node>
	<node id="-193148" lat="59.9739944409" lon="9.42550278195">
		<tag k="name" v="Nyset" />
		<tag k="place" v="isolated_dwelling" />
		<tag k="ssr:stedsnr" v="246309" />
	</node>
	<node id="-193147" lat="59.9756055581" lon="9.37532222477">
		<tag k="name" v="Korsløken" />
		<tag k="place" v="isolated_dwelling" />
		<tag k="ssr:stedsnr" v="246306" />
	</node>
	<node id="-193144" lat="59.9957749971" lon="9.32727500547">
		<tag k="alt_name" v="Skuggerud" />
		<tag k="name" v="Nordre Skuggerud" />
		<tag k="place" v="farm" />
		<tag k="ssr:stedsnr" v="246282" />
	</node>
	<node id="-193142" lat="59.9200611155" lon="9.33752778163">
		<tag k="name" v="Haugen" />
		<tag k="place" v="farm" />
		<tag k="ssr:stedsnr" v="246208" />
	</node>
	<node id="-193132" lat="60.0306638868" lon="9.37591666495">
		<tag k="historic" v="shieling" />
		<tag k="name" v="Hølsetre" />
		<tag k="place" v="locality" />
		<tag k="ssr:stedsnr" v="211925" />
	</node>
	<node id="-193130" lat="59.9820666704" lon="9.34163333263">
		<tag k="name" v="Trettebråtan" />
		<tag k="place" v="locality" />
		<tag k="ssr:stedsnr" v="211893" />
	</node>
	<node id="-193127" lat="59.9032500032" lon="9.30033055686">
		<tag k="name" v="Askebråtån" />
		<tag k="place" v="locality" />
		<tag k="ssr:stedsnr" v="211866" />
	</node>
	<node id="-193126" lat="60.0251000032" lon="9.21613611719">
		<tag k="name" v="Brennhovda" />
		<tag k="place" v="locality" />
		<tag k="ssr:stedsnr" v="211863" />
	</node>
	<node id="-193121" lat="60.0155916627" lon="9.24193333072">
		<tag k="name" v="Brekke" />
		<tag k="place" v="locality" />
		<tag k="ssr:stedsnr" v="211786" />
	</node>
	<node id="-193114" lat="59.931280555" lon="9.35375277846">
		<tag k="name" v="Plassen" />
		<tag k="place" v="locality" />
		<tag k="ssr:stedsnr" v="211742" />
	</node>
	<node id="-193113" lat="60.017255557" lon="9.28897500226">
		<tag k="name" v="Fuglesang" />
		<tag k="place" v="locality" />
		<tag k="ssr:stedsnr" v="211738" />
	</node>
	<node id="-193112" lat="60.0071055545" lon="9.29777222103">
		<tag k="name" v="Søre Rønningen" />
		<tag k="place" v="locality" />
		<tag k="ssr:stedsnr" v="211736" />
	</node>
	<node id="-193106" lat="60.0437999959" lon="9.15011389609">
		<tag k="name" v="Nedre Mykstu" />
		<tag k="place" v="farm" />
		<tag k="ssr:stedsnr" v="211676" />
	</node>
	<node id="-193105" lat="60.0341944449" lon="9.07996110607">
		<tag k="name" v="Brennbu" />
		<tag k="place" v="isolated_dwelling" />
		<tag k="ssr:stedsnr" v="211651" />
	</node>
	<node id="-193104" lat="60.0099027765" lon="9.19155278435">
		<tag k="historic" v="shieling" />
		<tag k="name" v="Grånåbukollen" />
		<tag k="place" v="locality" />
		<tag k="ssr:stedsnr" v="211582" />
	</node>
	<node id="-193100" lat="60.0796138874" lon="9.13259722271">
		<tag k="name" v="Pontedalen" />
		<tag k="place" v="isolated_dwelling" />
		<tag k="ssr:stedsnr" v="211514" />
	</node>
	<node id="-193096" lat="60.0684916627" lon="9.13290277252">
		<tag k="name" v="Fantekleiv" />
		<tag k="place" v="isolated_dwelling" />
		<tag k="ssr:stedsnr" v="211481" />
	</node>
	<node id="-193095" lat="60.127288892" lon="9.18440833611">
		<tag k="historic" v="shieling" />
		<tag k="name" v="Bergeset" />
		<tag k="place" v="locality" />
		<tag k="ssr:stedsnr" v="211458" />
	</node>
	<node id="-193093" lat="60.033988891" lon="9.05189722653">
		<tag k="name" v="Torvhytta" />
		<tag k="place" v="isolated_dwelling" />
		<tag k="ssr:stedsnr" v="211422" />
	</node>
	<node id="-193090" lat="60.0535083307" lon="9.13475555542">
		<tag k="name" v="Tromperud" />
		<tag k="place" v="locality" />
		<tag k="ssr:stedsnr" v="211327" />
	</node>
	<node id="-193088" lat="60.0533777817" lon="9.14681665904">
		<tag k="name" v="Dustrud" />
		<tag k="place" v="locality" />
		<tag k="ssr:stedsnr" v="211326" />
	</node>
	<node id="-193071" lat="60.0382750041" lon="9.15865278504">
		<tag k="name" v="Glaimkøse" />
		<tag k="place" v="farm" />
		<tag k="ssr:stedsnr" v="206357" />
	</node>
	<node id="-193070" lat="60.0362888896" lon="9.14364445153">
		<tag k="name" v="Omdalen" />
		<tag k="place" v="farm" />
		<tag k="ssr:stedsnr" v="206356" />
	</node>
	<node id="-193069" lat="60.0770111124" lon="9.13340277995">
		<tag k="fixme" v="multiple name tags, choose one and add the other to alt_name" />
		<tag k="name" v="Oskehølet;Oskehågån" />
		<tag k="place" v="locality" />
		<tag k="ssr:stedsnr" v="187714" />
	</node>
	<node id="-193068" lat="60.0808027811" lon="9.10937499913">
		<tag k="fixme" v="consider place=hamlet" />
		<tag k="name" v="Lågårgarden" />
		<tag k="place" v="farm" />
		<tag k="ssr:stedsnr" v="187707" />
	</node>
	<node id="-193067" lat="60.0682166639" lon="9.04873333058">
		<tag k="name" v="Dalsethaugen" />
		<tag k="place" v="isolated_dwelling" />
		<tag k="ssr:stedsnr" v="187697" />
	</node>
	<node id="-193065" lat="60.0446166644" lon="9.13792221917">
		<tag k="alt_name" v="Mykstu, nordre" />
		<tag k="name" v="Mykstu" />
		<tag k="place" v="farm" />
		<tag k="ssr:stedsnr" v="187634" />
	</node>
	<node id="-193062" lat="60.0377888898" lon="9.03221111689">
		<tag k="historic" v="shieling" />
		<tag k="name" v="Høggerudsetre" />
		<tag k="place" v="locality" />
		<tag k="ssr:stedsnr" v="187328" />
	</node>
	<node id="-193058" lat="60.0293305512" lon="9.27616111453">
		<tag k="name" v="Øyberg" />
		<tag k="place" v="farm" />
		<tag k="ssr:stedsnr" v="187036" />
	</node>
	<node id="-193052" lat="60.0628361151" lon="9.109491659">
		<tag k="name" v="Fløset" />
		<tag k="place" v="farm" />
		<tag k="ssr:stedsnr" v="186686" />
	</node>
	<node id="-193049" lat="60.027988892" lon="8.99850277838">
		<tag k="name" v="Kråkås" />
		<tag k="place" v="isolated_dwelling" />
		<tag k="ssr:stedsnr" v="186379" />
	</node>
	<node id="-193041" lat="59.9620638854" lon="9.28726388948">
		<tag k="name" v="Åsen" />
		<tag k="old_name" v="Venaasaasen" />
		<tag k="place" v="farm" />
		<tag k="ssr:stedsnr" v="186329" />
	</node>
	<node id="-193040" lat="59.9620583374" lon="9.25394999576">
		<tag k="historic" v="shieling" />
		<tag k="name" v="Veli" />
		<tag k="place" v="locality" />
		<tag k="ssr:stedsnr" v="186328" />
	</node>
	<node id="-193038" lat="60.0616888893" lon="9.27147499514">
		<tag k="historic" v="shieling" />
		<tag k="name" v="Konnulisetre" />
		<tag k="place" v="locality" />
		<tag k="ssr:stedsnr" v="186071" />
	</node>
	<node id="-193037" lat="59.9717138896" lon="9.36078611725">
		<tag k="name" v="Kjommesetre" />
		<tag k="place" v="isolated_dwelling" />
		<tag k="ssr:stedsnr" v="185325" />
	</node>
	<node id="-193036" lat="59.9905055512" lon="9.43838333661">
		<tag k="name" v="Pavelund" />
		<tag k="place" v="isolated_dwelling" />
		<tag k="ssr:stedsnr" v="185288" />
	</node>
	<node id="-193033" lat="59.9774914231" lon="9.33418379432">
		<tag k="historic" v="shieling" />
		<tag k="name" v="Hovsmoen" />
		<tag k="place" v="locality" />
		<tag k="ssr:stedsnr" v="185271" />
	</node>
	<node id="-193032" lat="59.9290444464" lon="9.25142500499">
		<tag k="name" v="Nybu" />
		<tag k="place" v="isolated_dwelling" />
		<tag k="ssr:stedsnr" v="185142" />
	</node>
	<node id="-193030" lat="59.9267138874" lon="9.37503888413">
		<tag k="name" v="Åsberg" />
		<tag k="place" v="isolated_dwelling" />
		<tag k="ssr:stedsnr" v="185159" />
	</node>
	<node id="-193023" lat="59.9761666651" lon="9.28161111214">
		<tag k="name" v="Stærnesplassen" />
		<tag k="place" v="isolated_dwelling" />
		<tag k="ssr:stedsnr" v="150934" />
	</node>
	<node id="-193021" lat="59.9869222204" lon="9.33915833115">
		<tag k="name" v="Bekkevoll" />
		<tag k="place" v="farm" />
		<tag k="ssr:stedsnr" v="150921" />
	</node>
	<node id="-193019" lat="59.9157361105" lon="9.36449445301">
		<tag k="name" v="Dalen" />
		<tag k="place" v="isolated_dwelling" />
		<tag k="ssr:stedsnr" v="150828" />
	</node>
	<node id="-193015" lat="59.9370083352" lon="9.35439722117">
		<tag k="alt_name" v="Ødegården" />
		<tag k="loc_name" v="Øygarden" />
		<tag k="name" v="Ødegarden" />
		<tag k="place" v="farm" />
		<tag k="ssr:stedsnr" v="150768" />
	</node>
	<node id="-193008" lat="59.9165361142" lon="9.33081665993">
		<tag k="name" v="Køse" />
		<tag k="place" v="locality" />
		<tag k="ssr:stedsnr" v="150728" />
	</node>
	<node id="-193004" lat="60.036472224" lon="9.10713610478">
		<tag k="historic" v="shieling" />
		<tag k="name" v="Kittilslandsetre" />
		<tag k="place" v="locality" />
		<tag k="ssr:stedsnr" v="150640" />
	</node>
	<node id="-193003" lat="60.035980557" lon="9.10538332547">
		<tag k="name" v="Haukjem heimsetre" />
		<tag k="place" v="isolated_dwelling" />
		<tag k="ssr:stedsnr" v="150639" />
	</node>
	<node id="-192999" lat="60.0324861095" lon="9.16136945076">
		<tag k="name" v="Nygård" />
		<tag k="place" v="isolated_dwelling" />
		<tag k="ssr:stedsnr" v="150614" />
	</node>
	<node id="-192996" lat="59.9812194454" lon="9.27123333048">
		<tag k="name" v="Storekøs" />
		<tag k="place" v="locality" />
		<tag k="ssr:stedsnr" v="150558" />
	</node>
	<node id="-192995" lat="59.9865999987" lon="9.29178055749">
		<tag k="loc_name" v="Søre Bjerge" />
		<tag k="name" v="Søre Bjørge" />
		<tag k="place" v="farm" />
		<tag k="ssr:stedsnr" v="150550" />
	</node>
	<node id="-192989" lat="60.0674194422" lon="9.12858611019">
		<tag k="name" v="Fantekleiv" />
		<tag k="place" v="isolated_dwelling" />
		<tag k="ssr:stedsnr" v="150485" />
	</node>
	<node id="-192977" lat="59.8902305551" lon="9.24740278221">
		<tag k="historic" v="shieling" />
		<tag k="name" v="Søre Butjønnseter" />
		<tag k="place" v="locality" />
		<tag k="ssr:stedsnr" v="150162" />
	</node>
	<node id="-192970" lat="60.0063222256" lon="9.39940833519">
		<tag k="name" v="Løkeset" />
		<tag k="place" v="isolated_dwelling" />
		<tag k="ssr:stedsnr" v="149721" />
	</node>
	<node id="-192964" lat="60.0442027734" lon="9.22861944813">
		<tag k="name" v="Søre Gylvik" />
		<tag k="place" v="isolated_dwelling" />
		<tag k="ssr:stedsnr" v="149221" />
	</node>
	<node id="-192961" lat="60.0952888881" lon="9.10489444769">
		<tag k="historic" v="shieling" />
		<tag k="name" v="Skørra" />
		<tag k="place" v="locality" />
		<tag k="ssr:stedsnr" v="145321" />
	</node>
	<node id="-192960" lat="60.0020611082" lon="9.34348055557">
		<tag k="historic" v="shieling" />
		<tag k="name" v="Espeset" />
		<tag k="place" v="locality" />
		<tag k="ssr:stedsnr" v="268528" />
	</node>
	<node id="-192958" lat="60.0422722259" lon="9.15479444864">
		<tag k="name" v="Veggli" />
		<tag k="place" v="village" />
		<tag k="ssr:stedsnr" v="126656" />
	</node>
	<node id="-192956" lat="60.027624999" lon="9.21849444513">
		<tag k="alt_name" v="Søre Haslerud" />
		<tag k="name" v="Haslerud" />
		<tag k="place" v="farm" />
		<tag k="ssr:stedsnr" v="126423" />
	</node>
	<node id="-192955" lat="60.0045333293" lon="9.15645833859">
		<tag k="historic" v="shieling" />
		<tag k="name" v="Fjøsesetre" />
		<tag k="place" v="locality" />
		<tag k="ssr:stedsnr" v="126275" />
	</node>
	<node id="-192946" lat="60.0480527814" lon="9.14937222065">
		<tag k="name" v="Vikje" />
		<tag k="place" v="farm" />
		<tag k="ssr:stedsnr" v="125696" />
	</node>
	<node id="-192945" lat="60.0618166637" lon="9.13501111229">
		<tag k="name" v="Helgesplassen" />
		<tag k="place" v="farm" />
		<tag k="ssr:stedsnr" v="125666" />
	</node>
	<node id="-192943" lat="60.0512638932" lon="9.11408055935">
		<tag k="name" v="Åsen" />
		<tag k="place" v="locality" />
		<tag k="ssr:stedsnr" v="125651" />
	</node>
	<node id="-192942" lat="60.0526999964" lon="9.10821944328">
		<tag k="name" v="Eilevbu" />
		<tag k="place" v="isolated_dwelling" />
		<tag k="ssr:stedsnr" v="125650" />
	</node>
	<node id="-192941" lat="60.0594250012" lon="9.1735111064">
		<tag k="name" v="Toeneiet" />
		<tag k="place" v="farm" />
		<tag k="ssr:stedsnr" v="125646" />
	</node>
	<node id="-192936" lat="60.1146416693" lon="9.16460832742">
		<tag k="historic" v="shieling" />
		<tag k="name" v="Nysetsetre" />
		<tag k="place" v="locality" />
		<tag k="ssr:stedsnr" v="125553" />
	</node>
	<node id="-192930" lat="59.9498250012" lon="9.31736944402">
		<tag k="name" v="Bergseid" />
		<tag k="place" v="farm" />
		<tag k="ssr:stedsnr" v="125368" />
	</node>
	<node id="-192928" lat="59.9704555523" lon="9.29582222265">
		<tag k="name" v="Tinnes" />
		<tag k="place" v="farm" />
		<tag k="ssr:stedsnr" v="125364" />
	</node>
	<node id="-192926" lat="59.996994444" lon="9.41961110502">
		<tag k="name" v="Elddalen" />
		<tag k="place" v="isolated_dwelling" />
		<tag k="ssr:stedsnr" v="125276" />
	</node>
	<node id="-192925" lat="59.8951027807" lon="9.24636111858">
		<tag k="historic" v="shieling" />
		<tag k="name" v="Butjønnseter" />
		<tag k="place" v="locality" />
		<tag k="ssr:stedsnr" v="125260" />
	</node>
	<node id="-192920" lat="60.0511027795" lon="9.35924722096">
		<tag k="name" v="Langsetre" />
		<tag k="place" v="locality" />
		<tag k="ssr:stedsnr" v="125077" />
	</node>
	<node id="-192917" lat="60.0045472212" lon="9.29291666962">
		<tag k="name" v="Kleiv" />
		<tag k="place" v="farm" />
		<tag k="ssr:stedsnr" v="125008" />
	</node>
	<node id="-192916" lat="60.0271555514" lon="9.18130833318">
		<tag k="name" v="Jaren" />
		<tag k="place" v="farm" />
		<tag k="ssr:stedsnr" v="125350" />
	</node>
	<node id="-192915" lat="59.985552779" lon="9.3887305547">
		<tag k="historic" v="shieling" />
		<tag k="name" v="Gørrbu" />
		<tag k="place" v="locality" />
		<tag k="ssr:stedsnr" v="125317" />
	</node>
	<node id="-192911" lat="59.969691668" lon="9.32885277247">
		<tag k="name" v="Bergerud" />
		<tag k="place" v="locality" />
		<tag k="ssr:stedsnr" v="90939" />
	</node>
	<node id="-192892" lat="60.0593222222" lon="9.1367888926">
		<tag k="name" v="Haugen" />
		<tag k="place" v="isolated_dwelling" />
		<tag k="ssr:stedsnr" v="90298" />
	</node>
	<node id="-192880" lat="60.0415166703" lon="9.20762777684">
		<tag k="name" v="Søre Kongsjorden" />
		<tag k="place" v="farm" />
		<tag k="ssr:stedsnr" v="89858" />
	</node>
	<node id="-192877" lat="60.0273194424" lon="9.27812777789">
		<tag k="name" v="Nyhus" />
		<tag k="place" v="locality" />
		<tag k="ssr:stedsnr" v="89835" />
	</node>
	<node id="-192876" lat="60.0019333309" lon="9.24136667267">
		<tag k="name" v="Hovdesetskarven" />
		<tag k="place" v="isolated_dwelling" />
		<tag k="ssr:stedsnr" v="89823" />
	</node>
	<node id="-192870" lat="60.0378222214" lon="9.18345832879">
		<tag k="name" v="Nedre Risteigen" />
		<tag k="place" v="farm" />
		<tag k="ssr:stedsnr" v="89694" />
	</node>
	<node id="-192869" lat="60.0415805559" lon="9.15024166909">
		<tag k="amenity" v="school" />
		<tag k="name" v="Veggli skole" />
		<tag k="old_name" v="Veggli barne- og ungdomsskole" />
		<tag k="ssr:stedsnr" v="89659" />
	</node>
	<node id="-192868" lat="60.0392972217" lon="9.15388611566">
		<tag k="name" v="Svensplass" />
		<tag k="place" v="isolated_dwelling" />
		<tag k="ssr:stedsnr" v="89656" />
	</node>
	<node id="-192867" lat="60.0428305584" lon="9.15025278593">
		<tag k="amenity" v="nursing_home" />
		<tag k="name" v="Rollag alders- og sykehjem" />
		<tag k="ssr:stedsnr" v="89655" />
	</node>
	<node id="-192864" lat="59.9909777756" lon="9.26808611453">
		<tag k="name" v="Høgrud" />
		<tag k="place" v="locality" />
		<tag k="ssr:stedsnr" v="89544" />
	</node>
	<node id="-192862" lat="60.0318944439" lon="9.22080833641">
		<tag k="name" v="Hågan" />
		<tag k="place" v="locality" />
		<tag k="ssr:stedsnr" v="89276" />
	</node>
	<node id="-192850" lat="60.0387416641" lon="9.1343083261">
		<tag k="name" v="Myre" />
		<tag k="place" v="isolated_dwelling" />
		<tag k="ssr:stedsnr" v="66340" />
	</node>
	<node id="-192849" lat="60.0249250021" lon="9.25705276974">
		<tag k="name" v="Søre Skogen" />
		<tag k="place" v="isolated_dwelling" />
		<tag k="ssr:stedsnr" v="66040" />
	</node>
	<node id="-192848" lat="60.0294694468" lon="9.25640555122">
		<tag k="name" v="Fugleåsen" />
		<tag k="place" v="farm" />
		<tag k="ssr:stedsnr" v="66038" />
	</node>
	<node id="-192847" lat="60.0270749964" lon="9.26786111408">
		<tag k="alt_name" v="Øvre Solberg" />
		<tag k="name" v="Solberg" />
		<tag k="place" v="farm" />
		<tag k="ssr:stedsnr" v="66035" />
	</node>
	<node id="-192846" lat="60.0286277807" lon="9.22550000771">
		<tag k="name" v="Snørud" />
		<tag k="place" v="farm" />
		<tag k="ssr:stedsnr" v="66034" />
	</node>
	<node id="-192840" lat="60.0861916681" lon="9.1206249936">
		<tag k="name" v="Kulterud" />
		<tag k="place" v="farm" />
		<tag k="ssr:stedsnr" v="65687" />
	</node>
	<node id="-192839" lat="60.0504166707" lon="9.16222499708">
		<tag k="name" v="Andresplassen" />
		<tag k="place" v="farm" />
		<tag k="ssr:stedsnr" v="65674" />
	</node>
	<node id="-192837" lat="60.0619861152" lon="9.14355000238">
		<tag k="name" v="Nattestad" />
		<tag k="place" v="farm" />
		<tag k="ssr:stedsnr" v="65625" />
	</node>
	<node id="-192835" lat="60.0505888924" lon="9.07125832672">
		<tag k="historic" v="shieling" />
		<tag k="name" v="Høybulie" />
		<tag k="place" v="locality" />
		<tag k="ssr:stedsnr" v="65616" />
	</node>
	<node id="-192834" lat="60.0580166693" lon="9.16791666809">
		<tag k="name" v="Nyhus" />
		<tag k="place" v="farm" />
		<tag k="ssr:stedsnr" v="65611" />
	</node>
	<node id="-192827" lat="59.9454416703" lon="9.32115833016">
		<tag k="name" v="Brumsdalen" />
		<tag k="old_name" v="Brunsdal" />
		<tag k="place" v="farm" />
		<tag k="ssr:stedsnr" v="65127" />
	</node>
	<node id="-192825" lat="60.0891305518" lon="9.27664167036">
		<tag k="historic" v="shieling" />
		<tag k="name" v="Gamleseterdalen" />
		<tag k="place" v="locality" />
		<tag k="ssr:stedsnr" v="65098" />
	</node>
	<node id="-192822" lat="59.9880666693" lon="9.09360555714">
		<tag k="historic" v="shieling" />
		<tag k="name" v="Skjenholtet" />
		<tag k="place" v="locality" />
		<tag k="ssr:stedsnr" v="64940" />
	</node>
	<node id="-192821" lat="59.9753750008" lon="9.25801111113">
		<tag k="historic" v="shieling" />
		<tag k="name" v="Landsverksetre" />
		<tag k="place" v="locality" />
		<tag k="ssr:stedsnr" v="64347" />
	</node>
	<node id="-192819" lat="59.9785805549" lon="9.28016389734">
		<tag k="name" v="Ramsrud" />
		<tag k="place" v="farm" />
		<tag k="ssr:stedsnr" v="64292" />
	</node>
	<node id="-192818" lat="59.9878472197" lon="9.27535000724">
		<tag k="name" v="Klukkarmogen" />
		<tag k="place" v="farm" />
		<tag k="ssr:stedsnr" v="64258" />
	</node>
	<node id="-192816" lat="59.9268222267" lon="9.33797222347">
		<tag k="name" v="Teigen" />
		<tag k="place" v="isolated_dwelling" />
		<tag k="ssr:stedsnr" v="64170" />
	</node>
	<node id="-192815" lat="59.9334944455" lon="9.34856110908">
		<tag k="name" v="Godstad" />
		<tag k="old_name" v="Godestad" />
		<tag k="place" v="farm" />
		<tag k="ssr:stedsnr" v="64151" />
	</node>
	<node id="-192814" lat="59.9529777803" lon="9.26444445206">
		<tag k="historic" v="shieling" />
		<tag k="name" v="Liset" />
		<tag k="place" v="locality" />
		<tag k="ssr:stedsnr" v="65333" />
	</node>
	<node id="-192813" lat="59.9522527785" lon="9.31629999901">
		<tag k="name" v="Båtstøhaugen" />
		<tag k="old_name" v="Bustehaugen" />
		<tag k="place" v="farm" />
		<tag k="ssr:stedsnr" v="65330" />
	</node>
	<node id="-192811" lat="60.0245583314" lon="9.17448332777">
		<tag k="loc_name" v="Høgsethaugen" />
		<tag k="name" v="Høysethaugen" />
		<tag k="old_name" v="Haugen" />
		<tag k="place" v="farm" />
		<tag k="ssr:stedsnr" v="65305" />
	</node>
	<node id="-192810" lat="60.0225583325" lon="9.21714999497">
		<tag k="name" v="Nordre Vidhåmmår" />
		<tag k="place" v="farm" />
		<tag k="ssr:stedsnr" v="65299" />
	</node>
	<node id="-192804" lat="59.9760333317" lon="9.28696111635">
		<tag k="name" v="Granheim" />
		<tag k="place" v="isolated_dwelling" />
		<tag k="ssr:stedsnr" v="29947" />
	</node>
	<node id="-192803" lat="59.968450001" lon="9.3165166641">
		<tag k="name" v="Kjommeplassen" />
		<tag k="place" v="locality" />
		<tag k="ssr:stedsnr" v="29945" />
	</node>
	<node id="-192793" lat="59.9373944477" lon="9.31598888888">
		<tag k="name" v="Køse" />
		<tag k="place" v="locality" />
		<tag k="ssr:stedsnr" v="29786" />
	</node>
	<node id="-192792" lat="59.936627777" lon="9.38090278168">
		<tag k="name" v="Knutebråtån" />
		<tag k="place" v="isolated_dwelling" />
		<tag k="ssr:stedsnr" v="29779" />
	</node>
	<node id="-192789" lat="59.9248833292" lon="9.33339721882">
		<tag k="name" v="Donavollen" />
		<tag k="place" v="locality" />
		<tag k="ssr:stedsnr" v="29768" />
	</node>
	<node id="-192788" lat="60.0430222204" lon="9.13503888975">
		<tag k="name" v="Øvre Haukjem" />
		<tag k="place" v="farm" />
		<tag k="ssr:stedsnr" v="29691" />
	</node>
	<node id="-192787" lat="60.0297166647" lon="9.14356388636">
		<tag k="name" v="Nordre Gladheim" />
		<tag k="place" v="farm" />
		<tag k="ssr:stedsnr" v="29689" />
	</node>
	<node id="-192782" lat="59.9883333306" lon="9.29024999448">
		<tag k="name" v="Haugen" />
		<tag k="place" v="isolated_dwelling" />
		<tag k="ssr:stedsnr" v="29548" />
	</node>
	<node id="-192781" lat="60.0113472217" lon="9.10429721605">
		<tag k="historic" v="shieling" />
		<tag k="name" v="Søre Heimsetre" />
		<tag k="place" v="locality" />
		<tag k="ssr:stedsnr" v="29666" />
	</node>
	<node id="-192758" lat="60.0261138887" lon="9.23174722909">
		<tag k="name" v="Gyldenrud" />
		<tag k="place" v="isolated_dwelling" />
		<tag k="ssr:stedsnr" v="28254" />
	</node>
	<node id="-192753" lat="60.0088027734" lon="9.38976665873">
		<tag k="historic" v="shieling" />
		<tag k="name" v="Sølset" />
		<tag k="place" v="locality" />
		<tag k="ssr:stedsnr" v="25509" />
	</node>
	<node id="-192750" lat="60.0817888926" lon="9.09990278064">
		<tag k="name" v="Skavlemstugo" />
		<tag k="place" v="farm" />
		<tag k="ssr:stedsnr" v="5723" />
	</node>
	<node id="-192745" lat="60.0088750006" lon="9.0197555569">
		<tag k="historic" v="shieling" />
		<tag k="name" v="Votndalen" />
		<tag k="place" v="locality" />
		<tag k="ssr:stedsnr" v="5315" />
	</node>
	<node id="-192743" lat="60.0278444419" lon="9.23769443701">
		<tag k="name" v="Bjorsåte" />
		<tag k="place" v="farm" />
		<tag k="ssr:stedsnr" v="5027" />
	</node>
	<node id="-192734" lat="60.0873805589" lon="9.11557777044">
		<tag k="name" v="Bratterud" />
		<tag k="place" v="farm" />
		<tag k="ssr:stedsnr" v="4694" />
	</node>
	<node id="-192732" lat="60.0615333353" lon="9.11150000579">
		<tag k="name" v="Kallerud" />
		<tag k="place" v="farm" />
		<tag k="ssr:stedsnr" v="4652" />
	</node>
	<node id="-192731" lat="60.0605749975" lon="9.11610000811">
		<tag k="name" v="Brekke" />
		<tag k="place" v="farm" />
		<tag k="ssr:stedsnr" v="4644" />
	</node>
	<node id="-192726" lat="59.9534083339" lon="9.15398055789">
		<tag k="historic" v="shieling" />
		<tag k="name" v="Ålmannbu" />
		<tag k="place" v="locality" />
		<tag k="ssr:stedsnr" v="4581" />
	</node>
	<node id="-192725" lat="60.115999999" lon="9.15620000146">
		<tag k="historic" v="shieling" />
		<tag k="name" v="Gunnarsetre" />
		<tag k="place" v="locality" />
		<tag k="ssr:stedsnr" v="4539" />
	</node>
	<node id="-192722" lat="60.0234249986" lon="9.00677776992">
		<tag k="name" v="Svensrudsetre" />
		<tag k="place" v="isolated_dwelling" />
		<tag k="ssr:stedsnr" v="4350" />
	</node>
	<node id="-192721" lat="59.9600083374" lon="9.29837776908">
		<tag k="name" v="Storemoen" />
		<tag k="old_name" v="St. Moen" />
		<tag k="place" v="farm" />
		<tag k="ssr:stedsnr" v="4349" />
	</node>
	<node id="-192720" lat="60.0244861149" lon="9.10008889301">
		<tag k="name" v="Heimsetre" />
		<tag k="place" v="isolated_dwelling" />
		<tag k="ssr:stedsnr" v="4342" />
	</node>
	<node id="-192718" lat="59.9553388881" lon="9.3845111187">
		<tag k="historic" v="shieling" />
		<tag k="name" v="Ulviksetre" />
		<tag k="place" v="locality" />
		<tag k="ssr:stedsnr" v="4331" />
	</node>
	<node id="-192714" lat="59.9414805516" lon="9.32546944808">
		<tag k="name" v="Kleiverudberget" />
		<tag k="place" v="locality" />
		<tag k="ssr:stedsnr" v="4135" />
	</node>
	<node id="-192713" lat="59.9464750013" lon="9.31399166085">
		<tag k="name" v="Tuterud" />
		<tag k="place" v="farm" />
		<tag k="ssr:stedsnr" v="4133" />
	</node>
	<node id="-192712" lat="59.9441194415" lon="9.40097223029">
		<tag k="historic" v="shieling" />
		<tag k="name" v="Gvitåssetre" />
		<tag k="place" v="locality" />
		<tag k="ssr:stedsnr" v="4122" />
	</node>
	<node id="-192710" lat="60.0072805589" lon="9.28331111995">
		<tag k="name" v="Søre Tråen" />
		<tag k="place" v="farm" />
		<tag k="ssr:stedsnr" v="4017" />
	</node>
	<node id="-192709" lat="59.8899194485" lon="9.2179111043">
		<tag k="historic" v="shieling" />
		<tag k="name" v="Revlisetre" />
		<tag k="place" v="locality" />
		<tag k="ssr:stedsnr" v="3716" />
	</node>
	<node id="-192707" lat="59.9906750039" lon="9.33425000513">
		<tag k="name" v="Torsrud" />
		<tag k="place" v="farm" />
		<tag k="ssr:stedsnr" v="3277" />
	</node>
	<node id="-192704" lat="59.9967249973" lon="9.24596943949">
		<tag k="name" v="Ivarset" />
		<tag k="place" v="isolated_dwelling" />
		<tag k="ssr:stedsnr" v="3252" />
	</node>
	<node id="-192703" lat="59.9909194475" lon="9.27515833026">
		<tag k="name" v="Klukkargarden" />
		<tag k="place" v="farm" />
		<tag k="ssr:stedsnr" v="3231" />
	</node>
	<node id="-192689" lat="59.9770183839" lon="9.29513681307">
		<tag k="fixme" v="consider place=hamlet" />
		<tag k="name" v="Stærnes" />
		<tag k="place" v="farm" />
		<tag k="ssr:stedsnr" v="404636" />
	</node>
	<node id="-192685" lat="59.9817361102" lon="9.33662777089">
		<tag k="name" v="Nedre Bergan" />
		<tag k="place" v="farm" />
		<tag k="ssr:stedsnr" v="393928" />
	</node>
	<node id="-192680" lat="59.9153666695" lon="9.34226111349">
		<tag k="name" v="Rostad" />
		<tag k="place" v="farm" />
		<tag k="ssr:stedsnr" v="393875" />
	</node>
	<node id="-192673" lat="59.9362750025" lon="9.33572499821">
		<tag k="name" v="Nordre Helle" />
		<tag k="place" v="farm" />
		<tag k="ssr:stedsnr" v="393774" />
	</node>
	<node id="-192665" lat="60.0394361072" lon="9.14231666266">
		<tag k="name" v="Kjemhus" />
		<tag k="place" v="farm" />
		<tag k="ssr:stedsnr" v="393666" />
	</node>
	<node id="-192664" lat="60.0371944407" lon="9.18640278374">
		<tag k="name" v="Søre Risteigen" />
		<tag k="place" v="farm" />
		<tag k="ssr:stedsnr" v="393664" />
	</node>
	<node id="-192661" lat="59.9926111144" lon="9.29092223001">
		<tag k="name" v="Myra" />
		<tag k="place" v="locality" />
		<tag k="ssr:stedsnr" v="393541" />
	</node>
	<node id="-192651" lat="60.057658337" lon="9.11983888449">
		<tag k="name" v="Trollhovd" />
		<tag k="place" v="isolated_dwelling" />
		<tag k="ssr:stedsnr" v="393262" />
	</node>
	<node id="-192649" lat="60.0642527793" lon="9.03594721528">
		<tag k="historic" v="shieling" />
		<tag k="name" v="Søre Rustsetre" />
		<tag k="place" v="locality" />
		<tag k="ssr:stedsnr" v="393121" />
	</node>
	<node id="-192647" lat="60.0532361116" lon="9.04564166684">
		<tag k="historic" v="shieling" />
		<tag k="name" v="Persbuhaugen" />
		<tag k="place" v="locality" />
		<tag k="ssr:stedsnr" v="393113" />
	</node>
	<node id="-192645" lat="60.0216749963" lon="9.27900000558">
		<tag k="name" v="Rollag prestegard" />
		<tag k="place" v="farm" />
		<tag k="ssr:stedsnr" v="392979" />
	</node>
	<node id="-192644" lat="60.0308249975" lon="9.19925555478">
		<tag k="name" v="Putterud" />
		<tag k="place" v="locality" />
		<tag k="ssr:stedsnr" v="392870" />
	</node>
	<node id="-192642" lat="60.024463891" lon="9.29166388904">
		<tag k="name" v="Brattensborg" />
		<tag k="place" v="farm" />
		<tag k="ssr:stedsnr" v="392859" />
	</node>
	<node id="-192641" lat="60.0288750026" lon="9.28303055373">
		<tag k="name" v="Haugan" />
		<tag k="place" v="farm" />
		<tag k="ssr:stedsnr" v="392856" />
	</node>
	<node id="-192639" lat="60.0149194429" lon="9.29439999739">
		<tag k="name" v="Storli" />
		<tag k="place" v="locality" />
		<tag k="ssr:stedsnr" v="392810" />
	</node>
	<node id="-192631" lat="60.0553861124" lon="9.37110555347">
		<tag k="name" v="Larsgard" />
		<tag k="place" v="isolated_dwelling" />
		<tag k="ssr:stedsnr" v="392698" />
	</node>
	<node id="-192618" lat="60.0458638844" lon="9.16412500548">
		<tag k="name" v="Nordre Bjørkgarden" />
		<tag k="place" v="farm" />
		<tag k="ssr:stedsnr" v="369623" />
	</node>
	<node id="-192617" lat="60.0477000026" lon="9.13086110712">
		<tag k="name" v="Bølestveiten" />
		<tag k="place" v="farm" />
		<tag k="ssr:stedsnr" v="369609" />
	</node>
	<node id="-192612" lat="59.9845472258" lon="9.07698334157">
		<tag k="historic" v="shieling" />
		<tag k="name" v="Devegg" />
		<tag k="place" v="locality" />
		<tag k="ssr:stedsnr" v="368905" />
	</node>
	<node id="-192611" lat="60.0788250033" lon="9.11592499128">
		<tag k="alt_name" v="Lofthus, s" />
		<tag k="name" v="Søre Lofthus" />
		<tag k="place" v="farm" />
		<tag k="ssr:stedsnr" v="368774" />
	</node>
	<node id="-192610" lat="60.0878027785" lon="9.19179999134">
		<tag k="name" v="Kvernhusvollen" />
		<tag k="place" v="isolated_dwelling" />
		<tag k="ssr:stedsnr" v="368732" />
	</node>
	<node id="-192609" lat="60.0507083341" lon="9.17233888861">
		<tag k="alt_name" v="Toen, nedre" />
		<tag k="name" v="Nedre Toen" />
		<tag k="place" v="farm" />
		<tag k="ssr:stedsnr" v="368713" />
	</node>
	<node id="-192608" lat="60.0610638919" lon="9.09122221669">
		<tag k="historic" v="shieling" />
		<tag k="name" v="Kjerresetre" />
		<tag k="place" v="locality" />
		<tag k="ssr:stedsnr" v="368697" />
	</node>
	<node id="-192607" lat="60.064975004" lon="9.14240833962">
		<tag k="name" v="Tåta" />
		<tag k="place" v="farm" />
		<tag k="ssr:stedsnr" v="368689" />
	</node>
	<node id="-192602" lat="59.9633083335" lon="9.31857500071">
		<tag k="name" v="Deildokk" />
		<tag k="place" v="farm" />
		<tag k="ssr:stedsnr" v="368389" />
	</node>
	<node id="-192601" lat="59.9651694468" lon="9.31835834225">
		<tag k="name" v="Gylte" />
		<tag k="place" v="farm" />
		<tag k="ssr:stedsnr" v="368388" />
	</node>
	<node id="-192600" lat="60.0377611082" lon="9.21127499616">
		<tag k="name" v="Bekkjordsmogen" />
		<tag k="place" v="farm" />
		<tag k="ssr:stedsnr" v="368363" />
	</node>
	<node id="-192599" lat="59.9495361122" lon="9.34296666658">
		<tag k="name" v="Ulvik" />
		<tag k="place" v="farm" />
		<tag k="ssr:stedsnr" v="368362" />
	</node>
	<node id="-192595" lat="59.936052777" lon="9.28044999148">
		<tag k="historic" v="shieling" />
		<tag k="name" v="Søyset" />
		<tag k="old_name" v="Söiset" />
		<tag k="place" v="locality" />
		<tag k="ssr:stedsnr" v="368171" />
	</node>
	<node id="-192594" lat="60.0133472194" lon="9.25876666793">
		<tag k="name" v="Øvre Mogen" />
		<tag k="place" v="farm" />
		<tag k="ssr:stedsnr" v="368030" />
	</node>
	<node id="-192593" lat="60.0150305592" lon="9.25191667232">
		<tag k="name" v="Hellum" />
		<tag k="place" v="farm" />
		<tag k="ssr:stedsnr" v="368028" />
	</node>
	<node id="-192592" lat="60.016552779" lon="9.3122333395">
		<tag k="name" v="Fyriset" />
		<tag k="place" v="isolated_dwelling" />
		<tag k="ssr:stedsnr" v="368026" />
	</node>
	<node id="-192591" lat="60.014605559" lon="9.27092500339">
		<tag k="name" v="Vårviken" />
		<tag k="place" v="farm" />
		<tag k="ssr:stedsnr" v="368024" />
	</node>
	<node id="-192590" lat="60.0045333306" lon="9.22173055877">
		<tag k="name" v="Nyset" />
		<tag k="place" v="isolated_dwelling" />
		<tag k="ssr:stedsnr" v="368023" />
	</node>
	<node id="-192586" lat="59.9808361143" lon="9.30224723091">
		<tag k="name" v="Neset" />
		<tag k="place" v="farm" />
		<tag k="ssr:stedsnr" v="367234" />
	</node>
	<node id="-192585" lat="59.9811416638" lon="9.28312222542">
		<tag k="name" v="Midtre Landsverk" />
		<tag k="place" v="farm" />
		<tag k="ssr:stedsnr" v="367231" />
	</node>
	<node id="-192584" lat="59.9798444442" lon="9.28191388314">
		<tag k="alt_name" v="Søndre Landsverk" />
		<tag k="name" v="Søre Landsverk" />
		<tag k="place" v="farm" />
		<tag k="ssr:stedsnr" v="367230" />
	</node>
	<node id="-192583" lat="59.9843048228" lon="9.29643830802">
		<tag k="fixme" v="consider place=hamlet" />
		<tag k="name" v="Rollag" />
		<tag k="old_name" v="Rolloug" />
		<tag k="place" v="village" />
		<tag k="ssr:stedsnr" v="367213" />
	</node>
	<node id="-192582" lat="59.9934166683" lon="9.28286943724">
		<tag k="name" v="Mogan" />
		<tag k="place" v="farm" />
		<tag k="ssr:stedsnr" v="367211" />
	</node>
	<node id="-192581" lat="59.9932194485" lon="9.2697999989">
		<tag k="name" v="Sagtun" />
		<tag k="place" v="farm" />
		<tag k="ssr:stedsnr" v="367210" />
	</node>
	<node id="-192580" lat="59.9228805512" lon="9.34460555276">
		<tag k="name" v="Fossan" />
		<tag k="place" v="farm" />
		<tag k="ssr:stedsnr" v="367151" />
	</node>
	<node id="-192578" lat="59.934983332" lon="9.31737223026">
		<tag k="name" v="Hagen" />
		<tag k="place" v="farm" />
		<tag k="ssr:stedsnr" v="367128" />
	</node>
	<node id="-192577" lat="59.9670361078" lon="9.31553055671">
		<tag k="fixme" v="consider place=hamlet" />
		<tag k="name" v="Kjomme" />
		<tag k="place" v="farm" />
		<tag k="ssr:stedsnr" v="362169" />
	</node>
	<node id="-192576" lat="59.9840972183" lon="9.31101666411">
		<tag k="fixme" v="consider place=hamlet" />
		<tag k="name" v="Li" />
		<tag k="place" v="farm" />
		<tag k="ssr:stedsnr" v="360114" />
	</node>
	<node id="-192575" lat="60.0288500032" lon="9.17449999521">
		<tag k="alt_name" v="Nedre Høyset" />
		<tag k="name" v="Nedre Høgset" />
		<tag k="place" v="farm" />
		<tag k="ssr:stedsnr" v="360104" />
	</node>
	<node id="-192573" lat="60.0131638932" lon="9.2819444503">
		<tag k="fixme" v="consider place=hamlet" />
		<tag k="name" v="Tråen" />
		<tag k="old_name" v="Troen" />
		<tag k="place" v="farm" />
		<tag k="ssr:stedsnr" v="355381" />
	</node>
	<node id="-192572" lat="60.0535833308" lon="9.17689722335">
		<tag k="fixme" v="consider place=hamlet" />
		<tag k="name" v="Toen" />
		<tag k="place" v="farm" />
		<tag k="ssr:stedsnr" v="343694" />
	</node>
	<node id="-192571" lat="60.0350888866" lon="9.1644999959">
		<tag k="name" v="Fløtterud" />
		<tag k="old_name" v="Flöterud;Flaaterud" />
		<tag k="place" v="farm" />
		<tag k="ssr:stedsnr" v="126350" />
	</node>
	<node id="-192562" lat="60.0260999979" lon="9.20968610477">
		<tag k="name" v="Kloe" />
		<tag k="place" v="locality" />
		<tag k="ssr:stedsnr" v="332842" />
	</node>
	<node id="-192554" lat="59.9734194485" lon="9.31065555112">
		<tag k="name" v="Ulrikshov" />
		<tag k="place" v="farm" />
		<tag k="ssr:stedsnr" v="332794" />
	</node>
	<node id="-192552" lat="60.0223166671" lon="9.23461110885">
		<tag k="name" v="Krinkerud" />
		<tag k="place" v="locality" />
		<tag k="ssr:stedsnr" v="332780" />
	</node>
	<node id="-192550" lat="59.9379027796" lon="9.32174443933">
		<tag k="name" v="Køsin" />
		<tag k="place" v="locality" />
		<tag k="ssr:stedsnr" v="332774" />
	</node>
	<node id="-192549" lat="59.9537833311" lon="9.30620833372">
		<tag k="name" v="Småtta" />
		<tag k="place" v="locality" />
		<tag k="ssr:stedsnr" v="332769" />
	</node>
	<node id="-192540" lat="60.0297805531" lon="9.18186388366">
		<tag k="name" v="Haugtun" />
		<tag k="place" v="isolated_dwelling" />
		<tag k="ssr:stedsnr" v="332686" />
	</node>
	<node id="-192532" lat="60.0240861144" lon="9.16585556428">
		<tag k="name" v="Tuterud" />
		<tag k="place" v="locality" />
		<tag k="ssr:stedsnr" v="332630" />
	</node>
	<node id="-192525" lat="60.0825027742" lon="9.11332777457">
		<tag k="name" v="Hagan" />
		<tag k="place" v="isolated_dwelling" />
		<tag k="ssr:stedsnr" v="332478" />
	</node>
	<node id="-192522" lat="60.0053944468" lon="9.01811110545">
		<tag k="historic" v="shieling" />
		<tag k="name" v="Søre Votndalen" />
		<tag k="place" v="locality" />
		<tag k="ssr:stedsnr" v="332426" />
	</node>
</osm>
