<?xml version="1.0" encoding="UTF-8"?>
<<<<<<< HEAD
<osm version="0.6" generator="osmapis">
	<node lat="69.81920833434518" lon="20.78169719764114" id="-38127">
		<tag k="name" v="Brustadmyran" />
		<tag k="natural" v="wetland" />
		<tag k="ssr:stedsnr" v="236055" />
	</node>
	<node lat="69.69056667084628" lon="21.23471386393007" id="-38155">
		<tag k="name" v="Pettermelen" />
		<tag k="place" v="locality" />
		<tag k="ssr:stedsnr" v="237747" />
	</node>
	<node lat="69.65039999823163" lon="21.314869409125244" id="-38165">
		<tag k="name" v="Hallenskogen" />
		<tag k="place" v="locality" />
		<tag k="ssr:stedsnr" v="54572" />
	</node>
	<node lat="69.70134166986318" lon="21.07903609835096" id="-38174">
		<tag k="name" v="Langmyra" />
		<tag k="natural" v="wetland" />
		<tag k="ssr:stedsnr" v="55704" />
	</node>
	<node lat="69.82795277695534" lon="21.054747191511233" id="-38226">
		<tag k="loc_name:se" v="Muohtajeaggi" />
		<tag k="name" v="Snemyra" />
		<tag k="name:no" v="Snemyra" />
		<tag k="natural" v="wetland" />
		<tag k="ssr:stedsnr" v="115972" />
	</node>
	<node lat="69.15796667086522" lon="22.23677215548457" id="-38239">
		<tag k="name" v="Bávdnjaleamši" />
		<tag k="name:se" v="Bávdnjaleamši" />
=======
<osm generator="osmapis" version="0.6">
	<node id="-893013" lat="69.1036277784" lon="22.3169916147">
		<tag k="name" v="Geassáhpi" />
		<tag k="name:se" v="Geassáhpi" />
		<tag k="natural" v="wetland" />
		<tag k="old_name:se" v="Gæssappi" />
		<tag k="ssr:stedsnr" v="624739" />
	</node>
	<node id="-892411" lat="69.7884249976" lon="21.1765138485">
		<tag k="name" v="Delkisjänkkä" />
		<tag k="name:fkv" v="Delkisjänkkä" />
		<tag k="natural" v="wetland" />
		<tag k="ssr:stedsnr" v="176934" />
	</node>
	<node id="-892409" lat="69.4757861094" lon="21.4907471835">
		<tag k="name" v="Hurrikaskogen" />
		<tag k="place" v="locality" />
		<tag k="ssr:stedsnr" v="176925" />
	</node>
	<node id="-892408" lat="69.7900916646" lon="21.194891628">
		<tag k="name" v="Leppenkenttä" />
		<tag k="name:fkv" v="Leppenkenttä" />
		<tag k="place" v="locality" />
		<tag k="ssr:stedsnr" v="176924" />
	</node>
	<node id="-892402" lat="69.7188250025" lon="21.253638862">
		<tag k="name" v="Torvbrumyra" />
		<tag k="natural" v="wetland" />
		<tag k="ssr:stedsnr" v="176771" />
	</node>
	<node id="-892401" lat="69.6914749969" lon="21.0823805338">
		<tag k="name" v="Stormyra" />
		<tag k="natural" v="wetland" />
		<tag k="ssr:stedsnr" v="176625" />
	</node>
	<node id="-891373" lat="69.8053249978" lon="20.6516471943">
		<tag k="loc_name:se" v="Ruksesorridat" />
		<tag k="name" v="Rødbergan" />
		<tag k="name:no" v="Rødbergan" />
		<tag k="place" v="locality" />
		<tag k="ssr:stedsnr" v="504967" />
	</node>
	<node id="-892396" lat="69.7870555529" lon="20.7437527476">
		<tag k="name" v="Lilleura" />
		<tag k="natural" v="scree" />
		<tag k="ssr:stedsnr" v="176224" />
	</node>
	<node id="-890857" lat="69.7682361088" lon="21.5233638622">
		<tag k="name" v="Luovttat" />
		<tag k="name:se" v="Luovttat" />
		<tag k="natural" v="glacier" />
		<tag k="ssr:stedsnr" v="19204" />
	</node>
	<node id="-892391" lat="69.8704888886" lon="20.7575749787">
		<tag k="name" v="Rødura" />
		<tag k="natural" v="scree" />
		<tag k="ssr:stedsnr" v="176042" />
	</node>
	<node id="-891365" lat="69.8767388902" lon="21.1999916351">
		<tag k="alt_name" v="Naustøyra" />
		<tag k="name" v="Naustøra" />
		<tag k="place" v="locality" />
		<tag k="ssr:stedsnr" v="504809" />
	</node>
	<node id="-892385" lat="69.759094447" lon="20.4643499773">
		<tag k="name" v="Kandejordet" />
		<tag k="place" v="locality" />
		<tag k="ssr:stedsnr" v="175960" />
	</node>
	<node id="-892384" lat="69.8452277788" lon="20.5307610893">
		<tag k="name" v="Sarvijeaggi" />
		<tag k="natural" v="wetland" />
		<tag k="ssr:stedsnr" v="175846" />
	</node>
	<node id="-893407" lat="69.7502138871" lon="20.9339027578">
		<tag k="name" v="Snøfonna" />
		<tag k="natural" v="glacier" />
		<tag k="ssr:stedsnr" v="868863" />
	</node>
	<node id="-892377" lat="69.9282972234" lon="20.9921166471">
		<tag k="name" v="Stakmyra" />
		<tag k="natural" v="wetland" />
		<tag k="ssr:stedsnr" v="175740" />
	</node>
	<node id="-893348" lat="69.8254611138" lon="21.0733944115">
		<tag k="name" v="Asagentatorva" />
		<tag k="natural" v="wetland" />
		<tag k="ssr:stedsnr" v="843967" />
	</node>
	<node id="-892372" lat="69.7914861143" lon="21.107361097">
		<tag k="name" v="Skjellmyra" />
		<tag k="natural" v="wetland" />
		<tag k="ssr:stedsnr" v="175606" />
	</node>
	<node id="-892368" lat="69.7234555586" lon="21.0756527494">
		<tag k="name" v="Olamyra" />
		<tag k="natural" v="wetland" />
		<tag k="ssr:stedsnr" v="175563" />
	</node>
	<node id="-892366" lat="69.8407749965" lon="20.9211694206">
		<tag k="name" v="Stormyra" />
		<tag k="natural" v="wetland" />
		<tag k="ssr:stedsnr" v="175495" />
	</node>
	<node id="-891853" lat="69.7274305525" lon="21.2413194206">
		<tag k="name" v="Baskabutskogen" />
		<tag k="place" v="locality" />
		<tag k="ssr:stedsnr" v="929670" />
	</node>
	<node id="-891336" lat="69.5508722264" lon="21.3959638544">
		<tag k="name" v="Langmyra" />
		<tag k="natural" v="wetland" />
		<tag k="ssr:stedsnr" v="504227" />
	</node>
	<node id="-891847" lat="69.7290499977" lon="20.639688873">
		<tag k="name" v="Sorbmejiehkki" />
		<tag k="name:se" v="Sorbmejiehkki" />
		<tag k="natural" v="glacier" />
		<tag k="ssr:stedsnr" v="929594" />
	</node>
	<node id="-892864" lat="69.7477222266" lon="21.2435777453">
		<tag k="landuse" v="meadow" />
		<tag k="name" v="Laoungakenttä" />
		<tag k="name:fkv" v="Laoungakenttä" />
		<tag k="ssr:stedsnr" v="540723" />
	</node>
	<node id="-893344" lat="69.7890888914" lon="21.2011333074">
		<tag k="name" v="Klas-Johannesslåtta" />
		<tag k="place" v="locality" />
		<tag k="ssr:stedsnr" v="843929" />
	</node>
	<node id="-892860" lat="69.7744611127" lon="21.017052741">
		<tag k="name" v="Båtnesøra" />
		<tag k="place" v="locality" />
		<tag k="ssr:stedsnr" v="540635" />
	</node>
	<node id="-891323" lat="69.7388305592" lon="21.2366638693">
		<tag k="name" v="Røyelmyran" />
		<tag k="natural" v="wetland" />
		<tag k="ssr:stedsnr" v="503678" />
	</node>
	<node id="-891317" lat="69.7496250049" lon="21.0913555291">
		<tag k="name" v="Galsomelen" />
		<tag k="place" v="locality" />
		<tag k="ssr:stedsnr" v="369618" />
	</node>
	<node id="-891315" lat="69.7547555529" lon="21.2903221842">
		<tag k="name" v="Stormyra" />
		<tag k="natural" v="wetland" />
		<tag k="ssr:stedsnr" v="358755" />
	</node>
	<node id="-892849" lat="69.8295138895" lon="20.5225360818">
		<tag k="name" v="Steallijeaggi" />
		<tag k="name:se" v="Steallijeaggi" />
		<tag k="natural" v="wetland" />
		<tag k="ssr:stedsnr" v="539733" />
	</node>
	<node id="-893359" lat="69.8190138926" lon="21.4603694061">
		<tag k="landuse" v="meadow" />
		<tag k="name" v="Dalstutomta" />
		<tag k="ssr:stedsnr" v="844992" />
	</node>
	<node id="-893353" lat="69.6937416689" lon="21.24048053">
		<tag k="name" v="Lortbekkmyra" />
		<tag k="natural" v="wetland" />
		<tag k="ssr:stedsnr" v="844738" />
	</node>
	<node id="-893352" lat="69.7012861096" lon="21.2808333038">
		<tag k="name" v="Aboslåtta" />
		<tag k="place" v="locality" />
		<tag k="ssr:stedsnr" v="844735" />
	</node>
	<node id="-893350" lat="69.6235388873" lon="21.3064694218">
		<tag k="name" v="Nerskogen" />
		<tag k="place" v="locality" />
		<tag k="ssr:stedsnr" v="844512" />
	</node>
	<node id="-891300" lat="69.790880552" lon="21.1779860858">
		<tag k="name" v="Dalslåtta" />
		<tag k="place" v="locality" />
		<tag k="ssr:stedsnr" v="479941" />
	</node>
	<node id="-892323" lat="69.1579666709" lon="22.2367721555">
		<tag k="name" v="Bávdnjaleamši" />
		<tag k="name:se" v="Bávdnjaleamši" />
		<tag k="natural" v="wetland" />
		<tag k="old_name:se" v="Bavdnjalæmši" />
		<tag k="ssr:stedsnr" v="140698" />
	</node>
	<node id="-893345" lat="69.7900888878" lon="21.1800277618">
		<tag k="name" v="Jensislåtta" />
		<tag k="place" v="locality" />
		<tag k="ssr:stedsnr" v="843931" />
	</node>
	<node id="-891296" lat="69.6907888907" lon="21.2680971829">
		<tag k="name" v="Stormyra" />
		<tag k="natural" v="wetland" />
		<tag k="ssr:stedsnr" v="479729" />
	</node>
	<node id="-891290" lat="69.6697250008" lon="21.2783527462">
		<tag k="name" v="Rødstillslåtten" />
		<tag k="place" v="locality" />
		<tag k="ssr:stedsnr" v="479570" />
	</node>
	<node id="-891287" lat="69.7824666679" lon="20.7281471952">
		<tag k="name" v="Blåmyra" />
		<tag k="natural" v="wetland" />
		<tag k="ssr:stedsnr" v="479229" />
	</node>
	<node id="-891285" lat="69.8325972188" lon="21.1373027597">
		<tag k="name" v="Lautokänttä" />
		<tag k="name:fkv" v="Lautokänttä" />
		<tag k="place" v="locality" />
		<tag k="ssr:stedsnr" v="478997" />
	</node>
	<node id="-893332" lat="69.7161138933" lon="21.0737916395">
		<tag k="name" v="Henrikmyra" />
		<tag k="natural" v="wetland" />
		<tag k="ssr:stedsnr" v="843576" />
	</node>
	<node id="-892251" lat="69.7038472255" lon="21.2721110869">
		<tag k="name" v="Storslåttmyra" />
		<tag k="natural" v="wetland" />
		<tag k="ssr:stedsnr" v="115693" />
	</node>
	<node id="-892811" lat="69.6766222224" lon="21.2998055169">
		<tag k="name" v="Larsslåtten" />
		<tag k="place" v="locality" />
		<tag k="ssr:stedsnr" v="419747" />
	</node>
	<node id="-891786" lat="69.8310583346" lon="21.0733360935">
		<tag k="name" v="Joseftorva" />
		<tag k="natural" v="wetland" />
		<tag k="ssr:stedsnr" v="904985" />
	</node>
	<node id="-892296" lat="69.6949888899" lon="21.2532749644">
		<tag k="alt_name" v="Kjelderskogen" />
		<tag k="name" v="Kjellerskogen" />
		<tag k="place" v="locality" />
		<tag k="ssr:stedsnr" v="140354" />
	</node>
	<node id="-892293" lat="69.6594194448" lon="21.2559444178">
		<tag k="name" v="Tørrfosskogen" />
		<tag k="place" v="locality" />
		<tag k="ssr:stedsnr" v="140333" />
	</node>
	<node id="-892800" lat="69.789924998" lon="20.5582916499">
		<tag k="name" v="Orresteinen" />
		<tag k="natural" v="stone" />
		<tag k="ssr:stedsnr" v="418856" />
	</node>
	<node id="-891775" lat="69.7649555596" lon="20.724305538">
		<tag k="name" v="Storelvskogen" />
		<tag k="place" v="locality" />
		<tag k="ssr:stedsnr" v="904233" />
	</node>
	<node id="-891774" lat="69.7744027797" lon="20.7269305261">
		<tag k="name" v="Gamskogen" />
		<tag k="place" v="locality" />
		<tag k="ssr:stedsnr" v="904223" />
	</node>
	<node id="-891772" lat="69.8268388878" lon="20.8217610948">
		<tag k="name" v="Skavgropmyra" />
>>>>>>> e1d4bc35ff8a6074a6f2e91616a996b547c36f15
		<tag k="natural" v="wetland" />
		<tag k="old_name:se" v="Bavdnjalæmši" />
		<tag k="ssr:stedsnr" v="140698" />
	</node>
<<<<<<< HEAD
	<node lat="69.79148611427851" lon="21.10736109695209" id="-38268">
		<tag k="name" v="Skjellmyra" />
=======
	<node id="-893305" lat="69.7606027801" lon="20.4831694353">
		<tag k="fixme" v="multiple name tags, choose one and add the other to alt_name" />
		<tag k="name" v="Spåkenesmyra;Stormyra" />
>>>>>>> e1d4bc35ff8a6074a6f2e91616a996b547c36f15
		<tag k="natural" v="wetland" />
		<tag k="ssr:stedsnr" v="175606" />
	</node>
<<<<<<< HEAD
	<node lat="69.75909444700025" lon="20.46434997728393" id="-38271">
		<tag k="name" v="Kandejordet" />
		<tag k="place" v="locality" />
		<tag k="ssr:stedsnr" v="175960" />
	</node>
	<node lat="69.86933888885636" lon="21.07596941476294" id="-38336">
		<tag k="name" v="Stormyra" />
		<tag k="natural" v="wetland" />
		<tag k="ssr:stedsnr" v="262840" />
	</node>
	<node lat="69.8834583353856" lon="21.189636084755715" id="-38391">
		<tag k="name" v="Øra" />
		<tag k="place" v="locality" />
		<tag k="ssr:stedsnr" v="236739" />
	</node>
	<node lat="69.7815444439782" lon="21.024033314380684" id="-38419">
=======
	<node id="-891252" lat="69.781544444" lon="21.0240333144">
>>>>>>> e1d4bc35ff8a6074a6f2e91616a996b547c36f15
		<tag k="name" v="Balimelen" />
		<tag k="place" v="locality" />
		<tag k="ssr:stedsnr" v="296444" />
	</node>
<<<<<<< HEAD
	<node lat="69.80026944616128" lon="20.539236087066758" id="-38426">
		<tag k="name" v="Kvalbeinåkeren" />
		<tag k="place" v="locality" />
		<tag k="ssr:stedsnr" v="296781" />
	</node>
	<node lat="69.34623611085694" lon="21.861361067909737" id="-38457">
		<tag k="name" v="Vuomádat" />
		<tag k="name:se" v="Vuomádat" />
=======
	<node id="-892274" lat="69.2083972215" lon="22.3824943801">
		<tag k="name" v="Holvináhpi" />
		<tag k="name:se" v="Holvináhpi" />
		<tag k="natural" v="wetland" />
		<tag k="old_name:se" v="Hålvinappi" />
		<tag k="ssr:stedsnr" v="139667" />
	</node>
	<node id="-892785" lat="69.6562777757" lon="21.2812444226">
		<tag k="name" v="Heikaskogen" />
>>>>>>> e1d4bc35ff8a6074a6f2e91616a996b547c36f15
		<tag k="place" v="locality" />
		<tag k="ssr:stedsnr" v="322825" />
	</node>
<<<<<<< HEAD
	<node lat="69.8315194443029" lon="21.032044406540006" id="-38475">
		<tag k="landuse" v="meadow" />
		<tag k="name" v="Ravalikenttä" />
		<tag k="name:fkv" v="Ravalikenttä" />
		<tag k="ssr:stedsnr" v="357303" />
	</node>
	<node lat="69.66645277718901" lon="21.234163870740282" id="-38484">
		<tag k="name" v="Storslåtta" />
		<tag k="place" v="locality" />
		<tag k="ssr:stedsnr" v="357551" />
	</node>
	<node lat="69.75475555285482" lon="21.290322184243756" id="-38494">
=======
	<node id="-891760" lat="69.8651416702" lon="21.0454749795">
		<tag k="name" v="Simoljenkkä" />
		<tag k="name:fkv" v="Simoljenkkä" />
		<tag k="natural" v="wetland" />
		<tag k="ssr:stedsnr" v="903702" />
	</node>
	<node id="-890941" lat="69.6905666708" lon="21.2347138639">
		<tag k="name" v="Pettermelen" />
		<tag k="place" v="locality" />
		<tag k="ssr:stedsnr" v="237747" />
	</node>
	<node id="-892780" lat="69.8435305585" lon="20.8536805367">
>>>>>>> e1d4bc35ff8a6074a6f2e91616a996b547c36f15
		<tag k="name" v="Stormyra" />
		<tag k="natural" v="wetland" />
		<tag k="ssr:stedsnr" v="358755" />
	</node>
<<<<<<< HEAD
	<node lat="69.83259721875591" lon="21.137302759738184" id="-38514">
		<tag k="name" v="Lautokänttä" />
		<tag k="name:fkv" v="Lautokänttä" />
		<tag k="place" v="locality" />
		<tag k="ssr:stedsnr" v="478997" />
	</node>
	<node lat="69.74962500494799" lon="21.09135552910828" id="-38516">
		<tag k="name" v="Galsomelen" />
		<tag k="place" v="locality" />
		<tag k="ssr:stedsnr" v="369618" />
	</node>
	<node lat="69.78246666790773" lon="20.728147195228352" id="-38518">
		<tag k="name" v="Blåmyra" />
=======
	<node id="-890937" lat="69.6503999982" lon="21.3148694091">
		<tag k="name" v="Hallenskogen" />
		<tag k="place" v="locality" />
		<tag k="ssr:stedsnr" v="54572" />
	</node>
	<node id="-892263" lat="69.827952777" lon="21.0547471915">
		<tag k="loc_name:se" v="Muohtajeaggi" />
		<tag k="name" v="Snemyra" />
		<tag k="name:no" v="Snemyra" />
		<tag k="natural" v="wetland" />
		<tag k="ssr:stedsnr" v="115972" />
	</node>
	<node id="-891742" lat="69.7423166635" lon="21.2608305244">
		<tag k="name" v="Fjellmyran" />
>>>>>>> e1d4bc35ff8a6074a6f2e91616a996b547c36f15
		<tag k="natural" v="wetland" />
		<tag k="ssr:stedsnr" v="479229" />
	</node>
<<<<<<< HEAD
	<node lat="69.66972500082711" lon="21.27835274618739" id="-38521">
		<tag k="name" v="Rødstillslåtten" />
		<tag k="place" v="locality" />
		<tag k="ssr:stedsnr" v="479570" />
	</node>
	<node lat="69.69078889071498" lon="21.26809718288348" id="-38528">
		<tag k="name" v="Stormyra" />
		<tag k="natural" v="wetland" />
		<tag k="ssr:stedsnr" v="479729" />
	</node>
	<node lat="69.8012916694976" lon="21.100013862481916" id="-38532">
		<tag k="landuse" v="meadow" />
		<tag k="name" v="Vollakenttä" />
		<tag k="name:fkv" v="Vollakenttä" />
		<tag k="ssr:stedsnr" v="479863" />
	</node>
	<node lat="69.79088055203438" lon="21.177986085772403" id="-38535">
		<tag k="name" v="Dalslåtta" />
		<tag k="place" v="locality" />
		<tag k="ssr:stedsnr" v="479941" />
	</node>
	<node lat="69.79894166575525" lon="21.128702740879227" id="-38563">
		<tag k="name" v="Ragijenkkä" />
		<tag k="name:fkv" v="Ragijenkkä" />
=======
	<node id="-891739" lat="69.8248027763" lon="21.0579360793">
		<tag k="name" v="Stormyra" />
		<tag k="natural" v="wetland" />
		<tag k="ssr:stedsnr" v="721977" />
	</node>
	<node id="-892249" lat="69.8663777761" lon="21.1860194228">
		<tag k="name" v="Hestenesmyra" />
>>>>>>> e1d4bc35ff8a6074a6f2e91616a996b547c36f15
		<tag k="natural" v="wetland" />
		<tag k="ssr:stedsnr" v="418502" />
	</node>
<<<<<<< HEAD
	<node lat="69.74706666911713" lon="21.01133607863692" id="-38632">
=======
	<node id="-891735" lat="69.7905861094" lon="21.0790582948">
>>>>>>> e1d4bc35ff8a6074a6f2e91616a996b547c36f15
		<tag k="name" v="Stormyra" />
		<tag k="natural" v="wetland" />
		<tag k="ssr:stedsnr" v="478402" />
	</node>
<<<<<<< HEAD
	<node lat="69.72502222181231" lon="21.258883311806564" id="-38642">
		<tag k="name" v="Baskabutmyra" />
=======
	<node id="-891733" lat="69.7892111088" lon="21.1018499639">
		<tag k="name" v="Steallimyra" />
>>>>>>> e1d4bc35ff8a6074a6f2e91616a996b547c36f15
		<tag k="natural" v="wetland" />
		<tag k="ssr:stedsnr" v="479775" />
	</node>
<<<<<<< HEAD
	<node lat="69.7388305591571" lon="21.23666386932038" id="-38646">
		<tag k="name" v="Røyelmyran" />
		<tag k="natural" v="wetland" />
		<tag k="ssr:stedsnr" v="503678" />
	</node>
	<node lat="69.87673889022187" lon="21.19999163512105" id="-38662">
		<tag k="alt_name" v="Naustøyra" />
		<tag k="name" v="Naustøra" />
=======
	<node id="-892243" lat="69.6433083375" lon="21.2985888711">
		<tag k="name" v="Mellakoskislåtta" />
>>>>>>> e1d4bc35ff8a6074a6f2e91616a996b547c36f15
		<tag k="place" v="locality" />
		<tag k="ssr:stedsnr" v="504809" />
	</node>
<<<<<<< HEAD
	<node lat="69.80532499783683" lon="20.651647194259645" id="-38669">
		<tag k="loc_name:se" v="Ruksesorridat" />
		<tag k="name" v="Rødbergan" />
		<tag k="name:no" v="Rødbergan" />
		<tag k="place" v="locality" />
		<tag k="ssr:stedsnr" v="504967" />
	</node>
	<node lat="69.8093138859683" lon="21.586069405152916" id="-38687">
		<tag k="alt_name" v="Vaddas gruver" />
		<tag k="landuse" v="quarry" />
		<tag k="name" v="Váddás gruver" />
		<tag k="ssr:stedsnr" v="686183" />
	</node>
	<node lat="69.64021111591242" lon="21.29643329664706" id="-38821">
		<tag k="name" v="Øverslåtta" />
		<tag k="place" v="locality" />
		<tag k="ssr:stedsnr" v="599599" />
	</node>
	<node lat="69.73623611452676" lon="21.090394422950165" id="-38839">
		<tag k="name" v="Stormyra" />
=======
	<node id="-892237" lat="69.7657805531" lon="20.7248638553">
		<tag k="name" v="Pettersenmyra" />
>>>>>>> e1d4bc35ff8a6074a6f2e91616a996b547c36f15
		<tag k="natural" v="wetland" />
		<tag k="ssr:stedsnr" v="611682" />
	</node>
<<<<<<< HEAD
	<node lat="69.68386666431962" lon="21.290099956696448" id="-38883">
		<tag k="name" v="Storsteinslåtten" />
		<tag k="place" v="locality" />
		<tag k="ssr:stedsnr" v="661705" />
	</node>
	<node lat="69.90618888764428" lon="21.320766643965655" id="-38884">
=======
	<node id="-891719" lat="69.9061888876" lon="21.320766644">
>>>>>>> e1d4bc35ff8a6074a6f2e91616a996b547c36f15
		<tag k="name" v="Fiskelvøra" />
		<tag k="place" v="locality" />
		<tag k="ssr:stedsnr" v="661913" />
	</node>
<<<<<<< HEAD
	<node lat="69.78921110881451" lon="21.101849963911903" id="-38924">
		<tag k="name" v="Steallimyra" />
		<tag k="natural" v="wetland" />
		<tag k="ssr:stedsnr" v="721507" />
	</node>
	<node lat="69.79058610941333" lon="21.079058294801783" id="-38925">
=======
	<node id="-891718" lat="69.6838666643" lon="21.2900999567">
		<tag k="name" v="Storsteinslåtten" />
		<tag k="place" v="locality" />
		<tag k="ssr:stedsnr" v="661705" />
	</node>
	<node id="-892228" lat="69.8481888875" lon="20.8015527593">
>>>>>>> e1d4bc35ff8a6074a6f2e91616a996b547c36f15
		<tag k="name" v="Stormyra" />
		<tag k="natural" v="wetland" />
		<tag k="ssr:stedsnr" v="721604" />
	</node>
<<<<<<< HEAD
	<node lat="69.92427499624" lon="20.962933315755794" id="-38927">
		<tag k="name" v="Stormyrholmen" />
		<tag k="natural" v="wetland" />
		<tag k="ssr:stedsnr" v="721673" />
	</node>
	<node lat="69.82480277629499" lon="21.05793607927271" id="-38931">
		<tag k="name" v="Stormyra" />
		<tag k="natural" v="wetland" />
		<tag k="ssr:stedsnr" v="721977" />
	</node>
	<node lat="69.90876944972464" lon="21.359697190466928" id="-38935">
=======
	<node id="-891787" lat="69.8236138854" lon="21.1212916445">
		<tag k="name" v="Betshammermyra" />
		<tag k="natural" v="wetland" />
		<tag k="ssr:stedsnr" v="904989" />
	</node>
	<node id="-892981" lat="69.6402111159" lon="21.2964332966">
		<tag k="name" v="Øverslåtta" />
		<tag k="place" v="locality" />
		<tag k="ssr:stedsnr" v="599599" />
	</node>
	<node id="-891703" lat="69.4888500045" lon="21.4784638663">
		<tag k="name" v="Biltoskogen" />
		<tag k="place" v="locality" />
		<tag k="ssr:stedsnr" v="722950" />
	</node>
	<node id="-891188" lat="69.2870388949" lon="22.0909499499">
		<tag k="name" v="Skierbmárohtu" />
		<tag k="name:se" v="Skierbmárohtu" />
		<tag k="place" v="locality" />
		<tag k="ssr:stedsnr" v="443839" />
	</node>
	<node id="-891698" lat="69.9087694497" lon="21.3596971905">
>>>>>>> e1d4bc35ff8a6074a6f2e91616a996b547c36f15
		<tag k="name" v="Stormyran" />
		<tag k="natural" v="wetland" />
		<tag k="ssr:stedsnr" v="722921" />
	</node>
<<<<<<< HEAD
	<node lat="69.86514167017366" lon="21.04547497949112" id="-38951">
		<tag k="name" v="Simoljenkkä" />
		<tag k="name:fkv" v="Simoljenkkä" />
=======
	<node id="-891689" lat="69.7419000039" lon="21.0819805224">
		<tag k="name" v="Myrkroken" />
		<tag k="natural" v="wetland" />
		<tag k="ssr:stedsnr" v="722680" />
	</node>
	<node id="-893222" lat="69.7632055553" lon="20.5283610966">
		<tag k="name" v="Rotsundmyra" />
>>>>>>> e1d4bc35ff8a6074a6f2e91616a996b547c36f15
		<tag k="natural" v="wetland" />
		<tag k="ssr:stedsnr" v="903702" />
	</node>
<<<<<<< HEAD
	<node lat="69.77440277970243" lon="20.72693052609988" id="-38987">
		<tag k="name" v="Gamskogen" />
		<tag k="place" v="locality" />
		<tag k="ssr:stedsnr" v="904223" />
	</node>
	<node lat="69.8268388878022" lon="20.821761094848366" id="-38989">
		<tag k="name" v="Skavgropmyra" />
=======
	<node id="-891441" lat="69.8554027782" lon="21.0494333146">
		<tag k="name" v="Lasskenttä" />
		<tag k="name:fkv" v="Lasskenttä" />
		<tag k="place" v="locality" />
		<tag k="ssr:stedsnr" v="660753" />
	</node>
	<node id="-893317" lat="69.9293083383" lon="20.9385916415">
		<tag k="name" v="Klokkarøra" />
		<tag k="place" v="locality" />
		<tag k="ssr:stedsnr" v="839162" />
	</node>
	<node id="-891673" lat="69.9242749962" lon="20.9629333158">
		<tag k="name" v="Stormyrholmen" />
>>>>>>> e1d4bc35ff8a6074a6f2e91616a996b547c36f15
		<tag k="natural" v="wetland" />
		<tag k="ssr:stedsnr" v="904193" />
	</node>
<<<<<<< HEAD
	<node lat="69.76495555957412" lon="20.724305538017077" id="-38991">
		<tag k="name" v="Storelvskogen" />
		<tag k="place" v="locality" />
		<tag k="ssr:stedsnr" v="904233" />
	</node>
	<node lat="69.66653055387886" lon="21.285247192329912" id="-38994">
		<tag k="name" v="Lunslåtten" />
		<tag k="place" v="locality" />
		<tag k="ssr:stedsnr" v="904539" />
	</node>
	<node lat="69.83105833463277" lon="21.073336093525008" id="-39008">
		<tag k="name" v="Joseftorva" />
=======
	<node id="-893203" lat="69.6614499962" lon="21.3091277562">
		<tag k="name" v="Potkaskogen" />
		<tag k="place" v="locality" />
		<tag k="ssr:stedsnr" v="782534" />
	</node>
	<node id="-891151" lat="69.7719499974" lon="21.0549388529">
		<tag k="name" v="Dalojänkkä" />
		<tag k="name:fkv" v="Dalojänkkä" />
		<tag k="natural" v="wetland" />
		<tag k="ssr:stedsnr" v="297945" />
	</node>
	<node id="-891140" lat="69.79108889" lon="21.1678194164">
		<tag k="name" v="Myran" />
>>>>>>> e1d4bc35ff8a6074a6f2e91616a996b547c36f15
		<tag k="natural" v="wetland" />
		<tag k="ssr:stedsnr" v="904985" />
	</node>
<<<<<<< HEAD
	<node lat="69.82361388536015" lon="21.121291644508222" id="-39009">
		<tag k="name" v="Betshammermyra" />
		<tag k="natural" v="wetland" />
		<tag k="ssr:stedsnr" v="904989" />
	</node>
	<node lat="69.87002499798443" lon="20.87114997070433" id="-39014">
=======
	<node id="-891139" lat="69.789611112" lon="21.1662777419">
		<tag k="name" v="Trollilantto" />
		<tag k="name:fkv" v="Trollilantto" />
		<tag k="natural" v="wetland" />
		<tag k="ssr:stedsnr" v="297490" />
	</node>
	<node id="-891138" lat="69.5456694447" lon="21.293224972">
		<tag k="name" v="Nyslåtta" />
		<tag k="place" v="locality" />
		<tag k="ssr:stedsnr" v="297481" />
	</node>
	<node id="-891776" lat="69.6665305539" lon="21.2852471923">
		<tag k="name" v="Lunslåtten" />
		<tag k="place" v="locality" />
		<tag k="ssr:stedsnr" v="904539" />
	</node>
	<node id="-893180" lat="69.870024998" lon="20.8711499707">
>>>>>>> e1d4bc35ff8a6074a6f2e91616a996b547c36f15
		<tag k="name" v="Sennamyra" />
		<tag k="natural" v="wetland" />
		<tag k="ssr:stedsnr" v="782005" />
	</node>
<<<<<<< HEAD
	<node lat="69.71611389332978" lon="21.073791639508897" id="-39051">
		<tag k="name" v="Henrikmyra" />
		<tag k="natural" v="wetland" />
		<tag k="ssr:stedsnr" v="843576" />
	</node>
	<node lat="69.79691111111833" lon="21.107594425158712" id="-39056">
		<tag k="name" v="Kjellarmyra" />
		<tag k="natural" v="wetland" />
		<tag k="ssr:stedsnr" v="843610" />
	</node>
	<node lat="69.78908889141096" lon="21.20113330737074" id="-39060">
		<tag k="name" v="Klas-Johannesslåtta" />
=======
	<node id="-891945" lat="69.7961472224" lon="21.0721527438">
		<tag k="name" v="Goskemijenkkä" />
		<tag k="name:fkv" v="Goskemijenkkä" />
		<tag k="natural" v="wetland" />
		<tag k="ssr:stedsnr" v="903609" />
	</node>
	<node id="-892659" lat="69.8734138856" lon="21.1422305267">
		<tag k="name" v="Storsteinen" />
		<tag k="natural" v="stone" />
		<tag k="ssr:stedsnr" v="357768" />
	</node>
	<node id="-892656" lat="69.7904916679" lon="21.1017527608">
		<tag k="name" v="Steallislåtta" />
>>>>>>> e1d4bc35ff8a6074a6f2e91616a996b547c36f15
		<tag k="place" v="locality" />
		<tag k="ssr:stedsnr" v="843929" />
	</node>
<<<<<<< HEAD
	<node lat="69.79008888782366" lon="21.180027761818536" id="-39061">
		<tag k="name" v="Jensislåtta" />
=======
	<node id="-891119" lat="69.8002694462" lon="20.5392360871">
		<tag k="name" v="Kvalbeinåkeren" />
>>>>>>> e1d4bc35ff8a6074a6f2e91616a996b547c36f15
		<tag k="place" v="locality" />
		<tag k="ssr:stedsnr" v="843931" />
	</node>
<<<<<<< HEAD
	<node lat="69.62353888733578" lon="21.306469421846042" id="-39063">
		<tag k="name" v="Nerskogen" />
=======
	<node id="-892653" lat="69.6664527772" lon="21.2341638707">
		<tag k="name" v="Storslåtta" />
>>>>>>> e1d4bc35ff8a6074a6f2e91616a996b547c36f15
		<tag k="place" v="locality" />
		<tag k="ssr:stedsnr" v="844512" />
	</node>
<<<<<<< HEAD
	<node lat="69.80166944284906" lon="21.123813862863916" id="-39065">
=======
	<node id="-893478" lat="69.798313894" lon="21.0999222008">
		<tag k="name" v="Svennmyra" />
		<tag k="natural" v="wetland" />
		<tag k="ssr:stedsnr" v="964588" />
	</node>
	<node id="-892642" lat="69.8315194443" lon="21.0320444065">
>>>>>>> e1d4bc35ff8a6074a6f2e91616a996b547c36f15
		<tag k="landuse" v="meadow" />
		<tag k="name" v="Leppäkenttä" />
		<tag k="name:fkv" v="Leppäkenttä" />
		<tag k="ssr:stedsnr" v="844826" />
	</node>
<<<<<<< HEAD
	<node lat="69.81901389260241" lon="21.460369406146224" id="-39067">
		<tag k="landuse" v="meadow" />
		<tag k="name" v="Dalstutomta" />
		<tag k="ssr:stedsnr" v="844992" />
	</node>
	<node lat="69.72904999773927" lon="20.639688873026987" id="-39097">
		<tag k="name" v="Sorbmejiehkki" />
		<tag k="name:se" v="Sorbmejiehkki" />
		<tag k="natural" v="glacier" />
		<tag k="ssr:stedsnr" v="929594" />
	</node>
	<node lat="69.72743055254011" lon="21.24131942058641" id="-39104">
		<tag k="name" v="Baskabutskogen" />
=======
	<node id="-891105" lat="69.7858555549" lon="20.9307360875">
		<tag k="name" v="Torvemyran" />
		<tag k="natural" v="wetland" />
		<tag k="ssr:stedsnr" v="296347" />
	</node>
	<node id="-892635" lat="69.7830555608" lon="20.709627749">
		<tag k="name" v="Bankskogen" />
>>>>>>> e1d4bc35ff8a6074a6f2e91616a996b547c36f15
		<tag k="place" v="locality" />
		<tag k="ssr:stedsnr" v="929670" />
	</node>
<<<<<<< HEAD
	<node lat="69.75974444661851" lon="20.712044424566823" id="-39185">
		<tag k="name" v="Nerteigan" />
		<tag k="place" v="locality" />
		<tag k="ssr:stedsnr" v="903218" />
	</node>
	<node lat="69.7961472223901" lon="21.07215274380644" id="-39193">
		<tag k="name" v="Goskemijenkkä" />
		<tag k="name:fkv" v="Goskemijenkkä" />
=======
	<node id="-891096" lat="69.7796250002" lon="20.7115916507">
		<tag k="name" v="Dillemyra" />
		<tag k="natural" v="wetland" />
		<tag k="ssr:stedsnr" v="296211" />
	</node>
	<node id="-891093" lat="69.8520555572" lon="20.7958194307">
		<tag k="name" v="Brokstestakmyra" />
>>>>>>> e1d4bc35ff8a6074a6f2e91616a996b547c36f15
		<tag k="natural" v="wetland" />
		<tag k="ssr:stedsnr" v="903609" />
	</node>
<<<<<<< HEAD
	<node lat="69.79183610983866" lon="21.18256107921081" id="-39203">
		<tag k="name" v="Jermekänttä" />
		<tag k="name:fkv" v="Jermekänttä" />
=======
	<node id="-892628" lat="69.8953194476" lon="20.9107194219">
		<tag k="name" v="Stormyra" />
>>>>>>> e1d4bc35ff8a6074a6f2e91616a996b547c36f15
		<tag k="natural" v="wetland" />
		<tag k="ssr:stedsnr" v="904964" />
	</node>
<<<<<<< HEAD
	<node lat="69.79831389399646" lon="21.09992220078001" id="-39244">
		<tag k="name" v="Svennmyra" />
=======
	<node id="-892114" lat="69.7013416699" lon="21.0790360984">
		<tag k="name" v="Langmyra" />
>>>>>>> e1d4bc35ff8a6074a6f2e91616a996b547c36f15
		<tag k="natural" v="wetland" />
		<tag k="ssr:stedsnr" v="964588" />
	</node>
<<<<<<< HEAD
	<node lat="69.76823610876197" lon="21.523363862214488" id="-39277">
		<tag k="name" v="Luovttat" />
		<tag k="name:se" v="Luovttat" />
		<tag k="natural" v="glacier" />
		<tag k="ssr:stedsnr" v="19204" />
	</node>
	<node lat="69.59134444175353" lon="21.251274979074143" id="-39281">
		<tag k="name" v="Bergskogen" />
=======
	<node id="-892112" lat="69.7083555588" lon="21.2739499714">
		<tag k="name" v="Lohkamyra" />
		<tag k="natural" v="wetland" />
		<tag k="ssr:stedsnr" v="55697" />
	</node>
	<node id="-892111" lat="69.7010777771" lon="21.272202747">
		<tag k="name" v="Storslåtta" />
>>>>>>> e1d4bc35ff8a6074a6f2e91616a996b547c36f15
		<tag k="place" v="locality" />
		<tag k="ssr:stedsnr" v="19347" />
	</node>
	<node lat="69.82250555654836" lon="20.78735276911462" id="-39315">
		<tag k="name" v="Stormyra" />
		<tag k="natural" v="wetland" />
		<tag k="ssr:stedsnr" v="19963" />
	</node>
<<<<<<< HEAD
	<node lat="69.92483055348045" lon="20.957633315463664" id="-39332">
=======
	<node id="-892099" lat="69.9248305535" lon="20.9576333155">
>>>>>>> e1d4bc35ff8a6074a6f2e91616a996b547c36f15
		<tag k="name" v="Stormyra" />
		<tag k="natural" v="wetland" />
		<tag k="ssr:stedsnr" v="54698" />
	</node>
<<<<<<< HEAD
	<node lat="69.81511667013616" lon="20.794152762403705" id="-39337">
		<tag k="name" v="Torven" />
		<tag k="natural" v="wetland" />
		<tag k="ssr:stedsnr" v="54060" />
	</node>
	<node lat="69.85775277740164" lon="21.18464164161363" id="-39342">
=======
	<node id="-892086" lat="69.8577527774" lon="21.1846416416">
>>>>>>> e1d4bc35ff8a6074a6f2e91616a996b547c36f15
		<tag k="landuse" v="meadow" />
		<tag k="name" v="Mallokänttä" />
		<tag k="name:fkv" v="Mallokänttä" />
		<tag k="ssr:stedsnr" v="54323" />
	</node>
<<<<<<< HEAD
	<node lat="69.70107777708853" lon="21.272202746991784" id="-39361">
		<tag k="name" v="Storslåtta" />
		<tag k="place" v="locality" />
		<tag k="ssr:stedsnr" v="55689" />
	</node>
	<node lat="69.70835555884373" lon="21.27394997137514" id="-39362">
		<tag k="name" v="Lohkamyra" />
=======
	<node id="-892591" lat="69.760872224" lon="20.5054111051">
		<tag k="fixme" v="multiple name tags, choose one and add the other to alt_name" />
		<tag k="name" v="Kvitmyra;Slottemyra" />
>>>>>>> e1d4bc35ff8a6074a6f2e91616a996b547c36f15
		<tag k="natural" v="wetland" />
		<tag k="ssr:stedsnr" v="55697" />
	</node>
<<<<<<< HEAD
	<node lat="69.76256111568993" lon="20.518791639842224" id="-39440">
		<tag k="alt_name" v="Daljorda" />
		<tag k="name" v="Daljordet" />
		<tag k="place" v="locality" />
		<tag k="ssr:stedsnr" v="85812" />
	</node>
	<node lat="69.84818888754103" lon="20.80155275931109" id="-39445">
		<tag k="name" v="Stormyra" />
		<tag k="natural" v="wetland" />
		<tag k="ssr:stedsnr" v="114101" />
	</node>
	<node lat="69.64330833753735" lon="21.29858887107485" id="-39455">
		<tag k="name" v="Mellakoskislåtta" />
=======
	<node id="-891039" lat="69.8693388889" lon="21.0759694148">
		<tag k="name" v="Stormyra" />
		<tag k="natural" v="wetland" />
		<tag k="ssr:stedsnr" v="262840" />
	</node>
	<node id="-891984" lat="69.7819611146" lon="20.7208416571">
		<tag k="name" v="Slåttskogan" />
		<tag k="place" v="locality" />
		<tag k="ssr:stedsnr" v="964258" />
	</node>
	<node id="-892055" lat="69.8225055565" lon="20.7873527691">
		<tag k="name" v="Stormyra" />
		<tag k="natural" v="wetland" />
		<tag k="ssr:stedsnr" v="19963" />
	</node>
	<node id="-893076" lat="69.8598388947" lon="21.3747860714">
		<tag k="name" v="Allmenningsmyran" />
		<tag k="natural" v="wetland" />
		<tag k="ssr:stedsnr" v="626815" />
	</node>
	<node id="-893487" lat="69.7458611106" lon="21.2536777449">
		<tag k="name" v="Bårogentaskogen" />
		<tag k="place" v="locality" />
		<tag k="ssr:stedsnr" v="965745" />
	</node>
	<node id="-893064" lat="69.6679888944" lon="21.2466360741">
		<tag k="name" v="Holmeskogen" />
>>>>>>> e1d4bc35ff8a6074a6f2e91616a996b547c36f15
		<tag k="place" v="locality" />
		<tag k="ssr:stedsnr" v="115555" />
	</node>
<<<<<<< HEAD
	<node lat="69.76578055313121" lon="20.724863855293496" id="-39457">
		<tag k="name" v="Pettersenmyra" />
		<tag k="natural" v="wetland" />
		<tag k="ssr:stedsnr" v="115226" />
	</node>
	<node lat="69.70384722546494" lon="21.272111086864886" id="-39466">
		<tag k="name" v="Storslåttmyra" />
		<tag k="natural" v="wetland" />
		<tag k="ssr:stedsnr" v="115693" />
	</node>
	<node lat="69.86637777613365" lon="21.18601942281606" id="-39469">
		<tag k="name" v="Hestenesmyra" />
=======
	<node id="-891523" lat="69.809313886" lon="21.5860694052">
		<tag k="alt_name" v="Vaddas gruver" />
		<tag k="landuse" v="quarry" />
		<tag k="name" v="Váddás gruver" />
		<tag k="ssr:stedsnr" v="686183" />
	</node>
	<node id="-892028" lat="69.5913444418" lon="21.2512749791">
		<tag k="name" v="Bergskogen" />
		<tag k="place" v="locality" />
		<tag k="ssr:stedsnr" v="19347" />
	</node>
	<node id="-891493" lat="69.7250222218" lon="21.2588833118">
		<tag k="name" v="Baskabutmyra" />
>>>>>>> e1d4bc35ff8a6074a6f2e91616a996b547c36f15
		<tag k="natural" v="wetland" />
		<tag k="ssr:stedsnr" v="115759" />
	</node>
<<<<<<< HEAD
	<node lat="69.20839722150185" lon="22.382494380055213" id="-39488">
		<tag k="name" v="Holvináhpi" />
		<tag k="name:se" v="Holvináhpi" />
		<tag k="natural" v="wetland" />
		<tag k="old_name:se" v="Hålvinappi" />
		<tag k="ssr:stedsnr" v="139667" />
	</node>
	<node lat="69.65941944479349" lon="21.25594441776141" id="-39502">
		<tag k="name" v="Tørrfosskogen" />
=======
	<node id="-891490" lat="69.8012916695" lon="21.1000138625">
		<tag k="landuse" v="meadow" />
		<tag k="name" v="Vollakenttä" />
		<tag k="name:fkv" v="Vollakenttä" />
		<tag k="ssr:stedsnr" v="479863" />
	</node>
	<node id="-891997" lat="69.8763277825" lon="21.1889194216">
		<tag k="name" v="Makkeleira" />
>>>>>>> e1d4bc35ff8a6074a6f2e91616a996b547c36f15
		<tag k="place" v="locality" />
		<tag k="ssr:stedsnr" v="140333" />
	</node>
<<<<<<< HEAD
	<node lat="69.69498888989303" lon="21.253274964356415" id="-39505">
		<tag k="alt_name" v="Kjelderskogen" />
		<tag k="name" v="Kjellerskogen" />
		<tag k="place" v="locality" />
		<tag k="ssr:stedsnr" v="140354" />
	</node>
	<node lat="69.72345555862337" lon="21.07565274935822" id="-39558">
		<tag k="name" v="Olamyra" />
=======
	<node id="-891477" lat="69.7470666691" lon="21.0113360786">
		<tag k="name" v="Stormyra" />
>>>>>>> e1d4bc35ff8a6074a6f2e91616a996b547c36f15
		<tag k="natural" v="wetland" />
		<tag k="ssr:stedsnr" v="175563" />
	</node>
<<<<<<< HEAD
	<node lat="69.84077499645144" lon="20.921169420619243" id="-39564">
=======
	<node id="-893010" lat="69.7362361145" lon="21.090394423">
>>>>>>> e1d4bc35ff8a6074a6f2e91616a996b547c36f15
		<tag k="name" v="Stormyra" />
		<tag k="natural" v="wetland" />
		<tag k="ssr:stedsnr" v="175495" />
	</node>
<<<<<<< HEAD
	<node lat="69.92829722341222" lon="20.992116647097145" id="-39571">
		<tag k="name" v="Stakmyra" />
		<tag k="natural" v="wetland" />
		<tag k="ssr:stedsnr" v="175740" />
	</node>
	<node lat="69.87048888859478" lon="20.757574978729327" id="-39573">
		<tag k="name" v="Rødura" />
		<tag k="natural" v="scree" />
		<tag k="ssr:stedsnr" v="176042" />
	</node>
	<node lat="69.84522777884439" lon="20.53076108930237" id="-39576">
		<tag k="name" v="Sarvijeaggi" />
=======
	<node id="-891473" lat="69.5218416664" lon="21.4274138539">
		<tag k="name" v="Storslåtten" />
		<tag k="place" v="locality" />
		<tag k="ssr:stedsnr" v="661956" />
	</node>
	<node id="-893008" lat="69.8343027804" lon="21.4057805383">
		<tag k="name" v="Nordpolen" />
		<tag k="place" v="locality" />
		<tag k="ssr:stedsnr" v="600995" />
	</node>
	<node id="-891982" lat="69.8524888893" lon="20.7829138644">
		<tag k="name" v="Nesmyra" />
>>>>>>> e1d4bc35ff8a6074a6f2e91616a996b547c36f15
		<tag k="natural" v="wetland" />
		<tag k="ssr:stedsnr" v="175846" />
	</node>
<<<<<<< HEAD
	<node lat="69.78705555292383" lon="20.7437527475799" id="-39580">
		<tag k="name" v="Lilleura" />
		<tag k="natural" v="scree" />
		<tag k="ssr:stedsnr" v="176224" />
	</node>
	<node lat="69.69147499691937" lon="21.08238053379257" id="-39582">
		<tag k="name" v="Stormyra" />
		<tag k="natural" v="wetland" />
		<tag k="ssr:stedsnr" v="176625" />
	</node>
	<node lat="69.71882500253726" lon="21.2536388620041" id="-39583">
		<tag k="name" v="Torvbrumyra" />
=======
	<node id="-893517" lat="69.7889648558" lon="20.571328196">
		<tag k="name" v="Nordvollen" />
		<tag k="place" v="locality" />
		<tag k="ssr:stedsnr" v="1073814" />
	</node>
	<node id="-890951" lat="69.7625611157" lon="20.5187916398">
		<tag k="alt_name" v="Daljorda" />
		<tag k="name" v="Daljordet" />
		<tag k="place" v="locality" />
		<tag k="ssr:stedsnr" v="85812" />
	</node>
	<node id="-892992" lat="69.7432361134" lon="20.7180416549">
		<tag k="name" v="Langmyran" />
>>>>>>> e1d4bc35ff8a6074a6f2e91616a996b547c36f15
		<tag k="natural" v="wetland" />
		<tag k="ssr:stedsnr" v="176771" />
	</node>
<<<<<<< HEAD
	<node lat="69.79009166456146" lon="21.194891627952344" id="-39584">
		<tag k="name" v="Leppenkenttä" />
		<tag k="name:fkv" v="Leppenkenttä" />
=======
	<node id="-891453" lat="69.5476805603" lon="21.317355528">
		<tag k="name" v="Nerslåtta" />
>>>>>>> e1d4bc35ff8a6074a6f2e91616a996b547c36f15
		<tag k="place" v="locality" />
		<tag k="ssr:stedsnr" v="176924" />
	</node>
<<<<<<< HEAD
	<node lat="69.4757861094224" lon="21.490747183539842" id="-39585">
		<tag k="name" v="Hurrikaskogen" />
		<tag k="place" v="locality" />
		<tag k="ssr:stedsnr" v="176925" />
	</node>
	<node lat="69.78842499762617" lon="21.17651384848089" id="-39587">
		<tag k="name" v="Delkisjänkkä" />
		<tag k="name:fkv" v="Delkisjänkkä" />
=======
	<node id="-892987" lat="69.7616055528" lon="20.7377138605">
		<tag k="name" v="Stormyra" />
		<tag k="natural" v="wetland" />
		<tag k="ssr:stedsnr" v="600208" />
	</node>
	<node id="-891449" lat="69.8407805554" lon="20.8578360842">
		<tag k="name" v="Stormyra" />
>>>>>>> e1d4bc35ff8a6074a6f2e91616a996b547c36f15
		<tag k="natural" v="wetland" />
		<tag k="ssr:stedsnr" v="176934" />
	</node>
<<<<<<< HEAD
	<node lat="69.37571388760898" lon="21.82742496582667" id="-39617">
		<tag k="name" v="Mollešvuopmi" />
		<tag k="name:se" v="Mollešvuopmi" />
		<tag k="place" v="locality" />
		<tag k="ssr:stedsnr" v="200826" />
	</node>
	<node lat="69.69472500333511" lon="20.660988871379114" id="-39638">
=======
	<node id="-891445" lat="69.8325861129" lon="21.1179666359">
		<tag k="name" v="Buktskogen" />
		<tag k="place" v="locality" />
		<tag k="ssr:stedsnr" v="660959" />
	</node>
	<node id="-892467" lat="69.6947250033" lon="20.6609888714">
>>>>>>> e1d4bc35ff8a6074a6f2e91616a996b547c36f15
		<tag k="name" v="Goahtejiehkki" />
		<tag k="name:se" v="Goahtejiehkki" />
		<tag k="natural" v="glacier" />
		<tag k="ssr:stedsnr" v="201532" />
	</node>
<<<<<<< HEAD
	<node lat="69.85205555717381" lon="20.795819430696024" id="-39699">
		<tag k="name" v="Brokstestakmyra" />
		<tag k="natural" v="wetland" />
		<tag k="ssr:stedsnr" v="296009" />
	</node>
	<node lat="69.77962500022991" lon="20.7115916507178" id="-39700">
		<tag k="name" v="Dillemyra" />
=======
	<node id="-891953" lat="69.7918361098" lon="21.1825610792">
		<tag k="name" v="Jermekänttä" />
		<tag k="name:fkv" v="Jermekänttä" />
>>>>>>> e1d4bc35ff8a6074a6f2e91616a996b547c36f15
		<tag k="natural" v="wetland" />
		<tag k="ssr:stedsnr" v="296211" />
	</node>
<<<<<<< HEAD
	<node lat="69.7858555548901" lon="20.930736087471722" id="-39712">
		<tag k="name" v="Torvemyran" />
=======
	<node id="-893488" lat="69.7393611093" lon="21.2395249773">
		<tag k="name" v="Sakatjeralaka" />
		<tag k="name:fkv" v="Sakatjeralaka" />
>>>>>>> e1d4bc35ff8a6074a6f2e91616a996b547c36f15
		<tag k="natural" v="wetland" />
		<tag k="ssr:stedsnr" v="296347" />
	</node>
<<<<<<< HEAD
	<node lat="69.5456694446587" lon="21.293224971963195" id="-39729">
		<tag k="name" v="Nyslåtta" />
		<tag k="place" v="locality" />
		<tag k="ssr:stedsnr" v="297481" />
	</node>
	<node lat="69.78961111198568" lon="21.166277741883597" id="-39730">
		<tag k="name" v="Trollilantto" />
		<tag k="name:fkv" v="Trollilantto" />
=======
	<node id="-891439" lat="69.7936638867" lon="21.0739083147">
		<tag k="name" v="Randmyra" />
		<tag k="natural" v="wetland" />
		<tag k="ssr:stedsnr" v="660627" />
	</node>
	<node id="-890926" lat="69.8151166701" lon="20.7941527624">
		<tag k="name" v="Torven" />
>>>>>>> e1d4bc35ff8a6074a6f2e91616a996b547c36f15
		<tag k="natural" v="wetland" />
		<tag k="ssr:stedsnr" v="297490" />
	</node>
<<<<<<< HEAD
	<node lat="69.79108888998452" lon="21.167819416403233" id="-39731">
		<tag k="name" v="Myran" />
		<tag k="natural" v="wetland" />
		<tag k="ssr:stedsnr" v="297500" />
	</node>
	<node lat="69.7719499974302" lon="21.054938852948247" id="-39741">
		<tag k="name" v="Dalojänkkä" />
		<tag k="name:fkv" v="Dalojänkkä" />
		<tag k="natural" v="wetland" />
		<tag k="ssr:stedsnr" v="297945" />
	</node>
	<node lat="69.7608722240374" lon="20.505411105141068" id="-39797">
		<tag k="alt_name" v="Slottemyra" />
		<tag k="name" v="Kvitmyra" />
		<tag k="natural" v="wetland" />
		<tag k="ssr:stedsnr" v="322913" />
	</node>
	<node lat="69.78305556082785" lon="20.709627748965868" id="-39828">
		<tag k="name" v="Bankskogen" />
=======
	<node id="-891472" lat="69.7898527801" lon="21.1993249761">
		<tag k="name" v="Hansislåtta" />
		<tag k="place" v="locality" />
		<tag k="ssr:stedsnr" v="661950" />
	</node>
	<node id="-891433" lat="69.7689833362" lon="20.5681888785">
		<tag k="name" v="Middagssteinen" />
		<tag k="natural" v="stone" />
		<tag k="ssr:stedsnr" v="660247" />
	</node>
	<node id="-890918" lat="69.8834583354" lon="21.1896360848">
		<tag k="name" v="Øra" />
		<tag k="place" v="locality" />
		<tag k="ssr:stedsnr" v="236739" />
	</node>
	<node id="-893475" lat="69.783508337" lon="21.0216249664">
		<tag k="name" v="Baliotta" />
		<tag k="name:fkv" v="Baliotta" />
		<tag k="place" v="locality" />
		<tag k="ssr:stedsnr" v="964479" />
	</node>
	<node id="-891937" lat="69.7597444466" lon="20.7120444246">
		<tag k="name" v="Nerteigan" />
>>>>>>> e1d4bc35ff8a6074a6f2e91616a996b547c36f15
		<tag k="place" v="locality" />
		<tag k="ssr:stedsnr" v="357241" />
	</node>
<<<<<<< HEAD
	<node lat="69.79049166786874" lon="21.101752760814804" id="-39836">
		<tag k="name" v="Steallislåtta" />
=======
	<node id="-891930" lat="69.5497277831" lon="21.3001777484">
		<tag k="name" v="Sappenskogen" />
>>>>>>> e1d4bc35ff8a6074a6f2e91616a996b547c36f15
		<tag k="place" v="locality" />
		<tag k="ssr:stedsnr" v="357593" />
	</node>
<<<<<<< HEAD
	<node lat="69.89531944764079" lon="20.910719421879417" id="-39842">
		<tag k="name" v="Stormyra" />
=======
	<node id="-891412" lat="69.6256138933" lon="21.2479471868">
		<tag k="name" v="Langmyra" />
>>>>>>> e1d4bc35ff8a6074a6f2e91616a996b547c36f15
		<tag k="natural" v="wetland" />
		<tag k="ssr:stedsnr" v="357726" />
	</node>
<<<<<<< HEAD
	<node lat="69.8734138855596" lon="21.142230526653528" id="-39847">
		<tag k="name" v="Storsteinen" />
		<tag k="natural" v="stone" />
		<tag k="ssr:stedsnr" v="357768" />
	</node>
	<node lat="69.84353055854079" lon="20.853680536681217" id="-39944">
		<tag k="name" v="Stormyra" />
		<tag k="natural" v="wetland" />
		<tag k="ssr:stedsnr" v="418089" />
	</node>
	<node lat="69.65627777569632" lon="21.281244422619856" id="-39958">
		<tag k="name" v="Heikaskogen" />
		<tag k="place" v="locality" />
		<tag k="ssr:stedsnr" v="418544" />
	</node>
	<node lat="69.789924997998" lon="20.558291649880637" id="-39971">
		<tag k="name" v="Orresteinen" />
		<tag k="natural" v="stone" />
		<tag k="ssr:stedsnr" v="418856" />
	</node>
	<node lat="69.76448610946824" lon="20.717291636718322" id="-39974">
=======
	<node id="-892433" lat="69.3757138876" lon="21.8274249658">
		<tag k="name" v="Mollešvuopmi" />
		<tag k="name:se" v="Mollešvuopmi" />
		<tag k="place" v="locality" />
		<tag k="ssr:stedsnr" v="200826" />
	</node>
	<node id="-891919" lat="69.8016694428" lon="21.1238138629">
		<tag k="landuse" v="meadow" />
		<tag k="name" v="Leppakenttä" />
		<tag k="name:fkv" v="Leppakenttä" />
		<tag k="ssr:stedsnr" v="844826" />
	</node>
	<node id="-891404" lat="69.7644861095" lon="20.7172916367">
>>>>>>> e1d4bc35ff8a6074a6f2e91616a996b547c36f15
		<tag k="name" v="Nerteigen" />
		<tag k="place" v="locality" />
		<tag k="ssr:stedsnr" v="419222" />
	</node>
<<<<<<< HEAD
	<node lat="69.62561389328509" lon="21.247947186764435" id="-39978">
		<tag k="name" v="Langmyra" />
=======
	<node id="-891913" lat="69.7969111111" lon="21.1075944252">
		<tag k="name" v="Kjellarmyra" />
>>>>>>> e1d4bc35ff8a6074a6f2e91616a996b547c36f15
		<tag k="natural" v="wetland" />
		<tag k="ssr:stedsnr" v="419521" />
	</node>
<<<<<<< HEAD
	<node lat="69.67662222242977" lon="21.29980551692847" id="-39987">
		<tag k="name" v="Larsslåtten" />
		<tag k="place" v="locality" />
		<tag k="ssr:stedsnr" v="419747" />
	</node>
	<node lat="69.28703889489968" lon="22.09094994987783" id="-40010">
		<tag k="name" v="Skierbmárohtu" />
		<tag k="name:se" v="Skierbmárohtu" />
		<tag k="place" v="locality" />
		<tag k="ssr:stedsnr" v="443839" />
	</node>
	<node lat="69.55087222635784" lon="21.39596385442542" id="-40057">
		<tag k="name" v="Langmyra" />
=======
	<node id="-890887" lat="69.8192083343" lon="20.7816971976">
		<tag k="name" v="Brustadmyran" />
		<tag k="natural" v="wetland" />
		<tag k="ssr:stedsnr" v="236055" />
	</node>
	<node id="-891395" lat="69.7989416658" lon="21.1287027409">
		<tag k="name" v="Ragijenkkä" />
		<tag k="name:fkv" v="Ragijenkkä" />
>>>>>>> e1d4bc35ff8a6074a6f2e91616a996b547c36f15
		<tag k="natural" v="wetland" />
		<tag k="ssr:stedsnr" v="504227" />
	</node>
<<<<<<< HEAD
	<node lat="69.82951388952091" lon="20.52253608177046" id="-40123">
		<tag k="name" v="Steallijeaggi" />
		<tag k="name:se" v="Steallijeaggi" />
		<tag k="natural" v="wetland" />
		<tag k="ssr:stedsnr" v="539733" />
	</node>
	<node lat="69.77446111273701" lon="21.017052741010033" id="-40134">
		<tag k="name" v="Båtnesøra" />
		<tag k="place" v="locality" />
		<tag k="ssr:stedsnr" v="540635" />
	</node>
	<node lat="69.74772222655002" lon="21.243577745292413" id="-40135">
		<tag k="landuse" v="meadow" />
		<tag k="name" v="Laoungakenttä" />
		<tag k="name:fkv" v="Laoungakenttä" />
		<tag k="ssr:stedsnr" v="540723" />
	</node>
	<node lat="69.76160555276785" lon="20.73771386049688" id="-40222">
		<tag k="name" v="Stormyra" />
		<tag k="natural" v="wetland" />
		<tag k="ssr:stedsnr" v="600208" />
	</node>
	<node lat="69.74323611341461" lon="20.71804165485095" id="-40227">
		<tag k="name" v="Langmyran" />
		<tag k="natural" v="wetland" />
		<tag k="ssr:stedsnr" v="600245" />
	</node>
	<node lat="69.83430278044355" lon="21.405780538311376" id="-40244">
		<tag k="name" v="Nordpolen" />
		<tag k="place" v="locality" />
		<tag k="ssr:stedsnr" v="600995" />
	</node>
	<node lat="69.10362777839568" lon="22.316991614679495" id="-40247">
		<tag k="name" v="Geassáhpi" />
		<tag k="name:se" v="Geassáhpi" />
		<tag k="natural" v="wetland" />
		<tag k="old_name:se" v="Gæssappi" />
		<tag k="ssr:stedsnr" v="624739" />
	</node>
	<node lat="69.6679888943547" lon="21.246636074149443" id="-40286">
		<tag k="name" v="Holmeskogen" />
		<tag k="place" v="locality" />
		<tag k="ssr:stedsnr" v="626363" />
	</node>
	<node lat="69.85983889472736" lon="21.374786071415375" id="-40292">
		<tag k="name" v="Allmenningsmyran" />
		<tag k="natural" v="wetland" />
		<tag k="ssr:stedsnr" v="626815" />
	</node>
	<node lat="69.793663886737" lon="21.07390831467571" id="-40311">
		<tag k="name" v="Randmyra" />
		<tag k="natural" v="wetland" />
		<tag k="ssr:stedsnr" v="660627" />
	</node>
	<node lat="69.76898333624325" lon="20.568188878450684" id="-40316">
		<tag k="name" v="Middagssteinen" />
		<tag k="natural" v="stone" />
		<tag k="ssr:stedsnr" v="660247" />
	</node>
	<node lat="69.78985278012047" lon="21.19932497605526" id="-40319">
		<tag k="name" v="Hansislåtta" />
		<tag k="place" v="locality" />
		<tag k="ssr:stedsnr" v="661950" />
	</node>
	<node lat="69.52184166642195" lon="21.427413853945005" id="-40320">
		<tag k="name" v="Storslåtten" />
		<tag k="place" v="locality" />
		<tag k="ssr:stedsnr" v="661956" />
	</node>
	<node lat="69.85540277817758" lon="21.04943331462883" id="-40323">
		<tag k="name" v="Lasskenttä" />
		<tag k="name:fkv" v="Lasskenttä" />
		<tag k="place" v="locality" />
		<tag k="ssr:stedsnr" v="660753" />
	</node>
	<node lat="69.83258611290697" lon="21.117966635856035" id="-40328">
		<tag k="name" v="Buktskogen" />
		<tag k="place" v="locality" />
		<tag k="ssr:stedsnr" v="660959" />
	</node>
	<node lat="69.84078055540233" lon="20.857836084216572" id="-40330">
		<tag k="name" v="Stormyra" />
		<tag k="natural" v="wetland" />
		<tag k="ssr:stedsnr" v="661179" />
	</node>
	<node lat="69.54768056025259" lon="21.317355527950006" id="-40333">
		<tag k="name" v="Nerslåtta" />
		<tag k="place" v="locality" />
		<tag k="ssr:stedsnr" v="661468" />
	</node>
	<node lat="69.74190000390445" lon="21.081980522441185" id="-40374">
		<tag k="name" v="Myrkroken" />
		<tag k="natural" v="wetland" />
		<tag k="ssr:stedsnr" v="722680" />
	</node>
	<node lat="69.48885000446607" lon="21.478463866332135" id="-40379">
		<tag k="name" v="Biltoskogen" />
		<tag k="place" v="locality" />
		<tag k="ssr:stedsnr" v="722950" />
	</node>
	<node lat="69.74231666345008" lon="21.260830524367226" id="-40384">
		<tag k="name" v="Fjellmyran" />
		<tag k="natural" v="wetland" />
		<tag k="ssr:stedsnr" v="722762" />
	</node>
	<node lat="69.66144999624386" lon="21.3091277561571" id="-40490">
		<tag k="name" v="Potkaskogen" />
		<tag k="place" v="locality" />
		<tag k="ssr:stedsnr" v="782534" />
	</node>
	<node lat="69.76320555527174" lon="20.528361096590118" id="-40496">
		<tag k="name" v="Rotsundmyra" />
		<tag k="natural" v="wetland" />
		<tag k="ssr:stedsnr" v="782980" />
	</node>
	<node lat="69.76060278006705" lon="20.483169435288424" id="-40567">
		<tag k="alt_name" v="Spåkenesmyra" />
		<tag k="name" v="Stormyra" />
		<tag k="natural" v="wetland" />
		<tag k="ssr:stedsnr" v="808914" />
	</node>
	<node lat="69.92930833826466" lon="20.938591641494284" id="-40584">
		<tag k="name" v="Klokkarøra" />
		<tag k="place" v="locality" />
		<tag k="ssr:stedsnr" v="839162" />
	</node>
	<node lat="69.82546111377606" lon="21.07339441147722" id="-40596">
		<tag k="name" v="Asagentatorva" />
		<tag k="natural" v="wetland" />
		<tag k="ssr:stedsnr" v="843967" />
	</node>
	<node lat="69.7012861095972" lon="21.28083330380066" id="-40613">
		<tag k="name" v="Aboslåtta" />
		<tag k="place" v="locality" />
		<tag k="ssr:stedsnr" v="844735" />
	</node>
	<node lat="69.69374166892815" lon="21.24048052998662" id="-40614">
		<tag k="name" v="Lortbekkmyra" />
		<tag k="natural" v="wetland" />
		<tag k="ssr:stedsnr" v="844738" />
	</node>
	<node lat="69.75021388705045" lon="20.933902757783468" id="-40652">
		<tag k="name" v="Snøfonna" />
		<tag k="natural" v="glacier" />
		<tag k="ssr:stedsnr" v="868863" />
	</node>
	<node lat="69.54972778311172" lon="21.30017774835966" id="-40698">
		<tag k="name" v="Sappenskogen" />
		<tag k="place" v="locality" />
		<tag k="ssr:stedsnr" v="873360" />
	</node>
	<node lat="69.85248888928186" lon="20.782913864404748" id="-40713">
		<tag k="name" v="Nesmyra" />
		<tag k="natural" v="wetland" />
		<tag k="ssr:stedsnr" v="964016" />
	</node>
	<node lat="69.78196111460261" lon="20.720841657077166" id="-40718">
		<tag k="name" v="Slåttskogan" />
		<tag k="place" v="locality" />
		<tag k="ssr:stedsnr" v="964258" />
	</node>
	<node lat="69.78350833703932" lon="21.021624966377935" id="-40722">
		<tag k="name" v="Baliotta" />
		<tag k="name:fkv" v="Baliotta" />
		<tag k="place" v="locality" />
		<tag k="ssr:stedsnr" v="964479" />
	</node>
	<node lat="69.87632778252208" lon="21.18891942161846" id="-40725">
		<tag k="name" v="Makkeleira" />
		<tag k="place" v="locality" />
		<tag k="ssr:stedsnr" v="964770" />
	</node>
	<node lat="69.7458611106139" lon="21.253677744947886" id="-40730">
		<tag k="name" v="Bårogentaskogen" />
		<tag k="place" v="locality" />
		<tag k="ssr:stedsnr" v="965745" />
	</node>
	<node lat="69.73936110932735" lon="21.239524977294522" id="-40731">
		<tag k="name" v="Sakatjeralaka" />
		<tag k="name:fkv" v="Sakatjeralaka" />
		<tag k="natural" v="wetland" />
		<tag k="ssr:stedsnr" v="965746" />
	</node>
	<node lat="69.78896485584899" lon="20.571328196027928" id="-40755">
		<tag k="name" v="Nordvollen" />
		<tag k="place" v="locality" />
		<tag k="ssr:stedsnr" v="1073814" />
	</node>
=======
>>>>>>> e1d4bc35ff8a6074a6f2e91616a996b547c36f15
</osm>
