<?xml version="1.0" encoding="UTF-8"?>
<<<<<<< HEAD
<osm version="0.6" generator="osmapis">
	<node lat="69.79548611014538" lon="21.587580527791246" id="-38233">
		<tag k="name" v="Gryta" />
=======
<osm generator="osmapis" version="0.6">
	<node id="-892735" lat="69.8295249997" lon="21.4163444094">
		<tag k="name" v="Gárgolaš" />
		<tag k="name:se" v="Gárgolaš" />
>>>>>>> e1d4bc35ff8a6074a6f2e91616a996b547c36f15
		<tag k="place" v="locality" />
		<tag k="ssr:stedsnr" v="140192" />
	</node>
<<<<<<< HEAD
	<node lat="69.76963333081187" lon="21.033074961377245" id="-38904">
		<tag k="amenity" v="place_of_worship" />
		<tag k="denomination" v="lutheran" />
		<tag k="name" v="Nordreisa" />
		<tag k="religion" v="christian" />
		<tag k="ssr:stedsnr" v="687205" />
	</node>
	<node lat="69.78829722560107" lon="20.707963858308027" id="-39176">
=======
	<node id="-892285" lat="69.7954861101" lon="21.5875805278">
		<tag k="name" v="Gryta" />
		<tag k="place" v="locality" />
		<tag k="ssr:stedsnr" v="140192" />
	</node>
	<node id="-891899" lat="69.7882972256" lon="20.7079638583">
>>>>>>> e1d4bc35ff8a6074a6f2e91616a996b547c36f15
		<tag k="amenity" v="place_of_worship" />
		<tag k="denomination" v="lutheran" />
		<tag k="name" v="Rotsund" />
		<tag k="religion" v="christian" />
		<tag k="ssr:stedsnr" v="930940" />
	</node>
<<<<<<< HEAD
	<node lat="69.82952499968376" lon="21.416344409411607" id="-39912">
		<tag k="name" v="Gárgolaš" />
		<tag k="name:se" v="Gárgolaš" />
		<tag k="place" v="locality" />
		<tag k="ssr:stedsnr" v="383784" />
=======
	<node id="-891571" lat="69.7696333308" lon="21.0330749614">
		<tag k="amenity" v="place_of_worship" />
		<tag k="denomination" v="lutheran" />
		<tag k="name" v="Nordreisa" />
		<tag k="religion" v="christian" />
		<tag k="ssr:stedsnr" v="687205" />
>>>>>>> e1d4bc35ff8a6074a6f2e91616a996b547c36f15
	</node>
</osm>
