<?xml version="1.0" encoding="UTF-8"?>
<osm version="0.6" generator="osmapis">
	<node lat="69.90426111491244" lon="21.362877752580083" id="-46578">
		<tag k="name" v="Kalabekken" />
		<tag k="ssr:stedsnr" v="5905" />
		<tag k="waterway" v="stream" />
	</node>
	<node lat="69.27515277910658" lon="22.070680495986146" id="-46582">
		<tag k="name" v="Ruonasvárijohka" />
		<tag k="name:se" v="Ruonasvárijohka" />
		<tag k="ssr:stedsnr" v="18700" />
		<tag k="waterway" v="stream" />
	</node>
	<node lat="69.0866250033633" lon="21.978213844810355" id="-46587">
		<tag k="name" v="Deatnomuotki" />
		<tag k="name:se" v="Deatnomuotki" />
		<tag k="place" v="locality" />
		<tag k="ssr:stedsnr" v="19515" />
	</node>
	<node lat="69.20247222248054" lon="22.342924929810117" id="-46591">
		<tag k="name" v="Ráisluoppal" />
		<tag k="name:se" v="Ráisluoppal" />
		<tag k="natural" v="water" />
		<tag k="old_name:se" v="Raisluobbal" />
		<tag k="ssr:stedsnr" v="19690" />
	</node>
	<node lat="69.78298611498582" lon="20.933183312188042" id="-46603">
		<tag k="name" v="Tverrelva" />
		<tag k="ssr:stedsnr" v="235405" />
		<tag k="waterway" v="stream" />
	</node>
	<node lat="69.82206666269134" lon="20.897211094056413" id="-46604">
		<tag k="name" v="Gårdselva" />
		<tag k="ssr:stedsnr" v="235465" />
		<tag k="waterway" v="stream" />
	</node>
	<node lat="69.82938333214202" lon="20.896161086542374" id="-46605">
		<tag k="name" v="Gitsibaktaelva" />
		<tag k="ssr:stedsnr" v="235467" />
		<tag k="waterway" v="stream" />
	</node>
	<node lat="69.84239167189327" lon="20.905952755968226" id="-46606">
		<tag k="name" v="Hårbaktivannet" />
		<tag k="natural" v="water" />
		<tag k="ssr:stedsnr" v="235520" />
	</node>
	<node lat="69.79440277640876" lon="20.60038331408731" id="-46608">
		<tag k="name" v="Møllelva" />
		<tag k="ssr:stedsnr" v="235892" />
		<tag k="waterway" v="stream" />
	</node>
	<node lat="69.81437777503314" lon="20.768841645244475" id="-46612">
		<tag k="name" v="Anderselva" />
		<tag k="ssr:stedsnr" v="236061" />
		<tag k="waterway" v="stream" />
	</node>
	<node lat="69.82661388953554" lon="21.021849969462867" id="-46619">
		<tag k="name" v="Storsandelva" />
		<tag k="ssr:stedsnr" v="236315" />
		<tag k="waterway" v="stream" />
	</node>
	<node lat="69.94215343923142" lon="21.018270814867893" id="-46633">
		<tag k="loc_name" v="Finnbyvatnet" />
		<tag k="name" v="Finnbyvannet" />
		<tag k="natural" v="water" />
		<tag k="ssr:stedsnr" v="236696" />
	</node>
	<node lat="69.82775278103531" lon="21.129499988121943" id="-46637">
		<tag k="name" v="Kjøelva" />
		<tag k="ssr:stedsnr" v="236973" />
		<tag k="waterway" v="stream" />
	</node>
	<node lat="69.87213333541546" lon="21.225491638877557" id="-46641">
		<tag k="name" v="Skjellelva" />
		<tag k="ssr:stedsnr" v="237869" />
		<tag k="waterway" v="stream" />
	</node>
	<node lat="69.83515555213418" lon="20.875938868888525" id="-46645">
		<tag k="name" v="Lassvannan" />
		<tag k="natural" v="water" />
		<tag k="ssr:stedsnr" v="54207" />
		<tag k="water" v="lake" />
	</node>
	<node lat="69.84808888773172" lon="21.142736090470585" id="-46648">
		<tag k="name" v="Storelva" />
		<tag k="ssr:stedsnr" v="54319" />
		<tag k="waterway" v="stream" />
	</node>
	<node lat="69.59595277841011" lon="21.238477758743308" id="-46651">
		<tag k="name" v="Gorsavannet" />
		<tag k="natural" v="water" />
		<tag k="ssr:stedsnr" v="54582" />
	</node>
	<node lat="69.84541110896353" lon="21.11429164358199" id="-46655">
		<tag k="name" v="Jakobelva" />
		<tag k="ssr:stedsnr" v="54782" />
		<tag k="waterway" v="stream" />
	</node>
	<node lat="69.90131111035994" lon="21.358083301738134" id="-46662">
		<tag k="name" v="Saksaneset" />
		<tag k="natural" v="cape" />
		<tag k="ssr:stedsnr" v="55908" />
	</node>
	<node lat="69.8949027822442" lon="21.42246386365523" id="-46663">
		<tag k="name" v="Steinelva" />
		<tag k="name:se" v="Steinelva" />
		<tag k="ssr:stedsnr" v="55996" />
		<tag k="waterway" v="stream" />
	</node>
	<node lat="69.36960000346828" lon="21.3127249750269" id="-46666">
		<tag k="name" v="Čoalbmejohka" />
		<tag k="name:se" v="Čoalbmejohka" />
		<tag k="ssr:stedsnr" v="79594" />
		<tag k="waterway" v="river" />
	</node>
	<node lat="69.4716611131876" lon="21.450944414573428" id="-46670">
		<tag k="alt_name" v="Ørretvatnet" />
		<tag k="name" v="Ørretvannet" />
		<tag k="natural" v="water" />
		<tag k="ssr:stedsnr" v="79704" />
	</node>
	<node lat="69.46475000385108" lon="22.24963049230326" id="-46672">
		<tag k="name" v="Vilbealesjávri" />
		<tag k="name:se" v="Vilbealesjávri" />
		<tag k="natural" v="water" />
		<tag k="old_name:se" v="Vilbælesjavri;Vilbeálášjávri" />
		<tag k="ssr:stedsnr" v="79746" />
		<tag k="water" v="lake" />
	</node>
	<node lat="69.41651944624462" lon="21.203674963674324" id="-46673">
		<tag k="name" v="Loamijohka" />
		<tag k="name:se" v="Loamijohka" />
		<tag k="ssr:stedsnr" v="79689" />
		<tag k="waterway" v="river" />
	</node>
	<node lat="69.74370000402581" lon="21.217530530713823" id="-46674">
		<tag k="name" v="Røyelelva - Rokkiljohka" />
		<tag k="name:no" v="Røyelelva" />
		<tag k="name:se" v="Rokkiljohka" />
		<tag k="ssr:stedsnr" v="79692" />
		<tag k="waterway" v="stream" />
	</node>
	<node lat="69.74644721962878" lon="21.17620830502817" id="-46675">
		<tag k="name" v="Møllelva" />
		<tag k="ssr:stedsnr" v="79697" />
		<tag k="waterway" v="stream" />
	</node>
	<node lat="69.47298333277642" lon="21.489661088297034" id="-46676">
		<tag k="name" v="Erkinlantto" />
		<tag k="name:fkv" v="Erkinlantto" />
		<tag k="natural" v="water" />
		<tag k="ssr:stedsnr" v="79701" />
	</node>
	<node lat="69.33943333651004" lon="21.871563845273204" id="-46677">
		<tag k="name" v="Vuomádatjohka" />
		<tag k="name:se" v="Vuomádatjohka" />
		<tag k="ssr:stedsnr" v="79840" />
		<tag k="waterway" v="stream" />
	</node>
	<node lat="69.33975000356223" lon="21.919183298063192" id="-46678">
		<tag k="loc_name:fkv" v="Siurankuoppa" />
		<tag k="name" v="Čievrasavvon" />
		<tag k="name:se" v="Čievrasavvon" />
		<tag k="place" v="locality" />
		<tag k="ssr:stedsnr" v="79843" />
	</node>
	<node lat="69.75166944797758" lon="21.081377759323868" id="-46680">
		<tag k="name" v="Galsomelen - Kalsomella" />
		<tag k="name:fkv" v="Kalsomella" />
		<tag k="name:no" v="Galsomelen" />
		<tag k="natural" v="cape" />
		<tag k="ssr:stedsnr" v="80243" />
	</node>
	<node lat="69.57813055349285" lon="21.443024972051994" id="-46681">
		<tag k="name" v="Čavččasjávri" />
		<tag k="name:se" v="Čavččasjávri" />
		<tag k="natural" v="water" />
		<tag k="ssr:stedsnr" v="80349" />
	</node>
	<node lat="69.81360555263286" lon="21.60350830720231" id="-46685">
		<tag k="alt_name" v="Litleelva;Litlelva" />
		<tag k="name" v="Lilleelva" />
		<tag k="ssr:stedsnr" v="80445" />
		<tag k="waterway" v="river" />
	</node>
	<node lat="69.22176388566795" lon="22.000505516839983" id="-46687">
		<tag k="name" v="Orvvošjohka" />
		<tag k="name:se" v="Orvvošjohka" />
		<tag k="ssr:stedsnr" v="80501" />
		<tag k="waterway" v="river" />
	</node>
	<node lat="69.66439166987664" lon="20.982622210165154" id="-46688">
		<tag k="name" v="Annaelva - Ánnájohka" />
		<tag k="name:no" v="Annaelva" />
		<tag k="name:se" v="Ánnájohka" />
		<tag k="ssr:stedsnr" v="80592" />
		<tag k="waterway" v="stream" />
	</node>
	<node lat="69.84915555304205" lon="21.28506941282859" id="-46693">
		<tag k="name" v="Durmålskarelva - Márásjohka" />
		<tag k="name:no" v="Durmålskarelva" />
		<tag k="name:se" v="Márásjohka" />
		<tag k="ssr:stedsnr" v="80800" />
		<tag k="waterway" v="river" />
	</node>
	<node lat="69.84395000161336" lon="21.483449957370816" id="-46694">
		<tag k="name" v="Bjørnelva - Ádjájohka" />
		<tag k="name:no" v="Bjørnelva" />
		<tag k="name:se" v="Ádjájohka" />
		<tag k="ssr:stedsnr" v="80801" />
		<tag k="waterway" v="river" />
	</node>
	<node lat="69.89119721908679" lon="21.482480533687777" id="-46695">
		<tag k="name" v="Tverrelva - Doaresjohka" />
		<tag k="name:no" v="Tverrelva" />
		<tag k="name:se" v="Doaresjohka" />
		<tag k="ssr:stedsnr" v="80839" />
		<tag k="waterway" v="stream" />
	</node>
	<node lat="69.86871944404437" lon="20.87805553936974" id="-46700">
		<tag k="name" v="Møllelva" />
		<tag k="ssr:stedsnr" v="114004" />
		<tag k="waterway" v="stream" />
	</node>
	<node lat="69.74712778092425" lon="21.219422187679882" id="-46707">
		<tag k="name" v="Goppelobekken" />
		<tag k="ssr:stedsnr" v="115706" />
		<tag k="waterway" v="stream" />
	</node>
	<node lat="69.88923055293733" lon="21.350241646815036" id="-46708">
		<tag k="name" v="Vannbukta" />
		<tag k="natural" v="bay" />
		<tag k="ssr:stedsnr" v="115906" />
	</node>
	<node lat="69.83826666604885" lon="21.42863051247644" id="-46711">
		<tag k="name" v="Buktestilla" />
		<tag k="natural" v="water" />
		<tag k="ssr:stedsnr" v="115976" />
		<tag k="water" v="lake" />
	</node>
	<node lat="69.77681111307872" lon="21.081830527996495" id="-46713">
		<tag k="name" v="Gimammeri" />
		<tag k="name:fkv" v="Gimammeri" />
		<tag k="natural" v="water" />
		<tag k="ssr:stedsnr" v="127950" />
	</node>
	<node lat="69.2886638904952" lon="21.528480520008365" id="-46714">
		<tag k="loc_name:fkv" v="Somasjärvi;Somajärvi" />
		<tag k="name" v="Somájávri" />
		<tag k="name:se" v="Somájávri" />
		<tag k="natural" v="water" />
		<tag k="ssr:stedsnr" v="139645" />
		<tag k="water" v="lake" />
	</node>
	<node lat="69.59005278175087" lon="21.052891639592602" id="-46719">
		<tag k="name" v="Sapmajávri" />
		<tag k="name:se" v="Sapmajávri" />
		<tag k="natural" v="water" />
		<tag k="ssr:stedsnr" v="140368" />
	</node>
	<node lat="69.64123888662368" lon="21.531716618358608" id="-46720">
		<tag k="name" v="Mielggasjávrrit" />
		<tag k="name:se" v="Mielggasjávrrit" />
		<tag k="natural" v="water" />
		<tag k="ssr:stedsnr" v="140386" />
		<tag k="water" v="lake" />
	</node>
	<node lat="69.40172499986404" lon="21.145674982410743" id="-46721">
		<tag k="name" v="Bajimus Áhkkejávri" />
		<tag k="name:se" v="Bajimus Áhkkejávri" />
		<tag k="natural" v="water" />
		<tag k="old_name:se" v="Áhkkejávri, bajimus" />
		<tag k="ssr:stedsnr" v="140637" />
	</node>
	<node lat="69.89023610721419" lon="21.367666644531234" id="-46725">
		<tag k="name" v="Daganeset" />
		<tag k="natural" v="cape" />
		<tag k="ssr:stedsnr" v="140837" />
	</node>
	<node lat="69.77109722072639" lon="20.617097211327774" id="-46731">
		<tag k="fixme" v="multiple name tags, choose one and add the other to alt_name" />
		<tag k="name" v="Midtelva;Metteelva" />
		<tag k="ssr:stedsnr" v="140937" />
		<tag k="waterway" v="stream" />
	</node>
	<node lat="69.12802499878887" lon="22.431283275268203" id="-46739">
		<tag k="name" v="Báhpajávri" />
		<tag k="name:se" v="Báhpajávri" />
		<tag k="natural" v="water" />
		<tag k="old_name:se" v="Bappajavri" />
		<tag k="ssr:stedsnr" v="260763" />
	</node>
	<node lat="69.14746945072302" lon="22.442974940552457" id="-46740">
		<tag k="name" v="Goikejávri" />
		<tag k="name:se" v="Goikejávri" />
		<tag k="natural" v="water" />
		<tag k="old_name:se" v="Gåikejavri" />
		<tag k="ssr:stedsnr" v="260771" />
		<tag k="water" v="lake" />
	</node>
	<node lat="69.11624444845593" lon="22.354038841606098" id="-46741">
		<tag k="name" v="Geassábijohka" />
		<tag k="name:se" v="Geassábijohka" />
		<tag k="old_name:se" v="Gæssabijåkka;Geassabijohka" />
		<tag k="ssr:stedsnr" v="260786" />
		<tag k="waterway" v="river" />
	</node>
	<node lat="69.47533888968682" lon="21.690424971185625" id="-46742">
		<tag k="name" v="Sieiddijohka" />
		<tag k="name:se" v="Sieiddijohka" />
		<tag k="ssr:stedsnr" v="261071" />
		<tag k="waterway" v="river" />
	</node>
	<node lat="69.56986111176857" lon="21.224936070492852" id="-46744">
		<tag k="name" v="Tørrskardelva" />
		<tag k="ssr:stedsnr" v="261271" />
		<tag k="waterway" v="stream" />
	</node>
	<node lat="69.81790833055368" lon="20.78056943402005" id="-46758">
		<tag k="name" v="Moseselva" />
		<tag k="ssr:stedsnr" v="176077" />
		<tag k="waterway" v="stream" />
	</node>
	<node lat="69.73870000381264" lon="21.11154441360659" id="-46762">
		<tag k="name" v="Anikabekken" />
		<tag k="ssr:stedsnr" v="176561" />
		<tag k="waterway" v="stream" />
	</node>
	<node lat="69.80135000088923" lon="21.08714164250135" id="-46764">
		<tag k="name" v="Dødelva" />
		<tag k="ssr:stedsnr" v="176826" />
		<tag k="waterway" v="stream" />
	</node>
	<node lat="69.45913611567507" lon="21.46339997354418" id="-46767">
		<tag k="name" v="Gellojärvi" />
		<tag k="name:fkv" v="Gellojärvi" />
		<tag k="natural" v="water" />
		<tag k="ssr:stedsnr" v="176921" />
	</node>
	<node lat="69.81225555540996" lon="21.561719405115785" id="-46768">
		<tag k="name" v="Hestebekken" />
		<tag k="ssr:stedsnr" v="176961" />
		<tag k="waterway" v="stream" />
	</node>
	<node lat="69.74628055602786" lon="20.6166138685427" id="-46769">
		<tag k="name" v="Bohtanjávri" />
		<tag k="name:se" v="Bohtanjávri" />
		<tag k="natural" v="water" />
		<tag k="ssr:stedsnr" v="261594" />
	</node>
	<node lat="69.70523056065491" lon="20.892788858800298" id="-46771">
		<tag k="name" v="Sadjinjávri" />
		<tag k="name:se" v="Sadjinjávri" />
		<tag k="natural" v="water" />
		<tag k="ssr:stedsnr" v="261613" />
	</node>
	<node lat="69.31325000518599" lon="21.360483291681216" id="-46774">
		<tag k="name" v="Vuolit Meahccejávri" />
		<tag k="name:se" v="Vuolit Meahccejávri" />
		<tag k="natural" v="water" />
		<tag k="old_name:se" v="Meahccejávri, vuolit" />
		<tag k="ssr:stedsnr" v="261660" />
		<tag k="water" v="lake" />
	</node>
	<node lat="69.41733888850473" lon="21.451363860332858" id="-46775">
		<tag k="name" v="Geađgelágujávri" />
		<tag k="name:se" v="Geađgelágujávri" />
		<tag k="natural" v="water" />
		<tag k="ssr:stedsnr" v="261634" />
	</node>
	<node lat="69.49874649801255" lon="21.56623404346406" id="-46776">
		<tag k="name" v="Biltoelvvatna - Biltojávrrit" />
		<tag k="name:no" v="Biltoelvvatna" />
		<tag k="name:se" v="Biltojávrrit" />
		<tag k="natural" v="water" />
		<tag k="ssr:stedsnr" v="261672" />
		<tag k="water" v="lake" />
	</node>
	<node lat="69.20485833613775" lon="22.529224921601394" id="-46777">
		<tag k="name" v="Njáhkájávri" />
		<tag k="name:se" v="Njáhkájávri" />
		<tag k="natural" v="water" />
		<tag k="old_name:se" v="Njakkajavri" />
		<tag k="ssr:stedsnr" v="261678" />
		<tag k="water" v="lake" />
	</node>
	<node lat="69.16519166689964" lon="22.410186057356352" id="-46778">
		<tag k="name" v="Juvvanjávri" />
		<tag k="name:se" v="Juvvanjávri" />
		<tag k="natural" v="water" />
		<tag k="old_name:se" v="Juvvanjavri" />
		<tag k="ssr:stedsnr" v="261680" />
		<tag k="water" v="lake" />
	</node>
	<node lat="69.39794721959964" lon="21.973908283764832" id="-46779">
		<tag k="name" v="Divgajohka" />
		<tag k="name:se" v="Divgajohka" />
		<tag k="ssr:stedsnr" v="261787" />
		<tag k="waterway" v="stream" />
	</node>
	<node lat="69.35081111031981" lon="21.91189995745798" id="-46782">
		<tag k="name" v="Ruovddášjohka" />
		<tag k="name:se" v="Ruovddášjohka" />
		<tag k="ssr:stedsnr" v="261800" />
		<tag k="waterway" v="river" />
	</node>
	<node lat="69.74339722156142" lon="21.57815551359906" id="-46783">
		<tag k="name" v="Riehppejávri" />
		<tag k="name:se" v="Riehppejávri" />
		<tag k="natural" v="water" />
		<tag k="ssr:stedsnr" v="261710" />
	</node>
	<node lat="69.25252222422138" lon="21.827527723970885" id="-46785">
		<tag k="name" v="Hoallojohka" />
		<tag k="name:se" v="Hoallojohka" />
		<tag k="ssr:stedsnr" v="261719" />
		<tag k="waterway" v="river" />
	</node>
	<node lat="69.38005556078384" lon="21.79537496516374" id="-46787">
		<tag k="name" v="Toornionjoki" />
		<tag k="name:fkv" v="Toornionjoki" />
		<tag k="ssr:stedsnr" v="261808" />
		<tag k="waterway" v="stream" />
	</node>
	<node lat="69.34114999792048" lon="21.915224950447975" id="-46791">
		<tag k="loc_name:fkv" v="Siuranmukka" />
		<tag k="name" v="Čievraluokta" />
		<tag k="name:se" v="Čievraluokta" />
		<tag k="natural" v="water" />
		<tag k="ssr:stedsnr" v="261824" />
		<tag k="water" v="lake" />
	</node>
	<node lat="69.77548611298641" lon="20.749724983743526" id="-46793">
		<tag k="name" v="Lensmannselva - Sikkájohka" />
		<tag k="name:no" v="Lensmannselva" />
		<tag k="name:se" v="Sikkájohka" />
		<tag k="old_name:se" v="Sihkajohka" />
		<tag k="ssr:stedsnr" v="261913" />
		<tag k="waterway" v="stream" />
	</node>
	<node lat="69.34951388846599" lon="22.296827728488058" id="-46794">
		<tag k="name" v="Njárgaluoppal" />
		<tag k="name:se" v="Njárgaluoppal" />
		<tag k="natural" v="water" />
		<tag k="old_name:se" v="Njargaluobbal" />
		<tag k="ssr:stedsnr" v="261925" />
	</node>
	<node lat="69.54459444720642" lon="21.30264442558056" id="-46801">
		<tag k="alt_name" v="Langvatnet" />
		<tag k="name" v="Langvannet" />
		<tag k="natural" v="water" />
		<tag k="ssr:stedsnr" v="262267" />
	</node>
	<node lat="69.62797222042329" lon="21.254999971483027" id="-46803">
		<tag k="alt_name" v="Nesvatnet" />
		<tag k="name" v="Nesvannet" />
		<tag k="natural" v="water" />
		<tag k="ssr:stedsnr" v="262365" />
	</node>
	<node lat="69.70887777509435" lon="21.645047183112137" id="-46805">
		<tag k="name" v="Čearpmatluoppal" />
		<tag k="name:se" v="Čearpmatluoppal" />
		<tag k="natural" v="water" />
		<tag k="ssr:stedsnr" v="262475" />
	</node>
	<node lat="69.88353610939873" lon="20.880524970277865" id="-46807">
		<tag k="alt_name" v="Svartvatnet" />
		<tag k="name" v="Svartvannet" />
		<tag k="natural" v="water" />
		<tag k="ssr:stedsnr" v="262567" />
	</node>
	<node lat="69.72899166483239" lon="21.128863848515664" id="-46809">
		<tag k="name" v="Mølnelva" />
		<tag k="ssr:stedsnr" v="262711" />
		<tag k="waterway" v="stream" />
	</node>
	<node lat="69.69340000217066" lon="21.042863867067723" id="-46812">
		<tag k="alt_name" v="Raudbergbekken" />
		<tag k="name" v="Rødbergbekken" />
		<tag k="ssr:stedsnr" v="262729" />
		<tag k="waterway" v="stream" />
	</node>
	<node lat="69.81593055218922" lon="21.317358308409883" id="-46814">
		<tag k="name" v="Sadjingáissájávri" />
		<tag k="name:se" v="Sadjingáissájávri" />
		<tag k="natural" v="water" />
		<tag k="ssr:stedsnr" v="262788" />
		<tag k="water" v="lake" />
	</node>
	<node lat="69.8626833370822" lon="21.264761081465313" id="-46815">
		<tag k="name" v="Kvalvatna" />
		<tag k="natural" v="water" />
		<tag k="ssr:stedsnr" v="262825" />
		<tag k="water" v="lake" />
	</node>
	<node lat="69.64048333823179" lon="21.111880531936304" id="-46836">
		<tag k="name" v="Dammen" />
		<tag k="natural" v="water" />
		<tag k="ssr:stedsnr" v="267454" />
		<tag k="water" v="lake" />
	</node>
	<node lat="69.43342500438537" lon="22.016138831267828" id="-46840">
		<tag k="name" v="Gállamat" />
		<tag k="name:se" v="Gállamat" />
		<tag k="ssr:stedsnr" v="200813" />
		<tag k="waterway" v="stream" />
	</node>
	<node lat="69.76978889319055" lon="21.68207496452709" id="-46842">
		<tag k="name" v="Náhpoordasjávrrit" />
		<tag k="name:se" v="Náhpoordasjávrrit" />
		<tag k="natural" v="water" />
		<tag k="ssr:stedsnr" v="201004" />
		<tag k="water" v="lake" />
	</node>
	<node lat="69.56687777731523" lon="21.616161076418905" id="-46844">
		<tag k="name" v="Čahppeslágujávri" />
		<tag k="name:se" v="Čahppeslágujávri" />
		<tag k="natural" v="water" />
		<tag k="ssr:stedsnr" v="201244" />
	</node>
	<node lat="69.75413333058152" lon="21.329177746814256" id="-46846">
		<tag k="name" v="Stoahčetjohka" />
		<tag k="name:se" v="Stoahčetjohka" />
		<tag k="old_name:se" v="Stoahčctjohka" />
		<tag k="ssr:stedsnr" v="201200" />
		<tag k="waterway" v="river" />
	</node>
	<node lat="69.67158610838743" lon="21.26947774871427" id="-46868">
		<tag k="name" v="Lilleholmen" />
		<tag k="place" v="islet" />
		<tag k="ssr:stedsnr" v="236702" />
	</node>
	<node lat="69.75392222604108" lon="21.24833609170849" id="-46870">
		<tag k="name" v="Avkojohka" />
		<tag k="name:se" v="Avkojohka" />
		<tag k="ssr:stedsnr" v="236706" />
		<tag k="waterway" v="stream" />
	</node>
	<node lat="69.7485861093253" lon="21.228730514222786" id="-46871">
		<tag k="name" v="Olalabekken" />
		<tag k="ssr:stedsnr" v="236707" />
		<tag k="waterway" v="stream" />
	</node>
	<node lat="69.67833611108924" lon="21.254083304055463" id="-46872">
		<tag k="name" v="Potkaholmen" />
		<tag k="natural" v="cape" />
		<tag k="ssr:stedsnr" v="236709" />
	</node>
	<node lat="69.74753888801706" lon="21.288280531994836" id="-46874">
		<tag k="name" v="Sala" />
		<tag k="name:fkv" v="Sala" />
		<tag k="natural" v="water" />
		<tag k="ssr:stedsnr" v="236718" />
		<tag k="water" v="lake" />
	</node>
	<node lat="69.8188888871421" lon="21.121708301823674" id="-46877">
		<tag k="name" v="Betshammerelva" />
		<tag k="ssr:stedsnr" v="236988" />
		<tag k="waterway" v="stream" />
	</node>
	<node lat="69.21713333616385" lon="22.267324951274883" id="-46879">
		<tag k="name" v="Gievajohka" />
		<tag k="name:se" v="Gievajohka" />
		<tag k="old_name:se" v="Gievajåkka" />
		<tag k="ssr:stedsnr" v="261251" />
		<tag k="waterway" v="stream" />
	</node>
	<node lat="69.18222777621529" lon="22.345772168951374" id="-46880">
		<tag k="name" v="Guhkesjávri" />
		<tag k="name:se" v="Guhkesjávri" />
		<tag k="natural" v="water" />
		<tag k="old_name:se" v="Gukkesjavri" />
		<tag k="ssr:stedsnr" v="261683" />
		<tag k="water" v="lake" />
	</node>
	<node lat="69.7423527770667" lon="20.929274978422093" id="-46882">
		<tag k="name" v="Čuonjájohka" />
		<tag k="name:se" v="Čuonjájohka" />
		<tag k="ssr:stedsnr" v="261601" />
		<tag k="waterway" v="stream" />
	</node>
	<node lat="69.50315000071313" lon="22.04047495365229" id="-46885">
		<tag k="name" v="Vuolit Juovvavággejávri" />
		<tag k="name:se" v="Vuolit Juovvavággejávri" />
		<tag k="natural" v="water" />
		<tag k="old_name:se" v="Juovvavággejávri, vuolit" />
		<tag k="ssr:stedsnr" v="262410" />
		<tag k="water" v="lake" />
	</node>
	<node lat="69.66610555733949" lon="21.637533295763774" id="-46886">
		<tag k="name" v="Iŋggájávrrit" />
		<tag k="name:se" v="Iŋggájávrrit" />
		<tag k="natural" v="water" />
		<tag k="ssr:stedsnr" v="262448" />
		<tag k="water" v="lake" />
	</node>
	<node lat="69.5991388910875" lon="21.29092497478171" id="-46887">
		<tag k="name" v="Svartvatnet" />
		<tag k="natural" v="water" />
		<tag k="ssr:stedsnr" v="262348" />
	</node>
	<node lat="69.72061111578066" lon="21.56596106833653" id="-46891">
		<tag k="name" v="Jiehkkejávri" />
		<tag k="name:se" v="Jiehkkejávri" />
		<tag k="natural" v="water" />
		<tag k="ssr:stedsnr" v="262748" />
		<tag k="water" v="lake" />
	</node>
	<node lat="69.81836666712023" lon="21.36547218154074" id="-46893">
		<tag k="name" v="Gárgolášjávrrit" />
		<tag k="name:se" v="Gárgolášjávrrit" />
		<tag k="natural" v="water" />
		<tag k="ssr:stedsnr" v="262795" />
	</node>
	<node lat="69.93485278255596" lon="21.30869719508762" id="-46896">
		<tag k="name" v="Arildselva - Árresjohka" />
		<tag k="name:no" v="Arildselva" />
		<tag k="name:se" v="Árresjohka" />
		<tag k="ssr:stedsnr" v="262895" />
		<tag k="waterway" v="river" />
	</node>
	<node lat="69.49838333123938" lon="21.56308052184322" id="-46901">
		<tag k="name" v="Piltonjärvi" />
		<tag k="name:fkv" v="Piltonjärvi" />
		<tag k="natural" v="water" />
		<tag k="ssr:stedsnr" v="295812" />
		<tag k="water" v="lake" />
	</node>
	<node lat="69.78218333089245" lon="20.990588858258747" id="-46904">
		<tag k="name" v="Laittakka" />
		<tag k="name:fkv" v="Laittakka" />
		<tag k="place" v="islet" />
		<tag k="ssr:stedsnr" v="296445" />
	</node>
	<node lat="69.56242499907921" lon="21.278774962981323" id="-46918">
		<tag k="name" v="Savijärvi" />
		<tag k="name:fkv" v="Savijärvi" />
		<tag k="natural" v="water" />
		<tag k="ssr:stedsnr" v="297272" />
		<tag k="water" v="lake" />
	</node>
	<node lat="69.71799722209292" lon="21.215397200135747" id="-46920">
		<tag k="name" v="Adamstillholmen" />
		<tag k="place" v="islet" />
		<tag k="ssr:stedsnr" v="297771" />
	</node>
	<node lat="69.86798888912644" lon="21.24036386801678" id="-46921">
		<tag k="name" v="Innervalelva" />
		<tag k="ssr:stedsnr" v="297874" />
		<tag k="waterway" v="stream" />
	</node>
	<node lat="69.86644444728249" lon="21.376674970535426" id="-46922">
		<tag k="name" v="Storholmen" />
		<tag k="natural" v="cape" />
		<tag k="ssr:stedsnr" v="297879" />
	</node>
	<node lat="69.53984166756499" lon="21.535252737750245" id="-46927">
		<tag k="name" v="Gearpmesjávrrit" />
		<tag k="name:se" v="Gearpmesjávrrit" />
		<tag k="natural" v="water" />
		<tag k="ssr:stedsnr" v="322232" />
	</node>
	<node lat="69.49957500111499" lon="21.17338053901362" id="-46938">
		<tag k="name" v="Vuođđojávrrit" />
		<tag k="name:se" v="Vuođđojávrrit" />
		<tag k="natural" v="water" />
		<tag k="ssr:stedsnr" v="322689" />
		<tag k="water" v="lake" />
	</node>
	<node lat="69.45596389133816" lon="22.17753326941879" id="-46940">
		<tag k="name" v="Vilbealášjohka" />
		<tag k="name:se" v="Vilbealášjohka" />
		<tag k="ssr:stedsnr" v="322806" />
		<tag k="waterway" v="river" />
	</node>
	<node lat="69.18212500605458" lon="22.45135270643655" id="-46944">
		<tag k="name" v="Goikeluoppal" />
		<tag k="name:se" v="Goikeluoppal" />
		<tag k="natural" v="water" />
		<tag k="old_name:se" v="Gåikeluobbal" />
		<tag k="ssr:stedsnr" v="322702" />
	</node>
	<node lat="69.47049722333271" lon="21.424858295581974" id="-46945">
		<tag k="name" v="Skáidejohka" />
		<tag k="name:se" v="Skáidejohka" />
		<tag k="ssr:stedsnr" v="322731" />
		<tag k="waterway" v="river" />
	</node>
	<node lat="69.87344999710699" lon="21.553086084584088" id="-46946">
		<tag k="name" v="Jiekŋajávri" />
		<tag k="name:se" v="Jiekŋajávri" />
		<tag k="natural" v="water" />
		<tag k="ssr:stedsnr" v="322788" />
	</node>
	<node lat="69.63939444234238" lon="21.371822197700403" id="-46948">
		<tag k="alt_name:no" v="Dorriselva" />
		<tag k="name" v="Doareselva - Doaresjohka" />
		<tag k="name:no" v="Doareselva" />
		<tag k="name:se" v="Doaresjohka" />
		<tag k="ssr:stedsnr" v="323375" />
		<tag k="waterway" v="river" />
	</node>
	<node lat="69.87458611058541" lon="20.880211078901" id="-46955">
		<tag k="name" v="Trollvannet" />
		<tag k="natural" v="water" />
		<tag k="ssr:stedsnr" v="357005" />
	</node>
	<node lat="69.81786389303205" lon="20.903152769937368" id="-46958">
		<tag k="name" v="Hjellneselva" />
		<tag k="ssr:stedsnr" v="357302" />
		<tag k="waterway" v="stream" />
	</node>
	<node lat="69.56919444951446" lon="21.27955830712712" id="-46964">
		<tag k="name" v="Hauglijärvi" />
		<tag k="name:fkv" v="Hauglijärvi" />
		<tag k="natural" v="water" />
		<tag k="ssr:stedsnr" v="357252" />
	</node>
	<node lat="69.7295527820861" lon="21.05881108468106" id="-46969">
		<tag k="name" v="Loknes" />
		<tag k="natural" v="cape" />
		<tag k="ssr:stedsnr" v="357564" />
	</node>
	<node lat="69.55319722404815" lon="21.279041634316076" id="-46976">
		<tag k="name" v="Tørrvannet" />
		<tag k="natural" v="water" />
		<tag k="ssr:stedsnr" v="358261" />
	</node>
	<node lat="69.93056111469154" lon="21.28549720114806" id="-46979">
		<tag k="name" v="Tverrelva" />
		<tag k="ssr:stedsnr" v="358915" />
		<tag k="waterway" v="stream" />
	</node>
	<node lat="69.76946666922483" lon="20.701599990273177" id="-46980">
		<tag k="name" v="Nedre Tverrelv" />
		<tag k="ssr:stedsnr" v="478225" />
		<tag k="waterway" v="stream" />
	</node>
	<node lat="69.79251389208912" lon="21.094213877291338" id="-46994">
		<tag k="name" v="Løkelva" />
		<tag k="ssr:stedsnr" v="478637" />
		<tag k="waterway" v="stream" />
	</node>
	<node lat="69.54551944654666" lon="21.32722220193021" id="-47004">
		<tag k="name" v="Porukariholmen" />
		<tag k="place" v="islet" />
		<tag k="ssr:stedsnr" v="479496" />
	</node>
	<node lat="69.68461111104028" lon="21.091488858695964" id="-47006">
		<tag k="name" v="Odden" />
		<tag k="natural" v="cape" />
		<tag k="ssr:stedsnr" v="479644" />
	</node>
	<node lat="69.67598611294682" lon="21.26533052564869" id="-47009">
		<tag k="name" v="Potkastilla" />
		<tag k="natural" v="water" />
		<tag k="ssr:stedsnr" v="479721" />
		<tag k="water" v="lake" />
	</node>
	<node lat="69.70476111624552" lon="21.067372187908408" id="-47010">
		<tag k="name" v="Øyan" />
		<tag k="natural" v="cape" />
		<tag k="ssr:stedsnr" v="479723" />
	</node>
	<node lat="69.67706388950356" lon="21.258402739636967" id="-47011">
		<tag k="name" v="Mellomstilla" />
		<tag k="natural" v="water" />
		<tag k="ssr:stedsnr" v="479724" />
		<tag k="water" v="lake" />
	</node>
	<node lat="69.75252222383196" lon="21.243013859590462" id="-47013">
		<tag k="name" v="Fossbakkelva" />
		<tag k="ssr:stedsnr" v="479734" />
		<tag k="waterway" v="stream" />
	</node>
	<node lat="69.92239444637181" lon="21.283244415715327" id="-47018">
		<tag k="name" v="Mathilde-elva" />
		<tag k="ssr:stedsnr" v="479935" />
		<tag k="waterway" v="stream" />
	</node>
	<node lat="69.46471944074787" lon="21.515808305809152" id="-47020">
		<tag k="loc_name:fkv" v="Kirkkosuanto" />
		<tag k="name" v="Kirkestilla" />
		<tag k="name:no" v="Kirkestilla" />
		<tag k="natural" v="water" />
		<tag k="ssr:stedsnr" v="479943" />
		<tag k="water" v="lake" />
	</node>
	<node lat="69.48090000023723" lon="21.489866629391166" id="-47021">
		<tag k="name" v="Mäsgoappa" />
		<tag k="name:fkv" v="Mäsgoappa" />
		<tag k="natural" v="water" />
		<tag k="ssr:stedsnr" v="479949" />
		<tag k="water" v="lake" />
	</node>
	<node lat="69.83413889237882" lon="21.410172202996417" id="-47022">
		<tag k="name" v="Øya" />
		<tag k="place" v="islet" />
		<tag k="ssr:stedsnr" v="479995" />
	</node>
	<node lat="69.36300000465623" lon="21.25955552120618" id="-47023">
		<tag k="name" v="Biedjojohka" />
		<tag k="name:se" v="Biedjojohka" />
		<tag k="ssr:stedsnr" v="382610" />
		<tag k="waterway" v="river" />
	</node>
	<node lat="69.46924722744971" lon="21.509297187033408" id="-47025">
		<tag k="alt_name" v="Kjerkevatnet, nedre" />
		<tag k="name" v="Nedre Kjerkevatnet" />
		<tag k="natural" v="water" />
		<tag k="ssr:stedsnr" v="382714" />
	</node>
	<node lat="69.1957194466383" lon="22.47142216149617" id="-47027">
		<tag k="name" v="Guovdavuohppi" />
		<tag k="name:se" v="Guovdavuohppi" />
		<tag k="natural" v="bay" />
		<tag k="old_name:se" v="Guovdavuoppi" />
		<tag k="ssr:stedsnr" v="382657" />
	</node>
	<node lat="69.7374444473381" lon="21.176216642415678" id="-47049">
		<tag k="name" v="Seljebukta" />
		<tag k="natural" v="bay" />
		<tag k="ssr:stedsnr" v="418555" />
	</node>
	<node lat="69.87387222657588" lon="20.90047221138635" id="-47050">
		<tag k="name" v="Čahcajohka" />
		<tag k="name:se" v="Čahcajohka" />
		<tag k="ssr:stedsnr" v="418685" />
		<tag k="waterway" v="stream" />
	</node>
	<node lat="69.83623611649901" lon="20.803747192538545" id="-47054">
		<tag k="name" v="Holmevannet" />
		<tag k="natural" v="water" />
		<tag k="ssr:stedsnr" v="419205" />
	</node>
	<node lat="69.83856944718612" lon="20.805438876175604" id="-47055">
		<tag k="name" v="Sandnesvannet" />
		<tag k="natural" v="water" />
		<tag k="ssr:stedsnr" v="419207" />
	</node>
	<node lat="69.62297500344886" lon="21.326533316689215" id="-47058">
		<tag k="name" v="Sommersetbekken" />
		<tag k="ssr:stedsnr" v="419513" />
		<tag k="waterway" v="stream" />
	</node>
	<node lat="69.62525277483915" lon="21.300624971858866" id="-47059">
		<tag k="name" v="Holmen" />
		<tag k="place" v="islet" />
		<tag k="ssr:stedsnr" v="419514" />
	</node>
	<node lat="69.74367500134201" lon="21.127019425412918" id="-47060">
		<tag k="name" v="Odoranta" />
		<tag k="name:fkv" v="Odoranta" />
		<tag k="natural" v="bay" />
		<tag k="ssr:stedsnr" v="419588" />
	</node>
	<node lat="69.84287778110492" lon="21.430805535375168" id="-47067">
		<tag k="name" v="Nerøya" />
		<tag k="name:se" v="Nerøya" />
		<tag k="natural" v="cape" />
		<tag k="ssr:stedsnr" v="419989" />
	</node>
	<node lat="69.89704444755486" lon="21.42266108634842" id="-47068">
		<tag k="name" v="Lille Steinelva" />
		<tag k="name:se" v="Lille Steinelva" />
		<tag k="ssr:stedsnr" v="419992" />
		<tag k="waterway" v="stream" />
	</node>
	<node lat="69.14064167359287" lon="22.330383266948946" id="-47071">
		<tag k="name" v="Litnotskáidi" />
		<tag k="name:se" v="Litnotskáidi" />
		<tag k="natural" v="cape" />
		<tag k="old_name:se" v="Lidnutskaidi" />
		<tag k="ssr:stedsnr" v="442751" />
	</node>
	<node lat="69.73983333818776" lon="21.119338853831678" id="-47076">
		<tag k="name" v="Snemyrholmen" />
		<tag k="place" v="islet" />
		<tag k="ssr:stedsnr" v="443704" />
	</node>
	<node lat="69.70127500300286" lon="21.319472206872955" id="-47080">
		<tag k="name" v="Moskoelva - Moskkujohka" />
		<tag k="name:no" v="Moskoelva" />
		<tag k="name:se" v="Moskkujohka" />
		<tag k="ssr:stedsnr" v="444311" />
		<tag k="waterway" v="river" />
	</node>
	<node lat="69.5850666721822" lon="21.24464996704058" id="-47081">
		<tag k="alt_name" v="Tørrvatnet" />
		<tag k="name" v="Tørrvannet" />
		<tag k="natural" v="water" />
		<tag k="ssr:stedsnr" v="444313" />
	</node>
	<node lat="69.58818333464627" lon="21.30950552597522" id="-47082">
		<tag k="name" v="Ingebrigtholmen" />
		<tag k="place" v="islet" />
		<tag k="ssr:stedsnr" v="444323" />
	</node>
	<node lat="69.53913610937954" lon="21.339530529825268" id="-47083">
		<tag k="alt_name" v="Holmestilla, nedre" />
		<tag k="name" v="Nedre Holmestilla" />
		<tag k="natural" v="water" />
		<tag k="ssr:stedsnr" v="444233" />
		<tag k="water" v="lake" />
	</node>
	<node lat="69.53718611321996" lon="21.355491631521907" id="-47084">
		<tag k="alt_name" v="Holmestilla, øvre" />
		<tag k="name" v="Øvre Holmestilla" />
		<tag k="natural" v="water" />
		<tag k="old_name" v="Holmestilla" />
		<tag k="ssr:stedsnr" v="444234" />
		<tag k="water" v="lake" />
	</node>
	<node lat="69.86774999881746" lon="21.452549968080135" id="-47089">
		<tag k="fixme" v="multiple name tags, choose one and add the other to alt_name" />
		<tag k="name" v="Rahpesjohka;Rappeselva" />
		<tag k="name:se" v="Rahpesjohka;Rappeselva" />
		<tag k="ssr:stedsnr" v="444430" />
		<tag k="waterway" v="river" />
	</node>
	<node lat="69.8805166629885" lon="20.870772200700245" id="-47092">
		<tag k="name" v="Buktavatnet" />
		<tag k="natural" v="water" />
		<tag k="ssr:stedsnr" v="444504" />
	</node>
	<node lat="69.83407222624646" lon="20.825702763363807" id="-47102">
		<tag k="fixme" v="multiple name tags, choose one and add the other to alt_name" />
		<tag k="name" v="Eidasvatnet;Ytre Eidasvannet" />
		<tag k="natural" v="water" />
		<tag k="ssr:stedsnr" v="444988" />
	</node>
	<node lat="69.80019722249183" lon="21.12736108369064" id="-47105">
		<tag k="name" v="Gjerdbukta" />
		<tag k="natural" v="bay" />
		<tag k="ssr:stedsnr" v="673862" />
	</node>
	<node lat="69.85989166645045" lon="21.06315830756233" id="-47117">
		<tag k="name" v="Gortijärvi" />
		<tag k="name:fkv" v="Gortijärvi" />
		<tag k="natural" v="water" />
		<tag k="ssr:stedsnr" v="478777" />
	</node>
	<node lat="69.84584167058995" lon="21.127063871095945" id="-47118">
		<tag k="name" v="Fosselva" />
		<tag k="ssr:stedsnr" v="478782" />
		<tag k="waterway" v="stream" />
	</node>
	<node lat="69.82740555296037" lon="20.78971943009598" id="-47122">
		<tag k="name" v="Brustadelva" />
		<tag k="ssr:stedsnr" v="479203" />
		<tag k="waterway" v="stream" />
	</node>
	<node lat="69.6204388854103" lon="21.299322193698305" id="-47124">
		<tag k="name" v="Lilleålen" />
		<tag k="natural" v="water" />
		<tag k="ssr:stedsnr" v="479504" />
		<tag k="water" v="lake" />
	</node>
	<node lat="69.57011944773693" lon="21.290608307903703" id="-47129">
		<tag k="name" v="Badevatnet - Malla-Pekan järvi" />
		<tag k="name:fkv" v="Malla-Pekan järvi" />
		<tag k="name:no" v="Badevatnet" />
		<tag k="natural" v="water" />
		<tag k="ssr:stedsnr" v="491295" />
	</node>
	<node lat="69.78677500440969" lon="21.143349968531222" id="-47134">
		<tag k="name" v="Lulliselva - Lullisjohka" />
		<tag k="name:no" v="Lulliselva" />
		<tag k="name:se" v="Lullisjohka" />
		<tag k="ssr:stedsnr" v="504178" />
		<tag k="waterway" v="stream" />
	</node>
	<node lat="69.58188611569354" lon="21.6128277531934" id="-47136">
		<tag k="name" v="Čáhppeslágujohka" />
		<tag k="name:se" v="Čáhppeslágujohka" />
		<tag k="ssr:stedsnr" v="504318" />
		<tag k="waterway" v="stream" />
	</node>
	<node lat="69.23595277980662" lon="22.10653051437414" id="-47138">
		<tag k="name" v="Suorrejávri" />
		<tag k="name:se" v="Suorrejávri" />
		<tag k="natural" v="water" />
		<tag k="ssr:stedsnr" v="504505" />
	</node>
	<node lat="69.20229167188194" lon="22.092969396686676" id="-47139">
		<tag k="name" v="Njállajohka" />
		<tag k="name:se" v="Njállajohka" />
		<tag k="ssr:stedsnr" v="504518" />
		<tag k="waterway" v="river" />
	</node>
	<node lat="69.90370278336778" lon="20.90932774654105" id="-47140">
		<tag k="name" v="Raktoelva - Ráktojohka" />
		<tag k="name:no" v="Raktoelva" />
		<tag k="name:se" v="Ráktojohka" />
		<tag k="ssr:stedsnr" v="504566" />
		<tag k="waterway" v="stream" />
	</node>
	<node lat="69.36823333623676" lon="21.76590273486162" id="-47148">
		<tag k="name" v="Rautusuannonjoki" />
		<tag k="name:fkv" v="Rautusuannonjoki" />
		<tag k="ssr:stedsnr" v="504817" />
		<tag k="waterway" v="stream" />
	</node>
	<node lat="69.83576111041629" lon="21.570369402919017" id="-47151">
		<tag k="name" v="Bjørnskardvatnet - Ádjájávri" />
		<tag k="name:no" v="Bjørnskardvatnet" />
		<tag k="name:se" v="Ádjájávri" />
		<tag k="natural" v="water" />
		<tag k="ssr:stedsnr" v="504768" />
	</node>
	<node lat="69.62564166787121" lon="21.546008302448328" id="-47156">
		<tag k="name" v="Doaresjávri" />
		<tag k="name:se" v="Doaresjávri" />
		<tag k="natural" v="water" />
		<tag k="ssr:stedsnr" v="505373" />
	</node>
	<node lat="69.16892778283008" lon="21.843166628447488" id="-47157">
		<tag k="name" v="Čiertejávri" />
		<tag k="name:se" v="Čiertejávri" />
		<tag k="natural" v="water" />
		<tag k="ssr:stedsnr" v="505517" />
	</node>
	<node lat="69.56400277918222" lon="21.29624717955866" id="-47180">
		<tag k="name" v="Joselva" />
		<tag k="ssr:stedsnr" v="686261" />
		<tag k="waterway" v="stream" />
	</node>
	<node lat="69.51929722432472" lon="21.991347184236368" id="-47181">
		<tag k="name" v="Gapmajávri" />
		<tag k="name:se" v="Gapmajávri" />
		<tag k="natural" v="water" />
		<tag k="ssr:stedsnr" v="686402" />
		<tag k="water" v="lake" />
	</node>
	<node lat="69.33628610881004" lon="21.324286086966943" id="-47190">
		<tag k="name" v="Huortnášjávri" />
		<tag k="name:se" v="Huortnášjávri" />
		<tag k="natural" v="water" />
		<tag k="ssr:stedsnr" v="686669" />
	</node>
	<node lat="69.30257500237332" lon="21.496074970750822" id="-47191">
		<tag k="name" v="Suolojávri" />
		<tag k="name:se" v="Suolojávri" />
		<tag k="natural" v="water" />
		<tag k="ssr:stedsnr" v="686685" />
	</node>
	<node lat="69.16191667101842" lon="22.423438834396663" id="-47194">
		<tag k="name" v="Goikefielbmá" />
		<tag k="name:se" v="Goikefielbmá" />
		<tag k="old_name:se" v="Gåikefielbma" />
		<tag k="ssr:stedsnr" v="686709" />
		<tag k="waterway" v="river" />
	</node>
	<node lat="69.4313111105103" lon="21.072886094140525" id="-47197">
		<tag k="name" v="Loamijávri" />
		<tag k="name:se" v="Loamijávri" />
		<tag k="natural" v="water" />
		<tag k="ssr:stedsnr" v="686722" />
		<tag k="water" v="lake" />
	</node>
	<node lat="69.47686389134353" lon="21.502530525190696" id="-47198">
		<tag k="fixme" v="multiple name tags, choose one and add the other to alt_name" />
		<tag k="name" v="Kehnojávri;Girnojávri" />
		<tag k="name:se" v="Kehnojávri;Girnojávri" />
		<tag k="natural" v="water" />
		<tag k="ssr:stedsnr" v="686731" />
	</node>
	<node lat="69.57267222560193" lon="21.312619424538184" id="-47201">
		<tag k="name" v="Ingebrigtstilla" />
		<tag k="natural" v="water" />
		<tag k="ssr:stedsnr" v="539232" />
		<tag k="water" v="lake" />
	</node>
	<node lat="69.42422222256934" lon="22.243666600921646" id="-47209">
		<tag k="name" v="Čuollojávri" />
		<tag k="name:se" v="Čuollojávri" />
		<tag k="natural" v="water" />
		<tag k="old_name:se" v="Čuollujavri;Čuollujávri" />
		<tag k="ssr:stedsnr" v="686769" />
		<tag k="water" v="lake" />
	</node>
	<node lat="69.807052777991" lon="20.544124973795736" id="-47214">
		<tag k="name" v="Tårnelva" />
		<tag k="ssr:stedsnr" v="539770" />
		<tag k="waterway" v="stream" />
	</node>
	<node lat="69.54791666903706" lon="21.31987220522797" id="-47221">
		<tag k="name" v="Porukaristilla" />
		<tag k="natural" v="water" />
		<tag k="ssr:stedsnr" v="540505" />
		<tag k="water" v="lake" />
	</node>
	<node lat="69.93612499608993" lon="21.018255541852238" id="-47222">
		<tag k="name" v="Skjellelva" />
		<tag k="ssr:stedsnr" v="540707" />
		<tag k="waterway" v="stream" />
	</node>
	<node lat="69.88948889327243" lon="21.34623053992479" id="-47224">
		<tag k="name" v="Bjørnneset" />
		<tag k="natural" v="cape" />
		<tag k="ssr:stedsnr" v="540908" />
	</node>
	<node lat="69.81280833620698" lon="21.639086086054377" id="-47225">
		<tag k="name" v="Lilleelvvannet" />
		<tag k="natural" v="water" />
		<tag k="ssr:stedsnr" v="540968" />
	</node>
	<node lat="69.82577777907282" lon="20.846972207349108" id="-47226">
		<tag k="alt_name" v="Storvatnet" />
		<tag k="name" v="Storvannet" />
		<tag k="natural" v="water" />
		<tag k="ssr:stedsnr" v="686970" />
		<tag k="water" v="lake" />
	</node>
	<node lat="69.21800278408436" lon="21.843299948199157" id="-47236">
		<tag k="name" v="Roggejávri" />
		<tag k="name:se" v="Roggejávri" />
		<tag k="natural" v="water" />
		<tag k="ssr:stedsnr" v="687490" />
		<tag k="water" v="lake" />
	</node>
	<node lat="69.8694333354182" lon="20.780863881019073" id="-47238">
		<tag k="alt_name" v="Storbergvatnet" />
		<tag k="name" v="Storbergvannet" />
		<tag k="natural" v="water" />
		<tag k="ssr:stedsnr" v="687495" />
	</node>
	<node lat="69.7909861078178" lon="21.14216109299184" id="-47239">
		<tag k="name" v="Dalelva" />
		<tag k="ssr:stedsnr" v="687443" />
		<tag k="waterway" v="river" />
	</node>
	<node lat="69.83292222527584" lon="20.546163873143517" id="-47244">
		<tag k="name" v="Storelva" />
		<tag k="ssr:stedsnr" v="687455" />
		<tag k="waterway" v="river" />
	</node>
	<node lat="69.69143055489224" lon="21.627699954995354" id="-47247">
		<tag k="name" v="Čearpmatjávri" />
		<tag k="name:se" v="Čearpmatjávri" />
		<tag k="natural" v="water" />
		<tag k="ssr:stedsnr" v="687460" />
		<tag k="water" v="lake" />
	</node>
	<node lat="69.24502499728088" lon="21.725902738927868" id="-47250">
		<tag k="name" v="Geatkejávri" />
		<tag k="name:se" v="Geatkejávri" />
		<tag k="natural" v="water" />
		<tag k="ssr:stedsnr" v="687576" />
		<tag k="water" v="lake" />
	</node>
	<node lat="69.62443055471661" lon="21.2409833071291" id="-47267">
		<tag k="name" v="Bahtaelva" />
		<tag k="ssr:stedsnr" v="690416" />
		<tag k="waterway" v="stream" />
	</node>
	<node lat="69.72445277569932" lon="20.906683307326645" id="-47268">
		<tag k="name" v="Sadjinjohka" />
		<tag k="name:se" v="Sadjinjohka" />
		<tag k="ssr:stedsnr" v="564604" />
		<tag k="waterway" v="stream" />
	</node>
	<node lat="69.72019166900765" lon="21.18411385950513" id="-47270">
		<tag k="alt_name" v="Birigivielva" />
		<tag k="name" v="Birgivibekken" />
		<tag k="ssr:stedsnr" v="564674" />
		<tag k="waterway" v="stream" />
	</node>
	<node lat="69.42445555212893" lon="21.653852748894725" id="-47274">
		<tag k="name" v="Käyräniva" />
		<tag k="name:fkv" v="Käyräniva" />
		<tag k="ssr:stedsnr" v="564815" />
		<tag k="waterway" v="rapids" />
	</node>
	<node lat="69.44109166626478" lon="22.203436061335317" id="-47275">
		<tag k="name" v="Goččesjávri" />
		<tag k="name:se" v="Goččesjávri" />
		<tag k="natural" v="water" />
		<tag k="old_name:se" v="Gåžžesjavri" />
		<tag k="ssr:stedsnr" v="564825" />
		<tag k="water" v="lake" />
	</node>
	<node lat="69.6665138896226" lon="21.548441630074592" id="-47281">
		<tag k="name" v="Moskkanjávri" />
		<tag k="name:se" v="Moskkanjávri" />
		<tag k="natural" v="water" />
		<tag k="ssr:stedsnr" v="565314" />
	</node>
	<node lat="69.72220278248675" lon="21.68424441088981" id="-47282">
		<tag k="name" v="Čierrejávri" />
		<tag k="name:se" v="Čierrejávri" />
		<tag k="natural" v="water" />
		<tag k="ssr:stedsnr" v="565274" />
	</node>
	<node lat="69.85384444375696" lon="21.53394717621956" id="-47291">
		<tag k="name" v="Naiggájohka" />
		<tag k="name:se" v="Naiggájohka" />
		<tag k="ssr:stedsnr" v="565805" />
		<tag k="waterway" v="river" />
	</node>
	<node lat="69.58121389006075" lon="21.319702758282578" id="-47300">
		<tag k="name" v="Øverbekken" />
		<tag k="ssr:stedsnr" v="599250" />
		<tag k="waterway" v="stream" />
	</node>
	<node lat="69.73168889336031" lon="21.045161089039304" id="-47302">
		<tag k="name" v="Holmen" />
		<tag k="place" v="islet" />
		<tag k="ssr:stedsnr" v="599411" />
	</node>
	<node lat="69.80505277699038" lon="20.540480532997034" id="-47308">
		<tag k="name" v="Djupelva" />
		<tag k="ssr:stedsnr" v="599802" />
		<tag k="waterway" v="stream" />
	</node>
	<node lat="69.74242499946008" lon="20.709822210833842" id="-47310">
		<tag k="name" v="Iselva" />
		<tag k="ssr:stedsnr" v="599849" />
		<tag k="waterway" v="stream" />
	</node>
	<node lat="69.67174722035479" lon="21.292849962416327" id="-47318">
		<tag k="name" v="Sæterloken" />
		<tag k="natural" v="water" />
		<tag k="ssr:stedsnr" v="600704" />
	</node>
	<node lat="69.67180555769195" lon="21.271855524428908" id="-47319">
		<tag k="name" v="Rostilla" />
		<tag k="natural" v="water" />
		<tag k="ssr:stedsnr" v="600705" />
		<tag k="water" v="lake" />
	</node>
	<node lat="69.91735000182699" lon="21.318613854723196" id="-47320">
		<tag k="name" v="Styrmannselva" />
		<tag k="ssr:stedsnr" v="600903" />
		<tag k="waterway" v="stream" />
	</node>
	<node lat="69.33635833775959" lon="21.482963856656614" id="-47325">
		<tag k="name" v="Jeartnejávri" />
		<tag k="name:se" v="Jeartnejávri" />
		<tag k="natural" v="water" />
		<tag k="ssr:stedsnr" v="624667" />
		<tag k="water" v="lake" />
	</node>
	<node lat="69.72159444676896" lon="20.717088872780632" id="-47327">
		<tag k="alt_name:no" v="Storelva" />
		<tag k="name" v="Rotsundelva - Cohkolatjohka" />
		<tag k="name:no" v="Rotsundelva" />
		<tag k="name:se" v="Cohkolatjohka" />
		<tag k="ssr:stedsnr" v="625606" />
		<tag k="waterway" v="river" />
	</node>
	<node lat="69.47614999924704" lon="21.96647496494491" id="-47329">
		<tag k="name" v="Orjannejohka" />
		<tag k="name:se" v="Orjannejohka" />
		<tag k="ssr:stedsnr" v="625657" />
		<tag k="waterway" v="river" />
	</node>
	<node lat="69.4795750049328" lon="22.1155499495535" id="-47331">
		<tag k="name" v="Golggotjohka" />
		<tag k="name:se" v="Golggotjohka" />
		<tag k="ssr:stedsnr" v="625667" />
		<tag k="waterway" v="river" />
	</node>
	<node lat="69.4725111109267" lon="21.226099962724383" id="-47336">
		<tag k="name" v="Čohkkajávri" />
		<tag k="name:se" v="Čohkkajávri" />
		<tag k="natural" v="water" />
		<tag k="ssr:stedsnr" v="625757" />
	</node>
	<node lat="69.47186256899751" lon="21.51091421167622" id="-47337">
		<tag k="alt_name:no" v="Kjerkevatnet, øvre" />
		<tag k="name" v="Øvre Kjerkevatnet - Girkojärvi" />
		<tag k="name:fkv" v="Girkojärvi" />
		<tag k="name:no" v="Øvre Kjerkevatnet" />
		<tag k="natural" v="water" />
		<tag k="ssr:stedsnr" v="625763" />
	</node>
	<node lat="69.1255888867018" lon="22.02054994308752" id="-47340">
		<tag k="name" v="Fállejohka" />
		<tag k="name:se" v="Fállejohka" />
		<tag k="ssr:stedsnr" v="626548" />
		<tag k="waterway" v="river" />
	</node>
	<node lat="69.86176944841887" lon="20.8535277696111" id="-47351">
		<tag k="name" v="Bukkelva" />
		<tag k="ssr:stedsnr" v="660111" />
		<tag k="waterway" v="stream" />
	</node>
	<node lat="69.89704444873287" lon="21.48176665006686" id="-47353">
		<tag k="name" v="Isvannet" />
		<tag k="natural" v="water" />
		<tag k="ssr:stedsnr" v="660388" />
	</node>
	<node lat="69.84017500143872" lon="21.13636385264514" id="-47356">
		<tag k="name" v="Jakobelva" />
		<tag k="ssr:stedsnr" v="660996" />
		<tag k="waterway" v="stream" />
	</node>
	<node lat="69.6633888875698" lon="21.280588854751137" id="-47358">
		<tag k="name" v="Hoikagrubba" />
		<tag k="natural" v="bay" />
		<tag k="ssr:stedsnr" v="661533" />
	</node>
	<node lat="69.60832222673633" lon="21.3011582993226" id="-47361">
		<tag k="name" v="Makkstilla" />
		<tag k="natural" v="water" />
		<tag k="ssr:stedsnr" v="661483" />
		<tag k="water" v="lake" />
	</node>
	<node lat="69.662766666447" lon="21.119858312427763" id="-47364">
		<tag k="name" v="Fossen" />
		<tag k="natural" v="waterfall" />
		<tag k="ssr:stedsnr" v="661696" />
	</node>
	<node lat="69.90177778013857" lon="21.35404718416217" id="-47371">
		<tag k="name" v="Lillebukta" />
		<tag k="natural" v="bay" />
		<tag k="ssr:stedsnr" v="673928" />
	</node>
	<node lat="69.78755833737442" lon="21.123386076895727" id="-47374">
		<tag k="name" v="Baiskielva - Báiskijohka" />
		<tag k="name:no" v="Baiskielva" />
		<tag k="name:se" v="Báiskijohka" />
		<tag k="ssr:stedsnr" v="686191" />
		<tag k="waterway" v="stream" />
	</node>
	<node lat="69.7359833381374" lon="20.742430540204897" id="-47376">
		<tag k="alt_name:no" v="Tverrelva, øvre;Øvre Tverrelv" />
		<tag k="name" v="Øvre Tverrelva - Gievdnejohka" />
		<tag k="name:no" v="Øvre Tverrelva" />
		<tag k="name:se" v="Gievdnejohka" />
		<tag k="ssr:stedsnr" v="686604" />
		<tag k="waterway" v="stream" />
	</node>
	<node lat="69.34585000471536" lon="21.24346386561796" id="-47377">
		<tag k="name" v="Huortnášjohka" />
		<tag k="name:se" v="Huortnášjohka" />
		<tag k="ssr:stedsnr" v="686640" />
		<tag k="waterway" v="river" />
	</node>
	<node lat="69.41497500161272" lon="21.534263858348144" id="-47378">
		<tag k="name" v="Vuolit Čáraluoppal" />
		<tag k="name:se" v="Vuolit Čáraluoppal" />
		<tag k="natural" v="water" />
		<tag k="old_name:se" v="Čáraluoppal, vuolit" />
		<tag k="ssr:stedsnr" v="686644" />
	</node>
	<node lat="69.44122500011184" lon="21.804358289632212" id="-47384">
		<tag k="name" v="Boršojohka" />
		<tag k="name:se" v="Boršojohka" />
		<tag k="ssr:stedsnr" v="686804" />
		<tag k="waterway" v="river" />
	</node>
	<node lat="69.77308889006615" lon="21.465449965876672" id="-47389">
		<tag k="name" v="Čazajávrrit" />
		<tag k="name:se" v="Čazajávrrit" />
		<tag k="natural" v="water" />
		<tag k="ssr:stedsnr" v="687206" />
	</node>
	<node lat="69.189827778053" lon="22.208624932157516" id="-47392">
		<tag k="name" v="Vievssisjávri" />
		<tag k="name:se" v="Vievssisjávri" />
		<tag k="natural" v="water" />
		<tag k="ssr:stedsnr" v="687505" />
	</node>
	<node lat="69.8690361157772" lon="20.86644441373406" id="-47402">
		<tag k="name" v="Marsidielva" />
		<tag k="ssr:stedsnr" v="721006" />
		<tag k="waterway" v="stream" />
	</node>
	<node lat="69.94349721920196" lon="21.05578052405046" id="-47405">
		<tag k="name" v="Gugasvannet" />
		<tag k="natural" v="water" />
		<tag k="ssr:stedsnr" v="721272" />
	</node>
	<node lat="69.97469999750365" lon="21.25763051561409" id="-47406">
		<tag k="name" v="Tverrelvvannet" />
		<tag k="natural" v="water" />
		<tag k="ssr:stedsnr" v="721408" />
	</node>
	<node lat="69.72407778065498" lon="21.19857497753591" id="-47410">
		<tag k="name" v="Mosesholmen" />
		<tag k="place" v="islet" />
		<tag k="ssr:stedsnr" v="721609" />
	</node>
	<node lat="69.91708333463133" lon="21.3767749807666" id="-47418">
		<tag k="name" v="Isvannet" />
		<tag k="natural" v="water" />
		<tag k="ssr:stedsnr" v="722919" />
	</node>
	<node lat="69.84476666923003" lon="20.851644435761056" id="-47422">
		<tag k="name" v="Lilleelva" />
		<tag k="ssr:stedsnr" v="903085" />
		<tag k="waterway" v="stream" />
	</node>
	<node lat="69.57123055170848" lon="21.257122202807594" id="-47426">
		<tag k="name" v="Furuneset" />
		<tag k="natural" v="cape" />
		<tag k="ssr:stedsnr" v="903238" />
	</node>
	<node lat="69.93738889137623" lon="21.225986081997444" id="-47429">
		<tag k="name" v="Storengselva" />
		<tag k="ssr:stedsnr" v="903296" />
		<tag k="waterway" v="stream" />
	</node>
	<node lat="69.84389444840218" lon="21.098863855459065" id="-47438">
		<tag k="name" v="Riidielva" />
		<tag k="ssr:stedsnr" v="903768" />
		<tag k="waterway" v="stream" />
	</node>
	<node lat="69.36532777812936" lon="21.577277748642707" id="-47442">
		<tag k="name" v="Guollejávrrit" />
		<tag k="name:se" v="Guollejávrrit" />
		<tag k="natural" v="water" />
		<tag k="ssr:stedsnr" v="746617" />
		<tag k="water" v="lake" />
	</node>
	<node lat="69.45425000486026" lon="21.54474996811481" id="-47443">
		<tag k="name" v="Småvatna" />
		<tag k="natural" v="water" />
		<tag k="ssr:stedsnr" v="746680" />
	</node>
	<node lat="69.27655555707935" lon="21.720658289968412" id="-47445">
		<tag k="loc_name:fkv" v="Raikkujärvi" />
		<tag k="name" v="Ráikojávri" />
		<tag k="name:se" v="Ráikojávri" />
		<tag k="natural" v="water" />
		<tag k="ssr:stedsnr" v="746712" />
		<tag k="water" v="lake" />
	</node>
	<node lat="69.41627777946404" lon="22.118533287679973" id="-47446">
		<tag k="name" v="Siđusgohpejohka" />
		<tag k="name:se" v="Siđusgohpejohka" />
		<tag k="ssr:stedsnr" v="746766" />
		<tag k="waterway" v="stream" />
	</node>
	<node lat="69.40921388727095" lon="21.707891616986092" id="-47447">
		<tag k="alt_name:no" v="Sieimaholman" />
		<tag k="loc_name:fkv" v="Seimansaari" />
		<tag k="name" v="Seimaholman" />
		<tag k="name:no" v="Seimaholman" />
		<tag k="place" v="islet" />
		<tag k="ssr:stedsnr" v="746767" />
	</node>
	<node lat="69.76764722140746" lon="21.35860552030191" id="-47451">
		<tag k="name" v="Rágasjohka" />
		<tag k="name:se" v="Rágasjohka" />
		<tag k="ssr:stedsnr" v="747207" />
		<tag k="waterway" v="stream" />
	</node>
	<node lat="69.13320555741687" lon="21.96560273158707" id="-47457">
		<tag k="name" v="Biehtárskáidi" />
		<tag k="name:se" v="Biehtárskáidi" />
		<tag k="natural" v="cape" />
		<tag k="ssr:stedsnr" v="747514" />
	</node>
	<node lat="69.82141388653041" lon="21.111677757676137" id="-47464">
		<tag k="name" v="Kvitfjellvannet - Gohpejávri" />
		<tag k="name:no" v="Kvitfjellvannet" />
		<tag k="name:se" v="Gohpejávri" />
		<tag k="natural" v="water" />
		<tag k="old_name:se" v="Cohpejávri" />
		<tag k="ssr:stedsnr" v="747779" />
	</node>
	<node lat="69.78141388573619" lon="20.934786079944114" id="-47465">
		<tag k="name" v="Lalluselva - Lállosjohka" />
		<tag k="name:no" v="Lalluselva" />
		<tag k="name:se" v="Lállosjohka" />
		<tag k="ssr:stedsnr" v="747906" />
		<tag k="waterway" v="stream" />
	</node>
	<node lat="69.77604444869247" lon="20.77149165986296" id="-47467">
		<tag k="name" v="Rautasvatnet" />
		<tag k="natural" v="water" />
		<tag k="ssr:stedsnr" v="747917" />
	</node>
	<node lat="69.30891389142506" lon="21.960563833756378" id="-47468">
		<tag k="name" v="Dahkojohka" />
		<tag k="name:se" v="Dahkojohka" />
		<tag k="ssr:stedsnr" v="747871" />
		<tag k="waterway" v="stream" />
	</node>
	<node lat="69.83103333495193" lon="20.827547206550058" id="-47472">
		<tag k="name" v="Indre Eidasvannet" />
		<tag k="natural" v="water" />
		<tag k="ssr:stedsnr" v="904189" />
	</node>
	<node lat="69.6010027834107" lon="21.280952746264326" id="-47479">
		<tag k="name" v="Svartvannet" />
		<tag k="natural" v="water" />
		<tag k="ssr:stedsnr" v="904541" />
	</node>
	<node lat="69.9319638886494" lon="21.240733303209197" id="-47487">
		<tag k="name" v="Øyvannan" />
		<tag k="natural" v="water" />
		<tag k="ssr:stedsnr" v="904968" />
		<tag k="water" v="lake" />
	</node>
	<node lat="69.49802778187473" lon="21.432847197551776" id="-47496">
		<tag k="name" v="Puntafossen - Puntankurkkii" />
		<tag k="name:fkv" v="Puntankurkkii" />
		<tag k="name:no" v="Puntafossen" />
		<tag k="natural" v="waterfall" />
		<tag k="ssr:stedsnr" v="780219" />
	</node>
	<node lat="69.85735000169912" lon="20.79142498167953" id="-47499">
		<tag k="name" v="Bjørnskarelva" />
		<tag k="ssr:stedsnr" v="782015" />
		<tag k="waterway" v="stream" />
	</node>
	<node lat="69.73197500219989" lon="21.05219719702166" id="-47507">
		<tag k="name" v="Storneset" />
		<tag k="natural" v="cape" />
		<tag k="ssr:stedsnr" v="782552" />
	</node>
	<node lat="69.88845555293561" lon="21.342202741224117" id="-47512">
		<tag k="name" v="Bjørnelva" />
		<tag k="ssr:stedsnr" v="783910" />
		<tag k="waterway" v="stream" />
	</node>
	<node lat="69.76712777939584" lon="20.70300553945406" id="-47530">
		<tag k="name" v="Øvre Tverrelv" />
		<tag k="ssr:stedsnr" v="843239" />
		<tag k="waterway" v="stream" />
	</node>
	<node lat="69.73742222200373" lon="21.205402751272338" id="-47537">
		<tag k="name" v="Styggøya" />
		<tag k="place" v="islet" />
		<tag k="ssr:stedsnr" v="843586" />
	</node>
	<node lat="69.63091666940993" lon="21.298438872065805" id="-47538">
		<tag k="name" v="Gammestilla" />
		<tag k="natural" v="water" />
		<tag k="ssr:stedsnr" v="843587" />
		<tag k="water" v="lake" />
	</node>
	<node lat="69.86846389258511" lon="21.190227750073948" id="-47543">
		<tag k="name" v="Steinelva" />
		<tag k="ssr:stedsnr" v="843803" />
		<tag k="waterway" v="stream" />
	</node>
	<node lat="69.61819166583082" lon="21.302533297433474" id="-47548">
		<tag k="name" v="Lilleneset" />
		<tag k="natural" v="cape" />
		<tag k="ssr:stedsnr" v="844516" />
	</node>
	<node lat="69.87582222618695" lon="21.21657219242752" id="-47550">
		<tag k="name" v="Mølnelva" />
		<tag k="ssr:stedsnr" v="844885" />
		<tag k="waterway" v="stream" />
	</node>
	<node lat="69.57512778027963" lon="21.25816942852394" id="-47552">
		<tag k="fixme" v="multiple name tags, choose one and add the other to alt_name" />
		<tag k="name" v="Rundvannet;Tjernevatnet" />
		<tag k="natural" v="water" />
		<tag k="ssr:stedsnr" v="855287" />
	</node>
	<node lat="69.10422222086397" lon="22.398736044199158" id="-47556">
		<tag k="name" v="Guohpatjávrrit" />
		<tag k="name:se" v="Guohpatjávrrit" />
		<tag k="natural" v="water" />
		<tag k="old_name:se" v="Guoppatjavrit" />
		<tag k="ssr:stedsnr" v="928715" />
		<tag k="water" v="lake" />
	</node>
	<node lat="69.51835277973777" lon="21.373516633158577" id="-47558">
		<tag k="alt_name" v="Helgehesjabekken" />
		<tag k="name" v="Hellighesjabekken" />
		<tag k="ssr:stedsnr" v="929227" />
		<tag k="waterway" v="stream" />
	</node>
	<node lat="69.57476667123838" lon="21.28977220256172" id="-47566">
		<tag k="alt_name" v="Langvannet" />
		<tag k="name" v="Langvatnet" />
		<tag k="natural" v="water" />
		<tag k="ssr:stedsnr" v="929251" />
	</node>
	<node lat="69.8304166696065" lon="21.327297198238075" id="-47570">
		<tag k="name" v="Svartgryta - Márásjávri" />
		<tag k="name:no" v="Svartgryta" />
		<tag k="name:se" v="Márásjávri" />
		<tag k="natural" v="water" />
		<tag k="ssr:stedsnr" v="929764" />
	</node>
	<node lat="69.38215833767065" lon="21.38167495831127" id="-47583">
		<tag k="name" v="Čikŋajávri" />
		<tag k="name:se" v="Čikŋajávri" />
		<tag k="natural" v="water" />
		<tag k="ssr:stedsnr" v="929619" />
	</node>
	<node lat="69.38952500535564" lon="21.25596107839628" id="-47584">
		<tag k="name" v="Ruvdnajohka" />
		<tag k="name:se" v="Ruvdnajohka" />
		<tag k="ssr:stedsnr" v="929621" />
		<tag k="waterway" v="river" />
	</node>
	<node lat="69.40267500289605" lon="21.309638860022684" id="-47585">
		<tag k="name" v="Čikŋajohka" />
		<tag k="name:se" v="Čikŋajohka" />
		<tag k="ssr:stedsnr" v="929624" />
		<tag k="waterway" v="stream" />
	</node>
	<node lat="69.4711750023612" lon="22.210158279177225" id="-47586">
		<tag k="name" v="Balddonasjávri" />
		<tag k="name:se" v="Balddonasjávri" />
		<tag k="natural" v="water" />
		<tag k="ssr:stedsnr" v="929641" />
	</node>
	<node lat="69.7346138880624" lon="21.51026662697032" id="-47592">
		<tag k="name" v="Rokkiljávri" />
		<tag k="name:se" v="Rokkiljávri" />
		<tag k="natural" v="water" />
		<tag k="ssr:stedsnr" v="929679" />
	</node>
	<node lat="69.92553574242041" lon="20.986124194989735" id="-47593">
		<tag k="alt_name" v="Storvatnet" />
		<tag k="name" v="Storvannet" />
		<tag k="natural" v="water" />
		<tag k="ssr:stedsnr" v="929522" />
	</node>
	<node lat="69.68217500475389" lon="20.934574978149072" id="-47594">
		<tag k="name" v="Annavatnet - Ánnájávri" />
		<tag k="name:no" v="Annavatnet" />
		<tag k="name:se" v="Ánnájávri" />
		<tag k="natural" v="water" />
		<tag k="ssr:stedsnr" v="929541" />
	</node>
	<node lat="69.47932500154741" lon="21.408980524166285" id="-47595">
		<tag k="alt_name:no" v="Puntaelva" />
		<tag k="name" v="Buntaelva - Buntajohka - Puntanjoki" />
		<tag k="name:fkv" v="Puntanjoki" />
		<tag k="name:no" v="Buntaelva" />
		<tag k="name:se" v="Buntajohka" />
		<tag k="ssr:stedsnr" v="929732" />
		<tag k="waterway" v="river" />
	</node>
	<node lat="69.71125833464885" lon="21.03449997921489" id="-47600">
		<tag k="alt_name" v="Middagsskardbekken" />
		<tag k="name" v="Middagsskarbekken" />
		<tag k="ssr:stedsnr" v="929694" />
		<tag k="waterway" v="stream" />
	</node>
	<node lat="69.37318611420476" lon="22.078227734281874" id="-47603">
		<tag k="loc_name:fkv" v="Siuranjoki" />
		<tag k="name" v="Gurešjohka" />
		<tag k="name:se" v="Gurešjohka" />
		<tag k="ssr:stedsnr" v="929827" />
		<tag k="waterway" v="river" />
	</node>
	<node lat="69.32997499801759" lon="21.95618884757022" id="-47604">
		<tag k="name" v="Nokinivat" />
		<tag k="name:fkv" v="Nokinivat" />
		<tag k="ssr:stedsnr" v="929838" />
		<tag k="waterway" v="rapids" />
	</node>
	<node lat="69.30467777773595" lon="21.69143605749597" id="-47606">
		<tag k="name" v="Hárvvesjohka" />
		<tag k="name:se" v="Hárvvesjohka" />
		<tag k="ssr:stedsnr" v="929871" />
		<tag k="waterway" v="river" />
	</node>
	<node lat="69.7972388860911" lon="20.774738878137416" id="-47607">
		<tag k="name" v="Krokvatnet" />
		<tag k="natural" v="water" />
		<tag k="ssr:stedsnr" v="929960" />
	</node>
	<node lat="69.79600000233067" lon="20.914980534707894" id="-47608">
		<tag k="fixme" v="multiple name tags, choose one and add the other to alt_name" />
		<tag k="name" v="Mølnelva;Møllerelva" />
		<tag k="ssr:stedsnr" v="929962" />
		<tag k="waterway" v="stream" />
	</node>
	<node lat="69.79741389314118" lon="20.739499975095463" id="-47609">
		<tag k="name" v="Skoleelva" />
		<tag k="ssr:stedsnr" v="929968" />
		<tag k="waterway" v="stream" />
	</node>
	<node lat="69.25126388953058" lon="22.18537494188584" id="-47617">
		<tag k="name" v="Gironjávrrit" />
		<tag k="name:se" v="Gironjávrrit" />
		<tag k="natural" v="water" />
		<tag k="ssr:stedsnr" v="868712" />
	</node>
	<node lat="69.414186108202" lon="21.42045552065498" id="-47618">
		<tag k="name" v="Meahccejávrrit" />
		<tag k="name:se" v="Meahccejávrrit" />
		<tag k="natural" v="water" />
		<tag k="ssr:stedsnr" v="868611" />
		<tag k="water" v="lake" />
	</node>
	<node lat="69.33773611042065" lon="21.93976383168432" id="-47620">
		<tag k="name" v="Lorrioholmen" />
		<tag k="place" v="islet" />
		<tag k="ssr:stedsnr" v="868818" />
	</node>
	<node lat="69.33972500280426" lon="21.761438847081887" id="-47621">
		<tag k="name" v="Čuonjájávri" />
		<tag k="name:se" v="Čuonjájávri" />
		<tag k="natural" v="water" />
		<tag k="ssr:stedsnr" v="868819" />
		<tag k="water" v="lake" />
	</node>
	<node lat="69.2817750047134" lon="22.02888605620112" id="-47622">
		<tag k="name" v="Luvddiidjohka" />
		<tag k="name:se" v="Luvddiidjohka" />
		<tag k="ssr:stedsnr" v="868821" />
		<tag k="waterway" v="river" />
	</node>
	<node lat="69.5083416670013" lon="22.18388049819445" id="-47626">
		<tag k="name" v="Mollešluoppal" />
		<tag k="name:se" v="Mollešluoppal" />
		<tag k="natural" v="water" />
		<tag k="ssr:stedsnr" v="869445" />
		<tag k="water" v="lake" />
	</node>
	<node lat="69.50738055873873" lon="22.1418027331065" id="-47627">
		<tag k="name" v="Luosmejávri" />
		<tag k="name:se" v="Luosmejávri" />
		<tag k="natural" v="water" />
		<tag k="ssr:stedsnr" v="869447" />
		<tag k="water" v="lake" />
	</node>
	<node lat="69.90721111503336" lon="21.340447183230904" id="-47633">
		<tag k="name" v="Fiskelva - Aksuvuononjoki" />
		<tag k="name:fkv" v="Aksuvuononjoki" />
		<tag k="name:no" v="Fiskelva" />
		<tag k="ssr:stedsnr" v="869866" />
		<tag k="waterway" v="river" />
	</node>
	<node lat="69.75770000340587" lon="21.09628053554801" id="-47636">
		<tag k="alt_name" v="Styggøybekken" />
		<tag k="name" v="Styggøyelva" />
		<tag k="ssr:stedsnr" v="930216" />
		<tag k="waterway" v="stream" />
	</node>
	<node lat="69.81703889298736" lon="21.256141647822552" id="-47638">
		<tag k="name" v="Forsvatnet - Jiekŋajávri" />
		<tag k="name:no" v="Forsvatnet" />
		<tag k="name:se" v="Jiekŋajávri" />
		<tag k="natural" v="water" />
		<tag k="ssr:stedsnr" v="869776" />
		<tag k="water" v="lake" />
	</node>
	<node lat="69.80696389155067" lon="21.069644408615723" id="-47639">
		<tag k="alt_name" v="Lillevannet" />
		<tag k="name" v="Litlevatnet" />
		<tag k="natural" v="water" />
		<tag k="ssr:stedsnr" v="869781" />
	</node>
	<node lat="69.86964721837765" lon="20.874472202672937" id="-47650">
		<tag k="name" v="Buktaelva" />
		<tag k="ssr:stedsnr" v="930525" />
		<tag k="waterway" v="stream" />
	</node>
	<node lat="69.19410833850901" lon="22.14738051403392" id="-47651">
		<tag k="name" v="Skohpejávri" />
		<tag k="name:se" v="Skohpejávri" />
		<tag k="natural" v="water" />
		<tag k="ssr:stedsnr" v="930531" />
	</node>
	<node lat="69.88798333493855" lon="21.2294138599945" id="-47652">
		<tag k="alt_name" v="Svartvannet" />
		<tag k="name" v="Svartvatnet" />
		<tag k="natural" v="water" />
		<tag k="ssr:stedsnr" v="930841" />
	</node>
	<node lat="69.47702500197734" lon="21.49652773352396" id="-47664">
		<tag k="name" v="Hurikka" />
		<tag k="name:fkv" v="Hurikka" />
		<tag k="ssr:stedsnr" v="902218" />
		<tag k="waterway" v="rapids" />
	</node>
	<node lat="69.85430555745168" lon="20.820669425807612" id="-47666">
		<tag k="name" v="Fjordbotnelva" />
		<tag k="ssr:stedsnr" v="903105" />
		<tag k="waterway" v="stream" />
	</node>
	<node lat="69.78999166288553" lon="20.70066109717815" id="-47668">
		<tag k="name" v="Kjosen" />
		<tag k="natural" v="bay" />
		<tag k="ssr:stedsnr" v="903118" />
	</node>
	<node lat="69.79597221934857" lon="21.10263608404585" id="-47674">
		<tag k="name" v="Nellasavra" />
		<tag k="name:fkv" v="Nellasavra" />
		<tag k="natural" v="cape" />
		<tag k="ssr:stedsnr" v="903505" />
	</node>
	<node lat="69.8242305537891" lon="20.545572206276912" id="-47678">
		<tag k="name" v="Áhkkájohka" />
		<tag k="name:se" v="Áhkkájohka" />
		<tag k="ssr:stedsnr" v="903753" />
		<tag k="waterway" v="stream" />
	</node>
	<node lat="69.70090833296504" lon="21.225686091069157" id="-47680">
		<tag k="name" v="Andreasholmen" />
		<tag k="place" v="islet" />
		<tag k="ssr:stedsnr" v="904705" />
	</node>
	<node lat="69.67551944805953" lon="21.254283318449254" id="-47681">
		<tag k="name" v="Potkaholmen" />
		<tag k="place" v="islet" />
		<tag k="ssr:stedsnr" v="904721" />
	</node>
	<node lat="69.46178333275047" lon="21.52917496403184" id="-47684">
		<tag k="loc_name:fkv" v="Nahkapuhalus" />
		<tag k="name" v="Nakabohalos" />
		<tag k="name:fkv" v="Nakabohalos" />
		<tag k="ssr:stedsnr" v="904952" />
		<tag k="waterway" v="rapids" />
	</node>
	<node lat="69.4584194460423" lon="21.534761064597248" id="-47685">
		<tag k="name" v="Järämä" />
		<tag k="name:fkv" v="Järämä" />
		<tag k="natural" v="water" />
		<tag k="ssr:stedsnr" v="904953" />
		<tag k="water" v="lake" />
	</node>
	<node lat="69.84861388627995" lon="21.393494422509175" id="-47688">
		<tag k="name" v="Gjøkelva" />
		<tag k="name:se" v="Gjøkelva" />
		<tag k="ssr:stedsnr" v="905000" />
		<tag k="waterway" v="stream" />
	</node>
	<node lat="69.13643611148763" lon="22.322555489291513" id="-47692">
		<tag k="name" v="Litnotjohka" />
		<tag k="name:se" v="Litnotjohka" />
		<tag k="old_name:se" v="Lidnutjåkka" />
		<tag k="ssr:stedsnr" v="928699" />
		<tag k="waterway" v="stream" />
	</node>
	<node lat="69.54417222344414" lon="22.14050551381626" id="-47695">
		<tag k="loc_name:fkv" v="Mollisjärvi" />
		<tag k="name" v="Stuora Mollešjávri" />
		<tag k="name:se" v="Stuora Mollešjávri" />
		<tag k="natural" v="water" />
		<tag k="old_name:se" v="Mollešjávri, stuora;Stuora Mollesjavri" />
		<tag k="ssr:stedsnr" v="929457" />
		<tag k="water" v="lake" />
	</node>
	<node lat="69.42007499962239" lon="21.587358299560968" id="-47698">
		<tag k="name" v="Stohkkejohka" />
		<tag k="name:se" v="Stohkkejohka" />
		<tag k="ssr:stedsnr" v="929724" />
		<tag k="waterway" v="stream" />
	</node>
	<node lat="69.81424999991178" lon="21.205547202800535" id="-47700">
		<tag k="name" v="Goržejávri" />
		<tag k="name:se" v="Goržejávri" />
		<tag k="natural" v="water" />
		<tag k="ssr:stedsnr" v="929745" />
	</node>
	<node lat="69.8158916710524" lon="21.429155536801836" id="-47701">
		<tag k="fixme" v="multiple name tags, choose one and add the other to alt_name" />
		<tag k="name" v="Heinelva;Heindalselva - Sadjinjohka" />
		<tag k="name:no" v="Heinelva;Heindalselva" />
		<tag k="name:se" v="Sadjinjohka" />
		<tag k="old_name:se" v="Sagjinjohka" />
		<tag k="ssr:stedsnr" v="929747" />
		<tag k="waterway" v="river" />
	</node>
	<node lat="69.8043555570241" lon="21.30109719550183" id="-47702">
		<tag k="name" v="Doaresjávri" />
		<tag k="name:se" v="Doaresjávri" />
		<tag k="natural" v="water" />
		<tag k="ssr:stedsnr" v="929751" />
	</node>
	<node lat="69.35013889179001" lon="21.944424962840802" id="-47705">
		<tag k="loc_name:fkv" v="Siuranjoki" />
		<tag k="name" v="Čievrajohka" />
		<tag k="name:se" v="Čievrajohka" />
		<tag k="ssr:stedsnr" v="929849" />
		<tag k="waterway" v="river" />
	</node>
	<node lat="69.92110833799929" lon="21.42564997853715" id="-47708">
		<tag k="name" v="Čuvččajávri" />
		<tag k="name:se" v="Čuvččajávri" />
		<tag k="natural" v="water" />
		<tag k="ssr:stedsnr" v="929854" />
	</node>
	<node lat="69.1117250008622" lon="21.969430519090263" id="-47711">
		<tag k="name" v="Rukseskáidi" />
		<tag k="name:se" v="Rukseskáidi" />
		<tag k="natural" v="cape" />
		<tag k="ssr:stedsnr" v="930553" />
	</node>
	<node lat="69.94615833164194" lon="21.203477747337935" id="-47720">
		<tag k="name" v="Knevikelva" />
		<tag k="ssr:stedsnr" v="964307" />
		<tag k="waterway" v="stream" />
	</node>
	<node lat="69.8638305597115" lon="21.176938852521726" id="-47721">
		<tag k="name" v="Hestneselva" />
		<tag k="ssr:stedsnr" v="964322" />
		<tag k="waterway" v="stream" />
	</node>
	<node lat="69.85207778137277" lon="21.154363865221317" id="-47723">
		<tag k="name" v="Siljohka" />
		<tag k="name:se" v="Siljohka" />
		<tag k="ssr:stedsnr" v="964326" />
		<tag k="waterway" v="stream" />
	</node>
	<node lat="69.77495277935513" lon="21.018374981711947" id="-47724">
		<tag k="name" v="Olderskogstraumen" />
		<tag k="natural" v="strait" />
		<tag k="ssr:stedsnr" v="964608" />
	</node>
	<node lat="69.71100555999446" lon="21.064730520691395" id="-47729">
		<tag k="name" v="Kroken" />
		<tag k="natural" v="bay" />
		<tag k="ssr:stedsnr" v="964703" />
	</node>
	<node lat="69.76226111290707" lon="20.514680540902965" id="-47731">
		<tag k="name" v="Leirvågelva" />
		<tag k="ssr:stedsnr" v="964987" />
		<tag k="waterway" v="stream" />
	</node>
	<node lat="69.49620833054271" lon="21.46704162785643" id="-47737">
		<tag k="name" v="Jonkajossajärvi" />
		<tag k="name:fkv" v="Jonkajossajärvi" />
		<tag k="natural" v="water" />
		<tag k="ssr:stedsnr" v="965943" />
	</node>
	<node lat="69.40924444881597" lon="21.71107773619059" id="-47739">
		<tag k="name" v="Sieimafurua" />
		<tag k="place" v="islet" />
		<tag k="ssr:stedsnr" v="965983" />
	</node>
	<node lat="69.80343888814963" lon="21.09247218411356" id="-47744">
		<tag k="name" v="Nepelandselva" />
		<tag k="ssr:stedsnr" v="6859" />
		<tag k="waterway" v="stream" />
	</node>
	<node lat="69.14662778388214" lon="22.498177703048214" id="-47746">
		<tag k="name" v="Sotnabeaijávri" />
		<tag k="name:se" v="Sotnabeaijávri" />
		<tag k="natural" v="water" />
		<tag k="old_name:se" v="Sådnabæijavri" />
		<tag k="ssr:stedsnr" v="17764" />
	</node>
	<node lat="69.26524166481006" lon="21.662786065050458" id="-47749">
		<tag k="name" v="Láddojávrrit" />
		<tag k="name:se" v="Láddojávrrit" />
		<tag k="natural" v="water" />
		<tag k="old_name:se" v="Láddojávrit" />
		<tag k="ssr:stedsnr" v="18693" />
		<tag k="water" v="lake" />
	</node>
	<node lat="69.34462777821753" lon="21.416899955000655" id="-47750">
		<tag k="name" v="Čoalbmejávrrit" />
		<tag k="name:se" v="Čoalbmejávrrit" />
		<tag k="natural" v="water" />
		<tag k="ssr:stedsnr" v="18619" />
		<tag k="water" v="lake" />
	</node>
	<node lat="69.7461194453814" lon="21.60129162925574" id="-47752">
		<tag k="name" v="Riehppejohka" />
		<tag k="name:se" v="Riehppejohka" />
		<tag k="ssr:stedsnr" v="18640" />
		<tag k="waterway" v="stream" />
	</node>
	<node lat="69.85475555503866" lon="21.403505519018708" id="-47753">
		<tag k="name" v="Sandelva - Sáttojohka" />
		<tag k="name:no" v="Sandelva" />
		<tag k="name:se" v="Sáttojohka" />
		<tag k="ssr:stedsnr" v="19436" />
		<tag k="waterway" v="river" />
	</node>
	<node lat="69.26364999980488" lon="21.701883286248638" id="-47754">
		<tag k="name" v="Láddojohka" />
		<tag k="name:se" v="Láddojohka" />
		<tag k="ssr:stedsnr" v="18694" />
		<tag k="waterway" v="river" />
	</node>
	<node lat="69.42228055663723" lon="21.669186068965423" id="-47755">
		<tag k="name" v="Houvinkivi" />
		<tag k="name:fkv" v="Houvinkivi" />
		<tag k="place" v="islet" />
		<tag k="ssr:stedsnr" v="18770" />
	</node>
	<node lat="69.41212499958142" lon="21.874638842204106" id="-47756">
		<tag k="name" v="Suollatjohka" />
		<tag k="name:se" v="Suollatjohka" />
		<tag k="ssr:stedsnr" v="18773" />
		<tag k="waterway" v="river" />
	</node>
	<node lat="69.79545277549636" lon="21.647805522090405" id="-47759">
		<tag k="name" v="Luovosskáidi" />
		<tag k="name:se" v="Luovosskáidi" />
		<tag k="natural" v="cape" />
		<tag k="ssr:stedsnr" v="19111" />
	</node>
	<node lat="69.77796944481095" lon="21.4033277595243" id="-47760">
		<tag k="name" v="Rágasjávri" />
		<tag k="name:se" v="Rágasjávri" />
		<tag k="natural" v="water" />
		<tag k="old_name:se" v="Rágsjávri" />
		<tag k="ssr:stedsnr" v="19197" />
	</node>
	<node lat="69.21912222237233" lon="22.41463603723204" id="-47762">
		<tag k="name" v="Holvinluoppal" />
		<tag k="name:se" v="Holvinluoppal" />
		<tag k="natural" v="water" />
		<tag k="old_name:se" v="Hålvinluobbal" />
		<tag k="ssr:stedsnr" v="19243" />
	</node>
	<node lat="69.633963887597" lon="21.25316664658514" id="-47770">
		<tag k="alt_name" v="Langvatnet" />
		<tag k="name" v="Langvannet" />
		<tag k="natural" v="water" />
		<tag k="ssr:stedsnr" v="19359" />
	</node>
	<node lat="69.44018055514373" lon="21.218388871040084" id="-47779">
		<tag k="name" v="Skorajávri" />
		<tag k="name:se" v="Skorajávri" />
		<tag k="natural" v="water" />
		<tag k="ssr:stedsnr" v="19719" />
	</node>
	<node lat="69.44961388675853" lon="21.54623329889822" id="-47780">
		<tag k="alt_name:no" v="Kjerkestilla, øvre;Øvre Kirkestilla" />
		<tag k="loc_name:fkv" v="Yli-Kirkkosuanto" />
		<tag k="name" v="Øvre Kjerkestilla" />
		<tag k="name:no" v="Øvre Kjerkestilla" />
		<tag k="place" v="locality" />
		<tag k="ssr:stedsnr" v="19724" />
	</node>
	<node lat="69.58911110801047" lon="20.94299997002062" id="-47781">
		<tag k="name" v="Njallajohka" />
		<tag k="name:se" v="Njallajohka" />
		<tag k="ssr:stedsnr" v="19668" />
		<tag k="waterway" v="stream" />
	</node>
	<node lat="69.19499166872647" lon="22.312377715917684" id="-47782">
		<tag k="name" v="Goddejávri" />
		<tag k="name:se" v="Goddejávri" />
		<tag k="natural" v="water" />
		<tag k="old_name:se" v="Gåddejavri" />
		<tag k="ssr:stedsnr" v="19684" />
		<tag k="water" v="lake" />
	</node>
	<node lat="69.36102275405999" lon="21.831765714760248" id="-47785">
		<tag k="name" v="Mollisfossen - Mollešgorži - Molliskurkkii" />
		<tag k="name:fkv" v="Molliskurkkii" />
		<tag k="name:no" v="Mollisfossen" />
		<tag k="name:se" v="Mollešgorži" />
		<tag k="natural" v="waterfall" />
		<tag k="ssr:stedsnr" v="19828" />
	</node>
	<node lat="69.8117888887523" lon="21.064674971262264" id="-47787">
		<tag k="alt_name" v="Storvannet" />
		<tag k="name" v="Storvatnet" />
		<tag k="natural" v="water" />
		<tag k="ssr:stedsnr" v="19763" />
	</node>
	<node lat="69.76158888775903" lon="20.905783302931482" id="-47792">
		<tag k="name" v="Lallusvatnet" />
		<tag k="natural" v="water" />
		<tag k="ssr:stedsnr" v="19914" />
	</node>
	<node lat="69.75388333593982" lon="20.88353331379702" id="-47793">
		<tag k="name" v="Ráššajávri" />
		<tag k="name:se" v="Ráššajávri" />
		<tag k="natural" v="water" />
		<tag k="ssr:stedsnr" v="19916" />
	</node>
	<node lat="69.818286114013" lon="20.81466664164811" id="-47800">
		<tag k="name" v="Sørelva" />
		<tag k="ssr:stedsnr" v="19969" />
		<tag k="waterway" v="stream" />
	</node>
	<node lat="69.74229722500608" lon="20.73666109539832" id="-47822">
		<tag k="name" v="Tjønna" />
		<tag k="natural" v="water" />
		<tag k="ssr:stedsnr" v="54235" />
	</node>
	<node lat="69.78692222608962" lon="21.06584442526238" id="-47833">
		<tag k="name" v="Gáhkkorjávri" />
		<tag k="name:se" v="Gáhkkorjávri" />
		<tag k="natural" v="water" />
		<tag k="ssr:stedsnr" v="54536" />
	</node>
	<node lat="69.88053889016204" lon="20.90580831560376" id="-47836">
		<tag k="name" v="Orritelva" />
		<tag k="ssr:stedsnr" v="54709" />
		<tag k="waterway" v="stream" />
	</node>
	<node lat="69.8949111085163" lon="20.91755276643221" id="-47841">
		<tag k="name" v="Vardhamelva" />
		<tag k="ssr:stedsnr" v="54743" />
		<tag k="waterway" v="stream" />
	</node>
	<node lat="69.6133194408102" lon="21.282863862183838" id="-47848">
		<tag k="name" v="Portireikä" />
		<tag k="name:fkv" v="Portireikä" />
		<tag k="ssr:stedsnr" v="55501" />
		<tag k="waterway" v="stream" />
	</node>
	<node lat="69.7162638910705" lon="21.269502746259338" id="-47849">
		<tag k="name" v="Lille Moskoelv" />
		<tag k="ssr:stedsnr" v="55751" />
		<tag k="waterway" v="stream" />
	</node>
	<node lat="69.76058611167186" lon="21.061358298013044" id="-47852">
		<tag k="name" v="Gorosokroken" />
		<tag k="natural" v="cape" />
		<tag k="ssr:stedsnr" v="67962" />
	</node>
	<node lat="69.13435556033362" lon="22.348897164314025" id="-47853">
		<tag k="name" v="Mákkájávri" />
		<tag k="name:se" v="Mákkájávri" />
		<tag k="natural" v="water" />
		<tag k="old_name:se" v="Maggajavri" />
		<tag k="ssr:stedsnr" v="78723" />
	</node>
	<node lat="69.3726250026533" lon="21.79042496050006" id="-47856">
		<tag k="name" v="Rautusuanto" />
		<tag k="name:fkv" v="Rautusuanto" />
		<tag k="place" v="locality" />
		<tag k="ssr:stedsnr" v="79827" />
	</node>
	<node lat="69.19371667094661" lon="22.435355505738087" id="-47858">
		<tag k="loc_name:fkv" v="Raisinjärvi" />
		<tag k="name" v="Ráisjávri" />
		<tag k="name:se" v="Ráisjávri" />
		<tag k="natural" v="water" />
		<tag k="old_name:se" v="Raisjavri" />
		<tag k="ssr:stedsnr" v="79651" />
		<tag k="water" v="lake" />
	</node>
	<node lat="69.49613889144952" lon="21.809230507240446" id="-47859">
		<tag k="loc_name:fkv" v="Kiepa-autsinjoki" />
		<tag k="name" v="Giebajohka" />
		<tag k="name:se" v="Giebajohka" />
		<tag k="ssr:stedsnr" v="79624" />
		<tag k="waterway" v="river" />
	</node>
	<node lat="69.46904444289548" lon="21.586252747009773" id="-47861">
		<tag k="alt_name:no" v="Kirkevannan" />
		<tag k="name" v="Kjerkevatna - Girkojávrrit" />
		<tag k="name:no" v="Kjerkevatna" />
		<tag k="name:se" v="Girkojávrrit" />
		<tag k="natural" v="water" />
		<tag k="ssr:stedsnr" v="79707" />
		<tag k="water" v="lake" />
	</node>
	<node lat="69.4448388923911" lon="21.158399967838655" id="-47865">
		<tag k="name" v="Geatkkutjávri" />
		<tag k="name:se" v="Geatkkutjávri" />
		<tag k="natural" v="water" />
		<tag k="old_name:se" v="Geatkkutjávrit" />
		<tag k="ssr:stedsnr" v="79671" />
		<tag k="water" v="lake" />
	</node>
	<node lat="69.79327221963437" lon="21.213727757333583" id="-47871">
		<tag k="name" v="Doaresjohka" />
		<tag k="name:se" v="Doaresjohka" />
		<tag k="ssr:stedsnr" v="80211" />
		<tag k="waterway" v="stream" />
	</node>
	<node lat="69.77484444435801" lon="21.312516643261283" id="-47873">
		<tag k="name" v="Fávrresjohka" />
		<tag k="name:se" v="Fávrresjohka" />
		<tag k="ssr:stedsnr" v="80228" />
		<tag k="waterway" v="river" />
	</node>
	<node lat="69.77147777575392" lon="21.163980536875233" id="-47875">
		<tag k="name" v="Lullisjärvi" />
		<tag k="name:fkv" v="Lullisjärvi" />
		<tag k="natural" v="water" />
		<tag k="ssr:stedsnr" v="80234" />
	</node>
	<node lat="69.7601305557216" lon="21.239966634248677" id="-47876">
		<tag k="name" v="Sieiddejohka" />
		<tag k="name:se" v="Sieiddejohka" />
		<tag k="ssr:stedsnr" v="80236" />
		<tag k="waterway" v="river" />
	</node>
	<node lat="69.51780555880283" lon="21.180355521612427" id="-47877">
		<tag k="name" v="Langvatnet" />
		<tag k="natural" v="water" />
		<tag k="ssr:stedsnr" v="80264" />
	</node>
	<node lat="69.5618083317676" lon="21.43451662467531" id="-47881">
		<tag k="name" v="Čavččasjohka" />
		<tag k="name:se" v="Čavččasjohka" />
		<tag k="ssr:stedsnr" v="80290" />
		<tag k="waterway" v="stream" />
	</node>
	<node lat="69.634200004583" lon="21.494230530873047" id="-47886">
		<tag k="name" v="Mielggasskáidi" />
		<tag k="name:se" v="Mielggasskáidi" />
		<tag k="natural" v="cape" />
		<tag k="ssr:stedsnr" v="80378" />
	</node>
	<node lat="69.95441666837732" lon="21.33773885031467" id="-47887">
		<tag k="name" v="Trolldalselva" />
		<tag k="ssr:stedsnr" v="80452" />
		<tag k="waterway" v="river" />
	</node>
	<node lat="69.13209444525843" lon="22.107433274432662" id="-47893">
		<tag k="name" v="Nieidajohka" />
		<tag k="name:se" v="Nieidajohka" />
		<tag k="ssr:stedsnr" v="80532" />
		<tag k="waterway" v="river" />
	</node>
	<node lat="69.858722222257" lon="20.807569416831328" id="-47894">
		<tag k="alt_name" v="Skilelva" />
		<tag k="name" v="Skjellelva" />
		<tag k="ssr:stedsnr" v="80537" />
		<tag k="waterway" v="stream" />
	</node>
	<node lat="69.56848611430456" lon="21.622852749003215" id="-47895">
		<tag k="name" v="Čáhppeslágujávri" />
		<tag k="name:se" v="Čáhppeslágujávri" />
		<tag k="natural" v="water" />
		<tag k="ssr:stedsnr" v="80482" />
	</node>
	<node lat="69.23519999988069" lon="21.976433297352816" id="-47900">
		<tag k="loc_name:fkv" v="Hukanjärvi" />
		<tag k="name" v="Hoahkanjávri" />
		<tag k="name:se" v="Hoahkanjávri" />
		<tag k="natural" v="water" />
		<tag k="ssr:stedsnr" v="80570" />
	</node>
	<node lat="69.87017777837656" lon="21.104161087352143" id="-47905">
		<tag k="name" v="Gallelva" />
		<tag k="ssr:stedsnr" v="80820" />
		<tag k="waterway" v="stream" />
	</node>
	<node lat="69.87045277537696" lon="21.092272196489333" id="-47906">
		<tag k="alt_name" v="Vikavannet" />
		<tag k="name" v="Vikavatnet" />
		<tag k="natural" v="water" />
		<tag k="ssr:stedsnr" v="80823" />
	</node>
	<node lat="69.94041388709167" lon="21.26841663769903" id="-47916">
		<tag k="name" v="Molvikeidet" />
		<tag k="place" v="locality" />
		<tag k="ssr:stedsnr" v="80885" />
	</node>
	<node lat="69.79331389263409" lon="20.90640554720448" id="-47919">
		<tag k="alt_name" v="Mølnvatnan" />
		<tag k="name" v="Mølnevannan" />
		<tag k="natural" v="water" />
		<tag k="ssr:stedsnr" v="80967" />
		<tag k="water" v="lake" />
	</node>
	<node lat="69.73701666765913" lon="21.16451941304269" id="-47940">
		<tag k="name" v="Jarisaari" />
		<tag k="name:fkv" v="Jarisaari" />
		<tag k="place" v="islet" />
		<tag k="ssr:stedsnr" v="115559" />
	</node>
	<node lat="69.76996944235133" lon="20.718927752144864" id="-47942">
		<tag k="name" v="Villbærholmen" />
		<tag k="place" v="islet" />
		<tag k="ssr:stedsnr" v="115229" />
	</node>
	<node lat="69.67601944728628" lon="21.215772205747" id="-47951">
		<tag k="name" v="Tømmerelva" />
		<tag k="ssr:stedsnr" v="115699" />
		<tag k="waterway" v="stream" />
	</node>
	<node lat="69.67381110749129" lon="21.291019422630384" id="-47952">
		<tag k="name" v="Vinterloken" />
		<tag k="natural" v="water" />
		<tag k="ssr:stedsnr" v="115701" />
	</node>
	<node lat="69.92551666709717" lon="21.233533292981335" id="-47958">
		<tag k="name" v="Gottaselva" />
		<tag k="ssr:stedsnr" v="115920" />
		<tag k="waterway" v="stream" />
	</node>
	<node lat="69.5197583353251" lon="21.386294418146935" id="-47960">
		<tag k="name" v="Hubertbekken" />
		<tag k="ssr:stedsnr" v="115944" />
		<tag k="waterway" v="stream" />
	</node>
	<node lat="69.84124444700109" lon="21.07209719167442" id="-47961">
		<tag k="name" v="Knutsenelva" />
		<tag k="ssr:stedsnr" v="115949" />
		<tag k="waterway" v="stream" />
	</node>
	<node lat="69.88263889017043" lon="21.439174978171412" id="-47962">
		<tag k="name" v="Bukta" />
		<tag k="name:se" v="Bukta" />
		<tag k="natural" v="bay" />
		<tag k="ssr:stedsnr" v="115992" />
	</node>
	<node lat="69.8460694483641" lon="21.39695829933217" id="-47963">
		<tag k="name" v="Lille Gjøkelva" />
		<tag k="name:se" v="Lille Gjøkelva" />
		<tag k="ssr:stedsnr" v="115997" />
		<tag k="waterway" v="stream" />
	</node>
	<node lat="69.95288333634625" lon="21.254094430019702" id="-47965">
		<tag k="name" v="Bjørnhaugelva" />
		<tag k="ssr:stedsnr" v="115953" />
		<tag k="waterway" v="stream" />
	</node>
	<node lat="69.3680500049869" lon="21.651883301329335" id="-47968">
		<tag k="name" v="Sitnojohka" />
		<tag k="name:se" v="Sitnojohka" />
		<tag k="ssr:stedsnr" v="139808" />
		<tag k="waterway" v="stream" />
	</node>
	<node lat="69.37408611213019" lon="21.53938051583837" id="-47969">
		<tag k="name" v="Čuoččuhan-njárga" />
		<tag k="name:se" v="Čuoččuhan-njárga" />
		<tag k="natural" v="cape" />
		<tag k="ssr:stedsnr" v="139623" />
	</node>
	<node lat="69.3733611126134" lon="21.515897182543757" id="-47970">
		<tag k="name" v="Jovnnajohka" />
		<tag k="name:se" v="Jovnnajohka" />
		<tag k="ssr:stedsnr" v="139626" />
		<tag k="waterway" v="river" />
	</node>
	<node lat="69.29839999846179" lon="21.430186074443764" id="-47971">
		<tag k="name" v="Sieiddijohka" />
		<tag k="name:se" v="Sieiddijohka" />
		<tag k="ssr:stedsnr" v="139658" />
		<tag k="waterway" v="river" />
	</node>
	<node lat="69.20106389534388" lon="22.438866605222177" id="-47973">
		<tag k="name" v="Durenjárga" />
		<tag k="name:se" v="Durenjárga" />
		<tag k="natural" v="cape" />
		<tag k="old_name:se" v="Durenjarga" />
		<tag k="ssr:stedsnr" v="139671" />
	</node>
	<node lat="69.65370000221588" lon="21.07977219545295" id="-47985">
		<tag k="name" v="Annavatnet" />
		<tag k="natural" v="water" />
		<tag k="ssr:stedsnr" v="140325" />
	</node>
	<node lat="69.13146666798376" lon="22.081574946993914" id="-47994">
		<tag k="name" v="Nieidaskáidi" />
		<tag k="name:se" v="Nieidaskáidi" />
		<tag k="natural" v="cape" />
		<tag k="ssr:stedsnr" v="140496" />
	</node>
	<node lat="69.10255555919893" lon="21.976561059585762" id="-47995">
		<tag k="name" v="Juovvaskáidi" />
		<tag k="name:se" v="Juovvaskáidi" />
		<tag k="natural" v="cape" />
		<tag k="ssr:stedsnr" v="140498" />
	</node>
	<node lat="69.89373055950965" lon="20.87892775301305" id="-47999">
		<tag k="alt_name:no" v="Holmevatnet" />
		<tag k="name" v="Holmevannet - Hávajávri" />
		<tag k="name:no" v="Holmevannet" />
		<tag k="name:se" v="Hávajávri" />
		<tag k="natural" v="water" />
		<tag k="old_name:no" v="Holmevatn" />
		<tag k="ssr:stedsnr" v="140530" />
	</node>
	<node lat="69.63154166891759" lon="20.95364720066609" id="-48005">
		<tag k="name" v="Čillajohka" />
		<tag k="name:se" v="Čillajohka" />
		<tag k="ssr:stedsnr" v="140569" />
		<tag k="waterway" v="stream" />
	</node>
	<node lat="69.69932499774097" lon="20.701055532011612" id="-48006">
		<tag k="name" v="Goahtejohka" />
		<tag k="name:se" v="Goahtejohka" />
		<tag k="ssr:stedsnr" v="140611" />
		<tag k="waterway" v="stream" />
	</node>
	<node lat="69.37787777493521" lon="21.461955521788834" id="-48007">
		<tag k="name" v="Gaskkamus Jovnnajávri" />
		<tag k="name:se" v="Gaskkamus Jovnnajávri" />
		<tag k="natural" v="water" />
		<tag k="old_name:se" v="Jovnnajávri, gaskkamus" />
		<tag k="ssr:stedsnr" v="140619" />
	</node>
	<node lat="69.70397777905832" lon="21.15052774610045" id="-48008">
		<tag k="name" v="Øvrevatnet" />
		<tag k="natural" v="water" />
		<tag k="ssr:stedsnr" v="140701" />
		<tag k="water" v="lake" />
	</node>
	<node lat="69.43930555437657" lon="21.547219410807088" id="-48009">
		<tag k="name" v="Goikegorži" />
		<tag k="name:se" v="Goikegorži" />
		<tag k="ssr:stedsnr" v="140726" />
		<tag k="waterway" v="stream" />
	</node>
	<node lat="69.72266944718187" lon="21.143441630941112" id="-48010">
		<tag k="alt_name" v="Lånivatnet" />
		<tag k="name" v="Lånivannet" />
		<tag k="natural" v="water" />
		<tag k="ssr:stedsnr" v="140680" />
	</node>
	<node lat="69.81589722389482" lon="21.450616637923325" id="-48011">
		<tag k="fixme" v="multiple name tags, choose one and add the other to alt_name" />
		<tag k="name" v="Grasdalselva;Graselva - Rássevátjohka" />
		<tag k="name:no" v="Grasdalselva;Graselva" />
		<tag k="name:se" v="Rássevátjohka" />
		<tag k="ssr:stedsnr" v="140748" />
		<tag k="waterway" v="river" />
	</node>
	<node lat="69.34105000235684" lon="21.966588850973196" id="-48018">
		<tag k="name" v="Gironjohka" />
		<tag k="name:se" v="Gironjohka" />
		<tag k="ssr:stedsnr" v="140845" />
		<tag k="waterway" v="stream" />
	</node>
	<node lat="69.34464999797912" lon="21.896886062097078" id="-48020">
		<tag k="name" v="Mutasuanto" />
		<tag k="name:fkv" v="Mutasuanto" />
		<tag k="place" v="locality" />
		<tag k="ssr:stedsnr" v="140854" />
	</node>
	<node lat="69.81964444501914" lon="20.55496943019498" id="-48029">
		<tag k="name" v="Gállájohka" />
		<tag k="name:se" v="Gállájohka" />
		<tag k="ssr:stedsnr" v="140974" />
		<tag k="waterway" v="stream" />
	</node>
	<node lat="69.84163889348596" lon="20.526577761585813" id="-48031">
		<tag k="name" v="Trollbergelva" />
		<tag k="ssr:stedsnr" v="169337" />
		<tag k="waterway" v="stream" />
	</node>
	<node lat="69.58226388978638" lon="21.265577737488094" id="-48036">
		<tag k="name" v="Tørrvannet" />
		<tag k="natural" v="water" />
		<tag k="ssr:stedsnr" v="175246" />
	</node>
	<node lat="69.73069999661044" lon="21.224347200931074" id="-48041">
		<tag k="name" v="Lilleelva" />
		<tag k="ssr:stedsnr" v="175555" />
		<tag k="waterway" v="stream" />
	</node>
	<node lat="69.64314722533517" lon="21.32354441286402" id="-48044">
		<tag k="name" v="Fjellvannet" />
		<tag k="natural" v="water" />
		<tag k="ssr:stedsnr" v="175585" />
	</node>
	<node lat="69.7935777816053" lon="21.115516649245304" id="-48046">
		<tag k="name" v="Rungaelva" />
		<tag k="ssr:stedsnr" v="175607" />
		<tag k="waterway" v="stream" />
	</node>
	<node lat="69.70702222529556" lon="21.22086664248531" id="-48049">
		<tag k="name" v="Lastilla" />
		<tag k="natural" v="water" />
		<tag k="ssr:stedsnr" v="175688" />
		<tag k="water" v="lake" />
	</node>
	<node lat="69.86851944838791" lon="21.2117860846825" id="-48052">
		<tag k="name" v="Skjellarelva" />
		<tag k="ssr:stedsnr" v="175789" />
		<tag k="waterway" v="stream" />
	</node>
	<node lat="69.87988889273495" lon="20.88265554120712" id="-48053">
		<tag k="name" v="Korselvvannet" />
		<tag k="natural" v="water" />
		<tag k="ssr:stedsnr" v="175713" />
	</node>
	<node lat="69.76546944187365" lon="20.540927766949046" id="-48062">
		<tag k="name" v="Stangslettelva" />
		<tag k="ssr:stedsnr" v="175985" />
		<tag k="waterway" v="stream" />
	</node>
	<node lat="69.81944722187946" lon="20.836213861226106" id="-48065">
		<tag k="name" v="Nordelva" />
		<tag k="ssr:stedsnr" v="176193" />
		<tag k="waterway" v="stream" />
	</node>
	<node lat="69.87758055277155" lon="21.43951384905703" id="-48075">
		<tag k="name" v="Kaldelva" />
		<tag k="name:se" v="Kaldelva" />
		<tag k="ssr:stedsnr" v="176998" />
		<tag k="waterway" v="stream" />
	</node>
	<node lat="69.27470277668424" lon="22.104911049337904" id="-48087">
		<tag k="name" v="Skierbmájávri" />
		<tag k="name:se" v="Skierbmájávri" />
		<tag k="natural" v="water" />
		<tag k="ssr:stedsnr" v="200737" />
	</node>
	<node lat="69.29460278230974" lon="21.97049996007154" id="-48088">
		<tag k="loc_name:fkv" v="Spannijoki" />
		<tag k="name" v="Spanijohka" />
		<tag k="name:se" v="Spanijohka" />
		<tag k="ssr:stedsnr" v="200849" />
		<tag k="waterway" v="river" />
	</node>
	<node lat="69.36458333333248" lon="21.420713867259007" id="-48092">
		<tag k="name" v="Bajimus Jovnnajávri" />
		<tag k="name:se" v="Bajimus Jovnnajávri" />
		<tag k="natural" v="water" />
		<tag k="old_name:se" v="Jovnnajávri, bajimus" />
		<tag k="ssr:stedsnr" v="200641" />
	</node>
	<node lat="69.36098055363458" lon="21.534074967825447" id="-48093">
		<tag k="name" v="Luhčajohka" />
		<tag k="name:se" v="Luhčajohka" />
		<tag k="ssr:stedsnr" v="200642" />
		<tag k="waterway" v="river" />
	</node>
	<node lat="69.39700000290526" lon="22.17307772976101" id="-48100">
		<tag k="loc_name:fkv" v="Siuranjärvi" />
		<tag k="name" v="Sivravatnet - Gurešjávri" />
		<tag k="name:no" v="Sivravatnet" />
		<tag k="name:se" v="Gurešjávri" />
		<tag k="natural" v="water" />
		<tag k="ssr:stedsnr" v="200820" />
		<tag k="water" v="lake" />
	</node>
	<node lat="69.77980833147329" lon="21.125105514929007" id="-48104">
		<tag k="name" v="Báiskijávri" />
		<tag k="name:se" v="Báiskijávri" />
		<tag k="natural" v="water" />
		<tag k="ssr:stedsnr" v="201193" />
	</node>
	<node lat="69.66525555485644" lon="21.134897205532095" id="-48105">
		<tag k="name" v="Botkaeidet - Boatka" />
		<tag k="name:no" v="Botkaeidet" />
		<tag k="name:se" v="Boatka" />
		<tag k="place" v="locality" />
		<tag k="ssr:stedsnr" v="201306" />
	</node>
	<node lat="69.57056111568353" lon="21.187313865342347" id="-48109">
		<tag k="name" v="Fielbmávatnet - Fielbmájávri" />
		<tag k="name:no" v="Fielbmávatnet" />
		<tag k="name:se" v="Fielbmájávri" />
		<tag k="natural" v="water" />
		<tag k="ssr:stedsnr" v="201330" />
	</node>
	<node lat="69.58721389435581" lon="21.33454996841036" id="-48110">
		<tag k="name" v="Ingebrigtelva" />
		<tag k="ssr:stedsnr" v="201333" />
		<tag k="waterway" v="stream" />
	</node>
	<node lat="69.22655277925708" lon="21.75146939390739" id="-48112">
		<tag k="name" v="Hoallojávrrit" />
		<tag k="name:se" v="Hoallojávrrit" />
		<tag k="natural" v="water" />
		<tag k="ssr:stedsnr" v="201472" />
	</node>
	<node lat="69.17573055488461" lon="21.97317493994267" id="-48113">
		<tag k="name" v="Čiertejohka" />
		<tag k="name:se" v="Čiertejohka" />
		<tag k="ssr:stedsnr" v="201480" />
		<tag k="waterway" v="river" />
	</node>
	<node lat="69.85323333188188" lon="20.814983304365647" id="-48114">
		<tag k="alt_name" v="Eidvatnet" />
		<tag k="name" v="Eidevannet" />
		<tag k="natural" v="water" />
		<tag k="ssr:stedsnr" v="201485" />
	</node>
	<node lat="69.12073333543225" lon="21.96415549905528" id="-48116">
		<tag k="name" v="Jiehtanasskáidi" />
		<tag k="name:se" v="Jiehtanasskáidi" />
		<tag k="natural" v="cape" />
		<tag k="ssr:stedsnr" v="201490" />
	</node>
	<node lat="69.89941111266214" lon="21.339849971073427" id="-48124">
		<tag k="name" v="Langneset" />
		<tag k="natural" v="cape" />
		<tag k="ssr:stedsnr" v="201424" />
	</node>
	<node lat="69.88106388757723" lon="21.473044401795303" id="-48125">
		<tag k="name" v="Eidelva" />
		<tag k="ssr:stedsnr" v="201426" />
		<tag k="waterway" v="river" />
	</node>
	<node lat="69.73285277668577" lon="21.003224964623858" id="-48127">
		<tag k="name" v="Beassejohka" />
		<tag k="name:se" v="Beassejohka" />
		<tag k="ssr:stedsnr" v="201567" />
		<tag k="waterway" v="stream" />
	</node>
	<node lat="69.71722500448232" lon="20.9966055342801" id="-48128">
		<tag k="name" v="Beassejávrrit" />
		<tag k="name:se" v="Beassejávrrit" />
		<tag k="natural" v="water" />
		<tag k="ssr:stedsnr" v="201572" />
		<tag k="water" v="lake" />
	</node>
	<node lat="69.7118444431449" lon="21.60588050685403" id="-48134">
		<tag k="name" v="Láŋkajohka" />
		<tag k="name:se" v="Láŋkajohka" />
		<tag k="ssr:stedsnr" v="201688" />
		<tag k="waterway" v="stream" />
	</node>
	<node lat="69.95861111224353" lon="21.249405530781566" id="-48141">
		<tag k="alt_name" v="Molvikvannet" />
		<tag k="name" v="Molvikvatnet" />
		<tag k="natural" v="water" />
		<tag k="ssr:stedsnr" v="201876" />
	</node>
	<node lat="69.94632222711019" lon="21.05497774680381" id="-48142">
		<tag k="alt_name" v="Seglnesvannet" />
		<tag k="name" v="Seglnesvatnet" />
		<tag k="natural" v="water" />
		<tag k="ssr:stedsnr" v="201883" />
	</node>
	<node lat="69.3334308536516" lon="21.95446285395701" id="-48149">
		<tag k="loc_name:fkv" v="Naustiniemi" />
		<tag k="name" v="Naustneset" />
		<tag k="name:no" v="Naustneset" />
		<tag k="natural" v="cape" />
		<tag k="ssr:stedsnr" v="201826" />
	</node>
	<node lat="69.32327500313644" lon="21.824380525288817" id="-48151">
		<tag k="loc_name:fkv" v="Holkajoki" />
		<tag k="name" v="Holgajohka" />
		<tag k="name:se" v="Holgajohka" />
		<tag k="ssr:stedsnr" v="201830" />
		<tag k="waterway" v="stream" />
	</node>
	<node lat="69.33842500235708" lon="21.653999971728442" id="-48152">
		<tag k="loc_name:fkv" v="Kaakkurijärvi" />
		<tag k="name" v="Gáhkkorjávri" />
		<tag k="name:se" v="Gáhkkorjávri" />
		<tag k="natural" v="water" />
		<tag k="ssr:stedsnr" v="201834" />
		<tag k="water" v="lake" />
	</node>
	<node lat="69.79844999773621" lon="20.889958299294587" id="-48155">
		<tag k="alt_name" v="Arnevatnet" />
		<tag k="name" v="Arnevannet" />
		<tag k="natural" v="water" />
		<tag k="ssr:stedsnr" v="201960" />
	</node>
	<node lat="69.76942221895747" lon="20.57491664826349" id="-48159">
		<tag k="fixme" v="multiple name tags, choose one and add the other to alt_name" />
		<tag k="name" v="Kristianelva;Kristian-Arildelva" />
		<tag k="ssr:stedsnr" v="201932" />
		<tag k="waterway" v="stream" />
	</node>
	<node lat="69.87115832985937" lon="21.11123053934302" id="-48179">
		<tag k="name" v="Gardakkoelva" />
		<tag k="ssr:stedsnr" v="297860" />
		<tag k="waterway" v="stream" />
	</node>
	<node lat="69.84583055520667" lon="20.527549992101864" id="-48180">
		<tag k="name" v="Skjærelva" />
		<tag k="ssr:stedsnr" v="291366" />
		<tag k="waterway" v="stream" />
	</node>
	<node lat="69.56480833768696" lon="21.2699027616486" id="-48185">
		<tag k="name" v="Joselvbukta" />
		<tag k="natural" v="bay" />
		<tag k="ssr:stedsnr" v="296219" />
	</node>
	<node lat="69.89890555864814" lon="21.54498884955801" id="-48195">
		<tag k="name" v="Eidet" />
		<tag k="place" v="locality" />
		<tag k="ssr:stedsnr" v="296343" />
	</node>
	<node lat="69.80402499825993" lon="20.91318332249922" id="-48202">
		<tag k="name" v="Fjøselva" />
		<tag k="ssr:stedsnr" v="296693" />
		<tag k="waterway" v="stream" />
	</node>
	<node lat="69.89061389096285" lon="20.91623886977144" id="-48204">
		<tag k="name" v="Latsinjohka" />
		<tag k="name:se" v="Latsinjohka" />
		<tag k="ssr:stedsnr" v="296731" />
		<tag k="waterway" v="stream" />
	</node>
	<node lat="69.74000000211396" lon="21.16943329643365" id="-48217">
		<tag k="name" v="Røyelholmen" />
		<tag k="place" v="islet" />
		<tag k="ssr:stedsnr" v="297559" />
	</node>
	<node lat="69.88998888853591" lon="21.360572184918396" id="-48221">
		<tag k="name" v="Daganesbukta" />
		<tag k="natural" v="bay" />
		<tag k="ssr:stedsnr" v="297915" />
	</node>
	<node lat="69.89054721884325" lon="21.3410888617547" id="-48228">
		<tag k="name" v="Breivika" />
		<tag k="natural" v="bay" />
		<tag k="ssr:stedsnr" v="309921" />
	</node>
	<node lat="69.29911111132131" lon="22.025455494883264" id="-48234">
		<tag k="loc_name:fkv" v="Iimonjoki;Iimonoja" />
		<tag k="name" v="Imojohka" />
		<tag k="name:se" v="Imojohka" />
		<tag k="ssr:stedsnr" v="321853" />
		<tag k="waterway" v="stream" />
	</node>
	<node lat="69.3248333358267" lon="22.2929638445007" id="-48235">
		<tag k="name" v="Heandaratjávri" />
		<tag k="name:se" v="Heandaratjávri" />
		<tag k="natural" v="water" />
		<tag k="old_name:se" v="Hændaratjavri" />
		<tag k="ssr:stedsnr" v="321938" />
	</node>
	<node lat="69.72879722772737" lon="21.64740551462704" id="-48238">
		<tag k="name" v="Čearpmatjohka" />
		<tag k="name:se" v="Čearpmatjohka" />
		<tag k="ssr:stedsnr" v="322248" />
		<tag k="waterway" v="river" />
	</node>
	<node lat="69.31737499767638" lon="22.019374955829903" id="-48239">
		<tag k="loc_name:fkv" v="Aavajoki" />
		<tag k="name" v="Avvejohka" />
		<tag k="name:se" v="Avvejohka" />
		<tag k="ssr:stedsnr" v="322834" />
		<tag k="waterway" v="river" />
	</node>
	<node lat="69.34993333837156" lon="21.857674969772233" id="-48240">
		<tag k="name" v="Nikolaistilla" />
		<tag k="place" v="locality" />
		<tag k="ssr:stedsnr" v="322840" />
	</node>
	<node lat="69.29813333465256" lon="21.82004717758379" id="-48242">
		<tag k="name" v="Gánešjohka" />
		<tag k="name:se" v="Gánešjohka" />
		<tag k="ssr:stedsnr" v="322869" />
		<tag k="waterway" v="river" />
	</node>
	<node lat="69.58806944332547" lon="21.23844164760815" id="-48244">
		<tag k="name" v="Fielmaelva - Fielbmá" />
		<tag k="name:no" v="Fielmaelva" />
		<tag k="name:se" v="Fielbmá" />
		<tag k="ssr:stedsnr" v="322327" />
		<tag k="waterway" v="stream" />
	</node>
	<node lat="69.68460278013977" lon="21.50399717901429" id="-48246">
		<tag k="name" v="Gæiravatnet - Geairajávri" />
		<tag k="name:no" v="Gæiravatnet" />
		<tag k="name:se" v="Geairajávri" />
		<tag k="natural" v="water" />
		<tag k="ssr:stedsnr" v="322311" />
	</node>
	<node lat="69.55574999735822" lon="21.683233305144377" id="-48247">
		<tag k="name" v="Hoallojávri" />
		<tag k="name:se" v="Hoallojávri" />
		<tag k="natural" v="water" />
		<tag k="ssr:stedsnr" v="322474" />
		<tag k="water" v="lake" />
	</node>
	<node lat="69.52522500183812" lon="22.031502733029406" id="-48248">
		<tag k="name" v="Bajit Juovvavággejávri" />
		<tag k="name:se" v="Bajit Juovvavággejávri" />
		<tag k="natural" v="water" />
		<tag k="old_name:se" v="Juovvavággejávri, bajit" />
		<tag k="ssr:stedsnr" v="322386" />
	</node>
	<node lat="69.24132777846049" lon="21.939224960446836" id="-48251">
		<tag k="name" v="Moallajávri" />
		<tag k="name:se" v="Moallajávri" />
		<tag k="natural" v="water" />
		<tag k="ssr:stedsnr" v="322558" />
	</node>
	<node lat="69.67062500115662" lon="20.772724991542383" id="-48252">
		<tag k="name" v="Mohcuhatjohka" />
		<tag k="name:se" v="Mohcuhatjohka" />
		<tag k="ssr:stedsnr" v="322569" />
		<tag k="waterway" v="stream" />
	</node>
	<node lat="69.3913250020846" lon="21.445305531531943" id="-48255">
		<tag k="name" v="Bieggajávri" />
		<tag k="name:se" v="Bieggajávri" />
		<tag k="natural" v="water" />
		<tag k="ssr:stedsnr" v="322649" />
		<tag k="water" v="lake" />
	</node>
	<node lat="69.15974722335132" lon="22.33143884113565" id="-48258">
		<tag k="name" v="Njoarohašjávri" />
		<tag k="name:se" v="Njoarohašjávri" />
		<tag k="natural" v="water" />
		<tag k="old_name:se" v="Njoaruhašjavri" />
		<tag k="ssr:stedsnr" v="322699" />
		<tag k="water" v="lake" />
	</node>
	<node lat="69.17615833924536" lon="22.44356382889231" id="-48259">
		<tag k="name" v="Goikesáiva" />
		<tag k="name:se" v="Goikesáiva" />
		<tag k="natural" v="water" />
		<tag k="old_name:se" v="Gåikesaiva" />
		<tag k="ssr:stedsnr" v="322704" />
	</node>
	<node lat="69.71701666456224" lon="21.13279163984069" id="-48260">
		<tag k="name" v="Luonijoki" />
		<tag k="name:fkv" v="Luonijoki" />
		<tag k="ssr:stedsnr" v="322705" />
		<tag k="waterway" v="stream" />
	</node>
	<node lat="69.7393499969679" lon="20.967527762984783" id="-48262">
		<tag k="name" v="Sagelva - Sahájohka" />
		<tag k="name:no" v="Sagelva" />
		<tag k="name:se" v="Sahájohka" />
		<tag k="ssr:stedsnr" v="322606" />
		<tag k="waterway" v="stream" />
	</node>
	<node lat="69.7046333365849" lon="20.84917498352016" id="-48263">
		<tag k="name" v="Gievdnejávri" />
		<tag k="name:se" v="Gievdnejávri" />
		<tag k="natural" v="water" />
		<tag k="ssr:stedsnr" v="322612" />
	</node>
	<node lat="69.4635388929841" lon="21.515169408239615" id="-48264">
		<tag k="name" v="Saaralantto" />
		<tag k="name:fkv" v="Saaralantto" />
		<tag k="natural" v="water" />
		<tag k="ssr:stedsnr" v="322733" />
	</node>
	<node lat="69.81707777990606" lon="21.182649981065" id="-48265">
		<tag k="name" v="Bjørndalselva" />
		<tag k="ssr:stedsnr" v="322734" />
		<tag k="waterway" v="stream" />
	</node>
	<node lat="69.48031388678605" lon="21.510124968052445" id="-48273">
		<tag k="name" v="Genkæelva - Geagujohka" />
		<tag k="name:no" v="Genkæelva" />
		<tag k="name:se" v="Geagujohka" />
		<tag k="ssr:stedsnr" v="322722" />
		<tag k="waterway" v="stream" />
	</node>
	<node lat="69.40180833187308" lon="22.234216623109347" id="-48276">
		<tag k="name" v="Čuolločazajávri" />
		<tag k="name:se" v="Čuolločazajávri" />
		<tag k="natural" v="water" />
		<tag k="old_name:se" v="Čuollučazajavri" />
		<tag k="ssr:stedsnr" v="322794" />
		<tag k="water" v="lake" />
	</node>
	<node lat="69.42558611064104" lon="21.74797496554758" id="-48277">
		<tag k="name" v="Geinnodatjohka" />
		<tag k="name:se" v="Geinnodatjohka" />
		<tag k="ssr:stedsnr" v="322797" />
		<tag k="waterway" v="river" />
	</node>
	<node lat="69.88407222555756" lon="21.528697197754425" id="-48278">
		<tag k="name" v="Moalajohka" />
		<tag k="name:se" v="Moalajohka" />
		<tag k="ssr:stedsnr" v="322812" />
		<tag k="waterway" v="stream" />
	</node>
	<node lat="69.75737500494208" lon="20.592819426820405" id="-48282">
		<tag k="name" v="Kristianvatnan" />
		<tag k="natural" v="water" />
		<tag k="ssr:stedsnr" v="322921" />
		<tag k="water" v="lake" />
	</node>
	<node lat="69.76743055468269" lon="20.782102756774492" id="-48286">
		<tag k="name" v="Dalelva" />
		<tag k="ssr:stedsnr" v="322936" />
		<tag k="waterway" v="stream" />
	</node>
	<node lat="69.10594999868171" lon="21.95788329100271" id="-48293">
		<tag k="name" v="Mirkojohka" />
		<tag k="name:se" v="Mirkojohka" />
		<tag k="ssr:stedsnr" v="323538" />
		<tag k="waterway" v="stream" />
	</node>
	<node lat="69.83353055916668" lon="21.232719409405505" id="-48295">
		<tag k="alt_name:no" v="Forselva" />
		<tag k="name" v="Fosselva - Jiekŋajohka" />
		<tag k="name:no" v="Fosselva" />
		<tag k="name:se" v="Jiekŋajohka" />
		<tag k="old_name:se" v="Jiekŋajohkna" />
		<tag k="ssr:stedsnr" v="323460" />
		<tag k="waterway" v="river" />
	</node>
	<node lat="69.85026388785751" lon="21.149330529531827" id="-48314">
		<tag k="name" v="Tomaselva" />
		<tag k="ssr:stedsnr" v="357290" />
		<tag k="waterway" v="stream" />
	</node>
	<node lat="69.97284444214476" lon="21.250158293118396" id="-48316">
		<tag k="name" v="Tverrelva" />
		<tag k="ssr:stedsnr" v="357394" />
		<tag k="waterway" v="stream" />
	</node>
	<node lat="69.79847778052836" lon="21.1121971891815" id="-48317">
		<tag k="name" v="Skáidi" />
		<tag k="name:se" v="Skáidi" />
		<tag k="natural" v="cape" />
		<tag k="ssr:stedsnr" v="357487" />
	</node>
	<node lat="69.64695833731571" lon="21.319352758585328" id="-48319">
		<tag k="name" v="Fjellvassbekken" />
		<tag k="ssr:stedsnr" v="357568" />
		<tag k="waterway" v="stream" />
	</node>
	<node lat="69.76336944160933" lon="20.990441633588897" id="-48322">
		<tag k="name" v="Førstevannet" />
		<tag k="natural" v="water" />
		<tag k="ssr:stedsnr" v="357672" />
	</node>
	<node lat="69.68281111123133" lon="21.10366108449309" id="-48325">
		<tag k="name" v="Lorten" />
		<tag k="natural" v="bay" />
		<tag k="ssr:stedsnr" v="357639" />
	</node>
	<node lat="69.77255555659141" lon="21.070905524708344" id="-48329">
		<tag k="name" v="Bierganjärvi" />
		<tag k="name:fkv" v="Bierganjärvi" />
		<tag k="natural" v="water" />
		<tag k="ssr:stedsnr" v="357924" />
	</node>
	<node lat="69.62691666318271" lon="21.2530583121446" id="-48336">
		<tag k="name" v="Nesvannet" />
		<tag k="natural" v="water" />
		<tag k="ssr:stedsnr" v="358542" />
	</node>
	<node lat="69.8154333340448" lon="21.19608609548911" id="-48340">
		<tag k="name" v="Fattivarvannan" />
		<tag k="natural" v="water" />
		<tag k="ssr:stedsnr" v="358832" />
		<tag k="water" v="lake" />
	</node>
	<node lat="69.59805555514627" lon="20.987374984887154" id="-48348">
		<tag k="name" v="Favreselva - Fávrresjohka" />
		<tag k="name:no" v="Favreselva" />
		<tag k="name:se" v="Fávrresjohka" />
		<tag k="ssr:stedsnr" v="382636" />
		<tag k="waterway" v="stream" />
	</node>
	<node lat="69.46526944839351" lon="22.206561057558638" id="-48349">
		<tag k="name" v="Vilbealášfielbmá" />
		<tag k="name:se" v="Vilbealášfielbmá" />
		<tag k="ssr:stedsnr" v="382638" />
		<tag k="waterway" v="stream" />
	</node>
	<node lat="69.32047777621668" lon="21.34221108301388" id="-48352">
		<tag k="name" v="Bajit Meahccejávri" />
		<tag k="name:se" v="Bajit Meahccejávri" />
		<tag k="natural" v="water" />
		<tag k="old_name:se" v="Meahccejávri, bajit" />
		<tag k="ssr:stedsnr" v="382651" />
		<tag k="water" v="lake" />
	</node>
	<node lat="69.26254444841446" lon="21.80373328377869" id="-48354">
		<tag k="loc_name:fkv" v="Ahmajoki" />
		<tag k="name" v="Geatkejohka" />
		<tag k="name:se" v="Geatkejohka" />
		<tag k="ssr:stedsnr" v="382731" />
		<tag k="waterway" v="river" />
	</node>
</osm>
