<?xml version="1.0" encoding="UTF-8"?>
<<<<<<< HEAD
<osm version="0.6" generator="osmapis">
	<node lat="69.52644166488642" lon="21.397788860316023" id="-39704">
		<tag k="name" v="Reisas allmenning" />
		<tag k="place" v="locality" />
		<tag k="ssr:stedsnr" v="296236" />
	</node>
	<node lat="69.20072222614003" lon="21.978199944920913" id="-39938">
=======
<osm generator="osmapis" version="0.6">
	<node id="-892768" lat="69.2007222261" lon="21.9781999449">
>>>>>>> e1d4bc35ff8a6074a6f2e91616a996b547c36f15
		<tag k="fixme" v="consider boundary=protected_area and relevant protect_class if not nature reserve" />
		<tag k="leisure" v="nature_reserve" />
		<tag k="name" v="Reisa nasjonalpark - Ráissa álbmotlaš meahcci" />
		<tag k="name:no" v="Reisa nasjonalpark" />
		<tag k="name:se" v="Ráissa álbmotlaš meahcci" />
		<tag k="ssr:stedsnr" v="389835" />
	</node>
<<<<<<< HEAD
	<node lat="69.51161270404181" lon="21.460535144396893" id="-40764">
		<tag k="name" v="Nordreisa  allmenning" />
		<tag k="old_name" v="Reisensalmenning" />
		<tag k="place" v="locality" />
		<tag k="ssr:stedsnr" v="1078158" />
=======
	<node id="-891098" lat="69.5264416649" lon="21.3977888603">
		<tag k="name" v="Reisas allmenning" />
		<tag k="place" v="locality" />
		<tag k="ssr:stedsnr" v="296236" />
>>>>>>> e1d4bc35ff8a6074a6f2e91616a996b547c36f15
	</node>
</osm>
