<?xml version="1.0" encoding="UTF-8"?>
<osm version="0.6" generator="osmapis">
	<node lat="69.85663106490094" lon="20.77331477756727" id="-46586">
		<tag k="alt_name" v="Ravelseidet, yt;Ravelseidet" />
		<tag k="fixme" v="consider place=hamlet" />
		<tag k="name" v="Ytre Ravelseidet" />
		<tag k="place" v="farm" />
		<tag k="ssr:stedsnr" v="19509" />
	</node>
	<node lat="69.73449738074056" lon="21.184208589391602" id="-46592">
		<tag k="fixme" v="consider place=hamlet" />
		<tag k="name" v="Røyelelv" />
		<tag k="place" v="farm" />
		<tag k="ssr:stedsnr" v="19692" />
	</node>
	<node lat="69.87406572072946" lon="21.411103442781773" id="-46594">
		<tag k="name" v="Arnesland" />
		<tag k="place" v="farm" />
		<tag k="ssr:stedsnr" v="19804" />
	</node>
	<node lat="69.7064638855197" lon="21.23954442008781" id="-46596">
		<tag k="name" v="Rismo" />
		<tag k="place" v="farm" />
		<tag k="ssr:stedsnr" v="19702" />
	</node>
	<node lat="69.78956110773058" lon="20.65130553074476" id="-46599">
		<tag k="name" v="Sletta" />
		<tag k="place" v="farm" />
		<tag k="ssr:stedsnr" v="19940" />
	</node>
	<node lat="69.78708889273173" lon="20.944819434828684" id="-46600">
		<tag k="name" v="Øvregård" />
		<tag k="place" v="farm" />
		<tag k="ssr:stedsnr" v="19943" />
	</node>
	<node lat="69.83071389301563" lon="20.523397194712413" id="-46602">
		<tag k="name" v="Bakkemo" />
		<tag k="place" v="farm" />
		<tag k="ssr:stedsnr" v="19996" />
	</node>
	<node lat="69.78134799729979" lon="20.610020531532445" id="-46607">
		<tag k="fixme" v="consider place=hamlet" />
		<tag k="name" v="Nordre Rotsund" />
		<tag k="place" v="farm" />
		<tag k="ssr:stedsnr" v="235891" />
	</node>
	<node lat="69.78639167027856" lon="20.704394426618528" id="-46615">
		<tag k="amenity" v="school" />
		<tag k="name" v="Rotsundelv skole" />
		<tag k="ssr:stedsnr" v="236250" />
	</node>
	<node lat="69.91714999998281" lon="21.292244425233434" id="-46627">
		<tag k="name" v="Arildseng" />
		<tag k="place" v="hamlet" />
		<tag k="ssr:stedsnr" v="37776" />
	</node>
	<node lat="69.69076666537488" lon="21.24625551614008" id="-46634">
		<tag k="name" v="Kjelderen" />
		<tag k="place" v="farm" />
		<tag k="ssr:stedsnr" v="236697" />
	</node>
	<node lat="69.81367777514878" lon="20.76160553735596" id="-46643">
		<tag k="name" v="Myrsletta" />
		<tag k="place" v="isolated_dwelling" />
		<tag k="ssr:stedsnr" v="45671" />
	</node>
	<node lat="69.59637777428588" lon="21.236633310001217" id="-46650">
		<tag k="name" v="Holmbo nedre" />
		<tag k="place" v="farm" />
		<tag k="ssr:stedsnr" v="54581" />
	</node>
	<node lat="69.74069999950208" lon="21.05819720425182" id="-46668">
		<tag k="name" v="Åsheim" />
		<tag k="place" v="farm" />
		<tag k="ssr:stedsnr" v="79702" />
	</node>
	<node lat="69.74129999935417" lon="21.020986087328833" id="-46669">
		<tag k="name" v="Bakkemo" />
		<tag k="place" v="farm" />
		<tag k="ssr:stedsnr" v="79703" />
	</node>
	<node lat="69.94327222479713" lon="21.00185553792473" id="-46689">
		<tag k="name" v="Hammarvoll" />
		<tag k="place" v="farm" />
		<tag k="ssr:stedsnr" v="80600" />
	</node>
	<node lat="69.83871111073707" lon="21.142483311157754" id="-46690">
		<tag k="name" v="Molund" />
		<tag k="place" v="farm" />
		<tag k="ssr:stedsnr" v="80789" />
	</node>
	<node lat="69.83032777870937" lon="21.038141638152226" id="-46691">
		<tag k="name" v="Nyheim" />
		<tag k="place" v="farm" />
		<tag k="ssr:stedsnr" v="80792" />
	</node>
	<node lat="69.85376111152678" lon="21.176452762427903" id="-46692">
		<tag k="name" v="Lian" />
		<tag k="place" v="farm" />
		<tag k="ssr:stedsnr" v="80795" />
	</node>
	<node lat="69.89892455614884" lon="21.392544949892205" id="-46696">
		<tag k="name" v="Pavelsnes" />
		<tag k="place" v="farm" />
		<tag k="ssr:stedsnr" v="80842" />
	</node>
	<node lat="69.80955833548622" lon="20.670683325549472" id="-46697">
		<tag k="name" v="Skognes" />
		<tag k="place" v="locality" />
		<tag k="ssr:stedsnr" v="85124" />
	</node>
	<node lat="69.79375278063995" lon="21.11047776114079" id="-46716">
		<tag k="name" v="Løkli" />
		<tag k="place" v="farm" />
		<tag k="ssr:stedsnr" v="140189" />
	</node>
	<node lat="69.78059166282158" lon="21.04051942808733" id="-46718">
		<tag k="name" v="Rovdas" />
		<tag k="place" v="quarter" />
		<tag k="ssr:stedsnr" v="140196" />
	</node>
	<node lat="69.70180833207988" lon="21.23155830463195" id="-46722">
		<tag k="name" v="Solvang" />
		<tag k="place" v="farm" />
		<tag k="ssr:stedsnr" v="140692" />
	</node>
	<node lat="69.86951285022701" lon="21.216855774408447" id="-46724">
		<tag k="name" v="Solås" />
		<tag k="place" v="farm" />
		<tag k="ssr:stedsnr" v="140806" />
	</node>
	<node lat="69.74924444158779" lon="21.055983308801405" id="-46729">
		<tag k="name" v="Nygård" />
		<tag k="place" v="farm" />
		<tag k="ssr:stedsnr" v="140742" />
	</node>
	<node lat="69.85719116725505" lon="21.18221031739048" id="-46730">
		<tag k="name" v="Sommarset" />
		<tag k="place" v="farm" />
		<tag k="ssr:stedsnr" v="140796" />
	</node>
	<node lat="69.7715722217587" lon="20.728936083953" id="-46732">
		<tag k="name" v="Lund" />
		<tag k="place" v="farm" />
		<tag k="ssr:stedsnr" v="140939" />
	</node>
	<node lat="69.85278055688937" lon="21.0603527663314" id="-46735">
		<tag k="name" v="Grinde" />
		<tag k="place" v="isolated_dwelling" />
		<tag k="ssr:stedsnr" v="166705" />
	</node>
	<node lat="69.85644166701898" lon="21.051647204686397" id="-46737">
		<tag k="name" v="Trette" />
		<tag k="place" v="farm" />
		<tag k="ssr:stedsnr" v="166710" />
	</node>
	<node lat="69.86352222446936" lon="20.883733311153126" id="-46738">
		<tag k="name" v="Ytre Bakkeby" />
		<tag k="place" v="hamlet" />
		<tag k="ssr:stedsnr" v="167704" />
	</node>
	<node lat="69.57672778151688" lon="21.250511087021764" id="-46743">
		<tag k="name" v="Fossmo" />
		<tag k="place" v="farm" />
		<tag k="ssr:stedsnr" v="261269" />
	</node>
	<node lat="69.29400833726781" lon="21.506913857319965" id="-46772">
		<tag k="name" v="Somashytta" />
		<tag k="place" v="isolated_dwelling" />
		<tag k="ssr:stedsnr" v="261648" />
	</node>
	<node lat="69.7711694414723" lon="20.989972196030564" id="-46786">
		<tag k="name" v="Blomstereng" />
		<tag k="place" v="farm" />
		<tag k="ssr:stedsnr" v="261876" />
	</node>
	<node lat="69.32084182945606" lon="21.969134801861127" id="-46788">
		<tag k="fixme" v="consider tourism=alpine_hut or tourism=chalet" />
		<tag k="name" v="Nedrefosshytta" />
		<tag k="ssr:stedsnr" v="261818" />
		<tag k="tourism" v="wilderness_hut" />
	</node>
	<node lat="69.79368649916343" lon="21.096992990777157" id="-46796">
		<tag k="fixme" v="consider place=hamlet" />
		<tag k="name" v="Myra" />
		<tag k="place" v="farm" />
		<tag k="ssr:stedsnr" v="262200" />
	</node>
	<node lat="69.67563333219866" lon="21.278430530072146" id="-46798">
		<tag k="name" v="Nyvoll" />
		<tag k="place" v="farm" />
		<tag k="ssr:stedsnr" v="262314" />
	</node>
	<node lat="69.89711594238953" lon="20.841705276122397" id="-46806">
		<tag k="alt_name" v="Moldfarvika" />
		<tag k="fixme" v="consider place=hamlet" />
		<tag k="name" v="Moldforvika" />
		<tag k="place" v="farm" />
		<tag k="ssr:stedsnr" v="262560" />
	</node>
	<node lat="69.86696325001076" lon="21.41170443782741" id="-46818">
		<tag k="name" v="Nedregård" />
		<tag k="place" v="farm" />
		<tag k="ssr:stedsnr" v="262833" />
	</node>
	<node lat="69.86269997101337" lon="21.05009700493637" id="-46819">
		<tag k="name" v="Myrstad" />
		<tag k="place" v="farm" />
		<tag k="ssr:stedsnr" v="262836" />
	</node>
	<node lat="69.87958610989755" lon="21.441474959503818" id="-46821">
		<tag k="name" v="Elveland" />
		<tag k="place" v="farm" />
		<tag k="ssr:stedsnr" v="262852" />
	</node>
	<node lat="69.8729999961613" lon="21.44519164002203" id="-46822">
		<tag k="name" v="Rosenlund" />
		<tag k="place" v="farm" />
		<tag k="ssr:stedsnr" v="262853" />
	</node>
	<node lat="69.89076944076567" lon="21.191833314329823" id="-46824">
		<tag k="alt_name" v="Gamlevær" />
		<tag k="name" v="Gammelvær" />
		<tag k="place" v="locality" />
		<tag k="ssr:stedsnr" v="262867" />
	</node>
	<node lat="69.91546389139583" lon="21.317241640039835" id="-46825">
		<tag k="name" v="Elvelund" />
		<tag k="place" v="farm" />
		<tag k="ssr:stedsnr" v="262884" />
	</node>
	<node lat="69.92001301785808" lon="21.24754107954173" id="-46826">
		<tag k="alt_name" v="Bakkevoll" />
		<tag k="name" v="Bakkevollen" />
		<tag k="place" v="farm" />
		<tag k="ssr:stedsnr" v="262888" />
	</node>
	<node lat="69.77194722411483" lon="20.555419438933225" id="-46828">
		<tag k="name" v="Leiknes" />
		<tag k="place" v="farm" />
		<tag k="ssr:stedsnr" v="262943" />
	</node>
	<node lat="69.78678811921127" lon="20.715313255005103" id="-46830">
		<tag k="fixme" v="consider place=hamlet" />
		<tag k="name" v="Rotsunddalen" />
		<tag k="place" v="farm" />
		<tag k="ssr:stedsnr" v="262959" />
	</node>
	<node lat="69.77657500052902" lon="20.7247444275272" id="-46831">
		<tag k="name" v="Lundemo" />
		<tag k="place" v="farm" />
		<tag k="ssr:stedsnr" v="262936" />
	</node>
	<node lat="69.78375833467553" lon="20.62102775012548" id="-46832">
		<tag k="name" v="Nybo" />
		<tag k="place" v="farm" />
		<tag k="ssr:stedsnr" v="262938" />
	</node>
	<node lat="69.81943514106739" lon="20.77403217109254" id="-46835">
		<tag k="alt_name" v="Langslett" />
		<tag k="name" v="Langsletta" />
		<tag k="place" v="farm" />
		<tag k="ssr:stedsnr" v="262986" />
	</node>
	<node lat="69.75444974188028" lon="21.032517245146227" id="-46845">
		<tag k="alt_name" v="Forsnes" />
		<tag k="name" v="Fossnes" />
		<tag k="place" v="farm" />
		<tag k="ssr:stedsnr" v="201199" />
	</node>
	<node lat="69.87770278219776" lon="21.13029997057186" id="-46852">
		<tag k="name" v="Steinsvik" />
		<tag k="place" v="farm" />
		<tag k="ssr:stedsnr" v="201801" />
	</node>
	<node lat="69.77327222345174" lon="21.009186090561116" id="-46853">
		<tag k="name" v="Sandøra" />
		<tag k="place" v="farm" />
		<tag k="ssr:stedsnr" v="201905" />
	</node>
	<node lat="69.76964905225671" lon="21.010561329013296" id="-46854">
		<tag k="fixme" v="consider place=hamlet" />
		<tag k="name" v="Navaren" />
		<tag k="place" v="farm" />
		<tag k="ssr:stedsnr" v="201908" />
	</node>
	<node lat="69.78589722320774" lon="20.95049163440734" id="-46855">
		<tag k="name" v="Sørkjosen - Reaššegeahči - Rässikäinen" />
		<tag k="name:fkv" v="Rässikäinen" />
		<tag k="name:no" v="Sørkjosen" />
		<tag k="name:se" v="Reaššegeahči" />
		<tag k="place" v="village" />
		<tag k="ssr:stedsnr" v="201953" />
	</node>
	<node lat="69.93474444884586" lon="21.18735830225176" id="-46858">
		<tag k="name" v="Nyheim" />
		<tag k="place" v="farm" />
		<tag k="ssr:stedsnr" v="201848" />
	</node>
	<node lat="69.78385432909901" lon="20.950178522698113" id="-46860">
		<tag k="name" v="Bjørkely" />
		<tag k="place" v="farm" />
		<tag k="ssr:stedsnr" v="227612" />
	</node>
	<node lat="69.59623889275736" lon="21.306483310242108" id="-46888">
		<tag k="name" v="Lyngstad" />
		<tag k="place" v="isolated_dwelling" />
		<tag k="ssr:stedsnr" v="262351" />
	</node>
	<node lat="69.78500028629158" lon="20.704999889305796" id="-46895">
		<tag k="fixme" v="consider place=hamlet" />
		<tag k="name" v="Rotsundelva" />
		<tag k="place" v="farm" />
		<tag k="ssr:stedsnr" v="262950" />
	</node>
	<node lat="69.84247500289938" lon="20.794105533340545" id="-46897">
		<tag k="name" v="Eldstad" />
		<tag k="place" v="farm" />
		<tag k="ssr:stedsnr" v="262992" />
	</node>
	<node lat="69.77020833130523" lon="20.72231941768844" id="-46915">
		<tag k="name" v="Rotsunddalen" />
		<tag k="place" v="farm" />
		<tag k="ssr:stedsnr" v="297226" />
	</node>
	<node lat="69.65355000091022" lon="21.306283293380243" id="-46928">
		<tag k="name" v="Mellomjorda" />
		<tag k="place" v="farm" />
		<tag k="ssr:stedsnr" v="322286" />
	</node>
	<node lat="69.76864854808395" lon="21.043525901156936" id="-46932">
		<tag k="fixme" v="consider place=hamlet" />
		<tag k="name" v="Lunde" />
		<tag k="place" v="farm" />
		<tag k="ssr:stedsnr" v="322192" />
	</node>
	<node lat="69.85060555578497" lon="20.848652760391168" id="-46936">
		<tag k="fixme" v="consider place=hamlet" />
		<tag k="name" v="Bakkeby - Sinjárga - Sokkuvuono" />
		<tag k="name:fkv" v="Sokkuvuono" />
		<tag k="name:no" v="Bakkeby" />
		<tag k="name:se" v="Sinjárga" />
		<tag k="place" v="village" />
		<tag k="ssr:stedsnr" v="322526" />
	</node>
	<node lat="69.87440277562278" lon="21.205924978062114" id="-46939">
		<tag k="name" v="Bliksgård" />
		<tag k="place" v="farm" />
		<tag k="ssr:stedsnr" v="322804" />
	</node>
	<node lat="69.82033611017955" lon="20.887238875070754" id="-46947">
		<tag k="alt_name" v="Sokkelvika, in" />
		<tag k="name" v="Indre Sokkelvika" />
		<tag k="place" v="farm" />
		<tag k="ssr:stedsnr" v="322976" />
	</node>
	<node lat="69.78302499945903" lon="20.71923331079812" id="-46949">
		<tag k="name" v="Vonheim" />
		<tag k="place" v="farm" />
		<tag k="ssr:stedsnr" v="323923" />
	</node>
	<node lat="69.9216055598696" lon="20.985358321402263" id="-46954">
		<tag k="name" v="Mattisnes" />
		<tag k="place" v="locality" />
		<tag k="ssr:stedsnr" v="349811" />
	</node>
	<node lat="69.82442222154914" lon="21.04673607573241" id="-46960">
		<tag k="name" v="Sommersetet" />
		<tag k="place" v="locality" />
		<tag k="ssr:stedsnr" v="357304" />
	</node>
	<node lat="69.73254444363019" lon="21.0373499614744" id="-46967">
		<tag k="fixme" v="consider place=hamlet" />
		<tag k="name" v="Kvernelv" />
		<tag k="place" v="farm" />
		<tag k="ssr:stedsnr" v="357417" />
	</node>
	<node lat="69.78536944631801" lon="20.694113860327413" id="-46982">
		<tag k="name" v="Sommarsetet" />
		<tag k="place" v="locality" />
		<tag k="ssr:stedsnr" v="478235" />
	</node>
	<node lat="69.75456944324988" lon="21.02493609220666" id="-46986">
		<tag k="name" v="Saga" />
		<tag k="place" v="farm" />
		<tag k="ssr:stedsnr" v="478408" />
	</node>
	<node lat="69.76270149073093" lon="20.46702106046437" id="-46999">
		<tag k="name" v="Nordre Spåkenes" />
		<tag k="place" v="farm" />
		<tag k="ssr:stedsnr" v="478998" />
	</node>
	<node lat="69.77387499798927" lon="21.02959720583704" id="-47007">
		<tag k="name" v="Hansabakken" />
		<tag k="place" v="farm" />
		<tag k="ssr:stedsnr" v="479675" />
	</node>
	<node lat="69.79294999807394" lon="21.079838852005143" id="-47033">
		<tag k="name" v="Myrheim" />
		<tag k="place" v="farm" />
		<tag k="ssr:stedsnr" v="383214" />
	</node>
	<node lat="69.8454305576265" lon="20.518691638172665" id="-47034">
		<tag k="name" v="Skjeret" />
		<tag k="place" v="farm" />
		<tag k="ssr:stedsnr" v="383547" />
	</node>
	<node lat="69.78686389350266" lon="20.636041647756297" id="-47039">
		<tag k="name" v="Haug" />
		<tag k="place" v="farm" />
		<tag k="ssr:stedsnr" v="383952" />
	</node>
	<node lat="69.78741666567548" lon="20.639644433532258" id="-47040">
		<tag k="name" v="Sørli" />
		<tag k="place" v="farm" />
		<tag k="ssr:stedsnr" v="383953" />
	</node>
	<node lat="69.77829444091024" lon="20.594488871033004" id="-47041">
		<tag k="name" v="Lasletta" />
		<tag k="place" v="farm" />
		<tag k="ssr:stedsnr" v="383956" />
	</node>
	<node lat="69.94013333301898" lon="21.056763855749114" id="-47044">
		<tag k="name" v="Geokkas" />
		<tag k="place" v="locality" />
		<tag k="ssr:stedsnr" v="409803" />
	</node>
	<node lat="69.92673054789778" lon="21.216210863275183" id="-47045">
		<tag k="alt_name" v="Arneng, yt" />
		<tag k="fixme" v="multiple name tags, choose one and add the other to alt_name" />
		<tag k="name" v="Arneng;Ytre Arneng" />
		<tag k="place" v="farm" />
		<tag k="ssr:stedsnr" v="487871" />
	</node>
	<node lat="69.75890277627171" lon="21.02242774737744" id="-47062">
		<tag k="name" v="Sagvollen" />
		<tag k="place" v="farm" />
		<tag k="ssr:stedsnr" v="419691" />
	</node>
	<node lat="69.76023850664653" lon="21.03260267888761" id="-47063">
		<tag k="alt_name" v="Tomasjord" />
		<tag k="fixme" v="consider place=hamlet" />
		<tag k="name" v="Tomasjorda" />
		<tag k="place" v="farm" />
		<tag k="ssr:stedsnr" v="419692" />
	</node>
	<node lat="69.74371944924778" lon="21.151230536448583" id="-47075">
		<tag k="name" v="Bakketun" />
		<tag k="place" v="farm" />
		<tag k="ssr:stedsnr" v="443700" />
	</node>
	<node lat="69.68322778096251" lon="21.219663852276554" id="-47079">
		<tag k="name" v="Voll" />
		<tag k="place" v="isolated_dwelling" />
		<tag k="ssr:stedsnr" v="444304" />
	</node>
	<node lat="69.66822222392636" lon="21.264769409746524" id="-47086">
		<tag k="name" v="Slettset" />
		<tag k="place" v="farm" />
		<tag k="ssr:stedsnr" v="444293" />
	</node>
	<node lat="69.71315000547067" lon="21.230799966911448" id="-47094">
		<tag k="name" v="Kjellmo" />
		<tag k="place" v="farm" />
		<tag k="ssr:stedsnr" v="444704" />
	</node>
	<node lat="69.73468610711707" lon="21.210511091656496" id="-47096">
		<tag k="name" v="Enga" />
		<tag k="place" v="farm" />
		<tag k="ssr:stedsnr" v="444681" />
	</node>
	<node lat="69.7328722250871" lon="21.183836082049023" id="-47097">
		<tag k="name" v="Solborg" />
		<tag k="old_name" v="Solberg" />
		<tag k="place" v="farm" />
		<tag k="ssr:stedsnr" v="444683" />
	</node>
	<node lat="69.73642568068111" lon="21.178072755196116" id="-47098">
		<tag k="name" v="Røyland" />
		<tag k="place" v="farm" />
		<tag k="ssr:stedsnr" v="444689" />
	</node>
	<node lat="69.86810833105864" lon="21.217533301860758" id="-47099">
		<tag k="alt_name" v="Bjerkli" />
		<tag k="name" v="Bjørkli" />
		<tag k="place" v="farm" />
		<tag k="ssr:stedsnr" v="444807" />
	</node>
	<node lat="69.77340336927261" lon="21.01292731229563" id="-47100">
		<tag k="fixme" v="consider place=hamlet" />
		<tag k="name" v="Båtnes" />
		<tag k="place" v="farm" />
		<tag k="ssr:stedsnr" v="444925" />
	</node>
	<node lat="69.77758888704199" lon="20.589605534126935" id="-47104">
		<tag k="fixme" v="consider place=hamlet" />
		<tag k="name" v="Rotsund - Guohcanuorri - Nuora" />
		<tag k="name:fkv" v="Nuora" />
		<tag k="name:no" v="Rotsund" />
		<tag k="name:se" v="Guohcanuorri" />
		<tag k="place" v="village" />
		<tag k="ssr:stedsnr" v="451879" />
	</node>
	<node lat="69.78462499876173" lon="20.95908330650367" id="-47107">
		<tag k="name" v="Metambe" />
		<tag k="place" v="farm" />
		<tag k="ssr:stedsnr" v="470623" />
	</node>
	<node lat="69.84229722432784" lon="21.061908310937884" id="-47108">
		<tag k="name" v="Haugen" />
		<tag k="place" v="isolated_dwelling" />
		<tag k="ssr:stedsnr" v="470703" />
	</node>
	<node lat="69.83074444330241" lon="21.048233313960868" id="-47109">
		<tag k="name" v="Indre Storvik" />
		<tag k="place" v="hamlet" />
		<tag k="ssr:stedsnr" v="470706" />
	</node>
	<node lat="69.90745277422896" lon="21.33651386165934" id="-47128">
		<tag k="name" v="Vintersetet" />
		<tag k="place" v="locality" />
		<tag k="ssr:stedsnr" v="479906" />
	</node>
	<node lat="69.74250340526196" lon="21.15640156630286" id="-47131">
		<tag k="alt_name" v="Hysingjord" />
		<tag k="fixme" v="consider place=hamlet" />
		<tag k="name" v="Hysingjorda" />
		<tag k="place" v="farm" />
		<tag k="ssr:stedsnr" v="503681" />
	</node>
	<node lat="69.52185555800118" lon="21.41071385602136" id="-47133">
		<tag k="name" v="Svartfoss" />
		<tag k="place" v="farm" />
		<tag k="ssr:stedsnr" v="504217" />
	</node>
	<node lat="69.7928289525011" lon="21.120204382296414" id="-47135">
		<tag k="alt_name" v="Oldervoll" />
		<tag k="name" v="Oldervollen" />
		<tag k="place" v="farm" />
		<tag k="ssr:stedsnr" v="504179" />
	</node>
	<node lat="69.73659881103669" lon="21.12815718867758" id="-47142">
		<tag k="alt_name" v="Annabakkelva;Annebakkelv" />
		<tag k="fixme" v="consider place=hamlet" />
		<tag k="name" v="Annabakkelv" />
		<tag k="place" v="farm" />
		<tag k="ssr:stedsnr" v="504704" />
	</node>
	<node lat="69.49323333196949" lon="21.459966627611845" id="-47143">
		<tag k="name" v="Puntastilla" />
		<tag k="place" v="isolated_dwelling" />
		<tag k="ssr:stedsnr" v="504705" />
	</node>
	<node lat="69.82494167030372" lon="20.784599983505352" id="-47154">
		<tag k="name" v="Myrland" />
		<tag k="place" v="farm" />
		<tag k="ssr:stedsnr" v="504977" />
	</node>
	<node lat="69.6061731117694" lon="21.29632867643177" id="-47155">
		<tag k="fixme" v="consider place=hamlet" />
		<tag k="name" v="Holmbo" />
		<tag k="place" v="farm" />
		<tag k="ssr:stedsnr" v="505366" />
	</node>
	<node lat="69.89191944630453" lon="20.80126941836227" id="-47160">
		<tag k="name" v="Russelv" />
		<tag k="place" v="locality" />
		<tag k="ssr:stedsnr" v="510155" />
	</node>
	<node lat="69.79096131919006" lon="21.046402706528767" id="-47163">
		<tag k="alt_name" v="Flatvoll" />
		<tag k="fixme" v="consider place=hamlet" />
		<tag k="name" v="Flatvollen" />
		<tag k="place" v="farm" />
		<tag k="ssr:stedsnr" v="512005" />
	</node>
	<node lat="69.91517591585645" lon="21.319313703133325" id="-47170">
		<tag k="alt_name" v="Akkarjord" />
		<tag k="fixme" v="consider place=hamlet" />
		<tag k="name" v="Akkarjorda" />
		<tag k="place" v="farm" />
		<tag k="ssr:stedsnr" v="531017" />
	</node>
	<node lat="69.79845833091258" lon="21.09553885918483" id="-47172">
		<tag k="name" v="Skogbakken" />
		<tag k="place" v="locality" />
		<tag k="ssr:stedsnr" v="686185" />
	</node>
	<node lat="69.5306138902447" lon="21.372013865729322" id="-47173">
		<tag k="alt_name" v="Tromsanes" />
		<tag k="name" v="Tronsanes" />
		<tag k="place" v="farm" />
		<tag k="ssr:stedsnr" v="686248" />
	</node>
	<node lat="69.6866500009202" lon="21.2414971896794" id="-47176">
		<tag k="name" v="Potkaelv" />
		<tag k="place" v="farm" />
		<tag k="ssr:stedsnr" v="686314" />
	</node>
	<node lat="69.89880833187432" lon="21.28962775799995" id="-47178">
		<tag k="name" v="Hamnes" />
		<tag k="place" v="farm" />
		<tag k="ssr:stedsnr" v="531972" />
	</node>
	<node lat="69.8583694424894" lon="20.856477764788266" id="-47182">
		<tag k="name" v="Nyeng" />
		<tag k="place" v="farm" />
		<tag k="ssr:stedsnr" v="686533" />
	</node>
	<node lat="69.85665833802435" lon="20.851608311782172" id="-47183">
		<tag k="name" v="Nedregård" />
		<tag k="place" v="farm" />
		<tag k="ssr:stedsnr" v="686535" />
	</node>
	<node lat="69.73170833535673" lon="21.03962496777165" id="-47193">
		<tag k="name" v="Haugland" />
		<tag k="place" v="farm" />
		<tag k="ssr:stedsnr" v="686701" />
	</node>
	<node lat="69.75835555799131" lon="21.033349973655596" id="-47228">
		<tag k="name" v="Nylund" />
		<tag k="place" v="farm" />
		<tag k="ssr:stedsnr" v="687215" />
	</node>
	<node lat="69.67302777696733" lon="21.258816627328553" id="-47233">
		<tag k="name" v="Kjosvoll" />
		<tag k="place" v="farm" />
		<tag k="ssr:stedsnr" v="687335" />
	</node>
	<node lat="69.6196138914626" lon="21.304919406890914" id="-47234">
		<tag k="fixme" v="consider place=hamlet" />
		<tag k="name" v="Vinnelys - Varppi" />
		<tag k="name:fkv" v="Varppi" />
		<tag k="name:no" v="Vinnelys" />
		<tag k="place" v="farm" />
		<tag k="ssr:stedsnr" v="687370" />
	</node>
	<node lat="69.77406388767886" lon="21.041538862952546" id="-47235">
		<tag k="name" v="Mælen" />
		<tag k="place" v="farm" />
		<tag k="ssr:stedsnr" v="687440" />
	</node>
	<node lat="69.86743889148092" lon="20.89324164636043" id="-47237">
		<tag k="name" v="Bakkesti" />
		<tag k="place" v="farm" />
		<tag k="ssr:stedsnr" v="687491" />
	</node>
	<node lat="69.87550555910195" lon="21.434488865170938" id="-47252">
		<tag k="name" v="Holmen" />
		<tag k="place" v="farm" />
		<tag k="ssr:stedsnr" v="687818" />
	</node>
	<node lat="69.91220877442096" lon="21.328043109971585" id="-47255">
		<tag k="fixme" v="consider place=hamlet" />
		<tag k="name" v="Sandelva" />
		<tag k="place" v="farm" />
		<tag k="ssr:stedsnr" v="687862" />
	</node>
	<node lat="69.91774287602061" lon="21.29426263836912" id="-47256">
		<tag k="fixme" v="consider place=hamlet" />
		<tag k="name" v="Arildseng" />
		<tag k="place" v="farm" />
		<tag k="ssr:stedsnr" v="687865" />
	</node>
	<node lat="69.91893889356858" lon="21.256363859819324" id="-47257">
		<tag k="name" v="Hamneng" />
		<tag k="place" v="farm" />
		<tag k="ssr:stedsnr" v="687870" />
	</node>
	<node lat="69.92508991371984" lon="21.22180944785199" id="-47258">
		<tag k="name" v="Leirbakken" />
		<tag k="place" v="farm" />
		<tag k="ssr:stedsnr" v="687875" />
	</node>
	<node lat="69.93110437833317" lon="21.198140432796958" id="-47259">
		<tag k="alt_name" v="Storeng" />
		<tag k="name" v="Storenga" />
		<tag k="place" v="farm" />
		<tag k="ssr:stedsnr" v="687877" />
	</node>
	<node lat="69.7743282424743" lon="20.57710469664436" id="-47260">
		<tag k="alt_name" v="Rotsund, s" />
		<tag k="fixme" v="consider place=hamlet" />
		<tag k="name" v="Søndre Rotsund" />
		<tag k="place" v="farm" />
		<tag k="ssr:stedsnr" v="687928" />
	</node>
	<node lat="69.76915277927718" lon="20.7242805425768" id="-47261">
		<tag k="name" v="Dalheim" />
		<tag k="place" v="farm" />
		<tag k="ssr:stedsnr" v="687931" />
	</node>
	<node lat="69.7787277757609" lon="20.598099980722388" id="-47262">
		<tag k="name" v="Bakketun" />
		<tag k="place" v="farm" />
		<tag k="ssr:stedsnr" v="687947" />
	</node>
	<node lat="69.802925004293" lon="20.732555524739308" id="-47263">
		<tag k="name" v="Bakkevoll" />
		<tag k="place" v="farm" />
		<tag k="ssr:stedsnr" v="687958" />
	</node>
	<node lat="69.80931389151019" lon="20.75054164885979" id="-47264">
		<tag k="name" v="Myrenga" />
		<tag k="place" v="farm" />
		<tag k="ssr:stedsnr" v="687959" />
	</node>
	<node lat="69.8074611162395" lon="20.535730532103756" id="-47266">
		<tag k="name" v="Urdvoll" />
		<tag k="place" v="farm" />
		<tag k="ssr:stedsnr" v="687965" />
	</node>
	<node lat="69.72327499709576" lon="21.050938868122458" id="-47271">
		<tag k="name" v="Heggenes" />
		<tag k="place" v="farm" />
		<tag k="ssr:stedsnr" v="564676" />
	</node>
	<node lat="69.73680000215698" lon="21.195549976732774" id="-47272">
		<tag k="name" v="Hauge" />
		<tag k="place" v="farm" />
		<tag k="ssr:stedsnr" v="564678" />
	</node>
	<node lat="69.73429999625716" lon="21.206627754613425" id="-47273">
		<tag k="name" v="Rundhaug" />
		<tag k="place" v="farm" />
		<tag k="ssr:stedsnr" v="564679" />
	</node>
	<node lat="69.79129113986721" lon="21.0499843952017" id="-47279">
		<tag k="alt_name" v="Flatvoll" />
		<tag k="name" v="Flatvollen" />
		<tag k="place" v="farm" />
		<tag k="ssr:stedsnr" v="565178" />
	</node>
	<node lat="69.66434444785796" lon="21.30507496380071" id="-47280">
		<tag k="name" v="Solheim" />
		<tag k="place" v="farm" />
		<tag k="ssr:stedsnr" v="565306" />
	</node>
	<node lat="69.85655000220964" lon="21.22931107623174" id="-47290">
		<tag k="alt_name" v="Hammervoll" />
		<tag k="name" v="Hamarvoll" />
		<tag k="place" v="farm" />
		<tag k="ssr:stedsnr" v="565803" />
	</node>
	<node lat="69.85497705751939" lon="21.05700237748819" id="-47292">
		<tag k="alt_name:no" v="Storvik, yt" />
		<tag k="fixme" v="consider place=hamlet" />
		<tag k="loc_name:fkv" v="Isolahti" />
		<tag k="loc_name:se" v="Látteluokta" />
		<tag k="name" v="Ytre Storvik" />
		<tag k="name:no" v="Ytre Storvik" />
		<tag k="place" v="farm" />
		<tag k="ssr:stedsnr" v="565815" />
	</node>
	<node lat="69.87864444701626" lon="21.44137775771525" id="-47293">
		<tag k="name" v="Seljeland" />
		<tag k="place" v="farm" />
		<tag k="ssr:stedsnr" v="565819" />
	</node>
	<node lat="69.82898611587297" lon="20.78520249733405" id="-47294">
		<tag k="alt_name" v="Ravelseidet, in;Ravelseidet indre" />
		<tag k="fixme" v="consider place=hamlet" />
		<tag k="name" v="Indre Ravelseidet" />
		<tag k="place" v="farm" />
		<tag k="ssr:stedsnr" v="565997" />
	</node>
	<node lat="69.7907916680812" lon="20.55386386194235" id="-47296">
		<tag k="name" v="Danskebyvollen" />
		<tag k="place" v="isolated_dwelling" />
		<tag k="ssr:stedsnr" v="693847" />
	</node>
	<node lat="69.80230833891692" lon="21.12241663817854" id="-47297">
		<tag k="name" v="Bakken" />
		<tag k="place" v="farm" />
		<tag k="ssr:stedsnr" v="695232" />
	</node>
	<node lat="69.87309722514973" lon="21.043461090620223" id="-47307">
		<tag k="name" v="Stornes" />
		<tag k="place" v="farm" />
		<tag k="ssr:stedsnr" v="599719" />
	</node>
	<node lat="69.7940027770557" lon="20.602258307429768" id="-47311">
		<tag k="name" v="John-Kristianplassen" />
		<tag k="place" v="locality" />
		<tag k="ssr:stedsnr" v="599869" />
	</node>
	<node lat="69.76867778035417" lon="21.007644429979564" id="-47315">
		<tag k="name" v="Navaren" />
		<tag k="place" v="quarter" />
		<tag k="ssr:stedsnr" v="600606" />
	</node>
	<node lat="69.8519527831251" lon="20.80778886473961" id="-47326">
		<tag k="leisure" v="pitch" />
		<tag k="name" v="Rissbakken" />
		<tag k="ssr:stedsnr" v="625507" />
	</node>
	<node lat="69.72446111230947" lon="21.050266629127677" id="-47333">
		<tag k="name" v="Sakshaug" />
		<tag k="place" v="farm" />
		<tag k="ssr:stedsnr" v="625704" />
	</node>
	<node lat="69.73090555594868" lon="21.195536089518995" id="-47335">
		<tag k="alt_name" v="Elvejord" />
		<tag k="name" v="Elvejorda" />
		<tag k="place" v="farm" />
		<tag k="ssr:stedsnr" v="625709" />
	</node>
	<node lat="69.63016944813013" lon="21.29418053001194" id="-47339">
		<tag k="name" v="Bergmo" />
		<tag k="place" v="farm" />
		<tag k="ssr:stedsnr" v="626402" />
	</node>
	<node lat="69.8583916643216" lon="21.23051662646923" id="-47342">
		<tag k="name" v="Berg" />
		<tag k="place" v="farm" />
		<tag k="ssr:stedsnr" v="626806" />
	</node>
	<node lat="69.86198148242705" lon="21.409358631377124" id="-47343">
		<tag k="name" v="Øvregård" />
		<tag k="old_name" v="Øvergard" />
		<tag k="place" v="farm" />
		<tag k="ssr:stedsnr" v="626814" />
	</node>
	<node lat="69.7824861086681" lon="20.61431110162249" id="-47346">
		<tag k="name" v="Nordregård" />
		<tag k="place" v="farm" />
		<tag k="ssr:stedsnr" v="626959" />
	</node>
	<node lat="69.77630833510426" lon="20.588352752031213" id="-47347">
		<tag k="name" v="Bakkejorda" />
		<tag k="place" v="farm" />
		<tag k="ssr:stedsnr" v="626960" />
	</node>
	<node lat="69.904855553974" lon="21.324005520649177" id="-47348">
		<tag k="alt_name" v="Elveslett" />
		<tag k="fixme" v="consider place=hamlet" />
		<tag k="name" v="Elvesletta" />
		<tag k="place" v="farm" />
		<tag k="ssr:stedsnr" v="652011" />
	</node>
	<node lat="69.90879444506206" lon="21.327899968000104" id="-47349">
		<tag k="name" v="Sandbu" />
		<tag k="place" v="isolated_dwelling" />
		<tag k="ssr:stedsnr" v="652015" />
	</node>
	<node lat="69.7758277789768" lon="21.039708309113706" id="-47362">
		<tag k="name" v="Dørme" />
		<tag k="place" v="farm" />
		<tag k="ssr:stedsnr" v="661606" />
	</node>
	<node lat="69.70761876602919" lon="21.246124470783972" id="-47365">
		<tag k="alt_name" v="Moskodal" />
		<tag k="fixme" v="consider place=hamlet" />
		<tag k="name" v="Moskodalen" />
		<tag k="place" v="farm" />
		<tag k="ssr:stedsnr" v="661697" />
	</node>
	<node lat="69.87696944646797" lon="21.095347189741005" id="-47370">
		<tag k="alt_name" v="Vika" />
		<tag k="name" v="Fallvika" />
		<tag k="place" v="farm" />
		<tag k="ssr:stedsnr" v="673827" />
	</node>
	<node lat="69.83890555464365" lon="20.924919422051172" id="-47385">
		<tag k="name" v="Nyheim" />
		<tag k="place" v="farm" />
		<tag k="ssr:stedsnr" v="686987" />
	</node>
	<node lat="69.83959444162508" lon="20.789402751002125" id="-47386">
		<tag k="alt_name" v="Sandnes" />
		<tag k="name" v="Sandenes" />
		<tag k="place" v="farm" />
		<tag k="ssr:stedsnr" v="686991" />
	</node>
	<node lat="69.84573333429796" lon="20.794236083229123" id="-47387">
		<tag k="name" v="Eidebukta" />
		<tag k="place" v="farm" />
		<tag k="ssr:stedsnr" v="686993" />
	</node>
	<node lat="69.76823055892694" lon="21.024488861299233" id="-47390">
		<tag k="name" v="Storslett - Hánssagieddi - Hansinkenttä" />
		<tag k="name:fkv" v="Hansinkenttä" />
		<tag k="name:no" v="Storslett" />
		<tag k="name:se" v="Hánssagieddi" />
		<tag k="place" v="village" />
		<tag k="ssr:stedsnr" v="687207" />
	</node>
	<node lat="69.7517730917321" lon="20.728903300115807" id="-47393">
		<tag k="fixme" v="consider place=hamlet" />
		<tag k="name" v="Helgeli" />
		<tag k="place" v="farm" />
		<tag k="ssr:stedsnr" v="687619" />
	</node>
	<node lat="69.88693604734542" lon="21.43760387849503" id="-47396">
		<tag k="name" v="Nyvoll" />
		<tag k="place" v="farm" />
		<tag k="ssr:stedsnr" v="687836" />
	</node>
	<node lat="69.84409444350763" lon="21.064161084857137" id="-47398">
		<tag k="fixme" v="consider place=hamlet" />
		<tag k="name" v="Storvik - Látteluokta - Isolahti" />
		<tag k="name:fkv" v="Isolahti" />
		<tag k="name:no" v="Storvik" />
		<tag k="name:se" v="Látteluokta" />
		<tag k="place" v="village" />
		<tag k="ssr:stedsnr" v="694010" />
	</node>
	<node lat="69.86101353599717" lon="20.86617227698319" id="-47400">
		<tag k="alt_name" v="Bakkeby Indre" />
		<tag k="fixme" v="consider place=hamlet" />
		<tag k="name" v="Indre Bakkeby" />
		<tag k="place" v="farm" />
		<tag k="ssr:stedsnr" v="895650" />
	</node>
	<node lat="69.76630555337316" lon="21.035286072888706" id="-47416">
		<tag k="amenity" v="nursing_home" />
		<tag k="name" v="Sonjatun" />
		<tag k="ssr:stedsnr" v="722672" />
	</node>
	<node lat="69.89732777747223" lon="21.200319415070524" id="-47428">
		<tag k="alt_name" v="Straumfjord n" />
		<tag k="fixme" v="consider place=hamlet" />
		<tag k="name" v="Nordre Straumfjord" />
		<tag k="place" v="farm" />
		<tag k="ssr:stedsnr" v="903285" />
	</node>
	<node lat="69.67618888773126" lon="21.273586082133104" id="-47452">
		<tag k="name" v="Skjønsfjell" />
		<tag k="place" v="farm" />
		<tag k="ssr:stedsnr" v="747418" />
	</node>
	<node lat="69.65599444801427" lon="21.29590553947278" id="-47453">
		<tag k="name" v="Fossland" />
		<tag k="place" v="farm" />
		<tag k="ssr:stedsnr" v="747305" />
	</node>
	<node lat="69.84788611541775" lon="20.856327753959597" id="-47456">
		<tag k="name" v="Nylund" />
		<tag k="place" v="farm" />
		<tag k="ssr:stedsnr" v="747507" />
	</node>
	<node lat="69.84842860526368" lon="20.869227647059056" id="-47458">
		<tag k="alt_name" v="Lattern;Latteren" />
		<tag k="name" v="Rydningen" />
		<tag k="place" v="farm" />
		<tag k="ssr:stedsnr" v="747515" />
	</node>
	<node lat="69.87214821588923" lon="21.192711622151723" id="-47460">
		<tag k="name" v="Storvoll" />
		<tag k="place" v="isolated_dwelling" />
		<tag k="ssr:stedsnr" v="747811" />
	</node>
	<node lat="69.72049444699923" lon="21.23446107189948" id="-47461">
		<tag k="name" v="Nymoen" />
		<tag k="place" v="farm" />
		<tag k="ssr:stedsnr" v="747706" />
	</node>
	<node lat="69.76286944574255" lon="20.485744437392494" id="-47466">
		<tag k="name" v="Vollen" />
		<tag k="place" v="farm" />
		<tag k="ssr:stedsnr" v="747908" />
	</node>
	<node lat="69.72106431514167" lon="21.223991541432696" id="-47482">
		<tag k="fixme" v="consider place=hamlet" />
		<tag k="name" v="Baskabut" />
		<tag k="place" v="farm" />
		<tag k="ssr:stedsnr" v="904760" />
	</node>
	<node lat="69.83327778120139" lon="21.05642498760873" id="-47488">
		<tag k="name" v="Skogly" />
		<tag k="place" v="farm" />
		<tag k="ssr:stedsnr" v="904971" />
	</node>
	<node lat="69.79943324396102" lon="21.123676610777725" id="-47494">
		<tag k="fixme" v="consider place=hamlet" />
		<tag k="name" v="Tretten" />
		<tag k="place" v="farm" />
		<tag k="ssr:stedsnr" v="756856" />
	</node>
	<node lat="69.85205555261952" lon="20.84058886986396" id="-47495">
		<tag k="fixme" v="consider place=hamlet" />
		<tag k="name" v="Ravelseidbotn" />
		<tag k="place" v="farm" />
		<tag k="ssr:stedsnr" v="774703" />
	</node>
	<node lat="69.75020555583976" lon="21.049988854268634" id="-47513">
		<tag k="name" v="Tømmernes" />
		<tag k="place" v="farm" />
		<tag k="ssr:stedsnr" v="916694" />
	</node>
	<node lat="69.67278610818238" lon="21.28174718444908" id="-47516">
		<tag k="name" v="Kvam" />
		<tag k="place" v="farm" />
		<tag k="ssr:stedsnr" v="808311" />
	</node>
	<node lat="69.85668888988727" lon="20.845224988231973" id="-47518">
		<tag k="name" v="Midtgård" />
		<tag k="place" v="farm" />
		<tag k="ssr:stedsnr" v="808509" />
	</node>
	<node lat="69.73776111072443" lon="21.123038860254567" id="-47522">
		<tag k="name" v="Strandheim" />
		<tag k="place" v="farm" />
		<tag k="ssr:stedsnr" v="808690" />
	</node>
	<node lat="69.6991027764175" lon="21.231236092271253" id="-47524">
		<tag k="name" v="Myrvoll" />
		<tag k="place" v="farm" />
		<tag k="ssr:stedsnr" v="808694" />
	</node>
	<node lat="69.91916860654248" lon="21.26149358347062" id="-47525">
		<tag k="fixme" v="consider place=hamlet" />
		<tag k="name" v="Hamn" />
		<tag k="place" v="farm" />
		<tag k="ssr:stedsnr" v="808850" />
	</node>
	<node lat="69.85625472505313" lon="21.232064069228855" id="-47526">
		<tag k="name" v="Rognlund" />
		<tag k="place" v="farm" />
		<tag k="ssr:stedsnr" v="808787" />
	</node>
	<node lat="69.85880000249483" lon="21.227474970797896" id="-47527">
		<tag k="name" v="Myrvang" />
		<tag k="place" v="farm" />
		<tag k="ssr:stedsnr" v="808789" />
	</node>
	<node lat="69.21325046055853" lon="22.46372679514749" id="-47528">
		<tag k="fixme" v="consider tourism=alpine_hut or tourism=chalet" />
		<tag k="loc_name" v="Reisavannhytta" />
		<tag k="name" v="Ráisjávrihytta" />
		<tag k="ssr:stedsnr" v="813606" />
		<tag k="tourism" v="wilderness_hut" />
	</node>
	<node lat="69.50297221886353" lon="21.459716633157548" id="-47560">
		<tag k="alt_name" v="Bjørkli" />
		<tag k="name" v="Bjørkly" />
		<tag k="place" v="farm" />
		<tag k="ssr:stedsnr" v="929230" />
	</node>
	<node lat="69.51441388761415" lon="21.40983051172824" id="-47561">
		<tag k="name" v="Vangen" />
		<tag k="place" v="farm" />
		<tag k="ssr:stedsnr" v="929231" />
	</node>
	<node lat="69.52565555573646" lon="21.376436076209487" id="-47562">
		<tag k="name" v="Heggemo" />
		<tag k="place" v="farm" />
		<tag k="ssr:stedsnr" v="929235" />
	</node>
	<node lat="69.55968332977558" lon="21.294058307655057" id="-47563">
		<tag k="name" v="Lund" />
		<tag k="place" v="farm" />
		<tag k="ssr:stedsnr" v="929242" />
	</node>
	<node lat="69.5683777759187" lon="21.30216107059663" id="-47565">
		<tag k="name" v="Elvestrand" />
		<tag k="place" v="farm" />
		<tag k="ssr:stedsnr" v="929250" />
	</node>
	<node lat="69.79988333484857" lon="21.117749982914056" id="-47568">
		<tag k="name" v="Kringen" />
		<tag k="place" v="farm" />
		<tag k="ssr:stedsnr" v="929178" />
	</node>
	<node lat="69.7743347734712" lon="21.050386711302984" id="-47569">
		<tag k="name" v="Holtet" />
		<tag k="place" v="farm" />
		<tag k="ssr:stedsnr" v="929196" />
	</node>
	<node lat="69.8436083336017" lon="21.221383306486235" id="-47571">
		<tag k="name" v="Forsmo" />
		<tag k="place" v="farm" />
		<tag k="ssr:stedsnr" v="929772" />
	</node>
	<node lat="69.72815277541451" lon="21.20958609458661" id="-47589">
		<tag k="name" v="Teigstad" />
		<tag k="place" v="farm" />
		<tag k="ssr:stedsnr" v="929672" />
	</node>
	<node lat="69.72193055443037" lon="21.22262220516555" id="-47590">
		<tag k="name" v="Heimdal" />
		<tag k="place" v="farm" />
		<tag k="ssr:stedsnr" v="929673" />
	</node>
	<node lat="69.74853549208514" lon="21.104601074582973" id="-47596">
		<tag k="fixme" v="consider place=hamlet" />
		<tag k="name" v="Andsjøen" />
		<tag k="place" v="farm" />
		<tag k="ssr:stedsnr" v="929739" />
	</node>
	<node lat="69.71040833740437" lon="21.24963607329835" id="-47598">
		<tag k="name" v="Myrland" />
		<tag k="place" v="farm" />
		<tag k="ssr:stedsnr" v="929690" />
	</node>
	<node lat="69.7047694465528" lon="21.24467773803395" id="-47599">
		<tag k="name" v="Holmen" />
		<tag k="place" v="farm" />
		<tag k="ssr:stedsnr" v="929691" />
	</node>
	<node lat="69.88891117552208" lon="21.358622772569362" id="-47602">
		<tag k="name" v="Nyheim" />
		<tag k="place" v="farm" />
		<tag k="ssr:stedsnr" v="929821" />
	</node>
	<node lat="69.76184722140803" lon="20.538219421939665" id="-47605">
		<tag k="name" v="Kolbotn" />
		<tag k="place" v="farm" />
		<tag k="ssr:stedsnr" v="929916" />
	</node>
	<node lat="69.82287499920426" lon="20.53159720915143" id="-47611">
		<tag k="name" v="Storsletta" />
		<tag k="place" v="farm" />
		<tag k="ssr:stedsnr" v="929980" />
	</node>
	<node lat="69.81701666694632" lon="20.771202766209264" id="-47612">
		<tag k="name" v="Fagerheim" />
		<tag k="place" v="farm" />
		<tag k="ssr:stedsnr" v="929981" />
	</node>
	<node lat="69.76269999742806" lon="20.735102750029714" id="-47614">
		<tag k="name" v="Fyn" />
		<tag k="place" v="farm" />
		<tag k="ssr:stedsnr" v="929922" />
	</node>
	<node lat="69.78725000198855" lon="20.70398052371035" id="-47615">
		<tag k="name" v="Framnes" />
		<tag k="place" v="farm" />
		<tag k="ssr:stedsnr" v="929944" />
	</node>
	<node lat="69.84561111054073" lon="20.85370553740435" id="-47624">
		<tag k="name" v="Bekkevoll" />
		<tag k="place" v="farm" />
		<tag k="ssr:stedsnr" v="868980" />
	</node>
	<node lat="69.8620111108608" lon="21.226366647850792" id="-47630">
		<tag k="name" v="Skoglund" />
		<tag k="place" v="farm" />
		<tag k="ssr:stedsnr" v="869817" />
	</node>
	<node lat="69.91405277610076" lon="21.32293886687072" id="-47634">
		<tag k="name" v="Nygård" />
		<tag k="place" v="farm" />
		<tag k="ssr:stedsnr" v="869872" />
	</node>
	<node lat="69.72909722195361" lon="21.206824982877066" id="-47637">
		<tag k="name" v="Østgård" />
		<tag k="old_name" v="Austgård" />
		<tag k="place" v="farm" />
		<tag k="ssr:stedsnr" v="869717" />
	</node>
	<node lat="69.82918888753905" lon="21.128516631964164" id="-47640">
		<tag k="name" v="Vildenvang" />
		<tag k="place" v="farm" />
		<tag k="ssr:stedsnr" v="869785" />
	</node>
	<node lat="69.79547222661185" lon="20.7170944265622" id="-47643">
		<tag k="name" v="Fagerli" />
		<tag k="place" v="farm" />
		<tag k="ssr:stedsnr" v="869969" />
	</node>
	<node lat="69.82163889007371" lon="20.532008316443388" id="-47645">
		<tag k="name" v="Seljevoll" />
		<tag k="place" v="farm" />
		<tag k="ssr:stedsnr" v="869974" />
	</node>
	<node lat="69.75055000022115" lon="21.04918053774997" id="-47647">
		<tag k="name" v="Tangen" />
		<tag k="place" v="farm" />
		<tag k="ssr:stedsnr" v="930228" />
	</node>
	<node lat="69.90049362067678" lon="21.38873037862862" id="-47653">
		<tag k="name" v="Skogstad" />
		<tag k="place" v="farm" />
		<tag k="ssr:stedsnr" v="930848" />
	</node>
	<node lat="69.90167722325637" lon="21.356244669179734" id="-47654">
		<tag k="name" v="Barstad" />
		<tag k="place" v="farm" />
		<tag k="ssr:stedsnr" v="930854" />
	</node>
	<node lat="69.86898889010621" lon="21.216294422608225" id="-47656">
		<tag k="amenity" v="school" />
		<tag k="fixme" v="multiple name tags, choose one and add the other to alt_name" />
		<tag k="name" v="Straumfjordheimen;Straumfjord skole" />
		<tag k="ssr:stedsnr" v="930826" />
	</node>
	<node lat="69.78046666783983" lon="20.60578608230211" id="-47657">
		<tag k="name" v="Rotsund" />
		<tag k="place" v="farm" />
		<tag k="ssr:stedsnr" v="930949" />
	</node>
	<node lat="69.7771472258891" lon="20.73112498460886" id="-47658">
		<tag k="name" v="Dalheim" />
		<tag k="place" v="farm" />
		<tag k="ssr:stedsnr" v="930920" />
	</node>
	<node lat="69.78246666729899" lon="20.95316107470726" id="-47659">
		<tag k="name" v="Alfheim" />
		<tag k="place" v="farm" />
		<tag k="ssr:stedsnr" v="930929" />
	</node>
	<node lat="69.48500555686206" lon="21.477722193021272" id="-47661">
		<tag k="name" v="Bilto" />
		<tag k="place" v="hamlet" />
		<tag k="ssr:stedsnr" v="876357" />
	</node>
	<node lat="69.80779166519193" lon="20.65599164752079" id="-47662">
		<tag k="name" v="Leirnes" />
		<tag k="place" v="locality" />
		<tag k="ssr:stedsnr" v="935153" />
	</node>
	<node lat="69.7522527774758" lon="21.04414441242254" id="-47672">
		<tag k="name" v="Tangen" />
		<tag k="place" v="farm" />
		<tag k="ssr:stedsnr" v="903403" />
	</node>
	<node lat="69.7938138884153" lon="20.560469417020833" id="-47679">
		<tag k="name" v="Bakkestua" />
		<tag k="place" v="isolated_dwelling" />
		<tag k="ssr:stedsnr" v="903860" />
	</node>
	<node lat="69.55832222004945" lon="21.30289163461159" id="-47682">
		<tag k="name" v="Elvestad" />
		<tag k="place" v="farm" />
		<tag k="ssr:stedsnr" v="904501" />
	</node>
	<node lat="69.7398861082317" lon="21.150444413820992" id="-47691">
		<tag k="name" v="Seljelund" />
		<tag k="place" v="farm" />
		<tag k="ssr:stedsnr" v="928711" />
	</node>
	<node lat="69.73916666471185" lon="21.200691634098863" id="-47693">
		<tag k="alt_name" v="Seterli" />
		<tag k="name" v="Sæterli" />
		<tag k="place" v="isolated_dwelling" />
		<tag k="ssr:stedsnr" v="928701" />
	</node>
	<node lat="69.86369312812907" lon="20.883083097688484" id="-47694">
		<tag k="name" v="Bukta" />
		<tag k="place" v="farm" />
		<tag k="ssr:stedsnr" v="929513" />
	</node>
	<node lat="69.71846933182364" lon="21.063130036061196" id="-47697">
		<tag k="fixme" v="consider place=hamlet" />
		<tag k="name" v="Kildal" />
		<tag k="place" v="farm" />
		<tag k="ssr:stedsnr" v="929708" />
	</node>
	<node lat="69.82372500261005" lon="21.448313849051726" id="-47740">
		<tag k="name" v="Nymo" />
		<tag k="place" v="farm" />
		<tag k="ssr:stedsnr" v="965990" />
	</node>
	<node lat="69.88537563964105" lon="21.442781942770623" id="-47742">
		<tag k="fixme" v="consider place=hamlet" />
		<tag k="name" v="Mettevollen - Máhtegieddi" />
		<tag k="name:no" v="Mettevollen" />
		<tag k="name:se" v="Máhtegieddi" />
		<tag k="place" v="farm" />
		<tag k="ssr:stedsnr" v="972394" />
	</node>
	<node lat="69.44835409794302" lon="21.542059179688902" id="-47743">
		<tag k="fixme" v="consider tourism=alpine_hut or tourism=chalet" />
		<tag k="loc_name:no" v="Nordkalottstua" />
		<tag k="name" v="Ovi Raishiin" />
		<tag k="name:fkv" v="Ovi Raishiin" />
		<tag k="ssr:stedsnr" v="972924" />
		<tag k="tourism" v="wilderness_hut" />
	</node>
	<node lat="69.69915555339199" lon="21.26209998046215" id="-47769">
		<tag k="name" v="Elveslett" />
		<tag k="place" v="farm" />
		<tag k="ssr:stedsnr" v="19336" />
	</node>
	<node lat="69.89784999637119" lon="20.93534720349879" id="-47774">
		<tag k="name" v="Rakto" />
		<tag k="place" v="locality" />
		<tag k="ssr:stedsnr" v="19535" />
	</node>
	<node lat="69.70772222352898" lon="21.24092220133598" id="-47778">
		<tag k="name" v="Moskodal" />
		<tag k="place" v="farm" />
		<tag k="ssr:stedsnr" v="19705" />
	</node>
	<node lat="69.87683889305312" lon="21.047211085743946" id="-47783">
		<tag k="name" v="Storneshamn" />
		<tag k="place" v="locality" />
		<tag k="ssr:stedsnr" v="19820" />
	</node>
	<node lat="69.88781697880242" lon="21.347798052456675" id="-47784">
		<tag k="name" v="Bjørnnes" />
		<tag k="place" v="farm" />
		<tag k="ssr:stedsnr" v="19827" />
	</node>
	<node lat="69.83881121401718" lon="21.210582564471114" id="-47788">
		<tag k="name" v="Nylund" />
		<tag k="place" v="farm" />
		<tag k="ssr:stedsnr" v="19774" />
	</node>
	<node lat="69.84210278175595" lon="21.218513870961583" id="-47789">
		<tag k="name" v="Forsnes" />
		<tag k="place" v="farm" />
		<tag k="ssr:stedsnr" v="19775" />
	</node>
	<node lat="69.86185000376919" lon="21.409799960464255" id="-47790">
		<tag k="name" v="Skoglund" />
		<tag k="place" v="farm" />
		<tag k="ssr:stedsnr" v="19787" />
	</node>
	<node lat="69.79149722630991" lon="20.595016639252087" id="-47795">
		<tag k="name" v="Hagen" />
		<tag k="place" v="farm" />
		<tag k="ssr:stedsnr" v="19936" />
	</node>
	<node lat="69.81215277849144" lon="20.99400275158999" id="-47796">
		<tag k="alt_name" v="Nordkjos" />
		<tag k="name" v="Nordkjosen" />
		<tag k="place" v="farm" />
		<tag k="ssr:stedsnr" v="19949" />
	</node>
	<node lat="69.79987221953114" lon="20.717516636071533" id="-47798">
		<tag k="name" v="Neset" />
		<tag k="place" v="farm" />
		<tag k="ssr:stedsnr" v="19955" />
	</node>
	<node lat="69.92726111154371" lon="20.93462775309695" id="-47811">
		<tag k="name" v="Klokkarvollen" />
		<tag k="place" v="farm" />
		<tag k="ssr:stedsnr" v="45760" />
	</node>
	<node lat="69.88068333772254" lon="21.200524985826462" id="-47812">
		<tag k="name" v="Rottvik" />
		<tag k="place" v="isolated_dwelling" />
		<tag k="ssr:stedsnr" v="46968" />
	</node>
	<node lat="69.73648333696703" lon="21.19558886750893" id="-47813">
		<tag k="name" v="Aspelund" />
		<tag k="place" v="farm" />
		<tag k="ssr:stedsnr" v="229126" />
	</node>
	<node lat="69.7766497029067" lon="21.025251305246208" id="-47834">
		<tag k="fixme" v="consider place=hamlet" />
		<tag k="name" v="Olderskogen" />
		<tag k="place" v="farm" />
		<tag k="ssr:stedsnr" v="54633" />
	</node>
	<node lat="69.77826437171916" lon="21.033240197469315" id="-47835">
		<tag k="fixme" v="consider place=hamlet" />
		<tag k="name" v="Veibakken" />
		<tag k="place" v="farm" />
		<tag k="ssr:stedsnr" v="54635" />
	</node>
	<node lat="69.83609722585936" lon="20.519891649925235" id="-47843">
		<tag k="name" v="Báisigieddi" />
		<tag k="name:se" v="Báisigieddi" />
		<tag k="place" v="farm" />
		<tag k="ssr:stedsnr" v="54755" />
	</node>
	<node lat="69.96444999928156" lon="21.221466639683733" id="-47850">
		<tag k="name" v="Bakke" />
		<tag k="place" v="locality" />
		<tag k="ssr:stedsnr" v="55954" />
	</node>
	<node lat="69.83456389475039" lon="21.420238848701384" id="-47851">
		<tag k="fixme" v="consider place=hamlet" />
		<tag k="name" v="Oksfjorddalen" />
		<tag k="place" v="farm" />
		<tag k="ssr:stedsnr" v="55981" />
	</node>
	<node lat="69.74691944390763" lon="21.030827746428876" id="-47862">
		<tag k="name" v="Øya" />
		<tag k="place" v="farm" />
		<tag k="ssr:stedsnr" v="79710" />
	</node>
	<node lat="69.46378056160336" lon="21.52509440316518" id="-47863">
		<tag k="name" v="Kjerkestilla" />
		<tag k="place" v="isolated_dwelling" />
		<tag k="ssr:stedsnr" v="79711" />
	</node>
	<node lat="69.74952500239951" lon="21.029180539454703" id="-47866">
		<tag k="name" v="Løvstad" />
		<tag k="place" v="farm" />
		<tag k="ssr:stedsnr" v="79673" />
	</node>
	<node lat="69.7933288650412" lon="21.05573422498434" id="-47870">
		<tag k="fixme" v="consider place=hamlet" />
		<tag k="name" v="Nordkjosbotn" />
		<tag k="place" v="farm" />
		<tag k="ssr:stedsnr" v="80203" />
	</node>
	<node lat="69.6571888919306" lon="21.315486095053025" id="-47882">
		<tag k="name" v="Brattfjell" />
		<tag k="place" v="farm" />
		<tag k="ssr:stedsnr" v="80319" />
	</node>
	<node lat="69.6702833336171" lon="21.289194406226912" id="-47883">
		<tag k="name" v="Skogstad" />
		<tag k="place" v="farm" />
		<tag k="ssr:stedsnr" v="80327" />
	</node>
	<node lat="69.61345555727767" lon="21.288472202720897" id="-47884">
		<tag k="alt_name" v="Bergbukt" />
		<tag k="name" v="Bergebukta" />
		<tag k="place" v="farm" />
		<tag k="ssr:stedsnr" v="80369" />
	</node>
	<node lat="69.8492999964771" lon="20.78754165082777" id="-47890">
		<tag k="name" v="Slettvoll" />
		<tag k="place" v="farm" />
		<tag k="ssr:stedsnr" v="80520" />
	</node>
	<node lat="69.83958333244198" lon="20.519155542372324" id="-47892">
		<tag k="name" v="Berglund" />
		<tag k="place" v="farm" />
		<tag k="ssr:stedsnr" v="80528" />
	</node>
	<node lat="69.72868611066069" lon="21.047922196363487" id="-47896">
		<tag k="name" v="Solstad" />
		<tag k="place" v="farm" />
		<tag k="ssr:stedsnr" v="80697" />
	</node>
	<node lat="69.9028444402719" lon="20.85211942962069" id="-47898">
		<tag k="name" v="Rotnvika" />
		<tag k="place" v="farm" />
		<tag k="ssr:stedsnr" v="80566" />
	</node>
	<node lat="69.90649167073153" lon="20.956730542806042" id="-47899">
		<tag k="fixme" v="multiple name tags, choose one and add the other to alt_name" />
		<tag k="name" v="Eidet;Indre Eidet" />
		<tag k="place" v="farm" />
		<tag k="ssr:stedsnr" v="80568" />
	</node>
	<node lat="69.8209888900173" lon="21.167688861001686" id="-47901">
		<tag k="name" v="Nordli" />
		<tag k="place" v="farm" />
		<tag k="ssr:stedsnr" v="80767" />
	</node>
	<node lat="69.8232824891745" lon="21.44004057206678" id="-47902">
		<tag k="name" v="Solvang" />
		<tag k="place" v="farm" />
		<tag k="ssr:stedsnr" v="80770" />
	</node>
	<node lat="69.90440970346309" lon="21.34918901292345" id="-47903">
		<tag k="name" v="Lysmen" />
		<tag k="place" v="farm" />
		<tag k="ssr:stedsnr" v="80853" />
	</node>
	<node lat="69.87181389104188" lon="21.44321941405012" id="-47904">
		<tag k="name" v="Elvebakken" />
		<tag k="place" v="farm" />
		<tag k="ssr:stedsnr" v="80809" />
	</node>
	<node lat="69.77280833505333" lon="20.98140274783913" id="-47908">
		<tag k="name" v="Fossvoll" />
		<tag k="place" v="farm" />
		<tag k="ssr:stedsnr" v="80917" />
	</node>
	<node lat="69.83808333417028" lon="20.520488872375658" id="-47910">
		<tag k="name" v="Åsheim" />
		<tag k="place" v="farm" />
		<tag k="ssr:stedsnr" v="80997" />
	</node>
	<node lat="69.89961388744055" lon="21.282338859670777" id="-47911">
		<tag k="name" v="Dyrnes" />
		<tag k="place" v="farm" />
		<tag k="ssr:stedsnr" v="80858" />
	</node>
	<node lat="69.91597500529927" lon="21.311097188259076" id="-47912">
		<tag k="name" v="Elvenes" />
		<tag k="place" v="farm" />
		<tag k="ssr:stedsnr" v="80869" />
	</node>
	<node lat="69.92073297722614" lon="21.24211880517151" id="-47914">
		<tag k="alt_name" v="Arneng, in" />
		<tag k="fixme" v="multiple name tags, choose one and add the other to alt_name" />
		<tag k="name" v="Arneng;Indre Arneng" />
		<tag k="place" v="farm" />
		<tag k="ssr:stedsnr" v="80878" />
	</node>
	<node lat="69.78561111225854" lon="20.630388861141437" id="-47917">
		<tag k="name" v="Sollia" />
		<tag k="place" v="farm" />
		<tag k="ssr:stedsnr" v="80948" />
	</node>
	<node lat="69.80737574722951" lon="20.74620067058132" id="-47918">
		<tag k="alt_name" v="Langli" />
		<tag k="name" v="Langlia" />
		<tag k="place" v="farm" />
		<tag k="ssr:stedsnr" v="80960" />
	</node>
	<node lat="69.79786667142743" lon="20.71794164336782" id="-47921">
		<tag k="alt_name" v="Ladevollen" />
		<tag k="name" v="Ladevoll" />
		<tag k="place" v="farm" />
		<tag k="ssr:stedsnr" v="80973" />
	</node>
	<node lat="69.82974444733206" lon="20.784794420191606" id="-47925">
		<tag k="fixme" v="consider place=hamlet" />
		<tag k="name" v="Ravelseidet" />
		<tag k="place" v="village" />
		<tag k="ssr:stedsnr" v="89355" />
	</node>
	<node lat="69.83851902892313" lon="20.920592460108388" id="-47927">
		<tag k="alt_name" v="Sokkelvik" />
		<tag k="fixme" v="consider place=hamlet" />
		<tag k="name" v="Sokkelvika" />
		<tag k="place" v="farm" />
		<tag k="ssr:stedsnr" v="89372" />
	</node>
	<node lat="69.74027019523868" lon="21.14605682494527" id="-47937">
		<tag k="name" v="Ravdilla" />
		<tag k="place" v="locality" />
		<tag k="ssr:stedsnr" v="115547" />
	</node>
	<node lat="69.76371388701294" lon="21.030972184561612" id="-47946">
		<tag k="name" v="Hesthagen" />
		<tag k="place" v="quarter" />
		<tag k="ssr:stedsnr" v="115635" />
	</node>
	<node lat="69.9175736853142" lon="21.290484557609673" id="-47959">
		<tag k="name" v="Lilleng" />
		<tag k="place" v="farm" />
		<tag k="ssr:stedsnr" v="115928" />
	</node>
	<node lat="69.87290567277898" lon="21.188703330260054" id="-47967">
		<tag k="alt_name" v="Straumfjord s" />
		<tag k="fixme" v="consider place=hamlet" />
		<tag k="name" v="Søndre Straumfjord" />
		<tag k="place" v="farm" />
		<tag k="ssr:stedsnr" v="127814" />
	</node>
	<node lat="69.77295000035154" lon="21.025908320433967" id="-47978">
		<tag k="name" v="Strand" />
		<tag k="place" v="farm" />
		<tag k="ssr:stedsnr" v="140204" />
	</node>
	<node lat="69.80034999784706" lon="21.088899982590227" id="-47982">
		<tag k="name" v="Lyngmo" />
		<tag k="place" v="farm" />
		<tag k="ssr:stedsnr" v="140184" />
	</node>
	<node lat="69.66167090896205" lon="21.285223392161644" id="-47987">
		<tag k="name" v="Tørrfossnes - Heikka" />
		<tag k="name:fkv" v="Heikka" />
		<tag k="name:no" v="Tørrfossnes" />
		<tag k="place" v="farm" />
		<tag k="ssr:stedsnr" v="140334" />
	</node>
	<node lat="69.68021944243897" lon="21.26866664404058" id="-47988">
		<tag k="name" v="Elvegård" />
		<tag k="place" v="isolated_dwelling" />
		<tag k="ssr:stedsnr" v="140346" />
	</node>
	<node lat="69.92630555714614" lon="20.945177749596812" id="-47998">
		<tag k="name" v="Nylund" />
		<tag k="place" v="farm" />
		<tag k="ssr:stedsnr" v="140518" />
	</node>
	<node lat="69.8448981420814" lon="21.222363751765148" id="-48015">
		<tag k="name" v="Heggelund" />
		<tag k="place" v="farm" />
		<tag k="ssr:stedsnr" v="140774" />
	</node>
	<node lat="69.90259631379902" lon="21.209493598528383" id="-48019">
		<tag k="name" v="Klubbeneshamn" />
		<tag k="place" v="farm" />
		<tag k="ssr:stedsnr" v="140848" />
	</node>
	<node lat="69.75915556065287" lon="20.533336090385152" id="-48023">
		<tag k="name" v="Myrland" />
		<tag k="place" v="farm" />
		<tag k="ssr:stedsnr" v="140918" />
	</node>
	<node lat="69.93886312244277" lon="21.04402468209243" id="-48024">
		<tag k="alt_name" v="Eidet, Ytre" />
		<tag k="fixme" v="consider place=hamlet" />
		<tag k="name" v="Ytre Eidet" />
		<tag k="place" v="farm" />
		<tag k="ssr:stedsnr" v="140869" />
	</node>
	<node lat="69.82581392931226" lon="20.786195494753713" id="-48026">
		<tag k="alt_name" v="Langslett" />
		<tag k="fixme" v="consider place=hamlet" />
		<tag k="name" v="Langsletta" />
		<tag k="place" v="farm" />
		<tag k="ssr:stedsnr" v="140971" />
	</node>
	<node lat="69.77727499701037" lon="20.714916641139393" id="-48027">
		<tag k="name" v="Bjørkelund" />
		<tag k="place" v="farm" />
		<tag k="ssr:stedsnr" v="140928" />
	</node>
	<node lat="69.85734167032965" lon="20.764286085675664" id="-48030">
		<tag k="name" v="Storberget" />
		<tag k="place" v="farm" />
		<tag k="ssr:stedsnr" v="146787" />
	</node>
	<node lat="69.89468889105919" lon="20.832913864317693" id="-48033">
		<tag k="name" v="Russelv" />
		<tag k="place" v="isolated_dwelling" />
		<tag k="ssr:stedsnr" v="175087" />
	</node>
	<node lat="69.78578611007465" lon="20.941058301434918" id="-48040">
		<tag k="building" v="industrial" />
		<tag k="industrial" v="factory" />
		<tag k="name" v="Nordreisa meieri" />
		<tag k="ssr:stedsnr" v="175374" />
	</node>
	<node lat="69.76469444938981" lon="20.539130528298834" id="-48061">
		<tag k="name" v="Øya" />
		<tag k="place" v="farm" />
		<tag k="ssr:stedsnr" v="175984" />
	</node>
	<node lat="69.48373333665782" lon="21.48734995599897" id="-48070">
		<tag k="name" v="Rognli" />
		<tag k="place" v="farm" />
		<tag k="ssr:stedsnr" v="176927" />
	</node>
	<node lat="69.78997778118033" lon="21.05044163518899" id="-48103">
		<tag k="name" v="Sletta" />
		<tag k="place" v="farm" />
		<tag k="ssr:stedsnr" v="201188" />
	</node>
	<node lat="69.6890277763833" lon="21.081311071789667" id="-48107">
		<tag k="name" v="Furulund" />
		<tag k="place" v="farm" />
		<tag k="ssr:stedsnr" v="201320" />
	</node>
	<node lat="69.69724395751483" lon="21.22947505691061" id="-48108">
		<tag k="fixme" v="consider place=hamlet" />
		<tag k="loc_name:fkv" v="Kellari" />
		<tag k="loc_name:se" v="Geallir" />
		<tag k="name" v="Kjelleren" />
		<tag k="name:no" v="Kjelleren" />
		<tag k="place" v="farm" />
		<tag k="ssr:stedsnr" v="201327" />
	</node>
	<node lat="69.60399167076262" lon="21.24270831551394" id="-48111">
		<tag k="alt_name" v="Øvrebukta" />
		<tag k="name" v="Øverbukt" />
		<tag k="place" v="farm" />
		<tag k="ssr:stedsnr" v="201338" />
	</node>
	<node lat="69.85631389077328" lon="20.76775276957103" id="-48117">
		<tag k="name" v="Syrstad" />
		<tag k="place" v="farm" />
		<tag k="ssr:stedsnr" v="201492" />
	</node>
	<node lat="69.9265444476673" lon="20.92215276244639" id="-48118">
		<tag k="name" v="Bakkemo" />
		<tag k="place" v="farm" />
		<tag k="ssr:stedsnr" v="201508" />
	</node>
	<node lat="69.92048333286398" lon="20.976461081723325" id="-48119">
		<tag k="name" v="Utleira" />
		<tag k="place" v="farm" />
		<tag k="ssr:stedsnr" v="201512" />
	</node>
	<node lat="69.92207384816534" lon="20.988519613150885" id="-48120">
		<tag k="alt_name" v="Indreidet;Eidet Indre" />
		<tag k="fixme" v="consider place=hamlet" />
		<tag k="name" v="Indre Eidet" />
		<tag k="place" v="farm" />
		<tag k="ssr:stedsnr" v="201513" />
	</node>
	<node lat="69.8516333302823" lon="21.059516648424342" id="-48126">
		<tag k="alt_name" v="Storvik, yt" />
		<tag k="name" v="Ytre Storvik" />
		<tag k="place" v="farm" />
		<tag k="ssr:stedsnr" v="201428" />
	</node>
	<node lat="69.86737222509336" lon="21.214294411732816" id="-48132">
		<tag k="alt_name" v="Marvik, in" />
		<tag k="fixme" v="multiple name tags, choose one and add the other to alt_name" />
		<tag k="name" v="Marvik;Indre Marvik" />
		<tag k="place" v="farm" />
		<tag k="ssr:stedsnr" v="201775" />
	</node>
	<node lat="69.86750092005627" lon="21.051214565633952" id="-48133">
		<tag k="name" v="Heimstad" />
		<tag k="place" v="farm" />
		<tag k="ssr:stedsnr" v="201789" />
	</node>
	<node lat="69.88398151956724" lon="21.19300551337745" id="-48138">
		<tag k="name" v="Øyra" />
		<tag k="place" v="farm" />
		<tag k="ssr:stedsnr" v="201807" />
	</node>
	<node lat="69.7729305589035" lon="20.977519409262428" id="-48144">
		<tag k="name" v="Solstad" />
		<tag k="place" v="farm" />
		<tag k="ssr:stedsnr" v="201910" />
	</node>
	<node lat="69.89774300259086" lon="21.302078181192513" id="-48146">
		<tag k="fixme" v="consider place=hamlet" />
		<tag k="name" v="Leirvåg" />
		<tag k="place" v="farm" />
		<tag k="ssr:stedsnr" v="201822" />
	</node>
	<node lat="69.89583623243894" lon="21.191798503704913" id="-48147">
		<tag k="name" v="Brattvoll" />
		<tag k="place" v="farm" />
		<tag k="ssr:stedsnr" v="201823" />
	</node>
	<node lat="69.90169587827994" lon="21.358114573714484" id="-48148">
		<tag k="name" v="Lystad" />
		<tag k="place" v="farm" />
		<tag k="ssr:stedsnr" v="201824" />
	</node>
	<node lat="69.78848333492482" lon="20.56720275207079" id="-48154">
		<tag k="alt_name:no" v="Havnnes" />
		<tag k="fixme" v="consider place=hamlet" />
		<tag k="name" v="Hamnnes - Gárgu" />
		<tag k="name:no" v="Hamnnes" />
		<tag k="name:se" v="Gárgu" />
		<tag k="place" v="village" />
		<tag k="ssr:stedsnr" v="201944" />
	</node>
	<node lat="69.82052222275789" lon="20.532311086335863" id="-48156">
		<tag k="alt_name" v="Gamlevær" />
		<tag k="name" v="Gammelvær" />
		<tag k="place" v="farm" />
		<tag k="ssr:stedsnr" v="201970" />
	</node>
	<node lat="69.81165278018042" lon="20.756822205251076" id="-48157">
		<tag k="name" v="Myre" />
		<tag k="place" v="farm" />
		<tag k="ssr:stedsnr" v="201976" />
	</node>
	<node lat="69.81349722641441" lon="20.532663875635834" id="-48158">
		<tag k="name" v="Mellomberget" />
		<tag k="place" v="farm" />
		<tag k="ssr:stedsnr" v="201977" />
	</node>
	<node lat="69.76894166625769" lon="20.7277249771081" id="-48160">
		<tag k="name" v="Nyheim" />
		<tag k="place" v="farm" />
		<tag k="ssr:stedsnr" v="201936" />
	</node>
	<node lat="69.55920277604551" lon="21.298149971878956" id="-48164">
		<tag k="name" v="Sappen - Sáhppi - Sappi" />
		<tag k="name:fkv" v="Sappi" />
		<tag k="name:no" v="Sappen" />
		<tag k="name:se" v="Sáhppi" />
		<tag k="place" v="hamlet" />
		<tag k="ssr:stedsnr" v="204287" />
	</node>
	<node lat="69.91098611072593" lon="20.856602761367814" id="-48168">
		<tag k="name" v="Moldfarnes" />
		<tag k="place" v="locality" />
		<tag k="ssr:stedsnr" v="227755" />
	</node>
	<node lat="69.9212944487518" lon="21.237947196686296" id="-48172">
		<tag k="name" v="Steinnes" />
		<tag k="place" v="isolated_dwelling" />
		<tag k="ssr:stedsnr" v="288037" />
	</node>
	<node lat="69.76378611034632" lon="20.482780525533222" id="-48207">
		<tag k="name" v="Kriken" />
		<tag k="place" v="farm" />
		<tag k="ssr:stedsnr" v="296999" />
	</node>
	<node lat="69.87507221917363" lon="21.41602220255973" id="-48222">
		<tag k="name" v="Elvebakken" />
		<tag k="name:se" v="Elvebakken" />
		<tag k="place" v="farm" />
		<tag k="ssr:stedsnr" v="297997" />
	</node>
	<node lat="69.76639722618799" lon="21.052394412371818" id="-48229">
		<tag k="name" v="Lunde" />
		<tag k="place" v="quarter" />
		<tag k="ssr:stedsnr" v="309948" />
	</node>
	<node lat="69.57486111277211" lon="21.251205515381624" id="-48237">
		<tag k="name" v="Fossheim" />
		<tag k="place" v="farm" />
		<tag k="ssr:stedsnr" v="322243" />
	</node>
	<node lat="69.91938055411033" lon="21.273408313095423" id="-48241">
		<tag k="name" v="Myrland" />
		<tag k="place" v="farm" />
		<tag k="ssr:stedsnr" v="322845" />
	</node>
	<node lat="69.92886111649166" lon="20.959202751808885" id="-48253">
		<tag k="name" v="Hamneidet" />
		<tag k="place" v="hamlet" />
		<tag k="ssr:stedsnr" v="322574" />
	</node>
	<node lat="69.82960555470187" lon="21.042538863688065" id="-48268">
		<tag k="alt_name" v="Buktevoll" />
		<tag k="name" v="Buktevollen" />
		<tag k="place" v="farm" />
		<tag k="ssr:stedsnr" v="322748" />
	</node>
	<node lat="69.84110833426261" lon="21.062055536578214" id="-48270">
		<tag k="name" v="Fjellstad" />
		<tag k="place" v="farm" />
		<tag k="ssr:stedsnr" v="322755" />
	</node>
	<node lat="69.84609463336922" lon="21.064648634031993" id="-48271">
		<tag k="name" v="Myrvang" />
		<tag k="place" v="farm" />
		<tag k="ssr:stedsnr" v="322757" />
	</node>
	<node lat="69.87647500301132" lon="21.437513854391025" id="-48275">
		<tag k="name" v="Teigen" />
		<tag k="place" v="farm" />
		<tag k="ssr:stedsnr" v="322789" />
	</node>
	<node lat="69.84238888925861" lon="20.941419423702353" id="-48283">
		<tag k="name" v="Sokkelnes" />
		<tag k="place" v="farm" />
		<tag k="ssr:stedsnr" v="322980" />
	</node>
	<node lat="69.83643055664565" lon="20.896455540366794" id="-48284">
		<tag k="alt_name" v="Sokkelvika, yt" />
		<tag k="name" v="Ytre Sokkelvika" />
		<tag k="place" v="farm" />
		<tag k="ssr:stedsnr" v="322992" />
	</node>
	<node lat="69.835827779458" lon="20.522933308730522" id="-48288">
		<tag k="name" v="Bergheim" />
		<tag k="place" v="farm" />
		<tag k="ssr:stedsnr" v="322999" />
	</node>
	<node lat="69.62013333479089" lon="21.29535552552963" id="-48290">
		<tag k="name" v="Rognmo" />
		<tag k="place" v="farm" />
		<tag k="ssr:stedsnr" v="323356" />
	</node>
	<node lat="69.60523610903269" lon="21.25369997691374" id="-48291">
		<tag k="name" v="Liland" />
		<tag k="place" v="hamlet" />
		<tag k="ssr:stedsnr" v="323359" />
	</node>
	<node lat="69.8520547186274" lon="21.22768634695283" id="-48296">
		<tag k="alt_name" v="Elveslett" />
		<tag k="name" v="Elvesletta" />
		<tag k="place" v="farm" />
		<tag k="ssr:stedsnr" v="323781" />
	</node>
	<node lat="69.77222777892531" lon="20.55614998939027" id="-48298">
		<tag k="alt_name" v="Byarnes;Biarneset" />
		<tag k="name" v="Biarnes" />
		<tag k="place" v="farm" />
		<tag k="ssr:stedsnr" v="323933" />
	</node>
	<node lat="69.78463333273784" lon="20.70590831241701" id="-48299">
		<tag k="name" v="Solvang" />
		<tag k="place" v="farm" />
		<tag k="ssr:stedsnr" v="323948" />
	</node>
	<node lat="69.89018420353302" lon="21.337186920080235" id="-48300">
		<tag k="name" v="Elverum" />
		<tag k="place" v="farm" />
		<tag k="ssr:stedsnr" v="323836" />
	</node>
	<node lat="69.90060077370381" lon="21.37357276810441" id="-48301">
		<tag k="name" v="Nordrevatn" />
		<tag k="place" v="locality" />
		<tag k="ssr:stedsnr" v="323841" />
	</node>
	<node lat="69.96524444650501" lon="21.21600830641386" id="-48306">
		<tag k="name" v="Molvik" />
		<tag k="place" v="locality" />
		<tag k="ssr:stedsnr" v="329581" />
	</node>
	<node lat="69.92641944854621" lon="21.21637496551735" id="-48307">
		<tag k="name" v="Arneng" />
		<tag k="place" v="hamlet" />
		<tag k="ssr:stedsnr" v="329893" />
	</node>
	<node lat="69.85678333500518" lon="21.17791941591555" id="-48315">
		<tag k="historic" v="shieling" />
		<tag k="name" v="Setra" />
		<tag k="place" v="isolated_dwelling" />
		<tag k="ssr:stedsnr" v="357293" />
	</node>
	<node lat="69.6576833331993" lon="21.288402756069466" id="-48323">
		<tag k="name" v="Tørfoss" />
		<tag k="place" v="farm" />
		<tag k="ssr:stedsnr" v="357542" />
	</node>
	<node lat="69.7438861142531" lon="21.164288850801416" id="-48338">
		<tag k="name" v="Mølleng" />
		<tag k="place" v="farm" />
		<tag k="ssr:stedsnr" v="358591" />
	</node>
	<node lat="69.74384444251733" lon="21.14091942428143" id="-48344">
		<tag k="name" v="Galilaen" />
		<tag k="place" v="farm" />
		<tag k="ssr:stedsnr" v="372583" />
	</node>
</osm>
