<?xml version="1.0" encoding="UTF-8"?>
<osm version="0.6" generator="osmapis">
	<node lat="69.91555277901443" lon="20.859408304000183" id="-97440">
		<tag k="name" v="Moldebukta" />
		<tag k="natural" v="bay" />
		<tag k="ssr:stedsnr" v="19518" />
	</node>
	<node lat="69.91345833147341" lon="20.855074983895722" id="-97441">
		<tag k="name" v="Moldforneset" />
		<tag k="natural" v="cape" />
		<tag k="ssr:stedsnr" v="19519" />
	</node>
	<node lat="69.8629944406883" lon="20.547752761775094" id="-97461">
		<tag k="name" v="Mannhollet" />
		<tag k="natural" v="bay" />
		<tag k="ssr:stedsnr" v="235849" />
	</node>
	<node lat="69.92444999906637" lon="20.905191655708204" id="-97482">
		<tag k="name" v="Straumneset" />
		<tag k="natural" v="cape" />
		<tag k="ssr:stedsnr" v="236660" />
	</node>
	<node lat="69.86519999723939" lon="21.213208301227027" id="-97484">
		<tag k="name" v="Skoleneset" />
		<tag k="natural" v="cape" />
		<tag k="ssr:stedsnr" v="236767" />
	</node>
	<node lat="69.9054138907621" lon="21.15645275598118" id="-97496">
		<tag k="name" v="Elveskallen" />
		<tag k="natural" v="shoal" />
		<tag k="place" v="locality" />
		<tag k="ssr:stedsnr" v="46969" />
	</node>
	<node lat="69.87976110844956" lon="21.133780536921318" id="-97508">
		<tag k="fixme" v="consider seamark:type=rock or natural=shoal" />
		<tag k="name" v="Skjæret" />
		<tag k="place" v="islet" />
		<tag k="ssr:stedsnr" v="54879" />
	</node>
	<node lat="69.84375832944858" lon="21.18300275589589" id="-97538">
		<tag k="bay" v="fjord" />
		<tag k="loc_name:fkv" v="Siitivuono" />
		<tag k="loc_name:se" v="Siidavuonna" />
		<tag k="name" v="Straumfjorden - Siidavuotna - Raumavuono" />
		<tag k="name:fkv" v="Raumavuono" />
		<tag k="name:no" v="Straumfjorden" />
		<tag k="name:se" v="Siidavuotna" />
		<tag k="natural" v="bay" />
		<tag k="ssr:stedsnr" v="80446" />
	</node>
	<node lat="69.8795222241044" lon="21.139094422198642" id="-97550">
		<tag k="name" v="Mollamokka" />
		<tag k="name:fkv" v="Mollamokka" />
		<tag k="natural" v="bay" />
		<tag k="ssr:stedsnr" v="248777" />
	</node>
	<node lat="69.85224167117853" lon="20.780313865851006" id="-97599">
		<tag k="name" v="Neset" />
		<tag k="natural" v="cape" />
		<tag k="ssr:stedsnr" v="175008" />
	</node>
	<node lat="69.79561666630926" lon="20.54258054991922" id="-97711">
		<tag k="name" v="Ryggevika" />
		<tag k="natural" v="bay" />
		<tag k="ssr:stedsnr" v="267863" />
	</node>
	<node lat="69.81128055862638" lon="21.13781107599544" id="-97713">
		<tag k="name" v="Straumfjordbotn" />
		<tag k="natural" v="bay" />
		<tag k="ssr:stedsnr" v="227937" />
	</node>
	<node lat="69.8315638883758" lon="21.02770274219413" id="-97714">
		<tag k="alt_name" v="Bjørkneset" />
		<tag k="name" v="Bjørkeneset" />
		<tag k="natural" v="cape" />
		<tag k="ssr:stedsnr" v="227696" />
	</node>
	<node lat="69.93208610929968" lon="20.96226665227359" id="-97715">
		<tag k="alt_name" v="Hamneneset" />
		<tag k="name" v="Hamnneset" />
		<tag k="natural" v="cape" />
		<tag k="ssr:stedsnr" v="227804" />
	</node>
	<node lat="69.90892222073056" lon="21.321980513341224" id="-97730">
		<tag k="name" v="Sandbukta" />
		<tag k="natural" v="bay" />
		<tag k="ssr:stedsnr" v="237894" />
	</node>
	<node lat="69.9181250018489" lon="20.973930533305982" id="-97741">
		<tag k="name" v="Laneset" />
		<tag k="natural" v="cape" />
		<tag k="ssr:stedsnr" v="262554" />
	</node>
	<node lat="69.9587350472691" lon="21.047040449617395" id="-97746">
		<tag k="name" v="Sommarsetbukta" />
		<tag k="natural" v="bay" />
		<tag k="ssr:stedsnr" v="262907" />
	</node>
	<node lat="69.85028888768531" lon="20.524327747255068" id="-97751">
		<tag k="name" v="Melkjeila" />
		<tag k="natural" v="bay" />
		<tag k="ssr:stedsnr" v="267733" />
	</node>
	<node lat="69.93078055661395" lon="21.098386083263847" id="-97752">
		<tag k="loc_name:se" v="Guollcoagis" />
		<tag k="name" v="Seglnesgrunnen" />
		<tag k="name:no" v="Seglnesgrunnen" />
		<tag k="natural" v="shoal" />
		<tag k="place" v="locality" />
		<tag k="ssr:stedsnr" v="288788" />
	</node>
	<node lat="69.79138610904141" lon="20.688061085871208" id="-97754">
		<tag k="name" v="Buktamelen" />
		<tag k="natural" v="cape" />
		<tag k="ssr:stedsnr" v="296102" />
	</node>
	<node lat="69.85995277706876" lon="20.540686086046843" id="-97757">
		<tag k="name" v="Offeren" />
		<tag k="natural" v="bay" />
		<tag k="ssr:stedsnr" v="296817" />
	</node>
	<node lat="69.87383888900432" lon="21.195172186336585" id="-97760">
		<tag k="name" v="Straumbukta" />
		<tag k="natural" v="bay" />
		<tag k="ssr:stedsnr" v="296773" />
	</node>
	<node lat="69.84439999794301" lon="20.94924163130608" id="-97803">
		<tag k="name" v="Storvika" />
		<tag k="natural" v="bay" />
		<tag k="ssr:stedsnr" v="470654" />
	</node>
	<node lat="69.85362222086405" lon="21.040297209393604" id="-97804">
		<tag k="fixme" v="consider seamark:type=rock or natural=shoal" />
		<tag k="name" v="Skjæret" />
		<tag k="place" v="islet" />
		<tag k="ssr:stedsnr" v="470697" />
	</node>
	<node lat="69.82403889183435" lon="21.131555542146394" id="-97805">
		<tag k="name" v="Dangasneset" />
		<tag k="natural" v="cape" />
		<tag k="ssr:stedsnr" v="470949" />
	</node>
	<node lat="69.82588055957848" lon="21.008338859041203" id="-97817">
		<tag k="name" v="Lillesanden" />
		<tag k="natural" v="beach" />
		<tag k="ssr:stedsnr" v="357300" />
	</node>
	<node lat="69.78299722679513" lon="21.002436078801555" id="-97840">
		<tag k="name" v="Fransneset" />
		<tag k="natural" v="cape" />
		<tag k="ssr:stedsnr" v="478480" />
	</node>
	<node lat="69.86895833128341" lon="20.89922218968578" id="-97847">
		<tag k="name" v="Gurutofta" />
		<tag k="natural" v="bay" />
		<tag k="ssr:stedsnr" v="478722" />
	</node>
	<node lat="69.84561388842295" lon="20.516969423424058" id="-97848">
		<tag k="fixme" v="consider seamark:type=rock or natural=shoal" />
		<tag k="name" v="Skjæret" />
		<tag k="place" v="islet" />
		<tag k="ssr:stedsnr" v="478834" />
	</node>
	<node lat="69.76248333657759" lon="20.463902760740552" id="-97894">
		<tag k="name" v="Spåkenes - Spoahkkanjárga" />
		<tag k="name:no" v="Spåkenes" />
		<tag k="name:se" v="Spoahkkanjárga" />
		<tag k="natural" v="cape" />
		<tag k="ssr:stedsnr" v="389293" />
	</node>
	<node lat="69.83857499795246" lon="20.78526665022506" id="-97908">
		<tag k="name" v="Sandnes" />
		<tag k="natural" v="cape" />
		<tag k="ssr:stedsnr" v="419194" />
	</node>
	<node lat="69.8797666643006" lon="21.167069411439403" id="-97921">
		<tag k="name" v="Brottneset" />
		<tag k="natural" v="cape" />
		<tag k="ssr:stedsnr" v="431786" />
	</node>
	<node lat="69.88054721979103" lon="21.147722181713977" id="-97922">
		<tag k="name" v="Jossilakeila" />
		<tag k="natural" v="bay" />
		<tag k="ssr:stedsnr" v="491759" />
	</node>
	<node lat="69.93210555498429" lon="21.02540830079706" id="-97942">
		<tag k="name" v="Storbukta" />
		<tag k="natural" v="bay" />
		<tag k="ssr:stedsnr" v="444434" />
	</node>
	<node lat="69.93676388797381" lon="21.185886093719887" id="-97955">
		<tag k="name" v="Årneset" />
		<tag k="natural" v="cape" />
		<tag k="ssr:stedsnr" v="444879" />
	</node>
	<node lat="69.8810833380761" lon="21.158511081835453" id="-97958">
		<tag k="fixme" v="consider seamark:type=rock or natural=shoal" />
		<tag k="name" v="Fallskjæret" />
		<tag k="place" v="islet" />
		<tag k="ssr:stedsnr" v="461778" />
	</node>
	<node lat="69.96355555229086" lon="21.210786078579435" id="-97967">
		<tag k="name" v="Sørkeila" />
		<tag k="natural" v="bay" />
		<tag k="ssr:stedsnr" v="478277" />
	</node>
	<node lat="69.8726388933683" lon="21.19411942497264" id="-97972">
		<tag k="name" v="Isakneset" />
		<tag k="natural" v="cape" />
		<tag k="ssr:stedsnr" v="478788" />
	</node>
	<node lat="69.87537777755698" lon="21.19005552658131" id="-97973">
		<tag k="name" v="Resiranta" />
		<tag k="name:fkv" v="Resiranta" />
		<tag k="natural" v="beach" />
		<tag k="ssr:stedsnr" v="478790" />
	</node>
	<node lat="69.91576667006927" lon="21.30027219834884" id="-97979">
		<tag k="name" v="Elveneset" />
		<tag k="natural" v="cape" />
		<tag k="ssr:stedsnr" v="479905" />
	</node>
	<node lat="69.95359444338744" lon="21.380288852352678" id="-98002">
		<tag k="name" v="Nuovas" />
		<tag k="name:se" v="Nuovas" />
		<tag k="natural" v="cape" />
		<tag k="ssr:stedsnr" v="504867" />
	</node>
	<node lat="69.91187222671249" lon="21.232911094617492" id="-98010">
		<tag k="alt_name:no" v="Øksfjorden" />
		<tag k="bay" v="fjord" />
		<tag k="loc_name:se" v="Ákšovuonna" />
		<tag k="name" v="Oksfjorden - Ákšovuotna - Aksuvuono" />
		<tag k="name:fkv" v="Aksuvuono" />
		<tag k="name:no" v="Oksfjorden" />
		<tag k="name:se" v="Ákšovuotna" />
		<tag k="natural" v="bay" />
		<tag k="ssr:stedsnr" v="505467" />
	</node>
	<node lat="69.93394444283572" lon="20.968661092462455" id="-98011">
		<tag k="name" v="Klubben" />
		<tag k="natural" v="cape" />
		<tag k="ssr:stedsnr" v="505477" />
	</node>
	<node lat="69.84227777512153" lon="20.51691664477545" id="-98013">
		<tag k="name" v="Lakseberget" />
		<tag k="natural" v="cape" />
		<tag k="ssr:stedsnr" v="510769" />
	</node>
	<node lat="69.81851944057213" lon="20.529719431957794" id="-98014">
		<tag k="name" v="Rekneset" />
		<tag k="natural" v="cape" />
		<tag k="ssr:stedsnr" v="510772" />
	</node>
	<node lat="69.85839166956858" lon="21.0436638659969" id="-98021">
		<tag k="name" v="Trettebukta - Vuohppi" />
		<tag k="name:no" v="Trettebukta" />
		<tag k="name:se" v="Vuohppi" />
		<tag k="natural" v="bay" />
		<tag k="ssr:stedsnr" v="530709" />
	</node>
	<node lat="69.80017499746627" lon="20.929261089512725" id="-98027">
		<tag k="name" v="Sørkjosen - Rässikäisenmukka" />
		<tag k="name:fkv" v="Rässikäisenmukka" />
		<tag k="name:no" v="Sørkjosen" />
		<tag k="natural" v="bay" />
		<tag k="ssr:stedsnr" v="531680" />
	</node>
	<node lat="69.910077774447" lon="21.156747198048034" id="-98029">
		<tag k="loc_name:se" v="Čorru" />
		<tag k="name" v="Klubbenesgrunnen" />
		<tag k="name:no" v="Klubbenesgrunnen" />
		<tag k="natural" v="shoal" />
		<tag k="place" v="locality" />
		<tag k="ssr:stedsnr" v="531970" />
	</node>
	<node lat="69.94934166446518" lon="21.008649966394273" id="-98038">
		<tag k="name" v="Grunneset" />
		<tag k="natural" v="cape" />
		<tag k="ssr:stedsnr" v="686580" />
	</node>
	<node lat="69.95735277941164" lon="21.076680525935263" id="-98054">
		<tag k="name" v="Forradalsneset" />
		<tag k="natural" v="cape" />
		<tag k="ssr:stedsnr" v="539237" />
	</node>
	<node lat="69.83085277701288" lon="21.184922194925107" id="-98056">
		<tag k="fixme" v="multiple name tags, choose one and add the other to alt_name" />
		<tag k="name" v="Storsandneset;Sandneset" />
		<tag k="natural" v="cape" />
		<tag k="ssr:stedsnr" v="686754" />
	</node>
	<node lat="69.83742222450162" lon="20.942602761410665" id="-98062">
		<tag k="name" v="Skjellneset" />
		<tag k="natural" v="cape" />
		<tag k="ssr:stedsnr" v="539405" />
	</node>
	<node lat="69.8757861143372" lon="21.194644422847304" id="-98065">
		<tag k="name" v="Lilleneset" />
		<tag k="natural" v="cape" />
		<tag k="ssr:stedsnr" v="539769" />
	</node>
	<node lat="69.8207888868381" lon="20.905788877492032" id="-98079">
		<tag k="alt_name" v="Sokkelvika, in" />
		<tag k="name" v="Indre Sokkelvik" />
		<tag k="natural" v="bay" />
		<tag k="old_name" v="Sokkelvika" />
		<tag k="ssr:stedsnr" v="686984" />
	</node>
	<node lat="69.91225277486467" lon="20.969138869381222" id="-98095">
		<tag k="name" v="Langneset" />
		<tag k="natural" v="cape" />
		<tag k="ssr:stedsnr" v="687532" />
	</node>
	<node lat="69.894433333992" lon="20.819702764092398" id="-98097">
		<tag k="name" v="Trollvika" />
		<tag k="natural" v="bay" />
		<tag k="ssr:stedsnr" v="687458" />
	</node>
	<node lat="69.92376110871602" lon="21.109422207309226" id="-98100">
		<tag k="bay" v="fjord" />
		<tag k="name" v="Reisafjorden - Ráisavuotna - Raisinvuono" />
		<tag k="name:fkv" v="Raisinvuono" />
		<tag k="name:no" v="Reisafjorden" />
		<tag k="name:se" v="Ráisavuotna" />
		<tag k="natural" v="bay" />
		<tag k="ssr:stedsnr" v="687462" />
	</node>
	<node lat="69.87494999825932" lon="21.05614719968859" id="-98105">
		<tag k="name" v="Stornesbukta" />
		<tag k="natural" v="bay" />
		<tag k="ssr:stedsnr" v="687827" />
	</node>
	<node lat="69.89561666731153" lon="21.18888330726975" id="-98106">
		<tag k="name" v="Manneset" />
		<tag k="natural" v="cape" />
		<tag k="ssr:stedsnr" v="687855" />
	</node>
	<node lat="69.81997499643174" lon="20.911144419493844" id="-98117">
		<tag k="name" v="Hjellneset" />
		<tag k="natural" v="cape" />
		<tag k="ssr:stedsnr" v="687962" />
	</node>
	<node lat="69.8410305594642" lon="21.157213861329492" id="-98128">
		<tag k="name" v="Storbukta" />
		<tag k="natural" v="bay" />
		<tag k="ssr:stedsnr" v="564768" />
	</node>
	<node lat="69.84450277549217" lon="20.495333302250284" id="-98147">
		<tag k="name" v="Brottet" />
		<tag k="place" v="locality" />
		<tag k="seamark:type" v="rock" />
		<tag k="ssr:stedsnr" v="692744" />
	</node>
	<node lat="69.87318888624158" lon="21.190244413611108" id="-98150">
		<tag k="name" v="Straumfjordneset" />
		<tag k="natural" v="cape" />
		<tag k="ssr:stedsnr" v="591967" />
	</node>
	<node lat="69.85468333581494" lon="21.180008307952118" id="-98153">
		<tag k="name" v="Vindneset" />
		<tag k="natural" v="cape" />
		<tag k="ssr:stedsnr" v="599301" />
	</node>
	<node lat="69.87868333201568" lon="21.18474718446323" id="-98161">
		<tag k="name" v="Fallneset" />
		<tag k="natural" v="cape" />
		<tag k="ssr:stedsnr" v="599803" />
	</node>
	<node lat="69.83339444690309" lon="20.780511098180018" id="-98166">
		<tag k="name" v="Gamselokta" />
		<tag k="name:se" v="Gamselokta" />
		<tag k="natural" v="bay" />
		<tag k="ssr:stedsnr" v="600199" />
	</node>
	<node lat="69.87779444392066" lon="21.12298607414615" id="-98176">
		<tag k="loc_name:se" v="Geađgemohkki" />
		<tag k="name" v="Steinsvika" />
		<tag k="name:no" v="Steinsvika" />
		<tag k="natural" v="bay" />
		<tag k="ssr:stedsnr" v="613843" />
	</node>
	<node lat="69.90031389079975" lon="21.29126385549975" id="-98196">
		<tag k="alt_name" v="Hamnebukt" />
		<tag k="name" v="Hamnebukta" />
		<tag k="natural" v="bay" />
		<tag k="ssr:stedsnr" v="626856" />
	</node>
	<node lat="69.89952778148388" lon="21.233008309770792" id="-98197">
		<tag k="fixme" v="multiple name tags, choose one and add the other to alt_name" />
		<tag k="name" v="Farkebukta;Storbukta" />
		<tag k="natural" v="bay" />
		<tag k="ssr:stedsnr" v="626858" />
	</node>
	<node lat="69.86473888640633" lon="20.749599966895083" id="-98207">
		<tag k="name" v="Mellavika" />
		<tag k="natural" v="bay" />
		<tag k="ssr:stedsnr" v="661033" />
	</node>
	<node lat="69.85379722442923" lon="20.774341642325258" id="-98231">
		<tag k="fixme" v="multiple name tags, choose one and add the other to alt_name" />
		<tag k="name" v="Larsbukta;Ravelseidbukta" />
		<tag k="natural" v="bay" />
		<tag k="ssr:stedsnr" v="686538" />
	</node>
	<node lat="69.93521666901985" lon="20.97683332013358" id="-98232">
		<tag k="name" v="Selbuvika" />
		<tag k="natural" v="bay" />
		<tag k="ssr:stedsnr" v="686591" />
	</node>
	<node lat="69.85205277741714" lon="20.93174165282794" id="-98251">
		<tag k="loc_name:fkv" v="Ponnikkalahti" />
		<tag k="loc_name:se" v="Bonnetmohkki" />
		<tag k="name" v="Bonnikabukta" />
		<tag k="name:no" v="Bonnikabukta" />
		<tag k="natural" v="bay" />
		<tag k="ssr:stedsnr" v="895634" />
	</node>
	<node lat="69.87558889253886" lon="21.045158313457474" id="-98253">
		<tag k="name" v="Storneshamna" />
		<tag k="natural" v="bay" />
		<tag k="ssr:stedsnr" v="895680" />
	</node>
	<node lat="69.87895277788319" lon="21.174669422015075" id="-98266">
		<tag k="name" v="Rundbukta" />
		<tag k="natural" v="bay" />
		<tag k="ssr:stedsnr" v="721731" />
	</node>
	<node lat="69.90025833926921" lon="21.280444409907428" id="-98269">
		<tag k="name" v="Dyrneset" />
		<tag k="natural" v="cape" />
		<tag k="ssr:stedsnr" v="722916" />
	</node>
	<node lat="69.8999833318989" lon="21.306199961217327" id="-98272">
		<tag k="name" v="Leirvågen" />
		<tag k="natural" v="bay" />
		<tag k="ssr:stedsnr" v="722922" />
	</node>
	<node lat="69.77131667181311" lon="20.554508307159892" id="-98277">
		<tag k="name" v="Skittehollet" />
		<tag k="natural" v="bay" />
		<tag k="ssr:stedsnr" v="903236" />
	</node>
	<node lat="69.87348611224326" lon="21.0346583031476" id="-98286">
		<tag k="name" v="Fyrneset" />
		<tag k="natural" v="cape" />
		<tag k="ssr:stedsnr" v="903699" />
	</node>
	<node lat="69.87143888745965" lon="21.047152742466306" id="-98289">
		<tag k="name" v="Eidet" />
		<tag k="place" v="locality" />
		<tag k="ssr:stedsnr" v="903698" />
	</node>
	<node lat="69.87618888718893" lon="21.186208307177456" id="-98292">
		<tag k="name" v="Fallneset" />
		<tag k="natural" v="cape" />
		<tag k="ssr:stedsnr" v="903779" />
	</node>
	<node lat="69.83329166765147" lon="20.516994425960917" id="-98293">
		<tag k="name" v="Russeneset" />
		<tag k="natural" v="cape" />
		<tag k="ssr:stedsnr" v="903743" />
	</node>
	<node lat="69.86739166569413" lon="20.749202764909533" id="-98321">
		<tag k="name" v="Steffenhamna" />
		<tag k="natural" v="bay" />
		<tag k="ssr:stedsnr" v="904027" />
	</node>
	<node lat="69.87794444439217" lon="21.19625274214408" id="-98328">
		<tag k="name" v="Straumen" />
		<tag k="natural" v="strait" />
		<tag k="ssr:stedsnr" v="228965" />
	</node>
	<node lat="69.81863333546568" lon="20.91598053005538" id="-98354">
		<tag k="fixme" v="consider seamark:type=rock or natural=shoal" />
		<tag k="name" v="Skjæret" />
		<tag k="place" v="islet" />
		<tag k="ssr:stedsnr" v="782305" />
	</node>
	<node lat="69.92580000172258" lon="20.912627756787767" id="-98355">
		<tag k="name" v="Leirbukta" />
		<tag k="natural" v="bay" />
		<tag k="ssr:stedsnr" v="782661" />
	</node>
	<node lat="69.91969722675574" lon="20.992980542385" id="-98356">
		<tag k="fixme" v="consider seamark:type=rock or natural=shoal" />
		<tag k="name" v="Holmeskjæret" />
		<tag k="place" v="islet" />
		<tag k="ssr:stedsnr" v="782697" />
	</node>
	<node lat="69.84596666827551" lon="20.93722220533725" id="-98369">
		<tag k="alt_name:no" v="Kvalvika" />
		<tag k="loc_name:se" v="Bossoluokta" />
		<tag k="name" v="Kvalbukta" />
		<tag k="name:no" v="Kvalbukta" />
		<tag k="natural" v="bay" />
		<tag k="ssr:stedsnr" v="808505" />
	</node>
	<node lat="69.86815833204874" lon="20.91291943135289" id="-98371">
		<tag k="name" v="Seljeholmen" />
		<tag k="place" v="islet" />
		<tag k="ssr:stedsnr" v="808487" />
	</node>
	<node lat="69.81340555285269" lon="20.990677738957796" id="-98391">
		<tag k="name" v="Ytterbukta" />
		<tag k="natural" v="bay" />
		<tag k="ssr:stedsnr" v="843728" />
	</node>
	<node lat="69.92922777874625" lon="21.01524719104748" id="-98428">
		<tag k="alt_name" v="Trollbukta" />
		<tag k="name" v="Trollvika" />
		<tag k="natural" v="bay" />
		<tag k="ssr:stedsnr" v="929556" />
	</node>
	<node lat="69.95744444340916" lon="21.076844414497568" id="-98429">
		<tag k="loc_name:se" v="Márnjárga" />
		<tag k="name" v="Maurneset" />
		<tag k="name:no" v="Maurneset" />
		<tag k="place" v="locality" />
		<tag k="ssr:stedsnr" v="929557" />
	</node>
	<node lat="69.84446388778757" lon="20.789263855964577" id="-98468">
		<tag k="alt_name" v="Eidbukta" />
		<tag k="name" v="Eidebukta" />
		<tag k="natural" v="bay" />
		<tag k="ssr:stedsnr" v="929991" />
	</node>
	<node lat="69.93368889236692" lon="21.030874981921208" id="-98515">
		<tag k="name" v="Finnbybergan" />
		<tag k="natural" v="cape" />
		<tag k="ssr:stedsnr" v="895801" />
	</node>
	<node lat="69.96130277435196" lon="21.204958303580025" id="-98522">
		<tag k="name" v="Innerklubben" />
		<tag k="natural" v="cape" />
		<tag k="ssr:stedsnr" v="903273" />
	</node>
	<node lat="69.79375000208509" lon="20.939374985263683" id="-98525">
		<tag k="name" v="Hamna" />
		<tag k="natural" v="bay" />
		<tag k="ssr:stedsnr" v="903372" />
	</node>
	<node lat="69.91328888758359" lon="21.317536088463406" id="-98535">
		<tag k="name" v="Styrmannstjønna" />
		<tag k="natural" v="bay" />
		<tag k="ssr:stedsnr" v="904918" />
	</node>
	<node lat="69.87947222703929" lon="21.13461386242398" id="-98542">
		<tag k="name" v="Lillebukta" />
		<tag k="natural" v="bay" />
		<tag k="ssr:stedsnr" v="916787" />
	</node>
	<node lat="69.76990555627013" lon="20.552855525541656" id="-98565">
		<tag k="alt_name" v="Sennarneset" />
		<tag k="name" v="Sennaneset" />
		<tag k="natural" v="cape" />
		<tag k="ssr:stedsnr" v="935853" />
	</node>
	<node lat="69.96564722393548" lon="21.07482775745109" id="-98567">
		<tag k="name" v="Maurnesgrunnen" />
		<tag k="natural" v="shoal" />
		<tag k="place" v="locality" />
		<tag k="ssr:stedsnr" v="955818" />
	</node>
	<node lat="69.9206916630234" lon="20.9865333139953" id="-98583">
		<tag k="name" v="Smibukta" />
		<tag k="natural" v="bay" />
		<tag k="ssr:stedsnr" v="964707" />
	</node>
	<node lat="69.8396638872828" lon="21.15006109499567" id="-98585">
		<tag k="name" v="Vedneset" />
		<tag k="natural" v="cape" />
		<tag k="ssr:stedsnr" v="964993" />
	</node>
	<node lat="69.91768055688625" lon="21.26316663524666" id="-98589">
		<tag k="name" v="Oksfjordhamn" />
		<tag k="natural" v="bay" />
		<tag k="ssr:stedsnr" v="965936" />
	</node>
	<node lat="69.92502221891101" lon="21.002949984266102" id="-98626">
		<tag k="name" v="Hestevika" />
		<tag k="natural" v="bay" />
		<tag k="ssr:stedsnr" v="19522" />
	</node>
	<node lat="69.77355555669175" lon="20.53204441643441" id="-98647">
		<tag k="alt_name" v="Skogholmen, store" />
		<tag k="fixme" v="multiple name tags, choose one and add the other to alt_name" />
		<tag k="name" v="Skogholmen;Store Skogholmen" />
		<tag k="place" v="islet" />
		<tag k="ssr:stedsnr" v="19924" />
	</node>
	<node lat="69.84293055531843" lon="20.949452754769283" id="-98657">
		<tag k="name" v="Okseneset" />
		<tag k="natural" v="cape" />
		<tag k="ssr:stedsnr" v="19998" />
	</node>
	<node lat="69.87521111279035" lon="20.7414527575957" id="-98658">
		<tag k="name" v="Sandestøen" />
		<tag k="natural" v="shoal" />
		<tag k="place" v="locality" />
		<tag k="ssr:stedsnr" v="24756" />
	</node>
	<node lat="69.79255833475463" lon="21.012502758565674" id="-98659">
		<tag k="fixme" v="multiple name tags, choose one and add the other to alt_name" />
		<tag k="name" v="Dorras;Dorrasnasen" />
		<tag k="natural" v="cape" />
		<tag k="ssr:stedsnr" v="45596" />
	</node>
	<node lat="69.8125111105261" lon="20.993924985129187" id="-98661">
		<tag k="name" v="Lessiniemi" />
		<tag k="name:fkv" v="Lessiniemi" />
		<tag k="natural" v="cape" />
		<tag k="ssr:stedsnr" v="45600" />
	</node>
	<node lat="69.7870833346629" lon="20.567661084565554" id="-98662">
		<tag k="name" v="Hamnneset - Gárgu" />
		<tag k="name:no" v="Hamnneset" />
		<tag k="name:se" v="Gárgu" />
		<tag k="natural" v="cape" />
		<tag k="ssr:stedsnr" v="45718" />
	</node>
	<node lat="69.95603888486265" lon="21.026169425034762" id="-98663">
		<tag k="loc_name:se" v="Dimbbarnjárga" />
		<tag k="name" v="Tømmerneset" />
		<tag k="name:no" v="Tømmerneset" />
		<tag k="natural" v="cape" />
		<tag k="ssr:stedsnr" v="45800" />
	</node>
	<node lat="69.85117777833004" lon="20.940483315410845" id="-98684">
		<tag k="name" v="Brennesbukta" />
		<tag k="natural" v="bay" />
		<tag k="ssr:stedsnr" v="54455" />
	</node>
	<node lat="69.82211944757854" lon="21.132374976623908" id="-98691">
		<tag k="name" v="Dangasbukta" />
		<tag k="natural" v="bay" />
		<tag k="ssr:stedsnr" v="54896" />
	</node>
	<node lat="69.91923888996581" lon="20.978730535082853" id="-98693">
		<tag k="fixme" v="consider seamark:type=rock or natural=shoal" />
		<tag k="name" v="Småskjæran" />
		<tag k="place" v="islet" />
		<tag k="ssr:stedsnr" v="54733" />
	</node>
	<node lat="69.78926111049174" lon="21.02688886958697" id="-98725">
		<tag k="alt_name" v="Kippernes" />
		<tag k="name" v="Kipperneset" />
		<tag k="natural" v="cape" />
		<tag k="ssr:stedsnr" v="80219" />
	</node>
	<node lat="69.91941111197276" lon="20.981733310834294" id="-98750">
		<tag k="name" v="Utleira" />
		<tag k="natural" v="bay" />
		<tag k="ssr:stedsnr" v="80547" />
	</node>
	<node lat="69.84586944931812" lon="20.749174984323165" id="-98773">
		<tag k="alt_name:no" v="Rottsund" />
		<tag k="alt_name:se" v="Ulinuorri" />
		<tag k="name" v="Rotsundet - Guohcanuorri - Nuora" />
		<tag k="name:fkv" v="Nuora" />
		<tag k="name:no" v="Rotsundet" />
		<tag k="name:se" v="Guohcanuorri" />
		<tag k="natural" v="strait" />
		<tag k="old_name:se" v="Gárggonuorri" />
		<tag k="ssr:stedsnr" v="80972" />
	</node>
	<node lat="69.82257499666449" lon="20.90697497292549" id="-98779">
		<tag k="name" v="Indre Sokkelvika" />
		<tag k="natural" v="bay" />
		<tag k="ssr:stedsnr" v="89357" />
	</node>
	<node lat="69.8401972245993" lon="20.93089443553296" id="-98788">
		<tag k="name" v="Eidet" />
		<tag k="place" v="locality" />
		<tag k="ssr:stedsnr" v="114471" />
	</node>
	<node lat="69.87311944426587" lon="21.20516662932711" id="-98807">
		<tag k="name" v="Diket" />
		<tag k="natural" v="cape" />
		<tag k="ssr:stedsnr" v="115766" />
	</node>
	<node lat="69.8794111105323" lon="21.132424961259694" id="-98808">
		<tag k="name" v="Burneset" />
		<tag k="natural" v="cape" />
		<tag k="ssr:stedsnr" v="115843" />
	</node>
	<node lat="69.8310944459797" lon="21.145972197073455" id="-98809">
		<tag k="name" v="Løkneset" />
		<tag k="natural" v="cape" />
		<tag k="ssr:stedsnr" v="115864" />
	</node>
	<node lat="69.83195833241781" lon="21.150291631730745" id="-98810">
		<tag k="name" v="Kobbesveiva" />
		<tag k="natural" v="cape" />
		<tag k="ssr:stedsnr" v="115865" />
	</node>
	<node lat="69.87840000231672" lon="21.101449979323696" id="-98819">
		<tag k="name" v="Fallvika" />
		<tag k="natural" v="bay" />
		<tag k="ssr:stedsnr" v="127858" />
	</node>
	<node lat="69.79322777883779" lon="21.036499968076757" id="-98835">
		<tag k="loc_name:se" v="Bollu" />
		<tag k="name" v="Pollen - Pollo" />
		<tag k="name:fkv" v="Pollo" />
		<tag k="name:no" v="Pollen" />
		<tag k="natural" v="bay" />
		<tag k="ssr:stedsnr" v="140181" />
	</node>
	<node lat="69.83643889298877" lon="21.154613871386978" id="-98867">
		<tag k="name" v="Holmeneset" />
		<tag k="natural" v="cape" />
		<tag k="ssr:stedsnr" v="140765" />
	</node>
	<node lat="69.77324722148964" lon="20.524999974278934" id="-98882">
		<tag k="alt_name" v="Skogholmen, l" />
		<tag k="fixme" v="multiple name tags, choose one and add the other to alt_name" />
		<tag k="name" v="Lilleholmen;Lille Skogholmen" />
		<tag k="place" v="islet" />
		<tag k="ssr:stedsnr" v="140931" />
	</node>
	<node lat="69.86095555252327" lon="21.191149971421112" id="-98891">
		<tag k="name" v="Hestnesbukta" />
		<tag k="natural" v="bay" />
		<tag k="ssr:stedsnr" v="175311" />
	</node>
	<node lat="69.87209444702476" lon="21.199191634333967" id="-98905">
		<tag k="fixme" v="consider seamark:type=rock or natural=shoal" />
		<tag k="name" v="Skarveskjæret" />
		<tag k="place" v="islet" />
		<tag k="ssr:stedsnr" v="175788" />
	</node>
	<node lat="69.91608888636078" lon="20.96795831261367" id="-98910">
		<tag k="name" v="Leirosholman" />
		<tag k="place" v="islet" />
		<tag k="ssr:stedsnr" v="175747" />
	</node>
	<node lat="69.84022222671528" lon="21.208511089651534" id="-98917">
		<tag k="name" v="Fossneset" />
		<tag k="natural" v="cape" />
		<tag k="ssr:stedsnr" v="175998" />
	</node>
	<node lat="69.90169167155048" lon="21.21660552750693" id="-98927">
		<tag k="name" v="Monsneset" />
		<tag k="natural" v="cape" />
		<tag k="ssr:stedsnr" v="176894" />
	</node>
	<node lat="69.77967777947062" lon="20.382683316093747" id="-98937">
		<tag k="alt_name:no" v="Lyngenfjorden" />
		<tag k="bay" v="fjord" />
		<tag k="name" v="Lyngen - Ivguvuotna - Yykeänvuono" />
		<tag k="name:fkv" v="Yykeänvuono" />
		<tag k="name:no" v="Lyngen" />
		<tag k="name:se" v="Ivguvuotna" />
		<tag k="natural" v="bay" />
		<tag k="ssr:stedsnr" v="200243" />
	</node>
	<node lat="69.9353888900421" lon="20.951722196278382" id="-98950">
		<tag k="name" v="Pallen" />
		<tag k="natural" v="shoal" />
		<tag k="place" v="locality" />
		<tag k="ssr:stedsnr" v="201545" />
	</node>
	<node lat="69.93896388581958" lon="21.049805522777156" id="-98993">
		<tag k="fixme" v="multiple name tags, choose one and add the other to alt_name" />
		<tag k="loc_name:se" v="Givggasnjárga" />
		<tag k="name" v="Finnbyneset;Geokkasneset" />
		<tag k="name:no" v="Finnbyneset;Geokkasneset" />
		<tag k="natural" v="cape" />
		<tag k="ssr:stedsnr" v="201856" />
	</node>
	<node lat="69.90197222744439" lon="21.19997219174839" id="-99004">
		<tag k="loc_name:se" v="Beaski" />
		<tag k="name" v="Klubbenes" />
		<tag k="name:no" v="Klubbenes" />
		<tag k="natural" v="cape" />
		<tag k="ssr:stedsnr" v="201829" />
	</node>
	<node lat="69.80686111496442" lon="20.741408314385193" id="-99021">
		<tag k="name" v="Mattisneset" />
		<tag k="natural" v="cape" />
		<tag k="ssr:stedsnr" v="207804" />
	</node>
	<node lat="69.86089999749599" lon="20.875966641429507" id="-99023">
		<tag k="loc_name:se" v="Márisiidanjárga" />
		<tag k="name" v="Marsitneset" />
		<tag k="name:no" v="Marsitneset" />
		<tag k="natural" v="cape" />
		<tag k="ssr:stedsnr" v="227637" />
	</node>
	<node lat="69.81442777929993" lon="20.91859441015859" id="-99024">
		<tag k="alt_name:no" v="Davisitneset" />
		<tag k="loc_name:se" v="Davvesiidnjárga" />
		<tag k="name" v="Davvisiidineset" />
		<tag k="name:no" v="Davvisiidineset" />
		<tag k="natural" v="cape" />
		<tag k="ssr:stedsnr" v="227629" />
	</node>
	<node lat="69.92246944927976" lon="20.89118608181782" id="-99025">
		<tag k="alt_name:no" v="Håkjerringbergan" />
		<tag k="loc_name:se" v="Áhkášbákti" />
		<tag k="name" v="Håkjerringberget" />
		<tag k="name:no" v="Håkjerringberget" />
		<tag k="natural" v="cape" />
		<tag k="ssr:stedsnr" v="227765" />
	</node>
	<node lat="69.80788333467076" lon="20.991641641004563" id="-99027">
		<tag k="name" v="Nordkjosen" />
		<tag k="natural" v="bay" />
		<tag k="ssr:stedsnr" v="288588" />
	</node>
	<node lat="69.85130833606635" lon="20.881227767897737" id="-99028">
		<tag k="loc_name:se" v="Láhtenjárga" />
		<tag k="name" v="Latterneset" />
		<tag k="name:no" v="Latterneset" />
		<tag k="natural" v="cape" />
		<tag k="ssr:stedsnr" v="288614" />
	</node>
	<node lat="69.87421944632497" lon="21.039399983781966" id="-99029">
		<tag k="name" v="Storneset" />
		<tag k="natural" v="cape" />
		<tag k="ssr:stedsnr" v="288670" />
	</node>
	<node lat="69.92699444121688" lon="21.009608307121226" id="-99030">
		<tag k="name" v="Trollbergan" />
		<tag k="natural" v="cape" />
		<tag k="ssr:stedsnr" v="289838" />
	</node>
	<node lat="69.89483333512094" lon="21.185722184220886" id="-99044">
		<tag k="name" v="Manneskeila" />
		<tag k="natural" v="bay" />
		<tag k="ssr:stedsnr" v="296259" />
	</node>
	<node lat="69.8004638893729" lon="21.02626108859168" id="-99057">
		<tag k="name" v="Lanangarko" />
		<tag k="name:fkv" v="Lanangarko" />
		<tag k="natural" v="cape" />
		<tag k="ssr:stedsnr" v="296694" />
	</node>
	<node lat="69.94246944797136" lon="21.067405527796154" id="-99063">
		<tag k="loc_name:se" v="Dorskenjárga" />
		<tag k="name" v="Torskeneset" />
		<tag k="name:no" v="Torskeneset" />
		<tag k="natural" v="cape" />
		<tag k="ssr:stedsnr" v="296866" />
	</node>
	<node lat="69.82577777827476" lon="21.132919416861267" id="-99077">
		<tag k="name" v="Langnesbukta" />
		<tag k="natural" v="bay" />
		<tag k="ssr:stedsnr" v="298000" />
	</node>
	<node lat="69.97607222361319" lon="21.20962219227529" id="-99097">
		<tag k="alt_name:no" v="Indre Avløysinga" />
		<tag k="fixme" v="multiple name tags, choose one and add the other to alt_name" />
		<tag k="loc_name:se" v="Basbeaski" />
		<tag k="name" v="Avløysinga;Pesken" />
		<tag k="name:no" v="Avløysinga;Pesken" />
		<tag k="natural" v="cape" />
		<tag k="ssr:stedsnr" v="322870" />
	</node>
	<node lat="69.85517222665253" lon="20.81002775132642" id="-99103">
		<tag k="loc_name:se" v="Soakkuvuonmuorki" />
		<tag k="name" v="Ravelseidet" />
		<tag k="name:no" v="Ravelseidet" />
		<tag k="place" v="locality" />
		<tag k="ssr:stedsnr" v="322517" />
	</node>
	<node lat="69.85330000316912" lon="20.932463876538627" id="-99104">
		<tag k="loc_name:fkv" v="Ponnikkasaari" />
		<tag k="name" v="Bonnikaholmen - Bonnetsuolu" />
		<tag k="name:no" v="Bonnikaholmen" />
		<tag k="name:se" v="Bonnetsuolu" />
		<tag k="place" v="islet" />
		<tag k="ssr:stedsnr" v="322523" />
	</node>
	<node lat="69.82753611163693" lon="21.13294996921354" id="-99120">
		<tag k="fixme" v="multiple name tags, choose one and add the other to alt_name" />
		<tag k="name" v="Laukvollneset;Langneset" />
		<tag k="natural" v="cape" />
		<tag k="ssr:stedsnr" v="322740" />
	</node>
	<node lat="69.94845833169036" lon="21.07254441568158" id="-99134">
		<tag k="loc_name:se" v="Hánaluokta" />
		<tag k="name" v="Seglnesbukta" />
		<tag k="name:no" v="Seglnesbukta" />
		<tag k="natural" v="bay" />
		<tag k="ssr:stedsnr" v="322887" />
	</node>
	<node lat="69.84471388781931" lon="21.099441652251148" id="-99151">
		<tag k="name" v="Reašnjárga" />
		<tag k="name:se" v="Reašnjárga" />
		<tag k="natural" v="cape" />
		<tag k="old_name:se" v="Reašnjarga;Reasnjarga" />
		<tag k="ssr:stedsnr" v="323784" />
	</node>
	<node lat="69.84389166816115" lon="20.517166658057114" id="-99158">
		<tag k="fixme" v="consider seamark:type=rock or natural=shoal" />
		<tag k="name" v="Lilleskjæret" />
		<tag k="place" v="islet" />
		<tag k="ssr:stedsnr" v="328737" />
	</node>
	<node lat="69.91940833064498" lon="20.873116635013798" id="-99162">
		<tag k="name" v="Molteneset" />
		<tag k="natural" v="cape" />
		<tag k="ssr:stedsnr" v="348750" />
	</node>
	<node lat="69.91554166773949" lon="20.963355533550743" id="-99237">
		<tag k="name" v="Leirosen" />
		<tag k="natural" v="bay" />
		<tag k="ssr:stedsnr" v="383561" />
	</node>
	<node lat="69.81955277941381" lon="21.154358304062292" id="-99247">
		<tag k="alt_name" v="Litlesandneset;Lillesandnes" />
		<tag k="name" v="Lillesandneset" />
		<tag k="natural" v="cape" />
		<tag k="ssr:stedsnr" v="383769" />
	</node>
	<node lat="69.84379722094548" lon="21.042741641473572" id="-99252">
		<tag k="name" v="Storvika - Isolahti" />
		<tag k="name:fkv" v="Isolahti" />
		<tag k="name:no" v="Storvika" />
		<tag k="natural" v="bay" />
		<tag k="ssr:stedsnr" v="383788" />
	</node>
	<node lat="69.88911111109059" lon="21.217558318554044" id="-99255">
		<tag k="name" v="Vuošnjárga" />
		<tag k="name:se" v="Vuošnjárga" />
		<tag k="natural" v="cape" />
		<tag k="old_name:se" v="Vuošnjarga" />
		<tag k="ssr:stedsnr" v="383850" />
	</node>
	<node lat="69.83124721861616" lon="20.909069425365615" id="-99272">
		<tag k="alt_name" v="Sokkelvika, yt" />
		<tag k="fixme" v="multiple name tags, choose one and add the other to alt_name" />
		<tag k="name" v="Sokkelvika;Ytre Sokkelvika" />
		<tag k="natural" v="bay" />
		<tag k="ssr:stedsnr" v="383995" />
	</node>
	<node lat="69.79203889078748" lon="20.69196943152837" id="-99274">
		<tag k="name" v="Elveøra" />
		<tag k="natural" v="bay" />
		<tag k="ssr:stedsnr" v="388144" />
	</node>
	<node lat="69.76494722600607" lon="20.484722219080925" id="-99275">
		<tag k="name" v="Stranda" />
		<tag k="natural" v="beach" />
		<tag k="ssr:stedsnr" v="388838" />
	</node>
	<node lat="69.86191944446755" lon="21.028680534786673" id="-99280">
		<tag k="name" v="Sørenstøa" />
		<tag k="natural" v="bay" />
		<tag k="ssr:stedsnr" v="409690" />
	</node>
	<node lat="69.84908055897397" lon="20.945483302513754" id="-99281">
		<tag k="name" v="Bosolobåen" />
		<tag k="place" v="locality" />
		<tag k="seamark:type" v="rock" />
		<tag k="ssr:stedsnr" v="410662" />
	</node>
	<node lat="69.9020749999014" lon="21.21157496062292" id="-99288">
		<tag k="name" v="Klubbeneshamna" />
		<tag k="natural" v="bay" />
		<tag k="ssr:stedsnr" v="418278" />
	</node>
	<node lat="69.80409721916696" lon="21.015833319498405" id="-99299">
		<tag k="name" v="Harangarko" />
		<tag k="name:fkv" v="Harangarko" />
		<tag k="natural" v="cape" />
		<tag k="ssr:stedsnr" v="418683" />
	</node>
	<node lat="69.92683611201808" lon="21.009372203113735" id="-99302">
		<tag k="name" v="Trollbergodden" />
		<tag k="natural" v="cape" />
		<tag k="ssr:stedsnr" v="418710" />
	</node>
	<node lat="69.94206944801785" lon="20.994044424466683" id="-99303">
		<tag k="name" v="Mikkelvika" />
		<tag k="natural" v="bay" />
		<tag k="ssr:stedsnr" v="418711" />
	</node>
	<node lat="69.93781389293913" lon="21.049288878503635" id="-99323">
		<tag k="name" v="Bryggeneset" />
		<tag k="natural" v="cape" />
		<tag k="ssr:stedsnr" v="419736" />
	</node>
	<node lat="69.87955833670827" lon="21.17032498852611" id="-99330">
		<tag k="name" v="Langbukta" />
		<tag k="natural" v="bay" />
		<tag k="ssr:stedsnr" v="431784" />
	</node>
	<node lat="69.79144999636833" lon="21.088036089885783" id="-99354">
		<tag k="name" v="Straumfjordeidet" />
		<tag k="place" v="locality" />
		<tag k="ssr:stedsnr" v="444174" />
	</node>
	<node lat="69.872361116029" lon="20.7558610894068" id="-99358">
		<tag k="alt_name" v="Kollgryta" />
		<tag k="name" v="Kolgryta" />
		<tag k="natural" v="beach" />
		<tag k="ssr:stedsnr" v="444489" />
	</node>
	<node lat="69.93122777942858" lon="20.95858054476105" id="-99366">
		<tag k="name" v="Storhamna" />
		<tag k="natural" v="bay" />
		<tag k="ssr:stedsnr" v="444569" />
	</node>
	<node lat="69.88015277587293" lon="21.146808305145857" id="-99372">
		<tag k="name" v="Perneset" />
		<tag k="natural" v="cape" />
		<tag k="ssr:stedsnr" v="444818" />
	</node>
	<node lat="69.9431027802699" lon="21.195138872386924" id="-99375">
		<tag k="fixme" v="multiple name tags, choose one and add the other to alt_name" />
		<tag k="name" v="Knevika;Knevikbukta" />
		<tag k="natural" v="bay" />
		<tag k="ssr:stedsnr" v="444882" />
	</node>
	<node lat="69.85774167049627" lon="20.88652497287272" id="-99402">
		<tag k="bay" v="fjord" />
		<tag k="loc_name:se" v="Soakkuvuonna;Soakkuvuotna" />
		<tag k="name" v="Bakkebyfjorden - Sokkuvuono" />
		<tag k="name:fkv" v="Sokkuvuono" />
		<tag k="name:no" v="Bakkebyfjorden" />
		<tag k="natural" v="bay" />
		<tag k="ssr:stedsnr" v="504534" />
	</node>
	<node lat="69.8443361102222" lon="20.944586089128613" id="-99424">
		<tag k="name" v="Eggeneset" />
		<tag k="natural" v="cape" />
		<tag k="ssr:stedsnr" v="504989" />
	</node>
	<node lat="69.87829444186086" lon="20.73487774525625" id="-99434">
		<tag k="name" v="Ryggen" />
		<tag k="natural" v="shoal" />
		<tag k="place" v="locality" />
		<tag k="ssr:stedsnr" v="510784" />
	</node>
	<node lat="69.79819722519139" lon="20.538944420475993" id="-99435">
		<tag k="name" v="Laneset" />
		<tag k="natural" v="cape" />
		<tag k="ssr:stedsnr" v="510884" />
	</node>
	<node lat="69.89340555456485" lon="20.81348054122311" id="-99438">
		<tag k="name" v="Kjerringa" />
		<tag k="natural" v="cape" />
		<tag k="ssr:stedsnr" v="530764" />
	</node>
	<node lat="69.95365022372799" lon="21.021037747473287" id="-99440">
		<tag k="name" v="Tømmernesbukta" />
		<tag k="natural" v="bay" />
		<tag k="ssr:stedsnr" v="535149" />
	</node>
	<node lat="69.92971666970232" lon="20.955744415879316" id="-99441">
		<tag k="name" v="Lillehamna" />
		<tag k="natural" v="bay" />
		<tag k="ssr:stedsnr" v="535151" />
	</node>
	<node lat="69.79266944395955" lon="20.95431941336123" id="-99446">
		<tag k="name" v="Neset" />
		<tag k="natural" v="cape" />
		<tag k="ssr:stedsnr" v="539325" />
	</node>
	<node lat="69.828158332446" lon="21.015824979014536" id="-99450">
		<tag k="name" v="Storsanden" />
		<tag k="natural" v="beach" />
		<tag k="ssr:stedsnr" v="539271" />
	</node>
	<node lat="69.83146667107843" lon="21.02497497661023" id="-99451">
		<tag k="name" v="Goddasianeset" />
		<tag k="natural" v="cape" />
		<tag k="ssr:stedsnr" v="539275" />
	</node>
	<node lat="69.88467222639558" lon="20.920638862807742" id="-99459">
		<tag k="name" v="Nollo" />
		<tag k="natural" v="bay" />
		<tag k="ssr:stedsnr" v="539692" />
	</node>
	<node lat="69.91888888773782" lon="20.990552749898114" id="-99460">
		<tag k="name" v="Mattisnesholmen" />
		<tag k="place" v="islet" />
		<tag k="ssr:stedsnr" v="539720" />
	</node>
	<node lat="69.83430556140486" lon="21.154416630430745" id="-99465">
		<tag k="name" v="Bergeneset" />
		<tag k="natural" v="cape" />
		<tag k="ssr:stedsnr" v="539993" />
	</node>
	<node lat="69.87754444832565" lon="21.19189996292648" id="-99468">
		<tag k="name" v="Sørneset - Salaniemi" />
		<tag k="name:fkv" v="Salaniemi" />
		<tag k="name:no" v="Sørneset" />
		<tag k="natural" v="cape" />
		<tag k="ssr:stedsnr" v="540842" />
	</node>
	<node lat="69.89873889196555" lon="20.830433321342475" id="-99521">
		<tag k="alt_name" v="Moldfarvika" />
		<tag k="name" v="Moldforvika" />
		<tag k="natural" v="bay" />
		<tag k="ssr:stedsnr" v="565562" />
	</node>
	<node lat="69.93731111143624" lon="21.044088877018847" id="-99525">
		<tag k="name" v="Finnbybukta" />
		<tag k="natural" v="bay" />
		<tag k="old_name" v="Fynnbybukta" />
		<tag k="ssr:stedsnr" v="565870" />
	</node>
	<node lat="69.81738888978397" lon="20.990547189221633" id="-99527">
		<tag k="name" v="Vindneset" />
		<tag k="natural" v="cape" />
		<tag k="ssr:stedsnr" v="565962" />
	</node>
	<node lat="69.87891388996964" lon="21.12942220059866" id="-99531">
		<tag k="name" v="Steinsneset" />
		<tag k="natural" v="cape" />
		<tag k="ssr:stedsnr" v="565829" />
	</node>
	<node lat="69.82259722341492" lon="20.98558330571312" id="-99541">
		<tag k="name" v="Geitholmen" />
		<tag k="place" v="islet" />
		<tag k="ssr:stedsnr" v="565980" />
	</node>
	<node lat="69.85389722300921" lon="21.04953330922221" id="-99543">
		<tag k="name" v="Skaioritbukta" />
		<tag k="natural" v="bay" />
		<tag k="ssr:stedsnr" v="591696" />
	</node>
	<node lat="69.92275833637171" lon="21.093649983736036" id="-99545">
		<tag k="loc_name:se" v="Nihkocoagis" />
		<tag k="name" v="Nikkolgrunnen" />
		<tag k="name:no" v="Nikkolgrunnen" />
		<tag k="natural" v="shoal" />
		<tag k="place" v="locality" />
		<tag k="ssr:stedsnr" v="591792" />
	</node>
	<node lat="69.79118610846182" lon="20.68248608035036" id="-99547">
		<tag k="name" v="Bukta" />
		<tag k="natural" v="bay" />
		<tag k="ssr:stedsnr" v="599112" />
	</node>
	<node lat="69.85556388625994" lon="20.853727758486748" id="-99550">
		<tag k="name" v="Ravelseidbotn" />
		<tag k="natural" v="bay" />
		<tag k="ssr:stedsnr" v="599097" />
	</node>
	<node lat="69.93959444238322" lon="21.055899980387913" id="-99553">
		<tag k="name" v="Gugas" />
		<tag k="natural" v="bay" />
		<tag k="ssr:stedsnr" v="599270" />
	</node>
	<node lat="69.82988611462147" lon="21.14196108990629" id="-99566">
		<tag k="name" v="Tjeldholmen" />
		<tag k="place" v="islet" />
		<tag k="ssr:stedsnr" v="600875" />
	</node>
	<node lat="69.83866944390603" lon="21.05674998682383" id="-99581">
		<tag k="name" v="Verftebukta" />
		<tag k="natural" v="bay" />
		<tag k="ssr:stedsnr" v="600965" />
	</node>
	<node lat="69.81320555880802" lon="21.133463860862957" id="-99613">
		<tag k="name" v="Russeholmen" />
		<tag k="place" v="islet" />
		<tag k="ssr:stedsnr" v="625780" />
	</node>
	<node lat="69.83810556041057" lon="20.948058315381065" id="-99619">
		<tag k="name" v="Svartneset" />
		<tag k="natural" v="cape" />
		<tag k="ssr:stedsnr" v="625978" />
	</node>
	<node lat="69.86193611024619" lon="20.61643330455511" id="-99622">
		<tag k="name" v="Uløya - Ulisuolu" />
		<tag k="name:no" v="Uløya" />
		<tag k="name:se" v="Ulisuolu" />
		<tag k="old_name:no" v="Uløy" />
		<tag k="place" v="island" />
		<tag k="ssr:stedsnr" v="626536" />
	</node>
	<node lat="69.75937777515185" lon="21.068161075330774" id="-99624">
		<tag k="fixme" v="multiple name tags, choose one and add the other to alt_name" />
		<tag k="name" v="Neset;Jontineset" />
		<tag k="natural" v="cape" />
		<tag k="ssr:stedsnr" v="626237" />
	</node>
	<node lat="69.92083055947316" lon="20.993122209905792" id="-99630">
		<tag k="name" v="Naustneset" />
		<tag k="natural" v="cape" />
		<tag k="ssr:stedsnr" v="626574" />
	</node>
	<node lat="69.87871388571322" lon="21.183177752950645" id="-99634">
		<tag k="name" v="Falla" />
		<tag k="natural" v="bay" />
		<tag k="ssr:stedsnr" v="626834" />
	</node>
	<node lat="69.84718055449216" lon="20.519744421639945" id="-99640">
		<tag k="name" v="Skjærneset" />
		<tag k="natural" v="cape" />
		<tag k="ssr:stedsnr" v="631754" />
	</node>
	<node lat="69.9296722226837" lon="20.957858305134337" id="-99645">
		<tag k="name" v="Masterneset" />
		<tag k="natural" v="cape" />
		<tag k="ssr:stedsnr" v="656156" />
	</node>
	<node lat="69.93056666846957" lon="20.94600276432615" id="-99646">
		<tag k="fixme" v="consider seamark:type=rock or natural=shoal" />
		<tag k="name" v="Lilleøra" />
		<tag k="place" v="islet" />
		<tag k="ssr:stedsnr" v="656159" />
	</node>
	<node lat="69.90298055849503" lon="20.849224973295076" id="-99652">
		<tag k="name" v="Rottenvika" />
		<tag k="natural" v="bay" />
		<tag k="ssr:stedsnr" v="660100" />
	</node>
	<node lat="69.8246249987422" lon="20.903199971001133" id="-99657">
		<tag k="name" v="Bertelneset" />
		<tag k="natural" v="cape" />
		<tag k="ssr:stedsnr" v="660439" />
	</node>
	<node lat="69.87866944806841" lon="21.180136092291864" id="-99662">
		<tag k="name" v="Seglingsmerkebukta" />
		<tag k="natural" v="bay" />
		<tag k="ssr:stedsnr" v="660743" />
	</node>
	<node lat="69.8650333338611" lon="21.193347208254227" id="-99665">
		<tag k="name" v="Hesteneset" />
		<tag k="natural" v="cape" />
		<tag k="ssr:stedsnr" v="660759" />
	</node>
	<node lat="69.84606944804811" lon="20.50673888125218" id="-99666">
		<tag k="name" v="Skjærgrunnen" />
		<tag k="natural" v="shoal" />
		<tag k="place" v="locality" />
		<tag k="ssr:stedsnr" v="660817" />
	</node>
	<node lat="69.8593444456181" lon="21.219524963761998" id="-99683">
		<tag k="name" v="Valklubben" />
		<tag k="natural" v="cape" />
		<tag k="ssr:stedsnr" v="661926" />
	</node>
	<node lat="69.77951731234822" lon="21.003902516245194" id="-99688">
		<tag k="name" v="Elvenes" />
		<tag k="natural" v="cape" />
		<tag k="ssr:stedsnr" v="713668" />
	</node>
	<node lat="69.87883055714792" lon="20.91581664564903" id="-99698">
		<tag k="name" v="Lannilahti" />
		<tag k="name:fkv" v="Lannilahti" />
		<tag k="natural" v="bay" />
		<tag k="ssr:stedsnr" v="721690" />
	</node>
	<node lat="69.83877499766784" lon="21.151355519863074" id="-99701">
		<tag k="name" v="Bauskarmotta" />
		<tag k="natural" v="bay" />
		<tag k="ssr:stedsnr" v="721995" />
	</node>
	<node lat="69.84037222391376" lon="21.148349966227773" id="-99702">
		<tag k="name" v="Vednesbukta" />
		<tag k="natural" v="bay" />
		<tag k="ssr:stedsnr" v="721997" />
	</node>
	<node lat="69.8347361145815" lon="21.198344432332153" id="-99703">
		<tag k="name" v="Reiarbukta" />
		<tag k="natural" v="bay" />
		<tag k="ssr:stedsnr" v="721999" />
	</node>
	<node lat="69.84890277910681" lon="21.2224333027509" id="-99717">
		<tag k="name" v="Jakobbukta" />
		<tag k="natural" v="bay" />
		<tag k="ssr:stedsnr" v="722929" />
	</node>
	<node lat="69.86096111409412" lon="21.217433319225236" id="-99725">
		<tag k="name" v="Valbukta" />
		<tag k="natural" v="bay" />
		<tag k="ssr:stedsnr" v="722897" />
	</node>
	<node lat="69.85426389176577" lon="21.225274984822416" id="-99726">
		<tag k="name" v="Durmålskarbukta" />
		<tag k="natural" v="bay" />
		<tag k="ssr:stedsnr" v="722899" />
	</node>
	<node lat="69.88058889078003" lon="21.19776108321905" id="-99729">
		<tag k="name" v="Røytvika" />
		<tag k="natural" v="bay" />
		<tag k="ssr:stedsnr" v="734763" />
	</node>
	<node lat="69.94446944732756" lon="21.070808307486825" id="-99774">
		<tag k="name" v="Sandbukta" />
		<tag k="natural" v="bay" />
		<tag k="ssr:stedsnr" v="747873" />
	</node>
	<node lat="69.76738333536892" lon="20.496124993700057" id="-99788">
		<tag k="name" v="Kommandantodden" />
		<tag k="natural" v="cape" />
		<tag k="ssr:stedsnr" v="747921" />
	</node>
	<node lat="69.77069999776951" lon="20.51644996963479" id="-99789">
		<tag k="alt_name" v="Spåkenesøra" />
		<tag k="name" v="Spåknesøra" />
		<tag k="natural" v="bay" />
		<tag k="ssr:stedsnr" v="747922" />
	</node>
	<node lat="69.77608055429859" lon="20.980488872422068" id="-99790">
		<tag k="loc_name:fkv" v="Laittakka" />
		<tag k="name" v="Leirbukta" />
		<tag k="name:no" v="Leirbukta" />
		<tag k="natural" v="bay" />
		<tag k="ssr:stedsnr" v="747924" />
	</node>
	<node lat="69.80946111586285" lon="20.531897198855052" id="-99799">
		<tag k="name" v="Oterneset" />
		<tag k="natural" v="cape" />
		<tag k="ssr:stedsnr" v="753722" />
	</node>
	<node lat="69.91573055845096" lon="21.068441649183278" id="-99803">
		<tag k="loc_name:fkv" v="Naikka" />
		<tag k="loc_name:se" v="Naiggácoagis" />
		<tag k="name" v="Naikagrunnen" />
		<tag k="name:no" v="Naikagrunnen" />
		<tag k="natural" v="shoal" />
		<tag k="place" v="locality" />
		<tag k="ssr:stedsnr" v="773786" />
	</node>
	<node lat="69.86953055552372" lon="21.039702755942404" id="-99804">
		<tag k="name" v="Ringoåskatbukta" />
		<tag k="natural" v="bay" />
		<tag k="ssr:stedsnr" v="773675" />
	</node>
	<node lat="69.84031111205212" lon="20.949511088898227" id="-99806">
		<tag k="alt_name:no" v="Sandneset" />
		<tag k="loc_name:fkv" v="Suoksalo" />
		<tag k="loc_name:se" v="Suoksalnjárga" />
		<tag k="name" v="Sokkelneset" />
		<tag k="name:no" v="Sokkelneset" />
		<tag k="natural" v="cape" />
		<tag k="ssr:stedsnr" v="774699" />
	</node>
	<node lat="69.83727500355758" lon="20.93272496800016" id="-99807">
		<tag k="loc_name:se" v="Geassenjárga" />
		<tag k="name" v="Lakseneset" />
		<tag k="name:no" v="Lakseneset" />
		<tag k="natural" v="cape" />
		<tag k="ssr:stedsnr" v="774700" />
	</node>
	<node lat="69.83525555910862" lon="20.77874998291875" id="-99821">
		<tag k="fixme" v="consider seamark:type=rock or natural=shoal" />
		<tag k="name" v="Skjæret" />
		<tag k="place" v="islet" />
		<tag k="ssr:stedsnr" v="782190" />
	</node>
	<node lat="69.96762777926618" lon="21.210669430857333" id="-99822">
		<tag k="name" v="Ytterklubben" />
		<tag k="natural" v="cape" />
		<tag k="ssr:stedsnr" v="782269" />
	</node>
	<node lat="69.7849805559431" lon="20.98934163243828" id="-99829">
		<tag k="name" v="Grønnholmen" />
		<tag k="place" v="islet" />
		<tag k="ssr:stedsnr" v="782428" />
	</node>
	<node lat="69.94003333304433" lon="20.984536078179353" id="-99832">
		<tag k="name" v="Russebukta" />
		<tag k="natural" v="bay" />
		<tag k="ssr:stedsnr" v="782684" />
	</node>
	<node lat="69.92189444805182" lon="20.99723330484411" id="-99833">
		<tag k="fixme" v="consider seamark:type=rock or natural=shoal" />
		<tag k="name" v="Langskjæret" />
		<tag k="place" v="islet" />
		<tag k="ssr:stedsnr" v="782694" />
	</node>
	<node lat="69.8804972253671" lon="21.15290553831585" id="-99834">
		<tag k="name" v="Vaddashollet" />
		<tag k="natural" v="bay" />
		<tag k="ssr:stedsnr" v="782724" />
	</node>
	<node lat="69.88054999792811" lon="21.16350829810601" id="-99849">
		<tag k="name" v="Jamesmokka" />
		<tag k="name:fkv" v="Jamesmokka" />
		<tag k="natural" v="bay" />
		<tag k="ssr:stedsnr" v="795770" />
	</node>
	<node lat="69.87984166803533" lon="21.19033052138959" id="-99903">
		<tag k="name" v="Sørnesodden" />
		<tag k="natural" v="cape" />
		<tag k="ssr:stedsnr" v="808814" />
	</node>
	<node lat="69.80274167120548" lon="20.6427861017005" id="-99914">
		<tag k="loc_name:se" v="Geailu" />
		<tag k="name" v="Kjelvågen" />
		<tag k="name:no" v="Kjelvågen" />
		<tag k="natural" v="bay" />
		<tag k="ssr:stedsnr" v="808948" />
	</node>
	<node lat="69.83969166398902" lon="20.951486082035753" id="-99916">
		<tag k="name" v="Sandnesodden" />
		<tag k="natural" v="cape" />
		<tag k="ssr:stedsnr" v="808999" />
	</node>
	<node lat="69.76231110877654" lon="20.46108330766262" id="-99918">
		<tag k="name" v="Spåkenesodden" />
		<tag k="natural" v="cape" />
		<tag k="ssr:stedsnr" v="813832" />
	</node>
	<node lat="69.8021472238669" lon="20.650711100332803" id="-99919">
		<tag k="name" v="Rødberggrunnen" />
		<tag k="natural" v="shoal" />
		<tag k="place" v="locality" />
		<tag k="ssr:stedsnr" v="813838" />
	</node>
	<node lat="69.81668610824981" lon="20.76533609882849" id="-99920">
		<tag k="name" v="Andersbukta" />
		<tag k="natural" v="bay" />
		<tag k="ssr:stedsnr" v="814816" />
	</node>
	<node lat="69.92887222637398" lon="20.950705533249593" id="-99921">
		<tag k="name" v="Skomakareidet" />
		<tag k="place" v="locality" />
		<tag k="ssr:stedsnr" v="834809" />
	</node>
	<node lat="69.900180554959" lon="21.190438868975853" id="-99923">
		<tag k="name" v="Mannesgrunnen" />
		<tag k="natural" v="shoal" />
		<tag k="place" v="locality" />
		<tag k="ssr:stedsnr" v="835972" />
	</node>
	<node lat="69.82410555749246" lon="20.999533313419448" id="-99932">
		<tag k="name" v="Ivrineset" />
		<tag k="natural" v="cape" />
		<tag k="ssr:stedsnr" v="843308" />
	</node>
	<node lat="69.86756388601916" lon="21.042172194246906" id="-99946">
		<tag k="name" v="Lillevika" />
		<tag k="natural" v="bay" />
		<tag k="ssr:stedsnr" v="843741" />
	</node>
	<node lat="69.92477777415178" lon="20.875691650183747" id="-100017">
		<tag k="name" v="Maursundet - Márnuorri" />
		<tag k="name:no" v="Maursundet" />
		<tag k="name:se" v="Márnuorri" />
		<tag k="natural" v="strait" />
		<tag k="ssr:stedsnr" v="869621" />
	</node>
	<node lat="69.83321667145412" lon="21.161027756062225" id="-100023">
		<tag k="fixme" v="multiple name tags, choose one and add the other to alt_name" />
		<tag k="name" v="Holmen;Pederholmen" />
		<tag k="place" v="islet" />
		<tag k="ssr:stedsnr" v="869795" />
	</node>
	<node lat="69.96562778109399" lon="21.21017774182465" id="-100031">
		<tag k="loc_name:se" v="Ásaluokta" />
		<tag k="name" v="Molvika" />
		<tag k="name:no" v="Molvika" />
		<tag k="natural" v="bay" />
		<tag k="ssr:stedsnr" v="869889" />
	</node>
	<node lat="69.79143610978697" lon="20.666141643173525" id="-100035">
		<tag k="name" v="Rotnes" />
		<tag k="natural" v="cape" />
		<tag k="ssr:stedsnr" v="869933" />
	</node>
	<node lat="69.80022777860465" lon="20.71948609759627" id="-100041">
		<tag k="name" v="Bourneset" />
		<tag k="natural" v="cape" />
		<tag k="ssr:stedsnr" v="875798" />
	</node>
	<node lat="69.94749444571575" lon="21.071341637716586" id="-100046">
		<tag k="name" v="Seglneset" />
		<tag k="natural" v="cape" />
		<tag k="ssr:stedsnr" v="953042" />
	</node>
	<node lat="69.88087500191376" lon="21.08656107626645" id="-100048">
		<tag k="fixme" v="multiple name tags, choose one and add the other to alt_name" />
		<tag k="loc_name:fkv" v="Vuoranniemi" />
		<tag k="loc_name:se" v="Vuorranjárga" />
		<tag k="name" v="Vikaneset;Vorrannjargo" />
		<tag k="name:no" v="Vikaneset;Vorrannjargo" />
		<tag k="natural" v="cape" />
		<tag k="ssr:stedsnr" v="955703" />
	</node>
	<node lat="69.85043332995183" lon="20.941033318368373" id="-100049">
		<tag k="name" v="Brenneset" />
		<tag k="natural" v="cape" />
		<tag k="ssr:stedsnr" v="956701" />
	</node>
	<node lat="69.85474166395443" lon="20.84556386287467" id="-100055">
		<tag k="name" v="Eggeneset" />
		<tag k="natural" v="cape" />
		<tag k="ssr:stedsnr" v="964138" />
	</node>
	<node lat="69.83657778157169" lon="21.056849973399324" id="-100067">
		<tag k="name" v="Adolfneset" />
		<tag k="natural" v="cape" />
		<tag k="ssr:stedsnr" v="964946" />
	</node>
	<node lat="69.91292643242488" lon="21.321258098747847" id="-100299">
		<tag k="name" v="Olgogáddi" />
		<tag k="name:se" v="Olgogáddi" />
		<tag k="natural" v="beach" />
		<tag k="ssr:stedsnr" v="1084034" />
	</node>
</osm>
