<?xml version="1.0" encoding="UTF-8"?>
<<<<<<< HEAD
<osm version="0.6" generator="osmapis">
	<node lat="69.78564722575531" lon="20.65503053587292" id="-38129">
		<tag k="highway" v="path" />
		<tag k="name" v="Lille Moltebærhaugveien" />
		<tag k="ssr:stedsnr" v="236123" />
	</node>
	<node lat="69.84769999727261" lon="21.137191641525217" id="-38134">
		<tag k="highway" v="path" />
		<tag k="name" v="Kjørveien" />
		<tag k="ssr:stedsnr" v="236298" />
	</node>
	<node lat="69.82594166658423" lon="21.06547219079023" id="-38272">
		<tag k="highway" v="path" />
		<tag k="name" v="Reisastien" />
		<tag k="ssr:stedsnr" v="175967" />
	</node>
	<node lat="69.67771666316175" lon="21.103019420778413" id="-38277">
		<tag k="fixme" v="verify maritime location" />
		<tag k="mooring" v="yes" />
		<tag k="name" v="Tjærastøa" />
		<tag k="place" v="locality" />
		<tag k="ssr:stedsnr" v="176613" />
	</node>
	<node lat="69.81761944328206" lon="20.788127765968092" id="-38428">
=======
<osm generator="osmapis" version="0.6">
	<node id="-891127" lat="69.8176194433" lon="20.788127766">
>>>>>>> e1d4bc35ff8a6074a6f2e91616a996b547c36f15
		<tag k="highway" v="path" />
		<tag k="name" v="Oskartorvveien" />
		<tag k="ssr:stedsnr" v="297077" />
	</node>
<<<<<<< HEAD
	<node lat="69.78707777541746" lon="20.647383301878172" id="-38488">
=======
	<node id="-892661" lat="69.7930416665" lon="20.5895638581">
>>>>>>> e1d4bc35ff8a6074a6f2e91616a996b547c36f15
		<tag k="highway" v="path" />
		<tag k="name" v="Øverveien" />
		<tag k="ssr:stedsnr" v="357861" />
	</node>
<<<<<<< HEAD
	<node lat="69.79304166647196" lon="20.58956385808841" id="-38489">
		<tag k="highway" v="path" />
		<tag k="name" v="Øverveien" />
		<tag k="ssr:stedsnr" v="357866" />
	</node>
	<node lat="69.95598888913038" lon="21.201899982514306" id="-38501">
		<tag k="man_made" v="cairn" />
		<tag k="name" v="Hønsa" />
=======
	<node id="-892400" lat="69.6777166632" lon="21.1030194208">
		<tag k="fixme" v="verify maritime location" />
		<tag k="mooring" v="yes" />
		<tag k="name" v="Tjærastøa" />
>>>>>>> e1d4bc35ff8a6074a6f2e91616a996b547c36f15
		<tag k="place" v="locality" />
		<tag k="ssr:stedsnr" v="478302" />
	</node>
<<<<<<< HEAD
	<node lat="69.47444166605345" lon="21.481261078563968" id="-38581">
		<tag k="highway" v="path" />
		<tag k="name" v="Lapingeinno" />
		<tag k="name:fkv" v="Lapingeinno" />
		<tag k="ssr:stedsnr" v="419921" />
	</node>
	<node lat="69.82045555609184" lon="20.78113886531249" id="-38735">
		<tag k="junction" v="yes" />
		<tag k="name" v="Langslettkrysset" />
		<tag k="place" v="locality" />
		<tag k="ssr:stedsnr" v="540080" />
	</node>
	<node lat="69.81405277663674" lon="20.782347213190242" id="-38828">
		<tag k="highway" v="path" />
		<tag k="name" v="Reisaveien" />
		<tag k="ssr:stedsnr" v="600055" />
	</node>
	<node lat="69.85145278095115" lon="20.82904442513318" id="-39183">
=======
	<node id="-891748" lat="69.851452781" lon="20.8290444251">
>>>>>>> e1d4bc35ff8a6074a6f2e91616a996b547c36f15
		<tag k="highway" v="path" />
		<tag k="name" v="Monseveien" />
		<tag k="ssr:stedsnr" v="903108" />
	</node>
<<<<<<< HEAD
	<node lat="69.89908333399858" lon="21.201769406998803" id="-39235">
=======
	<node id="-892386" lat="69.8259416666" lon="21.0654721908">
>>>>>>> e1d4bc35ff8a6074a6f2e91616a996b547c36f15
		<tag k="highway" v="path" />
		<tag k="name" v="Geitveien" />
		<tag k="ssr:stedsnr" v="964301" />
	</node>
	<node lat="69.80023610976097" lon="20.92583607815661" id="-39323">
		<tag k="man_made" v="quay" />
		<tag k="name" v="Mølneelv" />
		<tag k="place" v="locality" />
		<tag k="ssr:stedsnr" v="45598" />
	</node>
	<node lat="69.87023888767617" lon="21.22107220207212" id="-39363">
		<tag k="fixme" v="consider highway=path" />
		<tag k="highway" v="track" />
		<tag k="name" v="Breiveien" />
		<tag k="ssr:stedsnr" v="55868" />
	</node>
	<node lat="69.78268333317371" lon="20.702113855658215" id="-39449">
		<tag k="highway" v="path" />
		<tag k="name" v="Kolabaveien" />
		<tag k="ssr:stedsnr" v="114238" />
	</node>
<<<<<<< HEAD
	<node lat="69.85332222101687" lon="21.176616629315113" id="-39707">
		<tag k="fixme" v="verify maritime location" />
		<tag k="mooring" v="yes" />
		<tag k="name" v="Petterstøa" />
		<tag k="place" v="locality" />
		<tag k="ssr:stedsnr" v="296301" />
	</node>
	<node lat="69.8479833303388" lon="21.160861090412556" id="-39708">
=======
	<node id="-891102" lat="69.8479833303" lon="21.1608610904">
>>>>>>> e1d4bc35ff8a6074a6f2e91616a996b547c36f15
		<tag k="fixme" v="verify maritime location" />
		<tag k="mooring" v="yes" />
		<tag k="name" v="Tomasstøa" />
		<tag k="place" v="locality" />
		<tag k="ssr:stedsnr" v="296302" />
	</node>
<<<<<<< HEAD
	<node lat="69.84553333187391" lon="21.154938873957494" id="-39829">
=======
	<node id="-892637" lat="69.8455333319" lon="21.154938874">
>>>>>>> e1d4bc35ff8a6074a6f2e91616a996b547c36f15
		<tag k="fixme" v="verify maritime location" />
		<tag k="mooring" v="yes" />
		<tag k="name" v="Olestøa" />
		<tag k="place" v="locality" />
		<tag k="ssr:stedsnr" v="357289" />
	</node>
<<<<<<< HEAD
	<node lat="69.86976389046737" lon="21.10174720108258" id="-39983">
		<tag k="highway" v="path" />
		<tag k="name" v="Gardakko" />
		<tag k="ssr:stedsnr" v="419851" />
	</node>
	<node lat="69.7426722269656" lon="21.25037774759706" id="-40136">
=======
	<node id="-891737" lat="69.8375972253" lon="21.0891388553">
		<tag k="highway" v="path" />
		<tag k="name" v="Storbuktstien" />
		<tag k="ssr:stedsnr" v="721956" />
	</node>
	<node id="-891480" lat="69.9559888891" lon="21.2018999825">
		<tag k="man_made" v="cairn" />
		<tag k="name" v="Hønsa" />
		<tag k="place" v="locality" />
		<tag k="ssr:stedsnr" v="478302" />
	</node>
	<node id="-891221" lat="69.7856472258" lon="20.6550305359">
>>>>>>> e1d4bc35ff8a6074a6f2e91616a996b547c36f15
		<tag k="highway" v="path" />
		<tag k="name" v="Røyelveien" />
		<tag k="ssr:stedsnr" v="540732" />
	</node>
<<<<<<< HEAD
	<node lat="69.74541944335452" lon="21.272697201278273" id="-40237">
=======
	<node id="-893007" lat="69.7454194434" lon="21.2726972013">
>>>>>>> e1d4bc35ff8a6074a6f2e91616a996b547c36f15
		<tag k="highway" v="path" />
		<tag k="name" v="Salaveien" />
		<tag k="ssr:stedsnr" v="600725" />
	</node>
<<<<<<< HEAD
	<node lat="69.84321388906076" lon="21.150397195321357" id="-40308">
=======
	<node id="-892110" lat="69.8702388877" lon="21.2210722021">
		<tag k="fixme" v="consider highway=path" />
		<tag k="highway" v="track" />
		<tag k="name" v="Breiveien" />
		<tag k="ssr:stedsnr" v="55868" />
	</node>
	<node id="-892230" lat="69.7826833332" lon="20.7021138557">
		<tag k="highway" v="path" />
		<tag k="name" v="Kolabaveien" />
		<tag k="ssr:stedsnr" v="114238" />
	</node>
	<node id="-891715" lat="69.8432138891" lon="21.1503971953">
>>>>>>> e1d4bc35ff8a6074a6f2e91616a996b547c36f15
		<tag k="fixme" v="verify maritime location" />
		<tag k="mooring" v="yes" />
		<tag k="name" v="Jakobstøa" />
		<tag k="place" v="locality" />
		<tag k="ssr:stedsnr" v="660324" />
	</node>
<<<<<<< HEAD
	<node lat="69.83759722533588" lon="21.089138855267617" id="-40365">
		<tag k="highway" v="path" />
		<tag k="name" v="Storbuktstien" />
		<tag k="ssr:stedsnr" v="721956" />
	</node>
	<node lat="69.78706388840133" lon="20.95580276157519" id="-40454">
=======
	<node id="-892865" lat="69.742672227" lon="21.2503777476">
		<tag k="highway" v="path" />
		<tag k="name" v="Røyelveien" />
		<tag k="ssr:stedsnr" v="540732" />
	</node>
	<node id="-893472" lat="69.899083334" lon="21.201769407">
		<tag k="highway" v="path" />
		<tag k="name" v="Geitveien" />
		<tag k="ssr:stedsnr" v="964301" />
	</node>
	<node id="-892859" lat="69.8204555561" lon="20.7811388653">
		<tag k="junction" v="yes" />
		<tag k="name" v="Langslettkrysset" />
		<tag k="place" v="locality" />
		<tag k="ssr:stedsnr" v="540080" />
	</node>
	<node id="-892984" lat="69.8140527766" lon="20.7823472132">
		<tag k="highway" v="path" />
		<tag k="name" v="Reisaveien" />
		<tag k="ssr:stedsnr" v="600055" />
	</node>
	<node id="-891312" lat="69.7870777754" lon="20.6473833019">
		<tag k="highway" v="path" />
		<tag k="name" v="Øverveien" />
		<tag k="ssr:stedsnr" v="357861" />
	</node>
	<node id="-891101" lat="69.853322221" lon="21.1766166293">
		<tag k="fixme" v="verify maritime location" />
		<tag k="mooring" v="yes" />
		<tag k="name" v="Petterstøa" />
		<tag k="place" v="locality" />
		<tag k="ssr:stedsnr" v="296301" />
	</node>
	<node id="-892075" lat="69.8002361098" lon="20.9258360782">
		<tag k="man_made" v="quay" />
		<tag k="name" v="Mølneelv" />
		<tag k="place" v="locality" />
		<tag k="ssr:stedsnr" v="45598" />
	</node>
	<node id="-891808" lat="69.7870638884" lon="20.9558027616">
>>>>>>> e1d4bc35ff8a6074a6f2e91616a996b547c36f15
		<tag k="aeroway" v="aerodrome" />
		<tag k="fixme" v="multiple name tags, choose one and add the other to alt_name" />
		<tag k="name" v="Sørkjosen lufthavn;Sørkjosen - Reaššegeaži girdihámman - Rässikäisen lentohamina" />
		<tag k="name:fkv" v="Rässikäisen lentohamina" />
		<tag k="name:no" v="Sørkjosen lufthavn;Sørkjosen" />
		<tag k="name:se" v="Reaššegeaži girdihámman" />
		<tag k="old_name:no" v="Sørkjosen flyplass" />
		<tag k="ssr:stedsnr" v="747953" />
	</node>
<<<<<<< HEAD
	<node lat="69.81568611154589" lon="20.78944721279395" id="-40589">
=======
	<node id="-891416" lat="69.4744416661" lon="21.4812610786">
>>>>>>> e1d4bc35ff8a6074a6f2e91616a996b547c36f15
		<tag k="highway" v="path" />
		<tag k="name" v="Juliustorvveien" />
		<tag k="ssr:stedsnr" v="843057" />
	</node>
	<node id="-890894" lat="69.8476999973" lon="21.1371916415">
		<tag k="highway" v="path" />
		<tag k="name" v="Kjørveien" />
		<tag k="ssr:stedsnr" v="236298" />
	</node>
	<node id="-893318" lat="69.8156861115" lon="20.7894472128">
		<tag k="highway" v="path" />
		<tag k="name" v="Juliustorvveien" />
		<tag k="ssr:stedsnr" v="843057" />
	</node>
	<node id="-892804" lat="69.8697638905" lon="21.1017472011">
		<tag k="highway" v="path" />
		<tag k="name" v="Gardakko" />
		<tag k="ssr:stedsnr" v="419851" />
	</node>
</osm>
