<?xml version="1.0" encoding="UTF-8"?>
<osm version="0.6" generator="osmapis">
	<node lat="69.76605278048157" lon="21.07163330635069" id="-46579">
		<tag k="name" v="Gárdilokta" />
		<tag k="name:se" v="Gárdilokta" />
		<tag k="place" v="locality" />
		<tag k="ssr:stedsnr" v="6963" />
	</node>
	<node lat="69.83721666605449" lon="21.078583311502502" id="-46580">
		<tag k="name" v="Krubbevollen" />
		<tag k="place" v="locality" />
		<tag k="ssr:stedsnr" v="6976" />
	</node>
	<node lat="69.25407777629668" lon="21.689724950344825" id="-46581">
		<tag k="fixme" v="consider natural=peak for the most distinct mountains in the district" />
		<tag k="name" v="Bieggaváráš" />
		<tag k="name:se" v="Bieggaváráš" />
		<tag k="natural" v="hill" />
		<tag k="place" v="locality" />
		<tag k="ssr:stedsnr" v="18698" />
	</node>
	<node lat="69.367533337885" lon="21.436399980422884" id="-46583">
		<tag k="name" v="Jovnnavággi" />
		<tag k="name:se" v="Jovnnavággi" />
		<tag k="natural" v="valley" />
		<tag k="place" v="locality" />
		<tag k="ssr:stedsnr" v="18598" />
	</node>
	<node lat="69.78499166693655" lon="21.61606663402782" id="-46584">
		<tag k="name" v="Frukosthaugen" />
		<tag k="natural" v="hill" />
		<tag k="place" v="locality" />
		<tag k="ssr:stedsnr" v="19193" />
	</node>
	<node lat="69.51756111041948" lon="21.78485274029849" id="-46585">
		<tag k="fixme" v="consider natural=peak for the most distinct mountains in the district" />
		<tag k="name" v="Gurrorášša" />
		<tag k="name:se" v="Gurrorášša" />
		<tag k="natural" v="hill" />
		<tag k="place" v="locality" />
		<tag k="ssr:stedsnr" v="19393" />
	</node>
	<node lat="69.21815555337143" lon="22.45500827305427" id="-46590">
		<tag k="fixme" v="consider natural=peak for the most distinct mountains in the district" />
		<tag k="name" v="Liekkaščorru" />
		<tag k="name:se" v="Liekkaščorru" />
		<tag k="natural" v="hill" />
		<tag k="old_name:se" v="Lieggaščårro" />
		<tag k="place" v="locality" />
		<tag k="ssr:stedsnr" v="19688" />
	</node>
	<node lat="69.16294166938776" lon="22.38473050404898" id="-46593">
		<tag k="fixme" v="consider natural=peak for the most distinct mountains in the district" />
		<tag k="name" v="Riegádanvárri" />
		<tag k="name:se" v="Riegádanvárri" />
		<tag k="natural" v="hill" />
		<tag k="old_name:se" v="Riegadanvarri" />
		<tag k="place" v="locality" />
		<tag k="ssr:stedsnr" v="19695" />
	</node>
	<node lat="69.919480559182" lon="21.411594423005063" id="-46595">
		<tag k="name" v="Čuvččavággi" />
		<tag k="name:se" v="Čuvččavággi" />
		<tag k="natural" v="valley" />
		<tag k="place" v="locality" />
		<tag k="ssr:stedsnr" v="19847" />
	</node>
	<node lat="69.46461389098769" lon="21.321199975258263" id="-46597">
		<tag k="name" v="Ruovddášgorsa" />
		<tag k="name:se" v="Ruovddášgorsa" />
		<tag k="natural" v="valley" />
		<tag k="place" v="locality" />
		<tag k="ssr:stedsnr" v="19742" />
	</node>
	<node lat="69.75885278122362" lon="20.9835444301845" id="-46598">
		<tag k="fixme" v="consider natural=peak for the most distinct mountains in the district" />
		<tag k="name" v="Sagåsen - Arasborri" />
		<tag k="name:no" v="Sagåsen" />
		<tag k="name:se" v="Arasborri" />
		<tag k="natural" v="hill" />
		<tag k="place" v="locality" />
		<tag k="ssr:stedsnr" v="19911" />
	</node>
	<node lat="69.80218333070803" lon="20.82443608792768" id="-46601">
		<tag k="fixme" v="consider natural=peak for the most distinct mountains in the district" />
		<tag k="name" v="Storhaugen" />
		<tag k="natural" v="hill" />
		<tag k="place" v="locality" />
		<tag k="ssr:stedsnr" v="19946" />
	</node>
	<node lat="69.75090277815042" lon="20.71301942005963" id="-46610">
		<tag k="name" v="Fagerlia" />
		<tag k="natural" v="slope" />
		<tag k="place" v="locality" />
		<tag k="ssr:stedsnr" v="235866" />
	</node>
	<node lat="69.77027499805152" lon="20.73776385619383" id="-46614">
		<tag k="name" v="Snebakkan" />
		<tag k="natural" v="slope" />
		<tag k="place" v="locality" />
		<tag k="ssr:stedsnr" v="236225" />
	</node>
	<node lat="69.57920555981757" lon="21.23479997112134" id="-46616">
		<tag k="name" v="Fielbmágorsa" />
		<tag k="name:se" v="Fielbmágorsa" />
		<tag k="natural" v="valley" />
		<tag k="place" v="locality" />
		<tag k="ssr:stedsnr" v="236269" />
	</node>
	<node lat="69.85014444789743" lon="21.161138871195543" id="-46617">
		<tag k="name" v="Siljokhollet" />
		<tag k="natural" v="valley" />
		<tag k="place" v="locality" />
		<tag k="ssr:stedsnr" v="236297" />
	</node>
	<node lat="69.82136944770595" lon="21.01799996519602" id="-46620">
		<tag k="fixme" v="consider natural=peak for the most distinct mountains in the district" />
		<tag k="name" v="Danskefjellet" />
		<tag k="natural" v="hill" />
		<tag k="place" v="locality" />
		<tag k="ssr:stedsnr" v="236317" />
	</node>
	<node lat="69.87821110794856" lon="21.143799981649146" id="-46621">
		<tag k="name" v="Storplanen" />
		<tag k="natural" v="slope" />
		<tag k="place" v="locality" />
		<tag k="ssr:stedsnr" v="36767" />
	</node>
	<node lat="69.79735555902192" lon="21.1374610960833" id="-46622">
		<tag k="name" v="Eiariidi" />
		<tag k="name:se" v="Eiariidi" />
		<tag k="natural" v="slope" />
		<tag k="place" v="locality" />
		<tag k="ssr:stedsnr" v="236490" />
	</node>
	<node lat="69.66118611288137" lon="21.26841942524317" id="-46623">
		<tag k="name" v="Storbakken" />
		<tag k="natural" v="slope" />
		<tag k="place" v="locality" />
		<tag k="ssr:stedsnr" v="236538" />
	</node>
	<node lat="69.60241944849712" lon="21.285649959340603" id="-46624">
		<tag k="fixme" v="consider natural=peak for the most distinct mountains in the district" />
		<tag k="name" v="Haukadievvá" />
		<tag k="name:se" v="Haukadievvá" />
		<tag k="natural" v="hill" />
		<tag k="place" v="locality" />
		<tag k="ssr:stedsnr" v="236542" />
	</node>
	<node lat="69.72083056089379" lon="21.068274973760353" id="-46625">
		<tag k="name" v="Bærbakken" />
		<tag k="natural" v="slope" />
		<tag k="place" v="locality" />
		<tag k="ssr:stedsnr" v="236546" />
	</node>
	<node lat="69.71818611221433" lon="21.117355521637027" id="-46626">
		<tag k="name" v="Lånigrubba" />
		<tag k="natural" v="valley" />
		<tag k="place" v="locality" />
		<tag k="ssr:stedsnr" v="236547" />
	</node>
	<node lat="69.79073889071246" lon="21.112024968028148" id="-46628">
		<tag k="name" v="Lillestakken" />
		<tag k="natural" v="hill" />
		<tag k="place" v="locality" />
		<tag k="ssr:stedsnr" v="236577" />
	</node>
	<node lat="69.6740416712447" lon="21.102252753955657" id="-46629">
		<tag k="name" v="Rustbakken" />
		<tag k="natural" v="slope" />
		<tag k="place" v="locality" />
		<tag k="ssr:stedsnr" v="236593" />
	</node>
	<node lat="69.92221944589141" lon="20.925066647992963" id="-46631">
		<tag k="name" v="Gråsanddalen" />
		<tag k="natural" v="valley" />
		<tag k="place" v="locality" />
		<tag k="ssr:stedsnr" v="236662" />
	</node>
	<node lat="69.87717777608583" lon="21.182547184223644" id="-46635">
		<tag k="name" v="Fallmoan" />
		<tag k="place" v="locality" />
		<tag k="ssr:stedsnr" v="236774" />
	</node>
	<node lat="69.79180278221553" lon="21.178616639307723" id="-46636">
		<tag k="name" v="Garfongohpi" />
		<tag k="name:se" v="Garfongohpi" />
		<tag k="natural" v="valley" />
		<tag k="place" v="locality" />
		<tag k="ssr:stedsnr" v="236947" />
	</node>
	<node lat="69.82688611470078" lon="21.056147210757064" id="-46638">
		<tag k="name" v="Snemyrbakken" />
		<tag k="natural" v="slope" />
		<tag k="place" v="locality" />
		<tag k="ssr:stedsnr" v="236977" />
	</node>
	<node lat="69.86603889495326" lon="21.224227740696087" id="-46640">
		<tag k="name" v="Sørenveibakken" />
		<tag k="natural" v="slope" />
		<tag k="place" v="locality" />
		<tag k="ssr:stedsnr" v="237866" />
	</node>
	<node lat="69.97092777908661" lon="21.21894442652875" id="-46642">
		<tag k="fixme" v="consider natural=peak for the most distinct mountains in the district" />
		<tag k="name" v="Klubben" />
		<tag k="natural" v="hill" />
		<tag k="place" v="locality" />
		<tag k="ssr:stedsnr" v="237912" />
	</node>
	<node lat="69.79922777779164" lon="21.113783300067343" id="-46646">
		<tag k="name" v="Kjellarbakken" />
		<tag k="natural" v="slope" />
		<tag k="place" v="locality" />
		<tag k="ssr:stedsnr" v="54601" />
	</node>
	<node lat="69.85150000261686" lon="21.170252757691912" id="-46647">
		<tag k="name" v="Orrit" />
		<tag k="name:se" v="Orrit" />
		<tag k="natural" v="hill" />
		<tag k="place" v="locality" />
		<tag k="ssr:stedsnr" v="54316" />
	</node>
	<node lat="69.80542777612163" lon="20.923013855522743" id="-46652">
		<tag k="name" v="Hjellberget" />
		<tag k="natural" v="hill" />
		<tag k="place" v="locality" />
		<tag k="ssr:stedsnr" v="54703" />
	</node>
	<node lat="69.87676667050377" lon="20.9123610776686" id="-46653">
		<tag k="name" v="Orrit" />
		<tag k="name:se" v="Orrit" />
		<tag k="natural" v="hill" />
		<tag k="place" v="locality" />
		<tag k="ssr:stedsnr" v="54716" />
	</node>
	<node lat="69.87836388818559" lon="21.154011073877804" id="-46654">
		<tag k="name" v="Fallaksla" />
		<tag k="place" v="locality" />
		<tag k="ssr:stedsnr" v="54771" />
	</node>
	<node lat="69.68313055425261" lon="21.049444429773327" id="-46657">
		<tag k="name" v="Middagshaugen" />
		<tag k="natural" v="hill" />
		<tag k="place" v="locality" />
		<tag k="ssr:stedsnr" v="55703" />
	</node>
	<node lat="69.74758889157081" lon="21.21660552189457" id="-46659">
		<tag k="name" v="Kjølen" />
		<tag k="natural" v="hill" />
		<tag k="place" v="locality" />
		<tag k="ssr:stedsnr" v="55705" />
	</node>
	<node lat="69.67175277924461" lon="21.31043885557317" id="-46660">
		<tag k="name" v="Bjørngrubba" />
		<tag k="natural" v="valley" />
		<tag k="place" v="locality" />
		<tag k="ssr:stedsnr" v="55710" />
	</node>
	<node lat="69.74209722420927" lon="21.231430537434747" id="-46661">
		<tag k="name" v="Nordsadio" />
		<tag k="place" v="locality" />
		<tag k="ssr:stedsnr" v="55719" />
	</node>
	<node lat="69.37779166733718" lon="21.2862138451609" id="-46665">
		<tag k="fixme" v="consider natural=peak for the most distinct mountains in the district" />
		<tag k="name" v="Biedjoskáidi" />
		<tag k="name:se" v="Biedjoskáidi" />
		<tag k="natural" v="hill" />
		<tag k="place" v="locality" />
		<tag k="ssr:stedsnr" v="79604" />
	</node>
	<node lat="69.37745277838107" lon="21.15726386313808" id="-46667">
		<tag k="fixme" v="consider natural=peak for the most distinct mountains in the district" />
		<tag k="name" v="Áhkkečohkka" />
		<tag k="name:se" v="Áhkkečohkka" />
		<tag k="natural" v="hill" />
		<tag k="place" v="locality" />
		<tag k="ssr:stedsnr" v="79600" />
	</node>
	<node lat="69.47673888980525" lon="21.485774958381338" id="-46671">
		<tag k="name" v="Hurikkamoen - Hurikanmettä" />
		<tag k="name:fkv" v="Hurikanmettä" />
		<tag k="name:no" v="Hurikkamoen" />
		<tag k="place" v="locality" />
		<tag k="ssr:stedsnr" v="79705" />
	</node>
	<node lat="69.76620277625489" lon="21.26979162432054" id="-46679">
		<tag k="fixme" v="consider natural=peak for the most distinct mountains in the district" />
		<tag k="name" v="Avku" />
		<tag k="name:se" v="Avku" />
		<tag k="natural" v="hill" />
		<tag k="place" v="locality" />
		<tag k="ssr:stedsnr" v="80240" />
	</node>
	<node lat="69.5860611165074" lon="21.217552749056463" id="-46682">
		<tag k="fixme" v="consider natural=peak for the most distinct mountains in the district" />
		<tag k="name" v="Lilandfjellet" />
		<tag k="natural" v="hill" />
		<tag k="place" v="locality" />
		<tag k="ssr:stedsnr" v="80351" />
	</node>
	<node lat="69.52915000263499" lon="21.86584995163742" id="-46683">
		<tag k="name" v="Sálbmevággi" />
		<tag k="name:se" v="Sálbmevággi" />
		<tag k="natural" v="valley" />
		<tag k="place" v="locality" />
		<tag k="ssr:stedsnr" v="80399" />
	</node>
	<node lat="69.53898333772078" lon="21.708211079478538" id="-46684">
		<tag k="fixme" v="consider natural=peak for the most distinct mountains in the district" />
		<tag k="name" v="Sieidi" />
		<tag k="name:se" v="Sieidi" />
		<tag k="natural" v="hill" />
		<tag k="place" v="locality" />
		<tag k="ssr:stedsnr" v="80401" />
	</node>
	<node lat="69.86650277770579" lon="20.84099998900757" id="-46699">
		<tag k="fixme" v="consider natural=peak for the most distinct mountains in the district" />
		<tag k="name" v="Jorbbičohkka" />
		<tag k="name:se" v="Jorbbičohkka" />
		<tag k="natural" v="hill" />
		<tag k="place" v="locality" />
		<tag k="ssr:stedsnr" v="114003" />
	</node>
	<node lat="69.87014999990049" lon="20.846258320594295" id="-46701">
		<tag k="name" v="Vassberget" />
		<tag k="natural" v="hill" />
		<tag k="place" v="locality" />
		<tag k="ssr:stedsnr" v="114006" />
	</node>
	<node lat="69.91980833420706" lon="20.954094429614113" id="-46702">
		<tag k="name" v="Rødmelen" />
		<tag k="natural" v="slope" />
		<tag k="place" v="locality" />
		<tag k="ssr:stedsnr" v="114717" />
	</node>
	<node lat="69.92397500308535" lon="20.946516651203357" id="-46703">
		<tag k="name" v="Per-Kobihaugen" />
		<tag k="natural" v="hill" />
		<tag k="place" v="locality" />
		<tag k="ssr:stedsnr" v="114720" />
	</node>
	<node lat="69.91569999727689" lon="20.95671386194878" id="-46704">
		<tag k="name" v="Leirosbakken" />
		<tag k="natural" v="slope" />
		<tag k="place" v="locality" />
		<tag k="ssr:stedsnr" v="114723" />
	</node>
	<node lat="69.84440277837251" lon="21.153708314209954" id="-46705">
		<tag k="name" v="Slobborrit" />
		<tag k="name:se" v="Slobborrit" />
		<tag k="natural" v="hill" />
		<tag k="place" v="locality" />
		<tag k="ssr:stedsnr" v="115314" />
	</node>
	<node lat="69.68447222328216" lon="21.098897204322334" id="-46706">
		<tag k="name" v="Skredbakken" />
		<tag k="natural" v="slope" />
		<tag k="place" v="locality" />
		<tag k="ssr:stedsnr" v="115618" />
	</node>
	<node lat="69.90303333264902" lon="21.32084718235933" id="-46709">
		<tag k="name" v="Stakkvollen" />
		<tag k="place" v="locality" />
		<tag k="ssr:stedsnr" v="115898" />
	</node>
	<node lat="69.84317778336751" lon="21.398749964814876" id="-46712">
		<tag k="name" v="Ørneberget" />
		<tag k="name:se" v="Ørneberget" />
		<tag k="natural" v="hill" />
		<tag k="place" v="locality" />
		<tag k="ssr:stedsnr" v="115988" />
	</node>
	<node lat="69.42668888634728" lon="21.268263848766118" id="-46715">
		<tag k="fixme" v="consider natural=peak for the most distinct mountains in the district" />
		<tag k="name" v="Gievarskáidi" />
		<tag k="name:se" v="Gievarskáidi" />
		<tag k="natural" v="hill" />
		<tag k="place" v="locality" />
		<tag k="ssr:stedsnr" v="139688" />
	</node>
	<node lat="69.71872499841467" lon="20.67333054523816" id="-46726">
		<tag k="name" v="Sorbmevággi" />
		<tag k="name:se" v="Sorbmevággi" />
		<tag k="natural" v="valley" />
		<tag k="place" v="locality" />
		<tag k="ssr:stedsnr" v="140588" />
	</node>
	<node lat="69.71607500296284" lon="20.77332499322197" id="-46727">
		<tag k="fixme" v="consider natural=peak for the most distinct mountains in the district" />
		<tag k="name" v="Pilterifjellet - Neanjunni" />
		<tag k="name:no" v="Pilterifjellet" />
		<tag k="name:se" v="Neanjunni" />
		<tag k="natural" v="hill" />
		<tag k="place" v="locality" />
		<tag k="ssr:stedsnr" v="140590" />
	</node>
	<node lat="69.72569166800737" lon="21.54879163336435" id="-46728">
		<tag k="fixme" v="consider natural=peak for the most distinct mountains in the district" />
		<tag k="name" v="Riehppegáisá" />
		<tag k="name:se" v="Riehppegáisá" />
		<tag k="natural" v="hill" />
		<tag k="place" v="locality" />
		<tag k="ssr:stedsnr" v="140707" />
	</node>
	<node lat="69.83907500346268" lon="20.83382496934313" id="-46733">
		<tag k="name" v="Kopparhaugen" />
		<tag k="natural" v="hill" />
		<tag k="place" v="locality" />
		<tag k="ssr:stedsnr" v="140993" />
	</node>
	<node lat="69.83551666291913" lon="20.79293887382311" id="-46734">
		<tag k="fixme" v="consider natural=peak for the most distinct mountains in the district" />
		<tag k="name" v="Sandnesfjellet" />
		<tag k="natural" v="hill" />
		<tag k="place" v="locality" />
		<tag k="ssr:stedsnr" v="140996" />
	</node>
	<node lat="69.85555833310875" lon="21.0389749705315" id="-46736">
		<tag k="name" v="Pølseberget" />
		<tag k="natural" v="hill" />
		<tag k="place" v="locality" />
		<tag k="ssr:stedsnr" v="166708" />
	</node>
	<node lat="69.24883333459292" lon="22.48660548720078" id="-46745">
		<tag k="fixme" v="consider natural=peak for the most distinct mountains in the district" />
		<tag k="name" v="Joalotoaivi" />
		<tag k="name:se" v="Joalotoaivi" />
		<tag k="natural" v="hill" />
		<tag k="old_name:se" v="Joalutoaivi" />
		<tag k="place" v="locality" />
		<tag k="ssr:stedsnr" v="261238" />
	</node>
	<node lat="69.22606945140818" lon="22.311319380249987" id="-46746">
		<tag k="fixme" v="consider natural=peak for the most distinct mountains in the district" />
		<tag k="name" v="Boazoroavvi" />
		<tag k="name:se" v="Boazoroavvi" />
		<tag k="natural" v="hill" />
		<tag k="old_name:se" v="Boazuroavvi" />
		<tag k="place" v="locality" />
		<tag k="ssr:stedsnr" v="261244" />
	</node>
	<node lat="69.57337777860725" lon="21.203755524523107" id="-46748">
		<tag k="name" v="Fielbmáhaugen" />
		<tag k="natural" v="hill" />
		<tag k="place" v="locality" />
		<tag k="ssr:stedsnr" v="261358" />
	</node>
	<node lat="69.58575277971495" lon="21.09675551752734" id="-46749">
		<tag k="name" v="Suologuolban" />
		<tag k="name:se" v="Suologuolban" />
		<tag k="place" v="locality" />
		<tag k="ssr:stedsnr" v="261360" />
	</node>
	<node lat="69.78756666511399" lon="20.641747212278215" id="-46750">
		<tag k="name" v="Kjellbyan" />
		<tag k="natural" v="slope" />
		<tag k="place" v="locality" />
		<tag k="ssr:stedsnr" v="175107" />
	</node>
	<node lat="69.83036389161317" lon="20.899147213575237" id="-46751">
		<tag k="name" v="Gitsibákti" />
		<tag k="name:se" v="Gitsibákti" />
		<tag k="natural" v="hill" />
		<tag k="place" v="locality" />
		<tag k="ssr:stedsnr" v="175442" />
	</node>
	<node lat="69.92155278155273" lon="20.945294419070144" id="-46753">
		<tag k="name" v="Rødmelhollet" />
		<tag k="natural" v="valley" />
		<tag k="place" v="locality" />
		<tag k="ssr:stedsnr" v="175702" />
	</node>
	<node lat="69.92097222705196" lon="20.95309996774181" id="-46754">
		<tag k="name" v="Skomakerhaugen" />
		<tag k="natural" v="hill" />
		<tag k="place" v="locality" />
		<tag k="ssr:stedsnr" v="175705" />
	</node>
	<node lat="69.83882777815371" lon="21.100583319864548" id="-46757">
		<tag k="name" v="Lille Čohkka" />
		<tag k="natural" v="hill" />
		<tag k="place" v="locality" />
		<tag k="ssr:stedsnr" v="175968" />
	</node>
	<node lat="69.83293611666335" lon="20.848766634760825" id="-46759">
		<tag k="name" v="Brannhaugen" />
		<tag k="natural" v="hill" />
		<tag k="place" v="locality" />
		<tag k="ssr:stedsnr" v="176202" />
	</node>
	<node lat="69.7948888862329" lon="21.137005522309945" id="-46760">
		<tag k="name" v="Gomoriidi" />
		<tag k="name:se" v="Gomoriidi" />
		<tag k="natural" v="slope" />
		<tag k="place" v="locality" />
		<tag k="ssr:stedsnr" v="176476" />
	</node>
	<node lat="69.75183611702883" lon="21.194772186074218" id="-46763">
		<tag k="name" v="Strupen" />
		<tag k="natural" v="valley" />
		<tag k="place" v="locality" />
		<tag k="ssr:stedsnr" v="176572" />
	</node>
	<node lat="69.87273889174246" lon="21.228883301411752" id="-46765">
		<tag k="name" v="Brannhaugen" />
		<tag k="natural" v="slope" />
		<tag k="place" v="locality" />
		<tag k="ssr:stedsnr" v="176863" />
	</node>
	<node lat="69.97109721964333" lon="21.231999965926704" id="-46766">
		<tag k="name" v="Grønnlian" />
		<tag k="natural" v="slope" />
		<tag k="place" v="locality" />
		<tag k="ssr:stedsnr" v="176902" />
	</node>
	<node lat="69.84773888570513" lon="20.913263875369182" id="-46770">
		<tag k="fixme" v="consider natural=peak for the most distinct mountains in the district" />
		<tag k="name" v="Latterfjellet" />
		<tag k="natural" v="hill" />
		<tag k="place" v="locality" />
		<tag k="ssr:stedsnr" v="261535" />
	</node>
	<node lat="69.36544999857462" lon="21.380849968695276" id="-46773">
		<tag k="fixme" v="consider natural=peak for the most distinct mountains in the district" />
		<tag k="name" v="Unna Gulpo-oaivváš" />
		<tag k="name:se" v="Unna Gulpo-oaivváš" />
		<tag k="natural" v="hill" />
		<tag k="old_name:se" v="Gulpo-oaivváš, unna" />
		<tag k="place" v="locality" />
		<tag k="ssr:stedsnr" v="261629" />
	</node>
	<node lat="69.43252778290278" lon="21.83227495754977" id="-46780">
		<tag k="fixme" v="consider natural=peak for the most distinct mountains in the district" />
		<tag k="name" v="Suollatvárri" />
		<tag k="name:se" v="Suollatvárri" />
		<tag k="natural" v="hill" />
		<tag k="place" v="locality" />
		<tag k="ssr:stedsnr" v="261790" />
	</node>
	<node lat="69.42039722049408" lon="21.707622180056486" id="-46781">
		<tag k="loc_name:fkv" v="Kiepa-autsi" />
		<tag k="name" v="Giebaávži" />
		<tag k="name:se" v="Giebaávži" />
		<tag k="natural" v="valley" />
		<tag k="place" v="locality" />
		<tag k="ssr:stedsnr" v="261792" />
	</node>
	<node lat="69.4586083310405" lon="21.214224973699757" id="-46784">
		<tag k="fixme" v="consider natural=peak for the most distinct mountains in the district" />
		<tag k="name" v="Geatkkutloapmi" />
		<tag k="name:se" v="Geatkkutloapmi" />
		<tag k="natural" v="hill" />
		<tag k="place" v="locality" />
		<tag k="ssr:stedsnr" v="261717" />
	</node>
	<node lat="69.31373889455332" lon="21.714280513633383" id="-46789">
		<tag k="fixme" v="consider natural=peak for the most distinct mountains in the district" />
		<tag k="name" v="Suojesdievvá" />
		<tag k="name:se" v="Suojesdievvá" />
		<tag k="natural" v="hill" />
		<tag k="place" v="locality" />
		<tag k="ssr:stedsnr" v="261820" />
	</node>
	<node lat="69.31602500478989" lon="21.838449961622512" id="-46790">
		<tag k="fixme" v="consider natural=peak for the most distinct mountains in the district" />
		<tag k="loc_name:fkv" v="Holkavaara" />
		<tag k="name" v="Holgavárri" />
		<tag k="name:se" v="Holgavárri" />
		<tag k="natural" v="hill" />
		<tag k="place" v="locality" />
		<tag k="ssr:stedsnr" v="261821" />
	</node>
	<node lat="69.30981110912423" lon="21.927961063159977" id="-46792">
		<tag k="fixme" v="consider natural=peak for the most distinct mountains in the district" />
		<tag k="name" v="Boazovárri" />
		<tag k="name:se" v="Boazovárri" />
		<tag k="natural" v="hill" />
		<tag k="place" v="locality" />
		<tag k="ssr:stedsnr" v="261838" />
	</node>
	<node lat="69.32810278085341" lon="22.399183266782913" id="-46795">
		<tag k="fixme" v="consider natural=peak for the most distinct mountains in the district" />
		<tag k="name" v="Lulit Lievlamas" />
		<tag k="name:se" v="Lulit Lievlamas" />
		<tag k="natural" v="hill" />
		<tag k="old_name:se" v="Lievlamas, lulit" />
		<tag k="place" v="locality" />
		<tag k="ssr:stedsnr" v="261938" />
	</node>
	<node lat="69.66108889259809" lon="21.610077733798192" id="-46797">
		<tag k="fixme" v="consider natural=peak for the most distinct mountains in the district" />
		<tag k="name" v="Oahpesduottar" />
		<tag k="name:se" v="Oahpesduottar" />
		<tag k="natural" v="hill" />
		<tag k="place" v="locality" />
		<tag k="ssr:stedsnr" v="262305" />
	</node>
	<node lat="69.69281944312064" lon="21.398674977412707" id="-46799">
		<tag k="name" v="Moskodalen - Moskkuvággi - Moskuvankka" />
		<tag k="name:fkv" v="Moskuvankka" />
		<tag k="name:no" v="Moskodalen" />
		<tag k="name:se" v="Moskkuvággi" />
		<tag k="natural" v="valley" />
		<tag k="place" v="locality" />
		<tag k="ssr:stedsnr" v="262326" />
	</node>
	<node lat="69.6978194457165" lon="21.555499956301304" id="-46800">
		<tag k="name" v="Gæiraskardet - Geairačahca" />
		<tag k="name:no" v="Gæiraskardet" />
		<tag k="name:se" v="Geairačahca" />
		<tag k="natural" v="valley" />
		<tag k="place" v="locality" />
		<tag k="ssr:stedsnr" v="262330" />
	</node>
	<node lat="69.54674722203136" lon="21.141966646542905" id="-46802">
		<tag k="name" v="Hirbmeslatnja" />
		<tag k="name:se" v="Hirbmeslatnja" />
		<tag k="natural" v="slope" />
		<tag k="place" v="locality" />
		<tag k="ssr:stedsnr" v="262268" />
	</node>
	<node lat="69.63815555487307" lon="21.17116107522848" id="-46804">
		<tag k="name" v="Allagurra" />
		<tag k="name:se" v="Allagurra" />
		<tag k="natural" v="valley" />
		<tag k="place" v="locality" />
		<tag k="ssr:stedsnr" v="262381" />
	</node>
	<node lat="69.67608610897697" lon="20.849611076429092" id="-46808">
		<tag k="fixme" v="consider natural=peak for the most distinct mountains in the district" />
		<tag k="name" v="Dolpi" />
		<tag k="name:se" v="Dolpi" />
		<tag k="natural" v="hill" />
		<tag k="place" v="locality" />
		<tag k="ssr:stedsnr" v="262581" />
	</node>
	<node lat="69.72690000085538" lon="21.15491942140249" id="-46810">
		<tag k="alt_name:no" v="Lille Ste" />
		<tag k="fixme" v="consider natural=peak for the most distinct mountains in the district" />
		<tag k="name" v="Litlesteet - Unna Ánahaš - Pikku-Anikka" />
		<tag k="name:fkv" v="Pikku-Anikka" />
		<tag k="name:no" v="Litlesteet" />
		<tag k="name:se" v="Unna Ánahaš" />
		<tag k="natural" v="hill" />
		<tag k="old_name:se" v="Ánahaš, unna" />
		<tag k="place" v="locality" />
		<tag k="ssr:stedsnr" v="262713" />
	</node>
	<node lat="69.72974166734568" lon="21.094944425952566" id="-46811">
		<tag k="name" v="Finnbakken" />
		<tag k="natural" v="slope" />
		<tag k="place" v="locality" />
		<tag k="ssr:stedsnr" v="262727" />
	</node>
	<node lat="69.7173722205954" lon="21.59884717612107" id="-46813">
		<tag k="fixme" v="consider natural=peak for the most distinct mountains in the district" />
		<tag k="name" v="Láŋkavárri" />
		<tag k="name:se" v="Láŋkavárri" />
		<tag k="natural" v="hill" />
		<tag k="place" v="locality" />
		<tag k="ssr:stedsnr" v="262739" />
	</node>
	<node lat="69.87025832930001" lon="21.572713863586113" id="-46816">
		<tag k="name" v="Naiggáčahca" />
		<tag k="name:se" v="Naiggáčahca" />
		<tag k="natural" v="valley" />
		<tag k="place" v="locality" />
		<tag k="ssr:stedsnr" v="262830" />
	</node>
	<node lat="69.86557500309011" lon="21.4269499725975" id="-46817">
		<tag k="alt_name" v="Litlemoen" />
		<tag k="name" v="Lillemoen" />
		<tag k="place" v="locality" />
		<tag k="ssr:stedsnr" v="262831" />
	</node>
	<node lat="69.88058610907305" lon="21.557780520770585" id="-46823">
		<tag k="fixme" v="consider natural=peak for the most distinct mountains in the district" />
		<tag k="name" v="Jiekŋavárri" />
		<tag k="name:se" v="Jiekŋavárri" />
		<tag k="natural" v="hill" />
		<tag k="place" v="locality" />
		<tag k="ssr:stedsnr" v="262861" />
	</node>
	<node lat="69.92981388606316" lon="21.403316632134175" id="-46827">
		<tag k="fixme" v="consider natural=peak for the most distinct mountains in the district" />
		<tag k="name" v="Čearretgáisá" />
		<tag k="name:se" v="Čearretgáisá" />
		<tag k="natural" v="hill" />
		<tag k="place" v="locality" />
		<tag k="ssr:stedsnr" v="262890" />
	</node>
	<node lat="69.80531111323761" lon="20.59111663705289" id="-46833">
		<tag k="fixme" v="consider natural=peak for the most distinct mountains in the district" />
		<tag k="loc_name:se" v="Gárgguoalgi" />
		<tag k="name" v="Hamnnesaksla" />
		<tag k="name:no" v="Hamnnesaksla" />
		<tag k="natural" v="hill" />
		<tag k="place" v="locality" />
		<tag k="ssr:stedsnr" v="262973" />
	</node>
	<node lat="69.81928889401577" lon="20.829252752714392" id="-46834">
		<tag k="fixme" v="consider natural=peak for the most distinct mountains in the district" />
		<tag k="name" v="Holmefjellet" />
		<tag k="natural" v="hill" />
		<tag k="place" v="locality" />
		<tag k="ssr:stedsnr" v="262981" />
	</node>
	<node lat="69.14684166806974" lon="22.29109715577813" id="-46837">
		<tag k="fixme" v="consider natural=peak for the most distinct mountains in the district" />
		<tag k="name" v="Rivttoaivi" />
		<tag k="name:se" v="Rivttoaivi" />
		<tag k="natural" v="hill" />
		<tag k="old_name:se" v="Rivtoaivi" />
		<tag k="place" v="locality" />
		<tag k="ssr:stedsnr" v="199754" />
	</node>
	<node lat="69.49295277732526" lon="21.180072180229566" id="-46838">
		<tag k="fixme" v="consider natural=peak for the most distinct mountains in the district" />
		<tag k="name" v="Vuođđočohkka" />
		<tag k="name:se" v="Vuođđočohkka" />
		<tag k="natural" v="hill" />
		<tag k="place" v="locality" />
		<tag k="ssr:stedsnr" v="200685" />
	</node>
	<node lat="69.1999444459782" lon="22.291019384171722" id="-46839">
		<tag k="fixme" v="consider natural=peak for the most distinct mountains in the district" />
		<tag k="name" v="Goddevárri" />
		<tag k="name:se" v="Goddevárri" />
		<tag k="natural" v="hill" />
		<tag k="old_name:se" v="Gåddevarri" />
		<tag k="place" v="locality" />
		<tag k="ssr:stedsnr" v="200686" />
	</node>
	<node lat="69.40081944911095" lon="21.73771940958531" id="-46841">
		<tag k="fixme" v="multiple name tags, choose one and add the other to alt_name; consider natural=peak for the most distinct mountains in the district" />
		<tag k="name" v="Sieimmanjunni;Sieimanasen" />
		<tag k="name:se" v="Sieimmanjunni;Sieimanasen" />
		<tag k="natural" v="hill" />
		<tag k="place" v="locality" />
		<tag k="ssr:stedsnr" v="200799" />
	</node>
	<node lat="69.79302222024891" lon="21.761541623255976" id="-46843">
		<tag k="fixme" v="consider natural=peak for the most distinct mountains in the district" />
		<tag k="name" v="Gáiccavárri" />
		<tag k="name:se" v="Gáiccavárri" />
		<tag k="natural" v="hill" />
		<tag k="place" v="locality" />
		<tag k="ssr:stedsnr" v="201100" />
	</node>
	<node lat="69.54107222393654" lon="21.811602729282498" id="-46847">
		<tag k="fixme" v="consider natural=peak for the most distinct mountains in the district" />
		<tag k="name" v="Sieideháldi" />
		<tag k="name:se" v="Sieideháldi" />
		<tag k="natural" v="hill" />
		<tag k="place" v="locality" />
		<tag k="ssr:stedsnr" v="201451" />
	</node>
	<node lat="69.38880000150036" lon="21.18012496501635" id="-46848">
		<tag k="fixme" v="consider natural=peak for the most distinct mountains in the district" />
		<tag k="name" v="Bajit Áhkkečohkka" />
		<tag k="name:se" v="Bajit Áhkkečohkka" />
		<tag k="natural" v="hill" />
		<tag k="old_name:se" v="Áhkkečohkka, bajit" />
		<tag k="place" v="locality" />
		<tag k="ssr:stedsnr" v="201622" />
	</node>
	<node lat="69.37594166487146" lon="21.35795551341967" id="-46849">
		<tag k="fixme" v="consider natural=peak for the most distinct mountains in the district" />
		<tag k="name" v="Stuora Gulpooaivi" />
		<tag k="name:se" v="Stuora Gulpooaivi" />
		<tag k="natural" v="hill" />
		<tag k="old_name:se" v="Gulpo-oaivi, stuora;Gulpooaivi" />
		<tag k="place" v="locality" />
		<tag k="ssr:stedsnr" v="201593" />
	</node>
	<node lat="69.87007778203295" lon="21.292877763463444" id="-46850">
		<tag k="fixme" v="consider natural=peak for the most distinct mountains in the district" />
		<tag k="name" v="Svartfjellet - Vuošgáisá" />
		<tag k="name:no" v="Svartfjellet" />
		<tag k="name:se" v="Vuošgáisá" />
		<tag k="natural" v="hill" />
		<tag k="old_name:se" v="Vuošngáisá" />
		<tag k="place" v="locality" />
		<tag k="ssr:stedsnr" v="201781" />
	</node>
	<node lat="69.86348055692987" lon="21.07100276356363" id="-46851">
		<tag k="fixme" v="consider natural=peak for the most distinct mountains in the district" />
		<tag k="name" v="Järviluokka" />
		<tag k="name:fkv" v="Järviluokka" />
		<tag k="natural" v="hill" />
		<tag k="place" v="locality" />
		<tag k="ssr:stedsnr" v="201785" />
	</node>
	<node lat="69.18267222458647" lon="22.260688828521307" id="-46856">
		<tag k="name" v="Roaváščohkat" />
		<tag k="name:se" v="Roaváščohkat" />
		<tag k="natural" v="hill" />
		<tag k="old_name:se" v="Roavaščåkkat" />
		<tag k="place" v="locality" />
		<tag k="ssr:stedsnr" v="201692" />
	</node>
	<node lat="69.17149166549869" lon="22.388502719409903" id="-46857">
		<tag k="fixme" v="consider natural=peak for the most distinct mountains in the district" />
		<tag k="name" v="Juvvanroavvi" />
		<tag k="name:se" v="Juvvanroavvi" />
		<tag k="natural" v="hill" />
		<tag k="place" v="locality" />
		<tag k="ssr:stedsnr" v="201695" />
	</node>
	<node lat="69.86537777771701" lon="20.869719423048995" id="-46864">
		<tag k="name" v="Marsidičohkka" />
		<tag k="name:se" v="Marsidičohkka" />
		<tag k="natural" v="hill" />
		<tag k="place" v="locality" />
		<tag k="ssr:stedsnr" v="235003" />
	</node>
	<node lat="69.82552778198095" lon="20.838530528431882" id="-46865">
		<tag k="name" v="Storskaret" />
		<tag k="natural" v="valley" />
		<tag k="place" v="locality" />
		<tag k="ssr:stedsnr" v="236208" />
	</node>
	<node lat="69.85191944793075" lon="21.139663861537034" id="-46866">
		<tag k="name" v="Langbakken" />
		<tag k="natural" v="slope" />
		<tag k="place" v="locality" />
		<tag k="ssr:stedsnr" v="236302" />
	</node>
	<node lat="69.76480278099112" lon="21.00777219660871" id="-46867">
		<tag k="name" v="Lillebrannen" />
		<tag k="natural" v="hill" />
		<tag k="place" v="locality" />
		<tag k="ssr:stedsnr" v="236642" />
	</node>
	<node lat="69.6797833357684" lon="21.256269413122272" id="-46869">
		<tag k="name" v="Martavollen" />
		<tag k="place" v="locality" />
		<tag k="ssr:stedsnr" v="236703" />
	</node>
	<node lat="69.89761111230617" lon="20.92074718914452" id="-46873">
		<tag k="name" v="Langberget" />
		<tag k="natural" v="hill" />
		<tag k="place" v="locality" />
		<tag k="ssr:stedsnr" v="236715" />
	</node>
	<node lat="69.80722778018037" lon="21.01448331196727" id="-46876">
		<tag k="name" v="Russeberget" />
		<tag k="natural" v="hill" />
		<tag k="place" v="locality" />
		<tag k="ssr:stedsnr" v="236678" />
	</node>
	<node lat="69.45902338330308" lon="21.377853372536116" id="-46881">
		<tag k="alt_name:no" v="Puntadalen" />
		<tag k="name" v="Buntadalen - Buntavággi - Puntanvankka" />
		<tag k="name:fkv" v="Puntanvankka" />
		<tag k="name:no" v="Buntadalen" />
		<tag k="name:se" v="Buntavággi" />
		<tag k="natural" v="valley" />
		<tag k="place" v="locality" />
		<tag k="ssr:stedsnr" v="261689" />
	</node>
	<node lat="69.65313888852182" lon="21.098041643019275" id="-46883">
		<tag k="name" v="Annahaugen" />
		<tag k="natural" v="hill" />
		<tag k="place" v="locality" />
		<tag k="ssr:stedsnr" v="262301" />
	</node>
	<node lat="69.5166361126308" lon="22.031252737565033" id="-46884">
		<tag k="name" v="Juovvavággi" />
		<tag k="name:se" v="Juovvavággi" />
		<tag k="natural" v="valley" />
		<tag k="place" v="locality" />
		<tag k="ssr:stedsnr" v="262409" />
	</node>
	<node lat="69.70652222357738" lon="21.095102761210192" id="-46890">
		<tag k="alt_name:no" v="Samueldalen" />
		<tag k="name" v="Kildalen - Sapmavággi - Sammalvankka" />
		<tag k="name:fkv" v="Sammalvankka" />
		<tag k="name:no" v="Kildalen" />
		<tag k="name:se" v="Sapmavággi" />
		<tag k="natural" v="valley" />
		<tag k="place" v="locality" />
		<tag k="ssr:stedsnr" v="262743" />
	</node>
	<node lat="69.80881111322111" lon="21.202277757816393" id="-46892">
		<tag k="fixme" v="consider natural=peak for the most distinct mountains in the district" />
		<tag k="name" v="Fáhttavárri" />
		<tag k="name:se" v="Fáhttavárri" />
		<tag k="natural" v="hill" />
		<tag k="old_name:se" v="Fahttavárri" />
		<tag k="place" v="locality" />
		<tag k="ssr:stedsnr" v="262793" />
	</node>
	<node lat="69.52653333813662" lon="21.415902738017266" id="-46898">
		<tag k="name" v="Svartfossgohpi" />
		<tag k="natural" v="valley" />
		<tag k="place" v="locality" />
		<tag k="ssr:stedsnr" v="266342" />
	</node>
	<node lat="69.85551389111755" lon="20.530558305216523" id="-46906">
		<tag k="name" v="Fuglberget" />
		<tag k="natural" v="hill" />
		<tag k="place" v="locality" />
		<tag k="ssr:stedsnr" v="296837" />
	</node>
	<node lat="69.92389999709523" lon="20.974263859423072" id="-46907">
		<tag k="name" v="Hagebakken" />
		<tag k="natural" v="slope" />
		<tag k="place" v="locality" />
		<tag k="ssr:stedsnr" v="296725" />
	</node>
	<node lat="69.81479444606268" lon="20.53504998562128" id="-46909">
		<tag k="name" v="Ytterberget" />
		<tag k="natural" v="hill" />
		<tag k="place" v="locality" />
		<tag k="ssr:stedsnr" v="296778" />
	</node>
	<node lat="69.76036944324706" lon="20.53142777152241" id="-46911">
		<tag k="name" v="Langbakken" />
		<tag k="natural" v="slope" />
		<tag k="place" v="locality" />
		<tag k="ssr:stedsnr" v="296980" />
	</node>
	<node lat="69.80593333316001" lon="20.75115554620799" id="-46913">
		<tag k="name" v="Lia" />
		<tag k="natural" v="slope" />
		<tag k="place" v="locality" />
		<tag k="ssr:stedsnr" v="297080" />
	</node>
	<node lat="69.77293055971064" lon="20.73715830754103" id="-46914">
		<tag k="name" v="Rautasflaten" />
		<tag k="place" v="locality" />
		<tag k="ssr:stedsnr" v="297221" />
	</node>
	<node lat="69.76905277720812" lon="20.74200274737113" id="-46916">
		<tag k="alt_name" v="Storbakkhompen" />
		<tag k="name" v="Storbakkhumpen" />
		<tag k="natural" v="hill" />
		<tag k="place" v="locality" />
		<tag k="ssr:stedsnr" v="297228" />
	</node>
	<node lat="69.79233055785538" lon="20.728330538265652" id="-46917">
		<tag k="name" v="Hjemlian" />
		<tag k="natural" v="slope" />
		<tag k="place" v="locality" />
		<tag k="ssr:stedsnr" v="297232" />
	</node>
	<node lat="69.67212500013116" lon="21.297574957860043" id="-46919">
		<tag k="name" v="Høgegga" />
		<tag k="natural" v="ridge" />
		<tag k="place" v="locality" />
		<tag k="ssr:stedsnr" v="297728" />
	</node>
	<node lat="69.82691944652565" lon="21.082338859102528" id="-46923">
		<tag k="fixme" v="consider natural=peak for the most distinct mountains in the district" />
		<tag k="name" v="Ritavaara" />
		<tag k="name:fkv" v="Ritavaara" />
		<tag k="natural" v="hill" />
		<tag k="place" v="locality" />
		<tag k="ssr:stedsnr" v="297976" />
	</node>
	<node lat="69.82307222338244" lon="21.058736088856786" id="-46924">
		<tag k="name" v="Langbakken" />
		<tag k="natural" v="slope" />
		<tag k="place" v="locality" />
		<tag k="ssr:stedsnr" v="297978" />
	</node>
	<node lat="69.7581722211476" lon="21.104263857718422" id="-46925">
		<tag k="name" v="Giviøya" />
		<tag k="natural" v="hill" />
		<tag k="place" v="locality" />
		<tag k="ssr:stedsnr" v="310938" />
	</node>
	<node lat="69.25741111271626" lon="21.950727722601204" id="-46926">
		<tag k="fixme" v="consider natural=peak for the most distinct mountains in the district" />
		<tag k="name" v="Guorbamohkki" />
		<tag k="name:se" v="Guorbamohkki" />
		<tag k="natural" v="hill" />
		<tag k="place" v="locality" />
		<tag k="ssr:stedsnr" v="321736" />
	</node>
	<node lat="69.79370000498976" lon="21.273416643662642" id="-46929">
		<tag k="fixme" v="consider natural=peak for the most distinct mountains in the district" />
		<tag k="name" v="Bálggesoaivi" />
		<tag k="name:se" v="Bálggesoaivi" />
		<tag k="natural" v="hill" />
		<tag k="old_name:se" v="Balggesoaivi" />
		<tag k="place" v="locality" />
		<tag k="ssr:stedsnr" v="322185" />
	</node>
	<node lat="69.77996666468069" lon="21.2415583096437" id="-46930">
		<tag k="fixme" v="consider natural=peak for the most distinct mountains in the district" />
		<tag k="name" v="Muotkeriidi" />
		<tag k="name:se" v="Muotkeriidi" />
		<tag k="natural" v="hill" />
		<tag k="place" v="locality" />
		<tag k="ssr:stedsnr" v="322189" />
	</node>
	<node lat="69.76535833754616" lon="21.462305513199983" id="-46931">
		<tag k="name" v="Rássevátčahca" />
		<tag k="name:se" v="Rássevátčahca" />
		<tag k="natural" v="valley" />
		<tag k="place" v="locality" />
		<tag k="ssr:stedsnr" v="322191" />
	</node>
	<node lat="69.67909722652956" lon="21.030038860022717" id="-46933">
		<tag k="fixme" v="consider natural=peak for the most distinct mountains in the district" />
		<tag k="name" v="Tindan" />
		<tag k="natural" v="hill" />
		<tag k="place" v="locality" />
		<tag k="ssr:stedsnr" v="322308" />
	</node>
	<node lat="69.20924999897294" lon="21.881974952951904" id="-46934">
		<tag k="fixme" v="consider natural=peak for the most distinct mountains in the district" />
		<tag k="name" v="Roggeoaivi" />
		<tag k="name:se" v="Roggeoaivi" />
		<tag k="natural" v="hill" />
		<tag k="place" v="locality" />
		<tag k="ssr:stedsnr" v="322505" />
	</node>
	<node lat="69.21772500527868" lon="22.014686059729257" id="-46935">
		<tag k="name" v="Orvvošvuopmi" />
		<tag k="name:se" v="Orvvošvuopmi" />
		<tag k="natural" v="valley" />
		<tag k="place" v="locality" />
		<tag k="ssr:stedsnr" v="322507" />
	</node>
	<node lat="69.18830556023747" lon="22.23023049053506" id="-46937">
		<tag k="fixme" v="consider natural=peak for the most distinct mountains in the district" />
		<tag k="name" v="Vievssisgielas" />
		<tag k="name:se" v="Vievssisgielas" />
		<tag k="natural" v="hill" />
		<tag k="old_name:se" v="Vievsesgielas" />
		<tag k="place" v="locality" />
		<tag k="ssr:stedsnr" v="322683" />
	</node>
	<node lat="69.35365278123611" lon="22.05019995704845" id="-46942">
		<tag k="fixme" v="consider natural=peak for the most distinct mountains in the district" />
		<tag k="name" v="Erinvárri" />
		<tag k="name:se" v="Erinvárri" />
		<tag k="natural" v="hill" />
		<tag k="place" v="locality" />
		<tag k="ssr:stedsnr" v="322826" />
	</node>
	<node lat="69.35465000008331" lon="22.201683278985538" id="-46943">
		<tag k="fixme" v="consider natural=peak for the most distinct mountains in the district" />
		<tag k="name" v="Avvevákkirášša" />
		<tag k="name:se" v="Avvevákkirášša" />
		<tag k="natural" v="hill" />
		<tag k="place" v="locality" />
		<tag k="ssr:stedsnr" v="322827" />
	</node>
	<node lat="69.79094722043266" lon="20.65994997278695" id="-46950">
		<tag k="name" v="Sandbakken" />
		<tag k="natural" v="slope" />
		<tag k="place" v="locality" />
		<tag k="ssr:stedsnr" v="328863" />
	</node>
	<node lat="69.86810833658053" lon="20.874127765943342" id="-46956">
		<tag k="name" v="Moskibakken" />
		<tag k="natural" v="slope" />
		<tag k="place" v="locality" />
		<tag k="ssr:stedsnr" v="357012" />
	</node>
	<node lat="69.8639638940366" lon="20.75268052723107" id="-46957">
		<tag k="name" v="Mellaviknakken" />
		<tag k="natural" v="ridge" />
		<tag k="place" v="locality" />
		<tag k="ssr:stedsnr" v="357001" />
	</node>
	<node lat="69.82536111480516" lon="21.015977768377265" id="-46961">
		<tag k="name" v="Stålberget" />
		<tag k="natural" v="hill" />
		<tag k="place" v="locality" />
		<tag k="ssr:stedsnr" v="357308" />
	</node>
	<node lat="69.97661389162373" lon="21.21469997688981" id="-46962">
		<tag k="alt_name" v="Peskeflåget" />
		<tag k="name" v="Peskefloget" />
		<tag k="natural" v="hill" />
		<tag k="place" v="locality" />
		<tag k="ssr:stedsnr" v="357311" />
	</node>
	<node lat="69.82353611482303" lon="21.035927750753796" id="-46963">
		<tag k="name" v="Svartberget" />
		<tag k="natural" v="hill" />
		<tag k="place" v="locality" />
		<tag k="ssr:stedsnr" v="357312" />
	</node>
	<node lat="69.72203333261798" lon="21.04077220611477" id="-46966">
		<tag k="name" v="Skavlegda" />
		<tag k="natural" v="slope" />
		<tag k="place" v="locality" />
		<tag k="ssr:stedsnr" v="357404" />
	</node>
	<node lat="69.8871999968796" lon="20.901608309001993" id="-46970">
		<tag k="name" v="Fjellenden" />
		<tag k="natural" v="ridge" />
		<tag k="place" v="locality" />
		<tag k="ssr:stedsnr" v="357706" />
	</node>
	<node lat="69.92529166655481" lon="20.993238853261758" id="-46971">
		<tag k="name" v="Hestevikberget" />
		<tag k="natural" v="hill" />
		<tag k="place" v="locality" />
		<tag k="ssr:stedsnr" v="357721" />
	</node>
	<node lat="69.84191111470285" lon="21.06502776314735" id="-46974">
		<tag k="name" v="Čohkka" />
		<tag k="name:se" v="Čohkka" />
		<tag k="natural" v="hill" />
		<tag k="place" v="locality" />
		<tag k="ssr:stedsnr" v="357958" />
	</node>
	<node lat="69.77956667165324" lon="20.751049981937115" id="-46975">
		<tag k="fixme" v="consider natural=peak for the most distinct mountains in the district" />
		<tag k="name" v="Svartfjellet" />
		<tag k="natural" v="hill" />
		<tag k="place" v="locality" />
		<tag k="ssr:stedsnr" v="358204" />
	</node>
	<node lat="69.76659444764526" lon="20.73506108162888" id="-46977">
		<tag k="name" v="Skredfaran" />
		<tag k="natural" v="slope" />
		<tag k="place" v="locality" />
		<tag k="ssr:stedsnr" v="358199" />
	</node>
	<node lat="69.74715278040797" lon="20.739991645329447" id="-46981">
		<tag k="name" v="Rundhaugen" />
		<tag k="natural" v="hill" />
		<tag k="place" v="locality" />
		<tag k="ssr:stedsnr" v="478230" />
	</node>
	<node lat="69.7741500022816" lon="20.572852754087673" id="-46983">
		<tag k="name" v="Ramlan" />
		<tag k="natural" v="hill" />
		<tag k="place" v="locality" />
		<tag k="ssr:stedsnr" v="478241" />
	</node>
	<node lat="69.94811944757465" lon="21.284222208628734" id="-46984">
		<tag k="alt_name:no" v="Rundhompan" />
		<tag k="name" v="Rundhumpan - Čohkan" />
		<tag k="name:no" v="Rundhumpan" />
		<tag k="name:se" v="Čohkan" />
		<tag k="natural" v="hill" />
		<tag k="place" v="locality" />
		<tag k="ssr:stedsnr" v="478292" />
	</node>
	<node lat="69.72311111348887" lon="21.023502755871228" id="-46987">
		<tag k="name" v="Låvigrubba" />
		<tag k="natural" v="valley" />
		<tag k="place" v="locality" />
		<tag k="ssr:stedsnr" v="478417" />
	</node>
	<node lat="69.84167499993602" lon="20.92423331759031" id="-46989">
		<tag k="name" v="Katteberget" />
		<tag k="natural" v="hill" />
		<tag k="place" v="locality" />
		<tag k="ssr:stedsnr" v="478437" />
	</node>
	<node lat="69.8380055596961" lon="20.90389163827829" id="-46990">
		<tag k="name" v="Sodloka" />
		<tag k="natural" v="slope" />
		<tag k="place" v="locality" />
		<tag k="ssr:stedsnr" v="478441" />
	</node>
	<node lat="69.90194166798535" lon="20.940313877141495" id="-46991">
		<tag k="name" v="Aslakbergan" />
		<tag k="natural" v="hill" />
		<tag k="place" v="locality" />
		<tag k="ssr:stedsnr" v="478756" />
	</node>
	<node lat="69.8242305537891" lon="20.545572206276912" id="-46992">
		<tag k="name" v="Girabákti" />
		<tag k="name:se" v="Girabákti" />
		<tag k="natural" v="hill" />
		<tag k="place" v="locality" />
		<tag k="ssr:stedsnr" v="478769" />
	</node>
	<node lat="69.79601111206586" lon="21.12409164487654" id="-46993">
		<tag k="name" v="Bergan" />
		<tag k="natural" v="hill" />
		<tag k="place" v="locality" />
		<tag k="ssr:stedsnr" v="478618" />
	</node>
	<node lat="69.85538889020515" lon="20.540552772291086" id="-46997">
		<tag k="name" v="Marslokthaugen" />
		<tag k="natural" v="hill" />
		<tag k="place" v="locality" />
		<tag k="ssr:stedsnr" v="478839" />
	</node>
	<node lat="69.76308611577086" lon="20.738966640415125" id="-47001">
		<tag k="name" v="Pinnarbakken" />
		<tag k="natural" v="slope" />
		<tag k="place" v="locality" />
		<tag k="ssr:stedsnr" v="479222" />
	</node>
	<node lat="69.5603777773012" lon="21.23238608165031" id="-47003">
		<tag k="name" v="Jávrilokta" />
		<tag k="name:se" v="Jávrilokta" />
		<tag k="place" v="locality" />
		<tag k="ssr:stedsnr" v="479269" />
	</node>
	<node lat="69.71238055729985" lon="21.05478607544339" id="-47008">
		<tag k="name" v="Vedhøgget" />
		<tag k="natural" v="slope" />
		<tag k="place" v="locality" />
		<tag k="ssr:stedsnr" v="479718" />
	</node>
	<node lat="69.80138888885611" lon="21.102766652108922" id="-47014">
		<tag k="name" v="Raija" />
		<tag k="name:fkv" v="Raija" />
		<tag k="natural" v="slope" />
		<tag k="place" v="locality" />
		<tag k="ssr:stedsnr" v="479843" />
	</node>
	<node lat="69.80590555574803" lon="21.121658319649335" id="-47015">
		<tag k="name" v="Dommabahta" />
		<tag k="name:se" v="Dommabahta" />
		<tag k="natural" v="valley" />
		<tag k="place" v="locality" />
		<tag k="ssr:stedsnr" v="479860" />
	</node>
	<node lat="69.52817500256553" lon="21.38498607539083" id="-47017">
		<tag k="name" v="Svartfossberget" />
		<tag k="natural" v="hill" />
		<tag k="place" v="locality" />
		<tag k="ssr:stedsnr" v="479957" />
	</node>
	<node lat="69.74535278228741" lon="21.52955829965355" id="-47024">
		<tag k="name" v="Rokkilčahca" />
		<tag k="name:se" v="Rokkilčahca" />
		<tag k="natural" v="valley" />
		<tag k="place" v="locality" />
		<tag k="ssr:stedsnr" v="382704" />
	</node>
	<node lat="69.32081389062472" lon="21.376752734522842" id="-47026">
		<tag k="fixme" v="consider natural=peak for the most distinct mountains in the district" />
		<tag k="name" v="Háldečazavárri" />
		<tag k="name:se" v="Háldečazavárri" />
		<tag k="natural" v="hill" />
		<tag k="place" v="locality" />
		<tag k="ssr:stedsnr" v="382653" />
	</node>
	<node lat="69.44726111091164" lon="21.869002742846714" id="-47028">
		<tag k="fixme" v="consider natural=peak for the most distinct mountains in the district" />
		<tag k="name" v="Boršu" />
		<tag k="name:se" v="Boršu" />
		<tag k="natural" v="hill" />
		<tag k="place" v="locality" />
		<tag k="ssr:stedsnr" v="382803" />
	</node>
	<node lat="69.36482500260135" lon="22.153455516498283" id="-47029">
		<tag k="fixme" v="consider natural=peak for the most distinct mountains in the district" />
		<tag k="name" v="Buvrorášša" />
		<tag k="name:se" v="Buvrorášša" />
		<tag k="natural" v="hill" />
		<tag k="place" v="locality" />
		<tag k="ssr:stedsnr" v="382810" />
	</node>
	<node lat="69.35924999981198" lon="22.123886047217507" id="-47030">
		<tag k="fixme" v="consider natural=peak for the most distinct mountains in the district" />
		<tag k="name" v="Buvrooaivi" />
		<tag k="name:se" v="Buvrooaivi" />
		<tag k="natural" v="hill" />
		<tag k="old_name:se" v="Buvro-oaivi" />
		<tag k="place" v="locality" />
		<tag k="ssr:stedsnr" v="382812" />
	</node>
	<node lat="69.77006110994989" lon="21.658924953981366" id="-47031">
		<tag k="fixme" v="consider natural=peak for the most distinct mountains in the district" />
		<tag k="name" v="Náhpoorda" />
		<tag k="name:se" v="Náhpoorda" />
		<tag k="natural" v="hill" />
		<tag k="place" v="locality" />
		<tag k="ssr:stedsnr" v="383013" />
	</node>
	<node lat="69.78674722624065" lon="21.635949963981826" id="-47032">
		<tag k="name" v="Storelidalen" />
		<tag k="natural" v="valley" />
		<tag k="place" v="locality" />
		<tag k="ssr:stedsnr" v="383113" />
	</node>
	<node lat="69.09980833840171" lon="21.94085273567575" id="-47035">
		<tag k="fixme" v="consider natural=peak for the most distinct mountains in the district" />
		<tag k="name" v="Ruvnnavárri" />
		<tag k="name:se" v="Ruvnnavárri" />
		<tag k="natural" v="hill" />
		<tag k="place" v="locality" />
		<tag k="ssr:stedsnr" v="383552" />
	</node>
	<node lat="69.50990833626109" lon="21.034513857725376" id="-47036">
		<tag k="fixme" v="consider natural=peak for the most distinct mountains in the district" />
		<tag k="name" v="Njárgavárri" />
		<tag k="name:se" v="Njárgavárri" />
		<tag k="natural" v="hill" />
		<tag k="place" v="locality" />
		<tag k="ssr:stedsnr" v="383450" />
	</node>
	<node lat="69.67774999982502" lon="21.677924952037085" id="-47037">
		<tag k="fixme" v="consider natural=peak for the most distinct mountains in the district" />
		<tag k="name" v="Meastogáisá" />
		<tag k="name:se" v="Meastogáisá" />
		<tag k="natural" v="hill" />
		<tag k="old_name:se" v="Meastagáisá" />
		<tag k="place" v="locality" />
		<tag k="ssr:stedsnr" v="383458" />
	</node>
	<node lat="69.76815833440422" lon="20.947872194162784" id="-47038">
		<tag k="fixme" v="consider natural=peak for the most distinct mountains in the district" />
		<tag k="name" v="Leirbuktfjellet - Reašševárri" />
		<tag k="name:no" v="Leirbuktfjellet" />
		<tag k="name:se" v="Reašševárri" />
		<tag k="natural" v="hill" />
		<tag k="place" v="locality" />
		<tag k="ssr:stedsnr" v="383918" />
	</node>
	<node lat="69.84788888544969" lon="20.833441656022526" id="-47046">
		<tag k="name" v="Lillehaugen" />
		<tag k="natural" v="hill" />
		<tag k="place" v="locality" />
		<tag k="ssr:stedsnr" v="418110" />
	</node>
	<node lat="69.72372500304066" lon="21.09424443029331" id="-47048">
		<tag k="name" v="Hundbergan" />
		<tag k="natural" v="hill" />
		<tag k="place" v="locality" />
		<tag k="ssr:stedsnr" v="418552" />
	</node>
	<node lat="69.87326666951817" lon="20.904930528302327" id="-47051">
		<tag k="name" v="Divriidi" />
		<tag k="name:se" v="Divriidi" />
		<tag k="natural" v="slope" />
		<tag k="place" v="locality" />
		<tag k="ssr:stedsnr" v="418688" />
	</node>
	<node lat="69.83388610907095" lon="20.54115276484838" id="-47052">
		<tag k="name" v="Gohpivággi" />
		<tag k="name:se" v="Gohpivággi" />
		<tag k="natural" v="valley" />
		<tag k="place" v="locality" />
		<tag k="ssr:stedsnr" v="418735" />
	</node>
	<node lat="69.83140833848333" lon="20.526988870353343" id="-47053">
		<tag k="name" v="Attangurra" />
		<tag k="name:se" v="Attangurra" />
		<tag k="natural" v="valley" />
		<tag k="place" v="locality" />
		<tag k="ssr:stedsnr" v="418742" />
	</node>
	<node lat="69.7954722228628" lon="21.16811385210193" id="-47057">
		<tag k="name" v="Sparloftan" />
		<tag k="natural" v="hill" />
		<tag k="place" v="locality" />
		<tag k="ssr:stedsnr" v="419510" />
	</node>
	<node lat="69.76075277452725" lon="21.043874975616255" id="-47061">
		<tag k="name" v="Gorosomoen" />
		<tag k="place" v="locality" />
		<tag k="ssr:stedsnr" v="419687" />
	</node>
	<node lat="69.92383333507446" lon="21.256169415514247" id="-47064">
		<tag k="name" v="Gohpi" />
		<tag k="name:se" v="Gohpi" />
		<tag k="natural" v="valley" />
		<tag k="place" v="locality" />
		<tag k="ssr:stedsnr" v="419912" />
	</node>
	<node lat="69.78833611470124" lon="21.192877755561362" id="-47066">
		<tag k="name" v="Reidaringohpi" />
		<tag k="name:se" v="Reidaringohpi" />
		<tag k="natural" v="valley" />
		<tag k="place" v="locality" />
		<tag k="ssr:stedsnr" v="419926" />
	</node>
	<node lat="69.12606111688281" lon="22.500419375380726" id="-47072">
		<tag k="fixme" v="consider natural=peak for the most distinct mountains in the district" />
		<tag k="name" v="Ripmonoaivi" />
		<tag k="name:se" v="Ripmonoaivi" />
		<tag k="natural" v="hill" />
		<tag k="old_name:se" v="Ribmunoaivi" />
		<tag k="place" v="locality" />
		<tag k="ssr:stedsnr" v="442755" />
	</node>
	<node lat="69.24435833186831" lon="22.379516601933393" id="-47073">
		<tag k="fixme" v="consider natural=peak for the most distinct mountains in the district" />
		<tag k="name" v="Njárgašlubbu" />
		<tag k="name:se" v="Njárgašlubbu" />
		<tag k="natural" v="hill" />
		<tag k="old_name:se" v="Njargašlubbo" />
		<tag k="place" v="locality" />
		<tag k="ssr:stedsnr" v="443239" />
	</node>
	<node lat="69.49719999771814" lon="21.745513851144626" id="-47074">
		<tag k="fixme" v="consider natural=peak for the most distinct mountains in the district" />
		<tag k="name" v="Skárivárri" />
		<tag k="name:se" v="Skárivárri" />
		<tag k="natural" v="hill" />
		<tag k="place" v="locality" />
		<tag k="ssr:stedsnr" v="443636" />
	</node>
	<node lat="69.39596388957384" lon="22.325505485160765" id="-47077">
		<tag k="fixme" v="consider natural=peak for the most distinct mountains in the district" />
		<tag k="name" v="Mollejus" />
		<tag k="name:se" v="Mollejus" />
		<tag k="natural" v="hill" />
		<tag k="old_name:se" v="Mållejus;Mollejos" />
		<tag k="place" v="locality" />
		<tag k="ssr:stedsnr" v="443780" />
	</node>
	<node lat="69.29151944853896" lon="22.141730502450226" id="-47078">
		<tag k="name" v="Sáhpángorsa" />
		<tag k="name:se" v="Sáhpángorsa" />
		<tag k="natural" v="valley" />
		<tag k="place" v="locality" />
		<tag k="ssr:stedsnr" v="443832" />
	</node>
	<node lat="69.53665833373186" lon="21.434802748693926" id="-47085">
		<tag k="name" v="Gearpmesorda" />
		<tag k="name:se" v="Gearpmesorda" />
		<tag k="natural" v="slope" />
		<tag k="place" v="locality" />
		<tag k="ssr:stedsnr" v="444236" />
	</node>
	<node lat="69.65143888753776" lon="20.855558304239867" id="-47087">
		<tag k="name" v="Trongdalen - Cohkolatvággi" />
		<tag k="name:no" v="Trongdalen" />
		<tag k="name:se" v="Cohkolatvággi" />
		<tag k="natural" v="valley" />
		<tag k="place" v="locality" />
		<tag k="ssr:stedsnr" v="444405" />
	</node>
	<node lat="69.56968889239644" lon="21.38086941291976" id="-47088">
		<tag k="fixme" v="consider natural=peak for the most distinct mountains in the district" />
		<tag k="name" v="Goddevárri" />
		<tag k="name:se" v="Goddevárri" />
		<tag k="natural" v="hill" />
		<tag k="place" v="locality" />
		<tag k="ssr:stedsnr" v="444408" />
	</node>
	<node lat="69.18615555557568" lon="21.79910550406561" id="-47091">
		<tag k="name" v="Siđusgohpi" />
		<tag k="name:se" v="Siđusgohpi" />
		<tag k="natural" v="valley" />
		<tag k="place" v="locality" />
		<tag k="ssr:stedsnr" v="444503" />
	</node>
	<node lat="69.74426389099112" lon="20.957322212327416" id="-47093">
		<tag k="name" v="Sagdalen - Sahávággi" />
		<tag k="name:no" v="Sagdalen" />
		<tag k="name:se" v="Sahávággi" />
		<tag k="natural" v="valley" />
		<tag k="place" v="locality" />
		<tag k="ssr:stedsnr" v="444587" />
	</node>
	<node lat="69.70143888738522" lon="21.025219423706044" id="-47095">
		<tag k="fixme" v="consider natural=peak for the most distinct mountains in the district" />
		<tag k="name" v="Svartfjellet - Čáhppesvárri" />
		<tag k="name:no" v="Svartfjellet" />
		<tag k="name:se" v="Čáhppesvárri" />
		<tag k="natural" v="hill" />
		<tag k="place" v="locality" />
		<tag k="ssr:stedsnr" v="444709" />
	</node>
	<node lat="69.81342499850747" lon="20.69686942720939" id="-47101">
		<tag k="name" v="Gabrielholet" />
		<tag k="place" v="locality" />
		<tag k="ssr:stedsnr" v="444979" />
	</node>
	<node lat="69.85389166586008" lon="20.544852757323582" id="-47110">
		<tag k="alt_name" v="Ravjaflåget" />
		<tag k="name" v="Ravjafloget" />
		<tag k="natural" v="cliff" />
		<tag k="ssr:stedsnr" v="473371" />
	</node>
	<node lat="69.84871666414857" lon="20.81686942543558" id="-47111">
		<tag k="name" v="Finnsteinhaugen" />
		<tag k="natural" v="hill" />
		<tag k="place" v="locality" />
		<tag k="ssr:stedsnr" v="478104" />
	</node>
	<node lat="69.85797777788804" lon="21.135697197190737" id="-47112">
		<tag k="name" v="Storbuktriidi" />
		<tag k="natural" v="slope" />
		<tag k="place" v="locality" />
		<tag k="ssr:stedsnr" v="478310" />
	</node>
	<node lat="69.82698055489018" lon="21.027333298894817" id="-47113">
		<tag k="name" v="Storaksla" />
		<tag k="place" v="locality" />
		<tag k="ssr:stedsnr" v="478327" />
	</node>
	<node lat="69.82074166930389" lon="20.887477766369862" id="-47114">
		<tag k="name" v="Brakkehaugen" />
		<tag k="natural" v="hill" />
		<tag k="place" v="locality" />
		<tag k="ssr:stedsnr" v="478334" />
	</node>
	<node lat="69.87109999791572" lon="21.189861071589828" id="-47119">
		<tag k="name" v="Straumbakken" />
		<tag k="natural" v="slope" />
		<tag k="place" v="locality" />
		<tag k="ssr:stedsnr" v="478786" />
	</node>
	<node lat="69.83574999745306" lon="20.836086100055418" id="-47123">
		<tag k="name" v="Storvassryggen" />
		<tag k="natural" v="ridge" />
		<tag k="place" v="locality" />
		<tag k="ssr:stedsnr" v="479208" />
	</node>
	<node lat="69.71855277528532" lon="21.27273885551386" id="-47125">
		<tag k="name" v="Traskarbekken" />
		<tag k="natural" v="slope" />
		<tag k="place" v="locality" />
		<tag k="ssr:stedsnr" v="479771" />
	</node>
	<node lat="69.27422500362542" lon="21.986827718666294" id="-47132">
		<tag k="fixme" v="consider natural=peak for the most distinct mountains in the district" />
		<tag k="name" v="Jierttágahpir" />
		<tag k="name:se" v="Jierttágahpir" />
		<tag k="natural" v="hill" />
		<tag k="place" v="locality" />
		<tag k="ssr:stedsnr" v="503721" />
	</node>
	<node lat="69.72601388608513" lon="20.61984997302556" id="-47137">
		<tag k="fixme" v="consider natural=peak for the most distinct mountains in the district" />
		<tag k="name" v="Sorbmegáisá" />
		<tag k="name:se" v="Sorbmegáisá" />
		<tag k="natural" v="hill" />
		<tag k="place" v="locality" />
		<tag k="ssr:stedsnr" v="504616" />
	</node>
	<node lat="69.23909444503595" lon="21.841677737952963" id="-47141">
		<tag k="fixme" v="consider natural=peak for the most distinct mountains in the district" />
		<tag k="name" v="Vuolit Čunooaivi" />
		<tag k="name:se" v="Vuolit Čunooaivi" />
		<tag k="natural" v="hill" />
		<tag k="old_name:se" v="Čunooaivi, vuolit;Čuno-oaivi, vuolit" />
		<tag k="place" v="locality" />
		<tag k="ssr:stedsnr" v="504568" />
	</node>
	<node lat="69.16571666463523" lon="22.3156110620193" id="-47144">
		<tag k="fixme" v="consider natural=peak for the most distinct mountains in the district" />
		<tag k="name" v="Báhrovárri" />
		<tag k="name:se" v="Báhrovárri" />
		<tag k="natural" v="hill" />
		<tag k="old_name:se" v="Bahruvarri" />
		<tag k="place" v="locality" />
		<tag k="ssr:stedsnr" v="504707" />
	</node>
	<node lat="69.4172388896438" lon="21.81294995977863" id="-47145">
		<tag k="fixme" v="consider natural=peak for the most distinct mountains in the district" />
		<tag k="name" v="Soalddátoaivi" />
		<tag k="name:se" v="Soalddátoaivi" />
		<tag k="natural" v="hill" />
		<tag k="place" v="locality" />
		<tag k="ssr:stedsnr" v="504805" />
	</node>
	<node lat="69.44698610998226" lon="21.762613840817266" id="-47147">
		<tag k="fixme" v="consider natural=peak for the most distinct mountains in the district" />
		<tag k="name" v="Geinnodatnjunni" />
		<tag k="name:se" v="Geinnodatnjunni" />
		<tag k="natural" v="hill" />
		<tag k="place" v="locality" />
		<tag k="ssr:stedsnr" v="504811" />
	</node>
	<node lat="69.36349999788608" lon="21.817338841405117" id="-47149">
		<tag k="fixme" v="consider natural=peak for the most distinct mountains in the district" />
		<tag k="name" v="Yli-Toornio" />
		<tag k="name:fkv" v="Yli-Toornio" />
		<tag k="natural" v="hill" />
		<tag k="place" v="locality" />
		<tag k="ssr:stedsnr" v="504818" />
	</node>
	<node lat="69.48216111386533" lon="22.27939160319251" id="-47152">
		<tag k="fixme" v="consider natural=peak for the most distinct mountains in the district" />
		<tag k="name" v="Rávdoaivi" />
		<tag k="name:se" v="Rávdoaivi" />
		<tag k="natural" v="hill" />
		<tag k="old_name:se" v="Ravdoaivi;Rávdooaivi" />
		<tag k="place" v="locality" />
		<tag k="ssr:stedsnr" v="504777" />
	</node>
	<node lat="69.28447499869289" lon="22.191944381844547" id="-47164">
		<tag k="fixme" v="consider natural=peak for the most distinct mountains in the district" />
		<tag k="loc_name:fkv" v="Louti;Loutikka" />
		<tag k="name" v="Luovddit" />
		<tag k="name:se" v="Luovddit" />
		<tag k="natural" v="hill" />
		<tag k="place" v="locality" />
		<tag k="ssr:stedsnr" v="685857" />
	</node>
	<node lat="69.28927500353872" lon="22.06802217461403" id="-47165">
		<tag k="name" v="Luvddiidvuopmi" />
		<tag k="name:se" v="Luvddiidvuopmi" />
		<tag k="natural" v="valley" />
		<tag k="place" v="locality" />
		<tag k="ssr:stedsnr" v="685861" />
	</node>
	<node lat="69.28068888716969" lon="21.803083286523716" id="-47166">
		<tag k="name" v="Áŋkkargurra" />
		<tag k="name:se" v="Áŋkkargurra" />
		<tag k="natural" v="valley" />
		<tag k="place" v="locality" />
		<tag k="ssr:stedsnr" v="685866" />
	</node>
	<node lat="69.28148611173792" lon="21.83219994627839" id="-47167">
		<tag k="loc_name:fkv" v="Ahmavuoma" />
		<tag k="name" v="Geatkevuopmi" />
		<tag k="name:se" v="Geatkevuopmi" />
		<tag k="natural" v="valley" />
		<tag k="place" v="locality" />
		<tag k="ssr:stedsnr" v="685867" />
	</node>
	<node lat="69.30193611644647" lon="22.142755500454722" id="-47168">
		<tag k="name" v="Sáhpánoaivi" />
		<tag k="name:se" v="Sáhpánoaivi" />
		<tag k="natural" v="hill" />
		<tag k="place" v="locality" />
		<tag k="ssr:stedsnr" v="685870" />
	</node>
	<node lat="69.21378888998301" lon="22.36068604023932" id="-47174">
		<tag k="fixme" v="consider natural=peak for the most distinct mountains in the district" />
		<tag k="name" v="Jalgesvárri" />
		<tag k="name:se" v="Jalgesvárri" />
		<tag k="natural" v="hill" />
		<tag k="old_name:se" v="Jalgesvarri" />
		<tag k="place" v="locality" />
		<tag k="ssr:stedsnr" v="686249" />
	</node>
	<node lat="69.52628333033803" lon="21.198755528499188" id="-47179">
		<tag k="fixme" v="consider natural=peak for the most distinct mountains in the district" />
		<tag k="name" v="Jávreoaivvit" />
		<tag k="name:se" v="Jávreoaivvit" />
		<tag k="natural" v="hill" />
		<tag k="place" v="locality" />
		<tag k="ssr:stedsnr" v="686252" />
	</node>
	<node lat="69.39691110977962" lon="21.401974969452162" id="-47184">
		<tag k="fixme" v="consider natural=peak for the most distinct mountains in the district" />
		<tag k="name" v="Čikŋaláhku" />
		<tag k="name:se" v="Čikŋaláhku" />
		<tag k="natural" v="hill" />
		<tag k="place" v="locality" />
		<tag k="ssr:stedsnr" v="686649" />
	</node>
	<node lat="69.49595000147916" lon="21.875774955201535" id="-47185">
		<tag k="fixme" v="consider natural=peak for the most distinct mountains in the district" />
		<tag k="name" v="Giebarášša" />
		<tag k="name:se" v="Giebarášša" />
		<tag k="natural" v="hill" />
		<tag k="place" v="locality" />
		<tag k="ssr:stedsnr" v="686651" />
	</node>
	<node lat="69.69838055852433" lon="20.869936085739965" id="-47187">
		<tag k="name" v="Sadjinčahca" />
		<tag k="name:se" v="Sadjinčahca" />
		<tag k="natural" v="valley" />
		<tag k="place" v="locality" />
		<tag k="ssr:stedsnr" v="686625" />
	</node>
	<node lat="69.41075555797568" lon="21.9855249559048" id="-47188">
		<tag k="fixme" v="consider natural=peak for the most distinct mountains in the district" />
		<tag k="name" v="Fiellovárri" />
		<tag k="name:se" v="Fiellovárri" />
		<tag k="natural" v="hill" />
		<tag k="place" v="locality" />
		<tag k="ssr:stedsnr" v="686800" />
	</node>
	<node lat="69.47097500047187" lon="21.858136078514022" id="-47189">
		<tag k="name" v="Geinnodatláhku" />
		<tag k="name:se" v="Geinnodatláhku" />
		<tag k="natural" v="valley" />
		<tag k="place" v="locality" />
		<tag k="ssr:stedsnr" v="686666" />
	</node>
	<node lat="69.20914166738" lon="22.473099945438108" id="-47192">
		<tag k="fixme" v="consider natural=peak for the most distinct mountains in the district" />
		<tag k="name" v="Unna Geađaščohkka" />
		<tag k="name:se" v="Unna Geađaščohkka" />
		<tag k="natural" v="hill" />
		<tag k="old_name:se" v="Gæđaščåkka, unna" />
		<tag k="place" v="locality" />
		<tag k="ssr:stedsnr" v="686700" />
	</node>
	<node lat="69.45488889271925" lon="21.289938855658804" id="-47195">
		<tag k="name" v="Ruvdnagorsa" />
		<tag k="name:se" v="Ruvdnagorsa" />
		<tag k="natural" v="valley" />
		<tag k="place" v="locality" />
		<tag k="ssr:stedsnr" v="686717" />
	</node>
	<node lat="69.43614999810994" lon="21.43801108583272" id="-47196">
		<tag k="fixme" v="consider natural=peak for the most distinct mountains in the district" />
		<tag k="name" v="Stuoraskáidi" />
		<tag k="name:se" v="Stuoraskáidi" />
		<tag k="natural" v="hill" />
		<tag k="place" v="locality" />
		<tag k="ssr:stedsnr" v="686720" />
	</node>
	<node lat="69.86478610807913" lon="20.87984998295624" id="-47199">
		<tag k="name" v="Storberget" />
		<tag k="natural" v="hill" />
		<tag k="place" v="locality" />
		<tag k="ssr:stedsnr" v="539004" />
	</node>
	<node lat="69.53506388829797" lon="21.34513051948799" id="-47200">
		<tag k="name" v="Holmestilldalen" />
		<tag k="natural" v="valley" />
		<tag k="place" v="locality" />
		<tag k="ssr:stedsnr" v="539222" />
	</node>
	<node lat="69.2770388951753" lon="21.651186065671563" id="-47203">
		<tag k="fixme" v="consider natural=peak for the most distinct mountains in the district" />
		<tag k="name" v="Láddogielas" />
		<tag k="name:se" v="Láddogielas" />
		<tag k="natural" v="hill" />
		<tag k="place" v="locality" />
		<tag k="ssr:stedsnr" v="686748" />
	</node>
	<node lat="69.83421944500574" lon="21.527499979476023" id="-47205">
		<tag k="fixme" v="consider natural=peak for the most distinct mountains in the district" />
		<tag k="name" v="Bjørnskardfjellet - Ádjávárri" />
		<tag k="name:no" v="Bjørnskardfjellet" />
		<tag k="name:se" v="Ádjávárri" />
		<tag k="natural" v="hill" />
		<tag k="place" v="locality" />
		<tag k="ssr:stedsnr" v="686758" />
	</node>
	<node lat="69.71473333604278" lon="21.071899974277894" id="-47206">
		<tag k="name" v="Salbakken" />
		<tag k="natural" v="slope" />
		<tag k="place" v="locality" />
		<tag k="ssr:stedsnr" v="539549" />
	</node>
	<node lat="69.74263611564128" lon="21.202244426920085" id="-47207">
		<tag k="name" v="Adojussahaugen" />
		<tag k="natural" v="hill" />
		<tag k="place" v="locality" />
		<tag k="ssr:stedsnr" v="539566" />
	</node>
	<node lat="69.72633055318137" lon="21.066380541439766" id="-47208">
		<tag k="name" v="Langbakken" />
		<tag k="natural" v="slope" />
		<tag k="place" v="locality" />
		<tag k="ssr:stedsnr" v="539568" />
	</node>
	<node lat="69.79177500326297" lon="21.061113871690612" id="-47211">
		<tag k="name" v="Kotasija" />
		<tag k="name:fkv" v="Kotasija" />
		<tag k="natural" v="slope" />
		<tag k="place" v="locality" />
		<tag k="ssr:stedsnr" v="539613" />
	</node>
	<node lat="69.79303611118105" lon="21.070688868640268" id="-47212">
		<tag k="name" v="Čohkka" />
		<tag k="name:se" v="Čohkka" />
		<tag k="natural" v="hill" />
		<tag k="place" v="locality" />
		<tag k="ssr:stedsnr" v="539628" />
	</node>
	<node lat="69.8390277815469" lon="21.110722196492365" id="-47215">
		<tag k="name" v="Store Čohkka" />
		<tag k="natural" v="hill" />
		<tag k="place" v="locality" />
		<tag k="ssr:stedsnr" v="539963" />
	</node>
	<node lat="69.8510111106984" lon="20.52615830495385" id="-47216">
		<tag k="name" v="Kjeila" />
		<tag k="natural" v="valley" />
		<tag k="place" v="locality" />
		<tag k="ssr:stedsnr" v="539822" />
	</node>
	<node lat="69.37375000087121" lon="22.00489994746688" id="-47217">
		<tag k="fixme" v="consider natural=peak for the most distinct mountains in the district" />
		<tag k="loc_name:fkv" v="Siurannenä" />
		<tag k="name" v="Gurešnjunni" />
		<tag k="name:se" v="Gurešnjunni" />
		<tag k="natural" v="hill" />
		<tag k="place" v="locality" />
		<tag k="ssr:stedsnr" v="686826" />
	</node>
	<node lat="69.31040000249156" lon="21.858763835177324" id="-47218">
		<tag k="fixme" v="consider natural=peak for the most distinct mountains in the district" />
		<tag k="name" v="Biežagielas" />
		<tag k="name:se" v="Biežagielas" />
		<tag k="natural" v="hill" />
		<tag k="place" v="locality" />
		<tag k="ssr:stedsnr" v="686834" />
	</node>
	<node lat="69.29835278152781" lon="21.73588885441868" id="-47220">
		<tag k="fixme" v="consider natural=peak for the most distinct mountains in the district" />
		<tag k="name" v="Unotgielas" />
		<tag k="name:se" v="Unotgielas" />
		<tag k="natural" v="hill" />
		<tag k="place" v="locality" />
		<tag k="ssr:stedsnr" v="686851" />
	</node>
	<node lat="69.70038611058337" lon="21.214316633909238" id="-47223">
		<tag k="fixme" v="consider natural=peak for the most distinct mountains in the district" />
		<tag k="name" v="Birigivifjellet" />
		<tag k="natural" v="hill" />
		<tag k="place" v="locality" />
		<tag k="ssr:stedsnr" v="540720" />
	</node>
	<node lat="69.76498055269693" lon="21.501308293962232" id="-47229">
		<tag k="fixme" v="consider natural=peak for the most distinct mountains in the district" />
		<tag k="name" v="Ruksesgáisá" />
		<tag k="name:se" v="Ruksesgáisá" />
		<tag k="natural" v="hill" />
		<tag k="place" v="locality" />
		<tag k="ssr:stedsnr" v="687218" />
	</node>
	<node lat="69.66521389268716" lon="21.417044407482635" id="-47231">
		<tag k="name" v="Gæiradalen - Geairavággi" />
		<tag k="name:no" v="Gæiradalen" />
		<tag k="name:se" v="Geairavággi" />
		<tag k="natural" v="valley" />
		<tag k="place" v="locality" />
		<tag k="ssr:stedsnr" v="687324" />
	</node>
	<node lat="69.68696666525881" lon="21.482911081829815" id="-47232">
		<tag k="fixme" v="consider natural=peak for the most distinct mountains in the district" />
		<tag k="name" v="Girjegáisá" />
		<tag k="name:se" v="Girjegáisá" />
		<tag k="natural" v="hill" />
		<tag k="place" v="locality" />
		<tag k="ssr:stedsnr" v="687349" />
	</node>
	<node lat="69.161886111749" lon="21.957302727017144" id="-47240">
		<tag k="name" v="Njállaláhku" />
		<tag k="name:se" v="Njállaláhku" />
		<tag k="natural" v="valley" />
		<tag k="place" v="locality" />
		<tag k="ssr:stedsnr" v="687514" />
	</node>
	<node lat="69.15753333845971" lon="21.887611075416633" id="-47241">
		<tag k="fixme" v="consider natural=peak for the most distinct mountains in the district" />
		<tag k="name" v="Ságge-Čierte" />
		<tag k="name:se" v="Ságge-Čierte" />
		<tag k="natural" v="hill" />
		<tag k="place" v="locality" />
		<tag k="ssr:stedsnr" v="687515" />
	</node>
	<node lat="69.12824444442604" lon="21.969461055777934" id="-47242">
		<tag k="name" v="Jiehtanasgorsa" />
		<tag k="name:se" v="Jiehtanasgorsa" />
		<tag k="natural" v="valley" />
		<tag k="place" v="locality" />
		<tag k="ssr:stedsnr" v="687518" />
	</node>
	<node lat="69.84371666694433" lon="20.610158306999605" id="-47246">
		<tag k="fixme" v="consider natural=peak for the most distinct mountains in the district" />
		<tag k="loc_name:se" v="Uličohkka" />
		<tag k="name" v="Blåtinden" />
		<tag k="name:no" v="Blåtinden" />
		<tag k="natural" v="hill" />
		<tag k="place" v="locality" />
		<tag k="ssr:stedsnr" v="687459" />
	</node>
	<node lat="69.24263889035096" lon="21.68434995593173" id="-47251">
		<tag k="fixme" v="consider natural=peak for the most distinct mountains in the district" />
		<tag k="name" v="Borivárri" />
		<tag k="name:se" v="Borivárri" />
		<tag k="natural" v="hill" />
		<tag k="place" v="locality" />
		<tag k="ssr:stedsnr" v="687580" />
	</node>
	<node lat="69.36423611236955" lon="21.200355516431785" id="-47269">
		<tag k="fixme" v="consider natural=peak for the most distinct mountains in the district" />
		<tag k="name" v="Rámsočohkka" />
		<tag k="name:se" v="Rámsočohkka" />
		<tag k="natural" v="hill" />
		<tag k="place" v="locality" />
		<tag k="ssr:stedsnr" v="564618" />
	</node>
	<node lat="69.40941111351287" lon="22.23377217789883" id="-47277">
		<tag k="fixme" v="consider natural=peak for the most distinct mountains in the district" />
		<tag k="name" v="Čuolločahca" />
		<tag k="name:se" v="Čuolločahca" />
		<tag k="natural" v="hill" />
		<tag k="old_name:se" v="Čuollučacca" />
		<tag k="place" v="locality" />
		<tag k="ssr:stedsnr" v="564773" />
	</node>
	<node lat="69.76268610845061" lon="21.388055518683945" id="-47278">
		<tag k="fixme" v="consider natural=peak for the most distinct mountains in the district" />
		<tag k="name" v="Rágasvárri" />
		<tag k="name:se" v="Rágasvárri" />
		<tag k="natural" v="hill" />
		<tag k="place" v="locality" />
		<tag k="ssr:stedsnr" v="565204" />
	</node>
	<node lat="69.61944166862445" lon="21.353266625141956" id="-47283">
		<tag k="fixme" v="consider natural=peak for the most distinct mountains in the district" />
		<tag k="name" v="Vinnelysfjellet" />
		<tag k="natural" v="hill" />
		<tag k="place" v="locality" />
		<tag k="ssr:stedsnr" v="565410" />
	</node>
	<node lat="69.54700277743176" lon="21.80499718216378" id="-47284">
		<tag k="fixme" v="consider natural=peak for the most distinct mountains in the district" />
		<tag k="name" v="Sálbmečohkka" />
		<tag k="name:se" v="Sálbmečohkka" />
		<tag k="natural" v="hill" />
		<tag k="place" v="locality" />
		<tag k="ssr:stedsnr" v="565464" />
	</node>
	<node lat="69.1875000035989" lon="22.13572772024202" id="-47285">
		<tag k="fixme" v="consider natural=peak for the most distinct mountains in the district" />
		<tag k="name" v="Skohpičohkka" />
		<tag k="name:se" v="Skohpičohkka" />
		<tag k="natural" v="hill" />
		<tag k="place" v="locality" />
		<tag k="ssr:stedsnr" v="565504" />
	</node>
	<node lat="69.24550555562294" lon="22.18504438194182" id="-47286">
		<tag k="fixme" v="consider natural=peak for the most distinct mountains in the district" />
		<tag k="name" v="Njuolgavárri" />
		<tag k="name:se" v="Njuolgavárri" />
		<tag k="natural" v="hill" />
		<tag k="place" v="locality" />
		<tag k="ssr:stedsnr" v="565563" />
	</node>
	<node lat="69.70309167018435" lon="21.117030518684494" id="-47287">
		<tag k="fixme" v="consider natural=peak for the most distinct mountains in the district" />
		<tag k="name" v="Storsteet - Stuora Ánat - Anikka" />
		<tag k="name:fkv" v="Anikka" />
		<tag k="name:no" v="Storsteet" />
		<tag k="name:se" v="Stuora Ánat" />
		<tag k="natural" v="hill" />
		<tag k="old_name:se" v="Ánat, stuora" />
		<tag k="place" v="locality" />
		<tag k="ssr:stedsnr" v="565708" />
	</node>
	<node lat="69.70471111598232" lon="21.266280533377067" id="-47288">
		<tag k="name" v="Dievamoen" />
		<tag k="place" v="locality" />
		<tag k="ssr:stedsnr" v="565710" />
	</node>
	<node lat="69.84188888716429" lon="21.510472190214553" id="-47289">
		<tag k="name" v="Bjørnskardet - Ádjágurra" />
		<tag k="name:no" v="Bjørnskardet" />
		<tag k="name:se" v="Ádjágurra" />
		<tag k="natural" v="valley" />
		<tag k="place" v="locality" />
		<tag k="ssr:stedsnr" v="565802" />
	</node>
	<node lat="69.85481111202401" lon="21.175847183190573" id="-47299">
		<tag k="name" v="Lilleorrit" />
		<tag k="natural" v="hill" />
		<tag k="place" v="locality" />
		<tag k="ssr:stedsnr" v="599302" />
	</node>
	<node lat="69.64329444299439" lon="21.31762218552985" id="-47303">
		<tag k="fixme" v="consider natural=peak for the most distinct mountains in the district" />
		<tag k="name" v="Lillefjellet" />
		<tag k="natural" v="hill" />
		<tag k="place" v="locality" />
		<tag k="ssr:stedsnr" v="599602" />
	</node>
	<node lat="69.79275555698294" lon="21.113124975397863" id="-47304">
		<tag k="name" v="Storstakken" />
		<tag k="natural" v="hill" />
		<tag k="place" v="locality" />
		<tag k="ssr:stedsnr" v="599615" />
	</node>
	<node lat="69.868002779381" lon="20.891024977882186" id="-47306">
		<tag k="name" v="Jiehtanas" />
		<tag k="name:se" v="Jiehtanas" />
		<tag k="natural" v="hill" />
		<tag k="place" v="locality" />
		<tag k="ssr:stedsnr" v="599715" />
	</node>
	<node lat="69.81502500410355" lon="20.785611097696638" id="-47313">
		<tag k="name" v="Storbakken" />
		<tag k="natural" v="slope" />
		<tag k="place" v="locality" />
		<tag k="ssr:stedsnr" v="600057" />
	</node>
	<node lat="69.76668611444377" lon="21.007333309647635" id="-47316">
		<tag k="name" v="Fritjofbakken" />
		<tag k="natural" v="slope" />
		<tag k="place" v="locality" />
		<tag k="ssr:stedsnr" v="600662" />
	</node>
	<node lat="69.93156944938026" lon="21.011305528150473" id="-47317">
		<tag k="name" v="Storbuktbergan" />
		<tag k="natural" v="hill" />
		<tag k="place" v="locality" />
		<tag k="ssr:stedsnr" v="600702" />
	</node>
	<node lat="69.77411388744747" lon="21.09254998117994" id="-47321">
		<tag k="fixme" v="consider natural=peak for the most distinct mountains in the district" />
		<tag k="name" v="Lundefjellet" />
		<tag k="natural" v="hill" />
		<tag k="place" v="locality" />
		<tag k="ssr:stedsnr" v="600949" />
	</node>
	<node lat="69.76573611138251" lon="21.052722194577886" id="-47322">
		<tag k="name" v="Høgegga" />
		<tag k="natural" v="hill" />
		<tag k="place" v="locality" />
		<tag k="ssr:stedsnr" v="600958" />
	</node>
	<node lat="69.69422500278294" lon="20.78516108992013" id="-47328">
		<tag k="name" v="Pilteridalen" />
		<tag k="natural" v="valley" />
		<tag k="place" v="locality" />
		<tag k="ssr:stedsnr" v="625609" />
	</node>
	<node lat="69.46432499969892" lon="21.947327722878832" id="-47330">
		<tag k="fixme" v="consider natural=peak for the most distinct mountains in the district" />
		<tag k="name" v="Bonurášša" />
		<tag k="name:se" v="Bonurášša" />
		<tag k="natural" v="hill" />
		<tag k="place" v="locality" />
		<tag k="ssr:stedsnr" v="625663" />
	</node>
	<node lat="69.34213889026346" lon="22.06830828996417" id="-47332">
		<tag k="loc_name:fkv" v="Aavavankka" />
		<tag k="name" v="Avvevággi" />
		<tag k="name:se" v="Avvevággi" />
		<tag k="natural" v="valley" />
		<tag k="place" v="locality" />
		<tag k="ssr:stedsnr" v="625856" />
	</node>
	<node lat="69.21002499999092" lon="22.413772153448235" id="-47334">
		<tag k="fixme" v="consider natural=peak for the most distinct mountains in the district" />
		<tag k="name" v="Holvinvárri" />
		<tag k="name:se" v="Holvinvárri" />
		<tag k="natural" v="hill" />
		<tag k="old_name:se" v="Hålvinvarri" />
		<tag k="place" v="locality" />
		<tag k="ssr:stedsnr" v="625706" />
	</node>
	<node lat="69.76009999733468" lon="20.581061099860737" id="-47338">
		<tag k="fixme" v="consider natural=peak for the most distinct mountains in the district" />
		<tag k="name" v="Kristianaksla" />
		<tag k="natural" v="hill" />
		<tag k="place" v="locality" />
		<tag k="ssr:stedsnr" v="625916" />
	</node>
	<node lat="69.84978888879685" lon="21.558399954996286" id="-47341">
		<tag k="fixme" v="consider natural=peak for the most distinct mountains in the district" />
		<tag k="name" v="Naiggá" />
		<tag k="name:se" v="Naiggá" />
		<tag k="natural" v="hill" />
		<tag k="place" v="locality" />
		<tag k="ssr:stedsnr" v="626803" />
	</node>
	<node lat="69.87188333017976" lon="20.85098332076748" id="-47350">
		<tag k="name" v="Divrivanka" />
		<tag k="name:fkv" v="Divrivanka" />
		<tag k="natural" v="slope" />
		<tag k="place" v="locality" />
		<tag k="ssr:stedsnr" v="660006" />
	</node>
	<node lat="69.84478055360123" lon="20.8574944123649" id="-47352">
		<tag k="name" v="Kvitberget" />
		<tag k="natural" v="hill" />
		<tag k="place" v="locality" />
		<tag k="ssr:stedsnr" v="660093" />
	</node>
	<node lat="69.6363555583897" lon="21.27289442467473" id="-47354">
		<tag k="name" v="Hapamukka" />
		<tag k="name:fkv" v="Hapamukka" />
		<tag k="natural" v="valley" />
		<tag k="place" v="locality" />
		<tag k="ssr:stedsnr" v="660603" />
	</node>
	<node lat="69.82639167081665" lon="20.831169413264213" id="-47357">
		<tag k="name" v="Skavgropa" />
		<tag k="natural" v="valley" />
		<tag k="place" v="locality" />
		<tag k="ssr:stedsnr" v="661182" />
	</node>
	<node lat="69.65682222191464" lon="21.287694425679792" id="-47359">
		<tag k="name" v="Heikamelen" />
		<tag k="natural" v="slope" />
		<tag k="place" v="locality" />
		<tag k="ssr:stedsnr" v="661536" />
	</node>
	<node lat="69.55732777748955" lon="21.28720274060023" id="-47360">
		<tag k="name" v="Skjellkantine" />
		<tag k="place" v="locality" />
		<tag k="ssr:stedsnr" v="661240" />
	</node>
	<node lat="69.74470555679687" lon="21.084761083856485" id="-47363">
		<tag k="name" v="Storbakken" />
		<tag k="natural" v="slope" />
		<tag k="place" v="locality" />
		<tag k="ssr:stedsnr" v="661633" />
	</node>
	<node lat="69.80018611238778" lon="21.102552742450516" id="-47366">
		<tag k="name" v="Gandokka" />
		<tag k="name:fkv" v="Gandokka" />
		<tag k="place" v="locality" />
		<tag k="ssr:stedsnr" v="661834" />
	</node>
	<node lat="69.87702475038766" lon="21.083521917982296" id="-47369">
		<tag k="name" v="Vikahaugen - Vika-čohkka" />
		<tag k="name:no" v="Vikahaugen" />
		<tag k="name:se" v="Vika-čohkka" />
		<tag k="natural" v="hill" />
		<tag k="place" v="locality" />
		<tag k="ssr:stedsnr" v="673825" />
	</node>
	<node lat="69.74830278076404" lon="21.115191637447673" id="-47372">
		<tag k="name" v="Mullugrubba" />
		<tag k="natural" v="valley" />
		<tag k="place" v="locality" />
		<tag k="ssr:stedsnr" v="679638" />
	</node>
	<node lat="69.54006667063061" lon="21.031005526435095" id="-47373">
		<tag k="fixme" v="consider natural=peak for the most distinct mountains in the district" />
		<tag k="name" v="Goddečohkka" />
		<tag k="name:se" v="Goddečohkka" />
		<tag k="natural" v="hill" />
		<tag k="place" v="locality" />
		<tag k="ssr:stedsnr" v="686245" />
	</node>
	<node lat="69.55022778279864" lon="22.21765828769672" id="-47375">
		<tag k="fixme" v="consider natural=peak for the most distinct mountains in the district" />
		<tag k="name" v="Čuonjáoaivi" />
		<tag k="name:se" v="Čuonjáoaivi" />
		<tag k="natural" v="hill" />
		<tag k="old_name:se" v="Čuonjoaivi;Čuonajoaivi" />
		<tag k="place" v="locality" />
		<tag k="ssr:stedsnr" v="686491" />
	</node>
	<node lat="69.802213893278" lon="21.15448608018572" id="-47381">
		<tag k="name" v="Riidi" />
		<tag k="name:se" v="Riidi" />
		<tag k="natural" v="hill" />
		<tag k="place" v="locality" />
		<tag k="ssr:stedsnr" v="686744" />
	</node>
	<node lat="69.5904694432015" lon="21.005961091661238" id="-47382">
		<tag k="fixme" v="consider natural=peak for the most distinct mountains in the district" />
		<tag k="name" v="Fávrresvárri" />
		<tag k="name:se" v="Fávrresvárri" />
		<tag k="natural" v="hill" />
		<tag k="place" v="locality" />
		<tag k="ssr:stedsnr" v="686686" />
	</node>
	<node lat="69.20000833332435" lon="22.38203605593924" id="-47383">
		<tag k="fixme" v="consider natural=peak for the most distinct mountains in the district" />
		<tag k="name" v="Áitevárri" />
		<tag k="name:se" v="Áitevárri" />
		<tag k="natural" v="hill" />
		<tag k="old_name:se" v="Aitevarri" />
		<tag k="place" v="locality" />
		<tag k="ssr:stedsnr" v="686696" />
	</node>
	<node lat="69.21453610847664" lon="21.725324956870672" id="-47391">
		<tag k="fixme" v="consider natural=peak for the most distinct mountains in the district" />
		<tag k="name" v="Várdoaivi" />
		<tag k="name:se" v="Várdoaivi" />
		<tag k="natural" v="hill" />
		<tag k="place" v="locality" />
		<tag k="ssr:stedsnr" v="687503" />
	</node>
	<node lat="69.84088055396398" lon="21.56404440376555" id="-47394">
		<tag k="fixme" v="consider natural=peak for the most distinct mountains in the district" />
		<tag k="name" v="Unna Naiggáš" />
		<tag k="name:se" v="Unna Naiggáš" />
		<tag k="natural" v="hill" />
		<tag k="old_name:se" v="Naiggáš, unna" />
		<tag k="place" v="locality" />
		<tag k="ssr:stedsnr" v="687790" />
	</node>
	<node lat="69.83906111113303" lon="21.455261079119673" id="-47395">
		<tag k="fixme" v="consider natural=peak for the most distinct mountains in the district" />
		<tag k="name" v="Rahpesvárri" />
		<tag k="name:se" v="Rahpesvárri" />
		<tag k="natural" v="hill" />
		<tag k="place" v="locality" />
		<tag k="ssr:stedsnr" v="687794" />
	</node>
	<node lat="69.75206944424592" lon="20.923224977935565" id="-47397">
		<tag k="fixme" v="consider natural=peak for the most distinct mountains in the district" />
		<tag k="name" v="Sagdalsfjellet - Arasborvárri" />
		<tag k="name:no" v="Sagdalsfjellet" />
		<tag k="name:se" v="Arasborvárri" />
		<tag k="natural" v="hill" />
		<tag k="place" v="locality" />
		<tag k="ssr:stedsnr" v="692876" />
	</node>
	<node lat="69.84308333142822" lon="20.88041663822205" id="-47403">
		<tag k="name" v="Svartberget" />
		<tag k="natural" v="hill" />
		<tag k="place" v="locality" />
		<tag k="ssr:stedsnr" v="721104" />
	</node>
	<node lat="69.78954444393037" lon="20.706686099373393" id="-47404">
		<tag k="name" v="Moan" />
		<tag k="place" v="locality" />
		<tag k="ssr:stedsnr" v="721110" />
	</node>
	<node lat="69.82766111611178" lon="21.043105523235322" id="-47407">
		<tag k="name" v="Ripstuva" />
		<tag k="natural" v="hill" />
		<tag k="place" v="locality" />
		<tag k="ssr:stedsnr" v="721317" />
	</node>
	<node lat="69.92589999895984" lon="20.93789719284988" id="-47412">
		<tag k="name" v="Klokkarhaugen" />
		<tag k="natural" v="hill" />
		<tag k="place" v="locality" />
		<tag k="ssr:stedsnr" v="721675" />
	</node>
	<node lat="69.92041944287449" lon="20.935927757691847" id="-47413">
		<tag k="fixme" v="consider natural=peak for the most distinct mountains in the district" />
		<tag k="name" v="Høgåsen" />
		<tag k="natural" v="hill" />
		<tag k="place" v="locality" />
		<tag k="ssr:stedsnr" v="721677" />
	</node>
	<node lat="69.78604722405467" lon="20.662880538003062" id="-47423">
		<tag k="name" v="Lille Moltebærhaugen" />
		<tag k="natural" v="hill" />
		<tag k="place" v="locality" />
		<tag k="ssr:stedsnr" v="903232" />
	</node>
	<node lat="69.77995277544278" lon="20.714802765339858" id="-47424">
		<tag k="name" v="Skjellbakken" />
		<tag k="natural" v="slope" />
		<tag k="place" v="locality" />
		<tag k="ssr:stedsnr" v="903233" />
	</node>
	<node lat="69.92704166595247" lon="21.210705525527857" id="-47427">
		<tag k="name" v="Orrit" />
		<tag k="name:se" v="Orrit" />
		<tag k="natural" v="hill" />
		<tag k="place" v="locality" />
		<tag k="ssr:stedsnr" v="903317" />
	</node>
	<node lat="69.82433611107906" lon="21.033252749996034" id="-47430">
		<tag k="name" v="Øverleken" />
		<tag k="natural" v="slope" />
		<tag k="place" v="locality" />
		<tag k="ssr:stedsnr" v="903324" />
	</node>
	<node lat="69.82622777646175" lon="20.897813867499327" id="-47431">
		<tag k="name" v="Riidi" />
		<tag k="name:se" v="Riidi" />
		<tag k="natural" v="slope" />
		<tag k="place" v="locality" />
		<tag k="ssr:stedsnr" v="903422" />
	</node>
	<node lat="69.64311111640274" lon="21.313524965814917" id="-47432">
		<tag k="name" v="Sella-Heikoberget" />
		<tag k="natural" v="hill" />
		<tag k="place" v="locality" />
		<tag k="ssr:stedsnr" v="903583" />
	</node>
	<node lat="69.14543055340125" lon="22.488402713365144" id="-47433">
		<tag k="fixme" v="consider natural=peak for the most distinct mountains in the district" />
		<tag k="name" v="Sotnabeaigielas" />
		<tag k="name:se" v="Sotnabeaigielas" />
		<tag k="natural" v="hill" />
		<tag k="old_name:se" v="Sådnabæigielas" />
		<tag k="place" v="locality" />
		<tag k="ssr:stedsnr" v="745778" />
	</node>
	<node lat="69.80907500535326" lon="20.91931385737051" id="-47436">
		<tag k="name" v="Jomfruberget" />
		<tag k="natural" v="hill" />
		<tag k="place" v="locality" />
		<tag k="ssr:stedsnr" v="903684" />
	</node>
	<node lat="69.87239722682244" lon="21.183024981662474" id="-47439">
		<tag k="name" v="Lillelemma" />
		<tag k="place" v="locality" />
		<tag k="ssr:stedsnr" v="903776" />
	</node>
	<node lat="69.2553500044856" lon="22.20431383567683" id="-47444">
		<tag k="name" v="Spálžačohkka" />
		<tag k="name:se" v="Spálžačohkka" />
		<tag k="natural" v="hill" />
		<tag k="place" v="locality" />
		<tag k="ssr:stedsnr" v="746703" />
	</node>
	<node lat="69.75279166821281" lon="21.716874952647427" id="-47448">
		<tag k="fixme" v="consider natural=peak for the most distinct mountains in the district" />
		<tag k="name" v="Stuora Áibmevárri" />
		<tag k="name:se" v="Stuora Áibmevárri" />
		<tag k="natural" v="hill" />
		<tag k="old_name:se" v="Aibmevarri, stuora" />
		<tag k="place" v="locality" />
		<tag k="ssr:stedsnr" v="747018" />
	</node>
	<node lat="69.84511388960362" lon="20.521222197501032" id="-47449">
		<tag k="name" v="Skjærhammaren" />
		<tag k="natural" v="hill" />
		<tag k="place" v="locality" />
		<tag k="ssr:stedsnr" v="903826" />
	</node>
	<node lat="69.78331388653199" lon="21.37733607590015" id="-47450">
		<tag k="fixme" v="consider natural=peak for the most distinct mountains in the district" />
		<tag k="name" v="Fávrresvárri" />
		<tag k="name:se" v="Fávrresvárri" />
		<tag k="natural" v="hill" />
		<tag k="place" v="locality" />
		<tag k="ssr:stedsnr" v="747203" />
	</node>
	<node lat="69.18163611269206" lon="21.983699953600436" id="-47454">
		<tag k="fixme" v="consider natural=peak for the most distinct mountains in the district" />
		<tag k="name" v="Gaskkamus Gieddeoaivi" />
		<tag k="name:se" v="Gaskkamus Gieddeoaivi" />
		<tag k="natural" v="hill" />
		<tag k="old_name:se" v="Gieddeoaivi, gaskkamus" />
		<tag k="place" v="locality" />
		<tag k="ssr:stedsnr" v="747503" />
	</node>
	<node lat="69.13573055988711" lon="22.055274950843213" id="-47455">
		<tag k="fixme" v="consider natural=peak for the most distinct mountains in the district" />
		<tag k="name" v="Ávževárri" />
		<tag k="name:se" v="Ávževárri" />
		<tag k="natural" v="hill" />
		<tag k="place" v="locality" />
		<tag k="ssr:stedsnr" v="747506" />
	</node>
	<node lat="69.69496111296387" lon="20.99220830422581" id="-47459">
		<tag k="name" v="Langberget" />
		<tag k="natural" v="hill" />
		<tag k="place" v="locality" />
		<tag k="ssr:stedsnr" v="747605" />
	</node>
	<node lat="69.82678333086315" lon="21.458952745419047" id="-47462">
		<tag k="name" v="Lommemoen" />
		<tag k="place" v="locality" />
		<tag k="ssr:stedsnr" v="747769" />
	</node>
	<node lat="69.81156666364815" lon="21.113797194046736" id="-47463">
		<tag k="fixme" v="consider natural=peak for the most distinct mountains in the district" />
		<tag k="name" v="Kvitfjellet" />
		<tag k="natural" v="hill" />
		<tag k="place" v="locality" />
		<tag k="ssr:stedsnr" v="747771" />
	</node>
	<node lat="69.8660416649133" lon="20.751224979388148" id="-47470">
		<tag k="name" v="Skreda" />
		<tag k="natural" v="hill" />
		<tag k="place" v="locality" />
		<tag k="ssr:stedsnr" v="904030" />
	</node>
	<node lat="69.82725833459446" lon="20.857874988668513" id="-47474">
		<tag k="name" v="Gårdshaugen" />
		<tag k="natural" v="hill" />
		<tag k="place" v="locality" />
		<tag k="ssr:stedsnr" v="904197" />
	</node>
	<node lat="69.79414444151612" lon="21.159024976512125" id="-47477">
		<tag k="name" v="Storgrubba" />
		<tag k="natural" v="valley" />
		<tag k="place" v="locality" />
		<tag k="ssr:stedsnr" v="904495" />
	</node>
	<node lat="69.77590277679421" lon="20.9666666535243" id="-47480">
		<tag k="name" v="Sandbakken" />
		<tag k="natural" v="slope" />
		<tag k="place" v="locality" />
		<tag k="ssr:stedsnr" v="904595" />
	</node>
	<node lat="69.69458333716216" lon="21.272869413822423" id="-47481">
		<tag k="name" v="Myrbakken" />
		<tag k="natural" v="slope" />
		<tag k="place" v="locality" />
		<tag k="ssr:stedsnr" v="904698" />
	</node>
	<node lat="69.71456944708862" lon="21.24301665039849" id="-47483">
		<tag k="name" v="Moskomælen" />
		<tag k="natural" v="slope" />
		<tag k="place" v="locality" />
		<tag k="ssr:stedsnr" v="904762" />
	</node>
	<node lat="69.86593889023267" lon="21.08061663741738" id="-47484">
		<tag k="name" v="Joroluohkká" />
		<tag k="name:se" v="Joroluohkká" />
		<tag k="natural" v="slope" />
		<tag k="place" v="locality" />
		<tag k="ssr:stedsnr" v="904843" />
	</node>
	<node lat="69.85964444243548" lon="21.22389996234628" id="-47485">
		<tag k="name" v="Valan" />
		<tag k="place" v="locality" />
		<tag k="ssr:stedsnr" v="904931" />
	</node>
	<node lat="69.86514722625604" lon="21.226302749029422" id="-47486">
		<tag k="name" v="Mellabakken" />
		<tag k="natural" v="slope" />
		<tag k="place" v="locality" />
		<tag k="ssr:stedsnr" v="904881" />
	</node>
	<node lat="69.83636944244367" lon="21.06696109594717" id="-47489">
		<tag k="name" v="Adolfriidi" />
		<tag k="name:se" v="Adolfriidi" />
		<tag k="natural" v="slope" />
		<tag k="place" v="locality" />
		<tag k="ssr:stedsnr" v="904974" />
	</node>
	<node lat="69.83261944194399" lon="21.070144415536145" id="-47490">
		<tag k="name" v="Josefkoppa" />
		<tag k="name:fkv" v="Josefkoppa" />
		<tag k="natural" v="valley" />
		<tag k="place" v="locality" />
		<tag k="ssr:stedsnr" v="904977" />
	</node>
	<node lat="69.81401111222728" lon="21.592277734911317" id="-47491">
		<tag k="name" v="Solbakken" />
		<tag k="natural" v="slope" />
		<tag k="place" v="locality" />
		<tag k="ssr:stedsnr" v="904982" />
	</node>
	<node lat="69.83973055641515" lon="20.909447207672752" id="-47500">
		<tag k="name" v="Hårbakti" />
		<tag k="natural" v="hill" />
		<tag k="place" v="locality" />
		<tag k="ssr:stedsnr" v="782406" />
	</node>
	<node lat="69.76818611145242" lon="20.756186080555526" id="-47501">
		<tag k="name" v="Storbakklia" />
		<tag k="natural" v="slope" />
		<tag k="place" v="locality" />
		<tag k="ssr:stedsnr" v="782198" />
	</node>
	<node lat="69.80083333222727" lon="21.128272196790093" id="-47505">
		<tag k="name" v="Bakkeberget" />
		<tag k="natural" v="hill" />
		<tag k="place" v="locality" />
		<tag k="ssr:stedsnr" v="782814" />
	</node>
	<node lat="69.74405555620027" lon="21.20740830685303" id="-47506">
		<tag k="name" v="Gielas" />
		<tag k="name:se" v="Gielas" />
		<tag k="natural" v="hill" />
		<tag k="place" v="locality" />
		<tag k="ssr:stedsnr" v="782547" />
	</node>
	<node lat="69.63095556108767" lon="21.28518329706112" id="-47508">
		<tag k="fixme" v="consider natural=peak for the most distinct mountains in the district" />
		<tag k="name" v="Domafjellet" />
		<tag k="natural" v="hill" />
		<tag k="place" v="locality" />
		<tag k="ssr:stedsnr" v="782555" />
	</node>
	<node lat="69.88913611098418" lon="20.91960553209907" id="-47509">
		<tag k="name" v="Offerbergan" />
		<tag k="natural" v="hill" />
		<tag k="place" v="locality" />
		<tag k="ssr:stedsnr" v="782706" />
	</node>
	<node lat="69.87057499734973" lon="21.17649997043978" id="-47510">
		<tag k="name" v="Storlemma" />
		<tag k="place" v="locality" />
		<tag k="ssr:stedsnr" v="782757" />
	</node>
	<node lat="69.83416389132859" lon="21.086291633649108" id="-47511">
		<tag k="name" v="Bordsammeren" />
		<tag k="natural" v="hill" />
		<tag k="place" v="locality" />
		<tag k="ssr:stedsnr" v="782955" />
	</node>
	<node lat="69.76370277630093" lon="21.11118331291351" id="-47514">
		<tag k="name" v="Gomobákti" />
		<tag k="name:se" v="Gomobákti" />
		<tag k="natural" v="hill" />
		<tag k="place" v="locality" />
		<tag k="ssr:stedsnr" v="916955" />
	</node>
	<node lat="69.65053056091367" lon="21.18616385292369" id="-47515">
		<tag k="fixme" v="consider natural=peak for the most distinct mountains in the district" />
		<tag k="name" v="Boatkavárri" />
		<tag k="name:se" v="Boatkavárri" />
		<tag k="natural" v="hill" />
		<tag k="place" v="locality" />
		<tag k="ssr:stedsnr" v="808304" />
	</node>
	<node lat="69.2034972261683" lon="22.09298606883865" id="-47520">
		<tag k="name" v="Njállaávži" />
		<tag k="name:se" v="Njállaávži" />
		<tag k="natural" v="valley" />
		<tag k="place" v="locality" />
		<tag k="ssr:stedsnr" v="808490" />
	</node>
	<node lat="69.14014999887397" lon="22.007486054029737" id="-47521">
		<tag k="fixme" v="consider natural=peak for the most distinct mountains in the district" />
		<tag k="name" v="Njállavárri" />
		<tag k="name:se" v="Njállavárri" />
		<tag k="natural" v="hill" />
		<tag k="place" v="locality" />
		<tag k="ssr:stedsnr" v="808496" />
	</node>
	<node lat="69.73119721954022" lon="21.073999984354558" id="-47523">
		<tag k="name" v="Storbakken" />
		<tag k="natural" v="slope" />
		<tag k="place" v="locality" />
		<tag k="ssr:stedsnr" v="808693" />
	</node>
	<node lat="69.75356666545702" lon="21.019677751692775" id="-47529">
		<tag k="name" v="Bakken" />
		<tag k="natural" v="slope" />
		<tag k="place" v="locality" />
		<tag k="ssr:stedsnr" v="843069" />
	</node>
	<node lat="69.74970833144411" lon="20.73959719111271" id="-47531">
		<tag k="name" v="Langmoen" />
		<tag k="place" v="locality" />
		<tag k="ssr:stedsnr" v="843240" />
	</node>
	<node lat="69.95700277694068" lon="21.201936073042088" id="-47532">
		<tag k="name" v="Margretaskorra" />
		<tag k="natural" v="valley" />
		<tag k="place" v="locality" />
		<tag k="ssr:stedsnr" v="843280" />
	</node>
	<node lat="69.78309444733269" lon="21.10404996489685" id="-47533">
		<tag k="name" v="Gorkilokan" />
		<tag k="name:fkv" v="Gorkilokan" />
		<tag k="natural" v="hill" />
		<tag k="place" v="locality" />
		<tag k="ssr:stedsnr" v="843523" />
	</node>
	<node lat="69.79315833660817" lon="21.12526942282459" id="-47534">
		<tag k="name" v="Villigo" />
		<tag k="name:fkv" v="Villigo" />
		<tag k="place" v="locality" />
		<tag k="ssr:stedsnr" v="843531" />
	</node>
	<node lat="69.72073055349468" lon="21.048422200626362" id="-47536">
		<tag k="name" v="Leirbakken" />
		<tag k="natural" v="slope" />
		<tag k="place" v="locality" />
		<tag k="ssr:stedsnr" v="843579" />
	</node>
	<node lat="69.72454444550046" lon="21.162613857078668" id="-47541">
		<tag k="name" v="Lånigorro" />
		<tag k="name:fkv" v="Lånigorro" />
		<tag k="natural" v="valley" />
		<tag k="place" v="locality" />
		<tag k="ssr:stedsnr" v="843629" />
	</node>
	<node lat="69.74309444373581" lon="21.074738867246655" id="-47542">
		<tag k="name" v="Ingersletta" />
		<tag k="place" v="locality" />
		<tag k="ssr:stedsnr" v="843682" />
	</node>
	<node lat="69.76184166455039" lon="20.545874979035492" id="-47546">
		<tag k="name" v="Eineberget" />
		<tag k="natural" v="hill" />
		<tag k="place" v="locality" />
		<tag k="ssr:stedsnr" v="843980" />
	</node>
	<node lat="69.33489722579208" lon="21.61135274520476" id="-47553">
		<tag k="fixme" v="consider natural=peak for the most distinct mountains in the district" />
		<tag k="name" v="Geresoaivi" />
		<tag k="name:se" v="Geresoaivi" />
		<tag k="natural" v="hill" />
		<tag k="place" v="locality" />
		<tag k="ssr:stedsnr" v="928628" />
	</node>
	<node lat="69.32161111422407" lon="21.477963844736458" id="-47554">
		<tag k="fixme" v="consider natural=peak for the most distinct mountains in the district" />
		<tag k="name" v="Nahpat" />
		<tag k="name:se" v="Nahpat" />
		<tag k="natural" v="hill" />
		<tag k="place" v="locality" />
		<tag k="ssr:stedsnr" v="928643" />
	</node>
	<node lat="69.14007499781786" lon="22.364913828655197" id="-47555">
		<tag k="name" v="Mákkávárri" />
		<tag k="name:se" v="Mákkávárri" />
		<tag k="natural" v="hill" />
		<tag k="old_name:se" v="Maggavarri;Maggavárri" />
		<tag k="place" v="locality" />
		<tag k="ssr:stedsnr" v="928681" />
	</node>
	<node lat="69.5020388883112" lon="21.23905830928079" id="-47557">
		<tag k="fixme" v="consider natural=peak for the most distinct mountains in the district" />
		<tag k="name" v="Pihkahistamafjellet" />
		<tag k="natural" v="hill" />
		<tag k="place" v="locality" />
		<tag k="ssr:stedsnr" v="929226" />
	</node>
	<node lat="69.23379722932306" lon="22.341344377130717" id="-47559">
		<tag k="fixme" v="consider natural=peak for the most distinct mountains in the district" />
		<tag k="name" v="Guohcavahcavárri" />
		<tag k="name:se" v="Guohcavahcavárri" />
		<tag k="natural" v="hill" />
		<tag k="old_name:se" v="Guoccavaccavarri" />
		<tag k="place" v="locality" />
		<tag k="ssr:stedsnr" v="929229" />
	</node>
	<node lat="69.29189999733272" lon="22.11546106228067" id="-47564">
		<tag k="fixme" v="consider natural=peak for the most distinct mountains in the district" />
		<tag k="name" v="Skierbmáoaivi" />
		<tag k="name:se" v="Skierbmáoaivi" />
		<tag k="natural" v="hill" />
		<tag k="place" v="locality" />
		<tag k="ssr:stedsnr" v="928848" />
	</node>
	<node lat="69.80331388957462" lon="21.45339996788144" id="-47567">
		<tag k="fixme" v="consider natural=peak for the most distinct mountains in the district" />
		<tag k="name" v="Kyrkjefjellet - Girkovárri" />
		<tag k="name:no" v="Kyrkjefjellet" />
		<tag k="name:se" v="Girkovárri" />
		<tag k="natural" v="hill" />
		<tag k="place" v="locality" />
		<tag k="ssr:stedsnr" v="929176" />
	</node>
	<node lat="69.48889444294865" lon="21.676113843415234" id="-47572">
		<tag k="name" v="Sieidevággi" />
		<tag k="name:se" v="Sieidevággi" />
		<tag k="natural" v="valley" />
		<tag k="place" v="locality" />
		<tag k="ssr:stedsnr" v="929380" />
	</node>
	<node lat="69.22798888915848" lon="22.112274947957886" id="-47573">
		<tag k="fixme" v="consider natural=peak for the most distinct mountains in the district" />
		<tag k="name" v="Suorrečohkka" />
		<tag k="name:se" v="Suorrečohkka" />
		<tag k="natural" v="hill" />
		<tag k="place" v="locality" />
		<tag k="ssr:stedsnr" v="929484" />
	</node>
	<node lat="69.18872500451468" lon="21.9367360625181" id="-47574">
		<tag k="fixme" v="consider natural=peak for the most distinct mountains in the district" />
		<tag k="name" v="Davimus Gieddeoaivi" />
		<tag k="name:se" v="Davimus Gieddeoaivi" />
		<tag k="natural" v="hill" />
		<tag k="old_name:se" v="Gieddeoaivi, davimus;Gieddeoaivi" />
		<tag k="place" v="locality" />
		<tag k="ssr:stedsnr" v="929494" />
	</node>
	<node lat="69.63297499976991" lon="20.833638874240588" id="-47575">
		<tag k="fixme" v="multiple name tags, choose one and add the other to alt_name; consider natural=peak for the most distinct mountains in the district" />
		<tag k="name" v="Goahtegáisá;Meahccevárri" />
		<tag k="name:se" v="Goahtegáisá;Meahccevárri" />
		<tag k="natural" v="hill" />
		<tag k="place" v="locality" />
		<tag k="ssr:stedsnr" v="929555" />
	</node>
	<node lat="69.73763888724385" lon="20.657158323353354" id="-47578">
		<tag k="fixme" v="consider natural=peak for the most distinct mountains in the district" />
		<tag k="name" v="Svartfjellet - Bohtanvárri" />
		<tag k="name:no" v="Svartfjellet" />
		<tag k="name:se" v="Bohtanvárri" />
		<tag k="natural" v="hill" />
		<tag k="place" v="locality" />
		<tag k="ssr:stedsnr" v="929569" />
	</node>
	<node lat="69.72861389034482" lon="20.83422776020974" id="-47579">
		<tag k="name" v="Gievdneoaivi" />
		<tag k="name:se" v="Gievdneoaivi" />
		<tag k="natural" v="hill" />
		<tag k="place" v="locality" />
		<tag k="ssr:stedsnr" v="929580" />
	</node>
	<node lat="69.71153055300742" lon="20.693186078112056" id="-47580">
		<tag k="fixme" v="consider natural=peak for the most distinct mountains in the district" />
		<tag k="name" v="Stortinden" />
		<tag k="natural" v="hill" />
		<tag k="place" v="locality" />
		<tag k="ssr:stedsnr" v="929590" />
	</node>
	<node lat="69.69553333144486" lon="20.83130831141372" id="-47582">
		<tag k="name" v="Bálggesriidi" />
		<tag k="name:se" v="Bálggesriidi" />
		<tag k="natural" v="slope" />
		<tag k="place" v="locality" />
		<tag k="ssr:stedsnr" v="929595" />
	</node>
	<node lat="69.49634444991304" lon="22.215169393854197" id="-47587">
		<tag k="fixme" v="consider natural=peak for the most distinct mountains in the district" />
		<tag k="name" v="Dálvvesčearru" />
		<tag k="name:se" v="Dálvvesčearru" />
		<tag k="natural" v="hill" />
		<tag k="place" v="locality" />
		<tag k="ssr:stedsnr" v="929643" />
	</node>
	<node lat="69.74009444492948" lon="21.392711074732617" id="-47591">
		<tag k="fixme" v="consider natural=peak for the most distinct mountains in the district" />
		<tag k="name" v="Rokkilgáissát" />
		<tag k="name:se" v="Rokkilgáissát" />
		<tag k="natural" v="hill" />
		<tag k="place" v="locality" />
		<tag k="ssr:stedsnr" v="929677" />
	</node>
	<node lat="69.15288333932152" lon="22.505872148589358" id="-47597">
		<tag k="fixme" v="consider natural=peak for the most distinct mountains in the district" />
		<tag k="name" v="Sáhpohangielas" />
		<tag k="name:se" v="Sáhpohangielas" />
		<tag k="natural" v="hill" />
		<tag k="old_name:se" v="Sappuhangielas" />
		<tag k="place" v="locality" />
		<tag k="ssr:stedsnr" v="929689" />
	</node>
	<node lat="69.45762222447895" lon="22.066174963381037" id="-47601">
		<tag k="fixme" v="consider natural=peak for the most distinct mountains in the district" />
		<tag k="name" v="Várdánnibba" />
		<tag k="name:se" v="Várdánnibba" />
		<tag k="natural" v="hill" />
		<tag k="place" v="locality" />
		<tag k="ssr:stedsnr" v="929817" />
	</node>
	<node lat="69.82320278082982" lon="20.575752766387534" id="-47610">
		<tag k="fixme" v="consider natural=peak for the most distinct mountains in the district" />
		<tag k="name" v="Goppervagaksla - Gahpervátoalgi" />
		<tag k="name:no" v="Goppervagaksla" />
		<tag k="name:se" v="Gahpervátoalgi" />
		<tag k="natural" v="hill" />
		<tag k="old_name:se" v="Gohpervátoalgi" />
		<tag k="place" v="locality" />
		<tag k="ssr:stedsnr" v="929975" />
	</node>
	<node lat="69.40474999951871" lon="21.19629995902421" id="-47619">
		<tag k="fixme" v="consider natural=peak for the most distinct mountains in the district" />
		<tag k="name" v="Njakkehanvárri" />
		<tag k="name:se" v="Njakkehanvárri" />
		<tag k="natural" v="hill" />
		<tag k="place" v="locality" />
		<tag k="ssr:stedsnr" v="868616" />
	</node>
	<node lat="69.36271944845694" lon="22.365686051640655" id="-47623">
		<tag k="fixme" v="consider natural=peak for the most distinct mountains in the district" />
		<tag k="name" v="Davit Lievlamas" />
		<tag k="name:se" v="Davit Lievlamas" />
		<tag k="natural" v="hill" />
		<tag k="old_name:se" v="Lievlamas, davit" />
		<tag k="place" v="locality" />
		<tag k="ssr:stedsnr" v="868922" />
	</node>
	<node lat="69.55337777722407" lon="22.061424950718273" id="-47625">
		<tag k="fixme" v="consider natural=peak for the most distinct mountains in the district" />
		<tag k="name" v="Čohkka" />
		<tag k="name:se" v="Čohkka" />
		<tag k="natural" v="hill" />
		<tag k="place" v="locality" />
		<tag k="ssr:stedsnr" v="869513" />
	</node>
	<node lat="69.60808888868415" lon="20.863980520577392" id="-47628">
		<tag k="fixme" v="consider natural=peak for the most distinct mountains in the district" />
		<tag k="name" v="Bálsegáisá" />
		<tag k="name:se" v="Bálsegáisá" />
		<tag k="natural" v="hill" />
		<tag k="place" v="locality" />
		<tag k="ssr:stedsnr" v="869683" />
	</node>
	<node lat="69.85389999866631" lon="21.259786084045967" id="-47629">
		<tag k="alt_name" v="Durmålsskarddalen" />
		<tag k="fixme" v="multiple name tags, choose one and add the other to alt_name" />
		<tag k="name" v="Marasdalen;Durmålskardalen" />
		<tag k="natural" v="valley" />
		<tag k="place" v="locality" />
		<tag k="ssr:stedsnr" v="869816" />
	</node>
	<node lat="69.8596472194066" lon="21.261280526877353" id="-47631">
		<tag k="fixme" v="consider natural=peak for the most distinct mountains in the district" />
		<tag k="name" v="Kvalfjellet" />
		<tag k="natural" v="hill" />
		<tag k="place" v="locality" />
		<tag k="ssr:stedsnr" v="869819" />
	</node>
	<node lat="69.86960277978876" lon="21.52478886808652" id="-47632">
		<tag k="fixme" v="consider natural=peak for the most distinct mountains in the district" />
		<tag k="name" v="Moalavárri" />
		<tag k="name:se" v="Moalavárri" />
		<tag k="natural" v="hill" />
		<tag k="place" v="locality" />
		<tag k="ssr:stedsnr" v="869821" />
	</node>
	<node lat="69.76681667009268" lon="21.155486088237346" id="-47635">
		<tag k="fixme" v="consider natural=peak for the most distinct mountains in the district" />
		<tag k="name" v="Jyppyrä" />
		<tag k="name:fkv" v="Jyppyrä" />
		<tag k="natural" v="hill" />
		<tag k="old_name:fkv" v="Jypprá" />
		<tag k="place" v="locality" />
		<tag k="ssr:stedsnr" v="930212" />
	</node>
	<node lat="69.76607500099638" lon="21.30972218318388" id="-47641">
		<tag k="name" v="Fávrresorda" />
		<tag k="name:se" v="Fávrresorda" />
		<tag k="natural" v="valley" />
		<tag k="place" v="locality" />
		<tag k="ssr:stedsnr" v="930223" />
	</node>
	<node lat="69.76352499671634" lon="21.579430525161662" id="-47642">
		<tag k="name" v="Luovttatvággi" />
		<tag k="name:se" v="Luovttatvággi" />
		<tag k="natural" v="valley" />
		<tag k="place" v="locality" />
		<tag k="ssr:stedsnr" v="930226" />
	</node>
	<node lat="69.79657499790338" lon="20.730372208631962" id="-47644">
		<tag k="name" v="Skolehaugen" />
		<tag k="natural" v="hill" />
		<tag k="place" v="locality" />
		<tag k="ssr:stedsnr" v="869971" />
	</node>
	<node lat="69.75315555241683" lon="21.584791632495893" id="-47646">
		<tag k="name" v="Riehppi" />
		<tag k="name:se" v="Riehppi" />
		<tag k="natural" v="valley" />
		<tag k="place" v="locality" />
		<tag k="ssr:stedsnr" v="930227" />
	</node>
	<node lat="69.62491388929003" lon="21.288447200959183" id="-47648">
		<tag k="fixme" v="consider natural=peak for the most distinct mountains in the district" />
		<tag k="name" v="Eiaåtta - Eijennotsa" />
		<tag k="name:fkv" v="Eijennotsa" />
		<tag k="name:no" v="Eiaåtta" />
		<tag k="natural" v="hill" />
		<tag k="place" v="locality" />
		<tag k="ssr:stedsnr" v="930385" />
	</node>
	<node lat="69.6427361070346" lon="21.401197200143258" id="-47649">
		<tag k="alt_name:no" v="Dorrisdalen" />
		<tag k="name" v="Doaresdalen - Doaresvággi" />
		<tag k="name:no" v="Doaresdalen" />
		<tag k="name:se" v="Doaresvággi" />
		<tag k="natural" v="valley" />
		<tag k="place" v="locality" />
		<tag k="ssr:stedsnr" v="930390" />
	</node>
	<node lat="69.90241388609847" lon="21.20093331252272" id="-47655">
		<tag k="name" v="Klubben" />
		<tag k="natural" v="hill" />
		<tag k="place" v="locality" />
		<tag k="ssr:stedsnr" v="930861" />
	</node>
	<node lat="69.86808055875034" lon="20.859577750706315" id="-47665">
		<tag k="name" v="Gimiliryggen" />
		<tag k="natural" v="ridge" />
		<tag k="place" v="locality" />
		<tag k="ssr:stedsnr" v="903007" />
	</node>
	<node lat="69.95649444440194" lon="21.20841386382955" id="-47671">
		<tag k="fixme" v="consider natural=peak for the most distinct mountains in the district" />
		<tag k="name" v="Tinden" />
		<tag k="natural" v="hill" />
		<tag k="place" v="locality" />
		<tag k="ssr:stedsnr" v="903299" />
	</node>
	<node lat="69.79823055286074" lon="21.118163873841734" id="-47675">
		<tag k="name" v="Riidi" />
		<tag k="name:se" v="Riidi" />
		<tag k="natural" v="slope" />
		<tag k="place" v="locality" />
		<tag k="ssr:stedsnr" v="903508" />
	</node>
	<node lat="69.71671666958336" lon="21.101474984583543" id="-47676">
		<tag k="name" v="Bekkdalen" />
		<tag k="natural" v="valley" />
		<tag k="place" v="locality" />
		<tag k="ssr:stedsnr" v="903559" />
	</node>
	<node lat="69.7900250010735" lon="21.172922193068665" id="-47686">
		<tag k="name" v="Maddinsavra" />
		<tag k="name:fkv" v="Maddinsavra" />
		<tag k="place" v="locality" />
		<tag k="ssr:stedsnr" v="904955" />
	</node>
	<node lat="69.36272499949774" lon="21.270213861572007" id="-47690">
		<tag k="name" v="Biedjovággi" />
		<tag k="name:se" v="Biedjovággi" />
		<tag k="natural" v="valley" />
		<tag k="place" v="locality" />
		<tag k="ssr:stedsnr" v="928601" />
	</node>
	<node lat="69.17700000332442" lon="22.252827726010366" id="-47696">
		<tag k="fixme" v="consider natural=peak for the most distinct mountains in the district" />
		<tag k="name" v="Rissevárážat" />
		<tag k="name:se" v="Rissevárážat" />
		<tag k="natural" v="hill" />
		<tag k="old_name:se" v="Rissevaražat" />
		<tag k="place" v="locality" />
		<tag k="ssr:stedsnr" v="929706" />
	</node>
	<node lat="69.41439999621173" lon="21.13205275908018" id="-47699">
		<tag k="fixme" v="consider natural=peak for the most distinct mountains in the district" />
		<tag k="loc_name:se" v="Biertaváriloapmi" />
		<tag k="name" v="Loapmi" />
		<tag k="name:se" v="Loapmi" />
		<tag k="natural" v="hill" />
		<tag k="place" v="locality" />
		<tag k="ssr:stedsnr" v="929725" />
	</node>
	<node lat="69.61303055681155" lon="20.99442498344717" id="-47703">
		<tag k="name" v="Favresdalen - Fávrresvággi" />
		<tag k="name:no" v="Favresdalen" />
		<tag k="name:se" v="Fávrresvággi" />
		<tag k="natural" v="valley" />
		<tag k="place" v="locality" />
		<tag k="ssr:stedsnr" v="929646" />
	</node>
	<node lat="69.32251111109366" lon="21.910580511715118" id="-47704">
		<tag k="name" v="Luođuvuopmi" />
		<tag k="name:se" v="Luođuvuopmi" />
		<tag k="natural" v="valley" />
		<tag k="place" v="locality" />
		<tag k="ssr:stedsnr" v="929848" />
	</node>
	<node lat="69.34967222029354" lon="21.904524961332626" id="-47706">
		<tag k="name" v="Ruovddášávži" />
		<tag k="name:se" v="Ruovddášávži" />
		<tag k="natural" v="valley" />
		<tag k="place" v="locality" />
		<tag k="ssr:stedsnr" v="929851" />
	</node>
	<node lat="69.33645556134184" lon="21.896683278890645" id="-47707">
		<tag k="name" v="Bajit Vuomádatvárri" />
		<tag k="name:se" v="Bajit Vuomádatvárri" />
		<tag k="natural" v="hill" />
		<tag k="old_name:se" v="Vuomádatvárri, bajit" />
		<tag k="place" v="locality" />
		<tag k="ssr:stedsnr" v="929853" />
	</node>
	<node lat="69.36046945018202" lon="22.22990549501738" id="-47709">
		<tag k="fixme" v="consider natural=peak for the most distinct mountains in the district" />
		<tag k="name" v="Buvrorášša" />
		<tag k="name:se" v="Buvrorášša" />
		<tag k="natural" v="hill" />
		<tag k="old_name:se" v="Buvrurašša" />
		<tag k="place" v="locality" />
		<tag k="ssr:stedsnr" v="929946" />
	</node>
	<node lat="69.66775277632821" lon="21.56221385081224" id="-47710">
		<tag k="name" v="Moskkanbahta" />
		<tag k="name:se" v="Moskkanbahta" />
		<tag k="natural" v="valley" />
		<tag k="place" v="locality" />
		<tag k="ssr:stedsnr" v="930343" />
	</node>
	<node lat="69.86137500341331" lon="20.755494431229838" id="-47715">
		<tag k="name" v="Hareslettbergan" />
		<tag k="natural" v="hill" />
		<tag k="place" v="locality" />
		<tag k="ssr:stedsnr" v="964001" />
	</node>
	<node lat="69.80653055351453" lon="20.75644163972217" id="-47716">
		<tag k="name" v="Vedhollet" />
		<tag k="natural" v="valley" />
		<tag k="place" v="locality" />
		<tag k="ssr:stedsnr" v="964040" />
	</node>
	<node lat="69.87500277934922" lon="20.759138875333438" id="-47717">
		<tag k="name" v="Jarnsteinråsa" />
		<tag k="natural" v="hill" />
		<tag k="place" v="locality" />
		<tag k="ssr:stedsnr" v="964043" />
	</node>
	<node lat="69.7694166678392" lon="20.73222775531157" id="-47718">
		<tag k="name" v="Steinbakken" />
		<tag k="natural" v="slope" />
		<tag k="place" v="locality" />
		<tag k="ssr:stedsnr" v="964240" />
	</node>
	<node lat="69.86317777936127" lon="21.194136082973184" id="-47722">
		<tag k="name" v="Hestnesmælen" />
		<tag k="natural" v="slope" />
		<tag k="place" v="locality" />
		<tag k="ssr:stedsnr" v="964323" />
	</node>
	<node lat="69.80302499887685" lon="20.923594431697918" id="-47725">
		<tag k="name" v="Middagsberget" />
		<tag k="natural" v="hill" />
		<tag k="place" v="locality" />
		<tag k="ssr:stedsnr" v="964684" />
	</node>
	<node lat="69.86563055754705" lon="21.08342774994662" id="-47726">
		<tag k="name" v="Jerviluohkká" />
		<tag k="name:se" v="Jerviluohkká" />
		<tag k="natural" v="slope" />
		<tag k="place" v="locality" />
		<tag k="ssr:stedsnr" v="964818" />
	</node>
	<node lat="69.79319444305929" lon="20.556252747873398" id="-47727">
		<tag k="name" v="Lunden" />
		<tag k="place" v="locality" />
		<tag k="ssr:stedsnr" v="964832" />
	</node>
	<node lat="69.96314166420272" lon="21.23397774579152" id="-47733">
		<tag k="name" v="Finnhaugen" />
		<tag k="natural" v="hill" />
		<tag k="place" v="locality" />
		<tag k="ssr:stedsnr" v="965919" />
	</node>
	<node lat="69.96421944814084" lon="21.226352764344913" id="-47734">
		<tag k="name" v="Rundhaugen" />
		<tag k="natural" v="hill" />
		<tag k="place" v="locality" />
		<tag k="ssr:stedsnr" v="965923" />
	</node>
	<node lat="69.9202305594165" lon="21.278466636894933" id="-47735">
		<tag k="name" v="Varto" />
		<tag k="natural" v="hill" />
		<tag k="place" v="locality" />
		<tag k="ssr:stedsnr" v="965935" />
	</node>
	<node lat="69.87940555675405" lon="21.329316650530817" id="-47738">
		<tag k="name" v="Middagshaugen" />
		<tag k="natural" v="hill" />
		<tag k="place" v="locality" />
		<tag k="ssr:stedsnr" v="965881" />
	</node>
	<node lat="69.82451111100758" lon="21.487119413416053" id="-47741">
		<tag k="name" v="Nordlia" />
		<tag k="natural" v="slope" />
		<tag k="place" v="locality" />
		<tag k="ssr:stedsnr" v="965991" />
	</node>
	<node lat="69.13093889443013" lon="22.243594380211142" id="-47745">
		<tag k="fixme" v="consider natural=peak for the most distinct mountains in the district" />
		<tag k="name" v="Suohpatvárri" />
		<tag k="name:se" v="Suohpatvárri" />
		<tag k="natural" v="hill" />
		<tag k="old_name:se" v="Suoppatvarri" />
		<tag k="place" v="locality" />
		<tag k="ssr:stedsnr" v="17753" />
	</node>
	<node lat="69.74594167075603" lon="21.197874980824494" id="-47747">
		<tag k="fixme" v="consider natural=peak for the most distinct mountains in the district" />
		<tag k="name" v="Storåsen" />
		<tag k="natural" v="hill" />
		<tag k="place" v="locality" />
		<tag k="ssr:stedsnr" v="18666" />
	</node>
	<node lat="69.74919721938838" lon="21.18398607821393" id="-47748">
		<tag k="fixme" v="consider natural=peak for the most distinct mountains in the district" />
		<tag k="name" v="Møllbakkåsen" />
		<tag k="natural" v="hill" />
		<tag k="place" v="locality" />
		<tag k="ssr:stedsnr" v="18667" />
	</node>
	<node lat="69.3193250004381" lon="21.60277496330842" id="-47751">
		<tag k="fixme" v="consider natural=peak for the most distinct mountains in the district" />
		<tag k="name" v="Unna Geresoaivváš" />
		<tag k="name:se" v="Unna Geresoaivváš" />
		<tag k="natural" v="hill" />
		<tag k="old_name:se" v="Geresoaivváš, unna" />
		<tag k="place" v="locality" />
		<tag k="ssr:stedsnr" v="18625" />
	</node>
	<node lat="69.80888888652531" lon="21.356113861157652" id="-47757">
		<tag k="fixme" v="consider natural=peak for the most distinct mountains in the district" />
		<tag k="name" v="Doaresgáisá" />
		<tag k="name:se" v="Doaresgáisá" />
		<tag k="natural" v="hill" />
		<tag k="old_name:se" v="Doaresgáisa" />
		<tag k="place" v="locality" />
		<tag k="ssr:stedsnr" v="19179" />
	</node>
	<node lat="69.7817333301441" lon="21.562616631214606" id="-47758">
		<tag k="fixme" v="consider natural=peak for the most distinct mountains in the district" />
		<tag k="name" v="Váddášgáissát" />
		<tag k="name:se" v="Váddášgáissát" />
		<tag k="natural" v="hill" />
		<tag k="old_name:se" v="Váddašgáissát" />
		<tag k="place" v="locality" />
		<tag k="ssr:stedsnr" v="19187" />
	</node>
	<node lat="69.52516389043996" lon="21.084772198673225" id="-47763">
		<tag k="fixme" v="consider natural=peak for the most distinct mountains in the district" />
		<tag k="name" v="Goahtegáisá" />
		<tag k="name:se" v="Goahtegáisá" />
		<tag k="natural" v="hill" />
		<tag k="place" v="locality" />
		<tag k="ssr:stedsnr" v="19245" />
	</node>
	<node lat="69.58681111400865" lon="21.44510553180952" id="-47764">
		<tag k="fixme" v="consider natural=peak for the most distinct mountains in the district" />
		<tag k="name" v="Čavččasvárri" />
		<tag k="name:se" v="Čavččasvárri" />
		<tag k="natural" v="hill" />
		<tag k="place" v="locality" />
		<tag k="ssr:stedsnr" v="19345" />
	</node>
	<node lat="69.60643055885552" lon="21.364008304098512" id="-47766">
		<tag k="name" v="Rajajokdalen" />
		<tag k="natural" v="valley" />
		<tag k="place" v="locality" />
		<tag k="ssr:stedsnr" v="19350" />
	</node>
	<node lat="69.66850833260897" lon="21.504144407607438" id="-47767">
		<tag k="fixme" v="consider natural=peak for the most distinct mountains in the district" />
		<tag k="name" v="Doaresrášša" />
		<tag k="name:se" v="Doaresrášša" />
		<tag k="natural" v="hill" />
		<tag k="place" v="locality" />
		<tag k="ssr:stedsnr" v="19304" />
	</node>
	<node lat="69.68623333882772" lon="21.349149966485623" id="-47768">
		<tag k="fixme" v="consider natural=peak for the most distinct mountains in the district" />
		<tag k="name" v="Kjellerkampen" />
		<tag k="natural" v="hill" />
		<tag k="place" v="locality" />
		<tag k="ssr:stedsnr" v="19330" />
	</node>
	<node lat="69.52789722481408" lon="21.912833297073398" id="-47771">
		<tag k="fixme" v="consider natural=peak for the most distinct mountains in the district" />
		<tag k="name" v="Beahcegealháldi" />
		<tag k="name:se" v="Beahcegealháldi" />
		<tag k="natural" v="hill" />
		<tag k="place" v="locality" />
		<tag k="ssr:stedsnr" v="19387" />
	</node>
	<node lat="69.20610277447955" lon="21.76496107260005" id="-47772">
		<tag k="fixme" v="consider natural=peak for the most distinct mountains in the district" />
		<tag k="name" v="Šuđaidangielas" />
		<tag k="name:se" v="Šuđaidangielas" />
		<tag k="natural" v="hill" />
		<tag k="place" v="locality" />
		<tag k="ssr:stedsnr" v="19492" />
	</node>
	<node lat="69.62675277488906" lon="21.009727760984134" id="-47775">
		<tag k="name" v="Dolpenjunni" />
		<tag k="name:se" v="Dolpenjunni" />
		<tag k="natural" v="hill" />
		<tag k="place" v="locality" />
		<tag k="ssr:stedsnr" v="19564" />
	</node>
	<node lat="69.42117500121519" lon="21.390083312174784" id="-47776">
		<tag k="name" v="Meahcceláhku" />
		<tag k="name:se" v="Meahcceláhku" />
		<tag k="natural" v="valley" />
		<tag k="place" v="locality" />
		<tag k="ssr:stedsnr" v="19625" />
	</node>
	<node lat="69.39832500077873" lon="21.326074971513307" id="-47777">
		<tag k="fixme" v="consider natural=peak for the most distinct mountains in the district" />
		<tag k="name" v="Čikŋavárri" />
		<tag k="name:se" v="Čikŋavárri" />
		<tag k="natural" v="hill" />
		<tag k="place" v="locality" />
		<tag k="ssr:stedsnr" v="19633" />
	</node>
	<node lat="69.90014999614435" lon="21.556622197222666" id="-47786">
		<tag k="fixme" v="multiple name tags, choose one and add the other to alt_name; consider natural=peak for the most distinct mountains in the district" />
		<tag k="name" v="Kvænangsfjellet - Návuonvárri;Nuovasmuotki - Naavuononvaara" />
		<tag k="name:fkv" v="Naavuononvaara" />
		<tag k="name:no" v="Kvænangsfjellet" />
		<tag k="name:se" v="Návuonvárri;Nuovasmuotki" />
		<tag k="natural" v="hill" />
		<tag k="place" v="locality" />
		<tag k="ssr:stedsnr" v="19831" />
	</node>
	<node lat="69.95710495443647" lon="21.057631563426778" id="-47791">
		<tag k="name" v="Fugleberget" />
		<tag k="natural" v="hill" />
		<tag k="place" v="locality" />
		<tag k="ssr:stedsnr" v="19873" />
	</node>
	<node lat="69.79263611263522" lon="20.59312496913691" id="-47797">
		<tag k="name" v="Kjempebakken" />
		<tag k="natural" v="slope" />
		<tag k="place" v="locality" />
		<tag k="ssr:stedsnr" v="19952" />
	</node>
	<node lat="69.82450555440022" lon="20.883577749242743" id="-47801">
		<tag k="fixme" v="consider natural=peak for the most distinct mountains in the district" />
		<tag k="name" v="Stortinden" />
		<tag k="natural" v="hill" />
		<tag k="place" v="locality" />
		<tag k="ssr:stedsnr" v="19975" />
	</node>
	<node lat="69.82337777587284" lon="20.862369420306152" id="-47802">
		<tag k="fixme" v="multiple name tags, choose one and add the other to alt_name" />
		<tag k="name" v="Gåshaugen;Storvasshaugen" />
		<tag k="natural" v="hill" />
		<tag k="place" v="locality" />
		<tag k="ssr:stedsnr" v="19978" />
	</node>
	<node lat="69.95215774428858" lon="21.223218450204136" id="-47803">
		<tag k="fixme" v="multiple name tags, choose one and add the other to alt_name; consider natural=peak for the most distinct mountains in the district" />
		<tag k="name" v="Store Bakkofjell;Molvikfjellet - Báhkku - Eiragouvi" />
		<tag k="name:fkv" v="Eiragouvi" />
		<tag k="name:no" v="Store Bakkofjell;Molvikfjellet" />
		<tag k="name:se" v="Báhkku" />
		<tag k="natural" v="hill" />
		<tag k="place" v="locality" />
		<tag k="ssr:stedsnr" v="19880" />
	</node>
	<node lat="69.88637221993342" lon="20.78011387346401" id="-47814">
		<tag k="name" v="Slottet" />
		<tag k="natural" v="hill" />
		<tag k="place" v="locality" />
		<tag k="ssr:stedsnr" v="49875" />
	</node>
	<node lat="69.75794444734635" lon="20.98974441975379" id="-47815">
		<tag k="fixme" v="consider natural=peak for the most distinct mountains in the district" />
		<tag k="name" v="Grønnfjellet" />
		<tag k="natural" v="hill" />
		<tag k="place" v="locality" />
		<tag k="ssr:stedsnr" v="54681" />
	</node>
	<node lat="69.86456111643274" lon="20.854472194741657" id="-47817">
		<tag k="name" v="Gellassen" />
		<tag k="natural" v="slope" />
		<tag k="place" v="locality" />
		<tag k="ssr:stedsnr" v="54008" />
	</node>
	<node lat="69.94447778234148" lon="21.215844415993647" id="-47818">
		<tag k="fixme" v="consider natural=peak for the most distinct mountains in the district" />
		<tag k="name" v="Bakko" />
		<tag k="natural" v="hill" />
		<tag k="place" v="locality" />
		<tag k="ssr:stedsnr" v="54306" />
	</node>
	<node lat="69.85061666447776" lon="21.143999977946883" id="-47819">
		<tag k="name" v="Hesteberget" />
		<tag k="natural" v="hill" />
		<tag k="place" v="locality" />
		<tag k="ssr:stedsnr" v="54314" />
	</node>
	<node lat="69.81419722268019" lon="20.87631941354379" id="-47820">
		<tag k="fixme" v="consider natural=peak for the most distinct mountains in the district" />
		<tag k="name" v="Brentefjellet" />
		<tag k="natural" v="hill" />
		<tag k="place" v="locality" />
		<tag k="ssr:stedsnr" v="54046" />
	</node>
	<node lat="69.77332222129039" lon="20.61379163676018" id="-47823">
		<tag k="name" v="Geithollet" />
		<tag k="natural" v="valley" />
		<tag k="place" v="locality" />
		<tag k="ssr:stedsnr" v="54248" />
	</node>
	<node lat="69.75397778075153" lon="20.73571110462761" id="-47824">
		<tag k="name" v="Gammelvollen" />
		<tag k="place" v="locality" />
		<tag k="ssr:stedsnr" v="54254" />
	</node>
	<node lat="69.84816666890536" lon="21.15732497200445" id="-47825">
		<tag k="name" v="Bernhardbakkan" />
		<tag k="natural" v="slope" />
		<tag k="place" v="locality" />
		<tag k="ssr:stedsnr" v="54320" />
	</node>
	<node lat="69.82240000240324" lon="21.01423608595159" id="-47827">
		<tag k="name" v="Stor-Aneloftet" />
		<tag k="natural" v="hill" />
		<tag k="place" v="locality" />
		<tag k="ssr:stedsnr" v="54332" />
	</node>
	<node lat="69.8243638879232" lon="21.010730529265075" id="-47828">
		<tag k="name" v="Steinramlan" />
		<tag k="natural" v="hill" />
		<tag k="place" v="locality" />
		<tag k="ssr:stedsnr" v="54334" />
	</node>
	<node lat="69.97082499783068" lon="21.21257773658587" id="-47829">
		<tag k="alt_name" v="Bukkholflåget" />
		<tag k="name" v="Bukkholfloget" />
		<tag k="natural" v="hill" />
		<tag k="place" v="locality" />
		<tag k="ssr:stedsnr" v="54337" />
	</node>
	<node lat="69.83374722584426" lon="20.89036943367882" id="-47830">
		<tag k="name" v="Stallodonni" />
		<tag k="natural" v="hill" />
		<tag k="place" v="locality" />
		<tag k="ssr:stedsnr" v="54453" />
	</node>
	<node lat="69.77974166425803" lon="21.057422204443917" id="-47832">
		<tag k="name" v="Stealli" />
		<tag k="name:se" v="Stealli" />
		<tag k="place" v="locality" />
		<tag k="ssr:stedsnr" v="54533" />
	</node>
	<node lat="69.88107500508204" lon="20.88892497242089" id="-47837">
		<tag k="name" v="Stor-Čohkka" />
		<tag k="natural" v="hill" />
		<tag k="place" v="locality" />
		<tag k="ssr:stedsnr" v="54713" />
	</node>
	<node lat="69.82278888573587" lon="21.051305540126116" id="-47839">
		<tag k="name" v="Betsidibergan" />
		<tag k="natural" v="hill" />
		<tag k="place" v="locality" />
		<tag k="ssr:stedsnr" v="54971" />
	</node>
	<node lat="69.90040555798832" lon="20.93643329903574" id="-47842">
		<tag k="name" v="Sandberget" />
		<tag k="natural" v="hill" />
		<tag k="place" v="locality" />
		<tag k="ssr:stedsnr" v="54746" />
	</node>
	<node lat="69.85934722729192" lon="20.54528052881273" id="-47844">
		<tag k="name" v="Griseryggen" />
		<tag k="natural" v="ridge" />
		<tag k="place" v="locality" />
		<tag k="ssr:stedsnr" v="54831" />
	</node>
	<node lat="69.12469166689691" lon="22.333441609016973" id="-47854">
		<tag k="fixme" v="consider natural=peak for the most distinct mountains in the district" />
		<tag k="name" v="Litnut" />
		<tag k="name:se" v="Litnut" />
		<tag k="natural" v="hill" />
		<tag k="old_name:se" v="Lidnot" />
		<tag k="place" v="locality" />
		<tag k="ssr:stedsnr" v="78728" />
	</node>
	<node lat="69.36555278395498" lon="21.80803328642594" id="-47855">
		<tag k="name" v="Litlegropa" />
		<tag k="natural" v="valley" />
		<tag k="place" v="locality" />
		<tag k="ssr:stedsnr" v="79813" />
	</node>
	<node lat="69.18740278457514" lon="22.476741597119094" id="-47857">
		<tag k="fixme" v="consider natural=peak for the most distinct mountains in the district" />
		<tag k="name" v="Guovdačohkka" />
		<tag k="name:se" v="Guovdačohkka" />
		<tag k="natural" v="hill" />
		<tag k="old_name:se" v="Guovdačåkka" />
		<tag k="place" v="locality" />
		<tag k="ssr:stedsnr" v="79645" />
	</node>
	<node lat="69.331724997411" lon="21.542630516772313" id="-47860">
		<tag k="fixme" v="consider natural=peak for the most distinct mountains in the district" />
		<tag k="name" v="Luhččenvárri" />
		<tag k="name:se" v="Luhččenvárri" />
		<tag k="natural" v="hill" />
		<tag k="place" v="locality" />
		<tag k="ssr:stedsnr" v="79630" />
	</node>
	<node lat="69.15404722247413" lon="22.401438814165306" id="-47864">
		<tag k="name" v="Goikevuopmi" />
		<tag k="name:se" v="Goikevuopmi" />
		<tag k="natural" v="valley" />
		<tag k="old_name:se" v="Gåikevuobmi" />
		<tag k="place" v="locality" />
		<tag k="ssr:stedsnr" v="79661" />
	</node>
	<node lat="69.43735833901904" lon="21.53638051283682" id="-47867">
		<tag k="name" v="Bahtaráigi" />
		<tag k="name:se" v="Bahtaráigi" />
		<tag k="natural" v="valley" />
		<tag k="place" v="locality" />
		<tag k="ssr:stedsnr" v="79685" />
	</node>
	<node lat="69.50393610938814" lon="22.227116614320074" id="-47868">
		<tag k="fixme" v="consider natural=peak for the most distinct mountains in the district" />
		<tag k="name" v="Dálvvesčearru" />
		<tag k="name:se" v="Dálvvesčearru" />
		<tag k="natural" v="hill" />
		<tag k="old_name:se" v="Dalvesčærro" />
		<tag k="place" v="locality" />
		<tag k="ssr:stedsnr" v="79771" />
	</node>
	<node lat="69.29716389303383" lon="22.336533266968505" id="-47869">
		<tag k="fixme" v="consider natural=peak for the most distinct mountains in the district" />
		<tag k="name" v="Njárgavárri" />
		<tag k="name:se" v="Njárgavárri" />
		<tag k="natural" v="hill" />
		<tag k="old_name:se" v="Njargavarri" />
		<tag k="place" v="locality" />
		<tag k="ssr:stedsnr" v="79961" />
	</node>
	<node lat="69.78053333027017" lon="21.281491632216415" id="-47874">
		<tag k="fixme" v="consider natural=peak for the most distinct mountains in the district" />
		<tag k="name" v="Unnačohkaš" />
		<tag k="name:se" v="Unnačohkaš" />
		<tag k="natural" v="hill" />
		<tag k="place" v="locality" />
		<tag k="ssr:stedsnr" v="80230" />
	</node>
	<node lat="69.54270555832518" lon="21.585972200134382" id="-47878">
		<tag k="fixme" v="consider natural=peak for the most distinct mountains in the district" />
		<tag k="name" v="Gearpmesrášša" />
		<tag k="name:se" v="Gearpmesrášša" />
		<tag k="natural" v="hill" />
		<tag k="place" v="locality" />
		<tag k="ssr:stedsnr" v="80269" />
	</node>
	<node lat="69.55317500112231" lon="21.42683052387156" id="-47879">
		<tag k="fixme" v="consider natural=peak for the most distinct mountains in the district" />
		<tag k="name" v="Langmyrfjellet" />
		<tag k="natural" v="hill" />
		<tag k="place" v="locality" />
		<tag k="ssr:stedsnr" v="80275" />
	</node>
	<node lat="69.56138333613067" lon="21.23170274637399" id="-47880">
		<tag k="fixme" v="consider natural=peak for the most distinct mountains in the district" />
		<tag k="name" v="Josdalfjellet - Juvošvárri" />
		<tag k="name:no" v="Josdalfjellet" />
		<tag k="name:se" v="Juvošvárri" />
		<tag k="natural" v="hill" />
		<tag k="place" v="locality" />
		<tag k="ssr:stedsnr" v="80279" />
	</node>
	<node lat="69.61938611457303" lon="21.269308304306286" id="-47885">
		<tag k="fixme" v="multiple name tags, choose one and add the other to alt_name; consider natural=peak for the most distinct mountains in the district" />
		<tag k="name" v="Vinnelysfjellet;Varpifjellet" />
		<tag k="natural" v="hill" />
		<tag k="place" v="locality" />
		<tag k="ssr:stedsnr" v="80376" />
	</node>
	<node lat="69.52213611612697" lon="21.629519417208964" id="-47888">
		<tag k="fixme" v="consider natural=peak for the most distinct mountains in the district" />
		<tag k="name" v="Girkovárri" />
		<tag k="name:se" v="Girkovárri" />
		<tag k="natural" v="hill" />
		<tag k="place" v="locality" />
		<tag k="ssr:stedsnr" v="80427" />
	</node>
	<node lat="69.13668889100147" lon="21.979855517927227" id="-47889">
		<tag k="name" v="Rásseádjatgorsa" />
		<tag k="name:se" v="Rásseádjatgorsa" />
		<tag k="natural" v="valley" />
		<tag k="place" v="locality" />
		<tag k="ssr:stedsnr" v="80518" />
	</node>
	<node lat="69.15433055999964" lon="22.182013824631937" id="-47891">
		<tag k="name" v="Bávdnjaleamši" />
		<tag k="name:se" v="Bávdnjaleamši" />
		<tag k="place" v="locality" />
		<tag k="ssr:stedsnr" v="80521" />
	</node>
	<node lat="69.94636388874284" lon="21.02882218705867" id="-47907">
		<tag k="alt_name" v="Maurnestindan" />
		<tag k="fixme" v="multiple name tags, choose one and add the other to alt_name; consider natural=peak for the most distinct mountains in the district" />
		<tag k="name" v="Maurnestinden;Middagshaugfjellet" />
		<tag k="natural" v="hill" />
		<tag k="place" v="locality" />
		<tag k="ssr:stedsnr" v="80897" />
	</node>
	<node lat="69.75899722736264" lon="20.801669421307068" id="-47909">
		<tag k="name" v="Gipmevággi" />
		<tag k="name:se" v="Gipmevággi" />
		<tag k="natural" v="valley" />
		<tag k="place" v="locality" />
		<tag k="ssr:stedsnr" v="80924" />
	</node>
	<node lat="69.92396388576597" lon="21.388088868944184" id="-47913">
		<tag k="fixme" v="consider natural=peak for the most distinct mountains in the district" />
		<tag k="name" v="Danskefjellet" />
		<tag k="natural" v="hill" />
		<tag k="place" v="locality" />
		<tag k="ssr:stedsnr" v="80876" />
	</node>
	<node lat="69.93246111111354" lon="21.246902754170407" id="-47915">
		<tag k="fixme" v="consider natural=peak for the most distinct mountains in the district" />
		<tag k="name" v="Hamnefjellet" />
		<tag k="natural" v="hill" />
		<tag k="place" v="locality" />
		<tag k="ssr:stedsnr" v="80883" />
	</node>
	<node lat="69.81726389168024" lon="20.626647200734343" id="-47922">
		<tag k="fixme" v="consider natural=peak for the most distinct mountains in the district" />
		<tag k="name" v="Kjelvågtinden" />
		<tag k="natural" v="hill" />
		<tag k="place" v="locality" />
		<tag k="ssr:stedsnr" v="80983" />
	</node>
	<node lat="69.86218055938632" lon="20.753872203376886" id="-47923">
		<tag k="alt_name" v="Knippeskrinet" />
		<tag k="name" v="Knippelskrinet" />
		<tag k="place" v="locality" />
		<tag k="ssr:stedsnr" v="85772" />
	</node>
	<node lat="69.85478888993075" lon="20.802974983066555" id="-47928">
		<tag k="name" v="Lillerisset" />
		<tag k="natural" v="slope" />
		<tag k="place" v="locality" />
		<tag k="ssr:stedsnr" v="114091" />
	</node>
	<node lat="69.7980749992662" lon="21.092683311256636" id="-47930">
		<tag k="name" v="Ullahaugen" />
		<tag k="natural" v="hill" />
		<tag k="place" v="locality" />
		<tag k="ssr:stedsnr" v="114629" />
	</node>
	<node lat="69.82549166940386" lon="20.548011090890768" id="-47931">
		<tag k="name" v="Gáiskeroggi" />
		<tag k="name:se" v="Gáiskeroggi" />
		<tag k="natural" v="valley" />
		<tag k="place" v="locality" />
		<tag k="ssr:stedsnr" v="114777" />
	</node>
	<node lat="69.80867500450545" lon="20.550655542495356" id="-47932">
		<tag k="name" v="Tårnebakti" />
		<tag k="natural" v="hill" />
		<tag k="place" v="locality" />
		<tag k="ssr:stedsnr" v="114232" />
	</node>
	<node lat="69.72131110740764" lon="21.017941649171455" id="-47934">
		<tag k="fixme" v="consider natural=peak for the most distinct mountains in the district" />
		<tag k="name" v="Svartfjellet" />
		<tag k="natural" v="hill" />
		<tag k="place" v="locality" />
		<tag k="ssr:stedsnr" v="114452" />
	</node>
	<node lat="69.80103610792402" lon="20.53688331530905" id="-47936">
		<tag k="name" v="Laen" />
		<tag k="place" v="locality" />
		<tag k="ssr:stedsnr" v="114801" />
	</node>
	<node lat="69.73929166492368" lon="21.09643608722604" id="-47938">
		<tag k="name" v="Martavuopi" />
		<tag k="name:fkv" v="Martavuopi" />
		<tag k="place" v="locality" />
		<tag k="ssr:stedsnr" v="115554" />
	</node>
	<node lat="69.77306944132384" lon="20.74739442227191" id="-47943">
		<tag k="name" v="Rautaslia" />
		<tag k="natural" v="slope" />
		<tag k="place" v="locality" />
		<tag k="ssr:stedsnr" v="115232" />
	</node>
	<node lat="69.78413889154712" lon="20.749441634791626" id="-47944">
		<tag k="name" v="Mølnelvdalen" />
		<tag k="natural" v="valley" />
		<tag k="place" v="locality" />
		<tag k="ssr:stedsnr" v="115239" />
	</node>
	<node lat="69.68078055787352" lon="21.094699968936943" id="-47945">
		<tag k="name" v="Nesan" />
		<tag k="natural" v="hill" />
		<tag k="place" v="locality" />
		<tag k="ssr:stedsnr" v="115589" />
	</node>
	<node lat="69.71446111293531" lon="21.290855524630288" id="-47947">
		<tag k="name" v="Lille Moskoelvdalen" />
		<tag k="natural" v="valley" />
		<tag k="place" v="locality" />
		<tag k="ssr:stedsnr" v="115743" />
	</node>
	<node lat="69.5548555583993" lon="21.34113885519989" id="-47948">
		<tag k="fixme" v="consider natural=peak for the most distinct mountains in the district" />
		<tag k="name" v="Lille Čavčasfjellet" />
		<tag k="natural" v="hill" />
		<tag k="place" v="locality" />
		<tag k="ssr:stedsnr" v="115488" />
	</node>
	<node lat="69.7106472188397" lon="21.292558303669896" id="-47949">
		<tag k="fixme" v="consider natural=peak for the most distinct mountains in the district" />
		<tag k="name" v="Lillefjellet" />
		<tag k="natural" v="hill" />
		<tag k="place" v="locality" />
		<tag k="ssr:stedsnr" v="115686" />
	</node>
	<node lat="69.96348611436446" lon="21.33733608694589" id="-47964">
		<tag k="name" v="Trolldalsaksla" />
		<tag k="place" v="locality" />
		<tag k="ssr:stedsnr" v="115950" />
	</node>
	<node lat="69.25561111106516" lon="22.10926660686959" id="-47974">
		<tag k="fixme" v="consider natural=peak for the most distinct mountains in the district" />
		<tag k="loc_name:fkv" v="Mettävaara" />
		<tag k="name" v="Miehtavárri" />
		<tag k="name:se" v="Miehtavárri" />
		<tag k="natural" v="hill" />
		<tag k="place" v="locality" />
		<tag k="ssr:stedsnr" v="139719" />
	</node>
	<node lat="69.25745000203669" lon="22.18139995495708" id="-47975">
		<tag k="name" v="Girončohkka" />
		<tag k="name:se" v="Girončohkka" />
		<tag k="natural" v="hill" />
		<tag k="place" v="locality" />
		<tag k="ssr:stedsnr" v="139720" />
	</node>
	<node lat="69.58703055698159" lon="20.92087496758436" id="-47976">
		<tag k="name" v="Njallavággi" />
		<tag k="name:se" v="Njallavággi" />
		<tag k="natural" v="valley" />
		<tag k="place" v="locality" />
		<tag k="ssr:stedsnr" v="140664" />
	</node>
	<node lat="69.45256944175011" lon="21.637119406186926" id="-47977">
		<tag k="fixme" v="consider natural=peak for the most distinct mountains in the district" />
		<tag k="name" v="Ruonasvárri" />
		<tag k="name:se" v="Ruonasvárri" />
		<tag k="natural" v="hill" />
		<tag k="place" v="locality" />
		<tag k="ssr:stedsnr" v="139682" />
	</node>
	<node lat="69.76105277384112" lon="21.244788867090346" id="-47979">
		<tag k="name" v="Avkogohpi" />
		<tag k="name:se" v="Avkogohpi" />
		<tag k="natural" v="valley" />
		<tag k="place" v="locality" />
		<tag k="ssr:stedsnr" v="140211" />
	</node>
	<node lat="69.76015555655444" lon="21.183522184579942" id="-47980">
		<tag k="fixme" v="consider natural=peak for the most distinct mountains in the district" />
		<tag k="name" v="Hysingjordfjellet" />
		<tag k="natural" v="hill" />
		<tag k="place" v="locality" />
		<tag k="ssr:stedsnr" v="140212" />
	</node>
	<node lat="69.53248055974356" lon="21.52784442126217" id="-47983">
		<tag k="fixme" v="consider natural=peak for the most distinct mountains in the district" />
		<tag k="name" v="Gearpmesčohkka" />
		<tag k="name:se" v="Gearpmesčohkka" />
		<tag k="natural" v="hill" />
		<tag k="place" v="locality" />
		<tag k="ssr:stedsnr" v="140268" />
	</node>
	<node lat="69.5436249978577" lon="21.160724980794697" id="-47984">
		<tag k="name" v="Josdalen - Juvošvággi" />
		<tag k="name:no" v="Josdalen" />
		<tag k="name:se" v="Juvošvággi" />
		<tag k="natural" v="valley" />
		<tag k="old_name:se" v="Juvosvággi" />
		<tag k="place" v="locality" />
		<tag k="ssr:stedsnr" v="140278" />
	</node>
	<node lat="69.5920916708327" lon="21.539224963907106" id="-47990">
		<tag k="fixme" v="consider natural=peak for the most distinct mountains in the district" />
		<tag k="name" v="Čáhppesláhku" />
		<tag k="name:se" v="Čáhppesláhku" />
		<tag k="natural" v="hill" />
		<tag k="place" v="locality" />
		<tag k="ssr:stedsnr" v="140362" />
	</node>
	<node lat="69.61704722004076" lon="21.10476662657888" id="-47991">
		<tag k="name" v="Guolban" />
		<tag k="name:se" v="Guolban" />
		<tag k="natural" v="slope" />
		<tag k="place" v="locality" />
		<tag k="ssr:stedsnr" v="140379" />
	</node>
	<node lat="69.53292777664552" lon="22.066761053028724" id="-47992">
		<tag k="fixme" v="consider natural=peak for the most distinct mountains in the district" />
		<tag k="name" v="Golggotrášša" />
		<tag k="name:se" v="Golggotrášša" />
		<tag k="natural" v="hill" />
		<tag k="place" v="locality" />
		<tag k="ssr:stedsnr" v="140430" />
	</node>
	<node lat="69.11706666638999" lon="21.970713845314524" id="-47993">
		<tag k="name" v="Goikegorsa" />
		<tag k="name:se" v="Goikegorsa" />
		<tag k="natural" v="valley" />
		<tag k="place" v="locality" />
		<tag k="ssr:stedsnr" v="140491" />
	</node>
	<node lat="69.85233055334072" lon="20.55146663769298" id="-47996">
		<tag k="alt_name" v="Skjeraksla" />
		<tag k="fixme" v="consider natural=peak for the most distinct mountains in the district" />
		<tag k="name" v="Skjæraksla" />
		<tag k="natural" v="hill" />
		<tag k="place" v="locality" />
		<tag k="ssr:stedsnr" v="140501" />
	</node>
	<node lat="69.9115916685669" lon="20.936288859534926" id="-47997">
		<tag k="fixme" v="consider natural=peak for the most distinct mountains in the district" />
		<tag k="name" v="Gjøvarden - Jievjavárri" />
		<tag k="name:no" v="Gjøvarden" />
		<tag k="name:se" v="Jievjavárri" />
		<tag k="natural" v="hill" />
		<tag k="place" v="locality" />
		<tag k="ssr:stedsnr" v="140511" />
	</node>
	<node lat="69.69713055633473" lon="20.940599968008737" id="-48000">
		<tag k="fixme" v="consider natural=peak for the most distinct mountains in the district" />
		<tag k="name" v="Bæssetindan - Beassevárri" />
		<tag k="name:no" v="Bæssetindan" />
		<tag k="name:se" v="Beassevárri" />
		<tag k="natural" v="hill" />
		<tag k="place" v="locality" />
		<tag k="ssr:stedsnr" v="140606" />
	</node>
	<node lat="69.21382500584672" lon="21.93759995488632" id="-48001">
		<tag k="fixme" v="consider natural=peak for the most distinct mountains in the district" />
		<tag k="name" v="Jorba Roggeoaivi" />
		<tag k="name:se" v="Jorba Roggeoaivi" />
		<tag k="natural" v="hill" />
		<tag k="old_name:se" v="Roggeoaivi, jorba" />
		<tag k="place" v="locality" />
		<tag k="ssr:stedsnr" v="140479" />
	</node>
	<node lat="69.88204444329665" lon="20.82150276687185" id="-48002">
		<tag k="fixme" v="consider natural=peak for the most distinct mountains in the district" />
		<tag k="name" v="Trollvikhaugen" />
		<tag k="natural" v="hill" />
		<tag k="place" v="locality" />
		<tag k="ssr:stedsnr" v="140537" />
	</node>
	<node lat="69.24893889066918" lon="21.699172182266313" id="-48003">
		<tag k="name" v="Geatkegurra" />
		<tag k="name:se" v="Geatkegurra" />
		<tag k="natural" v="valley" />
		<tag k="place" v="locality" />
		<tag k="ssr:stedsnr" v="140543" />
	</node>
	<node lat="69.66903611468034" lon="20.895966641145684" id="-48004">
		<tag k="fixme" v="consider natural=peak for the most distinct mountains in the district" />
		<tag k="name" v="Cohkolatgáisá" />
		<tag k="name:se" v="Cohkolatgáisá" />
		<tag k="natural" v="hill" />
		<tag k="old_name:se" v="Cohkolatgáisa" />
		<tag k="place" v="locality" />
		<tag k="ssr:stedsnr" v="140564" />
	</node>
	<node lat="69.82085833479778" lon="21.27857218946742" id="-48012">
		<tag k="fixme" v="consider natural=peak for the most distinct mountains in the district" />
		<tag k="name" v="Čudnogáisá" />
		<tag k="name:se" v="Čudnogáisá" />
		<tag k="natural" v="hill" />
		<tag k="old_name:se" v="Čudnogáisa" />
		<tag k="place" v="locality" />
		<tag k="ssr:stedsnr" v="140756" />
	</node>
	<node lat="69.82673333024235" lon="21.417949974298747" id="-48014">
		<tag k="name" v="Storsletta" />
		<tag k="place" v="locality" />
		<tag k="ssr:stedsnr" v="140769" />
	</node>
	<node lat="69.84447500225349" lon="21.417444416993106" id="-48016">
		<tag k="name" v="Oksfjorddalen - Stuoravuovdi" />
		<tag k="name:no" v="Oksfjorddalen" />
		<tag k="name:se" v="Stuoravuovdi" />
		<tag k="natural" v="valley" />
		<tag k="place" v="locality" />
		<tag k="ssr:stedsnr" v="140778" />
	</node>
	<node lat="69.32253055824843" lon="22.005297172385035" id="-48017">
		<tag k="fixme" v="consider natural=peak for the most distinct mountains in the district" />
		<tag k="name" v="Unna Ruvjjáš" />
		<tag k="name:se" v="Unna Ruvjjáš" />
		<tag k="natural" v="hill" />
		<tag k="old_name:se" v="Ruvjjáš, unna" />
		<tag k="place" v="locality" />
		<tag k="ssr:stedsnr" v="140844" />
	</node>
	<node lat="69.8816583336468" lon="21.60109718005342" id="-48022">
		<tag k="fixme" v="consider natural=peak for the most distinct mountains in the district" />
		<tag k="name" v="Malingsfjellet - Skárttasvárri" />
		<tag k="name:no" v="Malingsfjellet" />
		<tag k="name:se" v="Skárttasvárri" />
		<tag k="natural" v="hill" />
		<tag k="place" v="locality" />
		<tag k="ssr:stedsnr" v="140824" />
	</node>
	<node lat="69.31072778250822" lon="21.89704996323084" id="-48025">
		<tag k="name" v="Vuomádatláhku" />
		<tag k="name:se" v="Vuomádatláhku" />
		<tag k="natural" v="valley" />
		<tag k="place" v="locality" />
		<tag k="ssr:stedsnr" v="140871" />
	</node>
	<node lat="69.84596666893292" lon="20.859177752248957" id="-48032">
		<tag k="name" v="Russeberget" />
		<tag k="natural" v="hill" />
		<tag k="place" v="locality" />
		<tag k="ssr:stedsnr" v="175082" />
	</node>
	<node lat="69.80003888997072" lon="20.569058325048058" id="-48034">
		<tag k="name" v="Bekkbakken" />
		<tag k="natural" v="slope" />
		<tag k="place" v="locality" />
		<tag k="ssr:stedsnr" v="175235" />
	</node>
	<node lat="69.77123610962417" lon="20.56156110261637" id="-48035">
		<tag k="name" v="Spellmannsbergan" />
		<tag k="natural" v="hill" />
		<tag k="place" v="locality" />
		<tag k="ssr:stedsnr" v="175244" />
	</node>
	<node lat="69.82324167097799" lon="21.02639441811262" id="-48038">
		<tag k="name" v="Lilleaksla" />
		<tag k="place" v="locality" />
		<tag k="ssr:stedsnr" v="175337" />
	</node>
	<node lat="69.8962750008823" lon="21.512255536393617" id="-48039">
		<tag k="fixme" v="consider natural=peak for the most distinct mountains in the district" />
		<tag k="name" v="Nuovas" />
		<tag k="name:se" v="Nuovas" />
		<tag k="natural" v="hill" />
		<tag k="place" v="locality" />
		<tag k="ssr:stedsnr" v="175372" />
	</node>
	<node lat="69.7193583332468" lon="21.077369423508777" id="-48043">
		<tag k="name" v="Bekkdalsgrubba" />
		<tag k="natural" v="valley" />
		<tag k="place" v="locality" />
		<tag k="ssr:stedsnr" v="175565" />
	</node>
	<node lat="69.63954722499332" lon="21.27896108230794" id="-48045">
		<tag k="name" v="Tørrfossbrannen" />
		<tag k="place" v="locality" />
		<tag k="ssr:stedsnr" v="175590" />
	</node>
	<node lat="69.79180000288333" lon="21.07011385318765" id="-48047">
		<tag k="name" v="Elastakka" />
		<tag k="name:fkv" v="Elastakka" />
		<tag k="natural" v="slope" />
		<tag k="place" v="locality" />
		<tag k="ssr:stedsnr" v="175616" />
	</node>
	<node lat="69.85085833588589" lon="21.070883321929152" id="-48050">
		<tag k="name" v="Čohkkammaren" />
		<tag k="natural" v="hill" />
		<tag k="place" v="locality" />
		<tag k="ssr:stedsnr" v="175783" />
	</node>
	<node lat="69.89541666838923" lon="20.929383300404908" id="-48054">
		<tag k="name" v="Vardhammaren" />
		<tag k="natural" v="hill" />
		<tag k="place" v="locality" />
		<tag k="ssr:stedsnr" v="175727" />
	</node>
	<node lat="69.88421666888333" lon="20.770419417300907" id="-48058">
		<tag k="name" v="Småseiberget" />
		<tag k="natural" v="hill" />
		<tag k="place" v="locality" />
		<tag k="ssr:stedsnr" v="176049" />
	</node>
	<node lat="69.8532250023324" lon="20.535969422408098" id="-48059">
		<tag k="name" v="Marslokta" />
		<tag k="name:se" v="Marslokta" />
		<tag k="natural" v="slope" />
		<tag k="place" v="locality" />
		<tag k="ssr:stedsnr" v="175838" />
	</node>
	<node lat="69.93333611227177" lon="21.245972202768964" id="-48072">
		<tag k="name" v="Brenthaugen" />
		<tag k="natural" v="hill" />
		<tag k="place" v="locality" />
		<tag k="ssr:stedsnr" v="176943" />
	</node>
	<node lat="69.81663610776755" lon="21.48688330368544" id="-48074">
		<tag k="name" v="Furuhaugen" />
		<tag k="natural" v="hill" />
		<tag k="place" v="locality" />
		<tag k="ssr:stedsnr" v="176986" />
	</node>
	<node lat="69.86710833376507" lon="21.44512496131193" id="-48076">
		<tag k="name" v="Rappesbakken" />
		<tag k="name:se" v="Rappesbakken" />
		<tag k="natural" v="slope" />
		<tag k="place" v="locality" />
		<tag k="ssr:stedsnr" v="177000" />
	</node>
	<node lat="69.87865278278393" lon="21.170577747361907" id="-48078">
		<tag k="name" v="Fallsletta" />
		<tag k="place" v="locality" />
		<tag k="ssr:stedsnr" v="188796" />
	</node>
	<node lat="69.87705555269775" lon="21.16069441188085" id="-48079">
		<tag k="fixme" v="consider natural=peak for the most distinct mountains in the district" />
		<tag k="name" v="Fallfjellet" />
		<tag k="natural" v="hill" />
		<tag k="place" v="locality" />
		<tag k="ssr:stedsnr" v="188799" />
	</node>
	<node lat="69.14193333662656" lon="22.421158264880074" id="-48080">
		<tag k="name" v="Goikevárri" />
		<tag k="name:se" v="Goikevárri" />
		<tag k="natural" v="hill" />
		<tag k="old_name:se" v="Gåikevarri" />
		<tag k="place" v="locality" />
		<tag k="ssr:stedsnr" v="199748" />
	</node>
	<node lat="69.3709250022813" lon="21.238224963064123" id="-48081">
		<tag k="fixme" v="consider natural=peak for the most distinct mountains in the district" />
		<tag k="name" v="Biedjočohkat" />
		<tag k="name:se" v="Biedjočohkat" />
		<tag k="natural" v="hill" />
		<tag k="place" v="locality" />
		<tag k="ssr:stedsnr" v="200628" />
	</node>
	<node lat="69.35662222422903" lon="21.599574959123675" id="-48082">
		<tag k="fixme" v="consider natural=peak for the most distinct mountains in the district" />
		<tag k="name" v="Guollegielas" />
		<tag k="name:se" v="Guollegielas" />
		<tag k="natural" v="hill" />
		<tag k="place" v="locality" />
		<tag k="ssr:stedsnr" v="200635" />
	</node>
	<node lat="69.48177777593091" lon="21.324941645039065" id="-48084">
		<tag k="fixme" v="consider natural=peak for the most distinct mountains in the district" />
		<tag k="name" v="Gahperus - Kapperus" />
		<tag k="name:fkv" v="Kapperus" />
		<tag k="name:se" v="Gahperus" />
		<tag k="natural" v="hill" />
		<tag k="place" v="locality" />
		<tag k="ssr:stedsnr" v="200714" />
	</node>
	<node lat="69.4836249999109" lon="21.547044397686584" id="-48085">
		<tag k="name" v="Girkoláhku" />
		<tag k="name:se" v="Girkoláhku" />
		<tag k="natural" v="valley" />
		<tag k="place" v="locality" />
		<tag k="ssr:stedsnr" v="200718" />
	</node>
	<node lat="69.47196111125338" lon="21.55536106203752" id="-48086">
		<tag k="alt_name:no" v="Kirkefjellet" />
		<tag k="fixme" v="consider natural=peak for the most distinct mountains in the district" />
		<tag k="name" v="Kjerkefjellet - Girkovárri" />
		<tag k="name:no" v="Kjerkefjellet" />
		<tag k="name:se" v="Girkovárri" />
		<tag k="natural" v="hill" />
		<tag k="place" v="locality" />
		<tag k="ssr:stedsnr" v="200720" />
	</node>
	<node lat="69.29817500316526" lon="21.501313861435772" id="-48089">
		<tag k="name" v="Ruoškkanláhku" />
		<tag k="name:se" v="Ruoškkanláhku" />
		<tag k="place" v="locality" />
		<tag k="ssr:stedsnr" v="200657" />
	</node>
	<node lat="69.28241389059188" lon="21.586827745780063" id="-48090">
		<tag k="fixme" v="consider natural=peak for the most distinct mountains in the district" />
		<tag k="name" v="Somáoaivi" />
		<tag k="name:se" v="Somáoaivi" />
		<tag k="natural" v="hill" />
		<tag k="place" v="locality" />
		<tag k="ssr:stedsnr" v="200658" />
	</node>
	<node lat="69.34748333695538" lon="21.315977755007022" id="-48091">
		<tag k="fixme" v="consider natural=peak for the most distinct mountains in the district" />
		<tag k="name" v="Huortnáščohkka" />
		<tag k="name:se" v="Huortnáščohkka" />
		<tag k="natural" v="hill" />
		<tag k="place" v="locality" />
		<tag k="ssr:stedsnr" v="200667" />
	</node>
	<node lat="69.63029166672771" lon="21.312022202034886" id="-48094">
		<tag k="fixme" v="multiple name tags, choose one and add the other to alt_name" />
		<tag k="name" v="Doareshaugen;Dorrishaugan - Doaresdievát" />
		<tag k="name:no" v="Doareshaugen;Dorrishaugan" />
		<tag k="name:se" v="Doaresdievát" />
		<tag k="natural" v="hill" />
		<tag k="place" v="locality" />
		<tag k="ssr:stedsnr" v="201347" />
	</node>
	<node lat="69.53364167011561" lon="21.7876499481566" id="-48095">
		<tag k="name" v="Gaskavággi" />
		<tag k="name:se" v="Gaskavággi" />
		<tag k="natural" v="valley" />
		<tag k="place" v="locality" />
		<tag k="ssr:stedsnr" v="201372" />
	</node>
	<node lat="69.63482500173129" lon="20.958791635401923" id="-48097">
		<tag k="name" v="Čillavággi" />
		<tag k="name:se" v="Čillavággi" />
		<tag k="natural" v="valley" />
		<tag k="place" v="locality" />
		<tag k="ssr:stedsnr" v="201547" />
	</node>
	<node lat="69.74177499816663" lon="20.604774983232783" id="-48098">
		<tag k="name" v="Storhaugen - Boazovárri" />
		<tag k="name:no" v="Storhaugen" />
		<tag k="name:se" v="Boazovárri" />
		<tag k="natural" v="hill" />
		<tag k="place" v="locality" />
		<tag k="ssr:stedsnr" v="201552" />
	</node>
	<node lat="69.41835000541349" lon="22.1770332774329" id="-48099">
		<tag k="fixme" v="consider natural=peak for the most distinct mountains in the district" />
		<tag k="name" v="Siđusoaivi" />
		<tag k="name:se" v="Siđusoaivi" />
		<tag k="natural" v="hill" />
		<tag k="place" v="locality" />
		<tag k="ssr:stedsnr" v="200794" />
	</node>
	<node lat="69.37403889406758" lon="21.642524970989154" id="-48102">
		<tag k="name" v="Sitnogohpi" />
		<tag k="name:se" v="Sitnogohpi" />
		<tag k="natural" v="valley" />
		<tag k="place" v="locality" />
		<tag k="ssr:stedsnr" v="200827" />
	</node>
	<node lat="69.68944167052592" lon="21.596247188997427" id="-48106">
		<tag k="fixme" v="consider natural=peak for the most distinct mountains in the district" />
		<tag k="name" v="Hárjerášša" />
		<tag k="name:se" v="Hárjerášša" />
		<tag k="natural" v="hill" />
		<tag k="place" v="locality" />
		<tag k="ssr:stedsnr" v="201315" />
	</node>
	<node lat="69.17005000154683" lon="22.05988328555907" id="-48115">
		<tag k="fixme" v="consider natural=peak for the most distinct mountains in the district" />
		<tag k="name" v="Ordaoaivi" />
		<tag k="name:se" v="Ordaoaivi" />
		<tag k="natural" v="hill" />
		<tag k="place" v="locality" />
		<tag k="ssr:stedsnr" v="201488" />
	</node>
	<node lat="69.23997500016537" lon="21.949411068954742" id="-48121">
		<tag k="loc_name:fkv" v="Molluvuoma" />
		<tag k="name" v="Moallavuopmi" />
		<tag k="name:se" v="Moallavuopmi" />
		<tag k="natural" v="valley" />
		<tag k="place" v="locality" />
		<tag k="ssr:stedsnr" v="201525" />
	</node>
	<node lat="69.8549999992609" lon="21.314855537953818" id="-48123">
		<tag k="alt_name:no" v="Durmålsskardet" />
		<tag k="name" v="Durmålskaret - Boatka" />
		<tag k="name:no" v="Durmålskaret" />
		<tag k="name:se" v="Boatka" />
		<tag k="natural" v="valley" />
		<tag k="place" v="locality" />
		<tag k="ssr:stedsnr" v="201423" />
	</node>
	<node lat="69.60155000046576" lon="20.91480554241335" id="-48129">
		<tag k="name" v="Bálsevággi" />
		<tag k="name:se" v="Bálsevággi" />
		<tag k="natural" v="valley" />
		<tag k="place" v="locality" />
		<tag k="ssr:stedsnr" v="201632" />
	</node>
	<node lat="69.80823333677336" lon="21.271738861998536" id="-48130">
		<tag k="name" v="Jiekŋavággi" />
		<tag k="name:se" v="Jiekŋavággi" />
		<tag k="natural" v="valley" />
		<tag k="place" v="locality" />
		<tag k="ssr:stedsnr" v="201746" />
	</node>
	<node lat="69.81310833124893" lon="21.0797860857929" id="-48131">
		<tag k="fixme" v="consider natural=peak for the most distinct mountains in the district" />
		<tag k="name" v="Karjala" />
		<tag k="name:fkv" v="Karjala" />
		<tag k="natural" v="hill" />
		<tag k="place" v="locality" />
		<tag k="ssr:stedsnr" v="201753" />
	</node>
	<node lat="69.71356944565271" lon="21.349644404003698" id="-48135">
		<tag k="name" v="Litlelvdalen - Vehávággi" />
		<tag k="name:no" v="Litlelvdalen" />
		<tag k="name:se" v="Vehávággi" />
		<tag k="natural" v="valley" />
		<tag k="place" v="locality" />
		<tag k="ssr:stedsnr" v="201689" />
	</node>
	<node lat="69.74731944433502" lon="21.412483300024345" id="-48136">
		<tag k="name" v="Porttireika" />
		<tag k="name:fkv" v="Porttireika" />
		<tag k="natural" v="valley" />
		<tag k="place" v="locality" />
		<tag k="ssr:stedsnr" v="201739" />
	</node>
	<node lat="69.88984166646242" lon="21.198988854506755" id="-48137">
		<tag k="name" v="Storlia" />
		<tag k="natural" v="slope" />
		<tag k="place" v="locality" />
		<tag k="ssr:stedsnr" v="201806" />
	</node>
	<node lat="69.95953333315401" lon="21.256424982590527" id="-48140">
		<tag k="name" v="Molvikdalen" />
		<tag k="natural" v="valley" />
		<tag k="old_name" v="Molvikadalen" />
		<tag k="place" v="locality" />
		<tag k="ssr:stedsnr" v="201865" />
	</node>
	<node lat="69.7528750049482" lon="20.910124969655296" id="-48143">
		<tag k="fixme" v="consider natural=peak for the most distinct mountains in the district" />
		<tag k="name" v="Arasborrášša" />
		<tag k="name:se" v="Arasborrášša" />
		<tag k="natural" v="hill" />
		<tag k="place" v="locality" />
		<tag k="ssr:stedsnr" v="201885" />
	</node>
	<node lat="69.89616944561621" lon="21.45053884789995" id="-48145">
		<tag k="fixme" v="consider natural=peak for the most distinct mountains in the district" />
		<tag k="name" v="Pålfjellet" />
		<tag k="natural" v="hill" />
		<tag k="place" v="locality" />
		<tag k="ssr:stedsnr" v="201812" />
	</node>
	<node lat="69.33837777954791" lon="21.8331805008458" id="-48153">
		<tag k="loc_name:fkv" v="Holkakorsa" />
		<tag k="name" v="Holgagorsa" />
		<tag k="name:se" v="Holgagorsa" />
		<tag k="natural" v="valley" />
		<tag k="place" v="locality" />
		<tag k="ssr:stedsnr" v="201841" />
	</node>
	<node lat="69.77202778234582" lon="20.64732219323156" id="-48161">
		<tag k="name" v="Martahaugen" />
		<tag k="natural" v="hill" />
		<tag k="place" v="locality" />
		<tag k="ssr:stedsnr" v="201938" />
	</node>
	<node lat="69.82591111194436" lon="20.879016656849856" id="-48162">
		<tag k="fixme" v="consider natural=peak for the most distinct mountains in the district" />
		<tag k="name" v="Riidefjellet - Riideoaivi" />
		<tag k="name:no" v="Riidefjellet" />
		<tag k="name:se" v="Riideoaivi" />
		<tag k="natural" v="hill" />
		<tag k="place" v="locality" />
		<tag k="ssr:stedsnr" v="201984" />
	</node>
	<node lat="69.84461110964334" lon="20.897777764945765" id="-48163">
		<tag k="name" v="Latterhaugen" />
		<tag k="natural" v="hill" />
		<tag k="place" v="locality" />
		<tag k="ssr:stedsnr" v="201991" />
	</node>
	<node lat="69.50678055995508" lon="21.42199442043966" id="-48165">
		<tag k="name" v="Storslåtta" />
		<tag k="place" v="locality" />
		<tag k="ssr:stedsnr" v="205396" />
	</node>
	<node lat="69.84019166554111" lon="20.51844720679945" id="-48166">
		<tag k="name" v="Trollberget" />
		<tag k="natural" v="hill" />
		<tag k="place" v="locality" />
		<tag k="ssr:stedsnr" v="207318" />
	</node>
	<node lat="69.74314444879775" lon="20.74099720916012" id="-48177">
		<tag k="name" v="Tjønnmoen" />
		<tag k="place" v="locality" />
		<tag k="ssr:stedsnr" v="297234" />
	</node>
	<node lat="69.74113889001343" lon="20.718663879372038" id="-48178">
		<tag k="name" v="Geithøgda" />
		<tag k="natural" v="hill" />
		<tag k="place" v="locality" />
		<tag k="ssr:stedsnr" v="297240" />
	</node>
	<node lat="69.91182499790025" lon="20.874858318279028" id="-48181">
		<tag k="name" v="Boršu" />
		<tag k="name:se" v="Boršu" />
		<tag k="natural" v="slope" />
		<tag k="place" v="locality" />
		<tag k="ssr:stedsnr" v="291878" />
	</node>
	<node lat="69.72879444199708" lon="21.071224972632837" id="-48182">
		<tag k="fixme" v="consider natural=peak for the most distinct mountains in the district" />
		<tag k="name" v="Russindievva" />
		<tag k="name:fkv" v="Russindievva" />
		<tag k="natural" v="hill" />
		<tag k="place" v="locality" />
		<tag k="ssr:stedsnr" v="296544" />
	</node>
	<node lat="69.7888416649153" lon="20.931686092799428" id="-48186">
		<tag k="name" v="Grønnvollen" />
		<tag k="place" v="locality" />
		<tag k="ssr:stedsnr" v="296333" />
	</node>
	<node lat="69.78892221967264" lon="20.646030538138525" id="-48187">
		<tag k="name" v="Storsletta" />
		<tag k="place" v="locality" />
		<tag k="ssr:stedsnr" v="296152" />
	</node>
	<node lat="69.96150555916455" lon="21.20794164183277" id="-48189">
		<tag k="name" v="Kjehollet" />
		<tag k="natural" v="valley" />
		<tag k="place" v="locality" />
		<tag k="ssr:stedsnr" v="296250" />
	</node>
	<node lat="69.8328500051242" lon="20.90370830874182" id="-48193">
		<tag k="name" v="Gullborri" />
		<tag k="natural" v="hill" />
		<tag k="place" v="locality" />
		<tag k="ssr:stedsnr" v="296407" />
	</node>
	<node lat="69.84183610765066" lon="20.947530541216548" id="-48194">
		<tag k="alt_name" v="Lilleflåget" />
		<tag k="name" v="Lillefloget" />
		<tag k="natural" v="hill" />
		<tag k="place" v="locality" />
		<tag k="ssr:stedsnr" v="296416" />
	</node>
	<node lat="69.78365277803577" lon="20.939869415382947" id="-48197">
		<tag k="name" v="Goppa" />
		<tag k="natural" v="valley" />
		<tag k="place" v="locality" />
		<tag k="ssr:stedsnr" v="296353" />
	</node>
	<node lat="69.78617500118686" lon="21.049530532872033" id="-48198">
		<tag k="name" v="Givibahta" />
		<tag k="name:fkv" v="Givibahta" />
		<tag k="place" v="locality" />
		<tag k="ssr:stedsnr" v="296492" />
	</node>
	<node lat="69.79487777670676" lon="21.128624982317056" id="-48199">
		<tag k="name" v="Guolbban" />
		<tag k="name:se" v="Guolbban" />
		<tag k="place" v="locality" />
		<tag k="ssr:stedsnr" v="296499" />
	</node>
	<node lat="69.79066110947772" lon="21.08969165089541" id="-48200">
		<tag k="name" v="Bounokenttä" />
		<tag k="name:fkv" v="Bounokenttä" />
		<tag k="natural" v="valley" />
		<tag k="place" v="locality" />
		<tag k="ssr:stedsnr" v="296595" />
	</node>
	<node lat="69.81032222018764" lon="20.919127746621577" id="-48201">
		<tag k="name" v="Rundberget" />
		<tag k="natural" v="hill" />
		<tag k="place" v="locality" />
		<tag k="ssr:stedsnr" v="296689" />
	</node>
	<node lat="69.84164166967193" lon="20.520416647978042" id="-48205">
		<tag k="name" v="Trollberghaugen" />
		<tag k="natural" v="hill" />
		<tag k="place" v="locality" />
		<tag k="ssr:stedsnr" v="296739" />
	</node>
	<node lat="69.82412222452326" lon="20.5390777552987" id="-48206">
		<tag k="name" v="Čohkka" />
		<tag k="name:se" v="Čohkka" />
		<tag k="natural" v="hill" />
		<tag k="place" v="locality" />
		<tag k="ssr:stedsnr" v="296750" />
	</node>
	<node lat="69.77829444533347" lon="20.60773887122581" id="-48208">
		<tag k="name" v="Brentbergan" />
		<tag k="natural" v="hill" />
		<tag k="place" v="locality" />
		<tag k="ssr:stedsnr" v="296862" />
	</node>
	<node lat="69.87087777909528" lon="20.753613870419535" id="-48210">
		<tag k="name" v="Rabben" />
		<tag k="natural" v="hill" />
		<tag k="place" v="locality" />
		<tag k="ssr:stedsnr" v="297048" />
	</node>
	<node lat="69.83489722444455" lon="20.868844421200375" id="-48211">
		<tag k="fixme" v="consider natural=peak for the most distinct mountains in the district" />
		<tag k="name" v="Finnhaugtoppen" />
		<tag k="natural" v="hill" />
		<tag k="place" v="locality" />
		<tag k="ssr:stedsnr" v="297210" />
	</node>
	<node lat="69.82696666670333" lon="20.875986091882968" id="-48212">
		<tag k="name" v="Foreningsberget" />
		<tag k="natural" v="hill" />
		<tag k="place" v="locality" />
		<tag k="ssr:stedsnr" v="297213" />
	</node>
	<node lat="69.6550972257396" lon="21.24960554119565" id="-48216">
		<tag k="name" v="Goppa" />
		<tag k="natural" v="valley" />
		<tag k="place" v="locality" />
		<tag k="ssr:stedsnr" v="297553" />
	</node>
	<node lat="69.93313055772408" lon="21.008905539742642" id="-48218">
		<tag k="name" v="Bjørndalen" />
		<tag k="natural" v="valley" />
		<tag k="place" v="locality" />
		<tag k="ssr:stedsnr" v="297708" />
	</node>
	<node lat="69.6673833295967" lon="21.12047775496484" id="-48219">
		<tag k="name" v="Neverlaupet" />
		<tag k="natural" v="slope" />
		<tag k="place" v="locality" />
		<tag k="ssr:stedsnr" v="297710" />
	</node>
	<node lat="69.69511111083979" lon="21.070827763850403" id="-48220">
		<tag k="name" v="Fossbakken" />
		<tag k="natural" v="slope" />
		<tag k="place" v="locality" />
		<tag k="ssr:stedsnr" v="297715" />
	</node>
	<node lat="69.92469444595307" lon="21.269547199037966" id="-48224">
		<tag k="name" v="Ruspagurra" />
		<tag k="name:se" v="Ruspagurra" />
		<tag k="natural" v="valley" />
		<tag k="place" v="locality" />
		<tag k="ssr:stedsnr" v="297930" />
	</node>
	<node lat="69.51759166627076" lon="21.400516644988613" id="-48226">
		<tag k="name" v="Mikkinakken" />
		<tag k="natural" v="ridge" />
		<tag k="place" v="locality" />
		<tag k="ssr:stedsnr" v="297948" />
	</node>
	<node lat="69.83958888988656" lon="21.086911087776457" id="-48227">
		<tag k="name" v="Gorraluohkká" />
		<tag k="name:se" v="Gorraluohkká" />
		<tag k="natural" v="slope" />
		<tag k="place" v="locality" />
		<tag k="ssr:stedsnr" v="297957" />
	</node>
	<node lat="69.8341222245287" lon="21.077480534175937" id="-48230">
		<tag k="name" v="Oksegrubba" />
		<tag k="natural" v="valley" />
		<tag k="place" v="locality" />
		<tag k="ssr:stedsnr" v="309970" />
	</node>
	<node lat="69.32186944857" lon="22.243974942623367" id="-48231">
		<tag k="fixme" v="consider natural=peak for the most distinct mountains in the district" />
		<tag k="name" v="Heandaratvárri" />
		<tag k="name:se" v="Heandaratvárri" />
		<tag k="natural" v="hill" />
		<tag k="old_name:se" v="Hændaratvarri" />
		<tag k="place" v="locality" />
		<tag k="ssr:stedsnr" v="321062" />
	</node>
	<node lat="69.65968333042906" lon="21.179794418204914" id="-48232">
		<tag k="fixme" v="consider natural=peak for the most distinct mountains in the district" />
		<tag k="name" v="Njoaski" />
		<tag k="name:se" v="Njoaski" />
		<tag k="natural" v="hill" />
		<tag k="place" v="locality" />
		<tag k="ssr:stedsnr" v="322297" />
	</node>
	<node lat="69.28193610938108" lon="21.79174996226593" id="-48233">
		<tag k="fixme" v="consider natural=peak for the most distinct mountains in the district" />
		<tag k="name" v="Áŋkkaroaivvit" />
		<tag k="name:se" v="Áŋkkaroaivvit" />
		<tag k="natural" v="hill" />
		<tag k="place" v="locality" />
		<tag k="ssr:stedsnr" v="321846" />
	</node>
	<node lat="69.77106667057888" lon="21.7109471996977" id="-48236">
		<tag k="name" v="Midtreporten" />
		<tag k="natural" v="valley" />
		<tag k="place" v="locality" />
		<tag k="ssr:stedsnr" v="322006" />
	</node>
	<node lat="69.60128333037204" lon="21.431199970299883" id="-48245">
		<tag k="fixme" v="consider natural=peak for the most distinct mountains in the district" />
		<tag k="name" v="Čáhppesčohkka" />
		<tag k="name:se" v="Čáhppesčohkka" />
		<tag k="natural" v="hill" />
		<tag k="place" v="locality" />
		<tag k="ssr:stedsnr" v="322339" />
	</node>
	<node lat="69.40629999772491" lon="21.261813868689327" id="-48254">
		<tag k="fixme" v="consider natural=peak for the most distinct mountains in the district" />
		<tag k="name" v="Roggečohkka" />
		<tag k="name:se" v="Roggečohkka" />
		<tag k="natural" v="hill" />
		<tag k="place" v="locality" />
		<tag k="ssr:stedsnr" v="322645" />
	</node>
	<node lat="69.4712250030279" lon="22.058849949988534" id="-48256">
		<tag k="fixme" v="consider natural=peak for the most distinct mountains in the district" />
		<tag k="name" v="Sieiddirášša" />
		<tag k="name:se" v="Sieiddirášša" />
		<tag k="natural" v="hill" />
		<tag k="place" v="locality" />
		<tag k="ssr:stedsnr" v="322654" />
	</node>
	<node lat="69.30288889116959" lon="21.365780517606627" id="-48257">
		<tag k="fixme" v="consider natural=peak for the most distinct mountains in the district" />
		<tag k="name" v="Ruvdnaoaivi" />
		<tag k="name:se" v="Ruvdnaoaivi" />
		<tag k="natural" v="hill" />
		<tag k="place" v="locality" />
		<tag k="ssr:stedsnr" v="322670" />
	</node>
	<node lat="69.44257499865608" lon="21.14203886831409" id="-48261">
		<tag k="name" v="Geatkkutvággi" />
		<tag k="name:se" v="Geatkkutvággi" />
		<tag k="natural" v="valley" />
		<tag k="place" v="locality" />
		<tag k="ssr:stedsnr" v="322709" />
	</node>
	<node lat="69.82587222083811" lon="21.37347773515205" id="-48267">
		<tag k="name" v="Skarddalen - Gárgolašvággi" />
		<tag k="name:no" v="Skarddalen" />
		<tag k="name:se" v="Gárgolašvággi" />
		<tag k="natural" v="valley" />
		<tag k="place" v="locality" />
		<tag k="ssr:stedsnr" v="322743" />
	</node>
	<node lat="69.4493861088189" lon="22.259944389058195" id="-48269">
		<tag k="fixme" v="consider natural=peak for the most distinct mountains in the district" />
		<tag k="name" v="Goččesgielas" />
		<tag k="name:se" v="Goččesgielas" />
		<tag k="natural" v="hill" />
		<tag k="old_name:se" v="Gåžžesgielas;Goččes" />
		<tag k="place" v="locality" />
		<tag k="ssr:stedsnr" v="322749" />
	</node>
	<node lat="69.45121111421673" lon="21.243744428125535" id="-48272">
		<tag k="fixme" v="consider natural=peak for the most distinct mountains in the district" />
		<tag k="name" v="Áittášvárri" />
		<tag k="name:se" v="Áittášvárri" />
		<tag k="natural" v="hill" />
		<tag k="place" v="locality" />
		<tag k="ssr:stedsnr" v="322710" />
	</node>
	<node lat="69.47759444430724" lon="21.445702741923565" id="-48274">
		<tag k="fixme" v="consider natural=peak for the most distinct mountains in the district" />
		<tag k="name" v="Lilleskaidi - Unna Skáiddáš" />
		<tag k="name:no" v="Lilleskaidi" />
		<tag k="name:se" v="Unna Skáiddáš" />
		<tag k="natural" v="hill" />
		<tag k="old_name:se" v="Skáiddáš, unna" />
		<tag k="place" v="locality" />
		<tag k="ssr:stedsnr" v="322723" />
	</node>
	<node lat="69.36148889214027" lon="21.88057773716435" id="-48279">
		<tag k="name" v="Toornionvaara" />
		<tag k="name:fkv" v="Toornionvaara" />
		<tag k="natural" v="hill" />
		<tag k="place" v="locality" />
		<tag k="ssr:stedsnr" v="322823" />
	</node>
	<node lat="69.82953333727401" lon="20.565344421459315" id="-48285">
		<tag k="name" v="Gahpervággi" />
		<tag k="name:se" v="Gahpervággi" />
		<tag k="natural" v="valley" />
		<tag k="old_name:se" v="Gohpervággi" />
		<tag k="place" v="locality" />
		<tag k="ssr:stedsnr" v="322995" />
	</node>
	<node lat="69.80005556037023" lon="20.867755527065533" id="-48287">
		<tag k="fixme" v="consider natural=peak for the most distinct mountains in the district" />
		<tag k="name" v="Bertelfjellet" />
		<tag k="natural" v="hill" />
		<tag k="place" v="locality" />
		<tag k="ssr:stedsnr" v="322950" />
	</node>
	<node lat="69.65623888579555" lon="21.393638864787402" id="-48289">
		<tag k="fixme" v="consider natural=peak for the most distinct mountains in the district" />
		<tag k="name" v="Mellomfjellet - Kaupinvaara" />
		<tag k="name:fkv" v="Kaupinvaara" />
		<tag k="name:no" v="Mellomfjellet" />
		<tag k="natural" v="hill" />
		<tag k="place" v="locality" />
		<tag k="ssr:stedsnr" v="323312" />
	</node>
	<node lat="69.17286666576192" lon="21.868258288476742" id="-48292">
		<tag k="name" v="Čiertegorsa" />
		<tag k="name:se" v="Čiertegorsa" />
		<tag k="natural" v="valley" />
		<tag k="place" v="locality" />
		<tag k="ssr:stedsnr" v="323527" />
	</node>
	<node lat="69.63534722564204" lon="21.240116649310025" id="-48294">
		<tag k="name" v="Pahtavankka" />
		<tag k="name:fkv" v="Pahtavankka" />
		<tag k="natural" v="valley" />
		<tag k="old_name:fkv" v="Pastavanka" />
		<tag k="place" v="locality" />
		<tag k="ssr:stedsnr" v="323371" />
	</node>
	<node lat="69.91089722560179" lon="21.456577755324027" id="-48302">
		<tag k="fixme" v="consider natural=peak for the most distinct mountains in the district" />
		<tag k="name" v="Nuovasgáisá" />
		<tag k="name:se" v="Nuovasgáisá" />
		<tag k="natural" v="hill" />
		<tag k="old_name:se" v="Nuovasgáisa;Nuosgáisá" />
		<tag k="place" v="locality" />
		<tag k="ssr:stedsnr" v="323854" />
	</node>
	<node lat="69.87441111526874" lon="20.826158316757155" id="-48303">
		<tag k="fixme" v="consider natural=peak for the most distinct mountains in the district" />
		<tag k="name" v="Vardfjellet - Divrriidčohkka" />
		<tag k="name:no" v="Vardfjellet" />
		<tag k="name:se" v="Divrriidčohkka" />
		<tag k="natural" v="hill" />
		<tag k="place" v="locality" />
		<tag k="ssr:stedsnr" v="328464" />
	</node>
	<node lat="69.81203333149182" lon="20.532124972981386" id="-48305">
		<tag k="name" v="Innerberget" />
		<tag k="natural" v="hill" />
		<tag k="place" v="locality" />
		<tag k="ssr:stedsnr" v="328739" />
	</node>
	<node lat="69.8786111150419" lon="21.156174974147557" id="-48309">
		<tag k="name" v="Steinbergan" />
		<tag k="natural" v="hill" />
		<tag k="place" v="locality" />
		<tag k="ssr:stedsnr" v="348940" />
	</node>
	<node lat="69.89066388626568" lon="20.79268331880537" id="-48310">
		<tag k="name" v="Gallteistan" />
		<tag k="natural" v="hill" />
		<tag k="place" v="locality" />
		<tag k="ssr:stedsnr" v="352870" />
	</node>
	<node lat="69.85350555585386" lon="20.836077749002417" id="-48311">
		<tag k="name" v="Finnberget" />
		<tag k="natural" v="hill" />
		<tag k="place" v="locality" />
		<tag k="ssr:stedsnr" v="357113" />
	</node>
	<node lat="69.79761667037849" lon="21.124905530829345" id="-48318">
		<tag k="name" v="Lomisia" />
		<tag k="name:fkv" v="Lomisia" />
		<tag k="natural" v="slope" />
		<tag k="place" v="locality" />
		<tag k="ssr:stedsnr" v="357494" />
	</node>
	<node lat="69.76128055537379" lon="21.00378052092593" id="-48321">
		<tag k="name" v="Brannen" />
		<tag k="natural" v="slope" />
		<tag k="place" v="locality" />
		<tag k="ssr:stedsnr" v="357671" />
	</node>
	<node lat="69.67735278305709" lon="21.07829996542872" id="-48324">
		<tag k="name" v="Måneskinnsgrubba" />
		<tag k="natural" v="valley" />
		<tag k="place" v="locality" />
		<tag k="ssr:stedsnr" v="357611" />
	</node>
	<node lat="69.83821666625694" lon="20.530555536085217" id="-48327">
		<tag k="name" v="Kontibákti" />
		<tag k="name:se" v="Kontibákti" />
		<tag k="natural" v="hill" />
		<tag k="place" v="locality" />
		<tag k="ssr:stedsnr" v="357739" />
	</node>
	<node lat="69.8284305584032" lon="20.523080543996574" id="-48328">
		<tag k="name" v="Báktinjunni" />
		<tag k="name:se" v="Báktinjunni" />
		<tag k="natural" v="hill" />
		<tag k="place" v="locality" />
		<tag k="ssr:stedsnr" v="357746" />
	</node>
	<node lat="69.92520277932503" lon="20.93977775099133" id="-48330">
		<tag k="name" v="Bergan" />
		<tag k="natural" v="hill" />
		<tag k="place" v="locality" />
		<tag k="ssr:stedsnr" v="357687" />
	</node>
	<node lat="69.88181666591016" lon="21.197799970433966" id="-48332">
		<tag k="name" v="Laksbergan" />
		<tag k="natural" v="hill" />
		<tag k="place" v="locality" />
		<tag k="ssr:stedsnr" v="357773" />
	</node>
	<node lat="69.82969722374727" lon="21.11815830996545" id="-48333">
		<tag k="name" v="Betshammerryggen" />
		<tag k="natural" v="ridge" />
		<tag k="place" v="locality" />
		<tag k="ssr:stedsnr" v="357979" />
	</node>
	<node lat="69.55853888936991" lon="21.287499970748716" id="-48334">
		<tag k="name" v="Hestebruvollen" />
		<tag k="place" v="locality" />
		<tag k="ssr:stedsnr" v="358246" />
	</node>
	<node lat="69.76527500335457" lon="20.733005539736943" id="-48335">
		<tag k="name" v="Skredfarbakken" />
		<tag k="natural" v="slope" />
		<tag k="place" v="locality" />
		<tag k="ssr:stedsnr" v="358194" />
	</node>
	<node lat="69.7002555556157" lon="21.292388850447246" id="-48337">
		<tag k="name" v="Moskodalbakken" />
		<tag k="natural" v="slope" />
		<tag k="place" v="locality" />
		<tag k="ssr:stedsnr" v="358731" />
	</node>
	<node lat="69.7084333317537" lon="21.0591166362064" id="-48339">
		<tag k="fixme" v="consider natural=peak for the most distinct mountains in the district" />
		<tag k="name" v="Høgegga" />
		<tag k="natural" v="hill" />
		<tag k="place" v="locality" />
		<tag k="ssr:stedsnr" v="358738" />
	</node>
	<node lat="69.79453889190515" lon="21.17814720334586" id="-48341">
		<tag k="name" v="Raohogohpi" />
		<tag k="name:se" v="Raohogohpi" />
		<tag k="natural" v="valley" />
		<tag k="place" v="locality" />
		<tag k="ssr:stedsnr" v="358929" />
	</node>
	<node lat="69.83754722298893" lon="21.41413609138299" id="-48342">
		<tag k="name" v="Ráidegurra" />
		<tag k="name:se" v="Ráidegurra" />
		<tag k="natural" v="valley" />
		<tag k="place" v="locality" />
		<tag k="ssr:stedsnr" v="358990" />
	</node>
	<node lat="69.11688611553656" lon="22.47036660348709" id="-48345">
		<tag k="fixme" v="consider natural=peak for the most distinct mountains in the district" />
		<tag k="name" v="Báhpavárri" />
		<tag k="name:se" v="Báhpavárri" />
		<tag k="natural" v="hill" />
		<tag k="old_name:se" v="Bappavarri" />
		<tag k="place" v="locality" />
		<tag k="ssr:stedsnr" v="381782" />
	</node>
	<node lat="69.35855833552725" lon="21.29538608292338" id="-48346">
		<tag k="fixme" v="consider natural=peak for the most distinct mountains in the district" />
		<tag k="name" v="Muoddáčohkka" />
		<tag k="name:se" v="Muoddáčohkka" />
		<tag k="natural" v="hill" />
		<tag k="place" v="locality" />
		<tag k="ssr:stedsnr" v="382619" />
	</node>
	<node lat="69.41183889384419" lon="21.562599966921585" id="-48347">
		<tag k="fixme" v="consider natural=peak for the most distinct mountains in the district" />
		<tag k="name" v="Stohkkelatnja" />
		<tag k="name:se" v="Stohkkelatnja" />
		<tag k="natural" v="hill" />
		<tag k="place" v="locality" />
		<tag k="ssr:stedsnr" v="382627" />
	</node>
	<node lat="69.48524166937123" lon="21.981288840062156" id="-48350">
		<tag k="fixme" v="consider natural=peak for the most distinct mountains in the district" />
		<tag k="name" v="Orjannevárri" />
		<tag k="name:se" v="Orjannevárri" />
		<tag k="natural" v="hill" />
		<tag k="place" v="locality" />
		<tag k="ssr:stedsnr" v="382640" />
	</node>
	<node lat="69.3446000037153" lon="21.39004163768513" id="-48351">
		<tag k="name" v="Čoalbmevággi" />
		<tag k="name:se" v="Čoalbmevággi" />
		<tag k="natural" v="valley" />
		<tag k="place" v="locality" />
		<tag k="ssr:stedsnr" v="382645" />
	</node>
	<node lat="69.25845555737175" lon="22.129416613445517" id="-48353">
		<tag k="name" v="Miehtavággi" />
		<tag k="name:se" v="Miehtavággi" />
		<tag k="natural" v="valley" />
		<tag k="place" v="locality" />
		<tag k="ssr:stedsnr" v="382724" />
	</node>
</osm>
