<?xml version="1.0" encoding="UTF-8"?>
<osm generator="osmapis" version="0.6">
	<node id="-455326" lat="60.3750041209" lon="6.72072824179">
		<tag k="alt_name" v="Ullensvang" />
		<tag k="name" v="Ullensvang herad" />
		<tag k="ssr:date" v="2019-02-26" />
		<tag k="ssr:gruppe" v="administrativeIndelinger" />
		<tag k="ssr:hovedgruppe" v="offentligAdministrasjon" />
		<tag k="ssr:stedsnr" v="691409" />
		<tag k="ssr:type" v="kommune" />
	</node>
	<node id="-453927" lat="60.4215397571" lon="6.53946282068">
		<tag k="name" v="Ekrene" />
		<tag k="ssr:date" v="2019-05-30" />
		<tag k="ssr:gruppe" v="veg" />
		<tag k="ssr:hovedgruppe" v="infrastruktur" />
		<tag k="ssr:stedsnr" v="987529" />
		<tag k="ssr:type" v="adressenavn" />
	</node>
	<node id="-454582" lat="60.4306944462" lon="6.70040000516">
		<tag k="alt_name" v="Slåttenes" />
		<tag k="name" v="Slåttenes lykt" />
		<tag k="ssr:date" v="2016-05-10" />
		<tag k="ssr:gruppe" v="navigasjon" />
		<tag k="ssr:hovedgruppe" v="infrastruktur" />
		<tag k="ssr:stedsnr" v="236796" />
		<tag k="ssr:type" v="fyrlykt" />
	</node>
	<node id="-455956" lat="60.8816104596" lon="6.30047518531">
		<tag k="name" v="Vestlandet" />
		<tag k="ssr:date" v="2019-01-06" />
		<tag k="ssr:gruppe" v="administrativeIndelinger" />
		<tag k="ssr:hovedgruppe" v="offentligAdministrasjon" />
		<tag k="ssr:stedsnr" v="974777" />
		<tag k="ssr:type" v="annenAdministrativInndeling" />
	</node>
	<node id="-453934" lat="60.3653714007" lon="6.41501380456">
		<tag k="name" v="Vetlås" />
		<tag k="ssr:date" v="2019-05-30" />
		<tag k="ssr:gruppe" v="veg" />
		<tag k="ssr:hovedgruppe" v="infrastruktur" />
		<tag k="ssr:stedsnr" v="987535" />
		<tag k="ssr:type" v="adressenavn" />
	</node>
	<node id="-453933" lat="60.3256513309" lon="6.65908711884">
		<tag k="name" v="Hellelandsvegen" />
		<tag k="ssr:date" v="2019-05-30" />
		<tag k="ssr:gruppe" v="veg" />
		<tag k="ssr:hovedgruppe" v="infrastruktur" />
		<tag k="ssr:stedsnr" v="987536" />
		<tag k="ssr:type" v="adressenavn" />
	</node>
	<node id="-453932" lat="60.4332557672" lon="6.56058670257">
		<tag k="name" v="Lerkeholene" />
		<tag k="ssr:date" v="2019-05-30" />
		<tag k="ssr:gruppe" v="veg" />
		<tag k="ssr:hovedgruppe" v="infrastruktur" />
		<tag k="ssr:stedsnr" v="987533" />
		<tag k="ssr:type" v="adressenavn" />
	</node>
	<node id="-453931" lat="60.2895731108" lon="6.59750486369">
		<tag k="name" v="Syreflot" />
		<tag k="ssr:date" v="2019-05-30" />
		<tag k="ssr:gruppe" v="veg" />
		<tag k="ssr:hovedgruppe" v="infrastruktur" />
		<tag k="ssr:stedsnr" v="987534" />
		<tag k="ssr:type" v="adressenavn" />
	</node>
	<node id="-453930" lat="60.3826902549" lon="6.49383402034">
		<tag k="name" v="Gravene" />
		<tag k="ssr:date" v="2019-05-30" />
		<tag k="ssr:gruppe" v="veg" />
		<tag k="ssr:hovedgruppe" v="infrastruktur" />
		<tag k="ssr:stedsnr" v="987531" />
		<tag k="ssr:type" v="adressenavn" />
	</node>
	<node id="-453929" lat="60.3750620042" lon="6.64062926153">
		<tag k="name" v="Hausalia" />
		<tag k="ssr:date" v="2019-05-30" />
		<tag k="ssr:gruppe" v="veg" />
		<tag k="ssr:hovedgruppe" v="infrastruktur" />
		<tag k="ssr:stedsnr" v="987532" />
		<tag k="ssr:type" v="adressenavn" />
	</node>
	<node id="-453928" lat="60.2838859536" lon="6.59149973039">
		<tag k="name" v="Fletene" />
		<tag k="ssr:date" v="2019-05-30" />
		<tag k="ssr:gruppe" v="veg" />
		<tag k="ssr:hovedgruppe" v="infrastruktur" />
		<tag k="ssr:stedsnr" v="987530" />
		<tag k="ssr:type" v="adressenavn" />
	</node>
	<node id="-454503" lat="60.2037888881" lon="6.41066944089">
		<tag k="name" v="Hardanger" />
		<tag k="ssr:date" v="2016-05-10" />
		<tag k="ssr:gruppe" v="terrengområder" />
		<tag k="ssr:hovedgruppe" v="terreng" />
		<tag k="ssr:stedsnr" v="206291" />
		<tag k="ssr:type" v="landskapsområde" />
	</node>
	<node id="-454342" lat="60.2808305552" lon="6.61847499509">
		<tag k="alt_name" v="Børvenes" />
		<tag k="name" v="Børvenes lykt" />
		<tag k="ssr:date" v="2016-05-10" />
		<tag k="ssr:gruppe" v="navigasjon" />
		<tag k="ssr:hovedgruppe" v="infrastruktur" />
		<tag k="ssr:stedsnr" v="149786" />
		<tag k="ssr:type" v="fyrlykt" />
	</node>
	<node id="-455557" lat="60.1710527769" lon="6.57137222434">
		<tag k="fixme" v="multiple name tags, choose one and add the other to alt_name" />
		<tag k="name" v="Tednenes;Tednenes lykt" />
		<tag k="ssr:date" v="2016-05-11" />
		<tag k="ssr:gruppe" v="navigasjon" />
		<tag k="ssr:hovedgruppe" v="infrastruktur" />
		<tag k="ssr:stedsnr" v="771727" />
		<tag k="ssr:type" v="fyrlykt" />
	</node>
</osm>
