<?xml version="1.0" encoding="UTF-8"?>
<osm generator="osmapis" version="0.6">
	<node id="-7900" lat="59.0386111087" lon="11.0101972211">
		<tag k="name" v="Tangenbekken" />
		<tag k="ssr:stedsnr" v="296602" />
		<tag k="waterway" v="stream" />
	</node>
	<node id="-8664" lat="59.0184222248" lon="11.0220138936">
		<tag k="name" v="Midtmalen" />
		<tag k="natural" v="beach" />
		<tag k="ssr:stedsnr" v="538286" />
	</node>
	<node id="-8727" lat="59.0407239082" lon="11.0124981442">
		<tag k="name" v="Arekilen" />
		<tag k="natural" v="water" />
		<tag k="ssr:stedsnr" v="548611" />
	</node>
	<node id="-9268" lat="59.0824694428" lon="10.8552222237">
		<tag k="name" v="Barmtjern" />
		<tag k="natural" v="water" />
		<tag k="ssr:stedsnr" v="964118" />
	</node>
	<node id="-9266" lat="59.026119442" lon="11.042783326">
		<tag k="name" v="Kroksand" />
		<tag k="natural" v="beach" />
		<tag k="ssr:stedsnr" v="964114" />
	</node>
	<node id="-8536" lat="59.0415333327" lon="10.8870055565">
		<tag k="name" v="Akerøytjernet" />
		<tag k="natural" v="water" />
		<tag k="ssr:stedsnr" v="418048" />
	</node>
	<node id="-7916" lat="59.0672388861" lon="10.890316659">
		<tag k="name" v="Herregårdsdammen" />
		<tag k="natural" v="water" />
		<tag k="ssr:stedsnr" v="297275" />
	</node>
	<node id="-8108" lat="59.0978000011" lon="10.8703305525">
		<tag k="name" v="Haugetjernet" />
		<tag k="natural" v="water" />
		<tag k="ssr:stedsnr" v="478914" />
	</node>
</osm>
