<?xml version="1.0" encoding="UTF-8"?>
<osm generator="osmapis" version="0.6">
	<node id="-8640" lat="59.0082277768" lon="11.083850005">
		<tag k="name" v="Stueviksand" />
		<tag k="natural" v="beach" />
		<tag k="ssr:stedsnr" v="447290" />
		<tag k="surface" v="sand" />
	</node>
	<node id="-8464" lat="59.022455557" lon="11.0248638914">
		<tag k="name" v="Moltemyr" />
		<tag k="natural" v="wetland" />
		<tag k="ssr:stedsnr" v="236103" />
	</node>
	<node id="-8926" lat="59.0631861135" lon="10.9444277827">
		<tag k="name" v="Kvernemyr" />
		<tag k="natural" v="wetland" />
		<tag k="ssr:stedsnr" v="672923" />
	</node>
	<node id="-9272" lat="59.0980249956" lon="10.8840999975">
		<tag k="name" v="Ilemyr" />
		<tag k="natural" v="wetland" />
		<tag k="ssr:stedsnr" v="912717" />
	</node>
	<node id="-9175" lat="59.0531861109" lon="10.9265638803">
		<tag k="alt_name" v="Svarteberg" />
		<tag k="name" v="Svarteberget" />
		<tag k="place" v="locality" />
		<tag k="ssr:stedsnr" v="851590" />
	</node>
	<node id="-7926" lat="59.0779555566" lon="10.9167138837">
		<tag k="name" v="Torvmyra" />
		<tag k="natural" v="wetland" />
		<tag k="ssr:stedsnr" v="296421" />
	</node>
	<node id="-9205" lat="59.1156083378" lon="11.1343638884">
		<tag k="name" v="Oremyr" />
		<tag k="natural" v="wetland" />
		<tag k="ssr:stedsnr" v="872439" />
	</node>
	<node id="-8578" lat="59.0709583344" lon="11.0125944484">
		<tag k="name" v="Blokkemyr" />
		<tag k="natural" v="wetland" />
		<tag k="ssr:stedsnr" v="418436" />
	</node>
	<node id="-8401" lat="59.0982527751" lon="10.9218638842">
		<tag k="alt_name" v="Kalvehaven" />
		<tag k="name" v="Kalvehagen" />
		<tag k="place" v="locality" />
		<tag k="ssr:stedsnr" v="175534" />
	</node>
	<node id="-7920" lat="59.0025583346" lon="11.0047333297">
		<tag k="name" v="Flate hellene" />
		<tag k="place" v="locality" />
		<tag k="ssr:stedsnr" v="418902" />
	</node>
	<node id="-8717" lat="59.0901472217" lon="10.8760583361">
		<tag k="name" v="Gåsemyr" />
		<tag k="natural" v="wetland" />
		<tag k="ssr:stedsnr" v="539862" />
	</node>
	<node id="-8939" lat="59.1132861136" lon="11.1299777749">
		<tag k="name" v="Ørnemyr" />
		<tag k="natural" v="wetland" />
		<tag k="ssr:stedsnr" v="690438" />
	</node>
	<node id="-9046" lat="59.0408000006" lon="11.0161805554">
		<tag k="name" v="Vassen" />
		<tag k="natural" v="wetland" />
		<tag k="ssr:stedsnr" v="782490" />
	</node>
	<node id="-8802" lat="59.0617694473" lon="11.016730557">
		<tag k="name" v="Langemyr" />
		<tag k="natural" v="wetland" />
		<tag k="ssr:stedsnr" v="600826" />
	</node>
	<node id="-8790" lat="59.0286388925" lon="11.0264999965">
		<tag k="name" v="Prestegårdskogen" />
		<tag k="place" v="locality" />
		<tag k="ssr:stedsnr" v="600110" />
	</node>
</osm>
