<?xml version="1.0" encoding="UTF-8"?>
<<<<<<< HEAD
<osm version="0.6" generator="osmapis">
	<node lat="59.29124444131617" lon="10.363811105883382" id="-34841">
=======
<osm generator="osmapis" version="0.6">
	<node id="-411552" lat="59.2935555579" lon="10.4147055587">
		<tag k="amenity" v="school" />
		<tag k="old_name" v="Eik skole" />
		<tag k="ssr:date" v="2019-12-27" />
		<tag k="ssr:gruppe" v="institusjoner" />
		<tag k="ssr:hovedgruppe" v="bebyggelse" />
		<tag k="ssr:stedsnr" v="753772" />
		<tag k="ssr:type" v="skole" />
	</node>
	<node id="-409877" lat="59.3462749964" lon="10.4962388969">
		<tag k="fixme" v="consider seamark:type=rock or natural=shoal" />
		<tag k="old_name" v="Vestre Småskjæret" />
		<tag k="place" v="islet" />
		<tag k="ssr:date" v="2019-12-27" />
		<tag k="ssr:gruppe" v="grunnerISjø" />
		<tag k="ssr:hovedgruppe" v="sjø" />
		<tag k="ssr:stedsnr" v="220044" />
		<tag k="ssr:type" v="skjærISjø" />
	</node>
	<node id="-410211" lat="59.2912444413" lon="10.3638111059">
>>>>>>> e1d4bc35ff8a6074a6f2e91616a996b547c36f15
		<tag k="old_name" v="Rui" />
		<tag k="place" v="farm" />
		<tag k="ssr:date" v="2019-12-27" />
		<tag k="ssr:gruppe" v="gardsbebyggelse" />
		<tag k="ssr:hovedgruppe" v="bebyggelse" />
		<tag k="ssr:stedsnr" v="487698" />
		<tag k="ssr:type" v="bruk" />
	</node>
<<<<<<< HEAD
	<node lat="59.29355555791524" lon="10.414705558745498" id="-35130">
		<tag k="amenity" v="school" />
		<tag k="old_name" v="Eik skole" />
		<tag k="ssr:date" v="2019-12-27" />
		<tag k="ssr:gruppe" v="institusjoner" />
		<tag k="ssr:hovedgruppe" v="bebyggelse" />
		<tag k="ssr:stedsnr" v="753772" />
		<tag k="ssr:type" v="skole" />
	</node>
	<node lat="59.3462749964431" lon="10.496238896879152" id="-35621">
		<tag k="fixme" v="consider seamark:type=rock or natural=shoal" />
		<tag k="old_name" v="Vestre Småskjæret" />
		<tag k="place" v="islet" />
		<tag k="ssr:date" v="2019-12-27" />
		<tag k="ssr:gruppe" v="grunnerISjø" />
		<tag k="ssr:hovedgruppe" v="sjø" />
		<tag k="ssr:stedsnr" v="220044" />
		<tag k="ssr:type" v="skjærISjø" />
	</node>
=======
>>>>>>> e1d4bc35ff8a6074a6f2e91616a996b547c36f15
</osm>
