<?xml version="1.0" encoding="UTF-8"?>
<osm version="0.6" generator="osmapis">
	<node lat="59.24171724736941" lon="10.475278570675858" id="-24740">
		<tag k="name" v="Jersøy" />
		<tag k="ssr:date" v="2020-09-03" />
		<tag k="ssr:gruppe" v="navigasjon" />
		<tag k="ssr:hovedgruppe" v="infrastruktur" />
		<tag k="ssr:stedsnr" v="62007" />
		<tag k="ssr:type" v="fyrlykt" />
	</node>
	<node lat="59.24440833527979" lon="10.455725007288917" id="-24807">
		<tag k="name" v="Husøysund" />
		<tag k="ssr:date" v="2019-12-27" />
		<tag k="ssr:gruppe" v="navigasjon" />
		<tag k="ssr:hovedgruppe" v="infrastruktur" />
		<tag k="ssr:stedsnr" v="116226" />
		<tag k="ssr:type" v="lysbøye" />
	</node>
	<node lat="59.33531198706551" lon="10.570355129595658" id="-24871">
		<tag k="loc_name" v="Medfjordbåen lykt" />
		<tag k="name" v="Medfjordbåen" />
		<tag k="old_name" v="Medfjordbåen fyr" />
		<tag k="ssr:date" v="2019-12-27" />
		<tag k="ssr:gruppe" v="navigasjon" />
		<tag k="ssr:hovedgruppe" v="infrastruktur" />
		<tag k="ssr:stedsnr" v="207387" />
		<tag k="ssr:type" v="fyrlykt" />
	</node>
	<node lat="59.27001389272775" lon="10.394299996387392" id="-24944">
		<tag k="name" v="Kalnesgrunn" />
		<tag k="ssr:date" v="2019-12-27" />
		<tag k="ssr:gruppe" v="navigasjon" />
		<tag k="ssr:hovedgruppe" v="infrastruktur" />
		<tag k="ssr:stedsnr" v="238379" />
		<tag k="ssr:type" v="lysbøye" />
	</node>
	<node lat="59.270241662831516" lon="10.403188882326921" id="-25048">
		<tag k="name" v="Slottsfjellet" />
		<tag k="ssr:date" v="2019-12-27" />
		<tag k="ssr:gruppe" v="navigasjon" />
		<tag k="ssr:hovedgruppe" v="infrastruktur" />
		<tag k="ssr:stedsnr" v="298290" />
		<tag k="ssr:type" v="lysbøye" />
	</node>
	<node lat="59.26371666755522" lon="10.405147225049502" id="-25153">
		<tag k="alt_name" v="Kalnes" />
		<tag k="name" v="Kaldnes" />
		<tag k="ssr:date" v="2019-12-27" />
		<tag k="ssr:gruppe" v="navigasjon" />
		<tag k="ssr:hovedgruppe" v="infrastruktur" />
		<tag k="ssr:stedsnr" v="420342" />
		<tag k="ssr:type" v="fyrlykt" />
	</node>
	<node lat="59.26076388654672" lon="10.415797225383116" id="-25262">
		<tag k="name" v="Brua" />
		<tag k="ssr:date" v="2019-12-27" />
		<tag k="ssr:gruppe" v="navigasjon" />
		<tag k="ssr:hovedgruppe" v="infrastruktur" />
		<tag k="ssr:stedsnr" v="541326" />
		<tag k="ssr:type" v="lysbøye" />
	</node>
	<node lat="59.26446922066514" lon="10.406264546109151" id="-25414">
		<tag k="name" v="Dynga" />
		<tag k="ssr:date" v="2019-12-27" />
		<tag k="ssr:gruppe" v="navigasjon" />
		<tag k="ssr:hovedgruppe" v="infrastruktur" />
		<tag k="ssr:stedsnr" v="723312" />
		<tag k="ssr:type" v="lanterne" />
	</node>
	<node lat="59.266097221063156" lon="10.377386118360569" id="-25656">
		<tag k="name" v="Smørberg" />
		<tag k="ssr:date" v="2019-12-27" />
		<tag k="ssr:gruppe" v="navigasjon" />
		<tag k="ssr:hovedgruppe" v="infrastruktur" />
		<tag k="ssr:stedsnr" v="10916" />
		<tag k="ssr:type" v="fyrlykt" />
	</node>
	<node lat="59.2516844251706" lon="10.45014405315381" id="-25712">
		<tag k="name" v="Nordre Nes, nedre" />
		<tag k="ssr:date" v="2019-12-27" />
		<tag k="ssr:gruppe" v="navigasjon" />
		<tag k="ssr:hovedgruppe" v="infrastruktur" />
		<tag k="ssr:stedsnr" v="56219" />
		<tag k="ssr:type" v="lanterne" />
	</node>
	<node lat="59.25066831652581" lon="10.499618010771169" id="-25731">
		<tag k="alt_name" v="Torgersøy" />
		<tag k="loc_name" v="Torgersøy lykt" />
		<tag k="name" v="Torgersøya lykt" />
		<tag k="ssr:date" v="2019-12-27" />
		<tag k="ssr:gruppe" v="navigasjon" />
		<tag k="ssr:hovedgruppe" v="infrastruktur" />
		<tag k="ssr:stedsnr" v="64684" />
		<tag k="ssr:type" v="fyrlykt" />
	</node>
	<node lat="59.25218333721098" lon="10.478116661376664" id="-25787">
		<tag k="loc_name" v="Narverød lykt" />
		<tag k="name" v="Narverød" />
		<tag k="ssr:date" v="2019-12-27" />
		<tag k="ssr:gruppe" v="navigasjon" />
		<tag k="ssr:hovedgruppe" v="infrastruktur" />
		<tag k="ssr:stedsnr" v="118901" />
		<tag k="ssr:type" v="fyrlykt" />
	</node>
	<node lat="59.253869448595" lon="10.441641673732066" id="-25933">
		<tag k="name" v="Træla lysbøye" />
		<tag k="ssr:date" v="2019-12-27" />
		<tag k="ssr:gruppe" v="navigasjon" />
		<tag k="ssr:hovedgruppe" v="infrastruktur" />
		<tag k="ssr:stedsnr" v="298213" />
		<tag k="ssr:type" v="lysbøye" />
	</node>
	<node lat="59.33608055305431" lon="10.518783332960426" id="-26059">
		<tag k="name" v="Flaket" />
		<tag k="old_name" v="Sletta" />
		<tag k="ssr:date" v="2019-12-27" />
		<tag k="ssr:gruppe" v="sjøbunn" />
		<tag k="ssr:hovedgruppe" v="sjø" />
		<tag k="ssr:stedsnr" v="420847" />
		<tag k="ssr:type" v="bankeISjø" />
	</node>
	<node lat="59.25131094091649" lon="10.451561943148032" id="-26125">
		<tag k="name" v="Nordre Nes, øvre" />
		<tag k="ssr:date" v="2019-12-27" />
		<tag k="ssr:gruppe" v="navigasjon" />
		<tag k="ssr:hovedgruppe" v="infrastruktur" />
		<tag k="ssr:stedsnr" v="541241" />
		<tag k="ssr:type" v="lanterne" />
	</node>
	<node lat="59.27114166513096" lon="10.409419445920237" id="-26213">
		<tag k="alt_name" v="Tønsberg" />
		<tag k="name" v="Tønsberg kommune" />
		<tag k="ssr:date" v="2019-12-27" />
		<tag k="ssr:gruppe" v="administrativeIndelinger" />
		<tag k="ssr:hovedgruppe" v="offentligAdministrasjon" />
		<tag k="ssr:stedsnr" v="631258" />
		<tag k="ssr:type" v="kommune" />
	</node>
	<node lat="59.2704395689775" lon="10.400064042136297" id="-26526">
		<tag k="name" v="Nordbyen" />
		<tag k="ssr:date" v="2019-12-27" />
		<tag k="ssr:gruppe" v="navigasjon" />
		<tag k="ssr:hovedgruppe" v="infrastruktur" />
		<tag k="ssr:stedsnr" v="966345" />
		<tag k="ssr:type" v="fyrlykt" />
	</node>
	<node lat="59.44709450498672" lon="10.369492749174757" id="-26527">
		<tag k="name" v="Nordre Valstadvei" />
		<tag k="ssr:date" v="2019-12-27" />
		<tag k="ssr:gruppe" v="veg" />
		<tag k="ssr:hovedgruppe" v="infrastruktur" />
		<tag k="ssr:stedsnr" v="973546" />
		<tag k="ssr:type" v="adressenavn" />
	</node>
	<node lat="59.3280615951526" lon="10.514566321036773" id="-26551">
		<tag k="name" v="Slagentangen molo" />
		<tag k="ssr:date" v="2019-12-27" />
		<tag k="ssr:gruppe" v="navigasjon" />
		<tag k="ssr:hovedgruppe" v="infrastruktur" />
		<tag k="ssr:stedsnr" v="986190" />
		<tag k="ssr:type" v="lanterne" />
	</node>
	<node lat="59.27964478933886" lon="10.456296635477438" id="-26553">
		<tag k="name" v="Anders Skjolds vei" />
		<tag k="ssr:date" v="2019-12-27" />
		<tag k="ssr:gruppe" v="veg" />
		<tag k="ssr:hovedgruppe" v="infrastruktur" />
		<tag k="ssr:stedsnr" v="1041920" />
		<tag k="ssr:type" v="adressenavn" />
	</node>
	<node lat="59.30017335153738" lon="10.427638032824984" id="-26554">
		<tag k="name" v="Askeladden" />
		<tag k="ssr:date" v="2019-12-27" />
		<tag k="ssr:gruppe" v="veg" />
		<tag k="ssr:hovedgruppe" v="infrastruktur" />
		<tag k="ssr:stedsnr" v="1042016" />
		<tag k="ssr:type" v="adressenavn" />
	</node>
	<node lat="59.24907717177209" lon="10.500059715269689" id="-26555">
		<tag k="name" v="Torgersøya" />
		<tag k="ssr:date" v="2019-12-27" />
		<tag k="ssr:gruppe" v="veg" />
		<tag k="ssr:hovedgruppe" v="infrastruktur" />
		<tag k="ssr:stedsnr" v="1043744" />
		<tag k="ssr:type" v="adressenavn" />
	</node>
	<node lat="59.449050185921095" lon="10.21810672447921" id="-26556">
		<tag k="name" v="Kleivakollen" />
		<tag k="ssr:date" v="2019-12-27" />
		<tag k="ssr:gruppe" v="veg" />
		<tag k="ssr:hovedgruppe" v="infrastruktur" />
		<tag k="ssr:stedsnr" v="1043791" />
		<tag k="ssr:type" v="adressenavn" />
	</node>
	<node lat="59.268686092937855" lon="10.357532039624632" id="-26557">
		<tag k="name" v="Vårflueveien" />
		<tag k="ssr:date" v="2019-12-27" />
		<tag k="ssr:gruppe" v="veg" />
		<tag k="ssr:hovedgruppe" v="infrastruktur" />
		<tag k="ssr:stedsnr" v="1044244" />
		<tag k="ssr:type" v="adressenavn" />
	</node>
	<node lat="59.21614767841852" lon="9.611103016923492" id="-26559">
		<tag k="name" v="Vestfold og Telemark fylke" />
		<tag k="ssr:date" v="2021-06-08" />
		<tag k="ssr:gruppe" v="administrativeIndelinger" />
		<tag k="ssr:hovedgruppe" v="offentligAdministrasjon" />
		<tag k="ssr:stedsnr" v="1073927" />
		<tag k="ssr:type" v="fylke" />
	</node>
	<node lat="59.26426087124993" lon="10.355778540547337" id="-26594">
		<tag k="name" v="Firenga-1630" />
		<tag k="ssr:date" v="2021-03-08" />
		<tag k="ssr:gruppe" v="veg" />
		<tag k="ssr:hovedgruppe" v="infrastruktur" />
		<tag k="ssr:stedsnr" v="1080276" />
		<tag k="ssr:type" v="adressenavn" />
	</node>
	<node lat="59.40638811744823" lon="10.283894991399812" id="-26595">
		<tag k="name" v="Skaugholtet-18005" />
		<tag k="ssr:date" v="2021-03-16" />
		<tag k="ssr:gruppe" v="veg" />
		<tag k="ssr:hovedgruppe" v="infrastruktur" />
		<tag k="ssr:stedsnr" v="1080459" />
		<tag k="ssr:type" v="adressenavn" />
	</node>
</osm>
