<?xml version="1.0" encoding="UTF-8"?>
<osm generator="osmapis" version="0.6">
	<node id="-483838" lat="60.5888722182" lon="5.03013056164">
		<tag k="name" v="Hjellane" />
		<tag k="natural" v="hill" />
		<tag k="place" v="locality" />
		<tag k="ssr:stedsnr" v="107339" />
	</node>
	<node id="-484349" lat="60.5661632408" lon="5.06704438497">
		<tag k="name" v="Tjønnhøyen" />
		<tag k="natural" v="hill" />
		<tag k="place" v="locality" />
		<tag k="ssr:stedsnr" v="834071" />
	</node>
	<node id="-484189" lat="60.5324583368" lon="5.25939166901">
		<tag k="name" v="Rinden" />
		<tag k="place" v="locality" />
		<tag k="ssr:stedsnr" v="652263" />
	</node>
	<node id="-484344" lat="60.5138694409" lon="5.21388611541">
		<tag k="fixme" v="consider natural=peak for the most distinct mountains in the district" />
		<tag k="name" v="Klettane" />
		<tag k="natural" v="hill" />
		<tag k="place" v="locality" />
		<tag k="ssr:stedsnr" v="834001" />
	</node>
	<node id="-483831" lat="60.5484805599" lon="5.2387527718">
		<tag k="name" v="Langerinden" />
		<tag k="natural" v="hill" />
		<tag k="place" v="locality" />
		<tag k="ssr:stedsnr" v="106255" />
	</node>
	<node id="-484342" lat="60.5501083339" lon="5.14854722629">
		<tag k="fixme" v="consider natural=peak for the most distinct mountains in the district" />
		<tag k="name" v="Litlanipa" />
		<tag k="natural" v="hill" />
		<tag k="place" v="locality" />
		<tag k="ssr:stedsnr" v="833015" />
	</node>
	<node id="-483829" lat="60.5624888854" lon="5.05355000764">
		<tag k="name" v="Orrhøyen" />
		<tag k="natural" v="hill" />
		<tag k="place" v="locality" />
		<tag k="ssr:stedsnr" v="106247" />
	</node>
	<node id="-483937" lat="60.540408336" lon="5.21210000643">
		<tag k="fixme" v="consider natural=peak for the most distinct mountains in the district" />
		<tag k="name" v="Moldekleivfjellet" />
		<tag k="natural" v="hill" />
		<tag k="place" v="locality" />
		<tag k="ssr:stedsnr" v="227072" />
	</node>
	<node id="-484339" lat="60.528597221" lon="5.14819444046">
		<tag k="name" v="Hjartåsstøa" />
		<tag k="natural" v="valley" />
		<tag k="place" v="locality" />
		<tag k="ssr:stedsnr" v="814619" />
	</node>
	<node id="-483824" lat="60.5645711214" lon="5.10862683386">
		<tag k="name" v="Dyrhøyen" />
		<tag k="natural" v="hill" />
		<tag k="place" v="locality" />
		<tag k="ssr:stedsnr" v="105114" />
	</node>
	<node id="-483823" lat="60.5646583351" lon="5.07622499828">
		<tag k="name" v="Loneberget" />
		<tag k="natural" v="hill" />
		<tag k="place" v="locality" />
		<tag k="ssr:stedsnr" v="105092" />
	</node>
	<node id="-484334" lat="60.5846777775" lon="5.05278887986">
		<tag k="fixme" v="consider natural=peak for the most distinct mountains in the district" />
		<tag k="name" v="Eldsfjellet" />
		<tag k="natural" v="hill" />
		<tag k="place" v="locality" />
		<tag k="ssr:stedsnr" v="795936" />
	</node>
	<node id="-484333" lat="60.5921583304" lon="5.07362499346">
		<tag k="fixme" v="consider natural=peak for the most distinct mountains in the district" />
		<tag k="name" v="Ådnefjellet" />
		<tag k="natural" v="hill" />
		<tag k="place" v="locality" />
		<tag k="ssr:stedsnr" v="795932" />
	</node>
	<node id="-483820" lat="60.5498166694" lon="5.1812083392">
		<tag k="name" v="Grågotene" />
		<tag k="place" v="locality" />
		<tag k="ssr:stedsnr" v="105047" />
	</node>
	<node id="-483818" lat="60.5552277803" lon="5.18681389354">
		<tag k="name" v="Grasdalshalsen" />
		<tag k="natural" v="valley" />
		<tag k="place" v="locality" />
		<tag k="ssr:stedsnr" v="105035" />
	</node>
	<node id="-483817" lat="60.546641663" lon="5.13275556224">
		<tag k="name" v="Langaberget" />
		<tag k="natural" v="hill" />
		<tag k="place" v="locality" />
		<tag k="ssr:stedsnr" v="105031" />
	</node>
	<node id="-483580" lat="60.5952722246" lon="4.97245555921">
		<tag k="name" v="Kokkegjona" />
		<tag k="place" v="locality" />
		<tag k="ssr:stedsnr" v="288313" />
	</node>
	<node id="-484326" lat="60.5235166665" lon="5.2338750049">
		<tag k="fixme" v="consider natural=peak for the most distinct mountains in the district" />
		<tag k="name" v="Storeknappen" />
		<tag k="natural" v="hill" />
		<tag k="place" v="locality" />
		<tag k="ssr:stedsnr" v="795444" />
	</node>
	<node id="-483896" lat="60.5372055567" lon="5.20966666526">
		<tag k="name" v="Torvkletten" />
		<tag k="natural" v="hill" />
		<tag k="place" v="locality" />
		<tag k="ssr:stedsnr" v="167419" />
	</node>
	<node id="-484323" lat="60.5759861115" lon="5.16216943921">
		<tag k="name" v="Storhøyen" />
		<tag k="natural" v="hill" />
		<tag k="place" v="locality" />
		<tag k="ssr:stedsnr" v="795155" />
	</node>
	<node id="-484319" lat="60.5487777756" lon="5.11379721674">
		<tag k="fixme" v="consider natural=peak for the most distinct mountains in the district" />
		<tag k="name" v="Fjellstegnipa" />
		<tag k="natural" v="hill" />
		<tag k="ssr:stedsnr" v="774524" />
	</node>
	<node id="-484318" lat="60.5752944461" lon="5.14467777793">
		<tag k="fixme" v="consider natural=peak for the most distinct mountains in the district" />
		<tag k="name" v="Nordre Grasåsen" />
		<tag k="natural" v="hill" />
		<tag k="place" v="locality" />
		<tag k="ssr:stedsnr" v="774515" />
	</node>
	<node id="-484317" lat="60.5741916663" lon="5.15043610769">
		<tag k="fixme" v="consider natural=peak for the most distinct mountains in the district" />
		<tag k="name" v="Lægdene" />
		<tag k="natural" v="hill" />
		<tag k="place" v="locality" />
		<tag k="ssr:stedsnr" v="774508" />
	</node>
	<node id="-484316" lat="60.5752444441" lon="5.15596111112">
		<tag k="name" v="Dalen" />
		<tag k="natural" v="valley" />
		<tag k="place" v="locality" />
		<tag k="ssr:stedsnr" v="774509" />
	</node>
	<node id="-484314" lat="60.5793277779" lon="5.13098610487">
		<tag k="name" v="Furebotnen" />
		<tag k="natural" v="valley" />
		<tag k="place" v="locality" />
		<tag k="ssr:stedsnr" v="774496" />
	</node>
	<node id="-484313" lat="60.5776638882" lon="5.163372224">
		<tag k="name" v="Botnen" />
		<tag k="natural" v="valley" />
		<tag k="place" v="locality" />
		<tag k="ssr:stedsnr" v="774485" />
	</node>
	<node id="-484312" lat="60.5781861125" lon="5.16115278146">
		<tag k="name" v="Bløddalen" />
		<tag k="natural" v="valley" />
		<tag k="place" v="locality" />
		<tag k="ssr:stedsnr" v="774484" />
	</node>
	<node id="-484311" lat="60.5818361078" lon="5.16325832489">
		<tag k="name" v="Stemma" />
		<tag k="place" v="locality" />
		<tag k="ssr:stedsnr" v="774482" />
	</node>
	<node id="-483798" lat="60.5506027753" lon="5.05388054859">
		<tag k="fixme" v="consider natural=peak for the most distinct mountains in the district" />
		<tag k="name" v="Lifjellet" />
		<tag k="natural" v="hill" />
		<tag k="place" v="locality" />
		<tag k="ssr:stedsnr" v="66902" />
	</node>
	<node id="-484307" lat="60.5348555537" lon="5.21063055168">
		<tag k="name" v="Arnuken" />
		<tag k="place" v="locality" />
		<tag k="ssr:stedsnr" v="774447" />
	</node>
	<node id="-483794" lat="60.5721472218" lon="5.14552500358">
		<tag k="fixme" v="consider natural=peak for the most distinct mountains in the district" />
		<tag k="name" v="Stemmerinden" />
		<tag k="natural" v="hill" />
		<tag k="place" v="locality" />
		<tag k="ssr:stedsnr" v="46504" />
	</node>
	<node id="-483793" lat="60.5821861068" lon="5.15387222231">
		<tag k="fixme" v="consider natural=peak for the most distinct mountains in the district" />
		<tag k="name" v="Erdalsleitet" />
		<tag k="natural" v="hill" />
		<tag k="place" v="locality" />
		<tag k="ssr:stedsnr" v="46502" />
	</node>
	<node id="-483792" lat="60.5802388884" lon="5.12203611201">
		<tag k="name" v="Setrehøyen" />
		<tag k="natural" v="hill" />
		<tag k="place" v="locality" />
		<tag k="ssr:stedsnr" v="46494" />
	</node>
	<node id="-484303" lat="60.5381833342" lon="5.20956943941">
		<tag k="name" v="Djupedalen" />
		<tag k="natural" v="valley" />
		<tag k="place" v="locality" />
		<tag k="ssr:stedsnr" v="774413" />
	</node>
	<node id="-484302" lat="60.5530944442" lon="5.04440278154">
		<tag k="name" v="Skarshøyen" />
		<tag k="natural" v="hill" />
		<tag k="place" v="locality" />
		<tag k="ssr:stedsnr" v="774406" />
	</node>
	<node id="-484301" lat="60.6024694412" lon="5.0117361122">
		<tag k="name" v="Vardane" />
		<tag k="natural" v="hill" />
		<tag k="place" v="locality" />
		<tag k="ssr:stedsnr" v="774400" />
	</node>
	<node id="-484300" lat="60.5934805587" lon="5.0148361044">
		<tag k="fixme" v="consider natural=peak for the most distinct mountains in the district" />
		<tag k="name" v="Floren" />
		<tag k="natural" v="hill" />
		<tag k="place" v="locality" />
		<tag k="ssr:stedsnr" v="774398" />
	</node>
	<node id="-484299" lat="60.5983305577" lon="5.03475832785">
		<tag k="fixme" v="consider natural=peak for the most distinct mountains in the district" />
		<tag k="name" v="Nipa" />
		<tag k="natural" v="hill" />
		<tag k="place" v="locality" />
		<tag k="ssr:stedsnr" v="774395" />
	</node>
	<node id="-483786" lat="60.5639500025" lon="5.17443610701">
		<tag k="name" v="Halvgje" />
		<tag k="natural" v="hill" />
		<tag k="place" v="locality" />
		<tag k="ssr:stedsnr" v="46453" />
	</node>
	<node id="-483783" lat="60.5218777756" lon="5.2001416707">
		<tag k="fixme" v="consider natural=peak for the most distinct mountains in the district" />
		<tag k="name" v="Sandskarfjellet" />
		<tag k="natural" v="hill" />
		<tag k="place" v="locality" />
		<tag k="ssr:stedsnr" v="46423" />
	</node>
	<node id="-483781" lat="60.5375361071" lon="5.12800277322">
		<tag k="name" v="Hjelpedalen" />
		<tag k="natural" v="valley" />
		<tag k="place" v="locality" />
		<tag k="ssr:stedsnr" v="46402" />
	</node>
	<node id="-483780" lat="60.5526166638" lon="5.05433334142">
		<tag k="name" v="Prestvarden" />
		<tag k="natural" v="hill" />
		<tag k="place" v="locality" />
		<tag k="ssr:stedsnr" v="46379" />
	</node>
	<node id="-483830" lat="60.5620166644" lon="5.04484165956">
		<tag k="name" v="Kvernhøyen" />
		<tag k="natural" v="hill" />
		<tag k="place" v="locality" />
		<tag k="ssr:stedsnr" v="106249" />
	</node>
	<node id="-483778" lat="60.5832833339" lon="5.01879444037">
		<tag k="name" v="Rundehøyen" />
		<tag k="natural" v="hill" />
		<tag k="place" v="locality" />
		<tag k="ssr:stedsnr" v="46371" />
	</node>
	<node id="-483777" lat="60.5850138865" lon="5.02581667185">
		<tag k="name" v="Nonstona" />
		<tag k="natural" v="hill" />
		<tag k="place" v="locality" />
		<tag k="ssr:stedsnr" v="46368" />
	</node>
	<node id="-484287" lat="60.5692027742" lon="5.07286111453">
		<tag k="fixme" v="consider natural=peak for the most distinct mountains in the district" />
		<tag k="name" v="Åsebøåsen" />
		<tag k="natural" v="hill" />
		<tag k="place" v="locality" />
		<tag k="ssr:stedsnr" v="772092" />
	</node>
	<node id="-483774" lat="60.5846777804" lon="5.07076666133">
		<tag k="name" v="Landsviklia" />
		<tag k="natural" v="slope" />
		<tag k="place" v="locality" />
		<tag k="ssr:stedsnr" v="46334" />
	</node>
	<node id="-484283" lat="60.5568194476" lon="5.20563889219">
		<tag k="name" v="Stemmedalen" />
		<tag k="natural" v="valley" />
		<tag k="place" v="locality" />
		<tag k="ssr:stedsnr" v="772051" />
	</node>
	<node id="-483770" lat="60.5546166629" lon="5.11550278232">
		<tag k="name" v="Storedalen" />
		<tag k="natural" v="valley" />
		<tag k="place" v="locality" />
		<tag k="ssr:stedsnr" v="45459" />
	</node>
	<node id="-484281" lat="60.5424611149" lon="5.16610832422">
		<tag k="name" v="Våtringadalen" />
		<tag k="natural" v="valley" />
		<tag k="place" v="locality" />
		<tag k="ssr:stedsnr" v="772026" />
	</node>
	<node id="-483767" lat="60.5470500003" lon="5.23667500623">
		<tag k="fixme" v="consider natural=peak for the most distinct mountains in the district" />
		<tag k="name" v="Håøytoppen" />
		<tag k="natural" v="hill" />
		<tag k="ssr:stedsnr" v="45252" />
	</node>
	<node id="-484278" lat="60.5094111105" lon="5.21488332605">
		<tag k="name" v="Storskaret" />
		<tag k="natural" v="hill" />
		<tag k="place" v="locality" />
		<tag k="ssr:stedsnr" v="772003" />
	</node>
	<node id="-484306" lat="60.5271749966" lon="5.18628888271">
		<tag k="name" v="Seljeskaret" />
		<tag k="natural" v="hill" />
		<tag k="place" v="locality" />
		<tag k="ssr:stedsnr" v="774436" />
	</node>
	<node id="-483764" lat="60.5129055509" lon="5.19305277002">
		<tag k="name" v="Holsberget" />
		<tag k="natural" v="hill" />
		<tag k="place" v="locality" />
		<tag k="ssr:stedsnr" v="45019" />
	</node>
	<node id="-483763" lat="60.5150972236" lon="5.21665277322">
		<tag k="fixme" v="consider natural=peak for the most distinct mountains in the district" />
		<tag k="name" v="Sveåsen" />
		<tag k="natural" v="hill" />
		<tag k="place" v="locality" />
		<tag k="ssr:stedsnr" v="45006" />
	</node>
	<node id="-483827" lat="60.5892694407" lon="5.14491388289">
		<tag k="name" v="Orren" />
		<tag k="place" v="locality" />
		<tag k="ssr:stedsnr" v="105494" />
	</node>
	<node id="-484272" lat="60.5646500024" lon="5.01007499196">
		<tag k="name" v="Ørnhøyen" />
		<tag k="natural" v="hill" />
		<tag k="place" v="locality" />
		<tag k="ssr:stedsnr" v="753547" />
	</node>
	<node id="-484270" lat="60.5187472198" lon="5.18005556456">
		<tag k="name" v="Kvigedalen" />
		<tag k="natural" v="valley" />
		<tag k="place" v="locality" />
		<tag k="ssr:stedsnr" v="753536" />
	</node>
	<node id="-484266" lat="60.5861194442" lon="5.06083611289">
		<tag k="fixme" v="consider natural=peak for the most distinct mountains in the district" />
		<tag k="name" v="Storanipa" />
		<tag k="natural" v="hill" />
		<tag k="place" v="locality" />
		<tag k="ssr:stedsnr" v="734923" />
	</node>
	<node id="-484264" lat="60.5543722246" lon="5.0320583406">
		<tag k="fixme" v="consider natural=peak for the most distinct mountains in the district" />
		<tag k="name" v="Kyrkjevikhøyen" />
		<tag k="natural" v="hill" />
		<tag k="place" v="locality" />
		<tag k="ssr:stedsnr" v="734904" />
	</node>
	<node id="-484262" lat="60.5774638929" lon="5.13096945253">
		<tag k="fixme" v="consider natural=peak for the most distinct mountains in the district" />
		<tag k="name" v="Langåsane" />
		<tag k="natural" v="hill" />
		<tag k="place" v="locality" />
		<tag k="ssr:stedsnr" v="734115" />
	</node>
	<node id="-484259" lat="60.5655638924" lon="5.18599166952">
		<tag k="name" v="Høganipa" />
		<tag k="natural" v="hill" />
		<tag k="place" v="locality" />
		<tag k="ssr:stedsnr" v="734076" />
	</node>
	<node id="-484256" lat="60.5451361105" lon="5.07249721984">
		<tag k="fixme" v="consider natural=peak for the most distinct mountains in the district" />
		<tag k="name" v="Haukåsen" />
		<tag k="natural" v="hill" />
		<tag k="place" v="locality" />
		<tag k="ssr:stedsnr" v="713523" />
	</node>
	<node id="-483743" lat="60.5485666625" lon="5.12853055871">
		<tag k="fixme" v="consider natural=peak for the most distinct mountains in the district" />
		<tag k="name" v="Brakstadfjellet" />
		<tag k="natural" v="hill" />
		<tag k="place" v="locality" />
		<tag k="ssr:stedsnr" v="6095" />
	</node>
	<node id="-484254" lat="60.5466750038" lon="5.0780999978">
		<tag k="fixme" v="consider natural=peak for the most distinct mountains in the district" />
		<tag k="name" v="Grønåsen" />
		<tag k="natural" v="hill" />
		<tag k="place" v="locality" />
		<tag k="ssr:stedsnr" v="713522" />
	</node>
	<node id="-484252" lat="60.5578388925" lon="5.08755277781">
		<tag k="fixme" v="consider natural=peak for the most distinct mountains in the district" />
		<tag k="name" v="Skjenåsen" />
		<tag k="natural" v="hill" />
		<tag k="place" v="locality" />
		<tag k="ssr:stedsnr" v="713509" />
	</node>
	<node id="-484251" lat="60.5804472218" lon="5.1420166684">
		<tag k="name" v="Litlaskaret" />
		<tag k="natural" v="hill" />
		<tag k="place" v="locality" />
		<tag k="ssr:stedsnr" v="713490" />
	</node>
	<node id="-484249" lat="60.5814305577" lon="5.16554166072">
		<tag k="name" v="Osphøyen" />
		<tag k="natural" v="hill" />
		<tag k="place" v="locality" />
		<tag k="ssr:stedsnr" v="713455" />
	</node>
	<node id="-484248" lat="60.5386388914" lon="5.17054999288">
		<tag k="name" v="Grønekletten" />
		<tag k="place" v="locality" />
		<tag k="ssr:stedsnr" v="713422" />
	</node>
	<node id="-484291" lat="60.5491250641" lon="5.22141933967">
		<tag k="name" v="Svehøyen" />
		<tag k="natural" v="hill" />
		<tag k="place" v="locality" />
		<tag k="ssr:stedsnr" v="773063" />
	</node>
	<node id="-484246" lat="60.5993305529" lon="5.03083889743">
		<tag k="name" v="Nedre Storhøyen" />
		<tag k="natural" v="hill" />
		<tag k="place" v="locality" />
		<tag k="ssr:stedsnr" v="713341" />
	</node>
	<node id="-484245" lat="60.5915222184" lon="5.03533888111">
		<tag k="name" v="Øyrdalen" />
		<tag k="natural" v="valley" />
		<tag k="place" v="locality" />
		<tag k="ssr:stedsnr" v="713340" />
	</node>
	<node id="-484244" lat="60.5971185282" lon="5.03082742303">
		<tag k="name" v="Storhøyen" />
		<tag k="natural" v="hill" />
		<tag k="place" v="locality" />
		<tag k="ssr:stedsnr" v="713338" />
	</node>
	<node id="-484243" lat="60.5949999965" lon="5.0539722313">
		<tag k="fixme" v="consider natural=peak for the most distinct mountains in the district" />
		<tag k="name" v="Gnistifjellet" />
		<tag k="natural" v="hill" />
		<tag k="place" v="locality" />
		<tag k="ssr:stedsnr" v="713336" />
	</node>
	<node id="-484241" lat="60.5441138851" lon="5.0640722275">
		<tag k="name" v="Djupedalen" />
		<tag k="natural" v="valley" />
		<tag k="place" v="locality" />
		<tag k="ssr:stedsnr" v="713322" />
	</node>
	<node id="-483726" lat="60.5305249964" lon="5.17113333685">
		<tag k="fixme" v="consider natural=peak for the most distinct mountains in the district" />
		<tag k="name" v="Hustopta" />
		<tag k="natural" v="hill" />
		<tag k="place" v="locality" />
		<tag k="ssr:stedsnr" v="895411" />
	</node>
	<node id="-483821" lat="60.5532916663" lon="5.20862777755">
		<tag k="fixme" v="consider natural=peak for the most distinct mountains in the district" />
		<tag k="name" v="Heiane" />
		<tag k="natural" v="hill" />
		<tag k="place" v="locality" />
		<tag k="ssr:stedsnr" v="105055" />
	</node>
	<node id="-483742" lat="60.5323444475" lon="5.10971110962">
		<tag k="name" v="Niso" />
		<tag k="natural" v="hill" />
		<tag k="place" v="locality" />
		<tag k="ssr:stedsnr" v="267557" />
	</node>
	<node id="-483722" lat="60.5583527749" lon="5.04540554974">
		<tag k="name" v="Leirdalen" />
		<tag k="natural" v="valley" />
		<tag k="place" v="locality" />
		<tag k="ssr:stedsnr" v="895344" />
	</node>
	<node id="-483720" lat="60.5932500007" lon="5.01175833435">
		<tag k="fixme" v="consider natural=peak for the most distinct mountains in the district" />
		<tag k="name" v="Dyrnipa" />
		<tag k="natural" v="hill" />
		<tag k="place" v="locality" />
		<tag k="ssr:stedsnr" v="895335" />
	</node>
	<node id="-483649" lat="60.572633331" lon="5.15873332899">
		<tag k="fixme" v="consider natural=peak for the most distinct mountains in the district" />
		<tag k="name" v="Åsen" />
		<tag k="natural" v="hill" />
		<tag k="place" v="locality" />
		<tag k="ssr:stedsnr" v="349497" />
	</node>
	<node id="-484228" lat="60.5568527814" lon="5.18166389526">
		<tag k="fixme" v="consider natural=peak for the most distinct mountains in the district" />
		<tag k="name" v="Grimåsen" />
		<tag k="natural" v="hill" />
		<tag k="place" v="locality" />
		<tag k="ssr:stedsnr" v="712046" />
	</node>
	<node id="-484226" lat="60.5147305553" lon="5.21087221436">
		<tag k="fixme" v="consider natural=peak for the most distinct mountains in the district" />
		<tag k="name" v="Fageråsen" />
		<tag k="natural" v="hill" />
		<tag k="place" v="locality" />
		<tag k="ssr:stedsnr" v="712006" />
	</node>
	<node id="-484203" lat="60.5385333316" lon="5.20689999576">
		<tag k="fixme" v="consider natural=peak for the most distinct mountains in the district" />
		<tag k="name" v="Daurnipa" />
		<tag k="natural" v="hill" />
		<tag k="place" v="locality" />
		<tag k="ssr:stedsnr" v="652332" />
	</node>
	<node id="-483571" lat="60.541194447" lon="5.26848055368">
		<tag k="name" v="Viphøyen" />
		<tag k="natural" v="hill" />
		<tag k="place" v="locality" />
		<tag k="ssr:stedsnr" v="288249" />
	</node>
	<node id="-483707" lat="60.568813888" lon="5.06552500828">
		<tag k="name" v="Stokkedalen" />
		<tag k="natural" v="valley" />
		<tag k="place" v="locality" />
		<tag k="ssr:stedsnr" v="894094" />
	</node>
	<node id="-483706" lat="60.5481749971" lon="5.20433333061">
		<tag k="fixme" v="consider natural=peak for the most distinct mountains in the district" />
		<tag k="name" v="Orråsen" />
		<tag k="natural" v="hill" />
		<tag k="place" v="locality" />
		<tag k="ssr:stedsnr" v="894077" />
	</node>
	<node id="-483705" lat="60.5693434812" lon="5.11377319617">
		<tag k="fixme" v="consider natural=peak for the most distinct mountains in the district" />
		<tag k="name" v="Minneshammaren" />
		<tag k="natural" v="hill" />
		<tag k="ssr:stedsnr" v="894078" />
	</node>
	<node id="-483704" lat="60.5493250041" lon="5.20313611702">
		<tag k="name" v="Setre" />
		<tag k="place" v="locality" />
		<tag k="ssr:stedsnr" v="894074" />
	</node>
	<node id="-483703" lat="60.5473111086" lon="5.19520833213">
		<tag k="name" v="Flatane" />
		<tag k="place" v="locality" />
		<tag k="ssr:stedsnr" v="894072" />
	</node>
	<node id="-483702" lat="60.5585472198" lon="5.20355000672">
		<tag k="fixme" v="consider natural=peak for the most distinct mountains in the district" />
		<tag k="name" v="Litleåsen" />
		<tag k="natural" v="hill" />
		<tag k="place" v="locality" />
		<tag k="ssr:stedsnr" v="894058" />
	</node>
	<node id="-483701" lat="60.5541333337" lon="5.18179444837">
		<tag k="name" v="Fitjane" />
		<tag k="place" v="locality" />
		<tag k="ssr:stedsnr" v="894040" />
	</node>
	<node id="-484211" lat="60.5788694402" lon="5.13626944404">
		<tag k="name" v="Kringla" />
		<tag k="natural" v="hill" />
		<tag k="place" v="locality" />
		<tag k="ssr:stedsnr" v="652461" />
	</node>
	<node id="-484210" lat="60.5774500032" lon="5.14256665756">
		<tag k="name" v="Svebakken" />
		<tag k="natural" v="slope" />
		<tag k="place" v="locality" />
		<tag k="ssr:stedsnr" v="652450" />
	</node>
	<node id="-483731" lat="60.5774388847" lon="5.15706388135">
		<tag k="name" v="Storhøyen" />
		<tag k="natural" v="hill" />
		<tag k="place" v="locality" />
		<tag k="ssr:stedsnr" v="896489" />
	</node>
	<node id="-484207" lat="60.5388444404" lon="5.16285000095">
		<tag k="name" v="Træna" />
		<tag k="natural" v="hill" />
		<tag k="place" v="locality" />
		<tag k="ssr:stedsnr" v="652398" />
	</node>
	<node id="-484206" lat="60.5364388933" lon="5.1952472187">
		<tag k="name" v="Bruraskrevet" />
		<tag k="place" v="locality" />
		<tag k="ssr:stedsnr" v="652361" />
	</node>
	<node id="-484205" lat="60.5349694406" lon="5.14101389302">
		<tag k="fixme" v="consider natural=peak for the most distinct mountains in the district" />
		<tag k="name" v="Svikkhaugfjellet" />
		<tag k="natural" v="hill" />
		<tag k="place" v="locality" />
		<tag k="ssr:stedsnr" v="652347" />
	</node>
	<node id="-484204" lat="60.5343361137" lon="5.22163888672">
		<tag k="name" v="Dalen" />
		<tag k="natural" v="valley" />
		<tag k="place" v="locality" />
		<tag k="ssr:stedsnr" v="652334" />
	</node>
	<node id="-483691" lat="60.597977782" lon="5.00835277682">
		<tag k="name" v="Seljehøyen" />
		<tag k="natural" v="hill" />
		<tag k="place" v="locality" />
		<tag k="ssr:stedsnr" v="410364" />
	</node>
	<node id="-484202" lat="60.5360527795" lon="5.2186444386">
		<tag k="name" v="Nukane" />
		<tag k="place" v="locality" />
		<tag k="ssr:stedsnr" v="652331" />
	</node>
	<node id="-483689" lat="60.6006388892" lon="5.04330277634">
		<tag k="name" v="Kollhaugane" />
		<tag k="natural" v="hill" />
		<tag k="place" v="locality" />
		<tag k="ssr:stedsnr" v="410360" />
	</node>
	<node id="-484200" lat="60.5535305512" lon="5.04894721483">
		<tag k="name" v="Høgenipa" />
		<tag k="natural" v="hill" />
		<tag k="place" v="locality" />
		<tag k="ssr:stedsnr" v="652323" />
	</node>
	<node id="-483687" lat="60.5907305514" lon="5.07498055299">
		<tag k="name" v="Klokkaren" />
		<tag k="natural" v="hill" />
		<tag k="place" v="locality" />
		<tag k="ssr:stedsnr" v="410334" />
	</node>
	<node id="-484197" lat="60.542263886" lon="5.04959167178">
		<tag k="name" v="Beitingshaugen" />
		<tag k="natural" v="hill" />
		<tag k="place" v="locality" />
		<tag k="ssr:stedsnr" v="652317" />
	</node>
	<node id="-484196" lat="60.5995249976" lon="5.01978888148">
		<tag k="fixme" v="consider natural=peak for the most distinct mountains in the district" />
		<tag k="name" v="Hatten" />
		<tag k="natural" v="hill" />
		<tag k="place" v="locality" />
		<tag k="ssr:stedsnr" v="652313" />
	</node>
	<node id="-484195" lat="60.595152779" lon="5.05143055773">
		<tag k="name" v="Helleren" />
		<tag k="place" v="locality" />
		<tag k="ssr:stedsnr" v="652305" />
	</node>
	<node id="-483557" lat="60.5482166666" lon="5.13203610333">
		<tag k="name" v="Nipa" />
		<tag k="natural" v="hill" />
		<tag k="place" v="locality" />
		<tag k="ssr:stedsnr" v="287022" />
	</node>
	<node id="-483677" lat="60.5695191852" lon="5.06145962235">
		<tag k="name" v="Mattishøyen" />
		<tag k="natural" v="hill" />
		<tag k="place" v="locality" />
		<tag k="ssr:stedsnr" v="409111" />
	</node>
	<node id="-484187" lat="60.5387055586" lon="5.26621389149">
		<tag k="name" v="Trollhøyen" />
		<tag k="natural" v="hill" />
		<tag k="place" v="locality" />
		<tag k="ssr:stedsnr" v="652249" />
	</node>
	<node id="-483674" lat="60.5541333359" lon="5.17713888643">
		<tag k="fixme" v="consider natural=peak for the most distinct mountains in the district" />
		<tag k="name" v="Hestnesåsen" />
		<tag k="natural" v="hill" />
		<tag k="place" v="locality" />
		<tag k="ssr:stedsnr" v="409041" />
	</node>
	<node id="-484185" lat="60.5874499969" lon="4.99640277113">
		<tag k="name" v="Hesthøyen" />
		<tag k="natural" v="hill" />
		<tag k="place" v="locality" />
		<tag k="ssr:stedsnr" v="651775" />
	</node>
	<node id="-483672" lat="60.5516694482" lon="5.13401388702">
		<tag k="name" v="Sjurdalsleitet" />
		<tag k="place" v="locality" />
		<tag k="ssr:stedsnr" v="408028" />
	</node>
	<node id="-484183" lat="60.5893333325" lon="5.12177499307">
		<tag k="name" v="Varden" />
		<tag k="natural" v="hill" />
		<tag k="place" v="locality" />
		<tag k="ssr:stedsnr" v="651500" />
	</node>
	<node id="-483670" lat="60.515880556" lon="5.22876666134">
		<tag k="name" v="Lynghøyen" />
		<tag k="natural" v="hill" />
		<tag k="place" v="locality" />
		<tag k="ssr:stedsnr" v="408006" />
	</node>
	<node id="-483669" lat="60.5147111114" lon="5.20945276976">
		<tag k="name" v="Sedalen" />
		<tag k="natural" v="valley" />
		<tag k="place" v="locality" />
		<tag k="ssr:stedsnr" v="408003" />
	</node>
	<node id="-483811" lat="60.5562027817" lon="5.01986389503">
		<tag k="name" v="Grønhøyen" />
		<tag k="natural" v="hill" />
		<tag k="place" v="locality" />
		<tag k="ssr:stedsnr" v="85508" />
	</node>
	<node id="-484176" lat="60.5636638896" lon="5.10136388672">
		<tag k="fixme" v="consider natural=peak for the most distinct mountains in the district" />
		<tag k="name" v="Onesåsen" />
		<tag k="natural" v="hill" />
		<tag k="place" v="locality" />
		<tag k="ssr:stedsnr" v="651085" />
	</node>
	<node id="-484175" lat="60.5451714231" lon="5.20726976429">
		<tag k="name" v="Grautabrekka" />
		<tag k="natural" v="slope" />
		<tag k="place" v="locality" />
		<tag k="ssr:stedsnr" v="651081" />
	</node>
	<node id="-484174" lat="60.5520916631" lon="5.1975499982">
		<tag k="fixme" v="consider natural=peak for the most distinct mountains in the district" />
		<tag k="name" v="Grasdalsåsen" />
		<tag k="natural" v="hill" />
		<tag k="place" v="locality" />
		<tag k="ssr:stedsnr" v="651075" />
	</node>
	<node id="-483725" lat="60.5824083333" lon="5.11827222037">
		<tag k="name" v="Mjåvatsrinden" />
		<tag k="place" v="locality" />
		<tag k="ssr:stedsnr" v="895400" />
	</node>
	<node id="-484172" lat="60.5482111083" lon="5.18506665941">
		<tag k="fixme" v="consider natural=peak for the most distinct mountains in the district" />
		<tag k="name" v="Bustøene" />
		<tag k="natural" v="hill" />
		<tag k="place" v="locality" />
		<tag k="ssr:stedsnr" v="651060" />
	</node>
	<node id="-484171" lat="60.5450111084" lon="5.18934722959">
		<tag k="fixme" v="consider natural=peak for the most distinct mountains in the district" />
		<tag k="name" v="Sørnipa" />
		<tag k="natural" v="hill" />
		<tag k="place" v="locality" />
		<tag k="ssr:stedsnr" v="651056" />
	</node>
	<node id="-484170" lat="60.5120055525" lon="5.22170278717">
		<tag k="name" v="Floghaugane" />
		<tag k="natural" v="hill" />
		<tag k="place" v="locality" />
		<tag k="ssr:stedsnr" v="651011" />
	</node>
	<node id="-483657" lat="60.5372333292" lon="5.14730832516">
		<tag k="name" v="Storfjellet" />
		<tag k="natural" v="hill" />
		<tag k="place" v="locality" />
		<tag k="ssr:stedsnr" v="370454" />
	</node>
	<node id="-483653" lat="60.5650333352" lon="5.20048055983">
		<tag k="name" v="Fureskjegget" />
		<tag k="place" v="locality" />
		<tag k="ssr:stedsnr" v="355081" />
	</node>
	<node id="-483854" lat="60.5371305528" lon="5.18722499286">
		<tag k="name" v="Melandsåsen" />
		<tag k="natural" v="hill" />
		<tag k="place" v="locality" />
		<tag k="ssr:stedsnr" v="127438" />
	</node>
	<node id="-483650" lat="60.563269444" lon="5.13111943942">
		<tag k="name" v="Ormhaugane" />
		<tag k="natural" v="hill" />
		<tag k="place" v="locality" />
		<tag k="ssr:stedsnr" v="349528" />
	</node>
	<node id="-484161" lat="60.5362750033" lon="5.13716944777">
		<tag k="fixme" v="consider natural=peak for the most distinct mountains in the district" />
		<tag k="name" v="Hjartåsfjellet" />
		<tag k="natural" v="hill" />
		<tag k="place" v="locality" />
		<tag k="ssr:stedsnr" v="613421" />
	</node>
	<node id="-483647" lat="60.5341749982" lon="5.21029445301">
		<tag k="name" v="Djupedalen" />
		<tag k="natural" v="valley" />
		<tag k="place" v="locality" />
		<tag k="ssr:stedsnr" v="349457" />
	</node>
	<node id="-483646" lat="60.5210750031" lon="5.18796944991">
		<tag k="name" v="Skitdalen" />
		<tag k="natural" v="valley" />
		<tag k="place" v="locality" />
		<tag k="ssr:stedsnr" v="349450" />
	</node>
	<node id="-483645" lat="60.5237194414" lon="5.18781944847">
		<tag k="name" v="Vårfloren" />
		<tag k="place" v="locality" />
		<tag k="ssr:stedsnr" v="349449" />
	</node>
	<node id="-483644" lat="60.5271472261" lon="5.18789167333">
		<tag k="fixme" v="consider natural=peak for the most distinct mountains in the district" />
		<tag k="name" v="Svartafjellet" />
		<tag k="natural" v="hill" />
		<tag k="place" v="locality" />
		<tag k="ssr:stedsnr" v="349446" />
	</node>
	<node id="-483643" lat="60.5318111145" lon="5.13361389359">
		<tag k="name" v="Vardleitet" />
		<tag k="natural" v="hill" />
		<tag k="place" v="locality" />
		<tag k="ssr:stedsnr" v="349443" />
	</node>
	<node id="-483641" lat="60.5263138857" lon="5.22051388025">
		<tag k="name" v="Klakken" />
		<tag k="place" v="locality" />
		<tag k="ssr:stedsnr" v="349433" />
	</node>
	<node id="-484152" lat="60.5805583373" lon="5.13962778492">
		<tag k="fixme" v="consider natural=peak for the most distinct mountains in the district" />
		<tag k="name" v="Litlafjellet" />
		<tag k="natural" v="hill" />
		<tag k="place" v="locality" />
		<tag k="ssr:stedsnr" v="612133" />
	</node>
	<node id="-484147" lat="60.5764083293" lon="5.14759444677">
		<tag k="name" v="Hylkje" />
		<tag k="place" v="locality" />
		<tag k="ssr:stedsnr" v="592502" />
	</node>
	<node id="-484143" lat="60.5518194444" lon="5.07222222965">
		<tag k="name" v="Måsahaugane" />
		<tag k="natural" v="hill" />
		<tag k="place" v="locality" />
		<tag k="ssr:stedsnr" v="591429" />
	</node>
	<node id="-484142" lat="60.5220138929" lon="5.17255000252">
		<tag k="fixme" v="consider natural=peak for the most distinct mountains in the district" />
		<tag k="name" v="Orrsåta" />
		<tag k="natural" v="hill" />
		<tag k="ssr:stedsnr" v="591412" />
	</node>
	<node id="-484141" lat="60.5352111153" lon="5.184124992">
		<tag k="name" v="Hammaren" />
		<tag k="natural" v="hill" />
		<tag k="place" v="locality" />
		<tag k="ssr:stedsnr" v="591369" />
	</node>
	<node id="-483627" lat="60.5603216313" lon="5.15683313239">
		<tag k="name" v="Hestnesberget" />
		<tag k="natural" v="hill" />
		<tag k="place" v="locality" />
		<tag k="ssr:stedsnr" v="348021" />
	</node>
	<node id="-484138" lat="60.5983111155" lon="5.02307777753">
		<tag k="name" v="Klendalshaugane" />
		<tag k="natural" v="hill" />
		<tag k="place" v="locality" />
		<tag k="ssr:stedsnr" v="591335" />
	</node>
	<node id="-484137" lat="60.5909999962" lon="5.03242777992">
		<tag k="name" v="Dyrdalen" />
		<tag k="natural" v="valley" />
		<tag k="place" v="locality" />
		<tag k="ssr:stedsnr" v="591327" />
	</node>
	<node id="-483843" lat="60.5301194404" lon="5.21052777513">
		<tag k="name" v="Kleivane" />
		<tag k="natural" v="ridge" />
		<tag k="place" v="locality" />
		<tag k="ssr:stedsnr" v="107403" />
	</node>
	<node id="-484134" lat="60.5995499971" lon="4.96384166678">
		<tag k="name" v="Storhøyen" />
		<tag k="natural" v="hill" />
		<tag k="place" v="locality" />
		<tag k="ssr:stedsnr" v="591299" />
	</node>
	<node id="-484133" lat="60.5917444492" lon="5.0834722307">
		<tag k="fixme" v="consider natural=peak for the most distinct mountains in the district" />
		<tag k="name" v="Midtfjellet" />
		<tag k="natural" v="hill" />
		<tag k="place" v="locality" />
		<tag k="ssr:stedsnr" v="591293" />
	</node>
	<node id="-483620" lat="60.5357777757" lon="5.23190000286">
		<tag k="fixme" v="consider natural=peak for the most distinct mountains in the district" />
		<tag k="name" v="Fageråsen" />
		<tag k="natural" v="hill" />
		<tag k="place" v="locality" />
		<tag k="ssr:stedsnr" v="310414" />
	</node>
	<node id="-484131" lat="60.5757388911" lon="5.04831388387">
		<tag k="name" v="Fjellbekkhøyen" />
		<tag k="natural" v="hill" />
		<tag k="place" v="locality" />
		<tag k="ssr:stedsnr" v="591277" />
	</node>
	<node id="-484130" lat="60.532233337" lon="5.25462500344">
		<tag k="fixme" v="consider natural=peak for the most distinct mountains in the district" />
		<tag k="name" v="Fjellet" />
		<tag k="natural" v="hill" />
		<tag k="place" v="locality" />
		<tag k="ssr:stedsnr" v="591266" />
	</node>
	<node id="-484128" lat="60.5140722196" lon="5.19770832642">
		<tag k="name" v="Brakedalen" />
		<tag k="natural" v="valley" />
		<tag k="place" v="locality" />
		<tag k="ssr:stedsnr" v="591015" />
	</node>
	<node id="-484127" lat="60.5861388913" lon="5.1557694525">
		<tag k="fixme" v="consider natural=peak for the most distinct mountains in the district" />
		<tag k="name" v="Åsen" />
		<tag k="natural" v="hill" />
		<tag k="place" v="locality" />
		<tag k="ssr:stedsnr" v="590497" />
	</node>
	<node id="-484123" lat="60.5695620458" lon="5.08282036233">
		<tag k="name" v="Dyrhøyen" />
		<tag k="natural" v="hill" />
		<tag k="place" v="locality" />
		<tag k="ssr:stedsnr" v="590088" />
	</node>
	<node id="-484121" lat="60.5598750017" lon="5.20501110252">
		<tag k="fixme" v="consider natural=peak for the most distinct mountains in the district" />
		<tag k="name" v="Langåsen" />
		<tag k="natural" v="hill" />
		<tag k="place" v="locality" />
		<tag k="ssr:stedsnr" v="590051" />
	</node>
	<node id="-483716" lat="60.5524090913" lon="5.11180916903">
		<tag k="name" v="Middagshøyen" />
		<tag k="natural" v="hill" />
		<tag k="place" v="locality" />
		<tag k="ssr:stedsnr" v="896508" />
	</node>
	<node id="-484118" lat="60.5566666641" lon="5.13123333037">
		<tag k="name" v="Skjenet" />
		<tag k="place" v="locality" />
		<tag k="ssr:stedsnr" v="590029" />
	</node>
	<node id="-484117" lat="60.5555083293" lon="5.1496472219">
		<tag k="name" v="Hesthøyen" />
		<tag k="natural" v="hill" />
		<tag k="place" v="locality" />
		<tag k="ssr:stedsnr" v="590019" />
	</node>
	<node id="-483814" lat="60.608099998" lon="4.9504638863">
		<tag k="name" v="Havnefjellet" />
		<tag k="natural" v="hill" />
		<tag k="place" v="locality" />
		<tag k="ssr:stedsnr" v="85630" />
	</node>
	<node id="-483630" lat="60.5424833304" lon="5.22846110898">
		<tag k="name" v="Sundsbrekka" />
		<tag k="natural" v="slope" />
		<tag k="place" v="locality" />
		<tag k="ssr:stedsnr" v="348047" />
	</node>
	<node id="-483600" lat="60.5482666651" lon="5.08518333855">
		<tag k="fixme" v="consider natural=peak for the most distinct mountains in the district" />
		<tag k="name" v="Vasskåsa" />
		<tag k="natural" v="hill" />
		<tag k="place" v="locality" />
		<tag k="ssr:stedsnr" v="289543" />
	</node>
	<node id="-484110" lat="60.6061944428" lon="4.97765277551">
		<tag k="fixme" v="consider natural=peak for the most distinct mountains in the district" />
		<tag k="name" v="Storafjellet" />
		<tag k="natural" v="hill" />
		<tag k="place" v="locality" />
		<tag k="ssr:stedsnr" v="552961" />
	</node>
	<node id="-483629" lat="60.5484611116" lon="5.17875833952">
		<tag k="name" v="Slåttetona" />
		<tag k="place" v="locality" />
		<tag k="ssr:stedsnr" v="348031" />
	</node>
	<node id="-483596" lat="60.556220974" lon="5.08900920686">
		<tag k="name" v="Lynghøyen" />
		<tag k="natural" v="hill" />
		<tag k="place" v="locality" />
		<tag k="ssr:stedsnr" v="289523" />
	</node>
	<node id="-483595" lat="60.5655111111" lon="5.13591944009">
		<tag k="name" v="Kolhaugane" />
		<tag k="natural" v="hill" />
		<tag k="place" v="locality" />
		<tag k="ssr:stedsnr" v="289475" />
	</node>
	<node id="-483592" lat="60.5803944469" lon="5.13049444177">
		<tag k="name" v="Gyehøyen" />
		<tag k="natural" v="hill" />
		<tag k="place" v="locality" />
		<tag k="ssr:stedsnr" v="289413" />
	</node>
	<node id="-483591" lat="60.5346111134" lon="5.12848888204">
		<tag k="name" v="Fossdalen" />
		<tag k="natural" v="valley" />
		<tag k="place" v="locality" />
		<tag k="ssr:stedsnr" v="289382" />
	</node>
	<node id="-483589" lat="60.5219888901" lon="5.23209721396">
		<tag k="name" v="Litleknappen" />
		<tag k="place" v="locality" />
		<tag k="ssr:stedsnr" v="289377" />
	</node>
	<node id="-483588" lat="60.5511916628" lon="5.05091110297">
		<tag k="fixme" v="consider natural=peak for the most distinct mountains in the district" />
		<tag k="name" v="Botnafjellet" />
		<tag k="natural" v="hill" />
		<tag k="place" v="locality" />
		<tag k="ssr:stedsnr" v="289367" />
	</node>
	<node id="-483587" lat="60.5829583316" lon="5.04480277016">
		<tag k="name" v="Midtvarden" />
		<tag k="natural" v="hill" />
		<tag k="place" v="locality" />
		<tag k="ssr:stedsnr" v="289339" />
	</node>
	<node id="-484098" lat="60.5794750017" lon="5.1415833281">
		<tag k="name" v="Tjuvahola" />
		<tag k="natural" v="hill" />
		<tag k="place" v="locality" />
		<tag k="ssr:stedsnr" v="531502" />
	</node>
	<node id="-483585" lat="60.5548750036" lon="5.11167778097">
		<tag k="name" v="Dyrhovden" />
		<tag k="place" v="locality" />
		<tag k="ssr:stedsnr" v="288412" />
	</node>
	<node id="-484096" lat="60.5659694419" lon="5.1651833279">
		<tag k="fixme" v="consider natural=peak for the most distinct mountains in the district" />
		<tag k="name" v="Hestnesåsen" />
		<tag k="natural" v="hill" />
		<tag k="place" v="locality" />
		<tag k="ssr:stedsnr" v="531461" />
	</node>
	<node id="-483582" lat="60.5979333331" lon="5.03800276893">
		<tag k="fixme" v="consider natural=peak for the most distinct mountains in the district" />
		<tag k="name" v="Åsen" />
		<tag k="natural" v="hill" />
		<tag k="place" v="locality" />
		<tag k="ssr:stedsnr" v="288333" />
	</node>
	<node id="-484093" lat="60.532452775" lon="5.14211944043">
		<tag k="name" v="Smiskaret" />
		<tag k="natural" v="hill" />
		<tag k="place" v="locality" />
		<tag k="ssr:stedsnr" v="531439" />
	</node>
	<node id="-484092" lat="60.5337972199" lon="5.16958889142">
		<tag k="name" v="Hoplandseggena" />
		<tag k="place" v="locality" />
		<tag k="ssr:stedsnr" v="531436" />
	</node>
	<node id="-483578" lat="60.5714916675" lon="5.04368332901">
		<tag k="name" v="Jonsokkhøyen" />
		<tag k="natural" v="hill" />
		<tag k="place" v="locality" />
		<tag k="ssr:stedsnr" v="288288" />
	</node>
	<node id="-484089" lat="60.6057666638" lon="4.95920554832">
		<tag k="name" v="Hesthøyen" />
		<tag k="natural" v="hill" />
		<tag k="place" v="locality" />
		<tag k="ssr:stedsnr" v="531424" />
	</node>
	<node id="-484088" lat="60.5261694438" lon="5.20868054966">
		<tag k="name" v="Ugleberget" />
		<tag k="natural" v="hill" />
		<tag k="place" v="locality" />
		<tag k="ssr:stedsnr" v="531413" />
	</node>
	<node id="-484086" lat="60.5298000016" lon="5.20013056119">
		<tag k="fixme" v="consider natural=peak for the most distinct mountains in the district" />
		<tag k="name" v="Brekkanuten" />
		<tag k="natural" v="hill" />
		<tag k="ssr:stedsnr" v="531409" />
	</node>
	<node id="-484085" lat="60.5372055528" lon="5.19975833453">
		<tag k="fixme" v="consider natural=peak for the most distinct mountains in the district" />
		<tag k="name" v="Sakstadnuten" />
		<tag k="natural" v="hill" />
		<tag k="ssr:stedsnr" v="531406" />
	</node>
	<node id="-484083" lat="60.523875003" lon="5.23103055418">
		<tag k="name" v="Fagerdalen" />
		<tag k="natural" v="valley" />
		<tag k="place" v="locality" />
		<tag k="ssr:stedsnr" v="531384" />
	</node>
	<node id="-484081" lat="60.551853252" lon="5.03475458997">
		<tag k="name" v="Stølshøyen" />
		<tag k="natural" v="hill" />
		<tag k="place" v="locality" />
		<tag k="ssr:stedsnr" v="531373" />
	</node>
	<node id="-484080" lat="60.553236112" lon="5.03721666943">
		<tag k="name" v="Langhaugane" />
		<tag k="natural" v="hill" />
		<tag k="place" v="locality" />
		<tag k="ssr:stedsnr" v="531369" />
	</node>
	<node id="-483880" lat="60.5897972178" lon="5.1289499974">
		<tag k="fixme" v="consider natural=peak for the most distinct mountains in the district" />
		<tag k="name" v="Åsen" />
		<tag k="natural" v="hill" />
		<tag k="place" v="locality" />
		<tag k="ssr:stedsnr" v="166496" />
	</node>
	<node id="-484078" lat="60.5961972186" lon="4.97747778571">
		<tag k="name" v="Vardhøyen" />
		<tag k="natural" v="hill" />
		<tag k="place" v="locality" />
		<tag k="ssr:stedsnr" v="531345" />
	</node>
	<node id="-484077" lat="60.5907361103" lon="5.07817499888">
		<tag k="fixme" v="consider natural=peak for the most distinct mountains in the district" />
		<tag k="name" v="Kongsstålen" />
		<tag k="natural" v="hill" />
		<tag k="place" v="locality" />
		<tag k="ssr:stedsnr" v="531337" />
	</node>
	<node id="-484075" lat="60.536002782" lon="5.26539443823">
		<tag k="name" v="Kråkhøyen" />
		<tag k="natural" v="hill" />
		<tag k="place" v="locality" />
		<tag k="ssr:stedsnr" v="531301" />
	</node>
	<node id="-483775" lat="60.5876055547" lon="5.03637499508">
		<tag k="fixme" v="consider natural=peak for the most distinct mountains in the district" />
		<tag k="name" v="Såta" />
		<tag k="natural" v="hill" />
		<tag k="place" v="locality" />
		<tag k="ssr:stedsnr" v="46357" />
	</node>
	<node id="-484073" lat="60.5607750011" lon="5.04170276979">
		<tag k="name" v="Lunden" />
		<tag k="natural" v="slope" />
		<tag k="place" v="locality" />
		<tag k="ssr:stedsnr" v="531252" />
	</node>
	<node id="-483560" lat="60.546777776" lon="5.18233889334">
		<tag k="name" v="Melandskaret" />
		<tag k="natural" v="hill" />
		<tag k="place" v="locality" />
		<tag k="ssr:stedsnr" v="287041" />
	</node>
	<node id="-484071" lat="60.5874416706" lon="5.1547472229">
		<tag k="name" v="Viddalen" />
		<tag k="natural" v="valley" />
		<tag k="place" v="locality" />
		<tag k="ssr:stedsnr" v="530505" />
	</node>
	<node id="-483558" lat="60.5442361118" lon="5.1300722175">
		<tag k="name" v="Kjeken" />
		<tag k="place" v="locality" />
		<tag k="ssr:stedsnr" v="287024" />
	</node>
	<node id="-484069" lat="60.5543222239" lon="5.10725278074">
		<tag k="name" v="Svikkhøyen" />
		<tag k="place" v="locality" />
		<tag k="ssr:stedsnr" v="530481" />
	</node>
	<node id="-484068" lat="60.557241666" lon="5.10777778113">
		<tag k="name" v="Skjenet" />
		<tag k="place" v="locality" />
		<tag k="ssr:stedsnr" v="530479" />
	</node>
	<node id="-484067" lat="60.5630726023" lon="5.06297177241">
		<tag k="name" v="Skjenhøyen" />
		<tag k="natural" v="hill" />
		<tag k="place" v="locality" />
		<tag k="ssr:stedsnr" v="530074" />
	</node>
	<node id="-484066" lat="60.5763250042" lon="5.07401943676">
		<tag k="name" v="Tunga" />
		<tag k="place" v="locality" />
		<tag k="ssr:stedsnr" v="530073" />
	</node>
	<node id="-484065" lat="60.5454166641" lon="5.16944444573">
		<tag k="fixme" v="consider natural=peak for the most distinct mountains in the district" />
		<tag k="name" v="Storsåta" />
		<tag k="natural" v="hill" />
		<tag k="place" v="locality" />
		<tag k="ssr:stedsnr" v="530054" />
	</node>
	<node id="-484064" lat="60.5581305585" lon="5.20299721294">
		<tag k="name" v="Svarthola" />
		<tag k="place" v="locality" />
		<tag k="ssr:stedsnr" v="530044" />
	</node>
	<node id="-484063" lat="60.5588277775" lon="5.12059443895">
		<tag k="fixme" v="consider natural=peak for the most distinct mountains in the district" />
		<tag k="name" v="Hovåsane" />
		<tag k="natural" v="hill" />
		<tag k="place" v="locality" />
		<tag k="ssr:stedsnr" v="530040" />
	</node>
	<node id="-484062" lat="60.5523083334" lon="5.11903334159">
		<tag k="name" v="Botnane" />
		<tag k="natural" v="valley" />
		<tag k="place" v="locality" />
		<tag k="ssr:stedsnr" v="530035" />
	</node>
	<node id="-484061" lat="60.5539499997" lon="5.14884165848">
		<tag k="name" v="Ramsberget" />
		<tag k="natural" v="hill" />
		<tag k="place" v="locality" />
		<tag k="ssr:stedsnr" v="530026" />
	</node>
	<node id="-484056" lat="60.5252861126" lon="5.16274166424">
		<tag k="name" v="Kjedalen" />
		<tag k="natural" v="valley" />
		<tag k="place" v="locality" />
		<tag k="ssr:stedsnr" v="510597" />
	</node>
	<node id="-484162" lat="60.5315805521" lon="5.16602499562">
		<tag k="name" v="Hoplandsfjellet" />
		<tag k="natural" v="hill" />
		<tag k="place" v="locality" />
		<tag k="ssr:stedsnr" v="613420" />
	</node>
	<node id="-484042" lat="60.5435250034" lon="5.26703888918">
		<tag k="name" v="Fureberget" />
		<tag k="natural" v="hill" />
		<tag k="place" v="locality" />
		<tag k="ssr:stedsnr" v="491440" />
	</node>
	<node id="-483867" lat="60.556275001" lon="5.17714165925">
		<tag k="name" v="Kvernaleitet" />
		<tag k="place" v="locality" />
		<tag k="ssr:stedsnr" v="166040" />
	</node>
	<node id="-484034" lat="60.5563222179" lon="5.11550833038">
		<tag k="fixme" v="consider natural=peak for the most distinct mountains in the district" />
		<tag k="name" v="Fjellsenden" />
		<tag k="natural" v="hill" />
		<tag k="place" v="locality" />
		<tag k="ssr:stedsnr" v="470421" />
	</node>
	<node id="-483787" lat="60.5670249971" lon="5.17528333482">
		<tag k="fixme" v="consider natural=peak for the most distinct mountains in the district" />
		<tag k="name" v="Kyrkjeleitet" />
		<tag k="natural" v="hill" />
		<tag k="place" v="locality" />
		<tag k="ssr:stedsnr" v="46455" />
	</node>
	<node id="-484030" lat="60.5191611104" lon="5.18531944527">
		<tag k="name" v="Kletten" />
		<tag k="place" v="locality" />
		<tag k="ssr:stedsnr" v="470358" />
	</node>
	<node id="-484029" lat="60.5281972207" lon="5.13147499626">
		<tag k="name" v="Grisetona" />
		<tag k="natural" v="hill" />
		<tag k="place" v="locality" />
		<tag k="ssr:stedsnr" v="470345" />
	</node>
	<node id="-484026" lat="60.5528722188" lon="5.02816110748">
		<tag k="name" v="Sjobuhøyen" />
		<tag k="natural" v="hill" />
		<tag k="place" v="locality" />
		<tag k="ssr:stedsnr" v="470330" />
	</node>
	<node id="-483615" lat="60.5455527805" lon="5.17491666604">
		<tag k="alt_name" v="Baufjellet" />
		<tag k="name" v="Baugfjellet" />
		<tag k="natural" v="hill" />
		<tag k="place" v="locality" />
		<tag k="ssr:stedsnr" v="309466" />
	</node>
	<node id="-484024" lat="60.6033472202" lon="5.04323333007">
		<tag k="name" v="Bløddalen" />
		<tag k="natural" v="valley" />
		<tag k="place" v="locality" />
		<tag k="ssr:stedsnr" v="470321" />
	</node>
	<node id="-484023" lat="60.5283972255" lon="5.20761944847">
		<tag k="fixme" v="consider natural=peak for the most distinct mountains in the district" />
		<tag k="name" v="Åsen" />
		<tag k="natural" v="hill" />
		<tag k="place" v="locality" />
		<tag k="ssr:stedsnr" v="470312" />
	</node>
	<node id="-483870" lat="60.540955554" lon="5.16838610754">
		<tag k="name" v="Klarabrekkene" />
		<tag k="natural" v="slope" />
		<tag k="place" v="locality" />
		<tag k="ssr:stedsnr" v="166051" />
	</node>
	<node id="-484017" lat="60.517922223" lon="5.20210556102">
		<tag k="name" v="Erdalen" />
		<tag k="natural" v="valley" />
		<tag k="place" v="locality" />
		<tag k="ssr:stedsnr" v="470017" />
	</node>
	<node id="-484016" lat="60.516238887" lon="5.21121665796">
		<tag k="name" v="Kloppedalen" />
		<tag k="natural" v="valley" />
		<tag k="place" v="locality" />
		<tag k="ssr:stedsnr" v="470008" />
	</node>
	<node id="-484015" lat="60.5883666663" lon="5.14008333146">
		<tag k="name" v="Furerenen" />
		<tag k="natural" v="ridge" />
		<tag k="place" v="locality" />
		<tag k="ssr:stedsnr" v="469518" />
	</node>
	<node id="-484012" lat="60.5772803037" lon="5.06188516472">
		<tag k="fixme" v="consider natural=peak for the most distinct mountains in the district" />
		<tag k="name" v="Strangefjellet" />
		<tag k="natural" v="hill" />
		<tag k="place" v="locality" />
		<tag k="ssr:stedsnr" v="469096" />
	</node>
	<node id="-484009" lat="60.580469448" lon="5.10564721611">
		<tag k="name" v="Søre Båtedalen" />
		<tag k="natural" v="valley" />
		<tag k="place" v="locality" />
		<tag k="ssr:stedsnr" v="469077" />
	</node>
	<node id="-484007" lat="60.556144446" lon="5.14269166418">
		<tag k="fixme" v="consider natural=peak for the most distinct mountains in the district" />
		<tag k="name" v="Kletten" />
		<tag k="natural" v="hill" />
		<tag k="place" v="locality" />
		<tag k="ssr:stedsnr" v="469049" />
	</node>
	<node id="-484006" lat="60.5506722175" lon="5.14581665816">
		<tag k="fixme" v="consider natural=peak for the most distinct mountains in the district" />
		<tag k="name" v="Tveitanipa" />
		<tag k="natural" v="hill" />
		<tag k="place" v="locality" />
		<tag k="ssr:stedsnr" v="469030" />
	</node>
	<node id="-483586" lat="60.5389888922" lon="5.19506389047">
		<tag k="name" v="Haukelendet" />
		<tag k="place" v="locality" />
		<tag k="ssr:stedsnr" v="289337" />
	</node>
	<node id="-484379" lat="60.5857777743" lon="5.11827778265">
		<tag k="fixme" v="consider natural=peak for the most distinct mountains in the district" />
		<tag k="name" v="Øyjordsfjellet" />
		<tag k="natural" v="hill" />
		<tag k="place" v="locality" />
		<tag k="ssr:stedsnr" v="856092" />
	</node>
	<node id="-483695" lat="60.5459916698" lon="5.08765000734">
		<tag k="fixme" v="consider natural=peak for the most distinct mountains in the district" />
		<tag k="name" v="Smååsane" />
		<tag k="natural" v="hill" />
		<tag k="place" v="locality" />
		<tag k="ssr:stedsnr" v="410522" />
	</node>
	<node id="-483991" lat="60.5268500008" lon="5.18907500706">
		<tag k="name" v="Raudfjellet" />
		<tag k="natural" v="hill" />
		<tag k="place" v="locality" />
		<tag k="ssr:stedsnr" v="431418" />
	</node>
	<node id="-483989" lat="60.5504833296" lon="5.15771111749">
		<tag k="fixme" v="consider natural=peak for the most distinct mountains in the district" />
		<tag k="name" v="Røysetfjellet" />
		<tag k="natural" v="hill" />
		<tag k="place" v="locality" />
		<tag k="ssr:stedsnr" v="431095" />
	</node>
	<node id="-483779" lat="60.5453999992" lon="5.05503055257">
		<tag k="name" v="Ormhøyen" />
		<tag k="natural" v="hill" />
		<tag k="place" v="locality" />
		<tag k="ssr:stedsnr" v="46377" />
	</node>
	<node id="-483832" lat="60.569130559" lon="5.18312223038">
		<tag k="name" v="Rindane" />
		<tag k="natural" v="hill" />
		<tag k="place" v="locality" />
		<tag k="ssr:stedsnr" v="106257" />
	</node>
	<node id="-483983" lat="60.5982999979" lon="5.05388611709">
		<tag k="fixme" v="consider natural=peak for the most distinct mountains in the district" />
		<tag k="name" v="Hånipa" />
		<tag k="natural" v="hill" />
		<tag k="place" v="locality" />
		<tag k="ssr:stedsnr" v="249931" />
	</node>
	<node id="-483795" lat="60.5652583319" lon="5.13154999375">
		<tag k="fixme" v="consider natural=peak for the most distinct mountains in the district" />
		<tag k="name" v="Brunåsen" />
		<tag k="natural" v="hill" />
		<tag k="place" v="locality" />
		<tag k="ssr:stedsnr" v="46503" />
	</node>
	<node id="-484119" lat="60.5438138849" lon="5.16993611022">
		<tag k="name" v="Botnen" />
		<tag k="natural" v="valley" />
		<tag k="place" v="locality" />
		<tag k="ssr:stedsnr" v="590043" />
	</node>
	<node id="-483969" lat="60.5801444463" lon="5.1478250076">
		<tag k="fixme" v="consider natural=peak for the most distinct mountains in the district" />
		<tag k="name" v="Gaustadfjellet" />
		<tag k="natural" v="hill" />
		<tag k="place" v="locality" />
		<tag k="ssr:stedsnr" v="248106" />
	</node>
	<node id="-483699" lat="60.5092638902" lon="5.22379167547">
		<tag k="name" v="Juviknipa" />
		<tag k="natural" v="hill" />
		<tag k="place" v="locality" />
		<tag k="ssr:stedsnr" v="894008" />
	</node>
	<node id="-483967" lat="60.5449722247" lon="5.08070277379">
		<tag k="name" v="Grinddalen" />
		<tag k="natural" v="valley" />
		<tag k="place" v="locality" />
		<tag k="ssr:stedsnr" v="228562" />
	</node>
	<node id="-483822" lat="60.5804222178" lon="5.09762222185">
		<tag k="name" v="Nordre Båtedalen" />
		<tag k="natural" v="valley" />
		<tag k="place" v="locality" />
		<tag k="ssr:stedsnr" v="105073" />
	</node>
	<node id="-483965" lat="60.558361115" lon="5.09381945271">
		<tag k="fixme" v="consider natural=peak for the most distinct mountains in the district" />
		<tag k="name" v="Ospåsen" />
		<tag k="natural" v="hill" />
		<tag k="place" v="locality" />
		<tag k="ssr:stedsnr" v="228556" />
	</node>
	<node id="-483750" lat="60.5998722259" lon="4.96491666963">
		<tag k="name" v="Såtene" />
		<tag k="natural" v="hill" />
		<tag k="place" v="locality" />
		<tag k="ssr:stedsnr" v="24679" />
	</node>
	<node id="-483690" lat="60.5970333332" lon="5.00925555685">
		<tag k="name" v="Stemmehøyen" />
		<tag k="natural" v="hill" />
		<tag k="place" v="locality" />
		<tag k="ssr:stedsnr" v="410362" />
	</node>
	<node id="-483556" lat="60.513647223" lon="5.20846111704">
		<tag k="fixme" v="consider natural=peak for the most distinct mountains in the district" />
		<tag k="name" v="Furefjellet" />
		<tag k="natural" v="hill" />
		<tag k="place" v="locality" />
		<tag k="ssr:stedsnr" v="287001" />
	</node>
	<node id="-483961" lat="60.6054888905" lon="4.96602500858">
		<tag k="fixme" v="consider natural=peak for the most distinct mountains in the district" />
		<tag k="name" v="Lafjellet" />
		<tag k="natural" v="hill" />
		<tag k="place" v="locality" />
		<tag k="ssr:stedsnr" v="228452" />
	</node>
	<node id="-483960" lat="60.5335999991" lon="5.21141943968">
		<tag k="fixme" v="consider natural=peak for the most distinct mountains in the district" />
		<tag k="name" v="Fløyen" />
		<tag k="natural" v="hill" />
		<tag k="place" v="locality" />
		<tag k="ssr:stedsnr" v="228441" />
	</node>
	<node id="-483959" lat="60.5342388926" lon="5.18391389122">
		<tag k="name" v="Ranen" />
		<tag k="natural" v="hill" />
		<tag k="place" v="locality" />
		<tag k="ssr:stedsnr" v="228427" />
	</node>
	<node id="-483958" lat="60.5268277774" lon="5.17877778458">
		<tag k="fixme" v="consider natural=peak for the most distinct mountains in the district" />
		<tag k="name" v="Nipa" />
		<tag k="natural" v="hill" />
		<tag k="place" v="locality" />
		<tag k="ssr:stedsnr" v="228426" />
	</node>
	<node id="-483957" lat="60.5479722187" lon="5.04370555526">
		<tag k="name" v="Varden" />
		<tag k="natural" v="hill" />
		<tag k="place" v="locality" />
		<tag k="ssr:stedsnr" v="228390" />
	</node>
	<node id="-483955" lat="60.5834361091" lon="5.02537221565">
		<tag k="name" v="Oksla" />
		<tag k="natural" v="slope" />
		<tag k="place" v="locality" />
		<tag k="ssr:stedsnr" v="228383" />
	</node>
	<node id="-483954" lat="60.5822722228" lon="5.039680548">
		<tag k="fixme" v="consider natural=peak for the most distinct mountains in the district" />
		<tag k="name" v="Ravnefjellet" />
		<tag k="natural" v="hill" />
		<tag k="place" v="locality" />
		<tag k="ssr:stedsnr" v="228375" />
	</node>
	<node id="-483953" lat="60.5295999973" lon="5.18939445003">
		<tag k="name" v="Kråkedalen" />
		<tag k="natural" v="valley" />
		<tag k="place" v="locality" />
		<tag k="ssr:stedsnr" v="228372" />
	</node>
	<node id="-483723" lat="60.5273972217" lon="5.20019722308">
		<tag k="name" v="Stemmebakkane" />
		<tag k="natural" v="slope" />
		<tag k="place" v="locality" />
		<tag k="ssr:stedsnr" v="895383" />
	</node>
	<node id="-483948" lat="60.5310388913" lon="5.24002777412">
		<tag k="fixme" v="consider natural=peak for the most distinct mountains in the district" />
		<tag k="name" v="Kråkåsen" />
		<tag k="natural" v="hill" />
		<tag k="place" v="locality" />
		<tag k="ssr:stedsnr" v="228301" />
	</node>
	<node id="-483947" lat="60.539783335" lon="5.2575861072">
		<tag k="name" v="Skjenhøyen" />
		<tag k="natural" v="hill" />
		<tag k="place" v="locality" />
		<tag k="ssr:stedsnr" v="228299" />
	</node>
	<node id="-483771" lat="60.5547138856" lon="5.11648332792">
		<tag k="fixme" v="consider natural=peak for the most distinct mountains in the district" />
		<tag k="name" v="Rundefjellet" />
		<tag k="natural" v="hill" />
		<tag k="place" v="locality" />
		<tag k="ssr:stedsnr" v="45461" />
	</node>
	<node id="-483936" lat="60.58499167" lon="5.12568611215">
		<tag k="fixme" v="consider natural=peak for the most distinct mountains in the district" />
		<tag k="name" v="Bårafjellet" />
		<tag k="natural" v="hill" />
		<tag k="place" v="locality" />
		<tag k="ssr:stedsnr" v="226528" />
	</node>
	<node id="-483935" lat="60.5848805586" lon="5.15843056266">
		<tag k="fixme" v="consider natural=peak for the most distinct mountains in the district" />
		<tag k="name" v="Kalvhusåsen" />
		<tag k="natural" v="hill" />
		<tag k="place" v="locality" />
		<tag k="ssr:stedsnr" v="226519" />
	</node>
	<node id="-483930" lat="60.5613888893" lon="5.20008611356">
		<tag k="fixme" v="consider natural=peak for the most distinct mountains in the district" />
		<tag k="name" v="Stølåsen" />
		<tag k="natural" v="hill" />
		<tag k="place" v="locality" />
		<tag k="ssr:stedsnr" v="226067" />
	</node>
	<node id="-483928" lat="60.5435916647" lon="5.17405833972">
		<tag k="fixme" v="consider natural=peak for the most distinct mountains in the district" />
		<tag k="name" v="Nipena" />
		<tag k="natural" v="hill" />
		<tag k="place" v="locality" />
		<tag k="ssr:stedsnr" v="226039" />
	</node>
	<node id="-483927" lat="60.545130554" lon="5.17870000332">
		<tag k="name" v="Salbukletten" />
		<tag k="place" v="locality" />
		<tag k="ssr:stedsnr" v="226036" />
	</node>
	<node id="-483598" lat="60.5402111127" lon="5.09901111008">
		<tag k="fixme" v="consider natural=peak for the most distinct mountains in the district" />
		<tag k="name" v="Nipo" />
		<tag k="natural" v="hill" />
		<tag k="place" v="locality" />
		<tag k="ssr:stedsnr" v="289532" />
	</node>
	<node id="-484434" lat="60.5497611114" lon="5.08023054833">
		<tag k="name" v="Steinberget" />
		<tag k="natural" v="hill" />
		<tag k="place" v="locality" />
		<tag k="ssr:stedsnr" v="956483" />
	</node>
	<node id="-483683" lat="60.5392888915" lon="5.23725278408">
		<tag k="name" v="Teigane" />
		<tag k="natural" v="hill" />
		<tag k="place" v="locality" />
		<tag k="ssr:stedsnr" v="410302" />
	</node>
	<node id="-483561" lat="60.5544083325" lon="5.21350278587">
		<tag k="fixme" v="consider natural=peak for the most distinct mountains in the district" />
		<tag k="name" v="Søre Heiane" />
		<tag k="natural" v="hill" />
		<tag k="place" v="locality" />
		<tag k="ssr:stedsnr" v="287061" />
	</node>
	<node id="-483597" lat="60.559600004" lon="5.06954167333">
		<tag k="fixme" v="consider natural=peak for the most distinct mountains in the district" />
		<tag k="name" v="Skintveitfjellet" />
		<tag k="natural" v="hill" />
		<tag k="place" v="locality" />
		<tag k="ssr:stedsnr" v="289525" />
	</node>
	<node id="-484427" lat="60.5273027798" lon="5.21649999363">
		<tag k="fixme" v="consider natural=peak for the most distinct mountains in the district" />
		<tag k="name" v="Vardåsen" />
		<tag k="natural" v="hill" />
		<tag k="place" v="locality" />
		<tag k="ssr:stedsnr" v="956403" />
	</node>
	<node id="-484426" lat="60.58632086" lon="5.04544576858">
		<tag k="name" v="Flathøyen" />
		<tag k="natural" v="hill" />
		<tag k="place" v="locality" />
		<tag k="ssr:stedsnr" v="956384" />
	</node>
	<node id="-483911" lat="60.5522722255" lon="5.05492500675">
		<tag k="fixme" v="consider natural=peak for the most distinct mountains in the district" />
		<tag k="name" v="Eikelandshøyen" />
		<tag k="natural" v="hill" />
		<tag k="place" v="locality" />
		<tag k="ssr:stedsnr" v="188919" />
	</node>
	<node id="-484421" lat="60.5711333377" lon="5.05753610604">
		<tag k="name" v="Osphøyen" />
		<tag k="natural" v="hill" />
		<tag k="place" v="locality" />
		<tag k="ssr:stedsnr" v="956337" />
	</node>
	<node id="-483766" lat="60.5628583378" lon="5.19374722919">
		<tag k="name" v="Hushøyen" />
		<tag k="natural" v="hill" />
		<tag k="place" v="locality" />
		<tag k="ssr:stedsnr" v="45245" />
	</node>
	<node id="-483903" lat="60.5811611129" lon="5.1616888946">
		<tag k="fixme" v="consider natural=peak for the most distinct mountains in the district" />
		<tag k="name" v="Sveåsen" />
		<tag k="natural" v="hill" />
		<tag k="place" v="locality" />
		<tag k="ssr:stedsnr" v="167476" />
	</node>
	<node id="-483901" lat="60.5209277783" lon="5.16988611259">
		<tag k="name" v="Holsberget" />
		<tag k="natural" v="hill" />
		<tag k="place" v="locality" />
		<tag k="ssr:stedsnr" v="167457" />
	</node>
	<node id="-484411" lat="60.5804990427" lon="5.06860000271">
		<tag k="name" v="Alvhøyen" />
		<tag k="natural" v="hill" />
		<tag k="place" v="locality" />
		<tag k="ssr:stedsnr" v="955092" />
	</node>
	<node id="-484409" lat="60.5561305535" lon="5.2047444487">
		<tag k="fixme" v="consider natural=peak for the most distinct mountains in the district" />
		<tag k="name" v="Nordre Heiane" />
		<tag k="natural" v="hill" />
		<tag k="place" v="locality" />
		<tag k="ssr:stedsnr" v="955081" />
	</node>
	<node id="-484408" lat="60.5557916687" lon="5.19371944799">
		<tag k="name" v="Langedalen" />
		<tag k="natural" v="valley" />
		<tag k="place" v="locality" />
		<tag k="ssr:stedsnr" v="955077" />
	</node>
	<node id="-483895" lat="60.5223527788" lon="5.19874722887">
		<tag k="name" v="Sandskaret" />
		<tag k="natural" v="hill" />
		<tag k="place" v="locality" />
		<tag k="ssr:stedsnr" v="167412" />
	</node>
	<node id="-484406" lat="60.5477694482" lon="5.21544166026">
		<tag k="fixme" v="consider natural=peak for the most distinct mountains in the district" />
		<tag k="name" v="Storhammaren" />
		<tag k="natural" v="hill" />
		<tag k="ssr:stedsnr" v="955066" />
	</node>
	<node id="-483663" lat="60.5388111112" lon="5.21259444747">
		<tag k="name" v="Krossfjellet" />
		<tag k="natural" v="hill" />
		<tag k="place" v="locality" />
		<tag k="ssr:stedsnr" v="388486" />
	</node>
	<node id="-483892" lat="60.5848722211" lon="5.05204165827">
		<tag k="fixme" v="consider natural=peak for the most distinct mountains in the district" />
		<tag k="name" v="Varden" />
		<tag k="natural" v="hill" />
		<tag k="place" v="locality" />
		<tag k="ssr:stedsnr" v="167357" />
	</node>
	<node id="-483576" lat="60.5344416659" lon="5.10676111086">
		<tag k="name" v="Fløksandsmarka" />
		<tag k="place" v="locality" />
		<tag k="ssr:stedsnr" v="288281" />
	</node>
	<node id="-483888" lat="60.5778555549" lon="5.05355278525">
		<tag k="name" v="Lang" />
		<tag k="place" v="locality" />
		<tag k="ssr:stedsnr" v="167320" />
	</node>
	<node id="-483886" lat="60.569411111" lon="5.05029444629">
		<tag k="name" v="Svehaugane" />
		<tag k="natural" v="hill" />
		<tag k="place" v="locality" />
		<tag k="ssr:stedsnr" v="167314" />
	</node>
	<node id="-483885" lat="60.5349027778" lon="5.24343055059">
		<tag k="name" v="Hatleberget" />
		<tag k="natural" v="hill" />
		<tag k="place" v="locality" />
		<tag k="ssr:stedsnr" v="167299" />
	</node>
	<node id="-484393" lat="60.534458331" lon="5.14670833766">
		<tag k="name" v="Slettåsen" />
		<tag k="natural" v="hill" />
		<tag k="place" v="locality" />
		<tag k="ssr:stedsnr" v="916437" />
	</node>
	<node id="-484392" lat="60.5385666657" lon="5.13318332936">
		<tag k="name" v="Ramusfjellet" />
		<tag k="natural" v="hill" />
		<tag k="place" v="locality" />
		<tag k="ssr:stedsnr" v="916435" />
	</node>
	<node id="-483879" lat="60.5555138866" lon="5.10242500629">
		<tag k="name" v="Jonsbotnen" />
		<tag k="natural" v="valley" />
		<tag k="place" v="locality" />
		<tag k="ssr:stedsnr" v="166457" />
	</node>
	<node id="-483761" lat="60.5682388387" lon="5.08642479709">
		<tag k="name" v="Rundehøyen" />
		<tag k="natural" v="hill" />
		<tag k="place" v="locality" />
		<tag k="ssr:stedsnr" v="44077" />
	</node>
	<node id="-483876" lat="60.5682452991" lon="5.10935305736">
		<tag k="name" v="Gripakletten" />
		<tag k="natural" v="hill" />
		<tag k="place" v="locality" />
		<tag k="ssr:stedsnr" v="166101" />
	</node>
	<node id="-483875" lat="60.5694999965" lon="5.10934444461">
		<tag k="name" v="Ormedalen" />
		<tag k="natural" v="valley" />
		<tag k="place" v="locality" />
		<tag k="ssr:stedsnr" v="166099" />
	</node>
	<node id="-483874" lat="60.5740548011" lon="5.07948591334">
		<tag k="name" v="Orretua" />
		<tag k="place" v="locality" />
		<tag k="ssr:stedsnr" v="166086" />
	</node>
	<node id="-483873" lat="60.5672861126" lon="5.08466389091">
		<tag k="name" v="Holten" />
		<tag k="place" v="locality" />
		<tag k="ssr:stedsnr" v="166082" />
	</node>
	<node id="-484383" lat="60.5850666653" lon="5.03052500117">
		<tag k="alt_name" v="Eldsfjellveten;Eldsfjell-veten" />
		<tag k="name" v="Veten" />
		<tag k="natural" v="hill" />
		<tag k="place" v="locality" />
		<tag k="ssr:stedsnr" v="856947" />
	</node>
	<node id="-484382" lat="60.589294441" lon="5.00575277055">
		<tag k="fixme" v="consider natural=peak for the most distinct mountains in the district" />
		<tag k="name" v="Hesthøyen" />
		<tag k="natural" v="hill" />
		<tag k="place" v="locality" />
		<tag k="ssr:stedsnr" v="856945" />
	</node>
	<node id="-483869" lat="60.5431500039" lon="5.18881389166">
		<tag k="fixme" v="consider natural=peak for the most distinct mountains in the district" />
		<tag k="name" v="Gjerfjellet" />
		<tag k="natural" v="hill" />
		<tag k="place" v="locality" />
		<tag k="ssr:stedsnr" v="166044" />
	</node>
	<node id="-483868" lat="60.5459138854" lon="5.19036111099">
		<tag k="fixme" v="consider natural=peak for the most distinct mountains in the district" />
		<tag k="name" v="Nordnipa" />
		<tag k="natural" v="hill" />
		<tag k="place" v="locality" />
		<tag k="ssr:stedsnr" v="166045" />
	</node>
	<node id="-484173" lat="60.5580944429" lon="5.19163888361">
		<tag k="fixme" v="consider natural=peak for the most distinct mountains in the district" />
		<tag k="name" v="Vardåsen" />
		<tag k="natural" v="hill" />
		<tag k="place" v="locality" />
		<tag k="ssr:stedsnr" v="651072" />
	</node>
	<node id="-483866" lat="60.508997222" lon="5.23516389416">
		<tag k="name" v="Vestre Dalen" />
		<tag k="natural" v="valley" />
		<tag k="place" v="locality" />
		<tag k="ssr:stedsnr" v="166030" />
	</node>
	<node id="-483865" lat="60.5473916702" lon="5.15194165964">
		<tag k="fixme" v="consider natural=peak for the most distinct mountains in the district" />
		<tag k="name" v="Åsen" />
		<tag k="natural" v="hill" />
		<tag k="place" v="locality" />
		<tag k="ssr:stedsnr" v="166019" />
	</node>
	<node id="-483864" lat="60.5408555515" lon="5.14115556016">
		<tag k="name" v="Varden" />
		<tag k="natural" v="hill" />
		<tag k="place" v="locality" />
		<tag k="ssr:stedsnr" v="166018" />
	</node>
	<node id="-483844" lat="60.5808027761" lon="5.12543888445">
		<tag k="name" v="Hoklehøyen" />
		<tag k="natural" v="hill" />
		<tag k="place" v="locality" />
		<tag k="ssr:stedsnr" v="107420" />
	</node>
	<node id="-483758" lat="60.552552776" lon="5.21945555961">
		<tag k="name" v="Svartaberget" />
		<tag k="natural" v="hill" />
		<tag k="place" v="locality" />
		<tag k="ssr:stedsnr" v="44057" />
	</node>
	<node id="-483858" lat="60.5220833339" lon="5.16541944714">
		<tag k="name" v="Børo" />
		<tag k="natural" v="cliff" />
		<tag k="ssr:stedsnr" v="146546" />
	</node>
	<node id="-483857" lat="60.5208111078" lon="5.2330083291">
		<tag k="name" v="Illakleiva" />
		<tag k="place" v="locality" />
		<tag k="ssr:stedsnr" v="145501" />
	</node>
	<node id="-484368" lat="60.545288892" lon="5.10945278143">
		<tag k="name" v="Storhøyen" />
		<tag k="natural" v="hill" />
		<tag k="place" v="locality" />
		<tag k="ssr:stedsnr" v="835539" />
	</node>
	<node id="-484367" lat="60.5432361081" lon="5.09411110747">
		<tag k="name" v="Eidshaugane" />
		<tag k="natural" v="hill" />
		<tag k="place" v="locality" />
		<tag k="ssr:stedsnr" v="835537" />
	</node>
	<node id="-484366" lat="60.5684416698" lon="5.12064444158">
		<tag k="name" v="Kletten" />
		<tag k="natural" v="hill" />
		<tag k="place" v="locality" />
		<tag k="ssr:stedsnr" v="835497" />
	</node>
	<node id="-484365" lat="60.5807249969" lon="5.16534999641">
		<tag k="name" v="Trongesmauet" />
		<tag k="place" v="locality" />
		<tag k="ssr:stedsnr" v="835490" />
	</node>
	<node id="-483661" lat="60.5755361156" lon="5.03123889429">
		<tag k="fixme" v="consider natural=peak for the most distinct mountains in the district" />
		<tag k="name" v="Storhøyen" />
		<tag k="natural" v="hill" />
		<tag k="place" v="locality" />
		<tag k="ssr:stedsnr" v="371025" />
	</node>
	<node id="-484362" lat="60.5350777749" lon="5.16113888859">
		<tag k="name" v="Hoplandsdalen" />
		<tag k="natural" v="valley" />
		<tag k="place" v="locality" />
		<tag k="ssr:stedsnr" v="835462" />
	</node>
	<node id="-484360" lat="60.5354138885" lon="5.20592500238">
		<tag k="name" v="Støldalen" />
		<tag k="natural" v="valley" />
		<tag k="place" v="locality" />
		<tag k="ssr:stedsnr" v="835433" />
	</node>
	<node id="-483847" lat="60.5629749997" lon="5.14207499989">
		<tag k="name" v="Eikhøyen" />
		<tag k="natural" v="hill" />
		<tag k="place" v="locality" />
		<tag k="ssr:stedsnr" v="107477" />
	</node>
	<node id="-483846" lat="60.5701861079" lon="5.16614999257">
		<tag k="name" v="Gaustadstigen" />
		<tag k="place" v="locality" />
		<tag k="ssr:stedsnr" v="107446" />
	</node>
	<node id="-484357" lat="60.5470333375" lon="5.04944722734">
		<tag k="name" v="Grønålshøyen" />
		<tag k="natural" v="hill" />
		<tag k="place" v="locality" />
		<tag k="ssr:stedsnr" v="835371" />
	</node>
	<node id="-484356" lat="60.5990055552" lon="5.04105278366">
		<tag k="fixme" v="consider natural=peak for the most distinct mountains in the district" />
		<tag k="name" v="Stuvane" />
		<tag k="natural" v="hill" />
		<tag k="place" v="locality" />
		<tag k="ssr:stedsnr" v="835365" />
	</node>
	<node id="-484355" lat="60.6014444486" lon="5.03351111128">
		<tag k="fixme" v="consider natural=peak for the most distinct mountains in the district" />
		<tag k="name" v="Tytebærvellena" />
		<tag k="natural" v="hill" />
		<tag k="place" v="locality" />
		<tag k="ssr:stedsnr" v="835362" />
	</node>
	<node id="-483842" lat="60.5373194459" lon="5.13311111855">
		<tag k="name" v="Djupedalen" />
		<tag k="natural" v="valley" />
		<tag k="place" v="locality" />
		<tag k="ssr:stedsnr" v="107387" />
	</node>
	<node id="-484353" lat="60.5426638877" lon="5.26092778021">
		<tag k="name" v="Skitnedalen" />
		<tag k="natural" v="valley" />
		<tag k="place" v="locality" />
		<tag k="ssr:stedsnr" v="835269" />
	</node>
</osm>
