<?xml version="1.0" encoding="UTF-8"?>
<osm generator="osmapis" version="0.6">
	<node id="-483328" lat="60.5140416689" lon="5.24739165901">
		<tag k="name" v="Badevika" />
		<tag k="natural" v="bay" />
		<tag k="ssr:stedsnr" v="228282" />
	</node>
	<node id="-483327" lat="60.5078777802" lon="5.23638888611">
		<tag k="name" v="Naustvika" />
		<tag k="natural" v="bay" />
		<tag k="ssr:stedsnr" v="228278" />
	</node>
	<node id="-483326" lat="60.5114666637" lon="5.23742499284">
		<tag k="name" v="Jonsokgrenda" />
		<tag k="place" v="hamlet" />
		<tag k="ssr:stedsnr" v="228276" />
	</node>
	<node id="-483325" lat="60.5412972227" lon="5.2532138927">
		<tag k="name" v="Grønevika" />
		<tag k="natural" v="bay" />
		<tag k="ssr:stedsnr" v="228261" />
	</node>
	<node id="-483324" lat="60.5430511491" lon="5.25497826658">
		<tag k="name" v="Skitnedalsvika" />
		<tag k="natural" v="bay" />
		<tag k="ssr:stedsnr" v="228259" />
	</node>
	<node id="-483323" lat="60.5676250016" lon="5.03970000282">
		<tag k="name" v="Skurtveitneset" />
		<tag k="natural" v="cape" />
		<tag k="ssr:stedsnr" v="228252" />
	</node>
	<node id="-483322" lat="60.5679138918" lon="5.04391943984">
		<tag k="name" v="Mjølkevika" />
		<tag k="natural" v="bay" />
		<tag k="ssr:stedsnr" v="228251" />
	</node>
	<node id="-483321" lat="60.544986715" lon="5.24861595164">
		<tag k="name" v="Søra Eidavika" />
		<tag k="natural" v="bay" />
		<tag k="ssr:stedsnr" v="227267" />
	</node>
	<node id="-483320" lat="60.5435638867" lon="5.24182778533">
		<tag k="name" v="Hillena" />
		<tag k="place" v="farm" />
		<tag k="ssr:stedsnr" v="227265" />
	</node>
	<node id="-483319" lat="60.540408336" lon="5.21210000643">
		<tag k="fixme" v="consider natural=peak for the most distinct mountains in the district" />
		<tag k="name" v="Moldekleivfjellet" />
		<tag k="natural" v="hill" />
		<tag k="place" v="locality" />
		<tag k="ssr:stedsnr" v="227072" />
	</node>
	<node id="-483318" lat="60.58499167" lon="5.12568611215">
		<tag k="fixme" v="consider natural=peak for the most distinct mountains in the district" />
		<tag k="name" v="Bårafjellet" />
		<tag k="natural" v="hill" />
		<tag k="place" v="locality" />
		<tag k="ssr:stedsnr" v="226528" />
	</node>
	<node id="-483317" lat="60.5848805586" lon="5.15843056266">
		<tag k="fixme" v="consider natural=peak for the most distinct mountains in the district" />
		<tag k="name" v="Kalvhusåsen" />
		<tag k="natural" v="hill" />
		<tag k="place" v="locality" />
		<tag k="ssr:stedsnr" v="226519" />
	</node>
	<node id="-483316" lat="60.5777194439" lon="5.07399722801">
		<tag k="name" v="Skogeneset" />
		<tag k="natural" v="cape" />
		<tag k="ssr:stedsnr" v="226090" />
	</node>
	<node id="-483315" lat="60.5725039551" lon="5.08409122527">
		<tag k="name" v="Tungeneset" />
		<tag k="natural" v="cape" />
		<tag k="ssr:stedsnr" v="226087" />
	</node>
	<node id="-483314" lat="60.5707531384" lon="5.08999648537">
		<tag k="name" v="Nordra Neset" />
		<tag k="natural" v="cape" />
		<tag k="ssr:stedsnr" v="226081" />
	</node>
	<node id="-483313" lat="60.5729190036" lon="5.11362810816">
		<tag k="name" v="Larsneset" />
		<tag k="natural" v="cape" />
		<tag k="ssr:stedsnr" v="226078" />
	</node>
	<node id="-483312" lat="60.5613888893" lon="5.20008611356">
		<tag k="fixme" v="consider natural=peak for the most distinct mountains in the district" />
		<tag k="name" v="Stølåsen" />
		<tag k="natural" v="hill" />
		<tag k="place" v="locality" />
		<tag k="ssr:stedsnr" v="226067" />
	</node>
	<node id="-483311" lat="60.5615027764" lon="5.19145833397">
		<tag k="name" v="Espetveit" />
		<tag k="place" v="farm" />
		<tag k="ssr:stedsnr" v="226066" />
	</node>
	<node id="-483310" lat="60.5435916647" lon="5.17405833972">
		<tag k="fixme" v="consider natural=peak for the most distinct mountains in the district" />
		<tag k="name" v="Nipena" />
		<tag k="natural" v="hill" />
		<tag k="place" v="locality" />
		<tag k="ssr:stedsnr" v="226039" />
	</node>
	<node id="-483309" lat="60.545130554" lon="5.17870000332">
		<tag k="name" v="Salbukletten" />
		<tag k="place" v="locality" />
		<tag k="ssr:stedsnr" v="226036" />
	</node>
	<node id="-483308" lat="60.5414899547" lon="5.13601330377">
		<tag k="name" v="Grisavika" />
		<tag k="natural" v="bay" />
		<tag k="ssr:stedsnr" v="226021" />
	</node>
	<node id="-483306" lat="60.5092166656" lon="5.22706388221">
		<tag k="name" v="Frekhaugmarka" />
		<tag k="place" v="quarter" />
		<tag k="ssr:stedsnr" v="222006" />
	</node>
	<node id="-483305" lat="60.5536611074" lon="5.00840277873">
		<tag k="name" v="Øpso" />
		<tag k="place" v="farm" />
		<tag k="ssr:stedsnr" v="218626" />
	</node>
	<node id="-483304" lat="60.6091527748" lon="5.0571527748">
		<tag k="name" v="Kvalvikneset" />
		<tag k="natural" v="cape" />
		<tag k="ssr:stedsnr" v="207603" />
	</node>
	<node id="-483303" lat="60.5351083342" lon="5.24699721428">
		<tag k="name" v="Lensmannsholmen" />
		<tag k="place" v="islet" />
		<tag k="ssr:stedsnr" v="206500" />
	</node>
	<node id="-483302" lat="60.6045583334" lon="4.9496083243">
		<tag k="name" v="Klokkarneset" />
		<tag k="natural" v="cape" />
		<tag k="ssr:stedsnr" v="206649" />
	</node>
	<node id="-483300" lat="60.5475749964" lon="5.22344722606">
		<tag k="alt_name" v="Dragenes" />
		<tag k="name" v="Drageneset" />
		<tag k="natural" v="cape" />
		<tag k="ssr:stedsnr" v="189039" />
	</node>
	<node id="-483299" lat="60.6009555578" lon="4.96448888015">
		<tag k="name" v="Skjeljanger" />
		<tag k="place" v="hamlet" />
		<tag k="ssr:stedsnr" v="188957" />
	</node>
	<node id="-483298" lat="60.593374999" lon="4.98040277478">
		<tag k="name" v="Buhelrevika" />
		<tag k="natural" v="bay" />
		<tag k="ssr:stedsnr" v="188945" />
	</node>
	<node id="-483297" lat="60.5931916641" lon="4.99007499235">
		<tag k="name" v="Sætre" />
		<tag k="place" v="farm" />
		<tag k="ssr:stedsnr" v="188944" />
	</node>
	<node id="-483296" lat="60.5829027801" lon="4.99899166453">
		<tag k="alt_name" v="Skorpøy" />
		<tag k="name" v="Skorpo" />
		<tag k="place" v="islet" />
		<tag k="ssr:stedsnr" v="188939" />
	</node>
	<node id="-483295" lat="60.5656249977" lon="5.03988611157">
		<tag k="name" v="Rosslandspollen" />
		<tag k="natural" v="bay" />
		<tag k="ssr:stedsnr" v="188928" />
	</node>
	<node id="-483294" lat="60.5542749974" lon="5.00532777646">
		<tag k="name" v="Ypso" />
		<tag k="place" v="isolated_dwelling" />
		<tag k="ssr:stedsnr" v="188925" />
	</node>
	<node id="-483293" lat="60.5522722255" lon="5.05492500675">
		<tag k="fixme" v="consider natural=peak for the most distinct mountains in the district" />
		<tag k="name" v="Eikelandshøyen" />
		<tag k="natural" v="hill" />
		<tag k="place" v="locality" />
		<tag k="ssr:stedsnr" v="188919" />
	</node>
	<node id="-483292" lat="60.5460324441" lon="5.21572015505">
		<tag k="fixme" v="consider place=hamlet" />
		<tag k="name" v="Moldekleiv" />
		<tag k="place" v="farm" />
		<tag k="ssr:stedsnr" v="188474" />
	</node>
	<node id="-483291" lat="60.5092277758" lon="5.21486111462">
		<tag k="alt_name" v="Mjåtveitstø" />
		<tag k="name" v="Mjåtveitstøi" />
		<tag k="place" v="farm" />
		<tag k="ssr:stedsnr" v="188544" />
	</node>
	<node id="-483290" lat="60.5127638843" lon="5.20272777092">
		<tag k="alt_name" v="Dalsstøi" />
		<tag k="name" v="Dalstø" />
		<tag k="old_name" v="Dalstøi" />
		<tag k="place" v="farm" />
		<tag k="ssr:stedsnr" v="188541" />
	</node>
	<node id="-483289" lat="60.5272467066" lon="5.15518934283">
		<tag k="fixme" v="consider place=hamlet" />
		<tag k="name" v="Holme" />
		<tag k="place" v="farm" />
		<tag k="ssr:stedsnr" v="188446" />
	</node>
	<node id="-483288" lat="60.5590632961" lon="5.16897388045">
		<tag k="fixme" v="consider place=hamlet" />
		<tag k="name" v="Hestnes" />
		<tag k="place" v="farm" />
		<tag k="ssr:stedsnr" v="188103" />
	</node>
	<node id="-483287" lat="60.5513722253" lon="5.08322500784">
		<tag k="name" v="Rylandsholmen" />
		<tag k="natural" v="cape" />
		<tag k="ssr:stedsnr" v="167544" />
	</node>
	<node id="-483286" lat="60.5730657286" lon="5.12767327865">
		<tag k="name" v="Bukkholmen" />
		<tag k="place" v="islet" />
		<tag k="ssr:stedsnr" v="167495" />
	</node>
	<node id="-483285" lat="60.5811611129" lon="5.1616888946">
		<tag k="fixme" v="consider natural=peak for the most distinct mountains in the district" />
		<tag k="name" v="Sveåsen" />
		<tag k="natural" v="hill" />
		<tag k="place" v="locality" />
		<tag k="ssr:stedsnr" v="167476" />
	</node>
	<node id="-483284" lat="60.6069444441" lon="5.0088722171">
		<tag k="name" v="Torskevika" />
		<tag k="natural" v="bay" />
		<tag k="ssr:stedsnr" v="167461" />
	</node>
	<node id="-483283" lat="60.5209277783" lon="5.16988611259">
		<tag k="name" v="Holsberget" />
		<tag k="natural" v="hill" />
		<tag k="place" v="locality" />
		<tag k="ssr:stedsnr" v="167457" />
	</node>
	<node id="-483282" lat="60.5717055595" lon="5.12382499649">
		<tag k="name" v="Kjørneset" />
		<tag k="natural" v="cape" />
		<tag k="ssr:stedsnr" v="167441" />
	</node>
	<node id="-483281" lat="60.5703635244" lon="5.12461455679">
		<tag k="name" v="Gripavika" />
		<tag k="natural" v="bay" />
		<tag k="ssr:stedsnr" v="167439" />
	</node>
	<node id="-483280" lat="60.5792111147" lon="5.1719944434">
		<tag k="name" v="Havnholmen" />
		<tag k="place" v="islet" />
		<tag k="ssr:stedsnr" v="167430" />
	</node>
	<node id="-483279" lat="60.6088250038" lon="4.9847444368">
		<tag k="name" v="Båtevika" />
		<tag k="natural" v="bay" />
		<tag k="ssr:stedsnr" v="167428" />
	</node>
	<node id="-483278" lat="60.5372055567" lon="5.20966666526">
		<tag k="name" v="Torvkletten" />
		<tag k="natural" v="hill" />
		<tag k="place" v="locality" />
		<tag k="ssr:stedsnr" v="167419" />
	</node>
	<node id="-483277" lat="60.5223527788" lon="5.19874722887">
		<tag k="name" v="Sandskaret" />
		<tag k="natural" v="hill" />
		<tag k="place" v="locality" />
		<tag k="ssr:stedsnr" v="167412" />
	</node>
	<node id="-483276" lat="60.5411722246" lon="5.05002222354">
		<tag k="name" v="Beitingsvika" />
		<tag k="natural" v="bay" />
		<tag k="ssr:stedsnr" v="167371" />
	</node>
	<node id="-483275" lat="60.5971694429" lon="5.05719167536">
		<tag k="historic" v="shieling" />
		<tag k="name" v="Heststølen" />
		<tag k="place" v="locality" />
		<tag k="ssr:stedsnr" v="167363" />
	</node>
	<node id="-483274" lat="60.5848722211" lon="5.05204165827">
		<tag k="fixme" v="consider natural=peak for the most distinct mountains in the district" />
		<tag k="name" v="Varden" />
		<tag k="natural" v="hill" />
		<tag k="place" v="locality" />
		<tag k="ssr:stedsnr" v="167357" />
	</node>
	<node id="-483273" lat="60.5382000041" lon="5.27262499079">
		<tag k="name" v="Lushola" />
		<tag k="natural" v="bay" />
		<tag k="ssr:stedsnr" v="167355" />
	</node>
	<node id="-483272" lat="60.5515611115" lon="5.02236110293">
		<tag k="name" v="Skvettholmen" />
		<tag k="place" v="islet" />
		<tag k="ssr:stedsnr" v="167332" />
	</node>
	<node id="-483271" lat="60.5568694472" lon="5.03451388245">
		<tag k="name" v="Gamlesvika" />
		<tag k="natural" v="bay" />
		<tag k="ssr:stedsnr" v="167326" />
	</node>
	<node id="-483270" lat="60.5778555549" lon="5.05355278525">
		<tag k="name" v="Lang" />
		<tag k="place" v="locality" />
		<tag k="ssr:stedsnr" v="167320" />
	</node>
	<node id="-483269" lat="60.577838885" lon="5.01267500564">
		<tag k="name" v="Sandvika" />
		<tag k="natural" v="bay" />
		<tag k="ssr:stedsnr" v="167319" />
	</node>
	<node id="-483268" lat="60.569411111" lon="5.05029444629">
		<tag k="name" v="Svehaugane" />
		<tag k="natural" v="hill" />
		<tag k="place" v="locality" />
		<tag k="ssr:stedsnr" v="167314" />
	</node>
	<node id="-483267" lat="60.5349027778" lon="5.24343055059">
		<tag k="name" v="Hatleberget" />
		<tag k="natural" v="hill" />
		<tag k="place" v="locality" />
		<tag k="ssr:stedsnr" v="167299" />
	</node>
	<node id="-483266" lat="60.5348826433" lon="5.24746621833">
		<tag k="name" v="Hjeltholmen" />
		<tag k="place" v="islet" />
		<tag k="ssr:stedsnr" v="167284" />
	</node>
	<node id="-483265" lat="60.5129138892" lon="5.2435611047">
		<tag k="name" v="Skansen" />
		<tag k="place" v="farm" />
		<tag k="ssr:stedsnr" v="167279" />
	</node>
	<node id="-483264" lat="60.6018361127" lon="5.06222499328">
		<tag k="fixme" v="consider place=hamlet" />
		<tag k="name" v="Landsvik" />
		<tag k="place" v="farm" />
		<tag k="ssr:stedsnr" v="167273" />
	</node>
	<node id="-483263" lat="60.5495472177" lon="5.24012777071">
		<tag k="name" v="Sandvikane" />
		<tag k="natural" v="bay" />
		<tag k="ssr:stedsnr" v="167259" />
	</node>
	<node id="-483262" lat="60.5897972178" lon="5.1289499974">
		<tag k="fixme" v="consider natural=peak for the most distinct mountains in the district" />
		<tag k="name" v="Åsen" />
		<tag k="natural" v="hill" />
		<tag k="place" v="locality" />
		<tag k="ssr:stedsnr" v="166496" />
	</node>
	<node id="-483261" lat="60.5555138866" lon="5.10242500629">
		<tag k="name" v="Jonsbotnen" />
		<tag k="natural" v="valley" />
		<tag k="place" v="locality" />
		<tag k="ssr:stedsnr" v="166457" />
	</node>
	<node id="-483260" lat="60.5467666689" lon="5.21483887969">
		<tag k="fixme" v="consider place=hamlet" />
		<tag k="name" v="Moldekleiv" />
		<tag k="place" v="village" />
		<tag k="ssr:stedsnr" v="166130" />
	</node>
	<node id="-483259" lat="60.5553333335" lon="5.21327776976">
		<tag k="name" v="Skarpeneset" />
		<tag k="place" v="village" />
		<tag k="ssr:stedsnr" v="166115" />
	</node>
	<node id="-483258" lat="60.5682452991" lon="5.10935305736">
		<tag k="name" v="Gripakletten" />
		<tag k="natural" v="hill" />
		<tag k="place" v="locality" />
		<tag k="ssr:stedsnr" v="166101" />
	</node>
	<node id="-483257" lat="60.5694999965" lon="5.10934444461">
		<tag k="name" v="Ormedalen" />
		<tag k="natural" v="valley" />
		<tag k="place" v="locality" />
		<tag k="ssr:stedsnr" v="166099" />
	</node>
	<node id="-483256" lat="60.5740548011" lon="5.07948591334">
		<tag k="name" v="Orretua" />
		<tag k="place" v="locality" />
		<tag k="ssr:stedsnr" v="166086" />
	</node>
	<node id="-483255" lat="60.5672861126" lon="5.08466389091">
		<tag k="name" v="Holten" />
		<tag k="place" v="locality" />
		<tag k="ssr:stedsnr" v="166082" />
	</node>
	<node id="-483254" lat="60.5655422212" lon="5.08969692308">
		<tag k="name" v="Onesholmen" />
		<tag k="place" v="islet" />
		<tag k="ssr:stedsnr" v="166080" />
	</node>
	<node id="-483253" lat="60.5525527792" lon="5.22949999431">
		<tag k="name" v="Kverna" />
		<tag k="place" v="island" />
		<tag k="ssr:stedsnr" v="166055" />
	</node>
	<node id="-483252" lat="60.540955554" lon="5.16838610754">
		<tag k="name" v="Klarabrekkene" />
		<tag k="natural" v="slope" />
		<tag k="place" v="locality" />
		<tag k="ssr:stedsnr" v="166051" />
	</node>
	<node id="-483251" lat="60.5431500039" lon="5.18881389166">
		<tag k="fixme" v="consider natural=peak for the most distinct mountains in the district" />
		<tag k="name" v="Gjerfjellet" />
		<tag k="natural" v="hill" />
		<tag k="place" v="locality" />
		<tag k="ssr:stedsnr" v="166044" />
	</node>
	<node id="-483250" lat="60.5459138854" lon="5.19036111099">
		<tag k="fixme" v="consider natural=peak for the most distinct mountains in the district" />
		<tag k="name" v="Nordnipa" />
		<tag k="natural" v="hill" />
		<tag k="place" v="locality" />
		<tag k="ssr:stedsnr" v="166045" />
	</node>
	<node id="-483249" lat="60.556275001" lon="5.17714165925">
		<tag k="name" v="Kvernaleitet" />
		<tag k="place" v="locality" />
		<tag k="ssr:stedsnr" v="166040" />
	</node>
	<node id="-483248" lat="60.508997222" lon="5.23516389416">
		<tag k="name" v="Vestre Dalen" />
		<tag k="natural" v="valley" />
		<tag k="place" v="locality" />
		<tag k="ssr:stedsnr" v="166030" />
	</node>
	<node id="-483247" lat="60.5473916702" lon="5.15194165964">
		<tag k="fixme" v="consider natural=peak for the most distinct mountains in the district" />
		<tag k="name" v="Åsen" />
		<tag k="natural" v="hill" />
		<tag k="place" v="locality" />
		<tag k="ssr:stedsnr" v="166019" />
	</node>
	<node id="-483246" lat="60.5408555515" lon="5.14115556016">
		<tag k="name" v="Varden" />
		<tag k="natural" v="hill" />
		<tag k="place" v="locality" />
		<tag k="ssr:stedsnr" v="166018" />
	</node>
	<node id="-483245" lat="60.5072777803" lon="5.21037499402">
		<tag k="name" v="Svinsvågneset" />
		<tag k="natural" v="cape" />
		<tag k="ssr:stedsnr" v="166009" />
	</node>
	<node id="-483244" lat="60.6080027743" lon="5.01805000383">
		<tag k="name" v="Kårbøneset" />
		<tag k="place" v="neighbourhood" />
		<tag k="ssr:stedsnr" v="161070" />
	</node>
	<node id="-483243" lat="60.5383416665" lon="5.09868055402">
		<tag k="name" v="Fløksand" />
		<tag k="place" v="quarter" />
		<tag k="ssr:stedsnr" v="161060" />
	</node>
	<node id="-483242" lat="60.5355510124" lon="5.25756301845">
		<tag k="fixme" v="consider place=hamlet" />
		<tag k="name" v="Flatøy" />
		<tag k="place" v="farm" />
		<tag k="ssr:stedsnr" v="150663" />
	</node>
	<node id="-483241" lat="60.5347777775" lon="5.10288889169">
		<tag k="name" v="Sørastøa" />
		<tag k="natural" v="bay" />
		<tag k="ssr:stedsnr" v="146571" />
	</node>
	<node id="-483240" lat="60.5220833339" lon="5.16541944714">
		<tag k="name" v="Børo" />
		<tag k="natural" v="cliff" />
		<tag k="ssr:stedsnr" v="146546" />
	</node>
	<node id="-483239" lat="60.5208111078" lon="5.2330083291">
		<tag k="name" v="Illakleiva" />
		<tag k="place" v="locality" />
		<tag k="ssr:stedsnr" v="145501" />
	</node>
	<node id="-483237" lat="60.584930144" lon="5.05867849597">
		<tag k="name" v="Kvitstigtjørna" />
		<tag k="natural" v="water" />
		<tag k="ssr:stedsnr" v="127932" />
	</node>
	<node id="-483236" lat="60.5371305528" lon="5.18722499286">
		<tag k="name" v="Melandsåsen" />
		<tag k="natural" v="hill" />
		<tag k="place" v="locality" />
		<tag k="ssr:stedsnr" v="127438" />
	</node>
	<node id="-483235" lat="60.5372065855" lon="5.26813528011">
		<tag k="name" v="Austegarden" />
		<tag k="place" v="farm" />
		<tag k="ssr:stedsnr" v="127428" />
	</node>
	<node id="-483234" lat="60.5337777816" lon="5.25981111117">
		<tag k="name" v="Øyni" />
		<tag k="place" v="farm" />
		<tag k="ssr:stedsnr" v="127412" />
	</node>
	<node id="-483233" lat="60.5640062576" lon="5.15437552102">
		<tag k="name" v="Hestnesvatnet" />
		<tag k="natural" v="water" />
		<tag k="ssr:stedsnr" v="127074" />
	</node>
	<node id="-483232" lat="60.5539722255" lon="4.99216944952">
		<tag k="name" v="Hestnes" />
		<tag k="place" v="farm" />
		<tag k="ssr:stedsnr" v="113293" />
	</node>
	<node id="-483231" lat="60.5152583332" lon="5.23231945126">
		<tag k="bridge" v="yes" />
		<tag k="layer" v="1" />
		<tag k="name" v="Mjåtveitelva" />
		<tag k="ssr:stedsnr" v="108002" />
	</node>
	<node id="-483230" lat="60.5463361115" lon="5.10211111449">
		<tag k="name" v="Brakstadmarka" />
		<tag k="place" v="locality" />
		<tag k="ssr:stedsnr" v="107518" />
	</node>
	<node id="-483229" lat="60.5629749997" lon="5.14207499989">
		<tag k="name" v="Eikhøyen" />
		<tag k="natural" v="hill" />
		<tag k="place" v="locality" />
		<tag k="ssr:stedsnr" v="107477" />
	</node>
	<node id="-483228" lat="60.5701861079" lon="5.16614999257">
		<tag k="name" v="Gaustadstigen" />
		<tag k="place" v="locality" />
		<tag k="ssr:stedsnr" v="107446" />
	</node>
	<node id="-483227" lat="60.6121749989" lon="5.05457500219">
		<tag k="fixme" v="consider seamark:type=rock or natural=shoal" />
		<tag k="name" v="Skipsskjera" />
		<tag k="place" v="islet" />
		<tag k="ssr:stedsnr" v="107444" />
	</node>
	<node id="-483226" lat="60.5808027761" lon="5.12543888445">
		<tag k="name" v="Hoklehøyen" />
		<tag k="natural" v="hill" />
		<tag k="place" v="locality" />
		<tag k="ssr:stedsnr" v="107420" />
	</node>
	<node id="-483225" lat="60.5301194404" lon="5.21052777513">
		<tag k="name" v="Kleivane" />
		<tag k="natural" v="ridge" />
		<tag k="place" v="locality" />
		<tag k="ssr:stedsnr" v="107403" />
	</node>
	<node id="-483224" lat="60.5373194459" lon="5.13311111855">
		<tag k="name" v="Djupedalen" />
		<tag k="natural" v="valley" />
		<tag k="place" v="locality" />
		<tag k="ssr:stedsnr" v="107387" />
	</node>
	<node id="-483223" lat="60.5238166648" lon="5.21837500604">
		<tag k="name" v="Solhaug" />
		<tag k="place" v="farm" />
		<tag k="ssr:stedsnr" v="107377" />
	</node>
	<node id="-483222" lat="60.5456888885" lon="5.04358889313">
		<tag k="name" v="Kippevika" />
		<tag k="natural" v="bay" />
		<tag k="ssr:stedsnr" v="107372" />
	</node>
	<node id="-483221" lat="60.5501916624" lon="5.03570832854">
		<tag k="name" v="Nausthøyen" />
		<tag k="place" v="farm" />
		<tag k="ssr:stedsnr" v="107364" />
	</node>
	<node id="-483220" lat="60.5888722182" lon="5.03013056164">
		<tag k="name" v="Hjellane" />
		<tag k="natural" v="hill" />
		<tag k="place" v="locality" />
		<tag k="ssr:stedsnr" v="107339" />
	</node>
	<node id="-483219" lat="60.5338750022" lon="5.2530916635">
		<tag k="name" v="Nordra Krossnesvika" />
		<tag k="natural" v="bay" />
		<tag k="ssr:stedsnr" v="106332" />
	</node>
	<node id="-483218" lat="60.5554305531" lon="5.03177222233">
		<tag k="name" v="Kyrkjevika" />
		<tag k="natural" v="bay" />
		<tag k="ssr:stedsnr" v="106310" />
	</node>
	<node id="-483217" lat="60.5676333303" lon="4.99118611283">
		<tag k="fixme" v="consider seamark:type=rock or natural=shoal" />
		<tag k="name" v="Stora Ieskjeret" />
		<tag k="place" v="islet" />
		<tag k="ssr:stedsnr" v="106295" />
	</node>
	<node id="-483216" lat="60.5383361094" lon="5.249177777">
		<tag k="name" v="Hjeltaneset" />
		<tag k="natural" v="cape" />
		<tag k="ssr:stedsnr" v="106285" />
	</node>
	<node id="-483215" lat="60.5365000045" lon="5.25075834016">
		<tag k="name" v="Kjeldevika" />
		<tag k="natural" v="bay" />
		<tag k="ssr:stedsnr" v="106279" />
	</node>
	<node id="-483214" lat="60.569130559" lon="5.18312223038">
		<tag k="name" v="Rindane" />
		<tag k="natural" v="hill" />
		<tag k="place" v="locality" />
		<tag k="ssr:stedsnr" v="106257" />
	</node>
	<node id="-483213" lat="60.5484805599" lon="5.2387527718">
		<tag k="name" v="Langerinden" />
		<tag k="natural" v="hill" />
		<tag k="place" v="locality" />
		<tag k="ssr:stedsnr" v="106255" />
	</node>
	<node id="-483212" lat="60.5620166644" lon="5.04484165956">
		<tag k="name" v="Kvernhøyen" />
		<tag k="natural" v="hill" />
		<tag k="place" v="locality" />
		<tag k="ssr:stedsnr" v="106249" />
	</node>
	<node id="-483211" lat="60.5624888854" lon="5.05355000764">
		<tag k="name" v="Orrhøyen" />
		<tag k="natural" v="hill" />
		<tag k="place" v="locality" />
		<tag k="ssr:stedsnr" v="106247" />
	</node>
	<node id="-483210" lat="60.5886973923" lon="5.11868050629">
		<tag k="name" v="Sauatjørna" />
		<tag k="natural" v="water" />
		<tag k="ssr:stedsnr" v="105500" />
	</node>
	<node id="-483209" lat="60.5892694407" lon="5.14491388289">
		<tag k="name" v="Orren" />
		<tag k="place" v="locality" />
		<tag k="ssr:stedsnr" v="105494" />
	</node>
	<node id="-483208" lat="60.5849083321" lon="5.16249721365">
		<tag k="name" v="Kvernhusa" />
		<tag k="natural" v="cape" />
		<tag k="ssr:stedsnr" v="105484" />
	</node>
	<node id="-483207" lat="60.5580460541" lon="5.11201117537">
		<tag k="name" v="Bjørndal" />
		<tag k="place" v="farm" />
		<tag k="ssr:stedsnr" v="105199" />
	</node>
	<node id="-483206" lat="60.5645361153" lon="5.10786666392">
		<tag k="name" v="Dyrhøyen" />
		<tag k="natural" v="hill" />
		<tag k="place" v="locality" />
		<tag k="ssr:stedsnr" v="105114" />
	</node>
	<node id="-483205" lat="60.5646583351" lon="5.07622499828">
		<tag k="name" v="Loneberget" />
		<tag k="natural" v="hill" />
		<tag k="place" v="locality" />
		<tag k="ssr:stedsnr" v="105092" />
	</node>
	<node id="-483204" lat="60.5804222178" lon="5.09762222185">
		<tag k="name" v="Nordre Båtedalen" />
		<tag k="natural" v="valley" />
		<tag k="place" v="locality" />
		<tag k="ssr:stedsnr" v="105073" />
	</node>
	<node id="-483203" lat="60.5532916663" lon="5.20862777755">
		<tag k="fixme" v="consider natural=peak for the most distinct mountains in the district" />
		<tag k="name" v="Heiane" />
		<tag k="natural" v="hill" />
		<tag k="place" v="locality" />
		<tag k="ssr:stedsnr" v="105055" />
	</node>
	<node id="-483202" lat="60.5498166694" lon="5.1812083392">
		<tag k="name" v="Grågotene" />
		<tag k="place" v="locality" />
		<tag k="ssr:stedsnr" v="105047" />
	</node>
	<node id="-483201" lat="60.5569341426" lon="5.18880606549">
		<tag k="name" v="Skartjørna" />
		<tag k="natural" v="water" />
		<tag k="ssr:stedsnr" v="105041" />
	</node>
	<node id="-483200" lat="60.5552277803" lon="5.18681389354">
		<tag k="name" v="Grasdalshalsen" />
		<tag k="natural" v="valley" />
		<tag k="place" v="locality" />
		<tag k="ssr:stedsnr" v="105035" />
	</node>
	<node id="-483199" lat="60.546641663" lon="5.13275556224">
		<tag k="name" v="Langaberget" />
		<tag k="natural" v="hill" />
		<tag k="place" v="locality" />
		<tag k="ssr:stedsnr" v="105031" />
	</node>
	<node id="-483198" lat="60.5532333302" lon="5.0100583428">
		<tag k="name" v="Øpso" />
		<tag k="place" v="farm" />
		<tag k="ssr:stedsnr" v="97652" />
	</node>
	<node id="-483197" lat="60.5433722225" lon="5.15733889101">
		<tag k="name" v="Nedre Tveit" />
		<tag k="place" v="farm" />
		<tag k="ssr:stedsnr" v="89652" />
	</node>
	<node id="-483196" lat="60.608099998" lon="4.9504638863">
		<tag k="name" v="Havnefjellet" />
		<tag k="natural" v="hill" />
		<tag k="place" v="locality" />
		<tag k="ssr:stedsnr" v="85630" />
	</node>
	<node id="-483194" lat="60.5472722216" lon="5.04359721372">
		<tag k="name" v="Odden" />
		<tag k="natural" v="cape" />
		<tag k="ssr:stedsnr" v="85511" />
	</node>
	<node id="-483193" lat="60.5562027817" lon="5.01986389503">
		<tag k="name" v="Grønhøyen" />
		<tag k="natural" v="hill" />
		<tag k="place" v="locality" />
		<tag k="ssr:stedsnr" v="85508" />
	</node>
	<node id="-483192" lat="60.5076638909" lon="5.23925556375">
		<tag k="name" v="Løypetona" />
		<tag k="natural" v="cape" />
		<tag k="ssr:stedsnr" v="85452" />
	</node>
	<node id="-483191" lat="60.5358861074" lon="5.24873054755">
		<tag k="name" v="Gudmundsholmen" />
		<tag k="place" v="islet" />
		<tag k="ssr:stedsnr" v="85436" />
	</node>
	<node id="-483190" lat="60.6082000026" lon="5.01030277832">
		<tag k="name" v="Kårbøvågen" />
		<tag k="natural" v="bay" />
		<tag k="ssr:stedsnr" v="67952" />
	</node>
	<node id="-483189" lat="60.6099916709" lon="5.03715278095">
		<tag k="name" v="Gjerdevågen" />
		<tag k="natural" v="bay" />
		<tag k="ssr:stedsnr" v="67948" />
	</node>
	<node id="-483188" lat="60.6067249969" lon="4.98775555563">
		<tag k="name" v="Vika" />
		<tag k="natural" v="bay" />
		<tag k="ssr:stedsnr" v="67945" />
	</node>
	<node id="-483187" lat="60.5119749997" lon="5.22949444906">
		<tag k="fixme" v="consider place=suburb, village or hamlet" />
		<tag k="name" v="Vikane" />
		<tag k="place" v="quarter" />
		<tag k="ssr:stedsnr" v="67516" />
	</node>
	<node id="-483186" lat="60.5529138891" lon="5.23731944664">
		<tag k="name" v="Ospholmflua" />
		<tag k="natural" v="shoal" />
		<tag k="place" v="locality" />
		<tag k="ssr:stedsnr" v="67111" />
	</node>
	<node id="-483185" lat="60.5553703343" lon="5.21222365977">
		<tag k="name" v="Skarpeneset" />
		<tag k="place" v="hamlet" />
		<tag k="ssr:stedsnr" v="67105" />
	</node>
	<node id="-483184" lat="60.555154621" lon="5.13074528578">
		<tag k="fixme" v="consider place=hamlet" />
		<tag k="name" v="Sjurdal" />
		<tag k="place" v="farm" />
		<tag k="ssr:stedsnr" v="67098" />
	</node>
	<node id="-483183" lat="60.5579120684" lon="5.11256644021">
		<tag k="fixme" v="consider place=hamlet" />
		<tag k="name" v="Bjørndal" />
		<tag k="place" v="farm" />
		<tag k="ssr:stedsnr" v="67087" />
	</node>
	<node id="-483182" lat="60.5702385457" lon="5.07845990232">
		<tag k="alt_name" v="Åsbø" />
		<tag k="fixme" v="consider place=hamlet" />
		<tag k="name" v="Åsebø" />
		<tag k="place" v="farm" />
		<tag k="ssr:stedsnr" v="66909" />
	</node>
	<node id="-483181" lat="60.5613694461" lon="5.05155000805">
		<tag k="fixme" v="consider place=suburb, village or hamlet" />
		<tag k="name" v="Vikebø" />
		<tag k="place" v="quarter" />
		<tag k="ssr:stedsnr" v="66904" />
	</node>
	<node id="-483180" lat="60.5506027753" lon="5.05388054859">
		<tag k="fixme" v="consider natural=peak for the most distinct mountains in the district" />
		<tag k="name" v="Lifjellet" />
		<tag k="natural" v="hill" />
		<tag k="place" v="locality" />
		<tag k="ssr:stedsnr" v="66902" />
	</node>
	<node id="-483179" lat="60.5208363255" lon="5.23158756762">
		<tag k="fixme" v="consider place=hamlet" />
		<tag k="name" v="Langeland" />
		<tag k="place" v="farm" />
		<tag k="ssr:stedsnr" v="66364" />
	</node>
	<node id="-483178" lat="60.5981444414" lon="5.00405554868">
		<tag k="name" v="Brotshaug" />
		<tag k="place" v="farm" />
		<tag k="ssr:stedsnr" v="52264" />
	</node>
	<node id="-483177" lat="60.5652583319" lon="5.13154999375">
		<tag k="fixme" v="consider natural=peak for the most distinct mountains in the district" />
		<tag k="name" v="Brunåsen" />
		<tag k="natural" v="hill" />
		<tag k="place" v="locality" />
		<tag k="ssr:stedsnr" v="46503" />
	</node>
	<node id="-483176" lat="60.5721472218" lon="5.14552500358">
		<tag k="fixme" v="consider natural=peak for the most distinct mountains in the district" />
		<tag k="name" v="Stemmerinden" />
		<tag k="natural" v="hill" />
		<tag k="place" v="locality" />
		<tag k="ssr:stedsnr" v="46504" />
	</node>
	<node id="-483175" lat="60.5821861068" lon="5.15387222231">
		<tag k="fixme" v="consider natural=peak for the most distinct mountains in the district" />
		<tag k="name" v="Erdalsleitet" />
		<tag k="natural" v="hill" />
		<tag k="place" v="locality" />
		<tag k="ssr:stedsnr" v="46502" />
	</node>
	<node id="-483174" lat="60.5802388884" lon="5.12203611201">
		<tag k="name" v="Setrehøyen" />
		<tag k="natural" v="hill" />
		<tag k="place" v="locality" />
		<tag k="ssr:stedsnr" v="46494" />
	</node>
	<node id="-483173" lat="60.5622568729" lon="5.15073015314">
		<tag k="name" v="Hestdalsvatnet" />
		<tag k="natural" v="water" />
		<tag k="ssr:stedsnr" v="46491" />
	</node>
	<node id="-483172" lat="60.5393833306" lon="5.06525555019">
		<tag k="name" v="Rotvika" />
		<tag k="natural" v="bay" />
		<tag k="ssr:stedsnr" v="46477" />
	</node>
	<node id="-483171" lat="60.6107333292" lon="5.02534721799">
		<tag k="name" v="Gutholmen" />
		<tag k="place" v="islet" />
		<tag k="ssr:stedsnr" v="46471" />
	</node>
	<node id="-483170" lat="60.6048111099" lon="5.05379721906">
		<tag k="name" v="Landsvik" />
		<tag k="place" v="farm" />
		<tag k="ssr:stedsnr" v="46465" />
	</node>
	<node id="-483169" lat="60.5670249971" lon="5.17528333482">
		<tag k="fixme" v="consider natural=peak for the most distinct mountains in the district" />
		<tag k="name" v="Kyrkjeleitet" />
		<tag k="natural" v="hill" />
		<tag k="place" v="locality" />
		<tag k="ssr:stedsnr" v="46455" />
	</node>
	<node id="-483168" lat="60.5639500025" lon="5.17443610701">
		<tag k="name" v="Halvgje" />
		<tag k="natural" v="hill" />
		<tag k="place" v="locality" />
		<tag k="ssr:stedsnr" v="46453" />
	</node>
	<node id="-483167" lat="60.603451621" lon="4.99376706575">
		<tag k="fixme" v="consider place=hamlet" />
		<tag k="name" v="Husebø" />
		<tag k="place" v="farm" />
		<tag k="ssr:stedsnr" v="46442" />
	</node>
	<node id="-483166" lat="60.6098861141" lon="4.98701944193">
		<tag k="fixme" v="consider seamark:type=rock or natural=shoal" />
		<tag k="name" v="Lyrskjeret" />
		<tag k="place" v="islet" />
		<tag k="ssr:stedsnr" v="46433" />
	</node>
	<node id="-483165" lat="60.5218777756" lon="5.2001416707">
		<tag k="fixme" v="consider natural=peak for the most distinct mountains in the district" />
		<tag k="name" v="Sandskarfjellet" />
		<tag k="natural" v="hill" />
		<tag k="place" v="locality" />
		<tag k="ssr:stedsnr" v="46423" />
	</node>
	<node id="-483164" lat="60.5208583312" lon="5.18130555324">
		<tag k="name" v="Storamyra" />
		<tag k="natural" v="wetland" />
		<tag k="ssr:stedsnr" v="46416" />
	</node>
	<node id="-483163" lat="60.5375361071" lon="5.12800277322">
		<tag k="name" v="Hjelpedalen" />
		<tag k="natural" v="valley" />
		<tag k="place" v="locality" />
		<tag k="ssr:stedsnr" v="46402" />
	</node>
	<node id="-483162" lat="60.5526166638" lon="5.05433334142">
		<tag k="name" v="Prestvarden" />
		<tag k="natural" v="hill" />
		<tag k="place" v="locality" />
		<tag k="ssr:stedsnr" v="46379" />
	</node>
	<node id="-483161" lat="60.5453999992" lon="5.05503055257">
		<tag k="name" v="Ormhøyen" />
		<tag k="natural" v="hill" />
		<tag k="place" v="locality" />
		<tag k="ssr:stedsnr" v="46377" />
	</node>
	<node id="-483160" lat="60.5832833339" lon="5.01879444037">
		<tag k="name" v="Rundehøyen" />
		<tag k="natural" v="hill" />
		<tag k="place" v="locality" />
		<tag k="ssr:stedsnr" v="46371" />
	</node>
	<node id="-483159" lat="60.5850138865" lon="5.02581667185">
		<tag k="name" v="Nonstona" />
		<tag k="natural" v="hill" />
		<tag k="place" v="locality" />
		<tag k="ssr:stedsnr" v="46368" />
	</node>
	<node id="-483158" lat="60.5828812311" lon="5.03577332817">
		<tag k="name" v="Trippesteintjørna" />
		<tag k="natural" v="water" />
		<tag k="ssr:stedsnr" v="46359" />
	</node>
	<node id="-483157" lat="60.5876055547" lon="5.03637499508">
		<tag k="fixme" v="consider natural=peak for the most distinct mountains in the district" />
		<tag k="name" v="Såta" />
		<tag k="natural" v="hill" />
		<tag k="place" v="locality" />
		<tag k="ssr:stedsnr" v="46357" />
	</node>
	<node id="-483156" lat="60.5846777804" lon="5.07076666133">
		<tag k="name" v="Landsviklia" />
		<tag k="natural" v="slope" />
		<tag k="place" v="locality" />
		<tag k="ssr:stedsnr" v="46334" />
	</node>
	<node id="-483155" lat="60.5731138854" lon="5.05091111581">
		<tag k="name" v="Porsmyra" />
		<tag k="natural" v="wetland" />
		<tag k="ssr:stedsnr" v="46309" />
	</node>
	<node id="-483154" lat="60.5332555547" lon="5.25294166328">
		<tag k="name" v="Notaneset" />
		<tag k="natural" v="cape" />
		<tag k="ssr:stedsnr" v="46284" />
	</node>
	<node id="-483153" lat="60.5547138856" lon="5.11648332792">
		<tag k="fixme" v="consider natural=peak for the most distinct mountains in the district" />
		<tag k="name" v="Rundefjellet" />
		<tag k="natural" v="hill" />
		<tag k="place" v="locality" />
		<tag k="ssr:stedsnr" v="45461" />
	</node>
	<node id="-483152" lat="60.5546166629" lon="5.11550278232">
		<tag k="name" v="Storedalen" />
		<tag k="natural" v="valley" />
		<tag k="place" v="locality" />
		<tag k="ssr:stedsnr" v="45459" />
	</node>
	<node id="-483151" lat="60.5136303469" lon="5.23800503613">
		<tag k="fixme" v="consider place=hamlet" />
		<tag k="name" v="Frekhaug" />
		<tag k="place" v="farm" />
		<tag k="ssr:stedsnr" v="45265" />
	</node>
	<node id="-483150" lat="60.5449777781" lon="5.26816110491">
		<tag k="name" v="Storebogen" />
		<tag k="natural" v="bay" />
		<tag k="ssr:stedsnr" v="45261" />
	</node>
	<node id="-483149" lat="60.5470500003" lon="5.23667500623">
		<tag k="fixme" v="consider natural=peak for the most distinct mountains in the district" />
		<tag k="name" v="Håøytoppen" />
		<tag k="natural" v="hill" />
		<tag k="ssr:stedsnr" v="45252" />
	</node>
	<node id="-483148" lat="60.5628583378" lon="5.19374722919">
		<tag k="name" v="Hushøyen" />
		<tag k="natural" v="hill" />
		<tag k="place" v="locality" />
		<tag k="ssr:stedsnr" v="45245" />
	</node>
	<node id="-483147" lat="60.5095555587" lon="5.23143611545">
		<tag k="name" v="Elvavika" />
		<tag k="natural" v="bay" />
		<tag k="ssr:stedsnr" v="45020" />
	</node>
	<node id="-483146" lat="60.5129055509" lon="5.19305277002">
		<tag k="name" v="Holsberget" />
		<tag k="natural" v="hill" />
		<tag k="place" v="locality" />
		<tag k="ssr:stedsnr" v="45019" />
	</node>
	<node id="-483145" lat="60.5150972236" lon="5.21665277322">
		<tag k="fixme" v="consider natural=peak for the most distinct mountains in the district" />
		<tag k="name" v="Sveåsen" />
		<tag k="natural" v="hill" />
		<tag k="place" v="locality" />
		<tag k="ssr:stedsnr" v="45006" />
	</node>
	<node id="-483144" lat="60.5526027793" lon="5.22923334018">
		<tag k="name" v="Kvernaflua" />
		<tag k="place" v="locality" />
		<tag k="seamark:type" v="rock" />
		<tag k="ssr:stedsnr" v="44224" />
	</node>
	<node id="-483143" lat="60.5682388387" lon="5.08642479709">
		<tag k="name" v="Rundehøyen" />
		<tag k="natural" v="hill" />
		<tag k="place" v="locality" />
		<tag k="ssr:stedsnr" v="44077" />
	</node>
	<node id="-483142" lat="60.5723541722" lon="5.08758236996">
		<tag k="name" v="Kjeholmen" />
		<tag k="place" v="islet" />
		<tag k="ssr:stedsnr" v="44074" />
	</node>
	<node id="-483141" lat="60.5562805542" lon="5.2158250032">
		<tag k="name" v="Skolten" />
		<tag k="place" v="farm" />
		<tag k="ssr:stedsnr" v="44056" />
	</node>
	<node id="-483140" lat="60.552552776" lon="5.21945555961">
		<tag k="name" v="Svartaberget" />
		<tag k="natural" v="hill" />
		<tag k="place" v="locality" />
		<tag k="ssr:stedsnr" v="44057" />
	</node>
	<node id="-483139" lat="60.5546388902" lon="5.14572499188">
		<tag k="name" v="Storamyra" />
		<tag k="natural" v="wetland" />
		<tag k="ssr:stedsnr" v="44013" />
	</node>
	<node id="-483138" lat="60.5301277808" lon="5.1339305502">
		<tag k="name" v="Orrhøyen" />
		<tag k="place" v="quarter" />
		<tag k="ssr:stedsnr" v="40061" />
	</node>
	<node id="-483137" lat="60.5850777823" lon="5.13720556243">
		<tag k="name" v="Søre Ådland" />
		<tag k="place" v="farm" />
		<tag k="ssr:stedsnr" v="29637" />
	</node>
	<node id="-483136" lat="60.5344785869" lon="5.19977929989">
		<tag k="fixme" v="consider place=hamlet" />
		<tag k="name" v="Øvre Sagstad" />
		<tag k="place" v="farm" />
		<tag k="ssr:stedsnr" v="29636" />
	</node>
	<node id="-483135" lat="60.5919944437" lon="5.09333610741">
		<tag k="name" v="Ytra Kylpa" />
		<tag k="natural" v="bay" />
		<tag k="ssr:stedsnr" v="25667" />
	</node>
	<node id="-483134" lat="60.5688750026" lon="5.0321111127">
		<tag k="name" v="Kippevikholmen" />
		<tag k="place" v="islet" />
		<tag k="ssr:stedsnr" v="25583" />
	</node>
	<node id="-483133" lat="60.5619750025" lon="5.04221667043">
		<tag k="name" v="Rylandsvågen" />
		<tag k="natural" v="bay" />
		<tag k="ssr:stedsnr" v="25582" />
	</node>
	<node id="-483132" lat="60.5998722259" lon="4.96491666963">
		<tag k="name" v="Såtene" />
		<tag k="natural" v="hill" />
		<tag k="place" v="locality" />
		<tag k="ssr:stedsnr" v="24679" />
	</node>
	<node id="-483131" lat="60.6055361091" lon="4.94773056166">
		<tag k="fixme" v="consider seamark:type=rock or natural=shoal" />
		<tag k="name" v="Storskjeret" />
		<tag k="place" v="islet" />
		<tag k="ssr:stedsnr" v="24673" />
	</node>
	<node id="-483130" lat="60.5345888855" lon="5.25948056262">
		<tag k="fixme" v="consider place=suburb, village or hamlet" />
		<tag k="name" v="Flatøy" />
		<tag k="place" v="quarter" />
		<tag k="ssr:stedsnr" v="24526" />
	</node>
	<node id="-483129" lat="60.5567499997" lon="5.00087776879">
		<tag k="name" v="Øpso" />
		<tag k="place" v="island" />
		<tag k="ssr:stedsnr" v="6927" />
	</node>
	<node id="-483128" lat="60.5608277738" lon="5.02119444707">
		<tag k="name" v="Io" />
		<tag k="place" v="hamlet" />
		<tag k="ssr:stedsnr" v="6922" />
	</node>
	<node id="-483127" lat="60.5504805571" lon="5.04057500556">
		<tag k="name" v="Eikeland" />
		<tag k="place" v="hamlet" />
		<tag k="ssr:stedsnr" v="6918" />
	</node>
	<node id="-483126" lat="60.5801888875" lon="5.16453888385">
		<tag k="name" v="Einhøyen" />
		<tag k="place" v="farm" />
		<tag k="ssr:stedsnr" v="6124" />
	</node>
	<node id="-483125" lat="60.5485666625" lon="5.12853055871">
		<tag k="fixme" v="consider natural=peak for the most distinct mountains in the district" />
		<tag k="name" v="Brakstadfjellet" />
		<tag k="natural" v="hill" />
		<tag k="place" v="locality" />
		<tag k="ssr:stedsnr" v="6095" />
	</node>
	<node id="-483124" lat="60.5323444475" lon="5.10971110962">
		<tag k="name" v="Niso" />
		<tag k="natural" v="hill" />
		<tag k="place" v="locality" />
		<tag k="ssr:stedsnr" v="267557" />
	</node>
	<node id="-483123" lat="60.5680916641" lon="5.04449999364">
		<tag k="name" v="Mjølkevika" />
		<tag k="natural" v="bay" />
		<tag k="ssr:stedsnr" v="267549" />
	</node>
	<node id="-483122" lat="60.5699000028" lon="5.02365833846">
		<tag k="name" v="Skurtveiteidet" />
		<tag k="natural" v="strait" />
		<tag k="ssr:stedsnr" v="267544" />
	</node>
	<node id="-483121" lat="60.5347416629" lon="5.27101111078">
		<tag k="name" v="Lakseneset" />
		<tag k="natural" v="cape" />
		<tag k="ssr:stedsnr" v="267481" />
	</node>
	<node id="-483120" lat="60.570425" lon="5.18894722968">
		<tag k="name" v="Søra Merkesvika" />
		<tag k="natural" v="bay" />
		<tag k="old_name" v="Søra Merkesvik" />
		<tag k="ssr:stedsnr" v="267470" />
	</node>
	<node id="-483119" lat="60.5372910955" lon="5.10516624576">
		<tag k="fixme" v="consider place=hamlet" />
		<tag k="name" v="Fløksand" />
		<tag k="place" v="farm" />
		<tag k="ssr:stedsnr" v="989699" />
	</node>
	<node id="-483118" lat="60.5988676303" lon="4.95852692315">
		<tag k="name" v="Skjeljangssundet" />
		<tag k="natural" v="strait" />
		<tag k="ssr:stedsnr" v="1072074" />
	</node>
	<node id="-483117" lat="60.5336583375" lon="5.11721666535">
		<tag k="bridge" v="yes" />
		<tag k="layer" v="1" />
		<tag k="name" v="Fløksandselva" />
		<tag k="ssr:stedsnr" v="897004" />
	</node>
	<node id="-483116" lat="60.5774388847" lon="5.15706388135">
		<tag k="name" v="Storhøyen" />
		<tag k="natural" v="hill" />
		<tag k="place" v="locality" />
		<tag k="ssr:stedsnr" v="896489" />
	</node>
	<node id="-483115" lat="60.5741361101" lon="5.1189472264">
		<tag k="name" v="Storavatnet" />
		<tag k="natural" v="water" />
		<tag k="ssr:stedsnr" v="896485" />
		<tag k="water" v="lake" />
	</node>
	<node id="-483114" lat="60.6062916701" lon="5.00086944267">
		<tag k="name" v="Lyngholmen" />
		<tag k="place" v="islet" />
		<tag k="ssr:stedsnr" v="896448" />
	</node>
	<node id="-483113" lat="60.5561194462" lon="5.06643055848">
		<tag k="name" v="Nordrestøa" />
		<tag k="natural" v="cape" />
		<tag k="ssr:stedsnr" v="895475" />
	</node>
	<node id="-483112" lat="60.556169441" lon="5.06065832495">
		<tag k="fixme" v="consider place=hamlet" />
		<tag k="name" v="Ryland" />
		<tag k="place" v="farm" />
		<tag k="ssr:stedsnr" v="895442" />
	</node>
	<node id="-483111" lat="60.5305249964" lon="5.17113333685">
		<tag k="fixme" v="consider natural=peak for the most distinct mountains in the district" />
		<tag k="name" v="Hustopta" />
		<tag k="natural" v="hill" />
		<tag k="place" v="locality" />
		<tag k="ssr:stedsnr" v="895411" />
	</node>
	<node id="-483110" lat="60.5824083333" lon="5.11827222037">
		<tag k="name" v="Mjåvatsrinden" />
		<tag k="place" v="locality" />
		<tag k="ssr:stedsnr" v="895400" />
	</node>
	<node id="-483109" lat="60.6105638903" lon="4.98620278294">
		<tag k="fixme" v="consider seamark:type=rock or natural=shoal" />
		<tag k="name" v="Stora Lyrskjeret" />
		<tag k="place" v="islet" />
		<tag k="ssr:stedsnr" v="895392" />
	</node>
	<node id="-483108" lat="60.5273972217" lon="5.20019722308">
		<tag k="name" v="Stemmebakkane" />
		<tag k="natural" v="slope" />
		<tag k="place" v="locality" />
		<tag k="ssr:stedsnr" v="895383" />
	</node>
	<node id="-483107" lat="60.5583527749" lon="5.04540554974">
		<tag k="name" v="Leirdalen" />
		<tag k="natural" v="valley" />
		<tag k="place" v="locality" />
		<tag k="ssr:stedsnr" v="895344" />
	</node>
	<node id="-483106" lat="60.5451972206" lon="5.04914166663">
		<tag k="name" v="Langemyra" />
		<tag k="natural" v="wetland" />
		<tag k="ssr:stedsnr" v="895339" />
	</node>
	<node id="-483105" lat="60.5932500007" lon="5.01175833435">
		<tag k="fixme" v="consider natural=peak for the most distinct mountains in the district" />
		<tag k="name" v="Dyrnipa" />
		<tag k="natural" v="hill" />
		<tag k="place" v="locality" />
		<tag k="ssr:stedsnr" v="895335" />
	</node>
	<node id="-483104" lat="60.5360722226" lon="5.27142500833">
		<tag k="name" v="Austegardsfjæra" />
		<tag k="natural" v="bay" />
		<tag k="ssr:stedsnr" v="895318" />
	</node>
	<node id="-483103" lat="60.5845888856" lon="4.99583611298">
		<tag k="name" v="Skorpesundet" />
		<tag k="natural" v="strait" />
		<tag k="ssr:stedsnr" v="895309" />
	</node>
	<node id="-483102" lat="60.5590794739" lon="5.11470103395">
		<tag k="name" v="Bjørndalstjørna" />
		<tag k="natural" v="water" />
		<tag k="ssr:stedsnr" v="896534" />
	</node>
	<node id="-483101" lat="60.55223056" lon="5.11039444972">
		<tag k="name" v="Middagshøyen" />
		<tag k="natural" v="hill" />
		<tag k="place" v="locality" />
		<tag k="ssr:stedsnr" v="896508" />
	</node>
	<node id="-483100" lat="60.5568249992" lon="5.01120555095">
		<tag k="fixme" v="consider seamark:type=rock or natural=shoal" />
		<tag k="name" v="Indreskjeret" />
		<tag k="place" v="islet" />
		<tag k="ssr:stedsnr" v="895292" />
	</node>
	<node id="-483099" lat="60.5749694404" lon="5.01543055649">
		<tag k="name" v="Garnvika" />
		<tag k="natural" v="bay" />
		<tag k="ssr:stedsnr" v="895281" />
	</node>
	<node id="-483098" lat="60.5393083301" lon="5.09584999356">
		<tag k="name" v="Træna" />
		<tag k="place" v="farm" />
		<tag k="ssr:stedsnr" v="895268" />
	</node>
	<node id="-483097" lat="60.535269443" lon="5.23901110472">
		<tag k="name" v="Fossemarka" />
		<tag k="place" v="locality" />
		<tag k="ssr:stedsnr" v="895266" />
	</node>
	<node id="-483096" lat="60.5397833296" lon="5.24004721512">
		<tag k="name" v="Sunde" />
		<tag k="place" v="farm" />
		<tag k="ssr:stedsnr" v="895260" />
	</node>
	<node id="-483095" lat="60.557405557" lon="5.06634722661">
		<tag k="name" v="Klubben" />
		<tag k="natural" v="cape" />
		<tag k="ssr:stedsnr" v="894775" />
	</node>
	<node id="-483094" lat="60.5516693997" lon="5.0391826978">
		<tag k="fixme" v="consider place=hamlet" />
		<tag k="name" v="Eikeland" />
		<tag k="place" v="farm" />
		<tag k="ssr:stedsnr" v="894197" />
	</node>
	<node id="-483093" lat="60.570780558" lon="5.04090277909">
		<tag k="name" v="Skurtveit" />
		<tag k="place" v="hamlet" />
		<tag k="ssr:stedsnr" v="894132" />
	</node>
	<node id="-483092" lat="60.568813888" lon="5.06552500828">
		<tag k="name" v="Stokkedalen" />
		<tag k="natural" v="valley" />
		<tag k="place" v="locality" />
		<tag k="ssr:stedsnr" v="894094" />
	</node>
	<node id="-483091" lat="60.5481749971" lon="5.20433333061">
		<tag k="fixme" v="consider natural=peak for the most distinct mountains in the district" />
		<tag k="name" v="Orråsen" />
		<tag k="natural" v="hill" />
		<tag k="place" v="locality" />
		<tag k="ssr:stedsnr" v="894077" />
	</node>
	<node id="-483090" lat="60.5693434812" lon="5.11377319617">
		<tag k="fixme" v="consider natural=peak for the most distinct mountains in the district" />
		<tag k="name" v="Minneshammaren" />
		<tag k="natural" v="hill" />
		<tag k="ssr:stedsnr" v="894078" />
	</node>
	<node id="-483089" lat="60.5493250041" lon="5.20313611702">
		<tag k="name" v="Setre" />
		<tag k="place" v="locality" />
		<tag k="ssr:stedsnr" v="894074" />
	</node>
	<node id="-483088" lat="60.5473111086" lon="5.19520833213">
		<tag k="name" v="Flatane" />
		<tag k="place" v="locality" />
		<tag k="ssr:stedsnr" v="894072" />
	</node>
	<node id="-483087" lat="60.5585472198" lon="5.20355000672">
		<tag k="fixme" v="consider natural=peak for the most distinct mountains in the district" />
		<tag k="name" v="Litleåsen" />
		<tag k="natural" v="hill" />
		<tag k="place" v="locality" />
		<tag k="ssr:stedsnr" v="894058" />
	</node>
	<node id="-483086" lat="60.5541333337" lon="5.18179444837">
		<tag k="name" v="Fitjane" />
		<tag k="place" v="locality" />
		<tag k="ssr:stedsnr" v="894040" />
	</node>
	<node id="-483085" lat="60.5591527811" lon="5.1365000002">
		<tag k="name" v="Klubben" />
		<tag k="place" v="farm" />
		<tag k="ssr:stedsnr" v="894034" />
	</node>
	<node id="-483084" lat="60.5092638902" lon="5.22379167547">
		<tag k="name" v="Juviknipa" />
		<tag k="natural" v="hill" />
		<tag k="place" v="locality" />
		<tag k="ssr:stedsnr" v="894008" />
	</node>
	<node id="-483083" lat="60.6023527773" lon="5.06603055945">
		<tag k="name" v="Naustvika" />
		<tag k="natural" v="bay" />
		<tag k="ssr:stedsnr" v="895308" />
	</node>
	<node id="-483082" lat="60.5576361114" lon="5.05385000221">
		<tag k="name" v="Rylandshøgda" />
		<tag k="place" v="quarter" />
		<tag k="ssr:stedsnr" v="890068" />
	</node>
	<node id="-483081" lat="60.5530305579" lon="5.21793889288">
		<tag k="name" v="Heiane" />
		<tag k="place" v="quarter" />
		<tag k="ssr:stedsnr" v="890016" />
	</node>
	<node id="-483080" lat="60.5459916698" lon="5.08765000734">
		<tag k="fixme" v="consider natural=peak for the most distinct mountains in the district" />
		<tag k="name" v="Smååsane" />
		<tag k="natural" v="hill" />
		<tag k="place" v="locality" />
		<tag k="ssr:stedsnr" v="410522" />
	</node>
	<node id="-483079" lat="60.5457666639" lon="5.06675555164">
		<tag k="name" v="Vassvika" />
		<tag k="natural" v="bay" />
		<tag k="ssr:stedsnr" v="410456" />
	</node>
	<node id="-483078" lat="60.6079055559" lon="5.00677778651">
		<tag k="name" v="Odden" />
		<tag k="place" v="islet" />
		<tag k="ssr:stedsnr" v="410447" />
	</node>
	<node id="-483077" lat="60.5254722239" lon="5.18763610229">
		<tag k="name" v="Raudmyra" />
		<tag k="natural" v="wetland" />
		<tag k="ssr:stedsnr" v="410407" />
	</node>
	<node id="-483076" lat="60.597977782" lon="5.00835277682">
		<tag k="name" v="Seljehøyen" />
		<tag k="natural" v="hill" />
		<tag k="place" v="locality" />
		<tag k="ssr:stedsnr" v="410364" />
	</node>
	<node id="-483075" lat="60.5970333332" lon="5.00925555685">
		<tag k="name" v="Stemmehøyen" />
		<tag k="natural" v="hill" />
		<tag k="place" v="locality" />
		<tag k="ssr:stedsnr" v="410362" />
	</node>
	<node id="-483074" lat="60.6006388892" lon="5.04330277634">
		<tag k="name" v="Kollhaugane" />
		<tag k="natural" v="hill" />
		<tag k="place" v="locality" />
		<tag k="ssr:stedsnr" v="410360" />
	</node>
	<node id="-483073" lat="60.5582388861" lon="5.0167111153">
		<tag k="name" v="Ieneset" />
		<tag k="natural" v="cape" />
		<tag k="ssr:stedsnr" v="410338" />
	</node>
	<node id="-483072" lat="60.5907305514" lon="5.07498055299">
		<tag k="name" v="Klokkaren" />
		<tag k="natural" v="hill" />
		<tag k="place" v="locality" />
		<tag k="ssr:stedsnr" v="410334" />
	</node>
	<node id="-483071" lat="60.5519117703" lon="5.02024569794">
		<tag k="name" v="Søreklubben" />
		<tag k="natural" v="cape" />
		<tag k="ssr:stedsnr" v="410327" />
	</node>
	<node id="-483070" lat="60.5785555526" lon="5.01259722322">
		<tag k="name" v="Åvneset" />
		<tag k="natural" v="cape" />
		<tag k="ssr:stedsnr" v="410317" />
	</node>
	<node id="-483069" lat="60.561680557" lon="4.99475555464">
		<tag k="name" v="Laksenesest" />
		<tag k="natural" v="cape" />
		<tag k="ssr:stedsnr" v="410310" />
	</node>
	<node id="-483068" lat="60.5392888915" lon="5.23725278408">
		<tag k="name" v="Teigane" />
		<tag k="natural" v="hill" />
		<tag k="place" v="locality" />
		<tag k="ssr:stedsnr" v="410302" />
	</node>
	<node id="-483067" lat="60.5368416686" lon="5.24352777103">
		<tag k="name" v="Jektevika" />
		<tag k="natural" v="bay" />
		<tag k="ssr:stedsnr" v="410292" />
	</node>
	<node id="-483066" lat="60.5150138888" lon="5.24673054734">
		<tag k="name" v="Vardnappen" />
		<tag k="natural" v="cape" />
		<tag k="ssr:stedsnr" v="410288" />
	</node>
	<node id="-483065" lat="60.5636277817" lon="5.04263333588">
		<tag k="name" v="Saueneset" />
		<tag k="natural" v="cape" />
		<tag k="ssr:stedsnr" v="410250" />
	</node>
	<node id="-483064" lat="60.563744445" lon="5.04762499202">
		<tag k="name" v="Storavika" />
		<tag k="natural" v="bay" />
		<tag k="ssr:stedsnr" v="410249" />
	</node>
	<node id="-483063" lat="60.5725083375" lon="5.18339443538">
		<tag k="name" v="Utrenna" />
		<tag k="natural" v="bay" />
		<tag k="ssr:stedsnr" v="410246" />
	</node>
	<node id="-483062" lat="60.5695611083" lon="5.06092221351">
		<tag k="name" v="Mattishøyen" />
		<tag k="natural" v="hill" />
		<tag k="place" v="locality" />
		<tag k="ssr:stedsnr" v="409111" />
	</node>
	<node id="-483061" lat="60.5650361108" lon="5.10013889682">
		<tag k="name" v="Oneset" />
		<tag k="place" v="farm" />
		<tag k="ssr:stedsnr" v="409097" />
	</node>
	<node id="-483060" lat="60.5513722242" lon="5.22187499632">
		<tag k="bay" v="fjord" />
		<tag k="name" v="Grasdalssjøen" />
		<tag k="natural" v="bay" />
		<tag k="ssr:stedsnr" v="409061" />
	</node>
	<node id="-483059" lat="60.5541333359" lon="5.17713888643">
		<tag k="fixme" v="consider natural=peak for the most distinct mountains in the district" />
		<tag k="name" v="Hestnesåsen" />
		<tag k="natural" v="hill" />
		<tag k="place" v="locality" />
		<tag k="ssr:stedsnr" v="409041" />
	</node>
	<node id="-483058" lat="60.5933472256" lon="5.13624166204">
		<tag k="name" v="Kyrkjesundet" />
		<tag k="natural" v="strait" />
		<tag k="ssr:stedsnr" v="408506" />
	</node>
	<node id="-483057" lat="60.5516694482" lon="5.13401388702">
		<tag k="name" v="Sjurdalsleitet" />
		<tag k="place" v="locality" />
		<tag k="ssr:stedsnr" v="408028" />
	</node>
	<node id="-483056" lat="60.5130403639" lon="5.22547281502">
		<tag k="name" v="Mjåtveittjørna" />
		<tag k="natural" v="water" />
		<tag k="ssr:stedsnr" v="408007" />
	</node>
	<node id="-483055" lat="60.515880556" lon="5.22876666134">
		<tag k="name" v="Lynghøyen" />
		<tag k="natural" v="hill" />
		<tag k="place" v="locality" />
		<tag k="ssr:stedsnr" v="408006" />
	</node>
	<node id="-483054" lat="60.5147111114" lon="5.20945276976">
		<tag k="name" v="Sedalen" />
		<tag k="natural" v="valley" />
		<tag k="place" v="locality" />
		<tag k="ssr:stedsnr" v="408003" />
	</node>
	<node id="-483053" lat="60.5139833333" lon="5.19485833128">
		<tag k="name" v="Dalemarka" />
		<tag k="place" v="quarter" />
		<tag k="ssr:stedsnr" v="404045" />
	</node>
	<node id="-483052" lat="60.5118888922" lon="5.24051667108">
		<tag k="name" v="Jonsokgrenda" />
		<tag k="place" v="quarter" />
		<tag k="ssr:stedsnr" v="404008" />
	</node>
	<node id="-483051" lat="60.5442166649" lon="5.15099166752">
		<tag k="name" v="Øvre Tveit" />
		<tag k="place" v="farm" />
		<tag k="ssr:stedsnr" v="393680" />
	</node>
	<node id="-483050" lat="60.5331421746" lon="5.20750592147">
		<tag k="fixme" v="consider place=hamlet" />
		<tag k="name" v="Nedre Sagstad" />
		<tag k="place" v="farm" />
		<tag k="ssr:stedsnr" v="393630" />
	</node>
	<node id="-483049" lat="60.5949499958" lon="4.96269722577">
		<tag k="name" v="Ringholmen" />
		<tag k="place" v="islet" />
		<tag k="ssr:stedsnr" v="388672" />
	</node>
	<node id="-483048" lat="60.5388111112" lon="5.21259444747">
		<tag k="name" v="Krossfjellet" />
		<tag k="natural" v="hill" />
		<tag k="place" v="locality" />
		<tag k="ssr:stedsnr" v="388486" />
	</node>
	<node id="-483047" lat="60.5307777792" lon="5.25680000383">
		<tag k="name" v="Krossneset" />
		<tag k="natural" v="cape" />
		<tag k="ssr:stedsnr" v="371030" />
	</node>
	<node id="-483046" lat="60.5755361156" lon="5.03123889429">
		<tag k="fixme" v="consider natural=peak for the most distinct mountains in the district" />
		<tag k="name" v="Storhøyen" />
		<tag k="natural" v="hill" />
		<tag k="place" v="locality" />
		<tag k="ssr:stedsnr" v="371025" />
	</node>
	<node id="-483045" lat="60.6126416649" lon="5.03483055229">
		<tag k="name" v="Kvalen" />
		<tag k="place" v="islet" />
		<tag k="ssr:stedsnr" v="370954" />
	</node>
	<node id="-483044" lat="60.6045444449" lon="4.99320555507">
		<tag k="name" v="Husebø" />
		<tag k="place" v="hamlet" />
		<tag k="ssr:stedsnr" v="370943" />
	</node>
	<node id="-483043" lat="60.5430361114" lon="5.13630833081">
		<tag k="name" v="Brakstadvatnet" />
		<tag k="natural" v="water" />
		<tag k="ssr:stedsnr" v="370469" />
	</node>
	<node id="-483042" lat="60.5372333292" lon="5.14730832516">
		<tag k="name" v="Storfjellet" />
		<tag k="natural" v="hill" />
		<tag k="place" v="locality" />
		<tag k="ssr:stedsnr" v="370454" />
	</node>
	<node id="-483041" lat="60.5679444453" lon="5.17022500727">
		<tag k="name" v="Gaustadelva" />
		<tag k="ssr:stedsnr" v="370150" />
		<tag k="waterway" v="stream" />
	</node>
	<node id="-483040" lat="60.5533160891" lon="5.20397089732">
		<tag k="name" v="Grasdalstjørna" />
		<tag k="natural" v="water" />
		<tag k="ssr:stedsnr" v="370107" />
	</node>
	<node id="-483039" lat="60.5545000026" lon="5.16993888345">
		<tag k="name" v="Hestnes" />
		<tag k="place" v="farm" />
		<tag k="ssr:stedsnr" v="356301" />
	</node>
	<node id="-483038" lat="60.5650333352" lon="5.20048055983">
		<tag k="name" v="Fureskjegget" />
		<tag k="place" v="locality" />
		<tag k="ssr:stedsnr" v="355081" />
	</node>
	<node id="-483037" lat="60.5548805522" lon="5.07936389609">
		<tag k="name" v="Skintveitneset" />
		<tag k="natural" v="cape" />
		<tag k="ssr:stedsnr" v="349560" />
	</node>
	<node id="-483036" lat="60.5590999973" lon="5.10583611791">
		<tag k="name" v="Holmen" />
		<tag k="place" v="islet" />
		<tag k="ssr:stedsnr" v="349554" />
	</node>
	<node id="-483035" lat="60.563269444" lon="5.13111943942">
		<tag k="name" v="Ormhaugane" />
		<tag k="natural" v="hill" />
		<tag k="place" v="locality" />
		<tag k="ssr:stedsnr" v="349528" />
	</node>
	<node id="-483034" lat="60.572633331" lon="5.15873332899">
		<tag k="fixme" v="consider natural=peak for the most distinct mountains in the district" />
		<tag k="name" v="Åsen" />
		<tag k="natural" v="hill" />
		<tag k="place" v="locality" />
		<tag k="ssr:stedsnr" v="349497" />
	</node>
	<node id="-483033" lat="60.6111777797" lon="4.98033889773">
		<tag k="name" v="Klenevågen" />
		<tag k="natural" v="bay" />
		<tag k="ssr:stedsnr" v="349465" />
	</node>
	<node id="-483032" lat="60.5341749982" lon="5.21029445301">
		<tag k="name" v="Djupedalen" />
		<tag k="natural" v="valley" />
		<tag k="place" v="locality" />
		<tag k="ssr:stedsnr" v="349457" />
	</node>
	<node id="-483031" lat="60.5210750031" lon="5.18796944991">
		<tag k="name" v="Skitdalen" />
		<tag k="natural" v="valley" />
		<tag k="place" v="locality" />
		<tag k="ssr:stedsnr" v="349450" />
	</node>
	<node id="-483030" lat="60.5237194414" lon="5.18781944847">
		<tag k="name" v="Vårfloren" />
		<tag k="place" v="locality" />
		<tag k="ssr:stedsnr" v="349449" />
	</node>
	<node id="-483029" lat="60.5271472261" lon="5.18789167333">
		<tag k="fixme" v="consider natural=peak for the most distinct mountains in the district" />
		<tag k="name" v="Svartafjellet" />
		<tag k="natural" v="hill" />
		<tag k="place" v="locality" />
		<tag k="ssr:stedsnr" v="349446" />
	</node>
	<node id="-483028" lat="60.5318111145" lon="5.13361389359">
		<tag k="name" v="Vardleitet" />
		<tag k="natural" v="hill" />
		<tag k="place" v="locality" />
		<tag k="ssr:stedsnr" v="349443" />
	</node>
	<node id="-483027" lat="60.5221638846" lon="5.16280556093">
		<tag k="name" v="Børegavlen" />
		<tag k="natural" v="cape" />
		<tag k="ssr:stedsnr" v="349439" />
	</node>
	<node id="-483026" lat="60.5263138857" lon="5.22051388025">
		<tag k="name" v="Klakken" />
		<tag k="place" v="locality" />
		<tag k="ssr:stedsnr" v="349433" />
	</node>
	<node id="-483025" lat="60.5402638865" lon="5.23819444945">
		<tag k="name" v="Litlebergen" />
		<tag k="place" v="farm" />
		<tag k="ssr:stedsnr" v="349340" />
	</node>
	<node id="-483024" lat="60.5320694439" lon="5.25313610823">
		<tag k="name" v="Hansavika" />
		<tag k="natural" v="bay" />
		<tag k="ssr:stedsnr" v="349331" />
	</node>
	<node id="-483023" lat="60.5319861082" lon="5.24792778535">
		<tag k="name" v="Fossesjøen" />
		<tag k="natural" v="cape" />
		<tag k="ssr:stedsnr" v="349328" />
	</node>
	<node id="-483022" lat="60.5425538488" lon="5.25327323884">
		<tag k="name" v="Langaneset" />
		<tag k="natural" v="cape" />
		<tag k="ssr:stedsnr" v="349307" />
	</node>
	<node id="-483021" lat="60.5705111105" lon="5.18831666002">
		<tag k="name" v="Merkesvika" />
		<tag k="natural" v="bay" />
		<tag k="ssr:stedsnr" v="349283" />
	</node>
	<node id="-483020" lat="60.5715444421" lon="5.18679445341">
		<tag k="name" v="Merkesholmen" />
		<tag k="place" v="islet" />
		<tag k="ssr:stedsnr" v="349284" />
	</node>
	<node id="-483019" lat="60.5959361117" lon="5.11733333801">
		<tag k="name" v="Riplevika" />
		<tag k="natural" v="bay" />
		<tag k="ssr:stedsnr" v="348461" />
	</node>
	<node id="-483018" lat="60.5362722254" lon="5.26857221515">
		<tag k="name" v="Austegarden" />
		<tag k="place" v="farm" />
		<tag k="ssr:stedsnr" v="348191" />
	</node>
	<node id="-483017" lat="60.5430444416" lon="5.11386944432">
		<tag k="name" v="Brakstad" />
		<tag k="place" v="locality" />
		<tag k="ssr:stedsnr" v="348186" />
	</node>
	<node id="-483016" lat="60.5677722185" lon="5.09358332801">
		<tag k="name" v="Storavatnet" />
		<tag k="natural" v="water" />
		<tag k="ssr:stedsnr" v="348106" />
		<tag k="water" v="lake" />
	</node>
	<node id="-483015" lat="60.5424833304" lon="5.22846110898">
		<tag k="name" v="Sundsbrekka" />
		<tag k="natural" v="slope" />
		<tag k="place" v="locality" />
		<tag k="ssr:stedsnr" v="348047" />
	</node>
	<node id="-483014" lat="60.5484611116" lon="5.17875833952">
		<tag k="name" v="Slåttetona" />
		<tag k="place" v="locality" />
		<tag k="ssr:stedsnr" v="348031" />
	</node>
	<node id="-483013" lat="60.5576055564" lon="5.13477500636">
		<tag k="name" v="Mortveit" />
		<tag k="place" v="farm" />
		<tag k="ssr:stedsnr" v="348030" />
	</node>
	<node id="-483012" lat="60.5603216313" lon="5.15683313239">
		<tag k="name" v="Hestnesberget" />
		<tag k="natural" v="hill" />
		<tag k="place" v="locality" />
		<tag k="ssr:stedsnr" v="348021" />
	</node>
	<node id="-483011" lat="60.5910472245" lon="5.09657500772">
		<tag k="name" v="Indra Kylpa" />
		<tag k="natural" v="bay" />
		<tag k="ssr:stedsnr" v="328659" />
	</node>
	<node id="-483010" lat="60.5731527819" lon="4.99324445224">
		<tag k="name" v="Ieskorpa" />
		<tag k="natural" v="strait" />
		<tag k="ssr:stedsnr" v="328571" />
	</node>
	<node id="-483009" lat="60.5145527791" lon="5.19028611945">
		<tag k="name" v="Kjerringabukta" />
		<tag k="natural" v="bay" />
		<tag k="ssr:stedsnr" v="328562" />
	</node>
	<node id="-483008" lat="60.5293249984" lon="5.12766110346">
		<tag k="name" v="Lakseneset" />
		<tag k="natural" v="cape" />
		<tag k="ssr:stedsnr" v="328452" />
	</node>
	<node id="-483007" lat="60.5986916679" lon="5.09056944864">
		<tag k="name" v="Havrøyna" />
		<tag k="place" v="island" />
		<tag k="ssr:stedsnr" v="310921" />
	</node>
	<node id="-483006" lat="60.6045750021" lon="5.0029611096">
		<tag k="name" v="Sanden" />
		<tag k="natural" v="bay" />
		<tag k="ssr:stedsnr" v="310922" />
	</node>
	<node id="-483005" lat="60.5357777757" lon="5.23190000286">
		<tag k="fixme" v="consider natural=peak for the most distinct mountains in the district" />
		<tag k="name" v="Fageråsen" />
		<tag k="natural" v="hill" />
		<tag k="place" v="locality" />
		<tag k="ssr:stedsnr" v="310414" />
	</node>
	<node id="-483004" lat="60.5322527741" lon="5.19139166111">
		<tag k="name" v="Dale" />
		<tag k="place" v="hamlet" />
		<tag k="ssr:stedsnr" v="310410" />
	</node>
	<node id="-483003" lat="60.5281696213" lon="5.17605203125">
		<tag k="fixme" v="consider place=hamlet" />
		<tag k="name" v="Hopland" />
		<tag k="place" v="farm" />
		<tag k="ssr:stedsnr" v="310397" />
	</node>
	<node id="-483002" lat="60.5595472204" lon="5.0162722266">
		<tag k="name" v="Leiro" />
		<tag k="natural" v="strait" />
		<tag k="ssr:stedsnr" v="309923" />
	</node>
	<node id="-483001" lat="60.5479555529" lon="5.05858611026">
		<tag k="name" v="Eikelandsvatnet" />
		<tag k="natural" v="water" />
		<tag k="ssr:stedsnr" v="309914" />
		<tag k="water" v="lake" />
	</node>
	<node id="-483000" lat="60.5455527805" lon="5.17491666604">
		<tag k="alt_name" v="Baufjellet" />
		<tag k="name" v="Baugfjellet" />
		<tag k="natural" v="hill" />
		<tag k="place" v="locality" />
		<tag k="ssr:stedsnr" v="309466" />
	</node>
	<node id="-482999" lat="60.5218833313" lon="5.1933611169">
		<tag k="alt_name" v="Bjørkevoll" />
		<tag k="name" v="Burkevellene" />
		<tag k="place" v="farm" />
		<tag k="ssr:stedsnr" v="309415" />
	</node>
	<node id="-482998" lat="60.569919442" lon="5.18648056032">
		<tag k="name" v="Nymark" />
		<tag k="place" v="farm" />
		<tag k="ssr:stedsnr" v="309134" />
	</node>
	<node id="-482997" lat="60.5737534894" lon="5.17958260181">
		<tag k="name" v="Skogsvatnet" />
		<tag k="natural" v="water" />
		<tag k="ssr:stedsnr" v="309135" />
	</node>
	<node id="-482996" lat="60.5562978135" lon="5.13780460803">
		<tag k="alt_name" v="Mørtveit" />
		<tag k="fixme" v="consider place=hamlet" />
		<tag k="name" v="Myrtveit" />
		<tag k="place" v="farm" />
		<tag k="ssr:stedsnr" v="309090" />
	</node>
	<node id="-482995" lat="60.5624083918" lon="5.19358791927">
		<tag k="fixme" v="consider place=hamlet" />
		<tag k="name" v="Espetveit" />
		<tag k="place" v="farm" />
		<tag k="ssr:stedsnr" v="309069" />
	</node>
	<node id="-482985" lat="60.5482666651" lon="5.08518333855">
		<tag k="fixme" v="consider natural=peak for the most distinct mountains in the district" />
		<tag k="name" v="Vasskåsa" />
		<tag k="natural" v="hill" />
		<tag k="place" v="locality" />
		<tag k="ssr:stedsnr" v="289543" />
	</node>
	<node id="-482984" lat="60.545763891" lon="5.09088332942">
		<tag k="name" v="Eidet" />
		<tag k="place" v="locality" />
		<tag k="ssr:stedsnr" v="289536" />
	</node>
	<node id="-482983" lat="60.5402111127" lon="5.09901111008">
		<tag k="fixme" v="consider natural=peak for the most distinct mountains in the district" />
		<tag k="name" v="Nipo" />
		<tag k="natural" v="hill" />
		<tag k="place" v="locality" />
		<tag k="ssr:stedsnr" v="289532" />
	</node>
	<node id="-482982" lat="60.559600004" lon="5.06954167333">
		<tag k="fixme" v="consider natural=peak for the most distinct mountains in the district" />
		<tag k="name" v="Skintveitfjellet" />
		<tag k="natural" v="hill" />
		<tag k="place" v="locality" />
		<tag k="ssr:stedsnr" v="289525" />
	</node>
	<node id="-482981" lat="60.5561722198" lon="5.08822222555">
		<tag k="name" v="Lynghøyen" />
		<tag k="natural" v="hill" />
		<tag k="place" v="locality" />
		<tag k="ssr:stedsnr" v="289523" />
	</node>
	<node id="-482980" lat="60.5655111111" lon="5.13591944009">
		<tag k="name" v="Kolhaugane" />
		<tag k="natural" v="hill" />
		<tag k="place" v="locality" />
		<tag k="ssr:stedsnr" v="289475" />
	</node>
	<node id="-482979" lat="60.5665638927" lon="5.11913054988">
		<tag k="name" v="Storamyra" />
		<tag k="natural" v="wetland" />
		<tag k="ssr:stedsnr" v="289467" />
	</node>
	<node id="-482978" lat="60.5782805556" lon="5.1738444449">
		<tag k="name" v="Flisa" />
		<tag k="natural" v="cape" />
		<tag k="ssr:stedsnr" v="289425" />
	</node>
	<node id="-482977" lat="60.5803944469" lon="5.13049444177">
		<tag k="name" v="Gyehøyen" />
		<tag k="natural" v="hill" />
		<tag k="place" v="locality" />
		<tag k="ssr:stedsnr" v="289413" />
	</node>
	<node id="-482976" lat="60.5346111134" lon="5.12848888204">
		<tag k="name" v="Fossdalen" />
		<tag k="natural" v="valley" />
		<tag k="place" v="locality" />
		<tag k="ssr:stedsnr" v="289382" />
	</node>
	<node id="-482975" lat="60.5251194431" lon="5.15144999707">
		<tag k="name" v="Holmeknappen" />
		<tag k="natural" v="cape" />
		<tag k="ssr:stedsnr" v="289381" />
	</node>
	<node id="-482974" lat="60.5219888901" lon="5.23209721396">
		<tag k="name" v="Litleknappen" />
		<tag k="place" v="locality" />
		<tag k="ssr:stedsnr" v="289377" />
	</node>
	<node id="-482973" lat="60.5511916628" lon="5.05091110297">
		<tag k="fixme" v="consider natural=peak for the most distinct mountains in the district" />
		<tag k="name" v="Botnafjellet" />
		<tag k="natural" v="hill" />
		<tag k="place" v="locality" />
		<tag k="ssr:stedsnr" v="289367" />
	</node>
	<node id="-482972" lat="60.5829583316" lon="5.04480277016">
		<tag k="name" v="Midtvarden" />
		<tag k="natural" v="hill" />
		<tag k="place" v="locality" />
		<tag k="ssr:stedsnr" v="289339" />
	</node>
	<node id="-482971" lat="60.5389888922" lon="5.19506389047">
		<tag k="name" v="Haukelendet" />
		<tag k="place" v="locality" />
		<tag k="ssr:stedsnr" v="289337" />
	</node>
	<node id="-482970" lat="60.5548750036" lon="5.11167778097">
		<tag k="name" v="Dyrhovden" />
		<tag k="place" v="locality" />
		<tag k="ssr:stedsnr" v="288412" />
	</node>
	<node id="-482969" lat="60.5539194487" lon="5.07680555609">
		<tag k="name" v="Vadholmen" />
		<tag k="place" v="islet" />
		<tag k="ssr:stedsnr" v="288409" />
	</node>
	<node id="-482968" lat="60.5434361086" lon="5.0491749977">
		<tag k="name" v="Beitingsmyra" />
		<tag k="natural" v="wetland" />
		<tag k="ssr:stedsnr" v="288340" />
	</node>
	<node id="-482967" lat="60.5979333331" lon="5.03800276893">
		<tag k="fixme" v="consider natural=peak for the most distinct mountains in the district" />
		<tag k="name" v="Åsen" />
		<tag k="natural" v="hill" />
		<tag k="place" v="locality" />
		<tag k="ssr:stedsnr" v="288333" />
	</node>
	<node id="-482966" lat="60.5905916668" lon="4.98983611457">
		<tag k="name" v="Sætreneset" />
		<tag k="natural" v="cape" />
		<tag k="ssr:stedsnr" v="288319" />
	</node>
	<node id="-482965" lat="60.5952722246" lon="4.97245555921">
		<tag k="name" v="Kokkegjona" />
		<tag k="place" v="locality" />
		<tag k="ssr:stedsnr" v="288313" />
	</node>
	<node id="-482964" lat="60.5534222216" lon="5.01247499999">
		<tag k="name" v="Nordre Klubben" />
		<tag k="natural" v="cape" />
		<tag k="ssr:stedsnr" v="288302" />
	</node>
	<node id="-482963" lat="60.5714916675" lon="5.04368332901">
		<tag k="name" v="Jonsokkhøyen" />
		<tag k="natural" v="hill" />
		<tag k="place" v="locality" />
		<tag k="ssr:stedsnr" v="288288" />
	</node>
	<node id="-482962" lat="60.574627776" lon="5.01319722411">
		<tag k="name" v="Garnvikneset" />
		<tag k="natural" v="cape" />
		<tag k="ssr:stedsnr" v="288287" />
	</node>
	<node id="-482961" lat="60.5344416659" lon="5.10676111086">
		<tag k="name" v="Fløksandsmarka" />
		<tag k="place" v="locality" />
		<tag k="ssr:stedsnr" v="288281" />
	</node>
	<node id="-482960" lat="60.5336027762" lon="5.26628610804">
		<tag k="name" v="Høgdena" />
		<tag k="place" v="farm" />
		<tag k="ssr:stedsnr" v="288272" />
	</node>
	<node id="-482959" lat="60.5402500028" lon="5.26712776992">
		<tag k="name" v="Rotemyrane" />
		<tag k="natural" v="wetland" />
		<tag k="ssr:stedsnr" v="288269" />
	</node>
	<node id="-482958" lat="60.5114222216" lon="5.24346944985">
		<tag k="name" v="Kråkevika" />
		<tag k="natural" v="bay" />
		<tag k="ssr:stedsnr" v="288257" />
	</node>
	<node id="-482957" lat="60.5431277803" lon="5.27110278388">
		<tag k="name" v="Litlebogen" />
		<tag k="natural" v="bay" />
		<tag k="ssr:stedsnr" v="288251" />
	</node>
	<node id="-482956" lat="60.541194447" lon="5.26848055368">
		<tag k="name" v="Viphøyen" />
		<tag k="natural" v="hill" />
		<tag k="place" v="locality" />
		<tag k="ssr:stedsnr" v="288249" />
	</node>
	<node id="-482955" lat="60.5465027758" lon="5.25447499335">
		<tag k="name" v="Midtmarka" />
		<tag k="place" v="locality" />
		<tag k="ssr:stedsnr" v="288238" />
	</node>
	<node id="-482954" lat="60.5677111086" lon="5.05376944643">
		<tag k="name" v="Rossland" />
		<tag k="place" v="hamlet" />
		<tag k="ssr:stedsnr" v="288130" />
	</node>
	<node id="-482953" lat="60.5061166679" lon="5.2215611198">
		<tag k="name" v="Juvika" />
		<tag k="natural" v="bay" />
		<tag k="ssr:stedsnr" v="288016" />
	</node>
	<node id="-482952" lat="60.5659472221" lon="5.01537222406">
		<tag k="name" v="Io" />
		<tag k="place" v="island" />
		<tag k="ssr:stedsnr" v="287170" />
	</node>
	<node id="-482951" lat="60.5546908757" lon="5.00677003092">
		<tag k="name" v="Ypso" />
		<tag k="place" v="hamlet" />
		<tag k="ssr:stedsnr" v="287108" />
	</node>
	<node id="-482950" lat="60.5638833306" lon="5.05414999252">
		<tag k="fixme" v="consider place=hamlet" />
		<tag k="name" v="Vikebø" />
		<tag k="place" v="farm" />
		<tag k="ssr:stedsnr" v="287104" />
	</node>
	<node id="-482949" lat="60.5106194439" lon="5.22796389557">
		<tag k="name" v="Vikane" />
		<tag k="place" v="farm" />
		<tag k="ssr:stedsnr" v="287097" />
	</node>
	<node id="-482948" lat="60.5420814568" lon="5.1592772512">
		<tag k="name" v="Tveiten" />
		<tag k="place" v="farm" />
		<tag k="ssr:stedsnr" v="287094" />
	</node>
	<node id="-482947" lat="60.5418999991" lon="5.18053612005">
		<tag k="historic" v="shieling" />
		<tag k="name" v="Husstølen" />
		<tag k="place" v="locality" />
		<tag k="ssr:stedsnr" v="287066" />
	</node>
	<node id="-482946" lat="60.5544083325" lon="5.21350278587">
		<tag k="fixme" v="consider natural=peak for the most distinct mountains in the district" />
		<tag k="name" v="Søre Heiane" />
		<tag k="natural" v="hill" />
		<tag k="place" v="locality" />
		<tag k="ssr:stedsnr" v="287061" />
	</node>
	<node id="-482945" lat="60.546777776" lon="5.18233889334">
		<tag k="name" v="Melandskaret" />
		<tag k="natural" v="hill" />
		<tag k="place" v="locality" />
		<tag k="ssr:stedsnr" v="287041" />
	</node>
	<node id="-482943" lat="60.5442361118" lon="5.1300722175">
		<tag k="name" v="Kjeken" />
		<tag k="place" v="locality" />
		<tag k="ssr:stedsnr" v="287024" />
	</node>
	<node id="-482942" lat="60.5482166666" lon="5.13203610333">
		<tag k="name" v="Nipa" />
		<tag k="natural" v="hill" />
		<tag k="place" v="locality" />
		<tag k="ssr:stedsnr" v="287022" />
	</node>
	<node id="-482941" lat="60.513647223" lon="5.20846111704">
		<tag k="fixme" v="consider natural=peak for the most distinct mountains in the district" />
		<tag k="name" v="Furefjellet" />
		<tag k="natural" v="hill" />
		<tag k="place" v="locality" />
		<tag k="ssr:stedsnr" v="287001" />
	</node>
	<node id="-483818" lat="60.5983581256" lon="5.00268163775">
		<tag k="name" v="Brotshaug" />
		<tag k="place" v="farm" />
		<tag k="ssr:stedsnr" v="962276" />
	</node>
	<node id="-483817" lat="60.5497611114" lon="5.08023054833">
		<tag k="name" v="Steinberget" />
		<tag k="natural" v="hill" />
		<tag k="place" v="locality" />
		<tag k="ssr:stedsnr" v="956483" />
	</node>
	<node id="-483816" lat="60.6064444485" lon="5.00260556131">
		<tag k="name" v="Mjelkevikholmen" />
		<tag k="place" v="islet" />
		<tag k="ssr:stedsnr" v="956466" />
	</node>
	<node id="-483815" lat="60.5722399231" lon="5.12451018729">
		<tag k="name" v="Kjørnesholmen" />
		<tag k="place" v="islet" />
		<tag k="ssr:stedsnr" v="956450" />
	</node>
	<node id="-483814" lat="60.6147055598" lon="4.95489166048">
		<tag k="name" v="Prestvikvatnet" />
		<tag k="natural" v="water" />
		<tag k="ssr:stedsnr" v="956438" />
		<tag k="water" v="lake" />
	</node>
	<node id="-483813" lat="60.5279611092" lon="5.19708610874">
		<tag k="historic" v="shieling" />
		<tag k="name" v="Stølane" />
		<tag k="place" v="locality" />
		<tag k="ssr:stedsnr" v="956423" />
	</node>
	<node id="-483812" lat="60.5228944419" lon="5.18385554806">
		<tag k="name" v="Litlamyra" />
		<tag k="natural" v="wetland" />
		<tag k="ssr:stedsnr" v="956421" />
	</node>
	<node id="-483811" lat="60.5292861075" lon="5.23222222606">
		<tag k="name" v="Sandgotmarka" />
		<tag k="place" v="locality" />
		<tag k="ssr:stedsnr" v="956405" />
	</node>
	<node id="-483810" lat="60.5273027798" lon="5.21649999363">
		<tag k="fixme" v="consider natural=peak for the most distinct mountains in the district" />
		<tag k="name" v="Vardåsen" />
		<tag k="natural" v="hill" />
		<tag k="place" v="locality" />
		<tag k="ssr:stedsnr" v="956403" />
	</node>
	<node id="-483809" lat="60.5862305514" lon="5.04439166138">
		<tag k="name" v="Flathøyen" />
		<tag k="natural" v="hill" />
		<tag k="place" v="locality" />
		<tag k="ssr:stedsnr" v="956384" />
	</node>
	<node id="-483808" lat="60.59483889" lon="4.98998889547">
		<tag k="name" v="Bjøllebekken" />
		<tag k="ssr:stedsnr" v="956366" />
		<tag k="waterway" v="stream" />
	</node>
	<node id="-483807" lat="60.6017694483" lon="5.07205555702">
		<tag k="name" v="Geitnesvågen" />
		<tag k="natural" v="bay" />
		<tag k="ssr:stedsnr" v="956363" />
	</node>
	<node id="-483806" lat="60.5793277768" lon="5.01266388472">
		<tag k="name" v="Rishola" />
		<tag k="natural" v="bay" />
		<tag k="ssr:stedsnr" v="956341" />
	</node>
	<node id="-483805" lat="60.5346611087" lon="5.09828611488">
		<tag k="name" v="Altersvika" />
		<tag k="natural" v="bay" />
		<tag k="ssr:stedsnr" v="956340" />
	</node>
	<node id="-483804" lat="60.5711333377" lon="5.05753610604">
		<tag k="name" v="Osphøyen" />
		<tag k="natural" v="hill" />
		<tag k="place" v="locality" />
		<tag k="ssr:stedsnr" v="956337" />
	</node>
	<node id="-483803" lat="60.5646888844" lon="4.9979249959">
		<tag k="fixme" v="consider seamark:type=rock or natural=shoal" />
		<tag k="name" v="Litla Ieskjeret" />
		<tag k="place" v="islet" />
		<tag k="ssr:stedsnr" v="956325" />
	</node>
	<node id="-483802" lat="60.5388305523" lon="5.25178333603">
		<tag k="name" v="Djupavika" />
		<tag k="natural" v="bay" />
		<tag k="ssr:stedsnr" v="956303" />
	</node>
	<node id="-483801" lat="60.5163583362" lon="5.24631389595">
		<tag k="name" v="Friborg" />
		<tag k="place" v="farm" />
		<tag k="ssr:stedsnr" v="956284" />
	</node>
	<node id="-483800" lat="60.5452944447" lon="5.24617499578">
		<tag k="historic" v="shieling" />
		<tag k="name" v="Stølane" />
		<tag k="place" v="locality" />
		<tag k="ssr:stedsnr" v="956274" />
	</node>
	<node id="-483799" lat="60.5941444474" lon="5.12807777047">
		<tag k="name" v="Illekastholmen" />
		<tag k="place" v="island" />
		<tag k="ssr:stedsnr" v="955479" />
	</node>
	<node id="-483798" lat="60.5411222235" lon="5.09095000654">
		<tag k="name" v="Leiro" />
		<tag k="natural" v="water" />
		<tag k="ssr:stedsnr" v="955468" />
		<tag k="water" v="lake" />
	</node>
	<node id="-483797" lat="60.5411211566" lon="5.0538805852">
		<tag k="name" v="Beitingen" />
		<tag k="place" v="farm" />
		<tag k="ssr:stedsnr" v="955183" />
	</node>
	<node id="-483796" lat="60.5292527736" lon="5.15470278381">
		<tag k="fixme" v="consider place=suburb, village or hamlet" />
		<tag k="name" v="Holme" />
		<tag k="place" v="quarter" />
		<tag k="ssr:stedsnr" v="955156" />
	</node>
	<node id="-483795" lat="60.5578166631" lon="5.05207500069">
		<tag k="name" v="Ryland" />
		<tag k="place" v="village" />
		<tag k="ssr:stedsnr" v="955111" />
	</node>
	<node id="-483794" lat="60.5803444401" lon="5.06739722141">
		<tag k="name" v="Alvhøyen" />
		<tag k="natural" v="hill" />
		<tag k="place" v="locality" />
		<tag k="ssr:stedsnr" v="955092" />
	</node>
	<node id="-483793" lat="60.568772496" lon="5.09029295449">
		<tag k="name" v="Søra Neset" />
		<tag k="natural" v="cape" />
		<tag k="ssr:stedsnr" v="955089" />
	</node>
	<node id="-483792" lat="60.5561305535" lon="5.2047444487">
		<tag k="fixme" v="consider natural=peak for the most distinct mountains in the district" />
		<tag k="name" v="Nordre Heiane" />
		<tag k="natural" v="hill" />
		<tag k="place" v="locality" />
		<tag k="ssr:stedsnr" v="955081" />
	</node>
	<node id="-483791" lat="60.5557916687" lon="5.19371944799">
		<tag k="name" v="Langedalen" />
		<tag k="natural" v="valley" />
		<tag k="place" v="locality" />
		<tag k="ssr:stedsnr" v="955077" />
	</node>
	<node id="-483790" lat="60.5415027742" lon="5.23378888737">
		<tag k="fixme" v="consider place=hamlet" />
		<tag k="name" v="Sunde" />
		<tag k="place" v="farm" />
		<tag k="ssr:stedsnr" v="955070" />
	</node>
	<node id="-483789" lat="60.5477694482" lon="5.21544166026">
		<tag k="fixme" v="consider natural=peak for the most distinct mountains in the district" />
		<tag k="name" v="Storhammaren" />
		<tag k="natural" v="hill" />
		<tag k="ssr:stedsnr" v="955066" />
	</node>
	<node id="-483788" lat="60.5403055597" lon="5.18761387997">
		<tag k="fixme" v="consider place=hamlet" />
		<tag k="name" v="Meland" />
		<tag k="place" v="farm" />
		<tag k="ssr:stedsnr" v="955049" />
	</node>
	<node id="-483787" lat="60.5429472222" lon="5.1197888953">
		<tag k="fixme" v="consider place=hamlet" />
		<tag k="name" v="Ytre-Brakstad" />
		<tag k="place" v="farm" />
		<tag k="ssr:stedsnr" v="955033" />
	</node>
	<node id="-483786" lat="60.5415194462" lon="5.15531110367">
		<tag k="name" v="Kletten" />
		<tag k="place" v="farm" />
		<tag k="ssr:stedsnr" v="955025" />
	</node>
	<node id="-483785" lat="60.508450002" lon="5.23415278262">
		<tag k="name" v="Årevika" />
		<tag k="natural" v="bay" />
		<tag k="ssr:stedsnr" v="955015" />
	</node>
	<node id="-483784" lat="60.515469448" lon="5.18767778292">
		<tag k="name" v="Trollholet" />
		<tag k="natural" v="bay" />
		<tag k="ssr:stedsnr" v="955010" />
	</node>
	<node id="-483783" lat="60.5288972244" lon="5.24629444808">
		<tag k="name" v="Øvrebøen" />
		<tag k="place" v="quarter" />
		<tag k="ssr:stedsnr" v="950059" />
	</node>
	<node id="-483782" lat="60.5362048276" lon="5.19292415593">
		<tag k="fixme" v="consider place=hamlet" />
		<tag k="name" v="Nedre Dale" />
		<tag k="place" v="farm" />
		<tag k="ssr:stedsnr" v="939649" />
	</node>
	<node id="-483781" lat="60.5617749998" lon="5.03462777357">
		<tag k="name" v="Vardneset" />
		<tag k="natural" v="cape" />
		<tag k="ssr:stedsnr" v="935588" />
	</node>
	<node id="-483780" lat="60.6081777818" lon="4.94586388642">
		<tag k="fixme" v="consider seamark:type=rock or natural=shoal" />
		<tag k="name" v="Katten" />
		<tag k="place" v="islet" />
		<tag k="ssr:stedsnr" v="934637" />
	</node>
	<node id="-483778" lat="60.5301555554" lon="5.25094167346">
		<tag k="name" v="Krossnessundet" />
		<tag k="natural" v="strait" />
		<tag k="ssr:stedsnr" v="917368" />
	</node>
	<node id="-483777" lat="60.5587583303" lon="5.01105278328">
		<tag k="fixme" v="multiple name tags, choose one and add the other to alt_name" />
		<tag k="name" v="Øpsesundet;Ieosen" />
		<tag k="natural" v="strait" />
		<tag k="ssr:stedsnr" v="916926" />
	</node>
	<node id="-483776" lat="60.534458331" lon="5.14670833766">
		<tag k="name" v="Slettåsen" />
		<tag k="natural" v="hill" />
		<tag k="place" v="locality" />
		<tag k="ssr:stedsnr" v="916437" />
	</node>
	<node id="-483775" lat="60.5385666657" lon="5.13318332936">
		<tag k="name" v="Ramusfjellet" />
		<tag k="natural" v="hill" />
		<tag k="place" v="locality" />
		<tag k="ssr:stedsnr" v="916435" />
	</node>
	<node id="-483774" lat="60.5871685477" lon="5.15077601098">
		<tag k="alt_name" v="Refskar" />
		<tag k="fixme" v="consider place=hamlet" />
		<tag k="name" v="Revskard" />
		<tag k="place" v="farm" />
		<tag k="ssr:stedsnr" v="916103" />
	</node>
	<node id="-483773" lat="60.5572572333" lon="5.10215284851">
		<tag k="name" v="Bjørndalsvatnet" />
		<tag k="natural" v="water" />
		<tag k="ssr:stedsnr" v="916092" />
	</node>
	<node id="-483772" lat="60.5370138865" lon="5.26452776909">
		<tag k="name" v="Austegarden" />
		<tag k="place" v="farm" />
		<tag k="ssr:stedsnr" v="902347" />
	</node>
	<node id="-483771" lat="60.5560222283" lon="5.21328424307">
		<tag k="fixme" v="consider place=hamlet" />
		<tag k="name" v="Skarpeneset" />
		<tag k="place" v="farm" />
		<tag k="ssr:stedsnr" v="878678" />
	</node>
	<node id="-483770" lat="60.6163944427" lon="4.94410000145">
		<tag k="name" v="Hundane" />
		<tag k="natural" v="shoal" />
		<tag k="place" v="locality" />
		<tag k="ssr:stedsnr" v="874691" />
	</node>
	<node id="-483769" lat="60.6028527486" lon="5.08436963732">
		<tag k="name" v="Småstraumen" />
		<tag k="natural" v="strait" />
		<tag k="ssr:stedsnr" v="856956" />
	</node>
	<node id="-483767" lat="60.5963626987" lon="5.01721987056">
		<tag k="name" v="Brotshaugvatnet" />
		<tag k="natural" v="water" />
		<tag k="ssr:stedsnr" v="856952" />
	</node>
	<node id="-483766" lat="60.5850666653" lon="5.03052500117">
		<tag k="alt_name" v="Eldsfjellveten;Eldsfjell-veten" />
		<tag k="name" v="Veten" />
		<tag k="natural" v="hill" />
		<tag k="place" v="locality" />
		<tag k="ssr:stedsnr" v="856947" />
	</node>
	<node id="-483765" lat="60.589294441" lon="5.00575277055">
		<tag k="fixme" v="consider natural=peak for the most distinct mountains in the district" />
		<tag k="name" v="Hesthøyen" />
		<tag k="natural" v="hill" />
		<tag k="place" v="locality" />
		<tag k="ssr:stedsnr" v="856945" />
	</node>
	<node id="-483764" lat="60.5438055525" lon="5.12207777885">
		<tag k="name" v="Brakstad" />
		<tag k="place" v="hamlet" />
		<tag k="ssr:stedsnr" v="856488" />
	</node>
	<node id="-483763" lat="60.5463455643" lon="5.16583697107">
		<tag k="fixme" v="consider place=hamlet" />
		<tag k="name" v="Røyset" />
		<tag k="place" v="farm" />
		<tag k="ssr:stedsnr" v="856486" />
	</node>
	<node id="-483762" lat="60.5857777743" lon="5.11827778265">
		<tag k="fixme" v="consider natural=peak for the most distinct mountains in the district" />
		<tag k="name" v="Øyjordsfjellet" />
		<tag k="natural" v="hill" />
		<tag k="place" v="locality" />
		<tag k="ssr:stedsnr" v="856092" />
	</node>
	<node id="-483761" lat="60.5865874118" lon="5.10371779386">
		<tag k="fixme" v="multiple name tags, choose one and add the other to alt_name" />
		<tag k="name" v="Havrevatnet;Mjåvatnet" />
		<tag k="natural" v="water" />
		<tag k="ssr:stedsnr" v="856090" />
	</node>
	<node id="-483760" lat="60.5679099084" lon="5.05416423526">
		<tag k="fixme" v="consider place=hamlet" />
		<tag k="name" v="Rossland" />
		<tag k="place" v="farm" />
		<tag k="ssr:stedsnr" v="855922" />
	</node>
	<node id="-483759" lat="60.5417986309" lon="5.0482561659">
		<tag k="name" v="Beitingen" />
		<tag k="place" v="isolated_dwelling" />
		<tag k="ssr:stedsnr" v="855906" />
	</node>
	<node id="-483758" lat="60.5695843837" lon="5.15685623294">
		<tag k="name" v="Gaustadvatnet" />
		<tag k="natural" v="water" />
		<tag k="ssr:stedsnr" v="855119" />
	</node>
	<node id="-483757" lat="60.5372833327" lon="5.26902222591">
		<tag k="name" v="Austegarden" />
		<tag k="place" v="farm" />
		<tag k="ssr:stedsnr" v="842304" />
	</node>
	<node id="-483756" lat="60.5457416669" lon="5.16511666974">
		<tag k="name" v="Røyset" />
		<tag k="place" v="farm" />
		<tag k="ssr:stedsnr" v="841304" />
	</node>
	<node id="-483755" lat="60.5477305585" lon="5.16986388687">
		<tag k="name" v="Røyset" />
		<tag k="place" v="farm" />
		<tag k="ssr:stedsnr" v="841302" />
	</node>
	<node id="-483754" lat="60.5981361147" lon="4.9995777821">
		<tag k="name" v="Brotshaug" />
		<tag k="place" v="farm" />
		<tag k="ssr:stedsnr" v="841297" />
	</node>
	<node id="-483753" lat="60.5463985399" lon="5.08597304707">
		<tag k="name" v="Hundetjørna" />
		<tag k="natural" v="water" />
		<tag k="ssr:stedsnr" v="835543" />
		<tag k="water" v="pond" />
	</node>
	<node id="-483752" lat="60.543630554" lon="5.08831667163">
		<tag k="name" v="Porsmyra" />
		<tag k="natural" v="wetland" />
		<tag k="ssr:stedsnr" v="835542" />
	</node>
	<node id="-483751" lat="60.545288892" lon="5.10945278143">
		<tag k="name" v="Storhøyen" />
		<tag k="natural" v="hill" />
		<tag k="place" v="locality" />
		<tag k="ssr:stedsnr" v="835539" />
	</node>
	<node id="-483750" lat="60.5432361081" lon="5.09411110747">
		<tag k="name" v="Eidshaugane" />
		<tag k="natural" v="hill" />
		<tag k="place" v="locality" />
		<tag k="ssr:stedsnr" v="835537" />
	</node>
	<node id="-483749" lat="60.5684416698" lon="5.12064444158">
		<tag k="name" v="Kletten" />
		<tag k="natural" v="hill" />
		<tag k="place" v="locality" />
		<tag k="ssr:stedsnr" v="835497" />
	</node>
	<node id="-483748" lat="60.5807249969" lon="5.16534999641">
		<tag k="name" v="Trongesmauet" />
		<tag k="place" v="locality" />
		<tag k="ssr:stedsnr" v="835490" />
	</node>
	<node id="-483747" lat="60.5406249958" lon="5.06452499576">
		<tag k="name" v="Beitingen" />
		<tag k="place" v="farm" />
		<tag k="ssr:stedsnr" v="835489" />
	</node>
	<node id="-483746" lat="60.605388888" lon="5.01545833311">
		<tag k="name" v="Saltholmen" />
		<tag k="place" v="islet" />
		<tag k="ssr:stedsnr" v="835480" />
	</node>
	<node id="-483745" lat="60.5350777749" lon="5.16113888859">
		<tag k="name" v="Hoplandsdalen" />
		<tag k="natural" v="valley" />
		<tag k="place" v="locality" />
		<tag k="ssr:stedsnr" v="835462" />
	</node>
	<node id="-483744" lat="60.6163444442" lon="4.95350278627">
		<tag k="fixme" v="consider seamark:type=rock or natural=shoal" />
		<tag k="name" v="Barbuskjeret" />
		<tag k="place" v="islet" />
		<tag k="ssr:stedsnr" v="835435" />
	</node>
	<node id="-483743" lat="60.5354138885" lon="5.20592500238">
		<tag k="name" v="Støldalen" />
		<tag k="natural" v="valley" />
		<tag k="place" v="locality" />
		<tag k="ssr:stedsnr" v="835433" />
	</node>
	<node id="-483742" lat="60.5270611152" lon="5.20363055181">
		<tag k="name" v="Stallen" />
		<tag k="place" v="farm" />
		<tag k="ssr:stedsnr" v="835414" />
	</node>
	<node id="-483741" lat="60.5245777785" lon="5.15968888817">
		<tag k="name" v="Proppavika" />
		<tag k="natural" v="bay" />
		<tag k="ssr:stedsnr" v="835404" />
	</node>
	<node id="-483740" lat="60.5470333375" lon="5.04944722734">
		<tag k="name" v="Grønålshøyen" />
		<tag k="natural" v="hill" />
		<tag k="place" v="locality" />
		<tag k="ssr:stedsnr" v="835371" />
	</node>
	<node id="-483739" lat="60.5990055552" lon="5.04105278366">
		<tag k="fixme" v="consider natural=peak for the most distinct mountains in the district" />
		<tag k="name" v="Stuvane" />
		<tag k="natural" v="hill" />
		<tag k="place" v="locality" />
		<tag k="ssr:stedsnr" v="835365" />
	</node>
	<node id="-483738" lat="60.6014444486" lon="5.03351111128">
		<tag k="fixme" v="consider natural=peak for the most distinct mountains in the district" />
		<tag k="name" v="Tytebærvellena" />
		<tag k="natural" v="hill" />
		<tag k="place" v="locality" />
		<tag k="ssr:stedsnr" v="835362" />
	</node>
	<node id="-483737" lat="60.5540194448" lon="5.02687499145">
		<tag k="name" v="Sandturka" />
		<tag k="natural" v="beach" />
		<tag k="ssr:stedsnr" v="835332" />
		<tag k="surface" v="sand" />
	</node>
	<node id="-483736" lat="60.5426638877" lon="5.26092778021">
		<tag k="name" v="Skitnedalen" />
		<tag k="natural" v="valley" />
		<tag k="place" v="locality" />
		<tag k="ssr:stedsnr" v="835269" />
	</node>
	<node id="-483735" lat="60.5172944449" lon="5.2486222145">
		<tag k="man_made" v="quay" />
		<tag k="name" v="Frekhaugkaien" />
		<tag k="place" v="locality" />
		<tag k="ssr:stedsnr" v="835267" />
	</node>
	<node id="-483734" lat="60.5699000037" lon="5.17857778501">
		<tag k="name" v="Stemmevatnet" />
		<tag k="natural" v="water" />
		<tag k="ssr:stedsnr" v="835263" />
		<tag k="water" v="lake" />
	</node>
	<node id="-483733" lat="60.5622166702" lon="5.19207778142">
		<tag k="name" v="Espetveit" />
		<tag k="place" v="farm" />
		<tag k="ssr:stedsnr" v="834186" />
	</node>
	<node id="-483732" lat="60.566066666" lon="5.06631665991">
		<tag k="name" v="Tjønnhøyen" />
		<tag k="natural" v="hill" />
		<tag k="place" v="locality" />
		<tag k="ssr:stedsnr" v="834071" />
	</node>
	<node id="-483731" lat="60.5416944432" lon="5.17493054715">
		<tag k="name" v="Erstad" />
		<tag k="place" v="farm" />
		<tag k="ssr:stedsnr" v="834053" />
	</node>
	<node id="-483730" lat="60.5054527796" lon="5.22001389661">
		<tag k="name" v="Toneset" />
		<tag k="natural" v="cape" />
		<tag k="ssr:stedsnr" v="834013" />
	</node>
	<node id="-483729" lat="60.5178638852" lon="5.22816111029">
		<tag k="historic" v="shieling" />
		<tag k="name" v="Bustølen" />
		<tag k="place" v="locality" />
		<tag k="ssr:stedsnr" v="834008" />
	</node>
	<node id="-483728" lat="60.5185805584" lon="5.22360833231">
		<tag k="name" v="Mjåtveitelva" />
		<tag k="ssr:stedsnr" v="834007" />
		<tag k="waterway" v="river" />
	</node>
	<node id="-483727" lat="60.5138694409" lon="5.21388611541">
		<tag k="fixme" v="consider natural=peak for the most distinct mountains in the district" />
		<tag k="name" v="Klettane" />
		<tag k="natural" v="hill" />
		<tag k="place" v="locality" />
		<tag k="ssr:stedsnr" v="834001" />
	</node>
	<node id="-483726" lat="60.5929722267" lon="5.13375000107">
		<tag k="name" v="Brattholmen" />
		<tag k="place" v="islet" />
		<tag k="ssr:stedsnr" v="833489" />
	</node>
	<node id="-483725" lat="60.5501083339" lon="5.14854722629">
		<tag k="fixme" v="consider natural=peak for the most distinct mountains in the district" />
		<tag k="name" v="Litlanipa" />
		<tag k="natural" v="hill" />
		<tag k="place" v="locality" />
		<tag k="ssr:stedsnr" v="833015" />
	</node>
	<node id="-483724" lat="60.544291663" lon="5.12088611733">
		<tag k="name" v="Ytre-Brakstad" />
		<tag k="place" v="farm" />
		<tag k="ssr:stedsnr" v="818695" />
	</node>
	<node id="-483723" lat="60.6017042176" lon="4.96887753466">
		<tag k="fixme" v="consider place=hamlet" />
		<tag k="name" v="Skjelanger" />
		<tag k="place" v="farm" />
		<tag k="ssr:stedsnr" v="818661" />
	</node>
	<node id="-483722" lat="60.528597221" lon="5.14819444046">
		<tag k="name" v="Hjartåsstøa" />
		<tag k="natural" v="valley" />
		<tag k="place" v="locality" />
		<tag k="ssr:stedsnr" v="814619" />
	</node>
	<node id="-483721" lat="60.5471916668" lon="5.26085277315">
		<tag k="name" v="Skjeljevikane" />
		<tag k="natural" v="bay" />
		<tag k="ssr:stedsnr" v="814600" />
	</node>
	<node id="-483720" lat="60.6130888916" lon="5.03733889597">
		<tag k="name" v="Ytra Gjerdneset" />
		<tag k="natural" v="cape" />
		<tag k="ssr:stedsnr" v="813609" />
	</node>
	<node id="-483719" lat="60.6049555524" lon="5.01354444728">
		<tag k="name" v="Vestevågen" />
		<tag k="natural" v="bay" />
		<tag k="ssr:stedsnr" v="813605" />
	</node>
	<node id="-483718" lat="60.5119472251" lon="5.24477499549">
		<tag k="name" v="Kråkeneset" />
		<tag k="natural" v="cape" />
		<tag k="ssr:stedsnr" v="813489" />
	</node>
	<node id="-483717" lat="60.5846777775" lon="5.05278887986">
		<tag k="fixme" v="consider natural=peak for the most distinct mountains in the district" />
		<tag k="name" v="Eldsfjellet" />
		<tag k="natural" v="hill" />
		<tag k="place" v="locality" />
		<tag k="ssr:stedsnr" v="795936" />
	</node>
	<node id="-483716" lat="60.5921583304" lon="5.07362499346">
		<tag k="fixme" v="consider natural=peak for the most distinct mountains in the district" />
		<tag k="name" v="Ådnefjellet" />
		<tag k="natural" v="hill" />
		<tag k="place" v="locality" />
		<tag k="ssr:stedsnr" v="795932" />
	</node>
	<node id="-483715" lat="60.5878117616" lon="5.09163142663">
		<tag k="name" v="Midtvatnet" />
		<tag k="natural" v="water" />
		<tag k="ssr:stedsnr" v="795926" />
	</node>
	<node id="-483714" lat="60.5744305598" lon="5.08939166234">
		<tag k="name" v="Storavatnet" />
		<tag k="natural" v="water" />
		<tag k="ssr:stedsnr" v="795920" />
		<tag k="water" v="lake" />
	</node>
	<node id="-483713" lat="60.5417344577" lon="5.08655831799">
		<tag k="fixme" v="consider place=hamlet" />
		<tag k="name" v="Leirvik" />
		<tag k="place" v="farm" />
		<tag k="ssr:stedsnr" v="795904" />
	</node>
	<node id="-483712" lat="60.5421228908" lon="5.20008334886">
		<tag k="fixme" v="consider place=hamlet" />
		<tag k="name" v="Bjørnestad" />
		<tag k="place" v="farm" />
		<tag k="ssr:stedsnr" v="795486" />
	</node>
	<node id="-483711" lat="60.5409555526" lon="5.19129443689">
		<tag k="alt_name" v="Meland" />
		<tag k="amenity" v="place_of_worship" />
		<tag k="denomination" v="lutheran" />
		<tag k="name" v="Meland kyrkje" />
		<tag k="religion" v="christian" />
		<tag k="ssr:stedsnr" v="795461" />
	</node>
	<node id="-483710" lat="60.538922225" lon="5.26505555877">
		<tag k="name" v="Flatøy" />
		<tag k="place" v="island" />
		<tag k="ssr:stedsnr" v="795446" />
	</node>
	<node id="-483709" lat="60.5235166665" lon="5.2338750049">
		<tag k="fixme" v="consider natural=peak for the most distinct mountains in the district" />
		<tag k="name" v="Storeknappen" />
		<tag k="natural" v="hill" />
		<tag k="place" v="locality" />
		<tag k="ssr:stedsnr" v="795444" />
	</node>
	<node id="-483708" lat="60.5206770553" lon="5.21339289218">
		<tag k="fixme" v="consider place=hamlet" />
		<tag k="name" v="Mjåtveit" />
		<tag k="place" v="farm" />
		<tag k="ssr:stedsnr" v="795434" />
	</node>
	<node id="-483707" lat="60.5685527756" lon="5.1431444448">
		<tag k="name" v="Lammeneset" />
		<tag k="natural" v="cape" />
		<tag k="ssr:stedsnr" v="795157" />
	</node>
	<node id="-483706" lat="60.5759861115" lon="5.16216943921">
		<tag k="name" v="Storhøyen" />
		<tag k="natural" v="hill" />
		<tag k="place" v="locality" />
		<tag k="ssr:stedsnr" v="795155" />
	</node>
	<node id="-483705" lat="60.5969888919" lon="5.1006777738">
		<tag k="alt_name" v="Gåsevikbukta" />
		<tag k="name" v="Gåsevika" />
		<tag k="natural" v="bay" />
		<tag k="ssr:stedsnr" v="795029" />
	</node>
	<node id="-483704" lat="60.5468083308" lon="5.16686944849">
		<tag k="name" v="Røyset" />
		<tag k="place" v="farm" />
		<tag k="ssr:stedsnr" v="781263" />
	</node>
	<node id="-483703" lat="60.5970027746" lon="5.00613332489">
		<tag k="name" v="Brotshaug" />
		<tag k="place" v="farm" />
		<tag k="ssr:stedsnr" v="780279" />
	</node>
	<node id="-483702" lat="60.5487777756" lon="5.11379721674">
		<tag k="fixme" v="consider natural=peak for the most distinct mountains in the district" />
		<tag k="name" v="Fjellstegnipa" />
		<tag k="natural" v="hill" />
		<tag k="ssr:stedsnr" v="774524" />
	</node>
	<node id="-483701" lat="60.5752944461" lon="5.14467777793">
		<tag k="fixme" v="consider natural=peak for the most distinct mountains in the district" />
		<tag k="name" v="Nordre Grasåsen" />
		<tag k="natural" v="hill" />
		<tag k="place" v="locality" />
		<tag k="ssr:stedsnr" v="774515" />
	</node>
	<node id="-483700" lat="60.5741916663" lon="5.15043610769">
		<tag k="fixme" v="consider natural=peak for the most distinct mountains in the district" />
		<tag k="name" v="Lægdene" />
		<tag k="natural" v="hill" />
		<tag k="place" v="locality" />
		<tag k="ssr:stedsnr" v="774508" />
	</node>
	<node id="-483699" lat="60.5752444441" lon="5.15596111112">
		<tag k="name" v="Dalen" />
		<tag k="natural" v="valley" />
		<tag k="place" v="locality" />
		<tag k="ssr:stedsnr" v="774509" />
	</node>
	<node id="-483698" lat="60.5643481106" lon="5.14742521519">
		<tag k="name" v="Tangen" />
		<tag k="natural" v="cape" />
		<tag k="ssr:stedsnr" v="774503" />
	</node>
	<node id="-483697" lat="60.5793277779" lon="5.13098610487">
		<tag k="name" v="Furebotnen" />
		<tag k="natural" v="valley" />
		<tag k="place" v="locality" />
		<tag k="ssr:stedsnr" v="774496" />
	</node>
	<node id="-483696" lat="60.5776638882" lon="5.163372224">
		<tag k="name" v="Botnen" />
		<tag k="natural" v="valley" />
		<tag k="place" v="locality" />
		<tag k="ssr:stedsnr" v="774485" />
	</node>
	<node id="-483695" lat="60.5781861125" lon="5.16115278146">
		<tag k="name" v="Bløddalen" />
		<tag k="natural" v="valley" />
		<tag k="place" v="locality" />
		<tag k="ssr:stedsnr" v="774484" />
	</node>
	<node id="-483694" lat="60.5818361078" lon="5.16325832489">
		<tag k="name" v="Stemma" />
		<tag k="place" v="locality" />
		<tag k="ssr:stedsnr" v="774482" />
	</node>
	<node id="-483693" lat="60.6075388852" lon="5.01153610523">
		<tag k="name" v="Mortholmen" />
		<tag k="place" v="islet" />
		<tag k="ssr:stedsnr" v="774468" />
	</node>
	<node id="-483692" lat="60.5801694446" lon="5.17047221967">
		<tag k="name" v="Skjelevika" />
		<tag k="natural" v="bay" />
		<tag k="ssr:stedsnr" v="774452" />
	</node>
	<node id="-483691" lat="60.6154944454" lon="4.96133056439">
		<tag k="name" v="Kolevika" />
		<tag k="natural" v="bay" />
		<tag k="ssr:stedsnr" v="774449" />
	</node>
	<node id="-483690" lat="60.5348555537" lon="5.21063055168">
		<tag k="name" v="Arnuken" />
		<tag k="place" v="locality" />
		<tag k="ssr:stedsnr" v="774447" />
	</node>
	<node id="-483689" lat="60.5271749966" lon="5.18628888271">
		<tag k="name" v="Seljeskaret" />
		<tag k="natural" v="hill" />
		<tag k="place" v="locality" />
		<tag k="ssr:stedsnr" v="774436" />
	</node>
	<node id="-483688" lat="60.5248138911" lon="5.15444444661">
		<tag k="name" v="Skipparskarneset" />
		<tag k="natural" v="cape" />
		<tag k="ssr:stedsnr" v="774427" />
	</node>
	<node id="-483687" lat="60.5261694406" lon="5.15103889612">
		<tag k="name" v="Lakseneset" />
		<tag k="natural" v="cape" />
		<tag k="ssr:stedsnr" v="774422" />
	</node>
	<node id="-483686" lat="60.5381833342" lon="5.20956943941">
		<tag k="name" v="Djupedalen" />
		<tag k="natural" v="valley" />
		<tag k="place" v="locality" />
		<tag k="ssr:stedsnr" v="774413" />
	</node>
	<node id="-483685" lat="60.5530944442" lon="5.04440278154">
		<tag k="name" v="Skarshøyen" />
		<tag k="natural" v="hill" />
		<tag k="place" v="locality" />
		<tag k="ssr:stedsnr" v="774406" />
	</node>
	<node id="-483684" lat="60.6024694412" lon="5.0117361122">
		<tag k="name" v="Vardane" />
		<tag k="natural" v="hill" />
		<tag k="place" v="locality" />
		<tag k="ssr:stedsnr" v="774400" />
	</node>
	<node id="-483683" lat="60.5934805587" lon="5.0148361044">
		<tag k="fixme" v="consider natural=peak for the most distinct mountains in the district" />
		<tag k="name" v="Floren" />
		<tag k="natural" v="hill" />
		<tag k="place" v="locality" />
		<tag k="ssr:stedsnr" v="774398" />
	</node>
	<node id="-483682" lat="60.5983305577" lon="5.03475832785">
		<tag k="fixme" v="consider natural=peak for the most distinct mountains in the district" />
		<tag k="name" v="Nipa" />
		<tag k="natural" v="hill" />
		<tag k="place" v="locality" />
		<tag k="ssr:stedsnr" v="774395" />
	</node>
	<node id="-483681" lat="60.5232583334" lon="5.24761666945">
		<tag k="name" v="Langelandshavn" />
		<tag k="natural" v="bay" />
		<tag k="ssr:stedsnr" v="774389" />
	</node>
	<node id="-483680" lat="60.5602388927" lon="5.03497222583">
		<tag k="name" v="Rosslandsvågen" />
		<tag k="natural" v="bay" />
		<tag k="ssr:stedsnr" v="774364" />
	</node>
	<node id="-483679" lat="60.5581083332" lon="5.00662777467">
		<tag k="name" v="Reveneset" />
		<tag k="natural" v="cape" />
		<tag k="ssr:stedsnr" v="774354" />
	</node>
	<node id="-483678" lat="60.5508388898" lon="5.01378056124">
		<tag k="name" v="Lamholmen" />
		<tag k="place" v="islet" />
		<tag k="ssr:stedsnr" v="774353" />
	</node>
	<node id="-483677" lat="60.5546333327" lon="5.01337499149">
		<tag k="name" v="Øpsevågen" />
		<tag k="natural" v="bay" />
		<tag k="ssr:stedsnr" v="774348" />
	</node>
	<node id="-483676" lat="60.5728500026" lon="5.01533333064">
		<tag k="name" v="Trettholmsvika" />
		<tag k="natural" v="bay" />
		<tag k="ssr:stedsnr" v="774340" />
	</node>
	<node id="-483675" lat="60.5457416666" lon="5.23701667432">
		<tag k="fixme" v="consider boundary=protected_area and relevant protect_class if not nature reserve" />
		<tag k="leisure" v="nature_reserve" />
		<tag k="name" v="Håøya friluftsområde" />
		<tag k="ssr:stedsnr" v="774273" />
	</node>
	<node id="-483674" lat="60.5489222229" lon="5.22006111704">
		<tag k="name" v="Svehøyen" />
		<tag k="natural" v="hill" />
		<tag k="place" v="locality" />
		<tag k="ssr:stedsnr" v="773063" />
	</node>
	<node id="-483673" lat="60.5865822382" lon="5.13315984204">
		<tag k="name" v="Ådlandstjørna" />
		<tag k="natural" v="water" />
		<tag k="ssr:stedsnr" v="772491" />
	</node>
	<node id="-483672" lat="60.5978749977" lon="5.00379444861">
		<tag k="name" v="Brotshaug" />
		<tag k="place" v="hamlet" />
		<tag k="ssr:stedsnr" v="772195" />
	</node>
	<node id="-483671" lat="60.5736590028" lon="5.07459938301">
		<tag k="name" v="Tjørnmyra" />
		<tag k="natural" v="wetland" />
		<tag k="ssr:stedsnr" v="772094" />
	</node>
	<node id="-483670" lat="60.5692027742" lon="5.07286111453">
		<tag k="fixme" v="consider natural=peak for the most distinct mountains in the district" />
		<tag k="name" v="Åsebøåsen" />
		<tag k="natural" v="hill" />
		<tag k="place" v="locality" />
		<tag k="ssr:stedsnr" v="772092" />
	</node>
	<node id="-483669" lat="60.577640542" lon="5.09237100304">
		<tag k="name" v="Skitbåsen" />
		<tag k="natural" v="cape" />
		<tag k="ssr:stedsnr" v="772085" />
	</node>
	<node id="-483668" lat="60.5718302252" lon="5.10607311628">
		<tag k="name" v="Øyneset" />
		<tag k="natural" v="cape" />
		<tag k="ssr:stedsnr" v="772076" />
	</node>
	<node id="-483667" lat="60.5726691635" lon="5.09642606076">
		<tag k="name" v="Brendeholmen" />
		<tag k="place" v="island" />
		<tag k="ssr:stedsnr" v="772077" />
	</node>
	<node id="-483666" lat="60.5568194476" lon="5.20563889219">
		<tag k="name" v="Stemmedalen" />
		<tag k="natural" v="valley" />
		<tag k="place" v="locality" />
		<tag k="ssr:stedsnr" v="772051" />
	</node>
	<node id="-483665" lat="60.543502776" lon="5.12961388144">
		<tag k="fixme" v="consider place=hamlet" />
		<tag k="name" v="Indre-Brakstad" />
		<tag k="place" v="farm" />
		<tag k="ssr:stedsnr" v="772030" />
	</node>
	<node id="-483664" lat="60.5424611149" lon="5.16610832422">
		<tag k="name" v="Våtringadalen" />
		<tag k="natural" v="valley" />
		<tag k="place" v="locality" />
		<tag k="ssr:stedsnr" v="772026" />
	</node>
	<node id="-483663" lat="60.5103833301" lon="5.19924444871">
		<tag k="name" v="Dalstøneset" />
		<tag k="natural" v="cape" />
		<tag k="ssr:stedsnr" v="772018" />
	</node>
	<node id="-483662" lat="60.5123305599" lon="5.2246249969">
		<tag k="name" v="Torvmyrane" />
		<tag k="natural" v="wetland" />
		<tag k="ssr:stedsnr" v="772013" />
	</node>
	<node id="-483661" lat="60.5094111105" lon="5.21488332605">
		<tag k="name" v="Storskaret" />
		<tag k="natural" v="hill" />
		<tag k="place" v="locality" />
		<tag k="ssr:stedsnr" v="772003" />
	</node>
	<node id="-483660" lat="60.5337512092" lon="5.1898466059">
		<tag k="fixme" v="consider place=hamlet" />
		<tag k="name" v="Øvre Dale" />
		<tag k="place" v="farm" />
		<tag k="ssr:stedsnr" v="757617" />
	</node>
	<node id="-483659" lat="60.6069722231" lon="5.00254165773">
		<tag k="alt_name" v="Meholm" />
		<tag k="name" v="Meholmen" />
		<tag k="place" v="islet" />
		<tag k="ssr:stedsnr" v="753593" />
	</node>
	<node id="-483658" lat="60.5278179402" lon="5.13620292722">
		<tag k="name" v="Gardsendvika" />
		<tag k="natural" v="bay" />
		<tag k="ssr:stedsnr" v="753557" />
	</node>
	<node id="-483657" lat="60.5595194448" lon="5.01832500102">
		<tag k="name" v="Leirestraumen" />
		<tag k="natural" v="bay" />
		<tag k="ssr:stedsnr" v="753553" />
	</node>
	<node id="-483656" lat="60.5507166664" lon="5.02395278278">
		<tag k="name" v="Øpsehavn" />
		<tag k="natural" v="bay" />
		<tag k="ssr:stedsnr" v="753548" />
	</node>
	<node id="-483655" lat="60.5646500024" lon="5.01007499196">
		<tag k="name" v="Ørnhøyen" />
		<tag k="natural" v="hill" />
		<tag k="place" v="locality" />
		<tag k="ssr:stedsnr" v="753547" />
	</node>
	<node id="-483654" lat="60.5257166643" lon="5.1545750022">
		<tag k="name" v="Holmeknappen" />
		<tag k="place" v="hamlet" />
		<tag k="ssr:stedsnr" v="753539" />
	</node>
	<node id="-483653" lat="60.5187472198" lon="5.18005556456">
		<tag k="name" v="Kvigedalen" />
		<tag k="natural" v="valley" />
		<tag k="place" v="locality" />
		<tag k="ssr:stedsnr" v="753536" />
	</node>
	<node id="-483651" lat="60.6036303226" lon="5.04001309509">
		<tag k="name" v="Kårbøtjørna" />
		<tag k="natural" v="water" />
		<tag k="ssr:stedsnr" v="734939" />
	</node>
	<node id="-483650" lat="60.588675881" lon="5.0135515808">
		<tag k="name" v="Husebøvatnet" />
		<tag k="natural" v="water" />
		<tag k="ssr:stedsnr" v="734928" />
	</node>
	<node id="-483649" lat="60.5861194442" lon="5.06083611289">
		<tag k="fixme" v="consider natural=peak for the most distinct mountains in the district" />
		<tag k="name" v="Storanipa" />
		<tag k="natural" v="hill" />
		<tag k="place" v="locality" />
		<tag k="ssr:stedsnr" v="734923" />
	</node>
	<node id="-483648" lat="60.5574750043" lon="5.02950833857">
		<tag k="name" v="Eikevika" />
		<tag k="natural" v="bay" />
		<tag k="ssr:stedsnr" v="734910" />
	</node>
	<node id="-483647" lat="60.5543722246" lon="5.0320583406">
		<tag k="fixme" v="consider natural=peak for the most distinct mountains in the district" />
		<tag k="name" v="Kyrkjevikhøyen" />
		<tag k="natural" v="hill" />
		<tag k="place" v="locality" />
		<tag k="ssr:stedsnr" v="734904" />
	</node>
	<node id="-483646" lat="60.5449944452" lon="5.04442222186">
		<tag k="name" v="Kippevikholmen" />
		<tag k="place" v="islet" />
		<tag k="ssr:stedsnr" v="734902" />
	</node>
	<node id="-483645" lat="60.5774638929" lon="5.13096945253">
		<tag k="fixme" v="consider natural=peak for the most distinct mountains in the district" />
		<tag k="name" v="Langåsane" />
		<tag k="natural" v="hill" />
		<tag k="place" v="locality" />
		<tag k="ssr:stedsnr" v="734115" />
	</node>
	<node id="-483644" lat="60.588200004" lon="5.12926111947">
		<tag k="name" v="Øyjordi" />
		<tag k="place" v="farm" />
		<tag k="ssr:stedsnr" v="734101" />
	</node>
	<node id="-483643" lat="60.5558738502" lon="5.16507615083">
		<tag k="fixme" v="consider place=hamlet" />
		<tag k="name" v="Hestdal" />
		<tag k="place" v="farm" />
		<tag k="ssr:stedsnr" v="734091" />
	</node>
	<node id="-483642" lat="60.5655638924" lon="5.18599166952">
		<tag k="name" v="Høganipa" />
		<tag k="natural" v="hill" />
		<tag k="place" v="locality" />
		<tag k="ssr:stedsnr" v="734076" />
	</node>
	<node id="-483640" lat="60.5607027785" lon="5.05210555445">
		<tag k="bridge" v="yes" />
		<tag k="layer" v="1" />
		<tag k="name" v="Rossland" />
		<tag k="ssr:stedsnr" v="715002" />
	</node>
	<node id="-483639" lat="60.5451361105" lon="5.07249721984">
		<tag k="fixme" v="consider natural=peak for the most distinct mountains in the district" />
		<tag k="name" v="Haukåsen" />
		<tag k="natural" v="hill" />
		<tag k="place" v="locality" />
		<tag k="ssr:stedsnr" v="713523" />
	</node>
	<node id="-483638" lat="60.5519527793" lon="5.09183055689">
		<tag k="name" v="Småsundet" />
		<tag k="natural" v="strait" />
		<tag k="ssr:stedsnr" v="713524" />
	</node>
	<node id="-483637" lat="60.5466750038" lon="5.0780999978">
		<tag k="fixme" v="consider natural=peak for the most distinct mountains in the district" />
		<tag k="name" v="Grønåsen" />
		<tag k="natural" v="hill" />
		<tag k="place" v="locality" />
		<tag k="ssr:stedsnr" v="713522" />
	</node>
	<node id="-483636" lat="60.5589184368" lon="5.06601116862">
		<tag k="name" v="Skintveittjørna" />
		<tag k="natural" v="water" />
		<tag k="ssr:stedsnr" v="713511" />
	</node>
	<node id="-483635" lat="60.5578388925" lon="5.08755277781">
		<tag k="fixme" v="consider natural=peak for the most distinct mountains in the district" />
		<tag k="name" v="Skjenåsen" />
		<tag k="natural" v="hill" />
		<tag k="place" v="locality" />
		<tag k="ssr:stedsnr" v="713509" />
	</node>
	<node id="-483634" lat="60.5804472218" lon="5.1420166684">
		<tag k="name" v="Litlaskaret" />
		<tag k="natural" v="hill" />
		<tag k="place" v="locality" />
		<tag k="ssr:stedsnr" v="713490" />
	</node>
	<node id="-483633" lat="60.5691388851" lon="5.1361250071">
		<tag k="name" v="Mjåsundet" />
		<tag k="natural" v="strait" />
		<tag k="ssr:stedsnr" v="713478" />
	</node>
	<node id="-483632" lat="60.5814305577" lon="5.16554166072">
		<tag k="name" v="Osphøyen" />
		<tag k="natural" v="hill" />
		<tag k="place" v="locality" />
		<tag k="ssr:stedsnr" v="713455" />
	</node>
	<node id="-483631" lat="60.5386388914" lon="5.17054999288">
		<tag k="name" v="Grønekletten" />
		<tag k="place" v="locality" />
		<tag k="ssr:stedsnr" v="713422" />
	</node>
	<node id="-483630" lat="60.5235777753" lon="5.20499723068">
		<tag k="name" v="Flåmyrane" />
		<tag k="natural" v="wetland" />
		<tag k="ssr:stedsnr" v="713390" />
	</node>
	<node id="-483629" lat="60.5993305529" lon="5.03083889743">
		<tag k="name" v="Nedre Storhøyen" />
		<tag k="natural" v="hill" />
		<tag k="place" v="locality" />
		<tag k="ssr:stedsnr" v="713341" />
	</node>
	<node id="-483628" lat="60.5915222184" lon="5.03533888111">
		<tag k="name" v="Øyrdalen" />
		<tag k="natural" v="valley" />
		<tag k="place" v="locality" />
		<tag k="ssr:stedsnr" v="713340" />
	</node>
	<node id="-483627" lat="60.5972888926" lon="5.02999166972">
		<tag k="name" v="Storhøyen" />
		<tag k="natural" v="hill" />
		<tag k="place" v="locality" />
		<tag k="ssr:stedsnr" v="713338" />
	</node>
	<node id="-483626" lat="60.5949999965" lon="5.0539722313">
		<tag k="fixme" v="consider natural=peak for the most distinct mountains in the district" />
		<tag k="name" v="Gnistifjellet" />
		<tag k="natural" v="hill" />
		<tag k="place" v="locality" />
		<tag k="ssr:stedsnr" v="713336" />
	</node>
	<node id="-483625" lat="60.5905611131" lon="4.99626110365">
		<tag k="name" v="Hundskjeften" />
		<tag k="place" v="farm" />
		<tag k="ssr:stedsnr" v="713325" />
	</node>
	<node id="-483624" lat="60.5441138851" lon="5.0640722275">
		<tag k="name" v="Djupedalen" />
		<tag k="natural" v="valley" />
		<tag k="place" v="locality" />
		<tag k="ssr:stedsnr" v="713322" />
	</node>
	<node id="-483623" lat="60.5543916628" lon="5.01095834096">
		<tag k="name" v="Smalneset" />
		<tag k="natural" v="cape" />
		<tag k="ssr:stedsnr" v="713310" />
	</node>
	<node id="-483622" lat="60.5317194416" lon="5.2516333268">
		<tag k="name" v="Brodden" />
		<tag k="natural" v="cape" />
		<tag k="ssr:stedsnr" v="713285" />
	</node>
	<node id="-483621" lat="60.5198305571" lon="5.23745277419">
		<tag k="name" v="Langeland" />
		<tag k="place" v="farm" />
		<tag k="ssr:stedsnr" v="713281" />
	</node>
	<node id="-483620" lat="60.5360750026" lon="5.24871944281">
		<tag k="name" v="Hatleholmen" />
		<tag k="place" v="islet" />
		<tag k="ssr:stedsnr" v="713277" />
	</node>
	<node id="-483619" lat="60.5153194488" lon="5.24071388641">
		<tag k="amenity" v="school" />
		<tag k="name" v="Nordhordland Folkehøgskole" />
		<tag k="ssr:stedsnr" v="713275" />
	</node>
	<node id="-483618" lat="60.5418525541" lon="5.23761081143">
		<tag k="fixme" v="consider boundary=protected_area and relevant protect_class if not nature reserve" />
		<tag k="leisure" v="nature_reserve" />
		<tag k="name" v="Smineset friluftsområde" />
		<tag k="ssr:stedsnr" v="713263" />
	</node>
	<node id="-483617" lat="60.5480888883" lon="5.24801944591">
		<tag k="name" v="Nordra Eidavika" />
		<tag k="natural" v="bay" />
		<tag k="ssr:stedsnr" v="713258" />
	</node>
	<node id="-483616" lat="60.5688249987" lon="5.03694444226">
		<tag k="name" v="Knutstøvika" />
		<tag k="natural" v="bay" />
		<tag k="ssr:stedsnr" v="713248" />
	</node>
	<node id="-483615" lat="60.5119833373" lon="5.20373611171">
		<tag k="name" v="Dalstøi" />
		<tag k="place" v="farm" />
		<tag k="ssr:stedsnr" v="712159" />
	</node>
	<node id="-483614" lat="60.5776027751" lon="5.06027222532">
		<tag k="name" v="Strangefjellstjørna" />
		<tag k="natural" v="water" />
		<tag k="ssr:stedsnr" v="712088" />
	</node>
	<node id="-483613" lat="60.5661812907" lon="5.08473608546">
		<tag k="name" v="Grønnevika" />
		<tag k="natural" v="bay" />
		<tag k="ssr:stedsnr" v="712085" />
	</node>
	<node id="-483612" lat="60.5545472237" lon="5.2279861075">
		<tag k="bay" v="fjord" />
		<tag k="name" v="Slimo" />
		<tag k="natural" v="bay" />
		<tag k="ssr:stedsnr" v="712057" />
	</node>
	<node id="-483611" lat="60.5568527814" lon="5.18166389526">
		<tag k="fixme" v="consider natural=peak for the most distinct mountains in the district" />
		<tag k="name" v="Grimåsen" />
		<tag k="natural" v="hill" />
		<tag k="place" v="locality" />
		<tag k="ssr:stedsnr" v="712046" />
	</node>
	<node id="-483610" lat="60.5528027818" lon="5.18011666918">
		<tag k="name" v="Myrvollane" />
		<tag k="place" v="farm" />
		<tag k="ssr:stedsnr" v="712044" />
	</node>
	<node id="-483609" lat="60.5147305553" lon="5.21087221436">
		<tag k="fixme" v="consider natural=peak for the most distinct mountains in the district" />
		<tag k="name" v="Fageråsen" />
		<tag k="natural" v="hill" />
		<tag k="place" v="locality" />
		<tag k="ssr:stedsnr" v="712006" />
	</node>
	<node id="-483608" lat="60.5543024954" lon="5.00665010517">
		<tag k="fixme" v="consider place=hamlet" />
		<tag k="name" v="Øpso" />
		<tag k="place" v="farm" />
		<tag k="ssr:stedsnr" v="703656" />
	</node>
	<node id="-483607" lat="60.5538277789" lon="5.00677500411">
		<tag k="name" v="Øpso" />
		<tag k="place" v="farm" />
		<tag k="ssr:stedsnr" v="703655" />
	</node>
	<node id="-483606" lat="60.55936389" lon="5.19813332471">
		<tag k="alt_name" v="Espetveitvatnet" />
		<tag k="name" v="Espetveittjørna" />
		<tag k="natural" v="water" />
		<tag k="ssr:stedsnr" v="693602" />
		<tag k="water" v="lake" />
	</node>
	<node id="-483605" lat="60.5634555521" lon="4.98582500839">
		<tag k="name" v="Det naua" />
		<tag k="natural" v="strait" />
		<tag k="ssr:stedsnr" v="692931" />
	</node>
	<node id="-483604" lat="60.613111115" lon="4.97350278002">
		<tag k="name" v="Insteodden" />
		<tag k="natural" v="cape" />
		<tag k="ssr:stedsnr" v="691675" />
	</node>
	<node id="-483603" lat="60.5873464429" lon="5.07894748519">
		<tag k="name" v="Livatnet" />
		<tag k="natural" v="water" />
		<tag k="ssr:stedsnr" v="674909" />
	</node>
	<node id="-483602" lat="60.5313658465" lon="5.14336539791">
		<tag k="fixme" v="consider place=hamlet" />
		<tag k="name" v="Hjartås" />
		<tag k="place" v="farm" />
		<tag k="ssr:stedsnr" v="674382" />
	</node>
	<node id="-483600" lat="60.5428722198" lon="5.03893333753">
		<tag k="name" v="Beitingflua" />
		<tag k="natural" v="shoal" />
		<tag k="place" v="locality" />
		<tag k="ssr:stedsnr" v="673920" />
	</node>
	<node id="-483599" lat="60.5322500041" lon="5.21768611078">
		<tag k="name" v="Holsnøy" />
		<tag k="place" v="island" />
		<tag k="ssr:stedsnr" v="673909" />
	</node>
	<node id="-483598" lat="60.5774854573" lon="5.13867356146">
		<tag k="name" v="Kvernavatnet" />
		<tag k="natural" v="water" />
		<tag k="ssr:stedsnr" v="673124" />
	</node>
	<node id="-483597" lat="60.5461666637" lon="5.16269445195">
		<tag k="name" v="Røyset" />
		<tag k="place" v="farm" />
		<tag k="ssr:stedsnr" v="659269" />
	</node>
	<node id="-483596" lat="60.5538972242" lon="5.08983888328">
		<tag k="name" v="Nesklubben" />
		<tag k="natural" v="cape" />
		<tag k="ssr:stedsnr" v="652497" />
	</node>
	<node id="-483595" lat="60.5517722246" lon="5.09385832697">
		<tag k="name" v="Brakstadneset" />
		<tag k="natural" v="cape" />
		<tag k="ssr:stedsnr" v="652496" />
	</node>
	<node id="-483594" lat="60.5788694402" lon="5.13626944404">
		<tag k="name" v="Kringla" />
		<tag k="natural" v="hill" />
		<tag k="place" v="locality" />
		<tag k="ssr:stedsnr" v="652461" />
	</node>
	<node id="-483593" lat="60.5774500032" lon="5.14256665756">
		<tag k="name" v="Svebakken" />
		<tag k="natural" v="slope" />
		<tag k="place" v="locality" />
		<tag k="ssr:stedsnr" v="652450" />
	</node>
	<node id="-483592" lat="60.5509212671" lon="5.0667981528">
		<tag k="name" v="Rylandstjørna" />
		<tag k="natural" v="water" />
		<tag k="ssr:stedsnr" v="652431" />
	</node>
	<node id="-483591" lat="60.5705472059" lon="5.17360044567">
		<tag k="name" v="Vasstetjørna" />
		<tag k="natural" v="water" />
		<tag k="ssr:stedsnr" v="652409" />
	</node>
	<node id="-483590" lat="60.5388444404" lon="5.16285000095">
		<tag k="name" v="Træna" />
		<tag k="natural" v="hill" />
		<tag k="place" v="locality" />
		<tag k="ssr:stedsnr" v="652398" />
	</node>
	<node id="-483589" lat="60.5364388933" lon="5.1952472187">
		<tag k="name" v="Bruraskrevet" />
		<tag k="place" v="locality" />
		<tag k="ssr:stedsnr" v="652361" />
	</node>
	<node id="-483588" lat="60.5349694406" lon="5.14101389302">
		<tag k="fixme" v="consider natural=peak for the most distinct mountains in the district" />
		<tag k="name" v="Svikkhaugfjellet" />
		<tag k="natural" v="hill" />
		<tag k="place" v="locality" />
		<tag k="ssr:stedsnr" v="652347" />
	</node>
	<node id="-483587" lat="60.5343361137" lon="5.22163888672">
		<tag k="name" v="Dalen" />
		<tag k="natural" v="valley" />
		<tag k="place" v="locality" />
		<tag k="ssr:stedsnr" v="652334" />
	</node>
	<node id="-483586" lat="60.5385333316" lon="5.20689999576">
		<tag k="fixme" v="consider natural=peak for the most distinct mountains in the district" />
		<tag k="name" v="Daurnipa" />
		<tag k="natural" v="hill" />
		<tag k="place" v="locality" />
		<tag k="ssr:stedsnr" v="652332" />
	</node>
	<node id="-483585" lat="60.5360527795" lon="5.2186444386">
		<tag k="name" v="Nukane" />
		<tag k="place" v="locality" />
		<tag k="ssr:stedsnr" v="652331" />
	</node>
	<node id="-483584" lat="60.5520861106" lon="5.05166111908">
		<tag k="name" v="Prestvardmyra" />
		<tag k="natural" v="wetland" />
		<tag k="ssr:stedsnr" v="652324" />
	</node>
	<node id="-483583" lat="60.5535305512" lon="5.04894721483">
		<tag k="name" v="Høgenipa" />
		<tag k="natural" v="hill" />
		<tag k="place" v="locality" />
		<tag k="ssr:stedsnr" v="652323" />
	</node>
	<node id="-483582" lat="60.5528638874" lon="5.04029166375">
		<tag k="historic" v="shieling" />
		<tag k="name" v="Bustølen" />
		<tag k="place" v="locality" />
		<tag k="ssr:stedsnr" v="652320" />
	</node>
	<node id="-483581" lat="60.5469944419" lon="5.04540000169">
		<tag k="name" v="Storamyra" />
		<tag k="natural" v="wetland" />
		<tag k="ssr:stedsnr" v="652318" />
	</node>
	<node id="-483580" lat="60.542263886" lon="5.04959167178">
		<tag k="name" v="Beitingshaugen" />
		<tag k="natural" v="hill" />
		<tag k="place" v="locality" />
		<tag k="ssr:stedsnr" v="652317" />
	</node>
	<node id="-483579" lat="60.5995249976" lon="5.01978888148">
		<tag k="fixme" v="consider natural=peak for the most distinct mountains in the district" />
		<tag k="name" v="Hatten" />
		<tag k="natural" v="hill" />
		<tag k="place" v="locality" />
		<tag k="ssr:stedsnr" v="652313" />
	</node>
	<node id="-483578" lat="60.595152779" lon="5.05143055773">
		<tag k="name" v="Helleren" />
		<tag k="place" v="locality" />
		<tag k="ssr:stedsnr" v="652305" />
	</node>
	<node id="-483577" lat="60.5324388895" lon="5.26197221816">
		<tag k="name" v="Solbergsvika" />
		<tag k="natural" v="bay" />
		<tag k="ssr:stedsnr" v="652298" />
	</node>
	<node id="-483576" lat="60.5907916693" lon="4.98554166736">
		<tag k="name" v="Flataneset" />
		<tag k="natural" v="cape" />
		<tag k="ssr:stedsnr" v="652295" />
	</node>
	<node id="-483575" lat="60.6008111095" lon="4.95706111043">
		<tag k="name" v="Sjøholmen" />
		<tag k="place" v="islet" />
		<tag k="ssr:stedsnr" v="652292" />
	</node>
	<node id="-483574" lat="60.5511444441" lon="5.02660277001">
		<tag k="name" v="Klubben" />
		<tag k="natural" v="cape" />
		<tag k="ssr:stedsnr" v="652276" />
	</node>
	<node id="-483573" lat="60.5647916674" lon="5.0530444519">
		<tag k="name" v="Vikebøvika" />
		<tag k="natural" v="bay" />
		<tag k="ssr:stedsnr" v="652272" />
	</node>
	<node id="-483572" lat="60.5324583368" lon="5.25939166901">
		<tag k="name" v="Rinden" />
		<tag k="place" v="locality" />
		<tag k="ssr:stedsnr" v="652263" />
	</node>
	<node id="-483571" lat="60.5311194468" lon="5.24436110324">
		<tag k="name" v="Utgjerdet" />
		<tag k="place" v="farm" />
		<tag k="ssr:stedsnr" v="652250" />
	</node>
	<node id="-483570" lat="60.5387055586" lon="5.26621389149">
		<tag k="name" v="Trollhøyen" />
		<tag k="natural" v="hill" />
		<tag k="place" v="locality" />
		<tag k="ssr:stedsnr" v="652249" />
	</node>
	<node id="-483569" lat="60.5450111083" lon="5.23938610451">
		<tag k="name" v="Slåttena" />
		<tag k="place" v="locality" />
		<tag k="ssr:stedsnr" v="652225" />
	</node>
	<node id="-483568" lat="60.5874499969" lon="4.99640277113">
		<tag k="name" v="Hesthøyen" />
		<tag k="natural" v="hill" />
		<tag k="place" v="locality" />
		<tag k="ssr:stedsnr" v="651775" />
	</node>
	<node id="-483567" lat="60.55466944" lon="5.06878054928">
		<tag k="name" v="Sørastøa" />
		<tag k="natural" v="cape" />
		<tag k="ssr:stedsnr" v="651516" />
	</node>
	<node id="-483566" lat="60.5893333325" lon="5.12177499307">
		<tag k="name" v="Varden" />
		<tag k="natural" v="hill" />
		<tag k="place" v="locality" />
		<tag k="ssr:stedsnr" v="651500" />
	</node>
	<node id="-483565" lat="60.5935000001" lon="5.13985555376">
		<tag k="name" v="Sinko" />
		<tag k="natural" v="cape" />
		<tag k="ssr:stedsnr" v="651487" />
	</node>
	<node id="-483564" lat="60.548952775" lon="5.08749167351">
		<tag k="name" v="Tunga" />
		<tag k="natural" v="cape" />
		<tag k="ssr:stedsnr" v="651468" />
	</node>
	<node id="-483563" lat="60.5597240194" lon="5.02261192272">
		<tag k="fixme" v="consider place=hamlet" />
		<tag k="name" v="Io" />
		<tag k="place" v="farm" />
		<tag k="ssr:stedsnr" v="651165" />
	</node>
	<node id="-483562" lat="60.5408527789" lon="5.23477221461">
		<tag k="name" v="Litlebergen" />
		<tag k="place" v="village" />
		<tag k="ssr:stedsnr" v="651139" />
	</node>
	<node id="-483560" lat="60.5722416475" lon="5.10993298029">
		<tag k="name" v="Minneset" />
		<tag k="natural" v="cape" />
		<tag k="ssr:stedsnr" v="651088" />
	</node>
	<node id="-483559" lat="60.5636638896" lon="5.10136388672">
		<tag k="fixme" v="consider natural=peak for the most distinct mountains in the district" />
		<tag k="name" v="Onesåsen" />
		<tag k="natural" v="hill" />
		<tag k="place" v="locality" />
		<tag k="ssr:stedsnr" v="651085" />
	</node>
	<node id="-483558" lat="60.5451714231" lon="5.20726976429">
		<tag k="name" v="Grautabrekka" />
		<tag k="natural" v="slope" />
		<tag k="place" v="locality" />
		<tag k="ssr:stedsnr" v="651081" />
	</node>
	<node id="-483557" lat="60.5520916631" lon="5.1975499982">
		<tag k="fixme" v="consider natural=peak for the most distinct mountains in the district" />
		<tag k="name" v="Grasdalsåsen" />
		<tag k="natural" v="hill" />
		<tag k="place" v="locality" />
		<tag k="ssr:stedsnr" v="651075" />
	</node>
	<node id="-483556" lat="60.5580944429" lon="5.19163888361">
		<tag k="fixme" v="consider natural=peak for the most distinct mountains in the district" />
		<tag k="name" v="Vardåsen" />
		<tag k="natural" v="hill" />
		<tag k="place" v="locality" />
		<tag k="ssr:stedsnr" v="651072" />
	</node>
	<node id="-483555" lat="60.5482111083" lon="5.18506665941">
		<tag k="fixme" v="consider natural=peak for the most distinct mountains in the district" />
		<tag k="name" v="Bustøene" />
		<tag k="natural" v="hill" />
		<tag k="place" v="locality" />
		<tag k="ssr:stedsnr" v="651060" />
	</node>
	<node id="-483554" lat="60.5450111084" lon="5.18934722959">
		<tag k="fixme" v="consider natural=peak for the most distinct mountains in the district" />
		<tag k="name" v="Sørnipa" />
		<tag k="natural" v="hill" />
		<tag k="place" v="locality" />
		<tag k="ssr:stedsnr" v="651056" />
	</node>
	<node id="-483553" lat="60.5120055525" lon="5.22170278717">
		<tag k="name" v="Floghaugane" />
		<tag k="natural" v="hill" />
		<tag k="place" v="locality" />
		<tag k="ssr:stedsnr" v="651011" />
	</node>
	<node id="-483552" lat="60.5624722249" lon="5.04684999416">
		<tag k="name" v="Kvernhaugen" />
		<tag k="place" v="quarter" />
		<tag k="ssr:stedsnr" v="646050" />
	</node>
	<node id="-483551" lat="60.5491361077" lon="5.21374166405">
		<tag k="name" v="Hammaren" />
		<tag k="place" v="quarter" />
		<tag k="ssr:stedsnr" v="646001" />
	</node>
	<node id="-483550" lat="60.5883555566" lon="5.12948610439">
		<tag k="name" v="Nordre Ådland" />
		<tag k="place" v="farm" />
		<tag k="ssr:stedsnr" v="635621" />
	</node>
	<node id="-483549" lat="60.6031500018" lon="5.07126944971">
		<tag k="name" v="Geitnesflua" />
		<tag k="natural" v="shoal" />
		<tag k="place" v="locality" />
		<tag k="ssr:stedsnr" v="631660" />
	</node>
	<node id="-483548" lat="60.5543333372" lon="5.02916667441">
		<tag k="name" v="Fløholmen" />
		<tag k="place" v="locality" />
		<tag k="ssr:stedsnr" v="631589" />
	</node>
	<node id="-483547" lat="60.6016777768" lon="5.07479167278">
		<tag k="name" v="Geitneset" />
		<tag k="natural" v="cape" />
		<tag k="ssr:stedsnr" v="613930" />
	</node>
	<node id="-483546" lat="60.5742867939" lon="5.07125630814">
		<tag k="name" v="Åsebøtjørna" />
		<tag k="natural" v="water" />
		<tag k="ssr:stedsnr" v="613915" />
	</node>
	<node id="-483545" lat="60.5315805521" lon="5.16602499562">
		<tag k="name" v="Hoplandsfjellet" />
		<tag k="natural" v="hill" />
		<tag k="place" v="locality" />
		<tag k="ssr:stedsnr" v="613420" />
	</node>
	<node id="-483544" lat="60.5362750033" lon="5.13716944777">
		<tag k="fixme" v="consider natural=peak for the most distinct mountains in the district" />
		<tag k="name" v="Hjartåsfjellet" />
		<tag k="natural" v="hill" />
		<tag k="place" v="locality" />
		<tag k="ssr:stedsnr" v="613421" />
	</node>
	<node id="-483543" lat="60.5262916652" lon="5.20411945358">
		<tag k="name" v="Sakstad" />
		<tag k="place" v="hamlet" />
		<tag k="ssr:stedsnr" v="613398" />
	</node>
	<node id="-483542" lat="60.5912638869" lon="5.13600556412">
		<tag k="name" v="Ådlandsvågen" />
		<tag k="natural" v="bay" />
		<tag k="ssr:stedsnr" v="613104" />
	</node>
	<node id="-483541" lat="60.615449999" lon="4.94628333215">
		<tag k="alt_name" v="Nesodden" />
		<tag k="name" v="Eldsneset" />
		<tag k="natural" v="cape" />
		<tag k="ssr:stedsnr" v="612955" />
	</node>
	<node id="-483540" lat="60.5703923534" lon="5.04067195489">
		<tag k="fixme" v="consider place=hamlet" />
		<tag k="name" v="Skurtveit" />
		<tag k="place" v="farm" />
		<tag k="ssr:stedsnr" v="612933" />
	</node>
	<node id="-483539" lat="60.556136111" lon="5.01621667401">
		<tag k="name" v="Hestholmen" />
		<tag k="place" v="islet" />
		<tag k="ssr:stedsnr" v="612931" />
	</node>
	<node id="-483538" lat="60.5527832834" lon="5.01346310614">
		<tag k="name" v="Storevågen" />
		<tag k="natural" v="bay" />
		<tag k="ssr:stedsnr" v="612927" />
	</node>
	<node id="-483537" lat="60.5496844194" lon="5.09198574023">
		<tag k="name" v="Rylandsvatnet" />
		<tag k="natural" v="water" />
		<tag k="ssr:stedsnr" v="612918" />
		<tag k="water" v="lake" />
	</node>
	<node id="-483536" lat="60.5103555544" lon="5.25560555573">
		<tag k="bay" v="fjord" />
		<tag k="name" v="Salhusfjorden" />
		<tag k="natural" v="bay" />
		<tag k="ssr:stedsnr" v="612403" />
	</node>
	<node id="-483535" lat="60.5805583373" lon="5.13962778492">
		<tag k="fixme" v="consider natural=peak for the most distinct mountains in the district" />
		<tag k="name" v="Litlafjellet" />
		<tag k="natural" v="hill" />
		<tag k="place" v="locality" />
		<tag k="ssr:stedsnr" v="612133" />
	</node>
	<node id="-483534" lat="60.5979527796" lon="5.00067777774">
		<tag k="name" v="Brotshaug" />
		<tag k="place" v="farm" />
		<tag k="ssr:stedsnr" v="598281" />
	</node>
	<node id="-483533" lat="60.5303944476" lon="5.15485832985">
		<tag k="bridge" v="yes" />
		<tag k="layer" v="1" />
		<tag k="name" v="Holme" />
		<tag k="ssr:stedsnr" v="593010" />
	</node>
	<node id="-483532" lat="60.5406166674" lon="5.11353611201">
		<tag k="bridge" v="yes" />
		<tag k="layer" v="1" />
		<tag k="name" v="Fløksandselva" />
		<tag k="ssr:stedsnr" v="593007" />
	</node>
	<node id="-483531" lat="60.555544441" lon="5.09418332647">
		<tag k="name" v="Skjevlebukta" />
		<tag k="natural" v="bay" />
		<tag k="ssr:stedsnr" v="592533" />
	</node>
	<node id="-483530" lat="60.5764083293" lon="5.14759444677">
		<tag k="name" v="Hylkje" />
		<tag k="place" v="locality" />
		<tag k="ssr:stedsnr" v="592502" />
	</node>
	<node id="-483529" lat="60.5786055592" lon="5.17277776885">
		<tag k="name" v="Vaulen" />
		<tag k="natural" v="cape" />
		<tag k="ssr:stedsnr" v="592449" />
	</node>
	<node id="-483528" lat="60.5667111134" lon="5.14726389264">
		<tag k="name" v="Eidet" />
		<tag k="natural" v="bay" />
		<tag k="ssr:stedsnr" v="592443" />
	</node>
	<node id="-483527" lat="60.6074111131" lon="4.99502500411">
		<tag k="name" v="Insta Kalvetrævika" />
		<tag k="natural" v="bay" />
		<tag k="ssr:stedsnr" v="592435" />
	</node>
	<node id="-483526" lat="60.5518194444" lon="5.07222222965">
		<tag k="name" v="Måsahaugane" />
		<tag k="natural" v="hill" />
		<tag k="place" v="locality" />
		<tag k="ssr:stedsnr" v="591429" />
	</node>
	<node id="-483525" lat="60.5220138929" lon="5.17255000252">
		<tag k="fixme" v="consider natural=peak for the most distinct mountains in the district" />
		<tag k="name" v="Orrsåta" />
		<tag k="natural" v="hill" />
		<tag k="ssr:stedsnr" v="591412" />
	</node>
	<node id="-483524" lat="60.5352111153" lon="5.184124992">
		<tag k="name" v="Hammaren" />
		<tag k="natural" v="hill" />
		<tag k="place" v="locality" />
		<tag k="ssr:stedsnr" v="591369" />
	</node>
	<node id="-483523" lat="60.5595111099" lon="5.04538889018">
		<tag k="name" v="Stekkane" />
		<tag k="place" v="farm" />
		<tag k="ssr:stedsnr" v="591344" />
	</node>
	<node id="-483522" lat="60.5433833367" lon="5.05168611772">
		<tag k="name" v="Nyheim" />
		<tag k="place" v="farm" />
		<tag k="ssr:stedsnr" v="591339" />
	</node>
	<node id="-483521" lat="60.5983111155" lon="5.02307777753">
		<tag k="name" v="Klendalshaugane" />
		<tag k="natural" v="hill" />
		<tag k="place" v="locality" />
		<tag k="ssr:stedsnr" v="591335" />
	</node>
	<node id="-483520" lat="60.5909999962" lon="5.03242777992">
		<tag k="name" v="Dyrdalen" />
		<tag k="natural" v="valley" />
		<tag k="place" v="locality" />
		<tag k="ssr:stedsnr" v="591327" />
	</node>
	<node id="-483519" lat="60.5913500018" lon="4.98255832808">
		<tag k="name" v="Flatevika" />
		<tag k="natural" v="bay" />
		<tag k="ssr:stedsnr" v="591313" />
	</node>
	<node id="-483518" lat="60.5986027762" lon="4.97690555656">
		<tag k="name" v="Svartemyra" />
		<tag k="natural" v="wetland" />
		<tag k="ssr:stedsnr" v="591305" />
	</node>
	<node id="-483517" lat="60.5995499971" lon="4.96384166678">
		<tag k="name" v="Storhøyen" />
		<tag k="natural" v="hill" />
		<tag k="place" v="locality" />
		<tag k="ssr:stedsnr" v="591299" />
	</node>
	<node id="-483516" lat="60.5917444492" lon="5.0834722307">
		<tag k="fixme" v="consider natural=peak for the most distinct mountains in the district" />
		<tag k="name" v="Midtfjellet" />
		<tag k="natural" v="hill" />
		<tag k="place" v="locality" />
		<tag k="ssr:stedsnr" v="591293" />
	</node>
	<node id="-483515" lat="60.5575805595" lon="5.03105277578">
		<tag k="name" v="Langaneset" />
		<tag k="natural" v="cape" />
		<tag k="ssr:stedsnr" v="591284" />
	</node>
	<node id="-483514" lat="60.5757388911" lon="5.04831388387">
		<tag k="name" v="Fjellbekkhøyen" />
		<tag k="natural" v="hill" />
		<tag k="place" v="locality" />
		<tag k="ssr:stedsnr" v="591277" />
	</node>
	<node id="-483513" lat="60.532233337" lon="5.25462500344">
		<tag k="fixme" v="consider natural=peak for the most distinct mountains in the district" />
		<tag k="name" v="Fjellet" />
		<tag k="natural" v="hill" />
		<tag k="place" v="locality" />
		<tag k="ssr:stedsnr" v="591266" />
	</node>
	<node id="-483512" lat="60.5342166626" lon="5.10025556138">
		<tag k="name" v="Turneset" />
		<tag k="natural" v="cape" />
		<tag k="ssr:stedsnr" v="591263" />
	</node>
	<node id="-483511" lat="60.5140722196" lon="5.19770832642">
		<tag k="name" v="Brakedalen" />
		<tag k="natural" v="valley" />
		<tag k="place" v="locality" />
		<tag k="ssr:stedsnr" v="591015" />
	</node>
	<node id="-483510" lat="60.5861388913" lon="5.1557694525">
		<tag k="fixme" v="consider natural=peak for the most distinct mountains in the district" />
		<tag k="name" v="Åsen" />
		<tag k="natural" v="hill" />
		<tag k="place" v="locality" />
		<tag k="ssr:stedsnr" v="590497" />
	</node>
	<node id="-483509" lat="60.5951972258" lon="5.12489999228">
		<tag k="name" v="Litlalangøyna" />
		<tag k="place" v="island" />
		<tag k="ssr:stedsnr" v="590487" />
	</node>
	<node id="-483508" lat="60.5707027799" lon="5.0779944525">
		<tag k="name" v="Åsebø" />
		<tag k="place" v="hamlet" />
		<tag k="ssr:stedsnr" v="590110" />
	</node>
	<node id="-483507" lat="60.5623777741" lon="5.05096943955">
		<tag k="name" v="Vikebø" />
		<tag k="place" v="village" />
		<tag k="ssr:stedsnr" v="590100" />
	</node>
	<node id="-483506" lat="60.5695620458" lon="5.08282036233">
		<tag k="name" v="Dyrhøyen" />
		<tag k="natural" v="hill" />
		<tag k="place" v="locality" />
		<tag k="ssr:stedsnr" v="590088" />
	</node>
	<node id="-483505" lat="60.5728000024" lon="5.08989722615">
		<tag k="name" v="Små Kjeholmen" />
		<tag k="place" v="island" />
		<tag k="ssr:stedsnr" v="590085" />
	</node>
	<node id="-483504" lat="60.5598750017" lon="5.20501110252">
		<tag k="fixme" v="consider natural=peak for the most distinct mountains in the district" />
		<tag k="name" v="Langåsen" />
		<tag k="natural" v="hill" />
		<tag k="place" v="locality" />
		<tag k="ssr:stedsnr" v="590051" />
	</node>
	<node id="-483503" lat="60.5543666683" lon="5.21806111174">
		<tag k="name" v="Skarpenesvågen" />
		<tag k="natural" v="bay" />
		<tag k="ssr:stedsnr" v="590049" />
	</node>
	<node id="-483502" lat="60.5438138849" lon="5.16993611022">
		<tag k="name" v="Botnen" />
		<tag k="natural" v="valley" />
		<tag k="place" v="locality" />
		<tag k="ssr:stedsnr" v="590043" />
	</node>
	<node id="-483501" lat="60.5566666641" lon="5.13123333037">
		<tag k="name" v="Skjenet" />
		<tag k="place" v="locality" />
		<tag k="ssr:stedsnr" v="590029" />
	</node>
	<node id="-483500" lat="60.5555083293" lon="5.1496472219">
		<tag k="name" v="Hesthøyen" />
		<tag k="natural" v="hill" />
		<tag k="place" v="locality" />
		<tag k="ssr:stedsnr" v="590019" />
	</node>
	<node id="-483499" lat="60.5453277794" lon="5.14115555572">
		<tag k="name" v="Nordre Fløyen" />
		<tag k="place" v="farm" />
		<tag k="ssr:stedsnr" v="590015" />
	</node>
	<node id="-483498" lat="60.5382027789" lon="5.11083333343">
		<tag k="name" v="Storåsen" />
		<tag k="place" v="quarter" />
		<tag k="ssr:stedsnr" v="586043" />
	</node>
	<node id="-483497" lat="60.5376388892" lon="5.08434722466">
		<tag k="name" v="Ospeneset" />
		<tag k="natural" v="cape" />
		<tag k="ssr:stedsnr" v="574170" />
	</node>
	<node id="-483496" lat="60.5957444434" lon="5.09121944293">
		<tag k="name" v="Havrøyvågen" />
		<tag k="natural" v="bay" />
		<tag k="ssr:stedsnr" v="570609" />
	</node>
	<node id="-483495" lat="60.5455083375" lon="5.22779721722">
		<tag k="name" v="Fredheim" />
		<tag k="place" v="farm" />
		<tag k="ssr:stedsnr" v="570468" />
	</node>
	<node id="-483494" lat="60.6109166673" lon="5.01763055742">
		<tag k="name" v="Sjurholmen" />
		<tag k="place" v="islet" />
		<tag k="ssr:stedsnr" v="552968" />
	</node>
	<node id="-483493" lat="60.6061944428" lon="4.97765277551">
		<tag k="fixme" v="consider natural=peak for the most distinct mountains in the district" />
		<tag k="name" v="Storafjellet" />
		<tag k="natural" v="hill" />
		<tag k="place" v="locality" />
		<tag k="ssr:stedsnr" v="552961" />
	</node>
	<node id="-483492" lat="60.60532728" lon="5.02484184971">
		<tag k="fixme" v="consider place=hamlet" />
		<tag k="name" v="Kårbø" />
		<tag k="place" v="farm" />
		<tag k="ssr:stedsnr" v="552953" />
	</node>
	<node id="-483491" lat="60.5983786702" lon="5.00336798281">
		<tag k="fixme" v="consider place=hamlet" />
		<tag k="name" v="Brotshaug" />
		<tag k="place" v="farm" />
		<tag k="ssr:stedsnr" v="552952" />
	</node>
	<node id="-483490" lat="60.5768453432" lon="5.03492149716">
		<tag k="name" v="Storatjørna" />
		<tag k="natural" v="water" />
		<tag k="ssr:stedsnr" v="552947" />
	</node>
	<node id="-483489" lat="60.505611113" lon="5.22846389064">
		<tag k="name" v="Galteneset" />
		<tag k="natural" v="cape" />
		<tag k="ssr:stedsnr" v="552562" />
	</node>
	<node id="-483488" lat="60.5418445337" lon="5.18341036009">
		<tag k="fixme" v="consider place=hamlet" />
		<tag k="name" v="Erstad" />
		<tag k="place" v="farm" />
		<tag k="ssr:stedsnr" v="552479" />
	</node>
	<node id="-483487" lat="60.594183335" lon="5.15177777928">
		<tag k="bay" v="fjord" />
		<tag k="name" v="Radfjorden" />
		<tag k="natural" v="bay" />
		<tag k="ssr:stedsnr" v="552027" />
	</node>
	<node id="-483486" lat="60.5648633566" lon="5.06844794673">
		<tag k="name" v="Vikebøtjørna" />
		<tag k="natural" v="water" />
		<tag k="ssr:stedsnr" v="551913" />
	</node>
	<node id="-483485" lat="60.5525249991" lon="5.0220638894">
		<tag k="name" v="Skjeljeholmen" />
		<tag k="place" v="islet" />
		<tag k="ssr:stedsnr" v="551907" />
	</node>
	<node id="-483484" lat="60.5342861081" lon="5.26861944572">
		<tag k="name" v="Austegarden" />
		<tag k="place" v="farm" />
		<tag k="ssr:stedsnr" v="538346" />
	</node>
	<node id="-483483" lat="60.5153583334" lon="5.23269167549">
		<tag k="bridge" v="yes" />
		<tag k="layer" v="1" />
		<tag k="name" v="Langeland II" />
		<tag k="ssr:stedsnr" v="533009" />
	</node>
	<node id="-483482" lat="60.556702776" lon="5.08169722102">
		<tag k="name" v="Austravatnet" />
		<tag k="natural" v="water" />
		<tag k="ssr:stedsnr" v="531530" />
		<tag k="water" v="lake" />
	</node>
	<node id="-483481" lat="60.5794750017" lon="5.1415833281">
		<tag k="name" v="Tjuvahola" />
		<tag k="natural" v="hill" />
		<tag k="place" v="locality" />
		<tag k="ssr:stedsnr" v="531502" />
	</node>
	<node id="-483480" lat="60.5768833295" lon="5.17421111666">
		<tag k="name" v="Evja" />
		<tag k="natural" v="water" />
		<tag k="ssr:stedsnr" v="531473" />
		<tag k="water" v="lake" />
	</node>
	<node id="-483479" lat="60.5659694419" lon="5.1651833279">
		<tag k="fixme" v="consider natural=peak for the most distinct mountains in the district" />
		<tag k="name" v="Hestnesåsen" />
		<tag k="natural" v="hill" />
		<tag k="place" v="locality" />
		<tag k="ssr:stedsnr" v="531461" />
	</node>
	<node id="-483478" lat="60.6098388886" lon="5.01876665976">
		<tag k="name" v="Sjurholmsundet" />
		<tag k="natural" v="strait" />
		<tag k="ssr:stedsnr" v="531457" />
	</node>
	<node id="-483477" lat="60.6052611148" lon="5.00138610857">
		<tag k="name" v="Mjelkevika" />
		<tag k="natural" v="bay" />
		<tag k="ssr:stedsnr" v="531450" />
	</node>
	<node id="-483476" lat="60.532452775" lon="5.14211944043">
		<tag k="name" v="Smiskaret" />
		<tag k="natural" v="hill" />
		<tag k="place" v="locality" />
		<tag k="ssr:stedsnr" v="531439" />
	</node>
	<node id="-483475" lat="60.5337972199" lon="5.16958889142">
		<tag k="name" v="Hoplandseggena" />
		<tag k="place" v="locality" />
		<tag k="ssr:stedsnr" v="531436" />
	</node>
	<node id="-483474" lat="60.6073611101" lon="4.97952499643">
		<tag k="name" v="Vardemyra" />
		<tag k="natural" v="wetland" />
		<tag k="ssr:stedsnr" v="531432" />
	</node>
	<node id="-483473" lat="60.6070249987" lon="4.99112221843">
		<tag k="name" v="Kalvetrævika" />
		<tag k="natural" v="bay" />
		<tag k="ssr:stedsnr" v="531425" />
	</node>
	<node id="-483472" lat="60.6057666638" lon="4.95920554832">
		<tag k="name" v="Hesthøyen" />
		<tag k="natural" v="hill" />
		<tag k="place" v="locality" />
		<tag k="ssr:stedsnr" v="531424" />
	</node>
	<node id="-483471" lat="60.5261694438" lon="5.20868054966">
		<tag k="name" v="Ugleberget" />
		<tag k="natural" v="hill" />
		<tag k="place" v="locality" />
		<tag k="ssr:stedsnr" v="531413" />
	</node>
	<node id="-483470" lat="60.5181555715" lon="5.20526235899">
		<tag k="name" v="Tjørnane" />
		<tag k="natural" v="water" />
		<tag k="ssr:stedsnr" v="531412" />
		<tag k="water" v="lake" />
	</node>
	<node id="-483469" lat="60.5298000016" lon="5.20013056119">
		<tag k="fixme" v="consider natural=peak for the most distinct mountains in the district" />
		<tag k="name" v="Brekkanuten" />
		<tag k="natural" v="hill" />
		<tag k="ssr:stedsnr" v="531409" />
	</node>
	<node id="-483468" lat="60.5372055528" lon="5.19975833453">
		<tag k="fixme" v="consider natural=peak for the most distinct mountains in the district" />
		<tag k="name" v="Sakstadnuten" />
		<tag k="natural" v="hill" />
		<tag k="ssr:stedsnr" v="531406" />
	</node>
	<node id="-483467" lat="60.5299083356" lon="5.12201110331">
		<tag k="name" v="Laksevika" />
		<tag k="natural" v="bay" />
		<tag k="ssr:stedsnr" v="531386" />
	</node>
	<node id="-483466" lat="60.523875003" lon="5.23103055418">
		<tag k="name" v="Fagerdalen" />
		<tag k="natural" v="valley" />
		<tag k="place" v="locality" />
		<tag k="ssr:stedsnr" v="531384" />
	</node>
	<node id="-483465" lat="60.5494000017" lon="5.03684444654">
		<tag k="name" v="Beistre" />
		<tag k="natural" v="bay" />
		<tag k="ssr:stedsnr" v="531375" />
	</node>
	<node id="-483464" lat="60.5518833321" lon="5.03412499619">
		<tag k="name" v="Stølshøyen" />
		<tag k="natural" v="hill" />
		<tag k="place" v="locality" />
		<tag k="ssr:stedsnr" v="531373" />
	</node>
	<node id="-483463" lat="60.553236112" lon="5.03721666943">
		<tag k="name" v="Langhaugane" />
		<tag k="natural" v="hill" />
		<tag k="place" v="locality" />
		<tag k="ssr:stedsnr" v="531369" />
	</node>
	<node id="-483462" lat="60.5372444446" lon="5.27173611905">
		<tag k="name" v="Benestøa" />
		<tag k="natural" v="bay" />
		<tag k="ssr:stedsnr" v="531351" />
	</node>
	<node id="-483461" lat="60.5961972186" lon="4.97747778571">
		<tag k="name" v="Vardhøyen" />
		<tag k="natural" v="hill" />
		<tag k="place" v="locality" />
		<tag k="ssr:stedsnr" v="531345" />
	</node>
	<node id="-483460" lat="60.5907361103" lon="5.07817499888">
		<tag k="fixme" v="consider natural=peak for the most distinct mountains in the district" />
		<tag k="name" v="Kongsstålen" />
		<tag k="natural" v="hill" />
		<tag k="place" v="locality" />
		<tag k="ssr:stedsnr" v="531337" />
	</node>
	<node id="-483459" lat="60.539127776" lon="5.0911416688">
		<tag k="name" v="Leirvika" />
		<tag k="natural" v="bay" />
		<tag k="ssr:stedsnr" v="531310" />
	</node>
	<node id="-483458" lat="60.536002782" lon="5.26539443823">
		<tag k="name" v="Kråkhøyen" />
		<tag k="natural" v="hill" />
		<tag k="place" v="locality" />
		<tag k="ssr:stedsnr" v="531301" />
	</node>
	<node id="-483457" lat="60.5219722206" lon="5.23969167268">
		<tag k="name" v="Langelandsskogen" />
		<tag k="place" v="locality" />
		<tag k="ssr:stedsnr" v="531288" />
	</node>
	<node id="-483456" lat="60.5607750011" lon="5.04170276979">
		<tag k="name" v="Lunden" />
		<tag k="natural" v="slope" />
		<tag k="place" v="locality" />
		<tag k="ssr:stedsnr" v="531252" />
	</node>
	<node id="-483455" lat="60.5748888905" lon="5.17838888723">
		<tag k="name" v="Neset" />
		<tag k="natural" v="cape" />
		<tag k="ssr:stedsnr" v="531249" />
	</node>
	<node id="-483454" lat="60.5874416706" lon="5.1547472229">
		<tag k="name" v="Viddalen" />
		<tag k="natural" v="valley" />
		<tag k="place" v="locality" />
		<tag k="ssr:stedsnr" v="530505" />
	</node>
	<node id="-483453" lat="60.5929222227" lon="5.14476667054">
		<tag k="name" v="Turid" />
		<tag k="natural" v="bay" />
		<tag k="ssr:stedsnr" v="530498" />
	</node>
	<node id="-483452" lat="60.5543222239" lon="5.10725278074">
		<tag k="name" v="Svikkhøyen" />
		<tag k="place" v="locality" />
		<tag k="ssr:stedsnr" v="530481" />
	</node>
	<node id="-483451" lat="60.557241666" lon="5.10777778113">
		<tag k="name" v="Skjenet" />
		<tag k="place" v="locality" />
		<tag k="ssr:stedsnr" v="530479" />
	</node>
	<node id="-483450" lat="60.627213885" lon="4.92525277455">
		<tag k="bay" v="fjord" />
		<tag k="name" v="Mangersfjorden" />
		<tag k="natural" v="bay" />
		<tag k="ssr:stedsnr" v="530147" />
	</node>
	<node id="-483449" lat="60.5630194434" lon="5.06212777367">
		<tag k="name" v="Skjenhøyen" />
		<tag k="natural" v="hill" />
		<tag k="place" v="locality" />
		<tag k="ssr:stedsnr" v="530074" />
	</node>
	<node id="-483448" lat="60.5763250042" lon="5.07401943676">
		<tag k="name" v="Tunga" />
		<tag k="place" v="locality" />
		<tag k="ssr:stedsnr" v="530073" />
	</node>
	<node id="-483447" lat="60.5454166641" lon="5.16944444573">
		<tag k="fixme" v="consider natural=peak for the most distinct mountains in the district" />
		<tag k="name" v="Storsåta" />
		<tag k="natural" v="hill" />
		<tag k="place" v="locality" />
		<tag k="ssr:stedsnr" v="530054" />
	</node>
	<node id="-483446" lat="60.5581305585" lon="5.20299721294">
		<tag k="name" v="Svarthola" />
		<tag k="place" v="locality" />
		<tag k="ssr:stedsnr" v="530044" />
	</node>
	<node id="-483445" lat="60.5588277775" lon="5.12059443895">
		<tag k="fixme" v="consider natural=peak for the most distinct mountains in the district" />
		<tag k="name" v="Hovåsane" />
		<tag k="natural" v="hill" />
		<tag k="place" v="locality" />
		<tag k="ssr:stedsnr" v="530040" />
	</node>
	<node id="-483444" lat="60.5523083334" lon="5.11903334159">
		<tag k="name" v="Botnane" />
		<tag k="natural" v="valley" />
		<tag k="place" v="locality" />
		<tag k="ssr:stedsnr" v="530035" />
	</node>
	<node id="-483443" lat="60.5539499997" lon="5.14884165848">
		<tag k="name" v="Ramsberget" />
		<tag k="natural" v="hill" />
		<tag k="place" v="locality" />
		<tag k="ssr:stedsnr" v="530026" />
	</node>
	<node id="-483442" lat="60.5066277792" lon="5.23020832853">
		<tag k="name" v="Haltejohansvika" />
		<tag k="natural" v="bay" />
		<tag k="ssr:stedsnr" v="530023" />
	</node>
	<node id="-483441" lat="60.5113444478" lon="5.2019861139">
		<tag k="name" v="Dalstø" />
		<tag k="natural" v="bay" />
		<tag k="ssr:stedsnr" v="530016" />
	</node>
	<node id="-483440" lat="60.5095305571" lon="5.20489166602">
		<tag k="name" v="Sognevika" />
		<tag k="natural" v="bay" />
		<tag k="ssr:stedsnr" v="530014" />
	</node>
	<node id="-483439" lat="60.5576472267" lon="5.0345666673">
		<tag k="name" v="Langaneset" />
		<tag k="natural" v="cape" />
		<tag k="ssr:stedsnr" v="510609" />
	</node>
	<node id="-483438" lat="60.5252861126" lon="5.16274166424">
		<tag k="name" v="Kjedalen" />
		<tag k="natural" v="valley" />
		<tag k="place" v="locality" />
		<tag k="ssr:stedsnr" v="510597" />
	</node>
	<node id="-483437" lat="60.5161444467" lon="5.20568888059">
		<tag k="name" v="Porshaugen" />
		<tag k="place" v="farm" />
		<tag k="ssr:stedsnr" v="510588" />
	</node>
	<node id="-483436" lat="60.5720833313" lon="5.18529999228">
		<tag k="name" v="Nordra Merkesvika" />
		<tag k="natural" v="bay" />
		<tag k="old_name" v="Nordra Merkesvik" />
		<tag k="ssr:stedsnr" v="509483" />
	</node>
	<node id="-483435" lat="60.6088722181" lon="5.01433889418">
		<tag k="name" v="Orneset" />
		<tag k="natural" v="cape" />
		<tag k="ssr:stedsnr" v="492939" />
	</node>
	<node id="-483434" lat="60.5770749975" lon="5.08304167473">
		<tag k="name" v="Vassholmen" />
		<tag k="place" v="islet" />
		<tag k="ssr:stedsnr" v="492910" />
	</node>
	<node id="-483433" lat="60.528526013" lon="5.23997523108">
		<tag k="fixme" v="consider place=hamlet" />
		<tag k="name" v="Fosse" />
		<tag k="place" v="farm" />
		<tag k="ssr:stedsnr" v="492376" />
	</node>
	<node id="-483432" lat="60.5904305539" lon="5.15101665968">
		<tag k="name" v="Vardneset" />
		<tag k="natural" v="cape" />
		<tag k="ssr:stedsnr" v="492032" />
	</node>
	<node id="-483431" lat="60.6137916686" lon="4.97087500659">
		<tag k="name" v="Sandvika" />
		<tag k="natural" v="bay" />
		<tag k="ssr:stedsnr" v="491943" />
	</node>
	<node id="-483430" lat="60.5689388867" lon="5.00484999501">
		<tag k="alt_name" v="Kobbavågen" />
		<tag k="name" v="Kobbevågen" />
		<tag k="natural" v="bay" />
		<tag k="ssr:stedsnr" v="491926" />
	</node>
	<node id="-483429" lat="60.5646527747" lon="5.04781945158">
		<tag k="name" v="Vikebøholmen" />
		<tag k="place" v="islet" />
		<tag k="ssr:stedsnr" v="491921" />
	</node>
	<node id="-483428" lat="60.5583188114" lon="5.06807662699">
		<tag k="fixme" v="consider place=hamlet" />
		<tag k="name" v="Skintveit" />
		<tag k="place" v="farm" />
		<tag k="ssr:stedsnr" v="491919" />
	</node>
	<node id="-483427" lat="60.5588916666" lon="5.03576110983">
		<tag k="name" v="Leirholmen" />
		<tag k="place" v="islet" />
		<tag k="ssr:stedsnr" v="491916" />
	</node>
	<node id="-483426" lat="60.5511999985" lon="5.23751666452">
		<tag k="name" v="Ospholmen" />
		<tag k="place" v="islet" />
		<tag k="ssr:stedsnr" v="491444" />
	</node>
	<node id="-483425" lat="60.5466861154" lon="5.2374222217">
		<tag k="name" v="Håøyna" />
		<tag k="place" v="islet" />
		<tag k="ssr:stedsnr" v="491443" />
	</node>
	<node id="-483424" lat="60.5435250034" lon="5.26703888918">
		<tag k="name" v="Fureberget" />
		<tag k="natural" v="hill" />
		<tag k="place" v="locality" />
		<tag k="ssr:stedsnr" v="491440" />
	</node>
	<node id="-483423" lat="60.5727312277" lon="5.17708681626">
		<tag k="fixme" v="consider place=hamlet" />
		<tag k="name" v="Gaustad" />
		<tag k="place" v="farm" />
		<tag k="ssr:stedsnr" v="491121" />
	</node>
	<node id="-483422" lat="60.5858551196" lon="5.1396772302">
		<tag k="name" v="Ådland" />
		<tag k="place" v="hamlet" />
		<tag k="ssr:stedsnr" v="491100" />
	</node>
	<node id="-483421" lat="60.5533666686" lon="5.18664444222">
		<tag k="name" v="Grasdalsvatnet" />
		<tag k="natural" v="water" />
		<tag k="ssr:stedsnr" v="491088" />
	</node>
	<node id="-483420" lat="60.5629397583" lon="5.14011651103">
		<tag k="fixme" v="consider place=hamlet" />
		<tag k="name" v="Håtuft" />
		<tag k="place" v="farm" />
		<tag k="ssr:stedsnr" v="491071" />
	</node>
	<node id="-483419" lat="60.5561166702" lon="5.07201667252">
		<tag k="name" v="Storholmen" />
		<tag k="place" v="islet" />
		<tag k="ssr:stedsnr" v="470489" />
	</node>
	<node id="-483418" lat="60.558366665" lon="5.09858333508">
		<tag k="name" v="Skjevleneset" />
		<tag k="natural" v="cape" />
		<tag k="ssr:stedsnr" v="470479" />
	</node>
	<node id="-483417" lat="60.5632713465" lon="5.12405763618">
		<tag k="name" v="Litlatjørna" />
		<tag k="natural" v="water" />
		<tag k="ssr:stedsnr" v="470435" />
	</node>
	<node id="-483416" lat="60.5563222179" lon="5.11550833038">
		<tag k="fixme" v="consider natural=peak for the most distinct mountains in the district" />
		<tag k="name" v="Fjellsenden" />
		<tag k="natural" v="hill" />
		<tag k="place" v="locality" />
		<tag k="ssr:stedsnr" v="470421" />
	</node>
	<node id="-483415" lat="60.5313944423" lon="5.15267778518">
		<tag k="name" v="Holmevatnet" />
		<tag k="natural" v="water" />
		<tag k="ssr:stedsnr" v="470399" />
		<tag k="water" v="lake" />
	</node>
	<node id="-483414" lat="60.607297222" lon="4.98673054993">
		<tag k="fixme" v="consider seamark:type=rock or natural=shoal" />
		<tag k="name" v="Grønbakkvikskjeret" />
		<tag k="place" v="islet" />
		<tag k="ssr:stedsnr" v="470379" />
	</node>
	<node id="-483413" lat="60.6126777774" lon="4.97484721787">
		<tag k="name" v="Glyvra" />
		<tag k="natural" v="bay" />
		<tag k="ssr:stedsnr" v="470375" />
	</node>
	<node id="-483412" lat="60.5191611104" lon="5.18531944527">
		<tag k="name" v="Kletten" />
		<tag k="place" v="locality" />
		<tag k="ssr:stedsnr" v="470358" />
	</node>
	<node id="-483411" lat="60.5281972207" lon="5.13147499626">
		<tag k="name" v="Grisetona" />
		<tag k="natural" v="hill" />
		<tag k="place" v="locality" />
		<tag k="ssr:stedsnr" v="470345" />
	</node>
	<node id="-483410" lat="60.5275944431" lon="5.13587499606">
		<tag k="fixme" v="consider seamark:type=rock or natural=shoal" />
		<tag k="name" v="Ingeskjeret" />
		<tag k="place" v="islet" />
		<tag k="ssr:stedsnr" v="470343" />
	</node>
	<node id="-483409" lat="60.5504277774" lon="5.032494453">
		<tag k="name" v="Eikelandsvika" />
		<tag k="natural" v="bay" />
		<tag k="ssr:stedsnr" v="470333" />
	</node>
	<node id="-483408" lat="60.5528722188" lon="5.02816110748">
		<tag k="name" v="Sjobuhøyen" />
		<tag k="natural" v="hill" />
		<tag k="place" v="locality" />
		<tag k="ssr:stedsnr" v="470330" />
	</node>
	<node id="-483407" lat="60.5960055586" lon="5.00818333029">
		<tag k="name" v="Brotshaugelva" />
		<tag k="ssr:stedsnr" v="470324" />
		<tag k="waterway" v="river" />
	</node>
	<node id="-483406" lat="60.6033472202" lon="5.04323333007">
		<tag k="name" v="Bløddalen" />
		<tag k="natural" v="valley" />
		<tag k="place" v="locality" />
		<tag k="ssr:stedsnr" v="470321" />
	</node>
	<node id="-483405" lat="60.5283972255" lon="5.20761944847">
		<tag k="fixme" v="consider natural=peak for the most distinct mountains in the district" />
		<tag k="name" v="Åsen" />
		<tag k="natural" v="hill" />
		<tag k="place" v="locality" />
		<tag k="ssr:stedsnr" v="470312" />
	</node>
	<node id="-483404" lat="60.6033416628" lon="5.06770000074">
		<tag k="name" v="Landsvikosen" />
		<tag k="natural" v="bay" />
		<tag k="ssr:stedsnr" v="470300" />
	</node>
	<node id="-483403" lat="60.5681222214" lon="4.99368333215">
		<tag k="name" v="Ietangen" />
		<tag k="natural" v="cape" />
		<tag k="ssr:stedsnr" v="470269" />
	</node>
	<node id="-483402" lat="60.5393222237" lon="5.252866668">
		<tag k="name" v="Marusvika" />
		<tag k="natural" v="bay" />
		<tag k="ssr:stedsnr" v="470254" />
	</node>
	<node id="-483401" lat="60.5614555537" lon="5.03819722466">
		<tag k="name" v="Lundeneset" />
		<tag k="natural" v="cape" />
		<tag k="ssr:stedsnr" v="470229" />
	</node>
	<node id="-483400" lat="60.5080666709" lon="5.23492777455">
		<tag k="name" v="Bøneset" />
		<tag k="natural" v="cape" />
		<tag k="ssr:stedsnr" v="470020" />
	</node>
	<node id="-483399" lat="60.517922223" lon="5.20210556102">
		<tag k="name" v="Erdalen" />
		<tag k="natural" v="valley" />
		<tag k="place" v="locality" />
		<tag k="ssr:stedsnr" v="470017" />
	</node>
	<node id="-483398" lat="60.516238887" lon="5.21121665796">
		<tag k="name" v="Kloppedalen" />
		<tag k="natural" v="valley" />
		<tag k="place" v="locality" />
		<tag k="ssr:stedsnr" v="470008" />
	</node>
	<node id="-483397" lat="60.5883666663" lon="5.14008333146">
		<tag k="name" v="Furerenen" />
		<tag k="natural" v="ridge" />
		<tag k="place" v="locality" />
		<tag k="ssr:stedsnr" v="469518" />
	</node>
	<node id="-483396" lat="60.5872972177" lon="5.14803610857">
		<tag k="name" v="Rundamyra" />
		<tag k="natural" v="wetland" />
		<tag k="ssr:stedsnr" v="469513" />
	</node>
	<node id="-483395" lat="60.5495222187" lon="5.02089444427">
		<tag k="name" v="Vardholmen" />
		<tag k="place" v="islet" />
		<tag k="ssr:stedsnr" v="469099" />
	</node>
	<node id="-483394" lat="60.5772803037" lon="5.06188516472">
		<tag k="fixme" v="consider natural=peak for the most distinct mountains in the district" />
		<tag k="name" v="Strangefjellet" />
		<tag k="natural" v="hill" />
		<tag k="place" v="locality" />
		<tag k="ssr:stedsnr" v="469096" />
	</node>
	<node id="-483393" lat="60.567899768" lon="5.10623931584">
		<tag k="name" v="Skralevika" />
		<tag k="natural" v="bay" />
		<tag k="ssr:stedsnr" v="469085" />
	</node>
	<node id="-483392" lat="60.5740774218" lon="5.10530893558">
		<tag k="name" v="Storholmen" />
		<tag k="place" v="islet" />
		<tag k="ssr:stedsnr" v="469081" />
	</node>
	<node id="-483391" lat="60.580469448" lon="5.10564721611">
		<tag k="name" v="Søre Båtedalen" />
		<tag k="natural" v="valley" />
		<tag k="place" v="locality" />
		<tag k="ssr:stedsnr" v="469077" />
	</node>
	<node id="-483390" lat="60.5517194444" lon="5.23192778563">
		<tag k="fixme" v="consider seamark:type=rock or natural=shoal" />
		<tag k="name" v="Ospholmskjeret" />
		<tag k="place" v="islet" />
		<tag k="ssr:stedsnr" v="469065" />
	</node>
	<node id="-483389" lat="60.556144446" lon="5.14269166418">
		<tag k="fixme" v="consider natural=peak for the most distinct mountains in the district" />
		<tag k="name" v="Kletten" />
		<tag k="natural" v="hill" />
		<tag k="place" v="locality" />
		<tag k="ssr:stedsnr" v="469049" />
	</node>
	<node id="-483388" lat="60.5506722175" lon="5.14581665816">
		<tag k="fixme" v="consider natural=peak for the most distinct mountains in the district" />
		<tag k="name" v="Tveitanipa" />
		<tag k="natural" v="hill" />
		<tag k="place" v="locality" />
		<tag k="ssr:stedsnr" v="469030" />
	</node>
	<node id="-483387" lat="60.6054138912" lon="5.02685277485">
		<tag k="name" v="Kårbø" />
		<tag k="place" v="hamlet" />
		<tag k="ssr:stedsnr" v="469157" />
	</node>
	<node id="-483386" lat="60.5457222184" lon="5.13610000612">
		<tag k="name" v="Indre-Brakstad" />
		<tag k="place" v="farm" />
		<tag k="ssr:stedsnr" v="454698" />
	</node>
	<node id="-483385" lat="60.5363694429" lon="5.24612221584">
		<tag k="name" v="Lensmannsflua" />
		<tag k="natural" v="shoal" />
		<tag k="place" v="locality" />
		<tag k="ssr:stedsnr" v="449510" />
	</node>
	<node id="-483384" lat="60.5400361096" lon="5.24513056453">
		<tag k="name" v="Flatøyosen" />
		<tag k="natural" v="bay" />
		<tag k="ssr:stedsnr" v="449492" />
	</node>
	<node id="-483383" lat="60.6137083295" lon="5.04161666963">
		<tag k="fixme" v="multiple name tags, choose one and add the other to alt_name" />
		<tag k="name" v="Indra Gjerdeneset;Gjerdeneset" />
		<tag k="natural" v="cape" />
		<tag k="ssr:stedsnr" v="431957" />
	</node>
	<node id="-483382" lat="60.6113583329" lon="4.98313611566">
		<tag k="name" v="Skålholmane" />
		<tag k="place" v="islet" />
		<tag k="ssr:stedsnr" v="431952" />
	</node>
	<node id="-483381" lat="60.6152666647" lon="4.9523694499">
		<tag k="name" v="Prestvika" />
		<tag k="natural" v="bay" />
		<tag k="ssr:stedsnr" v="431953" />
	</node>
	<node id="-483380" lat="60.60189167" lon="5.05354166238">
		<tag k="name" v="Landsvik" />
		<tag k="old_name" v="Nordra Landsvik;Søra Landsvik" />
		<tag k="place" v="hamlet" />
		<tag k="ssr:stedsnr" v="431945" />
	</node>
	<node id="-483379" lat="60.5914333318" lon="4.99265277295">
		<tag k="alt_name" v="Sætrevik" />
		<tag k="name" v="Sætrevika" />
		<tag k="natural" v="bay" />
		<tag k="ssr:stedsnr" v="431942" />
	</node>
	<node id="-483378" lat="60.5783678395" lon="5.02113362379">
		<tag k="name" v="Hagarstjørna" />
		<tag k="natural" v="water" />
		<tag k="ssr:stedsnr" v="431933" />
	</node>
	<node id="-483377" lat="60.5591111096" lon="5.03785556376">
		<tag k="name" v="Seljevika" />
		<tag k="natural" v="bay" />
		<tag k="ssr:stedsnr" v="431925" />
	</node>
	<node id="-483376" lat="60.5441043625" lon="5.14447597952">
		<tag k="fixme" v="consider place=hamlet" />
		<tag k="name" v="Vollo" />
		<tag k="place" v="farm" />
		<tag k="ssr:stedsnr" v="431456" />
	</node>
	<node id="-483375" lat="60.5382555579" lon="5.10653889148">
		<tag k="name" v="Fløksand" />
		<tag k="place" v="hamlet" />
		<tag k="ssr:stedsnr" v="431442" />
	</node>
	<node id="-483374" lat="60.5409777744" lon="5.23453055328">
		<tag k="name" v="Litlebergen" />
		<tag k="place" v="hamlet" />
		<tag k="ssr:stedsnr" v="431437" />
	</node>
	<node id="-483373" lat="60.5268500008" lon="5.18907500706">
		<tag k="name" v="Raudfjellet" />
		<tag k="natural" v="hill" />
		<tag k="place" v="locality" />
		<tag k="ssr:stedsnr" v="431418" />
	</node>
	<node id="-483372" lat="60.5519694469" lon="5.25086111739">
		<tag k="bay" v="fjord" />
		<tag k="name" v="Kvernafjorden" />
		<tag k="natural" v="bay" />
		<tag k="ssr:stedsnr" v="431107" />
	</node>
	<node id="-483371" lat="60.5504833296" lon="5.15771111749">
		<tag k="fixme" v="consider natural=peak for the most distinct mountains in the district" />
		<tag k="name" v="Røysetfjellet" />
		<tag k="natural" v="hill" />
		<tag k="place" v="locality" />
		<tag k="ssr:stedsnr" v="431095" />
	</node>
	<node id="-483370" lat="60.5949416666" lon="5.13206823356">
		<tag k="name" v="Storalangøyna" />
		<tag k="place" v="islet" />
		<tag k="ssr:stedsnr" v="431021" />
	</node>
	<node id="-483368" lat="60.56076944" lon="5.17536943754">
		<tag k="name" v="Hestnes" />
		<tag k="place" v="farm" />
		<tag k="ssr:stedsnr" v="416272" />
	</node>
	<node id="-483367" lat="60.5978861081" lon="5.08454166413">
		<tag k="fixme" v="consider seamark:type=rock or natural=shoal" />
		<tag k="name" v="Vågsmunnskjeret" />
		<tag k="place" v="islet" />
		<tag k="ssr:stedsnr" v="267636" />
	</node>
	<node id="-483366" lat="60.6022805601" lon="4.99788889514">
		<tag k="name" v="Husebøvågen" />
		<tag k="natural" v="bay" />
		<tag k="ssr:stedsnr" v="249935" />
	</node>
	<node id="-483365" lat="60.5982999979" lon="5.05388611709">
		<tag k="fixme" v="consider natural=peak for the most distinct mountains in the district" />
		<tag k="name" v="Hånipa" />
		<tag k="natural" v="hill" />
		<tag k="place" v="locality" />
		<tag k="ssr:stedsnr" v="249931" />
	</node>
	<node id="-483364" lat="60.5818583322" lon="4.9899500036">
		<tag k="name" v="Sætreosen" />
		<tag k="natural" v="strait" />
		<tag k="ssr:stedsnr" v="249924" />
	</node>
	<node id="-483363" lat="60.5742861135" lon="5.00694444613">
		<tag k="alt_name" v="Torkelstangen" />
		<tag k="name" v="Torkjellstangen" />
		<tag k="natural" v="cape" />
		<tag k="ssr:stedsnr" v="249921" />
	</node>
	<node id="-483362" lat="60.5725250021" lon="5.01406943807">
		<tag k="name" v="Risholmen" />
		<tag k="place" v="islet" />
		<tag k="ssr:stedsnr" v="249920" />
	</node>
	<node id="-483361" lat="60.5805527819" lon="5.00818056126">
		<tag k="name" v="Fløholmen" />
		<tag k="place" v="islet" />
		<tag k="ssr:stedsnr" v="249916" />
	</node>
	<node id="-483360" lat="60.566522223" lon="5.0008777726">
		<tag k="name" v="Ietangen" />
		<tag k="natural" v="cape" />
		<tag k="ssr:stedsnr" v="249914" />
	</node>
	<node id="-483359" lat="60.5132055526" lon="5.2425166594">
		<tag k="name" v="Frekhaug" />
		<tag k="place" v="village" />
		<tag k="ssr:stedsnr" v="249497" />
	</node>
	<node id="-483358" lat="60.5423416833" lon="5.15974760614">
		<tag k="name" v="Tveit" />
		<tag k="old_name" v="Tveiten" />
		<tag k="place" v="hamlet" />
		<tag k="ssr:stedsnr" v="249440" />
	</node>
	<node id="-483357" lat="60.5433416709" lon="5.27213333256">
		<tag k="alt_name" v="Hagelsundet;Haglesundet" />
		<tag k="name" v="Haglsundet" />
		<tag k="natural" v="strait" />
		<tag k="ssr:stedsnr" v="249436" />
	</node>
	<node id="-483356" lat="60.5318083336" lon="5.19493333558">
		<tag k="name" v="Dalevatnet" />
		<tag k="natural" v="water" />
		<tag k="ssr:stedsnr" v="249417" />
	</node>
	<node id="-483355" lat="60.5512227078" lon="5.19313226493">
		<tag k="fixme" v="consider place=hamlet" />
		<tag k="name" v="Grasdal" />
		<tag k="place" v="farm" />
		<tag k="ssr:stedsnr" v="249087" />
	</node>
	<node id="-483354" lat="60.5475333308" lon="5.22998334038">
		<tag k="name" v="Håøysundet" />
		<tag k="natural" v="strait" />
		<tag k="ssr:stedsnr" v="249085" />
	</node>
	<node id="-483353" lat="60.5618606555" lon="5.12978252115">
		<tag k="alt_name" v="Myrtveitvatnet" />
		<tag k="name" v="Myrtveittjørna" />
		<tag k="natural" v="water" />
		<tag k="ssr:stedsnr" v="249068" />
	</node>
	<node id="-483352" lat="60.5581469759" lon="5.05212668493">
		<tag k="name" v="Ryland" />
		<tag k="place" v="hamlet" />
		<tag k="ssr:stedsnr" v="248920" />
	</node>
	<node id="-483351" lat="60.5801444463" lon="5.1478250076">
		<tag k="fixme" v="consider natural=peak for the most distinct mountains in the district" />
		<tag k="name" v="Gaustadfjellet" />
		<tag k="natural" v="hill" />
		<tag k="place" v="locality" />
		<tag k="ssr:stedsnr" v="248106" />
	</node>
	<node id="-483350" lat="60.5660416633" lon="5.12676389792">
		<tag k="alt_name" v="Gripsgard;Gripsgård" />
		<tag k="name" v="Gripen" />
		<tag k="place" v="farm" />
		<tag k="ssr:stedsnr" v="248065" />
	</node>
	<node id="-483349" lat="60.5449722247" lon="5.08070277379">
		<tag k="name" v="Grinddalen" />
		<tag k="natural" v="valley" />
		<tag k="place" v="locality" />
		<tag k="ssr:stedsnr" v="228562" />
	</node>
	<node id="-483348" lat="60.5578638931" lon="5.072566668">
		<tag k="name" v="Skintveit" />
		<tag k="place" v="farm" />
		<tag k="ssr:stedsnr" v="228557" />
	</node>
	<node id="-483347" lat="60.558361115" lon="5.09381945271">
		<tag k="fixme" v="consider natural=peak for the most distinct mountains in the district" />
		<tag k="name" v="Ospåsen" />
		<tag k="natural" v="hill" />
		<tag k="place" v="locality" />
		<tag k="ssr:stedsnr" v="228556" />
	</node>
	<node id="-483346" lat="60.5541583338" lon="5.11008332808">
		<tag k="name" v="Kringlemyra" />
		<tag k="natural" v="wetland" />
		<tag k="ssr:stedsnr" v="228541" />
	</node>
	<node id="-483345" lat="60.5618274578" lon="5.15290361571">
		<tag k="name" v="Grønevika" />
		<tag k="natural" v="bay" />
		<tag k="ssr:stedsnr" v="228502" />
	</node>
	<node id="-483344" lat="60.6093250024" lon="5.05599721909">
		<tag k="name" v="Kvalvikneset" />
		<tag k="natural" v="cape" />
		<tag k="ssr:stedsnr" v="228478" />
	</node>
	<node id="-483343" lat="60.6054888905" lon="4.96602500858">
		<tag k="fixme" v="consider natural=peak for the most distinct mountains in the district" />
		<tag k="name" v="Lafjellet" />
		<tag k="natural" v="hill" />
		<tag k="place" v="locality" />
		<tag k="ssr:stedsnr" v="228452" />
	</node>
	<node id="-483342" lat="60.5335999991" lon="5.21141943968">
		<tag k="fixme" v="consider natural=peak for the most distinct mountains in the district" />
		<tag k="name" v="Fløyen" />
		<tag k="natural" v="hill" />
		<tag k="place" v="locality" />
		<tag k="ssr:stedsnr" v="228441" />
	</node>
	<node id="-483341" lat="60.5342388926" lon="5.18391389122">
		<tag k="name" v="Ranen" />
		<tag k="natural" v="hill" />
		<tag k="place" v="locality" />
		<tag k="ssr:stedsnr" v="228427" />
	</node>
	<node id="-483340" lat="60.5268277774" lon="5.17877778458">
		<tag k="fixme" v="consider natural=peak for the most distinct mountains in the district" />
		<tag k="name" v="Nipa" />
		<tag k="natural" v="hill" />
		<tag k="place" v="locality" />
		<tag k="ssr:stedsnr" v="228426" />
	</node>
	<node id="-483339" lat="60.5479722187" lon="5.04370555526">
		<tag k="name" v="Varden" />
		<tag k="natural" v="hill" />
		<tag k="place" v="locality" />
		<tag k="ssr:stedsnr" v="228390" />
	</node>
	<node id="-483338" lat="60.5978027783" lon="5.04819167485">
		<tag k="name" v="Grøne skogane" />
		<tag k="place" v="locality" />
		<tag k="ssr:stedsnr" v="228388" />
	</node>
	<node id="-483337" lat="60.5834361091" lon="5.02537221565">
		<tag k="name" v="Oksla" />
		<tag k="natural" v="slope" />
		<tag k="place" v="locality" />
		<tag k="ssr:stedsnr" v="228383" />
	</node>
	<node id="-483336" lat="60.5822722228" lon="5.039680548">
		<tag k="fixme" v="consider natural=peak for the most distinct mountains in the district" />
		<tag k="name" v="Ravnefjellet" />
		<tag k="natural" v="hill" />
		<tag k="place" v="locality" />
		<tag k="ssr:stedsnr" v="228375" />
	</node>
	<node id="-483335" lat="60.5295999973" lon="5.18939445003">
		<tag k="name" v="Kråkedalen" />
		<tag k="natural" v="valley" />
		<tag k="place" v="locality" />
		<tag k="ssr:stedsnr" v="228372" />
	</node>
	<node id="-483334" lat="60.5313638851" lon="5.25830278237">
		<tag k="name" v="Søra Krossnesvika" />
		<tag k="natural" v="bay" />
		<tag k="ssr:stedsnr" v="228365" />
	</node>
	<node id="-483333" lat="60.5594972185" lon="5.03189722846">
		<tag k="name" v="Seljevika" />
		<tag k="natural" v="bay" />
		<tag k="ssr:stedsnr" v="228343" />
	</node>
	<node id="-483332" lat="60.5582694411" lon="5.03118889465">
		<tag k="bridge" v="yes" />
		<tag k="layer" v="1" />
		<tag k="name" v="Iestraumen" />
		<tag k="ssr:stedsnr" v="228342" />
	</node>
	<node id="-483331" lat="60.526311107" lon="5.24188888504">
		<tag k="name" v="Løftingasteinen" />
		<tag k="natural" v="stone" />
		<tag k="ssr:stedsnr" v="228304" />
	</node>
	<node id="-483330" lat="60.5310388913" lon="5.24002777412">
		<tag k="fixme" v="consider natural=peak for the most distinct mountains in the district" />
		<tag k="name" v="Kråkåsen" />
		<tag k="natural" v="hill" />
		<tag k="place" v="locality" />
		<tag k="ssr:stedsnr" v="228301" />
	</node>
	<node id="-483329" lat="60.539783335" lon="5.2575861072">
		<tag k="name" v="Skjenhøyen" />
		<tag k="natural" v="hill" />
		<tag k="place" v="locality" />
		<tag k="ssr:stedsnr" v="228299" />
	</node>
</osm>
