<?xml version="1.0" encoding="UTF-8"?>
<osm generator="osmapis" version="0.6">
	<node id="-483231" lat="60.5152583332" lon="5.23231945126">
		<tag k="bridge" v="yes" />
		<tag k="layer" v="1" />
		<tag k="name" v="Mjåtveitelva" />
		<tag k="ssr:stedsnr" v="108002" />
	</node>
	<node id="-483483" lat="60.5153583334" lon="5.23269167549">
		<tag k="bridge" v="yes" />
		<tag k="layer" v="1" />
		<tag k="name" v="Langeland II" />
		<tag k="ssr:stedsnr" v="533009" />
	</node>
	<node id="-483640" lat="60.5607027785" lon="5.05210555445">
		<tag k="bridge" v="yes" />
		<tag k="layer" v="1" />
		<tag k="name" v="Rossland" />
		<tag k="ssr:stedsnr" v="715002" />
	</node>
	<node id="-483735" lat="60.5172944449" lon="5.2486222145">
		<tag k="man_made" v="quay" />
		<tag k="name" v="Frekhaugkaien" />
		<tag k="place" v="locality" />
		<tag k="ssr:stedsnr" v="835267" />
	</node>
	<node id="-483117" lat="60.5336583375" lon="5.11721666535">
		<tag k="bridge" v="yes" />
		<tag k="layer" v="1" />
		<tag k="name" v="Fløksandselva" />
		<tag k="ssr:stedsnr" v="897004" />
	</node>
	<node id="-483532" lat="60.5406166674" lon="5.11353611201">
		<tag k="bridge" v="yes" />
		<tag k="layer" v="1" />
		<tag k="name" v="Fløksandselva" />
		<tag k="ssr:stedsnr" v="593007" />
	</node>
	<node id="-483533" lat="60.5303944476" lon="5.15485832985">
		<tag k="bridge" v="yes" />
		<tag k="layer" v="1" />
		<tag k="name" v="Holme" />
		<tag k="ssr:stedsnr" v="593010" />
	</node>
	<node id="-483332" lat="60.5582694411" lon="5.03118889465">
		<tag k="bridge" v="yes" />
		<tag k="layer" v="1" />
		<tag k="name" v="Iestraumen" />
		<tag k="ssr:stedsnr" v="228342" />
	</node>
</osm>
