<?xml version="1.0" encoding="UTF-8"?>
<osm generator="osmapis" version="0.6">
	<node id="-483712" lat="60.535269443" lon="5.23901110472">
		<tag k="name" v="Fossemarka" />
		<tag k="place" v="locality" />
		<tag k="ssr:stedsnr" v="895266" />
	</node>
	<node id="-483583" lat="60.5434361086" lon="5.0491749977">
		<tag k="name" v="Beitingsmyra" />
		<tag k="natural" v="wetland" />
		<tag k="ssr:stedsnr" v="288340" />
	</node>
	<node id="-483964" lat="60.5541583338" lon="5.11008332808">
		<tag k="name" v="Kringlemyra" />
		<tag k="natural" v="wetland" />
		<tag k="ssr:stedsnr" v="228541" />
	</node>
	<node id="-484091" lat="60.6073611101" lon="4.97952499643">
		<tag k="name" v="Vardemyra" />
		<tag k="natural" v="wetland" />
		<tag k="ssr:stedsnr" v="531432" />
	</node>
	<node id="-483574" lat="60.5402500028" lon="5.26712776992">
		<tag k="name" v="Rotemyrane" />
		<tag k="natural" v="wetland" />
		<tag k="ssr:stedsnr" v="288269" />
	</node>
	<node id="-483956" lat="60.5978027783" lon="5.04819167485">
		<tag k="name" v="Grøne skogane" />
		<tag k="place" v="locality" />
		<tag k="ssr:stedsnr" v="228388" />
	</node>
	<node id="-483570" lat="60.5465027758" lon="5.25447499335">
		<tag k="name" v="Midtmarka" />
		<tag k="place" v="locality" />
		<tag k="ssr:stedsnr" v="288238" />
	</node>
	<node id="-483949" lat="60.526311107" lon="5.24188888504">
		<tag k="name" v="Løftingasteinen" />
		<tag k="natural" v="stone" />
		<tag k="ssr:stedsnr" v="228304" />
	</node>
	<node id="-483692" lat="60.5254722239" lon="5.18763610229">
		<tag k="name" v="Raudmyra" />
		<tag k="natural" v="wetland" />
		<tag k="ssr:stedsnr" v="410407" />
	</node>
	<node id="-484074" lat="60.5219722206" lon="5.23969167268">
		<tag k="name" v="Langelandsskogen" />
		<tag k="place" v="locality" />
		<tag k="ssr:stedsnr" v="531288" />
	</node>
	<node id="-484201" lat="60.5520861106" lon="5.05166111908">
		<tag k="name" v="Prestvardmyra" />
		<tag k="natural" v="wetland" />
		<tag k="ssr:stedsnr" v="652324" />
	</node>
	<node id="-484198" lat="60.5469944419" lon="5.04540000169">
		<tag k="name" v="Storamyra" />
		<tag k="natural" v="wetland" />
		<tag k="ssr:stedsnr" v="652318" />
	</node>
	<node id="-484186" lat="60.5450111083" lon="5.23938610451">
		<tag k="name" v="Slåttena" />
		<tag k="place" v="locality" />
		<tag k="ssr:stedsnr" v="652225" />
	</node>
	<node id="-484429" lat="60.5228944419" lon="5.18385554806">
		<tag k="name" v="Litlamyra" />
		<tag k="natural" v="wetland" />
		<tag k="ssr:stedsnr" v="956421" />
	</node>
	<node id="-484428" lat="60.5292861075" lon="5.23222222606">
		<tag k="name" v="Sandgotmarka" />
		<tag k="place" v="locality" />
		<tag k="ssr:stedsnr" v="956405" />
	</node>
	<node id="-483782" lat="60.5208583312" lon="5.18130555324">
		<tag k="name" v="Storamyra" />
		<tag k="natural" v="wetland" />
		<tag k="ssr:stedsnr" v="46416" />
	</node>
	<node id="-484288" lat="60.5736590028" lon="5.07459938301">
		<tag k="name" v="Tjørnmyra" />
		<tag k="natural" v="wetland" />
		<tag k="ssr:stedsnr" v="772094" />
	</node>
	<node id="-483773" lat="60.5731138854" lon="5.05091111581">
		<tag k="name" v="Porsmyra" />
		<tag k="natural" v="wetland" />
		<tag k="ssr:stedsnr" v="46309" />
	</node>
	<node id="-484279" lat="60.5123305599" lon="5.2246249969">
		<tag k="name" v="Torvmyrane" />
		<tag k="natural" v="wetland" />
		<tag k="ssr:stedsnr" v="772013" />
	</node>
	<node id="-484014" lat="60.5872972177" lon="5.14803610857">
		<tag k="name" v="Rundamyra" />
		<tag k="natural" v="wetland" />
		<tag k="ssr:stedsnr" v="469513" />
	</node>
	<node id="-483757" lat="60.5546388902" lon="5.14572499188">
		<tag k="name" v="Storamyra" />
		<tag k="natural" v="wetland" />
		<tag k="ssr:stedsnr" v="44013" />
	</node>
	<node id="-484135" lat="60.5986027762" lon="4.97690555656">
		<tag k="name" v="Svartemyra" />
		<tag k="natural" v="wetland" />
		<tag k="ssr:stedsnr" v="591305" />
	</node>
	<node id="-484247" lat="60.5235777753" lon="5.20499723068">
		<tag k="name" v="Flåmyrane" />
		<tag k="natural" v="wetland" />
		<tag k="ssr:stedsnr" v="713390" />
	</node>
	<node id="-484369" lat="60.543630554" lon="5.08831667163">
		<tag k="name" v="Porsmyra" />
		<tag k="natural" v="wetland" />
		<tag k="ssr:stedsnr" v="835542" />
	</node>
	<node id="-483594" lat="60.5665638927" lon="5.11913054988">
		<tag k="name" v="Storamyra" />
		<tag k="natural" v="wetland" />
		<tag k="ssr:stedsnr" v="289467" />
	</node>
	<node id="-483721" lat="60.5451972206" lon="5.04914166663">
		<tag k="name" v="Langemyra" />
		<tag k="natural" v="wetland" />
		<tag k="ssr:stedsnr" v="895339" />
	</node>
	<node id="-483848" lat="60.5463361115" lon="5.10211111449">
		<tag k="name" v="Brakstadmarka" />
		<tag k="place" v="locality" />
		<tag k="ssr:stedsnr" v="107518" />
	</node>
	<node id="-484354" lat="60.5540194448" lon="5.02687499145">
		<tag k="name" v="Sandturka" />
		<tag k="natural" v="beach" />
		<tag k="ssr:stedsnr" v="835332" />
		<tag k="surface" v="sand" />
	</node>
</osm>
