<?xml version="1.0" encoding="UTF-8"?>
<osm generator="osmapis" version="0.6">
	<node id="-483328" lat="60.5140416689" lon="5.24739165901">
		<tag k="name" v="Badevika" />
		<tag k="natural" v="bay" />
		<tag k="ssr:stedsnr" v="228282" />
	</node>
	<node id="-483327" lat="60.5078777802" lon="5.23638888611">
		<tag k="name" v="Naustvika" />
		<tag k="natural" v="bay" />
		<tag k="ssr:stedsnr" v="228278" />
	</node>
	<node id="-483325" lat="60.5412972227" lon="5.2532138927">
		<tag k="name" v="Grønevika" />
		<tag k="natural" v="bay" />
		<tag k="ssr:stedsnr" v="228261" />
	</node>
	<node id="-483324" lat="60.5430511491" lon="5.25497826658">
		<tag k="name" v="Skitnedalsvika" />
		<tag k="natural" v="bay" />
		<tag k="ssr:stedsnr" v="228259" />
	</node>
	<node id="-483323" lat="60.5676250016" lon="5.03970000282">
		<tag k="name" v="Skurtveitneset" />
		<tag k="natural" v="cape" />
		<tag k="ssr:stedsnr" v="228252" />
	</node>
	<node id="-483322" lat="60.5679138918" lon="5.04391943984">
		<tag k="name" v="Mjølkevika" />
		<tag k="natural" v="bay" />
		<tag k="ssr:stedsnr" v="228251" />
	</node>
	<node id="-483321" lat="60.544986715" lon="5.24861595164">
		<tag k="name" v="Søra Eidavika" />
		<tag k="natural" v="bay" />
		<tag k="ssr:stedsnr" v="227267" />
	</node>
	<node id="-483316" lat="60.5777194439" lon="5.07399722801">
		<tag k="name" v="Skogeneset" />
		<tag k="natural" v="cape" />
		<tag k="ssr:stedsnr" v="226090" />
	</node>
	<node id="-483315" lat="60.5725039551" lon="5.08409122527">
		<tag k="name" v="Tungeneset" />
		<tag k="natural" v="cape" />
		<tag k="ssr:stedsnr" v="226087" />
	</node>
	<node id="-483314" lat="60.5707531384" lon="5.08999648537">
		<tag k="name" v="Nordra Neset" />
		<tag k="natural" v="cape" />
		<tag k="ssr:stedsnr" v="226081" />
	</node>
	<node id="-483313" lat="60.5729190036" lon="5.11362810816">
		<tag k="name" v="Larsneset" />
		<tag k="natural" v="cape" />
		<tag k="ssr:stedsnr" v="226078" />
	</node>
	<node id="-483496" lat="60.5957444434" lon="5.09121944293">
		<tag k="name" v="Havrøyvågen" />
		<tag k="natural" v="bay" />
		<tag k="ssr:stedsnr" v="570609" />
	</node>
	<node id="-483304" lat="60.6091527748" lon="5.0571527748">
		<tag k="name" v="Kvalvikneset" />
		<tag k="natural" v="cape" />
		<tag k="ssr:stedsnr" v="207603" />
	</node>
	<node id="-483303" lat="60.5351083342" lon="5.24699721428">
		<tag k="name" v="Lensmannsholmen" />
		<tag k="place" v="islet" />
		<tag k="ssr:stedsnr" v="206500" />
	</node>
	<node id="-483302" lat="60.6045583334" lon="4.9496083243">
		<tag k="name" v="Klokkarneset" />
		<tag k="natural" v="cape" />
		<tag k="ssr:stedsnr" v="206649" />
	</node>
	<node id="-483300" lat="60.5475749964" lon="5.22344722606">
		<tag k="alt_name" v="Dragenes" />
		<tag k="name" v="Drageneset" />
		<tag k="natural" v="cape" />
		<tag k="ssr:stedsnr" v="189039" />
	</node>
	<node id="-483298" lat="60.593374999" lon="4.98040277478">
		<tag k="name" v="Buhelrevika" />
		<tag k="natural" v="bay" />
		<tag k="ssr:stedsnr" v="188945" />
	</node>
	<node id="-483296" lat="60.5829027801" lon="4.99899166453">
		<tag k="alt_name" v="Skorpøy" />
		<tag k="name" v="Skorpo" />
		<tag k="place" v="islet" />
		<tag k="ssr:stedsnr" v="188939" />
	</node>
	<node id="-483295" lat="60.5656249977" lon="5.03988611157">
		<tag k="name" v="Rosslandspollen" />
		<tag k="natural" v="bay" />
		<tag k="ssr:stedsnr" v="188928" />
	</node>
	<node id="-483806" lat="60.5793277768" lon="5.01266388472">
		<tag k="name" v="Rishola" />
		<tag k="natural" v="bay" />
		<tag k="ssr:stedsnr" v="956341" />
	</node>
	<node id="-483805" lat="60.5346611087" lon="5.09828611488">
		<tag k="name" v="Altersvika" />
		<tag k="natural" v="bay" />
		<tag k="ssr:stedsnr" v="956340" />
	</node>
	<node id="-483803" lat="60.5646888844" lon="4.9979249959">
		<tag k="fixme" v="consider seamark:type=rock or natural=shoal" />
		<tag k="name" v="Litla Ieskjeret" />
		<tag k="place" v="islet" />
		<tag k="ssr:stedsnr" v="956325" />
	</node>
	<node id="-483802" lat="60.5388305523" lon="5.25178333603">
		<tag k="name" v="Djupavika" />
		<tag k="natural" v="bay" />
		<tag k="ssr:stedsnr" v="956303" />
	</node>
	<node id="-483799" lat="60.5941444474" lon="5.12807777047">
		<tag k="name" v="Illekastholmen" />
		<tag k="place" v="island" />
		<tag k="ssr:stedsnr" v="955479" />
	</node>
	<node id="-483577" lat="60.5324388895" lon="5.26197221816">
		<tag k="name" v="Solbergsvika" />
		<tag k="natural" v="bay" />
		<tag k="ssr:stedsnr" v="652298" />
	</node>
	<node id="-483284" lat="60.6069444441" lon="5.0088722171">
		<tag k="name" v="Torskevika" />
		<tag k="natural" v="bay" />
		<tag k="ssr:stedsnr" v="167461" />
	</node>
	<node id="-483793" lat="60.568772496" lon="5.09029295449">
		<tag k="name" v="Søra Neset" />
		<tag k="natural" v="cape" />
		<tag k="ssr:stedsnr" v="955089" />
	</node>
	<node id="-483279" lat="60.6088250038" lon="4.9847444368">
		<tag k="name" v="Båtevika" />
		<tag k="natural" v="bay" />
		<tag k="ssr:stedsnr" v="167428" />
	</node>
	<node id="-483276" lat="60.5411722246" lon="5.05002222354">
		<tag k="name" v="Beitingsvika" />
		<tag k="natural" v="bay" />
		<tag k="ssr:stedsnr" v="167371" />
	</node>
	<node id="-483273" lat="60.5382000041" lon="5.27262499079">
		<tag k="name" v="Lushola" />
		<tag k="natural" v="bay" />
		<tag k="ssr:stedsnr" v="167355" />
	</node>
	<node id="-483272" lat="60.5515611115" lon="5.02236110293">
		<tag k="name" v="Skvettholmen" />
		<tag k="place" v="islet" />
		<tag k="ssr:stedsnr" v="167332" />
	</node>
	<node id="-483271" lat="60.5568694472" lon="5.03451388245">
		<tag k="name" v="Gamlesvika" />
		<tag k="natural" v="bay" />
		<tag k="ssr:stedsnr" v="167326" />
	</node>
	<node id="-483269" lat="60.577838885" lon="5.01267500564">
		<tag k="name" v="Sandvika" />
		<tag k="natural" v="bay" />
		<tag k="ssr:stedsnr" v="167319" />
	</node>
	<node id="-483780" lat="60.6081777818" lon="4.94586388642">
		<tag k="fixme" v="consider seamark:type=rock or natural=shoal" />
		<tag k="name" v="Katten" />
		<tag k="place" v="islet" />
		<tag k="ssr:stedsnr" v="934637" />
	</node>
	<node id="-483778" lat="60.5301555554" lon="5.25094167346">
		<tag k="name" v="Krossnessundet" />
		<tag k="natural" v="strait" />
		<tag k="ssr:stedsnr" v="917368" />
	</node>
	<node id="-483777" lat="60.5587583303" lon="5.01105278328">
		<tag k="fixme" v="multiple name tags, choose one and add the other to alt_name" />
		<tag k="name" v="Øpsesundet;Ieosen" />
		<tag k="natural" v="strait" />
		<tag k="ssr:stedsnr" v="916926" />
	</node>
	<node id="-483263" lat="60.5495472177" lon="5.24012777071">
		<tag k="name" v="Sandvikane" />
		<tag k="natural" v="bay" />
		<tag k="ssr:stedsnr" v="167259" />
	</node>
	<node id="-483770" lat="60.6163944427" lon="4.94410000145">
		<tag k="name" v="Hundane" />
		<tag k="natural" v="shoal" />
		<tag k="place" v="locality" />
		<tag k="ssr:stedsnr" v="874691" />
	</node>
	<node id="-483769" lat="60.6028527486" lon="5.08436963732">
		<tag k="name" v="Småstraumen" />
		<tag k="natural" v="strait" />
		<tag k="ssr:stedsnr" v="856956" />
	</node>
	<node id="-483254" lat="60.5655422212" lon="5.08969692308">
		<tag k="name" v="Onesholmen" />
		<tag k="place" v="islet" />
		<tag k="ssr:stedsnr" v="166080" />
	</node>
	<node id="-483253" lat="60.5525527792" lon="5.22949999431">
		<tag k="name" v="Kverna" />
		<tag k="place" v="island" />
		<tag k="ssr:stedsnr" v="166055" />
	</node>
	<node id="-483656" lat="60.5507166664" lon="5.02395278278">
		<tag k="name" v="Øpsehavn" />
		<tag k="natural" v="bay" />
		<tag k="ssr:stedsnr" v="753548" />
	</node>
	<node id="-483245" lat="60.5072777803" lon="5.21037499402">
		<tag k="name" v="Svinsvågneset" />
		<tag k="natural" v="cape" />
		<tag k="ssr:stedsnr" v="166009" />
	</node>
	<node id="-483241" lat="60.5347777775" lon="5.10288889169">
		<tag k="name" v="Sørastøa" />
		<tag k="natural" v="bay" />
		<tag k="ssr:stedsnr" v="146571" />
	</node>
	<node id="-483746" lat="60.605388888" lon="5.01545833311">
		<tag k="name" v="Saltholmen" />
		<tag k="place" v="islet" />
		<tag k="ssr:stedsnr" v="835480" />
	</node>
	<node id="-483487" lat="60.594183335" lon="5.15177777928">
		<tag k="bay" v="fjord" />
		<tag k="name" v="Radfjorden" />
		<tag k="natural" v="bay" />
		<tag k="ssr:stedsnr" v="552027" />
	</node>
	<node id="-483744" lat="60.6163444442" lon="4.95350278627">
		<tag k="fixme" v="consider seamark:type=rock or natural=shoal" />
		<tag k="name" v="Barbuskjeret" />
		<tag k="place" v="islet" />
		<tag k="ssr:stedsnr" v="835435" />
	</node>
	<node id="-483741" lat="60.5245777785" lon="5.15968888817">
		<tag k="name" v="Proppavika" />
		<tag k="natural" v="bay" />
		<tag k="ssr:stedsnr" v="835404" />
	</node>
	<node id="-483227" lat="60.6121749989" lon="5.05457500219">
		<tag k="fixme" v="consider seamark:type=rock or natural=shoal" />
		<tag k="name" v="Skipsskjera" />
		<tag k="place" v="islet" />
		<tag k="ssr:stedsnr" v="107444" />
	</node>
	<node id="-483222" lat="60.5456888885" lon="5.04358889313">
		<tag k="name" v="Kippevika" />
		<tag k="natural" v="bay" />
		<tag k="ssr:stedsnr" v="107372" />
	</node>
	<node id="-483219" lat="60.5338750022" lon="5.2530916635">
		<tag k="name" v="Nordra Krossnesvika" />
		<tag k="natural" v="bay" />
		<tag k="ssr:stedsnr" v="106332" />
	</node>
	<node id="-483218" lat="60.5554305531" lon="5.03177222233">
		<tag k="name" v="Kyrkjevika" />
		<tag k="natural" v="bay" />
		<tag k="ssr:stedsnr" v="106310" />
	</node>
	<node id="-483217" lat="60.5676333303" lon="4.99118611283">
		<tag k="fixme" v="consider seamark:type=rock or natural=shoal" />
		<tag k="name" v="Stora Ieskjeret" />
		<tag k="place" v="islet" />
		<tag k="ssr:stedsnr" v="106295" />
	</node>
	<node id="-483216" lat="60.5383361094" lon="5.249177777">
		<tag k="name" v="Hjeltaneset" />
		<tag k="natural" v="cape" />
		<tag k="ssr:stedsnr" v="106285" />
	</node>
	<node id="-483215" lat="60.5365000045" lon="5.25075834016">
		<tag k="name" v="Kjeldevika" />
		<tag k="natural" v="bay" />
		<tag k="ssr:stedsnr" v="106279" />
	</node>
	<node id="-483726" lat="60.5929722267" lon="5.13375000107">
		<tag k="name" v="Brattholmen" />
		<tag k="place" v="islet" />
		<tag k="ssr:stedsnr" v="833489" />
	</node>
	<node id="-483721" lat="60.5471916668" lon="5.26085277315">
		<tag k="name" v="Skjeljevikane" />
		<tag k="natural" v="bay" />
		<tag k="ssr:stedsnr" v="814600" />
	</node>
	<node id="-483208" lat="60.5849083321" lon="5.16249721365">
		<tag k="name" v="Kvernhusa" />
		<tag k="natural" v="cape" />
		<tag k="ssr:stedsnr" v="105484" />
	</node>
	<node id="-483719" lat="60.6049555524" lon="5.01354444728">
		<tag k="name" v="Vestevågen" />
		<tag k="natural" v="bay" />
		<tag k="ssr:stedsnr" v="813605" />
	</node>
	<node id="-483718" lat="60.5119472251" lon="5.24477499549">
		<tag k="name" v="Kråkeneset" />
		<tag k="natural" v="cape" />
		<tag k="ssr:stedsnr" v="813489" />
	</node>
	<node id="-483478" lat="60.6098388886" lon="5.01876665976">
		<tag k="name" v="Sjurholmsundet" />
		<tag k="natural" v="strait" />
		<tag k="ssr:stedsnr" v="531457" />
	</node>
	<node id="-483710" lat="60.538922225" lon="5.26505555877">
		<tag k="name" v="Flatøy" />
		<tag k="place" v="island" />
		<tag k="ssr:stedsnr" v="795446" />
	</node>
	<node id="-483194" lat="60.5472722216" lon="5.04359721372">
		<tag k="name" v="Odden" />
		<tag k="natural" v="cape" />
		<tag k="ssr:stedsnr" v="85511" />
	</node>
	<node id="-483705" lat="60.5969888919" lon="5.1006777738">
		<tag k="alt_name" v="Gåsevikbukta" />
		<tag k="name" v="Gåsevika" />
		<tag k="natural" v="bay" />
		<tag k="ssr:stedsnr" v="795029" />
	</node>
	<node id="-483192" lat="60.5076638909" lon="5.23925556375">
		<tag k="name" v="Løypetona" />
		<tag k="natural" v="cape" />
		<tag k="ssr:stedsnr" v="85452" />
	</node>
	<node id="-483191" lat="60.5358861074" lon="5.24873054755">
		<tag k="name" v="Gudmundsholmen" />
		<tag k="place" v="islet" />
		<tag k="ssr:stedsnr" v="85436" />
	</node>
	<node id="-483190" lat="60.6082000026" lon="5.01030277832">
		<tag k="name" v="Kårbøvågen" />
		<tag k="natural" v="bay" />
		<tag k="ssr:stedsnr" v="67952" />
	</node>
	<node id="-483189" lat="60.6099916709" lon="5.03715278095">
		<tag k="name" v="Gjerdevågen" />
		<tag k="natural" v="bay" />
		<tag k="ssr:stedsnr" v="67948" />
	</node>
	<node id="-483188" lat="60.6067249969" lon="4.98775555563">
		<tag k="name" v="Vika" />
		<tag k="natural" v="bay" />
		<tag k="ssr:stedsnr" v="67945" />
	</node>
	<node id="-483646" lat="60.5449944452" lon="5.04442222186">
		<tag k="name" v="Kippevikholmen" />
		<tag k="place" v="islet" />
		<tag k="ssr:stedsnr" v="734902" />
	</node>
	<node id="-483186" lat="60.5529138891" lon="5.23731944664">
		<tag k="name" v="Ospholmflua" />
		<tag k="natural" v="shoal" />
		<tag k="place" v="locality" />
		<tag k="ssr:stedsnr" v="67111" />
	</node>
	<node id="-483816" lat="60.6064444485" lon="5.00260556131">
		<tag k="name" v="Mjelkevikholmen" />
		<tag k="place" v="islet" />
		<tag k="ssr:stedsnr" v="956466" />
	</node>
	<node id="-483693" lat="60.6075388852" lon="5.01153610523">
		<tag k="name" v="Mortholmen" />
		<tag k="place" v="islet" />
		<tag k="ssr:stedsnr" v="774468" />
	</node>
	<node id="-483730" lat="60.5054527796" lon="5.22001389661">
		<tag k="name" v="Toneset" />
		<tag k="natural" v="cape" />
		<tag k="ssr:stedsnr" v="834013" />
	</node>
	<node id="-483688" lat="60.5248138911" lon="5.15444444661">
		<tag k="name" v="Skipparskarneset" />
		<tag k="natural" v="cape" />
		<tag k="ssr:stedsnr" v="774427" />
	</node>
	<node id="-483687" lat="60.5261694406" lon="5.15103889612">
		<tag k="name" v="Lakseneset" />
		<tag k="natural" v="cape" />
		<tag k="ssr:stedsnr" v="774422" />
	</node>
	<node id="-483171" lat="60.6107333292" lon="5.02534721799">
		<tag k="name" v="Gutholmen" />
		<tag k="place" v="islet" />
		<tag k="ssr:stedsnr" v="46471" />
	</node>
	<node id="-483681" lat="60.5232583334" lon="5.24761666945">
		<tag k="name" v="Langelandshavn" />
		<tag k="natural" v="bay" />
		<tag k="ssr:stedsnr" v="774389" />
	</node>
	<node id="-483680" lat="60.5602388927" lon="5.03497222583">
		<tag k="name" v="Rosslandsvågen" />
		<tag k="natural" v="bay" />
		<tag k="ssr:stedsnr" v="774364" />
	</node>
	<node id="-483679" lat="60.5581083332" lon="5.00662777467">
		<tag k="name" v="Reveneset" />
		<tag k="natural" v="cape" />
		<tag k="ssr:stedsnr" v="774354" />
	</node>
	<node id="-483166" lat="60.6098861141" lon="4.98701944193">
		<tag k="fixme" v="consider seamark:type=rock or natural=shoal" />
		<tag k="name" v="Lyrskjeret" />
		<tag k="place" v="islet" />
		<tag k="ssr:stedsnr" v="46433" />
	</node>
	<node id="-483677" lat="60.5546333327" lon="5.01337499149">
		<tag k="name" v="Øpsevågen" />
		<tag k="natural" v="bay" />
		<tag k="ssr:stedsnr" v="774348" />
	</node>
	<node id="-483676" lat="60.5728500026" lon="5.01533333064">
		<tag k="name" v="Trettholmsvika" />
		<tag k="natural" v="bay" />
		<tag k="ssr:stedsnr" v="774340" />
	</node>
	<node id="-483669" lat="60.577640542" lon="5.09237100304">
		<tag k="name" v="Skitbåsen" />
		<tag k="natural" v="cape" />
		<tag k="ssr:stedsnr" v="772085" />
	</node>
	<node id="-483668" lat="60.5718302252" lon="5.10607311628">
		<tag k="name" v="Øyneset" />
		<tag k="natural" v="cape" />
		<tag k="ssr:stedsnr" v="772076" />
	</node>
	<node id="-483667" lat="60.5726691635" lon="5.09642606076">
		<tag k="name" v="Brendeholmen" />
		<tag k="place" v="island" />
		<tag k="ssr:stedsnr" v="772077" />
	</node>
	<node id="-483154" lat="60.5332555547" lon="5.25294166328">
		<tag k="name" v="Notaneset" />
		<tag k="natural" v="cape" />
		<tag k="ssr:stedsnr" v="46284" />
	</node>
	<node id="-483663" lat="60.5103833301" lon="5.19924444871">
		<tag k="name" v="Dalstøneset" />
		<tag k="natural" v="cape" />
		<tag k="ssr:stedsnr" v="772018" />
	</node>
	<node id="-483150" lat="60.5449777781" lon="5.26816110491">
		<tag k="name" v="Storebogen" />
		<tag k="natural" v="bay" />
		<tag k="ssr:stedsnr" v="45261" />
	</node>
	<node id="-483147" lat="60.5095555587" lon="5.23143611545">
		<tag k="name" v="Elvavika" />
		<tag k="natural" v="bay" />
		<tag k="ssr:stedsnr" v="45020" />
	</node>
	<node id="-483658" lat="60.5278179402" lon="5.13620292722">
		<tag k="name" v="Gardsendvika" />
		<tag k="natural" v="bay" />
		<tag k="ssr:stedsnr" v="753557" />
	</node>
	<node id="-483657" lat="60.5595194448" lon="5.01832500102">
		<tag k="name" v="Leirestraumen" />
		<tag k="natural" v="bay" />
		<tag k="ssr:stedsnr" v="753553" />
	</node>
	<node id="-483144" lat="60.5526027793" lon="5.22923334018">
		<tag k="name" v="Kvernaflua" />
		<tag k="place" v="locality" />
		<tag k="seamark:type" v="rock" />
		<tag k="ssr:stedsnr" v="44224" />
	</node>
	<node id="-483142" lat="60.5723541722" lon="5.08758236996">
		<tag k="name" v="Kjeholmen" />
		<tag k="place" v="islet" />
		<tag k="ssr:stedsnr" v="44074" />
	</node>
	<node id="-483467" lat="60.5299083356" lon="5.12201110331">
		<tag k="name" v="Laksevika" />
		<tag k="natural" v="bay" />
		<tag k="ssr:stedsnr" v="531386" />
	</node>
	<node id="-483648" lat="60.5574750043" lon="5.02950833857">
		<tag k="name" v="Eikevika" />
		<tag k="natural" v="bay" />
		<tag k="ssr:stedsnr" v="734910" />
	</node>
	<node id="-483135" lat="60.5919944437" lon="5.09333610741">
		<tag k="name" v="Ytra Kylpa" />
		<tag k="natural" v="bay" />
		<tag k="ssr:stedsnr" v="25667" />
	</node>
	<node id="-483134" lat="60.5688750026" lon="5.0321111127">
		<tag k="name" v="Kippevikholmen" />
		<tag k="place" v="islet" />
		<tag k="ssr:stedsnr" v="25583" />
	</node>
	<node id="-483133" lat="60.5619750025" lon="5.04221667043">
		<tag k="name" v="Rylandsvågen" />
		<tag k="natural" v="bay" />
		<tag k="ssr:stedsnr" v="25582" />
	</node>
	<node id="-483131" lat="60.6055361091" lon="4.94773056166">
		<tag k="fixme" v="consider seamark:type=rock or natural=shoal" />
		<tag k="name" v="Storskjeret" />
		<tag k="place" v="islet" />
		<tag k="ssr:stedsnr" v="24673" />
	</node>
	<node id="-483129" lat="60.5567499997" lon="5.00087776879">
		<tag k="name" v="Øpso" />
		<tag k="place" v="island" />
		<tag k="ssr:stedsnr" v="6927" />
	</node>
	<node id="-483465" lat="60.5494000017" lon="5.03684444654">
		<tag k="name" v="Beistre" />
		<tag k="natural" v="bay" />
		<tag k="ssr:stedsnr" v="531375" />
	</node>
	<node id="-483123" lat="60.5680916641" lon="5.04449999364">
		<tag k="name" v="Mjølkevika" />
		<tag k="natural" v="bay" />
		<tag k="ssr:stedsnr" v="267549" />
	</node>
	<node id="-483121" lat="60.5347416629" lon="5.27101111078">
		<tag k="name" v="Lakseneset" />
		<tag k="natural" v="cape" />
		<tag k="ssr:stedsnr" v="267481" />
	</node>
	<node id="-483120" lat="60.570425" lon="5.18894722968">
		<tag k="name" v="Søra Merkesvika" />
		<tag k="natural" v="bay" />
		<tag k="old_name" v="Søra Merkesvik" />
		<tag k="ssr:stedsnr" v="267470" />
	</node>
	<node id="-483720" lat="60.6130888916" lon="5.03733889597">
		<tag k="name" v="Ytra Gjerdneset" />
		<tag k="natural" v="cape" />
		<tag k="ssr:stedsnr" v="813609" />
	</node>
	<node id="-483118" lat="60.5988676303" lon="4.95852692315">
		<tag k="name" v="Skjeljangssundet" />
		<tag k="natural" v="strait" />
		<tag k="ssr:stedsnr" v="1072074" />
	</node>
	<node id="-483807" lat="60.6017694483" lon="5.07205555702">
		<tag k="name" v="Geitnesvågen" />
		<tag k="natural" v="bay" />
		<tag k="ssr:stedsnr" v="956363" />
	</node>
	<node id="-483114" lat="60.6062916701" lon="5.00086944267">
		<tag k="name" v="Lyngholmen" />
		<tag k="place" v="islet" />
		<tag k="ssr:stedsnr" v="896448" />
	</node>
	<node id="-483623" lat="60.5543916628" lon="5.01095834096">
		<tag k="name" v="Smalneset" />
		<tag k="natural" v="cape" />
		<tag k="ssr:stedsnr" v="713310" />
	</node>
	<node id="-483622" lat="60.5317194416" lon="5.2516333268">
		<tag k="name" v="Brodden" />
		<tag k="natural" v="cape" />
		<tag k="ssr:stedsnr" v="713285" />
	</node>
	<node id="-483109" lat="60.6105638903" lon="4.98620278294">
		<tag k="fixme" v="consider seamark:type=rock or natural=shoal" />
		<tag k="name" v="Stora Lyrskjeret" />
		<tag k="place" v="islet" />
		<tag k="ssr:stedsnr" v="895392" />
	</node>
	<node id="-483620" lat="60.5360750026" lon="5.24871944281">
		<tag k="name" v="Hatleholmen" />
		<tag k="place" v="islet" />
		<tag k="ssr:stedsnr" v="713277" />
	</node>
	<node id="-483617" lat="60.5480888883" lon="5.24801944591">
		<tag k="name" v="Nordra Eidavika" />
		<tag k="natural" v="bay" />
		<tag k="ssr:stedsnr" v="713258" />
	</node>
	<node id="-483616" lat="60.5688249987" lon="5.03694444226">
		<tag k="name" v="Knutstøvika" />
		<tag k="natural" v="bay" />
		<tag k="ssr:stedsnr" v="713248" />
	</node>
	<node id="-483103" lat="60.5845888856" lon="4.99583611298">
		<tag k="name" v="Skorpesundet" />
		<tag k="natural" v="strait" />
		<tag k="ssr:stedsnr" v="895309" />
	</node>
	<node id="-483613" lat="60.5661812907" lon="5.08473608546">
		<tag k="name" v="Grønnevika" />
		<tag k="natural" v="bay" />
		<tag k="ssr:stedsnr" v="712085" />
	</node>
	<node id="-483100" lat="60.5568249992" lon="5.01120555095">
		<tag k="fixme" v="consider seamark:type=rock or natural=shoal" />
		<tag k="name" v="Indreskjeret" />
		<tag k="place" v="islet" />
		<tag k="ssr:stedsnr" v="895292" />
	</node>
	<node id="-483099" lat="60.5749694404" lon="5.01543055649">
		<tag k="name" v="Garnvika" />
		<tag k="natural" v="bay" />
		<tag k="ssr:stedsnr" v="895281" />
	</node>
	<node id="-483605" lat="60.5634555521" lon="4.98582500839">
		<tag k="name" v="Det naua" />
		<tag k="natural" v="strait" />
		<tag k="ssr:stedsnr" v="692931" />
	</node>
	<node id="-483604" lat="60.613111115" lon="4.97350278002">
		<tag k="name" v="Insteodden" />
		<tag k="natural" v="cape" />
		<tag k="ssr:stedsnr" v="691675" />
	</node>
	<node id="-483600" lat="60.5428722198" lon="5.03893333753">
		<tag k="name" v="Beitingflua" />
		<tag k="natural" v="shoal" />
		<tag k="place" v="locality" />
		<tag k="ssr:stedsnr" v="673920" />
	</node>
	<node id="-483599" lat="60.5322500041" lon="5.21768611078">
		<tag k="name" v="Holsnøy" />
		<tag k="place" v="island" />
		<tag k="ssr:stedsnr" v="673909" />
	</node>
	<node id="-483083" lat="60.6023527773" lon="5.06603055945">
		<tag k="name" v="Naustvika" />
		<tag k="natural" v="bay" />
		<tag k="ssr:stedsnr" v="895308" />
	</node>
	<node id="-483078" lat="60.6079055559" lon="5.00677778651">
		<tag k="name" v="Odden" />
		<tag k="place" v="islet" />
		<tag k="ssr:stedsnr" v="410447" />
	</node>
	<node id="-483071" lat="60.5519117703" lon="5.02024569794">
		<tag k="name" v="Søreklubben" />
		<tag k="natural" v="cape" />
		<tag k="ssr:stedsnr" v="410327" />
	</node>
	<node id="-483070" lat="60.5785555526" lon="5.01259722322">
		<tag k="name" v="Åvneset" />
		<tag k="natural" v="cape" />
		<tag k="ssr:stedsnr" v="410317" />
	</node>
	<node id="-483069" lat="60.561680557" lon="4.99475555464">
		<tag k="name" v="Laksenesest" />
		<tag k="natural" v="cape" />
		<tag k="ssr:stedsnr" v="410310" />
	</node>
	<node id="-483067" lat="60.5368416686" lon="5.24352777103">
		<tag k="name" v="Jektevika" />
		<tag k="natural" v="bay" />
		<tag k="ssr:stedsnr" v="410292" />
	</node>
	<node id="-483066" lat="60.5150138888" lon="5.24673054734">
		<tag k="name" v="Vardnappen" />
		<tag k="natural" v="cape" />
		<tag k="ssr:stedsnr" v="410288" />
	</node>
	<node id="-483065" lat="60.5636277817" lon="5.04263333588">
		<tag k="name" v="Saueneset" />
		<tag k="natural" v="cape" />
		<tag k="ssr:stedsnr" v="410250" />
	</node>
	<node id="-483064" lat="60.563744445" lon="5.04762499202">
		<tag k="name" v="Storavika" />
		<tag k="natural" v="bay" />
		<tag k="ssr:stedsnr" v="410249" />
	</node>
	<node id="-483575" lat="60.6008111095" lon="4.95706111043">
		<tag k="name" v="Sjøholmen" />
		<tag k="place" v="islet" />
		<tag k="ssr:stedsnr" v="652292" />
	</node>
	<node id="-483574" lat="60.5511444441" lon="5.02660277001">
		<tag k="name" v="Klubben" />
		<tag k="natural" v="cape" />
		<tag k="ssr:stedsnr" v="652276" />
	</node>
	<node id="-483573" lat="60.5647916674" lon="5.0530444519">
		<tag k="name" v="Vikebøvika" />
		<tag k="natural" v="bay" />
		<tag k="ssr:stedsnr" v="652272" />
	</node>
	<node id="-483060" lat="60.5513722242" lon="5.22187499632">
		<tag k="bay" v="fjord" />
		<tag k="name" v="Grasdalssjøen" />
		<tag k="natural" v="bay" />
		<tag k="ssr:stedsnr" v="409061" />
	</node>
	<node id="-483058" lat="60.5933472256" lon="5.13624166204">
		<tag k="name" v="Kyrkjesundet" />
		<tag k="natural" v="strait" />
		<tag k="ssr:stedsnr" v="408506" />
	</node>
	<node id="-483539" lat="60.556136111" lon="5.01621667401">
		<tag k="name" v="Hestholmen" />
		<tag k="place" v="islet" />
		<tag k="ssr:stedsnr" v="612931" />
	</node>
	<node id="-483565" lat="60.5935000001" lon="5.13985555376">
		<tag k="name" v="Sinko" />
		<tag k="natural" v="cape" />
		<tag k="ssr:stedsnr" v="651487" />
	</node>
	<node id="-483049" lat="60.5949499958" lon="4.96269722577">
		<tag k="name" v="Ringholmen" />
		<tag k="place" v="islet" />
		<tag k="ssr:stedsnr" v="388672" />
	</node>
	<node id="-483560" lat="60.5722416475" lon="5.10993298029">
		<tag k="name" v="Minneset" />
		<tag k="natural" v="cape" />
		<tag k="ssr:stedsnr" v="651088" />
	</node>
	<node id="-483047" lat="60.5307777792" lon="5.25680000383">
		<tag k="name" v="Krossneset" />
		<tag k="natural" v="cape" />
		<tag k="ssr:stedsnr" v="371030" />
	</node>
	<node id="-483045" lat="60.6126416649" lon="5.03483055229">
		<tag k="name" v="Kvalen" />
		<tag k="place" v="islet" />
		<tag k="ssr:stedsnr" v="370954" />
	</node>
	<node id="-483659" lat="60.6069722231" lon="5.00254165773">
		<tag k="alt_name" v="Meholm" />
		<tag k="name" v="Meholmen" />
		<tag k="place" v="islet" />
		<tag k="ssr:stedsnr" v="753593" />
	</node>
	<node id="-483536" lat="60.5103555544" lon="5.25560555573">
		<tag k="bay" v="fjord" />
		<tag k="name" v="Salhusfjorden" />
		<tag k="natural" v="bay" />
		<tag k="ssr:stedsnr" v="612403" />
	</node>
	<node id="-483549" lat="60.6031500018" lon="5.07126944971">
		<tag k="name" v="Geitnesflua" />
		<tag k="natural" v="shoal" />
		<tag k="place" v="locality" />
		<tag k="ssr:stedsnr" v="631660" />
	</node>
	<node id="-483547" lat="60.6016777768" lon="5.07479167278">
		<tag k="name" v="Geitneset" />
		<tag k="natural" v="cape" />
		<tag k="ssr:stedsnr" v="613930" />
	</node>
	<node id="-483033" lat="60.6111777797" lon="4.98033889773">
		<tag k="name" v="Klenevågen" />
		<tag k="natural" v="bay" />
		<tag k="ssr:stedsnr" v="349465" />
	</node>
	<node id="-483542" lat="60.5912638869" lon="5.13600556412">
		<tag k="name" v="Ådlandsvågen" />
		<tag k="natural" v="bay" />
		<tag k="ssr:stedsnr" v="613104" />
	</node>
	<node id="-483541" lat="60.615449999" lon="4.94628333215">
		<tag k="alt_name" v="Nesodden" />
		<tag k="name" v="Eldsneset" />
		<tag k="natural" v="cape" />
		<tag k="ssr:stedsnr" v="612955" />
	</node>
	<node id="-483027" lat="60.5221638846" lon="5.16280556093">
		<tag k="name" v="Børegavlen" />
		<tag k="natural" v="cape" />
		<tag k="ssr:stedsnr" v="349439" />
	</node>
	<node id="-483538" lat="60.5527832834" lon="5.01346310614">
		<tag k="name" v="Storevågen" />
		<tag k="natural" v="bay" />
		<tag k="ssr:stedsnr" v="612927" />
	</node>
	<node id="-483024" lat="60.5320694439" lon="5.25313610823">
		<tag k="name" v="Hansavika" />
		<tag k="natural" v="bay" />
		<tag k="ssr:stedsnr" v="349331" />
	</node>
	<node id="-483023" lat="60.5319861082" lon="5.24792778535">
		<tag k="name" v="Fossesjøen" />
		<tag k="natural" v="cape" />
		<tag k="ssr:stedsnr" v="349328" />
	</node>
	<node id="-483022" lat="60.5425538488" lon="5.25327323884">
		<tag k="name" v="Langaneset" />
		<tag k="natural" v="cape" />
		<tag k="ssr:stedsnr" v="349307" />
	</node>
	<node id="-483021" lat="60.5705111105" lon="5.18831666002">
		<tag k="name" v="Merkesvika" />
		<tag k="natural" v="bay" />
		<tag k="ssr:stedsnr" v="349283" />
	</node>
	<node id="-483019" lat="60.5959361117" lon="5.11733333801">
		<tag k="name" v="Riplevika" />
		<tag k="natural" v="bay" />
		<tag k="ssr:stedsnr" v="348461" />
	</node>
	<node id="-483527" lat="60.6074111131" lon="4.99502500411">
		<tag k="name" v="Insta Kalvetrævika" />
		<tag k="natural" v="bay" />
		<tag k="ssr:stedsnr" v="592435" />
	</node>
	<node id="-483011" lat="60.5910472245" lon="5.09657500772">
		<tag k="name" v="Indra Kylpa" />
		<tag k="natural" v="bay" />
		<tag k="ssr:stedsnr" v="328659" />
	</node>
	<node id="-483010" lat="60.5731527819" lon="4.99324445224">
		<tag k="name" v="Ieskorpa" />
		<tag k="natural" v="strait" />
		<tag k="ssr:stedsnr" v="328571" />
	</node>
	<node id="-483009" lat="60.5145527791" lon="5.19028611945">
		<tag k="name" v="Kjerringabukta" />
		<tag k="natural" v="bay" />
		<tag k="ssr:stedsnr" v="328562" />
	</node>
	<node id="-483008" lat="60.5293249984" lon="5.12766110346">
		<tag k="name" v="Lakseneset" />
		<tag k="natural" v="cape" />
		<tag k="ssr:stedsnr" v="328452" />
	</node>
	<node id="-483519" lat="60.5913500018" lon="4.98255832808">
		<tag k="name" v="Flatevika" />
		<tag k="natural" v="bay" />
		<tag k="ssr:stedsnr" v="591313" />
	</node>
	<node id="-483006" lat="60.6045750021" lon="5.0029611096">
		<tag k="name" v="Sanden" />
		<tag k="natural" v="bay" />
		<tag k="ssr:stedsnr" v="310922" />
	</node>
	<node id="-483515" lat="60.5575805595" lon="5.03105277578">
		<tag k="name" v="Langaneset" />
		<tag k="natural" v="cape" />
		<tag k="ssr:stedsnr" v="591284" />
	</node>
	<node id="-483002" lat="60.5595472204" lon="5.0162722266">
		<tag k="name" v="Leiro" />
		<tag k="natural" v="strait" />
		<tag k="ssr:stedsnr" v="309923" />
	</node>
	<node id="-483512" lat="60.5342166626" lon="5.10025556138">
		<tag k="name" v="Turneset" />
		<tag k="natural" v="cape" />
		<tag k="ssr:stedsnr" v="591263" />
	</node>
	<node id="-483785" lat="60.508450002" lon="5.23415278262">
		<tag k="name" v="Årevika" />
		<tag k="natural" v="bay" />
		<tag k="ssr:stedsnr" v="955015" />
	</node>
	<node id="-483104" lat="60.5360722226" lon="5.27142500833">
		<tag k="name" v="Austegardsfjæra" />
		<tag k="natural" v="bay" />
		<tag k="ssr:stedsnr" v="895318" />
	</node>
	<node id="-483505" lat="60.5728000024" lon="5.08989722615">
		<tag k="name" v="Små Kjeholmen" />
		<tag k="place" v="island" />
		<tag k="ssr:stedsnr" v="590085" />
	</node>
	<node id="-483784" lat="60.515469448" lon="5.18767778292">
		<tag k="name" v="Trollholet" />
		<tag k="natural" v="bay" />
		<tag k="ssr:stedsnr" v="955010" />
	</node>
	<node id="-483497" lat="60.5376388892" lon="5.08434722466">
		<tag k="name" v="Ospeneset" />
		<tag k="natural" v="cape" />
		<tag k="ssr:stedsnr" v="574170" />
	</node>
	<node id="-482984" lat="60.545763891" lon="5.09088332942">
		<tag k="name" v="Eidet" />
		<tag k="place" v="locality" />
		<tag k="ssr:stedsnr" v="289536" />
	</node>
	<node id="-483612" lat="60.5545472237" lon="5.2279861075">
		<tag k="bay" v="fjord" />
		<tag k="name" v="Slimo" />
		<tag k="natural" v="bay" />
		<tag k="ssr:stedsnr" v="712057" />
	</node>
	<node id="-483494" lat="60.6109166673" lon="5.01763055742">
		<tag k="name" v="Sjurholmen" />
		<tag k="place" v="islet" />
		<tag k="ssr:stedsnr" v="552968" />
	</node>
	<node id="-483489" lat="60.505611113" lon="5.22846389064">
		<tag k="name" v="Galteneset" />
		<tag k="natural" v="cape" />
		<tag k="ssr:stedsnr" v="552562" />
	</node>
	<node id="-482975" lat="60.5251194431" lon="5.15144999707">
		<tag k="name" v="Holmeknappen" />
		<tag k="natural" v="cape" />
		<tag k="ssr:stedsnr" v="289381" />
	</node>
	<node id="-483485" lat="60.5525249991" lon="5.0220638894">
		<tag k="name" v="Skjeljeholmen" />
		<tag k="place" v="islet" />
		<tag k="ssr:stedsnr" v="551907" />
	</node>
	<node id="-482969" lat="60.5539194487" lon="5.07680555609">
		<tag k="name" v="Vadholmen" />
		<tag k="place" v="islet" />
		<tag k="ssr:stedsnr" v="288409" />
	</node>
	<node id="-482966" lat="60.5905916668" lon="4.98983611457">
		<tag k="name" v="Sætreneset" />
		<tag k="natural" v="cape" />
		<tag k="ssr:stedsnr" v="288319" />
	</node>
	<node id="-483477" lat="60.6052611148" lon="5.00138610857">
		<tag k="name" v="Mjelkevika" />
		<tag k="natural" v="bay" />
		<tag k="ssr:stedsnr" v="531450" />
	</node>
	<node id="-482964" lat="60.5534222216" lon="5.01247499999">
		<tag k="name" v="Nordre Klubben" />
		<tag k="natural" v="cape" />
		<tag k="ssr:stedsnr" v="288302" />
	</node>
	<node id="-482962" lat="60.574627776" lon="5.01319722411">
		<tag k="name" v="Garnvikneset" />
		<tag k="natural" v="cape" />
		<tag k="ssr:stedsnr" v="288287" />
	</node>
	<node id="-483473" lat="60.6070249987" lon="4.99112221843">
		<tag k="name" v="Kalvetrævika" />
		<tag k="natural" v="bay" />
		<tag k="ssr:stedsnr" v="531425" />
	</node>
	<node id="-482958" lat="60.5114222216" lon="5.24346944985">
		<tag k="name" v="Kråkevika" />
		<tag k="natural" v="bay" />
		<tag k="ssr:stedsnr" v="288257" />
	</node>
	<node id="-482957" lat="60.5431277803" lon="5.27110278388">
		<tag k="name" v="Litlebogen" />
		<tag k="natural" v="bay" />
		<tag k="ssr:stedsnr" v="288251" />
	</node>
	<node id="-483266" lat="60.5348826433" lon="5.24746621833">
		<tag k="name" v="Hjeltholmen" />
		<tag k="place" v="islet" />
		<tag k="ssr:stedsnr" v="167284" />
	</node>
	<node id="-482953" lat="60.5061166679" lon="5.2215611198">
		<tag k="name" v="Juvika" />
		<tag k="natural" v="bay" />
		<tag k="ssr:stedsnr" v="288016" />
	</node>
	<node id="-482952" lat="60.5659472221" lon="5.01537222406">
		<tag k="name" v="Io" />
		<tag k="place" v="island" />
		<tag k="ssr:stedsnr" v="287170" />
	</node>
	<node id="-483462" lat="60.5372444446" lon="5.27173611905">
		<tag k="name" v="Benestøa" />
		<tag k="natural" v="bay" />
		<tag k="ssr:stedsnr" v="531351" />
	</node>
	<node id="-483063" lat="60.5725083375" lon="5.18339443538">
		<tag k="name" v="Utrenna" />
		<tag k="natural" v="bay" />
		<tag k="ssr:stedsnr" v="410246" />
	</node>
	<node id="-483459" lat="60.539127776" lon="5.0911416688">
		<tag k="name" v="Leirvika" />
		<tag k="natural" v="bay" />
		<tag k="ssr:stedsnr" v="531310" />
	</node>
	<node id="-483691" lat="60.6154944454" lon="4.96133056439">
		<tag k="name" v="Kolevika" />
		<tag k="natural" v="bay" />
		<tag k="ssr:stedsnr" v="774449" />
	</node>
	<node id="-483455" lat="60.5748888905" lon="5.17838888723">
		<tag k="name" v="Neset" />
		<tag k="natural" v="cape" />
		<tag k="ssr:stedsnr" v="531249" />
	</node>
	<node id="-483453" lat="60.5929222227" lon="5.14476667054">
		<tag k="name" v="Turid" />
		<tag k="natural" v="bay" />
		<tag k="ssr:stedsnr" v="530498" />
	</node>
	<node id="-483450" lat="60.627213885" lon="4.92525277455">
		<tag k="bay" v="fjord" />
		<tag k="name" v="Mangersfjorden" />
		<tag k="natural" v="bay" />
		<tag k="ssr:stedsnr" v="530147" />
	</node>
	<node id="-483007" lat="60.5986916679" lon="5.09056944864">
		<tag k="name" v="Havrøyna" />
		<tag k="place" v="island" />
		<tag k="ssr:stedsnr" v="310921" />
	</node>
	<node id="-483442" lat="60.5066277792" lon="5.23020832853">
		<tag k="name" v="Haltejohansvika" />
		<tag k="natural" v="bay" />
		<tag k="ssr:stedsnr" v="530023" />
	</node>
	<node id="-483441" lat="60.5113444478" lon="5.2019861139">
		<tag k="name" v="Dalstø" />
		<tag k="natural" v="bay" />
		<tag k="ssr:stedsnr" v="530016" />
	</node>
	<node id="-483440" lat="60.5095305571" lon="5.20489166602">
		<tag k="name" v="Sognevika" />
		<tag k="natural" v="bay" />
		<tag k="ssr:stedsnr" v="530014" />
	</node>
	<node id="-483439" lat="60.5576472267" lon="5.0345666673">
		<tag k="name" v="Langaneset" />
		<tag k="natural" v="cape" />
		<tag k="ssr:stedsnr" v="510609" />
	</node>
	<node id="-483436" lat="60.5720833313" lon="5.18529999228">
		<tag k="name" v="Nordra Merkesvika" />
		<tag k="natural" v="bay" />
		<tag k="old_name" v="Nordra Merkesvik" />
		<tag k="ssr:stedsnr" v="509483" />
	</node>
	<node id="-483435" lat="60.6088722181" lon="5.01433889418">
		<tag k="name" v="Orneset" />
		<tag k="natural" v="cape" />
		<tag k="ssr:stedsnr" v="492939" />
	</node>
	<node id="-483432" lat="60.5904305539" lon="5.15101665968">
		<tag k="name" v="Vardneset" />
		<tag k="natural" v="cape" />
		<tag k="ssr:stedsnr" v="492032" />
	</node>
	<node id="-483431" lat="60.6137916686" lon="4.97087500659">
		<tag k="name" v="Sandvika" />
		<tag k="natural" v="bay" />
		<tag k="ssr:stedsnr" v="491943" />
	</node>
	<node id="-483430" lat="60.5689388867" lon="5.00484999501">
		<tag k="alt_name" v="Kobbavågen" />
		<tag k="name" v="Kobbevågen" />
		<tag k="natural" v="bay" />
		<tag k="ssr:stedsnr" v="491926" />
	</node>
	<node id="-483429" lat="60.5646527747" lon="5.04781945158">
		<tag k="name" v="Vikebøholmen" />
		<tag k="place" v="islet" />
		<tag k="ssr:stedsnr" v="491921" />
	</node>
	<node id="-483427" lat="60.5588916666" lon="5.03576110983">
		<tag k="name" v="Leirholmen" />
		<tag k="place" v="islet" />
		<tag k="ssr:stedsnr" v="491916" />
	</node>
	<node id="-483426" lat="60.5511999985" lon="5.23751666452">
		<tag k="name" v="Ospholmen" />
		<tag k="place" v="islet" />
		<tag k="ssr:stedsnr" v="491444" />
	</node>
	<node id="-483425" lat="60.5466861154" lon="5.2374222217">
		<tag k="name" v="Håøyna" />
		<tag k="place" v="islet" />
		<tag k="ssr:stedsnr" v="491443" />
	</node>
	<node id="-483414" lat="60.607297222" lon="4.98673054993">
		<tag k="fixme" v="consider seamark:type=rock or natural=shoal" />
		<tag k="name" v="Grønbakkvikskjeret" />
		<tag k="place" v="islet" />
		<tag k="ssr:stedsnr" v="470379" />
	</node>
	<node id="-483413" lat="60.6126777774" lon="4.97484721787">
		<tag k="name" v="Glyvra" />
		<tag k="natural" v="bay" />
		<tag k="ssr:stedsnr" v="470375" />
	</node>
	<node id="-483410" lat="60.5275944431" lon="5.13587499606">
		<tag k="fixme" v="consider seamark:type=rock or natural=shoal" />
		<tag k="name" v="Ingeskjeret" />
		<tag k="place" v="islet" />
		<tag k="ssr:stedsnr" v="470343" />
	</node>
	<node id="-483409" lat="60.5504277774" lon="5.032494453">
		<tag k="name" v="Eikelandsvika" />
		<tag k="natural" v="bay" />
		<tag k="ssr:stedsnr" v="470333" />
	</node>
	<node id="-483403" lat="60.5681222214" lon="4.99368333215">
		<tag k="name" v="Ietangen" />
		<tag k="natural" v="cape" />
		<tag k="ssr:stedsnr" v="470269" />
	</node>
	<node id="-483402" lat="60.5393222237" lon="5.252866668">
		<tag k="name" v="Marusvika" />
		<tag k="natural" v="bay" />
		<tag k="ssr:stedsnr" v="470254" />
	</node>
	<node id="-483401" lat="60.5614555537" lon="5.03819722466">
		<tag k="name" v="Lundeneset" />
		<tag k="natural" v="cape" />
		<tag k="ssr:stedsnr" v="470229" />
	</node>
	<node id="-483400" lat="60.5080666709" lon="5.23492777455">
		<tag k="name" v="Bøneset" />
		<tag k="natural" v="cape" />
		<tag k="ssr:stedsnr" v="470020" />
	</node>
	<node id="-483395" lat="60.5495222187" lon="5.02089444427">
		<tag k="name" v="Vardholmen" />
		<tag k="place" v="islet" />
		<tag k="ssr:stedsnr" v="469099" />
	</node>
	<node id="-483393" lat="60.567899768" lon="5.10623931584">
		<tag k="name" v="Skralevika" />
		<tag k="natural" v="bay" />
		<tag k="ssr:stedsnr" v="469085" />
	</node>
	<node id="-483392" lat="60.5740774218" lon="5.10530893558">
		<tag k="name" v="Storholmen" />
		<tag k="place" v="islet" />
		<tag k="ssr:stedsnr" v="469081" />
	</node>
	<node id="-483390" lat="60.5517194444" lon="5.23192778563">
		<tag k="fixme" v="consider seamark:type=rock or natural=shoal" />
		<tag k="name" v="Ospholmskjeret" />
		<tag k="place" v="islet" />
		<tag k="ssr:stedsnr" v="469065" />
	</node>
	<node id="-483509" lat="60.5951972258" lon="5.12489999228">
		<tag k="name" v="Litlalangøyna" />
		<tag k="place" v="island" />
		<tag k="ssr:stedsnr" v="590487" />
	</node>
	<node id="-483385" lat="60.5363694429" lon="5.24612221584">
		<tag k="name" v="Lensmannsflua" />
		<tag k="natural" v="shoal" />
		<tag k="place" v="locality" />
		<tag k="ssr:stedsnr" v="449510" />
	</node>
	<node id="-483384" lat="60.5400361096" lon="5.24513056453">
		<tag k="name" v="Flatøyosen" />
		<tag k="natural" v="bay" />
		<tag k="ssr:stedsnr" v="449492" />
	</node>
	<node id="-483383" lat="60.6137083295" lon="5.04161666963">
		<tag k="fixme" v="multiple name tags, choose one and add the other to alt_name" />
		<tag k="name" v="Indra Gjerdeneset;Gjerdeneset" />
		<tag k="natural" v="cape" />
		<tag k="ssr:stedsnr" v="431957" />
	</node>
	<node id="-483382" lat="60.6113583329" lon="4.98313611566">
		<tag k="name" v="Skålholmane" />
		<tag k="place" v="islet" />
		<tag k="ssr:stedsnr" v="431952" />
	</node>
	<node id="-483381" lat="60.6152666647" lon="4.9523694499">
		<tag k="name" v="Prestvika" />
		<tag k="natural" v="bay" />
		<tag k="ssr:stedsnr" v="431953" />
	</node>
	<node id="-483379" lat="60.5914333318" lon="4.99265277295">
		<tag k="alt_name" v="Sætrevik" />
		<tag k="name" v="Sætrevika" />
		<tag k="natural" v="bay" />
		<tag k="ssr:stedsnr" v="431942" />
	</node>
	<node id="-483377" lat="60.5591111096" lon="5.03785556376">
		<tag k="name" v="Seljevika" />
		<tag k="natural" v="bay" />
		<tag k="ssr:stedsnr" v="431925" />
	</node>
	<node id="-483372" lat="60.5519694469" lon="5.25086111739">
		<tag k="bay" v="fjord" />
		<tag k="name" v="Kvernafjorden" />
		<tag k="natural" v="bay" />
		<tag k="ssr:stedsnr" v="431107" />
	</node>
	<node id="-483370" lat="60.5949416666" lon="5.13206823356">
		<tag k="name" v="Storalangøyna" />
		<tag k="place" v="islet" />
		<tag k="ssr:stedsnr" v="431021" />
	</node>
	<node id="-483367" lat="60.5978861081" lon="5.08454166413">
		<tag k="fixme" v="consider seamark:type=rock or natural=shoal" />
		<tag k="name" v="Vågsmunnskjeret" />
		<tag k="place" v="islet" />
		<tag k="ssr:stedsnr" v="267636" />
	</node>
	<node id="-483366" lat="60.6022805601" lon="4.99788889514">
		<tag k="name" v="Husebøvågen" />
		<tag k="natural" v="bay" />
		<tag k="ssr:stedsnr" v="249935" />
	</node>
	<node id="-483364" lat="60.5818583322" lon="4.9899500036">
		<tag k="name" v="Sætreosen" />
		<tag k="natural" v="strait" />
		<tag k="ssr:stedsnr" v="249924" />
	</node>
	<node id="-483363" lat="60.5742861135" lon="5.00694444613">
		<tag k="alt_name" v="Torkelstangen" />
		<tag k="name" v="Torkjellstangen" />
		<tag k="natural" v="cape" />
		<tag k="ssr:stedsnr" v="249921" />
	</node>
	<node id="-483362" lat="60.5725250021" lon="5.01406943807">
		<tag k="name" v="Risholmen" />
		<tag k="place" v="islet" />
		<tag k="ssr:stedsnr" v="249920" />
	</node>
	<node id="-483361" lat="60.5805527819" lon="5.00818056126">
		<tag k="name" v="Fløholmen" />
		<tag k="place" v="islet" />
		<tag k="ssr:stedsnr" v="249916" />
	</node>
	<node id="-483360" lat="60.566522223" lon="5.0008777726">
		<tag k="name" v="Ietangen" />
		<tag k="natural" v="cape" />
		<tag k="ssr:stedsnr" v="249914" />
	</node>
	<node id="-483781" lat="60.5617749998" lon="5.03462777357">
		<tag k="name" v="Vardneset" />
		<tag k="natural" v="cape" />
		<tag k="ssr:stedsnr" v="935588" />
	</node>
	<node id="-483357" lat="60.5433416709" lon="5.27213333256">
		<tag k="alt_name" v="Hagelsundet;Haglesundet" />
		<tag k="name" v="Haglsundet" />
		<tag k="natural" v="strait" />
		<tag k="ssr:stedsnr" v="249436" />
	</node>
	<node id="-483354" lat="60.5475333308" lon="5.22998334038">
		<tag k="name" v="Håøysundet" />
		<tag k="natural" v="strait" />
		<tag k="ssr:stedsnr" v="249085" />
	</node>
	<node id="-483503" lat="60.5543666683" lon="5.21806111174">
		<tag k="name" v="Skarpenesvågen" />
		<tag k="natural" v="bay" />
		<tag k="ssr:stedsnr" v="590049" />
	</node>
	<node id="-483576" lat="60.5907916693" lon="4.98554166736">
		<tag k="name" v="Flataneset" />
		<tag k="natural" v="cape" />
		<tag k="ssr:stedsnr" v="652295" />
	</node>
	<node id="-483344" lat="60.6093250024" lon="5.05599721909">
		<tag k="name" v="Kvalvikneset" />
		<tag k="natural" v="cape" />
		<tag k="ssr:stedsnr" v="228478" />
	</node>
	<node id="-483678" lat="60.5508388898" lon="5.01378056124">
		<tag k="name" v="Lamholmen" />
		<tag k="place" v="islet" />
		<tag k="ssr:stedsnr" v="774353" />
	</node>
	<node id="-483334" lat="60.5313638851" lon="5.25830278237">
		<tag k="name" v="Søra Krossnesvika" />
		<tag k="natural" v="bay" />
		<tag k="ssr:stedsnr" v="228365" />
	</node>
	<node id="-483333" lat="60.5594972185" lon="5.03189722846">
		<tag k="name" v="Seljevika" />
		<tag k="natural" v="bay" />
		<tag k="ssr:stedsnr" v="228343" />
	</node>
</osm>
