<?xml version="1.0" encoding="UTF-8"?>
<osm generator="osmapis" version="0.6">
	<node id="-484351" lat="60.5699000037" lon="5.17857778501">
		<tag k="name" v="Stemmevatnet" />
		<tag k="natural" v="water" />
		<tag k="ssr:stedsnr" v="835263" />
		<tag k="water" v="lake" />
	</node>
	<node id="-483710" lat="60.557405557" lon="5.06634722661">
		<tag k="name" v="Klubben" />
		<tag k="natural" v="cape" />
		<tag k="ssr:stedsnr" v="894775" />
	</node>
	<node id="-484181" lat="60.548952775" lon="5.08749167351">
		<tag k="name" v="Tunga" />
		<tag k="natural" v="cape" />
		<tag k="ssr:stedsnr" v="651468" />
	</node>
	<node id="-484220" lat="60.5873464429" lon="5.07894748519">
		<tag k="name" v="Livatnet" />
		<tag k="natural" v="water" />
		<tag k="ssr:stedsnr" v="674909" />
	</node>
	<node id="-483963" lat="60.5618274578" lon="5.15290361571">
		<tag k="name" v="Grønevika" />
		<tag k="natural" v="bay" />
		<tag k="ssr:stedsnr" v="228502" />
	</node>
	<node id="-484345" lat="60.5185805584" lon="5.22360833231">
		<tag k="name" v="Mjåtveitelva" />
		<tag k="ssr:stedsnr" v="834007" />
		<tag k="waterway" v="river" />
	</node>
	<node id="-484223" lat="60.55936389" lon="5.19813332471">
		<tag k="alt_name" v="Espetveitvatnet" />
		<tag k="name" v="Espetveittjørna" />
		<tag k="natural" v="water" />
		<tag k="ssr:stedsnr" v="693602" />
		<tag k="water" v="lake" />
	</node>
	<node id="-484215" lat="60.5774854573" lon="5.13867356146">
		<tag k="name" v="Kvernavatnet" />
		<tag k="natural" v="water" />
		<tag k="ssr:stedsnr" v="673124" />
	</node>
	<node id="-484213" lat="60.5538972242" lon="5.08983888328">
		<tag k="name" v="Nesklubben" />
		<tag k="natural" v="cape" />
		<tag k="ssr:stedsnr" v="652497" />
	</node>
	<node id="-484212" lat="60.5517722246" lon="5.09385832697">
		<tag k="name" v="Brakstadneset" />
		<tag k="natural" v="cape" />
		<tag k="ssr:stedsnr" v="652496" />
	</node>
	<node id="-483971" lat="60.5618606555" lon="5.12978252115">
		<tag k="alt_name" v="Myrtveitvatnet" />
		<tag k="name" v="Myrtveittjørna" />
		<tag k="natural" v="water" />
		<tag k="ssr:stedsnr" v="249068" />
	</node>
	<node id="-484209" lat="60.5509212671" lon="5.0667981528">
		<tag k="name" v="Rylandstjørna" />
		<tag k="natural" v="water" />
		<tag k="ssr:stedsnr" v="652431" />
	</node>
	<node id="-484208" lat="60.5705472059" lon="5.17360044567">
		<tag k="name" v="Vasstetjørna" />
		<tag k="natural" v="water" />
		<tag k="ssr:stedsnr" v="652409" />
	</node>
	<node id="-483694" lat="60.5457666639" lon="5.06675555164">
		<tag k="name" v="Vassvika" />
		<tag k="natural" v="bay" />
		<tag k="ssr:stedsnr" v="410456" />
	</node>
	<node id="-484332" lat="60.5878117616" lon="5.09163142663">
		<tag k="name" v="Midtvatnet" />
		<tag k="natural" v="water" />
		<tag k="ssr:stedsnr" v="795926" />
	</node>
	<node id="-484331" lat="60.5744305598" lon="5.08939166234">
		<tag k="name" v="Storavatnet" />
		<tag k="natural" v="water" />
		<tag k="ssr:stedsnr" v="795920" />
		<tag k="water" v="lake" />
	</node>
	<node id="-483717" lat="60.5590794739" lon="5.11470103395">
		<tag k="name" v="Bjørndalstjørna" />
		<tag k="natural" v="water" />
		<tag k="ssr:stedsnr" v="896534" />
	</node>
	<node id="-483688" lat="60.5582388861" lon="5.0167111153">
		<tag k="name" v="Ieneset" />
		<tag k="natural" v="cape" />
		<tag k="ssr:stedsnr" v="410338" />
	</node>
	<node id="-484103" lat="60.5648633566" lon="5.06844794673">
		<tag k="name" v="Vikebøtjørna" />
		<tag k="natural" v="water" />
		<tag k="ssr:stedsnr" v="551913" />
	</node>
	<node id="-484324" lat="60.5685527756" lon="5.1431444448">
		<tag k="name" v="Lammeneset" />
		<tag k="natural" v="cape" />
		<tag k="ssr:stedsnr" v="795157" />
	</node>
	<node id="-484154" lat="60.5496844194" lon="5.09198574023">
		<tag k="name" v="Rylandsvatnet" />
		<tag k="natural" v="water" />
		<tag k="ssr:stedsnr" v="612918" />
		<tag k="water" v="lake" />
	</node>
	<node id="-483651" lat="60.5590999973" lon="5.10583611791">
		<tag k="name" v="Holmen" />
		<tag k="place" v="islet" />
		<tag k="ssr:stedsnr" v="349554" />
	</node>
	<node id="-484315" lat="60.5643481106" lon="5.14742521519">
		<tag k="name" v="Tangen" />
		<tag k="natural" v="cape" />
		<tag k="ssr:stedsnr" v="774503" />
	</node>
	<node id="-483791" lat="60.5622568729" lon="5.15073015314">
		<tag k="name" v="Hestdalsvatnet" />
		<tag k="natural" v="water" />
		<tag k="ssr:stedsnr" v="46491" />
	</node>
	<node id="-484184" lat="60.55466944" lon="5.06878054928">
		<tag k="name" v="Sørastøa" />
		<tag k="natural" v="cape" />
		<tag k="ssr:stedsnr" v="651516" />
	</node>
	<node id="-483671" lat="60.5130403639" lon="5.22547281502">
		<tag k="name" v="Mjåtveittjørna" />
		<tag k="natural" v="water" />
		<tag k="ssr:stedsnr" v="408007" />
	</node>
	<node id="-483926" lat="60.5414899547" lon="5.13601330377">
		<tag k="name" v="Grisavika" />
		<tag k="natural" v="bay" />
		<tag k="ssr:stedsnr" v="226021" />
	</node>
	<node id="-484309" lat="60.5801694446" lon="5.17047221967">
		<tag k="name" v="Skjelevika" />
		<tag k="natural" v="bay" />
		<tag k="ssr:stedsnr" v="774452" />
	</node>
	<node id="-484052" lat="60.5770749975" lon="5.08304167473">
		<tag k="name" v="Vassholmen" />
		<tag k="place" v="islet" />
		<tag k="ssr:stedsnr" v="492910" />
	</node>
	<node id="-484432" lat="60.5722399231" lon="5.12451018729">
		<tag k="name" v="Kjørnesholmen" />
		<tag k="place" v="islet" />
		<tag k="ssr:stedsnr" v="956450" />
	</node>
	<node id="-484431" lat="60.6147055598" lon="4.95489166048">
		<tag k="name" v="Prestvikvatnet" />
		<tag k="natural" v="water" />
		<tag k="ssr:stedsnr" v="956438" />
		<tag k="water" v="lake" />
	</node>
	<node id="-483790" lat="60.5393833306" lon="5.06525555019">
		<tag k="name" v="Rotvika" />
		<tag k="natural" v="bay" />
		<tag k="ssr:stedsnr" v="46477" />
	</node>
	<node id="-484375" lat="60.5695843837" lon="5.15685623294">
		<tag k="name" v="Gaustadvatnet" />
		<tag k="natural" v="water" />
		<tag k="ssr:stedsnr" v="855119" />
	</node>
	<node id="-483612" lat="60.5737534894" lon="5.17958260181">
		<tag k="name" v="Skogsvatnet" />
		<tag k="natural" v="water" />
		<tag k="ssr:stedsnr" v="309135" />
	</node>
	<node id="-483658" lat="60.5430361114" lon="5.13630833081">
		<tag k="name" v="Brakstadvatnet" />
		<tag k="natural" v="water" />
		<tag k="ssr:stedsnr" v="370469" />
	</node>
	<node id="-484425" lat="60.59483889" lon="4.98998889547">
		<tag k="name" v="Bjøllebekken" />
		<tag k="ssr:stedsnr" v="956366" />
		<tag k="waterway" v="stream" />
	</node>
	<node id="-483656" lat="60.5679444453" lon="5.17022500727">
		<tag k="name" v="Gaustadelva" />
		<tag k="ssr:stedsnr" v="370150" />
		<tag k="waterway" v="stream" />
	</node>
	<node id="-484039" lat="60.5533666686" lon="5.18664444222">
		<tag k="name" v="Grasdalsvatnet" />
		<tag k="natural" v="water" />
		<tag k="ssr:stedsnr" v="491088" />
	</node>
	<node id="-484037" lat="60.5561166702" lon="5.07201667252">
		<tag k="name" v="Storholmen" />
		<tag k="place" v="islet" />
		<tag k="ssr:stedsnr" v="470489" />
	</node>
	<node id="-483652" lat="60.5548805522" lon="5.07936389609">
		<tag k="name" v="Skintveitneset" />
		<tag k="natural" v="cape" />
		<tag k="ssr:stedsnr" v="349560" />
	</node>
	<node id="-484035" lat="60.5632713465" lon="5.12405763618">
		<tag k="name" v="Litlatjørna" />
		<tag k="natural" v="water" />
		<tag k="ssr:stedsnr" v="470435" />
	</node>
	<node id="-484290" lat="60.5865822382" lon="5.13315984204">
		<tag k="name" v="Ådlandstjørna" />
		<tag k="natural" v="water" />
		<tag k="ssr:stedsnr" v="772491" />
	</node>
	<node id="-483905" lat="60.5513722253" lon="5.08322500784">
		<tag k="name" v="Rylandsholmen" />
		<tag k="natural" v="cape" />
		<tag k="ssr:stedsnr" v="167544" />
	</node>
	<node id="-483904" lat="60.5730657286" lon="5.12767327865">
		<tag k="name" v="Bukkholmen" />
		<tag k="place" v="islet" />
		<tag k="ssr:stedsnr" v="167495" />
	</node>
	<node id="-484415" lat="60.5411222235" lon="5.09095000654">
		<tag k="name" v="Leiro" />
		<tag k="natural" v="water" />
		<tag k="ssr:stedsnr" v="955468" />
		<tag k="water" v="lake" />
	</node>
	<node id="-483996" lat="60.5783678395" lon="5.02113362379">
		<tag k="name" v="Hagarstjørna" />
		<tag k="natural" v="water" />
		<tag k="ssr:stedsnr" v="431933" />
	</node>
	<node id="-483900" lat="60.5717055595" lon="5.12382499649">
		<tag k="name" v="Kjørneset" />
		<tag k="natural" v="cape" />
		<tag k="ssr:stedsnr" v="167441" />
	</node>
	<node id="-483899" lat="60.5703635244" lon="5.12461455679">
		<tag k="name" v="Gripavika" />
		<tag k="natural" v="bay" />
		<tag k="ssr:stedsnr" v="167439" />
	</node>
	<node id="-483898" lat="60.5792111147" lon="5.1719944434">
		<tag k="name" v="Havnholmen" />
		<tag k="place" v="islet" />
		<tag k="ssr:stedsnr" v="167430" />
	</node>
	<node id="-484025" lat="60.5960055586" lon="5.00818333029">
		<tag k="name" v="Brotshaugelva" />
		<tag k="ssr:stedsnr" v="470324" />
		<tag k="waterway" v="river" />
	</node>
	<node id="-483828" lat="60.5886973923" lon="5.11868050629">
		<tag k="name" v="Sauatjørna" />
		<tag k="natural" v="water" />
		<tag k="ssr:stedsnr" v="105500" />
	</node>
	<node id="-484022" lat="60.6033416628" lon="5.06770000074">
		<tag k="name" v="Landsvikosen" />
		<tag k="natural" v="bay" />
		<tag k="ssr:stedsnr" v="470300" />
	</node>
	<node id="-484148" lat="60.555544441" lon="5.09418332647">
		<tag k="name" v="Skjevlebukta" />
		<tag k="natural" v="bay" />
		<tag k="ssr:stedsnr" v="592533" />
	</node>
	<node id="-483635" lat="60.5715444421" lon="5.18679445341">
		<tag k="name" v="Merkesholmen" />
		<tag k="place" v="islet" />
		<tag k="ssr:stedsnr" v="349284" />
	</node>
	<node id="-484146" lat="60.5786055592" lon="5.17277776885">
		<tag k="name" v="Vaulen" />
		<tag k="natural" v="cape" />
		<tag k="ssr:stedsnr" v="592449" />
	</node>
	<node id="-484145" lat="60.5667111134" lon="5.14726389264">
		<tag k="name" v="Eidet" />
		<tag k="natural" v="bay" />
		<tag k="ssr:stedsnr" v="592443" />
	</node>
	<node id="-483631" lat="60.5677722185" lon="5.09358332801">
		<tag k="name" v="Storavatnet" />
		<tag k="natural" v="water" />
		<tag k="ssr:stedsnr" v="348106" />
		<tag k="water" v="lake" />
	</node>
	<node id="-484268" lat="60.6036303226" lon="5.04001309509">
		<tag k="name" v="Kårbøtjørna" />
		<tag k="natural" v="water" />
		<tag k="ssr:stedsnr" v="734939" />
	</node>
	<node id="-484267" lat="60.588675881" lon="5.0135515808">
		<tag k="name" v="Husebøvatnet" />
		<tag k="natural" v="water" />
		<tag k="ssr:stedsnr" v="734928" />
	</node>
	<node id="-483655" lat="60.5533160891" lon="5.20397089732">
		<tag k="name" v="Grasdalstjørna" />
		<tag k="natural" v="water" />
		<tag k="ssr:stedsnr" v="370107" />
	</node>
	<node id="-483616" lat="60.5479555529" lon="5.05858611026">
		<tag k="name" v="Eikelandsvatnet" />
		<tag k="natural" v="water" />
		<tag k="ssr:stedsnr" v="309914" />
		<tag k="water" v="lake" />
	</node>
	<node id="-484390" lat="60.5572572333" lon="5.10215284851">
		<tag k="name" v="Bjørndalsvatnet" />
		<tag k="natural" v="water" />
		<tag k="ssr:stedsnr" v="916092" />
	</node>
	<node id="-483730" lat="60.5741361101" lon="5.1189472264">
		<tag k="name" v="Storavatnet" />
		<tag k="natural" v="water" />
		<tag k="ssr:stedsnr" v="896485" />
		<tag k="water" v="lake" />
	</node>
	<node id="-484384" lat="60.5963626987" lon="5.01721987056">
		<tag k="name" v="Brotshaugvatnet" />
		<tag k="natural" v="water" />
		<tag k="ssr:stedsnr" v="856952" />
	</node>
	<node id="-484255" lat="60.5519527793" lon="5.09183055689">
		<tag k="name" v="Småsundet" />
		<tag k="natural" v="strait" />
		<tag k="ssr:stedsnr" v="713524" />
	</node>
	<node id="-484253" lat="60.5589184368" lon="5.06601116862">
		<tag k="name" v="Skintveittjørna" />
		<tag k="natural" v="water" />
		<tag k="ssr:stedsnr" v="713511" />
	</node>
	<node id="-483740" lat="60.5699000028" lon="5.02365833846">
		<tag k="name" v="Skurtveiteidet" />
		<tag k="natural" v="strait" />
		<tag k="ssr:stedsnr" v="267544" />
	</node>
	<node id="-484250" lat="60.5691388851" lon="5.1361250071">
		<tag k="name" v="Mjåsundet" />
		<tag k="natural" v="strait" />
		<tag k="ssr:stedsnr" v="713478" />
	</node>
	<node id="-484378" lat="60.5865874118" lon="5.10371779386">
		<tag k="fixme" v="multiple name tags, choose one and add the other to alt_name" />
		<tag k="name" v="Havrevatnet;Mjåvatnet" />
		<tag k="natural" v="water" />
		<tag k="ssr:stedsnr" v="856090" />
	</node>
	<node id="-484036" lat="60.558366665" lon="5.09858333508">
		<tag k="name" v="Skjevleneset" />
		<tag k="natural" v="cape" />
		<tag k="ssr:stedsnr" v="470479" />
	</node>
	<node id="-483819" lat="60.5569341426" lon="5.18880606549">
		<tag k="name" v="Skartjørna" />
		<tag k="natural" v="water" />
		<tag k="ssr:stedsnr" v="105041" />
	</node>
	<node id="-483851" lat="60.5640062576" lon="5.15437552102">
		<tag k="name" v="Hestnesvatnet" />
		<tag k="natural" v="water" />
		<tag k="ssr:stedsnr" v="127074" />
	</node>
	<node id="-484370" lat="60.5463985399" lon="5.08597304707">
		<tag k="name" v="Hundetjørna" />
		<tag k="natural" v="water" />
		<tag k="ssr:stedsnr" v="835543" />
		<tag k="water" v="pond" />
	</node>
	<node id="-484163" lat="60.5742867939" lon="5.07125630814">
		<tag k="name" v="Åsebøtjørna" />
		<tag k="natural" v="water" />
		<tag k="ssr:stedsnr" v="613915" />
	</node>
	<node id="-483728" lat="60.5561194462" lon="5.06643055848">
		<tag k="name" v="Nordrestøa" />
		<tag k="natural" v="cape" />
		<tag k="ssr:stedsnr" v="895475" />
	</node>
	<node id="-483855" lat="60.584930144" lon="5.05867849597">
		<tag k="name" v="Kvitstigtjørna" />
		<tag k="natural" v="water" />
		<tag k="ssr:stedsnr" v="127932" />
	</node>
	<node id="-484107" lat="60.5768453432" lon="5.03492149716">
		<tag k="name" v="Storatjørna" />
		<tag k="natural" v="water" />
		<tag k="ssr:stedsnr" v="552947" />
	</node>
	<node id="-483593" lat="60.5782805556" lon="5.1738444449">
		<tag k="name" v="Flisa" />
		<tag k="natural" v="cape" />
		<tag k="ssr:stedsnr" v="289425" />
	</node>
	<node id="-483776" lat="60.5828812311" lon="5.03577332817">
		<tag k="name" v="Trippesteintjørna" />
		<tag k="natural" v="water" />
		<tag k="ssr:stedsnr" v="46359" />
	</node>
	<node id="-484231" lat="60.5776027751" lon="5.06027222532">
		<tag k="name" v="Strangefjellstjørna" />
		<tag k="natural" v="water" />
		<tag k="ssr:stedsnr" v="712088" />
	</node>
	<node id="-483974" lat="60.5318083336" lon="5.19493333558">
		<tag k="name" v="Dalevatnet" />
		<tag k="natural" v="water" />
		<tag k="ssr:stedsnr" v="249417" />
	</node>
	<node id="-484033" lat="60.5313944423" lon="5.15267778518">
		<tag k="name" v="Holmevatnet" />
		<tag k="natural" v="water" />
		<tag k="ssr:stedsnr" v="470399" />
		<tag k="water" v="lake" />
	</node>
	<node id="-484087" lat="60.5181555715" lon="5.20526235899">
		<tag k="name" v="Tjørnane" />
		<tag k="natural" v="water" />
		<tag k="ssr:stedsnr" v="531412" />
		<tag k="water" v="lake" />
	</node>
	<node id="-484099" lat="60.556702776" lon="5.08169722102">
		<tag k="name" v="Austravatnet" />
		<tag k="natural" v="water" />
		<tag k="ssr:stedsnr" v="531530" />
		<tag k="water" v="lake" />
	</node>
	<node id="-484097" lat="60.5768833295" lon="5.17421111666">
		<tag k="name" v="Evja" />
		<tag k="natural" v="water" />
		<tag k="ssr:stedsnr" v="531473" />
		<tag k="water" v="lake" />
	</node>
</osm>
