<?xml version="1.0" encoding="UTF-8"?>
<osm generator="osmapis" version="0.6">
	<node id="-483326" lat="60.5114666637" lon="5.23742499284">
		<tag k="name" v="Jonsokgrenda" />
		<tag k="place" v="hamlet" />
		<tag k="ssr:stedsnr" v="228276" />
	</node>
	<node id="-483754" lat="60.5981361147" lon="4.9995777821">
		<tag k="name" v="Brotshaug" />
		<tag k="place" v="farm" />
		<tag k="ssr:stedsnr" v="841297" />
	</node>
	<node id="-483320" lat="60.5435638867" lon="5.24182778533">
		<tag k="name" v="Hillena" />
		<tag k="place" v="farm" />
		<tag k="ssr:stedsnr" v="227265" />
	</node>
	<node id="-483311" lat="60.5615027764" lon="5.19145833397">
		<tag k="name" v="Espetveit" />
		<tag k="place" v="farm" />
		<tag k="ssr:stedsnr" v="226066" />
	</node>
	<node id="-483818" lat="60.5983581256" lon="5.00268163775">
		<tag k="name" v="Brotshaug" />
		<tag k="place" v="farm" />
		<tag k="ssr:stedsnr" v="962276" />
	</node>
	<node id="-483305" lat="60.5536611074" lon="5.00840277873">
		<tag k="name" v="Øpso" />
		<tag k="place" v="farm" />
		<tag k="ssr:stedsnr" v="218626" />
	</node>
	<node id="-483813" lat="60.5279611092" lon="5.19708610874">
		<tag k="historic" v="shieling" />
		<tag k="name" v="Stølane" />
		<tag k="place" v="locality" />
		<tag k="ssr:stedsnr" v="956423" />
	</node>
	<node id="-483299" lat="60.6009555578" lon="4.96448888015">
		<tag k="name" v="Skjeljanger" />
		<tag k="place" v="hamlet" />
		<tag k="ssr:stedsnr" v="188957" />
	</node>
	<node id="-483297" lat="60.5931916641" lon="4.99007499235">
		<tag k="name" v="Sætre" />
		<tag k="place" v="farm" />
		<tag k="ssr:stedsnr" v="188944" />
	</node>
	<node id="-483294" lat="60.5542749974" lon="5.00532777646">
		<tag k="name" v="Ypso" />
		<tag k="place" v="isolated_dwelling" />
		<tag k="ssr:stedsnr" v="188925" />
	</node>
	<node id="-483292" lat="60.5460324441" lon="5.21572015505">
		<tag k="fixme" v="consider place=hamlet" />
		<tag k="name" v="Moldekleiv" />
		<tag k="place" v="farm" />
		<tag k="ssr:stedsnr" v="188474" />
	</node>
	<node id="-483291" lat="60.5092277758" lon="5.21486111462">
		<tag k="alt_name" v="Mjåtveitstø" />
		<tag k="name" v="Mjåtveitstøi" />
		<tag k="place" v="farm" />
		<tag k="ssr:stedsnr" v="188544" />
	</node>
	<node id="-483290" lat="60.5127638843" lon="5.20272777092">
		<tag k="alt_name" v="Dalsstøi" />
		<tag k="name" v="Dalstø" />
		<tag k="old_name" v="Dalstøi" />
		<tag k="place" v="farm" />
		<tag k="ssr:stedsnr" v="188541" />
	</node>
	<node id="-483289" lat="60.5272467066" lon="5.15518934283">
		<tag k="fixme" v="consider place=hamlet" />
		<tag k="name" v="Holme" />
		<tag k="place" v="farm" />
		<tag k="ssr:stedsnr" v="188446" />
	</node>
	<node id="-483288" lat="60.5590632961" lon="5.16897388045">
		<tag k="fixme" v="consider place=hamlet" />
		<tag k="name" v="Hestnes" />
		<tag k="place" v="farm" />
		<tag k="ssr:stedsnr" v="188103" />
	</node>
	<node id="-483797" lat="60.5411211566" lon="5.0538805852">
		<tag k="name" v="Beitingen" />
		<tag k="place" v="farm" />
		<tag k="ssr:stedsnr" v="955183" />
	</node>
	<node id="-483796" lat="60.5292527736" lon="5.15470278381">
		<tag k="fixme" v="consider place=suburb, village or hamlet" />
		<tag k="name" v="Holme" />
		<tag k="place" v="quarter" />
		<tag k="ssr:stedsnr" v="955156" />
	</node>
	<node id="-483795" lat="60.5578166631" lon="5.05207500069">
		<tag k="name" v="Ryland" />
		<tag k="place" v="village" />
		<tag k="ssr:stedsnr" v="955111" />
	</node>
	<node id="-483747" lat="60.5406249958" lon="5.06452499576">
		<tag k="name" v="Beitingen" />
		<tag k="place" v="farm" />
		<tag k="ssr:stedsnr" v="835489" />
	</node>
	<node id="-483790" lat="60.5415027742" lon="5.23378888737">
		<tag k="fixme" v="consider place=hamlet" />
		<tag k="name" v="Sunde" />
		<tag k="place" v="farm" />
		<tag k="ssr:stedsnr" v="955070" />
	</node>
	<node id="-483788" lat="60.5403055597" lon="5.18761387997">
		<tag k="fixme" v="consider place=hamlet" />
		<tag k="name" v="Meland" />
		<tag k="place" v="farm" />
		<tag k="ssr:stedsnr" v="955049" />
	</node>
	<node id="-483275" lat="60.5971694429" lon="5.05719167536">
		<tag k="historic" v="shieling" />
		<tag k="name" v="Heststølen" />
		<tag k="place" v="locality" />
		<tag k="ssr:stedsnr" v="167363" />
	</node>
	<node id="-483786" lat="60.5415194462" lon="5.15531110367">
		<tag k="name" v="Kletten" />
		<tag k="place" v="farm" />
		<tag k="ssr:stedsnr" v="955025" />
	</node>
	<node id="-483783" lat="60.5288972244" lon="5.24629444808">
		<tag k="name" v="Øvrebøen" />
		<tag k="place" v="quarter" />
		<tag k="ssr:stedsnr" v="950059" />
	</node>
	<node id="-483782" lat="60.5362048276" lon="5.19292415593">
		<tag k="fixme" v="consider place=hamlet" />
		<tag k="name" v="Nedre Dale" />
		<tag k="place" v="farm" />
		<tag k="ssr:stedsnr" v="939649" />
	</node>
	<node id="-483265" lat="60.5129138892" lon="5.2435611047">
		<tag k="name" v="Skansen" />
		<tag k="place" v="farm" />
		<tag k="ssr:stedsnr" v="167279" />
	</node>
	<node id="-483264" lat="60.6018361127" lon="5.06222499328">
		<tag k="fixme" v="consider place=hamlet" />
		<tag k="name" v="Landsvik" />
		<tag k="place" v="farm" />
		<tag k="ssr:stedsnr" v="167273" />
	</node>
	<node id="-483774" lat="60.5871685477" lon="5.15077601098">
		<tag k="alt_name" v="Refskar" />
		<tag k="fixme" v="consider place=hamlet" />
		<tag k="name" v="Revskard" />
		<tag k="place" v="farm" />
		<tag k="ssr:stedsnr" v="916103" />
	</node>
	<node id="-483260" lat="60.5467666689" lon="5.21483887969">
		<tag k="fixme" v="consider place=hamlet" />
		<tag k="name" v="Moldekleiv" />
		<tag k="place" v="village" />
		<tag k="ssr:stedsnr" v="166130" />
	</node>
	<node id="-483259" lat="60.5553333335" lon="5.21327776976">
		<tag k="name" v="Skarpeneset" />
		<tag k="place" v="village" />
		<tag k="ssr:stedsnr" v="166115" />
	</node>
	<node id="-483764" lat="60.5438055525" lon="5.12207777885">
		<tag k="name" v="Brakstad" />
		<tag k="place" v="hamlet" />
		<tag k="ssr:stedsnr" v="856488" />
	</node>
	<node id="-483763" lat="60.5463455643" lon="5.16583697107">
		<tag k="fixme" v="consider place=hamlet" />
		<tag k="name" v="Røyset" />
		<tag k="place" v="farm" />
		<tag k="ssr:stedsnr" v="856486" />
	</node>
	<node id="-483760" lat="60.5679099084" lon="5.05416423526">
		<tag k="fixme" v="consider place=hamlet" />
		<tag k="name" v="Rossland" />
		<tag k="place" v="farm" />
		<tag k="ssr:stedsnr" v="855922" />
	</node>
	<node id="-483759" lat="60.5417986309" lon="5.0482561659">
		<tag k="name" v="Beitingen" />
		<tag k="place" v="isolated_dwelling" />
		<tag k="ssr:stedsnr" v="855906" />
	</node>
	<node id="-483757" lat="60.5372833327" lon="5.26902222591">
		<tag k="name" v="Austegarden" />
		<tag k="place" v="farm" />
		<tag k="ssr:stedsnr" v="842304" />
	</node>
	<node id="-483244" lat="60.6080027743" lon="5.01805000383">
		<tag k="name" v="Kårbøneset" />
		<tag k="place" v="neighbourhood" />
		<tag k="ssr:stedsnr" v="161070" />
	</node>
	<node id="-483243" lat="60.5383416665" lon="5.09868055402">
		<tag k="name" v="Fløksand" />
		<tag k="place" v="quarter" />
		<tag k="ssr:stedsnr" v="161060" />
	</node>
	<node id="-483242" lat="60.5355510124" lon="5.25756301845">
		<tag k="fixme" v="consider place=hamlet" />
		<tag k="name" v="Flatøy" />
		<tag k="place" v="farm" />
		<tag k="ssr:stedsnr" v="150663" />
	</node>
	<node id="-483235" lat="60.5372065855" lon="5.26813528011">
		<tag k="name" v="Austegarden" />
		<tag k="place" v="farm" />
		<tag k="ssr:stedsnr" v="127428" />
	</node>
	<node id="-483234" lat="60.5337777816" lon="5.25981111117">
		<tag k="name" v="Øyni" />
		<tag k="place" v="farm" />
		<tag k="ssr:stedsnr" v="127412" />
	</node>
	<node id="-483232" lat="60.5539722255" lon="4.99216944952">
		<tag k="name" v="Hestnes" />
		<tag k="place" v="farm" />
		<tag k="ssr:stedsnr" v="113293" />
	</node>
	<node id="-483742" lat="60.5270611152" lon="5.20363055181">
		<tag k="name" v="Stallen" />
		<tag k="place" v="farm" />
		<tag k="ssr:stedsnr" v="835414" />
	</node>
	<node id="-483223" lat="60.5238166648" lon="5.21837500604">
		<tag k="name" v="Solhaug" />
		<tag k="place" v="farm" />
		<tag k="ssr:stedsnr" v="107377" />
	</node>
	<node id="-483221" lat="60.5501916624" lon="5.03570832854">
		<tag k="name" v="Nausthøyen" />
		<tag k="place" v="farm" />
		<tag k="ssr:stedsnr" v="107364" />
	</node>
	<node id="-483731" lat="60.5416944432" lon="5.17493054715">
		<tag k="name" v="Erstad" />
		<tag k="place" v="farm" />
		<tag k="ssr:stedsnr" v="834053" />
	</node>
	<node id="-483729" lat="60.5178638852" lon="5.22816111029">
		<tag k="historic" v="shieling" />
		<tag k="name" v="Bustølen" />
		<tag k="place" v="locality" />
		<tag k="ssr:stedsnr" v="834008" />
	</node>
	<node id="-483724" lat="60.544291663" lon="5.12088611733">
		<tag k="name" v="Ytre-Brakstad" />
		<tag k="place" v="farm" />
		<tag k="ssr:stedsnr" v="818695" />
	</node>
	<node id="-483723" lat="60.6017042176" lon="4.96887753466">
		<tag k="fixme" v="consider place=hamlet" />
		<tag k="name" v="Skjelanger" />
		<tag k="place" v="farm" />
		<tag k="ssr:stedsnr" v="818661" />
	</node>
	<node id="-483207" lat="60.5580460541" lon="5.11201117537">
		<tag k="name" v="Bjørndal" />
		<tag k="place" v="farm" />
		<tag k="ssr:stedsnr" v="105199" />
	</node>
	<node id="-483713" lat="60.5417344577" lon="5.08655831799">
		<tag k="fixme" v="consider place=hamlet" />
		<tag k="name" v="Leirvik" />
		<tag k="place" v="farm" />
		<tag k="ssr:stedsnr" v="795904" />
	</node>
	<node id="-483712" lat="60.5421228908" lon="5.20008334886">
		<tag k="fixme" v="consider place=hamlet" />
		<tag k="name" v="Bjørnestad" />
		<tag k="place" v="farm" />
		<tag k="ssr:stedsnr" v="795486" />
	</node>
	<node id="-483198" lat="60.5532333302" lon="5.0100583428">
		<tag k="name" v="Øpso" />
		<tag k="place" v="farm" />
		<tag k="ssr:stedsnr" v="97652" />
	</node>
	<node id="-483197" lat="60.5433722225" lon="5.15733889101">
		<tag k="name" v="Nedre Tveit" />
		<tag k="place" v="farm" />
		<tag k="ssr:stedsnr" v="89652" />
	</node>
	<node id="-483708" lat="60.5206770553" lon="5.21339289218">
		<tag k="fixme" v="consider place=hamlet" />
		<tag k="name" v="Mjåtveit" />
		<tag k="place" v="farm" />
		<tag k="ssr:stedsnr" v="795434" />
	</node>
	<node id="-483306" lat="60.5092166656" lon="5.22706388221">
		<tag k="name" v="Frekhaugmarka" />
		<tag k="place" v="quarter" />
		<tag k="ssr:stedsnr" v="222006" />
	</node>
	<node id="-483704" lat="60.5468083308" lon="5.16686944849">
		<tag k="name" v="Røyset" />
		<tag k="place" v="farm" />
		<tag k="ssr:stedsnr" v="781263" />
	</node>
	<node id="-483703" lat="60.5970027746" lon="5.00613332489">
		<tag k="name" v="Brotshaug" />
		<tag k="place" v="farm" />
		<tag k="ssr:stedsnr" v="780279" />
	</node>
	<node id="-483187" lat="60.5119749997" lon="5.22949444906">
		<tag k="fixme" v="consider place=suburb, village or hamlet" />
		<tag k="name" v="Vikane" />
		<tag k="place" v="quarter" />
		<tag k="ssr:stedsnr" v="67516" />
	</node>
	<node id="-483185" lat="60.5553703343" lon="5.21222365977">
		<tag k="name" v="Skarpeneset" />
		<tag k="place" v="hamlet" />
		<tag k="ssr:stedsnr" v="67105" />
	</node>
	<node id="-483184" lat="60.555154621" lon="5.13074528578">
		<tag k="fixme" v="consider place=hamlet" />
		<tag k="name" v="Sjurdal" />
		<tag k="place" v="farm" />
		<tag k="ssr:stedsnr" v="67098" />
	</node>
	<node id="-483183" lat="60.5579120684" lon="5.11256644021">
		<tag k="fixme" v="consider place=hamlet" />
		<tag k="name" v="Bjørndal" />
		<tag k="place" v="farm" />
		<tag k="ssr:stedsnr" v="67087" />
	</node>
	<node id="-483182" lat="60.5702385457" lon="5.07845990232">
		<tag k="alt_name" v="Åsbø" />
		<tag k="fixme" v="consider place=hamlet" />
		<tag k="name" v="Åsebø" />
		<tag k="place" v="farm" />
		<tag k="ssr:stedsnr" v="66909" />
	</node>
	<node id="-483181" lat="60.5613694461" lon="5.05155000805">
		<tag k="fixme" v="consider place=suburb, village or hamlet" />
		<tag k="name" v="Vikebø" />
		<tag k="place" v="quarter" />
		<tag k="ssr:stedsnr" v="66904" />
	</node>
	<node id="-483179" lat="60.5208363255" lon="5.23158756762">
		<tag k="fixme" v="consider place=hamlet" />
		<tag k="name" v="Langeland" />
		<tag k="place" v="farm" />
		<tag k="ssr:stedsnr" v="66364" />
	</node>
	<node id="-483178" lat="60.5981444414" lon="5.00405554868">
		<tag k="name" v="Brotshaug" />
		<tag k="place" v="farm" />
		<tag k="ssr:stedsnr" v="52264" />
	</node>
	<node id="-483170" lat="60.6048111099" lon="5.05379721906">
		<tag k="name" v="Landsvik" />
		<tag k="place" v="farm" />
		<tag k="ssr:stedsnr" v="46465" />
	</node>
	<node id="-483167" lat="60.603451621" lon="4.99376706575">
		<tag k="fixme" v="consider place=hamlet" />
		<tag k="name" v="Husebø" />
		<tag k="place" v="farm" />
		<tag k="ssr:stedsnr" v="46442" />
	</node>
	<node id="-483672" lat="60.5978749977" lon="5.00379444861">
		<tag k="name" v="Brotshaug" />
		<tag k="place" v="hamlet" />
		<tag k="ssr:stedsnr" v="772195" />
	</node>
	<node id="-483665" lat="60.543502776" lon="5.12961388144">
		<tag k="fixme" v="consider place=hamlet" />
		<tag k="name" v="Indre-Brakstad" />
		<tag k="place" v="farm" />
		<tag k="ssr:stedsnr" v="772030" />
	</node>
	<node id="-483151" lat="60.5136303469" lon="5.23800503613">
		<tag k="fixme" v="consider place=hamlet" />
		<tag k="name" v="Frekhaug" />
		<tag k="place" v="farm" />
		<tag k="ssr:stedsnr" v="45265" />
	</node>
	<node id="-483660" lat="60.5337512092" lon="5.1898466059">
		<tag k="fixme" v="consider place=hamlet" />
		<tag k="name" v="Øvre Dale" />
		<tag k="place" v="farm" />
		<tag k="ssr:stedsnr" v="757617" />
	</node>
	<node id="-483654" lat="60.5257166643" lon="5.1545750022">
		<tag k="name" v="Holmeknappen" />
		<tag k="place" v="hamlet" />
		<tag k="ssr:stedsnr" v="753539" />
	</node>
	<node id="-483141" lat="60.5562805542" lon="5.2158250032">
		<tag k="name" v="Skolten" />
		<tag k="place" v="farm" />
		<tag k="ssr:stedsnr" v="44056" />
	</node>
	<node id="-483138" lat="60.5301277808" lon="5.1339305502">
		<tag k="name" v="Orrhøyen" />
		<tag k="place" v="quarter" />
		<tag k="ssr:stedsnr" v="40061" />
	</node>
	<node id="-483137" lat="60.5850777823" lon="5.13720556243">
		<tag k="name" v="Søre Ådland" />
		<tag k="place" v="farm" />
		<tag k="ssr:stedsnr" v="29637" />
	</node>
	<node id="-483136" lat="60.5344785869" lon="5.19977929989">
		<tag k="fixme" v="consider place=hamlet" />
		<tag k="name" v="Øvre Sagstad" />
		<tag k="place" v="farm" />
		<tag k="ssr:stedsnr" v="29636" />
	</node>
	<node id="-483644" lat="60.588200004" lon="5.12926111947">
		<tag k="name" v="Øyjordi" />
		<tag k="place" v="farm" />
		<tag k="ssr:stedsnr" v="734101" />
	</node>
	<node id="-483643" lat="60.5558738502" lon="5.16507615083">
		<tag k="fixme" v="consider place=hamlet" />
		<tag k="name" v="Hestdal" />
		<tag k="place" v="farm" />
		<tag k="ssr:stedsnr" v="734091" />
	</node>
	<node id="-483130" lat="60.5345888855" lon="5.25948056262">
		<tag k="fixme" v="consider place=suburb, village or hamlet" />
		<tag k="name" v="Flatøy" />
		<tag k="place" v="quarter" />
		<tag k="ssr:stedsnr" v="24526" />
	</node>
	<node id="-483551" lat="60.5491361077" lon="5.21374166405">
		<tag k="name" v="Hammaren" />
		<tag k="place" v="quarter" />
		<tag k="ssr:stedsnr" v="646001" />
	</node>
	<node id="-483128" lat="60.5608277738" lon="5.02119444707">
		<tag k="name" v="Io" />
		<tag k="place" v="hamlet" />
		<tag k="ssr:stedsnr" v="6922" />
	</node>
	<node id="-483127" lat="60.5504805571" lon="5.04057500556">
		<tag k="name" v="Eikeland" />
		<tag k="place" v="hamlet" />
		<tag k="ssr:stedsnr" v="6918" />
	</node>
	<node id="-483126" lat="60.5801888875" lon="5.16453888385">
		<tag k="name" v="Einhøyen" />
		<tag k="place" v="farm" />
		<tag k="ssr:stedsnr" v="6124" />
	</node>
	<node id="-483119" lat="60.5372910955" lon="5.10516624576">
		<tag k="fixme" v="consider place=hamlet" />
		<tag k="name" v="Fløksand" />
		<tag k="place" v="farm" />
		<tag k="ssr:stedsnr" v="989699" />
	</node>
	<node id="-483625" lat="60.5905611131" lon="4.99626110365">
		<tag k="name" v="Hundskjeften" />
		<tag k="place" v="farm" />
		<tag k="ssr:stedsnr" v="713325" />
	</node>
	<node id="-483112" lat="60.556169441" lon="5.06065832495">
		<tag k="fixme" v="consider place=hamlet" />
		<tag k="name" v="Ryland" />
		<tag k="place" v="farm" />
		<tag k="ssr:stedsnr" v="895442" />
	</node>
	<node id="-483621" lat="60.5198305571" lon="5.23745277419">
		<tag k="name" v="Langeland" />
		<tag k="place" v="farm" />
		<tag k="ssr:stedsnr" v="713281" />
	</node>
	<node id="-483619" lat="60.5153194488" lon="5.24071388641">
		<tag k="amenity" v="school" />
		<tag k="name" v="Nordhordland Folkehøgskole" />
		<tag k="ssr:stedsnr" v="713275" />
	</node>
	<node id="-483615" lat="60.5119833373" lon="5.20373611171">
		<tag k="name" v="Dalstøi" />
		<tag k="place" v="farm" />
		<tag k="ssr:stedsnr" v="712159" />
	</node>
	<node id="-483098" lat="60.5393083301" lon="5.09584999356">
		<tag k="name" v="Træna" />
		<tag k="place" v="farm" />
		<tag k="ssr:stedsnr" v="895268" />
	</node>
	<node id="-483096" lat="60.5397833296" lon="5.24004721512">
		<tag k="name" v="Sunde" />
		<tag k="place" v="farm" />
		<tag k="ssr:stedsnr" v="895260" />
	</node>
	<node id="-483607" lat="60.5538277789" lon="5.00677500411">
		<tag k="name" v="Øpso" />
		<tag k="place" v="farm" />
		<tag k="ssr:stedsnr" v="703655" />
	</node>
	<node id="-483094" lat="60.5516693997" lon="5.0391826978">
		<tag k="fixme" v="consider place=hamlet" />
		<tag k="name" v="Eikeland" />
		<tag k="place" v="farm" />
		<tag k="ssr:stedsnr" v="894197" />
	</node>
	<node id="-483801" lat="60.5163583362" lon="5.24631389595">
		<tag k="name" v="Friborg" />
		<tag k="place" v="farm" />
		<tag k="ssr:stedsnr" v="956284" />
	</node>
	<node id="-483602" lat="60.5313658465" lon="5.14336539791">
		<tag k="fixme" v="consider place=hamlet" />
		<tag k="name" v="Hjartås" />
		<tag k="place" v="farm" />
		<tag k="ssr:stedsnr" v="674382" />
	</node>
	<node id="-483800" lat="60.5452944447" lon="5.24617499578">
		<tag k="historic" v="shieling" />
		<tag k="name" v="Stølane" />
		<tag k="place" v="locality" />
		<tag k="ssr:stedsnr" v="956274" />
	</node>
	<node id="-483085" lat="60.5591527811" lon="5.1365000002">
		<tag k="name" v="Klubben" />
		<tag k="place" v="farm" />
		<tag k="ssr:stedsnr" v="894034" />
	</node>
	<node id="-483082" lat="60.5576361114" lon="5.05385000221">
		<tag k="name" v="Rylandshøgda" />
		<tag k="place" v="quarter" />
		<tag k="ssr:stedsnr" v="890068" />
	</node>
	<node id="-483081" lat="60.5530305579" lon="5.21793889288">
		<tag k="name" v="Heiane" />
		<tag k="place" v="quarter" />
		<tag k="ssr:stedsnr" v="890016" />
	</node>
	<node id="-483582" lat="60.5528638874" lon="5.04029166375">
		<tag k="historic" v="shieling" />
		<tag k="name" v="Bustølen" />
		<tag k="place" v="locality" />
		<tag k="ssr:stedsnr" v="652320" />
	</node>
	<node id="-483061" lat="60.5650361108" lon="5.10013889682">
		<tag k="name" v="Oneset" />
		<tag k="place" v="farm" />
		<tag k="ssr:stedsnr" v="409097" />
	</node>
	<node id="-483571" lat="60.5311194468" lon="5.24436110324">
		<tag k="name" v="Utgjerdet" />
		<tag k="place" v="farm" />
		<tag k="ssr:stedsnr" v="652250" />
	</node>
	<node id="-483053" lat="60.5139833333" lon="5.19485833128">
		<tag k="name" v="Dalemarka" />
		<tag k="place" v="quarter" />
		<tag k="ssr:stedsnr" v="404045" />
	</node>
	<node id="-483052" lat="60.5118888922" lon="5.24051667108">
		<tag k="name" v="Jonsokgrenda" />
		<tag k="place" v="quarter" />
		<tag k="ssr:stedsnr" v="404008" />
	</node>
	<node id="-483051" lat="60.5442166649" lon="5.15099166752">
		<tag k="name" v="Øvre Tveit" />
		<tag k="place" v="farm" />
		<tag k="ssr:stedsnr" v="393680" />
	</node>
	<node id="-483050" lat="60.5331421746" lon="5.20750592147">
		<tag k="fixme" v="consider place=hamlet" />
		<tag k="name" v="Nedre Sagstad" />
		<tag k="place" v="farm" />
		<tag k="ssr:stedsnr" v="393630" />
	</node>
	<node id="-483044" lat="60.6045444449" lon="4.99320555507">
		<tag k="name" v="Husebø" />
		<tag k="place" v="hamlet" />
		<tag k="ssr:stedsnr" v="370943" />
	</node>
	<node id="-483552" lat="60.5624722249" lon="5.04684999416">
		<tag k="name" v="Kvernhaugen" />
		<tag k="place" v="quarter" />
		<tag k="ssr:stedsnr" v="646050" />
	</node>
	<node id="-483039" lat="60.5545000026" lon="5.16993888345">
		<tag k="name" v="Hestnes" />
		<tag k="place" v="farm" />
		<tag k="ssr:stedsnr" v="356301" />
	</node>
	<node id="-483550" lat="60.5883555566" lon="5.12948610439">
		<tag k="name" v="Nordre Ådland" />
		<tag k="place" v="farm" />
		<tag k="ssr:stedsnr" v="635621" />
	</node>
	<node id="-483548" lat="60.5543333372" lon="5.02916667441">
		<tag k="name" v="Fløholmen" />
		<tag k="place" v="locality" />
		<tag k="ssr:stedsnr" v="631589" />
	</node>
	<node id="-483543" lat="60.5262916652" lon="5.20411945358">
		<tag k="name" v="Sakstad" />
		<tag k="place" v="hamlet" />
		<tag k="ssr:stedsnr" v="613398" />
	</node>
	<node id="-483540" lat="60.5703923534" lon="5.04067195489">
		<tag k="fixme" v="consider place=hamlet" />
		<tag k="name" v="Skurtveit" />
		<tag k="place" v="farm" />
		<tag k="ssr:stedsnr" v="612933" />
	</node>
	<node id="-483025" lat="60.5402638865" lon="5.23819444945">
		<tag k="name" v="Litlebergen" />
		<tag k="place" v="farm" />
		<tag k="ssr:stedsnr" v="349340" />
	</node>
	<node id="-483534" lat="60.5979527796" lon="5.00067777774">
		<tag k="name" v="Brotshaug" />
		<tag k="place" v="farm" />
		<tag k="ssr:stedsnr" v="598281" />
	</node>
	<node id="-483018" lat="60.5362722254" lon="5.26857221515">
		<tag k="name" v="Austegarden" />
		<tag k="place" v="farm" />
		<tag k="ssr:stedsnr" v="348191" />
	</node>
	<node id="-483017" lat="60.5430444416" lon="5.11386944432">
		<tag k="name" v="Brakstad" />
		<tag k="place" v="locality" />
		<tag k="ssr:stedsnr" v="348186" />
	</node>
	<node id="-483013" lat="60.5576055564" lon="5.13477500636">
		<tag k="name" v="Mortveit" />
		<tag k="place" v="farm" />
		<tag k="ssr:stedsnr" v="348030" />
	</node>
	<node id="-483523" lat="60.5595111099" lon="5.04538889018">
		<tag k="name" v="Stekkane" />
		<tag k="place" v="farm" />
		<tag k="ssr:stedsnr" v="591344" />
	</node>
	<node id="-483522" lat="60.5433833367" lon="5.05168611772">
		<tag k="name" v="Nyheim" />
		<tag k="place" v="farm" />
		<tag k="ssr:stedsnr" v="591339" />
	</node>
	<node id="-483787" lat="60.5429472222" lon="5.1197888953">
		<tag k="fixme" v="consider place=hamlet" />
		<tag k="name" v="Ytre-Brakstad" />
		<tag k="place" v="farm" />
		<tag k="ssr:stedsnr" v="955033" />
	</node>
	<node id="-483004" lat="60.5322527741" lon="5.19139166111">
		<tag k="name" v="Dale" />
		<tag k="place" v="hamlet" />
		<tag k="ssr:stedsnr" v="310410" />
	</node>
	<node id="-483003" lat="60.5281696213" lon="5.17605203125">
		<tag k="fixme" v="consider place=hamlet" />
		<tag k="name" v="Hopland" />
		<tag k="place" v="farm" />
		<tag k="ssr:stedsnr" v="310397" />
	</node>
	<node id="-482999" lat="60.5218833313" lon="5.1933611169">
		<tag k="alt_name" v="Bjørkevoll" />
		<tag k="name" v="Burkevellene" />
		<tag k="place" v="farm" />
		<tag k="ssr:stedsnr" v="309415" />
	</node>
	<node id="-482998" lat="60.569919442" lon="5.18648056032">
		<tag k="name" v="Nymark" />
		<tag k="place" v="farm" />
		<tag k="ssr:stedsnr" v="309134" />
	</node>
	<node id="-482996" lat="60.5562978135" lon="5.13780460803">
		<tag k="alt_name" v="Mørtveit" />
		<tag k="fixme" v="consider place=hamlet" />
		<tag k="name" v="Myrtveit" />
		<tag k="place" v="farm" />
		<tag k="ssr:stedsnr" v="309090" />
	</node>
	<node id="-482995" lat="60.5624083918" lon="5.19358791927">
		<tag k="fixme" v="consider place=hamlet" />
		<tag k="name" v="Espetveit" />
		<tag k="place" v="farm" />
		<tag k="ssr:stedsnr" v="309069" />
	</node>
	<node id="-483499" lat="60.5453277794" lon="5.14115555572">
		<tag k="name" v="Nordre Fløyen" />
		<tag k="place" v="farm" />
		<tag k="ssr:stedsnr" v="590015" />
	</node>
	<node id="-483498" lat="60.5382027789" lon="5.11083333343">
		<tag k="name" v="Storåsen" />
		<tag k="place" v="quarter" />
		<tag k="ssr:stedsnr" v="586043" />
	</node>
	<node id="-483495" lat="60.5455083375" lon="5.22779721722">
		<tag k="name" v="Fredheim" />
		<tag k="place" v="farm" />
		<tag k="ssr:stedsnr" v="570468" />
	</node>
	<node id="-483492" lat="60.60532728" lon="5.02484184971">
		<tag k="fixme" v="consider place=hamlet" />
		<tag k="name" v="Kårbø" />
		<tag k="place" v="farm" />
		<tag k="ssr:stedsnr" v="552953" />
	</node>
	<node id="-483491" lat="60.5983786702" lon="5.00336798281">
		<tag k="fixme" v="consider place=hamlet" />
		<tag k="name" v="Brotshaug" />
		<tag k="place" v="farm" />
		<tag k="ssr:stedsnr" v="552952" />
	</node>
	<node id="-483488" lat="60.5418445337" lon="5.18341036009">
		<tag k="fixme" v="consider place=hamlet" />
		<tag k="name" v="Erstad" />
		<tag k="place" v="farm" />
		<tag k="ssr:stedsnr" v="552479" />
	</node>
	<node id="-483484" lat="60.5342861081" lon="5.26861944572">
		<tag k="name" v="Austegarden" />
		<tag k="place" v="farm" />
		<tag k="ssr:stedsnr" v="538346" />
	</node>
	<node id="-483610" lat="60.5528027818" lon="5.18011666918">
		<tag k="name" v="Myrvollane" />
		<tag k="place" v="farm" />
		<tag k="ssr:stedsnr" v="712044" />
	</node>
	<node id="-482960" lat="60.5336027762" lon="5.26628610804">
		<tag k="name" v="Høgdena" />
		<tag k="place" v="farm" />
		<tag k="ssr:stedsnr" v="288272" />
	</node>
	<node id="-483608" lat="60.5543024954" lon="5.00665010517">
		<tag k="fixme" v="consider place=hamlet" />
		<tag k="name" v="Øpso" />
		<tag k="place" v="farm" />
		<tag k="ssr:stedsnr" v="703656" />
	</node>
	<node id="-483563" lat="60.5597240194" lon="5.02261192272">
		<tag k="fixme" v="consider place=hamlet" />
		<tag k="name" v="Io" />
		<tag k="place" v="farm" />
		<tag k="ssr:stedsnr" v="651165" />
	</node>
	<node id="-482954" lat="60.5677111086" lon="5.05376944643">
		<tag k="name" v="Rossland" />
		<tag k="place" v="hamlet" />
		<tag k="ssr:stedsnr" v="288130" />
	</node>
	<node id="-482951" lat="60.5546908757" lon="5.00677003092">
		<tag k="name" v="Ypso" />
		<tag k="place" v="hamlet" />
		<tag k="ssr:stedsnr" v="287108" />
	</node>
	<node id="-482950" lat="60.5638833306" lon="5.05414999252">
		<tag k="fixme" v="consider place=hamlet" />
		<tag k="name" v="Vikebø" />
		<tag k="place" v="farm" />
		<tag k="ssr:stedsnr" v="287104" />
	</node>
	<node id="-482949" lat="60.5106194439" lon="5.22796389557">
		<tag k="name" v="Vikane" />
		<tag k="place" v="farm" />
		<tag k="ssr:stedsnr" v="287097" />
	</node>
	<node id="-482948" lat="60.5420814568" lon="5.1592772512">
		<tag k="name" v="Tveiten" />
		<tag k="place" v="farm" />
		<tag k="ssr:stedsnr" v="287094" />
	</node>
	<node id="-482947" lat="60.5418999991" lon="5.18053612005">
		<tag k="historic" v="shieling" />
		<tag k="name" v="Husstølen" />
		<tag k="place" v="locality" />
		<tag k="ssr:stedsnr" v="287066" />
	</node>
	<node id="-483093" lat="60.570780558" lon="5.04090277909">
		<tag k="name" v="Skurtveit" />
		<tag k="place" v="hamlet" />
		<tag k="ssr:stedsnr" v="894132" />
	</node>
	<node id="-483562" lat="60.5408527789" lon="5.23477221461">
		<tag k="name" v="Litlebergen" />
		<tag k="place" v="village" />
		<tag k="ssr:stedsnr" v="651139" />
	</node>
	<node id="-483437" lat="60.5161444467" lon="5.20568888059">
		<tag k="name" v="Porshaugen" />
		<tag k="place" v="farm" />
		<tag k="ssr:stedsnr" v="510588" />
	</node>
	<node id="-483433" lat="60.528526013" lon="5.23997523108">
		<tag k="fixme" v="consider place=hamlet" />
		<tag k="name" v="Fosse" />
		<tag k="place" v="farm" />
		<tag k="ssr:stedsnr" v="492376" />
	</node>
	<node id="-483772" lat="60.5370138865" lon="5.26452776909">
		<tag k="name" v="Austegarden" />
		<tag k="place" v="farm" />
		<tag k="ssr:stedsnr" v="902347" />
	</node>
	<node id="-483428" lat="60.5583188114" lon="5.06807662699">
		<tag k="fixme" v="consider place=hamlet" />
		<tag k="name" v="Skintveit" />
		<tag k="place" v="farm" />
		<tag k="ssr:stedsnr" v="491919" />
	</node>
	<node id="-483771" lat="60.5560222283" lon="5.21328424307">
		<tag k="fixme" v="consider place=hamlet" />
		<tag k="name" v="Skarpeneset" />
		<tag k="place" v="farm" />
		<tag k="ssr:stedsnr" v="878678" />
	</node>
	<node id="-483423" lat="60.5727312277" lon="5.17708681626">
		<tag k="fixme" v="consider place=hamlet" />
		<tag k="name" v="Gaustad" />
		<tag k="place" v="farm" />
		<tag k="ssr:stedsnr" v="491121" />
	</node>
	<node id="-483422" lat="60.5858551196" lon="5.1396772302">
		<tag k="name" v="Ådland" />
		<tag k="place" v="hamlet" />
		<tag k="ssr:stedsnr" v="491100" />
	</node>
	<node id="-483420" lat="60.5629397583" lon="5.14011651103">
		<tag k="fixme" v="consider place=hamlet" />
		<tag k="name" v="Håtuft" />
		<tag k="place" v="farm" />
		<tag k="ssr:stedsnr" v="491071" />
	</node>
	<node id="-483597" lat="60.5461666637" lon="5.16269445195">
		<tag k="name" v="Røyset" />
		<tag k="place" v="farm" />
		<tag k="ssr:stedsnr" v="659269" />
	</node>
	<node id="-483733" lat="60.5622166702" lon="5.19207778142">
		<tag k="name" v="Espetveit" />
		<tag k="place" v="farm" />
		<tag k="ssr:stedsnr" v="834186" />
	</node>
	<node id="-483387" lat="60.6054138912" lon="5.02685277485">
		<tag k="name" v="Kårbø" />
		<tag k="place" v="hamlet" />
		<tag k="ssr:stedsnr" v="469157" />
	</node>
	<node id="-483386" lat="60.5457222184" lon="5.13610000612">
		<tag k="name" v="Indre-Brakstad" />
		<tag k="place" v="farm" />
		<tag k="ssr:stedsnr" v="454698" />
	</node>
	<node id="-483508" lat="60.5707027799" lon="5.0779944525">
		<tag k="name" v="Åsebø" />
		<tag k="place" v="hamlet" />
		<tag k="ssr:stedsnr" v="590110" />
	</node>
	<node id="-483380" lat="60.60189167" lon="5.05354166238">
		<tag k="name" v="Landsvik" />
		<tag k="old_name" v="Nordra Landsvik;Søra Landsvik" />
		<tag k="place" v="hamlet" />
		<tag k="ssr:stedsnr" v="431945" />
	</node>
	<node id="-483507" lat="60.5623777741" lon="5.05096943955">
		<tag k="name" v="Vikebø" />
		<tag k="place" v="village" />
		<tag k="ssr:stedsnr" v="590100" />
	</node>
	<node id="-483376" lat="60.5441043625" lon="5.14447597952">
		<tag k="fixme" v="consider place=hamlet" />
		<tag k="name" v="Vollo" />
		<tag k="place" v="farm" />
		<tag k="ssr:stedsnr" v="431456" />
	</node>
	<node id="-483375" lat="60.5382555579" lon="5.10653889148">
		<tag k="name" v="Fløksand" />
		<tag k="place" v="hamlet" />
		<tag k="ssr:stedsnr" v="431442" />
	</node>
	<node id="-483374" lat="60.5409777744" lon="5.23453055328">
		<tag k="name" v="Litlebergen" />
		<tag k="place" v="hamlet" />
		<tag k="ssr:stedsnr" v="431437" />
	</node>
	<node id="-483368" lat="60.56076944" lon="5.17536943754">
		<tag k="name" v="Hestnes" />
		<tag k="place" v="farm" />
		<tag k="ssr:stedsnr" v="416272" />
	</node>
	<node id="-483359" lat="60.5132055526" lon="5.2425166594">
		<tag k="name" v="Frekhaug" />
		<tag k="place" v="village" />
		<tag k="ssr:stedsnr" v="249497" />
	</node>
	<node id="-483358" lat="60.5423416833" lon="5.15974760614">
		<tag k="name" v="Tveit" />
		<tag k="old_name" v="Tveiten" />
		<tag k="place" v="hamlet" />
		<tag k="ssr:stedsnr" v="249440" />
	</node>
	<node id="-483355" lat="60.5512227078" lon="5.19313226493">
		<tag k="fixme" v="consider place=hamlet" />
		<tag k="name" v="Grasdal" />
		<tag k="place" v="farm" />
		<tag k="ssr:stedsnr" v="249087" />
	</node>
	<node id="-483352" lat="60.5581469759" lon="5.05212668493">
		<tag k="name" v="Ryland" />
		<tag k="place" v="hamlet" />
		<tag k="ssr:stedsnr" v="248920" />
	</node>
	<node id="-483350" lat="60.5660416633" lon="5.12676389792">
		<tag k="alt_name" v="Gripsgard;Gripsgård" />
		<tag k="name" v="Gripen" />
		<tag k="place" v="farm" />
		<tag k="ssr:stedsnr" v="248065" />
	</node>
	<node id="-483348" lat="60.5578638931" lon="5.072566668">
		<tag k="name" v="Skintveit" />
		<tag k="place" v="farm" />
		<tag k="ssr:stedsnr" v="228557" />
	</node>
	<node id="-483756" lat="60.5457416669" lon="5.16511666974">
		<tag k="name" v="Røyset" />
		<tag k="place" v="farm" />
		<tag k="ssr:stedsnr" v="841304" />
	</node>
	<node id="-483755" lat="60.5477305585" lon="5.16986388687">
		<tag k="name" v="Røyset" />
		<tag k="place" v="farm" />
		<tag k="ssr:stedsnr" v="841302" />
	</node>
</osm>
