<?xml version="1.0" encoding="UTF-8"?>
<osm version="0.6" generator="osmapis">
	<node lat="68.58631666304024" lon="14.67401944873567" id="-21166">
		<tag k="name" v="Dragneset" />
		<tag k="ssr:date" v="2016-05-10" />
		<tag k="ssr:gruppe" v="navigasjon" />
		<tag k="ssr:hovedgruppe" v="infrastruktur" />
		<tag k="ssr:stedsnr" v="17602" />
		<tag k="ssr:type" v="fyrlykt" />
	</node>
	<node lat="68.48565081834359" lon="15.212719419428714" id="-21169">
		<tag k="name" v="Hanøyvekka" />
		<tag k="ssr:date" v="2020-09-15" />
		<tag k="ssr:gruppe" v="navigasjon" />
		<tag k="ssr:hovedgruppe" v="infrastruktur" />
		<tag k="ssr:stedsnr" v="17662" />
		<tag k="ssr:type" v="fyrlykt" />
	</node>
	<node lat="68.43023888476506" lon="15.149972229359426" id="-21197">
		<tag k="name" v="Nordholmgrunnen" />
		<tag k="ssr:date" v="2016-05-10" />
		<tag k="ssr:gruppe" v="navigasjon" />
		<tag k="ssr:hovedgruppe" v="infrastruktur" />
		<tag k="ssr:stedsnr" v="36411" />
		<tag k="ssr:type" v="fyrlykt" />
	</node>
	<node lat="68.45651944234857" lon="15.196436107208758" id="-21246">
		<tag k="name" v="Raftsundet bru, østside" />
		<tag k="ssr:date" v="2016-05-10" />
		<tag k="ssr:gruppe" v="navigasjon" />
		<tag k="ssr:hovedgruppe" v="infrastruktur" />
		<tag k="ssr:stedsnr" v="57809" />
		<tag k="ssr:type" v="lanterne" />
	</node>
	<node lat="68.61577778049028" lon="14.82379443673553" id="-21284">
		<tag k="alt_name" v="Kalsnesklubben" />
		<tag k="name" v="Kallsnesklubben" />
		<tag k="ssr:date" v="2016-05-10" />
		<tag k="ssr:gruppe" v="navigasjon" />
		<tag k="ssr:hovedgruppe" v="infrastruktur" />
		<tag k="ssr:stedsnr" v="78602" />
		<tag k="ssr:type" v="fyrlykt" />
	</node>
	<node lat="68.46941666735316" lon="15.105433344425128" id="-21513">
		<tag k="name" v="Stabben" />
		<tag k="ssr:date" v="2016-05-10" />
		<tag k="ssr:gruppe" v="navigasjon" />
		<tag k="ssr:hovedgruppe" v="infrastruktur" />
		<tag k="ssr:stedsnr" v="218427" />
		<tag k="ssr:type" v="fyrlykt" />
	</node>
	<node lat="68.56327778074349" lon="14.90835276936443" id="-21548">
		<tag k="name" v="Hadsel kommune" />
		<tag k="ssr:date" v="2016-05-10" />
		<tag k="ssr:gruppe" v="administrativeIndelinger" />
		<tag k="ssr:hovedgruppe" v="offentligAdministrasjon" />
		<tag k="ssr:stedsnr" v="450792" />
		<tag k="ssr:type" v="kommune" />
	</node>
	<node lat="68.41573795395742" lon="15.13022026370792" id="-21574">
		<tag k="alt_name" v="Raftsundet" />
		<tag k="name" v="Raftsund" />
		<tag k="ssr:date" v="2020-09-15" />
		<tag k="ssr:gruppe" v="navigasjon" />
		<tag k="ssr:hovedgruppe" v="infrastruktur" />
		<tag k="ssr:stedsnr" v="260916" />
		<tag k="ssr:type" v="fyrlykt" />
	</node>
	<node lat="68.57186943973974" lon="14.994038897817319" id="-21637">
		<tag k="name" v="Hadsel bru" />
		<tag k="ssr:date" v="2016-05-10" />
		<tag k="ssr:gruppe" v="navigasjon" />
		<tag k="ssr:hovedgruppe" v="infrastruktur" />
		<tag k="ssr:stedsnr" v="290725" />
		<tag k="ssr:type" v="fyrlykt" />
	</node>
	<node lat="68.49278425546734" lon="15.188759586073292" id="-21761">
		<tag k="name" v="Ersholman" />
		<tag k="old_name" v="Ersholmene" />
		<tag k="ssr:date" v="2020-09-15" />
		<tag k="ssr:gruppe" v="navigasjon" />
		<tag k="ssr:hovedgruppe" v="infrastruktur" />
		<tag k="ssr:stedsnr" v="380677" />
		<tag k="ssr:type" v="fyrlykt" />
	</node>
	<node lat="68.45704722210127" lon="15.193175009656477" id="-21914">
		<tag k="name" v="Raftsundet bru, senter" />
		<tag k="ssr:date" v="2016-05-10" />
		<tag k="ssr:gruppe" v="navigasjon" />
		<tag k="ssr:hovedgruppe" v="infrastruktur" />
		<tag k="ssr:stedsnr" v="481816" />
		<tag k="ssr:type" v="lanterne" />
	</node>
	<node lat="68.52172222626405" lon="15.25958333174052" id="-22005">
		<tag k="name" v="Lonkanneset" />
		<tag k="ssr:date" v="2016-05-11" />
		<tag k="ssr:gruppe" v="navigasjon" />
		<tag k="ssr:hovedgruppe" v="infrastruktur" />
		<tag k="ssr:stedsnr" v="685378" />
		<tag k="ssr:type" v="fyrlykt" />
	</node>
	<node lat="68.47653325582601" lon="15.175686275636812" id="-22714">
		<tag k="name" v="Hanøyholmen" />
		<tag k="ssr:date" v="2020-09-15" />
		<tag k="ssr:gruppe" v="navigasjon" />
		<tag k="ssr:hovedgruppe" v="infrastruktur" />
		<tag k="ssr:stedsnr" v="17686" />
		<tag k="ssr:type" v="fyrlykt" />
	</node>
	<node lat="67.2804027758844" lon="14.376388898255625" id="-23601">
		<tag k="alt_name:no" v="Nordland" />
		<tag k="loc_name:se" v="Nordlándda fylka" />
		<tag k="loc_name:sma" v="Nordlaanten fylhke" />
		<tag k="name" v="Nordland fylke" />
		<tag k="name:no" v="Nordland fylke" />
		<tag k="name:smj" v="Nordlánda fylkka" />
		<tag k="ssr:date" v="2021-02-03" />
		<tag k="ssr:gruppe" v="administrativeIndelinger" />
		<tag k="ssr:hovedgruppe" v="offentligAdministrasjon" />
		<tag k="ssr:stedsnr" v="511766" />
		<tag k="ssr:type" v="fylke" />
	</node>
	<node lat="68.4140017423329" lon="15.13368876208494" id="-23620">
		<tag k="loc_name" v="Trongstraumen" />
		<tag k="name" v="Trangstrømmen" />
		<tag k="ssr:date" v="2021-03-23" />
		<tag k="ssr:gruppe" v="navigasjon" />
		<tag k="ssr:hovedgruppe" v="infrastruktur" />
		<tag k="ssr:stedsnr" v="521394" />
		<tag k="ssr:type" v="fyrlykt" />
	</node>
	<node lat="68.48601404152483" lon="14.753990581159437" id="-23657">
		<tag k="name" v="Haugkleppan" />
		<tag k="ssr:date" v="2020-09-15" />
		<tag k="ssr:gruppe" v="navigasjon" />
		<tag k="ssr:hovedgruppe" v="infrastruktur" />
		<tag k="ssr:stedsnr" v="562152" />
		<tag k="ssr:type" v="fyrlykt" />
	</node>
	<node lat="68.44756595212196" lon="14.808851185863034" id="-23672">
		<tag k="name" v="Strønstad" />
		<tag k="ssr:date" v="2020-09-15" />
		<tag k="ssr:gruppe" v="navigasjon" />
		<tag k="ssr:hovedgruppe" v="infrastruktur" />
		<tag k="ssr:stedsnr" v="562328" />
		<tag k="ssr:type" v="fyrlykt" />
	</node>
	<node lat="68.57382634784263" lon="15.205457482288347" id="-23702">
		<tag k="name" v="Kartnes" />
		<tag k="old_name" v="Kartneset" />
		<tag k="ssr:date" v="2020-09-15" />
		<tag k="ssr:gruppe" v="navigasjon" />
		<tag k="ssr:hovedgruppe" v="infrastruktur" />
		<tag k="ssr:stedsnr" v="563092" />
		<tag k="ssr:type" v="fyrlykt" />
	</node>
	<node lat="68.54726666764488" lon="14.606616660887582" id="-23740">
		<tag k="name" v="Børholmen" />
		<tag k="ssr:date" v="2016-05-10" />
		<tag k="ssr:gruppe" v="navigasjon" />
		<tag k="ssr:hovedgruppe" v="infrastruktur" />
		<tag k="ssr:stedsnr" v="563913" />
		<tag k="ssr:type" v="fyrlykt" />
	</node>
	<node lat="68.45751111338853" lon="15.189872220552227" id="-23923">
		<tag k="name" v="Raftsundet bru, vestside" />
		<tag k="ssr:date" v="2016-05-11" />
		<tag k="ssr:gruppe" v="navigasjon" />
		<tag k="ssr:hovedgruppe" v="infrastruktur" />
		<tag k="ssr:stedsnr" v="724813" />
		<tag k="ssr:type" v="lanterne" />
	</node>
	<node lat="68.43045883280624" lon="14.873432433058136" id="-23941">
		<tag k="name" v="Årnøy" />
		<tag k="old_name" v="Årnøya" />
		<tag k="ssr:date" v="2020-09-15" />
		<tag k="ssr:gruppe" v="navigasjon" />
		<tag k="ssr:hovedgruppe" v="infrastruktur" />
		<tag k="ssr:stedsnr" v="745397" />
		<tag k="ssr:type" v="fyrlykt" />
	</node>
	<node lat="68.3684809269699" lon="15.056886478416715" id="-24099">
		<tag k="name" v="Rognholmene" />
		<tag k="old_name" v="Rognholman" />
		<tag k="ssr:date" v="2020-09-17" />
		<tag k="ssr:gruppe" v="navigasjon" />
		<tag k="ssr:hovedgruppe" v="infrastruktur" />
		<tag k="ssr:stedsnr" v="806930" />
		<tag k="ssr:type" v="fyrlykt" />
	</node>
	<node lat="68.48699722526167" lon="15.214444445785428" id="-24138">
		<tag k="name" v="Skallen" />
		<tag k="ssr:date" v="2016-05-11" />
		<tag k="ssr:gruppe" v="navigasjon" />
		<tag k="ssr:hovedgruppe" v="infrastruktur" />
		<tag k="ssr:stedsnr" v="825394" />
		<tag k="ssr:type" v="fyrlykt" />
	</node>
	<node lat="68.45295915723581" lon="15.19274808602999" id="-24251">
		<tag k="name" v="Steinbakken" />
		<tag k="ssr:date" v="2020-09-17" />
		<tag k="ssr:gruppe" v="navigasjon" />
		<tag k="ssr:hovedgruppe" v="infrastruktur" />
		<tag k="ssr:stedsnr" v="867735" />
		<tag k="ssr:type" v="fyrlykt" />
	</node>
	<node lat="68.56817871145138" lon="14.941212851627318" id="-24368">
		<tag k="name" v="Fasanveien" />
		<tag k="ssr:date" v="2019-05-30" />
		<tag k="ssr:gruppe" v="veg" />
		<tag k="ssr:hovedgruppe" v="infrastruktur" />
		<tag k="ssr:stedsnr" v="1002365" />
		<tag k="ssr:type" v="adressenavn" />
	</node>
	<node lat="68.56811441273406" lon="14.950416561574484" id="-24369">
		<tag k="name" v="Grågåsveien" />
		<tag k="ssr:date" v="2019-05-30" />
		<tag k="ssr:gruppe" v="veg" />
		<tag k="ssr:hovedgruppe" v="infrastruktur" />
		<tag k="ssr:stedsnr" v="1002371" />
		<tag k="ssr:type" v="adressenavn" />
	</node>
	<node lat="68.56856412549462" lon="14.942857387907738" id="-24370">
		<tag k="name" v="Hegreveien" />
		<tag k="ssr:date" v="2019-05-30" />
		<tag k="ssr:gruppe" v="veg" />
		<tag k="ssr:hovedgruppe" v="infrastruktur" />
		<tag k="ssr:stedsnr" v="1002375" />
		<tag k="ssr:type" v="adressenavn" />
	</node>
	<node lat="68.56878758157673" lon="14.946530492398752" id="-24371">
		<tag k="name" v="Lomveien" />
		<tag k="ssr:date" v="2019-05-30" />
		<tag k="ssr:gruppe" v="veg" />
		<tag k="ssr:hovedgruppe" v="infrastruktur" />
		<tag k="ssr:stedsnr" v="1002380" />
		<tag k="ssr:type" v="adressenavn" />
	</node>
	<node lat="68.56767402017847" lon="14.939134651982696" id="-24372">
		<tag k="name" v="Alkeveien" />
		<tag k="ssr:date" v="2019-05-30" />
		<tag k="ssr:gruppe" v="veg" />
		<tag k="ssr:hovedgruppe" v="infrastruktur" />
		<tag k="ssr:stedsnr" v="1002395" />
		<tag k="ssr:type" v="adressenavn" />
	</node>
	<node lat="68.56711879783289" lon="14.952915110772452" id="-24376">
		<tag k="name" v="Ærfuglveien" />
		<tag k="ssr:date" v="2019-05-30" />
		<tag k="ssr:gruppe" v="veg" />
		<tag k="ssr:hovedgruppe" v="infrastruktur" />
		<tag k="ssr:stedsnr" v="1002452" />
		<tag k="ssr:type" v="adressenavn" />
	</node>
	<node lat="68.56918869490752" lon="14.927873868058521" id="-24377">
		<tag k="name" v="Ørneveien" />
		<tag k="ssr:date" v="2019-05-30" />
		<tag k="ssr:gruppe" v="veg" />
		<tag k="ssr:hovedgruppe" v="infrastruktur" />
		<tag k="ssr:stedsnr" v="1002457" />
		<tag k="ssr:type" v="adressenavn" />
	</node>
	<node lat="68.57079967078278" lon="14.947551392824025" id="-24378">
		<tag k="name" v="Industriveien" />
		<tag k="ssr:date" v="2019-05-30" />
		<tag k="ssr:gruppe" v="veg" />
		<tag k="ssr:hovedgruppe" v="infrastruktur" />
		<tag k="ssr:stedsnr" v="1002466" />
		<tag k="ssr:type" v="adressenavn" />
	</node>
	<node lat="68.56682282898912" lon="14.941483682995061" id="-24379">
		<tag k="name" v="Måkeveien" />
		<tag k="ssr:date" v="2019-05-30" />
		<tag k="ssr:gruppe" v="veg" />
		<tag k="ssr:hovedgruppe" v="infrastruktur" />
		<tag k="ssr:stedsnr" v="1002471" />
		<tag k="ssr:type" v="adressenavn" />
	</node>
	<node lat="68.56884307928807" lon="14.940855514132485" id="-24380">
		<tag k="name" v="Rypeveien" />
		<tag k="ssr:date" v="2019-05-30" />
		<tag k="ssr:gruppe" v="veg" />
		<tag k="ssr:hovedgruppe" v="infrastruktur" />
		<tag k="ssr:stedsnr" v="1002476" />
		<tag k="ssr:type" v="adressenavn" />
	</node>
	<node lat="68.56703058052565" lon="14.936154495921954" id="-24381">
		<tag k="name" v="Svaneveien" />
		<tag k="ssr:date" v="2019-05-30" />
		<tag k="ssr:gruppe" v="veg" />
		<tag k="ssr:hovedgruppe" v="infrastruktur" />
		<tag k="ssr:stedsnr" v="1002481" />
		<tag k="ssr:type" v="adressenavn" />
	</node>
	<node lat="68.56835948908135" lon="14.891516057967417" id="-24382">
		<tag k="name" v="Nordnesveien" />
		<tag k="ssr:date" v="2019-05-30" />
		<tag k="ssr:gruppe" v="veg" />
		<tag k="ssr:hovedgruppe" v="infrastruktur" />
		<tag k="ssr:stedsnr" v="1002973" />
		<tag k="ssr:type" v="adressenavn" />
	</node>
	<node lat="68.56437192477011" lon="14.912497156056252" id="-24384">
		<tag k="name" v="Skarveien" />
		<tag k="ssr:date" v="2019-05-30" />
		<tag k="ssr:gruppe" v="veg" />
		<tag k="ssr:hovedgruppe" v="infrastruktur" />
		<tag k="ssr:stedsnr" v="1002985" />
		<tag k="ssr:type" v="adressenavn" />
	</node>
	<node lat="68.5662484359228" lon="14.869887514898002" id="-24385">
		<tag k="name" v="Vierveien" />
		<tag k="ssr:date" v="2019-05-30" />
		<tag k="ssr:gruppe" v="veg" />
		<tag k="ssr:hovedgruppe" v="infrastruktur" />
		<tag k="ssr:stedsnr" v="1003038" />
		<tag k="ssr:type" v="adressenavn" />
	</node>
	<node lat="68.56846707489389" lon="14.868218599729897" id="-24386">
		<tag k="name" v="Rishaugveien" />
		<tag k="ssr:date" v="2019-05-30" />
		<tag k="ssr:gruppe" v="veg" />
		<tag k="ssr:hovedgruppe" v="infrastruktur" />
		<tag k="ssr:stedsnr" v="1003041" />
		<tag k="ssr:type" v="adressenavn" />
	</node>
	<node lat="68.5662484359228" lon="14.869887514898002" id="-24388">
		<tag k="name" v="Blomveien" />
		<tag k="ssr:date" v="2019-05-30" />
		<tag k="ssr:gruppe" v="veg" />
		<tag k="ssr:hovedgruppe" v="infrastruktur" />
		<tag k="ssr:stedsnr" v="1003052" />
		<tag k="ssr:type" v="adressenavn" />
	</node>
	<node lat="68.57001893135097" lon="14.88186789035979" id="-24389">
		<tag k="name" v="Fiolveien" />
		<tag k="ssr:date" v="2019-05-30" />
		<tag k="ssr:gruppe" v="veg" />
		<tag k="ssr:hovedgruppe" v="infrastruktur" />
		<tag k="ssr:stedsnr" v="1002988" />
		<tag k="ssr:type" v="adressenavn" />
	</node>
	<node lat="68.56813446377703" lon="14.88090568975601" id="-24390">
		<tag k="name" v="Kløverveien" />
		<tag k="ssr:date" v="2019-05-30" />
		<tag k="ssr:gruppe" v="veg" />
		<tag k="ssr:hovedgruppe" v="infrastruktur" />
		<tag k="ssr:stedsnr" v="1002992" />
		<tag k="ssr:type" v="adressenavn" />
	</node>
	<node lat="68.56751399099244" lon="14.875432097019452" id="-24392">
		<tag k="name" v="Markveien" />
		<tag k="ssr:date" v="2019-05-30" />
		<tag k="ssr:gruppe" v="veg" />
		<tag k="ssr:hovedgruppe" v="infrastruktur" />
		<tag k="ssr:stedsnr" v="1003001" />
		<tag k="ssr:type" v="adressenavn" />
	</node>
	<node lat="68.5701673982005" lon="14.880264382552983" id="-24394">
		<tag k="name" v="Bregneveien" />
		<tag k="ssr:date" v="2019-05-30" />
		<tag k="ssr:gruppe" v="veg" />
		<tag k="ssr:hovedgruppe" v="infrastruktur" />
		<tag k="ssr:stedsnr" v="1003008" />
		<tag k="ssr:type" v="adressenavn" />
	</node>
	<node lat="68.56634601644824" lon="14.846575259033013" id="-24395">
		<tag k="name" v="Bergvikveien" />
		<tag k="ssr:date" v="2019-05-30" />
		<tag k="ssr:gruppe" v="veg" />
		<tag k="ssr:hovedgruppe" v="infrastruktur" />
		<tag k="ssr:stedsnr" v="1003011" />
		<tag k="ssr:type" v="adressenavn" />
	</node>
	<node lat="68.56703972078456" lon="14.882658923391027" id="-24396">
		<tag k="name" v="Einerveien" />
		<tag k="ssr:date" v="2019-05-30" />
		<tag k="ssr:gruppe" v="veg" />
		<tag k="ssr:hovedgruppe" v="infrastruktur" />
		<tag k="ssr:stedsnr" v="1003013" />
		<tag k="ssr:type" v="adressenavn" />
	</node>
	<node lat="68.56819019209486" lon="14.870159531030438" id="-24400">
		<tag k="name" v="Sævtjønnveien" />
		<tag k="ssr:date" v="2019-05-30" />
		<tag k="ssr:gruppe" v="veg" />
		<tag k="ssr:hovedgruppe" v="infrastruktur" />
		<tag k="ssr:stedsnr" v="1003034" />
		<tag k="ssr:type" v="adressenavn" />
	</node>
	<node lat="68.56587745146167" lon="14.871354769004455" id="-24401">
		<tag k="name" v="Røsslyngveien" />
		<tag k="ssr:date" v="2019-05-30" />
		<tag k="ssr:gruppe" v="veg" />
		<tag k="ssr:hovedgruppe" v="infrastruktur" />
		<tag k="ssr:stedsnr" v="1003056" />
		<tag k="ssr:type" v="adressenavn" />
	</node>
	<node lat="68.56864949608665" lon="14.872052071689554" id="-24402">
		<tag k="name" v="Soleieveien" />
		<tag k="ssr:date" v="2019-05-30" />
		<tag k="ssr:gruppe" v="veg" />
		<tag k="ssr:hovedgruppe" v="infrastruktur" />
		<tag k="ssr:stedsnr" v="1003061" />
		<tag k="ssr:type" v="adressenavn" />
	</node>
	<node lat="68.57019259762065" lon="14.884750945692947" id="-24403">
		<tag k="name" v="Tistelveien" />
		<tag k="ssr:date" v="2019-05-30" />
		<tag k="ssr:gruppe" v="veg" />
		<tag k="ssr:hovedgruppe" v="infrastruktur" />
		<tag k="ssr:stedsnr" v="1003064" />
		<tag k="ssr:type" v="adressenavn" />
	</node>
	<node lat="68.56807046172122" lon="14.881719705185402" id="-24404">
		<tag k="name" v="Tømmervikveien" />
		<tag k="ssr:date" v="2019-05-30" />
		<tag k="ssr:gruppe" v="veg" />
		<tag k="ssr:hovedgruppe" v="infrastruktur" />
		<tag k="ssr:stedsnr" v="1003067" />
		<tag k="ssr:type" v="adressenavn" />
	</node>
	<node lat="68.56857188163622" lon="14.878656518375946" id="-24405">
		<tag k="name" v="Symreveien" />
		<tag k="ssr:date" v="2019-05-30" />
		<tag k="ssr:gruppe" v="veg" />
		<tag k="ssr:hovedgruppe" v="infrastruktur" />
		<tag k="ssr:stedsnr" v="1003071" />
		<tag k="ssr:type" v="adressenavn" />
	</node>
	<node lat="68.56615136653892" lon="14.89986679894386" id="-24407">
		<tag k="name" v="Åsveien" />
		<tag k="ssr:date" v="2019-05-30" />
		<tag k="ssr:gruppe" v="veg" />
		<tag k="ssr:hovedgruppe" v="infrastruktur" />
		<tag k="ssr:stedsnr" v="1003646" />
		<tag k="ssr:type" v="adressenavn" />
	</node>
	<node lat="68.56557104294035" lon="14.913719272987096" id="-24408">
		<tag k="name" v="Havnegata" />
		<tag k="ssr:date" v="2019-05-30" />
		<tag k="ssr:gruppe" v="veg" />
		<tag k="ssr:hovedgruppe" v="infrastruktur" />
		<tag k="ssr:stedsnr" v="1003648" />
		<tag k="ssr:type" v="adressenavn" />
	</node>
	<node lat="68.55589512185327" lon="14.92734290445621" id="-24411">
		<tag k="name" v="Blåbærveien" />
		<tag k="ssr:date" v="2019-05-30" />
		<tag k="ssr:gruppe" v="veg" />
		<tag k="ssr:hovedgruppe" v="infrastruktur" />
		<tag k="ssr:stedsnr" v="1003752" />
		<tag k="ssr:type" v="adressenavn" />
	</node>
	<node lat="68.55689403933746" lon="14.933592438936824" id="-24413">
		<tag k="name" v="Jordbærveien" />
		<tag k="ssr:date" v="2019-05-30" />
		<tag k="ssr:gruppe" v="veg" />
		<tag k="ssr:hovedgruppe" v="infrastruktur" />
		<tag k="ssr:stedsnr" v="1003769" />
		<tag k="ssr:type" v="adressenavn" />
	</node>
	<node lat="68.55929068730838" lon="14.91299492250589" id="-24414">
		<tag k="name" v="Knut Hamsunsgate" />
		<tag k="ssr:date" v="2019-05-30" />
		<tag k="ssr:gruppe" v="veg" />
		<tag k="ssr:hovedgruppe" v="infrastruktur" />
		<tag k="ssr:stedsnr" v="1003770" />
		<tag k="ssr:type" v="adressenavn" />
	</node>
	<node lat="68.55795115243157" lon="14.930425039317923" id="-24415">
		<tag k="name" v="Krokveien" />
		<tag k="ssr:date" v="2019-05-30" />
		<tag k="ssr:gruppe" v="veg" />
		<tag k="ssr:hovedgruppe" v="infrastruktur" />
		<tag k="ssr:stedsnr" v="1003771" />
		<tag k="ssr:type" v="adressenavn" />
	</node>
	<node lat="68.56976166230478" lon="14.902672584926197" id="-24419">
		<tag k="name" v="John Bottolfsens gate" />
		<tag k="ssr:date" v="2019-05-30" />
		<tag k="ssr:gruppe" v="veg" />
		<tag k="ssr:hovedgruppe" v="infrastruktur" />
		<tag k="ssr:stedsnr" v="1003776" />
		<tag k="ssr:type" v="adressenavn" />
	</node>
	<node lat="68.56149148930915" lon="14.903248168644076" id="-24420">
		<tag k="name" v="Sommarfjøsbakken" />
		<tag k="old_name" v="Fjellveien" />
		<tag k="ssr:date" v="2019-05-30" />
		<tag k="ssr:gruppe" v="veg" />
		<tag k="ssr:hovedgruppe" v="infrastruktur" />
		<tag k="ssr:stedsnr" v="1003777" />
		<tag k="ssr:type" v="adressenavn" />
	</node>
	<node lat="68.5548008408627" lon="14.91579621944052" id="-24421">
		<tag k="name" v="Hadselåsveien" />
		<tag k="ssr:date" v="2019-05-30" />
		<tag k="ssr:gruppe" v="veg" />
		<tag k="ssr:hovedgruppe" v="infrastruktur" />
		<tag k="ssr:stedsnr" v="1003778" />
		<tag k="ssr:type" v="adressenavn" />
	</node>
	<node lat="68.5667819219089" lon="14.896113634051328" id="-24422">
		<tag k="name" v="Hauanveien" />
		<tag k="ssr:date" v="2019-05-30" />
		<tag k="ssr:gruppe" v="veg" />
		<tag k="ssr:hovedgruppe" v="infrastruktur" />
		<tag k="ssr:stedsnr" v="1003779" />
		<tag k="ssr:type" v="adressenavn" />
	</node>
	<node lat="68.55716275128275" lon="14.911934197034773" id="-24423">
		<tag k="name" v="Heggebærveien" />
		<tag k="ssr:date" v="2019-05-30" />
		<tag k="ssr:gruppe" v="veg" />
		<tag k="ssr:hovedgruppe" v="infrastruktur" />
		<tag k="ssr:stedsnr" v="1003780" />
		<tag k="ssr:type" v="adressenavn" />
	</node>
	<node lat="68.55633254512128" lon="14.929076826500253" id="-24424">
		<tag k="name" v="Bringebærveien" />
		<tag k="ssr:date" v="2019-05-30" />
		<tag k="ssr:gruppe" v="veg" />
		<tag k="ssr:hovedgruppe" v="infrastruktur" />
		<tag k="ssr:stedsnr" v="1003781" />
		<tag k="ssr:type" v="adressenavn" />
	</node>
	<node lat="68.55938265692876" lon="14.920708538346856" id="-24425">
		<tag k="name" v="Børøyveien" />
		<tag k="ssr:date" v="2019-05-30" />
		<tag k="ssr:gruppe" v="veg" />
		<tag k="ssr:hovedgruppe" v="infrastruktur" />
		<tag k="ssr:stedsnr" v="1003783" />
		<tag k="ssr:type" v="adressenavn" />
	</node>
	<node lat="68.56043527449886" lon="14.906638713016504" id="-24426">
		<tag k="name" v="Dr. Thodes gate" />
		<tag k="ssr:date" v="2019-05-30" />
		<tag k="ssr:gruppe" v="veg" />
		<tag k="ssr:hovedgruppe" v="infrastruktur" />
		<tag k="ssr:stedsnr" v="1003784" />
		<tag k="ssr:type" v="adressenavn" />
	</node>
	<node lat="68.55910946157852" lon="14.919935377208716" id="-24427">
		<tag k="name" v="Einar Lunds gate" />
		<tag k="ssr:date" v="2019-05-30" />
		<tag k="ssr:gruppe" v="veg" />
		<tag k="ssr:hovedgruppe" v="infrastruktur" />
		<tag k="ssr:stedsnr" v="1003786" />
		<tag k="ssr:type" v="adressenavn" />
	</node>
	<node lat="68.5573098692586" lon="14.92844870929489" id="-24430">
		<tag k="name" v="Ripsbærveien" />
		<tag k="ssr:date" v="2019-05-30" />
		<tag k="ssr:gruppe" v="veg" />
		<tag k="ssr:hovedgruppe" v="infrastruktur" />
		<tag k="ssr:stedsnr" v="1003789" />
		<tag k="ssr:type" v="adressenavn" />
	</node>
	<node lat="68.56724075588302" lon="14.896680432720448" id="-24431">
		<tag k="name" v="Roald Alværs gate" />
		<tag k="ssr:date" v="2019-05-30" />
		<tag k="ssr:gruppe" v="veg" />
		<tag k="ssr:hovedgruppe" v="infrastruktur" />
		<tag k="ssr:stedsnr" v="1003791" />
		<tag k="ssr:type" v="adressenavn" />
	</node>
	<node lat="68.56774557951645" lon="14.893473967120922" id="-24432">
		<tag k="name" v="Myrveien" />
		<tag k="ssr:date" v="2019-05-30" />
		<tag k="ssr:gruppe" v="veg" />
		<tag k="ssr:hovedgruppe" v="infrastruktur" />
		<tag k="ssr:stedsnr" v="1003792" />
		<tag k="ssr:type" v="adressenavn" />
	</node>
	<node lat="68.56944012789268" lon="14.909571538672994" id="-24433">
		<tag k="name" v="Nordre vei" />
		<tag k="ssr:date" v="2019-05-30" />
		<tag k="ssr:gruppe" v="veg" />
		<tag k="ssr:hovedgruppe" v="infrastruktur" />
		<tag k="ssr:stedsnr" v="1003794" />
		<tag k="ssr:type" v="adressenavn" />
	</node>
	<node lat="68.55830073701638" lon="14.912162632522714" id="-24434">
		<tag k="name" v="Parkveien" />
		<tag k="ssr:date" v="2019-05-30" />
		<tag k="ssr:gruppe" v="veg" />
		<tag k="ssr:hovedgruppe" v="infrastruktur" />
		<tag k="ssr:stedsnr" v="1003796" />
		<tag k="ssr:type" v="adressenavn" />
	</node>
	<node lat="68.56532902036041" lon="14.914314554187518" id="-24435">
		<tag k="name" v="Ranværingsgata" />
		<tag k="ssr:date" v="2019-05-30" />
		<tag k="ssr:gruppe" v="veg" />
		<tag k="ssr:hovedgruppe" v="infrastruktur" />
		<tag k="ssr:stedsnr" v="1003797" />
		<tag k="ssr:type" v="adressenavn" />
	</node>
	<node lat="68.5662084588643" lon="14.912509645627832" id="-24436">
		<tag k="name" v="Markedsgata" />
		<tag k="ssr:date" v="2019-05-30" />
		<tag k="ssr:gruppe" v="veg" />
		<tag k="ssr:hovedgruppe" v="infrastruktur" />
		<tag k="ssr:stedsnr" v="1003798" />
		<tag k="ssr:type" v="adressenavn" />
	</node>
	<node lat="68.55857563373439" lon="14.929744359275656" id="-24437">
		<tag k="name" v="Massahaugveien" />
		<tag k="ssr:date" v="2019-05-30" />
		<tag k="ssr:gruppe" v="veg" />
		<tag k="ssr:hovedgruppe" v="infrastruktur" />
		<tag k="ssr:stedsnr" v="1003800" />
		<tag k="ssr:type" v="adressenavn" />
	</node>
	<node lat="68.55886108544898" lon="14.919677878323691" id="-24438">
		<tag k="name" v="Mellomveien" />
		<tag k="ssr:date" v="2019-05-30" />
		<tag k="ssr:gruppe" v="veg" />
		<tag k="ssr:hovedgruppe" v="infrastruktur" />
		<tag k="ssr:stedsnr" v="1003801" />
		<tag k="ssr:type" v="adressenavn" />
	</node>
	<node lat="68.5573098692586" lon="14.92844870929489" id="-24439">
		<tag k="name" v="Multebærveien" />
		<tag k="ssr:date" v="2019-05-30" />
		<tag k="ssr:gruppe" v="veg" />
		<tag k="ssr:hovedgruppe" v="infrastruktur" />
		<tag k="ssr:stedsnr" v="1003802" />
		<tag k="ssr:type" v="adressenavn" />
	</node>
	<node lat="68.55606447472476" lon="14.921219745727896" id="-24440">
		<tag k="name" v="Krøkebærveien" />
		<tag k="ssr:date" v="2019-05-30" />
		<tag k="ssr:gruppe" v="veg" />
		<tag k="ssr:hovedgruppe" v="infrastruktur" />
		<tag k="ssr:stedsnr" v="1003803" />
		<tag k="ssr:type" v="adressenavn" />
	</node>
	<node lat="68.56346028024143" lon="14.90718004091376" id="-24441">
		<tag k="name" v="Lensmannsveien" />
		<tag k="ssr:date" v="2019-05-30" />
		<tag k="ssr:gruppe" v="veg" />
		<tag k="ssr:hovedgruppe" v="infrastruktur" />
		<tag k="ssr:stedsnr" v="1003804" />
		<tag k="ssr:type" v="adressenavn" />
	</node>
	<node lat="68.56043527449886" lon="14.906638713016504" id="-24442">
		<tag k="name" v="Lilleveien" />
		<tag k="ssr:date" v="2019-05-30" />
		<tag k="ssr:gruppe" v="veg" />
		<tag k="ssr:hovedgruppe" v="infrastruktur" />
		<tag k="ssr:stedsnr" v="1003805" />
		<tag k="ssr:type" v="adressenavn" />
	</node>
	<node lat="68.5668056467059" lon="14.912602472438394" id="-24445">
		<tag k="name" v="V.D.Hals gate" />
		<tag k="ssr:date" v="2019-05-30" />
		<tag k="ssr:gruppe" v="veg" />
		<tag k="ssr:hovedgruppe" v="infrastruktur" />
		<tag k="ssr:stedsnr" v="1003808" />
		<tag k="ssr:type" v="adressenavn" />
	</node>
	<node lat="68.56552127386087" lon="14.89423874566489" id="-24446">
		<tag k="name" v="Øvre Myrvei" />
		<tag k="ssr:date" v="2019-05-30" />
		<tag k="ssr:gruppe" v="veg" />
		<tag k="ssr:hovedgruppe" v="infrastruktur" />
		<tag k="ssr:stedsnr" v="1003809" />
		<tag k="ssr:type" v="adressenavn" />
	</node>
	<node lat="68.55754093878666" lon="14.923621615535387" id="-24447">
		<tag k="name" v="Øvreveien" />
		<tag k="ssr:date" v="2019-05-30" />
		<tag k="ssr:gruppe" v="veg" />
		<tag k="ssr:hovedgruppe" v="infrastruktur" />
		<tag k="ssr:stedsnr" v="1003811" />
		<tag k="ssr:type" v="adressenavn" />
	</node>
	<node lat="68.55859129289654" lon="14.927747007534254" id="-24448">
		<tag k="name" v="Trolldalsveien" />
		<tag k="ssr:date" v="2019-05-30" />
		<tag k="ssr:gruppe" v="veg" />
		<tag k="ssr:hovedgruppe" v="infrastruktur" />
		<tag k="ssr:stedsnr" v="1003812" />
		<tag k="ssr:type" v="adressenavn" />
	</node>
	<node lat="68.55591354812918" lon="14.922222720672787" id="-24449">
		<tag k="name" v="Tyttebærveien" />
		<tag k="ssr:date" v="2019-05-30" />
		<tag k="ssr:gruppe" v="veg" />
		<tag k="ssr:hovedgruppe" v="infrastruktur" />
		<tag k="ssr:stedsnr" v="1003814" />
		<tag k="ssr:type" v="adressenavn" />
	</node>
	<node lat="68.5597016008628" lon="14.91865975394302" id="-24450">
		<tag k="name" v="Verkstedgata" />
		<tag k="ssr:date" v="2019-05-30" />
		<tag k="ssr:gruppe" v="veg" />
		<tag k="ssr:hovedgruppe" v="infrastruktur" />
		<tag k="ssr:stedsnr" v="1003816" />
		<tag k="ssr:type" v="adressenavn" />
	</node>
	<node lat="68.56826115247509" lon="14.890767839183527" id="-24451">
		<tag k="name" v="Vestbakken" />
		<tag k="ssr:date" v="2019-05-30" />
		<tag k="ssr:gruppe" v="veg" />
		<tag k="ssr:hovedgruppe" v="infrastruktur" />
		<tag k="ssr:stedsnr" v="1003817" />
		<tag k="ssr:type" v="adressenavn" />
	</node>
	<node lat="68.56533249129447" lon="14.895102244011435" id="-24452">
		<tag k="name" v="Solveien" />
		<tag k="ssr:date" v="2019-05-30" />
		<tag k="ssr:gruppe" v="veg" />
		<tag k="ssr:hovedgruppe" v="infrastruktur" />
		<tag k="ssr:stedsnr" v="1003818" />
		<tag k="ssr:type" v="adressenavn" />
	</node>
	<node lat="68.55709439899427" lon="14.918130174658168" id="-24454">
		<tag k="name" v="Tegerbærveien" />
		<tag k="ssr:date" v="2019-05-30" />
		<tag k="ssr:gruppe" v="veg" />
		<tag k="ssr:hovedgruppe" v="infrastruktur" />
		<tag k="ssr:stedsnr" v="1003821" />
		<tag k="ssr:type" v="adressenavn" />
	</node>
	<node lat="68.55571542554036" lon="14.912705785987686" id="-24455">
		<tag k="name" v="Tranebærveien" />
		<tag k="ssr:date" v="2019-05-30" />
		<tag k="ssr:gruppe" v="veg" />
		<tag k="ssr:hovedgruppe" v="infrastruktur" />
		<tag k="ssr:stedsnr" v="1003822" />
		<tag k="ssr:type" v="adressenavn" />
	</node>
	<node lat="68.56460396263985" lon="14.910815700634904" id="-24456">
		<tag k="name" v="Rådhusgata" />
		<tag k="ssr:date" v="2019-05-30" />
		<tag k="ssr:gruppe" v="veg" />
		<tag k="ssr:hovedgruppe" v="infrastruktur" />
		<tag k="ssr:stedsnr" v="1003824" />
		<tag k="ssr:type" v="adressenavn" />
	</node>
	<node lat="68.56552837721607" lon="14.904611584142788" id="-24458">
		<tag k="name" v="Skolegata" />
		<tag k="ssr:date" v="2019-05-30" />
		<tag k="ssr:gruppe" v="veg" />
		<tag k="ssr:hovedgruppe" v="infrastruktur" />
		<tag k="ssr:stedsnr" v="1003827" />
		<tag k="ssr:type" v="adressenavn" />
	</node>
	<node lat="68.55728666873043" lon="14.932642669020817" id="-24459">
		<tag k="name" v="Solbærveien" />
		<tag k="ssr:date" v="2019-05-30" />
		<tag k="ssr:gruppe" v="veg" />
		<tag k="ssr:hovedgruppe" v="infrastruktur" />
		<tag k="ssr:stedsnr" v="1003828" />
		<tag k="ssr:type" v="adressenavn" />
	</node>
	<node lat="68.5006920132376" lon="14.801391608466576" id="-24460">
		<tag k="name" v="Sminesgata" />
		<tag k="ssr:date" v="2019-05-30" />
		<tag k="ssr:gruppe" v="veg" />
		<tag k="ssr:hovedgruppe" v="infrastruktur" />
		<tag k="ssr:stedsnr" v="1005189" />
		<tag k="ssr:type" v="adressenavn" />
	</node>
	<node lat="68.50643125762183" lon="14.799894313951766" id="-24461">
		<tag k="name" v="Steinveien" />
		<tag k="ssr:date" v="2019-05-30" />
		<tag k="ssr:gruppe" v="veg" />
		<tag k="ssr:hovedgruppe" v="infrastruktur" />
		<tag k="ssr:stedsnr" v="1005191" />
		<tag k="ssr:type" v="adressenavn" />
	</node>
	<node lat="68.49866041001408" lon="14.800955491845675" id="-24462">
		<tag k="name" v="Strandgata" />
		<tag k="ssr:date" v="2019-05-30" />
		<tag k="ssr:gruppe" v="veg" />
		<tag k="ssr:hovedgruppe" v="infrastruktur" />
		<tag k="ssr:stedsnr" v="1005194" />
		<tag k="ssr:type" v="adressenavn" />
	</node>
	<node lat="68.50075733570527" lon="14.793905372293274" id="-24463">
		<tag k="name" v="Torggata" />
		<tag k="ssr:date" v="2019-05-30" />
		<tag k="ssr:gruppe" v="veg" />
		<tag k="ssr:hovedgruppe" v="infrastruktur" />
		<tag k="ssr:stedsnr" v="1005196" />
		<tag k="ssr:type" v="adressenavn" />
	</node>
	<node lat="68.50176091311322" lon="14.817763075175671" id="-24464">
		<tag k="name" v="Skilleveien" />
		<tag k="ssr:date" v="2019-05-30" />
		<tag k="ssr:gruppe" v="veg" />
		<tag k="ssr:hovedgruppe" v="infrastruktur" />
		<tag k="ssr:stedsnr" v="1005197" />
		<tag k="ssr:type" v="adressenavn" />
	</node>
	<node lat="68.50361565586851" lon="14.816931855363165" id="-24465">
		<tag k="name" v="Skippergata" />
		<tag k="ssr:date" v="2019-05-30" />
		<tag k="ssr:gruppe" v="veg" />
		<tag k="ssr:hovedgruppe" v="infrastruktur" />
		<tag k="ssr:stedsnr" v="1005200" />
		<tag k="ssr:type" v="adressenavn" />
	</node>
	<node lat="68.50421151170478" lon="14.810118573550708" id="-24466">
		<tag k="name" v="Skogveien" />
		<tag k="ssr:date" v="2019-05-30" />
		<tag k="ssr:gruppe" v="veg" />
		<tag k="ssr:hovedgruppe" v="infrastruktur" />
		<tag k="ssr:stedsnr" v="1005202" />
		<tag k="ssr:type" v="adressenavn" />
	</node>
	<node lat="68.50675708384892" lon="14.810155861137012" id="-24469">
		<tag k="name" v="Ringveien" />
		<tag k="ssr:date" v="2019-05-30" />
		<tag k="ssr:gruppe" v="veg" />
		<tag k="ssr:hovedgruppe" v="infrastruktur" />
		<tag k="ssr:stedsnr" v="1005207" />
		<tag k="ssr:type" v="adressenavn" />
	</node>
	<node lat="68.50734536621232" lon="14.817537010429191" id="-24470">
		<tag k="name" v="Seljeveien" />
		<tag k="ssr:date" v="2019-05-30" />
		<tag k="ssr:gruppe" v="veg" />
		<tag k="ssr:hovedgruppe" v="infrastruktur" />
		<tag k="ssr:stedsnr" v="1005209" />
		<tag k="ssr:type" v="adressenavn" />
	</node>
	<node lat="68.49880357615943" lon="14.790579698073907" id="-24471">
		<tag k="name" v="Sjøgata" />
		<tag k="ssr:date" v="2019-05-30" />
		<tag k="ssr:gruppe" v="veg" />
		<tag k="ssr:hovedgruppe" v="infrastruktur" />
		<tag k="ssr:stedsnr" v="1005212" />
		<tag k="ssr:type" v="adressenavn" />
	</node>
	<node lat="68.5058222405243" lon="14.810848493706635" id="-24472">
		<tag k="name" v="Lyngveien" />
		<tag k="ssr:date" v="2019-05-30" />
		<tag k="ssr:gruppe" v="veg" />
		<tag k="ssr:hovedgruppe" v="infrastruktur" />
		<tag k="ssr:stedsnr" v="1005214" />
		<tag k="ssr:type" v="adressenavn" />
	</node>
	<node lat="68.50052931046258" lon="14.815618240455139" id="-24474">
		<tag k="name" v="Neptunveien" />
		<tag k="ssr:date" v="2019-05-30" />
		<tag k="ssr:gruppe" v="veg" />
		<tag k="ssr:hovedgruppe" v="infrastruktur" />
		<tag k="ssr:stedsnr" v="1005218" />
		<tag k="ssr:type" v="adressenavn" />
	</node>
	<node lat="68.50127961406204" lon="14.80143878278366" id="-24475">
		<tag k="name" v="P.A.Kvaals gate" />
		<tag k="ssr:date" v="2019-05-30" />
		<tag k="ssr:gruppe" v="veg" />
		<tag k="ssr:hovedgruppe" v="infrastruktur" />
		<tag k="ssr:stedsnr" v="1005220" />
		<tag k="ssr:type" v="adressenavn" />
	</node>
	<node lat="68.50173435693748" lon="14.81659941607238" id="-24498">
		<tag k="name" v="Idrettsveien" />
		<tag k="ssr:date" v="2019-05-30" />
		<tag k="ssr:gruppe" v="veg" />
		<tag k="ssr:hovedgruppe" v="infrastruktur" />
		<tag k="ssr:stedsnr" v="1005387" />
		<tag k="ssr:type" v="adressenavn" />
	</node>
	<node lat="68.50237860617847" lon="14.791489400736467" id="-24499">
		<tag k="name" v="Kirkegata" />
		<tag k="ssr:date" v="2019-05-30" />
		<tag k="ssr:gruppe" v="veg" />
		<tag k="ssr:hovedgruppe" v="infrastruktur" />
		<tag k="ssr:stedsnr" v="1005390" />
		<tag k="ssr:type" v="adressenavn" />
	</node>
	<node lat="68.50643228527743" lon="14.798649465023722" id="-24501">
		<tag k="name" v="Engveien" />
		<tag k="ssr:date" v="2019-05-30" />
		<tag k="ssr:gruppe" v="veg" />
		<tag k="ssr:hovedgruppe" v="infrastruktur" />
		<tag k="ssr:stedsnr" v="1005399" />
		<tag k="ssr:type" v="adressenavn" />
	</node>
	<node lat="68.5018567602086" lon="14.808940265933662" id="-24502">
		<tag k="name" v="Fjellveien" />
		<tag k="ssr:date" v="2019-05-30" />
		<tag k="ssr:gruppe" v="veg" />
		<tag k="ssr:hovedgruppe" v="infrastruktur" />
		<tag k="ssr:stedsnr" v="1005402" />
		<tag k="ssr:type" v="adressenavn" />
	</node>
	<node lat="68.50219547389268" lon="14.795948886786993" id="-24503">
		<tag k="name" v="Frydenlunds gate" />
		<tag k="ssr:date" v="2019-05-30" />
		<tag k="ssr:gruppe" v="veg" />
		<tag k="ssr:hovedgruppe" v="infrastruktur" />
		<tag k="ssr:stedsnr" v="1005405" />
		<tag k="ssr:type" v="adressenavn" />
	</node>
	<node lat="68.50633254349243" lon="14.810748835831449" id="-24504">
		<tag k="name" v="Hesteskoveien" />
		<tag k="ssr:date" v="2019-05-30" />
		<tag k="ssr:gruppe" v="veg" />
		<tag k="ssr:hovedgruppe" v="infrastruktur" />
		<tag k="ssr:stedsnr" v="1005408" />
		<tag k="ssr:type" v="adressenavn" />
	</node>
	<node lat="68.501639181601" lon="14.813084114759198" id="-24505">
		<tag k="name" v="Bakkegata" />
		<tag k="ssr:date" v="2019-05-30" />
		<tag k="ssr:gruppe" v="veg" />
		<tag k="ssr:hovedgruppe" v="infrastruktur" />
		<tag k="ssr:stedsnr" v="1005411" />
		<tag k="ssr:type" v="adressenavn" />
	</node>
	<node lat="68.50549972401505" lon="14.819649703162064" id="-24506">
		<tag k="name" v="Bjørkveien" />
		<tag k="ssr:date" v="2019-05-30" />
		<tag k="ssr:gruppe" v="veg" />
		<tag k="ssr:hovedgruppe" v="infrastruktur" />
		<tag k="ssr:stedsnr" v="1005415" />
		<tag k="ssr:type" v="adressenavn" />
	</node>
	<node lat="68.5006044064416" lon="14.782313824247025" id="-24508">
		<tag k="name" v="Coldevins gate" />
		<tag k="ssr:date" v="2019-05-30" />
		<tag k="ssr:gruppe" v="veg" />
		<tag k="ssr:hovedgruppe" v="infrastruktur" />
		<tag k="ssr:stedsnr" v="1005421" />
		<tag k="ssr:type" v="adressenavn" />
	</node>
	<node lat="68.50833319033107" lon="14.820192544226066" id="-24509">
		<tag k="name" v="Aspveien" />
		<tag k="ssr:date" v="2019-05-30" />
		<tag k="ssr:gruppe" v="veg" />
		<tag k="ssr:hovedgruppe" v="infrastruktur" />
		<tag k="ssr:stedsnr" v="1005428" />
		<tag k="ssr:type" v="adressenavn" />
	</node>
	<node lat="68.50259249191441" lon="14.818079130593658" id="-24512">
		<tag k="name" v="Trålergata" />
		<tag k="ssr:date" v="2019-05-30" />
		<tag k="ssr:gruppe" v="veg" />
		<tag k="ssr:hovedgruppe" v="infrastruktur" />
		<tag k="ssr:stedsnr" v="1005241" />
		<tag k="ssr:type" v="adressenavn" />
	</node>
	<node lat="68.49816682007067" lon="14.796580325047614" id="-24514">
		<tag k="name" v="Villaveien" />
		<tag k="ssr:date" v="2019-05-30" />
		<tag k="ssr:gruppe" v="veg" />
		<tag k="ssr:hovedgruppe" v="infrastruktur" />
		<tag k="ssr:stedsnr" v="1005244" />
		<tag k="ssr:type" v="adressenavn" />
	</node>
	<node lat="68.50646674181061" lon="14.80122440640657" id="-24515">
		<tag k="name" v="Åkerveien" />
		<tag k="ssr:date" v="2019-05-30" />
		<tag k="ssr:gruppe" v="veg" />
		<tag k="ssr:hovedgruppe" v="infrastruktur" />
		<tag k="ssr:stedsnr" v="1005247" />
		<tag k="ssr:type" v="adressenavn" />
	</node>
	<node lat="68.61226288235417" lon="15.122854018822046" id="-24546">
		<tag k="name" v="Dalveien" />
		<tag k="ssr:date" v="2019-05-30" />
		<tag k="ssr:gruppe" v="veg" />
		<tag k="ssr:hovedgruppe" v="infrastruktur" />
		<tag k="ssr:stedsnr" v="1006540" />
		<tag k="ssr:type" v="adressenavn" />
	</node>
	<node lat="68.61416869360548" lon="15.119402531075055" id="-24548">
		<tag k="name" v="Omveien" />
		<tag k="ssr:date" v="2019-05-30" />
		<tag k="ssr:gruppe" v="veg" />
		<tag k="ssr:hovedgruppe" v="infrastruktur" />
		<tag k="ssr:stedsnr" v="1006529" />
		<tag k="ssr:type" v="adressenavn" />
	</node>
	<node lat="68.8363888903803" lon="14.541386119048228" id="-24612">
		<tag k="loc_name:se" v="Viestterálas" />
		<tag k="name" v="Vesterålen" />
		<tag k="name:no" v="Vesterålen" />
		<tag k="ssr:date" v="2021-11-29" />
		<tag k="ssr:gruppe" v="terrengområder" />
		<tag k="ssr:hovedgruppe" v="terreng" />
		<tag k="ssr:stedsnr" v="753757" />
		<tag k="ssr:type" v="landskapsområde" />
	</node>
</osm>
