<?xml version="1.0" encoding="UTF-8"?>
<osm generator="osmapis" version="0.6">
	<node id="-20670" lat="59.4886888875" lon="10.8655055539">
		<tag k="alt_name" v="Våler" />
		<tag k="name" v="Våler kommune" />
		<tag k="ssr:date" v="2019-01-23" />
		<tag k="ssr:gruppe" v="administrativeIndelinger" />
		<tag k="ssr:hovedgruppe" v="offentligAdministrasjon" />
		<tag k="ssr:stedsnr" v="935059" />
		<tag k="ssr:type" v="kommune" />
	</node>
	<node id="-20087" lat="59.3994676176" lon="10.8466833415">
		<tag k="name" v="Kreierten" />
		<tag k="ssr:date" v="2019-05-31" />
		<tag k="ssr:gruppe" v="veg" />
		<tag k="ssr:hovedgruppe" v="infrastruktur" />
		<tag k="ssr:stedsnr" v="1062438" />
		<tag k="ssr:type" v="adressenavn" />
	</node>
	<node id="-20086" lat="59.4794390823" lon="11.0735229101">
		<tag k="name" v="Mortetjernet" />
		<tag k="ssr:date" v="2019-05-31" />
		<tag k="ssr:gruppe" v="veg" />
		<tag k="ssr:hovedgruppe" v="infrastruktur" />
		<tag k="ssr:stedsnr" v="1062436" />
		<tag k="ssr:type" v="adressenavn" />
	</node>
	<node id="-20085" lat="59.4070473098" lon="10.9098183126">
		<tag k="name" v="Sandå" />
		<tag k="ssr:date" v="2019-05-31" />
		<tag k="ssr:gruppe" v="veg" />
		<tag k="ssr:hovedgruppe" v="infrastruktur" />
		<tag k="ssr:stedsnr" v="1062434" />
		<tag k="ssr:type" v="adressenavn" />
	</node>
	<node id="-20084" lat="59.4232646897" lon="11.1312556004">
		<tag k="name" v="Bråtenveien" />
		<tag k="ssr:date" v="2019-05-31" />
		<tag k="ssr:gruppe" v="veg" />
		<tag k="ssr:hovedgruppe" v="infrastruktur" />
		<tag k="ssr:stedsnr" v="1062432" />
		<tag k="ssr:type" v="adressenavn" />
	</node>
	<node id="-20083" lat="59.396854875" lon="10.8703172914">
		<tag k="name" v="Østenrødøya" />
		<tag k="ssr:date" v="2019-05-31" />
		<tag k="ssr:gruppe" v="veg" />
		<tag k="ssr:hovedgruppe" v="infrastruktur" />
		<tag k="ssr:stedsnr" v="1062429" />
		<tag k="ssr:type" v="adressenavn" />
	</node>
	<node id="-20082" lat="59.4362651051" lon="10.8833741234">
		<tag k="name" v="Ellenøy" />
		<tag k="ssr:date" v="2019-05-31" />
		<tag k="ssr:gruppe" v="veg" />
		<tag k="ssr:hovedgruppe" v="infrastruktur" />
		<tag k="ssr:stedsnr" v="1062426" />
		<tag k="ssr:type" v="adressenavn" />
	</node>
	<node id="-20081" lat="59.4174142623" lon="10.8656370409">
		<tag k="name" v="Gressøya" />
		<tag k="ssr:date" v="2019-05-31" />
		<tag k="ssr:gruppe" v="veg" />
		<tag k="ssr:hovedgruppe" v="infrastruktur" />
		<tag k="ssr:stedsnr" v="1062424" />
		<tag k="ssr:type" v="adressenavn" />
	</node>
	<node id="-20070" lat="59.4099232977" lon="10.7918909868">
		<tag k="name" v="Tømmerøya" />
		<tag k="ssr:date" v="2019-05-31" />
		<tag k="ssr:gruppe" v="veg" />
		<tag k="ssr:hovedgruppe" v="infrastruktur" />
		<tag k="ssr:stedsnr" v="1062155" />
		<tag k="ssr:type" v="adressenavn" />
	</node>
	<node id="-20069" lat="59.4063344282" lon="10.7991731583">
		<tag k="name" v="Vaktmesteren" />
		<tag k="ssr:date" v="2019-05-31" />
		<tag k="ssr:gruppe" v="veg" />
		<tag k="ssr:hovedgruppe" v="infrastruktur" />
		<tag k="ssr:stedsnr" v="1062152" />
		<tag k="ssr:type" v="adressenavn" />
	</node>
	<node id="-20068" lat="59.4141373664" lon="11.0095392947">
		<tag k="name" v="Myhreveien" />
		<tag k="ssr:date" v="2019-05-31" />
		<tag k="ssr:gruppe" v="veg" />
		<tag k="ssr:hovedgruppe" v="infrastruktur" />
		<tag k="ssr:stedsnr" v="1062137" />
		<tag k="ssr:type" v="adressenavn" />
	</node>
	<node id="-20678" lat="60.5908609473" lon="9.63819281559">
		<tag k="fixme" v="multiple name tags, choose one and add the other to alt_name" />
		<tag k="name" v="Austlandet;Østlandet" />
		<tag k="ssr:date" v="2018-01-09" />
		<tag k="ssr:gruppe" v="administrativeIndelinger" />
		<tag k="ssr:hovedgruppe" v="offentligAdministrasjon" />
		<tag k="ssr:stedsnr" v="974775" />
		<tag k="ssr:type" v="annenAdministrativInndeling" />
	</node>
</osm>
