<?xml version="1.0" encoding="UTF-8"?>
<osm generator="osmapis" version="0.6">
	<node id="-206364" lat="59.6436521253" lon="10.1442848182">
		<tag k="name" v="Kopstadseter" />
		<tag k="ssr:date" v="2019-05-31" />
		<tag k="ssr:gruppe" v="veg" />
		<tag k="ssr:hovedgruppe" v="infrastruktur" />
		<tag k="ssr:stedsnr" v="1042528" />
		<tag k="ssr:type" v="adressenavn" />
	</node>
	<node id="-207209" lat="59.5579694421" lon="10.2683250036">
		<tag k="name" v="Selvikblinda" />
		<tag k="ssr:date" v="2016-05-11" />
		<tag k="ssr:gruppe" v="navigasjon" />
		<tag k="ssr:hovedgruppe" v="infrastruktur" />
		<tag k="ssr:stedsnr" v="731032" />
		<tag k="ssr:type" v="fyrlykt" />
	</node>
	<node id="-206412" lat="59.5286343891" lon="10.3319309212">
		<tag k="name" v="Bjørneskjær" />
		<tag k="ssr:date" v="2019-05-31" />
		<tag k="ssr:gruppe" v="veg" />
		<tag k="ssr:hovedgruppe" v="infrastruktur" />
		<tag k="ssr:stedsnr" v="1042578" />
		<tag k="ssr:type" v="adressenavn" />
	</node>
	<node id="-206411" lat="59.6524974877" lon="10.2799128842">
		<tag k="name" v="Høymyr" />
		<tag k="ssr:date" v="2019-05-31" />
		<tag k="ssr:gruppe" v="veg" />
		<tag k="ssr:hovedgruppe" v="infrastruktur" />
		<tag k="ssr:stedsnr" v="1042577" />
		<tag k="ssr:type" v="adressenavn" />
	</node>
	<node id="-206410" lat="59.6592541545" lon="10.2758166891">
		<tag k="name" v="Nordre Høymyr" />
		<tag k="ssr:date" v="2019-05-31" />
		<tag k="ssr:gruppe" v="veg" />
		<tag k="ssr:hovedgruppe" v="infrastruktur" />
		<tag k="ssr:stedsnr" v="1042574" />
		<tag k="ssr:type" v="adressenavn" />
	</node>
	<node id="-206409" lat="59.6479994959" lon="10.2875677184">
		<tag k="name" v="Sveltleinåsen" />
		<tag k="ssr:date" v="2019-05-31" />
		<tag k="ssr:gruppe" v="veg" />
		<tag k="ssr:hovedgruppe" v="infrastruktur" />
		<tag k="ssr:stedsnr" v="1042573" />
		<tag k="ssr:type" v="adressenavn" />
	</node>
	<node id="-206408" lat="59.651969609" lon="10.2897941947">
		<tag k="name" v="Veslevannet" />
		<tag k="ssr:date" v="2019-05-31" />
		<tag k="ssr:gruppe" v="veg" />
		<tag k="ssr:hovedgruppe" v="infrastruktur" />
		<tag k="ssr:stedsnr" v="1042572" />
		<tag k="ssr:type" v="adressenavn" />
	</node>
	<node id="-206407" lat="59.6392477894" lon="10.2966672092">
		<tag k="name" v="Søndre Toresvann" />
		<tag k="ssr:date" v="2019-05-31" />
		<tag k="ssr:gruppe" v="veg" />
		<tag k="ssr:hovedgruppe" v="infrastruktur" />
		<tag k="ssr:stedsnr" v="1042570" />
		<tag k="ssr:type" v="adressenavn" />
	</node>
	<node id="-206406" lat="59.6434645691" lon="10.2955508377">
		<tag k="name" v="Nordre Toresvann" />
		<tag k="ssr:date" v="2019-05-31" />
		<tag k="ssr:gruppe" v="veg" />
		<tag k="ssr:hovedgruppe" v="infrastruktur" />
		<tag k="ssr:stedsnr" v="1042568" />
		<tag k="ssr:type" v="adressenavn" />
	</node>
	<node id="-206405" lat="59.6501247499" lon="10.3065087758">
		<tag k="name" v="Kjeldåssetra" />
		<tag k="ssr:date" v="2019-05-31" />
		<tag k="ssr:gruppe" v="veg" />
		<tag k="ssr:hovedgruppe" v="infrastruktur" />
		<tag k="ssr:stedsnr" v="1042566" />
		<tag k="ssr:type" v="adressenavn" />
	</node>
	<node id="-206404" lat="59.6548239994" lon="10.3188476016">
		<tag k="name" v="Nordbykupa" />
		<tag k="ssr:date" v="2019-05-31" />
		<tag k="ssr:gruppe" v="veg" />
		<tag k="ssr:hovedgruppe" v="infrastruktur" />
		<tag k="ssr:stedsnr" v="1042564" />
		<tag k="ssr:type" v="adressenavn" />
	</node>
	<node id="-206403" lat="59.6504176252" lon="10.323873567">
		<tag k="name" v="Nordre Svanevannet" />
		<tag k="ssr:date" v="2019-05-31" />
		<tag k="ssr:gruppe" v="veg" />
		<tag k="ssr:hovedgruppe" v="infrastruktur" />
		<tag k="ssr:stedsnr" v="1042562" />
		<tag k="ssr:type" v="adressenavn" />
	</node>
	<node id="-206402" lat="59.6482351093" lon="10.3059739959">
		<tag k="name" v="Storås" />
		<tag k="ssr:date" v="2019-05-31" />
		<tag k="ssr:gruppe" v="veg" />
		<tag k="ssr:hovedgruppe" v="infrastruktur" />
		<tag k="ssr:stedsnr" v="1042561" />
		<tag k="ssr:type" v="adressenavn" />
	</node>
	<node id="-206401" lat="59.6360014912" lon="10.3258243687">
		<tag k="name" v="Urdervannet" />
		<tag k="ssr:date" v="2019-05-31" />
		<tag k="ssr:gruppe" v="veg" />
		<tag k="ssr:hovedgruppe" v="infrastruktur" />
		<tag k="ssr:stedsnr" v="1042560" />
		<tag k="ssr:type" v="adressenavn" />
	</node>
	<node id="-206400" lat="59.6322099564" lon="10.2927071049">
		<tag k="name" v="Briskeholmene" />
		<tag k="ssr:date" v="2019-05-31" />
		<tag k="ssr:gruppe" v="veg" />
		<tag k="ssr:hovedgruppe" v="infrastruktur" />
		<tag k="ssr:stedsnr" v="1042558" />
		<tag k="ssr:type" v="adressenavn" />
	</node>
	<node id="-206399" lat="59.624902525" lon="10.3230109619">
		<tag k="name" v="Svartevannsveien" />
		<tag k="ssr:date" v="2019-05-31" />
		<tag k="ssr:gruppe" v="veg" />
		<tag k="ssr:hovedgruppe" v="infrastruktur" />
		<tag k="ssr:stedsnr" v="1042557" />
		<tag k="ssr:type" v="adressenavn" />
	</node>
	<node id="-206398" lat="59.6230842054" lon="10.3340557685">
		<tag k="name" v="Midtre Svanevannet" />
		<tag k="ssr:date" v="2019-05-31" />
		<tag k="ssr:gruppe" v="veg" />
		<tag k="ssr:hovedgruppe" v="infrastruktur" />
		<tag k="ssr:stedsnr" v="1042556" />
		<tag k="ssr:type" v="adressenavn" />
	</node>
	<node id="-206397" lat="59.6031971812" lon="10.2922484074">
		<tag k="name" v="Fløyta" />
		<tag k="ssr:date" v="2019-05-31" />
		<tag k="ssr:gruppe" v="veg" />
		<tag k="ssr:hovedgruppe" v="infrastruktur" />
		<tag k="ssr:stedsnr" v="1042554" />
		<tag k="ssr:type" v="adressenavn" />
	</node>
	<node id="-206396" lat="59.6090133903" lon="10.2925957758">
		<tag k="name" v="Suluvann" />
		<tag k="ssr:date" v="2019-05-31" />
		<tag k="ssr:gruppe" v="veg" />
		<tag k="ssr:hovedgruppe" v="infrastruktur" />
		<tag k="ssr:stedsnr" v="1042553" />
		<tag k="ssr:type" v="adressenavn" />
	</node>
	<node id="-206395" lat="59.6015486064" lon="10.2590987859">
		<tag k="name" v="Steinarseteråsen" />
		<tag k="ssr:date" v="2019-05-31" />
		<tag k="ssr:gruppe" v="veg" />
		<tag k="ssr:hovedgruppe" v="infrastruktur" />
		<tag k="ssr:stedsnr" v="1042550" />
		<tag k="ssr:type" v="adressenavn" />
	</node>
	<node id="-206394" lat="59.607352066" lon="10.3172031761">
		<tag k="name" v="Søndre Trestiklevann" />
		<tag k="ssr:date" v="2019-05-31" />
		<tag k="ssr:gruppe" v="veg" />
		<tag k="ssr:hovedgruppe" v="infrastruktur" />
		<tag k="ssr:stedsnr" v="1042548" />
		<tag k="ssr:type" v="adressenavn" />
	</node>
	<node id="-206393" lat="59.5779883721" lon="10.3012497749">
		<tag k="name" v="Bruserudvannet" />
		<tag k="ssr:date" v="2019-05-31" />
		<tag k="ssr:gruppe" v="veg" />
		<tag k="ssr:hovedgruppe" v="infrastruktur" />
		<tag k="ssr:stedsnr" v="1042546" />
		<tag k="ssr:type" v="adressenavn" />
	</node>
	<node id="-206392" lat="59.6460312432" lon="10.1571641195">
		<tag k="name" v="Myrvann" />
		<tag k="ssr:date" v="2019-05-31" />
		<tag k="ssr:gruppe" v="veg" />
		<tag k="ssr:hovedgruppe" v="infrastruktur" />
		<tag k="ssr:stedsnr" v="1042524" />
		<tag k="ssr:type" v="adressenavn" />
	</node>
	<node id="-206391" lat="59.6380072876" lon="10.1707934978">
		<tag k="name" v="Søndre Fjellskar" />
		<tag k="ssr:date" v="2019-05-31" />
		<tag k="ssr:gruppe" v="veg" />
		<tag k="ssr:hovedgruppe" v="infrastruktur" />
		<tag k="ssr:stedsnr" v="1042522" />
		<tag k="ssr:type" v="adressenavn" />
	</node>
	<node id="-206390" lat="59.6406414282" lon="10.0982214467">
		<tag k="name" v="Øyvannet" />
		<tag k="ssr:date" v="2019-05-31" />
		<tag k="ssr:gruppe" v="veg" />
		<tag k="ssr:hovedgruppe" v="infrastruktur" />
		<tag k="ssr:stedsnr" v="1042514" />
		<tag k="ssr:type" v="adressenavn" />
	</node>
	<node id="-206389" lat="59.6397052163" lon="10.0697010852">
		<tag k="name" v="Presteseterveien" />
		<tag k="ssr:date" v="2019-05-31" />
		<tag k="ssr:gruppe" v="veg" />
		<tag k="ssr:hovedgruppe" v="infrastruktur" />
		<tag k="ssr:stedsnr" v="1042513" />
		<tag k="ssr:type" v="adressenavn" />
	</node>
	<node id="-206388" lat="59.6298754246" lon="10.1085836639">
		<tag k="name" v="Øyvannsveien" />
		<tag k="ssr:date" v="2019-05-31" />
		<tag k="ssr:gruppe" v="veg" />
		<tag k="ssr:hovedgruppe" v="infrastruktur" />
		<tag k="ssr:stedsnr" v="1042511" />
		<tag k="ssr:type" v="adressenavn" />
	</node>
	<node id="-206387" lat="59.604762475" lon="10.0976513774">
		<tag k="name" v="Hauketjern" />
		<tag k="ssr:date" v="2019-05-31" />
		<tag k="ssr:gruppe" v="veg" />
		<tag k="ssr:hovedgruppe" v="infrastruktur" />
		<tag k="ssr:stedsnr" v="1042509" />
		<tag k="ssr:type" v="adressenavn" />
	</node>
	<node id="-206386" lat="59.6123439906" lon="10.0891364146">
		<tag k="name" v="Kabrettaveien" />
		<tag k="ssr:date" v="2019-05-31" />
		<tag k="ssr:gruppe" v="veg" />
		<tag k="ssr:hovedgruppe" v="infrastruktur" />
		<tag k="ssr:stedsnr" v="1042508" />
		<tag k="ssr:type" v="adressenavn" />
	</node>
	<node id="-206385" lat="59.613757633" lon="10.1178184372">
		<tag k="name" v="Glaneren" />
		<tag k="ssr:date" v="2019-05-31" />
		<tag k="ssr:gruppe" v="veg" />
		<tag k="ssr:hovedgruppe" v="infrastruktur" />
		<tag k="ssr:stedsnr" v="1042507" />
		<tag k="ssr:type" v="adressenavn" />
	</node>
	<node id="-206384" lat="59.6274479704" lon="10.1032605993">
		<tag k="name" v="Gransnarås" />
		<tag k="ssr:date" v="2019-05-31" />
		<tag k="ssr:gruppe" v="veg" />
		<tag k="ssr:hovedgruppe" v="infrastruktur" />
		<tag k="ssr:stedsnr" v="1042504" />
		<tag k="ssr:type" v="adressenavn" />
	</node>
	<node id="-206383" lat="59.6185004327" lon="10.1470135265">
		<tag k="name" v="Solbergsetra" />
		<tag k="ssr:date" v="2019-05-31" />
		<tag k="ssr:gruppe" v="veg" />
		<tag k="ssr:hovedgruppe" v="infrastruktur" />
		<tag k="ssr:stedsnr" v="1042503" />
		<tag k="ssr:type" v="adressenavn" />
	</node>
	<node id="-206382" lat="59.6111213487" lon="10.1191362587">
		<tag k="name" v="Kaldmovannet" />
		<tag k="ssr:date" v="2019-05-31" />
		<tag k="ssr:gruppe" v="veg" />
		<tag k="ssr:hovedgruppe" v="infrastruktur" />
		<tag k="ssr:stedsnr" v="1042502" />
		<tag k="ssr:type" v="adressenavn" />
	</node>
	<node id="-206381" lat="59.5840534701" lon="10.1389555778">
		<tag k="name" v="Bondivannet" />
		<tag k="ssr:date" v="2019-05-31" />
		<tag k="ssr:gruppe" v="veg" />
		<tag k="ssr:hovedgruppe" v="infrastruktur" />
		<tag k="ssr:stedsnr" v="1042500" />
		<tag k="ssr:type" v="adressenavn" />
	</node>
	<node id="-206380" lat="59.5610765929" lon="10.1877430382">
		<tag k="name" v="Stokkestua" />
		<tag k="ssr:date" v="2019-05-31" />
		<tag k="ssr:gruppe" v="veg" />
		<tag k="ssr:hovedgruppe" v="infrastruktur" />
		<tag k="ssr:stedsnr" v="1042497" />
		<tag k="ssr:type" v="adressenavn" />
	</node>
	<node id="-206379" lat="59.5777973371" lon="10.1580248363">
		<tag k="name" v="Breimyrveien" />
		<tag k="ssr:date" v="2019-05-31" />
		<tag k="ssr:gruppe" v="veg" />
		<tag k="ssr:hovedgruppe" v="infrastruktur" />
		<tag k="ssr:stedsnr" v="1042495" />
		<tag k="ssr:type" v="adressenavn" />
	</node>
	<node id="-206378" lat="59.5386290752" lon="10.2414446155">
		<tag k="name" v="Bringåkersetra" />
		<tag k="ssr:date" v="2019-05-31" />
		<tag k="ssr:gruppe" v="veg" />
		<tag k="ssr:hovedgruppe" v="infrastruktur" />
		<tag k="ssr:stedsnr" v="1042493" />
		<tag k="ssr:type" v="adressenavn" />
	</node>
	<node id="-206377" lat="59.55760385" lon="10.214065205">
		<tag k="name" v="Hvittingveien" />
		<tag k="ssr:date" v="2019-05-31" />
		<tag k="ssr:gruppe" v="veg" />
		<tag k="ssr:hovedgruppe" v="infrastruktur" />
		<tag k="ssr:stedsnr" v="1042491" />
		<tag k="ssr:type" v="adressenavn" />
	</node>
	<node id="-206376" lat="59.6213162017" lon="10.1952267065">
		<tag k="name" v="Tollerud" />
		<tag k="ssr:date" v="2019-05-31" />
		<tag k="ssr:gruppe" v="veg" />
		<tag k="ssr:hovedgruppe" v="infrastruktur" />
		<tag k="ssr:stedsnr" v="1042490" />
		<tag k="ssr:type" v="adressenavn" />
	</node>
	<node id="-206375" lat="59.5701575187" lon="10.3077749134">
		<tag k="name" v="Bekkevannet" />
		<tag k="ssr:date" v="2019-05-31" />
		<tag k="ssr:gruppe" v="veg" />
		<tag k="ssr:hovedgruppe" v="infrastruktur" />
		<tag k="ssr:stedsnr" v="1042487" />
		<tag k="ssr:type" v="adressenavn" />
	</node>
	<node id="-206374" lat="59.6174456648" lon="10.0693088208">
		<tag k="name" v="Laksetjernet" />
		<tag k="ssr:date" v="2019-05-31" />
		<tag k="ssr:gruppe" v="veg" />
		<tag k="ssr:hovedgruppe" v="infrastruktur" />
		<tag k="ssr:stedsnr" v="1042486" />
		<tag k="ssr:type" v="adressenavn" />
	</node>
	<node id="-206373" lat="59.6157854849" lon="10.1124318662">
		<tag k="name" v="Olasdal" />
		<tag k="ssr:date" v="2019-05-31" />
		<tag k="ssr:gruppe" v="veg" />
		<tag k="ssr:hovedgruppe" v="infrastruktur" />
		<tag k="ssr:stedsnr" v="1042485" />
		<tag k="ssr:type" v="adressenavn" />
	</node>
	<node id="-206372" lat="59.5715592737" lon="10.1566068003">
		<tag k="name" v="Løvåsseter" />
		<tag k="ssr:date" v="2019-05-31" />
		<tag k="ssr:gruppe" v="veg" />
		<tag k="ssr:hovedgruppe" v="infrastruktur" />
		<tag k="ssr:stedsnr" v="1042480" />
		<tag k="ssr:type" v="adressenavn" />
	</node>
	<node id="-206371" lat="59.5680998013" lon="10.1981679821">
		<tag k="name" v="Orhusveien" />
		<tag k="ssr:date" v="2019-05-31" />
		<tag k="ssr:gruppe" v="veg" />
		<tag k="ssr:hovedgruppe" v="infrastruktur" />
		<tag k="ssr:stedsnr" v="1042364" />
		<tag k="ssr:type" v="adressenavn" />
	</node>
	<node id="-206370" lat="59.577270269" lon="10.3368804083">
		<tag k="name" v="Blindevann" />
		<tag k="ssr:date" v="2019-05-31" />
		<tag k="ssr:gruppe" v="veg" />
		<tag k="ssr:hovedgruppe" v="infrastruktur" />
		<tag k="ssr:stedsnr" v="1042543" />
		<tag k="ssr:type" v="adressenavn" />
	</node>
	<node id="-206625" lat="59.5936194407" lon="10.2075611193">
		<tag k="loc_name" v="Sande" />
		<tag k="name" v="Sande kommune" />
		<tag k="ssr:date" v="2016-05-10" />
		<tag k="ssr:gruppe" v="administrativeIndelinger" />
		<tag k="ssr:hovedgruppe" v="offentligAdministrasjon" />
		<tag k="ssr:stedsnr" v="85725" />
		<tag k="ssr:type" v="kommune" />
	</node>
	<node id="-206368" lat="59.6546455811" lon="10.1384731878">
		<tag k="name" v="Bjørgeseter" />
		<tag k="ssr:date" v="2019-05-31" />
		<tag k="ssr:gruppe" v="veg" />
		<tag k="ssr:hovedgruppe" v="infrastruktur" />
		<tag k="ssr:stedsnr" v="1042537" />
		<tag k="ssr:type" v="adressenavn" />
	</node>
	<node id="-206367" lat="59.6481202685" lon="10.1449727731">
		<tag k="name" v="Ryggetanglia" />
		<tag k="ssr:date" v="2019-05-31" />
		<tag k="ssr:gruppe" v="veg" />
		<tag k="ssr:hovedgruppe" v="infrastruktur" />
		<tag k="ssr:stedsnr" v="1042535" />
		<tag k="ssr:type" v="adressenavn" />
	</node>
	<node id="-206366" lat="59.6482920469" lon="10.1523274042">
		<tag k="name" v="Langevannsåsen" />
		<tag k="ssr:date" v="2019-05-31" />
		<tag k="ssr:gruppe" v="veg" />
		<tag k="ssr:hovedgruppe" v="infrastruktur" />
		<tag k="ssr:stedsnr" v="1042534" />
		<tag k="ssr:type" v="adressenavn" />
	</node>
	<node id="-206533" lat="59.5626433808" lon="10.2687738117">
		<tag k="name" v="Laboratorieveien" />
		<tag k="ssr:date" v="2019-05-31" />
		<tag k="ssr:gruppe" v="veg" />
		<tag k="ssr:hovedgruppe" v="infrastruktur" />
		<tag k="ssr:stedsnr" v="1042430" />
		<tag k="ssr:type" v="adressenavn" />
	</node>
	<node id="-206365" lat="59.6443980145" lon="10.1508988649">
		<tag k="name" v="Myrseteråsen" />
		<tag k="ssr:date" v="2019-05-31" />
		<tag k="ssr:gruppe" v="veg" />
		<tag k="ssr:hovedgruppe" v="infrastruktur" />
		<tag k="ssr:stedsnr" v="1042532" />
		<tag k="ssr:type" v="adressenavn" />
	</node>
	<node id="-206363" lat="59.6397583695" lon="10.1412681389">
		<tag k="name" v="Loftåsen" />
		<tag k="ssr:date" v="2019-05-31" />
		<tag k="ssr:gruppe" v="veg" />
		<tag k="ssr:hovedgruppe" v="infrastruktur" />
		<tag k="ssr:stedsnr" v="1042526" />
		<tag k="ssr:type" v="adressenavn" />
	</node>
	<node id="-206532" lat="59.6408503134" lon="10.170218469">
		<tag k="name" v="Nordre Fjellskar" />
		<tag k="ssr:date" v="2019-05-31" />
		<tag k="ssr:gruppe" v="veg" />
		<tag k="ssr:hovedgruppe" v="infrastruktur" />
		<tag k="ssr:stedsnr" v="1042519" />
		<tag k="ssr:type" v="adressenavn" />
	</node>
	<node id="-206531" lat="59.6297331921" lon="10.154918682">
		<tag k="name" v="Siljukollvannet" />
		<tag k="ssr:date" v="2019-05-31" />
		<tag k="ssr:gruppe" v="veg" />
		<tag k="ssr:hovedgruppe" v="infrastruktur" />
		<tag k="ssr:stedsnr" v="1042517" />
		<tag k="ssr:type" v="adressenavn" />
	</node>
	<node id="-206607" lat="59.5245777805" lon="10.3316999929">
		<tag k="name" v="Killingholmen" />
		<tag k="ssr:date" v="2019-05-31" />
		<tag k="ssr:gruppe" v="veg" />
		<tag k="ssr:hovedgruppe" v="infrastruktur" />
		<tag k="ssr:stedsnr" v="57855" />
		<tag k="ssr:type" v="adressenavn" />
	</node>
	<node id="-206530" lat="59.6335157233" lon="10.1717348516">
		<tag k="name" v="Åsdammen" />
		<tag k="ssr:date" v="2019-05-31" />
		<tag k="ssr:gruppe" v="veg" />
		<tag k="ssr:hovedgruppe" v="infrastruktur" />
		<tag k="ssr:stedsnr" v="1042516" />
		<tag k="ssr:type" v="adressenavn" />
	</node>
	<node id="-206369" lat="59.6514915896" lon="10.1581683854">
		<tag k="name" v="Bjørgeslettås" />
		<tag k="ssr:date" v="2019-05-31" />
		<tag k="ssr:gruppe" v="veg" />
		<tag k="ssr:hovedgruppe" v="infrastruktur" />
		<tag k="ssr:stedsnr" v="1042538" />
		<tag k="ssr:type" v="adressenavn" />
	</node>
	<node id="-207497" lat="60.5908609473" lon="9.63819281559">
		<tag k="fixme" v="multiple name tags, choose one and add the other to alt_name" />
		<tag k="name" v="Austlandet;Østlandet" />
		<tag k="ssr:date" v="2018-01-09" />
		<tag k="ssr:gruppe" v="administrativeIndelinger" />
		<tag k="ssr:hovedgruppe" v="offentligAdministrasjon" />
		<tag k="ssr:stedsnr" v="974775" />
		<tag k="ssr:type" v="annenAdministrativInndeling" />
	</node>
</osm>
