<?xml version="1.0" encoding="UTF-8"?>
<<<<<<< HEAD
<osm version="0.6" generator="osmapis">
	<node lat="60.7096888852145" lon="8.918427784653918" id="-16972">
		<tag k="alt_name" v="Gol kirke;Gol" />
		<tag k="amenity" v="place_of_worship" />
		<tag k="denomination" v="lutheran" />
		<tag k="name" v="Gol kyrkje" />
		<tag k="religion" v="christian" />
		<tag k="ssr:stedsnr" v="68386" />
	</node>
	<node lat="60.67818332997756" lon="9.056561116847648" id="-17120">
		<tag k="name" v="Gampestillet" />
		<tag k="place" v="locality" />
		<tag k="ssr:stedsnr" v="224009" />
	</node>
	<node lat="60.743466671136126" lon="8.831075005368032" id="-17221">
		<tag k="name" v="Skallevollen" />
		<tag k="place" v="locality" />
		<tag k="ssr:stedsnr" v="404880" />
	</node>
	<node lat="60.82443055654527" lon="8.986833337947562" id="-17350">
		<tag k="name" v="Veslebuidn" />
		<tag k="place" v="locality" />
		<tag k="ssr:stedsnr" v="523560" />
	</node>
	<node lat="60.68539444105726" lon="9.013419443665626" id="-17391">
		<tag k="name" v="Tønsberg" />
		<tag k="place" v="locality" />
		<tag k="ssr:stedsnr" v="587012" />
	</node>
	<node lat="60.78696944688138" lon="9.038127786959945" id="-17414">
		<tag k="name" v="Larshusbui" />
		<tag k="place" v="locality" />
		<tag k="ssr:stedsnr" v="644260" />
	</node>
	<node lat="60.72354166377054" lon="9.307505549304524" id="-17479">
		<tag k="name" v="Dansarfeten" />
		<tag k="place" v="locality" />
		<tag k="ssr:stedsnr" v="709823" />
	</node>
	<node lat="60.69983609252886" lon="9.010438251914879" id="-17555">
		<tag k="alt_name" v="Herad kirke;Herad" />
		<tag k="amenity" v="place_of_worship" />
		<tag k="denomination" v="lutheran" />
		<tag k="name" v="Herad kyrkje" />
		<tag k="old_name" v="Herad kapell" />
		<tag k="religion" v="christian" />
		<tag k="ssr:stedsnr" v="917292" />
	</node>
	<node lat="60.68907499640843" lon="8.993775003582208" id="-17607">
=======
<osm generator="osmapis" version="0.6">
	<node id="-274079" lat="60.6853944411" lon="9.01341944367">
		<tag k="name" v="Tønsberg" />
		<tag k="place" v="locality" />
		<tag k="ssr:stedsnr" v="587012" />
	</node>
	<node id="-273893" lat="60.6979222185" lon="8.94760555117">
		<tag k="amenity" v="place_of_worship" />
		<tag k="denomination" v="lutheran" />
		<tag k="name" v="Gol nye stavkirke" />
		<tag k="religion" v="christian" />
		<tag k="ssr:stedsnr" v="329180" />
	</node>
	<node id="-273484" lat="60.6890749964" lon="8.99377500358">
>>>>>>> e1d4bc35ff8a6074a6f2e91616a996b547c36f15
		<tag k="name" v="Hopskogen" />
		<tag k="place" v="locality" />
		<tag k="ssr:stedsnr" v="891015" />
	</node>
<<<<<<< HEAD
	<node lat="60.744213893248684" lon="8.883638895455373" id="-17632">
		<tag k="name" v="Rensla" />
=======
	<node id="-273100" lat="60.7374194432" lon="8.80682777785">
		<tag k="name" v="Hasalie" />
>>>>>>> e1d4bc35ff8a6074a6f2e91616a996b547c36f15
		<tag k="place" v="locality" />
		<tag k="ssr:stedsnr" v="161863" />
	</node>
<<<<<<< HEAD
	<node lat="60.71618333170487" lon="8.958822217426153" id="-17633">
		<tag k="name" v="Hedde" />
=======
	<node id="-273400" lat="60.7235416638" lon="9.3075055493">
		<tag k="name" v="Dansarfeten" />
>>>>>>> e1d4bc35ff8a6074a6f2e91616a996b547c36f15
		<tag k="place" v="locality" />
		<tag k="ssr:stedsnr" v="952219" />
	</node>
<<<<<<< HEAD
	<node lat="60.814905555815166" lon="8.816894449129933" id="-17724">
=======
	<node id="-273077" lat="60.8149055558" lon="8.81689444913">
>>>>>>> e1d4bc35ff8a6074a6f2e91616a996b547c36f15
		<tag k="name" v="Bleste" />
		<tag k="place" v="locality" />
		<tag k="ssr:stedsnr" v="99355" />
	</node>
<<<<<<< HEAD
	<node lat="60.737419443223956" lon="8.806827777850614" id="-17772">
		<tag k="name" v="Hasalie" />
=======
	<node id="-274132" lat="60.7869694469" lon="9.03812778696">
		<tag k="name" v="Larshusbui" />
>>>>>>> e1d4bc35ff8a6074a6f2e91616a996b547c36f15
		<tag k="place" v="locality" />
		<tag k="ssr:stedsnr" v="161863" />
	</node>
<<<<<<< HEAD
	<node lat="60.738669440868456" lon="8.888591663064151" id="-17774">
		<tag k="name" v="Kroken" />
		<tag k="place" v="locality" />
		<tag k="ssr:stedsnr" v="161992" />
	</node>
	<node lat="60.82162777823592" lon="8.87587499162671" id="-17812">
		<tag k="name" v="Steingrøte" />
		<tag k="place" v="locality" />
		<tag k="ssr:stedsnr" v="220368" />
	</node>
	<node lat="60.69792221851124" lon="8.947605551169655" id="-17882">
		<tag k="alt_name" v="Gol nye stavkirke" />
=======
	<node id="-273619" lat="60.7161833317" lon="8.95882221743">
		<tag k="name" v="Hedde" />
		<tag k="place" v="locality" />
		<tag k="ssr:stedsnr" v="952219" />
	</node>
	<node id="-273523" lat="60.6998360925" lon="9.01043825191">
		<tag k="alt_name" v="Herad kirke;Herad" />
>>>>>>> e1d4bc35ff8a6074a6f2e91616a996b547c36f15
		<tag k="amenity" v="place_of_worship" />
		<tag k="denomination" v="lutheran" />
		<tag k="name" v="Gol stavkyrkje" />
		<tag k="religion" v="christian" />
		<tag k="ssr:stedsnr" v="329180" />
	</node>
<<<<<<< HEAD
	<node lat="60.6719805585999" lon="8.902438893799872" id="-17894">
		<tag k="name" v="Benken" />
		<tag k="place" v="locality" />
		<tag k="ssr:stedsnr" v="343383" />
	</node>
	<node lat="60.6762668784613" lon="9.057566239919726" id="-17944">
		<tag k="name" v="Dokkvollen" />
		<tag k="place" v="locality" />
		<tag k="ssr:stedsnr" v="406001" />
	</node>
	<node lat="60.65214444234284" lon="9.058177780467615" id="-17998">
		<tag k="name" v="Røbelroni" />
		<tag k="place" v="locality" />
		<tag k="ssr:stedsnr" v="540460" />
	</node>
	<node lat="60.6746277791139" lon="9.053277773412994" id="-18050">
=======
	<node id="-273904" lat="60.6719805586" lon="8.9024388938">
		<tag k="name" v="Benken" />
		<tag k="place" v="locality" />
		<tag k="ssr:stedsnr" v="343383" />
	</node>
	<node id="-273960" lat="60.6777972251" lon="9.07405833982">
		<tag k="name" v="Dokkvollen" />
		<tag k="place" v="locality" />
		<tag k="ssr:stedsnr" v="406001" />
	</node>
	<node id="-273356" lat="60.8244305565" lon="8.98683333795">
		<tag k="name" v="Veslebuidn" />
		<tag k="place" v="locality" />
		<tag k="ssr:stedsnr" v="523560" />
	</node>
	<node id="-273708" lat="60.7096888852" lon="8.91842778465">
		<tag k="alt_name" v="Gol kirke;Gol" />
		<tag k="amenity" v="place_of_worship" />
		<tag k="denomination" v="lutheran" />
		<tag k="name" v="Gol kyrkje" />
		<tag k="religion" v="christian" />
		<tag k="ssr:stedsnr" v="68386" />
	</node>
	<node id="-274099" lat="60.6746277791" lon="9.05327777341">
>>>>>>> e1d4bc35ff8a6074a6f2e91616a996b547c36f15
		<tag k="alt_name" v="Trollset Sr" />
		<tag k="name" v="Trollset" />
		<tag k="place" v="locality" />
		<tag k="ssr:stedsnr" v="613246" />
	</node>
<<<<<<< HEAD
	<node lat="60.731661112209196" lon="8.85469721816737" id="-18089">
		<tag k="name" v="Skørra" />
		<tag k="place" v="locality" />
		<tag k="ssr:stedsnr" v="648214" />
=======
	<node id="-274024" lat="60.6521444423" lon="9.05817778047">
		<tag k="name" v="Røbelroni" />
		<tag k="place" v="locality" />
		<tag k="ssr:stedsnr" v="540460" />
	</node>
	<node id="-272979" lat="60.8216277782" lon="8.87587499163">
		<tag k="name" v="Steingrøte" />
		<tag k="place" v="locality" />
		<tag k="ssr:stedsnr" v="220368" />
	</node>
	<node id="-274149" lat="60.7316611122" lon="8.85469721817">
		<tag k="name" v="Skørra" />
		<tag k="place" v="locality" />
		<tag k="ssr:stedsnr" v="648214" />
	</node>
	<node id="-273956" lat="60.7434666711" lon="8.83107500537">
		<tag k="name" v="Skallevollen" />
		<tag k="place" v="locality" />
		<tag k="ssr:stedsnr" v="404880" />
	</node>
	<node id="-272994" lat="60.67818333" lon="9.05656111685">
		<tag k="name" v="Gampestillet" />
		<tag k="place" v="locality" />
		<tag k="ssr:stedsnr" v="224009" />
	</node>
	<node id="-273794" lat="60.7386694409" lon="8.88859166306">
		<tag k="name" v="Kroken" />
		<tag k="place" v="locality" />
		<tag k="ssr:stedsnr" v="161992" />
	</node>
	<node id="-273616" lat="60.7442138932" lon="8.88363889546">
		<tag k="name" v="Rensla" />
		<tag k="place" v="locality" />
		<tag k="ssr:stedsnr" v="950994" />
>>>>>>> e1d4bc35ff8a6074a6f2e91616a996b547c36f15
	</node>
</osm>
