<?xml version="1.0" encoding="UTF-8"?>
<osm version="0.6" generator="osmapis">
	<node lat="60.69209166595736" lon="9.213300008634679" id="-32920">
		<tag k="alt_name" v="Langevatn" />
		<tag k="name" v="Langvatnet" />
		<tag k="natural" v="water" />
		<tag k="ssr:stedsnr" v="6309" />
	</node>
	<node lat="60.70653611057691" lon="9.072091663410793" id="-32927">
		<tag k="name" v="Meåne" />
		<tag k="ssr:stedsnr" v="7367" />
		<tag k="waterway" v="river" />
	</node>
	<node lat="60.716608330355484" lon="9.275966662734792" id="-32929">
		<tag k="alt_name" v="Raudalsvatnet" />
		<tag k="name" v="Rauddalsvatnet" />
		<tag k="natural" v="water" />
		<tag k="ssr:stedsnr" v="7520" />
	</node>
	<node lat="60.79181666554748" lon="9.104169445731468" id="-32932">
		<tag k="name" v="Metubba" />
		<tag k="ssr:stedsnr" v="8299" />
		<tag k="waterway" v="stream" />
	</node>
	<node lat="60.65572222303938" lon="8.871519446920649" id="-32951">
		<tag k="name" v="Langetjern" />
		<tag k="natural" v="water" />
		<tag k="ssr:stedsnr" v="237461" />
	</node>
	<node lat="60.79863055652296" lon="8.960166663734887" id="-32958">
		<tag k="name" v="Einarsetbekken" />
		<tag k="ssr:stedsnr" v="59720" />
		<tag k="waterway" v="stream" />
	</node>
	<node lat="60.69483889215116" lon="9.09786666926431" id="-32967">
		<tag k="name" v="Glitrefjorden" />
		<tag k="natural" v="bay" />
		<tag k="ssr:stedsnr" v="67354" />
	</node>
	<node lat="60.70616111429724" lon="9.129594453185264" id="-32971">
		<tag k="name" v="Ruketjern" />
		<tag k="natural" v="water" />
		<tag k="ssr:stedsnr" v="68392" />
	</node>
	<node lat="60.83977222517603" lon="8.826649999588847" id="-32980">
		<tag k="name" v="Hjartingbekken" />
		<tag k="ssr:stedsnr" v="99475" />
		<tag k="waterway" v="stream" />
	</node>
	<node lat="60.739127779583704" lon="9.176638896041004" id="-32996">
		<tag k="alt_name" v="Endefjellvatn" />
		<tag k="name" v="Endefjellvatnet" />
		<tag k="natural" v="water" />
		<tag k="ssr:stedsnr" v="249158" />
	</node>
	<node lat="60.71147777809085" lon="8.847677777268602" id="-33013">
		<tag k="alt_name" v="Heitjern" />
		<tag k="name" v="Heitjerne" />
		<tag k="natural" v="water" />
		<tag k="ssr:stedsnr" v="250357" />
	</node>
	<node lat="60.82416389123666" lon="8.792275004274568" id="-33026">
		<tag k="name" v="Brenneløkbekken" />
		<tag k="ssr:stedsnr" v="251254" />
		<tag k="waterway" v="stream" />
	</node>
	<node lat="60.78668055235393" lon="9.037980551675174" id="-33027">
		<tag k="name" v="Tubbeåne" />
		<tag k="ssr:stedsnr" v="251282" />
		<tag k="waterway" v="stream" />
	</node>
	<node lat="60.792638886492874" lon="8.983358330482023" id="-33030">
		<tag k="name" v="Brastadbekken" />
		<tag k="ssr:stedsnr" v="251298" />
		<tag k="waterway" v="stream" />
	</node>
	<node lat="60.76338611069721" lon="9.178480560941853" id="-33032">
		<tag k="alt_name" v="Dugurdstjern" />
		<tag k="name" v="Dugurdstjerne" />
		<tag k="natural" v="water" />
		<tag k="ssr:stedsnr" v="251321" />
	</node>
	<node lat="60.76109999661081" lon="8.933805552062383" id="-33034">
		<tag k="alt_name" v="Vesle Langtjernet" />
		<tag k="name" v="Vesle Langetjern" />
		<tag k="natural" v="water" />
		<tag k="ssr:stedsnr" v="251328" />
	</node>
	<node lat="60.75689722591763" lon="8.991944447702718" id="-33035">
		<tag k="alt_name" v="Brautemotjern" />
		<tag k="name" v="Brautemotjerne" />
		<tag k="natural" v="water" />
		<tag k="ssr:stedsnr" v="251371" />
	</node>
	<node lat="60.813886113763864" lon="9.077880561688158" id="-33038">
		<tag k="name" v="Bakkhusbekken" />
		<tag k="ssr:stedsnr" v="251508" />
		<tag k="waterway" v="stream" />
	</node>
	<node lat="60.8233444467015" lon="9.016694443960866" id="-33040">
		<tag k="name" v="Store Ørteren" />
		<tag k="natural" v="water" />
		<tag k="ssr:stedsnr" v="251466" />
		<tag k="water" v="lake" />
	</node>
	<node lat="60.83966391802142" lon="8.860731577744755" id="-33041">
		<tag k="alt_name" v="Nystøltjern;Eikretjerne" />
		<tag k="name" v="Nystøltjernet" />
		<tag k="natural" v="water" />
		<tag k="ssr:stedsnr" v="251482" />
	</node>
	<node lat="60.73384721946604" lon="8.844344436828335" id="-33049">
		<tag k="name" v="Mjørsetbekken" />
		<tag k="ssr:stedsnr" v="128137" />
		<tag k="waterway" v="stream" />
	</node>
	<node lat="60.710566669155895" lon="9.074536119318088" id="-33051">
		<tag k="name" v="Styggedalsbekken" />
		<tag k="ssr:stedsnr" v="128316" />
		<tag k="waterway" v="stream" />
	</node>
	<node lat="60.70047500082768" lon="9.229083335027198" id="-33058">
		<tag k="alt_name" v="Holmetjern" />
		<tag k="name" v="Holmetjerne" />
		<tag k="natural" v="water" />
		<tag k="ssr:stedsnr" v="128686" />
	</node>
	<node lat="60.686581850845066" lon="9.178000526982835" id="-33059">
		<tag k="alt_name" v="Trytetjern" />
		<tag k="name" v="Trytetjerne" />
		<tag k="natural" v="water" />
		<tag k="ssr:stedsnr" v="128888" />
	</node>
	<node lat="60.78566978935858" lon="9.063380852503442" id="-33060">
		<tag k="alt_name" v="Tubbetjern" />
		<tag k="name" v="Tubbetjerne" />
		<tag k="natural" v="water" />
		<tag k="ssr:stedsnr" v="129277" />
	</node>
	<node lat="60.80410555733316" lon="9.043530549144595" id="-33062">
		<tag k="name" v="Lyseren" />
		<tag k="natural" v="water" />
		<tag k="ssr:stedsnr" v="129477" />
	</node>
	<node lat="60.81882777597315" lon="8.811233328502125" id="-33064">
		<tag k="name" v="Liabekken" />
		<tag k="ssr:stedsnr" v="130217" />
		<tag k="waterway" v="stream" />
	</node>
	<node lat="60.67888055755073" lon="8.801155548948904" id="-33096">
		<tag k="alt_name" v="Finneselvi" />
		<tag k="name" v="Verma" />
		<tag k="ssr:stedsnr" v="188926" />
		<tag k="waterway" v="river" />
	</node>
	<node lat="60.73769166339735" lon="8.94971667081475" id="-33101">
		<tag k="name" v="Svartetjern" />
		<tag k="natural" v="water" />
		<tag k="ssr:stedsnr" v="189142" />
	</node>
	<node lat="60.734116664889385" lon="9.05488055181217" id="-33102">
		<tag k="alt_name" v="Halfarbekken" />
		<tag k="name" v="Halvfarbekken" />
		<tag k="ssr:stedsnr" v="189145" />
		<tag k="waterway" v="stream" />
	</node>
	<node lat="60.71398055182114" lon="9.111613882513975" id="-33107">
		<tag k="name" v="Rukebekken" />
		<tag k="ssr:stedsnr" v="189325" />
		<tag k="waterway" v="stream" />
	</node>
	<node lat="60.85466667032155" lon="8.876519453012538" id="-33114">
		<tag k="name" v="Blekketjernbekken" />
		<tag k="ssr:stedsnr" v="191371" />
		<tag k="waterway" v="stream" />
	</node>
	<node lat="60.75872777773234" lon="9.016586116161767" id="-33128">
		<tag k="alt_name" v="Revsalbekken" />
		<tag k="name" v="Revshalbekken" />
		<tag k="ssr:stedsnr" v="234289" />
		<tag k="waterway" v="stream" />
	</node>
	<node lat="60.71723611207383" lon="9.034619451345883" id="-33138">
		<tag k="name" v="Toretjern" />
		<tag k="natural" v="water" />
		<tag k="ssr:stedsnr" v="282770" />
	</node>
	<node lat="60.717166664919795" lon="8.984422221967517" id="-33140">
		<tag k="name" v="Sollibekken" />
		<tag k="ssr:stedsnr" v="282784" />
		<tag k="waterway" v="stream" />
	</node>
	<node lat="60.659183331420955" lon="8.875566668902183" id="-33147">
		<tag k="name" v="Brennstalltjern" />
		<tag k="natural" v="water" />
		<tag k="ssr:stedsnr" v="298424" />
	</node>
	<node lat="60.7434138905791" lon="8.773461116455401" id="-33156">
		<tag k="name" v="Snuforbekken" />
		<tag k="ssr:stedsnr" v="309793" />
		<tag k="waterway" v="stream" />
	</node>
	<node lat="60.69741944540063" lon="9.082327776250628" id="-33164">
		<tag k="name" v="Veatjern" />
		<tag k="natural" v="water" />
		<tag k="ssr:stedsnr" v="466168" />
	</node>
	<node lat="60.75948055713923" lon="9.011322229595743" id="-33173">
		<tag k="alt_name" v="Øvre Fesheimtjern" />
		<tag k="name" v="Øvre Fesheimtjerne" />
		<tag k="natural" v="water" />
		<tag k="ssr:stedsnr" v="312272" />
	</node>
	<node lat="60.76513333456702" lon="9.19286111091265" id="-33175">
		<tag k="alt_name" v="Langetjern" />
		<tag k="name" v="Langetjerne" />
		<tag k="natural" v="water" />
		<tag k="ssr:stedsnr" v="312281" />
	</node>
	<node lat="60.76200555966856" lon="9.224849992961639" id="-33176">
		<tag k="alt_name" v="Hestatjernan;Hestetjønnan" />
		<tag k="name" v="Hestetjernan" />
		<tag k="natural" v="water" />
		<tag k="ssr:stedsnr" v="312282" />
		<tag k="water" v="lake" />
	</node>
	<node lat="60.76422777587995" lon="8.905500006766882" id="-33177">
		<tag k="name" v="Storebråtbekken" />
		<tag k="ssr:stedsnr" v="312333" />
		<tag k="waterway" v="stream" />
	</node>
	<node lat="60.76199999567141" lon="9.225944452267889" id="-33180">
		<tag k="alt_name" v="Hestetjernet" />
		<tag k="name" v="Hestetjern" />
		<tag k="natural" v="water" />
		<tag k="ssr:stedsnr" v="313825" />
	</node>
	<node lat="60.72534068404687" lon="9.001878879233145" id="-33191">
		<tag k="name" v="Øvre Røytjern" />
		<tag k="natural" v="water" />
		<tag k="ssr:stedsnr" v="343816" />
	</node>
	<node lat="60.71748889166107" lon="9.18566666286335" id="-33202">
		<tag k="name" v="Leinebekken" />
		<tag k="ssr:stedsnr" v="370417" />
		<tag k="waterway" v="stream" />
	</node>
	<node lat="60.73082222110326" lon="9.171497226274383" id="-33206">
		<tag k="name" v="Tyritjern" />
		<tag k="natural" v="water" />
		<tag k="ssr:stedsnr" v="371158" />
	</node>
	<node lat="60.75028610752745" lon="9.091963887989284" id="-33214">
		<tag k="name" v="Grøtjernbekken" />
		<tag k="ssr:stedsnr" v="372360" />
		<tag k="waterway" v="stream" />
	</node>
	<node lat="60.76202500337712" lon="9.316988886231835" id="-33218">
		<tag k="alt_name" v="Vassvølla" />
		<tag k="name" v="Vassvolla" />
		<tag k="ssr:stedsnr" v="373797" />
		<tag k="waterway" v="stream" />
	</node>
	<node lat="60.71418888524339" lon="8.853255552227417" id="-33222">
		<tag k="name" v="Spildredammen" />
		<tag k="natural" v="water" />
		<tag k="ssr:stedsnr" v="482194" />
	</node>
	<node lat="60.659386110558046" lon="8.88125556080663" id="-33236">
		<tag k="name" v="Øyetjern" />
		<tag k="natural" v="water" />
		<tag k="ssr:stedsnr" v="419440" />
	</node>
	<node lat="60.70243889164516" lon="8.81866943603981" id="-33238">
		<tag k="name" v="Helgesetbekken" />
		<tag k="ssr:stedsnr" v="422205" />
		<tag k="waterway" v="stream" />
	</node>
	<node lat="60.69766111489556" lon="9.277200009131198" id="-33241">
		<tag k="name" v="Vesle Andsjøen" />
		<tag k="natural" v="water" />
		<tag k="ssr:stedsnr" v="492698" />
	</node>
	<node lat="60.71758333756256" lon="8.795819451036278" id="-33250">
		<tag k="alt_name" v="Nystøltjern" />
		<tag k="name" v="Nystøltjerne" />
		<tag k="natural" v="water" />
		<tag k="ssr:stedsnr" v="431846" />
	</node>
	<node lat="60.73669166299392" lon="8.93961388298553" id="-33252">
		<tag k="name" v="Kollbekken" />
		<tag k="ssr:stedsnr" v="432134" />
		<tag k="waterway" v="stream" />
	</node>
	<node lat="60.723722653260346" lon="8.848681345704348" id="-33253">
		<tag k="alt_name" v="Mjørsettjern" />
		<tag k="name" v="Mjørsettjerne" />
		<tag k="natural" v="water" />
		<tag k="ssr:stedsnr" v="432147" />
	</node>
	<node lat="60.69645277773499" lon="9.246302783285483" id="-33256">
		<tag k="name" v="Pipesjøbekken" />
		<tag k="ssr:stedsnr" v="432693" />
		<tag k="waterway" v="stream" />
	</node>
	<node lat="60.787730555523304" lon="8.833374996077866" id="-33257">
		<tag k="alt_name" v="Svartetjern" />
		<tag k="name" v="Svartetjerne" />
		<tag k="natural" v="water" />
		<tag k="ssr:stedsnr" v="433027" />
	</node>
	<node lat="60.757002778804555" lon="8.947577769344749" id="-33259">
		<tag k="alt_name" v="Store Langtjernet" />
		<tag k="name" v="Store Langetjern" />
		<tag k="natural" v="water" />
		<tag k="ssr:stedsnr" v="433291" />
	</node>
	<node lat="60.747938890938954" lon="8.964538882402808" id="-33264">
		<tag k="name" v="Grovtjern" />
		<tag k="natural" v="water" />
		<tag k="ssr:stedsnr" v="492133" />
	</node>
	<node lat="60.67194998062398" lon="9.192633253155883" id="-33267">
		<tag k="alt_name" v="Hallgrimtjern" />
		<tag k="name" v="Hallgrimtjerne" />
		<tag k="natural" v="water" />
		<tag k="ssr:stedsnr" v="492218" />
	</node>
	<node lat="60.78204999961474" lon="9.14284999152424" id="-33275">
		<tag k="name" v="Brennbekken" />
		<tag k="ssr:stedsnr" v="493314" />
		<tag k="waterway" v="stream" />
	</node>
	<node lat="60.821274995688746" lon="8.811849992833752" id="-33278">
		<tag k="name" v="Kalvetjerne" />
		<tag k="natural" v="water" />
		<tag k="ssr:stedsnr" v="494201" />
	</node>
	<node lat="60.75867499995449" lon="8.979430548532994" id="-33279">
		<tag k="name" v="Haugabekken" />
		<tag k="ssr:stedsnr" v="494255" />
		<tag k="waterway" v="stream" />
	</node>
	<node lat="60.763144448023965" lon="8.984711116748018" id="-33280">
		<tag k="name" v="Ørkbekken" />
		<tag k="ssr:stedsnr" v="494256" />
		<tag k="waterway" v="stream" />
	</node>
	<node lat="60.721900751095475" lon="8.797057536506975" id="-33285">
		<tag k="alt_name" v="Svarabergtjern" />
		<tag k="name" v="Svarabergtjerne" />
		<tag k="natural" v="water" />
		<tag k="ssr:stedsnr" v="673849" />
	</node>
	<node lat="60.802266668791546" lon="8.798150008072541" id="-33291">
		<tag k="name" v="Mattislibekken" />
		<tag k="ssr:stedsnr" v="675029" />
		<tag k="waterway" v="stream" />
	</node>
	<node lat="60.717391665807256" lon="8.989680546561857" id="-33294">
		<tag k="name" v="Rusteåne" />
		<tag k="ssr:stedsnr" v="674331" />
		<tag k="waterway" v="river" />
	</node>
	<node lat="60.70673055551999" lon="8.849824994325605" id="-33295">
		<tag k="name" v="Damtjern" />
		<tag k="natural" v="water" />
		<tag k="ssr:stedsnr" v="674340" />
	</node>
	<node lat="60.71419167082129" lon="9.159222222253662" id="-33297">
		<tag k="name" v="Holteåne" />
		<tag k="ssr:stedsnr" v="674344" />
		<tag k="waterway" v="river" />
	</node>
	<node lat="60.67925833309267" lon="8.826580557756769" id="-33305">
		<tag k="name" v="Vermefoss" />
		<tag k="natural" v="waterfall" />
		<tag k="ssr:stedsnr" v="674908" />
	</node>
	<node lat="60.67381666360905" lon="9.0890194409349" id="-33307">
		<tag k="alt_name" v="Letjern" />
		<tag k="name" v="Letjerne" />
		<tag k="natural" v="water" />
		<tag k="ssr:stedsnr" v="675290" />
	</node>
	<node lat="60.671772225449715" lon="9.069011119135627" id="-33308">
		<tag k="name" v="Svartetjern" />
		<tag k="natural" v="water" />
		<tag k="ssr:stedsnr" v="675291" />
	</node>
	<node lat="60.805149998521316" lon="8.801475008193961" id="-33315">
		<tag k="alt_name" v="Sørbøltjern" />
		<tag k="name" v="Sørbøltjerne" />
		<tag k="natural" v="water" />
		<tag k="ssr:stedsnr" v="676239" />
	</node>
	<node lat="60.83797500291242" lon="8.923252779339634" id="-33318">
		<tag k="alt_name" v="Flataskardtjernet" />
		<tag k="name" v="Flataskortjern" />
		<tag k="natural" v="water" />
		<tag k="ssr:stedsnr" v="676465" />
	</node>
	<node lat="60.851036114189625" lon="8.882127780053086" id="-33319">
		<tag k="name" v="Storebekken" />
		<tag k="ssr:stedsnr" v="676467" />
		<tag k="waterway" v="stream" />
	</node>
	<node lat="60.81050833422843" lon="9.126802784407147" id="-33320">
		<tag k="name" v="Elgshornbekken" />
		<tag k="ssr:stedsnr" v="676469" />
		<tag k="waterway" v="stream" />
	</node>
	<node lat="60.772888889234814" lon="9.1184833292189" id="-33322">
		<tag k="name" v="Dunkehybelbekken" />
		<tag k="ssr:stedsnr" v="483671" />
		<tag k="waterway" v="stream" />
	</node>
	<node lat="60.69198055540268" lon="9.091047224023601" id="-33336">
		<tag k="alt_name" v="Sagåne" />
		<tag k="fixme" v="multiple name tags, choose one and add the other to alt_name" />
		<tag k="name" v="Veikulåne;Sagaåne" />
		<tag k="ssr:stedsnr" v="492307" />
		<tag k="waterway" v="river" />
	</node>
	<node lat="60.70251111409387" lon="9.253975007463673" id="-33341">
		<tag k="alt_name" v="Fjelltjern" />
		<tag k="name" v="Fjelltjerne" />
		<tag k="natural" v="water" />
		<tag k="ssr:stedsnr" v="492695" />
	</node>
	<node lat="60.8587277767573" lon="8.83828054788909" id="-33344">
		<tag k="alt_name" v="Elgetjern" />
		<tag k="name" v="Elgetjerne" />
		<tag k="natural" v="water" />
		<tag k="ssr:stedsnr" v="493169" />
	</node>
	<node lat="60.81937222302691" lon="8.873383333194203" id="-33349">
		<tag k="name" v="Fåleløken" />
		<tag k="ssr:stedsnr" v="493487" />
		<tag k="waterway" v="stream" />
	</node>
	<node lat="60.87501666277559" lon="8.83933054649365" id="-33350">
		<tag k="name" v="Tisleifjorden" />
		<tag k="natural" v="water" />
		<tag k="old_name" v="Tisleifjord;Tesleien" />
		<tag k="ssr:stedsnr" v="494116" />
		<tag k="water" v="lake" />
	</node>
	<node lat="60.80947222220909" lon="8.828502775310362" id="-33352">
		<tag k="alt_name" v="Embretsgardtjern" />
		<tag k="name" v="Embretsgardtjerne" />
		<tag k="natural" v="water" />
		<tag k="ssr:stedsnr" v="494221" />
	</node>
	<node lat="60.76191388730699" lon="8.86768333210309" id="-33353">
		<tag k="name" v="Henrikbekken" />
		<tag k="ssr:stedsnr" v="494271" />
		<tag k="waterway" v="stream" />
	</node>
	<node lat="60.732019441036456" lon="9.147852768896279" id="-33361">
		<tag k="name" v="Myklesjøviki" />
		<tag k="natural" v="bay" />
		<tag k="ssr:stedsnr" v="525775" />
	</node>
	<node lat="60.777633333090094" lon="8.848944452689972" id="-33368">
		<tag k="name" v="Helgetjern" />
		<tag k="natural" v="water" />
		<tag k="ssr:stedsnr" v="528578" />
	</node>
	<node lat="60.74369721859897" lon="8.978908338435591" id="-33374">
		<tag k="alt_name" v="Fjerdingsbekken;Fjordings bk" />
		<tag k="name" v="Fjordungsbekken" />
		<tag k="ssr:stedsnr" v="552191" />
		<tag k="waterway" v="stream" />
	</node>
	<node lat="60.659097219724444" lon="9.108825007798085" id="-33379">
		<tag k="alt_name" v="Ronetjern" />
		<tag k="name" v="Rundetjern" />
		<tag k="natural" v="water" />
		<tag k="ssr:stedsnr" v="552309" />
	</node>
	<node lat="60.70541389031407" lon="8.792561109092631" id="-33383">
		<tag k="alt_name" v="Guråtjern" />
		<tag k="name" v="Gurotjerne" />
		<tag k="natural" v="water" />
		<tag k="ssr:stedsnr" v="552899" />
	</node>
	<node lat="60.65458611037706" lon="9.10111111058663" id="-33389">
		<tag k="name" v="Svartetjern" />
		<tag k="natural" v="water" />
		<tag k="ssr:stedsnr" v="553904" />
	</node>
	<node lat="60.80080555982168" lon="8.816400007100718" id="-33390">
		<tag k="alt_name" v="Geitetjern" />
		<tag k="name" v="Geitetjerni" />
		<tag k="natural" v="water" />
		<tag k="ssr:stedsnr" v="554003" />
	</node>
	<node lat="60.79275267448363" lon="9.085960402218692" id="-33395">
		<tag k="alt_name" v="Gautetjernet" />
		<tag k="name" v="Gautetjern" />
		<tag k="natural" v="water" />
		<tag k="ssr:stedsnr" v="554276" />
	</node>
	<node lat="60.74650277543412" lon="8.784427770062132" id="-33403">
		<tag k="name" v="Nystølbekken" />
		<tag k="ssr:stedsnr" v="612790" />
		<tag k="waterway" v="stream" />
	</node>
	<node lat="60.75653889225209" lon="9.096311109688669" id="-33417">
		<tag k="alt_name" v="Syningstjern" />
		<tag k="name" v="Syningstjerne" />
		<tag k="natural" v="water" />
		<tag k="ssr:stedsnr" v="615310" />
	</node>
	<node lat="60.76016666295457" lon="9.235572225329829" id="-33443">
		<tag k="name" v="Nystølbekken" />
		<tag k="ssr:stedsnr" v="665694" />
		<tag k="waterway" v="stream" />
	</node>
	<node lat="60.69727500071384" lon="9.16157499387189" id="-33453">
		<tag k="alt_name" v="Kroketjernbekken" />
		<tag k="name" v="Kroktjernbekken" />
		<tag k="ssr:stedsnr" v="674279" />
		<tag k="waterway" v="stream" />
	</node>
	<node lat="60.707394443786306" lon="9.199641669223594" id="-33458">
		<tag k="name" v="Leinetjern" />
		<tag k="natural" v="water" />
		<tag k="ssr:stedsnr" v="674358" />
	</node>
	<node lat="60.72241666498979" lon="9.035266664335099" id="-33459">
		<tag k="alt_name" v="Brennebekken" />
		<tag k="name" v="Brennbekken" />
		<tag k="ssr:stedsnr" v="674362" />
		<tag k="waterway" v="stream" />
	</node>
	<node lat="60.69223333023164" lon="9.270508325378131" id="-33463">
		<tag k="name" v="Andsjøen" />
		<tag k="natural" v="water" />
		<tag k="ssr:stedsnr" v="674718" />
	</node>
	<node lat="60.76497500093308" lon="8.977294440229864" id="-33475">
		<tag k="alt_name" v="Ørkvatn" />
		<tag k="name" v="Ørkvatnet" />
		<tag k="natural" v="water" />
		<tag k="ssr:stedsnr" v="676286" />
	</node>
	<node lat="60.66658055215997" lon="9.079538895683237" id="-33482">
		<tag k="name" v="Brennhaugtjern" />
		<tag k="natural" v="water" />
		<tag k="ssr:stedsnr" v="707412" />
	</node>
	<node lat="60.69494999696811" lon="8.955277775898214" id="-33490">
		<tag k="name" v="Huseplassbekken" />
		<tag k="ssr:stedsnr" v="725212" />
		<tag k="waterway" v="stream" />
	</node>
	<node lat="60.70059695438976" lon="9.208356227066792" id="-33496">
		<tag k="name" v="Gustavvatnet" />
		<tag k="natural" v="water" />
		<tag k="ssr:stedsnr" v="735334" />
		<tag k="water" v="lake" />
	</node>
	<node lat="60.741649996129034" lon="9.276274997597959" id="-33500">
		<tag k="alt_name" v="Store Grevsjø" />
		<tag k="name" v="Store Grevsjøen" />
		<tag k="natural" v="water" />
		<tag k="ssr:stedsnr" v="735497" />
	</node>
	<node lat="60.68612778054984" lon="8.835641668445495" id="-33512">
		<tag k="name" v="Sprenenbekken" />
		<tag k="ssr:stedsnr" v="768405" />
		<tag k="waterway" v="stream" />
	</node>
	<node lat="60.72995555724992" lon="9.119847230311876" id="-33516">
		<tag k="name" v="Nordsjøen" />
		<tag k="natural" v="bay" />
		<tag k="ssr:stedsnr" v="768824" />
	</node>
	<node lat="60.65194166617099" lon="9.08372778019732" id="-33531">
		<tag k="name" v="Latebekken" />
		<tag k="ssr:stedsnr" v="783454" />
		<tag k="waterway" v="stream" />
	</node>
	<node lat="60.6910722241652" lon="9.1879138816972" id="-33537">
		<tag k="name" v="Kroktjern" />
		<tag k="natural" v="water" />
		<tag k="old_name" v="Kroktjønna" />
		<tag k="ssr:stedsnr" v="795328" />
	</node>
	<node lat="60.72910277718594" lon="9.063505547942398" id="-33540">
		<tag k="name" v="Rukeåne" />
		<tag k="ssr:stedsnr" v="796128" />
		<tag k="waterway" v="stream" />
	</node>
	<node lat="60.707388890102074" lon="8.858141670734256" id="-33543">
		<tag k="alt_name" v="Langtjern" />
		<tag k="name" v="Langetjern" />
		<tag k="natural" v="water" />
		<tag k="ssr:stedsnr" v="796357" />
	</node>
	<node lat="60.719458335818274" lon="9.175377768826783" id="-33544">
		<tag k="alt_name" v="Holtevatn" />
		<tag k="name" v="Holtevatnet" />
		<tag k="natural" v="water" />
		<tag k="ssr:stedsnr" v="796360" />
		<tag k="water" v="lake" />
	</node>
	<node lat="60.68172222338475" lon="9.207480557821071" id="-33561">
		<tag k="alt_name" v="Svartevatn" />
		<tag k="name" v="Svartevatnet" />
		<tag k="natural" v="water" />
		<tag k="ssr:stedsnr" v="917277" />
		<tag k="water" v="lake" />
	</node>
	<node lat="60.649261114579176" lon="8.840163890004533" id="-33569">
		<tag k="name" v="Svøbekken" />
		<tag k="ssr:stedsnr" v="917987" />
		<tag k="waterway" v="stream" />
	</node>
	<node lat="60.85865287449689" lon="8.873166289434602" id="-33571">
		<tag k="alt_name" v="Løggestøltjern" />
		<tag k="name" v="Løggestøltjerne" />
		<tag k="natural" v="water" />
		<tag k="ssr:stedsnr" v="920374" />
	</node>
	<node lat="60.78241388938298" lon="8.861994435922746" id="-33576">
		<tag k="alt_name" v="Svartetjern" />
		<tag k="name" v="Svartetjerne" />
		<tag k="natural" v="water" />
		<tag k="ssr:stedsnr" v="919242" />
	</node>
	<node lat="60.810166665364804" lon="9.041133336730631" id="-33580">
		<tag k="alt_name" v="Trytetjørnan" />
		<tag k="name" v="Trytetjernan" />
		<tag k="natural" v="water" />
		<tag k="ssr:stedsnr" v="919482" />
		<tag k="water" v="lake" />
	</node>
	<node lat="60.77840000283864" lon="8.75441666574263" id="-33588">
		<tag k="name" v="Klevaøyne" />
		<tag k="place" v="islet" />
		<tag k="ssr:stedsnr" v="831791" />
	</node>
	<node lat="60.800099997240004" lon="8.829858333895425" id="-33604">
		<tag k="alt_name" v="Horkantjern" />
		<tag k="name" v="Horkantjerne" />
		<tag k="natural" v="water" />
		<tag k="ssr:stedsnr" v="858009" />
	</node>
	<node lat="60.801294448231864" lon="8.947852775551109" id="-33609">
		<tag k="name" v="Bekrebekken" />
		<tag k="ssr:stedsnr" v="858504" />
		<tag k="waterway" v="stream" />
	</node>
	<node lat="60.859361112055886" lon="8.883736106556153" id="-33614">
		<tag k="name" v="Løgga" />
		<tag k="ssr:stedsnr" v="888426" />
		<tag k="waterway" v="stream" />
	</node>
	<node lat="60.67137499721747" lon="9.133261112660254" id="-33625">
		<tag k="name" v="Galdebekken" />
		<tag k="ssr:stedsnr" v="917212" />
		<tag k="waterway" v="stream" />
	</node>
	<node lat="60.732227776584274" lon="9.136358328994847" id="-33628">
		<tag k="name" v="Myklesjøen" />
		<tag k="natural" v="water" />
		<tag k="ssr:stedsnr" v="917116" />
		<tag k="water" v="lake" />
	</node>
	<node lat="60.78897604549589" lon="9.086319524867323" id="-33634">
		<tag k="name" v="Metubba" />
		<tag k="natural" v="water" />
		<tag k="ssr:stedsnr" v="919251" />
	</node>
	<node lat="60.75216666523924" lon="9.23796666392755" id="-33637">
		<tag k="alt_name" v="Nystølstjerni" />
		<tag k="name" v="Nystøltjern" />
		<tag k="natural" v="water" />
		<tag k="ssr:stedsnr" v="920747" />
	</node>
	<node lat="60.73379078301101" lon="9.002788465914028" id="-33672">
		<tag k="alt_name" v="Avgangtjern" />
		<tag k="name" v="Avgangtjerne" />
		<tag k="natural" v="water" />
		<tag k="ssr:stedsnr" v="7171" />
	</node>
	<node lat="60.74177222660635" lon="8.924380564368208" id="-33674">
		<tag k="name" v="Skreddarbekken" />
		<tag k="ssr:stedsnr" v="6185" />
		<tag k="waterway" v="stream" />
	</node>
	<node lat="60.74673185520909" lon="9.112999403026087" id="-33675">
		<tag k="alt_name" v="Grøtjern" />
		<tag k="name" v="Grøtjerne" />
		<tag k="natural" v="water" />
		<tag k="ssr:stedsnr" v="6194" />
	</node>
	<node lat="60.715085483097546" lon="9.126127203469599" id="-33682">
		<tag k="alt_name" v="Fjølangstjern;Fjølangstj" />
		<tag k="name" v="Fjordungstjerne" />
		<tag k="natural" v="water" />
		<tag k="ssr:stedsnr" v="7343" />
	</node>
	<node lat="60.699175002768456" lon="9.286124993076415" id="-33685">
		<tag k="fixme" v="multiple name tags, choose one and add the other to alt_name" />
		<tag k="name" v="Andsjøbekken;Andsjøelve" />
		<tag k="ssr:stedsnr" v="7684" />
		<tag k="waterway" v="stream" />
	</node>
	<node lat="60.69898495322847" lon="9.317911317669438" id="-33686">
		<tag k="name" v="Høvren" />
		<tag k="natural" v="water" />
		<tag k="ssr:stedsnr" v="7686" />
		<tag k="water" v="lake" />
	</node>
	<node lat="60.758605558359626" lon="8.825436106165757" id="-33707">
		<tag k="name" v="Skinnaugøyi" />
		<tag k="place" v="islet" />
		<tag k="ssr:stedsnr" v="43534" />
	</node>
	<node lat="60.686016669726" lon="9.206430555435327" id="-33713">
		<tag k="alt_name" v="Bergatjerne" />
		<tag k="name" v="Bergatjern" />
		<tag k="natural" v="water" />
		<tag k="ssr:stedsnr" v="57037" />
	</node>
	<node lat="60.77258611398764" lon="9.1262861104245" id="-33715">
		<tag k="name" v="Heimbekken" />
		<tag k="ssr:stedsnr" v="59645" />
		<tag k="waterway" v="stream" />
	</node>
	<node lat="60.74002222547096" lon="9.16523610443026" id="-33719">
		<tag k="name" v="Endefjellbekken" />
		<tag k="ssr:stedsnr" v="67189" />
		<tag k="waterway" v="stream" />
	</node>
	<node lat="60.701250003336796" lon="9.19727777784242" id="-33720">
		<tag k="alt_name" v="Brilletjern" />
		<tag k="name" v="Brilletjerne" />
		<tag k="natural" v="water" />
		<tag k="ssr:stedsnr" v="67357" />
	</node>
	<node lat="60.74359999685299" lon="9.300555562362833" id="-33722">
		<tag k="alt_name" v="Lille Grevsjø" />
		<tag k="name" v="Vesle Grevsjøen" />
		<tag k="natural" v="water" />
		<tag k="ssr:stedsnr" v="68523" />
	</node>
	<node lat="60.77468055363621" lon="9.171730547908663" id="-33732">
		<tag k="alt_name" v="Damtjerne" />
		<tag k="name" v="Damtjern" />
		<tag k="natural" v="water" />
		<tag k="ssr:stedsnr" v="69313" />
	</node>
	<node lat="60.774944443406234" lon="9.128994439342371" id="-33733">
		<tag k="name" v="Svilestølbekken" />
		<tag k="ssr:stedsnr" v="69314" />
		<tag k="waterway" v="stream" />
	</node>
	<node lat="60.769830555690675" lon="9.034786110195887" id="-33735">
		<tag k="name" v="Drammedalsbekken" />
		<tag k="ssr:stedsnr" v="69322" />
		<tag k="waterway" v="stream" />
	</node>
	<node lat="60.77007777797226" lon="8.928224995383097" id="-33736">
		<tag k="alt_name" v="Langetjern" />
		<tag k="name" v="Langtjerne" />
		<tag k="natural" v="water" />
		<tag k="ssr:stedsnr" v="69323" />
	</node>
	<node lat="60.77737222541011" lon="8.907461117483507" id="-33737">
		<tag k="alt_name" v="Svartetjern" />
		<tag k="name" v="Svartetjerne" />
		<tag k="natural" v="water" />
		<tag k="ssr:stedsnr" v="69265" />
	</node>
	<node lat="60.82975000099691" lon="8.826152770263755" id="-33746">
		<tag k="name" v="Bjørnabekken" />
		<tag k="ssr:stedsnr" v="99493" />
		<tag k="waterway" v="stream" />
	</node>
	<node lat="60.66407499857694" lon="9.03809166222482" id="-33750">
		<tag k="name" v="Brannøyni" />
		<tag k="place" v="islet" />
		<tag k="ssr:stedsnr" v="101388" />
	</node>
	<node lat="60.74681110976384" lon="8.968358341717485" id="-33757">
		<tag k="alt_name" v="Ralletjerne" />
		<tag k="name" v="Ralletjern" />
		<tag k="natural" v="water" />
		<tag k="ssr:stedsnr" v="107985" />
	</node>
	<node lat="60.7156583351319" lon="8.82207777665274" id="-33764">
		<tag k="name" v="Høysjøen" />
		<tag k="natural" v="water" />
		<tag k="ssr:stedsnr" v="127872" />
	</node>
	<node lat="60.74769999803476" lon="8.767986110455281" id="-33768">
		<tag k="name" v="Vola" />
		<tag k="ssr:stedsnr" v="127833" />
		<tag k="waterway" v="river" />
	</node>
	<node lat="60.735688888300764" lon="9.176749997240819" id="-33771">
		<tag k="alt_name" v="Brøddkjølen" />
		<tag k="name" v="Broddkjølen" />
		<tag k="natural" v="water" />
		<tag k="ssr:stedsnr" v="128119" />
	</node>
	<node lat="60.67595277723166" lon="9.11367778278804" id="-33774">
		<tag k="name" v="Pålløken" />
		<tag k="place" v="locality" />
		<tag k="ssr:stedsnr" v="128229" />
	</node>
	<node lat="60.715408332857834" lon="9.146419453524082" id="-33777">
		<tag k="name" v="Holtebekken" />
		<tag k="ssr:stedsnr" v="128329" />
		<tag k="waterway" v="stream" />
	</node>
	<node lat="60.69093333505347" lon="9.100897223846022" id="-33779">
		<tag k="alt_name" v="Veikultjerni" />
		<tag k="name" v="Veikultjern" />
		<tag k="natural" v="water" />
		<tag k="old_name" v="Veikultjønna" />
		<tag k="ssr:stedsnr" v="128258" />
	</node>
	<node lat="60.684969443282924" lon="8.926327772835528" id="-33780">
		<tag k="fixme" v="multiple name tags, choose one and add the other to alt_name" />
		<tag k="name" v="Veltebekken;Mobekken" />
		<tag k="ssr:stedsnr" v="128266" />
		<tag k="waterway" v="stream" />
	</node>
	<node lat="60.682874632320754" lon="9.202153418531037" id="-33782">
		<tag k="alt_name" v="Laksa" />
		<tag k="name" v="Strinda" />
		<tag k="natural" v="water" />
		<tag k="ssr:stedsnr" v="128281" />
	</node>
	<node lat="60.81453611187312" lon="9.07009165822126" id="-33784">
		<tag k="name" v="Lyserbekken" />
		<tag k="ssr:stedsnr" v="129485" />
		<tag k="waterway" v="stream" />
	</node>
	<node lat="60.808952778200705" lon="8.933761104833177" id="-33785">
		<tag k="name" v="Einarsetbekken" />
		<tag k="ssr:stedsnr" v="129490" />
		<tag k="waterway" v="stream" />
	</node>
	<node lat="60.75221110765312" lon="9.018291663973658" id="-33807">
		<tag k="alt_name" v="Mosahaugtjønnan" />
		<tag k="name" v="Mosahaugtjernan" />
		<tag k="natural" v="water" />
		<tag k="old_name" v="Mosahaugtj" />
		<tag k="ssr:stedsnr" v="174859" />
		<tag k="water" v="lake" />
	</node>
	<node lat="60.76065000214886" lon="8.815552772789697" id="-33814">
		<tag k="name" v="Hemsil" />
		<tag k="ssr:stedsnr" v="189112" />
		<tag k="waterway" v="river" />
	</node>
	<node lat="60.670158333752184" lon="9.111208340954501" id="-33816">
		<tag k="alt_name" v="Nordre Langtjern" />
		<tag k="name" v="Nordre Langetjern" />
		<tag k="natural" v="water" />
		<tag k="ssr:stedsnr" v="189224" />
	</node>
	<node lat="60.82050278129445" lon="9.03848056193423" id="-33829">
		<tag k="name" v="Ørterbekken" />
		<tag k="ssr:stedsnr" v="191405" />
		<tag k="waterway" v="stream" />
	</node>
	<node lat="60.80582499877551" lon="9.057149992533969" id="-33832">
		<tag k="name" v="Vesle Lyseren" />
		<tag k="natural" v="water" />
		<tag k="ssr:stedsnr" v="190488" />
	</node>
	<node lat="60.753896577623145" lon="9.005266149110613" id="-33835">
		<tag k="alt_name" v="Nedre Fesøymtjern" />
		<tag k="name" v="Nedre Fesheimtjerne" />
		<tag k="natural" v="water" />
		<tag k="ssr:stedsnr" v="191300" />
	</node>
	<node lat="60.80861944714045" lon="9.02177777542022" id="-33858">
		<tag k="name" v="Fåliløken" />
		<tag k="ssr:stedsnr" v="281389" />
		<tag k="waterway" v="stream" />
	</node>
	<node lat="60.77229999973394" lon="8.969672213592348" id="-33868">
		<tag k="name" v="Gørtjønnan" />
		<tag k="natural" v="water" />
		<tag k="ssr:stedsnr" v="285553" />
		<tag k="water" v="lake" />
	</node>
	<node lat="60.861727777764614" lon="8.89079722026833" id="-33876">
		<tag k="name" v="Brennodden" />
		<tag k="natural" v="shoal" />
		<tag k="place" v="locality" />
		<tag k="ssr:stedsnr" v="300055" />
	</node>
	<node lat="60.68304629216991" lon="9.196135097142065" id="-33890">
		<tag k="alt_name" v="Strindtjern" />
		<tag k="name" v="Laksa" />
		<tag k="natural" v="water" />
		<tag k="ssr:stedsnr" v="310307" />
	</node>
	<node lat="60.76869166465365" lon="8.820680551807346" id="-33895">
		<tag k="name" v="Gjuva" />
		<tag k="ssr:stedsnr" v="311027" />
		<tag k="waterway" v="stream" />
	</node>
	<node lat="60.771735600055" lon="8.936937216833996" id="-33901">
		<tag k="alt_name" v="Kroktjern" />
		<tag k="name" v="Kroktjerne" />
		<tag k="natural" v="water" />
		<tag k="ssr:stedsnr" v="312292" />
	</node>
	<node lat="60.767369446505185" lon="9.076152781964295" id="-33902">
		<tag k="name" v="Steintjerne" />
		<tag k="natural" v="water" />
		<tag k="ssr:stedsnr" v="312293" />
	</node>
	<node lat="60.776950003367624" lon="9.060205551378619" id="-33903">
		<tag k="alt_name" v="Tubbehaugtjern" />
		<tag k="name" v="Tubbehaugtjerne" />
		<tag k="natural" v="water" />
		<tag k="ssr:stedsnr" v="312300" />
	</node>
	<node lat="60.816116670271256" lon="8.985402772261097" id="-33905">
		<tag k="name" v="Ørterstølbekken" />
		<tag k="ssr:stedsnr" v="312482" />
		<tag k="waterway" v="stream" />
	</node>
	<node lat="60.85262247067423" lon="8.862889056816414" id="-33909">
		<tag k="alt_name" v="Blekketjern" />
		<tag k="name" v="Blekketjerne" />
		<tag k="natural" v="water" />
		<tag k="ssr:stedsnr" v="313405" />
	</node>
	<node lat="60.68238055891031" lon="8.85420555378708" id="-33927">
		<tag k="name" v="Rotneimsøyne" />
		<tag k="place" v="islet" />
		<tag k="ssr:stedsnr" v="343388" />
	</node>
	<node lat="60.74163332928713" lon="8.948519446499297" id="-33932">
		<tag k="name" v="Rundetjern" />
		<tag k="natural" v="water" />
		<tag k="ssr:stedsnr" v="349984" />
	</node>
	<node lat="60.7514388896574" lon="8.995138891905473" id="-33943">
		<tag k="name" v="Fesøymbekken" />
		<tag k="ssr:stedsnr" v="362966" />
		<tag k="waterway" v="stream" />
	</node>
	<node lat="60.7420333376994" lon="8.965116669024379" id="-33944">
		<tag k="alt_name" v="Beitehaugtjern" />
		<tag k="name" v="Beitehaugtjerne" />
		<tag k="natural" v="water" />
		<tag k="ssr:stedsnr" v="370208" />
	</node>
	<node lat="60.72462832748382" lon="9.002025354594277" id="-33948">
		<tag k="name" v="Røytjern" />
		<tag k="natural" v="water" />
		<tag k="ssr:stedsnr" v="371151" />
		<tag k="water" v="lake" />
	</node>
	<node lat="60.76368547632835" lon="9.079356548697993" id="-33957">
		<tag k="alt_name" v="Jakopstjern" />
		<tag k="name" v="Jakopstjerne" />
		<tag k="natural" v="water" />
		<tag k="ssr:stedsnr" v="372306" />
	</node>
	<node lat="60.76508610832736" lon="8.997980555807244" id="-33958">
		<tag k="alt_name" v="Teinehøl" />
		<tag k="name" v="Teinehølen" />
		<tag k="place" v="locality" />
		<tag k="ssr:stedsnr" v="372312" />
	</node>
	<node lat="60.751466670813365" lon="8.771041657867242" id="-33964">
		<tag k="alt_name" v="Omundbekken" />
		<tag k="name" v="Ommundbekken" />
		<tag k="ssr:stedsnr" v="373044" />
		<tag k="waterway" v="stream" />
	</node>
	<node lat="60.84693610846413" lon="9.148933333948145" id="-33965">
		<tag k="name" v="Tisleia" />
		<tag k="ssr:stedsnr" v="373459" />
		<tag k="waterway" v="river" />
	</node>
	<node lat="60.72373333404397" lon="9.002694440372485" id="-33970">
		<tag k="name" v="Nedre Røytjern" />
		<tag k="natural" v="water" />
		<tag k="ssr:stedsnr" v="404775" />
	</node>
	<node lat="60.724308335400536" lon="8.804908330686693" id="-33973">
		<tag k="name" v="Habbesettjern" />
		<tag k="natural" v="water" />
		<tag k="ssr:stedsnr" v="405164" />
	</node>
	<node lat="60.689324998186265" lon="9.017486119065834" id="-33977">
		<tag k="name" v="Storøyne" />
		<tag k="place" v="islet" />
		<tag k="ssr:stedsnr" v="406016" />
	</node>
	<node lat="60.82424721929933" lon="8.799391674915935" id="-33981">
		<tag k="alt_name" v="Skinhovdtjernan" />
		<tag k="name" v="Skinhovdtjern" />
		<tag k="natural" v="water" />
		<tag k="ssr:stedsnr" v="413420" />
	</node>
	<node lat="60.66736666898529" lon="9.096172226893676" id="-33985">
		<tag k="alt_name" v="Påltjern" />
		<tag k="name" v="Påltjerne" />
		<tag k="natural" v="water" />
		<tag k="ssr:stedsnr" v="431287" />
	</node>
	<node lat="60.681288890813136" lon="9.10990833678616" id="-33991">
		<tag k="name" v="Runda" />
		<tag k="natural" v="water" />
		<tag k="ssr:stedsnr" v="432278" />
	</node>
	<node lat="60.82961477778934" lon="8.816742460048683" id="-33992">
		<tag k="alt_name" v="Prestetjern" />
		<tag k="name" v="Prestetjerne" />
		<tag k="natural" v="water" />
		<tag k="ssr:stedsnr" v="433220" />
	</node>
	<node lat="60.78206389197623" lon="8.871475003106646" id="-33995">
		<tag k="name" v="Hattebekken" />
		<tag k="ssr:stedsnr" v="433242" />
		<tag k="waterway" v="stream" />
	</node>
	<node lat="60.83004167099565" lon="9.003677785339272" id="-34002">
		<tag k="alt_name" v="Lille Ørteren" />
		<tag k="name" v="Vesle Ørteren" />
		<tag k="natural" v="water" />
		<tag k="ssr:stedsnr" v="434396" />
	</node>
	<node lat="60.832977778966715" lon="8.98569166980773" id="-34003">
		<tag k="name" v="Gurisetbekken" />
		<tag k="ssr:stedsnr" v="434422" />
		<tag k="waterway" v="stream" />
	</node>
	<node lat="60.69091666888884" lon="8.823697227335284" id="-34017">
		<tag k="name" v="Verma" />
		<tag k="ssr:stedsnr" v="525434" />
		<tag k="waterway" v="stream" />
	</node>
	<node lat="60.71933333066143" lon="8.804133339120852" id="-34022">
		<tag k="name" v="Vesle Svarabergtjern" />
		<tag k="natural" v="water" />
		<tag k="ssr:stedsnr" v="527185" />
	</node>
	<node lat="60.663786108904304" lon="8.894175006976987" id="-34030">
		<tag k="name" v="Jegleimtjern" />
		<tag k="natural" v="water" />
		<tag k="ssr:stedsnr" v="540445" />
	</node>
	<node lat="60.70494444209476" lon="9.221886120205097" id="-34032">
		<tag k="name" v="Kroktjern" />
		<tag k="natural" v="water" />
		<tag k="ssr:stedsnr" v="543051" />
	</node>
	<node lat="60.69198333640879" lon="9.202694435551228" id="-34039">
		<tag k="name" v="Mattismotjerne" />
		<tag k="natural" v="water" />
		<tag k="ssr:stedsnr" v="552330" />
	</node>
	<node lat="60.74104721885162" lon="9.203938883424344" id="-34040">
		<tag k="alt_name" v="Nysettjern" />
		<tag k="name" v="Nysettjerne" />
		<tag k="natural" v="water" />
		<tag k="ssr:stedsnr" v="552178" />
	</node>
	<node lat="60.7302937603762" lon="9.205425105110367" id="-34047">
		<tag k="alt_name" v="Grøsetvatn" />
		<tag k="name" v="Grøsetvatnet" />
		<tag k="natural" v="water" />
		<tag k="ssr:stedsnr" v="553129" />
		<tag k="water" v="lake" />
	</node>
	<node lat="60.672852777050444" lon="9.176788892242623" id="-34048">
		<tag k="alt_name" v="Nyvolltjern" />
		<tag k="name" v="Nyvolltjerne" />
		<tag k="natural" v="water" />
		<tag k="ssr:stedsnr" v="553243" />
	</node>
	<node lat="60.75331936213183" lon="9.180418953637146" id="-34051">
		<tag k="alt_name" v="Flagetjern" />
		<tag k="name" v="Flagetjerne" />
		<tag k="natural" v="water" />
		<tag k="ssr:stedsnr" v="554357" />
	</node>
	<node lat="60.672213890397366" lon="8.803411112694478" id="-34066">
		<tag k="name" v="Bukkesteinfossen" />
		<tag k="natural" v="waterfall" />
		<tag k="ssr:stedsnr" v="586379" />
	</node>
	<node lat="60.69791944475139" lon="9.010586114143653" id="-34071">
		<tag k="name" v="Bukkeøyne" />
		<tag k="place" v="islet" />
		<tag k="ssr:stedsnr" v="587170" />
	</node>
	<node lat="60.66672222647893" lon="8.847433332263343" id="-34075">
		<tag k="name" v="Svartedalsbekken" />
		<tag k="ssr:stedsnr" v="601439" />
		<tag k="waterway" v="stream" />
	</node>
	<node lat="60.70399999973415" lon="9.046183324995134" id="-34088">
		<tag k="name" v="Liaåne" />
		<tag k="ssr:stedsnr" v="613383" />
		<tag k="waterway" v="river" />
	</node>
	<node lat="60.69632221922829" lon="9.20623889538446" id="-34089">
		<tag k="alt_name" v="Trytetjern" />
		<tag k="name" v="Trytetjerne" />
		<tag k="natural" v="water" />
		<tag k="ssr:stedsnr" v="613329" />
	</node>
	<node lat="60.71594166879337" lon="9.300652770311652" id="-34091">
		<tag k="alt_name" v="Raudalselve;Raudalsbekken" />
		<tag k="name" v="Rauddalselve" />
		<tag k="ssr:stedsnr" v="613537" />
		<tag k="waterway" v="stream" />
	</node>
	<node lat="60.83238472401402" lon="8.844529278512235" id="-34099">
		<tag k="alt_name" v="Lauvsjø" />
		<tag k="name" v="Lauvsjøen" />
		<tag k="natural" v="water" />
		<tag k="ssr:stedsnr" v="615185" />
		<tag k="water" v="lake" />
	</node>
	<node lat="60.770130558956026" lon="8.946838889451472" id="-34101">
		<tag k="alt_name" v="Fantesekjulløken" />
		<tag k="name" v="Fanteskjulløken" />
		<tag k="natural" v="water" />
		<tag k="ssr:stedsnr" v="615277" />
	</node>
	<node lat="60.77040833411438" lon="9.048569435690345" id="-34103">
		<tag k="alt_name" v="Øytjern" />
		<tag k="name" v="Øytjerne" />
		<tag k="natural" v="water" />
		<tag k="ssr:stedsnr" v="615279" />
	</node>
	<node lat="60.8122055513463" lon="8.92114445348728" id="-34106">
		<tag k="name" v="Veslefjelltjerne" />
		<tag k="natural" v="water" />
		<tag k="ssr:stedsnr" v="615474" />
	</node>
	<node lat="60.696327780655004" lon="9.172633336402805" id="-34120">
		<tag k="name" v="Nonstjern" />
		<tag k="natural" v="water" />
		<tag k="ssr:stedsnr" v="648028" />
	</node>
	<node lat="60.68208055649637" lon="9.024566658361852" id="-34122">
		<tag k="name" v="Plassevju" />
		<tag k="place" v="locality" />
		<tag k="ssr:stedsnr" v="648132" />
	</node>
	<node lat="60.77842500252385" lon="8.77957223055417" id="-34128">
		<tag k="name" v="Mattisbekken" />
		<tag k="ssr:stedsnr" v="648818" />
		<tag k="waterway" v="stream" />
	</node>
	<node lat="60.66645000247088" lon="9.109583333105553" id="-34141">
		<tag k="alt_name" v="Søre Langtjern;Søndre Langetjern" />
		<tag k="name" v="Søre Langetjern" />
		<tag k="natural" v="water" />
		<tag k="ssr:stedsnr" v="735240" />
	</node>
	<node lat="60.66163889015701" lon="9.152925004552202" id="-34143">
		<tag k="alt_name" v="Dyretj;Møntjern" />
		<tag k="name" v="Dyretjern" />
		<tag k="natural" v="water" />
		<tag k="ssr:stedsnr" v="735255" />
	</node>
	<node lat="60.748130559205414" lon="9.19888610520706" id="-34151">
		<tag k="alt_name" v="Hestetjern" />
		<tag k="name" v="Hestetjerne" />
		<tag k="natural" v="water" />
		<tag k="ssr:stedsnr" v="735160" />
	</node>
	<node lat="60.63886944163864" lon="8.854238880245799" id="-34172">
		<tag k="name" v="Smylihølet" />
		<tag k="natural" v="water" />
		<tag k="ssr:stedsnr" v="783443" />
		<tag k="water" v="pond" />
	</node>
	<node lat="60.68555832988211" lon="8.96036111162184" id="-34189">
		<tag k="fixme" v="multiple name tags, choose one and add the other to alt_name" />
		<tag k="name" v="Kvernabekken;Husenplassbekken" />
		<tag k="ssr:stedsnr" v="795383" />
		<tag k="waterway" v="stream" />
	</node>
	<node lat="60.72439722030227" lon="9.045386114989775" id="-34197">
		<tag k="name" v="Sandbekken" />
		<tag k="ssr:stedsnr" v="796346" />
		<tag k="waterway" v="stream" />
	</node>
	<node lat="60.79312318309912" lon="9.031227546966136" id="-34200">
		<tag k="alt_name" v="Lislalitjern" />
		<tag k="name" v="Lislalitjerne" />
		<tag k="natural" v="water" />
		<tag k="ssr:stedsnr" v="797245" />
	</node>
	<node lat="60.7732305518165" lon="9.065005560330713" id="-34206">
		<tag k="alt_name" v="Daletjern" />
		<tag k="name" v="Daletjerne" />
		<tag k="natural" v="water" />
		<tag k="ssr:stedsnr" v="797296" />
	</node>
	<node lat="60.76271944733143" lon="9.12608054977289" id="-34230">
		<tag k="name" v="Fjellbekken" />
		<tag k="ssr:stedsnr" v="848662" />
		<tag k="waterway" v="stream" />
	</node>
	<node lat="60.737663888645066" lon="8.941758329555162" id="-34234">
		<tag k="alt_name" v="Surtebytjern" />
		<tag k="name" v="Surtebytjerne" />
		<tag k="natural" v="water" />
		<tag k="ssr:stedsnr" v="856159" />
	</node>
	<node lat="60.716558334733385" lon="8.91368332796125" id="-34244">
		<tag k="name" v="Spildra" />
		<tag k="ssr:stedsnr" v="857152" />
		<tag k="waterway" v="river" />
	</node>
	<node lat="60.70551110702304" lon="9.23278333790898" id="-34253">
		<tag k="name" v="Pipesjøen" />
		<tag k="natural" v="water" />
		<tag k="ssr:stedsnr" v="857571" />
	</node>
	<node lat="60.80298333528984" lon="8.818319445066916" id="-34257">
		<tag k="name" v="Logga" />
		<tag k="ssr:stedsnr" v="858243" />
		<tag k="waterway" v="stream" />
	</node>
	<node lat="60.754948540828345" lon="9.103078192724842" id="-34266">
		<tag k="alt_name" v="Steinstøltjern" />
		<tag k="name" v="Steinstøltjerne" />
		<tag k="natural" v="water" />
		<tag k="ssr:stedsnr" v="858343" />
	</node>
	<node lat="60.73262222207509" lon="9.092188880193532" id="-34281">
		<tag k="alt_name" v="Ruketjernane" />
		<tag k="loc_name" v="Ruketjennan" />
		<tag k="name" v="Ruketjernan" />
		<tag k="natural" v="water" />
		<tag k="old_name" v="Ruketjønnann" />
		<tag k="ssr:stedsnr" v="951171" />
		<tag k="water" v="lake" />
	</node>
	<node lat="60.67761944473514" lon="9.086980561163285" id="-34285">
		<tag k="name" v="Øvre Litjern" />
		<tag k="natural" v="water" />
		<tag k="ssr:stedsnr" v="952021" />
	</node>
	<node lat="60.697387299806046" lon="8.949739954076847" id="-34634">
		<tag k="name" v="Storøyne" />
		<tag k="place" v="island" />
		<tag k="ssr:stedsnr" v="1082420" />
	</node>
</osm>
