<?xml version="1.0" encoding="UTF-8"?>
<osm generator="osmapis" version="0.6">
	<node id="-262142" lat="60.7300499964" lon="9.25472500527">
		<tag k="name" v="Kyrkja" />
		<tag k="natural" v="hill" />
		<tag k="place" v="locality" />
		<tag k="ssr:stedsnr" v="128546" />
	</node>
	<node id="-262653" lat="60.7158749986" lon="9.04936944214">
		<tag k="name" v="Skåledalen" />
		<tag k="natural" v="valley" />
		<tag k="place" v="locality" />
		<tag k="ssr:stedsnr" v="950761" />
	</node>
	<node id="-262650" lat="60.8316250044" lon="8.89360277068">
		<tag k="name" v="Vesle Auenhaugen" />
		<tag k="natural" v="hill" />
		<tag k="place" v="locality" />
		<tag k="ssr:stedsnr" v="859412" />
	</node>
	<node id="-261624" lat="60.7639555593" lon="8.72452778237">
		<tag k="alt_name" v="Søndre Bellebuhovda;Bellebuhovda, s" />
		<tag k="name" v="Søre Bellebuhovda" />
		<tag k="natural" v="hill" />
		<tag k="place" v="locality" />
		<tag k="ssr:stedsnr" v="494047" />
	</node>
	<node id="-262131" lat="60.74708056" lon="9.172997223">
		<tag k="fixme" v="consider natural=peak for the most distinct mountains in the district" />
		<tag k="name" v="Endefjell" />
		<tag k="natural" v="hill" />
		<tag k="place" v="locality" />
		<tag k="ssr:stedsnr" v="128133" />
	</node>
	<node id="-262130" lat="60.7301416711" lon="8.99752222337">
		<tag k="fixme" v="consider natural=peak for the most distinct mountains in the district" />
		<tag k="name" v="Kluftehovda" />
		<tag k="natural" v="hill" />
		<tag k="place" v="locality" />
		<tag k="ssr:stedsnr" v="128129" />
	</node>
	<node id="-261459" lat="60.7747861135" lon="8.87455000325">
		<tag k="name" v="Åsehøgde" />
		<tag k="natural" v="hill" />
		<tag k="place" v="locality" />
		<tag k="ssr:stedsnr" v="129314" />
	</node>
	<node id="-261616" lat="60.8333527799" lon="8.80138334023">
		<tag k="fixme" v="consider natural=peak for the most distinct mountains in the district" />
		<tag k="name" v="Hjartingberget" />
		<tag k="natural" v="hill" />
		<tag k="place" v="locality" />
		<tag k="ssr:stedsnr" v="493213" />
	</node>
	<node id="-262639" lat="60.7597472254" lon="9.11744445195">
		<tag k="name" v="Rundehøgde" />
		<tag k="natural" v="hill" />
		<tag k="place" v="locality" />
		<tag k="ssr:stedsnr" v="858300" />
	</node>
	<node id="-262635" lat="60.7888388857" lon="9.11297500293">
		<tag k="name" v="Brennflæi" />
		<tag k="natural" v="hill" />
		<tag k="place" v="locality" />
		<tag k="ssr:stedsnr" v="858263" />
	</node>
	<node id="-261608" lat="60.7301166663" lon="9.33230000686">
		<tag k="fixme" v="consider natural=peak for the most distinct mountains in the district" />
		<tag k="name" v="Kvilingberget" />
		<tag k="natural" v="hill" />
		<tag k="place" v="locality" />
		<tag k="ssr:stedsnr" v="492508" />
	</node>
	<node id="-261607" lat="60.7121805555" lon="9.29753333907">
		<tag k="fixme" v="consider natural=peak for the most distinct mountains in the district" />
		<tag k="name" v="Hovda" />
		<tag k="natural" v="hill" />
		<tag k="place" v="locality" />
		<tag k="ssr:stedsnr" v="492504" />
	</node>
	<node id="-262628" lat="60.7103944421" lon="8.87355556222">
		<tag k="name" v="Skarahovda" />
		<tag k="natural" v="hill" />
		<tag k="old_name" v="Skagahøgdi" />
		<tag k="place" v="locality" />
		<tag k="ssr:stedsnr" v="857377" />
	</node>
	<node id="-262626" lat="60.7184916652" lon="9.13552777623">
		<tag k="fixme" v="consider natural=peak for the most distinct mountains in the district" />
		<tag k="name" v="Store Ruken" />
		<tag k="natural" v="hill" />
		<tag k="place" v="locality" />
		<tag k="ssr:stedsnr" v="857365" />
	</node>
	<node id="-262113" lat="60.7108138913" lon="8.86349444945">
		<tag k="name" v="Storemyrkneikan" />
		<tag k="natural" v="slope" />
		<tag k="place" v="locality" />
		<tag k="ssr:stedsnr" v="118189" />
	</node>
	<node id="-262111" lat="60.7165833291" lon="8.78996388653">
		<tag k="name" v="Søre Øystølhovda" />
		<tag k="natural" v="hill" />
		<tag k="place" v="locality" />
		<tag k="ssr:stedsnr" v="116469" />
	</node>
	<node id="-262110" lat="60.7183027798" lon="8.7821999978">
		<tag k="name" v="Nordre Øystølhovda" />
		<tag k="natural" v="hill" />
		<tag k="place" v="locality" />
		<tag k="ssr:stedsnr" v="116468" />
	</node>
	<node id="-261596" lat="60.6769166667" lon="8.9974555542">
		<tag k="fixme" v="consider natural=peak for the most distinct mountains in the district" />
		<tag k="name" v="Venlinuten" />
		<tag k="natural" v="hill" />
		<tag k="place" v="locality" />
		<tag k="ssr:stedsnr" v="492284" />
	</node>
	<node id="-261595" lat="60.6824999965" lon="9.19198055268">
		<tag k="fixme" v="consider natural=peak for the most distinct mountains in the district" />
		<tag k="name" v="Flehaugen" />
		<tag k="natural" v="hill" />
		<tag k="place" v="locality" />
		<tag k="ssr:stedsnr" v="492278" />
	</node>
	<node id="-261594" lat="60.677797222" lon="9.00823611434">
		<tag k="name" v="Eikleslie" />
		<tag k="natural" v="slope" />
		<tag k="place" v="locality" />
		<tag k="ssr:stedsnr" v="492268" />
	</node>
	<node id="-262617" lat="60.661211108" lon="8.90962499521">
		<tag k="alt_name" v="Benkehøgdi" />
		<tag k="name" v="Benkehovda" />
		<tag k="natural" v="hill" />
		<tag k="place" v="locality" />
		<tag k="ssr:stedsnr" v="856272" />
	</node>
	<node id="-262211" lat="60.7674333337" lon="9.25781667525">
		<tag k="fixme" v="consider natural=peak for the most distinct mountains in the district" />
		<tag k="name" v="Skurveknatten" />
		<tag k="natural" v="hill" />
		<tag k="place" v="locality" />
		<tag k="ssr:stedsnr" v="191765" />
	</node>
	<node id="-262102" lat="60.7190638862" lon="8.79729722768">
		<tag k="name" v="Blåberget" />
		<tag k="natural" v="hill" />
		<tag k="place" v="locality" />
		<tag k="ssr:stedsnr" v="102191" />
	</node>
	<node id="-262613" lat="60.7408388866" lon="8.95880834129">
		<tag k="name" v="Grånatten" />
		<tag k="natural" v="hill" />
		<tag k="place" v="locality" />
		<tag k="ssr:stedsnr" v="856185" />
	</node>
	<node id="-262100" lat="60.7040000029" lon="9.08276388445">
		<tag k="name" v="Meånhaugen" />
		<tag k="natural" v="hill" />
		<tag k="place" v="locality" />
		<tag k="ssr:stedsnr" v="102182" />
	</node>
	<node id="-262610" lat="60.6995472196" lon="8.85544721428">
		<tag k="name" v="Nedstedokkberget" />
		<tag k="natural" v="hill" />
		<tag k="place" v="locality" />
		<tag k="ssr:stedsnr" v="846175" />
	</node>
	<node id="-262097" lat="60.7083750003" lon="9.12590555113">
		<tag k="name" v="Brennhaugen" />
		<tag k="natural" v="hill" />
		<tag k="place" v="locality" />
		<tag k="ssr:stedsnr" v="102028" />
	</node>
	<node id="-262096" lat="60.6985333292" lon="9.13516944737">
		<tag k="name" v="Skaret" />
		<tag k="natural" v="valley" />
		<tag k="place" v="locality" />
		<tag k="ssr:stedsnr" v="102027" />
	</node>
	<node id="-262648" lat="60.7815000004" lon="8.85689443552">
		<tag k="name" v="Høgehaug" />
		<tag k="natural" v="hill" />
		<tag k="place" v="locality" />
		<tag k="ssr:stedsnr" v="858250" />
	</node>
	<node id="-262094" lat="60.7399027764" lon="8.853797215">
		<tag k="name" v="Magnetunberget" />
		<tag k="natural" v="hill" />
		<tag k="place" v="locality" />
		<tag k="ssr:stedsnr" v="101996" />
	</node>
	<node id="-261577" lat="60.8256972252" lon="9.01960277452">
		<tag k="name" v="Oselie" />
		<tag k="natural" v="slope" />
		<tag k="place" v="locality" />
		<tag k="ssr:stedsnr" v="341538" />
	</node>
	<node id="-262087" lat="60.8390972206" lon="8.84721945311">
		<tag k="name" v="Bøttehøgde" />
		<tag k="natural" v="hill" />
		<tag k="place" v="locality" />
		<tag k="ssr:stedsnr" v="99476" />
	</node>
	<node id="-261574" lat="60.7460777777" lon="8.98103334114">
		<tag k="name" v="Fjerdingsbekkhaugen" />
		<tag k="natural" v="hill" />
		<tag k="place" v="locality" />
		<tag k="ssr:stedsnr" v="483978" />
	</node>
	<node id="-262083" lat="60.8515694463" lon="8.85041666787">
		<tag k="name" v="Kniphøgde" />
		<tag k="natural" v="hill" />
		<tag k="place" v="locality" />
		<tag k="ssr:stedsnr" v="70392" />
	</node>
	<node id="-262594" lat="60.8100833317" lon="8.79130000851">
		<tag k="name" v="Røykingsethaugen" />
		<tag k="natural" v="hill" />
		<tag k="place" v="locality" />
		<tag k="ssr:stedsnr" v="827293" />
	</node>
	<node id="-262078" lat="60.7584361124" lon="9.18085555237">
		<tag k="alt_name" v="Nystølfjelli;Nystølsfjellet;Nystølsfjelli;Nystølfjell" />
		<tag k="fixme" v="consider natural=peak for the most distinct mountains in the district" />
		<tag k="name" v="Nystølfjellet" />
		<tag k="natural" v="hill" />
		<tag k="place" v="locality" />
		<tag k="ssr:stedsnr" v="69351" />
	</node>
	<node id="-262077" lat="60.7098861093" lon="9.25595276894">
		<tag k="name" v="Bjørnaskardet" />
		<tag k="natural" v="valley" />
		<tag k="place" v="locality" />
		<tag k="ssr:stedsnr" v="68556" />
	</node>
	<node id="-262587" lat="60.7703722197" lon="8.89868888863">
		<tag k="alt_name" v="Skarhøgde" />
		<tag k="name" v="Skardhøgde" />
		<tag k="natural" v="hill" />
		<tag k="old_name" v="Skardhøgda;Skarhøgda" />
		<tag k="place" v="locality" />
		<tag k="ssr:stedsnr" v="797299" />
	</node>
	<node id="-261560" lat="60.7756666699" lon="8.79976667022">
		<tag k="alt_name" v="Bjørnemyrdal" />
		<tag k="name" v="Bjørnemyrdalen" />
		<tag k="natural" v="valley" />
		<tag k="place" v="locality" />
		<tag k="ssr:stedsnr" v="311020" />
	</node>
	<node id="-262388" lat="60.7254888848" lon="8.82709999748">
		<tag k="name" v="Dugurdshovda" />
		<tag k="natural" v="hill" />
		<tag k="place" v="locality" />
		<tag k="ssr:stedsnr" v="534301" />
	</node>
	<node id="-262070" lat="60.6741916689" lon="8.93731388123">
		<tag k="name" v="Mjellhovdskridu" />
		<tag k="place" v="locality" />
		<tag k="ssr:stedsnr" v="68314" />
	</node>
	<node id="-262060" lat="60.739697226" lon="9.10476945231">
		<tag k="fixme" v="consider natural=peak for the most distinct mountains in the district" />
		<tag k="name" v="Stegaskardnuten" />
		<tag k="natural" v="hill" />
		<tag k="place" v="locality" />
		<tag k="ssr:stedsnr" v="67186" />
	</node>
	<node id="-262055" lat="60.7642805585" lon="9.24819167069">
		<tag k="name" v="Langeleina" />
		<tag k="natural" v="slope" />
		<tag k="place" v="locality" />
		<tag k="ssr:stedsnr" v="59631" />
	</node>
	<node id="-261542" lat="60.74660278" lon="9.30095833874">
		<tag k="fixme" v="consider natural=peak for the most distinct mountains in the district" />
		<tag k="name" v="Grevsjøfjellet" />
		<tag k="natural" v="hill" />
		<tag k="place" v="locality" />
		<tag k="ssr:stedsnr" v="285834" />
	</node>
	<node id="-262053" lat="60.7240861092" lon="8.76625000201">
		<tag k="name" v="Raunedalen" />
		<tag k="natural" v="valley" />
		<tag k="place" v="locality" />
		<tag k="ssr:stedsnr" v="56510" />
	</node>
	<node id="-262052" lat="60.6630527744" lon="9.05646110596">
		<tag k="name" v="Trongjuvi" />
		<tag k="natural" v="gorge" />
		<tag k="ssr:stedsnr" v="55437" />
	</node>
	<node id="-262563" lat="60.6508249978" lon="9.10040278085">
		<tag k="alt_name" v="Kastenattan" />
		<tag k="fixme" v="consider natural=peak for the most distinct mountains in the district" />
		<tag k="name" v="Kastenatten" />
		<tag k="natural" v="hill" />
		<tag k="place" v="locality" />
		<tag k="ssr:stedsnr" v="795309" />
	</node>
	<node id="-262048" lat="60.7586305535" lon="9.00348610709">
		<tag k="name" v="Fesheimen" />
		<tag k="natural" v="hill" />
		<tag k="place" v="locality" />
		<tag k="ssr:stedsnr" v="43553" />
	</node>
	<node id="-262298" lat="60.6922638889" lon="9.12613334123">
		<tag k="name" v="Dyrtjernlie" />
		<tag k="natural" v="slope" />
		<tag k="place" v="locality" />
		<tag k="ssr:stedsnr" v="370334" />
	</node>
	<node id="-262553" lat="60.6622888863" lon="9.06063054963">
		<tag k="name" v="Håvålmonatten" />
		<tag k="natural" v="hill" />
		<tag k="place" v="locality" />
		<tag k="ssr:stedsnr" v="783452" />
	</node>
	<node id="-261528" lat="60.6947555571" lon="8.94487500724">
		<tag k="name" v="Huseplasshaugen" />
		<tag k="natural" v="hill" />
		<tag k="place" v="locality" />
		<tag k="ssr:stedsnr" v="239212" />
	</node>
	<node id="-262551" lat="60.6453638908" lon="8.84852221911">
		<tag k="name" v="Nigardslette" />
		<tag k="place" v="locality" />
		<tag k="ssr:stedsnr" v="783054" />
	</node>
	<node id="-261526" lat="60.7054722228" lon="8.86205277841">
		<tag k="alt_name" v="Nedstedokkhovde" />
		<tag k="name" v="Halfarsletthøgde" />
		<tag k="natural" v="hill" />
		<tag k="place" v="locality" />
		<tag k="ssr:stedsnr" v="231354" />
	</node>
	<node id="-261524" lat="60.6608777819" lon="9.06518333735">
		<tag k="name" v="Engenatten" />
		<tag k="natural" v="cliff" />
		<tag k="ssr:stedsnr" v="298442" />
	</node>
	<node id="-261523" lat="60.6634861089" lon="9.06994444658">
		<tag k="name" v="Grønhola" />
		<tag k="place" v="locality" />
		<tag k="ssr:stedsnr" v="298439" />
	</node>
	<node id="-262034" lat="60.8176444426" lon="8.84579722871">
		<tag k="name" v="Loggehøgde" />
		<tag k="natural" v="hill" />
		<tag k="place" v="locality" />
		<tag k="ssr:stedsnr" v="38336" />
	</node>
	<node id="-262545" lat="60.7746611077" lon="8.81306667082">
		<tag k="name" v="Revsholhøgde" />
		<tag k="natural" v="hill" />
		<tag k="place" v="locality" />
		<tag k="ssr:stedsnr" v="771568" />
	</node>
	<node id="-261519" lat="60.755299997" lon="8.95535833167">
		<tag k="alt_name" v="Langetjernhaugen" />
		<tag k="name" v="Langtjernhøgde" />
		<tag k="natural" v="hill" />
		<tag k="place" v="locality" />
		<tag k="ssr:stedsnr" v="191306" />
	</node>
	<node id="-262030" lat="60.8256416642" lon="8.98464445226">
		<tag k="name" v="Bualie" />
		<tag k="natural" v="slope" />
		<tag k="place" v="locality" />
		<tag k="ssr:stedsnr" v="9444" />
	</node>
	<node id="-262028" lat="60.7744305518" lon="9.20411665805">
		<tag k="name" v="Raudskridalen" />
		<tag k="natural" v="valley" />
		<tag k="place" v="locality" />
		<tag k="ssr:stedsnr" v="8335" />
	</node>
	<node id="-261515" lat="60.7636583369" lon="8.73547777027">
		<tag k="fixme" v="consider natural=peak for the most distinct mountains in the district" />
		<tag k="name" v="Hamnaskjel" />
		<tag k="natural" v="hill" />
		<tag k="place" v="locality" />
		<tag k="ssr:stedsnr" v="191036" />
	</node>
	<node id="-261514" lat="60.8086361109" lon="8.89935834001">
		<tag k="name" v="Flæin" />
		<tag k="place" v="locality" />
		<tag k="ssr:stedsnr" v="190504" />
	</node>
	<node id="-262295" lat="60.7913166683" lon="8.83497499332">
		<tag k="name" v="Lauvsetstølbakken" />
		<tag k="natural" v="slope" />
		<tag k="place" v="locality" />
		<tag k="ssr:stedsnr" v="362648" />
	</node>
	<node id="-262024" lat="60.8552861093" lon="8.83556665796">
		<tag k="alt_name" v="Elgehøgdi" />
		<tag k="fixme" v="consider natural=peak for the most distinct mountains in the district" />
		<tag k="name" v="Elgehovda" />
		<tag k="natural" v="hill" />
		<tag k="place" v="locality" />
		<tag k="ssr:stedsnr" v="8187" />
	</node>
	<node id="-262020" lat="60.7258638846" lon="9.28011388373">
		<tag k="fixme" v="consider natural=peak for the most distinct mountains in the district" />
		<tag k="name" v="Klantenatten" />
		<tag k="natural" v="hill" />
		<tag k="place" v="locality" />
		<tag k="ssr:stedsnr" v="7545" />
	</node>
	<node id="-261507" lat="60.7185527785" lon="8.95869166486">
		<tag k="name" v="Snodalen" />
		<tag k="natural" v="valley" />
		<tag k="place" v="locality" />
		<tag k="ssr:stedsnr" v="189118" />
	</node>
	<node id="-262530" lat="60.848458336" lon="8.84756111494">
		<tag k="alt_name" v="Vesle Skinhøgdi" />
		<tag k="name" v="Vesle Skinhovda" />
		<tag k="natural" v="hill" />
		<tag k="place" v="locality" />
		<tag k="ssr:stedsnr" v="737426" />
	</node>
	<node id="-262379" lat="60.8049611104" lon="8.95861667541">
		<tag k="name" v="Brendehovda" />
		<tag k="natural" v="hill" />
		<tag k="place" v="locality" />
		<tag k="ssr:stedsnr" v="524290" />
	</node>
	<node id="-261501" lat="60.7765999994" lon="8.90579444363">
		<tag k="name" v="Høyskaret" />
		<tag k="natural" v="valley" />
		<tag k="place" v="locality" />
		<tag k="ssr:stedsnr" v="285545" />
	</node>
	<node id="-262009" lat="60.7364722265" lon="9.12084444619">
		<tag k="fixme" v="consider natural=peak for the most distinct mountains in the district" />
		<tag k="name" v="Augunrudberget" />
		<tag k="natural" v="hill" />
		<tag k="place" v="locality" />
		<tag k="ssr:stedsnr" v="7174" />
	</node>
	<node id="-261496" lat="60.6948027753" lon="8.8509805468">
		<tag k="name" v="Ursdalnatten" />
		<tag k="natural" v="hill" />
		<tag k="place" v="locality" />
		<tag k="ssr:stedsnr" v="179213" />
	</node>
	<node id="-261494" lat="60.7062555573" lon="9.05825832803">
		<tag k="name" v="Greino" />
		<tag k="place" v="locality" />
		<tag k="ssr:stedsnr" v="284167" />
	</node>
	<node id="-261493" lat="60.7115472227" lon="9.02248333033">
		<tag k="name" v="Ormebakken" />
		<tag k="natural" v="slope" />
		<tag k="place" v="locality" />
		<tag k="ssr:stedsnr" v="284165" />
	</node>
	<node id="-261491" lat="60.6868750005" lon="9.04881111927">
		<tag k="name" v="Torbakken" />
		<tag k="natural" v="slope" />
		<tag k="place" v="locality" />
		<tag k="ssr:stedsnr" v="284003" />
	</node>
	<node id="-261487" lat="60.7464055513" lon="9.13577499327">
		<tag k="fixme" v="consider natural=peak for the most distinct mountains in the district" />
		<tag k="name" v="Deildesnatten" />
		<tag k="natural" v="hill" />
		<tag k="place" v="locality" />
		<tag k="ssr:stedsnr" v="282774" />
	</node>
	<node id="-261485" lat="60.7269916674" lon="9.01017499686">
		<tag k="name" v="Grøndalen" />
		<tag k="natural" v="valley" />
		<tag k="place" v="locality" />
		<tag k="ssr:stedsnr" v="282760" />
	</node>
	<node id="-261996" lat="60.7405527781" lon="9.15086389572">
		<tag k="alt_name" v="Søthaugberget" />
		<tag k="fixme" v="consider natural=peak for the most distinct mountains in the district" />
		<tag k="name" v="Søtehaugberget" />
		<tag k="natural" v="hill" />
		<tag k="place" v="locality" />
		<tag k="ssr:stedsnr" v="6173" />
	</node>
	<node id="-261995" lat="60.8109861143" lon="8.87554721736">
		<tag k="alt_name" v="Vatnartjernhallin" />
		<tag k="name" v="Vatnatjernhallin" />
		<tag k="natural" v="slope" />
		<tag k="place" v="locality" />
		<tag k="ssr:stedsnr" v="8520" />
	</node>
	<node id="-261994" lat="60.8120027815" lon="8.94634722677">
		<tag k="fixme" v="consider natural=peak for the most distinct mountains in the district" />
		<tag k="name" v="Storefjell" />
		<tag k="natural" v="hill" />
		<tag k="old_name" v="Storfjell" />
		<tag k="place" v="locality" />
		<tag k="ssr:stedsnr" v="8517" />
	</node>
	<node id="-262504" lat="60.8343750006" lon="8.81295833488">
		<tag k="name" v="Tvergaberget" />
		<tag k="natural" v="hill" />
		<tag k="place" v="locality" />
		<tag k="ssr:stedsnr" v="644516" />
	</node>
	<node id="-261478" lat="60.8103472191" lon="8.81157223045">
		<tag k="name" v="Dugurdshovda" />
		<tag k="natural" v="hill" />
		<tag k="place" v="locality" />
		<tag k="ssr:stedsnr" v="281344" />
	</node>
	<node id="-262501" lat="60.8057333326" lon="8.96298889221">
		<tag k="name" v="Blåbærhovda" />
		<tag k="natural" v="hill" />
		<tag k="place" v="locality" />
		<tag k="ssr:stedsnr" v="644327" />
	</node>
	<node id="-261988" lat="60.6443694422" lon="9.07385277638">
		<tag k="name" v="Gampedalen" />
		<tag k="natural" v="valley" />
		<tag k="place" v="locality" />
		<tag k="ssr:stedsnr" v="965474" />
	</node>
	<node id="-262499" lat="60.8067111102" lon="8.86283054717">
		<tag k="name" v="Storemyrhaugen" />
		<tag k="natural" v="hill" />
		<tag k="place" v="locality" />
		<tag k="ssr:stedsnr" v="615478" />
	</node>
	<node id="-262495" lat="60.752925" lon="8.96517777501">
		<tag k="alt_name" v="Høgehaughøgdi" />
		<tag k="name" v="Høgehaughovda" />
		<tag k="natural" v="hill" />
		<tag k="place" v="locality" />
		<tag k="ssr:stedsnr" v="615314" />
	</node>
	<node id="-261469" lat="60.725949997" lon="8.76420278161">
		<tag k="name" v="Turtelie" />
		<tag k="natural" v="slope" />
		<tag k="place" v="locality" />
		<tag k="ssr:stedsnr" v="163155" />
	</node>
	<node id="-261468" lat="60.6744944453" lon="8.99881111085">
		<tag k="name" v="Venalidalen" />
		<tag k="natural" v="valley" />
		<tag k="place" v="locality" />
		<tag k="ssr:stedsnr" v="163112" />
	</node>
	<node id="-261465" lat="60.7193777819" lon="9.06784999091">
		<tag k="name" v="Grønhaugen" />
		<tag k="natural" v="hill" />
		<tag k="place" v="locality" />
		<tag k="ssr:stedsnr" v="161769" />
	</node>
	<node id="-261976" lat="60.820588885" lon="8.80268610738">
		<tag k="name" v="Rohovda" />
		<tag k="natural" v="hill" />
		<tag k="place" v="locality" />
		<tag k="ssr:stedsnr" v="919210" />
	</node>
	<node id="-261461" lat="60.7875111138" lon="9.0216555633">
		<tag k="name" v="Smedberget" />
		<tag k="natural" v="hill" />
		<tag k="place" v="locality" />
		<tag k="ssr:stedsnr" v="159270" />
	</node>
	<node id="-261971" lat="60.6836916689" lon="9.06543054709">
		<tag k="fixme" v="consider natural=peak for the most distinct mountains in the district" />
		<tag k="name" v="Veikulnatten" />
		<tag k="natural" v="hill" />
		<tag k="place" v="locality" />
		<tag k="ssr:stedsnr" v="917271" />
	</node>
	<node id="-262481" lat="60.6856138901" lon="8.79518333967">
		<tag k="fixme" v="consider natural=peak for the most distinct mountains in the district" />
		<tag k="name" v="Finnegardsnatten" />
		<tag k="natural" v="hill" />
		<tag k="place" v="locality" />
		<tag k="ssr:stedsnr" v="613897" />
	</node>
	<node id="-262476" lat="60.6714055529" lon="8.94689166906">
		<tag k="fixme" v="consider natural=peak for the most distinct mountains in the district" />
		<tag k="name" v="Mjellhovd" />
		<tag k="natural" v="hill" />
		<tag k="place" v="locality" />
		<tag k="ssr:stedsnr" v="613316" />
	</node>
	<node id="-261449" lat="60.7272499994" lon="9.19778610349">
		<tag k="alt_name" v="Vassenden Sr" />
		<tag k="name" v="Vassenden" />
		<tag k="place" v="locality" />
		<tag k="ssr:stedsnr" v="128103" />
	</node>
	<node id="-262472" lat="60.7178611124" lon="8.85319999112">
		<tag k="fixme" v="consider natural=peak for the most distinct mountains in the district" />
		<tag k="name" v="Skaraåsen" />
		<tag k="natural" v="hill" />
		<tag k="old_name" v="Skare-aasen;Skardaåsen;Skara-aasen" />
		<tag k="place" v="locality" />
		<tag k="ssr:stedsnr" v="613136" />
	</node>
	<node id="-261959" lat="60.8111194441" lon="8.84591945017">
		<tag k="name" v="Torhøgde" />
		<tag k="natural" v="hill" />
		<tag k="place" v="locality" />
		<tag k="ssr:stedsnr" v="888273" />
	</node>
	<node id="-261955" lat="60.8609138892" lon="8.84006388857">
		<tag k="name" v="Nørdre Nonsnatten" />
		<tag k="natural" v="hill" />
		<tag k="place" v="locality" />
		<tag k="ssr:stedsnr" v="948539" />
	</node>
	<node id="-261442" lat="60.7636166695" lon="9.27677499991">
		<tag k="alt_name" v="Syningen" />
		<tag k="fixme" v="consider natural=peak for the most distinct mountains in the district" />
		<tag k="name" v="Store Syningen" />
		<tag k="natural" v="hill" />
		<tag k="place" v="locality" />
		<tag k="ssr:stedsnr" v="252781" />
	</node>
	<node id="-262283" lat="60.723847222" lon="8.85968332481">
		<tag k="name" v="Storsteindekkene" />
		<tag k="place" v="locality" />
		<tag k="ssr:stedsnr" v="345194" />
	</node>
	<node id="-261952" lat="60.7713888869" lon="9.08337778334">
		<tag k="name" v="Steinstøllie" />
		<tag k="natural" v="slope" />
		<tag k="place" v="locality" />
		<tag k="ssr:stedsnr" v="858313" />
	</node>
	<node id="-261437" lat="60.7997388906" lon="8.87750278152">
		<tag k="name" v="Syno" />
		<tag k="natural" v="hill" />
		<tag k="place" v="locality" />
		<tag k="ssr:stedsnr" v="251502" />
	</node>
	<node id="-261947" lat="60.7971194483" lon="8.80349166881">
		<tag k="name" v="Sørbølhovda" />
		<tag k="natural" v="hill" />
		<tag k="place" v="locality" />
		<tag k="ssr:stedsnr" v="858006" />
	</node>
	<node id="-262458" lat="60.7876111087" lon="8.82939166553">
		<tag k="name" v="Svartetjernhøgde" />
		<tag k="natural" v="hill" />
		<tag k="place" v="locality" />
		<tag k="ssr:stedsnr" v="604660" />
	</node>
	<node id="-261945" lat="60.72522222" lon="9.17595833197">
		<tag k="name" v="Ørnehovda" />
		<tag k="natural" v="hill" />
		<tag k="place" v="locality" />
		<tag k="ssr:stedsnr" v="857155" />
	</node>
	<node id="-262456" lat="60.6564277805" lon="9.07534444364">
		<tag k="name" v="Marsteinnatten" />
		<tag k="natural" v="hill" />
		<tag k="place" v="locality" />
		<tag k="ssr:stedsnr" v="601459" />
	</node>
	<node id="-261431" lat="60.774883329" lon="8.82424722057">
		<tag k="name" v="Fuglehøgde" />
		<tag k="natural" v="hill" />
		<tag k="place" v="locality" />
		<tag k="ssr:stedsnr" v="251022" />
	</node>
	<node id="-261430" lat="60.7038388872" lon="9.27591944426">
		<tag k="alt_name" v="Nøsen" />
		<tag k="name" v="Nosi" />
		<tag k="natural" v="hill" />
		<tag k="place" v="locality" />
		<tag k="ssr:stedsnr" v="250712" />
	</node>
	<node id="-261429" lat="60.7356666667" lon="9.30147777527">
		<tag k="alt_name" v="Raudalsfjellet" />
		<tag k="fixme" v="consider natural=peak for the most distinct mountains in the district" />
		<tag k="name" v="Rauddalsfjellet" />
		<tag k="natural" v="hill" />
		<tag k="place" v="locality" />
		<tag k="ssr:stedsnr" v="250539" />
	</node>
	<node id="-261940" lat="60.6937444476" lon="9.06854721403">
		<tag k="name" v="Svartedalen" />
		<tag k="natural" v="valley" />
		<tag k="place" v="locality" />
		<tag k="ssr:stedsnr" v="856308" />
	</node>
	<node id="-262622" lat="60.8116250028" lon="9.12347777453">
		<tag k="name" v="Furuhyttremmen" />
		<tag k="natural" v="ridge" />
		<tag k="place" v="locality" />
		<tag k="ssr:stedsnr" v="858527" />
	</node>
	<node id="-261937" lat="60.7337166711" lon="8.96004444346">
		<tag k="alt_name" v="Smylihaug" />
		<tag k="name" v="Smylihaugen" />
		<tag k="natural" v="hill" />
		<tag k="place" v="locality" />
		<tag k="ssr:stedsnr" v="856166" />
	</node>
	<node id="-261424" lat="60.6748583316" lon="8.84980832862">
		<tag k="alt_name" v="Tyrinatten" />
		<tag k="name" v="Tyrinut" />
		<tag k="natural" v="hill" />
		<tag k="place" v="locality" />
		<tag k="ssr:stedsnr" v="250300" />
	</node>
	<node id="-261935" lat="60.8445916704" lon="8.85116666239">
		<tag k="name" v="Store Skinhovda" />
		<tag k="natural" v="hill" />
		<tag k="place" v="locality" />
		<tag k="ssr:stedsnr" v="838371" />
	</node>
	<node id="-262441" lat="60.8603805526" lon="8.84494721689">
		<tag k="name" v="Søre Nonsnatten" />
		<tag k="natural" v="hill" />
		<tag k="place" v="locality" />
		<tag k="ssr:stedsnr" v="584487" />
	</node>
	<node id="-261926" lat="60.7582527762" lon="8.73923056263">
		<tag k="alt_name" v="Dugurdshøgdi" />
		<tag k="name" v="Dugurdshovda" />
		<tag k="natural" v="hill" />
		<tag k="place" v="locality" />
		<tag k="ssr:stedsnr" v="798046" />
	</node>
	<node id="-262437" lat="60.8430305556" lon="8.87501943595">
		<tag k="name" v="Storsteinhovda" />
		<tag k="natural" v="hill" />
		<tag k="place" v="locality" />
		<tag k="ssr:stedsnr" v="554490" />
	</node>
	<node id="-262433" lat="60.7962638904" lon="9.02410277962">
		<tag k="name" v="Halleflæi" />
		<tag k="place" v="locality" />
		<tag k="ssr:stedsnr" v="554301" />
	</node>
	<node id="-261920" lat="60.7290972203" lon="8.85778889374">
		<tag k="alt_name" v="Engesethøgdi" />
		<tag k="name" v="Engesethovda" />
		<tag k="natural" v="hill" />
		<tag k="place" v="locality" />
		<tag k="ssr:stedsnr" v="796154" />
	</node>
	<node id="-262428" lat="60.7522194452" lon="9.12069999425">
		<tag k="alt_name" v="Bjørnahøgdi" />
		<tag k="name" v="Bjørnahaugen" />
		<tag k="natural" v="hill" />
		<tag k="place" v="locality" />
		<tag k="ssr:stedsnr" v="554356" />
	</node>
	<node id="-261914" lat="60.6866944402" lon="9.01486665841">
		<tag k="name" v="Engjenatten" />
		<tag k="natural" v="hill" />
		<tag k="place" v="locality" />
		<tag k="ssr:stedsnr" v="795384" />
	</node>
	<node id="-262532" lat="60.7894916645" lon="8.77718054704">
		<tag k="name" v="Nosi" />
		<tag k="natural" v="hill" />
		<tag k="place" v="locality" />
		<tag k="ssr:stedsnr" v="737650" />
	</node>
	<node id="-262420" lat="60.6777499979" lon="9.08899166346">
		<tag k="name" v="Høgeberget" />
		<tag k="natural" v="hill" />
		<tag k="place" v="locality" />
		<tag k="ssr:stedsnr" v="553291" />
	</node>
	<node id="-261907" lat="60.8161166641" lon="8.89878332606">
		<tag k="name" v="Tryågonguhaugen" />
		<tag k="natural" v="hill" />
		<tag k="place" v="locality" />
		<tag k="ssr:stedsnr" v="919487" />
	</node>
	<node id="-261906" lat="60.8164805593" lon="8.92321110618">
		<tag k="fixme" v="consider natural=peak for the most distinct mountains in the district" />
		<tag k="name" v="Veslefjell" />
		<tag k="natural" v="hill" />
		<tag k="place" v="locality" />
		<tag k="ssr:stedsnr" v="919485" />
	</node>
	<node id="-261901" lat="60.7595694439" lon="9.20547222459">
		<tag k="name" v="Hestedalen" />
		<tag k="natural" v="valley" />
		<tag k="old_name" v="Hestadalen" />
		<tag k="place" v="locality" />
		<tag k="ssr:stedsnr" v="919273" />
	</node>
	<node id="-262411" lat="60.6830111088" lon="9.22244721694">
		<tag k="name" v="Røggjenatten" />
		<tag k="natural" v="hill" />
		<tag k="place" v="locality" />
		<tag k="ssr:stedsnr" v="552729" />
	</node>
	<node id="-261383" lat="60.7631055519" lon="9.26747222625">
		<tag k="fixme" v="consider natural=peak for the most distinct mountains in the district" />
		<tag k="name" v="Miljofjellet" />
		<tag k="natural" v="hill" />
		<tag k="place" v="locality" />
		<tag k="ssr:stedsnr" v="241631" />
	</node>
	<node id="-261382" lat="60.7081999995" lon="9.26904999624">
		<tag k="name" v="Gjøtehaug" />
		<tag k="natural" v="hill" />
		<tag k="place" v="locality" />
		<tag k="ssr:stedsnr" v="239189" />
	</node>
	<node id="-261893" lat="60.7280527751" lon="9.2889166681">
		<tag k="name" v="Marihallin" />
		<tag k="place" v="locality" />
		<tag k="ssr:stedsnr" v="917537" />
	</node>
	<node id="-261380" lat="60.7247111144" lon="8.79245832665">
		<tag k="name" v="Sarahovda" />
		<tag k="natural" v="hill" />
		<tag k="place" v="locality" />
		<tag k="ssr:stedsnr" v="238498" />
	</node>
	<node id="-261889" lat="60.686047222" lon="9.17235833141">
		<tag k="name" v="Lianatten" />
		<tag k="natural" v="hill" />
		<tag k="place" v="locality" />
		<tag k="ssr:stedsnr" v="917251" />
	</node>
	<node id="-261376" lat="60.6725083365" lon="9.14069722977">
		<tag k="name" v="Speken" />
		<tag k="place" v="locality" />
		<tag k="ssr:stedsnr" v="41006" />
	</node>
	<node id="-262398" lat="60.7794750031" lon="8.91235832942">
		<tag k="name" v="Elgjehovda" />
		<tag k="natural" v="hill" />
		<tag k="place" v="locality" />
		<tag k="ssr:stedsnr" v="544671" />
	</node>
	<node id="-261885" lat="60.6495916671" lon="8.83213333701">
		<tag k="fixme" v="consider natural=peak for the most distinct mountains in the district" />
		<tag k="name" v="Ivjunatten" />
		<tag k="natural" v="hill" />
		<tag k="place" v="locality" />
		<tag k="ssr:stedsnr" v="917091" />
	</node>
	<node id="-262395" lat="60.7488722183" lon="8.99878889709">
		<tag k="name" v="Kvernahushaugen" />
		<tag k="natural" v="hill" />
		<tag k="place" v="locality" />
		<tag k="ssr:stedsnr" v="544977" />
	</node>
	<node id="-262226" lat="60.6762416702" lon="8.96983611556">
		<tag k="name" v="Dugurdsnatten" />
		<tag k="natural" v="hill" />
		<tag k="place" v="locality" />
		<tag k="ssr:stedsnr" v="310295" />
	</node>
	<node id="-261367" lat="60.7196888858" lon="8.80717221354">
		<tag k="alt_name" v="Blåbærhovda" />
		<tag k="name" v="Blåberghovda" />
		<tag k="natural" v="hill" />
		<tag k="place" v="locality" />
		<tag k="ssr:stedsnr" v="224189" />
	</node>
	<node id="-261876" lat="60.6800333354" lon="9.00131666303">
		<tag k="name" v="Svullen" />
		<tag k="place" v="locality" />
		<tag k="ssr:stedsnr" v="770112" />
	</node>
	<node id="-261363" lat="60.6725999963" lon="8.97909999334">
		<tag k="name" v="Stølefjell" />
		<tag k="natural" v="hill" />
		<tag k="place" v="locality" />
		<tag k="ssr:stedsnr" v="224140" />
	</node>
	<node id="-261361" lat="60.6900888864" lon="8.99086388892">
		<tag k="name" v="Riva" />
		<tag k="natural" v="ridge" />
		<tag k="place" v="locality" />
		<tag k="ssr:stedsnr" v="224025" />
	</node>
	<node id="-261359" lat="60.6775277756" lon="9.05329999181">
		<tag k="name" v="Nøbbi" />
		<tag k="natural" v="hill" />
		<tag k="place" v="locality" />
		<tag k="ssr:stedsnr" v="224005" />
	</node>
	<node id="-261869" lat="60.7618333313" lon="9.29126388389">
		<tag k="fixme" v="consider natural=peak for the most distinct mountains in the district" />
		<tag k="name" v="Vestre Syningen" />
		<tag k="natural" v="hill" />
		<tag k="place" v="locality" />
		<tag k="ssr:stedsnr" v="908667" />
	</node>
	<node id="-261867" lat="60.7026416657" lon="8.90307778684">
		<tag k="name" v="Forsetberget" />
		<tag k="place" v="locality" />
		<tag k="ssr:stedsnr" v="907186" />
	</node>
	<node id="-261862" lat="60.7072083313" lon="8.83349999761">
		<tag k="name" v="Skjenhovda" />
		<tag k="natural" v="hill" />
		<tag k="place" v="locality" />
		<tag k="ssr:stedsnr" v="725202" />
	</node>
	<node id="-261861" lat="60.7367888851" lon="8.93475555746">
		<tag k="name" v="Høgkollen" />
		<tag k="natural" v="hill" />
		<tag k="place" v="locality" />
		<tag k="ssr:stedsnr" v="896987" />
	</node>
	<node id="-262438" lat="60.7947583367" lon="8.9210250022">
		<tag k="alt_name" v="Langhøgde" />
		<tag k="name" v="Langhovda" />
		<tag k="natural" v="hill" />
		<tag k="place" v="locality" />
		<tag k="ssr:stedsnr" v="554514" />
	</node>
	<node id="-262369" lat="60.7556166632" lon="9.09291388253">
		<tag k="fixme" v="consider natural=peak for the most distinct mountains in the district" />
		<tag k="name" v="Syningen" />
		<tag k="natural" v="hill" />
		<tag k="place" v="locality" />
		<tag k="ssr:stedsnr" v="434297" />
	</node>
	<node id="-261855" lat="60.7050250021" lon="9.03290277254">
		<tag k="name" v="Turkoppnatten" />
		<tag k="natural" v="hill" />
		<tag k="place" v="locality" />
		<tag k="ssr:stedsnr" v="891178" />
	</node>
	<node id="-261964" lat="60.7013166644" lon="9.12404443593">
		<tag k="alt_name" v="Skarnatten" />
		<tag k="name" v="Skardnatten" />
		<tag k="natural" v="hill" />
		<tag k="place" v="locality" />
		<tag k="ssr:stedsnr" v="917305" />
	</node>
	<node id="-262360" lat="60.7218499964" lon="9.31477777525">
		<tag k="alt_name" v="Raudalsnatten" />
		<tag k="fixme" v="consider natural=peak for the most distinct mountains in the district" />
		<tag k="name" v="Rauddalsnatten" />
		<tag k="natural" v="hill" />
		<tag k="place" v="locality" />
		<tag k="ssr:stedsnr" v="432531" />
	</node>
	<node id="-262359" lat="60.7166694463" lon="9.22795833919">
		<tag k="alt_name" v="Holtelifjell" />
		<tag k="fixme" v="consider natural=peak for the most distinct mountains in the district" />
		<tag k="name" v="Holtelifjellet" />
		<tag k="natural" v="hill" />
		<tag k="place" v="locality" />
		<tag k="ssr:stedsnr" v="432507" />
	</node>
	<node id="-261845" lat="60.857213891" lon="8.83281389094">
		<tag k="name" v="Gråklanten" />
		<tag k="natural" v="hill" />
		<tag k="place" v="locality" />
		<tag k="ssr:stedsnr" v="888434" />
	</node>
	<node id="-261582" lat="60.7284749989" lon="8.8117527852">
		<tag k="name" v="Ørnshovda" />
		<tag k="natural" v="hill" />
		<tag k="place" v="locality" />
		<tag k="ssr:stedsnr" v="491831" />
	</node>
	<node id="-261840" lat="60.7747555575" lon="9.18821943566">
		<tag k="alt_name" v="Raudskridnibbi" />
		<tag k="fixme" v="consider natural=peak for the most distinct mountains in the district" />
		<tag k="name" v="Raudskrinibbi" />
		<tag k="natural" v="hill" />
		<tag k="place" v="locality" />
		<tag k="ssr:stedsnr" v="676311" />
	</node>
	<node id="-262264" lat="60.8061305521" lon="8.77770833968">
		<tag k="name" v="Dammyrhaugen" />
		<tag k="natural" v="hill" />
		<tag k="place" v="locality" />
		<tag k="ssr:stedsnr" v="341281" />
	</node>
	<node id="-262350" lat="60.7300472252" lon="8.81268333762">
		<tag k="alt_name" v="Helgesethøgda" />
		<tag k="name" v="Helgesethovda" />
		<tag k="natural" v="hill" />
		<tag k="place" v="locality" />
		<tag k="ssr:stedsnr" v="431858" />
	</node>
	<node id="-262348" lat="60.7443527767" lon="9.10043889202">
		<tag k="name" v="Gjøtahovda" />
		<tag k="natural" v="hill" />
		<tag k="place" v="locality" />
		<tag k="ssr:stedsnr" v="431199" />
	</node>
	<node id="-261832" lat="60.6802777814" lon="8.79179445239">
		<tag k="name" v="Haugonatten" />
		<tag k="natural" v="hill" />
		<tag k="place" v="locality" />
		<tag k="ssr:stedsnr" v="674905" />
	</node>
	<node id="-261831" lat="60.6439833315" lon="9.07281111919">
		<tag k="alt_name" v="Rennslenatten" />
		<tag k="name" v="Renslenatten" />
		<tag k="natural" v="hill" />
		<tag k="place" v="locality" />
		<tag k="ssr:stedsnr" v="674475" />
	</node>
	<node id="-261829" lat="60.7484416702" lon="9.27725000619">
		<tag k="fixme" v="consider natural=peak for the most distinct mountains in the district" />
		<tag k="name" v="Bergaleinnatten" />
		<tag k="natural" v="hill" />
		<tag k="place" v="locality" />
		<tag k="ssr:stedsnr" v="674506" />
	</node>
	<node id="-262340" lat="60.6483111125" lon="8.84978888318">
		<tag k="name" v="Øyneslette" />
		<tag k="place" v="locality" />
		<tag k="ssr:stedsnr" v="419069" />
	</node>
	<node id="-261825" lat="60.7219472191" lon="9.12705833241">
		<tag k="fixme" v="consider natural=peak for the most distinct mountains in the district" />
		<tag k="name" v="Vesle Ruken" />
		<tag k="natural" v="hill" />
		<tag k="old_name" v="Lille Ruken" />
		<tag k="place" v="locality" />
		<tag k="ssr:stedsnr" v="674324" />
	</node>
	<node id="-262176" lat="60.7752944423" lon="9.14691388687">
		<tag k="name" v="Rundehaug" />
		<tag k="natural" v="hill" />
		<tag k="place" v="locality" />
		<tag k="ssr:stedsnr" v="180643" />
	</node>
	<node id="-261822" lat="60.7475055529" lon="9.14634443844">
		<tag k="name" v="Nordre Kvelven" />
		<tag k="natural" v="ridge" />
		<tag k="place" v="locality" />
		<tag k="ssr:stedsnr" v="674179" />
	</node>
	<node id="-262333" lat="60.7517527819" lon="8.95217222472">
		<tag k="name" v="Øvre Kolleskåle" />
		<tag k="place" v="locality" />
		<tag k="ssr:stedsnr" v="410982" />
	</node>
	<node id="-261819" lat="60.7433222238" lon="9.18377776868">
		<tag k="name" v="Søre Kvelven" />
		<tag k="natural" v="ridge" />
		<tag k="place" v="locality" />
		<tag k="ssr:stedsnr" v="674165" />
	</node>
	<node id="-262326" lat="60.6783638934" lon="8.99791389055">
		<tag k="name" v="Botten" />
		<tag k="place" v="locality" />
		<tag k="ssr:stedsnr" v="406129" />
	</node>
	<node id="-262601" lat="60.7233555549" lon="8.8376694362">
		<tag k="name" v="Velleikhaugen" />
		<tag k="natural" v="hill" />
		<tag k="place" v="locality" />
		<tag k="ssr:stedsnr" v="831182" />
	</node>
	<node id="-261808" lat="60.7154972252" lon="9.0850111052">
		<tag k="name" v="Styggedalsnatten" />
		<tag k="natural" v="hill" />
		<tag k="place" v="locality" />
		<tag k="ssr:stedsnr" v="735348" />
	</node>
	<node id="-261807" lat="60.6939583357" lon="8.99276388525">
		<tag k="name" v="Eiklesberget" />
		<tag k="place" v="locality" />
		<tag k="ssr:stedsnr" v="735340" />
	</node>
	<node id="-261805" lat="60.6698694431" lon="8.91258333296">
		<tag k="alt_name" v="Dugurdsnattan" />
		<tag k="name" v="Dugurdsnatten" />
		<tag k="natural" v="hill" />
		<tag k="place" v="locality" />
		<tag k="ssr:stedsnr" v="735310" />
	</node>
	<node id="-261803" lat="60.6798333369" lon="8.91392777201">
		<tag k="name" v="Sudnlie" />
		<tag k="natural" v="slope" />
		<tag k="old_name" v="Sunnli" />
		<tag k="place" v="locality" />
		<tag k="ssr:stedsnr" v="735291" />
	</node>
	<node id="-261575" lat="60.8344694466" lon="8.79776388505">
		<tag k="name" v="Rundeklanten" />
		<tag k="natural" v="hill" />
		<tag k="place" v="locality" />
		<tag k="ssr:stedsnr" v="341528" />
	</node>
	<node id="-262598" lat="60.7460888865" lon="9.19562777858">
		<tag k="fixme" v="consider natural=peak for the most distinct mountains in the district" />
		<tag k="name" v="Nysetnatten" />
		<tag k="natural" v="hill" />
		<tag k="place" v="locality" />
		<tag k="ssr:stedsnr" v="829803" />
	</node>
	<node id="-262371" lat="60.8407111127" lon="8.91995555273">
		<tag k="name" v="Flataskorhovda" />
		<tag k="natural" v="hill" />
		<tag k="old_name" v="Flataskardhøgdi" />
		<tag k="place" v="locality" />
		<tag k="ssr:stedsnr" v="434425" />
	</node>
	<node id="-261402" lat="60.7618777793" lon="8.74845832895">
		<tag k="fixme" v="consider natural=peak for the most distinct mountains in the district" />
		<tag k="name" v="Vesle Hamnaskjel" />
		<tag k="natural" v="hill" />
		<tag k="place" v="locality" />
		<tag k="ssr:stedsnr" v="70037" />
	</node>
	<node id="-261786" lat="60.6669916676" lon="8.77783333641">
		<tag k="name" v="Hallingdal" />
		<tag k="natural" v="valley" />
		<tag k="place" v="locality" />
		<tag k="ssr:stedsnr" v="630909" />
	</node>
	<node id="-261783" lat="60.7233027739" lon="8.78090277621">
		<tag k="name" v="Feten" />
		<tag k="place" v="locality" />
		<tag k="ssr:stedsnr" v="723492" />
	</node>
	<node id="-262294" lat="60.7933138907" lon="8.83869444036">
		<tag k="alt_name" v="Gråklanten" />
		<tag k="name" v="Stølklanten" />
		<tag k="natural" v="hill" />
		<tag k="place" v="locality" />
		<tag k="ssr:stedsnr" v="362686" />
	</node>
	<node id="-262288" lat="60.7068361125" lon="8.89176110957">
		<tag k="name" v="Lyshøgde" />
		<tag k="place" v="locality" />
		<tag k="ssr:stedsnr" v="360176" />
	</node>
	<node id="-261518" lat="60.8261944485" lon="8.96331388987">
		<tag k="alt_name" v="Ølterhovda" />
		<tag k="name" v="Ørterhovda" />
		<tag k="natural" v="hill" />
		<tag k="place" v="locality" />
		<tag k="ssr:stedsnr" v="191411" />
	</node>
	<node id="-262282" lat="60.7339333299" lon="8.81761111507">
		<tag k="name" v="Pikhaug" />
		<tag k="natural" v="hill" />
		<tag k="place" v="locality" />
		<tag k="ssr:stedsnr" v="345193" />
	</node>
	<node id="-262281" lat="60.702108332" lon="9.07854721795">
		<tag k="name" v="Heimstadbakken" />
		<tag k="natural" v="slope" />
		<tag k="place" v="locality" />
		<tag k="ssr:stedsnr" v="345177" />
	</node>
	<node id="-262280" lat="60.7040138882" lon="9.05686111768">
		<tag k="name" v="Geiteryggen" />
		<tag k="natural" v="hill" />
		<tag k="place" v="locality" />
		<tag k="ssr:stedsnr" v="345174" />
	</node>
	<node id="-262279" lat="60.7128777776" lon="9.2074472283">
		<tag k="fixme" v="consider natural=peak for the most distinct mountains in the district" />
		<tag k="name" v="Kvitåsen" />
		<tag k="natural" v="hill" />
		<tag k="place" v="locality" />
		<tag k="ssr:stedsnr" v="345038" />
	</node>
	<node id="-262278" lat="60.7520722178" lon="8.85724721569">
		<tag k="name" v="Eidsbergnatten" />
		<tag k="natural" v="hill" />
		<tag k="place" v="locality" />
		<tag k="ssr:stedsnr" v="343995" />
	</node>
	<node id="-262277" lat="60.7267555537" lon="9.07078055816">
		<tag k="name" v="Hyttehaugen" />
		<tag k="natural" v="hill" />
		<tag k="place" v="locality" />
		<tag k="ssr:stedsnr" v="343823" />
	</node>
	<node id="-261762" lat="60.7177444448" lon="8.81647499735">
		<tag k="name" v="Rundehaugen" />
		<tag k="natural" v="hill" />
		<tag k="place" v="locality" />
		<tag k="ssr:stedsnr" v="709180" />
	</node>
	<node id="-261758" lat="60.6785999994" lon="9.16858334219">
		<tag k="name" v="Galdan" />
		<tag k="natural" v="hill" />
		<tag k="place" v="locality" />
		<tag k="ssr:stedsnr" v="709008" />
	</node>
	<node id="-262269" lat="60.8004416656" lon="9.04742221898">
		<tag k="name" v="Kumyrdalen" />
		<tag k="natural" v="valley" />
		<tag k="place" v="locality" />
		<tag k="ssr:stedsnr" v="341400" />
	</node>
	<node id="-261754" lat="60.7514500038" lon="8.74178055309">
		<tag k="name" v="Pikhaug" />
		<tag k="natural" v="hill" />
		<tag k="place" v="locality" />
		<tag k="ssr:stedsnr" v="707881" />
	</node>
	<node id="-261381" lat="60.7297250038" lon="8.78808332636">
		<tag k="name" v="Furuhaugen" />
		<tag k="natural" v="hill" />
		<tag k="place" v="locality" />
		<tag k="ssr:stedsnr" v="238532" />
	</node>
	<node id="-261752" lat="60.6654527746" lon="9.04810278303">
		<tag k="name" v="Haugaberget" />
		<tag k="place" v="locality" />
		<tag k="ssr:stedsnr" v="707388" />
	</node>
	<node id="-262263" lat="60.8039444423" lon="8.79181944858">
		<tag k="name" v="Plassehovda" />
		<tag k="natural" v="hill" />
		<tag k="place" v="locality" />
		<tag k="ssr:stedsnr" v="341279" />
	</node>
	<node id="-262259" lat="60.8128944405" lon="9.04872222644">
		<tag k="name" v="Golsfjellet" />
		<tag k="natural" v="mountain_range" />
		<tag k="ssr:stedsnr" v="328241" />
	</node>
	<node id="-262255" lat="60.8238833332" lon="8.91378054884">
		<tag k="name" v="Breilie" />
		<tag k="natural" v="slope" />
		<tag k="place" v="locality" />
		<tag k="ssr:stedsnr" v="312444" />
	</node>
	<node id="-261741" lat="60.6656749979" lon="9.1223694454">
		<tag k="fixme" v="consider natural=peak for the most distinct mountains in the district" />
		<tag k="name" v="Hestedokkhaugen" />
		<tag k="natural" v="hill" />
		<tag k="place" v="locality" />
		<tag k="ssr:stedsnr" v="552297" />
	</node>
	<node id="-262252" lat="60.777675" lon="9.03716111543">
		<tag k="name" v="Rekkjesetkyrkja" />
		<tag k="natural" v="hill" />
		<tag k="place" v="locality" />
		<tag k="ssr:stedsnr" v="312301" />
	</node>
	<node id="-262608" lat="60.7038777754" lon="9.26104444173">
		<tag k="alt_name" v="Bjødnaskarberget" />
		<tag k="fixme" v="consider natural=peak for the most distinct mountains in the district" />
		<tag k="name" v="Bjørnaskardberget" />
		<tag k="natural" v="hill" />
		<tag k="place" v="locality" />
		<tag k="ssr:stedsnr" v="846044" />
	</node>
	<node id="-261736" lat="60.6992111088" lon="8.95151667273">
		<tag k="name" v="Hahaugen" />
		<tag k="natural" v="hill" />
		<tag k="place" v="locality" />
		<tag k="ssr:stedsnr" v="527172" />
	</node>
	<node id="-262246" lat="60.7648722203" lon="9.0680555531">
		<tag k="name" v="Haugaværelset" />
		<tag k="place" v="locality" />
		<tag k="ssr:stedsnr" v="312274" />
	</node>
	<node id="-261733" lat="60.7461694407" lon="9.15484999135">
		<tag k="name" v="Turtebakk" />
		<tag k="place" v="locality" />
		<tag k="ssr:stedsnr" v="525777" />
	</node>
	<node id="-262244" lat="60.826980558" lon="8.79650556051">
		<tag k="name" v="Skinhovda" />
		<tag k="natural" v="hill" />
		<tag k="place" v="locality" />
		<tag k="ssr:stedsnr" v="312217" />
	</node>
	<node id="-261734" lat="60.692227775" lon="8.99313333847">
		<tag k="name" v="Vesleriva" />
		<tag k="natural" v="ridge" />
		<tag k="place" v="locality" />
		<tag k="ssr:stedsnr" v="527014" />
	</node>
	<node id="-261730" lat="60.732844449" lon="8.98544166472">
		<tag k="name" v="Lithaug" />
		<tag k="natural" v="hill" />
		<tag k="place" v="locality" />
		<tag k="ssr:stedsnr" v="525756" />
	</node>
	<node id="-262331" lat="60.7260055569" lon="8.95813055726">
		<tag k="name" v="Dokkberget" />
		<tag k="natural" v="hill" />
		<tag k="place" v="locality" />
		<tag k="ssr:stedsnr" v="406200" />
	</node>
	<node id="-262237" lat="60.7875638892" lon="8.96603888866">
		<tag k="name" v="Skutusethovda" />
		<tag k="natural" v="hill" />
		<tag k="place" v="locality" />
		<tag k="ssr:stedsnr" v="311328" />
	</node>
	<node id="-262234" lat="60.7160583312" lon="9.03102499377">
		<tag k="fixme" v="consider natural=peak for the most distinct mountains in the district" />
		<tag k="name" v="Toreberget" />
		<tag k="natural" v="hill" />
		<tag k="place" v="locality" />
		<tag k="ssr:stedsnr" v="310350" />
	</node>
	<node id="-262230" lat="60.6737833366" lon="8.94952221542">
		<tag k="fixme" v="consider natural=peak for the most distinct mountains in the district" />
		<tag k="name" v="Mjellhovdnatten" />
		<tag k="natural" v="hill" />
		<tag k="place" v="locality" />
		<tag k="ssr:stedsnr" v="310314" />
	</node>
	<node id="-261716" lat="60.8048444441" lon="8.93854999974">
		<tag k="name" v="Gullknappen" />
		<tag k="natural" v="hill" />
		<tag k="place" v="locality" />
		<tag k="ssr:stedsnr" v="676490" />
	</node>
	<node id="-261714" lat="60.836333331" lon="8.89801944936">
		<tag k="fixme" v="consider natural=peak for the most distinct mountains in the district" />
		<tag k="name" v="Auenhaugen" />
		<tag k="natural" v="hill" />
		<tag k="place" v="locality" />
		<tag k="ssr:stedsnr" v="676445" />
	</node>
	<node id="-261731" lat="60.7227972181" lon="9.0121722218">
		<tag k="name" v="Røyskar" />
		<tag k="natural" v="valley" />
		<tag k="place" v="locality" />
		<tag k="ssr:stedsnr" v="525758" />
	</node>
	<node id="-261709" lat="60.8188916709" lon="8.81530834042">
		<tag k="name" v="Skurvenatten" />
		<tag k="natural" v="hill" />
		<tag k="place" v="locality" />
		<tag k="ssr:stedsnr" v="676230" />
	</node>
	<node id="-262590" lat="60.8577750016" lon="8.84691110596">
		<tag k="alt_name" v="Nørelihøgdi" />
		<tag k="fixme" v="consider natural=peak for the most distinct mountains in the district" />
		<tag k="name" v="Nørelihovda" />
		<tag k="natural" v="hill" />
		<tag k="place" v="locality" />
		<tag k="ssr:stedsnr" v="798379" />
	</node>
	<node id="-262219" lat="60.7347916653" lon="9.12100277423">
		<tag k="name" v="Augunruddalen" />
		<tag k="natural" v="valley" />
		<tag k="place" v="locality" />
		<tag k="ssr:stedsnr" v="310145" />
	</node>
	<node id="-262218" lat="60.733138892" lon="8.95094999499">
		<tag k="alt_name" v="Bjørnebrothøgdi" />
		<tag k="name" v="Bjørnebrothaugen" />
		<tag k="natural" v="hill" />
		<tag k="place" v="locality" />
		<tag k="ssr:stedsnr" v="310144" />
	</node>
	<node id="-262215" lat="60.723624999" lon="9.08241111939">
		<tag k="name" v="Brennskogberget" />
		<tag k="natural" v="hill" />
		<tag k="place" v="locality" />
		<tag k="ssr:stedsnr" v="310128" />
	</node>
	<node id="-261701" lat="60.7070888928" lon="8.96744167212">
		<tag k="name" v="Robøle" />
		<tag k="natural" v="ridge" />
		<tag k="place" v="locality" />
		<tag k="ssr:stedsnr" v="674347" />
	</node>
	<node id="-262212" lat="60.7917249964" lon="8.84542499357">
		<tag k="name" v="Støklanten" />
		<tag k="natural" v="hill" />
		<tag k="place" v="locality" />
		<tag k="ssr:stedsnr" v="301630" />
	</node>
	<node id="-262582" lat="60.7924444465" lon="8.90304721588">
		<tag k="fixme" v="consider natural=peak for the most distinct mountains in the district" />
		<tag k="name" v="Stølshovda" />
		<tag k="natural" v="hill" />
		<tag k="place" v="locality" />
		<tag k="ssr:stedsnr" v="797253" />
	</node>
	<node id="-261696" lat="60.7244472223" lon="9.11031110684">
		<tag k="name" v="Rukehaugen" />
		<tag k="natural" v="hill" />
		<tag k="place" v="locality" />
		<tag k="ssr:stedsnr" v="674137" />
	</node>
	<node id="-261691" lat="60.6612694424" lon="8.86933889239">
		<tag k="name" v="Svartedalen" />
		<tag k="natural" v="valley" />
		<tag k="place" v="locality" />
		<tag k="ssr:stedsnr" v="480466" />
	</node>
	<node id="-261690" lat="60.7645694443" lon="8.93967222362">
		<tag k="name" v="Gaukelie" />
		<tag k="natural" v="hill" />
		<tag k="place" v="locality" />
		<tag k="ssr:stedsnr" v="467566" />
	</node>
	<node id="-262200" lat="60.7884888925" lon="8.94801944096">
		<tag k="name" v="Syningen" />
		<tag k="natural" v="hill" />
		<tag k="place" v="locality" />
		<tag k="ssr:stedsnr" v="190279" />
	</node>
	<node id="-261682" lat="60.7639805593" lon="9.27050832597">
		<tag k="name" v="Bottan" />
		<tag k="natural" v="valley" />
		<tag k="place" v="locality" />
		<tag k="ssr:stedsnr" v="665799" />
	</node>
	<node id="-261873" lat="60.8248999996" lon="8.83020555299">
		<tag k="name" v="Bjørnehovda" />
		<tag k="natural" v="hill" />
		<tag k="place" v="locality" />
		<tag k="ssr:stedsnr" v="766495" />
	</node>
	<node id="-262589" lat="60.8144083302" lon="8.97082777971">
		<tag k="name" v="Bjørnalihaugan" />
		<tag k="natural" v="hill" />
		<tag k="place" v="locality" />
		<tag k="ssr:stedsnr" v="797486" />
	</node>
	<node id="-261566" lat="60.8136222191" lon="8.89191667037">
		<tag k="name" v="Kvilingsbakken" />
		<tag k="natural" v="slope" />
		<tag k="place" v="locality" />
		<tag k="ssr:stedsnr" v="312486" />
	</node>
	<node id="-262187" lat="60.670427779" lon="8.93090000296">
		<tag k="name" v="Dragardalen" />
		<tag k="natural" v="valley" />
		<tag k="place" v="locality" />
		<tag k="ssr:stedsnr" v="189273" />
	</node>
	<node id="-262407" lat="60.7434305596" lon="9.04721111807">
		<tag k="fixme" v="consider natural=peak for the most distinct mountains in the district" />
		<tag k="name" v="Marsteinhaugen" />
		<tag k="natural" v="hill" />
		<tag k="place" v="locality" />
		<tag k="ssr:stedsnr" v="552193" />
	</node>
	<node id="-261666" lat="60.7223694434" lon="8.77572222897">
		<tag k="name" v="Bergahaugen" />
		<tag k="natural" v="hill" />
		<tag k="place" v="locality" />
		<tag k="ssr:stedsnr" v="420535" />
	</node>
	<node id="-261664" lat="60.6906111146" lon="9.04940277801">
		<tag k="name" v="Hyttebakken" />
		<tag k="natural" v="slope" />
		<tag k="place" v="locality" />
		<tag k="ssr:stedsnr" v="406006" />
	</node>
	<node id="-262175" lat="60.7099472179" lon="8.96639721344">
		<tag k="name" v="Lisbetnøbbi" />
		<tag k="natural" v="hill" />
		<tag k="place" v="locality" />
		<tag k="ssr:stedsnr" v="179245" />
	</node>
	<node id="-262174" lat="60.7128361153" lon="8.85692777878">
		<tag k="name" v="Klovsteinhaugen" />
		<tag k="natural" v="hill" />
		<tag k="place" v="locality" />
		<tag k="ssr:stedsnr" v="179229" />
	</node>
	<node id="-261661" lat="60.7162638892" lon="8.80519443674">
		<tag k="name" v="Toretjernhovda" />
		<tag k="natural" v="hill" />
		<tag k="place" v="locality" />
		<tag k="ssr:stedsnr" v="405159" />
	</node>
	<node id="-261658" lat="60.8447027788" lon="8.95080000414">
		<tag k="name" v="Gurisetlie" />
		<tag k="natural" v="slope" />
		<tag k="place" v="locality" />
		<tag k="ssr:stedsnr" v="373464" />
	</node>
	<node id="-262660" lat="60.7196611136" lon="8.82013055813">
		<tag k="name" v="Veslestølhovda" />
		<tag k="natural" v="hill" />
		<tag k="place" v="locality" />
		<tag k="ssr:stedsnr" v="952199" />
	</node>
	<node id="-261497" lat="60.7019555598" lon="8.87576944901">
		<tag k="name" v="Fugleskalberget" />
		<tag k="natural" v="hill" />
		<tag k="place" v="locality" />
		<tag k="ssr:stedsnr" v="179220" />
	</node>
	<node id="-262675" lat="60.7792759638" lon="9.04793598233">
		<tag k="name" v="Kvannebakken" />
		<tag k="natural" v="slope" />
		<tag k="place" v="locality" />
		<tag k="ssr:stedsnr" v="976596" />
	</node>
	<node id="-262673" lat="60.768602778" lon="9.13320832484">
		<tag k="name" v="Blåbærberget" />
		<tag k="natural" v="hill" />
		<tag k="place" v="locality" />
		<tag k="ssr:stedsnr" v="969661" />
	</node>
	<node id="-262672" lat="60.7591888924" lon="9.2631999959">
		<tag k="name" v="Natten" />
		<tag k="natural" v="hill" />
		<tag k="place" v="locality" />
		<tag k="ssr:stedsnr" v="969652" />
	</node>
	<node id="-262669" lat="60.7576016322" lon="8.72148022969">
		<tag k="name" v="Blåbærhovda" />
		<tag k="natural" v="hill" />
		<tag k="place" v="locality" />
		<tag k="ssr:stedsnr" v="966185" />
	</node>
	<node id="-262156" lat="60.8196361135" lon="8.82170277463">
		<tag k="name" v="Vermelihovde" />
		<tag k="natural" v="hill" />
		<tag k="place" v="locality" />
		<tag k="ssr:stedsnr" v="159329" />
	</node>
	<node id="-262658" lat="60.6816500034" lon="9.05138610268">
		<tag k="name" v="Rauskrinuten" />
		<tag k="natural" v="hill" />
		<tag k="place" v="locality" />
		<tag k="ssr:stedsnr" v="952001" />
	</node>
	<node id="-262154" lat="60.7651027746" lon="9.23556944443">
		<tag k="alt_name" v="Meitebekkfjell" />
		<tag k="fixme" v="consider natural=peak for the most distinct mountains in the district" />
		<tag k="name" v="Meitebekkfjellet" />
		<tag k="natural" v="hill" />
		<tag k="place" v="locality" />
		<tag k="ssr:stedsnr" v="130761" />
	</node>
	<node id="-262153" lat="60.8421444426" lon="8.90127777496">
		<tag k="name" v="Auenhauglie" />
		<tag k="natural" v="slope" />
		<tag k="place" v="locality" />
		<tag k="ssr:stedsnr" v="130373" />
	</node>
	<node id="-262152" lat="60.8610083362" lon="8.87268333047">
		<tag k="name" v="Rundeberget" />
		<tag k="natural" v="hill" />
		<tag k="place" v="locality" />
		<tag k="ssr:stedsnr" v="130370" />
	</node>
	<node id="-261639" lat="60.7247694433" lon="9.0219583389">
		<tag k="alt_name" v="Elgjehovdun" />
		<tag k="fixme" v="consider natural=peak for the most distinct mountains in the district" />
		<tag k="name" v="Elgehovdun" />
		<tag k="natural" v="hill" />
		<tag k="place" v="locality" />
		<tag k="ssr:stedsnr" v="371136" />
	</node>
	<node id="-262662" lat="60.7276999981" lon="8.95354444198">
		<tag k="name" v="Flatåsen" />
		<tag k="natural" v="hill" />
		<tag k="place" v="locality" />
		<tag k="ssr:stedsnr" v="952226" />
	</node>
	<node id="-261636" lat="60.8236722209" lon="8.94014722034">
		<tag k="name" v="Flæin" />
		<tag k="place" v="locality" />
		<tag k="ssr:stedsnr" v="494623" />
	</node>
	<node id="-261635" lat="60.8424194443" lon="8.94579999409">
		<tag k="alt_name" v="Gurisethøgdi" />
		<tag k="name" v="Gurisethovda" />
		<tag k="natural" v="hill" />
		<tag k="place" v="locality" />
		<tag k="ssr:stedsnr" v="494427" />
	</node>
	<node id="-261634" lat="60.7637194484" lon="9.11024722594">
		<tag k="name" v="Steinstølhovda" />
		<tag k="natural" v="hill" />
		<tag k="place" v="locality" />
		<tag k="ssr:stedsnr" v="494280" />
	</node>
</osm>
