<?xml version="1.0" encoding="UTF-8"?>
<<<<<<< HEAD
<osm version="0.6" generator="osmapis">
	<node lat="60.239980658757695" lon="5.000366261647374" id="-43458">
		<tag k="name" v="Sandvikvatnet" />
=======
<osm generator="osmapis" version="0.6">
	<node id="-638965" lat="60.2331972253" lon="5.02619999758">
		<tag k="name" v="Lauvvatnet" />
		<tag k="natural" v="water" />
		<tag k="ssr:stedsnr" v="368583" />
	</node>
	<node id="-638963" lat="60.3476678872" lon="5.04354659493">
		<tag k="name" v="Revursvatnet" />
		<tag k="natural" v="water" />
		<tag k="ssr:stedsnr" v="353290" />
	</node>
	<node id="-639139" lat="60.3632826243" lon="5.02499371529">
		<tag k="name" v="Ørjebekkvatnet" />
		<tag k="natural" v="water" />
		<tag k="ssr:stedsnr" v="409745" />
		<tag k="water" v="lake" />
	</node>
	<node id="-637608" lat="60.3675962211" lon="5.02927636241">
		<tag k="name" v="Stemmevatnet" />
		<tag k="natural" v="water" />
		<tag k="ssr:stedsnr" v="774935" />
		<tag k="water" v="lake" />
	</node>
	<node id="-638954" lat="60.2234333375" lon="5.11098332918">
		<tag k="name" v="Hestatjørna" />
		<tag k="natural" v="water" />
		<tag k="ssr:stedsnr" v="349961" />
	</node>
	<node id="-638953" lat="60.1863366238" lon="5.09781079951">
		<tag k="name" v="Ortadammen" />
		<tag k="ssr:stedsnr" v="349958" />
		<tag k="waterway" v="dam" />
	</node>
	<node id="-638938" lat="60.5287533893" lon="4.89093365434">
		<tag k="name" v="Stora Kvernevatnet" />
		<tag k="natural" v="water" />
		<tag k="ssr:stedsnr" v="349832" />
		<tag k="water" v="lake" />
	</node>
	<node id="-638916" lat="60.3962330812" lon="5.03671008882">
		<tag k="name" v="Klungersvatnet" />
		<tag k="natural" v="water" />
		<tag k="ssr:stedsnr" v="349662" />
		<tag k="water" v="lake" />
	</node>
	<node id="-638907" lat="60.3548638864" lon="4.99949166758">
		<tag k="name" v="Litlavatnet" />
		<tag k="natural" v="water" />
		<tag k="ssr:stedsnr" v="349481" />
		<tag k="water" v="lake" />
	</node>
	<node id="-638905" lat="60.4440519099" lon="4.91852451218">
		<tag k="name" v="Sandvikavatnet" />
		<tag k="natural" v="water" />
		<tag k="ssr:stedsnr" v="349422" />
		<tag k="water" v="lake" />
	</node>
	<node id="-636853" lat="60.5469759187" lon="4.8746193139">
		<tag k="name" v="Heiavatnet" />
		<tag k="natural" v="water" />
		<tag k="ssr:stedsnr" v="674736" />
	</node>
	<node id="-638620" lat="60.3176997046" lon="5.04831129058">
		<tag k="name" v="Svortetjørna" />
		<tag k="natural" v="water" />
		<tag k="ssr:stedsnr" v="187284" />
	</node>
	<node id="-636825" lat="60.2785574301" lon="5.06779273455">
		<tag k="name" v="Dalatjørna" />
		<tag k="natural" v="water" />
		<tag k="ssr:stedsnr" v="673454" />
	</node>
	<node id="-636822" lat="60.3270498742" lon="5.07136894444">
		<tag k="name" v="Eikhammarsvatnet" />
		<tag k="natural" v="water" />
		<tag k="ssr:stedsnr" v="673320" />
	</node>
	<node id="-636821" lat="60.3433615231" lon="5.07747257806">
		<tag k="name" v="Halvgjevatnet" />
		<tag k="natural" v="water" />
		<tag k="ssr:stedsnr" v="673299" />
	</node>
	<node id="-638862" lat="60.4824194405" lon="4.94078611454">
		<tag k="name" v="Kvernebekken" />
		<tag k="ssr:stedsnr" v="348477" />
		<tag k="waterway" v="stream" />
	</node>
	<node id="-636808" lat="60.4513527778" lon="4.98658333032">
		<tag k="name" v="Herevatnet" />
		<tag k="natural" v="water" />
		<tag k="ssr:stedsnr" v="673156" />
	</node>
	<node id="-636799" lat="60.2030147949" lon="5.06270412414">
		<tag k="name" v="Kvernavatnet" />
		<tag k="natural" v="water" />
		<tag k="ssr:stedsnr" v="672687" />
	</node>
	<node id="-636796" lat="60.2387084959" lon="5.10360807278">
		<tag k="name" v="Langavatnet" />
		<tag k="natural" v="water" />
		<tag k="ssr:stedsnr" v="672669" />
		<tag k="water" v="lake" />
	</node>
	<node id="-636795" lat="60.2399642219" lon="5.1133530254">
		<tag k="name" v="Sauatjørna" />
		<tag k="natural" v="water" />
		<tag k="ssr:stedsnr" v="672667" />
	</node>
	<node id="-638269" lat="60.3779138868" lon="5.00368889725">
		<tag k="name" v="Brunavatnet" />
		<tag k="natural" v="water" />
		<tag k="ssr:stedsnr" v="106305" />
		<tag k="water" v="lake" />
	</node>
	<node id="-636776" lat="60.6298951129" lon="4.82074173756">
		<tag k="name" v="Mækvatnet" />
		<tag k="natural" v="water" />
		<tag k="ssr:stedsnr" v="470857" />
		<tag k="water" v="lake" />
	</node>
	<node id="-636771" lat="60.2402232507" lon="5.1053957938">
		<tag k="name" v="Stora Torvhustjørna" />
>>>>>>> e1d4bc35ff8a6074a6f2e91616a996b547c36f15
		<tag k="natural" v="water" />
		<tag k="ssr:stedsnr" v="4547" />
	</node>
<<<<<<< HEAD
	<node lat="60.43565555691234" lon="5.002761102780147" id="-43468">
		<tag k="name" v="Kvernavatnet" />
=======
	<node id="-636770" lat="60.2412916682" lon="5.12448055459">
		<tag k="name" v="Setratjørna" />
>>>>>>> e1d4bc35ff8a6074a6f2e91616a996b547c36f15
		<tag k="natural" v="water" />
		<tag k="ssr:stedsnr" v="5168" />
	</node>
<<<<<<< HEAD
	<node lat="60.405861113896265" lon="4.988955553989112" id="-43470">
		<tag k="name" v="Polleidet" />
		<tag k="place" v="locality" />
		<tag k="ssr:stedsnr" v="5323" />
	</node>
	<node lat="60.29403763305642" lon="5.061302526878798" id="-43473">
		<tag k="name" v="Kyrkjevikvatnet" />
=======
	<node id="-638797" lat="60.5967520562" lon="4.83626598593">
		<tag k="name" v="Husvatnet" />
		<tag k="natural" v="water" />
		<tag k="ssr:stedsnr" v="310034" />
	</node>
	<node id="-638785" lat="60.3055277755" lon="5.10960278503">
		<tag k="name" v="Skogavatnet" />
>>>>>>> e1d4bc35ff8a6074a6f2e91616a996b547c36f15
		<tag k="natural" v="water" />
		<tag k="ssr:stedsnr" v="5424" />
	</node>
<<<<<<< HEAD
	<node lat="60.28562625267287" lon="5.099696720480841" id="-43475">
		<tag k="name" v="Haganesvatnet" />
=======
	<node id="-636736" lat="60.2833972817" lon="5.0244762096">
		<tag k="name" v="Stølstjørna" />
>>>>>>> e1d4bc35ff8a6074a6f2e91616a996b547c36f15
		<tag k="natural" v="water" />
		<tag k="ssr:stedsnr" v="5811" />
	</node>
<<<<<<< HEAD
	<node lat="60.2767027773545" lon="4.976733330950285" id="-43505">
		<tag k="name" v="Otrastokkvatnet" />
=======
	<node id="-639968" lat="60.2946038534" lon="5.08617270234">
		<tag k="name" v="Gardatjørna" />
		<tag k="natural" v="water" />
		<tag k="ssr:stedsnr" v="774385" />
	</node>
	<node id="-638772" lat="60.3595888877" lon="5.05774999991">
		<tag k="name" v="Morlandsvatnet" />
>>>>>>> e1d4bc35ff8a6074a6f2e91616a996b547c36f15
		<tag k="natural" v="water" />
		<tag k="ssr:stedsnr" v="44791" />
		<tag k="water" v="lake" />
	</node>
<<<<<<< HEAD
	<node lat="60.65073285431084" lon="4.805033222990418" id="-43508">
		<tag k="name" v="Stakkstjørna" />
=======
	<node id="-638765" lat="60.3525832351" lon="5.04054259099">
		<tag k="name" v="Ørnafjellsvatnet" />
>>>>>>> e1d4bc35ff8a6074a6f2e91616a996b547c36f15
		<tag k="natural" v="water" />
		<tag k="ssr:stedsnr" v="45176" />
	</node>
<<<<<<< HEAD
	<node lat="60.3866208032351" lon="4.974485351464628" id="-43511">
		<tag k="name" v="Tørkeviktjørna" />
		<tag k="natural" v="water" />
		<tag k="ssr:stedsnr" v="45309" />
	</node>
	<node lat="60.23167742293283" lon="5.041044487669482" id="-43518">
		<tag k="name" v="Smånipetjørna" />
=======
	<node id="-638761" lat="60.3365194456" lon="5.03536665985">
		<tag k="name" v="Vadvatnet" />
>>>>>>> e1d4bc35ff8a6074a6f2e91616a996b547c36f15
		<tag k="natural" v="water" />
		<tag k="ssr:stedsnr" v="45549" />
	</node>
<<<<<<< HEAD
	<node lat="60.35541588494895" lon="5.020505854167848" id="-43523">
		<tag k="name" v="Fjerdavatnet" />
=======
	<node id="-636709" lat="60.3941073147" lon="5.10712600205">
		<tag k="name" v="Aretjørna" />
>>>>>>> e1d4bc35ff8a6074a6f2e91616a996b547c36f15
		<tag k="natural" v="water" />
		<tag k="ssr:stedsnr" v="45723" />
		<tag k="water" v="lake" />
	</node>
<<<<<<< HEAD
	<node lat="60.34289457858282" lon="5.053234379993765" id="-43578">
		<tag k="name" v="Tjørnasteinsvatnet" />
		<tag k="natural" v="water" />
		<tag k="ssr:stedsnr" v="66264" />
	</node>
	<node lat="60.36137763533157" lon="5.039639665579282" id="-43606">
		<tag k="name" v="Rotabekksvatnet" />
=======
	<node id="-636207" lat="60.6127995878" lon="4.81142380128">
		<tag k="name" v="Stekketjørna" />
		<tag k="natural" v="water" />
		<tag k="ssr:stedsnr" v="228210" />
	</node>
	<node id="-638740" lat="60.2943398803" lon="5.07198573214">
		<tag k="name" v="Langavatnet" />
>>>>>>> e1d4bc35ff8a6074a6f2e91616a996b547c36f15
		<tag k="natural" v="water" />
		<tag k="ssr:stedsnr" v="248329" />
	</node>
<<<<<<< HEAD
	<node lat="60.20551666745911" lon="5.148452785391289" id="-43619">
		<tag k="name" v="Høylandsvatnet" />
=======
	<node id="-638738" lat="60.3785913822" lon="5.08595570585">
		<tag k="name" v="Bruavatnet" />
>>>>>>> e1d4bc35ff8a6074a6f2e91616a996b547c36f15
		<tag k="natural" v="water" />
		<tag k="ssr:stedsnr" v="247850" />
	</node>
<<<<<<< HEAD
	<node lat="60.27048071182861" lon="4.983263802557494" id="-43631">
		<tag k="name" v="Krokavatnet" />
=======
	<node id="-638730" lat="60.3222811504" lon="5.06916038581">
		<tag k="name" v="Bosvatnet" />
>>>>>>> e1d4bc35ff8a6074a6f2e91616a996b547c36f15
		<tag k="natural" v="water" />
		<tag k="ssr:stedsnr" v="248485" />
		<tag k="water" v="lake" />
	</node>
<<<<<<< HEAD
	<node lat="60.35787755785788" lon="5.101170799086058" id="-43636">
		<tag k="name" v="Holmavatnet" />
=======
	<node id="-638729" lat="60.3203194096" lon="5.05407893279">
		<tag k="name" v="Vadtjørna" />
>>>>>>> e1d4bc35ff8a6074a6f2e91616a996b547c36f15
		<tag k="natural" v="water" />
		<tag k="ssr:stedsnr" v="248758" />
	</node>
<<<<<<< HEAD
	<node lat="60.31416376628769" lon="5.112928379304751" id="-43638">
		<tag k="name" v="Tårnavatnet" />
=======
	<node id="-639958" lat="60.3505444418" lon="5.07559443729">
		<tag k="name" v="Beinastaden" />
		<tag k="natural" v="cape" />
		<tag k="ssr:stedsnr" v="774575" />
	</node>
	<node id="-638721" lat="60.2389574082" lon="5.01358583953">
		<tag k="name" v="Stovevatnet" />
>>>>>>> e1d4bc35ff8a6074a6f2e91616a996b547c36f15
		<tag k="natural" v="water" />
		<tag k="ssr:stedsnr" v="248769" />
	</node>
<<<<<<< HEAD
	<node lat="60.21917499764175" lon="5.030991666872084" id="-43653">
		<tag k="name" v="Litlatjørna" />
=======
	<node id="-636641" lat="60.3738556061" lon="5.12993584549">
		<tag k="name" v="Byksevatnet" />
>>>>>>> e1d4bc35ff8a6074a6f2e91616a996b547c36f15
		<tag k="natural" v="water" />
		<tag k="ssr:stedsnr" v="105540" />
	</node>
<<<<<<< HEAD
	<node lat="60.38412222242887" lon="5.134999991992188" id="-43662">
		<tag k="name" v="Kvernavatnet" />
=======
	<node id="-636631" lat="60.6101143387" lon="4.80845746329">
		<tag k="name" v="Storavatnet" />
>>>>>>> e1d4bc35ff8a6074a6f2e91616a996b547c36f15
		<tag k="natural" v="water" />
		<tag k="ssr:stedsnr" v="106123" />
		<tag k="water" v="lake" />
	</node>
<<<<<<< HEAD
	<node lat="60.57070971600095" lon="4.855768270131644" id="-43663">
		<tag k="name" v="Vardevatnet" />
		<tag k="natural" v="water" />
		<tag k="ssr:stedsnr" v="106022" />
	</node>
	<node lat="60.65416841483426" lon="4.800005004385245" id="-43675">
		<tag k="name" v="Selkartjørna" />
=======
	<node id="-636627" lat="60.254852782" lon="5.04393889375">
		<tag k="name" v="Verasundet" />
		<tag k="natural" v="strait" />
		<tag k="ssr:stedsnr" v="491510" />
	</node>
	<node id="-636625" lat="60.2620666626" lon="5.00211944121">
		<tag k="name" v="Gåsavatnet" />
>>>>>>> e1d4bc35ff8a6074a6f2e91616a996b547c36f15
		<tag k="natural" v="water" />
		<tag k="ssr:stedsnr" v="106178" />
		<tag k="water" v="lake" />
	</node>
<<<<<<< HEAD
	<node lat="60.37791388683014" lon="5.003688897250537" id="-43677">
		<tag k="name" v="Brunavatnet" />
=======
	<node id="-636622" lat="60.3462842103" lon="5.05853304327">
		<tag k="alt_name" v="Kyrkjenibbvatnet" />
		<tag k="name" v="Kyrkjevatnet" />
>>>>>>> e1d4bc35ff8a6074a6f2e91616a996b547c36f15
		<tag k="natural" v="water" />
		<tag k="ssr:stedsnr" v="106305" />
		<tag k="water" v="lake" />
	</node>
<<<<<<< HEAD
	<node lat="60.353991704789166" lon="5.067857391761867" id="-43683">
		<tag k="name" v="Mjåvatnet" />
=======
	<node id="-638667" lat="60.5423605091" lon="4.87495989026">
		<tag k="name" v="Åmundsvatnet" />
>>>>>>> e1d4bc35ff8a6074a6f2e91616a996b547c36f15
		<tag k="natural" v="water" />
		<tag k="ssr:stedsnr" v="106514" />
	</node>
<<<<<<< HEAD
	<node lat="60.34086505516052" lon="5.052592139857133" id="-43687">
		<tag k="name" v="Hundatjørna" />
=======
	<node id="-638663" lat="60.376165629" lon="5.14319651106">
		<tag k="fixme" v="multiple name tags, choose one and add the other to alt_name" />
		<tag k="name" v="Magnusvatnet;Odavatnet" />
>>>>>>> e1d4bc35ff8a6074a6f2e91616a996b547c36f15
		<tag k="natural" v="water" />
		<tag k="ssr:stedsnr" v="106582" />
	</node>
<<<<<<< HEAD
	<node lat="60.321961111120395" lon="5.055480553984509" id="-43701">
		<tag k="name" v="Krokavatnet" />
=======
	<node id="-639264" lat="60.6431057852" lon="4.81499897329">
		<tag k="name" v="Hjelmevatnet" />
		<tag k="natural" v="water" />
		<tag k="ssr:stedsnr" v="431590" />
		<tag k="water" v="lake" />
	</node>
	<node id="-636606" lat="60.3622100024" lon="5.12594546196">
		<tag k="name" v="Stovevatnet" />
>>>>>>> e1d4bc35ff8a6074a6f2e91616a996b547c36f15
		<tag k="natural" v="water" />
		<tag k="ssr:stedsnr" v="106679" />
		<tag k="water" v="lake" />
	</node>
<<<<<<< HEAD
	<node lat="60.31513610770689" lon="5.0434750035481635" id="-43702">
		<tag k="name" v="Holmo" />
		<tag k="natural" v="cape" />
		<tag k="ssr:stedsnr" v="106682" />
	</node>
	<node lat="60.376811109131694" lon="5.048424993203981" id="-43708">
		<tag k="name" v="Kvernavatnet" />
=======
	<node id="-636604" lat="60.1789472213" lon="5.05481943768">
		<tag k="name" v="Storavatnet" />
>>>>>>> e1d4bc35ff8a6074a6f2e91616a996b547c36f15
		<tag k="natural" v="water" />
		<tag k="ssr:stedsnr" v="106917" />
		<tag k="water" v="lake" />
	</node>
<<<<<<< HEAD
	<node lat="60.470800167641514" lon="4.950556329510154" id="-43714">
		<tag k="name" v="Søgardsvatnet" />
=======
	<node id="-636601" lat="60.2476776493" lon="5.10636772624">
		<tag k="name" v="Dommedalsvatnet" />
>>>>>>> e1d4bc35ff8a6074a6f2e91616a996b547c36f15
		<tag k="natural" v="water" />
		<tag k="ssr:stedsnr" v="106807" />
		<tag k="water" v="lake" />
	</node>
<<<<<<< HEAD
	<node lat="60.272363886454606" lon="5.033963893598679" id="-43716">
		<tag k="name" v="Tangen" />
		<tag k="natural" v="cape" />
		<tag k="ssr:stedsnr" v="106881" />
	</node>
	<node lat="60.611272225860716" lon="4.798791662436139" id="-43721">
		<tag k="name" v="Vassholmen" />
		<tag k="place" v="islet" />
		<tag k="ssr:stedsnr" v="107187" />
	</node>
	<node lat="60.24748202224365" lon="5.014854623295982" id="-43744">
		<tag k="name" v="Kvernavatnet" />
=======
	<node id="-636599" lat="60.2859961187" lon="4.97496304786">
		<tag k="alt_name" v="Sævartjørna" />
		<tag k="name" v="Nordra Gullkjelda" />
		<tag k="natural" v="water" />
		<tag k="ssr:stedsnr" v="490443" />
	</node>
	<node id="-638646" lat="60.2538388843" lon="5.03863332625">
		<tag k="name" v="Bleikja" />
		<tag k="place" v="islet" />
		<tag k="ssr:stedsnr" v="188535" />
	</node>
	<node id="-638645" lat="60.2678401229" lon="5.08049501418">
		<tag k="fixme" v="multiple name tags, choose one and add the other to alt_name" />
		<tag k="name" v="Kvernavatnet;Skogsvatnet" />
		<tag k="natural" v="water" />
		<tag k="ssr:stedsnr" v="188523" />
	</node>
	<node id="-636595" lat="60.378420183" lon="4.99562989725">
		<tag k="name" v="Nordsta Rotavatnet" />
>>>>>>> e1d4bc35ff8a6074a6f2e91616a996b547c36f15
		<tag k="natural" v="water" />
		<tag k="ssr:stedsnr" v="125550" />
	</node>
<<<<<<< HEAD
	<node lat="60.479945260572364" lon="4.95409845059751" id="-43748">
		<tag k="name" v="Midtvatnet" />
=======
	<node id="-636589" lat="60.3522931093" lon="5.00664273809">
		<tag k="name" v="Engesvatnet" />
>>>>>>> e1d4bc35ff8a6074a6f2e91616a996b547c36f15
		<tag k="natural" v="water" />
		<tag k="ssr:stedsnr" v="126222" />
	</node>
<<<<<<< HEAD
	<node lat="60.24832948613964" lon="5.0304412780542584" id="-43853">
		<tag k="name" v="Klokkarvatnet" />
=======
	<node id="-638634" lat="60.2837202366" lon="5.03756660473">
		<tag k="name" v="Sjoartjørna" />
>>>>>>> e1d4bc35ff8a6074a6f2e91616a996b547c36f15
		<tag k="natural" v="water" />
		<tag k="ssr:stedsnr" v="186599" />
	</node>
<<<<<<< HEAD
	<node lat="60.23673691795342" lon="5.1323463270199134" id="-43856">
		<tag k="name" v="Lensmannsvatnet" />
		<tag k="natural" v="water" />
		<tag k="ssr:stedsnr" v="186709" />
	</node>
	<node lat="60.38471944034317" lon="5.008486109872689" id="-43858">
=======
	<node id="-638625" lat="60.3847194403" lon="5.00848610987">
>>>>>>> e1d4bc35ff8a6074a6f2e91616a996b547c36f15
		<tag k="name" v="Krokvatnet" />
		<tag k="natural" v="water" />
		<tag k="ssr:stedsnr" v="187308" />
	</node>
<<<<<<< HEAD
	<node lat="60.31769970463399" lon="5.048311290583817" id="-43864">
		<tag k="name" v="Svortetjørna" />
		<tag k="natural" v="water" />
		<tag k="ssr:stedsnr" v="187284" />
	</node>
	<node lat="60.28372023660678" lon="5.037566604734987" id="-43869">
		<tag k="name" v="Sjoartjørna" />
=======
	<node id="-636572" lat="60.3938722252" lon="5.00014999861">
		<tag k="name" v="Ågotneselva" />
		<tag k="ssr:stedsnr" v="349511" />
		<tag k="waterway" v="river" />
	</node>
	<node id="-638616" lat="60.3450357399" lon="5.02855223222">
		<tag k="name" v="Insta Skålvikvatnet" />
>>>>>>> e1d4bc35ff8a6074a6f2e91616a996b547c36f15
		<tag k="natural" v="water" />
		<tag k="ssr:stedsnr" v="187424" />
	</node>
	<node lat="60.26796939385817" lon="5.080451844729069" id="-43878">
		<tag k="fixme" v="multiple name tags, choose one and add the other to alt_name" />
		<tag k="name" v="Skogsvatnet;Kvernavatnet" />
		<tag k="natural" v="water" />
		<tag k="ssr:stedsnr" v="188523" />
	</node>
<<<<<<< HEAD
	<node lat="60.23823508141435" lon="5.01443742851201" id="-43956">
		<tag k="name" v="Vindkjeften" />
=======
	<node id="-638614" lat="60.3412250007" lon="5.00818611055">
		<tag k="alt_name" v="Ytsta Skålvikvatnet" />
		<tag k="name" v="Litlavatnet" />
>>>>>>> e1d4bc35ff8a6074a6f2e91616a996b547c36f15
		<tag k="natural" v="water" />
		<tag k="ssr:stedsnr" v="227797" />
	</node>
<<<<<<< HEAD
	<node lat="60.61279958778035" lon="4.811423801284815" id="-43977">
		<tag k="name" v="Stekketjørna" />
=======
	<node id="-636565" lat="60.29015588" lon="5.01972685375">
		<tag k="name" v="Blandingsvatnet" />
>>>>>>> e1d4bc35ff8a6074a6f2e91616a996b547c36f15
		<tag k="natural" v="water" />
		<tag k="ssr:stedsnr" v="228210" />
	</node>
<<<<<<< HEAD
	<node lat="60.35790862934321" lon="5.067194763802036" id="-43983">
		<tag k="name" v="Nordravatnet" />
=======
	<node id="-636563" lat="60.3193204623" lon="5.17132527929">
		<tag k="name" v="Austra Skulevatnet" />
>>>>>>> e1d4bc35ff8a6074a6f2e91616a996b547c36f15
		<tag k="natural" v="water" />
		<tag k="ssr:stedsnr" v="228581" />
		<tag k="water" v="lake" />
	</node>
<<<<<<< HEAD
	<node lat="60.35334296052429" lon="5.06396896531161" id="-43984">
		<tag k="name" v="Nubbavatnet" />
=======
	<node id="-638606" lat="60.236736918" lon="5.13234632702">
		<tag k="name" v="Lensmannsvatnet" />
>>>>>>> e1d4bc35ff8a6074a6f2e91616a996b547c36f15
		<tag k="natural" v="water" />
		<tag k="ssr:stedsnr" v="228596" />
		<tag k="water" v="lake" />
	</node>
<<<<<<< HEAD
	<node lat="60.33528611458383" lon="5.025361105192721" id="-43985">
		<tag k="name" v="Godfarelva" />
		<tag k="ssr:stedsnr" v="228600" />
		<tag k="waterway" v="river" />
	</node>
	<node lat="60.41728555452755" lon="4.99144815432953" id="-44017">
		<tag k="name" v="Bleivatnet" />
=======
	<node id="-638602" lat="60.2483294861" lon="5.03044127805">
		<tag k="name" v="Klokkarvatnet" />
		<tag k="natural" v="water" />
		<tag k="ssr:stedsnr" v="186599" />
	</node>
	<node id="-636546" lat="60.3332249986" lon="5.18024443838">
		<tag k="name" v="Nordravatnet" />
>>>>>>> e1d4bc35ff8a6074a6f2e91616a996b547c36f15
		<tag k="natural" v="water" />
		<tag k="ssr:stedsnr" v="248175" />
	</node>
<<<<<<< HEAD
	<node lat="60.39504200457984" lon="5.027962506115751" id="-44020">
		<tag k="name" v="Haggardsvatnet" />
=======
	<node id="-638589" lat="60.2331660708" lon="5.10546261951">
		<tag k="name" v="Hestatjørna" />
>>>>>>> e1d4bc35ff8a6074a6f2e91616a996b547c36f15
		<tag k="natural" v="water" />
		<tag k="ssr:stedsnr" v="248310" />
	</node>
<<<<<<< HEAD
	<node lat="60.2886075480168" lon="5.115235458238955" id="-44033">
		<tag k="name" v="Brattestigvatnet" />
=======
	<node id="-638588" lat="60.3966200271" lon="5.07227837953">
		<tag k="name" v="Vatnet" />
>>>>>>> e1d4bc35ff8a6074a6f2e91616a996b547c36f15
		<tag k="natural" v="water" />
		<tag k="ssr:stedsnr" v="248867" />
	</node>
<<<<<<< HEAD
	<node lat="60.23976199788037" lon="5.166337955572415" id="-44066">
		<tag k="name" v="Vestra tjørna" />
=======
	<node id="-638579" lat="60.3533258605" lon="5.01166665398">
		<tag k="name" v="Bakkatjørna" />
>>>>>>> e1d4bc35ff8a6074a6f2e91616a996b547c36f15
		<tag k="natural" v="water" />
		<tag k="ssr:stedsnr" v="288204" />
	</node>
<<<<<<< HEAD
	<node lat="60.617607262864944" lon="4.810114067237748" id="-44067">
		<tag k="name" v="Svartetjørna" />
=======
	<node id="-638578" lat="60.350240699" lon="5.01879579036">
		<tag k="name" v="Djupedalstjørna" />
>>>>>>> e1d4bc35ff8a6074a6f2e91616a996b547c36f15
		<tag k="natural" v="water" />
		<tag k="ssr:stedsnr" v="288209" />
	</node>
<<<<<<< HEAD
	<node lat="60.3436305577761" lon="5.043274991563645" id="-44087">
		<tag k="name" v="Bekkarøtla" />
		<tag k="ssr:stedsnr" v="288550" />
		<tag k="waterway" v="stream" />
	</node>
	<node lat="60.35281667021426" lon="5.072000000730556" id="-44093">
		<tag k="name" v="Store Måsholmen" />
		<tag k="place" v="islet" />
		<tag k="ssr:stedsnr" v="288478" />
	</node>
	<node lat="60.238957408162825" lon="5.0135858395296955" id="-44130">
		<tag k="name" v="Stovevatnet" />
=======
	<node id="-636522" lat="60.2376006904" lon="5.04028827164">
		<tag k="name" v="Lonstangtjørna" />
>>>>>>> e1d4bc35ff8a6074a6f2e91616a996b547c36f15
		<tag k="natural" v="water" />
		<tag k="ssr:stedsnr" v="307561" />
	</node>
<<<<<<< HEAD
	<node lat="60.32031940956732" lon="5.054078932788852" id="-44137">
		<tag k="name" v="Vadtjørna" />
=======
	<node id="-638566" lat="60.3359323508" lon="5.0229640776">
		<tag k="name" v="Skjenavatnet" />
>>>>>>> e1d4bc35ff8a6074a6f2e91616a996b547c36f15
		<tag k="natural" v="water" />
		<tag k="ssr:stedsnr" v="308258" />
	</node>
<<<<<<< HEAD
	<node lat="60.322281150355835" lon="5.069160385805319" id="-44138">
		<tag k="name" v="Bosvatnet" />
		<tag k="natural" v="water" />
		<tag k="ssr:stedsnr" v="308261" />
	</node>
	<node lat="60.30104166291058" lon="5.082730563179848" id="-44145">
		<tag k="alt_name" v="Fossavatnet" />
		<tag k="name" v="Fossvatnet" />
=======
	<node id="-638565" lat="60.3592111091" lon="5.05509721465">
		<tag k="name" v="Neset" />
		<tag k="natural" v="cape" />
		<tag k="ssr:stedsnr" v="167590" />
	</node>
	<node id="-636511" lat="60.2728722199" lon="5.00724445221">
		<tag k="name" v="Kørelen" />
>>>>>>> e1d4bc35ff8a6074a6f2e91616a996b547c36f15
		<tag k="natural" v="water" />
		<tag k="ssr:stedsnr" v="308422" />
	</node>
<<<<<<< HEAD
	<node lat="60.37859138219676" lon="5.085955705853553" id="-44148">
		<tag k="name" v="Bruavatnet" />
=======
	<node id="-636510" lat="60.3694224301" lon="5.15374569657">
		<tag k="name" v="Mustadvatnet" />
>>>>>>> e1d4bc35ff8a6074a6f2e91616a996b547c36f15
		<tag k="natural" v="water" />
		<tag k="ssr:stedsnr" v="308342" />
	</node>
<<<<<<< HEAD
	<node lat="60.2943398802802" lon="5.0719857321376836" id="-44150">
		<tag k="name" v="Langavatnet" />
=======
	<node id="-636487" lat="60.2293333309" lon="5.14241943972">
		<tag k="name" v="Sundsvatnet" />
>>>>>>> e1d4bc35ff8a6074a6f2e91616a996b547c36f15
		<tag k="natural" v="water" />
		<tag k="ssr:stedsnr" v="308396" />
	</node>
<<<<<<< HEAD
	<node lat="60.218816663115376" lon="5.135652782416211" id="-44152">
=======
	<node id="-636486" lat="60.2188166631" lon="5.13565278242">
>>>>>>> e1d4bc35ff8a6074a6f2e91616a996b547c36f15
		<tag k="name" v="Førdesvatnet" />
		<tag k="natural" v="water" />
		<tag k="ssr:stedsnr" v="308818" />
		<tag k="water" v="lake" />
	</node>
<<<<<<< HEAD
	<node lat="60.35958888770287" lon="5.057749999907395" id="-44160">
		<tag k="name" v="Morlandsvatnet" />
=======
	<node id="-636046" lat="60.2350388891" lon="5.12634444913">
		<tag k="name" v="Søra Sundstjørna" />
		<tag k="natural" v="water" />
		<tag k="ssr:stedsnr" v="167953" />
	</node>
	<node id="-638530" lat="60.2420031509" lon="5.05363029927">
		<tag k="name" v="Torvatjørna" />
>>>>>>> e1d4bc35ff8a6074a6f2e91616a996b547c36f15
		<tag k="natural" v="water" />
		<tag k="ssr:stedsnr" v="309390" />
		<tag k="water" v="lake" />
	</node>
<<<<<<< HEAD
	<node lat="60.596752056199016" lon="4.836265985929739" id="-44168">
		<tag k="name" v="Husvatnet" />
		<tag k="natural" v="water" />
		<tag k="ssr:stedsnr" v="310034" />
	</node>
	<node lat="60.181883334075785" lon="5.053838885845435" id="-44198">
		<tag k="name" v="Uraholmane" />
		<tag k="place" v="islet" />
		<tag k="ssr:stedsnr" v="469555" />
	</node>
	<node lat="60.23057996747351" lon="5.021978619899582" id="-44199">
		<tag k="name" v="Lauvholmen" />
		<tag k="place" v="islet" />
		<tag k="ssr:stedsnr" v="469556" />
	</node>
	<node lat="60.584953424240105" lon="4.8573370173185" id="-44215">
		<tag k="name" v="Straumøyvatnet" />
=======
	<node id="-636477" lat="60.1713826635" lon="5.09102198382">
		<tag k="name" v="Kyrkjesundet" />
		<tag k="place" v="locality" />
		<tag k="ssr:stedsnr" v="470995" />
	</node>
	<node id="-636475" lat="60.3474527823" lon="5.14586389509">
		<tag k="name" v="Sauavatnet" />
>>>>>>> e1d4bc35ff8a6074a6f2e91616a996b547c36f15
		<tag k="natural" v="water" />
		<tag k="ssr:stedsnr" v="470135" />
		<tag k="water" v="lake" />
	</node>
<<<<<<< HEAD
	<node lat="60.62025571412464" lon="4.820151286074266" id="-44231">
		<tag k="name" v="Gåsetjørna" />
=======
	<node id="-636474" lat="60.349783503" lon="5.13519350056">
		<tag k="name" v="Skogavatnet" />
>>>>>>> e1d4bc35ff8a6074a6f2e91616a996b547c36f15
		<tag k="natural" v="water" />
		<tag k="ssr:stedsnr" v="470192" />
		<tag k="water" v="lake" />
	</node>
<<<<<<< HEAD
	<node lat="60.241291668213684" lon="5.124480554592664" id="-44236">
		<tag k="name" v="Setratjørna" />
		<tag k="natural" v="water" />
		<tag k="ssr:stedsnr" v="470205" />
	</node>
	<node lat="60.24022325073074" lon="5.105395793800607" id="-44237">
		<tag k="name" v="Stora Torvhustjørna" />
=======
	<node id="-638513" lat="60.2542342396" lon="5.12058609478">
		<tag k="name" v="Insta Sangoltsvatnet" />
>>>>>>> e1d4bc35ff8a6074a6f2e91616a996b547c36f15
		<tag k="natural" v="water" />
		<tag k="ssr:stedsnr" v="470207" />
	</node>
<<<<<<< HEAD
	<node lat="60.34654857976652" lon="4.951339754087212" id="-44250">
		<tag k="name" v="Lundevatnet" />
		<tag k="natural" v="water" />
		<tag k="ssr:stedsnr" v="470386" />
		<tag k="water" v="lake" />
	</node>
	<node lat="60.3592055578927" lon="5.033024999837395" id="-44271">
=======
	<node id="-636440" lat="60.3592055579" lon="5.03302499984">
>>>>>>> e1d4bc35ff8a6074a6f2e91616a996b547c36f15
		<tag k="name" v="Brakeidet" />
		<tag k="place" v="locality" />
		<tag k="ssr:stedsnr" v="470735" />
	</node>
<<<<<<< HEAD
	<node lat="60.629895112878344" lon="4.8207417375603026" id="-44277">
		<tag k="name" v="Mækvatnet" />
		<tag k="natural" v="water" />
		<tag k="ssr:stedsnr" v="470857" />
		<tag k="water" v="lake" />
	</node>
	<node lat="60.34978350296628" lon="5.135193500560337" id="-44282">
		<tag k="name" v="Skogavatnet" />
=======
	<node id="-636432" lat="60.3226583326" lon="5.07471111031">
		<tag k="name" v="Gardstjørna" />
>>>>>>> e1d4bc35ff8a6074a6f2e91616a996b547c36f15
		<tag k="natural" v="water" />
		<tag k="ssr:stedsnr" v="470978" />
		<tag k="water" v="lake" />
	</node>
<<<<<<< HEAD
	<node lat="60.347452782251295" lon="5.145863895087655" id="-44283">
		<tag k="name" v="Sauavatnet" />
=======
	<node id="-638454" lat="60.5466058804" lon="4.88953256418">
		<tag k="name" v="Ljøsnesvatnet" />
>>>>>>> e1d4bc35ff8a6074a6f2e91616a996b547c36f15
		<tag k="natural" v="water" />
		<tag k="ssr:stedsnr" v="470980" />
		<tag k="water" v="lake" />
	</node>
<<<<<<< HEAD
	<node lat="60.17138266348928" lon="5.0910219838196715" id="-44293">
		<tag k="name" v="Kyrkjesundet" />
		<tag k="place" v="locality" />
		<tag k="ssr:stedsnr" v="470995" />
	</node>
	<node lat="60.36942243006405" lon="5.153745696568956" id="-44307">
		<tag k="name" v="Mustadvatnet" />
=======
	<node id="-636401" lat="60.3465485798" lon="4.95133975409">
		<tag k="name" v="Lundevatnet" />
>>>>>>> e1d4bc35ff8a6074a6f2e91616a996b547c36f15
		<tag k="natural" v="water" />
		<tag k="ssr:stedsnr" v="348103" />
		<tag k="water" v="lake" />
	</node>
<<<<<<< HEAD
	<node lat="60.23760069037413" lon="5.040288271638976" id="-44318">
		<tag k="name" v="Lonstangtjørna" />
=======
	<node id="-636379" lat="60.6202557141" lon="4.82015128607">
		<tag k="name" v="Gåsetjørna" />
>>>>>>> e1d4bc35ff8a6074a6f2e91616a996b547c36f15
		<tag k="natural" v="water" />
		<tag k="ssr:stedsnr" v="348502" />
	</node>
<<<<<<< HEAD
	<node lat="60.33322499863269" lon="5.180244438382154" id="-44326">
		<tag k="name" v="Nordravatnet" />
=======
	<node id="-636365" lat="60.2539416688" lon="5.06103610638">
		<tag k="name" v="Kørelen" />
>>>>>>> e1d4bc35ff8a6074a6f2e91616a996b547c36f15
		<tag k="natural" v="water" />
		<tag k="ssr:stedsnr" v="348761" />
		<tag k="water" v="lake" />
	</node>
<<<<<<< HEAD
	<node lat="60.31932046233866" lon="5.171325279289968" id="-44349">
		<tag k="name" v="Austra Skulevatnet" />
		<tag k="natural" v="water" />
		<tag k="ssr:stedsnr" v="349402" />
		<tag k="water" v="lake" />
	</node>
	<node lat="60.29015588001124" lon="5.019726853750817" id="-44351">
		<tag k="name" v="Blandingsvatnet" />
=======
	<node id="-638411" lat="60.4799452606" lon="4.9540984506">
		<tag k="name" v="Midtvatnet" />
		<tag k="natural" v="water" />
		<tag k="ssr:stedsnr" v="126222" />
	</node>
	<node id="-638405" lat="60.2474820222" lon="5.0148546233">
		<tag k="name" v="Kvernavatnet" />
		<tag k="natural" v="water" />
		<tag k="ssr:stedsnr" v="125550" />
	</node>
	<node id="-636355" lat="60.2305799675" lon="5.0219786199">
		<tag k="name" v="Lauvholmen" />
		<tag k="place" v="islet" />
		<tag k="ssr:stedsnr" v="469556" />
	</node>
	<node id="-636353" lat="60.5849534242" lon="4.85733701732">
		<tag k="name" v="Straumøyvatnet" />
		<tag k="natural" v="water" />
		<tag k="ssr:stedsnr" v="470135" />
		<tag k="water" v="lake" />
	</node>
	<node id="-636337" lat="60.1818833341" lon="5.05383888585">
		<tag k="name" v="Uraholmane" />
		<tag k="place" v="islet" />
		<tag k="ssr:stedsnr" v="469555" />
	</node>
	<node id="-638381" lat="60.6112722259" lon="4.79879166244">
		<tag k="name" v="Vassholmen" />
		<tag k="place" v="islet" />
		<tag k="ssr:stedsnr" v="107187" />
	</node>
	<node id="-636329" lat="60.2309694415" lon="5.1410000018">
		<tag k="name" v="Lambatjørna" />
		<tag k="natural" v="water" />
		<tag k="ssr:stedsnr" v="289952" />
	</node>
	<node id="-637852" lat="60.1935770749" lon="5.06279815887">
		<tag k="name" v="Ilkjervatnet" />
		<tag k="natural" v="water" />
		<tag k="ssr:stedsnr" v="955527" />
		<tag k="water" v="lake" />
	</node>
	<node id="-638368" lat="60.3768111091" lon="5.0484249932">
		<tag k="name" v="Kvernavatnet" />
		<tag k="natural" v="water" />
		<tag k="ssr:stedsnr" v="106917" />
		<tag k="water" v="lake" />
	</node>
	<node id="-638361" lat="60.2723638865" lon="5.0339638936">
		<tag k="name" v="Tangen" />
		<tag k="natural" v="cape" />
		<tag k="ssr:stedsnr" v="106881" />
	</node>
	<node id="-638357" lat="60.2759351369" lon="5.04605954876">
		<tag k="name" v="Skadtjørna" />
		<tag k="natural" v="water" />
		<tag k="ssr:stedsnr" v="106860" />
	</node>
	<node id="-636305" lat="60.3911277818" lon="5.0341444395">
		<tag k="name" v="Storelva" />
		<tag k="ssr:stedsnr" v="288563" />
		<tag k="waterway" v="river" />
	</node>
	<node id="-636302" lat="60.3037495359" lon="5.09006003012">
		<tag k="name" v="Bårdlitjørna" />
		<tag k="natural" v="water" />
		<tag k="ssr:stedsnr" v="288620" />
	</node>
	<node id="-638342" lat="60.4708001676" lon="4.95055632951">
		<tag k="name" v="Søgardsvatnet" />
		<tag k="natural" v="water" />
		<tag k="ssr:stedsnr" v="106807" />
		<tag k="water" v="lake" />
	</node>
	<node id="-640389" lat="60.3719007551" lon="5.12009688621">
		<tag k="name" v="Grunnavågsvatnet" />
		<tag k="natural" v="water" />
		<tag k="ssr:stedsnr" v="956975" />
		<tag k="water" v="lake" />
	</node>
	<node id="-640384" lat="60.2034416653" lon="5.11784999725">
		<tag k="name" v="Trollavatnet" />
		<tag k="natural" v="water" />
		<tag k="ssr:stedsnr" v="956958" />
		<tag k="water" v="lake" />
	</node>
	<node id="-638334" lat="60.3482238157" lon="5.01988938616">
		<tag k="name" v="Skarvatjørna" />
		<tag k="natural" v="water" />
		<tag k="ssr:stedsnr" v="106735" />
	</node>
	<node id="-640381" lat="60.3763203628" lon="5.02143777448">
		<tag k="name" v="Lontjørna" />
		<tag k="natural" v="water" />
		<tag k="ssr:stedsnr" v="956940" />
	</node>
	<node id="-640380" lat="60.3864015969" lon="5.00890022229">
		<tag k="name" v="Urafjellstjørna" />
		<tag k="natural" v="water" />
		<tag k="ssr:stedsnr" v="956938" />
	</node>
	<node id="-638330" lat="60.3151361077" lon="5.04347500355">
		<tag k="name" v="Holmo" />
		<tag k="natural" v="cape" />
		<tag k="ssr:stedsnr" v="106682" />
	</node>
	<node id="-638329" lat="60.3219611111" lon="5.05548055398">
		<tag k="name" v="Krokavatnet" />
		<tag k="natural" v="water" />
		<tag k="ssr:stedsnr" v="106679" />
		<tag k="water" v="lake" />
	</node>
	<node id="-636277" lat="60.6176072629" lon="4.81011406724">
		<tag k="name" v="Svartetjørna" />
		<tag k="natural" v="water" />
		<tag k="ssr:stedsnr" v="288209" />
	</node>
	<node id="-636276" lat="60.2397619979" lon="5.16633795557">
		<tag k="name" v="Vestra tjørna" />
		<tag k="natural" v="water" />
		<tag k="ssr:stedsnr" v="288204" />
	</node>
	<node id="-638320" lat="60.3408650552" lon="5.05259213986">
		<tag k="name" v="Hundatjørna" />
		<tag k="natural" v="water" />
		<tag k="ssr:stedsnr" v="106582" />
	</node>
	<node id="-636271" lat="60.242930948" lon="5.03297119614">
		<tag k="name" v="Midttjørna" />
		<tag k="natural" v="water" />
		<tag k="ssr:stedsnr" v="287824" />
	</node>
	<node id="-636270" lat="60.283896579" lon="4.97388317721">
		<tag k="fixme" v="multiple name tags, choose one and add the other to alt_name" />
		<tag k="name" v="Mjåvasstjørna;Søra Gullkjelda" />
		<tag k="natural" v="water" />
		<tag k="ssr:stedsnr" v="287819" />
	</node>
	<node id="-636265" lat="60.1958333341" lon="5.05894166169">
		<tag k="name" v="Klesvatnet" />
		<tag k="natural" v="water" />
		<tag k="ssr:stedsnr" v="287570" />
		<tag k="water" v="lake" />
	</node>
	<node id="-636264" lat="60.2261530663" lon="5.02337419133">
		<tag k="name" v="Goltatjørna" />
		<tag k="natural" v="water" />
		<tag k="ssr:stedsnr" v="287561" />
	</node>
	<node id="-638311" lat="60.3655264381" lon="5.06497878902">
		<tag k="name" v="Støavatnet" />
		<tag k="natural" v="water" />
		<tag k="ssr:stedsnr" v="106523" />
		<tag k="water" v="lake" />
	</node>
	<node id="-638310" lat="60.3539917048" lon="5.06785739176">
		<tag k="name" v="Mjåvatnet" />
		<tag k="natural" v="water" />
		<tag k="ssr:stedsnr" v="106514" />
	</node>
	<node id="-638304" lat="60.6105194465" lon="4.81428056271">
		<tag k="name" v="Skjoldåna" />
		<tag k="ssr:stedsnr" v="106470" />
		<tag k="waterway" v="stream" />
	</node>
	<node id="-640350" lat="60.324372891" lon="5.04286180073">
		<tag k="name" v="Kattaneset" />
		<tag k="natural" v="cape" />
		<tag k="ssr:stedsnr" v="956645" />
	</node>
	<node id="-640329" lat="60.3651833371" lon="4.99959999628">
		<tag k="name" v="Krokavatnet" />
		<tag k="natural" v="water" />
		<tag k="ssr:stedsnr" v="956452" />
		<tag k="water" v="lake" />
	</node>
	<node id="-638279" lat="60.2804182401" lon="5.04452869208">
		<tag k="name" v="Skadtjørna" />
		<tag k="natural" v="water" />
		<tag k="ssr:stedsnr" v="106351" />
	</node>
	<node id="-638274" lat="60.319663887" lon="5.16931111">
		<tag k="name" v="Vestra Skulevatnet" />
		<tag k="natural" v="water" />
		<tag k="ssr:stedsnr" v="106339" />
		<tag k="water" v="lake" />
	</node>
	<node id="-640317" lat="60.6149661705" lon="4.82800177124">
		<tag k="name" v="Ytste Tjørna" />
		<tag k="natural" v="water" />
		<tag k="ssr:stedsnr" v="956208" />
	</node>
	<node id="-640308" lat="60.3506555545" lon="5.12676111191">
		<tag k="name" v="Storalona" />
		<tag k="natural" v="water" />
		<tag k="ssr:stedsnr" v="955982" />
		<tag k="water" v="lake" />
	</node>
	<node id="-640307" lat="60.3464972215" lon="5.13978055333">
		<tag k="name" v="Vassvika" />
		<tag k="natural" v="bay" />
		<tag k="ssr:stedsnr" v="955980" />
	</node>
	<node id="-636210" lat="60.3628332166" lon="4.98694552496">
		<tag k="name" v="Skjenevatnet" />
		<tag k="natural" v="water" />
		<tag k="ssr:stedsnr" v="228461" />
		<tag k="water" v="lake" />
	</node>
	<node id="-636209" lat="60.3468666678" lon="5.10178611401">
		<tag k="name" v="Kvernelva" />
		<tag k="ssr:stedsnr" v="228576" />
		<tag k="waterway" v="river" />
	</node>
	<node id="-638255" lat="60.6541684148" lon="4.80000500439">
		<tag k="name" v="Selkartjørna" />
		<tag k="natural" v="water" />
		<tag k="ssr:stedsnr" v="106178" />
		<tag k="water" v="lake" />
	</node>
	<node id="-636206" lat="60.6477138346" lon="4.80001417287">
		<tag k="name" v="Stakksskartjørna" />
		<tag k="natural" v="water" />
		<tag k="ssr:stedsnr" v="228173" />
	</node>
	<node id="-638248" lat="60.3841222224" lon="5.13499999199">
		<tag k="name" v="Kvernavatnet" />
		<tag k="natural" v="water" />
		<tag k="ssr:stedsnr" v="106123" />
		<tag k="water" v="lake" />
	</node>
	<node id="-638237" lat="60.570709716" lon="4.85576827013">
		<tag k="name" v="Vardevatnet" />
		<tag k="natural" v="water" />
		<tag k="ssr:stedsnr" v="106022" />
	</node>
	<node id="-636188" lat="60.4004694407" lon="5.00282500001">
		<tag k="name" v="Vardakleivvatnet" />
		<tag k="natural" v="water" />
		<tag k="ssr:stedsnr" v="227462" />
		<tag k="water" v="lake" />
	</node>
	<node id="-640271" lat="60.1746916689" lon="5.05797499316">
		<tag k="name" v="Litlavatnet" />
		<tag k="natural" v="water" />
		<tag k="ssr:stedsnr" v="955617" />
		<tag k="water" v="lake" />
	</node>
	<node id="-638219" lat="60.2191749976" lon="5.03099166687">
		<tag k="name" v="Litlatjørna" />
		<tag k="natural" v="water" />
		<tag k="ssr:stedsnr" v="105540" />
	</node>
	<node id="-640257" lat="60.4349611076" lon="4.9748500087">
		<tag k="name" v="Pollsvatnet" />
		<tag k="natural" v="water" />
		<tag k="ssr:stedsnr" v="955343" />
		<tag k="water" v="lake" />
	</node>
	<node id="-640256" lat="60.4430509378" lon="4.97734489101">
		<tag k="name" v="Nordra Sandvatnet" />
		<tag k="natural" v="water" />
		<tag k="ssr:stedsnr" v="955331" />
		<tag k="water" v="lake" />
	</node>
	<node id="-640251" lat="60.2640666696" lon="5.10652777766">
		<tag k="name" v="Skagatjørna" />
		<tag k="natural" v="water" />
		<tag k="ssr:stedsnr" v="955224" />
	</node>
	<node id="-636115" lat="60.3436305578" lon="5.04327499156">
		<tag k="name" v="Bekkarøtla" />
		<tag k="ssr:stedsnr" v="288550" />
		<tag k="waterway" v="stream" />
	</node>
	<node id="-636141" lat="60.6290130148" lon="4.80358793956">
		<tag k="name" v="Parisvatnet" />
		<tag k="natural" v="water" />
		<tag k="ssr:stedsnr" v="288849" />
		<tag k="water" v="lake" />
	</node>
	<node id="-636138" lat="60.2614388887" lon="5.03826111146">
		<tag k="name" v="Lotene" />
		<tag k="natural" v="water" />
		<tag k="ssr:stedsnr" v="288846" />
		<tag k="water" v="lake" />
	</node>
	<node id="-638163" lat="60.2999666629" lon="5.11616943773">
		<tag k="name" v="Lielva" />
		<tag k="ssr:stedsnr" v="66859" />
		<tag k="waterway" v="stream" />
	</node>
	<node id="-636112" lat="60.3328856329" lon="5.09043170443">
		<tag k="name" v="Vardafjellstjørna" />
		<tag k="natural" v="water" />
		<tag k="ssr:stedsnr" v="288531" />
	</node>
	<node id="-638154" lat="60.2749686857" lon="4.98928968558">
		<tag k="name" v="Litlekørelen" />
		<tag k="natural" v="water" />
		<tag k="ssr:stedsnr" v="66456" />
		<tag k="water" v="lake" />
	</node>
	<node id="-638150" lat="60.3536534508" lon="5.05436855719">
		<tag k="name" v="Stemmevatnet" />
		<tag k="natural" v="water" />
		<tag k="ssr:stedsnr" v="66270" />
	</node>
	<node id="-638149" lat="60.3428945786" lon="5.05323437999">
		<tag k="name" v="Tjørnasteinsvatnet" />
		<tag k="natural" v="water" />
		<tag k="ssr:stedsnr" v="66264" />
	</node>
	<node id="-636106" lat="60.3528166702" lon="5.07200000073">
		<tag k="name" v="Store Måsholmen" />
		<tag k="place" v="islet" />
		<tag k="ssr:stedsnr" v="288478" />
	</node>
	<node id="-640186" lat="60.48806001" lon="4.95207538572">
		<tag k="name" v="Orrdalsvatnet" />
		<tag k="natural" v="water" />
		<tag k="ssr:stedsnr" v="855228" />
	</node>
	<node id="-636089" lat="60.438764687" lon="4.97936380334">
		<tag k="name" v="Søra Sandvatnet" />
		<tag k="natural" v="water" />
		<tag k="ssr:stedsnr" v="288343" />
		<tag k="water" v="lake" />
	</node>
	<node id="-640170" lat="60.1908472214" lon="5.04725278552">
		<tag k="name" v="Trelleviksvatnet" />
		<tag k="natural" v="water" />
		<tag k="ssr:stedsnr" v="854685" />
	</node>
	<node id="-636063" lat="60.2231928532" lon="5.00877175482">
		<tag k="name" v="Kvernavatnet" />
		<tag k="natural" v="water" />
		<tag k="ssr:stedsnr" v="287647" />
		<tag k="water" v="lake" />
	</node>
	<node id="-635759" lat="60.2382350814" lon="5.01443742851">
		<tag k="name" v="Vindkjeften" />
		<tag k="natural" v="water" />
		<tag k="ssr:stedsnr" v="227797" />
	</node>
	<node id="-640152" lat="60.2180530426" lon="5.11478915037">
		<tag k="name" v="Tangavatnet" />
		<tag k="natural" v="water" />
		<tag k="ssr:stedsnr" v="835943" />
		<tag k="water" v="lake" />
	</node>
	<node id="-640151" lat="60.2268416661" lon="5.07549444104">
		<tag k="name" v="Vassvika" />
		<tag k="natural" v="bay" />
		<tag k="ssr:stedsnr" v="835940" />
	</node>
	<node id="-636052" lat="60.2603210951" lon="5.11948593222">
		<tag k="name" v="Støtjørna" />
		<tag k="natural" v="water" />
		<tag k="ssr:stedsnr" v="287249" />
	</node>
	<node id="-640144" lat="60.3262833337" lon="5.05583055722">
		<tag k="name" v="Hestabekkane" />
		<tag k="ssr:stedsnr" v="835633" />
		<tag k="waterway" v="stream" />
	</node>
	<node id="-638094" lat="60.616149404" lon="4.83129492389">
		<tag k="name" v="Inste Tjørna" />
		<tag k="natural" v="water" />
		<tag k="ssr:stedsnr" v="46194" />
	</node>
	<node id="-636040" lat="60.5327888405" lon="4.89031789428">
		<tag k="name" v="Blomvatnet" />
		<tag k="natural" v="water" />
		<tag k="ssr:stedsnr" v="167820" />
		<tag k="water" v="lake" />
	</node>
	<node id="-640133" lat="60.3190992441" lon="5.16989052326">
		<tag k="name" v="Hellervatnet" />
		<tag k="natural" v="water" />
		<tag k="ssr:stedsnr" v="835363" />
		<tag k="water" v="lake" />
	</node>
	<node id="-640131" lat="60.6559762421" lon="4.8050078742">
		<tag k="name" v="Brutjørna" />
		<tag k="natural" v="water" />
		<tag k="ssr:stedsnr" v="835178" />
	</node>
	<node id="-640129" lat="60.3550881057" lon="5.10109666496">
		<tag k="name" v="Kvernavatnet" />
		<tag k="natural" v="water" />
		<tag k="ssr:stedsnr" v="835279" />
		<tag k="water" v="lake" />
	</node>
	<node id="-638076" lat="60.6260015263" lon="4.84825539085">
		<tag k="name" v="Stekketjørna" />
		<tag k="natural" v="water" />
		<tag k="ssr:stedsnr" v="45857" />
	</node>
	<node id="-640123" lat="60.2773638844" lon="4.98234444024">
		<tag k="name" v="Kanalen" />
		<tag k="natural" v="bay" />
		<tag k="ssr:stedsnr" v="834798" />
	</node>
	<node id="-636012" lat="60.3151540368" lon="5.02126116782">
		<tag k="name" v="Lonane" />
		<tag k="natural" v="water" />
		<tag k="ssr:stedsnr" v="166667" />
		<tag k="water" v="lake" />
	</node>
	<node id="-640096" lat="60.3862180022" lon="5.13754837939">
		<tag k="name" v="Vassledvatnet" />
		<tag k="natural" v="water" />
		<tag k="ssr:stedsnr" v="834132" />
		<tag k="water" v="lake" />
	</node>
	<node id="-640095" lat="60.5693512372" lon="4.80556283262">
		<tag k="name" v="Smågardsvatnet" />
		<tag k="natural" v="water" />
		<tag k="ssr:stedsnr" v="834114" />
		<tag k="water" v="lake" />
	</node>
	<node id="-638044" lat="60.3272962639" lon="5.10653856842">
		<tag k="name" v="Lantefjellsvatnet" />
		<tag k="natural" v="water" />
		<tag k="ssr:stedsnr" v="45562" />
		<tag k="water" v="lake" />
	</node>
	<node id="-638042" lat="60.3300120323" lon="5.10968194956">
		<tag k="name" v="Stemmavatnet" />
		<tag k="natural" v="water" />
		<tag k="ssr:stedsnr" v="45556" />
	</node>
	<node id="-638041" lat="60.2316774229" lon="5.04104448767">
		<tag k="name" v="Smånipetjørna" />
		<tag k="natural" v="water" />
		<tag k="ssr:stedsnr" v="45549" />
	</node>
	<node id="-640087" lat="60.6210472193" lon="4.80796666587">
		<tag k="name" v="Søre Skjoldpollen" />
		<tag k="natural" v="bay" />
		<tag k="ssr:stedsnr" v="834045" />
	</node>
	<node id="-640185" lat="60.3669083354" lon="4.98926666073">
		<tag k="name" v="Møyvatnet" />
		<tag k="natural" v="water" />
		<tag k="ssr:stedsnr" v="855350" />
	</node>
	<node id="-638006" lat="60.3678539417" lon="5.00133172321">
		<tag k="name" v="Buskevatnet" />
		<tag k="natural" v="water" />
		<tag k="ssr:stedsnr" v="45315" />
		<tag k="water" v="lake" />
	</node>
	<node id="-635957" lat="60.3858378332" lon="5.11339157516">
		<tag k="name" v="Storavatnet" />
		<tag k="natural" v="water" />
		<tag k="ssr:stedsnr" v="127709" />
	</node>
	<node id="-635956" lat="60.381436983" lon="5.12595598005">
		<tag k="name" v="Botnavatnet" />
		<tag k="natural" v="water" />
		<tag k="ssr:stedsnr" v="127706" />
	</node>
	<node id="-640045" lat="60.5500460419" lon="4.86945281233">
		<tag k="name" v="Trondalsvatnet" />
		<tag k="natural" v="water" />
		<tag k="ssr:stedsnr" v="795735" />
	</node>
	<node id="-637996" lat="60.6507328543" lon="4.80503322299">
		<tag k="name" v="Stakkstjørna" />
		<tag k="natural" v="water" />
		<tag k="ssr:stedsnr" v="45176" />
	</node>
	<node id="-640039" lat="60.6186283978" lon="4.83461170909">
		<tag k="name" v="Sturevatnet" />
		<tag k="natural" v="water" />
		<tag k="ssr:stedsnr" v="795631" />
	</node>
	<node id="-637990" lat="60.3782250034" lon="5.14644722603">
		<tag k="name" v="Lyklavatnet" />
		<tag k="natural" v="water" />
		<tag k="ssr:stedsnr" v="45117" />
		<tag k="water" v="lake" />
	</node>
	<node id="-640033" lat="60.3553749974" lon="5.14655000265">
		<tag k="fixme" v="multiple name tags, choose one and add the other to alt_name" />
		<tag k="name" v="Arefjordvatnet;Arevatnet" />
		<tag k="natural" v="water" />
		<tag k="ssr:stedsnr" v="794739" />
		<tag k="water" v="lake" />
	</node>
	<node id="-640031" lat="60.3662506134" lon="5.12558203727">
		<tag k="name" v="Skiftedalsvatnet" />
		<tag k="natural" v="water" />
		<tag k="ssr:stedsnr" v="794720" />
	</node>
	<node id="-637981" lat="60.2767027774" lon="4.97673333095">
		<tag k="name" v="Otrastokkvatnet" />
		<tag k="natural" v="water" />
		<tag k="ssr:stedsnr" v="44791" />
		<tag k="water" v="lake" />
	</node>
	<node id="-640028" lat="60.383010918" lon="5.11910807991">
		<tag k="name" v="Vågavatnet" />
		<tag k="natural" v="water" />
		<tag k="ssr:stedsnr" v="794686" />
	</node>
	<node id="-637977" lat="60.1845500031" lon="5.05339999342">
		<tag k="name" v="Vassenden" />
		<tag k="natural" v="bay" />
		<tag k="ssr:stedsnr" v="44517" />
	</node>
	<node id="-637976" lat="60.180158335" lon="5.05484443701">
		<tag k="name" v="Kyrkjesundet" />
		<tag k="natural" v="strait" />
		<tag k="ssr:stedsnr" v="44515" />
	</node>
	<node id="-640023" lat="60.2706861066" lon="5.05608610342">
		<tag k="name" v="Botnen" />
		<tag k="natural" v="bay" />
		<tag k="ssr:stedsnr" v="794465" />
	</node>
	<node id="-637973" lat="60.2409527764" lon="5.09730277962">
		<tag k="name" v="Vassneset" />
		<tag k="natural" v="cape" />
		<tag k="ssr:stedsnr" v="44238" />
	</node>
	<node id="-640008" lat="60.4655814384" lon="4.95323152092">
		<tag k="name" v="Stegeviksvatnet" />
		<tag k="natural" v="water" />
		<tag k="ssr:stedsnr" v="794226" />
	</node>
	<node id="-640002" lat="60.1866724398" lon="5.0611448383">
		<tag k="alt_name" v="Måsavatnet" />
		<tag k="name" v="Raudtjørnavatnet" />
		<tag k="natural" v="water" />
		<tag k="ssr:stedsnr" v="793752" />
	</node>
	<node id="-639998" lat="60.2345267831" lon="5.07439115221">
		<tag k="name" v="Langavatnet" />
		<tag k="natural" v="water" />
		<tag k="ssr:stedsnr" v="793595" />
	</node>
	<node id="-635898" lat="60.288607548" lon="5.11523545824">
		<tag k="name" v="Brattestigvatnet" />
		<tag k="natural" v="water" />
		<tag k="ssr:stedsnr" v="248867" />
	</node>
	<node id="-635892" lat="60.3141637663" lon="5.1129283793">
		<tag k="name" v="Tårnavatnet" />
		<tag k="natural" v="water" />
		<tag k="ssr:stedsnr" v="248769" />
	</node>
	<node id="-635890" lat="60.3578775579" lon="5.10117079909">
		<tag k="name" v="Holmavatnet" />
		<tag k="natural" v="water" />
		<tag k="ssr:stedsnr" v="248758" />
	</node>
	<node id="-639984" lat="60.2368162611" lon="5.12520702731">
		<tag k="name" v="Nordra Sundstjørna" />
		<tag k="natural" v="water" />
		<tag k="ssr:stedsnr" v="774944" />
	</node>
	<node id="-635883" lat="60.2704807118" lon="4.98326380256">
		<tag k="name" v="Krokavatnet" />
		<tag k="natural" v="water" />
		<tag k="ssr:stedsnr" v="248485" />
		<tag k="water" v="lake" />
	</node>
	<node id="-637927" lat="60.6032862487" lon="4.81486760589">
		<tag k="name" v="Dalsvatnet" />
		<tag k="natural" v="water" />
		<tag k="ssr:stedsnr" v="6569" />
	</node>
	<node id="-637926" lat="60.5406411502" lon="4.86707412032">
		<tag k="name" v="Steinsvatnet" />
		<tag k="natural" v="water" />
		<tag k="ssr:stedsnr" v="6561" />
	</node>
	<node id="-639973" lat="60.3548666697" lon="5.03668333367">
		<tag k="name" v="Langedalsvatnet" />
		<tag k="natural" v="water" />
		<tag k="ssr:stedsnr" v="774750" />
		<tag k="water" v="lake" />
	</node>
	<node id="-637923" lat="60.2642970207" lon="4.97925413901">
		<tag k="name" v="Kaldavatnet" />
		<tag k="natural" v="water" />
		<tag k="ssr:stedsnr" v="6542" />
	</node>
	<node id="-635873" lat="60.3613776353" lon="5.03963966558">
		<tag k="name" v="Rotabekksvatnet" />
		<tag k="natural" v="water" />
		<tag k="ssr:stedsnr" v="248329" />
	</node>
	<node id="-635872" lat="60.3950420046" lon="5.02796250612">
		<tag k="name" v="Haggardsvatnet" />
		<tag k="natural" v="water" />
		<tag k="ssr:stedsnr" v="248310" />
	</node>
	<node id="-637919" lat="60.2591749974" lon="5.05407500177">
		<tag k="name" v="Purkeneset" />
		<tag k="natural" v="cape" />
		<tag k="ssr:stedsnr" v="6512" />
	</node>
	<node id="-639964" lat="60.3839560989" lon="4.99554543499">
		<tag k="name" v="Anderstjørna" />
		<tag k="natural" v="water" />
		<tag k="ssr:stedsnr" v="774342" />
	</node>
	<node id="-637914" lat="60.2856262527" lon="5.09969672048">
		<tag k="name" v="Haganesvatnet" />
		<tag k="natural" v="water" />
		<tag k="ssr:stedsnr" v="5811" />
	</node>
	<node id="-639960" lat="60.3637694413" lon="5.05728056075">
		<tag k="name" v="Knappskogvika" />
		<tag k="natural" v="bay" />
		<tag k="ssr:stedsnr" v="774593" />
	</node>
	<node id="-639959" lat="60.3486333333" lon="5.07257221672">
		<tag k="name" v="Søre Vassenden" />
		<tag k="natural" v="bay" />
		<tag k="ssr:stedsnr" v="774578" />
	</node>
	<node id="-635862" lat="60.4172855545" lon="4.99144815433">
		<tag k="name" v="Bleivatnet" />
		<tag k="natural" v="water" />
		<tag k="ssr:stedsnr" v="248175" />
	</node>
	<node id="-637907" lat="60.2841398078" lon="5.00359475554">
		<tag k="name" v="Kjereidet" />
		<tag k="natural" v="strait" />
		<tag k="ssr:stedsnr" v="5433" />
	</node>
	<node id="-637906" lat="60.2940376331" lon="5.06130252688">
		<tag k="name" v="Kyrkjevikvatnet" />
		<tag k="natural" v="water" />
		<tag k="ssr:stedsnr" v="5424" />
	</node>
	<node id="-639953" lat="60.6102027816" lon="4.81015555401">
		<tag k="name" v="Gardsneset" />
		<tag k="natural" v="cape" />
		<tag k="ssr:stedsnr" v="774218" />
	</node>
	<node id="-635856" lat="60.2055166675" lon="5.14845278539">
		<tag k="name" v="Høylandsvatnet" />
		<tag k="natural" v="water" />
		<tag k="ssr:stedsnr" v="247850" />
	</node>
	<node id="-637903" lat="60.3615944439" lon="5.01140833185">
		<tag k="name" v="Fjæreidvatnet" />
		<tag k="natural" v="water" />
		<tag k="ssr:stedsnr" v="5337" />
	</node>
	<node id="-637902" lat="60.3494846665" lon="4.94642399858">
		<tag k="name" v="Storavatnet" />
		<tag k="natural" v="water" />
		<tag k="ssr:stedsnr" v="5329" />
	</node>
	<node id="-637900" lat="60.4058611139" lon="4.98895555399">
		<tag k="name" v="Polleidet" />
		<tag k="natural" v="strait" />
		<tag k="ssr:stedsnr" v="5323" />
	</node>
	<node id="-639939" lat="60.3554083375" lon="5.12909166369">
		<tag k="name" v="Smålona" />
		<tag k="natural" v="water" />
		<tag k="ssr:stedsnr" v="773974" />
		<tag k="water" v="lake" />
	</node>
	<node id="-637890" lat="60.3326872802" lon="5.02916844001">
		<tag k="name" v="Tårnavatnet" />
		<tag k="natural" v="water" />
		<tag k="ssr:stedsnr" v="5253" />
	</node>
	<node id="-637886" lat="60.4356555569" lon="5.00276110278">
		<tag k="name" v="Kvernavatnet" />
		<tag k="natural" v="water" />
		<tag k="ssr:stedsnr" v="5168" />
	</node>
	<node id="-637880" lat="60.2170357768" lon="5.10151435142">
		<tag k="name" v="Grindavatnet" />
		<tag k="natural" v="water" />
		<tag k="ssr:stedsnr" v="4841" />
	</node>
	<node id="-635824" lat="60.2690439285" lon="5.00420425124">
		<tag k="name" v="Trollavatnet" />
		<tag k="natural" v="water" />
		<tag k="ssr:stedsnr" v="66451" />
	</node>
	<node id="-637869" lat="60.2399806588" lon="5.00036626165">
		<tag k="name" v="Sandvikvatnet" />
		<tag k="natural" v="water" />
		<tag k="ssr:stedsnr" v="4547" />
	</node>
	<node id="-639906" lat="60.3565694422" lon="5.14617776986">
		<tag k="name" v="Søra Skorpeneset" />
		<tag k="natural" v="cape" />
		<tag k="ssr:stedsnr" v="773124" />
	</node>
	<node id="-639903" lat="60.439126181" lon="4.97558048056">
		<tag k="name" v="Søra Tytesvatnet" />
		<tag k="natural" v="water" />
		<tag k="ssr:stedsnr" v="773357" />
		<tag k="water" v="lake" />
	</node>
	<node id="-635804" lat="60.3554158849" lon="5.02050585417">
		<tag k="name" v="Fjerdavatnet" />
		<tag k="natural" v="water" />
		<tag k="ssr:stedsnr" v="45723" />
		<tag k="water" v="lake" />
	</node>
	<node id="-635792" lat="60.2643177246" lon="5.0354221382">
		<tag k="name" v="Isbragdtjørna" />
		<tag k="natural" v="water" />
		<tag k="ssr:stedsnr" v="228878" />
	</node>
	<node id="-635778" lat="60.3352861146" lon="5.02536110519">
		<tag k="name" v="Godfarelva" />
		<tag k="ssr:stedsnr" v="228600" />
		<tag k="waterway" v="river" />
	</node>
	<node id="-635777" lat="60.3533429605" lon="5.06396896531">
		<tag k="name" v="Nubbavatnet" />
		<tag k="natural" v="water" />
		<tag k="ssr:stedsnr" v="228596" />
		<tag k="water" v="lake" />
	</node>
	<node id="-635776" lat="60.3579086293" lon="5.0671947638">
		<tag k="name" v="Nordravatnet" />
		<tag k="natural" v="water" />
		<tag k="ssr:stedsnr" v="228581" />
		<tag k="water" v="lake" />
	</node>
	<node id="-637823" lat="60.2535000024" lon="5.05620278118">
		<tag k="name" v="Smedvika" />
		<tag k="natural" v="bay" />
		<tag k="ssr:stedsnr" v="916504" />
	</node>
	<node id="-637817" lat="60.3598140418" lon="5.02347421763">
		<tag k="name" v="Klovavatnet" />
		<tag k="natural" v="water" />
		<tag k="ssr:stedsnr" v="916375" />
	</node>
	<node id="-637816" lat="60.3405829747" lon="5.06224368586">
		<tag k="name" v="Midtvatnet" />
		<tag k="natural" v="water" />
		<tag k="ssr:stedsnr" v="916279" />
	</node>
	<node id="-637815" lat="60.3406161412" lon="5.0702745084">
		<tag k="alt_name" v="Kvernavatnet" />
		<tag k="name" v="Eidesvatnet" />
		<tag k="natural" v="water" />
		<tag k="ssr:stedsnr" v="916278" />
	</node>
	<node id="-637812" lat="60.3375722672" lon="5.06554694054">
		<tag k="name" v="Liavatnet" />
		<tag k="natural" v="water" />
		<tag k="ssr:stedsnr" v="916268" />
	</node>
	<node id="-637811" lat="60.3358169185" lon="5.02900667731">
		<tag k="name" v="Nordsta Rotavatnet" />
		<tag k="natural" v="water" />
		<tag k="ssr:stedsnr" v="916263" />
	</node>
	<node id="-637808" lat="60.4273314213" lon="4.97849550506">
		<tag k="name" v="Fuglavatnet" />
		<tag k="natural" v="water" />
		<tag k="ssr:stedsnr" v="916166" />
	</node>
	<node id="-637807" lat="60.2157694434" lon="5.11451110703">
		<tag k="name" v="Nyatrævatnet" />
		<tag k="natural" v="water" />
		<tag k="ssr:stedsnr" v="915873" />
	</node>
	<node id="-637805" lat="60.286553001" lon="5.13496050051">
		<tag k="name" v="Røssevikvatnet" />
		<tag k="natural" v="water" />
		<tag k="ssr:stedsnr" v="915814" />
	</node>
	<node id="-639847" lat="60.2801887891" lon="5.02501617485">
		<tag k="name" v="Vassenden" />
		<tag k="natural" v="bay" />
		<tag k="ssr:stedsnr" v="652834" />
	</node>
	<node id="-637797" lat="60.4066089838" lon="5.01147449096">
		<tag k="name" v="Kvernavatnet" />
		<tag k="natural" v="water" />
		<tag k="ssr:stedsnr" v="915316" />
	</node>
	<node id="-635748" lat="60.3532646809" lon="5.05049215982">
		<tag k="name" v="Hatlevatnet" />
		<tag k="natural" v="water" />
		<tag k="ssr:stedsnr" v="227746" />
	</node>
	<node id="-635744" lat="60.3175384673" lon="5.11175718692">
		<tag k="name" v="Pyttavatnet" />
		<tag k="natural" v="water" />
		<tag k="ssr:stedsnr" v="227644" />
	</node>
	<node id="-639828" lat="60.2302333293" lon="5.10313888153">
		<tag k="name" v="Storelåsvatnet" />
		<tag k="natural" v="water" />
		<tag k="ssr:stedsnr" v="652931" />
		<tag k="water" v="lake" />
	</node>
	<node id="-639827" lat="60.1993827831" lon="5.12344020353">
		<tag k="name" v="Djupatjørna" />
		<tag k="natural" v="water" />
		<tag k="ssr:stedsnr" v="652927" />
	</node>
	<node id="-639826" lat="60.1982337467" lon="5.08929975977">
		<tag k="name" v="Langavatnet" />
		<tag k="natural" v="water" />
		<tag k="ssr:stedsnr" v="652925" />
		<tag k="water" v="lake" />
	</node>
	<node id="-639815" lat="60.3308222249" lon="5.11261667458">
		<tag k="name" v="Svartebekken" />
		<tag k="ssr:stedsnr" v="652571" />
		<tag k="waterway" v="stream" />
	</node>
	<node id="-639115" lat="60.4748138861" lon="4.96069722301">
		<tag k="name" v="Kvernhuselva" />
		<tag k="ssr:stedsnr" v="409493" />
		<tag k="waterway" v="river" />
	</node>
	<node id="-637751" lat="60.5483749979" lon="4.84628888722">
		<tag k="name" v="Kollsnesvatnet" />
		<tag k="natural" v="water" />
		<tag k="ssr:stedsnr" v="856577" />
	</node>
	<node id="-637747" lat="60.5723498276" lon="4.85849552958">
		<tag k="name" v="Stølevatnet" />
		<tag k="natural" v="water" />
		<tag k="ssr:stedsnr" v="856561" />
	</node>
	<node id="-635697" lat="60.5692900916" lon="4.8514019484">
		<tag k="name" v="Røyrevatnet" />
		<tag k="natural" v="water" />
		<tag k="ssr:stedsnr" v="227030" />
	</node>
	<node id="-637737" lat="60.2693555585" lon="4.96816388142">
		<tag k="name" v="Trollavatnet" />
		<tag k="natural" v="water" />
		<tag k="ssr:stedsnr" v="855470" />
	</node>
	<node id="-639782" lat="60.3472916642" lon="4.96071666168">
		<tag k="name" v="Storevardstjørna" />
		<tag k="natural" v="water" />
		<tag k="ssr:stedsnr" v="652392" />
	</node>
	<node id="-639781" lat="60.350088887" lon="4.95630555804">
		<tag k="name" v="Vågsvatnet" />
		<tag k="natural" v="water" />
		<tag k="ssr:stedsnr" v="652391" />
		<tag k="water" v="lake" />
	</node>
	<node id="-639775" lat="60.2725083375" lon="5.00092221918">
		<tag k="name" v="Hjeltabekken" />
		<tag k="ssr:stedsnr" v="651808" />
		<tag k="waterway" v="stream" />
	</node>
	<node id="-639767" lat="60.3572305522" lon="5.14508333482">
		<tag k="name" v="Nordra Skorpeneset" />
		<tag k="natural" v="cape" />
		<tag k="ssr:stedsnr" v="651988" />
	</node>
	<node id="-637718" lat="60.2733638869" lon="5.03797221405">
		<tag k="name" v="Lonane" />
		<tag k="natural" v="water" />
		<tag k="ssr:stedsnr" v="835861" />
		<tag k="water" v="lake" />
	</node>
	<node id="-639748" lat="60.198551146" lon="5.06364034204">
		<tag k="name" v="Eriksvatnet" />
		<tag k="natural" v="water" />
		<tag k="ssr:stedsnr" v="651583" />
		<tag k="water" v="lake" />
	</node>
	<node id="-637699" lat="60.3503944425" lon="4.993622225">
		<tag k="name" v="Sekkingstadtjørna" />
		<tag k="natural" v="water" />
		<tag k="ssr:stedsnr" v="835468" />
	</node>
	<node id="-639102" lat="60.3834465089" lon="5.14575741467">
		<tag k="name" v="Svartavatnet" />
		<tag k="natural" v="water" />
		<tag k="ssr:stedsnr" v="409148" />
		<tag k="water" v="lake" />
	</node>
	<node id="-637679" lat="60.2240804876" lon="4.98774713682">
		<tag k="name" v="Midtviktjørna" />
		<tag k="natural" v="water" />
		<tag k="ssr:stedsnr" v="834625" />
	</node>
	<node id="-637624" lat="60.2772034306" lon="5.03507357019">
		<tag k="name" v="Bøtjørna" />
		<tag k="natural" v="water" />
		<tag k="ssr:stedsnr" v="794436" />
	</node>
	<node id="-637623" lat="60.2887996509" lon="5.02777284956">
		<tag k="name" v="Langavatnet" />
		<tag k="natural" v="water" />
		<tag k="ssr:stedsnr" v="794427" />
	</node>
	<node id="-639662" lat="60.3011983229" lon="5.06530163208">
		<tag k="name" v="Bjørnavågtjørna" />
		<tag k="natural" v="water" />
		<tag k="ssr:stedsnr" v="611466" />
	</node>
	<node id="-639658" lat="60.2213611125" lon="5.02241110363">
		<tag k="name" v="Hølen" />
		<tag k="place" v="locality" />
		<tag k="ssr:stedsnr" v="611694" />
	</node>
	<node id="-639656" lat="60.3976250021" lon="4.99778333219">
		<tag k="alt_name" v="Skulevatnet" />
		<tag k="name" v="Skulehusvatnet" />
		<tag k="natural" v="water" />
		<tag k="ssr:stedsnr" v="611326" />
	</node>
	<node id="-639655" lat="60.3242333838" lon="5.09094239407">
		<tag k="name" v="Buskevatnet" />
		<tag k="natural" v="water" />
		<tag k="ssr:stedsnr" v="611288" />
	</node>
	<node id="-639654" lat="60.3181899325" lon="5.02957886947">
		<tag k="name" v="Langatjørna" />
		<tag k="natural" v="water" />
		<tag k="ssr:stedsnr" v="611285" />
	</node>
	<node id="-639653" lat="60.3188199574" lon="5.043084626">
		<tag k="name" v="Ulvesetvatnet" />
		<tag k="natural" v="water" />
		<tag k="ssr:stedsnr" v="611281" />
		<tag k="water" v="lake" />
	</node>
	<node id="-639652" lat="60.3113763211" lon="5.01658962918">
		<tag k="name" v="Åsvatnet" />
		<tag k="natural" v="water" />
		<tag k="ssr:stedsnr" v="611279" />
	</node>
	<node id="-637598" lat="60.2749376825" lon="5.04044401405">
		<tag k="name" v="Helgetjørna" />
		<tag k="natural" v="water" />
		<tag k="ssr:stedsnr" v="774866" />
	</node>
	<node id="-637592" lat="60.394953154" lon="5.0108243168">
		<tag k="name" v="Setretjørna" />
		<tag k="natural" v="water" />
		<tag k="ssr:stedsnr" v="774674" />
	</node>
	<node id="-638745" lat="60.3010416629" lon="5.08273056318">
		<tag k="alt_name" v="Fossavatnet" />
		<tag k="name" v="Fossvatnet" />
		<tag k="natural" v="water" />
		<tag k="ssr:stedsnr" v="308422" />
	</node>
	<node id="-637580" lat="60.2602861085" lon="5.03861388026">
		<tag k="name" v="Lulene" />
		<tag k="place" v="locality" />
		<tag k="ssr:stedsnr" v="916492" />
	</node>
	<node id="-639626" lat="60.3847000035" lon="5.0144166702">
		<tag k="name" v="Stegavatnet" />
		<tag k="natural" v="water" />
		<tag k="ssr:stedsnr" v="591915" />
		<tag k="water" v="lake" />
	</node>
	<node id="-637577" lat="60.3523555728" lon="5.07332780505">
		<tag k="name" v="Storavatnet" />
		<tag k="natural" v="water" />
		<tag k="ssr:stedsnr" v="916287" />
		<tag k="water" v="lake" />
	</node>
	<node id="-639606" lat="60.3444220946" lon="5.02911330208">
		<tag k="name" v="Tjuvaneset" />
		<tag k="natural" v="cape" />
		<tag k="ssr:stedsnr" v="591527" />
	</node>
	<node id="-637548" lat="60.597190508" lon="4.82217207468">
		<tag k="name" v="Illetjørna" />
		<tag k="natural" v="water" />
		<tag k="ssr:stedsnr" v="773322" />
	</node>
	<node id="-637547" lat="60.4458548815" lon="4.92171845133">
		<tag k="name" v="Måsavatnet" />
		<tag k="natural" v="water" />
		<tag k="ssr:stedsnr" v="773308" />
		<tag k="water" v="lake" />
	</node>
	<node id="-637545" lat="60.5697868297" lon="4.81272473649">
		<tag k="name" v="Kledvatnet" />
		<tag k="natural" v="water" />
		<tag k="ssr:stedsnr" v="773109" />
		<tag k="water" v="lake" />
	</node>
	<node id="-639585" lat="60.3815326428" lon="4.99945707875">
		<tag k="name" v="Vardavatnet" />
		<tag k="natural" v="water" />
		<tag k="ssr:stedsnr" v="591273" />
		<tag k="water" v="lake" />
	</node>
	<node id="-639578" lat="60.3754206716" lon="5.12277709212">
		<tag k="name" v="Kotevatnet" />
		<tag k="natural" v="water" />
		<tag k="ssr:stedsnr" v="591230" />
		<tag k="water" v="lake" />
	</node>
	<node id="-637526" lat="60.2927702388" lon="5.07751529447">
		<tag k="name" v="Dalavatnet" />
		<tag k="natural" v="water" />
		<tag k="ssr:stedsnr" v="915423" />
	</node>
	<node id="-637525" lat="60.2790159573" lon="4.97894556993">
		<tag k="name" v="Mjåvatnet" />
		<tag k="natural" v="water" />
		<tag k="ssr:stedsnr" v="915418" />
	</node>
	<node id="-639566" lat="60.3816638872" lon="5.14111388311">
		<tag k="name" v="Langavatnet" />
		<tag k="natural" v="water" />
		<tag k="ssr:stedsnr" v="591100" />
		<tag k="water" v="lake" />
	</node>
	<node id="-637516" lat="60.2222912597" lon="5.03431265135">
		<tag k="name" v="Kvernaviksvatnet" />
		<tag k="natural" v="water" />
		<tag k="ssr:stedsnr" v="914716" />
	</node>
	<node id="-639560" lat="60.2638573431" lon="5.00900594062">
		<tag k="name" v="Lona" />
		<tag k="natural" v="water" />
		<tag k="ssr:stedsnr" v="590794" />
		<tag k="water" v="lake" />
	</node>
	<node id="-639559" lat="60.2611944453" lon="4.9729416715">
		<tag k="name" v="Skrubbisvatnet" />
		<tag k="natural" v="water" />
		<tag k="ssr:stedsnr" v="590790" />
		<tag k="water" v="lake" />
	</node>
	<node id="-639557" lat="60.614605558" lon="4.80599722063">
		<tag k="name" v="Trongen" />
		<tag k="natural" v="bay" />
		<tag k="ssr:stedsnr" v="590770" />
	</node>
	<node id="-639070" lat="60.2403277782" lon="5.09772222654">
		<tag k="name" v="Vassvika" />
		<tag k="natural" v="bay" />
		<tag k="ssr:stedsnr" v="408246" />
	</node>
	<node id="-637483" lat="60.3573676825" lon="5.14183859198">
		<tag k="name" v="Vestra Arefjordvatnet" />
		<tag k="natural" v="water" />
		<tag k="ssr:stedsnr" v="895973" />
		<tag k="water" v="lake" />
	</node>
	<node id="-637479" lat="60.3804625359" lon="5.0932040954">
		<tag k="name" v="Tjørna" />
		<tag k="natural" v="water" />
		<tag k="ssr:stedsnr" v="895955" />
	</node>
	<node id="-639485" lat="60.6320648648" lon="4.80564207199">
		<tag k="name" v="Stølevatnet" />
		<tag k="natural" v="water" />
		<tag k="ssr:stedsnr" v="552627" />
	</node>
	<node id="-639484" lat="60.6359361108" lon="4.80753332777">
		<tag k="name" v="Trollevatnet" />
		<tag k="natural" v="water" />
		<tag k="ssr:stedsnr" v="552625" />
	</node>
	<node id="-637435" lat="60.3518833962" lon="5.03626698292">
		<tag k="name" v="Svehaugvatnet" />
		<tag k="natural" v="water" />
		<tag k="ssr:stedsnr" v="895740" />
		<tag k="water" v="lake" />
	</node>
	<node id="-637432" lat="60.2892972192" lon="5.04425000002">
		<tag k="name" v="Bekkjarviktjørna" />
		<tag k="natural" v="water" />
		<tag k="ssr:stedsnr" v="895671" />
		<tag k="water" v="lake" />
	</node>
	<node id="-639478" lat="60.6008438957" lon="4.83034641602">
		<tag k="alt_name" v="Tjeldstøvatnet" />
		<tag k="name" v="Rotevatnet" />
		<tag k="natural" v="water" />
		<tag k="ssr:stedsnr" v="552604" />
	</node>
	<node id="-640425" lat="60.240507458" lon="5.17024014209">
		<tag k="name" v="Austra tjørna" />
		<tag k="natural" v="water" />
		<tag k="ssr:stedsnr" v="991197" />
	</node>
	<node id="-639468" lat="60.2930798395" lon="5.11350622897">
		<tag k="name" v="Kattatjørna" />
		<tag k="natural" v="water" />
		<tag k="ssr:stedsnr" v="551863" />
	</node>
	<node id="-639466" lat="60.34512326" lon="5.14097488581">
		<tag k="name" v="Ebbesvikvatnet" />
		<tag k="natural" v="water" />
		<tag k="ssr:stedsnr" v="551697" />
	</node>
	<node id="-639460" lat="60.2598243803" lon="5.08380433283">
		<tag k="name" v="Hesttjørna" />
		<tag k="natural" v="water" />
		<tag k="ssr:stedsnr" v="551456" />
	</node>
	<node id="-639457" lat="60.2989583332" lon="5.09091667321">
		<tag k="name" v="Kvernavatnet" />
		<tag k="natural" v="water" />
		<tag k="ssr:stedsnr" v="551448" />
	</node>
	<node id="-637389" lat="60.3868554444" lon="4.99706609884">
		<tag k="name" v="Træstjørna" />
		<tag k="natural" v="water" />
		<tag k="ssr:stedsnr" v="895284" />
	</node>
	<node id="-637388" lat="60.3785047996" lon="4.98400273272">
		<tag k="name" v="Bakkatjørna" />
		<tag k="natural" v="water" />
		<tag k="ssr:stedsnr" v="895283" />
	</node>
	<node id="-639432" lat="60.3314596464" lon="5.07155354043">
		<tag k="name" v="Kolavatnet" />
		<tag k="natural" v="water" />
		<tag k="ssr:stedsnr" v="551264" />
	</node>
	<node id="-639418" lat="60.2351385395" lon="5.18398993407">
		<tag k="name" v="Storavatnet" />
		<tag k="natural" v="water" />
		<tag k="ssr:stedsnr" v="550843" />
	</node>
	<node id="-637364" lat="60.6465013439" lon="4.80135648372">
		<tag k="name" v="Lomtjørna" />
		<tag k="natural" v="water" />
		<tag k="ssr:stedsnr" v="895168" />
	</node>
	<node id="-639409" lat="60.2241639695" lon="5.07786905202">
		<tag k="name" v="Vorlandsvatnet" />
		<tag k="natural" v="water" />
		<tag k="ssr:stedsnr" v="550667" />
		<tag k="water" v="lake" />
	</node>
	<node id="-639401" lat="60.3206138364" lon="5.09389558782">
		<tag k="name" v="Gyravatnet" />
		<tag k="natural" v="water" />
		<tag k="ssr:stedsnr" v="551791" />
	</node>
	<node id="-637345" lat="60.5603692617" lon="4.8356265085">
		<tag k="name" v="Stemmevatnet" />
		<tag k="natural" v="water" />
		<tag k="ssr:stedsnr" v="895015" />
	</node>
	<node id="-639388" lat="60.2678294252" lon="5.04678162883">
		<tag k="name" v="Skinkevatnet" />
		<tag k="natural" v="water" />
		<tag k="ssr:stedsnr" v="531895" />
		<tag k="water" v="lake" />
	</node>
	<node id="-639385" lat="60.6243462183" lon="4.81808110015">
		<tag k="name" v="Hattetjørna" />
		<tag k="natural" v="water" />
		<tag k="ssr:stedsnr" v="531876" />
	</node>
	<node id="-637335" lat="60.3544612261" lon="4.96172559315">
		<tag k="name" v="Staupane" />
		<tag k="natural" v="water" />
		<tag k="ssr:stedsnr" v="713414" />
		<tag k="water" v="lake" />
	</node>
	<node id="-637326" lat="60.3156760546" lon="5.07892238677">
		<tag k="name" v="Krossleittjørna" />
		<tag k="natural" v="water" />
		<tag k="ssr:stedsnr" v="712641" />
	</node>
	<node id="-637323" lat="60.2394363801" lon="5.02498407283">
		<tag k="name" v="Krokodillen" />
		<tag k="natural" v="water" />
		<tag k="ssr:stedsnr" v="894824" />
	</node>
	<node id="-637322" lat="60.2501409477" lon="5.03047970059">
		<tag k="name" v="Mjåneset" />
		<tag k="natural" v="cape" />
		<tag k="ssr:stedsnr" v="894820" />
	</node>
	<node id="-637312" lat="60.2594999968" lon="5.10811111848">
		<tag k="name" v="Bakkatjørna" />
		<tag k="natural" v="water" />
		<tag k="ssr:stedsnr" v="712206" />
	</node>
	<node id="-639346" lat="60.334233334" lon="5.05170000133">
		<tag k="name" v="Kvernavatnet" />
>>>>>>> e1d4bc35ff8a6074a6f2e91616a996b547c36f15
		<tag k="natural" v="water" />
		<tag k="ssr:stedsnr" v="349411" />
		<tag k="water" v="lake" />
	</node>
<<<<<<< HEAD
	<node lat="60.4440519098622" lon="4.918524512178829" id="-44352">
		<tag k="name" v="Sandvikavatnet" />
=======
	<node id="-639345" lat="60.3319458319" lon="5.05921974604">
		<tag k="name" v="Furhaugtjørna" />
		<tag k="natural" v="water" />
		<tag k="ssr:stedsnr" v="531586" />
	</node>
	<node id="-639073" lat="60.2257264536" lon="5.03356779311">
		<tag k="name" v="Botnatjørna" />
		<tag k="natural" v="water" />
		<tag k="ssr:stedsnr" v="408555" />
	</node>
	<node id="-637273" lat="60.5586944803" lon="4.84344034285">
		<tag k="name" v="Vardheivatnet" />
		<tag k="natural" v="water" />
		<tag k="ssr:stedsnr" v="674509" />
	</node>
	<node id="-639316" lat="60.5653409571" lon="4.85756608012">
		<tag k="name" v="Hildalsvatnet" />
		<tag k="natural" v="water" />
		<tag k="ssr:stedsnr" v="530975" />
	</node>
	<node id="-639303" lat="60.3046083362" lon="5.07032500566">
		<tag k="name" v="Oldervadet" />
		<tag k="place" v="locality" />
		<tag k="ssr:stedsnr" v="530678" />
	</node>
	<node id="-638005" lat="60.3866208032" lon="4.97448535146">
		<tag k="name" v="Tørkeviktjørna" />
		<tag k="natural" v="water" />
		<tag k="ssr:stedsnr" v="45309" />
	</node>
	<node id="-639291" lat="60.4086547455" lon="4.98870982903">
		<tag k="name" v="Angeltveitvatnet" />
>>>>>>> e1d4bc35ff8a6074a6f2e91616a996b547c36f15
		<tag k="natural" v="water" />
		<tag k="ssr:stedsnr" v="349422" />
		<tag k="water" v="lake" />
	</node>
<<<<<<< HEAD
	<node lat="60.39387222517032" lon="5.000149998611503" id="-44360">
		<tag k="name" v="Ågotneselva" />
		<tag k="ssr:stedsnr" v="349511" />
		<tag k="waterway" v="river" />
	</node>
	<node lat="60.396233081180796" lon="5.036710088822899" id="-44365">
		<tag k="name" v="Klungersvatnet" />
		<tag k="natural" v="water" />
		<tag k="ssr:stedsnr" v="349662" />
		<tag k="water" v="lake" />
	</node>
	<node lat="60.23319722531581" lon="5.026199997580968" id="-44372">
		<tag k="name" v="Lauvvatnet" />
=======
	<node id="-639277" lat="60.2558333336" lon="5.07547500875">
		<tag k="name" v="Skjentjørna" />
		<tag k="natural" v="water" />
		<tag k="ssr:stedsnr" v="530271" />
	</node>
	<node id="-637216" lat="60.3784999992" lon="5.11599999234">
		<tag k="name" v="Gulfjellvatnet" />
		<tag k="natural" v="water" />
		<tag k="ssr:stedsnr" v="734669" />
	</node>
	<node id="-637215" lat="60.3726328567" lon="5.15020515725">
		<tag k="name" v="Storavatnet" />
>>>>>>> e1d4bc35ff8a6074a6f2e91616a996b547c36f15
		<tag k="natural" v="water" />
		<tag k="ssr:stedsnr" v="368583" />
	</node>
<<<<<<< HEAD
	<node lat="60.27361599397353" lon="5.031200662975501" id="-44393">
=======
	<node id="-639258" lat="60.333514172" lon="4.95881762363">
>>>>>>> e1d4bc35ff8a6074a6f2e91616a996b547c36f15
		<tag k="name" v="Storavatnet" />
		<tag k="natural" v="water" />
		<tag k="ssr:stedsnr" v="369424" />
		<tag k="water" v="lake" />
	</node>
<<<<<<< HEAD
	<node lat="60.55521766811036" lon="4.875907317217073" id="-44402">
		<tag k="name" v="Hellevatnet" />
=======
	<node id="-639254" lat="60.3355030879" lon="5.10025353534">
		<tag k="name" v="Bildøyvatnet" />
>>>>>>> e1d4bc35ff8a6074a6f2e91616a996b547c36f15
		<tag k="natural" v="water" />
		<tag k="ssr:stedsnr" v="370563" />
	</node>
<<<<<<< HEAD
	<node lat="60.59702625821181" lon="4.813609149087769" id="-44403">
		<tag k="name" v="Alvheimsvatnet" />
		<tag k="natural" v="water" />
		<tag k="ssr:stedsnr" v="370565" />
	</node>
	<node lat="60.24032777819231" lon="5.0977222265441675" id="-44439">
		<tag k="name" v="Vassvika" />
		<tag k="natural" v="bay" />
		<tag k="ssr:stedsnr" v="408246" />
	</node>
	<node lat="60.47481388613049" lon="4.960697223012398" id="-44463">
		<tag k="name" v="Kvernhuselva" />
		<tag k="ssr:stedsnr" v="409493" />
		<tag k="waterway" v="river" />
	</node>
	<node lat="60.31425277451603" lon="5.092783330344949" id="-44470">
		<tag k="name" v="Ytsta Elva" />
		<tag k="ssr:stedsnr" v="409702" />
		<tag k="waterway" v="river" />
	</node>
	<node lat="60.607797223980704" lon="4.8072416754706895" id="-44480">
		<tag k="name" v="Lisneset" />
		<tag k="natural" v="cape" />
		<tag k="ssr:stedsnr" v="410205" />
	</node>
	<node lat="60.59293888957024" lon="4.805533336483642" id="-44482">
=======
	<node id="-637201" lat="60.5530212969" lon="4.84117743814">
		<tag k="name" v="Søra Rotevatnet" />
		<tag k="natural" v="water" />
		<tag k="ssr:stedsnr" v="734579" />
	</node>
	<node id="-637194" lat="60.255991666" lon="5.03126388608">
		<tag k="name" v="Sauholmen" />
		<tag k="place" v="islet" />
		<tag k="ssr:stedsnr" v="734529" />
	</node>
	<node id="-637193" lat="60.2651611111" lon="5.046875006">
		<tag k="name" v="Vardavika" />
		<tag k="natural" v="bay" />
		<tag k="ssr:stedsnr" v="734519" />
	</node>
	<node id="-639238" lat="60.3348936959" lon="5.04250677604">
		<tag k="name" v="Røysatjørna" />
		<tag k="natural" v="water" />
		<tag k="ssr:stedsnr" v="430245" />
	</node>
	<node id="-639236" lat="60.476184943" lon="4.9541740197">
		<tag k="alt_name" v="Norlavatnet" />
		<tag k="name" v="Nordlavatnet" />
		<tag k="natural" v="water" />
		<tag k="ssr:stedsnr" v="430235" />
	</node>
	<node id="-639232" lat="60.4358644137" lon="4.97705803753">
		<tag k="name" v="Kleivavatnet" />
		<tag k="natural" v="water" />
		<tag k="ssr:stedsnr" v="430154" />
	</node>
	<node id="-639230" lat="60.2366083326" lon="5.13849167141">
		<tag k="name" v="Krokvatnet" />
		<tag k="natural" v="water" />
		<tag k="ssr:stedsnr" v="429837" />
	</node>
	<node id="-639229" lat="60.2228974949" lon="5.13611604201">
		<tag k="name" v="Børnesvatnet" />
		<tag k="natural" v="water" />
		<tag k="ssr:stedsnr" v="429825" />
	</node>
	<node id="-637174" lat="60.1927050918" lon="5.05762016796">
		<tag k="name" v="Monsavatnet" />
		<tag k="natural" v="water" />
		<tag k="ssr:stedsnr" v="733676" />
	</node>
	<node id="-637172" lat="60.2672542284" lon="4.97417349816">
		<tag k="name" v="Skiteklettsvatnet" />
		<tag k="natural" v="water" />
		<tag k="ssr:stedsnr" v="733445" />
	</node>
	<node id="-637169" lat="60.2759549206" lon="4.96991836783">
		<tag k="name" v="Nesvikavatnet" />
		<tag k="natural" v="water" />
		<tag k="ssr:stedsnr" v="733412" />
	</node>
	<node id="-639205" lat="60.2065756467" lon="5.08568368817">
		<tag k="name" v="Hamravatnet" />
		<tag k="natural" v="water" />
		<tag k="ssr:stedsnr" v="410942" />
		<tag k="water" v="lake" />
	</node>
	<node id="-639194" lat="60.4887459662" lon="4.93755692416">
		<tag k="name" v="Kvernevatnet" />
		<tag k="natural" v="water" />
		<tag k="ssr:stedsnr" v="410816" />
		<tag k="water" v="lake" />
	</node>
	<node id="-639190" lat="60.3626083305" lon="5.05921944746">
		<tag k="name" v="Sundet" />
		<tag k="natural" v="strait" />
		<tag k="ssr:stedsnr" v="410550" />
	</node>
	<node id="-639187" lat="60.5779931172" lon="4.8651940941">
		<tag k="name" v="Kupa" />
		<tag k="natural" v="water" />
		<tag k="ssr:stedsnr" v="410479" />
		<tag k="water" v="lake" />
	</node>
	<node id="-639183" lat="60.346590851" lon="4.95639768503">
		<tag k="name" v="Maratjørna" />
		<tag k="natural" v="water" />
		<tag k="ssr:stedsnr" v="410436" />
	</node>
	<node id="-639174" lat="60.3234166703" lon="5.12987777797">
		<tag k="name" v="Dalselva" />
		<tag k="ssr:stedsnr" v="410352" />
		<tag k="waterway" v="river" />
	</node>
	<node id="-639168" lat="60.5903515116" lon="4.799455864">
		<tag k="name" v="Brurevatnet" />
		<tag k="natural" v="water" />
		<tag k="ssr:stedsnr" v="410215" />
		<tag k="water" v="lake" />
	</node>
	<node id="-639167" lat="60.5929388896" lon="4.80553333648">
>>>>>>> e1d4bc35ff8a6074a6f2e91616a996b547c36f15
		<tag k="name" v="Musevatnet" />
		<tag k="natural" v="water" />
		<tag k="ssr:stedsnr" v="410211" />
		<tag k="water" v="lake" />
	</node>
<<<<<<< HEAD
	<node lat="60.59035151158134" lon="4.799455864000979" id="-44483">
		<tag k="name" v="Brurevatnet" />
=======
	<node id="-639165" lat="60.607797224" lon="4.80724167547">
		<tag k="name" v="Lisneset" />
		<tag k="natural" v="cape" />
		<tag k="ssr:stedsnr" v="410205" />
	</node>
	<node id="-637107" lat="60.3801861078" lon="5.03171110934">
		<tag k="name" v="Tverråna" />
		<tag k="ssr:stedsnr" v="713931" />
		<tag k="waterway" v="river" />
	</node>
	<node id="-637106" lat="60.2383646669" lon="5.08412545308">
		<tag k="name" v="Djupeskarvatnet" />
>>>>>>> e1d4bc35ff8a6074a6f2e91616a996b547c36f15
		<tag k="natural" v="water" />
		<tag k="ssr:stedsnr" v="410215" />
		<tag k="water" v="lake" />
	</node>
<<<<<<< HEAD
	<node lat="60.326003937819536" lon="5.044654728064071" id="-44489">
=======
	<node id="-639150" lat="60.3260039378" lon="5.04465472806">
>>>>>>> e1d4bc35ff8a6074a6f2e91616a996b547c36f15
		<tag k="name" v="Lyngneset" />
		<tag k="natural" v="cape" />
		<tag k="ssr:stedsnr" v="410602" />
	</node>
<<<<<<< HEAD
	<node lat="60.20657564665334" lon="5.085683688174353" id="-44498">
		<tag k="name" v="Hamravatnet" />
		<tag k="natural" v="water" />
		<tag k="ssr:stedsnr" v="410942" />
		<tag k="water" v="lake" />
	</node>
	<node lat="60.378420182950016" lon="4.995629897250074" id="-44523">
		<tag k="name" v="Nordsta Rotavatnet" />
		<tag k="natural" v="water" />
		<tag k="ssr:stedsnr" v="490357" />
	</node>
	<node lat="60.28599611866064" lon="4.974963047859369" id="-44524">
		<tag k="alt_name" v="Sævartjørna" />
		<tag k="name" v="Nordra Gullkjelda" />
		<tag k="natural" v="water" />
		<tag k="ssr:stedsnr" v="490443" />
	</node>
	<node lat="60.247677649303974" lon="5.106367726241795" id="-44526">
		<tag k="name" v="Dommedalsvatnet" />
		<tag k="natural" v="water" />
		<tag k="ssr:stedsnr" v="490664" />
		<tag k="water" v="lake" />
	</node>
	<node lat="60.36221000240531" lon="5.125945461956612" id="-44528">
		<tag k="name" v="Stovevatnet" />
		<tag k="natural" v="water" />
		<tag k="ssr:stedsnr" v="490740" />
	</node>
	<node lat="60.22289749491662" lon="5.136116042008515" id="-44533">
		<tag k="name" v="Børnesvatnet" />
		<tag k="natural" v="water" />
		<tag k="ssr:stedsnr" v="429825" />
	</node>
	<node lat="60.43586441369846" lon="4.977058037527865" id="-44540">
		<tag k="name" v="Kleivavatnet" />
		<tag k="natural" v="water" />
		<tag k="ssr:stedsnr" v="430154" />
=======
	<node id="-637093" lat="60.2672472187" lon="5.02585833046">
		<tag k="name" v="Kvernelva" />
		<tag k="ssr:stedsnr" v="713863" />
		<tag k="waterway" v="river" />
	</node>
	<node id="-637091" lat="60.6325486062" lon="4.83981063689">
		<tag k="name" v="Midttjørna" />
		<tag k="natural" v="water" />
		<tag k="ssr:stedsnr" v="713859" />
	</node>
	<node id="-639135" lat="60.3142527745" lon="5.09278333034">
		<tag k="name" v="Ytsta Elva" />
		<tag k="ssr:stedsnr" v="409702" />
		<tag k="waterway" v="river" />
	</node>
	<node id="-637067" lat="60.2957055587" lon="5.0745666717">
		<tag k="name" v="Furekleivvatnet" />
		<tag k="natural" v="water" />
		<tag k="ssr:stedsnr" v="713321" />
		<tag k="water" v="lake" />
	</node>
	<node id="-637055" lat="60.2559223752" lon="5.11940039318">
		<tag k="name" v="Eidestjørna" />
		<tag k="natural" v="water" />
		<tag k="ssr:stedsnr" v="713226" />
	</node>
	<node id="-637054" lat="60.2552225981" lon="5.11496371875">
		<tag k="name" v="Ytsta Sangoltsvatnet" />
		<tag k="natural" v="water" />
		<tag k="ssr:stedsnr" v="713224" />
	</node>
	<node id="-637048" lat="60.6529942868" lon="4.80713280201">
		<tag k="name" v="Badetjørna" />
		<tag k="natural" v="water" />
		<tag k="ssr:stedsnr" v="713175" />
	</node>
	<node id="-639090" lat="60.5398357685" lon="4.87470705445">
		<tag k="name" v="Korevatnet" />
		<tag k="natural" v="water" />
		<tag k="ssr:stedsnr" v="409057" />
		<tag k="water" v="lake" />
	</node>
	<node id="-639088" lat="60.2405433303" lon="5.06936263741">
		<tag k="name" v="Kvernavatnet" />
		<tag k="natural" v="water" />
		<tag k="ssr:stedsnr" v="409043" />
		<tag k="water" v="lake" />
	</node>
	<node id="-637037" lat="60.2494576939" lon="5.05747573782">
		<tag k="name" v="Ormadalstjørna" />
		<tag k="natural" v="water" />
		<tag k="ssr:stedsnr" v="712793" />
	</node>
	<node id="-637036" lat="60.2750305594" lon="4.98890277226">
		<tag k="name" v="Litlekørelen" />
		<tag k="natural" v="water" />
		<tag k="ssr:stedsnr" v="712791" />
		<tag k="water" v="lake" />
	</node>
	<node id="-637034" lat="60.2620423023" lon="4.98013458459">
		<tag k="name" v="Midttveitvatnet" />
		<tag k="natural" v="water" />
		<tag k="ssr:stedsnr" v="712786" />
		<tag k="water" v="lake" />
	</node>
	<node id="-639081" lat="60.4450329325" lon="4.96499200567">
		<tag k="name" v="Kvernavatnet" />
		<tag k="natural" v="water" />
		<tag k="ssr:stedsnr" v="409365" />
		<tag k="water" v="lake" />
	</node>
	<node id="-637025" lat="60.2237138931" lon="5.02900833503">
		<tag k="name" v="Trolldalsvika" />
		<tag k="natural" v="bay" />
		<tag k="ssr:stedsnr" v="712506" />
	</node>
	<node id="-637024" lat="60.2330000014" lon="5.01924166201">
		<tag k="name" v="Lauvneset" />
		<tag k="natural" v="cape" />
		<tag k="ssr:stedsnr" v="712505" />
	</node>
	<node id="-637023" lat="60.2315388906" lon="5.01521666032">
		<tag k="name" v="Vassvika" />
		<tag k="natural" v="bay" />
		<tag k="ssr:stedsnr" v="712504" />
	</node>
	<node id="-637022" lat="60.2339840947" lon="5.06596598132">
		<tag k="name" v="Allerstjørna" />
		<tag k="natural" v="water" />
		<tag k="ssr:stedsnr" v="712499" />
	</node>
	<node id="-637012" lat="60.2989961182" lon="5.06593169564">
		<tag k="name" v="Grøndalstjørna" />
		<tag k="natural" v="water" />
		<tag k="ssr:stedsnr" v="712679" />
	</node>
	<node id="-637007" lat="60.3570138931" lon="4.9987805499">
		<tag k="name" v="Kassvikelva" />
		<tag k="ssr:stedsnr" v="591411" />
		<tag k="waterway" v="river" />
	</node>
	<node id="-637005" lat="60.5992619402" lon="4.81953773536">
		<tag k="name" v="Barbustekkvatnet" />
		<tag k="natural" v="water" />
		<tag k="ssr:stedsnr" v="712275" />
		<tag k="water" v="lake" />
	</node>
	<node id="-637001" lat="60.6138222188" lon="4.80700555921">
		<tag k="name" v="Storneset" />
		<tag k="natural" v="cape" />
		<tag k="ssr:stedsnr" v="712248" />
	</node>
	<node id="-636996" lat="60.4405841776" lon="4.97534318301">
		<tag k="name" v="Nordra Tytesvatnet" />
		<tag k="natural" v="water" />
		<tag k="ssr:stedsnr" v="591322" />
		<tag k="water" v="lake" />
	</node>
	<node id="-636982" lat="60.3731274779" lon="5.1342470938">
		<tag k="name" v="Larslivatnet" />
		<tag k="natural" v="water" />
		<tag k="ssr:stedsnr" v="712115" />
	</node>
	<node id="-639012" lat="60.5970262582" lon="4.81360914909">
		<tag k="name" v="Alvheimsvatnet" />
		<tag k="natural" v="water" />
		<tag k="ssr:stedsnr" v="370565" />
	</node>
	<node id="-639011" lat="60.5552176681" lon="4.87590731722">
		<tag k="name" v="Hellevatnet" />
		<tag k="natural" v="water" />
		<tag k="ssr:stedsnr" v="370563" />
	</node>
	<node id="-639006" lat="60.2544283278" lon="5.11803663403">
		<tag k="name" v="Sangoltsvatnet" />
		<tag k="natural" v="water" />
		<tag k="ssr:stedsnr" v="369901" />
		<tag k="water" v="lake" />
	</node>
	<node id="-638991" lat="60.273615994" lon="5.03120066298">
		<tag k="name" v="Storavatnet" />
		<tag k="natural" v="water" />
		<tag k="ssr:stedsnr" v="369424" />
		<tag k="water" v="lake" />
	</node>
	<node id="-638984" lat="60.3312151177" lon="5.01611909733">
		<tag k="name" v="Signalsvatnet" />
		<tag k="natural" v="water" />
		<tag k="ssr:stedsnr" v="369233" />
>>>>>>> e1d4bc35ff8a6074a6f2e91616a996b547c36f15
	</node>
</osm>
