<?xml version="1.0" encoding="UTF-8"?>
<osm version="0.6" generator="osmapis">
	<node lat="60.28676666573022" lon="5.0357916610432865" id="-44994">
		<tag k="name" v="Sjoarmyra" />
		<tag k="natural" v="wetland" />
		<tag k="ssr:stedsnr" v="45690" />
	</node>
	<node lat="60.26846944307387" lon="5.067533342432422" id="-45012">
		<tag k="name" v="Rindamyra" />
		<tag k="natural" v="wetland" />
		<tag k="ssr:stedsnr" v="46877" />
	</node>
	<node lat="60.186472218888" lon="5.057694450743731" id="-45116">
		<tag k="name" v="Lonane" />
		<tag k="natural" v="wetland" />
		<tag k="ssr:stedsnr" v="105539" />
	</node>
	<node lat="60.18658610989532" lon="5.04695556216545" id="-45118">
		<tag k="name" v="Rotamyra" />
		<tag k="natural" v="wetland" />
		<tag k="ssr:stedsnr" v="105542" />
	</node>
	<node lat="60.27027221884179" lon="4.959544436821163" id="-45123">
		<tag k="name" v="Granamyra" />
		<tag k="natural" v="wetland" />
		<tag k="ssr:stedsnr" v="105829" />
	</node>
	<node lat="60.37295555919018" lon="5.026661111180248" id="-45171">
		<tag k="name" v="Liatræet" />
		<tag k="place" v="locality" />
		<tag k="ssr:stedsnr" v="106912" />
	</node>
	<node lat="60.59810555399247" lon="4.806655555808235" id="-45191">
		<tag k="name" v="Sekkjene" />
		<tag k="natural" v="wetland" />
		<tag k="ssr:stedsnr" v="107227" />
	</node>
	<node lat="60.3826527770282" lon="5.15291666650516" id="-45259">
		<tag k="name" v="Stormyra" />
		<tag k="natural" v="wetland" />
		<tag k="ssr:stedsnr" v="166107" />
	</node>
	<node lat="60.24233055771221" lon="5.059125006288632" id="-45282">
		<tag k="name" v="Djupevikmyra" />
		<tag k="natural" v="wetland" />
		<tag k="ssr:stedsnr" v="166814" />
	</node>
	<node lat="60.464613892002134" lon="4.9482555531869385" id="-45419">
		<tag k="name" v="Pordalsmyra" />
		<tag k="natural" v="wetland" />
		<tag k="ssr:stedsnr" v="227789" />
	</node>
	<node lat="60.28554166561622" lon="4.9998666733337105" id="-45428">
		<tag k="name" v="Ryggjastykket" />
		<tag k="place" v="locality" />
		<tag k="ssr:stedsnr" v="227811" />
	</node>
	<node lat="60.32475277431998" lon="5.079647226937388" id="-45445">
		<tag k="name" v="Bankesteinen" />
		<tag k="natural" v="stone" />
		<tag k="ssr:stedsnr" v="228642" />
	</node>
	<node lat="60.60925833495616" lon="4.816802772836896" id="-45532">
		<tag k="name" v="Stuvbøen" />
		<tag k="place" v="locality" />
		<tag k="ssr:stedsnr" v="288214" />
	</node>
	<node lat="60.358602777008954" lon="5.059436113032911" id="-45574">
		<tag k="name" v="Skiparmyra" />
		<tag k="natural" v="wetland" />
		<tag k="ssr:stedsnr" v="288699" />
	</node>
	<node lat="60.35133055730154" lon="4.968997227502646" id="-45715">
		<tag k="name" v="Storemyra" />
		<tag k="natural" v="wetland" />
		<tag k="ssr:stedsnr" v="470389" />
	</node>
	<node lat="60.36108333578479" lon="4.997297213212809" id="-45718">
		<tag k="name" v="Såtemyra" />
		<tag k="natural" v="wetland" />
		<tag k="ssr:stedsnr" v="470401" />
	</node>
	<node lat="60.34190000363749" lon="5.040738887664412" id="-45721">
		<tag k="name" v="Bjørkemyra" />
		<tag k="natural" v="wetland" />
		<tag k="ssr:stedsnr" v="470541" />
	</node>
	<node lat="60.351827778047394" lon="5.02525555521224" id="-45736">
		<tag k="name" v="Åsamyrane" />
		<tag k="natural" v="wetland" />
		<tag k="ssr:stedsnr" v="470738" />
	</node>
	<node lat="60.417058331894495" lon="4.980313892686094" id="-45774">
		<tag k="name" v="Harpefjellsmyra" />
		<tag k="natural" v="wetland" />
		<tag k="ssr:stedsnr" v="348327" />
	</node>
	<node lat="60.31381666471749" lon="5.118383333087707" id="-45935">
		<tag k="name" v="Raunemyra" />
		<tag k="natural" v="wetland" />
		<tag k="ssr:stedsnr" v="409703" />
	</node>
	<node lat="60.254638886699055" lon="5.005497222202317" id="-45936">
		<tag k="name" v="Såtemyra" />
		<tag k="natural" v="wetland" />
		<tag k="ssr:stedsnr" v="409804" />
	</node>
	<node lat="60.25244166458515" lon="5.054255558039617" id="-45937">
		<tag k="name" v="Revadalsmyra" />
		<tag k="natural" v="wetland" />
		<tag k="ssr:stedsnr" v="409806" />
	</node>
	<node lat="60.38072499986343" lon="5.047302782959883" id="-45938">
		<tag k="name" v="Tverrgardsmyra" />
		<tag k="natural" v="wetland" />
		<tag k="ssr:stedsnr" v="409897" />
	</node>
	<node lat="60.39306389096623" lon="5.035036104169271" id="-45955">
		<tag k="name" v="Træet" />
		<tag k="place" v="locality" />
		<tag k="ssr:stedsnr" v="410609" />
	</node>
	<node lat="60.228080557862825" lon="5.121352785742714" id="-45963">
		<tag k="name" v="Langamyra" />
		<tag k="natural" v="wetland" />
		<tag k="ssr:stedsnr" v="410944" />
	</node>
	<node lat="60.57832777974229" lon="4.859013886401932" id="-46497">
		<tag k="name" v="Selnesmyra" />
		<tag k="natural" v="wetland" />
		<tag k="ssr:stedsnr" v="651310" />
	</node>
	<node lat="60.34806944095632" lon="4.9862416689281694" id="-46532">
		<tag k="name" v="Klausatræet" />
		<tag k="place" v="locality" />
		<tag k="ssr:stedsnr" v="652399" />
	</node>
	<node lat="60.351294443254986" lon="5.046933327739511" id="-46538">
		<tag k="name" v="Hatlelimyra" />
		<tag k="natural" v="wetland" />
		<tag k="ssr:stedsnr" v="652717" />
	</node>
	<node lat="60.25121389271059" lon="5.006688883687539" id="-46609">
		<tag k="name" v="Øyjorda" />
		<tag k="place" v="locality" />
		<tag k="ssr:stedsnr" v="894836" />
	</node>
	<node lat="60.593408331687364" lon="4.807102781770811" id="-46632">
		<tag k="name" v="Bruene" />
		<tag k="place" v="locality" />
		<tag k="ssr:stedsnr" v="895212" />
	</node>
	<node lat="60.28388332931122" lon="5.045700008552359" id="-46675">
		<tag k="name" v="Salbuvikmyra" />
		<tag k="natural" v="wetland" />
		<tag k="ssr:stedsnr" v="895683" />
	</node>
	<node lat="60.202433336340576" lon="5.14386111617024" id="-46689">
		<tag k="name" v="Torvmyra" />
		<tag k="natural" v="wetland" />
		<tag k="ssr:stedsnr" v="895928" />
	</node>
	<node lat="60.33208055596603" lon="5.038447224823236" id="-46750">
		<tag k="name" v="Våtemyra" />
		<tag k="natural" v="wetland" />
		<tag k="ssr:stedsnr" v="713585" />
	</node>
	<node lat="60.38566667030234" lon="5.028591662081943" id="-46757">
		<tag k="name" v="Storamyra" />
		<tag k="natural" v="wetland" />
		<tag k="ssr:stedsnr" v="713914" />
	</node>
	<node lat="60.22880555323591" lon="5.131025001073476" id="-46886">
		<tag k="name" v="Skogatjørnsmyra" />
		<tag k="natural" v="wetland" />
		<tag k="ssr:stedsnr" v="774951" />
	</node>
	<node lat="60.24919999824755" lon="5.082283335627271" id="-47087">
		<tag k="name" v="Høljamyra" />
		<tag k="natural" v="wetland" />
		<tag k="ssr:stedsnr" v="895204" />
	</node>
	<node lat="60.32612778087568" lon="5.032627777526199" id="-47097">
		<tag k="name" v="Mjølsteinmyra" />
		<tag k="natural" v="wetland" />
		<tag k="ssr:stedsnr" v="895523" />
	</node>
	<node lat="60.18755555533295" lon="5.096586119824942" id="-47119">
		<tag k="name" v="Stølsmyra" />
		<tag k="natural" v="wetland" />
		<tag k="ssr:stedsnr" v="895909" />
	</node>
	<node lat="60.329375000906126" lon="5.063683339755841" id="-47239">
		<tag k="landuse" v="meadow" />
		<tag k="name" v="Kleivane" />
		<tag k="ssr:stedsnr" v="956649" />
	</node>
	<node lat="60.463472220089976" lon="4.956141670475527" id="-47247">
		<tag k="name" v="Knappemyra" />
		<tag k="natural" v="wetland" />
		<tag k="ssr:stedsnr" v="956802" />
	</node>
	<node lat="60.27142777858897" lon="5.022958339637843" id="-47354">
		<tag k="name" v="Revursmyra" />
		<tag k="natural" v="wetland" />
		<tag k="ssr:stedsnr" v="46860" />
	</node>
	<node lat="60.225772218831864" lon="5.105430553918331" id="-47355">
		<tag k="name" v="Engjamyra" />
		<tag k="natural" v="wetland" />
		<tag k="ssr:stedsnr" v="46928" />
	</node>
	<node lat="60.3203305580018" lon="5.138211102805192" id="-47380">
		<tag k="name" v="Kokesteinen" />
		<tag k="natural" v="stone" />
		<tag k="ssr:stedsnr" v="45334" />
	</node>
	<node lat="60.33414999654182" lon="5.030177769567173" id="-47412">
		<tag k="name" v="Breiamyra" />
		<tag k="natural" v="wetland" />
		<tag k="ssr:stedsnr" v="45532" />
	</node>
	<node lat="60.40928888750854" lon="4.99587778358011" id="-47425">
		<tag k="name" v="Hamramyra" />
		<tag k="natural" v="wetland" />
		<tag k="ssr:stedsnr" v="45466" />
	</node>
	<node lat="60.32926666578397" lon="4.970716669740581" id="-47427">
		<tag k="name" v="Kvernapollsmyra" />
		<tag k="natural" v="wetland" />
		<tag k="ssr:stedsnr" v="45483" />
	</node>
	<node lat="60.368763887984144" lon="5.010652779250395" id="-47447">
		<tag k="name" v="Sauafjellsmyra" />
		<tag k="natural" v="wetland" />
		<tag k="ssr:stedsnr" v="45888" />
	</node>
	<node lat="60.19977222329928" lon="5.151838881434351" id="-47458">
		<tag k="name" v="Engjamyra" />
		<tag k="natural" v="wetland" />
		<tag k="ssr:stedsnr" v="46949" />
	</node>
	<node lat="60.22534444246039" lon="5.037980564245202" id="-47549">
		<tag k="name" v="Holsmyra" />
		<tag k="natural" v="wetland" />
		<tag k="ssr:stedsnr" v="105547" />
	</node>
	<node lat="60.22153333065713" lon="5.028355561940085" id="-47550">
		<tag k="name" v="Mehagen" />
		<tag k="place" v="locality" />
		<tag k="ssr:stedsnr" v="105548" />
	</node>
	<node lat="60.29151389205523" lon="5.153144441509801" id="-47589">
		<tag k="name" v="Høljamyra" />
		<tag k="natural" v="wetland" />
		<tag k="ssr:stedsnr" v="106216" />
	</node>
	<node lat="60.329949996308144" lon="4.956816670622259" id="-47612">
		<tag k="name" v="Storamyra" />
		<tag k="natural" v="wetland" />
		<tag k="ssr:stedsnr" v="106467" />
	</node>
	<node lat="60.27709999720625" lon="5.038580561814044" id="-47639">
		<tag k="name" v="Oldersmyra" />
		<tag k="natural" v="wetland" />
		<tag k="ssr:stedsnr" v="106868" />
	</node>
	<node lat="60.38202221981759" lon="5.028550002764373" id="-47648">
		<tag k="name" v="Raunskormyra" />
		<tag k="natural" v="wetland" />
		<tag k="ssr:stedsnr" v="106918" />
	</node>
	<node lat="60.18170833571296" lon="5.097216663871443" id="-47655">
		<tag k="name" v="Vardamyra" />
		<tag k="natural" v="wetland" />
		<tag k="ssr:stedsnr" v="107942" />
	</node>
	<node lat="60.319908333641145" lon="5.180880557092238" id="-47747">
		<tag k="name" v="Stølamyrana" />
		<tag k="natural" v="wetland" />
		<tag k="ssr:stedsnr" v="166127" />
	</node>
</osm>
