<?xml version="1.0" encoding="UTF-8"?>
<osm version="0.6" generator="osmapis">
	<node lat="60.348877776514996" lon="4.990744445202649" id="-39764">
		<tag k="name" v="Klausatræet" />
		<tag k="place" v="locality" />
		<tag k="ssr:stedsnr" v="5327" />
	</node>
	<node lat="60.29352500013193" lon="5.161013881861453" id="-39767">
		<tag k="name" v="Varden" />
		<tag k="natural" v="hill" />
		<tag k="place" v="locality" />
		<tag k="ssr:stedsnr" v="5807" />
	</node>
	<node lat="60.6138000022797" lon="4.832147220798558" id="-39771">
		<tag k="fixme" v="consider natural=peak for the most distinct mountains in the district" />
		<tag k="name" v="Skarhaugane" />
		<tag k="natural" v="hill" />
		<tag k="place" v="locality" />
		<tag k="ssr:stedsnr" v="6614" />
	</node>
	<node lat="60.553388886608474" lon="4.797397220818286" id="-39797">
		<tag k="name" v="Skogsøytua" />
		<tag k="natural" v="hill" />
		<tag k="place" v="locality" />
		<tag k="ssr:stedsnr" v="45008" />
	</node>
	<node lat="60.37887777524679" lon="5.159136109693226" id="-39799">
		<tag k="name" v="Tøket" />
		<tag k="natural" v="slope" />
		<tag k="place" v="locality" />
		<tag k="ssr:stedsnr" v="45103" />
	</node>
	<node lat="60.27979166738768" lon="5.122661110160149" id="-39800">
		<tag k="name" v="Kjerringastigen" />
		<tag k="natural" v="slope" />
		<tag k="place" v="locality" />
		<tag k="ssr:stedsnr" v="45126" />
	</node>
	<node lat="60.3742416694862" lon="4.970450001390153" id="-39806">
		<tag k="name" v="Galthaugen" />
		<tag k="natural" v="hill" />
		<tag k="place" v="locality" />
		<tag k="ssr:stedsnr" v="45281" />
	</node>
	<node lat="60.37759167099464" lon="4.998383337287141" id="-39807">
		<tag k="name" v="Rotavassfjellet" />
		<tag k="natural" v="hill" />
		<tag k="place" v="locality" />
		<tag k="ssr:stedsnr" v="45286" />
	</node>
	<node lat="60.35661388532054" lon="5.00551666104631" id="-39808">
		<tag k="name" v="Engeshovden" />
		<tag k="natural" v="hill" />
		<tag k="place" v="locality" />
		<tag k="ssr:stedsnr" v="45432" />
	</node>
	<node lat="60.33151944531683" lon="5.0279444426936575" id="-39809">
		<tag k="name" v="Rotavasshaugane" />
		<tag k="natural" v="hill" />
		<tag k="place" v="locality" />
		<tag k="ssr:stedsnr" v="45543" />
	</node>
	<node lat="60.34283333700892" lon="5.0144361070000425" id="-39810">
		<tag k="name" v="Rundehaugen" />
		<tag k="natural" v="hill" />
		<tag k="place" v="locality" />
		<tag k="ssr:stedsnr" v="45546" />
	</node>
	<node lat="60.34124444753698" lon="5.079849992921799" id="-39812">
		<tag k="name" v="Halvgjehaugen" />
		<tag k="natural" v="hill" />
		<tag k="place" v="locality" />
		<tag k="ssr:stedsnr" v="45574" />
	</node>
	<node lat="60.39803611029528" lon="5.020022225166212" id="-39814">
		<tag k="name" v="Langedalen" />
		<tag k="natural" v="valley" />
		<tag k="place" v="locality" />
		<tag k="ssr:stedsnr" v="45589" />
	</node>
	<node lat="60.39493888674647" lon="5.019488892908596" id="-39815">
		<tag k="name" v="Lynghaugen" />
		<tag k="natural" v="hill" />
		<tag k="place" v="locality" />
		<tag k="ssr:stedsnr" v="45591" />
	</node>
	<node lat="60.28744722357729" lon="5.015211108219958" id="-39817">
		<tag k="loc_name" v="Ådnnakken" />
		<tag k="name" v="Storeoddnakken" />
		<tag k="natural" v="hill" />
		<tag k="place" v="locality" />
		<tag k="ssr:stedsnr" v="45709" />
	</node>
	<node lat="60.334080553006196" lon="5.128519444314962" id="-39826">
		<tag k="name" v="Orrtua" />
		<tag k="natural" v="hill" />
		<tag k="place" v="locality" />
		<tag k="ssr:stedsnr" v="45773" />
	</node>
	<node lat="60.21135833048058" lon="5.094302786205789" id="-39827">
		<tag k="name" v="Kletten" />
		<tag k="natural" v="hill" />
		<tag k="place" v="locality" />
		<tag k="ssr:stedsnr" v="45921" />
	</node>
	<node lat="60.52481388979343" lon="4.9018944413571885" id="-39831">
		<tag k="name" v="Sælevågsdalen" />
		<tag k="natural" v="valley" />
		<tag k="place" v="locality" />
		<tag k="ssr:stedsnr" v="45975" />
	</node>
	<node lat="60.396591665989554" lon="5.104972230215707" id="-39833">
		<tag k="name" v="Teistaberget" />
		<tag k="natural" v="ridge" />
		<tag k="place" v="locality" />
		<tag k="ssr:stedsnr" v="45872" />
	</node>
	<node lat="60.36439999846637" lon="5.020130562688813" id="-39837">
		<tag k="name" v="Brattstigdalen" />
		<tag k="natural" v="valley" />
		<tag k="place" v="locality" />
		<tag k="ssr:stedsnr" v="46577" />
	</node>
	<node lat="60.34735833529009" lon="5.023944452943485" id="-39838">
		<tag k="name" v="Svinhusdalen" />
		<tag k="natural" v="valley" />
		<tag k="place" v="locality" />
		<tag k="ssr:stedsnr" v="46578" />
	</node>
	<node lat="60.26715278150635" lon="4.979680550382114" id="-39839">
		<tag k="name" v="Kvernhaugen" />
		<tag k="natural" v="hill" />
		<tag k="place" v="locality" />
		<tag k="ssr:stedsnr" v="46827" />
	</node>
	<node lat="60.62820555645568" lon="4.803063886373759" id="-39840">
		<tag k="name" v="Parishaugen" />
		<tag k="natural" v="hill" />
		<tag k="place" v="locality" />
		<tag k="ssr:stedsnr" v="46875" />
	</node>
	<node lat="60.28060277379819" lon="5.097636103995864" id="-39842">
		<tag k="fixme" v="consider natural=peak for the most distinct mountains in the district" />
		<tag k="name" v="Skorasåta" />
		<tag k="natural" v="hill" />
		<tag k="place" v="locality" />
		<tag k="ssr:stedsnr" v="46887" />
	</node>
	<node lat="60.21146944830834" lon="5.154822215380838" id="-39846">
		<tag k="name" v="Hegraberget" />
		<tag k="natural" v="hill" />
		<tag k="place" v="locality" />
		<tag k="ssr:stedsnr" v="46981" />
	</node>
	<node lat="60.22771111196895" lon="5.004308333636071" id="-39849">
		<tag k="name" v="Litlehaugen" />
		<tag k="natural" v="hill" />
		<tag k="place" v="locality" />
		<tag k="ssr:stedsnr" v="65701" />
	</node>
	<node lat="60.22223610774224" lon="5.113619440122423" id="-39850">
		<tag k="name" v="Førdesdalen" />
		<tag k="natural" v="valley" />
		<tag k="place" v="locality" />
		<tag k="ssr:stedsnr" v="65816" />
	</node>
	<node lat="60.38464999746268" lon="5.1450500072073355" id="-39874">
		<tag k="name" v="Grasmenipa" />
		<tag k="natural" v="hill" />
		<tag k="place" v="locality" />
		<tag k="ssr:stedsnr" v="66610" />
	</node>
	<node lat="60.48989722481577" lon="4.880027775285255" id="-39892">
		<tag k="name" v="Kletten" />
		<tag k="natural" v="hill" />
		<tag k="place" v="locality" />
		<tag k="ssr:stedsnr" v="85997" />
	</node>
	<node lat="60.27144444024153" lon="5.013480557347966" id="-39923">
		<tag k="fixme" v="consider natural=peak for the most distinct mountains in the district" />
		<tag k="name" v="Manen" />
		<tag k="natural" v="hill" />
		<tag k="place" v="locality" />
		<tag k="ssr:stedsnr" v="248481" />
	</node>
	<node lat="60.26506110791788" lon="5.117988895462522" id="-39936">
		<tag k="name" v="Slåtto" />
		<tag k="natural" v="slope" />
		<tag k="place" v="locality" />
		<tag k="ssr:stedsnr" v="105207" />
	</node>
	<node lat="60.26173333097814" lon="5.073530549007088" id="-39937">
		<tag k="name" v="Hammarslandsdalen" />
		<tag k="natural" v="valley" />
		<tag k="place" v="locality" />
		<tag k="ssr:stedsnr" v="105209" />
	</node>
	<node lat="60.25716110919437" lon="5.087641672347166" id="-39940">
		<tag k="name" v="Stordalen" />
		<tag k="natural" v="valley" />
		<tag k="place" v="locality" />
		<tag k="ssr:stedsnr" v="105179" />
	</node>
	<node lat="60.24590833403215" lon="5.2176611099001455" id="-39941">
		<tag k="name" v="Ørnakulten" />
		<tag k="natural" v="hill" />
		<tag k="place" v="locality" />
		<tag k="ssr:stedsnr" v="105190" />
	</node>
	<node lat="60.27300000112131" lon="5.083183324797621" id="-39942">
		<tag k="name" v="Midtstegen" />
		<tag k="natural" v="hill" />
		<tag k="place" v="locality" />
		<tag k="ssr:stedsnr" v="105196" />
	</node>
	<node lat="60.20692778078244" lon="5.029613879927013" id="-39950">
		<tag k="name" v="Krekebærvarden" />
		<tag k="natural" v="hill" />
		<tag k="place" v="locality" />
		<tag k="ssr:stedsnr" v="105690" />
	</node>
	<node lat="60.204341666715756" lon="5.036072229775916" id="-39951">
		<tag k="name" v="Klakken" />
		<tag k="natural" v="hill" />
		<tag k="place" v="locality" />
		<tag k="ssr:stedsnr" v="105691" />
	</node>
	<node lat="60.48066110689385" lon="4.931405561523351" id="-39953">
		<tag k="name" v="Torvhaugen" />
		<tag k="natural" v="hill" />
		<tag k="old_name" v="Janhaugen" />
		<tag k="place" v="locality" />
		<tag k="ssr:stedsnr" v="105989" />
	</node>
	<node lat="60.54068055280867" lon="4.884349996472641" id="-39957">
		<tag k="fixme" v="consider natural=peak for the most distinct mountains in the district" />
		<tag k="name" v="Åsen" />
		<tag k="natural" v="hill" />
		<tag k="place" v="locality" />
		<tag k="ssr:stedsnr" v="106042" />
	</node>
	<node lat="60.272305791463495" lon="5.089426360986071" id="-39958">
		<tag k="name" v="Paradiset" />
		<tag k="place" v="locality" />
		<tag k="ssr:stedsnr" v="106046" />
	</node>
	<node lat="60.64696110987314" lon="4.8053138880129005" id="-39966">
		<tag k="name" v="Håkletten" />
		<tag k="natural" v="hill" />
		<tag k="place" v="locality" />
		<tag k="ssr:stedsnr" v="106174" />
	</node>
	<node lat="60.64589444618347" lon="4.793391659405346" id="-39967">
		<tag k="name" v="Stekkeberget" />
		<tag k="natural" v="hill" />
		<tag k="place" v="locality" />
		<tag k="ssr:stedsnr" v="106175" />
	</node>
	<node lat="60.55299444110992" lon="4.845947226652741" id="-39969">
		<tag k="name" v="Budalen" />
		<tag k="natural" v="valley" />
		<tag k="place" v="locality" />
		<tag k="ssr:stedsnr" v="106294" />
	</node>
	<node lat="60.34314444420134" lon="4.995308336390652" id="-39974">
		<tag k="name" v="Stølshaugen" />
		<tag k="natural" v="hill" />
		<tag k="place" v="locality" />
		<tag k="ssr:stedsnr" v="106392" />
	</node>
	<node lat="60.33100833568571" lon="5.086083338525902" id="-39977">
		<tag k="name" v="Klakkane" />
		<tag k="natural" v="hill" />
		<tag k="place" v="locality" />
		<tag k="ssr:stedsnr" v="106573" />
	</node>
	<node lat="60.340758337391826" lon="5.111577775793926" id="-39978">
		<tag k="name" v="Døsjehaugen" />
		<tag k="natural" v="hill" />
		<tag k="place" v="locality" />
		<tag k="ssr:stedsnr" v="106577" />
	</node>
	<node lat="60.324641664946334" lon="5.064341663076577" id="-39979">
		<tag k="name" v="Åsdalen" />
		<tag k="natural" v="valley" />
		<tag k="place" v="locality" />
		<tag k="ssr:stedsnr" v="106579" />
	</node>
	<node lat="60.37963055216999" lon="4.940266669370242" id="-39984">
		<tag k="name" v="Ovnen" />
		<tag k="natural" v="hill" />
		<tag k="place" v="locality" />
		<tag k="ssr:stedsnr" v="106441" />
	</node>
	<node lat="60.39936388940172" lon="5.009663881666614" id="-39990">
		<tag k="name" v="Trangesmoghaugane" />
		<tag k="natural" v="hill" />
		<tag k="place" v="locality" />
		<tag k="ssr:stedsnr" v="106603" />
	</node>
	<node lat="60.31175000148217" lon="5.02171388840537" id="-39991">
		<tag k="name" v="Lushaugen" />
		<tag k="natural" v="hill" />
		<tag k="place" v="locality" />
		<tag k="ssr:stedsnr" v="106614" />
	</node>
	<node lat="60.3102250024324" lon="5.117555557038451" id="-39992">
		<tag k="name" v="Kvilet" />
		<tag k="place" v="locality" />
		<tag k="ssr:stedsnr" v="106672" />
	</node>
	<node lat="60.50059166858266" lon="4.91847777261215" id="-39997">
		<tag k="name" v="Grønhelleren" />
		<tag k="natural" v="slope" />
		<tag k="place" v="locality" />
		<tag k="ssr:stedsnr" v="106784" />
	</node>
	<node lat="60.38233611063131" lon="5.0351722277327555" id="-39999">
		<tag k="name" v="Slettene" />
		<tag k="natural" v="slope" />
		<tag k="place" v="locality" />
		<tag k="ssr:stedsnr" v="106910" />
	</node>
	<node lat="60.369283331538604" lon="5.023133331916346" id="-40002">
		<tag k="name" v="Søre Dalen" />
		<tag k="natural" v="valley" />
		<tag k="place" v="locality" />
		<tag k="ssr:stedsnr" v="106925" />
	</node>
	<node lat="60.36326944900646" lon="5.148919447703195" id="-40051">
		<tag k="name" v="Tona" />
		<tag k="natural" v="hill" />
		<tag k="place" v="locality" />
		<tag k="ssr:stedsnr" v="126693" />
	</node>
	<node lat="60.49653055969634" lon="4.922141660631501" id="-40053">
		<tag k="name" v="Rongaloftet" />
		<tag k="natural" v="hill" />
		<tag k="place" v="locality" />
		<tag k="ssr:stedsnr" v="127241" />
	</node>
	<node lat="60.26124444174529" lon="5.092772225991856" id="-40086">
		<tag k="fixme" v="consider natural=peak for the most distinct mountains in the district" />
		<tag k="name" v="Varden" />
		<tag k="natural" v="hill" />
		<tag k="place" v="locality" />
		<tag k="ssr:stedsnr" v="166203" />
	</node>
	<node lat="60.24203333179624" lon="5.100463895423355" id="-40087">
		<tag k="name" v="Tveitahøgda" />
		<tag k="natural" v="hill" />
		<tag k="place" v="locality" />
		<tag k="ssr:stedsnr" v="166206" />
	</node>
	<node lat="60.24803333278941" lon="5.21325277391355" id="-40090">
		<tag k="name" v="Langedalen" />
		<tag k="natural" v="valley" />
		<tag k="place" v="locality" />
		<tag k="ssr:stedsnr" v="166166" />
	</node>
	<node lat="60.24119444278777" lon="5.0822833286255715" id="-40092">
		<tag k="name" v="Orkedalen" />
		<tag k="natural" v="valley" />
		<tag k="place" v="locality" />
		<tag k="ssr:stedsnr" v="166179" />
	</node>
	<node lat="60.575152780456186" lon="4.857397221351845" id="-40094">
		<tag k="name" v="Vardneshøyen" />
		<tag k="natural" v="hill" />
		<tag k="place" v="locality" />
		<tag k="ssr:stedsnr" v="166315" />
	</node>
	<node lat="60.322816667826835" lon="5.030894443036805" id="-40095">
		<tag k="name" v="Jonsokhaugen" />
		<tag k="natural" v="hill" />
		<tag k="place" v="locality" />
		<tag k="ssr:stedsnr" v="166612" />
	</node>
	<node lat="60.314208336817686" lon="5.059588884310109" id="-40096">
		<tag k="name" v="Rapovnen" />
		<tag k="natural" v="hill" />
		<tag k="place" v="locality" />
		<tag k="ssr:stedsnr" v="166623" />
	</node>
	<node lat="60.305499999189806" lon="5.0330861178103445" id="-40097">
		<tag k="name" v="Ryggen" />
		<tag k="natural" v="hill" />
		<tag k="place" v="locality" />
		<tag k="ssr:stedsnr" v="166624" />
	</node>
	<node lat="60.283833335787016" lon="5.04721388801827" id="-40105">
		<tag k="fixme" v="consider natural=peak for the most distinct mountains in the district" />
		<tag k="name" v="Hjartåsen" />
		<tag k="natural" v="hill" />
		<tag k="place" v="locality" />
		<tag k="ssr:stedsnr" v="166709" />
	</node>
	<node lat="60.284966667261855" lon="5.031380548441061" id="-40106">
		<tag k="name" v="Austre Storhaugen" />
		<tag k="natural" v="hill" />
		<tag k="place" v="locality" />
		<tag k="ssr:stedsnr" v="166716" />
	</node>
	<node lat="60.30791666524758" lon="4.934477782608242" id="-40109">
		<tag k="name" v="Vardane" />
		<tag k="natural" v="hill" />
		<tag k="place" v="locality" />
		<tag k="ssr:stedsnr" v="166808" />
	</node>
	<node lat="60.309349999203555" lon="4.939583331267118" id="-40110">
		<tag k="name" v="Jonsokhaugen" />
		<tag k="natural" v="hill" />
		<tag k="place" v="locality" />
		<tag k="ssr:stedsnr" v="166811" />
	</node>
	<node lat="60.41378333321159" lon="5.0086527829242105" id="-40115">
		<tag k="name" v="Traneneshaugen" />
		<tag k="natural" v="hill" />
		<tag k="place" v="locality" />
		<tag k="ssr:stedsnr" v="166958" />
	</node>
	<node lat="60.1899027786482" lon="5.150388889880065" id="-40116">
		<tag k="name" v="Florshaugen" />
		<tag k="natural" v="hill" />
		<tag k="place" v="locality" />
		<tag k="ssr:stedsnr" v="166962" />
	</node>
	<node lat="60.36715833672443" lon="5.148222216690277" id="-40117">
		<tag k="name" v="Smihaugen" />
		<tag k="natural" v="hill" />
		<tag k="place" v="locality" />
		<tag k="ssr:stedsnr" v="166977" />
	</node>
	<node lat="60.35163333622276" lon="5.143077770691847" id="-40118">
		<tag k="fixme" v="consider natural=peak for the most distinct mountains in the district" />
		<tag k="name" v="Småvarden" />
		<tag k="natural" v="hill" />
		<tag k="place" v="locality" />
		<tag k="ssr:stedsnr" v="166980" />
	</node>
	<node lat="60.40424722194224" lon="4.972480552820161" id="-40123">
		<tag k="name" v="Nausthaugen" />
		<tag k="natural" v="hill" />
		<tag k="place" v="locality" />
		<tag k="ssr:stedsnr" v="167267" />
	</node>
	<node lat="60.41979167042927" lon="4.913372220831905" id="-40129">
		<tag k="name" v="Ølen" />
		<tag k="place" v="locality" />
		<tag k="ssr:stedsnr" v="167369" />
	</node>
	<node lat="60.35264166431401" lon="4.984161116130769" id="-40130">
		<tag k="name" v="Neshaugane" />
		<tag k="natural" v="hill" />
		<tag k="place" v="locality" />
		<tag k="ssr:stedsnr" v="167374" />
	</node>
	<node lat="60.467763891892886" lon="4.932402784752038" id="-40136">
		<tag k="name" v="Ådråtten" />
		<tag k="place" v="locality" />
		<tag k="ssr:stedsnr" v="167807" />
	</node>
	<node lat="60.228577780287644" lon="5.1034027703874445" id="-40141">
		<tag k="fixme" v="consider natural=peak for the most distinct mountains in the district" />
		<tag k="name" v="Blåfjellet" />
		<tag k="natural" v="hill" />
		<tag k="place" v="locality" />
		<tag k="ssr:stedsnr" v="167959" />
	</node>
	<node lat="60.51201664473269" lon="4.909783052765655" id="-40200">
		<tag k="name" v="Arseta" />
		<tag k="natural" v="hill" />
		<tag k="place" v="locality" />
		<tag k="ssr:stedsnr" v="206351" />
	</node>
	<node lat="60.650761112970144" lon="4.786472212903249" id="-40204">
		<tag k="fixme" v="consider natural=peak for the most distinct mountains in the district" />
		<tag k="name" v="Benkene" />
		<tag k="natural" v="hill" />
		<tag k="place" v="locality" />
		<tag k="ssr:stedsnr" v="206710" />
	</node>
	<node lat="60.19833611559504" lon="5.113091672694484" id="-40225">
		<tag k="name" v="Gjona" />
		<tag k="place" v="locality" />
		<tag k="ssr:stedsnr" v="227069" />
	</node>
	<node lat="60.35961666412419" lon="4.945180562379714" id="-40230">
		<tag k="name" v="Klubben" />
		<tag k="natural" v="hill" />
		<tag k="place" v="locality" />
		<tag k="ssr:stedsnr" v="227089" />
	</node>
	<node lat="60.25451111525268" lon="5.073252773399324" id="-40232">
		<tag k="name" v="Vardhaugen" />
		<tag k="natural" v="hill" />
		<tag k="place" v="locality" />
		<tag k="ssr:stedsnr" v="227203" />
	</node>
	<node lat="60.4244444477331" lon="4.978975000036244" id="-40236">
		<tag k="name" v="Fuglavasstoppen" />
		<tag k="natural" v="hill" />
		<tag k="place" v="locality" />
		<tag k="ssr:stedsnr" v="227338" />
	</node>
	<node lat="60.19436666411685" lon="5.113380547366525" id="-40238">
		<tag k="name" v="Stordalen" />
		<tag k="natural" v="valley" />
		<tag k="place" v="locality" />
		<tag k="ssr:stedsnr" v="227544" />
	</node>
	<node lat="60.37129999972316" lon="4.998986111222028" id="-40240">
		<tag k="name" v="Midtfjellet" />
		<tag k="natural" v="hill" />
		<tag k="place" v="locality" />
		<tag k="ssr:stedsnr" v="227283" />
	</node>
	<node lat="60.32764722482029" lon="5.177763890071489" id="-40246">
		<tag k="name" v="Gardsihaugen" />
		<tag k="natural" v="hill" />
		<tag k="place" v="locality" />
		<tag k="ssr:stedsnr" v="227778" />
	</node>
	<node lat="60.378933335344854" lon="5.12050834126991" id="-40252">
		<tag k="name" v="Gulfjellet" />
		<tag k="natural" v="hill" />
		<tag k="place" v="locality" />
		<tag k="ssr:stedsnr" v="227936" />
	</node>
	<node lat="60.23095833075015" lon="5.081297218446629" id="-40253">
		<tag k="name" v="Kleiva" />
		<tag k="natural" v="slope" />
		<tag k="place" v="locality" />
		<tag k="ssr:stedsnr" v="227942" />
	</node>
	<node lat="60.30960833118022" lon="4.9341972145568676" id="-40259">
		<tag k="name" v="Skipmannshaugen" />
		<tag k="natural" v="hill" />
		<tag k="place" v="locality" />
		<tag k="ssr:stedsnr" v="227813" />
	</node>
	<node lat="60.37551388729129" lon="5.043311112226552" id="-40262">
		<tag k="name" v="Midtskara" />
		<tag k="natural" v="hill" />
		<tag k="place" v="locality" />
		<tag k="ssr:stedsnr" v="227889" />
	</node>
	<node lat="60.375377778786536" lon="5.03803332581597" id="-40263">
		<tag k="name" v="Ytste Djupedalen" />
		<tag k="natural" v="valley" />
		<tag k="place" v="locality" />
		<tag k="ssr:stedsnr" v="227900" />
	</node>
	<node lat="60.612708337079695" lon="4.825749990405526" id="-40267">
		<tag k="name" v="Storhøyen" />
		<tag k="natural" v="hill" />
		<tag k="place" v="locality" />
		<tag k="ssr:stedsnr" v="228186" />
	</node>
	<node lat="60.612149999521286" lon="4.8376583324120785" id="-40268">
		<tag k="name" v="Molddiket" />
		<tag k="natural" v="valley" />
		<tag k="place" v="locality" />
		<tag k="ssr:stedsnr" v="228189" />
	</node>
	<node lat="60.61880000334235" lon="4.807461101974522" id="-40269">
		<tag k="name" v="Hovdhøyen" />
		<tag k="natural" v="hill" />
		<tag k="place" v="locality" />
		<tag k="ssr:stedsnr" v="228039" />
	</node>
	<node lat="60.33863055570611" lon="5.038552781134402" id="-40273">
		<tag k="name" v="Brakabrekka" />
		<tag k="natural" v="slope" />
		<tag k="place" v="locality" />
		<tag k="ssr:stedsnr" v="228605" />
	</node>
	<node lat="60.39393611517948" lon="5.0348833404864966" id="-40279">
		<tag k="name" v="Sponhaugen" />
		<tag k="natural" v="hill" />
		<tag k="place" v="locality" />
		<tag k="ssr:stedsnr" v="228680" />
	</node>
	<node lat="60.62414166599533" lon="4.8123305518629875" id="-40281">
		<tag k="name" v="Arseta" />
		<tag k="place" v="locality" />
		<tag k="ssr:stedsnr" v="228880" />
	</node>
	<node lat="60.29200555762946" lon="5.08118332895229" id="-40284">
		<tag k="name" v="Storhaugen" />
		<tag k="natural" v="hill" />
		<tag k="place" v="locality" />
		<tag k="ssr:stedsnr" v="228893" />
	</node>
	<node lat="60.3574416703168" lon="5.041297227956747" id="-40287">
		<tag k="name" v="Djupebotnen" />
		<tag k="natural" v="valley" />
		<tag k="place" v="locality" />
		<tag k="ssr:stedsnr" v="228782" />
	</node>
	<node lat="60.21796944619413" lon="5.076577779453283" id="-40302">
		<tag k="fixme" v="consider natural=peak for the most distinct mountains in the district" />
		<tag k="name" v="Åsen" />
		<tag k="natural" v="hill" />
		<tag k="place" v="locality" />
		<tag k="ssr:stedsnr" v="247678" />
	</node>
	<node lat="60.183086107583726" lon="5.116663896639851" id="-40305">
		<tag k="name" v="Knappen" />
		<tag k="natural" v="hill" />
		<tag k="place" v="locality" />
		<tag k="ssr:stedsnr" v="247756" />
	</node>
	<node lat="60.26385833412533" lon="5.030838883970709" id="-40318">
		<tag k="fixme" v="consider natural=peak for the most distinct mountains in the district" />
		<tag k="name" v="Lotafjellet" />
		<tag k="natural" v="hill" />
		<tag k="place" v="locality" />
		<tag k="ssr:stedsnr" v="248466" />
	</node>
	<node lat="60.34515555430407" lon="5.126588893012621" id="-40322">
		<tag k="name" v="Knappen" />
		<tag k="natural" v="hill" />
		<tag k="place" v="locality" />
		<tag k="ssr:stedsnr" v="248700" />
	</node>
	<node lat="60.23968333433169" lon="5.139988893172095" id="-40346">
		<tag k="name" v="Laksafjellet" />
		<tag k="natural" v="hill" />
		<tag k="place" v="locality" />
		<tag k="ssr:stedsnr" v="287205" />
	</node>
	<node lat="60.26403055270813" lon="5.085197220465456" id="-40347">
		<tag k="fixme" v="consider natural=peak for the most distinct mountains in the district" />
		<tag k="loc_name" v="Sauafjellet" />
		<tag k="name" v="Senafjellet" />
		<tag k="natural" v="hill" />
		<tag k="place" v="locality" />
		<tag k="ssr:stedsnr" v="287209" />
	</node>
	<node lat="60.25844722054201" lon="5.12002778489473" id="-40348">
		<tag k="name" v="Trollhaugen" />
		<tag k="natural" v="hill" />
		<tag k="place" v="locality" />
		<tag k="ssr:stedsnr" v="287195" />
	</node>
	<node lat="60.255691667080384" lon="5.122766673568847" id="-40349">
		<tag k="name" v="Storhaugen" />
		<tag k="natural" v="hill" />
		<tag k="place" v="locality" />
		<tag k="ssr:stedsnr" v="287196" />
	</node>
	<node lat="60.570538888995756" lon="4.852105550522488" id="-40355">
		<tag k="name" v="Gultona" />
		<tag k="natural" v="hill" />
		<tag k="place" v="locality" />
		<tag k="ssr:stedsnr" v="288032" />
	</node>
	<node lat="60.562866668923604" lon="4.799099998643675" id="-40363">
		<tag k="name" v="Helrane" />
		<tag k="natural" v="ridge" />
		<tag k="place" v="locality" />
		<tag k="ssr:stedsnr" v="288109" />
	</node>
	<node lat="60.61926111396572" lon="4.849811111042533" id="-40366">
		<tag k="name" v="Sandvikshøyen" />
		<tag k="natural" v="hill" />
		<tag k="place" v="locality" />
		<tag k="ssr:stedsnr" v="288187" />
	</node>
	<node lat="60.450591662823676" lon="4.95444167251857" id="-40370">
		<tag k="name" v="Synningen" />
		<tag k="natural" v="hill" />
		<tag k="place" v="locality" />
		<tag k="ssr:stedsnr" v="288328" />
	</node>
	<node lat="60.44510833746213" lon="4.973744441848711" id="-40372">
		<tag k="name" v="Avnesfjellet" />
		<tag k="natural" v="hill" />
		<tag k="place" v="locality" />
		<tag k="ssr:stedsnr" v="288334" />
	</node>
	<node lat="60.323180554144955" lon="5.17329999755798" id="-40373">
		<tag k="name" v="Dalen" />
		<tag k="natural" v="valley" />
		<tag k="place" v="locality" />
		<tag k="ssr:stedsnr" v="288335" />
	</node>
	<node lat="60.44267222617255" lon="4.960502772203237" id="-40374">
		<tag k="name" v="Maklahaugen" />
		<tag k="natural" v="hill" />
		<tag k="place" v="locality" />
		<tag k="ssr:stedsnr" v="288336" />
	</node>
	<node lat="60.34278611262691" lon="5.087402778621276" id="-40379">
		<tag k="name" v="Blommafjellet" />
		<tag k="natural" v="hill" />
		<tag k="place" v="locality" />
		<tag k="ssr:stedsnr" v="288538" />
	</node>
	<node lat="60.36142499614432" lon="5.101602783037432" id="-40387">
		<tag k="name" v="Varden" />
		<tag k="natural" v="hill" />
		<tag k="place" v="locality" />
		<tag k="ssr:stedsnr" v="288484" />
	</node>
	<node lat="60.36539999889387" lon="5.080166675258864" id="-40388">
		<tag k="name" v="Råhaugen" />
		<tag k="natural" v="hill" />
		<tag k="place" v="locality" />
		<tag k="ssr:stedsnr" v="288485" />
	</node>
	<node lat="60.42356388829707" lon="4.972388888677938" id="-40391">
		<tag k="fixme" v="consider natural=peak for the most distinct mountains in the district" />
		<tag k="name" v="Litlestølen" />
		<tag k="natural" v="hill" />
		<tag k="place" v="locality" />
		<tag k="ssr:stedsnr" v="288608" />
	</node>
	<node lat="60.51201667111635" lon="4.913466671374312" id="-40393">
		<tag k="name" v="Medarseta" />
		<tag k="natural" v="hill" />
		<tag k="place" v="locality" />
		<tag k="ssr:stedsnr" v="288737" />
	</node>
	<node lat="60.37134444596408" lon="5.020227772274795" id="-40397">
		<tag k="name" v="Stokkafjellet" />
		<tag k="natural" v="hill" />
		<tag k="place" v="locality" />
		<tag k="ssr:stedsnr" v="288905" />
	</node>
	<node lat="60.37230555924806" lon="5.036075001332188" id="-40398">
		<tag k="name" v="Dalane" />
		<tag k="natural" v="valley" />
		<tag k="place" v="locality" />
		<tag k="ssr:stedsnr" v="288921" />
	</node>
	<node lat="60.37449444541171" lon="5.024008341007787" id="-40400">
		<tag k="name" v="Fagrevollen" />
		<tag k="natural" v="slope" />
		<tag k="place" v="locality" />
		<tag k="ssr:stedsnr" v="288928" />
	</node>
	<node lat="60.31879166582397" lon="5.115444450276098" id="-40402">
		<tag k="name" v="Pyttane" />
		<tag k="natural" v="slope" />
		<tag k="place" v="locality" />
		<tag k="ssr:stedsnr" v="288678" />
	</node>
	<node lat="60.264922221559374" lon="4.958872229848314" id="-40405">
		<tag k="name" v="Midtre Selsteinen" />
		<tag k="natural" v="hill" />
		<tag k="place" v="locality" />
		<tag k="ssr:stedsnr" v="288811" />
	</node>
	<node lat="60.487936112773895" lon="4.892988887253779" id="-40406">
		<tag k="name" v="Narøytua" />
		<tag k="natural" v="hill" />
		<tag k="place" v="locality" />
		<tag k="ssr:stedsnr" v="288812" />
	</node>
	<node lat="60.31480277784964" lon="4.9892388855353955" id="-40407">
		<tag k="name" v="Djupedalen" />
		<tag k="natural" v="valley" />
		<tag k="place" v="locality" />
		<tag k="ssr:stedsnr" v="288826" />
	</node>
	<node lat="60.25113055628331" lon="5.019688880715018" id="-40409">
		<tag k="name" v="Smalhushaugen" />
		<tag k="natural" v="hill" />
		<tag k="place" v="locality" />
		<tag k="ssr:stedsnr" v="288828" />
	</node>
	<node lat="60.25478055585924" lon="5.009025004162514" id="-40414">
		<tag k="name" v="Såtene" />
		<tag k="natural" v="hill" />
		<tag k="place" v="locality" />
		<tag k="ssr:stedsnr" v="289883" />
	</node>
	<node lat="60.23753055193789" lon="5.100619453617536" id="-40416">
		<tag k="name" v="Lauvbotnen" />
		<tag k="natural" v="valley" />
		<tag k="place" v="locality" />
		<tag k="ssr:stedsnr" v="289978" />
	</node>
	<node lat="60.23760000273622" lon="5.178716659499235" id="-40417">
		<tag k="name" v="Kverndalen" />
		<tag k="natural" v="valley" />
		<tag k="place" v="locality" />
		<tag k="ssr:stedsnr" v="289979" />
	</node>
	<node lat="60.4742416708306" lon="4.928655561104707" id="-40428">
		<tag k="name" v="Klubben" />
		<tag k="natural" v="hill" />
		<tag k="place" v="locality" />
		<tag k="ssr:stedsnr" v="308207" />
	</node>
	<node lat="60.389505553147174" lon="5.027174999047223" id="-40432">
		<tag k="fixme" v="consider natural=peak for the most distinct mountains in the district" />
		<tag k="name" v="Spjeldsfjellet" />
		<tag k="natural" v="hill" />
		<tag k="place" v="locality" />
		<tag k="ssr:stedsnr" v="308277" />
	</node>
	<node lat="60.28134721828087" lon="5.008988885093112" id="-40434">
		<tag k="name" v="Ramsdalen" />
		<tag k="natural" v="valley" />
		<tag k="place" v="locality" />
		<tag k="ssr:stedsnr" v="308403" />
	</node>
	<node lat="60.34935833708846" lon="4.959894441772062" id="-40452">
		<tag k="fixme" v="consider natural=peak for the most distinct mountains in the district" />
		<tag k="name" v="Storevarden" />
		<tag k="natural" v="hill" />
		<tag k="place" v="locality" />
		<tag k="ssr:stedsnr" v="309387" />
	</node>
	<node lat="60.318777777458294" lon="5.057511111673054" id="-40455">
		<tag k="fixme" v="consider natural=peak for the most distinct mountains in the district" />
		<tag k="name" v="Ørnafjellet" />
		<tag k="natural" v="hill" />
		<tag k="place" v="locality" />
		<tag k="ssr:stedsnr" v="309534" />
	</node>
	<node lat="60.326261114873304" lon="5.104558333038696" id="-40457">
		<tag k="fixme" v="consider natural=peak for the most distinct mountains in the district" />
		<tag k="name" v="Lantefjellet" />
		<tag k="natural" v="hill" />
		<tag k="place" v="locality" />
		<tag k="ssr:stedsnr" v="309786" />
	</node>
	<node lat="60.38587221846572" lon="5.1479944519966585" id="-40465">
		<tag k="name" v="Storhaugen" />
		<tag k="natural" v="hill" />
		<tag k="place" v="locality" />
		<tag k="ssr:stedsnr" v="469114" />
	</node>
	<node lat="60.3745555554336" lon="5.13643889689731" id="-40467">
		<tag k="fixme" v="consider natural=peak for the most distinct mountains in the district" />
		<tag k="name" v="Steinsfjellet" />
		<tag k="natural" v="hill" />
		<tag k="place" v="locality" />
		<tag k="ssr:stedsnr" v="469121" />
	</node>
	<node lat="60.348494447421004" lon="4.942169437277768" id="-40469">
		<tag k="name" v="Kvernhushaugen" />
		<tag k="natural" v="hill" />
		<tag k="place" v="locality" />
		<tag k="ssr:stedsnr" v="469091" />
	</node>
	<node lat="60.24394721963578" lon="5.091186113358951" id="-40472">
		<tag k="name" v="Kvernhushaugen" />
		<tag k="natural" v="hill" />
		<tag k="place" v="locality" />
		<tag k="ssr:stedsnr" v="469191" />
	</node>
	<node lat="60.23190833033893" lon="5.038819438515556" id="-40496">
		<tag k="name" v="Smånipa" />
		<tag k="natural" v="hill" />
		<tag k="place" v="locality" />
		<tag k="ssr:stedsnr" v="469689" />
	</node>
	<node lat="60.23330555197779" lon="5.034674992331493" id="-40497">
		<tag k="name" v="Huldhaugen" />
		<tag k="natural" v="hill" />
		<tag k="place" v="locality" />
		<tag k="ssr:stedsnr" v="469692" />
	</node>
	<node lat="60.18056388485089" lon="5.0493638978312685" id="-40498">
		<tag k="name" v="Sjuren" />
		<tag k="natural" v="hill" />
		<tag k="place" v="locality" />
		<tag k="ssr:stedsnr" v="469698" />
	</node>
	<node lat="60.307213885734654" lon="5.113055562556402" id="-40501">
		<tag k="name" v="Skoganutane" />
		<tag k="natural" v="hill" />
		<tag k="place" v="locality" />
		<tag k="ssr:stedsnr" v="469736" />
	</node>
	<node lat="60.57374166326669" lon="4.844363892087655" id="-40503">
		<tag k="name" v="Spileberget" />
		<tag k="natural" v="hill" />
		<tag k="place" v="locality" />
		<tag k="ssr:stedsnr" v="470024" />
	</node>
	<node lat="60.252316665649346" lon="5.042736113933294" id="-40504">
		<tag k="name" v="Skorane" />
		<tag k="natural" v="hill" />
		<tag k="place" v="locality" />
		<tag k="ssr:stedsnr" v="470027" />
	</node>
	<node lat="60.56594444321326" lon="4.811213882588065" id="-40512">
		<tag k="name" v="Lynghøyen" />
		<tag k="natural" v="hill" />
		<tag k="place" v="locality" />
		<tag k="ssr:stedsnr" v="470084" />
	</node>
	<node lat="60.32515832951434" lon="5.171136103773125" id="-40525">
		<tag k="name" v="Pollhaugen" />
		<tag k="natural" v="hill" />
		<tag k="place" v="locality" />
		<tag k="ssr:stedsnr" v="470242" />
	</node>
	<node lat="60.37273610837869" lon="5.004816658960706" id="-40527">
		<tag k="name" v="Midthaugen" />
		<tag k="natural" v="hill" />
		<tag k="place" v="locality" />
		<tag k="ssr:stedsnr" v="470250" />
	</node>
	<node lat="60.61943610734984" lon="4.843586115591937" id="-40528">
		<tag k="name" v="Kuholene" />
		<tag k="natural" v="valley" />
		<tag k="place" v="locality" />
		<tag k="ssr:stedsnr" v="470251" />
	</node>
	<node lat="60.34660555411089" lon="5.016727786026417" id="-40536">
		<tag k="name" v="Kleivadalen" />
		<tag k="natural" v="valley" />
		<tag k="place" v="locality" />
		<tag k="ssr:stedsnr" v="470326" />
	</node>
	<node lat="60.34648333284049" lon="5.0006305568051195" id="-40546">
		<tag k="name" v="Engeshaugen" />
		<tag k="natural" v="hill" />
		<tag k="place" v="locality" />
		<tag k="ssr:stedsnr" v="470396" />
	</node>
	<node lat="60.3355083317244" lon="4.939113884644511" id="-40548">
		<tag k="name" v="Klovane" />
		<tag k="natural" v="hill" />
		<tag k="place" v="locality" />
		<tag k="ssr:stedsnr" v="470404" />
	</node>
	<node lat="60.34154999955128" lon="5.024533331051205" id="-40549">
		<tag k="name" v="Risdalane" />
		<tag k="natural" v="valley" />
		<tag k="place" v="locality" />
		<tag k="ssr:stedsnr" v="470539" />
	</node>
	<node lat="60.17786388549607" lon="5.0986250087624265" id="-40551">
		<tag k="name" v="Usholmdalen" />
		<tag k="natural" v="valley" />
		<tag k="place" v="locality" />
		<tag k="ssr:stedsnr" v="470543" />
	</node>
	<node lat="60.23610277468543" lon="5.072211112183308" id="-40552">
		<tag k="name" v="Svehaugane" />
		<tag k="natural" v="hill" />
		<tag k="place" v="locality" />
		<tag k="ssr:stedsnr" v="470546" />
	</node>
	<node lat="60.3328388853565" lon="5.033169447592516" id="-40553">
		<tag k="name" v="Kvitefjella" />
		<tag k="natural" v="hill" />
		<tag k="place" v="locality" />
		<tag k="ssr:stedsnr" v="470550" />
	</node>
	<node lat="60.33507499919929" lon="4.969969446592127" id="-40555">
		<tag k="name" v="Gløshelleren" />
		<tag k="natural" v="hill" />
		<tag k="place" v="locality" />
		<tag k="ssr:stedsnr" v="470470" />
	</node>
	<node lat="60.329974997042505" lon="5.031247223304544" id="-40556">
		<tag k="name" v="Tårnet" />
		<tag k="natural" v="hill" />
		<tag k="place" v="locality" />
		<tag k="ssr:stedsnr" v="470558" />
	</node>
	<node lat="60.17766667121123" lon="5.071613895056553" id="-40557">
		<tag k="name" v="Sælskletten" />
		<tag k="natural" v="hill" />
		<tag k="place" v="locality" />
		<tag k="ssr:stedsnr" v="470569" />
	</node>
	<node lat="60.58316666507416" lon="4.835330557947522" id="-40559">
		<tag k="name" v="Støberget" />
		<tag k="place" v="locality" />
		<tag k="ssr:stedsnr" v="470482" />
	</node>
	<node lat="60.35417777751456" lon="5.119550004885633" id="-40562">
		<tag k="name" v="Utfallet" />
		<tag k="natural" v="hill" />
		<tag k="place" v="locality" />
		<tag k="ssr:stedsnr" v="470506" />
	</node>
	<node lat="60.28993333211454" lon="5.054102785459016" id="-40563">
		<tag k="name" v="Nålhusnakken" />
		<tag k="natural" v="hill" />
		<tag k="place" v="locality" />
		<tag k="ssr:stedsnr" v="470695" />
	</node>
	<node lat="60.247969442006585" lon="5.022622220376184" id="-40568">
		<tag k="name" v="Spildhelleren" />
		<tag k="natural" v="hill" />
		<tag k="place" v="locality" />
		<tag k="ssr:stedsnr" v="470842" />
	</node>
	<node lat="60.27363610973635" lon="5.035277774455322" id="-40569">
		<tag k="name" v="Klubben" />
		<tag k="natural" v="hill" />
		<tag k="place" v="locality" />
		<tag k="ssr:stedsnr" v="470855" />
	</node>
	<node lat="60.26231110944338" lon="5.043130561895392" id="-40571">
		<tag k="name" v="Krossadalen" />
		<tag k="natural" v="valley" />
		<tag k="place" v="locality" />
		<tag k="ssr:stedsnr" v="470875" />
	</node>
	<node lat="60.38621666265402" lon="5.033519443585015" id="-40577">
		<tag k="name" v="Slettevollen" />
		<tag k="natural" v="slope" />
		<tag k="place" v="locality" />
		<tag k="ssr:stedsnr" v="470930" />
	</node>
	<node lat="60.3756333344866" lon="5.096527771768808" id="-40580">
		<tag k="name" v="Steinfjellet" />
		<tag k="natural" v="hill" />
		<tag k="place" v="locality" />
		<tag k="ssr:stedsnr" v="470948" />
	</node>
	<node lat="60.2074111144696" lon="5.07368889620651" id="-40581">
		<tag k="name" v="Hovden" />
		<tag k="natural" v="hill" />
		<tag k="place" v="locality" />
		<tag k="ssr:stedsnr" v="470950" />
	</node>
	<node lat="60.20656389303372" lon="5.083611107824163" id="-40582">
		<tag k="name" v="Vasshaugen" />
		<tag k="natural" v="hill" />
		<tag k="place" v="locality" />
		<tag k="ssr:stedsnr" v="470952" />
	</node>
	<node lat="60.2321444478674" lon="5.0861666627952795" id="-40583">
		<tag k="name" v="Laurdalen" />
		<tag k="natural" v="valley" />
		<tag k="place" v="locality" />
		<tag k="ssr:stedsnr" v="470955" />
	</node>
	<node lat="60.56118610698579" lon="4.827480547636154" id="-40596">
		<tag k="name" v="Seta" />
		<tag k="natural" v="hill" />
		<tag k="place" v="locality" />
		<tag k="ssr:stedsnr" v="348013" />
	</node>
	<node lat="60.45378333319538" lon="4.986394437828353" id="-40598">
		<tag k="name" v="Søra Såta" />
		<tag k="natural" v="hill" />
		<tag k="place" v="locality" />
		<tag k="ssr:stedsnr" v="348022" />
	</node>
	<node lat="60.56173611049838" lon="4.813077778126256" id="-40599">
		<tag k="name" v="Husberget" />
		<tag k="natural" v="hill" />
		<tag k="place" v="locality" />
		<tag k="ssr:stedsnr" v="348025" />
	</node>
	<node lat="60.25177777693298" lon="5.085913883479308" id="-40602">
		<tag k="name" v="Snørstegen" />
		<tag k="place" v="locality" />
		<tag k="ssr:stedsnr" v="348172" />
	</node>
	<node lat="60.449280556032654" lon="4.954855561776483" id="-40604">
		<tag k="name" v="Stekkefjellet" />
		<tag k="natural" v="hill" />
		<tag k="place" v="locality" />
		<tag k="ssr:stedsnr" v="348357" />
	</node>
	<node lat="60.45844722362342" lon="4.948597230590106" id="-40605">
		<tag k="name" v="Otretjørnsbrota" />
		<tag k="natural" v="hill" />
		<tag k="place" v="locality" />
		<tag k="ssr:stedsnr" v="348367" />
	</node>
	<node lat="60.37324999672231" lon="4.987125001004429" id="-40607">
		<tag k="fixme" v="consider natural=peak for the most distinct mountains in the district" />
		<tag k="name" v="Eidesfjellet" />
		<tag k="natural" v="hill" />
		<tag k="place" v="locality" />
		<tag k="ssr:stedsnr" v="348271" />
	</node>
	<node lat="60.287583334250954" lon="5.042852776253694" id="-40614">
		<tag k="fixme" v="consider natural=peak for the most distinct mountains in the district" />
		<tag k="name" v="Storabrekka" />
		<tag k="natural" v="hill" />
		<tag k="place" v="locality" />
		<tag k="ssr:stedsnr" v="348703" />
	</node>
	<node lat="60.2902055596733" lon="5.048422229832378" id="-40615">
		<tag k="name" v="Ørnaseta" />
		<tag k="natural" v="hill" />
		<tag k="place" v="locality" />
		<tag k="ssr:stedsnr" v="348710" />
	</node>
	<node lat="60.33882777489666" lon="5.134027771085682" id="-40620">
		<tag k="name" v="Flåpyntane" />
		<tag k="natural" v="hill" />
		<tag k="place" v="locality" />
		<tag k="ssr:stedsnr" v="348763" />
	</node>
	<node lat="60.21315833280622" lon="5.007994441793527" id="-40622">
		<tag k="name" v="Sødalen" />
		<tag k="natural" v="valley" />
		<tag k="place" v="locality" />
		<tag k="ssr:stedsnr" v="348609" />
	</node>
	<node lat="60.3198166640324" lon="5.018719448430806" id="-40623">
		<tag k="name" v="Botnen" />
		<tag k="natural" v="valley" />
		<tag k="place" v="locality" />
		<tag k="ssr:stedsnr" v="348611" />
	</node>
	<node lat="60.308930556282775" lon="5.024691675045543" id="-40624">
		<tag k="name" v="Vardhaugen" />
		<tag k="natural" v="hill" />
		<tag k="place" v="locality" />
		<tag k="ssr:stedsnr" v="348615" />
	</node>
	<node lat="60.45375833586013" lon="4.982344443495108" id="-40625">
		<tag k="name" v="Vestre Kvarven" />
		<tag k="natural" v="hill" />
		<tag k="place" v="locality" />
		<tag k="ssr:stedsnr" v="348625" />
	</node>
	<node lat="60.22641666690633" lon="5.029149997377915" id="-40628">
		<tag k="name" v="Hestamaurhaugane" />
		<tag k="natural" v="hill" />
		<tag k="place" v="locality" />
		<tag k="ssr:stedsnr" v="348659" />
	</node>
	<node lat="60.2894611080612" lon="5.060091664675589" id="-40633">
		<tag k="fixme" v="consider natural=peak for the most distinct mountains in the district" />
		<tag k="name" v="Dalafjellet" />
		<tag k="natural" v="hill" />
		<tag k="place" v="locality" />
		<tag k="ssr:stedsnr" v="348678" />
	</node>
	<node lat="60.323133336172454" lon="5.170666666524173" id="-40643">
		<tag k="name" v="Såta" />
		<tag k="natural" v="hill" />
		<tag k="place" v="locality" />
		<tag k="ssr:stedsnr" v="349403" />
	</node>
	<node lat="60.32455000177744" lon="5.00786945077118" id="-40646">
		<tag k="name" v="Haugen" />
		<tag k="natural" v="hill" />
		<tag k="place" v="locality" />
		<tag k="ssr:stedsnr" v="349455" />
	</node>
	<node lat="60.3430166670209" lon="5.073858340740072" id="-40647">
		<tag k="name" v="Tredjavasstoppen" />
		<tag k="natural" v="hill" />
		<tag k="place" v="locality" />
		<tag k="ssr:stedsnr" v="349305" />
	</node>
	<node lat="60.295916668634575" lon="5.103794452244738" id="-40649">
		<tag k="fixme" v="consider natural=peak for the most distinct mountains in the district" />
		<tag k="name" v="Varden" />
		<tag k="natural" v="hill" />
		<tag k="place" v="locality" />
		<tag k="ssr:stedsnr" v="349368" />
	</node>
	<node lat="60.28703610897257" lon="5.101297218012797" id="-40650">
		<tag k="fixme" v="consider natural=peak for the most distinct mountains in the district" />
		<tag k="name" v="Otrafjellet" />
		<tag k="natural" v="hill" />
		<tag k="place" v="locality" />
		<tag k="ssr:stedsnr" v="349374" />
	</node>
	<node lat="60.669594441560605" lon="4.804372218068946" id="-40651">
		<tag k="name" v="Torvsåta" />
		<tag k="natural" v="hill" />
		<tag k="place" v="locality" />
		<tag k="ssr:stedsnr" v="349502" />
	</node>
	<node lat="60.34152777722441" lon="5.018691674119912" id="-40655">
		<tag k="name" v="Stemhaugen" />
		<tag k="natural" v="hill" />
		<tag k="place" v="locality" />
		<tag k="ssr:stedsnr" v="349615" />
	</node>
	<node lat="60.328302778221875" lon="5.01720278051752" id="-40656">
		<tag k="name" v="Strenghaugen" />
		<tag k="natural" v="hill" />
		<tag k="place" v="locality" />
		<tag k="ssr:stedsnr" v="349616" />
	</node>
	<node lat="60.27905555139894" lon="5.06412500473654" id="-40664">
		<tag k="name" v="Tårnadalen" />
		<tag k="natural" v="valley" />
		<tag k="place" v="locality" />
		<tag k="ssr:stedsnr" v="349911" />
	</node>
	<node lat="60.285275000810145" lon="5.028580550806069" id="-40681">
		<tag k="fixme" v="consider natural=peak for the most distinct mountains in the district" />
		<tag k="name" v="Storhaugen" />
		<tag k="natural" v="hill" />
		<tag k="place" v="locality" />
		<tag k="ssr:stedsnr" v="369402" />
	</node>
	<node lat="60.27415194384356" lon="5.047861464765552" id="-40685">
		<tag k="fixme" v="consider natural=peak for the most distinct mountains in the district" />
		<tag k="name" v="Rundehaugen" />
		<tag k="natural" v="hill" />
		<tag k="place" v="locality" />
		<tag k="ssr:stedsnr" v="369423" />
	</node>
	<node lat="60.38172500218134" lon="5.145502782992359" id="-40688">
		<tag k="name" v="Botlanipene" />
		<tag k="natural" v="hill" />
		<tag k="place" v="locality" />
		<tag k="ssr:stedsnr" v="369587" />
	</node>
	<node lat="60.469824997442245" lon="4.9613611157211" id="-40729">
		<tag k="name" v="Eikeskora" />
		<tag k="place" v="locality" />
		<tag k="ssr:stedsnr" v="397379" />
	</node>
	<node lat="60.55641944327567" lon="4.842250000251569" id="-40736">
		<tag k="fixme" v="consider natural=peak for the most distinct mountains in the district" />
		<tag k="name" v="Skjenaråsen" />
		<tag k="natural" v="hill" />
		<tag k="place" v="locality" />
		<tag k="ssr:stedsnr" v="409073" />
	</node>
	<node lat="60.21991111106046" lon="5.114577784352392" id="-40737">
		<tag k="name" v="Tangen" />
		<tag k="place" v="locality" />
		<tag k="ssr:stedsnr" v="409082" />
	</node>
	<node lat="60.38766110812648" lon="5.135252778244116" id="-40743">
		<tag k="name" v="Grytene" />
		<tag k="natural" v="hill" />
		<tag k="place" v="locality" />
		<tag k="ssr:stedsnr" v="409140" />
	</node>
	<node lat="60.24008888861259" lon="5.223655564446405" id="-40744">
		<tag k="name" v="Havnastølen" />
		<tag k="place" v="locality" />
		<tag k="ssr:stedsnr" v="409200" />
	</node>
	<node lat="60.41597777403816" lon="4.9663972252828925" id="-40749">
		<tag k="name" v="Fjellnuten" />
		<tag k="natural" v="hill" />
		<tag k="place" v="locality" />
		<tag k="ssr:stedsnr" v="409328" />
	</node>
	<node lat="60.38520555344618" lon="4.993844450858462" id="-40750">
		<tag k="name" v="Dalaskjenet" />
		<tag k="natural" v="hill" />
		<tag k="place" v="locality" />
		<tag k="ssr:stedsnr" v="409291" />
	</node>
	<node lat="60.380975000297504" lon="4.989350001045923" id="-40751">
		<tag k="name" v="Svehaugen" />
		<tag k="natural" v="hill" />
		<tag k="place" v="locality" />
		<tag k="ssr:stedsnr" v="409293" />
	</node>
	<node lat="60.35596388628594" lon="4.953194441728436" id="-40753">
		<tag k="name" v="Jonsokhaugen" />
		<tag k="natural" v="hill" />
		<tag k="place" v="locality" />
		<tag k="ssr:stedsnr" v="409407" />
	</node>
	<node lat="60.30281940851445" lon="5.044858800800721" id="-40761">
		<tag k="name" v="Stegafjellet" />
		<tag k="natural" v="hill" />
		<tag k="place" v="locality" />
		<tag k="ssr:stedsnr" v="409616" />
	</node>
	<node lat="60.21244444673353" lon="5.028372223148571" id="-40762">
		<tag k="name" v="Langedalen" />
		<tag k="natural" v="valley" />
		<tag k="place" v="locality" />
		<tag k="ssr:stedsnr" v="409554" />
	</node>
	<node lat="60.35831388601771" lon="5.046563887161722" id="-40768">
		<tag k="name" v="Stølshaugen" />
		<tag k="natural" v="hill" />
		<tag k="place" v="locality" />
		<tag k="ssr:stedsnr" v="409743" />
	</node>
	<node lat="60.59163610743896" lon="4.805649992947303" id="-40774">
		<tag k="name" v="Ruskelia" />
		<tag k="natural" v="slope" />
		<tag k="place" v="locality" />
		<tag k="ssr:stedsnr" v="410209" />
	</node>
	<node lat="60.299624997354954" lon="5.095202776822797" id="-40778">
		<tag k="fixme" v="consider natural=peak for the most distinct mountains in the district" />
		<tag k="name" v="Skorafjellet" />
		<tag k="natural" v="hill" />
		<tag k="place" v="locality" />
		<tag k="ssr:stedsnr" v="410321" />
	</node>
	<node lat="60.31341666684273" lon="5.129183338379277" id="-40779">
		<tag k="name" v="Snikhaugen" />
		<tag k="natural" v="hill" />
		<tag k="place" v="locality" />
		<tag k="ssr:stedsnr" v="410341" />
	</node>
	<node lat="60.35259444052774" lon="5.052822216066128" id="-40781">
		<tag k="name" v="Rundehaugen" />
		<tag k="natural" v="hill" />
		<tag k="place" v="locality" />
		<tag k="ssr:stedsnr" v="410746" />
	</node>
	<node lat="60.40145833736584" lon="5.0419083375569995" id="-40786">
		<tag k="name" v="Teinhaugen" />
		<tag k="natural" v="hill" />
		<tag k="place" v="locality" />
		<tag k="ssr:stedsnr" v="410635" />
	</node>
	<node lat="60.269902774015435" lon="5.022063893128719" id="-40787">
		<tag k="name" v="Gamlasveda" />
		<tag k="natural" v="hill" />
		<tag k="place" v="locality" />
		<tag k="ssr:stedsnr" v="410838" />
	</node>
	<node lat="60.38600555395583" lon="5.017808332139073" id="-40790">
		<tag k="name" v="Lynghaugen" />
		<tag k="natural" v="hill" />
		<tag k="place" v="locality" />
		<tag k="ssr:stedsnr" v="410906" />
	</node>
	<node lat="60.29066388503869" lon="5.072219438105024" id="-40812">
		<tag k="fixme" v="consider natural=peak for the most distinct mountains in the district" />
		<tag k="name" v="Høgevarden" />
		<tag k="natural" v="hill" />
		<tag k="place" v="locality" />
		<tag k="ssr:stedsnr" v="490416" />
	</node>
	<node lat="60.27686666964315" lon="5.061299992920355" id="-40813">
		<tag k="fixme" v="consider natural=peak for the most distinct mountains in the district" />
		<tag k="name" v="Tibben" />
		<tag k="natural" v="hill" />
		<tag k="place" v="locality" />
		<tag k="ssr:stedsnr" v="490423" />
	</node>
	<node lat="60.23336666874917" lon="5.095108330152673" id="-40824">
		<tag k="fixme" v="consider natural=peak for the most distinct mountains in the district" />
		<tag k="name" v="Brakafjellet" />
		<tag k="natural" v="hill" />
		<tag k="place" v="locality" />
		<tag k="ssr:stedsnr" v="429672" />
	</node>
	<node lat="60.28050000064135" lon="5.064152777968654" id="-40840">
		<tag k="fixme" v="consider natural=peak for the most distinct mountains in the district" />
		<tag k="name" v="Stortårnet" />
		<tag k="natural" v="hill" />
		<tag k="place" v="locality" />
		<tag k="ssr:stedsnr" v="430426" />
	</node>
	<node lat="60.33996110938473" lon="5.038302774181458" id="-40848">
		<tag k="name" v="Sperrhaugen" />
		<tag k="natural" v="hill" />
		<tag k="place" v="locality" />
		<tag k="ssr:stedsnr" v="491253" />
	</node>
	<node lat="60.33016548213776" lon="4.96433099736405" id="-40850">
		<tag k="fixme" v="consider natural=peak for the most distinct mountains in the district" />
		<tag k="name" v="Storafjellet" />
		<tag k="natural" v="hill" />
		<tag k="place" v="locality" />
		<tag k="ssr:stedsnr" v="491267" />
	</node>
	<node lat="60.369624998037985" lon="5.042413887248884" id="-40924">
		<tag k="fixme" v="consider natural=peak for the most distinct mountains in the district" />
		<tag k="name" v="Knappskogfjellet" />
		<tag k="natural" v="hill" />
		<tag k="place" v="locality" />
		<tag k="ssr:stedsnr" v="673378" />
	</node>
	<node lat="60.16971944549385" lon="5.039311105106884" id="-40953">
		<tag k="name" v="Ørnahaugen" />
		<tag k="natural" v="hill" />
		<tag k="place" v="locality" />
		<tag k="ssr:stedsnr" v="469705" />
	</node>
	<node lat="60.38953888900637" lon="5.140791673018721" id="-40957">
		<tag k="name" v="Grønanipa" />
		<tag k="natural" v="hill" />
		<tag k="place" v="locality" />
		<tag k="ssr:stedsnr" v="470002" />
	</node>
	<node lat="60.39912499937386" lon="4.990330562342503" id="-40961">
		<tag k="name" v="Valderhaugane" />
		<tag k="natural" v="hill" />
		<tag k="place" v="locality" />
		<tag k="ssr:stedsnr" v="470413" />
	</node>
	<node lat="60.435180558066335" lon="4.9685555525103515" id="-40965">
		<tag k="name" v="Søre Helleren" />
		<tag k="place" v="locality" />
		<tag k="ssr:stedsnr" v="470316" />
	</node>
	<node lat="60.31328611296551" lon="5.168069443129834" id="-40966">
		<tag k="fixme" v="consider natural=peak for the most distinct mountains in the district" />
		<tag k="name" v="Langafjellet" />
		<tag k="natural" v="hill" />
		<tag k="place" v="locality" />
		<tag k="ssr:stedsnr" v="470302" />
	</node>
	<node lat="60.43720277784425" lon="4.970294436731275" id="-40967">
		<tag k="name" v="Nordre Helleren" />
		<tag k="place" v="locality" />
		<tag k="ssr:stedsnr" v="470319" />
	</node>
	<node lat="60.30025555267468" lon="5.117275005597254" id="-40968">
		<tag k="name" v="Råsabrekka" />
		<tag k="natural" v="slope" />
		<tag k="place" v="locality" />
		<tag k="ssr:stedsnr" v="470305" />
	</node>
	<node lat="60.28773333285135" lon="5.081861115914295" id="-40970">
		<tag k="name" v="Slettene" />
		<tag k="place" v="locality" />
		<tag k="ssr:stedsnr" v="470307" />
	</node>
	<node lat="60.36548333318965" lon="4.994563888526404" id="-40973">
		<tag k="name" v="Inste Skotavarden" />
		<tag k="natural" v="hill" />
		<tag k="place" v="locality" />
		<tag k="ssr:stedsnr" v="470382" />
	</node>
	<node lat="60.36184166857942" lon="5.070158330309425" id="-40974">
		<tag k="name" v="Nordre Steinhaugen" />
		<tag k="natural" v="hill" />
		<tag k="place" v="locality" />
		<tag k="ssr:stedsnr" v="470522" />
	</node>
	<node lat="60.361100004739924" lon="5.067355563472098" id="-40975">
		<tag k="name" v="Steinhaugen" />
		<tag k="natural" v="hill" />
		<tag k="place" v="locality" />
		<tag k="ssr:stedsnr" v="470524" />
	</node>
	<node lat="60.3991944411736" lon="5.032730562694091" id="-40977">
		<tag k="name" v="Tomashaugen" />
		<tag k="natural" v="hill" />
		<tag k="place" v="locality" />
		<tag k="ssr:stedsnr" v="470618" />
	</node>
	<node lat="60.315816662365826" lon="5.109958337021119" id="-40979">
		<tag k="name" v="Brendhelleren" />
		<tag k="natural" v="hill" />
		<tag k="place" v="locality" />
		<tag k="ssr:stedsnr" v="470669" />
	</node>
	<node lat="60.24949444200274" lon="4.989588892748178" id="-40986">
		<tag k="name" v="Håvarden" />
		<tag k="natural" v="hill" />
		<tag k="place" v="locality" />
		<tag k="ssr:stedsnr" v="470826" />
	</node>
	<node lat="60.33254444790427" lon="5.041186117794583" id="-40987">
		<tag k="name" v="Røyshaugen" />
		<tag k="natural" v="hill" />
		<tag k="place" v="locality" />
		<tag k="ssr:stedsnr" v="470563" />
	</node>
	<node lat="60.285638886524204" lon="5.040799994880711" id="-40988">
		<tag k="fixme" v="consider natural=peak for the most distinct mountains in the district" />
		<tag k="name" v="Grønåsen" />
		<tag k="natural" v="hill" />
		<tag k="place" v="locality" />
		<tag k="ssr:stedsnr" v="470711" />
	</node>
	<node lat="60.29941666537255" lon="5.04418055196445" id="-40989">
		<tag k="name" v="Grindaberghaugen" />
		<tag k="natural" v="hill" />
		<tag k="place" v="locality" />
		<tag k="ssr:stedsnr" v="470713" />
	</node>
	<node lat="60.28346389026601" lon="5.039552778866078" id="-40990">
		<tag k="name" v="Skogaleitet" />
		<tag k="natural" v="hill" />
		<tag k="place" v="locality" />
		<tag k="ssr:stedsnr" v="470716" />
	</node>
	<node lat="60.281669443981684" lon="5.038658338096276" id="-40991">
		<tag k="name" v="Lyngstallen" />
		<tag k="natural" v="hill" />
		<tag k="place" v="locality" />
		<tag k="ssr:stedsnr" v="470717" />
	</node>
	<node lat="60.50788055434581" lon="4.905122214658565" id="-40993">
		<tag k="name" v="Navrestøhøyen" />
		<tag k="natural" v="hill" />
		<tag k="place" v="locality" />
		<tag k="ssr:stedsnr" v="470767" />
	</node>
	<node lat="60.63050555301603" lon="4.813674999701677" id="-40999">
		<tag k="name" v="Storhaugen" />
		<tag k="natural" v="hill" />
		<tag k="place" v="locality" />
		<tag k="ssr:stedsnr" v="470860" />
	</node>
	<node lat="60.224116670037475" lon="4.991552769303971" id="-41008">
		<tag k="name" v="Luten" />
		<tag k="natural" v="hill" />
		<tag k="place" v="locality" />
		<tag k="ssr:stedsnr" v="489589" />
	</node>
	<node lat="60.28644166934099" lon="5.1190999961089325" id="-41021">
		<tag k="fixme" v="consider natural=peak for the most distinct mountains in the district" />
		<tag k="name" v="Haganesfjellet" />
		<tag k="natural" v="hill" />
		<tag k="place" v="locality" />
		<tag k="ssr:stedsnr" v="490830" />
	</node>
	<node lat="60.27925277332622" lon="5.1026777748094885" id="-41022">
		<tag k="fixme" v="consider natural=peak for the most distinct mountains in the district" />
		<tag k="name" v="Langedalsfjellet" />
		<tag k="natural" v="hill" />
		<tag k="place" v="locality" />
		<tag k="ssr:stedsnr" v="490831" />
	</node>
	<node lat="60.25018611094574" lon="5.073225001141009" id="-41029">
		<tag k="name" v="Kletten" />
		<tag k="natural" v="hill" />
		<tag k="place" v="locality" />
		<tag k="ssr:stedsnr" v="491502" />
	</node>
	<node lat="60.2642861085827" lon="5.068677783511084" id="-41034">
		<tag k="name" v="Hammarslandshaugen" />
		<tag k="natural" v="hill" />
		<tag k="place" v="locality" />
		<tag k="ssr:stedsnr" v="491491" />
	</node>
	<node lat="60.292688885070895" lon="5.131200006646128" id="-41061">
		<tag k="fixme" v="consider natural=peak for the most distinct mountains in the district" />
		<tag k="name" v="Larsafjellet" />
		<tag k="natural" v="hill" />
		<tag k="place" v="locality" />
		<tag k="ssr:stedsnr" v="530007" />
	</node>
	<node lat="60.454527781438664" lon="4.913419449470491" id="-41062">
		<tag k="name" v="Tuskeluren" />
		<tag k="natural" v="hill" />
		<tag k="place" v="locality" />
		<tag k="ssr:stedsnr" v="530024" />
	</node>
	<node lat="60.24599722263137" lon="5.123263883414359" id="-41067">
		<tag k="name" v="Blågjerddalen" />
		<tag k="natural" v="valley" />
		<tag k="place" v="locality" />
		<tag k="ssr:stedsnr" v="530204" />
	</node>
	<node lat="60.244269443312305" lon="5.1240805582212685" id="-41068">
		<tag k="name" v="Setramoen" />
		<tag k="place" v="locality" />
		<tag k="ssr:stedsnr" v="530210" />
	</node>
	<node lat="60.27068055733354" lon="5.0829888969856665" id="-41069">
		<tag k="fixme" v="consider natural=peak for the most distinct mountains in the district" />
		<tag k="name" v="Storafjellet" />
		<tag k="natural" v="hill" />
		<tag k="place" v="locality" />
		<tag k="ssr:stedsnr" v="530221" />
	</node>
	<node lat="60.22746666336675" lon="5.082125001061795" id="-41072">
		<tag k="name" v="Svartaberget" />
		<tag k="natural" v="hill" />
		<tag k="place" v="locality" />
		<tag k="ssr:stedsnr" v="530571" />
	</node>
	<node lat="60.23162777670436" lon="5.0997500084714735" id="-41073">
		<tag k="name" v="Skiftesvarden" />
		<tag k="natural" v="hill" />
		<tag k="place" v="locality" />
		<tag k="ssr:stedsnr" v="530575" />
	</node>
	<node lat="60.19273888747421" lon="5.094552781085289" id="-41074">
		<tag k="name" v="Storaberget" />
		<tag k="natural" v="hill" />
		<tag k="place" v="locality" />
		<tag k="ssr:stedsnr" v="530593" />
	</node>
	<node lat="60.30161388748459" lon="5.020849992115566" id="-41075">
		<tag k="name" v="Husavarden" />
		<tag k="natural" v="hill" />
		<tag k="place" v="locality" />
		<tag k="ssr:stedsnr" v="530717" />
	</node>
	<node lat="60.23036111219573" lon="5.0666083368500345" id="-41079">
		<tag k="name" v="Grøndalen" />
		<tag k="natural" v="valley" />
		<tag k="place" v="locality" />
		<tag k="ssr:stedsnr" v="530694" />
	</node>
	<node lat="60.2920361108284" lon="5.014163890064403" id="-41080">
		<tag k="name" v="Knappen" />
		<tag k="natural" v="hill" />
		<tag k="place" v="locality" />
		<tag k="ssr:stedsnr" v="530697" />
	</node>
	<node lat="60.28486110867589" lon="5.06108611730845" id="-41081">
		<tag k="name" v="Ærhaugane" />
		<tag k="natural" v="hill" />
		<tag k="place" v="locality" />
		<tag k="ssr:stedsnr" v="530698" />
	</node>
	<node lat="60.29249722500756" lon="5.116041664769095" id="-41091">
		<tag k="fixme" v="consider natural=peak for the most distinct mountains in the district" />
		<tag k="name" v="Kattafjellet" />
		<tag k="natural" v="hill" />
		<tag k="place" v="locality" />
		<tag k="ssr:stedsnr" v="531332" />
	</node>
	<node lat="60.31998611290436" lon="5.1608805534311175" id="-41092">
		<tag k="name" v="Ørnadalen" />
		<tag k="natural" v="valley" />
		<tag k="place" v="locality" />
		<tag k="ssr:stedsnr" v="531343" />
	</node>
	<node lat="60.33728333536988" lon="4.979933324295658" id="-41094">
		<tag k="name" v="Stonga" />
		<tag k="natural" v="hill" />
		<tag k="place" v="locality" />
		<tag k="ssr:stedsnr" v="531506" />
	</node>
	<node lat="60.33038611003237" lon="5.040336105508938" id="-41096">
		<tag k="name" v="Varden" />
		<tag k="natural" v="hill" />
		<tag k="place" v="locality" />
		<tag k="ssr:stedsnr" v="531603" />
	</node>
	<node lat="60.334163885139525" lon="5.0793749930195204" id="-41097">
		<tag k="name" v="Øykjabotnen" />
		<tag k="natural" v="valley" />
		<tag k="place" v="locality" />
		<tag k="ssr:stedsnr" v="531623" />
	</node>
	<node lat="60.23285555757198" lon="4.996216669216345" id="-41098">
		<tag k="name" v="Øvste Luten" />
		<tag k="natural" v="hill" />
		<tag k="place" v="locality" />
		<tag k="ssr:stedsnr" v="531677" />
	</node>
	<node lat="60.25501388948105" lon="5.01984166550296" id="-41102">
		<tag k="name" v="Heistadklubben" />
		<tag k="natural" v="hill" />
		<tag k="place" v="locality" />
		<tag k="ssr:stedsnr" v="531853" />
	</node>
	<node lat="60.352608333337876" lon="5.081597214670861" id="-41103">
		<tag k="name" v="Espedalen" />
		<tag k="natural" v="valley" />
		<tag k="place" v="locality" />
		<tag k="ssr:stedsnr" v="531571" />
	</node>
	<node lat="60.27018889335891" lon="5.0457027775172945" id="-41107">
		<tag k="fixme" v="consider natural=peak for the most distinct mountains in the district" />
		<tag k="name" v="Eikelifjellet" />
		<tag k="natural" v="hill" />
		<tag k="place" v="locality" />
		<tag k="ssr:stedsnr" v="531872" />
	</node>
	<node lat="60.23613611449961" lon="5.129094448744527" id="-41109">
		<tag k="fixme" v="consider natural=peak for the most distinct mountains in the district" />
		<tag k="name" v="Preståsen" />
		<tag k="natural" v="hill" />
		<tag k="place" v="locality" />
		<tag k="ssr:stedsnr" v="531974" />
	</node>
	<node lat="60.20778611329821" lon="5.160397220341949" id="-41110">
		<tag k="name" v="Eidet" />
		<tag k="place" v="locality" />
		<tag k="ssr:stedsnr" v="531990" />
	</node>
	<node lat="60.37252778176949" lon="5.012236105190494" id="-41130">
		<tag k="fixme" v="consider natural=peak for the most distinct mountains in the district" />
		<tag k="name" v="Sauafjellet" />
		<tag k="natural" v="hill" />
		<tag k="place" v="locality" />
		<tag k="ssr:stedsnr" v="551350" />
	</node>
	<node lat="60.37673888600736" lon="4.977252787044891" id="-41131">
		<tag k="name" v="Kuhaugen" />
		<tag k="natural" v="hill" />
		<tag k="place" v="locality" />
		<tag k="ssr:stedsnr" v="551359" />
	</node>
	<node lat="60.30681944739122" lon="4.984455561347082" id="-41170">
		<tag k="name" v="Storhaugen" />
		<tag k="natural" v="hill" />
		<tag k="place" v="locality" />
		<tag k="ssr:stedsnr" v="692052" />
	</node>
	<node lat="60.62064999968913" lon="4.827211105268163" id="-41190">
		<tag k="name" v="Sjonarhøyen" />
		<tag k="natural" v="hill" />
		<tag k="place" v="locality" />
		<tag k="ssr:stedsnr" v="570568" />
	</node>
	<node lat="60.427230556171125" lon="4.965063896216849" id="-41201">
		<tag k="name" v="Avløpet" />
		<tag k="place" v="locality" />
		<tag k="ssr:stedsnr" v="571900" />
	</node>
	<node lat="60.24790277315474" lon="5.079677771781534" id="-41207">
		<tag k="name" v="Kuhaugen" />
		<tag k="natural" v="hill" />
		<tag k="place" v="locality" />
		<tag k="ssr:stedsnr" v="590207" />
	</node>
	<node lat="60.31512499656417" lon="5.16692778264153" id="-41227">
		<tag k="name" v="Bekkjarvikdalen" />
		<tag k="natural" v="valley" />
		<tag k="place" v="locality" />
		<tag k="ssr:stedsnr" v="591302" />
	</node>
	<node lat="60.310847221258854" lon="5.17685833394663" id="-41228">
		<tag k="name" v="Stokkhaugen" />
		<tag k="natural" v="hill" />
		<tag k="place" v="locality" />
		<tag k="ssr:stedsnr" v="591304" />
	</node>
	<node lat="60.38410277698686" lon="4.9696611153098535" id="-41231">
		<tag k="name" v="Langedalen" />
		<tag k="natural" v="valley" />
		<tag k="place" v="locality" />
		<tag k="ssr:stedsnr" v="591270" />
	</node>
	<node lat="60.190163893116924" lon="5.111044451577659" id="-41237">
		<tag k="name" v="Storhaugen" />
		<tag k="natural" v="hill" />
		<tag k="place" v="locality" />
		<tag k="ssr:stedsnr" v="591522" />
	</node>
	<node lat="60.328299999931325" lon="5.1136333325734356" id="-41239">
		<tag k="name" v="Varden" />
		<tag k="natural" v="hill" />
		<tag k="place" v="locality" />
		<tag k="ssr:stedsnr" v="591560" />
	</node>
	<node lat="60.392663889049615" lon="5.052374999068361" id="-41240">
		<tag k="name" v="Areknappen" />
		<tag k="natural" v="hill" />
		<tag k="place" v="locality" />
		<tag k="ssr:stedsnr" v="591605" />
	</node>
	<node lat="60.31618610942793" lon="5.021175005234386" id="-41241">
		<tag k="name" v="Skjenet" />
		<tag k="natural" v="hill" />
		<tag k="place" v="locality" />
		<tag k="ssr:stedsnr" v="591607" />
	</node>
	<node lat="60.31508889183605" lon="5.0558611095198644" id="-41242">
		<tag k="name" v="Høghaugdalen" />
		<tag k="natural" v="valley" />
		<tag k="place" v="locality" />
		<tag k="ssr:stedsnr" v="591616" />
	</node>
	<node lat="60.32366944445933" lon="5.058119451974354" id="-41243">
		<tag k="name" v="Søre Åsen" />
		<tag k="natural" v="hill" />
		<tag k="place" v="locality" />
		<tag k="ssr:stedsnr" v="591621" />
	</node>
	<node lat="60.277544442145455" lon="4.993424998604505" id="-41247">
		<tag k="name" v="Heiane" />
		<tag k="natural" v="hill" />
		<tag k="place" v="locality" />
		<tag k="ssr:stedsnr" v="591809" />
	</node>
	<node lat="60.25850555316525" lon="5.006422226288356" id="-41248">
		<tag k="name" v="Steinakletten" />
		<tag k="natural" v="hill" />
		<tag k="place" v="locality" />
		<tag k="ssr:stedsnr" v="591816" />
	</node>
	<node lat="60.254058334504236" lon="4.978327783554538" id="-41249">
		<tag k="name" v="Tælaburet" />
		<tag k="natural" v="hill" />
		<tag k="place" v="locality" />
		<tag k="ssr:stedsnr" v="591819" />
	</node>
	<node lat="60.339058328887624" lon="5.14580555160893" id="-41250">
		<tag k="fixme" v="consider natural=peak for the most distinct mountains in the district" />
		<tag k="name" v="Midtfjellet" />
		<tag k="natural" v="hill" />
		<tag k="place" v="locality" />
		<tag k="ssr:stedsnr" v="591764" />
	</node>
	<node lat="60.298083329839336" lon="5.132027769826524" id="-41252">
		<tag k="name" v="Jonsokhaugen" />
		<tag k="natural" v="hill" />
		<tag k="place" v="locality" />
		<tag k="ssr:stedsnr" v="591772" />
	</node>
	<node lat="60.37813610736061" lon="5.09096666424322" id="-41255">
		<tag k="name" v="Storfjellet" />
		<tag k="natural" v="hill" />
		<tag k="place" v="locality" />
		<tag k="ssr:stedsnr" v="591953" />
	</node>
	<node lat="60.37782499706925" lon="5.093586115723535" id="-41256">
		<tag k="name" v="Beinhaugen" />
		<tag k="natural" v="hill" />
		<tag k="place" v="locality" />
		<tag k="ssr:stedsnr" v="591959" />
	</node>
	<node lat="60.22766944625271" lon="5.115544443972679" id="-41260">
		<tag k="name" v="Grasdalen" />
		<tag k="natural" v="valley" />
		<tag k="place" v="locality" />
		<tag k="ssr:stedsnr" v="592966" />
	</node>
	<node lat="60.48883055141333" lon="4.957180548433247" id="-41264">
		<tag k="name" v="Anekletten" />
		<tag k="natural" v="hill" />
		<tag k="place" v="locality" />
		<tag k="ssr:stedsnr" v="611218" />
	</node>
	<node lat="60.27185000149967" lon="5.018969447238076" id="-41284">
		<tag k="name" v="Stordalen" />
		<tag k="natural" v="valley" />
		<tag k="place" v="locality" />
		<tag k="ssr:stedsnr" v="612511" />
	</node>
	<node lat="60.477116666154416" lon="4.947552780433114" id="-41311">
		<tag k="name" v="Dalekletten" />
		<tag k="natural" v="hill" />
		<tag k="place" v="locality" />
		<tag k="ssr:stedsnr" v="631882" />
	</node>
	<node lat="60.44379444377026" lon="4.991102769709156" id="-41312">
		<tag k="name" v="Bukkhelleren" />
		<tag k="natural" v="slope" />
		<tag k="place" v="locality" />
		<tag k="ssr:stedsnr" v="631910" />
	</node>
	<node lat="60.43426944544212" lon="4.96833888513602" id="-41314">
		<tag k="name" v="Knutshaugen" />
		<tag k="natural" v="hill" />
		<tag k="place" v="locality" />
		<tag k="ssr:stedsnr" v="632908" />
	</node>
	<node lat="60.35138610762273" lon="4.944313885232816" id="-41319">
		<tag k="name" v="Måshaugana" />
		<tag k="natural" v="hill" />
		<tag k="place" v="locality" />
		<tag k="ssr:stedsnr" v="651090" />
	</node>
	<node lat="60.35276111530569" lon="4.943805547912911" id="-41321">
		<tag k="name" v="Urhaugen" />
		<tag k="natural" v="hill" />
		<tag k="place" v="locality" />
		<tag k="ssr:stedsnr" v="651099" />
	</node>
	<node lat="60.25784166868716" lon="5.112152778084603" id="-41323">
		<tag k="name" v="Stemhaugen" />
		<tag k="natural" v="hill" />
		<tag k="place" v="locality" />
		<tag k="ssr:stedsnr" v="651190" />
	</node>
	<node lat="60.238652777629" lon="5.120872216164784" id="-41324">
		<tag k="name" v="Skaret" />
		<tag k="natural" v="valley" />
		<tag k="place" v="locality" />
		<tag k="ssr:stedsnr" v="651194" />
	</node>
	<node lat="60.27258074390411" lon="5.07794412663378" id="-41325">
		<tag k="loc_name" v="Klumpenhaugen" />
		<tag k="name" v="Klumpelhaugen" />
		<tag k="natural" v="hill" />
		<tag k="place" v="locality" />
		<tag k="ssr:stedsnr" v="651201" />
	</node>
	<node lat="60.22800833247149" lon="5.003099992259369" id="-41330">
		<tag k="name" v="Lynghaugen" />
		<tag k="natural" v="hill" />
		<tag k="place" v="locality" />
		<tag k="ssr:stedsnr" v="651638" />
	</node>
	<node lat="60.321627781687894" lon="5.026552777580193" id="-41331">
		<tag k="name" v="Revhellerhaugen" />
		<tag k="natural" v="hill" />
		<tag k="place" v="locality" />
		<tag k="ssr:stedsnr" v="651639" />
	</node>
	<node lat="60.192716666212405" lon="5.029713880185397" id="-41332">
		<tag k="name" v="Risaklubben" />
		<tag k="natural" v="hill" />
		<tag k="place" v="locality" />
		<tag k="ssr:stedsnr" v="651640" />
	</node>
	<node lat="60.18159722618357" lon="5.051105558643533" id="-41333">
		<tag k="name" v="Båtabakkane" />
		<tag k="natural" v="slope" />
		<tag k="place" v="locality" />
		<tag k="ssr:stedsnr" v="651538" />
	</node>
	<node lat="60.21320833465367" lon="5.119488895367657" id="-41339">
		<tag k="name" v="Gombestegen" />
		<tag k="natural" v="hill" />
		<tag k="place" v="locality" />
		<tag k="ssr:stedsnr" v="651950" />
	</node>
	<node lat="60.455233329188246" lon="4.9811555608324944" id="-41346">
		<tag k="name" v="Tjuvaskora" />
		<tag k="place" v="locality" />
		<tag k="ssr:stedsnr" v="652207" />
	</node>
	<node lat="60.41730277628343" lon="4.962038891454803" id="-41350">
		<tag k="name" v="Skjerhaugen" />
		<tag k="natural" v="hill" />
		<tag k="place" v="locality" />
		<tag k="ssr:stedsnr" v="652293" />
	</node>
	<node lat="60.322069442682746" lon="5.134238896082836" id="-41351">
		<tag k="name" v="Haugana" />
		<tag k="natural" v="hill" />
		<tag k="place" v="locality" />
		<tag k="ssr:stedsnr" v="652299" />
	</node>
	<node lat="60.396041670369556" lon="4.974200000354763" id="-41352">
		<tag k="name" v="Såtene" />
		<tag k="natural" v="hill" />
		<tag k="place" v="locality" />
		<tag k="ssr:stedsnr" v="652416" />
	</node>
	<node lat="60.29467499760301" lon="5.119874992752551" id="-41355">
		<tag k="name" v="Risdalen" />
		<tag k="natural" v="valley" />
		<tag k="place" v="locality" />
		<tag k="ssr:stedsnr" v="652304" />
	</node>
	<node lat="60.360538890993375" lon="5.0001138891654735" id="-41358">
		<tag k="name" v="Søra Såta" />
		<tag k="natural" v="hill" />
		<tag k="place" v="locality" />
		<tag k="ssr:stedsnr" v="652384" />
	</node>
	<node lat="60.33484999560636" lon="5.011474998516658" id="-41364">
		<tag k="name" v="Huldafjellet" />
		<tag k="natural" v="hill" />
		<tag k="place" v="locality" />
		<tag k="ssr:stedsnr" v="652558" />
	</node>
	<node lat="60.33461388974681" lon="5.122402781469176" id="-41365">
		<tag k="name" v="Kobbhaugen" />
		<tag k="natural" v="hill" />
		<tag k="place" v="locality" />
		<tag k="ssr:stedsnr" v="652584" />
	</node>
	<node lat="60.32713888783252" lon="5.0630250080405235" id="-41366">
		<tag k="name" v="Langhaugen" />
		<tag k="natural" v="hill" />
		<tag k="place" v="locality" />
		<tag k="ssr:stedsnr" v="652586" />
	</node>
	<node lat="60.63625277953172" lon="4.829680549639517" id="-41374">
		<tag k="fixme" v="consider natural=peak for the most distinct mountains in the district" />
		<tag k="name" v="Høgevarden" />
		<tag k="natural" v="hill" />
		<tag k="place" v="locality" />
		<tag k="ssr:stedsnr" v="652839" />
	</node>
	<node lat="60.27936944014605" lon="5.017880550137618" id="-41377">
		<tag k="name" v="Svarthelleren" />
		<tag k="natural" v="hill" />
		<tag k="place" v="locality" />
		<tag k="ssr:stedsnr" v="652844" />
	</node>
	<node lat="60.38345277892078" lon="5.012649999480355" id="-41380">
		<tag k="name" v="Vakenhaugen" />
		<tag k="natural" v="hill" />
		<tag k="place" v="locality" />
		<tag k="ssr:stedsnr" v="652894" />
	</node>
	<node lat="60.269963886916486" lon="4.957019445547901" id="-41386">
		<tag k="name" v="Skotene" />
		<tag k="natural" v="hill" />
		<tag k="place" v="locality" />
		<tag k="ssr:stedsnr" v="652938" />
	</node>
	<node lat="60.2620472233388" lon="5.116255554745659" id="-41428">
		<tag k="name" v="Høghaugen" />
		<tag k="natural" v="hill" />
		<tag k="place" v="locality" />
		<tag k="ssr:stedsnr" v="894206" />
	</node>
	<node lat="60.40831389355218" lon="4.965619451177744" id="-41437">
		<tag k="name" v="Koparhaugen" />
		<tag k="natural" v="hill" />
		<tag k="place" v="locality" />
		<tag k="ssr:stedsnr" v="895428" />
	</node>
	<node lat="60.19863055368303" lon="5.091986108319934" id="-41443">
		<tag k="name" v="Lauvåsen" />
		<tag k="place" v="locality" />
		<tag k="ssr:stedsnr" v="895056" />
	</node>
	<node lat="60.63821388703534" lon="4.805502779862641" id="-41450">
		<tag k="name" v="Skomakaren" />
		<tag k="natural" v="hill" />
		<tag k="place" v="locality" />
		<tag k="ssr:stedsnr" v="895163" />
	</node>
	<node lat="60.64902778053307" lon="4.786330557031446" id="-41455">
		<tag k="name" v="Glyvra" />
		<tag k="place" v="locality" />
		<tag k="ssr:stedsnr" v="895172" />
	</node>
	<node lat="60.60391110814287" lon="4.81974721613279" id="-41458">
		<tag k="fixme" v="consider natural=peak for the most distinct mountains in the district" />
		<tag k="name" v="Pordalsfjellet" />
		<tag k="natural" v="hill" />
		<tag k="place" v="locality" />
		<tag k="ssr:stedsnr" v="895180" />
	</node>
	<node lat="60.22127499657192" lon="4.999186105456297" id="-41459">
		<tag k="name" v="Kokkelursdalen" />
		<tag k="natural" v="valley" />
		<tag k="place" v="locality" />
		<tag k="ssr:stedsnr" v="895181" />
	</node>
	<node lat="60.4285416640117" lon="5.002283327918692" id="-41466">
		<tag k="name" v="Vardhaugen" />
		<tag k="natural" v="hill" />
		<tag k="place" v="locality" />
		<tag k="ssr:stedsnr" v="895246" />
	</node>
	<node lat="60.38194722048756" lon="4.974461112581447" id="-41468">
		<tag k="name" v="Langedalshaugen" />
		<tag k="natural" v="hill" />
		<tag k="place" v="locality" />
		<tag k="ssr:stedsnr" v="895251" />
	</node>
	<node lat="60.38036110786073" lon="4.971177782924463" id="-41470">
		<tag k="name" v="Buskevikhaugen" />
		<tag k="natural" v="hill" />
		<tag k="place" v="locality" />
		<tag k="ssr:stedsnr" v="895253" />
	</node>
	<node lat="60.44878333461517" lon="4.910319439392387" id="-41473">
		<tag k="name" v="Oterholhaugen" />
		<tag k="natural" v="hill" />
		<tag k="place" v="locality" />
		<tag k="ssr:stedsnr" v="895269" />
	</node>
	<node lat="60.53655555276571" lon="4.890166662016632" id="-41480">
		<tag k="fixme" v="consider natural=peak for the most distinct mountains in the district" />
		<tag k="name" v="Gongstøåsen" />
		<tag k="natural" v="hill" />
		<tag k="place" v="locality" />
		<tag k="ssr:stedsnr" v="895351" />
	</node>
	<node lat="60.33781389051108" lon="5.075755552112682" id="-41482">
		<tag k="name" v="Storsteinen" />
		<tag k="natural" v="hill" />
		<tag k="place" v="locality" />
		<tag k="ssr:stedsnr" v="895541" />
	</node>
	<node lat="60.329508335318806" lon="5.0999722157632315" id="-41483">
		<tag k="name" v="Skitnafenet" />
		<tag k="natural" v="hill" />
		<tag k="place" v="locality" />
		<tag k="ssr:stedsnr" v="895546" />
	</node>
	<node lat="60.32533055204531" lon="5.119274994494576" id="-41484">
		<tag k="name" v="Åsen" />
		<tag k="natural" v="hill" />
		<tag k="place" v="locality" />
		<tag k="ssr:stedsnr" v="895551" />
	</node>
	<node lat="60.398016665292275" lon="5.031072221552213" id="-41492">
		<tag k="name" v="Austre Trollhaugen" />
		<tag k="natural" v="hill" />
		<tag k="place" v="locality" />
		<tag k="ssr:stedsnr" v="895577" />
	</node>
	<node lat="60.32496389116243" lon="5.110100002565796" id="-41493">
		<tag k="name" v="Dumpehaugen" />
		<tag k="natural" v="hill" />
		<tag k="place" v="locality" />
		<tag k="ssr:stedsnr" v="895553" />
	</node>
	<node lat="60.36156388522644" lon="5.154966674378439" id="-41494">
		<tag k="name" v="Løhaugen" />
		<tag k="natural" v="hill" />
		<tag k="place" v="locality" />
		<tag k="ssr:stedsnr" v="895974" />
	</node>
	<node lat="60.350627776909775" lon="5.147736119342611" id="-41495">
		<tag k="name" v="Skogadalen" />
		<tag k="natural" v="valley" />
		<tag k="place" v="locality" />
		<tag k="ssr:stedsnr" v="895977" />
	</node>
	<node lat="60.356516662807714" lon="5.036519440614003" id="-41498">
		<tag k="name" v="Langedalen" />
		<tag k="natural" v="valley" />
		<tag k="place" v="locality" />
		<tag k="ssr:stedsnr" v="895503" />
	</node>
	<node lat="60.31722777450905" lon="5.119977786996243" id="-41500">
		<tag k="name" v="Stykkhaugen" />
		<tag k="natural" v="hill" />
		<tag k="place" v="locality" />
		<tag k="ssr:stedsnr" v="895640" />
	</node>
	<node lat="60.30851666256865" lon="5.116163889458064" id="-41501">
		<tag k="name" v="Franskmannen" />
		<tag k="place" v="locality" />
		<tag k="ssr:stedsnr" v="895654" />
	</node>
	<node lat="60.31744999958941" lon="5.075655557218319" id="-41502">
		<tag k="name" v="Krossleitet" />
		<tag k="natural" v="hill" />
		<tag k="place" v="locality" />
		<tag k="ssr:stedsnr" v="895655" />
	</node>
	<node lat="60.40319722521532" lon="5.0276861038557685" id="-41505">
		<tag k="name" v="Kleivadalen" />
		<tag k="natural" v="valley" />
		<tag k="place" v="locality" />
		<tag k="ssr:stedsnr" v="895583" />
	</node>
	<node lat="60.31378055663288" lon="5.054086113565574" id="-41506">
		<tag k="name" v="Austre Høghaugen" />
		<tag k="natural" v="hill" />
		<tag k="place" v="locality" />
		<tag k="ssr:stedsnr" v="895606" />
	</node>
	<node lat="60.27562500033217" lon="5.10621111253133" id="-41516">
		<tag k="name" v="Grasgjelhaugen" />
		<tag k="natural" v="hill" />
		<tag k="place" v="locality" />
		<tag k="ssr:stedsnr" v="895855" />
	</node>
	<node lat="60.20458611288062" lon="5.108597227512225" id="-41519">
		<tag k="name" v="Storevarden" />
		<tag k="natural" v="hill" />
		<tag k="place" v="locality" />
		<tag k="ssr:stedsnr" v="895940" />
	</node>
	<node lat="60.235702777122796" lon="5.086897229037648" id="-41521">
		<tag k="name" v="Vollane" />
		<tag k="natural" v="hill" />
		<tag k="place" v="locality" />
		<tag k="ssr:stedsnr" v="895954" />
	</node>
	<node lat="60.52115555726977" lon="4.859875005171406" id="-41527">
		<tag k="alt_name" v="Rambogen" />
		<tag k="name" v="Ramboghøyen" />
		<tag k="natural" v="hill" />
		<tag k="place" v="locality" />
		<tag k="ssr:stedsnr" v="712090" />
	</node>
	<node lat="60.374561107200776" lon="5.153588896036607" id="-41530">
		<tag k="name" v="Skjendalen" />
		<tag k="natural" v="valley" />
		<tag k="place" v="locality" />
		<tag k="ssr:stedsnr" v="712107" />
	</node>
	<node lat="60.2585944439573" lon="5.076086103791581" id="-41535">
		<tag k="fixme" v="consider natural=peak for the most distinct mountains in the district" />
		<tag k="name" v="Steinafjellet" />
		<tag k="natural" v="hill" />
		<tag k="place" v="locality" />
		<tag k="ssr:stedsnr" v="712174" />
	</node>
	<node lat="60.41608333042537" lon="4.964577778079041" id="-41536">
		<tag k="name" v="Sørdalen" />
		<tag k="natural" v="valley" />
		<tag k="place" v="locality" />
		<tag k="ssr:stedsnr" v="712309" />
	</node>
	<node lat="60.5605000013444" lon="4.824230546575652" id="-41537">
		<tag k="name" v="Tempelen" />
		<tag k="place" v="locality" />
		<tag k="ssr:stedsnr" v="712272" />
	</node>
	<node lat="60.35855277595026" lon="4.951019449254606" id="-41539">
		<tag k="name" v="Sethaugen" />
		<tag k="natural" v="hill" />
		<tag k="place" v="locality" />
		<tag k="ssr:stedsnr" v="712400" />
	</node>
	<node lat="60.309211112859515" lon="5.077986118816474" id="-41545">
		<tag k="name" v="Kolafjellet" />
		<tag k="natural" v="hill" />
		<tag k="place" v="locality" />
		<tag k="ssr:stedsnr" v="712691" />
	</node>
	<node lat="60.31204722641267" lon="5.120094436685014" id="-41546">
		<tag k="name" v="Raunebrekka" />
		<tag k="natural" v="slope" />
		<tag k="place" v="locality" />
		<tag k="ssr:stedsnr" v="712693" />
	</node>
	<node lat="60.32298610735395" lon="5.093463883830241" id="-41547">
		<tag k="name" v="Langryggen" />
		<tag k="natural" v="cliff" />
		<tag k="ssr:stedsnr" v="712694" />
	</node>
	<node lat="60.28522777566267" lon="5.006752784368806" id="-41548">
		<tag k="name" v="Storaseta" />
		<tag k="natural" v="hill" />
		<tag k="place" v="locality" />
		<tag k="ssr:stedsnr" v="712828" />
	</node>
	<node lat="60.63978055858525" lon="4.805902775699188" id="-41551">
		<tag k="name" v="Selseidet" />
		<tag k="natural" v="valley" />
		<tag k="place" v="locality" />
		<tag k="ssr:stedsnr" v="712785" />
	</node>
	<node lat="60.22124166321209" lon="5.151427785140241" id="-41556">
		<tag k="fixme" v="consider natural=peak for the most distinct mountains in the district" />
		<tag k="name" v="Grønabrekka" />
		<tag k="natural" v="hill" />
		<tag k="place" v="locality" />
		<tag k="ssr:stedsnr" v="713036" />
	</node>
	<node lat="60.65194166280856" lon="4.807919451460775" id="-41561">
		<tag k="fixme" v="consider natural=peak for the most distinct mountains in the district" />
		<tag k="name" v="Selsnipa" />
		<tag k="natural" v="hill" />
		<tag k="place" v="locality" />
		<tag k="ssr:stedsnr" v="713173" />
	</node>
	<node lat="60.24888889284223" lon="5.111055546896843" id="-41563">
		<tag k="fixme" v="consider natural=peak for the most distinct mountains in the district" />
		<tag k="name" v="Haukafjellet" />
		<tag k="natural" v="hill" />
		<tag k="place" v="locality" />
		<tag k="ssr:stedsnr" v="713183" />
	</node>
	<node lat="60.24247778206452" lon="5.135894452741394" id="-41564">
		<tag k="name" v="Rindane" />
		<tag k="place" v="locality" />
		<tag k="ssr:stedsnr" v="713193" />
	</node>
	<node lat="60.31646666639526" lon="5.131102786113802" id="-41566">
		<tag k="name" v="Storsteinen" />
		<tag k="natural" v="hill" />
		<tag k="place" v="locality" />
		<tag k="ssr:stedsnr" v="713326" />
	</node>
	<node lat="60.38771944784267" lon="4.99629722854245" id="-41567">
		<tag k="name" v="Kårtveitvarden" />
		<tag k="natural" v="hill" />
		<tag k="place" v="locality" />
		<tag k="ssr:stedsnr" v="713278" />
	</node>
	<node lat="60.3624833326001" lon="5.002211105980003" id="-41568">
		<tag k="name" v="Nordra Såta" />
		<tag k="natural" v="hill" />
		<tag k="place" v="locality" />
		<tag k="ssr:stedsnr" v="713405" />
	</node>
	<node lat="60.33436389046518" lon="5.1163249968444005" id="-41573">
		<tag k="name" v="Høghaugen" />
		<tag k="natural" v="hill" />
		<tag k="place" v="locality" />
		<tag k="ssr:stedsnr" v="713612" />
	</node>
	<node lat="60.63448889148447" lon="4.819766673580533" id="-41577">
		<tag k="name" v="Bareidet" />
		<tag k="natural" v="hill" />
		<tag k="place" v="locality" />
		<tag k="ssr:stedsnr" v="713517" />
	</node>
	<node lat="60.33290278022201" lon="5.06295833468156" id="-41578">
		<tag k="name" v="Storevarden" />
		<tag k="natural" v="hill" />
		<tag k="place" v="locality" />
		<tag k="ssr:stedsnr" v="713583" />
	</node>
	<node lat="60.46216388700578" lon="4.930411118184926" id="-41580">
		<tag k="name" v="Gjugrefethaugen" />
		<tag k="natural" v="hill" />
		<tag k="place" v="locality" />
		<tag k="ssr:stedsnr" v="713811" />
	</node>
	<node lat="60.40021666678592" lon="5.067800003179399" id="-41584">
		<tag k="name" v="Isaken" />
		<tag k="natural" v="hill" />
		<tag k="place" v="locality" />
		<tag k="ssr:stedsnr" v="713908" />
	</node>
	<node lat="60.37031111392914" lon="5.05007499181368" id="-41585">
		<tag k="name" v="Nordfjellet" />
		<tag k="natural" v="hill" />
		<tag k="place" v="locality" />
		<tag k="ssr:stedsnr" v="713909" />
	</node>
	<node lat="60.38651110934609" lon="5.050711105799467" id="-41587">
		<tag k="name" v="Grønaseta" />
		<tag k="natural" v="hill" />
		<tag k="place" v="locality" />
		<tag k="ssr:stedsnr" v="713915" />
	</node>
	<node lat="60.38720278205503" lon="5.012016661828865" id="-41588">
		<tag k="name" v="Urafjellet" />
		<tag k="natural" v="hill" />
		<tag k="place" v="locality" />
		<tag k="ssr:stedsnr" v="713917" />
	</node>
	<node lat="60.23740278046837" lon="5.2090666674534525" id="-41592">
		<tag k="name" v="Varden" />
		<tag k="natural" v="hill" />
		<tag k="place" v="locality" />
		<tag k="ssr:stedsnr" v="713993" />
	</node>
	<node lat="60.22560278226761" lon="5.089725000413612" id="-41597">
		<tag k="name" v="Vorlandstua" />
		<tag k="natural" v="hill" />
		<tag k="place" v="locality" />
		<tag k="ssr:stedsnr" v="732719" />
	</node>
	<node lat="60.1727250011552" lon="5.063777778087939" id="-41610">
		<tag k="fixme" v="consider natural=peak for the most distinct mountains in the district" />
		<tag k="name" v="Sælsfjellet" />
		<tag k="natural" v="hill" />
		<tag k="place" v="locality" />
		<tag k="ssr:stedsnr" v="733693" />
	</node>
	<node lat="60.22809722219653" lon="5.107555553541433" id="-41612">
		<tag k="fixme" v="consider natural=peak for the most distinct mountains in the district" />
		<tag k="name" v="Storlåsen" />
		<tag k="natural" v="hill" />
		<tag k="place" v="locality" />
		<tag k="ssr:stedsnr" v="733813" />
	</node>
	<node lat="60.28283610711656" lon="5.119547226075792" id="-41614">
		<tag k="name" v="Alteret" />
		<tag k="natural" v="hill" />
		<tag k="place" v="locality" />
		<tag k="ssr:stedsnr" v="733797" />
	</node>
	<node lat="60.41905277870842" lon="4.980491674309669" id="-41616">
		<tag k="fixme" v="consider natural=peak for the most distinct mountains in the district" />
		<tag k="name" v="Harpefjellet" />
		<tag k="natural" v="hill" />
		<tag k="place" v="locality" />
		<tag k="ssr:stedsnr" v="734206" />
	</node>
	<node lat="60.29334167051362" lon="4.970286106104662" id="-41652">
		<tag k="name" v="Kavlane" />
		<tag k="place" v="locality" />
		<tag k="ssr:stedsnr" v="228855" />
	</node>
	<node lat="60.24296944634509" lon="5.041666660570954" id="-41653">
		<tag k="name" v="Blokkebærhaugen" />
		<tag k="natural" v="hill" />
		<tag k="place" v="locality" />
		<tag k="ssr:stedsnr" v="228866" />
	</node>
	<node lat="60.48702778205706" lon="4.939597227118954" id="-41654">
		<tag k="name" v="Gjerdhella" />
		<tag k="place" v="locality" />
		<tag k="ssr:stedsnr" v="228867" />
	</node>
	<node lat="60.24765833016873" lon="5.058427787181967" id="-41655">
		<tag k="name" v="Kyrkjehaugen" />
		<tag k="natural" v="hill" />
		<tag k="place" v="locality" />
		<tag k="ssr:stedsnr" v="228870" />
	</node>
	<node lat="60.196911109315025" lon="5.063063888104275" id="-41663">
		<tag k="name" v="Hagastølen" />
		<tag k="natural" v="hill" />
		<tag k="place" v="locality" />
		<tag k="ssr:stedsnr" v="753102" />
	</node>
	<node lat="60.363691667401476" lon="5.161927781697229" id="-41675">
		<tag k="name" v="Torghaugane" />
		<tag k="natural" v="hill" />
		<tag k="place" v="locality" />
		<tag k="ssr:stedsnr" v="773013" />
	</node>
	<node lat="60.21190277370526" lon="5.073644451726738" id="-41677">
		<tag k="name" v="Seilberget" />
		<tag k="place" v="locality" />
		<tag k="ssr:stedsnr" v="773075" />
	</node>
	<node lat="60.37834166571283" lon="5.13086110797888" id="-41680">
		<tag k="fixme" v="consider natural=peak for the most distinct mountains in the district" />
		<tag k="name" v="Ørnnipa" />
		<tag k="natural" v="hill" />
		<tag k="place" v="locality" />
		<tag k="ssr:stedsnr" v="773123" />
	</node>
	<node lat="60.24680278097852" lon="5.093047214424405" id="-41684">
		<tag k="name" v="Kjerringastegen" />
		<tag k="place" v="locality" />
		<tag k="ssr:stedsnr" v="773191" />
	</node>
	<node lat="60.25511389123088" lon="5.128316663218969" id="-41685">
		<tag k="name" v="Helleskaget" />
		<tag k="natural" v="hill" />
		<tag k="place" v="locality" />
		<tag k="ssr:stedsnr" v="773194" />
	</node>
	<node lat="60.193602779186655" lon="5.122463894067906" id="-41687">
		<tag k="name" v="Mannen" />
		<tag k="natural" v="hill" />
		<tag k="place" v="locality" />
		<tag k="ssr:stedsnr" v="773518" />
	</node>
	<node lat="60.234680551620414" lon="5.077349995990602" id="-41688">
		<tag k="name" v="Storhaugen" />
		<tag k="natural" v="hill" />
		<tag k="place" v="locality" />
		<tag k="ssr:stedsnr" v="773522" />
	</node>
	<node lat="60.22689444702238" lon="5.073874999691393" id="-41689">
		<tag k="name" v="Vollane" />
		<tag k="natural" v="hill" />
		<tag k="place" v="locality" />
		<tag k="ssr:stedsnr" v="773526" />
	</node>
	<node lat="60.30675555104663" lon="5.023852772407973" id="-41691">
		<tag k="name" v="Straudalen" />
		<tag k="natural" v="valley" />
		<tag k="place" v="locality" />
		<tag k="ssr:stedsnr" v="773611" />
	</node>
	<node lat="60.34348611074632" lon="5.147763886046349" id="-41692">
		<tag k="name" v="Hårnipa" />
		<tag k="natural" v="hill" />
		<tag k="place" v="locality" />
		<tag k="ssr:stedsnr" v="773764" />
	</node>
	<node lat="60.29694722110456" lon="5.128774999948775" id="-41693">
		<tag k="name" v="Brakelhaugen" />
		<tag k="natural" v="hill" />
		<tag k="place" v="locality" />
		<tag k="ssr:stedsnr" v="773770" />
	</node>
	<node lat="60.201191670381185" lon="5.1136027842858995" id="-41694">
		<tag k="name" v="Kleppadalen" />
		<tag k="natural" v="valley" />
		<tag k="place" v="locality" />
		<tag k="ssr:stedsnr" v="773959" />
	</node>
	<node lat="60.206088892648076" lon="5.113219436158175" id="-41695">
		<tag k="name" v="Vetadalen" />
		<tag k="natural" v="valley" />
		<tag k="place" v="locality" />
		<tag k="ssr:stedsnr" v="773962" />
	</node>
	<node lat="60.19994444821091" lon="5.1028333335443365" id="-41696">
		<tag k="fixme" v="consider natural=peak for the most distinct mountains in the district" />
		<tag k="name" v="Lamhusfjellet" />
		<tag k="natural" v="hill" />
		<tag k="place" v="locality" />
		<tag k="ssr:stedsnr" v="773965" />
	</node>
	<node lat="60.36956666336573" lon="5.027122230522305" id="-41697">
		<tag k="name" v="Fjæreidfjellet" />
		<tag k="natural" v="hill" />
		<tag k="place" v="locality" />
		<tag k="ssr:stedsnr" v="773876" />
	</node>
	<node lat="60.330391671062806" lon="5.011719446515401" id="-41707">
		<tag k="name" v="Litlesignalen" />
		<tag k="natural" v="hill" />
		<tag k="place" v="locality" />
		<tag k="ssr:stedsnr" v="774610" />
	</node>
	<node lat="60.36163888541237" lon="5.015566670694002" id="-41711">
		<tag k="name" v="Slåttefjellet" />
		<tag k="natural" v="hill" />
		<tag k="place" v="locality" />
		<tag k="ssr:stedsnr" v="774755" />
	</node>
	<node lat="60.36310833763921" lon="5.008925002611316" id="-41712">
		<tag k="name" v="Grønakvilet" />
		<tag k="natural" v="hill" />
		<tag k="place" v="locality" />
		<tag k="ssr:stedsnr" v="774756" />
	</node>
	<node lat="60.205024999369705" lon="5.081549995610363" id="-41716">
		<tag k="name" v="Gjeldshaugen" />
		<tag k="natural" v="hill" />
		<tag k="place" v="locality" />
		<tag k="ssr:stedsnr" v="774959" />
	</node>
	<node lat="60.252202774517414" lon="5.014194437696677" id="-41717">
		<tag k="name" v="Småstegane" />
		<tag k="natural" v="hill" />
		<tag k="place" v="locality" />
		<tag k="ssr:stedsnr" v="774853" />
	</node>
	<node lat="60.403522221331066" lon="5.0398972280294565" id="-41728">
		<tag k="name" v="Knappane" />
		<tag k="natural" v="hill" />
		<tag k="place" v="locality" />
		<tag k="ssr:stedsnr" v="794309" />
	</node>
	<node lat="60.501863891073334" lon="4.921394442645454" id="-41742">
		<tag k="fixme" v="consider natural=peak for the most distinct mountains in the district" />
		<tag k="name" v="Storevarden" />
		<tag k="natural" v="hill" />
		<tag k="place" v="locality" />
		<tag k="ssr:stedsnr" v="795705" />
	</node>
	<node lat="60.303433334292976" lon="5.10429444082636" id="-41757">
		<tag k="fixme" v="consider natural=peak for the most distinct mountains in the district" />
		<tag k="name" v="Høgafjellet" />
		<tag k="natural" v="hill" />
		<tag k="place" v="locality" />
		<tag k="ssr:stedsnr" v="915871" />
	</node>
</osm>
