<?xml version="1.0" encoding="UTF-8"?>
<osm version="0.6" generator="osmapis">
	<node lat="60.240519446597276" lon="4.983616659077781" id="-36797">
		<tag k="name" v="Broka" />
		<tag k="natural" v="bay" />
		<tag k="ssr:stedsnr" v="4542" />
	</node>
	<node lat="60.24223333570028" lon="5.2000250070641325" id="-36799">
		<tag k="name" v="Bukken" />
		<tag k="place" v="island" />
		<tag k="ssr:stedsnr" v="4676" />
	</node>
	<node lat="60.21589166462595" lon="4.99362499620521" id="-36802">
		<tag k="fixme" v="consider seamark:type=rock or natural=shoal" />
		<tag k="name" v="Voggeskjeret" />
		<tag k="place" v="islet" />
		<tag k="ssr:stedsnr" v="4703" />
	</node>
	<node lat="60.216999997463105" lon="5.02088055123623" id="-36803">
		<tag k="name" v="Ådnavika" />
		<tag k="natural" v="bay" />
		<tag k="ssr:stedsnr" v="4706" />
	</node>
	<node lat="60.48983888522386" lon="4.8317777819174355" id="-36804">
		<tag k="name" v="Greipingen" />
		<tag k="place" v="islet" />
		<tag k="ssr:stedsnr" v="5213" />
	</node>
	<node lat="60.49371666737472" lon="4.825247220470075" id="-36805">
		<tag k="name" v="Trollflua" />
		<tag k="natural" v="shoal" />
		<tag k="place" v="locality" />
		<tag k="ssr:stedsnr" v="5214" />
	</node>
	<node lat="60.45366389325182" lon="4.9350611117254735" id="-36806">
		<tag k="name" v="Inste Myrbærholmen" />
		<tag k="place" v="islet" />
		<tag k="ssr:stedsnr" v="5123" />
	</node>
	<node lat="60.43408611192215" lon="4.923394437430509" id="-36807">
		<tag k="name" v="Raunøyna" />
		<tag k="old_name" v="Raunøyna, store;Stora Raunøyna" />
		<tag k="place" v="islet" />
		<tag k="ssr:stedsnr" v="5161" />
	</node>
	<node lat="60.42147500171931" lon="4.874002786130093" id="-36809">
		<tag k="name" v="Svartskjergrunnane" />
		<tag k="natural" v="shoal" />
		<tag k="place" v="locality" />
		<tag k="ssr:stedsnr" v="5174" />
	</node>
	<node lat="60.31820555249749" lon="4.881605549584261" id="-36812">
		<tag k="name" v="Torvaldnakken" />
		<tag k="natural" v="shoal" />
		<tag k="place" v="locality" />
		<tag k="ssr:stedsnr" v="5258" />
	</node>
	<node lat="60.25159166858159" lon="5.219680564030337" id="-36816">
		<tag k="name" v="Litlakinna" />
		<tag k="place" v="islet" />
		<tag k="ssr:stedsnr" v="5857" />
	</node>
	<node lat="60.63126110886855" lon="4.876630552387822" id="-36817">
		<tag k="name" v="Stureskallen" />
		<tag k="natural" v="shoal" />
		<tag k="place" v="locality" />
		<tag k="ssr:stedsnr" v="6606" />
	</node>
	<node lat="60.604227778570745" lon="4.744500008900494" id="-36819">
		<tag k="name" v="Måjøyfluene" />
		<tag k="natural" v="shoal" />
		<tag k="place" v="locality" />
		<tag k="ssr:stedsnr" v="6616" />
	</node>
	<node lat="60.64359999840363" lon="4.789361116033781" id="-36820">
		<tag k="name" v="Skjåholmen" />
		<tag k="place" v="islet" />
		<tag k="ssr:stedsnr" v="6595" />
	</node>
	<node lat="60.50371388467711" lon="4.899686107093987" id="-36821">
		<tag k="name" v="Rongosen" />
		<tag k="natural" v="strait" />
		<tag k="ssr:stedsnr" v="6704" />
	</node>
	<node lat="60.529802780644914" lon="4.851408331096446" id="-36822">
		<tag k="name" v="Husholmen" />
		<tag k="place" v="islet" />
		<tag k="ssr:stedsnr" v="6720" />
	</node>
	<node lat="60.68989166249456" lon="4.698183341687602" id="-36823">
		<tag k="name" v="Søra Oddeflua" />
		<tag k="natural" v="shoal" />
		<tag k="place" v="locality" />
		<tag k="ssr:stedsnr" v="6892" />
	</node>
	<node lat="60.725211114507175" lon="4.702944435772479" id="-36828">
		<tag k="name" v="Bårøyna" />
		<tag k="place" v="islet" />
		<tag k="ssr:stedsnr" v="24241" />
	</node>
	<node lat="60.6670305552175" lon="4.81670000135839" id="-36829">
		<tag k="name" v="Kjeflua" />
		<tag k="natural" v="shoal" />
		<tag k="place" v="locality" />
		<tag k="ssr:stedsnr" v="24708" />
	</node>
	<node lat="60.66057499591518" lon="4.706097227525143" id="-36830">
		<tag k="name" v="Svartbakåsen" />
		<tag k="natural" v="shoal" />
		<tag k="place" v="locality" />
		<tag k="ssr:stedsnr" v="24713" />
	</node>
	<node lat="60.17602499651184" lon="5.116816659106079" id="-36831">
		<tag k="name" v="Grunnaflua" />
		<tag k="natural" v="shoal" />
		<tag k="place" v="locality" />
		<tag k="ssr:stedsnr" v="25127" />
	</node>
	<node lat="60.4334750001656" lon="4.962597217717256" id="-36832">
		<tag k="name" v="Utfallet" />
		<tag k="natural" v="bay" />
		<tag k="ssr:stedsnr" v="25189" />
	</node>
	<node lat="60.264913890171194" lon="5.114127785247147" id="-36833">
		<tag k="name" v="Hopen" />
		<tag k="natural" v="bay" />
		<tag k="ssr:stedsnr" v="25307" />
	</node>
	<node lat="60.24824444276915" lon="4.953277770575548" id="-36834">
		<tag k="name" v="Sængen" />
		<tag k="place" v="islet" />
		<tag k="ssr:stedsnr" v="25312" />
	</node>
	<node lat="60.223372224234076" lon="5.019549991031883" id="-36835">
		<tag k="name" v="Midthølen" />
		<tag k="natural" v="bay" />
		<tag k="ssr:stedsnr" v="25290" />
	</node>
	<node lat="60.47489166356418" lon="4.925936113014386" id="-36837">
		<tag k="fixme" v="consider seamark:type=rock or natural=shoal" />
		<tag k="name" v="Klubbeskjera" />
		<tag k="place" v="islet" />
		<tag k="ssr:stedsnr" v="25923" />
	</node>
	<node lat="60.31374444881846" lon="4.974761109237709" id="-36838">
		<tag k="name" v="Vestra Oksavika" />
		<tag k="natural" v="bay" />
		<tag k="ssr:stedsnr" v="39112" />
	</node>
	<node lat="60.7163888885884" lon="4.720022222661206" id="-36839">
		<tag k="name" v="Vågane" />
		<tag k="natural" v="bay" />
		<tag k="ssr:stedsnr" v="44103" />
	</node>
	<node lat="60.51410468205846" lon="4.844981866733802" id="-36840">
		<tag k="fixme" v="consider seamark:type=rock or natural=shoal" />
		<tag k="name" v="Hjelteskjeret" />
		<tag k="place" v="islet" />
		<tag k="ssr:stedsnr" v="44073" />
	</node>
	<node lat="60.180138884785045" lon="5.01943334157064" id="-36841">
		<tag k="fixme" v="consider seamark:type=rock or natural=shoal" />
		<tag k="name" v="Flatøyskjeret" />
		<tag k="place" v="islet" />
		<tag k="ssr:stedsnr" v="44580" />
	</node>
	<node lat="60.17398611270079" lon="5.002108340140352" id="-36842">
		<tag k="name" v="Litla Vardøysundet" />
		<tag k="natural" v="strait" />
		<tag k="ssr:stedsnr" v="44676" />
	</node>
	<node lat="60.44693055672414" lon="4.907152776644973" id="-36849">
		<tag k="name" v="Trosavika" />
		<tag k="natural" v="bay" />
		<tag k="ssr:stedsnr" v="45304" />
	</node>
	<node lat="60.56743332949459" lon="4.797977777749242" id="-36850">
		<tag k="name" v="Rossøysundet" />
		<tag k="natural" v="strait" />
		<tag k="ssr:stedsnr" v="45306" />
	</node>
	<node lat="60.38636666235314" lon="5.05834444145501" id="-36852">
		<tag k="name" v="Buvika" />
		<tag k="natural" v="bay" />
		<tag k="ssr:stedsnr" v="45271" />
	</node>
	<node lat="60.3923611110668" lon="5.0443694506817796" id="-36860">
		<tag k="name" v="Spjeldssundet" />
		<tag k="natural" v="strait" />
		<tag k="ssr:stedsnr" v="45582" />
	</node>
	<node lat="60.379063884624" lon="4.927741660886454" id="-36865">
		<tag k="name" v="Nordra Lambøyna" />
		<tag k="place" v="island" />
		<tag k="ssr:stedsnr" v="45470" />
	</node>
	<node lat="60.37865278178966" lon="4.933222228896599" id="-36866">
		<tag k="name" v="Skotakylleren" />
		<tag k="natural" v="strait" />
		<tag k="ssr:stedsnr" v="45471" />
	</node>
	<node lat="60.456474998615754" lon="4.911058330661465" id="-36867">
		<tag k="name" v="Laksneset" />
		<tag k="natural" v="cape" />
		<tag k="ssr:stedsnr" v="45611" />
	</node>
	<node lat="60.455077780101824" lon="4.993305556240474" id="-36868">
		<tag k="name" v="Hero" />
		<tag k="place" v="islet" />
		<tag k="ssr:stedsnr" v="45626" />
	</node>
	<node lat="60.30352222144491" lon="5.062258339650977" id="-36869">
		<tag k="name" v="Bjørnavågen" />
		<tag k="natural" v="bay" />
		<tag k="ssr:stedsnr" v="45673" />
	</node>
	<node lat="60.66926666765279" lon="4.770758327329981" id="-36871">
		<tag k="fixme" v="consider seamark:type=rock or natural=shoal" />
		<tag k="name" v="Søra Trælevikskjeret" />
		<tag k="place" v="islet" />
		<tag k="ssr:stedsnr" v="45822" />
	</node>
	<node lat="60.46954383359848" lon="4.927262105845107" id="-36872">
		<tag k="name" v="Laksholmen" />
		<tag k="place" v="islet" />
		<tag k="ssr:stedsnr" v="45827" />
	</node>
	<node lat="60.42859722313154" lon="5.017024992927563" id="-36875">
		<tag k="name" v="Gaupesundet" />
		<tag k="natural" v="strait" />
		<tag k="ssr:stedsnr" v="45949" />
	</node>
	<node lat="60.31740833428307" lon="5.189944442632766" id="-36876">
		<tag k="name" v="Skiparvika" />
		<tag k="natural" v="bay" />
		<tag k="ssr:stedsnr" v="45955" />
	</node>
	<node lat="60.50872499722672" lon="4.8806694502777885" id="-36877">
		<tag k="name" v="Kvernepollen" />
		<tag k="natural" v="bay" />
		<tag k="ssr:stedsnr" v="45973" />
	</node>
	<node lat="60.3534972254228" lon="5.157913897435126" id="-36879">
		<tag k="name" v="Hestvika" />
		<tag k="natural" v="bay" />
		<tag k="ssr:stedsnr" v="45983" />
	</node>
	<node lat="60.40328702372913" lon="5.107301266258706" id="-36881">
		<tag k="name" v="Bollholmen" />
		<tag k="place" v="islet" />
		<tag k="ssr:stedsnr" v="45875" />
	</node>
	<node lat="60.606588889501595" lon="4.76742776875239" id="-36882">
		<tag k="name" v="Skjoldøyna" />
		<tag k="place" v="island" />
		<tag k="ssr:stedsnr" v="46208" />
	</node>
	<node lat="60.640572226217145" lon="4.766319444533769" id="-36883">
		<tag k="fixme" v="consider seamark:type=rock or natural=shoal" />
		<tag k="name" v="Stora Svartaskjeret" />
		<tag k="place" v="islet" />
		<tag k="ssr:stedsnr" v="46180" />
	</node>
	<node lat="60.20976666312222" lon="5.156794439700955" id="-36891">
		<tag k="name" v="Apalvika" />
		<tag k="natural" v="bay" />
		<tag k="ssr:stedsnr" v="46919" />
	</node>
	<node lat="60.175338885132376" lon="5.084913893467311" id="-36892">
		<tag k="name" v="Kobbavika" />
		<tag k="natural" v="bay" />
		<tag k="ssr:stedsnr" v="46979" />
	</node>
	<node lat="60.197749999192666" lon="5.073183336530564" id="-36894">
		<tag k="name" v="Rottholet" />
		<tag k="natural" v="bay" />
		<tag k="ssr:stedsnr" v="46989" />
	</node>
	<node lat="60.15959722460569" lon="5.016305560620242" id="-36898">
		<tag k="fixme" v="consider seamark:type=rock or natural=shoal" />
		<tag k="name" v="Seiskjeret" />
		<tag k="place" v="islet" />
		<tag k="ssr:stedsnr" v="65755" />
	</node>
	<node lat="60.16611111253795" lon="4.997747221561806" id="-36899">
		<tag k="name" v="Litla Fugløyna" />
		<tag k="place" v="island" />
		<tag k="ssr:stedsnr" v="65759" />
	</node>
	<node lat="60.43354166602528" lon="4.928536103623343" id="-36900">
		<tag k="name" v="Litla-Raunøyna" />
		<tag k="place" v="islet" />
		<tag k="ssr:stedsnr" v="66150" />
	</node>
	<node lat="60.43097778115818" lon="4.983874991756804" id="-36901">
		<tag k="name" v="Uglepollen" />
		<tag k="natural" v="bay" />
		<tag k="ssr:stedsnr" v="66153" />
	</node>
	<node lat="60.42124493501074" lon="4.881814167000738" id="-36902">
		<tag k="name" v="Svartskjerosen" />
		<tag k="natural" v="strait" />
		<tag k="ssr:stedsnr" v="66161" />
	</node>
	<node lat="60.417633332965046" lon="4.9158750062103955" id="-36903">
		<tag k="name" v="Risøyna" />
		<tag k="place" v="islet" />
		<tag k="ssr:stedsnr" v="66167" />
	</node>
	<node lat="60.49925555868904" lon="4.9028416738475125" id="-36904">
		<tag k="name" v="Geitarøyna" />
		<tag k="place" v="islet" />
		<tag k="ssr:stedsnr" v="66200" />
	</node>
	<node lat="60.31216110974128" lon="4.952575008153099" id="-36905">
		<tag k="name" v="Stora Narøyna" />
		<tag k="place" v="island" />
		<tag k="ssr:stedsnr" v="66307" />
	</node>
	<node lat="60.328816669033785" lon="4.991083330957807" id="-36906">
		<tag k="name" v="Veløyna" />
		<tag k="place" v="islet" />
		<tag k="ssr:stedsnr" v="66312" />
	</node>
	<node lat="60.38188333397656" lon="4.909838893828279" id="-36907">
		<tag k="fixme" v="consider seamark:type=rock or natural=shoal" />
		<tag k="name" v="Raudskjeret" />
		<tag k="place" v="islet" />
		<tag k="ssr:stedsnr" v="66317" />
	</node>
	<node lat="60.39507778169425" lon="4.913144442375631" id="-36908">
		<tag k="name" v="Ljøsålen" />
		<tag k="natural" v="bay" />
		<tag k="ssr:stedsnr" v="66324" />
	</node>
	<node lat="60.35939999637178" lon="4.921538891896338" id="-36909">
		<tag k="name" v="Tjørnøyna" />
		<tag k="place" v="islet" />
		<tag k="ssr:stedsnr" v="66348" />
	</node>
	<node lat="60.48912500292221" lon="4.927519448259918" id="-36912">
		<tag k="name" v="Bjørnøyna" />
		<tag k="place" v="islet" />
		<tag k="ssr:stedsnr" v="66206" />
	</node>
	<node lat="60.49702499598722" lon="4.897361117620788" id="-36913">
		<tag k="name" v="Børsosen" />
		<tag k="natural" v="strait" />
		<tag k="ssr:stedsnr" v="66210" />
	</node>
	<node lat="60.48868888746813" lon="4.882399995639666" id="-36914">
		<tag k="fixme" v="consider seamark:type=rock or natural=shoal" />
		<tag k="name" v="Frøskjeret" />
		<tag k="place" v="islet" />
		<tag k="ssr:stedsnr" v="66212" />
	</node>
	<node lat="60.47428611563906" lon="4.886177783190659" id="-36915">
		<tag k="fixme" v="consider seamark:type=rock or natural=shoal" />
		<tag k="name" v="Navreskjeret" />
		<tag k="place" v="islet" />
		<tag k="ssr:stedsnr" v="66220" />
	</node>
	<node lat="60.333316667435085" lon="4.884263894949231" id="-36916">
		<tag k="name" v="Skimla" />
		<tag k="natural" v="shoal" />
		<tag k="place" v="locality" />
		<tag k="ssr:stedsnr" v="66247" />
	</node>
	<node lat="60.331225001996415" lon="4.89911111634434" id="-36917">
		<tag k="name" v="Løno" />
		<tag k="place" v="island" />
		<tag k="ssr:stedsnr" v="66248" />
	</node>
	<node lat="60.40368617838537" lon="5.093634828174247" id="-36919">
		<tag k="name" v="Store Brattholmen" />
		<tag k="place" v="islet" />
		<tag k="ssr:stedsnr" v="66562" />
	</node>
	<node lat="60.36284166978594" lon="5.097705547606827" id="-36920">
		<tag k="name" v="Bildøytangen" />
		<tag k="natural" v="cape" />
		<tag k="ssr:stedsnr" v="66716" />
	</node>
	<node lat="60.334991664755094" lon="5.189408336832097" id="-36922">
		<tag k="bay" v="fjord" />
		<tag k="name" v="Vatlestraumen" />
		<tag k="natural" v="bay" />
		<tag k="ssr:stedsnr" v="66798" />
	</node>
	<node lat="60.63639166818529" lon="4.84015278130819" id="-36923">
		<tag k="name" v="Ukseflua" />
		<tag k="natural" v="shoal" />
		<tag k="place" v="locality" />
		<tag k="ssr:stedsnr" v="67594" />
	</node>
	<node lat="60.50100000003957" lon="4.9410638874170285" id="-36924">
		<tag k="name" v="Toftholmane" />
		<tag k="place" v="islet" />
		<tag k="ssr:stedsnr" v="67705" />
	</node>
	<node lat="60.51959999900564" lon="4.847975003173939" id="-36925">
		<tag k="name" v="Gudmundsskjeret" />
		<tag k="place" v="islet" />
		<tag k="ssr:stedsnr" v="67723" />
	</node>
	<node lat="60.51571666728221" lon="4.916080560445808" id="-36926">
		<tag k="name" v="Ternholmen" />
		<tag k="place" v="islet" />
		<tag k="ssr:stedsnr" v="67750" />
	</node>
	<node lat="60.17815833479695" lon="5.08245554767667" id="-36931">
		<tag k="name" v="Breivika" />
		<tag k="natural" v="bay" />
		<tag k="ssr:stedsnr" v="85102" />
	</node>
	<node lat="60.22056667061734" lon="5.1957444354086935" id="-36932">
		<tag k="name" v="Mebunesflua" />
		<tag k="natural" v="shoal" />
		<tag k="place" v="locality" />
		<tag k="ssr:stedsnr" v="85130" />
	</node>
	<node lat="60.22155833315815" lon="5.183341668078525" id="-36933">
		<tag k="fixme" v="consider seamark:type=rock or natural=shoal" />
		<tag k="name" v="Kaggariskjeret" />
		<tag k="place" v="islet" />
		<tag k="ssr:stedsnr" v="85132" />
	</node>
	<node lat="60.489477776850094" lon="4.82534165854074" id="-36934">
		<tag k="fixme" v="consider seamark:type=rock or natural=shoal" />
		<tag k="name" v="Greipingsskjeret" />
		<tag k="place" v="islet" />
		<tag k="ssr:stedsnr" v="85306" />
	</node>
	<node lat="60.16257777532169" lon="5.060899991733447" id="-36935">
		<tag k="name" v="Litle Stongarholmen" />
		<tag k="place" v="islet" />
		<tag k="ssr:stedsnr" v="85085" />
	</node>
	<node lat="60.67291944020408" lon="4.783238884050855" id="-36936">
		<tag k="fixme" v="consider seamark:type=rock or natural=shoal" />
		<tag k="name" v="Søra Skreiskjeret" />
		<tag k="place" v="islet" />
		<tag k="ssr:stedsnr" v="85224" />
	</node>
	<node lat="60.470769448024235" lon="4.923722228389251" id="-36938">
		<tag k="name" v="Stallen" />
		<tag k="natural" v="cape" />
		<tag k="ssr:stedsnr" v="85911" />
	</node>
	<node lat="60.19030555140361" lon="5.159536103605226" id="-36940">
		<tag k="fixme" v="consider seamark:type=rock or natural=shoal" />
		<tag k="name" v="Høylandsskjeret" />
		<tag k="place" v="islet" />
		<tag k="ssr:stedsnr" v="86176" />
	</node>
	<node lat="60.23857500354883" lon="5.165633332737281" id="-36941">
		<tag k="name" v="Prøvika" />
		<tag k="natural" v="bay" />
		<tag k="ssr:stedsnr" v="86178" />
	</node>
	<node lat="60.38697777757815" lon="4.9664194507342" id="-36943">
		<tag k="name" v="Skjervika" />
		<tag k="natural" v="bay" />
		<tag k="ssr:stedsnr" v="86809" />
	</node>
	<node lat="60.43066666701286" lon="4.894013892151921" id="-36944">
		<tag k="name" v="Osaflua" />
		<tag k="natural" v="shoal" />
		<tag k="place" v="locality" />
		<tag k="ssr:stedsnr" v="86823" />
	</node>
	<node lat="60.355208336118025" lon="4.9171611147519405" id="-36947">
		<tag k="fixme" v="consider seamark:type=rock or natural=shoal" />
		<tag k="name" v="Lueskjeret" />
		<tag k="place" v="islet" />
		<tag k="ssr:stedsnr" v="248336" />
	</node>
	<node lat="60.24234166862398" lon="5.224911116580562" id="-36948">
		<tag k="name" v="Kinnarosen" />
		<tag k="natural" v="strait" />
		<tag k="ssr:stedsnr" v="247651" />
	</node>
	<node lat="60.17165277949855" lon="5.080002780461692" id="-36949">
		<tag k="fixme" v="multiple name tags, choose one and add the other to alt_name" />
		<tag k="name" v="Sælsvika;Austra Sælsvika" />
		<tag k="natural" v="bay" />
		<tag k="ssr:stedsnr" v="247706" />
	</node>
	<node lat="60.174538888757056" lon="5.010394441597514" id="-36951">
		<tag k="name" v="Stora Vardøyna" />
		<tag k="place" v="island" />
		<tag k="ssr:stedsnr" v="247710" />
	</node>
	<node lat="60.19251110858806" lon="5.035963890692134" id="-36952">
		<tag k="name" v="Litla Risøyna" />
		<tag k="place" v="islet" />
		<tag k="ssr:stedsnr" v="247688" />
	</node>
	<node lat="60.18888888755185" lon="5.0729611187662345" id="-36953">
		<tag k="name" v="Timbervika" />
		<tag k="natural" v="bay" />
		<tag k="ssr:stedsnr" v="247689" />
	</node>
	<node lat="60.195408336454676" lon="5.000061111858357" id="-36955">
		<tag k="name" v="Skrotten" />
		<tag k="place" v="islet" />
		<tag k="ssr:stedsnr" v="247698" />
	</node>
	<node lat="60.16585833646796" lon="5.07995276857063" id="-36956">
		<tag k="name" v="Træsvika" />
		<tag k="natural" v="bay" />
		<tag k="ssr:stedsnr" v="247742" />
	</node>
	<node lat="60.16238333502339" lon="5.031211119484956" id="-36957">
		<tag k="name" v="Mulen" />
		<tag k="natural" v="cape" />
		<tag k="ssr:stedsnr" v="247746" />
	</node>
	<node lat="60.45828611417378" lon="4.961749999104044" id="-36960">
		<tag k="name" v="Svelgsholmen" />
		<tag k="place" v="islet" />
		<tag k="ssr:stedsnr" v="248128" />
	</node>
	<node lat="60.44664166245689" lon="4.9162833286230185" id="-36961">
		<tag k="name" v="Turøyna" />
		<tag k="place" v="island" />
		<tag k="ssr:stedsnr" v="248138" />
	</node>
	<node lat="60.45011667125368" lon="4.905891672605968" id="-36962">
		<tag k="name" v="Åkravikholmen" />
		<tag k="place" v="islet" />
		<tag k="ssr:stedsnr" v="248140" />
	</node>
	<node lat="60.47710555266796" lon="4.928533328119425" id="-36963">
		<tag k="name" v="Bollevika" />
		<tag k="natural" v="bay" />
		<tag k="ssr:stedsnr" v="248230" />
	</node>
	<node lat="60.30320277692889" lon="4.996652777714458" id="-36964">
		<tag k="name" v="Klettaflua" />
		<tag k="natural" v="shoal" />
		<tag k="place" v="locality" />
		<tag k="ssr:stedsnr" v="248271" />
	</node>
	<node lat="60.31358055863187" lon="4.923561110353966" id="-36965">
		<tag k="name" v="Kallsøyane" />
		<tag k="place" v="islet" />
		<tag k="ssr:stedsnr" v="248290" />
	</node>
	<node lat="60.32156388436909" lon="4.949269436805547" id="-36966">
		<tag k="name" v="Nordre Klauvholmen" />
		<tag k="place" v="islet" />
		<tag k="ssr:stedsnr" v="248291" />
	</node>
	<node lat="60.379363887510145" lon="4.914352779806614" id="-36967">
		<tag k="name" v="Lambflua" />
		<tag k="natural" v="shoal" />
		<tag k="place" v="locality" />
		<tag k="ssr:stedsnr" v="248301" />
	</node>
	<node lat="60.29698611556139" lon="4.934108338225152" id="-36969">
		<tag k="name" v="Ålen" />
		<tag k="natural" v="strait" />
		<tag k="ssr:stedsnr" v="248446" />
	</node>
	<node lat="60.38962500255848" lon="5.119758335208877" id="-36972">
		<tag k="name" v="Vågen" />
		<tag k="natural" v="bay" />
		<tag k="ssr:stedsnr" v="248665" />
	</node>
	<node lat="60.6043583326167" lon="4.858730560139141" id="-36973">
		<tag k="name" v="Sturemannsflua" />
		<tag k="natural" v="shoal" />
		<tag k="place" v="locality" />
		<tag k="ssr:stedsnr" v="248536" />
	</node>
	<node lat="60.313224997297766" lon="5.148858329012008" id="-36977">
		<tag k="name" v="Molltveitholmen" />
		<tag k="place" v="islet" />
		<tag k="ssr:stedsnr" v="248765" />
	</node>
	<node lat="60.26493333226263" lon="5.098325005107883" id="-36981">
		<tag k="name" v="Kvalvågen" />
		<tag k="natural" v="bay" />
		<tag k="ssr:stedsnr" v="248934" />
	</node>
	<node lat="60.508722223547764" lon="4.826113892556816" id="-36982">
		<tag k="fixme" v="consider seamark:type=rock or natural=shoal" />
		<tag k="name" v="Sængen" />
		<tag k="place" v="islet" />
		<tag k="ssr:stedsnr" v="105075" />
	</node>
	<node lat="60.71254444451713" lon="4.730911103628427" id="-36985">
		<tag k="name" v="Suleidet" />
		<tag k="place" v="locality" />
		<tag k="ssr:stedsnr" v="105109" />
	</node>
	<node lat="60.49049444843587" lon="4.8835055627848485" id="-36986">
		<tag k="name" v="Frøkeila" />
		<tag k="natural" v="bay" />
		<tag k="ssr:stedsnr" v="105112" />
	</node>
	<node lat="60.28924721995138" lon="5.161713885301176" id="-36990">
		<tag k="name" v="Børvika" />
		<tag k="natural" v="bay" />
		<tag k="ssr:stedsnr" v="105273" />
	</node>
	<node lat="60.296061112040064" lon="5.1684722252982525" id="-36991">
		<tag k="name" v="Storeklubben" />
		<tag k="natural" v="cape" />
		<tag k="ssr:stedsnr" v="105278" />
	</node>
	<node lat="60.18010000321353" lon="5.014183336491093" id="-36995">
		<tag k="name" v="Litla Flatøyna" />
		<tag k="place" v="island" />
		<tag k="ssr:stedsnr" v="105585" />
	</node>
	<node lat="60.16083055230591" lon="5.054786102975343" id="-36996">
		<tag k="name" v="Litleflesen" />
		<tag k="place" v="islet" />
		<tag k="ssr:stedsnr" v="105592" />
	</node>
	<node lat="60.57594722550293" lon="4.813097212925393" id="-37001">
		<tag k="name" v="Senholmsundet" />
		<tag k="natural" v="strait" />
		<tag k="ssr:stedsnr" v="106121" />
	</node>
	<node lat="60.658977775377544" lon="4.742236113509553" id="-37006">
		<tag k="name" v="Kvernholmen" />
		<tag k="place" v="islet" />
		<tag k="ssr:stedsnr" v="106052" />
	</node>
	<node lat="60.556050002428265" lon="4.797158331249656" id="-37008">
		<tag k="name" v="Skaget" />
		<tag k="natural" v="cape" />
		<tag k="ssr:stedsnr" v="106015" />
	</node>
	<node lat="60.34926110874392" lon="4.92039721348762" id="-37009">
		<tag k="name" v="Rognkallen" />
		<tag k="natural" v="cape" />
		<tag k="ssr:stedsnr" v="106086" />
	</node>
	<node lat="60.34616388750197" lon="4.942338889706098" id="-37010">
		<tag k="name" v="Djupavika" />
		<tag k="natural" v="bay" />
		<tag k="ssr:stedsnr" v="106092" />
	</node>
	<node lat="60.354180556505" lon="4.92419166709293" id="-37011">
		<tag k="name" v="Maggevika" />
		<tag k="natural" v="bay" />
		<tag k="ssr:stedsnr" v="106094" />
	</node>
	<node lat="60.6289372437328" lon="4.786821444068343" id="-37012">
		<tag k="name" v="Trettholmen" />
		<tag k="place" v="islet" />
		<tag k="ssr:stedsnr" v="106172" />
	</node>
	<node lat="60.425155556251404" lon="4.965036110974414" id="-37018">
		<tag k="name" v="Sanden" />
		<tag k="natural" v="bay" />
		<tag k="ssr:stedsnr" v="106312" />
	</node>
	<node lat="60.498838888240975" lon="4.913872216415109" id="-37019">
		<tag k="name" v="Sandvika" />
		<tag k="natural" v="bay" />
		<tag k="ssr:stedsnr" v="106378" />
	</node>
	<node lat="60.64262778022946" lon="4.764483338990339" id="-37020">
		<tag k="fixme" v="consider seamark:type=rock or natural=shoal" />
		<tag k="name" v="Høgskjeret" />
		<tag k="place" v="islet" />
		<tag k="ssr:stedsnr" v="106391" />
	</node>
	<node lat="60.360202779033344" lon="4.958494444112807" id="-37022">
		<tag k="name" v="Garnholmen" />
		<tag k="place" v="islet" />
		<tag k="ssr:stedsnr" v="106398" />
	</node>
	<node lat="60.39515277857362" lon="5.116049991666889" id="-37028">
		<tag k="name" v="Anglavika" />
		<tag k="natural" v="bay" />
		<tag k="ssr:stedsnr" v="106590" />
	</node>
	<node lat="60.394138887611554" lon="5.0805527827547525" id="-37029">
		<tag k="name" v="Juvika" />
		<tag k="natural" v="bay" />
		<tag k="ssr:stedsnr" v="106594" />
	</node>
	<node lat="60.69021389234194" lon="4.720780558237142" id="-37030">
		<tag k="name" v="Bjørnøysundet" />
		<tag k="natural" v="strait" />
		<tag k="ssr:stedsnr" v="106439" />
	</node>
	<node lat="60.40465278007582" lon="4.91978889130619" id="-37032">
		<tag k="name" v="Klenevågen" />
		<tag k="natural" v="bay" />
		<tag k="ssr:stedsnr" v="106476" />
	</node>
	<node lat="60.584549997457195" lon="4.833197220398057" id="-37034">
		<tag k="name" v="Ådnevika" />
		<tag k="natural" v="bay" />
		<tag k="ssr:stedsnr" v="106482" />
	</node>
	<node lat="60.40376944693236" lon="4.961930563728698" id="-37035">
		<tag k="name" v="Buholmen" />
		<tag k="place" v="islet" />
		<tag k="ssr:stedsnr" v="106492" />
	</node>
	<node lat="60.67140555717751" lon="4.806349991769015" id="-37036">
		<tag k="name" v="Marholmsundet" />
		<tag k="natural" v="strait" />
		<tag k="ssr:stedsnr" v="106495" />
	</node>
	<node lat="60.40294999953904" lon="4.932794439063496" id="-37040">
		<tag k="name" v="Havrøyna" />
		<tag k="place" v="island" />
		<tag k="ssr:stedsnr" v="106678" />
	</node>
	<node lat="60.338455557155825" lon="5.16282778077852" id="-37043">
		<tag k="name" v="Grisholmen" />
		<tag k="place" v="islet" />
		<tag k="ssr:stedsnr" v="106772" />
	</node>
	<node lat="60.28897500267036" lon="5.005861113287922" id="-37045">
		<tag k="name" v="Kjereidosen" />
		<tag k="natural" v="strait" />
		<tag k="ssr:stedsnr" v="106785" />
	</node>
	<node lat="60.32397122872424" lon="5.187391787872446" id="-37050">
		<tag k="name" v="Langaneset" />
		<tag k="natural" v="cape" />
		<tag k="ssr:stedsnr" v="106974" />
	</node>
	<node lat="60.65772499825485" lon="4.761980548271229" id="-37051">
		<tag k="name" v="Lamholmen" />
		<tag k="place" v="islet" />
		<tag k="ssr:stedsnr" v="249596" />
	</node>
	<node lat="60.65667500201658" lon="4.817658330243723" id="-37052">
		<tag k="name" v="Hjelmevågen" />
		<tag k="natural" v="bay" />
		<tag k="ssr:stedsnr" v="249598" />
	</node>
	<node lat="60.646975003077245" lon="4.808572227323898" id="-37053">
		<tag k="loc_name" v="Sæløyna" />
		<tag k="name" v="Seløyna" />
		<tag k="old_name" v="Seløyni" />
		<tag k="place" v="island" />
		<tag k="ssr:stedsnr" v="249602" />
	</node>
	<node lat="60.62765639492189" lon="4.852031077169767" id="-37055">
		<tag k="name" v="Søre Arsetvika" />
		<tag k="natural" v="bay" />
		<tag k="ssr:stedsnr" v="106879" />
	</node>
	<node lat="60.565097223131545" lon="4.7943166618203925" id="-37057">
		<tag k="name" v="Rossøyna" />
		<tag k="place" v="island" />
		<tag k="ssr:stedsnr" v="249511" />
	</node>
	<node lat="60.56838703855583" lon="4.809274741228592" id="-37058">
		<tag k="name" v="Herdleværet" />
		<tag k="place" v="island" />
		<tag k="ssr:stedsnr" v="249512" />
	</node>
	<node lat="60.54330000404449" lon="4.797661116002891" id="-37059">
		<tag k="name" v="Storodden" />
		<tag k="place" v="islet" />
		<tag k="ssr:stedsnr" v="249531" />
	</node>
	<node lat="60.60954444415329" lon="4.867283333511497" id="-37060">
		<tag k="name" v="Inste Holmen" />
		<tag k="place" v="islet" />
		<tag k="ssr:stedsnr" v="107172" />
	</node>
	<node lat="60.603041663031085" lon="4.861458338864484" id="-37063">
		<tag k="name" v="Lisle Grøningen" />
		<tag k="place" v="islet" />
		<tag k="ssr:stedsnr" v="249546" />
	</node>
	<node lat="60.593475001295296" lon="4.769650003703839" id="-37064">
		<tag k="name" v="Selsøyna" />
		<tag k="place" v="islet" />
		<tag k="ssr:stedsnr" v="249548" />
	</node>
	<node lat="60.63346111357607" lon="4.727974994450434" id="-37065">
		<tag k="name" v="Ausskjeret" />
		<tag k="old_name" v="Høgskjeret" />
		<tag k="place" v="islet" />
		<tag k="ssr:stedsnr" v="249565" />
	</node>
	<node lat="60.63155555522907" lon="4.772322227751666" id="-37066">
		<tag k="name" v="Lamøyflua" />
		<tag k="natural" v="shoal" />
		<tag k="place" v="locality" />
		<tag k="ssr:stedsnr" v="249566" />
	</node>
	<node lat="60.67054444148678" lon="4.724663881519543" id="-37068">
		<tag k="name" v="Flataskjeret" />
		<tag k="place" v="islet" />
		<tag k="ssr:stedsnr" v="249588" />
	</node>
	<node lat="60.666299996897855" lon="4.733933329008421" id="-37069">
		<tag k="name" v="Lyngøyna" />
		<tag k="place" v="island" />
		<tag k="ssr:stedsnr" v="249591" />
	</node>
	<node lat="60.234594386458745" lon="5.215159209697712" id="-37070">
		<tag k="name" v="Djupevika" />
		<tag k="natural" v="bay" />
		<tag k="ssr:stedsnr" v="107907" />
	</node>
	<node lat="60.228113885277295" lon="5.177327786305377" id="-37071">
		<tag k="name" v="Kubbholmen" />
		<tag k="place" v="islet" />
		<tag k="ssr:stedsnr" v="107917" />
	</node>
	<node lat="60.198449999527334" lon="5.169813891901706" id="-37072">
		<tag k="name" v="Tangaskaget" />
		<tag k="natural" v="cape" />
		<tag k="ssr:stedsnr" v="107920" />
	</node>
	<node lat="60.209258332980085" lon="5.152663897661143" id="-37073">
		<tag k="name" v="Nesjaneset" />
		<tag k="natural" v="cape" />
		<tag k="ssr:stedsnr" v="107922" />
	</node>
	<node lat="60.23514595259153" lon="5.217722948664402" id="-37074">
		<tag k="name" v="Fløsneset" />
		<tag k="natural" v="cape" />
		<tag k="ssr:stedsnr" v="107931" />
	</node>
	<node lat="60.26548889153173" lon="4.932705561629555" id="-37075">
		<tag k="name" v="Stykket" />
		<tag k="natural" v="cape" />
		<tag k="ssr:stedsnr" v="107877" />
	</node>
	<node lat="60.51941389152162" lon="4.872624993064334" id="-37077">
		<tag k="name" v="Rorsundet" />
		<tag k="natural" v="strait" />
		<tag k="ssr:stedsnr" v="249730" />
	</node>
	<node lat="60.518988885301944" lon="4.911377780078201" id="-37078">
		<tag k="name" v="Ivarsholmen" />
		<tag k="place" v="islet" />
		<tag k="ssr:stedsnr" v="249733" />
	</node>
	<node lat="60.521902775205504" lon="4.935180550903612" id="-37079">
		<tag k="name" v="Gjoskallen" />
		<tag k="natural" v="shoal" />
		<tag k="place" v="locality" />
		<tag k="ssr:stedsnr" v="249735" />
	</node>
	<node lat="60.694955552026336" lon="4.722613884255559" id="-37080">
		<tag k="name" v="Nordra Nautøyna" />
		<tag k="place" v="islet" />
		<tag k="ssr:stedsnr" v="249872" />
	</node>
	<node lat="60.24479444568301" lon="4.987305555064175" id="-37083">
		<tag k="name" v="Selstøvågen" />
		<tag k="natural" v="bay" />
		<tag k="ssr:stedsnr" v="125547" />
	</node>
	<node lat="60.173372218180525" lon="5.112797224440268" id="-37085">
		<tag k="name" v="Håkholmen" />
		<tag k="place" v="islet" />
		<tag k="ssr:stedsnr" v="125817" />
	</node>
	<node lat="60.44862315802411" lon="4.931834264466835" id="-37086">
		<tag k="name" v="Kattholmen" />
		<tag k="place" v="islet" />
		<tag k="ssr:stedsnr" v="126131" />
	</node>
	<node lat="60.439908333102075" lon="4.900086111937928" id="-37087">
		<tag k="name" v="Dydnestakken" />
		<tag k="place" v="islet" />
		<tag k="ssr:stedsnr" v="126137" />
	</node>
	<node lat="60.375380559683734" lon="4.931358324761629" id="-37089">
		<tag k="name" v="Lambøyna" />
		<tag k="place" v="islet" />
		<tag k="ssr:stedsnr" v="126304" />
	</node>
	<node lat="60.39235832898077" lon="5.064191663536939" id="-37090">
		<tag k="name" v="Litløyna" />
		<tag k="place" v="islet" />
		<tag k="ssr:stedsnr" v="126311" />
	</node>
	<node lat="60.35944240202685" lon="4.915374866042667" id="-37091">
		<tag k="fixme" v="consider seamark:type=rock or natural=shoal" />
		<tag k="name" v="Tjørnøyskjeret" />
		<tag k="place" v="islet" />
		<tag k="ssr:stedsnr" v="126360" />
	</node>
	<node lat="60.391555553699774" lon="5.086527782186137" id="-37092">
		<tag k="name" v="Ettersundosen" />
		<tag k="natural" v="strait" />
		<tag k="ssr:stedsnr" v="126300" />
	</node>
	<node lat="60.30123771419444" lon="5.039508310656858" id="-37094">
		<tag k="name" v="Raunholmane" />
		<tag k="place" v="islet" />
		<tag k="ssr:stedsnr" v="126458" />
	</node>
	<node lat="60.26851944768799" lon="4.956869435677216" id="-37095">
		<tag k="name" v="Søvika" />
		<tag k="natural" v="bay" />
		<tag k="ssr:stedsnr" v="126494" />
	</node>
	<node lat="60.32086110895647" lon="5.190599995905778" id="-37096">
		<tag k="name" v="Jaktaneset" />
		<tag k="natural" v="cape" />
		<tag k="ssr:stedsnr" v="126746" />
	</node>
	<node lat="60.18864166432954" lon="5.062500003132952" id="-37097">
		<tag k="alt_name" v="Toftarøyna" />
		<tag k="loc_name" v="Toftøyna" />
		<tag k="name" v="Toftøya" />
		<tag k="place" v="island" />
		<tag k="ssr:stedsnr" v="126692" />
	</node>
	<node lat="60.224100003059185" lon="5.182377779777649" id="-37099">
		<tag k="name" v="Visterøyna" />
		<tag k="natural" v="cape" />
		<tag k="ssr:stedsnr" v="126813" />
	</node>
	<node lat="60.58139166445164" lon="4.860869444493241" id="-37101">
		<tag k="name" v="Søra Straumøysundet" />
		<tag k="natural" v="strait" />
		<tag k="ssr:stedsnr" v="127603" />
	</node>
	<node lat="60.58158333490804" lon="4.781183324483978" id="-37102">
		<tag k="name" v="Vassgeitingen" />
		<tag k="place" v="islet" />
		<tag k="ssr:stedsnr" v="127612" />
	</node>
	<node lat="60.62878332919871" lon="4.728191660400936" id="-37103">
		<tag k="name" v="Grunnefluene" />
		<tag k="natural" v="shoal" />
		<tag k="place" v="locality" />
		<tag k="ssr:stedsnr" v="127618" />
	</node>
	<node lat="60.66154999785744" lon="4.731872223172025" id="-37104">
		<tag k="name" v="Råna" />
		<tag k="place" v="islet" />
		<tag k="ssr:stedsnr" v="127651" />
	</node>
	<node lat="60.65743333211039" lon="4.753150000503923" id="-37105">
		<tag k="name" v="Kråkelåten" />
		<tag k="place" v="islet" />
		<tag k="ssr:stedsnr" v="127655" />
	</node>
	<node lat="60.65603333614788" lon="4.74462222376384" id="-37106">
		<tag k="name" v="Godflua" />
		<tag k="natural" v="shoal" />
		<tag k="place" v="locality" />
		<tag k="ssr:stedsnr" v="127656" />
	</node>
	<node lat="60.26262222371649" lon="5.018394436942779" id="-37107">
		<tag k="bay" v="fjord" />
		<tag k="name" v="Kørelen" />
		<tag k="natural" v="bay" />
		<tag k="ssr:stedsnr" v="127522" />
	</node>
	<node lat="60.56871389170114" lon="4.821080548864362" id="-37108">
		<tag k="name" v="Langholmen" />
		<tag k="place" v="islet" />
		<tag k="ssr:stedsnr" v="127556" />
	</node>
	<node lat="60.56492500072629" lon="4.872383338685848" id="-37109">
		<tag k="name" v="Husneset" />
		<tag k="natural" v="cape" />
		<tag k="ssr:stedsnr" v="127558" />
	</node>
	<node lat="60.55877777590387" lon="4.886080559422125" id="-37110">
		<tag k="name" v="Ljøsøyna" />
		<tag k="place" v="island" />
		<tag k="ssr:stedsnr" v="127559" />
	</node>
	<node lat="60.61168691270503" lon="4.863569258630774" id="-37111">
		<tag k="name" v="Skarvholmen" />
		<tag k="place" v="islet" />
		<tag k="ssr:stedsnr" v="127594" />
	</node>
	<node lat="60.609741667603416" lon="4.867088890095156" id="-37112">
		<tag k="name" v="Stureholmane" />
		<tag k="place" v="islet" />
		<tag k="ssr:stedsnr" v="127595" />
	</node>
	<node lat="60.68805000295166" lon="4.753125006648954" id="-37113">
		<tag k="name" v="Hernar" />
		<tag k="place" v="island" />
		<tag k="ssr:stedsnr" v="127891" />
	</node>
	<node lat="60.52497777484747" lon="4.848747231388537" id="-37114">
		<tag k="name" v="Nautøyna" />
		<tag k="place" v="island" />
		<tag k="ssr:stedsnr" v="127752" />
	</node>
	<node lat="60.52940277442854" lon="4.831319448110866" id="-37115">
		<tag k="name" v="Såskjeret" />
		<tag k="natural" v="shoal" />
		<tag k="place" v="locality" />
		<tag k="ssr:stedsnr" v="127753" />
	</node>
	<node lat="60.25480000318968" lon="5.127766662374999" id="-37116">
		<tag k="name" v="Sangoltshella" />
		<tag k="natural" v="cape" />
		<tag k="ssr:stedsnr" v="127902" />
	</node>
	<node lat="60.24662222671334" lon="4.982036115975906" id="-37118">
		<tag k="name" v="Skitflua" />
		<tag k="natural" v="shoal" />
		<tag k="place" v="locality" />
		<tag k="ssr:stedsnr" v="145075" />
	</node>
	<node lat="60.16978888770033" lon="5.042858337064006" id="-37119">
		<tag k="name" v="Vikso" />
		<tag k="place" v="island" />
		<tag k="ssr:stedsnr" v="145108" />
	</node>
	<node lat="60.16227778027621" lon="5.059197228078619" id="-37120">
		<tag k="name" v="Store Stongarholmen" />
		<tag k="place" v="islet" />
		<tag k="ssr:stedsnr" v="145110" />
	</node>
	<node lat="60.32748055266304" lon="4.956677787069595" id="-37121">
		<tag k="name" v="Grønavika" />
		<tag k="natural" v="bay" />
		<tag k="ssr:stedsnr" v="145227" />
	</node>
	<node lat="60.18262221894082" lon="4.991313886513996" id="-37122">
		<tag k="name" v="Gunnaren" />
		<tag k="natural" v="shoal" />
		<tag k="place" v="locality" />
		<tag k="ssr:stedsnr" v="146094" />
	</node>
	<node lat="60.32046388977596" lon="5.150041667283306" id="-37123">
		<tag k="name" v="Håkjerflua" />
		<tag k="natural" v="shoal" />
		<tag k="place" v="locality" />
		<tag k="ssr:stedsnr" v="146207" />
	</node>
	<node lat="60.33185555186606" lon="5.170997230225616" id="-37124">
		<tag k="name" v="Katlaflua" />
		<tag k="natural" v="shoal" />
		<tag k="place" v="locality" />
		<tag k="ssr:stedsnr" v="146212" />
	</node>
	<node lat="60.62779999580997" lon="4.838483332087415" id="-37125">
		<tag k="name" v="Sturestraumen" />
		<tag k="natural" v="strait" />
		<tag k="ssr:stedsnr" v="146903" />
	</node>
	<node lat="60.54504166758848" lon="4.797236110221934" id="-37127">
		<tag k="fixme" v="consider seamark:type=rock or natural=shoal" />
		<tag k="name" v="Lislodden" />
		<tag k="place" v="islet" />
		<tag k="ssr:stedsnr" v="146932" />
	</node>
	<node lat="60.56077499991541" lon="4.784963887963412" id="-37128">
		<tag k="name" v="Seiflua" />
		<tag k="natural" v="shoal" />
		<tag k="place" v="locality" />
		<tag k="ssr:stedsnr" v="146945" />
	</node>
	<node lat="60.560583334279514" lon="4.871202781483157" id="-37129">
		<tag k="fixme" v="consider seamark:type=rock or natural=shoal" />
		<tag k="name" v="Helleskjeret" />
		<tag k="place" v="islet" />
		<tag k="ssr:stedsnr" v="166008" />
	</node>
	<node lat="60.55985277779706" lon="4.877702774349833" id="-37130">
		<tag k="name" v="Odden" />
		<tag k="natural" v="cape" />
		<tag k="ssr:stedsnr" v="166011" />
	</node>
	<node lat="60.54534722407641" lon="4.8163222197265885" id="-37131">
		<tag k="fixme" v="consider seamark:type=rock or natural=shoal" />
		<tag k="name" v="Nordra Skjeret" />
		<tag k="place" v="islet" />
		<tag k="ssr:stedsnr" v="166074" />
	</node>
	<node lat="60.34817221864322" lon="4.970844452140756" id="-37132">
		<tag k="name" v="Porsvika" />
		<tag k="natural" v="bay" />
		<tag k="ssr:stedsnr" v="166078" />
	</node>
	<node lat="60.24383837551808" lon="5.201705096452026" id="-37136">
		<tag k="name" v="Franskmannen" />
		<tag k="place" v="islet" />
		<tag k="ssr:stedsnr" v="166164" />
	</node>
	<node lat="60.25766944227902" lon="5.126211114201058" id="-37138">
		<tag k="name" v="Molvika" />
		<tag k="natural" v="bay" />
		<tag k="ssr:stedsnr" v="166174" />
	</node>
	<node lat="60.5626361105692" lon="4.794697222632942" id="-37140">
		<tag k="name" v="Rossøyvågen" />
		<tag k="natural" v="bay" />
		<tag k="ssr:stedsnr" v="166312" />
	</node>
	<node lat="60.45528889186118" lon="4.95334165987916" id="-37145">
		<tag k="name" v="Svelgen" />
		<tag k="natural" v="strait" />
		<tag k="ssr:stedsnr" v="166645" />
	</node>
	<node lat="60.184447224416836" lon="4.981294449810877" id="-37146">
		<tag k="name" v="Kvernholmsundet" />
		<tag k="natural" v="strait" />
		<tag k="ssr:stedsnr" v="166656" />
	</node>
	<node lat="60.16533333137987" lon="5.024325009115949" id="-37147">
		<tag k="name" v="Narøyskaget" />
		<tag k="natural" v="cape" />
		<tag k="ssr:stedsnr" v="166510" />
	</node>
	<node lat="60.18745833318092" lon="5.0396638899292885" id="-37148">
		<tag k="name" v="Sønnavindskvilet" />
		<tag k="natural" v="bay" />
		<tag k="ssr:stedsnr" v="166567" />
	</node>
	<node lat="60.171347219800914" lon="5.031827776775748" id="-37149">
		<tag k="name" v="Nordra Grøtvika" />
		<tag k="natural" v="bay" />
		<tag k="ssr:stedsnr" v="166569" />
	</node>
	<node lat="60.22568611013082" lon="5.0074833396398395" id="-37150">
		<tag k="name" v="Djupavågen" />
		<tag k="natural" v="bay" />
		<tag k="ssr:stedsnr" v="166578" />
	</node>
	<node lat="60.17669999590972" lon="5.043847217818575" id="-37151">
		<tag k="name" v="Nesjavika" />
		<tag k="natural" v="bay" />
		<tag k="ssr:stedsnr" v="166584" />
	</node>
	<node lat="60.312469443001355" lon="4.935969444995318" id="-37154">
		<tag k="name" v="Keila" />
		<tag k="natural" v="bay" />
		<tag k="ssr:stedsnr" v="166802" />
	</node>
	<node lat="60.31033332995454" lon="4.942744443673975" id="-37155">
		<tag k="name" v="Ytsta Havnasundet" />
		<tag k="natural" v="strait" />
		<tag k="ssr:stedsnr" v="166804" />
	</node>
	<node lat="60.32031666768844" lon="4.945480557445613" id="-37159">
		<tag k="fixme" v="consider seamark:type=rock or natural=shoal" />
		<tag k="name" v="Seiskjeret" />
		<tag k="place" v="islet" />
		<tag k="ssr:stedsnr" v="166815" />
	</node>
	<node lat="60.30658055888832" lon="4.990494446978796" id="-37160">
		<tag k="name" v="Skotvika" />
		<tag k="natural" v="bay" />
		<tag k="ssr:stedsnr" v="166817" />
	</node>
	<node lat="60.32047777636965" lon="5.00156666623967" id="-37161">
		<tag k="name" v="Skogsosen" />
		<tag k="natural" v="strait" />
		<tag k="ssr:stedsnr" v="166824" />
	</node>
	<node lat="60.60216110978553" lon="4.785952775717549" id="-37167">
		<tag k="fixme" v="consider seamark:type=rock or natural=shoal" />
		<tag k="name" v="Sandskjeret" />
		<tag k="place" v="islet" />
		<tag k="ssr:stedsnr" v="167218" />
	</node>
	<node lat="60.434855556604184" lon="4.920833326696833" id="-37169">
		<tag k="name" v="Raunesundet" />
		<tag k="natural" v="strait" />
		<tag k="ssr:stedsnr" v="167258" />
	</node>
	<node lat="60.38509166563983" lon="5.060438885554214" id="-37171">
		<tag k="name" v="Buneset" />
		<tag k="natural" v="cape" />
		<tag k="ssr:stedsnr" v="167275" />
	</node>
	<node lat="60.70386666491264" lon="4.7457750000119585" id="-37172">
		<tag k="name" v="Risholmen" />
		<tag k="place" v="islet" />
		<tag k="ssr:stedsnr" v="167422" />
	</node>
	<node lat="60.58296389085465" lon="4.852963896581464" id="-37173">
		<tag k="name" v="Straumøyna" />
		<tag k="place" v="island" />
		<tag k="ssr:stedsnr" v="167159" />
	</node>
	<node lat="60.45054444340218" lon="4.903008334808685" id="-37174">
		<tag k="name" v="Knappasundet" />
		<tag k="natural" v="strait" />
		<tag k="ssr:stedsnr" v="167309" />
	</node>
	<node lat="60.30945277329069" lon="5.161758328224612" id="-37175">
		<tag k="name" v="Sørvika" />
		<tag k="natural" v="bay" />
		<tag k="ssr:stedsnr" v="167361" />
	</node>
	<node lat="60.45525555761483" lon="4.932661117401949" id="-37178">
		<tag k="name" v="Skoravågen" />
		<tag k="natural" v="bay" />
		<tag k="ssr:stedsnr" v="167380" />
	</node>
	<node lat="60.54253055831942" lon="4.808597216765882" id="-37179">
		<tag k="name" v="Illnovsundet" />
		<tag k="natural" v="strait" />
		<tag k="ssr:stedsnr" v="167509" />
	</node>
	<node lat="60.40688333493074" lon="4.903552778452786" id="-37180">
		<tag k="name" v="Oddasundet" />
		<tag k="natural" v="strait" />
		<tag k="ssr:stedsnr" v="167514" />
	</node>
	<node lat="60.54475555535595" lon="4.84790000154892" id="-37181">
		<tag k="bay" v="fjord" />
		<tag k="name" v="Bunesosen" />
		<tag k="natural" v="bay" />
		<tag k="ssr:stedsnr" v="167520" />
	</node>
	<node lat="60.35879444027453" lon="5.109930549145165" id="-37182">
		<tag k="name" v="Straumskylleren" />
		<tag k="natural" v="bay" />
		<tag k="ssr:stedsnr" v="167616" />
	</node>
	<node lat="60.28986944177299" lon="4.945983330467508" id="-37184">
		<tag k="name" v="Tårnholmen" />
		<tag k="place" v="islet" />
		<tag k="ssr:stedsnr" v="167778" />
	</node>
	<node lat="60.26493888667908" lon="4.945569441031682" id="-37185">
		<tag k="fixme" v="consider seamark:type=rock or natural=shoal" />
		<tag k="name" v="Søra Fløskjeret" />
		<tag k="place" v="islet" />
		<tag k="ssr:stedsnr" v="167858" />
	</node>
	<node lat="60.26621666282109" lon="4.945355558947821" id="-37186">
		<tag k="fixme" v="consider seamark:type=rock or natural=shoal" />
		<tag k="name" v="Nordra Fløskjeret" />
		<tag k="place" v="islet" />
		<tag k="ssr:stedsnr" v="167861" />
	</node>
	<node lat="60.67118888878899" lon="4.792780555051977" id="-37187">
		<tag k="name" v="Breivika" />
		<tag k="natural" v="bay" />
		<tag k="ssr:stedsnr" v="167877" />
	</node>
	<node lat="60.38779444591522" lon="5.100194449825761" id="-37189">
		<tag k="name" v="Bysundet" />
		<tag k="natural" v="strait" />
		<tag k="ssr:stedsnr" v="167963" />
	</node>
	<node lat="60.362963893062755" lon="4.951297220412739" id="-37190">
		<tag k="fixme" v="consider seamark:type=rock or natural=shoal" />
		<tag k="name" v="Skarvaskjeret" />
		<tag k="place" v="islet" />
		<tag k="ssr:stedsnr" v="179617" />
	</node>
	<node lat="60.22463611154244" lon="4.962752782427599" id="-37191">
		<tag k="fixme" v="consider seamark:type=rock or natural=shoal" />
		<tag k="name" v="Goltasteinen" />
		<tag k="place" v="islet" />
		<tag k="ssr:stedsnr" v="186603" />
	</node>
	<node lat="60.24380277558291" lon="4.981413894062854" id="-37192">
		<tag k="name" v="Nordra Skogsneset" />
		<tag k="natural" v="cape" />
		<tag k="ssr:stedsnr" v="186590" />
	</node>
	<node lat="60.24399166563951" lon="5.215827771991546" id="-37194">
		<tag k="name" v="Bjelkarøyna" />
		<tag k="place" v="island" />
		<tag k="ssr:stedsnr" v="186702" />
	</node>
	<node lat="60.37904166759073" lon="4.93595000783319" id="-37197">
		<tag k="name" v="Brendholmen" />
		<tag k="place" v="islet" />
		<tag k="ssr:stedsnr" v="187307" />
	</node>
	<node lat="60.38591389225819" lon="4.929805550975763" id="-37199">
		<tag k="fixme" v="consider seamark:type=rock or natural=shoal" />
		<tag k="name" v="Nordra Høgeskjeret" />
		<tag k="place" v="islet" />
		<tag k="ssr:stedsnr" v="187310" />
	</node>
	<node lat="60.40773611474616" lon="5.0202944509358325" id="-37200">
		<tag k="name" v="Åsneset" />
		<tag k="natural" v="cape" />
		<tag k="ssr:stedsnr" v="187315" />
	</node>
	<node lat="60.47720278064295" lon="4.965588888602287" id="-37201">
		<tag k="name" v="Svarta Berget" />
		<tag k="natural" v="cape" />
		<tag k="ssr:stedsnr" v="187229" />
	</node>
	<node lat="60.30708368596684" lon="5.0499293883727905" id="-37202">
		<tag k="name" v="Selvågen" />
		<tag k="natural" v="bay" />
		<tag k="ssr:stedsnr" v="187279" />
	</node>
	<node lat="60.30232499703206" lon="5.006219438956421" id="-37203">
		<tag k="name" v="Hegrøyna" />
		<tag k="place" v="islet" />
		<tag k="ssr:stedsnr" v="187280" />
	</node>
	<node lat="60.314602774304795" lon="4.996705550382344" id="-37207">
		<tag k="name" v="Kattarholmen" />
		<tag k="place" v="islet" />
		<tag k="ssr:stedsnr" v="187294" />
	</node>
	<node lat="60.27578611266795" lon="4.948836102474762" id="-37208">
		<tag k="name" v="Stallen" />
		<tag k="natural" v="cape" />
		<tag k="ssr:stedsnr" v="187410" />
	</node>
	<node lat="60.29846667066843" lon="4.900377769227822" id="-37210">
		<tag k="name" v="Søre Oddafluene" />
		<tag k="natural" v="shoal" />
		<tag k="place" v="locality" />
		<tag k="ssr:stedsnr" v="187427" />
	</node>
	<node lat="60.29421944587631" lon="4.927513888800517" id="-37211">
		<tag k="fixme" v="consider seamark:type=rock or natural=shoal" />
		<tag k="name" v="Møkalasset" />
		<tag k="place" v="islet" />
		<tag k="ssr:stedsnr" v="187429" />
	</node>
	<node lat="60.18110555878384" lon="5.003591661173884" id="-37213">
		<tag k="name" v="Skarholmen" />
		<tag k="place" v="islet" />
		<tag k="ssr:stedsnr" v="187705" />
	</node>
	<node lat="60.58256666395628" lon="4.8261444510550975" id="-37215">
		<tag k="name" v="Rotevågsøyna" />
		<tag k="place" v="islet" />
		<tag k="ssr:stedsnr" v="188608" />
	</node>
	<node lat="60.64153889002708" lon="4.77207499795868" id="-37216">
		<tag k="name" v="Tvisloket" />
		<tag k="place" v="islet" />
		<tag k="ssr:stedsnr" v="188612" />
	</node>
	<node lat="60.55235000107652" lon="4.911819442243866" id="-37219">
		<tag k="name" v="Ljøsøyskallen" />
		<tag k="natural" v="shoal" />
		<tag k="place" v="locality" />
		<tag k="ssr:stedsnr" v="188581" />
	</node>
	<node lat="60.607991667488015" lon="4.826952781084583" id="-37220">
		<tag k="name" v="Alvøyna" />
		<tag k="place" v="island" />
		<tag k="ssr:stedsnr" v="188583" />
	</node>
	<node lat="60.60525833550375" lon="4.86891110215467" id="-37221">
		<tag k="name" v="Store Grøningen" />
		<tag k="place" v="islet" />
		<tag k="ssr:stedsnr" v="188587" />
	</node>
	<node lat="60.67411666584246" lon="4.762297230275011" id="-37222">
		<tag k="name" v="Lisla Rotøyna" />
		<tag k="place" v="island" />
		<tag k="ssr:stedsnr" v="188643" />
	</node>
	<node lat="60.327047221107925" lon="5.148149993707549" id="-37223">
		<tag k="name" v="Søra Kjerringasundet" />
		<tag k="natural" v="strait" />
		<tag k="old_name" v="Steinsundet, nordre;Nordre Steinsundet" />
		<tag k="ssr:stedsnr" v="188817" />
	</node>
	<node lat="60.34430277764331" lon="4.986680553123943" id="-37227">
		<tag k="name" v="Kunta" />
		<tag k="natural" v="cape" />
		<tag k="ssr:stedsnr" v="267023" />
	</node>
	<node lat="60.29838610677544" lon="4.954841669271647" id="-37228">
		<tag k="name" v="Ytra Sandeidet" />
		<tag k="place" v="locality" />
		<tag k="ssr:stedsnr" v="267054" />
	</node>
	<node lat="60.36198208104972" lon="5.1467778444252" id="-37229">
		<tag k="name" v="Arefjordstraumen" />
		<tag k="natural" v="strait" />
		<tag k="ssr:stedsnr" v="267071" />
	</node>
	<node lat="60.29567777714403" lon="5.181936103018588" id="-37230">
		<tag k="name" v="Vestre Hestholmen" />
		<tag k="place" v="islet" />
		<tag k="ssr:stedsnr" v="267183" />
	</node>
	<node lat="60.336761108230846" lon="4.9455527730922455" id="-37231">
		<tag k="name" v="Ramsvika" />
		<tag k="natural" v="bay" />
		<tag k="ssr:stedsnr" v="267192" />
	</node>
	<node lat="60.635191668530545" lon="4.701333334127171" id="-37232">
		<tag k="name" v="Renta" />
		<tag k="natural" v="shoal" />
		<tag k="place" v="locality" />
		<tag k="ssr:stedsnr" v="267588" />
	</node>
	<node lat="60.588449999969825" lon="4.716094452666991" id="-37233">
		<tag k="name" v="Sømgrunnen" />
		<tag k="natural" v="shoal" />
		<tag k="place" v="locality" />
		<tag k="ssr:stedsnr" v="267600" />
	</node>
	<node lat="60.665747220488335" lon="4.707002786829196" id="-37234">
		<tag k="name" v="Lyngøyboen" />
		<tag k="natural" v="shoal" />
		<tag k="place" v="locality" />
		<tag k="ssr:stedsnr" v="267692" />
	</node>
	<node lat="60.49750832901917" lon="4.948574992682938" id="-37235">
		<tag k="name" v="Svartevika" />
		<tag k="natural" v="bay" />
		<tag k="ssr:stedsnr" v="267875" />
	</node>
	<node lat="60.447830557467434" lon="4.903108340413256" id="-37236">
		<tag k="fixme" v="consider seamark:type=rock or natural=shoal" />
		<tag k="name" v="Trosavikskjeret" />
		<tag k="place" v="islet" />
		<tag k="ssr:stedsnr" v="267925" />
	</node>
	<node lat="60.23332222498895" lon="5.169247215669203" id="-37241">
		<tag k="name" v="Vika" />
		<tag k="natural" v="bay" />
		<tag k="ssr:stedsnr" v="268340" />
	</node>
	<node lat="60.244124996079805" lon="4.944366662464193" id="-37243">
		<tag k="name" v="Gåsøyane" />
		<tag k="place" v="islet" />
		<tag k="ssr:stedsnr" v="206083" />
	</node>
	<node lat="60.37618889311759" lon="5.060847219644361" id="-37244">
		<tag k="name" v="Grotvika" />
		<tag k="natural" v="bay" />
		<tag k="ssr:stedsnr" v="206206" />
	</node>
	<node lat="60.337092209863926" lon="4.935532578898454" id="-37245">
		<tag k="name" v="Ånesvika" />
		<tag k="natural" v="bay" />
		<tag k="ssr:stedsnr" v="206222" />
	</node>
	<node lat="60.180086114980114" lon="4.964027777203868" id="-37246">
		<tag k="name" v="Skileflua" />
		<tag k="natural" v="shoal" />
		<tag k="place" v="locality" />
		<tag k="ssr:stedsnr" v="268451" />
	</node>
	<node lat="60.16619444073178" lon="5.010836119825525" id="-37248">
		<tag k="name" v="Fugløyflua" />
		<tag k="natural" v="shoal" />
		<tag k="place" v="locality" />
		<tag k="ssr:stedsnr" v="268463" />
	</node>
	<node lat="60.185636108346046" lon="5.002408336416431" id="-37249">
		<tag k="name" v="Tovo" />
		<tag k="natural" v="shoal" />
		<tag k="place" v="locality" />
		<tag k="ssr:stedsnr" v="268469" />
	</node>
	<node lat="60.58054166371296" lon="4.811988894633743" id="-37250">
		<tag k="fixme" v="consider seamark:type=rock or natural=shoal" />
		<tag k="name" v="Flatskjeret" />
		<tag k="place" v="islet" />
		<tag k="ssr:stedsnr" v="206605" />
	</node>
	<node lat="60.63590555379197" lon="4.736808331771426" id="-37252">
		<tag k="name" v="Tverrflua" />
		<tag k="natural" v="shoal" />
		<tag k="place" v="locality" />
		<tag k="ssr:stedsnr" v="206723" />
	</node>
	<node lat="60.198286109168215" lon="4.9653833399706055" id="-37253">
		<tag k="name" v="Grunnavågsvadet" />
		<tag k="natural" v="shoal" />
		<tag k="place" v="locality" />
		<tag k="ssr:stedsnr" v="207050" />
	</node>
	<node lat="60.17543610716129" lon="4.967827774074099" id="-37254">
		<tag k="name" v="Rossmunnsflua" />
		<tag k="natural" v="shoal" />
		<tag k="place" v="locality" />
		<tag k="ssr:stedsnr" v="207104" />
	</node>
	<node lat="60.17106497225335" lon="5.090213092277614" id="-37255">
		<tag k="name" v="Litleusholmen" />
		<tag k="place" v="islet" />
		<tag k="ssr:stedsnr" v="207129" />
	</node>
	<node lat="60.22956389059237" lon="5.05491111916846" id="-37256">
		<tag k="name" v="Pollen" />
		<tag k="natural" v="strait" />
		<tag k="ssr:stedsnr" v="207254" />
	</node>
	<node lat="60.1561944428299" lon="4.991436104682448" id="-37257">
		<tag k="name" v="Teksleflua" />
		<tag k="natural" v="shoal" />
		<tag k="place" v="locality" />
		<tag k="ssr:stedsnr" v="268753" />
	</node>
	<node lat="60.588374995495315" lon="4.736191659600532" id="-37258">
		<tag k="name" v="Søre Rinden" />
		<tag k="natural" v="shoal" />
		<tag k="place" v="locality" />
		<tag k="ssr:stedsnr" v="207609" />
	</node>
	<node lat="60.544777780475876" lon="4.854586104287789" id="-37259">
		<tag k="name" v="Selvågen" />
		<tag k="natural" v="bay" />
		<tag k="ssr:stedsnr" v="207935" />
	</node>
	<node lat="60.61233401702874" lon="4.8614854972341135" id="-37260">
		<tag k="name" v="Skarvholmsundet" />
		<tag k="natural" v="strait" />
		<tag k="ssr:stedsnr" v="207947" />
	</node>
	<node lat="60.5589277741675" lon="4.7201694470390825" id="-37261">
		<tag k="name" v="Einshammaren" />
		<tag k="natural" v="shoal" />
		<tag k="place" v="locality" />
		<tag k="ssr:stedsnr" v="207954" />
	</node>
	<node lat="60.53655000261238" lon="4.876352783978432" id="-37262">
		<tag k="name" v="Dalsvågen" />
		<tag k="natural" v="bay" />
		<tag k="ssr:stedsnr" v="268949" />
	</node>
	<node lat="60.54828504379016" lon="4.886617354658094" id="-37263">
		<tag k="name" v="Kobbevågen" />
		<tag k="natural" v="bay" />
		<tag k="ssr:stedsnr" v="268950" />
	</node>
	<node lat="60.51966388748089" lon="4.903947221272914" id="-37264">
		<tag k="name" v="Sælevågen" />
		<tag k="natural" v="bay" />
		<tag k="ssr:stedsnr" v="268951" />
	</node>
	<node lat="60.53285833226942" lon="4.850352772500508" id="-37266">
		<tag k="name" v="Flatholmen" />
		<tag k="place" v="islet" />
		<tag k="ssr:stedsnr" v="226102" />
	</node>
	<node lat="60.20985000456593" lon="5.068550007576335" id="-37267">
		<tag k="name" v="Langholmen" />
		<tag k="place" v="islet" />
		<tag k="ssr:stedsnr" v="226635" />
	</node>
	<node lat="60.68719294574998" lon="4.764595580860964" id="-37268">
		<tag k="name" v="Nordra Hernetåna" />
		<tag k="natural" v="cape" />
		<tag k="ssr:stedsnr" v="227000" />
	</node>
	<node lat="60.357166669689526" lon="4.928424991505831" id="-37269">
		<tag k="name" v="Ytsta Kåravika" />
		<tag k="natural" v="bay" />
		<tag k="ssr:stedsnr" v="227103" />
	</node>
	<node lat="60.300877774195236" lon="5.165130563153836" id="-37270">
		<tag k="name" v="Nautasundet" />
		<tag k="natural" v="strait" />
		<tag k="ssr:stedsnr" v="227007" />
	</node>
	<node lat="60.55452500177325" lon="4.810588884605474" id="-37271">
		<tag k="name" v="Kuholmen" />
		<tag k="place" v="islet" />
		<tag k="ssr:stedsnr" v="227009" />
	</node>
	<node lat="60.53868055965417" lon="4.849608335379325" id="-37273">
		<tag k="fixme" v="consider seamark:type=rock or natural=shoal" />
		<tag k="name" v="Kupa" />
		<tag k="place" v="islet" />
		<tag k="ssr:stedsnr" v="227070" />
	</node>
	<node lat="60.54188611515684" lon="4.81230833584447" id="-37274">
		<tag k="fixme" v="consider seamark:type=rock or natural=shoal" />
		<tag k="name" v="Tangen" />
		<tag k="place" v="islet" />
		<tag k="ssr:stedsnr" v="227081" />
	</node>
	<node lat="60.35901666897731" lon="4.966174993955523" id="-37275">
		<tag k="fixme" v="consider seamark:type=rock or natural=shoal" />
		<tag k="name" v="Bleikeskjera" />
		<tag k="place" v="islet" />
		<tag k="ssr:stedsnr" v="227085" />
	</node>
	<node lat="60.35578888754748" lon="4.973463888657447" id="-37276">
		<tag k="name" v="Sildavika" />
		<tag k="natural" v="bay" />
		<tag k="ssr:stedsnr" v="227086" />
	</node>
	<node lat="60.29478888766897" lon="5.174144451415277" id="-37278">
		<tag k="fixme" v="consider seamark:type=rock or natural=shoal" />
		<tag k="name" v="Svinaskjeret" />
		<tag k="place" v="islet" />
		<tag k="ssr:stedsnr" v="227234" />
	</node>
	<node lat="60.41785555964016" lon="4.91134999260983" id="-37282">
		<tag k="name" v="Risøybugen" />
		<tag k="natural" v="bay" />
		<tag k="ssr:stedsnr" v="227332" />
	</node>
	<node lat="60.658830552987" lon="4.760436102847715" id="-37284">
		<tag k="fixme" v="consider seamark:type=rock or natural=shoal" />
		<tag k="name" v="Notskjera" />
		<tag k="place" v="islet" />
		<tag k="ssr:stedsnr" v="227392" />
	</node>
	<node lat="60.64597500390189" lon="4.829627773445221" id="-37286">
		<tag k="name" v="Bruvågen" />
		<tag k="natural" v="bay" />
		<tag k="ssr:stedsnr" v="227503" />
	</node>
	<node lat="60.377852781789734" lon="4.954074997369347" id="-37288">
		<tag k="name" v="Mortasundet" />
		<tag k="natural" v="strait" />
		<tag k="ssr:stedsnr" v="227297" />
	</node>
	<node lat="60.369061107308916" lon="4.97429444828977" id="-37289">
		<tag k="name" v="Kyrkjesundet" />
		<tag k="natural" v="strait" />
		<tag k="ssr:stedsnr" v="227298" />
	</node>
	<node lat="60.69338611248092" lon="4.744299990676075" id="-37290">
		<tag k="bay" v="fjord" />
		<tag k="name" v="Osen" />
		<tag k="natural" v="bay" />
		<tag k="ssr:stedsnr" v="227431" />
	</node>
	<node lat="60.607111114533296" lon="4.840144438321615" id="-37291">
		<tag k="name" v="Høga Neset" />
		<tag k="natural" v="cape" />
		<tag k="ssr:stedsnr" v="227490" />
	</node>
	<node lat="60.40314444160191" lon="4.968597224653463" id="-37292">
		<tag k="name" v="Kylleren" />
		<tag k="natural" v="strait" />
		<tag k="ssr:stedsnr" v="227499" />
	</node>
	<node lat="60.38719444062422" lon="5.045119450242634" id="-37297">
		<tag k="name" v="Krabbapollen" />
		<tag k="natural" v="bay" />
		<tag k="ssr:stedsnr" v="227912" />
	</node>
	<node lat="60.30100555435624" lon="5.059119439644096" id="-37301">
		<tag k="name" v="Kvernapollen" />
		<tag k="natural" v="bay" />
		<tag k="ssr:stedsnr" v="227691" />
	</node>
	<node lat="60.32067499603603" lon="4.949580553898872" id="-37302">
		<tag k="name" v="Klauvholmane" />
		<tag k="place" v="islet" />
		<tag k="ssr:stedsnr" v="227805" />
	</node>
	<node lat="60.519300000030995" lon="4.903391659120168" id="-37303">
		<tag k="name" v="Sælvågen" />
		<tag k="natural" v="bay" />
		<tag k="ssr:stedsnr" v="227808" />
	</node>
	<node lat="60.312533334715106" lon="4.934072218004511" id="-37305">
		<tag k="name" v="Nordstovnen" />
		<tag k="natural" v="cape" />
		<tag k="ssr:stedsnr" v="227812" />
	</node>
	<node lat="60.310047220430846" lon="4.957305547458907" id="-37307">
		<tag k="name" v="Kobbavågen" />
		<tag k="natural" v="bay" />
		<tag k="ssr:stedsnr" v="227831" />
	</node>
	<node lat="60.31259721784907" lon="4.963902774682195" id="-37308">
		<tag k="name" v="Narøyvågen" />
		<tag k="natural" v="bay" />
		<tag k="ssr:stedsnr" v="227832" />
	</node>
	<node lat="60.35599444333422" lon="5.158983342210804" id="-37311">
		<tag k="name" v="Kylleren" />
		<tag k="natural" v="strait" />
		<tag k="ssr:stedsnr" v="227983" />
	</node>
	<node lat="60.35871666345416" lon="5.160291664345126" id="-37312">
		<tag k="name" v="Bysundet" />
		<tag k="natural" v="strait" />
		<tag k="ssr:stedsnr" v="227985" />
	</node>
	<node lat="60.67043333660505" lon="4.76574166627084" id="-37313">
		<tag k="fixme" v="consider seamark:type=rock or natural=shoal" />
		<tag k="name" v="Nordra Trælevikskjeret" />
		<tag k="place" v="islet" />
		<tag k="ssr:stedsnr" v="227987" />
	</node>
	<node lat="60.398741669765876" lon="4.985191671625099" id="-37319">
		<tag k="name" v="Midtneset" />
		<tag k="natural" v="cape" />
		<tag k="ssr:stedsnr" v="228487" />
	</node>
	<node lat="60.54633611029285" lon="4.823422230748725" id="-37322">
		<tag k="name" v="Klenasundet" />
		<tag k="natural" v="strait" />
		<tag k="ssr:stedsnr" v="228531" />
	</node>
	<node lat="60.29789166834436" lon="4.973436114365403" id="-37327">
		<tag k="name" v="Buoldesvika" />
		<tag k="natural" v="bay" />
		<tag k="ssr:stedsnr" v="228804" />
	</node>
	<node lat="60.230733334993566" lon="5.213302774680794" id="-37335">
		<tag k="name" v="Buøyvågen" />
		<tag k="natural" v="bay" />
		<tag k="ssr:stedsnr" v="228912" />
	</node>
	<node lat="60.20692777901091" lon="5.159319452308939" id="-37336">
		<tag k="name" v="Skitnavika" />
		<tag k="natural" v="bay" />
		<tag k="ssr:stedsnr" v="228933" />
	</node>
	<node lat="60.174972223640296" lon="5.112363883376764" id="-37337">
		<tag k="name" v="Laksvågen" />
		<tag k="natural" v="bay" />
		<tag k="ssr:stedsnr" v="228981" />
	</node>
	<node lat="60.188347223704596" lon="5.084825003555467" id="-37338">
		<tag k="name" v="Grønevika" />
		<tag k="natural" v="bay" />
		<tag k="ssr:stedsnr" v="228986" />
	</node>
	<node lat="60.183266664990285" lon="5.146855548114571" id="-37339">
		<tag k="name" v="Laksvågen" />
		<tag k="natural" v="bay" />
		<tag k="ssr:stedsnr" v="228990" />
	</node>
	<node lat="60.4694027750443" lon="4.931997219637243" id="-37341">
		<tag k="name" v="Gardsnesvika" />
		<tag k="natural" v="bay" />
		<tag k="ssr:stedsnr" v="449359" />
	</node>
	<node lat="60.21093055585519" lon="5.065588884990652" id="-37343">
		<tag k="name" v="Dotholmen" />
		<tag k="place" v="islet" />
		<tag k="ssr:stedsnr" v="450282" />
	</node>
	<node lat="60.49954166733926" lon="4.8992000013333525" id="-37344">
		<tag k="name" v="Dyrøyna" />
		<tag k="place" v="islet" />
		<tag k="ssr:stedsnr" v="450999" />
	</node>
	<node lat="60.24413055731585" lon="4.974997214558907" id="-37345">
		<tag k="name" v="Telavågen" />
		<tag k="natural" v="bay" />
		<tag k="ssr:stedsnr" v="247521" />
	</node>
	<node lat="60.20473611323877" lon="5.033930559456359" id="-37347">
		<tag k="name" v="Englabogen" />
		<tag k="natural" v="bay" />
		<tag k="ssr:stedsnr" v="247669" />
	</node>
	<node lat="60.216752778801514" lon="5.060733335346831" id="-37348">
		<tag k="name" v="Store Ramsholmen" />
		<tag k="place" v="islet" />
		<tag k="ssr:stedsnr" v="247675" />
	</node>
	<node lat="60.22643611449209" lon="5.188358332403996" id="-37351">
		<tag k="name" v="Kalsneset" />
		<tag k="natural" v="cape" />
		<tag k="ssr:stedsnr" v="247812" />
	</node>
	<node lat="60.49599166618466" lon="4.875238884178271" id="-37353">
		<tag k="name" v="Kvitingsflua" />
		<tag k="natural" v="shoal" />
		<tag k="place" v="locality" />
		<tag k="ssr:stedsnr" v="248219" />
	</node>
	<node lat="60.48496111219406" lon="4.932263883208232" id="-37354">
		<tag k="name" v="Toftosen" />
		<tag k="natural" v="strait" />
		<tag k="ssr:stedsnr" v="248226" />
	</node>
	<node lat="60.406663890033144" lon="4.936677776129789" id="-37356">
		<tag k="name" v="Taren" />
		<tag k="natural" v="shoal" />
		<tag k="place" v="locality" />
		<tag k="ssr:stedsnr" v="248173" />
	</node>
	<node lat="60.4151277813777" lon="5.01105000591299" id="-37358">
		<tag k="name" v="Tranneset" />
		<tag k="natural" v="cape" />
		<tag k="ssr:stedsnr" v="248176" />
	</node>
	<node lat="60.38363610756484" lon="4.935216669024548" id="-37359">
		<tag k="name" v="Leiholmen" />
		<tag k="place" v="islet" />
		<tag k="ssr:stedsnr" v="248308" />
	</node>
	<node lat="60.283691668009524" lon="4.994083333546039" id="-37361">
		<tag k="name" v="Brotet" />
		<tag k="natural" v="cape" />
		<tag k="ssr:stedsnr" v="248421" />
	</node>
	<node lat="60.29000833040151" lon="4.996747226210112" id="-37362">
		<tag k="name" v="Lauvøyna" />
		<tag k="place" v="islet" />
		<tag k="ssr:stedsnr" v="248428" />
	</node>
	<node lat="60.30605555275426" lon="5.061350006619415" id="-37363">
		<tag k="name" v="Fjellspollen" />
		<tag k="natural" v="bay" />
		<tag k="ssr:stedsnr" v="248454" />
	</node>
	<node lat="60.2526944462002" lon="4.957249998026052" id="-37364">
		<tag k="name" v="Ommundsholmen" />
		<tag k="place" v="islet" />
		<tag k="ssr:stedsnr" v="248457" />
	</node>
	<node lat="60.39933333780725" lon="5.104411113001795" id="-37367">
		<tag k="name" v="Lauvholmen" />
		<tag k="place" v="islet" />
		<tag k="ssr:stedsnr" v="248609" />
	</node>
	<node lat="60.34796666413186" lon="5.123858328071117" id="-37368">
		<tag k="name" v="Geitavikneset" />
		<tag k="natural" v="cape" />
		<tag k="ssr:stedsnr" v="248699" />
	</node>
	<node lat="60.336666666507355" lon="5.176758342292455" id="-37370">
		<tag k="name" v="Gavlen" />
		<tag k="natural" v="cape" />
		<tag k="ssr:stedsnr" v="248818" />
	</node>
	<node lat="60.29146111490548" lon="5.176686117214796" id="-37371">
		<tag k="name" v="Alvøyna" />
		<tag k="place" v="island" />
		<tag k="ssr:stedsnr" v="248851" />
	</node>
	<node lat="60.30397221973017" lon="5.177888880140218" id="-37372">
		<tag k="name" v="Glåmsneset" />
		<tag k="natural" v="cape" />
		<tag k="ssr:stedsnr" v="248864" />
	</node>
	<node lat="60.72201944516334" lon="4.719525003650096" id="-37374">
		<tag k="name" v="Håskjeret" />
		<tag k="place" v="islet" />
		<tag k="ssr:stedsnr" v="248912" />
	</node>
	<node lat="60.21235833236282" lon="5.053441659106081" id="-37381">
		<tag k="name" v="Porsvika" />
		<tag k="natural" v="bay" />
		<tag k="ssr:stedsnr" v="267082" />
	</node>
	<node lat="60.201774995778095" lon="5.075483337196154" id="-37382">
		<tag k="name" v="Steinslandsflua" />
		<tag k="natural" v="shoal" />
		<tag k="place" v="locality" />
		<tag k="ssr:stedsnr" v="267085" />
	</node>
	<node lat="60.44028333248056" lon="4.9111555591425065" id="-37384">
		<tag k="name" v="Brakholmen" />
		<tag k="place" v="islet" />
		<tag k="ssr:stedsnr" v="267927" />
	</node>
	<node lat="60.16618055522421" lon="4.983063881557512" id="-37385">
		<tag k="name" v="Lyrodden" />
		<tag k="place" v="islet" />
		<tag k="ssr:stedsnr" v="268106" />
	</node>
	<node lat="60.162499996971945" lon="5.060691663559079" id="-37386">
		<tag k="name" v="Stongarholmane" />
		<tag k="place" v="islet" />
		<tag k="ssr:stedsnr" v="268112" />
	</node>
	<node lat="60.257827780530675" lon="4.9561638913510695" id="-37387">
		<tag k="name" v="Søre Knappen" />
		<tag k="natural" v="cape" />
		<tag k="ssr:stedsnr" v="268229" />
	</node>
	<node lat="60.22626944320749" lon="5.004449996995561" id="-37388">
		<tag k="name" v="Vomba" />
		<tag k="natural" v="bay" />
		<tag k="ssr:stedsnr" v="268236" />
	</node>
	<node lat="60.236588884739284" lon="5.06025000297833" id="-37389">
		<tag k="name" v="Nyvågsneset" />
		<tag k="natural" v="cape" />
		<tag k="ssr:stedsnr" v="268288" />
	</node>
	<node lat="60.5329472190585" lon="4.856911113305435" id="-37391">
		<tag k="name" v="Kjetangen" />
		<tag k="natural" v="cape" />
		<tag k="ssr:stedsnr" v="287096" />
	</node>
	<node lat="60.5355388912532" lon="4.834772217596689" id="-37392">
		<tag k="name" v="Vestre Blomholmen" />
		<tag k="place" v="islet" />
		<tag k="ssr:stedsnr" v="287098" />
	</node>
	<node lat="60.668244449060154" lon="4.752683339890958" id="-37397">
		<tag k="name" v="Lisla Lyngøyna" />
		<tag k="place" v="island" />
		<tag k="ssr:stedsnr" v="287482" />
	</node>
	<node lat="60.60668333515399" lon="4.763344448673412" id="-37398">
		<tag k="name" v="Skjoldøyna" />
		<tag k="place" v="island" />
		<tag k="ssr:stedsnr" v="287807" />
	</node>
	<node lat="60.24340833289493" lon="5.066333331555831" id="-37399">
		<tag k="name" v="Årvika" />
		<tag k="natural" v="bay" />
		<tag k="ssr:stedsnr" v="287811" />
	</node>
	<node lat="60.54805277744755" lon="4.806319450963598" id="-37400">
		<tag k="name" v="Revet" />
		<tag k="natural" v="cape" />
		<tag k="ssr:stedsnr" v="288006" />
	</node>
	<node lat="60.30583611195587" lon="4.941163890495574" id="-37401">
		<tag k="name" v="Kylleren" />
		<tag k="natural" v="bay" />
		<tag k="ssr:stedsnr" v="288011" />
	</node>
	<node lat="60.4589083308435" lon="4.985791675560831" id="-37403">
		<tag k="name" v="Kvarvenden" />
		<tag k="natural" v="cape" />
		<tag k="ssr:stedsnr" v="288034" />
	</node>
	<node lat="60.348091668731186" lon="4.921527773717033" id="-37404">
		<tag k="name" v="Krabbakeila" />
		<tag k="natural" v="bay" />
		<tag k="ssr:stedsnr" v="288095" />
	</node>
	<node lat="60.358174996582925" lon="4.942602769521995" id="-37405">
		<tag k="name" v="Breivika" />
		<tag k="natural" v="bay" />
		<tag k="ssr:stedsnr" v="288099" />
	</node>
	<node lat="60.56579444240278" lon="4.790952776131472" id="-37409">
		<tag k="name" v="Sandkeila" />
		<tag k="natural" v="bay" />
		<tag k="ssr:stedsnr" v="288107" />
	</node>
	<node lat="60.6585333295579" lon="4.814066667506725" id="-37411">
		<tag k="name" v="Storevardneset" />
		<tag k="natural" v="cape" />
		<tag k="ssr:stedsnr" v="288133" />
	</node>
	<node lat="60.65254444591379" lon="4.823730562671799" id="-37412">
		<tag k="name" v="Kjeneset" />
		<tag k="natural" v="cape" />
		<tag k="ssr:stedsnr" v="288183" />
	</node>
	<node lat="60.28530833344462" lon="5.084900005094942" id="-37414">
		<tag k="name" v="Tellneset" />
		<tag k="natural" v="cape" />
		<tag k="ssr:stedsnr" v="288303" />
	</node>
	<node lat="60.41563610840505" lon="4.930163894407042" id="-37415">
		<tag k="name" v="Smørvikane" />
		<tag k="natural" v="bay" />
		<tag k="ssr:stedsnr" v="288305" />
	</node>
	<node lat="60.3147361116631" lon="5.159227778645809" id="-37416">
		<tag k="name" v="Skjervikneset" />
		<tag k="natural" v="cape" />
		<tag k="ssr:stedsnr" v="288327" />
	</node>
	<node lat="60.30565000043241" lon="5.173188885827358" id="-37418">
		<tag k="name" v="Notaneset" />
		<tag k="natural" v="cape" />
		<tag k="ssr:stedsnr" v="288332" />
	</node>
	<node lat="60.59284166574997" lon="4.764747227829051" id="-37422">
		<tag k="name" v="Buholmen" />
		<tag k="place" v="islet" />
		<tag k="ssr:stedsnr" v="288376" />
	</node>
	<node lat="60.32993333210787" lon="4.9826666639947215" id="-37423">
		<tag k="name" v="Kyrkjeholmane" />
		<tag k="place" v="islet" />
		<tag k="ssr:stedsnr" v="288377" />
	</node>
	<node lat="60.64129444230906" lon="4.730180550936372" id="-37424">
		<tag k="name" v="Smakko" />
		<tag k="natural" v="shoal" />
		<tag k="place" v="locality" />
		<tag k="ssr:stedsnr" v="288382" />
	</node>
	<node lat="60.35770833474018" lon="4.972727777854606" id="-37425">
		<tag k="name" v="Nyo" />
		<tag k="natural" v="cape" />
		<tag k="ssr:stedsnr" v="288394" />
	</node>
	<node lat="60.39186944226037" lon="4.968030555377623" id="-37428">
		<tag k="name" v="Eidesneset" />
		<tag k="natural" v="cape" />
		<tag k="ssr:stedsnr" v="288405" />
	</node>
	<node lat="60.36864722268238" lon="4.94568611895361" id="-37429">
		<tag k="name" v="Søre Vågen" />
		<tag k="natural" v="bay" />
		<tag k="ssr:stedsnr" v="288407" />
	</node>
	<node lat="60.68850555124749" lon="4.736869439786357" id="-37430">
		<tag k="name" v="Stakkssundet" />
		<tag k="natural" v="strait" />
		<tag k="ssr:stedsnr" v="288411" />
	</node>
	<node lat="60.514494440201275" lon="4.861180547287127" id="-37431">
		<tag k="name" v="Grunnevika" />
		<tag k="natural" v="bay" />
		<tag k="ssr:stedsnr" v="288416" />
	</node>
	<node lat="60.5510999970795" lon="4.795983329722536" id="-37432">
		<tag k="name" v="Skogshola" />
		<tag k="natural" v="bay" />
		<tag k="ssr:stedsnr" v="288433" />
	</node>
	<node lat="60.35970555806726" lon="5.0538944447620295" id="-37437">
		<tag k="name" v="Lonane" />
		<tag k="natural" v="bay" />
		<tag k="ssr:stedsnr" v="288495" />
	</node>
	<node lat="60.33337222269239" lon="5.1506527692474515" id="-37439">
		<tag k="fixme" v="consider seamark:type=rock or natural=shoal" />
		<tag k="name" v="Siggeskjeret" />
		<tag k="place" v="islet" />
		<tag k="ssr:stedsnr" v="288736" />
	</node>
	<node lat="60.4693083371294" lon="4.964408332083655" id="-37441">
		<tag k="name" v="Syrtangen" />
		<tag k="natural" v="cape" />
		<tag k="ssr:stedsnr" v="288778" />
	</node>
	<node lat="60.53342222221361" lon="4.907844438510982" id="-37442">
		<tag k="name" v="Sandknappbukta" />
		<tag k="natural" v="bay" />
		<tag k="ssr:stedsnr" v="288797" />
	</node>
	<node lat="60.487299492188214" lon="4.920926441822601" id="-37443">
		<tag k="fixme" v="consider seamark:type=rock or natural=shoal" />
		<tag k="name" v="Kista" />
		<tag k="place" v="islet" />
		<tag k="ssr:stedsnr" v="288801" />
	</node>
	<node lat="60.372313888053256" lon="5.098066673819554" id="-37446">
		<tag k="name" v="Gangstøvika" />
		<tag k="natural" v="bay" />
		<tag k="ssr:stedsnr" v="288927" />
	</node>
	<node lat="60.378100003176286" lon="5.036194446632318" id="-37448">
		<tag k="name" v="Fjæreidholmane" />
		<tag k="place" v="islet" />
		<tag k="ssr:stedsnr" v="288932" />
	</node>
	<node lat="60.469830559909" lon="4.92535277378624" id="-37455">
		<tag k="name" v="Kylpa" />
		<tag k="natural" v="bay" />
		<tag k="ssr:stedsnr" v="288827" />
	</node>
	<node lat="60.667274996009226" lon="4.791308340563327" id="-37457">
		<tag k="name" v="Tikevikneset" />
		<tag k="natural" v="cape" />
		<tag k="ssr:stedsnr" v="288819" />
	</node>
	<node lat="60.40618055896326" lon="5.094538882542648" id="-37458">
		<tag k="name" v="Tangen" />
		<tag k="natural" v="cape" />
		<tag k="ssr:stedsnr" v="288881" />
	</node>
	<node lat="60.395386106963464" lon="5.119358333960938" id="-37459">
		<tag k="name" v="Notholmsundet" />
		<tag k="natural" v="strait" />
		<tag k="ssr:stedsnr" v="288883" />
	</node>
	<node lat="60.39580833174683" lon="5.091963894749884" id="-37460">
		<tag k="name" v="Ættesundosen" />
		<tag k="natural" v="strait" />
		<tag k="ssr:stedsnr" v="288894" />
	</node>
	<node lat="60.227311112688234" lon="5.171100000726388" id="-37462">
		<tag k="name" v="Lyngholmen" />
		<tag k="place" v="islet" />
		<tag k="ssr:stedsnr" v="289931" />
	</node>
	<node lat="60.19883333755822" lon="5.079988891490607" id="-37465">
		<tag k="name" v="Grunnevika" />
		<tag k="natural" v="bay" />
		<tag k="ssr:stedsnr" v="289992" />
	</node>
	<node lat="60.55833611133472" lon="4.867075005755643" id="-37469">
		<tag k="name" v="Nåleranen" />
		<tag k="natural" v="cape" />
		<tag k="old_name" v="Helleskjeret" />
		<tag k="ssr:stedsnr" v="465046" />
	</node>
	<node lat="60.460974998963536" lon="4.917483329298405" id="-37473">
		<tag k="fixme" v="consider seamark:type=rock or natural=shoal" />
		<tag k="name" v="Skråpen" />
		<tag k="place" v="islet" />
		<tag k="ssr:stedsnr" v="308103" />
	</node>
	<node lat="60.44658611235604" lon="4.870688883116858" id="-37474">
		<tag k="fixme" v="consider seamark:type=rock or natural=shoal" />
		<tag k="name" v="Sandøyskjera" />
		<tag k="place" v="islet" />
		<tag k="ssr:stedsnr" v="308108" />
	</node>
	<node lat="60.45251666692366" lon="4.899819445904416" id="-37476">
		<tag k="name" v="Knappane" />
		<tag k="place" v="islet" />
		<tag k="ssr:stedsnr" v="308223" />
	</node>
	<node lat="60.391591670667054" lon="4.941377769697875" id="-37480">
		<tag k="name" v="Svekksteinen" />
		<tag k="place" v="islet" />
		<tag k="ssr:stedsnr" v="308292" />
	</node>
	<node lat="60.29678889049689" lon="5.005175008385114" id="-37482">
		<tag k="name" v="Hjartøyna" />
		<tag k="place" v="islet" />
		<tag k="ssr:stedsnr" v="308405" />
	</node>
	<node lat="60.2994027766673" lon="4.9469083324576495" id="-37484">
		<tag k="name" v="Klumbraholmen" />
		<tag k="place" v="islet" />
		<tag k="ssr:stedsnr" v="308412" />
	</node>
	<node lat="60.40083888948561" lon="4.98815834036644" id="-37486">
		<tag k="name" v="Kårtveitpollen" />
		<tag k="natural" v="bay" />
		<tag k="ssr:stedsnr" v="308305" />
	</node>
	<node lat="60.401955559133995" lon="4.9335027789910955" id="-37487">
		<tag k="name" v="Havrøyna" />
		<tag k="place" v="islet" />
		<tag k="ssr:stedsnr" v="308308" />
	</node>
	<node lat="60.38179999684312" lon="5.03821110335766" id="-37489">
		<tag k="bay" v="fjord" />
		<tag k="name" v="Fjæreidpollen" />
		<tag k="natural" v="bay" />
		<tag k="ssr:stedsnr" v="308343" />
	</node>
	<node lat="60.28288333019771" lon="4.947888891099219" id="-37491">
		<tag k="name" v="Skaget" />
		<tag k="natural" v="cape" />
		<tag k="ssr:stedsnr" v="308777" />
	</node>
	<node lat="60.234538272179364" lon="5.178149519113687" id="-37493">
		<tag k="name" v="Lerøyna" />
		<tag k="place" v="island" />
		<tag k="ssr:stedsnr" v="308838" />
	</node>
	<node lat="60.423666663903056" lon="4.960319443996951" id="-37494">
		<tag k="name" v="Landrovågen" />
		<tag k="natural" v="bay" />
		<tag k="ssr:stedsnr" v="309205" />
	</node>
	<node lat="60.44403333484737" lon="4.9259805585915855" id="-37495">
		<tag k="name" v="Kalvaneset" />
		<tag k="natural" v="cape" />
		<tag k="ssr:stedsnr" v="309185" />
	</node>
	<node lat="60.44164444455346" lon="4.920336115658398" id="-37496">
		<tag k="name" v="Gròtevika" />
		<tag k="natural" v="bay" />
		<tag k="ssr:stedsnr" v="309186" />
	</node>
	<node lat="60.42737499897819" lon="4.882661102592184" id="-37497">
		<tag k="fixme" v="consider seamark:type=rock or natural=shoal" />
		<tag k="name" v="Svartskjera" />
		<tag k="place" v="islet" />
		<tag k="ssr:stedsnr" v="309193" />
	</node>
	<node lat="60.32009166659088" lon="4.9805361067389" id="-37498">
		<tag k="name" v="Flatholmen" />
		<tag k="place" v="islet" />
		<tag k="ssr:stedsnr" v="309349" />
	</node>
	<node lat="60.64693888730757" lon="4.724647224423364" id="-37503">
		<tag k="name" v="Såtefluene" />
		<tag k="natural" v="shoal" />
		<tag k="place" v="locality" />
		<tag k="ssr:stedsnr" v="309637" />
	</node>
	<node lat="60.333544445792526" lon="5.154344438880694" id="-37505">
		<tag k="fixme" v="consider seamark:type=rock or natural=shoal" />
		<tag k="name" v="Kaggen" />
		<tag k="place" v="islet" />
		<tag k="ssr:stedsnr" v="309787" />
	</node>
	<node lat="60.69043611506287" lon="4.749380547012918" id="-37506">
		<tag k="name" v="Sildeneset" />
		<tag k="natural" v="cape" />
		<tag k="ssr:stedsnr" v="309880" />
	</node>
	<node lat="60.68633888671748" lon="4.72731666383531" id="-37507">
		<tag k="name" v="Storkråko" />
		<tag k="place" v="islet" />
		<tag k="ssr:stedsnr" v="309881" />
	</node>
	<node lat="60.388488890825386" lon="5.152802778904209" id="-37509">
		<tag k="name" v="Knappen" />
		<tag k="natural" v="cape" />
		<tag k="ssr:stedsnr" v="310612" />
	</node>
	<node lat="60.64278888838178" lon="4.73517777105344" id="-37510">
		<tag k="name" v="Skarvenøvlingen" />
		<tag k="place" v="islet" />
		<tag k="ssr:stedsnr" v="310626" />
	</node>
	<node lat="60.54215833473736" lon="4.8220111153021765" id="-37511">
		<tag k="name" v="Ovika" />
		<tag k="natural" v="bay" />
		<tag k="ssr:stedsnr" v="310532" />
	</node>
	<node lat="60.57993889093416" lon="4.79473889136895" id="-37513">
		<tag k="name" v="Krabbevika" />
		<tag k="natural" v="bay" />
		<tag k="ssr:stedsnr" v="469120" />
	</node>
	<node lat="60.291475002860075" lon="5.150458334580245" id="-37517">
		<tag k="name" v="Skjervika" />
		<tag k="natural" v="bay" />
		<tag k="ssr:stedsnr" v="469228" />
	</node>
	<node lat="60.251133331503524" lon="5.213319445061058" id="-37518">
		<tag k="name" v="Lauvholmen" />
		<tag k="place" v="islet" />
		<tag k="ssr:stedsnr" v="469233" />
	</node>
	<node lat="60.250072221460684" lon="5.209697224954125" id="-37523">
		<tag k="fixme" v="consider seamark:type=rock or natural=shoal" />
		<tag k="name" v="Austra Lauvholmskjeret" />
		<tag k="place" v="islet" />
		<tag k="ssr:stedsnr" v="469149" />
	</node>
	<node lat="60.239863888603445" lon="5.20574166516045" id="-37524">
		<tag k="name" v="Dalsfjæra" />
		<tag k="natural" v="bay" />
		<tag k="ssr:stedsnr" v="469153" />
	</node>
	<node lat="60.24871110816382" lon="5.22297221579409" id="-37525">
		<tag k="name" v="Kjerringavika" />
		<tag k="natural" v="bay" />
		<tag k="ssr:stedsnr" v="469156" />
	</node>
	<node lat="60.68776110839107" lon="4.723216662032163" id="-37535">
		<tag k="name" v="Stakken" />
		<tag k="natural" v="cape" />
		<tag k="ssr:stedsnr" v="469456" />
	</node>
	<node lat="60.20950555747741" lon="5.056738884217449" id="-37536">
		<tag k="name" v="Toftatangen" />
		<tag k="natural" v="cape" />
		<tag k="ssr:stedsnr" v="469591" />
	</node>
	<node lat="60.18626110820431" lon="5.010022213880926" id="-37537">
		<tag k="name" v="Sandøyskaget" />
		<tag k="natural" v="cape" />
		<tag k="ssr:stedsnr" v="469548" />
	</node>
	<node lat="60.226947218147664" lon="5.061311108083198" id="-37540">
		<tag k="name" v="Vorlandsvika" />
		<tag k="natural" v="bay" />
		<tag k="ssr:stedsnr" v="469634" />
	</node>
	<node lat="60.23642500079297" lon="5.058605551194809" id="-37541">
		<tag k="name" v="Nyevågsskaget" />
		<tag k="natural" v="cape" />
		<tag k="ssr:stedsnr" v="469641" />
	</node>
	<node lat="60.228330557113026" lon="5.056524993097731" id="-37542">
		<tag k="name" v="Knuskenova" />
		<tag k="natural" v="cape" />
		<tag k="ssr:stedsnr" v="469643" />
	</node>
	<node lat="60.175794447512686" lon="5.0185499956544195" id="-37546">
		<tag k="name" v="Opsøysundet" />
		<tag k="natural" v="strait" />
		<tag k="ssr:stedsnr" v="469602" />
	</node>
	<node lat="60.16126111453869" lon="5.050616665861762" id="-37547">
		<tag k="name" v="Stålhatten" />
		<tag k="place" v="islet" />
		<tag k="ssr:stedsnr" v="469607" />
	</node>
	<node lat="60.30929166815487" lon="4.9744666638452175" id="-37549">
		<tag k="name" v="Træsvika" />
		<tag k="natural" v="bay" />
		<tag k="ssr:stedsnr" v="469835" />
	</node>
	<node lat="60.48780277682112" lon="4.872566661167513" id="-37553">
		<tag k="name" v="Kvannflua" />
		<tag k="natural" v="shoal" />
		<tag k="place" v="locality" />
		<tag k="ssr:stedsnr" v="327360" />
	</node>
	<node lat="60.54440555881906" lon="4.804719439618704" id="-37554">
		<tag k="name" v="Austre Odden" />
		<tag k="natural" v="cape" />
		<tag k="ssr:stedsnr" v="470051" />
	</node>
	<node lat="60.63722222081785" lon="4.800641675912684" id="-37556">
		<tag k="name" v="Hanevika" />
		<tag k="natural" v="bay" />
		<tag k="ssr:stedsnr" v="470150" />
	</node>
	<node lat="60.65828332880668" lon="4.823680550965769" id="-37557">
		<tag k="name" v="Kjerringvikneset" />
		<tag k="natural" v="cape" />
		<tag k="ssr:stedsnr" v="470159" />
	</node>
	<node lat="60.569913887950804" lon="4.8205277822449055" id="-37558">
		<tag k="name" v="Førevika" />
		<tag k="natural" v="bay" />
		<tag k="ssr:stedsnr" v="470083" />
	</node>
	<node lat="60.659450001812644" lon="4.792333334035294" id="-37560">
		<tag k="name" v="Knappen" />
		<tag k="natural" v="cape" />
		<tag k="ssr:stedsnr" v="328702" />
	</node>
	<node lat="60.694355554802264" lon="4.754552785026018" id="-37561">
		<tag k="name" v="Tverrflua" />
		<tag k="natural" v="shoal" />
		<tag k="place" v="locality" />
		<tag k="ssr:stedsnr" v="328705" />
	</node>
	<node lat="60.63723055135758" lon="4.75867500314035" id="-37562">
		<tag k="fixme" v="consider seamark:type=rock or natural=shoal" />
		<tag k="name" v="Utfarskjeret" />
		<tag k="place" v="islet" />
		<tag k="ssr:stedsnr" v="328714" />
	</node>
	<node lat="60.597294446803616" lon="4.790269443374071" id="-37563">
		<tag k="name" v="Søre Sandvågen" />
		<tag k="natural" v="bay" />
		<tag k="ssr:stedsnr" v="328604" />
	</node>
	<node lat="60.606186110611105" lon="4.7962805544079306" id="-37564">
		<tag k="name" v="Søra Kvalvika" />
		<tag k="natural" v="bay" />
		<tag k="ssr:stedsnr" v="328607" />
	</node>
	<node lat="60.4062333305826" lon="4.963747220029151" id="-37565">
		<tag k="name" v="Teistholmen" />
		<tag k="place" v="islet" />
		<tag k="ssr:stedsnr" v="328824" />
	</node>
	<node lat="60.505936112726836" lon="4.842297230687023" id="-37566">
		<tag k="fixme" v="consider seamark:type=rock or natural=shoal" />
		<tag k="name" v="Brunskjeret" />
		<tag k="place" v="islet" />
		<tag k="ssr:stedsnr" v="470101" />
	</node>
	<node lat="60.635472566177015" lon="4.7884595328483" id="-37567">
		<tag k="name" v="Svintræholmane" />
		<tag k="place" v="islet" />
		<tag k="ssr:stedsnr" v="470162" />
	</node>
	<node lat="60.647297222565385" lon="4.824869450252287" id="-37568">
		<tag k="name" v="Vassholmen" />
		<tag k="place" v="islet" />
		<tag k="ssr:stedsnr" v="470167" />
	</node>
	<node lat="60.16456944344787" lon="5.08158888204751" id="-37569">
		<tag k="name" v="Træsvikflua" />
		<tag k="natural" v="shoal" />
		<tag k="place" v="locality" />
		<tag k="ssr:stedsnr" v="329125" />
	</node>
	<node lat="60.603202781440615" lon="4.788613882136115" id="-37570">
		<tag k="fixme" v="consider seamark:type=rock or natural=shoal" />
		<tag k="name" v="Søre Inneskiten" />
		<tag k="place" v="islet" />
		<tag k="ssr:stedsnr" v="470185" />
	</node>
	<node lat="60.3607333357518" lon="5.078050000507499" id="-37573">
		<tag k="name" v="Træsvika" />
		<tag k="natural" v="bay" />
		<tag k="ssr:stedsnr" v="470244" />
	</node>
	<node lat="60.42338889113367" lon="4.986163885115314" id="-37578">
		<tag k="name" v="Breivikneset" />
		<tag k="natural" v="cape" />
		<tag k="ssr:stedsnr" v="470309" />
	</node>
	<node lat="60.24289722368944" lon="5.062891664510517" id="-37579">
		<tag k="name" v="Eidespollen" />
		<tag k="natural" v="bay" />
		<tag k="ssr:stedsnr" v="329261" />
	</node>
	<node lat="60.25071388596573" lon="4.96936110588576" id="-37580">
		<tag k="name" v="Rynjelsosen" />
		<tag k="natural" v="strait" />
		<tag k="ssr:stedsnr" v="329267" />
	</node>
	<node lat="60.254361112725576" lon="4.985283332278374" id="-37581">
		<tag k="name" v="Stekholmen" />
		<tag k="place" v="islet" />
		<tag k="ssr:stedsnr" v="329270" />
	</node>
	<node lat="60.69118889005606" lon="4.7100222215757945" id="-37582">
		<tag k="name" v="Juvika" />
		<tag k="natural" v="bay" />
		<tag k="ssr:stedsnr" v="470257" />
	</node>
	<node lat="60.412705551647775" lon="4.911308339550918" id="-37584">
		<tag k="name" v="Rakabugen" />
		<tag k="natural" v="bay" />
		<tag k="ssr:stedsnr" v="470327" />
	</node>
	<node lat="60.50947222270077" lon="4.895141665186086" id="-37585">
		<tag k="name" v="Verpet" />
		<tag k="natural" v="bay" />
		<tag k="ssr:stedsnr" v="470335" />
	</node>
	<node lat="60.55449447795262" lon="4.886150766435333" id="-37586">
		<tag k="alt_name" v="Ljøsøytangen" />
		<tag k="name" v="Søre Ljøsøytangen" />
		<tag k="natural" v="cape" />
		<tag k="ssr:stedsnr" v="470347" />
	</node>
	<node lat="60.69156389284062" lon="4.706394444496297" id="-37587">
		<tag k="name" v="Søre Oddevågen" />
		<tag k="natural" v="bay" />
		<tag k="ssr:stedsnr" v="470431" />
	</node>
	<node lat="60.56856111570457" lon="4.829513892780291" id="-37588">
		<tag k="name" v="Austevika" />
		<tag k="natural" v="bay" />
		<tag k="ssr:stedsnr" v="470439" />
	</node>
	<node lat="60.57281944606474" lon="4.806616657355889" id="-37589">
		<tag k="name" v="Kjerringavika" />
		<tag k="natural" v="bay" />
		<tag k="ssr:stedsnr" v="470442" />
	</node>
	<node lat="60.69490833692498" lon="4.744097224997523" id="-37592">
		<tag k="name" v="Skaget" />
		<tag k="natural" v="cape" />
		<tag k="ssr:stedsnr" v="470390" />
	</node>
	<node lat="60.544541669348234" lon="4.801380558786986" id="-37601">
		<tag k="name" v="Oddesundet" />
		<tag k="natural" v="strait" />
		<tag k="ssr:stedsnr" v="470451" />
	</node>
	<node lat="60.34420000164172" lon="5.116761115492992" id="-37605">
		<tag k="name" v="Øyatangen" />
		<tag k="natural" v="cape" />
		<tag k="ssr:stedsnr" v="470573" />
	</node>
	<node lat="60.62628055312961" lon="4.821866672860874" id="-37607">
		<tag k="name" v="Leirvika" />
		<tag k="natural" v="bay" />
		<tag k="ssr:stedsnr" v="470497" />
	</node>
	<node lat="60.3645638881063" lon="5.092505551050529" id="-37608">
		<tag k="name" v="Kyrkjesundet" />
		<tag k="natural" v="strait" />
		<tag k="ssr:stedsnr" v="470500" />
	</node>
	<node lat="60.25212222416085" lon="5.040561118536214" id="-37613">
		<tag k="name" v="Træsholmen" />
		<tag k="place" v="islet" />
		<tag k="ssr:stedsnr" v="470787" />
	</node>
	<node lat="60.32120833000511" lon="4.986638884335986" id="-37614">
		<tag k="name" v="Trettholmen" />
		<tag k="place" v="islet" />
		<tag k="ssr:stedsnr" v="470840" />
	</node>
	<node lat="60.398561107172995" lon="5.099925003596845" id="-37619">
		<tag k="name" v="Hjeltaskaget" />
		<tag k="natural" v="cape" />
		<tag k="ssr:stedsnr" v="470886" />
	</node>
	<node lat="60.22609722429967" lon="5.174244449215278" id="-37620">
		<tag k="name" v="Brakholmen" />
		<tag k="place" v="islet" />
		<tag k="ssr:stedsnr" v="470895" />
	</node>
	<node lat="60.227625003980734" lon="5.179619449455444" id="-37621">
		<tag k="name" v="Grøningen" />
		<tag k="place" v="islet" />
		<tag k="ssr:stedsnr" v="470898" />
	</node>
	<node lat="60.3830305553917" lon="5.05963888063195" id="-37625">
		<tag k="name" v="Nordrevågen" />
		<tag k="natural" v="bay" />
		<tag k="ssr:stedsnr" v="470935" />
	</node>
	<node lat="60.37347222304305" lon="5.0776638840397545" id="-37626">
		<tag k="name" v="Gangstøosen" />
		<tag k="natural" v="strait" />
		<tag k="ssr:stedsnr" v="470939" />
	</node>
	<node lat="60.43693610899816" lon="5.007519435799619" id="-37631">
		<tag k="name" v="Øykjaneset" />
		<tag k="natural" v="cape" />
		<tag k="ssr:stedsnr" v="470958" />
	</node>
	<node lat="60.1777550518626" lon="5.1297757725145425" id="-37632">
		<tag k="name" v="Ytsta Fiksneset" />
		<tag k="natural" v="cape" />
		<tag k="ssr:stedsnr" v="470990" />
	</node>
	<node lat="60.34695832879176" lon="5.163097218840332" id="-37634">
		<tag k="name" v="Kiparneset" />
		<tag k="natural" v="cape" />
		<tag k="ssr:stedsnr" v="470997" />
	</node>
	<node lat="60.172683334806024" lon="5.109619436386427" id="-37635">
		<tag k="name" v="Kråkevågen" />
		<tag k="natural" v="bay" />
		<tag k="ssr:stedsnr" v="470999" />
	</node>
	<node lat="60.16910833574834" lon="5.1072333416201685" id="-37636">
		<tag k="name" v="Matholmen" />
		<tag k="place" v="islet" />
		<tag k="ssr:stedsnr" v="471000" />
	</node>
	<node lat="60.45489166919589" lon="4.962624995235044" id="-37644">
		<tag k="name" v="Svinavika" />
		<tag k="natural" v="bay" />
		<tag k="ssr:stedsnr" v="348018" />
	</node>
	<node lat="60.23969167023593" lon="5.1781138864010385" id="-37648">
		<tag k="name" v="Kverndalsholmen" />
		<tag k="place" v="island" />
		<tag k="ssr:stedsnr" v="348169" />
	</node>
	<node lat="60.36418888530783" lon="4.94489999607254" id="-37653">
		<tag k="fixme" v="consider seamark:type=rock or natural=shoal" />
		<tag k="name" v="Skvetteskjeret" />
		<tag k="place" v="islet" />
		<tag k="ssr:stedsnr" v="348064" />
	</node>
	<node lat="60.36924721875228" lon="4.9763166674161505" id="-37655">
		<tag k="name" v="Søra Eidesneset" />
		<tag k="natural" v="cape" />
		<tag k="ssr:stedsnr" v="348276" />
	</node>
	<node lat="60.367863889842496" lon="4.980272215014362" id="-37656">
		<tag k="name" v="Fossanova" />
		<tag k="natural" v="cape" />
		<tag k="ssr:stedsnr" v="348280" />
	</node>
	<node lat="60.18875277528356" lon="5.029144442864539" id="-37659">
		<tag k="fixme" v="consider seamark:type=rock or natural=shoal" />
		<tag k="name" v="Skarvaskjeret" />
		<tag k="place" v="islet" />
		<tag k="ssr:stedsnr" v="348562" />
	</node>
	<node lat="60.23685833251304" lon="4.9850249957054835" id="-37660">
		<tag k="name" v="Båarvågen" />
		<tag k="natural" v="bay" />
		<tag k="ssr:stedsnr" v="348568" />
	</node>
	<node lat="60.333724998770855" lon="5.140363893953872" id="-37663">
		<tag k="name" v="Storvika" />
		<tag k="natural" v="bay" />
		<tag k="ssr:stedsnr" v="348756" />
	</node>
	<node lat="60.337238891792836" lon="5.158302778517939" id="-37664">
		<tag k="name" v="Småsundet" />
		<tag k="natural" v="strait" />
		<tag k="ssr:stedsnr" v="348758" />
	</node>
	<node lat="60.50175555338802" lon="4.896280551168314" id="-37665">
		<tag k="name" v="Flatholmen" />
		<tag k="place" v="islet" />
		<tag k="ssr:stedsnr" v="348760" />
	</node>
	<node lat="60.61289722276073" lon="4.789980554094632" id="-37668">
		<tag k="name" v="Sandvika" />
		<tag k="natural" v="bay" />
		<tag k="ssr:stedsnr" v="348455" />
	</node>
	<node lat="60.305885348329085" lon="5.04994127183656" id="-37673">
		<tag k="name" v="Hellesvika" />
		<tag k="natural" v="bay" />
		<tag k="ssr:stedsnr" v="348655" />
	</node>
	<node lat="60.30652222329448" lon="5.046647220310905" id="-37674">
		<tag k="name" v="Pillevika" />
		<tag k="natural" v="bay" />
		<tag k="ssr:stedsnr" v="348656" />
	</node>
	<node lat="60.31444444755396" lon="5.064099992651173" id="-37676">
		<tag k="name" v="Fjellskylpa" />
		<tag k="natural" v="bay" />
		<tag k="ssr:stedsnr" v="348666" />
	</node>
	<node lat="60.303541666527735" lon="5.017402773256497" id="-37677">
		<tag k="name" v="Vætestøa" />
		<tag k="natural" v="beach" />
		<tag k="ssr:stedsnr" v="348667" />
	</node>
	<node lat="60.30473333243547" lon="5.053277786819012" id="-37678">
		<tag k="name" v="Preikestolvika" />
		<tag k="natural" v="bay" />
		<tag k="ssr:stedsnr" v="348668" />
	</node>
	<node lat="60.303633330706596" lon="5.036599997649783" id="-37679">
		<tag k="name" v="Nordvikasjøen" />
		<tag k="natural" v="bay" />
		<tag k="ssr:stedsnr" v="348670" />
	</node>
	<node lat="60.37345277872143" lon="5.115413893549222" id="-37681">
		<tag k="name" v="Grunnavågen" />
		<tag k="natural" v="bay" />
		<tag k="ssr:stedsnr" v="348907" />
	</node>
	<node lat="60.382319442621686" lon="5.101108331236592" id="-37682">
		<tag k="name" v="Breivika" />
		<tag k="natural" v="bay" />
		<tag k="ssr:stedsnr" v="348910" />
	</node>
	<node lat="60.37023888822397" lon="5.075827771646268" id="-37683">
		<tag k="fixme" v="consider seamark:type=rock or natural=shoal" />
		<tag k="name" v="Råskjeret" />
		<tag k="place" v="islet" />
		<tag k="ssr:stedsnr" v="348919" />
	</node>
	<node lat="60.54014166639689" lon="4.843586118675039" id="-37684">
		<tag k="name" v="Midtre Kollsøyvågen" />
		<tag k="natural" v="bay" />
		<tag k="ssr:stedsnr" v="348959" />
	</node>
	<node lat="60.31561111376731" lon="5.188752771759773" id="-37685">
		<tag k="fixme" v="consider seamark:type=rock or natural=shoal" />
		<tag k="name" v="Nordra Vikaskjeret" />
		<tag k="place" v="islet" />
		<tag k="ssr:stedsnr" v="348963" />
	</node>
	<node lat="60.39116944017503" lon="5.120858336115205" id="-37686">
		<tag k="name" v="Sundet" />
		<tag k="natural" v="strait" />
		<tag k="ssr:stedsnr" v="348855" />
	</node>
	<node lat="60.582669442177064" lon="4.784513880896672" id="-37687">
		<tag k="fixme" v="consider seamark:type=rock or natural=shoal" />
		<tag k="name" v="Øyskjeret" />
		<tag k="place" v="islet" />
		<tag k="ssr:stedsnr" v="349255" />
	</node>
	<node lat="60.59583055802941" lon="4.794611105664116" id="-37688">
		<tag k="fixme" v="consider seamark:type=rock or natural=shoal" />
		<tag k="name" v="Kongsskjera" />
		<tag k="place" v="islet" />
		<tag k="ssr:stedsnr" v="349268" />
	</node>
	<node lat="60.69279166880949" lon="4.6999638924105716" id="-37699">
		<tag k="name" v="Oddesundet" />
		<tag k="natural" v="strait" />
		<tag k="ssr:stedsnr" v="349507" />
	</node>
	<node lat="60.68999722603668" lon="4.712658330880952" id="-37701">
		<tag k="name" v="Stora Skarholmssundet" />
		<tag k="natural" v="strait" />
		<tag k="ssr:stedsnr" v="349513" />
	</node>
	<node lat="60.398905552528916" lon="5.1094472225489325" id="-37704">
		<tag k="name" v="Snellevika" />
		<tag k="natural" v="bay" />
		<tag k="ssr:stedsnr" v="349656" />
	</node>
	<node lat="60.468027776572136" lon="4.963002772314142" id="-37706">
		<tag k="alt_name" v="Holmen" />
		<tag k="name" v="Storholmen" />
		<tag k="place" v="islet" />
		<tag k="ssr:stedsnr" v="349817" />
	</node>
	<node lat="60.46684444576479" lon="4.929699999763635" id="-37707">
		<tag k="name" v="Lykleneset" />
		<tag k="natural" v="cape" />
		<tag k="ssr:stedsnr" v="349823" />
	</node>
	<node lat="60.304561107691875" lon="4.950744439346481" id="-37708">
		<tag k="fixme" v="consider seamark:type=rock or natural=shoal" />
		<tag k="name" v="Sandskjera" />
		<tag k="place" v="islet" />
		<tag k="ssr:stedsnr" v="349781" />
	</node>
	<node lat="60.299538889113954" lon="4.944669437630824" id="-37709">
		<tag k="name" v="Klemraholmen" />
		<tag k="place" v="islet" />
		<tag k="ssr:stedsnr" v="349789" />
	</node>
	<node lat="60.268233332085074" lon="4.954280556168355" id="-37710">
		<tag k="name" v="Nordre Søvikholmen" />
		<tag k="place" v="islet" />
		<tag k="ssr:stedsnr" v="349909" />
	</node>
	<node lat="60.227338889964784" lon="4.978308331573314" id="-37713">
		<tag k="name" v="Lutatangen" />
		<tag k="natural" v="cape" />
		<tag k="ssr:stedsnr" v="368588" />
	</node>
	<node lat="60.246155559510676" lon="5.17636944413358" id="-37714">
		<tag k="name" v="Skjerholmen" />
		<tag k="place" v="islet" />
		<tag k="ssr:stedsnr" v="368719" />
	</node>
	<node lat="60.23593610706284" lon="5.154658335160198" id="-37715">
		<tag k="name" v="Lerøyosen" />
		<tag k="natural" v="strait" />
		<tag k="ssr:stedsnr" v="368724" />
	</node>
	<node lat="60.2215444443926" lon="4.993258333636541" id="-37716">
		<tag k="name" v="Lutavika" />
		<tag k="natural" v="bay" />
		<tag k="ssr:stedsnr" v="368733" />
	</node>
	<node lat="60.4606999999333" lon="4.930008328259959" id="-37719">
		<tag k="name" v="Skorsundet" />
		<tag k="natural" v="strait" />
		<tag k="ssr:stedsnr" v="369117" />
	</node>
	<node lat="60.45384166398349" lon="4.9224027790372515" id="-37720">
		<tag k="name" v="Gloppholmen" />
		<tag k="place" v="islet" />
		<tag k="ssr:stedsnr" v="369118" />
	</node>
	<node lat="60.36334167005397" lon="4.938652776182227" id="-37722">
		<tag k="name" v="Ytste Kjeholmen" />
		<tag k="place" v="islet" />
		<tag k="ssr:stedsnr" v="369327" />
	</node>
	<node lat="60.49426666745838" lon="4.904380561557943" id="-37723">
		<tag k="name" v="Sjurholmen" />
		<tag k="place" v="islet" />
		<tag k="ssr:stedsnr" v="369203" />
	</node>
	<node lat="60.49405278095464" lon="4.896880550467573" id="-37724">
		<tag k="name" v="Børsholmen" />
		<tag k="place" v="islet" />
		<tag k="ssr:stedsnr" v="369204" />
	</node>
	<node lat="60.48207499649451" lon="4.949952769674401" id="-37725">
		<tag k="alt_name" v="Toftøy" />
		<tag k="name" v="Toftøyna" />
		<tag k="old_name" v="Toftøyni" />
		<tag k="place" v="island" />
		<tag k="ssr:stedsnr" v="369211" />
	</node>
	<node lat="60.25051944341667" lon="4.946791658700691" id="-37729">
		<tag k="name" v="Store Lambholmen" />
		<tag k="place" v="islet" />
		<tag k="ssr:stedsnr" v="369413" />
	</node>
	<node lat="60.25359444201473" lon="4.942450006395141" id="-37730">
		<tag k="name" v="Osafluene" />
		<tag k="natural" v="shoal" />
		<tag k="place" v="locality" />
		<tag k="ssr:stedsnr" v="369414" />
	</node>
	<node lat="60.26349722201212" lon="4.936758337594181" id="-37734">
		<tag k="name" v="Teistholmen" />
		<tag k="place" v="islet" />
		<tag k="ssr:stedsnr" v="369428" />
	</node>
	<node lat="60.35730833130589" lon="5.155561109125265" id="-37736">
		<tag k="name" v="Høgøyna" />
		<tag k="place" v="islet" />
		<tag k="ssr:stedsnr" v="369710" />
	</node>
	<node lat="60.35353153586765" lon="5.1036384114812305" id="-37737">
		<tag k="name" v="Bildøyna" />
		<tag k="place" v="island" />
		<tag k="ssr:stedsnr" v="369715" />
	</node>
	<node lat="60.15629444671084" lon="5.009655547676207" id="-37738">
		<tag k="name" v="Tekslo" />
		<tag k="place" v="island" />
		<tag k="ssr:stedsnr" v="369717" />
	</node>
	<node lat="60.32612778203802" lon="5.168097223437138" id="-37739">
		<tag k="name" v="Eidet" />
		<tag k="place" v="locality" />
		<tag k="ssr:stedsnr" v="479085" />
	</node>
	<node lat="60.29767500005677" lon="5.180633327325352" id="-37740">
		<tag k="name" v="Hellersholmen" />
		<tag k="place" v="islet" />
		<tag k="ssr:stedsnr" v="369818" />
	</node>
	<node lat="60.608858329401734" lon="4.795583332881853" id="-37744">
		<tag k="name" v="Nordra Kvalvika" />
		<tag k="natural" v="bay" />
		<tag k="ssr:stedsnr" v="370568" />
	</node>
	<node lat="60.59710555420061" lon="4.768461111822767" id="-37745">
		<tag k="name" v="Hattøyna" />
		<tag k="place" v="islet" />
		<tag k="ssr:stedsnr" v="370573" />
	</node>
	<node lat="60.59949166462373" lon="4.743683337552811" id="-37746">
		<tag k="name" v="Vintrestøa" />
		<tag k="natural" v="shoal" />
		<tag k="place" v="locality" />
		<tag k="ssr:stedsnr" v="370574" />
	</node>
	<node lat="60.58798055535486" lon="4.75497500277771" id="-37747">
		<tag k="name" v="Såtefluene" />
		<tag k="natural" v="shoal" />
		<tag k="place" v="locality" />
		<tag k="ssr:stedsnr" v="370580" />
	</node>
	<node lat="60.58704166449572" lon="4.85491945285773" id="-37748">
		<tag k="name" v="Nordra Straumøysundet" />
		<tag k="natural" v="strait" />
		<tag k="ssr:stedsnr" v="370584" />
	</node>
	<node lat="60.62033333248609" lon="4.847436117266527" id="-37749">
		<tag k="name" v="Trollet" />
		<tag k="natural" v="cape" />
		<tag k="ssr:stedsnr" v="370611" />
	</node>
	<node lat="60.334508333297656" lon="5.176961109982211" id="-37751">
		<tag k="name" v="Legetoneset" />
		<tag k="natural" v="cape" />
		<tag k="ssr:stedsnr" v="370802" />
	</node>
	<node lat="60.718527780394474" lon="4.726966672558488" id="-37752">
		<tag k="name" v="Nordøyna" />
		<tag k="place" v="island" />
		<tag k="ssr:stedsnr" v="370903" />
	</node>
	<node lat="60.72140555172923" lon="4.704261109093202" id="-37753">
		<tag k="name" v="Storflesa" />
		<tag k="place" v="islet" />
		<tag k="ssr:stedsnr" v="370905" />
	</node>
	<node lat="60.717819441697216" lon="4.710777769399498" id="-37754">
		<tag k="name" v="Djupaflua" />
		<tag k="natural" v="shoal" />
		<tag k="place" v="locality" />
		<tag k="ssr:stedsnr" v="370908" />
	</node>
	<node lat="60.15611209713762" lon="4.991427046352034" id="-37755">
		<tag k="name" v="Teksleboen" />
		<tag k="natural" v="shoal" />
		<tag k="place" v="locality" />
		<tag k="ssr:stedsnr" v="480137" />
	</node>
	<node lat="60.31499444881571" lon="5.15273333281628" id="-37763">
		<tag k="name" v="Vomba" />
		<tag k="natural" v="shoal" />
		<tag k="place" v="locality" />
		<tag k="ssr:stedsnr" v="388094" />
	</node>
	<node lat="60.73374928064402" lon="4.66209498018602" id="-37764">
		<tag k="name" v="Grunnafjellet" />
		<tag k="natural" v="shoal" />
		<tag k="place" v="locality" />
		<tag k="ssr:stedsnr" v="388189" />
	</node>
	<node lat="60.317438885831116" lon="4.984202781510373" id="-37765">
		<tag k="name" v="Storasundet" />
		<tag k="natural" v="strait" />
		<tag k="ssr:stedsnr" v="388192" />
	</node>
	<node lat="60.59143888978241" lon="4.734983325965181" id="-37767">
		<tag k="name" v="Nordre Rinden" />
		<tag k="natural" v="shoal" />
		<tag k="place" v="locality" />
		<tag k="ssr:stedsnr" v="388602" />
	</node>
	<node lat="60.697233333197396" lon="4.753419453601958" id="-37768">
		<tag k="name" v="Vadholmtaren" />
		<tag k="natural" v="shoal" />
		<tag k="place" v="locality" />
		<tag k="ssr:stedsnr" v="388693" />
	</node>
	<node lat="60.18425833331174" lon="4.971166658238452" id="-37769">
		<tag k="name" v="Kuggsflua" />
		<tag k="natural" v="shoal" />
		<tag k="place" v="locality" />
		<tag k="ssr:stedsnr" v="389114" />
	</node>
	<node lat="60.19954722395092" lon="5.079124991927898" id="-37770">
		<tag k="name" v="Grunnevikshausen" />
		<tag k="natural" v="shoal" />
		<tag k="place" v="locality" />
		<tag k="ssr:stedsnr" v="389302" />
	</node>
	<node lat="60.18618611430561" lon="5.0860833310748585" id="-37772">
		<tag k="name" v="Lendinga" />
		<tag k="natural" v="bay" />
		<tag k="ssr:stedsnr" v="389342" />
	</node>
	<node lat="60.37869444748139" lon="5.0771222269177745" id="-37773">
		<tag k="fixme" v="consider seamark:type=rock or natural=shoal" />
		<tag k="name" v="Bruaskjeret" />
		<tag k="place" v="islet" />
		<tag k="ssr:stedsnr" v="389794" />
	</node>
	<node lat="60.49667500102514" lon="4.879422219522268" id="-37774">
		<tag k="name" v="Kvitingsneset" />
		<tag k="natural" v="cape" />
		<tag k="ssr:stedsnr" v="389993" />
	</node>
	<node lat="60.50521111445689" lon="4.904916668794956" id="-37775">
		<tag k="name" v="Nordosen" />
		<tag k="natural" v="strait" />
		<tag k="ssr:stedsnr" v="389996" />
	</node>
	<node lat="60.53631388706659" lon="4.846961110208453" id="-37777">
		<tag k="fixme" v="consider seamark:type=rock or natural=shoal" />
		<tag k="name" v="Kollsøyskjera" />
		<tag k="place" v="islet" />
		<tag k="ssr:stedsnr" v="408103" />
	</node>
	<node lat="60.489744439943124" lon="4.8802333273789555" id="-37778">
		<tag k="name" v="Frøkletten" />
		<tag k="natural" v="cape" />
		<tag k="ssr:stedsnr" v="408118" />
	</node>
	<node lat="60.69404166912567" lon="4.715683329060311" id="-37780">
		<tag k="bay" v="fjord" />
		<tag k="name" v="Kylleren" />
		<tag k="natural" v="bay" />
		<tag k="ssr:stedsnr" v="408457" />
	</node>
	<node lat="60.68171877219662" lon="4.750662919128608" id="-37781">
		<tag k="fixme" v="consider seamark:type=rock or natural=shoal" />
		<tag k="name" v="Midtra Rotøyskjeret" />
		<tag k="place" v="islet" />
		<tag k="ssr:stedsnr" v="408459" />
	</node>
	<node lat="60.20292500194928" lon="5.039719444243731" id="-37782">
		<tag k="name" v="Tjørnaskaget" />
		<tag k="natural" v="cape" />
		<tag k="ssr:stedsnr" v="408570" />
	</node>
	<node lat="60.556938889674875" lon="4.863088881243083" id="-37785">
		<tag k="name" v="Rossneset" />
		<tag k="natural" v="cape" />
		<tag k="ssr:stedsnr" v="409083" />
	</node>
	<node lat="60.54878055269202" lon="4.814658340081407" id="-37786">
		<tag k="fixme" v="consider seamark:type=rock or natural=shoal" />
		<tag k="name" v="Gula Skjeret" />
		<tag k="place" v="islet" />
		<tag k="ssr:stedsnr" v="409089" />
	</node>
	<node lat="60.358683335067425" lon="4.980897218473841" id="-37787">
		<tag k="name" v="Haugavika" />
		<tag k="natural" v="bay" />
		<tag k="ssr:stedsnr" v="409094" />
	</node>
	<node lat="60.55273032661238" lon="4.818334615930138" id="-37788">
		<tag k="name" v="Kjeholmen" />
		<tag k="place" v="islet" />
		<tag k="ssr:stedsnr" v="409001" />
	</node>
	<node lat="60.344997225781405" lon="4.970855559460712" id="-37789">
		<tag k="name" v="Langøyvika" />
		<tag k="natural" v="bay" />
		<tag k="ssr:stedsnr" v="409103" />
	</node>
	<node lat="60.41959722304515" lon="4.957216669886046" id="-37792">
		<tag k="name" v="Kvalneset" />
		<tag k="natural" v="cape" />
		<tag k="ssr:stedsnr" v="409309" />
	</node>
	<node lat="60.40962777881578" lon="4.9600722242561" id="-37793">
		<tag k="name" v="Buarøyna" />
		<tag k="place" v="island" />
		<tag k="ssr:stedsnr" v="409311" />
	</node>
	<node lat="60.41590000211366" lon="4.901333324299425" id="-37794">
		<tag k="name" v="Lokøyneset" />
		<tag k="natural" v="cape" />
		<tag k="ssr:stedsnr" v="409314" />
	</node>
	<node lat="60.41405833423949" lon="4.9113972285733745" id="-37795">
		<tag k="name" v="Grunnevågsneset" />
		<tag k="natural" v="cape" />
		<tag k="ssr:stedsnr" v="409315" />
	</node>
	<node lat="60.383458331095326" lon="4.961938888792991" id="-37799">
		<tag k="name" v="Reidarsneset" />
		<tag k="natural" v="cape" />
		<tag k="ssr:stedsnr" v="409296" />
	</node>
	<node lat="60.494819444158466" lon="4.899977778128021" id="-37802">
		<tag k="name" v="Sjurholmsundet" />
		<tag k="natural" v="strait" />
		<tag k="ssr:stedsnr" v="409491" />
	</node>
	<node lat="60.48036802082997" lon="4.9411061050615315" id="-37804">
		<tag k="name" v="Toftevågen" />
		<tag k="natural" v="bay" />
		<tag k="ssr:stedsnr" v="409495" />
	</node>
	<node lat="60.204341664258756" lon="5.0427694523764774" id="-37805">
		<tag k="name" v="Glesnesholmen" />
		<tag k="place" v="islet" />
		<tag k="ssr:stedsnr" v="409608" />
	</node>
	<node lat="60.16984722083551" lon="5.055533339218771" id="-37806">
		<tag k="name" v="Sukkerholmen" />
		<tag k="place" v="islet" />
		<tag k="ssr:stedsnr" v="409609" />
	</node>
	<node lat="60.16465277627481" lon="5.053366668057454" id="-37807">
		<tag k="name" v="Vardaleggen" />
		<tag k="natural" v="cape" />
		<tag k="ssr:stedsnr" v="409612" />
	</node>
	<node lat="60.51761388609629" lon="4.904319444762841" id="-37816">
		<tag k="name" v="Svartevika" />
		<tag k="natural" v="bay" />
		<tag k="ssr:stedsnr" v="409795" />
	</node>
	<node lat="60.51453333275985" lon="4.887583336173732" id="-37817">
		<tag k="name" v="Rovikneset" />
		<tag k="natural" v="cape" />
		<tag k="ssr:stedsnr" v="409801" />
	</node>
	<node lat="60.361569443876974" lon="5.1469638968481854" id="-37818">
		<tag k="name" v="Straumen" />
		<tag k="natural" v="strait" />
		<tag k="ssr:stedsnr" v="409990" />
	</node>
	<node lat="60.338713890424806" lon="4.968974993178122" id="-37824">
		<tag k="name" v="Langøyosen" />
		<tag k="natural" v="strait" />
		<tag k="ssr:stedsnr" v="410402" />
	</node>
	<node lat="60.391869443878896" lon="5.102366665717301" id="-37832">
		<tag k="name" v="Låtrevika" />
		<tag k="natural" v="bay" />
		<tag k="ssr:stedsnr" v="410611" />
	</node>
</osm>
