<?xml version="1.0" encoding="UTF-8"?>
<osm version="0.6" generator="osmapis">
	<node lat="60.24679722403952" lon="5.134286118077974" id="-30201">
		<tag k="name" v="Stordalen" />
		<tag k="place" v="isolated_dwelling" />
		<tag k="ssr:stedsnr" v="4683" />
	</node>
	<node lat="60.19599166356414" lon="5.150524996198997" id="-30225">
		<tag k="name" v="Høyland" />
		<tag k="place" v="farm" />
		<tag k="ssr:stedsnr" v="20936" />
	</node>
	<node lat="60.35880555887149" lon="5.0795944506690445" id="-30226">
		<tag k="name" v="Kolltveit" />
		<tag k="place" v="farm" />
		<tag k="ssr:stedsnr" v="21286" />
	</node>
	<node lat="60.319338890740894" lon="5.17893054719033" id="-30227">
		<tag k="name" v="Nordre Bjorøyna" />
		<tag k="place" v="farm" />
		<tag k="ssr:stedsnr" v="21710" />
	</node>
	<node lat="60.261369445068716" lon="4.986077772892142" id="-30228">
		<tag k="name" v="Telle" />
		<tag k="place" v="farm" />
		<tag k="ssr:stedsnr" v="21998" />
	</node>
	<node lat="60.35823055375916" lon="5.082216665582651" id="-30244">
		<tag k="name" v="Kolltveit" />
		<tag k="place" v="hamlet" />
		<tag k="ssr:stedsnr" v="238018" />
	</node>
	<node lat="60.24341555598272" lon="5.0460413856998505" id="-30296">
		<tag k="alt_name" v="Kårevik" />
		<tag k="fixme" v="consider place=hamlet" />
		<tag k="name" v="Kåravika" />
		<tag k="place" v="farm" />
		<tag k="ssr:stedsnr" v="65537" />
	</node>
	<node lat="60.36806666319754" lon="5.065383338033848" id="-30311">
		<tag k="name" v="Morlandsstøa" />
		<tag k="place" v="farm" />
		<tag k="ssr:stedsnr" v="66351" />
	</node>
	<node lat="60.491516666348716" lon="4.937788883362928" id="-30312">
		<tag k="fixme" v="consider place=suburb, village or hamlet" />
		<tag k="name" v="Torsteinsvik" />
		<tag k="place" v="quarter" />
		<tag k="ssr:stedsnr" v="66204" />
	</node>
	<node lat="60.297105551442996" lon="5.161116659629696" id="-30328">
		<tag k="name" v="Tyssøyna" />
		<tag k="place" v="farm" />
		<tag k="ssr:stedsnr" v="81834" />
	</node>
	<node lat="60.22684444633128" lon="5.070144453061583" id="-30329">
		<tag k="name" v="Vorland" />
		<tag k="place" v="farm" />
		<tag k="ssr:stedsnr" v="81894" />
	</node>
	<node lat="60.226002779334046" lon="5.067011103558587" id="-30330">
		<tag k="name" v="Vorland" />
		<tag k="place" v="farm" />
		<tag k="ssr:stedsnr" v="81936" />
	</node>
	<node lat="60.345230559138706" lon="5.156811117271455" id="-30331">
		<tag k="name" v="Snekkevika" />
		<tag k="place" v="farm" />
		<tag k="ssr:stedsnr" v="82711" />
	</node>
	<node lat="60.180908336958346" lon="5.091588893278125" id="-30338">
		<tag k="name" v="Austefjorden" />
		<tag k="old_name" v="Austafjord" />
		<tag k="place" v="locality" />
		<tag k="ssr:stedsnr" v="85517" />
	</node>
	<node lat="60.37636111270154" lon="5.102930562297546" id="-30343">
		<tag k="fixme" v="consider place=hamlet" />
		<tag k="name" v="Foldnes" />
		<tag k="place" v="village" />
		<tag k="ssr:stedsnr" v="86806" />
	</node>
	<node lat="60.43317222016397" lon="4.965019453114423" id="-30346">
		<tag k="name" v="Utfall" />
		<tag k="place" v="farm" />
		<tag k="ssr:stedsnr" v="86924" />
	</node>
	<node lat="60.16888652511005" lon="5.077325930905767" id="-30351">
		<tag k="fixme" v="consider place=hamlet" />
		<tag k="name" v="Sæle" />
		<tag k="place" v="farm" />
		<tag k="ssr:stedsnr" v="247707" />
	</node>
	<node lat="60.20296233396841" lon="5.088207773144196" id="-30355">
		<tag k="fixme" v="consider place=hamlet" />
		<tag k="name" v="Steinsland" />
		<tag k="place" v="farm" />
		<tag k="ssr:stedsnr" v="247693" />
	</node>
	<node lat="60.17568055627762" lon="5.108397223633802" id="-30359">
		<tag k="name" v="Håkonsund" />
		<tag k="place" v="farm" />
		<tag k="ssr:stedsnr" v="247792" />
	</node>
	<node lat="60.28913444808829" lon="5.055206373844861" id="-30369">
		<tag k="alt_name" v="Dalseide" />
		<tag k="fixme" v="consider place=hamlet" />
		<tag k="name" v="Dalseidet" />
		<tag k="place" v="farm" />
		<tag k="ssr:stedsnr" v="248437" />
	</node>
	<node lat="60.35906664037701" lon="5.1423286991053505" id="-30375">
		<tag k="fixme" v="consider place=hamlet" />
		<tag k="name" v="Arefjord" />
		<tag k="place" v="farm" />
		<tag k="ssr:stedsnr" v="248739" />
	</node>
	<node lat="60.389372463515755" lon="5.125444346084376" id="-30376">
		<tag k="fixme" v="consider place=hamlet" />
		<tag k="name" v="Vågo" />
		<tag k="place" v="farm" />
		<tag k="ssr:stedsnr" v="248670" />
	</node>
	<node lat="60.315575000449755" lon="5.182438881638421" id="-30380">
		<tag k="name" v="Breivika" />
		<tag k="place" v="hamlet" />
		<tag k="ssr:stedsnr" v="248774" />
	</node>
	<node lat="60.319624999021684" lon="5.180202783837303" id="-30381">
		<tag k="name" v="Gjerdet" />
		<tag k="place" v="farm" />
		<tag k="ssr:stedsnr" v="248790" />
	</node>
	<node lat="60.35593055978125" lon="5.149669444172315" id="-30408">
		<tag k="name" v="Nygård" />
		<tag k="place" v="farm" />
		<tag k="ssr:stedsnr" v="106013" />
	</node>
	<node lat="60.60436111338447" lon="4.809072213498619" id="-30463">
		<tag k="name" v="Åkletten" />
		<tag k="place" v="farm" />
		<tag k="ssr:stedsnr" v="107191" />
	</node>
	<node lat="60.28950277541375" lon="5.0356749922664115" id="-30494">
		<tag k="name" v="Kallestadvika" />
		<tag k="place" v="isolated_dwelling" />
		<tag k="ssr:stedsnr" v="126443" />
	</node>
	<node lat="60.325122219748785" lon="5.182180559255299" id="-30518">
		<tag k="name" v="Nordre Bjorøyna" />
		<tag k="place" v="farm" />
		<tag k="ssr:stedsnr" v="142705" />
	</node>
	<node lat="60.61530000129196" lon="4.824997214647044" id="-30567">
		<tag k="name" v="Skjold" />
		<tag k="place" v="farm" />
		<tag k="ssr:stedsnr" v="167203" />
	</node>
	<node lat="60.615286110560504" lon="4.823141658021707" id="-30569">
		<tag k="name" v="Skjold" />
		<tag k="place" v="farm" />
		<tag k="ssr:stedsnr" v="167219" />
	</node>
	<node lat="60.239141670389486" lon="5.1448999928398065" id="-30596">
		<tag k="name" v="Laksen" />
		<tag k="place" v="farm" />
		<tag k="ssr:stedsnr" v="186707" />
	</node>
	<node lat="60.32029167100597" lon="5.012194447663962" id="-30606">
		<tag k="name" v="Skoge" />
		<tag k="place" v="farm" />
		<tag k="ssr:stedsnr" v="187285" />
	</node>
	<node lat="60.313375370016" lon="5.013865382939312" id="-30607">
		<tag k="fixme" v="consider place=hamlet" />
		<tag k="name" v="Åse" />
		<tag k="place" v="farm" />
		<tag k="ssr:stedsnr" v="187286" />
	</node>
	<node lat="60.17125925084333" lon="5.0544784173883865" id="-30613">
		<tag k="fixme" v="consider place=hamlet" />
		<tag k="name" v="Hummelsund" />
		<tag k="place" v="farm" />
		<tag k="ssr:stedsnr" v="187693" />
	</node>
	<node lat="60.352552636825976" lon="5.102693652137503" id="-30615">
		<tag k="fixme" v="consider place=hamlet" />
		<tag k="name" v="Bildøyna" />
		<tag k="place" v="farm" />
		<tag k="ssr:stedsnr" v="187715" />
	</node>
	<node lat="60.236497217912394" lon="5.174138880505639" id="-30625">
		<tag k="name" v="Lerøyna" />
		<tag k="place" v="farm" />
		<tag k="ssr:stedsnr" v="263865" />
	</node>
	<node lat="60.31362777806298" lon="5.015383327676877" id="-30626">
		<tag k="name" v="Åse" />
		<tag k="place" v="farm" />
		<tag k="ssr:stedsnr" v="264579" />
	</node>
	<node lat="60.32621388855699" lon="5.040019445221065" id="-30627">
		<tag k="name" v="Ulveset" />
		<tag k="place" v="farm" />
		<tag k="ssr:stedsnr" v="264625" />
	</node>
	<node lat="60.28554722460425" lon="5.076116667752372" id="-30638">
		<tag k="name" v="Dala" />
		<tag k="place" v="farm" />
		<tag k="ssr:stedsnr" v="204436" />
	</node>
	<node lat="60.331298894996436" lon="5.076957881828823" id="-30639">
		<tag k="name" v="Fjell" />
		<tag k="place" v="farm" />
		<tag k="ssr:stedsnr" v="204454" />
	</node>
	<node lat="60.45251111168861" lon="4.920619450338873" id="-30640">
		<tag k="name" v="Turøyna" />
		<tag k="place" v="farm" />
		<tag k="ssr:stedsnr" v="204702" />
	</node>
	<node lat="60.34441666878007" lon="4.999663891438915" id="-30641">
		<tag k="name" v="Skålvika" />
		<tag k="place" v="farm" />
		<tag k="ssr:stedsnr" v="204694" />
	</node>
	<node lat="60.55333332919803" lon="4.830555556524234" id="-30666">
		<tag k="name" v="Kollsnes" />
		<tag k="place" v="quarter" />
		<tag k="ssr:stedsnr" v="210409" />
	</node>
	<node lat="60.246141665322185" lon="5.134988884353318" id="-30681">
		<tag k="name" v="Stordal" />
		<tag k="place" v="farm" />
		<tag k="ssr:stedsnr" v="227206" />
	</node>
	<node lat="60.33389349546469" lon="5.1439922778513925" id="-30695">
		<tag k="fixme" v="consider place=hamlet" />
		<tag k="name" v="Gavlen" />
		<tag k="place" v="farm" />
		<tag k="ssr:stedsnr" v="227782" />
	</node>
	<node lat="60.37615354622148" lon="5.103720393894677" id="-30699">
		<tag k="fixme" v="consider place=hamlet" />
		<tag k="name" v="Foldnes" />
		<tag k="place" v="farm" />
		<tag k="ssr:stedsnr" v="227934" />
	</node>
	<node lat="60.44986389279096" lon="4.921516672695064" id="-30719">
		<tag k="name" v="Turøyna" />
		<tag k="place" v="farm" />
		<tag k="ssr:stedsnr" v="228283" />
	</node>
	<node lat="60.628247219822796" lon="4.80843333181393" id="-30730">
		<tag k="name" v="Stølsnes" />
		<tag k="place" v="farm" />
		<tag k="ssr:stedsnr" v="228882" />
	</node>
	<node lat="60.632244444575456" lon="4.797783335820786" id="-30731">
		<tag k="name" v="Stordiket" />
		<tag k="place" v="farm" />
		<tag k="ssr:stedsnr" v="228885" />
	</node>
	<node lat="60.247780740926274" lon="5.069096300676069" id="-30747">
		<tag k="alt_name" v="Tveit" />
		<tag k="fixme" v="consider place=hamlet" />
		<tag k="name" v="Tveita" />
		<tag k="place" v="farm" />
		<tag k="ssr:stedsnr" v="247524" />
	</node>
	<node lat="60.21272516372597" lon="5.0720857658381435" id="-30751">
		<tag k="fixme" v="consider place=hamlet" />
		<tag k="name" v="Berge" />
		<tag k="place" v="farm" />
		<tag k="ssr:stedsnr" v="247679" />
	</node>
	<node lat="60.423619440451915" lon="4.966622214050481" id="-30756">
		<tag k="fixme" v="consider place=hamlet" />
		<tag k="name" v="Landro" />
		<tag k="place" v="village" />
		<tag k="ssr:stedsnr" v="248171" />
	</node>
	<node lat="60.62076512302671" lon="4.837558717688055" id="-30767">
		<tag k="fixme" v="consider place=hamlet" />
		<tag k="name" v="Stura" />
		<tag k="place" v="farm" />
		<tag k="ssr:stedsnr" v="248606" />
	</node>
	<node lat="60.35995218069313" lon="5.080594432809085" id="-30776">
		<tag k="name" v="Kolltveit" />
		<tag k="place" v="farm" />
		<tag k="ssr:stedsnr" v="263290" />
	</node>
	<node lat="60.30978295650844" lon="4.936431531116549" id="-30777">
		<tag k="name" v="Hissøyna" />
		<tag k="place" v="farm" />
		<tag k="ssr:stedsnr" v="264704" />
	</node>
	<node lat="60.3433194436102" lon="5.135672214557376" id="-30778">
		<tag k="name" v="Ebbesvika" />
		<tag k="place" v="farm" />
		<tag k="ssr:stedsnr" v="264715" />
	</node>
	<node lat="60.324077773472354" lon="5.1788388920799715" id="-30779">
		<tag k="name" v="Nordre Bjorøyna" />
		<tag k="place" v="farm" />
		<tag k="ssr:stedsnr" v="264685" />
	</node>
	<node lat="60.35524444779367" lon="4.951102784209034" id="-30780">
		<tag k="name" v="Algrøyna" />
		<tag k="place" v="farm" />
		<tag k="ssr:stedsnr" v="264691" />
	</node>
	<node lat="60.358897219801165" lon="4.953172217488303" id="-30781">
		<tag k="name" v="Algrøyna" />
		<tag k="place" v="farm" />
		<tag k="ssr:stedsnr" v="264692" />
	</node>
	<node lat="60.214071733839724" lon="5.15446797665389" id="-30791">
		<tag k="name" v="Børnes" />
		<tag k="place" v="hamlet" />
		<tag k="ssr:stedsnr" v="268328" />
	</node>
	<node lat="60.366741662948215" lon="5.06872221652292" id="-30837">
		<tag k="name" v="Morlandstø" />
		<tag k="place" v="farm" />
		<tag k="ssr:stedsnr" v="288489" />
	</node>
	<node lat="60.260263892968716" lon="4.9905499928810455" id="-30852">
		<tag k="name" v="Nipa" />
		<tag k="place" v="farm" />
		<tag k="ssr:stedsnr" v="288805" />
	</node>
	<node lat="60.217642921541426" lon="5.00728839249484" id="-30872">
		<tag k="alt_name" v="Golta, nedre" />
		<tag k="fixme" v="consider place=hamlet" />
		<tag k="name" v="Nedre Golta" />
		<tag k="place" v="farm" />
		<tag k="ssr:stedsnr" v="307705" />
	</node>
	<node lat="60.22756941394137" lon="5.04373304651723" id="-30873">
		<tag k="fixme" v="consider place=hamlet" />
		<tag k="name" v="Kausland" />
		<tag k="place" v="farm" />
		<tag k="ssr:stedsnr" v="307710" />
	</node>
	<node lat="60.29647381629066" lon="5.040355749365902" id="-30884">
		<tag k="fixme" v="consider place=hamlet" />
		<tag k="name" v="Ekra" />
		<tag k="place" v="farm" />
		<tag k="ssr:stedsnr" v="308408" />
	</node>
	<node lat="60.25039551635779" lon="4.993319459821252" id="-30902">
		<tag k="fixme" v="consider place=hamlet" />
		<tag k="name" v="Selstøa" />
		<tag k="place" v="farm" />
		<tag k="ssr:stedsnr" v="309517" />
	</node>
	<node lat="60.50192777997898" lon="4.881833329835134" id="-30916">
		<tag k="name" v="Ono" />
		<tag k="place" v="farm" />
		<tag k="ssr:stedsnr" v="469127" />
	</node>
	<node lat="60.258379440036556" lon="5.098670035491143" id="-30921">
		<tag k="name" v="Litle-Sangolt" />
		<tag k="place" v="farm" />
		<tag k="ssr:stedsnr" v="324878" />
	</node>
	<node lat="60.229091663025194" lon="5.0647527870296845" id="-30922">
		<tag k="name" v="Vorland" />
		<tag k="place" v="farm" />
		<tag k="ssr:stedsnr" v="324879" />
	</node>
	<node lat="60.25808055403459" lon="5.108675000624175" id="-30923">
		<tag k="name" v="Store-Sangolt" />
		<tag k="place" v="farm" />
		<tag k="ssr:stedsnr" v="324885" />
	</node>
	<node lat="60.33212221778859" lon="5.1237861086511565" id="-30927">
		<tag k="name" v="Nordre Ekrhovda" />
		<tag k="place" v="farm" />
		<tag k="ssr:stedsnr" v="325516" />
	</node>
	<node lat="60.32202777977915" lon="5.177066672304034" id="-30928">
		<tag k="name" v="Nordre Bjorøyna" />
		<tag k="place" v="farm" />
		<tag k="ssr:stedsnr" v="325677" />
	</node>
	<node lat="60.31037906460397" lon="4.934953443113381" id="-30929">
		<tag k="fixme" v="consider place=hamlet" />
		<tag k="name" v="Hissøyna" />
		<tag k="place" v="farm" />
		<tag k="ssr:stedsnr" v="325686" />
	</node>
	<node lat="60.321452774920616" lon="4.960188890917778" id="-30930">
		<tag k="name" v="Lokøyna" />
		<tag k="place" v="farm" />
		<tag k="ssr:stedsnr" v="325692" />
	</node>
	<node lat="60.340394441588984" lon="5.159822229522022" id="-30931">
		<tag k="name" v="Snekkevika" />
		<tag k="place" v="farm" />
		<tag k="ssr:stedsnr" v="325694" />
	</node>
	<node lat="60.32742865593486" lon="5.003875689120375" id="-30932">
		<tag k="fixme" v="consider place=hamlet" />
		<tag k="name" v="Møvika" />
		<tag k="place" v="farm" />
		<tag k="ssr:stedsnr" v="325708" />
	</node>
	<node lat="60.44799999926632" lon="4.916616675347548" id="-30933">
		<tag k="name" v="Turøyna" />
		<tag k="place" v="farm" />
		<tag k="ssr:stedsnr" v="325724" />
	</node>
	<node lat="60.450341665785274" lon="4.921949998525225" id="-30934">
		<tag k="name" v="Turøyna" />
		<tag k="place" v="farm" />
		<tag k="ssr:stedsnr" v="325726" />
	</node>
	<node lat="60.35946389148173" lon="4.952638891286745" id="-30935">
		<tag k="name" v="Algrøyna" />
		<tag k="place" v="village" />
		<tag k="ssr:stedsnr" v="469444" />
	</node>
	<node lat="60.304175001677066" lon="5.027719448794032" id="-30953">
		<tag k="name" v="Husa" />
		<tag k="place" v="farm" />
		<tag k="ssr:stedsnr" v="327071" />
	</node>
	<node lat="60.68828787071156" lon="4.745072054503547" id="-31058">
		<tag k="fixme" v="consider place=hamlet" />
		<tag k="name" v="Hernar" />
		<tag k="place" v="farm" />
		<tag k="ssr:stedsnr" v="348409" />
	</node>
	<node lat="60.367266666075324" lon="5.060527782771256" id="-31096">
		<tag k="name" v="Morlandstø" />
		<tag k="place" v="farm" />
		<tag k="ssr:stedsnr" v="349308" />
	</node>
	<node lat="60.207424996078785" lon="5.1507583327598025" id="-31118">
		<tag k="name" v="Keila" />
		<tag k="place" v="isolated_dwelling" />
		<tag k="ssr:stedsnr" v="368872" />
	</node>
	<node lat="60.19805721651142" lon="5.146440645735789" id="-31119">
		<tag k="fixme" v="consider place=hamlet" />
		<tag k="name" v="Høyland" />
		<tag k="place" v="farm" />
		<tag k="ssr:stedsnr" v="368881" />
	</node>
	<node lat="60.39729166322439" lon="4.9832888810831255" id="-31122">
		<tag k="name" v="Pollen" />
		<tag k="place" v="farm" />
		<tag k="ssr:stedsnr" v="369305" />
	</node>
	<node lat="60.472438264780834" lon="4.956147817959899" id="-31127">
		<tag k="fixme" v="consider place=hamlet" />
		<tag k="name" v="Vik" />
		<tag k="place" v="farm" />
		<tag k="ssr:stedsnr" v="369218" />
	</node>
	<node lat="60.31871382082446" lon="5.036750576480323" id="-31128">
		<tag k="fixme" v="consider place=hamlet" />
		<tag k="name" v="Tveita" />
		<tag k="place" v="farm" />
		<tag k="ssr:stedsnr" v="369278" />
	</node>
	<node lat="60.26775130630392" lon="5.088310609634647" id="-31132">
		<tag k="fixme" v="consider place=hamlet" />
		<tag k="name" v="Skoge" />
		<tag k="place" v="farm" />
		<tag k="ssr:stedsnr" v="369415" />
	</node>
	<node lat="60.33795662704959" lon="5.137369454073872" id="-31142">
		<tag k="fixme" v="consider place=hamlet" />
		<tag k="name" v="Ebbesvika" />
		<tag k="place" v="farm" />
		<tag k="ssr:stedsnr" v="369774" />
	</node>
	<node lat="60.36911666794332" lon="4.9429305483807" id="-31159">
		<tag k="name" v="Dyrøyna" />
		<tag k="place" v="farm" />
		<tag k="ssr:stedsnr" v="385726" />
	</node>
	<node lat="60.359791669003634" lon="4.95286944808309" id="-31160">
		<tag k="name" v="Algrøyna" />
		<tag k="place" v="farm" />
		<tag k="ssr:stedsnr" v="385728" />
	</node>
	<node lat="60.39523610961385" lon="5.1152194483193805" id="-31161">
		<tag k="name" v="Anglavika" />
		<tag k="place" v="farm" />
		<tag k="ssr:stedsnr" v="385735" />
	</node>
	<node lat="60.30813333104831" lon="5.038336111821973" id="-31162">
		<tag k="name" v="Nordvika" />
		<tag k="place" v="farm" />
		<tag k="ssr:stedsnr" v="385749" />
	</node>
	<node lat="60.44475597348395" lon="4.925287054177009" id="-31163">
		<tag k="fixme" v="consider place=hamlet" />
		<tag k="name" v="Turøyna" />
		<tag k="place" v="farm" />
		<tag k="ssr:stedsnr" v="385754" />
	</node>
	<node lat="60.39802500302767" lon="4.980663888150513" id="-31202">
		<tag k="fixme" v="consider place=hamlet" />
		<tag k="name" v="Pollen" />
		<tag k="place" v="farm" />
		<tag k="ssr:stedsnr" v="409454" />
	</node>
	<node lat="60.61359721869832" lon="4.798675006666948" id="-31220">
		<tag k="name" v="Grøna" />
		<tag k="place" v="farm" />
		<tag k="ssr:stedsnr" v="410202" />
	</node>
	<node lat="60.316616663708324" lon="5.13696388312635" id="-31228">
		<tag k="name" v="Molltveit" />
		<tag k="place" v="farm" />
		<tag k="ssr:stedsnr" v="410345" />
	</node>
	<node lat="60.33517777449521" lon="5.077247229850029" id="-31231">
		<tag k="name" v="Nybø" />
		<tag k="place" v="farm" />
		<tag k="ssr:stedsnr" v="410603" />
	</node>
	<node lat="60.48054166690056" lon="4.959455546842634" id="-31246">
		<tag k="name" v="Breivika" />
		<tag k="place" v="neighbourhood" />
		<tag k="ssr:stedsnr" v="419391" />
	</node>
	<node lat="60.502800003069574" lon="4.921627770529997" id="-31247">
		<tag k="name" v="Storevarden" />
		<tag k="place" v="quarter" />
		<tag k="ssr:stedsnr" v="419397" />
	</node>
	<node lat="60.22024664915008" lon="5.157632535869875" id="-31251">
		<tag k="fixme" v="consider place=hamlet" />
		<tag k="name" v="Nygård" />
		<tag k="place" v="farm" />
		<tag k="ssr:stedsnr" v="423641" />
	</node>
	<node lat="60.24578429641042" lon="5.065079633163625" id="-31253">
		<tag k="fixme" v="consider place=hamlet" />
		<tag k="name" v="Eide" />
		<tag k="place" v="farm" />
		<tag k="ssr:stedsnr" v="489576" />
	</node>
	<node lat="60.21400674795506" lon="5.009276403841653" id="-31255">
		<tag k="alt_name" v="Golta, øvre" />
		<tag k="fixme" v="consider place=hamlet" />
		<tag k="name" v="Øvre Golta" />
		<tag k="place" v="farm" />
		<tag k="ssr:stedsnr" v="489728" />
	</node>
	<node lat="60.379058333026336" lon="5.056016669461643" id="-31263">
		<tag k="name" v="Knappskog" />
		<tag k="place" v="village" />
		<tag k="ssr:stedsnr" v="490356" />
	</node>
	<node lat="60.273061112715304" lon="5.0605111080247775" id="-31266">
		<tag k="fixme" v="consider place=hamlet" />
		<tag k="name" v="Trengereid" />
		<tag k="place" v="village" />
		<tag k="ssr:stedsnr" v="490466" />
	</node>
	<node lat="60.214322634023105" lon="5.1526045562797735" id="-31277">
		<tag k="fixme" v="consider place=hamlet" />
		<tag k="name" v="Nedre Børnes" />
		<tag k="place" v="farm" />
		<tag k="ssr:stedsnr" v="490874" />
	</node>
</osm>
