<?xml version="1.0" encoding="UTF-8"?>
<osm version="0.6" generator="osmapis">
	<node lat="60.32072222065975" lon="4.977216671851538" id="-45014">
		<tag k="bridge" v="yes" />
		<tag k="layer" v="1" />
		<tag k="name" v="Flogøykjølpo" />
		<tag k="ssr:stedsnr" v="47205" />
	</node>
	<node lat="60.35526110804592" lon="4.987261118653657" id="-45200">
		<tag k="bridge" v="yes" />
		<tag k="layer" v="1" />
		<tag k="name" v="Sekkingstad" />
		<tag k="ssr:stedsnr" v="108203" />
	</node>
	<node lat="60.52838542745582" lon="4.883779337871881" id="-45250">
		<tag k="alt_name" v="Sælstø" />
		<tag k="landuse" v="harbour" />
		<tag k="name" v="Sælstøa" />
		<tag k="old_name" v="Sælstøi" />
		<tag k="seamark:type" v="harbour" />
		<tag k="ssr:stedsnr" v="146927" />
	</node>
	<node lat="60.2459694431766" lon="5.07335000337483" id="-45405">
		<tag k="highway" v="path" />
		<tag k="name" v="Fjellvegen" />
		<tag k="ssr:stedsnr" v="227181" />
	</node>
	<node lat="60.66081667011604" lon="4.804483331094525" id="-45456">
		<tag k="bridge" v="yes" />
		<tag k="layer" v="1" />
		<tag k="name" v="Hellesundkanalen" />
		<tag k="ssr:stedsnr" v="229003" />
	</node>
	<node lat="60.566883337068454" lon="4.819127779044354" id="-45457">
		<tag k="bridge" v="yes" />
		<tag k="layer" v="1" />
		<tag k="name" v="Langholmsundet" />
		<tag k="ssr:stedsnr" v="229032" />
	</node>
	<node lat="60.22400833251341" lon="5.069836102657188" id="-45464">
		<tag k="bridge" v="yes" />
		<tag k="layer" v="1" />
		<tag k="name" v="Vorland" />
		<tag k="ssr:stedsnr" v="229196" />
	</node>
	<node lat="60.4224944451079" lon="4.982699998187519" id="-45590">
		<tag k="bridge" v="yes" />
		<tag k="layer" v="1" />
		<tag k="name" v="Olsvik" />
		<tag k="ssr:stedsnr" v="290204" />
	</node>
	<node lat="60.439997226028034" lon="4.967438887692081" id="-45591">
		<tag k="bridge" v="yes" />
		<tag k="layer" v="1" />
		<tag k="name" v="Solsviksundet" />
		<tag k="ssr:stedsnr" v="290207" />
	</node>
	<node lat="60.285602777867574" lon="5.092877773767719" id="-45592">
		<tag k="bridge" v="yes" />
		<tag k="layer" v="1" />
		<tag k="name" v="Tellnespollen" />
		<tag k="ssr:stedsnr" v="290209" />
	</node>
	<node lat="60.56417499630252" lon="4.827502770745534" id="-45761">
		<tag k="bridge" v="yes" />
		<tag k="layer" v="1" />
		<tag k="name" v="Breiviksund" />
		<tag k="ssr:stedsnr" v="472001" />
	</node>
	<node lat="60.26205833696289" lon="4.99062499184479" id="-45762">
		<tag k="bridge" v="yes" />
		<tag k="layer" v="1" />
		<tag k="name" v="Tælasundet" />
		<tag k="ssr:stedsnr" v="472185" />
	</node>
	<node lat="60.30049167026443" lon="5.167633331774996" id="-45763">
		<tag k="bridge" v="yes" />
		<tag k="layer" v="1" />
		<tag k="name" v="Nautesundet" />
		<tag k="ssr:stedsnr" v="472194" />
	</node>
	<node lat="60.389644447819975" lon="5.0456833403921" id="-45764">
		<tag k="bridge" v="yes" />
		<tag k="layer" v="1" />
		<tag k="loc_name" v="Spjeldssundbrua" />
		<tag k="name" v="Spjeldsundet" />
		<tag k="ssr:stedsnr" v="472195" />
	</node>
	<node lat="60.45634444864632" lon="4.9566472273296815" id="-45765">
		<tag k="bridge" v="yes" />
		<tag k="layer" v="1" />
		<tag k="name" v="Svelgen" />
		<tag k="ssr:stedsnr" v="472200" />
	</node>
	<node lat="60.33406111201826" lon="5.143952784671431" id="-45964">
		<tag k="bridge" v="yes" />
		<tag k="layer" v="1" />
		<tag k="name" v="Gavlen" />
		<tag k="ssr:stedsnr" v="411202" />
	</node>
	<node lat="60.38692221985527" lon="4.9908833301183035" id="-45965">
		<tag k="bridge" v="yes" />
		<tag k="layer" v="1" />
		<tag k="name" v="Kårtveit" />
		<tag k="ssr:stedsnr" v="411203" />
	</node>
	<node lat="60.3434694449639" lon="4.98558055044823" id="-45966">
		<tag k="bridge" v="yes" />
		<tag k="layer" v="1" />
		<tag k="name" v="Langøy" />
		<tag k="ssr:stedsnr" v="411206" />
	</node>
	<node lat="60.36236666591897" lon="5.146394441198528" id="-45967">
		<tag k="bridge" v="yes" />
		<tag k="layer" v="1" />
		<tag k="name" v="Arefjordstraumen" />
		<tag k="ssr:stedsnr" v="411198" />
	</node>
	<node lat="60.6610363756566" lon="4.804553063641322" id="-46178">
		<tag k="name" v="Hellesundkanalen" />
		<tag k="old_name" v="Hellesund kanal" />
		<tag k="ssr:stedsnr" v="479366" />
		<tag k="waterway" v="canal" />
	</node>
	<node lat="60.358464228430506" lon="5.113733666526939" id="-46284">
		<tag k="bridge" v="yes" />
		<tag k="layer" v="1" />
		<tag k="name" v="Straumsundet" />
		<tag k="ssr:stedsnr" v="533204" />
	</node>
	<node lat="60.3671666693349" lon="5.066569452710984" id="-46559">
		<tag k="bridge" v="yes" />
		<tag k="layer" v="1" />
		<tag k="name" v="Morlandsstø" />
		<tag k="ssr:stedsnr" v="654206" />
	</node>
	<node lat="60.33981944200703" lon="4.995422218697467" id="-46695">
		<tag k="bridge" v="yes" />
		<tag k="layer" v="1" />
		<tag k="name" v="Skålevik" />
		<tag k="ssr:stedsnr" v="897196" />
	</node>
	<node lat="60.59113888861223" lon="4.82445833963938" id="-47145">
		<tag k="bridge" v="yes" />
		<tag k="layer" v="1" />
		<tag k="name" v="Dåvøy" />
		<tag k="ssr:stedsnr" v="897003" />
	</node>
	<node lat="60.370483335293805" lon="5.15234166414619" id="-47250">
		<tag k="bridge" v="yes" />
		<tag k="layer" v="1" />
		<tag k="name" v="Knarrevik" />
		<tag k="ssr:stedsnr" v="958212" />
	</node>
	<node lat="60.232653617342166" lon="5.169737524372966" id="-47252">
		<tag k="amenity" v="ferry_terminal" />
		<tag k="name" v="Lerøyna ferjekai" />
		<tag k="ssr:stedsnr" v="978601" />
	</node>
	<node lat="60.24159158528561" lon="5.221424006460166" id="-47253">
		<tag k="amenity" v="ferry_terminal" />
		<tag k="name" v="Bjelkarøyna ferjekai" />
		<tag k="ssr:stedsnr" v="978602" />
	</node>
	<node lat="60.667051899272295" lon="4.747554099310183" id="-47271">
		<tag k="landuse" v="harbour" />
		<tag k="name" v="Lyngøyhamn" />
		<tag k="seamark:type" v="harbour" />
		<tag k="ssr:stedsnr" v="991215" />
	</node>
	<node lat="60.16907556275429" lon="5.005099714875862" id="-47274">
		<tag k="name" v="Fugløyhamn" />
		<tag k="place" v="locality" />
		<tag k="ssr:stedsnr" v="991219" />
	</node>
	<node lat="60.30915369043253" lon="4.9428532607527655" id="-47275">
		<tag k="name" v="Hissøyhamn" />
		<tag k="place" v="locality" />
		<tag k="ssr:stedsnr" v="991221" />
	</node>
	<node lat="60.312749244548655" lon="4.965453783450511" id="-47276">
		<tag k="name" v="Narøyhamn" />
		<tag k="place" v="locality" />
		<tag k="ssr:stedsnr" v="991222" />
	</node>
	<node lat="60.178222225265216" lon="5.094025007202735" id="-47461">
		<tag k="amenity" v="ferry_terminal" />
		<tag k="name" v="Austefjorden ferjekai" />
		<tag k="ssr:stedsnr" v="47199" />
	</node>
	<node lat="60.3657833359004" lon="5.138738896377232" id="-47462">
		<tag k="bridge" v="yes" />
		<tag k="layer" v="1" />
		<tag k="name" v="Arefjordpollen" />
		<tag k="ssr:stedsnr" v="229200" />
	</node>
	<node lat="60.32870000351202" lon="5.047297230267084" id="-47463">
		<tag k="bridge" v="yes" />
		<tag k="layer" v="1" />
		<tag k="name" v="Ulveset" />
		<tag k="ssr:stedsnr" v="229214" />
	</node>
	<node lat="60.45816944727861" lon="4.934138895269289" id="-47662">
		<tag k="bridge" v="yes" />
		<tag k="layer" v="1" />
		<tag k="name" v="Skårasund" />
		<tag k="ssr:stedsnr" v="108032" />
	</node>
	<node lat="60.55494166599181" lon="4.865091659276056" id="-47831">
		<tag k="bridge" v="yes" />
		<tag k="layer" v="1" />
		<tag k="name" v="Osundet" />
		<tag k="ssr:stedsnr" v="168034" />
	</node>
</osm>
