<?xml version="1.0" encoding="UTF-8"?>
<<<<<<< HEAD
<osm version="0.6" generator="osmapis">
	<node lat="60.52836944731077" lon="8.2333611027076" id="-21106">
		<tag k="name" v="Anleggsvegen" />
		<tag k="ssr:date" v="2019-12-27" />
		<tag k="ssr:gruppe" v="veg" />
		<tag k="ssr:hovedgruppe" v="infrastruktur" />
		<tag k="ssr:stedsnr" v="467642" />
		<tag k="ssr:type" v="vegstrekning" />
	</node>
	<node lat="60.41183055580005" lon="8.473608328586153" id="-21179">
		<tag k="name" v="Vestlivegen" />
		<tag k="ssr:date" v="2019-12-27" />
		<tag k="ssr:gruppe" v="veg" />
		<tag k="ssr:hovedgruppe" v="infrastruktur" />
		<tag k="ssr:stedsnr" v="483332" />
		<tag k="ssr:type" v="vegstrekning" />
	</node>
	<node lat="60.55721389036299" lon="8.207858326059032" id="-21577">
		<tag k="name" v="Ljøtestigen" />
		<tag k="ssr:date" v="2019-12-27" />
		<tag k="ssr:gruppe" v="veg" />
		<tag k="ssr:hovedgruppe" v="infrastruktur" />
		<tag k="ssr:stedsnr" v="661291" />
		<tag k="ssr:type" v="vegstrekning" />
	</node>
	<node lat="60.56141666249318" lon="8.336686104542947" id="-21845">
		<tag k="name" v="Skåle" />
		<tag k="ssr:date" v="2019-12-27" />
		<tag k="ssr:gruppe" v="veg" />
		<tag k="ssr:hovedgruppe" v="infrastruktur" />
		<tag k="ssr:stedsnr" v="846882" />
		<tag k="ssr:type" v="vegstrekning" />
	</node>
	<node lat="60.615277775995025" lon="8.301944439118301" id="-21881">
		<tag k="name" v="Hol kommune" />
		<tag k="ssr:date" v="2019-12-27" />
		<tag k="ssr:gruppe" v="administrativeIndelinger" />
		<tag k="ssr:hovedgruppe" v="offentligAdministrasjon" />
		<tag k="ssr:stedsnr" v="934881" />
		<tag k="ssr:type" v="kommune" />
	</node>
	<node lat="60.526916667400016" lon="8.298877777066101" id="-22010">
		<tag k="name" v="Gamle Skurdalsvegen" />
=======
<osm generator="osmapis" version="0.6">
	<node id="-279040" lat="60.615277776" lon="8.30194443912">
		<tag k="name" v="Hol kommune" />
		<tag k="ssr:date" v="2019-12-27" />
		<tag k="ssr:gruppe" v="administrativeIndelinger" />
		<tag k="ssr:hovedgruppe" v="offentligAdministrasjon" />
		<tag k="ssr:stedsnr" v="934881" />
		<tag k="ssr:type" v="kommune" />
	</node>
	<node id="-280443" lat="60.4928567783" lon="8.24382215153">
		<tag k="name" v="Solhovdlie" />
		<tag k="ssr:date" v="2019-12-27" />
		<tag k="ssr:gruppe" v="veg" />
		<tag k="ssr:hovedgruppe" v="infrastruktur" />
		<tag k="ssr:stedsnr" v="1033682" />
		<tag k="ssr:type" v="adressenavn" />
	</node>
	<node id="-280442" lat="60.4924865625" lon="8.24282247428">
		<tag k="name" v="Nedre Solhovdlie" />
		<tag k="ssr:date" v="2019-12-27" />
		<tag k="ssr:gruppe" v="veg" />
		<tag k="ssr:hovedgruppe" v="infrastruktur" />
		<tag k="ssr:stedsnr" v="1033678" />
		<tag k="ssr:type" v="adressenavn" />
	</node>
	<node id="-280441" lat="60.8284384583" lon="7.91864731826">
		<tag k="name" v="Iungsdalen" />
		<tag k="ssr:date" v="2019-12-27" />
		<tag k="ssr:gruppe" v="veg" />
		<tag k="ssr:hovedgruppe" v="infrastruktur" />
		<tag k="ssr:stedsnr" v="1033863" />
		<tag k="ssr:type" v="adressenavn" />
	</node>
	<node id="-280440" lat="60.7597533916" lon="7.773794146">
		<tag k="name" v="Skorpa" />
		<tag k="ssr:date" v="2019-12-27" />
		<tag k="ssr:gruppe" v="veg" />
		<tag k="ssr:hovedgruppe" v="infrastruktur" />
		<tag k="ssr:stedsnr" v="1033860" />
		<tag k="ssr:type" v="adressenavn" />
	</node>
	<node id="-280439" lat="60.7673895758" lon="7.90506740855">
		<tag k="name" v="Flyane" />
>>>>>>> e1d4bc35ff8a6074a6f2e91616a996b547c36f15
		<tag k="ssr:date" v="2019-12-27" />
		<tag k="ssr:gruppe" v="veg" />
		<tag k="ssr:hovedgruppe" v="infrastruktur" />
		<tag k="ssr:stedsnr" v="1033844" />
		<tag k="ssr:type" v="adressenavn" />
	</node>
<<<<<<< HEAD
	<node lat="60.5785972195111" lon="8.302044439752862" id="-22021">
		<tag k="name" v="Gamlevegen" />
		<tag k="ssr:date" v="2019-12-27" />
		<tag k="ssr:gruppe" v="veg" />
		<tag k="ssr:hovedgruppe" v="infrastruktur" />
		<tag k="ssr:stedsnr" v="42666" />
		<tag k="ssr:type" v="vegstrekning" />
	</node>
	<node lat="60.525827777935966" lon="8.153002770314815" id="-22027">
		<tag k="name" v="Fetavegen" />
		<tag k="ssr:date" v="2019-12-27" />
		<tag k="ssr:gruppe" v="veg" />
		<tag k="ssr:hovedgruppe" v="infrastruktur" />
		<tag k="ssr:stedsnr" v="56592" />
		<tag k="ssr:type" v="vegstrekning" />
	</node>
	<node lat="60.5237305597862" lon="8.224416667084265" id="-22181">
		<tag k="name" v="Slåttestølen" />
		<tag k="ssr:date" v="2019-12-27" />
		<tag k="ssr:gruppe" v="veg" />
		<tag k="ssr:hovedgruppe" v="infrastruktur" />
		<tag k="ssr:stedsnr" v="163605" />
		<tag k="ssr:type" v="vegstrekning" />
	</node>
	<node lat="60.54567777985374" lon="8.205041658095467" id="-22185">
		<tag k="name" v="Øvre Jonstølvegen" />
		<tag k="ssr:date" v="2019-12-27" />
		<tag k="ssr:gruppe" v="veg" />
		<tag k="ssr:hovedgruppe" v="infrastruktur" />
		<tag k="ssr:stedsnr" v="176490" />
		<tag k="ssr:type" v="adressenavn" />
	</node>
	<node lat="60.57624722397868" lon="8.244563886791337" id="-22191">
		<tag k="name" v="Gamle Vedalsvegen" />
		<tag k="ssr:date" v="2019-12-27" />
		<tag k="ssr:gruppe" v="veg" />
		<tag k="ssr:hovedgruppe" v="infrastruktur" />
		<tag k="ssr:stedsnr" v="180028" />
		<tag k="ssr:type" v="vegstrekning" />
	</node>
	<node lat="60.61509444052392" lon="8.089716673595928" id="-22363">
		<tag k="name" v="Kjerrefløte" />
		<tag k="ssr:date" v="2019-12-27" />
		<tag k="ssr:gruppe" v="veg" />
		<tag k="ssr:hovedgruppe" v="infrastruktur" />
		<tag k="ssr:stedsnr" v="344016" />
		<tag k="ssr:type" v="vegstrekning" />
	</node>
	<node lat="60.81745689275856" lon="7.777641231577112" id="-23074">
		<tag k="name" v="Øljuvatnet" />
		<tag k="ssr:date" v="2019-12-27" />
		<tag k="ssr:gruppe" v="veg" />
		<tag k="ssr:hovedgruppe" v="infrastruktur" />
		<tag k="ssr:stedsnr" v="1033388" />
		<tag k="ssr:type" v="adressenavn" />
	</node>
	<node lat="60.5155442949773" lon="8.1274436789198" id="-23075">
=======
	<node id="-280438" lat="60.7556264187" lon="8.03620211841">
		<tag k="name" v="Stolsvatnet" />
		<tag k="ssr:date" v="2019-12-27" />
		<tag k="ssr:gruppe" v="veg" />
		<tag k="ssr:hovedgruppe" v="infrastruktur" />
		<tag k="ssr:stedsnr" v="1033841" />
		<tag k="ssr:type" v="adressenavn" />
	</node>
	<node id="-280437" lat="60.7205473858" lon="7.63536621502">
		<tag k="name" v="Sundhellerskarvet" />
		<tag k="ssr:date" v="2019-12-27" />
		<tag k="ssr:gruppe" v="veg" />
		<tag k="ssr:hovedgruppe" v="infrastruktur" />
		<tag k="ssr:stedsnr" v="1033838" />
		<tag k="ssr:type" v="adressenavn" />
	</node>
	<node id="-280436" lat="60.6963731052" lon="7.56259897719">
		<tag k="name" v="Bakkehelleren" />
		<tag k="ssr:date" v="2019-12-27" />
		<tag k="ssr:gruppe" v="veg" />
		<tag k="ssr:hovedgruppe" v="infrastruktur" />
		<tag k="ssr:stedsnr" v="1033833" />
		<tag k="ssr:type" v="adressenavn" />
	</node>
	<node id="-280435" lat="60.6759035747" lon="8.10483884977">
		<tag k="name" v="Hovsåsen" />
		<tag k="ssr:date" v="2019-12-27" />
		<tag k="ssr:gruppe" v="veg" />
		<tag k="ssr:hovedgruppe" v="infrastruktur" />
		<tag k="ssr:stedsnr" v="1033829" />
		<tag k="ssr:type" v="adressenavn" />
	</node>
	<node id="-280434" lat="60.4767313782" lon="8.14187511594">
		<tag k="name" v="Grønebakken" />
		<tag k="ssr:date" v="2019-12-27" />
		<tag k="ssr:gruppe" v="veg" />
		<tag k="ssr:hovedgruppe" v="infrastruktur" />
		<tag k="ssr:stedsnr" v="1033411" />
		<tag k="ssr:type" v="adressenavn" />
	</node>
	<node id="-280433" lat="60.5157746181" lon="8.25369703977">
		<tag k="name" v="Bruslettstølen" />
		<tag k="ssr:date" v="2019-12-27" />
		<tag k="ssr:gruppe" v="veg" />
		<tag k="ssr:hovedgruppe" v="infrastruktur" />
		<tag k="ssr:stedsnr" v="1033407" />
		<tag k="ssr:type" v="adressenavn" />
	</node>
	<node id="-280432" lat="60.4583191015" lon="8.10224358113">
		<tag k="name" v="Ustetind" />
		<tag k="ssr:date" v="2019-12-27" />
		<tag k="ssr:gruppe" v="veg" />
		<tag k="ssr:hovedgruppe" v="infrastruktur" />
		<tag k="ssr:stedsnr" v="1033394" />
		<tag k="ssr:type" v="adressenavn" />
	</node>
	<node id="-280431" lat="60.515544295" lon="8.12744367892">
>>>>>>> e1d4bc35ff8a6074a6f2e91616a996b547c36f15
		<tag k="name" v="Nystøllie" />
		<tag k="ssr:date" v="2019-12-27" />
		<tag k="ssr:gruppe" v="veg" />
		<tag k="ssr:hovedgruppe" v="infrastruktur" />
		<tag k="ssr:stedsnr" v="1033391" />
		<tag k="ssr:type" v="adressenavn" />
	</node>
<<<<<<< HEAD
	<node lat="60.45831910150437" lon="8.102243581129896" id="-23076">
		<tag k="name" v="Ustetind" />
		<tag k="ssr:date" v="2019-12-27" />
		<tag k="ssr:gruppe" v="veg" />
		<tag k="ssr:hovedgruppe" v="infrastruktur" />
		<tag k="ssr:stedsnr" v="1033394" />
		<tag k="ssr:type" v="adressenavn" />
	</node>
	<node lat="60.51577461809725" lon="8.253697039773934" id="-23077">
		<tag k="name" v="Bruslettstølen" />
		<tag k="ssr:date" v="2019-12-27" />
		<tag k="ssr:gruppe" v="veg" />
		<tag k="ssr:hovedgruppe" v="infrastruktur" />
		<tag k="ssr:stedsnr" v="1033407" />
		<tag k="ssr:type" v="adressenavn" />
	</node>
	<node lat="60.47673137821894" lon="8.141875115939026" id="-23078">
		<tag k="name" v="Grønebakken" />
		<tag k="ssr:date" v="2019-12-27" />
		<tag k="ssr:gruppe" v="veg" />
		<tag k="ssr:hovedgruppe" v="infrastruktur" />
		<tag k="ssr:stedsnr" v="1033411" />
		<tag k="ssr:type" v="adressenavn" />
	</node>
	<node lat="60.49300242232104" lon="8.244330197147427" id="-23079">
		<tag k="name" v="Solhalle" />
		<tag k="ssr:date" v="2019-12-27" />
		<tag k="ssr:gruppe" v="veg" />
		<tag k="ssr:hovedgruppe" v="infrastruktur" />
		<tag k="ssr:stedsnr" v="1033336" />
		<tag k="ssr:type" v="adressenavn" />
	</node>
	<node lat="60.694841412269234" lon="8.2488997512505" id="-23080">
		<tag k="name" v="Nordbygdvegen" />
		<tag k="ssr:date" v="2019-12-27" />
		<tag k="ssr:gruppe" v="veg" />
		<tag k="ssr:hovedgruppe" v="infrastruktur" />
		<tag k="ssr:stedsnr" v="1033367" />
		<tag k="ssr:type" v="adressenavn" />
	</node>
	<node lat="60.41467688953816" lon="7.813907816524074" id="-23081">
		<tag k="name" v="Heinungen" />
		<tag k="ssr:date" v="2019-12-27" />
		<tag k="ssr:gruppe" v="veg" />
		<tag k="ssr:hovedgruppe" v="infrastruktur" />
		<tag k="ssr:stedsnr" v="1033378" />
		<tag k="ssr:type" v="adressenavn" />
	</node>
	<node lat="60.39927605268399" lon="7.8177714140295755" id="-23082">
		<tag k="name" v="Øvre Hein" />
		<tag k="ssr:date" v="2019-12-27" />
		<tag k="ssr:gruppe" v="veg" />
		<tag k="ssr:hovedgruppe" v="infrastruktur" />
		<tag k="ssr:stedsnr" v="1033381" />
		<tag k="ssr:type" v="adressenavn" />
	</node>
	<node lat="60.73622305016819" lon="7.635010864222297" id="-23083">
		<tag k="name" v="Rossdalen" />
		<tag k="ssr:date" v="2019-12-27" />
		<tag k="ssr:gruppe" v="veg" />
		<tag k="ssr:hovedgruppe" v="infrastruktur" />
		<tag k="ssr:stedsnr" v="1033385" />
		<tag k="ssr:type" v="adressenavn" />
	</node>
	<node lat="60.48252827874626" lon="8.175473594380646" id="-23084">
		<tag k="name" v="Birgitstølhovda" />
		<tag k="ssr:date" v="2019-12-27" />
		<tag k="ssr:gruppe" v="veg" />
		<tag k="ssr:hovedgruppe" v="infrastruktur" />
		<tag k="ssr:stedsnr" v="1033416" />
		<tag k="ssr:type" v="adressenavn" />
	</node>
	<node lat="60.5146702281816" lon="8.335795896803166" id="-23085">
		<tag k="name" v="Raudløkdalen" />
		<tag k="ssr:date" v="2019-12-27" />
		<tag k="ssr:gruppe" v="veg" />
		<tag k="ssr:hovedgruppe" v="infrastruktur" />
		<tag k="ssr:stedsnr" v="1033425" />
		<tag k="ssr:type" v="adressenavn" />
	</node>
	<node lat="60.454651805428746" lon="8.52830258443404" id="-23086">
		<tag k="name" v="Kjerbu" />
		<tag k="ssr:date" v="2019-12-27" />
		<tag k="ssr:gruppe" v="veg" />
		<tag k="ssr:hovedgruppe" v="infrastruktur" />
		<tag k="ssr:stedsnr" v="1033438" />
		<tag k="ssr:type" v="adressenavn" />
	</node>
	<node lat="60.413306256823866" lon="8.204696236851369" id="-23087">
		<tag k="name" v="Ljosevatnet" />
		<tag k="ssr:date" v="2019-12-27" />
		<tag k="ssr:gruppe" v="veg" />
		<tag k="ssr:hovedgruppe" v="infrastruktur" />
		<tag k="ssr:stedsnr" v="1033446" />
		<tag k="ssr:type" v="adressenavn" />
	</node>
	<node lat="60.43168508211807" lon="8.066072482413588" id="-23088">
=======
	<node id="-280430" lat="60.8174568928" lon="7.77764123158">
		<tag k="name" v="Øljuvatnet" />
		<tag k="ssr:date" v="2019-12-27" />
		<tag k="ssr:gruppe" v="veg" />
		<tag k="ssr:hovedgruppe" v="infrastruktur" />
		<tag k="ssr:stedsnr" v="1033388" />
		<tag k="ssr:type" v="adressenavn" />
	</node>
	<node id="-280429" lat="60.7362230502" lon="7.63501086422">
		<tag k="name" v="Rossdalen" />
		<tag k="ssr:date" v="2019-12-27" />
		<tag k="ssr:gruppe" v="veg" />
		<tag k="ssr:hovedgruppe" v="infrastruktur" />
		<tag k="ssr:stedsnr" v="1033385" />
		<tag k="ssr:type" v="adressenavn" />
	</node>
	<node id="-280428" lat="60.3992760527" lon="7.81777141403">
		<tag k="name" v="Øvre Hein" />
		<tag k="ssr:date" v="2019-12-27" />
		<tag k="ssr:gruppe" v="veg" />
		<tag k="ssr:hovedgruppe" v="infrastruktur" />
		<tag k="ssr:stedsnr" v="1033381" />
		<tag k="ssr:type" v="adressenavn" />
	</node>
	<node id="-280427" lat="60.4146768895" lon="7.81390781652">
		<tag k="name" v="Heinungen" />
		<tag k="ssr:date" v="2019-12-27" />
		<tag k="ssr:gruppe" v="veg" />
		<tag k="ssr:hovedgruppe" v="infrastruktur" />
		<tag k="ssr:stedsnr" v="1033378" />
		<tag k="ssr:type" v="adressenavn" />
	</node>
	<node id="-280426" lat="60.6948414123" lon="8.24889975125">
		<tag k="name" v="Nordbygdvegen" />
		<tag k="ssr:date" v="2019-12-27" />
		<tag k="ssr:gruppe" v="veg" />
		<tag k="ssr:hovedgruppe" v="infrastruktur" />
		<tag k="ssr:stedsnr" v="1033367" />
		<tag k="ssr:type" v="adressenavn" />
	</node>
	<node id="-280425" lat="60.5958720544" lon="8.16980834602">
		<tag k="name" v="Belvatnet" />
		<tag k="ssr:date" v="2019-12-27" />
		<tag k="ssr:gruppe" v="veg" />
		<tag k="ssr:hovedgruppe" v="infrastruktur" />
		<tag k="ssr:stedsnr" v="1033510" />
		<tag k="ssr:type" v="adressenavn" />
	</node>
	<node id="-280424" lat="60.5491478367" lon="7.97969360323">
		<tag k="name" v="Tvergastein" />
		<tag k="ssr:date" v="2019-12-27" />
		<tag k="ssr:gruppe" v="veg" />
		<tag k="ssr:hovedgruppe" v="infrastruktur" />
		<tag k="ssr:stedsnr" v="1033507" />
		<tag k="ssr:type" v="adressenavn" />
	</node>
	<node id="-280423" lat="60.4725251633" lon="7.77482535922">
		<tag k="name" v="Ørteren" />
		<tag k="ssr:date" v="2019-12-27" />
		<tag k="ssr:gruppe" v="veg" />
		<tag k="ssr:hovedgruppe" v="infrastruktur" />
		<tag k="ssr:stedsnr" v="1033504" />
		<tag k="ssr:type" v="adressenavn" />
	</node>
	<node id="-280422" lat="60.5507761436" lon="7.79664227098">
		<tag k="name" v="Hellevatnet" />
		<tag k="ssr:date" v="2019-12-27" />
		<tag k="ssr:gruppe" v="veg" />
		<tag k="ssr:hovedgruppe" v="infrastruktur" />
		<tag k="ssr:stedsnr" v="1033501" />
		<tag k="ssr:type" v="adressenavn" />
	</node>
	<node id="-280421" lat="60.3876422461" lon="7.73883354532">
		<tag k="name" v="Halnetunga" />
		<tag k="ssr:date" v="2019-12-27" />
		<tag k="ssr:gruppe" v="veg" />
		<tag k="ssr:hovedgruppe" v="infrastruktur" />
		<tag k="ssr:stedsnr" v="1033485" />
		<tag k="ssr:type" v="adressenavn" />
	</node>
	<node id="-280420" lat="60.4911151588" lon="7.91377573604">
		<tag k="name" v="Lysthus" />
		<tag k="ssr:date" v="2019-12-27" />
		<tag k="ssr:gruppe" v="veg" />
		<tag k="ssr:hovedgruppe" v="infrastruktur" />
		<tag k="ssr:stedsnr" v="1033474" />
		<tag k="ssr:type" v="adressenavn" />
	</node>
	<node id="-280419" lat="60.4282395858" lon="8.09243212404">
		<tag k="name" v="Vibu" />
		<tag k="ssr:date" v="2019-12-27" />
		<tag k="ssr:gruppe" v="veg" />
		<tag k="ssr:hovedgruppe" v="infrastruktur" />
		<tag k="ssr:stedsnr" v="1033467" />
		<tag k="ssr:type" v="adressenavn" />
	</node>
	<node id="-280418" lat="60.4035802192" lon="8.06101508868">
		<tag k="name" v="Bjordalen" />
		<tag k="ssr:date" v="2019-12-27" />
		<tag k="ssr:gruppe" v="veg" />
		<tag k="ssr:hovedgruppe" v="infrastruktur" />
		<tag k="ssr:stedsnr" v="1033460" />
		<tag k="ssr:type" v="adressenavn" />
	</node>
	<node id="-280417" lat="60.4316850821" lon="8.06607248241">
>>>>>>> e1d4bc35ff8a6074a6f2e91616a996b547c36f15
		<tag k="name" v="Breidvatnet" />
		<tag k="ssr:date" v="2019-12-27" />
		<tag k="ssr:gruppe" v="veg" />
		<tag k="ssr:hovedgruppe" v="infrastruktur" />
		<tag k="ssr:stedsnr" v="1033456" />
		<tag k="ssr:type" v="adressenavn" />
	</node>
<<<<<<< HEAD
	<node lat="60.403580219217076" lon="8.06101508868431" id="-23089">
		<tag k="name" v="Bjordalen" />
		<tag k="ssr:date" v="2019-12-27" />
		<tag k="ssr:gruppe" v="veg" />
		<tag k="ssr:hovedgruppe" v="infrastruktur" />
		<tag k="ssr:stedsnr" v="1033460" />
		<tag k="ssr:type" v="adressenavn" />
	</node>
	<node lat="60.42823958579307" lon="8.092432124044619" id="-23090">
		<tag k="name" v="Vibu" />
		<tag k="ssr:date" v="2019-12-27" />
		<tag k="ssr:gruppe" v="veg" />
		<tag k="ssr:hovedgruppe" v="infrastruktur" />
		<tag k="ssr:stedsnr" v="1033467" />
		<tag k="ssr:type" v="adressenavn" />
	</node>
	<node lat="60.49111515876839" lon="7.913775736035818" id="-23091">
		<tag k="name" v="Lysthus" />
		<tag k="ssr:date" v="2019-12-27" />
		<tag k="ssr:gruppe" v="veg" />
		<tag k="ssr:hovedgruppe" v="infrastruktur" />
		<tag k="ssr:stedsnr" v="1033474" />
		<tag k="ssr:type" v="adressenavn" />
	</node>
	<node lat="60.38764224613057" lon="7.738833545322247" id="-23092">
		<tag k="name" v="Halnetunga" />
		<tag k="ssr:date" v="2019-12-27" />
		<tag k="ssr:gruppe" v="veg" />
		<tag k="ssr:hovedgruppe" v="infrastruktur" />
		<tag k="ssr:stedsnr" v="1033485" />
		<tag k="ssr:type" v="adressenavn" />
	</node>
	<node lat="60.550776143612055" lon="7.796642270982508" id="-23093">
		<tag k="name" v="Hellevatnet" />
		<tag k="ssr:date" v="2019-12-27" />
		<tag k="ssr:gruppe" v="veg" />
		<tag k="ssr:hovedgruppe" v="infrastruktur" />
		<tag k="ssr:stedsnr" v="1033501" />
		<tag k="ssr:type" v="adressenavn" />
	</node>
	<node lat="60.47252516331483" lon="7.77482535922393" id="-23094">
		<tag k="name" v="Ørteren" />
		<tag k="ssr:date" v="2019-12-27" />
		<tag k="ssr:gruppe" v="veg" />
		<tag k="ssr:hovedgruppe" v="infrastruktur" />
		<tag k="ssr:stedsnr" v="1033504" />
		<tag k="ssr:type" v="adressenavn" />
	</node>
	<node lat="60.54914783673947" lon="7.979693603231581" id="-23095">
		<tag k="name" v="Tvergastein" />
		<tag k="ssr:date" v="2019-12-27" />
		<tag k="ssr:gruppe" v="veg" />
		<tag k="ssr:hovedgruppe" v="infrastruktur" />
		<tag k="ssr:stedsnr" v="1033507" />
		<tag k="ssr:type" v="adressenavn" />
	</node>
	<node lat="60.59587205438832" lon="8.169808346021929" id="-23096">
		<tag k="name" v="Belvatnet" />
		<tag k="ssr:date" v="2019-12-27" />
		<tag k="ssr:gruppe" v="veg" />
		<tag k="ssr:hovedgruppe" v="infrastruktur" />
		<tag k="ssr:stedsnr" v="1033510" />
		<tag k="ssr:type" v="adressenavn" />
	</node>
	<node lat="60.59963408631972" lon="8.247956877601505" id="-23097">
		<tag k="name" v="Oseberget" />
		<tag k="ssr:date" v="2019-12-27" />
		<tag k="ssr:gruppe" v="veg" />
		<tag k="ssr:hovedgruppe" v="infrastruktur" />
		<tag k="ssr:stedsnr" v="1033518" />
		<tag k="ssr:type" v="adressenavn" />
	</node>
	<node lat="60.69942599108088" lon="7.803130132631888" id="-23098">
		<tag k="name" v="Ynglesdalen" />
		<tag k="ssr:date" v="2019-12-27" />
		<tag k="ssr:gruppe" v="veg" />
		<tag k="ssr:hovedgruppe" v="infrastruktur" />
		<tag k="ssr:stedsnr" v="1033522" />
		<tag k="ssr:type" v="adressenavn" />
	</node>
	<node lat="60.67922448836946" lon="7.678220293526327" id="-23099">
=======
	<node id="-280416" lat="60.4133062568" lon="8.20469623685">
		<tag k="name" v="Ljosevatnet" />
		<tag k="ssr:date" v="2019-12-27" />
		<tag k="ssr:gruppe" v="veg" />
		<tag k="ssr:hovedgruppe" v="infrastruktur" />
		<tag k="ssr:stedsnr" v="1033446" />
		<tag k="ssr:type" v="adressenavn" />
	</node>
	<node id="-280415" lat="60.4546518054" lon="8.52830258443">
		<tag k="name" v="Kjerbu" />
		<tag k="ssr:date" v="2019-12-27" />
		<tag k="ssr:gruppe" v="veg" />
		<tag k="ssr:hovedgruppe" v="infrastruktur" />
		<tag k="ssr:stedsnr" v="1033438" />
		<tag k="ssr:type" v="adressenavn" />
	</node>
	<node id="-280414" lat="60.5146702282" lon="8.3357958968">
		<tag k="name" v="Raudløkdalen" />
		<tag k="ssr:date" v="2019-12-27" />
		<tag k="ssr:gruppe" v="veg" />
		<tag k="ssr:hovedgruppe" v="infrastruktur" />
		<tag k="ssr:stedsnr" v="1033425" />
		<tag k="ssr:type" v="adressenavn" />
	</node>
	<node id="-279261" lat="60.5258277779" lon="8.15300277031">
		<tag k="name" v="Fetavegen" />
		<tag k="ssr:date" v="2019-12-27" />
		<tag k="ssr:gruppe" v="veg" />
		<tag k="ssr:hovedgruppe" v="infrastruktur" />
		<tag k="ssr:stedsnr" v="56592" />
		<tag k="ssr:type" v="vegstrekning" />
	</node>
	<node id="-279162" lat="60.4825282787" lon="8.17547359438">
		<tag k="name" v="Birgitstølhovda" />
		<tag k="ssr:date" v="2019-12-27" />
		<tag k="ssr:gruppe" v="veg" />
		<tag k="ssr:hovedgruppe" v="infrastruktur" />
		<tag k="ssr:stedsnr" v="1033416" />
		<tag k="ssr:type" v="adressenavn" />
	</node>
	<node id="-279161" lat="60.6060305742" lon="7.8020417983">
		<tag k="name" v="Folarskardet" />
		<tag k="ssr:date" v="2019-12-27" />
		<tag k="ssr:gruppe" v="veg" />
		<tag k="ssr:hovedgruppe" v="infrastruktur" />
		<tag k="ssr:stedsnr" v="1033531" />
		<tag k="ssr:type" v="adressenavn" />
	</node>
	<node id="-279252" lat="60.5785972195" lon="8.30204443975">
		<tag k="name" v="Gamlevegen" />
		<tag k="ssr:date" v="2019-12-27" />
		<tag k="ssr:gruppe" v="veg" />
		<tag k="ssr:hovedgruppe" v="infrastruktur" />
		<tag k="ssr:stedsnr" v="42666" />
		<tag k="ssr:type" v="vegstrekning" />
	</node>
	<node id="-279160" lat="60.6160824022" lon="7.98370138811">
		<tag k="name" v="Bukkehallin" />
		<tag k="ssr:date" v="2019-12-27" />
		<tag k="ssr:gruppe" v="veg" />
		<tag k="ssr:hovedgruppe" v="infrastruktur" />
		<tag k="ssr:stedsnr" v="1033528" />
		<tag k="ssr:type" v="adressenavn" />
	</node>
	<node id="-278222" lat="60.5237305598" lon="8.22441666708">
		<tag k="name" v="Slåttestølen" />
		<tag k="ssr:date" v="2019-12-27" />
		<tag k="ssr:gruppe" v="veg" />
		<tag k="ssr:hovedgruppe" v="infrastruktur" />
		<tag k="ssr:stedsnr" v="163605" />
		<tag k="ssr:type" v="vegstrekning" />
	</node>
	<node id="-278860" lat="60.5572138904" lon="8.20785832606">
		<tag k="name" v="Ljøtestigen" />
		<tag k="ssr:date" v="2019-12-27" />
		<tag k="ssr:gruppe" v="veg" />
		<tag k="ssr:hovedgruppe" v="infrastruktur" />
		<tag k="ssr:stedsnr" v="661291" />
		<tag k="ssr:type" v="vegstrekning" />
	</node>
	<node id="-279159" lat="60.6792244884" lon="7.67822029353">
>>>>>>> e1d4bc35ff8a6074a6f2e91616a996b547c36f15
		<tag k="name" v="Skarvåtjørnan" />
		<tag k="ssr:date" v="2019-12-27" />
		<tag k="ssr:gruppe" v="veg" />
		<tag k="ssr:hovedgruppe" v="infrastruktur" />
		<tag k="ssr:stedsnr" v="1033525" />
		<tag k="ssr:type" v="adressenavn" />
	</node>
<<<<<<< HEAD
	<node lat="60.6160824022025" lon="7.983701388107425" id="-23100">
		<tag k="name" v="Bukkehallin" />
		<tag k="ssr:date" v="2019-12-27" />
		<tag k="ssr:gruppe" v="veg" />
		<tag k="ssr:hovedgruppe" v="infrastruktur" />
		<tag k="ssr:stedsnr" v="1033528" />
		<tag k="ssr:type" v="adressenavn" />
	</node>
	<node lat="60.60603057424762" lon="7.802041798303799" id="-23101">
		<tag k="name" v="Folarskardet" />
		<tag k="ssr:date" v="2019-12-27" />
		<tag k="ssr:gruppe" v="veg" />
		<tag k="ssr:hovedgruppe" v="infrastruktur" />
		<tag k="ssr:stedsnr" v="1033531" />
		<tag k="ssr:type" v="adressenavn" />
	</node>
	<node lat="60.49248656245621" lon="8.242822474282423" id="-23102">
		<tag k="name" v="Nedre Solhovdlie" />
		<tag k="ssr:date" v="2019-12-27" />
		<tag k="ssr:gruppe" v="veg" />
		<tag k="ssr:hovedgruppe" v="infrastruktur" />
		<tag k="ssr:stedsnr" v="1033678" />
		<tag k="ssr:type" v="adressenavn" />
	</node>
	<node lat="60.492856778325276" lon="8.243822151534818" id="-23103">
		<tag k="name" v="Solhovdlie" />
		<tag k="ssr:date" v="2019-12-27" />
		<tag k="ssr:gruppe" v="veg" />
		<tag k="ssr:hovedgruppe" v="infrastruktur" />
		<tag k="ssr:stedsnr" v="1033682" />
		<tag k="ssr:type" v="adressenavn" />
	</node>
	<node lat="60.72054738584548" lon="7.635366215015721" id="-23104">
		<tag k="name" v="Sundhellerskarvet" />
		<tag k="ssr:date" v="2019-12-27" />
		<tag k="ssr:gruppe" v="veg" />
		<tag k="ssr:hovedgruppe" v="infrastruktur" />
		<tag k="ssr:stedsnr" v="1033838" />
		<tag k="ssr:type" v="adressenavn" />
	</node>
	<node lat="60.7556264186672" lon="8.036202118406498" id="-23105">
		<tag k="name" v="Stolsvatnet" />
		<tag k="ssr:date" v="2019-12-27" />
		<tag k="ssr:gruppe" v="veg" />
		<tag k="ssr:hovedgruppe" v="infrastruktur" />
		<tag k="ssr:stedsnr" v="1033841" />
		<tag k="ssr:type" v="adressenavn" />
	</node>
	<node lat="60.76738957584934" lon="7.905067408547094" id="-23106">
		<tag k="name" v="Flyane" />
		<tag k="ssr:date" v="2019-12-27" />
		<tag k="ssr:gruppe" v="veg" />
		<tag k="ssr:hovedgruppe" v="infrastruktur" />
		<tag k="ssr:stedsnr" v="1033844" />
		<tag k="ssr:type" v="adressenavn" />
	</node>
	<node lat="60.632244011065204" lon="8.254649915653818" id="-23107">
		<tag k="name" v="Helgeset" />
		<tag k="ssr:date" v="2019-12-27" />
		<tag k="ssr:gruppe" v="veg" />
		<tag k="ssr:hovedgruppe" v="infrastruktur" />
		<tag k="ssr:stedsnr" v="1033825" />
		<tag k="ssr:type" v="adressenavn" />
	</node>
	<node lat="60.675903574740914" lon="8.104838849773044" id="-23108">
		<tag k="name" v="Hovsåsen" />
		<tag k="ssr:date" v="2019-12-27" />
		<tag k="ssr:gruppe" v="veg" />
		<tag k="ssr:hovedgruppe" v="infrastruktur" />
		<tag k="ssr:stedsnr" v="1033829" />
		<tag k="ssr:type" v="adressenavn" />
	</node>
	<node lat="60.69637310522576" lon="7.562598977194854" id="-23109">
		<tag k="name" v="Bakkehelleren" />
		<tag k="ssr:date" v="2019-12-27" />
		<tag k="ssr:gruppe" v="veg" />
		<tag k="ssr:hovedgruppe" v="infrastruktur" />
		<tag k="ssr:stedsnr" v="1033833" />
		<tag k="ssr:type" v="adressenavn" />
	</node>
	<node lat="60.759753391617295" lon="7.773794146004658" id="-23110">
		<tag k="name" v="Skorpa" />
		<tag k="ssr:date" v="2019-12-27" />
		<tag k="ssr:gruppe" v="veg" />
		<tag k="ssr:hovedgruppe" v="infrastruktur" />
		<tag k="ssr:stedsnr" v="1033860" />
		<tag k="ssr:type" v="adressenavn" />
	</node>
	<node lat="60.82843845832183" lon="7.91864731826083" id="-23111">
		<tag k="name" v="Iungsdalen" />
		<tag k="ssr:date" v="2019-12-27" />
		<tag k="ssr:gruppe" v="veg" />
		<tag k="ssr:hovedgruppe" v="infrastruktur" />
		<tag k="ssr:stedsnr" v="1033863" />
		<tag k="ssr:type" v="adressenavn" />
=======
	<node id="-279158" lat="60.6994259911" lon="7.80313013263">
		<tag k="name" v="Ynglesdalen" />
		<tag k="ssr:date" v="2019-12-27" />
		<tag k="ssr:gruppe" v="veg" />
		<tag k="ssr:hovedgruppe" v="infrastruktur" />
		<tag k="ssr:stedsnr" v="1033522" />
		<tag k="ssr:type" v="adressenavn" />
	</node>
	<node id="-278337" lat="60.4118305558" lon="8.47360832859">
		<tag k="name" v="Vestlivegen" />
		<tag k="ssr:date" v="2019-12-27" />
		<tag k="ssr:gruppe" v="veg" />
		<tag k="ssr:hovedgruppe" v="infrastruktur" />
		<tag k="ssr:stedsnr" v="483332" />
		<tag k="ssr:type" v="vegstrekning" />
	</node>
	<node id="-279231" lat="60.5269166674" lon="8.29887777707">
		<tag k="name" v="Gamle Skurdalsvegen" />
		<tag k="ssr:date" v="2019-12-27" />
		<tag k="ssr:gruppe" v="veg" />
		<tag k="ssr:hovedgruppe" v="infrastruktur" />
		<tag k="ssr:stedsnr" v="7785" />
		<tag k="ssr:type" v="vegstrekning" />
	</node>
	<node id="-279157" lat="60.5996340863" lon="8.2479568776">
		<tag k="name" v="Oseberget" />
		<tag k="ssr:date" v="2019-12-27" />
		<tag k="ssr:gruppe" v="veg" />
		<tag k="ssr:hovedgruppe" v="infrastruktur" />
		<tag k="ssr:stedsnr" v="1033518" />
		<tag k="ssr:type" v="adressenavn" />
	</node>
	<node id="-280308" lat="60.5614166625" lon="8.33668610454">
		<tag k="name" v="Skåle" />
		<tag k="ssr:date" v="2019-12-27" />
		<tag k="ssr:gruppe" v="veg" />
		<tag k="ssr:hovedgruppe" v="infrastruktur" />
		<tag k="ssr:stedsnr" v="846882" />
		<tag k="ssr:type" v="vegstrekning" />
	</node>
	<node id="-279475" lat="60.576247224" lon="8.24456388679">
		<tag k="name" v="Gamle Vedalsvegen" />
		<tag k="ssr:date" v="2019-12-27" />
		<tag k="ssr:gruppe" v="veg" />
		<tag k="ssr:hovedgruppe" v="infrastruktur" />
		<tag k="ssr:stedsnr" v="180028" />
		<tag k="ssr:type" v="vegstrekning" />
	</node>
	<node id="-279469" lat="60.5456777799" lon="8.2050416581">
		<tag k="name" v="Øvre Jonstølvegen" />
		<tag k="ssr:date" v="2019-12-27" />
		<tag k="ssr:gruppe" v="veg" />
		<tag k="ssr:hovedgruppe" v="infrastruktur" />
		<tag k="ssr:stedsnr" v="176490" />
		<tag k="ssr:type" v="adressenavn" />
	</node>
	<node id="-279156" lat="60.4930024223" lon="8.24433019715">
		<tag k="name" v="Solhalle" />
		<tag k="ssr:date" v="2019-12-27" />
		<tag k="ssr:gruppe" v="veg" />
		<tag k="ssr:hovedgruppe" v="infrastruktur" />
		<tag k="ssr:stedsnr" v="1033336" />
		<tag k="ssr:type" v="adressenavn" />
	</node>
	<node id="-278309" lat="60.5283694473" lon="8.23336110271">
		<tag k="name" v="Anleggsvegen" />
		<tag k="ssr:date" v="2019-12-27" />
		<tag k="ssr:gruppe" v="veg" />
		<tag k="ssr:hovedgruppe" v="infrastruktur" />
		<tag k="ssr:stedsnr" v="467642" />
		<tag k="ssr:type" v="vegstrekning" />
	</node>
	<node id="-279163" lat="60.6322440111" lon="8.25464991565">
		<tag k="name" v="Helgeset" />
		<tag k="ssr:date" v="2019-12-27" />
		<tag k="ssr:gruppe" v="veg" />
		<tag k="ssr:hovedgruppe" v="infrastruktur" />
		<tag k="ssr:stedsnr" v="1033825" />
		<tag k="ssr:type" v="adressenavn" />
	</node>
	<node id="-279689" lat="60.6150944405" lon="8.0897166736">
		<tag k="name" v="Kjerrefløte" />
		<tag k="ssr:date" v="2019-12-27" />
		<tag k="ssr:gruppe" v="veg" />
		<tag k="ssr:hovedgruppe" v="infrastruktur" />
		<tag k="ssr:stedsnr" v="344016" />
		<tag k="ssr:type" v="vegstrekning" />
	</node>
	<node id="-280456" lat="69.6388889725" lon="30.5666644427">
		<tag k="fixme" v="multiple name tags, choose one and add the other to alt_name" />
		<tag k="loc_name:se" v="Norgga gonagasriika" />
		<tag k="loc_name:sma" v="Nöörjen gånkarïjhke" />
		<tag k="loc_name:smj" v="Vuona gånågisrijkka" />
		<tag k="name" v="Noreg;Norge" />
		<tag k="name:en" v="Norway" />
		<tag k="name:no" v="Noreg;Norge" />
		<tag k="ssr:date" v="2020-06-04" />
		<tag k="ssr:gruppe" v="administrativeIndelinger" />
		<tag k="ssr:hovedgruppe" v="offentligAdministrasjon" />
		<tag k="ssr:stedsnr" v="26330" />
		<tag k="ssr:type" v="nasjon" />
	</node>
	<node id="-280450" lat="59.9116896876" lon="10.7581882267">
		<tag k="name" v="Viken fylke" />
		<tag k="ssr:date" v="2020-01-13" />
		<tag k="ssr:gruppe" v="administrativeIndelinger" />
		<tag k="ssr:hovedgruppe" v="offentligAdministrasjon" />
		<tag k="ssr:stedsnr" v="1074403" />
		<tag k="ssr:type" v="fylke" />
	</node>
	<node id="-280449" lat="60.5293547153" lon="7.80223056427">
		<tag k="name" v="Rallarvegen" />
		<tag k="ssr:date" v="2019-12-27" />
		<tag k="ssr:gruppe" v="veg" />
		<tag k="ssr:hovedgruppe" v="infrastruktur" />
		<tag k="ssr:stedsnr" v="1073540" />
		<tag k="ssr:type" v="vegstrekning" />
>>>>>>> e1d4bc35ff8a6074a6f2e91616a996b547c36f15
	</node>
</osm>
