<?xml version="1.0" encoding="UTF-8"?>
<osm generator="osmapis" version="0.6">
	<node id="-141502" lat="66.2420388888" lon="13.523444434">
		<tag k="name" v="Sandnes" />
		<tag k="ssr:date" v="2016-05-11" />
		<tag k="ssr:gruppe" v="navigasjon" />
		<tag k="ssr:hovedgruppe" v="infrastruktur" />
		<tag k="ssr:stedsnr" v="743122" />
		<tag k="ssr:type" v="fyrlykt" />
	</node>
	<node id="-141980" lat="66.0722512374" lon="13.812742928">
		<tag k="name" v="Tømmerbakkmoen" />
		<tag k="ssr:date" v="2019-12-13" />
		<tag k="ssr:gruppe" v="veg" />
		<tag k="ssr:hovedgruppe" v="infrastruktur" />
		<tag k="ssr:stedsnr" v="1074289" />
		<tag k="ssr:type" v="adressenavn" />
	</node>
	<node id="-141979" lat="66.094914522" lon="13.8252269306">
		<tag k="name" v="Vollaveien" />
		<tag k="ssr:date" v="2019-12-13" />
		<tag k="ssr:gruppe" v="veg" />
		<tag k="ssr:hovedgruppe" v="infrastruktur" />
		<tag k="ssr:stedsnr" v="1074288" />
		<tag k="ssr:type" v="adressenavn" />
	</node>
	<node id="-141978" lat="66.1448052903" lon="13.8403172887">
		<tag k="name" v="Lillebjerkaveien" />
		<tag k="ssr:date" v="2019-12-13" />
		<tag k="ssr:gruppe" v="veg" />
		<tag k="ssr:hovedgruppe" v="infrastruktur" />
		<tag k="ssr:stedsnr" v="1074287" />
		<tag k="ssr:type" v="adressenavn" />
	</node>
	<node id="-141977" lat="65.9193228671" lon="13.8733952213">
		<tag k="name" v="Ole K. Brønseths vei" />
		<tag k="ssr:date" v="2019-12-13" />
		<tag k="ssr:gruppe" v="veg" />
		<tag k="ssr:hovedgruppe" v="infrastruktur" />
		<tag k="ssr:stedsnr" v="1074286" />
		<tag k="ssr:type" v="adressenavn" />
	</node>
	<node id="-141976" lat="66.0642161434" lon="13.8301160957">
		<tag k="name" v="Sørfjellveien" />
		<tag k="ssr:date" v="2019-12-13" />
		<tag k="ssr:gruppe" v="veg" />
		<tag k="ssr:hovedgruppe" v="infrastruktur" />
		<tag k="ssr:stedsnr" v="1074283" />
		<tag k="ssr:type" v="adressenavn" />
	</node>
	<node id="-141975" lat="65.8144503525" lon="13.9089684374">
		<tag k="name" v="Orrhaugveien" />
		<tag k="ssr:date" v="2019-12-11" />
		<tag k="ssr:gruppe" v="veg" />
		<tag k="ssr:hovedgruppe" v="infrastruktur" />
		<tag k="ssr:stedsnr" v="1074080" />
		<tag k="ssr:type" v="adressenavn" />
	</node>
	<node id="-141974" lat="63.1711744" lon="-6.76544376313">
		<tag k="name" v="Norumveien" />
		<tag k="ssr:date" v="2019-12-11" />
		<tag k="ssr:gruppe" v="veg" />
		<tag k="ssr:hovedgruppe" v="infrastruktur" />
		<tag k="ssr:stedsnr" v="1074079" />
		<tag k="ssr:type" v="adressenavn" />
	</node>
	<node id="-141973" lat="65.8590958961" lon="13.7942263732">
		<tag k="name" v="Tverrbergveien" />
		<tag k="ssr:date" v="2019-12-11" />
		<tag k="ssr:gruppe" v="veg" />
		<tag k="ssr:hovedgruppe" v="infrastruktur" />
		<tag k="ssr:stedsnr" v="1074078" />
		<tag k="ssr:type" v="adressenavn" />
	</node>
	<node id="-141972" lat="65.8727682842" lon="14.1339887038">
		<tag k="name" v="Tortenliveien" />
		<tag k="ssr:date" v="2019-12-11" />
		<tag k="ssr:gruppe" v="veg" />
		<tag k="ssr:hovedgruppe" v="infrastruktur" />
		<tag k="ssr:stedsnr" v="1074077" />
		<tag k="ssr:type" v="adressenavn" />
	</node>
	<node id="-141971" lat="65.7984187141" lon="13.9522146061">
		<tag k="name" v="Kvalbuktveien" />
		<tag k="ssr:date" v="2019-12-11" />
		<tag k="ssr:gruppe" v="veg" />
		<tag k="ssr:hovedgruppe" v="infrastruktur" />
		<tag k="ssr:stedsnr" v="1074075" />
		<tag k="ssr:type" v="adressenavn" />
	</node>
	<node id="-141970" lat="65.8883635792" lon="14.0693560781">
		<tag k="name" v="Stubbliveien" />
		<tag k="ssr:date" v="2019-12-11" />
		<tag k="ssr:gruppe" v="veg" />
		<tag k="ssr:hovedgruppe" v="infrastruktur" />
		<tag k="ssr:stedsnr" v="1074076" />
		<tag k="ssr:type" v="adressenavn" />
	</node>
	<node id="-141969" lat="66.0651990753" lon="13.7957574473">
		<tag k="name" v="Villmoveien" />
		<tag k="ssr:date" v="2019-12-11" />
		<tag k="ssr:gruppe" v="veg" />
		<tag k="ssr:hovedgruppe" v="infrastruktur" />
		<tag k="ssr:stedsnr" v="1074074" />
		<tag k="ssr:type" v="adressenavn" />
	</node>
	<node id="-141968" lat="65.9082022788" lon="13.8064536303">
		<tag k="name" v="Villmarksveien" />
		<tag k="ssr:date" v="2019-12-11" />
		<tag k="ssr:gruppe" v="veg" />
		<tag k="ssr:hovedgruppe" v="infrastruktur" />
		<tag k="ssr:stedsnr" v="1074073" />
		<tag k="ssr:type" v="adressenavn" />
	</node>
	<node id="-141592" lat="66.2457222221" lon="13.6990805572">
		<tag k="name" v="Ranskjæret Indre" />
		<tag k="ssr:date" v="2019-12-27" />
		<tag k="ssr:gruppe" v="navigasjon" />
		<tag k="ssr:hovedgruppe" v="infrastruktur" />
		<tag k="ssr:stedsnr" v="782994" />
		<tag k="ssr:type" v="lanterne" />
	</node>
	<node id="-141946" lat="66.2285866336" lon="13.6407752389">
		<tag k="name" v="Marenvegen" />
		<tag k="ssr:date" v="2019-05-30" />
		<tag k="ssr:gruppe" v="veg" />
		<tag k="ssr:hovedgruppe" v="infrastruktur" />
		<tag k="ssr:stedsnr" v="1000492" />
		<tag k="ssr:type" v="adressenavn" />
	</node>
	<node id="-139841" lat="66.0771083305" lon="13.8134916654">
		<tag k="name" v="Hemnes kommune" />
		<tag k="ssr:date" v="2016-05-10" />
		<tag k="ssr:gruppe" v="administrativeIndelinger" />
		<tag k="ssr:hovedgruppe" v="offentligAdministrasjon" />
		<tag k="ssr:stedsnr" v="572460" />
		<tag k="ssr:type" v="kommune" />
	</node>
</osm>
