<?xml version="1.0" encoding="UTF-8"?>
<osm version="0.6" generator="osmapis">
	<node lat="58.094952775186606" lon="7.787308330293721" id="-25843">
		<tag k="amenity" v="place_of_worship" />
		<tag k="denomination" v="lutheran" />
		<tag k="name" v="Søgne kirke" />
		<tag k="religion" v="christian" />
		<tag k="ssr:stedsnr" v="150" />
	</node>
	<node lat="58.14469722027299" lon="7.997672214297463" id="-26860">
		<tag k="amenity" v="place_of_worship" />
		<tag k="fixme" v="specify religion=*, denomination=*, building=* etc" />
		<tag k="name" v="St. Ansgars" />
		<tag k="ssr:stedsnr" v="227688" />
	</node>
	<node lat="58.14610277561414" lon="7.994133337235752" id="-26877">
		<tag k="amenity" v="place_of_worship" />
		<tag k="denomination" v="lutheran" />
		<tag k="fixme" v="multiple name tags, choose one and add the other to alt_name" />
		<tag k="name" v="Domkirken;Kristiansand domkirke" />
		<tag k="religion" v="christian" />
		<tag k="ssr:stedsnr" v="228995" />
	</node>
	<node lat="58.10188055135258" lon="7.947644448897163" id="-27467">
		<tag k="amenity" v="community_centre" />
		<tag k="name" v="Voie grendehus" />
		<tag k="ssr:stedsnr" v="471634" />
	</node>
	<node lat="58.15290906609327" lon="7.827634971464598" id="-27622">
		<tag k="amenity" v="place_of_worship" />
		<tag k="denomination" v="lutheran" />
		<tag k="name" v="Greipstad kirke" />
		<tag k="religion" v="christian" />
		<tag k="ssr:stedsnr" v="364215" />
	</node>
	<node lat="58.07589722021425" lon="8.001261110497541" id="-27744">
		<tag k="alt_name" v="Flekkerøya kirke" />
		<tag k="amenity" v="place_of_worship" />
		<tag k="denomination" v="lutheran" />
		<tag k="name" v="Flekkerøy kirke" />
		<tag k="religion" v="christian" />
		<tag k="ssr:stedsnr" v="485146" />
	</node>
	<node lat="58.230086111703855" lon="8.118983329017928" id="-27862">
		<tag k="amenity" v="community_centre" />
		<tag k="name" v="Sandvin" />
		<tag k="ssr:stedsnr" v="409101" />
	</node>
	<node lat="58.19594999687941" lon="8.08401666822893" id="-27876">
		<tag k="name" v="Øvre Kolmila" />
		<tag k="place" v="locality" />
		<tag k="ssr:stedsnr" v="409992" />
	</node>
	<node lat="58.31556111483118" lon="7.590474996109099" id="-28140">
		<tag k="amenity" v="place_of_worship" />
		<tag k="denomination" v="lutheran" />
		<tag k="name" v="Finsland kirke" />
		<tag k="religion" v="christian" />
		<tag k="ssr:stedsnr" v="485723" />
	</node>
	<node lat="58.134769447052214" lon="7.783813885070823" id="-28239">
		<tag k="name" v="Lindåsvarden" />
		<tag k="ssr:stedsnr" v="523768" />
		<tag k="tourism" v="viewpoint" />
	</node>
	<node lat="58.1526277760964" lon="8.012125004793761" id="-28383">
		<tag k="amenity" v="place_of_worship" />
		<tag k="denomination" v="lutheran" />
		<tag k="name" v="Lund kirke" />
		<tag k="religion" v="christian" />
		<tag k="ssr:stedsnr" v="531982" />
	</node>
	<node lat="58.09638888704851" lon="7.983049995762549" id="-28494">
		<tag k="name" v="Fredriksholm" />
		<tag k="ssr:stedsnr" v="570373" />
		<tag k="tourism" v="attraction" />
	</node>
	<node lat="58.13419281591865" lon="8.117550179865448" id="-29156">
		<tag k="alt_name" v="Randesund" />
		<tag k="amenity" v="place_of_worship" />
		<tag k="denomination" v="lutheran" />
		<tag k="name" v="Randesund kirke" />
		<tag k="religion" v="christian" />
		<tag k="ssr:stedsnr" v="667513" />
	</node>
</osm>
