<?xml version="1.0" encoding="UTF-8"?>
<osm version="0.6" generator="osmapis">
	<node lat="58.0951277786145" lon="7.911158330213111" id="-37779">
		<tag k="alt_name" v="Vennemyr" />
		<tag k="fixme" v="consider place=hamlet" />
		<tag k="name" v="Vennemyra" />
		<tag k="place" v="farm" />
		<tag k="ssr:stedsnr" v="162" />
	</node>
	<node lat="58.100374999273264" lon="7.931458325232121" id="-37780">
		<tag k="name" v="Holskogen" />
		<tag k="place" v="farm" />
		<tag k="ssr:stedsnr" v="164" />
	</node>
	<node lat="58.08357500358057" lon="7.781213883041705" id="-37781">
		<tag k="alt_name" v="Båråker" />
		<tag k="loc_name" v="Borrågeren" />
		<tag k="name" v="Bårågeren" />
		<tag k="place" v="farm" />
		<tag k="ssr:stedsnr" v="171" />
	</node>
	<node lat="58.30348611048991" lon="7.64349445143563" id="-37788">
		<tag k="name" v="Åsvik" />
		<tag k="place" v="farm" />
		<tag k="ssr:stedsnr" v="848" />
	</node>
	<node lat="58.33141111542602" lon="7.581130549356469" id="-37790">
		<tag k="name" v="Hagen" />
		<tag k="place" v="farm" />
		<tag k="ssr:stedsnr" v="757" />
	</node>
	<node lat="58.07123610838343" lon="7.700499996937546" id="-37791">
		<tag k="fixme" v="consider place=hamlet" />
		<tag k="name" v="Skarpeid" />
		<tag k="place" v="farm" />
		<tag k="ssr:stedsnr" v="905" />
	</node>
	<node lat="58.06944999569049" lon="7.671363881363691" id="-37792">
		<tag k="historic" v="shieling" />
		<tag k="name" v="Sto" />
		<tag k="place" v="isolated_dwelling" />
		<tag k="ssr:stedsnr" v="907" />
	</node>
	<node lat="58.211183329169195" lon="8.005766664106295" id="-37825">
		<tag k="historic" v="shieling" />
		<tag k="name" v="Grostøl" />
		<tag k="place" v="isolated_dwelling" />
		<tag k="ssr:stedsnr" v="24416" />
	</node>
	<node lat="58.146244446472025" lon="7.932958324885454" id="-37834">
		<tag k="name" v="Hellemyr" />
		<tag k="place" v="suburb" />
		<tag k="ssr:stedsnr" v="26127" />
	</node>
	<node lat="58.071111114168026" lon="7.754241660194612" id="-37842">
		<tag k="name" v="Hallandvik" />
		<tag k="place" v="farm" />
		<tag k="ssr:stedsnr" v="28120" />
	</node>
	<node lat="58.09789722493972" lon="7.973152774914944" id="-37856">
		<tag k="name" v="Vik" />
		<tag k="place" v="isolated_dwelling" />
		<tag k="ssr:stedsnr" v="36202" />
	</node>
	<node lat="58.319763890394476" lon="7.69053055579296" id="-37872">
		<tag k="name" v="Kleiveløa" />
		<tag k="place" v="isolated_dwelling" />
		<tag k="ssr:stedsnr" v="38511" />
	</node>
	<node lat="58.305049998905616" lon="7.6628611161389335" id="-37873">
		<tag k="name" v="Kleiveløa" />
		<tag k="place" v="isolated_dwelling" />
		<tag k="ssr:stedsnr" v="38513" />
	</node>
	<node lat="58.226944444568026" lon="7.790988883268176" id="-37897">
		<tag k="fixme" v="consider place=hamlet" />
		<tag k="loc_name" v="Horndalen" />
		<tag k="name" v="Hundalen" />
		<tag k="place" v="farm" />
		<tag k="ssr:stedsnr" v="38857" />
	</node>
	<node lat="58.155038891050275" lon="8.087483341455568" id="-38006">
		<tag k="name" v="Strømme" />
		<tag k="place" v="farm" />
		<tag k="ssr:stedsnr" v="45601" />
	</node>
	<node lat="58.21366453797331" lon="8.092673430063279" id="-38008">
		<tag k="name" v="Buplassen" />
		<tag k="place" v="isolated_dwelling" />
		<tag k="ssr:stedsnr" v="45974" />
	</node>
	<node lat="58.1222888863187" lon="7.95286110829764" id="-38021">
		<tag k="amenity" v="nursing_home" />
		<tag k="name" v="Vågsbygdtunet" />
		<tag k="ssr:stedsnr" v="46415" />
	</node>
	<node lat="58.22609444047725" lon="7.87275833021893" id="-38030">
		<tag k="name" v="Espestøl" />
		<tag k="place" v="hamlet" />
		<tag k="ssr:stedsnr" v="46802" />
	</node>
	<node lat="58.16259999676473" lon="7.793061105524866" id="-38056">
		<tag k="name" v="Broksmyra" />
		<tag k="place" v="farm" />
		<tag k="ssr:stedsnr" v="60074" />
	</node>
	<node lat="58.149580552870326" lon="7.873186104563742" id="-38057">
		<tag k="alt_name" v="Hastebulia" />
		<tag k="fixme" v="consider place=hamlet" />
		<tag k="name" v="Haslebulia" />
		<tag k="place" v="farm" />
		<tag k="ssr:stedsnr" v="60203" />
	</node>
	<node lat="58.141186106713086" lon="8.17511388956719" id="-38061">
		<tag k="alt_name" v="Ådnevik" />
		<tag k="fixme" v="consider place=hamlet" />
		<tag k="name" v="Ånevik" />
		<tag k="place" v="farm" />
		<tag k="ssr:stedsnr" v="60501" />
	</node>
	<node lat="58.205867773562204" lon="7.922777775851947" id="-38064">
		<tag k="alt_name" v="Aukland" />
		<tag k="fixme" v="consider place=hamlet" />
		<tag k="name" v="Augland" />
		<tag k="place" v="village" />
		<tag k="ssr:stedsnr" v="61010" />
	</node>
	<node lat="58.18002777403198" lon="7.75355833058346" id="-38065">
		<tag k="alt_name" v="Åsene" />
		<tag k="fixme" v="consider place=hamlet" />
		<tag k="name" v="Åsane" />
		<tag k="place" v="farm" />
		<tag k="ssr:stedsnr" v="61014" />
	</node>
	<node lat="58.184424995966204" lon="7.955477775792426" id="-38067">
		<tag k="alt_name" v="Prestøya" />
		<tag k="fixme" v="consider place=hamlet" />
		<tag k="name" v="Prestøyna" />
		<tag k="place" v="farm" />
		<tag k="ssr:stedsnr" v="61027" />
	</node>
	<node lat="58.22886666950392" lon="7.729752772070778" id="-38069">
		<tag k="alt_name" v="Fidje;Fidje vestre" />
		<tag k="name" v="Vestre Fidje" />
		<tag k="place" v="farm" />
		<tag k="ssr:stedsnr" v="61074" />
	</node>
	<node lat="58.11163055880436" lon="7.963586105598389" id="-38076">
		<tag k="fixme" v="consider place=hamlet" />
		<tag k="name" v="Voie" />
		<tag k="place" v="farm" />
		<tag k="ssr:stedsnr" v="61127" />
	</node>
	<node lat="58.236605559124705" lon="7.70250554871448" id="-38085">
		<tag k="loc_name" v="Heggeland" />
		<tag k="name" v="Heggland" />
		<tag k="place" v="farm" />
		<tag k="ssr:stedsnr" v="61720" />
	</node>
	<node lat="58.271847220064245" lon="7.582900005474908" id="-38091">
		<tag k="alt_name" v="Lauslandsmoen" />
		<tag k="name" v="Lauvslandsmoen" />
		<tag k="place" v="hamlet" />
		<tag k="ssr:stedsnr" v="61811" />
	</node>
	<node lat="58.16246313432223" lon="8.029429219589748" id="-38104">
		<tag k="alt_name" v="Kongsgard" />
		<tag k="fixme" v="consider place=hamlet" />
		<tag k="name" v="Kongsgård" />
		<tag k="place" v="farm" />
		<tag k="ssr:stedsnr" v="242045" />
	</node>
	<node lat="58.088125003871006" lon="7.854027778028923" id="-38105">
		<tag k="name" v="Berge" />
		<tag k="place" v="hamlet" />
		<tag k="ssr:stedsnr" v="242142" />
	</node>
	<node lat="58.12728729210164" lon="8.12643858072682" id="-38110">
		<tag k="fixme" v="consider place=hamlet" />
		<tag k="name" v="Støle" />
		<tag k="place" v="farm" />
		<tag k="ssr:stedsnr" v="242526" />
	</node>
	<node lat="58.267580558156176" lon="7.588627772586057" id="-38111">
		<tag k="name" v="Nesheim" />
		<tag k="place" v="farm" />
		<tag k="ssr:stedsnr" v="242808" />
	</node>
	<node lat="58.1727694489657" lon="7.827555556571931" id="-38115">
		<tag k="fixme" v="consider place=suburb, village or hamlet" />
		<tag k="name" v="Hortemo" />
		<tag k="place" v="quarter" />
		<tag k="ssr:stedsnr" v="243016" />
	</node>
	<node lat="58.25135277354575" lon="8.05099721770718" id="-38116">
		<tag k="fixme" v="consider place=hamlet" />
		<tag k="name" v="Lømsland" />
		<tag k="place" v="farm" />
		<tag k="ssr:stedsnr" v="243032" />
	</node>
	<node lat="58.14183888872461" lon="8.08023333752799" id="-38120">
		<tag k="fixme" v="consider place=hamlet" />
		<tag k="name" v="Korsvik" />
		<tag k="place" v="farm" />
		<tag k="ssr:stedsnr" v="243197" />
	</node>
	<node lat="58.134536113813574" lon="7.960616671779135" id="-38122">
		<tag k="name" v="Hannevika" />
		<tag k="place" v="suburb" />
		<tag k="ssr:stedsnr" v="243207" />
	</node>
	<node lat="58.21855000098604" lon="8.10114166709958" id="-38125">
		<tag k="name" v="Røllend" />
		<tag k="place" v="farm" />
		<tag k="ssr:stedsnr" v="243271" />
	</node>
	<node lat="58.07586111126495" lon="7.914375002154597" id="-38127">
		<tag k="fixme" v="consider place=hamlet" />
		<tag k="name" v="Romsvika" />
		<tag k="place" v="farm" />
		<tag k="ssr:stedsnr" v="243175" />
	</node>
	<node lat="58.07189166578803" lon="7.909458332891582" id="-38128">
		<tag k="alt_name" v="Hellevika" />
		<tag k="name" v="Helleviga" />
		<tag k="place" v="farm" />
		<tag k="ssr:stedsnr" v="243176" />
	</node>
	<node lat="58.05568200527607" lon="7.728053214999401" id="-38133">
		<tag k="name" v="Solskjer" />
		<tag k="place" v="isolated_dwelling" />
		<tag k="ssr:stedsnr" v="243327" />
	</node>
	<node lat="58.11461412941164" lon="8.126213112349927" id="-38137">
		<tag k="alt_name" v="Ringene" />
		<tag k="name" v="Ringane" />
		<tag k="place" v="isolated_dwelling" />
		<tag k="ssr:stedsnr" v="243517" />
	</node>
	<node lat="58.129663890041286" lon="7.600894437174928" id="-38138">
		<tag k="alt_name" v="Kjerr;Østre Kjær" />
		<tag k="fixme" v="consider place=hamlet" />
		<tag k="name" v="Kjær" />
		<tag k="place" v="farm" />
		<tag k="ssr:stedsnr" v="243767" />
	</node>
	<node lat="58.0336633387478" lon="7.6729994212158985" id="-38144">
		<tag k="name" v="Salthaug" />
		<tag k="place" v="farm" />
		<tag k="ssr:stedsnr" v="243973" />
	</node>
	<node lat="58.086375000738336" lon="7.696416666069099" id="-38146">
		<tag k="alt_name" v="Knibe, nedre" />
		<tag k="fixme" v="consider place=hamlet" />
		<tag k="name" v="Nedre Knibe" />
		<tag k="place" v="farm" />
		<tag k="ssr:stedsnr" v="243928" />
	</node>
	<node lat="58.10537500434339" lon="7.661661117303296" id="-38147">
		<tag k="name" v="Østre Try" />
		<tag k="place" v="farm" />
		<tag k="ssr:stedsnr" v="82008" />
	</node>
	<node lat="58.13016388688364" lon="7.730652770129408" id="-38160">
		<tag k="name" v="Øygarden" />
		<tag k="place" v="locality" />
		<tag k="ssr:stedsnr" v="82240" />
	</node>
	<node lat="58.150441666880205" lon="8.00675833459195" id="-38189">
		<tag k="building" v="industrial" />
		<tag k="name" v="Lahelle verft" />
		<tag k="ssr:stedsnr" v="95172" />
	</node>
	<node lat="58.18635555199386" lon="8.088972220857185" id="-38293">
		<tag k="name" v="Fjellet" />
		<tag k="place" v="hamlet" />
		<tag k="ssr:stedsnr" v="106027" />
	</node>
	<node lat="58.211894444132696" lon="8.126833340372325" id="-38298">
		<tag k="name" v="Moen" />
		<tag k="place" v="farm" />
		<tag k="ssr:stedsnr" v="106043" />
	</node>
	<node lat="58.14928611188499" lon="8.126419437347" id="-38311">
		<tag k="name" v="Solgård" />
		<tag k="place" v="farm" />
		<tag k="ssr:stedsnr" v="106684" />
	</node>
	<node lat="58.25061944025563" lon="8.047227780547445" id="-38320">
		<tag k="name" v="Lømsland" />
		<tag k="place" v="farm" />
		<tag k="ssr:stedsnr" v="107209" />
	</node>
	<node lat="58.14252222288732" lon="7.982316669980791" id="-38329">
		<tag k="building" v="industrial" />
		<tag k="name" v="Jens Knutsen mek.verksted" />
		<tag k="ssr:stedsnr" v="107924" />
	</node>
	<node lat="58.17047222664474" lon="8.087086117975149" id="-38330">
		<tag k="name" v="Hånes" />
		<tag k="place" v="farm" />
		<tag k="ssr:stedsnr" v="111807" />
	</node>
	<node lat="58.198969441936214" lon="7.742758333368762" id="-38346">
		<tag k="fixme" v="consider place=hamlet" />
		<tag k="name" v="Skår" />
		<tag k="place" v="farm" />
		<tag k="ssr:stedsnr" v="121019" />
	</node>
	<node lat="58.21017778093224" lon="7.929422219189891" id="-38347">
		<tag k="fixme" v="consider place=hamlet" />
		<tag k="name" v="Hagen" />
		<tag k="place" v="farm" />
		<tag k="ssr:stedsnr" v="121023" />
	</node>
	<node lat="58.07294444226421" lon="7.75187499198966" id="-38350">
		<tag k="name" v="Stølen" />
		<tag k="place" v="hamlet" />
		<tag k="ssr:stedsnr" v="121176" />
	</node>
	<node lat="58.22434444168379" lon="8.122030555782032" id="-38353">
		<tag k="fixme" v="consider place=hamlet" />
		<tag k="name" v="Dønnestad" />
		<tag k="place" v="farm" />
		<tag k="ssr:stedsnr" v="121305" />
	</node>
	<node lat="58.22895278177396" lon="8.132850001465469" id="-38354">
		<tag k="alt_name" v="Karlsmonen" />
		<tag k="fixme" v="consider place=hamlet" />
		<tag k="name" v="Karlsmoen" />
		<tag k="place" v="farm" />
		<tag k="ssr:stedsnr" v="121306" />
	</node>
	<node lat="58.23287222112257" lon="8.115772220470534" id="-38360">
		<tag k="alt_name" v="Egerhei" />
		<tag k="name" v="Ekerher" />
		<tag k="place" v="farm" />
		<tag k="ssr:stedsnr" v="121276" />
	</node>
	<node lat="58.117382311848004" lon="8.134925652989914" id="-38361">
		<tag k="fixme" v="consider place=hamlet" />
		<tag k="name" v="Stangenes" />
		<tag k="place" v="farm" />
		<tag k="ssr:stedsnr" v="121503" />
	</node>
	<node lat="58.116611162698455" lon="8.109878271623735" id="-38363">
		<tag k="name" v="Kirkevika" />
		<tag k="place" v="farm" />
		<tag k="ssr:stedsnr" v="121515" />
	</node>
	<node lat="58.158113888437825" lon="8.142947223014582" id="-38366">
		<tag k="name" v="Snømyra" />
		<tag k="place" v="farm" />
		<tag k="ssr:stedsnr" v="121581" />
	</node>
	<node lat="58.15380000439331" lon="8.141027770664474" id="-38367">
		<tag k="alt_name" v="Blåmyr" />
		<tag k="name" v="Bossmyra" />
		<tag k="place" v="farm" />
		<tag k="ssr:stedsnr" v="121582" />
	</node>
	<node lat="58.23083333650718" lon="7.633013884643541" id="-38368">
		<tag k="fixme" v="consider place=hamlet" />
		<tag k="name" v="Åsan" />
		<tag k="place" v="farm" />
		<tag k="ssr:stedsnr" v="121717" />
	</node>
	<node lat="58.350272224473514" lon="7.6061416696693245" id="-38370">
		<tag k="alt_name" v="Hæråsen" />
		<tag k="fixme" v="consider place=hamlet" />
		<tag k="name" v="Hærås" />
		<tag k="place" v="farm" />
		<tag k="ssr:stedsnr" v="121809" />
	</node>
	<node lat="58.2904777735062" lon="7.595922224685525" id="-38371">
		<tag k="name" v="Myrstad" />
		<tag k="place" v="farm" />
		<tag k="ssr:stedsnr" v="121820" />
	</node>
	<node lat="58.040502774501476" lon="7.6735083356236045" id="-38373">
		<tag k="alt_name" v="Vikebu" />
		<tag k="name" v="Vigebo" />
		<tag k="place" v="hamlet" />
		<tag k="ssr:stedsnr" v="121981" />
	</node>
	<node lat="58.09403889155646" lon="7.779911107913614" id="-38382">
		<tag k="name" v="Leire" />
		<tag k="place" v="hamlet" />
		<tag k="ssr:stedsnr" v="142178" />
	</node>
	<node lat="58.149280555591375" lon="7.971869450363924" id="-38413">
		<tag k="fixme" v="consider place=suburb, village or hamlet" />
		<tag k="name" v="Grim" />
		<tag k="place" v="quarter" />
		<tag k="ssr:stedsnr" v="152811" />
	</node>
	<node lat="58.13378889325844" lon="8.117980561808974" id="-38414">
		<tag k="name" v="Randesund" />
		<tag k="place" v="suburb" />
		<tag k="ssr:stedsnr" v="152801" />
	</node>
	<node lat="58.2907638897312" lon="7.60098333799688" id="-38422">
		<tag k="name" v="Buås" />
		<tag k="place" v="farm" />
		<tag k="ssr:stedsnr" v="159262" />
	</node>
	<node lat="58.222786114158545" lon="8.105099995801275" id="-38487">
		<tag k="fixme" v="consider place=suburb, village or hamlet" />
		<tag k="name" v="Rønnemoen" />
		<tag k="place" v="quarter" />
		<tag k="ssr:stedsnr" v="166060" />
	</node>
	<node lat="58.1905638852468" lon="8.015458326583325" id="-38494">
		<tag k="name" v="Dalen" />
		<tag k="place" v="farm" />
		<tag k="ssr:stedsnr" v="166702" />
	</node>
	<node lat="58.18046944881041" lon="8.085977769544563" id="-38495">
		<tag k="name" v="Salbostad" />
		<tag k="place" v="hamlet" />
		<tag k="ssr:stedsnr" v="166917" />
	</node>
	<node lat="58.15398610774341" lon="7.937136104096038" id="-38498">
		<tag k="amenity" v="sports_centre" />
		<tag k="name" v="Skytterhuset" />
		<tag k="ssr:stedsnr" v="167115" />
	</node>
	<node lat="58.15285277426791" lon="8.08105556409284" id="-38501">
		<tag k="amenity" v="school" />
		<tag k="name" v="Strømme skole" />
		<tag k="ssr:stedsnr" v="167403" />
	</node>
	<node lat="58.22780833464147" lon="8.028466661326318" id="-38530">
		<tag k="name" v="Myra" />
		<tag k="place" v="farm" />
		<tag k="ssr:stedsnr" v="182107" />
	</node>
	<node lat="58.078644448832456" lon="7.856638886493821" id="-38532">
		<tag k="alt_name" v="Øygard;Ødegård;Stokkeland ødegården" />
		<tag k="fixme" v="consider place=hamlet" />
		<tag k="name" v="Øygarden" />
		<tag k="place" v="farm" />
		<tag k="ssr:stedsnr" v="182146" />
	</node>
	<node lat="58.08558611554295" lon="7.838711119167974" id="-38533">
		<tag k="fixme" v="consider place=hamlet" />
		<tag k="name" v="Stokkeland" />
		<tag k="place" v="farm" />
		<tag k="ssr:stedsnr" v="182147" />
	</node>
	<node lat="58.07056666509943" lon="7.765077773750934" id="-38538">
		<tag k="alt_name" v="Ofternes" />
		<tag k="fixme" v="consider place=hamlet" />
		<tag k="name" v="Oftenes" />
		<tag k="place" v="farm" />
		<tag k="ssr:stedsnr" v="182164" />
	</node>
	<node lat="58.20617222614008" lon="8.121827772961607" id="-38545">
		<tag k="alt_name" v="Myrene" />
		<tag k="name" v="Myrane" />
		<tag k="place" v="farm" />
		<tag k="ssr:stedsnr" v="182448" />
	</node>
	<node lat="58.21504166701083" lon="8.11757499838953" id="-38546">
		<tag k="name" v="Dynjane" />
		<tag k="place" v="farm" />
		<tag k="ssr:stedsnr" v="182450" />
	</node>
	<node lat="58.213680554355406" lon="8.18427777370434" id="-38547">
		<tag k="alt_name" v="Stuteid" />
		<tag k="name" v="Studeid" />
		<tag k="place" v="locality" />
		<tag k="ssr:stedsnr" v="182453" />
	</node>
	<node lat="58.10096666819524" lon="8.109949999058218" id="-38550">
		<tag k="name" v="Buhagen" />
		<tag k="place" v="farm" />
		<tag k="ssr:stedsnr" v="182510" />
	</node>
	<node lat="58.13599060231106" lon="8.161324446737911" id="-38552">
		<tag k="name" v="Stemvollen" />
		<tag k="place" v="farm" />
		<tag k="ssr:stedsnr" v="182521" />
	</node>
	<node lat="58.298716664696386" lon="7.685683332158149" id="-38558">
		<tag k="fixme" v="consider place=hamlet" />
		<tag k="name" v="Leipsland" />
		<tag k="place" v="farm" />
		<tag k="ssr:stedsnr" v="182845" />
	</node>
	<node lat="58.11959999943864" lon="7.61870555810283" id="-38560">
		<tag k="alt_name" v="Høgsås" />
		<tag k="name" v="Høgåsen" />
		<tag k="place" v="farm" />
		<tag k="ssr:stedsnr" v="182863" />
	</node>
	<node lat="58.16760277798301" lon="7.850163884260677" id="-38587">
		<tag k="fixme" v="consider place=suburb, village or hamlet" />
		<tag k="name" v="Nodelandsheia" />
		<tag k="place" v="quarter" />
		<tag k="ssr:stedsnr" v="267375" />
	</node>
	<node lat="58.155149997943695" lon="7.835816658948536" id="-38594">
		<tag k="name" v="Nodeland" />
		<tag k="place" v="village" />
		<tag k="ssr:stedsnr" v="267056" />
	</node>
	<node lat="58.12615555552499" lon="8.151327771829537" id="-38630">
		<tag k="fixme" v="consider place=hamlet" />
		<tag k="name" v="Kvarenes" />
		<tag k="place" v="farm" />
		<tag k="ssr:stedsnr" v="268368" />
	</node>
	<node lat="58.28169722152292" lon="7.589827770980851" id="-38671">
		<tag k="name" v="Plassen" />
		<tag k="place" v="locality" />
		<tag k="ssr:stedsnr" v="220284" />
	</node>
	<node lat="58.22987442080896" lon="7.87464088101876" id="-38757">
		<tag k="fixme" v="consider place=hamlet" />
		<tag k="name" v="Stølen" />
		<tag k="place" v="farm" />
		<tag k="ssr:stedsnr" v="271144" />
	</node>
	<node lat="58.2733861074507" lon="8.170202774691262" id="-38776">
		<tag k="name" v="Ferjestaden" />
		<tag k="place" v="farm" />
		<tag k="ssr:stedsnr" v="227114" />
	</node>
	<node lat="58.26701944768678" lon="8.07936944034198" id="-38778">
		<tag k="name" v="Krossen" />
		<tag k="place" v="hamlet" />
		<tag k="ssr:stedsnr" v="227005" />
	</node>
	<node lat="58.227888886668644" lon="8.12042778489567" id="-38781">
		<tag k="fixme" v="consider place=hamlet" />
		<tag k="name" v="Tveit prestegård" />
		<tag k="place" v="farm" />
		<tag k="ssr:stedsnr" v="227093" />
	</node>
	<node lat="58.175924996594745" lon="8.094605552924508" id="-38804">
		<tag k="amenity" v="school" />
		<tag k="name" v="Heståsen skole" />
		<tag k="ssr:stedsnr" v="228433" />
	</node>
	<node lat="58.245319446685784" lon="7.875316660271019" id="-38809">
		<tag k="name" v="Skodan" />
		<tag k="place" v="hamlet" />
		<tag k="ssr:stedsnr" v="228793" />
	</node>
	<node lat="58.152691664307866" lon="7.974152775480918" id="-38810">
		<tag k="amenity" v="kindergarten" />
		<tag k="name" v="Ravnedalen barnehage" />
		<tag k="ssr:stedsnr" v="228983" />
	</node>
	<node lat="58.112422225923105" lon="7.9763166703854695" id="-38812">
		<tag k="name" v="Andøya" />
		<tag k="place" v="suburb" />
		<tag k="ssr:stedsnr" v="449397" />
	</node>
	<node lat="58.17187777555066" lon="8.029961116408973" id="-38813">
		<tag k="name" v="Gimlekollen" />
		<tag k="place" v="quarter" />
		<tag k="ssr:stedsnr" v="449401" />
	</node>
	<node lat="58.13865833452136" lon="8.167091673118414" id="-38836">
		<tag k="name" v="Myra" />
		<tag k="place" v="farm" />
		<tag k="ssr:stedsnr" v="242496" />
	</node>
	<node lat="58.04484444803624" lon="7.676977779069545" id="-38845">
		<tag k="alt_name" v="Ålones" />
		<tag k="name" v="Åloneset" />
		<tag k="place" v="farm" />
		<tag k="ssr:stedsnr" v="243984" />
	</node>
	<node lat="58.223563893110345" lon="8.109794435933953" id="-38862">
		<tag k="name" v="Tveit" />
		<tag k="place" v="suburb" />
		<tag k="ssr:stedsnr" v="456795" />
	</node>
	<node lat="58.13047222180657" lon="7.708336119355723" id="-38866">
		<tag k="name" v="Gamle Sjustøl" />
		<tag k="place" v="locality" />
		<tag k="ssr:stedsnr" v="264237" />
	</node>
	<node lat="58.12669722113856" lon="7.845888894059592" id="-38950">
		<tag k="name" v="Birkelid" />
		<tag k="place" v="farm" />
		<tag k="ssr:stedsnr" v="281824" />
	</node>
	<node lat="58.17504999936707" lon="7.822313886277166" id="-38957">
		<tag k="name" v="Øvre Hortemo" />
		<tag k="place" v="farm" />
		<tag k="ssr:stedsnr" v="281886" />
	</node>
	<node lat="58.10690833187119" lon="7.975574994759346" id="-39036">
		<tag k="amenity" v="kindergarten" />
		<tag k="name" v="Brøvik" />
		<tag k="ssr:stedsnr" v="461242" />
	</node>
	<node lat="58.07441944588317" lon="7.9768444408584465" id="-39040">
		<tag k="name" v="Berge" />
		<tag k="place" v="hamlet" />
		<tag k="ssr:stedsnr" v="288077" />
	</node>
	<node lat="58.12673610791031" lon="8.094538894370809" id="-39058">
		<tag k="name" v="Fidje" />
		<tag k="place" v="farm" />
		<tag k="ssr:stedsnr" v="288979" />
	</node>
	<node lat="58.20425555960606" lon="7.9270361131575315" id="-39069">
		<tag k="alt_name" v="Ytre Torridal skole" />
		<tag k="amenity" v="school" />
		<tag k="name" v="Torridal skole" />
		<tag k="ssr:stedsnr" v="289388" />
	</node>
	<node lat="58.14743611357679" lon="7.9696888891624145" id="-39070">
		<tag k="amenity" v="school" />
		<tag k="name" v="Solholmen skole" />
		<tag k="ssr:stedsnr" v="289389" />
	</node>
	<node lat="58.10923888891908" lon="8.152111111933714" id="-39072">
		<tag k="name" v="Sodefjed" />
		<tag k="place" v="farm" />
		<tag k="ssr:stedsnr" v="289579" />
	</node>
	<node lat="58.284938892897316" lon="7.6061888885613165" id="-39100">
		<tag k="name" v="Kirkehei" />
		<tag k="place" v="farm" />
		<tag k="ssr:stedsnr" v="463234" />
	</node>
	<node lat="58.15713888573275" lon="7.817963896179071" id="-39132">
		<tag k="name" v="Stavlia" />
		<tag k="place" v="farm" />
		<tag k="ssr:stedsnr" v="463682" />
	</node>
	<node lat="58.225205558330636" lon="7.933672220902852" id="-39191">
		<tag k="alt_name" v="Mosby, øvre" />
		<tag k="fixme" v="consider place=hamlet" />
		<tag k="name" v="Øvre Mosby" />
		<tag k="place" v="farm" />
		<tag k="ssr:stedsnr" v="303104" />
	</node>
	<node lat="58.0844055546223" lon="7.921169444072104" id="-39194">
		<tag k="alt_name" v="Lyngmyra" />
		<tag k="name" v="Lyngmyr" />
		<tag k="place" v="farm" />
		<tag k="ssr:stedsnr" v="303174" />
	</node>
	<node lat="58.24548333645104" lon="7.828969450882676" id="-39204">
		<tag k="name" v="Skogen" />
		<tag k="place" v="farm" />
		<tag k="ssr:stedsnr" v="303097" />
	</node>
	<node lat="58.14442778159944" lon="7.927324992846794" id="-39205">
		<tag k="name" v="Fidjane" />
		<tag k="place" v="farm" />
		<tag k="ssr:stedsnr" v="303207" />
	</node>
	<node lat="58.197870324791495" lon="8.171863893835056" id="-39209">
		<tag k="name" v="Nordkjerr" />
		<tag k="place" v="farm" />
		<tag k="ssr:stedsnr" v="303489" />
	</node>
	<node lat="58.15376509792771" lon="8.096657127098787" id="-39210">
		<tag k="fixme" v="consider place=hamlet" />
		<tag k="name" v="Beinestad" />
		<tag k="place" v="farm" />
		<tag k="ssr:stedsnr" v="303610" />
	</node>
	<node lat="58.14954722425246" lon="8.12811667235102" id="-39214">
		<tag k="alt_name" v="Kjærrene" />
		<tag k="name" v="Kjerrane" />
		<tag k="place" v="farm" />
		<tag k="ssr:stedsnr" v="303590" />
	</node>
	<node lat="58.2624972203458" lon="8.157205548907234" id="-39215">
		<tag k="fixme" v="consider place=hamlet" />
		<tag k="name" v="Foss" />
		<tag k="place" v="farm" />
		<tag k="ssr:stedsnr" v="303708" />
	</node>
	<node lat="58.27491666898726" lon="7.5584277832302655" id="-39219">
		<tag k="alt_name" v="Øvre Kleveland" />
		<tag k="fixme" v="consider place=hamlet" />
		<tag k="name" v="Kleveland" />
		<tag k="place" v="farm" />
		<tag k="ssr:stedsnr" v="303803" />
	</node>
	<node lat="58.28110555441204" lon="7.605963887730054" id="-39220">
		<tag k="fixme" v="consider place=hamlet" />
		<tag k="name" v="Solås" />
		<tag k="place" v="farm" />
		<tag k="ssr:stedsnr" v="303805" />
	</node>
	<node lat="58.07750833008385" lon="7.795633328123509" id="-39234">
		<tag k="name" v="Høllen Vest industriområde" />
		<tag k="place" v="quarter" />
		<tag k="ssr:stedsnr" v="465442" />
	</node>
	<node lat="58.21532221821051" lon="8.11021110484708" id="-39314">
		<tag k="name" v="Ryen" />
		<tag k="place" v="farm" />
		<tag k="ssr:stedsnr" v="469551" />
	</node>
	<node lat="58.21356944621898" lon="8.1133111154565" id="-39315">
		<tag k="name" v="Vesholt" />
		<tag k="place" v="farm" />
		<tag k="ssr:stedsnr" v="470030" />
	</node>
	<node lat="58.23400277496618" lon="8.124552775612761" id="-39326">
		<tag k="name" v="Myrstad" />
		<tag k="place" v="farm" />
		<tag k="ssr:stedsnr" v="470065" />
	</node>
	<node lat="58.070780558092316" lon="7.987916669560607" id="-39345">
		<tag k="name" v="Kjære" />
		<tag k="place" v="hamlet" />
		<tag k="ssr:stedsnr" v="470443" />
	</node>
	<node lat="58.11787778129444" lon="8.092088893055362" id="-39346">
		<tag k="alt_name" v="Kjellevik" />
		<tag k="name" v="Kjellevika" />
		<tag k="place" v="farm" />
		<tag k="ssr:stedsnr" v="470457" />
	</node>
	<node lat="58.07180555997503" lon="7.744333339934998" id="-39356">
		<tag k="name" v="Hallandvik" />
		<tag k="place" v="farm" />
		<tag k="ssr:stedsnr" v="331104" />
	</node>
	<node lat="58.105091670978034" lon="7.706519445361429" id="-39367">
		<tag k="name" v="Dal skoletomt" />
		<tag k="place" v="farm" />
		<tag k="ssr:stedsnr" v="331070" />
	</node>
	<node lat="58.2352888909928" lon="8.12156666450276" id="-39377">
		<tag k="building" v="industrial" />
		<tag k="name" v="Agder fjernhjelpleir" />
		<tag k="ssr:stedsnr" v="470893" />
	</node>
	<node lat="58.10175833094959" lon="7.9758694456992485" id="-39393">
		<tag k="amenity" v="school" />
		<tag k="name" v="Sjøstrand skole" />
		<tag k="ssr:stedsnr" v="471353" />
	</node>
	<node lat="58.15380000031509" lon="7.954099998738702" id="-39394">
		<tag k="amenity" v="school" />
		<tag k="name" v="Krossen skole" />
		<tag k="ssr:stedsnr" v="471382" />
	</node>
	<node lat="58.10858611505344" lon="8.138352782531628" id="-39397">
		<tag k="name" v="Buene" />
		<tag k="place" v="farm" />
		<tag k="ssr:stedsnr" v="471536" />
	</node>
	<node lat="58.331977778374466" lon="7.628847226001647" id="-39428">
		<tag k="fixme" v="consider place=hamlet" />
		<tag k="name" v="Kvelland" />
		<tag k="place" v="farm" />
		<tag k="ssr:stedsnr" v="341649" />
	</node>
	<node lat="58.19129444142739" lon="8.040666659929887" id="-39548">
		<tag k="alt_name" v="Gjusnes" />
		<tag k="fixme" v="consider place=hamlet" />
		<tag k="name" v="Justnes" />
		<tag k="place" v="farm" />
		<tag k="ssr:stedsnr" v="364016" />
	</node>
	<node lat="58.20213055734968" lon="8.051122226842756" id="-39550">
		<tag k="alt_name" v="Gjernes" />
		<tag k="fixme" v="consider place=hamlet" />
		<tag k="name" v="Jærnes" />
		<tag k="place" v="farm" />
		<tag k="ssr:stedsnr" v="364027" />
	</node>
	<node lat="58.07013055873567" lon="7.98878055031493" id="-39555">
		<tag k="fixme" v="consider place=hamlet" />
		<tag k="name" v="Kjere" />
		<tag k="place" v="farm" />
		<tag k="ssr:stedsnr" v="364205" />
	</node>
	<node lat="58.110730554147544" lon="8.153763895236292" id="-39560">
		<tag k="name" v="Plassen" />
		<tag k="place" v="isolated_dwelling" />
		<tag k="ssr:stedsnr" v="364527" />
	</node>
	<node lat="58.071424997985616" lon="7.706116665878079" id="-39566">
		<tag k="alt_name" v="Åsan;Åsene" />
		<tag k="fixme" v="consider place=hamlet" />
		<tag k="name" v="Åsane" />
		<tag k="place" v="farm" />
		<tag k="ssr:stedsnr" v="364911" />
	</node>
	<node lat="58.181138893274905" lon="8.02471944519622" id="-39646">
		<tag k="fixme" v="consider place=hamlet" />
		<tag k="name" v="Greppestøl" />
		<tag k="place" v="farm" />
		<tag k="ssr:stedsnr" v="485038" />
	</node>
	<node lat="58.18057777510569" lon="7.866116666619833" id="-39647">
		<tag k="fixme" v="consider place=hamlet" />
		<tag k="name" v="Kulia" />
		<tag k="place" v="farm" />
		<tag k="ssr:stedsnr" v="485042" />
	</node>
	<node lat="58.1594444405835" lon="7.833041660672695" id="-39648">
		<tag k="name" v="Skinnarsmoen" />
		<tag k="place" v="quarter" />
		<tag k="ssr:stedsnr" v="485046" />
	</node>
	<node lat="58.21844166413919" lon="7.802711111629307" id="-39666">
		<tag k="alt_name" v="Fidje;Fidje østre" />
		<tag k="fixme" v="consider place=hamlet" />
		<tag k="name" v="Østre Fidje" />
		<tag k="place" v="farm" />
		<tag k="ssr:stedsnr" v="485103" />
	</node>
	<node lat="58.253680556422516" lon="7.638194438724655" id="-39670">
		<tag k="building" v="industrial" />
		<tag k="industrial" v="factory" />
		<tag k="name" v="Mæsels sag" />
		<tag k="ssr:stedsnr" v="402295" />
	</node>
	<node lat="58.07871666725241" lon="7.808580555664052" id="-39677">
		<tag k="name" v="Høllen" />
		<tag k="place" v="village" />
		<tag k="ssr:stedsnr" v="485141" />
	</node>
	<node lat="58.15388333064531" lon="7.9517611137126645" id="-39679">
		<tag k="fixme" v="consider place=suburb, village or hamlet" />
		<tag k="name" v="Suldalen" />
		<tag k="place" v="quarter" />
		<tag k="ssr:stedsnr" v="485161" />
	</node>
	<node lat="58.14070430665746" lon="8.055348861972451" id="-39680">
		<tag k="alt_name" v="Knarrevik" />
		<tag k="fixme" v="consider place=hamlet" />
		<tag k="name" v="Kjellevika" />
		<tag k="old_name" v="Kjellvik" />
		<tag k="place" v="farm" />
		<tag k="ssr:stedsnr" v="485169" />
	</node>
	<node lat="58.171008331549785" lon="8.10192500405387" id="-39692">
		<tag k="alt_name" v="Timenes, øvre;Timenes" />
		<tag k="fixme" v="consider place=hamlet" />
		<tag k="name" v="Øvre Timenes" />
		<tag k="place" v="farm" />
		<tag k="ssr:stedsnr" v="485344" />
	</node>
	<node lat="58.21288611240896" lon="8.102008329236693" id="-39695">
		<tag k="alt_name" v="Borgen" />
		<tag k="fixme" v="consider place=hamlet" />
		<tag k="name" v="Borga" />
		<tag k="place" v="farm" />
		<tag k="ssr:stedsnr" v="485393" />
	</node>
	<node lat="58.14253758671432" lon="8.151014022715266" id="-39709">
		<tag k="fixme" v="consider place=hamlet" />
		<tag k="name" v="Vatne" />
		<tag k="place" v="farm" />
		<tag k="ssr:stedsnr" v="485542" />
	</node>
	<node lat="58.09711666548392" lon="7.678825007285579" id="-39747">
		<tag k="name" v="Holmen" />
		<tag k="place" v="hamlet" />
		<tag k="ssr:stedsnr" v="485791" />
	</node>
	<node lat="58.28834444892382" lon="7.67880556193986" id="-39749">
		<tag k="alt_name" v="Øveland" />
		<tag k="name" v="Øvland" />
		<tag k="place" v="hamlet" />
		<tag k="ssr:stedsnr" v="485798" />
	</node>
	<node lat="58.25099166904494" lon="8.165999994819298" id="-39756">
		<tag k="fixme" v="consider place=hamlet" />
		<tag k="name" v="Drangsholt" />
		<tag k="place" v="farm" />
		<tag k="ssr:stedsnr" v="485896" />
	</node>
	<node lat="58.16034166624394" lon="8.01256944998412" id="-39806">
		<tag k="name" v="Oddernes" />
		<tag k="place" v="farm" />
		<tag k="ssr:stedsnr" v="409691" />
	</node>
	<node lat="58.14391944652304" lon="8.05135832927944" id="-39811">
		<tag k="name" v="Vestre Fuglevik" />
		<tag k="place" v="farm" />
		<tag k="ssr:stedsnr" v="410000" />
	</node>
	<node lat="58.123844446548205" lon="7.956269441358894" id="-39812">
		<tag k="amenity" v="school" />
		<tag k="name" v="Vågsbygd skole" />
		<tag k="ssr:stedsnr" v="410105" />
	</node>
	<node lat="58.124827775361716" lon="7.9530055569908225" id="-39813">
		<tag k="building" v="commercial" />
		<tag k="name" v="Vågsbygd senter" />
		<tag k="ssr:stedsnr" v="410106" />
	</node>
	<node lat="58.19916389141193" lon="8.03790277797759" id="-39820">
		<tag k="name" v="Vigvoll" />
		<tag k="place" v="farm" />
		<tag k="ssr:stedsnr" v="410618" />
	</node>
	<node lat="58.20280000428357" lon="7.830663886228268" id="-39836">
		<tag k="fixme" v="consider place=hamlet" />
		<tag k="name" v="Røyrås" />
		<tag k="place" v="farm" />
		<tag k="ssr:stedsnr" v="425002" />
	</node>
	<node lat="58.16796666495123" lon="8.045705559884487" id="-39839">
		<tag k="name" v="Topdalsstø" />
		<tag k="place" v="farm" />
		<tag k="ssr:stedsnr" v="425048" />
	</node>
	<node lat="58.22156944538894" lon="8.015291672029889" id="-39842">
		<tag k="name" v="Jordet" />
		<tag k="place" v="farm" />
		<tag k="ssr:stedsnr" v="425105" />
	</node>
	<node lat="58.075622222401904" lon="7.735622228623927" id="-39846">
		<tag k="fixme" v="consider place=hamlet" />
		<tag k="name" v="Ormestad" />
		<tag k="place" v="farm" />
		<tag k="ssr:stedsnr" v="425163" />
	</node>
	<node lat="58.15086111345885" lon="8.051158327779548" id="-39847">
		<tag k="fixme" v="consider place=hamlet" />
		<tag k="name" v="Søm" />
		<tag k="place" v="farm" />
		<tag k="ssr:stedsnr" v="425195" />
	</node>
	<node lat="58.1137694484723" lon="7.951644442867155" id="-39850">
		<tag k="alt_name" v="Kjos gård" />
		<tag k="fixme" v="consider place=hamlet" />
		<tag k="name" v="Kjos" />
		<tag k="place" v="farm" />
		<tag k="ssr:stedsnr" v="425247" />
	</node>
	<node lat="58.13062682139437" lon="8.172506774413057" id="-39856">
		<tag k="alt_name" v="Grønnevold" />
		<tag k="fixme" v="consider place=hamlet" />
		<tag k="name" v="Grønevoll" />
		<tag k="place" v="farm" />
		<tag k="ssr:stedsnr" v="425525" />
	</node>
	<node lat="58.15831389078237" lon="8.143649999848925" id="-39857">
		<tag k="name" v="Myra" />
		<tag k="place" v="farm" />
		<tag k="ssr:stedsnr" v="425553" />
	</node>
	<node lat="58.336036111766695" lon="7.594561109306034" id="-39859">
		<tag k="alt_name" v="Storaker" />
		<tag k="name" v="Storåker" />
		<tag k="place" v="farm" />
		<tag k="ssr:stedsnr" v="425818" />
	</node>
	<node lat="58.268988889782364" lon="7.576980551291217" id="-39861">
		<tag k="alt_name" v="Lausland" />
		<tag k="fixme" v="consider place=hamlet" />
		<tag k="name" v="Lauvsland" />
		<tag k="place" v="farm" />
		<tag k="ssr:stedsnr" v="425849" />
	</node>
	<node lat="58.29072221854014" lon="7.60684722530119" id="-39863">
		<tag k="alt_name" v="Nerebø" />
		<tag k="name" v="Nerbø" />
		<tag k="place" v="farm" />
		<tag k="ssr:stedsnr" v="425864" />
	</node>
	<node lat="58.14255000036084" lon="7.673161107438621" id="-39865">
		<tag k="fixme" v="consider place=hamlet" />
		<tag k="name" v="Heståsen" />
		<tag k="place" v="farm" />
		<tag k="ssr:stedsnr" v="425764" />
	</node>
	<node lat="58.07438611061898" lon="7.8637583346444355" id="-39874">
		<tag k="alt_name" v="Søvik" />
		<tag k="name" v="Søvig" />
		<tag k="place" v="village" />
		<tag k="ssr:stedsnr" v="446374" />
	</node>
	<node lat="58.0892750009731" lon="7.815486104474558" id="-39875">
		<tag k="name" v="Nygård" />
		<tag k="place" v="farm" />
		<tag k="ssr:stedsnr" v="446390" />
	</node>
	<node lat="58.082041671082195" lon="7.918508340303692" id="-39879">
		<tag k="fixme" v="consider place=hamlet" />
		<tag k="loc_name" v="Dalebrotet" />
		<tag k="name" v="Dalebrådet" />
		<tag k="place" v="farm" />
		<tag k="ssr:stedsnr" v="446887" />
	</node>
	<node lat="58.076466665394946" lon="7.918016663441319" id="-39881">
		<tag k="fixme" v="consider place=hamlet" />
		<tag k="loc_name" v="Vognsneset" />
		<tag k="name" v="Vognsnes" />
		<tag k="place" v="farm" />
		<tag k="ssr:stedsnr" v="446892" />
	</node>
	<node lat="58.17634166860462" lon="7.939197221380721" id="-39890">
		<tag k="name" v="Dalane næringsområde" />
		<tag k="old_name" v="Dalane" />
		<tag k="place" v="quarter" />
		<tag k="ssr:stedsnr" v="449408" />
	</node>
	<node lat="58.15540000359262" lon="7.885416672541704" id="-39946">
		<tag k="name" v="Frydenlund" />
		<tag k="place" v="locality" />
		<tag k="ssr:stedsnr" v="463785" />
	</node>
	<node lat="58.26901388807268" lon="8.078055558777423" id="-40023">
		<tag k="name" v="Aslaksdal" />
		<tag k="place" v="hamlet" />
		<tag k="ssr:stedsnr" v="470005" />
	</node>
	<node lat="58.205999997107114" lon="8.100372229136225" id="-40034">
		<tag k="name" v="Vestvoller" />
		<tag k="place" v="farm" />
		<tag k="ssr:stedsnr" v="470920" />
	</node>
	<node lat="58.1480194419777" lon="7.979194448475601" id="-40035">
		<tag k="building" v="industrial" />
		<tag k="industrial" v="factory" />
		<tag k="name" v="Christiansands bryggeri" />
		<tag k="ssr:stedsnr" v="470926" />
	</node>
	<node lat="58.1166000037767" lon="7.94087499899552" id="-40060">
		<tag k="name" v="Vågsbygda" />
		<tag k="place" v="suburb" />
		<tag k="ssr:stedsnr" v="485116" />
	</node>
	<node lat="58.19379999717722" lon="7.796255560088668" id="-40061">
		<tag k="name" v="Auglandsmoen" />
		<tag k="place" v="farm" />
		<tag k="ssr:stedsnr" v="485005" />
	</node>
	<node lat="58.201041668351266" lon="7.885188882393467" id="-40062">
		<tag k="fixme" v="consider place=hamlet" />
		<tag k="name" v="Aurebekk" />
		<tag k="place" v="farm" />
		<tag k="ssr:stedsnr" v="485008" />
	</node>
	<node lat="58.27993333202509" lon="8.066805549864805" id="-40064">
		<tag k="fixme" v="consider place=hamlet" />
		<tag k="name" v="Erkleiv" />
		<tag k="place" v="farm" />
		<tag k="ssr:stedsnr" v="485011" />
	</node>
	<node lat="58.193024997892664" lon="8.084516666892096" id="-40065">
		<tag k="name" v="Hamre" />
		<tag k="place" v="hamlet" />
		<tag k="ssr:stedsnr" v="485020" />
	</node>
	<node lat="58.15014722384829" lon="7.847125007473171" id="-40067">
		<tag k="alt_name" v="Nådeland" />
		<tag k="fixme" v="consider place=hamlet" />
		<tag k="name" v="Nodeland" />
		<tag k="place" v="farm" />
		<tag k="ssr:stedsnr" v="485158" />
	</node>
	<node lat="58.11366111008039" lon="8.117841667120297" id="-40071">
		<tag k="fixme" v="consider place=hamlet" />
		<tag k="name" v="Vadvika" />
		<tag k="place" v="farm" />
		<tag k="ssr:stedsnr" v="485478" />
	</node>
	<node lat="58.2396416677404" lon="7.693555549666313" id="-40072">
		<tag k="name" v="Eikeland" />
		<tag k="place" v="farm" />
		<tag k="ssr:stedsnr" v="485595" />
	</node>
	<node lat="58.096135380607876" lon="8.115066084233037" id="-40076">
		<tag k="alt_name" v="Vikvoll" />
		<tag k="name" v="Vigvoll" />
		<tag k="place" v="farm" />
		<tag k="ssr:stedsnr" v="485664" />
	</node>
	<node lat="58.10750277374198" lon="7.69987500545328" id="-40077">
		<tag k="alt_name" v="Tufte" />
		<tag k="fixme" v="consider place=hamlet" />
		<tag k="name" v="Tofte" />
		<tag k="place" v="farm" />
		<tag k="ssr:stedsnr" v="485809" />
	</node>
	<node lat="58.26292500100303" lon="7.585797221782201" id="-40078">
		<tag k="alt_name" v="Monen" />
		<tag k="name" v="Moen" />
		<tag k="place" v="farm" />
		<tag k="ssr:stedsnr" v="485813" />
	</node>
	<node lat="58.30304721900588" lon="7.547883337621521" id="-40079">
		<tag k="fixme" v="consider place=hamlet" />
		<tag k="name" v="Follerås" />
		<tag k="place" v="farm" />
		<tag k="ssr:stedsnr" v="485824" />
	</node>
	<node lat="58.316069446386614" lon="7.697708325257915" id="-40081">
		<tag k="alt_name" v="Grindeland" />
		<tag k="fixme" v="consider place=hamlet" />
		<tag k="name" v="Grindland" />
		<tag k="place" v="farm" />
		<tag k="ssr:stedsnr" v="485834" />
	</node>
	<node lat="58.06464999766969" lon="7.686205558296748" id="-40084">
		<tag k="fixme" v="consider place=hamlet" />
		<tag k="name" v="Hellesvig" />
		<tag k="place" v="farm" />
		<tag k="ssr:stedsnr" v="485882" />
	</node>
	<node lat="58.048783332071345" lon="7.693994452672308" id="-40112">
		<tag k="fixme" v="consider place=suburb, village or hamlet" />
		<tag k="name" v="Ålo" />
		<tag k="place" v="quarter" />
		<tag k="ssr:stedsnr" v="509109" />
	</node>
	<node lat="58.12746110977909" lon="8.090427778030845" id="-40123">
		<tag k="name" v="Tømmerstø" />
		<tag k="place" v="quarter" />
		<tag k="ssr:stedsnr" v="511188" />
	</node>
	<node lat="58.20395555293928" lon="8.182041666275406" id="-40133">
		<tag k="name" v="Gamle Studeid" />
		<tag k="place" v="locality" />
		<tag k="ssr:stedsnr" v="513403" />
	</node>
	<node lat="58.12470833335712" lon="8.062550002047884" id="-40145">
		<tag k="name" v="Havøy" />
		<tag k="place" v="farm" />
		<tag k="ssr:stedsnr" v="520183" />
	</node>
	<node lat="58.193122223606565" lon="8.083125005755093" id="-40172">
		<tag k="name" v="Hamresanden Camping" />
		<tag k="ssr:stedsnr" v="523762" />
		<tag k="tourism" v="camp_site" />
	</node>
	<node lat="58.31556110796435" lon="7.608794448541192" id="-40186">
		<tag k="name" v="Stomnås" />
		<tag k="place" v="farm" />
		<tag k="ssr:stedsnr" v="524323" />
	</node>
	<node lat="58.096291664659944" lon="7.760086117953606" id="-40237">
		<tag k="name" v="Krogan" />
		<tag k="place" v="quarter" />
		<tag k="ssr:stedsnr" v="525416" />
	</node>
	<node lat="58.3007194452736" lon="7.684552777092587" id="-40238">
		<tag k="fixme" v="consider place=hamlet" />
		<tag k="name" v="Heivollen" />
		<tag k="place" v="farm" />
		<tag k="ssr:stedsnr" v="525865" />
	</node>
	<node lat="58.22437777558253" lon="8.124900002159004" id="-40294">
		<tag k="name" v="Gundersgard" />
		<tag k="place" v="farm" />
		<tag k="ssr:stedsnr" v="530088" />
	</node>
	<node lat="58.15276666846647" lon="7.966683340892097" id="-40295">
		<tag k="amenity" v="nursing_home" />
		<tag k="name" v="Solvang psykiatriske sykehjem" />
		<tag k="ssr:stedsnr" v="530707" />
	</node>
	<node lat="58.20093333638249" lon="7.8820777728416065" id="-40296">
		<tag k="name" v="Aurebekk" />
		<tag k="place" v="hamlet" />
		<tag k="ssr:stedsnr" v="530905" />
	</node>
	<node lat="58.17071666234556" lon="8.101288881666518" id="-40299">
		<tag k="name" v="Øvre Timenes" />
		<tag k="place" v="quarter" />
		<tag k="ssr:stedsnr" v="530898" />
	</node>
	<node lat="58.15518055310565" lon="8.08172222515322" id="-40301">
		<tag k="amenity" v="nursing_home" />
		<tag k="name" v="Strømme senter" />
		<tag k="ssr:stedsnr" v="531410" />
	</node>
	<node lat="58.084544440257915" lon="8.002191672205662" id="-40305">
		<tag k="name" v="Lindebø" />
		<tag k="place" v="hamlet" />
		<tag k="ssr:stedsnr" v="531448" />
	</node>
	<node lat="58.15650278088339" lon="8.055519439170803" id="-40314">
		<tag k="amenity" v="nursing_home" />
		<tag k="name" v="Randesundheimen" />
		<tag k="ssr:stedsnr" v="531590" />
	</node>
	<node lat="58.16978055435771" lon="8.090180547375583" id="-40316">
		<tag k="name" v="Hånes" />
		<tag k="place" v="farm" />
		<tag k="ssr:stedsnr" v="531780" />
	</node>
	<node lat="58.230175000248344" lon="7.729747226054141" id="-40319">
		<tag k="name" v="Øygarden" />
		<tag k="place" v="farm" />
		<tag k="ssr:stedsnr" v="533124" />
	</node>
	<node lat="58.19002499695092" lon="7.926408328433508" id="-40323">
		<tag k="alt_name" v="Strai, yt;Strai, ytre" />
		<tag k="fixme" v="consider place=hamlet" />
		<tag k="name" v="Ytre Strai" />
		<tag k="place" v="farm" />
		<tag k="ssr:stedsnr" v="543309" />
	</node>
	<node lat="58.20195000173415" lon="7.930455556258388" id="-40332">
		<tag k="alt_name" v="Strai, øvre" />
		<tag k="fixme" v="consider place=hamlet" />
		<tag k="name" v="Øvre Strai" />
		<tag k="place" v="farm" />
		<tag k="ssr:stedsnr" v="546002" />
	</node>
	<node lat="58.183527776394804" lon="7.860394443715601" id="-40334">
		<tag k="name" v="Djuphommen" />
		<tag k="place" v="farm" />
		<tag k="ssr:stedsnr" v="546026" />
	</node>
	<node lat="58.295911111622445" lon="7.719125007254418" id="-40336">
		<tag k="fixme" v="consider place=hamlet" />
		<tag k="name" v="Fleskåsen" />
		<tag k="place" v="farm" />
		<tag k="ssr:stedsnr" v="546033" />
	</node>
	<node lat="58.24220000088571" lon="8.052400001037762" id="-40338">
		<tag k="name" v="Fredholt" />
		<tag k="place" v="farm" />
		<tag k="ssr:stedsnr" v="546089" />
	</node>
	<node lat="58.205150002187295" lon="7.827591671879057" id="-40345">
		<tag k="fixme" v="consider place=hamlet" />
		<tag k="name" v="Pantestøl" />
		<tag k="place" v="farm" />
		<tag k="ssr:stedsnr" v="546126" />
	</node>
	<node lat="58.155824844253324" lon="7.922215407630558" id="-40348">
		<tag k="name" v="Kjerrane" />
		<tag k="place" v="farm" />
		<tag k="ssr:stedsnr" v="546194" />
	</node>
	<node lat="58.120080488814025" lon="8.094433569534289" id="-40352">
		<tag k="alt_name" v="Vabo" />
		<tag k="name" v="Vadbua" />
		<tag k="place" v="farm" />
		<tag k="ssr:stedsnr" v="546474" />
	</node>
	<node lat="58.106985924922256" lon="8.14188261918458" id="-40354">
		<tag k="alt_name" v="Buene, østre;Østre Buene" />
		<tag k="name" v="Østre Buane" />
		<tag k="place" v="farm" />
		<tag k="ssr:stedsnr" v="546480" />
	</node>
	<node lat="58.13187778181856" lon="8.118155550633853" id="-40358">
		<tag k="alt_name" v="Frikstad, øvre;Frikstad" />
		<tag k="name" v="Øvre Frikstad" />
		<tag k="place" v="farm" />
		<tag k="ssr:stedsnr" v="546514" />
	</node>
	<node lat="58.10478055865365" lon="7.659011106036363" id="-40359">
		<tag k="name" v="Try" />
		<tag k="place" v="hamlet" />
		<tag k="ssr:stedsnr" v="546811" />
	</node>
	<node lat="58.278122218427896" lon="7.6144527811977465" id="-40360">
		<tag k="alt_name" v="Omdal" />
		<tag k="fixme" v="consider place=hamlet" />
		<tag k="name" v="Åmdal" />
		<tag k="place" v="farm" />
		<tag k="ssr:stedsnr" v="546816" />
	</node>
	<node lat="58.093119441623486" lon="7.796666660026922" id="-40388">
		<tag k="name" v="Eikeheia" />
		<tag k="place" v="quarter" />
		<tag k="ssr:stedsnr" v="689358" />
	</node>
	<node lat="58.102616667511036" lon="7.662902776559665" id="-40412">
		<tag k="name" v="Vestre Try" />
		<tag k="place" v="farm" />
		<tag k="ssr:stedsnr" v="567011" />
	</node>
	<node lat="58.26949166556025" lon="8.075880555022628" id="-40441">
		<tag k="name" v="Aslaksdal" />
		<tag k="place" v="farm" />
		<tag k="ssr:stedsnr" v="574349" />
	</node>
	<node lat="58.19928611110691" lon="8.097200007740895" id="-40460">
		<tag k="fixme" v="consider place=hamlet" />
		<tag k="name" v="Hamre" />
		<tag k="place" v="farm" />
		<tag k="ssr:stedsnr" v="580806" />
	</node>
	<node lat="58.26631666278902" lon="7.659697223203702" id="-40495">
		<tag k="name" v="Askekjerran" />
		<tag k="place" v="quarter" />
		<tag k="ssr:stedsnr" v="584627" />
	</node>
	<node lat="58.2252527813058" lon="8.116536108630712" id="-40593">
		<tag k="building" v="industrial" />
		<tag k="name" v="Kalkverket" />
		<tag k="ssr:stedsnr" v="591061" />
	</node>
	<node lat="58.12919167100455" lon="7.961941666616763" id="-40606">
		<tag k="building" v="commercial" />
		<tag k="name" v="Trekanten senter" />
		<tag k="ssr:stedsnr" v="592105" />
	</node>
	<node lat="58.08544444179949" lon="7.807797225515918" id="-40624">
		<tag k="name" v="Austrus" />
		<tag k="old_name" v="Østerhus" />
		<tag k="place" v="hamlet" />
		<tag k="ssr:stedsnr" v="602551" />
	</node>
	<node lat="58.18216667046834" lon="7.808233329475335" id="-40638">
		<tag k="name" v="Utkjerr" />
		<tag k="place" v="farm" />
		<tag k="ssr:stedsnr" v="606008" />
	</node>
	<node lat="58.241302781957025" lon="7.882644449815632" id="-40639">
		<tag k="name" v="Dale" />
		<tag k="place" v="farm" />
		<tag k="ssr:stedsnr" v="606092" />
	</node>
	<node lat="58.226480551574966" lon="7.874358333474248" id="-40640">
		<tag k="fixme" v="consider place=hamlet" />
		<tag k="name" v="Espestøl" />
		<tag k="place" v="farm" />
		<tag k="ssr:stedsnr" v="606100" />
	</node>
	<node lat="58.1373555545429" lon="7.934566659193086" id="-40642">
		<tag k="name" v="Slettheia" />
		<tag k="place" v="quarter" />
		<tag k="ssr:stedsnr" v="606220" />
	</node>
	<node lat="58.163777776375646" lon="8.068658340587385" id="-40644">
		<tag k="name" v="Rodenes" />
		<tag k="place" v="farm" />
		<tag k="ssr:stedsnr" v="606186" />
	</node>
	<node lat="58.15292777703992" lon="8.09780000353013" id="-40646">
		<tag k="fixme" v="multiple name tags, choose one and add the other to alt_name" />
		<tag k="name" v="Beinestad;Beines" />
		<tag k="place" v="farm" />
		<tag k="ssr:stedsnr" v="606198" />
	</node>
	<node lat="58.25814722011407" lon="7.586941673140072" id="-40647">
		<tag k="alt_name" v="Evja" />
		<tag k="name" v="Evjen" />
		<tag k="place" v="farm" />
		<tag k="ssr:stedsnr" v="606199" />
	</node>
	<node lat="58.2588055552462" lon="7.616688883480445" id="-40648">
		<tag k="alt_name" v="Dynestøl" />
		<tag k="fixme" v="consider place=hamlet" />
		<tag k="name" v="Døynestøl" />
		<tag k="place" v="farm" />
		<tag k="ssr:stedsnr" v="606201" />
	</node>
	<node lat="58.24472459396888" lon="8.14151786255296" id="-40653">
		<tag k="name" v="Flekkevika" />
		<tag k="place" v="quarter" />
		<tag k="ssr:stedsnr" v="606324" />
	</node>
	<node lat="58.12921110949273" lon="7.615463888821874" id="-40661">
		<tag k="alt_name" v="Brunnvatn;Brunvand" />
		<tag k="fixme" v="consider place=hamlet" />
		<tag k="name" v="Brunvatne" />
		<tag k="place" v="farm" />
		<tag k="ssr:stedsnr" v="606748" />
	</node>
	<node lat="58.28454722096512" lon="7.583247226443233" id="-40663">
		<tag k="name" v="Slottet" />
		<tag k="place" v="farm" />
		<tag k="ssr:stedsnr" v="606809" />
	</node>
	<node lat="58.29977222468334" lon="7.622769448778743" id="-40667">
		<tag k="alt_name" v="Djupesland" />
		<tag k="name" v="Djubesland" />
		<tag k="place" v="hamlet" />
		<tag k="ssr:stedsnr" v="606845" />
	</node>
	<node lat="58.100727777047105" lon="7.703141668276023" id="-40669">
		<tag k="name" v="Svartefjellet" />
		<tag k="place" v="farm" />
		<tag k="ssr:stedsnr" v="607805" />
	</node>
	<node lat="58.083491670980614" lon="7.810186115532495" id="-40693">
		<tag k="fixme" v="consider place=suburb, village or hamlet" />
		<tag k="name" v="Hølledale" />
		<tag k="place" v="quarter" />
		<tag k="ssr:stedsnr" v="628198" />
	</node>
	<node lat="58.107086107182326" lon="7.972136105701836" id="-40698">
		<tag k="fixme" v="consider place=hamlet" />
		<tag k="name" v="Brøvik" />
		<tag k="place" v="farm" />
		<tag k="ssr:stedsnr" v="631410" />
	</node>
	<node lat="58.071605559589436" lon="7.747097217906459" id="-40709">
		<tag k="name" v="Hallandvik" />
		<tag k="place" v="farm" />
		<tag k="ssr:stedsnr" v="634093" />
	</node>
	<node lat="58.2937777755797" lon="7.5816805636157785" id="-40723">
		<tag k="alt_name" v="Harbakken" />
		<tag k="fixme" v="consider place=hamlet" />
		<tag k="name" v="Harbakk" />
		<tag k="place" v="farm" />
		<tag k="ssr:stedsnr" v="705241" />
	</node>
	<node lat="58.14831666421978" lon="8.00731111285896" id="-40747">
		<tag k="building" v="industrial" />
		<tag k="name" v="Kongens verft" />
		<tag k="ssr:stedsnr" v="641173" />
	</node>
	<node lat="58.15938610849743" lon="8.059599997365986" id="-40756">
		<tag k="name" v="Fjelly" />
		<tag k="place" v="farm" />
		<tag k="ssr:stedsnr" v="643080" />
	</node>
	<node lat="58.304452778630036" lon="7.632883341338898" id="-40805">
		<tag k="name" v="Solbakken" />
		<tag k="place" v="farm" />
		<tag k="ssr:stedsnr" v="644591" />
	</node>
	<node lat="58.22999722629105" lon="7.726588888981898" id="-40830">
		<tag k="name" v="Digervoll" />
		<tag k="place" v="farm" />
		<tag k="ssr:stedsnr" v="645428" />
	</node>
	<node lat="58.05610000350591" lon="7.720113894034451" id="-40942">
		<tag k="name" v="Vaktheia" />
		<tag k="place" v="quarter" />
		<tag k="ssr:stedsnr" v="707417" />
	</node>
	<node lat="58.08824444591696" lon="7.820016664675342" id="-40943">
		<tag k="name" v="Nygårdsheia" />
		<tag k="place" v="quarter" />
		<tag k="ssr:stedsnr" v="707418" />
	</node>
	<node lat="58.1270305513023" lon="8.07564166646975" id="-40945">
		<tag k="name" v="Ødegård" />
		<tag k="place" v="farm" />
		<tag k="ssr:stedsnr" v="651544" />
	</node>
	<node lat="58.223041665973554" lon="8.11259166755338" id="-40950">
		<tag k="name" v="Jordfall" />
		<tag k="place" v="farm" />
		<tag k="ssr:stedsnr" v="652039" />
	</node>
	<node lat="58.147302775487766" lon="7.971413883852515" id="-40966">
		<tag k="amenity" v="kindergarten" />
		<tag k="name" v="Møllestua barnehage" />
		<tag k="ssr:stedsnr" v="652344" />
	</node>
	<node lat="58.194755558728005" lon="8.080919442093395" id="-40970">
		<tag k="name" v="Nygård" />
		<tag k="place" v="farm" />
		<tag k="ssr:stedsnr" v="652541" />
	</node>
	<node lat="58.15349722667721" lon="8.138505547505057" id="-40975">
		<tag k="name" v="Skarpevold" />
		<tag k="place" v="farm" />
		<tag k="ssr:stedsnr" v="652682" />
	</node>
	<node lat="58.23732777731351" lon="8.129322216355948" id="-40977">
		<tag k="name" v="Egeli" />
		<tag k="place" v="farm" />
		<tag k="ssr:stedsnr" v="652889" />
	</node>
	<node lat="58.18349141705403" lon="7.869966584438406" id="-40982">
		<tag k="name" v="Rypestøl" />
		<tag k="place" v="hamlet" />
		<tag k="ssr:stedsnr" v="652792" />
	</node>
	<node lat="58.216108332723536" lon="7.824811106465635" id="-41078">
		<tag k="fixme" v="consider place=hamlet" />
		<tag k="name" v="Lia" />
		<tag k="place" v="farm" />
		<tag k="ssr:stedsnr" v="667151" />
	</node>
	<node lat="58.220844447237404" lon="8.099438890447875" id="-41084">
		<tag k="name" v="Høgstad" />
		<tag k="place" v="farm" />
		<tag k="ssr:stedsnr" v="667284" />
	</node>
	<node lat="58.25118889295741" lon="8.164269436579746" id="-41087">
		<tag k="fixme" v="consider place=hamlet" />
		<tag k="name" v="Drangsholt" />
		<tag k="place" v="farm" />
		<tag k="ssr:stedsnr" v="667341" />
	</node>
	<node lat="58.24848610889721" lon="8.164277776830788" id="-41088">
		<tag k="name" v="Kroken" />
		<tag k="place" v="farm" />
		<tag k="ssr:stedsnr" v="667343" />
	</node>
	<node lat="58.11966311299842" lon="8.101115738971226" id="-41091">
		<tag k="name" v="Sildevika" />
		<tag k="place" v="isolated_dwelling" />
		<tag k="ssr:stedsnr" v="667480" />
	</node>
	<node lat="58.245958330429964" lon="7.697502781862106" id="-41092">
		<tag k="alt_name" v="Stubstad" />
		<tag k="name" v="Stupstad" />
		<tag k="place" v="hamlet" />
		<tag k="ssr:stedsnr" v="667611" />
	</node>
	<node lat="58.1057305533379" lon="7.708338887664986" id="-41100">
		<tag k="fixme" v="consider place=hamlet" />
		<tag k="name" v="Dal" />
		<tag k="place" v="farm" />
		<tag k="ssr:stedsnr" v="667800" />
	</node>
	<node lat="58.09251388856501" lon="7.70759166065469" id="-41101">
		<tag k="alt_name" v="Knibe, øvre" />
		<tag k="fixme" v="consider place=hamlet" />
		<tag k="name" v="Øvre Knibe" />
		<tag k="place" v="farm" />
		<tag k="ssr:stedsnr" v="667919" />
	</node>
	<node lat="58.09829444228595" lon="7.705927786137999" id="-41102">
		<tag k="alt_name" v="Djupmyr" />
		<tag k="name" v="Djupmyra" />
		<tag k="place" v="farm" />
		<tag k="ssr:stedsnr" v="668821" />
	</node>
	<node lat="58.114180552182916" lon="7.631727770801889" id="-41159">
		<tag k="name" v="Stubbelia" />
		<tag k="place" v="locality" />
		<tag k="ssr:stedsnr" v="688043" />
	</node>
	<node lat="58.07342726924467" lon="7.873353013069456" id="-41177">
		<tag k="alt_name" v="Langenesbygda" />
		<tag k="fixme" v="consider place=suburb, village or hamlet" />
		<tag k="name" v="Langenes" />
		<tag k="old_name" v="Langnesbygda" />
		<tag k="place" v="quarter" />
		<tag k="ssr:stedsnr" v="689341" />
	</node>
	<node lat="58.07901389308289" lon="7.981163890842021" id="-41189">
		<tag k="fixme" v="consider place=hamlet" />
		<tag k="name" v="Andås" />
		<tag k="place" v="farm" />
		<tag k="ssr:stedsnr" v="692413" />
	</node>
	<node lat="58.20605833133138" lon="8.160827776767116" id="-41198">
		<tag k="name" v="Olas Øygard" />
		<tag k="place" v="locality" />
		<tag k="ssr:stedsnr" v="695136" />
	</node>
	<node lat="58.26720277915984" lon="8.077391664222224" id="-41211">
		<tag k="name" v="Krossen" />
		<tag k="place" v="farm" />
		<tag k="ssr:stedsnr" v="696321" />
	</node>
	<node lat="58.210205291546714" lon="8.097297157680496" id="-41221">
		<tag k="name" v="Brattestø" />
		<tag k="place" v="farm" />
		<tag k="ssr:stedsnr" v="895982" />
	</node>
	<node lat="58.1580444450578" lon="7.988533330204646" id="-41231">
		<tag k="name" v="Eg" />
		<tag k="place" v="quarter" />
		<tag k="ssr:stedsnr" v="699783" />
	</node>
	<node lat="58.106163891332564" lon="7.9598777830074985" id="-41252">
		<tag k="amenity" v="kindergarten" />
		<tag k="name" v="Tryggheim barnehage" />
		<tag k="ssr:stedsnr" v="896371" />
	</node>
	<node lat="58.10599999602953" lon="7.975463884391334" id="-41253">
		<tag k="amenity" v="nursing_home" />
		<tag k="name" v="Ternevig sykehjem" />
		<tag k="ssr:stedsnr" v="896374" />
	</node>
	<node lat="58.155644442057046" lon="7.9551055618369055" id="-41255">
		<tag k="building" v="industrial" />
		<tag k="name" v="Jernbaneverkstedet" />
		<tag k="ssr:stedsnr" v="896412" />
	</node>
	<node lat="58.17864721853015" lon="8.091236104207564" id="-41256">
		<tag k="amenity" v="school" />
		<tag k="name" v="Brattbakken skole" />
		<tag k="old_name" v="Hånes skole" />
		<tag k="ssr:stedsnr" v="896425" />
	</node>
	<node lat="58.12534166242972" lon="7.956744451680028" id="-41257">
		<tag k="amenity" v="sports_centre" />
		<tag k="name" v="Vågsbygd idrettshall" />
		<tag k="ssr:stedsnr" v="896427" />
	</node>
	<node lat="58.15809444422259" lon="8.066066670043588" id="-41258">
		<tag k="amenity" v="school" />
		<tag k="name" v="Haumyrheia skole" />
		<tag k="ssr:stedsnr" v="896428" />
	</node>
	<node lat="58.100596257611066" lon="7.948942040749147" id="-41266">
		<tag k="amenity" v="school" />
		<tag k="name" v="Voiebyen skole" />
		<tag k="old_name" v="Torkelsmyra skole" />
		<tag k="ssr:stedsnr" v="896686" />
	</node>
	<node lat="58.184122029091334" lon="8.007395182829287" id="-41268">
		<tag k="amenity" v="cafe" />
		<tag k="name" v="Gillshytta" />
		<tag k="ssr:stedsnr" v="896718" />
	</node>
	<node lat="58.32983333398116" lon="7.5990249974068345" id="-41274">
		<tag k="name" v="Fjellheim" />
		<tag k="place" v="farm" />
		<tag k="ssr:stedsnr" v="705370" />
	</node>
	<node lat="58.152563889902844" lon="7.97508611750015" id="-41285">
		<tag k="amenity" v="nursing_home" />
		<tag k="name" v="Grimtunet sykehjem" />
		<tag k="ssr:stedsnr" v="896981" />
	</node>
	<node lat="58.14679444766752" lon="7.99691388401623" id="-41286">
		<tag k="amenity" v="townhall" />
		<tag k="name" v="Rådhuset" />
		<tag k="ssr:stedsnr" v="896994" />
	</node>
	<node lat="58.1463305592066" lon="7.995997227784053" id="-41287">
		<tag k="name" v="Torvet" />
		<tag k="place" v="square" />
		<tag k="ssr:stedsnr" v="896999" />
	</node>
	<node lat="58.24912499597034" lon="7.698216674122428" id="-41301">
		<tag k="name" v="Øygarden" />
		<tag k="place" v="farm" />
		<tag k="ssr:stedsnr" v="706434" />
	</node>
	<node lat="58.22383333127021" lon="7.7379000043740795" id="-41318">
		<tag k="name" v="Brustean" />
		<tag k="place" v="farm" />
		<tag k="ssr:stedsnr" v="706810" />
	</node>
	<node lat="58.230816663803424" lon="8.022799996816763" id="-41376">
		<tag k="name" v="Norden" />
		<tag k="place" v="farm" />
		<tag k="ssr:stedsnr" v="713099" />
	</node>
	<node lat="58.148099998604366" lon="8.050566674041438" id="-41394">
		<tag k="name" v="Søm" />
		<tag k="place" v="farm" />
		<tag k="ssr:stedsnr" v="713710" />
	</node>
	<node lat="58.21185833218733" lon="8.103041670282675" id="-41401">
		<tag k="building" v="industrial" />
		<tag k="name" v="Bullverket" />
		<tag k="ssr:stedsnr" v="713975" />
	</node>
	<node lat="58.193763888390066" lon="7.9435333278046185" id="-41423">
		<tag k="name" v="Tunga" />
		<tag k="place" v="farm" />
		<tag k="ssr:stedsnr" v="728003" />
	</node>
	<node lat="58.180513887459256" lon="7.805038890827175" id="-41426">
		<tag k="alt_name" v="Gjærelstad" />
		<tag k="fixme" v="consider place=hamlet" />
		<tag k="name" v="Gjervoldstad" />
		<tag k="place" v="farm" />
		<tag k="ssr:stedsnr" v="728020" />
	</node>
	<node lat="58.1979583299993" lon="7.9368138912171835" id="-41429">
		<tag k="alt_name" v="Liane" />
		<tag k="name" v="Lian" />
		<tag k="place" v="farm" />
		<tag k="ssr:stedsnr" v="728002" />
	</node>
	<node lat="58.24650000265741" lon="8.161155556453803" id="-41438">
		<tag k="name" v="Kilåsen" />
		<tag k="place" v="farm" />
		<tag k="ssr:stedsnr" v="728317" />
	</node>
	<node lat="58.244777782141995" lon="8.163563888632792" id="-41439">
		<tag k="name" v="Kildalen" />
		<tag k="place" v="farm" />
		<tag k="ssr:stedsnr" v="728319" />
	</node>
	<node lat="58.109186113118255" lon="8.152233329450228" id="-41443">
		<tag k="name" v="Vågen" />
		<tag k="place" v="farm" />
		<tag k="ssr:stedsnr" v="728509" />
	</node>
	<node lat="58.112638888798635" lon="8.106613881793859" id="-41444">
		<tag k="fixme" v="consider place=hamlet" />
		<tag k="name" v="Stokken" />
		<tag k="place" v="farm" />
		<tag k="ssr:stedsnr" v="728516" />
	</node>
	<node lat="58.11335242052358" lon="8.126498503668511" id="-41445">
		<tag k="name" v="Holmen" />
		<tag k="place" v="farm" />
		<tag k="ssr:stedsnr" v="728517" />
	</node>
	<node lat="58.245799996131595" lon="7.635902780992142" id="-41447">
		<tag k="alt_name" v="Mæsel" />
		<tag k="name" v="Mesel" />
		<tag k="place" v="hamlet" />
		<tag k="ssr:stedsnr" v="728625" />
	</node>
	<node lat="58.10051944191252" lon="8.13520832849277" id="-41449">
		<tag k="name" v="Stranda" />
		<tag k="place" v="farm" />
		<tag k="ssr:stedsnr" v="728685" />
	</node>
	<node lat="58.14776666343098" lon="8.13755555500627" id="-41452">
		<tag k="name" v="Hestehagen" />
		<tag k="place" v="farm" />
		<tag k="ssr:stedsnr" v="728572" />
	</node>
	<node lat="58.16799722502185" lon="8.099958328352455" id="-41454">
		<tag k="fixme" v="consider place=hamlet" />
		<tag k="name" v="Berhus" />
		<tag k="place" v="farm" />
		<tag k="ssr:stedsnr" v="728581" />
	</node>
	<node lat="58.328250001588906" lon="7.5738805623865435" id="-41455">
		<tag k="alt_name" v="Eikelien" />
		<tag k="fixme" v="consider place=hamlet" />
		<tag k="name" v="Eikeli" />
		<tag k="place" v="farm" />
		<tag k="ssr:stedsnr" v="728728" />
	</node>
	<node lat="58.084533330796475" lon="7.662225005323435" id="-41456">
		<tag k="fixme" v="consider place=hamlet" />
		<tag k="name" v="Frøysland" />
		<tag k="place" v="farm" />
		<tag k="ssr:stedsnr" v="728907" />
	</node>
	<node lat="58.15331944388471" lon="7.732541669861019" id="-41470">
		<tag k="name" v="Hasseldalen" />
		<tag k="place" v="farm" />
		<tag k="ssr:stedsnr" v="749999" />
	</node>
	<node lat="58.15701388920692" lon="8.01454721760955" id="-41473">
		<tag k="amenity" v="school" />
		<tag k="name" v="Oddemarka skole" />
		<tag k="ssr:stedsnr" v="228947" />
	</node>
	<node lat="58.26292222401039" lon="8.072777771104043" id="-41639">
		<tag k="name" v="Rosseland" />
		<tag k="place" v="hamlet" />
		<tag k="ssr:stedsnr" v="773005" />
	</node>
	<node lat="58.141888887821885" lon="8.097180553494955" id="-41677">
		<tag k="alt_name" v="Sukkerstøl" />
		<tag k="fixme" v="consider place=hamlet" />
		<tag k="name" v="Sukkestøl" />
		<tag k="place" v="farm" />
		<tag k="ssr:stedsnr" v="910557" />
	</node>
	<node lat="58.17146944041276" lon="7.828225004535281" id="-41679">
		<tag k="name" v="Nygård" />
		<tag k="place" v="farm" />
		<tag k="ssr:stedsnr" v="910038" />
	</node>
	<node lat="58.18013888660023" lon="8.038494436372865" id="-41680">
		<tag k="name" v="Fagerholt" />
		<tag k="place" v="quarter" />
		<tag k="ssr:stedsnr" v="910049" />
	</node>
	<node lat="58.17186666942906" lon="7.981936112783904" id="-41686">
		<tag k="name" v="Sødal" />
		<tag k="place" v="quarter" />
		<tag k="ssr:stedsnr" v="910074" />
	</node>
	<node lat="58.22849166366422" lon="7.837808331515894" id="-41688">
		<tag k="alt_name" v="Hemming-Augland;Hemmnings Augland;Hammnings Augland" />
		<tag k="fixme" v="consider place=hamlet" />
		<tag k="name" v="Hemmes-Augland" />
		<tag k="place" v="farm" />
		<tag k="ssr:stedsnr" v="910111" />
	</node>
	<node lat="58.23739444276155" lon="8.035138881420043" id="-41689">
		<tag k="name" v="Ålefjær" />
		<tag k="place" v="hamlet" />
		<tag k="ssr:stedsnr" v="910113" />
	</node>
	<node lat="58.07955277885532" lon="8.016019441739187" id="-41690">
		<tag k="fixme" v="consider place=suburb, village or hamlet" />
		<tag k="name" v="Skålevik" />
		<tag k="place" v="quarter" />
		<tag k="ssr:stedsnr" v="910184" />
	</node>
	<node lat="58.15153055514924" lon="7.736805547879473" id="-41693">
		<tag k="alt_name" v="Kimmestad" />
		<tag k="fixme" v="consider place=hamlet" />
		<tag k="name" v="Kimestad" />
		<tag k="place" v="farm" />
		<tag k="ssr:stedsnr" v="910193" />
	</node>
	<node lat="58.24012447809582" lon="8.132274742140732" id="-41696">
		<tag k="fixme" v="consider place=hamlet" />
		<tag k="name" v="Buestad" />
		<tag k="place" v="farm" />
		<tag k="ssr:stedsnr" v="910274" />
	</node>
	<node lat="58.2364944440845" lon="8.108080554217443" id="-41697">
		<tag k="alt_name" v="Nordsida" />
		<tag k="name" v="Nordsia" />
		<tag k="place" v="farm" />
		<tag k="ssr:stedsnr" v="910276" />
	</node>
	<node lat="58.22033055889145" lon="7.910030558412322" id="-41698">
		<tag k="name" v="Liane" />
		<tag k="place" v="farm" />
		<tag k="ssr:stedsnr" v="910127" />
	</node>
	<node lat="58.093744440843984" lon="7.830099997153703" id="-41699">
		<tag k="alt_name" v="Tjomsemonen;Moen" />
		<tag k="name" v="Tjomsemoen" />
		<tag k="place" v="farm" />
		<tag k="ssr:stedsnr" v="910141" />
	</node>
	<node lat="58.249487806993514" lon="8.144443653734282" id="-41701">
		<tag k="name" v="Sandnes" />
		<tag k="place" v="farm" />
		<tag k="ssr:stedsnr" v="910356" />
	</node>
	<node lat="58.24277440839741" lon="8.134185678267777" id="-41702">
		<tag k="alt_name" v="Krageboen" />
		<tag k="fixme" v="consider place=hamlet" />
		<tag k="name" v="Kråkebua" />
		<tag k="place" v="farm" />
		<tag k="ssr:stedsnr" v="910358" />
	</node>
	<node lat="58.24696944083301" lon="8.146269438247291" id="-41703">
		<tag k="name" v="Bumoen" />
		<tag k="place" v="farm" />
		<tag k="ssr:stedsnr" v="910359" />
	</node>
	<node lat="58.19532222641199" lon="8.166155560658048" id="-41704">
		<tag k="alt_name" v="Vråls Ødegård" />
		<tag k="name" v="Oygarden" />
		<tag k="place" v="locality" />
		<tag k="ssr:stedsnr" v="910374" />
	</node>
	<node lat="58.207225694723434" lon="8.109026157715157" id="-41708">
		<tag k="alt_name" v="Krogemyra" />
		<tag k="name" v="Krokemyra" />
		<tag k="place" v="farm" />
		<tag k="ssr:stedsnr" v="910456" />
	</node>
	<node lat="58.22136111309771" lon="8.11830555267941" id="-41709">
		<tag k="name" v="Moen" />
		<tag k="place" v="farm" />
		<tag k="ssr:stedsnr" v="910459" />
	</node>
	<node lat="58.13480277396008" lon="8.130950008167579" id="-41710">
		<tag k="alt_name" v="Dollsvåg" />
		<tag k="fixme" v="consider place=hamlet" />
		<tag k="name" v="Dolsvåg" />
		<tag k="place" v="farm" />
		<tag k="ssr:stedsnr" v="910543" />
	</node>
	<node lat="58.286063890235546" lon="7.606177781307862" id="-41727">
		<tag k="alt_name" v="Skinnsnes" />
		<tag k="name" v="Skinsnes" />
		<tag k="place" v="farm" />
		<tag k="ssr:stedsnr" v="910812" />
	</node>
	<node lat="58.28066666276607" lon="7.615050005957588" id="-41729">
		<tag k="name" v="Brandsvoll" />
		<tag k="place" v="farm" />
		<tag k="ssr:stedsnr" v="910823" />
	</node>
	<node lat="58.30456944088837" lon="7.653419439084253" id="-41733">
		<tag k="name" v="Solheim" />
		<tag k="place" v="farm" />
		<tag k="ssr:stedsnr" v="910844" />
	</node>
	<node lat="58.306511113532984" lon="7.605427770237357" id="-41734">
		<tag k="name" v="Stokkåsen" />
		<tag k="place" v="isolated_dwelling" />
		<tag k="ssr:stedsnr" v="910848" />
	</node>
	<node lat="58.11786389264006" lon="7.5969138864878" id="-41737">
		<tag k="fixme" v="consider place=hamlet" />
		<tag k="name" v="Teland" />
		<tag k="place" v="farm" />
		<tag k="ssr:stedsnr" v="910879" />
	</node>
	<node lat="58.16987500146822" lon="7.947411103543516" id="-41738">
		<tag k="name" v="Glitre" />
		<tag k="place" v="farm" />
		<tag k="ssr:stedsnr" v="788053" />
	</node>
	<node lat="58.14943611440298" lon="8.031036103063945" id="-41741">
		<tag k="landuse" v="military" />
		<tag k="name" v="Marvika" />
		<tag k="ssr:stedsnr" v="788208" />
	</node>
	<node lat="58.25856110925176" lon="7.663599998280193" id="-41742">
		<tag k="name" v="Myran" />
		<tag k="place" v="farm" />
		<tag k="ssr:stedsnr" v="788210" />
	</node>
	<node lat="58.11105000441143" lon="7.944816671702785" id="-41745">
		<tag k="name" v="Solås" />
		<tag k="place" v="farm" />
		<tag k="ssr:stedsnr" v="789128" />
	</node>
	<node lat="58.179844440521265" lon="7.748944447369404" id="-41746">
		<tag k="fixme" v="consider place=hamlet" />
		<tag k="name" v="Birkeland" />
		<tag k="place" v="farm" />
		<tag k="ssr:stedsnr" v="789016" />
	</node>
	<node lat="58.15706388558761" lon="8.054594444161156" id="-41748">
		<tag k="fixme" v="consider place=hamlet" />
		<tag k="name" v="Torsvik" />
		<tag k="place" v="farm" />
		<tag k="ssr:stedsnr" v="789207" />
	</node>
	<node lat="58.138116668178014" lon="7.727533340400982" id="-41749">
		<tag k="alt_name" v="Årstol;Åstøl" />
		<tag k="fixme" v="consider place=hamlet" />
		<tag k="name" v="Årstøl" />
		<tag k="place" v="farm" />
		<tag k="ssr:stedsnr" v="789209" />
	</node>
	<node lat="58.10823410788856" lon="8.137872150665114" id="-41754">
		<tag k="alt_name" v="Buene, vestre;Vestre Buene" />
		<tag k="name" v="Vestre Buane" />
		<tag k="place" v="farm" />
		<tag k="ssr:stedsnr" v="789517" />
	</node>
	<node lat="58.337125002258695" lon="7.591783329274883" id="-41759">
		<tag k="name" v="Lunden" />
		<tag k="place" v="farm" />
		<tag k="ssr:stedsnr" v="789810" />
	</node>
	<node lat="58.27460555678074" lon="7.637983334986867" id="-41760">
		<tag k="alt_name" v="Fjeldsgård" />
		<tag k="name" v="Fjellskår" />
		<tag k="place" v="hamlet" />
		<tag k="ssr:stedsnr" v="789840" />
	</node>
	<node lat="58.22792904502436" lon="8.026645617857668" id="-41763">
		<tag k="fixme" v="consider place=hamlet" />
		<tag k="name" v="Kostøl" />
		<tag k="place" v="farm" />
		<tag k="ssr:stedsnr" v="789746" />
	</node>
	<node lat="58.11397777810569" lon="7.647394451089763" id="-41766">
		<tag k="name" v="Øygarden" />
		<tag k="place" v="locality" />
		<tag k="ssr:stedsnr" v="810109" />
	</node>
	<node lat="58.0820194414353" lon="7.842488887903221" id="-41773">
		<tag k="name" v="Stokkelandsskogen" />
		<tag k="place" v="quarter" />
		<tag k="ssr:stedsnr" v="810337" />
	</node>
	<node lat="58.2731194405651" lon="8.095563894156273" id="-41805">
		<tag k="name" v="Osen" />
		<tag k="place" v="farm" />
		<tag k="ssr:stedsnr" v="817311" />
	</node>
	<node lat="58.11220277747288" lon="7.9647805479068925" id="-41821">
		<tag k="fixme" v="consider place=suburb, village or hamlet" />
		<tag k="name" v="Voie" />
		<tag k="place" v="quarter" />
		<tag k="ssr:stedsnr" v="826225" />
	</node>
	<node lat="58.167433330761575" lon="8.01618332793353" id="-41915">
		<tag k="building" v="commercial" />
		<tag k="name" v="Statsarkivet" />
		<tag k="ssr:stedsnr" v="835156" />
	</node>
	<node lat="58.235932991436" lon="7.874782964071399" id="-41928">
		<tag k="name" v="Dalane" />
		<tag k="place" v="hamlet" />
		<tag k="ssr:stedsnr" v="835796" />
	</node>
	<node lat="58.156502777728335" lon="8.008655561406298" id="-41929">
		<tag k="amenity" v="school" />
		<tag k="name" v="Lovisenlund skole" />
		<tag k="ssr:stedsnr" v="835984" />
	</node>
	<node lat="58.07702222620725" lon="7.890566671600632" id="-41935">
		<tag k="name" v="Kileheia" />
		<tag k="place" v="neighbourhood" />
		<tag k="ssr:stedsnr" v="844051" />
	</node>
	<node lat="58.11040278035227" lon="7.687333325134935" id="-41950">
		<tag k="name" v="Eikestøl" />
		<tag k="place" v="hamlet" />
		<tag k="ssr:stedsnr" v="848876" />
	</node>
	<node lat="58.17103055270861" lon="8.086724996586282" id="-41954">
		<tag k="fixme" v="consider place=hamlet" />
		<tag k="name" v="Hånes" />
		<tag k="place" v="farm" />
		<tag k="ssr:stedsnr" v="849080" />
	</node>
	<node lat="58.17613325699758" lon="8.041883168071555" id="-41955">
		<tag k="alt_name" v="Bleket" />
		<tag k="name" v="Bleget" />
		<tag k="place" v="isolated_dwelling" />
		<tag k="ssr:stedsnr" v="849084" />
	</node>
	<node lat="58.20839166256674" lon="8.103027783673896" id="-41960">
		<tag k="name" v="Ve" />
		<tag k="place" v="hamlet" />
		<tag k="ssr:stedsnr" v="849471" />
	</node>
	<node lat="58.21100192243376" lon="8.110401508302765" id="-41961">
		<tag k="alt_name" v="Gjersdalen" />
		<tag k="name" v="Gjendalen" />
		<tag k="place" v="farm" />
		<tag k="ssr:stedsnr" v="849481" />
	</node>
	<node lat="58.322747223296545" lon="7.710591662005553" id="-41962">
		<tag k="fixme" v="consider place=hamlet" />
		<tag k="name" v="Dåstøl" />
		<tag k="place" v="farm" />
		<tag k="ssr:stedsnr" v="849800" />
	</node>
	<node lat="58.23573434108699" lon="7.874670494269067" id="-41963">
		<tag k="fixme" v="consider place=hamlet" />
		<tag k="name" v="Dalane" />
		<tag k="place" v="farm" />
		<tag k="ssr:stedsnr" v="850107" />
	</node>
	<node lat="58.18668611288362" lon="8.004572218885178" id="-41968">
		<tag k="alt_name" v="Gjel, øvre" />
		<tag k="name" v="Øvre Gill" />
		<tag k="place" v="farm" />
		<tag k="ssr:stedsnr" v="850032" />
	</node>
	<node lat="58.152397226387464" lon="8.008844444290373" id="-41974">
		<tag k="fixme" v="consider place=suburb, village or hamlet" />
		<tag k="name" v="Lund" />
		<tag k="place" v="quarter" />
		<tag k="ssr:stedsnr" v="850197" />
	</node>
	<node lat="58.14915000047187" lon="8.125338881406746" id="-41983">
		<tag k="name" v="Tippen" />
		<tag k="place" v="farm" />
		<tag k="ssr:stedsnr" v="850585" />
	</node>
	<node lat="58.35039444524884" lon="7.593527777606687" id="-41988">
		<tag k="name" v="Skogli" />
		<tag k="place" v="farm" />
		<tag k="ssr:stedsnr" v="850805" />
	</node>
	<node lat="58.07216666997031" lon="7.665113884907078" id="-42029">
		<tag k="alt_name" v="Svalemyren" />
		<tag k="fixme" v="consider place=hamlet" />
		<tag k="name" v="Svalemyr" />
		<tag k="place" v="farm" />
		<tag k="ssr:stedsnr" v="931922" />
	</node>
	<node lat="58.16395833064139" lon="7.982569452947757" id="-42056">
		<tag k="alt_name" v="Eik" />
		<tag k="name" v="Eg" />
		<tag k="place" v="suburb" />
		<tag k="ssr:stedsnr" v="934059" />
	</node>
	<node lat="58.2380555561752" lon="8.03380278310569" id="-42173">
		<tag k="name" v="Øygarden" />
		<tag k="place" v="farm" />
		<tag k="ssr:stedsnr" v="895116" />
	</node>
	<node lat="58.21599444888723" lon="8.099788883495767" id="-42189">
		<tag k="name" v="Nyborg" />
		<tag k="place" v="farm" />
		<tag k="ssr:stedsnr" v="895972" />
	</node>
	<node lat="58.19286666993979" lon="7.733261112595283" id="-42219">
		<tag k="alt_name" v="Skårs Øygarden" />
		<tag k="name" v="Øygard" />
		<tag k="place" v="locality" />
		<tag k="ssr:stedsnr" v="910012" />
	</node>
	<node lat="58.09049444066517" lon="7.9093333259952505" id="-42221">
		<tag k="alt_name" v="Øygard;Berge-ødegården" />
		<tag k="name" v="Øygarden" />
		<tag k="place" v="locality" />
		<tag k="ssr:stedsnr" v="910154" />
	</node>
	<node lat="58.14146110904857" lon="7.764324996814566" id="-42228">
		<tag k="name" v="Nepstadmyra" />
		<tag k="place" v="farm" />
		<tag k="ssr:stedsnr" v="910200" />
	</node>
	<node lat="58.225647217984445" lon="8.113155555871204" id="-42229">
		<tag k="fixme" v="consider place=hamlet" />
		<tag k="name" v="Bakken" />
		<tag k="place" v="farm" />
		<tag k="ssr:stedsnr" v="910304" />
	</node>
	<node lat="58.14222221947485" lon="7.844950002218059" id="-42234">
		<tag k="fixme" v="consider place=hamlet" />
		<tag k="name" v="Birkenes" />
		<tag k="place" v="farm" />
		<tag k="ssr:stedsnr" v="910207" />
	</node>
	<node lat="58.26151110980665" lon="7.6532472179530115" id="-42235">
		<tag k="name" v="Vatneli" />
		<tag k="place" v="quarter" />
		<tag k="ssr:stedsnr" v="910208" />
	</node>
	<node lat="58.13880833677351" lon="7.857361119086187" id="-42238">
		<tag k="fixme" v="consider place=suburb, village or hamlet" />
		<tag k="name" v="Brennåsen" />
		<tag k="place" v="quarter" />
		<tag k="ssr:stedsnr" v="910219" />
	</node>
	<node lat="58.116966664141636" lon="8.149502777391072" id="-42246">
		<tag k="alt_name" v="Sotefed" />
		<tag k="fixme" v="consider place=hamlet" />
		<tag k="name" v="Sodefjed" />
		<tag k="place" v="farm" />
		<tag k="ssr:stedsnr" v="910522" />
	</node>
	<node lat="58.12544722621054" lon="8.108322215862" id="-42249">
		<tag k="alt_name" v="Rosshagen" />
		<tag k="name" v="Rossa" />
		<tag k="place" v="farm" />
		<tag k="ssr:stedsnr" v="910574" />
	</node>
	<node lat="58.154227781275694" lon="8.107052776611845" id="-42252">
		<tag k="alt_name" v="Sommarro" />
		<tag k="fixme" v="consider place=hamlet" />
		<tag k="name" v="Sommerro" />
		<tag k="place" v="farm" />
		<tag k="ssr:stedsnr" v="910610" />
	</node>
	<node lat="58.15147222380167" lon="7.841011116088694" id="-42318">
		<tag k="name" v="Solvoll" />
		<tag k="place" v="quarter" />
		<tag k="ssr:stedsnr" v="948781" />
	</node>
	<node lat="58.07935555160008" lon="8.019669440320358" id="-42354">
		<tag k="name" v="Stegehavn" />
		<tag k="place" v="farm" />
		<tag k="ssr:stedsnr" v="949703" />
	</node>
	<node lat="58.10466944326547" lon="7.762577771216742" id="-42380">
		<tag k="name" v="Vedderheia" />
		<tag k="place" v="quarter" />
		<tag k="ssr:stedsnr" v="950156" />
	</node>
	<node lat="58.27820277402937" lon="8.068236110018058" id="-42412">
		<tag k="name" v="Erkleiv" />
		<tag k="place" v="hamlet" />
		<tag k="ssr:stedsnr" v="955232" />
	</node>
	<node lat="58.14903610986467" lon="7.956655553585467" id="-42425">
		<tag k="amenity" v="sports_centre" />
		<tag k="name" v="Vigørhallen" />
		<tag k="ssr:stedsnr" v="956412" />
	</node>
	<node lat="58.12215937222803" lon="7.963447306512425" id="-42442">
		<tag k="fixme" v="consider place=hamlet" />
		<tag k="name" v="Augland Ytre" />
		<tag k="place" v="farm" />
		<tag k="ssr:stedsnr" v="972831" />
	</node>
	<node lat="58.128566934917025" lon="7.966836993586928" id="-42443">
		<tag k="name" v="Fiskå" />
		<tag k="place" v="locality" />
		<tag k="ssr:stedsnr" v="977586" />
	</node>
	<node lat="58.12590896334697" lon="8.110900103776851" id="-42444">
		<tag k="fixme" v="consider place=hamlet" />
		<tag k="name" v="Roshagen" />
		<tag k="place" v="farm" />
		<tag k="ssr:stedsnr" v="977742" />
	</node>
	<node lat="58.11692846069809" lon="8.091240477412205" id="-42445">
		<tag k="name" v="Silleviken" />
		<tag k="place" v="locality" />
		<tag k="ssr:stedsnr" v="977746" />
	</node>
	<node lat="58.11929019358786" lon="8.0847183825943" id="-42446">
		<tag k="fixme" v="consider place=hamlet" />
		<tag k="name" v="Herøya" />
		<tag k="place" v="farm" />
		<tag k="ssr:stedsnr" v="977747" />
	</node>
	<node lat="58.15820176000272" lon="8.014847273215635" id="-42447">
		<tag k="fixme" v="consider place=hamlet" />
		<tag k="name" v="Tobienborg" />
		<tag k="place" v="farm" />
		<tag k="ssr:stedsnr" v="977610" />
	</node>
	<node lat="58.16380033357069" lon="8.020684794633025" id="-42448">
		<tag k="fixme" v="consider place=hamlet" />
		<tag k="name" v="Frydendal" />
		<tag k="place" v="farm" />
		<tag k="ssr:stedsnr" v="977612" />
	</node>
	<node lat="58.16589816796868" lon="8.04014011240756" id="-42449">
		<tag k="fixme" v="consider place=hamlet" />
		<tag k="name" v="Narviken" />
		<tag k="place" v="farm" />
		<tag k="ssr:stedsnr" v="977613" />
	</node>
	<node lat="58.10966953356938" lon="8.058286567241124" id="-42450">
		<tag k="fixme" v="consider place=hamlet" />
		<tag k="name" v="Dvergsøya" />
		<tag k="place" v="farm" />
		<tag k="ssr:stedsnr" v="977617" />
	</node>
	<node lat="58.1308239051073" lon="8.04417353087874" id="-42451">
		<tag k="fixme" v="consider place=hamlet" />
		<tag k="name" v="Sjursøya" />
		<tag k="place" v="farm" />
		<tag k="ssr:stedsnr" v="977618" />
	</node>
	<node lat="58.13963564973464" lon="8.04878798833172" id="-42452">
		<tag k="fixme" v="consider place=hamlet" />
		<tag k="name" v="Lyngøya" />
		<tag k="place" v="farm" />
		<tag k="ssr:stedsnr" v="977619" />
	</node>
	<node lat="58.143457166368634" lon="8.066147033273495" id="-42453">
		<tag k="fixme" v="consider place=hamlet" />
		<tag k="name" v="Salbostad" />
		<tag k="place" v="farm" />
		<tag k="ssr:stedsnr" v="977621" />
	</node>
	<node lat="58.15224378382995" lon="8.07710529316275" id="-42454">
		<tag k="fixme" v="consider place=hamlet" />
		<tag k="name" v="Liene" />
		<tag k="place" v="farm" />
		<tag k="ssr:stedsnr" v="977629" />
	</node>
	<node lat="58.15938144891639" lon="8.084853727231643" id="-42455">
		<tag k="fixme" v="consider place=hamlet" />
		<tag k="name" v="Ytre Strømme" />
		<tag k="place" v="farm" />
		<tag k="ssr:stedsnr" v="977630" />
	</node>
	<node lat="58.16441232324234" lon="8.092356054983423" id="-42456">
		<tag k="fixme" v="consider place=hamlet" />
		<tag k="name" v="Øvre Strømme" />
		<tag k="place" v="farm" />
		<tag k="ssr:stedsnr" v="977631" />
	</node>
	<node lat="58.131498493757974" lon="8.116980735355703" id="-42457">
		<tag k="fixme" v="consider place=hamlet" />
		<tag k="name" v="Frikstad" />
		<tag k="place" v="farm" />
		<tag k="ssr:stedsnr" v="977672" />
	</node>
	<node lat="58.10755110968252" lon="8.141598070202352" id="-42458">
		<tag k="fixme" v="consider place=hamlet" />
		<tag k="name" v="Buene" />
		<tag k="place" v="farm" />
		<tag k="ssr:stedsnr" v="977673" />
	</node>
	<node lat="58.100533368142266" lon="8.138208814252335" id="-42459">
		<tag k="fixme" v="consider place=hamlet" />
		<tag k="name" v="Torsøya" />
		<tag k="place" v="farm" />
		<tag k="ssr:stedsnr" v="977674" />
	</node>
	<node lat="58.10983699880395" lon="8.124393534172391" id="-42460">
		<tag k="fixme" v="consider place=hamlet" />
		<tag k="name" v="Trollenes" />
		<tag k="place" v="farm" />
		<tag k="ssr:stedsnr" v="977675" />
	</node>
	<node lat="58.105182960027044" lon="8.108290066907548" id="-42461">
		<tag k="fixme" v="consider place=hamlet" />
		<tag k="name" v="Randøya" />
		<tag k="place" v="farm" />
		<tag k="ssr:stedsnr" v="977676" />
	</node>
	<node lat="58.287234536141874" lon="7.679761369603006" id="-42462">
		<tag k="fixme" v="consider place=hamlet" />
		<tag k="name" v="Øveland" />
		<tag k="place" v="farm" />
		<tag k="ssr:stedsnr" v="978536" />
	</node>
	<node lat="58.3001216479544" lon="7.625402261259019" id="-42463">
		<tag k="fixme" v="consider place=hamlet" />
		<tag k="name" v="Djupesland" />
		<tag k="place" v="farm" />
		<tag k="ssr:stedsnr" v="978538" />
	</node>
	<node lat="58.27467238331395" lon="7.634904713917635" id="-42464">
		<tag k="fixme" v="consider place=hamlet" />
		<tag k="name" v="Fjellskår" />
		<tag k="place" v="farm" />
		<tag k="ssr:stedsnr" v="978540" />
	</node>
	<node lat="58.26476775823952" lon="7.658266120083569" id="-42465">
		<tag k="fixme" v="consider place=hamlet" />
		<tag k="name" v="Vatneli" />
		<tag k="place" v="farm" />
		<tag k="ssr:stedsnr" v="978541" />
	</node>
	<node lat="58.2477838634801" lon="7.637849406317139" id="-42466">
		<tag k="fixme" v="consider place=hamlet" />
		<tag k="name" v="Mæsel" />
		<tag k="place" v="farm" />
		<tag k="ssr:stedsnr" v="978542" />
	</node>
	<node lat="58.29895884848352" lon="7.590457854460683" id="-42467">
		<tag k="fixme" v="consider place=hamlet" />
		<tag k="name" v="Frikstad" />
		<tag k="place" v="farm" />
		<tag k="ssr:stedsnr" v="978547" />
	</node>
	<node lat="58.3163255794565" lon="7.5886661606547126" id="-42468">
		<tag k="fixme" v="consider place=hamlet" />
		<tag k="name" v="Finsland" />
		<tag k="place" v="farm" />
		<tag k="ssr:stedsnr" v="978548" />
	</node>
	<node lat="58.09097729071662" lon="7.841011419269718" id="-42469">
		<tag k="fixme" v="consider place=hamlet" />
		<tag k="name" v="Søgne Prestegård" />
		<tag k="place" v="farm" />
		<tag k="ssr:stedsnr" v="978701" />
	</node>
	<node lat="58.089965443965134" lon="7.851362553931751" id="-42470">
		<tag k="fixme" v="consider place=hamlet" />
		<tag k="name" v="Berge" />
		<tag k="place" v="farm" />
		<tag k="ssr:stedsnr" v="978702" />
	</node>
	<node lat="58.08844066035537" lon="7.925903433079846" id="-42471">
		<tag k="fixme" v="consider place=hamlet" />
		<tag k="name" v="Stranden" />
		<tag k="place" v="farm" />
		<tag k="ssr:stedsnr" v="978703" />
	</node>
	<node lat="58.084033789325005" lon="7.920749279574634" id="-42472">
		<tag k="fixme" v="consider place=hamlet" />
		<tag k="name" v="Lyngmyren" />
		<tag k="place" v="farm" />
		<tag k="ssr:stedsnr" v="978705" />
	</node>
	<node lat="58.081708698058165" lon="7.915044248169216" id="-42473">
		<tag k="fixme" v="consider place=hamlet" />
		<tag k="name" v="Nordre Svensviken" />
		<tag k="place" v="farm" />
		<tag k="ssr:stedsnr" v="978713" />
	</node>
	<node lat="58.0806754945845" lon="7.915736343881871" id="-42474">
		<tag k="fixme" v="consider place=hamlet" />
		<tag k="name" v="Søndre Svensvigen" />
		<tag k="place" v="farm" />
		<tag k="ssr:stedsnr" v="978714" />
	</node>
	<node lat="58.077582420137325" lon="7.886832195123173" id="-42475">
		<tag k="fixme" v="consider place=hamlet" />
		<tag k="name" v="Kilen" />
		<tag k="place" v="farm" />
		<tag k="ssr:stedsnr" v="978715" />
	</node>
	<node lat="58.07361501828066" lon="7.8710183524860735" id="-42476">
		<tag k="fixme" v="consider place=hamlet" />
		<tag k="name" v="Langenes" />
		<tag k="place" v="farm" />
		<tag k="ssr:stedsnr" v="978716" />
	</node>
	<node lat="58.06742105504761" lon="7.868200303762738" id="-42477">
		<tag k="fixme" v="consider place=hamlet" />
		<tag k="name" v="Herøen" />
		<tag k="place" v="farm" />
		<tag k="ssr:stedsnr" v="978717" />
	</node>
	<node lat="58.07462925500001" lon="7.863915458730711" id="-42478">
		<tag k="fixme" v="consider place=hamlet" />
		<tag k="name" v="Søviga" />
		<tag k="place" v="farm" />
		<tag k="ssr:stedsnr" v="978718" />
	</node>
	<node lat="58.08825523850422" lon="7.836953897430248" id="-42479">
		<tag k="fixme" v="consider place=hamlet" />
		<tag k="name" v="Stausland" />
		<tag k="place" v="farm" />
		<tag k="ssr:stedsnr" v="978719" />
	</node>
	<node lat="58.053788453314695" lon="7.839770376427784" id="-42480">
		<tag k="fixme" v="consider place=hamlet" />
		<tag k="name" v="Monsøya" />
		<tag k="place" v="farm" />
		<tag k="ssr:stedsnr" v="978721" />
	</node>
	<node lat="58.053139135923495" lon="7.8178985030137795" id="-42481">
		<tag k="fixme" v="consider place=hamlet" />
		<tag k="name" v="Skarpøya" />
		<tag k="place" v="farm" />
		<tag k="ssr:stedsnr" v="978722" />
	</node>
	<node lat="58.07019821901585" lon="7.792950609234292" id="-42482">
		<tag k="fixme" v="consider place=hamlet" />
		<tag k="name" v="Amfenes" />
		<tag k="place" v="farm" />
		<tag k="ssr:stedsnr" v="978723" />
	</node>
	<node lat="58.05347068801485" lon="7.772070017312718" id="-42483">
		<tag k="fixme" v="consider place=hamlet" />
		<tag k="name" v="Borøya" />
		<tag k="place" v="farm" />
		<tag k="ssr:stedsnr" v="978724" />
	</node>
	<node lat="58.20975000340941" lon="7.835488881536347" id="-42560">
		<tag k="alt_name" v="Haugland" />
		<tag k="fixme" v="consider place=hamlet" />
		<tag k="name" v="Haugeland" />
		<tag k="place" v="farm" />
		<tag k="ssr:stedsnr" v="11" />
	</node>
	<node lat="58.16956944214222" lon="7.850266673581257" id="-42567">
		<tag k="name" v="Magnusdalen" />
		<tag k="place" v="locality" />
		<tag k="ssr:stedsnr" v="33" />
	</node>
	<node lat="58.22323333567158" lon="7.912544448308044" id="-42570">
		<tag k="alt_name" v="Høie" />
		<tag k="building" v="industrial" />
		<tag k="industrial" v="factory" />
		<tag k="name" v="Høye" />
		<tag k="ssr:stedsnr" v="101" />
	</node>
	<node lat="58.233905551342104" lon="7.815213893886625" id="-42571">
		<tag k="fixme" v="consider place=hamlet" />
		<tag k="name" v="Utsogn" />
		<tag k="place" v="farm" />
		<tag k="ssr:stedsnr" v="106" />
	</node>
	<node lat="58.21394999771456" lon="7.937005562613232" id="-42572">
		<tag k="alt_name" v="Glattetræ" />
		<tag k="fixme" v="consider place=hamlet" />
		<tag k="name" v="Glattetre" />
		<tag k="place" v="farm" />
		<tag k="ssr:stedsnr" v="117" />
	</node>
	<node lat="58.21688610729274" lon="7.921733339750983" id="-42573">
		<tag k="alt_name" v="Mosby, ytre" />
		<tag k="fixme" v="consider place=hamlet" />
		<tag k="name" v="Ytre Mosby" />
		<tag k="place" v="farm" />
		<tag k="ssr:stedsnr" v="120" />
	</node>
	<node lat="58.204369444847764" lon="7.82310833176445" id="-42574">
		<tag k="name" v="Vollan" />
		<tag k="place" v="farm" />
		<tag k="ssr:stedsnr" v="122" />
	</node>
	<node lat="58.21502777802997" lon="7.889216670174031" id="-42575">
		<tag k="fixme" v="consider place=hamlet" />
		<tag k="name" v="Mestad" />
		<tag k="place" v="farm" />
		<tag k="ssr:stedsnr" v="135" />
	</node>
	<node lat="58.125247219131204" lon="8.084400006417109" id="-42577">
		<tag k="alt_name" v="Rabbesvika;Rabbersvik" />
		<tag k="name" v="Rabbersvig" />
		<tag k="place" v="farm" />
		<tag k="ssr:stedsnr" v="146" />
	</node>
	<node lat="58.23488333598984" lon="8.12600000633572" id="-42581">
		<tag k="name" v="Nygård" />
		<tag k="place" v="farm" />
		<tag k="ssr:stedsnr" v="281" />
	</node>
	<node lat="58.25445278192769" lon="7.585877783317523" id="-42584">
		<tag k="alt_name" v="Nygård" />
		<tag k="name" v="Nygard" />
		<tag k="place" v="farm" />
		<tag k="ssr:stedsnr" v="215" />
	</node>
	<node lat="58.27027778223775" lon="7.660036112737932" id="-42586">
		<tag k="name" v="Kilen" />
		<tag k="place" v="farm" />
		<tag k="ssr:stedsnr" v="218" />
	</node>
	<node lat="58.126602033962826" lon="7.966468754433182" id="-42591">
		<tag k="name" v="Fiskå" />
		<tag k="old_name" v="Fiska" />
		<tag k="place" v="suburb" />
		<tag k="ssr:stedsnr" v="240" />
	</node>
	<node lat="58.13040833158685" lon="8.147361105813998" id="-42597">
		<tag k="name" v="Romstøl" />
		<tag k="place" v="farm" />
		<tag k="ssr:stedsnr" v="538" />
	</node>
	<node lat="58.096425002893234" lon="7.669944443664102" id="-42598">
		<tag k="fixme" v="consider place=hamlet" />
		<tag k="name" v="Ospedalen" />
		<tag k="place" v="farm" />
		<tag k="ssr:stedsnr" v="817" />
	</node>
	<node lat="58.21515707389083" lon="8.094089374229645" id="-42602">
		<tag k="fixme" v="consider place=hamlet" />
		<tag k="name" v="Bøen" />
		<tag k="place" v="farm" />
		<tag k="ssr:stedsnr" v="736" />
	</node>
	<node lat="58.32109809785512" lon="7.643487422898182" id="-42605">
		<tag k="name" v="Heimtun" />
		<tag k="place" v="farm" />
		<tag k="ssr:stedsnr" v="778" />
	</node>
	<node lat="58.307236113671955" lon="7.698424995922341" id="-42606">
		<tag k="alt_name" v="Østre Hægland" />
		<tag k="fixme" v="consider place=hamlet" />
		<tag k="name" v="Heggland" />
		<tag k="place" v="farm" />
		<tag k="ssr:stedsnr" v="869" />
	</node>
	<node lat="58.13349999812754" lon="7.643636114257263" id="-42609">
		<tag k="name" v="Øygarden" />
		<tag k="place" v="locality" />
		<tag k="ssr:stedsnr" v="21021" />
	</node>
	<node lat="58.044908332917814" lon="7.653305558148" id="-42612">
		<tag k="name" v="Østre Eid" />
		<tag k="place" v="farm" />
		<tag k="ssr:stedsnr" v="21125" />
	</node>
	<node lat="58.096108332567184" lon="7.772227781575949" id="-42616">
		<tag k="name" v="Masta" />
		<tag k="place" v="farm" />
		<tag k="ssr:stedsnr" v="21195" />
	</node>
	<node lat="58.17716666612556" lon="8.09036111367308" id="-42674">
		<tag k="name" v="Hånes" />
		<tag k="place" v="suburb" />
		<tag k="ssr:stedsnr" v="31792" />
	</node>
	<node lat="58.15342500210429" lon="8.002191672669206" id="-42678">
		<tag k="alt_name" v="Roklubben" />
		<tag k="leisure" v="pitch" />
		<tag k="name" v="Kristiansand roklubb" />
		<tag k="ssr:stedsnr" v="46931" />
	</node>
	<node lat="58.29765278018087" lon="7.5957222256530645" id="-42686">
		<tag k="name" v="Husmannshola" />
		<tag k="place" v="locality" />
		<tag k="ssr:stedsnr" v="38264" />
	</node>
	<node lat="58.28783610976386" lon="7.598658335074812" id="-42688">
		<tag k="name" v="Myrvang" />
		<tag k="place" v="farm" />
		<tag k="ssr:stedsnr" v="38271" />
	</node>
	<node lat="58.31420277899528" lon="7.62813611010999" id="-42719">
		<tag k="name" v="Øygard" />
		<tag k="place" v="locality" />
		<tag k="ssr:stedsnr" v="38547" />
	</node>
	<node lat="58.18106389077687" lon="8.088316663019347" id="-42831">
		<tag k="building" v="commercial" />
		<tag k="name" v="Hånes senter" />
		<tag k="ssr:stedsnr" v="45031" />
	</node>
	<node lat="58.18383055891074" lon="8.094922228671802" id="-42832">
		<tag k="name" v="Sandehaven" />
		<tag k="place" v="hamlet" />
		<tag k="ssr:stedsnr" v="45035" />
	</node>
	<node lat="58.25346666834949" lon="8.150741660574838" id="-42838">
		<tag k="alt_name" v="Sannes" />
		<tag k="name" v="Sandnes" />
		<tag k="place" v="hamlet" />
		<tag k="ssr:stedsnr" v="45087" />
	</node>
	<node lat="58.25569166976306" lon="8.163474991863167" id="-42839">
		<tag k="name" v="Myrkroken" />
		<tag k="place" v="farm" />
		<tag k="ssr:stedsnr" v="45093" />
	</node>
	<node lat="58.25464999936725" lon="8.162963883581794" id="-42840">
		<tag k="name" v="Myren" />
		<tag k="place" v="hamlet" />
		<tag k="ssr:stedsnr" v="45094" />
	</node>
	<node lat="58.14753888865862" lon="7.998622228988511" id="-42843">
		<tag k="building" v="commercial" />
		<tag k="name" v="Tinghuset" />
		<tag k="ssr:stedsnr" v="45697" />
	</node>
	<node lat="58.212352774901554" lon="8.107816671153971" id="-42847">
		<tag k="name" v="Hallingen" />
		<tag k="place" v="farm" />
		<tag k="ssr:stedsnr" v="45960" />
	</node>
	<node lat="58.17951388774378" lon="8.033661115665305" id="-42873">
		<tag k="amenity" v="school" />
		<tag k="name" v="Fagerholt skole" />
		<tag k="ssr:stedsnr" v="46596" />
	</node>
	<node lat="58.14071666391325" lon="7.994613880933811" id="-42876">
		<tag k="name" v="Gravane" />
		<tag k="place" v="village" />
		<tag k="ssr:stedsnr" v="46997" />
	</node>
	<node lat="58.0728722182148" lon="7.645472217387137" id="-42882">
		<tag k="name" v="Stybstad" />
		<tag k="place" v="farm" />
		<tag k="ssr:stedsnr" v="56540" />
	</node>
	<node lat="58.18930000445102" lon="7.92826110880701" id="-42903">
		<tag k="fixme" v="consider place=suburb, village or hamlet" />
		<tag k="name" v="Strai" />
		<tag k="place" v="quarter" />
		<tag k="ssr:stedsnr" v="61019" />
	</node>
	<node lat="58.22357221924551" lon="8.109847226269906" id="-42906">
		<tag k="fixme" v="consider place=suburb, village or hamlet" />
		<tag k="name" v="Ryen" />
		<tag k="place" v="quarter" />
		<tag k="ssr:stedsnr" v="61288" />
	</node>
	<node lat="58.10396666893611" lon="7.973758337985658" id="-42907">
		<tag k="alt_name" v="Møvig" />
		<tag k="name" v="Møvik" />
		<tag k="place" v="village" />
		<tag k="ssr:stedsnr" v="60159" />
	</node>
	<node lat="58.313315926944405" lon="7.650449185455041" id="-42908">
		<tag k="fixme" v="consider place=hamlet" />
		<tag k="name" v="Hønemyr" />
		<tag k="place" v="farm" />
		<tag k="ssr:stedsnr" v="60864" />
	</node>
	<node lat="58.311922221532456" lon="7.655225005718548" id="-42909">
		<tag k="name" v="Sjurstad" />
		<tag k="place" v="farm" />
		<tag k="ssr:stedsnr" v="60866" />
	</node>
	<node lat="58.269566667550826" lon="8.078438891767947" id="-42912">
		<tag k="name" v="Kleivane" />
		<tag k="place" v="farm" />
		<tag k="ssr:stedsnr" v="61050" />
	</node>
	<node lat="58.16539999736505" lon="8.093208330294017" id="-42919">
		<tag k="name" v="Strømme" />
		<tag k="place" v="farm" />
		<tag k="ssr:stedsnr" v="61590" />
	</node>
	<node lat="58.216296169355914" lon="8.107055155220744" id="-42921">
		<tag k="name" v="Karten" />
		<tag k="place" v="farm" />
		<tag k="ssr:stedsnr" v="61449" />
	</node>
	<node lat="58.35600833215834" lon="7.61923054824497" id="-42925">
		<tag k="alt_name" v="Dyble" />
		<tag k="fixme" v="consider place=hamlet" />
		<tag k="name" v="Dybla" />
		<tag k="place" v="farm" />
		<tag k="ssr:stedsnr" v="61780" />
	</node>
	<node lat="58.05405000078057" lon="7.673550005518184" id="-42926">
		<tag k="fixme" v="consider place=hamlet" />
		<tag k="name" v="Dvalås" />
		<tag k="place" v="farm" />
		<tag k="ssr:stedsnr" v="61999" />
	</node>
	<node lat="58.11040278035227" lon="7.687333325134935" id="-42927">
		<tag k="fixme" v="consider place=hamlet" />
		<tag k="name" v="Eikestøl" />
		<tag k="place" v="farm" />
		<tag k="ssr:stedsnr" v="61835" />
	</node>
	<node lat="58.13535833657739" lon="7.683183334776409" id="-42928">
		<tag k="alt_name" v="Svemmeland" />
		<tag k="fixme" v="consider place=hamlet" />
		<tag k="name" v="Svemland" />
		<tag k="place" v="farm" />
		<tag k="ssr:stedsnr" v="61848" />
	</node>
	<node lat="58.11329444174477" lon="7.636880559423872" id="-42930">
		<tag k="name" v="Ulshus" />
		<tag k="place" v="hamlet" />
		<tag k="ssr:stedsnr" v="82042" />
	</node>
	<node lat="58.144141664392" lon="8.023802782310062" id="-42973">
		<tag k="name" v="Kuholmen" />
		<tag k="place" v="hamlet" />
		<tag k="ssr:stedsnr" v="85349" />
	</node>
	<node lat="58.281636110213704" lon="7.58308333505609" id="-43024">
		<tag k="name" v="Kvivollen" />
		<tag k="place" v="farm" />
		<tag k="ssr:stedsnr" v="99135" />
	</node>
	<node lat="58.3134583377862" lon="7.6636777739241015" id="-43067">
		<tag k="name" v="Persdalen" />
		<tag k="place" v="farm" />
		<tag k="ssr:stedsnr" v="99559" />
	</node>
	<node lat="58.276781360525604" lon="8.062985634208394" id="-43189">
		<tag k="name" v="Mållskåret" />
		<tag k="place" v="farm" />
		<tag k="ssr:stedsnr" v="106238" />
	</node>
	<node lat="58.13010833121958" lon="7.965119445886133" id="-43193">
		<tag k="building" v="industrial" />
		<tag k="industrial" v="factory" />
		<tag k="name" v="Christiansands Æskefabrikk" />
		<tag k="ssr:stedsnr" v="107088" />
	</node>
	<node lat="58.219002775760266" lon="8.104591659617855" id="-43214">
		<tag k="fixme" v="consider place=hamlet" />
		<tag k="name" v="Ryen" />
		<tag k="place" v="farm" />
		<tag k="ssr:stedsnr" v="106892" />
	</node>
	<node lat="58.1490388919793" lon="8.001152777130784" id="-43215">
		<tag k="amenity" v="school" />
		<tag k="name" v="Kvadraturen videregående skole" />
		<tag k="ssr:stedsnr" v="106899" />
	</node>
	<node lat="58.22031944231" lon="7.924822225957117" id="-43229">
		<tag k="amenity" v="school" />
		<tag k="name" v="Mosby skole" />
		<tag k="ssr:stedsnr" v="107388" />
	</node>
	<node lat="58.179905552726154" lon="8.12988889274169" id="-43230">
		<tag k="building" v="commercial" />
		<tag k="name" v="Sørlandssenteret" />
		<tag k="ssr:stedsnr" v="107398" />
	</node>
	<node lat="58.1413222241712" lon="7.9950194402659704" id="-43243">
		<tag k="building" v="commercial" />
		<tag k="name" v="Fiskehallen" />
		<tag k="ssr:stedsnr" v="107943" />
	</node>
	<node lat="58.05155833553733" lon="7.838491675056572" id="-43269">
		<tag k="name" v="Kapelløya" />
		<tag k="place" v="farm" />
		<tag k="ssr:stedsnr" v="120160" />
	</node>
	<node lat="58.217092181660924" lon="7.931914293139853" id="-43270">
		<tag k="fixme" v="consider place=hamlet" />
		<tag k="name" v="Haus" />
		<tag k="place" v="farm" />
		<tag k="ssr:stedsnr" v="121123" />
	</node>
	<node lat="58.16684444488694" lon="7.825808331760949" id="-43271">
		<tag k="fixme" v="consider place=hamlet" />
		<tag k="name" v="Hagen" />
		<tag k="place" v="farm" />
		<tag k="ssr:stedsnr" v="121036" />
	</node>
	<node lat="58.165874997065615" lon="7.75407500072204" id="-43272">
		<tag k="fixme" v="consider place=hamlet" />
		<tag k="name" v="Tronstad" />
		<tag k="place" v="farm" />
		<tag k="ssr:stedsnr" v="121038" />
	</node>
	<node lat="58.18386944629152" lon="8.085819452118463" id="-43273">
		<tag k="name" v="Grovika" />
		<tag k="place" v="farm" />
		<tag k="ssr:stedsnr" v="121042" />
	</node>
	<node lat="58.17651944056539" lon="7.869391663445941" id="-43276">
		<tag k="fixme" v="consider place=hamlet" />
		<tag k="name" v="Bergstøl" />
		<tag k="place" v="farm" />
		<tag k="ssr:stedsnr" v="121055" />
	</node>
	<node lat="58.27457777831256" lon="8.051911103133001" id="-43277">
		<tag k="alt_name" v="Gangtjørn" />
		<tag k="name" v="Gangtjønn" />
		<tag k="place" v="farm" />
		<tag k="ssr:stedsnr" v="121060" />
	</node>
	<node lat="58.197593383377345" lon="8.03010512238471" id="-43278">
		<tag k="alt_name" v="Gjusvik" />
		<tag k="fixme" v="consider place=hamlet" />
		<tag k="name" v="Justvik" />
		<tag k="place" v="farm" />
		<tag k="ssr:stedsnr" v="121005" />
	</node>
	<node lat="58.21551666631717" lon="7.835811113076743" id="-43285">
		<tag k="fixme" v="consider place=hamlet" />
		<tag k="name" v="Eidså" />
		<tag k="place" v="farm" />
		<tag k="ssr:stedsnr" v="121130" />
	</node>
	<node lat="58.10544166263563" lon="7.82326667075704" id="-43287">
		<tag k="alt_name" v="Kleppeland;Kleppland" />
		<tag k="fixme" v="consider place=hamlet" />
		<tag k="name" v="Klepland" />
		<tag k="place" v="farm" />
		<tag k="ssr:stedsnr" v="121139" />
	</node>
	<node lat="58.07882268704118" lon="7.996437430176221" id="-43289">
		<tag k="name" v="Myra" />
		<tag k="place" v="quarter" />
		<tag k="ssr:stedsnr" v="121159" />
	</node>
	<node lat="58.13741389245131" lon="8.173402772130647" id="-43303">
		<tag k="name" v="Unndalen" />
		<tag k="place" v="farm" />
		<tag k="ssr:stedsnr" v="121537" />
	</node>
	<node lat="58.244552780130704" lon="7.689863881183741" id="-43308">
		<tag k="name" v="Eikeland" />
		<tag k="place" v="farm" />
		<tag k="ssr:stedsnr" v="121645" />
	</node>
	<node lat="58.30626666402246" lon="7.5561805535297735" id="-43310">
		<tag k="fixme" v="consider place=hamlet" />
		<tag k="name" v="Fløystøl" />
		<tag k="place" v="farm" />
		<tag k="ssr:stedsnr" v="121759" />
	</node>
	<node lat="58.057522221005826" lon="7.649919445773932" id="-43315">
		<tag k="alt_name" v="Hævåker;Hævaker" />
		<tag k="fixme" v="consider place=hamlet" />
		<tag k="name" v="Hævager" />
		<tag k="place" v="farm" />
		<tag k="ssr:stedsnr" v="121888" />
	</node>
	<node lat="58.2530358238879" lon="8.15299820137335" id="-43316">
		<tag k="alt_name" v="Sannes" />
		<tag k="fixme" v="consider place=hamlet" />
		<tag k="name" v="Sandnes" />
		<tag k="place" v="farm" />
		<tag k="ssr:stedsnr" v="121900" />
	</node>
	<node lat="58.06071667071593" lon="7.653772218326204" id="-43333">
		<tag k="name" v="Bjølle" />
		<tag k="place" v="farm" />
		<tag k="ssr:stedsnr" v="142135" />
	</node>
	<node lat="58.147405553576675" lon="8.031222226392027" id="-43356">
		<tag k="name" v="Roligheden" />
		<tag k="old_name" v="Roligheten" />
		<tag k="ssr:stedsnr" v="145418" />
		<tag k="tourism" v="camp_site" />
	</node>
	<node lat="58.20909166492999" lon="7.774038889969648" id="-43445">
		<tag k="name" v="Borvedalen" />
		<tag k="place" v="farm" />
		<tag k="ssr:stedsnr" v="159743" />
	</node>
	<node lat="58.15753055326819" lon="7.835755548255557" id="-43453">
		<tag k="name" v="Fossmoen" />
		<tag k="place" v="quarter" />
		<tag k="ssr:stedsnr" v="159793" />
	</node>
	<node lat="58.23780555808642" lon="7.850941668058221" id="-43574">
		<tag k="name" v="Godheia" />
		<tag k="place" v="locality" />
		<tag k="ssr:stedsnr" v="160980" />
	</node>
	<node lat="58.19130278228011" lon="8.109097226290212" id="-43631">
		<tag k="historic" v="shieling" />
		<tag k="name" v="Heime Øygard" />
		<tag k="place" v="isolated_dwelling" />
		<tag k="ssr:stedsnr" v="166029" />
	</node>
	<node lat="58.14461944620302" lon="8.001344452513921" id="-43633">
		<tag k="name" v="Reranchementet" />
		<tag k="place" v="square" />
		<tag k="ssr:stedsnr" v="167990" />
	</node>
	<node lat="58.14963611448232" lon="7.993727780960351" id="-43634">
		<tag k="amenity" v="school" />
		<tag k="name" v="Samfundets skole" />
		<tag k="ssr:stedsnr" v="167996" />
	</node>
	<node lat="58.15865000060666" lon="8.003047223261229" id="-43636">
		<tag k="name" v="Gimle gård" />
		<tag k="place" v="farm" />
		<tag k="ssr:stedsnr" v="166691" />
	</node>
	<node lat="58.15143888498197" lon="7.994311118242566" id="-43640">
		<tag k="amenity" v="townhall" />
		<tag k="name" v="Fylkeshuset" />
		<tag k="ssr:stedsnr" v="166695" />
	</node>
	<node lat="58.22307499631753" lon="8.119527770324803" id="-43641">
		<tag k="name" v="Dønnestad" />
		<tag k="place" v="hamlet" />
		<tag k="ssr:stedsnr" v="166885" />
	</node>
	<node lat="58.20729721798641" lon="8.015177785426864" id="-43644">
		<tag k="name" v="Hemningsrud" />
		<tag k="place" v="farm" />
		<tag k="ssr:stedsnr" v="166992" />
	</node>
	<node lat="58.14708611072058" lon="7.998330556560526" id="-43680">
		<tag k="building" v="commercial" />
		<tag k="name" v="Politihuset" />
		<tag k="ssr:stedsnr" v="167938" />
	</node>
	<node lat="58.180611114196864" lon="7.8567805592154585" id="-43701">
		<tag k="name" v="Moradsen" />
		<tag k="place" v="locality" />
		<tag k="ssr:stedsnr" v="182018" />
	</node>
	<node lat="58.188727778599876" lon="7.95245000049445" id="-43703">
		<tag k="fixme" v="consider place=hamlet" />
		<tag k="name" v="Skråstad" />
		<tag k="place" v="farm" />
		<tag k="ssr:stedsnr" v="182024" />
	</node>
	<node lat="58.22172500314457" lon="7.743944446300645" id="-43710">
		<tag k="fixme" v="consider place=hamlet" />
		<tag k="name" v="Gumpen" />
		<tag k="place" v="farm" />
		<tag k="ssr:stedsnr" v="182081" />
	</node>
	<node lat="58.09567778136105" lon="7.7823805605437055" id="-43711">
		<tag k="name" v="Lunde" />
		<tag k="place" v="village" />
		<tag k="ssr:stedsnr" v="182131" />
	</node>
	<node lat="58.0606083315854" lon="7.72718888811607" id="-43713">
		<tag k="alt_name" v="Solvig" />
		<tag k="name" v="Solvik" />
		<tag k="place" v="farm" />
		<tag k="ssr:stedsnr" v="182175" />
	</node>
	<node lat="58.14554999631849" lon="7.955450005901783" id="-43716">
		<tag k="name" v="Tinnheia" />
		<tag k="place" v="quarter" />
		<tag k="ssr:stedsnr" v="182195" />
	</node>
	<node lat="58.275647221538534" lon="8.106783334408458" id="-43725">
		<tag k="alt_name" v="Brennevatn" />
		<tag k="fixme" v="consider place=hamlet" />
		<tag k="name" v="Brennevann" />
		<tag k="place" v="farm" />
		<tag k="ssr:stedsnr" v="182724" />
	</node>
	<node lat="58.166683330277124" lon="8.14003888110817" id="-43729">
		<tag k="name" v="Nygård" />
		<tag k="place" v="farm" />
		<tag k="ssr:stedsnr" v="182592" />
	</node>
	<node lat="58.056572220170295" lon="7.710775003921267" id="-43730">
		<tag k="fixme" v="consider place=suburb, village or hamlet" />
		<tag k="name" v="Trysnes" />
		<tag k="place" v="quarter" />
		<tag k="ssr:stedsnr" v="182879" />
	</node>
	<node lat="58.0644555522586" lon="7.709100001326401" id="-43732">
		<tag k="alt_name" v="Myran" />
		<tag k="name" v="Myrane" />
		<tag k="place" v="farm" />
		<tag k="ssr:stedsnr" v="182887" />
	</node>
	<node lat="58.051108329130685" lon="7.650686109810836" id="-43733">
		<tag k="fixme" v="consider place=hamlet" />
		<tag k="name" v="Tånevig" />
		<tag k="place" v="farm" />
		<tag k="ssr:stedsnr" v="182999" />
	</node>
	<node lat="58.073299997148474" lon="7.656538889981056" id="-43735">
		<tag k="name" v="Stubstad" />
		<tag k="place" v="farm" />
		<tag k="ssr:stedsnr" v="182896" />
	</node>
	<node lat="58.06280278128163" lon="7.673541658390773" id="-43744">
		<tag k="name" v="Øygarden" />
		<tag k="place" v="locality" />
		<tag k="ssr:stedsnr" v="203134" />
	</node>
	<node lat="58.21484166478824" lon="7.896836115021758" id="-43780">
		<tag k="name" v="Øygarden" />
		<tag k="place" v="locality" />
		<tag k="ssr:stedsnr" v="206065" />
	</node>
	<node lat="58.08821666314324" lon="7.829752784031881" id="-43790">
		<tag k="fixme" v="consider place=suburb, village or hamlet" />
		<tag k="name" v="Stausland" />
		<tag k="place" v="quarter" />
		<tag k="ssr:stedsnr" v="206123" />
	</node>
	<node lat="58.0932777772563" lon="7.782938882363655" id="-43791">
		<tag k="name" v="Søgne" />
		<tag k="place" v="village" />
		<tag k="ssr:stedsnr" v="206124" />
	</node>
	<node lat="58.10595833625448" lon="7.706888887770804" id="-43811">
		<tag k="name" v="Dal" />
		<tag k="place" v="farm" />
		<tag k="ssr:stedsnr" v="210081" />
	</node>
	<node lat="58.1062055553819" lon="7.710902779365629" id="-43812">
		<tag k="name" v="Dal" />
		<tag k="place" v="farm" />
		<tag k="ssr:stedsnr" v="210082" />
	</node>
	<node lat="58.2300555545398" lon="8.177052783407708" id="-43828">
		<tag k="historic" v="shieling" />
		<tag k="name" v="Fiskesåda" />
		<tag k="place" v="isolated_dwelling" />
		<tag k="ssr:stedsnr" v="210399" />
	</node>
	<node lat="58.127144447785014" lon="7.968491663522754" id="-43835">
		<tag k="building" v="industrial" />
		<tag k="industrial" v="factory" />
		<tag k="name" v="Fiskå verk" />
		<tag k="ssr:stedsnr" v="219146" />
	</node>
	<node lat="58.175161109883234" lon="7.717888895724546" id="-43854">
		<tag k="fixme" v="consider place=hamlet" />
		<tag k="name" v="Eikåsen" />
		<tag k="place" v="farm" />
		<tag k="ssr:stedsnr" v="220333" />
	</node>
	<node lat="58.30850000044605" lon="7.641394438756386" id="-43871">
		<tag k="name" v="Heimstad" />
		<tag k="place" v="farm" />
		<tag k="ssr:stedsnr" v="220601" />
	</node>
	<node lat="58.14574166422113" lon="7.849161116245258" id="-43877">
		<tag k="name" v="Lysgårdslia" />
		<tag k="place" v="quarter" />
		<tag k="ssr:stedsnr" v="220819" />
	</node>
	<node lat="58.15291110716727" lon="7.872677780071459" id="-43932">
		<tag k="name" v="Nodeland Øygard" />
		<tag k="place" v="hamlet" />
		<tag k="ssr:stedsnr" v="221736" />
	</node>
	<node lat="58.09956389247564" lon="7.719674996891127" id="-43944">
		<tag k="name" v="Lohnelier industriområde" />
		<tag k="place" v="quarter" />
		<tag k="ssr:stedsnr" v="222425" />
	</node>
	<node lat="58.236538892305525" lon="8.026508333785092" id="-44005">
		<tag k="name" v="Eidet" />
		<tag k="place" v="farm" />
		<tag k="ssr:stedsnr" v="227138" />
	</node>
	<node lat="58.077522223872194" lon="7.980655553383465" id="-44016">
		<tag k="name" v="Andås" />
		<tag k="place" v="hamlet" />
		<tag k="ssr:stedsnr" v="227473" />
	</node>
	<node lat="58.20623888496321" lon="8.077047214857538" id="-44018">
		<tag k="name" v="Espelunden" />
		<tag k="place" v="quarter" />
		<tag k="ssr:stedsnr" v="227665" />
	</node>
	<node lat="58.15619872812396" lon="7.921334730197794" id="-44019">
		<tag k="amenity" v="cafe" />
		<tag k="name" v="Kjærrane" />
		<tag k="ssr:stedsnr" v="227676" />
	</node>
	<node lat="58.16058333786312" lon="8.013902784479653" id="-44057">
		<tag k="fixme" v="consider place=hamlet" />
		<tag k="name" v="Prestegården" />
		<tag k="place" v="farm" />
		<tag k="ssr:stedsnr" v="228661" />
	</node>
	<node lat="58.159393087510594" lon="8.02477984734749" id="-44064">
		<tag k="name" v="Nedre Kongsgård" />
		<tag k="place" v="locality" />
		<tag k="ssr:stedsnr" v="279039" />
	</node>
	<node lat="58.344122222699475" lon="7.593152785788727" id="-44068">
		<tag k="name" v="Lian" />
		<tag k="place" v="farm" />
		<tag k="ssr:stedsnr" v="280235" />
	</node>
	<node lat="58.334622223243784" lon="7.594311110353999" id="-44107">
		<tag k="name" v="Myran" />
		<tag k="place" v="farm" />
		<tag k="ssr:stedsnr" v="281357" />
	</node>
	<node lat="58.22224444498212" lon="8.110794452673161" id="-44243">
		<tag k="name" v="Hektorsmoen" />
		<tag k="place" v="farm" />
		<tag k="ssr:stedsnr" v="288073" />
	</node>
	<node lat="58.15471666979553" lon="8.091747218674103" id="-44253">
		<tag k="name" v="Torp" />
		<tag k="place" v="farm" />
		<tag k="ssr:stedsnr" v="288640" />
	</node>
	<node lat="58.14044444889766" lon="8.12016666161248" id="-44254">
		<tag k="name" v="Bjørnestad" />
		<tag k="place" v="farm" />
		<tag k="ssr:stedsnr" v="288644" />
	</node>
	<node lat="58.18197778171133" lon="7.9600388878944495" id="-44257">
		<tag k="name" v="Øvre Blokkedal" />
		<tag k="place" v="locality" />
		<tag k="ssr:stedsnr" v="288947" />
	</node>
	<node lat="58.179199996480726" lon="7.9629194511089345" id="-44258">
		<tag k="name" v="Nedre Blokkedal" />
		<tag k="place" v="locality" />
		<tag k="ssr:stedsnr" v="288949" />
	</node>
	<node lat="58.14679722401373" lon="7.995319445773062" id="-44287">
		<tag k="leisure" v="park" />
		<tag k="name" v="Wergelandsparken" />
		<tag k="ssr:stedsnr" v="290000" />
	</node>
	<node lat="58.07401111484738" lon="7.890355553099497" id="-44288">
		<tag k="name" v="Vragevigheia" />
		<tag k="place" v="neighbourhood" />
		<tag k="ssr:stedsnr" v="298049" />
	</node>
	<node lat="58.12028610962196" lon="8.091894436255618" id="-44291">
		<tag k="fixme" v="consider tourism=alpine_hut or tourism=chalet" />
		<tag k="name" v="Tømmerstø" />
		<tag k="ssr:stedsnr" v="298854" />
		<tag k="tourism" v="wilderness_hut" />
	</node>
	<node lat="58.19103333522436" lon="7.831033339209466" id="-44312">
		<tag k="name" v="Solheia" />
		<tag k="place" v="locality" />
		<tag k="ssr:stedsnr" v="303021" />
	</node>
	<node lat="58.17100833735099" lon="7.831858341502111" id="-44314">
		<tag k="name" v="Hamre" />
		<tag k="place" v="farm" />
		<tag k="ssr:stedsnr" v="303031" />
	</node>
	<node lat="58.179963888367524" lon="7.937641672045691" id="-44315">
		<tag k="name" v="Langemyr næringsområde" />
		<tag k="old_name" v="Langemyr" />
		<tag k="place" v="quarter" />
		<tag k="ssr:stedsnr" v="303041" />
	</node>
	<node lat="58.203988890989166" lon="7.788099994501911" id="-44316">
		<tag k="fixme" v="consider place=hamlet" />
		<tag k="name" v="Stokkeland" />
		<tag k="place" v="farm" />
		<tag k="ssr:stedsnr" v="303120" />
	</node>
	<node lat="58.147722223052206" lon="7.731369439319394" id="-44318">
		<tag k="alt_name" v="Myrene" />
		<tag k="fixme" v="consider place=hamlet" />
		<tag k="name" v="Myran" />
		<tag k="place" v="farm" />
		<tag k="ssr:stedsnr" v="303192" />
	</node>
	<node lat="58.16042222187979" lon="8.084036115308093" id="-44319">
		<tag k="name" v="Strømme" />
		<tag k="place" v="farm" />
		<tag k="ssr:stedsnr" v="303193" />
	</node>
	<node lat="58.15060277893014" lon="7.786775004483748" id="-44320">
		<tag k="name" v="Skogen" />
		<tag k="place" v="isolated_dwelling" />
		<tag k="ssr:stedsnr" v="303195" />
	</node>
	<node lat="58.14615000048623" lon="7.995733335889231" id="-44321">
		<tag k="name" v="Kristiansand" />
		<tag k="place" v="town" />
		<tag k="ssr:stedsnr" v="303227" />
	</node>
	<node lat="58.13014167118717" lon="8.08828889542346" id="-44323">
		<tag k="fixme" v="consider place=hamlet" />
		<tag k="name" v="Fidje" />
		<tag k="place" v="farm" />
		<tag k="ssr:stedsnr" v="303242" />
	</node>
	<node lat="58.08229166359369" lon="7.820700007537882" id="-44328">
		<tag k="alt_name" v="Føreid" />
		<tag k="fixme" v="consider place=hamlet" />
		<tag k="name" v="Føre" />
		<tag k="place" v="farm" />
		<tag k="ssr:stedsnr" v="303163" />
	</node>
	<node lat="58.2435565765736" lon="8.134770643971008" id="-44329">
		<tag k="fixme" v="consider place=hamlet" />
		<tag k="name" v="Kråkebumoen" />
		<tag k="place" v="village" />
		<tag k="ssr:stedsnr" v="303362" />
	</node>
	<node lat="58.214049999528946" lon="8.105091661419937" id="-44332">
		<tag k="name" v="Borgevoll" />
		<tag k="place" v="farm" />
		<tag k="ssr:stedsnr" v="303455" />
	</node>
	<node lat="58.117086112717246" lon="8.113419448816723" id="-44333">
		<tag k="name" v="Kongshavn" />
		<tag k="place" v="hamlet" />
		<tag k="ssr:stedsnr" v="303517" />
	</node>
	<node lat="58.34041944747468" lon="7.576841659578025" id="-44334">
		<tag k="alt_name" v="Omsland" />
		<tag k="fixme" v="consider place=hamlet" />
		<tag k="name" v="Åmsland" />
		<tag k="place" v="farm" />
		<tag k="ssr:stedsnr" v="303790" />
	</node>
	<node lat="58.26729721855855" lon="8.098230559218365" id="-44335">
		<tag k="alt_name" v="Skotane;Skådene" />
		<tag k="name" v="Skådane" />
		<tag k="place" v="farm" />
		<tag k="ssr:stedsnr" v="303729" />
	</node>
	<node lat="58.331272217946356" lon="7.611058340805109" id="-44336">
		<tag k="alt_name" v="Abåsland" />
		<tag k="fixme" v="consider place=hamlet" />
		<tag k="name" v="Apåsland" />
		<tag k="place" v="farm" />
		<tag k="ssr:stedsnr" v="303741" />
	</node>
	<node lat="58.23880832999763" lon="7.865980563598415" id="-44391">
		<tag k="name" v="Røyrmyr" />
		<tag k="place" v="farm" />
		<tag k="ssr:stedsnr" v="331116" />
	</node>
	<node lat="58.20194166531667" lon="8.011905561193293" id="-44420">
		<tag k="name" v="Tussevangen" />
		<tag k="place" v="farm" />
		<tag k="ssr:stedsnr" v="331541" />
	</node>
	<node lat="58.07320555735866" lon="7.760055558474429" id="-44534">
		<tag k="name" v="Oftenesheia" />
		<tag k="place" v="quarter" />
		<tag k="ssr:stedsnr" v="343375" />
	</node>
	<node lat="58.07616389112675" lon="7.857430562473592" id="-44535">
		<tag k="name" v="Kossevigheia" />
		<tag k="place" v="quarter" />
		<tag k="ssr:stedsnr" v="343445" />
	</node>
	<node lat="58.230697219938705" lon="8.119202782601194" id="-44587">
		<tag k="fixme" v="consider place=suburb, village or hamlet" />
		<tag k="name" v="Kvalemoen" />
		<tag k="place" v="quarter" />
		<tag k="ssr:stedsnr" v="348072" />
	</node>
	<node lat="58.24714444861354" lon="8.146991673449712" id="-44589">
		<tag k="alt_name" v="Moen" />
		<tag k="name" v="Bumoen" />
		<tag k="place" v="hamlet" />
		<tag k="ssr:stedsnr" v="348082" />
	</node>
	<node lat="58.158061110703215" lon="8.01448055748981" id="-44593">
		<tag k="building" v="commercial" />
		<tag k="name" v="Tobienborg" />
		<tag k="ssr:stedsnr" v="348696" />
	</node>
	<node lat="58.15337500333796" lon="7.966197229367739" id="-44604">
		<tag k="leisure" v="pitch" />
		<tag k="name" v="Klappane skibakke" />
		<tag k="ssr:stedsnr" v="349129" />
	</node>
	<node lat="58.111413889959465" lon="7.902130559421009" id="-44607">
		<tag k="name" v="Monte Rosso" />
		<tag k="place" v="isolated_dwelling" />
		<tag k="ssr:stedsnr" v="349377" />
	</node>
	<node lat="58.27244166942078" lon="8.128530558582453" id="-44623">
		<tag k="historic" v="shieling" />
		<tag k="name" v="Pålsdalsstøa" />
		<tag k="place" v="isolated_dwelling" />
		<tag k="ssr:stedsnr" v="350198" />
	</node>
	<node lat="58.16863332968203" lon="7.9887944415965" id="-44647">
		<tag k="name" v="Skaugo" />
		<tag k="place" v="quarter" />
		<tag k="ssr:stedsnr" v="361831" />
	</node>
	<node lat="58.08649721789085" lon="7.827316675076586" id="-44652">
		<tag k="name" v="Torvmoen" />
		<tag k="place" v="quarter" />
		<tag k="ssr:stedsnr" v="362522" />
	</node>
	<node lat="58.183266621618046" lon="7.868774299439766" id="-44653">
		<tag k="fixme" v="consider place=hamlet" />
		<tag k="name" v="Rypestøl" />
		<tag k="place" v="farm" />
		<tag k="ssr:stedsnr" v="364045" />
	</node>
	<node lat="58.28315278168212" lon="7.681644438233473" id="-44655">
		<tag k="name" v="Monen" />
		<tag k="place" v="farm" />
		<tag k="ssr:stedsnr" v="364849" />
	</node>
	<node lat="58.12007221822561" lon="7.6259944500725325" id="-44657">
		<tag k="name" v="Åsen" />
		<tag k="place" v="farm" />
		<tag k="ssr:stedsnr" v="364872" />
	</node>
	<node lat="58.12238888497" lon="7.668536104256402" id="-44660">
		<tag k="fixme" v="consider place=hamlet" />
		<tag k="name" v="Kleivset" />
		<tag k="place" v="farm" />
		<tag k="ssr:stedsnr" v="364886" />
	</node>
	<node lat="58.237927775168984" lon="8.122763884510482" id="-44663">
		<tag k="name" v="Eikelia" />
		<tag k="place" v="farm" />
		<tag k="ssr:stedsnr" v="364282" />
	</node>
	<node lat="58.24388332977275" lon="8.165850005489126" id="-44664">
		<tag k="name" v="Åsen" />
		<tag k="place" v="farm" />
		<tag k="ssr:stedsnr" v="364367" />
	</node>
	<node lat="58.22273888541515" lon="7.73347777703142" id="-44669">
		<tag k="alt_name" v="Fidje" />
		<tag k="fixme" v="consider place=hamlet" />
		<tag k="name" v="Vestre Fidje" />
		<tag k="place" v="farm" />
		<tag k="ssr:stedsnr" v="364101" />
	</node>
	<node lat="58.152944442292295" lon="7.961149997309575" id="-44672">
		<tag k="fixme" v="consider place=suburb, village or hamlet" />
		<tag k="name" v="Krossen" />
		<tag k="place" v="quarter" />
		<tag k="ssr:stedsnr" v="364223" />
	</node>
	<node lat="58.132073592322946" lon="8.07826349162627" id="-44674">
		<tag k="fixme" v="consider place=hamlet" />
		<tag k="name" v="Dvergsnes" />
		<tag k="place" v="farm" />
		<tag k="ssr:stedsnr" v="364247" />
	</node>
	<node lat="58.05342778053278" lon="7.840413882017001" id="-44677">
		<tag k="alt_name" v="Ny Hellesund" />
		<tag k="name" v="Ny-Hellesund" />
		<tag k="place" v="hamlet" />
		<tag k="ssr:stedsnr" v="364330" />
	</node>
	<node lat="58.25277221987295" lon="8.169583339324403" id="-44679">
		<tag k="alt_name" v="Kolekra" />
		<tag k="name" v="Kålegra" />
		<tag k="place" v="farm" />
		<tag k="ssr:stedsnr" v="364728" />
	</node>
	<node lat="58.13110555757066" lon="8.100333328960586" id="-44682">
		<tag k="fixme" v="consider place=hamlet" />
		<tag k="name" v="Holte" />
		<tag k="place" v="farm" />
		<tag k="ssr:stedsnr" v="364567" />
	</node>
	<node lat="58.16468333229564" lon="8.0074194509064" id="-44740">
		<tag k="fixme" v="consider place=hamlet" />
		<tag k="name" v="Jegersberg" />
		<tag k="place" v="farm" />
		<tag k="ssr:stedsnr" v="388398" />
	</node>
	<node lat="58.12423889199048" lon="7.96809999824123" id="-44776">
		<tag k="name" v="Lumber" />
		<tag k="place" v="quarter" />
		<tag k="ssr:stedsnr" v="400139" />
	</node>
	<node lat="58.31362500396837" lon="7.571463893323584" id="-44784">
		<tag k="name" v="Øygarden" />
		<tag k="place" v="locality" />
		<tag k="ssr:stedsnr" v="402373" />
	</node>
	<node lat="58.23996389060979" lon="7.692861118837901" id="-44815">
		<tag k="name" v="Ytrejorde" />
		<tag k="place" v="farm" />
		<tag k="ssr:stedsnr" v="402519" />
	</node>
	<node lat="58.15491388962768" lon="7.83363056014918" id="-44841">
		<tag k="name" v="Vestmoen" />
		<tag k="place" v="quarter" />
		<tag k="ssr:stedsnr" v="402746" />
	</node>
	<node lat="58.144741668957764" lon="7.846366674844778" id="-44860">
		<tag k="name" v="Lysgård" />
		<tag k="place" v="farm" />
		<tag k="ssr:stedsnr" v="402801" />
	</node>
	<node lat="58.17671944891579" lon="7.819383332382097" id="-44865">
		<tag k="name" v="Skrean" />
		<tag k="place" v="quarter" />
		<tag k="ssr:stedsnr" v="402885" />
	</node>
	<node lat="58.179602781236575" lon="7.870916661604807" id="-44867">
		<tag k="fixme" v="consider tourism=alpine_hut or tourism=chalet" />
		<tag k="name" v="Bergstølhytta" />
		<tag k="ssr:stedsnr" v="402980" />
		<tag k="tourism" v="wilderness_hut" />
	</node>
	<node lat="58.11967777928655" lon="7.947788880987514" id="-44988">
		<tag k="amenity" v="school" />
		<tag k="name" v="Åsane skole" />
		<tag k="ssr:stedsnr" v="409156" />
	</node>
	<node lat="58.24878055865142" lon="8.165869444341373" id="-44990">
		<tag k="name" v="Flaten" />
		<tag k="place" v="farm" />
		<tag k="ssr:stedsnr" v="409116" />
	</node>
	<node lat="58.25109444187351" lon="8.162308327510802" id="-44991">
		<tag k="name" v="Renneteigen" />
		<tag k="place" v="farm" />
		<tag k="ssr:stedsnr" v="409118" />
	</node>
	<node lat="58.229924996381904" lon="8.023391668613055" id="-44994">
		<tag k="name" v="Rosenborg" />
		<tag k="place" v="farm" />
		<tag k="ssr:stedsnr" v="409135" />
	</node>
	<node lat="58.17955833248996" lon="8.148730556959652" id="-45002">
		<tag k="amenity" v="sports_centre" />
		<tag k="name" v="Sørlandshallen" />
		<tag k="ssr:stedsnr" v="409684" />
	</node>
	<node lat="58.215208337216886" lon="8.092886112130735" id="-45008">
		<tag k="name" v="Heslebrekka" />
		<tag k="place" v="farm" />
		<tag k="ssr:stedsnr" v="409981" />
	</node>
	<node lat="58.10425555608915" lon="7.972869447233621" id="-45018">
		<tag k="amenity" v="school" />
		<tag k="loc_name" v="Møvig skole" />
		<tag k="name" v="Møvik skole" />
		<tag k="ssr:stedsnr" v="410365" />
	</node>
	<node lat="58.147580555454404" lon="7.935452777669164" id="-45022">
		<tag k="amenity" v="school" />
		<tag k="name" v="Hellemyr skole" />
		<tag k="ssr:stedsnr" v="410406" />
	</node>
	<node lat="58.161066669601844" lon="8.009030548098984" id="-45032">
		<tag k="amenity" v="sports_centre" />
		<tag k="name" v="Gimlehallen" />
		<tag k="ssr:stedsnr" v="410659" />
	</node>
	<node lat="58.14903889046045" lon="7.992305560671691" id="-45034">
		<tag k="leisure" v="park" />
		<tag k="name" v="Stener Heyerdahls park" />
		<tag k="ssr:stedsnr" v="411000" />
	</node>
	<node lat="58.1501222259617" lon="7.970269441669003" id="-45037">
		<tag k="building" v="industrial" />
		<tag k="industrial" v="factory" />
		<tag k="name" v="Christiansands møller A/S" />
		<tag k="ssr:stedsnr" v="410978" />
	</node>
	<node lat="58.0500055543891" lon="7.675616666939626" id="-45043">
		<tag k="name" v="Hunskilen" />
		<tag k="place" v="farm" />
		<tag k="ssr:stedsnr" v="419517" />
	</node>
	<node lat="58.25169722547862" lon="8.053986107715282" id="-45064">
		<tag k="fixme" v="consider place=hamlet" />
		<tag k="name" v="Bjelle" />
		<tag k="place" v="farm" />
		<tag k="ssr:stedsnr" v="425036" />
	</node>
	<node lat="58.163230556443914" lon="8.00137500352702" id="-45066">
		<tag k="landuse" v="military" />
		<tag k="name" v="Gimlemoen" />
		<tag k="ssr:stedsnr" v="425040" />
	</node>
	<node lat="58.16219444106839" lon="7.753880555359682" id="-45067">
		<tag k="name" v="Holmen" />
		<tag k="place" v="farm" />
		<tag k="ssr:stedsnr" v="425045" />
	</node>
	<node lat="58.10337777334021" lon="7.758311106126743" id="-45069">
		<tag k="name" v="Vassbotn" />
		<tag k="place" v="farm" />
		<tag k="ssr:stedsnr" v="425129" />
	</node>
	<node lat="58.14710555428402" lon="8.142072214202797" id="-45070">
		<tag k="name" v="Bjørkestøl" />
		<tag k="place" v="farm" />
		<tag k="ssr:stedsnr" v="425569" />
	</node>
	<node lat="58.24602222255857" lon="8.00127222077924" id="-45071">
		<tag k="name" v="Dalane" />
		<tag k="place" v="farm" />
		<tag k="ssr:stedsnr" v="425072" />
	</node>
	<node lat="58.24680277632508" lon="8.05222778304184" id="-45072">
		<tag k="fixme" v="consider place=hamlet" />
		<tag k="name" v="Klepp" />
		<tag k="place" v="farm" />
		<tag k="ssr:stedsnr" v="425074" />
	</node>
	<node lat="58.22751258028664" lon="7.853646374707806" id="-45073">
		<tag k="alt_name" v="Jonsgård" />
		<tag k="name" v="Jonsgard" />
		<tag k="place" v="farm" />
		<tag k="ssr:stedsnr" v="425088" />
	</node>
	<node lat="58.08392560297803" lon="8.002540011798713" id="-45076">
		<tag k="name" v="Lindebø" />
		<tag k="place" v="farm" />
		<tag k="ssr:stedsnr" v="425170" />
	</node>
	<node lat="58.1567291495142" lon="7.974040872365395" id="-45078">
		<tag k="alt_name" v="Ramnedalen" />
		<tag k="leisure" v="park" />
		<tag k="name" v="Ravnedalen" />
		<tag k="ssr:stedsnr" v="425193" />
	</node>
	<node lat="58.235252300100726" lon="8.135633422017847" id="-45080">
		<tag k="name" v="Knarrestad" />
		<tag k="place" v="farm" />
		<tag k="ssr:stedsnr" v="425269" />
	</node>
	<node lat="58.13235277656878" lon="7.849308337472585" id="-45083">
		<tag k="name" v="Birkenesmoen" />
		<tag k="place" v="farm" />
		<tag k="ssr:stedsnr" v="425216" />
	</node>
	<node lat="58.11670690665588" lon="8.10988612002406" id="-45097">
		<tag k="fixme" v="consider place=hamlet" />
		<tag k="name" v="Vrånes" />
		<tag k="place" v="farm" />
		<tag k="ssr:stedsnr" v="425497" />
	</node>
	<node lat="58.319052774555495" lon="7.623197225152035" id="-45104">
		<tag k="fixme" v="consider place=hamlet" />
		<tag k="name" v="Espeland" />
		<tag k="place" v="farm" />
		<tag k="ssr:stedsnr" v="425787" />
	</node>
	<node lat="58.29359167071378" lon="7.560075004629155" id="-45106">
		<tag k="fixme" v="consider place=hamlet" />
		<tag k="name" v="Skogen" />
		<tag k="place" v="farm" />
		<tag k="ssr:stedsnr" v="425877" />
	</node>
	<node lat="58.283555551306215" lon="7.589630560726045" id="-45110">
		<tag k="fixme" v="consider place=hamlet" />
		<tag k="name" v="Esperås" />
		<tag k="place" v="farm" />
		<tag k="ssr:stedsnr" v="425841" />
	</node>
	<node lat="58.11454166871732" lon="7.837988881499714" id="-45159">
		<tag k="name" v="Tofteland lier" />
		<tag k="place" v="hamlet" />
		<tag k="ssr:stedsnr" v="506151" />
	</node>
	<node lat="58.11040278035227" lon="7.687333325134935" id="-45191">
		<tag k="name" v="Eikestøl" />
		<tag k="place" v="farm" />
		<tag k="ssr:stedsnr" v="513089" />
	</node>
	<node lat="58.193102777182105" lon="7.954702779848696" id="-45192">
		<tag k="name" v="Øygarden" />
		<tag k="place" v="locality" />
		<tag k="ssr:stedsnr" v="513090" />
	</node>
	<node lat="58.27395555329915" lon="8.070136117222544" id="-45202">
		<tag k="name" v="Tronstad" />
		<tag k="place" v="farm" />
		<tag k="ssr:stedsnr" v="513346" />
	</node>
	<node lat="58.09040000177976" lon="7.826647219407541" id="-45311">
		<tag k="name" v="Linneflaten industriområde" />
		<tag k="place" v="quarter" />
		<tag k="ssr:stedsnr" v="525453" />
	</node>
	<node lat="58.21681666434168" lon="8.117316671783772" id="-45363">
		<tag k="name" v="Bjørkevollen" />
		<tag k="place" v="hamlet" />
		<tag k="ssr:stedsnr" v="530058" />
	</node>
	<node lat="58.23118611367942" lon="7.926100005910296" id="-45370">
		<tag k="name" v="Dalane" />
		<tag k="place" v="farm" />
		<tag k="ssr:stedsnr" v="531651" />
	</node>
	<node lat="58.20792429897124" lon="8.111203443664143" id="-45376">
		<tag k="amenity" v="school" />
		<tag k="name" v="Ve skole" />
		<tag k="ssr:stedsnr" v="530563" />
	</node>
	<node lat="58.21061165722285" lon="8.098666731200105" id="-45381">
		<tag k="name" v="Haugene" />
		<tag k="place" v="farm" />
		<tag k="ssr:stedsnr" v="530980" />
	</node>
	<node lat="58.07805555838798" lon="7.984402784629202" id="-45404">
		<tag k="name" v="Døsset" />
		<tag k="place" v="hamlet" />
		<tag k="ssr:stedsnr" v="531489" />
	</node>
	<node lat="58.166338884849274" lon="8.009983340667798" id="-45406">
		<tag k="amenity" v="school" />
		<tag k="name" v="Presteheia skole" />
		<tag k="ssr:stedsnr" v="531881" />
	</node>
	<node lat="58.07624166600414" lon="7.770497219991828" id="-45418">
		<tag k="name" v="Ausvigheia" />
		<tag k="place" v="quarter" />
		<tag k="ssr:stedsnr" v="543362" />
	</node>
	<node lat="58.16364166887994" lon="8.100716671425074" id="-45432">
		<tag k="alt_name" v="Timenes, nedre" />
		<tag k="fixme" v="consider place=hamlet" />
		<tag k="name" v="Nedre Timenes" />
		<tag k="place" v="farm" />
		<tag k="ssr:stedsnr" v="546556" />
	</node>
	<node lat="58.09781389317328" lon="7.815291672507935" id="-45440">
		<tag k="name" v="Tangvall" />
		<tag k="place" v="village" />
		<tag k="ssr:stedsnr" v="546141" />
	</node>
	<node lat="58.094597219347776" lon="7.766116667805541" id="-45441">
		<tag k="fixme" v="consider place=hamlet" />
		<tag k="name" v="Kjelland" />
		<tag k="place" v="farm" />
		<tag k="ssr:stedsnr" v="546142" />
	</node>
	<node lat="58.13898611389229" lon="7.749511103415082" id="-45445">
		<tag k="fixme" v="consider place=hamlet" />
		<tag k="name" v="Ravneheia" />
		<tag k="place" v="farm" />
		<tag k="ssr:stedsnr" v="546205" />
	</node>
	<node lat="58.139547223346895" lon="8.0589861107972" id="-45446">
		<tag k="fixme" v="consider place=hamlet" />
		<tag k="name" v="Rosenlund" />
		<tag k="place" v="farm" />
		<tag k="ssr:stedsnr" v="546215" />
	</node>
	<node lat="58.13076944671814" lon="7.857891661264058" id="-45447">
		<tag k="fixme" v="consider place=hamlet" />
		<tag k="name" v="Rosseland" />
		<tag k="place" v="farm" />
		<tag k="ssr:stedsnr" v="546218" />
	</node>
	<node lat="58.248297221325515" lon="8.160363890923247" id="-45448">
		<tag k="name" v="Kiløyna" />
		<tag k="place" v="farm" />
		<tag k="ssr:stedsnr" v="546332" />
	</node>
	<node lat="58.07900833724716" lon="7.825544449367749" id="-45451">
		<tag k="fixme" v="consider place=hamlet" />
		<tag k="name" v="Åros" />
		<tag k="place" v="farm" />
		<tag k="ssr:stedsnr" v="546157" />
	</node>
	<node lat="58.07760833097888" lon="7.774583329564382" id="-45452">
		<tag k="fixme" v="consider place=hamlet" />
		<tag k="name" v="Ausviga" />
		<tag k="place" v="farm" />
		<tag k="ssr:stedsnr" v="546160" />
	</node>
	<node lat="58.2439333341542" lon="7.635066664628631" id="-45460">
		<tag k="name" v="Mesel" />
		<tag k="place" v="farm" />
		<tag k="ssr:stedsnr" v="546695" />
	</node>
	<node lat="58.27047499788433" lon="8.16964722937555" id="-45461">
		<tag k="name" v="Kroken" />
		<tag k="place" v="locality" />
		<tag k="ssr:stedsnr" v="546697" />
	</node>
	<node lat="58.04860277811227" lon="7.679650002491356" id="-45462">
		<tag k="name" v="Vaglemyra" />
		<tag k="place" v="farm" />
		<tag k="ssr:stedsnr" v="546996" />
	</node>
	<node lat="58.13052777848528" lon="7.705386105706413" id="-45464">
		<tag k="fixme" v="consider place=hamlet" />
		<tag k="name" v="Sjustøl" />
		<tag k="place" v="farm" />
		<tag k="ssr:stedsnr" v="546847" />
	</node>
	<node lat="58.16489166227618" lon="8.022641667772122" id="-45498">
		<tag k="fixme" v="consider place=hamlet" />
		<tag k="name" v="Bjørndalen" />
		<tag k="place" v="farm" />
		<tag k="ssr:stedsnr" v="570375" />
	</node>
	<node lat="58.18464999578071" lon="8.14688889342548" id="-45513">
		<tag k="name" v="Kristiansand dyrepark" />
		<tag k="old_name" v="Dyreparken" />
		<tag k="ssr:stedsnr" v="571313" />
		<tag k="tourism" v="theme_park" />
	</node>
	<node lat="58.07105278188361" lon="7.753174996536939" id="-45516">
		<tag k="name" v="Hallandvik" />
		<tag k="place" v="farm" />
		<tag k="ssr:stedsnr" v="573093" />
	</node>
	<node lat="58.092849999486646" lon="7.8176944376088695" id="-45684">
		<tag k="name" v="Linnegrøvan industriområde" />
		<tag k="place" v="quarter" />
		<tag k="ssr:stedsnr" v="586460" />
	</node>
	<node lat="58.09042777939244" lon="7.79892778159534" id="-45686">
		<tag k="name" v="Fåmyråsen" />
		<tag k="place" v="quarter" />
		<tag k="ssr:stedsnr" v="586419" />
	</node>
	<node lat="58.20227222290765" lon="7.930880558716659" id="-45739">
		<tag k="name" v="Øvre Stray" />
		<tag k="place" v="farm" />
		<tag k="ssr:stedsnr" v="591598" />
	</node>
	<node lat="58.169552775700005" lon="7.944127778656533" id="-45766">
		<tag k="building" v="industrial" />
		<tag k="industrial" v="factory" />
		<tag k="name" v="Kristiansand jernstøperi" />
		<tag k="ssr:stedsnr" v="592424" />
	</node>
	<node lat="58.182958331807406" lon="8.083819444199548" id="-45767">
		<tag k="amenity" v="school" />
		<tag k="name" v="Ansgarskolen" />
		<tag k="ssr:stedsnr" v="592426" />
	</node>
	<node lat="58.20410000010961" lon="8.02986944223037" id="-45768">
		<tag k="amenity" v="school" />
		<tag k="name" v="Justvik skole" />
		<tag k="ssr:stedsnr" v="592429" />
	</node>
	<node lat="58.23006732696322" lon="7.874826243718635" id="-45781">
		<tag k="name" v="Stølen" />
		<tag k="place" v="hamlet" />
		<tag k="ssr:stedsnr" v="592834" />
	</node>
	<node lat="58.082650003618475" lon="7.9203250074266816" id="-45784">
		<tag k="name" v="Lyngmyr" />
		<tag k="place" v="neighbourhood" />
		<tag k="ssr:stedsnr" v="600037" />
	</node>
	<node lat="58.182061107976054" lon="8.009344438142996" id="-45811">
		<tag k="alt_name" v="Gjel, nedre" />
		<tag k="name" v="Nedre Gill" />
		<tag k="place" v="farm" />
		<tag k="ssr:stedsnr" v="606031" />
	</node>
	<node lat="58.14122777955791" lon="8.163891659107387" id="-45815">
		<tag k="name" v="Myrane" />
		<tag k="place" v="farm" />
		<tag k="ssr:stedsnr" v="606527" />
	</node>
	<node lat="58.134183989245706" lon="8.174139989789236" id="-45816">
		<tag k="name" v="Neset" />
		<tag k="place" v="farm" />
		<tag k="ssr:stedsnr" v="606530" />
	</node>
	<node lat="58.12493055194693" lon="8.09714722992753" id="-45817">
		<tag k="name" v="Bordalen" />
		<tag k="place" v="farm" />
		<tag k="ssr:stedsnr" v="606545" />
	</node>
	<node lat="58.08575832975992" lon="7.955794448137335" id="-45819">
		<tag k="name" v="Vikane" />
		<tag k="place" v="isolated_dwelling" />
		<tag k="ssr:stedsnr" v="606149" />
	</node>
	<node lat="58.08403333725563" lon="7.943494442063439" id="-45820">
		<tag k="alt_name" v="Torvika;Torvik" />
		<tag k="name" v="Torviga" />
		<tag k="place" v="farm" />
		<tag k="ssr:stedsnr" v="606165" />
	</node>
	<node lat="58.074097222578935" lon="8.002791666666655" id="-45822">
		<tag k="alt_name" v="Mebø;Medbø" />
		<tag k="fixme" v="consider place=suburb, village or hamlet" />
		<tag k="name" v="Mæbø" />
		<tag k="place" v="quarter" />
		<tag k="ssr:stedsnr" v="606178" />
	</node>
	<node lat="58.234777393223034" lon="8.170035103587765" id="-45823">
		<tag k="name" v="Drangsholtstøa" />
		<tag k="old_name" v="Polioheim" />
		<tag k="place" v="isolated_dwelling" />
		<tag k="ssr:stedsnr" v="606253" />
	</node>
	<node lat="58.23260277812998" lon="8.126658325941792" id="-45824">
		<tag k="alt_name" v="Østre Vollane;Østre Vollene" />
		<tag k="name" v="Vollane" />
		<tag k="place" v="farm" />
		<tag k="ssr:stedsnr" v="606254" />
	</node>
	<node lat="58.23764167074788" lon="8.136227771598017" id="-45825">
		<tag k="alt_name" v="Lillebua;Lilleboen" />
		<tag k="name" v="Lille Bua" />
		<tag k="place" v="farm" />
		<tag k="ssr:stedsnr" v="606256" />
	</node>
	<node lat="58.240680557768385" lon="8.136763889247081" id="-45826">
		<tag k="alt_name" v="Boen gård" />
		<tag k="fixme" v="consider place=hamlet" />
		<tag k="loc_name" v="Boen" />
		<tag k="name" v="Bua" />
		<tag k="place" v="farm" />
		<tag k="ssr:stedsnr" v="606257" />
	</node>
	<node lat="58.161836111657486" lon="8.038902776651158" id="-45827">
		<tag k="fixme" v="consider place=hamlet" />
		<tag k="name" v="Vige" />
		<tag k="place" v="farm" />
		<tag k="ssr:stedsnr" v="606048" />
	</node>
	<node lat="58.23152499609773" lon="7.931127773821293" id="-45828">
		<tag k="alt_name" v="Myrvoll;Mørevoll" />
		<tag k="name" v="Mørevollen" />
		<tag k="place" v="farm" />
		<tag k="ssr:stedsnr" v="606104" />
	</node>
	<node lat="58.09581666819322" lon="7.74201667379793" id="-45829">
		<tag k="fixme" v="consider place=hamlet" />
		<tag k="name" v="Lone" />
		<tag k="place" v="farm" />
		<tag k="ssr:stedsnr" v="606139" />
	</node>
	<node lat="58.12770000423079" lon="8.076780549787225" id="-45832">
		<tag k="name" v="Dvergsnes" />
		<tag k="place" v="farm" />
		<tag k="ssr:stedsnr" v="606228" />
	</node>
	<node lat="58.13001389005722" lon="8.121413894410049" id="-45837">
		<tag k="alt_name" v="Frikstad, nedre" />
		<tag k="name" v="Nedre Frikstad" />
		<tag k="place" v="farm" />
		<tag k="ssr:stedsnr" v="606553" />
	</node>
	<node lat="58.15532221829266" lon="8.127641661626333" id="-45838">
		<tag k="alt_name" v="Løkkedrange;Lykkedrange" />
		<tag k="fixme" v="consider place=hamlet" />
		<tag k="name" v="Lykkedrang" />
		<tag k="place" v="farm" />
		<tag k="ssr:stedsnr" v="606566" />
	</node>
	<node lat="58.043797224555156" lon="7.65525277768737" id="-45840">
		<tag k="name" v="Eid" />
		<tag k="place" v="hamlet" />
		<tag k="ssr:stedsnr" v="606981" />
	</node>
	<node lat="58.05511666482027" lon="7.7018472276248415" id="-45841">
		<tag k="name" v="Lastad" />
		<tag k="place" v="hamlet" />
		<tag k="ssr:stedsnr" v="606994" />
	</node>
	<node lat="58.063249999723716" lon="7.736008340446101" id="-45847">
		<tag k="name" v="Heftenes" />
		<tag k="place" v="farm" />
		<tag k="ssr:stedsnr" v="627182" />
	</node>
	<node lat="58.06089722528828" lon="7.658816670109276" id="-45851">
		<tag k="name" v="Myra" />
		<tag k="place" v="farm" />
		<tag k="ssr:stedsnr" v="627119" />
	</node>
	<node lat="58.1217222263951" lon="7.596366672812636" id="-45862">
		<tag k="name" v="Gamle Teland" />
		<tag k="place" v="locality" />
		<tag k="ssr:stedsnr" v="627972" />
	</node>
	<node lat="58.08208333234092" lon="7.705536110826317" id="-45863">
		<tag k="name" v="Røyrkjerr" />
		<tag k="place" v="locality" />
		<tag k="ssr:stedsnr" v="627933" />
	</node>
	<node lat="58.10981389226292" lon="7.689686114154068" id="-45897">
		<tag k="name" v="Eikestøl" />
		<tag k="place" v="farm" />
		<tag k="ssr:stedsnr" v="634075" />
	</node>
	<node lat="58.145552773773474" lon="8.059161110239652" id="-45917">
		<tag k="amenity" v="school" />
		<tag k="name" v="Vardåsen skole" />
		<tag k="ssr:stedsnr" v="634416" />
	</node>
	<node lat="58.096297219391154" lon="7.751586105698379" id="-45939">
		<tag k="name" v="Ormelia" />
		<tag k="place" v="quarter" />
		<tag k="ssr:stedsnr" v="644437" />
	</node>
	<node lat="58.305208330188755" lon="7.607636103579958" id="-45947">
		<tag k="name" v="Stokkåsen" />
		<tag k="place" v="isolated_dwelling" />
		<tag k="ssr:stedsnr" v="644365" />
	</node>
	<node lat="58.1442972238817" lon="7.869550003996682" id="-45997">
		<tag k="name" v="Farvannet terrasse" />
		<tag k="place" v="quarter" />
		<tag k="ssr:stedsnr" v="645750" />
	</node>
	<node lat="58.15967930644052" lon="8.023716156154228" id="-46080">
		<tag k="amenity" v="nursing_home" />
		<tag k="name" v="Kongsgårdheimen" />
		<tag k="ssr:stedsnr" v="651701" />
	</node>
	<node lat="58.24600555269176" lon="8.144497230332258" id="-46085">
		<tag k="name" v="Hovet" />
		<tag k="place" v="hamlet" />
		<tag k="ssr:stedsnr" v="652065" />
	</node>
	<node lat="58.25182778135588" lon="8.145547214597066" id="-46086">
		<tag k="name" v="Einermoen" />
		<tag k="place" v="farm" />
		<tag k="ssr:stedsnr" v="652067" />
	</node>
	<node lat="58.17581388898904" lon="8.089472217794581" id="-46095">
		<tag k="amenity" v="school" />
		<tag k="name" v="Vigvoll skole" />
		<tag k="ssr:stedsnr" v="652360" />
	</node>
	<node lat="58.24426388594781" lon="8.139891674153564" id="-46096">
		<tag k="building" v="industrial" />
		<tag k="industrial" v="factory" />
		<tag k="name" v="Boen bruk" />
		<tag k="ssr:stedsnr" v="652366" />
	</node>
	<node lat="58.08468888451542" lon="7.943586116465112" id="-46099">
		<tag k="name" v="Torvik" />
		<tag k="place" v="hamlet" />
		<tag k="ssr:stedsnr" v="652380" />
	</node>
	<node lat="58.187513886839476" lon="8.124836115856448" id="-46106">
		<tag k="historic" v="shieling" />
		<tag k="name" v="Jons Øygard" />
		<tag k="place" v="isolated_dwelling" />
		<tag k="ssr:stedsnr" v="652819" />
	</node>
	<node lat="58.26183333418341" lon="8.158158329086806" id="-46114">
		<tag k="name" v="Foss" />
		<tag k="place" v="hamlet" />
		<tag k="ssr:stedsnr" v="652875" />
	</node>
	<node lat="58.10626666626569" lon="7.7505583329555625" id="-46148">
		<tag k="name" v="Grønnvoll" />
		<tag k="place" v="farm" />
		<tag k="ssr:stedsnr" v="666254" />
	</node>
	<node lat="58.161794443410535" lon="7.732241671893087" id="-46158">
		<tag k="name" v="Skuggedal" />
		<tag k="place" v="farm" />
		<tag k="ssr:stedsnr" v="667078" />
	</node>
	<node lat="58.06618055209282" lon="7.729597226673514" id="-46166">
		<tag k="fixme" v="consider place=hamlet" />
		<tag k="name" v="Vige" />
		<tag k="place" v="farm" />
		<tag k="ssr:stedsnr" v="667191" />
	</node>
	<node lat="58.07165000311857" lon="7.745588884888951" id="-46167">
		<tag k="fixme" v="consider place=hamlet" />
		<tag k="name" v="Hallandvik" />
		<tag k="place" v="farm" />
		<tag k="ssr:stedsnr" v="667192" />
	</node>
	<node lat="58.2357138861072" lon="7.714977771417033" id="-46174">
		<tag k="name" v="Grødal" />
		<tag k="place" v="farm" />
		<tag k="ssr:stedsnr" v="667674" />
	</node>
	<node lat="58.342102781947766" lon="7.5984194412451265" id="-46175">
		<tag k="fixme" v="consider place=hamlet" />
		<tag k="name" v="Røyrås" />
		<tag k="place" v="farm" />
		<tag k="ssr:stedsnr" v="667758" />
	</node>
	<node lat="58.29790833552392" lon="7.59021945055229" id="-46176">
		<tag k="alt_name" v="Frigstad" />
		<tag k="name" v="Frikstad" />
		<tag k="place" v="hamlet" />
		<tag k="ssr:stedsnr" v="667848" />
	</node>
	<node lat="58.1320805597482" lon="7.714008337676047" id="-46178">
		<tag k="fixme" v="consider place=hamlet" />
		<tag k="name" v="Lia" />
		<tag k="place" v="farm" />
		<tag k="ssr:stedsnr" v="667830" />
	</node>
	<node lat="58.065166667823696" lon="7.6574444439126905" id="-46182">
		<tag k="fixme" v="consider place=hamlet" />
		<tag k="name" v="Tråne" />
		<tag k="place" v="farm" />
		<tag k="ssr:stedsnr" v="667872" />
	</node>
	<node lat="58.120357893405604" lon="8.091964587526451" id="-46185">
		<tag k="name" v="Tømmerstø" />
		<tag k="place" v="farm" />
		<tag k="ssr:stedsnr" v="712497" />
	</node>
	<node lat="58.10188889047882" lon="8.115141663830379" id="-46191">
		<tag k="name" v="Øyna" />
		<tag k="place" v="farm" />
		<tag k="ssr:stedsnr" v="713063" />
	</node>
	<node lat="58.23663055800834" lon="8.13102221988582" id="-46193">
		<tag k="name" v="Voll" />
		<tag k="place" v="farm" />
		<tag k="ssr:stedsnr" v="713069" />
	</node>
	<node lat="58.12605985935327" lon="7.954811493748674" id="-46194">
		<tag k="amenity" v="school" />
		<tag k="name" v="Fiskå skole" />
		<tag k="ssr:stedsnr" v="713109" />
	</node>
	<node lat="58.102233332274224" lon="8.11589166413353" id="-46206">
		<tag k="name" v="Larsbakke" />
		<tag k="place" v="farm" />
		<tag k="ssr:stedsnr" v="713379" />
	</node>
	<node lat="58.12551110949246" lon="7.955349992941362" id="-46207">
		<tag k="amenity" v="school" />
		<tag k="name" v="Vågsbygd videregående skole" />
		<tag k="ssr:stedsnr" v="713382" />
	</node>
	<node lat="58.12686627383321" lon="8.113171487851545" id="-46209">
		<tag k="amenity" v="school" />
		<tag k="name" v="Kringsjå skole" />
		<tag k="ssr:stedsnr" v="713391" />
	</node>
	<node lat="58.19690555830059" lon="8.031066659118068" id="-46215">
		<tag k="fixme" v="consider place=suburb, village or hamlet" />
		<tag k="name" v="Justvik" />
		<tag k="place" v="quarter" />
		<tag k="ssr:stedsnr" v="713701" />
	</node>
	<node lat="58.155466663698704" lon="8.093075004025698" id="-46230">
		<tag k="name" v="Torp" />
		<tag k="place" v="farm" />
		<tag k="ssr:stedsnr" v="713971" />
	</node>
	<node lat="58.14945277424604" lon="8.124577781117797" id="-46231">
		<tag k="name" v="Solgård" />
		<tag k="place" v="farm" />
		<tag k="ssr:stedsnr" v="713973" />
	</node>
	<node lat="58.068433334531875" lon="7.837030557391451" id="-46239">
		<tag k="name" v="Krossneset" />
		<tag k="place" v="neighbourhood" />
		<tag k="ssr:stedsnr" v="722056" />
	</node>
	<node lat="58.0906777740263" lon="7.787216668220814" id="-46241">
		<tag k="alt_name" v="Eig" />
		<tag k="fixme" v="consider place=hamlet" />
		<tag k="name" v="Eik" />
		<tag k="place" v="farm" />
		<tag k="ssr:stedsnr" v="724521" />
	</node>
	<node lat="58.21732778131594" lon="7.923269448709447" id="-46244">
		<tag k="fixme" v="consider place=suburb, village or hamlet" />
		<tag k="name" v="Mosby" />
		<tag k="place" v="quarter" />
		<tag k="ssr:stedsnr" v="725278" />
	</node>
	<node lat="58.27145555864429" lon="8.0476583347086" id="-46264">
		<tag k="name" v="Skåra" />
		<tag k="place" v="farm" />
		<tag k="ssr:stedsnr" v="728042" />
	</node>
	<node lat="58.17594721943045" lon="8.08360833120945" id="-46266">
		<tag k="name" v="Vigvoll" />
		<tag k="place" v="farm" />
		<tag k="ssr:stedsnr" v="728049" />
	</node>
	<node lat="58.07427378627719" lon="7.977289941472464" id="-46271">
		<tag k="fixme" v="consider place=hamlet" />
		<tag k="name" v="Berge" />
		<tag k="place" v="farm" />
		<tag k="ssr:stedsnr" v="728155" />
	</node>
	<node lat="58.212858336098876" lon="8.03850277915783" id="-46274">
		<tag k="fixme" v="consider place=hamlet" />
		<tag k="name" v="Føreid" />
		<tag k="place" v="farm" />
		<tag k="ssr:stedsnr" v="728086" />
	</node>
	<node lat="58.22211944049382" lon="8.041252786372079" id="-46275">
		<tag k="alt_name" v="Kvevik;Kvevika" />
		<tag k="name" v="Kvivika" />
		<tag k="place" v="farm" />
		<tag k="ssr:stedsnr" v="728088" />
	</node>
	<node lat="58.20790833620967" lon="7.776974994230258" id="-46276">
		<tag k="name" v="Loftsmoen" />
		<tag k="place" v="farm" />
		<tag k="ssr:stedsnr" v="728097" />
	</node>
	<node lat="58.216224999459804" lon="7.759902770419549" id="-46278">
		<tag k="fixme" v="consider place=hamlet" />
		<tag k="name" v="Underåsen" />
		<tag k="place" v="farm" />
		<tag k="ssr:stedsnr" v="728102" />
	</node>
	<node lat="58.13286389263989" lon="7.9695472277130195" id="-46282">
		<tag k="alt_name" v="Myra" />
		<tag k="name" v="Myren" />
		<tag k="place" v="farm" />
		<tag k="ssr:stedsnr" v="728190" />
	</node>
	<node lat="58.12160833716701" lon="7.953947224301793" id="-46283">
		<tag k="name" v="Augland" />
		<tag k="place" v="village" />
		<tag k="ssr:stedsnr" v="728202" />
	</node>
	<node lat="58.095469440402056" lon="7.703791665137961" id="-46285">
		<tag k="name" v="Lindelia" />
		<tag k="old_name" v="Lindlia" />
		<tag k="place" v="farm" />
		<tag k="ssr:stedsnr" v="728799" />
	</node>
	<node lat="58.23089722346037" lon="8.114849994763782" id="-46287">
		<tag k="name" v="Lundtveit" />
		<tag k="place" v="farm" />
		<tag k="ssr:stedsnr" v="728265" />
	</node>
	<node lat="58.213425002193574" lon="8.116930556138303" id="-46289">
		<tag k="alt_name" v="Vesholt" />
		<tag k="name" v="Vesholta" />
		<tag k="place" v="farm" />
		<tag k="ssr:stedsnr" v="728430" />
	</node>
	<node lat="58.21779721867604" lon="8.116077782991367" id="-46290">
		<tag k="name" v="Dønnestad" />
		<tag k="place" v="farm" />
		<tag k="ssr:stedsnr" v="728431" />
	</node>
	<node lat="58.21874721825719" lon="8.181247217079397" id="-46291">
		<tag k="alt_name" v="Hauglands hytte" />
		<tag k="name" v="Hytta" />
		<tag k="place" v="farm" />
		<tag k="ssr:stedsnr" v="728434" />
	</node>
	<node lat="58.318561108964936" lon="7.592777772598342" id="-46295">
		<tag k="alt_name" v="Finnsland" />
		<tag k="name" v="Finsland" />
		<tag k="place" v="hamlet" />
		<tag k="ssr:stedsnr" v="728745" />
	</node>
	<node lat="58.27759166502214" lon="7.688480554987278" id="-46297">
		<tag k="fixme" v="consider place=hamlet" />
		<tag k="name" v="Spikkeland" />
		<tag k="place" v="farm" />
		<tag k="ssr:stedsnr" v="728827" />
	</node>
	<node lat="58.12024722401528" lon="7.644422224567328" id="-46298">
		<tag k="alt_name" v="Solbjørg;Solbjør" />
		<tag k="fixme" v="consider place=hamlet" />
		<tag k="name" v="Solberg" />
		<tag k="place" v="farm" />
		<tag k="ssr:stedsnr" v="728855" />
	</node>
	<node lat="58.083566662489645" lon="7.801750001683183" id="-46322">
		<tag k="alt_name" v="Sangvik" />
		<tag k="fixme" v="consider place=hamlet" />
		<tag k="name" v="Sangvig" />
		<tag k="place" v="farm" />
		<tag k="ssr:stedsnr" v="750166" />
	</node>
	<node lat="58.109419448114984" lon="7.689913886071514" id="-46343">
		<tag k="name" v="Eikestølveien" />
		<tag k="place" v="farm" />
		<tag k="ssr:stedsnr" v="756067" />
	</node>
	<node lat="58.07165000311857" lon="7.745588884888951" id="-46346">
		<tag k="name" v="Hallandvik" />
		<tag k="place" v="farm" />
		<tag k="ssr:stedsnr" v="756086" />
	</node>
	<node lat="58.07312499755249" lon="7.7532555594001655" id="-46348">
		<tag k="name" v="Hallandvik" />
		<tag k="place" v="farm" />
		<tag k="ssr:stedsnr" v="756092" />
	</node>
	<node lat="58.07046388829693" lon="7.743355553233467" id="-46349">
		<tag k="name" v="Hallandvik" />
		<tag k="place" v="farm" />
		<tag k="ssr:stedsnr" v="756094" />
	</node>
	<node lat="58.1523749956259" lon="8.058950000469716" id="-46372">
		<tag k="fixme" v="consider place=suburb, village or hamlet" />
		<tag k="name" v="Søm" />
		<tag k="place" v="quarter" />
		<tag k="ssr:stedsnr" v="759788" />
	</node>
	<node lat="58.22537221912761" lon="7.736433340794485" id="-46415">
		<tag k="name" v="Øygarden" />
		<tag k="place" v="farm" />
		<tag k="ssr:stedsnr" v="766830" />
	</node>
	<node lat="58.16312778069936" lon="7.821811110692846" id="-46432">
		<tag k="name" v="Leirdalen" />
		<tag k="place" v="farm" />
		<tag k="ssr:stedsnr" v="766771" />
	</node>
	<node lat="58.14293055499058" lon="7.8515722259951275" id="-46435">
		<tag k="name" v="Haggrinda" />
		<tag k="place" v="farm" />
		<tag k="ssr:stedsnr" v="766786" />
	</node>
	<node lat="58.145799996191215" lon="8.059141660456536" id="-46499">
		<tag k="name" v="Himmelknuten" />
		<tag k="place" v="farm" />
		<tag k="ssr:stedsnr" v="769025" />
	</node>
	<node lat="58.148291670412426" lon="8.022549999414545" id="-46501">
		<tag k="name" v="Valhalla" />
		<tag k="place" v="suburb" />
		<tag k="ssr:stedsnr" v="769036" />
	</node>
	<node lat="58.15114444551918" lon="7.9988638922127535" id="-46564">
		<tag k="amenity" v="nursing_home" />
		<tag k="name" v="Sykehjemmet" />
		<tag k="ssr:stedsnr" v="773677" />
	</node>
	<node lat="58.151613885415735" lon="8.079977781789843" id="-46566">
		<tag k="amenity" v="kindergarten" />
		<tag k="name" v="Veslefrikk barnehage" />
		<tag k="ssr:stedsnr" v="773848" />
	</node>
	<node lat="58.21472778020051" lon="8.100033327866434" id="-46569">
		<tag k="name" v="Stabbeteig" />
		<tag k="place" v="farm" />
		<tag k="ssr:stedsnr" v="773971" />
	</node>
	<node lat="58.14261389101196" lon="8.054424997901036" id="-46571">
		<tag k="name" v="Veslegard" />
		<tag k="place" v="farm" />
		<tag k="ssr:stedsnr" v="774000" />
	</node>
	<node lat="58.14828333415632" lon="7.970422219878077" id="-46595">
		<tag k="amenity" v="school" />
		<tag k="name" v="Grim skole" />
		<tag k="ssr:stedsnr" v="774431" />
	</node>
	<node lat="58.14994166256168" lon="8.023827781717902" id="-46602">
		<tag k="amenity" v="school" />
		<tag k="name" v="Wilds minne skole" />
		<tag k="ssr:stedsnr" v="774979" />
	</node>
	<node lat="58.29230833318771" lon="7.667941673491942" id="-46632">
		<tag k="name" v="Bergstøl" />
		<tag k="place" v="farm" />
		<tag k="ssr:stedsnr" v="788854" />
	</node>
	<node lat="58.13497222086279" lon="8.164186107067286" id="-46634">
		<tag k="fixme" v="consider place=hamlet" />
		<tag k="name" v="Eftevåg" />
		<tag k="place" v="farm" />
		<tag k="ssr:stedsnr" v="788528" />
	</node>
	<node lat="58.11570555321469" lon="7.7364555623137345" id="-46637">
		<tag k="fixme" v="consider place=hamlet" />
		<tag k="name" v="Heia" />
		<tag k="place" v="farm" />
		<tag k="ssr:stedsnr" v="789241" />
	</node>
	<node lat="58.14422604877129" lon="8.115548833997337" id="-46649">
		<tag k="fixme" v="consider place=hamlet" />
		<tag k="name" v="Bjørnestad" />
		<tag k="place" v="farm" />
		<tag k="ssr:stedsnr" v="789583" />
	</node>
	<node lat="58.34737499915083" lon="7.584455553850977" id="-46653">
		<tag k="fixme" v="consider place=hamlet" />
		<tag k="name" v="Helland" />
		<tag k="place" v="farm" />
		<tag k="ssr:stedsnr" v="789788" />
	</node>
	<node lat="58.07399167053239" lon="7.685291660739531" id="-46654">
		<tag k="fixme" v="consider place=hamlet" />
		<tag k="name" v="Røsstad" />
		<tag k="place" v="farm" />
		<tag k="ssr:stedsnr" v="789902" />
	</node>
	<node lat="58.09474999951498" lon="7.8939333255628465" id="-46657">
		<tag k="name" v="Skogen" />
		<tag k="place" v="locality" />
		<tag k="ssr:stedsnr" v="810328" />
	</node>
	<node lat="58.14414999974238" lon="7.977733327950513" id="-46701">
		<tag k="name" v="Bellevue" />
		<tag k="place" v="quarter" />
		<tag k="ssr:stedsnr" v="814421" />
	</node>
	<node lat="58.13296388921468" lon="7.960672218917634" id="-46931">
		<tag k="amenity" v="school" />
		<tag k="name" v="Slettheia skole" />
		<tag k="ssr:stedsnr" v="835119" />
	</node>
	<node lat="58.14870555510109" lon="7.955797228149734" id="-46939">
		<tag k="amenity" v="school" />
		<tag k="name" v="Karl Johans minne skole" />
		<tag k="ssr:stedsnr" v="835416" />
	</node>
	<node lat="58.150469442992154" lon="8.077994438406588" id="-46954">
		<tag k="name" v="Ytre Strømme" />
		<tag k="place" v="farm" />
		<tag k="ssr:stedsnr" v="835696" />
	</node>
	<node lat="58.15906944482509" lon="8.008863889455027" id="-46955">
		<tag k="amenity" v="school" />
		<tag k="name" v="Kristiansand katedralskole Gimle" />
		<tag k="old_name" v="Kristiansand katedralskole" />
		<tag k="ssr:stedsnr" v="835703" />
	</node>
	<node lat="58.22153611056632" lon="8.121330548417342" id="-46968">
		<tag k="alt_name" v="Børresmonen" />
		<tag k="name" v="Børresmoen" />
		<tag k="place" v="farm" />
		<tag k="ssr:stedsnr" v="850469" />
	</node>
	<node lat="58.254227777446545" lon="7.660763882031646" id="-46971">
		<tag k="fixme" v="consider place=hamlet" />
		<tag k="name" v="Røysland" />
		<tag k="place" v="farm" />
		<tag k="ssr:stedsnr" v="849232" />
	</node>
	<node lat="58.25490278025082" lon="7.673741672085" id="-46972">
		<tag k="name" v="Nergard" />
		<tag k="place" v="farm" />
		<tag k="ssr:stedsnr" v="849236" />
	</node>
	<node lat="58.18945000081265" lon="7.804447215162708" id="-46973">
		<tag k="fixme" v="consider place=hamlet" />
		<tag k="name" v="Augland" />
		<tag k="place" v="farm" />
		<tag k="ssr:stedsnr" v="850023" />
	</node>
	<node lat="58.217624998932074" lon="7.954533336777724" id="-46975">
		<tag k="alt_name" v="Skou-Skou;Skov-Skov" />
		<tag k="name" v="Skau-Skau" />
		<tag k="place" v="farm" />
		<tag k="ssr:stedsnr" v="850118" />
	</node>
	<node lat="58.225466666001374" lon="8.02185556039689" id="-46977">
		<tag k="name" v="Kostøl" />
		<tag k="place" v="farm" />
		<tag k="ssr:stedsnr" v="850126" />
	</node>
	<node lat="58.309216664328886" lon="7.660427772850602" id="-46978">
		<tag k="alt_name" v="Eptestad" />
		<tag k="fixme" v="consider place=hamlet" />
		<tag k="name" v="Eftestad" />
		<tag k="place" v="farm" />
		<tag k="ssr:stedsnr" v="849860" />
	</node>
	<node lat="58.269355551869296" lon="8.041702773333572" id="-46979">
		<tag k="alt_name" v="Ramnevatn" />
		<tag k="fixme" v="consider place=hamlet" />
		<tag k="name" v="Ravnevann" />
		<tag k="place" v="farm" />
		<tag k="ssr:stedsnr" v="850042" />
	</node>
	<node lat="58.26085000383035" lon="8.070836110425873" id="-46980">
		<tag k="name" v="Rosseland" />
		<tag k="place" v="farm" />
		<tag k="ssr:stedsnr" v="850052" />
	</node>
	<node lat="58.10349166539266" lon="7.745055556883612" id="-46981">
		<tag k="name" v="Tag" />
		<tag k="place" v="farm" />
		<tag k="ssr:stedsnr" v="850135" />
	</node>
	<node lat="58.11864999822766" lon="7.75206111134323" id="-46982">
		<tag k="fixme" v="consider place=hamlet" />
		<tag k="name" v="Repstad" />
		<tag k="place" v="farm" />
		<tag k="ssr:stedsnr" v="850241" />
	</node>
	<node lat="58.14617778059653" lon="8.06356111039406" id="-46988">
		<tag k="alt_name" v="Myrene" />
		<tag k="name" v="Myra" />
		<tag k="place" v="farm" />
		<tag k="ssr:stedsnr" v="850213" />
	</node>
	<node lat="58.11757499612343" lon="8.138691668722101" id="-46993">
		<tag k="name" v="Skaffan" />
		<tag k="place" v="farm" />
		<tag k="ssr:stedsnr" v="850519" />
	</node>
	<node lat="58.24227499840805" lon="8.14286666955027" id="-46997">
		<tag k="name" v="Arvehuset" />
		<tag k="place" v="farm" />
		<tag k="ssr:stedsnr" v="850375" />
	</node>
	<node lat="58.15131388979245" lon="8.13617777218885" id="-46998">
		<tag k="fixme" v="consider place=hamlet" />
		<tag k="name" v="Drange" />
		<tag k="place" v="farm" />
		<tag k="ssr:stedsnr" v="850565" />
	</node>
	<node lat="58.153486109093016" lon="8.138169436370575" id="-46999">
		<tag k="alt_name" v="Skarpevoll" />
		<tag k="name" v="Skarpaln" />
		<tag k="place" v="farm" />
		<tag k="ssr:stedsnr" v="850570" />
	</node>
	<node lat="58.13933888886636" lon="7.634483335904916" id="-47000">
		<tag k="fixme" v="consider place=hamlet" />
		<tag k="name" v="Ramsland" />
		<tag k="place" v="farm" />
		<tag k="ssr:stedsnr" v="850740" />
	</node>
	<node lat="58.05577500010478" lon="7.710905553474855" id="-47002">
		<tag k="alt_name" v="Selskjer;Ytre Trysnes" />
		<tag k="name" v="Selskjær" />
		<tag k="place" v="hamlet" />
		<tag k="ssr:stedsnr" v="850880" />
	</node>
	<node lat="58.07921944330846" lon="7.812463891203022" id="-47008">
		<tag k="name" v="Hølleheia" />
		<tag k="place" v="quarter" />
		<tag k="ssr:stedsnr" v="871190" />
	</node>
	<node lat="58.0775527779363" lon="7.832494446816784" id="-47009">
		<tag k="name" v="Årosskogen" />
		<tag k="place" v="quarter" />
		<tag k="ssr:stedsnr" v="871191" />
	</node>
	<node lat="58.12200833481034" lon="7.849324999531094" id="-47041">
		<tag k="name" v="Volleberg" />
		<tag k="place" v="quarter" />
		<tag k="ssr:stedsnr" v="874047" />
	</node>
	<node lat="58.27570277628802" lon="7.64305555785652" id="-47110">
		<tag k="name" v="Brotan" />
		<tag k="place" v="farm" />
		<tag k="ssr:stedsnr" v="888362" />
	</node>
	<node lat="58.072269440049844" lon="7.745425000560308" id="-47187">
		<tag k="name" v="Hallandvik" />
		<tag k="place" v="farm" />
		<tag k="ssr:stedsnr" v="938098" />
	</node>
	<node lat="58.14839999706676" lon="7.831533336463927" id="-47206">
		<tag k="name" v="Rismyr" />
		<tag k="place" v="quarter" />
		<tag k="ssr:stedsnr" v="938460" />
	</node>
	<node lat="58.13849605720605" lon="8.077929561754539" id="-47217">
		<tag k="name" v="Odderhei" />
		<tag k="place" v="quarter" />
		<tag k="ssr:stedsnr" v="942787" />
	</node>
	<node lat="58.105775002969615" lon="7.955736113774029" id="-47218">
		<tag k="name" v="Voiebyen" />
		<tag k="place" v="quarter" />
		<tag k="ssr:stedsnr" v="942793" />
	</node>
	<node lat="58.20683888812142" lon="7.803802777591613" id="-47246">
		<tag k="name" v="Dyplan" />
		<tag k="place" v="locality" />
		<tag k="ssr:stedsnr" v="948700" />
	</node>
	<node lat="58.07946666222762" lon="7.859308334019049" id="-47330">
		<tag k="name" v="Øygardsheia" />
		<tag k="place" v="quarter" />
		<tag k="ssr:stedsnr" v="950448" />
	</node>
	<node lat="58.21445833477447" lon="7.919369441578011" id="-47386">
		<tag k="name" v="Kleivane" />
		<tag k="place" v="farm" />
		<tag k="ssr:stedsnr" v="956676" />
	</node>
	<node lat="58.07892499706068" lon="7.995444445995973" id="-47387">
		<tag k="amenity" v="school" />
		<tag k="name" v="Flekkerøy skole" />
		<tag k="ssr:stedsnr" v="956677" />
	</node>
	<node lat="58.1539944403744" lon="8.092863881874948" id="-47391">
		<tag k="name" v="Torp" />
		<tag k="place" v="farm" />
		<tag k="ssr:stedsnr" v="955682" />
	</node>
	<node lat="58.17706944278005" lon="8.142402774724816" id="-47393">
		<tag k="name" v="Stemmene" />
		<tag k="place" v="farm" />
		<tag k="ssr:stedsnr" v="955893" />
	</node>
	<node lat="58.16657222060261" lon="8.089461119271649" id="-47397">
		<tag k="name" v="Øvre Strømme" />
		<tag k="place" v="hamlet" />
		<tag k="ssr:stedsnr" v="955963" />
	</node>
	<node lat="58.13413333446024" lon="8.076111109559122" id="-47421">
		<tag k="alt_name" v="Dvergsnes skole" />
		<tag k="amenity" v="school" />
		<tag k="name" v="Odderhei skole" />
		<tag k="ssr:stedsnr" v="956434" />
	</node>
	<node lat="58.15023888924933" lon="7.992227779194918" id="-47431">
		<tag k="amenity" v="school" />
		<tag k="name" v="Tordenskjolds gate skole" />
		<tag k="ssr:stedsnr" v="956921" />
	</node>
	<node lat="58.13606944359525" lon="7.965852776524728" id="-47440">
		<tag k="building" v="industrial" />
		<tag k="industrial" v="factory" />
		<tag k="name" v="Hennig Olsen" />
		<tag k="ssr:stedsnr" v="956961" />
	</node>
	<node lat="58.08676388481396" lon="7.922608335638111" id="-47443">
		<tag k="name" v="Tjuviga" />
		<tag k="place" v="neighbourhood" />
		<tag k="ssr:stedsnr" v="965053" />
	</node>
	<node lat="58.081412656366005" lon="8.016837629467105" id="-47466">
		<tag k="name" v="Skålevik" />
		<tag k="place" v="locality" />
		<tag k="ssr:stedsnr" v="972469" />
	</node>
	<node lat="58.08518735308895" lon="7.995400397588956" id="-47467">
		<tag k="name" v="Lindebø" />
		<tag k="place" v="locality" />
		<tag k="ssr:stedsnr" v="972471" />
	</node>
	<node lat="58.101321862532" lon="7.971938711311864" id="-47468">
		<tag k="fixme" v="consider place=hamlet" />
		<tag k="name" v="Møvik" />
		<tag k="place" v="farm" />
		<tag k="ssr:stedsnr" v="972475" />
	</node>
	<node lat="58.11151282218986" lon="7.9798797176357725" id="-47469">
		<tag k="fixme" v="consider place=hamlet" />
		<tag k="name" v="Andøya" />
		<tag k="place" v="farm" />
		<tag k="ssr:stedsnr" v="972478" />
	</node>
	<node lat="58.11973219107362" lon="7.9928321137519305" id="-47470">
		<tag k="fixme" v="consider place=hamlet" />
		<tag k="name" v="Bragdøya" />
		<tag k="place" v="farm" />
		<tag k="ssr:stedsnr" v="972481" />
	</node>
	<node lat="58.205470291205536" lon="7.921501982321614" id="-47473">
		<tag k="fixme" v="consider place=hamlet" />
		<tag k="name" v="Øvre Augland" />
		<tag k="place" v="farm" />
		<tag k="ssr:stedsnr" v="977595" />
	</node>
	<node lat="58.16973409214361" lon="7.983022970560193" id="-47474">
		<tag k="fixme" v="consider place=hamlet" />
		<tag k="name" v="Sødal" />
		<tag k="place" v="farm" />
		<tag k="ssr:stedsnr" v="977596" />
	</node>
	<node lat="58.18331261416269" lon="8.009630168255539" id="-47475">
		<tag k="fixme" v="consider place=hamlet" />
		<tag k="name" v="Gil" />
		<tag k="place" v="farm" />
		<tag k="ssr:stedsnr" v="977597" />
	</node>
	<node lat="58.15765285632615" lon="8.000184936627278" id="-47476">
		<tag k="fixme" v="consider place=hamlet" />
		<tag k="name" v="Prestegårdsløkkene" />
		<tag k="place" v="farm" />
		<tag k="ssr:stedsnr" v="977601" />
	</node>
	<node lat="58.159596244103696" lon="7.997601330424948" id="-47477">
		<tag k="fixme" v="consider place=hamlet" />
		<tag k="name" v="Gimle" />
		<tag k="place" v="farm" />
		<tag k="ssr:stedsnr" v="977605" />
	</node>
	<node lat="58.2032073649834" lon="8.09738188835766" id="-47478">
		<tag k="fixme" v="consider place=hamlet" />
		<tag k="name" v="Ve" />
		<tag k="place" v="farm" />
		<tag k="ssr:stedsnr" v="977754" />
	</node>
	<node lat="58.20483204476899" lon="8.181939705370164" id="-47479">
		<tag k="name" v="Stuteid" />
		<tag k="place" v="locality" />
		<tag k="ssr:stedsnr" v="977757" />
	</node>
	<node lat="58.19561932296222" lon="8.167062595078962" id="-47480">
		<tag k="fixme" v="consider place=hamlet" />
		<tag k="name" v="Vråls-Ødegården" />
		<tag k="place" v="farm" />
		<tag k="ssr:stedsnr" v="977759" />
	</node>
	<node lat="58.20466463622345" lon="8.07022303897017" id="-47481">
		<tag k="fixme" v="consider place=hamlet" />
		<tag k="name" v="Kjevik" />
		<tag k="place" v="farm" />
		<tag k="ssr:stedsnr" v="977767" />
	</node>
	<node lat="58.23580872447572" lon="8.034543918146138" id="-47482">
		<tag k="fixme" v="consider place=hamlet" />
		<tag k="name" v="Ålefjær" />
		<tag k="place" v="farm" />
		<tag k="ssr:stedsnr" v="977769" />
	</node>
	<node lat="58.13989673070832" lon="7.855993579278657" id="-47483">
		<tag k="fixme" v="consider place=hamlet" />
		<tag k="name" v="Brennåsen" />
		<tag k="place" v="farm" />
		<tag k="ssr:stedsnr" v="978553" />
	</node>
	<node lat="58.154306182884284" lon="7.825213023889809" id="-47484">
		<tag k="fixme" v="consider place=hamlet" />
		<tag k="name" v="Greipstad" />
		<tag k="place" v="farm" />
		<tag k="ssr:stedsnr" v="978554" />
	</node>
	<node lat="58.09468622565143" lon="7.779417277547686" id="-47485">
		<tag k="fixme" v="consider place=hamlet" />
		<tag k="name" v="Leire" />
		<tag k="place" v="farm" />
		<tag k="ssr:stedsnr" v="978768" />
	</node>
	<node lat="58.059071637217954" lon="7.709471516003419" id="-47486">
		<tag k="fixme" v="consider place=hamlet" />
		<tag k="name" v="Trysnes" />
		<tag k="place" v="farm" />
		<tag k="ssr:stedsnr" v="978773" />
	</node>
	<node lat="58.049170281226495" lon="7.694695041271526" id="-47487">
		<tag k="fixme" v="consider place=hamlet" />
		<tag k="name" v="Ålo" />
		<tag k="place" v="farm" />
		<tag k="ssr:stedsnr" v="978774" />
	</node>
	<node lat="58.03394946227399" lon="7.673651469741483" id="-47488">
		<tag k="fixme" v="consider place=hamlet" />
		<tag k="name" v="Salthaug" />
		<tag k="place" v="farm" />
		<tag k="ssr:stedsnr" v="978775" />
	</node>
	<node lat="58.04019919829749" lon="7.6744093775836495" id="-47489">
		<tag k="fixme" v="consider place=hamlet" />
		<tag k="name" v="Vikebu" />
		<tag k="place" v="farm" />
		<tag k="ssr:stedsnr" v="978777" />
	</node>
	<node lat="58.044526178940906" lon="7.653396844980067" id="-47490">
		<tag k="fixme" v="consider place=hamlet" />
		<tag k="name" v="Østre Eid" />
		<tag k="place" v="farm" />
		<tag k="ssr:stedsnr" v="978778" />
	</node>
	<node lat="58.163838488878056" lon="7.8297839757872225" id="-47491">
		<tag k="fixme" v="consider place=hamlet" />
		<tag k="name" v="Skinnarsmoen" />
		<tag k="place" v="farm" />
		<tag k="ssr:stedsnr" v="978694" />
	</node>
	<node lat="58.17427722051778" lon="7.8330132639971275" id="-47492">
		<tag k="fixme" v="consider place=hamlet" />
		<tag k="name" v="Hortemo" />
		<tag k="place" v="farm" />
		<tag k="ssr:stedsnr" v="978695" />
	</node>
	<node lat="58.1676771677414" lon="7.858701360181379" id="-47493">
		<tag k="fixme" v="consider place=hamlet" />
		<tag k="name" v="Tunballen" />
		<tag k="place" v="farm" />
		<tag k="ssr:stedsnr" v="978696" />
	</node>
	<node lat="58.154047568826" lon="7.872599532991853" id="-47494">
		<tag k="fixme" v="consider place=hamlet" />
		<tag k="name" v="Nådelands Ødegården" />
		<tag k="place" v="farm" />
		<tag k="ssr:stedsnr" v="978697" />
	</node>
	<node lat="58.14095587179623" lon="7.88574983460458" id="-47495">
		<tag k="name" v="Bukskinsdalen" />
		<tag k="place" v="locality" />
		<tag k="ssr:stedsnr" v="978698" />
	</node>
	<node lat="58.060152622546894" lon="7.767849988806239" id="-47496">
		<tag k="fixme" v="consider place=hamlet" />
		<tag k="name" v="Okse" />
		<tag k="place" v="farm" />
		<tag k="ssr:stedsnr" v="978725" />
	</node>
	<node lat="58.06153164359778" lon="7.778238582006619" id="-47497">
		<tag k="fixme" v="consider place=hamlet" />
		<tag k="name" v="Risøya" />
		<tag k="place" v="farm" />
		<tag k="ssr:stedsnr" v="978726" />
	</node>
	<node lat="58.10514165763136" lon="7.660643842250845" id="-47498">
		<tag k="fixme" v="consider place=hamlet" />
		<tag k="name" v="Try" />
		<tag k="place" v="farm" />
		<tag k="ssr:stedsnr" v="978831" />
	</node>
	<node lat="58.09653572803118" lon="7.676216801323455" id="-47499">
		<tag k="fixme" v="consider place=hamlet" />
		<tag k="name" v="Holmen" />
		<tag k="place" v="farm" />
		<tag k="ssr:stedsnr" v="978832" />
	</node>
	<node lat="58.12169043360577" lon="7.6813500653226985" id="-47500">
		<tag k="fixme" v="consider place=hamlet" />
		<tag k="name" v="Myren" />
		<tag k="place" v="farm" />
		<tag k="ssr:stedsnr" v="978833" />
	</node>
	<node lat="58.09617398317746" lon="7.77465587198732" id="-47501">
		<tag k="fixme" v="consider place=hamlet" />
		<tag k="name" v="Lunde" />
		<tag k="place" v="farm" />
		<tag k="ssr:stedsnr" v="978852" />
	</node>
	<node lat="58.095755156634766" lon="7.804271342263275" id="-47502">
		<tag k="fixme" v="consider place=hamlet" />
		<tag k="name" v="Tangvall" />
		<tag k="place" v="farm" />
		<tag k="ssr:stedsnr" v="978853" />
	</node>
	<node lat="58.10104219875314" lon="7.825914782589777" id="-47503">
		<tag k="fixme" v="consider place=hamlet" />
		<tag k="name" v="Tufteland" />
		<tag k="place" v="farm" />
		<tag k="ssr:stedsnr" v="978854" />
	</node>
	<node lat="58.13053186698641" lon="7.618487018453757" id="-47504">
		<tag k="fixme" v="consider place=hamlet" />
		<tag k="name" v="Storemyr" />
		<tag k="place" v="farm" />
		<tag k="ssr:stedsnr" v="978855" />
	</node>
	<node lat="58.11982567138502" lon="7.625211279272254" id="-47505">
		<tag k="name" v="Høksås" />
		<tag k="place" v="farm" />
		<tag k="ssr:stedsnr" v="978856" />
	</node>
	<node lat="58.0987924958576" lon="8.10255693485284" id="-47518">
		<tag k="amenity" v="school" />
		<tag k="name" v="Haraldvigen leirskole" />
		<tag k="ssr:stedsnr" v="983328" />
	</node>
</osm>
