<?xml version="1.0" encoding="UTF-8"?>
<osm generator="osmapis" version="0.6">
	<node id="-63488" lat="58.1242527789" lon="7.90653054863">
		<tag k="name" v="Lamannsmyra" />
		<tag k="natural" v="wetland" />
		<tag k="ssr:stedsnr" v="773922" />
	</node>
	<node id="-67584" lat="58.3190805576" lon="7.70393611176">
		<tag k="name" v="Rademyrkartan" />
		<tag k="natural" v="wetland" />
		<tag k="ssr:stedsnr" v="644610" />
	</node>
	<node id="-63481" lat="58.2706833325" lon="8.16917777754">
		<tag k="name" v="Krogen" />
		<tag k="place" v="locality" />
		<tag k="ssr:stedsnr" v="773113" />
	</node>
	<node id="-63479" lat="58.234763887" lon="8.10283610886">
		<tag k="landuse" v="meadow" />
		<tag k="name" v="Karlseng" />
		<tag k="ssr:stedsnr" v="773092" />
	</node>
	<node id="-67574" lat="58.2451638926" lon="7.64862499453">
		<tag k="name" v="Småmyr" />
		<tag k="natural" v="wetland" />
		<tag k="ssr:stedsnr" v="644497" />
	</node>
	<node id="-63476" lat="58.2257722243" lon="8.13279445184">
		<tag k="name" v="Perskjerr" />
		<tag k="natural" v="wetland" />
		<tag k="ssr:stedsnr" v="773072" />
	</node>
	<node id="-63475" lat="58.2213805572" lon="8.1201666705">
		<tag k="name" v="Børresmoen" />
		<tag k="place" v="locality" />
		<tag k="ssr:stedsnr" v="773058" />
	</node>
	<node id="-67570" lat="58.2814694426" lon="7.69314443886">
		<tag k="name" v="Monen" />
		<tag k="place" v="locality" />
		<tag k="ssr:stedsnr" v="644445" />
	</node>
	<node id="-63473" lat="58.1964694412" lon="8.0144638952">
		<tag k="name" v="Sagekleivkjerr" />
		<tag k="natural" v="wetland" />
		<tag k="ssr:stedsnr" v="772520" />
	</node>
	<node id="-67557" lat="58.2889944418" lon="7.57951110517">
		<tag k="name" v="Dynjemyr" />
		<tag k="natural" v="wetland" />
		<tag k="ssr:stedsnr" v="644247" />
	</node>
	<node id="-67556" lat="58.2965749961" lon="7.59453610622">
		<tag k="name" v="Heimyr" />
		<tag k="natural" v="wetland" />
		<tag k="ssr:stedsnr" v="644237" />
	</node>
	<node id="-61410" lat="58.2383999973" lon="7.81832500081">
		<tag k="name" v="Øygarden" />
		<tag k="place" v="locality" />
		<tag k="ssr:stedsnr" v="402873" />
	</node>
	<node id="-67547" lat="58.3425194458" lon="7.60861388322">
		<tag k="name" v="Flisemyr" />
		<tag k="natural" v="wetland" />
		<tag k="ssr:stedsnr" v="644174" />
	</node>
	<node id="-61401" lat="58.1641111138" lon="7.78151944416">
		<tag k="name" v="Søheimyra" />
		<tag k="natural" v="wetland" />
		<tag k="ssr:stedsnr" v="402773" />
	</node>
	<node id="-61400" lat="58.1624527769" lon="7.76179444036">
		<tag k="landuse" v="meadow" />
		<tag k="name" v="Flegevoll" />
		<tag k="ssr:stedsnr" v="402771" />
	</node>
	<node id="-67543" lat="58.2822749972" lon="7.57341944995">
		<tag k="name" v="Ronsemyr" />
		<tag k="natural" v="wetland" />
		<tag k="ssr:stedsnr" v="644121" />
	</node>
	<node id="-61398" lat="58.2054333346" lon="7.77000000773">
		<tag k="name" v="Borvedalsmyra" />
		<tag k="natural" v="wetland" />
		<tag k="ssr:stedsnr" v="402721" />
	</node>
	<node id="-66553" lat="58.2070138859" lon="8.12538610742">
		<tag k="name" v="Lille Fænmyr" />
		<tag k="natural" v="wetland" />
		<tag k="ssr:stedsnr" v="410347" />
	</node>
	<node id="-62193" lat="58.3054750044" lon="7.58981666617">
		<tag k="name" v="Vamoen" />
		<tag k="place" v="locality" />
		<tag k="ssr:stedsnr" v="706262" />
	</node>
	<node id="-68600" lat="58.1748250045" lon="7.97422777957">
		<tag k="name" v="Urane" />
		<tag k="natural" v="scree" />
		<tag k="ssr:stedsnr" v="834935" />
	</node>
	<node id="-61387" lat="58.1671138906" lon="7.71916111358">
		<tag k="name" v="Ånesmyr" />
		<tag k="natural" v="wetland" />
		<tag k="ssr:stedsnr" v="506995" />
	</node>
	<node id="-59336" lat="58.1676499995" lon="7.79284444219">
		<tag k="name" v="Søheimyra" />
		<tag k="natural" v="wetland" />
		<tag k="ssr:stedsnr" v="220809" />
	</node>
	<node id="-59335" lat="58.1692888881" lon="7.76438888451">
		<tag k="name" v="Småmyran" />
		<tag k="natural" v="wetland" />
		<tag k="ssr:stedsnr" v="220797" />
	</node>
	<node id="-59334" lat="58.158161109" lon="7.77090833577">
		<tag k="name" v="Bjørndalsmyra" />
		<tag k="natural" v="wetland" />
		<tag k="ssr:stedsnr" v="220784" />
	</node>
	<node id="-59331" lat="58.1402583291" lon="7.83178889419">
		<tag k="name" v="Tømmermyra" />
		<tag k="natural" v="wetland" />
		<tag k="ssr:stedsnr" v="220732" />
	</node>
	<node id="-63424" lat="58.1864111138" lon="7.83286110339">
		<tag k="name" v="Solheimyr" />
		<tag k="natural" v="wetland" />
		<tag k="ssr:stedsnr" v="766857" />
	</node>
	<node id="-63423" lat="58.1890388885" lon="7.81346667477">
		<tag k="name" v="Stemmen" />
		<tag k="natural" v="wetland" />
		<tag k="ssr:stedsnr" v="766855" />
	</node>
	<node id="-59326" lat="58.2644638932" lon="7.65941111558">
		<tag k="name" v="Vatnelijordet" />
		<tag k="natural" v="wetland" />
		<tag k="ssr:stedsnr" v="220676" />
	</node>
	<node id="-61373" lat="58.1329222259" lon="7.73409445013">
		<tag k="name" v="Sirismyra" />
		<tag k="natural" v="wetland" />
		<tag k="ssr:stedsnr" v="506379" />
	</node>
	<node id="-65466" lat="58.2271833375" lon="8.01524165832">
		<tag k="name" v="Hessemyr" />
		<tag k="natural" v="wetland" />
		<tag k="ssr:stedsnr" v="168127" />
	</node>
	<node id="-59320" lat="58.3165250021" lon="7.62870833889">
		<tag k="name" v="Grasgomyr" />
		<tag k="natural" v="wetland" />
		<tag k="ssr:stedsnr" v="220653" />
	</node>
	<node id="-67572" lat="58.2383305579" lon="7.66626110721">
		<tag k="name" v="Sauetjønndega" />
		<tag k="natural" v="wetland" />
		<tag k="ssr:stedsnr" v="644483" />
	</node>
	<node id="-65461" lat="58.1798555512" lon="7.99015000175">
		<tag k="name" v="Sødalsmyra" />
		<tag k="natural" v="wetland" />
		<tag k="ssr:stedsnr" v="167851" />
	</node>
	<node id="-63412" lat="58.2562611134" lon="7.68437499705">
		<tag k="name" v="Greibeslandsmyr" />
		<tag k="natural" v="wetland" />
		<tag k="ssr:stedsnr" v="766508" />
	</node>
	<node id="-63411" lat="58.2510027784" lon="7.70273611958">
		<tag k="name" v="Store Øygard" />
		<tag k="place" v="locality" />
		<tag k="ssr:stedsnr" v="766505" />
	</node>
	<node id="-65458" lat="58.1855638897" lon="8.0094416678">
		<tag k="landuse" v="meadow" />
		<tag k="name" v="Skivollen" />
		<tag k="ssr:stedsnr" v="167693" />
	</node>
	<node id="-61361" lat="58.0937944454" lon="7.64892499347">
		<tag k="name" v="Røyremyr" />
		<tag k="natural" v="wetland" />
		<tag k="ssr:stedsnr" v="506006" />
	</node>
	<node id="-59312" lat="58.2476472207" lon="7.64339721401">
		<tag k="name" v="Røyselandsmyra" />
		<tag k="natural" v="wetland" />
		<tag k="ssr:stedsnr" v="220522" />
	</node>
	<node id="-63407" lat="58.2481249962" lon="7.69354167272">
		<tag k="name" v="Stemmyr" />
		<tag k="natural" v="wetland" />
		<tag k="ssr:stedsnr" v="766478" />
	</node>
	<node id="-63405" lat="58.3300805551" lon="7.59567221654">
		<tag k="name" v="Snømyr" />
		<tag k="natural" v="wetland" />
		<tag k="ssr:stedsnr" v="766333" />
	</node>
	<node id="-65452" lat="58.0720527765" lon="7.98548055533">
		<tag k="name" v="Ytterkjerr" />
		<tag k="natural" v="wetland" />
		<tag k="ssr:stedsnr" v="167491" />
	</node>
	<node id="-63402" lat="58.2781888845" lon="7.58971666135">
		<tag k="name" v="Krokkjerran" />
		<tag k="natural" v="wetland" />
		<tag k="ssr:stedsnr" v="766106" />
	</node>
	<node id="-67497" lat="58.2473777755" lon="8.10788611701">
		<tag k="name" v="Svartebergmyr" />
		<tag k="natural" v="wetland" />
		<tag k="ssr:stedsnr" v="634280" />
	</node>
	<node id="-65448" lat="58.1979166658" lon="8.02002500004">
		<tag k="name" v="Jakobsmyr" />
		<tag k="natural" v="wetland" />
		<tag k="ssr:stedsnr" v="167636" />
	</node>
	<node id="-61350" lat="58.217641665" lon="8.17484721503">
		<tag k="name" v="Øygardsmyr" />
		<tag k="natural" v="wetland" />
		<tag k="ssr:stedsnr" v="392418" />
	</node>
	<node id="-67493" lat="58.2339472228" lon="8.00238611388">
		<tag k="name" v="Kringlemyr" />
		<tag k="natural" v="wetland" />
		<tag k="ssr:stedsnr" v="634380" />
	</node>
	<node id="-67490" lat="58.1633555515" lon="8.13798334073">
		<tag k="name" v="Bumyr" />
		<tag k="natural" v="wetland" />
		<tag k="ssr:stedsnr" v="634149" />
	</node>
	<node id="-65441" lat="58.1981111093" lon="8.16472777817">
		<tag k="name" v="Øygardsmyra" />
		<tag k="natural" v="wetland" />
		<tag k="ssr:stedsnr" v="167350" />
	</node>
	<node id="-61344" lat="58.202405559" lon="7.96471944365">
		<tag k="alt_name" v="Nilsemyr" />
		<tag k="name" v="Nilsesmyr" />
		<tag k="natural" v="wetland" />
		<tag k="ssr:stedsnr" v="392356" />
	</node>
	<node id="-59292" lat="58.2565249974" lon="7.58360832976">
		<tag k="name" v="Storenes" />
		<tag k="place" v="locality" />
		<tag k="ssr:stedsnr" v="220249" />
	</node>
	<node id="-59291" lat="58.2443555557" lon="7.6061083325">
		<tag k="name" v="Austremyr" />
		<tag k="natural" v="wetland" />
		<tag k="ssr:stedsnr" v="220234" />
	</node>
	<node id="-67482" lat="58.1944472196" lon="7.87591944404">
		<tag k="alt_name" v="Kleivmyr" />
		<tag k="name" v="Kleivemyr" />
		<tag k="natural" v="wetland" />
		<tag k="ssr:stedsnr" v="631921" />
	</node>
	<node id="-59288" lat="58.2635638851" lon="7.61716667454">
		<tag k="name" v="Hanseskjerret" />
		<tag k="natural" v="wetland" />
		<tag k="ssr:stedsnr" v="220184" />
	</node>
	<node id="-67479" lat="58.2111972187" lon="7.87419167451">
		<tag k="name" v="Kartmyrane" />
		<tag k="natural" v="wetland" />
		<tag k="ssr:stedsnr" v="630880" />
	</node>
	<node id="-61333" lat="58.1625805537" lon="7.9364777771">
		<tag k="name" v="Mellommyra" />
		<tag k="natural" v="wetland" />
		<tag k="ssr:stedsnr" v="388875" />
	</node>
	<node id="-59284" lat="58.2709361139" lon="7.60300832816">
		<tag k="name" v="Trandlekjerret" />
		<tag k="natural" v="wetland" />
		<tag k="ssr:stedsnr" v="220165" />
	</node>
	<node id="-63377" lat="58.2653138889" lon="8.05457499589">
		<tag k="name" v="Hellingsmyr" />
		<tag k="natural" v="wetland" />
		<tag k="ssr:stedsnr" v="756159" />
	</node>
	<node id="-61326" lat="58.1846999988" lon="7.91283055838">
		<tag k="name" v="Lislegard" />
		<tag k="natural" v="wetland" />
		<tag k="ssr:stedsnr" v="388018" />
	</node>
	<node id="-67469" lat="58.0192138929" lon="7.73029999782">
		<tag k="name" v="Andersurene" />
		<tag k="natural" v="scree" />
		<tag k="ssr:stedsnr" v="627946" />
	</node>
	<node id="-65415" lat="58.1974277803" lon="8.16791388249">
		<tag k="name" v="Biskopkjerr" />
		<tag k="natural" v="wetland" />
		<tag k="ssr:stedsnr" v="166037" />
	</node>
	<node id="-61314" lat="58.1352916709" lon="7.74021111146">
		<tag k="name" v="Hestemyra" />
		<tag k="natural" v="wetland" />
		<tag k="ssr:stedsnr" v="385357" />
	</node>
	<node id="-67454" lat="58.0951611103" lon="7.81911944166">
		<tag k="name" v="Rohavneset" />
		<tag k="place" v="locality" />
		<tag k="ssr:stedsnr" v="627390" />
	</node>
	<node id="-67453" lat="58.1394305527" lon="7.70478332711">
		<tag k="name" v="Gunnarsmyra" />
		<tag k="natural" v="wetland" />
		<tag k="ssr:stedsnr" v="627249" />
	</node>
	<node id="-67451" lat="58.1203749967" lon="7.73468610626">
		<tag k="alt_name" v="Langemyra" />
		<tag k="name" v="Langemyr" />
		<tag k="natural" v="wetland" />
		<tag k="ssr:stedsnr" v="627196" />
	</node>
	<node id="-67449" lat="58.0943083298" lon="7.77054443974">
		<tag k="name" v="Mjåland" />
		<tag k="place" v="locality" />
		<tag k="ssr:stedsnr" v="627174" />
	</node>
	<node id="-67447" lat="58.1128444402" lon="7.65359166249">
		<tag k="name" v="Øygardsmyra" />
		<tag k="natural" v="wetland" />
		<tag k="ssr:stedsnr" v="627045" />
	</node>
	<node id="-66759" lat="58.1796055526" lon="7.87329166303">
		<tag k="name" v="Storemyr" />
		<tag k="natural" v="wetland" />
		<tag k="ssr:stedsnr" v="524966" />
	</node>
	<node id="-61278" lat="58.1001500006" lon="7.92757778356">
		<tag k="name" v="Sørmyr" />
		<tag k="natural" v="wetland" />
		<tag k="ssr:stedsnr" v="349620" />
	</node>
	<node id="-61269" lat="58.2188944418" lon="8.09694443962">
		<tag k="name" v="Tranmoen" />
		<tag k="place" v="locality" />
		<tag k="ssr:stedsnr" v="348871" />
	</node>
	<node id="-61259" lat="58.104094446" lon="7.93569443711">
		<tag k="name" v="Orekjerr" />
		<tag k="natural" v="wetland" />
		<tag k="ssr:stedsnr" v="348404" />
	</node>
	<node id="-65341" lat="58.1633527749" lon="7.84431943786">
		<tag k="name" v="Kjerrane" />
		<tag k="natural" v="wetland" />
		<tag k="ssr:stedsnr" v="160739" />
	</node>
	<node id="-60040" lat="58.2647472196" lon="8.10568889074">
		<tag k="alt_name" v="Aneskumyr" />
		<tag k="name" v="Åneskumyr" />
		<tag k="natural" v="wetland" />
		<tag k="ssr:stedsnr" v="271315" />
	</node>
	<node id="-67367" lat="58.2075305568" lon="7.94344722524">
		<tag k="name" v="Storemyr" />
		<tag k="natural" v="wetland" />
		<tag k="ssr:stedsnr" v="592915" />
	</node>
	<node id="-61214" lat="58.1906805543" lon="7.82126111694">
		<tag k="name" v="Ørneheimyr" />
		<tag k="natural" v="wetland" />
		<tag k="ssr:stedsnr" v="342812" />
	</node>
	<node id="-60037" lat="58.2460361081" lon="8.12283610351">
		<tag k="name" v="Fænmyr" />
		<tag k="natural" v="wetland" />
		<tag k="ssr:stedsnr" v="271251" />
	</node>
	<node id="-67354" lat="58.1880944466" lon="8.1030000024">
		<tag k="name" v="Svarttjønnmyra" />
		<tag k="natural" v="wetland" />
		<tag k="ssr:stedsnr" v="592476" />
	</node>
	<node id="-67353" lat="58.2172055599" lon="8.09233889538">
		<tag k="name" v="Klædalsmyr" />
		<tag k="natural" v="wetland" />
		<tag k="ssr:stedsnr" v="592387" />
	</node>
	<node id="-67351" lat="58.0748694464" lon="8.00314445217">
		<tag k="name" v="Kilebrekka" />
		<tag k="place" v="locality" />
		<tag k="ssr:stedsnr" v="592361" />
	</node>
	<node id="-67348" lat="58.0714416663" lon="7.98255556392">
		<tag k="name" v="Kilura" />
		<tag k="natural" v="scree" />
		<tag k="ssr:stedsnr" v="592345" />
	</node>
	<node id="-67345" lat="58.2434805586" lon="8.11545278389">
		<tag k="name" v="Askekjerr" />
		<tag k="natural" v="wetland" />
		<tag k="ssr:stedsnr" v="592328" />
	</node>
	<node id="-63247" lat="58.2224444428" lon="8.00155277349">
		<tag k="name" v="Øygarden" />
		<tag k="place" v="locality" />
		<tag k="ssr:stedsnr" v="896882" />
	</node>
	<node id="-67341" lat="58.0847694446" lon="8.00607778457">
		<tag k="name" v="Langemyra" />
		<tag k="natural" v="wetland" />
		<tag k="ssr:stedsnr" v="592311" />
	</node>
	<node id="-63240" lat="58.2096000009" lon="8.0807972155">
		<tag k="name" v="Myra" />
		<tag k="natural" v="wetland" />
		<tag k="ssr:stedsnr" v="896503" />
	</node>
	<node id="-61189" lat="58.2414777793" lon="7.67630555122">
		<tag k="name" v="Austre Tverrmyr" />
		<tag k="natural" v="wetland" />
		<tag k="ssr:stedsnr" v="341486" />
	</node>
	<node id="-61188" lat="58.3003944415" lon="7.71294721452">
		<tag k="name" v="Ingeborgsmyr" />
		<tag k="natural" v="wetland" />
		<tag k="ssr:stedsnr" v="341470" />
	</node>
	<node id="-63233" lat="58.2406472262" lon="8.11863611139">
		<tag k="name" v="Tommåsmyr" />
		<tag k="natural" v="wetland" />
		<tag k="ssr:stedsnr" v="896383" />
	</node>
	<node id="-65278" lat="58.3182222231" lon="7.64243055998">
		<tag k="name" v="Leirholtan" />
		<tag k="place" v="locality" />
		<tag k="ssr:stedsnr" v="159647" />
	</node>
	<node id="-63228" lat="58.0721944468" lon="7.98994445059">
		<tag k="name" v="Hallekjerret" />
		<tag k="natural" v="wetland" />
		<tag k="ssr:stedsnr" v="896349" />
	</node>
	<node id="-65275" lat="58.3124750006" lon="7.62862222772">
		<tag k="name" v="Knipemyr" />
		<tag k="natural" v="wetland" />
		<tag k="ssr:stedsnr" v="159598" />
	</node>
	<node id="-63225" lat="58.2312305582" lon="8.10295832813">
		<tag k="name" v="Skreddermyr" />
		<tag k="natural" v="wetland" />
		<tag k="ssr:stedsnr" v="896329" />
	</node>
	<node id="-63223" lat="58.2455833372" lon="8.11473610962">
		<tag k="name" v="Lyngmyr" />
		<tag k="natural" v="wetland" />
		<tag k="ssr:stedsnr" v="896325" />
	</node>
	<node id="-65270" lat="58.2010333299" lon="7.80861111434">
		<tag k="name" v="Lyngmyr" />
		<tag k="natural" v="wetland" />
		<tag k="ssr:stedsnr" v="159692" />
	</node>
	<node id="-65269" lat="58.3535388851" lon="7.62105833359">
		<tag k="name" v="Skjevlekarten" />
		<tag k="natural" v="wetland" />
		<tag k="ssr:stedsnr" v="159592" />
	</node>
	<node id="-67314" lat="58.1640138855" lon="7.90321944563">
		<tag k="alt_name" v="Eigebjønndalsmyra" />
		<tag k="name" v="Eigebjørndalsmyra" />
		<tag k="natural" v="wetland" />
		<tag k="ssr:stedsnr" v="591680" />
	</node>
	<node id="-67313" lat="58.1992777772" lon="8.03996110813">
		<tag k="name" v="Kalvehaven" />
		<tag k="place" v="locality" />
		<tag k="ssr:stedsnr" v="591644" />
	</node>
	<node id="-65260" lat="58.2394111128" lon="7.64397500733">
		<tag k="name" v="Orreleiksmyr" />
		<tag k="natural" v="wetland" />
		<tag k="ssr:stedsnr" v="159496" />
	</node>
	<node id="-67307" lat="58.1901888885" lon="7.94601110639">
		<tag k="name" v="Gjellesteinen" />
		<tag k="natural" v="stone" />
		<tag k="ssr:stedsnr" v="591594" />
	</node>
	<node id="-65258" lat="58.2994388873" lon="7.69326666206">
		<tag k="name" v="Skjermyr" />
		<tag k="natural" v="wetland" />
		<tag k="ssr:stedsnr" v="159479" />
	</node>
	<node id="-65256" lat="58.3314999966" lon="7.58810556213">
		<tag k="name" v="Myra" />
		<tag k="natural" v="wetland" />
		<tag k="ssr:stedsnr" v="159342" />
	</node>
	<node id="-65254" lat="58.184847221" lon="7.72487221653">
		<tag k="name" v="Moltemyr" />
		<tag k="natural" v="wetland" />
		<tag k="ssr:stedsnr" v="159325" />
	</node>
	<node id="-65250" lat="58.2816166695" lon="7.59963056257">
		<tag k="name" v="Blautemyr" />
		<tag k="natural" v="wetland" />
		<tag k="ssr:stedsnr" v="159137" />
	</node>
	<node id="-65249" lat="58.287150003" lon="7.59324722228">
		<tag k="name" v="Pallmyr" />
		<tag k="natural" v="wetland" />
		<tag k="ssr:stedsnr" v="159244" />
	</node>
	<node id="-61147" lat="58.2266000024" lon="8.13927777837">
		<tag k="name" v="Pers have" />
		<tag k="place" v="locality" />
		<tag k="ssr:stedsnr" v="331310" />
	</node>
	<node id="-66511" lat="58.2379805538" lon="8.04851389689">
		<tag k="name" v="Lihaven" />
		<tag k="place" v="locality" />
		<tag k="ssr:stedsnr" v="409154" />
	</node>
	<node id="-66852" lat="58.2473333331" lon="8.100288884">
		<tag k="name" v="Grankjerr" />
		<tag k="natural" v="wetland" />
		<tag k="ssr:stedsnr" v="530126" />
	</node>
	<node id="-61142" lat="58.2498666694" lon="8.07120277559">
		<tag k="alt_name" v="Bålemyrene" />
		<tag k="name" v="Balemyrene" />
		<tag k="natural" v="wetland" />
		<tag k="ssr:stedsnr" v="331234" />
	</node>
	<node id="-65226" lat="58.2200694453" lon="8.0007083249">
		<tag k="name" v="Takstedalsjordet" />
		<tag k="natural" v="wetland" />
		<tag k="ssr:stedsnr" v="149347" />
	</node>
	<node id="-61125" lat="58.1933722181" lon="7.87093610582">
		<tag k="name" v="Kringlemyr" />
		<tag k="natural" v="wetland" />
		<tag k="ssr:stedsnr" v="327031" />
	</node>
	<node id="-63171" lat="58.192249996" lon="8.05126389703">
		<tag k="landuse" v="meadow" />
		<tag k="name" v="Monen" />
		<tag k="ssr:stedsnr" v="713715" />
	</node>
	<node id="-65662" lat="58.2761194431" lon="8.0467749997">
		<tag k="name" v="Blautekjerr" />
		<tag k="natural" v="wetland" />
		<tag k="ssr:stedsnr" v="210193" />
	</node>
	<node id="-65214" lat="58.2479222205" lon="8.07010556335">
		<tag k="name" v="Kongemyr" />
		<tag k="natural" v="wetland" />
		<tag k="ssr:stedsnr" v="149209" />
	</node>
	<node id="-63165" lat="58.2206166687" lon="8.11759167449">
		<tag k="name" v="Olsegra" />
		<tag k="place" v="locality" />
		<tag k="ssr:stedsnr" v="895048" />
	</node>
	<node id="-65212" lat="58.2618944483" lon="8.02774167148">
		<tag k="name" v="Røyrmyr" />
		<tag k="natural" v="wetland" />
		<tag k="ssr:stedsnr" v="149133" />
	</node>
	<node id="-61112" lat="58.1513222258" lon="7.92564722438">
		<tag k="name" v="Store Kartemyr" />
		<tag k="natural" v="wetland" />
		<tag k="ssr:stedsnr" v="471502" />
	</node>
	<node id="-61111" lat="58.0728666652" lon="7.97481667321">
		<tag k="name" v="Myrane" />
		<tag k="natural" v="wetland" />
		<tag k="ssr:stedsnr" v="471418" />
	</node>
	<node id="-65206" lat="58.2315277761" lon="7.90769166553">
		<tag k="name" v="Tranlemyr" />
		<tag k="natural" v="wetland" />
		<tag k="ssr:stedsnr" v="149096" />
	</node>
	<node id="-67571" lat="58.2402388855" lon="7.66890833622">
		<tag k="name" v="Skjeddansmyr" />
		<tag k="natural" v="wetland" />
		<tag k="ssr:stedsnr" v="644471" />
	</node>
	<node id="-61105" lat="58.0735916654" lon="7.98102499534">
		<tag k="name" v="Kalvehagen" />
		<tag k="place" v="locality" />
		<tag k="ssr:stedsnr" v="471331" />
	</node>
	<node id="-65199" lat="58.2206777798" lon="7.86915000667">
		<tag k="name" v="Bjønnskjeggmyr" />
		<tag k="natural" v="wetland" />
		<tag k="ssr:stedsnr" v="149106" />
	</node>
	<node id="-67639" lat="58.2917444424" lon="7.65912500101">
		<tag k="name" v="Blautemyr" />
		<tag k="natural" v="wetland" />
		<tag k="ssr:stedsnr" v="645365" />
	</node>
	<node id="-63148" lat="58.1543277747" lon="7.90286389132">
		<tag k="name" v="Liljeholmyra" />
		<tag k="natural" v="wetland" />
		<tag k="ssr:stedsnr" v="713417" />
	</node>
	<node id="-65190" lat="58.2004333375" lon="7.90296389415">
		<tag k="name" v="Vassmyr" />
		<tag k="natural" v="wetland" />
		<tag k="ssr:stedsnr" v="145027" />
	</node>
	<node id="-67867" lat="58.1978944456" lon="7.82766388285">
		<tag k="name" v="Snømyr" />
		<tag k="natural" v="wetland" />
		<tag k="ssr:stedsnr" v="752910" />
	</node>
	<node id="-61087" lat="58.2156361111" lon="8.10293055357">
		<tag k="name" v="Tunga" />
		<tag k="place" v="locality" />
		<tag k="ssr:stedsnr" v="470973" />
	</node>
	<node id="-61086" lat="58.1233805513" lon="7.90446389253">
		<tag k="name" v="Porrekjerret" />
		<tag k="natural" v="wetland" />
		<tag k="ssr:stedsnr" v="470942" />
	</node>
	<node id="-65177" lat="58.0569888845" lon="7.84115555032">
		<tag k="name" v="Døbla" />
		<tag k="natural" v="wetland" />
		<tag k="ssr:stedsnr" v="142975" />
	</node>
	<node id="-63126" lat="58.3173638906" lon="7.56646944158">
		<tag k="name" v="Elsmyran" />
		<tag k="natural" v="wetland" />
		<tag k="ssr:stedsnr" v="705408" />
	</node>
	<node id="-63125" lat="58.3208416686" lon="7.59368888903">
		<tag k="name" v="Sedsvollen" />
		<tag k="place" v="locality" />
		<tag k="ssr:stedsnr" v="705405" />
	</node>
	<node id="-63123" lat="58.3227527795" lon="7.61946389448">
		<tag k="name" v="Dyblemyr" />
		<tag k="natural" v="wetland" />
		<tag k="ssr:stedsnr" v="705351" />
	</node>
	<node id="-61068" lat="58.1526527792" lon="7.94358055694">
		<tag k="name" v="Hestefallsmyra" />
		<tag k="natural" v="wetland" />
		<tag k="ssr:stedsnr" v="470461" />
	</node>
	<node id="-65163" lat="58.1417388894" lon="7.72001666011">
		<tag k="name" v="Breiungen" />
		<tag k="natural" v="wetland" />
		<tag k="ssr:stedsnr" v="142248" />
	</node>
	<node id="-65162" lat="58.141344446" lon="7.71468610301">
		<tag k="name" v="Hanseslåta" />
		<tag k="natural" v="wetland" />
		<tag k="ssr:stedsnr" v="142247" />
	</node>
	<node id="-61065" lat="58.0712250033" lon="7.98890833578">
		<tag k="name" v="Hallekjerr" />
		<tag k="natural" v="wetland" />
		<tag k="ssr:stedsnr" v="470433" />
	</node>
	<node id="-61049" lat="58.2234777797" lon="8.09286111193">
		<tag k="name" v="Stokken" />
		<tag k="place" v="locality" />
		<tag k="ssr:stedsnr" v="470044" />
	</node>
	<node id="-61047" lat="58.2046861144" lon="8.11698611881">
		<tag k="name" v="Steane" />
		<tag k="natural" v="wetland" />
		<tag k="ssr:stedsnr" v="470032" />
	</node>
	<node id="-65140" lat="58.1266055537" lon="7.71608888561">
		<tag k="name" v="Kartemyra" />
		<tag k="natural" v="wetland" />
		<tag k="ssr:stedsnr" v="142052" />
	</node>
	<node id="-59325" lat="58.2607166634" lon="7.63618333973">
		<tag k="name" v="Holan" />
		<tag k="natural" v="wetland" />
		<tag k="ssr:stedsnr" v="220671" />
	</node>
	<node id="-67858" lat="58.1998694474" lon="7.91417222216">
		<tag k="name" v="Fuglekjerrane" />
		<tag k="natural" v="wetland" />
		<tag k="ssr:stedsnr" v="752038" />
	</node>
	<node id="-68881" lat="58.2200194476" lon="8.00073334155">
		<tag k="name" v="Takstedalsjordet" />
		<tag k="place" v="locality" />
		<tag k="ssr:stedsnr" v="956854" />
	</node>
	<node id="-67856" lat="58.1850694464" lon="7.88501945245">
		<tag k="name" v="Lellanesmyr" />
		<tag k="natural" v="wetland" />
		<tag k="ssr:stedsnr" v="752026" />
	</node>
	<node id="-59322" lat="58.2740833292" lon="7.67312777865">
		<tag k="name" v="Svegemyr" />
		<tag k="place" v="locality" />
		<tag k="ssr:stedsnr" v="220663" />
	</node>
	<node id="-67160" lat="58.2169555599" lon="7.81869444699">
		<tag k="name" v="Utsmyra" />
		<tag k="natural" v="wetland" />
		<tag k="ssr:stedsnr" v="584810" />
	</node>
	<node id="-67155" lat="58.1384555531" lon="7.87809445022">
		<tag k="name" v="Storemyr" />
		<tag k="natural" v="wetland" />
		<tag k="ssr:stedsnr" v="584779" />
	</node>
	<node id="-67151" lat="58.1585444423" lon="7.77872778578">
		<tag k="name" v="Lille Røyrmyr" />
		<tag k="natural" v="wetland" />
		<tag k="ssr:stedsnr" v="584765" />
	</node>
	<node id="-67144" lat="58.1852833298" lon="7.80055000259">
		<tag k="name" v="Vollan" />
		<tag k="place" v="locality" />
		<tag k="ssr:stedsnr" v="584883" />
	</node>
	<node id="-67138" lat="58.2631638881" lon="7.64344999674">
		<tag k="name" v="Torsteinsvollan" />
		<tag k="natural" v="wetland" />
		<tag k="ssr:stedsnr" v="584624" />
	</node>
	<node id="-67134" lat="58.3205222229" lon="7.63925277076">
		<tag k="name" v="Stålsmyr" />
		<tag k="natural" v="wetland" />
		<tag k="ssr:stedsnr" v="584598" />
	</node>
	<node id="-61364" lat="58.1289250006" lon="7.65292777683">
		<tag k="name" v="Buhaven" />
		<tag k="natural" v="wetland" />
		<tag k="ssr:stedsnr" v="506031" />
	</node>
	<node id="-67126" lat="58.2276500034" lon="7.70173332967">
		<tag k="name" v="Lundsmyr" />
		<tag k="natural" v="wetland" />
		<tag k="ssr:stedsnr" v="584423" />
	</node>
	<node id="-63134" lat="58.2899055555" lon="7.60349166174">
		<tag k="name" v="Revemyr" />
		<tag k="natural" v="wetland" />
		<tag k="ssr:stedsnr" v="706217" />
	</node>
	<node id="-67121" lat="58.3203722254" lon="7.71137777396">
		<tag k="name" v="Krikkemyr" />
		<tag k="natural" v="wetland" />
		<tag k="ssr:stedsnr" v="584577" />
	</node>
	<node id="-65800" lat="58.2094944413" lon="7.87791110554">
		<tag k="name" v="Storemyr" />
		<tag k="natural" v="wetland" />
		<tag k="ssr:stedsnr" v="327868" />
	</node>
	<node id="-67116" lat="58.3166666659" lon="7.65053889383">
		<tag k="name" v="Storemyr" />
		<tag k="natural" v="wetland" />
		<tag k="ssr:stedsnr" v="584548" />
	</node>
	<node id="-59655" lat="58.2530666673" lon="7.67783332864">
		<tag k="name" v="Saga" />
		<tag k="place" v="locality" />
		<tag k="ssr:stedsnr" v="38508" />
	</node>
	<node id="-67112" lat="58.292316666" lon="7.60316110722">
		<tag k="name" v="Kvinnelimyr" />
		<tag k="natural" v="wetland" />
		<tag k="ssr:stedsnr" v="584240" />
	</node>
	<node id="-63015" lat="58.2644555519" lon="8.08466388684">
		<tag k="name" v="Stølekjerrene" />
		<tag k="natural" v="wetland" />
		<tag k="ssr:stedsnr" v="696274" />
	</node>
	<node id="-67110" lat="58.2407638864" lon="7.61370278424">
		<tag k="name" v="Stedjan" />
		<tag k="natural" v="wetland" />
		<tag k="ssr:stedsnr" v="584229" />
	</node>
	<node id="-67163" lat="58.1224027768" lon="7.8427083249">
		<tag k="name" v="Storeneset" />
		<tag k="place" v="locality" />
		<tag k="ssr:stedsnr" v="584818" />
	</node>
	<node id="-63004" lat="58.2533138872" lon="8.09929722398">
		<tag k="name" v="Langemyr" />
		<tag k="natural" v="wetland" />
		<tag k="ssr:stedsnr" v="695272" />
	</node>
	<node id="-67099" lat="58.3376583315" lon="7.60291111287">
		<tag k="name" v="Torvmyr" />
		<tag k="natural" v="wetland" />
		<tag k="ssr:stedsnr" v="584165" />
	</node>
	<node id="-63000" lat="58.2470749991" lon="8.04901388137">
		<tag k="name" v="Knaresteinen" />
		<tag k="natural" v="stone" />
		<tag k="ssr:stedsnr" v="695060" />
	</node>
	<node id="-62994" lat="58.2420444473" lon="7.89994444235">
		<tag k="name" v="Kattetjønnmyr" />
		<tag k="natural" v="wetland" />
		<tag k="ssr:stedsnr" v="695124" />
	</node>
	<node id="-63747" lat="58.1666694408" lon="7.80286943985">
		<tag k="name" v="Bergedalsmyra" />
		<tag k="natural" v="wetland" />
		<tag k="ssr:stedsnr" v="948816" />
	</node>
	<node id="-67088" lat="58.3094277773" lon="7.55418888559">
		<tag k="name" v="Tonnsbærholtan" />
		<tag k="place" v="locality" />
		<tag k="ssr:stedsnr" v="584339" />
	</node>
	<node id="-68184" lat="58.2134305549" lon="7.91466666692">
		<tag k="name" v="Stokkemyr" />
		<tag k="natural" v="wetland" />
		<tag k="ssr:stedsnr" v="774450" />
	</node>
	<node id="-65026" lat="58.1515222229" lon="8.12375833767">
		<tag k="landuse" v="meadow" />
		<tag k="name" v="Rørvika" />
		<tag k="ssr:stedsnr" v="107619" />
	</node>
	<node id="-62971" lat="58.1765333303" lon="7.76435833805">
		<tag k="name" v="Kartmyr" />
		<tag k="natural" v="wetland" />
		<tag k="ssr:stedsnr" v="888870" />
	</node>
	<node id="-65018" lat="58.1529277781" lon="7.93969444545">
		<tag k="name" v="Limbindermyra" />
		<tag k="natural" v="wetland" />
		<tag k="ssr:stedsnr" v="107486" />
	</node>
	<node id="-65017" lat="58.1167277794" lon="8.12061666455">
		<tag k="name" v="Storemyr" />
		<tag k="natural" v="wetland" />
		<tag k="ssr:stedsnr" v="107429" />
	</node>
	<node id="-65016" lat="58.1756055544" lon="7.95091944817">
		<tag k="name" v="Storemyrvann" />
		<tag k="natural" v="wetland" />
		<tag k="ssr:stedsnr" v="107423" />
	</node>
	<node id="-68180" lat="58.1866416651" lon="8.09742778127">
		<tag k="name" v="Bjørnemyr" />
		<tag k="natural" v="wetland" />
		<tag k="ssr:stedsnr" v="774390" />
	</node>
	<node id="-62966" lat="58.1720027739" lon="7.78126944558">
		<tag k="name" v="Smale myre" />
		<tag k="natural" v="wetland" />
		<tag k="ssr:stedsnr" v="888855" />
	</node>
	<node id="-62962" lat="58.2434222191" lon="7.79427222279">
		<tag k="name" v="Fjelltjønnmyra" />
		<tag k="natural" v="wetland" />
		<tag k="ssr:stedsnr" v="888832" />
	</node>
	<node id="-65008" lat="58.1816694437" lon="8.12877222717">
		<tag k="name" v="Maldalsmyr" />
		<tag k="natural" v="wetland" />
		<tag k="ssr:stedsnr" v="107329" />
	</node>
	<node id="-67837" lat="58.0854583301" lon="7.91936110411">
		<tag k="name" v="Langemyr" />
		<tag k="natural" v="wetland" />
		<tag k="ssr:stedsnr" v="749904" />
	</node>
	<node id="-67048" lat="58.1767944488" lon="7.90760832923">
		<tag k="name" v="Torvmyra" />
		<tag k="natural" v="wetland" />
		<tag k="ssr:stedsnr" v="574007" />
	</node>
	<node id="-67041" lat="58.2310972263" lon="7.89224443589">
		<tag k="name" v="Skippesmyr" />
		<tag k="natural" v="wetland" />
		<tag k="ssr:stedsnr" v="574128" />
	</node>
	<node id="-64988" lat="58.1788666637" lon="8.0171055512">
		<tag k="name" v="Rossemyr" />
		<tag k="natural" v="wetland" />
		<tag k="ssr:stedsnr" v="106707" />
	</node>
	<node id="-67034" lat="58.1696027759" lon="7.90641944341">
		<tag k="name" v="Bjønnsokkjerr" />
		<tag k="natural" v="wetland" />
		<tag k="ssr:stedsnr" v="570880" />
	</node>
	<node id="-64983" lat="58.151675001" lon="8.12771388886">
		<tag k="name" v="Støvelstykket" />
		<tag k="place" v="locality" />
		<tag k="ssr:stedsnr" v="106653" />
	</node>
	<node id="-64981" lat="58.1613222214" lon="7.98204999781">
		<tag k="name" v="Bølgane" />
		<tag k="place" v="locality" />
		<tag k="ssr:stedsnr" v="106637" />
	</node>
	<node id="-64980" lat="58.1877888869" lon="8.01718333157">
		<tag k="landuse" v="meadow" />
		<tag k="name" v="Svinevrengen" />
		<tag k="ssr:stedsnr" v="106631" />
	</node>
	<node id="-62929" lat="58.1741472194" lon="7.87997777195">
		<tag k="name" v="Bjorkilen" />
		<tag k="natural" v="wetland" />
		<tag k="ssr:stedsnr" v="888989" />
	</node>
	<node id="-64975" lat="58.2123638898" lon="7.92743055489">
		<tag k="landuse" v="peat_cutting" />
		<tag k="name" v="Torve" />
		<tag k="ssr:stedsnr" v="106529" />
	</node>
	<node id="-60876" lat="58.092641665" lon="7.92833333928">
		<tag k="alt_name" v="Sandviksmyra" />
		<tag k="name" v="Sandvigsmyra" />
		<tag k="natural" v="wetland" />
		<tag k="ssr:stedsnr" v="289615" />
	</node>
	<node id="-67831" lat="58.142925004" lon="7.73069445122">
		<tag k="name" v="Knudsmyra" />
		<tag k="natural" v="wetland" />
		<tag k="ssr:stedsnr" v="749247" />
	</node>
	<node id="-62920" lat="58.3130999966" lon="7.62583332615">
		<tag k="name" v="Djupemyr" />
		<tag k="natural" v="wetland" />
		<tag k="ssr:stedsnr" v="888494" />
	</node>
	<node id="-67015" lat="58.1161277816" lon="7.61501667265">
		<tag k="name" v="Holsteinmyra" />
		<tag k="natural" v="wetland" />
		<tag k="ssr:stedsnr" v="567975" />
	</node>
	<node id="-60870" lat="58.1525444403" lon="7.90452499591">
		<tag k="name" v="Røysmyra" />
		<tag k="natural" v="wetland" />
		<tag k="ssr:stedsnr" v="289421" />
	</node>
	<node id="-67013" lat="58.116674999" lon="7.58897500415">
		<tag k="name" v="Hellerdalsmyr" />
		<tag k="natural" v="wetland" />
		<tag k="ssr:stedsnr" v="567954" />
	</node>
	<node id="-62916" lat="58.2420416661" lon="7.68133889391">
		<tag k="name" v="Torborgsmyr" />
		<tag k="natural" v="wetland" />
		<tag k="ssr:stedsnr" v="888446" />
	</node>
	<node id="-62913" lat="58.3000250027" lon="7.70853889678">
		<tag k="name" v="Moltemyr" />
		<tag k="natural" v="wetland" />
		<tag k="ssr:stedsnr" v="888381" />
	</node>
	<node id="-62911" lat="58.2891333317" lon="7.70008332671">
		<tag k="name" v="Stean" />
		<tag k="place" v="locality" />
		<tag k="ssr:stedsnr" v="888367" />
	</node>
	<node id="-64957" lat="58.2424833313" lon="8.1406722141">
		<tag k="name" v="Busegra" />
		<tag k="place" v="locality" />
		<tag k="ssr:stedsnr" v="106101" />
	</node>
	<node id="-60859" lat="58.3328138856" lon="7.63694722965">
		<tag k="name" v="Rånemyr" />
		<tag k="natural" v="wetland" />
		<tag k="ssr:stedsnr" v="463557" />
	</node>
	<node id="-64954" lat="58.2182500045" lon="8.09592777828">
		<tag k="name" v="Stukjerr" />
		<tag k="natural" v="wetland" />
		<tag k="ssr:stedsnr" v="106048" />
	</node>
	<node id="-60857" lat="58.1531499985" lon="7.92841943956">
		<tag k="name" v="Lille Kartemyr" />
		<tag k="natural" v="wetland" />
		<tag k="ssr:stedsnr" v="289521" />
	</node>
	<node id="-64951" lat="58.214405558" lon="8.13512222133">
		<tag k="name" v="Kvassekleivkjerr" />
		<tag k="natural" v="wetland" />
		<tag k="ssr:stedsnr" v="106041" />
	</node>
	<node id="-62900" lat="58.2338777734" lon="7.64330833296">
		<tag k="name" v="Eptevannsstean" />
		<tag k="natural" v="wetland" />
		<tag k="ssr:stedsnr" v="888429" />
	</node>
	<node id="-60851" lat="58.1545166673" lon="7.96916666533">
		<tag k="name" v="Myra" />
		<tag k="natural" v="wetland" />
		<tag k="ssr:stedsnr" v="288955" />
	</node>
	<node id="-68168" lat="58.2313888891" lon="8.10793055704">
		<tag k="name" v="Suggemyr" />
		<tag k="natural" v="wetland" />
		<tag k="ssr:stedsnr" v="774351" />
	</node>
	<node id="-62894" lat="58.3236694406" lon="7.59123611045">
		<tag k="name" v="Karten" />
		<tag k="natural" v="wetland" />
		<tag k="ssr:stedsnr" v="888278" />
	</node>
	<node id="-62893" lat="58.2864999992" lon="7.58800834092">
		<tag k="name" v="Hagemyr" />
		<tag k="natural" v="wetland" />
		<tag k="ssr:stedsnr" v="888200" />
	</node>
	<node id="-62890" lat="58.2757916705" lon="7.56455555379">
		<tag k="name" v="Småmyrstø" />
		<tag k="natural" v="wetland" />
		<tag k="ssr:stedsnr" v="888093" />
	</node>
	<node id="-62888" lat="58.3385194487" lon="7.59962777222">
		<tag k="name" v="Steinsmyr" />
		<tag k="natural" v="wetland" />
		<tag k="ssr:stedsnr" v="888142" />
	</node>
	<node id="-60838" lat="58.1982111081" lon="8.03217777723">
		<tag k="landuse" v="meadow" />
		<tag k="name" v="Jodra" />
		<tag k="ssr:stedsnr" v="288621" />
	</node>
	<node id="-60835" lat="58.3202166648" lon="7.57841111008">
		<tag k="name" v="Heia" />
		<tag k="place" v="locality" />
		<tag k="ssr:stedsnr" v="463342" />
	</node>
	<node id="-62882" lat="58.2453472193" lon="7.65394167204">
		<tag k="name" v="Sveinsåsmyra" />
		<tag k="natural" v="wetland" />
		<tag k="ssr:stedsnr" v="887495" />
	</node>
	<node id="-62880" lat="58.2509583333" lon="7.65094444236">
		<tag k="name" v="Godmyr" />
		<tag k="natural" v="wetland" />
		<tag k="ssr:stedsnr" v="887290" />
	</node>
	<node id="-68165" lat="58.1136333304" lon="7.90631667237">
		<tag k="name" v="Bjorstemsmyra" />
		<tag k="natural" v="wetland" />
		<tag k="ssr:stedsnr" v="774605" />
	</node>
	<node id="-60823" lat="58.3549444444" lon="7.57841388056">
		<tag k="name" v="Bjelkemyr" />
		<tag k="natural" v="wetland" />
		<tag k="ssr:stedsnr" v="463240" />
	</node>
	<node id="-60818" lat="58.2884055578" lon="7.60742222721">
		<tag k="name" v="Høgemyr" />
		<tag k="place" v="locality" />
		<tag k="ssr:stedsnr" v="463225" />
	</node>
	<node id="-66115" lat="58.1588222217" lon="8.14312778138">
		<tag k="name" v="Myra" />
		<tag k="natural" v="wetland" />
		<tag k="ssr:stedsnr" v="349894" />
	</node>
	<node id="-60813" lat="58.2760388927" lon="7.58817499818">
		<tag k="name" v="Kroken" />
		<tag k="place" v="locality" />
		<tag k="ssr:stedsnr" v="463127" />
	</node>
	<node id="-65431" lat="58.1266388869" lon="7.90822222472">
		<tag k="name" v="Moldkleivdalsmyra" />
		<tag k="natural" v="wetland" />
		<tag k="ssr:stedsnr" v="166949" />
	</node>
	<node id="-60807" lat="58.255650004" lon="7.69487500587">
		<tag k="name" v="Honnemyr" />
		<tag k="natural" v="wetland" />
		<tag k="ssr:stedsnr" v="462500" />
	</node>
	<node id="-65771" lat="58.1488277784" lon="7.74223054764">
		<tag k="name" v="Kimestadmyra" />
		<tag k="natural" v="wetland" />
		<tag k="ssr:stedsnr" v="324372" />
	</node>
	<node id="-60800" lat="58.2555111141" lon="7.63525834068">
		<tag k="name" v="Tømmeråsmyra" />
		<tag k="natural" v="wetland" />
		<tag k="ssr:stedsnr" v="462230" />
	</node>
	<node id="-60799" lat="58.3563055565" lon="7.60984166292">
		<tag k="name" v="Åskusmyr" />
		<tag k="natural" v="wetland" />
		<tag k="ssr:stedsnr" v="462200" />
	</node>
	<node id="-67765" lat="58.1010722254" lon="7.93038054754">
		<tag k="name" v="Kringlen" />
		<tag k="place" v="locality" />
		<tag k="ssr:stedsnr" v="652377" />
	</node>
	<node id="-62837" lat="58.2708027747" lon="8.13544722374">
		<tag k="name" v="Store Kleivemyr" />
		<tag k="natural" v="wetland" />
		<tag k="ssr:stedsnr" v="878314" />
	</node>
	<node id="-60787" lat="58.292666667" lon="7.58558888337">
		<tag k="name" v="Heknemyr" />
		<tag k="natural" v="wetland" />
		<tag k="ssr:stedsnr" v="281246" />
	</node>
	<node id="-62831" lat="58.2475166641" lon="8.13270556347">
		<tag k="name" v="Skiansmyr" />
		<tag k="natural" v="wetland" />
		<tag k="ssr:stedsnr" v="878231" />
	</node>
	<node id="-66196" lat="58.1401750035" lon="7.6432805583">
		<tag k="name" v="Nilsesmyr" />
		<tag k="natural" v="wetland" />
		<tag k="ssr:stedsnr" v="385031" />
	</node>
	<node id="-62820" lat="58.2187638883" lon="7.8761500027">
		<tag k="name" v="Storemyr" />
		<tag k="natural" v="wetland" />
		<tag k="ssr:stedsnr" v="878125" />
	</node>
	<node id="-60646" lat="58.1172027781" lon="7.68546389543">
		<tag k="name" v="Djupmyra" />
		<tag k="natural" v="wetland" />
		<tag k="ssr:stedsnr" v="446072" />
	</node>
	<node id="-62818" lat="58.2200277759" lon="7.88029444715">
		<tag k="name" v="Lyngmyr" />
		<tag k="natural" v="wetland" />
		<tag k="ssr:stedsnr" v="878109" />
	</node>
	<node id="-62817" lat="58.1916750033" lon="7.99536666352">
		<tag k="name" v="Jerdalsmyra" />
		<tag k="natural" v="wetland" />
		<tag k="ssr:stedsnr" v="878106" />
	</node>
	<node id="-62816" lat="58.2278888895" lon="7.92058611427">
		<tag k="name" v="Kleivmyr" />
		<tag k="natural" v="wetland" />
		<tag k="ssr:stedsnr" v="878103" />
	</node>
	<node id="-60767" lat="58.1879638901" lon="7.99048333003">
		<tag k="name" v="Stuemyr" />
		<tag k="natural" v="wetland" />
		<tag k="ssr:stedsnr" v="271110" />
	</node>
	<node id="-62813" lat="58.1794000022" lon="7.91006389514">
		<tag k="name" v="Slåttemyr" />
		<tag k="natural" v="wetland" />
		<tag k="ssr:stedsnr" v="878011" />
	</node>
	<node id="-60761" lat="58.2564222208" lon="7.58572500754">
		<tag k="name" v="Monen" />
		<tag k="place" v="locality" />
		<tag k="ssr:stedsnr" v="463183" />
	</node>
	<node id="-62806" lat="58.2514916654" lon="8.12814999449">
		<tag k="name" v="Sovedalsmyra" />
		<tag k="natural" v="wetland" />
		<tag k="ssr:stedsnr" v="877230" />
	</node>
	<node id="-67470" lat="58.1878249995" lon="7.8743388835">
		<tag k="name" v="Skrubbekjerret" />
		<tag k="natural" v="wetland" />
		<tag k="ssr:stedsnr" v="630031" />
	</node>
	<node id="-67832" lat="58.1318916639" lon="7.73647777666">
		<tag k="name" v="Hellersmyra" />
		<tag k="natural" v="wetland" />
		<tag k="ssr:stedsnr" v="749384" />
	</node>
	<node id="-67811" lat="58.0749194438" lon="7.98619444642">
		<tag k="name" v="Krelesteinen" />
		<tag k="natural" v="stone" />
		<tag k="ssr:stedsnr" v="653313" />
	</node>
	<node id="-60752" lat="58.2143749999" lon="8.18335278584">
		<tag k="name" v="Instemyr" />
		<tag k="natural" v="wetland" />
		<tag k="ssr:stedsnr" v="453379" />
	</node>
	<node id="-60747" lat="58.232080552" lon="8.14640000034">
		<tag k="name" v="Lille Krogemyr" />
		<tag k="natural" v="wetland" />
		<tag k="ssr:stedsnr" v="453326" />
	</node>
	<node id="-60743" lat="58.2551194487" lon="8.0947861116">
		<tag k="name" v="Raftemyr" />
		<tag k="natural" v="wetland" />
		<tag k="ssr:stedsnr" v="453282" />
	</node>
	<node id="-66884" lat="58.0848083326" lon="7.94498333322">
		<tag k="name" v="Breivikskjerran" />
		<tag k="natural" v="wetland" />
		<tag k="ssr:stedsnr" v="531418" />
	</node>
	<node id="-60739" lat="58.1852999957" lon="7.99758889426">
		<tag k="name" v="Skårmyr" />
		<tag k="natural" v="wetland" />
		<tag k="ssr:stedsnr" v="453100" />
	</node>
	<node id="-62786" lat="58.2463333353" lon="8.12507499489">
		<tag k="name" v="Dyblemyr" />
		<tag k="natural" v="wetland" />
		<tag k="ssr:stedsnr" v="652279" />
	</node>
	<node id="-60728" lat="58.1776972218" lon="7.91386666935">
		<tag k="name" v="Beindalskjerrane" />
		<tag k="natural" v="wetland" />
		<tag k="ssr:stedsnr" v="453011" />
	</node>
	<node id="-64823" lat="58.206775004" lon="7.84598332622">
		<tag k="name" v="Sjongskjerret" />
		<tag k="natural" v="wetland" />
		<tag k="ssr:stedsnr" v="99998" />
	</node>
	<node id="-60725" lat="58.1614111098" lon="7.94516666198">
		<tag k="name" v="Smalemyr" />
		<tag k="natural" v="wetland" />
		<tag k="ssr:stedsnr" v="449860" />
	</node>
	<node id="-68916" lat="58.1555153282" lon="7.92269342945">
		<tag k="name" v="Grokjerr" />
		<tag k="place" v="locality" />
		<tag k="ssr:stedsnr" v="974717" />
	</node>
	<node id="-59306" lat="58.3264555541" lon="7.57058888835">
		<tag k="name" v="Terlingsmyr" />
		<tag k="natural" v="wetland" />
		<tag k="ssr:stedsnr" v="220389" />
	</node>
	<node id="-66851" lat="58.2499694469" lon="8.14971110862">
		<tag k="name" v="Madshaven" />
		<tag k="place" v="locality" />
		<tag k="ssr:stedsnr" v="530113" />
	</node>
	<node id="-64801" lat="58.220586109" lon="7.83957221625">
		<tag k="name" v="Eikebroksmyra" />
		<tag k="natural" v="wetland" />
		<tag k="ssr:stedsnr" v="99839" />
	</node>
	<node id="-64800" lat="58.2187888855" lon="7.8240777778">
		<tag k="name" v="Langedalsmyra" />
		<tag k="natural" v="wetland" />
		<tag k="ssr:stedsnr" v="99838" />
	</node>
	<node id="-66846" lat="58.2293472182" lon="8.13027500149">
		<tag k="name" v="Dyreskueplassen" />
		<tag k="place" v="locality" />
		<tag k="ssr:stedsnr" v="530087" />
	</node>
	<node id="-64795" lat="58.3142333343" lon="7.66989443995">
		<tag k="name" v="Fladen" />
		<tag k="natural" v="wetland" />
		<tag k="ssr:stedsnr" v="99549" />
	</node>
	<node id="-66842" lat="58.2168944442" lon="8.10788611754">
		<tag k="name" v="Karten" />
		<tag k="place" v="locality" />
		<tag k="ssr:stedsnr" v="530064" />
	</node>
	<node id="-64793" lat="58.3118138872" lon="7.69620278006">
		<tag k="name" v="Staksmyr" />
		<tag k="natural" v="wetland" />
		<tag k="ssr:stedsnr" v="99517" />
	</node>
	<node id="-68883" lat="58.2088444458" lon="7.94771388746">
		<tag k="name" v="Gunnusplass" />
		<tag k="natural" v="wetland" />
		<tag k="ssr:stedsnr" v="956897" />
	</node>
	<node id="-64785" lat="58.3291611082" lon="7.70174445306">
		<tag k="name" v="Løemyr" />
		<tag k="natural" v="wetland" />
		<tag k="ssr:stedsnr" v="99597" />
	</node>
	<node id="-64780" lat="58.2477666627" lon="7.72148333278">
		<tag k="name" v="Storemyr" />
		<tag k="natural" v="wetland" />
		<tag k="ssr:stedsnr" v="99485" />
	</node>
	<node id="-64777" lat="58.2880944421" lon="7.64677500331">
		<tag k="name" v="Kviheikarten" />
		<tag k="natural" v="wetland" />
		<tag k="ssr:stedsnr" v="99400" />
	</node>
	<node id="-65988" lat="58.2461111105" lon="7.8037361048">
		<tag k="name" v="Lindekjerr" />
		<tag k="natural" v="wetland" />
		<tag k="ssr:stedsnr" v="342796" />
	</node>
	<node id="-68856" lat="58.2146166668" lon="7.91065278217">
		<tag k="name" v="Storemyr" />
		<tag k="natural" v="wetland" />
		<tag k="ssr:stedsnr" v="956441" />
	</node>
	<node id="-64758" lat="58.3053194417" lon="7.61391944375">
		<tag k="name" v="Stokkåsholtan" />
		<tag k="place" v="locality" />
		<tag k="ssr:stedsnr" v="99287" />
	</node>
	<node id="-64757" lat="58.30560556" lon="7.56976389303">
		<tag k="name" v="Langemyran" />
		<tag k="natural" v="wetland" />
		<tag k="ssr:stedsnr" v="99284" />
	</node>
	<node id="-62708" lat="58.2558416684" lon="8.12128610509">
		<tag k="name" v="Storemyr" />
		<tag k="natural" v="wetland" />
		<tag k="ssr:stedsnr" v="728670" />
	</node>
	<node id="-68819" lat="58.1687833368" lon="8.13506111221">
		<tag k="name" v="Hellingsmyr" />
		<tag k="natural" v="wetland" />
		<tag k="ssr:stedsnr" v="956372" />
	</node>
	<node id="-64752" lat="58.3399361137" lon="7.55643055818">
		<tag k="name" v="Øvre Heislåtta" />
		<tag k="natural" v="wetland" />
		<tag k="ssr:stedsnr" v="99183" />
	</node>
	<node id="-68306" lat="58.195225002" lon="7.86193611775">
		<tag k="name" v="Sirismyr" />
		<tag k="natural" v="wetland" />
		<tag k="ssr:stedsnr" v="813053" />
	</node>
	<node id="-62699" lat="58.2786666678" lon="8.04616111795">
		<tag k="name" v="Trollmyr" />
		<tag k="natural" v="wetland" />
		<tag k="ssr:stedsnr" v="634155" />
	</node>
	<node id="-68840" lat="58.1485166649" lon="8.13670000726">
		<tag k="landuse" v="meadow" />
		<tag k="name" v="Rossåsegra" />
		<tag k="ssr:stedsnr" v="955964" />
	</node>
	<node id="-64742" lat="58.2428972192" lon="7.64200555309">
		<tag k="name" v="Geitemyr" />
		<tag k="natural" v="wetland" />
		<tag k="ssr:stedsnr" v="98480" />
	</node>
	<node id="-68829" lat="58.1951277797" lon="8.03439443708">
		<tag k="landuse" v="meadow" />
		<tag k="name" v="Kalvehagen" />
		<tag k="ssr:stedsnr" v="955650" />
	</node>
	<node id="-68825" lat="58.217063885" lon="8.02261388544">
		<tag k="name" v="Føreidmyra" />
		<tag k="natural" v="wetland" />
		<tag k="ssr:stedsnr" v="956396" />
	</node>
	<node id="-68824" lat="58.2421333327" lon="8.05232223032">
		<tag k="name" v="Kleppemyra" />
		<tag k="natural" v="wetland" />
		<tag k="ssr:stedsnr" v="956391" />
	</node>
	<node id="-64726" lat="58.2618722181" lon="8.12404999765">
		<tag k="name" v="Fosselangemyr" />
		<tag k="natural" v="wetland" />
		<tag k="ssr:stedsnr" v="89397" />
	</node>
	<node id="-60629" lat="58.073366665" lon="7.97692777732">
		<tag k="name" v="Ladersfidja" />
		<tag k="natural" v="wetland" />
		<tag k="ssr:stedsnr" v="228460" />
	</node>
	<node id="-67358" lat="58.1009444461" lon="7.92643888636">
		<tag k="name" v="Nordmyr" />
		<tag k="natural" v="wetland" />
		<tag k="ssr:stedsnr" v="592602" />
	</node>
	<node id="-64723" lat="58.2777416679" lon="8.09741667294">
		<tag k="name" v="Danmarksmyr" />
		<tag k="natural" v="wetland" />
		<tag k="ssr:stedsnr" v="89341" />
	</node>
	<node id="-64722" lat="58.270994445" lon="8.08003332541">
		<tag k="name" v="Pålsmyr" />
		<tag k="natural" v="wetland" />
		<tag k="ssr:stedsnr" v="89336" />
	</node>
	<node id="-64721" lat="58.2365388911" lon="8.14498889376">
		<tag k="name" v="Askekjerr" />
		<tag k="natural" v="wetland" />
		<tag k="ssr:stedsnr" v="89331" />
	</node>
	<node id="-68813" lat="58.2240305563" lon="8.10264166055">
		<tag k="name" v="Revura" />
		<tag k="natural" v="scree" />
		<tag k="ssr:stedsnr" v="955076" />
	</node>
	<node id="-64715" lat="58.2670527735" lon="8.10520278126">
		<tag k="landuse" v="quarry" />
		<tag k="name" v="Kalkgrua" />
		<tag k="ssr:stedsnr" v="89297" />
	</node>
	<node id="-61303" lat="58.1131499961" lon="7.68613610485">
		<tag k="name" v="Langemyra" />
		<tag k="natural" v="wetland" />
		<tag k="ssr:stedsnr" v="385077" />
	</node>
	<node id="-64711" lat="58.2580472181" lon="8.11209167201">
		<tag k="name" v="Ufredskjerrene" />
		<tag k="natural" v="wetland" />
		<tag k="ssr:stedsnr" v="89269" />
	</node>
	<node id="-63009" lat="58.2685750023" lon="8.08886388432">
		<tag k="name" v="Kringlemyr" />
		<tag k="natural" v="wetland" />
		<tag k="ssr:stedsnr" v="696319" />
	</node>
	<node id="-64708" lat="58.2447888893" lon="8.07717223008">
		<tag k="name" v="Stråmyr" />
		<tag k="natural" v="wetland" />
		<tag k="ssr:stedsnr" v="89242" />
	</node>
	<node id="-64707" lat="58.2442805571" lon="8.0151916676">
		<tag k="name" v="Nokkedalsmyra" />
		<tag k="natural" v="wetland" />
		<tag k="ssr:stedsnr" v="89194" />
	</node>
	<node id="-66754" lat="58.1366416699" lon="7.84668332649">
		<tag k="name" v="Taraldsmyra" />
		<tag k="natural" v="wetland" />
		<tag k="ssr:stedsnr" v="524725" />
	</node>
	<node id="-62652" lat="58.1651027759" lon="7.94354166206">
		<tag k="name" v="Trandlemyr" />
		<tag k="natural" v="wetland" />
		<tag k="ssr:stedsnr" v="630866" />
	</node>
	<node id="-64699" lat="58.2232999984" lon="8.11306944102">
		<tag k="alt_name" v="Jordfaldet" />
		<tag k="name" v="Jordfall" />
		<tag k="place" v="locality" />
		<tag k="ssr:stedsnr" v="86350" />
	</node>
	<node id="-60601" lat="58.3251361141" lon="7.63943611723">
		<tag k="name" v="Bleiksmyr" />
		<tag k="natural" v="wetland" />
		<tag k="ssr:stedsnr" v="220637" />
	</node>
	<node id="-65781" lat="58.0699388901" lon="7.64583889372">
		<tag k="name" v="Kristiansmyra" />
		<tag k="natural" v="wetland" />
		<tag k="ssr:stedsnr" v="324935" />
	</node>
	<node id="-64695" lat="58.2060999993" lon="7.89327777927">
		<tag k="name" v="Varpkjerrane" />
		<tag k="natural" v="wetland" />
		<tag k="ssr:stedsnr" v="85913" />
	</node>
	<node id="-62645" lat="58.1836472196" lon="7.87847777025">
		<tag k="name" v="Helleren" />
		<tag k="place" v="locality" />
		<tag k="ssr:stedsnr" v="630024" />
	</node>
	<node id="-60591" lat="58.3159083299" lon="7.68812221392">
		<tag k="name" v="Fisketjønnmyr" />
		<tag k="natural" v="wetland" />
		<tag k="ssr:stedsnr" v="220560" />
	</node>
	<node id="-64684" lat="58.2143444467" lon="7.89843333826">
		<tag k="name" v="Kringlemyr" />
		<tag k="natural" v="wetland" />
		<tag k="ssr:stedsnr" v="85043" />
	</node>
	<node id="-64681" lat="58.2010138912" lon="7.90784722399">
		<tag k="name" v="Småmyran" />
		<tag k="natural" v="wetland" />
		<tag k="ssr:stedsnr" v="85027" />
	</node>
	<node id="-60584" lat="58.2309722266" lon="8.09568055873">
		<tag k="name" v="Kjerregårdsmyrane" />
		<tag k="natural" v="wetland" />
		<tag k="ssr:stedsnr" v="210437" />
	</node>
	<node id="-64676" lat="58.1542888905" lon="7.71979721863">
		<tag k="name" v="Knudsmyr" />
		<tag k="natural" v="wetland" />
		<tag k="ssr:stedsnr" v="82996" />
	</node>
	<node id="-60579" lat="58.2231472245" lon="8.15873056017">
		<tag k="name" v="Skåtmyr" />
		<tag k="natural" v="wetland" />
		<tag k="ssr:stedsnr" v="210327" />
	</node>
	<node id="-66722" lat="58.3117361086" lon="7.59665555478">
		<tag k="name" v="Godmyr" />
		<tag k="natural" v="wetland" />
		<tag k="ssr:stedsnr" v="524303" />
	</node>
	<node id="-64673" lat="58.1660611151" lon="7.7350416693">
		<tag k="name" v="Fossmyra" />
		<tag k="natural" v="wetland" />
		<tag k="ssr:stedsnr" v="82982" />
	</node>
	<node id="-60576" lat="58.2753333356" lon="8.13213610472">
		<tag k="name" v="Lyngmyr" />
		<tag k="natural" v="wetland" />
		<tag k="ssr:stedsnr" v="210314" />
	</node>
	<node id="-62622" lat="58.1132333303" lon="7.74521388676">
		<tag k="name" v="Bjønnekjerret" />
		<tag k="natural" v="wetland" />
		<tag k="ssr:stedsnr" v="627143" />
	</node>
	<node id="-64669" lat="58.0953500023" lon="7.8495194368">
		<tag k="name" v="Byttingseng" />
		<tag k="place" v="locality" />
		<tag k="ssr:stedsnr" v="82301" />
	</node>
	<node id="-60569" lat="58.1736027772" lon="7.90685000377">
		<tag k="name" v="Teinelaget" />
		<tag k="natural" v="wetland" />
		<tag k="ssr:stedsnr" v="210009" />
	</node>
	<node id="-64664" lat="58.1343916637" lon="7.72882499248">
		<tag k="name" v="Raumyra" />
		<tag k="natural" v="wetland" />
		<tag k="ssr:stedsnr" v="82236" />
	</node>
	<node id="-61688" lat="58.355180556" lon="7.59829443709">
		<tag k="name" v="Stean" />
		<tag k="natural" v="wetland" />
		<tag k="ssr:stedsnr" v="463253" />
	</node>
	<node id="-68753" lat="58.187497224" lon="7.88931944401">
		<tag k="name" v="Rundemyr" />
		<tag k="natural" v="wetland" />
		<tag k="ssr:stedsnr" v="874032" />
	</node>
	<node id="-66072" lat="58.2225611149" lon="8.09621388503">
		<tag k="name" v="Langkjerrene" />
		<tag k="natural" v="wetland" />
		<tag k="ssr:stedsnr" v="348046" />
	</node>
	<node id="-64654" lat="58.1188305545" lon="7.64562777185">
		<tag k="name" v="Godemyra" />
		<tag k="natural" v="wetland" />
		<tag k="ssr:stedsnr" v="82086" />
	</node>
	<node id="-64653" lat="58.1235583334" lon="7.63136666372">
		<tag k="name" v="Trollmyr" />
		<tag k="natural" v="wetland" />
		<tag k="ssr:stedsnr" v="82077" />
	</node>
	<node id="-68743" lat="58.0658944488" lon="7.63639167276">
		<tag k="name" v="Persteinen" />
		<tag k="natural" v="stone" />
		<tag k="ssr:stedsnr" v="871894" />
	</node>
	<node id="-67777" lat="58.1925638921" lon="8.0924361088">
		<tag k="name" v="Slåttemyr" />
		<tag k="natural" v="wetland" />
		<tag k="ssr:stedsnr" v="652423" />
	</node>
	<node id="-66691" lat="58.2449916669" lon="7.62933055948">
		<tag k="name" v="Moltemyr" />
		<tag k="natural" v="wetland" />
		<tag k="ssr:stedsnr" v="523528" />
	</node>
	<node id="-68737" lat="58.0738527774" lon="7.64074722981">
		<tag k="name" v="Stubstadmyra" />
		<tag k="natural" v="wetland" />
		<tag k="ssr:stedsnr" v="871925" />
	</node>
	<node id="-66686" lat="58.3194944418" lon="7.63269167288">
		<tag k="name" v="Engemyr" />
		<tag k="natural" v="wetland" />
		<tag k="ssr:stedsnr" v="523675" />
	</node>
	<node id="-62588" lat="58.1059083302" lon="7.6637611106">
		<tag k="alt_name" v="Fidja" />
		<tag k="name" v="Fidje" />
		<tag k="place" v="locality" />
		<tag k="ssr:stedsnr" v="606821" />
	</node>
	<node id="-66683" lat="58.3022555578" lon="7.69600833035">
		<tag k="name" v="Hegglandskarten" />
		<tag k="natural" v="wetland" />
		<tag k="ssr:stedsnr" v="523595" />
	</node>
	<node id="-60536" lat="58.1922861132" lon="8.04640277615">
		<tag k="landuse" v="meadow" />
		<tag k="name" v="Løevolden" />
		<tag k="ssr:stedsnr" v="288598" />
	</node>
	<node id="-66679" lat="58.1685861111" lon="7.71356945148">
		<tag k="name" v="Spiremyr" />
		<tag k="natural" v="wetland" />
		<tag k="ssr:stedsnr" v="523337" />
	</node>
	<node id="-66678" lat="58.3480972189" lon="7.5771472277">
		<tag k="name" v="Galtemyr" />
		<tag k="natural" v="wetland" />
		<tag k="ssr:stedsnr" v="523325" />
	</node>
	<node id="-67821" lat="58.114230555" lon="7.86518333879">
		<tag k="name" v="Kringlemyr" />
		<tag k="natural" v="wetland" />
		<tag k="ssr:stedsnr" v="749339" />
	</node>
	<node id="-60519" lat="58.2362638918" lon="8.10777221938">
		<tag k="name" v="Nordsida" />
		<tag k="place" v="locality" />
		<tag k="ssr:stedsnr" v="288084" />
	</node>
	<node id="-60501" lat="58.1506777741" lon="7.847719453">
		<tag k="name" v="Løvoll" />
		<tag k="place" v="locality" />
		<tag k="ssr:stedsnr" v="179703" />
	</node>
	<node id="-60259" lat="58.2912638902" lon="7.62420555271">
		<tag k="name" v="Blautemyr" />
		<tag k="natural" v="wetland" />
		<tag k="ssr:stedsnr" v="281414" />
	</node>
	<node id="-64209" lat="58.146383336" lon="7.73633332954">
		<tag k="name" v="Svinsokskjerran" />
		<tag k="natural" v="wetland" />
		<tag k="ssr:stedsnr" v="21376" />
	</node>
	<node id="-62542" lat="58.1950138915" lon="7.98146666793">
		<tag k="name" v="Gamleøygard" />
		<tag k="natural" v="wetland" />
		<tag k="ssr:stedsnr" v="713841" />
	</node>
	<node id="-60597" lat="58.3086805581" lon="7.62952777102">
		<tag k="name" v="Langemyr" />
		<tag k="natural" v="wetland" />
		<tag k="ssr:stedsnr" v="220605" />
	</node>
	<node id="-59571" lat="58.2680833304" lon="8.13324444985">
		<tag k="alt_name" v="Pinesdalsmyr" />
		<tag k="name" v="Pinedalsmyr" />
		<tag k="natural" v="wetland" />
		<tag k="ssr:stedsnr" v="28302" />
	</node>
	<node id="-62302" lat="58.241680554" lon="8.10744166099">
		<tag k="name" v="Hellerdalsmyr" />
		<tag k="natural" v="wetland" />
		<tag k="ssr:stedsnr" v="574260" />
	</node>
	<node id="-62513" lat="58.1489027791" lon="8.12123333137">
		<tag k="landuse" v="meadow" />
		<tag k="name" v="Kleivane" />
		<tag k="ssr:stedsnr" v="713620" />
	</node>
	<node id="-64555" lat="58.2014472259" lon="7.95436666662">
		<tag k="name" v="Snømyr" />
		<tag k="natural" v="wetland" />
		<tag k="ssr:stedsnr" v="46832" />
	</node>
	<node id="-64549" lat="58.0717166666" lon="7.99126667342">
		<tag k="name" v="Forsmyra" />
		<tag k="natural" v="wetland" />
		<tag k="ssr:stedsnr" v="46604" />
	</node>
	<node id="-64541" lat="58.1909055574" lon="8.05309444772">
		<tag k="name" v="Myra" />
		<tag k="natural" v="wetland" />
		<tag k="ssr:stedsnr" v="46462" />
	</node>
	<node id="-64540" lat="58.0712500036" lon="7.97703333226">
		<tag k="name" v="Grunnevoll" />
		<tag k="natural" v="wetland" />
		<tag k="ssr:stedsnr" v="46456" />
	</node>
	<node id="-61684" lat="58.2191888876" lon="7.70833888203">
		<tag k="name" v="Kattekjerran" />
		<tag k="natural" v="wetland" />
		<tag k="ssr:stedsnr" v="463376" />
	</node>
	<node id="-64537" lat="58.1541138917" lon="7.91942222494">
		<tag k="name" v="Bjørkelimyrene" />
		<tag k="natural" v="wetland" />
		<tag k="ssr:stedsnr" v="46444" />
	</node>
	<node id="-64536" lat="58.0790472217" lon="7.99624443864">
		<tag k="name" v="Myra" />
		<tag k="natural" v="wetland" />
		<tag k="ssr:stedsnr" v="46370" />
	</node>
	<node id="-60249" lat="58.3147250003" lon="7.55044166752">
		<tag k="name" v="Einerstean" />
		<tag k="natural" v="wetland" />
		<tag k="ssr:stedsnr" v="281351" />
	</node>
	<node id="-68628" lat="58.2281277741" lon="8.00962499727">
		<tag k="name" v="Gåmollfallet" />
		<tag k="place" v="locality" />
		<tag k="ssr:stedsnr" v="836100" />
	</node>
	<node id="-68624" lat="58.2061666636" lon="8.01425000837">
		<tag k="name" v="Vølemoen" />
		<tag k="natural" v="wetland" />
		<tag k="ssr:stedsnr" v="835651" />
	</node>
	<node id="-66573" lat="58.1929305601" lon="7.95477778484">
		<tag k="name" v="Øygarden" />
		<tag k="place" v="locality" />
		<tag k="ssr:stedsnr" v="410853" />
	</node>
	<node id="-64523" lat="58.0915055552" lon="7.99872778457">
		<tag k="name" v="Flekksundmyra" />
		<tag k="natural" v="wetland" />
		<tag k="ssr:stedsnr" v="46314" />
	</node>
	<node id="-68616" lat="58.1155833319" lon="7.9583722216">
		<tag k="name" v="Flødemelka" />
		<tag k="natural" v="wetland" />
		<tag k="ssr:stedsnr" v="835437" />
	</node>
	<node id="-67756" lat="58.2161805559" lon="8.09669166008">
		<tag k="name" v="Mannslåtta" />
		<tag k="place" v="locality" />
		<tag k="ssr:stedsnr" v="652031" />
	</node>
	<node id="-66565" lat="58.149974998" lon="7.92977222112">
		<tag k="name" v="Revemyr" />
		<tag k="natural" v="wetland" />
		<tag k="ssr:stedsnr" v="410496" />
	</node>
	<node id="-68609" lat="58.2089805543" lon="8.03876667164">
		<tag k="name" v="Myra" />
		<tag k="natural" v="wetland" />
		<tag k="ssr:stedsnr" v="835382" />
	</node>
	<node id="-66555" lat="58.1812194479" lon="8.12386389295">
		<tag k="name" v="Skjørningsmyrer" />
		<tag k="natural" v="wetland" />
		<tag k="ssr:stedsnr" v="410353" />
	</node>
	<node id="-66554" lat="58.0692972235" lon="7.98880833004">
		<tag k="name" v="Myra" />
		<tag k="natural" v="wetland" />
		<tag k="ssr:stedsnr" v="410350" />
	</node>
	<node id="-68601" lat="58.1739027765" lon="7.96040277213">
		<tag k="name" v="Migamyr" />
		<tag k="natural" v="wetland" />
		<tag k="ssr:stedsnr" v="834936" />
	</node>
	<node id="-64504" lat="58.206716668" lon="8.10944166139">
		<tag k="name" v="Krogemyra" />
		<tag k="natural" v="wetland" />
		<tag k="ssr:stedsnr" v="45893" />
	</node>
	<node id="-59296" lat="58.2858305579" lon="7.56957500411">
		<tag k="name" v="Blikksmyr" />
		<tag k="natural" v="wetland" />
		<tag k="ssr:stedsnr" v="220287" />
	</node>
	<node id="-68596" lat="58.1700972252" lon="8.13172222535">
		<tag k="name" v="Øygardskjerrane" />
		<tag k="natural" v="wetland" />
		<tag k="ssr:stedsnr" v="834886" />
	</node>
	<node id="-66728" lat="58.262380552" lon="7.68151388394">
		<tag k="name" v="Prestefænet" />
		<tag k="natural" v="wetland" />
		<tag k="ssr:stedsnr" v="524564" />
	</node>
	<node id="-66533" lat="58.0864583338" lon="8.00430278498">
		<tag k="name" v="Knudsmyr" />
		<tag k="natural" v="wetland" />
		<tag k="ssr:stedsnr" v="410569" />
	</node>
	<node id="-59558" lat="58.1953944417" lon="7.86811389406">
		<tag k="name" v="Kjøbmannsheimyra" />
		<tag k="natural" v="wetland" />
		<tag k="ssr:stedsnr" v="25912" />
	</node>
	<node id="-64482" lat="58.218797219" lon="8.10715555326">
		<tag k="name" v="Vollene" />
		<tag k="place" v="locality" />
		<tag k="ssr:stedsnr" v="45061" />
	</node>
	<node id="-61947" lat="58.2517027745" lon="7.69454166892">
		<tag k="name" v="Skotmyr" />
		<tag k="natural" v="wetland" />
		<tag k="ssr:stedsnr" v="524419" />
	</node>
	<node id="-62430" lat="58.1516305585" lon="7.83748055445">
		<tag k="name" v="Prestvoll" />
		<tag k="place" v="locality" />
		<tag k="ssr:stedsnr" v="584718" />
	</node>
	<node id="-66523" lat="58.0873027777" lon="7.99006388633">
		<tag k="name" v="Hattesteinen" />
		<tag k="natural" v="stone" />
		<tag k="ssr:stedsnr" v="409464" />
	</node>
	<node id="-67065" lat="58.2468027746" lon="8.1749499922">
		<tag k="name" v="Jonskjerr" />
		<tag k="natural" v="wetland" />
		<tag k="ssr:stedsnr" v="574399" />
	</node>
	<node id="-66516" lat="58.2213111079" lon="8.10716667439">
		<tag k="name" v="Borgemyr" />
		<tag k="natural" v="wetland" />
		<tag k="ssr:stedsnr" v="409881" />
	</node>
	<node id="-60238" lat="58.3368055517" lon="7.60866389193">
		<tag k="name" v="Strengemyr" />
		<tag k="natural" v="wetland" />
		<tag k="ssr:stedsnr" v="281177" />
	</node>
	<node id="-66513" lat="58.2372722207" lon="8.04371945158">
		<tag k="name" v="Einerhaven" />
		<tag k="place" v="locality" />
		<tag k="ssr:stedsnr" v="409159" />
	</node>
	<node id="-62415" lat="58.3088222228" lon="7.6081999989">
		<tag k="name" v="Gauksmyr" />
		<tag k="natural" v="wetland" />
		<tag k="ssr:stedsnr" v="584292" />
	</node>
	<node id="-66509" lat="58.222816668" lon="8.02487499828">
		<tag k="name" v="Fuglefænet" />
		<tag k="natural" v="wetland" />
		<tag k="ssr:stedsnr" v="409141" />
	</node>
	<node id="-66507" lat="58.2658388865" lon="8.16381667388">
		<tag k="name" v="Vollene" />
		<tag k="place" v="locality" />
		<tag k="ssr:stedsnr" v="409132" />
	</node>
	<node id="-62408" lat="58.2444027797" lon="7.64968889617">
		<tag k="name" v="Langemyr" />
		<tag k="natural" v="wetland" />
		<tag k="ssr:stedsnr" v="583481" />
	</node>
	<node id="-62406" lat="58.2514500033" lon="7.64372500334">
		<tag k="name" v="Åsekjerran" />
		<tag k="natural" v="wetland" />
		<tag k="ssr:stedsnr" v="583478" />
	</node>
	<node id="-62404" lat="58.2401777745" lon="7.6415527705">
		<tag k="name" v="Torsteinsmyr" />
		<tag k="place" v="locality" />
		<tag k="ssr:stedsnr" v="583463" />
	</node>
	<node id="-66498" lat="58.2203138852" lon="8.09318888578">
		<tag k="name" v="Gjessmoen" />
		<tag k="place" v="locality" />
		<tag k="ssr:stedsnr" v="409068" />
	</node>
	<node id="-66496" lat="58.2779749984" lon="8.07598333957">
		<tag k="landuse" v="quarry" />
		<tag k="name" v="Gruene" />
		<tag k="ssr:stedsnr" v="409004" />
	</node>
	<node id="-59362" lat="58.3024416711" lon="7.60807778577">
		<tag k="name" v="Normannsmyra" />
		<tag k="natural" v="wetland" />
		<tag k="ssr:stedsnr" v="221244" />
	</node>
	<node id="-67056" lat="58.2555305522" lon="8.08223888962">
		<tag k="name" v="Åsnesmyr" />
		<tag k="natural" v="wetland" />
		<tag k="ssr:stedsnr" v="574281" />
	</node>
	<node id="-60315" lat="58.1775499998" lon="7.86136666763">
		<tag k="name" v="Teresmyr" />
		<tag k="natural" v="wetland" />
		<tag k="ssr:stedsnr" v="281997" />
	</node>
	<node id="-60314" lat="58.2421027809" lon="7.65312777746">
		<tag k="name" v="Skjeddansmyr" />
		<tag k="natural" v="wetland" />
		<tag k="ssr:stedsnr" v="281984" />
	</node>
	<node id="-64674" lat="58.1328277784" lon="7.61436667038">
		<tag k="name" v="Blømyr" />
		<tag k="natural" v="wetland" />
		<tag k="ssr:stedsnr" v="82990" />
	</node>
	<node id="-66713" lat="58.3169666656" lon="7.64567778181">
		<tag k="name" v="Åsekjerran" />
		<tag k="natural" v="wetland" />
		<tag k="ssr:stedsnr" v="524476" />
	</node>
	<node id="-60306" lat="58.2269611107" lon="7.82133611848">
		<tag k="name" v="Hjelmekjerrane" />
		<tag k="natural" v="wetland" />
		<tag k="ssr:stedsnr" v="281866" />
	</node>
	<node id="-68760" lat="58.2095555546" lon="7.85493054803">
		<tag k="name" v="Firføsselkjerret" />
		<tag k="natural" v="wetland" />
		<tag k="ssr:stedsnr" v="874898" />
	</node>
	<node id="-68486" lat="58.1880333306" lon="7.83123055914">
		<tag k="name" v="Grakjerr" />
		<tag k="natural" v="wetland" />
		<tag k="ssr:stedsnr" v="828846" />
	</node>
	<node id="-68484" lat="58.1862194447" lon="7.82166945264">
		<tag k="name" v="Ørnetjønnmyr" />
		<tag k="natural" v="wetland" />
		<tag k="ssr:stedsnr" v="828841" />
	</node>
	<node id="-68483" lat="58.1821499993" lon="7.83384166686">
		<tag k="name" v="Grindane" />
		<tag k="place" v="locality" />
		<tag k="ssr:stedsnr" v="828840" />
	</node>
	<node id="-68480" lat="58.2445611143" lon="7.8167083302">
		<tag k="name" v="Kartmyr" />
		<tag k="natural" v="wetland" />
		<tag k="ssr:stedsnr" v="828827" />
	</node>
	<node id="-59540" lat="58.1075277817" lon="7.65146111653">
		<tag k="name" v="Trymyra" />
		<tag k="natural" v="wetland" />
		<tag k="ssr:stedsnr" v="21111" />
	</node>
	<node id="-60275" lat="58.3152111073" lon="7.62536666997">
		<tag k="name" v="Fænemyr" />
		<tag k="natural" v="wetland" />
		<tag k="ssr:stedsnr" v="281558" />
	</node>
	<node id="-64370" lat="58.3123166698" lon="7.61597777487">
		<tag k="name" v="Moltekjerran" />
		<tag k="natural" v="wetland" />
		<tag k="ssr:stedsnr" v="39282" />
	</node>
	<node id="-66417" lat="58.1747305559" lon="7.76618333464">
		<tag k="name" v="Pers stem" />
		<tag k="natural" v="wetland" />
		<tag k="ssr:stedsnr" v="403888" />
	</node>
	<node id="-64358" lat="58.1732972264" lon="7.8676277753">
		<tag k="name" v="Myrane" />
		<tag k="natural" v="wetland" />
		<tag k="ssr:stedsnr" v="38996" />
	</node>
	<node id="-63633" lat="58.2178500011" lon="8.11838889082">
		<tag k="name" v="Fagermoen" />
		<tag k="place" v="locality" />
		<tag k="ssr:stedsnr" v="834055" />
	</node>
	<node id="-64355" lat="58.1869972201" lon="7.84054722575">
		<tag k="name" v="Hagan" />
		<tag k="natural" v="wetland" />
		<tag k="ssr:stedsnr" v="38880" />
	</node>
	<node id="-64352" lat="58.1666861075" lon="7.77266944068">
		<tag k="name" v="Biskundssteinen" />
		<tag k="natural" v="stone" />
		<tag k="ssr:stedsnr" v="38773" />
	</node>
	<node id="-64350" lat="58.1607750002" lon="7.77086943719">
		<tag k="name" v="Larsmyr" />
		<tag k="natural" v="wetland" />
		<tag k="ssr:stedsnr" v="38763" />
	</node>
	<node id="-60253" lat="58.3261499961" lon="7.566044441">
		<tag k="name" v="Stemmyr" />
		<tag k="natural" v="wetland" />
		<tag k="ssr:stedsnr" v="281368" />
	</node>
	<node id="-62299" lat="58.2241499963" lon="8.13483054951">
		<tag k="name" v="Pilemyr" />
		<tag k="natural" v="wetland" />
		<tag k="ssr:stedsnr" v="574336" />
	</node>
	<node id="-62297" lat="58.2188305592" lon="8.14580556105">
		<tag k="name" v="Tranlemyrane" />
		<tag k="natural" v="wetland" />
		<tag k="ssr:stedsnr" v="574325" />
	</node>
	<node id="-62296" lat="58.2736722189" lon="8.12636389651">
		<tag k="name" v="Eikedalsmyra" />
		<tag k="natural" v="wetland" />
		<tag k="ssr:stedsnr" v="574316" />
	</node>
	<node id="-66389" lat="58.2094388897" lon="7.84675556181">
		<tag k="name" v="Sjøheimyran" />
		<tag k="natural" v="wetland" />
		<tag k="ssr:stedsnr" v="402993" />
	</node>
	<node id="-62291" lat="58.2346500017" lon="7.89963889362">
		<tag k="name" v="Storemyr" />
		<tag k="natural" v="wetland" />
		<tag k="ssr:stedsnr" v="574104" />
	</node>
	<node id="-62288" lat="58.2526111094" lon="8.03580555101">
		<tag k="name" v="Kyrkleivslåttene" />
		<tag k="natural" v="wetland" />
		<tag k="ssr:stedsnr" v="574065" />
	</node>
	<node id="-60239" lat="58.3425833314" lon="7.60524999505">
		<tag k="loc_name" v="Laugemyr" />
		<tag k="name" v="Langemyr" />
		<tag k="natural" v="wetland" />
		<tag k="ssr:stedsnr" v="281184" />
	</node>
	<node id="-64334" lat="58.3014055537" lon="7.54653333961">
		<tag k="name" v="Torvkarten" />
		<tag k="natural" v="wetland" />
		<tag k="ssr:stedsnr" v="38383" />
	</node>
	<node id="-64325" lat="58.2880777781" lon="7.69385833105">
		<tag k="name" v="Breimyr" />
		<tag k="natural" v="wetland" />
		<tag k="ssr:stedsnr" v="38431" />
	</node>
	<node id="-66372" lat="58.180158332" lon="7.76359999584">
		<tag k="name" v="Kleivmyr" />
		<tag k="natural" v="wetland" />
		<tag k="ssr:stedsnr" v="402895" />
	</node>
	<node id="-68416" lat="58.148980552" lon="7.89775000085">
		<tag k="name" v="Storemyr" />
		<tag k="natural" v="wetland" />
		<tag k="ssr:stedsnr" v="827812" />
	</node>
	<node id="-59872" lat="58.2900194413" lon="7.65527221734">
		<tag k="name" v="Vestmyran" />
		<tag k="natural" v="wetland" />
		<tag k="ssr:stedsnr" v="99407" />
	</node>
	<node id="-64318" lat="58.311791667" lon="7.56307500669">
		<tag k="name" v="Braunkollkarten" />
		<tag k="natural" v="wetland" />
		<tag k="ssr:stedsnr" v="38342" />
	</node>
	<node id="-64316" lat="58.3249000031" lon="7.57206666367">
		<tag k="name" v="Klappekjerran" />
		<tag k="natural" v="wetland" />
		<tag k="ssr:stedsnr" v="38335" />
	</node>
	<node id="-68410" lat="58.149455558" lon="7.77582500027">
		<tag k="name" v="Storemyr" />
		<tag k="natural" v="wetland" />
		<tag k="ssr:stedsnr" v="827762" />
	</node>
	<node id="-66361" lat="58.2618777771" lon="7.65841111246">
		<tag k="name" v="Gaupegjelegra" />
		<tag k="place" v="locality" />
		<tag k="ssr:stedsnr" v="402651" />
	</node>
	<node id="-60858" lat="58.3074111106" lon="7.68318888873">
		<tag k="name" v="Surtemyr" />
		<tag k="natural" v="wetland" />
		<tag k="ssr:stedsnr" v="463497" />
	</node>
	<node id="-62259" lat="58.1838444464" lon="7.8292916751">
		<tag k="name" v="Sauetjønnmyr" />
		<tag k="natural" v="wetland" />
		<tag k="ssr:stedsnr" v="706853" />
	</node>
	<node id="-68402" lat="58.3152666626" lon="7.63847499304">
		<tag k="name" v="Stean" />
		<tag k="natural" v="wetland" />
		<tag k="ssr:stedsnr" v="827586" />
	</node>
	<node id="-66353" lat="58.2623888877" lon="7.68658888669">
		<tag k="name" v="Bumyran" />
		<tag k="natural" v="wetland" />
		<tag k="ssr:stedsnr" v="402612" />
	</node>
	<node id="-66352" lat="58.3424500035" lon="7.62886111277">
		<tag k="name" v="Stedjan" />
		<tag k="natural" v="wetland" />
		<tag k="ssr:stedsnr" v="402611" />
	</node>
	<node id="-68399" lat="58.3126611109" lon="7.68261944187">
		<tag k="name" v="Vestmyra" />
		<tag k="natural" v="wetland" />
		<tag k="ssr:stedsnr" v="827554" />
	</node>
	<node id="-60205" lat="58.2229749974" lon="8.11735556407">
		<tag k="name" v="Fløda" />
		<tag k="place" v="locality" />
		<tag k="ssr:stedsnr" v="166075" />
	</node>
	<node id="-66342" lat="58.2316944485" lon="7.66521111583">
		<tag k="name" v="Store Bjeddansmyr" />
		<tag k="natural" v="wetland" />
		<tag k="ssr:stedsnr" v="402515" />
	</node>
	<node id="-66340" lat="58.2379666643" lon="7.62360277905">
		<tag k="name" v="Blikksmyr" />
		<tag k="natural" v="wetland" />
		<tag k="ssr:stedsnr" v="402480" />
	</node>
	<node id="-66339" lat="58.242855553" lon="7.67497222045">
		<tag k="name" v="Fagerfjellmyr" />
		<tag k="natural" v="wetland" />
		<tag k="ssr:stedsnr" v="402477" />
	</node>
	<node id="-64290" lat="58.2702277778" lon="8.13033332849">
		<tag k="name" v="Grøftemyr" />
		<tag k="natural" v="wetland" />
		<tag k="ssr:stedsnr" v="28300" />
	</node>
	<node id="-68385" lat="58.2837499991" lon="7.65602222026">
		<tag k="name" v="Tuemyr" />
		<tag k="natural" v="wetland" />
		<tag k="ssr:stedsnr" v="827404" />
	</node>
	<node id="-68383" lat="58.301616669" lon="7.55555555507">
		<tag k="name" v="Lønnskarholtet" />
		<tag k="place" v="locality" />
		<tag k="ssr:stedsnr" v="827352" />
	</node>
	<node id="-62238" lat="58.2056333295" lon="7.84987222836">
		<tag k="name" v="Snømyr" />
		<tag k="natural" v="wetland" />
		<tag k="ssr:stedsnr" v="570902" />
	</node>
	<node id="-64284" lat="58.2408138858" lon="8.07431388746">
		<tag k="name" v="Ormestadmyr" />
		<tag k="natural" v="wetland" />
		<tag k="ssr:stedsnr" v="28257" />
	</node>
	<node id="-60107" lat="58.1596250005" lon="7.78779166955">
		<tag k="name" v="Høgekjerran" />
		<tag k="natural" v="wetland" />
		<tag k="ssr:stedsnr" v="159770" />
	</node>
	<node id="-64303" lat="58.2857611106" lon="7.61031111473">
		<tag k="name" v="Storemyr" />
		<tag k="natural" v="wetland" />
		<tag k="ssr:stedsnr" v="38283" />
	</node>
	<node id="-66327" lat="58.2840805543" lon="7.67200277729">
		<tag k="name" v="Engemyr" />
		<tag k="natural" v="wetland" />
		<tag k="ssr:stedsnr" v="402405" />
	</node>
	<node id="-62228" lat="58.3238499996" lon="7.68309999426">
		<tag k="name" v="Stokkemyr" />
		<tag k="natural" v="wetland" />
		<tag k="ssr:stedsnr" v="706551" />
	</node>
	<node id="-62227" lat="58.3330999994" lon="7.70136944149">
		<tag k="name" v="Grasdalsmyr" />
		<tag k="natural" v="wetland" />
		<tag k="ssr:stedsnr" v="706548" />
	</node>
	<node id="-64273" lat="58.2038499974" lon="7.96193610827">
		<tag k="name" v="Korrekjerran" />
		<tag k="natural" v="wetland" />
		<tag k="ssr:stedsnr" v="28352" />
	</node>
	<node id="-64271" lat="58.1994972251" lon="7.95814166669">
		<tag k="name" v="Storemyr" />
		<tag k="natural" v="wetland" />
		<tag k="ssr:stedsnr" v="28345" />
	</node>
	<node id="-68365" lat="58.2601527743" lon="7.58626944956">
		<tag k="name" v="Holtemonen" />
		<tag k="place" v="locality" />
		<tag k="ssr:stedsnr" v="827163" />
	</node>
	<node id="-66315" lat="58.3448250003" lon="7.61044167191">
		<tag k="name" v="Djupekjerran" />
		<tag k="natural" v="wetland" />
		<tag k="ssr:stedsnr" v="402335" />
	</node>
	<node id="-64266" lat="58.2470388884" lon="8.04236945281">
		<tag k="name" v="Posmyr" />
		<tag k="natural" v="wetland" />
		<tag k="ssr:stedsnr" v="28079" />
	</node>
	<node id="-62935" lat="58.2056416709" lon="7.77834445236">
		<tag k="name" v="Vollan" />
		<tag k="place" v="locality" />
		<tag k="ssr:stedsnr" v="888657" />
	</node>
	<node id="-62214" lat="58.2545583377" lon="7.7124416666">
		<tag k="name" v="Bogemyr" />
		<tag k="natural" v="wetland" />
		<tag k="ssr:stedsnr" v="706460" />
	</node>
	<node id="-62213" lat="58.251480552" lon="7.72766110503">
		<tag k="name" v="Skuggesteinen" />
		<tag k="natural" v="stone" />
		<tag k="ssr:stedsnr" v="706446" />
	</node>
	<node id="-64258" lat="58.218861111" lon="7.87986944333">
		<tag k="name" v="Stuemyr" />
		<tag k="natural" v="wetland" />
		<tag k="ssr:stedsnr" v="28123" />
	</node>
	<node id="-62152" lat="58.3301055549" lon="7.60226111101">
		<tag k="name" v="Edjan" />
		<tag k="natural" v="wetland" />
		<tag k="ssr:stedsnr" v="705372" />
	</node>
	<node id="-64256" lat="58.2219277803" lon="7.87038055396">
		<tag k="name" v="Tvillingmyr" />
		<tag k="natural" v="wetland" />
		<tag k="ssr:stedsnr" v="28118" />
	</node>
	<node id="-66302" lat="58.2890194479" lon="7.56798889585">
		<tag k="name" v="Orlingskarten" />
		<tag k="natural" v="wetland" />
		<tag k="ssr:stedsnr" v="402258" />
	</node>
	<node id="-68346" lat="58.2000916684" lon="7.98027222352">
		<tag k="name" v="Røyrmyr" />
		<tag k="natural" v="wetland" />
		<tag k="ssr:stedsnr" v="817332" />
	</node>
	<node id="-62172" lat="58.1458888929" lon="7.81344999234">
		<tag k="name" v="Grønland" />
		<tag k="natural" v="wetland" />
		<tag k="ssr:stedsnr" v="705764" />
	</node>
	<node id="-62200" lat="58.2894833327" lon="7.72073332961">
		<tag k="name" v="Gyslåtta" />
		<tag k="natural" v="wetland" />
		<tag k="ssr:stedsnr" v="706380" />
	</node>
	<node id="-66295" lat="58.2544583295" lon="7.594349994">
		<tag k="name" v="Småstean" />
		<tag k="natural" v="wetland" />
		<tag k="ssr:stedsnr" v="402212" />
	</node>
	<node id="-62970" lat="58.1919944438" lon="7.79633054837">
		<tag k="name" v="Vefelneset" />
		<tag k="place" v="locality" />
		<tag k="ssr:stedsnr" v="888869" />
	</node>
	<node id="-66293" lat="58.2337277764" lon="7.85511943882">
		<tag k="name" v="Dypemyr" />
		<tag k="natural" v="wetland" />
		<tag k="ssr:stedsnr" v="402205" />
	</node>
	<node id="-62195" lat="58.2922833294" lon="7.65633889134">
		<tag k="name" v="Snømyr" />
		<tag k="natural" v="wetland" />
		<tag k="ssr:stedsnr" v="706356" />
	</node>
	<node id="-60146" lat="58.1801222214" lon="7.77056388274">
		<tag k="name" v="Høgåsmyr" />
		<tag k="natural" v="wetland" />
		<tag k="ssr:stedsnr" v="160866" />
	</node>
	<node id="-68337" lat="58.2240194424" lon="8.01286111678">
		<tag k="name" v="Bjørkekjerr" />
		<tag k="natural" v="wetland" />
		<tag k="ssr:stedsnr" v="817184" />
	</node>
	<node id="-68336" lat="58.2272861084" lon="8.01468889129">
		<tag k="name" v="Hessmyr" />
		<tag k="natural" v="wetland" />
		<tag k="ssr:stedsnr" v="817183" />
	</node>
	<node id="-68335" lat="58.270213891" lon="8.12416388395">
		<tag k="name" v="Krossmyr" />
		<tag k="natural" v="wetland" />
		<tag k="ssr:stedsnr" v="817287" />
	</node>
	<node id="-65661" lat="58.2341666684" lon="8.04431943724">
		<tag k="name" v="Storemyr" />
		<tag k="natural" v="wetland" />
		<tag k="ssr:stedsnr" v="210187" />
	</node>
	<node id="-68330" lat="58.2355083297" lon="7.88067222488">
		<tag k="name" v="Drogmyr" />
		<tag k="natural" v="wetland" />
		<tag k="ssr:stedsnr" v="817138" />
	</node>
	<node id="-68732" lat="58.1432222196" lon="7.71751388168">
		<tag k="name" v="Bronemyra" />
		<tag k="natural" v="wetland" />
		<tag k="ssr:stedsnr" v="871201" />
	</node>
	<node id="-68326" lat="58.2440555518" lon="7.9923638851">
		<tag k="name" v="Ryttermyr" />
		<tag k="natural" v="wetland" />
		<tag k="ssr:stedsnr" v="817080" />
	</node>
	<node id="-60881" lat="58.2623111074" lon="7.67819444076">
		<tag k="name" v="Kromyran" />
		<tag k="natural" v="wetland" />
		<tag k="ssr:stedsnr" v="463600" />
	</node>
	<node id="-66272" lat="58.1198083308" lon="7.89181944969">
		<tag k="name" v="Busteinen" />
		<tag k="natural" v="stone" />
		<tag k="ssr:stedsnr" v="402822" />
	</node>
	<node id="-62175" lat="58.162919443" lon="7.82930277513">
		<tag k="historic" v="shieling" />
		<tag k="name" v="Dyrskueplassen" />
		<tag k="place" v="locality" />
		<tag k="ssr:stedsnr" v="705793" />
	</node>
	<node id="-64220" lat="58.132205555" lon="7.67935833973">
		<tag k="name" v="Trollmyra" />
		<tag k="natural" v="wetland" />
		<tag k="ssr:stedsnr" v="21264" />
	</node>
	<node id="-66265" lat="58.2232666624" lon="8.06535278136">
		<tag k="name" v="Pinnemyr" />
		<tag k="natural" v="wetland" />
		<tag k="ssr:stedsnr" v="392477" />
	</node>
	<node id="-62168" lat="58.1869583314" lon="7.78386388146">
		<tag k="name" v="Store Øygard" />
		<tag k="natural" v="wetland" />
		<tag k="ssr:stedsnr" v="705728" />
	</node>
	<node id="-62167" lat="58.1976555524" lon="7.80032777458">
		<tag k="name" v="Bjelkekjerret" />
		<tag k="natural" v="wetland" />
		<tag k="ssr:stedsnr" v="705725" />
	</node>
	<node id="-64091" lat="58.0853388929" lon="8.01026944066">
		<tag k="name" v="Revemyra" />
		<tag k="natural" v="wetland" />
		<tag k="ssr:stedsnr" v="956331" />
	</node>
	<node id="-60117" lat="58.3163249991" lon="7.60364166281">
		<tag k="name" v="Vonslemyr" />
		<tag k="natural" v="wetland" />
		<tag k="ssr:stedsnr" v="160324" />
	</node>
	<node id="-60116" lat="58.3109027773" lon="7.6124527712">
		<tag k="name" v="Dyblemyr" />
		<tag k="natural" v="wetland" />
		<tag k="ssr:stedsnr" v="160303" />
	</node>
	<node id="-60115" lat="58.3130277777" lon="7.59810833357">
		<tag k="name" v="Lemmyr" />
		<tag k="natural" v="wetland" />
		<tag k="ssr:stedsnr" v="160302" />
	</node>
	<node id="-64210" lat="58.1327055513" lon="7.73995832545">
		<tag k="name" v="Kringlemyra" />
		<tag k="natural" v="wetland" />
		<tag k="ssr:stedsnr" v="21377" />
	</node>
	<node id="-68387" lat="58.281738893" lon="7.66282778368">
		<tag k="name" v="Langemyran" />
		<tag k="natural" v="wetland" />
		<tag k="ssr:stedsnr" v="827415" />
	</node>
	<node id="-64208" lat="58.1421444476" lon="7.74476388986">
		<tag k="name" v="Røyrmyra" />
		<tag k="natural" v="wetland" />
		<tag k="ssr:stedsnr" v="21374" />
	</node>
	<node id="-66252" lat="58.230249998" lon="7.85616666311">
		<tag k="name" v="Persmyr" />
		<tag k="natural" v="wetland" />
		<tag k="ssr:stedsnr" v="392133" />
	</node>
	<node id="-62155" lat="58.236711108" lon="7.64132222136">
		<tag k="name" v="Trollemyr" />
		<tag k="natural" v="wetland" />
		<tag k="ssr:stedsnr" v="705525" />
	</node>
	<node id="-62154" lat="58.2421055518" lon="7.66604167491">
		<tag k="name" v="Vestre Tverrmyr" />
		<tag k="natural" v="wetland" />
		<tag k="ssr:stedsnr" v="705520" />
	</node>
	<node id="-68296" lat="58.2330166633" lon="7.63855000087">
		<tag k="name" v="Blautemyr" />
		<tag k="natural" v="wetland" />
		<tag k="ssr:stedsnr" v="811626" />
	</node>
	<node id="-66337" lat="58.2442027774" lon="7.66349165955">
		<tag k="name" v="Mæselmyra" />
		<tag k="natural" v="wetland" />
		<tag k="ssr:stedsnr" v="402472" />
	</node>
	<node id="-66244" lat="58.2091305537" lon="7.88797777007">
		<tag k="name" v="Buheimyra" />
		<tag k="natural" v="wetland" />
		<tag k="ssr:stedsnr" v="388887" />
	</node>
	<node id="-68726" lat="58.108244448" lon="7.67183055644">
		<tag k="name" v="Flormyr" />
		<tag k="natural" v="wetland" />
		<tag k="ssr:stedsnr" v="871081" />
	</node>
	<node id="-62145" lat="58.3408749982" lon="7.61781667496">
		<tag k="name" v="Pausekarten" />
		<tag k="natural" v="wetland" />
		<tag k="ssr:stedsnr" v="705203" />
	</node>
	<node id="-66238" lat="58.1979888845" lon="7.94539445193">
		<tag k="name" v="Svinekjerr" />
		<tag k="natural" v="wetland" />
		<tag k="ssr:stedsnr" v="388035" />
	</node>
	<node id="-60093" lat="58.3037888923" lon="7.6230861083">
		<tag k="name" v="Krugemyr" />
		<tag k="natural" v="wetland" />
		<tag k="ssr:stedsnr" v="159609" />
	</node>
	<node id="-60091" lat="58.2905222266" lon="7.69626388617">
		<tag k="name" v="Holemyr" />
		<tag k="natural" v="wetland" />
		<tag k="ssr:stedsnr" v="159465" />
	</node>
	<node id="-60087" lat="58.2272222217" lon="7.70675278254">
		<tag k="name" v="Løemyr" />
		<tag k="natural" v="wetland" />
		<tag k="ssr:stedsnr" v="159526" />
	</node>
	<node id="-60084" lat="58.3078250029" lon="7.56694444059">
		<tag k="name" v="Kvile" />
		<tag k="place" v="locality" />
		<tag k="ssr:stedsnr" v="159377" />
	</node>
	<node id="-64286" lat="58.2704944445" lon="8.1649916633">
		<tag k="name" v="Krogen" />
		<tag k="natural" v="wetland" />
		<tag k="ssr:stedsnr" v="28280" />
	</node>
	<node id="-66226" lat="58.1049638926" lon="7.72612499834">
		<tag k="name" v="Eigeflåmyra" />
		<tag k="natural" v="wetland" />
		<tag k="ssr:stedsnr" v="385984" />
	</node>
	<node id="-66225" lat="58.1557333337" lon="7.73620000614">
		<tag k="name" v="Lonemyr" />
		<tag k="natural" v="wetland" />
		<tag k="ssr:stedsnr" v="385979" />
	</node>
	<node id="-60872" lat="58.2384444489" lon="7.86623054907">
		<tag k="name" v="Røyrmyr" />
		<tag k="natural" v="wetland" />
		<tag k="ssr:stedsnr" v="289821" />
	</node>
	<node id="-60077" lat="58.2463972221" lon="7.6185638906">
		<tag k="name" v="Porsmyr" />
		<tag k="natural" v="wetland" />
		<tag k="ssr:stedsnr" v="159208" />
	</node>
	<node id="-62124" lat="58.2443138899" lon="8.1751083317">
		<tag k="name" v="Porskjerr" />
		<tag k="natural" v="wetland" />
		<tag k="ssr:stedsnr" v="696372" />
	</node>
	<node id="-60069" lat="58.2106000007" lon="8.17553888176">
		<tag k="name" v="Graskjerr" />
		<tag k="natural" v="wetland" />
		<tag k="ssr:stedsnr" v="149376" />
	</node>
	<node id="-68258" lat="58.1265499961" lon="7.64928610342">
		<tag k="name" v="Storemyr" />
		<tag k="natural" v="wetland" />
		<tag k="ssr:stedsnr" v="810083" />
	</node>
	<node id="-60064" lat="58.1944944415" lon="7.99292222528">
		<tag k="name" v="Bestefarskjerret" />
		<tag k="natural" v="wetland" />
		<tag k="ssr:stedsnr" v="149324" />
	</node>
	<node id="-68254" lat="58.1485055526" lon="7.63327221444">
		<tag k="name" v="Stimyra" />
		<tag k="natural" v="wetland" />
		<tag k="ssr:stedsnr" v="810047" />
	</node>
	<node id="-66205" lat="58.120899999" lon="7.67444166399">
		<tag k="name" v="Flormyra" />
		<tag k="natural" v="wetland" />
		<tag k="ssr:stedsnr" v="385051" />
	</node>
	<node id="-62626" lat="58.1197055598" lon="7.63195555853">
		<tag k="name" v="Storestedjan" />
		<tag k="natural" v="wetland" />
		<tag k="ssr:stedsnr" v="627095" />
	</node>
	<node id="-60868" lat="58.1518249998" lon="7.91339166923">
		<tag k="name" v="Jentetjønnsmyra" />
		<tag k="natural" v="wetland" />
		<tag k="ssr:stedsnr" v="289411" />
	</node>
	<node id="-64281" lat="58.2422138857" lon="8.11573889085">
		<tag k="name" v="Tranlemyr" />
		<tag k="natural" v="wetland" />
		<tag k="ssr:stedsnr" v="28240" />
	</node>
	<node id="-60052" lat="58.2017916679" lon="7.88958888192">
		<tag k="name" v="Langemyr" />
		<tag k="natural" v="wetland" />
		<tag k="ssr:stedsnr" v="145927" />
	</node>
	<node id="-66195" lat="58.1334694433" lon="7.6279416592">
		<tag k="name" v="Byttingsmyr" />
		<tag k="natural" v="wetland" />
		<tag k="ssr:stedsnr" v="385029" />
	</node>
	<node id="-66194" lat="58.1304888866" lon="7.64307222479">
		<tag k="name" v="Skoddemyr" />
		<tag k="natural" v="wetland" />
		<tag k="ssr:stedsnr" v="385022" />
	</node>
	<node id="-66193" lat="58.101847225" lon="7.65501111216">
		<tag k="name" v="Stea" />
		<tag k="natural" v="wetland" />
		<tag k="ssr:stedsnr" v="385012" />
	</node>
	<node id="-62096" lat="58.2038611121" lon="7.86723333543">
		<tag k="name" v="Røyrmyr" />
		<tag k="natural" v="wetland" />
		<tag k="ssr:stedsnr" v="692901" />
	</node>
	<node id="-60042" lat="58.2733972252" lon="8.13319999213">
		<tag k="alt_name" v="Spennekjær" />
		<tag k="name" v="Spennekjerr" />
		<tag k="natural" v="wetland" />
		<tag k="ssr:stedsnr" v="271345" />
	</node>
	<node id="-65626" lat="58.1808333318" lon="7.89998888593">
		<tag k="name" v="Øygardsmyra" />
		<tag k="natural" v="wetland" />
		<tag k="ssr:stedsnr" v="206013" />
	</node>
	<node id="-62088" lat="58.2015277814" lon="7.86942778512">
		<tag k="name" v="Hågånmyr" />
		<tag k="natural" v="wetland" />
		<tag k="ssr:stedsnr" v="692056" />
	</node>
	<node id="-62085" lat="58.1984805583" lon="7.92618333142">
		<tag k="name" v="Engvanningsmyra" />
		<tag k="natural" v="wetland" />
		<tag k="ssr:stedsnr" v="692039" />
	</node>
	<node id="-60036" lat="58.2600472187" lon="8.12302221759">
		<tag k="name" v="Hestemyr" />
		<tag k="natural" v="wetland" />
		<tag k="ssr:stedsnr" v="271237" />
	</node>
	<node id="-65984" lat="58.2326111092" lon="7.82738333213">
		<tag k="name" v="Krogevannsmyra" />
		<tag k="natural" v="wetland" />
		<tag k="ssr:stedsnr" v="342781" />
	</node>
	<node id="-60029" lat="58.2679750021" lon="8.03898333211">
		<tag k="alt_name" v="Skrovelkjerr" />
		<tag k="name" v="Skrovellkjerr" />
		<tag k="natural" v="wetland" />
		<tag k="ssr:stedsnr" v="271199" />
	</node>
	<node id="-66323" lat="58.3110416632" lon="7.5766861138">
		<tag k="name" v="Håbakkmyra" />
		<tag k="natural" v="wetland" />
		<tag k="ssr:stedsnr" v="402377" />
	</node>
	<node id="-62063" lat="58.2025888922" lon="8.00667778304">
		<tag k="name" v="Malermyra" />
		<tag k="natural" v="wetland" />
		<tag k="ssr:stedsnr" v="531649" />
	</node>
	<node id="-62062" lat="58.204819444" lon="8.01200555862">
		<tag k="name" v="Kringlemyr" />
		<tag k="natural" v="wetland" />
		<tag k="ssr:stedsnr" v="531648" />
	</node>
	<node id="-62059" lat="58.2085555564" lon="8.01108888697">
		<tag k="name" v="Vølemyr" />
		<tag k="natural" v="wetland" />
		<tag k="ssr:stedsnr" v="531639" />
	</node>
	<node id="-65639" lat="58.2122527768" lon="7.8813749968">
		<tag k="name" v="Surtemyr" />
		<tag k="natural" v="wetland" />
		<tag k="ssr:stedsnr" v="206907" />
	</node>
	<node id="-60007" lat="58.2079861113" lon="7.94275277566">
		<tag k="name" v="Storemyr" />
		<tag k="natural" v="wetland" />
		<tag k="ssr:stedsnr" v="267032" />
	</node>
	<node id="-66102" lat="58.2242222254" lon="8.10398611337">
		<tag k="name" v="Småmyrene" />
		<tag k="natural" v="wetland" />
		<tag k="ssr:stedsnr" v="349370" />
	</node>
	<node id="-68188" lat="58.1954027811" lon="7.91797500574">
		<tag k="name" v="Godestø" />
		<tag k="natural" v="wetland" />
		<tag k="ssr:stedsnr" v="774896" />
	</node>
	<node id="-62906" lat="58.2967111102" lon="7.6410805551">
		<tag k="name" v="Storemyr" />
		<tag k="natural" v="wetland" />
		<tag k="ssr:stedsnr" v="888345" />
	</node>
	<node id="-68367" lat="58.3333833329" lon="7.61395000331">
		<tag k="name" v="Dyblemyr" />
		<tag k="natural" v="wetland" />
		<tag k="ssr:stedsnr" v="827177" />
	</node>
	<node id="-59992" lat="58.1230861071" lon="7.61273332907">
		<tag k="name" v="Hepte" />
		<tag k="natural" v="wetland" />
		<tag k="ssr:stedsnr" v="264974" />
	</node>
	<node id="-59990" lat="58.113366668" lon="7.61385278611">
		<tag k="name" v="Fjordingsmyr" />
		<tag k="natural" v="wetland" />
		<tag k="ssr:stedsnr" v="264969" />
	</node>
	<node id="-59989" lat="58.144994445" lon="7.61568056214">
		<tag k="name" v="Gangsmyr" />
		<tag k="natural" v="wetland" />
		<tag k="ssr:stedsnr" v="264950" />
	</node>
	<node id="-62036" lat="58.0873333323" lon="7.86274723066">
		<tag k="name" v="Bergemyr" />
		<tag k="natural" v="wetland" />
		<tag k="ssr:stedsnr" v="689333" />
	</node>
	<node id="-68179" lat="58.1910666654" lon="8.1006638951">
		<tag k="name" v="Kringlemyr" />
		<tag k="natural" v="wetland" />
		<tag k="ssr:stedsnr" v="774388" />
	</node>
	<node id="-67670" lat="58.1833166645" lon="7.75921389172">
		<tag k="name" v="Øvre Åsene" />
		<tag k="place" v="locality" />
		<tag k="ssr:stedsnr" v="645614" />
	</node>
	<node id="-68169" lat="58.2160499994" lon="8.13115556277">
		<tag k="name" v="Beresmyr" />
		<tag k="natural" v="wetland" />
		<tag k="ssr:stedsnr" v="774352" />
	</node>
	<node id="-59976" lat="58.1324361128" lon="7.77907221983">
		<tag k="name" v="Lindåskjerran" />
		<tag k="natural" v="wetland" />
		<tag k="ssr:stedsnr" v="264342" />
	</node>
	<node id="-62021" lat="58.0958194475" lon="7.74947778567">
		<tag k="name" v="Ormelia" />
		<tag k="place" v="locality" />
		<tag k="ssr:stedsnr" v="689166" />
	</node>
	<node id="-68164" lat="58.2529222243" lon="8.03619444197">
		<tag k="name" v="Kyrkleivslåttene" />
		<tag k="place" v="locality" />
		<tag k="ssr:stedsnr" v="774233" />
	</node>
	<node id="-62019" lat="58.0970111092" lon="7.76452222576">
		<tag k="name" v="Halia" />
		<tag k="place" v="locality" />
		<tag k="ssr:stedsnr" v="689155" />
	</node>
	<node id="-59966" lat="58.1304277771" lon="7.72819166626">
		<tag k="name" v="Ormesland" />
		<tag k="natural" v="wetland" />
		<tag k="ssr:stedsnr" v="264232" />
	</node>
	<node id="-59965" lat="58.1429388855" lon="7.71299721621">
		<tag k="name" v="Kjellingen" />
		<tag k="natural" v="wetland" />
		<tag k="ssr:stedsnr" v="264225" />
	</node>
	<node id="-65828" lat="58.2152833329" lon="8.06813333045">
		<tag k="name" v="Bjørnemyr" />
		<tag k="natural" v="wetland" />
		<tag k="ssr:stedsnr" v="331158" />
	</node>
	<node id="-68154" lat="58.1924444487" lon="7.92182221474">
		<tag k="name" v="Kalvekjerr" />
		<tag k="natural" v="wetland" />
		<tag k="ssr:stedsnr" v="773950" />
	</node>
	<node id="-68153" lat="58.175886109" lon="7.97095833307">
		<tag k="name" v="Brudesteinen" />
		<tag k="natural" v="stone" />
		<tag k="ssr:stedsnr" v="773935" />
	</node>
	<node id="-68152" lat="58.1940194471" lon="8.04969444157">
		<tag k="landuse" v="meadow" />
		<tag k="name" v="Jernesvolden" />
		<tag k="ssr:stedsnr" v="773644" />
	</node>
	<node id="-59959" lat="58.0970638869" lon="7.73451389428">
		<tag k="name" v="Stølen" />
		<tag k="natural" v="wetland" />
		<tag k="ssr:stedsnr" v="264154" />
	</node>
	<node id="-68150" lat="58.1539583351" lon="8.1413333404">
		<tag k="name" v="Blåmyra" />
		<tag k="natural" v="wetland" />
		<tag k="ssr:stedsnr" v="773605" />
	</node>
	<node id="-66313" lat="58.3447888869" lon="7.61783333737">
		<tag k="name" v="Krossmyr" />
		<tag k="natural" v="wetland" />
		<tag k="ssr:stedsnr" v="402332" />
	</node>
	<node id="-68144" lat="58.2274944473" lon="8.03173888047">
		<tag k="name" v="Kalvehaven" />
		<tag k="place" v="locality" />
		<tag k="ssr:stedsnr" v="773139" />
	</node>
	<node id="-59951" lat="58.0923166709" lon="7.66818054857">
		<tag k="name" v="Ospedalsmyra" />
		<tag k="natural" v="wetland" />
		<tag k="ssr:stedsnr" v="264005" />
	</node>
	<node id="-64036" lat="58.1371666669" lon="7.874130551">
		<tag k="name" v="Kartmyr" />
		<tag k="natural" v="wetland" />
		<tag k="ssr:stedsnr" v="949717" />
	</node>
	<node id="-66083" lat="58.197713892" lon="8.17246945275">
		<tag k="name" v="Nordkjerr" />
		<tag k="natural" v="wetland" />
		<tag k="ssr:stedsnr" v="348877" />
	</node>
	<node id="-61984" lat="58.2215638872" lon="7.7827666592">
		<tag k="name" v="Urdalsstean" />
		<tag k="natural" v="wetland" />
		<tag k="ssr:stedsnr" v="524800" />
	</node>
	<node id="-61981" lat="58.2162694475" lon="7.74833332781">
		<tag k="name" v="Aslakskjerret" />
		<tag k="natural" v="wetland" />
		<tag k="ssr:stedsnr" v="524795" />
	</node>
	<node id="-61979" lat="58.2212166658" lon="7.79481944484">
		<tag k="name" v="Kjerran" />
		<tag k="natural" v="wetland" />
		<tag k="ssr:stedsnr" v="524773" />
	</node>
	<node id="-61976" lat="58.1260305581" lon="7.84765832673">
		<tag k="name" v="Kråkeneset" />
		<tag k="place" v="locality" />
		<tag k="ssr:stedsnr" v="524757" />
	</node>
	<node id="-67332" lat="58.2229888872" lon="8.15850833871">
		<tag k="name" v="Skåtmyr" />
		<tag k="natural" v="wetland" />
		<tag k="ssr:stedsnr" v="592172" />
	</node>
	<node id="-66990" lat="58.1178861125" lon="7.68798611309">
		<tag k="name" v="Paulane" />
		<tag k="natural" v="wetland" />
		<tag k="ssr:stedsnr" v="567053" />
	</node>
	<node id="-64016" lat="58.2930666704" lon="7.72366667062">
		<tag k="name" v="Pantemyr" />
		<tag k="natural" v="wetland" />
		<tag k="ssr:stedsnr" v="949353" />
	</node>
	<node id="-64013" lat="58.2348388927" lon="7.67017777051">
		<tag k="name" v="Lille Bjeddansmyr" />
		<tag k="natural" v="wetland" />
		<tag k="ssr:stedsnr" v="949404" />
	</node>
	<node id="-61963" lat="58.2681333304" lon="7.63946111855">
		<tag k="name" v="Småstean" />
		<tag k="natural" v="wetland" />
		<tag k="ssr:stedsnr" v="524552" />
	</node>
	<node id="-64003" lat="58.1617972264" lon="7.77647499533">
		<tag k="name" v="Stolpåsmyra" />
		<tag k="natural" v="wetland" />
		<tag k="ssr:stedsnr" v="948803" />
	</node>
	<node id="-63995" lat="58.2391527759" lon="7.67611666955">
		<tag k="name" v="Lonemyr" />
		<tag k="natural" v="wetland" />
		<tag k="ssr:stedsnr" v="948506" />
	</node>
	<node id="-59894" lat="58.1672444457" lon="7.86060278462">
		<tag k="name" v="Tunballen" />
		<tag k="place" v="locality" />
		<tag k="ssr:stedsnr" v="99811" />
	</node>
	<node id="-59887" lat="58.16981389" lon="7.7885083257">
		<tag k="name" v="Trandlemyr" />
		<tag k="natural" v="wetland" />
		<tag k="ssr:stedsnr" v="99754" />
	</node>
	<node id="-63981" lat="58.266738889" lon="7.57828610605">
		<tag k="name" v="Storemyr" />
		<tag k="natural" v="wetland" />
		<tag k="ssr:stedsnr" v="948158" />
	</node>
	<node id="-63980" lat="58.2820972247" lon="7.57864166279">
		<tag k="name" v="Stimyr" />
		<tag k="natural" v="wetland" />
		<tag k="ssr:stedsnr" v="948154" />
	</node>
	<node id="-61930" lat="58.1632972244" lon="7.80039444714">
		<tag k="name" v="Bladmyr" />
		<tag k="natural" v="wetland" />
		<tag k="ssr:stedsnr" v="523775" />
	</node>
	<node id="-63976" lat="58.2454250022" lon="8.08676944678">
		<tag k="name" v="Krogtjønnmyra" />
		<tag k="natural" v="wetland" />
		<tag k="ssr:stedsnr" v="938229" />
	</node>
	<node id="-59879" lat="58.2570694406" lon="7.68131111852">
		<tag k="name" v="Tjørrgårdsmyr" />
		<tag k="natural" v="wetland" />
		<tag k="ssr:stedsnr" v="99504" />
	</node>
	<node id="-61925" lat="58.0555694403" lon="7.69649721426">
		<tag k="name" v="Skarvemyra" />
		<tag k="natural" v="wetland" />
		<tag k="ssr:stedsnr" v="688134" />
	</node>
	<node id="-61923" lat="58.3297861092" lon="7.61235000372">
		<tag k="name" v="Espelandskjerret" />
		<tag k="natural" v="wetland" />
		<tag k="ssr:stedsnr" v="523366" />
	</node>
	<node id="-63970" lat="58.236172224" lon="7.99186388039">
		<tag k="name" v="Snømyr" />
		<tag k="natural" v="wetland" />
		<tag k="ssr:stedsnr" v="938334" />
	</node>
	<node id="-63969" lat="58.2659638874" lon="8.07213055463">
		<tag k="name" v="Krossemyr" />
		<tag k="place" v="locality" />
		<tag k="ssr:stedsnr" v="938316" />
	</node>
	<node id="-63968" lat="58.2322527737" lon="8.14803055326">
		<tag k="name" v="Store Krogemyr" />
		<tag k="natural" v="wetland" />
		<tag k="ssr:stedsnr" v="938307" />
	</node>
	<node id="-61919" lat="58.0578694484" lon="7.67835555853">
		<tag k="name" v="Krogvannsmyra" />
		<tag k="natural" v="wetland" />
		<tag k="ssr:stedsnr" v="688120" />
	</node>
	<node id="-65839" lat="58.2720944449" lon="8.12563611285">
		<tag k="name" v="Skåttemyr" />
		<tag k="natural" v="wetland" />
		<tag k="ssr:stedsnr" v="331285" />
	</node>
	<node id="-59869" lat="58.2530777785" lon="7.59781388358">
		<tag k="name" v="Lundemyr" />
		<tag k="natural" v="wetland" />
		<tag k="ssr:stedsnr" v="99207" />
	</node>
	<node id="-66298" lat="58.295938889" lon="7.56025000203">
		<tag k="name" v="Kartemyr" />
		<tag k="natural" v="wetland" />
		<tag k="ssr:stedsnr" v="402222" />
	</node>
	<node id="-63962" lat="58.1858194472" lon="7.89275000108">
		<tag k="name" v="Svinemyra" />
		<tag k="natural" v="wetland" />
		<tag k="ssr:stedsnr" v="935016" />
	</node>
	<node id="-63961" lat="58.209208334" lon="7.85850833544">
		<tag k="alt_name" v="Løuløkjerret" />
		<tag k="name" v="Lauløkjerret" />
		<tag k="natural" v="wetland" />
		<tag k="ssr:stedsnr" v="934910" />
	</node>
	<node id="-59862" lat="58.3122583353" lon="7.5766472201">
		<tag k="name" v="Geitebukkmyra" />
		<tag k="natural" v="wetland" />
		<tag k="ssr:stedsnr" v="99366" />
	</node>
	<node id="-59857" lat="58.2002166701" lon="7.79389722973">
		<tag k="name" v="Stokken" />
		<tag k="place" v="locality" />
		<tag k="ssr:stedsnr" v="98654" />
	</node>
	<node id="-66296" lat="58.2556305541" lon="7.6177555624">
		<tag k="name" v="Storekarten" />
		<tag k="natural" v="wetland" />
		<tag k="ssr:stedsnr" v="402213" />
	</node>
	<node id="-68143" lat="58.2172499994" lon="8.018561106">
		<tag k="name" v="Solmyr" />
		<tag k="natural" v="wetland" />
		<tag k="ssr:stedsnr" v="773127" />
	</node>
	<node id="-60846" lat="58.312633334" lon="7.71247221664">
		<tag k="name" v="Kvinnemyran" />
		<tag k="natural" v="wetland" />
		<tag k="ssr:stedsnr" v="463484" />
	</node>
	<node id="-61899" lat="58.1249333346" lon="7.64134999455">
		<tag k="name" v="Kartmyr" />
		<tag k="natural" v="wetland" />
		<tag k="ssr:stedsnr" v="688063" />
	</node>
	<node id="-63946" lat="58.1170694424" lon="7.67898055813">
		<tag k="name" v="Breivigmyra" />
		<tag k="natural" v="wetland" />
		<tag k="ssr:stedsnr" v="931049" />
	</node>
	<node id="-61897" lat="58.3329777786" lon="7.60988055922">
		<tag k="name" v="Røyråskjerret" />
		<tag k="natural" v="wetland" />
		<tag k="ssr:stedsnr" v="523190" />
	</node>
	<node id="-61893" lat="58.2747277793" lon="7.60337499944">
		<tag k="name" v="Kleivekarten" />
		<tag k="natural" v="wetland" />
		<tag k="ssr:stedsnr" v="523159" />
	</node>
	<node id="-59844" lat="58.1336694419" lon="7.90518332972">
		<tag k="name" v="Godthola" />
		<tag k="natural" v="wetland" />
		<tag k="ssr:stedsnr" v="85867" />
	</node>
	<node id="-64246" lat="58.2144194448" lon="7.9049083389">
		<tag k="name" v="Langemyr" />
		<tag k="natural" v="wetland" />
		<tag k="ssr:stedsnr" v="24044" />
	</node>
	<node id="-68279" lat="58.1310444422" lon="7.74979999959">
		<tag k="name" v="Tjådeland" />
		<tag k="place" v="locality" />
		<tag k="ssr:stedsnr" v="810345" />
	</node>
	<node id="-61888" lat="58.0986999982" lon="7.65814166291">
		<tag k="name" v="Larsesmyr" />
		<tag k="natural" v="wetland" />
		<tag k="ssr:stedsnr" v="688010" />
	</node>
	<node id="-61883" lat="58.1899416694" lon="7.96583889321">
		<tag k="name" v="Skråstadmyra" />
		<tag k="natural" v="wetland" />
		<tag k="ssr:stedsnr" v="513091" />
	</node>
	<node id="-61879" lat="58.2572166654" lon="8.01953333799">
		<tag k="alt_name" v="Kalkgruene" />
		<tag k="landuse" v="quarry" />
		<tag k="name" v="Kalkgruvene" />
		<tag k="ssr:stedsnr" v="513082" />
	</node>
	<node id="-61876" lat="58.1635055559" lon="7.90240277568">
		<tag k="name" v="Eigebjønndalsmyra" />
		<tag k="natural" v="wetland" />
		<tag k="ssr:stedsnr" v="509875" />
	</node>
	<node id="-63919" lat="58.0858777749" lon="8.00597222721">
		<tag k="name" v="Storemyra" />
		<tag k="natural" v="wetland" />
		<tag k="ssr:stedsnr" v="896601" />
	</node>
	<node id="-59822" lat="58.057227777" lon="7.66343888391">
		<tag k="name" v="Store Myrer" />
		<tag k="natural" v="wetland" />
		<tag k="ssr:stedsnr" v="82113" />
	</node>
	<node id="-66290" lat="58.3309444438" lon="7.6132944374">
		<tag k="name" v="Tolleholtan" />
		<tag k="place" v="locality" />
		<tag k="ssr:stedsnr" v="402168" />
	</node>
	<node id="-68008" lat="58.3506055518" lon="7.57005834076">
		<tag k="name" v="Orreleikmyr" />
		<tag k="natural" v="wetland" />
		<tag k="ssr:stedsnr" v="767226" />
	</node>
	<node id="-59814" lat="58.1023388903" lon="7.6747499995">
		<tag k="name" v="Holmensmyra" />
		<tag k="natural" v="wetland" />
		<tag k="ssr:stedsnr" v="82013" />
	</node>
	<node id="-60145" lat="58.1743361125" lon="7.78270555306">
		<tag k="name" v="Orremyr" />
		<tag k="natural" v="wetland" />
		<tag k="ssr:stedsnr" v="160863" />
	</node>
	<node id="-66288" lat="58.273074996" lon="7.57501110375">
		<tag k="name" v="Pytten" />
		<tag k="natural" v="wetland" />
		<tag k="ssr:stedsnr" v="402140" />
	</node>
	<node id="-67323" lat="58.1552444461" lon="7.9156694432">
		<tag k="name" v="Lillejordet" />
		<tag k="place" v="locality" />
		<tag k="ssr:stedsnr" v="591966" />
	</node>
	<node id="-68414" lat="58.1687138862" lon="7.8215138957">
		<tag k="name" v="Grosmyr" />
		<tag k="natural" v="wetland" />
		<tag k="ssr:stedsnr" v="827797" />
	</node>
	<node id="-65604" lat="58.0812055558" lon="7.66826944397">
		<tag k="name" v="Skredderkjerret" />
		<tag k="natural" v="wetland" />
		<tag k="ssr:stedsnr" v="203943" />
	</node>
	<node id="-63894" lat="58.1600055585" lon="7.77911666119">
		<tag k="name" v="Røyrmyr" />
		<tag k="natural" v="wetland" />
		<tag k="ssr:stedsnr" v="888709" />
	</node>
	<node id="-63893" lat="58.3213138859" lon="7.70853888526">
		<tag k="name" v="Varmekroken" />
		<tag k="natural" v="wetland" />
		<tag k="ssr:stedsnr" v="888530" />
	</node>
	<node id="-63891" lat="58.3061444465" lon="7.66922222179">
		<tag k="name" v="Snømyr" />
		<tag k="natural" v="wetland" />
		<tag k="ssr:stedsnr" v="888521" />
	</node>
	<node id="-65938" lat="58.2320055562" lon="7.65243611955">
		<tag k="name" v="Eikeråsmyra" />
		<tag k="natural" v="wetland" />
		<tag k="ssr:stedsnr" v="342410" />
	</node>
	<node id="-63888" lat="58.1355305542" lon="7.80716666092">
		<tag k="name" v="Folemyra" />
		<tag k="natural" v="wetland" />
		<tag k="ssr:stedsnr" v="888626" />
	</node>
	<node id="-65933" lat="58.3141638858" lon="7.61844721732">
		<tag k="name" v="Kvinneholtan" />
		<tag k="place" v="locality" />
		<tag k="ssr:stedsnr" v="342321" />
	</node>
	<node id="-65932" lat="58.3028972196" lon="7.57326944149">
		<tag k="name" v="Snømyran" />
		<tag k="natural" v="wetland" />
		<tag k="ssr:stedsnr" v="342250" />
	</node>
	<node id="-63883" lat="58.2224805566" lon="7.71583611941">
		<tag k="name" v="Feringsmyr" />
		<tag k="natural" v="wetland" />
		<tag k="ssr:stedsnr" v="888422" />
	</node>
	<node id="-67972" lat="58.3327111144" lon="7.71201111043">
		<tag k="name" v="Stean" />
		<tag k="natural" v="wetland" />
		<tag k="ssr:stedsnr" v="766599" />
	</node>
	<node id="-63871" lat="58.2460722253" lon="7.65149443919">
		<tag k="name" v="Mæselmyra" />
		<tag k="natural" v="wetland" />
		<tag k="ssr:stedsnr" v="887479" />
	</node>
	<node id="-63870" lat="58.2407083352" lon="7.66277499306">
		<tag k="name" v="Bumyran" />
		<tag k="natural" v="wetland" />
		<tag k="ssr:stedsnr" v="887462" />
	</node>
	<node id="-65917" lat="58.1453638855" lon="7.78053055888">
		<tag k="name" v="Øygardsmyra" />
		<tag k="natural" v="wetland" />
		<tag k="ssr:stedsnr" v="341779" />
	</node>
	<node id="-63862" lat="58.1943805585" lon="7.90980833659">
		<tag k="name" v="Magnhildsmyrane" />
		<tag k="natural" v="wetland" />
		<tag k="ssr:stedsnr" v="874023" />
	</node>
	<node id="-67957" lat="58.2485472193" lon="7.6349305547">
		<tag k="name" v="Langeduken" />
		<tag k="place" v="locality" />
		<tag k="ssr:stedsnr" v="766444" />
	</node>
	<node id="-67956" lat="58.2398527742" lon="7.63713889087">
		<tag k="name" v="Holekjerran" />
		<tag k="natural" v="wetland" />
		<tag k="ssr:stedsnr" v="766437" />
	</node>
	<node id="-67955" lat="58.239838885" lon="7.67285554914">
		<tag k="name" v="Holemyr" />
		<tag k="natural" v="wetland" />
		<tag k="ssr:stedsnr" v="766434" />
	</node>
	<node id="-67304" lat="58.1186638846" lon="8.11993888445">
		<tag k="name" v="Lillemyr" />
		<tag k="natural" v="wetland" />
		<tag k="ssr:stedsnr" v="591576" />
	</node>
	<node id="-65901" lat="58.2711500039" lon="7.64753888058">
		<tag k="name" v="Kilemyr" />
		<tag k="natural" v="wetland" />
		<tag k="ssr:stedsnr" v="341677" />
	</node>
	<node id="-65900" lat="58.333397219" lon="7.69791944375">
		<tag k="name" v="Moltemyr" />
		<tag k="natural" v="wetland" />
		<tag k="ssr:stedsnr" v="341666" />
	</node>
	<node id="-67945" lat="58.3087277774" lon="7.56982777656">
		<tag k="name" v="Kartemyr" />
		<tag k="natural" v="wetland" />
		<tag k="ssr:stedsnr" v="766346" />
	</node>
	<node id="-65896" lat="58.306930553" lon="7.63890278026">
		<tag k="name" v="Myrdalen" />
		<tag k="natural" v="wetland" />
		<tag k="ssr:stedsnr" v="341627" />
	</node>
	<node id="-67941" lat="58.3025027805" lon="7.65448610588">
		<tag k="name" v="Flåna" />
		<tag k="place" v="locality" />
		<tag k="ssr:stedsnr" v="766563" />
	</node>
	<node id="-67940" lat="58.2847361126" lon="7.59587222865">
		<tag k="name" v="Tvitjønnmyr" />
		<tag k="natural" v="wetland" />
		<tag k="ssr:stedsnr" v="766243" />
	</node>
	<node id="-65891" lat="58.2430194411" lon="7.63725834192">
		<tag k="name" v="Kartemyr" />
		<tag k="natural" v="wetland" />
		<tag k="ssr:stedsnr" v="341499" />
	</node>
	<node id="-67938" lat="58.2505805537" lon="7.66034444572">
		<tag k="name" v="Karten" />
		<tag k="natural" v="wetland" />
		<tag k="ssr:stedsnr" v="766290" />
	</node>
	<node id="-67984" lat="58.1224944404" lon="7.89754444856">
		<tag k="name" v="Myrbunden" />
		<tag k="natural" v="wetland" />
		<tag k="ssr:stedsnr" v="766814" />
	</node>
	<node id="-65884" lat="58.3283555585" lon="7.58439444218">
		<tag k="name" v="Pærsmyr" />
		<tag k="natural" v="wetland" />
		<tag k="ssr:stedsnr" v="341362" />
	</node>
	<node id="-65880" lat="58.3435694452" lon="7.60268333821">
		<tag k="name" v="Åsemyr" />
		<tag k="natural" v="wetland" />
		<tag k="ssr:stedsnr" v="341332" />
	</node>
	<node id="-65593" lat="58.0910833354" lon="7.80747499695">
		<tag k="name" v="Austermonen" />
		<tag k="place" v="locality" />
		<tag k="ssr:stedsnr" v="203393" />
	</node>
	<node id="-65876" lat="58.3548277743" lon="7.60589443792">
		<tag k="name" v="Djupemyr" />
		<tag k="natural" v="wetland" />
		<tag k="ssr:stedsnr" v="341283" />
	</node>
	<node id="-65871" lat="58.2946083298" lon="7.56986666902">
		<tag k="name" v="Flåna" />
		<tag k="natural" v="wetland" />
		<tag k="ssr:stedsnr" v="341251" />
	</node>
	<node id="-65868" lat="58.2993277809" lon="7.55727222479">
		<tag k="name" v="Jærbærmyra" />
		<tag k="place" v="locality" />
		<tag k="ssr:stedsnr" v="341232" />
	</node>
	<node id="-65865" lat="58.2534416685" lon="7.61577500196">
		<tag k="name" v="Eikemyr" />
		<tag k="natural" v="wetland" />
		<tag k="ssr:stedsnr" v="341194" />
	</node>
	<node id="-63816" lat="58.2443138908" lon="7.80307777127">
		<tag k="name" v="Sommerfjøsmyr" />
		<tag k="natural" v="wetland" />
		<tag k="ssr:stedsnr" v="949829" />
	</node>
	<node id="-67909" lat="58.2321277816" lon="8.09909167003">
		<tag k="name" v="Pallemyr" />
		<tag k="natural" v="wetland" />
		<tag k="ssr:stedsnr" v="756447" />
	</node>
	<node id="-67908" lat="58.2331888911" lon="8.099083336">
		<tag k="name" v="Hestemyr" />
		<tag k="natural" v="wetland" />
		<tag k="ssr:stedsnr" v="756446" />
	</node>
	<node id="-67905" lat="58.2308027761" lon="8.18673055355">
		<tag k="name" v="Krossemyrane" />
		<tag k="natural" v="wetland" />
		<tag k="ssr:stedsnr" v="756384" />
	</node>
	<node id="-67903" lat="58.2062777806" lon="8.00170555074">
		<tag k="name" v="Grostølmyrane" />
		<tag k="natural" v="wetland" />
		<tag k="ssr:stedsnr" v="756375" />
	</node>
	<node id="-67898" lat="58.1997583336" lon="7.97259166643">
		<tag k="name" v="Bjorstemyr" />
		<tag k="natural" v="wetland" />
		<tag k="ssr:stedsnr" v="756329" />
	</node>
	<node id="-66271" lat="58.1531138869" lon="7.83379722921">
		<tag k="name" v="Storeneset" />
		<tag k="place" v="locality" />
		<tag k="ssr:stedsnr" v="402748" />
	</node>
	<node id="-67894" lat="58.2544500038" lon="8.07720832915">
		<tag k="name" v="Vassbotnmyr" />
		<tag k="natural" v="wetland" />
		<tag k="ssr:stedsnr" v="756244" />
	</node>
	<node id="-67887" lat="58.2150638873" lon="8.07591667137">
		<tag k="name" v="Brennevinskjerr" />
		<tag k="natural" v="wetland" />
		<tag k="ssr:stedsnr" v="756142" />
	</node>
	<node id="-65838" lat="58.2706305531" lon="8.10728610935">
		<tag k="name" v="Kirkemyr" />
		<tag k="natural" v="wetland" />
		<tag k="ssr:stedsnr" v="331281" />
	</node>
	<node id="-67882" lat="58.2285999966" lon="7.8580499943">
		<tag k="name" v="Løemyr" />
		<tag k="natural" v="wetland" />
		<tag k="ssr:stedsnr" v="756103" />
	</node>
	<node id="-66268" lat="58.2032638871" lon="7.7830138808">
		<tag k="name" v="Vomma" />
		<tag k="place" v="locality" />
		<tag k="ssr:stedsnr" v="402733" />
	</node>
	<node id="-59684" lat="58.355436107" lon="7.59003610557">
		<tag k="name" v="Solåsmyr" />
		<tag k="natural" v="wetland" />
		<tag k="ssr:stedsnr" v="39205" />
	</node>
	<node id="-67873" lat="58.2454472216" lon="7.98924445269">
		<tag k="name" v="Surtemyr" />
		<tag k="natural" v="wetland" />
		<tag k="ssr:stedsnr" v="756061" />
	</node>
	<node id="-63772" lat="58.2276888885" lon="7.70182777708">
		<tag k="name" v="Grasskotet" />
		<tag k="natural" v="wetland" />
		<tag k="ssr:stedsnr" v="949340" />
	</node>
	<node id="-59675" lat="58.1568194432" lon="7.80814166972">
		<tag k="name" v="Forelundskjerran" />
		<tag k="natural" v="wetland" />
		<tag k="ssr:stedsnr" v="38751" />
	</node>
	<node id="-67865" lat="58.2089444449" lon="7.85048055735">
		<tag k="name" v="Granekjerret" />
		<tag k="natural" v="wetland" />
		<tag k="ssr:stedsnr" v="752907" />
	</node>
	<node id="-65816" lat="58.2506861153" lon="7.99113332965">
		<tag k="name" v="Bogasteinen" />
		<tag k="natural" v="stone" />
		<tag k="ssr:stedsnr" v="331064" />
	</node>
	<node id="-63767" lat="58.3547361144" lon="7.5844083309">
		<tag k="name" v="Godmyr" />
		<tag k="natural" v="wetland" />
		<tag k="ssr:stedsnr" v="949239" />
	</node>
	<node id="-65814" lat="58.2481805562" lon="8.04779721903">
		<tag k="name" v="Hånka" />
		<tag k="place" v="locality" />
		<tag k="ssr:stedsnr" v="331054" />
	</node>
	<node id="-65813" lat="58.2188305542" lon="7.8730222196">
		<tag k="alt_name" v="Stølekjerr" />
		<tag k="name" v="Støleskjerr" />
		<tag k="natural" v="wetland" />
		<tag k="ssr:stedsnr" v="331108" />
	</node>
	<node id="-59668" lat="58.3230749971" lon="7.68470277019">
		<tag k="name" v="Grindånstean" />
		<tag k="natural" v="wetland" />
		<tag k="ssr:stedsnr" v="38608" />
	</node>
	<node id="-59666" lat="58.2448277821" lon="7.67250555009">
		<tag k="name" v="Krossmyr" />
		<tag k="natural" v="wetland" />
		<tag k="ssr:stedsnr" v="38473" />
	</node>
	<node id="-59664" lat="58.2481611154" lon="7.63376111565">
		<tag k="name" v="Perstykket" />
		<tag k="place" v="locality" />
		<tag k="ssr:stedsnr" v="38467" />
	</node>
	<node id="-66264" lat="58.233547219" lon="8.16177500213">
		<tag k="name" v="Kringlemyr" />
		<tag k="natural" v="wetland" />
		<tag k="ssr:stedsnr" v="392333" />
	</node>
	<node id="-65802" lat="58.1966888905" lon="7.86128333327">
		<tag k="name" v="Uremyra" />
		<tag k="natural" v="wetland" />
		<tag k="ssr:stedsnr" v="327894" />
	</node>
	<node id="-65801" lat="58.207783334" lon="7.87956944455">
		<tag k="name" v="Auslandsmyr" />
		<tag k="natural" v="wetland" />
		<tag k="ssr:stedsnr" v="327871" />
	</node>
	<node id="-61704" lat="58.155286109" lon="7.8072500057">
		<tag k="name" v="Trettekjerr" />
		<tag k="natural" v="wetland" />
		<tag k="ssr:stedsnr" v="463708" />
	</node>
	<node id="-61703" lat="58.2239749971" lon="8.09434167391">
		<tag k="alt_name" v="Småslettane" />
		<tag k="name" v="Småslettene" />
		<tag k="place" v="locality" />
		<tag k="ssr:stedsnr" v="667302" />
	</node>
	<node id="-59654" lat="58.2520333328" lon="7.72156111184">
		<tag k="name" v="Barlindmyra" />
		<tag k="natural" v="wetland" />
		<tag k="ssr:stedsnr" v="38506" />
	</node>
	<node id="-61699" lat="58.2398805548" lon="7.70636110372">
		<tag k="name" v="Moltestykket" />
		<tag k="natural" v="wetland" />
		<tag k="ssr:stedsnr" v="463465" />
	</node>
	<node id="-61698" lat="58.2974222222" lon="7.72093054758">
		<tag k="name" v="Dyblemyr" />
		<tag k="natural" v="wetland" />
		<tag k="ssr:stedsnr" v="463406" />
	</node>
	<node id="-63745" lat="58.3266111093" lon="7.62968888404">
		<tag k="name" v="Bleikmyr" />
		<tag k="natural" v="wetland" />
		<tag k="ssr:stedsnr" v="948650" />
	</node>
	<node id="-68818" lat="58.0818472231" lon="8.01269165846">
		<tag k="landuse" v="meadow" />
		<tag k="name" v="Fidja" />
		<tag k="ssr:stedsnr" v="956360" />
	</node>
	<node id="-63740" lat="58.2361222237" lon="7.66771666579">
		<tag k="name" v="Orlogskarten" />
		<tag k="natural" v="wetland" />
		<tag k="ssr:stedsnr" v="948520" />
	</node>
	<node id="-61691" lat="58.3445916623" lon="7.62630832676">
		<tag k="name" v="Langemyr" />
		<tag k="natural" v="wetland" />
		<tag k="ssr:stedsnr" v="463508" />
	</node>
	<node id="-61180" lat="58.253280559" lon="7.69530277651">
		<tag k="name" v="Tjønnmyr" />
		<tag k="natural" v="wetland" />
		<tag k="ssr:stedsnr" v="341552" />
	</node>
	<node id="-65785" lat="58.1543194442" lon="7.70930832946">
		<tag k="name" v="Storemyr" />
		<tag k="natural" v="wetland" />
		<tag k="ssr:stedsnr" v="324996" />
	</node>
	<node id="-65784" lat="58.1307250027" lon="7.61724722851">
		<tag k="name" v="Storemyr" />
		<tag k="natural" v="wetland" />
		<tag k="ssr:stedsnr" v="324995" />
	</node>
	<node id="-59639" lat="58.260036114" lon="7.59790555227">
		<tag k="name" v="Djupmyr" />
		<tag k="natural" v="wetland" />
		<tag k="ssr:stedsnr" v="38162" />
	</node>
	<node id="-67829" lat="58.1239083338" lon="7.78460833116">
		<tag k="name" v="Paulen" />
		<tag k="natural" v="wetland" />
		<tag k="ssr:stedsnr" v="749197" />
	</node>
	<node id="-63732" lat="58.3335111151" lon="7.58673055493">
		<tag k="name" v="Gramsmyr" />
		<tag k="natural" v="wetland" />
		<tag k="ssr:stedsnr" v="948345" />
	</node>
	<node id="-61683" lat="58.2976388909" lon="7.65369167186">
		<tag k="name" v="Langemyr" />
		<tag k="natural" v="wetland" />
		<tag k="ssr:stedsnr" v="463371" />
	</node>
	<node id="-63730" lat="58.3278555535" lon="7.61023889287">
		<tag k="name" v="Karten" />
		<tag k="natural" v="wetland" />
		<tag k="ssr:stedsnr" v="948334" />
	</node>
	<node id="-63728" lat="58.2978055577" lon="7.60394721599">
		<tag k="name" v="Myran" />
		<tag k="natural" v="wetland" />
		<tag k="ssr:stedsnr" v="948241" />
	</node>
	<node id="-61679" lat="58.2844750025" lon="7.66972222264">
		<tag k="name" v="Søndagskarten" />
		<tag k="natural" v="wetland" />
		<tag k="ssr:stedsnr" v="463358" />
	</node>
	<node id="-61677" lat="58.3135527775" lon="7.60689166214">
		<tag k="name" v="Kromyr" />
		<tag k="natural" v="wetland" />
		<tag k="ssr:stedsnr" v="463325" />
	</node>
	<node id="-65772" lat="58.0866749976" lon="7.79496388209">
		<tag k="name" v="Monen" />
		<tag k="place" v="locality" />
		<tag k="ssr:stedsnr" v="324374" />
	</node>
	<node id="-62162" lat="58.3054250039" lon="7.68899443766">
		<tag k="name" v="Kirkemyr" />
		<tag k="natural" v="wetland" />
		<tag k="ssr:stedsnr" v="705598" />
	</node>
	<node id="-61674" lat="58.282783336" lon="7.60617500139">
		<tag k="name" v="Solåsslåttan" />
		<tag k="natural" v="wetland" />
		<tag k="ssr:stedsnr" v="463105" />
	</node>
	<node id="-63717" lat="58.2541406977" lon="8.16032697181">
		<tag k="name" v="Drangsholtmyra" />
		<tag k="place" v="locality" />
		<tag k="ssr:stedsnr" v="943993" />
	</node>
	<node id="-59619" lat="58.2076027777" lon="8.13026388657">
		<tag k="name" v="Grimsmyra" />
		<tag k="natural" v="wetland" />
		<tag k="ssr:stedsnr" v="228335" />
	</node>
	<node id="-59618" lat="58.0892083337" lon="8.00190278514">
		<tag k="name" v="Davidsmyr" />
		<tag k="natural" v="wetland" />
		<tag k="ssr:stedsnr" v="228324" />
	</node>
	<node id="-59607" lat="58.2057583363" lon="8.05367777075">
		<tag k="name" v="Skjulesteinen" />
		<tag k="natural" v="stone" />
		<tag k="ssr:stedsnr" v="227995" />
	</node>
	<node id="-59602" lat="58.2068472255" lon="8.06657500823">
		<tag k="landuse" v="quarry" />
		<tag k="name" v="Mangangrua" />
		<tag k="ssr:stedsnr" v="227975" />
	</node>
	<node id="-67790" lat="58.1387416668" lon="8.16620000112">
		<tag k="name" v="Myra" />
		<tag k="natural" v="wetland" />
		<tag k="ssr:stedsnr" v="652634" />
	</node>
	<node id="-59597" lat="58.170280555" lon="7.95420277686">
		<tag k="name" v="Torvmyra" />
		<tag k="natural" v="wetland" />
		<tag k="ssr:stedsnr" v="227939" />
	</node>
	<node id="-65740" lat="58.1310583357" lon="7.63329722136">
		<tag k="name" v="Døblemyr" />
		<tag k="natural" v="wetland" />
		<tag k="ssr:stedsnr" v="324018" />
	</node>
	<node id="-63691" lat="58.2159527819" lon="8.17277222643">
		<tag k="name" v="Skåtmyr" />
		<tag k="natural" v="wetland" />
		<tag k="ssr:stedsnr" v="938369" />
	</node>
	<node id="-63690" lat="58.2047499984" lon="8.16433889039">
		<tag k="name" v="Langemyrane" />
		<tag k="natural" v="wetland" />
		<tag k="ssr:stedsnr" v="938368" />
	</node>
	<node id="-63689" lat="58.2408944466" lon="8.17423888471">
		<tag k="name" v="Tømmerstokkmyr" />
		<tag k="natural" v="wetland" />
		<tag k="ssr:stedsnr" v="938366" />
	</node>
	<node id="-63687" lat="58.2375222225" lon="8.17418055075">
		<tag k="name" v="Daumannskjerr" />
		<tag k="natural" v="wetland" />
		<tag k="ssr:stedsnr" v="938364" />
	</node>
	<node id="-59587" lat="58.1982111094" lon="8.03551944043">
		<tag k="name" v="Nodefidja" />
		<tag k="natural" v="wetland" />
		<tag k="ssr:stedsnr" v="227639" />
	</node>
	<node id="-63681" lat="58.0835916652" lon="8.00162776989">
		<tag k="name" v="Skiddmyra" />
		<tag k="natural" v="wetland" />
		<tag k="ssr:stedsnr" v="835654" />
	</node>
	<node id="-60106" lat="58.1467194407" lon="7.84078610656">
		<tag k="name" v="Ureneset" />
		<tag k="place" v="locality" />
		<tag k="ssr:stedsnr" v="159761" />
	</node>
	<node id="-63672" lat="58.2651888901" lon="8.04506110519">
		<tag k="name" v="Snømyr" />
		<tag k="natural" v="wetland" />
		<tag k="ssr:stedsnr" v="938134" />
	</node>
	<node id="-65908" lat="58.1955027764" lon="7.79296944159">
		<tag k="name" v="Gjerdøla" />
		<tag k="place" v="locality" />
		<tag k="ssr:stedsnr" v="341719" />
	</node>
	<node id="-59573" lat="58.27449167" lon="8.08990554982">
		<tag k="name" v="Perslåtta" />
		<tag k="place" v="locality" />
		<tag k="ssr:stedsnr" v="28330" />
	</node>
	<node id="-63667" lat="58.2649611132" lon="8.03255834071">
		<tag k="name" v="Vierkjerr" />
		<tag k="natural" v="wetland" />
		<tag k="ssr:stedsnr" v="938131" />
	</node>
	<node id="-63665" lat="58.1973777739" lon="8.11768888855">
		<tag k="name" v="Storemyr" />
		<tag k="natural" v="wetland" />
		<tag k="ssr:stedsnr" v="938120" />
	</node>
	<node id="-66248" lat="58.2347305596" lon="8.04191389309">
		<tag k="name" v="Heiehaven" />
		<tag k="natural" v="wetland" />
		<tag k="ssr:stedsnr" v="392188" />
	</node>
	<node id="-63661" lat="58.1912416631" lon="8.10967221499">
		<tag k="name" v="Heimreøygard" />
		<tag k="natural" v="wetland" />
		<tag k="ssr:stedsnr" v="938119" />
	</node>
	<node id="-63660" lat="58.2108888859" lon="8.15047499489">
		<tag k="name" v="Hellermyrer" />
		<tag k="natural" v="wetland" />
		<tag k="ssr:stedsnr" v="938112" />
	</node>
	<node id="-61611" lat="58.2346888904" lon="7.86141666742">
		<tag k="name" v="Kartemyr" />
		<tag k="natural" v="wetland" />
		<tag k="ssr:stedsnr" v="453139" />
	</node>
	<node id="-61610" lat="58.2327944477" lon="7.88681110511">
		<tag k="name" v="Lusemyr" />
		<tag k="natural" v="wetland" />
		<tag k="ssr:stedsnr" v="453133" />
	</node>
	<node id="-61609" lat="58.2254583289" lon="7.86667499271">
		<tag k="name" v="Vardemyr" />
		<tag k="natural" v="wetland" />
		<tag k="ssr:stedsnr" v="453123" />
	</node>
	<node id="-61608" lat="58.2287972225" lon="7.91643889728">
		<tag k="name" v="Beinmyr" />
		<tag k="natural" v="wetland" />
		<tag k="ssr:stedsnr" v="453120" />
	</node>
	<node id="-61607" lat="58.1712944465" lon="7.90994166035">
		<tag k="name" v="Røyrmyr" />
		<tag k="natural" v="wetland" />
		<tag k="ssr:stedsnr" v="449831" />
	</node>
	<node id="-63654" lat="58.1928527795" lon="7.97758888653">
		<tag k="name" v="Trøymyr" />
		<tag k="natural" v="wetland" />
		<tag k="ssr:stedsnr" v="938083" />
	</node>
	<node id="-60768" lat="58.2090249963" lon="8.16320833036">
		<tag k="name" v="Havsynmyra" />
		<tag k="natural" v="wetland" />
		<tag k="ssr:stedsnr" v="271158" />
	</node>
	<node id="-61601" lat="58.1910416684" lon="7.88361944438">
		<tag k="name" v="Røyrmyr" />
		<tag k="natural" v="wetland" />
		<tag k="ssr:stedsnr" v="449020" />
	</node>
	<node id="-61600" lat="58.1898055515" lon="7.86449444531">
		<tag k="name" v="Ramseheimyrane" />
		<tag k="natural" v="wetland" />
		<tag k="ssr:stedsnr" v="449018" />
	</node>
	<node id="-61597" lat="58.2275694483" lon="7.6303666596">
		<tag k="name" v="Byttingsmyr" />
		<tag k="natural" v="wetland" />
		<tag k="ssr:stedsnr" v="447614" />
	</node>
	<node id="-61588" lat="58.0933944412" lon="7.65276111108">
		<tag k="name" v="Hvermannsrau" />
		<tag k="place" v="locality" />
		<tag k="ssr:stedsnr" v="446012" />
	</node>
	<node id="-66243" lat="58.1662944424" lon="7.90429166031">
		<tag k="name" v="Storemyr" />
		<tag k="natural" v="wetland" />
		<tag k="ssr:stedsnr" v="388881" />
	</node>
	<node id="-65680" lat="58.2201916678" lon="8.06333888384">
		<tag k="name" v="Storemyr" />
		<tag k="natural" v="wetland" />
		<tag k="ssr:stedsnr" v="210446" />
	</node>
	<node id="-65678" lat="58.260511112" lon="8.07243611056">
		<tag k="name" v="Steane" />
		<tag k="place" v="locality" />
		<tag k="ssr:stedsnr" v="210297" />
	</node>
	<node id="-59533" lat="58.1061861148" lon="7.66782500793">
		<tag k="name" v="Jordet" />
		<tag k="place" v="locality" />
		<tag k="ssr:stedsnr" v="21016" />
	</node>
	<node id="-65676" lat="58.2505138886" lon="8.1035361143">
		<tag k="alt_name" v="Vinkjellemyr" />
		<tag k="name" v="Vinkjellermyr" />
		<tag k="natural" v="wetland" />
		<tag k="ssr:stedsnr" v="210285" />
	</node>
	<node id="-65670" lat="58.250916667" lon="8.1328305595">
		<tag k="name" v="Kråkemyr" />
		<tag k="natural" v="wetland" />
		<tag k="ssr:stedsnr" v="210242" />
	</node>
	<node id="-63615" lat="58.206711113" lon="7.87202499454">
		<tag k="name" v="Tereleigsmyr" />
		<tag k="natural" v="wetland" />
		<tag k="ssr:stedsnr" v="934898" />
	</node>
	<node id="-63614" lat="58.1671305512" lon="7.91597777598">
		<tag k="name" v="Kolåsmyrane" />
		<tag k="natural" v="wetland" />
		<tag k="ssr:stedsnr" v="934891" />
	</node>
	<node id="-63613" lat="58.1620138877" lon="7.93891666208">
		<tag k="name" v="Langemyr" />
		<tag k="natural" v="wetland" />
		<tag k="ssr:stedsnr" v="934878" />
	</node>
	<node id="-65658" lat="58.2619916671" lon="8.04060556134">
		<tag k="name" v="Øygardsmyr" />
		<tag k="natural" v="wetland" />
		<tag k="ssr:stedsnr" v="210167" />
	</node>
	<node id="-65655" lat="58.2152944476" lon="8.15589167093">
		<tag k="name" v="Røyrmyr" />
		<tag k="natural" v="wetland" />
		<tag k="ssr:stedsnr" v="210141" />
	</node>
	<node id="-61118" lat="58.1913416639" lon="8.00651945249">
		<tag k="name" v="Kvernhusmyra" />
		<tag k="natural" v="wetland" />
		<tag k="ssr:stedsnr" v="471621" />
	</node>
	<node id="-63598" lat="58.3255722188" lon="7.69033611058">
		<tag k="name" v="Sigdåsstean" />
		<tag k="natural" v="wetland" />
		<tag k="ssr:stedsnr" v="827644" />
	</node>
	<node id="-67693" lat="58.1752694486" lon="7.75500276936">
		<tag k="name" v="Livoll" />
		<tag k="place" v="locality" />
		<tag k="ssr:stedsnr" v="645852" />
	</node>
	<node id="-63594" lat="58.3024055531" lon="7.6610583333">
		<tag k="name" v="Storemyr" />
		<tag k="natural" v="wetland" />
		<tag k="ssr:stedsnr" v="827612" />
	</node>
	<node id="-67687" lat="58.188530554" lon="7.80078333504">
		<tag k="name" v="Kråkeneset" />
		<tag k="place" v="locality" />
		<tag k="ssr:stedsnr" v="645835" />
	</node>
	<node id="-61541" lat="58.2141527783" lon="8.17468888139">
		<tag k="name" v="Bjørnekjerr" />
		<tag k="natural" v="wetland" />
		<tag k="ssr:stedsnr" v="513406" />
	</node>
	<node id="-60834" lat="58.3089083314" lon="7.58258889051">
		<tag k="name" v="Hessmyr" />
		<tag k="natural" v="wetland" />
		<tag k="ssr:stedsnr" v="463340" />
	</node>
	<node id="-61537" lat="58.2421694481" lon="8.05254722334">
		<tag k="name" v="Kleppemyra" />
		<tag k="place" v="locality" />
		<tag k="ssr:stedsnr" v="513390" />
	</node>
	<node id="-63581" lat="58.1367111125" lon="7.59101944123">
		<tag k="name" v="Ørknemyr" />
		<tag k="natural" v="wetland" />
		<tag k="ssr:stedsnr" v="931958" />
	</node>
	<node id="-61532" lat="58.2767388926" lon="8.08129999386">
		<tag k="name" v="Erkleivmyr" />
		<tag k="natural" v="wetland" />
		<tag k="ssr:stedsnr" v="513350" />
	</node>
	<node id="-65627" lat="58.1908638859" lon="7.88564167513">
		<tag k="name" v="Gamle Jons kjerr" />
		<tag k="natural" v="wetland" />
		<tag k="ssr:stedsnr" v="206039" />
	</node>
	<node id="-61530" lat="58.236686109" lon="8.15302777135">
		<tag k="name" v="Store Engemyr" />
		<tag k="natural" v="wetland" />
		<tag k="ssr:stedsnr" v="513339" />
	</node>
	<node id="-61527" lat="58.2399222213" lon="8.11506388477">
		<tag k="name" v="Mollkleivmyr" />
		<tag k="natural" v="wetland" />
		<tag k="ssr:stedsnr" v="513235" />
	</node>
	<node id="-61526" lat="58.2529500036" lon="8.11837500003">
		<tag k="name" v="Løemyr" />
		<tag k="natural" v="wetland" />
		<tag k="ssr:stedsnr" v="513228" />
	</node>
	<node id="-61524" lat="58.2560277805" lon="8.12719444082">
		<tag k="name" v="Sannes Langemyr" />
		<tag k="natural" v="wetland" />
		<tag k="ssr:stedsnr" v="513216" />
	</node>
	<node id="-67666" lat="58.2736527811" lon="7.64518332515">
		<tag k="name" v="Slåttan" />
		<tag k="natural" v="wetland" />
		<tag k="ssr:stedsnr" v="645562" />
	</node>
	<node id="-63565" lat="58.0563916634" lon="7.67114167485">
		<tag k="name" v="Foltjønnmyra" />
		<tag k="natural" v="wetland" />
		<tag k="ssr:stedsnr" v="931099" />
	</node>
	<node id="-63564" lat="58.1136999975" lon="7.66750833185">
		<tag k="name" v="Helvetesmyra" />
		<tag k="natural" v="wetland" />
		<tag k="ssr:stedsnr" v="931088" />
	</node>
	<node id="-65890" lat="58.248338885" lon="7.63660277493">
		<tag k="name" v="Finnsletta" />
		<tag k="place" v="locality" />
		<tag k="ssr:stedsnr" v="341498" />
	</node>
	<node id="-61514" lat="58.2673583333" lon="8.13658333304">
		<tag k="name" v="Skåtebergmyr" />
		<tag k="natural" v="wetland" />
		<tag k="ssr:stedsnr" v="513317" />
	</node>
	<node id="-61513" lat="58.257719446" lon="8.09781388222">
		<tag k="name" v="Kringla" />
		<tag k="natural" v="wetland" />
		<tag k="ssr:stedsnr" v="513281" />
	</node>
	<node id="-63560" lat="58.0891388894" lon="7.65176667131">
		<tag k="name" v="Hestemyr" />
		<tag k="natural" v="wetland" />
		<tag k="ssr:stedsnr" v="931002" />
	</node>
	<node id="-65606" lat="58.069744447" lon="7.6379722246">
		<tag k="name" v="Røremyr" />
		<tag k="natural" v="wetland" />
		<tag k="ssr:stedsnr" v="203949" />
	</node>
	<node id="-63556" lat="58.2287722181" lon="8.00215554783">
		<tag k="name" v="Åses slåtter" />
		<tag k="natural" v="wetland" />
		<tag k="ssr:stedsnr" v="817361" />
	</node>
	<node id="-63552" lat="58.2198444406" lon="8.17303889583">
		<tag k="name" v="Langemyr" />
		<tag k="natural" v="wetland" />
		<tag k="ssr:stedsnr" v="817405" />
	</node>
	<node id="-63551" lat="58.2467444409" lon="8.10194999871">
		<tag k="alt_name" v="Kjørjedalsmyr" />
		<tag k="name" v="Kjørgildalsmyr" />
		<tag k="natural" v="wetland" />
		<tag k="ssr:stedsnr" v="817260" />
	</node>
	<node id="-63550" lat="58.2581055585" lon="8.09332222253">
		<tag k="name" v="Byttingsmyr" />
		<tag k="natural" v="wetland" />
		<tag k="ssr:stedsnr" v="817254" />
	</node>
	<node id="-67643" lat="58.2969083317" lon="7.72499722661">
		<tag k="name" v="Kjelldalsmyr" />
		<tag k="natural" v="wetland" />
		<tag k="ssr:stedsnr" v="645390" />
	</node>
	<node id="-63546" lat="58.1753416668" lon="7.91168333186">
		<tag k="name" v="Redjemyr" />
		<tag k="natural" v="wetland" />
		<tag k="ssr:stedsnr" v="817008" />
	</node>
	<node id="-61497" lat="58.1278361105" lon="7.9149888892">
		<tag k="name" v="Stålslått" />
		<tag k="natural" v="wetland" />
		<tag k="ssr:stedsnr" v="409942" />
	</node>
	<node id="-61496" lat="58.208602774" lon="7.87455000524">
		<tag k="name" v="Glømstremyr" />
		<tag k="natural" v="wetland" />
		<tag k="ssr:stedsnr" v="509885" />
	</node>
	<node id="-63543" lat="58.1945138916" lon="7.87333054925">
		<tag k="name" v="Ramseheimyra" />
		<tag k="natural" v="wetland" />
		<tag k="ssr:stedsnr" v="814918" />
	</node>
	<node id="-65590" lat="58.1351555573" lon="7.70159165883">
		<tag k="name" v="Ranestean" />
		<tag k="natural" v="wetland" />
		<tag k="ssr:stedsnr" v="203270" />
	</node>
	<node id="-61492" lat="58.1941833336" lon="7.921663887">
		<tag k="name" v="Storemyr" />
		<tag k="natural" v="wetland" />
		<tag k="ssr:stedsnr" v="509035" />
	</node>
	<node id="-61491" lat="58.1926583331" lon="7.85816389059">
		<tag k="name" v="Bjønnsmyr" />
		<tag k="natural" v="wetland" />
		<tag k="ssr:stedsnr" v="509026" />
	</node>
	<node id="-63535" lat="58.3257305561" lon="7.58780555869">
		<tag k="name" v="Heimyr" />
		<tag k="natural" v="wetland" />
		<tag k="ssr:stedsnr" v="789786" />
	</node>
	<node id="-59434" lat="58.1849083303" lon="7.8262194373">
		<tag k="name" v="Lyngmyr" />
		<tag k="natural" v="wetland" />
		<tag k="ssr:stedsnr" v="221827" />
	</node>
	<node id="-65574" lat="58.0481194489" lon="7.66784722334">
		<tag k="name" v="Storemyra" />
		<tag k="natural" v="wetland" />
		<tag k="ssr:stedsnr" v="203123" />
	</node>
	<node id="-59427" lat="58.1245249971" lon="7.88793054966">
		<tag k="name" v="Klovsteinmyra" />
		<tag k="natural" v="wetland" />
		<tag k="ssr:stedsnr" v="221785" />
	</node>
	<node id="-65567" lat="58.116669447" lon="7.70773055137">
		<tag k="name" v="Birkemyra" />
		<tag k="natural" v="wetland" />
		<tag k="ssr:stedsnr" v="203084" />
	</node>
	<node id="-59422" lat="58.1224527775" lon="7.86009721692">
		<tag k="name" v="Storemyr" />
		<tag k="natural" v="wetland" />
		<tag k="ssr:stedsnr" v="221751" />
	</node>
	<node id="-59421" lat="58.1273305582" lon="7.85033333428">
		<tag k="name" v="Møyneset" />
		<tag k="place" v="locality" />
		<tag k="ssr:stedsnr" v="221749" />
	</node>
	<node id="-65562" lat="58.1250694419" lon="7.69123333162">
		<tag k="name" v="Storemyra" />
		<tag k="natural" v="wetland" />
		<tag k="ssr:stedsnr" v="203053" />
	</node>
	<node id="-66223" lat="58.1179972249" lon="7.61597777387">
		<tag k="name" v="Surtemyr" />
		<tag k="natural" v="wetland" />
		<tag k="ssr:stedsnr" v="385972" />
	</node>
	<node id="-67603" lat="58.2127166669" lon="7.74386389153">
		<tag k="name" v="Storemyr" />
		<tag k="natural" v="wetland" />
		<tag k="ssr:stedsnr" v="644718" />
	</node>
	<node id="-64241" lat="58.1909111143" lon="7.89701667037">
		<tag k="name" v="Bjelkekjerr" />
		<tag k="natural" v="wetland" />
		<tag k="ssr:stedsnr" v="24014" />
	</node>
	<node id="-67596" lat="58.2695527736" lon="7.6710611037">
		<tag k="name" v="Slogmyran" />
		<tag k="natural" v="wetland" />
		<tag k="ssr:stedsnr" v="644663" />
	</node>
	<node id="-67595" lat="58.2676388891" lon="7.66857499843">
		<tag k="name" v="Merrkjerran" />
		<tag k="natural" v="wetland" />
		<tag k="ssr:stedsnr" v="644662" />
	</node>
	<node id="-67594" lat="58.2640722201" lon="7.66967221531">
		<tag k="name" v="Bjønnskjeggstø" />
		<tag k="natural" v="wetland" />
		<tag k="ssr:stedsnr" v="644660" />
	</node>
	<node id="-59396" lat="58.1863500034" lon="7.76690555389">
		<tag k="name" v="Djupemyr" />
		<tag k="natural" v="wetland" />
		<tag k="ssr:stedsnr" v="221598" />
	</node>
	<node id="-67585" lat="58.3402805562" lon="7.62983888177">
		<tag k="name" v="Gråtermyran" />
		<tag k="natural" v="wetland" />
		<tag k="ssr:stedsnr" v="644615" />
	</node>
</osm>
