<?xml version="1.0" encoding="UTF-8"?>
<osm version="0.6" generator="osmapis">
	<node lat="58.159916664338176" lon="7.975019444425701" id="-27551">
		<tag k="alt_name" v="Bånetjørn" />
		<tag k="name" v="Bånetjønn" />
		<tag k="natural" v="water" />
		<tag k="ssr:stedsnr" v="51" />
	</node>
	<node lat="58.11853610786783" lon="7.810647221621365" id="-27563">
		<tag k="alt_name" v="Kobbartjørn" />
		<tag k="name" v="Kabbertjønna" />
		<tag k="natural" v="water" />
		<tag k="ssr:stedsnr" v="247" />
	</node>
	<node lat="58.29169166613488" lon="7.582555554154055" id="-27566">
		<tag k="alt_name" v="Finnsåna" />
		<tag k="name" v="Finså" />
		<tag k="ssr:stedsnr" v="750" />
		<tag k="waterway" v="river" />
	</node>
	<node lat="58.091108329868774" lon="7.671394447467947" id="-27570">
		<tag k="name" v="Skiftebekken" />
		<tag k="ssr:stedsnr" v="21003" />
		<tag k="waterway" v="stream" />
	</node>
	<node lat="58.12298610971032" lon="7.709647216099844" id="-27573">
		<tag k="name" v="Austre Sjustøltjønn" />
		<tag k="natural" v="water" />
		<tag k="ssr:stedsnr" v="21047" />
	</node>
	<node lat="58.11437777869732" lon="7.669819441898309" id="-27578">
		<tag k="name" v="Byttingsholmen" />
		<tag k="place" v="islet" />
		<tag k="ssr:stedsnr" v="21104" />
	</node>
	<node lat="58.11254721790767" lon="7.672866659180131" id="-27579">
		<tag k="name" v="Sundet" />
		<tag k="natural" v="strait" />
		<tag k="ssr:stedsnr" v="21108" />
	</node>
	<node lat="58.11259722067308" lon="7.884302779040163" id="-27582">
		<tag k="name" v="Danmarksholmen" />
		<tag k="place" v="islet" />
		<tag k="ssr:stedsnr" v="21345" />
	</node>
	<node lat="58.1398499964982" lon="7.615763890348453" id="-27587">
		<tag k="name" v="Oksetjønn" />
		<tag k="natural" v="water" />
		<tag k="ssr:stedsnr" v="21942" />
	</node>
	<node lat="58.19567500209699" lon="7.898338895276642" id="-27598">
		<tag k="name" v="Gyråstjønn" />
		<tag k="natural" v="water" />
		<tag k="ssr:stedsnr" v="24035" />
	</node>
	<node lat="58.13094444023332" lon="7.899297215609422" id="-27607">
		<tag k="name" v="Haugetjønn" />
		<tag k="natural" v="water" />
		<tag k="ssr:stedsnr" v="24884" />
	</node>
	<node lat="58.13611491331736" lon="7.908276389136079" id="-27608">
		<tag k="name" v="Bjørkedalstjønna" />
		<tag k="natural" v="water" />
		<tag k="ssr:stedsnr" v="24888" />
	</node>
	<node lat="58.15904225988961" lon="7.904777833374183" id="-27609">
		<tag k="name" v="Anestjønn" />
		<tag k="natural" v="water" />
		<tag k="ssr:stedsnr" v="24893" />
	</node>
	<node lat="58.2499841617782" lon="8.021080279692743" id="-27615">
		<tag k="name" v="Husdalstjønnene" />
		<tag k="natural" v="water" />
		<tag k="ssr:stedsnr" v="28080" />
		<tag k="water" v="lake" />
	</node>
	<node lat="58.25239444376572" lon="7.99911945006718" id="-27616">
		<tag k="name" v="Igletjønn" />
		<tag k="natural" v="water" />
		<tag k="ssr:stedsnr" v="28083" />
	</node>
	<node lat="58.271586115250805" lon="8.052241669333025" id="-27624">
		<tag k="name" v="Store Gangtjønn" />
		<tag k="natural" v="water" />
		<tag k="ssr:stedsnr" v="28189" />
	</node>
	<node lat="58.24208888804055" lon="8.013852778952895" id="-27627">
		<tag k="name" v="Brånen" />
		<tag k="natural" v="cape" />
		<tag k="ssr:stedsnr" v="28201" />
	</node>
	<node lat="58.239775002420316" lon="8.017213897176486" id="-27628">
		<tag k="name" v="Holmeheia" />
		<tag k="natural" v="cape" />
		<tag k="ssr:stedsnr" v="28203" />
	</node>
	<node lat="58.243580558225794" lon="7.621205551075422" id="-27643">
		<tag k="name" v="Kvernhushølen" />
		<tag k="place" v="locality" />
		<tag k="ssr:stedsnr" v="38208" />
	</node>
	<node lat="58.25466110698089" lon="7.640716665214024" id="-27645">
		<tag k="name" v="Meåna" />
		<tag k="ssr:stedsnr" v="38313" />
		<tag k="waterway" v="river" />
	</node>
	<node lat="58.20724166302245" lon="7.773230555406208" id="-27665">
		<tag k="name" v="Mandalsfossen" />
		<tag k="natural" v="waterfall" />
		<tag k="ssr:stedsnr" v="38709" />
	</node>
	<node lat="58.16243333055582" lon="7.765872213834881" id="-27669">
		<tag k="name" v="Flegevollsbekken" />
		<tag k="ssr:stedsnr" v="38764" />
		<tag k="waterway" v="stream" />
	</node>
	<node lat="58.24231667049332" lon="7.813919436662578" id="-27675">
		<tag k="name" v="Paddetjønn" />
		<tag k="natural" v="water" />
		<tag k="ssr:stedsnr" v="38869" />
	</node>
</osm>
