<?xml version="1.0" encoding="UTF-8"?>
<osm version="0.6" generator="osmapis">
	<node lat="58.25205833618343" lon="8.085819436537216" id="-23744">
		<tag k="alt_name" v="Rebåsheia;Rehåsheia" />
		<tag k="fixme" v="consider natural=peak for the most distinct mountains in the district" />
		<tag k="name" v="Rebbåsheia" />
		<tag k="natural" v="hill" />
		<tag k="place" v="locality" />
		<tag k="ssr:stedsnr" v="48" />
	</node>
	<node lat="58.1716333319555" lon="8.110080551908679" id="-23758">
		<tag k="fixme" v="consider natural=peak for the most distinct mountains in the district" />
		<tag k="name" v="Stokkåsen" />
		<tag k="natural" v="hill" />
		<tag k="place" v="locality" />
		<tag k="ssr:stedsnr" v="416" />
	</node>
	<node lat="58.14684444274073" lon="7.631541663889888" id="-23765">
		<tag k="fixme" v="consider natural=peak for the most distinct mountains in the district" />
		<tag k="name" v="Kviansheia" />
		<tag k="natural" v="hill" />
		<tag k="place" v="locality" />
		<tag k="ssr:stedsnr" v="21035" />
	</node>
	<node lat="58.08907222430719" lon="7.671427786057447" id="-23766">
		<tag k="name" v="Heggdalen" />
		<tag k="natural" v="valley" />
		<tag k="place" v="locality" />
		<tag k="ssr:stedsnr" v="21044" />
	</node>
	<node lat="58.07446666860588" lon="7.82614444905208" id="-23768">
		<tag k="name" v="Stifjellet" />
		<tag k="natural" v="hill" />
		<tag k="place" v="locality" />
		<tag k="ssr:stedsnr" v="21204" />
	</node>
	<node lat="58.1128916709135" lon="7.807197227701285" id="-23774">
		<tag k="name" v="Åseheia" />
		<tag k="natural" v="hill" />
		<tag k="place" v="locality" />
		<tag k="ssr:stedsnr" v="21184" />
	</node>
	<node lat="58.10856944250654" lon="7.863719444971712" id="-23775">
		<tag k="name" v="Kasperheia" />
		<tag k="natural" v="hill" />
		<tag k="place" v="locality" />
		<tag k="ssr:stedsnr" v="21343" />
	</node>
	<node lat="58.06796111075103" lon="7.719516670594963" id="-23778">
		<tag k="name" v="Joransheia" />
		<tag k="natural" v="hill" />
		<tag k="place" v="locality" />
		<tag k="ssr:stedsnr" v="21908" />
	</node>
	<node lat="58.12814166296594" lon="7.586211105636935" id="-23779">
		<tag k="name" v="Trolldalsreet" />
		<tag k="natural" v="valley" />
		<tag k="place" v="locality" />
		<tag k="ssr:stedsnr" v="21936" />
	</node>
	<node lat="58.13965277797409" lon="7.622494442102511" id="-23780">
		<tag k="name" v="Støyden" />
		<tag k="natural" v="valley" />
		<tag k="place" v="locality" />
		<tag k="ssr:stedsnr" v="21939" />
	</node>
	<node lat="58.16413055275509" lon="7.725863886475468" id="-23783">
		<tag k="name" v="Skuggedalskniben" />
		<tag k="natural" v="hill" />
		<tag k="place" v="locality" />
		<tag k="ssr:stedsnr" v="22000" />
	</node>
	<node lat="58.08325555467834" lon="7.913638889298648" id="-23786">
		<tag k="name" v="Bergebrådet" />
		<tag k="natural" v="slope" />
		<tag k="place" v="locality" />
		<tag k="ssr:stedsnr" v="21889" />
	</node>
	<node lat="58.08328129785992" lon="8.025354311680141" id="-23787">
		<tag k="alt_name" v="Sudrevarden" />
		<tag k="name" v="Sudervarden" />
		<tag k="natural" v="hill" />
		<tag k="place" v="locality" />
		<tag k="ssr:stedsnr" v="23484" />
	</node>
	<node lat="58.18303611541421" lon="7.888925004193804" id="-23790">
		<tag k="name" v="Vassdalen" />
		<tag k="natural" v="valley" />
		<tag k="place" v="locality" />
		<tag k="ssr:stedsnr" v="24018" />
	</node>
	<node lat="58.19418055170112" lon="7.878763881391857" id="-23791">
		<tag k="alt_name" v="Ramsheia" />
		<tag k="name" v="Ramseheia" />
		<tag k="natural" v="hill" />
		<tag k="place" v="locality" />
		<tag k="ssr:stedsnr" v="24029" />
	</node>
	<node lat="58.19750555310127" lon="7.948088881501574" id="-23793">
		<tag k="name" v="Øygarden" />
		<tag k="natural" v="slope" />
		<tag k="place" v="locality" />
		<tag k="ssr:stedsnr" v="24040" />
	</node>
	<node lat="58.15330000276706" lon="7.984019449199708" id="-23795">
		<tag k="name" v="Baneheia" />
		<tag k="natural" v="hill" />
		<tag k="place" v="locality" />
		<tag k="ssr:stedsnr" v="24411" />
	</node>
	<node lat="58.201566670174095" lon="7.881894447236993" id="-23800">
		<tag k="name" v="Eighaugen" />
		<tag k="natural" v="hill" />
		<tag k="place" v="locality" />
		<tag k="ssr:stedsnr" v="24922" />
	</node>
	<node lat="58.24396111350102" lon="7.8801916750885725" id="-23806">
		<tag k="fixme" v="consider natural=peak for the most distinct mountains in the district" />
		<tag k="name" v="Eptevannsheia" />
		<tag k="natural" v="hill" />
		<tag k="place" v="locality" />
		<tag k="ssr:stedsnr" v="28008" />
	</node>
	<node lat="58.1777333364329" lon="7.935491664334492" id="-23807">
		<tag k="fixme" v="consider natural=peak for the most distinct mountains in the district" />
		<tag k="name" v="Brendeheia" />
		<tag k="natural" v="hill" />
		<tag k="place" v="locality" />
		<tag k="ssr:stedsnr" v="28021" />
	</node>
	<node lat="58.2229000017257" lon="7.88709722393498" id="-23811">
		<tag k="name" v="Kylldalen" />
		<tag k="natural" v="valley" />
		<tag k="place" v="locality" />
		<tag k="ssr:stedsnr" v="28105" />
	</node>
	<node lat="58.2320583356875" lon="7.889277784168913" id="-23815">
		<tag k="fixme" v="consider natural=peak for the most distinct mountains in the district" />
		<tag k="name" v="Kartdalsåsen" />
		<tag k="natural" v="hill" />
		<tag k="place" v="locality" />
		<tag k="ssr:stedsnr" v="28124" />
	</node>
	<node lat="58.23148055337466" lon="7.878083338220734" id="-23816">
		<tag k="name" v="Skippesåsen" />
		<tag k="natural" v="hill" />
		<tag k="place" v="locality" />
		<tag k="ssr:stedsnr" v="28127" />
	</node>
	<node lat="58.15872222648798" lon="8.12991667425427" id="-23817">
		<tag k="fixme" v="consider natural=peak for the most distinct mountains in the district" />
		<tag k="name" v="Hellingsås" />
		<tag k="natural" v="hill" />
		<tag k="place" v="locality" />
		<tag k="ssr:stedsnr" v="28172" />
	</node>
	<node lat="58.27088333477466" lon="8.153675005484423" id="-23820">
		<tag k="name" v="Kyrefallet" />
		<tag k="natural" v="slope" />
		<tag k="place" v="locality" />
		<tag k="ssr:stedsnr" v="28311" />
	</node>
	<node lat="58.220813886599785" lon="8.050002780161783" id="-23823">
		<tag k="name" v="Tolleknivtrappane" />
		<tag k="place" v="locality" />
		<tag k="ssr:stedsnr" v="28204" />
	</node>
	<node lat="58.27912777579703" lon="8.082308334314906" id="-23825">
		<tag k="name" v="Ildvardsheia" />
		<tag k="natural" v="hill" />
		<tag k="place" v="locality" />
		<tag k="ssr:stedsnr" v="28286" />
	</node>
	<node lat="58.25763333129212" lon="7.56872499195485" id="-23835">
		<tag k="name" v="Svinsoksgreina" />
		<tag k="natural" v="slope" />
		<tag k="place" v="locality" />
		<tag k="ssr:stedsnr" v="38164" />
	</node>
	<node lat="58.25654166922516" lon="7.621216668586078" id="-23836">
		<tag k="fixme" v="consider natural=peak for the most distinct mountains in the district" />
		<tag k="name" v="Smalåsen" />
		<tag k="natural" v="hill" />
		<tag k="place" v="locality" />
		<tag k="ssr:stedsnr" v="38202" />
	</node>
	<node lat="58.25458611260504" lon="7.607186115271951" id="-23838">
		<tag k="fixme" v="consider natural=peak for the most distinct mountains in the district" />
		<tag k="name" v="Dynestølfjellan" />
		<tag k="natural" v="hill" />
		<tag k="place" v="locality" />
		<tag k="ssr:stedsnr" v="38220" />
	</node>
	<node lat="58.28805832982767" lon="7.673577779085728" id="-23840">
		<tag k="fixme" v="consider natural=peak for the most distinct mountains in the district" />
		<tag k="name" v="Liberget" />
		<tag k="natural" v="hill" />
		<tag k="place" v="locality" />
		<tag k="ssr:stedsnr" v="38397" />
	</node>
	<node lat="58.312972222126675" lon="7.702413884019552" id="-23845">
		<tag k="name" v="Krågebakken" />
		<tag k="natural" v="hill" />
		<tag k="place" v="locality" />
		<tag k="ssr:stedsnr" v="38519" />
	</node>
	<node lat="58.30741667046072" lon="7.718477770438046" id="-23846">
		<tag k="name" v="Knibereet" />
		<tag k="natural" v="slope" />
		<tag k="place" v="locality" />
		<tag k="ssr:stedsnr" v="38523" />
	</node>
	<node lat="58.302969446197494" lon="7.70823055810537" id="-23847">
		<tag k="name" v="Blikksknollen" />
		<tag k="natural" v="hill" />
		<tag k="place" v="locality" />
		<tag k="ssr:stedsnr" v="38529" />
	</node>
	<node lat="58.30158055233701" lon="7.68582500149367" id="-23848">
		<tag k="name" v="Heivollen" />
		<tag k="natural" v="hill" />
		<tag k="place" v="locality" />
		<tag k="ssr:stedsnr" v="38533" />
	</node>
	<node lat="58.28074444063132" lon="7.664697216534926" id="-23849">
		<tag k="name" v="Fuglehei" />
		<tag k="natural" v="hill" />
		<tag k="place" v="locality" />
		<tag k="ssr:stedsnr" v="38401" />
	</node>
	<node lat="58.28746111075642" lon="7.639413887666376" id="-23850">
		<tag k="name" v="Eikebrokka" />
		<tag k="natural" v="slope" />
		<tag k="place" v="locality" />
		<tag k="ssr:stedsnr" v="38404" />
	</node>
	<node lat="58.29351389122537" lon="7.63253332774118" id="-23851">
		<tag k="name" v="De brende bakkan" />
		<tag k="natural" v="hill" />
		<tag k="place" v="locality" />
		<tag k="ssr:stedsnr" v="38405" />
	</node>
	<node lat="58.29287777929582" lon="7.658819442473451" id="-23852">
		<tag k="name" v="Bronkedalshei" />
		<tag k="natural" v="hill" />
		<tag k="place" v="locality" />
		<tag k="ssr:stedsnr" v="38407" />
	</node>
	<node lat="58.26768610841199" lon="7.643863885454882" id="-23854">
		<tag k="name" v="Blikksknollen" />
		<tag k="natural" v="hill" />
		<tag k="place" v="locality" />
		<tag k="ssr:stedsnr" v="38611" />
	</node>
	<node lat="58.25841944699173" lon="7.626380556508039" id="-23855">
		<tag k="name" v="Lille Sandviksdalen" />
		<tag k="natural" v="valley" />
		<tag k="place" v="locality" />
		<tag k="ssr:stedsnr" v="38623" />
	</node>
	<node lat="58.26351944537885" lon="7.633886106836709" id="-23856">
		<tag k="name" v="Pershei" />
		<tag k="natural" v="hill" />
		<tag k="place" v="locality" />
		<tag k="ssr:stedsnr" v="38626" />
	</node>
	<node lat="58.13630277723994" lon="7.833005552373355" id="-23857">
		<tag k="name" v="Medheia" />
		<tag k="natural" v="hill" />
		<tag k="place" v="locality" />
		<tag k="ssr:stedsnr" v="38706" />
	</node>
	<node lat="58.2099916685131" lon="7.770241667991073" id="-23858">
		<tag k="name" v="Eikeneset" />
		<tag k="place" v="locality" />
		<tag k="ssr:stedsnr" v="38707" />
	</node>
	<node lat="58.15799166320722" lon="7.81140833849139" id="-23860">
		<tag k="name" v="Lisagebom" />
		<tag k="place" v="locality" />
		<tag k="ssr:stedsnr" v="38716" />
	</node>
	<node lat="58.15944444807862" lon="7.743741661124922" id="-23861">
		<tag k="name" v="Linddalen" />
		<tag k="natural" v="valley" />
		<tag k="place" v="locality" />
		<tag k="ssr:stedsnr" v="38759" />
	</node>
	<node lat="58.1749666640371" lon="7.761163895271771" id="-23865">
		<tag k="fixme" v="consider natural=peak for the most distinct mountains in the district" />
		<tag k="name" v="Dardanellerne" />
		<tag k="natural" v="hill" />
		<tag k="place" v="locality" />
		<tag k="ssr:stedsnr" v="38902" />
	</node>
	<node lat="58.13689167008602" lon="7.844311108371946" id="-23866">
		<tag k="fixme" v="consider natural=peak for the most distinct mountains in the district" />
		<tag k="name" v="Svaheisknatten" />
		<tag k="natural" v="hill" />
		<tag k="place" v="locality" />
		<tag k="ssr:stedsnr" v="38808" />
	</node>
	<node lat="58.114875004062114" lon="7.8894777841256625" id="-23867">
		<tag k="name" v="Svingerdalen" />
		<tag k="natural" v="valley" />
		<tag k="place" v="locality" />
		<tag k="ssr:stedsnr" v="38830" />
	</node>
	<node lat="58.314949997193864" lon="7.612011106314844" id="-23877">
		<tag k="name" v="Knausen" />
		<tag k="natural" v="hill" />
		<tag k="place" v="locality" />
		<tag k="ssr:stedsnr" v="39310" />
	</node>
	<node lat="58.24302222397607" lon="8.096202775103018" id="-23971">
		<tag k="name" v="Brudefallet" />
		<tag k="natural" v="cliff" />
		<tag k="ssr:stedsnr" v="45222" />
	</node>
	<node lat="58.24818055930046" lon="8.080283331374297" id="-23972">
		<tag k="name" v="Lauvløa" />
		<tag k="natural" v="hill" />
		<tag k="old_name" v="Løuvløa" />
		<tag k="place" v="locality" />
		<tag k="ssr:stedsnr" v="45224" />
	</node>
	<node lat="58.09496111227244" lon="8.139016672501059" id="-23973">
		<tag k="name" v="Stormen" />
		<tag k="natural" v="hill" />
		<tag k="place" v="locality" />
		<tag k="ssr:stedsnr" v="45431" />
	</node>
	<node lat="58.161830556371534" lon="7.954463890890395" id="-23974">
		<tag k="name" v="Storheia" />
		<tag k="natural" v="hill" />
		<tag k="place" v="locality" />
		<tag k="ssr:stedsnr" v="45585" />
	</node>
	<node lat="58.11988611137433" lon="8.152680559796034" id="-23978">
		<tag k="fixme" v="consider natural=peak for the most distinct mountains in the district" />
		<tag k="name" v="Rossheiberget" />
		<tag k="natural" v="hill" />
		<tag k="place" v="locality" />
		<tag k="ssr:stedsnr" v="45679" />
	</node>
	<node lat="58.22071111393125" lon="8.048963893687079" id="-23981">
		<tag k="name" v="Tolleknivtrappane" />
		<tag k="natural" v="cliff" />
		<tag k="ssr:stedsnr" v="46124" />
	</node>
	<node lat="58.21261388973288" lon="8.133319436776647" id="-23985">
		<tag k="name" v="Hestehavefjellene" />
		<tag k="natural" v="hill" />
		<tag k="place" v="locality" />
		<tag k="ssr:stedsnr" v="45883" />
	</node>
	<node lat="58.08265555342282" lon="8.012377776101617" id="-23999">
		<tag k="name" v="Fjellnibben" />
		<tag k="natural" v="hill" />
		<tag k="place" v="locality" />
		<tag k="ssr:stedsnr" v="46673" />
	</node>
	<node lat="58.145208333160554" lon="8.153958336131685" id="-24054">
		<tag k="fixme" v="consider natural=peak for the most distinct mountains in the district" />
		<tag k="name" v="Storåsen" />
		<tag k="natural" v="hill" />
		<tag k="place" v="locality" />
		<tag k="ssr:stedsnr" v="61575" />
	</node>
	<node lat="58.27643055940763" lon="7.691880560044634" id="-24063">
		<tag k="alt_name" v="Godhei" />
		<tag k="name" v="Godheia" />
		<tag k="natural" v="hill" />
		<tag k="place" v="locality" />
		<tag k="ssr:stedsnr" v="61826" />
	</node>
	<node lat="58.198224999579146" lon="8.103905552382276" id="-24079">
		<tag k="alt_name" v="Hamrefjell;Hommerfjellet" />
		<tag k="fixme" v="consider natural=peak for the most distinct mountains in the district" />
		<tag k="name" v="Hammerfjellet" />
		<tag k="natural" v="hill" />
		<tag k="place" v="locality" />
		<tag k="ssr:stedsnr" v="242448" />
	</node>
	<node lat="58.212841665687506" lon="8.140094439223327" id="-24080">
		<tag k="alt_name" v="Revåsen" />
		<tag k="fixme" v="consider natural=peak for the most distinct mountains in the district" />
		<tag k="name" v="Helgesfjell" />
		<tag k="natural" v="hill" />
		<tag k="place" v="locality" />
		<tag k="ssr:stedsnr" v="242457" />
	</node>
	<node lat="58.20617222667052" lon="8.040983327199474" id="-24084">
		<tag k="fixme" v="multiple name tags, choose one and add the other to alt_name; consider natural=peak for the most distinct mountains in the district" />
		<tag k="name" v="Jærnesskogen;Gjernesheia" />
		<tag k="natural" v="hill" />
		<tag k="place" v="locality" />
		<tag k="ssr:stedsnr" v="243012" />
	</node>
	<node lat="58.20424722142412" lon="7.881194446261861" id="-24085">
		<tag k="fixme" v="consider natural=peak for the most distinct mountains in the district" />
		<tag k="name" v="Trollheia" />
		<tag k="natural" v="hill" />
		<tag k="place" v="locality" />
		<tag k="ssr:stedsnr" v="243014" />
	</node>
	<node lat="58.11249722321406" lon="7.8015638830585035" id="-24094">
		<tag k="fixme" v="consider natural=peak for the most distinct mountains in the district" />
		<tag k="name" v="Sjåsæheia" />
		<tag k="natural" v="hill" />
		<tag k="place" v="locality" />
		<tag k="ssr:stedsnr" v="243224" />
	</node>
	<node lat="58.067888893390176" lon="7.97158611251205" id="-24097">
		<tag k="fixme" v="consider natural=peak for the most distinct mountains in the district" />
		<tag k="name" v="Grasåsen" />
		<tag k="natural" v="hill" />
		<tag k="place" v="locality" />
		<tag k="ssr:stedsnr" v="243172" />
	</node>
	<node lat="58.111147221747046" lon="7.618394448245526" id="-24111">
		<tag k="alt_name" v="Vardeheia" />
		<tag k="name" v="Vardehei" />
		<tag k="natural" v="hill" />
		<tag k="place" v="locality" />
		<tag k="ssr:stedsnr" v="243843" />
	</node>
	<node lat="58.08406110722323" lon="7.7189249968267255" id="-24114">
		<tag k="alt_name" v="Voreheia" />
		<tag k="name" v="Vareheia" />
		<tag k="natural" v="hill" />
		<tag k="place" v="locality" />
		<tag k="ssr:stedsnr" v="243914" />
	</node>
	<node lat="58.10018055727752" lon="7.6760833366316525" id="-24119">
		<tag k="name" v="Holmensheia" />
		<tag k="natural" v="hill" />
		<tag k="place" v="locality" />
		<tag k="ssr:stedsnr" v="82010" />
	</node>
	<node lat="58.123938890659666" lon="7.736022228672184" id="-24123">
		<tag k="name" v="Svartebørheia" />
		<tag k="natural" v="hill" />
		<tag k="place" v="locality" />
		<tag k="ssr:stedsnr" v="82196" />
	</node>
	<node lat="58.09340833638525" lon="7.84561388782256" id="-24124">
		<tag k="name" v="Kjønndalen" />
		<tag k="natural" v="valley" />
		<tag k="place" v="locality" />
		<tag k="ssr:stedsnr" v="82302" />
	</node>
	<node lat="58.14945556004786" lon="7.73840555530697" id="-24126">
		<tag k="name" v="Storåkerheia" />
		<tag k="natural" v="hill" />
		<tag k="place" v="locality" />
		<tag k="ssr:stedsnr" v="82347" />
	</node>
	<node lat="58.14321944262799" lon="7.7088194528794185" id="-24129">
		<tag k="name" v="Folåsheia" />
		<tag k="natural" v="hill" />
		<tag k="place" v="locality" />
		<tag k="ssr:stedsnr" v="82221" />
	</node>
	<node lat="58.066213887229594" lon="7.683727775085458" id="-24134">
		<tag k="name" v="Hellesvigheia" />
		<tag k="natural" v="hill" />
		<tag k="place" v="locality" />
		<tag k="ssr:stedsnr" v="82919" />
	</node>
	<node lat="58.2077138889393" lon="7.894166672723781" id="-24142">
		<tag k="name" v="Bustø" />
		<tag k="natural" v="slope" />
		<tag k="place" v="locality" />
		<tag k="ssr:stedsnr" v="85882" />
	</node>
	<node lat="58.207236111489486" lon="7.855252777229418" id="-24143">
		<tag k="fixme" v="consider natural=peak for the most distinct mountains in the district" />
		<tag k="name" v="Snømyråsen" />
		<tag k="natural" v="hill" />
		<tag k="place" v="locality" />
		<tag k="ssr:stedsnr" v="85888" />
	</node>
	<node lat="58.21244444690386" lon="7.891091662179524" id="-24144">
		<tag k="name" v="Øygarden" />
		<tag k="natural" v="slope" />
		<tag k="place" v="locality" />
		<tag k="ssr:stedsnr" v="85892" />
	</node>
	<node lat="58.198841666611976" lon="7.854991673736425" id="-24145">
		<tag k="alt_name" v="Kvithølet" />
		<tag k="name" v="Kvitholet" />
		<tag k="natural" v="valley" />
		<tag k="place" v="locality" />
		<tag k="ssr:stedsnr" v="85897" />
	</node>
	<node lat="58.19579444663269" lon="7.894675008288788" id="-24146">
		<tag k="fixme" v="consider natural=peak for the most distinct mountains in the district" />
		<tag k="name" v="Røverkjerrheia" />
		<tag k="natural" v="hill" />
		<tag k="place" v="locality" />
		<tag k="ssr:stedsnr" v="85903" />
	</node>
	<node lat="58.189266667147685" lon="7.98773888767986" id="-24150">
		<tag k="name" v="Tømmersdal" />
		<tag k="natural" v="valley" />
		<tag k="place" v="locality" />
		<tag k="ssr:stedsnr" v="89117" />
	</node>
	<node lat="58.264302778697775" lon="8.144405551532023" id="-24151">
		<tag k="alt_name" v="Store Skåteberg" />
		<tag k="name" v="Store Skåtberg" />
		<tag k="natural" v="hill" />
		<tag k="place" v="locality" />
		<tag k="ssr:stedsnr" v="89305" />
	</node>
	<node lat="58.27433055119725" lon="8.153044436270537" id="-24152">
		<tag k="name" v="Bjørneheia" />
		<tag k="natural" v="hill" />
		<tag k="place" v="locality" />
		<tag k="ssr:stedsnr" v="89314" />
	</node>
	<node lat="58.249933336496255" lon="8.125363889889035" id="-24156">
		<tag k="name" v="Sovedalen" />
		<tag k="natural" v="valley" />
		<tag k="place" v="locality" />
		<tag k="ssr:stedsnr" v="89226" />
	</node>
	<node lat="58.210588893374045" lon="7.998697225805467" id="-24157">
		<tag k="alt_name" v="Grunnershei" />
		<tag k="name" v="Gunnersheia" />
		<tag k="natural" v="hill" />
		<tag k="place" v="locality" />
		<tag k="ssr:stedsnr" v="89408" />
	</node>
	<node lat="58.28012499836592" lon="8.158208336059458" id="-24159">
		<tag k="fixme" v="consider natural=peak for the most distinct mountains in the district" />
		<tag k="name" v="Mjønåsen" />
		<tag k="natural" v="hill" />
		<tag k="place" v="locality" />
		<tag k="ssr:stedsnr" v="93978" />
	</node>
	<node lat="58.254027778183804" lon="7.67251666303441" id="-24162">
		<tag k="name" v="Lian" />
		<tag k="natural" v="slope" />
		<tag k="place" v="locality" />
		<tag k="ssr:stedsnr" v="98261" />
	</node>
	<node lat="58.24106389206165" lon="7.668458326650951" id="-24163">
		<tag k="name" v="Lunden" />
		<tag k="natural" v="hill" />
		<tag k="place" v="locality" />
		<tag k="ssr:stedsnr" v="98468" />
	</node>
	<node lat="58.200130554442" lon="7.777538896494317" id="-24166">
		<tag k="name" v="Illkullheia" />
		<tag k="natural" v="hill" />
		<tag k="place" v="locality" />
		<tag k="ssr:stedsnr" v="98680" />
	</node>
	<node lat="58.33771389022911" lon="7.583572218047819" id="-24169">
		<tag k="fixme" v="consider natural=peak for the most distinct mountains in the district" />
		<tag k="name" v="Ristjønnbakkan" />
		<tag k="natural" v="hill" />
		<tag k="place" v="locality" />
		<tag k="ssr:stedsnr" v="99174" />
	</node>
	<node lat="58.32259722086547" lon="7.570880552551248" id="-24170">
		<tag k="fixme" v="consider natural=peak for the most distinct mountains in the district" />
		<tag k="name" v="Lauvåsen" />
		<tag k="natural" v="hill" />
		<tag k="place" v="locality" />
		<tag k="ssr:stedsnr" v="99319" />
	</node>
	<node lat="58.3246472195529" lon="7.584786111945993" id="-24171">
		<tag k="name" v="Midtbakken" />
		<tag k="natural" v="hill" />
		<tag k="place" v="locality" />
		<tag k="ssr:stedsnr" v="99320" />
	</node>
	<node lat="58.30969444397796" lon="7.575319441905111" id="-24172">
		<tag k="name" v="Løndalsbakken" />
		<tag k="natural" v="hill" />
		<tag k="place" v="locality" />
		<tag k="ssr:stedsnr" v="99365" />
	</node>
	<node lat="58.31008055348203" lon="7.578377772862291" id="-24174">
		<tag k="name" v="Løndalen" />
		<tag k="natural" v="valley" />
		<tag k="place" v="locality" />
		<tag k="ssr:stedsnr" v="99370" />
	</node>
	<node lat="58.23908333269498" lon="7.60674166612013" id="-24177">
		<tag k="fixme" v="consider natural=peak for the most distinct mountains in the district" />
		<tag k="name" v="Ulsryggen" />
		<tag k="natural" v="hill" />
		<tag k="place" v="locality" />
		<tag k="ssr:stedsnr" v="99221" />
	</node>
	<node lat="58.29193888552514" lon="7.66389166729544" id="-24178">
		<tag k="name" v="Knausen" />
		<tag k="natural" v="hill" />
		<tag k="place" v="locality" />
		<tag k="ssr:stedsnr" v="99404" />
	</node>
	<node lat="58.30021666789684" lon="7.656941671099773" id="-24181">
		<tag k="name" v="Hestebakken" />
		<tag k="natural" v="hill" />
		<tag k="place" v="locality" />
		<tag k="ssr:stedsnr" v="99411" />
	</node>
	<node lat="58.29880000041004" lon="7.643330558591599" id="-24182">
		<tag k="name" v="Tollehommen" />
		<tag k="natural" v="slope" />
		<tag k="place" v="locality" />
		<tag k="ssr:stedsnr" v="99413" />
	</node>
	<node lat="58.27252222368611" lon="7.637741660097925" id="-24183">
		<tag k="name" v="Haugen" />
		<tag k="natural" v="hill" />
		<tag k="place" v="locality" />
		<tag k="ssr:stedsnr" v="99414" />
	</node>
	<node lat="58.27528333105562" lon="7.663530559696886" id="-24184">
		<tag k="name" v="Gangdalen" />
		<tag k="natural" v="valley" />
		<tag k="place" v="locality" />
		<tag k="ssr:stedsnr" v="99418" />
	</node>
	<node lat="58.234669440315116" lon="7.6959388850929935" id="-24187">
		<tag k="name" v="Lindevollheia" />
		<tag k="natural" v="hill" />
		<tag k="place" v="locality" />
		<tag k="ssr:stedsnr" v="99480" />
	</node>
	<node lat="58.33268055905734" lon="7.704519444173432" id="-24189">
		<tag k="name" v="Fiskebekkdalen" />
		<tag k="natural" v="valley" />
		<tag k="place" v="locality" />
		<tag k="ssr:stedsnr" v="99606" />
	</node>
	<node lat="58.3263972198999" lon="7.687258341151743" id="-24191">
		<tag k="name" v="Kjeddingfjellan" />
		<tag k="natural" v="hill" />
		<tag k="place" v="locality" />
		<tag k="ssr:stedsnr" v="99614" />
	</node>
	<node lat="58.26911944139414" lon="7.666950000019296" id="-24192">
		<tag k="fixme" v="consider natural=peak for the most distinct mountains in the district" />
		<tag k="name" v="Dovrefjell" />
		<tag k="natural" v="hill" />
		<tag k="place" v="locality" />
		<tag k="ssr:stedsnr" v="99621" />
	</node>
	<node lat="58.31737777792245" lon="7.694130551161185" id="-24194">
		<tag k="name" v="Steinusknabben" />
		<tag k="natural" v="hill" />
		<tag k="place" v="locality" />
		<tag k="ssr:stedsnr" v="99515" />
	</node>
	<node lat="58.33272499620122" lon="7.6212000082808835" id="-24196">
		<tag k="name" v="Kleiva" />
		<tag k="natural" v="slope" />
		<tag k="place" v="locality" />
		<tag k="ssr:stedsnr" v="99582" />
	</node>
	<node lat="58.33013333240546" lon="7.621002786017602" id="-24197">
		<tag k="name" v="Styggedalen" />
		<tag k="natural" v="valley" />
		<tag k="place" v="locality" />
		<tag k="ssr:stedsnr" v="99585" />
	</node>
	<node lat="58.15633611002286" lon="7.7902472257331885" id="-24198">
		<tag k="name" v="Øygardsdalen" />
		<tag k="natural" v="valley" />
		<tag k="place" v="locality" />
		<tag k="ssr:stedsnr" v="99719" />
	</node>
	<node lat="58.15855000052455" lon="7.7914861164221785" id="-24199">
		<tag k="fixme" v="consider natural=peak for the most distinct mountains in the district" />
		<tag k="name" v="Ruståsen" />
		<tag k="natural" v="hill" />
		<tag k="place" v="locality" />
		<tag k="ssr:stedsnr" v="99722" />
	</node>
	<node lat="58.13626944822455" lon="7.861177772751663" id="-24200">
		<tag k="name" v="Lonnestien" />
		<tag k="natural" v="valley" />
		<tag k="place" v="locality" />
		<tag k="ssr:stedsnr" v="99805" />
	</node>
	<node lat="58.13043055914697" lon="7.872727785190903" id="-24201">
		<tag k="name" v="Renna" />
		<tag k="natural" v="valley" />
		<tag k="place" v="locality" />
		<tag k="ssr:stedsnr" v="99806" />
	</node>
	<node lat="58.15038055159829" lon="7.853244439340067" id="-24205">
		<tag k="name" v="Nodekleiva" />
		<tag k="natural" v="slope" />
		<tag k="place" v="locality" />
		<tag k="ssr:stedsnr" v="99817" />
	</node>
	<node lat="58.172688889737884" lon="7.807105551014254" id="-24208">
		<tag k="fixme" v="consider natural=peak for the most distinct mountains in the district" />
		<tag k="name" v="Høgåsen" />
		<tag k="natural" v="hill" />
		<tag k="place" v="locality" />
		<tag k="ssr:stedsnr" v="99866" />
	</node>
	<node lat="58.17800277866408" lon="7.82135000717996" id="-24209">
		<tag k="fixme" v="consider natural=peak for the most distinct mountains in the district" />
		<tag k="name" v="Skrefjellet" />
		<tag k="natural" v="hill" />
		<tag k="place" v="locality" />
		<tag k="ssr:stedsnr" v="99876" />
	</node>
	<node lat="58.17958333229375" lon="7.822863895601539" id="-24210">
		<tag k="name" v="Skredalen" />
		<tag k="natural" v="valley" />
		<tag k="place" v="locality" />
		<tag k="ssr:stedsnr" v="99878" />
	</node>
	<node lat="58.244433331041115" lon="8.15502222193046" id="-24263">
		<tag k="name" v="Bøigedalsknatten" />
		<tag k="natural" v="hill" />
		<tag k="place" v="locality" />
		<tag k="ssr:stedsnr" v="106103" />
	</node>
	<node lat="58.1652111090897" lon="8.105744450737957" id="-24266">
		<tag k="name" v="Drangsdalen" />
		<tag k="natural" v="valley" />
		<tag k="place" v="locality" />
		<tag k="ssr:stedsnr" v="106029" />
	</node>
	<node lat="58.21695833458887" lon="8.124683340507168" id="-24270">
		<tag k="name" v="Skrubbedalen" />
		<tag k="natural" v="valley" />
		<tag k="place" v="locality" />
		<tag k="ssr:stedsnr" v="106045" />
	</node>
	<node lat="58.26596666752223" lon="8.082863894841868" id="-24272">
		<tag k="name" v="Bjørnehåla" />
		<tag k="place" v="locality" />
		<tag k="ssr:stedsnr" v="106010" />
	</node>
	<node lat="58.2447138871778" lon="8.152147224153667" id="-24273">
		<tag k="name" v="Bøygedal" />
		<tag k="natural" v="valley" />
		<tag k="place" v="locality" />
		<tag k="ssr:stedsnr" v="106093" />
	</node>
	<node lat="58.21288333510465" lon="7.920097219319608" id="-24280">
		<tag k="name" v="Ilversknuten" />
		<tag k="natural" v="hill" />
		<tag k="place" v="locality" />
		<tag k="ssr:stedsnr" v="106609" />
	</node>
	<node lat="58.20643888613405" lon="8.112983341596525" id="-24284">
		<tag k="name" v="Ormeliheia" />
		<tag k="natural" v="hill" />
		<tag k="place" v="locality" />
		<tag k="ssr:stedsnr" v="106904" />
	</node>
	<node lat="58.27948055179308" lon="8.144283326433023" id="-24287">
		<tag k="name" v="Bjørnehiet" />
		<tag k="place" v="locality" />
		<tag k="ssr:stedsnr" v="107186" />
	</node>
	<node lat="58.123002777245695" lon="7.931738892782072" id="-24299">
		<tag k="name" v="Hyllebakken" />
		<tag k="natural" v="slope" />
		<tag k="place" v="locality" />
		<tag k="ssr:stedsnr" v="107683" />
	</node>
	<node lat="58.188883333754625" lon="7.780855551193485" id="-24319">
		<tag k="alt_name" v="Gjærelstadheia" />
		<tag k="name" v="Gjervoldstadheia" />
		<tag k="natural" v="hill" />
		<tag k="place" v="locality" />
		<tag k="ssr:stedsnr" v="121026" />
	</node>
	<node lat="58.24575833206017" lon="8.151572219777737" id="-24328">
		<tag k="alt_name" v="Buheia" />
		<tag k="fixme" v="consider natural=peak for the most distinct mountains in the district" />
		<tag k="name" v="Bueheia" />
		<tag k="natural" v="hill" />
		<tag k="place" v="locality" />
		<tag k="ssr:stedsnr" v="121365" />
	</node>
	<node lat="58.12451666454342" lon="8.13307500130253" id="-24333">
		<tag k="fixme" v="consider natural=peak for the most distinct mountains in the district" />
		<tag k="name" v="Sotåsen" />
		<tag k="natural" v="hill" />
		<tag k="place" v="locality" />
		<tag k="ssr:stedsnr" v="121504" />
	</node>
	<node lat="58.16621111541751" lon="8.10914722439337" id="-24340">
		<tag k="alt_name" v="Fivåsen" />
		<tag k="fixme" v="consider natural=peak for the most distinct mountains in the district" />
		<tag k="name" v="Fiåsen" />
		<tag k="natural" v="hill" />
		<tag k="place" v="locality" />
		<tag k="ssr:stedsnr" v="121603" />
	</node>
	<node lat="58.26902499919607" lon="7.562274994077932" id="-24343">
		<tag k="alt_name" v="Steinvollåsen" />
		<tag k="name" v="Vardehei" />
		<tag k="natural" v="hill" />
		<tag k="place" v="locality" />
		<tag k="ssr:stedsnr" v="121829" />
	</node>
	<node lat="58.096149995776294" lon="7.66192499305286" id="-24345">
		<tag k="name" v="Livollen" />
		<tag k="natural" v="hill" />
		<tag k="place" v="locality" />
		<tag k="ssr:stedsnr" v="142010" />
	</node>
	<node lat="58.12430277483009" lon="7.655697225785995" id="-24346">
		<tag k="name" v="Helvetesknuden" />
		<tag k="natural" v="hill" />
		<tag k="place" v="locality" />
		<tag k="ssr:stedsnr" v="142084" />
	</node>
	<node lat="58.12654444454751" lon="7.634027782765721" id="-24348">
		<tag k="name" v="Stembakken" />
		<tag k="natural" v="hill" />
		<tag k="place" v="locality" />
		<tag k="ssr:stedsnr" v="142094" />
	</node>
	<node lat="58.111558336609235" lon="7.797116659058518" id="-24352">
		<tag k="fixme" v="consider natural=peak for the most distinct mountains in the district" />
		<tag k="name" v="Lillås-varde" />
		<tag k="natural" v="hill" />
		<tag k="place" v="locality" />
		<tag k="ssr:stedsnr" v="142174" />
	</node>
	<node lat="58.06714722672208" lon="7.666455562199953" id="-24357">
		<tag k="name" v="Stoheia" />
		<tag k="natural" v="hill" />
		<tag k="place" v="locality" />
		<tag k="ssr:stedsnr" v="142933" />
	</node>
	<node lat="58.139755553152966" lon="7.612352773832983" id="-24359">
		<tag k="name" v="Oksekniben" />
		<tag k="natural" v="hill" />
		<tag k="place" v="locality" />
		<tag k="ssr:stedsnr" v="142952" />
	</node>
	<node lat="58.1351833336942" lon="7.612525003805717" id="-24360">
		<tag k="name" v="Kresjersdalen" />
		<tag k="natural" v="valley" />
		<tag k="place" v="locality" />
		<tag k="ssr:stedsnr" v="142953" />
	</node>
	<node lat="58.19328055640658" lon="7.882563881893584" id="-24365">
		<tag k="name" v="Rypelian" />
		<tag k="natural" v="slope" />
		<tag k="place" v="locality" />
		<tag k="ssr:stedsnr" v="145024" />
	</node>
	<node lat="58.22802499832039" lon="7.890969451148664" id="-24372">
		<tag k="name" v="Brødalen" />
		<tag k="natural" v="valley" />
		<tag k="place" v="locality" />
		<tag k="ssr:stedsnr" v="149110" />
	</node>
	<node lat="58.229508337290106" lon="7.867774993711771" id="-24373">
		<tag k="fixme" v="consider natural=peak for the most distinct mountains in the district" />
		<tag k="name" v="Vehusknausen" />
		<tag k="natural" v="hill" />
		<tag k="place" v="locality" />
		<tag k="ssr:stedsnr" v="149114" />
	</node>
	<node lat="58.23514999990253" lon="7.870980563273268" id="-24374">
		<tag k="name" v="Barlinddalen" />
		<tag k="natural" v="valley" />
		<tag k="place" v="locality" />
		<tag k="ssr:stedsnr" v="149117" />
	</node>
	<node lat="58.236308337376116" lon="7.884008335699013" id="-24375">
		<tag k="name" v="Drogmyrhei" />
		<tag k="natural" v="hill" />
		<tag k="place" v="locality" />
		<tag k="ssr:stedsnr" v="149118" />
	</node>
	<node lat="58.21266388749798" lon="8.145038893007442" id="-24377">
		<tag k="fixme" v="consider natural=peak for the most distinct mountains in the district" />
		<tag k="name" v="Trollheia" />
		<tag k="natural" v="hill" />
		<tag k="place" v="locality" />
		<tag k="ssr:stedsnr" v="149121" />
	</node>
	<node lat="58.24746111213516" lon="8.178722230517488" id="-24380">
		<tag k="alt_name" v="Slemdalen" />
		<tag k="name" v="Stemdalen" />
		<tag k="natural" v="valley" />
		<tag k="place" v="locality" />
		<tag k="ssr:stedsnr" v="149357" />
	</node>
	<node lat="58.24922221998427" lon="8.185308329574621" id="-24381">
		<tag k="fixme" v="consider natural=peak for the most distinct mountains in the district" />
		<tag k="name" v="Kattåsen" />
		<tag k="natural" v="hill" />
		<tag k="place" v="locality" />
		<tag k="ssr:stedsnr" v="149358" />
	</node>
	<node lat="58.265411113644426" lon="8.111872218780256" id="-24382">
		<tag k="name" v="Stemtjønnheia" />
		<tag k="natural" v="hill" />
		<tag k="place" v="locality" />
		<tag k="ssr:stedsnr" v="149366" />
	</node>
	<node lat="58.22064167005273" lon="8.078613893971319" id="-24383">
		<tag k="name" v="Mollkleiv" />
		<tag k="natural" v="slope" />
		<tag k="place" v="locality" />
		<tag k="ssr:stedsnr" v="149443" />
	</node>
	<node lat="58.27477777527592" lon="7.651338896684514" id="-24396">
		<tag k="name" v="Sjøngsdalen" />
		<tag k="natural" v="valley" />
		<tag k="place" v="locality" />
		<tag k="ssr:stedsnr" v="159452" />
	</node>
	<node lat="58.27585555282259" lon="7.649144438354695" id="-24397">
		<tag k="fixme" v="consider natural=peak for the most distinct mountains in the district" />
		<tag k="name" v="Sjøngshei" />
		<tag k="natural" v="hill" />
		<tag k="place" v="locality" />
		<tag k="ssr:stedsnr" v="159456" />
	</node>
	<node lat="58.26330833193889" lon="7.622463887878398" id="-24398">
		<tag k="fixme" v="consider natural=peak for the most distinct mountains in the district" />
		<tag k="name" v="Gauksåsen" />
		<tag k="natural" v="hill" />
		<tag k="place" v="locality" />
		<tag k="ssr:stedsnr" v="159457" />
	</node>
	<node lat="58.28580000229573" lon="7.708075001698533" id="-24400">
		<tag k="name" v="Stemdalen" />
		<tag k="natural" v="valley" />
		<tag k="place" v="locality" />
		<tag k="ssr:stedsnr" v="159468" />
	</node>
	<node lat="58.25316388850892" lon="7.67228333311902" id="-24401">
		<tag k="name" v="Liansbrynan" />
		<tag k="natural" v="slope" />
		<tag k="place" v="locality" />
		<tag k="ssr:stedsnr" v="159307" />
	</node>
	<node lat="58.33035000079661" lon="7.589555553600167" id="-24403">
		<tag k="name" v="Lisleåsen" />
		<tag k="natural" v="hill" />
		<tag k="place" v="locality" />
		<tag k="ssr:stedsnr" v="159354" />
	</node>
	<node lat="58.246536110659214" lon="7.656891667904645" id="-24404">
		<tag k="name" v="Sveinsåsen" />
		<tag k="natural" v="hill" />
		<tag k="place" v="locality" />
		<tag k="ssr:stedsnr" v="159511" />
	</node>
	<node lat="58.22980833290498" lon="7.711966658556988" id="-24405">
		<tag k="name" v="Brendehei" />
		<tag k="natural" v="hill" />
		<tag k="place" v="locality" />
		<tag k="ssr:stedsnr" v="159513" />
	</node>
	<node lat="58.13673333603505" lon="7.812205548054416" id="-24409">
		<tag k="fixme" v="consider natural=peak for the most distinct mountains in the district" />
		<tag k="name" v="Torvetjønnheia" />
		<tag k="natural" v="hill" />
		<tag k="place" v="locality" />
		<tag k="ssr:stedsnr" v="159710" />
	</node>
	<node lat="58.13498611141084" lon="7.797494440736078" id="-24410">
		<tag k="name" v="Fiskebudalen" />
		<tag k="natural" v="valley" />
		<tag k="place" v="locality" />
		<tag k="ssr:stedsnr" v="159711" />
	</node>
	<node lat="58.188244445292334" lon="8.049024995803777" id="-24460">
		<tag k="fixme" v="consider natural=peak for the most distinct mountains in the district" />
		<tag k="name" v="Skotteberg" />
		<tag k="natural" v="hill" />
		<tag k="place" v="locality" />
		<tag k="ssr:stedsnr" v="166628" />
	</node>
	<node lat="58.21354999822256" lon="8.01836389679674" id="-24464">
		<tag k="name" v="Hallingen" />
		<tag k="natural" v="slope" />
		<tag k="place" v="locality" />
		<tag k="ssr:stedsnr" v="166511" />
	</node>
	<node lat="58.12045833128431" lon="8.099533330762545" id="-24468">
		<tag k="name" v="Ronsheia" />
		<tag k="natural" v="hill" />
		<tag k="place" v="locality" />
		<tag k="ssr:stedsnr" v="166974" />
	</node>
	<node lat="58.203386114201734" lon="8.036002777263686" id="-24479">
		<tag k="name" v="Liheia" />
		<tag k="natural" v="hill" />
		<tag k="place" v="locality" />
		<tag k="ssr:stedsnr" v="167708" />
	</node>
	<node lat="58.1954888851916" lon="7.960472226678425" id="-24499">
		<tag k="fixme" v="consider natural=peak for the most distinct mountains in the district" />
		<tag k="name" v="Skråstadfjell" />
		<tag k="natural" v="hill" />
		<tag k="place" v="locality" />
		<tag k="ssr:stedsnr" v="182004" />
	</node>
	<node lat="58.06726666585835" lon="7.829236109195318" id="-24508">
		<tag k="alt_name" v="Årosveten" />
		<tag k="name" v="Årosveden" />
		<tag k="natural" v="hill" />
		<tag k="place" v="locality" />
		<tag k="ssr:stedsnr" v="182161" />
	</node>
	<node lat="58.265177782183635" lon="7.69160556320548" id="-24514">
		<tag k="alt_name" v="Vardehei" />
		<tag k="name" v="Krokvassheia" />
		<tag k="natural" v="hill" />
		<tag k="place" v="locality" />
		<tag k="ssr:stedsnr" v="182200" />
	</node>
	<node lat="58.132286110799484" lon="8.095288894661874" id="-24525">
		<tag k="alt_name" v="Skibåsen" />
		<tag k="fixme" v="consider natural=peak for the most distinct mountains in the district" />
		<tag k="name" v="Holtåsen" />
		<tag k="natural" v="hill" />
		<tag k="place" v="locality" />
		<tag k="ssr:stedsnr" v="182539" />
	</node>
	<node lat="58.281727780895864" lon="7.65167777652013" id="-24528">
		<tag k="fixme" v="consider natural=peak for the most distinct mountains in the district" />
		<tag k="name" v="Traudåsen" />
		<tag k="natural" v="hill" />
		<tag k="place" v="locality" />
		<tag k="ssr:stedsnr" v="182822" />
	</node>
	<node lat="58.08707221926839" lon="7.657977774548991" id="-24532">
		<tag k="alt_name" v="Stigheia" />
		<tag k="name" v="Stiheia" />
		<tag k="natural" v="hill" />
		<tag k="place" v="locality" />
		<tag k="ssr:stedsnr" v="182926" />
	</node>
	<node lat="58.114936114518024" lon="7.851294452095763" id="-24535">
		<tag k="fixme" v="consider natural=peak for the most distinct mountains in the district" />
		<tag k="name" v="Nordåsen" />
		<tag k="natural" v="hill" />
		<tag k="place" v="locality" />
		<tag k="ssr:stedsnr" v="264328" />
	</node>
	<node lat="58.083399998975004" lon="7.855077773962027" id="-24536">
		<tag k="name" v="Kjellevikheia" />
		<tag k="natural" v="hill" />
		<tag k="place" v="locality" />
		<tag k="ssr:stedsnr" v="264332" />
	</node>
	<node lat="58.10758889203333" lon="7.689611109089209" id="-24537">
		<tag k="fixme" v="consider natural=peak for the most distinct mountains in the district" />
		<tag k="name" v="Stredeheia" />
		<tag k="natural" v="hill" />
		<tag k="place" v="locality" />
		<tag k="ssr:stedsnr" v="264054" />
	</node>
	<node lat="58.119566671151844" lon="7.753655558812702" id="-24538">
		<tag k="name" v="Kallåsheia" />
		<tag k="natural" v="hill" />
		<tag k="place" v="locality" />
		<tag k="ssr:stedsnr" v="264140" />
	</node>
	<node lat="58.08403333565774" lon="7.808672218095599" id="-24543">
		<tag k="name" v="Austrusheia" />
		<tag k="natural" v="hill" />
		<tag k="place" v="locality" />
		<tag k="ssr:stedsnr" v="264209" />
	</node>
	<node lat="58.0746944458981" lon="7.820077775766358" id="-24544">
		<tag k="name" v="Sandefjellet" />
		<tag k="natural" v="hill" />
		<tag k="place" v="locality" />
		<tag k="ssr:stedsnr" v="264218" />
	</node>
	<node lat="58.09172222669667" lon="7.837324999453921" id="-24547">
		<tag k="name" v="Fossheia" />
		<tag k="natural" v="hill" />
		<tag k="place" v="locality" />
		<tag k="ssr:stedsnr" v="264363" />
	</node>
	<node lat="58.20214166247407" lon="7.896825003762763" id="-24562">
		<tag k="fixme" v="consider natural=peak for the most distinct mountains in the district" />
		<tag k="name" v="Øygardsåsen" />
		<tag k="natural" v="hill" />
		<tag k="place" v="locality" />
		<tag k="ssr:stedsnr" v="267026" />
	</node>
	<node lat="58.20683610899153" lon="7.902888894542929" id="-24563">
		<tag k="fixme" v="consider natural=peak for the most distinct mountains in the district" />
		<tag k="name" v="Lonåsen" />
		<tag k="natural" v="hill" />
		<tag k="place" v="locality" />
		<tag k="ssr:stedsnr" v="267028" />
	</node>
	<node lat="58.18528889054183" lon="7.969480563740229" id="-24568">
		<tag k="name" v="Den omvendte båt" />
		<tag k="natural" v="ridge" />
		<tag k="place" v="locality" />
		<tag k="ssr:stedsnr" v="267382" />
	</node>
	<node lat="58.16271666436553" lon="7.941252783819129" id="-24569">
		<tag k="name" v="Mellomheia" />
		<tag k="natural" v="hill" />
		<tag k="place" v="locality" />
		<tag k="ssr:stedsnr" v="267390" />
	</node>
	<node lat="58.104508335071536" lon="7.659161102964107" id="-24572">
		<tag k="name" v="Haugen" />
		<tag k="natural" v="hill" />
		<tag k="place" v="locality" />
		<tag k="ssr:stedsnr" v="203023" />
	</node>
	<node lat="58.12960555985363" lon="7.642183338606437" id="-24574">
		<tag k="name" v="Kannemyråsen" />
		<tag k="natural" v="hill" />
		<tag k="place" v="locality" />
		<tag k="ssr:stedsnr" v="203028" />
	</node>
	<node lat="58.13551666620986" lon="7.6333305574037205" id="-24575">
		<tag k="fixme" v="consider natural=peak for the most distinct mountains in the district" />
		<tag k="name" v="Skuggedalsheia" />
		<tag k="natural" v="hill" />
		<tag k="place" v="locality" />
		<tag k="ssr:stedsnr" v="203031" />
	</node>
	<node lat="58.12046666929922" lon="7.67044721837506" id="-24576">
		<tag k="name" v="Dalen" />
		<tag k="natural" v="valley" />
		<tag k="place" v="locality" />
		<tag k="ssr:stedsnr" v="203051" />
	</node>
	<node lat="58.11124444781923" lon="7.627283327654678" id="-24579">
		<tag k="name" v="Telandsheia" />
		<tag k="natural" v="hill" />
		<tag k="place" v="locality" />
		<tag k="ssr:stedsnr" v="203064" />
	</node>
	<node lat="58.12185833509353" lon="7.6414499990334885" id="-24580">
		<tag k="name" v="Knausane" />
		<tag k="natural" v="hill" />
		<tag k="place" v="locality" />
		<tag k="ssr:stedsnr" v="203110" />
	</node>
	<node lat="58.1246694431366" lon="7.628552771711343" id="-24581">
		<tag k="name" v="Bruliåsane" />
		<tag k="natural" v="hill" />
		<tag k="place" v="locality" />
		<tag k="ssr:stedsnr" v="203090" />
	</node>
	<node lat="58.11966944259253" lon="7.634169440201897" id="-24582">
		<tag k="name" v="Brakallbakken" />
		<tag k="natural" v="slope" />
		<tag k="place" v="locality" />
		<tag k="ssr:stedsnr" v="203091" />
	</node>
	<node lat="58.062961113167795" lon="7.731705547676742" id="-24585">
		<tag k="name" v="Svinåsen" />
		<tag k="natural" v="hill" />
		<tag k="place" v="locality" />
		<tag k="ssr:stedsnr" v="203097" />
	</node>
	<node lat="58.13303055776415" lon="7.683283328477442" id="-24587">
		<tag k="fixme" v="consider natural=peak for the most distinct mountains in the district" />
		<tag k="name" v="Ljomåsen" />
		<tag k="natural" v="hill" />
		<tag k="place" v="locality" />
		<tag k="ssr:stedsnr" v="203267" />
	</node>
	<node lat="58.20567777603347" lon="7.853883339861105" id="-24589">
		<tag k="name" v="Solheiknotten" />
		<tag k="natural" v="hill" />
		<tag k="place" v="locality" />
		<tag k="ssr:stedsnr" v="267916" />
	</node>
	<node lat="58.078866667097444" lon="7.917108340101387" id="-24592">
		<tag k="name" v="Vognsnesvardehei" />
		<tag k="natural" v="hill" />
		<tag k="place" v="locality" />
		<tag k="ssr:stedsnr" v="203906" />
	</node>
	<node lat="58.197797222976725" lon="7.857691661258096" id="-24596">
		<tag k="name" v="Gaudedalen" />
		<tag k="natural" v="valley" />
		<tag k="place" v="locality" />
		<tag k="ssr:stedsnr" v="267920" />
	</node>
	<node lat="58.199394444274866" lon="7.876080562441784" id="-24597">
		<tag k="alt_name" v="Ospheia" />
		<tag k="fixme" v="consider natural=peak for the most distinct mountains in the district" />
		<tag k="name" v="Ospeheia" />
		<tag k="natural" v="hill" />
		<tag k="place" v="locality" />
		<tag k="ssr:stedsnr" v="267923" />
	</node>
	<node lat="58.231244441515926" lon="7.902874997279392" id="-24605">
		<tag k="fixme" v="consider natural=peak for the most distinct mountains in the district" />
		<tag k="name" v="Bymyrheia" />
		<tag k="natural" v="hill" />
		<tag k="place" v="locality" />
		<tag k="ssr:stedsnr" v="210103" />
	</node>
	<node lat="58.2157000043487" lon="7.870941664273447" id="-24606">
		<tag k="name" v="Låven" />
		<tag k="natural" v="hill" />
		<tag k="place" v="locality" />
		<tag k="ssr:stedsnr" v="210111" />
	</node>
	<node lat="58.225277779092856" lon="7.885483339393662" id="-24607">
		<tag k="name" v="Benkeheia" />
		<tag k="natural" v="hill" />
		<tag k="place" v="locality" />
		<tag k="ssr:stedsnr" v="210122" />
	</node>
	<node lat="58.24328333275465" lon="8.117636107203499" id="-24611">
		<tag k="name" v="Klomra" />
		<tag k="natural" v="valley" />
		<tag k="place" v="locality" />
		<tag k="ssr:stedsnr" v="210246" />
	</node>
	<node lat="58.24351944622793" lon="8.151080548855107" id="-24613">
		<tag k="fixme" v="consider natural=peak for the most distinct mountains in the district" />
		<tag k="name" v="Nordre Monshei" />
		<tag k="natural" v="hill" />
		<tag k="place" v="locality" />
		<tag k="ssr:stedsnr" v="210268" />
	</node>
	<node lat="58.250344446611884" lon="8.096833325021292" id="-24614">
		<tag k="name" v="Daleflyene" />
		<tag k="natural" v="hill" />
		<tag k="place" v="locality" />
		<tag k="ssr:stedsnr" v="210283" />
	</node>
	<node lat="58.27441388924609" lon="8.159352779653952" id="-24616">
		<tag k="fixme" v="consider natural=peak for the most distinct mountains in the district" />
		<tag k="name" v="Svarteberg" />
		<tag k="natural" v="hill" />
		<tag k="place" v="locality" />
		<tag k="ssr:stedsnr" v="210294" />
	</node>
	<node lat="58.232944445503634" lon="8.193547228146855" id="-24617">
		<tag k="name" v="Sjøhei" />
		<tag k="natural" v="hill" />
		<tag k="place" v="locality" />
		<tag k="ssr:stedsnr" v="210402" />
	</node>
	<node lat="58.26839444507465" lon="8.155130554413235" id="-24621">
		<tag k="name" v="Klavedalen" />
		<tag k="natural" v="valley" />
		<tag k="place" v="locality" />
		<tag k="ssr:stedsnr" v="210318" />
	</node>
	<node lat="58.2212805511936" lon="8.137433325769543" id="-24622">
		<tag k="fixme" v="consider natural=peak for the most distinct mountains in the district" />
		<tag k="name" v="Rebbåsen" />
		<tag k="natural" v="hill" />
		<tag k="place" v="locality" />
		<tag k="ssr:stedsnr" v="210324" />
	</node>
	<node lat="58.219958336109215" lon="8.162497217874504" id="-24624">
		<tag k="name" v="Piningen" />
		<tag k="natural" v="valley" />
		<tag k="place" v="locality" />
		<tag k="ssr:stedsnr" v="210328" />
	</node>
	<node lat="58.222905552268934" lon="8.155469449010607" id="-24625">
		<tag k="name" v="Store Karlsdalen" />
		<tag k="natural" v="valley" />
		<tag k="place" v="locality" />
		<tag k="ssr:stedsnr" v="210330" />
	</node>
	<node lat="58.3386666641369" lon="7.58154167275894" id="-24633">
		<tag k="name" v="Nonåsen" />
		<tag k="natural" v="hill" />
		<tag k="place" v="locality" />
		<tag k="ssr:stedsnr" v="220203" />
	</node>
	<node lat="58.2672444438514" lon="7.580983338784909" id="-24634">
		<tag k="name" v="Høgebakk" />
		<tag k="natural" v="slope" />
		<tag k="place" v="locality" />
		<tag k="ssr:stedsnr" v="220172" />
	</node>
	<node lat="58.355513890013896" lon="7.603908338401873" id="-24635">
		<tag k="name" v="Kråkekleiv" />
		<tag k="natural" v="slope" />
		<tag k="place" v="locality" />
		<tag k="ssr:stedsnr" v="220316" />
	</node>
	<node lat="58.3112805547681" lon="7.606291664025275" id="-24636">
		<tag k="name" v="Stien" />
		<tag k="natural" v="hill" />
		<tag k="place" v="locality" />
		<tag k="ssr:stedsnr" v="220321" />
	</node>
	<node lat="58.29114166808102" lon="7.602641659027722" id="-24640">
		<tag k="name" v="Buåsbakken" />
		<tag k="natural" v="hill" />
		<tag k="place" v="locality" />
		<tag k="ssr:stedsnr" v="220274" />
	</node>
	<node lat="58.29574444521579" lon="7.70422222781267" id="-24644">
		<tag k="name" v="Kalveskårheia" />
		<tag k="natural" v="slope" />
		<tag k="place" v="locality" />
		<tag k="ssr:stedsnr" v="220480" />
	</node>
	<node lat="58.2927777754047" lon="7.720216665609088" id="-24645">
		<tag k="fixme" v="consider natural=peak for the most distinct mountains in the district" />
		<tag k="name" v="Øvrebøåsen" />
		<tag k="natural" v="hill" />
		<tag k="place" v="locality" />
		<tag k="ssr:stedsnr" v="220485" />
	</node>
	<node lat="58.321888892215874" lon="7.719424996709513" id="-24647">
		<tag k="fixme" v="consider natural=peak for the most distinct mountains in the district" />
		<tag k="name" v="Staksåsen" />
		<tag k="natural" v="hill" />
		<tag k="place" v="locality" />
		<tag k="ssr:stedsnr" v="220620" />
	</node>
	<node lat="58.16638610858223" lon="7.866483333896427" id="-24653">
		<tag k="name" v="Gaukheia" />
		<tag k="natural" v="hill" />
		<tag k="place" v="locality" />
		<tag k="ssr:stedsnr" v="220828" />
	</node>
	<node lat="58.301777775580504" lon="7.710758340323885" id="-24654">
		<tag k="fixme" v="consider natural=peak for the most distinct mountains in the district" />
		<tag k="name" v="Lonåsen" />
		<tag k="natural" v="hill" />
		<tag k="place" v="locality" />
		<tag k="ssr:stedsnr" v="220574" />
	</node>
	<node lat="58.30259722036575" lon="7.708858341405824" id="-24655">
		<tag k="name" v="Blikksdalen" />
		<tag k="natural" v="valley" />
		<tag k="place" v="locality" />
		<tag k="ssr:stedsnr" v="220577" />
	</node>
	<node lat="58.35794722372272" lon="7.625486112047429" id="-24656">
		<tag k="name" v="Merkedalen" />
		<tag k="natural" v="valley" />
		<tag k="place" v="locality" />
		<tag k="ssr:stedsnr" v="220584" />
	</node>
	<node lat="58.35360833453289" lon="7.5838000021601335" id="-24660">
		<tag k="name" v="Slettehei" />
		<tag k="natural" v="hill" />
		<tag k="place" v="locality" />
		<tag k="ssr:stedsnr" v="221220" />
	</node>
	<node lat="58.303219446184904" lon="7.618650005658305" id="-24661">
		<tag k="name" v="Bjørnehei" />
		<tag k="natural" v="hill" />
		<tag k="place" v="locality" />
		<tag k="ssr:stedsnr" v="221228" />
	</node>
	<node lat="58.23978333489801" lon="7.891844448119237" id="-24662">
		<tag k="name" v="Sjøheia" />
		<tag k="natural" v="hill" />
		<tag k="place" v="locality" />
		<tag k="ssr:stedsnr" v="271001" />
	</node>
	<node lat="58.190763886876496" lon="7.84941388492535" id="-24665">
		<tag k="name" v="Gurisdalen" />
		<tag k="natural" v="valley" />
		<tag k="place" v="locality" />
		<tag k="ssr:stedsnr" v="220994" />
	</node>
	<node lat="58.21634444341302" lon="7.8095638972696015" id="-24696">
		<tag k="name" v="Meddalen" />
		<tag k="natural" v="valley" />
		<tag k="place" v="locality" />
		<tag k="ssr:stedsnr" v="221776" />
	</node>
	<node lat="58.12542499965454" lon="7.877427772074354" id="-24697">
		<tag k="fixme" v="consider natural=peak for the most distinct mountains in the district" />
		<tag k="name" v="Lillehei" />
		<tag k="natural" v="hill" />
		<tag k="place" v="locality" />
		<tag k="ssr:stedsnr" v="221783" />
	</node>
	<node lat="58.24814722618944" lon="7.799658331249146" id="-24703">
		<tag k="fixme" v="consider natural=peak for the most distinct mountains in the district" />
		<tag k="name" v="Sirishei" />
		<tag k="natural" v="hill" />
		<tag k="place" v="locality" />
		<tag k="ssr:stedsnr" v="221806" />
	</node>
	<node lat="58.18297222346375" lon="7.972786119555896" id="-24711">
		<tag k="name" v="Kyredalen" />
		<tag k="natural" v="valley" />
		<tag k="place" v="locality" />
		<tag k="ssr:stedsnr" v="271091" />
	</node>
	<node lat="58.23888332894144" lon="7.8828472226911295" id="-24729">
		<tag k="name" v="Blokkedalen" />
		<tag k="natural" v="valley" />
		<tag k="place" v="locality" />
		<tag k="ssr:stedsnr" v="271147" />
	</node>
	<node lat="58.245094446500445" lon="8.081919443144361" id="-24737">
		<tag k="name" v="Krogtjønndalen" />
		<tag k="natural" v="valley" />
		<tag k="place" v="locality" />
		<tag k="ssr:stedsnr" v="271263" />
	</node>
	<node lat="58.26715833091828" lon="8.051336116202167" id="-24741">
		<tag k="name" v="Spekesilddalen" />
		<tag k="natural" v="valley" />
		<tag k="place" v="locality" />
		<tag k="ssr:stedsnr" v="271201" />
	</node>
	<node lat="58.247663884426956" lon="8.076733333152456" id="-24742">
		<tag k="name" v="Svensmyrdalen" />
		<tag k="natural" v="valley" />
		<tag k="place" v="locality" />
		<tag k="ssr:stedsnr" v="271297" />
	</node>
	<node lat="58.24145833195725" lon="8.186636109149768" id="-24744">
		<tag k="fixme" v="consider natural=peak for the most distinct mountains in the district" />
		<tag k="name" v="Bjorvannsåsen" />
		<tag k="natural" v="hill" />
		<tag k="place" v="locality" />
		<tag k="ssr:stedsnr" v="271414" />
	</node>
	<node lat="58.24476389253764" lon="8.132069438781297" id="-24745">
		<tag k="name" v="Blåbærhei" />
		<tag k="natural" v="hill" />
		<tag k="place" v="locality" />
		<tag k="ssr:stedsnr" v="227104" />
	</node>
	<node lat="58.23101388935988" lon="8.105616659477914" id="-24751">
		<tag k="name" v="Skredderhelleren" />
		<tag k="place" v="locality" />
		<tag k="ssr:stedsnr" v="227083" />
	</node>
	<node lat="58.08443888726435" lon="8.01288055445256" id="-24755">
		<tag k="name" v="Markestøheia" />
		<tag k="natural" v="hill" />
		<tag k="place" v="locality" />
		<tag k="ssr:stedsnr" v="227502" />
	</node>
	<node lat="58.0765722207383" lon="7.997533328919757" id="-24756">
		<tag k="fixme" v="consider natural=peak for the most distinct mountains in the district" />
		<tag k="name" v="Alsåsen" />
		<tag k="natural" v="hill" />
		<tag k="place" v="locality" />
		<tag k="ssr:stedsnr" v="227438" />
	</node>
	<node lat="58.16024722196513" lon="8.003074998188675" id="-24761">
		<tag k="name" v="Spicheren" />
		<tag k="natural" v="hill" />
		<tag k="place" v="locality" />
		<tag k="ssr:stedsnr" v="227619" />
	</node>
	<node lat="58.1270944458022" lon="7.921138886081253" id="-24763">
		<tag k="name" v="Sandkleivdalen" />
		<tag k="natural" v="valley" />
		<tag k="place" v="locality" />
		<tag k="ssr:stedsnr" v="227940" />
	</node>
	<node lat="58.11801111012284" lon="7.938397224586844" id="-24764">
		<tag k="name" v="Åstoppen" />
		<tag k="natural" v="hill" />
		<tag k="place" v="locality" />
		<tag k="ssr:stedsnr" v="227682" />
	</node>
	<node lat="58.1791611126284" lon="8.004986110144646" id="-24766">
		<tag k="name" v="Eikedalen" />
		<tag k="natural" v="valley" />
		<tag k="place" v="locality" />
		<tag k="ssr:stedsnr" v="227701" />
	</node>
	<node lat="58.176588890156914" lon="8.103700005154298" id="-24767">
		<tag k="fixme" v="consider natural=peak for the most distinct mountains in the district" />
		<tag k="name" v="Buråsen" />
		<tag k="natural" v="hill" />
		<tag k="place" v="locality" />
		<tag k="ssr:stedsnr" v="227896" />
	</node>
	<node lat="58.18350833446966" lon="8.082461114821522" id="-24768">
		<tag k="fixme" v="consider natural=peak for the most distinct mountains in the district" />
		<tag k="name" v="Gromåsen" />
		<tag k="natural" v="hill" />
		<tag k="place" v="locality" />
		<tag k="ssr:stedsnr" v="227901" />
	</node>
	<node lat="58.16209999714402" lon="8.004291658373653" id="-24770">
		<tag k="name" v="Salen" />
		<tag k="natural" v="valley" />
		<tag k="place" v="locality" />
		<tag k="ssr:stedsnr" v="227988" />
	</node>
	<node lat="58.228799999305636" lon="8.192625007643835" id="-24776">
		<tag k="name" v="Varden" />
		<tag k="place" v="locality" />
		<tag k="ssr:stedsnr" v="228398" />
	</node>
	<node lat="58.261855551476565" lon="8.144758338016263" id="-24787">
		<tag k="name" v="Dalehagen" />
		<tag k="place" v="locality" />
		<tag k="ssr:stedsnr" v="229189" />
	</node>
	<node lat="58.13740832917823" lon="7.903091664328948" id="-24792">
		<tag k="name" v="Bjørkedalsheia" />
		<tag k="natural" v="hill" />
		<tag k="place" v="locality" />
		<tag k="ssr:stedsnr" v="449856" />
	</node>
	<node lat="58.277080555029485" lon="8.147463886879729" id="-24808">
		<tag k="name" v="Tverrdalen" />
		<tag k="natural" v="valley" />
		<tag k="place" v="locality" />
		<tag k="ssr:stedsnr" v="453289" />
	</node>
	<node lat="58.27657777455603" lon="8.14427222447183" id="-24809">
		<tag k="name" v="Tverrdalskotet" />
		<tag k="natural" v="slope" />
		<tag k="place" v="locality" />
		<tag k="ssr:stedsnr" v="453292" />
	</node>
	<node lat="58.121675001021615" lon="8.156536106696011" id="-24811">
		<tag k="name" v="Kvaren" />
		<tag k="natural" v="hill" />
		<tag k="place" v="locality" />
		<tag k="ssr:stedsnr" v="243500" />
	</node>
	<node lat="58.16411388538962" lon="8.125430549090778" id="-24813">
		<tag k="fixme" v="consider natural=peak for the most distinct mountains in the district" />
		<tag k="name" v="Roksheia" />
		<tag k="natural" v="hill" />
		<tag k="place" v="locality" />
		<tag k="ssr:stedsnr" v="243597" />
	</node>
	<node lat="58.22893333542128" lon="8.193541663030524" id="-24814">
		<tag k="alt_name" v="Varden" />
		<tag k="fixme" v="consider natural=peak for the most distinct mountains in the district" />
		<tag k="name" v="Vardeheia" />
		<tag k="natural" v="hill" />
		<tag k="place" v="locality" />
		<tag k="ssr:stedsnr" v="243743" />
	</node>
	<node lat="58.27504721991361" lon="7.670977772949356" id="-24815">
		<tag k="name" v="Spikkeheia" />
		<tag k="natural" v="hill" />
		<tag k="place" v="locality" />
		<tag k="ssr:stedsnr" v="243835" />
	</node>
	<node lat="58.24487777504547" lon="8.040469444312455" id="-24817">
		<tag k="name" v="Loneholtene" />
		<tag k="natural" v="slope" />
		<tag k="place" v="locality" />
		<tag k="ssr:stedsnr" v="453077" />
	</node>
	<node lat="58.25731676753656" lon="8.034225071658655" id="-24821">
		<tag k="name" v="Kjørkestøa" />
		<tag k="natural" v="slope" />
		<tag k="place" v="locality" />
		<tag k="ssr:stedsnr" v="453091" />
	</node>
	<node lat="58.22276388856174" lon="7.896341673796261" id="-24824">
		<tag k="name" v="Fiskebudalen" />
		<tag k="natural" v="valley" />
		<tag k="place" v="locality" />
		<tag k="ssr:stedsnr" v="453101" />
	</node>
	<node lat="58.26648888870959" lon="8.040997223643721" id="-24825">
		<tag k="name" v="Barlinddalen" />
		<tag k="natural" v="valley" />
		<tag k="place" v="locality" />
		<tag k="ssr:stedsnr" v="453176" />
	</node>
	<node lat="58.26403889335479" lon="8.046908340069136" id="-24826">
		<tag k="fixme" v="consider natural=peak for the most distinct mountains in the district" />
		<tag k="name" v="Traudalsknutten" />
		<tag k="natural" v="hill" />
		<tag k="place" v="locality" />
		<tag k="ssr:stedsnr" v="453178" />
	</node>
	<node lat="58.235197225722125" lon="8.049774994924235" id="-24827">
		<tag k="name" v="Farvannsliane" />
		<tag k="natural" v="slope" />
		<tag k="place" v="locality" />
		<tag k="ssr:stedsnr" v="453192" />
	</node>
	<node lat="58.21118888677007" lon="8.081827785026224" id="-24828">
		<tag k="fixme" v="consider natural=peak for the most distinct mountains in the district" />
		<tag k="name" v="Ulvåsen" />
		<tag k="natural" v="hill" />
		<tag k="place" v="locality" />
		<tag k="ssr:stedsnr" v="453153" />
	</node>
	<node lat="58.27149722240879" lon="8.062019451526105" id="-24830">
		<tag k="fixme" v="consider natural=peak for the most distinct mountains in the district" />
		<tag k="name" v="Langetjønnåsen" />
		<tag k="natural" v="hill" />
		<tag k="place" v="locality" />
		<tag k="ssr:stedsnr" v="453340" />
	</node>
	<node lat="58.19674999740546" lon="7.9520027737386165" id="-24831">
		<tag k="name" v="Åreholtane" />
		<tag k="natural" v="slope" />
		<tag k="place" v="locality" />
		<tag k="ssr:stedsnr" v="453348" />
	</node>
	<node lat="58.22398333480066" lon="7.985644451114668" id="-24832">
		<tag k="name" v="Vondalshei" />
		<tag k="natural" v="hill" />
		<tag k="place" v="locality" />
		<tag k="ssr:stedsnr" v="453361" />
	</node>
	<node lat="58.10903611373494" lon="7.658702776335598" id="-24835">
		<tag k="name" v="Urdalsheia" />
		<tag k="natural" v="hill" />
		<tag k="place" v="locality" />
		<tag k="ssr:stedsnr" v="264089" />
	</node>
	<node lat="58.05632222224608" lon="7.6686583265145325" id="-24836">
		<tag k="fixme" v="consider natural=peak for the most distinct mountains in the district" />
		<tag k="name" v="Lauvåsen" />
		<tag k="natural" v="hill" />
		<tag k="place" v="locality" />
		<tag k="ssr:stedsnr" v="264096" />
	</node>
	<node lat="58.081758334826574" lon="7.7664249991198995" id="-24838">
		<tag k="name" v="Linneroda" />
		<tag k="natural" v="valley" />
		<tag k="place" v="locality" />
		<tag k="ssr:stedsnr" v="264242" />
	</node>
	<node lat="58.05607500264102" lon="7.775977770700174" id="-24840">
		<tag k="name" v="Kastellheia" />
		<tag k="natural" v="hill" />
		<tag k="place" v="locality" />
		<tag k="ssr:stedsnr" v="264184" />
	</node>
	<node lat="58.07975555532953" lon="7.683972219497207" id="-24850">
		<tag k="name" v="Sjøbudalen" />
		<tag k="natural" v="valley" />
		<tag k="place" v="locality" />
		<tag k="ssr:stedsnr" v="264905" />
	</node>
	<node lat="58.13832222030112" lon="7.6232527810777775" id="-24851">
		<tag k="name" v="Åsane" />
		<tag k="natural" v="hill" />
		<tag k="place" v="locality" />
		<tag k="ssr:stedsnr" v="264943" />
	</node>
	<node lat="58.18372221950694" lon="7.9039555567755215" id="-24860">
		<tag k="name" v="Bjønndalen" />
		<tag k="natural" v="valley" />
		<tag k="place" v="locality" />
		<tag k="ssr:stedsnr" v="267005" />
	</node>
	<node lat="58.18496667102625" lon="7.897705561604982" id="-24861">
		<tag k="name" v="Bordalsheia" />
		<tag k="natural" v="hill" />
		<tag k="place" v="locality" />
		<tag k="ssr:stedsnr" v="267009" />
	</node>
	<node lat="58.13770833674647" lon="7.9047000057152434" id="-24863">
		<tag k="name" v="Bjørkedalen" />
		<tag k="natural" v="valley" />
		<tag k="place" v="locality" />
		<tag k="ssr:stedsnr" v="267899" />
	</node>
	<node lat="58.16460278206168" lon="7.920727772029956" id="-24864">
		<tag k="fixme" v="consider natural=peak for the most distinct mountains in the district" />
		<tag k="name" v="Appelsinhaugen" />
		<tag k="natural" v="hill" />
		<tag k="place" v="locality" />
		<tag k="ssr:stedsnr" v="267906" />
	</node>
	<node lat="58.262194441093165" lon="8.045819444274773" id="-24870">
		<tag k="name" v="Båsehei" />
		<tag k="natural" v="hill" />
		<tag k="place" v="locality" />
		<tag k="ssr:stedsnr" v="271177" />
	</node>
	<node lat="58.269980553199844" lon="8.09697222592161" id="-24875">
		<tag k="name" v="Oseheia" />
		<tag k="natural" v="hill" />
		<tag k="place" v="locality" />
		<tag k="ssr:stedsnr" v="271323" />
	</node>
	<node lat="58.20172777597196" lon="7.975816661542751" id="-24876">
		<tag k="name" v="Bjønnehola" />
		<tag k="natural" v="valley" />
		<tag k="place" v="locality" />
		<tag k="ssr:stedsnr" v="271385" />
	</node>
	<node lat="58.2310888896561" lon="8.084291668062122" id="-24878">
		<tag k="name" v="Lille Grisehefte" />
		<tag k="natural" v="hill" />
		<tag k="place" v="locality" />
		<tag k="ssr:stedsnr" v="271478" />
	</node>
	<node lat="58.21968333390445" lon="8.08711388759275" id="-24880">
		<tag k="alt_name" v="Lille Borgheia" />
		<tag k="fixme" v="consider natural=peak for the most distinct mountains in the district" />
		<tag k="name" v="Lille Borgeheia" />
		<tag k="natural" v="hill" />
		<tag k="place" v="locality" />
		<tag k="ssr:stedsnr" v="271483" />
	</node>
	<node lat="58.217649995978086" lon="8.084577770398603" id="-24881">
		<tag k="name" v="Fattigkontheia" />
		<tag k="natural" v="hill" />
		<tag k="place" v="locality" />
		<tag k="ssr:stedsnr" v="271502" />
	</node>
	<node lat="58.35215277989373" lon="7.6021083393311475" id="-24888">
		<tag k="name" v="Kråkerøy" />
		<tag k="natural" v="slope" />
		<tag k="place" v="locality" />
		<tag k="ssr:stedsnr" v="280191" />
	</node>
	<node lat="58.253144443831815" lon="7.618883333989342" id="-24890">
		<tag k="fixme" v="consider natural=peak for the most distinct mountains in the district" />
		<tag k="name" v="Ramseknotten" />
		<tag k="natural" v="hill" />
		<tag k="place" v="locality" />
		<tag k="ssr:stedsnr" v="281202" />
	</node>
	<node lat="58.286166667564416" lon="7.597919444901097" id="-24892">
		<tag k="fixme" v="consider natural=peak for the most distinct mountains in the district" />
		<tag k="name" v="Tvitjønnhei" />
		<tag k="natural" v="hill" />
		<tag k="place" v="locality" />
		<tag k="ssr:stedsnr" v="281270" />
	</node>
	<node lat="58.26968889237238" lon="7.6149166742114645" id="-24893">
		<tag k="name" v="Bjelkedalen" />
		<tag k="natural" v="valley" />
		<tag k="place" v="locality" />
		<tag k="ssr:stedsnr" v="281167" />
	</node>
	<node lat="58.311827780581176" lon="7.60092499764707" id="-24899">
		<tag k="name" v="Høystakkåsen" />
		<tag k="natural" v="hill" />
		<tag k="place" v="locality" />
		<tag k="ssr:stedsnr" v="281377" />
	</node>
	<node lat="58.27986111193802" lon="7.646927772452461" id="-24900">
		<tag k="name" v="Dalan" />
		<tag k="natural" v="valley" />
		<tag k="place" v="locality" />
		<tag k="ssr:stedsnr" v="281411" />
	</node>
	<node lat="58.23169722445752" lon="7.6887388952991484" id="-24907">
		<tag k="name" v="Haukenebben" />
		<tag k="natural" v="hill" />
		<tag k="place" v="locality" />
		<tag k="ssr:stedsnr" v="281483" />
	</node>
	<node lat="58.23972222593197" lon="7.680319449821901" id="-24910">
		<tag k="name" v="Tomosholtet" />
		<tag k="natural" v="hill" />
		<tag k="place" v="locality" />
		<tag k="ssr:stedsnr" v="281487" />
	</node>
	<node lat="58.234788892287156" lon="7.723802781774107" id="-24911">
		<tag k="name" v="Hedderhei" />
		<tag k="natural" v="hill" />
		<tag k="place" v="locality" />
		<tag k="ssr:stedsnr" v="281490" />
	</node>
	<node lat="58.32336110700938" lon="7.708450006447855" id="-24912">
		<tag k="name" v="Øygarden" />
		<tag k="natural" v="slope" />
		<tag k="place" v="locality" />
		<tag k="ssr:stedsnr" v="281603" />
	</node>
	<node lat="58.32874444575696" lon="7.690686109104447" id="-24914">
		<tag k="name" v="Lunnan" />
		<tag k="natural" v="slope" />
		<tag k="place" v="locality" />
		<tag k="ssr:stedsnr" v="281615" />
	</node>
	<node lat="58.30591111528712" lon="7.63601943993185" id="-24915">
		<tag k="name" v="Hestebakken" />
		<tag k="natural" v="slope" />
		<tag k="place" v="locality" />
		<tag k="ssr:stedsnr" v="281568" />
	</node>
	<node lat="58.33712500131266" lon="7.624013881159058" id="-24917">
		<tag k="name" v="Treskostø" />
		<tag k="natural" v="valley" />
		<tag k="place" v="locality" />
		<tag k="ssr:stedsnr" v="281585" />
	</node>
	<node lat="58.25864166583167" lon="7.692813881419701" id="-24918">
		<tag k="name" v="Krona" />
		<tag k="natural" v="valley" />
		<tag k="place" v="locality" />
		<tag k="ssr:stedsnr" v="281588" />
	</node>
	<node lat="58.13528055468255" lon="7.836711107856461" id="-24919">
		<tag k="name" v="Medheidalen" />
		<tag k="natural" v="valley" />
		<tag k="place" v="locality" />
		<tag k="ssr:stedsnr" v="281712" />
	</node>
	<node lat="58.121319440411405" lon="7.893666661597615" id="-24922">
		<tag k="name" v="Tormodshola" />
		<tag k="natural" v="valley" />
		<tag k="place" v="locality" />
		<tag k="ssr:stedsnr" v="281828" />
	</node>
	<node lat="58.231897218513" lon="7.806166667608297" id="-24923">
		<tag k="name" v="Brattedalen" />
		<tag k="natural" v="valley" />
		<tag k="place" v="locality" />
		<tag k="ssr:stedsnr" v="281867" />
	</node>
	<node lat="58.172197224505766" lon="7.789655562754568" id="-24925">
		<tag k="name" v="Trandlemyrfjellan" />
		<tag k="natural" v="hill" />
		<tag k="place" v="locality" />
		<tag k="ssr:stedsnr" v="281875" />
	</node>
	<node lat="58.24161111469459" lon="7.7928027714444665" id="-24926">
		<tag k="name" v="Krossvannsdalen" />
		<tag k="natural" v="valley" />
		<tag k="place" v="locality" />
		<tag k="ssr:stedsnr" v="281878" />
	</node>
	<node lat="58.241613888060044" lon="7.806497215559851" id="-24927">
		<tag k="fixme" v="consider natural=peak for the most distinct mountains in the district" />
		<tag k="name" v="Ormeheia" />
		<tag k="natural" v="hill" />
		<tag k="place" v="locality" />
		<tag k="ssr:stedsnr" v="281880" />
	</node>
	<node lat="58.19105555388157" lon="7.787986112962447" id="-24929">
		<tag k="fixme" v="consider natural=peak for the most distinct mountains in the district" />
		<tag k="name" v="Lille Refshei" />
		<tag k="natural" v="hill" />
		<tag k="place" v="locality" />
		<tag k="ssr:stedsnr" v="281903" />
	</node>
	<node lat="58.22181111394644" lon="8.103800003367967" id="-25010">
		<tag k="name" v="Smiedalen" />
		<tag k="natural" v="valley" />
		<tag k="place" v="locality" />
		<tag k="ssr:stedsnr" v="288076" />
	</node>
	<node lat="58.25216389293324" lon="8.164386108277396" id="-25014">
		<tag k="name" v="Solbakken" />
		<tag k="natural" v="slope" />
		<tag k="place" v="locality" />
		<tag k="ssr:stedsnr" v="288100" />
	</node>
	<node lat="58.1139888872978" lon="7.912736115265546" id="-25018">
		<tag k="name" v="Nordre Linddalen" />
		<tag k="natural" v="valley" />
		<tag k="place" v="locality" />
		<tag k="ssr:stedsnr" v="288400" />
	</node>
	<node lat="58.125872226005924" lon="7.904844445868795" id="-25019">
		<tag k="name" v="Lamannsheia" />
		<tag k="natural" v="hill" />
		<tag k="place" v="locality" />
		<tag k="ssr:stedsnr" v="288576" />
	</node>
	<node lat="58.14286389042953" lon="7.919636105772375" id="-25021">
		<tag k="name" v="Borheia" />
		<tag k="natural" v="hill" />
		<tag k="place" v="locality" />
		<tag k="ssr:stedsnr" v="288920" />
	</node>
	<node lat="58.20686944888564" lon="8.096016673122875" id="-25030">
		<tag k="name" v="Skipereis" />
		<tag k="place" v="locality" />
		<tag k="ssr:stedsnr" v="288980" />
	</node>
	<node lat="58.27582499857139" lon="8.14328055912234" id="-25033">
		<tag k="name" v="Tverrdalskåtet" />
		<tag k="place" v="locality" />
		<tag k="ssr:stedsnr" v="289198" />
	</node>
	<node lat="58.07256111139029" lon="7.976763893126499" id="-25034">
		<tag k="name" v="Leisberget" />
		<tag k="natural" v="hill" />
		<tag k="place" v="locality" />
		<tag k="ssr:stedsnr" v="289306" />
	</node>
	<node lat="58.088008330371004" lon="8.007766668329978" id="-25035">
		<tag k="name" v="Huddedalen" />
		<tag k="natural" v="valley" />
		<tag k="place" v="locality" />
		<tag k="ssr:stedsnr" v="289313" />
	</node>
	<node lat="58.1643861098296" lon="8.015036110776865" id="-25044">
		<tag k="name" v="Presteheia" />
		<tag k="natural" v="hill" />
		<tag k="place" v="locality" />
		<tag k="ssr:stedsnr" v="289589" />
	</node>
	<node lat="58.34545833540854" lon="7.6034416686150275" id="-25047">
		<tag k="name" v="Mauråsbrotan" />
		<tag k="natural" v="slope" />
		<tag k="place" v="locality" />
		<tag k="ssr:stedsnr" v="462250" />
	</node>
	<node lat="58.24288055559983" lon="7.659674998645049" id="-25048">
		<tag k="name" v="Smørbakkan" />
		<tag k="natural" v="hill" />
		<tag k="place" v="locality" />
		<tag k="ssr:stedsnr" v="462431" />
	</node>
	<node lat="58.2369916679076" lon="7.634766664754514" id="-25049">
		<tag k="fixme" v="consider natural=peak for the most distinct mountains in the district" />
		<tag k="name" v="Høgåsen" />
		<tag k="natural" v="hill" />
		<tag k="place" v="locality" />
		<tag k="ssr:stedsnr" v="462441" />
	</node>
	<node lat="58.24835555997876" lon="7.664038896304725" id="-25050">
		<tag k="name" v="Fylltjønnsbakkan" />
		<tag k="natural" v="slope" />
		<tag k="place" v="locality" />
		<tag k="ssr:stedsnr" v="462450" />
	</node>
	<node lat="58.20789166326525" lon="7.79536666817046" id="-25053">
		<tag k="fixme" v="consider natural=peak for the most distinct mountains in the district" />
		<tag k="name" v="Bjørnåsen" />
		<tag k="natural" v="hill" />
		<tag k="place" v="locality" />
		<tag k="ssr:stedsnr" v="462630" />
	</node>
	<node lat="58.20681944349438" lon="7.789994447030159" id="-25054">
		<tag k="name" v="Stokksdalen" />
		<tag k="natural" v="valley" />
		<tag k="place" v="locality" />
		<tag k="ssr:stedsnr" v="462634" />
	</node>
	<node lat="58.259383330603356" lon="7.581344452092253" id="-25059">
		<tag k="name" v="Sirisnesdalen" />
		<tag k="natural" v="valley" />
		<tag k="place" v="locality" />
		<tag k="ssr:stedsnr" v="463141" />
	</node>
	<node lat="58.25838055426931" lon="7.592036119452377" id="-25060">
		<tag k="fixme" v="consider natural=peak for the most distinct mountains in the district" />
		<tag k="name" v="Høgåsen" />
		<tag k="natural" v="hill" />
		<tag k="place" v="locality" />
		<tag k="ssr:stedsnr" v="463094" />
	</node>
	<node lat="58.26592500421018" lon="7.548188891637829" id="-25061">
		<tag k="name" v="Hedderstødalen" />
		<tag k="natural" v="valley" />
		<tag k="place" v="locality" />
		<tag k="ssr:stedsnr" v="463097" />
	</node>
	<node lat="58.273569445469384" lon="7.560169440985271" id="-25062">
		<tag k="name" v="Hampeknollen" />
		<tag k="natural" v="hill" />
		<tag k="place" v="locality" />
		<tag k="ssr:stedsnr" v="463100" />
	</node>
	<node lat="58.25401666811826" lon="7.618905559198454" id="-25063">
		<tag k="name" v="Heptedalen" />
		<tag k="natural" v="valley" />
		<tag k="place" v="locality" />
		<tag k="ssr:stedsnr" v="463167" />
	</node>
	<node lat="58.26380278143086" lon="7.570483331106343" id="-25064">
		<tag k="fixme" v="consider natural=peak for the most distinct mountains in the district" />
		<tag k="name" v="Trælsåsen" />
		<tag k="natural" v="hill" />
		<tag k="place" v="locality" />
		<tag k="ssr:stedsnr" v="463145" />
	</node>
	<node lat="58.34249167069063" lon="7.611905563779547" id="-25067">
		<tag k="name" v="Hestebeinan" />
		<tag k="natural" v="hill" />
		<tag k="place" v="locality" />
		<tag k="ssr:stedsnr" v="463152" />
	</node>
	<node lat="58.223666665496204" lon="7.84687778581852" id="-25068">
		<tag k="name" v="Skjeddedalen" />
		<tag k="natural" v="valley" />
		<tag k="place" v="locality" />
		<tag k="ssr:stedsnr" v="463177" />
	</node>
	<node lat="58.28321944049973" lon="7.547633333621753" id="-25070">
		<tag k="fixme" v="consider natural=peak for the most distinct mountains in the district" />
		<tag k="name" v="Skogefjellan" />
		<tag k="natural" v="hill" />
		<tag k="place" v="locality" />
		<tag k="ssr:stedsnr" v="463185" />
	</node>
	<node lat="58.311463892227245" lon="7.570463895365698" id="-25074">
		<tag k="name" v="Folleråsstykket" />
		<tag k="natural" v="hill" />
		<tag k="place" v="locality" />
		<tag k="ssr:stedsnr" v="463330" />
	</node>
	<node lat="58.319938891947025" lon="7.6135055508806" id="-25077">
		<tag k="name" v="Dalan" />
		<tag k="natural" v="valley" />
		<tag k="place" v="locality" />
		<tag k="ssr:stedsnr" v="463348" />
	</node>
	<node lat="58.318797224404086" lon="7.6048583406932435" id="-25078">
		<tag k="name" v="Hosemosknotten" />
		<tag k="natural" v="hill" />
		<tag k="place" v="locality" />
		<tag k="ssr:stedsnr" v="463349" />
	</node>
	<node lat="58.28334722397737" lon="7.646902778018227" id="-25079">
		<tag k="name" v="Neverdalen" />
		<tag k="natural" v="valley" />
		<tag k="place" v="locality" />
		<tag k="ssr:stedsnr" v="463356" />
	</node>
	<node lat="58.283300000631705" lon="7.6676166720595385" id="-25082">
		<tag k="name" v="Lille Vardehei" />
		<tag k="natural" v="hill" />
		<tag k="place" v="locality" />
		<tag k="ssr:stedsnr" v="463365" />
	</node>
	<node lat="58.323669441197346" lon="7.596974991614663" id="-25083">
		<tag k="name" v="Finsådalen" />
		<tag k="natural" v="valley" />
		<tag k="place" v="locality" />
		<tag k="ssr:stedsnr" v="463296" />
	</node>
	<node lat="58.32566389046849" lon="7.60922778490179" id="-25084">
		<tag k="fixme" v="consider natural=peak for the most distinct mountains in the district" />
		<tag k="name" v="Åsan" />
		<tag k="natural" v="hill" />
		<tag k="place" v="locality" />
		<tag k="ssr:stedsnr" v="463299" />
	</node>
	<node lat="58.191538893164136" lon="7.765394438518194" id="-25095">
		<tag k="name" v="Hørlia" />
		<tag k="natural" v="slope" />
		<tag k="place" v="locality" />
		<tag k="ssr:stedsnr" v="463634" />
	</node>
	<node lat="58.2720666644881" lon="7.665988894452091" id="-25099">
		<tag k="name" v="Spikkelia" />
		<tag k="natural" v="slope" />
		<tag k="place" v="locality" />
		<tag k="ssr:stedsnr" v="463579" />
	</node>
	<node lat="58.15351389294777" lon="7.810244435847615" id="-25100">
		<tag k="name" v="Kvernhusheia" />
		<tag k="natural" v="hill" />
		<tag k="place" v="locality" />
		<tag k="ssr:stedsnr" v="463672" />
	</node>
	<node lat="58.160402775809864" lon="7.809536111430531" id="-25102">
		<tag k="name" v="Driderhepte" />
		<tag k="natural" v="slope" />
		<tag k="place" v="locality" />
		<tag k="ssr:stedsnr" v="463680" />
	</node>
	<node lat="58.14852221980034" lon="7.787952772985114" id="-25107">
		<tag k="name" v="Lille Danmarksdalen" />
		<tag k="natural" v="valley" />
		<tag k="place" v="locality" />
		<tag k="ssr:stedsnr" v="463643" />
	</node>
	<node lat="58.20437778034465" lon="7.774138884699524" id="-25108">
		<tag k="fixme" v="consider natural=peak for the most distinct mountains in the district" />
		<tag k="name" v="Aurebekkåsen" />
		<tag k="natural" v="hill" />
		<tag k="place" v="locality" />
		<tag k="ssr:stedsnr" v="463652" />
	</node>
	<node lat="58.235933331414714" lon="7.801797214457332" id="-25117">
		<tag k="name" v="Fossheia" />
		<tag k="natural" v="hill" />
		<tag k="place" v="locality" />
		<tag k="ssr:stedsnr" v="463817" />
	</node>
	<node lat="58.22246666361305" lon="7.748511108818612" id="-25118">
		<tag k="name" v="Kyrdalen" />
		<tag k="natural" v="valley" />
		<tag k="place" v="locality" />
		<tag k="ssr:stedsnr" v="463820" />
	</node>
	<node lat="58.2248916634867" lon="7.802880551012435" id="-25119">
		<tag k="name" v="Bollebakken" />
		<tag k="natural" v="hill" />
		<tag k="place" v="locality" />
		<tag k="ssr:stedsnr" v="463823" />
	</node>
	<node lat="58.22736666725141" lon="7.814799995938454" id="-25120">
		<tag k="name" v="Bydalen" />
		<tag k="natural" v="valley" />
		<tag k="place" v="locality" />
		<tag k="ssr:stedsnr" v="463826" />
	</node>
	<node lat="58.23127777705947" lon="7.827925004038334" id="-25122">
		<tag k="fixme" v="consider natural=peak for the most distinct mountains in the district" />
		<tag k="name" v="Illvorshei" />
		<tag k="natural" v="hill" />
		<tag k="place" v="locality" />
		<tag k="ssr:stedsnr" v="463832" />
	</node>
	<node lat="58.246880552019086" lon="7.805083331835098" id="-25123">
		<tag k="fixme" v="consider natural=peak for the most distinct mountains in the district" />
		<tag k="name" v="Kjetilsåsane" />
		<tag k="natural" v="hill" />
		<tag k="place" v="locality" />
		<tag k="ssr:stedsnr" v="463836" />
	</node>
	<node lat="58.164955554632854" lon="7.768499991783302" id="-25131">
		<tag k="name" v="Grasheia" />
		<tag k="natural" v="hill" />
		<tag k="place" v="locality" />
		<tag k="ssr:stedsnr" v="463730" />
	</node>
	<node lat="58.16828610776419" lon="7.759683339066846" id="-25134">
		<tag k="name" v="Furuheia" />
		<tag k="natural" v="hill" />
		<tag k="place" v="locality" />
		<tag k="ssr:stedsnr" v="463742" />
	</node>
	<node lat="58.168641667365094" lon="7.813755551211708" id="-25136">
		<tag k="name" v="Storåsen" />
		<tag k="natural" v="hill" />
		<tag k="place" v="locality" />
		<tag k="ssr:stedsnr" v="463748" />
	</node>
	<node lat="58.16790000371415" lon="7.79823056346288" id="-25140">
		<tag k="name" v="Bergedalsskotet" />
		<tag k="natural" v="cliff" />
		<tag k="ssr:stedsnr" v="463751" />
	</node>
	<node lat="58.23158333039203" lon="8.08437500708511" id="-25161">
		<tag k="fixme" v="consider natural=peak for the most distinct mountains in the district" />
		<tag k="name" v="Lømslandsheia" />
		<tag k="natural" v="hill" />
		<tag k="place" v="locality" />
		<tag k="ssr:stedsnr" v="303102" />
	</node>
	<node lat="58.289963889283506" lon="7.648344442195875" id="-25192">
		<tag k="name" v="Kviheia" />
		<tag k="natural" v="hill" />
		<tag k="place" v="locality" />
		<tag k="ssr:stedsnr" v="303811" />
	</node>
	<node lat="58.06053611065527" lon="7.689002775039713" id="-25267">
		<tag k="name" v="Molbrokknuten" />
		<tag k="natural" v="hill" />
		<tag k="place" v="locality" />
		<tag k="ssr:stedsnr" v="324126" />
	</node>
	<node lat="58.127472225608535" lon="7.628077772886873" id="-25268">
		<tag k="name" v="Pråmdalen" />
		<tag k="natural" v="valley" />
		<tag k="place" v="locality" />
		<tag k="ssr:stedsnr" v="324070" />
	</node>
	<node lat="58.12648889024895" lon="7.628127784340679" id="-25269">
		<tag k="name" v="Svartekollhei" />
		<tag k="natural" v="hill" />
		<tag k="place" v="locality" />
		<tag k="ssr:stedsnr" v="324071" />
	</node>
	<node lat="58.11738889316839" lon="7.733908330023397" id="-25275">
		<tag k="name" v="Rokkåsen" />
		<tag k="natural" v="hill" />
		<tag k="place" v="locality" />
		<tag k="ssr:stedsnr" v="324186" />
	</node>
	<node lat="58.198722226118754" lon="8.145794440716326" id="-25288">
		<tag k="name" v="Langvannsodden" />
		<tag k="natural" v="hill" />
		<tag k="place" v="locality" />
		<tag k="ssr:stedsnr" v="470033" />
	</node>
	<node lat="58.20096389281752" lon="7.853999997158158" id="-25289">
		<tag k="name" v="Stødalen" />
		<tag k="natural" v="valley" />
		<tag k="place" v="locality" />
		<tag k="ssr:stedsnr" v="327063" />
	</node>
	<node lat="58.215149999180845" lon="7.900477770164091" id="-25290">
		<tag k="name" v="Mosbyvollen" />
		<tag k="place" v="locality" />
		<tag k="ssr:stedsnr" v="327065" />
	</node>
	<node lat="58.16977778044198" lon="7.899299999545891" id="-25293">
		<tag k="alt_name" v="Øvre Grønndalen" />
		<tag k="name" v="Øvre Grønnedalen" />
		<tag k="natural" v="valley" />
		<tag k="place" v="locality" />
		<tag k="ssr:stedsnr" v="327818" />
	</node>
	<node lat="58.19528888970044" lon="7.917227784007081" id="-25296">
		<tag k="name" v="Godestø" />
		<tag k="natural" v="slope" />
		<tag k="place" v="locality" />
		<tag k="ssr:stedsnr" v="328021" />
	</node>
	<node lat="58.2032611080493" lon="7.8811972233333005" id="-25298">
		<tag k="name" v="Middalen" />
		<tag k="natural" v="valley" />
		<tag k="place" v="locality" />
		<tag k="ssr:stedsnr" v="327909" />
	</node>
	<node lat="58.2433638911309" lon="8.11785555445063" id="-25302">
		<tag k="name" v="Klomra" />
		<tag k="natural" v="hill" />
		<tag k="place" v="locality" />
		<tag k="ssr:stedsnr" v="470127" />
	</node>
	<node lat="58.25665555665196" lon="8.156458335468505" id="-25305">
		<tag k="name" v="Presthåla" />
		<tag k="place" v="locality" />
		<tag k="ssr:stedsnr" v="470079" />
	</node>
	<node lat="58.156605556640905" lon="7.983455547460567" id="-25321">
		<tag k="name" v="Olsens stykke" />
		<tag k="place" v="locality" />
		<tag k="ssr:stedsnr" v="470638" />
	</node>
	<node lat="58.1972499958639" lon="8.094802783850543" id="-25322">
		<tag k="name" v="Skillebakkene" />
		<tag k="natural" v="slope" />
		<tag k="place" v="locality" />
		<tag k="ssr:stedsnr" v="470649" />
	</node>
	<node lat="58.133650002490974" lon="8.148202776869466" id="-25323">
		<tag k="fixme" v="consider natural=peak for the most distinct mountains in the district" />
		<tag k="name" v="Rauknollen" />
		<tag k="natural" v="hill" />
		<tag k="place" v="locality" />
		<tag k="ssr:stedsnr" v="470693" />
	</node>
	<node lat="58.14578889135318" lon="7.937827769561539" id="-25326">
		<tag k="name" v="Eigeheia" />
		<tag k="natural" v="hill" />
		<tag k="place" v="locality" />
		<tag k="ssr:stedsnr" v="470602" />
	</node>
	<node lat="58.21713888952377" lon="7.864533338719528" id="-25328">
		<tag k="name" v="Plassen" />
		<tag k="natural" v="hill" />
		<tag k="place" v="locality" />
		<tag k="ssr:stedsnr" v="331106" />
	</node>
	<node lat="58.22422499838717" lon="8.033838883185952" id="-25330">
		<tag k="name" v="Haugeheia" />
		<tag k="natural" v="hill" />
		<tag k="place" v="locality" />
		<tag k="ssr:stedsnr" v="331190" />
	</node>
	<node lat="58.221355559941884" lon="8.13141666313454" id="-25332">
		<tag k="fixme" v="consider natural=peak for the most distinct mountains in the district" />
		<tag k="name" v="Steinsvannsheia" />
		<tag k="natural" v="hill" />
		<tag k="place" v="locality" />
		<tag k="ssr:stedsnr" v="331304" />
	</node>
	<node lat="58.22676944640071" lon="8.131886112092257" id="-25334">
		<tag k="fixme" v="consider natural=peak for the most distinct mountains in the district" />
		<tag k="name" v="Skjensheia" />
		<tag k="natural" v="hill" />
		<tag k="place" v="locality" />
		<tag k="ssr:stedsnr" v="331308" />
	</node>
	<node lat="58.234177780133365" lon="8.14066389235377" id="-25337">
		<tag k="alt_name" v="Knarrestadhei" />
		<tag k="name" v="Knarrestadheia" />
		<tag k="natural" v="hill" />
		<tag k="place" v="locality" />
		<tag k="ssr:stedsnr" v="331317" />
	</node>
	<node lat="58.246811114337696" lon="8.124019442828633" id="-25340">
		<tag k="name" v="Krågebustøa" />
		<tag k="place" v="locality" />
		<tag k="ssr:stedsnr" v="331219" />
	</node>
	<node lat="58.26486110977911" lon="8.150199995604641" id="-25343">
		<tag k="name" v="Bjådalen" />
		<tag k="natural" v="valley" />
		<tag k="place" v="locality" />
		<tag k="ssr:stedsnr" v="331295" />
	</node>
	<node lat="58.20361944588058" lon="7.992658328724568" id="-25346">
		<tag k="name" v="Høsselskåra" />
		<tag k="natural" v="valley" />
		<tag k="place" v="locality" />
		<tag k="ssr:stedsnr" v="470830" />
	</node>
	<node lat="58.16631111208953" lon="8.1174249946773" id="-25347">
		<tag k="fixme" v="consider natural=peak for the most distinct mountains in the district" />
		<tag k="name" v="Tømmeråsen" />
		<tag k="natural" v="hill" />
		<tag k="place" v="locality" />
		<tag k="ssr:stedsnr" v="470854" />
	</node>
	<node lat="58.211400002670416" lon="8.087308327327554" id="-25352">
		<tag k="name" v="Ursdalen" />
		<tag k="natural" v="valley" />
		<tag k="place" v="locality" />
		<tag k="ssr:stedsnr" v="470987" />
	</node>
	<node lat="58.07908333472112" lon="7.998161106560595" id="-25363">
		<tag k="name" v="Kvitefjell" />
		<tag k="natural" v="hill" />
		<tag k="place" v="locality" />
		<tag k="ssr:stedsnr" v="471348" />
	</node>
	<node lat="58.261747222073" lon="7.616247219822993" id="-25379">
		<tag k="name" v="Haugen" />
		<tag k="natural" v="hill" />
		<tag k="place" v="locality" />
		<tag k="ssr:stedsnr" v="341145" />
	</node>
	<node lat="58.342319447413175" lon="7.562702773626753" id="-25380">
		<tag k="name" v="Bjønndalen" />
		<tag k="natural" v="valley" />
		<tag k="place" v="locality" />
		<tag k="ssr:stedsnr" v="341149" />
	</node>
	<node lat="58.338475000952435" lon="7.570025001954041" id="-25386">
		<tag k="name" v="Krosstø" />
		<tag k="natural" v="slope" />
		<tag k="place" v="locality" />
		<tag k="ssr:stedsnr" v="341348" />
	</node>
	<node lat="58.221663885835596" lon="7.846105548665925" id="-25387">
		<tag k="name" v="Tormodsdalen" />
		<tag k="natural" v="valley" />
		<tag k="place" v="locality" />
		<tag k="ssr:stedsnr" v="341202" />
	</node>
	<node lat="58.23818055917895" lon="7.61863610806662" id="-25388">
		<tag k="fixme" v="consider natural=peak for the most distinct mountains in the district" />
		<tag k="name" v="Stedjansåsen" />
		<tag k="natural" v="hill" />
		<tag k="place" v="locality" />
		<tag k="ssr:stedsnr" v="341226" />
	</node>
	<node lat="58.28453055615714" lon="7.585983327932599" id="-25391">
		<tag k="name" v="Rindingan" />
		<tag k="natural" v="hill" />
		<tag k="place" v="locality" />
		<tag k="ssr:stedsnr" v="341256" />
	</node>
	<node lat="58.3210222203148" lon="7.604108340185301" id="-25392">
		<tag k="name" v="Røvarholet" />
		<tag k="place" v="locality" />
		<tag k="ssr:stedsnr" v="341402" />
	</node>
	<node lat="58.277300001870486" lon="7.634883327821831" id="-25393">
		<tag k="name" v="Fjellbrotan" />
		<tag k="natural" v="slope" />
		<tag k="place" v="locality" />
		<tag k="ssr:stedsnr" v="341448" />
	</node>
	<node lat="58.28312500063239" lon="7.693424994596743" id="-25394">
		<tag k="name" v="Haugefjellet" />
		<tag k="natural" v="hill" />
		<tag k="place" v="locality" />
		<tag k="ssr:stedsnr" v="341450" />
	</node>
	<node lat="58.31158889331075" lon="7.6433805539312765" id="-25395">
		<tag k="name" v="Høgebakk" />
		<tag k="natural" v="slope" />
		<tag k="place" v="locality" />
		<tag k="ssr:stedsnr" v="341613" />
	</node>
	<node lat="58.30909444397061" lon="7.635108340649794" id="-25396">
		<tag k="fixme" v="consider natural=peak for the most distinct mountains in the district" />
		<tag k="name" v="Kråkebakken" />
		<tag k="natural" v="hill" />
		<tag k="place" v="locality" />
		<tag k="ssr:stedsnr" v="341621" />
	</node>
	<node lat="58.318547223591345" lon="7.701022221696926" id="-25398">
		<tag k="fixme" v="consider natural=peak for the most distinct mountains in the district" />
		<tag k="name" v="Lillebakken" />
		<tag k="natural" v="hill" />
		<tag k="place" v="locality" />
		<tag k="ssr:stedsnr" v="341641" />
	</node>
	<node lat="58.226811111298744" lon="7.711744449191196" id="-25400">
		<tag k="name" v="Hegglandshei" />
		<tag k="natural" v="hill" />
		<tag k="place" v="locality" />
		<tag k="ssr:stedsnr" v="341514" />
	</node>
	<node lat="58.25636388520101" lon="7.699044446935971" id="-25402">
		<tag k="name" v="Fugleåsen" />
		<tag k="natural" v="hill" />
		<tag k="place" v="locality" />
		<tag k="ssr:stedsnr" v="341556" />
	</node>
	<node lat="58.20726944861406" lon="7.836905552643658" id="-25403">
		<tag k="name" v="Stølsheia" />
		<tag k="natural" v="hill" />
		<tag k="place" v="locality" />
		<tag k="ssr:stedsnr" v="341702" />
	</node>
	<node lat="58.198488888660165" lon="7.790875002752881" id="-25405">
		<tag k="name" v="Hamran" />
		<tag k="natural" v="hill" />
		<tag k="place" v="locality" />
		<tag k="ssr:stedsnr" v="341721" />
	</node>
	<node lat="58.2746055585843" lon="7.691372218048258" id="-25406">
		<tag k="name" v="Kistedalen" />
		<tag k="natural" v="valley" />
		<tag k="place" v="locality" />
		<tag k="ssr:stedsnr" v="341696" />
	</node>
	<node lat="58.30218055783436" lon="7.586852776490337" id="-25408">
		<tag k="name" v="Likbergan" />
		<tag k="natural" v="slope" />
		<tag k="place" v="locality" />
		<tag k="ssr:stedsnr" v="342242" />
	</node>
	<node lat="58.23791666679524" lon="7.814791674717073" id="-25429">
		<tag k="name" v="Lille Kjørefjell" />
		<tag k="natural" v="hill" />
		<tag k="place" v="locality" />
		<tag k="ssr:stedsnr" v="342805" />
	</node>
	<node lat="58.22244444773104" lon="7.793680552782092" id="-25443">
		<tag k="name" v="Marihola" />
		<tag k="natural" v="valley" />
		<tag k="place" v="locality" />
		<tag k="ssr:stedsnr" v="342760" />
	</node>
	<node lat="58.21182499814122" lon="7.9352333323749615" id="-25487">
		<tag k="name" v="Hageheia" />
		<tag k="natural" v="hill" />
		<tag k="place" v="locality" />
		<tag k="ssr:stedsnr" v="348020" />
	</node>
	<node lat="58.19264722280625" lon="8.049663882902637" id="-25491">
		<tag k="name" v="Bekkedalen" />
		<tag k="natural" v="valley" />
		<tag k="place" v="locality" />
		<tag k="ssr:stedsnr" v="348620" />
	</node>
	<node lat="58.1183527777528" lon="8.13272222596818" id="-25492">
		<tag k="fixme" v="consider natural=peak for the most distinct mountains in the district" />
		<tag k="name" v="Ronåsen" />
		<tag k="natural" v="hill" />
		<tag k="place" v="locality" />
		<tag k="ssr:stedsnr" v="348662" />
	</node>
	<node lat="58.14415555256161" lon="8.137394441571955" id="-25493">
		<tag k="fixme" v="consider natural=peak for the most distinct mountains in the district" />
		<tag k="name" v="Nesset" />
		<tag k="natural" v="hill" />
		<tag k="place" v="locality" />
		<tag k="ssr:stedsnr" v="348663" />
	</node>
	<node lat="58.148702781388664" lon="7.907552776122984" id="-25494">
		<tag k="name" v="Flogvarden" />
		<tag k="natural" v="hill" />
		<tag k="place" v="locality" />
		<tag k="ssr:stedsnr" v="348676" />
	</node>
	<node lat="58.21083556671112" lon="8.11197795873892" id="-25495">
		<tag k="name" v="Gjersdalen" />
		<tag k="natural" v="valley" />
		<tag k="place" v="locality" />
		<tag k="ssr:stedsnr" v="348964" />
	</node>
	<node lat="58.131352777651074" lon="8.094741673816477" id="-25496">
		<tag k="name" v="Holtedalen" />
		<tag k="natural" v="valley" />
		<tag k="place" v="locality" />
		<tag k="ssr:stedsnr" v="348967" />
	</node>
	<node lat="58.20537499848794" lon="8.113919451868941" id="-25498">
		<tag k="name" v="Ormelia" />
		<tag k="natural" v="slope" />
		<tag k="place" v="locality" />
		<tag k="ssr:stedsnr" v="348872" />
	</node>
	<node lat="58.170161114346435" lon="8.141786119035533" id="-25500">
		<tag k="fixme" v="consider natural=peak for the most distinct mountains in the district" />
		<tag k="name" v="Flettingsåsen" />
		<tag k="natural" v="hill" />
		<tag k="place" v="locality" />
		<tag k="ssr:stedsnr" v="348880" />
	</node>
	<node lat="58.07498889260177" lon="7.974375004027448" id="-25503">
		<tag k="name" v="Hesteskoheia" />
		<tag k="natural" v="hill" />
		<tag k="place" v="locality" />
		<tag k="ssr:stedsnr" v="349068" />
	</node>
	<node lat="58.07594166322506" lon="8.00387222587675" id="-25504">
		<tag k="name" v="Selefoten" />
		<tag k="natural" v="hill" />
		<tag k="place" v="locality" />
		<tag k="ssr:stedsnr" v="349405" />
	</node>
	<node lat="58.081413887601634" lon="8.012586109808227" id="-25505">
		<tag k="name" v="Knedebakken" />
		<tag k="natural" v="slope" />
		<tag k="place" v="locality" />
		<tag k="ssr:stedsnr" v="349406" />
	</node>
	<node lat="58.17776944501833" lon="7.975275002008036" id="-25515">
		<tag k="name" v="Bakkestø" />
		<tag k="natural" v="slope" />
		<tag k="place" v="locality" />
		<tag k="ssr:stedsnr" v="349676" />
	</node>
	<node lat="58.170861110547925" lon="7.880999998157232" id="-25522">
		<tag k="fixme" v="consider natural=peak for the most distinct mountains in the district" />
		<tag k="name" v="Godåsen" />
		<tag k="natural" v="hill" />
		<tag k="place" v="locality" />
		<tag k="ssr:stedsnr" v="364029" />
	</node>
	<node lat="58.32193333495244" lon="7.625475006938633" id="-25536">
		<tag k="fixme" v="consider natural=peak for the most distinct mountains in the district" />
		<tag k="name" v="Havsåsen" />
		<tag k="natural" v="hill" />
		<tag k="place" v="locality" />
		<tag k="ssr:stedsnr" v="364791" />
	</node>
	<node lat="58.12170833627382" lon="7.62735000085224" id="-25545">
		<tag k="name" v="Folåsen" />
		<tag k="natural" v="hill" />
		<tag k="place" v="locality" />
		<tag k="ssr:stedsnr" v="385110" />
	</node>
	<node lat="58.088377777924215" lon="7.673969437384016" id="-25549">
		<tag k="name" v="Heggedalsåsen" />
		<tag k="natural" v="hill" />
		<tag k="place" v="locality" />
		<tag k="ssr:stedsnr" v="385045" />
	</node>
	<node lat="58.115524999776866" lon="7.673955562149172" id="-25553">
		<tag k="name" v="Åsane" />
		<tag k="natural" v="slope" />
		<tag k="place" v="locality" />
		<tag k="ssr:stedsnr" v="385054" />
	</node>
	<node lat="58.105100000711566" lon="7.653266665919697" id="-25555">
		<tag k="name" v="Hundebakken" />
		<tag k="natural" v="slope" />
		<tag k="place" v="locality" />
		<tag k="ssr:stedsnr" v="385065" />
	</node>
	<node lat="58.11473055588161" lon="7.708552781079709" id="-25556">
		<tag k="name" v="Birkeheia" />
		<tag k="natural" v="hill" />
		<tag k="place" v="locality" />
		<tag k="ssr:stedsnr" v="385066" />
	</node>
	<node lat="58.13988055620546" lon="7.740380557090396" id="-25562">
		<tag k="name" v="Barlønndalen" />
		<tag k="natural" v="valley" />
		<tag k="place" v="locality" />
		<tag k="ssr:stedsnr" v="385356" />
	</node>
	<node lat="58.099349996772986" lon="7.830322229098854" id="-25565">
		<tag k="name" v="Heimerheia" />
		<tag k="natural" v="hill" />
		<tag k="place" v="locality" />
		<tag k="ssr:stedsnr" v="385375" />
	</node>
	<node lat="58.11854722357035" lon="7.585063892736394" id="-25570">
		<tag k="name" v="Høgesteinheia" />
		<tag k="natural" v="hill" />
		<tag k="place" v="locality" />
		<tag k="ssr:stedsnr" v="385945" />
	</node>
	<node lat="58.16511666517942" lon="7.712908341857856" id="-25571">
		<tag k="name" v="Spjotheia" />
		<tag k="natural" v="hill" />
		<tag k="place" v="locality" />
		<tag k="ssr:stedsnr" v="385997" />
	</node>
	<node lat="58.15932500380572" lon="7.726188892311874" id="-25572">
		<tag k="name" v="Hjorteheia" />
		<tag k="natural" v="hill" />
		<tag k="place" v="locality" />
		<tag k="ssr:stedsnr" v="386000" />
	</node>
	<node lat="58.17211110868992" lon="7.909602786109637" id="-25582">
		<tag k="fixme" v="consider natural=peak for the most distinct mountains in the district" />
		<tag k="name" v="Listøheia" />
		<tag k="natural" v="hill" />
		<tag k="place" v="locality" />
		<tag k="ssr:stedsnr" v="388854" />
	</node>
	<node lat="58.21385555281166" lon="7.886172215571692" id="-25583">
		<tag k="name" v="Gjerborglia" />
		<tag k="natural" v="slope" />
		<tag k="place" v="locality" />
		<tag k="ssr:stedsnr" v="388899" />
	</node>
	<node lat="58.1559277788705" lon="8.067100006313987" id="-25585">
		<tag k="fixme" v="consider natural=peak for the most distinct mountains in the district" />
		<tag k="name" v="Haumyrheia" />
		<tag k="natural" v="hill" />
		<tag k="place" v="locality" />
		<tag k="ssr:stedsnr" v="389407" />
	</node>
	<node lat="58.22474722675001" lon="7.859027780477241" id="-25589">
		<tag k="name" v="Helvedshei" />
		<tag k="natural" v="hill" />
		<tag k="place" v="locality" />
		<tag k="ssr:stedsnr" v="392115" />
	</node>
	<node lat="58.22790833575092" lon="8.009841670108969" id="-25591">
		<tag k="alt_name" v="Gåmollfallet" />
		<tag k="fixme" v="consider natural=peak for the most distinct mountains in the district" />
		<tag k="name" v="Gåmolfallet" />
		<tag k="natural" v="hill" />
		<tag k="place" v="locality" />
		<tag k="ssr:stedsnr" v="392210" />
	</node>
	<node lat="58.25071388604519" lon="8.177150004410818" id="-25596">
		<tag k="name" v="Fureheia" />
		<tag k="natural" v="hill" />
		<tag k="place" v="locality" />
		<tag k="ssr:stedsnr" v="392387" />
	</node>
	<node lat="58.20680277377125" lon="8.170966659705732" id="-25597">
		<tag k="name" v="Rossheia" />
		<tag k="natural" v="hill" />
		<tag k="place" v="locality" />
		<tag k="ssr:stedsnr" v="392401" />
	</node>
	<node lat="58.24628055835312" lon="8.127608331539953" id="-25601">
		<tag k="fixme" v="consider natural=peak for the most distinct mountains in the district" />
		<tag k="name" v="Terekniben" />
		<tag k="natural" v="hill" />
		<tag k="place" v="locality" />
		<tag k="ssr:stedsnr" v="392241" />
	</node>
	<node lat="58.24818611434397" lon="8.080708325058891" id="-25602">
		<tag k="name" v="Lauvløa" />
		<tag k="natural" v="slope" />
		<tag k="place" v="locality" />
		<tag k="ssr:stedsnr" v="392284" />
	</node>
	<node lat="58.26062777670311" lon="8.059869449010046" id="-25603">
		<tag k="name" v="Sørtjønnliene" />
		<tag k="natural" v="slope" />
		<tag k="place" v="locality" />
		<tag k="ssr:stedsnr" v="392291" />
	</node>
	<node lat="58.26551388704595" lon="8.135227775059512" id="-25604">
		<tag k="name" v="Pinesdal" />
		<tag k="natural" v="valley" />
		<tag k="place" v="locality" />
		<tag k="ssr:stedsnr" v="392299" />
	</node>
	<node lat="58.235605553908165" lon="8.175786115524296" id="-25605">
		<tag k="fixme" v="consider natural=peak for the most distinct mountains in the district" />
		<tag k="name" v="Launesheia" />
		<tag k="natural" v="hill" />
		<tag k="place" v="locality" />
		<tag k="ssr:stedsnr" v="392413" />
	</node>
	<node lat="58.23194166980526" lon="8.08804721811831" id="-25606">
		<tag k="name" v="Øygardsdalen" />
		<tag k="natural" v="valley" />
		<tag k="place" v="locality" />
		<tag k="ssr:stedsnr" v="392490" />
	</node>
	<node lat="58.258297218496295" lon="8.076186117652865" id="-25620">
		<tag k="alt_name" v="Ørnefjellet" />
		<tag k="fixme" v="consider natural=peak for the most distinct mountains in the district" />
		<tag k="name" v="Ørnefjell" />
		<tag k="natural" v="hill" />
		<tag k="place" v="locality" />
		<tag k="ssr:stedsnr" v="485048" />
	</node>
	<node lat="58.27439722476113" lon="7.563716663991491" id="-25622">
		<tag k="name" v="Sandstøbakkan" />
		<tag k="natural" v="hill" />
		<tag k="place" v="locality" />
		<tag k="ssr:stedsnr" v="402113" />
	</node>
	<node lat="58.34030000036257" lon="7.581822230404275" id="-25625">
		<tag k="name" v="Kjellekleiv" />
		<tag k="natural" v="slope" />
		<tag k="place" v="locality" />
		<tag k="ssr:stedsnr" v="402190" />
	</node>
	<node lat="58.251336110151605" lon="7.618216665030356" id="-25626">
		<tag k="name" v="Kvistli" />
		<tag k="natural" v="slope" />
		<tag k="place" v="locality" />
		<tag k="ssr:stedsnr" v="402192" />
	</node>
	<node lat="58.34870277557116" lon="7.603777784441027" id="-25627">
		<tag k="name" v="Ildkula" />
		<tag k="natural" v="hill" />
		<tag k="place" v="locality" />
		<tag k="ssr:stedsnr" v="402324" />
	</node>
	<node lat="58.21223055353225" lon="7.72536665890743" id="-25629">
		<tag k="name" v="Halvfarhola" />
		<tag k="natural" v="valley" />
		<tag k="place" v="locality" />
		<tag k="ssr:stedsnr" v="402330" />
	</node>
	<node lat="58.34340833753951" lon="7.597372229082303" id="-25631">
		<tag k="name" v="Lian" />
		<tag k="natural" v="slope" />
		<tag k="place" v="locality" />
		<tag k="ssr:stedsnr" v="402334" />
	</node>
	<node lat="58.31167778066203" lon="7.575527774425685" id="-25632">
		<tag k="name" v="Håbakkan" />
		<tag k="natural" v="hill" />
		<tag k="place" v="locality" />
		<tag k="ssr:stedsnr" v="402375" />
	</node>
	<node lat="58.31434166477823" lon="7.57581666703045" id="-25634">
		<tag k="fixme" v="consider natural=peak for the most distinct mountains in the district" />
		<tag k="name" v="Øygardsåsen" />
		<tag k="natural" v="hill" />
		<tag k="place" v="locality" />
		<tag k="ssr:stedsnr" v="402378" />
	</node>
	<node lat="58.31619444638164" lon="7.593794438836085" id="-25635">
		<tag k="name" v="Kvarmen" />
		<tag k="place" v="locality" />
		<tag k="ssr:stedsnr" v="402391" />
	</node>
	<node lat="58.32055555712732" lon="7.59883611935175" id="-25636">
		<tag k="name" v="Gardvannsheia" />
		<tag k="natural" v="hill" />
		<tag k="place" v="locality" />
		<tag k="ssr:stedsnr" v="402395" />
	</node>
	<node lat="58.29397777442761" lon="7.555702775780229" id="-25639">
		<tag k="name" v="Langebakken" />
		<tag k="natural" v="slope" />
		<tag k="place" v="locality" />
		<tag k="ssr:stedsnr" v="402231" />
	</node>
	<node lat="58.24326666855508" lon="7.6691694499294" id="-25645">
		<tag k="name" v="Stronnan" />
		<tag k="natural" v="hill" />
		<tag k="place" v="locality" />
		<tag k="ssr:stedsnr" v="402474" />
	</node>
	<node lat="58.133297220128966" lon="7.839991670128646" id="-25654">
		<tag k="fixme" v="consider natural=peak for the most distinct mountains in the district" />
		<tag k="name" v="Suåsheia" />
		<tag k="natural" v="hill" />
		<tag k="place" v="locality" />
		<tag k="ssr:stedsnr" v="485181" />
	</node>
	<node lat="58.330741663808496" lon="7.624002780573554" id="-25659">
		<tag k="name" v="Spagåsen" />
		<tag k="natural" v="hill" />
		<tag k="place" v="locality" />
		<tag k="ssr:stedsnr" v="402605" />
	</node>
	<node lat="58.33670277738617" lon="7.62567500845089" id="-25660">
		<tag k="name" v="Linddalen" />
		<tag k="natural" v="valley" />
		<tag k="place" v="locality" />
		<tag k="ssr:stedsnr" v="402607" />
	</node>
	<node lat="58.22801111221806" lon="8.108197220231157" id="-25661">
		<tag k="fixme" v="consider natural=peak for the most distinct mountains in the district" />
		<tag k="name" v="Lauvåsen" />
		<tag k="natural" v="hill" />
		<tag k="place" v="locality" />
		<tag k="ssr:stedsnr" v="485244" />
	</node>
	<node lat="58.25370833002672" lon="7.699930557148718" id="-25664">
		<tag k="fixme" v="consider natural=peak for the most distinct mountains in the district" />
		<tag k="name" v="Honnekjerråsen" />
		<tag k="natural" v="hill" />
		<tag k="place" v="locality" />
		<tag k="ssr:stedsnr" v="402526" />
	</node>
	<node lat="58.253325001315446" lon="7.717480557358636" id="-25665">
		<tag k="name" v="Askedalen" />
		<tag k="natural" v="valley" />
		<tag k="place" v="locality" />
		<tag k="ssr:stedsnr" v="402532" />
	</node>
	<node lat="58.35673055777525" lon="7.584969445011922" id="-25681">
		<tag k="fixme" v="consider natural=peak for the most distinct mountains in the district" />
		<tag k="name" v="Sauåsen" />
		<tag k="natural" v="hill" />
		<tag k="place" v="locality" />
		<tag k="ssr:stedsnr" v="403229" />
	</node>
	<node lat="58.307236112157995" lon="7.615833331758834" id="-25682">
		<tag k="name" v="Kolltjønndalen" />
		<tag k="natural" v="valley" />
		<tag k="place" v="locality" />
		<tag k="ssr:stedsnr" v="403249" />
	</node>
	<node lat="58.17292500243207" lon="7.770855551211792" id="-25711">
		<tag k="fixme" v="consider natural=peak for the most distinct mountains in the district" />
		<tag k="name" v="Revåsen" />
		<tag k="natural" v="hill" />
		<tag k="place" v="locality" />
		<tag k="ssr:stedsnr" v="403891" />
	</node>
	<node lat="58.10029722466344" lon="7.6590083400577855" id="-25719">
		<tag k="alt_name" v="Høgås" />
		<tag k="fixme" v="consider natural=peak for the most distinct mountains in the district" />
		<tag k="name" v="Høgåsen" />
		<tag k="natural" v="hill" />
		<tag k="place" v="locality" />
		<tag k="ssr:stedsnr" v="485792" />
	</node>
	<node lat="58.277877778770915" lon="8.140449995410036" id="-25722">
		<tag k="fixme" v="consider natural=peak for the most distinct mountains in the district" />
		<tag k="name" v="Bormåsen" />
		<tag k="natural" v="hill" />
		<tag k="place" v="locality" />
		<tag k="ssr:stedsnr" v="485692" />
	</node>
	<node lat="58.22586944766062" lon="8.088105558027562" id="-25763">
		<tag k="name" v="Vanndalen" />
		<tag k="natural" v="valley" />
		<tag k="place" v="locality" />
		<tag k="ssr:stedsnr" v="409076" />
	</node>
	<node lat="58.22536110915914" lon="8.139416668197217" id="-25765">
		<tag k="name" v="Reverdalen" />
		<tag k="natural" v="valley" />
		<tag k="place" v="locality" />
		<tag k="ssr:stedsnr" v="409087" />
	</node>
	<node lat="58.08919999636206" lon="7.995897218617152" id="-25772">
		<tag k="alt_name" v="Sandvikåsen" />
		<tag k="fixme" v="consider natural=peak for the most distinct mountains in the district" />
		<tag k="name" v="Sandvigåsen" />
		<tag k="natural" v="hill" />
		<tag k="place" v="locality" />
		<tag k="ssr:stedsnr" v="409446" />
	</node>
	<node lat="58.072605551305145" lon="7.996102779880498" id="-25773">
		<tag k="name" v="Høyfjellet" />
		<tag k="natural" v="hill" />
		<tag k="place" v="locality" />
		<tag k="ssr:stedsnr" v="409448" />
	</node>
	<node lat="58.14205278051951" lon="8.156594447564082" id="-25774">
		<tag k="fixme" v="consider natural=peak for the most distinct mountains in the district" />
		<tag k="name" v="Vassåsen" />
		<tag k="natural" v="hill" />
		<tag k="place" v="locality" />
		<tag k="ssr:stedsnr" v="409619" />
	</node>
	<node lat="58.18617221926344" lon="8.038436117838584" id="-25776">
		<tag k="name" v="Selskjerheia" />
		<tag k="natural" v="hill" />
		<tag k="place" v="locality" />
		<tag k="ssr:stedsnr" v="409708" />
	</node>
	<node lat="58.165586114531514" lon="7.96599999157041" id="-25779">
		<tag k="name" v="Hellerstønuten" />
		<tag k="natural" v="hill" />
		<tag k="place" v="locality" />
		<tag k="ssr:stedsnr" v="409943" />
	</node>
	<node lat="58.12031667045086" lon="7.906077782308151" id="-25780">
		<tag k="fixme" v="consider natural=peak for the most distinct mountains in the district" />
		<tag k="name" v="Bispeåsen" />
		<tag k="natural" v="hill" />
		<tag k="place" v="locality" />
		<tag k="ssr:stedsnr" v="409947" />
	</node>
	<node lat="58.260952776019224" lon="8.149247217076297" id="-25797">
		<tag k="name" v="Bjørkebakk" />
		<tag k="natural" v="hill" />
		<tag k="place" v="locality" />
		<tag k="ssr:stedsnr" v="411194" />
	</node>
	<node lat="58.146419442414555" lon="7.882680557884034" id="-25812">
		<tag k="fixme" v="consider natural=peak for the most distinct mountains in the district" />
		<tag k="name" v="Bukksteinen" />
		<tag k="natural" v="hill" />
		<tag k="place" v="locality" />
		<tag k="ssr:stedsnr" v="425204" />
	</node>
	<node lat="58.053349995937864" lon="7.6649611182230535" id="-25837">
		<tag k="fixme" v="consider natural=peak for the most distinct mountains in the district" />
		<tag k="name" v="Lyngvikkollen" />
		<tag k="natural" v="hill" />
		<tag k="place" v="locality" />
		<tag k="ssr:stedsnr" v="446108" />
	</node>
	<node lat="58.10681111553963" lon="7.840172225445557" id="-25847">
		<tag k="name" v="Kjellingtjønnfjellet" />
		<tag k="natural" v="hill" />
		<tag k="place" v="locality" />
		<tag k="ssr:stedsnr" v="446392" />
	</node>
	<node lat="58.090613892051984" lon="7.921619444855743" id="-25848">
		<tag k="name" v="Strandeheia" />
		<tag k="natural" v="hill" />
		<tag k="place" v="locality" />
		<tag k="ssr:stedsnr" v="446875" />
	</node>
	<node lat="58.19947222541262" lon="7.905622224954118" id="-25860">
		<tag k="name" v="Brennevedknotten" />
		<tag k="natural" v="hill" />
		<tag k="place" v="locality" />
		<tag k="ssr:stedsnr" v="449024" />
	</node>
	<node lat="58.17873056011469" lon="7.924969450152733" id="-25866">
		<tag k="name" v="Slogdalsheia" />
		<tag k="natural" v="hill" />
		<tag k="place" v="locality" />
		<tag k="ssr:stedsnr" v="453010" />
	</node>
	<node lat="58.27070555234028" lon="8.04918611050245" id="-25870">
		<tag k="fixme" v="consider natural=peak for the most distinct mountains in the district" />
		<tag k="name" v="Mollskårhei" />
		<tag k="natural" v="hill" />
		<tag k="place" v="locality" />
		<tag k="ssr:stedsnr" v="453202" />
	</node>
	<node lat="58.22163333681079" lon="8.033163880706212" id="-25872">
		<tag k="name" v="Kvevikdalen" />
		<tag k="natural" v="valley" />
		<tag k="place" v="locality" />
		<tag k="ssr:stedsnr" v="453218" />
	</node>
	<node lat="58.224091670034056" lon="8.049922215838379" id="-25873">
		<tag k="name" v="Ålefjærhefte" />
		<tag k="natural" v="slope" />
		<tag k="place" v="locality" />
		<tag k="ssr:stedsnr" v="453224" />
	</node>
	<node lat="58.25076666520004" lon="8.109930547792631" id="-25875">
		<tag k="name" v="Store Svarteberg" />
		<tag k="natural" v="hill" />
		<tag k="place" v="locality" />
		<tag k="ssr:stedsnr" v="453273" />
	</node>
	<node lat="58.20874166997734" lon="7.970538881983579" id="-25881">
		<tag k="name" v="Krogvannsheia" />
		<tag k="natural" v="hill" />
		<tag k="place" v="locality" />
		<tag k="ssr:stedsnr" v="453384" />
	</node>
	<node lat="58.35065833726753" lon="7.576383337551084" id="-25884">
		<tag k="name" v="Kubbekleiv" />
		<tag k="natural" v="slope" />
		<tag k="place" v="locality" />
		<tag k="ssr:stedsnr" v="462259" />
	</node>
	<node lat="58.350616665368584" lon="7.599311114022677" id="-25885">
		<tag k="name" v="Våkkeland" />
		<tag k="natural" v="slope" />
		<tag k="place" v="locality" />
		<tag k="ssr:stedsnr" v="462263" />
	</node>
	<node lat="58.281277781166516" lon="7.60985278295856" id="-25887">
		<tag k="name" v="Honneknotten" />
		<tag k="natural" v="hill" />
		<tag k="place" v="locality" />
		<tag k="ssr:stedsnr" v="463102" />
	</node>
	<node lat="58.280849996835705" lon="7.586263888199784" id="-25889">
		<tag k="fixme" v="consider natural=peak for the most distinct mountains in the district" />
		<tag k="name" v="Høgåsen" />
		<tag k="natural" v="hill" />
		<tag k="place" v="locality" />
		<tag k="ssr:stedsnr" v="463107" />
	</node>
	<node lat="58.274077773855126" lon="7.6128472177735" id="-25890">
		<tag k="fixme" v="consider natural=peak for the most distinct mountains in the district" />
		<tag k="name" v="Ospåsen" />
		<tag k="natural" v="hill" />
		<tag k="place" v="locality" />
		<tag k="ssr:stedsnr" v="463123" />
	</node>
	<node lat="58.30456388713259" lon="7.57531666890574" id="-25893">
		<tag k="fixme" v="consider natural=peak for the most distinct mountains in the district" />
		<tag k="name" v="Langåsen" />
		<tag k="natural" v="hill" />
		<tag k="place" v="locality" />
		<tag k="ssr:stedsnr" v="463262" />
	</node>
	<node lat="58.27776944386276" lon="7.644180550129917" id="-25898">
		<tag k="name" v="Eikåsbakken" />
		<tag k="natural" v="slope" />
		<tag k="place" v="locality" />
		<tag k="ssr:stedsnr" v="463381" />
	</node>
	<node lat="58.2764027757643" lon="7.656847224990949" id="-25899">
		<tag k="name" v="Sparufsane" />
		<tag k="natural" v="slope" />
		<tag k="place" v="locality" />
		<tag k="ssr:stedsnr" v="463382" />
	</node>
	<node lat="58.28778888538473" lon="7.711455547654345" id="-25900">
		<tag k="name" v="Gydalen" />
		<tag k="natural" v="valley" />
		<tag k="place" v="locality" />
		<tag k="ssr:stedsnr" v="463401" />
	</node>
	<node lat="58.34396110715454" lon="7.621816659883852" id="-25901">
		<tag k="fixme" v="consider natural=peak for the most distinct mountains in the district" />
		<tag k="name" v="Svimåsen" />
		<tag k="natural" v="hill" />
		<tag k="place" v="locality" />
		<tag k="ssr:stedsnr" v="463506" />
	</node>
	<node lat="58.31578333127204" lon="7.657597230565024" id="-25904">
		<tag k="fixme" v="consider natural=peak for the most distinct mountains in the district" />
		<tag k="name" v="Meåsen" />
		<tag k="natural" v="hill" />
		<tag k="place" v="locality" />
		<tag k="ssr:stedsnr" v="463519" />
	</node>
	<node lat="58.18510000176697" lon="7.751533340410681" id="-25905">
		<tag k="name" v="Langedal" />
		<tag k="natural" v="valley" />
		<tag k="place" v="locality" />
		<tag k="ssr:stedsnr" v="463621" />
	</node>
	<node lat="58.17579166278805" lon="7.720397215760845" id="-25906">
		<tag k="name" v="Krokeheia" />
		<tag k="natural" v="slope" />
		<tag k="place" v="locality" />
		<tag k="ssr:stedsnr" v="463622" />
	</node>
	<node lat="58.154658337365255" lon="7.84820832564298" id="-25907">
		<tag k="name" v="Nodefjellet" />
		<tag k="natural" v="hill" />
		<tag k="place" v="locality" />
		<tag k="ssr:stedsnr" v="463803" />
	</node>
	<node lat="58.22236944592012" lon="7.7959361071861455" id="-25908">
		<tag k="name" v="Nordheia" />
		<tag k="natural" v="hill" />
		<tag k="place" v="locality" />
		<tag k="ssr:stedsnr" v="463808" />
	</node>
	<node lat="58.26275555420263" lon="7.66872499464997" id="-25909">
		<tag k="name" v="Høgehei" />
		<tag k="natural" v="hill" />
		<tag k="place" v="locality" />
		<tag k="ssr:stedsnr" v="463596" />
	</node>
	<node lat="58.1370694400292" lon="7.876005553366153" id="-25911">
		<tag k="fixme" v="consider natural=peak for the most distinct mountains in the district" />
		<tag k="name" v="Røyåsen" />
		<tag k="natural" v="hill" />
		<tag k="place" v="locality" />
		<tag k="ssr:stedsnr" v="463769" />
	</node>
	<node lat="58.210622226093456" lon="7.841744447275111" id="-25912">
		<tag k="name" v="Sjøheia" />
		<tag k="natural" v="hill" />
		<tag k="place" v="locality" />
		<tag k="ssr:stedsnr" v="463776" />
	</node>
	<node lat="58.1305833332173" lon="7.864386109596599" id="-25913">
		<tag k="fixme" v="consider natural=peak for the most distinct mountains in the district" />
		<tag k="name" v="Kolekniben" />
		<tag k="natural" v="hill" />
		<tag k="place" v="locality" />
		<tag k="ssr:stedsnr" v="463778" />
	</node>
	<node lat="58.1663527771459" lon="7.871780557999468" id="-25914">
		<tag k="name" v="Hellersdalen" />
		<tag k="natural" v="valley" />
		<tag k="place" v="locality" />
		<tag k="ssr:stedsnr" v="463779" />
	</node>
	<node lat="58.160200001989985" lon="7.876705563137585" id="-25916">
		<tag k="name" v="Djupemyrheia" />
		<tag k="natural" v="hill" />
		<tag k="place" v="locality" />
		<tag k="ssr:stedsnr" v="463784" />
	</node>
	<node lat="58.180624998963694" lon="7.830172228170704" id="-25918">
		<tag k="name" v="Solheia" />
		<tag k="natural" v="hill" />
		<tag k="place" v="locality" />
		<tag k="ssr:stedsnr" v="463860" />
	</node>
	<node lat="58.180511111825545" lon="7.821211114708364" id="-25919">
		<tag k="name" v="Uheia" />
		<tag k="natural" v="hill" />
		<tag k="place" v="locality" />
		<tag k="ssr:stedsnr" v="463861" />
	</node>
	<node lat="58.17618055742605" lon="7.733897216991663" id="-25920">
		<tag k="name" v="Skrubbeknatten" />
		<tag k="natural" v="hill" />
		<tag k="place" v="locality" />
		<tag k="ssr:stedsnr" v="463874" />
	</node>
	<node lat="58.25746666270286" lon="8.09845832976578" id="-25995">
		<tag k="name" v="Kringla" />
		<tag k="natural" v="hill" />
		<tag k="place" v="locality" />
		<tag k="ssr:stedsnr" v="470221" />
	</node>
	<node lat="58.06426111134388" lon="7.963594437858421" id="-25996">
		<tag k="name" v="Slottsfjellane" />
		<tag k="natural" v="hill" />
		<tag k="place" v="locality" />
		<tag k="ssr:stedsnr" v="470372" />
	</node>
	<node lat="58.20344999747916" lon="8.011288891026746" id="-26001">
		<tag k="fixme" v="consider natural=peak for the most distinct mountains in the district" />
		<tag k="name" v="Kringleåsen" />
		<tag k="natural" v="hill" />
		<tag k="place" v="locality" />
		<tag k="ssr:stedsnr" v="470707" />
	</node>
	<node lat="58.19376666510019" lon="8.030616665484665" id="-26002">
		<tag k="name" v="Vaskerodden" />
		<tag k="natural" v="hill" />
		<tag k="place" v="locality" />
		<tag k="ssr:stedsnr" v="470722" />
	</node>
	<node lat="58.20632222580033" lon="8.12902222148885" id="-26003">
		<tag k="fixme" v="consider natural=peak for the most distinct mountains in the district" />
		<tag k="name" v="Grimsåsen" />
		<tag k="natural" v="hill" />
		<tag k="place" v="locality" />
		<tag k="ssr:stedsnr" v="470907" />
	</node>
	<node lat="58.19116666322417" lon="8.143308335004951" id="-26004">
		<tag k="fixme" v="consider natural=peak for the most distinct mountains in the district" />
		<tag k="name" v="Langåsen" />
		<tag k="natural" v="hill" />
		<tag k="place" v="locality" />
		<tag k="ssr:stedsnr" v="470914" />
	</node>
	<node lat="58.26619721833798" lon="8.157827776874598" id="-26008">
		<tag k="name" v="Skrubbehåla" />
		<tag k="place" v="locality" />
		<tag k="ssr:stedsnr" v="471207" />
	</node>
	<node lat="58.219802777845395" lon="8.162341664545002" id="-26010">
		<tag k="name" v="Piningen" />
		<tag k="natural" v="hill" />
		<tag k="place" v="locality" />
		<tag k="ssr:stedsnr" v="471171" />
	</node>
	<node lat="58.08042778059506" lon="8.011966671405544" id="-26012">
		<tag k="name" v="Brattestøknollen" />
		<tag k="natural" v="hill" />
		<tag k="place" v="locality" />
		<tag k="ssr:stedsnr" v="471307" />
	</node>
	<node lat="58.07965000108844" lon="8.020722222743746" id="-26013">
		<tag k="name" v="Bubakken" />
		<tag k="natural" v="slope" />
		<tag k="place" v="locality" />
		<tag k="ssr:stedsnr" v="471309" />
	</node>
	<node lat="58.07505555990515" lon="7.994411105367319" id="-26018">
		<tag k="name" v="Kyreheia" />
		<tag k="natural" v="hill" />
		<tag k="place" v="locality" />
		<tag k="ssr:stedsnr" v="471362" />
	</node>
	<node lat="58.20009999728211" lon="8.178463881261882" id="-26040">
		<tag k="alt_name" v="Stutheia" />
		<tag k="fixme" v="consider natural=peak for the most distinct mountains in the district" />
		<tag k="name" v="Studeheia" />
		<tag k="natural" v="hill" />
		<tag k="place" v="locality" />
		<tag k="ssr:stedsnr" v="485421" />
	</node>
	<node lat="58.11145833103997" lon="7.659505555220087" id="-26051">
		<tag k="name" v="Midtheia" />
		<tag k="natural" v="hill" />
		<tag k="place" v="locality" />
		<tag k="ssr:stedsnr" v="485832" />
	</node>
	<node lat="58.2673666652482" lon="8.059733341874054" id="-26054">
		<tag k="fixme" v="consider natural=peak for the most distinct mountains in the district" />
		<tag k="name" v="Hesteheia" />
		<tag k="natural" v="hill" />
		<tag k="place" v="locality" />
		<tag k="ssr:stedsnr" v="485868" />
	</node>
	<node lat="58.10288611552553" lon="7.668891670213641" id="-26058">
		<tag k="name" v="Salveshola" />
		<tag k="natural" v="valley" />
		<tag k="place" v="locality" />
		<tag k="ssr:stedsnr" v="506015" />
	</node>
	<node lat="58.14111111112601" lon="7.649136109665377" id="-26059">
		<tag k="name" v="Raunelia" />
		<tag k="natural" v="slope" />
		<tag k="place" v="locality" />
		<tag k="ssr:stedsnr" v="506026" />
	</node>
	<node lat="58.10998333583766" lon="7.703288885847963" id="-26060">
		<tag k="name" v="Flauheia" />
		<tag k="natural" v="hill" />
		<tag k="place" v="locality" />
		<tag k="ssr:stedsnr" v="506058" />
	</node>
	<node lat="58.11441666864472" lon="7.695919438707261" id="-26061">
		<tag k="name" v="Trommeheia" />
		<tag k="natural" v="hill" />
		<tag k="place" v="locality" />
		<tag k="ssr:stedsnr" v="506060" />
	</node>
	<node lat="58.09712777645984" lon="7.759411105054611" id="-26063">
		<tag k="name" v="Krogan" />
		<tag k="natural" v="valley" />
		<tag k="place" v="locality" />
		<tag k="ssr:stedsnr" v="506157" />
	</node>
	<node lat="58.13476666793689" lon="7.783780556519394" id="-26065">
		<tag k="fixme" v="consider natural=peak for the most distinct mountains in the district" />
		<tag k="name" v="Lindåsvarden" />
		<tag k="natural" v="hill" />
		<tag k="place" v="locality" />
		<tag k="ssr:stedsnr" v="506365" />
	</node>
	<node lat="58.13573055935467" lon="7.763561115282208" id="-26066">
		<tag k="name" v="Buktebrådan" />
		<tag k="natural" v="slope" />
		<tag k="place" v="locality" />
		<tag k="ssr:stedsnr" v="506368" />
	</node>
	<node lat="58.13221111307456" lon="7.764383340116256" id="-26067">
		<tag k="name" v="Håvannsheia" />
		<tag k="natural" v="hill" />
		<tag k="place" v="locality" />
		<tag k="ssr:stedsnr" v="506369" />
	</node>
	<node lat="58.15786110678986" lon="7.740716668508832" id="-26073">
		<tag k="name" v="Linddalsheia" />
		<tag k="natural" v="hill" />
		<tag k="place" v="locality" />
		<tag k="ssr:stedsnr" v="506973" />
	</node>
	<node lat="58.18198333727751" lon="7.906386114079109" id="-26081">
		<tag k="name" v="Skjønningsheia" />
		<tag k="natural" v="hill" />
		<tag k="place" v="locality" />
		<tag k="ssr:stedsnr" v="509010" />
	</node>
	<node lat="58.20245833224813" lon="7.8741166691655025" id="-26085">
		<tag k="name" v="Trollheihallan" />
		<tag k="natural" v="slope" />
		<tag k="place" v="locality" />
		<tag k="ssr:stedsnr" v="509905" />
	</node>
	<node lat="58.20073611058704" lon="7.8876277793922975" id="-26086">
		<tag k="name" v="Bastuåsen" />
		<tag k="natural" v="hill" />
		<tag k="place" v="locality" />
		<tag k="ssr:stedsnr" v="509910" />
	</node>
	<node lat="58.184802780170905" lon="7.887697215707778" id="-26088">
		<tag k="name" v="Ommundsdalen" />
		<tag k="natural" v="valley" />
		<tag k="place" v="locality" />
		<tag k="ssr:stedsnr" v="510016" />
	</node>
	<node lat="58.23966388730156" lon="7.899155550204111" id="-26095">
		<tag k="name" v="Grøkleivdalen" />
		<tag k="natural" v="valley" />
		<tag k="place" v="locality" />
		<tag k="ssr:stedsnr" v="513121" />
	</node>
	<node lat="58.23770555114585" lon="8.009722221502576" id="-26098">
		<tag k="name" v="Søråsen" />
		<tag k="natural" v="hill" />
		<tag k="place" v="locality" />
		<tag k="ssr:stedsnr" v="513183" />
	</node>
	<node lat="58.233113887738675" lon="8.01426110900054" id="-26099">
		<tag k="alt_name" v="Hulumskniben" />
		<tag k="fixme" v="consider natural=peak for the most distinct mountains in the district" />
		<tag k="name" v="Holumskniben" />
		<tag k="natural" v="hill" />
		<tag k="place" v="locality" />
		<tag k="ssr:stedsnr" v="513186" />
	</node>
	<node lat="58.257172226574944" lon="8.138525006750985" id="-26101">
		<tag k="fixme" v="consider natural=peak for the most distinct mountains in the district" />
		<tag k="name" v="Urdalsheia" />
		<tag k="natural" v="hill" />
		<tag k="place" v="locality" />
		<tag k="ssr:stedsnr" v="513221" />
	</node>
	<node lat="58.22924721857121" lon="8.181119444255401" id="-26109">
		<tag k="name" v="Fiskesådalen" />
		<tag k="natural" v="valley" />
		<tag k="place" v="locality" />
		<tag k="ssr:stedsnr" v="513417" />
	</node>
	<node lat="58.21734444897527" lon="8.181238896887121" id="-26110">
		<tag k="name" v="Eskildsplassen" />
		<tag k="natural" v="valley" />
		<tag k="place" v="locality" />
		<tag k="ssr:stedsnr" v="513423" />
	</node>
	<node lat="58.20091666680959" lon="7.95897778522623" id="-26112">
		<tag k="fixme" v="consider natural=peak for the most distinct mountains in the district" />
		<tag k="name" v="Krigeknotten" />
		<tag k="natural" v="hill" />
		<tag k="place" v="locality" />
		<tag k="ssr:stedsnr" v="513373" />
	</node>
	<node lat="58.26973611239722" lon="7.617519439540064" id="-26126">
		<tag k="name" v="Brendahei" />
		<tag k="natural" v="hill" />
		<tag k="place" v="locality" />
		<tag k="ssr:stedsnr" v="523175" />
	</node>
	<node lat="58.33183611252027" lon="7.6064555627776285" id="-26127">
		<tag k="name" v="Brenda" />
		<tag k="natural" v="slope" />
		<tag k="place" v="locality" />
		<tag k="ssr:stedsnr" v="523183" />
	</node>
	<node lat="58.307991663801886" lon="7.585288888979216" id="-26128">
		<tag k="name" v="Hestehei" />
		<tag k="natural" v="ridge" />
		<tag k="place" v="locality" />
		<tag k="ssr:stedsnr" v="523406" />
	</node>
	<node lat="58.32060833388717" lon="7.574677784229057" id="-26129">
		<tag k="name" v="Midtbakk" />
		<tag k="natural" v="ridge" />
		<tag k="place" v="locality" />
		<tag k="ssr:stedsnr" v="523421" />
	</node>
	<node lat="58.25438332931161" lon="7.642944449066628" id="-26130">
		<tag k="name" v="Lian" />
		<tag k="natural" v="slope" />
		<tag k="place" v="locality" />
		<tag k="ssr:stedsnr" v="523302" />
	</node>
	<node lat="58.25213332934382" lon="7.668788897285904" id="-26131">
		<tag k="name" v="Rønningan" />
		<tag k="natural" v="slope" />
		<tag k="place" v="locality" />
		<tag k="ssr:stedsnr" v="523308" />
	</node>
	<node lat="58.326808335198095" lon="7.571586112589375" id="-26134">
		<tag k="fixme" v="consider natural=peak for the most distinct mountains in the district" />
		<tag k="name" v="Tiurbakken" />
		<tag k="natural" v="hill" />
		<tag k="place" v="locality" />
		<tag k="ssr:stedsnr" v="523379" />
	</node>
	<node lat="58.24522500235696" lon="7.666927778214731" id="-26135">
		<tag k="name" v="Heptehei" />
		<tag k="natural" v="hill" />
		<tag k="place" v="locality" />
		<tag k="ssr:stedsnr" v="523513" />
	</node>
	<node lat="58.30672777678963" lon="7.687386118594455" id="-26137">
		<tag k="fixme" v="consider natural=peak for the most distinct mountains in the district" />
		<tag k="name" v="Æljeråsen" />
		<tag k="natural" v="hill" />
		<tag k="place" v="locality" />
		<tag k="ssr:stedsnr" v="523606" />
	</node>
	<node lat="58.351641667798546" lon="7.621930551478337" id="-26138">
		<tag k="name" v="Olasdalshei" />
		<tag k="natural" v="hill" />
		<tag k="place" v="locality" />
		<tag k="ssr:stedsnr" v="523607" />
	</node>
	<node lat="58.32346666599688" lon="7.692136119511948" id="-26141">
		<tag k="fixme" v="consider natural=peak for the most distinct mountains in the district" />
		<tag k="name" v="Sigdåsen" />
		<tag k="natural" v="hill" />
		<tag k="place" v="locality" />
		<tag k="ssr:stedsnr" v="523679" />
	</node>
	<node lat="58.290377781587324" lon="7.549955561010128" id="-26155">
		<tag k="fixme" v="consider natural=peak for the most distinct mountains in the district" />
		<tag k="name" v="Ufsåsen" />
		<tag k="natural" v="hill" />
		<tag k="place" v="locality" />
		<tag k="ssr:stedsnr" v="524160" />
	</node>
	<node lat="58.28222499869188" lon="7.638383331570363" id="-26158">
		<tag k="fixme" v="consider natural=peak for the most distinct mountains in the district" />
		<tag k="name" v="Tjønnåsen" />
		<tag k="natural" v="hill" />
		<tag k="place" v="locality" />
		<tag k="ssr:stedsnr" v="524326" />
	</node>
	<node lat="58.232316667596265" lon="7.6700027789781435" id="-26159">
		<tag k="name" v="Flåna" />
		<tag k="natural" v="hill" />
		<tag k="place" v="locality" />
		<tag k="ssr:stedsnr" v="524405" />
	</node>
	<node lat="58.24412222502216" lon="7.706397223096368" id="-26160">
		<tag k="name" v="Geithei" />
		<tag k="natural" v="hill" />
		<tag k="place" v="locality" />
		<tag k="ssr:stedsnr" v="524408" />
	</node>
	<node lat="58.28189722161429" lon="7.711038885367319" id="-26168">
		<tag k="name" v="Fjågeheia" />
		<tag k="natural" v="hill" />
		<tag k="place" v="locality" />
		<tag k="ssr:stedsnr" v="524358" />
	</node>
	<node lat="58.28723055352762" lon="7.709888892617668" id="-26170">
		<tag k="name" v="Strengeholtan" />
		<tag k="natural" v="slope" />
		<tag k="place" v="locality" />
		<tag k="ssr:stedsnr" v="524360" />
	</node>
	<node lat="58.29279166259206" lon="7.683472225469498" id="-26172">
		<tag k="name" v="Ingnusdalen" />
		<tag k="natural" v="valley" />
		<tag k="place" v="locality" />
		<tag k="ssr:stedsnr" v="524362" />
	</node>
	<node lat="58.293680559218444" lon="7.68174443619233" id="-26173">
		<tag k="name" v="Håveheia" />
		<tag k="natural" v="hill" />
		<tag k="place" v="locality" />
		<tag k="ssr:stedsnr" v="524363" />
	</node>
	<node lat="58.33605833559012" lon="7.626611112893916" id="-26175">
		<tag k="name" v="Godknoll" />
		<tag k="natural" v="hill" />
		<tag k="place" v="locality" />
		<tag k="ssr:stedsnr" v="524504" />
	</node>
	<node lat="58.140830553424884" lon="7.862152772812888" id="-26180">
		<tag k="name" v="Moldbrote" />
		<tag k="natural" v="slope" />
		<tag k="place" v="locality" />
		<tag k="ssr:stedsnr" v="524719" />
	</node>
	<node lat="58.24030833525548" lon="7.80990833386777" id="-26188">
		<tag k="fixme" v="consider natural=peak for the most distinct mountains in the district" />
		<tag k="name" v="Store Kjørefjell" />
		<tag k="natural" v="hill" />
		<tag k="place" v="locality" />
		<tag k="ssr:stedsnr" v="524823" />
	</node>
	<node lat="58.24524167109929" lon="7.795827776348359" id="-26189">
		<tag k="name" v="Langekjerrheia" />
		<tag k="natural" v="hill" />
		<tag k="place" v="locality" />
		<tag k="ssr:stedsnr" v="524826" />
	</node>
	<node lat="58.174377777952515" lon="7.766672230561274" id="-26194">
		<tag k="name" v="Langedalen" />
		<tag k="natural" v="valley" />
		<tag k="place" v="locality" />
		<tag k="ssr:stedsnr" v="524863" />
	</node>
	<node lat="58.12780277632046" lon="7.867405550629205" id="-26196">
		<tag k="fixme" v="consider natural=peak for the most distinct mountains in the district" />
		<tag k="name" v="Heftehei" />
		<tag k="natural" v="hill" />
		<tag k="place" v="locality" />
		<tag k="ssr:stedsnr" v="524784" />
	</node>
	<node lat="58.241827782243924" lon="7.843719448743253" id="-26202">
		<tag k="fixme" v="consider natural=peak for the most distinct mountains in the district" />
		<tag k="name" v="Krogevannsåsen" />
		<tag k="natural" v="hill" />
		<tag k="place" v="locality" />
		<tag k="ssr:stedsnr" v="524971" />
	</node>
	<node lat="58.17635000360988" lon="7.830522229967592" id="-26205">
		<tag k="name" v="Gunnarsheia" />
		<tag k="natural" v="hill" />
		<tag k="place" v="locality" />
		<tag k="ssr:stedsnr" v="524983" />
	</node>
	<node lat="58.19151389319801" lon="7.8438250045335005" id="-26207">
		<tag k="name" v="Igledalen" />
		<tag k="natural" v="valley" />
		<tag k="place" v="locality" />
		<tag k="ssr:stedsnr" v="524987" />
	</node>
</osm>
