<?xml version="1.0" encoding="UTF-8"?>
<osm version="0.6" generator="osmapis">
	<node lat="58.17416111537928" lon="8.073638885049425" id="-27552">
		<tag k="name" v="Hånestangen" />
		<tag k="natural" v="cape" />
		<tag k="ssr:stedsnr" v="57" />
	</node>
	<node lat="58.02062499738259" lon="7.699641658582024" id="-27553">
		<tag k="alt_name" v="Langøya" />
		<tag k="name" v="Store Langøy" />
		<tag k="place" v="islet" />
		<tag k="ssr:stedsnr" v="76" />
	</node>
	<node lat="58.108318473246854" lon="8.05973666725731" id="-27555">
		<tag k="name" v="Dvergsøya" />
		<tag k="old_name" v="Dvergs-øya" />
		<tag k="place" v="island" />
		<tag k="ssr:stedsnr" v="158" />
	</node>
	<node lat="58.06041111209355" lon="7.919502779789447" id="-27559">
		<tag k="alt_name" v="Guleskjera;Guleskjærene" />
		<tag k="fixme" v="consider seamark:type=rock or natural=shoal" />
		<tag k="name" v="Guleskjeran" />
		<tag k="place" v="islet" />
		<tag k="ssr:stedsnr" v="346" />
	</node>
	<node lat="58.04692777622579" lon="7.967308328869352" id="-27560">
		<tag k="name" v="Flanderen" />
		<tag k="place" v="islet" />
		<tag k="ssr:stedsnr" v="367" />
	</node>
	<node lat="58.037033329204064" lon="7.75748055429302" id="-27561">
		<tag k="alt_name" v="Fiske;Vester Fiske" />
		<tag k="name" v="Vestre Fiske" />
		<tag k="place" v="islet" />
		<tag k="ssr:stedsnr" v="369" />
	</node>
	<node lat="58.0298555589171" lon="7.793119442008825" id="-27562">
		<tag k="alt_name" v="Grønningan" />
		<tag k="name" v="Grønningene" />
		<tag k="place" v="islet" />
		<tag k="ssr:stedsnr" v="370" />
	</node>
	<node lat="58.06317777935753" lon="7.74069444725191" id="-27575">
		<tag k="name" v="Ureholmen" />
		<tag k="place" v="island" />
		<tag k="ssr:stedsnr" v="21210" />
	</node>
	<node lat="58.051349997651805" lon="7.768022222381505" id="-27576">
		<tag k="name" v="Torkelsholmen" />
		<tag k="place" v="island" />
		<tag k="ssr:stedsnr" v="21214" />
	</node>
	<node lat="58.074011108404015" lon="7.820502785715241" id="-27577">
		<tag k="alt_name" v="Årosstranda" />
		<tag k="name" v="Årossanden" />
		<tag k="natural" v="beach" />
		<tag k="ssr:stedsnr" v="21250" />
	</node>
	<node lat="58.082072222601575" lon="7.681436110913208" id="-27583">
		<tag k="name" v="Frøyslandsstranda" />
		<tag k="natural" v="beach" />
		<tag k="ssr:stedsnr" v="21901" />
	</node>
	<node lat="58.047433330795236" lon="7.802883337011779" id="-27588">
		<tag k="alt_name" v="Galgeholmen" />
		<tag k="name" v="Galjeholmen" />
		<tag k="place" v="islet" />
		<tag k="ssr:stedsnr" v="21983" />
	</node>
	<node lat="58.02086388864177" lon="7.69523054794881" id="-27590">
		<tag k="name" v="Bukkholmen" />
		<tag k="place" v="islet" />
		<tag k="ssr:stedsnr" v="21883" />
	</node>
	<node lat="58.02234166491922" lon="7.727408333120183" id="-27591">
		<tag k="name" v="Hummersundet" />
		<tag k="natural" v="strait" />
		<tag k="ssr:stedsnr" v="21885" />
	</node>
	<node lat="58.08583888727259" lon="8.107461116757388" id="-27594">
		<tag k="alt_name" v="Måkeskjærene" />
		<tag k="name" v="Måkeskjærane" />
		<tag k="place" v="islet" />
		<tag k="ssr:stedsnr" v="23492" />
	</node>
	<node lat="58.07888610797382" lon="8.186497227616723" id="-27603">
		<tag k="name" v="Nilsesgrunnen" />
		<tag k="natural" v="shoal" />
		<tag k="place" v="locality" />
		<tag k="ssr:stedsnr" v="24442" />
	</node>
	<node lat="58.02403055124207" lon="7.758947224435298" id="-27604">
		<tag k="alt_name" v="Gjevekalven" />
		<tag k="name" v="Gjævekalven" />
		<tag k="place" v="locality" />
		<tag k="seamark:type" v="rock" />
		<tag k="ssr:stedsnr" v="24575" />
	</node>
	<node lat="58.028980554621334" lon="7.790913893861038" id="-27605">
		<tag k="alt_name" v="Vester Grønningen" />
		<tag k="name" v="Vestre Grønningen" />
		<tag k="place" v="island" />
		<tag k="ssr:stedsnr" v="24583" />
	</node>
	<node lat="58.124527781656234" lon="8.050400008197391" id="-27632">
		<tag k="name" v="Tua" />
		<tag k="place" v="islet" />
		<tag k="ssr:stedsnr" v="34203" />
	</node>
	<node lat="58.14935277510206" lon="8.048822221039632" id="-27637">
		<tag k="name" v="Sømsodden" />
		<tag k="natural" v="cape" />
		<tag k="ssr:stedsnr" v="37062" />
	</node>
	<node lat="58.050044440374215" lon="7.6561972157764355" id="-27638">
		<tag k="alt_name" v="Tånevikkilen" />
		<tag k="name" v="Tånevigkilen" />
		<tag k="natural" v="bay" />
		<tag k="ssr:stedsnr" v="236498" />
	</node>
	<node lat="58.11598055393135" lon="8.105486119571228" id="-27703">
		<tag k="name" v="Ankerbåen" />
		<tag k="natural" v="shoal" />
		<tag k="place" v="locality" />
		<tag k="ssr:stedsnr" v="39666" />
	</node>
	<node lat="58.115833329114416" lon="8.103861106453111" id="-27704">
		<tag k="name" v="Martesodden" />
		<tag k="natural" v="cape" />
		<tag k="ssr:stedsnr" v="39668" />
	</node>
</osm>
