<?xml version="1.0" encoding="UTF-8"?>
<osm version="0.6" generator="osmapis">
	<node lat="58.25205833618343" lon="8.085819436537216" id="-27550">
		<tag k="alt_name" v="Rebåsheia;Rehåsheia" />
		<tag k="fixme" v="consider natural=peak for the most distinct mountains in the district" />
		<tag k="name" v="Rebbåsheia" />
		<tag k="natural" v="hill" />
		<tag k="place" v="locality" />
		<tag k="ssr:stedsnr" v="48" />
	</node>
	<node lat="58.159916664338176" lon="7.975019444425701" id="-27551">
		<tag k="alt_name" v="Bånetjørn" />
		<tag k="name" v="Bånetjønn" />
		<tag k="natural" v="water" />
		<tag k="ssr:stedsnr" v="51" />
	</node>
	<node lat="58.17416111537928" lon="8.073638885049425" id="-27552">
		<tag k="name" v="Hånestangen" />
		<tag k="natural" v="cape" />
		<tag k="ssr:stedsnr" v="57" />
	</node>
	<node lat="58.02062499738259" lon="7.699641658582024" id="-27553">
		<tag k="alt_name" v="Langøya" />
		<tag k="name" v="Store Langøy" />
		<tag k="place" v="islet" />
		<tag k="ssr:stedsnr" v="76" />
	</node>
	<node lat="58.094952775186606" lon="7.787308330293721" id="-27554">
		<tag k="amenity" v="place_of_worship" />
		<tag k="denomination" v="lutheran" />
		<tag k="name" v="Søgne kirke" />
		<tag k="religion" v="christian" />
		<tag k="ssr:stedsnr" v="150" />
	</node>
	<node lat="58.108318473246854" lon="8.05973666725731" id="-27555">
		<tag k="name" v="Dvergsøya" />
		<tag k="old_name" v="Dvergs-øya" />
		<tag k="place" v="island" />
		<tag k="ssr:stedsnr" v="158" />
	</node>
	<node lat="58.0951277786145" lon="7.911158330213111" id="-27556">
		<tag k="alt_name" v="Vennemyr" />
		<tag k="fixme" v="consider place=hamlet" />
		<tag k="name" v="Vennemyra" />
		<tag k="place" v="farm" />
		<tag k="ssr:stedsnr" v="162" />
	</node>
	<node lat="58.100374999273264" lon="7.931458325232121" id="-27557">
		<tag k="name" v="Holskogen" />
		<tag k="place" v="farm" />
		<tag k="ssr:stedsnr" v="164" />
	</node>
	<node lat="58.08357500358057" lon="7.781213883041705" id="-27558">
		<tag k="alt_name" v="Båråker" />
		<tag k="loc_name" v="Borrågeren" />
		<tag k="name" v="Bårågeren" />
		<tag k="place" v="farm" />
		<tag k="ssr:stedsnr" v="171" />
	</node>
	<node lat="58.06041111209355" lon="7.919502779789447" id="-27559">
		<tag k="alt_name" v="Guleskjera;Guleskjærene" />
		<tag k="fixme" v="consider seamark:type=rock or natural=shoal" />
		<tag k="name" v="Guleskjeran" />
		<tag k="place" v="islet" />
		<tag k="ssr:stedsnr" v="346" />
	</node>
	<node lat="58.04692777622579" lon="7.967308328869352" id="-27560">
		<tag k="name" v="Flanderen" />
		<tag k="place" v="islet" />
		<tag k="ssr:stedsnr" v="367" />
	</node>
	<node lat="58.037033329204064" lon="7.75748055429302" id="-27561">
		<tag k="alt_name" v="Fiske;Vester Fiske" />
		<tag k="name" v="Vestre Fiske" />
		<tag k="place" v="islet" />
		<tag k="ssr:stedsnr" v="369" />
	</node>
	<node lat="58.0298555589171" lon="7.793119442008825" id="-27562">
		<tag k="alt_name" v="Grønningan" />
		<tag k="name" v="Grønningene" />
		<tag k="place" v="islet" />
		<tag k="ssr:stedsnr" v="370" />
	</node>
	<node lat="58.11853610786783" lon="7.810647221621365" id="-27563">
		<tag k="alt_name" v="Kobbartjørn" />
		<tag k="name" v="Kabbertjønna" />
		<tag k="natural" v="water" />
		<tag k="ssr:stedsnr" v="247" />
	</node>
	<node lat="58.1716333319555" lon="8.110080551908679" id="-27564">
		<tag k="fixme" v="consider natural=peak for the most distinct mountains in the district" />
		<tag k="name" v="Stokkåsen" />
		<tag k="natural" v="hill" />
		<tag k="place" v="locality" />
		<tag k="ssr:stedsnr" v="416" />
	</node>
	<node lat="58.30348611048991" lon="7.64349445143563" id="-27565">
		<tag k="name" v="Åsvik" />
		<tag k="place" v="farm" />
		<tag k="ssr:stedsnr" v="848" />
	</node>
	<node lat="58.29169166613488" lon="7.582555554154055" id="-27566">
		<tag k="alt_name" v="Finnsåna" />
		<tag k="name" v="Finså" />
		<tag k="ssr:stedsnr" v="750" />
		<tag k="waterway" v="river" />
	</node>
	<node lat="58.33141111542602" lon="7.581130549356469" id="-27567">
		<tag k="name" v="Hagen" />
		<tag k="place" v="farm" />
		<tag k="ssr:stedsnr" v="757" />
	</node>
	<node lat="58.07123610838343" lon="7.700499996937546" id="-27568">
		<tag k="fixme" v="consider place=hamlet" />
		<tag k="name" v="Skarpeid" />
		<tag k="place" v="farm" />
		<tag k="ssr:stedsnr" v="905" />
	</node>
	<node lat="58.06944999569049" lon="7.671363881363691" id="-27569">
		<tag k="historic" v="shieling" />
		<tag k="name" v="Sto" />
		<tag k="place" v="isolated_dwelling" />
		<tag k="ssr:stedsnr" v="907" />
	</node>
	<node lat="58.091108329868774" lon="7.671394447467947" id="-27570">
		<tag k="name" v="Skiftebekken" />
		<tag k="ssr:stedsnr" v="21003" />
		<tag k="waterway" v="stream" />
	</node>
	<node lat="58.14684444274073" lon="7.631541663889888" id="-27571">
		<tag k="fixme" v="consider natural=peak for the most distinct mountains in the district" />
		<tag k="name" v="Kviansheia" />
		<tag k="natural" v="hill" />
		<tag k="place" v="locality" />
		<tag k="ssr:stedsnr" v="21035" />
	</node>
	<node lat="58.08907222430719" lon="7.671427786057447" id="-27572">
		<tag k="name" v="Heggdalen" />
		<tag k="natural" v="valley" />
		<tag k="place" v="locality" />
		<tag k="ssr:stedsnr" v="21044" />
	</node>
	<node lat="58.12298610971032" lon="7.709647216099844" id="-27573">
		<tag k="name" v="Austre Sjustøltjønn" />
		<tag k="natural" v="water" />
		<tag k="ssr:stedsnr" v="21047" />
	</node>
	<node lat="58.07446666860588" lon="7.82614444905208" id="-27574">
		<tag k="name" v="Stifjellet" />
		<tag k="natural" v="hill" />
		<tag k="place" v="locality" />
		<tag k="ssr:stedsnr" v="21204" />
	</node>
	<node lat="58.06317777935753" lon="7.74069444725191" id="-27575">
		<tag k="name" v="Ureholmen" />
		<tag k="place" v="island" />
		<tag k="ssr:stedsnr" v="21210" />
	</node>
	<node lat="58.051349997651805" lon="7.768022222381505" id="-27576">
		<tag k="name" v="Torkelsholmen" />
		<tag k="place" v="island" />
		<tag k="ssr:stedsnr" v="21214" />
	</node>
	<node lat="58.074011108404015" lon="7.820502785715241" id="-27577">
		<tag k="alt_name" v="Årosstranda" />
		<tag k="name" v="Årossanden" />
		<tag k="natural" v="beach" />
		<tag k="ssr:stedsnr" v="21250" />
	</node>
	<node lat="58.11437777869732" lon="7.669819441898309" id="-27578">
		<tag k="name" v="Byttingsholmen" />
		<tag k="place" v="islet" />
		<tag k="ssr:stedsnr" v="21104" />
	</node>
	<node lat="58.11254721790767" lon="7.672866659180131" id="-27579">
		<tag k="name" v="Sundet" />
		<tag k="natural" v="strait" />
		<tag k="ssr:stedsnr" v="21108" />
	</node>
	<node lat="58.1128916709135" lon="7.807197227701285" id="-27580">
		<tag k="name" v="Åseheia" />
		<tag k="natural" v="hill" />
		<tag k="place" v="locality" />
		<tag k="ssr:stedsnr" v="21184" />
	</node>
	<node lat="58.10856944250654" lon="7.863719444971712" id="-27581">
		<tag k="name" v="Kasperheia" />
		<tag k="natural" v="hill" />
		<tag k="place" v="locality" />
		<tag k="ssr:stedsnr" v="21343" />
	</node>
	<node lat="58.11259722067308" lon="7.884302779040163" id="-27582">
		<tag k="name" v="Danmarksholmen" />
		<tag k="place" v="islet" />
		<tag k="ssr:stedsnr" v="21345" />
	</node>
	<node lat="58.082072222601575" lon="7.681436110913208" id="-27583">
		<tag k="name" v="Frøyslandsstranda" />
		<tag k="natural" v="beach" />
		<tag k="ssr:stedsnr" v="21901" />
	</node>
	<node lat="58.06796111075103" lon="7.719516670594963" id="-27584">
		<tag k="name" v="Joransheia" />
		<tag k="natural" v="hill" />
		<tag k="place" v="locality" />
		<tag k="ssr:stedsnr" v="21908" />
	</node>
	<node lat="58.12814166296594" lon="7.586211105636935" id="-27585">
		<tag k="name" v="Trolldalsreet" />
		<tag k="natural" v="valley" />
		<tag k="place" v="locality" />
		<tag k="ssr:stedsnr" v="21936" />
	</node>
	<node lat="58.13965277797409" lon="7.622494442102511" id="-27586">
		<tag k="name" v="Støyden" />
		<tag k="natural" v="valley" />
		<tag k="place" v="locality" />
		<tag k="ssr:stedsnr" v="21939" />
	</node>
	<node lat="58.1398499964982" lon="7.615763890348453" id="-27587">
		<tag k="name" v="Oksetjønn" />
		<tag k="natural" v="water" />
		<tag k="ssr:stedsnr" v="21942" />
	</node>
	<node lat="58.047433330795236" lon="7.802883337011779" id="-27588">
		<tag k="alt_name" v="Galgeholmen" />
		<tag k="name" v="Galjeholmen" />
		<tag k="place" v="islet" />
		<tag k="ssr:stedsnr" v="21983" />
	</node>
	<node lat="58.16413055275509" lon="7.725863886475468" id="-27589">
		<tag k="name" v="Skuggedalskniben" />
		<tag k="natural" v="hill" />
		<tag k="place" v="locality" />
		<tag k="ssr:stedsnr" v="22000" />
	</node>
	<node lat="58.02086388864177" lon="7.69523054794881" id="-27590">
		<tag k="name" v="Bukkholmen" />
		<tag k="place" v="islet" />
		<tag k="ssr:stedsnr" v="21883" />
	</node>
	<node lat="58.02234166491922" lon="7.727408333120183" id="-27591">
		<tag k="name" v="Hummersundet" />
		<tag k="natural" v="strait" />
		<tag k="ssr:stedsnr" v="21885" />
	</node>
	<node lat="58.08325555467834" lon="7.913638889298648" id="-27592">
		<tag k="name" v="Bergebrådet" />
		<tag k="natural" v="slope" />
		<tag k="place" v="locality" />
		<tag k="ssr:stedsnr" v="21889" />
	</node>
	<node lat="58.08328129785992" lon="8.025354311680141" id="-27593">
		<tag k="alt_name" v="Sudrevarden" />
		<tag k="name" v="Sudervarden" />
		<tag k="natural" v="hill" />
		<tag k="place" v="locality" />
		<tag k="ssr:stedsnr" v="23484" />
	</node>
	<node lat="58.08583888727259" lon="8.107461116757388" id="-27594">
		<tag k="alt_name" v="Måkeskjærene" />
		<tag k="name" v="Måkeskjærane" />
		<tag k="place" v="islet" />
		<tag k="ssr:stedsnr" v="23492" />
	</node>
	<node lat="58.190911114268125" lon="7.89701667036832" id="-27595">
		<tag k="name" v="Bjelkekjerr" />
		<tag k="natural" v="wetland" />
		<tag k="ssr:stedsnr" v="24014" />
	</node>
	<node lat="58.18303611541421" lon="7.888925004193804" id="-27596">
		<tag k="name" v="Vassdalen" />
		<tag k="natural" v="valley" />
		<tag k="place" v="locality" />
		<tag k="ssr:stedsnr" v="24018" />
	</node>
	<node lat="58.19418055170112" lon="7.878763881391857" id="-27597">
		<tag k="alt_name" v="Ramsheia" />
		<tag k="name" v="Ramseheia" />
		<tag k="natural" v="hill" />
		<tag k="place" v="locality" />
		<tag k="ssr:stedsnr" v="24029" />
	</node>
	<node lat="58.19567500209699" lon="7.898338895276642" id="-27598">
		<tag k="name" v="Gyråstjønn" />
		<tag k="natural" v="water" />
		<tag k="ssr:stedsnr" v="24035" />
	</node>
	<node lat="58.19750555310127" lon="7.948088881501574" id="-27599">
		<tag k="name" v="Øygarden" />
		<tag k="natural" v="slope" />
		<tag k="place" v="locality" />
		<tag k="ssr:stedsnr" v="24040" />
	</node>
	<node lat="58.21441944480487" lon="7.904908338897351" id="-27600">
		<tag k="name" v="Langemyr" />
		<tag k="natural" v="wetland" />
		<tag k="ssr:stedsnr" v="24044" />
	</node>
	<node lat="58.15330000276706" lon="7.984019449199708" id="-27601">
		<tag k="name" v="Baneheia" />
		<tag k="natural" v="hill" />
		<tag k="place" v="locality" />
		<tag k="ssr:stedsnr" v="24411" />
	</node>
	<node lat="58.211183329169195" lon="8.005766664106295" id="-27602">
		<tag k="historic" v="shieling" />
		<tag k="name" v="Grostøl" />
		<tag k="place" v="isolated_dwelling" />
		<tag k="ssr:stedsnr" v="24416" />
	</node>
	<node lat="58.07888610797382" lon="8.186497227616723" id="-27603">
		<tag k="name" v="Nilsesgrunnen" />
		<tag k="natural" v="shoal" />
		<tag k="place" v="locality" />
		<tag k="ssr:stedsnr" v="24442" />
	</node>
	<node lat="58.02403055124207" lon="7.758947224435298" id="-27604">
		<tag k="alt_name" v="Gjevekalven" />
		<tag k="name" v="Gjævekalven" />
		<tag k="place" v="locality" />
		<tag k="seamark:type" v="rock" />
		<tag k="ssr:stedsnr" v="24575" />
	</node>
	<node lat="58.028980554621334" lon="7.790913893861038" id="-27605">
		<tag k="alt_name" v="Vester Grønningen" />
		<tag k="name" v="Vestre Grønningen" />
		<tag k="place" v="island" />
		<tag k="ssr:stedsnr" v="24583" />
	</node>
	<node lat="58.201566670174095" lon="7.881894447236993" id="-27606">
		<tag k="name" v="Eighaugen" />
		<tag k="natural" v="hill" />
		<tag k="place" v="locality" />
		<tag k="ssr:stedsnr" v="24922" />
	</node>
	<node lat="58.13094444023332" lon="7.899297215609422" id="-27607">
		<tag k="name" v="Haugetjønn" />
		<tag k="natural" v="water" />
		<tag k="ssr:stedsnr" v="24884" />
	</node>
	<node lat="58.13611491331736" lon="7.908276389136079" id="-27608">
		<tag k="name" v="Bjørkedalstjønna" />
		<tag k="natural" v="water" />
		<tag k="ssr:stedsnr" v="24888" />
	</node>
	<node lat="58.15904225988961" lon="7.904777833374183" id="-27609">
		<tag k="name" v="Anestjønn" />
		<tag k="natural" v="water" />
		<tag k="ssr:stedsnr" v="24893" />
	</node>
	<node lat="58.19539444171514" lon="7.868113894060792" id="-27610">
		<tag k="name" v="Kjøbmannsheimyra" />
		<tag k="natural" v="wetland" />
		<tag k="ssr:stedsnr" v="25912" />
	</node>
	<node lat="58.146244446472025" lon="7.932958324885454" id="-27611">
		<tag k="name" v="Hellemyr" />
		<tag k="place" v="suburb" />
		<tag k="ssr:stedsnr" v="26127" />
	</node>
	<node lat="58.24396111350102" lon="7.8801916750885725" id="-27612">
		<tag k="fixme" v="consider natural=peak for the most distinct mountains in the district" />
		<tag k="name" v="Eptevannsheia" />
		<tag k="natural" v="hill" />
		<tag k="place" v="locality" />
		<tag k="ssr:stedsnr" v="28008" />
	</node>
	<node lat="58.1777333364329" lon="7.935491664334492" id="-27613">
		<tag k="fixme" v="consider natural=peak for the most distinct mountains in the district" />
		<tag k="name" v="Brendeheia" />
		<tag k="natural" v="hill" />
		<tag k="place" v="locality" />
		<tag k="ssr:stedsnr" v="28021" />
	</node>
	<node lat="58.247038888384985" lon="8.042369452814027" id="-27614">
		<tag k="name" v="Posmyr" />
		<tag k="natural" v="wetland" />
		<tag k="ssr:stedsnr" v="28079" />
	</node>
	<node lat="58.2499841617782" lon="8.021080279692743" id="-27615">
		<tag k="name" v="Husdalstjønnene" />
		<tag k="natural" v="water" />
		<tag k="ssr:stedsnr" v="28080" />
		<tag k="water" v="lake" />
	</node>
	<node lat="58.25239444376572" lon="7.99911945006718" id="-27616">
		<tag k="name" v="Igletjønn" />
		<tag k="natural" v="water" />
		<tag k="ssr:stedsnr" v="28083" />
	</node>
	<node lat="58.2229000017257" lon="7.88709722393498" id="-27617">
		<tag k="name" v="Kylldalen" />
		<tag k="natural" v="valley" />
		<tag k="place" v="locality" />
		<tag k="ssr:stedsnr" v="28105" />
	</node>
	<node lat="58.221927780307546" lon="7.870380553964653" id="-27618">
		<tag k="name" v="Tvillingmyr" />
		<tag k="natural" v="wetland" />
		<tag k="ssr:stedsnr" v="28118" />
	</node>
	<node lat="58.071111114168026" lon="7.754241660194612" id="-27619">
		<tag k="name" v="Hallandvik" />
		<tag k="place" v="farm" />
		<tag k="ssr:stedsnr" v="28120" />
	</node>
	<node lat="58.21886111104701" lon="7.879869443325749" id="-27620">
		<tag k="name" v="Stuemyr" />
		<tag k="natural" v="wetland" />
		<tag k="ssr:stedsnr" v="28123" />
	</node>
	<node lat="58.2320583356875" lon="7.889277784168913" id="-27621">
		<tag k="fixme" v="consider natural=peak for the most distinct mountains in the district" />
		<tag k="name" v="Kartdalsåsen" />
		<tag k="natural" v="hill" />
		<tag k="place" v="locality" />
		<tag k="ssr:stedsnr" v="28124" />
	</node>
	<node lat="58.23148055337466" lon="7.878083338220734" id="-27622">
		<tag k="name" v="Skippesåsen" />
		<tag k="natural" v="hill" />
		<tag k="place" v="locality" />
		<tag k="ssr:stedsnr" v="28127" />
	</node>
	<node lat="58.15872222648798" lon="8.12991667425427" id="-27623">
		<tag k="fixme" v="consider natural=peak for the most distinct mountains in the district" />
		<tag k="name" v="Hellingsås" />
		<tag k="natural" v="hill" />
		<tag k="place" v="locality" />
		<tag k="ssr:stedsnr" v="28172" />
	</node>
	<node lat="58.271586115250805" lon="8.052241669333025" id="-27624">
		<tag k="name" v="Store Gangtjønn" />
		<tag k="natural" v="water" />
		<tag k="ssr:stedsnr" v="28189" />
	</node>
	<node lat="58.268083330389636" lon="8.13324444985246" id="-27625">
		<tag k="alt_name" v="Pinesdalsmyr" />
		<tag k="name" v="Pinedalsmyr" />
		<tag k="natural" v="wetland" />
		<tag k="ssr:stedsnr" v="28302" />
	</node>
	<node lat="58.27088333477466" lon="8.153675005484423" id="-27626">
		<tag k="name" v="Kyrefallet" />
		<tag k="natural" v="slope" />
		<tag k="place" v="locality" />
		<tag k="ssr:stedsnr" v="28311" />
	</node>
	<node lat="58.24208888804055" lon="8.013852778952895" id="-27627">
		<tag k="name" v="Brånen" />
		<tag k="natural" v="cape" />
		<tag k="ssr:stedsnr" v="28201" />
	</node>
	<node lat="58.239775002420316" lon="8.017213897176486" id="-27628">
		<tag k="name" v="Holmeheia" />
		<tag k="natural" v="cape" />
		<tag k="ssr:stedsnr" v="28203" />
	</node>
	<node lat="58.220813886599785" lon="8.050002780161783" id="-27629">
		<tag k="name" v="Tolleknivtrappane" />
		<tag k="place" v="locality" />
		<tag k="ssr:stedsnr" v="28204" />
	</node>
	<node lat="58.27049444454952" lon="8.164991663304985" id="-27630">
		<tag k="name" v="Krogen" />
		<tag k="natural" v="wetland" />
		<tag k="ssr:stedsnr" v="28280" />
	</node>
	<node lat="58.27912777579703" lon="8.082308334314906" id="-27631">
		<tag k="name" v="Ildvardsheia" />
		<tag k="natural" v="hill" />
		<tag k="place" v="locality" />
		<tag k="ssr:stedsnr" v="28286" />
	</node>
	<node lat="58.124527781656234" lon="8.050400008197391" id="-27632">
		<tag k="name" v="Tua" />
		<tag k="place" v="islet" />
		<tag k="ssr:stedsnr" v="34203" />
	</node>
	<node lat="58.09789722493972" lon="7.973152774914944" id="-27633">
		<tag k="name" v="Vik" />
		<tag k="place" v="isolated_dwelling" />
		<tag k="ssr:stedsnr" v="36202" />
	</node>
	<node lat="58.14935277510206" lon="8.048822221039632" id="-27637">
		<tag k="name" v="Sømsodden" />
		<tag k="natural" v="cape" />
		<tag k="ssr:stedsnr" v="37062" />
	</node>
	<node lat="58.050044440374215" lon="7.6561972157764355" id="-27638">
		<tag k="alt_name" v="Tånevikkilen" />
		<tag k="name" v="Tånevigkilen" />
		<tag k="natural" v="bay" />
		<tag k="ssr:stedsnr" v="236498" />
	</node>
	<node lat="58.34181111408885" lon="7.564352776192218" id="-27639">
		<tag k="highway" v="path" />
		<tag k="name" v="Stien" />
		<tag k="ssr:stedsnr" v="38158" />
	</node>
	<node lat="58.260036113965896" lon="7.597905552268628" id="-27640">
		<tag k="name" v="Djupmyr" />
		<tag k="natural" v="wetland" />
		<tag k="ssr:stedsnr" v="38162" />
	</node>
	<node lat="58.25763333129212" lon="7.56872499195485" id="-27641">
		<tag k="name" v="Svinsoksgreina" />
		<tag k="natural" v="slope" />
		<tag k="place" v="locality" />
		<tag k="ssr:stedsnr" v="38164" />
	</node>
	<node lat="58.25654166922516" lon="7.621216668586078" id="-27642">
		<tag k="fixme" v="consider natural=peak for the most distinct mountains in the district" />
		<tag k="name" v="Smalåsen" />
		<tag k="natural" v="hill" />
		<tag k="place" v="locality" />
		<tag k="ssr:stedsnr" v="38202" />
	</node>
	<node lat="58.243580558225794" lon="7.621205551075422" id="-27643">
		<tag k="name" v="Kvernhushølen" />
		<tag k="place" v="locality" />
		<tag k="ssr:stedsnr" v="38208" />
	</node>
	<node lat="58.25458611260504" lon="7.607186115271951" id="-27644">
		<tag k="fixme" v="consider natural=peak for the most distinct mountains in the district" />
		<tag k="name" v="Dynestølfjellan" />
		<tag k="natural" v="hill" />
		<tag k="place" v="locality" />
		<tag k="ssr:stedsnr" v="38220" />
	</node>
	<node lat="58.25466110698089" lon="7.640716665214024" id="-27645">
		<tag k="name" v="Meåna" />
		<tag k="ssr:stedsnr" v="38313" />
		<tag k="waterway" v="river" />
	</node>
	<node lat="58.28805832982767" lon="7.673577779085728" id="-27646">
		<tag k="fixme" v="consider natural=peak for the most distinct mountains in the district" />
		<tag k="name" v="Liberget" />
		<tag k="natural" v="hill" />
		<tag k="place" v="locality" />
		<tag k="ssr:stedsnr" v="38397" />
	</node>
	<node lat="58.25203333284517" lon="7.721561111837997" id="-27647">
		<tag k="name" v="Barlindmyra" />
		<tag k="natural" v="wetland" />
		<tag k="ssr:stedsnr" v="38506" />
	</node>
	<node lat="58.25306666728848" lon="7.677833328641398" id="-27648">
		<tag k="name" v="Saga" />
		<tag k="place" v="locality" />
		<tag k="ssr:stedsnr" v="38508" />
	</node>
	<node lat="58.319763890394476" lon="7.69053055579296" id="-27649">
		<tag k="name" v="Kleiveløa" />
		<tag k="place" v="isolated_dwelling" />
		<tag k="ssr:stedsnr" v="38511" />
	</node>
	<node lat="58.305049998905616" lon="7.6628611161389335" id="-27650">
		<tag k="name" v="Kleiveløa" />
		<tag k="place" v="isolated_dwelling" />
		<tag k="ssr:stedsnr" v="38513" />
	</node>
	<node lat="58.312972222126675" lon="7.702413884019552" id="-27651">
		<tag k="name" v="Krågebakken" />
		<tag k="natural" v="hill" />
		<tag k="place" v="locality" />
		<tag k="ssr:stedsnr" v="38519" />
	</node>
	<node lat="58.30741667046072" lon="7.718477770438046" id="-27652">
		<tag k="name" v="Knibereet" />
		<tag k="natural" v="slope" />
		<tag k="place" v="locality" />
		<tag k="ssr:stedsnr" v="38523" />
	</node>
	<node lat="58.302969446197494" lon="7.70823055810537" id="-27653">
		<tag k="name" v="Blikksknollen" />
		<tag k="natural" v="hill" />
		<tag k="place" v="locality" />
		<tag k="ssr:stedsnr" v="38529" />
	</node>
	<node lat="58.30158055233701" lon="7.68582500149367" id="-27654">
		<tag k="name" v="Heivollen" />
		<tag k="natural" v="hill" />
		<tag k="place" v="locality" />
		<tag k="ssr:stedsnr" v="38533" />
	</node>
	<node lat="58.28074444063132" lon="7.664697216534926" id="-27655">
		<tag k="name" v="Fuglehei" />
		<tag k="natural" v="hill" />
		<tag k="place" v="locality" />
		<tag k="ssr:stedsnr" v="38401" />
	</node>
	<node lat="58.28746111075642" lon="7.639413887666376" id="-27656">
		<tag k="name" v="Eikebrokka" />
		<tag k="natural" v="slope" />
		<tag k="place" v="locality" />
		<tag k="ssr:stedsnr" v="38404" />
	</node>
	<node lat="58.29351389122537" lon="7.63253332774118" id="-27657">
		<tag k="name" v="De brende bakkan" />
		<tag k="natural" v="hill" />
		<tag k="place" v="locality" />
		<tag k="ssr:stedsnr" v="38405" />
	</node>
	<node lat="58.29287777929582" lon="7.658819442473451" id="-27658">
		<tag k="name" v="Bronkedalshei" />
		<tag k="natural" v="hill" />
		<tag k="place" v="locality" />
		<tag k="ssr:stedsnr" v="38407" />
	</node>
	<node lat="58.32307499706288" lon="7.6847027701858694" id="-27659">
		<tag k="name" v="Grindånstean" />
		<tag k="natural" v="wetland" />
		<tag k="ssr:stedsnr" v="38608" />
	</node>
	<node lat="58.26768610841199" lon="7.643863885454882" id="-27660">
		<tag k="name" v="Blikksknollen" />
		<tag k="natural" v="hill" />
		<tag k="place" v="locality" />
		<tag k="ssr:stedsnr" v="38611" />
	</node>
	<node lat="58.25841944699173" lon="7.626380556508039" id="-27661">
		<tag k="name" v="Lille Sandviksdalen" />
		<tag k="natural" v="valley" />
		<tag k="place" v="locality" />
		<tag k="ssr:stedsnr" v="38623" />
	</node>
	<node lat="58.26351944537885" lon="7.633886106836709" id="-27662">
		<tag k="name" v="Pershei" />
		<tag k="natural" v="hill" />
		<tag k="place" v="locality" />
		<tag k="ssr:stedsnr" v="38626" />
	</node>
	<node lat="58.13630277723994" lon="7.833005552373355" id="-27663">
		<tag k="name" v="Medheia" />
		<tag k="natural" v="hill" />
		<tag k="place" v="locality" />
		<tag k="ssr:stedsnr" v="38706" />
	</node>
	<node lat="58.2099916685131" lon="7.770241667991073" id="-27664">
		<tag k="name" v="Eikeneset" />
		<tag k="place" v="locality" />
		<tag k="ssr:stedsnr" v="38707" />
	</node>
	<node lat="58.20724166302245" lon="7.773230555406208" id="-27665">
		<tag k="name" v="Mandalsfossen" />
		<tag k="natural" v="waterfall" />
		<tag k="ssr:stedsnr" v="38709" />
	</node>
	<node lat="58.15799166320722" lon="7.81140833849139" id="-27666">
		<tag k="name" v="Lisagebom" />
		<tag k="place" v="locality" />
		<tag k="ssr:stedsnr" v="38716" />
	</node>
	<node lat="58.15944444807862" lon="7.743741661124922" id="-27667">
		<tag k="name" v="Linddalen" />
		<tag k="natural" v="valley" />
		<tag k="place" v="locality" />
		<tag k="ssr:stedsnr" v="38759" />
	</node>
	<node lat="58.16077500020252" lon="7.770869437187346" id="-27668">
		<tag k="name" v="Larsmyr" />
		<tag k="natural" v="wetland" />
		<tag k="ssr:stedsnr" v="38763" />
	</node>
	<node lat="58.16243333055582" lon="7.765872213834881" id="-27669">
		<tag k="name" v="Flegevollsbekken" />
		<tag k="ssr:stedsnr" v="38764" />
		<tag k="waterway" v="stream" />
	</node>
	<node lat="58.16668610747229" lon="7.772669440680741" id="-27670">
		<tag k="name" v="Biskundssteinen" />
		<tag k="natural" v="stone" />
		<tag k="ssr:stedsnr" v="38773" />
	</node>
	<node lat="58.1749666640371" lon="7.761163895271771" id="-27671">
		<tag k="fixme" v="consider natural=peak for the most distinct mountains in the district" />
		<tag k="name" v="Dardanellerne" />
		<tag k="natural" v="hill" />
		<tag k="place" v="locality" />
		<tag k="ssr:stedsnr" v="38902" />
	</node>
	<node lat="58.13689167008602" lon="7.844311108371946" id="-27672">
		<tag k="fixme" v="consider natural=peak for the most distinct mountains in the district" />
		<tag k="name" v="Svaheisknatten" />
		<tag k="natural" v="hill" />
		<tag k="place" v="locality" />
		<tag k="ssr:stedsnr" v="38808" />
	</node>
	<node lat="58.114875004062114" lon="7.8894777841256625" id="-27673">
		<tag k="name" v="Svingerdalen" />
		<tag k="natural" v="valley" />
		<tag k="place" v="locality" />
		<tag k="ssr:stedsnr" v="38830" />
	</node>
	<node lat="58.226944444568026" lon="7.790988883268176" id="-27674">
		<tag k="fixme" v="consider place=hamlet" />
		<tag k="loc_name" v="Horndalen" />
		<tag k="name" v="Hundalen" />
		<tag k="place" v="farm" />
		<tag k="ssr:stedsnr" v="38857" />
	</node>
	<node lat="58.24231667049332" lon="7.813919436662578" id="-27675">
		<tag k="name" v="Paddetjønn" />
		<tag k="natural" v="water" />
		<tag k="ssr:stedsnr" v="38869" />
	</node>
	<node lat="58.186997220138544" lon="7.840547225750923" id="-27676">
		<tag k="name" v="Hagan" />
		<tag k="natural" v="wetland" />
		<tag k="ssr:stedsnr" v="38880" />
	</node>
	<node lat="58.314949997193864" lon="7.612011106314844" id="-27683">
		<tag k="name" v="Knausen" />
		<tag k="natural" v="hill" />
		<tag k="place" v="locality" />
		<tag k="ssr:stedsnr" v="39310" />
	</node>
	<node lat="58.35543610701215" lon="7.590036105565256" id="-27684">
		<tag k="name" v="Solåsmyr" />
		<tag k="natural" v="wetland" />
		<tag k="ssr:stedsnr" v="39205" />
	</node>
	<node lat="58.11598055393135" lon="8.105486119571228" id="-27703">
		<tag k="name" v="Ankerbåen" />
		<tag k="natural" v="shoal" />
		<tag k="place" v="locality" />
		<tag k="ssr:stedsnr" v="39666" />
	</node>
	<node lat="58.115833329114416" lon="8.103861106453111" id="-27704">
		<tag k="name" v="Martesodden" />
		<tag k="natural" v="cape" />
		<tag k="ssr:stedsnr" v="39668" />
	</node>
</osm>
