<?xml version="1.0" encoding="UTF-8"?>
<osm version="0.6" generator="osmapis">
	<node lat="58.25148888798121" lon="7.727661113085755" id="-57414">
		<tag k="historic" v="boundary_stone" />
		<tag k="man_made" v="cairn" />
		<tag k="name" v="Skuggesteinen" />
		<tag k="place" v="locality" />
		<tag k="ssr:stedsnr" v="579605" />
	</node>
	<node lat="58.14158392330221" lon="8.141972301337114" id="-59392">
		<tag k="fixme" v="consider boundary=protected_area and relevant protect_class if not nature reserve" />
		<tag k="leisure" v="nature_reserve" />
		<tag k="name" v="Vassvannet  naturreservat" />
		<tag k="ssr:stedsnr" v="981734" />
	</node>
	<node lat="58.13079209153865" lon="7.896634748424603" id="-64672">
		<tag k="fixme" v="consider boundary=protected_area and relevant protect_class if not nature reserve" />
		<tag k="leisure" v="nature_reserve" />
		<tag k="name" v="Svingervann naturreservat" />
		<tag k="ssr:stedsnr" v="981767" />
	</node>
	<node lat="58.1654495878742" lon="8.112869664590697" id="-65458">
		<tag k="fixme" v="consider boundary=protected_area and relevant protect_class if not nature reserve" />
		<tag k="leisure" v="nature_reserve" />
		<tag k="name" v="Nedre Timenes naturreservat" />
		<tag k="ssr:stedsnr" v="1079943" />
	</node>
	<node lat="58.11351677555543" lon="7.6327849382458925" id="-65533">
		<tag k="fixme" v="specify shooting=range, clay_pigeon etc" />
		<tag k="leisure" v="pitch" />
		<tag k="name" v="Trydalen skytebane" />
		<tag k="sport" v="shooting" />
		<tag k="ssr:stedsnr" v="1081883" />
	</node>
	<node lat="58.201704858127854" lon="7.868832892600079" id="-65553">
		<tag k="fixme" v="specify shooting=range, clay_pigeon etc" />
		<tag k="leisure" v="pitch" />
		<tag k="name" v="Hågånmyr skytebane" />
		<tag k="sport" v="shooting" />
		<tag k="ssr:stedsnr" v="1084021" />
	</node>
	<node lat="58.18156823866713" lon="7.83990959134725" id="-65564">
		<tag k="fixme" v="specify shooting=range, clay_pigeon etc" />
		<tag k="leisure" v="pitch" />
		<tag k="name" v="Stemtjønn skytebane" />
		<tag k="sport" v="shooting" />
		<tag k="ssr:stedsnr" v="1084195" />
	</node>
	<node lat="58.23856508721705" lon="8.064913639268623" id="-65566">
		<tag k="fixme" v="specify shooting=range, clay_pigeon etc" />
		<tag k="leisure" v="pitch" />
		<tag k="name" v="Farvannet skytebane" />
		<tag k="sport" v="shooting" />
		<tag k="ssr:stedsnr" v="1084197" />
	</node>
	<node lat="58.11072914495344" lon="7.71938870753076" id="-65567">
		<tag k="fixme" v="specify shooting=range, clay_pigeon etc" />
		<tag k="leisure" v="pitch" />
		<tag k="name" v="Årdalen skytebane" />
		<tag k="sport" v="shooting" />
		<tag k="ssr:stedsnr" v="1084236" />
	</node>
</osm>
