<?xml version="1.0" encoding="UTF-8"?>
<osm generator="osmapis" version="0.6">
	<node id="-56318" lat="58.2371277753" lon="8.09636945076">
		<tag k="fixme" v="consider highway=path" />
		<tag k="highway" v="track" />
		<tag k="name" v="Timmerkleiv" />
		<tag k="ssr:stedsnr" v="530103" />
	</node>
	<node id="-55290" lat="58.2427055573" lon="8.10688889111">
		<tag k="highway" v="path" />
		<tag k="name" v="Mollkleivveien" />
		<tag k="ssr:stedsnr" v="331243" />
	</node>
	<node id="-58361" lat="58.1488777781" lon="7.97836944591">
		<tag k="bridge" v="yes" />
		<tag k="layer" v="1" />
		<tag k="name" v="Grim" />
		<tag k="ssr:stedsnr" v="957167" />
	</node>
	<node id="-58360" lat="58.273250004" lon="7.64113054867">
		<tag k="bridge" v="yes" />
		<tag k="layer" v="1" />
		<tag k="name" v="Fjellskår" />
		<tag k="ssr:stedsnr" v="957089" />
	</node>
	<node id="-58359" lat="58.0774027779" lon="7.76695833995">
		<tag k="bridge" v="yes" />
		<tag k="layer" v="1" />
		<tag k="name" v="Utfortjønnbekk" />
		<tag k="ssr:stedsnr" v="957050" />
	</node>
	<node id="-58358" lat="58.1238249973" lon="7.62141945284">
		<tag k="bridge" v="yes" />
		<tag k="layer" v="1" />
		<tag k="name" v="Teland" />
		<tag k="ssr:stedsnr" v="957047" />
	</node>
	<node id="-58357" lat="58.0893055598" lon="7.84039444224">
		<tag k="bridge" v="yes" />
		<tag k="layer" v="1" />
		<tag k="name" v="Søgne" />
		<tag k="ssr:stedsnr" v="957046" />
	</node>
	<node id="-58356" lat="58.1212861092" lon="7.84311389258">
		<tag k="bridge" v="yes" />
		<tag k="layer" v="1" />
		<tag k="name" v="Storenes" />
		<tag k="ssr:stedsnr" v="957038" />
	</node>
	<node id="-56307" lat="58.1924138856" lon="8.10221389245">
		<tag k="fixme" v="verify maritime location" />
		<tag k="mooring" v="yes" />
		<tag k="name" v="Haugenstøa" />
		<tag k="place" v="locality" />
		<tag k="ssr:stedsnr" v="530037" />
	</node>
	<node id="-52720" lat="58.1451250005" lon="8.02821111843">
		<tag k="leisure" v="marina" />
		<tag k="name" v="Kuholmen båthavn" />
		<tag k="ssr:stedsnr" v="896944" />
	</node>
	<node id="-56814" lat="58.073908335" lon="8.00644166781">
		<tag k="man_made" v="quay" />
		<tag k="name" v="Mæbø brygge" />
		<tag k="place" v="locality" />
		<tag k="ssr:stedsnr" v="592341" />
	</node>
	<node id="-57836" lat="58.3313277773" lon="7.6160527847">
		<tag k="fixme" v="consider highway=path" />
		<tag k="highway" v="track" />
		<tag k="name" v="Kvellandsvegen" />
		<tag k="ssr:stedsnr" v="827178" />
	</node>
	<node id="-58342" lat="58.1422638849" lon="8.00335278293">
		<tag k="landuse" v="harbour" />
		<tag k="name" v="Østre havn" />
		<tag k="seamark:type" v="harbour" />
		<tag k="ssr:stedsnr" v="956664" />
	</node>
	<node id="-56802" lat="58.1962833364" lon="8.03490832591">
		<tag k="bridge" v="yes" />
		<tag k="layer" v="1" />
		<tag k="name" v="Justvik" />
		<tag k="ssr:stedsnr" v="592183" />
	</node>
	<node id="-56801" lat="58.2179555552" lon="7.92331945155">
		<tag k="bridge" v="yes" />
		<tag k="layer" v="1" />
		<tag k="name" v="Høiebekk" />
		<tag k="ssr:stedsnr" v="592177" />
	</node>
	<node id="-56799" lat="58.1605972219" lon="8.01702222519">
		<tag k="bridge" v="yes" />
		<tag k="layer" v="1" />
		<tag k="name" v="Prestebekken, Øvre" />
		<tag k="ssr:stedsnr" v="592130" />
	</node>
	<node id="-56796" lat="58.0932277796" lon="7.782208333">
		<tag k="bridge" v="yes" />
		<tag k="layer" v="1" />
		<tag k="name" v="Lunde bru" />
		<tag k="ssr:stedsnr" v="592046" />
	</node>
	<node id="-56795" lat="58.0839944482" lon="7.83637500098">
		<tag k="bridge" v="yes" />
		<tag k="layer" v="1" />
		<tag k="name" v="Stokkeland" />
		<tag k="ssr:stedsnr" v="592045" />
	</node>
	<node id="-56794" lat="58.0739777755" lon="7.8748472268">
		<tag k="bridge" v="yes" />
		<tag k="layer" v="1" />
		<tag k="name" v="Langenesrona bru" />
		<tag k="ssr:stedsnr" v="592042" />
	</node>
	<node id="-56793" lat="58.2446916646" lon="7.69428332569">
		<tag k="bridge" v="yes" />
		<tag k="layer" v="1" />
		<tag k="name" v="Stupstad" />
		<tag k="ssr:stedsnr" v="592041" />
	</node>
	<node id="-54231" lat="58.2833138932" lon="7.57921944174">
		<tag k="highway" v="path" />
		<tag k="name" v="Stien" />
		<tag k="ssr:stedsnr" v="99138" />
	</node>
	<node id="-49109" lat="58.3418111141" lon="7.56435277619">
		<tag k="highway" v="path" />
		<tag k="name" v="Stien" />
		<tag k="ssr:stedsnr" v="38158" />
	</node>
	<node id="-54739" lat="58.194250003" lon="7.78532222737">
		<tag k="highway" v="path" />
		<tag k="name" v="Greibesvegen" />
		<tag k="ssr:stedsnr" v="159733" />
	</node>
	<node id="-49106" lat="58.2758805567" lon="8.16886666616">
		<tag k="bridge" v="yes" />
		<tag k="layer" v="1" />
		<tag k="name" v="Raen" />
		<tag k="ssr:stedsnr" v="229140" />
	</node>
	<node id="-49105" lat="58.1504527778" lon="7.97020000456">
		<tag k="bridge" v="yes" />
		<tag k="layer" v="1" />
		<tag k="name" v="Møllene" />
		<tag k="ssr:stedsnr" v="229135" />
	</node>
	<node id="-56783" lat="58.1960416697" lon="8.03644166956">
		<tag k="leisure" v="marina" />
		<tag k="name" v="Gjødselbrygga" />
		<tag k="ssr:stedsnr" v="591695" />
	</node>
	<node id="-49997" lat="58.2610333317" lon="8.01948054985">
		<tag k="bridge" v="yes" />
		<tag k="layer" v="1" />
		<tag k="name" v="Ravnevassbekk" />
		<tag k="ssr:stedsnr" v="288147" />
	</node>
	<node id="-52684" lat="58.1501694478" lon="8.00601943806">
		<tag k="bridge" v="yes" />
		<tag k="layer" v="1" />
		<tag k="name" v="Jegersberg" />
		<tag k="ssr:stedsnr" v="896170" />
	</node>
	<node id="-52683" lat="58.1928888927" lon="8.15955000022">
		<tag k="bridge" v="yes" />
		<tag k="layer" v="1" />
		<tag k="name" v="Krokvatn" />
		<tag k="ssr:stedsnr" v="896122" />
	</node>
	<node id="-52680" lat="58.0957166659" lon="7.7542611081">
		<tag k="bridge" v="yes" />
		<tag k="layer" v="1" />
		<tag k="name" v="Tverråna" />
		<tag k="ssr:stedsnr" v="896041" />
	</node>
	<node id="-53191" lat="58.149766663" lon="8.00533332999">
		<tag k="alt_name" v="Thygesons Minde" />
		<tag k="bridge" v="yes" />
		<tag k="layer" v="1" />
		<tag k="name" v="Lundsbrua" />
		<tag k="ssr:stedsnr" v="945188" />
	</node>
	<node id="-58310" lat="58.1974611101" lon="8.08344166234">
		<tag k="man_made" v="quay" />
		<tag k="name" v="Kjevikbrygga" />
		<tag k="place" v="locality" />
		<tag k="ssr:stedsnr" v="955990" />
	</node>
	<node id="-58309" lat="58.2113361145" lon="8.10203333159">
		<tag k="man_made" v="quay" />
		<tag k="name" v="Bøensbrygge" />
		<tag k="place" v="locality" />
		<tag k="ssr:stedsnr" v="955975" />
	</node>
	<node id="-52676" lat="58.0943944483" lon="7.79404166109">
		<tag k="bridge" v="yes" />
		<tag k="layer" v="1" />
		<tag k="name" v="Grøvan bru" />
		<tag k="ssr:stedsnr" v="896031" />
	</node>
	<node id="-52675" lat="58.1547222231" lon="7.82328888411">
		<tag k="bridge" v="yes" />
		<tag k="layer" v="1" />
		<tag k="name" v="Trobbevassbekk" />
		<tag k="ssr:stedsnr" v="896029" />
	</node>
	<node id="-57282" lat="58.069419448" lon="7.9772611193">
		<tag k="name" v="Kanalen" />
		<tag k="ssr:stedsnr" v="653554" />
		<tag k="waterway" v="canal" />
	</node>
	<node id="-49995" lat="58.1438111085" lon="8.0707027806">
		<tag k="bridge" v="yes" />
		<tag k="layer" v="1" />
		<tag k="name" v="Søylekilen" />
		<tag k="ssr:stedsnr" v="288134" />
	</node>
	<node id="-57278" lat="58.0973027774" lon="7.72343054999">
		<tag k="bridge" v="yes" />
		<tag k="layer" v="1" />
		<tag k="name" v="Dåsåna" />
		<tag k="ssr:stedsnr" v="653044" />
	</node>
	<node id="-57277" lat="58.2863083377" lon="7.60470000739">
		<tag k="bridge" v="yes" />
		<tag k="layer" v="1" />
		<tag k="name" v="Skinsnes" />
		<tag k="ssr:stedsnr" v="653032" />
	</node>
	<node id="-57276" lat="58.3103222204" lon="7.64038055975">
		<tag k="bridge" v="yes" />
		<tag k="layer" v="1" />
		<tag k="name" v="Hønemyr" />
		<tag k="ssr:stedsnr" v="653028" />
	</node>
	<node id="-49083" lat="58.2415055578" lon="7.69829166245">
		<tag k="bridge" v="yes" />
		<tag k="layer" v="1" />
		<tag k="name" v="Stupstad" />
		<tag k="ssr:stedsnr" v="228048" />
	</node>
	<node id="-49082" lat="58.2089916682" lon="7.80048889551">
		<tag k="bridge" v="yes" />
		<tag k="layer" v="1" />
		<tag k="name" v="Nedre Fidje" />
		<tag k="ssr:stedsnr" v="228045" />
	</node>
	<node id="-57273" lat="58.1783499963" lon="8.13489444786">
		<tag k="bridge" v="yes" />
		<tag k="layer" v="1" />
		<tag k="name" v="Barstøl" />
		<tag k="ssr:stedsnr" v="653165" />
	</node>
	<node id="-57272" lat="58.1398499982" lon="7.85152222349">
		<tag k="bridge" v="yes" />
		<tag k="layer" v="1" />
		<tag k="name" v="Brennåsdølan" />
		<tag k="ssr:stedsnr" v="653073" />
	</node>
	<node id="-49079" lat="58.1786777744" lon="7.75262500142">
		<tag k="bridge" v="yes" />
		<tag k="layer" v="1" />
		<tag k="name" v="Birkelandsvassbekk" />
		<tag k="ssr:stedsnr" v="228088" />
	</node>
	<node id="-54197" lat="58.0775111119" lon="7.78731944704">
		<tag k="landuse" v="harbour" />
		<tag k="name" v="Vaglen" />
		<tag k="seamark:type" v="harbour" />
		<tag k="ssr:stedsnr" v="89446" />
	</node>
	<node id="-49075" lat="58.1989805596" lon="8.07045000501">
		<tag k="man_made" v="quay" />
		<tag k="name" v="Sjøflyhavna" />
		<tag k="place" v="locality" />
		<tag k="ssr:stedsnr" v="227981" />
	</node>
	<node id="-58355" lat="58.3457027822" lon="7.60079722878">
		<tag k="bridge" v="yes" />
		<tag k="layer" v="1" />
		<tag k="name" v="Hærås" />
		<tag k="ssr:stedsnr" v="957028" />
	</node>
	<node id="-57776" lat="58.1611361143" lon="8.05609999614">
		<tag k="alt_name" v="Varodden" />
		<tag k="bridge" v="yes" />
		<tag k="layer" v="1" />
		<tag k="name" v="Varoddbrua" />
		<tag k="old_name" v="Vareoddbrua" />
		<tag k="ssr:stedsnr" v="813385" />
	</node>
	<node id="-52677" lat="58.0951388906" lon="7.79855277648">
		<tag k="bridge" v="yes" />
		<tag k="layer" v="1" />
		<tag k="name" v="Føssa bru" />
		<tag k="ssr:stedsnr" v="896032" />
	</node>
	<node id="-58098" lat="58.13708889" lon="7.96178889183">
		<tag k="bridge" v="yes" />
		<tag k="layer" v="1" />
		<tag k="name" v="Hannevikdalen" />
		<tag k="ssr:stedsnr" v="836130" />
	</node>
	<node id="-53162" lat="58.3037138903" lon="7.63119166849">
		<tag k="bridge" v="yes" />
		<tag k="layer" v="1" />
		<tag k="name" v="Djupesland" />
		<tag k="ssr:stedsnr" v="836060" />
	</node>
	<node id="-50089" lat="58.0991111096" lon="7.82444167344">
		<tag k="bridge" v="yes" />
		<tag k="layer" v="1" />
		<tag k="name" v="Tofteland" />
		<tag k="ssr:stedsnr" v="228054" />
	</node>
	<node id="-58277" lat="58.1541305586" lon="7.99550278144">
		<tag k="layer" v="-1" />
		<tag k="name" v="Baneheia 2" />
		<tag k="ssr:stedsnr" v="954078" />
		<tag k="tunnel" v="yes" />
	</node>
	<node id="-53156" lat="58.2468500011" lon="8.17370833251">
		<tag k="highway" v="path" />
		<tag k="name" v="Gamle Høvågvei" />
		<tag k="ssr:stedsnr" v="938360" />
	</node>
	<node id="-52643" lat="58.2178638854" lon="7.7521666728">
		<tag k="bridge" v="yes" />
		<tag k="layer" v="1" />
		<tag k="name" v="Gumpen" />
		<tag k="ssr:stedsnr" v="714038" />
	</node>
	<node id="-52642" lat="58.269919448" lon="7.65931110698">
		<tag k="bridge" v="yes" />
		<tag k="layer" v="1" />
		<tag k="name" v="Kilen" />
		<tag k="ssr:stedsnr" v="714036" />
	</node>
	<node id="-53153" lat="58.2232916684" lon="8.04829165828">
		<tag k="highway" v="path" />
		<tag k="name" v="Kirkeveien" />
		<tag k="ssr:stedsnr" v="938176" />
	</node>
	<node id="-52644" lat="58.150191668" lon="7.83545833827">
		<tag k="bridge" v="yes" />
		<tag k="layer" v="1" />
		<tag k="name" v="Rismyrbekken" />
		<tag k="ssr:stedsnr" v="714041" />
	</node>
	<node id="-52661" lat="58.1375276293" lon="7.99702143083">
		<tag k="alt_name" v="Odderøy kai" />
		<tag k="man_made" v="quay" />
		<tag k="name" v="Silokaia" />
		<tag k="place" v="locality" />
		<tag k="ssr:stedsnr" v="895610" />
	</node>
	<node id="-49053" lat="58.1644583292" lon="8.08493055204">
		<tag k="bridge" v="yes" />
		<tag k="layer" v="1" />
		<tag k="name" v="Strømsheia" />
		<tag k="ssr:stedsnr" v="227144" />
	</node>
	<node id="-49052" lat="58.1947361098" lon="7.93198888936">
		<tag k="bridge" v="yes" />
		<tag k="layer" v="1" />
		<tag k="name" v="Strai øvre" />
		<tag k="ssr:stedsnr" v="227143" />
	</node>
	<node id="-57748" lat="58.073855556" lon="7.87514722795">
		<tag k="name" v="Rona" />
		<tag k="ssr:stedsnr" v="810346" />
		<tag k="waterway" v="canal" />
	</node>
	<node id="-50577" lat="58.0807805569" lon="7.99739444669">
		<tag k="man_made" v="quay" />
		<tag k="name" v="Lindebø brygge" />
		<tag k="place" v="locality" />
		<tag k="ssr:stedsnr" v="471345" />
	</node>
	<node id="-57227" lat="58.2245500005" lon="8.12560832843">
		<tag k="name" v="Flegeplassen" />
		<tag k="place" v="locality" />
		<tag k="ssr:stedsnr" v="652044" />
	</node>
	<node id="-52104" lat="58.0766055577" lon="7.87357221638">
		<tag k="name" v="Indre Rona" />
		<tag k="ssr:stedsnr" v="627375" />
		<tag k="waterway" v="canal" />
	</node>
	<node id="-50563" lat="58.1398833292" lon="7.84735555876">
		<tag k="bridge" v="yes" />
		<tag k="layer" v="1" />
		<tag k="name" v="Birkenes" />
		<tag k="ssr:stedsnr" v="471083" />
	</node>
	<node id="-50562" lat="58.1342777789" lon="7.75363333134">
		<tag k="bridge" v="yes" />
		<tag k="layer" v="1" />
		<tag k="name" v="Trondstadstemmen" />
		<tag k="ssr:stedsnr" v="471046" />
	</node>
	<node id="-53121" lat="58.21150556" lon="8.10540000159">
		<tag k="man_made" v="quay" />
		<tag k="name" v="Ve brygge" />
		<tag k="place" v="locality" />
		<tag k="ssr:stedsnr" v="834965" />
	</node>
	<node id="-57664" lat="58.0960083309" lon="7.7129861175">
		<tag k="bridge" v="yes" />
		<tag k="layer" v="1" />
		<tag k="name" v="Knibe" />
		<tag k="ssr:stedsnr" v="775043" />
	</node>
	<node id="-53114" lat="58.1450111092" lon="8.00580277946">
		<tag k="leisure" v="marina" />
		<tag k="name" v="Christiansholm båthavn" />
		<tag k="ssr:stedsnr" v="834710" />
	</node>
	<node id="-53109" lat="58.129602779" lon="8.14658611007">
		<tag k="bridge" v="yes" />
		<tag k="layer" v="1" />
		<tag k="name" v="Romstøl" />
		<tag k="ssr:stedsnr" v="834160" />
	</node>
	<node id="-49012" lat="58.0714055541" lon="7.69508332653">
		<tag k="alt_name" v="Skarpeid" />
		<tag k="bridge" v="yes" />
		<tag k="layer" v="1" />
		<tag k="name" v="Skarpeid bro" />
		<tag k="ssr:stedsnr" v="21124" />
	</node>
	<node id="-55665" lat="58.1441194448" lon="7.63820555578">
		<tag k="highway" v="path" />
		<tag k="name" v="Eiksåkleivane" />
		<tag k="ssr:stedsnr" v="385035" />
	</node>
	<node id="-54640" lat="58.0842972249" lon="7.67743333069">
		<tag k="highway" v="path" />
		<tag k="name" v="Geidestien" />
		<tag k="ssr:stedsnr" v="142935" />
	</node>
	<node id="-52029" lat="58.0488611126" lon="7.68788611835">
		<tag k="bridge" v="yes" />
		<tag k="layer" v="1" />
		<tag k="name" v="Verven undergang" />
		<tag k="ssr:stedsnr" v="714049" />
	</node>
	<node id="-49515" lat="58.2162805596" lon="8.07220555662">
		<tag k="highway" v="path" />
		<tag k="name" v="Ålefjær kirkevei" />
		<tag k="ssr:stedsnr" v="271482" />
	</node>
	<node id="-50020" lat="58.1390694468" lon="7.96693333619">
		<tag k="bridge" v="yes" />
		<tag k="layer" v="1" />
		<tag k="name" v="Falconbridge" />
		<tag k="ssr:stedsnr" v="289181" />
	</node>
	<node id="-50019" lat="58.1476166637" lon="7.98703888751">
		<tag k="bridge" v="yes" />
		<tag k="layer" v="1" />
		<tag k="name" v="Frobusdalen" />
		<tag k="ssr:stedsnr" v="289178" />
	</node>
	<node id="-50018" lat="58.1817222235" lon="8.14797500217">
		<tag k="bridge" v="yes" />
		<tag k="layer" v="1" />
		<tag k="name" v="Dyreparken" />
		<tag k="ssr:stedsnr" v="289170" />
	</node>
	<node id="-50017" lat="58.1548777776" lon="8.00365834001">
		<tag k="bridge" v="yes" />
		<tag k="layer" v="1" />
		<tag k="name" v="Enkesete" />
		<tag k="ssr:stedsnr" v="289169" />
	</node>
	<node id="-55136" lat="58.2018388925" lon="7.99797776992">
		<tag k="highway" v="path" />
		<tag k="name" v="Den gamle Postveien" />
		<tag k="ssr:stedsnr" v="210393" />
	</node>
	<node id="-51548" lat="58.1825555536" lon="8.0355083358">
		<tag k="bridge" v="yes" />
		<tag k="layer" v="1" />
		<tag k="name" v="Eidet" />
		<tag k="ssr:stedsnr" v="532155" />
	</node>
	<node id="-50522" lat="58.2316027817" lon="8.13142778356">
		<tag k="fixme" v="consider highway=path" />
		<tag k="highway" v="track" />
		<tag k="name" v="Rennekleiv" />
		<tag k="ssr:stedsnr" v="470054" />
	</node>
	<node id="-57171" lat="58.1346805596" lon="8.00576944738">
		<tag k="man_made" v="tower" />
		<tag k="name" v="Odderøya tv-mast" />
		<tag k="ssr:stedsnr" v="647049" />
		<tag k="tower:type" v="communications" />
	</node>
	<node id="-53582" lat="58.1443422739" lon="7.98903937161">
		<tag k="man_made" v="quay" />
		<tag k="name" v="Smiths kai" />
		<tag k="place" v="locality" />
		<tag k="ssr:stedsnr" v="982982" />
	</node>
	<node id="-53581" lat="58.1426723361" lon="7.99139744536">
		<tag k="man_made" v="quay" />
		<tag k="name" v="Moens brygge" />
		<tag k="place" v="locality" />
		<tag k="ssr:stedsnr" v="982979" />
	</node>
	<node id="-53580" lat="58.1420843314" lon="7.99171855263">
		<tag k="man_made" v="quay" />
		<tag k="name" v="Kystterminalen" />
		<tag k="place" v="locality" />
		<tag k="ssr:stedsnr" v="982976" />
	</node>
	<node id="-53579" lat="58.1404000685" lon="7.9916804352">
		<tag k="man_made" v="quay" />
		<tag k="name" v="Lagmannskaia" />
		<tag k="place" v="locality" />
		<tag k="ssr:stedsnr" v="982975" />
	</node>
	<node id="-53578" lat="58.1405902116" lon="7.98910922876">
		<tag k="man_made" v="quay" />
		<tag k="name" v="Agderkaia" />
		<tag k="place" v="locality" />
		<tag k="ssr:stedsnr" v="982974" />
	</node>
	<node id="-53577" lat="58.1398105514" lon="7.99576927782">
		<tag k="man_made" v="quay" />
		<tag k="name" v="Fiskebrygga" />
		<tag k="place" v="locality" />
		<tag k="ssr:stedsnr" v="982972" />
	</node>
	<node id="-53576" lat="58.133839407" lon="7.99874737099">
		<tag k="man_made" v="quay" />
		<tag k="name" v="Oljekaia" />
		<tag k="place" v="locality" />
		<tag k="ssr:stedsnr" v="982837" />
	</node>
	<node id="-57668" lat="58.238694447" lon="8.05492221468">
		<tag k="bridge" v="yes" />
		<tag k="layer" v="1" />
		<tag k="name" v="Kleppe" />
		<tag k="ssr:stedsnr" v="775161" />
	</node>
	<node id="-49987" lat="58.222749996" lon="8.1117750077">
		<tag k="fixme" v="consider highway=path" />
		<tag k="highway" v="track" />
		<tag k="name" v="Steivorskleiv" />
		<tag k="ssr:stedsnr" v="288074" />
	</node>
	<node id="-57665" lat="58.0980111113" lon="7.67419999191">
		<tag k="bridge" v="yes" />
		<tag k="layer" v="1" />
		<tag k="name" v="Holmenfoss viadukt" />
		<tag k="ssr:stedsnr" v="775045" />
	</node>
	<node id="-56128" lat="58.0977194442" lon="7.97794166704">
		<tag k="landuse" v="harbour" />
		<tag k="name" v="Indre Flekkerøyhavn" />
		<tag k="seamark:type" v="harbour" />
		<tag k="ssr:stedsnr" v="522248" />
	</node>
	<node id="-57663" lat="58.2178027785" lon="7.7596611089">
		<tag k="bridge" v="yes" />
		<tag k="layer" v="1" />
		<tag k="name" v="Underåsen" />
		<tag k="ssr:stedsnr" v="775040" />
	</node>
	<node id="-57662" lat="58.2332055543" lon="7.81379166242">
		<tag k="bridge" v="yes" />
		<tag k="layer" v="1" />
		<tag k="name" v="Utsogn bru" />
		<tag k="ssr:stedsnr" v="775039" />
	</node>
	<node id="-57661" lat="58.2048861106" lon="7.79737778441">
		<tag k="bridge" v="yes" />
		<tag k="layer" v="1" />
		<tag k="name" v="Røysvatn" />
		<tag k="ssr:stedsnr" v="775035" />
	</node>
	<node id="-57660" lat="58.1466083312" lon="8.01369999441">
		<tag k="leisure" v="marina" />
		<tag k="name" v="Prestvika småbåthavn" />
		<tag k="ssr:stedsnr" v="774997" />
	</node>
	<node id="-51511" lat="58.1713527811" lon="8.10652499867">
		<tag k="bridge" v="yes" />
		<tag k="layer" v="1" />
		<tag k="name" v="Timenesbakken" />
		<tag k="ssr:stedsnr" v="530164" />
	</node>
	<node id="-53556" lat="58.196894443" lon="8.00908055133">
		<tag k="fixme" v="verify maritime location" />
		<tag k="mooring" v="yes" />
		<tag k="name" v="Støa" />
		<tag k="place" v="locality" />
		<tag k="ssr:stedsnr" v="955516" />
	</node>
	<node id="-55089" lat="58.0986388901" lon="7.97477777832">
		<tag k="name" v="Flekkerøyhavn" />
		<tag k="place" v="locality" />
		<tag k="ssr:stedsnr" v="205510" />
	</node>
	<node id="-56050" lat="58.1807111113" lon="8.13906111911">
		<tag k="bridge" v="yes" />
		<tag k="layer" v="1" />
		<tag k="name" v="Barstølveien bru" />
		<tag k="ssr:stedsnr" v="411182" />
	</node>
	<node id="-57645" lat="58.0767055565" lon="7.99117499768">
		<tag k="alt_name" v="Alsvik brygge" />
		<tag k="man_made" v="quay" />
		<tag k="name" v="Alsvig brygge" />
		<tag k="place" v="locality" />
		<tag k="ssr:stedsnr" v="774386" />
	</node>
	<node id="-57638" lat="58.0785777773" lon="8.01583888252">
		<tag k="man_made" v="quay" />
		<tag k="name" v="Skålevik brygge" />
		<tag k="place" v="locality" />
		<tag k="ssr:stedsnr" v="774362" />
	</node>
	<node id="-55588" lat="58.2490777739" lon="8.1568694425">
		<tag k="bridge" v="yes" />
		<tag k="layer" v="1" />
		<tag k="name" v="Kiland" />
		<tag k="ssr:stedsnr" v="350161" />
	</node>
	<node id="-55587" lat="58.1393638903" lon="7.96605833131">
		<tag k="bridge" v="yes" />
		<tag k="layer" v="1" />
		<tag k="name" v="Kolsdalen" />
		<tag k="ssr:stedsnr" v="350160" />
	</node>
	<node id="-55585" lat="58.1554222259" lon="8.00113055448">
		<tag k="bridge" v="yes" />
		<tag k="layer" v="1" />
		<tag k="name" v="Oddernesbrua nordre" />
		<tag k="ssr:stedsnr" v="350121" />
	</node>
	<node id="-55584" lat="58.1044972211" lon="7.66133334148">
		<tag k="bridge" v="yes" />
		<tag k="layer" v="1" />
		<tag k="name" v="Trybekken" />
		<tag k="ssr:stedsnr" v="350048" />
	</node>
	<node id="-50965" lat="58.1111861106" lon="7.98573610758">
		<tag k="landuse" v="harbour" />
		<tag k="name" v="Indre Kongshavn" />
		<tag k="seamark:type" v="harbour" />
		<tag k="ssr:stedsnr" v="509383" />
	</node>
	<node id="-55572" lat="58.0729527749" lon="7.98663610794">
		<tag k="man_made" v="quay" />
		<tag k="name" v="Kjære brygge" />
		<tag k="place" v="locality" />
		<tag k="ssr:stedsnr" v="349387" />
	</node>
	<node id="-51987" lat="58.1523416663" lon="8.08320000587">
		<tag k="bridge" v="yes" />
		<tag k="layer" v="1" />
		<tag k="name" v="Strømme undergang" />
		<tag k="ssr:stedsnr" v="713126" />
	</node>
	<node id="-51985" lat="58.1380277757" lon="7.99388888172">
		<tag k="landuse" v="harbour" />
		<tag k="name" v="Vestre havn" />
		<tag k="seamark:type" v="harbour" />
		<tag k="ssr:stedsnr" v="713631" />
	</node>
	<node id="-56049" lat="58.2273527753" lon="8.02667500069">
		<tag k="bridge" v="yes" />
		<tag k="layer" v="1" />
		<tag k="name" v="Kostøl" />
		<tag k="ssr:stedsnr" v="411170" />
	</node>
	<node id="-57613" lat="58.2373750013" lon="8.03556666809">
		<tag k="bridge" v="yes" />
		<tag k="layer" v="1" />
		<tag k="name" v="Ålefjær" />
		<tag k="ssr:stedsnr" v="773156" />
	</node>
	<node id="-56582" lat="58.2959416646" lon="7.58614443637">
		<tag k="junction" v="yes" />
		<tag k="name" v="Breivoll" />
		<tag k="place" v="locality" />
		<tag k="ssr:stedsnr" v="584248" />
	</node>
	<node id="-50561" lat="58.0790611089" lon="7.81749722087">
		<tag k="bridge" v="yes" />
		<tag k="layer" v="1" />
		<tag k="name" v="Åros bru" />
		<tag k="ssr:stedsnr" v="471045" />
	</node>
	<node id="-54020" lat="58.1615249955" lon="8.08167221671">
		<tag k="name" v="Rona" />
		<tag k="ssr:stedsnr" v="46686" />
		<tag k="waterway" v="canal" />
	</node>
	<node id="-51254" lat="58.1624833316" lon="8.02498333835">
		<tag k="barrier" v="toll_booth" />
		<tag k="name" v="Bjørndalssletta" />
		<tag k="ssr:stedsnr" v="465910" />
	</node>
	<node id="-50731" lat="58.2260277754" lon="7.90645000302">
		<tag k="bridge" v="yes" />
		<tag k="layer" v="1" />
		<tag k="name" v="Sagtjønn" />
		<tag k="ssr:stedsnr" v="348157" />
	</node>
	<node id="-49996" lat="58.1445333342" lon="7.89337776926">
		<tag k="bridge" v="yes" />
		<tag k="layer" v="1" />
		<tag k="name" v="Vestre Fidjane" />
		<tag k="ssr:stedsnr" v="288136" />
	</node>
	<node id="-51963" lat="58.1989444417" lon="8.00536388465">
		<tag k="fixme" v="verify maritime location" />
		<tag k="mooring" v="yes" />
		<tag k="name" v="Nyestø" />
		<tag k="place" v="locality" />
		<tag k="ssr:stedsnr" v="712493" />
	</node>
	<node id="-51962" lat="58.2968166681" lon="7.58508055597">
		<tag k="bridge" v="yes" />
		<tag k="layer" v="1" />
		<tag k="name" v="Frikstad" />
		<tag k="ssr:stedsnr" v="592034" />
	</node>
	<node id="-58615" lat="58.1257015885" lon="7.8662792634">
		<tag k="bridge" v="yes" />
		<tag k="layer" v="1" />
		<tag k="name" v="Rossevannsbrua" />
		<tag k="ssr:stedsnr" v="1072434" />
	</node>
	<node id="-58614" lat="58.1394119001" lon="7.90037061844">
		<tag k="bridge" v="yes" />
		<tag k="layer" v="1" />
		<tag k="name" v="Bukkesteinsbrua" />
		<tag k="ssr:stedsnr" v="1072433" />
	</node>
	<node id="-51957" lat="58.1551222258" lon="7.99254722906">
		<tag k="layer" v="-1" />
		<tag k="name" v="Baneheia 9" />
		<tag k="ssr:stedsnr" v="590092" />
		<tag k="tunnel" v="yes" />
	</node>
	<node id="-56052" lat="58.1407694422" lon="7.96804445016">
		<tag k="bridge" v="yes" />
		<tag k="layer" v="1" />
		<tag k="name" v="Falconbridge Armco." />
		<tag k="ssr:stedsnr" v="411189" />
	</node>
	<node id="-58099" lat="58.1362972209" lon="8.16111945245">
		<tag k="bridge" v="yes" />
		<tag k="layer" v="1" />
		<tag k="name" v="Eftevåg" />
		<tag k="ssr:stedsnr" v="836134" />
	</node>
	<node id="-51954" lat="58.1498861151" lon="7.98882499158">
		<tag k="layer" v="-1" />
		<tag k="name" v="Baneheia 1" />
		<tag k="ssr:stedsnr" v="590086" />
		<tag k="tunnel" v="yes" />
	</node>
	<node id="-58097" lat="58.165808335" lon="8.08990278557">
		<tag k="bridge" v="yes" />
		<tag k="layer" v="1" />
		<tag k="name" v="Hånesveien" />
		<tag k="ssr:stedsnr" v="836129" />
	</node>
	<node id="-56048" lat="58.3178861152" lon="7.59281389362">
		<tag k="bridge" v="yes" />
		<tag k="layer" v="1" />
		<tag k="name" v="Finsåna" />
		<tag k="ssr:stedsnr" v="411096" />
	</node>
	<node id="-56047" lat="58.2974777774" lon="7.67182778204">
		<tag k="bridge" v="yes" />
		<tag k="layer" v="1" />
		<tag k="name" v="Sogna" />
		<tag k="ssr:stedsnr" v="411035" />
	</node>
	<node id="-56046" lat="58.2110222235" lon="7.77228888988">
		<tag k="bridge" v="yes" />
		<tag k="layer" v="1" />
		<tag k="name" v="Jostadvassbekk" />
		<tag k="ssr:stedsnr" v="411029" />
	</node>
	<node id="-51946" lat="58.1400555544" lon="7.96689445052">
		<tag k="barrier" v="toll_booth" />
		<tag k="name" v="Vesterveien" />
		<tag k="ssr:stedsnr" v="586901" />
	</node>
	<node id="-56040" lat="58.1971694426" lon="7.96043889638">
		<tag k="man_made" v="cairn" />
		<tag k="name" v="Skråstadvarden" />
		<tag k="place" v="locality" />
		<tag k="ssr:stedsnr" v="410822" />
	</node>
	<node id="-54500" lat="58.1623166646" lon="8.05032777463">
		<tag k="bridge" v="yes" />
		<tag k="layer" v="1" />
		<tag k="name" v="Varoddbrua" />
		<tag k="ssr:stedsnr" v="107982" />
	</node>
	<node id="-53986" lat="58.0634972216" lon="7.99400555639">
		<tag k="man_made" v="quay" />
		<tag k="name" v="Okslehavn" />
		<tag k="place" v="locality" />
		<tag k="ssr:stedsnr" v="46256" />
	</node>
	<node id="-53983" lat="58.1166083367" lon="8.11393055022">
		<tag k="bridge" v="yes" />
		<tag k="layer" v="1" />
		<tag k="name" v="Kongshavn" />
		<tag k="ssr:stedsnr" v="46175" />
	</node>
	<node id="-53982" lat="58.2286416659" lon="8.11642777817">
		<tag k="bridge" v="yes" />
		<tag k="layer" v="1" />
		<tag k="name" v="Prestegårdsbrua" />
		<tag k="ssr:stedsnr" v="46131" />
	</node>
	<node id="-53981" lat="58.2628277752" lon="8.07225278062">
		<tag k="bridge" v="yes" />
		<tag k="layer" v="1" />
		<tag k="name" v="Petersborg" />
		<tag k="ssr:stedsnr" v="46130" />
	</node>
	<node id="-53980" lat="58.1492972224" lon="8.07757499974">
		<tag k="bridge" v="yes" />
		<tag k="layer" v="1" />
		<tag k="name" v="Liatjønn" />
		<tag k="ssr:stedsnr" v="46125" />
	</node>
	<node id="-53978" lat="58.2546111078" lon="7.70627221549">
		<tag k="bridge" v="yes" />
		<tag k="layer" v="1" />
		<tag k="name" v="Vestre Dalane" />
		<tag k="ssr:stedsnr" v="46036" />
	</node>
	<node id="-53977" lat="58.2128583332" lon="8.08672499518">
		<tag k="highway" v="path" />
		<tag k="name" v="Urstien" />
		<tag k="ssr:stedsnr" v="45977" />
	</node>
	<node id="-49398" lat="58.1308472242" lon="8.08580278159">
		<tag k="bridge" v="yes" />
		<tag k="layer" v="1" />
		<tag k="name" v="Fidjekilen" />
		<tag k="ssr:stedsnr" v="107152" />
	</node>
	<node id="-54481" lat="58.1060055552" lon="7.97708333393">
		<tag k="leisure" v="marina" />
		<tag k="name" v="Ternevig båthavn" />
		<tag k="ssr:stedsnr" v="107416" />
	</node>
	<node id="-49101" lat="58.2361833326" lon="8.06136943978">
		<tag k="bridge" v="yes" />
		<tag k="layer" v="1" />
		<tag k="name" v="Sunde bru" />
		<tag k="ssr:stedsnr" v="228709" />
	</node>
	<node id="-58060" lat="58.1163194435" lon="8.12988889228">
		<tag k="bridge" v="yes" />
		<tag k="layer" v="1" />
		<tag k="name" v="Stølerona" />
		<tag k="ssr:stedsnr" v="834144" />
	</node>
	<node id="-53959" lat="58.1616999969" lon="8.08163332583">
		<tag k="bridge" v="yes" />
		<tag k="layer" v="1" />
		<tag k="name" v="Rona" />
		<tag k="ssr:stedsnr" v="45146" />
	</node>
	<node id="-58053" lat="58.1904333345" lon="8.10729444676">
		<tag k="bridge" v="yes" />
		<tag k="layer" v="1" />
		<tag k="name" v="Ravnåsbrua" />
		<tag k="ssr:stedsnr" v="834039" />
	</node>
	<node id="-51956" lat="58.1541722215" lon="7.99542777697">
		<tag k="layer" v="-1" />
		<tag k="name" v="Baneheia 8" />
		<tag k="ssr:stedsnr" v="590091" />
		<tag k="tunnel" v="yes" />
	</node>
	<node id="-58051" lat="58.1501972238" lon="7.99103055312">
		<tag k="layer" v="-1" />
		<tag k="name" v="Baneheia 3" />
		<tag k="ssr:stedsnr" v="833073" />
		<tag k="tunnel" v="yes" />
	</node>
	<node id="-53441" lat="58.1202337913" lon="8.09206403039">
		<tag k="man_made" v="quay" />
		<tag k="name" v="Tømmerstø" />
		<tag k="place" v="locality" />
		<tag k="ssr:stedsnr" v="938344" />
	</node>
	<node id="-54462" lat="58.1280361092" lon="7.61073055377">
		<tag k="bridge" v="yes" />
		<tag k="layer" v="1" />
		<tag k="name" v="Brunvatn" />
		<tag k="ssr:stedsnr" v="107039" />
	</node>
	<node id="-54461" lat="58.2015999957" lon="7.78891110587">
		<tag k="bridge" v="yes" />
		<tag k="layer" v="1" />
		<tag k="name" v="Stokkeland" />
		<tag k="ssr:stedsnr" v="107036" />
	</node>
	<node id="-53435" lat="58.1160888893" lon="8.11352777202">
		<tag k="landuse" v="harbour" />
		<tag k="name" v="Kongshavn" />
		<tag k="seamark:type" v="harbour" />
		<tag k="ssr:stedsnr" v="935428" />
	</node>
	<node id="-56012" lat="58.1040027822" lon="7.66153888872">
		<tag k="bridge" v="yes" />
		<tag k="layer" v="1" />
		<tag k="name" v="Trybekk" />
		<tag k="ssr:stedsnr" v="410043" />
	</node>
	<node id="-49397" lat="58.1307972236" lon="8.08584722762">
		<tag k="bridge" v="yes" />
		<tag k="layer" v="1" />
		<tag k="name" v="Fidje" />
		<tag k="ssr:stedsnr" v="107149" />
	</node>
	<node id="-57527" lat="58.1753472213" lon="7.80156666245">
		<tag k="fixme" v="consider highway=path" />
		<tag k="highway" v="track" />
		<tag k="name" v="Orremyrvegen" />
		<tag k="ssr:stedsnr" v="767847" />
	</node>
	<node id="-53942" lat="58.1559694416" lon="7.99273610621">
		<tag k="layer" v="-1" />
		<tag k="name" v="Baneheia 10" />
		<tag k="ssr:stedsnr" v="44084" />
		<tag k="tunnel" v="yes" />
	</node>
	<node id="-53941" lat="58.150413886" lon="7.99153333282">
		<tag k="layer" v="-1" />
		<tag k="name" v="Baneheia 6" />
		<tag k="ssr:stedsnr" v="44081" />
		<tag k="tunnel" v="yes" />
	</node>
	<node id="-50355" lat="58.1543944474" lon="7.99738611793">
		<tag k="bridge" v="yes" />
		<tag k="layer" v="1" />
		<tag k="name" v="Oddernesbrua" />
		<tag k="ssr:stedsnr" v="289960" />
	</node>
	<node id="-56051" lat="58.1474166642" lon="7.98735278093">
		<tag k="bridge" v="yes" />
		<tag k="layer" v="1" />
		<tag k="name" v="Gartnerløkka" />
		<tag k="ssr:stedsnr" v="411185" />
	</node>
	<node id="-55982" lat="58.1936972187" lon="7.93149445109">
		<tag k="bridge" v="yes" />
		<tag k="layer" v="1" />
		<tag k="name" v="Strai nedre" />
		<tag k="ssr:stedsnr" v="409179" />
	</node>
	<node id="-53933" lat="58.1747944449" lon="7.97272221683">
		<tag k="barrier" v="toll_booth" />
		<tag k="name" v="Sødal" />
		<tag k="ssr:stedsnr" v="41898" />
	</node>
	<node id="-52679" lat="58.0938499966" lon="7.77193610516">
		<tag k="bridge" v="yes" />
		<tag k="layer" v="1" />
		<tag k="name" v="Mjåland bru" />
		<tag k="ssr:stedsnr" v="896038" />
	</node>
	<node id="-50999" lat="58.2329472232" lon="8.08066944404">
		<tag k="highway" v="path" />
		<tag k="name" v="Lømsland kirkevei" />
		<tag k="ssr:stedsnr" v="513471" />
	</node>
	<node id="-51363" lat="58.2671305519" lon="7.59465833899">
		<tag k="bridge" v="yes" />
		<tag k="layer" v="1" />
		<tag k="name" v="Teinelagsbrua" />
		<tag k="ssr:stedsnr" v="523153" />
	</node>
	<node id="-50338" lat="58.2380888878" lon="8.17334721484">
		<tag k="fixme" v="consider highway=path" />
		<tag k="highway" v="track" />
		<tag k="name" v="Steinkleiva" />
		<tag k="ssr:stedsnr" v="289366" />
	</node>
	<node id="-50743" lat="58.0994083376" lon="7.97676667057">
		<tag k="man_made" v="quay" />
		<tag k="name" v="Møvik brygge" />
		<tag k="place" v="locality" />
		<tag k="ssr:stedsnr" v="349067" />
	</node>
	<node id="-54429" lat="58.1651555579" lon="8.03374167234">
		<tag k="bridge" v="yes" />
		<tag k="layer" v="1" />
		<tag k="name" v="Ålefjærvegen" />
		<tag k="ssr:stedsnr" v="106138" />
	</node>
	<node id="-54428" lat="58.1630305594" lon="8.08319721889">
		<tag k="bridge" v="yes" />
		<tag k="layer" v="1" />
		<tag k="name" v="Strømsdalen G/S Und." />
		<tag k="ssr:stedsnr" v="106132" />
	</node>
	<node id="-55962" lat="58.1551222258" lon="7.99254722906">
		<tag k="layer" v="-1" />
		<tag k="name" v="Baneheia 5" />
		<tag k="ssr:stedsnr" v="408092" />
		<tag k="tunnel" v="yes" />
	</node>
	<node id="-54935" lat="58.1648888895" lon="8.04168889357">
		<tag k="bridge" v="yes" />
		<tag k="layer" v="1" />
		<tag k="name" v="Narvika" />
		<tag k="ssr:stedsnr" v="168137" />
	</node>
	<node id="-54932" lat="58.0786416626" lon="8.0157972264">
		<tag k="bridge" v="yes" />
		<tag k="layer" v="1" />
		<tag k="name" v="Geiderøy bru" />
		<tag k="ssr:stedsnr" v="168174" />
	</node>
	<node id="-57667" lat="58.2310666672" lon="8.02273056001">
		<tag k="bridge" v="yes" />
		<tag k="layer" v="1" />
		<tag k="name" v="Jentebekk" />
		<tag k="ssr:stedsnr" v="775152" />
	</node>
	<node id="-51858" lat="58.1671944443" lon="8.01258054885">
		<tag k="barrier" v="toll_booth" />
		<tag k="name" v="Gimlekollen" />
		<tag k="ssr:stedsnr" v="708899" />
	</node>
	<node id="-54416" lat="58.193802778" lon="8.11228333748">
		<tag k="fixme" v="verify maritime location" />
		<tag k="mooring" v="yes" />
		<tag k="name" v="Nordåsstøa" />
		<tag k="place" v="locality" />
		<tag k="ssr:stedsnr" v="106028" />
	</node>
	<node id="-58100" lat="58.2475638872" lon="7.99843333582">
		<tag k="bridge" v="yes" />
		<tag k="layer" v="1" />
		<tag k="name" v="Daland" />
		<tag k="ssr:stedsnr" v="836135" />
	</node>
	<node id="-53381" lat="58.2211222246" lon="8.09758611364">
		<tag k="bridge" v="yes" />
		<tag k="layer" v="1" />
		<tag k="name" v="Dalebru" />
		<tag k="ssr:stedsnr" v="895054" />
	</node>
	<node id="-54400" lat="58.1473444407" lon="7.98287222063">
		<tag k="barrier" v="toll_booth" />
		<tag k="name" v="Setesdalsveien" />
		<tag k="ssr:stedsnr" v="101922" />
	</node>
	<node id="-49719" lat="58.3155416672" lon="7.55582221574">
		<tag k="highway" v="path" />
		<tag k="name" v="Prestvegen" />
		<tag k="ssr:stedsnr" v="281350" />
	</node>
	<node id="-49395" lat="58.1409166659" lon="8.07791388789">
		<tag k="bridge" v="yes" />
		<tag k="layer" v="1" />
		<tag k="name" v="Korsvik bru" />
		<tag k="ssr:stedsnr" v="107136" />
	</node>
	<node id="-48761" lat="58.3358999959" lon="7.60788055482">
		<tag k="ford" v="yes" />
		<tag k="name" v="Strengebekkvaet" />
		<tag k="place" v="locality" />
		<tag k="ssr:stedsnr" v="220213" />
	</node>
	<node id="-54904" lat="58.0643027773" lon="7.96679165928">
		<tag k="man_made" v="quay" />
		<tag k="name" v="Biskopshavn" />
		<tag k="place" v="locality" />
		<tag k="ssr:stedsnr" v="167276" />
	</node>
	<node id="-51988" lat="58.1605999984" lon="8.06082500596">
		<tag k="bridge" v="yes" />
		<tag k="layer" v="1" />
		<tag k="name" v="Torsvik" />
		<tag k="ssr:stedsnr" v="713130" />
	</node>
	<node id="-52663" lat="58.2102861151" lon="8.09981944981">
		<tag k="alt_name" v="Kjevik" />
		<tag k="bridge" v="yes" />
		<tag k="layer" v="1" />
		<tag k="name" v="Bøen bru" />
		<tag k="ssr:stedsnr" v="895678" />
	</node>
	<node id="-58481" lat="58.0531242802" lon="7.84049688126">
		<tag k="man_made" v="quay" />
		<tag k="name" v="Wilhelm Krags brygge" />
		<tag k="place" v="locality" />
		<tag k="ssr:stedsnr" v="984144" />
	</node>
	<node id="-57454" lat="58.1650694483" lon="7.87939166972">
		<tag k="highway" v="path" />
		<tag k="name" v="Elgestien" />
		<tag k="ssr:stedsnr" v="766818" />
	</node>
	<node id="-54893" lat="58.1595361109" lon="8.05776110969">
		<tag k="man_made" v="quay" />
		<tag k="name" v="Fjelly brygge" />
		<tag k="place" v="locality" />
		<tag k="ssr:stedsnr" v="166629" />
	</node>
	<node id="-58476" lat="58.0776940247" lon="8.02149782997">
		<tag k="landuse" v="harbour" />
		<tag k="name" v="Stegehavn" />
		<tag k="seamark:type" v="harbour" />
		<tag k="ssr:stedsnr" v="983654" />
	</node>
	<node id="-49771" lat="58.1700499979" lon="7.83386389501">
		<tag k="alt_name" v="Nygård" />
		<tag k="bridge" v="yes" />
		<tag k="layer" v="1" />
		<tag k="name" v="Nygårdsbrua" />
		<tag k="ssr:stedsnr" v="281782" />
	</node>
	<node id="-52330" lat="58.1400472181" lon="7.99174167111">
		<tag k="man_made" v="quay" />
		<tag k="name" v="Lagmannsholmen" />
		<tag k="place" v="locality" />
		<tag k="ssr:stedsnr" v="667225" />
	</node>
	<node id="-53349" lat="58.3167777777" lon="7.58327499322">
		<tag k="fixme" v="consider highway=path" />
		<tag k="highway" v="track" />
		<tag k="name" v="Langebakken" />
		<tag k="ssr:stedsnr" v="888326" />
	</node>
	<node id="-58467" lat="58.1082843329" lon="7.99242454533">
		<tag k="landuse" v="harbour" />
		<tag k="name" v="Ytre Kongshavn" />
		<tag k="seamark:type" v="harbour" />
		<tag k="ssr:stedsnr" v="983043" />
	</node>
	<node id="-58465" lat="58.1397840071" lon="7.9965109717">
		<tag k="man_made" v="quay" />
		<tag k="name" v="Ballastbrygga" />
		<tag k="place" v="locality" />
		<tag k="ssr:stedsnr" v="982970" />
	</node>
	<node id="-56416" lat="58.1571444427" lon="7.83476667463">
		<tag k="name" v="Nodeland" />
		<tag k="railway" v="station" />
		<tag k="ssr:stedsnr" v="546189" />
		<tag k="train" v="yes" />
	</node>
	<node id="-49394" lat="58.2023361151" lon="8.0981055612">
		<tag k="bridge" v="yes" />
		<tag k="layer" v="1" />
		<tag k="name" v="Hamresvassbekk" />
		<tag k="ssr:stedsnr" v="107134" />
	</node>
	<node id="-56759" lat="58.2294333308" lon="8.02661389515">
		<tag k="leisure" v="marina" />
		<tag k="name" v="Verven" />
		<tag k="ssr:stedsnr" v="591097" />
	</node>
	<node id="-53433" lat="58.2024111132" lon="8.07450833055">
		<tag k="aeroway" v="aerodrome" />
		<tag k="alt_name" v="Kjevik" />
		<tag k="name" v="Kristiansand lufthavn, Kjevik" />
		<tag k="ssr:stedsnr" v="935020" />
	</node>
	<node id="-55380" lat="58.2106472222" lon="7.77251110615">
		<tag k="bridge" v="yes" />
		<tag k="layer" v="1" />
		<tag k="name" v="Bubrua" />
		<tag k="ssr:stedsnr" v="341754" />
	</node>
	<node id="-51283" lat="58.2904083333" lon="7.67771389007">
		<tag k="bridge" v="yes" />
		<tag k="layer" v="1" />
		<tag k="name" v="Leipsland" />
		<tag k="ssr:stedsnr" v="471032" />
	</node>
	<node id="-51282" lat="58.272938885" lon="7.58193611197">
		<tag k="bridge" v="yes" />
		<tag k="layer" v="1" />
		<tag k="name" v="Geirhøl" />
		<tag k="ssr:stedsnr" v="471028" />
	</node>
	<node id="-56760" lat="58.1643249959" lon="8.04389722444">
		<tag k="bridge" v="yes" />
		<tag k="layer" v="1" />
		<tag k="name" v="Varen" />
		<tag k="ssr:stedsnr" v="591116" />
	</node>
	<node id="-52809" lat="58.0791791867" lon="7.97773850228">
		<tag k="alt_name" v="Åshamn;Åshamna;Åshavn brygge" />
		<tag k="landuse" v="harbour" />
		<tag k="name" v="Åshavn" />
		<tag k="seamark:type" v="harbour" />
		<tag k="ssr:stedsnr" v="910177" />
	</node>
	<node id="-52678" lat="58.0951083359" lon="7.79740278058">
		<tag k="bridge" v="yes" />
		<tag k="layer" v="1" />
		<tag k="name" v="Føssa" />
		<tag k="ssr:stedsnr" v="896033" />
	</node>
	<node id="-50754" lat="58.0979361135" lon="7.67806388677">
		<tag k="bridge" v="yes" />
		<tag k="layer" v="1" />
		<tag k="name" v="Holmenfoss" />
		<tag k="ssr:stedsnr" v="350037" />
	</node>
	<node id="-50753" lat="58.1540888896" lon="7.82820832649">
		<tag k="bridge" v="yes" />
		<tag k="layer" v="1" />
		<tag k="name" v="Nodeland" />
		<tag k="ssr:stedsnr" v="350029" />
	</node>
	<node id="-50752" lat="58.2477555552" lon="7.69989167498">
		<tag k="bridge" v="yes" />
		<tag k="layer" v="1" />
		<tag k="name" v="Fossan" />
		<tag k="ssr:stedsnr" v="350025" />
	</node>
	<node id="-50016" lat="58.2499805562" lon="8.15806110382">
		<tag k="bridge" v="yes" />
		<tag k="layer" v="1" />
		<tag k="name" v="Kilebo" />
		<tag k="ssr:stedsnr" v="289165" />
	</node>
	<node id="-50750" lat="58.11840556" lon="7.96572777323">
		<tag k="man_made" v="quay" />
		<tag k="name" v="Benjaminsens brygge" />
		<tag k="place" v="locality" />
		<tag k="ssr:stedsnr" v="349635" />
	</node>
	<node id="-54453" lat="58.1430658231" lon="7.99175206103">
		<tag k="loc_name" v="Gamle Honnørbrygga" />
		<tag k="man_made" v="quay" />
		<tag k="name" v="Honnørbrygga" />
		<tag k="place" v="locality" />
		<tag k="ssr:stedsnr" v="106699" />
	</node>
	<node id="-56375" lat="58.1218472263" lon="8.0993749959">
		<tag k="bridge" v="yes" />
		<tag k="layer" v="1" />
		<tag k="name" v="Hoksvassbekk" />
		<tag k="ssr:stedsnr" v="532148" />
	</node>
	<node id="-56374" lat="58.2079277794" lon="7.92387222851">
		<tag k="bridge" v="yes" />
		<tag k="layer" v="1" />
		<tag k="name" v="Auglandsdalen bru" />
		<tag k="ssr:stedsnr" v="532135" />
	</node>
	<node id="-56373" lat="58.1621722199" lon="8.0808416668">
		<tag k="bridge" v="yes" />
		<tag k="layer" v="1" />
		<tag k="name" v="Nottangen bru" />
		<tag k="ssr:stedsnr" v="532113" />
	</node>
	<node id="-56372" lat="58.2262888859" lon="7.9355916666">
		<tag k="bridge" v="yes" />
		<tag k="layer" v="1" />
		<tag k="name" v="Kvarstein" />
		<tag k="ssr:stedsnr" v="532107" />
	</node>
	<node id="-53299" lat="58.0767111111" lon="7.78625833903">
		<tag k="man_made" v="quay" />
		<tag k="name" v="Vaglebrygga" />
		<tag k="place" v="locality" />
		<tag k="ssr:stedsnr" v="871178" />
	</node>
	<node id="-57904" lat="58.3017611142" lon="7.60921388552">
		<tag k="bridge" v="yes" />
		<tag k="layer" v="1" />
		<tag k="name" v="Normannsbrua" />
		<tag k="ssr:stedsnr" v="828250" />
	</node>
	<node id="-51955" lat="58.14875833" lon="7.98877499774">
		<tag k="layer" v="-1" />
		<tag k="name" v="Baneheia 7" />
		<tag k="ssr:stedsnr" v="590089" />
		<tag k="tunnel" v="yes" />
	</node>
	<node id="-54450" lat="58.1575527817" lon="8.05494167366">
		<tag k="man_made" v="quay" />
		<tag k="name" v="Torsvik fergested" />
		<tag k="place" v="locality" />
		<tag k="ssr:stedsnr" v="106642" />
	</node>
	<node id="-50217" lat="58.2618083375" lon="8.07496667063">
		<tag k="fixme" v="consider highway=path" />
		<tag k="highway" v="track" />
		<tag k="name" v="Samsonvei" />
		<tag k="ssr:stedsnr" v="453295" />
	</node>
	<node id="-58101" lat="58.133380553" lon="8.07602500733">
		<tag k="bridge" v="yes" />
		<tag k="layer" v="1" />
		<tag k="name" v="Dvergsnes" />
		<tag k="ssr:stedsnr" v="836136" />
	</node>
	<node id="-55558" lat="58.1963722254" lon="8.08358332554">
		<tag k="man_made" v="quay" />
		<tag k="name" v="Hamrebrygga" />
		<tag k="place" v="locality" />
		<tag k="ssr:stedsnr" v="348990" />
	</node>
	<node id="-52258" lat="58.2208833325" lon="8.07794722911">
		<tag k="fixme" v="consider highway=path" />
		<tag k="highway" v="track" />
		<tag k="name" v="Mollkleiv" />
		<tag k="ssr:stedsnr" v="652282" />
	</node>
	<node id="-52255" lat="58.2325222179" lon="8.11199165976">
		<tag k="bridge" v="yes" />
		<tag k="layer" v="1" />
		<tag k="name" v="Fleskebru" />
		<tag k="ssr:stedsnr" v="652057" />
	</node>
	<node id="-52251" lat="58.1479972208" lon="7.98788611493">
		<tag k="bridge" v="yes" />
		<tag k="layer" v="1" />
		<tag k="name" v="Vesterbrua" />
		<tag k="ssr:stedsnr" v="652110" />
	</node>
	<node id="-57369" lat="58.1356305513" lon="8.13338333939">
		<tag k="man_made" v="tower" />
		<tag k="name" v="Dolsveten" />
		<tag k="ssr:stedsnr" v="756343" />
		<tag k="tower:type" v="communications" />
	</node>
	<node id="-55832" lat="58.2144999977" lon="7.80065832776">
		<tag k="fixme" v="consider highway=path" />
		<tag k="highway" v="track" />
		<tag k="name" v="Hjulvegen" />
		<tag k="ssr:stedsnr" v="402680" />
	</node>
	<node id="-51284" lat="58.093572222" lon="7.77638611795">
		<tag k="bridge" v="yes" />
		<tag k="layer" v="1" />
		<tag k="name" v="Leire bru" />
		<tag k="ssr:stedsnr" v="471041" />
	</node>
	<node id="-49684" lat="58.2097972257" lon="7.92494165889">
		<tag k="highway" v="path" />
		<tag k="name" v="Kleivia" />
		<tag k="ssr:stedsnr" v="166971" />
	</node>
	<node id="-58386" lat="58.1358338516" lon="7.96121395995">
		<tag k="junction" v="yes" />
		<tag k="name" v="Hannevik" />
		<tag k="place" v="locality" />
		<tag k="ssr:stedsnr" v="977587" />
	</node>
	<node id="-54199" lat="58.2595083312" lon="8.15966667085">
		<tag k="bridge" v="yes" />
		<tag k="layer" v="1" />
		<tag k="name" v="Foss bru" />
		<tag k="ssr:stedsnr" v="93977" />
	</node>
	<node id="-49080" lat="58.256233329" lon="8.05643332551">
		<tag k="bridge" v="yes" />
		<tag k="layer" v="1" />
		<tag k="name" v="Gjermundstad" />
		<tag k="ssr:stedsnr" v="228179" />
	</node>
	<node id="-56323" lat="58.2383888927" lon="8.11912777085">
		<tag k="fixme" v="consider highway=path" />
		<tag k="highway" v="track" />
		<tag k="name" v="Mollkleiv" />
		<tag k="ssr:stedsnr" v="530141" />
	</node>
	<node id="-58283" lat="58.1609305596" lon="8.06121943794">
		<tag k="bridge" v="yes" />
		<tag k="layer" v="1" />
		<tag k="name" v="Varoddbrua" />
		<tag k="ssr:stedsnr" v="955142" />
	</node>
</osm>
