<?xml version="1.0" encoding="UTF-8"?>
<osm generator="osmapis" version="0.6">
	<node id="-215055" lat="59.1414361069" lon="11.5855611023">
		<tag k="name" v="Langemyr" />
		<tag k="natural" v="wetland" />
		<tag k="ssr:stedsnr" v="111742" />
	</node>
	<node id="-215035" lat="59.0391916695" lon="11.4799972286">
		<tag k="name" v="Martnansmosen" />
		<tag k="natural" v="wetland" />
		<tag k="ssr:stedsnr" v="84749" />
	</node>
	<node id="-214083" lat="59.107250002" lon="11.48601945">
		<tag k="name" v="Bjerkeholtet" />
		<tag k="place" v="locality" />
		<tag k="ssr:stedsnr" v="386778" />
	</node>
	<node id="-215219" lat="58.9478583361" lon="11.6353527777">
		<tag k="name" v="Dammosen" />
		<tag k="natural" v="wetland" />
		<tag k="ssr:stedsnr" v="172833" />
	</node>
	<node id="-215123" lat="59.1574861141" lon="11.5917055489">
		<tag k="alt_name" v="Harelundmosen" />
		<tag k="name" v="Haralundmosen" />
		<tag k="natural" v="wetland" />
		<tag k="ssr:stedsnr" v="123132" />
	</node>
	<node id="-214512" lat="59.1085722215" lon="11.5524083396">
		<tag k="name" v="Orsmyr" />
		<tag k="natural" v="wetland" />
		<tag k="ssr:stedsnr" v="718960" />
	</node>
	<node id="-213928" lat="59.0853583372" lon="11.5997027792">
		<tag k="name" v="Lemmyr" />
		<tag k="natural" v="wetland" />
		<tag k="ssr:stedsnr" v="293704" />
	</node>
	<node id="-213997" lat="59.0448805549" lon="11.4620638803">
		<tag k="name" v="Moen" />
		<tag k="place" v="locality" />
		<tag k="ssr:stedsnr" v="326756" />
	</node>
	<node id="-214508" lat="59.0213166707" lon="11.659775004">
		<tag k="name" v="Gatemosen" />
		<tag k="natural" v="wetland" />
		<tag k="ssr:stedsnr" v="718778" />
	</node>
	<node id="-215602" lat="59.1088805557" lon="11.6437083264">
		<tag k="name" v="Rørmyr" />
		<tag k="natural" v="wetland" />
		<tag k="ssr:stedsnr" v="415663" />
	</node>
	<node id="-214611" lat="59.1542166685" lon="11.5416555477">
		<tag k="name" v="Djupmyr" />
		<tag k="natural" v="wetland" />
		<tag k="ssr:stedsnr" v="912126" />
	</node>
	<node id="-214502" lat="59.1153361142" lon="11.6040527766">
		<tag k="name" v="Hakkespettmyr" />
		<tag k="natural" v="wetland" />
		<tag k="ssr:stedsnr" v="718566" />
	</node>
	<node id="-215012" lat="58.9502472244" lon="11.5851083297">
		<tag k="alt_name" v="Monseren lille" />
		<tag k="name" v="Lille Monseren" />
		<tag k="natural" v="wetland" />
		<tag k="ssr:stedsnr" v="63858" />
	</node>
	<node id="-213987" lat="59.047758335" lon="11.6453055555">
		<tag k="name" v="Kroktjernmosen" />
		<tag k="natural" v="wetland" />
		<tag k="ssr:stedsnr" v="475965" />
	</node>
	<node id="-215522" lat="58.9558368647" lon="11.6252474483">
		<tag k="alt_name" v="Rørmyr" />
		<tag k="name" v="Rørmyra" />
		<tag k="natural" v="wetland" />
		<tag k="ssr:stedsnr" v="366819" />
	</node>
	<node id="-213982" lat="59.1134166697" lon="11.645141675">
		<tag k="name" v="Fuglemyr" />
		<tag k="natural" v="wetland" />
		<tag k="ssr:stedsnr" v="475954" />
	</node>
	<node id="-214493" lat="59.0309138878" lon="11.6166944361">
		<tag k="name" v="Ormemosen" />
		<tag k="natural" v="wetland" />
		<tag k="ssr:stedsnr" v="669417" />
	</node>
	<node id="-215290" lat="59.1312249985" lon="11.2341472307">
		<tag k="name" v="Emanuelmyra" />
		<tag k="natural" v="wetland" />
		<tag k="ssr:stedsnr" v="204072" />
	</node>
	<node id="-216024" lat="59.1198972261" lon="11.5102972268">
		<tag k="name" v="Tretjernsmyra" />
		<tag k="natural" v="wetland" />
		<tag k="ssr:stedsnr" v="779979" />
	</node>
	<node id="-216023" lat="59.082058334" lon="11.5063638941">
		<tag k="name" v="Bredmosen" />
		<tag k="natural" v="wetland" />
		<tag k="ssr:stedsnr" v="779970" />
	</node>
	<node id="-216022" lat="59.0679833302" lon="11.5879722216">
		<tag k="name" v="Sørmosen" />
		<tag k="natural" v="wetland" />
		<tag k="ssr:stedsnr" v="779956" />
	</node>
	<node id="-216021" lat="59.0963611109" lon="11.6178249992">
		<tag k="name" v="Lille Haraldsmosen" />
		<tag k="natural" v="wetland" />
		<tag k="ssr:stedsnr" v="779941" />
	</node>
	<node id="-213972" lat="59.1407138854" lon="11.5522305543">
		<tag k="name" v="Store Styggemyr" />
		<tag k="natural" v="wetland" />
		<tag k="ssr:stedsnr" v="475698" />
	</node>
	<node id="-215507" lat="59.0310888919" lon="11.6013694374">
		<tag k="name" v="Ørsmosen" />
		<tag k="natural" v="wetland" />
		<tag k="ssr:stedsnr" v="366421" />
	</node>
	<node id="-216018" lat="59.116838889" lon="11.5460000034">
		<tag k="name" v="Ormemyr" />
		<tag k="natural" v="wetland" />
		<tag k="ssr:stedsnr" v="779889" />
	</node>
	<node id="-215505" lat="59.0233166665" lon="11.6185249961">
		<tag k="name" v="Kavlebrumosen" />
		<tag k="natural" v="wetland" />
		<tag k="ssr:stedsnr" v="366330" />
	</node>
	<node id="-215504" lat="59.1535638922" lon="11.5946805595">
		<tag k="name" v="Bjørnemyr" />
		<tag k="natural" v="wetland" />
		<tag k="ssr:stedsnr" v="366112" />
	</node>
	<node id="-213964" lat="58.9478083373" lon="11.5800055538">
		<tag k="name" v="Stutemosen" />
		<tag k="natural" v="wetland" />
		<tag k="ssr:stedsnr" v="475593" />
	</node>
	<node id="-216010" lat="58.8941916656" lon="11.4781277776">
		<tag k="name" v="Olserødmyr" />
		<tag k="natural" v="wetland" />
		<tag k="ssr:stedsnr" v="779746" />
	</node>
	<node id="-214984" lat="58.9873333363" lon="11.6095777793">
		<tag k="alt_name" v="Teigemosen" />
		<tag k="name" v="Teigsmosen" />
		<tag k="natural" v="wetland" />
		<tag k="ssr:stedsnr" v="62799" />
	</node>
	<node id="-213836" lat="58.9401305583" lon="11.6093138858">
		<tag k="name" v="Paulsbo" />
		<tag k="place" v="locality" />
		<tag k="ssr:stedsnr" v="293802" />
	</node>
	<node id="-213958" lat="59.1089555513" lon="11.5942055509">
		<tag k="name" v="Vinterveimosen" />
		<tag k="natural" v="wetland" />
		<tag k="ssr:stedsnr" v="475568" />
	</node>
	<node id="-215627" lat="58.8971611088" lon="11.5722277707">
		<tag k="name" v="Tronsmosen" />
		<tag k="natural" v="wetland" />
		<tag k="ssr:stedsnr" v="426242" />
	</node>
	<node id="-216000" lat="58.9869833318" lon="11.560897229">
		<tag k="name" v="Rødklevmyr" />
		<tag k="natural" v="wetland" />
		<tag k="ssr:stedsnr" v="779931" />
	</node>
	<node id="-215998" lat="58.9588638911" lon="11.6384888963">
		<tag k="name" v="Veiskillmosen" />
		<tag k="natural" v="wetland" />
		<tag k="ssr:stedsnr" v="779621" />
	</node>
	<node id="-215997" lat="58.9666444489" lon="11.631463885">
		<tag k="name" v="Blåmosen" />
		<tag k="natural" v="wetland" />
		<tag k="ssr:stedsnr" v="779620" />
	</node>
	<node id="-214064" lat="59.0932222188" lon="11.6334916692">
		<tag k="name" v="Trettermyrene" />
		<tag k="natural" v="wetland" />
		<tag k="ssr:stedsnr" v="354948" />
	</node>
	<node id="-213947" lat="58.9627138901" lon="11.6002000015">
		<tag k="name" v="Lysemosen" />
		<tag k="natural" v="wetland" />
		<tag k="ssr:stedsnr" v="305846" />
	</node>
	<node id="-215993" lat="58.955563889" lon="11.5694194485">
		<tag k="name" v="Mosekasmyra" />
		<tag k="natural" v="wetland" />
		<tag k="ssr:stedsnr" v="779590" />
	</node>
	<node id="-216229" lat="59.0892194477" lon="11.5481777794">
		<tag k="name" v="Ringlemosen" />
		<tag k="natural" v="wetland" />
		<tag k="ssr:stedsnr" v="961551" />
	</node>
	<node id="-213833" lat="58.9432055558" lon="11.4864944399">
		<tag k="name" v="Bjørnmyr" />
		<tag k="natural" v="wetland" />
		<tag k="ssr:stedsnr" v="293721" />
	</node>
	<node id="-215988" lat="59.0991444451" lon="11.6022666689">
		<tag k="name" v="Hesthaugmosen" />
		<tag k="natural" v="wetland" />
		<tag k="ssr:stedsnr" v="779562" />
	</node>
	<node id="-215987" lat="59.1129416703" lon="11.5943861177">
		<tag k="name" v="Multemose" />
		<tag k="natural" v="wetland" />
		<tag k="ssr:stedsnr" v="779561" />
	</node>
	<node id="-215473" lat="59.0731555581" lon="11.5127638901">
		<tag k="name" v="Gullundmosen" />
		<tag k="natural" v="wetland" />
		<tag k="ssr:stedsnr" v="365488" />
	</node>
	<node id="-213662" lat="59.0342527796" lon="11.6695083283">
		<tag k="name" v="Vognmyrene" />
		<tag k="natural" v="wetland" />
		<tag k="ssr:stedsnr" v="232950" />
	</node>
	<node id="-214087" lat="59.1049444414" lon="11.444916673">
		<tag k="name" v="Hauger" />
		<tag k="place" v="locality" />
		<tag k="ssr:stedsnr" v="387757" />
	</node>
	<node id="-214952" lat="58.9601805567" lon="11.6245527857">
		<tag k="name" v="Sivmosen" />
		<tag k="natural" v="wetland" />
		<tag k="ssr:stedsnr" v="51828" />
	</node>
	<node id="-214950" lat="58.9599222233" lon="11.5721777853">
		<tag k="name" v="Vintermosen" />
		<tag k="natural" v="wetland" />
		<tag k="ssr:stedsnr" v="51822" />
	</node>
	<node id="-213745" lat="59.0928111125" lon="11.5267555537">
		<tag k="name" v="Setermyr" />
		<tag k="natural" v="wetland" />
		<tag k="ssr:stedsnr" v="111531" />
	</node>
	<node id="-215971" lat="59.0281194418" lon="11.4949777832">
		<tag k="name" v="Kasa" />
		<tag k="place" v="locality" />
		<tag k="ssr:stedsnr" v="750195" />
	</node>
	<node id="-214434" lat="58.9934500015" lon="11.6620638834">
		<tag k="alt_name" v="Tranetjernmosen" />
		<tag k="name" v="Tranemosen" />
		<tag k="natural" v="wetland" />
		<tag k="ssr:stedsnr" v="729800" />
	</node>
	<node id="-213915" lat="59.0543222235" lon="11.4993361093">
		<tag k="alt_name" v="Hvitåsmyr" />
		<tag k="name" v="Hvitåsmyra" />
		<tag k="natural" v="wetland" />
		<tag k="ssr:stedsnr" v="448774" />
	</node>
	<node id="-214943" lat="59.0731111097" lon="11.5472611172">
		<tag k="name" v="Kulemyr" />
		<tag k="natural" v="wetland" />
		<tag k="ssr:stedsnr" v="51563" />
	</node>
	<node id="-213917" lat="59.1070916673" lon="11.3965000026">
		<tag k="name" v="Slavekirkegården" />
		<tag k="place" v="locality" />
		<tag k="ssr:stedsnr" v="448781" />
	</node>
	<node id="-214428" lat="59.013647219" lon="11.6202999926">
		<tag k="alt_name" v="Gjøtengene" />
		<tag k="name" v="Jøtenga" />
		<tag k="natural" v="wetland" />
		<tag k="ssr:stedsnr" v="729337" />
	</node>
	<node id="-215451" lat="59.0716500031" lon="11.5991027739">
		<tag k="name" v="Kjerringmyr" />
		<tag k="natural" v="wetland" />
		<tag k="ssr:stedsnr" v="354961" />
	</node>
	<node id="-213914" lat="59.036297221" lon="11.476994437">
		<tag k="name" v="Fugleleken" />
		<tag k="place" v="locality" />
		<tag k="ssr:stedsnr" v="448772" />
	</node>
	<node id="-214937" lat="59.1250472264" lon="11.5151833312">
		<tag k="name" v="Langemyr" />
		<tag k="natural" v="wetland" />
		<tag k="ssr:stedsnr" v="50983" />
	</node>
	<node id="-214936" lat="58.9384638933" lon="11.4826416701">
		<tag k="name" v="Dammyr" />
		<tag k="natural" v="wetland" />
		<tag k="ssr:stedsnr" v="50894" />
	</node>
	<node id="-213657" lat="59.1072972267" lon="11.6416666608">
		<tag k="name" v="Krokvannsmyr" />
		<tag k="natural" v="wetland" />
		<tag k="ssr:stedsnr" v="232938" />
	</node>
	<node id="-214930" lat="59.0657805549" lon="11.5057861143">
		<tag k="historic" v="shieling" />
		<tag k="loc_name" v="Aspesetret" />
		<tag k="name" v="Aspesætre" />
		<tag k="place" v="locality" />
		<tag k="ssr:stedsnr" v="50876" />
	</node>
	<node id="-215441" lat="59.0359194457" lon="11.5998888888">
		<tag k="name" v="Nordre Ørsmosen" />
		<tag k="natural" v="wetland" />
		<tag k="ssr:stedsnr" v="354740" />
	</node>
	<node id="-215952" lat="59.1231307691" lon="11.4672846696">
		<tag k="name" v="Lilledalshaugen" />
		<tag k="place" v="locality" />
		<tag k="ssr:stedsnr" v="629887" />
	</node>
	<node id="-215439" lat="58.934761107" lon="11.4942972212">
		<tag k="name" v="Islingmyr" />
		<tag k="natural" v="wetland" />
		<tag k="ssr:stedsnr" v="354732" />
	</node>
	<node id="-215947" lat="59.2046777744" lon="11.396455556">
		<tag k="name" v="Væretjernmyra" />
		<tag k="natural" v="wetland" />
		<tag k="ssr:stedsnr" v="629846" />
	</node>
	<node id="-214922" lat="58.9459444431" lon="11.4898194465">
		<tag k="name" v="Blåsopp" />
		<tag k="place" v="locality" />
		<tag k="ssr:stedsnr" v="50664" />
	</node>
	<node id="-214335" lat="58.9193277804" lon="11.5947138878">
		<tag k="name" v="Rørmosen" />
		<tag k="natural" v="wetland" />
		<tag k="ssr:stedsnr" v="718586" />
	</node>
	<node id="-214914" lat="59.103680555" lon="11.5017777857">
		<tag k="name" v="Kartmosen" />
		<tag k="natural" v="wetland" />
		<tag k="ssr:stedsnr" v="22777" />
	</node>
	<node id="-215423" lat="59.090027778" lon="11.5303222151">
		<tag k="name" v="Setermosen" />
		<tag k="natural" v="wetland" />
		<tag k="ssr:stedsnr" v="354557" />
	</node>
	<node id="-214907" lat="59.0665638926" lon="11.4906888819">
		<tag k="name" v="Dyvelmosen" />
		<tag k="natural" v="wetland" />
		<tag k="ssr:stedsnr" v="22207" />
	</node>
	<node id="-214905" lat="59.1226916635" lon="11.311841664">
		<tag k="landuse" v="meadow" />
		<tag k="name" v="Kilengen" />
		<tag k="ssr:stedsnr" v="22196" />
	</node>
	<node id="-214904" lat="59.2012222214" lon="11.3591388822">
		<tag k="name" v="Torvmosen" />
		<tag k="natural" v="wetland" />
		<tag k="ssr:stedsnr" v="22178" />
	</node>
	<node id="-214900" lat="58.9515416705" lon="11.464911109">
		<tag k="name" v="Bredmosen" />
		<tag k="natural" v="wetland" />
		<tag k="ssr:stedsnr" v="22153" />
	</node>
	<node id="-213875" lat="59.0190555534" lon="11.5913333296">
		<tag k="name" v="Småtjernsmosen" />
		<tag k="natural" v="wetland" />
		<tag k="ssr:stedsnr" v="232729" />
	</node>
	<node id="-215409" lat="59.2182749995" lon="11.4297166702">
		<tag k="name" v="Korsetholtet" />
		<tag k="place" v="locality" />
		<tag k="ssr:stedsnr" v="326869" />
	</node>
	<node id="-215408" lat="59.205230553" lon="11.4195888907">
		<tag k="alt_name" v="Lilledal øvre" />
		<tag k="name" v="Øvre Lilledal" />
		<tag k="place" v="locality" />
		<tag k="ssr:stedsnr" v="326832" />
	</node>
	<node id="-213821" lat="59.0004166657" lon="11.6610361147">
		<tag k="name" v="Helbekkmosen" />
		<tag k="natural" v="wetland" />
		<tag k="ssr:stedsnr" v="293625" />
	</node>
	<node id="-214641" lat="58.9517527752" lon="11.6298416615">
		<tag k="fixme" v="multiple name tags, choose one and add the other to alt_name" />
		<tag k="name" v="Rørmyr;Store Rabbemosen" />
		<tag k="natural" v="wetland" />
		<tag k="ssr:stedsnr" v="912867" />
	</node>
	<node id="-213864" lat="59.0975083337" lon="11.6031916588">
		<tag k="name" v="Storemose" />
		<tag k="natural" v="wetland" />
		<tag k="ssr:stedsnr" v="232508" />
	</node>
	<node id="-214417" lat="59.1451250025" lon="11.4722472153">
		<tag k="name" v="Gjernesholtet" />
		<tag k="place" v="locality" />
		<tag k="ssr:stedsnr" v="629822" />
	</node>
	<node id="-214372" lat="59.0020416647" lon="11.6893750053">
		<tag k="name" v="Amundmosen" />
		<tag k="natural" v="wetland" />
		<tag k="ssr:stedsnr" v="718943" />
	</node>
	<node id="-214371" lat="58.9858250006" lon="11.551794443">
		<tag k="name" v="Dikemosen" />
		<tag k="natural" v="wetland" />
		<tag k="ssr:stedsnr" v="718936" />
	</node>
	<node id="-214369" lat="59.0045888919" lon="11.5674638857">
		<tag k="name" v="Hogsjømosen" />
		<tag k="natural" v="wetland" />
		<tag k="ssr:stedsnr" v="718929" />
	</node>
	<node id="-214368" lat="58.9906916664" lon="11.5078305617">
		<tag k="name" v="Lindemosen" />
		<tag k="natural" v="wetland" />
		<tag k="ssr:stedsnr" v="718914" />
	</node>
	<node id="-213854" lat="59.0775916707" lon="11.5587972241">
		<tag k="name" v="Vintermyr" />
		<tag k="natural" v="wetland" />
		<tag k="ssr:stedsnr" v="293978" />
	</node>
	<node id="-213852" lat="59.0785055571" lon="11.5250250052">
		<tag k="name" v="Hauglimosen" />
		<tag k="natural" v="wetland" />
		<tag k="ssr:stedsnr" v="293972" />
	</node>
	<node id="-214875" lat="59.1922249981" lon="11.3948833393">
		<tag k="name" v="Stensmosen" />
		<tag k="natural" v="wetland" />
		<tag k="ssr:stedsnr" v="2301" />
	</node>
	<node id="-214872" lat="59.1720666705" lon="11.4779111042">
		<tag k="alt_name" v="Mørkseter" />
		<tag k="historic" v="shieling" />
		<tag k="name" v="Mørkesætre" />
		<tag k="place" v="locality" />
		<tag k="ssr:stedsnr" v="2083" />
	</node>
	<node id="-214158" lat="59.0896666702" lon="11.5710472298">
		<tag k="name" v="Nordre Kroktjernmyr" />
		<tag k="natural" v="wetland" />
		<tag k="ssr:stedsnr" v="657849" />
	</node>
	<node id="-214047" lat="58.9511638891" lon="11.5796805633">
		<tag k="alt_name" v="Moseren store" />
		<tag k="name" v="Store Monseren" />
		<tag k="natural" v="wetland" />
		<tag k="ssr:stedsnr" v="487875" />
	</node>
	<node id="-213839" lat="59.0136583316" lon="11.6817444433">
		<tag k="name" v="Ramundsmosen" />
		<tag k="natural" v="wetland" />
		<tag k="ssr:stedsnr" v="293894" />
	</node>
	<node id="-215181" lat="59.0753388919" lon="11.4820222303">
		<tag k="name" v="Langemyr" />
		<tag k="natural" v="wetland" />
		<tag k="ssr:stedsnr" v="143780" />
	</node>
	<node id="-214348" lat="59.0254777751" lon="11.6342333396">
		<tag k="name" v="Gjeteryggmosen" />
		<tag k="natural" v="wetland" />
		<tag k="ssr:stedsnr" v="718721" />
	</node>
	<node id="-216072" lat="58.9678111141" lon="11.4626166596">
		<tag k="name" v="Grevlingmyr" />
		<tag k="natural" v="wetland" />
		<tag k="ssr:stedsnr" v="811163" />
	</node>
	<node id="-214857" lat="59.0811166676" lon="11.5078611074">
		<tag k="name" v="Olasmyr" />
		<tag k="natural" v="wetland" />
		<tag k="ssr:stedsnr" v="1497" />
	</node>
	<node id="-213832" lat="59.1327055544" lon="11.5836444366">
		<tag k="name" v="Mørtemyr" />
		<tag k="natural" v="wetland" />
		<tag k="ssr:stedsnr" v="293714" />
	</node>
	<node id="-213831" lat="59.1255361077" lon="11.5709388809">
		<tag k="name" v="Lemmosen" />
		<tag k="natural" v="wetland" />
		<tag k="ssr:stedsnr" v="293711" />
	</node>
	<node id="-214070" lat="58.9145" lon="11.4761833271">
		<tag k="fixme" v="multiple name tags, choose one and add the other to alt_name" />
		<tag k="name" v="Bredmosene;Langemyr" />
		<tag k="natural" v="wetland" />
		<tag k="ssr:stedsnr" v="364170" />
	</node>
	<node id="-215361" lat="59.1034111146" lon="11.6227638845">
		<tag k="name" v="Nordmyrene" />
		<tag k="natural" v="wetland" />
		<tag k="ssr:stedsnr" v="305470" />
	</node>
	<node id="-215871" lat="59.0482166643" lon="11.5023972135">
		<tag k="name" v="Lundenemosen" />
		<tag k="natural" v="wetland" />
		<tag k="ssr:stedsnr" v="596959" />
	</node>
	<node id="-215358" lat="59.0514555535" lon="11.6043416599">
		<tag k="name" v="Feltmosen" />
		<tag k="natural" v="wetland" />
		<tag k="ssr:stedsnr" v="305443" />
	</node>
	<node id="-215869" lat="59.1002499996" lon="11.6431666709">
		<tag k="name" v="Mostermyr" />
		<tag k="natural" v="wetland" />
		<tag k="ssr:stedsnr" v="596943" />
	</node>
	<node id="-214842" lat="59.2211250008" lon="11.5184638802">
		<tag k="name" v="Nordre Breidmose" />
		<tag k="natural" v="wetland" />
		<tag k="ssr:stedsnr" v="1163" />
	</node>
	<node id="-215864" lat="59.0838888883" lon="11.5235527811">
		<tag k="name" v="Raggemyr" />
		<tag k="natural" v="wetland" />
		<tag k="ssr:stedsnr" v="596905" />
	</node>
	<node id="-215350" lat="59.2015388927" lon="11.5249555594">
		<tag k="name" v="Vatermyra" />
		<tag k="natural" v="wetland" />
		<tag k="ssr:stedsnr" v="305181" />
	</node>
	<node id="-215614" lat="59.029288887" lon="11.6003833336">
		<tag k="name" v="Søndre Ørsmosen" />
		<tag k="natural" v="wetland" />
		<tag k="ssr:stedsnr" v="415804" />
	</node>
	<node id="-213974" lat="59.1244472253" lon="11.526744446">
		<tag k="name" v="Skilleveimyra" />
		<tag k="natural" v="wetland" />
		<tag k="ssr:stedsnr" v="475723" />
	</node>
	<node id="-214315" lat="58.9224555598" lon="11.5416611199">
		<tag k="name" v="Flyndremyr" />
		<tag k="natural" v="wetland" />
		<tag k="ssr:stedsnr" v="536807" />
	</node>
	<node id="-215338" lat="59.2491805578" lon="11.5056083389">
		<tag k="name" v="Momosen" />
		<tag k="natural" v="wetland" />
		<tag k="ssr:stedsnr" v="305251" />
	</node>
	<node id="-214313" lat="59.1093472209" lon="11.6140472294">
		<tag k="name" v="Ormetjernmyrene" />
		<tag k="natural" v="wetland" />
		<tag k="ssr:stedsnr" v="536603" />
	</node>
	<node id="-215601" lat="59.203363892" lon="11.5704472227">
		<tag k="name" v="Langemyra" />
		<tag k="natural" v="wetland" />
		<tag k="ssr:stedsnr" v="415654" />
	</node>
	<node id="-215838" lat="58.9678055594" lon="11.5851166727">
		<tag k="name" v="Ekelimosen" />
		<tag k="natural" v="wetland" />
		<tag k="ssr:stedsnr" v="596567" />
	</node>
	<node id="-214451" lat="59.2221444415" lon="11.5019249924">
		<tag k="name" v="Langa" />
		<tag k="natural" v="wetland" />
		<tag k="ssr:stedsnr" v="730145" />
	</node>
	<node id="-214815" lat="58.9665722256" lon="11.5964555641">
		<tag k="name" v="Benmosen" />
		<tag k="natural" v="wetland" />
		<tag k="ssr:stedsnr" v="961613" />
	</node>
	<node id="-214814" lat="58.9729583332" lon="11.5713222139">
		<tag k="name" v="Rødmyr" />
		<tag k="natural" v="wetland" />
		<tag k="ssr:stedsnr" v="961608" />
	</node>
	<node id="-214812" lat="58.9674222189" lon="11.6051305502">
		<tag k="name" v="Røsmyr" />
		<tag k="natural" v="wetland" />
		<tag k="ssr:stedsnr" v="961603" />
	</node>
	<node id="-214063" lat="59.1029305553" lon="11.6578694449">
		<tag k="name" v="Husmannsmyr" />
		<tag k="natural" v="wetland" />
		<tag k="ssr:stedsnr" v="354943" />
	</node>
	<node id="-214294" lat="59.0293777818" lon="11.49572777">
		<tag k="name" v="Vestre kasene" />
		<tag k="place" v="locality" />
		<tag k="ssr:stedsnr" v="690271" />
	</node>
	<node id="-215829" lat="59.0457333302" lon="11.6564499926">
		<tag k="name" v="Bløtemose" />
		<tag k="natural" v="wetland" />
		<tag k="ssr:stedsnr" v="596495" />
	</node>
	<node id="-214804" lat="59.2013305513" lon="11.4183444471">
		<tag k="name" v="Lilledal" />
		<tag k="place" v="locality" />
		<tag k="ssr:stedsnr" v="933856" />
	</node>
	<node id="-213779" lat="59.1081916709" lon="11.4538833391">
		<tag k="name" v="Holberg" />
		<tag k="place" v="locality" />
		<tag k="ssr:stedsnr" v="265804" />
	</node>
	<node id="-213939" lat="59.0071749998" lon="11.5135083328">
		<tag k="name" v="Tomosen" />
		<tag k="natural" v="wetland" />
		<tag k="ssr:stedsnr" v="304320" />
	</node>
	<node id="-214801" lat="59.0872638911" lon="11.4810027849">
		<tag k="name" v="Brenna" />
		<tag k="place" v="locality" />
		<tag k="ssr:stedsnr" v="933835" />
	</node>
	<node id="-214800" lat="59.0865750019" lon="11.4852694492">
		<tag k="name" v="Kingeldalsmyrene" />
		<tag k="natural" v="wetland" />
		<tag k="ssr:stedsnr" v="933834" />
	</node>
	<node id="-213990" lat="59.1390222239" lon="11.5591166697">
		<tag k="name" v="Svendsdalsmyr" />
		<tag k="natural" v="wetland" />
		<tag k="ssr:stedsnr" v="475986" />
	</node>
	<node id="-213890" lat="59.1035472254" lon="11.495572219">
		<tag k="name" v="Bløtemyr" />
		<tag k="natural" v="wetland" />
		<tag k="ssr:stedsnr" v="447762" />
	</node>
	<node id="-215818" lat="59.1160861115" lon="11.4060277764">
		<tag k="name" v="Kommandant-Risum" />
		<tag k="place" v="locality" />
		<tag k="ssr:stedsnr" v="569729" />
	</node>
	<node id="-214572" lat="59.10998056" lon="11.2649166661">
		<tag k="name" v="Møllermosen" />
		<tag k="natural" v="wetland" />
		<tag k="ssr:stedsnr" v="750007" />
	</node>
	<node id="-214278" lat="59.1041111102" lon="11.2332499929">
		<tag k="name" v="Svalerødmyra" />
		<tag k="natural" v="wetland" />
		<tag k="ssr:stedsnr" v="690015" />
	</node>
	<node id="-213633" lat="59.0939722227" lon="11.6727694408">
		<tag k="name" v="Ryttermyr" />
		<tag k="natural" v="wetland" />
		<tag k="ssr:stedsnr" v="232594" />
	</node>
	<node id="-215510" lat="59.0393583309" lon="11.5116222275">
		<tag k="alt_name" v="Lundenemosen" />
		<tag k="name" v="Lundemyra" />
		<tag k="natural" v="wetland" />
		<tag k="ssr:stedsnr" v="366437" />
	</node>
	<node id="-214786" lat="59.0699074131" lon="11.4677374028">
		<tag k="name" v="Heierholtet" />
		<tag k="place" v="locality" />
		<tag k="ssr:stedsnr" v="932225" />
	</node>
	<node id="-215297" lat="59.1356083305" lon="11.3642999937">
		<tag k="name" v="Holteskogen" />
		<tag k="place" v="locality" />
		<tag k="ssr:stedsnr" v="204167" />
	</node>
	<node id="-214272" lat="58.9870611157" lon="11.4954194381">
		<tag k="name" v="Bjørnemyr" />
		<tag k="natural" v="wetland" />
		<tag k="ssr:stedsnr" v="689185" />
	</node>
	<node id="-213973" lat="59.1395694407" lon="11.5496444418">
		<tag k="name" v="Store Styggemyr" />
		<tag k="natural" v="wetland" />
		<tag k="ssr:stedsnr" v="475704" />
	</node>
	<node id="-215802" lat="59.0723777802" lon="11.4866083407">
		<tag k="name" v="Forbundne mose" />
		<tag k="natural" v="wetland" />
		<tag k="ssr:stedsnr" v="568224" />
	</node>
	<node id="-214777" lat="59.1000972238" lon="11.6061999953">
		<tag k="name" v="Engemyr" />
		<tag k="natural" v="wetland" />
		<tag k="ssr:stedsnr" v="900966" />
	</node>
	<node id="-213752" lat="58.9834361077" lon="11.5371361034">
		<tag k="name" v="Rabbemosen" />
		<tag k="natural" v="wetland" />
		<tag k="ssr:stedsnr" v="111923" />
	</node>
	<node id="-214260" lat="59.0286388854" lon="11.6471111044">
		<tag k="name" v="Stenslunden" />
		<tag k="place" v="locality" />
		<tag k="ssr:stedsnr" v="487443" />
	</node>
	<node id="-215795" lat="59.1360166644" lon="11.3133416701">
		<tag k="name" v="Bauta" />
		<tag k="natural" v="stone" />
		<tag k="ssr:stedsnr" v="568161" />
	</node>
	<node id="-214769" lat="59.1299527818" lon="11.5383555584">
		<tag k="name" v="Lommemosen" />
		<tag k="natural" v="wetland" />
		<tag k="ssr:stedsnr" v="900724" />
	</node>
	<node id="-215792" lat="59.1218861066" lon="11.2394250054">
		<tag k="name" v="Dammyr" />
		<tag k="natural" v="wetland" />
		<tag k="ssr:stedsnr" v="568062" />
	</node>
	<node id="-214767" lat="58.907536113" lon="11.4809416612">
		<tag k="name" v="Langemyr" />
		<tag k="natural" v="wetland" />
		<tag k="ssr:stedsnr" v="900719" />
	</node>
	<node id="-213739" lat="59.0333888899" lon="11.4728222201">
		<tag k="name" v="Delesbrumyra" />
		<tag k="natural" v="wetland" />
		<tag k="ssr:stedsnr" v="84755" />
	</node>
	<node id="-213738" lat="59.0406111151" lon="11.49081944">
		<tag k="name" v="Lundeholt" />
		<tag k="place" v="locality" />
		<tag k="ssr:stedsnr" v="84753" />
	</node>
	<node id="-214567" lat="58.9786750032" lon="11.5421277782">
		<tag k="name" v="Plassemyra" />
		<tag k="natural" v="wetland" />
		<tag k="ssr:stedsnr" v="900931" />
	</node>
	<node id="-213736" lat="59.1763000044" lon="11.4530305509">
		<tag k="name" v="Blytjernmyra" />
		<tag k="natural" v="wetland" />
		<tag k="ssr:stedsnr" v="83859" />
	</node>
	<node id="-213628" lat="59.0022777805" lon="11.6793083404">
		<tag k="name" v="Blakasmosen" />
		<tag k="natural" v="wetland" />
		<tag k="ssr:stedsnr" v="232562" />
	</node>
	<node id="-214481" lat="59.0066750046" lon="11.5841138807">
		<tag k="name" v="Løvåsmosen" />
		<tag k="natural" v="wetland" />
		<tag k="ssr:stedsnr" v="657916" />
	</node>
	<node id="-214125" lat="59.0848444434" lon="11.5362611042">
		<tag k="name" v="Kirkemosen" />
		<tag k="natural" v="wetland" />
		<tag k="ssr:stedsnr" v="657558" />
	</node>
	<node id="-215077" lat="59.09536389" lon="11.5039472256">
		<tag k="name" v="Limyrene" />
		<tag k="natural" v="wetland" />
		<tag k="ssr:stedsnr" v="111975" />
	</node>
	<node id="-214223" lat="58.9814861128" lon="11.4870694527">
		<tag k="name" v="Skotkjerrmosen" />
		<tag k="natural" v="wetland" />
		<tag k="ssr:stedsnr" v="669803" />
	</node>
	<node id="-213937" lat="59.0089222264" lon="11.4835000022">
		<tag k="name" v="Bumosen" />
		<tag k="natural" v="wetland" />
		<tag k="ssr:stedsnr" v="304302" />
	</node>
	<node id="-213717" lat="59.0930611094" lon="11.5536777832">
		<tag k="name" v="Tømmerlund" />
		<tag k="place" v="locality" />
		<tag k="ssr:stedsnr" v="245423" />
	</node>
	<node id="-214225" lat="58.9738096381" lon="11.4981952489">
		<tag k="landuse" v="meadow" />
		<tag k="name" v="Engene" />
		<tag k="ssr:stedsnr" v="669806" />
	</node>
	<node id="-214735" lat="58.9796805573" lon="11.5250944491">
		<tag k="name" v="Åsemosen" />
		<tag k="natural" v="wetland" />
		<tag k="ssr:stedsnr" v="851807" />
	</node>
	<node id="-216119" lat="59.1121972231" lon="11.6041305479">
		<tag k="name" v="Bjørnekollmyr" />
		<tag k="natural" v="wetland" />
		<tag k="ssr:stedsnr" v="840543" />
	</node>
	<node id="-214221" lat="58.9816305521" lon="11.616038885">
		<tag k="fixme" v="multiple name tags, choose one and add the other to alt_name" />
		<tag k="name" v="Duvlemosen;Fuglemosen" />
		<tag k="natural" v="wetland" />
		<tag k="ssr:stedsnr" v="669800" />
	</node>
	<node id="-213708" lat="59.2118109419" lon="11.3739396031">
		<tag k="fixme" v="multiple name tags, choose one and add the other to alt_name" />
		<tag k="name" v="Langemosen;Stensmosen" />
		<tag k="natural" v="wetland" />
		<tag k="ssr:stedsnr" v="244908" />
	</node>
	<node id="-213706" lat="58.9921027801" lon="11.5696527733">
		<tag k="alt_name" v="Gjeta" />
		<tag k="name" v="Jita" />
		<tag k="natural" v="wetland" />
		<tag k="ssr:stedsnr" v="244800" />
	</node>
	<node id="-214728" lat="59.1162861098" lon="11.5208138862">
		<tag k="name" v="Stormyrene" />
		<tag k="natural" v="wetland" />
		<tag k="ssr:stedsnr" v="840954" />
	</node>
	<node id="-215750" lat="58.965294444" lon="11.5634916728">
		<tag k="name" v="Bønsmosen" />
		<tag k="natural" v="wetland" />
		<tag k="ssr:stedsnr" v="547857" />
	</node>
	<node id="-215237" lat="58.942316664" lon="11.6099444513">
		<tag k="name" v="Kalvemosen" />
		<tag k="natural" v="wetland" />
		<tag k="ssr:stedsnr" v="182181" />
	</node>
	<node id="-215235" lat="59.0954277796" lon="11.2520055583">
		<tag k="name" v="Otersteinane" />
		<tag k="natural" v="scree" />
		<tag k="ssr:stedsnr" v="179901" />
	</node>
	<node id="-216254" lat="59.01188889" lon="11.5818055515">
		<tag k="name" v="Jakobsrødmyr" />
		<tag k="natural" v="wetland" />
		<tag k="ssr:stedsnr" v="961995" />
	</node>
	<node id="-215669" lat="58.9801555598" lon="11.6063027819">
		<tag k="name" v="Langmyrene" />
		<tag k="natural" v="wetland" />
		<tag k="ssr:stedsnr" v="536591" />
	</node>
	<node id="-213791" lat="59.2512888888" lon="11.5535138822">
		<tag k="name" v="Holtstenen" />
		<tag k="natural" v="stone" />
		<tag k="ssr:stedsnr" v="280326" />
	</node>
	<node id="-215222" lat="59.2145416682" lon="11.3826916727">
		<tag k="name" v="Grevlingmosen" />
		<tag k="natural" v="wetland" />
		<tag k="ssr:stedsnr" v="172894" />
	</node>
	<node id="-215071" lat="59.0237277776" lon="11.6695972197">
		<tag k="name" v="Løtesmaene" />
		<tag k="natural" v="wetland" />
		<tag k="ssr:stedsnr" v="111699" />
	</node>
	<node id="-216243" lat="59.0896944483" lon="11.5860277769">
		<tag k="name" v="Nevermyr" />
		<tag k="natural" v="wetland" />
		<tag k="ssr:stedsnr" v="961743" />
	</node>
	<node id="-215218" lat="59.083972224" lon="11.6487055595">
		<tag k="name" v="Vellingmyr" />
		<tag k="natural" v="wetland" />
		<tag k="ssr:stedsnr" v="172830" />
	</node>
	<node id="-216241" lat="59.0864888852" lon="11.5682083317">
		<tag k="name" v="Vestre Kroktjernmyr" />
		<tag k="natural" v="wetland" />
		<tag k="ssr:stedsnr" v="961977" />
	</node>
	<node id="-215240" lat="59.099419446" lon="11.5001555596">
		<tag k="alt_name" v="Langemyr" />
		<tag k="name" v="Langemyra" />
		<tag k="natural" v="wetland" />
		<tag k="ssr:stedsnr" v="183402" />
	</node>
	<node id="-214190" lat="59.0131416664" lon="11.6607777853">
		<tag k="name" v="Persmosen" />
		<tag k="natural" v="wetland" />
		<tag k="ssr:stedsnr" v="668344" />
	</node>
	<node id="-215213" lat="58.9456027734" lon="11.4668305566">
		<tag k="name" v="Svarte Helle" />
		<tag k="place" v="locality" />
		<tag k="ssr:stedsnr" v="172771" />
	</node>
	<node id="-213674" lat="58.9534555567" lon="11.6617805634">
		<tag k="name" v="Bjørnholtmosen" />
		<tag k="natural" v="wetland" />
		<tag k="ssr:stedsnr" v="51654" />
	</node>
	<node id="-216232" lat="59.0936972203" lon="11.6121916736">
		<tag k="name" v="Store Haraldsmosen" />
		<tag k="natural" v="wetland" />
		<tag k="ssr:stedsnr" v="961629" />
	</node>
	<node id="-215717" lat="58.9282059921" lon="11.5012311926">
		<tag k="landuse" v="meadow" />
		<tag k="name" v="Tellesåsengene" />
		<tag k="ssr:stedsnr" v="546166" />
	</node>
	<node id="-214707" lat="59.0818611073" lon="11.5164555629">
		<tag k="name" v="Hauglimosen" />
		<tag k="natural" v="wetland" />
		<tag k="ssr:stedsnr" v="840809" />
	</node>
	<node id="-215202" lat="58.9116499985" lon="11.6179861181">
		<tag k="name" v="Merrmosen" />
		<tag k="natural" v="wetland" />
		<tag k="ssr:stedsnr" v="172595" />
	</node>
	<node id="-216222" lat="58.9380972203" lon="11.5381166613">
		<tag k="name" v="Kartmyr" />
		<tag k="natural" v="wetland" />
		<tag k="ssr:stedsnr" v="961596" />
	</node>
	<node id="-215707" lat="59.0015138868" lon="11.5544194457">
		<tag k="name" v="Kroktjernmosen" />
		<tag k="natural" v="wetland" />
		<tag k="ssr:stedsnr" v="536921" />
	</node>
	<node id="-214170" lat="59.0313472226" lon="11.4678361138">
		<tag k="name" v="Langmyr" />
		<tag k="natural" v="wetland" />
		<tag k="ssr:stedsnr" v="447215" />
	</node>
	<node id="-214169" lat="59.0262722226" lon="11.4878111128">
		<tag k="name" v="Rundemosen" />
		<tag k="natural" v="wetland" />
		<tag k="ssr:stedsnr" v="447205" />
	</node>
	<node id="-215704" lat="58.9321194424" lon="11.4700388925">
		<tag k="name" v="Elgmyr" />
		<tag k="natural" v="wetland" />
		<tag k="ssr:stedsnr" v="536890" />
	</node>
	<node id="-214163" lat="58.9672805551" lon="11.466433337">
		<tag k="name" v="Erikmyr" />
		<tag k="natural" v="wetland" />
		<tag k="ssr:stedsnr" v="447142" />
	</node>
	<node id="-214161" lat="59.121949997" lon="11.5216333307">
		<tag k="name" v="Kutjernmyra" />
		<tag k="natural" v="wetland" />
		<tag k="ssr:stedsnr" v="657985" />
	</node>
	<node id="-213648" lat="58.9364583355" lon="11.6343805512">
		<tag k="name" v="Vinterbråtmosen" />
		<tag k="natural" v="wetland" />
		<tag k="ssr:stedsnr" v="232886" />
	</node>
	<node id="-215064" lat="59.0897750035" lon="11.578283334">
		<tag k="name" v="Langemyr" />
		<tag k="natural" v="wetland" />
		<tag k="ssr:stedsnr" v="111670" />
	</node>
	<node id="-215694" lat="59.2508416711" lon="11.5359222191">
		<tag k="name" v="Bustemyr" />
		<tag k="natural" v="wetland" />
		<tag k="ssr:stedsnr" v="536707" />
	</node>
	<node id="-215693" lat="59.1334555537" lon="11.5924944509">
		<tag k="name" v="Styggemyr" />
		<tag k="natural" v="wetland" />
		<tag k="ssr:stedsnr" v="536698" />
	</node>
	<node id="-213644" lat="58.95278056" lon="11.6442499963">
		<tag k="name" v="Dalemyr" />
		<tag k="natural" v="wetland" />
		<tag k="ssr:stedsnr" v="232764" />
	</node>
	<node id="-214154" lat="59.0790194469" lon="11.6373444502">
		<tag k="name" v="Taklundmyr" />
		<tag k="natural" v="wetland" />
		<tag k="ssr:stedsnr" v="657759" />
	</node>
	<node id="-214665" lat="58.9977583351" lon="11.596836112">
		<tag k="alt_name" v="Prestebakkmosen" />
		<tag k="name" v="Prestebakkemosen" />
		<tag k="natural" v="wetland" />
		<tag k="ssr:stedsnr" v="790805" />
	</node>
	<node id="-214152" lat="59.2224416622" lon="11.3840500071">
		<tag k="name" v="Stutemosen" />
		<tag k="natural" v="wetland" />
		<tag k="ssr:stedsnr" v="657690" />
	</node>
	<node id="-213639" lat="58.9249527761" lon="11.4806277742">
		<tag k="name" v="Lurkevannsmosen" />
		<tag k="natural" v="wetland" />
		<tag k="ssr:stedsnr" v="232673" />
	</node>
	<node id="-213638" lat="59.1442638911" lon="11.5617111156">
		<tag k="name" v="Bredmosen" />
		<tag k="natural" v="wetland" />
		<tag k="ssr:stedsnr" v="232662" />
	</node>
	<node id="-214149" lat="59.1397083362" lon="11.580272214">
		<tag k="name" v="Langemyr" />
		<tag k="natural" v="wetland" />
		<tag k="ssr:stedsnr" v="657682" />
	</node>
	<node id="-214660" lat="59.0628277777" lon="11.5342166601">
		<tag k="alt_name" v="Blakkmosen" />
		<tag k="name" v="Blokkemosen" />
		<tag k="natural" v="wetland" />
		<tag k="ssr:stedsnr" v="790382" />
	</node>
	<node id="-214145" lat="59.0346361116" lon="11.6363305588">
		<tag k="name" v="Stenslundsmosen" />
		<tag k="natural" v="wetland" />
		<tag k="ssr:stedsnr" v="657946" />
	</node>
	<node id="-213952" lat="59.0738194444" lon="11.5211361044">
		<tag k="name" v="Gullundmosen" />
		<tag k="natural" v="wetland" />
		<tag k="ssr:stedsnr" v="475528" />
	</node>
	<node id="-215729" lat="59.0071500043" lon="11.624311104">
		<tag k="name" v="Bokerødmosen" />
		<tag k="natural" v="wetland" />
		<tag k="ssr:stedsnr" v="547350" />
	</node>
	<node id="-214293" lat="59.0231388848" lon="11.4919361129">
		<tag k="name" v="Sagholen" />
		<tag k="place" v="locality" />
		<tag k="ssr:stedsnr" v="690269" />
	</node>
	<node id="-216188" lat="59.0203388903" lon="11.6469444432">
		<tag k="alt_name" v="Trettermosen" />
		<tag k="name" v="Trettarmosen" />
		<tag k="natural" v="wetland" />
		<tag k="ssr:stedsnr" v="852343" />
	</node>
	<node id="-214292" lat="59.0649916625" lon="11.4365444395">
		<tag k="name" v="Sand" />
		<tag k="place" v="locality" />
		<tag k="ssr:stedsnr" v="690264" />
	</node>
	<node id="-215673" lat="59.080075003" lon="11.5659138836">
		<tag k="name" v="Flisemyr" />
		<tag k="natural" v="wetland" />
		<tag k="ssr:stedsnr" v="536541" />
	</node>
	<node id="-213623" lat="58.967347219" lon="11.5855527861">
		<tag k="name" v="Ekelimosen" />
		<tag k="natural" v="wetland" />
		<tag k="ssr:stedsnr" v="232537" />
	</node>
	<node id="-214134" lat="58.9758305552" lon="11.6046527716">
		<tag k="name" v="Dypmyr" />
		<tag k="natural" v="wetland" />
		<tag k="ssr:stedsnr" v="657591" />
	</node>
	<node id="-216181" lat="59.2300527821" lon="11.4158250035">
		<tag k="alt_name" v="Deilingsmyr" />
		<tag k="name" v="Delingsmyra" />
		<tag k="natural" v="wetland" />
		<tag k="ssr:stedsnr" v="851945" />
	</node>
	<node id="-214206" lat="59.1939527749" lon="11.5530499937">
		<tag k="name" v="Sætermyra" />
		<tag k="natural" v="wetland" />
		<tag k="ssr:stedsnr" v="669047" />
	</node>
	<node id="-216177" lat="59.1287583325" lon="11.5733833412">
		<tag k="alt_name" v="Karismose" />
		<tag k="name" v="Kristismyr" />
		<tag k="natural" v="wetland" />
		<tag k="ssr:stedsnr" v="852048" />
	</node>
	<node id="-214897" lat="58.9850555594" lon="11.4830111089">
		<tag k="name" v="Blakktjernmosen" />
		<tag k="natural" v="wetland" />
		<tag k="ssr:stedsnr" v="22145" />
	</node>
	<node id="-215150" lat="59.2064305536" lon="11.4084555519">
		<tag k="landuse" v="quarry" />
		<tag k="name" v="Korsetgangen gruve" />
		<tag k="old_name" v="Korsetangen" />
		<tag k="ssr:stedsnr" v="123996" />
	</node>
	<node id="-213919" lat="59.1064888907" lon="11.4997000074">
		<tag k="name" v="Kumyrhalsen" />
		<tag k="natural" v="wetland" />
		<tag k="ssr:stedsnr" v="448792" />
	</node>
	<node id="-213780" lat="59.1161388849" lon="11.4989111041">
		<tag k="name" v="Erteholtet" />
		<tag k="place" v="locality" />
		<tag k="ssr:stedsnr" v="265812" />
	</node>
	<node id="-215142" lat="58.9611888906" lon="11.6526527838">
		<tag k="name" v="Nøstemosen" />
		<tag k="natural" v="wetland" />
		<tag k="ssr:stedsnr" v="123857" />
	</node>
	<node id="-215653" lat="58.9527313717" lon="11.6338355116">
		<tag k="name" v="Lille Rabbemosen" />
		<tag k="natural" v="wetland" />
		<tag k="ssr:stedsnr" v="426879" />
	</node>
	<node id="-216164" lat="59.2236611152" lon="11.5086472222">
		<tag k="name" v="Smala" />
		<tag k="natural" v="wetland" />
		<tag k="ssr:stedsnr" v="851140" />
	</node>
	<node id="-214627" lat="58.986236115" lon="11.6537111149">
		<tag k="name" v="Minkemosen" />
		<tag k="natural" v="wetland" />
		<tag k="ssr:stedsnr" v="912812" />
	</node>
	<node id="-213899" lat="59.2156333307" lon="11.5342527833">
		<tag k="name" v="Søndre Breidmose" />
		<tag k="natural" v="wetland" />
		<tag k="ssr:stedsnr" v="244155" />
	</node>
	<node id="-214031" lat="59.0244611087" lon="11.547369451">
		<tag k="name" v="Kallingmosen" />
		<tag k="natural" v="wetland" />
		<tag k="ssr:stedsnr" v="487348" />
	</node>
	<node id="-214103" lat="59.0862694478" lon="11.471941664">
		<tag k="name" v="Skuggestadmyra" />
		<tag k="natural" v="wetland" />
		<tag k="ssr:stedsnr" v="508811" />
	</node>
	<node id="-216150" lat="58.9922833312" lon="11.6378972176">
		<tag k="name" v="Perkemosen" />
		<tag k="natural" v="wetland" />
		<tag k="ssr:stedsnr" v="851789" />
	</node>
	<node id="-216149" lat="58.9976000015" lon="11.5697472217">
		<tag k="name" v="Prestemosen" />
		<tag k="natural" v="wetland" />
		<tag k="ssr:stedsnr" v="851783" />
	</node>
	<node id="-214099" lat="59.0333166626" lon="11.4926944446">
		<tag k="name" v="Langeliholtet" />
		<tag k="place" v="locality" />
		<tag k="ssr:stedsnr" v="507233" />
	</node>
	<node id="-214768" lat="58.9083638898" lon="11.4878111123">
		<tag k="name" v="Torvmosen" />
		<tag k="natural" v="wetland" />
		<tag k="ssr:stedsnr" v="900720" />
	</node>
	<node id="-216143" lat="59.0234972235" lon="11.6794777732">
		<tag k="name" v="Lamosen" />
		<tag k="natural" v="wetland" />
		<tag k="ssr:stedsnr" v="840884" />
	</node>
	<node id="-214094" lat="58.9611916665" lon="11.4718388856">
		<tag k="name" v="Rørmyr" />
		<tag k="natural" v="wetland" />
		<tag k="ssr:stedsnr" v="507149" />
	</node>
	<node id="-216234" lat="58.9262055562" lon="11.6379611078">
		<tag k="name" v="Kattemosen" />
		<tag k="natural" v="wetland" />
		<tag k="ssr:stedsnr" v="961644" />
	</node>
	<node id="-216139" lat="59.1289055533" lon="11.6052055561">
		<tag k="name" v="Elgemosen" />
		<tag k="natural" v="wetland" />
		<tag k="ssr:stedsnr" v="840986" />
	</node>
	<node id="-216135" lat="59.0314999967" lon="11.591380549">
		<tag k="name" v="Lille mose" />
		<tag k="natural" v="wetland" />
		<tag k="ssr:stedsnr" v="840788" />
	</node>
	<node id="-213881" lat="59.0330805547" lon="11.4398222148">
		<tag k="name" v="Bjørnemyr" />
		<tag k="place" v="locality" />
		<tag k="ssr:stedsnr" v="447165" />
	</node>
	<node id="-216246" lat="58.899241665" lon="11.4621527776">
		<tag k="name" v="Årbuengene" />
		<tag k="place" v="locality" />
		<tag k="ssr:stedsnr" v="961900" />
	</node>
	<node id="-214593" lat="59.0092666641" lon="11.5613166706">
		<tag k="alt_name" v="Husmosen" />
		<tag k="name" v="Husemosen" />
		<tag k="natural" v="wetland" />
		<tag k="ssr:stedsnr" v="911347" />
	</node>
	<node id="-216126" lat="59.1241638903" lon="11.5759027749">
		<tag k="name" v="Mørtvikmosen" />
		<tag k="natural" v="wetland" />
		<tag k="ssr:stedsnr" v="840735" />
	</node>
	<node id="-216124" lat="59.2079194487" lon="11.5713333424">
		<tag k="name" v="Bergsmyra" />
		<tag k="natural" v="wetland" />
		<tag k="ssr:stedsnr" v="840720" />
	</node>
	<node id="-215608" lat="59.0893583303" lon="11.6370555634">
		<tag k="name" v="Sørvannsmyr" />
		<tag k="natural" v="wetland" />
		<tag k="ssr:stedsnr" v="415701" />
	</node>
	<node id="-213651" lat="58.9990111106" lon="11.5162194528">
		<tag k="name" v="Mathismose" />
		<tag k="natural" v="wetland" />
		<tag k="ssr:stedsnr" v="232903" />
	</node>
	<node id="-216118" lat="59.0783138869" lon="11.6770499919">
		<tag k="name" v="Tronsholtmyra" />
		<tag k="natural" v="wetland" />
		<tag k="ssr:stedsnr" v="840604" />
	</node>
	<node id="-216117" lat="58.9381249985" lon="11.5430916637">
		<tag k="name" v="Rødsdammen" />
		<tag k="natural" v="wetland" />
		<tag k="ssr:stedsnr" v="840590" />
	</node>
	<node id="-214580" lat="58.9544194469" lon="11.4628638866">
		<tag k="name" v="Snarsmyrene" />
		<tag k="natural" v="wetland" />
		<tag k="ssr:stedsnr" v="750138" />
	</node>
	<node id="-214067" lat="59.0733111155" lon="11.674705552">
		<tag k="name" v="Pottemyr" />
		<tag k="natural" v="wetland" />
		<tag k="ssr:stedsnr" v="354954" />
	</node>
	<node id="-214578" lat="58.9608277734" lon="11.4845916745">
		<tag k="name" v="Svineklev" />
		<tag k="place" v="locality" />
		<tag k="ssr:stedsnr" v="750133" />
	</node>
	<node id="-215475" lat="59.2382749955" lon="11.3997250059">
		<tag k="name" v="Tømmermyr" />
		<tag k="natural" v="wetland" />
		<tag k="ssr:stedsnr" v="365585" />
	</node>
	<node id="-214576" lat="58.988063887" lon="11.4902833315">
		<tag k="name" v="Inntakene" />
		<tag k="place" v="locality" />
		<tag k="ssr:stedsnr" v="750126" />
	</node>
	<node id="-213778" lat="59.0274083294" lon="11.4829722253">
		<tag k="name" v="Vardåsmyr" />
		<tag k="natural" v="wetland" />
		<tag k="ssr:stedsnr" v="265255" />
	</node>
	<node id="-215086" lat="59.2095000039" lon="11.5609388878">
		<tag k="name" v="Langmyra" />
		<tag k="natural" v="wetland" />
		<tag k="ssr:stedsnr" v="111993" />
	</node>
	<node id="-215596" lat="58.9359527753" lon="11.563841661">
		<tag k="name" v="Bredmosen" />
		<tag k="natural" v="wetland" />
		<tag k="ssr:stedsnr" v="415635" />
	</node>
	<node id="-216107" lat="59.2208527755" lon="11.4188527695">
		<tag k="name" v="Dammyr" />
		<tag k="natural" v="wetland" />
		<tag k="ssr:stedsnr" v="811842" />
	</node>
	<node id="-215594" lat="58.9396166662" lon="11.5739694463">
		<tag k="name" v="Krokmosene" />
		<tag k="natural" v="wetland" />
		<tag k="ssr:stedsnr" v="415622" />
	</node>
	<node id="-215593" lat="58.8981583311" lon="11.5995861144">
		<tag k="name" v="Branntjernmyr" />
		<tag k="natural" v="wetland" />
		<tag k="ssr:stedsnr" v="415615" />
	</node>
	<node id="-214568" lat="58.9835333302" lon="11.5067722229">
		<tag k="name" v="Glennemosen" />
		<tag k="natural" v="wetland" />
		<tag k="ssr:stedsnr" v="900933" />
	</node>
	<node id="-215079" lat="59.0945805577" lon="11.5452222145">
		<tag k="name" v="Mellemmyr" />
		<tag k="natural" v="wetland" />
		<tag k="ssr:stedsnr" v="111978" />
	</node>
	<node id="-214565" lat="59.1364388883" lon="11.5134666737">
		<tag k="name" v="Blæsemyra" />
		<tag k="natural" v="wetland" />
		<tag k="ssr:stedsnr" v="900976" />
	</node>
	<node id="-215075" lat="59.1177388868" lon="11.5320694432">
		<tag k="name" v="Trolldalsmyra" />
		<tag k="natural" v="wetland" />
		<tag k="ssr:stedsnr" v="111963" />
	</node>
	<node id="-215072" lat="58.9225666703" lon="11.6149888978">
		<tag k="name" v="Holevannsmosen" />
		<tag k="natural" v="wetland" />
		<tag k="ssr:stedsnr" v="111766" />
	</node>
	<node id="-216095" lat="59.083266668" lon="11.4916194383">
		<tag k="name" v="Bjørkesten" />
		<tag k="place" v="locality" />
		<tag k="ssr:stedsnr" v="811787" />
	</node>
	<node id="-215582" lat="59.064722219" lon="11.586175004">
		<tag k="name" v="Sørmosen" />
		<tag k="natural" v="wetland" />
		<tag k="ssr:stedsnr" v="415554" />
	</node>
	<node id="-215069" lat="59.0166277818" lon="11.6601444394">
		<tag k="name" v="Persmosen" />
		<tag k="natural" v="wetland" />
		<tag k="ssr:stedsnr" v="111694" />
	</node>
	<node id="-213658" lat="59.0898194473" lon="11.6491555597">
		<tag k="name" v="Stenkloppmyr" />
		<tag k="natural" v="wetland" />
		<tag k="ssr:stedsnr" v="232942" />
	</node>
	<node id="-215578" lat="59.0853444442" lon="11.5828722141">
		<tag k="name" v="Dyvelmosen" />
		<tag k="natural" v="wetland" />
		<tag k="ssr:stedsnr" v="414974" />
	</node>
	<node id="-216239" lat="58.9761250041" lon="11.5842111165">
		<tag k="loc_name" v="Torsteinsetmosen" />
		<tag k="name" v="Torstensetmosen" />
		<tag k="natural" v="wetland" />
		<tag k="ssr:stedsnr" v="961847" />
	</node>
	<node id="-215576" lat="59.095438892" lon="11.5750055586">
		<tag k="name" v="Aspelundmyr" />
		<tag k="natural" v="wetland" />
		<tag k="ssr:stedsnr" v="414967" />
	</node>
	<node id="-214020" lat="59.2147333315" lon="11.548819443">
		<tag k="alt_name" v="Langemyra" />
		<tag k="name" v="Langmyr" />
		<tag k="natural" v="wetland" />
		<tag k="ssr:stedsnr" v="487161" />
	</node>
	<node id="-215061" lat="59.055916664" lon="11.594669446">
		<tag k="name" v="Gråtermosen" />
		<tag k="natural" v="wetland" />
		<tag k="ssr:stedsnr" v="111496" />
	</node>
	<node id="-216084" lat="59.0093555517" lon="11.4550277811">
		<tag k="landuse" v="meadow" />
		<tag k="name" v="Jersenga" />
		<tag k="ssr:stedsnr" v="811227" />
	</node>
	<node id="-214547" lat="58.9894111111" lon="11.5090083293">
		<tag k="name" v="Lindemosen" />
		<tag k="natural" v="wetland" />
		<tag k="ssr:stedsnr" v="900885" />
	</node>
	<node id="-215568" lat="58.9951361134" lon="11.5227111056">
		<tag k="name" v="Holtemyr" />
		<tag k="natural" v="wetland" />
		<tag k="ssr:stedsnr" v="414893" />
	</node>
	<node id="-216079" lat="59.1401344198" lon="11.3580267112">
		<tag k="name" v="Fruminde" />
		<tag k="place" v="locality" />
		<tag k="ssr:stedsnr" v="811198" />
	</node>
	<node id="-214542" lat="59.0488833339" lon="11.6245166747">
		<tag k="name" v="Ringlundsmosen" />
		<tag k="natural" v="wetland" />
		<tag k="ssr:stedsnr" v="900542" />
	</node>
	<node id="-215564" lat="58.977583338" lon="11.546922217">
		<tag k="name" v="Risle" />
		<tag k="natural" v="wetland" />
		<tag k="ssr:stedsnr" v="414872" />
	</node>
	<node id="-215050" lat="58.9345694477" lon="11.6256333265">
		<tag k="name" v="Vardemosen" />
		<tag k="natural" v="wetland" />
		<tag k="ssr:stedsnr" v="111599" />
	</node>
	<node id="-215560" lat="59.0289555572" lon="11.5070111175">
		<tag k="name" v="Buermosen" />
		<tag k="natural" v="wetland" />
		<tag k="ssr:stedsnr" v="414706" />
	</node>
	<node id="-215557" lat="59.1019416634" lon="11.6021305623">
		<tag k="name" v="Rundemose" />
		<tag k="natural" v="wetland" />
		<tag k="ssr:stedsnr" v="414570" />
	</node>
	<node id="-215556" lat="59.1094638861" lon="11.6095833299">
		<tag k="name" v="Ormetjernshølet" />
		<tag k="natural" v="wetland" />
		<tag k="ssr:stedsnr" v="414566" />
	</node>
	<node id="-216067" lat="58.9506111108" lon="11.5377249988">
		<tag k="name" v="Steirødmosen" />
		<tag k="natural" v="wetland" />
		<tag k="ssr:stedsnr" v="791857" />
	</node>
	<node id="-214646" lat="59.1238166679" lon="11.6247750048">
		<tag k="name" v="Storemose" />
		<tag k="natural" v="wetland" />
		<tag k="ssr:stedsnr" v="913044" />
	</node>
	<node id="-216171" lat="59.0492777741" lon="11.6281222246">
		<tag k="name" v="Ringlundsmosene" />
		<tag k="natural" v="wetland" />
		<tag k="ssr:stedsnr" v="851395" />
	</node>
</osm>
