<?xml version="1.0" encoding="UTF-8"?>
<<<<<<< HEAD
<osm version="0.6" generator="osmapis">
	<node lat="59.11058333595494" lon="11.206083339202369" id="-11710">
		<tag k="fixme" v="consider seamark:type=rock or natural=shoal" />
		<tag k="name" v="Søndre Flatskjær" />
		<tag k="place" v="islet" />
		<tag k="ssr:stedsnr" v="22003" />
	</node>
	<node lat="59.072269442553925" lon="11.408419437551203" id="-11724">
		<tag k="name" v="Furuvarpbukta" />
		<tag k="natural" v="bay" />
		<tag k="ssr:stedsnr" v="237427" />
	</node>
	<node lat="59.09683333650988" lon="11.26181388514395" id="-11805">
		<tag k="name" v="Svinesund" />
		<tag k="natural" v="strait" />
		<tag k="ssr:stedsnr" v="83041" />
	</node>
	<node lat="59.092591669795205" lon="11.234391674390588" id="-11806">
		<tag k="name" v="Mølbukta" />
=======
<osm generator="osmapis" version="0.6">
	<node id="-214656" lat="59.0585249977" lon="11.4093499921">
		<tag k="name" v="Skriverøya" />
		<tag k="natural" v="cape" />
		<tag k="ssr:stedsnr" v="790182" />
	</node>
	<node id="-215935" lat="59.064469448" lon="11.43036945">
		<tag k="name" v="Langholmen" />
		<tag k="place" v="islet" />
		<tag k="ssr:stedsnr" v="628222" />
	</node>
	<node id="-215550" lat="59.1197638899" lon="11.367719443">
		<tag k="name" v="Gryta" />
>>>>>>> e1d4bc35ff8a6074a6f2e91616a996b547c36f15
		<tag k="natural" v="bay" />
		<tag k="ssr:stedsnr" v="83044" />
	</node>
<<<<<<< HEAD
	<node lat="59.001261113714946" lon="11.466491662930945" id="-11853">
		<tag k="name" v="Brekkelandet" />
		<tag k="natural" v="beach" />
		<tag k="ssr:stedsnr" v="119116" />
	</node>
	<node lat="59.11771110723064" lon="11.323233338372837" id="-11854">
		<tag k="name" v="Marmorvika" />
		<tag k="natural" v="bay" />
		<tag k="ssr:stedsnr" v="119504" />
	</node>
	<node lat="59.09543889062037" lon="11.214083326578658" id="-11883">
		<tag k="name" v="Pina" />
		<tag k="natural" v="bay" />
		<tag k="ssr:stedsnr" v="143043" />
	</node>
	<node lat="59.10129166358098" lon="11.280219449364926" id="-11887">
=======
	<node id="-215164" lat="59.1012916636" lon="11.2802194494">
>>>>>>> e1d4bc35ff8a6074a6f2e91616a996b547c36f15
		<tag k="name" v="Blåsoppbukta" />
		<tag k="natural" v="bay" />
		<tag k="ssr:stedsnr" v="143140" />
	</node>
<<<<<<< HEAD
	<node lat="58.98860555831746" lon="11.470622219810947" id="-11932">
		<tag k="name" v="Folkå" />
		<tag k="natural" v="beach" />
		<tag k="ssr:stedsnr" v="264165" />
	</node>
	<node lat="59.109441664545976" lon="11.299272220791487" id="-11944">
		<tag k="alt_name" v="Svartholet" />
		<tag k="name" v="Svartehølet" />
=======
	<node id="-215162" lat="59.0954388906" lon="11.2140833266">
		<tag k="name" v="Pina" />
>>>>>>> e1d4bc35ff8a6074a6f2e91616a996b547c36f15
		<tag k="natural" v="bay" />
		<tag k="ssr:stedsnr" v="265179" />
	</node>
<<<<<<< HEAD
	<node lat="59.098416665733204" lon="11.219372227911665" id="-11964">
		<tag k="name" v="Soldatodden" />
		<tag k="natural" v="cape" />
		<tag k="ssr:stedsnr" v="221206" />
	</node>
	<node lat="59.09951111099599" lon="11.20159722526926" id="-11992">
		<tag k="name" v="Lille Mørvikholmen" />
		<tag k="place" v="islet" />
		<tag k="ssr:stedsnr" v="242380" />
	</node>
	<node lat="59.1205499993791" lon="11.213674995776788" id="-12061">
		<tag k="name" v="Røsneskilen" />
		<tag k="natural" v="bay" />
		<tag k="ssr:stedsnr" v="304886" />
	</node>
	<node lat="59.06212305074066" lon="11.428618579429404" id="-12063">
		<tag k="alt_name" v="Ystehedkilen" />
		<tag k="name" v="Ystehedekilen" />
=======
	<node id="-214655" lat="59.0546277734" lon="11.4216500013">
		<tag k="alt_name" v="Ystehedneset" />
		<tag k="name" v="Ystehedeneset" />
		<tag k="natural" v="cape" />
		<tag k="ssr:stedsnr" v="790176" />
	</node>
	<node id="-213879" lat="59.1148472186" lon="11.3161138845">
		<tag k="name" v="Rysseodden" />
		<tag k="natural" v="cape" />
		<tag k="ssr:stedsnr" v="447155" />
	</node>
	<node id="-214262" lat="59.0928739912" lon="11.2366889527">
		<tag k="name" v="Mølen" />
		<tag k="natural" v="beach" />
		<tag k="place" v="locality" />
		<tag k="ssr:stedsnr" v="508052" />
	</node>
	<node id="-215412" lat="59.0922444442" lon="11.2003972188">
		<tag k="name" v="Mørvikodden" />
		<tag k="natural" v="cape" />
		<tag k="ssr:stedsnr" v="343260" />
	</node>
	<node id="-215294" lat="59.1119611118" lon="11.3744083328">
		<tag k="name" v="Lusebukta" />
		<tag k="natural" v="bay" />
		<tag k="ssr:stedsnr" v="204122" />
	</node>
	<node id="-214898" lat="59.1100666638" lon="11.3027222184">
		<tag k="name" v="Unnebergstranda" />
		<tag k="natural" v="beach" />
		<tag k="place" v="locality" />
		<tag k="ssr:stedsnr" v="22149" />
	</node>
	<node id="-214000" lat="59.1121388924" lon="11.3856750042">
		<tag k="name" v="Eskevika" />
		<tag k="natural" v="bay" />
		<tag k="ssr:stedsnr" v="480750" />
	</node>
	<node id="-215791" lat="59.0909055543" lon="11.2272916579">
		<tag k="alt_name" v="Sponviken" />
		<tag k="name" v="Sponvika" />
>>>>>>> e1d4bc35ff8a6074a6f2e91616a996b547c36f15
		<tag k="natural" v="bay" />
		<tag k="ssr:stedsnr" v="305205" />
	</node>
<<<<<<< HEAD
	<node lat="59.11332499912154" lon="11.357624991707722" id="-12071">
		<tag k="name" v="Brattøya" />
		<tag k="place" v="island" />
		<tag k="ssr:stedsnr" v="305860" />
	</node>
	<node lat="59.092244444182" lon="11.20039721877237" id="-12089">
		<tag k="name" v="Mørvikodden" />
		<tag k="natural" v="cape" />
		<tag k="ssr:stedsnr" v="343260" />
	</node>
	<node lat="59.04812777467155" lon="11.420608332914702" id="-12110">
		<tag k="name" v="Kaldraholmen" />
		<tag k="place" v="islet" />
		<tag k="ssr:stedsnr" v="357104" />
	</node>
	<node lat="59.08577499994509" lon="11.38934445012592" id="-12186">
		<tag k="name" v="Brottsholt" />
		<tag k="natural" v="cape" />
		<tag k="ssr:stedsnr" v="480440" />
	</node>
	<node lat="59.11213889244234" lon="11.385675004225426" id="-12187">
		<tag k="name" v="Eskevika" />
		<tag k="natural" v="bay" />
		<tag k="ssr:stedsnr" v="480750" />
	</node>
	<node lat="59.0919583353543" lon="11.233836107377064" id="-12193">
		<tag k="name" v="Skjæret" />
		<tag k="natural" v="cape" />
		<tag k="ssr:stedsnr" v="386054" />
	</node>
	<node lat="59.03550000431375" lon="11.430724998524433" id="-12227">
		<tag k="name" v="Skotteneholmen" />
		<tag k="place" v="islet" />
		<tag k="ssr:stedsnr" v="487227" />
	</node>
	<node lat="59.09589962044476" lon="11.384509034794005" id="-12241">
		<tag k="alt_name" v="Engevik" />
		<tag k="name" v="Engevika" />
		<tag k="natural" v="bay" />
		<tag k="ssr:stedsnr" v="487828" />
	</node>
	<node lat="59.092275003420255" lon="11.218397216805077" id="-12283">
		<tag k="name" v="Kjeøya" />
		<tag k="natural" v="cape" />
		<tag k="ssr:stedsnr" v="426192" />
	</node>
	<node lat="59.1137250038904" lon="11.323824995269879" id="-12305">
		<tag k="name" v="Knivsøya" />
		<tag k="place" v="islet" />
		<tag k="ssr:stedsnr" v="427816" />
	</node>
	<node lat="59.09756666750121" lon="11.200250007517665" id="-12354">
		<tag k="name" v="Mørviksundet" />
		<tag k="natural" v="strait" />
		<tag k="ssr:stedsnr" v="493831" />
	</node>
	<node lat="59.11798889247701" lon="11.362144451515805" id="-12481">
		<tag k="name" v="Hollenderen" />
		<tag k="natural" v="cape" />
		<tag k="ssr:stedsnr" v="601052" />
	</node>
	<node lat="59.08944722365503" lon="11.212736118782535" id="-12540">
		<tag k="fixme" v="consider seamark:type=rock or natural=shoal" />
		<tag k="name" v="Kjeskjæret" />
		<tag k="place" v="islet" />
		<tag k="ssr:stedsnr" v="646275" />
	</node>
	<node lat="59.09009166847208" lon="11.22710833347378" id="-12541">
=======
	<node id="-214382" lat="59.0994771238" lon="11.200260305">
		<tag k="name" v="Mørvikholmene" />
		<tag k="place" v="island" />
		<tag k="ssr:stedsnr" v="607808" />
	</node>
	<node id="-216208" lat="59.0960222253" lon="11.2035944442">
		<tag k="name" v="Mørvikodden" />
		<tag k="natural" v="cape" />
		<tag k="ssr:stedsnr" v="872045" />
	</node>
	<node id="-213611" lat="59.110583336" lon="11.2060833392">
		<tag k="fixme" v="consider seamark:type=rock or natural=shoal" />
		<tag k="name" v="Søndre Flatskjær" />
		<tag k="place" v="islet" />
		<tag k="ssr:stedsnr" v="22003" />
	</node>
	<node id="-213994" lat="59.0941388873" lon="11.2239222173">
		<tag k="name" v="Korterødkilen" />
		<tag k="natural" v="bay" />
		<tag k="ssr:stedsnr" v="326043" />
	</node>
	<node id="-214121" lat="59.1137250039" lon="11.3238249953">
		<tag k="name" v="Knivsøya" />
		<tag k="place" v="islet" />
		<tag k="ssr:stedsnr" v="427816" />
	</node>
	<node id="-216166" lat="59.0512777809" lon="11.4149361122">
		<tag k="fixme" v="consider seamark:type=rock or natural=shoal" />
		<tag k="name" v="Kuskjæra" />
		<tag k="place" v="islet" />
		<tag k="ssr:stedsnr" v="851189" />
	</node>
	<node id="-213860" lat="59.0913444417" lon="11.3859944525">
		<tag k="name" v="Galten" />
		<tag k="natural" v="cape" />
		<tag k="ssr:stedsnr" v="297134" />
	</node>
	<node id="-214758" lat="59.1102555582" lon="11.3797972141">
		<tag k="name" v="Sauøysundet" />
		<tag k="natural" v="strait" />
		<tag k="ssr:stedsnr" v="872169" />
	</node>
	<node id="-215263" lat="59.1122944407" lon="11.210086109">
		<tag k="fixme" v="consider seamark:type=rock or natural=shoal" />
		<tag k="name" v="Flatskjæra" />
		<tag k="place" v="islet" />
		<tag k="ssr:stedsnr" v="183846" />
	</node>
	<node id="-215388" lat="59.1185166653" lon="11.3341472298">
		<tag k="name" v="Sorgenfribukta" />
		<tag k="natural" v="bay" />
		<tag k="ssr:stedsnr" v="325168" />
	</node>
	<node id="-214234" lat="59.1132250004" lon="11.3780111097">
		<tag k="name" v="Sauøya" />
		<tag k="place" v="islet" />
		<tag k="ssr:stedsnr" v="669846" />
	</node>
	<node id="-214683" lat="59.1019027766" lon="11.2861166627">
		<tag k="name" v="Kråkenebbet" />
		<tag k="natural" v="cape" />
		<tag k="ssr:stedsnr" v="932165" />
	</node>
	<node id="-214436" lat="59.0737518204" lon="11.3968138417">
		<tag k="alt_name" v="Kjelvik" />
		<tag k="name" v="Kjellvik" />
		<tag k="natural" v="bay" />
		<tag k="ssr:stedsnr" v="730192" />
	</node>
	<node id="-213758" lat="58.9886055583" lon="11.4706222198">
		<tag k="name" v="Folkå" />
		<tag k="natural" v="beach" />
		<tag k="place" v="locality" />
		<tag k="ssr:stedsnr" v="264165" />
	</node>
	<node id="-215963" lat="59.0966749957" lon="11.2181805612">
		<tag k="alt_name" v="Sildebogen" />
		<tag k="name" v="Sildebauen" />
		<tag k="natural" v="bay" />
		<tag k="ssr:stedsnr" v="750030" />
	</node>
	<node id="-215379" lat="59.0904805534" lon="11.2311194406">
		<tag k="name" v="Tangen" />
		<tag k="natural" v="cape" />
		<tag k="ssr:stedsnr" v="325041" />
	</node>
	<node id="-214095" lat="59.1037888845" lon="11.3745222258">
		<tag k="name" v="Rødnabbene" />
		<tag k="natural" v="cape" />
		<tag k="ssr:stedsnr" v="507154" />
	</node>
	<node id="-215629" lat="59.0922750034" lon="11.2183972168">
		<tag k="name" v="Kjeøya" />
		<tag k="natural" v="cape" />
		<tag k="ssr:stedsnr" v="426192" />
	</node>
	<node id="-214476" lat="59.0900916685" lon="11.2271083335">
>>>>>>> e1d4bc35ff8a6074a6f2e91616a996b547c36f15
		<tag k="name" v="Vakttangen" />
		<tag k="natural" v="cape" />
		<tag k="ssr:stedsnr" v="646277" />
	</node>
<<<<<<< HEAD
	<node lat="59.11451388659071" lon="11.2120416612964" id="-12610">
		<tag k="name" v="Furuholmen" />
=======
	<node id="-214475" lat="59.0894472237" lon="11.2127361188">
		<tag k="fixme" v="consider seamark:type=rock or natural=shoal" />
		<tag k="name" v="Kjeskjæret" />
>>>>>>> e1d4bc35ff8a6074a6f2e91616a996b547c36f15
		<tag k="place" v="islet" />
		<tag k="ssr:stedsnr" v="690029" />
	</node>
<<<<<<< HEAD
	<node lat="59.10746111399815" lon="11.297697221767937" id="-12616">
		<tag k="name" v="Laura" />
		<tag k="place" v="islet" />
		<tag k="ssr:stedsnr" v="690188" />
	</node>
	<node lat="59.10826944742529" lon="11.29886944786656" id="-12617">
		<tag k="name" v="Ragnhild" />
=======
	<node id="-214602" lat="59.0993999979" lon="11.1817249915">
		<tag k="name" v="Grisen" />
		<tag k="natural" v="shoal" />
		<tag k="place" v="locality" />
		<tag k="ssr:stedsnr" v="911828" />
	</node>
	<node id="-214647" lat="59.0996694488" lon="11.2012583414">
		<tag k="name" v="Lille Mørvikholmen" />
		<tag k="place" v="islet" />
		<tag k="ssr:stedsnr" v="767262" />
	</node>
	<node id="-215878" lat="59.1179888925" lon="11.3621444515">
		<tag k="name" v="Hollenderen" />
>>>>>>> e1d4bc35ff8a6074a6f2e91616a996b547c36f15
		<tag k="natural" v="cape" />
		<tag k="ssr:stedsnr" v="690190" />
	</node>
<<<<<<< HEAD
	<node lat="59.107950001678006" lon="11.297433341780907" id="-12618">
		<tag k="name" v="Åletrekk" />
		<tag k="natural" v="strait" />
		<tag k="ssr:stedsnr" v="690191" />
	</node>
	<node lat="59.01378610927595" lon="11.4498472263095" id="-12653">
		<tag k="name" v="Byhella" />
		<tag k="natural" v="beach" />
		<tag k="ssr:stedsnr" v="726091" />
	</node>
	<node lat="59.108150002983116" lon="11.30067499466647" id="-12682">
		<tag k="name" v="Unnebergholmene" />
		<tag k="place" v="islet" />
		<tag k="ssr:stedsnr" v="729837" />
	</node>
	<node lat="59.072049996524576" lon="11.405350004206861" id="-12690">
		<tag k="name" v="Torpbukta" />
		<tag k="natural" v="bay" />
		<tag k="ssr:stedsnr" v="730215" />
	</node>
	<node lat="59.11394166694737" lon="11.206725003977818" id="-12713">
		<tag k="fixme" v="consider seamark:type=rock or natural=shoal" />
		<tag k="name" v="Flatskjær" />
		<tag k="place" v="islet" />
		<tag k="ssr:stedsnr" v="750001" />
	</node>
	<node lat="58.98104999576731" lon="11.473727784555235" id="-12715">
		<tag k="alt_name" v="Berbytangen" />
		<tag k="name" v="Tangholmen" />
=======
	<node id="-215108" lat="58.9933611116" lon="11.4595111033">
		<tag k="bay" v="fjord" />
		<tag k="name" v="Iddefjorden" />
		<tag k="natural" v="bay" />
		<tag k="ssr:stedsnr" v="122783" />
	</node>
	<node id="-214027" lat="59.0355000043" lon="11.4307249985">
		<tag k="name" v="Skotteneholmen" />
		<tag k="place" v="islet" />
		<tag k="ssr:stedsnr" v="487227" />
	</node>
	<node id="-216256" lat="59.0610027801" lon="11.4127416721">
		<tag k="name" v="Skriverøybukta" />
		<tag k="natural" v="bay" />
		<tag k="ssr:stedsnr" v="965433" />
	</node>
	<node id="-215103" lat="59.0902750011" lon="11.211575008">
		<tag k="name" v="Kjetangen" />
		<tag k="natural" v="cape" />
		<tag k="ssr:stedsnr" v="122196" />
	</node>
	<node id="-213949" lat="59.1133249991" lon="11.3576249917">
		<tag k="name" v="Brattøya" />
		<tag k="place" v="island" />
		<tag k="ssr:stedsnr" v="305860" />
	</node>
	<node id="-214076" lat="59.0919583354" lon="11.2338361074">
		<tag k="name" v="Skjæret" />
>>>>>>> e1d4bc35ff8a6074a6f2e91616a996b547c36f15
		<tag k="natural" v="cape" />
		<tag k="ssr:stedsnr" v="750121" />
	</node>
<<<<<<< HEAD
	<node lat="59.10190277661314" lon="11.286116662673425" id="-12880">
		<tag k="name" v="Kråkenebbet" />
		<tag k="natural" v="cape" />
		<tag k="ssr:stedsnr" v="932165" />
	</node>
	<node lat="59.10878055373649" lon="11.310811103224125" id="-12883">
		<tag k="bay" v="fjord" />
		<tag k="name" v="Ringdalsfjorden" />
=======
	<node id="-215482" lat="59.104550001" lon="11.2928249932">
		<tag k="fixme" v="consider seamark:type=rock or natural=shoal" />
		<tag k="name" v="Danmarkskjær" />
		<tag k="place" v="islet" />
		<tag k="ssr:stedsnr" v="365856" />
	</node>
	<node id="-213945" lat="59.0961749976" lon="11.2121527817">
		<tag k="name" v="Svalerødkilen" />
		<tag k="natural" v="bay" />
		<tag k="ssr:stedsnr" v="305831" />
	</node>
	<node id="-213688" lat="59.099511111" lon="11.2015972253">
		<tag k="name" v="Lille Mørvikholmen" />
		<tag k="place" v="islet" />
		<tag k="ssr:stedsnr" v="242380" />
	</node>
	<node id="-214455" lat="59.0720499965" lon="11.4053500042">
		<tag k="name" v="Torpbukta" />
>>>>>>> e1d4bc35ff8a6074a6f2e91616a996b547c36f15
		<tag k="natural" v="bay" />
		<tag k="ssr:stedsnr" v="932180" />
	</node>
<<<<<<< HEAD
	<node lat="59.01243888872345" lon="11.450797218704684" id="-12916">
=======
	<node id="-214582" lat="59.0124388887" lon="11.4507972187">
>>>>>>> e1d4bc35ff8a6074a6f2e91616a996b547c36f15
		<tag k="name" v="Bakkebukta" />
		<tag k="natural" v="bay" />
		<tag k="ssr:stedsnr" v="908114" />
	</node>
<<<<<<< HEAD
	<node lat="59.099399997901436" lon="11.181724991544678" id="-12922">
		<tag k="name" v="Grisen" />
		<tag k="natural" v="shoal" />
		<tag k="place" v="locality" />
		<tag k="ssr:stedsnr" v="911828" />
	</node>
	<node lat="59.115663889474085" lon="11.322175004349749" id="-12949">
		<tag k="name" v="Knivsøyholmene" />
		<tag k="place" v="islet" />
		<tag k="ssr:stedsnr" v="932191" />
	</node>
	<node lat="59.06100278014828" lon="11.412741672074269" id="-12976">
		<tag k="name" v="Skriverøybukta" />
=======
	<node id="-213769" lat="59.1094416645" lon="11.2992722208">
		<tag k="alt_name" v="Svartholet" />
		<tag k="name" v="Svartehølet" />
		<tag k="natural" v="bay" />
		<tag k="ssr:stedsnr" v="265179" />
	</node>
	<node id="-215089" lat="59.0012611137" lon="11.4664916629">
		<tag k="name" v="Brekkelandet" />
		<tag k="natural" v="beach" />
		<tag k="place" v="locality" />
		<tag k="ssr:stedsnr" v="119116" />
	</node>
	<node id="-215090" lat="59.1177111072" lon="11.3232333384">
		<tag k="name" v="Marmorvika" />
>>>>>>> e1d4bc35ff8a6074a6f2e91616a996b547c36f15
		<tag k="natural" v="bay" />
		<tag k="ssr:stedsnr" v="965433" />
	</node>
<<<<<<< HEAD
	<node lat="59.110066663845444" lon="11.302722218374067" id="-13032">
		<tag k="name" v="Unnebergstranda" />
		<tag k="natural" v="beach" />
		<tag k="ssr:stedsnr" v="22149" />
	</node>
	<node lat="59.09590555845375" lon="11.19385833404314" id="-13041">
		<tag k="name" v="Bjørnestøtta" />
		<tag k="place" v="locality" />
		<tag k="seamark:type" v="rock" />
		<tag k="ssr:stedsnr" v="39222" />
	</node>
	<node lat="59.10865833386272" lon="11.366847227615203" id="-13074">
		<tag k="fixme" v="consider seamark:type=rock or natural=shoal" />
		<tag k="name" v="Kuskjær" />
		<tag k="place" v="islet" />
		<tag k="ssr:stedsnr" v="58256" />
	</node>
	<node lat="59.024680555952294" lon="11.444419443777" id="-13174">
=======
	<node id="-215027" lat="59.0925916698" lon="11.2343916744">
		<tag k="name" v="Mølbukta" />
		<tag k="natural" v="bay" />
		<tag k="ssr:stedsnr" v="83044" />
	</node>
	<node id="-215088" lat="59.0928333336" lon="11.2421805597">
		<tag k="name" v="Mølodden" />
		<tag k="natural" v="cape" />
		<tag k="ssr:stedsnr" v="118893" />
	</node>
	<node id="-215087" lat="59.024680556" lon="11.4444194438">
>>>>>>> e1d4bc35ff8a6074a6f2e91616a996b547c36f15
		<tag k="name" v="Liholtbogen" />
		<tag k="natural" v="bay" />
		<tag k="ssr:stedsnr" v="116072" />
	</node>
<<<<<<< HEAD
	<node lat="59.092833333562076" lon="11.24218055969619" id="-13175">
		<tag k="name" v="Mølodden" />
=======
	<node id="-214574" lat="58.9810499958" lon="11.4737277846">
		<tag k="alt_name" v="Berbytangen" />
		<tag k="name" v="Tangholmen" />
>>>>>>> e1d4bc35ff8a6074a6f2e91616a996b547c36f15
		<tag k="natural" v="cape" />
		<tag k="ssr:stedsnr" v="118893" />
	</node>
<<<<<<< HEAD
	<node lat="59.090275001054756" lon="11.211575008045449" id="-13186">
		<tag k="name" v="Kjetangen" />
		<tag k="natural" v="cape" />
		<tag k="ssr:stedsnr" v="122196" />
	</node>
	<node lat="58.99336111158796" lon="11.459511103280326" id="-13188">
		<tag k="bay" v="fjord" />
		<tag k="name" v="Iddefjorden" />
		<tag k="natural" v="bay" />
		<tag k="ssr:stedsnr" v="122783" />
	</node>
	<node lat="59.10437499575047" lon="11.189977778481321" id="-13291">
=======
	<node id="-214072" lat="59.0975666675" lon="11.2002500075">
		<tag k="name" v="Mørviksundet" />
		<tag k="natural" v="strait" />
		<tag k="ssr:stedsnr" v="493831" />
	</node>
	<node id="-215026" lat="59.0968333365" lon="11.2618138851">
		<tag k="name" v="Svinesund" />
		<tag k="natural" v="strait" />
		<tag k="ssr:stedsnr" v="83041" />
	</node>
	<node id="-214440" lat="59.108150003" lon="11.3006749947">
		<tag k="name" v="Unnebergholmene" />
		<tag k="place" v="islet" />
		<tag k="ssr:stedsnr" v="729837" />
	</node>
	<node id="-215260" lat="59.1043749958" lon="11.1899777785">
>>>>>>> e1d4bc35ff8a6074a6f2e91616a996b547c36f15
		<tag k="name" v="Hatten" />
		<tag k="natural" v="shoal" />
		<tag k="place" v="locality" />
		<tag k="ssr:stedsnr" v="183834" />
	</node>
<<<<<<< HEAD
	<node lat="59.11229444073199" lon="11.210086109014748" id="-13294">
		<tag k="fixme" v="consider seamark:type=rock or natural=shoal" />
		<tag k="name" v="Flatskjæra" />
		<tag k="place" v="islet" />
		<tag k="ssr:stedsnr" v="183846" />
	</node>
	<node lat="59.111961111804" lon="11.37440833279808" id="-13321">
		<tag k="name" v="Lusebukta" />
=======
	<node id="-213681" lat="59.0722694426" lon="11.4084194376">
		<tag k="name" v="Furuvarpbukta" />
		<tag k="natural" v="bay" />
		<tag k="ssr:stedsnr" v="237427" />
	</node>
	<node id="-215332" lat="59.0621230507" lon="11.4286185794">
		<tag k="alt_name" v="Ystehedkilen" />
		<tag k="name" v="Ystehedekilen" />
>>>>>>> e1d4bc35ff8a6074a6f2e91616a996b547c36f15
		<tag k="natural" v="bay" />
		<tag k="ssr:stedsnr" v="204122" />
	</node>
<<<<<<< HEAD
	<node lat="59.09834722594619" lon="11.198116675410791" id="-13335">
		<tag k="name" v="Store Mørvikholmen" />
		<tag k="place" v="islet" />
		<tag k="ssr:stedsnr" v="282246" />
	</node>
	<node lat="59.091344441685436" lon="11.385994452512609" id="-13373">
		<tag k="name" v="Galten" />
		<tag k="natural" v="cape" />
		<tag k="ssr:stedsnr" v="297134" />
	</node>
	<node lat="58.99061111208755" lon="11.468116668376533" id="-13375">
		<tag k="name" v="Brekkeodden" />
		<tag k="natural" v="cape" />
		<tag k="ssr:stedsnr" v="301107" />
	</node>
	<node lat="59.096174997623216" lon="11.21215278171039" id="-13416">
		<tag k="name" v="Svalerødkilen" />
		<tag k="natural" v="bay" />
		<tag k="ssr:stedsnr" v="305831" />
	</node>
	<node lat="59.09048055336797" lon="11.231119440592215" id="-13427">
		<tag k="name" v="Tangen" />
		<tag k="natural" v="cape" />
		<tag k="ssr:stedsnr" v="325041" />
	</node>
	<node lat="59.118516665274036" lon="11.334147229800838" id="-13429">
		<tag k="name" v="Sorgenfribukta" />
		<tag k="natural" v="bay" />
		<tag k="ssr:stedsnr" v="325168" />
	</node>
	<node lat="59.094138887259504" lon="11.223922217333227" id="-13447">
		<tag k="name" v="Korterødkilen" />
		<tag k="natural" v="bay" />
		<tag k="ssr:stedsnr" v="326043" />
	</node>
	<node lat="59.10455000095377" lon="11.29282499320134" id="-13508">
		<tag k="fixme" v="consider seamark:type=rock or natural=shoal" />
		<tag k="name" v="Danmarkskjær" />
=======
	<node id="-214093" lat="59.1168972264" lon="11.3468472203">
		<tag k="name" v="Revodden" />
		<tag k="natural" v="cape" />
		<tag k="ssr:stedsnr" v="507148" />
	</node>
	<node id="-214689" lat="59.1156638895" lon="11.3221750043">
		<tag k="name" v="Knivsøyholmene" />
		<tag k="place" v="islet" />
		<tag k="ssr:stedsnr" v="932191" />
	</node>
	<node id="-213792" lat="59.0983472259" lon="11.1981166754">
		<tag k="name" v="Store Mørvikholmen" />
		<tag k="place" v="islet" />
		<tag k="ssr:stedsnr" v="282246" />
	</node>
	<node id="-214687" lat="59.1087805537" lon="11.3108111032">
		<tag k="bay" v="fjord" />
		<tag k="name" v="Ringdalsfjorden" />
		<tag k="natural" v="bay" />
		<tag k="ssr:stedsnr" v="932180" />
	</node>
	<node id="-215454" lat="59.0481277747" lon="11.4206083329">
		<tag k="name" v="Kaldraholmen" />
>>>>>>> e1d4bc35ff8a6074a6f2e91616a996b547c36f15
		<tag k="place" v="islet" />
		<tag k="ssr:stedsnr" v="365856" />
	</node>
<<<<<<< HEAD
	<node lat="59.119763889911546" lon="11.367719443029467" id="-13554">
		<tag k="name" v="Gryta" />
		<tag k="natural" v="bay" />
		<tag k="ssr:stedsnr" v="406934" />
	</node>
	<node lat="59.114847218638964" lon="11.316113884450923" id="-13633">
		<tag k="name" v="Rysseodden" />
		<tag k="natural" v="cape" />
		<tag k="ssr:stedsnr" v="447155" />
	</node>
	<node lat="59.11689722644564" lon="11.34684722026934" id="-13654">
		<tag k="name" v="Revodden" />
		<tag k="natural" v="cape" />
		<tag k="ssr:stedsnr" v="507148" />
	</node>
	<node lat="59.103788884542766" lon="11.374522225835825" id="-13656">
		<tag k="name" v="Rødnabbene" />
		<tag k="natural" v="cape" />
		<tag k="ssr:stedsnr" v="507154" />
	</node>
	<node lat="59.092873991163124" lon="11.236688952698062" id="-13662">
		<tag k="name" v="Mølen" />
		<tag k="natural" v="beach" />
		<tag k="ssr:stedsnr" v="508052" />
	</node>
	<node lat="59.09090555432287" lon="11.227291657863484" id="-13756">
		<tag k="alt_name" v="Sponviken" />
		<tag k="name" v="Sponvika" />
		<tag k="natural" v="bay" />
		<tag k="ssr:stedsnr" v="568046" />
	</node>
	<node lat="59.099477123807105" lon="11.20026030503747" id="-13823">
		<tag k="name" v="Mørvikholmene" />
		<tag k="place" v="island" />
		<tag k="ssr:stedsnr" v="607808" />
	</node>
	<node lat="59.08871944341305" lon="11.148622214158319" id="-13824">
		<tag k="name" v="Singlefjorden" />
		<tag k="natural" v="bay" />
		<tag k="ssr:stedsnr" v="607817" />
	</node>
	<node lat="59.06446944800525" lon="11.430369449984173" id="-13854">
		<tag k="name" v="Langholmen" />
		<tag k="place" v="islet" />
		<tag k="ssr:stedsnr" v="628222" />
	</node>
	<node lat="59.027983331888215" lon="11.439738886959605" id="-13904">
		<tag k="name" v="Kaselandet" />
		<tag k="natural" v="cape" />
		<tag k="ssr:stedsnr" v="660098" />
	</node>
	<node lat="59.11322500037545" lon="11.37801110972144" id="-13940">
		<tag k="name" v="Sauøya" />
		<tag k="place" v="islet" />
		<tag k="ssr:stedsnr" v="669846" />
	</node>
	<node lat="59.099836110181805" lon="11.375094446707724" id="-13981">
		<tag k="name" v="Skysskafferen" />
=======
	<node id="-215965" lat="59.1139416669" lon="11.206725004">
		<tag k="fixme" v="consider seamark:type=rock or natural=shoal" />
		<tag k="name" v="Flatskjær" />
		<tag k="place" v="islet" />
		<tag k="ssr:stedsnr" v="750001" />
	</node>
	<node id="-215340" lat="59.1205499994" lon="11.2136749958">
		<tag k="name" v="Røsneskilen" />
		<tag k="natural" v="bay" />
		<tag k="ssr:stedsnr" v="304886" />
	</node>
	<node id="-214171" lat="59.0279833319" lon="11.439738887">
		<tag k="name" v="Kaselandet" />
		<tag k="natural" v="cape" />
		<tag k="ssr:stedsnr" v="660098" />
	</node>
	<node id="-214383" lat="59.0887194434" lon="11.1486222142">
		<tag k="name" v="Singlefjorden" />
		<tag k="place" v="locality" />
		<tag k="ssr:stedsnr" v="607817" />
	</node>
	<node id="-213999" lat="59.0857749999" lon="11.3893444501">
		<tag k="name" v="Brottsholt" />
		<tag k="natural" v="cape" />
		<tag k="ssr:stedsnr" v="480440" />
	</node>
	<node id="-214037" lat="59.0958996204" lon="11.3845090348">
		<tag k="alt_name" v="Engevik" />
		<tag k="name" v="Engevika" />
		<tag k="natural" v="bay" />
		<tag k="ssr:stedsnr" v="487828" />
	</node>
	<node id="-213934" lat="58.9906111121" lon="11.4681166684">
		<tag k="name" v="Brekkeodden" />
		<tag k="natural" v="cape" />
		<tag k="ssr:stedsnr" v="301107" />
	</node>
	<node id="-215411" lat="59.102983337" lon="11.1922666657">
		<tag k="name" v="Varperenna" />
		<tag k="place" v="locality" />
		<tag k="ssr:stedsnr" v="343255" />
	</node>
	<node id="-216209" lat="59.0900527816" lon="11.213908329">
		<tag k="alt_name" v="Grønnbukta" />
		<tag k="name" v="Grønnbukt" />
		<tag k="natural" v="bay" />
		<tag k="ssr:stedsnr" v="872046" />
	</node>
	<node id="-214288" lat="59.1079500017" lon="11.2974333418">
		<tag k="name" v="Åletrekk" />
		<tag k="natural" v="strait" />
		<tag k="ssr:stedsnr" v="690191" />
	</node>
	<node id="-214287" lat="59.1082694474" lon="11.2988694479">
		<tag k="name" v="Ragnhild" />
>>>>>>> e1d4bc35ff8a6074a6f2e91616a996b547c36f15
		<tag k="natural" v="cape" />
		<tag k="ssr:stedsnr" v="690190" />
	</node>
<<<<<<< HEAD
	<node lat="59.073751820395366" lon="11.396813841652287" id="-14004">
		<tag k="alt_name" v="Kjelvik" />
		<tag k="name" v="Kjellvik" />
		<tag k="natural" v="bay" />
		<tag k="ssr:stedsnr" v="730192" />
	</node>
	<node lat="59.09667499566554" lon="11.21818056122833" id="-14026">
		<tag k="alt_name" v="Sildebauen" />
		<tag k="name" v="Sildebogen" />
		<tag k="natural" v="bay" />
		<tag k="ssr:stedsnr" v="750030" />
	</node>
	<node lat="59.09966944875565" lon="11.201258341434137" id="-14046">
		<tag k="name" v="Lille Mørvikholmen" />
		<tag k="place" v="islet" />
		<tag k="ssr:stedsnr" v="767262" />
	</node>
	<node lat="59.05462777342088" lon="11.421650001255134" id="-14099">
		<tag k="alt_name" v="Ystehedneset" />
		<tag k="name" v="Ystehedeneset" />
		<tag k="natural" v="cape" />
		<tag k="ssr:stedsnr" v="790176" />
	</node>
	<node lat="59.0585249976718" lon="11.409349992112777" id="-14100">
		<tag k="name" v="Skriverøya" />
		<tag k="natural" v="cape" />
		<tag k="ssr:stedsnr" v="790182" />
	</node>
	<node lat="59.10510555832805" lon="11.292649999311879" id="-14136">
=======
	<node id="-214286" lat="59.107461114" lon="11.2976972218">
		<tag k="name" v="Laura" />
		<tag k="place" v="islet" />
		<tag k="ssr:stedsnr" v="690188" />
	</node>
	<node id="-216203" lat="59.1078138903" lon="11.3003277705">
		<tag k="name" v="Margit" />
		<tag k="place" v="islet" />
		<tag k="ssr:stedsnr" v="872182" />
	</node>
	<node id="-213862" lat="59.0984166657" lon="11.2193722279">
		<tag k="name" v="Soldatodden" />
		<tag k="natural" v="cape" />
		<tag k="ssr:stedsnr" v="221206" />
	</node>
	<node id="-216073" lat="59.1051055583" lon="11.2926499993">
>>>>>>> e1d4bc35ff8a6074a6f2e91616a996b547c36f15
		<tag k="fixme" v="consider seamark:type=rock or natural=shoal" />
		<tag k="name" v="Foggelen" />
		<tag k="place" v="islet" />
		<tag k="ssr:stedsnr" v="811169" />
	</node>
<<<<<<< HEAD
	<node lat="59.05127778090196" lon="11.41493611217023" id="-14213">
		<tag k="fixme" v="consider seamark:type=rock or natural=shoal" />
		<tag k="name" v="Kuskjæra" />
		<tag k="place" v="islet" />
		<tag k="ssr:stedsnr" v="851189" />
	</node>
	<node lat="59.11025555817082" lon="11.379797214055014" id="-14242">
		<tag k="name" v="Sauøysundet" />
		<tag k="natural" v="strait" />
		<tag k="ssr:stedsnr" v="872169" />
	</node>
	<node lat="59.096022225275796" lon="11.203594444249376" id="-14249">
		<tag k="name" v="Mørvikodden" />
		<tag k="natural" v="cape" />
		<tag k="ssr:stedsnr" v="872045" />
	</node>
	<node lat="59.090052781618034" lon="11.213908329014979" id="-14250">
		<tag k="alt_name" v="Grønnbukta" />
		<tag k="name" v="Grønnbukt" />
		<tag k="natural" v="bay" />
		<tag k="ssr:stedsnr" v="872046" />
	</node>
	<node lat="59.10781389033484" lon="11.300327770460346" id="-14253">
		<tag k="name" v="Margit" />
		<tag k="place" v="islet" />
		<tag k="ssr:stedsnr" v="872182" />
=======
	<node id="-214399" lat="59.0998361102" lon="11.3750944467">
		<tag k="name" v="Skysskafferen" />
		<tag k="natural" v="cape" />
		<tag k="ssr:stedsnr" v="723482" />
	</node>
	<node id="-214279" lat="59.1145138866" lon="11.2120416613">
		<tag k="name" v="Furuholmen" />
		<tag k="place" v="islet" />
		<tag k="ssr:stedsnr" v="690029" />
	</node>
	<node id="-214916" lat="59.0959055585" lon="11.193858334">
		<tag k="name" v="Bjørnestøtta" />
		<tag k="place" v="locality" />
		<tag k="seamark:type" v="rock" />
		<tag k="ssr:stedsnr" v="39222" />
	</node>
	<node id="-214403" lat="59.0137861093" lon="11.4498472263">
		<tag k="name" v="Byhella" />
		<tag k="natural" v="beach" />
		<tag k="place" v="locality" />
		<tag k="ssr:stedsnr" v="726091" />
	</node>
	<node id="-214955" lat="59.1086583339" lon="11.3668472276">
		<tag k="fixme" v="consider seamark:type=rock or natural=shoal" />
		<tag k="name" v="Kuskjær" />
		<tag k="place" v="islet" />
		<tag k="ssr:stedsnr" v="58256" />
>>>>>>> e1d4bc35ff8a6074a6f2e91616a996b547c36f15
	</node>
</osm>
