<?xml version="1.0" encoding="UTF-8"?>
<<<<<<< HEAD
<osm version="0.6" generator="osmapis">
	<node lat="59.09531666801937" lon="11.646191660939404" id="-11678">
		<tag k="name" v="Langelinje" />
		<tag k="place" v="locality" />
		<tag k="ssr:stedsnr" v="232551" />
	</node>
	<node lat="59.11196389278555" lon="11.624275007194285" id="-11680">
		<tag k="name" v="Lindhølet" />
		<tag k="place" v="locality" />
		<tag k="ssr:stedsnr" v="232557" />
	</node>
	<node lat="59.02177777879568" lon="11.690061111160862" id="-11690">
		<tag k="name" v="Jonsbu" />
		<tag k="place" v="locality" />
		<tag k="ssr:stedsnr" v="232694" />
	</node>
	<node lat="58.96931111157762" lon="11.510452769610904" id="-11696">
		<tag k="name" v="Lia" />
		<tag k="place" v="locality" />
		<tag k="ssr:stedsnr" v="232759" />
	</node>
	<node lat="58.973375001277155" lon="11.6278888858355" id="-11698">
		<tag k="name" v="Merrhøljen" />
		<tag k="place" v="locality" />
		<tag k="ssr:stedsnr" v="232767" />
	</node>
	<node lat="59.04643610782468" lon="11.679905554002644" id="-11707">
		<tag k="name" v="Lille Sveen" />
		<tag k="place" v="locality" />
		<tag k="ssr:stedsnr" v="232951" />
	</node>
	<node lat="58.989838893147606" lon="11.560133330954692" id="-11728">
		<tag k="name" v="Krabsetmoen" />
		<tag k="place" v="locality" />
		<tag k="ssr:stedsnr" v="50914" />
	</node>
	<node lat="58.90184999833494" lon="11.578155563062948" id="-11731">
		<tag k="name" v="Goddagene" />
		<tag k="place" v="locality" />
		<tag k="ssr:stedsnr" v="50880" />
	</node>
	<node lat="58.91416944308984" lon="11.590191661159102" id="-11739">
		<tag k="name" v="Svantjernbakkene" />
		<tag k="place" v="locality" />
		<tag k="ssr:stedsnr" v="51619" />
	</node>
	<node lat="59.07717499614547" lon="11.440527780206063" id="-11811">
		<tag k="alt_name" v="Bøndernes hus" />
		<tag k="amenity" v="community_centre" />
		<tag k="name" v="Idd bygdehus" />
		<tag k="old_name" v="Bøndenes hus" />
		<tag k="ssr:stedsnr" v="83809" />
	</node>
	<node lat="59.04994444404432" lon="11.60708888927408" id="-11830">
		<tag k="name" v="Aspelund" />
		<tag k="place" v="locality" />
		<tag k="ssr:stedsnr" v="111489" />
	</node>
	<node lat="59.16442222188991" lon="11.611041665391332" id="-11835">
		<tag k="name" v="Rekkemoen" />
		<tag k="place" v="locality" />
		<tag k="ssr:stedsnr" v="111579" />
	</node>
	<node lat="58.96927221941884" lon="11.618425006304637" id="-11840">
		<tag k="name" v="Høljen" />
		<tag k="place" v="locality" />
		<tag k="ssr:stedsnr" v="111603" />
	</node>
	<node lat="59.19898888770996" lon="11.535702775467675" id="-11852">
		<tag k="name" v="Rømmeklev" />
		<tag k="place" v="locality" />
		<tag k="ssr:stedsnr" v="111986" />
	</node>
	<node lat="59.144891670961506" lon="11.577655554588747" id="-11906">
		<tag k="name" v="Holenekasa" />
		<tag k="place" v="locality" />
		<tag k="ssr:stedsnr" v="172766" />
	</node>
	<node lat="58.991172221767606" lon="11.529766663330218" id="-11909">
		<tag k="name" v="Møllerbakken" />
=======
<osm generator="osmapis" version="0.6">
	<node id="-213673" lat="58.9141694431" lon="11.5901916612">
		<tag k="name" v="Svantjernbakkene" />
		<tag k="place" v="locality" />
		<tag k="ssr:stedsnr" v="51619" />
	</node>
	<node id="-214511" lat="58.9556222227" lon="11.6105555492">
		<tag k="name" v="Svarthølet" />
		<tag k="place" v="locality" />
		<tag k="ssr:stedsnr" v="718790" />
	</node>
	<node id="-214543" lat="59.0756638859" lon="11.5668388845">
		<tag k="name" v="Bjørndyvel" />
		<tag k="place" v="locality" />
		<tag k="ssr:stedsnr" v="900550" />
	</node>
	<node id="-213991" lat="59.0100861107" lon="11.5901027706">
		<tag k="name" v="Rotebusmoen" />
		<tag k="place" v="locality" />
		<tag k="ssr:stedsnr" v="475994" />
	</node>
	<node id="-215013" lat="59.1441964606" lon="11.4547867058">
		<tag k="amenity" v="place_of_worship" />
		<tag k="denomination" v="lutheran" />
		<tag k="name" v="Asak kirke" />
		<tag k="religion" v="christian" />
		<tag k="ssr:stedsnr" v="63758" />
	</node>
	<node id="-213983" lat="59.0950166646" lon="11.6221055556">
		<tag k="name" v="Helgesene" />
		<tag k="place" v="locality" />
		<tag k="ssr:stedsnr" v="475955" />
	</node>
	<node id="-213981" lat="58.9933361128" lon="11.6811388922">
		<tag k="name" v="Fiskedammen" />
		<tag k="place" v="locality" />
		<tag k="ssr:stedsnr" v="475949" />
	</node>
	<node id="-213975" lat="58.9913277786" lon="11.5286472197">
		<tag k="name" v="Mølle" />
		<tag k="place" v="locality" />
		<tag k="ssr:stedsnr" v="475786" />
	</node>
	<node id="-214483" lat="58.9878027765" lon="11.5334722154">
		<tag k="name" v="Døpet" />
		<tag k="place" v="locality" />
		<tag k="ssr:stedsnr" v="657920" />
	</node>
	<node id="-214482" lat="58.9863249981" lon="11.542744443">
		<tag k="name" v="Plassemoen" />
		<tag k="place" v="locality" />
		<tag k="ssr:stedsnr" v="657918" />
	</node>
	<node id="-214480" lat="58.9920055586" lon="11.5408833377">
		<tag k="name" v="Prestebakke stadion" />
		<tag k="place" v="locality" />
		<tag k="ssr:stedsnr" v="657912" />
	</node>
	<node id="-216015" lat="58.9609750017" lon="11.5010972276">
		<tag k="name" v="Holtene" />
		<tag k="place" v="locality" />
		<tag k="ssr:stedsnr" v="779812" />
	</node>
	<node id="-216014" lat="58.9502277735" lon="11.5020222199">
		<tag k="name" v="Gaupeklev" />
		<tag k="place" v="locality" />
		<tag k="ssr:stedsnr" v="779811" />
	</node>
	<node id="-216013" lat="58.9223805532" lon="11.6361055549">
		<tag k="name" v="Benkroken" />
		<tag k="place" v="locality" />
		<tag k="ssr:stedsnr" v="779807" />
	</node>
	<node id="-213963" lat="58.9589527782" lon="11.567619451">
		<tag k="name" v="Værhaugen" />
		<tag k="place" v="locality" />
		<tag k="ssr:stedsnr" v="475592" />
	</node>
	<node id="-213962" lat="58.9154749977" lon="11.5964055612">
		<tag k="name" v="Svantjernheia" />
>>>>>>> e1d4bc35ff8a6074a6f2e91616a996b547c36f15
		<tag k="place" v="locality" />
		<tag k="ssr:stedsnr" v="475590" />
	</node>
<<<<<<< HEAD
	<node lat="59.05084999585159" lon="11.616941673908936" id="-11968">
		<tag k="name" v="Skrikelund" />
		<tag k="place" v="locality" />
		<tag k="ssr:stedsnr" v="232486" />
	</node>
	<node lat="59.01317222587295" lon="11.511472228887529" id="-11982">
		<tag k="name" v="Buerkasa" />
		<tag k="place" v="locality" />
		<tag k="ssr:stedsnr" v="232905" />
	</node>
	<node lat="58.9296111140037" lon="11.52129722355012" id="-11983">
		<tag k="alt_name" v="Golden østre" />
		<tag k="amenity" v="community_centre" />
		<tag k="name" v="Østre Golden" />
		<tag k="ssr:stedsnr" v="232880" />
	</node>
	<node lat="58.98992499718402" lon="11.522730551886422" id="-11987">
		<tag k="name" v="Sagjordsengene" />
		<tag k="place" v="locality" />
		<tag k="ssr:stedsnr" v="232895" />
	</node>
	<node lat="59.09829166601418" lon="11.51193333736236" id="-12027">
		<tag k="name" v="Køleren" />
		<tag k="place" v="locality" />
		<tag k="ssr:stedsnr" v="293529" />
	</node>
	<node lat="58.903513889020374" lon="11.578455553049302" id="-12037">
		<tag k="name" v="Goddagene" />
		<tag k="place" v="locality" />
		<tag k="ssr:stedsnr" v="293676" />
	</node>
	<node lat="58.95701666800329" lon="11.59615555648492" id="-12042">
		<tag k="name" v="Stenkasene" />
		<tag k="place" v="locality" />
		<tag k="ssr:stedsnr" v="293896" />
	</node>
	<node lat="59.00789444209626" lon="11.56569167372664" id="-12047">
		<tag k="name" v="Huset" />
		<tag k="place" v="locality" />
		<tag k="ssr:stedsnr" v="293932" />
	</node>
	<node lat="59.02902499625072" lon="11.650191665609972" id="-12048">
		<tag k="name" v="Basterota" />
		<tag k="place" v="locality" />
		<tag k="ssr:stedsnr" v="293995" />
	</node>
	<node lat="58.95458888884192" lon="11.597605551589082" id="-12095">
		<tag k="name" v="Ødegårdene" />
		<tag k="place" v="locality" />
		<tag k="ssr:stedsnr" v="354623" />
	</node>
	<node lat="58.91565277467861" lon="11.58521388912058" id="-12099">
		<tag k="name" v="Kjeldsbu" />
		<tag k="place" v="locality" />
		<tag k="ssr:stedsnr" v="354587" />
	</node>
	<node lat="58.91547499772736" lon="11.596405561215944" id="-12113">
		<tag k="name" v="Svantjernheia" />
		<tag k="place" v="locality" />
		<tag k="ssr:stedsnr" v="475590" />
	</node>
	<node lat="58.958952778187005" lon="11.567619451046065" id="-12114">
		<tag k="name" v="Værhaugen" />
		<tag k="place" v="locality" />
		<tag k="ssr:stedsnr" v="475592" />
	</node>
	<node lat="59.015116663143104" lon="11.690605554523508" id="-12117">
		<tag k="name" v="Kristens kas" />
		<tag k="place" v="locality" />
		<tag k="ssr:stedsnr" v="475643" />
	</node>
	<node lat="59.053602780403345" lon="11.599011118358558" id="-12118">
		<tag k="name" v="Råklev" />
		<tag k="place" v="locality" />
		<tag k="ssr:stedsnr" v="475521" />
	</node>
	<node lat="59.05258055687445" lon="11.661722230811598" id="-12121">
		<tag k="name" v="Brattekasene" />
		<tag k="place" v="locality" />
		<tag k="ssr:stedsnr" v="475529" />
	</node>
	<node lat="59.03811666493196" lon="11.631297226683028" id="-12122">
		<tag k="name" v="Rødslund" />
		<tag k="place" v="locality" />
		<tag k="ssr:stedsnr" v="475537" />
	</node>
	<node lat="59.08757778134635" lon="11.58354722877396" id="-12129">
		<tag k="name" v="Høyebakke" />
		<tag k="place" v="locality" />
		<tag k="ssr:stedsnr" v="475695" />
	</node>
	<node lat="58.99132777856746" lon="11.528647219734076" id="-12131">
		<tag k="name" v="Mølle" />
		<tag k="place" v="locality" />
		<tag k="ssr:stedsnr" v="475786" />
	</node>
	<node lat="58.99333611275144" lon="11.681138892230118" id="-12143">
		<tag k="name" v="Fiskedammen" />
		<tag k="place" v="locality" />
		<tag k="ssr:stedsnr" v="475949" />
	</node>
	<node lat="59.0950166645604" lon="11.622105555607394" id="-12145">
		<tag k="name" v="Helgesene" />
		<tag k="place" v="locality" />
		<tag k="ssr:stedsnr" v="475955" />
	</node>
	<node lat="58.92978610701912" lon="11.565469436006763" id="-12249">
		<tag k="name" v="Stutøye" />
		<tag k="place" v="locality" />
		<tag k="ssr:stedsnr" v="414786" />
	</node>
	<node lat="59.000866666545264" lon="11.563130552322042" id="-12251">
		<tag k="name" v="Hogsjøliene" />
		<tag k="place" v="locality" />
		<tag k="ssr:stedsnr" v="414914" />
	</node>
	<node lat="58.992130560108244" lon="11.527608328482396" id="-12254">
		<tag k="name" v="Sagjordet" />
		<tag k="place" v="locality" />
		<tag k="ssr:stedsnr" v="414895" />
	</node>
	<node lat="59.07741667064465" lon="11.569886113974576" id="-12260">
		<tag k="name" v="Tyskebånn" />
		<tag k="place" v="locality" />
		<tag k="ssr:stedsnr" v="415578" />
	</node>
	<node lat="59.08941111470288" lon="11.523766661418913" id="-12262">
		<tag k="name" v="Snakop" />
		<tag k="place" v="locality" />
		<tag k="ssr:stedsnr" v="415587" />
	</node>
	<node lat="58.93865000201159" lon="11.53695832535642" id="-12265">
		<tag k="name" v="Trollermoen" />
		<tag k="place" v="locality" />
		<tag k="ssr:stedsnr" v="415638" />
	</node>
	<node lat="59.10353610714744" lon="11.603244439159802" id="-12324">
		<tag k="name" v="Trosteholtene" />
		<tag k="place" v="locality" />
		<tag k="ssr:stedsnr" v="475569" />
	</node>
	<node lat="59.01008611070406" lon="11.59010277055956" id="-12328">
		<tag k="name" v="Rotebusmoen" />
		<tag k="place" v="locality" />
		<tag k="ssr:stedsnr" v="475994" />
	</node>
	<node lat="58.93224444161025" lon="11.625072220749384" id="-12366">
		<tag k="name" v="Rødklev" />
=======
	<node id="-215555" lat="59.0777638928" lon="11.5773805514">
		<tag k="name" v="Rytterkasa" />
		<tag k="place" v="locality" />
		<tag k="ssr:stedsnr" v="414545" />
	</node>
	<node id="-213959" lat="59.1035361071" lon="11.6032444392">
		<tag k="name" v="Trosteholtene" />
		<tag k="place" v="locality" />
		<tag k="ssr:stedsnr" v="475569" />
	</node>
	<node id="-214980" lat="59.1378305577" lon="11.3294527841">
		<tag k="amenity" v="place_of_worship" />
		<tag k="denomination" v="lutheran" />
		<tag k="name" v="Berg kirke" />
		<tag k="religion" v="christian" />
		<tag k="ssr:stedsnr" v="62755" />
	</node>
	<node id="-213954" lat="59.0381166649" lon="11.6312972267">
		<tag k="name" v="Rødslund" />
		<tag k="place" v="locality" />
		<tag k="ssr:stedsnr" v="475537" />
	</node>
	<node id="-213953" lat="59.0525805569" lon="11.6617222308">
		<tag k="name" v="Brattekasene" />
		<tag k="place" v="locality" />
		<tag k="ssr:stedsnr" v="475529" />
	</node>
	<node id="-213950" lat="59.0536027804" lon="11.5990111184">
		<tag k="name" v="Råklev" />
		<tag k="place" v="locality" />
		<tag k="ssr:stedsnr" v="475521" />
	</node>
	<node id="-215995" lat="58.9672444405" lon="11.6035861192">
		<tag k="name" v="Hyttedalen" />
		<tag k="place" v="locality" />
		<tag k="ssr:stedsnr" v="779609" />
	</node>
	<node id="-213663" lat="59.0464361078" lon="11.679905554">
		<tag k="name" v="Lille Sveen" />
		<tag k="place" v="locality" />
		<tag k="ssr:stedsnr" v="232951" />
	</node>
	<node id="-215992" lat="58.9413527781" lon="11.4991722166">
		<tag k="name" v="Sand" />
		<tag k="place" v="locality" />
		<tag k="ssr:stedsnr" v="779585" />
	</node>
	<node id="-215991" lat="59.1068527821" lon="11.5323333382">
		<tag k="name" v="Brenna" />
		<tag k="place" v="locality" />
		<tag k="ssr:stedsnr" v="779569" />
	</node>
	<node id="-214686" lat="58.9371805525" lon="11.522058328">
		<tag k="name" v="Rødsmoen" />
		<tag k="place" v="locality" />
		<tag k="ssr:stedsnr" v="961599" />
	</node>
	<node id="-215986" lat="59.0782305596" lon="11.5229972278">
		<tag k="name" v="Tyska" />
		<tag k="place" v="locality" />
		<tag k="ssr:stedsnr" v="779556" />
	</node>
	<node id="-215985" lat="59.0815972262" lon="11.5597611161">
		<tag k="name" v="Langkloppmoen" />
		<tag k="place" v="locality" />
		<tag k="ssr:stedsnr" v="779545" />
	</node>
	<node id="-215974" lat="59.0913194484" lon="11.4313444492">
		<tag k="amenity" v="community_centre" />
		<tag k="name" v="Karlsholm" />
		<tag k="ssr:stedsnr" v="750777" />
	</node>
	<node id="-214945" lat="59.1181444465" lon="11.5961750056">
		<tag k="name" v="Store Kalset" />
		<tag k="place" v="locality" />
		<tag k="ssr:stedsnr" v="51591" />
	</node>
	<node id="-215445" lat="59.0280666688" lon="11.6425888816">
		<tag k="name" v="Store Stenslund" />
		<tag k="place" v="locality" />
		<tag k="ssr:stedsnr" v="354750" />
	</node>
	<node id="-215444" lat="59.0295805539" lon="11.6295111052">
		<tag k="name" v="Lille Stenslund" />
		<tag k="place" v="locality" />
		<tag k="ssr:stedsnr" v="354748" />
	</node>
	<node id="-214931" lat="58.9018499983" lon="11.5781555631">
		<tag k="name" v="Goddagene" />
		<tag k="place" v="locality" />
		<tag k="ssr:stedsnr" v="50880" />
	</node>
	<node id="-214926" lat="59.2222722188" lon="11.5432666721">
		<tag k="name" v="Ekelien" />
		<tag k="place" v="locality" />
		<tag k="ssr:stedsnr" v="50640" />
	</node>
	<node id="-215437" lat="59.1334750042" lon="11.5461166632">
		<tag k="name" v="Ertebakken" />
		<tag k="place" v="locality" />
		<tag k="ssr:stedsnr" v="354725" />
	</node>
	<node id="-214923" lat="59.0998749964" lon="11.6359416604">
		<tag k="name" v="Nansens hotel" />
		<tag k="place" v="locality" />
		<tag k="ssr:stedsnr" v="50665" />
	</node>
	<node id="-215427" lat="58.9545888888" lon="11.5976055516">
		<tag k="name" v="Ødegårdene" />
		<tag k="place" v="locality" />
		<tag k="ssr:stedsnr" v="354623" />
	</node>
	<node id="-215426" lat="58.9156527747" lon="11.5852138891">
		<tag k="name" v="Kjeldsbu" />
		<tag k="place" v="locality" />
		<tag k="ssr:stedsnr" v="354587" />
	</node>
	<node id="-214336" lat="58.9485222242" lon="11.5009944372">
		<tag k="name" v="Hestepina" />
		<tag k="place" v="locality" />
		<tag k="ssr:stedsnr" v="718588" />
	</node>
	<node id="-215421" lat="59.0421972185" lon="11.610286109">
		<tag k="name" v="Langdråttsholtet" />
		<tag k="place" v="locality" />
		<tag k="ssr:stedsnr" v="354538" />
	</node>
	<node id="-215417" lat="59.1845166654" lon="11.5364861181">
		<tag k="name" v="Østby" />
		<tag k="place" v="locality" />
		<tag k="ssr:stedsnr" v="353992" />
	</node>
	<node id="-214379" lat="59.0940972187" lon="11.5501805616">
		<tag k="name" v="Tømmerlundene" />
		<tag k="place" v="locality" />
		<tag k="ssr:stedsnr" v="718978" />
	</node>
	<node id="-214377" lat="59.1889999976" lon="11.3442222225">
		<tag k="amenity" v="place_of_worship" />
		<tag k="denomination" v="lutheran" />
		<tag k="name" v="Rokke kirke" />
		<tag k="religion" v="christian" />
		<tag k="ssr:stedsnr" v="607976" />
	</node>
	<node id="-213859" lat="59.0290249963" lon="11.6501916656">
		<tag k="name" v="Basterota" />
		<tag k="place" v="locality" />
		<tag k="ssr:stedsnr" v="293995" />
	</node>
	<node id="-214366" lat="59.2159249966" lon="11.5443888958">
		<tag k="name" v="Åneset" />
		<tag k="place" v="locality" />
		<tag k="ssr:stedsnr" v="718899" />
	</node>
	<node id="-213853" lat="59.0937277751" lon="11.5229999974">
		<tag k="name" v="Haugneset" />
		<tag k="place" v="locality" />
		<tag k="ssr:stedsnr" v="293976" />
	</node>
	<node id="-214360" lat="59.0503944459" lon="11.6666805619">
		<tag k="name" v="Lemmedraua" />
		<tag k="place" v="locality" />
		<tag k="ssr:stedsnr" v="718887" />
	</node>
	<node id="-214359" lat="59.2098555535" lon="11.2931055468">
		<tag k="name" v="Holtet" />
		<tag k="place" v="locality" />
		<tag k="ssr:stedsnr" v="718883" />
	</node>
	<node id="-214358" lat="58.931283332" lon="11.5216638969">
		<tag k="amenity" v="community_centre" />
		<tag k="name" v="Betania" />
		<tag k="ssr:stedsnr" v="718878" />
	</node>
	<node id="-216121" lat="59.1731583364" lon="11.5245999974">
		<tag k="name" v="Larvik" />
>>>>>>> e1d4bc35ff8a6074a6f2e91616a996b547c36f15
		<tag k="place" v="locality" />
		<tag k="ssr:stedsnr" v="840712" />
	</node>
<<<<<<< HEAD
	<node lat="59.035291665314965" lon="11.685750002002607" id="-12367">
		<tag k="name" v="Rødhella" />
		<tag k="place" v="locality" />
		<tag k="ssr:stedsnr" v="536516" />
	</node>
	<node lat="59.048366668261615" lon="11.663016671283334" id="-12368">
		<tag k="name" v="Hestholtmoen" />
=======
	<node id="-213840" lat="58.957016668" lon="11.5961555565">
		<tag k="name" v="Stenkasene" />
		<tag k="place" v="locality" />
		<tag k="ssr:stedsnr" v="293896" />
	</node>
	<node id="-214350" lat="58.9367888856" lon="11.4987194446">
		<tag k="name" v="Sagholen" />
>>>>>>> e1d4bc35ff8a6074a6f2e91616a996b547c36f15
		<tag k="place" v="locality" />
		<tag k="ssr:stedsnr" v="718797" />
	</node>
<<<<<<< HEAD
	<node lat="58.92388333187145" lon="11.562250007089137" id="-12369">
		<tag k="name" v="Helgeroa" />
		<tag k="place" v="locality" />
		<tag k="ssr:stedsnr" v="536570" />
	</node>
	<node lat="58.88813889225017" lon="11.505986116332272" id="-12371">
		<tag k="name" v="Mathis kammer" />
		<tag k="place" v="locality" />
		<tag k="ssr:stedsnr" v="536808" />
	</node>
	<node lat="59.086290879590884" lon="11.434706485126846" id="-12453">
		<tag k="amenity" v="place_of_worship" />
		<tag k="denomination" v="lutheran" />
		<tag k="name" v="Idd kirke" />
		<tag k="religion" v="christian" />
		<tag k="ssr:stedsnr" v="572313" />
	</node>
	<node lat="59.12691111205619" lon="11.391038893723595" id="-12455">
		<tag k="cemetery" v="grave" />
		<tag k="name" v="Os gravlund" />
		<tag k="place" v="locality" />
		<tag k="ssr:stedsnr" v="588908" />
	</node>
	<node lat="59.04837500091912" lon="11.615897223589393" id="-12457">
		<tag k="name" v="Stutøye" />
		<tag k="place" v="locality" />
		<tag k="ssr:stedsnr" v="596500" />
	</node>
	<node lat="59.101530553694715" lon="11.613641664839212" id="-12460">
		<tag k="name" v="Kjøttbakken" />
		<tag k="place" v="locality" />
		<tag k="ssr:stedsnr" v="596621" />
	</node>
	<node lat="58.904983334184614" lon="11.507086106290695" id="-12464">
		<tag k="name" v="Ødegården" />
		<tag k="place" v="locality" />
		<tag k="ssr:stedsnr" v="596557" />
	</node>
	<node lat="59.051725001053114" lon="11.599027771199632" id="-12477">
		<tag k="name" v="Brynildskas" />
		<tag k="place" v="locality" />
		<tag k="ssr:stedsnr" v="596961" />
	</node>
	<node lat="59.1078749958888" lon="11.507025003456656" id="-12478">
		<tag k="name" v="Holvannslia" />
		<tag k="place" v="locality" />
		<tag k="ssr:stedsnr" v="596965" />
	</node>
	<node lat="59.07502221920008" lon="11.523547217976597" id="-12543">
		<tag k="name" v="Buret" />
=======
	<node id="-214925" lat="59.0981583349" lon="11.5678416731">
		<tag k="name" v="Kvernklev" />
		<tag k="place" v="locality" />
		<tag k="ssr:stedsnr" v="50529" />
	</node>
	<node id="-213835" lat="58.9876111104" lon="11.5206972147">
		<tag k="name" v="Sagjordsengene" />
		<tag k="place" v="locality" />
		<tag k="ssr:stedsnr" v="293787" />
	</node>
	<node id="-214345" lat="59.1873222233" lon="11.5358527852">
		<tag k="name" v="Holteberg" />
		<tag k="place" v="locality" />
		<tag k="ssr:stedsnr" v="718680" />
	</node>
	<node id="-214338" lat="59.0457472202" lon="11.6719361112">
		<tag k="name" v="Store Sveen" />
		<tag k="place" v="locality" />
		<tag k="ssr:stedsnr" v="718546" />
	</node>
	<node id="-215873" lat="59.1078749959" lon="11.5070250035">
		<tag k="name" v="Holvannslia" />
		<tag k="place" v="locality" />
		<tag k="ssr:stedsnr" v="596965" />
	</node>
	<node id="-215872" lat="59.0517250011" lon="11.5990277712">
		<tag k="name" v="Brynildskas" />
		<tag k="place" v="locality" />
		<tag k="ssr:stedsnr" v="596961" />
	</node>
	<node id="-214333" lat="58.905572223" lon="11.5118333382">
		<tag k="name" v="Gråskas" />
		<tag k="place" v="locality" />
		<tag k="ssr:stedsnr" v="718584" />
	</node>
	<node id="-215868" lat="59.211177779" lon="11.5869277743">
		<tag k="name" v="Rødvannstangene" />
		<tag k="place" v="locality" />
		<tag k="ssr:stedsnr" v="596942" />
	</node>
	<node id="-215867" lat="58.9906944463" lon="11.5449833324">
		<tag k="name" v="Brønnen" />
>>>>>>> e1d4bc35ff8a6074a6f2e91616a996b547c36f15
		<tag k="place" v="locality" />
		<tag k="ssr:stedsnr" v="596918" />
	</node>
<<<<<<< HEAD
	<node lat="58.994163888309714" lon="11.676744445683365" id="-12545">
		<tag k="name" v="Havna" />
		<tag k="place" v="locality" />
		<tag k="ssr:stedsnr" v="657605" />
	</node>
	<node lat="59.002252781832276" lon="11.692733331105519" id="-12546">
		<tag k="name" v="Tjæreovnen" />
		<tag k="place" v="locality" />
		<tag k="ssr:stedsnr" v="657606" />
	</node>
	<node lat="59.13194444660423" lon="11.567677782383672" id="-12550">
		<tag k="name" v="Brynildskas" />
		<tag k="place" v="locality" />
		<tag k="ssr:stedsnr" v="657684" />
	</node>
	<node lat="58.99200555859124" lon="11.5408833377291" id="-12556">
		<tag k="name" v="Prestebakke stadion" />
		<tag k="place" v="locality" />
		<tag k="ssr:stedsnr" v="657912" />
	</node>
	<node lat="58.98632499812671" lon="11.542744442971625" id="-12558">
		<tag k="name" v="Plassemoen" />
		<tag k="place" v="locality" />
		<tag k="ssr:stedsnr" v="657918" />
	</node>
	<node lat="58.987802776486404" lon="11.533472215376827" id="-12559">
		<tag k="name" v="Døpet" />
		<tag k="place" v="locality" />
		<tag k="ssr:stedsnr" v="657920" />
	</node>
	<node lat="58.97395555608399" lon="11.493677774849631" id="-12592">
		<tag k="name" v="Klo" />
		<tag k="place" v="locality" />
		<tag k="ssr:stedsnr" v="669805" />
	</node>
	<node lat="59.121130554916874" lon="11.390961118572548" id="-12621">
=======
	<node id="-214329" lat="59.1269111121" lon="11.3910388937">
		<tag k="cemetery" v="grave" />
		<tag k="name" v="Os gravlund" />
		<tag k="place" v="locality" />
		<tag k="ssr:stedsnr" v="588908" />
	</node>
	<node id="-214327" lat="59.0862908796" lon="11.4347064851">
		<tag k="amenity" v="place_of_worship" />
		<tag k="denomination" v="lutheran" />
		<tag k="name" v="Idd kirke" />
		<tag k="religion" v="christian" />
		<tag k="ssr:stedsnr" v="572313" />
	</node>
	<node id="-215862" lat="59.1755694461" lon="11.5665583266">
		<tag k="name" v="Søndre Torpedalen" />
		<tag k="place" v="locality" />
		<tag k="ssr:stedsnr" v="596897" />
	</node>
	<node id="-214153" lat="58.9667194475" lon="11.6550444449">
		<tag k="name" v="Skjeggerødødegård" />
		<tag k="place" v="locality" />
		<tag k="ssr:stedsnr" v="657737" />
	</node>
	<node id="-213811" lat="59.098291666" lon="11.5119333374">
		<tag k="name" v="Køleren" />
		<tag k="place" v="locality" />
		<tag k="ssr:stedsnr" v="293529" />
	</node>
	<node id="-215858" lat="58.9342555581" lon="11.5369472223">
		<tag k="name" v="Snippen" />
		<tag k="place" v="locality" />
		<tag k="ssr:stedsnr" v="596785" />
	</node>
	<node id="-215857" lat="58.9542444444" lon="11.5015833393">
		<tag k="name" v="Sankt Olavs klev" />
		<tag k="place" v="locality" />
		<tag k="ssr:stedsnr" v="596772" />
	</node>
	<node id="-213808" lat="58.903513889" lon="11.578455553">
		<tag k="name" v="Goddagene" />
		<tag k="place" v="locality" />
		<tag k="ssr:stedsnr" v="293676" />
	</node>
	<node id="-214317" lat="59.0131694474" lon="11.6770888892">
		<tag k="name" v="Svarttjernkasa" />
		<tag k="place" v="locality" />
		<tag k="ssr:stedsnr" v="536752" />
	</node>
	<node id="-214828" lat="59.0527833344" lon="11.5883277706">
		<tag k="name" v="Smiklev" />
		<tag k="place" v="locality" />
		<tag k="ssr:stedsnr" v="961969" />
	</node>
	<node id="-214826" lat="59.0803555522" lon="11.6678194457">
		<tag k="name" v="Siggemyrhalsene" />
		<tag k="place" v="locality" />
		<tag k="ssr:stedsnr" v="961960" />
	</node>
	<node id="-214825" lat="58.9369499962" lon="11.6738749977">
		<tag k="name" v="Fagerli" />
		<tag k="place" v="locality" />
		<tag k="ssr:stedsnr" v="961918" />
	</node>
	<node id="-214311" lat="58.9238833319" lon="11.5622500071">
		<tag k="name" v="Helgeroa" />
		<tag k="place" v="locality" />
		<tag k="ssr:stedsnr" v="536570" />
	</node>
	<node id="-215842" lat="59.1015305537" lon="11.6136416648">
		<tag k="name" v="Kjøttbakken" />
		<tag k="place" v="locality" />
		<tag k="ssr:stedsnr" v="596621" />
	</node>
	<node id="-214305" lat="59.1211305549" lon="11.3909611186">
>>>>>>> e1d4bc35ff8a6074a6f2e91616a996b547c36f15
		<tag k="amenity" v="place_of_worship" />
		<tag k="denomination" v="lutheran" />
		<tag k="name" v="Immanuels kirke" />
		<tag k="religion" v="christian" />
		<tag k="ssr:stedsnr" v="690836" />
<<<<<<< HEAD
	</node>
	<node lat="59.187322223266925" lon="11.53585278524521" id="-12628">
		<tag k="name" v="Holteberg" />
		<tag k="place" v="locality" />
		<tag k="ssr:stedsnr" v="718680" />
	</node>
	<node lat="58.955622222684134" lon="11.610555549242518" id="-12636">
		<tag k="name" v="Svarthølet" />
		<tag k="place" v="locality" />
		<tag k="ssr:stedsnr" v="718790" />
	</node>
	<node lat="58.93128333201554" lon="11.521663896925116" id="-12639">
		<tag k="amenity" v="community_centre" />
		<tag k="name" v="Betania" />
		<tag k="ssr:stedsnr" v="718878" />
	</node>
	<node lat="59.20985555348297" lon="11.293105546819802" id="-12640">
		<tag k="name" v="Holtet" />
		<tag k="place" v="locality" />
		<tag k="ssr:stedsnr" v="718883" />
	</node>
	<node lat="59.050394445887456" lon="11.666680561888326" id="-12641">
		<tag k="name" v="Lemmedraua" />
		<tag k="place" v="locality" />
		<tag k="ssr:stedsnr" v="718887" />
	</node>
	<node lat="59.05130833689775" lon="11.654105547893773" id="-12650">
		<tag k="name" v="Holen" />
		<tag k="place" v="locality" />
		<tag k="ssr:stedsnr" v="900533" />
	</node>
	<node lat="58.88348889323244" lon="11.535638883889796" id="-12654">
		<tag k="name" v="Flekken" />
		<tag k="place" v="locality" />
		<tag k="ssr:stedsnr" v="900586" />
	</node>
	<node lat="59.07566388594351" lon="11.566838884534967" id="-12655">
		<tag k="name" v="Bjørndyvel" />
		<tag k="place" v="locality" />
		<tag k="ssr:stedsnr" v="900550" />
	</node>
	<node lat="58.92171944169072" lon="11.652125002547455" id="-12656">
		<tag k="name" v="Neset" />
		<tag k="place" v="locality" />
		<tag k="ssr:stedsnr" v="900588" />
	</node>
	<node lat="58.913172223672184" lon="11.585272216557735" id="-12657">
		<tag k="alt_name" v="Skauen nordre" />
		<tag k="name" v="Nordre Skauen" />
		<tag k="place" v="locality" />
		<tag k="ssr:stedsnr" v="900593" />
	</node>
	<node lat="59.00369166695491" lon="11.665747229031782" id="-12658">
		<tag k="name" v="Helbekkmoen" />
		<tag k="place" v="locality" />
		<tag k="ssr:stedsnr" v="900628" />
	</node>
	<node lat="58.999408336665994" lon="11.694636103195513" id="-12659">
		<tag k="name" v="Maene" />
		<tag k="place" v="locality" />
		<tag k="ssr:stedsnr" v="900637" />
	</node>
	<node lat="59.061486106864905" lon="11.555436103839433" id="-12662">
		<tag k="name" v="Sølepytt" />
		<tag k="place" v="locality" />
		<tag k="ssr:stedsnr" v="900782" />
	</node>
	<node lat="59.107566666365855" lon="11.624375008502643" id="-12668">
		<tag k="name" v="Nordmyrkoia" />
		<tag k="place" v="locality" />
		<tag k="ssr:stedsnr" v="900937" />
	</node>
	<node lat="58.922380553211354" lon="11.63610555490502" id="-12731">
		<tag k="name" v="Benkroken" />
		<tag k="place" v="locality" />
		<tag k="ssr:stedsnr" v="779807" />
	</node>
	<node lat="58.95022777351282" lon="11.502022219917182" id="-12732">
		<tag k="name" v="Gaupeklev" />
		<tag k="place" v="locality" />
		<tag k="ssr:stedsnr" v="779811" />
	</node>
	<node lat="58.96097500167759" lon="11.501097227627804" id="-12733">
		<tag k="name" v="Holtene" />
		<tag k="place" v="locality" />
		<tag k="ssr:stedsnr" v="779812" />
	</node>
	<node lat="58.90593889294844" lon="11.541836107060236" id="-12818">
		<tag k="name" v="Håkons moer" />
		<tag k="place" v="locality" />
		<tag k="ssr:stedsnr" v="840825" />
	</node>
	<node lat="58.9288694414828" lon="11.586097223463575" id="-12819">
		<tag k="name" v="Engene" />
		<tag k="place" v="locality" />
		<tag k="ssr:stedsnr" v="840826" />
	</node>
	<node lat="58.94415277532724" lon="11.498941672613672" id="-12820">
		<tag k="name" v="Bukkhøljen" />
		<tag k="place" v="locality" />
		<tag k="ssr:stedsnr" v="840577" />
	</node>
	<node lat="58.95576666452118" lon="11.506441658651806" id="-12821">
		<tag k="name" v="Ulfners grav" />
		<tag k="place" v="locality" />
		<tag k="ssr:stedsnr" v="840580" />
	</node>
	<node lat="59.17315833642681" lon="11.524599997426995" id="-12825">
		<tag k="name" v="Larvik" />
		<tag k="place" v="locality" />
		<tag k="ssr:stedsnr" v="840712" />
	</node>
	<node lat="59.16123055989449" lon="11.596344453311765" id="-12831">
		<tag k="name" v="Holtet" />
		<tag k="place" v="locality" />
		<tag k="ssr:stedsnr" v="840903" />
	</node>
	<node lat="59.021733331269544" lon="11.613752781193034" id="-12836">
		<tag k="name" v="Eljsjøholtene" />
		<tag k="place" v="locality" />
		<tag k="ssr:stedsnr" v="840996" />
	</node>
	<node lat="59.01771666812064" lon="11.639372229023405" id="-12837">
		<tag k="name" v="Lagmannssten" />
		<tag k="place" v="locality" />
		<tag k="ssr:stedsnr" v="840997" />
	</node>
	<node lat="59.09945555224763" lon="11.569527772416718" id="-12871">
		<tag k="name" v="Svarthølet" />
		<tag k="place" v="locality" />
		<tag k="ssr:stedsnr" v="961565" />
	</node>
	<node lat="59.12946944145716" lon="11.44462222354901" id="-12894">
		<tag k="amenity" v="place_of_worship" />
		<tag k="denomination" v="lutheran" />
		<tag k="name" v="Tistedal kirke" />
		<tag k="religion" v="christian" />
		<tag k="ssr:stedsnr" v="933846" />
	</node>
	<node lat="59.120986111588046" lon="11.405130550872762" id="-12895">
		<tag k="name" v="Gyldenløve" />
		<tag k="ssr:stedsnr" v="933852" />
		<tag k="tourism" v="attraction" />
	</node>
	<node lat="59.132963889216164" lon="11.57560278071095" id="-12899">
		<tag k="name" v="Bjørnhølet" />
		<tag k="place" v="locality" />
		<tag k="ssr:stedsnr" v="900715" />
	</node>
	<node lat="58.94650000184967" lon="11.591399996435786" id="-12902">
		<tag k="name" v="Lyseholtet" />
		<tag k="place" v="locality" />
		<tag k="ssr:stedsnr" v="900610" />
	</node>
	<node lat="59.10808889162196" lon="11.638983338513887" id="-12907">
		<tag k="name" v="Mølleren" />
		<tag k="place" v="locality" />
		<tag k="ssr:stedsnr" v="900624" />
	</node>
	<node lat="59.040969447136426" lon="11.604874995346474" id="-12913">
		<tag k="name" v="Sirra" />
		<tag k="place" v="locality" />
		<tag k="ssr:stedsnr" v="900960" />
	</node>
	<node lat="58.937180552500955" lon="11.522058327987908" id="-12971">
		<tag k="name" v="Rødsmoen" />
		<tag k="place" v="locality" />
		<tag k="ssr:stedsnr" v="961599" />
	</node>
	<node lat="59.01750277374238" lon="11.610069436352061" id="-12975">
		<tag k="name" v="Rønnliholtet" />
		<tag k="place" v="locality" />
		<tag k="ssr:stedsnr" v="961796" />
	</node>
	<node lat="59.0981583349155" lon="11.56784167308305" id="-13046">
		<tag k="name" v="Kvernklev" />
		<tag k="place" v="locality" />
		<tag k="ssr:stedsnr" v="50529" />
	</node>
	<node lat="59.22227221875156" lon="11.543266672103224" id="-13047">
		<tag k="name" v="Ekelien" />
		<tag k="place" v="locality" />
		<tag k="ssr:stedsnr" v="50640" />
	</node>
	<node lat="59.099874996368804" lon="11.635941660418414" id="-13050">
		<tag k="name" v="Nansens hotel" />
		<tag k="place" v="locality" />
		<tag k="ssr:stedsnr" v="50665" />
	</node>
	<node lat="58.9326972253382" lon="11.501222228266709" id="-13059">
		<tag k="name" v="Sten" />
		<tag k="place" v="locality" />
		<tag k="ssr:stedsnr" v="50865" />
	</node>
	<node lat="59.118144446503685" lon="11.596175005556317" id="-13061">
		<tag k="name" v="Store Kalset" />
		<tag k="place" v="locality" />
		<tag k="ssr:stedsnr" v="51591" />
	</node>
	<node lat="59.0032944452478" lon="11.615958328657653" id="-13068">
		<tag k="name" v="Bjørnehiet" />
		<tag k="place" v="locality" />
		<tag k="ssr:stedsnr" v="51655" />
	</node>
	<node lat="59.13783055769087" lon="11.329452784057475" id="-13085">
		<tag k="amenity" v="place_of_worship" />
		<tag k="denomination" v="lutheran" />
		<tag k="name" v="Berg kirke" />
		<tag k="religion" v="christian" />
		<tag k="ssr:stedsnr" v="62755" />
	</node>
	<node lat="59.144196460563094" lon="11.454786705765235" id="-13106">
		<tag k="amenity" v="place_of_worship" />
		<tag k="denomination" v="lutheran" />
		<tag k="name" v="Asak kirke" />
		<tag k="religion" v="christian" />
		<tag k="ssr:stedsnr" v="63758" />
	</node>
	<node lat="58.891000002843704" lon="11.523311118873234" id="-13145">
		<tag k="name" v="Gata" />
		<tag k="place" v="locality" />
		<tag k="ssr:stedsnr" v="111555" />
	</node>
	<node lat="59.043391666536365" lon="11.618883338493305" id="-13146">
		<tag k="name" v="Ringlund" />
		<tag k="place" v="locality" />
		<tag k="ssr:stedsnr" v="111513" />
	</node>
	<node lat="59.05423055622715" lon="11.668477778739327" id="-13148">
		<tag k="name" v="Brattekasene" />
		<tag k="place" v="locality" />
		<tag k="ssr:stedsnr" v="111518" />
	</node>
	<node lat="59.0052194450183" lon="11.595813893008787" id="-13160">
		<tag k="name" v="Korstjernbakken" />
		<tag k="place" v="locality" />
		<tag k="ssr:stedsnr" v="111916" />
	</node>
	<node lat="58.91311111017863" lon="11.611061115207187" id="-13169">
		<tag k="name" v="Svantjernheia" />
		<tag k="place" v="locality" />
		<tag k="ssr:stedsnr" v="111768" />
	</node>
	<node lat="59.07244999901962" lon="11.55023055276402" id="-13172">
		<tag k="name" v="Kuleplan" />
		<tag k="place" v="locality" />
		<tag k="ssr:stedsnr" v="111953" />
	</node>
	<node lat="59.11439444909286" lon="11.595788880859546" id="-13243">
		<tag k="name" v="Gåsemosholtet" />
		<tag k="place" v="locality" />
		<tag k="ssr:stedsnr" v="172579" />
	</node>
	<node lat="58.951063888971845" lon="11.584733341037442" id="-13247">
		<tag k="name" v="Monsertangen" />
		<tag k="place" v="locality" />
		<tag k="ssr:stedsnr" v="172620" />
	</node>
	<node lat="59.168397219379735" lon="11.512997219048367" id="-13251">
		<tag k="name" v="Kastet" />
		<tag k="place" v="locality" />
		<tag k="ssr:stedsnr" v="172739" />
	</node>
	<node lat="59.143369447701566" lon="11.586824992789126" id="-13266">
		<tag k="name" v="Furumokasene" />
		<tag k="place" v="locality" />
		<tag k="ssr:stedsnr" v="172981" />
	</node>
	<node lat="58.98761111035685" lon="11.520697214743944" id="-13362">
		<tag k="name" v="Sagjordsengene" />
		<tag k="place" v="locality" />
		<tag k="ssr:stedsnr" v="293787" />
	</node>
	<node lat="58.9637277756772" lon="11.606452769649643" id="-13364">
		<tag k="name" v="Høljen" />
		<tag k="place" v="locality" />
		<tag k="ssr:stedsnr" v="293815" />
	</node>
	<node lat="59.09372777509173" lon="11.52299999736592" id="-13367">
		<tag k="name" v="Haugneset" />
		<tag k="place" v="locality" />
		<tag k="ssr:stedsnr" v="293976" />
	</node>
	<node lat="59.184516665378965" lon="11.536486118070778" id="-13455">
		<tag k="name" v="Østby" />
		<tag k="place" v="locality" />
		<tag k="ssr:stedsnr" v="353992" />
	</node>
	<node lat="59.042197218491324" lon="11.610286108957107" id="-13466">
		<tag k="name" v="Langdråttsholtet" />
		<tag k="place" v="locality" />
		<tag k="ssr:stedsnr" v="354538" />
	</node>
	<node lat="59.133475004201955" lon="11.54611666318296" id="-13469">
		<tag k="name" v="Ertebakken" />
		<tag k="place" v="locality" />
		<tag k="ssr:stedsnr" v="354725" />
	</node>
	<node lat="59.029580553886944" lon="11.629511105230785" id="-13476">
		<tag k="name" v="Lille Stenslund" />
=======
	</node>
	<node id="-215840" lat="58.9508861084" lon="11.6498611173">
		<tag k="name" v="Harebakken" />
		<tag k="place" v="locality" />
		<tag k="ssr:stedsnr" v="596584" />
	</node>
	<node id="-215837" lat="58.9049833342" lon="11.5070861063">
		<tag k="name" v="Ødegården" />
		<tag k="place" v="locality" />
		<tag k="ssr:stedsnr" v="596557" />
	</node>
	<node id="-214810" lat="59.1048750038" lon="11.5443777837">
		<tag k="name" v="Smedmyrliene" />
		<tag k="place" v="locality" />
		<tag k="ssr:stedsnr" v="961570" />
	</node>
	<node id="-215833" lat="59.1003249979" lon="11.5791111055">
		<tag k="name" v="Holtet" />
		<tag k="place" v="locality" />
		<tag k="ssr:stedsnr" v="596538" />
	</node>
	<node id="-214148" lat="59.1368861147" lon="11.5046888968">
		<tag k="name" v="Blæsemoen" />
		<tag k="place" v="locality" />
		<tag k="ssr:stedsnr" v="657679" />
	</node>
	<node id="-215830" lat="59.0483750009" lon="11.6158972236">
		<tag k="name" v="Stutøye" />
		<tag k="place" v="locality" />
		<tag k="ssr:stedsnr" v="596500" />
	</node>
	<node id="-214803" lat="59.1209861116" lon="11.4051305509">
		<tag k="name" v="Gyldenløve" />
		<tag k="ssr:stedsnr" v="933852" />
		<tag k="tourism" v="attraction" />
	</node>
	<node id="-214802" lat="59.1294694415" lon="11.4446222235">
		<tag k="amenity" v="place_of_worship" />
		<tag k="denomination" v="lutheran" />
		<tag k="name" v="Tistedal kirke" />
		<tag k="religion" v="christian" />
		<tag k="ssr:stedsnr" v="933846" />
	</node>
	<node id="-215824" lat="59.0930527738" lon="11.5152500046">
		<tag k="name" v="Løken" />
		<tag k="place" v="locality" />
		<tag k="ssr:stedsnr" v="596521" />
	</node>
	<node id="-214316" lat="58.8881388923" lon="11.5059861163">
		<tag k="name" v="Mathis kammer" />
		<tag k="place" v="locality" />
		<tag k="ssr:stedsnr" v="536808" />
	</node>
	<node id="-214776" lat="59.0409694471" lon="11.6048749953">
		<tag k="name" v="Sirra" />
		<tag k="place" v="locality" />
		<tag k="ssr:stedsnr" v="900960" />
	</node>
	<node id="-213751" lat="59.005219445" lon="11.595813893">
		<tag k="name" v="Korstjernbakken" />
		<tag k="place" v="locality" />
		<tag k="ssr:stedsnr" v="111916" />
	</node>
	<node id="-213747" lat="58.9692722194" lon="11.6184250063">
		<tag k="name" v="Høljen" />
		<tag k="place" v="locality" />
		<tag k="ssr:stedsnr" v="111603" />
	</node>
	<node id="-213971" lat="59.0875777813" lon="11.5835472288">
		<tag k="name" v="Høyebakke" />
		<tag k="place" v="locality" />
		<tag k="ssr:stedsnr" v="475695" />
	</node>
	<node id="-213743" lat="59.0542305562" lon="11.6684777787">
		<tag k="name" v="Brattekasene" />
		<tag k="place" v="locality" />
		<tag k="ssr:stedsnr" v="111518" />
	</node>
	<node id="-214766" lat="59.1329638892" lon="11.5756027807">
		<tag k="name" v="Bjørnhølet" />
		<tag k="place" v="locality" />
		<tag k="ssr:stedsnr" v="900715" />
	</node>
	<node id="-213741" lat="59.0433916665" lon="11.6188833385">
		<tag k="name" v="Ringlund" />
		<tag k="place" v="locality" />
		<tag k="ssr:stedsnr" v="111513" />
	</node>
	<node id="-213733" lat="59.0771749961" lon="11.4405277802">
		<tag k="alt_name" v="Bøndernes hus" />
		<tag k="amenity" v="community_centre" />
		<tag k="name" v="Idd bygdehus" />
		<tag k="old_name" v="Bøndenes hus" />
		<tag k="ssr:stedsnr" v="83809" />
	</node>
	<node id="-213627" lat="59.1119638928" lon="11.6242750072">
		<tag k="name" v="Lindhølet" />
		<tag k="place" v="locality" />
		<tag k="ssr:stedsnr" v="232557" />
	</node>
	<node id="-214551" lat="58.9131722237" lon="11.5852722166">
		<tag k="alt_name" v="Skauen nordre" />
		<tag k="name" v="Nordre Skauen" />
		<tag k="place" v="locality" />
		<tag k="ssr:stedsnr" v="900593" />
	</node>
	<node id="-213966" lat="59.0151166631" lon="11.6906055545">
		<tag k="name" v="Kristens kas" />
		<tag k="place" v="locality" />
		<tag k="ssr:stedsnr" v="475643" />
	</node>
	<node id="-214224" lat="58.9739555561" lon="11.4936777748">
		<tag k="name" v="Klo" />
		<tag k="place" v="locality" />
		<tag k="ssr:stedsnr" v="669805" />
	</node>
	<node id="-214136" lat="59.0834111105" lon="11.6223361071">
		<tag k="name" v="Dyvelmoen" />
		<tag k="place" v="locality" />
		<tag k="ssr:stedsnr" v="657597" />
	</node>
	<node id="-214562" lat="59.0614861069" lon="11.5554361038">
		<tag k="name" v="Sølepytt" />
		<tag k="place" v="locality" />
		<tag k="ssr:stedsnr" v="900782" />
	</node>
	<node id="-214730" lat="59.1081472234" lon="11.6089055549">
		<tag k="name" v="Tores slede" />
		<tag k="place" v="locality" />
		<tag k="ssr:stedsnr" v="840963" />
	</node>
	<node id="-214729" lat="59.1144305574" lon="11.5818138887">
		<tag k="name" v="Fastershull" />
		<tag k="place" v="locality" />
		<tag k="ssr:stedsnr" v="840958" />
	</node>
	<node id="-214725" lat="59.1612305599" lon="11.5963444533">
		<tag k="name" v="Holtet" />
		<tag k="place" v="locality" />
		<tag k="ssr:stedsnr" v="840903" />
	</node>
	<node id="-216260" lat="59.0804084136" lon="11.3931742068">
		<tag k="name" v="Monolittbruddet" />
		<tag k="ssr:stedsnr" v="977933" />
		<tag k="tourism" v="attraction" />
	</node>
	<node id="-214722" lat="59.0268277809" lon="11.6735333414">
		<tag k="name" v="Aspeliene" />
		<tag k="place" v="locality" />
		<tag k="ssr:stedsnr" v="840755" />
	</node>
	<node id="-215228" lat="59.1433694477" lon="11.5868249928">
		<tag k="name" v="Furumokasene" />
		<tag k="place" v="locality" />
		<tag k="ssr:stedsnr" v="172981" />
	</node>
	<node id="-215224" lat="58.9911722218" lon="11.5297666633">
		<tag k="name" v="Møllerbakken" />
		<tag k="place" v="locality" />
		<tag k="ssr:stedsnr" v="172921" />
	</node>
	<node id="-214709" lat="58.9288694415" lon="11.5860972235">
		<tag k="name" v="Engene" />
		<tag k="place" v="locality" />
		<tag k="ssr:stedsnr" v="840826" />
	</node>
	<node id="-214708" lat="58.9059388929" lon="11.5418361071">
		<tag k="name" v="Håkons moer" />
		<tag k="place" v="locality" />
		<tag k="ssr:stedsnr" v="840825" />
	</node>
	<node id="-216240" lat="59.1123777768" lon="11.5457194503">
		<tag k="name" v="Skomakergrana" />
		<tag k="place" v="locality" />
		<tag k="ssr:stedsnr" v="961971" />
	</node>
	<node id="-216237" lat="59.0175027737" lon="11.6100694364">
		<tag k="name" v="Rønnliholtet" />
		<tag k="place" v="locality" />
		<tag k="ssr:stedsnr" v="961796" />
	</node>
	<node id="-215212" lat="59.144891671" lon="11.5776555546">
		<tag k="name" v="Holenekasa" />
		<tag k="place" v="locality" />
		<tag k="ssr:stedsnr" v="172766" />
	</node>
	<node id="-216235" lat="58.9250361118" lon="11.6256722237">
		<tag k="name" v="Brubakk" />
		<tag k="place" v="locality" />
		<tag k="ssr:stedsnr" v="961646" />
	</node>
	<node id="-216233" lat="58.9951999981" lon="11.6757638898">
		<tag k="name" v="Olavsbråtene" />
		<tag k="place" v="locality" />
		<tag k="ssr:stedsnr" v="961637" />
	</node>
	<node id="-213838" lat="58.9637277757" lon="11.6064527696">
		<tag k="name" v="Høljen" />
		<tag k="place" v="locality" />
		<tag k="ssr:stedsnr" v="293815" />
	</node>
	<node id="-213670" lat="58.9898388931" lon="11.560133331">
		<tag k="name" v="Krabsetmoen" />
		<tag k="place" v="locality" />
		<tag k="ssr:stedsnr" v="50914" />
	</node>
	<node id="-213669" lat="58.9326972253" lon="11.5012222283">
		<tag k="name" v="Sten" />
		<tag k="place" v="locality" />
		<tag k="ssr:stedsnr" v="50865" />
	</node>
	<node id="-216227" lat="59.0808833308" lon="11.5614000022">
		<tag k="name" v="Bråtekas" />
		<tag k="place" v="locality" />
		<tag k="ssr:stedsnr" v="961547" />
	</node>
	<node id="-215713" lat="58.9083071228" lon="11.521739434">
		<tag k="amenity" v="place_of_worship" />
		<tag k="denomination" v="lutheran" />
		<tag k="name" v="Søndre Enningdalen kirke" />
		<tag k="religion" v="christian" />
		<tag k="ssr:stedsnr" v="546140" />
	</node>
	<node id="-215200" lat="59.1143944491" lon="11.5957888809">
		<tag k="name" v="Gåsemosholtet" />
		<tag k="place" v="locality" />
		<tag k="ssr:stedsnr" v="172579" />
	</node>
	<node id="-216223" lat="59.0543666659" lon="11.6727277787">
		<tag k="name" v="Hvitsand" />
		<tag k="place" v="locality" />
		<tag k="ssr:stedsnr" v="961538" />
	</node>
	<node id="-215710" lat="58.9691833364" lon="11.546858325">
		<tag k="name" v="Bjørnebekk" />
		<tag k="place" v="locality" />
		<tag k="ssr:stedsnr" v="536941" />
	</node>
	<node id="-215709" lat="58.9888444453" lon="11.5402666652">
		<tag k="name" v="Løvåsen" />
		<tag k="place" v="locality" />
		<tag k="ssr:stedsnr" v="536939" />
	</node>
	<node id="-215705" lat="58.9829749978" lon="11.5156416751">
		<tag k="name" v="Glennekasa" />
		<tag k="place" v="locality" />
		<tag k="ssr:stedsnr" v="536893" />
	</node>
	<node id="-214809" lat="59.0994555522" lon="11.5695277724">
		<tag k="name" v="Svarthølet" />
		<tag k="place" v="locality" />
		<tag k="ssr:stedsnr" v="961565" />
	</node>
	<node id="-213652" lat="59.0131722259" lon="11.5114722289">
		<tag k="name" v="Buerkasa" />
		<tag k="place" v="locality" />
		<tag k="ssr:stedsnr" v="232905" />
	</node>
	<node id="-215699" lat="59.0177055599" lon="11.678836114">
		<tag k="name" v="Vestliengene" />
		<tag k="place" v="locality" />
		<tag k="ssr:stedsnr" v="536745" />
	</node>
	<node id="-213650" lat="58.9899249972" lon="11.5227305519">
		<tag k="name" v="Sagjordsengene" />
>>>>>>> e1d4bc35ff8a6074a6f2e91616a996b547c36f15
		<tag k="place" v="locality" />
		<tag k="ssr:stedsnr" v="232895" />
	</node>
<<<<<<< HEAD
	<node lat="59.02806666883036" lon="11.642588881617966" id="-13477">
		<tag k="name" v="Store Stenslund" />
		<tag k="place" v="locality" />
		<tag k="ssr:stedsnr" v="354750" />
	</node>
	<node lat="58.99812777689116" lon="11.5480027815522" id="-13560">
		<tag k="name" v="Monnekasene" />
		<tag k="place" v="locality" />
		<tag k="ssr:stedsnr" v="414760" />
	</node>
	<node lat="59.07776389275265" lon="11.577380551366362" id="-13561">
		<tag k="name" v="Rytterkasa" />
		<tag k="place" v="locality" />
		<tag k="ssr:stedsnr" v="414545" />
	</node>
	<node lat="58.9810749986636" lon="11.556141668451932" id="-13565">
		<tag k="name" v="Sponehaugene" />
		<tag k="place" v="locality" />
		<tag k="ssr:stedsnr" v="414873" />
	</node>
	<node lat="58.91241944846616" lon="11.530708325066207" id="-13567">
		<tag k="name" v="Bråtorpkleva" />
		<tag k="place" v="locality" />
		<tag k="ssr:stedsnr" v="414884" />
	</node>
	<node lat="59.10888333146381" lon="11.505474992875103" id="-13569">
		<tag k="name" v="Snehella" />
		<tag k="place" v="locality" />
		<tag k="ssr:stedsnr" v="414958" />
	</node>
	<node lat="59.112563885918426" lon="11.504800007022657" id="-13580">
		<tag k="name" v="Svartkollholtet" />
		<tag k="place" v="locality" />
		<tag k="ssr:stedsnr" v="415544" />
	</node>
	<node lat="58.910877779752944" lon="11.583711109455987" id="-13593">
		<tag k="name" v="Skauskroken" />
		<tag k="place" v="locality" />
		<tag k="ssr:stedsnr" v="415713" />
	</node>
	<node lat="59.168033330092626" lon="11.508086116212981" id="-13689">
		<tag k="name" v="Løvkas" />
		<tag k="place" v="locality" />
		<tag k="ssr:stedsnr" v="536694" />
	</node>
	<node lat="59.167024997600066" lon="11.50358610324809" id="-13690">
		<tag k="name" v="Perkas" />
		<tag k="place" v="locality" />
		<tag k="ssr:stedsnr" v="536696" />
	</node>
	<node lat="59.0921472240954" lon="11.588274994174684" id="-13694">
		<tag k="name" v="Dammyr" />
		<tag k="place" v="locality" />
		<tag k="ssr:stedsnr" v="536715" />
	</node>
	<node lat="58.93681110950268" lon="11.508194447220298" id="-13696">
		<tag k="name" v="Goldenkasene" />
		<tag k="place" v="locality" />
		<tag k="ssr:stedsnr" v="536793" />
	</node>
	<node lat="58.98297499782613" lon="11.515641675123616" id="-13698">
		<tag k="name" v="Glennekasa" />
		<tag k="place" v="locality" />
		<tag k="ssr:stedsnr" v="536893" />
	</node>
	<node lat="59.01770555986384" lon="11.678836113961905" id="-13700">
		<tag k="name" v="Vestliengene" />
		<tag k="place" v="locality" />
		<tag k="ssr:stedsnr" v="536745" />
	</node>
	<node lat="59.013169447403136" lon="11.67708888923777" id="-13701">
		<tag k="name" v="Svarttjernkasa" />
		<tag k="place" v="locality" />
		<tag k="ssr:stedsnr" v="536752" />
	</node>
	<node lat="58.98884444528206" lon="11.540266665213448" id="-13704">
		<tag k="name" v="Løvåsen" />
		<tag k="place" v="locality" />
		<tag k="ssr:stedsnr" v="536939" />
	</node>
	<node lat="58.969183336386564" lon="11.546858325019162" id="-13705">
		<tag k="name" v="Bjørnebekk" />
		<tag k="place" v="locality" />
		<tag k="ssr:stedsnr" v="536941" />
	</node>
	<node lat="58.90830712281219" lon="11.521739434024761" id="-13707">
		<tag k="amenity" v="place_of_worship" />
		<tag k="denomination" v="lutheran" />
		<tag k="name" v="Søndre Enningdalen kirke" />
		<tag k="religion" v="christian" />
		<tag k="ssr:stedsnr" v="546140" />
	</node>
	<node lat="59.093052773756014" lon="11.515250004594142" id="-13771">
		<tag k="name" v="Løken" />
		<tag k="place" v="locality" />
		<tag k="ssr:stedsnr" v="596521" />
	</node>
	<node lat="59.10032499785537" lon="11.579111105515683" id="-13773">
		<tag k="name" v="Holtet" />
		<tag k="place" v="locality" />
		<tag k="ssr:stedsnr" v="596538" />
	</node>
	<node lat="58.95088610838172" lon="11.64986111729786" id="-13782">
		<tag k="name" v="Harebakken" />
		<tag k="place" v="locality" />
		<tag k="ssr:stedsnr" v="596584" />
	</node>
	<node lat="58.9906944463115" lon="11.54498333244048" id="-13789">
		<tag k="name" v="Brønnen" />
		<tag k="place" v="locality" />
		<tag k="ssr:stedsnr" v="596918" />
	</node>
	<node lat="58.95424444440431" lon="11.501583339264428" id="-13791">
		<tag k="name" v="Sankt Olavs klev" />
		<tag k="place" v="locality" />
		<tag k="ssr:stedsnr" v="596772" />
	</node>
	<node lat="58.93425555813967" lon="11.53694722234166" id="-13792">
		<tag k="name" v="Snippen" />
		<tag k="place" v="locality" />
		<tag k="ssr:stedsnr" v="596785" />
	</node>
	<node lat="59.17556944610953" lon="11.566558326586991" id="-13796">
		<tag k="name" v="Søndre Torpedalen" />
		<tag k="place" v="locality" />
		<tag k="ssr:stedsnr" v="596897" />
	</node>
	<node lat="59.21117777895846" lon="11.586927774284806" id="-13799">
		<tag k="name" v="Rødvannstangene" />
		<tag k="place" v="locality" />
		<tag k="ssr:stedsnr" v="596942" />
	</node>
	<node lat="59.18899999758038" lon="11.34422222247148" id="-13829">
		<tag k="amenity" v="place_of_worship" />
		<tag k="denomination" v="lutheran" />
		<tag k="name" v="Rokke kirke" />
		<tag k="religion" v="christian" />
		<tag k="ssr:stedsnr" v="607976" />
	</node>
	<node lat="59.08341111050703" lon="11.622336107057535" id="-13878">
		<tag k="name" v="Dyvelmoen" />
		<tag k="place" v="locality" />
		<tag k="ssr:stedsnr" v="657597" />
	</node>
	<node lat="59.136886114677864" lon="11.504688896807298" id="-13885">
		<tag k="name" v="Blæsemoen" />
		<tag k="place" v="locality" />
		<tag k="ssr:stedsnr" v="657679" />
	</node>
	<node lat="59.079244442656346" lon="11.565625003072075" id="-13886">
		<tag k="name" v="Grevlingbakkene" />
		<tag k="place" v="locality" />
		<tag k="ssr:stedsnr" v="657551" />
	</node>
	<node lat="59.085047222718416" lon="11.543869438167173" id="-13888">
		<tag k="name" v="Rødlandsholtet" />
		<tag k="place" v="locality" />
		<tag k="ssr:stedsnr" v="657560" />
	</node>
	<node lat="59.08079166726088" lon="11.514161110480469" id="-13889">
		<tag k="name" v="Rønningen" />
		<tag k="place" v="locality" />
		<tag k="ssr:stedsnr" v="657564" />
	</node>
	<node lat="58.96671944747796" lon="11.655044444898772" id="-13894">
		<tag k="name" v="Skjeggerødødegård" />
		<tag k="place" v="locality" />
		<tag k="ssr:stedsnr" v="657737" />
	</node>
	<node lat="58.89901944147574" lon="11.49991666367146" id="-13896">
		<tag k="name" v="Brekka" />
		<tag k="place" v="locality" />
		<tag k="ssr:stedsnr" v="657763" />
	</node>
	<node lat="59.049377780722104" lon="11.546602784793004" id="-13903">
		<tag k="name" v="Haugene" />
		<tag k="place" v="locality" />
		<tag k="ssr:stedsnr" v="657954" />
	</node>
	<node lat="58.90557222304972" lon="11.511833338184886" id="-13951">
		<tag k="name" v="Gråskas" />
=======
	<node id="-215696" lat="59.0921472241" lon="11.5882749942">
		<tag k="name" v="Dammyr" />
		<tag k="place" v="locality" />
		<tag k="ssr:stedsnr" v="536715" />
	</node>
	<node id="-213646" lat="58.929611114" lon="11.5212972236">
		<tag k="alt_name" v="Golden østre" />
		<tag k="amenity" v="community_centre" />
		<tag k="name" v="Østre Golden" />
		<tag k="ssr:stedsnr" v="232880" />
	</node>
	<node id="-213645" lat="58.9733750013" lon="11.6278888858">
		<tag k="name" v="Merrhøljen" />
		<tag k="place" v="locality" />
		<tag k="ssr:stedsnr" v="232767" />
	</node>
	<node id="-215692" lat="59.1670249976" lon="11.5035861032">
		<tag k="name" v="Perkas" />
		<tag k="place" v="locality" />
		<tag k="ssr:stedsnr" v="536696" />
	</node>
	<node id="-215691" lat="59.1680333301" lon="11.5080861162">
		<tag k="name" v="Løvkas" />
		<tag k="place" v="locality" />
		<tag k="ssr:stedsnr" v="536694" />
	</node>
	<node id="-213641" lat="59.0217777788" lon="11.6900611112">
		<tag k="name" v="Jonsbu" />
		<tag k="place" v="locality" />
		<tag k="ssr:stedsnr" v="232694" />
	</node>
	<node id="-214150" lat="59.1319444466" lon="11.5676777824">
		<tag k="name" v="Brynildskas" />
		<tag k="place" v="locality" />
		<tag k="ssr:stedsnr" v="657684" />
	</node>
	<node id="-216196" lat="59.1194777784" lon="11.3968000029">
		<tag k="alt_name" v="Fredriksten festning" />
		<tag k="name" v="Fredriksten" />
		<tag k="ssr:stedsnr" v="852834" />
		<tag k="tourism" v="attraction" />
	</node>
	<node id="-214147" lat="59.0493777807" lon="11.5466027848">
		<tag k="name" v="Haugene" />
		<tag k="place" v="locality" />
		<tag k="ssr:stedsnr" v="657954" />
	</node>
	<node id="-215678" lat="58.9322444416" lon="11.6250722207">
		<tag k="name" v="Rødklev" />
		<tag k="place" v="locality" />
		<tag k="ssr:stedsnr" v="536625" />
	</node>
	<node id="-215677" lat="58.9368111095" lon="11.5081944472">
		<tag k="name" v="Goldenkasene" />
		<tag k="place" v="locality" />
		<tag k="ssr:stedsnr" v="536793" />
	</node>
	<node id="-214139" lat="59.0022527818" lon="11.6927333311">
		<tag k="name" v="Tjæreovnen" />
		<tag k="place" v="locality" />
		<tag k="ssr:stedsnr" v="657606" />
	</node>
	<node id="-214138" lat="58.9941638883" lon="11.6767444457">
		<tag k="name" v="Havna" />
		<tag k="place" v="locality" />
		<tag k="ssr:stedsnr" v="657605" />
	</node>
	<node id="-213625" lat="59.095316668" lon="11.6461916609">
		<tag k="name" v="Langelinje" />
		<tag k="place" v="locality" />
		<tag k="ssr:stedsnr" v="232551" />
	</node>
	<node id="-215672" lat="59.0483666683" lon="11.6630166713">
		<tag k="name" v="Hestholtmoen" />
		<tag k="place" v="locality" />
		<tag k="ssr:stedsnr" v="536520" />
	</node>
	<node id="-215671" lat="59.0352916653" lon="11.685750002">
		<tag k="name" v="Rødhella" />
		<tag k="place" v="locality" />
		<tag k="ssr:stedsnr" v="536516" />
	</node>
	<node id="-213621" lat="59.0508499959" lon="11.6169416739">
		<tag k="name" v="Skrikelund" />
		<tag k="place" v="locality" />
		<tag k="ssr:stedsnr" v="232486" />
	</node>
	<node id="-214127" lat="59.0807916673" lon="11.5141611105">
		<tag k="name" v="Rønningen" />
		<tag k="place" v="locality" />
		<tag k="ssr:stedsnr" v="657564" />
	</node>
	<node id="-214126" lat="59.0850472227" lon="11.5438694382">
		<tag k="name" v="Rødlandsholtet" />
		<tag k="place" v="locality" />
		<tag k="ssr:stedsnr" v="657560" />
	</node>
	<node id="-214124" lat="59.0792444427" lon="11.5656250031">
		<tag k="name" v="Grevlingbakkene" />
		<tag k="place" v="locality" />
		<tag k="ssr:stedsnr" v="657551" />
	</node>
	<node id="-214122" lat="59.0750222192" lon="11.523547218">
		<tag k="name" v="Buret" />
		<tag k="place" v="locality" />
		<tag k="ssr:stedsnr" v="657532" />
	</node>
	<node id="-214155" lat="58.8990194415" lon="11.4999166637">
		<tag k="name" v="Brekka" />
		<tag k="place" v="locality" />
		<tag k="ssr:stedsnr" v="657763" />
	</node>
	<node id="-213643" lat="58.9693111116" lon="11.5104527696">
		<tag k="name" v="Lia" />
		<tag k="place" v="locality" />
		<tag k="ssr:stedsnr" v="232759" />
	</node>
	<node id="-216142" lat="59.0177166681" lon="11.639372229">
		<tag k="name" v="Lagmannssten" />
		<tag k="place" v="locality" />
		<tag k="ssr:stedsnr" v="840997" />
	</node>
	<node id="-216141" lat="59.0217333313" lon="11.6137527812">
		<tag k="name" v="Eljsjøholtene" />
		<tag k="place" v="locality" />
		<tag k="ssr:stedsnr" v="840996" />
	</node>
	<node id="-216125" lat="59.0831611068" lon="11.5760583254">
		<tag k="name" v="Støtta" />
		<tag k="place" v="locality" />
		<tag k="ssr:stedsnr" v="840724" />
	</node>
	<node id="-215609" lat="58.9108777798" lon="11.5837111095">
		<tag k="name" v="Skauskroken" />
		<tag k="place" v="locality" />
		<tag k="ssr:stedsnr" v="415713" />
	</node>
	<node id="-216116" lat="58.9557666645" lon="11.5064416587">
		<tag k="name" v="Ulfners grav" />
		<tag k="place" v="locality" />
		<tag k="ssr:stedsnr" v="840580" />
	</node>
	<node id="-216115" lat="58.9441527753" lon="11.4989416726">
		<tag k="name" v="Bukkhøljen" />
		<tag k="place" v="locality" />
		<tag k="ssr:stedsnr" v="840577" />
	</node>
	<node id="-216114" lat="58.8913000035" lon="11.5217166637">
		<tag k="name" v="Brannværn" />
		<tag k="place" v="locality" />
		<tag k="ssr:stedsnr" v="840563" />
	</node>
	<node id="-216112" lat="58.9934611117" lon="11.532633339">
		<tag k="amenity" v="place_of_worship" />
		<tag k="denomination" v="lutheran" />
		<tag k="name" v="Prestebakke kirke" />
		<tag k="religion" v="christian" />
		<tag k="ssr:stedsnr" v="816828" />
	</node>
	<node id="-215598" lat="58.938650002" lon="11.5369583254">
		<tag k="name" v="Trollermoen" />
		<tag k="place" v="locality" />
		<tag k="ssr:stedsnr" v="415638" />
	</node>
	<node id="-214570" lat="59.1075666664" lon="11.6243750085">
		<tag k="name" v="Nordmyrkoia" />
		<tag k="place" v="locality" />
		<tag k="ssr:stedsnr" v="900937" />
	</node>
	<node id="-215080" lat="59.1989888877" lon="11.5357027755">
		<tag k="name" v="Rømmeklev" />
>>>>>>> e1d4bc35ff8a6074a6f2e91616a996b547c36f15
		<tag k="place" v="locality" />
		<tag k="ssr:stedsnr" v="111986" />
	</node>
<<<<<<< HEAD
	<node lat="58.94852222420121" lon="11.50099443724964" id="-13954">
		<tag k="name" v="Hestepina" />
		<tag k="place" v="locality" />
		<tag k="ssr:stedsnr" v="718588" />
	</node>
	<node lat="59.04574722020863" lon="11.671936111237864" id="-13955">
		<tag k="name" v="Store Sveen" />
		<tag k="place" v="locality" />
		<tag k="ssr:stedsnr" v="718546" />
	</node>
	<node lat="58.936788885574316" lon="11.498719444587854" id="-13961">
		<tag k="name" v="Sagholen" />
		<tag k="place" v="locality" />
		<tag k="ssr:stedsnr" v="718797" />
	</node>
	<node lat="59.215924996591085" lon="11.544388895773059" id="-13975">
		<tag k="name" v="Åneset" />
		<tag k="place" v="locality" />
		<tag k="ssr:stedsnr" v="718899" />
	</node>
	<node lat="59.094097218720044" lon="11.550180561598271" id="-13977">
		<tag k="name" v="Tømmerlundene" />
		<tag k="place" v="locality" />
		<tag k="ssr:stedsnr" v="718978" />
	</node>
	<node lat="59.091319448361105" lon="11.431344449175448" id="-14037">
		<tag k="amenity" v="community_centre" />
		<tag k="name" v="Karlsholm" />
		<tag k="ssr:stedsnr" v="750777" />
	</node>
	<node lat="59.08159722618654" lon="11.55976111611221" id="-14050">
		<tag k="name" v="Langkloppmoen" />
		<tag k="place" v="locality" />
		<tag k="ssr:stedsnr" v="779545" />
	</node>
	<node lat="59.07823055960603" lon="11.52299722779399" id="-14052">
		<tag k="name" v="Tyska" />
		<tag k="place" v="locality" />
		<tag k="ssr:stedsnr" v="779556" />
	</node>
	<node lat="59.10685278209716" lon="11.532333338190984" id="-14057">
		<tag k="name" v="Brenna" />
		<tag k="place" v="locality" />
		<tag k="ssr:stedsnr" v="779569" />
	</node>
	<node lat="58.9413527780931" lon="11.499172216615795" id="-14058">
		<tag k="name" v="Sand" />
		<tag k="place" v="locality" />
		<tag k="ssr:stedsnr" v="779585" />
	</node>
	<node lat="58.967244440536554" lon="11.603586119247392" id="-14061">
		<tag k="name" v="Hyttedalen" />
		<tag k="place" v="locality" />
		<tag k="ssr:stedsnr" v="779609" />
	</node>
	<node lat="58.99346111167222" lon="11.532633338983487" id="-14163">
		<tag k="amenity" v="place_of_worship" />
		<tag k="denomination" v="lutheran" />
		<tag k="name" v="Prestebakke kirke" />
		<tag k="religion" v="christian" />
		<tag k="ssr:stedsnr" v="816828" />
	</node>
	<node lat="59.083161106832094" lon="11.576058325373399" id="-14169">
		<tag k="name" v="Støtta" />
		<tag k="place" v="locality" />
		<tag k="ssr:stedsnr" v="840724" />
	</node>
	<node lat="59.02682778092518" lon="11.673533341401258" id="-14176">
		<tag k="name" v="Aspeliene" />
		<tag k="place" v="locality" />
		<tag k="ssr:stedsnr" v="840755" />
	</node>
	<node lat="58.89130000353044" lon="11.521716663697685" id="-14181">
		<tag k="name" v="Brannværn" />
		<tag k="place" v="locality" />
		<tag k="ssr:stedsnr" v="840563" />
	</node>
	<node lat="59.11443055735396" lon="11.581813888715146" id="-14193">
		<tag k="name" v="Fastershull" />
		<tag k="place" v="locality" />
		<tag k="ssr:stedsnr" v="840958" />
	</node>
	<node lat="59.10814722340637" lon="11.608905554927608" id="-14194">
		<tag k="name" v="Tores slede" />
		<tag k="place" v="locality" />
		<tag k="ssr:stedsnr" v="840963" />
	</node>
	<node lat="59.11947777841256" lon="11.396800002913015" id="-14240">
		<tag k="alt_name" v="Fredriksten festning" />
		<tag k="name" v="Fredriksten" />
		<tag k="ssr:stedsnr" v="852834" />
		<tag k="tourism" v="attraction" />
	</node>
	<node lat="58.936949996214224" lon="11.673874997677274" id="-14283">
		<tag k="name" v="Fagerli" />
		<tag k="place" v="locality" />
		<tag k="ssr:stedsnr" v="961918" />
	</node>
	<node lat="59.0543666658812" lon="11.672727778733542" id="-14286">
		<tag k="name" v="Hvitsand" />
		<tag k="place" v="locality" />
		<tag k="ssr:stedsnr" v="961538" />
	</node>
	<node lat="59.08088333079952" lon="11.56140000218736" id="-14290">
		<tag k="name" v="Bråtekas" />
		<tag k="place" v="locality" />
		<tag k="ssr:stedsnr" v="961547" />
	</node>
	<node lat="59.104875003804274" lon="11.544377783668477" id="-14304">
		<tag k="name" v="Smedmyrliene" />
		<tag k="place" v="locality" />
		<tag k="ssr:stedsnr" v="961570" />
	</node>
	<node lat="58.99519999806522" lon="11.675763889765104" id="-14305">
		<tag k="name" v="Olavsbråtene" />
		<tag k="place" v="locality" />
		<tag k="ssr:stedsnr" v="961637" />
	</node>
	<node lat="58.92503611179174" lon="11.625672223689275" id="-14307">
		<tag k="name" v="Brubakk" />
		<tag k="place" v="locality" />
		<tag k="ssr:stedsnr" v="961646" />
	</node>
	<node lat="59.08035555220792" lon="11.667819445704" id="-14316">
		<tag k="name" v="Siggemyrhalsene" />
		<tag k="place" v="locality" />
		<tag k="ssr:stedsnr" v="961960" />
	</node>
	<node lat="59.052783334369174" lon="11.588327770579177" id="-14318">
		<tag k="name" v="Smiklev" />
		<tag k="place" v="locality" />
		<tag k="ssr:stedsnr" v="961969" />
	</node>
	<node lat="59.112377776849165" lon="11.545719450270235" id="-14319">
		<tag k="name" v="Skomakergrana" />
		<tag k="place" v="locality" />
		<tag k="ssr:stedsnr" v="961971" />
	</node>
	<node lat="59.080408413607664" lon="11.393174206846341" id="-14327">
		<tag k="name" v="Monolittbruddet" />
		<tag k="ssr:stedsnr" v="977933" />
		<tag k="tourism" v="attraction" />
=======
	<node id="-215589" lat="59.0894111147" lon="11.5237666614">
		<tag k="name" v="Snakop" />
		<tag k="place" v="locality" />
		<tag k="ssr:stedsnr" v="415587" />
	</node>
	<node id="-215587" lat="59.0774166706" lon="11.569886114">
		<tag k="name" v="Tyskebånn" />
		<tag k="place" v="locality" />
		<tag k="ssr:stedsnr" v="415578" />
	</node>
	<node id="-215074" lat="59.072449999" lon="11.5502305528">
		<tag k="name" v="Kuleplan" />
		<tag k="place" v="locality" />
		<tag k="ssr:stedsnr" v="111953" />
	</node>
	<node id="-215073" lat="58.9131111102" lon="11.6110611152">
		<tag k="name" v="Svantjernheia" />
		<tag k="place" v="locality" />
		<tag k="ssr:stedsnr" v="111768" />
	</node>
	<node id="-214559" lat="58.9994083367" lon="11.6946361032">
		<tag k="name" v="Maene" />
		<tag k="place" v="locality" />
		<tag k="ssr:stedsnr" v="900637" />
	</node>
	<node id="-214558" lat="59.003691667" lon="11.665747229">
		<tag k="name" v="Helbekkmoen" />
		<tag k="place" v="locality" />
		<tag k="ssr:stedsnr" v="900628" />
	</node>
	<node id="-214557" lat="59.1080888916" lon="11.6389833385">
		<tag k="name" v="Mølleren" />
		<tag k="place" v="locality" />
		<tag k="ssr:stedsnr" v="900624" />
	</node>
	<node id="-215580" lat="59.1125638859" lon="11.504800007">
		<tag k="name" v="Svartkollholtet" />
		<tag k="place" v="locality" />
		<tag k="ssr:stedsnr" v="415544" />
	</node>
	<node id="-214552" lat="58.9465000018" lon="11.5913999964">
		<tag k="name" v="Lyseholtet" />
		<tag k="place" v="locality" />
		<tag k="ssr:stedsnr" v="900610" />
	</node>
	<node id="-215575" lat="59.1088833315" lon="11.5054749929">
		<tag k="name" v="Snehella" />
		<tag k="place" v="locality" />
		<tag k="ssr:stedsnr" v="414958" />
	</node>
	<node id="-214550" lat="58.9217194417" lon="11.6521250025">
		<tag k="name" v="Neset" />
		<tag k="place" v="locality" />
		<tag k="ssr:stedsnr" v="900588" />
	</node>
	<node id="-214549" lat="58.8834888932" lon="11.5356388839">
		<tag k="name" v="Flekken" />
		<tag k="place" v="locality" />
		<tag k="ssr:stedsnr" v="900586" />
	</node>
	<node id="-215572" lat="59.0008666665" lon="11.5631305523">
		<tag k="name" v="Hogsjøliene" />
		<tag k="place" v="locality" />
		<tag k="ssr:stedsnr" v="414914" />
	</node>
	<node id="-215058" lat="59.049944444" lon="11.6070888893">
		<tag k="name" v="Aspelund" />
		<tag k="place" v="locality" />
		<tag k="ssr:stedsnr" v="111489" />
	</node>
	<node id="-215569" lat="58.9921305601" lon="11.5276083285">
		<tag k="name" v="Sagjordet" />
		<tag k="place" v="locality" />
		<tag k="ssr:stedsnr" v="414895" />
	</node>
	<node id="-213794" lat="58.951063889" lon="11.584733341">
		<tag k="name" v="Monsertangen" />
		<tag k="place" v="locality" />
		<tag k="ssr:stedsnr" v="172620" />
	</node>
	<node id="-215567" lat="58.9124194485" lon="11.5307083251">
		<tag k="name" v="Bråtorpkleva" />
		<tag k="place" v="locality" />
		<tag k="ssr:stedsnr" v="414884" />
	</node>
	<node id="-215209" lat="59.1683972194" lon="11.512997219">
		<tag k="name" v="Kastet" />
		<tag k="place" v="locality" />
		<tag k="ssr:stedsnr" v="172739" />
	</node>
	<node id="-215565" lat="58.9810749987" lon="11.5561416685">
		<tag k="name" v="Sponehaugene" />
		<tag k="place" v="locality" />
		<tag k="ssr:stedsnr" v="414873" />
	</node>
	<node id="-214540" lat="59.0513083369" lon="11.6541055479">
		<tag k="name" v="Holen" />
		<tag k="place" v="locality" />
		<tag k="ssr:stedsnr" v="900533" />
	</node>
	<node id="-215563" lat="58.929786107" lon="11.565469436">
		<tag k="name" v="Stutøye" />
		<tag k="place" v="locality" />
		<tag k="ssr:stedsnr" v="414786" />
	</node>
	<node id="-215562" lat="58.9981277769" lon="11.5480027816">
		<tag k="name" v="Monnekasene" />
		<tag k="place" v="locality" />
		<tag k="ssr:stedsnr" v="414760" />
	</node>
	<node id="-213847" lat="59.0078944421" lon="11.5656916737">
		<tag k="name" v="Huset" />
		<tag k="place" v="locality" />
		<tag k="ssr:stedsnr" v="293932" />
	</node>
	<node id="-215047" lat="59.1644222219" lon="11.6110416654">
		<tag k="name" v="Rekkemoen" />
		<tag k="place" v="locality" />
		<tag k="ssr:stedsnr" v="111579" />
	</node>
	<node id="-215043" lat="58.8910000028" lon="11.5233111189">
		<tag k="name" v="Gata" />
		<tag k="place" v="locality" />
		<tag k="ssr:stedsnr" v="111555" />
	</node>
	<node id="-213675" lat="59.0032944452" lon="11.6159583287">
		<tag k="name" v="Bjørnehiet" />
		<tag k="place" v="locality" />
		<tag k="ssr:stedsnr" v="51655" />
>>>>>>> e1d4bc35ff8a6074a6f2e91616a996b547c36f15
	</node>
</osm>
