<?xml version="1.0" encoding="UTF-8"?>
<<<<<<< HEAD
<osm version="0.6" generator="osmapis">
	<node lat="59.12093888598604" lon="11.31678333368521" id="-11725">
=======
<osm generator="osmapis" version="0.6">
	<node id="-215552" lat="58.9609666688" lon="11.4909694518">
		<tag k="bridge" v="yes" />
		<tag k="layer" v="1" />
		<tag k="name" v="Berby" />
		<tag k="ssr:stedsnr" v="409664" />
	</node>
	<node id="-215551" lat="59.1263138921" lon="11.3577722252">
>>>>>>> e1d4bc35ff8a6074a6f2e91616a996b547c36f15
		<tag k="bridge" v="yes" />
		<tag k="layer" v="1" />
		<tag k="name" v="Lundestad" />
		<tag k="ssr:stedsnr" v="45570" />
	</node>
<<<<<<< HEAD
	<node lat="59.13461110726739" lon="11.370322219534412" id="-11726">
		<tag k="bridge" v="yes" />
		<tag k="layer" v="1" />
		<tag k="name" v="Karrestad" />
		<tag k="ssr:stedsnr" v="45572" />
	</node>
	<node lat="59.233847222685405" lon="11.564202769433251" id="-11729">
		<tag k="man_made" v="cairn" />
		<tag k="name" v="Korsrøs" />
		<tag k="place" v="locality" />
		<tag k="ssr:stedsnr" v="50675" />
	</node>
	<node lat="59.14784444274266" lon="11.556033335063873" id="-11770">
		<tag k="name" v="Brekke" />
		<tag k="old_name" v="Brekke sluse;Brekke sluser" />
		<tag k="ssr:stedsnr" v="63018" />
		<tag k="waterway" v="lock_gate" />
	</node>
	<node lat="59.11826792670714" lon="11.387826710967913" id="-11901">
		<tag k="man_made" v="quay" />
		<tag k="name" v="Kongens brygge" />
		<tag k="place" v="locality" />
		<tag k="ssr:stedsnr" v="161585" />
	</node>
	<node lat="59.12550277718434" lon="11.291777770036122" id="-11930">
=======
	<node id="-215932" lat="59.1201260298" lon="11.3839528724">
		<tag k="name" v="Halden stasjon" />
		<tag k="old_name" v="Halden jernbanestasjon" />
		<tag k="railway" v="station" />
		<tag k="ssr:stedsnr" v="628195" />
		<tag k="train" v="yes" />
	</node>
	<node id="-214265" lat="59.1698638926" lon="11.425077776">
		<tag k="highway" v="path" />
		<tag k="name" v="Dameløypa" />
		<tag k="ssr:stedsnr" v="508857" />
	</node>
	<node id="-213880" lat="59.0231027742" lon="11.4440277753">
		<tag k="man_made" v="quay" />
		<tag k="name" v="Bauen brygge" />
		<tag k="place" v="locality" />
		<tag k="ssr:stedsnr" v="447158" />
	</node>
	<node id="-215798" lat="59.0310495848" lon="11.4350930908">
		<tag k="man_made" v="quay" />
		<tag k="name" v="Rødhella" />
		<tag k="place" v="locality" />
		<tag k="ssr:stedsnr" v="568190" />
	</node>
	<node id="-215284" lat="59.1255027772" lon="11.29177777">
>>>>>>> e1d4bc35ff8a6074a6f2e91616a996b547c36f15
		<tag k="alt_name" v="Berg" />
		<tag k="name" v="Berg stasjon" />
		<tag k="railway" v="station" />
		<tag k="ssr:stedsnr" v="184838" />
		<tag k="train" v="yes" />
	</node>
<<<<<<< HEAD
	<node lat="59.12442500217651" lon="11.445188890825312" id="-11934">
		<tag k="junction" v="yes" />
		<tag k="name" v="Tangen" />
		<tag k="place" v="locality" />
		<tag k="ssr:stedsnr" v="265849" />
	</node>
	<node lat="59.14235278050516" lon="11.34056388559569" id="-11942">
		<tag k="junction" v="yes" />
		<tag k="name" v="Bruresvingen" />
		<tag k="place" v="locality" />
		<tag k="ssr:stedsnr" v="265169" />
	</node>
	<node lat="59.12111666270149" lon="11.384311109269483" id="-11953">
=======
	<node id="-215538" lat="59.1385527772" lon="11.349819443">
		<tag k="bridge" v="yes" />
		<tag k="layer" v="1" />
		<tag k="name" v="Bærengen bru" />
		<tag k="ssr:stedsnr" v="386210" />
	</node>
	<node id="-214513" lat="59.1262222179" lon="11.443516662">
		<tag k="bridge" v="yes" />
		<tag k="layer" v="1" />
		<tag k="name" v="Tistedal" />
		<tag k="ssr:stedsnr" v="896627" />
	</node>
	<node id="-214896" lat="59.1185111085" lon="11.3867055526">
		<tag k="leisure" v="marina" />
		<tag k="name" v="Gjestehavn" />
		<tag k="ssr:stedsnr" v="22142" />
	</node>
	<node id="-216219" lat="59.1494944407" lon="11.2464111142">
		<tag k="bridge" v="yes" />
		<tag k="layer" v="1" />
		<tag k="name" v="Hjelmungbekken" />
		<tag k="ssr:stedsnr" v="955607" />
	</node>
	<node id="-213740" lat="59.1169861125" lon="11.377155552">
>>>>>>> e1d4bc35ff8a6074a6f2e91616a996b547c36f15
		<tag k="man_made" v="quay" />
		<tag k="name" v="Krankaia" />
		<tag k="place" v="locality" />
		<tag k="ssr:stedsnr" v="100476" />
	</node>
<<<<<<< HEAD
	<node lat="59.2222416622768" lon="11.577616671615532" id="-11991">
		<tag k="man_made" v="cairn" />
		<tag k="name" v="Røsengrå" />
		<tag k="place" v="locality" />
		<tag k="ssr:stedsnr" v="234983" />
	</node>
	<node lat="59.12862221928937" lon="11.389269440498033" id="-12022">
		<tag k="junction" v="yes" />
		<tag k="name" v="Chr. Sindings plass" />
		<tag k="place" v="locality" />
		<tag k="ssr:stedsnr" v="265840" />
	</node>
	<node lat="59.13393055979489" lon="11.541811109954743" id="-12025">
		<tag k="bridge" v="yes" />
		<tag k="layer" v="1" />
		<tag k="name" v="Store Erte" />
		<tag k="ssr:stedsnr" v="288544" />
	</node>
	<node lat="59.13459444582009" lon="11.532300001724966" id="-12026">
=======
	<node id="-213609" lat="59.1187111095" lon="11.3776583318">
		<tag k="man_made" v="quay" />
		<tag k="name" v="Jernbanebrygga" />
		<tag k="place" v="locality" />
		<tag k="ssr:stedsnr" v="222467" />
	</node>
	<node id="-215292" lat="59.1176000007" lon="11.3822694515">
		<tag k="man_made" v="quay" />
		<tag k="name" v="Langbrygga" />
		<tag k="place" v="locality" />
		<tag k="ssr:stedsnr" v="204119" />
	</node>
	<node id="-213767" lat="59.1423527805" lon="11.3405638856">
		<tag k="junction" v="yes" />
		<tag k="name" v="Bruresvingen" />
		<tag k="place" v="locality" />
		<tag k="ssr:stedsnr" v="265169" />
	</node>
	<node id="-214500" lat="59.1217111139" lon="11.281119449">
>>>>>>> e1d4bc35ff8a6074a6f2e91616a996b547c36f15
		<tag k="bridge" v="yes" />
		<tag k="layer" v="1" />
		<tag k="name" v="Krusæter" />
		<tag k="ssr:stedsnr" v="288548" />
	</node>
<<<<<<< HEAD
	<node lat="59.13305277838709" lon="11.280727785041838" id="-12090">
		<tag k="bridge" v="yes" />
		<tag k="layer" v="1" />
		<tag k="name" v="Svingen" />
		<tag k="ssr:stedsnr" v="348571" />
	</node>
	<node lat="58.989055552222574" lon="11.529313896259973" id="-12091">
		<tag k="bridge" v="yes" />
		<tag k="layer" v="1" />
		<tag k="name" v="Prestebakke" />
		<tag k="ssr:stedsnr" v="348572" />
	</node>
	<node lat="58.96858333210448" lon="11.473499997875662" id="-12190">
		<tag k="man_made" v="cairn" />
		<tag k="name" v="Angells Røs" />
		<tag k="place" v="locality" />
		<tag k="ssr:stedsnr" v="386164" />
	</node>
	<node lat="59.13855277718524" lon="11.34981944301791" id="-12195">
		<tag k="bridge" v="yes" />
		<tag k="layer" v="1" />
		<tag k="name" v="Bærengen bru" />
		<tag k="ssr:stedsnr" v="386210" />
	</node>
	<node lat="59.12813333387795" lon="11.464908334980752" id="-12317">
=======
	<node id="-214499" lat="59.1147999979" lon="11.3856694525">
		<tag k="leisure" v="marina" />
		<tag k="name" v="Verven småbåthavn" />
		<tag k="ssr:stedsnr" v="889495" />
	</node>
	<node id="-213855" lat="59.1476416655" lon="11.54800833">
		<tag k="name" v="Brekke kanal" />
		<tag k="ssr:stedsnr" v="293980" />
		<tag k="waterway" v="canal" />
	</node>
	<node id="-216026" lat="59.1194388913" lon="11.3698111106">
		<tag k="man_made" v="quay" />
		<tag k="name" v="Tyskebrygga" />
		<tag k="place" v="locality" />
		<tag k="ssr:stedsnr" v="783045" />
	</node>
	<node id="-216276" lat="59.1187784134" lon="11.3875168165">
		<tag k="man_made" v="quay" />
		<tag k="name" v="Tollbubrygga" />
		<tag k="place" v="locality" />
		<tag k="ssr:stedsnr" v="989675" />
	</node>
	<node id="-216275" lat="59.1182205695" lon="11.3730618503">
>>>>>>> e1d4bc35ff8a6074a6f2e91616a996b547c36f15
		<tag k="man_made" v="quay" />
		<tag k="name" v="Bjørnstadbrygga" />
		<tag k="place" v="locality" />
		<tag k="ssr:stedsnr" v="447817" />
	</node>
<<<<<<< HEAD
	<node lat="58.99698611243303" lon="11.488152777277781" id="-12362">
		<tag k="bridge" v="yes" />
		<tag k="layer" v="1" />
		<tag k="name" v="Folkå" />
		<tag k="ssr:stedsnr" v="530620" />
	</node>
	<node lat="59.1178916705335" lon="11.36598333599802" id="-12411">
=======
	<node id="-216035" lat="58.9120000033" lon="11.4959500017">
		<tag k="man_made" v="cairn" />
		<tag k="name" v="Smedsrødvarden" />
		<tag k="place" v="locality" />
		<tag k="ssr:stedsnr" v="789138" />
	</node>
	<node id="-214924" lat="59.2338472227" lon="11.5642027694">
		<tag k="man_made" v="cairn" />
		<tag k="name" v="Korsrøs" />
		<tag k="place" v="locality" />
		<tag k="ssr:stedsnr" v="50675" />
	</node>
	<node id="-213665" lat="59.2222416623" lon="11.5776166716">
		<tag k="man_made" v="cairn" />
		<tag k="name" v="Røsengrå" />
		<tag k="place" v="locality" />
		<tag k="ssr:stedsnr" v="234983" />
	</node>
	<node id="-214408" lat="59.1170444463" lon="11.3828444468">
		<tag k="leisure" v="marina" />
		<tag k="name" v="Indre havn" />
		<tag k="ssr:stedsnr" v="628155" />
	</node>
	<node id="-215618" lat="59.1182611157" lon="11.3787111043">
>>>>>>> e1d4bc35ff8a6074a6f2e91616a996b547c36f15
		<tag k="leisure" v="marina" />
		<tag k="name" v="Ytre havn" />
		<tag k="ssr:stedsnr" v="690172" />
	</node>
<<<<<<< HEAD
	<node lat="59.20094444600623" lon="11.495130561511303" id="-12456">
		<tag k="bridge" v="yes" />
		<tag k="layer" v="1" />
		<tag k="name" v="Fugleputt" />
		<tag k="ssr:stedsnr" v="591571" />
	</node>
	<node lat="59.02191944499105" lon="11.515313882326874" id="-12471">
		<tag k="name" v="Buer stasjon" />
		<tag k="railway" v="station" />
		<tag k="ssr:stedsnr" v="596700" />
		<tag k="train" v="yes" />
	</node>
	<node lat="59.12012602975" lon="11.383952872410207" id="-12516">
		<tag k="name" v="Halden stasjon" />
		<tag k="old_name" v="Halden jernbanestasjon" />
		<tag k="railway" v="station" />
		<tag k="ssr:stedsnr" v="628195" />
		<tag k="train" v="yes" />
	</node>
	<node lat="58.94115000032574" lon="11.66024166376148" id="-12551">
		<tag k="name" v="Kornsjø stasjon" />
		<tag k="railway" v="station" />
		<tag k="ssr:stedsnr" v="657688" />
		<tag k="train" v="yes" />
	</node>
	<node lat="59.12171111393492" lon="11.281119449020501" id="-12622">
=======
	<node id="-214078" lat="58.9685833321" lon="11.4734999979">
		<tag k="man_made" v="cairn" />
		<tag k="name" v="Angells Røs" />
		<tag k="place" v="locality" />
		<tag k="ssr:stedsnr" v="386164" />
	</node>
	<node id="-214330" lat="59.1751499999" lon="11.5669027854">
>>>>>>> e1d4bc35ff8a6074a6f2e91616a996b547c36f15
		<tag k="bridge" v="yes" />
		<tag k="layer" v="1" />
		<tag k="name" v="Løkkebergkrysset" />
		<tag k="ssr:stedsnr" v="895555" />
	</node>
<<<<<<< HEAD
	<node lat="59.11786110820139" lon="11.383277772772592" id="-12624">
=======
	<node id="-214328" lat="59.1178611082" lon="11.3832777728">
>>>>>>> e1d4bc35ff8a6074a6f2e91616a996b547c36f15
		<tag k="man_made" v="quay" />
		<tag k="name" v="Ytre Langbrygga" />
		<tag k="place" v="locality" />
		<tag k="ssr:stedsnr" v="707506" />
	</node>
<<<<<<< HEAD
	<node lat="59.16852777733802" lon="11.413191662670378" id="-12802">
		<tag k="highway" v="path" />
		<tag k="name" v="Blåløypa" />
		<tag k="ssr:stedsnr" v="811818" />
	</node>
	<node lat="59.12055555381215" lon="11.389436115542882" id="-12807">
		<tag k="junction" v="yes" />
		<tag k="name" v="Ohmes plass" />
		<tag k="place" v="locality" />
		<tag k="ssr:stedsnr" v="811790" />
	</node>
	<node lat="59.12622221787187" lon="11.443516661955883" id="-12898">
		<tag k="bridge" v="yes" />
		<tag k="layer" v="1" />
		<tag k="name" v="Tistedal" />
		<tag k="ssr:stedsnr" v="896627" />
	</node>
	<node lat="58.951480557647194" lon="11.599494443699287" id="-12964">
		<tag k="bridge" v="yes" />
		<tag k="layer" v="1" />
		<tag k="name" v="Lyse" />
		<tag k="ssr:stedsnr" v="955604" />
	</node>
	<node lat="59.14949444074957" lon="11.246411114178292" id="-12965">
		<tag k="bridge" v="yes" />
		<tag k="layer" v="1" />
		<tag k="name" v="Hjelmungbekken" />
		<tag k="ssr:stedsnr" v="955607" />
	</node>
	<node lat="59.11822056945763" lon="11.37306185028893" id="-12981">
		<tag k="man_made" v="quay" />
		<tag k="name" v="Mølbrygga" />
		<tag k="place" v="locality" />
		<tag k="ssr:stedsnr" v="989666" />
	</node>
	<node lat="59.11851110846511" lon="11.386705552576318" id="-13030">
		<tag k="leisure" v="marina" />
		<tag k="name" v="Gjestehavn" />
		<tag k="ssr:stedsnr" v="22142" />
	</node>
	<node lat="59.13191110956853" lon="11.266299996693965" id="-13043">
=======
	<node id="-214703" lat="59.1501527747" lon="11.2424527817">
		<tag k="bridge" v="yes" />
		<tag k="layer" v="1" />
		<tag k="name" v="Hjelmungbekken" />
		<tag k="ssr:stedsnr" v="834611" />
	</node>
	<node id="-214702" lat="59.0652749974" lon="11.4352361153">
		<tag k="bridge" v="yes" />
		<tag k="layer" v="1" />
		<tag k="name" v="Snekketorp" />
		<tag k="ssr:stedsnr" v="834604" />
	</node>
	<node id="-215852" lat="59.021919445" lon="11.5153138823">
		<tag k="name" v="Buer stasjon" />
		<tag k="railway" v="station" />
		<tag k="ssr:stedsnr" v="596700" />
		<tag k="train" v="yes" />
	</node>
	<node id="-213618" lat="58.9723861133" lon="11.4981277806">
		<tag k="bridge" v="yes" />
		<tag k="layer" v="1" />
		<tag k="name" v="Ende" />
		<tag k="ssr:stedsnr" v="227659" />
	</node>
	<node id="-215002" lat="59.1478444427" lon="11.5560333351">
		<tag k="name" v="Brekke" />
		<tag k="old_name" v="Brekke sluse;Brekke sluser" />
		<tag k="ssr:stedsnr" v="63018" />
		<tag k="waterway" v="lock_gate" />
	</node>
	<node id="-213783" lat="59.1286222193" lon="11.3892694405">
		<tag k="junction" v="yes" />
		<tag k="name" v="Chr. Sindings plass" />
		<tag k="place" v="locality" />
		<tag k="ssr:stedsnr" v="265840" />
	</node>
	<node id="-216220" lat="59.140847223" lon="11.4540333357">
		<tag k="bridge" v="yes" />
		<tag k="layer" v="1" />
		<tag k="name" v="Enerhaugen" />
		<tag k="ssr:stedsnr" v="955677" />
	</node>
	<node id="-216102" lat="59.1685277773" lon="11.4131916627">
		<tag k="highway" v="path" />
		<tag k="name" v="Blåløypa" />
		<tag k="ssr:stedsnr" v="811818" />
	</node>
	<node id="-214151" lat="58.9411500003" lon="11.6602416638">
		<tag k="name" v="Kornsjø stasjon" />
		<tag k="railway" v="station" />
		<tag k="ssr:stedsnr" v="657688" />
		<tag k="train" v="yes" />
	</node>
	<node id="-214050" lat="58.9890555522" lon="11.5293138963">
		<tag k="bridge" v="yes" />
		<tag k="layer" v="1" />
		<tag k="name" v="Prestebakke" />
		<tag k="ssr:stedsnr" v="348572" />
	</node>
	<node id="-214049" lat="59.1330527784" lon="11.280727785">
>>>>>>> e1d4bc35ff8a6074a6f2e91616a996b547c36f15
		<tag k="bridge" v="yes" />
		<tag k="layer" v="1" />
		<tag k="name" v="Vikshaugen" />
		<tag k="ssr:stedsnr" v="46642" />
	</node>
	<node lat="59.123508337540606" lon="11.392761109591614" id="-13044">
		<tag k="bridge" v="yes" />
		<tag k="layer" v="1" />
		<tag k="name" v="Vaterland" />
		<tag k="ssr:stedsnr" v="46645" />
	</node>
<<<<<<< HEAD
	<node lat="59.11698611251654" lon="11.37715555195404" id="-13136">
		<tag k="man_made" v="quay" />
		<tag k="name" v="Krankaia" />
		<tag k="place" v="locality" />
		<tag k="ssr:stedsnr" v="100476" />
	</node>
	<node lat="59.12126944435512" lon="11.384108331888392" id="-13237">
		<tag k="man_made" v="quay" />
		<tag k="name" v="Fiskebrygga" />
=======
	<node id="-216096" lat="59.1205555538" lon="11.3894361155">
		<tag k="junction" v="yes" />
		<tag k="name" v="Ohmes plass" />
>>>>>>> e1d4bc35ff8a6074a6f2e91616a996b547c36f15
		<tag k="place" v="locality" />
		<tag k="ssr:stedsnr" v="163916" />
	</node>
<<<<<<< HEAD
	<node lat="59.118627782263" lon="11.386091664863757" id="-13238">
		<tag k="man_made" v="quay" />
		<tag k="name" v="Indre Langbrygga" />
		<tag k="place" v="locality" />
		<tag k="ssr:stedsnr" v="161481" />
	</node>
	<node lat="59.1181944417725" lon="11.371052777235576" id="-13239">
		<tag k="man_made" v="quay" />
		<tag k="name" v="Ytre Mølbrygga" />
		<tag k="place" v="locality" />
		<tag k="ssr:stedsnr" v="161482" />
	</node>
	<node lat="59.12144444203973" lon="11.297549991212119" id="-13241">
=======
	<node id="-215199" lat="59.121444442" lon="11.2975499912">
>>>>>>> e1d4bc35ff8a6074a6f2e91616a996b547c36f15
		<tag k="bridge" v="yes" />
		<tag k="layer" v="1" />
		<tag k="name" v="Fange" />
		<tag k="ssr:stedsnr" v="166588" />
	</node>
<<<<<<< HEAD
	<node lat="58.93488725076439" lon="11.670902507107371" id="-13242">
		<tag k="bridge" v="yes" />
		<tag k="layer" v="1" />
		<tag k="name" v="Kornsjø" />
		<tag k="ssr:stedsnr" v="167628" />
	</node>
	<node lat="59.11760000065803" lon="11.382269451478857" id="-13319">
		<tag k="man_made" v="quay" />
		<tag k="name" v="Langbrygga" />
		<tag k="place" v="locality" />
		<tag k="ssr:stedsnr" v="204119" />
	</node>
	<node lat="59.118711109496246" lon="11.37765833183672" id="-13332">
		<tag k="man_made" v="quay" />
		<tag k="name" v="Jernbanebrygga" />
		<tag k="place" v="locality" />
		<tag k="ssr:stedsnr" v="222467" />
	</node>
	<node lat="58.97238611328654" lon="11.498127780624264" id="-13334">
		<tag k="bridge" v="yes" />
		<tag k="layer" v="1" />
		<tag k="name" v="Ende" />
		<tag k="ssr:stedsnr" v="227659" />
	</node>
	<node lat="59.147641665478" lon="11.548008330015604" id="-13369">
		<tag k="name" v="Brekke kanal" />
		<tag k="ssr:stedsnr" v="293980" />
		<tag k="waterway" v="canal" />
	</node>
	<node lat="59.12631389210031" lon="11.357772225179765" id="-13555">
=======
	<node id="-213790" lat="59.1212694444" lon="11.3841083319">
		<tag k="man_made" v="quay" />
		<tag k="name" v="Fiskebrygga" />
		<tag k="place" v="locality" />
		<tag k="ssr:stedsnr" v="163916" />
	</node>
	<node id="-215197" lat="59.1182679267" lon="11.387826711">
		<tag k="man_made" v="quay" />
		<tag k="name" v="Kongens brygge" />
		<tag k="place" v="locality" />
		<tag k="ssr:stedsnr" v="161585" />
	</node>
	<node id="-215196" lat="59.1181944418" lon="11.3710527772">
		<tag k="man_made" v="quay" />
		<tag k="name" v="Ytre Mølbrygga" />
		<tag k="place" v="locality" />
		<tag k="ssr:stedsnr" v="161482" />
	</node>
	<node id="-215195" lat="59.1186277823" lon="11.3860916649">
		<tag k="man_made" v="quay" />
		<tag k="name" v="Indre Langbrygga" />
		<tag k="place" v="locality" />
		<tag k="ssr:stedsnr" v="161481" />
	</node>
	<node id="-216218" lat="58.9514805576" lon="11.5994944437">
		<tag k="bridge" v="yes" />
		<tag k="layer" v="1" />
		<tag k="name" v="Lyse" />
		<tag k="ssr:stedsnr" v="955604" />
	</node>
	<node id="-213807" lat="59.1345944458" lon="11.5323000017">
		<tag k="bridge" v="yes" />
		<tag k="layer" v="1" />
		<tag k="name" v="Krusæter" />
		<tag k="ssr:stedsnr" v="288548" />
	</node>
	<node id="-215960" lat="59.1238500033" lon="11.2962388898">
>>>>>>> e1d4bc35ff8a6074a6f2e91616a996b547c36f15
		<tag k="bridge" v="yes" />
		<tag k="layer" v="1" />
		<tag k="name" v="Remmen" />
		<tag k="ssr:stedsnr" v="409587" />
	</node>
<<<<<<< HEAD
	<node lat="58.96096666884201" lon="11.490969451777055" id="-13556">
		<tag k="bridge" v="yes" />
		<tag k="layer" v="1" />
		<tag k="name" v="Berby" />
		<tag k="ssr:stedsnr" v="409664" />
	</node>
	<node lat="59.11826111574445" lon="11.378711104254757" id="-13597">
		<tag k="leisure" v="marina" />
		<tag k="name" v="Ny havn" />
		<tag k="ssr:stedsnr" v="419067" />
	</node>
	<node lat="59.023102774239824" lon="11.444027775260428" id="-13634">
=======
	<node id="-215708" lat="58.9908861145" lon="11.5365527779">
		<tag k="name" v="Prestebakke stasjon" />
		<tag k="railway" v="station" />
		<tag k="ssr:stedsnr" v="536925" />
		<tag k="train" v="yes" />
	</node>
	<node id="-215958" lat="59.117805557" lon="11.3755861081">
>>>>>>> e1d4bc35ff8a6074a6f2e91616a996b547c36f15
		<tag k="man_made" v="quay" />
		<tag k="name" v="Bauen brygge" />
		<tag k="place" v="locality" />
		<tag k="ssr:stedsnr" v="447158" />
	</node>
<<<<<<< HEAD
	<node lat="59.169863892628676" lon="11.425077775962265" id="-13666">
		<tag k="highway" v="path" />
		<tag k="name" v="Dameløypa" />
		<tag k="ssr:stedsnr" v="508857" />
	</node>
	<node lat="58.99095945188784" lon="11.53757349453871" id="-13703">
		<tag k="name" v="Prestebakke stasjon" />
		<tag k="railway" v="station" />
		<tag k="ssr:stedsnr" v="536925" />
		<tag k="train" v="yes" />
	</node>
	<node lat="59.03104958480038" lon="11.435093090778077" id="-13758">
		<tag k="man_made" v="quay" />
		<tag k="name" v="Rødhella" />
=======
	<node id="-213785" lat="59.1244250022" lon="11.4451888908">
		<tag k="junction" v="yes" />
		<tag k="name" v="Tangen" />
>>>>>>> e1d4bc35ff8a6074a6f2e91616a996b547c36f15
		<tag k="place" v="locality" />
		<tag k="ssr:stedsnr" v="568190" />
	</node>
<<<<<<< HEAD
	<node lat="59.12789139353674" lon="11.444169692539777" id="-13769">
		<tag k="bridge" v="yes" />
		<tag k="layer" v="1" />
		<tag k="name" v="Tista" />
		<tag k="ssr:stedsnr" v="592634" />
	</node>
	<node lat="59.11704444629353" lon="11.382844446777973" id="-13858">
		<tag k="leisure" v="marina" />
		<tag k="name" v="Indre havn" />
		<tag k="ssr:stedsnr" v="628155" />
	</node>
	<node lat="59.117805557006186" lon="11.375586108123189" id="-13870">
		<tag k="man_made" v="quay" />
		<tag k="name" v="Indre Mølbrygga" />
		<tag k="place" v="locality" />
		<tag k="ssr:stedsnr" v="646498" />
	</node>
	<node lat="59.12385000332581" lon="11.29623888979551" id="-13872">
=======
	<node id="-215983" lat="59.12139722" lon="11.2952999989">
		<tag k="bridge" v="yes" />
		<tag k="layer" v="1" />
		<tag k="name" v="Unneberg" />
		<tag k="ssr:stedsnr" v="774643" />
	</node>
	<node id="-213806" lat="59.1339305598" lon="11.54181111">
		<tag k="bridge" v="yes" />
		<tag k="layer" v="1" />
		<tag k="name" v="Store Erte" />
		<tag k="ssr:stedsnr" v="288544" />
	</node>
	<node id="-215296" lat="59.1211166627" lon="11.3843111093">
		<tag k="man_made" v="quay" />
		<tag k="name" v="Fisketorget" />
		<tag k="place" v="locality" />
		<tag k="ssr:stedsnr" v="204157" />
	</node>
	<node id="-215822" lat="59.1278913935" lon="11.4441696925">
>>>>>>> e1d4bc35ff8a6074a6f2e91616a996b547c36f15
		<tag k="bridge" v="yes" />
		<tag k="layer" v="1" />
		<tag k="name" v="Torpum" />
		<tag k="ssr:stedsnr" v="652579" />
	</node>
<<<<<<< HEAD
	<node lat="59.175149999945425" lon="11.56690278535535" id="-13949">
=======
	<node id="-215821" lat="59.200944446" lon="11.4951305615">
>>>>>>> e1d4bc35ff8a6074a6f2e91616a996b547c36f15
		<tag k="bridge" v="yes" />
		<tag k="layer" v="1" />
		<tag k="name" v="Fismedal" />
		<tag k="ssr:stedsnr" v="713621" />
	</node>
	<node lat="59.12139722004562" lon="11.295299998923003" id="-14047">
		<tag k="bridge" v="yes" />
		<tag k="layer" v="1" />
		<tag k="name" v="Unneberg" />
		<tag k="ssr:stedsnr" v="774643" />
	</node>
<<<<<<< HEAD
	<node lat="59.11943889125968" lon="11.369811110550195" id="-14080">
		<tag k="man_made" v="quay" />
		<tag k="name" v="Tyskebrygga" />
		<tag k="place" v="locality" />
		<tag k="ssr:stedsnr" v="783045" />
	</node>
	<node lat="58.91200000325206" lon="11.495950001676544" id="-14086">
		<tag k="man_made" v="cairn" />
		<tag k="name" v="Smedsrødvarden" />
		<tag k="place" v="locality" />
		<tag k="ssr:stedsnr" v="789138" />
	</node>
	<node lat="59.1141638858431" lon="11.311025005409746" id="-14139">
		<tag k="man_made" v="quay" />
		<tag k="name" v="Brygga" />
		<tag k="place" v="locality" />
		<tag k="ssr:stedsnr" v="811174" />
	</node>
	<node lat="59.0652749973896" lon="11.43523611530306" id="-14165">
=======
	<node id="-216076" lat="59.1141638858" lon="11.3110250054">
		<tag k="man_made" v="quay" />
		<tag k="name" v="Brygga" />
		<tag k="place" v="locality" />
		<tag k="ssr:stedsnr" v="811174" />
	</node>
	<node id="-214283" lat="59.1178916705" lon="11.365983336">
		<tag k="leisure" v="marina" />
		<tag k="name" v="Ytre havn" />
		<tag k="ssr:stedsnr" v="690172" />
	</node>
	<node id="-213898" lat="59.1281333339" lon="11.464908335">
		<tag k="man_made" v="quay" />
		<tag k="name" v="Bjørnstadbrygga" />
		<tag k="place" v="locality" />
		<tag k="ssr:stedsnr" v="447817" />
	</node>
	<node id="-214921" lat="59.1235083375" lon="11.3927611096">
>>>>>>> e1d4bc35ff8a6074a6f2e91616a996b547c36f15
		<tag k="bridge" v="yes" />
		<tag k="layer" v="1" />
		<tag k="name" v="Snekketorp" />
		<tag k="ssr:stedsnr" v="834604" />
	</node>
<<<<<<< HEAD
	<node lat="59.15015277472229" lon="11.24245278170643" id="-14166">
=======
	<node id="-214920" lat="59.1319111096" lon="11.2662999967">
>>>>>>> e1d4bc35ff8a6074a6f2e91616a996b547c36f15
		<tag k="bridge" v="yes" />
		<tag k="layer" v="1" />
		<tag k="name" v="Hjelmungbekken" />
		<tag k="ssr:stedsnr" v="834611" />
	</node>
<<<<<<< HEAD
	<node lat="59.114799997893634" lon="11.385669452458869" id="-14273">
		<tag k="leisure" v="marina" />
		<tag k="name" v="Verven småbåthavn" />
		<tag k="ssr:stedsnr" v="889495" />
	</node>
	<node lat="59.14084722304478" lon="11.454033335708209" id="-14277">
=======
	<node id="-214919" lat="59.1346111073" lon="11.3703222195">
		<tag k="bridge" v="yes" />
		<tag k="layer" v="1" />
		<tag k="name" v="Karrestad" />
		<tag k="ssr:stedsnr" v="45572" />
	</node>
	<node id="-214918" lat="59.120938886" lon="11.3167833337">
>>>>>>> e1d4bc35ff8a6074a6f2e91616a996b547c36f15
		<tag k="bridge" v="yes" />
		<tag k="layer" v="1" />
		<tag k="name" v="Enerhaugen" />
		<tag k="ssr:stedsnr" v="955677" />
	</node>
<<<<<<< HEAD
	<node lat="59.118778413381946" lon="11.387516816520801" id="-14344">
		<tag k="man_made" v="quay" />
		<tag k="name" v="Tollbubrygga" />
		<tag k="place" v="locality" />
		<tag k="ssr:stedsnr" v="989675" />
=======
	<node id="-214275" lat="58.9969861124" lon="11.4881527773">
		<tag k="bridge" v="yes" />
		<tag k="layer" v="1" />
		<tag k="name" v="Folkå" />
		<tag k="ssr:stedsnr" v="530620" />
>>>>>>> e1d4bc35ff8a6074a6f2e91616a996b547c36f15
	</node>
</osm>
