<?xml version="1.0" encoding="UTF-8"?>
<osm version="0.6" generator="osmapis">
	<node lat="59.19853889204132" lon="11.538436113151857" id="-23720">
		<tag k="name" v="Krosstjern" />
		<tag k="natural" v="water" />
		<tag k="ssr:stedsnr" v="1092" />
	</node>
	<node lat="59.24020000185137" lon="11.571783335824751" id="-23722">
		<tag k="loc_name" v="Teigsørvannet" />
		<tag k="name" v="Teigsørvann" />
		<tag k="natural" v="water" />
		<tag k="ssr:stedsnr" v="1152" />
	</node>
	<node lat="59.06727500191603" lon="11.665494437743092" id="-23724">
		<tag k="name" v="Ramfruøya" />
		<tag k="place" v="islet" />
		<tag k="ssr:stedsnr" v="1383" />
	</node>
	<node lat="58.98228055944173" lon="11.622963887910082" id="-23725">
		<tag k="name" v="Damtjern" />
		<tag k="natural" v="water" />
		<tag k="ssr:stedsnr" v="1796" />
	</node>
	<node lat="58.99722777496336" lon="11.628905556452855" id="-23727">
		<tag k="name" v="Elja" />
		<tag k="ssr:stedsnr" v="1816" />
		<tag k="waterway" v="river" />
	</node>
	<node lat="59.08705832967065" lon="11.616119446887279" id="-23738">
		<tag k="name" v="Spontjern" />
		<tag k="natural" v="water" />
		<tag k="ssr:stedsnr" v="232546" />
	</node>
	<node lat="58.89884444765453" lon="11.494088885731047" id="-23752">
		<tag k="name" v="Filleskreppa" />
		<tag k="natural" v="water" />
		<tag k="ssr:stedsnr" v="232700" />
	</node>
	<node lat="59.2168333298016" lon="11.568569441723131" id="-23753">
		<tag k="name" v="Brilletjern" />
		<tag k="natural" v="water" />
		<tag k="ssr:stedsnr" v="232654" />
	</node>
	<node lat="59.08122777653867" lon="11.587416669144345" id="-23754">
		<tag k="name" v="Lomtjern" />
		<tag k="natural" v="water" />
		<tag k="ssr:stedsnr" v="232659" />
	</node>
	<node lat="59.00132221856611" lon="11.555066660850734" id="-23760">
		<tag k="name" v="Kroktjern" />
		<tag k="natural" v="water" />
		<tag k="ssr:stedsnr" v="232907" />
	</node>
	<node lat="59.06494721879222" lon="11.669483329692676" id="-23766">
		<tag k="name" v="Vabutangen" />
		<tag k="natural" v="cape" />
		<tag k="ssr:stedsnr" v="232949" />
	</node>
	<node lat="58.992855553816675" lon="11.528236119027417" id="-23770">
		<tag k="name" v="Ørelva" />
		<tag k="ssr:stedsnr" v="22135" />
		<tag k="waterway" v="river" />
	</node>
	<node lat="59.151341664806274" lon="11.480794437636886" id="-23778">
		<tag k="name" v="Lille Kjepina" />
		<tag k="place" v="islet" />
		<tag k="ssr:stedsnr" v="22818" />
	</node>
	<node lat="59.202936109288565" lon="11.398886114669317" id="-23779">
		<tag k="name" v="Væretjern" />
		<tag k="natural" v="water" />
		<tag k="ssr:stedsnr" v="22831" />
	</node>
	<node lat="59.200827777711226" lon="11.496436110894525" id="-23782">
		<tag k="name" v="Fugleputt" />
		<tag k="natural" v="water" />
		<tag k="ssr:stedsnr" v="22836" />
		<tag k="water" v="pond" />
	</node>
	<node lat="59.17805277730973" lon="11.523263888085726" id="-23794">
		<tag k="name" v="Rjørelva" />
		<tag k="ssr:stedsnr" v="50883" />
		<tag k="waterway" v="river" />
	</node>
	<node lat="59.12024166516154" lon="11.540083325972319" id="-23796">
		<tag k="name" v="Bjørnetjern" />
		<tag k="natural" v="water" />
		<tag k="ssr:stedsnr" v="50886" />
	</node>
	<node lat="59.108969445467885" lon="11.5376055609554" id="-23798">
		<tag k="name" v="Langetjern" />
		<tag k="natural" v="water" />
		<tag k="ssr:stedsnr" v="51601" />
	</node>
	<node lat="58.90422499989958" lon="11.547597228819306" id="-23809">
		<tag k="name" v="Slatjern" />
		<tag k="natural" v="water" />
		<tag k="ssr:stedsnr" v="61124" />
	</node>
	<node lat="58.91137222190063" lon="11.607838888632445" id="-23810">
		<tag k="alt_name" v="Klyptjern" />
		<tag k="name" v="Klypetjern" />
		<tag k="natural" v="water" />
		<tag k="ssr:stedsnr" v="61129" />
	</node>
	<node lat="58.93530277398873" lon="11.478911110340047" id="-23811">
		<tag k="name" v="Trolldalsvannet" />
		<tag k="natural" v="water" />
		<tag k="ssr:stedsnr" v="61178" />
	</node>
	<node lat="59.0424289769414" lon="11.553808439334531" id="-23820">
		<tag k="name" v="Ramnsneset" />
		<tag k="natural" v="cape" />
		<tag k="ssr:stedsnr" v="62420" />
	</node>
	<node lat="59.081633335851954" lon="11.668058327389005" id="-23822">
		<tag k="name" v="Abbortjern" />
		<tag k="natural" v="water" />
		<tag k="ssr:stedsnr" v="62478" />
	</node>
	<node lat="59.081799998186504" lon="11.556772228752676" id="-23823">
		<tag k="name" v="Ørdalstjern" />
		<tag k="natural" v="water" />
		<tag k="ssr:stedsnr" v="62487" />
	</node>
	<node lat="58.98538359578646" lon="11.578936312652036" id="-23824">
		<tag k="alt_name" v="Trestikke" />
		<tag k="name" v="Trestikket" />
		<tag k="natural" v="water" />
		<tag k="ssr:stedsnr" v="62802" />
		<tag k="water" v="lake" />
	</node>
	<node lat="58.98786389073591" lon="11.640463885185351" id="-23825">
		<tag k="alt_name" v="Ødegårdstjernet" />
		<tag k="name" v="Ødegårdstjern" />
		<tag k="natural" v="water" />
		<tag k="ssr:stedsnr" v="62806" />
	</node>
	<node lat="58.9498888894597" lon="11.674755562384359" id="-23829">
		<tag k="name" v="Bastøya" />
		<tag k="place" v="islet" />
		<tag k="ssr:stedsnr" v="62875" />
	</node>
	<node lat="58.911872223716145" lon="11.601241666787732" id="-23838">
		<tag k="name" v="Langetjern" />
		<tag k="natural" v="water" />
		<tag k="ssr:stedsnr" v="243139" />
	</node>
	<node lat="58.90201798207557" lon="11.456474070642136" id="-23840">
		<tag k="name" v="Lomtjern" />
		<tag k="natural" v="water" />
		<tag k="ssr:stedsnr" v="243119" />
	</node>
	<node lat="58.93136388492062" lon="11.46346666083159" id="-23842">
		<tag k="name" v="Damtjern" />
		<tag k="natural" v="water" />
		<tag k="ssr:stedsnr" v="243169" />
	</node>
	<node lat="59.17199166917043" lon="11.512980563872306" id="-23844">
		<tag k="name" v="Rjørneset" />
		<tag k="natural" v="cape" />
		<tag k="ssr:stedsnr" v="244098" />
	</node>
	<node lat="59.00479324482828" lon="11.563029563335757" id="-23847">
		<tag k="alt_name" v="Hogsjø" />
		<tag k="name" v="Hokksjøen" />
		<tag k="natural" v="water" />
		<tag k="ssr:stedsnr" v="244319" />
		<tag k="water" v="lake" />
	</node>
	<node lat="59.11594166911407" lon="11.573208341565214" id="-23851">
		<tag k="alt_name" v="Høyøa" />
		<tag k="name" v="Høgøya" />
		<tag k="place" v="islet" />
		<tag k="ssr:stedsnr" v="244476" />
	</node>
	<node lat="58.98819698662499" lon="11.608285524938076" id="-23853">
		<tag k="name" v="Langtjern" />
		<tag k="natural" v="water" />
		<tag k="ssr:stedsnr" v="244819" />
	</node>
	<node lat="58.98153888619651" lon="11.67418056364586" id="-23856">
		<tag k="name" v="Duetjern" />
		<tag k="natural" v="water" />
		<tag k="ssr:stedsnr" v="244826" />
	</node>
	<node lat="59.13480000316368" lon="11.485444441243015" id="-23868">
		<tag k="name" v="Bjørnstadøyene" />
		<tag k="place" v="islet" />
		<tag k="ssr:stedsnr" v="245020" />
	</node>
	<node lat="59.120619442221646" lon="11.624269440723475" id="-23874">
		<tag k="name" v="Storemosetjern" />
		<tag k="natural" v="water" />
		<tag k="ssr:stedsnr" v="245050" />
	</node>
	<node lat="59.15559444597314" lon="11.485236109973659" id="-23878">
		<tag k="alt_name" v="Kjepina, store" />
		<tag k="name" v="Store Kjepina" />
		<tag k="place" v="islet" />
		<tag k="ssr:stedsnr" v="245118" />
	</node>
	<node lat="59.112750003124226" lon="11.510544445454553" id="-23891">
		<tag k="name" v="Nordre Svartkolltjern" />
		<tag k="natural" v="water" />
		<tag k="ssr:stedsnr" v="111488" />
	</node>
	<node lat="58.971452781922856" lon="11.595830552807897" id="-23895">
		<tag k="name" v="Rødtjern" />
		<tag k="natural" v="water" />
		<tag k="ssr:stedsnr" v="111573" />
	</node>
	<node lat="59.069791666226656" lon="11.629358332946856" id="-23896">
		<tag k="name" v="Lille Sveltetjern" />
		<tag k="natural" v="water" />
		<tag k="ssr:stedsnr" v="111576" />
	</node>
	<node lat="59.10639722434469" lon="11.636372219644654" id="-23898">
		<tag k="name" v="Skrukketjern" />
		<tag k="natural" v="water" />
		<tag k="ssr:stedsnr" v="111584" />
	</node>
	<node lat="59.087050972454904" lon="11.627996280280943" id="-23900">
		<tag k="name" v="Øvre Dyvel" />
		<tag k="natural" v="water" />
		<tag k="ssr:stedsnr" v="111722" />
		<tag k="water" v="lake" />
	</node>
	<node lat="59.146147221851685" lon="11.510805548121041" id="-23905">
		<tag k="name" v="Nesbukta" />
		<tag k="natural" v="bay" />
		<tag k="ssr:stedsnr" v="111671" />
	</node>
	<node lat="59.12558055828881" lon="11.560105558274731" id="-23906">
		<tag k="name" v="Kjetangen" />
		<tag k="natural" v="cape" />
		<tag k="ssr:stedsnr" v="111677" />
	</node>
	<node lat="58.89200555578776" lon="11.457697219086906" id="-23907">
		<tag k="alt_name" v="Vammen søndre" />
		<tag k="name" v="Søndre Vammen" />
		<tag k="natural" v="water" />
		<tag k="ssr:stedsnr" v="111689" />
	</node>
	<node lat="59.012608337541465" lon="11.608566671640117" id="-23908">
		<tag k="name" v="Lønntjern" />
		<tag k="natural" v="water" />
		<tag k="ssr:stedsnr" v="111693" />
	</node>
	<node lat="58.9033136575653" lon="11.527730161802241" id="-23918">
		<tag k="name" v="Kirkevannet" />
		<tag k="natural" v="water" />
		<tag k="ssr:stedsnr" v="122125" />
		<tag k="water" v="lake" />
	</node>
	<node lat="58.935838884834666" lon="11.500449992413891" id="-23919">
		<tag k="name" v="Enningdalselva" />
		<tag k="ssr:stedsnr" v="122167" />
		<tag k="waterway" v="river" />
	</node>
	<node lat="58.93556451556583" lon="11.664662331784372" id="-23920">
		<tag k="name" v="Munkholmen" />
		<tag k="place" v="islet" />
		<tag k="ssr:stedsnr" v="122174" />
	</node>
	<node lat="59.05969166499488" lon="11.617894443694965" id="-23925">
		<tag k="alt_name" v="Mørttjern" />
		<tag k="name" v="Morttjern" />
		<tag k="natural" v="water" />
		<tag k="ssr:stedsnr" v="123410" />
	</node>
	<node lat="58.97420784617788" lon="11.590671871456054" id="-23929">
		<tag k="alt_name" v="Torstensettjern" />
		<tag k="name" v="Torstensetvannet" />
		<tag k="natural" v="water" />
		<tag k="ssr:stedsnr" v="123821" />
	</node>
	<node lat="58.956310933382824" lon="11.468374326153343" id="-23931">
		<tag k="name" v="Hestetjern" />
		<tag k="natural" v="water" />
		<tag k="ssr:stedsnr" v="123856" />
	</node>
	<node lat="58.95643611251347" lon="11.684480555609957" id="-23936">
		<tag k="alt_name" v="Bokenesøya" />
		<tag k="name" v="Bokenesøyene" />
		<tag k="place" v="islet" />
		<tag k="ssr:stedsnr" v="123871" />
	</node>
	<node lat="59.12273611062523" lon="11.504686112663206" id="-23940">
		<tag k="name" v="Småtjern" />
		<tag k="natural" v="water" />
		<tag k="ssr:stedsnr" v="124056" />
	</node>
	<node lat="59.09446125315173" lon="11.580410480799276" id="-23966">
		<tag k="name" v="Abbortjern" />
		<tag k="natural" v="water" />
		<tag k="ssr:stedsnr" v="172822" />
	</node>
	<node lat="59.06409999581499" lon="11.602458328203284" id="-23972">
		<tag k="name" v="Lille Vardåstjern" />
		<tag k="natural" v="water" />
		<tag k="ssr:stedsnr" v="172963" />
	</node>
	<node lat="59.00173055990374" lon="11.532388882036326" id="-23975">
		<tag k="name" v="Buvika" />
		<tag k="natural" v="bay" />
		<tag k="ssr:stedsnr" v="183305" />
	</node>
	<node lat="58.982963885406114" lon="11.572325000664724" id="-23982">
		<tag k="name" v="Svarttjern" />
		<tag k="natural" v="water" />
		<tag k="ssr:stedsnr" v="183811" />
	</node>
	<node lat="58.99619721825931" lon="11.539763886072276" id="-23984">
		<tag k="name" v="Kalvøya" />
		<tag k="natural" v="cape" />
		<tag k="ssr:stedsnr" v="183799" />
	</node>
	<node lat="59.15699289118703" lon="11.563202198706488" id="-23985">
		<tag k="name" v="Brekketjerna" />
		<tag k="natural" v="water" />
		<tag k="ssr:stedsnr" v="184112" />
		<tag k="water" v="lake" />
	</node>
	<node lat="59.19979444777827" lon="11.495208328608658" id="-23986">
		<tag k="alt_name" v="Bøelva" />
		<tag k="name" v="Rjørelva" />
		<tag k="ssr:stedsnr" v="184189" />
		<tag k="waterway" v="river" />
	</node>
	<node lat="59.04794549308238" lon="11.551997342264945" id="-23987">
		<tag k="name" v="Ånerødkilen" />
		<tag k="natural" v="bay" />
		<tag k="ssr:stedsnr" v="184450" />
	</node>
	<node lat="58.96103673971928" lon="11.60868360021821" id="-23989">
		<tag k="alt_name" v="Lysevannet" />
		<tag k="name" v="Lyse" />
		<tag k="natural" v="water" />
		<tag k="ssr:stedsnr" v="184802" />
		<tag k="water" v="lake" />
	</node>
	<node lat="58.96408888645987" lon="11.636941671316775" id="-23990">
		<tag k="name" v="Store Gjeddetjern" />
		<tag k="natural" v="water" />
		<tag k="ssr:stedsnr" v="184807" />
	</node>
	<node lat="59.22187499717694" lon="11.447099996417874" id="-23993">
		<tag k="alt_name" v="Svarttjern" />
		<tag k="name" v="Svarttjernet" />
		<tag k="natural" v="water" />
		<tag k="ssr:stedsnr" v="184900" />
	</node>
	<node lat="59.22150555244834" lon="11.396119446191856" id="-23998">
		<tag k="alt_name" v="Vakrene vestre" />
		<tag k="name" v="Vestre Vakrene" />
		<tag k="natural" v="water" />
		<tag k="ssr:stedsnr" v="265867" />
	</node>
	<node lat="59.24187777738065" lon="11.435027783874249" id="-23999">
		<tag k="name" v="Holebekken" />
		<tag k="ssr:stedsnr" v="265873" />
		<tag k="waterway" v="stream" />
	</node>
	<node lat="58.97769166540776" lon="11.477911116446784" id="-24016">
		<tag k="name" v="Berbyelva" />
		<tag k="ssr:stedsnr" v="204116" />
		<tag k="waterway" v="river" />
	</node>
	<node lat="59.031444444190825" lon="11.475194446911509" id="-24018">
		<tag k="name" v="Langevann" />
		<tag k="natural" v="water" />
		<tag k="ssr:stedsnr" v="204206" />
	</node>
	<node lat="59.025624999424394" lon="11.478833328250584" id="-24020">
		<tag k="name" v="Stutøye" />
		<tag k="natural" v="water" />
		<tag k="ssr:stedsnr" v="204211" />
	</node>
	<node lat="59.185894442242294" lon="11.451997220492279" id="-24023">
		<tag k="name" v="Stangåstjern" />
		<tag k="natural" v="water" />
		<tag k="ssr:stedsnr" v="204822" />
	</node>
	<node lat="59.23817778141591" lon="11.41567222652973" id="-24024">
		<tag k="name" v="Lommetjern" />
		<tag k="natural" v="water" />
		<tag k="ssr:stedsnr" v="204830" />
	</node>
	<node lat="59.063561113982544" lon="11.662536113147725" id="-24031">
		<tag k="name" v="Torgalsbøenøya" />
		<tag k="place" v="island" />
		<tag k="ssr:stedsnr" v="232489" />
	</node>
	<node lat="59.24371111338367" lon="11.533883336435489" id="-24039">
		<tag k="name" v="Aspetjern" />
		<tag k="natural" v="water" />
		<tag k="ssr:stedsnr" v="232638" />
	</node>
	<node lat="59.169405558061634" lon="11.502622220352626" id="-24040">
		<tag k="name" v="Tjærvika" />
		<tag k="natural" v="bay" />
		<tag k="ssr:stedsnr" v="232640" />
	</node>
	<node lat="59.22005000166264" lon="11.572683332920437" id="-24041">
		<tag k="name" v="Naredaltjern" />
		<tag k="natural" v="water" />
		<tag k="ssr:stedsnr" v="232645" />
	</node>
	<node lat="59.07352222480538" lon="11.58638332761707" id="-24058">
		<tag k="name" v="Nybøletjern" />
		<tag k="natural" v="water" />
		<tag k="ssr:stedsnr" v="244484" />
	</node>
	<node lat="59.07633972694953" lon="11.628890285101077" id="-24059">
		<tag k="name" v="Elgetjern" />
		<tag k="natural" v="water" />
		<tag k="ssr:stedsnr" v="244489" />
	</node>
	<node lat="59.005996735997975" lon="11.61668419497219" id="-24061">
		<tag k="alt_name" v="Eljsjøen" />
		<tag k="name" v="Elgsjøen" />
		<tag k="natural" v="water" />
		<tag k="ssr:stedsnr" v="244797" />
		<tag k="water" v="lake" />
	</node>
	<node lat="59.07690555710216" lon="11.65597778354264" id="-24066">
		<tag k="name" v="Øretjern" />
		<tag k="natural" v="water" />
		<tag k="ssr:stedsnr" v="245273" />
	</node>
	<node lat="59.10023333324634" lon="11.673327774665276" id="-24068">
		<tag k="name" v="Lille Øfsetjern" />
		<tag k="natural" v="water" />
		<tag k="ssr:stedsnr" v="245432" />
	</node>
	<node lat="59.12670555182504" lon="11.25693610868397" id="-24076">
		<tag k="name" v="Stordiket" />
		<tag k="ssr:stedsnr" v="265085" />
		<tag k="waterway" v="stream" />
	</node>
	<node lat="58.88703888977698" lon="11.514499992699113" id="-24093">
		<tag k="name" v="Sandvika" />
		<tag k="natural" v="bay" />
		<tag k="ssr:stedsnr" v="293586" />
	</node>
	<node lat="59.12003888830378" lon="11.569494444981508" id="-24094">
		<tag k="name" v="Bukkholmene" />
		<tag k="place" v="islet" />
		<tag k="ssr:stedsnr" v="293730" />
	</node>
	<node lat="58.92795000114422" lon="11.645391661713594" id="-24097">
		<tag k="name" v="Sundet" />
		<tag k="natural" v="strait" />
		<tag k="ssr:stedsnr" v="293629" />
	</node>
	<node lat="58.91668055706815" lon="11.641488891375564" id="-24098">
		<tag k="name" v="Sandbukta" />
		<tag k="natural" v="bay" />
		<tag k="ssr:stedsnr" v="293632" />
	</node>
	<node lat="59.07948611014297" lon="11.58059999933567" id="-24106">
		<tag k="name" v="Hafsrødtjern" />
		<tag k="natural" v="water" />
		<tag k="ssr:stedsnr" v="293906" />
	</node>
	<node lat="59.00252143056057" lon="11.564988214713608" id="-24107">
		<tag k="name" v="Bektjern" />
		<tag k="natural" v="water" />
		<tag k="ssr:stedsnr" v="293927" />
	</node>
	<node lat="59.00542671089888" lon="11.570639251041863" id="-24108">
		<tag k="name" v="Engerintjernene" />
		<tag k="natural" v="water" />
		<tag k="ssr:stedsnr" v="293930" />
		<tag k="water" v="lake" />
	</node>
	<node lat="59.01314444535256" lon="11.550594441089835" id="-24115">
		<tag k="alt_name" v="Hestøyene store" />
		<tag k="name" v="Hestøyane" />
		<tag k="place" v="islet" />
		<tag k="ssr:stedsnr" v="304330" />
	</node>
	<node lat="59.16251944425439" lon="11.511708330352421" id="-24121">
		<tag k="alt_name" v="Svendsholmen" />
		<tag k="name" v="Svensholmen" />
		<tag k="place" v="islet" />
		<tag k="ssr:stedsnr" v="305105" />
	</node>
	<node lat="59.14891944535726" lon="11.56984166186197" id="-24124">
		<tag k="name" v="Stenselva" />
		<tag k="ssr:stedsnr" v="305017" />
		<tag k="waterway" v="river" />
	</node>
	<node lat="59.091141662435696" lon="11.65393610899459" id="-24126">
		<tag k="alt_name" v="Orretjern" />
		<tag k="name" v="Øretjern" />
		<tag k="natural" v="water" />
		<tag k="ssr:stedsnr" v="305529" />
	</node>
	<node lat="59.124119448271166" lon="11.359608340322799" id="-24141">
		<tag k="name" v="Remmenbekken" />
		<tag k="ssr:stedsnr" v="325214" />
		<tag k="waterway" v="stream" />
	</node>
	<node lat="59.1423166650001" lon="11.511502774720963" id="-24155">
		<tag k="name" v="Burutangen" />
		<tag k="natural" v="cape" />
		<tag k="ssr:stedsnr" v="353905" />
	</node>
	<node lat="59.146311107339855" lon="11.632780562631977" id="-24158">
		<tag k="name" v="Stenselva" />
		<tag k="ssr:stedsnr" v="354516" />
		<tag k="waterway" v="river" />
	</node>
	<node lat="59.10581666752387" lon="11.5512777708458" id="-24159">
		<tag k="name" v="Stormyrtjern" />
		<tag k="natural" v="water" />
		<tag k="ssr:stedsnr" v="354571" />
	</node>
	<node lat="58.9338944423261" lon="11.646038889331184" id="-24166">
		<tag k="name" v="Fårodden" />
		<tag k="natural" v="cape" />
		<tag k="ssr:stedsnr" v="354815" />
	</node>
	<node lat="59.029330555987336" lon="11.514061106034612" id="-24170">
		<tag k="name" v="Ekelitjern" />
		<tag k="natural" v="water" />
		<tag k="ssr:stedsnr" v="354904" />
	</node>
	<node lat="58.914452781763934" lon="11.634422230798158" id="-24173">
		<tag k="name" v="Blyøyene" />
		<tag k="place" v="island" />
		<tag k="ssr:stedsnr" v="475580" />
	</node>
	<node lat="58.92051111532116" lon="11.65142500280761" id="-24174">
		<tag k="name" v="Storebukt" />
		<tag k="natural" v="bay" />
		<tag k="ssr:stedsnr" v="475582" />
	</node>
	<node lat="59.0332222232035" lon="11.680305560385655" id="-24181">
		<tag k="name" v="Lille Øretjern" />
		<tag k="natural" v="water" />
		<tag k="ssr:stedsnr" v="475527" />
	</node>
	<node lat="59.06181111378473" lon="11.665577774020916" id="-24185">
		<tag k="name" v="Ørnøya" />
		<tag k="place" v="island" />
		<tag k="ssr:stedsnr" v="475546" />
	</node>
	<node lat="59.21787778001228" lon="11.50400000642325" id="-24189">
		<tag k="name" v="Kalfurutjern" />
		<tag k="natural" v="water" />
		<tag k="ssr:stedsnr" v="475685" />
	</node>
	<node lat="59.2407750035963" lon="11.549080556144354" id="-24190">
		<tag k="name" v="Tvillingtjern" />
		<tag k="natural" v="water" />
		<tag k="ssr:stedsnr" v="475687" />
	</node>
	<node lat="59.07935000372156" lon="11.61618055671727" id="-24196">
		<tag k="name" v="Middagstjern" />
		<tag k="natural" v="water" />
		<tag k="ssr:stedsnr" v="475958" />
	</node>
	<node lat="59.09460278100157" lon="11.663949995047211" id="-24197">
		<tag k="name" v="Stentjern" />
		<tag k="natural" v="water" />
		<tag k="ssr:stedsnr" v="475959" />
	</node>
	<node lat="59.06971110788984" lon="11.651863896816657" id="-24198">
		<tag k="name" v="Delesøya" />
		<tag k="place" v="island" />
		<tag k="ssr:stedsnr" v="475963" />
	</node>
	<node lat="59.110119447221734" lon="11.581786103007241" id="-24201">
		<tag k="name" v="Gåsemosvika" />
		<tag k="natural" v="bay" />
		<tag k="ssr:stedsnr" v="475976" />
	</node>
	<node lat="58.916669326670444" lon="11.632327517551957" id="-24208">
		<tag k="fixme" v="multiple name tags, choose one and add the other to alt_name" />
		<tag k="name" v="Brennøya;Bergøya" />
		<tag k="place" v="islet" />
		<tag k="ssr:stedsnr" v="364162" />
	</node>
	<node lat="59.238066670335435" lon="11.473650004652592" id="-24214">
		<tag k="name" v="Bunessjøen" />
		<tag k="natural" v="water" />
		<tag k="ssr:stedsnr" v="365140" />
		<tag k="water" v="lake" />
	</node>
	<node lat="59.22674444463028" lon="11.568205549411829" id="-24215">
		<tag k="name" v="Åsgårdsposten" />
		<tag k="natural" v="water" />
		<tag k="ssr:stedsnr" v="365154" />
	</node>
	<node lat="59.21289444341569" lon="11.524713887542068" id="-24216">
		<tag k="alt_name" v="Langetjern, s" />
		<tag k="name" v="Langetjern" />
		<tag k="natural" v="water" />
		<tag k="ssr:stedsnr" v="365159" />
	</node>
	<node lat="59.06387499860096" lon="11.633616669070852" id="-24220">
		<tag k="name" v="Lille Haugåstjern" />
		<tag k="natural" v="water" />
		<tag k="ssr:stedsnr" v="365410" />
	</node>
	<node lat="59.013769441529384" lon="11.543533335957273" id="-24221">
		<tag k="name" v="Båsen" />
		<tag k="natural" v="bay" />
		<tag k="ssr:stedsnr" v="365344" />
	</node>
	<node lat="59.06144166849286" lon="11.669491671884247" id="-24222">
		<tag k="name" v="Nordre Boksjø" />
		<tag k="natural" v="water" />
		<tag k="ssr:stedsnr" v="365396" />
		<tag k="water" v="lake" />
	</node>
	<node lat="59.08039444158237" lon="11.646194442788696" id="-24223">
		<tag k="name" v="Øvre Sørvannet" />
		<tag k="natural" v="water" />
		<tag k="ssr:stedsnr" v="365495" />
	</node>
	<node lat="58.988758332686984" lon="11.479447217868898" id="-24225">
		<tag k="name" v="Folkå" />
		<tag k="ssr:stedsnr" v="365817" />
		<tag k="waterway" v="stream" />
	</node>
	<node lat="59.21014999859912" lon="11.389999994736833" id="-24229">
		<tag k="alt_name" v="Vasstjern" />
		<tag k="name" v="Vasstjernet" />
		<tag k="natural" v="water" />
		<tag k="ssr:stedsnr" v="365916" />
	</node>
	<node lat="59.135199997464184" lon="11.471958338037322" id="-24231">
		<tag k="name" v="Gjernesøya" />
		<tag k="place" v="islet" />
		<tag k="ssr:stedsnr" v="366005" />
	</node>
	<node lat="59.04477488568937" lon="11.533246834830805" id="-24235">
		<tag k="name" v="Langvann" />
		<tag k="natural" v="water" />
		<tag k="ssr:stedsnr" v="366438" />
	</node>
	<node lat="59.047733330189004" lon="11.557391665483886" id="-24236">
		<tag k="name" v="Neset" />
		<tag k="natural" v="cape" />
		<tag k="ssr:stedsnr" v="366443" />
	</node>
	<node lat="59.08460555778445" lon="11.670819437659832" id="-24237">
		<tag k="alt_name" v="Søndre Grønne" />
		<tag k="name" v="Store Grønetjern" />
		<tag k="natural" v="water" />
		<tag k="ssr:stedsnr" v="366509" />
	</node>
	<node lat="58.96585278169539" lon="11.66052778306776" id="-24238">
		<tag k="alt_name" v="Haugenetjern" />
		<tag k="name" v="Haugenetjernet" />
		<tag k="natural" v="water" />
		<tag k="ssr:stedsnr" v="366810" />
	</node>
	<node lat="58.90449999797457" lon="11.491577773460884" id="-24246">
		<tag k="alt_name" v="Tordyveltjern" />
		<tag k="name" v="Tordiveltjern" />
		<tag k="natural" v="water" />
		<tag k="ssr:stedsnr" v="546145" />
	</node>
	<node lat="58.95233889061867" lon="11.600966668468384" id="-24250">
		<tag k="alt_name" v="Lyse, lille" />
		<tag k="name" v="Lille Lyse" />
		<tag k="natural" v="water" />
		<tag k="ssr:stedsnr" v="481871" />
	</node>
	<node lat="59.17190555986886" lon="11.43845278080988" id="-24261">
		<tag k="name" v="Høyåstjern" />
		<tag k="natural" v="water" />
		<tag k="ssr:stedsnr" v="386844" />
	</node>
	<node lat="59.2199000007325" lon="11.394102777766685" id="-24263">
		<tag k="name" v="Grisetjern" />
		<tag k="natural" v="water" />
		<tag k="ssr:stedsnr" v="386847" />
	</node>
	<node lat="58.91800732248078" lon="11.457059513935139" id="-24274">
		<tag k="name" v="Svarttjern" />
		<tag k="natural" v="water" />
		<tag k="ssr:stedsnr" v="486135" />
	</node>
	<node lat="58.91828610919884" lon="11.645572217500455" id="-24275">
		<tag k="alt_name" v="Finsvikneset" />
		<tag k="name" v="Finnsvikneset" />
		<tag k="natural" v="cape" />
		<tag k="ssr:stedsnr" v="486137" />
	</node>
	<node lat="58.92200833245605" lon="11.595905556630642" id="-24276">
		<tag k="alt_name" v="Verpetjern" />
		<tag k="name" v="Varpetjern" />
		<tag k="natural" v="water" />
		<tag k="ssr:stedsnr" v="486144" />
	</node>
	<node lat="59.11308333011247" lon="11.619922226887494" id="-24277">
		<tag k="name" v="Ormetjern" />
		<tag k="natural" v="water" />
		<tag k="ssr:stedsnr" v="486472" />
	</node>
	<node lat="59.10721944108264" lon="11.648558337200884" id="-24278">
		<tag k="alt_name" v="Krokvannet" />
		<tag k="name" v="Krokvann" />
		<tag k="natural" v="water" />
		<tag k="ssr:stedsnr" v="486473" />
	</node>
	<node lat="59.004836115332544" lon="11.654619448332529" id="-24279">
		<tag k="name" v="Lille Morttjern" />
		<tag k="natural" v="water" />
		<tag k="ssr:stedsnr" v="486351" />
	</node>
	<node lat="58.98275277995947" lon="11.52977499646605" id="-24281">
		<tag k="alt_name" v="Danmarktjern" />
		<tag k="name" v="Danmarkstjern" />
		<tag k="natural" v="water" />
		<tag k="ssr:stedsnr" v="486793" />
	</node>
	<node lat="59.22757499626338" lon="11.43085000166976" id="-24286">
		<tag k="alt_name" v="Tutjern" />
		<tag k="name" v="Tutjernet" />
		<tag k="natural" v="water" />
		<tag k="ssr:stedsnr" v="486936" />
	</node>
	<node lat="59.196350003447975" lon="11.408225000171711" id="-24294">
		<tag k="alt_name" v="Kjølvannet (Storsjøen)" />
		<tag k="name" v="Kjølasjøen" />
		<tag k="natural" v="water" />
		<tag k="ssr:stedsnr" v="487288" />
	</node>
	<node lat="59.09003306107131" lon="11.622737180065947" id="-24299">
		<tag k="alt_name" v="Nedre dyvel" />
		<tag k="name" v="Dyvelen" />
		<tag k="natural" v="water" />
		<tag k="ssr:stedsnr" v="487542" />
		<tag k="water" v="lake" />
	</node>
	<node lat="58.937495226005986" lon="11.466465759567898" id="-24309">
		<tag k="name" v="Bergtrengtjern" />
		<tag k="natural" v="water" />
		<tag k="ssr:stedsnr" v="414697" />
	</node>
	<node lat="58.996066667461996" lon="11.54546666168211" id="-24314">
		<tag k="name" v="Grytberget" />
		<tag k="place" v="island" />
		<tag k="ssr:stedsnr" v="414907" />
	</node>
	<node lat="59.01911944610428" lon="11.56189166912628" id="-24319">
		<tag k="name" v="Hakelundbukta" />
		<tag k="natural" v="bay" />
		<tag k="ssr:stedsnr" v="414899" />
	</node>
	<node lat="59.07300833587998" lon="11.64700556087758" id="-24320">
		<tag k="name" v="Taklundbukta" />
		<tag k="natural" v="bay" />
		<tag k="ssr:stedsnr" v="414942" />
	</node>
	<node lat="59.20644999606025" lon="11.432225005579589" id="-24322">
		<tag k="alt_name" v="Kjølvannet" />
		<tag k="name" v="Kjølasjøen" />
		<tag k="natural" v="water" />
		<tag k="ssr:stedsnr" v="487986" />
	</node>
	<node lat="59.088819440545954" lon="11.547116666744222" id="-24325">
		<tag k="name" v="Ringletjern" />
		<tag k="natural" v="water" />
		<tag k="ssr:stedsnr" v="415585" />
	</node>
	<node lat="58.99225000125604" lon="11.518702770424504" id="-24334">
		<tag k="name" v="Store Svarttjern" />
		<tag k="natural" v="water" />
		<tag k="ssr:stedsnr" v="415830" />
	</node>
	<node lat="58.92026388800171" lon="11.631044452735685" id="-24337">
		<tag k="name" v="Kalvøya" />
		<tag k="place" v="islet" />
		<tag k="ssr:stedsnr" v="425160" />
	</node>
	<node lat="58.91194166465172" lon="11.64296944438214" id="-24342">
		<tag k="alt_name" v="Bokøya" />
		<tag k="name" v="Bukkøya" />
		<tag k="place" v="islet" />
		<tag k="ssr:stedsnr" v="426153" />
	</node>
	<node lat="58.91123333188775" lon="11.553097215814576" id="-24343">
		<tag k="alt_name" v="Store Rotvann" />
		<tag k="name" v="Rotvann" />
		<tag k="natural" v="water" />
		<tag k="ssr:stedsnr" v="426155" />
	</node>
	<node lat="58.918252777941646" lon="11.635302775341497" id="-24345">
		<tag k="alt_name" v="Finsvikbukta" />
		<tag k="name" v="Finnsvikbukta" />
		<tag k="natural" v="strait" />
		<tag k="ssr:stedsnr" v="426159" />
	</node>
	<node lat="58.98171110695752" lon="11.628505558758215" id="-24353">
		<tag k="alt_name" v="Asmundstjern" />
		<tag k="name" v="Åsmundtjern" />
		<tag k="natural" v="water" />
		<tag k="ssr:stedsnr" v="426808" />
	</node>
	<node lat="58.991652220392545" lon="11.606777671927587" id="-24358">
		<tag k="name" v="Kverntjerna" />
		<tag k="natural" v="water" />
		<tag k="ssr:stedsnr" v="426792" />
		<tag k="water" v="lake" />
	</node>
	<node lat="59.195125002179346" lon="11.45860277958487" id="-24360">
		<tag k="name" v="Kjølbekken" />
		<tag k="ssr:stedsnr" v="426982" />
		<tag k="waterway" v="stream" />
	</node>
	<node lat="58.96279544984457" lon="11.472549687964314" id="-24367">
		<tag k="name" v="Stutøye" />
		<tag k="natural" v="water" />
		<tag k="ssr:stedsnr" v="427807" />
	</node>
	<node lat="58.95374166259413" lon="11.562136104670873" id="-24368">
		<tag k="alt_name" v="Rotjern søndre;Rødtjern søndre" />
		<tag k="name" v="Søndre Rotjern" />
		<tag k="natural" v="water" />
		<tag k="ssr:stedsnr" v="427811" />
	</node>
	<node lat="59.08999722266144" lon="11.527841663888633" id="-24386">
		<tag k="name" v="Setertjern" />
		<tag k="natural" v="water" />
		<tag k="ssr:stedsnr" v="475560" />
	</node>
	<node lat="58.88972777560711" lon="11.568297218370141" id="-24393">
		<tag k="alt_name" v="Branntjernbekken" />
		<tag k="name" v="Brannbekken" />
		<tag k="ssr:stedsnr" v="486238" />
		<tag k="waterway" v="stream" />
	</node>
	<node lat="59.22935000142706" lon="11.520600001903551" id="-24397">
		<tag k="name" v="Ånesbekken" />
		<tag k="ssr:stedsnr" v="486127" />
		<tag k="waterway" v="stream" />
	</node>
	<node lat="59.152680560067715" lon="11.497691664734983" id="-24399">
		<tag k="name" v="Femsjøen" />
		<tag k="natural" v="water" />
		<tag k="ssr:stedsnr" v="487011" />
		<tag k="water" v="lake" />
	</node>
	<node lat="59.155455555969596" lon="11.503680563304703" id="-24400">
		<tag k="name" v="Halvfaren" />
		<tag k="place" v="islet" />
		<tag k="ssr:stedsnr" v="487111" />
	</node>
	<node lat="58.963583161463305" lon="11.468493528938051" id="-24410">
		<tag k="alt_name" v="Berby Langvann" />
		<tag k="name" v="Berby-Langvann" />
		<tag k="natural" v="water" />
		<tag k="ssr:stedsnr" v="487855" />
	</node>
	<node lat="58.9527277786491" lon="11.589172230806518" id="-24413">
		<tag k="alt_name" v="Grøtjern" />
		<tag k="name" v="Grotjern" />
		<tag k="natural" v="water" />
		<tag k="ssr:stedsnr" v="487863" />
	</node>
	<node lat="59.13978888835041" lon="11.242858342029486" id="-24420">
		<tag k="name" v="Hjelmungbekken" />
		<tag k="ssr:stedsnr" v="507073" />
		<tag k="waterway" v="stream" />
	</node>
	<node lat="59.17598333655976" lon="11.57105277901017" id="-24427">
		<tag k="name" v="Rødselva" />
		<tag k="ssr:stedsnr" v="536602" />
		<tag k="waterway" v="river" />
	</node>
	<node lat="59.11730000433186" lon="11.639761108588413" id="-24429">
		<tag k="name" v="Ømyrtjern" />
		<tag k="natural" v="water" />
		<tag k="ssr:stedsnr" v="536609" />
	</node>
	<node lat="59.19257777697603" lon="11.557430550128956" id="-24440">
		<tag k="name" v="Tvebotntjern" />
		<tag k="natural" v="water" />
		<tag k="ssr:stedsnr" v="536983" />
	</node>
	<node lat="59.21678610697632" lon="11.542208324899091" id="-24441">
		<tag k="name" v="Svantjern" />
		<tag k="natural" v="water" />
		<tag k="ssr:stedsnr" v="536987" />
	</node>
	<node lat="58.934543408939255" lon="11.561843249144905" id="-24444">
		<tag k="alt_name" v="Holmvann" />
		<tag k="name" v="Bredmosetjern" />
		<tag k="natural" v="water" />
		<tag k="ssr:stedsnr" v="546173" />
	</node>
	<node lat="59.19754166920136" lon="11.582861116876503" id="-24446">
		<tag k="name" v="Rødvassbekken" />
		<tag k="ssr:stedsnr" v="547189" />
		<tag k="waterway" v="stream" />
	</node>
	<node lat="59.056194442184186" lon="11.5042861120338" id="-24449">
		<tag k="alt_name" v="Folkevannet" />
		<tag k="name" v="Folkevann" />
		<tag k="natural" v="water" />
		<tag k="ssr:stedsnr" v="547414" />
	</node>
	<node lat="59.099583330897026" lon="11.632550006931185" id="-24451">
		<tag k="alt_name" v="Bjellåstjern" />
		<tag k="name" v="Bjellåstjernet" />
		<tag k="natural" v="water" />
		<tag k="ssr:stedsnr" v="547481" />
	</node>
	<node lat="59.11320000436286" lon="11.56913610504933" id="-24452">
		<tag k="name" v="Store Erte" />
		<tag k="natural" v="water" />
		<tag k="ssr:stedsnr" v="547484" />
		<tag k="water" v="lake" />
	</node>
	<node lat="59.10199167109117" lon="11.540688892065383" id="-24453">
		<tag k="alt_name" v="Smedmyrtjern" />
		<tag k="name" v="Smedmyrtjerna" />
		<tag k="natural" v="water" />
		<tag k="ssr:stedsnr" v="547485" />
	</node>
	<node lat="59.217752774561205" lon="11.382952773370366" id="-24455">
		<tag k="alt_name" v="Hestetjern" />
		<tag k="name" v="Hestetjernet" />
		<tag k="natural" v="water" />
		<tag k="ssr:stedsnr" v="547920" />
	</node>
	<node lat="59.03279444539895" lon="11.466511104281402" id="-24478">
		<tag k="name" v="Fiskeløsen" />
		<tag k="natural" v="water" />
		<tag k="ssr:stedsnr" v="690276" />
		<tag k="water" v="pond" />
	</node>
	<node lat="59.12561389076867" lon="11.44922778033864" id="-24489">
		<tag k="name" v="Tangen" />
		<tag k="natural" v="cape" />
		<tag k="ssr:stedsnr" v="690854" />
	</node>
	<node lat="59.05203332942742" lon="11.611833331327693" id="-24522">
		<tag k="name" v="Svarttjern" />
		<tag k="natural" v="water" />
		<tag k="ssr:stedsnr" v="596501" />
	</node>
	<node lat="58.91215555819264" lon="11.551844441244677" id="-24527">
		<tag k="name" v="Lille Rotvann" />
		<tag k="natural" v="water" />
		<tag k="ssr:stedsnr" v="596550" />
		<tag k="water" v="lake" />
	</node>
	<node lat="59.02704722309489" lon="11.693313885192348" id="-24531">
		<tag k="name" v="Hallerødsetersundet" />
		<tag k="natural" v="strait" />
		<tag k="ssr:stedsnr" v="596710" />
	</node>
	<node lat="59.00256666961897" lon="11.590999993875688" id="-24533">
		<tag k="name" v="Korstjern" />
		<tag k="natural" v="water" />
		<tag k="ssr:stedsnr" v="596753" />
	</node>
	<node lat="59.03662056117787" lon="11.543390917489372" id="-24534">
		<tag k="name" v="Ellefsrødkilen" />
		<tag k="natural" v="bay" />
		<tag k="ssr:stedsnr" v="596765" />
	</node>
	<node lat="58.9365583292111" lon="11.6544999977451" id="-24536">
		<tag k="name" v="Tømmerodden" />
		<tag k="natural" v="cape" />
		<tag k="ssr:stedsnr" v="596901" />
	</node>
	<node lat="59.09819444446791" lon="11.582861111862275" id="-24538">
		<tag k="name" v="Abbortjernbukta" />
		<tag k="natural" v="bay" />
		<tag k="ssr:stedsnr" v="596907" />
	</node>
	<node lat="59.103965657035495" lon="11.540572904799763" id="-24543">
		<tag k="name" v="Bjørnetjern" />
		<tag k="natural" v="water" />
		<tag k="ssr:stedsnr" v="596968" />
	</node>
	<node lat="58.895613891660055" lon="11.455038883183878" id="-24553">
		<tag k="alt_name" v="Vammen nordre" />
		<tag k="name" v="Nordre Vammen" />
		<tag k="natural" v="water" />
		<tag k="ssr:stedsnr" v="607249" />
	</node>
	<node lat="59.10729722347826" lon="11.655780549887357" id="-24555">
		<tag k="name" v="Korstjern" />
		<tag k="natural" v="water" />
		<tag k="ssr:stedsnr" v="607458" />
	</node>
	<node lat="59.028763893334514" lon="11.69810277340361" id="-24562">
		<tag k="name" v="Hisøya" />
		<tag k="place" v="island" />
		<tag k="ssr:stedsnr" v="608291" />
	</node>
	<node lat="59.205600002567664" lon="11.36770278055349" id="-24572">
		<tag k="alt_name" v="Haketjern" />
		<tag k="name" v="Haketjernet" />
		<tag k="natural" v="water" />
		<tag k="ssr:stedsnr" v="608910" />
	</node>
	<node lat="59.22771405370677" lon="11.332520382674021" id="-24573">
		<tag k="name" v="Bergsjøen" />
		<tag k="natural" v="water" />
		<tag k="ssr:stedsnr" v="608930" />
		<tag k="water" v="lake" />
	</node>
	<node lat="59.13800556007693" lon="11.504455551415525" id="-24576">
		<tag k="alt_name" v="Blæsebukta" />
		<tag k="name" v="Blæsebukt" />
		<tag k="natural" v="bay" />
		<tag k="ssr:stedsnr" v="609017" />
	</node>
	<node lat="59.13092777957492" lon="11.487241672766359" id="-24578">
		<tag k="name" v="Vanninga" />
		<tag k="natural" v="bay" />
		<tag k="ssr:stedsnr" v="609032" />
	</node>
	<node lat="59.19201111127829" lon="11.482208326159792" id="-24595">
		<tag k="name" v="Gjøldretjern" />
		<tag k="natural" v="water" />
		<tag k="ssr:stedsnr" v="629852" />
	</node>
	<node lat="59.04422640651384" lon="11.645274605963412" id="-24609">
		<tag k="name" v="Kroktjernungen" />
		<tag k="natural" v="water" />
		<tag k="ssr:stedsnr" v="657541" />
	</node>
	<node lat="59.0181138908452" lon="11.695194448997881" id="-24618">
		<tag k="name" v="Måkeskjæra" />
		<tag k="place" v="island" />
		<tag k="ssr:stedsnr" v="657710" />
	</node>
	<node lat="59.00004166466774" lon="11.54795277204381" id="-24620">
		<tag k="name" v="Store Krokvik" />
		<tag k="natural" v="bay" />
		<tag k="ssr:stedsnr" v="657905" />
	</node>
	<node lat="59.02927001289787" lon="11.52854348563846" id="-24626">
		<tag k="name" v="Ellefsrødtjern" />
		<tag k="natural" v="water" />
		<tag k="ssr:stedsnr" v="657899" />
	</node>
	<node lat="59.132274997265114" lon="11.535311118386126" id="-24628">
		<tag k="name" v="Lomtjern" />
		<tag k="natural" v="water" />
		<tag k="ssr:stedsnr" v="657982" />
	</node>
	<node lat="59.23305412546943" lon="11.55803161107859" id="-24630">
		<tag k="name" v="Rasmusdaltjern" />
		<tag k="natural" v="water" />
		<tag k="ssr:stedsnr" v="657996" />
	</node>
	<node lat="58.909188891058406" lon="11.62955832638577" id="-24637">
		<tag k="name" v="Asketjern" />
		<tag k="natural" v="water" />
		<tag k="ssr:stedsnr" v="668143" />
	</node>
	<node lat="58.93554999641209" lon="11.660313889586568" id="-24643">
		<tag k="alt_name" v="Lineset" />
		<tag k="name" v="Linneset" />
		<tag k="natural" v="cape" />
		<tag k="ssr:stedsnr" v="668194" />
	</node>
	<node lat="59.24460000203771" lon="11.413250004116714" id="-24644">
		<tag k="alt_name" v="Grasholt sjøene" />
		<tag k="name" v="Grasholtjernet" />
		<tag k="natural" v="water" />
		<tag k="ssr:stedsnr" v="668591" />
	</node>
	<node lat="59.020072221659404" lon="11.70085277246355" id="-24656">
		<tag k="name" v="Søndre Boksjø" />
		<tag k="natural" v="water" />
		<tag k="ssr:stedsnr" v="669435" />
		<tag k="water" v="lake" />
	</node>
	<node lat="58.97859444554101" lon="11.635997217376142" id="-24660">
		<tag k="name" v="Åtjern" />
		<tag k="natural" v="water" />
		<tag k="ssr:stedsnr" v="669810" />
	</node>
	<node lat="59.1348597423042" lon="11.630177508728364" id="-24667">
		<tag k="alt_name" v="Trollnestjern" />
		<tag k="name" v="Trollnestjernet" />
		<tag k="natural" v="water" />
		<tag k="ssr:stedsnr" v="670025" />
		<tag k="water" v="lake" />
	</node>
	<node lat="59.22470000035509" lon="11.389847215578008" id="-24668">
		<tag k="alt_name" v="Lomtjern" />
		<tag k="name" v="Lomtjernet" />
		<tag k="natural" v="water" />
		<tag k="ssr:stedsnr" v="669911" />
	</node>
	<node lat="58.887276401652386" lon="11.509365020933085" id="-24677">
		<tag k="alt_name" v="Hogsjø søndre" />
		<tag k="name" v="Søndre Hogsjøen" />
		<tag k="natural" v="water" />
		<tag k="ssr:stedsnr" v="690212" />
	</node>
	<node lat="59.11203610863486" lon="11.30325832753569" id="-24681">
		<tag k="name" v="Unnebergbekken" />
		<tag k="ssr:stedsnr" v="690186" />
		<tag k="waterway" v="stream" />
	</node>
	<node lat="59.05999999712094" lon="11.612788896671189" id="-24694">
		<tag k="name" v="Blanktjern" />
		<tag k="natural" v="water" />
		<tag k="ssr:stedsnr" v="718607" />
	</node>
	<node lat="59.1371388857932" lon="11.602772214301488" id="-24695">
		<tag k="name" v="Karstentjern" />
		<tag k="natural" v="water" />
		<tag k="ssr:stedsnr" v="718679" />
	</node>
	<node lat="59.17057221887438" lon="11.528608325129866" id="-24697">
		<tag k="name" v="Holmane" />
		<tag k="place" v="islet" />
		<tag k="ssr:stedsnr" v="718682" />
	</node>
	<node lat="58.93878055796142" lon="11.471208329291096" id="-24698">
		<tag k="name" v="Stutøye" />
		<tag k="natural" v="water" />
		<tag k="ssr:stedsnr" v="718706" />
	</node>
	<node lat="59.01062777486551" lon="11.59585555348813" id="-24700">
		<tag k="name" v="Saleklevtjern" />
		<tag k="natural" v="water" />
		<tag k="ssr:stedsnr" v="718776" />
	</node>
	<node lat="59.02633889146723" lon="11.567658333066767" id="-24702">
		<tag k="name" v="Tangenbukta" />
		<tag k="natural" v="bay" />
		<tag k="ssr:stedsnr" v="718780" />
	</node>
	<node lat="59.06112500076015" lon="11.65908611216538" id="-24703">
		<tag k="name" v="Svartebukta" />
		<tag k="natural" v="bay" />
		<tag k="ssr:stedsnr" v="718786" />
	</node>
	<node lat="59.048130552271914" lon="11.605766671288228" id="-24710">
		<tag k="name" v="Jentetjern" />
		<tag k="natural" v="water" />
		<tag k="ssr:stedsnr" v="718888" />
	</node>
	<node lat="59.08490555573076" lon="11.537750002639655" id="-24713">
		<tag k="name" v="Kirkemosetjern" />
		<tag k="natural" v="water" />
		<tag k="ssr:stedsnr" v="900559" />
	</node>
	<node lat="59.04598888657888" lon="11.519061104440578" id="-24715">
		<tag k="name" v="Svantjern" />
		<tag k="natural" v="water" />
		<tag k="ssr:stedsnr" v="900524" />
	</node>
	<node lat="59.01498611402247" lon="11.553711113464646" id="-24717">
		<tag k="alt_name" v="Hestøyene lille" />
		<tag k="name" v="Lille Hestøyene" />
		<tag k="place" v="island" />
		<tag k="ssr:stedsnr" v="900728" />
	</node>
	<node lat="58.939180551364814" lon="11.655916663531135" id="-24728">
		<tag k="name" v="Store Mosvik" />
		<tag k="natural" v="bay" />
		<tag k="ssr:stedsnr" v="900639" />
	</node>
	<node lat="58.92595277588948" lon="11.644647218355185" id="-24729">
		<tag k="name" v="Vinterbukt" />
		<tag k="natural" v="bay" />
		<tag k="ssr:stedsnr" v="900641" />
	</node>
	<node lat="59.05233055872595" lon="11.676911116453269" id="-24735">
		<tag k="name" v="Boksjødammen" />
		<tag k="ssr:stedsnr" v="900934" />
		<tag k="waterway" v="dam" />
	</node>
	<node lat="59.01912500111643" lon="11.700136110396524" id="-24737">
		<tag k="name" v="Galten" />
		<tag k="place" v="island" />
		<tag k="ssr:stedsnr" v="900882" />
	</node>
	<node lat="58.897141669454975" lon="11.466747228793166" id="-24742">
		<tag k="alt_name" v="Årbutjern" />
		<tag k="name" v="Årbutjernet" />
		<tag k="natural" v="water" />
		<tag k="ssr:stedsnr" v="729126" />
	</node>
	<node lat="58.925097224876104" lon="11.467961108005705" id="-24744">
		<tag k="name" v="Lurkevanna" />
		<tag k="natural" v="water" />
		<tag k="ssr:stedsnr" v="729170" />
	</node>
	<node lat="58.93748055885546" lon="11.601222229636043" id="-24746">
		<tag k="alt_name" v="Pålsbudamtjern" />
		<tag k="name" v="Damtjern" />
		<tag k="natural" v="water" />
		<tag k="ssr:stedsnr" v="729186" />
	</node>
	<node lat="58.895177779622756" lon="11.527988881008374" id="-24748">
		<tag k="alt_name" v="Grefsrødøya" />
		<tag k="name" v="Grefsrødholmen" />
		<tag k="place" v="islet" />
		<tag k="ssr:stedsnr" v="729270" />
	</node>
	<node lat="58.9336833374373" lon="11.65231389250008" id="-24752">
		<tag k="name" v="Nordre Kornsjø" />
		<tag k="natural" v="water" />
		<tag k="ssr:stedsnr" v="729868" />
		<tag k="water" v="lake" />
	</node>
	<node lat="59.17812500269038" lon="11.580730555823568" id="-24756">
		<tag k="name" v="Fisma" />
		<tag k="ssr:stedsnr" v="730080" />
		<tag k="waterway" v="river" />
	</node>
	<node lat="59.070216665382375" lon="11.551966667079315" id="-24764">
		<tag k="name" v="Kuletjern" />
		<tag k="natural" v="water" />
		<tag k="ssr:stedsnr" v="730404" />
	</node>
	<node lat="59.09892666881418" lon="11.661364829092726" id="-24768">
		<tag k="name" v="Stensvannet" />
		<tag k="natural" v="water" />
		<tag k="ssr:stedsnr" v="730463" />
		<tag k="water" v="lake" />
	</node>
	<node lat="59.2082148332581" lon="11.400960672139435" id="-24773">
		<tag k="alt_name" v="Femtjern" />
		<tag k="name" v="Femtjerna" />
		<tag k="natural" v="water" />
		<tag k="ssr:stedsnr" v="730915" />
		<tag k="water" v="lake" />
	</node>
	<node lat="59.22270000286132" lon="11.40990000030455" id="-24774">
		<tag k="alt_name" v="Ravnetjern" />
		<tag k="name" v="Ramntjernet" />
		<tag k="natural" v="water" />
		<tag k="ssr:stedsnr" v="730921" />
	</node>
	<node lat="59.21507222516692" lon="11.571713886979792" id="-24794">
		<tag k="name" v="Muretjern" />
		<tag k="natural" v="water" />
		<tag k="ssr:stedsnr" v="779709" />
	</node>
	<node lat="59.092747223560586" lon="11.60267222797478" id="-24795">
		<tag k="name" v="Dyvelvassdraget" />
		<tag k="ssr:stedsnr" v="779714" />
		<tag k="waterway" v="river" />
	</node>
	<node lat="59.08155000103963" lon="11.592466670693415" id="-24797">
		<tag k="name" v="Kjellingtjern" />
		<tag k="natural" v="water" />
		<tag k="ssr:stedsnr" v="779909" />
	</node>
	<node lat="58.93738889269645" lon="11.650024992933435" id="-24799">
		<tag k="name" v="Lille Mosvik" />
		<tag k="natural" v="bay" />
		<tag k="ssr:stedsnr" v="779804" />
	</node>
	<node lat="58.90040927830971" lon="11.59555875488014" id="-24806">
		<tag k="alt_name" v="Elgtjern" />
		<tag k="name" v="Elgetjern" />
		<tag k="natural" v="water" />
		<tag k="ssr:stedsnr" v="911124" />
	</node>
	<node lat="59.23676111573861" lon="11.531861103283749" id="-24808">
		<tag k="name" v="Rumpetjern" />
		<tag k="natural" v="water" />
		<tag k="ssr:stedsnr" v="911126" />
	</node>
	<node lat="58.91683871428774" lon="11.576146474820268" id="-24810">
		<tag k="alt_name" v="Søndre Eljevann" />
		<tag k="name" v="Nedre Elgvann" />
		<tag k="natural" v="water" />
		<tag k="ssr:stedsnr" v="911163" />
		<tag k="water" v="lake" />
	</node>
	<node lat="59.08091944148546" lon="11.535830547045572" id="-24816">
		<tag k="name" v="Levertjern" />
		<tag k="natural" v="water" />
		<tag k="ssr:stedsnr" v="911482" />
	</node>
	<node lat="59.08655555877795" lon="11.570727770010869" id="-24817">
		<tag k="name" v="Kroktjern" />
		<tag k="natural" v="water" />
		<tag k="ssr:stedsnr" v="911489" />
	</node>
	<node lat="58.89601111145752" lon="11.601766662532704" id="-24818">
		<tag k="name" v="Branntjern" />
		<tag k="natural" v="water" />
		<tag k="ssr:stedsnr" v="789254" />
	</node>
	<node lat="59.19312499897884" lon="11.572988889974377" id="-24821">
		<tag k="name" v="Gørrtjern" />
		<tag k="natural" v="water" />
		<tag k="ssr:stedsnr" v="790056" />
	</node>
	<node lat="59.23637499876988" lon="11.404899997524476" id="-24827">
		<tag k="alt_name" v="Gjeddetjern" />
		<tag k="name" v="Gjeddetjernet" />
		<tag k="natural" v="water" />
		<tag k="ssr:stedsnr" v="790616" />
	</node>
	<node lat="59.072138891711745" lon="11.680547225160803" id="-24829">
		<tag k="name" v="Kruketjern" />
		<tag k="natural" v="water" />
		<tag k="ssr:stedsnr" v="790394" />
	</node>
	<node lat="58.99424849545177" lon="11.516589042854733" id="-24831">
		<tag k="alt_name" v="Lille Svarttjern" />
		<tag k="name" v="Svarttjerna" />
		<tag k="natural" v="water" />
		<tag k="ssr:stedsnr" v="911789" />
		<tag k="water" v="lake" />
	</node>
	<node lat="59.01902856715855" lon="11.689203915222272" id="-24841">
		<tag k="name" v="Store Sandvik" />
		<tag k="natural" v="bay" />
		<tag k="ssr:stedsnr" v="791325" />
	</node>
	<node lat="59.03084788039538" lon="11.654322758060298" id="-24842">
		<tag k="alt_name" v="Store Stenslundtjern" />
		<tag k="name" v="Stenslundtjerna" />
		<tag k="natural" v="water" />
		<tag k="ssr:stedsnr" v="791388" />
		<tag k="water" v="lake" />
	</node>
	<node lat="59.021391713493436" lon="11.627636744450692" id="-24852">
		<tag k="alt_name" v="Blanketjern" />
		<tag k="name" v="Blanktjern" />
		<tag k="natural" v="water" />
		<tag k="ssr:stedsnr" v="912354" />
	</node>
	<node lat="59.03802222007269" lon="11.616036113184464" id="-24853">
		<tag k="name" v="Sætertjern" />
		<tag k="natural" v="water" />
		<tag k="ssr:stedsnr" v="912436" />
	</node>
	<node lat="59.098508330273816" lon="11.669591664616958" id="-24854">
		<tag k="name" v="Store Øfsetjern" />
		<tag k="natural" v="water" />
		<tag k="ssr:stedsnr" v="912465" />
	</node>
	<node lat="58.957377778061705" lon="11.675858327319979" id="-24856">
		<tag k="name" v="Økøya" />
		<tag k="place" v="islet" />
		<tag k="ssr:stedsnr" v="912856" />
	</node>
	<node lat="59.12707500412353" lon="11.476999993135895" id="-24863">
		<tag k="name" v="Påkastet" />
		<tag k="natural" v="bay" />
		<tag k="ssr:stedsnr" v="913038" />
	</node>
	<node lat="59.18956944876532" lon="11.471555555779036" id="-24870">
		<tag k="name" v="Stutsrødtjern" />
		<tag k="natural" v="water" />
		<tag k="ssr:stedsnr" v="811814" />
	</node>
	<node lat="59.18849722679364" lon="11.464086105259756" id="-24873">
		<tag k="name" v="Setertjern" />
		<tag k="natural" v="water" />
		<tag k="ssr:stedsnr" v="811822" />
	</node>
	<node lat="59.14436944245505" lon="11.524297219251808" id="-24886">
		<tag k="name" v="Stenselva" />
		<tag k="ssr:stedsnr" v="840807" />
		<tag k="waterway" v="river" />
	</node>
	<node lat="59.130794447738666" lon="11.601066668338863" id="-24893">
		<tag k="name" v="Langtjern" />
		<tag k="natural" v="water" />
		<tag k="ssr:stedsnr" v="840705" />
	</node>
	<node lat="59.245461114671535" lon="11.529944453158528" id="-24894">
		<tag k="name" v="Torvtjern" />
		<tag k="natural" v="water" />
		<tag k="ssr:stedsnr" v="840710" />
	</node>
	<node lat="59.21771651881131" lon="11.5704845115747" id="-24896">
		<tag k="name" v="Blåkolltjern" />
		<tag k="natural" v="water" />
		<tag k="ssr:stedsnr" v="840713" />
	</node>
	<node lat="59.13812222285184" lon="11.532683336485174" id="-24899">
		<tag k="name" v="Ertedammen" />
		<tag k="ssr:stedsnr" v="840736" />
		<tag k="waterway" v="dam" />
	</node>
	<node lat="59.00382909804805" lon="11.60644024522059" id="-24902">
		<tag k="name" v="Hølvann" />
		<tag k="natural" v="water" />
		<tag k="ssr:stedsnr" v="840927" />
		<tag k="water" v="lake" />
	</node>
	<node lat="59.101466665496844" lon="11.649933340087852" id="-24904">
		<tag k="name" v="Stensvannselva" />
		<tag k="ssr:stedsnr" v="840933" />
		<tag k="waterway" v="river" />
	</node>
	<node lat="59.0205888866245" lon="11.547069439778626" id="-24905">
		<tag k="name" v="Letesvik" />
		<tag k="natural" v="bay" />
		<tag k="ssr:stedsnr" v="840993" />
	</node>
	<node lat="59.07498055153926" lon="11.61119999473064" id="-24918">
		<tag k="name" v="Gjørgetjern" />
		<tag k="natural" v="water" />
		<tag k="ssr:stedsnr" v="851444" />
	</node>
	<node lat="58.977727781457084" lon="11.520166660673594" id="-24924">
		<tag k="name" v="Holttjern" />
		<tag k="natural" v="water" />
		<tag k="ssr:stedsnr" v="851809" />
	</node>
	<node lat="59.20340833233752" lon="11.341208326148504" id="-24929">
		<tag k="name" v="Rokkevannet" />
		<tag k="natural" v="water" />
		<tag k="ssr:stedsnr" v="851880" />
		<tag k="water" v="lake" />
	</node>
	<node lat="59.15393055225721" lon="11.477244450298356" id="-24931">
		<tag k="name" v="Englandstangen" />
		<tag k="natural" v="cape" />
		<tag k="ssr:stedsnr" v="852123" />
	</node>
	<node lat="59.18173888742793" lon="11.379411118986082" id="-24935">
		<tag k="alt_name" v="Kamhau" />
		<tag k="name" v="Kamhaugtjernet" />
		<tag k="natural" v="water" />
		<tag k="ssr:stedsnr" v="852957" />
	</node>
	<node lat="59.13041111336831" lon="11.314358330887167" id="-24943">
		<tag k="name" v="Springvannsdammen" />
		<tag k="natural" v="water" />
		<tag k="ssr:stedsnr" v="932217" />
		<tag k="water" v="pond" />
	</node>
	<node lat="58.972302775631185" lon="11.470525000747811" id="-24949">
		<tag k="name" v="Svarthølet" />
		<tag k="natural" v="water" />
		<tag k="ssr:stedsnr" v="932160" />
	</node>
	<node lat="58.95816110826618" lon="11.46656111478439" id="-24954">
		<tag k="name" v="Lille Langvann" />
		<tag k="natural" v="water" />
		<tag k="ssr:stedsnr" v="932184" />
	</node>
	<node lat="59.085854156430464" lon="11.612844197382268" id="-24973">
		<tag k="name" v="Bikkjetjern" />
		<tag k="natural" v="water" />
		<tag k="ssr:stedsnr" v="900613" />
	</node>
	<node lat="59.06852222182117" lon="11.658158326083262" id="-24974">
		<tag k="name" v="Kjelundtangen" />
		<tag k="natural" v="cape" />
		<tag k="ssr:stedsnr" v="900617" />
	</node>
	<node lat="59.191391664980536" lon="11.559322214652092" id="-24975">
		<tag k="name" v="Tvebotntjern" />
		<tag k="natural" v="water" />
		<tag k="ssr:stedsnr" v="900619" />
	</node>
	<node lat="59.10601110680606" lon="11.634161115579209" id="-24976">
		<tag k="name" v="Skrukketjern" />
		<tag k="natural" v="water" />
		<tag k="ssr:stedsnr" v="900623" />
	</node>
	<node lat="59.00796206304821" lon="11.690066968270878" id="-24987">
		<tag k="name" v="Lille Sandvik" />
		<tag k="natural" v="bay" />
		<tag k="ssr:stedsnr" v="911326" />
	</node>
	<node lat="58.89743695824403" lon="11.488616814468246" id="-24990">
		<tag k="alt_name" v="Hogsjø nordre" />
		<tag k="name" v="Nordre Hogsjøen" />
		<tag k="natural" v="water" />
		<tag k="ssr:stedsnr" v="911262" />
	</node>
	<node lat="59.11246555668848" lon="11.630483160211845" id="-24991">
		<tag k="alt_name" v="Elggravtjern" />
		<tag k="name" v="Elgsgravtjernet" />
		<tag k="natural" v="water" />
		<tag k="ssr:stedsnr" v="911464" />
	</node>
	<node lat="58.94207222133308" lon="11.471625002021518" id="-24994">
		<tag k="name" v="Svarttjern" />
		<tag k="natural" v="water" />
		<tag k="ssr:stedsnr" v="911860" />
	</node>
	<node lat="59.148069446067844" lon="11.47888611817752" id="-24997">
		<tag k="name" v="Galteryggen" />
		<tag k="natural" v="cape" />
		<tag k="ssr:stedsnr" v="912009" />
	</node>
	<node lat="59.145099998227515" lon="11.476902776602357" id="-24999">
		<tag k="name" v="Vannkasodden" />
		<tag k="natural" v="cape" />
		<tag k="ssr:stedsnr" v="912013" />
	</node>
	<node lat="59.16804253294334" lon="11.613304475629974" id="-25002">
		<tag k="name" v="Rekketjern" />
		<tag k="natural" v="water" />
		<tag k="ssr:stedsnr" v="912102" />
	</node>
	<node lat="59.0678303331865" lon="11.62864749114738" id="-25006">
		<tag k="name" v="Sveltetjerna" />
		<tag k="natural" v="water" />
		<tag k="ssr:stedsnr" v="912420" />
		<tag k="water" v="lake" />
	</node>
	<node lat="59.03139166219576" lon="11.494130559499121" id="-25007">
		<tag k="alt_name" v="Folkå" />
		<tag k="name" v="Folkeåa" />
		<tag k="ssr:stedsnr" v="912428" />
		<tag k="waterway" v="river" />
	</node>
	<node lat="58.97673385529591" lon="11.66231012511224" id="-25011">
		<tag k="alt_name" v="Svarttjernene" />
		<tag k="name" v="Svarttjerna" />
		<tag k="natural" v="water" />
		<tag k="ssr:stedsnr" v="912820" />
		<tag k="water" v="lake" />
	</node>
	<node lat="58.96172778151721" lon="11.64218888731845" id="-25016">
		<tag k="name" v="Lille Gjeddetjern" />
		<tag k="natural" v="water" />
		<tag k="ssr:stedsnr" v="912841" />
	</node>
	<node lat="58.96126388838195" lon="11.684788880935054" id="-25017">
		<tag k="alt_name" v="Bokenesneset" />
		<tag k="name" v="Bokeneset" />
		<tag k="natural" v="cape" />
		<tag k="ssr:stedsnr" v="912853" />
	</node>
	<node lat="59.10895833151368" lon="11.495972216475154" id="-25029">
		<tag k="name" v="Setertjern" />
		<tag k="natural" v="water" />
		<tag k="ssr:stedsnr" v="933803" />
	</node>
	<node lat="59.21543888494734" lon="11.4240472214066" id="-25033">
		<tag k="name" v="Blanktjern" />
		<tag k="natural" v="water" />
		<tag k="ssr:stedsnr" v="933896" />
	</node>
	<node lat="58.89302500304029" lon="11.496358339251216" id="-25038">
		<tag k="name" v="Høgsjøbekken" />
		<tag k="ssr:stedsnr" v="961575" />
		<tag k="waterway" v="stream" />
	</node>
	<node lat="59.2237055537482" lon="11.331102769941731" id="-25044">
		<tag k="name" v="Ulsetoa" />
		<tag k="place" v="islet" />
		<tag k="ssr:stedsnr" v="961758" />
	</node>
	<node lat="58.92831944337716" lon="11.615269439754611" id="-25072">
		<tag k="alt_name" v="Sivtjern" />
		<tag k="name" v="Sevtjern" />
		<tag k="natural" v="water" />
		<tag k="ssr:stedsnr" v="184" />
	</node>
	<node lat="59.04474602318081" lon="11.635398007799774" id="-25076">
		<tag k="alt_name" v="Bofartjern" />
		<tag k="name" v="Bufartjern" />
		<tag k="natural" v="water" />
		<tag k="ssr:stedsnr" v="1427" />
	</node>
	<node lat="59.04577940831444" lon="11.649233879347456" id="-25077">
		<tag k="name" v="Kroktjern" />
		<tag k="natural" v="water" />
		<tag k="ssr:stedsnr" v="1431" />
		<tag k="water" v="lake" />
	</node>
	<node lat="58.89123055793188" lon="11.487411106340176" id="-25080">
		<tag k="alt_name" v="Svendstjern" />
		<tag k="name" v="Svenstjernet" />
		<tag k="natural" v="water" />
		<tag k="ssr:stedsnr" v="1258" />
	</node>
	<node lat="59.101513885210785" lon="11.596088886823244" id="-25083">
		<tag k="name" v="Myrdemøya" />
		<tag k="place" v="islet" />
		<tag k="ssr:stedsnr" v="1453" />
	</node>
	<node lat="59.105077773542654" lon="11.661408338063083" id="-25085">
		<tag k="name" v="Bjørntjern" />
		<tag k="natural" v="water" />
		<tag k="ssr:stedsnr" v="1466" />
	</node>
	<node lat="58.94339276639017" lon="11.66216194698534" id="-25092">
		<tag k="name" v="Løksvann" />
		<tag k="natural" v="water" />
		<tag k="ssr:stedsnr" v="1866" />
		<tag k="water" v="lake" />
	</node>
	<node lat="59.21415000079275" lon="11.455852777480507" id="-25093">
		<tag k="alt_name" v="Motjern" />
		<tag k="name" v="Motjernet" />
		<tag k="natural" v="water" />
		<tag k="ssr:stedsnr" v="1873" />
	</node>
	<node lat="59.146375001195715" lon="11.506083341405365" id="-25097">
		<tag k="name" v="Nestangen" />
		<tag k="natural" v="cape" />
		<tag k="ssr:stedsnr" v="2008" />
	</node>
	<node lat="59.027691852920654" lon="11.568295758555069" id="-25099">
		<tag k="name" v="Tangen" />
		<tag k="natural" v="cape" />
		<tag k="ssr:stedsnr" v="2423" />
	</node>
	<node lat="59.03452777585413" lon="11.675386115225677" id="-25100">
		<tag k="alt_name" v="Store Øretjern" />
		<tag k="name" v="Øretjerna" />
		<tag k="natural" v="water" />
		<tag k="ssr:stedsnr" v="2447" />
	</node>
	<node lat="58.96319166840413" lon="11.669316673241598" id="-25104">
		<tag k="alt_name" v="Rottjern" />
		<tag k="name" v="Rottjernet" />
		<tag k="natural" v="water" />
		<tag k="ssr:stedsnr" v="2828" />
	</node>
	<node lat="58.95145132430903" lon="11.49662435564167" id="-25108">
		<tag k="alt_name" v="Rørsvannet;Rørsvann" />
		<tag k="name" v="Rødsvannet" />
		<tag k="natural" v="water" />
		<tag k="ssr:stedsnr" v="2844" />
		<tag k="water" v="lake" />
	</node>
	<node lat="58.95508613806683" lon="11.460611409208424" id="-25110">
		<tag k="alt_name" v="Håvedals Langvann" />
		<tag k="name" v="Håvedals-Langvann" />
		<tag k="natural" v="water" />
		<tag k="ssr:stedsnr" v="2846" />
	</node>
	<node lat="59.203900003551965" lon="11.399625000632426" id="-25113">
		<tag k="alt_name" v="Kjelltjern" />
		<tag k="name" v="Kjeletjernet" />
		<tag k="natural" v="water" />
		<tag k="ssr:stedsnr" v="2881" />
	</node>
	<node lat="59.17407499781749" lon="11.451000004750304" id="-25114">
		<tag k="alt_name" v="Blytjern" />
		<tag k="name" v="Blytjernet" />
		<tag k="natural" v="water" />
		<tag k="ssr:stedsnr" v="2954" />
	</node>
	<node lat="59.21999166594017" lon="11.399547216006203" id="-25129">
		<tag k="alt_name" v="Vakrene østre" />
		<tag k="name" v="Østre Vakrene" />
		<tag k="natural" v="water" />
		<tag k="ssr:stedsnr" v="22847" />
	</node>
	<node lat="59.11862499891141" lon="11.36958056164283" id="-25131">
		<tag k="name" v="Haldenvassdraget" />
		<tag k="natural" v="water" />
		<tag k="ssr:stedsnr" v="44920" />
		<tag k="water" v="lake" />
	</node>
	<node lat="59.12711666208853" lon="11.51967222984866" id="-25138">
		<tag k="name" v="Ormtjern" />
		<tag k="natural" v="water" />
		<tag k="ssr:stedsnr" v="50657" />
	</node>
	<node lat="58.90069999646005" lon="11.527627780297298" id="-25142">
		<tag k="name" v="Strømsund" />
		<tag k="natural" v="strait" />
		<tag k="ssr:stedsnr" v="50747" />
	</node>
	<node lat="59.02163055304812" lon="11.66893055432021" id="-25144">
		<tag k="name" v="Lille Høljetjern" />
		<tag k="natural" v="water" />
		<tag k="ssr:stedsnr" v="50994" />
	</node>
	<node lat="59.017194444939264" lon="11.649524991883336" id="-25145">
		<tag k="name" v="Tretterbekken" />
		<tag k="ssr:stedsnr" v="50997" />
		<tag k="waterway" v="stream" />
	</node>
	<node lat="59.02135555410398" lon="11.653991663781431" id="-25146">
		<tag k="name" v="Kjerringtjern" />
		<tag k="natural" v="water" />
		<tag k="ssr:stedsnr" v="50998" />
	</node>
	<node lat="59.02816944133204" lon="11.658177769381126" id="-25147">
		<tag k="name" v="Lille Stenslundtjern" />
		<tag k="natural" v="water" />
		<tag k="ssr:stedsnr" v="50999" />
	</node>
	<node lat="59.037602773901625" lon="11.593549994473294" id="-25148">
		<tag k="name" v="Øvre dam" />
		<tag k="ssr:stedsnr" v="50860" />
		<tag k="waterway" v="dam" />
	</node>
	<node lat="59.047777776938155" lon="11.516316670892792" id="-25153">
		<tag k="name" v="Korstjern" />
		<tag k="natural" v="water" />
		<tag k="ssr:stedsnr" v="51556" />
	</node>
	<node lat="59.08127222463096" lon="11.615680548758773" id="-25155">
		<tag k="name" v="Tranetjern" />
		<tag k="natural" v="water" />
		<tag k="ssr:stedsnr" v="51641" />
	</node>
	<node lat="59.066722221407815" lon="11.655697221032389" id="-25156">
		<tag k="name" v="Tronsholtfjorden" />
		<tag k="natural" v="water" />
		<tag k="ssr:stedsnr" v="51645" />
	</node>
	<node lat="58.891844440237854" lon="11.478741666369613" id="-25159">
		<tag k="name" v="Olserødtjernet" />
		<tag k="natural" v="water" />
		<tag k="ssr:stedsnr" v="51766" />
	</node>
	<node lat="59.12353888898312" lon="11.579788882561303" id="-25165">
		<tag k="name" v="Nordre Mørtvik" />
		<tag k="natural" v="bay" />
		<tag k="ssr:stedsnr" v="63072" />
	</node>
	<node lat="59.118424998152165" lon="11.624902775934203" id="-25166">
		<tag k="name" v="Kutjern" />
		<tag k="natural" v="water" />
		<tag k="ssr:stedsnr" v="63078" />
	</node>
	<node lat="58.91446369014271" lon="11.48537065723522" id="-25168">
		<tag k="alt_name" v="Langvann" />
		<tag k="name" v="Langevannet" />
		<tag k="natural" v="water" />
		<tag k="ssr:stedsnr" v="61145" />
		<tag k="water" v="lake" />
	</node>
	<node lat="58.9275777744974" lon="11.46182499832623" id="-25169">
		<tag k="name" v="Kløvtjern" />
		<tag k="natural" v="water" />
		<tag k="ssr:stedsnr" v="61163" />
	</node>
	<node lat="59.10713842442883" lon="11.517963814105883" id="-25173">
		<tag k="alt_name" v="Klepperøya" />
		<tag k="name" v="Leongerøya" />
		<tag k="place" v="islet" />
		<tag k="ssr:stedsnr" v="62455" />
	</node>
	<node lat="59.10090032826484" lon="11.524313749659893" id="-25174">
		<tag k="alt_name" v="Holvannet" />
		<tag k="name" v="Holvann" />
		<tag k="natural" v="water" />
		<tag k="ssr:stedsnr" v="62456" />
		<tag k="water" v="lake" />
	</node>
	<node lat="59.1609361083812" lon="11.566055556928925" id="-25190">
		<tag k="name" v="Fismedalstjern" />
		<tag k="natural" v="water" />
		<tag k="ssr:stedsnr" v="63128" />
	</node>
	<node lat="58.95650555748945" lon="11.641786105119879" id="-25193">
		<tag k="name" v="Stutøye" />
		<tag k="natural" v="water" />
		<tag k="ssr:stedsnr" v="63838" />
	</node>
	<node lat="59.09586388466551" lon="11.514649996668648" id="-25195">
		<tag k="name" v="Køjaren" />
		<tag k="natural" v="bay" />
		<tag k="ssr:stedsnr" v="63461" />
	</node>
	<node lat="58.98354444266003" lon="11.465919442585745" id="-25203">
		<tag k="name" v="Merrhølet" />
		<tag k="natural" v="bay" />
		<tag k="ssr:stedsnr" v="82169" />
	</node>
	<node lat="58.961436109430075" lon="11.489886110875426" id="-25204">
		<tag k="name" v="Neset" />
		<tag k="natural" v="cape" />
		<tag k="ssr:stedsnr" v="82176" />
	</node>
	<node lat="58.952466670619" lon="11.493980549911235" id="-25205">
		<tag k="name" v="Stuttangen" />
		<tag k="natural" v="cape" />
		<tag k="ssr:stedsnr" v="82181" />
	</node>
	<node lat="59.21184166593412" lon="11.399038887231319" id="-25218">
		<tag k="name" v="Svarttjern" />
		<tag k="natural" v="water" />
		<tag k="ssr:stedsnr" v="83862" />
	</node>
	<node lat="59.0397790626347" lon="11.530739551015113" id="-25229">
		<tag k="name" v="Ålekutjern" />
		<tag k="natural" v="water" />
		<tag k="ssr:stedsnr" v="111491" />
	</node>
	<node lat="59.053520758286695" lon="11.512029098332691" id="-25230">
		<tag k="name" v="Fiskeløsen" />
		<tag k="natural" v="water" />
		<tag k="ssr:stedsnr" v="111494" />
	</node>
	<node lat="59.10138888587159" lon="11.553533330867584" id="-25233">
		<tag k="name" v="Slåttetjern" />
		<tag k="natural" v="water" />
		<tag k="ssr:stedsnr" v="111549" />
	</node>
	<node lat="58.89327426965185" lon="11.527544419737191" id="-25234">
		<tag k="name" v="Gatetjernet" />
		<tag k="natural" v="water" />
		<tag k="ssr:stedsnr" v="111552" />
	</node>
	<node lat="59.05132499698861" lon="11.628591674803088" id="-25237">
		<tag k="name" v="Ringlundstjern" />
		<tag k="natural" v="water" />
		<tag k="ssr:stedsnr" v="111515" />
	</node>
	<node lat="59.01705000134112" lon="11.612961118070386" id="-25244">
		<tag k="name" v="Gjeddelundbekken" />
		<tag k="ssr:stedsnr" v="111695" />
		<tag k="waterway" v="stream" />
	</node>
	<node lat="59.00571388624947" lon="11.540030551787925" id="-25247">
		<tag k="name" v="Bjørnholmen" />
		<tag k="natural" v="cape" />
		<tag k="ssr:stedsnr" v="111893" />
	</node>
	<node lat="59.00109721827394" lon="11.54956388472732" id="-25248">
		<tag k="name" v="Lille Krokvik" />
		<tag k="natural" v="bay" />
		<tag k="ssr:stedsnr" v="111896" />
	</node>
	<node lat="58.99489999802796" lon="11.545397228640763" id="-25249">
		<tag k="name" v="Jonsbutangen" />
		<tag k="natural" v="cape" />
		<tag k="ssr:stedsnr" v="111900" />
	</node>
	<node lat="59.00216389103948" lon="11.604797218450633" id="-25253">
		<tag k="name" v="Stutøye" />
		<tag k="natural" v="water" />
		<tag k="ssr:stedsnr" v="111933" />
	</node>
	<node lat="58.877913888833426" lon="11.524524995743029" id="-25255">
		<tag k="name" v="Kitterødbekken" />
		<tag k="ssr:stedsnr" v="111646" />
		<tag k="waterway" v="stream" />
	</node>
	<node lat="59.028438885539344" lon="11.586705547978905" id="-25256">
		<tag k="name" v="Gyltetjern" />
		<tag k="natural" v="water" />
		<tag k="ssr:stedsnr" v="111727" />
	</node>
	<node lat="58.93193888664637" lon="11.62904722883226" id="-25271">
		<tag k="name" v="Lerbekktjern" />
		<tag k="natural" v="water" />
		<tag k="ssr:stedsnr" v="122160" />
	</node>
	<node lat="58.93279999871021" lon="11.573322214199735" id="-25272">
		<tag k="alt_name" v="Haraldtjern" />
		<tag k="name" v="Haraldstjern" />
		<tag k="natural" v="water" />
		<tag k="ssr:stedsnr" v="122161" />
	</node>
	<node lat="58.93265832978605" lon="11.550161117331541" id="-25273">
		<tag k="name" v="Blåtjern" />
		<tag k="natural" v="water" />
		<tag k="ssr:stedsnr" v="122163" />
	</node>
	<node lat="59.114280558532556" lon="11.53427777876876" id="-25275">
		<tag k="name" v="Sagtjern" />
		<tag k="natural" v="water" />
		<tag k="ssr:stedsnr" v="122443" />
	</node>
	<node lat="58.99351276498213" lon="11.616062140024017" id="-25279">
		<tag k="name" v="Kutjern" />
		<tag k="natural" v="water" />
		<tag k="ssr:stedsnr" v="122785" />
	</node>
	<node lat="58.99715833748954" lon="11.67567500691811" id="-25280">
		<tag k="name" v="Svartbekken" />
		<tag k="ssr:stedsnr" v="122792" />
		<tag k="waterway" v="stream" />
	</node>
	<node lat="58.98388333139257" lon="11.594363891909756" id="-25281">
		<tag k="name" v="Guritjern" />
		<tag k="natural" v="water" />
		<tag k="ssr:stedsnr" v="122793" />
	</node>
	<node lat="59.19499596968487" lon="11.441047699946415" id="-25284">
		<tag k="name" v="Abbortjernet" />
		<tag k="natural" v="water" />
		<tag k="ssr:stedsnr" v="122976" />
	</node>
	<node lat="59.19701388523961" lon="11.560355550456919" id="-25287">
		<tag k="name" v="Sandtjern" />
		<tag k="natural" v="water" />
		<tag k="ssr:stedsnr" v="123192" />
	</node>
	<node lat="59.03345000323377" lon="11.46214999227904" id="-25295">
		<tag k="alt_name" v="Liholttjern" />
		<tag k="name" v="Liholttjernet" />
		<tag k="natural" v="water" />
		<tag k="ssr:stedsnr" v="123252" />
	</node>
	<node lat="59.08768332988521" lon="11.671494441063421" id="-25300">
		<tag k="alt_name" v="Nordre Grønne" />
		<tag k="name" v="Lille Grønetjern" />
		<tag k="natural" v="water" />
		<tag k="ssr:stedsnr" v="123546" />
	</node>
	<node lat="59.06551666918482" lon="11.642483326461809" id="-25302">
		<tag k="name" v="Store Haugåstjern" />
		<tag k="natural" v="water" />
		<tag k="ssr:stedsnr" v="123442" />
	</node>
	<node lat="59.16694443988127" lon="11.496919451812161" id="-25324">
		<tag k="name" v="Tjærvika" />
		<tag k="natural" v="bay" />
		<tag k="ssr:stedsnr" v="143854" />
	</node>
	<node lat="59.254411114980655" lon="11.470311119043716" id="-25325">
		<tag k="name" v="Glomsrødbekken" />
		<tag k="ssr:stedsnr" v="143875" />
		<tag k="waterway" v="stream" />
	</node>
	<node lat="59.10583610977266" lon="11.588852773494374" id="-25334">
		<tag k="name" v="Vinterveibukta" />
		<tag k="natural" v="bay" />
		<tag k="ssr:stedsnr" v="172584" />
	</node>
	<node lat="59.05596388639131" lon="11.541944442478586" id="-25336">
		<tag k="name" v="Brutjern" />
		<tag k="natural" v="water" />
		<tag k="ssr:stedsnr" v="172554" />
	</node>
	<node lat="58.92803055964334" lon="11.642358336557184" id="-25339">
		<tag k="name" v="Pengeodden" />
		<tag k="natural" v="cape" />
		<tag k="ssr:stedsnr" v="172652" />
	</node>
	<node lat="59.19784444758846" lon="11.546824997604798" id="-25349">
		<tag k="name" v="Tvebotntjern" />
		<tag k="natural" v="water" />
		<tag k="ssr:stedsnr" v="172745" />
	</node>
	<node lat="59.24079722620376" lon="11.54468056126293" id="-25350">
		<tag k="name" v="Sennetjern" />
		<tag k="natural" v="water" />
		<tag k="ssr:stedsnr" v="172750" />
	</node>
	<node lat="58.914033333881214" lon="11.643944443270726" id="-25353">
		<tag k="name" v="Missingene" />
		<tag k="place" v="island" />
		<tag k="ssr:stedsnr" v="172838" />
	</node>
	<node lat="59.11992777679336" lon="11.58281945050936" id="-25358">
		<tag k="name" v="Bjørnetangen" />
		<tag k="natural" v="cape" />
		<tag k="ssr:stedsnr" v="172991" />
	</node>
	<node lat="59.226691665292286" lon="11.546452776643012" id="-25359">
		<tag k="name" v="Gørrtjern" />
		<tag k="natural" v="water" />
		<tag k="ssr:stedsnr" v="172994" />
	</node>
	<node lat="59.085727777330185" lon="11.655597225305511" id="-25367">
		<tag k="name" v="Bastlitjern" />
		<tag k="natural" v="water" />
		<tag k="ssr:stedsnr" v="183430" />
	</node>
	<node lat="59.08751111521209" lon="11.636458333754039" id="-25368">
		<tag k="name" v="Nedre Sørvannet" />
		<tag k="natural" v="water" />
		<tag k="ssr:stedsnr" v="183434" />
	</node>
	<node lat="58.9085722188699" lon="11.610280557865263" id="-25370">
		<tag k="name" v="Karitjern" />
		<tag k="natural" v="water" />
		<tag k="ssr:stedsnr" v="183122" />
	</node>
	<node lat="58.910638887013626" lon="11.646116666648812" id="-25371">
		<tag k="fixme" v="multiple name tags, choose one and add the other to alt_name" />
		<tag k="name" v="Messingøya;Flatøya" />
		<tag k="place" v="islet" />
		<tag k="ssr:stedsnr" v="183126" />
	</node>
	<node lat="58.91224166540521" lon="11.461722229489634" id="-25372">
		<tag k="alt_name" v="Lundetjernet" />
		<tag k="name" v="Lundetjern" />
		<tag k="natural" v="water" />
		<tag k="ssr:stedsnr" v="183141" />
	</node>
	<node lat="58.91925833387428" lon="11.607911102686703" id="-25375">
		<tag k="alt_name" v="Holevannspytt" />
		<tag k="name" v="Hølepytta" />
		<tag k="natural" v="water" />
		<tag k="ssr:stedsnr" v="183148" />
	</node>
	<node lat="58.97874222459017" lon="11.578112956367272" id="-25378">
		<tag k="alt_name" v="Dalbotjern" />
		<tag k="name" v="Dalbutjern" />
		<tag k="natural" v="water" />
		<tag k="ssr:stedsnr" v="183827" />
	</node>
	<node lat="59.12600000377006" lon="11.266149995406014" id="-25387">
		<tag k="alt_name" v="Gørrtjern" />
		<tag k="name" v="Gørrtjernet" />
		<tag k="natural" v="water" />
		<tag k="ssr:stedsnr" v="183878" />
	</node>
	<node lat="59.11997500120239" lon="11.375349996670012" id="-25398">
		<tag k="name" v="Tista" />
		<tag k="ssr:stedsnr" v="184822" />
		<tag k="waterway" v="river" />
	</node>
	<node lat="58.98584444895392" lon="11.48294721408452" id="-25410">
		<tag k="name" v="Blakktjern" />
		<tag k="natural" v="water" />
		<tag k="ssr:stedsnr" v="204120" />
	</node>
	<node lat="59.00592777757085" lon="11.586497222776996" id="-25429">
		<tag k="name" v="Mørttjern" />
		<tag k="natural" v="water" />
		<tag k="ssr:stedsnr" v="293933" />
	</node>
	<node lat="59.09059444391428" lon="11.59311666292601" id="-25434">
		<tag k="name" v="Mørtenes" />
		<tag k="natural" v="cape" />
		<tag k="ssr:stedsnr" v="293701" />
	</node>
	<node lat="59.094469446175516" lon="11.591191664671488" id="-25436">
		<tag k="name" v="Mørteelva" />
		<tag k="ssr:stedsnr" v="293707" />
		<tag k="waterway" v="river" />
	</node>
	<node lat="59.059108335792146" lon="11.666744450233784" id="-25439">
		<tag k="name" v="Hauglundfjorden" />
		<tag k="natural" v="water" />
		<tag k="old_name" v="Hauglundfjoden" />
		<tag k="ssr:stedsnr" v="293552" />
	</node>
	<node lat="59.00501666577659" lon="11.5490527741078" id="-25456">
		<tag k="name" v="Tranvik" />
		<tag k="natural" v="bay" />
		<tag k="ssr:stedsnr" v="293917" />
	</node>
	<node lat="58.99396110965963" lon="11.55103888236351" id="-25457">
		<tag k="name" v="Bekmobukta" />
		<tag k="natural" v="bay" />
		<tag k="ssr:stedsnr" v="293921" />
	</node>
	<node lat="59.1410138846996" lon="11.532233325110663" id="-25461">
		<tag k="name" v="Ganerødelva" />
		<tag k="ssr:stedsnr" v="293984" />
		<tag k="waterway" v="river" />
	</node>
	<node lat="59.122986107366025" lon="11.554950003597837" id="-25462">
		<tag k="name" v="Sakssæterøyene" />
		<tag k="place" v="island" />
		<tag k="ssr:stedsnr" v="293986" />
	</node>
	<node lat="58.919503093386076" lon="11.544693098329436" id="-25472">
		<tag k="alt_name" v="Åbbortjern" />
		<tag k="name" v="Abbortjern" />
		<tag k="natural" v="water" />
		<tag k="ssr:stedsnr" v="304149" />
	</node>
	<node lat="58.92169722542398" lon="11.476630563088966" id="-25474">
		<tag k="name" v="Trinsetjern" />
		<tag k="natural" v="water" />
		<tag k="ssr:stedsnr" v="304153" />
	</node>
	<node lat="59.11395832894429" lon="11.578894447952258" id="-25478">
		<tag k="name" v="Hestneset" />
		<tag k="natural" v="cape" />
		<tag k="ssr:stedsnr" v="304452" />
	</node>
	<node lat="59.20929999652414" lon="11.525130550668235" id="-25493">
		<tag k="alt_name" v="Lomtjern" />
		<tag k="name" v="Lommetjern" />
		<tag k="natural" v="water" />
		<tag k="ssr:stedsnr" v="305149" />
	</node>
	<node lat="59.02387222293332" lon="11.60661389058822" id="-25499">
		<tag k="alt_name" v="Gjeddelundtjernet" />
		<tag k="name" v="Geddelundtjern" />
		<tag k="natural" v="water" />
		<tag k="ssr:stedsnr" v="305338" />
	</node>
	<node lat="59.02296944743606" lon="11.703050005586116" id="-25500">
		<tag k="alt_name" v="Orøya" />
		<tag k="name" v="Ørøya" />
		<tag k="place" v="islet" />
		<tag k="ssr:stedsnr" v="305354" />
	</node>
	<node lat="58.989566668158254" lon="11.663036103065378" id="-25501">
		<tag k="name" v="Svanetjern" />
		<tag k="natural" v="water" />
		<tag k="ssr:stedsnr" v="305799" />
	</node>
	<node lat="59.06723888843243" lon="11.676850004952085" id="-25502">
		<tag k="name" v="Krukebukta" />
		<tag k="natural" v="bay" />
		<tag k="ssr:stedsnr" v="305401" />
	</node>
	<node lat="59.20602499706296" lon="11.462849994189826" id="-25506">
		<tag k="alt_name" v="Ertetjern" />
		<tag k="name" v="Ertetjernet" />
		<tag k="natural" v="water" />
		<tag k="ssr:stedsnr" v="305986" />
	</node>
	<node lat="58.97276944561958" lon="11.561738884460956" id="-25507">
		<tag k="name" v="Smørtjern" />
		<tag k="natural" v="water" />
		<tag k="ssr:stedsnr" v="305824" />
	</node>
	<node lat="58.968479313408714" lon="11.466522978250897" id="-25509">
		<tag k="name" v="Svartholstjerna" />
		<tag k="natural" v="water" />
		<tag k="ssr:stedsnr" v="305839" />
		<tag k="water" v="lake" />
	</node>
	<node lat="58.96614166807727" lon="11.465991672070592" id="-25522">
		<tag k="name" v="Søndre Svarthøltjern" />
		<tag k="natural" v="water" />
		<tag k="ssr:stedsnr" v="325170" />
	</node>
	<node lat="58.98524444241333" lon="11.464777783334682" id="-25528">
		<tag k="name" v="Mellembukta" />
		<tag k="natural" v="bay" />
		<tag k="ssr:stedsnr" v="325160" />
	</node>
	<node lat="59.02724444205342" lon="11.477027775742116" id="-25532">
		<tag k="name" v="Mellemtjern" />
		<tag k="natural" v="water" />
		<tag k="ssr:stedsnr" v="325257" />
	</node>
	<node lat="59.01171619091946" lon="11.703391078610066" id="-25552">
		<tag k="fixme" v="multiple name tags, choose one and add the other to alt_name" />
		<tag k="name" v="Delesøya;Kalholmen" />
		<tag k="place" v="islet" />
		<tag k="ssr:stedsnr" v="353336" />
	</node>
	<node lat="59.089644448272715" lon="11.54174722392888" id="-25553">
		<tag k="name" v="Rødlandsungen" />
		<tag k="natural" v="water" />
		<tag k="ssr:stedsnr" v="354551" />
	</node>
	<node lat="59.04531667043053" lon="11.68457777833431" id="-25556">
		<tag k="name" v="Kaseøya" />
		<tag k="place" v="island" />
		<tag k="ssr:stedsnr" v="354532" />
	</node>
	<node lat="59.03070966271723" lon="11.669151061673917" id="-25574">
		<tag k="name" v="Bjørndalstjernet" />
		<tag k="natural" v="water" />
		<tag k="ssr:stedsnr" v="354753" />
	</node>
	<node lat="59.07462778056668" lon="11.65440555157339" id="-25576">
		<tag k="name" v="Saubukta" />
		<tag k="natural" v="bay" />
		<tag k="ssr:stedsnr" v="354953" />
	</node>
	<node lat="59.05064444666463" lon="11.558397227670289" id="-25579">
		<tag k="name" v="Ånerødneset" />
		<tag k="natural" v="cape" />
		<tag k="ssr:stedsnr" v="354962" />
	</node>
	<node lat="59.066844445778216" lon="11.628000003554522" id="-25582">
		<tag k="name" v="Svelta" />
		<tag k="natural" v="water" />
		<tag k="ssr:stedsnr" v="354950" />
	</node>
	<node lat="58.9265862439403" lon="11.597742453150001" id="-25585">
		<tag k="alt_name" v="Ormtjern" />
		<tag k="name" v="Ormetjern" />
		<tag k="natural" v="water" />
		<tag k="ssr:stedsnr" v="364179" />
	</node>
	<node lat="58.92849166495896" lon="11.653566674638956" id="-25586">
		<tag k="alt_name" v="Finsvikøya" />
		<tag k="name" v="Finnsvikøya" />
		<tag k="place" v="islet" />
		<tag k="ssr:stedsnr" v="364196" />
	</node>
	<node lat="58.93134722173588" lon="11.647947226743943" id="-25587">
		<tag k="name" v="Skaløya" />
		<tag k="place" v="islet" />
		<tag k="ssr:stedsnr" v="364198" />
	</node>
	<node lat="59.105438221232404" lon="11.553095395344899" id="-25594">
		<tag k="name" v="Stormyrtjerna" />
		<tag k="natural" v="water" />
		<tag k="ssr:stedsnr" v="365462" />
		<tag k="water" v="lake" />
	</node>
	<node lat="59.233177195286196" lon="11.386425170517475" id="-25605">
		<tag k="alt_name" v="Bergsmarktjern" />
		<tag k="name" v="Bergsmarktjernet" />
		<tag k="natural" v="water" />
		<tag k="ssr:stedsnr" v="365951" />
	</node>
	<node lat="59.229702779462606" lon="11.398402778913479" id="-25606">
		<tag k="name" v="Kartmotjernet" />
		<tag k="natural" v="water" />
		<tag k="ssr:stedsnr" v="365953" />
	</node>
	<node lat="59.132322988765566" lon="11.52362157560971" id="-25607">
		<tag k="name" v="Krusetertjern" />
		<tag k="natural" v="water" />
		<tag k="ssr:stedsnr" v="366033" />
	</node>
	<node lat="59.13446944019377" lon="11.564091666430514" id="-25608">
		<tag k="name" v="Abbortjern" />
		<tag k="natural" v="water" />
		<tag k="ssr:stedsnr" v="366034" />
	</node>
	<node lat="59.18400277740955" lon="11.495019445565644" id="-25610">
		<tag k="alt_name" v="Torebytjern" />
		<tag k="name" v="Torbytjern" />
		<tag k="natural" v="water" />
		<tag k="ssr:stedsnr" v="366068" />
	</node>
	<node lat="59.16607500023859" lon="11.483583329824466" id="-25611">
		<tag k="alt_name" v="Jøvikbukta" />
		<tag k="name" v="Mørkebukt" />
		<tag k="natural" v="bay" />
		<tag k="ssr:stedsnr" v="366095" />
	</node>
	<node lat="59.03376389046429" lon="11.547222222093446" id="-25617">
		<tag k="name" v="Mjølnareneset" />
		<tag k="natural" v="cape" />
		<tag k="ssr:stedsnr" v="366420" />
	</node>
	<node lat="58.963419445211315" lon="11.513555555958375" id="-25622">
		<tag k="name" v="Endetjern" />
		<tag k="natural" v="water" />
		<tag k="ssr:stedsnr" v="366817" />
	</node>
	<node lat="58.95415000343367" lon="11.672025007266976" id="-25623">
		<tag k="name" v="Fugløya" />
		<tag k="place" v="islet" />
		<tag k="ssr:stedsnr" v="366818" />
	</node>
	<node lat="58.948497837240545" lon="11.624966054933562" id="-25628">
		<tag k="fixme" v="multiple name tags, choose one and add the other to alt_name" />
		<tag k="name" v="Sevtjern;Rørtjern" />
		<tag k="natural" v="water" />
		<tag k="ssr:stedsnr" v="366831" />
	</node>
	<node lat="59.20357500113926" lon="11.392891658024192" id="-25629">
		<tag k="name" v="Holmetjernet" />
		<tag k="natural" v="water" />
		<tag k="ssr:stedsnr" v="366868" />
	</node>
	<node lat="59.25099721931868" lon="11.515427785847038" id="-25652">
		<tag k="name" v="Nedre Bislingen" />
		<tag k="natural" v="water" />
		<tag k="ssr:stedsnr" v="414683" />
	</node>
	<node lat="58.91663889095746" lon="11.517486103885687" id="-25659">
		<tag k="name" v="Rørselven" />
		<tag k="ssr:stedsnr" v="414883" />
		<tag k="waterway" v="river" />
	</node>
	<node lat="59.04738863457448" lon="11.529338426208813" id="-25661">
		<tag k="name" v="Stenurtjern" />
		<tag k="natural" v="water" />
		<tag k="ssr:stedsnr" v="414952" />
	</node>
	<node lat="59.11201371496267" lon="11.516870692248384" id="-25666">
		<tag k="name" v="Fiskeløstjerna" />
		<tag k="natural" v="water" />
		<tag k="ssr:stedsnr" v="415602" />
		<tag k="water" v="lake" />
	</node>
	<node lat="58.889119440581275" lon="11.49616388576571" id="-25668">
		<tag k="name" v="Svendstjernsbekken" />
		<tag k="ssr:stedsnr" v="415608" />
		<tag k="waterway" v="stream" />
	</node>
	<node lat="59.0521833363975" lon="11.535038895495452" id="-25674">
		<tag k="name" v="Tretjern" />
		<tag k="natural" v="water" />
		<tag k="ssr:stedsnr" v="415547" />
	</node>
	<node lat="59.06256987319015" lon="11.537805384392856" id="-25676">
		<tag k="name" v="Blakkmosetjern" />
		<tag k="natural" v="water" />
		<tag k="ssr:stedsnr" v="415559" />
	</node>
	<node lat="59.0346508376556" lon="11.622038203553782" id="-25678">
		<tag k="name" v="Bjønnesuppen" />
		<tag k="natural" v="water" />
		<tag k="ssr:stedsnr" v="415567" />
	</node>
	<node lat="59.068524997910664" lon="11.628913881163562" id="-25680">
		<tag k="name" v="Store Sveltetjern" />
		<tag k="natural" v="water" />
		<tag k="ssr:stedsnr" v="415652" />
	</node>
	<node lat="58.9650305533583" lon="11.611005546976218" id="-25683">
		<tag k="name" v="Lomtangen" />
		<tag k="natural" v="cape" />
		<tag k="ssr:stedsnr" v="415669" />
	</node>
	<node lat="59.139811114397986" lon="11.63026943647567" id="-25684">
		<tag k="name" v="Trollnestjern" />
		<tag k="natural" v="water" />
		<tag k="ssr:stedsnr" v="415672" />
	</node>
	<node lat="58.928659909144805" lon="11.622704774078404" id="-25691">
		<tag k="name" v="Abbortjern" />
		<tag k="natural" v="water" />
		<tag k="ssr:stedsnr" v="425175" />
	</node>
	<node lat="58.899288661114" lon="11.604363137199247" id="-25694">
		<tag k="name" v="Ryelstjern" />
		<tag k="natural" v="water" />
		<tag k="ssr:stedsnr" v="426131" />
	</node>
	<node lat="58.90807232944755" lon="11.599766710062843" id="-25696">
		<tag k="alt_name" v="Tretjern" />
		<tag k="name" v="Tretjerna" />
		<tag k="natural" v="water" />
		<tag k="ssr:stedsnr" v="426134" />
		<tag k="water" v="lake" />
	</node>
	<node lat="58.970338887895714" lon="11.64204722071043" id="-25697">
		<tag k="name" v="Abbortjern" />
		<tag k="natural" v="water" />
		<tag k="ssr:stedsnr" v="426057" />
	</node>
	<node lat="59.062122222807965" lon="11.620327772571684" id="-25699">
		<tag k="alt_name" v="Askaltjern" />
		<tag k="name" v="Askalstjern" />
		<tag k="natural" v="water" />
		<tag k="ssr:stedsnr" v="426370" />
	</node>
	<node lat="59.08946944354204" lon="11.519805550677924" id="-25708">
		<tag k="alt_name" v="Haugtjern" />
		<tag k="name" v="Haugetjern" />
		<tag k="natural" v="water" />
		<tag k="ssr:stedsnr" v="426472" />
	</node>
	<node lat="59.14694999719645" lon="11.620094451790289" id="-25714">
		<tag k="name" v="Hølen" />
		<tag k="natural" v="water" />
		<tag k="ssr:stedsnr" v="427014" />
		<tag k="water" v="lake" />
	</node>
	<node lat="59.11839847807892" lon="11.495273587166952" id="-25715">
		<tag k="name" v="Lille Erte" />
		<tag k="natural" v="water" />
		<tag k="ssr:stedsnr" v="427055" />
		<tag k="water" v="lake" />
	</node>
	<node lat="59.022627777314305" lon="11.481158341155183" id="-25717">
		<tag k="name" v="Guritjern" />
		<tag k="natural" v="water" />
		<tag k="ssr:stedsnr" v="427362" />
	</node>
	<node lat="59.04000277758805" lon="11.637508325223083" id="-25719">
		<tag k="name" v="Lerholttjern" />
		<tag k="natural" v="water" />
		<tag k="ssr:stedsnr" v="427432" />
	</node>
	<node lat="59.096563887856085" lon="11.633905563055865" id="-25721">
		<tag k="alt_name" v="Trettertjern" />
		<tag k="name" v="Trettartjern" />
		<tag k="natural" v="water" />
		<tag k="ssr:stedsnr" v="427510" />
	</node>
	<node lat="59.04253611298594" lon="11.680838883585546" id="-25763">
		<tag k="name" v="Murholtsbukta" />
		<tag k="natural" v="bay" />
		<tag k="ssr:stedsnr" v="536513" />
	</node>
	<node lat="59.087872223089676" lon="11.543119441964869" id="-25766">
		<tag k="name" v="Rødlandstjern" />
		<tag k="natural" v="water" />
		<tag k="ssr:stedsnr" v="536543" />
	</node>
	<node lat="59.13870833035831" lon="11.536205558781898" id="-25776">
		<tag k="name" v="Båtsvikbukta" />
		<tag k="natural" v="bay" />
		<tag k="ssr:stedsnr" v="536724" />
	</node>
	<node lat="59.212479453811376" lon="11.56948534898934" id="-25786">
		<tag k="name" v="Bjørntjern" />
		<tag k="natural" v="water" />
		<tag k="ssr:stedsnr" v="536708" />
	</node>
	<node lat="59.02328055163395" lon="11.5623416694661" id="-25792">
		<tag k="name" v="Bløtvikøyene" />
		<tag k="place" v="island" />
		<tag k="ssr:stedsnr" v="536994" />
	</node>
	<node lat="58.92981666542148" lon="11.480977776428954" id="-25795">
		<tag k="name" v="Røssetjern" />
		<tag k="natural" v="water" />
		<tag k="ssr:stedsnr" v="536757" />
	</node>
	<node lat="58.92344560727985" lon="11.567919385547837" id="-25801">
		<tag k="fixme" v="multiple name tags, choose one and add the other to alt_name" />
		<tag k="name" v="Stutøye;Myrtjern" />
		<tag k="natural" v="water" />
		<tag k="ssr:stedsnr" v="546162" />
	</node>
	<node lat="58.92872222237508" lon="11.468613897153869" id="-25803">
		<tag k="name" v="Svantjern" />
		<tag k="natural" v="water" />
		<tag k="ssr:stedsnr" v="546169" />
	</node>
	<node lat="59.11186111310601" lon="11.639955558082022" id="-25804">
		<tag k="alt_name" v="Duttemyrtjern" />
		<tag k="name" v="Duvlemyrtjern" />
		<tag k="natural" v="water" />
		<tag k="ssr:stedsnr" v="547498" />
	</node>
	<node lat="58.90616944223878" lon="11.603383337130895" id="-25806">
		<tag k="alt_name" v="Kvittjern" />
		<tag k="name" v="Kvitjern" />
		<tag k="natural" v="water" />
		<tag k="ssr:stedsnr" v="547145" />
	</node>
	<node lat="59.007616668052464" lon="11.674533325896723" id="-25808">
		<tag k="name" v="Svarttjern" />
		<tag k="natural" v="water" />
		<tag k="ssr:stedsnr" v="547349" />
	</node>
	<node lat="58.98556111016756" lon="11.50416944766499" id="-25813">
		<tag k="alt_name" v="Boltjern" />
		<tag k="name" v="Bordtjern" />
		<tag k="natural" v="water" />
		<tag k="ssr:stedsnr" v="547817" />
	</node>
	<node lat="58.98212221894332" lon="11.56272777804249" id="-25814">
		<tag k="name" v="Vardåstjern" />
		<tag k="natural" v="water" />
		<tag k="ssr:stedsnr" v="547823" />
	</node>
	<node lat="58.972095192626476" lon="11.607335199259595" id="-25816">
		<tag k="alt_name" v="Kvittjern" />
		<tag k="name" v="Kvitjern" />
		<tag k="natural" v="water" />
		<tag k="ssr:stedsnr" v="547834" />
	</node>
	<node lat="58.97675945351828" lon="11.618068723520027" id="-25819">
		<tag k="name" v="Abbortjern" />
		<tag k="natural" v="water" />
		<tag k="ssr:stedsnr" v="547839" />
	</node>
	<node lat="59.16156918700834" lon="11.518954703756656" id="-25826">
		<tag k="name" v="Lilleøya" />
		<tag k="place" v="island" />
		<tag k="ssr:stedsnr" v="548098" />
	</node>
	<node lat="59.12490555909352" lon="11.567705556958892" id="-25827">
		<tag k="name" v="Kjetangen" />
		<tag k="natural" v="cape" />
		<tag k="ssr:stedsnr" v="548043" />
	</node>
	<node lat="59.09603889209396" lon="11.566769442910884" id="-25833">
		<tag k="name" v="Kverntjern" />
		<tag k="natural" v="water" />
		<tag k="ssr:stedsnr" v="548449" />
	</node>
	<node lat="59.09316388440169" lon="11.659611116426985" id="-25835">
		<tag k="name" v="Erikstjern" />
		<tag k="natural" v="water" />
		<tag k="ssr:stedsnr" v="548514" />
	</node>
	<node lat="58.96188610760748" lon="11.588083339700072" id="-25838">
		<tag k="name" v="Lindtjern" />
		<tag k="natural" v="water" />
		<tag k="ssr:stedsnr" v="548841" />
	</node>
	<node lat="58.97018751285281" lon="11.466680636863495" id="-25847">
		<tag k="name" v="Nordre Svarthøltjern" />
		<tag k="natural" v="water" />
		<tag k="ssr:stedsnr" v="567196" />
	</node>
	<node lat="59.183950734837524" lon="11.48052825172159" id="-25856">
		<tag k="name" v="Folungtjern" />
		<tag k="natural" v="water" />
		<tag k="ssr:stedsnr" v="568831" />
	</node>
	<node lat="59.163636107338746" lon="11.491944440462873" id="-25857">
		<tag k="name" v="Langenestangen" />
		<tag k="natural" v="cape" />
		<tag k="ssr:stedsnr" v="568837" />
	</node>
	<node lat="59.103991668303344" lon="11.596677774117083" id="-25865">
		<tag k="name" v="Sandsjøbekken" />
		<tag k="ssr:stedsnr" v="596533" />
		<tag k="waterway" v="stream" />
	</node>
	<node lat="59.101997224597866" lon="11.52154722045337" id="-25870">
		<tag k="name" v="Klepperneset" />
		<tag k="natural" v="cape" />
		<tag k="ssr:stedsnr" v="596475" />
	</node>
	<node lat="59.11155277773823" lon="11.509147216581841" id="-25871">
		<tag k="name" v="Søndre Svartkolltjern" />
		<tag k="natural" v="water" />
		<tag k="ssr:stedsnr" v="596477" />
	</node>
	<node lat="59.07264722587415" lon="11.563980559676926" id="-25872">
		<tag k="name" v="Svarttjern" />
		<tag k="natural" v="water" />
		<tag k="ssr:stedsnr" v="596483" />
	</node>
	<node lat="59.06377778075469" lon="11.598716668525194" id="-25873">
		<tag k="name" v="Store Vardåstjern" />
		<tag k="natural" v="water" />
		<tag k="ssr:stedsnr" v="596485" />
	</node>
	<node lat="59.24292222569031" lon="11.547663883552342" id="-25878">
		<tag k="name" v="Saksetjern" />
		<tag k="natural" v="water" />
		<tag k="ssr:stedsnr" v="596665" />
	</node>
	<node lat="59.04281111160879" lon="11.597638891893942" id="-25883">
		<tag k="name" v="Karlsåstjern" />
		<tag k="natural" v="water" />
		<tag k="ssr:stedsnr" v="596696" />
	</node>
	<node lat="59.21268055986189" lon="11.387661108335717" id="-25886">
		<tag k="name" v="Svarttjern" />
		<tag k="natural" v="water" />
		<tag k="ssr:stedsnr" v="596889" />
	</node>
	<node lat="59.246400003894124" lon="11.54162499321092" id="-25890">
		<tag k="name" v="Svarttjern" />
		<tag k="natural" v="water" />
		<tag k="ssr:stedsnr" v="596985" />
	</node>
	<node lat="59.026920848075484" lon="11.537859747028195" id="-25891">
		<tag k="name" v="Småtjerna" />
		<tag k="natural" v="water" />
		<tag k="ssr:stedsnr" v="596993" />
		<tag k="water" v="lake" />
	</node>
	<node lat="59.17298888892834" lon="11.546827772882732" id="-25895">
		<tag k="name" v="Rødselva" />
		<tag k="ssr:stedsnr" v="607083" />
		<tag k="waterway" v="river" />
	</node>
	<node lat="58.91415000328789" lon="11.596183338010027" id="-25897">
		<tag k="alt_name" v="Svantjern store" />
		<tag k="name" v="Store Svantjern" />
		<tag k="natural" v="water" />
		<tag k="ssr:stedsnr" v="607158" />
	</node>
	<node lat="58.925802546400405" lon="11.584463543653248" id="-25899">
		<tag k="alt_name" v="Nordre Eljevann" />
		<tag k="name" v="Øvre Elgvann" />
		<tag k="natural" v="water" />
		<tag k="ssr:stedsnr" v="607167" />
		<tag k="water" v="lake" />
	</node>
	<node lat="58.93733327531281" lon="11.472611919941535" id="-25902">
		<tag k="name" v="Kutjern" />
		<tag k="natural" v="water" />
		<tag k="ssr:stedsnr" v="607187" />
	</node>
	<node lat="59.073411764527435" lon="11.66314951626117" id="-25905">
		<tag k="alt_name" v="Kjelundtjerna" />
		<tag k="name" v="Kjedelundtjerna" />
		<tag k="natural" v="water" />
		<tag k="ssr:stedsnr" v="607413" />
		<tag k="water" v="lake" />
	</node>
	<node lat="59.242386112730614" lon="11.524422215292265" id="-25907">
		<tag k="name" v="Lamyrbekken" />
		<tag k="ssr:stedsnr" v="607134" />
		<tag k="waterway" v="stream" />
	</node>
	<node lat="59.24763611414966" lon="11.477377777088583" id="-25909">
		<tag k="alt_name" v="Ravnetjern" />
		<tag k="name" v="Ravntjern" />
		<tag k="natural" v="water" />
		<tag k="ssr:stedsnr" v="608207" />
	</node>
	<node lat="59.07403440275116" lon="11.618231894753206" id="-25913">
		<tag k="name" v="Angerstjern" />
		<tag k="natural" v="water" />
		<tag k="ssr:stedsnr" v="607473" />
	</node>
	<node lat="59.0775777739262" lon="11.500761112667396" id="-25914">
		<tag k="alt_name" v="Lomtjern" />
		<tag k="name" v="Lometjern" />
		<tag k="natural" v="water" />
		<tag k="ssr:stedsnr" v="607477" />
	</node>
	<node lat="59.0124916634463" lon="11.64228332590107" id="-25924">
		<tag k="name" v="Store Morttjern" />
		<tag k="natural" v="water" />
		<tag k="ssr:stedsnr" v="608325" />
	</node>
	<node lat="59.04089444493796" lon="11.655813892003662" id="-25925">
		<tag k="name" v="Kutjern" />
		<tag k="natural" v="water" />
		<tag k="ssr:stedsnr" v="608423" />
	</node>
	<node lat="59.24734166292152" lon="11.552727774217956" id="-25927">
		<tag k="alt_name" v="Bjørketjern" />
		<tag k="name" v="Bjerketjern" />
		<tag k="natural" v="water" />
		<tag k="ssr:stedsnr" v="608234" />
	</node>
	<node lat="59.08576389710601" lon="11.66491597536138" id="-25928">
		<tag k="name" v="Fløttjern" />
		<tag k="natural" v="water" />
		<tag k="ssr:stedsnr" v="608530" />
	</node>
	<node lat="59.17495000445498" lon="11.441999998042075" id="-25937">
		<tag k="alt_name" v="Daltjern" />
		<tag k="name" v="Daltjernet" />
		<tag k="natural" v="water" />
		<tag k="ssr:stedsnr" v="608974" />
	</node>
	<node lat="59.12609722459478" lon="11.418038884475152" id="-25956">
		<tag k="name" v="Skåningsfoss" />
		<tag k="natural" v="waterfall" />
		<tag k="ssr:stedsnr" v="629838" />
	</node>
	<node lat="58.885463891627296" lon="11.514680553674376" id="-25967">
		<tag k="name" v="Sjøhøla" />
		<tag k="natural" v="bay" />
		<tag k="ssr:stedsnr" v="657582" />
	</node>
	<node lat="58.94065555730894" lon="11.55647221990599" id="-25968">
		<tag k="name" v="Gjettjern" />
		<tag k="natural" v="water" />
		<tag k="ssr:stedsnr" v="657586" />
	</node>
	<node lat="59.0828249991899" lon="11.61981388092032" id="-25970">
		<tag k="name" v="Gullbrutjern" />
		<tag k="natural" v="water" />
		<tag k="ssr:stedsnr" v="657596" />
	</node>
	<node lat="59.09277777435044" lon="11.674494436012731" id="-25972">
		<tag k="name" v="Ryttermyrtjern" />
		<tag k="natural" v="water" />
		<tag k="ssr:stedsnr" v="657598" />
	</node>
	<node lat="59.117347224348485" lon="11.586122221257993" id="-25983">
		<tag k="name" v="Bjørnetangen" />
		<tag k="natural" v="cape" />
		<tag k="ssr:stedsnr" v="657570" />
	</node>
	<node lat="59.11290000230022" lon="11.563511107533298" id="-25985">
		<tag k="name" v="Klevtangen" />
		<tag k="natural" v="cape" />
		<tag k="ssr:stedsnr" v="657573" />
	</node>
	<node lat="59.109041664908375" lon="11.529330552653743" id="-25986">
		<tag k="name" v="Søletjern" />
		<tag k="natural" v="water" />
		<tag k="ssr:stedsnr" v="657574" />
	</node>
	<node lat="58.94856389076215" lon="11.679713884377291" id="-25990">
		<tag k="name" v="Kvanøya" />
		<tag k="place" v="island" />
		<tag k="ssr:stedsnr" v="657775" />
	</node>
	<node lat="59.00216943999612" lon="11.523763888883725" id="-25993">
		<tag k="name" v="Stenersrødtjern" />
		<tag k="natural" v="water" />
		<tag k="ssr:stedsnr" v="657861" />
	</node>
	<node lat="59.06422777464188" lon="11.552552777334576" id="-25995">
		<tag k="name" v="Klevtjern" />
		<tag k="natural" v="water" />
		<tag k="ssr:stedsnr" v="657948" />
	</node>
	<node lat="59.014074996178145" lon="11.593763886180472" id="-26003">
		<tag k="name" v="Åletjern" />
		<tag k="natural" v="water" />
		<tag k="ssr:stedsnr" v="668353" />
	</node>
	<node lat="59.014225003819995" lon="11.5334583250681" id="-26004">
		<tag k="name" v="Grågåstjern" />
		<tag k="natural" v="water" />
		<tag k="ssr:stedsnr" v="668374" />
	</node>
	<node lat="58.93238055977164" lon="11.654994450584963" id="-26005">
		<tag k="name" v="Løvøya" />
		<tag k="place" v="islet" />
		<tag k="ssr:stedsnr" v="668175" />
	</node>
	<node lat="58.902697219602814" lon="11.611613891762339" id="-26006">
		<tag k="name" v="Ormetjern" />
		<tag k="natural" v="water" />
		<tag k="ssr:stedsnr" v="668115" />
	</node>
	<node lat="58.904055557885656" lon="11.61242777350549" id="-26007">
		<tag k="alt_name" v="Grunntjern" />
		<tag k="name" v="Grøntjern" />
		<tag k="natural" v="water" />
		<tag k="ssr:stedsnr" v="668116" />
	</node>
	<node lat="58.906088889574185" lon="11.580938896540411" id="-26009">
		<tag k="alt_name" v="Goddagenetjern" />
		<tag k="name" v="Godatjern" />
		<tag k="natural" v="water" />
		<tag k="ssr:stedsnr" v="668127" />
	</node>
	<node lat="59.11551110935178" lon="11.618902784310404" id="-26013">
		<tag k="name" v="Sandsjø" />
		<tag k="natural" v="water" />
		<tag k="ssr:stedsnr" v="668475" />
	</node>
	<node lat="58.947119443918965" lon="11.653066671903918" id="-26014">
		<tag k="name" v="Lille Løksvann" />
		<tag k="natural" v="water" />
		<tag k="ssr:stedsnr" v="668855" />
	</node>
	<node lat="59.0635888881963" lon="11.526527786404012" id="-26026">
		<tag k="alt_name" v="Blankvann" />
		<tag k="name" v="Blanketjern" />
		<tag k="natural" v="water" />
		<tag k="ssr:stedsnr" v="669394" />
	</node>
	<node lat="58.980211108106126" lon="11.645588884190387" id="-26030">
		<tag k="name" v="Brønntjern" />
		<tag k="natural" v="water" />
		<tag k="ssr:stedsnr" v="669801" />
	</node>
	<node lat="58.96567222534103" lon="11.579808333139749" id="-26031">
		<tag k="name" v="Skittruk" />
		<tag k="natural" v="water" />
		<tag k="ssr:stedsnr" v="669834" />
	</node>
	<node lat="59.11711389125494" lon="11.607905555725878" id="-26040">
		<tag k="name" v="Sandsjøbekken" />
		<tag k="ssr:stedsnr" v="670064" />
		<tag k="waterway" v="stream" />
	</node>
	<node lat="59.11621110933552" lon="11.583813884036271" id="-26041">
		<tag k="name" v="Søndre Mørtvik" />
		<tag k="natural" v="bay" />
		<tag k="ssr:stedsnr" v="670070" />
	</node>
	<node lat="58.890430556370625" lon="11.5078194459" id="-26045">
		<tag k="name" v="Middagshøla" />
		<tag k="natural" v="bay" />
		<tag k="ssr:stedsnr" v="718585" />
	</node>
	<node lat="59.008991666200316" lon="11.591325008003812" id="-26056">
		<tag k="name" v="Rotebustjern" />
		<tag k="natural" v="water" />
		<tag k="ssr:stedsnr" v="718933" />
	</node>
	<node lat="59.08758333119131" lon="11.5518777742407" id="-26069">
		<tag k="name" v="Boltetjern" />
		<tag k="natural" v="water" />
		<tag k="ssr:stedsnr" v="718976" />
	</node>
	<node lat="58.90538888890811" lon="11.503727775285244" id="-26080">
		<tag k="alt_name" v="Pattjern" />
		<tag k="name" v="Puttjern" />
		<tag k="natural" v="water" />
		<tag k="ssr:stedsnr" v="729136" />
	</node>
	<node lat="58.91309444228299" lon="11.59949166131672" id="-26081">
		<tag k="alt_name" v="Svantjern lille" />
		<tag k="name" v="Lille Svantjern" />
		<tag k="natural" v="water" />
		<tag k="ssr:stedsnr" v="729137" />
	</node>
	<node lat="58.91309444884684" lon="11.538019447822327" id="-26082">
		<tag k="alt_name" v="Tittertjern" />
		<tag k="name" v="Tittaretjern" />
		<tag k="natural" v="water" />
		<tag k="ssr:stedsnr" v="729151" />
	</node>
	<node lat="58.91884444185265" lon="11.65647222873695" id="-26083">
		<tag k="name" v="Nordre Kornsjø" />
		<tag k="natural" v="water" />
		<tag k="ssr:stedsnr" v="729154" />
		<tag k="water" v="lake" />
	</node>
	<node lat="58.93648332956266" lon="11.556972223316462" id="-26087">
		<tag k="name" v="Holmvannet" />
		<tag k="natural" v="water" />
		<tag k="ssr:stedsnr" v="729863" />
	</node>
	<node lat="58.925238890002056" lon="11.617000003442937" id="-26090">
		<tag k="name" v="Stutøye" />
		<tag k="natural" v="water" />
		<tag k="ssr:stedsnr" v="729161" />
	</node>
	<node lat="58.92079999776728" lon="11.564541665143803" id="-26091">
		<tag k="alt_name" v="Kallorstjern" />
		<tag k="name" v="Kalåstjern" />
		<tag k="natural" v="water" />
		<tag k="ssr:stedsnr" v="729166" />
	</node>
	<node lat="58.999974999741745" lon="11.541383332344779" id="-26093">
		<tag k="name" v="Ørsjøen" />
		<tag k="natural" v="water" />
		<tag k="ssr:stedsnr" v="729793" />
		<tag k="water" v="lake" />
	</node>
	<node lat="58.9443472262527" lon="11.474213897555543" id="-26095">
		<tag k="name" v="Tatertjern" />
		<tag k="natural" v="water" />
		<tag k="ssr:stedsnr" v="729872" />
	</node>
	<node lat="59.06009722539327" lon="11.623611103162334" id="-26109">
		<tag k="name" v="Strevletjern" />
		<tag k="natural" v="water" />
		<tag k="ssr:stedsnr" v="730386" />
	</node>
	<node lat="58.9577277824333" lon="11.55556110325538" id="-26110">
		<tag k="alt_name" v="Rotjern nordre;Rødtjern nordre" />
		<tag k="name" v="Nordre Rotjern" />
		<tag k="natural" v="water" />
		<tag k="ssr:stedsnr" v="730867" />
	</node>
	<node lat="58.95464444412637" lon="11.6764111075104" id="-26112">
		<tag k="alt_name" v="Bokøya" />
		<tag k="name" v="Bukkøya" />
		<tag k="place" v="islet" />
		<tag k="ssr:stedsnr" v="730874" />
	</node>
	<node lat="58.96230833401423" lon="11.673422222204895" id="-26114">
		<tag k="name" v="Skjeggerødneset" />
		<tag k="natural" v="cape" />
		<tag k="ssr:stedsnr" v="730853" />
	</node>
	<node lat="59.123099995557354" lon="11.585594447052618" id="-26118">
		<tag k="alt_name" v="Mellem Mørtvik" />
		<tag k="name" v="Midtre Mørtvik" />
		<tag k="natural" v="bay" />
		<tag k="ssr:stedsnr" v="731049" />
	</node>
	<node lat="59.17024722023001" lon="11.397466673729594" id="-26133">
		<tag k="name" v="Tutjern" />
		<tag k="natural" v="water" />
		<tag k="ssr:stedsnr" v="750819" />
	</node>
	<node lat="59.25489722587581" lon="11.453058340083867" id="-26134">
		<tag k="name" v="Glomsrødsjøen" />
		<tag k="natural" v="water" />
		<tag k="ssr:stedsnr" v="750837" />
		<tag k="water" v="lake" />
	</node>
	<node lat="59.100699997514674" lon="11.566091659182442" id="-26148">
		<tag k="name" v="Ørdalsbukta" />
		<tag k="natural" v="bay" />
		<tag k="ssr:stedsnr" v="779563" />
	</node>
	<node lat="59.10859442637901" lon="11.631751955806585" id="-26155">
		<tag k="name" v="Bjergingstjern" />
		<tag k="natural" v="water" />
		<tag k="ssr:stedsnr" v="779616" />
	</node>
	<node lat="59.220699999767994" lon="11.38779999257611" id="-26159">
		<tag k="name" v="Stutetjern" />
		<tag k="natural" v="water" />
		<tag k="ssr:stedsnr" v="779731" />
	</node>
	<node lat="59.02242815950151" lon="11.688591652786702" id="-26161">
		<tag k="name" v="Hallerødsetertjern" />
		<tag k="natural" v="water" />
		<tag k="ssr:stedsnr" v="779744" />
	</node>
	<node lat="59.003197317806304" lon="11.579270807207095" id="-26163">
		<tag k="name" v="Bråtenetjern" />
		<tag k="natural" v="water" />
		<tag k="ssr:stedsnr" v="779926" />
	</node>
	<node lat="59.01347003219514" lon="11.522997285340452" id="-26172">
		<tag k="name" v="Dalbutjern" />
		<tag k="natural" v="water" />
		<tag k="ssr:stedsnr" v="779988" />
	</node>
	<node lat="58.89260555721555" lon="11.471058337921392" id="-26176">
		<tag k="alt_name" v="Halvfarsvannet" />
		<tag k="name" v="Halvfarsvann" />
		<tag k="natural" v="water" />
		<tag k="ssr:stedsnr" v="789251" />
	</node>
	<node lat="58.93257500235975" lon="11.61818054817633" id="-26177">
		<tag k="name" v="Damtjern" />
		<tag k="natural" v="water" />
		<tag k="ssr:stedsnr" v="789031" />
	</node>
	<node lat="58.97059444353734" lon="11.590249994839722" id="-26178">
		<tag k="name" v="Damtjern" />
		<tag k="natural" v="water" />
		<tag k="ssr:stedsnr" v="789048" />
	</node>
	<node lat="58.923490099496995" lon="11.609637456643977" id="-26184">
		<tag k="alt_name" v="Holevann" />
		<tag k="name" v="Hølvannet" />
		<tag k="natural" v="water" />
		<tag k="ssr:stedsnr" v="789163" />
		<tag k="water" v="lake" />
	</node>
	<node lat="58.92531666863508" lon="11.565155549880194" id="-26185">
		<tag k="alt_name" v="Sjøtjern" />
		<tag k="name" v="Sevtjern" />
		<tag k="natural" v="water" />
		<tag k="ssr:stedsnr" v="789172" />
	</node>
	<node lat="58.92388351029998" lon="11.559771782741366" id="-26186">
		<tag k="name" v="Sandvann" />
		<tag k="natural" v="water" />
		<tag k="ssr:stedsnr" v="789174" />
		<tag k="water" v="lake" />
	</node>
	<node lat="58.93934721871756" lon="11.630636105504374" id="-26188">
		<tag k="name" v="Langtjern" />
		<tag k="natural" v="water" />
		<tag k="ssr:stedsnr" v="789199" />
	</node>
	<node lat="59.17285277564682" lon="11.591430563143657" id="-26191">
		<tag k="name" v="Veggesdalsbekken" />
		<tag k="ssr:stedsnr" v="790084" />
		<tag k="waterway" v="stream" />
	</node>
	<node lat="59.05576110680806" lon="11.627430558336822" id="-26196">
		<tag k="name" v="Otertjern" />
		<tag k="natural" v="water" />
		<tag k="ssr:stedsnr" v="790368" />
	</node>
	<node lat="59.053697223046186" lon="11.643180559618811" id="-26197">
		<tag k="name" v="Svarttjern" />
		<tag k="natural" v="water" />
		<tag k="ssr:stedsnr" v="790370" />
	</node>
	<node lat="59.05759622919111" lon="11.551396493662446" id="-26198">
		<tag k="name" v="Damtjern" />
		<tag k="natural" v="water" />
		<tag k="ssr:stedsnr" v="790371" />
	</node>
	<node lat="58.95871742425205" lon="11.46456985507947" id="-26203">
		<tag k="name" v="Otertjern" />
		<tag k="natural" v="water" />
		<tag k="ssr:stedsnr" v="790865" />
	</node>
	<node lat="59.165694443599776" lon="11.527894443132308" id="-26207">
		<tag k="name" v="Storøya" />
		<tag k="place" v="islet" />
		<tag k="ssr:stedsnr" v="791109" />
	</node>
	<node lat="59.0719305542295" lon="11.625422230482945" id="-26208">
		<tag k="name" v="Langetjern" />
		<tag k="natural" v="water" />
		<tag k="ssr:stedsnr" v="790485" />
	</node>
	<node lat="58.94541389186977" lon="11.537977773616785" id="-26212">
		<tag k="name" v="Vesletjern" />
		<tag k="natural" v="water" />
		<tag k="ssr:stedsnr" v="791856" />
	</node>
	<node lat="59.03060833413353" lon="11.544725002355841" id="-26218">
		<tag k="alt_name" v="Bekkevika" />
		<tag k="name" v="Bekkevik" />
		<tag k="natural" v="bay" />
		<tag k="ssr:stedsnr" v="791382" />
	</node>
	<node lat="59.194122219373334" lon="11.41775277011428" id="-26248">
		<tag k="name" v="Bjørbekken" />
		<tag k="ssr:stedsnr" v="811802" />
		<tag k="waterway" v="stream" />
	</node>
	<node lat="59.23998055205084" lon="11.499455555744305" id="-26249">
		<tag k="name" v="Krokbekken" />
		<tag k="ssr:stedsnr" v="811835" />
		<tag k="waterway" v="stream" />
	</node>
	<node lat="59.23846388547457" lon="11.485413882238175" id="-26250">
		<tag k="name" v="Buneselva" />
		<tag k="ssr:stedsnr" v="811838" />
		<tag k="waterway" v="stream" />
	</node>
	<node lat="59.0350277747176" lon="11.484772222637558" id="-26253">
		<tag k="name" v="Skoletjern" />
		<tag k="natural" v="water" />
		<tag k="ssr:stedsnr" v="812762" />
	</node>
	<node lat="59.0447679081315" lon="11.507378768791014" id="-26263">
		<tag k="name" v="Abbortjern" />
		<tag k="natural" v="water" />
		<tag k="ssr:stedsnr" v="840517" />
	</node>
	<node lat="59.05738889341373" lon="11.538980554823194" id="-26264">
		<tag k="name" v="Brutjern" />
		<tag k="natural" v="water" />
		<tag k="ssr:stedsnr" v="840523" />
	</node>
	<node lat="58.92149963666625" lon="11.462757321196412" id="-26265">
		<tag k="name" v="Drøftetrauet" />
		<tag k="natural" v="water" />
		<tag k="ssr:stedsnr" v="840743" />
	</node>
	<node lat="59.025966664203374" lon="11.57820833003307" id="-26268">
		<tag k="name" v="Trantjern" />
		<tag k="natural" v="water" />
		<tag k="ssr:stedsnr" v="840752" />
	</node>
	<node lat="59.02777499900244" lon="11.6893972285025" id="-26270">
		<tag k="name" v="Bjørndalsbukta" />
		<tag k="natural" v="bay" />
		<tag k="ssr:stedsnr" v="840757" />
	</node>
	<node lat="58.88990277691876" lon="11.500786117223544" id="-26273">
		<tag k="name" v="Kvernbukta" />
		<tag k="natural" v="bay" />
		<tag k="ssr:stedsnr" v="840560" />
	</node>
	<node lat="59.117269444736266" lon="11.651763886251086" id="-26283">
		<tag k="name" v="Droggetjern" />
		<tag k="natural" v="water" />
		<tag k="ssr:stedsnr" v="840936" />
	</node>
	<node lat="59.10425833428013" lon="11.50917222141906" id="-26284">
		<tag k="name" v="Hagetjern" />
		<tag k="natural" v="water" />
		<tag k="ssr:stedsnr" v="840948" />
	</node>
	<node lat="59.08364722565045" lon="11.608441661115203" id="-26288">
		<tag k="name" v="Itjern" />
		<tag k="natural" v="water" />
		<tag k="ssr:stedsnr" v="840970" />
	</node>
	<node lat="59.007185070017734" lon="11.608159390194256" id="-26290">
		<tag k="name" v="Langevann" />
		<tag k="natural" v="water" />
		<tag k="ssr:stedsnr" v="840914" />
		<tag k="water" v="lake" />
	</node>
	<node lat="59.134752774428385" lon="11.605299994728288" id="-26292">
		<tag k="name" v="Mellemtjern" />
		<tag k="natural" v="water" />
		<tag k="ssr:stedsnr" v="840980" />
	</node>
	<node lat="59.1698500039954" lon="11.521852783788345" id="-26293">
		<tag k="name" v="Saueskjær" />
		<tag k="place" v="islet" />
		<tag k="ssr:stedsnr" v="840982" />
	</node>
	<node lat="58.90880828129167" lon="11.555446728447203" id="-26298">
		<tag k="name" v="Abbortjern" />
		<tag k="natural" v="water" />
		<tag k="ssr:stedsnr" v="850136" />
	</node>
	<node lat="58.90792222254265" lon="11.543283338569553" id="-26299">
		<tag k="alt_name" v="Langvann" />
		<tag k="name" v="Langevannet" />
		<tag k="natural" v="water" />
		<tag k="ssr:stedsnr" v="850137" />
	</node>
	<node lat="58.90732499824534" lon="11.652186103319574" id="-26301">
		<tag k="name" v="Hisøya" />
		<tag k="place" v="island" />
		<tag k="ssr:stedsnr" v="850142" />
	</node>
	<node lat="59.08520833438718" lon="11.676905554121623" id="-26303">
		<tag k="alt_name" v="Bjørketjern" />
		<tag k="name" v="Bjørke" />
		<tag k="natural" v="water" />
		<tag k="ssr:stedsnr" v="851454" />
	</node>
	<node lat="59.2180444428709" lon="11.350219438080936" id="-26314">
		<tag k="alt_name" v="Langtjern" />
		<tag k="name" v="Langtjernet" />
		<tag k="natural" v="water" />
		<tag k="ssr:stedsnr" v="851897" />
	</node>
	<node lat="59.19440157921695" lon="11.367987375810737" id="-26315">
		<tag k="name" v="Korsetvannet" />
		<tag k="natural" v="water" />
		<tag k="ssr:stedsnr" v="851992" />
		<tag k="water" v="lake" />
	</node>
	<node lat="59.131661112201854" lon="11.571641664344604" id="-26319">
		<tag k="alt_name" v="Talombekken" />
		<tag k="name" v="Tallumbekken" />
		<tag k="ssr:stedsnr" v="852027" />
		<tag k="waterway" v="stream" />
	</node>
	<node lat="59.1283861077086" lon="11.550405549084159" id="-26321">
		<tag k="name" v="Bråsundet" />
		<tag k="natural" v="strait" />
		<tag k="ssr:stedsnr" v="852049" />
	</node>
	<node lat="59.01860773347816" lon="11.6697557681124" id="-26324">
		<tag k="alt_name" v="Store Høljetjern" />
		<tag k="name" v="Høljetjerna" />
		<tag k="natural" v="water" />
		<tag k="ssr:stedsnr" v="852340" />
		<tag k="water" v="lake" />
	</node>
	<node lat="59.04093611241761" lon="11.689519448246788" id="-26326">
		<tag k="alt_name" v="Murholtstangen" />
		<tag k="name" v="Murholttangen" />
		<tag k="natural" v="cape" />
		<tag k="ssr:stedsnr" v="852417" />
	</node>
	<node lat="59.09391388726274" lon="11.666391669519255" id="-26328">
		<tag k="name" v="Stentjern" />
		<tag k="natural" v="water" />
		<tag k="ssr:stedsnr" v="852484" />
	</node>
	<node lat="59.09086939051988" lon="11.597246351508119" id="-26330">
		<tag k="name" v="Mørte" />
		<tag k="natural" v="water" />
		<tag k="ssr:stedsnr" v="852493" />
		<tag k="water" v="lake" />
	</node>
	<node lat="59.201536114231544" lon="11.421586110850292" id="-26363">
		<tag k="name" v="Mellemsjøen" />
		<tag k="natural" v="water" />
		<tag k="ssr:stedsnr" v="872843" />
	</node>
	<node lat="58.95746944369181" lon="11.675324991535069" id="-26374">
		<tag k="name" v="Økøya" />
		<tag k="place" v="island" />
		<tag k="ssr:stedsnr" v="961832" />
	</node>
	<node lat="58.9182722244387" lon="11.630491662370094" id="-26375">
		<tag k="name" v="Brennøya" />
		<tag k="place" v="island" />
		<tag k="ssr:stedsnr" v="961896" />
	</node>
	<node lat="59.04097777429564" lon="11.571086102711947" id="-26378">
		<tag k="name" v="Neset" />
		<tag k="natural" v="cape" />
		<tag k="ssr:stedsnr" v="961913" />
	</node>
	<node lat="59.11103822064604" lon="11.502331377293157" id="-26380">
		<tag k="name" v="Duetjern" />
		<tag k="natural" v="water" />
		<tag k="ssr:stedsnr" v="961512" />
	</node>
	<node lat="59.04097221892384" lon="11.59118889026385" id="-26381">
		<tag k="name" v="Nedre dam" />
		<tag k="ssr:stedsnr" v="961515" />
		<tag k="waterway" v="dam" />
	</node>
	<node lat="59.06847777755319" lon="11.663388897492231" id="-26383">
		<tag k="name" v="Ramfrubukta" />
		<tag k="natural" v="bay" />
		<tag k="ssr:stedsnr" v="961539" />
	</node>
	<node lat="59.09330278072477" lon="11.544847216635928" id="-26384">
		<tag k="name" v="Mellemmyrtjern" />
		<tag k="natural" v="water" />
		<tag k="ssr:stedsnr" v="961543" />
	</node>
	<node lat="59.095947220633775" lon="11.551102785145677" id="-26385">
		<tag k="name" v="Tømmerlundtjern" />
		<tag k="natural" v="water" />
		<tag k="ssr:stedsnr" v="961544" />
	</node>
	<node lat="59.08288889120059" lon="11.54714721783703" id="-26387">
		<tag k="name" v="Stokketjern" />
		<tag k="natural" v="water" />
		<tag k="ssr:stedsnr" v="961548" />
	</node>
	<node lat="59.079072218062606" lon="11.658066668913223" id="-26393">
		<tag k="name" v="Grunntjern" />
		<tag k="natural" v="water" />
		<tag k="ssr:stedsnr" v="961622" />
	</node>
	<node lat="59.22218753308223" lon="11.57380624660813" id="-26395">
		<tag k="name" v="Andetjern" />
		<tag k="natural" v="water" />
		<tag k="ssr:stedsnr" v="961740" />
	</node>
	<node lat="59.01092222190315" lon="11.69494444832537" id="-26397">
		<tag k="name" v="Merrholmen" />
		<tag k="place" v="island" />
		<tag k="ssr:stedsnr" v="961773" />
	</node>
	<node lat="58.8946027795724" lon="11.485847215671361" id="-26398">
		<tag k="name" v="Lomtjern" />
		<tag k="natural" v="water" />
		<tag k="ssr:stedsnr" v="961774" />
	</node>
	<node lat="58.99550833170612" lon="11.533619443176057" id="-26407">
		<tag k="name" v="Kirkebukta" />
		<tag k="natural" v="bay" />
		<tag k="ssr:stedsnr" v="961935" />
	</node>
	<node lat="58.99310000271887" lon="11.540980557139077" id="-26408">
		<tag k="name" v="Vadbuvika" />
		<tag k="natural" v="bay" />
		<tag k="ssr:stedsnr" v="961938" />
	</node>
	<node lat="59.05161666897274" lon="11.525316672588172" id="-26413">
		<tag k="name" v="Tvibergtjern" />
		<tag k="natural" v="water" />
		<tag k="ssr:stedsnr" v="961965" />
	</node>
	<node lat="59.166455559993125" lon="11.515269446229672" id="-26417">
		<tag k="name" v="Hviteneset" />
		<tag k="natural" v="cape" />
		<tag k="ssr:stedsnr" v="961988" />
	</node>
	<node lat="59.235100002932946" lon="11.528563893969599" id="-26418">
		<tag k="name" v="Stokkedalstjern" />
		<tag k="natural" v="water" />
		<tag k="ssr:stedsnr" v="961992" />
	</node>
	<node lat="58.972769075639704" lon="11.68843444740687" id="-27029">
		<tag k="loc_name" v="Bokelva" />
		<tag k="name" v="Bokerødelva" />
		<tag k="ssr:stedsnr" v="1073062" />
		<tag k="waterway" v="river" />
	</node>
	<node lat="58.99027257716293" lon="11.686646747747611" id="-27033">
		<tag k="name" v="Møllefossen" />
		<tag k="natural" v="waterfall" />
		<tag k="ssr:stedsnr" v="1075672" />
	</node>
	<node lat="59.135089830261784" lon="11.537310984195473" id="-27038">
		<tag k="alt_name" v="Framre Erte" />
		<tag k="name" v="Fremre Erte" />
		<tag k="natural" v="water" />
		<tag k="ssr:stedsnr" v="1076512" />
	</node>
</osm>
