<?xml version="1.0" encoding="UTF-8"?>
<osm version="0.6" generator="osmapis">
	<node lat="59.92330264517817" lon="11.003664393003747" id="-28285">
		<tag k="fixme" v="consider place=hamlet" />
		<tag k="name" v="Østby" />
		<tag k="place" v="farm" />
		<tag k="ssr:stedsnr" v="4018" />
	</node>
	<node lat="59.840083335498385" lon="11.018561113270023" id="-28286">
		<tag k="alt_name" v="Kytetjernet, nordre;Nordre Kyttjern" />
		<tag k="name" v="Nordre Kytetjernet" />
		<tag k="natural" v="water" />
		<tag k="ssr:stedsnr" v="4203" />
	</node>
	<node lat="59.90090833666298" lon="10.999738883442852" id="-28287">
		<tag k="name" v="Styggvannet" />
		<tag k="natural" v="water" />
		<tag k="old_name" v="Styggvatnet" />
		<tag k="ssr:stedsnr" v="5060" />
	</node>
	<node lat="59.87186111308392" lon="10.938138885750657" id="-28288">
		<tag k="name" v="Halssjøputten" />
		<tag k="natural" v="bay" />
		<tag k="ssr:stedsnr" v="23143" />
	</node>
	<node lat="59.92647777597508" lon="10.981694448023951" id="-28289">
		<tag k="name" v="Nordre Hammer" />
		<tag k="place" v="farm" />
		<tag k="ssr:stedsnr" v="23083" />
	</node>
	<node lat="59.90416864491692" lon="11.017073471555099" id="-28290">
		<tag k="fixme" v="consider natural=peak for the most distinct mountains in the district" />
		<tag k="name" v="Jongseterås" />
		<tag k="natural" v="hill" />
		<tag k="place" v="locality" />
		<tag k="ssr:stedsnr" v="23084" />
	</node>
	<node lat="59.863036110117584" lon="10.994352773770174" id="-28291">
		<tag k="name" v="Malmerlia" />
		<tag k="natural" v="slope" />
		<tag k="place" v="locality" />
		<tag k="ssr:stedsnr" v="23093" />
	</node>
	<node lat="59.901713884577845" lon="10.9280333354069" id="-28292">
		<tag k="name" v="Toresrud" />
		<tag k="place" v="locality" />
		<tag k="ssr:stedsnr" v="23704" />
	</node>
	<node lat="59.91467778153051" lon="10.991449994322174" id="-28293">
		<tag k="name" v="Tyskerudsletta" />
		<tag k="place" v="locality" />
		<tag k="ssr:stedsnr" v="23902" />
	</node>
	<node lat="59.89653611335485" lon="10.92710833717916" id="-28294">
		<tag k="name" v="Trettestykket" />
		<tag k="place" v="locality" />
		<tag k="ssr:stedsnr" v="23910" />
	</node>
	<node lat="59.858730553412656" lon="10.93148333025332" id="-28295">
		<tag k="name" v="Skråbakkhølet" />
		<tag k="place" v="locality" />
		<tag k="ssr:stedsnr" v="23913" />
	</node>
	<node lat="59.91833889103931" lon="10.979225004333031" id="-28296">
		<tag k="name" v="Neskulpen" />
		<tag k="place" v="locality" />
		<tag k="ssr:stedsnr" v="23937" />
	</node>
	<node lat="59.90660555408826" lon="10.955291669409618" id="-28297">
		<tag k="name" v="Haugerbekken" />
		<tag k="ssr:stedsnr" v="23940" />
		<tag k="waterway" v="stream" />
	</node>
	<node lat="59.91097777377259" lon="10.985436111014135" id="-28298">
		<tag k="name" v="Nordre Kirkerud" />
		<tag k="place" v="farm" />
		<tag k="ssr:stedsnr" v="23979" />
	</node>
	<node lat="59.90565251270565" lon="10.794019642824841" id="-28299">
		<tag k="layer" v="-1" />
		<tag k="name" v="Romeriksporten" />
		<tag k="ssr:stedsnr" v="25005" />
		<tag k="tunnel" v="yes" />
	</node>
	<node lat="59.911108330327416" lon="10.922530561969586" id="-28300">
		<tag k="alt_name" v="Elvågasæter" />
		<tag k="name" v="Elvågaseter" />
		<tag k="place" v="farm" />
		<tag k="ssr:stedsnr" v="65079" />
	</node>
	<node lat="59.90797777540463" lon="10.942677785462834" id="-28301">
		<tag k="name" v="Frydenberg" />
		<tag k="place" v="isolated_dwelling" />
		<tag k="ssr:stedsnr" v="65108" />
	</node>
	<node lat="59.91316308771121" lon="10.986101174603947" id="-28302">
		<tag k="fixme" v="consider place=hamlet" />
		<tag k="name" v="Bjørnholt" />
		<tag k="place" v="farm" />
		<tag k="ssr:stedsnr" v="65112" />
	</node>
	<node lat="59.87709444795953" lon="11.019649997214872" id="-28303">
		<tag k="alt_name" v="Trettås" />
		<tag k="fixme" v="consider natural=peak for the most distinct mountains in the district" />
		<tag k="name" v="Trettåsen" />
		<tag k="natural" v="hill" />
		<tag k="place" v="locality" />
		<tag k="ssr:stedsnr" v="65185" />
	</node>
	<node lat="59.84418611506501" lon="11.012063890273659" id="-28304">
		<tag k="name" v="Østre Tonekollen" />
		<tag k="natural" v="hill" />
		<tag k="place" v="locality" />
		<tag k="ssr:stedsnr" v="84080" />
	</node>
	<node lat="59.884436115437914" lon="11.01611945168885" id="-28305">
		<tag k="fixme" v="consider natural=peak for the most distinct mountains in the district" />
		<tag k="name" v="Hvitvannsåsen" />
		<tag k="natural" v="hill" />
		<tag k="place" v="locality" />
		<tag k="ssr:stedsnr" v="84105" />
	</node>
	<node lat="59.87155000395343" lon="10.958744450651054" id="-28306">
		<tag k="fixme" v="consider natural=peak for the most distinct mountains in the district" />
		<tag k="name" v="Strudsåsen" />
		<tag k="natural" v="hill" />
		<tag k="place" v="locality" />
		<tag k="ssr:stedsnr" v="84108" />
	</node>
	<node lat="59.88631111221008" lon="10.91216945312461" id="-28307">
		<tag k="name" v="Sundliene" />
		<tag k="natural" v="slope" />
		<tag k="place" v="locality" />
		<tag k="ssr:stedsnr" v="84114" />
	</node>
	<node lat="59.84638889302676" lon="11.01593056051075" id="-28308">
		<tag k="name" v="Skårerputten" />
		<tag k="natural" v="water" />
		<tag k="ssr:stedsnr" v="84140" />
	</node>
	<node lat="59.87910555176319" lon="10.914077776567593" id="-28309">
		<tag k="name" v="Gaupesteina" />
		<tag k="place" v="locality" />
		<tag k="ssr:stedsnr" v="84913" />
	</node>
	<node lat="59.85066666847675" lon="10.997241665299116" id="-28310">
		<tag k="name" v="Feiringsetermyr" />
		<tag k="natural" v="wetland" />
		<tag k="ssr:stedsnr" v="84923" />
	</node>
	<node lat="59.86230277410805" lon="10.971466663128133" id="-28311">
		<tag k="name" v="Slettnebbet" />
		<tag k="natural" v="cape" />
		<tag k="ssr:stedsnr" v="84941" />
	</node>
	<node lat="59.84338611172202" lon="10.958527786311873" id="-28312">
		<tag k="historic" v="shieling" />
		<tag k="loc_name" v="Løykjesetra" />
		<tag k="name" v="Løkensetra" />
		<tag k="place" v="locality" />
		<tag k="ssr:stedsnr" v="84896" />
	</node>
	<node lat="59.911208332095114" lon="10.971852775617164" id="-28313">
		<tag k="name" v="Feiringhagan" />
		<tag k="place" v="farm" />
		<tag k="ssr:stedsnr" v="84977" />
	</node>
	<node lat="59.87028888904111" lon="10.994980559332506" id="-28314">
		<tag k="name" v="Tangen" />
		<tag k="place" v="farm" />
		<tag k="ssr:stedsnr" v="247142" />
	</node>
	<node lat="59.854258336788185" lon="11.01777499139947" id="-28315">
		<tag k="alt_name" v="Biritjern" />
		<tag k="name" v="Biritjernet" />
		<tag k="natural" v="water" />
		<tag k="ssr:stedsnr" v="247214" />
	</node>
	<node lat="59.90955509971705" lon="11.01991044489089" id="-28316">
		<tag k="name" v="Østbyputten" />
		<tag k="natural" v="water" />
		<tag k="ssr:stedsnr" v="247105" />
	</node>
	<node lat="59.89200278157467" lon="10.934558334134543" id="-28317">
		<tag k="alt_name" v="Knuttjernet" />
		<tag k="name" v="Knuttjern" />
		<tag k="natural" v="water" />
		<tag k="ssr:stedsnr" v="248080" />
	</node>
	<node lat="59.84870702787692" lon="10.93191184954834" id="-28318">
		<tag k="alt_name" v="Slepptjern" />
		<tag k="name" v="Slepptjernet" />
		<tag k="natural" v="water" />
		<tag k="ssr:stedsnr" v="248239" />
	</node>
	<node lat="59.870429751373905" lon="10.97258129328246" id="-28320">
		<tag k="alt_name" v="Fiskeløysa" />
		<tag k="name" v="Fiskelausa" />
		<tag k="natural" v="water" />
		<tag k="ssr:stedsnr" v="126133" />
	</node>
	<node lat="59.891908331367176" lon="10.95372499352956" id="-28321">
		<tag k="name" v="Dalbakk" />
		<tag k="place" v="isolated_dwelling" />
		<tag k="ssr:stedsnr" v="126083" />
	</node>
	<node lat="59.89598333702374" lon="10.932572216226845" id="-28322">
		<tag k="alt_name" v="Kvennåsen" />
		<tag k="fixme" v="consider natural=peak for the most distinct mountains in the district" />
		<tag k="name" v="Kvernås" />
		<tag k="natural" v="hill" />
		<tag k="place" v="locality" />
		<tag k="ssr:stedsnr" v="126084" />
	</node>
	<node lat="59.8550611090862" lon="10.97619722343779" id="-28323">
		<tag k="alt_name" v="Høymyra" />
		<tag k="name" v="Høgmyra" />
		<tag k="natural" v="wetland" />
		<tag k="ssr:stedsnr" v="126220" />
	</node>
	<node lat="59.93493333642755" lon="10.936444443815573" id="-28324">
		<tag k="junction" v="yes" />
		<tag k="name" v="Visperud" />
		<tag k="place" v="locality" />
		<tag k="ssr:stedsnr" v="144991" />
	</node>
	<node lat="59.91725833414449" lon="10.931736116358644" id="-28325">
		<tag k="name" v="Øvre Rasta" />
		<tag k="place" v="quarter" />
		<tag k="ssr:stedsnr" v="144995" />
	</node>
	<node lat="59.896555697149196" lon="10.9614163162676" id="-28326">
		<tag k="fixme" v="consider place=hamlet" />
		<tag k="name" v="Sørbygda" />
		<tag k="place" v="village" />
		<tag k="ssr:stedsnr" v="162056" />
	</node>
	<node lat="59.94249378424235" lon="10.991580337177451" id="-28327">
		<tag k="layer" v="-1" />
		<tag k="name" v="Blåkolltunnelen" />
		<tag k="old_name" v="Blåkollen" />
		<tag k="ssr:stedsnr" v="165120" />
		<tag k="tunnel" v="yes" />
	</node>
	<node lat="59.92099166992657" lon="10.97906666578253" id="-28328">
		<tag k="bridge" v="yes" />
		<tag k="layer" v="1" />
		<tag k="name" v="Sørli" />
		<tag k="ssr:stedsnr" v="167016" />
	</node>
	<node lat="59.93083888900401" lon="10.946561117097552" id="-28329">
		<tag k="bridge" v="yes" />
		<tag k="layer" v="1" />
		<tag k="name" v="Thurmannskogen" />
		<tag k="ssr:stedsnr" v="167018" />
	</node>
	<node lat="59.92568055777097" lon="10.931697224619226" id="-28330">
		<tag k="fixme" v="consider place=suburb, village or hamlet" />
		<tag k="name" v="Røykås" />
		<tag k="place" v="quarter" />
		<tag k="ssr:stedsnr" v="186007" />
	</node>
	<node lat="59.87563333563867" lon="10.97472499211696" id="-28331">
		<tag k="name" v="Endtjernet" />
		<tag k="natural" v="water" />
		<tag k="ssr:stedsnr" v="186178" />
	</node>
	<node lat="59.840222224549585" lon="10.985222223997669" id="-28332">
		<tag k="name" v="Liseterputten" />
		<tag k="natural" v="water" />
		<tag k="ssr:stedsnr" v="186195" />
	</node>
	<node lat="59.89576961091647" lon="10.962379584310447" id="-28333">
		<tag k="fixme" v="consider place=hamlet" />
		<tag k="name" v="Våler" />
		<tag k="place" v="farm" />
		<tag k="ssr:stedsnr" v="187080" />
	</node>
	<node lat="59.94108889198424" lon="10.942294445678309" id="-28334">
		<tag k="name" v="Ellingsrudelva" />
		<tag k="ssr:stedsnr" v="266129" />
		<tag k="waterway" v="river" />
	</node>
	<node lat="59.92294722538435" lon="10.988116659904938" id="-28335">
		<tag k="name" v="Øvre Røyri" />
		<tag k="place" v="farm" />
		<tag k="ssr:stedsnr" v="266077" />
	</node>
	<node lat="59.925641665489685" lon="11.011386110309813" id="-28336">
		<tag k="name" v="Østbystua" />
		<tag k="place" v="farm" />
		<tag k="ssr:stedsnr" v="266630" />
	</node>
	<node lat="59.89836388568948" lon="10.952113891843558" id="-28338">
		<tag k="name" v="Linderud" />
		<tag k="place" v="locality" />
		<tag k="ssr:stedsnr" v="266655" />
	</node>
	<node lat="59.91183611106818" lon="10.948527776222104" id="-28339">
		<tag k="name" v="Søndre Vallerud" />
		<tag k="place" v="locality" />
		<tag k="ssr:stedsnr" v="266656" />
	</node>
	<node lat="59.91905277479761" lon="10.985755554029286" id="-28340">
		<tag k="name" v="Bakken" />
		<tag k="place" v="locality" />
		<tag k="ssr:stedsnr" v="266664" />
	</node>
	<node lat="59.84686944892644" lon="10.95342222046591" id="-28341">
		<tag k="name" v="Løkenseterrøene" />
		<tag k="place" v="locality" />
		<tag k="ssr:stedsnr" v="266889" />
	</node>
	<node lat="59.91535833342488" lon="10.953841670357345" id="-28342">
		<tag k="name" v="Berger" />
		<tag k="place" v="farm" />
		<tag k="ssr:stedsnr" v="266959" />
	</node>
	<node lat="59.89538333378279" lon="10.967663893541072" id="-28343">
		<tag k="name" v="Østre Våler" />
		<tag k="place" v="farm" />
		<tag k="ssr:stedsnr" v="266971" />
	</node>
	<node lat="59.88513888737632" lon="10.954775006343365" id="-28344">
		<tag k="name" v="Kula" />
		<tag k="natural" v="hill" />
		<tag k="place" v="locality" />
		<tag k="ssr:stedsnr" v="205045" />
	</node>
	<node lat="59.92482499642019" lon="10.996991672122887" id="-28346">
		<tag k="name" v="Lille Østby" />
		<tag k="place" v="hamlet" />
		<tag k="ssr:stedsnr" v="205894" />
	</node>
	<node lat="59.88537222495211" lon="10.987333326052866" id="-28347">
		<tag k="name" v="Lønnefløtten" />
		<tag k="place" v="locality" />
		<tag k="ssr:stedsnr" v="205897" />
	</node>
	<node lat="59.927132356385755" lon="10.925803924545432" id="-28348">
		<tag k="fixme" v="consider place=hamlet" />
		<tag k="name" v="Lysås" />
		<tag k="place" v="farm" />
		<tag k="ssr:stedsnr" v="247015" />
	</node>
	<node lat="59.91959999612623" lon="10.960369442503264" id="-28349">
		<tag k="alt_name" v="Skårer kapell" />
		<tag k="amenity" v="place_of_worship" />
		<tag k="denomination" v="lutheran" />
		<tag k="name" v="Skårer kirke" />
		<tag k="religion" v="christian" />
		<tag k="ssr:stedsnr" v="247018" />
	</node>
	<node lat="59.902555559464034" lon="10.985872229006794" id="-28350">
		<tag k="name" v="Juterud" />
		<tag k="place" v="farm" />
		<tag k="ssr:stedsnr" v="247061" />
	</node>
	<node lat="59.90986002366417" lon="10.984562630502495" id="-28351">
		<tag k="fixme" v="consider place=hamlet" />
		<tag k="name" v="Kirkerud" />
		<tag k="place" v="farm" />
		<tag k="ssr:stedsnr" v="247114" />
	</node>
	<node lat="59.89414999771329" lon="10.989394451084966" id="-28352">
		<tag k="name" v="Steinbråtan" />
		<tag k="old_name" v="Steinbråten" />
		<tag k="place" v="isolated_dwelling" />
		<tag k="ssr:stedsnr" v="248077" />
	</node>
	<node lat="59.89067499825229" lon="10.939225008041376" id="-28353">
		<tag k="name" v="Skullerudkollen" />
		<tag k="natural" v="hill" />
		<tag k="place" v="locality" />
		<tag k="ssr:stedsnr" v="266039" />
	</node>
	<node lat="59.88231111347128" lon="10.962022224954733" id="-28354">
		<tag k="name" v="Liadalen" />
		<tag k="natural" v="valley" />
		<tag k="place" v="locality" />
		<tag k="ssr:stedsnr" v="266096" />
	</node>
	<node lat="59.87494444701215" lon="10.940238882860514" id="-28355">
		<tag k="name" v="Vesle Halssjøen" />
		<tag k="natural" v="water" />
		<tag k="ssr:stedsnr" v="266102" />
	</node>
	<node lat="59.89217221903003" lon="11.00542500257273" id="-28356">
		<tag k="name" v="Veslevannsdalen" />
		<tag k="natural" v="valley" />
		<tag k="place" v="locality" />
		<tag k="ssr:stedsnr" v="266107" />
	</node>
	<node lat="59.897791667829964" lon="10.944280554710396" id="-28357">
		<tag k="name" v="Gamle Linderud" />
		<tag k="place" v="locality" />
		<tag k="ssr:stedsnr" v="266645" />
	</node>
	<node lat="59.921158329734645" lon="11.009594436653277" id="-28358">
		<tag k="name" v="Østbytajet" />
		<tag k="place" v="locality" />
		<tag k="ssr:stedsnr" v="266706" />
	</node>
	<node lat="59.91120277879283" lon="10.996955552220639" id="-28359">
		<tag k="name" v="Gråbeinhølet" />
		<tag k="natural" v="wetland" />
		<tag k="ssr:stedsnr" v="266911" />
	</node>
	<node lat="59.85031666477338" lon="11.009549991132534" id="-28360">
		<tag k="fixme" v="consider tourism=alpine_hut or tourism=chalet" />
		<tag k="name" v="Røyrivannskoia" />
		<tag k="ssr:stedsnr" v="266944" />
		<tag k="tourism" v="wilderness_hut" />
	</node>
	<node lat="59.91316944613992" lon="10.97543610578302" id="-28361">
		<tag k="name" v="Nesåsen" />
		<tag k="place" v="quarter" />
		<tag k="ssr:stedsnr" v="465029" />
	</node>
	<node lat="59.93410555782425" lon="10.996977783950323" id="-28362">
		<tag k="fixme" v="consider place=hamlet" />
		<tag k="name" v="Nordbygda" />
		<tag k="place" v="village" />
		<tag k="ssr:stedsnr" v="465049" />
	</node>
	<node lat="59.9263722191036" lon="10.9987944509781" id="-28363">
		<tag k="name" v="Østbyenga" />
		<tag k="place" v="farm" />
		<tag k="ssr:stedsnr" v="308006" />
	</node>
	<node lat="59.92437234297952" lon="10.971907589137874" id="-28364">
		<tag k="fixme" v="consider place=hamlet" />
		<tag k="name" v="Nordli" />
		<tag k="place" v="farm" />
		<tag k="ssr:stedsnr" v="308013" />
	</node>
	<node lat="59.856390945790864" lon="10.967769586833949" id="-28365">
		<tag k="name" v="Tretjerna" />
		<tag k="natural" v="water" />
		<tag k="ssr:stedsnr" v="308203" />
		<tag k="water" v="lake" />
	</node>
	<node lat="59.86101110984453" lon="10.93722500521805" id="-28366">
		<tag k="alt_name" v="Kalvebrumåsan" />
		<tag k="name" v="Kavlebrumyra" />
		<tag k="natural" v="wetland" />
		<tag k="ssr:stedsnr" v="308201" />
	</node>
	<node lat="59.88006944015374" lon="10.937638888142624" id="-28367">
		<tag k="fixme" v="consider natural=peak for the most distinct mountains in the district" />
		<tag k="name" v="Tørråsen" />
		<tag k="natural" v="hill" />
		<tag k="place" v="locality" />
		<tag k="ssr:stedsnr" v="327059" />
	</node>
	<node lat="59.8933416692628" lon="11.010597215258318" id="-28368">
		<tag k="fixme" v="consider natural=peak for the most distinct mountains in the district" />
		<tag k="name" v="Nestemyråsen" />
		<tag k="natural" v="hill" />
		<tag k="place" v="locality" />
		<tag k="ssr:stedsnr" v="327076" />
	</node>
	<node lat="59.93484166736048" lon="10.98150833165751" id="-28369">
		<tag k="bridge" v="yes" />
		<tag k="layer" v="1" />
		<tag k="name" v="Kloppa" />
		<tag k="ssr:stedsnr" v="327613" />
	</node>
	<node lat="59.91620277792708" lon="11.000069451916346" id="-28370">
		<tag k="name" v="Nybakk" />
		<tag k="place" v="locality" />
		<tag k="ssr:stedsnr" v="327626" />
	</node>
	<node lat="59.85553611170365" lon="11.01017500767827" id="-28371">
		<tag k="historic" v="shieling" />
		<tag k="name" v="Bårliseter" />
		<tag k="place" v="locality" />
		<tag k="ssr:stedsnr" v="327821" />
	</node>
	<node lat="59.889480558375084" lon="11.009949995261284" id="-28372">
		<tag k="name" v="Breimåsan" />
		<tag k="natural" v="wetland" />
		<tag k="ssr:stedsnr" v="327862" />
	</node>
	<node lat="59.90119444552138" lon="10.986194452943552" id="-28373">
		<tag k="name" v="Myra" />
		<tag k="place" v="farm" />
		<tag k="ssr:stedsnr" v="327969" />
	</node>
	<node lat="59.86688671116087" lon="10.912114348055619" id="-28374">
		<tag k="name" v="Skullerudtangen" />
		<tag k="natural" v="cape" />
		<tag k="ssr:stedsnr" v="327906" />
	</node>
	<node lat="59.92048611451781" lon="10.938549999677903" id="-28375">
		<tag k="amenity" v="school" />
		<tag k="name" v="Rasta skole" />
		<tag k="ssr:stedsnr" v="327923" />
	</node>
	<node lat="59.86916944390786" lon="10.951605559356747" id="-28376">
		<tag k="historic" v="shieling" />
		<tag k="name" v="Ryensetra" />
		<tag k="place" v="isolated_dwelling" />
		<tag k="ssr:stedsnr" v="327929" />
	</node>
	<node lat="59.91741944054523" lon="10.96329167205359" id="-28377">
		<tag k="name" v="Løken" />
		<tag k="place" v="quarter" />
		<tag k="ssr:stedsnr" v="343041" />
	</node>
	<node lat="59.9459303082974" lon="10.958293401098654" id="-28378">
		<tag k="name" v="Steinerud" />
		<tag k="place" v="locality" />
		<tag k="ssr:stedsnr" v="368047" />
	</node>
	<node lat="59.917319202676175" lon="10.961425337384634" id="-28379">
		<tag k="fixme" v="consider place=hamlet" />
		<tag k="name" v="Løken" />
		<tag k="place" v="farm" />
		<tag k="ssr:stedsnr" v="369115" />
	</node>
	<node lat="59.86627222438511" lon="10.961077781064438" id="-28380">
		<tag k="name" v="Mortvannet" />
		<tag k="natural" v="water" />
		<tag k="old_name" v="Mortvatn" />
		<tag k="ssr:stedsnr" v="369126" />
	</node>
	<node lat="59.90703888923021" lon="11.007030562920265" id="-28381">
		<tag k="name" v="Grevlingdalen" />
		<tag k="natural" v="valley" />
		<tag k="place" v="locality" />
		<tag k="ssr:stedsnr" v="387114" />
	</node>
	<node lat="59.84480555173199" lon="11.024288890330595" id="-28382">
		<tag k="name" v="Kustinta" />
		<tag k="place" v="locality" />
		<tag k="ssr:stedsnr" v="387658" />
	</node>
	<node lat="59.902416663497625" lon="10.987519450328202" id="-28383">
		<tag k="name" v="Sanderud" />
		<tag k="place" v="locality" />
		<tag k="ssr:stedsnr" v="387662" />
	</node>
	<node lat="59.91933333712549" lon="11.002511110874076" id="-28384">
		<tag k="name" v="Lille Stensrud" />
		<tag k="place" v="locality" />
		<tag k="ssr:stedsnr" v="387663" />
	</node>
	<node lat="59.859447218758646" lon="10.963358337323598" id="-28385">
		<tag k="name" v="Setermyra" />
		<tag k="natural" v="wetland" />
		<tag k="ssr:stedsnr" v="387905" />
	</node>
	<node lat="59.878158333603544" lon="10.962788881950054" id="-28386">
		<tag k="name" v="Igletjernmåsan" />
		<tag k="natural" v="wetland" />
		<tag k="ssr:stedsnr" v="387908" />
	</node>
	<node lat="59.89459444398632" lon="10.998000000711455" id="-28387">
		<tag k="name" v="Steinbråtemyrene" />
		<tag k="natural" v="wetland" />
		<tag k="ssr:stedsnr" v="387909" />
	</node>
	<node lat="59.86281944463772" lon="10.919416673950444" id="-28388">
		<tag k="name" v="Skyttenmyra" />
		<tag k="natural" v="wetland" />
		<tag k="ssr:stedsnr" v="387914" />
	</node>
	<node lat="59.88479722621053" lon="10.935380552403156" id="-28389">
		<tag k="name" v="Setermyra" />
		<tag k="natural" v="wetland" />
		<tag k="ssr:stedsnr" v="387917" />
	</node>
	<node lat="59.86829999642986" lon="11.000244435622347" id="-28390">
		<tag k="name" v="Geiterudtangen" />
		<tag k="natural" v="cape" />
		<tag k="ssr:stedsnr" v="387919" />
	</node>
	<node lat="59.87071388625199" lon="10.994855555222758" id="-28391">
		<tag k="name" v="Nordre Tangen" />
		<tag k="place" v="farm" />
		<tag k="ssr:stedsnr" v="387964" />
	</node>
	<node lat="59.91869166974861" lon="11.001208326571053" id="-28392">
		<tag k="name" v="Nordli" />
		<tag k="place" v="isolated_dwelling" />
		<tag k="ssr:stedsnr" v="387965" />
	</node>
	<node lat="59.89526944826347" lon="10.971244448238442" id="-28393">
		<tag k="name" v="Morkbråten" />
		<tag k="place" v="farm" />
		<tag k="ssr:stedsnr" v="387974" />
	</node>
	<node lat="59.92818888980653" lon="10.993758332611321" id="-28394">
		<tag k="name" v="Bredde" />
		<tag k="place" v="quarter" />
		<tag k="ssr:stedsnr" v="387996" />
	</node>
	<node lat="59.85901944812538" lon="10.93353056222486" id="-28395">
		<tag k="name" v="17. maiplassen" />
		<tag k="place" v="locality" />
		<tag k="ssr:stedsnr" v="387894" />
	</node>
	<node lat="59.8424944415513" lon="10.93951388522552" id="-28396">
		<tag k="name" v="Blåsynsrøene" />
		<tag k="place" v="locality" />
		<tag k="ssr:stedsnr" v="387897" />
	</node>
	<node lat="59.91262777480874" lon="10.960172220050564" id="-28397">
		<tag k="bridge" v="yes" />
		<tag k="layer" v="1" />
		<tag k="name" v="Finstadrabben" />
		<tag k="ssr:stedsnr" v="410018" />
	</node>
	<node lat="59.85090555128954" lon="10.97485000485798" id="-28398">
		<tag k="name" v="Østmarka" />
		<tag k="natural" v="wood" />
		<tag k="ssr:stedsnr" v="490224" />
	</node>
	<node lat="59.93204721909259" lon="11.019886102472672" id="-28399">
		<tag k="name" v="Kuland" />
		<tag k="place" v="farm" />
		<tag k="ssr:stedsnr" v="429002" />
	</node>
	<node lat="59.90553601924117" lon="11.028810614810851" id="-28400">
		<tag k="alt_name" v="Blåtjern" />
		<tag k="name" v="Blåtjernet" />
		<tag k="natural" v="water" />
		<tag k="ssr:stedsnr" v="430062" />
	</node>
	<node lat="59.9010500002478" lon="10.973750008245359" id="-28401">
		<tag k="fixme" v="consider natural=peak for the most distinct mountains in the district" />
		<tag k="name" v="Feiringåsen" />
		<tag k="natural" v="hill" />
		<tag k="place" v="locality" />
		<tag k="ssr:stedsnr" v="430068" />
	</node>
	<node lat="59.90592943516031" lon="10.960160443857808" id="-28402">
		<tag k="fixme" v="consider place=hamlet" />
		<tag k="name" v="Rud" />
		<tag k="place" v="farm" />
		<tag k="ssr:stedsnr" v="430069" />
	</node>
	<node lat="59.9154972240889" lon="10.918011106864098" id="-28403">
		<tag k="fixme" v="consider natural=peak for the most distinct mountains in the district" />
		<tag k="name" v="Mølleråsen" />
		<tag k="natural" v="hill" />
		<tag k="place" v="locality" />
		<tag k="ssr:stedsnr" v="448073" />
	</node>
	<node lat="59.92533611100986" lon="10.983927773467489" id="-28404">
		<tag k="name" v="Mellom-Hammer" />
		<tag k="place" v="farm" />
		<tag k="ssr:stedsnr" v="448078" />
	</node>
	<node lat="59.86826388633448" lon="10.970569447864495" id="-28405">
		<tag k="fixme" v="consider natural=peak for the most distinct mountains in the district" />
		<tag k="name" v="Drettvannsåsen" />
		<tag k="natural" v="hill" />
		<tag k="place" v="locality" />
		<tag k="ssr:stedsnr" v="448083" />
	</node>
	<node lat="59.84791944249081" lon="11.010552778619946" id="-28406">
		<tag k="name" v="Skårerlia" />
		<tag k="natural" v="slope" />
		<tag k="place" v="locality" />
		<tag k="ssr:stedsnr" v="448086" />
	</node>
	<node lat="59.93456389063975" lon="10.968163887601657" id="-28407">
		<tag k="name" v="Vesletjernet" />
		<tag k="natural" v="water" />
		<tag k="ssr:stedsnr" v="448121" />
	</node>
	<node lat="59.905369447525096" lon="11.022725005354467" id="-28408">
		<tag k="name" v="Ilemyr" />
		<tag k="natural" v="wetland" />
		<tag k="ssr:stedsnr" v="448908" />
	</node>
	<node lat="59.84375000196862" lon="10.99125834130045" id="-28409">
		<tag k="name" v="Middagsmyra" />
		<tag k="natural" v="wetland" />
		<tag k="ssr:stedsnr" v="448912" />
	</node>
	<node lat="59.90568333729111" lon="10.992180561196385" id="-28410">
		<tag k="name" v="Brenna" />
		<tag k="natural" v="wetland" />
		<tag k="ssr:stedsnr" v="448930" />
	</node>
	<node lat="59.88645277350056" lon="10.935533337503497" id="-28411">
		<tag k="name" v="Tørråsmyra" />
		<tag k="natural" v="wetland" />
		<tag k="ssr:stedsnr" v="448932" />
	</node>
	<node lat="59.89864444207805" lon="10.929591667440178" id="-28412">
		<tag k="name" v="Langmyra" />
		<tag k="natural" v="wetland" />
		<tag k="ssr:stedsnr" v="448936" />
	</node>
	<node lat="59.906569443800414" lon="10.952022214169842" id="-28413">
		<tag k="name" v="Nordre Hauger" />
		<tag k="place" v="farm" />
		<tag k="ssr:stedsnr" v="448983" />
	</node>
	<node lat="59.93075555638792" lon="10.967877784964475" id="-28414">
		<tag k="name" v="Knatten" />
		<tag k="place" v="farm" />
		<tag k="ssr:stedsnr" v="448993" />
	</node>
	<node lat="59.916544440269476" lon="10.94960833246276" id="-28415">
		<tag k="name" v="Løkenhagen" />
		<tag k="place" v="hamlet" />
		<tag k="ssr:stedsnr" v="448995" />
	</node>
	<node lat="59.93896389182736" lon="10.991952782054463" id="-28416">
		<tag k="name" v="Blåkollen" />
		<tag k="place" v="quarter" />
		<tag k="ssr:stedsnr" v="448996" />
	</node>
	<node lat="59.93566388842744" lon="10.934858335167695" id="-28417">
		<tag k="name" v="Robsrudenga" />
		<tag k="place" v="quarter" />
		<tag k="ssr:stedsnr" v="448998" />
	</node>
	<node lat="59.93799166912453" lon="10.978577772631812" id="-28418">
		<tag k="name" v="Fjellsrud" />
		<tag k="place" v="quarter" />
		<tag k="ssr:stedsnr" v="449000" />
	</node>
	<node lat="59.94474444596171" lon="10.967341663221411" id="-28419">
		<tag k="name" v="Skjettenkollen" />
		<tag k="natural" v="hill" />
		<tag k="place" v="locality" />
		<tag k="ssr:stedsnr" v="672044" />
	</node>
	<node lat="59.890463892548894" lon="10.921749995121235" id="-28420">
		<tag k="alt_name" v="Setermyra" />
		<tag k="name" v="Sætermyr" />
		<tag k="natural" v="wetland" />
		<tag k="ssr:stedsnr" v="672146" />
	</node>
	<node lat="59.88153610924561" lon="10.920011103359194" id="-28421">
		<tag k="name" v="Skilledalen" />
		<tag k="natural" v="valley" />
		<tag k="place" v="locality" />
		<tag k="ssr:stedsnr" v="672148" />
	</node>
	<node lat="59.93005525795339" lon="10.982242372410647" id="-28422">
		<tag k="fixme" v="consider place=hamlet" />
		<tag k="name" v="Torshov" />
		<tag k="place" v="farm" />
		<tag k="ssr:stedsnr" v="489017" />
	</node>
	<node lat="59.93007499653758" lon="11.030252786219704" id="-28423">
		<tag k="name" v="Sandbekken" />
		<tag k="place" v="isolated_dwelling" />
		<tag k="ssr:stedsnr" v="490003" />
	</node>
	<node lat="59.89435277519767" lon="10.98722499370227" id="-28424">
		<tag k="name" v="Losbyelva" />
		<tag k="ssr:stedsnr" v="490083" />
		<tag k="waterway" v="stream" />
	</node>
	<node lat="59.86260000042167" lon="10.949374996273772" id="-28425">
		<tag k="alt_name" v="Mortvassåsen" />
		<tag k="fixme" v="consider natural=peak for the most distinct mountains in the district" />
		<tag k="name" v="Mortvannsåsen" />
		<tag k="natural" v="hill" />
		<tag k="place" v="locality" />
		<tag k="ssr:stedsnr" v="490141" />
	</node>
	<node lat="59.89795555286134" lon="11.022697224978407" id="-28426">
		<tag k="name" v="Ismyra" />
		<tag k="natural" v="wetland" />
		<tag k="ssr:stedsnr" v="509456" />
	</node>
	<node lat="59.913294440647896" lon="10.983341672058433" id="-28427">
		<tag k="name" v="Bomma" />
		<tag k="place" v="locality" />
		<tag k="ssr:stedsnr" v="509621" />
	</node>
	<node lat="59.91712499678659" lon="10.992644450113767" id="-28428">
		<tag k="name" v="Røyrihagan" />
		<tag k="place" v="locality" />
		<tag k="ssr:stedsnr" v="509624" />
	</node>
	<node lat="59.935672218270845" lon="11.002052772204198" id="-28429">
		<tag k="name" v="Haugen" />
		<tag k="place" v="locality" />
		<tag k="ssr:stedsnr" v="509627" />
	</node>
	<node lat="59.84432777614337" lon="10.926241661485754" id="-28430">
		<tag k="alt_name" v="Svanefoss" />
		<tag k="name" v="Svanefossen" />
		<tag k="natural" v="waterfall" />
		<tag k="ssr:stedsnr" v="509902" />
	</node>
	<node lat="59.9001527769243" lon="10.968188886147283" id="-28431">
		<tag k="amenity" v="school" />
		<tag k="name" v="Fredheim skole" />
		<tag k="ssr:stedsnr" v="509930" />
	</node>
	<node lat="59.91087499761539" lon="10.920158325463696" id="-28432">
		<tag k="name" v="Nyborg" />
		<tag k="place" v="farm" />
		<tag k="ssr:stedsnr" v="509982" />
	</node>
	<node lat="59.933752781086284" lon="10.994666670078868" id="-28433">
		<tag k="name" v="Nordbyhagen" />
		<tag k="place" v="quarter" />
		<tag k="ssr:stedsnr" v="526030" />
	</node>
	<node lat="59.92874444677987" lon="10.965641669161416" id="-28434">
		<tag k="bridge" v="yes" />
		<tag k="layer" v="1" />
		<tag k="name" v="Knattenkrysset" />
		<tag k="ssr:stedsnr" v="531019" />
	</node>
	<node lat="59.928055555120245" lon="10.955102781522692" id="-28435">
		<tag k="name" v="Solheim" />
		<tag k="place" v="isolated_dwelling" />
		<tag k="ssr:stedsnr" v="550009" />
	</node>
	<node lat="59.93181111393582" lon="10.936338881998681" id="-28436">
		<tag k="fixme" v="consider place=suburb, village or hamlet" />
		<tag k="name" v="Visperud" />
		<tag k="place" v="quarter" />
		<tag k="ssr:stedsnr" v="550011" />
	</node>
	<node lat="59.93257127820149" lon="11.005507778644661" id="-28437">
		<tag k="fixme" v="consider place=hamlet" />
		<tag k="name" v="Plåterud" />
		<tag k="place" v="farm" />
		<tag k="ssr:stedsnr" v="550014" />
	</node>
	<node lat="59.92549201633864" lon="10.98131726928908" id="-28438">
		<tag k="fixme" v="consider place=hamlet" />
		<tag k="name" v="Hammar" />
		<tag k="place" v="farm" />
		<tag k="ssr:stedsnr" v="550016" />
	</node>
	<node lat="59.92455853034807" lon="10.984826248667083" id="-28439">
		<tag k="alt_name" v="Lørenskog" />
		<tag k="amenity" v="place_of_worship" />
		<tag k="denomination" v="lutheran" />
		<tag k="name" v="Lørenskog kirke" />
		<tag k="religion" v="christian" />
		<tag k="ssr:stedsnr" v="550028" />
	</node>
	<node lat="59.8427249970914" lon="10.964424994175785" id="-28440">
		<tag k="name" v="Løkensetermyrene" />
		<tag k="natural" v="wetland" />
		<tag k="ssr:stedsnr" v="550197" />
	</node>
	<node lat="59.94519679194266" lon="10.943452060362139" id="-28441">
		<tag k="alt_name" v="Lørenskog;Lørenskog st." />
		<tag k="name" v="Lørenskog stasjon" />
		<tag k="railway" v="station" />
		<tag k="ssr:stedsnr" v="550504" />
		<tag k="train" v="yes" />
	</node>
	<node lat="59.91315555726072" lon="10.975913894272884" id="-28442">
		<tag k="fixme" v="consider natural=peak for the most distinct mountains in the district" />
		<tag k="name" v="Nesåsen" />
		<tag k="natural" v="hill" />
		<tag k="place" v="locality" />
		<tag k="ssr:stedsnr" v="691087" />
	</node>
	<node lat="59.86497777451935" lon="11.004616669809755" id="-28443">
		<tag k="fixme" v="consider natural=peak for the most distinct mountains in the district" />
		<tag k="name" v="Elgås" />
		<tag k="natural" v="hill" />
		<tag k="place" v="locality" />
		<tag k="ssr:stedsnr" v="691098" />
	</node>
	<node lat="59.86921111122392" lon="10.975855561605547" id="-28444">
		<tag k="fixme" v="consider natural=peak for the most distinct mountains in the district" />
		<tag k="name" v="Romsås" />
		<tag k="natural" v="hill" />
		<tag k="place" v="locality" />
		<tag k="ssr:stedsnr" v="691101" />
	</node>
	<node lat="59.91736388558696" lon="10.999988883566207" id="-28445">
		<tag k="name" v="Suseberget" />
		<tag k="natural" v="hill" />
		<tag k="place" v="locality" />
		<tag k="ssr:stedsnr" v="691053" />
	</node>
	<node lat="59.95199722164799" lon="10.963766662500387" id="-28446">
		<tag k="name" v="Osloutsikten" />
		<tag k="natural" v="hill" />
		<tag k="place" v="locality" />
		<tag k="ssr:stedsnr" v="691058" />
	</node>
	<node lat="59.870716662620566" lon="10.95221388738883" id="-28447">
		<tag k="name" v="Ryenseterkollen" />
		<tag k="natural" v="hill" />
		<tag k="place" v="locality" />
		<tag k="ssr:stedsnr" v="691068" />
	</node>
	<node lat="59.842263887544604" lon="10.927199997319027" id="-28448">
		<tag k="name" v="Eriksvannbekken" />
		<tag k="ssr:stedsnr" v="691198" />
		<tag k="waterway" v="stream" />
	</node>
	<node lat="59.89084999685089" lon="10.927594449797075" id="-28449">
		<tag k="highway" v="path" />
		<tag k="name" v="Kustinta" />
		<tag k="ssr:stedsnr" v="691641" />
	</node>
	<node lat="59.93015277451851" lon="10.932808328989992" id="-28450">
		<tag k="name" v="Røykås trafostasjon" />
		<tag k="place" v="locality" />
		<tag k="ssr:stedsnr" v="691647" />
	</node>
	<node lat="59.91598333735877" lon="10.996358337126443" id="-28451">
		<tag k="name" v="Nordal" />
		<tag k="place" v="locality" />
		<tag k="ssr:stedsnr" v="691649" />
	</node>
	<node lat="59.93766944753344" lon="10.988897224527937" id="-28452">
		<tag k="name" v="Lørdagsrud" />
		<tag k="place" v="locality" />
		<tag k="ssr:stedsnr" v="691662" />
	</node>
	<node lat="59.90826666610689" lon="11.022038895480144" id="-28453">
		<tag k="historic" v="shieling" />
		<tag k="name" v="Jongseter" />
		<tag k="place" v="locality" />
		<tag k="ssr:stedsnr" v="691858" />
	</node>
	<node lat="59.85762499646273" lon="10.996458337121455" id="-28454">
		<tag k="name" v="Askeslora" />
		<tag k="place" v="locality" />
		<tag k="ssr:stedsnr" v="691871" />
	</node>
	<node lat="59.87993610707613" lon="10.988422214856257" id="-28456">
		<tag k="name" v="Sandstykket" />
		<tag k="place" v="farm" />
		<tag k="ssr:stedsnr" v="691950" />
	</node>
	<node lat="59.89571389082236" lon="10.960155560709982" id="-28457">
		<tag k="name" v="Vestre Våler" />
		<tag k="place" v="farm" />
		<tag k="ssr:stedsnr" v="691961" />
	</node>
	<node lat="59.886544444510136" lon="10.933572223756665" id="-28458">
		<tag k="name" v="Mesmerkleiva" />
		<tag k="natural" v="valley" />
		<tag k="place" v="locality" />
		<tag k="ssr:stedsnr" v="569109" />
	</node>
	<node lat="59.88686111086014" lon="10.950883340216901" id="-28459">
		<tag k="name" v="Hestekollen" />
		<tag k="natural" v="hill" />
		<tag k="place" v="locality" />
		<tag k="ssr:stedsnr" v="569055" />
	</node>
	<node lat="59.90216944288576" lon="10.972908338098689" id="-28460">
		<tag k="name" v="Rudkollen" />
		<tag k="natural" v="hill" />
		<tag k="place" v="locality" />
		<tag k="ssr:stedsnr" v="569057" />
	</node>
	<node lat="59.91006388462163" lon="11.011986115574453" id="-28461">
		<tag k="name" v="Arnlihøgda" />
		<tag k="natural" v="hill" />
		<tag k="place" v="locality" />
		<tag k="ssr:stedsnr" v="569072" />
	</node>
	<node lat="59.92855833424194" lon="11.007374999336138" id="-28462">
		<tag k="name" v="Nordre Hovelsrud" />
		<tag k="place" v="farm" />
		<tag k="ssr:stedsnr" v="569636" />
	</node>
	<node lat="59.93607778057324" lon="11.00493056179002" id="-28463">
		<tag k="name" v="Bårlibekken" />
		<tag k="ssr:stedsnr" v="569642" />
		<tag k="waterway" v="stream" />
	</node>
	<node lat="59.91926111548464" lon="11.00848888651243" id="-28464">
		<tag k="fixme" v="consider natural=peak for the most distinct mountains in the district" />
		<tag k="name" v="Tjuvåsen" />
		<tag k="natural" v="hill" />
		<tag k="place" v="locality" />
		<tag k="ssr:stedsnr" v="569648" />
	</node>
	<node lat="59.874650003662126" lon="10.992047219363213" id="-28465">
		<tag k="name" v="St. Helena" />
		<tag k="place" v="islet" />
		<tag k="ssr:stedsnr" v="569906" />
	</node>
	<node lat="59.9023500044881" lon="10.920188880784801" id="-28466">
		<tag k="name" v="Igletjernbekken" />
		<tag k="ssr:stedsnr" v="569911" />
		<tag k="waterway" v="stream" />
	</node>
	<node lat="59.94363333721496" lon="10.946627780906306" id="-28467">
		<tag k="bridge" v="yes" />
		<tag k="layer" v="1" />
		<tag k="name" v="Stasjonsmyra" />
		<tag k="ssr:stedsnr" v="592013" />
	</node>
	<node lat="59.942983333444495" lon="10.947119443838679" id="-28468">
		<tag k="bridge" v="yes" />
		<tag k="layer" v="1" />
		<tag k="name" v="Robsrud" />
		<tag k="ssr:stedsnr" v="592022" />
	</node>
	<node lat="59.91987705884672" lon="10.958142667072957" id="-28469">
		<tag k="fixme" v="consider place=hamlet" />
		<tag k="name" v="Skårer" />
		<tag k="place" v="farm" />
		<tag k="ssr:stedsnr" v="611015" />
	</node>
	<node lat="59.91161560643018" lon="10.964337441898088" id="-28470">
		<tag k="fixme" v="consider place=hamlet" />
		<tag k="name" v="Finstad" />
		<tag k="place" v="farm" />
		<tag k="ssr:stedsnr" v="611111" />
	</node>
	<node lat="59.908395254445075" lon="10.969689977140346" id="-28471">
		<tag k="fixme" v="consider place=hamlet" />
		<tag k="name" v="Feiring" />
		<tag k="place" v="farm" />
		<tag k="ssr:stedsnr" v="611113" />
	</node>
	<node lat="59.90699721843193" lon="10.925272223633863" id="-28472">
		<tag k="name" v="Jonsrud" />
		<tag k="place" v="isolated_dwelling" />
		<tag k="ssr:stedsnr" v="611080" />
	</node>
	<node lat="59.856772226005525" lon="10.924638889201173" id="-28473">
		<tag k="name" v="Purkemyrene" />
		<tag k="natural" v="wetland" />
		<tag k="ssr:stedsnr" v="611220" />
	</node>
	<node lat="59.85982222104949" lon="10.952749992979168" id="-28474">
		<tag k="name" v="Langmyra" />
		<tag k="natural" v="wetland" />
		<tag k="ssr:stedsnr" v="611221" />
	</node>
	<node lat="59.87275277697263" lon="10.929574999050114" id="-28475">
		<tag k="alt_name" v="Garfangåsen" />
		<tag k="fixme" v="consider natural=peak for the most distinct mountains in the district" />
		<tag k="name" v="Gardfangåsen" />
		<tag k="natural" v="hill" />
		<tag k="place" v="locality" />
		<tag k="ssr:stedsnr" v="611171" />
	</node>
	<node lat="59.86709444422516" lon="10.982874994953752" id="-28476">
		<tag k="name" v="Mønekollen" />
		<tag k="natural" v="hill" />
		<tag k="place" v="locality" />
		<tag k="ssr:stedsnr" v="630058" />
	</node>
	<node lat="59.87062222306705" lon="10.998024998591468" id="-28477">
		<tag k="fixme" v="consider natural=peak for the most distinct mountains in the district" />
		<tag k="name" v="Fløytsagåsen" />
		<tag k="natural" v="hill" />
		<tag k="place" v="locality" />
		<tag k="ssr:stedsnr" v="630073" />
	</node>
	<node lat="59.90753333273633" lon="10.986688884043614" id="-28478">
		<tag k="name" v="Blåveislia" />
		<tag k="natural" v="slope" />
		<tag k="place" v="locality" />
		<tag k="ssr:stedsnr" v="630089" />
	</node>
	<node lat="59.91783610827967" lon="10.958313894681813" id="-28479">
		<tag k="junction" v="yes" />
		<tag k="name" v="Skårer" />
		<tag k="place" v="locality" />
		<tag k="ssr:stedsnr" v="630595" />
	</node>
	<node lat="59.88256388526416" lon="10.99681388436031" id="-28480">
		<tag k="name" v="Langmyra" />
		<tag k="natural" v="wetland" />
		<tag k="ssr:stedsnr" v="630890" />
	</node>
	<node lat="59.885836110475715" lon="11.002258327203801" id="-28481">
		<tag k="name" v="Nestemyra" />
		<tag k="natural" v="wetland" />
		<tag k="ssr:stedsnr" v="630891" />
	</node>
	<node lat="59.90950833478137" lon="10.994775001799136" id="-28482">
		<tag k="name" v="Lemyra" />
		<tag k="natural" v="wetland" />
		<tag k="ssr:stedsnr" v="630892" />
	</node>
	<node lat="59.906966668170625" lon="10.999319436011756" id="-28483">
		<tag k="name" v="Torvmyra" />
		<tag k="natural" v="wetland" />
		<tag k="ssr:stedsnr" v="630895" />
	</node>
	<node lat="59.90576110955288" lon="10.924180557204087" id="-28484">
		<tag k="name" v="Torvmyra" />
		<tag k="natural" v="wetland" />
		<tag k="ssr:stedsnr" v="630902" />
	</node>
	<node lat="59.93213888680249" lon="10.991824994055241" id="-28485">
		<tag k="amenity" v="school" />
		<tag k="name" v="Røde Kors sykepleieskole" />
		<tag k="ssr:stedsnr" v="630941" />
	</node>
	<node lat="59.92969166949507" lon="10.9586472161567" id="-28486">
		<tag k="amenity" v="school" />
		<tag k="name" v="Kjenn skole" />
		<tag k="ssr:stedsnr" v="630943" />
	</node>
	<node lat="59.93338055249417" lon="10.978677782053408" id="-28487">
		<tag k="name" v="Bensen" />
		<tag k="place" v="quarter" />
		<tag k="ssr:stedsnr" v="630997" />
	</node>
	<node lat="59.918166667188494" lon="10.94701666975739" id="-28488">
		<tag k="bridge" v="yes" />
		<tag k="layer" v="1" />
		<tag k="name" v="Vallerud" />
		<tag k="ssr:stedsnr" v="652012" />
	</node>
	<node lat="59.93376388960582" lon="10.982141668433183" id="-28489">
		<tag k="bridge" v="yes" />
		<tag k="layer" v="1" />
		<tag k="name" v="Kloppa" />
		<tag k="ssr:stedsnr" v="652014" />
	</node>
	<node lat="59.93398333168319" lon="10.952977783729693" id="-28490">
		<tag k="name" v="Kjenn" />
		<tag k="place" v="quarter" />
		<tag k="ssr:stedsnr" v="708029" />
	</node>
	<node lat="59.910912518957296" lon="10.985124831499217" id="-28491">
		<tag k="fixme" v="consider place=hamlet" />
		<tag k="name" v="Midtbygda" />
		<tag k="place" v="village" />
		<tag k="ssr:stedsnr" v="890067" />
	</node>
	<node lat="59.92887499834628" lon="11.02190556365578" id="-28492">
		<tag k="name" v="Skihytta" />
		<tag k="place" v="isolated_dwelling" />
		<tag k="ssr:stedsnr" v="672004" />
	</node>
	<node lat="59.9311517905762" lon="10.95365921959429" id="-28493">
		<tag k="fixme" v="consider place=suburb, village or hamlet" />
		<tag k="name" v="Kjenn" />
		<tag k="place" v="quarter" />
		<tag k="ssr:stedsnr" v="672006" />
	</node>
	<node lat="59.92725277734481" lon="10.937172220570664" id="-28494">
		<tag k="name" v="Rasta" />
		<tag k="place" v="farm" />
		<tag k="ssr:stedsnr" v="672007" />
	</node>
	<node lat="59.921200162131484" lon="10.950630014240028" id="-28495">
		<tag k="alt_name" v="Søndre Rolvsrud" />
		<tag k="fixme" v="consider place=hamlet" />
		<tag k="name" v="Rolvsrud" />
		<tag k="place" v="farm" />
		<tag k="ssr:stedsnr" v="672014" />
	</node>
	<node lat="59.922013693977476" lon="10.987486338401453" id="-28496">
		<tag k="fixme" v="consider place=hamlet" />
		<tag k="name" v="Røyri" />
		<tag k="place" v="farm" />
		<tag k="ssr:stedsnr" v="672019" />
	</node>
	<node lat="59.9202416625625" lon="10.976861117684127" id="-28497">
		<tag k="name" v="Sørli" />
		<tag k="place" v="isolated_dwelling" />
		<tag k="ssr:stedsnr" v="672024" />
	</node>
	<node lat="59.90797499729453" lon="11.002302785391757" id="-28498">
		<tag k="name" v="Røyritjernet" />
		<tag k="natural" v="water" />
		<tag k="ssr:stedsnr" v="672110" />
	</node>
	<node lat="59.865249999652605" lon="10.931627785081226" id="-28499">
		<tag k="alt_name" v="Svarvestolbrenna" />
		<tag k="fixme" v="consider natural=peak for the most distinct mountains in the district" />
		<tag k="name" v="Svarvestolsbrenna" />
		<tag k="natural" v="hill" />
		<tag k="place" v="locality" />
		<tag k="ssr:stedsnr" v="672126" />
	</node>
	<node lat="59.865236110810734" lon="11.008399999744418" id="-28500">
		<tag k="name" v="Geitsjøen" />
		<tag k="natural" v="water" />
		<tag k="ssr:stedsnr" v="672129" />
	</node>
	<node lat="59.87628079197972" lon="10.993455285008217" id="-28501">
		<tag k="name" v="Garterud" />
		<tag k="place" v="farm" />
		<tag k="ssr:stedsnr" v="672174" />
	</node>
	<node lat="59.89053888509798" lon="10.956363889970197" id="-28502">
		<tag k="name" v="Vålerlia" />
		<tag k="natural" v="slope" />
		<tag k="place" v="locality" />
		<tag k="ssr:stedsnr" v="691105" />
	</node>
	<node lat="59.92497499925673" lon="10.971236116271053" id="-28503">
		<tag k="name" v="Nordre Nordli" />
		<tag k="place" v="farm" />
		<tag k="ssr:stedsnr" v="691107" />
	</node>
	<node lat="59.8437444473927" lon="11.009302782733553" id="-28504">
		<tag k="name" v="Tonekolldalen" />
		<tag k="natural" v="valley" />
		<tag k="place" v="locality" />
		<tag k="ssr:stedsnr" v="691112" />
	</node>
	<node lat="59.86258889149052" lon="11.010180562981482" id="-28505">
		<tag k="name" v="Kalddalen" />
		<tag k="natural" v="valley" />
		<tag k="place" v="locality" />
		<tag k="ssr:stedsnr" v="691125" />
	</node>
	<node lat="59.87238889318892" lon="10.998691659871815" id="-28506">
		<tag k="name" v="Grytebråtevika" />
		<tag k="natural" v="bay" />
		<tag k="ssr:stedsnr" v="691144" />
	</node>
	<node lat="59.89267221945636" lon="10.950591660654899" id="-28507">
		<tag k="name" v="Skillebekk" />
		<tag k="ssr:stedsnr" v="691910" />
		<tag k="waterway" v="stream" />
	</node>
	<node lat="59.93386111161228" lon="10.971552779754951" id="-28508">
		<tag k="amenity" v="nursing_home" />
		<tag k="name" v="Dovre trygdesenter" />
		<tag k="ssr:stedsnr" v="691928" />
	</node>
	<node lat="59.91851111203395" lon="10.961127769933823" id="-28509">
		<tag k="amenity" v="nursing_home" />
		<tag k="name" v="Lørenskog sykehjem" />
		<tag k="ssr:stedsnr" v="691930" />
	</node>
	<node lat="59.87306111273114" lon="10.936977772388252" id="-28510">
		<tag k="name" v="Musehogget" />
		<tag k="place" v="locality" />
		<tag k="ssr:stedsnr" v="691876" />
	</node>
	<node lat="59.91710555772354" lon="11.008438896329464" id="-28511">
		<tag k="name" v="Tranbærmyra" />
		<tag k="natural" v="wetland" />
		<tag k="ssr:stedsnr" v="691879" />
	</node>
	<node lat="59.88886944148723" lon="10.9649111061431" id="-28512">
		<tag k="name" v="Vålermyra" />
		<tag k="natural" v="wetland" />
		<tag k="ssr:stedsnr" v="691888" />
	</node>
	<node lat="59.8792416653971" lon="10.935527784118124" id="-28513">
		<tag k="name" v="Kastmyra" />
		<tag k="natural" v="wetland" />
		<tag k="ssr:stedsnr" v="691899" />
	</node>
	<node lat="59.92233610764713" lon="10.985638887173291" id="-28514">
		<tag k="name" v="Mellom-Røyri" />
		<tag k="place" v="farm" />
		<tag k="ssr:stedsnr" v="691983" />
	</node>
	<node lat="59.94228611356195" lon="10.969022229339306" id="-28515">
		<tag k="name" v="Haneborglia" />
		<tag k="place" v="quarter" />
		<tag k="ssr:stedsnr" v="708059" />
	</node>
	<node lat="59.93395000242257" lon="11.01496388501209" id="-28516">
		<tag k="alt_name" v="Kurlandsholen" />
		<tag k="name" v="Holen" />
		<tag k="place" v="farm" />
		<tag k="ssr:stedsnr" v="732012" />
	</node>
	<node lat="59.89854999783774" lon="10.944058331966918" id="-28517">
		<tag k="name" v="Heggedalen" />
		<tag k="place" v="isolated_dwelling" />
		<tag k="ssr:stedsnr" v="733093" />
	</node>
	<node lat="59.86902499790645" lon="10.919630553638537" id="-28518">
		<tag k="name" v="Deledalen" />
		<tag k="natural" v="valley" />
		<tag k="place" v="locality" />
		<tag k="ssr:stedsnr" v="733150" />
	</node>
	<node lat="59.86359166325246" lon="10.911591660584628" id="-28519">
		<tag k="fixme" v="consider natural=peak for the most distinct mountains in the district" />
		<tag k="name" v="Sagåsen" />
		<tag k="natural" v="hill" />
		<tag k="place" v="locality" />
		<tag k="ssr:stedsnr" v="751064" />
	</node>
	<node lat="59.938744447943975" lon="11.005455554075022" id="-28520">
		<tag k="name" v="Bårlibakken" />
		<tag k="place" v="quarter" />
		<tag k="ssr:stedsnr" v="751666" />
	</node>
	<node lat="59.90590277509415" lon="11.01183888201487" id="-28521">
		<tag k="alt_name" v="Seterle" />
		<tag k="name" v="Seterled" />
		<tag k="place" v="locality" />
		<tag k="ssr:stedsnr" v="751676" />
	</node>
	<node lat="59.91393611047866" lon="10.919897218747318" id="-28522">
		<tag k="highway" v="path" />
		<tag k="name" v="Mølleråsveien" />
		<tag k="ssr:stedsnr" v="751680" />
	</node>
	<node lat="59.90950833745605" lon="11.025905552919411" id="-28523">
		<tag k="name" v="Jutebrenna" />
		<tag k="place" v="locality" />
		<tag k="ssr:stedsnr" v="751908" />
	</node>
	<node lat="59.89528611300359" lon="10.980755561228003" id="-28524">
		<tag k="name" v="Vestmorkhagan" />
		<tag k="place" v="locality" />
		<tag k="ssr:stedsnr" v="751915" />
	</node>
	<node lat="59.86357777599009" lon="10.938088886761122" id="-28525">
		<tag k="name" v="Skytterøene" />
		<tag k="place" v="locality" />
		<tag k="ssr:stedsnr" v="751918" />
	</node>
	<node lat="59.923780552310824" lon="10.966474994437302" id="-28526">
		<tag k="amenity" v="school" />
		<tag k="name" v="Åsen skole" />
		<tag k="old_name" v="Nordliåsen skole" />
		<tag k="ssr:stedsnr" v="751958" />
	</node>
	<node lat="59.85079444777397" lon="10.982772224967402" id="-28527">
		<tag k="name" v="Skålsjøhytta" />
		<tag k="place" v="isolated_dwelling" />
		<tag k="ssr:stedsnr" v="751971" />
	</node>
	<node lat="59.91667777354099" lon="11.005088888513002" id="-28528">
		<tag k="name" v="Stensrudbråten" />
		<tag k="place" v="isolated_dwelling" />
		<tag k="ssr:stedsnr" v="751972" />
	</node>
	<node lat="59.915761113409836" lon="10.939386115159946" id="-28529">
		<tag k="name" v="Vallerud" />
		<tag k="place" v="quarter" />
		<tag k="ssr:stedsnr" v="768044" />
	</node>
	<node lat="59.93984444799109" lon="10.987891659696759" id="-28530">
		<tag k="bridge" v="yes" />
		<tag k="layer" v="1" />
		<tag k="name" v="Fjellhammer" />
		<tag k="ssr:stedsnr" v="774021" />
	</node>
	<node lat="59.914047222347754" lon="10.938497220964575" id="-28531">
		<tag k="fixme" v="consider natural=peak for the most distinct mountains in the district" />
		<tag k="name" v="Vallerudåsen" />
		<tag k="natural" v="hill" />
		<tag k="place" v="locality" />
		<tag k="ssr:stedsnr" v="793121" />
	</node>
	<node lat="59.91422985312259" lon="10.950517695943248" id="-28532">
		<tag k="fixme" v="consider place=hamlet" />
		<tag k="name" v="Vallerud" />
		<tag k="place" v="farm" />
		<tag k="ssr:stedsnr" v="793122" />
	</node>
	<node lat="59.92418611485054" lon="10.934972224470597" id="-28533">
		<tag k="name" v="Østli" />
		<tag k="place" v="farm" />
		<tag k="ssr:stedsnr" v="793014" />
	</node>
	<node lat="59.919260928736726" lon="10.99953726311929" id="-28534">
		<tag k="name" v="Steinsrud" />
		<tag k="place" v="farm" />
		<tag k="ssr:stedsnr" v="793015" />
	</node>
	<node lat="59.924230553087554" lon="10.962361105878582" id="-28535">
		<tag k="fixme" v="consider natural=peak for the most distinct mountains in the district" />
		<tag k="name" v="Skåreråsen" />
		<tag k="natural" v="hill" />
		<tag k="place" v="locality" />
		<tag k="ssr:stedsnr" v="915014" />
	</node>
	<node lat="59.90677499745937" lon="10.935186113693012" id="-28536">
		<tag k="alt_name" v="Lintjernet" />
		<tag k="name" v="Lintjern" />
		<tag k="natural" v="water" />
		<tag k="ssr:stedsnr" v="915069" />
	</node>
	<node lat="59.84878888894736" lon="10.927611114808125" id="-28537">
		<tag k="name" v="Sør-Skytten" />
		<tag k="place" v="locality" />
		<tag k="ssr:stedsnr" v="915215" />
	</node>
	<node lat="59.86957500227771" lon="10.943661113882312" id="-28538">
		<tag k="alt_name" v="Rudsvangsholtet;Rudvangsholtet" />
		<tag k="fixme" v="consider natural=peak for the most distinct mountains in the district" />
		<tag k="name" v="Rudsvangholtet" />
		<tag k="natural" v="hill" />
		<tag k="old_name" v="Rudvangholtet" />
		<tag k="place" v="locality" />
		<tag k="ssr:stedsnr" v="915140" />
	</node>
	<node lat="59.860569354550734" lon="10.916621124899544" id="-28539">
		<tag k="name" v="Nord-Skytten" />
		<tag k="place" v="locality" />
		<tag k="ssr:stedsnr" v="915149" />
	</node>
	<node lat="59.88114999597237" lon="10.93307222557233" id="-28540">
		<tag k="alt_name" v="Seterkollen" />
		<tag k="fixme" v="consider natural=peak for the most distinct mountains in the district" />
		<tag k="name" v="Sæterkollen" />
		<tag k="natural" v="hill" />
		<tag k="place" v="locality" />
		<tag k="ssr:stedsnr" v="915158" />
	</node>
	<node lat="59.86340000023674" lon="10.924980561915545" id="-28541">
		<tag k="name" v="Tjuvdalen" />
		<tag k="natural" v="valley" />
		<tag k="place" v="locality" />
		<tag k="ssr:stedsnr" v="812084" />
	</node>
	<node lat="59.89615833711726" lon="10.924369449708063" id="-28542">
		<tag k="name" v="Igletjern" />
		<tag k="natural" v="water" />
		<tag k="ssr:stedsnr" v="812131" />
	</node>
	<node lat="59.871150002669104" lon="10.967927781892175" id="-28543">
		<tag k="name" v="Flaskemyra" />
		<tag k="natural" v="wetland" />
		<tag k="ssr:stedsnr" v="812914" />
	</node>
	<node lat="59.92902500336383" lon="10.987425000362542" id="-28544">
		<tag k="name" v="Torshovbråten" />
		<tag k="place" v="locality" />
		<tag k="ssr:stedsnr" v="812697" />
	</node>
	<node lat="59.91942221790311" lon="10.997749999267098" id="-28545">
		<tag k="name" v="Store Stensrud" />
		<tag k="place" v="farm" />
		<tag k="ssr:stedsnr" v="812981" />
	</node>
	<node lat="59.93561666693292" lon="11.00343888713801" id="-28546">
		<tag k="name" v="Sletten" />
		<tag k="place" v="farm" />
		<tag k="ssr:stedsnr" v="812983" />
	</node>
	<node lat="59.92392499949937" lon="10.993936116877368" id="-28547">
		<tag k="name" v="Østheim" />
		<tag k="place" v="farm" />
		<tag k="ssr:stedsnr" v="812985" />
	</node>
	<node lat="59.917486106915156" lon="10.949124991919703" id="-28548">
		<tag k="name" v="Benterud" />
		<tag k="place" v="farm" />
		<tag k="ssr:stedsnr" v="854014" />
	</node>
	<node lat="59.885972220325286" lon="11.0141500006369" id="-28549">
		<tag k="name" v="Djupdalen" />
		<tag k="natural" v="valley" />
		<tag k="place" v="locality" />
		<tag k="ssr:stedsnr" v="855513" />
	</node>
	<node lat="59.882127778870306" lon="10.993347225153308" id="-28550">
		<tag k="name" v="Møllerenghagan" />
		<tag k="natural" v="hill" />
		<tag k="place" v="locality" />
		<tag k="ssr:stedsnr" v="934042" />
	</node>
	<node lat="59.868833331711365" lon="11.01423054680147" id="-28551">
		<tag k="name" v="Badstudalen" />
		<tag k="natural" v="valley" />
		<tag k="place" v="locality" />
		<tag k="ssr:stedsnr" v="934095" />
	</node>
	<node lat="59.865613887286756" lon="10.91848610487598" id="-28552">
		<tag k="fixme" v="consider natural=peak for the most distinct mountains in the district" />
		<tag k="name" v="Skogbakkåsen" />
		<tag k="natural" v="hill" />
		<tag k="place" v="locality" />
		<tag k="ssr:stedsnr" v="934053" />
	</node>
	<node lat="59.90062222155251" lon="10.914786104135915" id="-28553">
		<tag k="fixme" v="consider natural=peak for the most distinct mountains in the district" />
		<tag k="name" v="Toresplassåsen" />
		<tag k="natural" v="hill" />
		<tag k="place" v="locality" />
		<tag k="ssr:stedsnr" v="934060" />
	</node>
	<node lat="59.911327778685454" lon="10.930161106212973" id="-28554">
		<tag k="fixme" v="consider natural=peak for the most distinct mountains in the district" />
		<tag k="name" v="Tistilåsen" />
		<tag k="natural" v="hill" />
		<tag k="place" v="locality" />
		<tag k="ssr:stedsnr" v="934069" />
	</node>
	<node lat="59.93423333458171" lon="11.022266669379146" id="-28555">
		<tag k="name" v="Kurlandsåsen" />
		<tag k="place" v="quarter" />
		<tag k="ssr:stedsnr" v="934594" />
	</node>
	<node lat="59.911872221158404" lon="10.979855555350836" id="-28557">
		<tag k="name" v="Lia" />
		<tag k="place" v="locality" />
		<tag k="ssr:stedsnr" v="934627" />
	</node>
	<node lat="59.90869721996416" lon="10.979786114016177" id="-28558">
		<tag k="name" v="Kaldkroken" />
		<tag k="place" v="locality" />
		<tag k="ssr:stedsnr" v="934630" />
	</node>
	<node lat="59.907266669894426" lon="10.993541672958202" id="-28559">
		<tag k="name" v="Pjaskemyra" />
		<tag k="natural" v="wetland" />
		<tag k="ssr:stedsnr" v="934901" />
	</node>
	<node lat="59.8669972213207" lon="11.01053610414787" id="-28560">
		<tag k="name" v="Tyrihjellnebbet" />
		<tag k="natural" v="cape" />
		<tag k="ssr:stedsnr" v="934921" />
	</node>
	<node lat="59.91169999892521" lon="10.919438881762714" id="-28561">
		<tag k="name" v="Aspelund" />
		<tag k="place" v="farm" />
		<tag k="ssr:stedsnr" v="934991" />
	</node>
	<node lat="59.93889722105373" lon="10.99724999410993" id="-28562">
		<tag k="name" v="Vittenberg" />
		<tag k="place" v="quarter" />
		<tag k="ssr:stedsnr" v="934996" />
	</node>
	<node lat="59.91873055418854" lon="11.002241663305941" id="-28563">
		<tag k="name" v="Vestby" />
		<tag k="place" v="farm" />
		<tag k="ssr:stedsnr" v="934981" />
	</node>
	<node lat="59.93183055438273" lon="10.996602769933189" id="-28564">
		<tag k="amenity" v="hospital" />
		<tag k="name" v="Akershus universitetssykehus" />
		<tag k="old_name" v="Sentralsykehuset;Sentralsykehuset i Akershus" />
		<tag k="ssr:stedsnr" v="890011" />
	</node>
	<node lat="59.947236106734564" lon="10.947980557650487" id="-28565">
		<tag k="bridge" v="yes" />
		<tag k="layer" v="1" />
		<tag k="name" v="Tangerud" />
		<tag k="ssr:stedsnr" v="896012" />
	</node>
	<node lat="59.89957499937584" lon="10.988655559632393" id="-28566">
		<tag k="name" v="Bakkerud" />
		<tag k="place" v="farm" />
		<tag k="ssr:stedsnr" v="915076" />
	</node>
	<node lat="59.906644440467055" lon="10.945677772101412" id="-28567">
		<tag k="name" v="Nyborgholen" />
		<tag k="place" v="locality" />
		<tag k="ssr:stedsnr" v="934604" />
	</node>
	<node lat="59.908608331035595" lon="10.929377776440552" id="-28568">
		<tag k="name" v="Kristianstomta" />
		<tag k="place" v="locality" />
		<tag k="ssr:stedsnr" v="934605" />
	</node>
	<node lat="59.90308889334066" lon="10.915138885061932" id="-28569">
		<tag k="name" v="Toresplassen" />
		<tag k="place" v="locality" />
		<tag k="ssr:stedsnr" v="934607" />
	</node>
	<node lat="59.92157921422593" lon="10.979485894540376" id="-28570">
		<tag k="bridge" v="yes" />
		<tag k="layer" v="1" />
		<tag k="name" v="Hammer bru" />
		<tag k="ssr:stedsnr" v="934610" />
	</node>
	<node lat="59.87525555835414" lon="10.996524993431317" id="-28571">
		<tag k="name" v="Bispetangen" />
		<tag k="natural" v="cape" />
		<tag k="ssr:stedsnr" v="934915" />
	</node>
	<node lat="59.9313999991571" lon="10.98199166477852" id="-28572">
		<tag k="amenity" v="sports_centre" />
		<tag k="name" v="Lørenskoghallen" />
		<tag k="ssr:stedsnr" v="934935" />
	</node>
	<node lat="59.932075000539534" lon="10.984141660308254" id="-28573">
		<tag k="amenity" v="school" />
		<tag k="name" v="Lørenskog videregående skole" />
		<tag k="ssr:stedsnr" v="934937" />
	</node>
	<node lat="59.89898055603784" lon="10.969622216342382" id="-28574">
		<tag k="name" v="Lund" />
		<tag k="place" v="isolated_dwelling" />
		<tag k="ssr:stedsnr" v="934951" />
	</node>
	<node lat="59.91836667128239" lon="10.955191658815274" id="-28575">
		<tag k="name" v="Skårer" />
		<tag k="place" v="quarter" />
		<tag k="ssr:stedsnr" v="951035" />
	</node>
	<node lat="59.94278055647349" lon="10.991586118525888" id="-28576">
		<tag k="bridge" v="yes" />
		<tag k="layer" v="1" />
		<tag k="name" v="Fjellhamarelva" />
		<tag k="ssr:stedsnr" v="956028" />
	</node>
	<node lat="59.93102777491551" lon="10.967086107988113" id="-28577">
		<tag k="bridge" v="yes" />
		<tag k="layer" v="1" />
		<tag k="name" v="Knatten" />
		<tag k="ssr:stedsnr" v="956029" />
	</node>
	<node lat="59.94553888610972" lon="10.952047220603635" id="-28578">
		<tag k="name" v="Skåreødegården" />
		<tag k="place" v="quarter" />
		<tag k="ssr:stedsnr" v="968134" />
	</node>
	<node lat="59.83820562801601" lon="11.046235313356213" id="-28579">
		<tag k="fixme" v="consider boundary=protected_area and relevant protect_class if not nature reserve" />
		<tag k="leisure" v="nature_reserve" />
		<tag k="name" v="Østmarka naturreservat" />
		<tag k="ssr:stedsnr" v="972728" />
	</node>
	<node lat="59.93883992852968" lon="10.966114632174111" id="-28640">
		<tag k="alt_name" v="Hanaborg" />
		<tag k="name" v="Hanaborg holdeplass" />
		<tag k="railway" v="halt" />
		<tag k="ssr:stedsnr" v="4059" />
		<tag k="train" v="yes" />
	</node>
	<node lat="59.932030551865665" lon="10.970088891584071" id="-28641">
		<tag k="alt_name" v="Fjellhammarelva" />
		<tag k="name" v="Fjellhamarelva" />
		<tag k="ssr:stedsnr" v="4012" />
		<tag k="waterway" v="stream" />
	</node>
	<node lat="59.88277221942062" lon="10.990975004037336" id="-28642">
		<tag k="name" v="Møllerenga" />
		<tag k="place" v="isolated_dwelling" />
		<tag k="ssr:stedsnr" v="4182" />
	</node>
	<node lat="59.854258336020955" lon="10.933991665126996" id="-28643">
		<tag k="loc_name" v="Løykjebrudalen" />
		<tag k="name" v="Løkebrudalen" />
		<tag k="natural" v="valley" />
		<tag k="place" v="locality" />
		<tag k="ssr:stedsnr" v="5230" />
	</node>
	<node lat="59.84595832912178" lon="10.958983324777401" id="-28644">
		<tag k="alt_name" v="Svarttjernet" />
		<tag k="name" v="Svartkulp" />
		<tag k="natural" v="water" />
		<tag k="ssr:stedsnr" v="5239" />
	</node>
	<node lat="59.869388886835715" lon="10.947499993792874" id="-28645">
		<tag k="name" v="Simannsmyra" />
		<tag k="natural" v="wetland" />
		<tag k="ssr:stedsnr" v="23920" />
	</node>
	<node lat="59.88465000092508" lon="10.94151667480974" id="-28646">
		<tag k="name" v="Lyerberget" />
		<tag k="natural" v="hill" />
		<tag k="place" v="locality" />
		<tag k="ssr:stedsnr" v="23047" />
	</node>
	<node lat="59.8763337925759" lon="10.991450291104735" id="-28647">
		<tag k="name" v="Garterudberget" />
		<tag k="natural" v="hill" />
		<tag k="place" v="locality" />
		<tag k="ssr:stedsnr" v="23054" />
	</node>
	<node lat="59.8602000010673" lon="10.9920555633233" id="-28648">
		<tag k="name" v="Espbrenna" />
		<tag k="natural" v="hill" />
		<tag k="place" v="locality" />
		<tag k="ssr:stedsnr" v="23056" />
	</node>
	<node lat="59.91578611499338" lon="11.002694441504731" id="-28649">
		<tag k="name" v="Lauvås" />
		<tag k="place" v="locality" />
		<tag k="ssr:stedsnr" v="23696" />
	</node>
	<node lat="59.944016670627256" lon="10.958247223824024" id="-28650">
		<tag k="landuse" v="winter_sports" />
		<tag k="name" v="Margaretalia" />
		<tag k="piste:type" v="downhill" />
		<tag k="ssr:stedsnr" v="23679" />
	</node>
	<node lat="59.928586107995706" lon="10.952261116282074" id="-28651">
		<tag k="name" v="Pokerskogen" />
		<tag k="place" v="hamlet" />
		<tag k="ssr:stedsnr" v="23992" />
	</node>
	<node lat="59.87519999875072" lon="11.000494451945599" id="-28652">
		<tag k="name" v="Finnlandsmyra" />
		<tag k="natural" v="wetland" />
		<tag k="ssr:stedsnr" v="23925" />
	</node>
	<node lat="59.93654722508331" lon="10.976674993555934" id="-28653">
		<tag k="amenity" v="school" />
		<tag k="name" v="Fjellsrud skole" />
		<tag k="ssr:stedsnr" v="23962" />
	</node>
	<node lat="59.93115278114563" lon="10.938333337998333" id="-28654">
		<tag k="name" v="Thurmannskogen" />
		<tag k="place" v="quarter" />
		<tag k="ssr:stedsnr" v="40036" />
	</node>
	<node lat="59.92010277659185" lon="10.940408337364767" id="-28655">
		<tag k="name" v="Rasta" />
		<tag k="place" v="quarter" />
		<tag k="ssr:stedsnr" v="40040" />
	</node>
	<node lat="59.91974999655903" lon="10.973894440397437" id="-28656">
		<tag k="name" v="Sørli" />
		<tag k="place" v="quarter" />
		<tag k="ssr:stedsnr" v="40043" />
	</node>
	<node lat="59.912719440927305" lon="11.018661119238244" id="-28657">
		<tag k="name" v="Lørenskogmarka øst" />
		<tag k="place" v="locality" />
		<tag k="ssr:stedsnr" v="40053" />
	</node>
	<node lat="59.927956575810526" lon="11.007810505890593" id="-28658">
		<tag k="fixme" v="consider place=hamlet" />
		<tag k="name" v="Hovelsrud" />
		<tag k="place" v="farm" />
		<tag k="ssr:stedsnr" v="65009" />
	</node>
	<node lat="59.93854961321934" lon="10.955264090192058" id="-28659">
		<tag k="alt_name" v="Langtjernet" />
		<tag k="name" v="Langvannet" />
		<tag k="natural" v="water" />
		<tag k="ssr:stedsnr" v="65045" />
	</node>
	<node lat="59.86528611076096" lon="10.924324996241872" id="-28661">
		<tag k="fixme" v="consider natural=peak for the most distinct mountains in the district" />
		<tag k="name" v="Nilsåsen" />
		<tag k="natural" v="hill" />
		<tag k="place" v="locality" />
		<tag k="ssr:stedsnr" v="65130" />
	</node>
	<node lat="59.88172341971001" lon="10.956592586470425" id="-28662">
		<tag k="fixme" v="consider natural=peak for the most distinct mountains in the district" />
		<tag k="name" v="Tronfjellet" />
		<tag k="natural" v="hill" />
		<tag k="place" v="locality" />
		<tag k="ssr:stedsnr" v="65169" />
	</node>
	<node lat="59.905608337488204" lon="10.945686113978788" id="-28663">
		<tag k="name" v="Vestereng" />
		<tag k="place" v="farm" />
		<tag k="ssr:stedsnr" v="66078" />
	</node>
	<node lat="59.89367221922424" lon="10.93547221331557" id="-28664">
		<tag k="name" v="Furuberget" />
		<tag k="natural" v="hill" />
		<tag k="place" v="locality" />
		<tag k="ssr:stedsnr" v="84053" />
	</node>
	<node lat="59.85748611008215" lon="10.92581666827105" id="-28665">
		<tag k="name" v="Cudrioberget" />
		<tag k="natural" v="hill" />
		<tag k="place" v="locality" />
		<tag k="ssr:stedsnr" v="84054" />
	</node>
	<node lat="59.845169448592685" lon="10.994813894803869" id="-28666">
		<tag k="name" v="Makrellknatten" />
		<tag k="natural" v="hill" />
		<tag k="place" v="locality" />
		<tag k="ssr:stedsnr" v="84078" />
	</node>
	<node lat="59.91203055521447" lon="10.956622229854238" id="-28667">
		<tag k="name" v="Øvre Finstad" />
		<tag k="place" v="farm" />
		<tag k="ssr:stedsnr" v="84986" />
	</node>
	<node lat="59.912252781339745" lon="10.920966659725194" id="-28668">
		<tag k="name" v="Pålerud" />
		<tag k="place" v="farm" />
		<tag k="ssr:stedsnr" v="84988" />
	</node>
	<node lat="59.911633334324115" lon="10.914849996917804" id="-28669">
		<tag k="name" v="Ellingsrudelva" />
		<tag k="ssr:stedsnr" v="84636" />
		<tag k="waterway" v="river" />
	</node>
	<node lat="59.92719937669088" lon="11.008239176729669" id="-28670">
		<tag k="name" v="Søndre Hovelsrud" />
		<tag k="place" v="farm" />
		<tag k="ssr:stedsnr" v="84650" />
	</node>
	<node lat="59.92028611148941" lon="11.02656389779893" id="-28671">
		<tag k="name" v="Hovelsrudtangen" />
		<tag k="natural" v="cape" />
		<tag k="ssr:stedsnr" v="84654" />
	</node>
	<node lat="59.92418055527754" lon="11.020813891921334" id="-28672">
		<tag k="name" v="Kopledalen" />
		<tag k="natural" v="valley" />
		<tag k="place" v="locality" />
		<tag k="ssr:stedsnr" v="84660" />
	</node>
	<node lat="59.89026110813417" lon="10.912272227425223" id="-28673">
		<tag k="name" v="Brenninga" />
		<tag k="place" v="locality" />
		<tag k="ssr:stedsnr" v="84666" />
	</node>
	<node lat="59.91281666461958" lon="10.915702781106955" id="-28674">
		<tag k="name" v="Dammen" />
		<tag k="ssr:stedsnr" v="84669" />
		<tag k="waterway" v="dam" />
	</node>
	<node lat="59.923650003898956" lon="10.982636115106256" id="-28675">
		<tag k="amenity" v="school" />
		<tag k="name" v="Hammer skole" />
		<tag k="ssr:stedsnr" v="84969" />
	</node>
	<node lat="59.90958055430438" lon="10.966136102791248" id="-28676">
		<tag k="name" v="Finstadenga" />
		<tag k="place" v="farm" />
		<tag k="ssr:stedsnr" v="84974" />
	</node>
	<node lat="59.932388890916386" lon="10.962405548356466" id="-28677">
		<tag k="name" v="Polen" />
		<tag k="place" v="locality" />
		<tag k="ssr:stedsnr" v="84689" />
	</node>
	<node lat="59.843627782064154" lon="10.938605547826944" id="-28678">
		<tag k="fixme" v="consider natural=peak for the most distinct mountains in the district" />
		<tag k="name" v="Blåsyna" />
		<tag k="natural" v="hill" />
		<tag k="place" v="locality" />
		<tag k="ssr:stedsnr" v="125210" />
	</node>
	<node lat="59.88755000229905" lon="10.992886106620544" id="-28679">
		<tag k="name" v="Østmork" />
		<tag k="place" v="farm" />
		<tag k="ssr:stedsnr" v="125181" />
	</node>
	<node lat="59.87985555482843" lon="10.926638892254884" id="-28680">
		<tag k="alt_name" v="Dammyra" />
		<tag k="name" v="Dammyr" />
		<tag k="natural" v="wetland" />
		<tag k="ssr:stedsnr" v="126170" />
	</node>
	<node lat="59.8787222182511" lon="10.966699995720704" id="-28681">
		<tag k="name" v="Igletjernet" />
		<tag k="natural" v="water" />
		<tag k="ssr:stedsnr" v="126171" />
	</node>
	<node lat="59.90924722593581" lon="10.933036110795957" id="-28682">
		<tag k="fixme" v="consider natural=peak for the most distinct mountains in the district" />
		<tag k="name" v="Lintjernåsen" />
		<tag k="natural" v="hill" />
		<tag k="place" v="locality" />
		<tag k="ssr:stedsnr" v="144066" />
	</node>
	<node lat="59.906647226470064" lon="10.916077779824217" id="-28683">
		<tag k="fixme" v="consider natural=peak for the most distinct mountains in the district" />
		<tag k="name" v="Bjørndalsåsen" />
		<tag k="natural" v="hill" />
		<tag k="place" v="locality" />
		<tag k="ssr:stedsnr" v="144067" />
	</node>
	<node lat="59.85579166294256" lon="10.987299998050652" id="-28684">
		<tag k="fixme" v="consider natural=peak for the most distinct mountains in the district" />
		<tag k="name" v="Damåsen" />
		<tag k="natural" v="hill" />
		<tag k="place" v="locality" />
		<tag k="ssr:stedsnr" v="144070" />
	</node>
	<node lat="59.868908331432266" lon="10.991455558780581" id="-28685">
		<tag k="name" v="Arndalen" />
		<tag k="natural" v="valley" />
		<tag k="place" v="locality" />
		<tag k="ssr:stedsnr" v="144083" />
	</node>
	<node lat="59.90457221895824" lon="10.929533329841878" id="-28686">
		<tag k="name" v="Langmyrdalen" />
		<tag k="natural" v="valley" />
		<tag k="place" v="locality" />
		<tag k="ssr:stedsnr" v="144091" />
	</node>
	<node lat="59.86772777673112" lon="10.936066673517681" id="-28687">
		<tag k="name" v="Puttedalen" />
		<tag k="natural" v="valley" />
		<tag k="place" v="locality" />
		<tag k="ssr:stedsnr" v="144093" />
	</node>
	<node lat="59.92973611283565" lon="11.022430559158451" id="-28688">
		<tag k="name" v="Sandbakken" />
		<tag k="place" v="farm" />
		<tag k="ssr:stedsnr" v="144651" />
	</node>
	<node lat="59.92215833714183" lon="11.023516667427623" id="-28689">
		<tag k="fixme" v="consider natural=peak for the most distinct mountains in the district" />
		<tag k="name" v="Midtåsen" />
		<tag k="natural" v="hill" />
		<tag k="place" v="locality" />
		<tag k="ssr:stedsnr" v="144658" />
	</node>
	<node lat="59.91748888925908" lon="10.919161114055612" id="-28690">
		<tag k="name" v="Møllerstua" />
		<tag k="place" v="locality" />
		<tag k="ssr:stedsnr" v="144663" />
	</node>
	<node lat="59.904975002071666" lon="10.913341669619186" id="-28691">
		<tag k="name" v="Dammen" />
		<tag k="ssr:stedsnr" v="144666" />
		<tag k="waterway" v="dam" />
	</node>
	<node lat="59.943874156817095" lon="10.994259267427429" id="-28692">
		<tag k="alt_name" v="Granlund" />
		<tag k="bridge" v="yes" />
		<tag k="layer" v="1" />
		<tag k="name" v="Granlund bru" />
		<tag k="ssr:stedsnr" v="144672" />
	</node>
	<node lat="59.91802222080389" lon="11.012308334849788" id="-28693">
		<tag k="name" v="Sanderud" />
		<tag k="place" v="locality" />
		<tag k="ssr:stedsnr" v="144684" />
	</node>
	<node lat="59.867783329844514" lon="11.001577774469009" id="-28694">
		<tag k="name" v="Geiterud" />
		<tag k="place" v="locality" />
		<tag k="ssr:stedsnr" v="144688" />
	</node>
	<node lat="59.88762222527155" lon="10.983869451092009" id="-28695">
		<tag k="leisure" v="park" />
		<tag k="name" v="Parken" />
		<tag k="ssr:stedsnr" v="144877" />
	</node>
	<node lat="59.855975557500734" lon="10.967807637274193" id="-28696">
		<tag k="name" v="Tretjernhøla" />
		<tag k="natural" v="wetland" />
		<tag k="ssr:stedsnr" v="144888" />
	</node>
	<node lat="59.8526111120866" lon="10.950683341218006" id="-28697">
		<tag k="name" v="Eggemåsan" />
		<tag k="natural" v="wetland" />
		<tag k="ssr:stedsnr" v="144904" />
	</node>
	<node lat="59.91003055647137" lon="10.91909444561072" id="-28698">
		<tag k="name" v="Bjørndalsmyra" />
		<tag k="natural" v="wetland" />
		<tag k="ssr:stedsnr" v="144917" />
	</node>
	<node lat="59.865802773761494" lon="10.938986114053526" id="-28699">
		<tag k="name" v="Stokkholtmyra" />
		<tag k="natural" v="wetland" />
		<tag k="ssr:stedsnr" v="144923" />
	</node>
	<node lat="59.86851111249948" lon="11.007172228636819" id="-28700">
		<tag k="name" v="Geitsjøbogen" />
		<tag k="natural" v="cape" />
		<tag k="ssr:stedsnr" v="144927" />
	</node>
	<node lat="59.93718333008446" lon="10.9873749989413" id="-28701">
		<tag k="name" v="Fjellhamardammen" />
		<tag k="natural" v="water" />
		<tag k="ssr:stedsnr" v="144930" />
		<tag k="water" v="lake" />
	</node>
	<node lat="59.892127779016846" lon="10.953791668196251" id="-28702">
		<tag k="name" v="Store Dalbakk" />
		<tag k="place" v="farm" />
		<tag k="ssr:stedsnr" v="144950" />
	</node>
	<node lat="59.89435555666079" lon="10.962888896674668" id="-28703">
		<tag k="name" v="Søndre Våler" />
		<tag k="place" v="farm" />
		<tag k="ssr:stedsnr" v="144968" />
	</node>
	<node lat="59.89884444666398" lon="10.965327786270304" id="-28704">
		<tag k="name" v="Nordre Våler" />
		<tag k="place" v="farm" />
		<tag k="ssr:stedsnr" v="144970" />
	</node>
	<node lat="59.91298888770759" lon="10.98950278573818" id="-28705">
		<tag k="name" v="Nordenga" />
		<tag k="place" v="farm" />
		<tag k="ssr:stedsnr" v="144974" />
	</node>
	<node lat="59.948944443354875" lon="10.986161119263214" id="-28706">
		<tag k="name" v="Grønlia" />
		<tag k="place" v="quarter" />
		<tag k="ssr:stedsnr" v="162037" />
	</node>
	<node lat="59.93644444019183" lon="10.993102774454504" id="-28707">
		<tag k="bridge" v="yes" />
		<tag k="layer" v="1" />
		<tag k="name" v="Brannvaktveien" />
		<tag k="ssr:stedsnr" v="167026" />
	</node>
	<node lat="59.939242489636754" lon="10.947228156173967" id="-28708">
		<tag k="name" v="Robsrud" />
		<tag k="place" v="quarter" />
		<tag k="ssr:stedsnr" v="179126" />
	</node>
	<node lat="59.90333611090798" lon="10.927188880175875" id="-28709">
		<tag k="alt_name" v="Seteråsen" />
		<tag k="fixme" v="consider natural=peak for the most distinct mountains in the district" />
		<tag k="name" v="Sæteråsen" />
		<tag k="natural" v="hill" />
		<tag k="place" v="locality" />
		<tag k="ssr:stedsnr" v="187071" />
	</node>
	<node lat="59.888233335714915" lon="10.910469437483851" id="-28710">
		<tag k="name" v="Mortvika" />
		<tag k="natural" v="bay" />
		<tag k="ssr:stedsnr" v="205128" />
	</node>
	<node lat="59.86499999659269" lon="10.998638886684832" id="-28711">
		<tag k="fixme" v="consider natural=peak for the most distinct mountains in the district" />
		<tag k="name" v="Malmeråsen" />
		<tag k="natural" v="hill" />
		<tag k="place" v="locality" />
		<tag k="ssr:stedsnr" v="205064" />
	</node>
	<node lat="59.9103527776984" lon="10.94006388530581" id="-28712">
		<tag k="fixme" v="consider natural=peak for the most distinct mountains in the district" />
		<tag k="name" v="Løgnås" />
		<tag k="natural" v="hill" />
		<tag k="place" v="locality" />
		<tag k="ssr:stedsnr" v="205072" />
	</node>
	<node lat="59.92051944345865" lon="11.0160583262766" id="-28713">
		<tag k="fixme" v="consider natural=peak for the most distinct mountains in the district" />
		<tag k="name" v="Østbyåsen" />
		<tag k="natural" v="hill" />
		<tag k="place" v="locality" />
		<tag k="ssr:stedsnr" v="205677" />
	</node>
	<node lat="59.85101111410036" lon="10.93620834160187" id="-28714">
		<tag k="name" v="Kastvangen" />
		<tag k="place" v="locality" />
		<tag k="ssr:stedsnr" v="205912" />
	</node>
	<node lat="59.858602776225105" lon="11.01559165905441" id="-28715">
		<tag k="name" v="Delingsmyra" />
		<tag k="natural" v="wetland" />
		<tag k="ssr:stedsnr" v="205915" />
	</node>
	<node lat="59.86350555856709" lon="10.980616659396372" id="-28716">
		<tag k="name" v="Rundmyr" />
		<tag k="natural" v="wetland" />
		<tag k="ssr:stedsnr" v="205919" />
	</node>
	<node lat="59.890816669186734" lon="10.973411103145171" id="-28717">
		<tag k="name" v="Lennemyra" />
		<tag k="natural" v="wetland" />
		<tag k="ssr:stedsnr" v="205921" />
	</node>
	<node lat="59.95314444068225" lon="10.96664999670523" id="-28718">
		<tag k="name" v="Røssmyra" />
		<tag k="natural" v="wetland" />
		<tag k="ssr:stedsnr" v="205925" />
	</node>
	<node lat="59.90859722234871" lon="11.00199722010214" id="-28719">
		<tag k="name" v="Røyrimyra" />
		<tag k="natural" v="wetland" />
		<tag k="ssr:stedsnr" v="205929" />
	</node>
	<node lat="59.943277780866" lon="10.946336116382087" id="-28720">
		<tag k="name" v="Sumpen" />
		<tag k="natural" v="wetland" />
		<tag k="ssr:stedsnr" v="205933" />
	</node>
	<node lat="59.91179444110806" lon="10.961011116206723" id="-28721">
		<tag k="name" v="Finstad" />
		<tag k="place" v="quarter" />
		<tag k="ssr:stedsnr" v="222031" />
	</node>
	<node lat="59.910602778205835" lon="10.918605557041326" id="-28722">
		<tag k="name" v="Bjørndalen" />
		<tag k="place" v="hamlet" />
		<tag k="ssr:stedsnr" v="222037" />
	</node>
	<node lat="59.93870555263045" lon="10.967655550097756" id="-28723">
		<tag k="bridge" v="yes" />
		<tag k="layer" v="1" />
		<tag k="name" v="Haneborg" />
		<tag k="ssr:stedsnr" v="228024" />
	</node>
	<node lat="59.924872225860234" lon="10.930488891716205" id="-28724">
		<tag k="name" v="Røykås" />
		<tag k="place" v="quarter" />
		<tag k="ssr:stedsnr" v="283028" />
	</node>
	<node lat="59.887288884515456" lon="10.930699994482831" id="-28726">
		<tag k="fixme" v="consider natural=peak for the most distinct mountains in the district" />
		<tag k="name" v="Haugerkollen" />
		<tag k="natural" v="hill" />
		<tag k="place" v="locality" />
		<tag k="ssr:stedsnr" v="308139" />
	</node>
	<node lat="59.87663611437946" lon="10.977338889875407" id="-28727">
		<tag k="alt_name" v="Endtjernliene" />
		<tag k="name" v="Endtjernlia" />
		<tag k="natural" v="slope" />
		<tag k="place" v="locality" />
		<tag k="ssr:stedsnr" v="327086" />
	</node>
	<node lat="59.89528055632329" lon="10.974488893951355" id="-28728">
		<tag k="name" v="Bråtabakken" />
		<tag k="natural" v="slope" />
		<tag k="place" v="locality" />
		<tag k="ssr:stedsnr" v="327090" />
	</node>
	<node lat="59.86575555549478" lon="10.973358326326077" id="-28729">
		<tag k="name" v="Snøsokkdalen" />
		<tag k="natural" v="valley" />
		<tag k="place" v="locality" />
		<tag k="ssr:stedsnr" v="327091" />
	</node>
	<node lat="59.89414999912839" lon="11.001086115178929" id="-28730">
		<tag k="name" v="Styggvannsdalen" />
		<tag k="natural" v="valley" />
		<tag k="place" v="locality" />
		<tag k="ssr:stedsnr" v="327096" />
	</node>
	<node lat="59.93219186889532" lon="11.020780599016764" id="-28731">
		<tag k="fixme" v="consider place=suburb, village or hamlet" />
		<tag k="name" v="Kurland" />
		<tag k="place" v="quarter" />
		<tag k="ssr:stedsnr" v="327600" />
	</node>
	<node lat="59.93023333687475" lon="10.95516111728995" id="-28732">
		<tag k="amenity" v="school" />
		<tag k="name" v="Solheim skole" />
		<tag k="ssr:stedsnr" v="327935" />
	</node>
	<node lat="59.90005278233315" lon="10.986847215627165" id="-28733">
		<tag k="name" v="Kirkerudbråten" />
		<tag k="place" v="farm" />
		<tag k="ssr:stedsnr" v="327948" />
	</node>
	<node lat="59.89249444863393" lon="10.982997226330603" id="-28734">
		<tag k="name" v="Grytehaugen" />
		<tag k="place" v="farm" />
		<tag k="ssr:stedsnr" v="327954" />
	</node>
	<node lat="59.89752499605363" lon="10.968286109367849" id="-28735">
		<tag k="name" v="Grinda" />
		<tag k="place" v="farm" />
		<tag k="ssr:stedsnr" v="327955" />
	</node>
	<node lat="59.91688055276741" lon="11.001808328168696" id="-28736">
		<tag k="name" v="Nylenne" />
		<tag k="place" v="locality" />
		<tag k="ssr:stedsnr" v="327627" />
	</node>
	<node lat="59.89671388670079" lon="10.969616673181019" id="-28737">
		<tag k="name" v="Hellerud" />
		<tag k="place" v="locality" />
		<tag k="ssr:stedsnr" v="327629" />
	</node>
	<node lat="59.92477777662178" lon="10.993011103175744" id="-28738">
		<tag k="name" v="Tangen" />
		<tag k="place" v="locality" />
		<tag k="ssr:stedsnr" v="327633" />
	</node>
	<node lat="59.91380277925358" lon="11.009361116632894" id="-28739">
		<tag k="name" v="Stensrudmarka" />
		<tag k="place" v="locality" />
		<tag k="ssr:stedsnr" v="327827" />
	</node>
	<node lat="59.92470833252043" lon="10.981394441848746" id="-28740">
		<tag k="name" v="St. Olavs kilde" />
		<tag k="place" v="locality" />
		<tag k="ssr:stedsnr" v="327900" />
	</node>
	<node lat="59.92073333187374" lon="10.985963884696892" id="-28741">
		<tag k="name" v="Søndre Røyri" />
		<tag k="place" v="farm" />
		<tag k="ssr:stedsnr" v="327978" />
	</node>
	<node lat="59.93243055806621" lon="10.929674998812636" id="-28742">
		<tag k="name" v="Visperud" />
		<tag k="place" v="quarter" />
		<tag k="ssr:stedsnr" v="343035" />
	</node>
	<node lat="59.88698126646243" lon="10.983562036150557" id="-28743">
		<tag k="fixme" v="consider place=hamlet" />
		<tag k="name" v="Losby" />
		<tag k="place" v="farm" />
		<tag k="ssr:stedsnr" v="368198" />
	</node>
	<node lat="59.86715555716191" lon="10.99898889351789" id="-28744">
		<tag k="name" v="Fløyta" />
		<tag k="natural" v="water" />
		<tag k="ssr:stedsnr" v="369131" />
	</node>
	<node lat="59.912094446656006" lon="10.917777773666542" id="-28745">
		<tag k="name" v="Bjerkelund" />
		<tag k="natural" v="hill" />
		<tag k="place" v="locality" />
		<tag k="ssr:stedsnr" v="387054" />
	</node>
	<node lat="59.92927222199659" lon="10.972544449491968" id="-28746">
		<tag k="name" v="Kråkåsen" />
		<tag k="natural" v="hill" />
		<tag k="place" v="locality" />
		<tag k="ssr:stedsnr" v="387055" />
	</node>
	<node lat="59.846672219657094" lon="10.964113888018375" id="-28747">
		<tag k="fixme" v="consider natural=peak for the most distinct mountains in the district" />
		<tag k="name" v="Velåsen" />
		<tag k="natural" v="hill" />
		<tag k="place" v="locality" />
		<tag k="ssr:stedsnr" v="387089" />
	</node>
	<node lat="59.92161389305357" lon="10.973624993154068" id="-28748">
		<tag k="name" v="Nordre Sørli" />
		<tag k="place" v="isolated_dwelling" />
		<tag k="ssr:stedsnr" v="387875" />
	</node>
	<node lat="59.86338333562706" lon="11.00717777720419" id="-28749">
		<tag k="name" v="Merrasprenga" />
		<tag k="place" v="locality" />
		<tag k="ssr:stedsnr" v="387886" />
	</node>
	<node lat="59.85962222390177" lon="11.001652784220365" id="-28750">
		<tag k="name" v="Morktanga" />
		<tag k="place" v="locality" />
		<tag k="ssr:stedsnr" v="387889" />
	</node>
	<node lat="59.91627777871275" lon="10.971608342227878" id="-28751">
		<tag k="name" v="Finstadbekken" />
		<tag k="ssr:stedsnr" v="448666" />
		<tag k="waterway" v="stream" />
	</node>
	<node lat="59.92812777607533" lon="10.953438887324468" id="-28752">
		<tag k="name" v="Lørenskog sentrum" />
		<tag k="place" v="quarter" />
		<tag k="ssr:stedsnr" v="404035" />
	</node>
	<node lat="59.9397638920078" lon="10.997013881640498" id="-28753">
		<tag k="name" v="Vittenberg" />
		<tag k="place" v="quarter" />
		<tag k="ssr:stedsnr" v="404041" />
	</node>
	<node lat="59.858755556822636" lon="11.006677772477529" id="-28755">
		<tag k="name" v="Trondslora" />
		<tag k="place" v="locality" />
		<tag k="ssr:stedsnr" v="448901" />
	</node>
	<node lat="59.940552781264905" lon="10.9815027696697" id="-28756">
		<tag k="name" v="Fjellhamar sokn" />
		<tag k="old_name" v="Lørenskog sokn" />
		<tag k="place" v="hamlet" />
		<tag k="ssr:stedsnr" v="420846" />
	</node>
	<node lat="59.922900001979784" lon="10.990577770485823" id="-28757">
		<tag k="name" v="Norum" />
		<tag k="place" v="farm" />
		<tag k="ssr:stedsnr" v="429020" />
	</node>
	<node lat="59.95147222386762" lon="10.96783888945044" id="-28758">
		<tag k="name" v="Svarttjern" />
		<tag k="natural" v="water" />
		<tag k="ssr:stedsnr" v="429032" />
	</node>
	<node lat="59.86366110899119" lon="10.997161114156478" id="-28759">
		<tag k="alt_name" v="Malmern" />
		<tag k="name" v="Malmeren" />
		<tag k="natural" v="water" />
		<tag k="ssr:stedsnr" v="430129" />
	</node>
	<node lat="59.84458926568366" lon="10.970709327283547" id="-28760">
		<tag k="name" v="Skålsjøen" />
		<tag k="natural" v="water" />
		<tag k="ssr:stedsnr" v="430230" />
		<tag k="water" v="lake" />
	</node>
	<node lat="59.846008336053984" lon="10.94283888541417" id="-28761">
		<tag k="alt_name" v="Blåsynsmåsan" />
		<tag k="name" v="Blåsynmåsan" />
		<tag k="natural" v="wetland" />
		<tag k="old_name" v="Blåsynmosen" />
		<tag k="ssr:stedsnr" v="430231" />
	</node>
	<node lat="59.93994811082169" lon="10.984674709950193" id="-28762">
		<tag k="amenity" v="school" />
		<tag k="name" v="Fjellhamar skole" />
		<tag k="ssr:stedsnr" v="448960" />
	</node>
	<node lat="59.88250000313304" lon="10.988202770566483" id="-28763">
		<tag k="name" v="Sagenga" />
		<tag k="place" v="farm" />
		<tag k="ssr:stedsnr" v="448965" />
	</node>
	<node lat="59.84105277817561" lon="10.977305552428836" id="-28764">
		<tag k="name" v="Søndre Liseterkollen" />
		<tag k="natural" v="hill" />
		<tag k="place" v="locality" />
		<tag k="ssr:stedsnr" v="448063" />
	</node>
	<node lat="59.839761112267986" lon="11.003324997419094" id="-28765">
		<tag k="name" v="Vestre Tonekollen" />
		<tag k="natural" v="hill" />
		<tag k="place" v="locality" />
		<tag k="ssr:stedsnr" v="448064" />
	</node>
	<node lat="59.851613887346716" lon="11.007230555673832" id="-28766">
		<tag k="name" v="Tonevannsvika" />
		<tag k="natural" v="bay" />
		<tag k="ssr:stedsnr" v="448128" />
	</node>
	<node lat="59.93029722049183" lon="11.012372223479614" id="-28767">
		<tag k="name" v="Hovelsrudhagan" />
		<tag k="natural" v="hill" />
		<tag k="place" v="locality" />
		<tag k="ssr:stedsnr" v="448683" />
	</node>
	<node lat="59.91128889281993" lon="10.992852772956759" id="-28770">
		<tag k="name" v="St. Hansberget" />
		<tag k="natural" v="hill" />
		<tag k="place" v="locality" />
		<tag k="ssr:stedsnr" v="509038" />
	</node>
	<node lat="59.93005555142591" lon="10.966108329096352" id="-28771">
		<tag k="name" v="Knatteåsen" />
		<tag k="natural" v="hill" />
		<tag k="place" v="locality" />
		<tag k="ssr:stedsnr" v="509039" />
	</node>
	<node lat="59.84338888700031" lon="11.005802772347744" id="-28772">
		<tag k="name" v="Lagmannsputten" />
		<tag k="natural" v="water" />
		<tag k="ssr:stedsnr" v="509115" />
		<tag k="water" v="pond" />
	</node>
	<node lat="59.9118749996358" lon="11.005652772810512" id="-28773">
		<tag k="name" v="Trolldalen" />
		<tag k="natural" v="valley" />
		<tag k="place" v="locality" />
		<tag k="ssr:stedsnr" v="509091" />
	</node>
	<node lat="59.918944447106156" lon="11.009861110122607" id="-28774">
		<tag k="name" v="NRTKs hytte" />
		<tag k="place" v="isolated_dwelling" />
		<tag k="ssr:stedsnr" v="509593" />
	</node>
	<node lat="59.92289999961655" lon="11.006991671931802" id="-28775">
		<tag k="name" v="Øvre Østby" />
		<tag k="place" v="farm" />
		<tag k="ssr:stedsnr" v="509600" />
	</node>
	<node lat="59.85516944600501" lon="10.952847227569714" id="-28776">
		<tag k="name" v="Bjørnebettet" />
		<tag k="place" v="locality" />
		<tag k="ssr:stedsnr" v="509858" />
	</node>
	<node lat="59.904569444574435" lon="10.993816675143732" id="-28777">
		<tag k="name" v="Jentebråtamyra" />
		<tag k="natural" v="wetland" />
		<tag k="ssr:stedsnr" v="509888" />
	</node>
	<node lat="59.90856666553606" lon="11.015877770871136" id="-28778">
		<tag k="historic" v="shieling" />
		<tag k="name" v="Rattvoll" />
		<tag k="place" v="locality" />
		<tag k="ssr:stedsnr" v="509840" />
	</node>
	<node lat="59.888886109468764" lon="10.922358339849012" id="-28779">
		<tag k="historic" v="shieling" />
		<tag k="name" v="Haugerseter" />
		<tag k="place" v="locality" />
		<tag k="ssr:stedsnr" v="509842" />
	</node>
	<node lat="59.88561388761257" lon="10.93234721423793" id="-28780">
		<tag k="historic" v="shieling" />
		<tag k="name" v="Skullerudsetra" />
		<tag k="place" v="locality" />
		<tag k="ssr:stedsnr" v="509843" />
	</node>
	<node lat="59.94167499861561" lon="11.008961110353189" id="-28781">
		<tag k="name" v="Guldal" />
		<tag k="place" v="quarter" />
		<tag k="ssr:stedsnr" v="509994" />
	</node>
	<node lat="59.9375416668501" lon="10.98415277732011" id="-28782">
		<tag k="name" v="Fjellhamar" />
		<tag k="place" v="quarter" />
		<tag k="ssr:stedsnr" v="526044" />
	</node>
	<node lat="59.892016663886004" lon="10.923216665530248" id="-28783">
		<tag k="name" v="Lørenskogmarka vest" />
		<tag k="place" v="locality" />
		<tag k="ssr:stedsnr" v="526048" />
	</node>
	<node lat="59.93676863540538" lon="11.000143706474956" id="-28785">
		<tag k="layer" v="-1" />
		<tag k="name" v="Vittenbergtunnelen" />
		<tag k="ssr:stedsnr" v="529648" />
		<tag k="tunnel" v="yes" />
	</node>
	<node lat="59.9045833305202" lon="10.940716673906229" id="-28786">
		<tag k="name" v="Høgda" />
		<tag k="place" v="isolated_dwelling" />
		<tag k="ssr:stedsnr" v="550088" />
	</node>
	<node lat="59.87566388554151" lon="10.95102776898097" id="-28787">
		<tag k="alt_name" v="Halssjøen" />
		<tag k="name" v="Halsjøen" />
		<tag k="natural" v="water" />
		<tag k="old_name" v="Store Halsjøen" />
		<tag k="ssr:stedsnr" v="550185" />
		<tag k="water" v="lake" />
	</node>
	<node lat="59.8734717329058" lon="10.99414155266285" id="-28788">
		<tag k="name" v="Mønevannet" />
		<tag k="natural" v="water" />
		<tag k="old_name" v="Mønevatn" />
		<tag k="ssr:stedsnr" v="550186" />
		<tag k="water" v="lake" />
	</node>
	<node lat="59.87380555333272" lon="10.997750003116405" id="-28789">
		<tag k="name" v="Finnland" />
		<tag k="place" v="isolated_dwelling" />
		<tag k="ssr:stedsnr" v="550191" />
	</node>
	<node lat="59.90555435456442" lon="10.953414056065387" id="-28790">
		<tag k="name" v="Hauger" />
		<tag k="place" v="hamlet" />
		<tag k="ssr:stedsnr" v="551075" />
	</node>
	<node lat="59.84161666444928" lon="10.980930556474227" id="-28791">
		<tag k="historic" v="shieling" />
		<tag k="name" v="Lisetra" />
		<tag k="place" v="locality" />
		<tag k="ssr:stedsnr" v="569853" />
	</node>
	<node lat="59.91120277741843" lon="11.016511111528274" id="-28792">
		<tag k="name" v="Nordlistykket" />
		<tag k="place" v="locality" />
		<tag k="ssr:stedsnr" v="569856" />
	</node>
	<node lat="59.90778888443947" lon="10.987638894801245" id="-28793">
		<tag k="name" v="Kirkerudkollen" />
		<tag k="natural" v="hill" />
		<tag k="place" v="locality" />
		<tag k="ssr:stedsnr" v="569052" />
	</node>
	<node lat="59.869144444423185" lon="10.925238883175007" id="-28794">
		<tag k="fixme" v="consider natural=peak for the most distinct mountains in the district" />
		<tag k="name" v="Skråbakkåsen" />
		<tag k="natural" v="hill" />
		<tag k="place" v="locality" />
		<tag k="ssr:stedsnr" v="569076" />
	</node>
	<node lat="59.9128916622816" lon="11.024097219639685" id="-28795">
		<tag k="fixme" v="consider natural=peak for the most distinct mountains in the district" />
		<tag k="name" v="Svaraberget" />
		<tag k="natural" v="hill" />
		<tag k="place" v="locality" />
		<tag k="ssr:stedsnr" v="569087" />
	</node>
	<node lat="59.93374722623777" lon="10.999849999657195" id="-28796">
		<tag k="name" v="Nordheim" />
		<tag k="place" v="farm" />
		<tag k="ssr:stedsnr" v="569981" />
	</node>
	<node lat="59.94166666262315" lon="10.989377783843734" id="-28797">
		<tag k="alt_name" v="Fjellhammer Brug;Fjeldhammer Brug" />
		<tag k="name" v="Fjellhammer bruk" />
		<tag k="place" v="quarter" />
		<tag k="ssr:stedsnr" v="569996" />
	</node>
	<node lat="59.86072932622087" lon="10.911743431358447" id="-28798">
		<tag k="bridge" v="yes" />
		<tag k="layer" v="1" />
		<tag k="name" v="Skyttenbrua" />
		<tag k="ssr:stedsnr" v="569657" />
	</node>
	<node lat="59.923866666238936" lon="10.995394443880302" id="-28799">
		<tag k="name" v="Sørli" />
		<tag k="place" v="isolated_dwelling" />
		<tag k="ssr:stedsnr" v="569849" />
	</node>
	<node lat="59.89220833665583" lon="10.959005556585216" id="-28800">
		<tag k="name" v="Vesle Dalbakk" />
		<tag k="place" v="farm" />
		<tag k="ssr:stedsnr" v="569937" />
	</node>
	<node lat="59.868844445828884" lon="10.996230549012303" id="-28801">
		<tag k="name" v="Søndre Tangen" />
		<tag k="place" v="farm" />
		<tag k="ssr:stedsnr" v="569948" />
	</node>
	<node lat="59.89723888977856" lon="10.969200004429064" id="-28802">
		<tag k="name" v="Heia" />
		<tag k="place" v="isolated_dwelling" />
		<tag k="ssr:stedsnr" v="569949" />
	</node>
	<node lat="59.91668182702184" lon="10.976265365204261" id="-28803">
		<tag k="fixme" v="consider place=hamlet" />
		<tag k="name" v="Nes" />
		<tag k="place" v="farm" />
		<tag k="ssr:stedsnr" v="611022" />
	</node>
	<node lat="59.88815832941007" lon="10.94002499557467" id="-28804">
		<tag k="alt_name" v="Skullerudtjernet" />
		<tag k="name" v="Skullerudtjern" />
		<tag k="natural" v="water" />
		<tag k="ssr:stedsnr" v="611159" />
	</node>
	<node lat="59.87481944687725" lon="10.93081667497459" id="-28805">
		<tag k="name" v="Gråbeinmåsan" />
		<tag k="natural" v="wetland" />
		<tag k="old_name" v="Gråbeinmosen" />
		<tag k="ssr:stedsnr" v="611169" />
	</node>
	<node lat="59.85455277829563" lon="10.92944166650637" id="-28806">
		<tag k="name" v="Losbydalen" />
		<tag k="natural" v="valley" />
		<tag k="place" v="locality" />
		<tag k="ssr:stedsnr" v="630083" />
	</node>
	<node lat="59.939550003950934" lon="11.007383328661067" id="-28807">
		<tag k="name" v="Fjellstad" />
		<tag k="place" v="hamlet" />
		<tag k="ssr:stedsnr" v="630577" />
	</node>
	<node lat="59.899808335129926" lon="11.010097215362759" id="-28808">
		<tag k="historic" v="shieling" />
		<tag k="name" v="Plåterudseter" />
		<tag k="place" v="locality" />
		<tag k="ssr:stedsnr" v="630830" />
	</node>
	<node lat="59.868663890548476" lon="10.910999995312238" id="-28809">
		<tag k="name" v="Tangenøya" />
		<tag k="place" v="island" />
		<tag k="ssr:stedsnr" v="630916" />
	</node>
	<node lat="59.85847222540119" lon="10.990219441627303" id="-28810">
		<tag k="name" v="Mellomslora" />
		<tag k="place" v="locality" />
		<tag k="ssr:stedsnr" v="630851" />
	</node>
	<node lat="59.90080278075837" lon="11.014680561113197" id="-28811">
		<tag k="name" v="Langmyra" />
		<tag k="natural" v="wetland" />
		<tag k="ssr:stedsnr" v="630873" />
	</node>
	<node lat="59.85256666682886" lon="10.983691659542949" id="-28812">
		<tag k="name" v="Skålsjømyra" />
		<tag k="natural" v="wetland" />
		<tag k="ssr:stedsnr" v="630876" />
	</node>
	<node lat="59.89224166698607" lon="10.977466661480124" id="-28813">
		<tag k="name" v="Skolehuset" />
		<tag k="place" v="farm" />
		<tag k="ssr:stedsnr" v="630954" />
	</node>
	<node lat="59.90857777486422" lon="10.970844436364969" id="-28814">
		<tag k="name" v="Øvre Feiring" />
		<tag k="place" v="farm" />
		<tag k="ssr:stedsnr" v="630966" />
	</node>
	<node lat="59.92374167010971" lon="11.000625007695813" id="-28815">
		<tag k="name" v="Nedre Østby" />
		<tag k="place" v="farm" />
		<tag k="ssr:stedsnr" v="630971" />
	</node>
	<node lat="59.92247222180173" lon="10.967494449559752" id="-28816">
		<tag k="amenity" v="school" />
		<tag k="name" v="Løkenåsen skole" />
		<tag k="ssr:stedsnr" v="630931" />
	</node>
	<node lat="59.93400278067055" lon="11.02312221642408" id="-28817">
		<tag k="name" v="Kurland" />
		<tag k="place" v="quarter" />
		<tag k="ssr:stedsnr" v="647041" />
	</node>
	<node lat="59.92930555806796" lon="10.946122214330915" id="-28818">
		<tag k="bridge" v="yes" />
		<tag k="layer" v="1" />
		<tag k="name" v="Thurmann" />
		<tag k="ssr:stedsnr" v="713016" />
	</node>
	<node lat="59.94563909498717" lon="10.951356606644154" id="-28819">
		<tag k="fixme" v="consider place=hamlet" />
		<tag k="name" v="Skårerødegården" />
		<tag k="place" v="farm" />
		<tag k="ssr:stedsnr" v="732561" />
	</node>
	<node lat="59.92227777436835" lon="10.92175832691628" id="-28820">
		<tag k="name" v="Nordli" />
		<tag k="place" v="farm" />
		<tag k="ssr:stedsnr" v="733027" />
	</node>
	<node lat="59.90235555484325" lon="11.005699997696622" id="-28821">
		<tag k="fixme" v="consider natural=peak for the most distinct mountains in the district" />
		<tag k="name" v="Linfjellet" />
		<tag k="natural" v="hill" />
		<tag k="place" v="locality" />
		<tag k="ssr:stedsnr" v="733081" />
	</node>
	<node lat="59.90081932962141" lon="11.020874923923518" id="-28822">
		<tag k="fixme" v="consider natural=peak for the most distinct mountains in the district" />
		<tag k="name" v="Dunderen" />
		<tag k="natural" v="hill" />
		<tag k="place" v="locality" />
		<tag k="ssr:stedsnr" v="733082" />
	</node>
	<node lat="59.902261113716776" lon="10.931936118201703" id="-28823">
		<tag k="alt_name" v="Langåsen" />
		<tag k="fixme" v="consider natural=peak for the most distinct mountains in the district" />
		<tag k="name" v="Linås" />
		<tag k="natural" v="hill" />
		<tag k="place" v="locality" />
		<tag k="ssr:stedsnr" v="733088" />
	</node>
	<node lat="59.85776388807438" lon="10.916052781075047" id="-28824">
		<tag k="alt_name" v="Søndre Elvåga" />
		<tag k="name" v="Sør-Elvåga" />
		<tag k="natural" v="water" />
		<tag k="ssr:stedsnr" v="733213" />
		<tag k="water" v="lake" />
	</node>
	<node lat="59.855449999429084" lon="11.00449166063897" id="-28825">
		<tag k="name" v="Røyrivannet" />
		<tag k="natural" v="water" />
		<tag k="old_name" v="Røyrivatnet" />
		<tag k="ssr:stedsnr" v="733218" />
	</node>
	<node lat="59.847463890420215" lon="11.022058334268852" id="-28826">
		<tag k="alt_name" v="Nordre Krokvann" />
		<tag k="name" v="Nordre Krokvannet" />
		<tag k="natural" v="water" />
		<tag k="old_name" v="Krokvatnet, nordre" />
		<tag k="ssr:stedsnr" v="733230" />
	</node>
	<node lat="59.87226111369648" lon="10.964041672013302" id="-28827">
		<tag k="name" v="Klubbtjern" />
		<tag k="natural" v="water" />
		<tag k="ssr:stedsnr" v="751111" />
	</node>
	<node lat="59.924322218224106" lon="10.982602779741171" id="-28828">
		<tag k="name" v="Søndre Hammer" />
		<tag k="place" v="farm" />
		<tag k="ssr:stedsnr" v="751085" />
	</node>
	<node lat="59.911191670819505" lon="11.023755550803173" id="-28829">
		<tag k="highway" v="path" />
		<tag k="name" v="Oskarsgate" />
		<tag k="ssr:stedsnr" v="751683" />
	</node>
	<node lat="59.91680555989163" lon="10.99531110710206" id="-28830">
		<tag k="name" v="Røyribråtan" />
		<tag k="place" v="locality" />
		<tag k="ssr:stedsnr" v="751693" />
	</node>
	<node lat="59.874255552439635" lon="10.993152779370819" id="-28831">
		<tag k="name" v="Maurodden" />
		<tag k="natural" v="cape" />
		<tag k="ssr:stedsnr" v="751941" />
	</node>
	<node lat="59.93467221987593" lon="10.977752772307502" id="-28832">
		<tag k="name" v="Tynes" />
		<tag k="place" v="hamlet" />
		<tag k="ssr:stedsnr" v="751892" />
	</node>
	<node lat="59.92371944608507" lon="10.934536119426763" id="-28833">
		<tag k="name" v="Østlia" />
		<tag k="place" v="hamlet" />
		<tag k="ssr:stedsnr" v="751897" />
	</node>
	<node lat="59.928122218188015" lon="10.934380560077676" id="-28834">
		<tag k="name" v="Svingen" />
		<tag k="place" v="hamlet" />
		<tag k="ssr:stedsnr" v="751899" />
	</node>
	<node lat="59.910552778201144" lon="10.978547225566897" id="-28835">
		<tag k="name" v="Nedre Feiring" />
		<tag k="place" v="farm" />
		<tag k="ssr:stedsnr" v="751981" />
	</node>
	<node lat="59.93449722109195" lon="10.997197215275815" id="-28836">
		<tag k="name" v="Nordby" />
		<tag k="place" v="quarter" />
		<tag k="ssr:stedsnr" v="751997" />
	</node>
	<node lat="59.94069923587883" lon="10.981756046488446" id="-28837">
		<tag k="alt_name" v="Fjellhamar" />
		<tag k="name" v="Fjellhamar holdeplass" />
		<tag k="railway" v="halt" />
		<tag k="ssr:stedsnr" v="793058" />
		<tag k="train" v="yes" />
	</node>
	<node lat="59.93664238002152" lon="11.007862663970556" id="-28838">
		<tag k="fixme" v="consider place=hamlet" />
		<tag k="name" v="Bårli" />
		<tag k="place" v="farm" />
		<tag k="ssr:stedsnr" v="793060" />
	</node>
	<node lat="59.91214722122248" lon="10.925786114840616" id="-28839">
		<tag k="name" v="Ekerud" />
		<tag k="place" v="isolated_dwelling" />
		<tag k="ssr:stedsnr" v="793085" />
	</node>
	<node lat="59.91078992464395" lon="10.918370454831226" id="-28840">
		<tag k="name" v="Bjørndalen" />
		<tag k="place" v="farm" />
		<tag k="ssr:stedsnr" v="793088" />
	</node>
	<node lat="59.92670277610179" lon="11.01318055287021" id="-28841">
		<tag k="name" v="Hovelsrudstua" />
		<tag k="place" v="farm" />
		<tag k="ssr:stedsnr" v="793097" />
	</node>
	<node lat="59.91903055912972" lon="11.02715556121246" id="-28842">
		<tag k="name" v="Åmotdammen" />
		<tag k="natural" v="water" />
		<tag k="ssr:stedsnr" v="793100" />
		<tag k="water" v="lake" />
	</node>
	<node lat="59.88132500292662" lon="10.967050008102884" id="-28843">
		<tag k="fixme" v="consider natural=peak for the most distinct mountains in the district" />
		<tag k="name" v="Svartåsen" />
		<tag k="natural" v="hill" />
		<tag k="place" v="locality" />
		<tag k="ssr:stedsnr" v="793173" />
	</node>
	<node lat="59.904438885028505" lon="10.984805562607098" id="-28844">
		<tag k="alt_name" v="Engerbråten" />
		<tag k="name" v="Engebråtan" />
		<tag k="old_name" v="Engebråten" />
		<tag k="place" v="farm" />
		<tag k="ssr:stedsnr" v="794066" />
	</node>
	<node lat="59.90082500372068" lon="10.967202783545904" id="-28845">
		<tag k="name" v="Grinderud" />
		<tag k="place" v="farm" />
		<tag k="ssr:stedsnr" v="794067" />
	</node>
	<node lat="59.89476111399931" lon="11.010749999327203" id="-28846">
		<tag k="alt_name" v="Veslevann" />
		<tag k="name" v="Veslevannet" />
		<tag k="natural" v="water" />
		<tag k="ssr:stedsnr" v="811891" />
	</node>
	<node lat="59.90066944648786" lon="11.022630546793602" id="-28847">
		<tag k="name" v="Isdalen" />
		<tag k="natural" v="valley" />
		<tag k="place" v="locality" />
		<tag k="ssr:stedsnr" v="812094" />
	</node>
	<node lat="59.8456249996094" lon="10.955624993786156" id="-28848">
		<tag k="name" v="Cudriosteinen" />
		<tag k="natural" v="stone" />
		<tag k="ssr:stedsnr" v="812096" />
	</node>
	<node lat="59.868036113021134" lon="10.97816666486946" id="-28849">
		<tag k="name" v="Lusetjern" />
		<tag k="natural" v="water" />
		<tag k="ssr:stedsnr" v="812126" />
	</node>
	<node lat="59.90121944259772" lon="11.01013055033943" id="-28850">
		<tag k="name" v="Plåterudsetertjern" />
		<tag k="natural" v="water" />
		<tag k="ssr:stedsnr" v="812144" />
	</node>
	<node lat="59.878177782221606" lon="10.951619436523512" id="-28851">
		<tag k="name" v="Morkputten" />
		<tag k="natural" v="water" />
		<tag k="ssr:stedsnr" v="812148" />
		<tag k="water" v="pond" />
	</node>
	<node lat="59.86002778039111" lon="10.999863889326738" id="-28852">
		<tag k="name" v="Knurra" />
		<tag k="natural" v="strait" />
		<tag k="ssr:stedsnr" v="812149" />
	</node>
	<node lat="59.89569166553818" lon="10.947994448450626" id="-28853">
		<tag k="name" v="Linderudkollen" />
		<tag k="natural" v="hill" />
		<tag k="place" v="locality" />
		<tag k="ssr:stedsnr" v="812046" />
	</node>
	<node lat="59.88295000284499" lon="11.006080560996049" id="-28854">
		<tag k="fixme" v="consider natural=peak for the most distinct mountains in the district" />
		<tag k="name" v="Puttåsen" />
		<tag k="natural" v="hill" />
		<tag k="place" v="locality" />
		<tag k="ssr:stedsnr" v="812070" />
	</node>
	<node lat="59.86086944659096" lon="10.985436111843473" id="-28855">
		<tag k="name" v="Femtiliteren" />
		<tag k="place" v="locality" />
		<tag k="ssr:stedsnr" v="812896" />
	</node>
	<node lat="59.87751388961145" lon="10.949672230775748" id="-28856">
		<tag k="name" v="Lombardiet" />
		<tag k="place" v="locality" />
		<tag k="ssr:stedsnr" v="812899" />
	</node>
	<node lat="59.92442499750682" lon="10.99802499459669" id="-28857">
		<tag k="amenity" v="nursing_home" />
		<tag k="name" v="Østbytunet behandlingshjem" />
		<tag k="ssr:stedsnr" v="812951" />
	</node>
	<node lat="59.854924996097616" lon="11.00111389318439" id="-28858">
		<tag k="historic" v="shieling" />
		<tag k="name" v="Feiringsetra" />
		<tag k="place" v="isolated_dwelling" />
		<tag k="ssr:stedsnr" v="812958" />
	</node>
	<node lat="59.89905277415925" lon="10.968561111235156" id="-28859">
		<tag k="name" v="Vålerhagan" />
		<tag k="place" v="farm" />
		<tag k="ssr:stedsnr" v="812977" />
	</node>
	<node lat="59.90530555400407" lon="10.942747221363167" id="-28860">
		<tag k="name" v="Bekkensten" />
		<tag k="place" v="locality" />
		<tag k="ssr:stedsnr" v="812666" />
	</node>
	<node lat="59.924350001917915" lon="10.947980550843479" id="-28861">
		<tag k="leisure" v="pitch" />
		<tag k="name" v="Rolvsrud idrettsplass" />
		<tag k="ssr:stedsnr" v="812675" />
	</node>
	<node lat="59.896841665481496" lon="10.958427779816976" id="-28862">
		<tag k="name" v="Vålerenga" />
		<tag k="place" v="farm" />
		<tag k="ssr:stedsnr" v="812987" />
	</node>
	<node lat="59.9047305558673" lon="10.952594439153932" id="-28863">
		<tag k="name" v="Søndre Hauger" />
		<tag k="place" v="farm" />
		<tag k="ssr:stedsnr" v="812988" />
	</node>
	<node lat="59.92006667060312" lon="10.951836106451257" id="-28864">
		<tag k="name" v="Skårer vest" />
		<tag k="place" v="quarter" />
		<tag k="ssr:stedsnr" v="813000" />
	</node>
	<node lat="59.845580557265706" lon="10.980622223755773" id="-28865">
		<tag k="fixme" v="consider natural=peak for the most distinct mountains in the district" />
		<tag k="name" v="Liseterkollen" />
		<tag k="natural" v="hill" />
		<tag k="place" v="locality" />
		<tag k="ssr:stedsnr" v="817811" />
	</node>
	<node lat="59.936108334461245" lon="10.96640277839956" id="-28866">
		<tag k="name" v="Fjellhamarskogen" />
		<tag k="place" v="quarter" />
		<tag k="ssr:stedsnr" v="830044" />
	</node>
	<node lat="59.93744166351173" lon="10.933283329422133" id="-28867">
		<tag k="bridge" v="yes" />
		<tag k="layer" v="1" />
		<tag k="name" v="Enga" />
		<tag k="ssr:stedsnr" v="835025" />
	</node>
	<node lat="59.89468555729733" lon="10.953259707919798" id="-28868">
		<tag k="fixme" v="consider place=hamlet" />
		<tag k="name" v="Skulerud" />
		<tag k="place" v="farm" />
		<tag k="ssr:stedsnr" v="855078" />
	</node>
	<node lat="59.86336666961883" lon="10.969766661714756" id="-28869">
		<tag k="alt_name" v="Drettvann" />
		<tag k="name" v="Drettvannet" />
		<tag k="natural" v="water" />
		<tag k="old_name" v="Dretvatn" />
		<tag k="ssr:stedsnr" v="854125" />
		<tag k="water" v="lake" />
	</node>
	<node lat="59.87714999875969" lon="10.909111114824249" id="-28870">
		<tag k="alt_name" v="Nordre Elvåga" />
		<tag k="name" v="Nord-Elvåga" />
		<tag k="natural" v="water" />
		<tag k="ssr:stedsnr" v="854169" />
		<tag k="water" v="lake" />
	</node>
	<node lat="59.875005557528574" lon="10.990749995603746" id="-28871">
		<tag k="alt_name" v="Sotue" />
		<tag k="name" v="Sotua" />
		<tag k="place" v="farm" />
		<tag k="ssr:stedsnr" v="854172" />
	</node>
	<node lat="59.87913333346902" lon="11.014755560397925" id="-28872">
		<tag k="alt_name" v="Gjerterudkampen" />
		<tag k="fixme" v="consider natural=peak for the most distinct mountains in the district" />
		<tag k="name" v="Geiterudfjellet" />
		<tag k="natural" v="hill" />
		<tag k="place" v="locality" />
		<tag k="ssr:stedsnr" v="854173" />
	</node>
	<node lat="59.90394444832942" lon="10.92194722562091" id="-28873">
		<tag k="fixme" v="consider natural=peak for the most distinct mountains in the district" />
		<tag k="name" v="Brennåsen" />
		<tag k="natural" v="hill" />
		<tag k="place" v="locality" />
		<tag k="ssr:stedsnr" v="873063" />
	</node>
	<node lat="59.8729777745528" lon="11.001883328880714" id="-28874">
		<tag k="fixme" v="consider natural=peak for the most distinct mountains in the district" />
		<tag k="name" v="Finnlandsåsen" />
		<tag k="natural" v="hill" />
		<tag k="place" v="locality" />
		<tag k="ssr:stedsnr" v="873067" />
	</node>
	<node lat="59.876977775585914" lon="10.98602777788576" id="-28875">
		<tag k="fixme" v="consider natural=peak for the most distinct mountains in the district" />
		<tag k="name" v="Løkkåsen" />
		<tag k="natural" v="hill" />
		<tag k="place" v="locality" />
		<tag k="ssr:stedsnr" v="873071" />
	</node>
	<node lat="59.94696944009291" lon="10.968541672011163" id="-28876">
		<tag k="fixme" v="consider natural=peak for the most distinct mountains in the district" />
		<tag k="name" v="Haneborgåsen" />
		<tag k="natural" v="hill" />
		<tag k="place" v="locality" />
		<tag k="ssr:stedsnr" v="873074" />
	</node>
	<node lat="59.91444721932888" lon="10.993902782962305" id="-28877">
		<tag k="name" v="Toppberget" />
		<tag k="natural" v="hill" />
		<tag k="place" v="locality" />
		<tag k="ssr:stedsnr" v="873045" />
	</node>
	<node lat="59.870358329371506" lon="10.979363880058145" id="-28878">
		<tag k="name" v="Veslekollen" />
		<tag k="natural" v="hill" />
		<tag k="place" v="locality" />
		<tag k="ssr:stedsnr" v="873055" />
	</node>
	<node lat="59.877019447867475" lon="11.004175006245612" id="-28879">
		<tag k="name" v="Putten" />
		<tag k="natural" v="water" />
		<tag k="ssr:stedsnr" v="873132" />
	</node>
	<node lat="59.909958337661614" lon="11.007822217523007" id="-28880">
		<tag k="fixme" v="consider natural=peak for the most distinct mountains in the district" />
		<tag k="name" v="Tordenås" />
		<tag k="natural" v="hill" />
		<tag k="place" v="locality" />
		<tag k="ssr:stedsnr" v="873083" />
	</node>
	<node lat="59.87265832992158" lon="11.011352771891545" id="-28881">
		<tag k="alt_name" v="Gjerterudlia" />
		<tag k="name" v="Gjertrudlia" />
		<tag k="natural" v="slope" />
		<tag k="place" v="locality" />
		<tag k="ssr:stedsnr" v="873092" />
	</node>
	<node lat="59.92394166879621" lon="10.971055553369252" id="-28882">
		<tag k="name" v="Søndre Nordli" />
		<tag k="place" v="farm" />
		<tag k="ssr:stedsnr" v="873096" />
	</node>
	<node lat="59.900722226253926" lon="10.989591672108105" id="-28883">
		<tag k="name" v="Bakkeruddalen" />
		<tag k="natural" v="valley" />
		<tag k="place" v="locality" />
		<tag k="ssr:stedsnr" v="873100" />
	</node>
	<node lat="59.90966111198441" lon="10.990800005681743" id="-28884">
		<tag k="name" v="Kleiva" />
		<tag k="natural" v="valley" />
		<tag k="place" v="locality" />
		<tag k="ssr:stedsnr" v="873102" />
	</node>
	<node lat="59.915844447438836" lon="10.97835832951976" id="-28885">
		<tag k="leisure" v="pitch" />
		<tag k="name" v="Neskollen skibakke" />
		<tag k="ssr:stedsnr" v="873613" />
	</node>
	<node lat="59.9291638931079" lon="10.964155551935102" id="-28886">
		<tag k="name" v="Skårås" />
		<tag k="place" v="locality" />
		<tag k="ssr:stedsnr" v="873637" />
	</node>
	<node lat="59.92808889188305" lon="10.938838883000136" id="-28887">
		<tag k="name" v="Bråten" />
		<tag k="place" v="locality" />
		<tag k="ssr:stedsnr" v="873638" />
	</node>
	<node lat="59.91387222021262" lon="10.944999998708877" id="-28888">
		<tag k="name" v="Ilajordet" />
		<tag k="place" v="hamlet" />
		<tag k="ssr:stedsnr" v="873857" />
	</node>
	<node lat="59.8559444474539" lon="10.97644721576863" id="-28889">
		<tag k="name" v="Høymyrholtet" />
		<tag k="place" v="locality" />
		<tag k="ssr:stedsnr" v="873871" />
	</node>
	<node lat="59.910097220246264" lon="11.000077772015759" id="-28890">
		<tag k="name" v="Tømmerholen" />
		<tag k="place" v="locality" />
		<tag k="ssr:stedsnr" v="873877" />
	</node>
	<node lat="59.8642388846783" lon="10.919402782902228" id="-28891">
		<tag k="name" v="Aslakstomta" />
		<tag k="place" v="locality" />
		<tag k="ssr:stedsnr" v="873880" />
	</node>
	<node lat="59.89987222172006" lon="11.004691673044166" id="-28892">
		<tag k="name" v="Odølingsmyra" />
		<tag k="natural" v="wetland" />
		<tag k="ssr:stedsnr" v="873890" />
	</node>
	<node lat="59.892913884594705" lon="10.925769439942234" id="-28893">
		<tag k="name" v="Kloppmyra" />
		<tag k="natural" v="wetland" />
		<tag k="ssr:stedsnr" v="873910" />
	</node>
	<node lat="59.86907777593463" lon="11.004844438649982" id="-28894">
		<tag k="name" v="Ospøya" />
		<tag k="place" v="island" />
		<tag k="ssr:stedsnr" v="873921" />
	</node>
	<node lat="59.948269446901136" lon="10.951241675159327" id="-28895">
		<tag k="name" v="Djupdalsbekken" />
		<tag k="ssr:stedsnr" v="873923" />
		<tag k="waterway" v="stream" />
	</node>
	<node lat="59.938163887458074" lon="10.99941666772951" id="-28896">
		<tag k="name" v="Vittenbergbekken" />
		<tag k="ssr:stedsnr" v="873925" />
		<tag k="waterway" v="stream" />
	</node>
	<node lat="59.91909999731442" lon="10.960308334889602" id="-28897">
		<tag k="amenity" v="community_centre" />
		<tag k="loc_name" v="Bøndenes hus" />
		<tag k="name" v="Bøndernes hus" />
		<tag k="ssr:stedsnr" v="873927" />
	</node>
	<node lat="59.88948333161821" lon="10.981827780135688" id="-28898">
		<tag k="name" v="Tomta" />
		<tag k="place" v="isolated_dwelling" />
		<tag k="ssr:stedsnr" v="873954" />
	</node>
	<node lat="59.88883055951609" lon="10.98319166199066" id="-28899">
		<tag k="name" v="Oppigard" />
		<tag k="place" v="locality" />
		<tag k="ssr:stedsnr" v="873969" />
	</node>
	<node lat="59.91848889047041" lon="10.952855555533496" id="-28900">
		<tag k="name" v="Triaden" />
		<tag k="place" v="quarter" />
		<tag k="ssr:stedsnr" v="873997" />
	</node>
	<node lat="59.942265025742074" lon="10.979778266865013" id="-28905">
		<tag k="amenity" v="place_of_worship" />
		<tag k="denomination" v="lutheran" />
		<tag k="name" v="Fjellhamar kirke" />
		<tag k="religion" v="christian" />
		<tag k="ssr:stedsnr" v="990993" />
	</node>
	<node lat="59.87199166517021" lon="10.976255743918411" id="-29191">
		<tag k="fixme" v="consider tourism=alpine_hut or tourism=chalet" />
		<tag k="name" v="Fiskelaushytta" />
		<tag k="ssr:stedsnr" v="1074880" />
		<tag k="tourism" v="wilderness_hut" />
	</node>
	<node lat="59.854513910416195" lon="10.92367251733058" id="-29194">
		<tag k="name" v="Skytten" />
		<tag k="place" v="locality" />
		<tag k="ssr:stedsnr" v="1076922" />
	</node>
	<node lat="59.85519903591345" lon="10.96827949538689" id="-29195">
		<tag k="fixme" v="consider boundary=protected_area and relevant protect_class if not nature reserve" />
		<tag k="leisure" v="nature_reserve" />
		<tag k="name" v="Tretjernhøla naturreservat" />
		<tag k="ssr:stedsnr" v="1078020" />
	</node>
	<node lat="59.91638808957415" lon="10.954698385052973" id="-29196">
		<tag k="amenity" v="kindergarten" />
		<tag k="name" v="Berger barnehage" />
		<tag k="ssr:stedsnr" v="1078235" />
	</node>
	<node lat="59.92514443340359" lon="10.954603877963576" id="-29197">
		<tag k="leisure" v="park" />
		<tag k="name" v="Skårerparken" />
		<tag k="ssr:stedsnr" v="1078321" />
	</node>
	<node lat="59.93804877923189" lon="10.979437126824415" id="-29200">
		<tag k="leisure" v="pitch" />
		<tag k="name" v="Fjellhamar arena" />
		<tag k="ssr:stedsnr" v="1081749" />
	</node>
</osm>
