<?xml version="1.0" encoding="UTF-8"?>
<<<<<<< HEAD
<osm version="0.6" generator="osmapis">
	<node lat="59.92330264517817" lon="11.003664393003747" id="-16049">
		<tag k="fixme" v="consider place=hamlet" />
		<tag k="name" v="Østby" />
=======
<osm generator="osmapis" version="0.6">
	<node id="-256508" lat="59.9248722259" lon="10.9304888917">
		<tag k="name" v="Røykås" />
		<tag k="place" v="quarter" />
		<tag k="ssr:stedsnr" v="283028" />
	</node>
	<node id="-256505" lat="59.8965556971" lon="10.9614163163">
		<tag k="fixme" v="consider place=hamlet" />
		<tag k="name" v="Sørbygda" />
		<tag k="place" v="village" />
		<tag k="ssr:stedsnr" v="162056" />
	</node>
	<node id="-257016" lat="59.8719916652" lon="10.9762557439">
		<tag k="fixme" v="consider tourism=alpine_hut or tourism=chalet" />
		<tag k="name" v="Fiskelaushytta" />
		<tag k="ssr:stedsnr" v="1074880" />
		<tag k="tourism" v="wilderness_hut" />
	</node>
	<node id="-256503" lat="59.9153583334" lon="10.9538416704">
		<tag k="name" v="Berger" />
		<tag k="place" v="farm" />
		<tag k="ssr:stedsnr" v="266959" />
	</node>
	<node id="-256502" lat="59.8503166648" lon="11.0095499911">
		<tag k="fixme" v="consider tourism=alpine_hut or tourism=chalet" />
		<tag k="name" v="Røyrivannskoia" />
		<tag k="ssr:stedsnr" v="266944" />
		<tag k="tourism" v="wilderness_hut" />
	</node>
	<node id="-256499" lat="59.9211583297" lon="11.0095944367">
		<tag k="name" v="Østbytajet" />
		<tag k="place" v="locality" />
		<tag k="ssr:stedsnr" v="266706" />
	</node>
	<node id="-256498" lat="59.9190527748" lon="10.985755554">
		<tag k="name" v="Bakken" />
		<tag k="place" v="locality" />
		<tag k="ssr:stedsnr" v="266664" />
	</node>
	<node id="-256497" lat="59.9118361111" lon="10.9485277762">
		<tag k="name" v="Søndre Vallerud" />
		<tag k="place" v="locality" />
		<tag k="ssr:stedsnr" v="266656" />
	</node>
	<node id="-256496" lat="59.8983638857" lon="10.9521138918">
		<tag k="name" v="Linderud" />
		<tag k="place" v="locality" />
		<tag k="ssr:stedsnr" v="266655" />
	</node>
	<node id="-256495" lat="59.8977916678" lon="10.9442805547">
		<tag k="name" v="Gamle Linderud" />
		<tag k="place" v="locality" />
		<tag k="ssr:stedsnr" v="266645" />
	</node>
	<node id="-256494" lat="59.9256416655" lon="11.0113861103">
		<tag k="name" v="Østbystua" />
		<tag k="place" v="farm" />
		<tag k="ssr:stedsnr" v="266630" />
	</node>
	<node id="-256489" lat="59.9229472254" lon="10.9881166599">
		<tag k="name" v="Øvre Røyri" />
		<tag k="place" v="farm" />
		<tag k="ssr:stedsnr" v="266077" />
	</node>
	<node id="-256999" lat="59.9455388861" lon="10.9520472206">
		<tag k="name" v="Ødegården" />
		<tag k="place" v="quarter" />
		<tag k="ssr:stedsnr" v="968134" />
	</node>
	<node id="-256486" lat="59.9095805543" lon="10.9661361028">
		<tag k="name" v="Finstadenga" />
		<tag k="place" v="farm" />
		<tag k="ssr:stedsnr" v="84974" />
	</node>
	<node id="-256485" lat="59.9236500039" lon="10.9826361151">
		<tag k="amenity" v="school" />
		<tag k="name" v="Hammer skole" />
		<tag k="ssr:stedsnr" v="84969" />
	</node>
	<node id="-256996" lat="59.9184888905" lon="10.9528555555">
		<tag k="name" v="Triaden" />
		<tag k="place" v="quarter" />
		<tag k="ssr:stedsnr" v="873997" />
	</node>
	<node id="-256481" lat="59.8902611081" lon="10.9122722274">
		<tag k="name" v="Brenninga" />
		<tag k="place" v="locality" />
		<tag k="ssr:stedsnr" v="84666" />
	</node>
	<node id="-256992" lat="59.9280888919" lon="10.938838883">
		<tag k="name" v="Bråten" />
		<tag k="place" v="locality" />
		<tag k="ssr:stedsnr" v="873638" />
	</node>
	<node id="-256991" lat="59.9291638931" lon="10.9641555519">
		<tag k="name" v="Skårås" />
		<tag k="place" v="locality" />
		<tag k="ssr:stedsnr" v="873637" />
	</node>
	<node id="-256986" lat="59.9239416688" lon="10.9710555534">
		<tag k="name" v="Søndre Nordli" />
		<tag k="place" v="farm" />
		<tag k="ssr:stedsnr" v="873096" />
	</node>
	<node id="-256471" lat="59.8941499977" lon="10.9893944511">
		<tag k="name" v="Steinbråtan" />
		<tag k="old_name" v="Steinbråten" />
		<tag k="place" v="isolated_dwelling" />
		<tag k="ssr:stedsnr" v="248077" />
	</node>
	<node id="-256469" lat="59.870288889" lon="10.9949805593">
		<tag k="name" v="Tangen" />
		<tag k="place" v="farm" />
		<tag k="ssr:stedsnr" v="247142" />
	</node>
	<node id="-256468" lat="59.9099250012" lon="10.9838722292">
		<tag k="name" v="Kirkerud" />
		<tag k="place" v="farm" />
		<tag k="ssr:stedsnr" v="247114" />
	</node>
	<node id="-256979" lat="59.9174861069" lon="10.9491249919">
		<tag k="name" v="Benterud" />
		<tag k="place" v="farm" />
		<tag k="ssr:stedsnr" v="854014" />
	</node>
	<node id="-256466" lat="59.9025555595" lon="10.985872229">
		<tag k="name" v="Juterud" />
		<tag k="place" v="farm" />
		<tag k="ssr:stedsnr" v="247061" />
	</node>
	<node id="-256977" lat="59.9361083345" lon="10.9664027784">
		<tag k="name" v="Fjellhamarskogen" />
		<tag k="place" v="quarter" />
		<tag k="ssr:stedsnr" v="830044" />
	</node>
	<node id="-256464" lat="59.9271409535" lon="10.9260817625">
		<tag k="fixme" v="consider place=hamlet" />
		<tag k="name" v="Lysås" />
		<tag k="place" v="farm" />
		<tag k="ssr:stedsnr" v="247015" />
	</node>
	<node id="-256975" lat="59.9200666706" lon="10.9518361065">
		<tag k="name" v="Skårer vest" />
		<tag k="place" v="quarter" />
		<tag k="ssr:stedsnr" v="813000" />
	</node>
	<node id="-256974" lat="59.9047305559" lon="10.9525944392">
		<tag k="name" v="Søndre Hauger" />
		<tag k="place" v="farm" />
		<tag k="ssr:stedsnr" v="812988" />
	</node>
	<node id="-256973" lat="59.8968416655" lon="10.9584277798">
		<tag k="name" v="Vålerenga" />
		<tag k="place" v="farm" />
		<tag k="ssr:stedsnr" v="812987" />
	</node>
	<node id="-256972" lat="59.9239249995" lon="10.9939361169">
		<tag k="name" v="Østheim" />
		<tag k="place" v="farm" />
		<tag k="ssr:stedsnr" v="812985" />
	</node>
	<node id="-256971" lat="59.9356166669" lon="11.0034388871">
		<tag k="name" v="Sletten" />
		<tag k="place" v="farm" />
		<tag k="ssr:stedsnr" v="812983" />
	</node>
	<node id="-256970" lat="59.9194222179" lon="10.9977499993">
		<tag k="name" v="Store Stensrud" />
		<tag k="place" v="farm" />
		<tag k="ssr:stedsnr" v="812981" />
	</node>
	<node id="-256969" lat="59.8990527742" lon="10.9685611112">
		<tag k="name" v="Vålerhagan" />
		<tag k="place" v="farm" />
		<tag k="ssr:stedsnr" v="812977" />
	</node>
	<node id="-256968" lat="59.8549249961" lon="11.0011138932">
		<tag k="historic" v="shieling" />
		<tag k="name" v="Feiringsetra" />
		<tag k="place" v="locality" />
		<tag k="ssr:stedsnr" v="812958" />
	</node>
	<node id="-256967" lat="59.9244249975" lon="10.9980249946">
		<tag k="amenity" v="nursing_home" />
		<tag k="name" v="Østbytunet behandlingshjem" />
		<tag k="ssr:stedsnr" v="812951" />
	</node>
	<node id="-256454" lat="59.9106027782" lon="10.918605557">
		<tag k="name" v="Bjørndalen" />
		<tag k="place" v="hamlet" />
		<tag k="ssr:stedsnr" v="222037" />
	</node>
	<node id="-256453" lat="59.9117944411" lon="10.9610111162">
		<tag k="name" v="Finstad" />
		<tag k="place" v="quarter" />
		<tag k="ssr:stedsnr" v="222031" />
	</node>
	<node id="-256963" lat="59.9290250034" lon="10.9874250004">
		<tag k="name" v="Torshovbråten" />
		<tag k="place" v="locality" />
		<tag k="ssr:stedsnr" v="812697" />
	</node>
	<node id="-256962" lat="59.9243500019" lon="10.9479805508">
		<tag k="leisure" v="pitch" />
		<tag k="name" v="Rolvsrud idrettsplass" />
		<tag k="ssr:stedsnr" v="812675" />
	</node>
	<node id="-256961" lat="59.905305554" lon="10.9427472214">
		<tag k="name" v="Bekkensten" />
		<tag k="place" v="locality" />
		<tag k="ssr:stedsnr" v="812666" />
	</node>
	<node id="-256949" lat="59.9141499992" lon="10.9504499933">
		<tag k="name" v="Vallerud" />
>>>>>>> e1d4bc35ff8a6074a6f2e91616a996b547c36f15
		<tag k="place" v="farm" />
		<tag k="ssr:stedsnr" v="4018" />
	</node>
<<<<<<< HEAD
	<node lat="59.92647777597508" lon="10.981694448023951" id="-16053">
		<tag k="name" v="Nordre Hammer" />
=======
	<node id="-256946" lat="59.9267027761" lon="11.0131805529">
		<tag k="name" v="Hovelsrudstua" />
>>>>>>> e1d4bc35ff8a6074a6f2e91616a996b547c36f15
		<tag k="place" v="farm" />
		<tag k="ssr:stedsnr" v="23083" />
	</node>
<<<<<<< HEAD
	<node lat="59.901713884577845" lon="10.9280333354069" id="-16056">
		<tag k="name" v="Toresrud" />
		<tag k="place" v="locality" />
		<tag k="ssr:stedsnr" v="23704" />
	</node>
	<node lat="59.91097777377259" lon="10.985436111014135" id="-16062">
		<tag k="name" v="Nordre Kirkerud" />
=======
	<node id="-256945" lat="59.9107899246" lon="10.9183704548">
		<tag k="name" v="Bjørndalen" />
>>>>>>> e1d4bc35ff8a6074a6f2e91616a996b547c36f15
		<tag k="place" v="farm" />
		<tag k="ssr:stedsnr" v="23979" />
	</node>
<<<<<<< HEAD
	<node lat="59.911108330327416" lon="10.922530561969586" id="-16063">
		<tag k="alt_name" v="Elvågasæter" />
		<tag k="name" v="Elvågaseter" />
		<tag k="place" v="farm" />
		<tag k="ssr:stedsnr" v="65079" />
	</node>
	<node lat="59.90797777540463" lon="10.942677785462834" id="-16064">
		<tag k="name" v="Frydenberg" />
=======
	<node id="-256944" lat="59.9121472212" lon="10.9257861148">
		<tag k="name" v="Ekerud" />
>>>>>>> e1d4bc35ff8a6074a6f2e91616a996b547c36f15
		<tag k="place" v="isolated_dwelling" />
		<tag k="ssr:stedsnr" v="65108" />
	</node>
<<<<<<< HEAD
	<node lat="59.91316308771121" lon="10.986101174603947" id="-16065">
		<tag k="fixme" v="consider place=hamlet" />
		<tag k="name" v="Bjørnholt" />
=======
	<node id="-256943" lat="59.9366999974" lon="11.0081861035">
		<tag k="name" v="Bårli" />
>>>>>>> e1d4bc35ff8a6074a6f2e91616a996b547c36f15
		<tag k="place" v="farm" />
		<tag k="ssr:stedsnr" v="65112" />
	</node>
<<<<<<< HEAD
	<node lat="59.911208332095114" lon="10.971852775617164" id="-16076">
		<tag k="name" v="Feiringhagan" />
		<tag k="place" v="farm" />
		<tag k="ssr:stedsnr" v="84977" />
	</node>
	<node lat="59.87028888904111" lon="10.994980559332506" id="-16077">
		<tag k="name" v="Tangen" />
		<tag k="place" v="farm" />
		<tag k="ssr:stedsnr" v="247142" />
	</node>
	<node lat="59.891908331367176" lon="10.95372499352956" id="-16084">
		<tag k="name" v="Dalbakk" />
		<tag k="place" v="isolated_dwelling" />
		<tag k="ssr:stedsnr" v="126083" />
	</node>
	<node lat="59.91725833414449" lon="10.931736116358644" id="-16088">
		<tag k="name" v="Øvre Rasta" />
=======
	<node id="-256940" lat="59.9157611134" lon="10.9393861152">
		<tag k="name" v="Vallerud" />
>>>>>>> e1d4bc35ff8a6074a6f2e91616a996b547c36f15
		<tag k="place" v="quarter" />
		<tag k="ssr:stedsnr" v="144995" />
	</node>
<<<<<<< HEAD
	<node lat="59.896555697149196" lon="10.9614163162676" id="-16089">
		<tag k="fixme" v="consider place=hamlet" />
		<tag k="name" v="Sørbygda" />
		<tag k="place" v="village" />
		<tag k="ssr:stedsnr" v="162056" />
	</node>
	<node lat="59.92568055777097" lon="10.931697224619226" id="-16092">
		<tag k="fixme" v="consider place=suburb, village or hamlet" />
		<tag k="name" v="Røykås" />
=======
	<node id="-256939" lat="59.9344972211" lon="10.9971972153">
		<tag k="name" v="Nordby" />
>>>>>>> e1d4bc35ff8a6074a6f2e91616a996b547c36f15
		<tag k="place" v="quarter" />
		<tag k="ssr:stedsnr" v="186007" />
	</node>
<<<<<<< HEAD
	<node lat="59.89576961091647" lon="10.962379584310447" id="-16095">
		<tag k="fixme" v="consider place=hamlet" />
		<tag k="name" v="Våler" />
=======
	<node id="-256938" lat="59.9105527782" lon="10.9785472256">
		<tag k="name" v="Nedre Feiring" />
>>>>>>> e1d4bc35ff8a6074a6f2e91616a996b547c36f15
		<tag k="place" v="farm" />
		<tag k="ssr:stedsnr" v="187080" />
	</node>
<<<<<<< HEAD
	<node lat="59.92294722538435" lon="10.988116659904938" id="-16097">
		<tag k="name" v="Øvre Røyri" />
		<tag k="place" v="farm" />
		<tag k="ssr:stedsnr" v="266077" />
	</node>
	<node lat="59.925641665489685" lon="11.011386110309813" id="-16098">
		<tag k="name" v="Østbystua" />
		<tag k="place" v="farm" />
		<tag k="ssr:stedsnr" v="266630" />
	</node>
	<node lat="59.89836388568948" lon="10.952113891843558" id="-16099">
		<tag k="name" v="Linderud" />
		<tag k="place" v="locality" />
		<tag k="ssr:stedsnr" v="266655" />
	</node>
	<node lat="59.91183611106818" lon="10.948527776222104" id="-16100">
		<tag k="name" v="Søndre Vallerud" />
		<tag k="place" v="locality" />
		<tag k="ssr:stedsnr" v="266656" />
	</node>
	<node lat="59.91905277479761" lon="10.985755554029286" id="-16101">
		<tag k="name" v="Bakken" />
		<tag k="place" v="locality" />
		<tag k="ssr:stedsnr" v="266664" />
	</node>
	<node lat="59.91535833342488" lon="10.953841670357345" id="-16103">
		<tag k="name" v="Berger" />
		<tag k="place" v="farm" />
		<tag k="ssr:stedsnr" v="266959" />
	</node>
	<node lat="59.89538333378279" lon="10.967663893541072" id="-16104">
		<tag k="name" v="Østre Våler" />
		<tag k="place" v="farm" />
		<tag k="ssr:stedsnr" v="266971" />
	</node>
	<node lat="59.92482499642019" lon="10.996991672122887" id="-16107">
		<tag k="name" v="Lille Østby" />
=======
	<node id="-256937" lat="59.9166777735" lon="11.0050888885">
		<tag k="name" v="Stensrudbråten" />
		<tag k="place" v="isolated_dwelling" />
		<tag k="ssr:stedsnr" v="751972" />
	</node>
	<node id="-256936" lat="59.8507944478" lon="10.982772225">
		<tag k="name" v="Skålsjøhytta" />
		<tag k="place" v="isolated_dwelling" />
		<tag k="ssr:stedsnr" v="751971" />
	</node>
	<node id="-256935" lat="59.9237805523" lon="10.9664749944">
		<tag k="amenity" v="school" />
		<tag k="name" v="Åsen skole" />
		<tag k="old_name" v="Nordliåsen skole" />
		<tag k="ssr:stedsnr" v="751958" />
	</node>
	<node id="-256930" lat="59.9281222182" lon="10.9343805601">
		<tag k="name" v="Svingen" />
		<tag k="place" v="hamlet" />
		<tag k="ssr:stedsnr" v="751899" />
	</node>
	<node id="-256929" lat="59.9237194461" lon="10.9345361194">
		<tag k="name" v="Østlia" />
		<tag k="place" v="hamlet" />
		<tag k="ssr:stedsnr" v="751897" />
	</node>
	<node id="-256928" lat="59.9346722199" lon="10.9777527723">
		<tag k="name" v="Tynes" />
>>>>>>> e1d4bc35ff8a6074a6f2e91616a996b547c36f15
		<tag k="place" v="hamlet" />
		<tag k="ssr:stedsnr" v="205894" />
	</node>
<<<<<<< HEAD
	<node lat="59.927132356385755" lon="10.925803924545432" id="-16109">
		<tag k="fixme" v="consider place=hamlet" />
		<tag k="name" v="Lysås" />
		<tag k="place" v="farm" />
		<tag k="ssr:stedsnr" v="247015" />
	</node>
	<node lat="59.902555559464034" lon="10.985872229006794" id="-16111">
		<tag k="name" v="Juterud" />
=======
	<node id="-256927" lat="59.9168055599" lon="10.9953111071">
		<tag k="name" v="Røyribråtan" />
		<tag k="place" v="locality" />
		<tag k="ssr:stedsnr" v="751693" />
	</node>
	<node id="-256922" lat="59.9243222182" lon="10.9826027797">
		<tag k="name" v="Søndre Hammer" />
>>>>>>> e1d4bc35ff8a6074a6f2e91616a996b547c36f15
		<tag k="place" v="farm" />
		<tag k="ssr:stedsnr" v="247061" />
	</node>
<<<<<<< HEAD
	<node lat="59.90986002366417" lon="10.984562630502495" id="-16112">
		<tag k="fixme" v="consider place=hamlet" />
		<tag k="name" v="Kirkerud" />
		<tag k="place" v="farm" />
		<tag k="ssr:stedsnr" v="247114" />
	</node>
	<node lat="59.89414999771329" lon="10.989394451084966" id="-16113">
		<tag k="name" v="Steinbråtan" />
		<tag k="old_name" v="Steinbråten" />
		<tag k="place" v="isolated_dwelling" />
		<tag k="ssr:stedsnr" v="248077" />
	</node>
	<node lat="59.897791667829964" lon="10.944280554710396" id="-16118">
		<tag k="name" v="Gamle Linderud" />
		<tag k="place" v="locality" />
		<tag k="ssr:stedsnr" v="266645" />
	</node>
	<node lat="59.921158329734645" lon="11.009594436653277" id="-16119">
		<tag k="name" v="Østbytajet" />
		<tag k="place" v="locality" />
		<tag k="ssr:stedsnr" v="266706" />
	</node>
	<node lat="59.85031666477338" lon="11.009549991132534" id="-16121">
		<tag k="fixme" v="consider tourism=alpine_hut or tourism=chalet" />
		<tag k="name" v="Røyrivannskoia" />
		<tag k="ssr:stedsnr" v="266944" />
		<tag k="tourism" v="wilderness_hut" />
	</node>
	<node lat="59.91316944613992" lon="10.97543610578302" id="-16122">
		<tag k="name" v="Nesåsen" />
=======
	<node id="-256920" lat="59.9387444479" lon="11.0054555541">
		<tag k="name" v="Bårlibakken" />
		<tag k="place" v="quarter" />
		<tag k="ssr:stedsnr" v="751666" />
	</node>
	<node id="-256917" lat="59.9340027807" lon="11.0231222164">
		<tag k="name" v="Kurland" />
		<tag k="place" v="quarter" />
		<tag k="ssr:stedsnr" v="647041" />
	</node>
	<node id="-256916" lat="59.9333805525" lon="10.9786777821">
		<tag k="name" v="Bensen" />
>>>>>>> e1d4bc35ff8a6074a6f2e91616a996b547c36f15
		<tag k="place" v="quarter" />
		<tag k="ssr:stedsnr" v="465029" />
	</node>
<<<<<<< HEAD
	<node lat="59.93410555782425" lon="10.996977783950323" id="-16123">
		<tag k="fixme" v="consider place=hamlet" />
		<tag k="name" v="Nordbygda" />
		<tag k="place" v="village" />
		<tag k="ssr:stedsnr" v="465049" />
	</node>
	<node lat="59.9263722191036" lon="10.9987944509781" id="-16124">
		<tag k="name" v="Østbyenga" />
		<tag k="place" v="farm" />
		<tag k="ssr:stedsnr" v="308006" />
	</node>
	<node lat="59.92437234297952" lon="10.971907589137874" id="-16125">
		<tag k="fixme" v="consider place=hamlet" />
		<tag k="name" v="Nordli" />
		<tag k="place" v="farm" />
		<tag k="ssr:stedsnr" v="308013" />
	</node>
	<node lat="59.91620277792708" lon="11.000069451916346" id="-16131">
		<tag k="name" v="Nybakk" />
		<tag k="place" v="locality" />
		<tag k="ssr:stedsnr" v="327626" />
	</node>
	<node lat="59.90119444552138" lon="10.986194452943552" id="-16134">
		<tag k="name" v="Myra" />
		<tag k="place" v="farm" />
		<tag k="ssr:stedsnr" v="327969" />
	</node>
	<node lat="59.92048611451781" lon="10.938549999677903" id="-16136">
=======
	<node id="-256914" lat="59.9296916695" lon="10.9586472162">
		<tag k="amenity" v="school" />
		<tag k="name" v="Kjenn skole" />
		<tag k="ssr:stedsnr" v="630943" />
	</node>
	<node id="-256913" lat="59.9321388868" lon="10.9918249941">
		<tag k="amenity" v="school" />
		<tag k="name" v="Røde Kors sykepleieskole" />
		<tag k="ssr:stedsnr" v="630941" />
	</node>
	<node id="-256912" lat="59.9224722218" lon="10.9674944496">
>>>>>>> e1d4bc35ff8a6074a6f2e91616a996b547c36f15
		<tag k="amenity" v="school" />
		<tag k="name" v="Rasta skole" />
		<tag k="ssr:stedsnr" v="327923" />
	</node>
<<<<<<< HEAD
	<node lat="59.86916944390786" lon="10.951605559356747" id="-16137">
		<tag k="historic" v="shieling" />
		<tag k="name" v="Ryensetra" />
		<tag k="place" v="isolated_dwelling" />
		<tag k="ssr:stedsnr" v="327929" />
	</node>
	<node lat="59.91741944054523" lon="10.96329167205359" id="-16138">
		<tag k="name" v="Løken" />
		<tag k="place" v="quarter" />
		<tag k="ssr:stedsnr" v="343041" />
	</node>
	<node lat="59.9459303082974" lon="10.958293401098654" id="-16139">
		<tag k="name" v="Steinerud" />
		<tag k="place" v="locality" />
		<tag k="ssr:stedsnr" v="368047" />
	</node>
	<node lat="59.917319202676175" lon="10.961425337384634" id="-16140">
		<tag k="fixme" v="consider place=hamlet" />
		<tag k="name" v="Løken" />
=======
	<node id="-256900" lat="59.9083833295" lon="10.9704583254">
		<tag k="name" v="Feiring" />
>>>>>>> e1d4bc35ff8a6074a6f2e91616a996b547c36f15
		<tag k="place" v="farm" />
		<tag k="ssr:stedsnr" v="369115" />
	</node>
<<<<<<< HEAD
	<node lat="59.84480555173199" lon="11.024288890330595" id="-16143">
		<tag k="name" v="Kustinta" />
		<tag k="place" v="locality" />
		<tag k="ssr:stedsnr" v="387658" />
	</node>
	<node lat="59.902416663497625" lon="10.987519450328202" id="-16144">
		<tag k="name" v="Sanderud" />
		<tag k="place" v="locality" />
		<tag k="ssr:stedsnr" v="387662" />
	</node>
	<node lat="59.91933333712549" lon="11.002511110874076" id="-16145">
		<tag k="name" v="Lille Stensrud" />
		<tag k="place" v="locality" />
		<tag k="ssr:stedsnr" v="387663" />
	</node>
	<node lat="59.87071388625199" lon="10.994855555222758" id="-16152">
		<tag k="name" v="Nordre Tangen" />
=======
	<node id="-256899" lat="59.9116111079" lon="10.9643500002">
		<tag k="name" v="Finstad" />
>>>>>>> e1d4bc35ff8a6074a6f2e91616a996b547c36f15
		<tag k="place" v="farm" />
		<tag k="ssr:stedsnr" v="387964" />
	</node>
<<<<<<< HEAD
	<node lat="59.91869166974861" lon="11.001208326571053" id="-16153">
		<tag k="name" v="Nordli" />
=======
	<node id="-256898" lat="59.9069972184" lon="10.9252722236">
		<tag k="name" v="Jonsrud" />
>>>>>>> e1d4bc35ff8a6074a6f2e91616a996b547c36f15
		<tag k="place" v="isolated_dwelling" />
		<tag k="ssr:stedsnr" v="387965" />
	</node>
<<<<<<< HEAD
	<node lat="59.89526944826347" lon="10.971244448238442" id="-16154">
		<tag k="name" v="Morkbråten" />
		<tag k="place" v="farm" />
		<tag k="ssr:stedsnr" v="387974" />
	</node>
	<node lat="59.92818888980653" lon="10.993758332611321" id="-16155">
		<tag k="name" v="Bredde" />
=======
	<node id="-256895" lat="59.9416666626" lon="10.9893777838">
		<tag k="alt_name" v="Fjellhammer Brug;Fjeldhammer Brug" />
		<tag k="name" v="Fjellhammer bruk" />
>>>>>>> e1d4bc35ff8a6074a6f2e91616a996b547c36f15
		<tag k="place" v="quarter" />
		<tag k="ssr:stedsnr" v="387996" />
	</node>
<<<<<<< HEAD
	<node lat="59.93204721909259" lon="11.019886102472672" id="-16160">
		<tag k="name" v="Kuland" />
		<tag k="place" v="farm" />
		<tag k="ssr:stedsnr" v="429002" />
	</node>
	<node lat="59.90592943516031" lon="10.960160443857808" id="-16163">
		<tag k="fixme" v="consider place=hamlet" />
		<tag k="name" v="Rud" />
=======
	<node id="-256894" lat="59.9337472262" lon="10.9998499997">
		<tag k="name" v="Nordheim" />
		<tag k="place" v="farm" />
		<tag k="ssr:stedsnr" v="569981" />
	</node>
	<node id="-256893" lat="59.8972388898" lon="10.9692000044">
		<tag k="name" v="Heia" />
		<tag k="place" v="isolated_dwelling" />
		<tag k="ssr:stedsnr" v="569949" />
	</node>
	<node id="-256892" lat="59.8688444458" lon="10.996230549">
		<tag k="name" v="Søndre Tangen" />
>>>>>>> e1d4bc35ff8a6074a6f2e91616a996b547c36f15
		<tag k="place" v="farm" />
		<tag k="ssr:stedsnr" v="430069" />
	</node>
<<<<<<< HEAD
	<node lat="59.92533611100986" lon="10.983927773467489" id="-16165">
		<tag k="name" v="Mellom-Hammer" />
=======
	<node id="-256891" lat="59.8922083367" lon="10.9590055566">
		<tag k="name" v="Vesle Dalbakk" />
>>>>>>> e1d4bc35ff8a6074a6f2e91616a996b547c36f15
		<tag k="place" v="farm" />
		<tag k="ssr:stedsnr" v="448078" />
	</node>
<<<<<<< HEAD
	<node lat="59.906569443800414" lon="10.952022214169842" id="-16174">
		<tag k="name" v="Nordre Hauger" />
		<tag k="place" v="farm" />
		<tag k="ssr:stedsnr" v="448983" />
	</node>
	<node lat="59.93075555638792" lon="10.967877784964475" id="-16175">
		<tag k="name" v="Knatten" />
=======
	<node id="-256886" lat="59.9238666662" lon="10.9953944439">
		<tag k="name" v="Sørli" />
		<tag k="place" v="isolated_dwelling" />
		<tag k="ssr:stedsnr" v="569849" />
	</node>
	<node id="-256883" lat="59.9285583342" lon="11.0073749993">
		<tag k="name" v="Nordre Hovelsrud" />
>>>>>>> e1d4bc35ff8a6074a6f2e91616a996b547c36f15
		<tag k="place" v="farm" />
		<tag k="ssr:stedsnr" v="448993" />
	</node>
<<<<<<< HEAD
	<node lat="59.916544440269476" lon="10.94960833246276" id="-16176">
		<tag k="name" v="Løkenhagen" />
		<tag k="place" v="hamlet" />
		<tag k="ssr:stedsnr" v="448995" />
	</node>
	<node lat="59.93896389182736" lon="10.991952782054463" id="-16177">
		<tag k="name" v="Blåkollen" />
		<tag k="place" v="quarter" />
		<tag k="ssr:stedsnr" v="448996" />
	</node>
	<node lat="59.93566388842744" lon="10.934858335167695" id="-16178">
		<tag k="name" v="Robsrudenga" />
		<tag k="place" v="quarter" />
		<tag k="ssr:stedsnr" v="448998" />
	</node>
	<node lat="59.93799166912453" lon="10.978577772631812" id="-16179">
		<tag k="name" v="Fjellsrud" />
		<tag k="place" v="quarter" />
		<tag k="ssr:stedsnr" v="449000" />
	</node>
	<node lat="59.93005525795339" lon="10.982242372410647" id="-16183">
		<tag k="fixme" v="consider place=hamlet" />
		<tag k="name" v="Torshov" />
=======
	<node id="-256875" lat="59.9054916628" lon="10.9533472297">
		<tag k="name" v="Hauger" />
>>>>>>> e1d4bc35ff8a6074a6f2e91616a996b547c36f15
		<tag k="place" v="farm" />
		<tag k="ssr:stedsnr" v="489017" />
	</node>
<<<<<<< HEAD
	<node lat="59.93007499653758" lon="11.030252786219704" id="-16184">
		<tag k="name" v="Sandbekken" />
=======
	<node id="-256487" lat="59.9112083321" lon="10.9718527756">
		<tag k="name" v="Feiringhagan" />
		<tag k="place" v="farm" />
		<tag k="ssr:stedsnr" v="84977" />
	</node>
	<node id="-256872" lat="59.8738055533" lon="10.9977500031">
		<tag k="name" v="Finnland" />
>>>>>>> e1d4bc35ff8a6074a6f2e91616a996b547c36f15
		<tag k="place" v="isolated_dwelling" />
		<tag k="ssr:stedsnr" v="490003" />
	</node>
<<<<<<< HEAD
	<node lat="59.913294440647896" lon="10.983341672058433" id="-16188">
		<tag k="name" v="Bomma" />
		<tag k="place" v="locality" />
		<tag k="ssr:stedsnr" v="509621" />
	</node>
	<node lat="59.91712499678659" lon="10.992644450113767" id="-16189">
		<tag k="name" v="Røyrihagan" />
		<tag k="place" v="locality" />
		<tag k="ssr:stedsnr" v="509624" />
	</node>
	<node lat="59.935672218270845" lon="11.002052772204198" id="-16190">
		<tag k="name" v="Haugen" />
		<tag k="place" v="locality" />
		<tag k="ssr:stedsnr" v="509627" />
	</node>
	<node lat="59.9001527769243" lon="10.968188886147283" id="-16192">
		<tag k="amenity" v="school" />
		<tag k="name" v="Fredheim skole" />
		<tag k="ssr:stedsnr" v="509930" />
	</node>
	<node lat="59.91087499761539" lon="10.920158325463696" id="-16193">
		<tag k="name" v="Nyborg" />
=======
	<node id="-256869" lat="59.9045833305" lon="10.9407166739">
		<tag k="name" v="Høgda" />
		<tag k="place" v="isolated_dwelling" />
		<tag k="ssr:stedsnr" v="550088" />
	</node>
	<node id="-256867" lat="59.9254920163" lon="10.9813172693">
		<tag k="fixme" v="consider place=hamlet" />
		<tag k="name" v="Hammar" />
		<tag k="place" v="farm" />
		<tag k="ssr:stedsnr" v="550016" />
	</node>
	<node id="-256866" lat="59.9322750013" lon="11.0056833393">
		<tag k="name" v="Plåterud" />
>>>>>>> e1d4bc35ff8a6074a6f2e91616a996b547c36f15
		<tag k="place" v="farm" />
		<tag k="ssr:stedsnr" v="509982" />
	</node>
<<<<<<< HEAD
	<node lat="59.933752781086284" lon="10.994666670078868" id="-16194">
		<tag k="name" v="Nordbyhagen" />
=======
	<node id="-256865" lat="59.9318111139" lon="10.936338882">
		<tag k="fixme" v="consider place=suburb, village or hamlet" />
		<tag k="name" v="Visperud" />
>>>>>>> e1d4bc35ff8a6074a6f2e91616a996b547c36f15
		<tag k="place" v="quarter" />
		<tag k="ssr:stedsnr" v="526030" />
	</node>
<<<<<<< HEAD
	<node lat="59.928055555120245" lon="10.955102781522692" id="-16196">
=======
	<node id="-256864" lat="59.9280555551" lon="10.9551027815">
>>>>>>> e1d4bc35ff8a6074a6f2e91616a996b547c36f15
		<tag k="name" v="Solheim" />
		<tag k="place" v="isolated_dwelling" />
		<tag k="ssr:stedsnr" v="550009" />
	</node>
<<<<<<< HEAD
	<node lat="59.93181111393582" lon="10.936338881998681" id="-16197">
		<tag k="fixme" v="consider place=suburb, village or hamlet" />
		<tag k="name" v="Visperud" />
=======
	<node id="-256861" lat="59.9059083299" lon="10.9599972174">
		<tag k="name" v="Rud" />
		<tag k="place" v="farm" />
		<tag k="ssr:stedsnr" v="430069" />
	</node>
	<node id="-256854" lat="59.939763892" lon="10.9970138816">
		<tag k="name" v="Vittenberg" />
		<tag k="place" v="quarter" />
		<tag k="ssr:stedsnr" v="404041" />
	</node>
	<node id="-256853" lat="59.9281277761" lon="10.9534388873">
		<tag k="name" v="Lørenskog sentrum" />
		<tag k="place" v="quarter" />
		<tag k="ssr:stedsnr" v="404035" />
	</node>
	<node id="-256852" lat="59.9281888898" lon="10.9937583326">
		<tag k="name" v="Bredde" />
>>>>>>> e1d4bc35ff8a6074a6f2e91616a996b547c36f15
		<tag k="place" v="quarter" />
		<tag k="ssr:stedsnr" v="550011" />
	</node>
<<<<<<< HEAD
	<node lat="59.93257127820149" lon="11.005507778644661" id="-16198">
=======
	<node id="-256844" lat="59.9175726305" lon="10.9614711534">
>>>>>>> e1d4bc35ff8a6074a6f2e91616a996b547c36f15
		<tag k="fixme" v="consider place=hamlet" />
		<tag k="name" v="Plåterud" />
		<tag k="place" v="farm" />
		<tag k="ssr:stedsnr" v="550014" />
	</node>
<<<<<<< HEAD
	<node lat="59.92549201633864" lon="10.98131726928908" id="-16199">
		<tag k="fixme" v="consider place=hamlet" />
		<tag k="name" v="Hammar" />
=======
	<node id="-256843" lat="59.886738158" lon="10.9829969605">
		<tag k="name" v="Losby" />
>>>>>>> e1d4bc35ff8a6074a6f2e91616a996b547c36f15
		<tag k="place" v="farm" />
		<tag k="ssr:stedsnr" v="550016" />
	</node>
<<<<<<< HEAD
	<node lat="59.91598333735877" lon="10.996358337126443" id="-16212">
		<tag k="name" v="Nordal" />
=======
	<node id="-256842" lat="59.9459303083" lon="10.9582934011">
		<tag k="name" v="Steinerud" />
>>>>>>> e1d4bc35ff8a6074a6f2e91616a996b547c36f15
		<tag k="place" v="locality" />
		<tag k="ssr:stedsnr" v="691649" />
	</node>
<<<<<<< HEAD
	<node lat="59.93766944753344" lon="10.988897224527937" id="-16213">
		<tag k="name" v="Lørdagsrud" />
		<tag k="place" v="locality" />
		<tag k="ssr:stedsnr" v="691662" />
	</node>
	<node lat="59.87993610707613" lon="10.988422214856257" id="-16217">
		<tag k="name" v="Sandstykket" />
		<tag k="place" v="farm" />
		<tag k="ssr:stedsnr" v="691950" />
	</node>
	<node lat="59.89571389082236" lon="10.960155560709982" id="-16218">
		<tag k="name" v="Vestre Våler" />
=======
	<node id="-256841" lat="59.9174194405" lon="10.9632916721">
		<tag k="name" v="Løken" />
		<tag k="place" v="quarter" />
		<tag k="ssr:stedsnr" v="343041" />
	</node>
	<node id="-256840" lat="59.9324305581" lon="10.9296749988">
		<tag k="name" v="Visperud" />
		<tag k="place" v="quarter" />
		<tag k="ssr:stedsnr" v="343035" />
	</node>
	<node id="-256839" lat="59.9207333319" lon="10.9859638847">
		<tag k="name" v="Søndre Røyri" />
>>>>>>> e1d4bc35ff8a6074a6f2e91616a996b547c36f15
		<tag k="place" v="farm" />
		<tag k="ssr:stedsnr" v="691961" />
	</node>
<<<<<<< HEAD
	<node lat="59.92855833424194" lon="11.007374999336138" id="-16223">
		<tag k="name" v="Nordre Hovelsrud" />
=======
	<node id="-256838" lat="59.9011944455" lon="10.9861944529">
		<tag k="name" v="Myra" />
>>>>>>> e1d4bc35ff8a6074a6f2e91616a996b547c36f15
		<tag k="place" v="farm" />
		<tag k="ssr:stedsnr" v="569636" />
	</node>
<<<<<<< HEAD
	<node lat="59.91987705884672" lon="10.958142667072957" id="-16230">
		<tag k="fixme" v="consider place=hamlet" />
		<tag k="name" v="Skårer" />
=======
	<node id="-256837" lat="59.8975249961" lon="10.9682861094">
		<tag k="name" v="Grinda" />
>>>>>>> e1d4bc35ff8a6074a6f2e91616a996b547c36f15
		<tag k="place" v="farm" />
		<tag k="ssr:stedsnr" v="611015" />
	</node>
<<<<<<< HEAD
	<node lat="59.91161560643018" lon="10.964337441898088" id="-16231">
		<tag k="fixme" v="consider place=hamlet" />
		<tag k="name" v="Finstad" />
=======
	<node id="-256836" lat="59.8924944486" lon="10.9829972263">
		<tag k="name" v="Grytehaugen" />
>>>>>>> e1d4bc35ff8a6074a6f2e91616a996b547c36f15
		<tag k="place" v="farm" />
		<tag k="ssr:stedsnr" v="611111" />
	</node>
<<<<<<< HEAD
	<node lat="59.908395254445075" lon="10.969689977140346" id="-16232">
		<tag k="fixme" v="consider place=hamlet" />
		<tag k="name" v="Feiring" />
=======
	<node id="-256835" lat="59.9000527823" lon="10.9868472156">
		<tag k="name" v="Kirkerudbråten" />
>>>>>>> e1d4bc35ff8a6074a6f2e91616a996b547c36f15
		<tag k="place" v="farm" />
		<tag k="ssr:stedsnr" v="611113" />
	</node>
<<<<<<< HEAD
	<node lat="59.90699721843193" lon="10.925272223633863" id="-16233">
		<tag k="name" v="Jonsrud" />
		<tag k="place" v="isolated_dwelling" />
		<tag k="ssr:stedsnr" v="611080" />
	</node>
	<node lat="59.93213888680249" lon="10.991824994055241" id="-16246">
		<tag k="amenity" v="school" />
		<tag k="name" v="Røde Kors sykepleieskole" />
		<tag k="ssr:stedsnr" v="630941" />
	</node>
	<node lat="59.92969166949507" lon="10.9586472161567" id="-16247">
		<tag k="amenity" v="school" />
		<tag k="name" v="Kjenn skole" />
		<tag k="ssr:stedsnr" v="630943" />
	</node>
	<node lat="59.93338055249417" lon="10.978677782053408" id="-16248">
		<tag k="name" v="Bensen" />
=======
	<node id="-256832" lat="59.9321777804" lon="11.020827778">
		<tag k="fixme" v="consider place=suburb, village or hamlet" />
		<tag k="name" v="Kurland" />
>>>>>>> e1d4bc35ff8a6074a6f2e91616a996b547c36f15
		<tag k="place" v="quarter" />
		<tag k="ssr:stedsnr" v="630997" />
	</node>
<<<<<<< HEAD
	<node lat="59.93398333168319" lon="10.952977783729693" id="-16251">
		<tag k="name" v="Kjenn" />
		<tag k="place" v="quarter" />
		<tag k="ssr:stedsnr" v="708029" />
	</node>
	<node lat="59.910912518957296" lon="10.985124831499217" id="-16252">
		<tag k="fixme" v="consider place=hamlet" />
		<tag k="name" v="Midtbygda" />
		<tag k="place" v="village" />
		<tag k="ssr:stedsnr" v="890067" />
	</node>
	<node lat="59.92887499834628" lon="11.02190556365578" id="-16253">
		<tag k="name" v="Skihytta" />
		<tag k="place" v="isolated_dwelling" />
		<tag k="ssr:stedsnr" v="672004" />
	</node>
	<node lat="59.9311517905762" lon="10.95365921959429" id="-16254">
		<tag k="fixme" v="consider place=suburb, village or hamlet" />
		<tag k="name" v="Kjenn" />
		<tag k="place" v="quarter" />
		<tag k="ssr:stedsnr" v="672006" />
	</node>
	<node lat="59.92725277734481" lon="10.937172220570664" id="-16255">
		<tag k="name" v="Rasta" />
=======
	<node id="-256831" lat="59.9247777766" lon="10.9930111032">
		<tag k="name" v="Tangen" />
		<tag k="place" v="locality" />
		<tag k="ssr:stedsnr" v="327633" />
	</node>
	<node id="-256830" lat="59.8967138867" lon="10.9696166732">
		<tag k="name" v="Hellerud" />
		<tag k="place" v="locality" />
		<tag k="ssr:stedsnr" v="327629" />
	</node>
	<node id="-256829" lat="59.9168805528" lon="11.0018083282">
		<tag k="name" v="Nylenne" />
		<tag k="place" v="locality" />
		<tag k="ssr:stedsnr" v="327627" />
	</node>
	<node id="-256828" lat="59.9162027779" lon="11.0000694519">
		<tag k="name" v="Nybakk" />
		<tag k="place" v="locality" />
		<tag k="ssr:stedsnr" v="327626" />
	</node>
	<node id="-256818" lat="59.924088887" lon="10.9712277721">
		<tag k="name" v="Nordli" />
>>>>>>> e1d4bc35ff8a6074a6f2e91616a996b547c36f15
		<tag k="place" v="farm" />
		<tag k="ssr:stedsnr" v="672007" />
	</node>
<<<<<<< HEAD
	<node lat="59.921200162131484" lon="10.950630014240028" id="-16256">
		<tag k="alt_name" v="Søndre Rolvsrud" />
		<tag k="fixme" v="consider place=hamlet" />
		<tag k="name" v="Rolvsrud" />
		<tag k="place" v="farm" />
		<tag k="ssr:stedsnr" v="672014" />
	</node>
	<node lat="59.922013693977476" lon="10.987486338401453" id="-16257">
=======
	<node id="-256817" lat="59.9263722191" lon="10.998794451">
		<tag k="name" v="Østbyenga" />
		<tag k="place" v="farm" />
		<tag k="ssr:stedsnr" v="308006" />
	</node>
	<node id="-256808" lat="59.9248249964" lon="10.9969916721">
		<tag k="name" v="Lille Østby" />
		<tag k="place" v="hamlet" />
		<tag k="ssr:stedsnr" v="205894" />
	</node>
	<node id="-256801" lat="59.8959398228" lon="10.9624517862">
>>>>>>> e1d4bc35ff8a6074a6f2e91616a996b547c36f15
		<tag k="fixme" v="consider place=hamlet" />
		<tag k="name" v="Røyri" />
		<tag k="place" v="farm" />
		<tag k="ssr:stedsnr" v="672019" />
	</node>
<<<<<<< HEAD
	<node lat="59.9202416625625" lon="10.976861117684127" id="-16258">
		<tag k="name" v="Sørli" />
		<tag k="place" v="isolated_dwelling" />
		<tag k="ssr:stedsnr" v="672024" />
	</node>
	<node lat="59.87628079197972" lon="10.993455285008217" id="-16262">
		<tag k="name" v="Garterud" />
		<tag k="place" v="farm" />
		<tag k="ssr:stedsnr" v="672174" />
	</node>
	<node lat="59.92497499925673" lon="10.971236116271053" id="-16264">
		<tag k="name" v="Nordre Nordli" />
		<tag k="place" v="farm" />
		<tag k="ssr:stedsnr" v="691107" />
	</node>
	<node lat="59.93386111161228" lon="10.971552779754951" id="-16269">
		<tag k="amenity" v="nursing_home" />
		<tag k="name" v="Dovre trygdesenter" />
		<tag k="ssr:stedsnr" v="691928" />
	</node>
	<node lat="59.91851111203395" lon="10.961127769933823" id="-16270">
		<tag k="amenity" v="nursing_home" />
		<tag k="name" v="Lørenskog sykehjem" />
		<tag k="ssr:stedsnr" v="691930" />
	</node>
	<node lat="59.92233610764713" lon="10.985638887173291" id="-16275">
		<tag k="name" v="Mellom-Røyri" />
=======
	<node id="-256797" lat="59.9256805578" lon="10.9316972246">
		<tag k="fixme" v="consider place=suburb, village or hamlet" />
		<tag k="name" v="Røykås" />
		<tag k="place" v="quarter" />
		<tag k="ssr:stedsnr" v="186007" />
	</node>
	<node id="-256796" lat="59.9391277801" lon="10.9470499951">
		<tag k="name" v="Robsrud" />
		<tag k="place" v="quarter" />
		<tag k="ssr:stedsnr" v="179126" />
	</node>
	<node id="-256794" lat="59.9489444434" lon="10.9861611193">
		<tag k="name" v="Grønlia" />
		<tag k="place" v="quarter" />
		<tag k="ssr:stedsnr" v="162037" />
	</node>
	<node id="-256793" lat="59.9172583341" lon="10.9317361164">
		<tag k="name" v="Øvre Rasta" />
		<tag k="place" v="quarter" />
		<tag k="ssr:stedsnr" v="144995" />
	</node>
	<node id="-256791" lat="59.9129888877" lon="10.9895027857">
		<tag k="name" v="Nordenga" />
		<tag k="place" v="farm" />
		<tag k="ssr:stedsnr" v="144974" />
	</node>
	<node id="-256790" lat="59.8988444467" lon="10.9653277863">
		<tag k="name" v="Nordre Våler" />
>>>>>>> e1d4bc35ff8a6074a6f2e91616a996b547c36f15
		<tag k="place" v="farm" />
		<tag k="ssr:stedsnr" v="691983" />
	</node>
<<<<<<< HEAD
	<node lat="59.94228611356195" lon="10.969022229339306" id="-16276">
		<tag k="name" v="Haneborglia" />
		<tag k="place" v="quarter" />
		<tag k="ssr:stedsnr" v="708059" />
	</node>
	<node lat="59.93395000242257" lon="11.01496388501209" id="-16277">
		<tag k="alt_name" v="Kurlandsholen" />
		<tag k="name" v="Holen" />
		<tag k="place" v="farm" />
		<tag k="ssr:stedsnr" v="732012" />
	</node>
	<node lat="59.89854999783774" lon="10.944058331966918" id="-16278">
		<tag k="name" v="Heggedalen" />
		<tag k="place" v="isolated_dwelling" />
		<tag k="ssr:stedsnr" v="733093" />
	</node>
	<node lat="59.938744447943975" lon="11.005455554075022" id="-16281">
		<tag k="name" v="Bårlibakken" />
		<tag k="place" v="quarter" />
		<tag k="ssr:stedsnr" v="751666" />
	</node>
	<node lat="59.923780552310824" lon="10.966474994437302" id="-16287">
		<tag k="amenity" v="school" />
		<tag k="name" v="Åsen skole" />
		<tag k="old_name" v="Nordliåsen skole" />
		<tag k="ssr:stedsnr" v="751958" />
	</node>
	<node lat="59.85079444777397" lon="10.982772224967402" id="-16288">
		<tag k="name" v="Skålsjøhytta" />
		<tag k="place" v="isolated_dwelling" />
		<tag k="ssr:stedsnr" v="751971" />
	</node>
	<node lat="59.91667777354099" lon="11.005088888513002" id="-16289">
		<tag k="name" v="Stensrudbråten" />
=======
	<node id="-256789" lat="59.8943555567" lon="10.9628888967">
		<tag k="name" v="Søndre Våler" />
		<tag k="place" v="farm" />
		<tag k="ssr:stedsnr" v="144968" />
	</node>
	<node id="-256788" lat="59.892127779" lon="10.9537916682">
		<tag k="name" v="Store Dalbakk" />
		<tag k="place" v="farm" />
		<tag k="ssr:stedsnr" v="144950" />
	</node>
	<node id="-256781" lat="59.8876222253" lon="10.9838694511">
		<tag k="leisure" v="park" />
		<tag k="name" v="Parken" />
		<tag k="ssr:stedsnr" v="144877" />
	</node>
	<node id="-256780" lat="59.8677833298" lon="11.0015777745">
		<tag k="name" v="Geiterud" />
		<tag k="place" v="locality" />
		<tag k="ssr:stedsnr" v="144688" />
	</node>
	<node id="-256779" lat="59.9180222208" lon="11.0123083348">
		<tag k="name" v="Sanderud" />
		<tag k="place" v="locality" />
		<tag k="ssr:stedsnr" v="144684" />
	</node>
	<node id="-256777" lat="59.9174888893" lon="10.9191611141">
		<tag k="name" v="Møllerstua" />
		<tag k="place" v="locality" />
		<tag k="ssr:stedsnr" v="144663" />
	</node>
	<node id="-256775" lat="59.9297361128" lon="11.0224305592">
		<tag k="name" v="Sandbakken" />
		<tag k="place" v="farm" />
		<tag k="ssr:stedsnr" v="144651" />
	</node>
	<node id="-256763" lat="59.8919083314" lon="10.9537249935">
		<tag k="name" v="Dalbakk" />
>>>>>>> e1d4bc35ff8a6074a6f2e91616a996b547c36f15
		<tag k="place" v="isolated_dwelling" />
		<tag k="ssr:stedsnr" v="751972" />
	</node>
<<<<<<< HEAD
	<node lat="59.915761113409836" lon="10.939386115159946" id="-16290">
		<tag k="name" v="Vallerud" />
		<tag k="place" v="quarter" />
		<tag k="ssr:stedsnr" v="768044" />
	</node>
	<node lat="59.91422985312259" lon="10.950517695943248" id="-16293">
		<tag k="fixme" v="consider place=hamlet" />
		<tag k="name" v="Vallerud" />
=======
	<node id="-256761" lat="59.8875500023" lon="10.9928861066">
		<tag k="name" v="Østmork" />
>>>>>>> e1d4bc35ff8a6074a6f2e91616a996b547c36f15
		<tag k="place" v="farm" />
		<tag k="ssr:stedsnr" v="793122" />
	</node>
<<<<<<< HEAD
	<node lat="59.92418611485054" lon="10.934972224470597" id="-16294">
		<tag k="name" v="Østli" />
=======
	<node id="-256757" lat="59.9122527813" lon="10.9209666597">
		<tag k="name" v="Pålerud" />
>>>>>>> e1d4bc35ff8a6074a6f2e91616a996b547c36f15
		<tag k="place" v="farm" />
		<tag k="ssr:stedsnr" v="793014" />
	</node>
<<<<<<< HEAD
	<node lat="59.919260928736726" lon="10.99953726311929" id="-16295">
		<tag k="name" v="Steinsrud" />
=======
	<node id="-256756" lat="59.9120305552" lon="10.9566222299">
		<tag k="name" v="Øvre Finstad" />
>>>>>>> e1d4bc35ff8a6074a6f2e91616a996b547c36f15
		<tag k="place" v="farm" />
		<tag k="ssr:stedsnr" v="793015" />
	</node>
<<<<<<< HEAD
	<node lat="59.84878888894736" lon="10.927611114808125" id="-16298">
		<tag k="alt_name" v="Skytten, søndre" />
		<tag k="loc_name" v="Sør-Skytten" />
		<tag k="name" v="Søndre Skytten" />
=======
	<node id="-256755" lat="59.9323888909" lon="10.9624055484">
		<tag k="name" v="Polen" />
>>>>>>> e1d4bc35ff8a6074a6f2e91616a996b547c36f15
		<tag k="place" v="locality" />
		<tag k="ssr:stedsnr" v="915215" />
	</node>
<<<<<<< HEAD
	<node lat="59.860569354550734" lon="10.916621124899544" id="-16300">
		<tag k="alt_name" v="Skytten, nordre" />
		<tag k="loc_name" v="Nord-Skytten" />
		<tag k="name" v="Nordre Skytten" />
		<tag k="place" v="locality" />
		<tag k="ssr:stedsnr" v="915149" />
	</node>
	<node lat="59.92902500336383" lon="10.987425000362542" id="-16305">
		<tag k="name" v="Torshovbråten" />
		<tag k="place" v="locality" />
		<tag k="ssr:stedsnr" v="812697" />
	</node>
	<node lat="59.91942221790311" lon="10.997749999267098" id="-16306">
		<tag k="name" v="Store Stensrud" />
=======
	<node id="-256754" lat="59.9271993767" lon="11.0082391767">
		<tag k="name" v="Søndre Hovelsrud" />
		<tag k="place" v="farm" />
		<tag k="ssr:stedsnr" v="84650" />
	</node>
	<node id="-256749" lat="59.9056083375" lon="10.945686114">
		<tag k="name" v="Vestereng" />
>>>>>>> e1d4bc35ff8a6074a6f2e91616a996b547c36f15
		<tag k="place" v="farm" />
		<tag k="ssr:stedsnr" v="812981" />
	</node>
<<<<<<< HEAD
	<node lat="59.93561666693292" lon="11.00343888713801" id="-16307">
		<tag k="name" v="Sletten" />
=======
	<node id="-256746" lat="59.9111083303" lon="10.922530562">
		<tag k="alt_name" v="Elvågasæter" />
		<tag k="name" v="Elvågaseter" />
>>>>>>> e1d4bc35ff8a6074a6f2e91616a996b547c36f15
		<tag k="place" v="farm" />
		<tag k="ssr:stedsnr" v="812983" />
	</node>
<<<<<<< HEAD
	<node lat="59.92392499949937" lon="10.993936116877368" id="-16308">
		<tag k="name" v="Østheim" />
=======
	<node id="-256743" lat="59.9279565758" lon="11.0078105059">
		<tag k="fixme" v="consider place=hamlet" />
		<tag k="name" v="Hovelsrud" />
>>>>>>> e1d4bc35ff8a6074a6f2e91616a996b547c36f15
		<tag k="place" v="farm" />
		<tag k="ssr:stedsnr" v="812985" />
	</node>
<<<<<<< HEAD
	<node lat="59.917486106915156" lon="10.949124991919703" id="-16309">
		<tag k="name" v="Benterud" />
		<tag k="place" v="farm" />
		<tag k="ssr:stedsnr" v="854014" />
	</node>
	<node lat="59.93423333458171" lon="11.022266669379146" id="-16316">
		<tag k="name" v="Kurlandsåsen" />
=======
	<node id="-256742" lat="59.9197499966" lon="10.9738944404">
		<tag k="name" v="Sørli" />
		<tag k="place" v="quarter" />
		<tag k="ssr:stedsnr" v="40043" />
	</node>
	<node id="-256741" lat="59.9201027766" lon="10.9404083374">
		<tag k="name" v="Rasta" />
>>>>>>> e1d4bc35ff8a6074a6f2e91616a996b547c36f15
		<tag k="place" v="quarter" />
		<tag k="ssr:stedsnr" v="934594" />
	</node>
<<<<<<< HEAD
	<node lat="59.911872221158404" lon="10.979855555350836" id="-16318">
		<tag k="name" v="Lia" />
		<tag k="place" v="locality" />
		<tag k="ssr:stedsnr" v="934627" />
	</node>
	<node lat="59.90869721996416" lon="10.979786114016177" id="-16319">
		<tag k="name" v="Kaldkroken" />
		<tag k="place" v="locality" />
		<tag k="ssr:stedsnr" v="934630" />
	</node>
	<node lat="59.91169999892521" lon="10.919438881762714" id="-16322">
		<tag k="name" v="Aspelund" />
		<tag k="place" v="farm" />
		<tag k="ssr:stedsnr" v="934991" />
	</node>
	<node lat="59.93889722105373" lon="10.99724999410993" id="-16323">
		<tag k="name" v="Vittenberg" />
		<tag k="place" v="quarter" />
		<tag k="ssr:stedsnr" v="934996" />
	</node>
	<node lat="59.91873055418854" lon="11.002241663305941" id="-16324">
		<tag k="name" v="Vestby" />
=======
	<node id="-256740" lat="59.9311527811" lon="10.938333338">
		<tag k="name" v="Thurmannskogen" />
		<tag k="place" v="quarter" />
		<tag k="ssr:stedsnr" v="40036" />
	</node>
	<node id="-256739" lat="59.928586108" lon="10.9522611163">
		<tag k="name" v="Pokerskogen" />
		<tag k="place" v="hamlet" />
		<tag k="ssr:stedsnr" v="23992" />
	</node>
	<node id="-256738" lat="59.9109777738" lon="10.985436111">
		<tag k="name" v="Nordre Kirkerud" />
		<tag k="place" v="farm" />
		<tag k="ssr:stedsnr" v="23979" />
	</node>
	<node id="-256737" lat="59.9365472251" lon="10.9766749936">
		<tag k="amenity" v="school" />
		<tag k="name" v="Fjellsrud skole" />
		<tag k="ssr:stedsnr" v="23962" />
	</node>
	<node id="-256733" lat="59.915786115" lon="11.0026944415">
		<tag k="name" v="Lauvås" />
		<tag k="place" v="locality" />
		<tag k="ssr:stedsnr" v="23696" />
	</node>
	<node id="-256732" lat="59.9440166706" lon="10.9582472238">
		<tag k="landuse" v="winter_sports" />
		<tag k="name" v="Margaretalia" />
		<tag k="piste:type" v="downhill" />
		<tag k="ssr:stedsnr" v="23679" />
	</node>
	<node id="-256728" lat="59.926477776" lon="10.981694448">
		<tag k="name" v="Nordre Hammer" />
>>>>>>> e1d4bc35ff8a6074a6f2e91616a996b547c36f15
		<tag k="place" v="farm" />
		<tag k="ssr:stedsnr" v="934981" />
	</node>
<<<<<<< HEAD
	<node lat="59.93183055438273" lon="10.996602769933189" id="-16325">
		<tag k="amenity" v="hospital" />
		<tag k="name" v="Akershus universitetssykehus" />
		<tag k="old_name" v="Sentralsykehuset;Sentralsykehuset i Akershus" />
		<tag k="ssr:stedsnr" v="890011" />
	</node>
	<node lat="59.89957499937584" lon="10.988655559632393" id="-16327">
		<tag k="name" v="Bakkerud" />
		<tag k="place" v="farm" />
		<tag k="ssr:stedsnr" v="915076" />
	</node>
	<node lat="59.906644440467055" lon="10.945677772101412" id="-16328">
		<tag k="name" v="Nyborgholen" />
=======
	<node id="-256462" lat="59.9130388923" lon="10.98583055">
		<tag k="name" v="Bjørnholt" />
		<tag k="place" v="farm" />
		<tag k="ssr:stedsnr" v="65112" />
	</node>
	<node id="-256720" lat="59.8827722194" lon="10.990975004">
		<tag k="name" v="Møllerenga" />
		<tag k="place" v="isolated_dwelling" />
		<tag k="ssr:stedsnr" v="4182" />
	</node>
	<node id="-256718" lat="59.9233026452" lon="11.003664393">
		<tag k="fixme" v="consider place=hamlet" />
		<tag k="name" v="Østby" />
		<tag k="place" v="farm" />
		<tag k="ssr:stedsnr" v="4018" />
	</node>
	<node id="-256461" lat="59.9079777754" lon="10.9426777855">
		<tag k="name" v="Frydenberg" />
		<tag k="place" v="isolated_dwelling" />
		<tag k="ssr:stedsnr" v="65108" />
	</node>
	<node id="-256715" lat="59.9183666713" lon="10.9551916588">
		<tag k="name" v="Skårer" />
		<tag k="place" v="quarter" />
		<tag k="ssr:stedsnr" v="951035" />
	</node>
	<node id="-256713" lat="59.90869722" lon="10.979786114">
		<tag k="name" v="Kaldkroken" />
>>>>>>> e1d4bc35ff8a6074a6f2e91616a996b547c36f15
		<tag k="place" v="locality" />
		<tag k="ssr:stedsnr" v="934604" />
	</node>
<<<<<<< HEAD
	<node lat="59.908608331035595" lon="10.929377776440552" id="-16329">
		<tag k="name" v="Kristianstomta" />
=======
	<node id="-256712" lat="59.9118722212" lon="10.9798555554">
		<tag k="name" v="Lia" />
>>>>>>> e1d4bc35ff8a6074a6f2e91616a996b547c36f15
		<tag k="place" v="locality" />
		<tag k="ssr:stedsnr" v="934605" />
	</node>
<<<<<<< HEAD
	<node lat="59.90308889334066" lon="10.915138885061932" id="-16330">
=======
	<node id="-256711" lat="59.9030888933" lon="10.9151388851">
>>>>>>> e1d4bc35ff8a6074a6f2e91616a996b547c36f15
		<tag k="name" v="Toresplassen" />
		<tag k="place" v="locality" />
		<tag k="ssr:stedsnr" v="934607" />
	</node>
<<<<<<< HEAD
	<node lat="59.9313999991571" lon="10.98199166477852" id="-16332">
		<tag k="amenity" v="sports_centre" />
		<tag k="name" v="Lørenskoghallen" />
		<tag k="ssr:stedsnr" v="934935" />
	</node>
	<node lat="59.932075000539534" lon="10.984141660308254" id="-16333">
		<tag k="amenity" v="school" />
		<tag k="name" v="Lørenskog videregående skole" />
		<tag k="ssr:stedsnr" v="934937" />
	</node>
	<node lat="59.89898055603784" lon="10.969622216342382" id="-16334">
		<tag k="name" v="Lund" />
		<tag k="place" v="isolated_dwelling" />
		<tag k="ssr:stedsnr" v="934951" />
	</node>
	<node lat="59.91836667128239" lon="10.955191658815274" id="-16335">
		<tag k="name" v="Skårer" />
		<tag k="place" v="quarter" />
		<tag k="ssr:stedsnr" v="951035" />
	</node>
	<node lat="59.94553888610972" lon="10.952047220603635" id="-16338">
		<tag k="name" v="Skåreødegården" />
		<tag k="place" v="quarter" />
		<tag k="ssr:stedsnr" v="968134" />
	</node>
	<node lat="59.88277221942062" lon="10.990975004037336" id="-16343">
		<tag k="name" v="Møllerenga" />
		<tag k="place" v="isolated_dwelling" />
		<tag k="ssr:stedsnr" v="4182" />
	</node>
	<node lat="59.91578611499338" lon="11.002694441504731" id="-16350">
		<tag k="name" v="Lauvås" />
=======
	<node id="-256710" lat="59.908608331" lon="10.9293777764">
		<tag k="name" v="Kristianstomta" />
		<tag k="place" v="locality" />
		<tag k="ssr:stedsnr" v="934605" />
	</node>
	<node id="-256709" lat="59.9066444405" lon="10.9456777721">
		<tag k="name" v="Nyborgholen" />
		<tag k="place" v="locality" />
		<tag k="ssr:stedsnr" v="934604" />
	</node>
	<node id="-256707" lat="59.8487888889" lon="10.9276111148">
		<tag k="alt_name" v="Skytten, søndre" />
		<tag k="loc_name" v="Sør-Skytten" />
		<tag k="name" v="Søndre Skytten" />
>>>>>>> e1d4bc35ff8a6074a6f2e91616a996b547c36f15
		<tag k="place" v="locality" />
		<tag k="ssr:stedsnr" v="23696" />
	</node>
<<<<<<< HEAD
	<node lat="59.944016670627256" lon="10.958247223824024" id="-16351">
		<tag k="landuse" v="winter_sports" />
		<tag k="name" v="Margaretalia" />
		<tag k="piste:type" v="downhill" />
		<tag k="ssr:stedsnr" v="23679" />
	</node>
	<node lat="59.928586107995706" lon="10.952261116282074" id="-16352">
		<tag k="name" v="Pokerskogen" />
=======
	<node id="-256706" lat="59.8995749994" lon="10.9886555596">
		<tag k="name" v="Bakkerud" />
		<tag k="place" v="farm" />
		<tag k="ssr:stedsnr" v="915076" />
	</node>
	<node id="-256703" lat="59.9138722202" lon="10.9449999987">
		<tag k="name" v="Ilajordet" />
>>>>>>> e1d4bc35ff8a6074a6f2e91616a996b547c36f15
		<tag k="place" v="hamlet" />
		<tag k="ssr:stedsnr" v="23992" />
	</node>
<<<<<<< HEAD
	<node lat="59.93654722508331" lon="10.976674993555934" id="-16354">
		<tag k="amenity" v="school" />
		<tag k="name" v="Fjellsrud skole" />
		<tag k="ssr:stedsnr" v="23962" />
	</node>
	<node lat="59.93115278114563" lon="10.938333337998333" id="-16355">
		<tag k="name" v="Thurmannskogen" />
		<tag k="place" v="quarter" />
		<tag k="ssr:stedsnr" v="40036" />
	</node>
	<node lat="59.92010277659185" lon="10.940408337364767" id="-16356">
		<tag k="name" v="Rasta" />
		<tag k="place" v="quarter" />
		<tag k="ssr:stedsnr" v="40040" />
	</node>
	<node lat="59.91974999655903" lon="10.973894440397437" id="-16357">
		<tag k="name" v="Sørli" />
		<tag k="place" v="quarter" />
		<tag k="ssr:stedsnr" v="40043" />
	</node>
	<node lat="59.927956575810526" lon="11.007810505890593" id="-16359">
		<tag k="fixme" v="consider place=hamlet" />
		<tag k="name" v="Hovelsrud" />
=======
	<node id="-256702" lat="59.8888305595" lon="10.983191662">
		<tag k="name" v="Oppigard" />
		<tag k="place" v="locality" />
		<tag k="ssr:stedsnr" v="873969" />
	</node>
	<node id="-256701" lat="59.8894833316" lon="10.9818277801">
		<tag k="name" v="Tomta" />
		<tag k="place" v="isolated_dwelling" />
		<tag k="ssr:stedsnr" v="873954" />
	</node>
	<node id="-256695" lat="59.9158444474" lon="10.9783583295">
		<tag k="leisure" v="pitch" />
		<tag k="name" v="Neskollen skibakke" />
		<tag k="ssr:stedsnr" v="873613" />
	</node>
	<node id="-256692" lat="59.8945555534" lon="10.9533111027">
		<tag k="name" v="Skulerud" />
>>>>>>> e1d4bc35ff8a6074a6f2e91616a996b547c36f15
		<tag k="place" v="farm" />
		<tag k="ssr:stedsnr" v="65009" />
	</node>
<<<<<<< HEAD
	<node lat="59.905608337488204" lon="10.945686113978788" id="-16364">
		<tag k="name" v="Vestereng" />
=======
	<node id="-256690" lat="59.8750055575" lon="10.9907499956">
		<tag k="alt_name" v="Sotue" />
		<tag k="name" v="Sotua" />
>>>>>>> e1d4bc35ff8a6074a6f2e91616a996b547c36f15
		<tag k="place" v="farm" />
		<tag k="ssr:stedsnr" v="66078" />
	</node>
<<<<<<< HEAD
	<node lat="59.91203055521447" lon="10.956622229854238" id="-16368">
		<tag k="name" v="Øvre Finstad" />
		<tag k="place" v="farm" />
		<tag k="ssr:stedsnr" v="84986" />
	</node>
	<node lat="59.912252781339745" lon="10.920966659725194" id="-16369">
		<tag k="name" v="Pålerud" />
=======
	<node id="-256686" lat="59.9388972211" lon="10.9972499941">
		<tag k="name" v="Vittenberg" />
		<tag k="place" v="quarter" />
		<tag k="ssr:stedsnr" v="934996" />
	</node>
	<node id="-256685" lat="59.9116999989" lon="10.9194388818">
		<tag k="name" v="Aspelund" />
>>>>>>> e1d4bc35ff8a6074a6f2e91616a996b547c36f15
		<tag k="place" v="farm" />
		<tag k="ssr:stedsnr" v="84988" />
	</node>
<<<<<<< HEAD
	<node lat="59.92719937669088" lon="11.008239176729669" id="-16371">
		<tag k="name" v="Søndre Hovelsrud" />
=======
	<node id="-256684" lat="59.9187305542" lon="11.0022416633">
		<tag k="name" v="Vestby" />
>>>>>>> e1d4bc35ff8a6074a6f2e91616a996b547c36f15
		<tag k="place" v="farm" />
		<tag k="ssr:stedsnr" v="84650" />
	</node>
<<<<<<< HEAD
	<node lat="59.89026110813417" lon="10.912272227425223" id="-16374">
		<tag k="name" v="Brenninga" />
		<tag k="place" v="locality" />
		<tag k="ssr:stedsnr" v="84666" />
	</node>
	<node lat="59.923650003898956" lon="10.982636115106256" id="-16376">
		<tag k="amenity" v="school" />
		<tag k="name" v="Hammer skole" />
		<tag k="ssr:stedsnr" v="84969" />
	</node>
	<node lat="59.90958055430438" lon="10.966136102791248" id="-16377">
		<tag k="name" v="Finstadenga" />
=======
	<node id="-256683" lat="59.898980556" lon="10.9696222163">
		<tag k="name" v="Lund" />
		<tag k="place" v="isolated_dwelling" />
		<tag k="ssr:stedsnr" v="934951" />
	</node>
	<node id="-256682" lat="59.9320750005" lon="10.9841416603">
		<tag k="amenity" v="school" />
		<tag k="name" v="Lørenskog videregående skole" />
		<tag k="ssr:stedsnr" v="934937" />
	</node>
	<node id="-256681" lat="59.9313999992" lon="10.9819916648">
		<tag k="amenity" v="sports_centre" />
		<tag k="name" v="Lørenskoghallen" />
		<tag k="ssr:stedsnr" v="934935" />
	</node>
	<node id="-256679" lat="59.9342333346" lon="11.0222666694">
		<tag k="name" v="Kurlandsåsen" />
		<tag k="place" v="quarter" />
		<tag k="ssr:stedsnr" v="934594" />
	</node>
	<node id="-256672" lat="59.9008250037" lon="10.9672027835">
		<tag k="name" v="Grinderud" />
>>>>>>> e1d4bc35ff8a6074a6f2e91616a996b547c36f15
		<tag k="place" v="farm" />
		<tag k="ssr:stedsnr" v="84974" />
	</node>
<<<<<<< HEAD
	<node lat="59.932388890916386" lon="10.962405548356466" id="-16378">
		<tag k="name" v="Polen" />
		<tag k="place" v="locality" />
		<tag k="ssr:stedsnr" v="84689" />
	</node>
	<node lat="59.88755000229905" lon="10.992886106620544" id="-16380">
		<tag k="name" v="Østmork" />
=======
	<node id="-256671" lat="59.904438885" lon="10.9848055626">
		<tag k="alt_name" v="Engerbråten" />
		<tag k="name" v="Engebråtan" />
		<tag k="old_name" v="Engebråten" />
		<tag k="place" v="farm" />
		<tag k="ssr:stedsnr" v="794066" />
	</node>
	<node id="-256669" lat="59.9192361068" lon="10.9977388821">
		<tag k="name" v="Steinsrud" />
>>>>>>> e1d4bc35ff8a6074a6f2e91616a996b547c36f15
		<tag k="place" v="farm" />
		<tag k="ssr:stedsnr" v="125181" />
	</node>
<<<<<<< HEAD
	<node lat="59.92973611283565" lon="11.022430559158451" id="-16389">
		<tag k="name" v="Sandbakken" />
=======
	<node id="-256668" lat="59.9241861149" lon="10.9349722245">
		<tag k="name" v="Østli" />
>>>>>>> e1d4bc35ff8a6074a6f2e91616a996b547c36f15
		<tag k="place" v="farm" />
		<tag k="ssr:stedsnr" v="144651" />
	</node>
<<<<<<< HEAD
	<node lat="59.91748888925908" lon="10.919161114055612" id="-16391">
		<tag k="name" v="Møllerstua" />
		<tag k="place" v="locality" />
		<tag k="ssr:stedsnr" v="144663" />
	</node>
	<node lat="59.91802222080389" lon="11.012308334849788" id="-16393">
		<tag k="name" v="Sanderud" />
		<tag k="place" v="locality" />
		<tag k="ssr:stedsnr" v="144684" />
	</node>
	<node lat="59.867783329844514" lon="11.001577774469009" id="-16394">
		<tag k="name" v="Geiterud" />
		<tag k="place" v="locality" />
		<tag k="ssr:stedsnr" v="144688" />
	</node>
	<node lat="59.88762222527155" lon="10.983869451092009" id="-16395">
		<tag k="leisure" v="park" />
		<tag k="name" v="Parken" />
		<tag k="ssr:stedsnr" v="144877" />
	</node>
	<node lat="59.892127779016846" lon="10.953791668196251" id="-16402">
		<tag k="name" v="Store Dalbakk" />
=======
	<node id="-256667" lat="59.8605693546" lon="10.9166211249">
		<tag k="alt_name" v="Skytten, nordre" />
		<tag k="loc_name" v="Nord-Skytten" />
		<tag k="name" v="Nordre Skytten" />
		<tag k="place" v="locality" />
		<tag k="ssr:stedsnr" v="915149" />
	</node>
	<node id="-256660" lat="59.9339500024" lon="11.014963885">
		<tag k="alt_name" v="Kurlandsholen" />
		<tag k="name" v="Holen" />
		<tag k="place" v="farm" />
		<tag k="ssr:stedsnr" v="732012" />
	</node>
	<node id="-256657" lat="59.910912519" lon="10.9851248315">
		<tag k="fixme" v="consider place=hamlet" />
		<tag k="name" v="Midtbygda" />
		<tag k="place" v="village" />
		<tag k="ssr:stedsnr" v="890067" />
	</node>
	<node id="-256656" lat="59.9318305544" lon="10.9966027699">
		<tag k="amenity" v="hospital" />
		<tag k="name" v="Akershus universitetssykehus" />
		<tag k="old_name" v="Sentralsykehuset;Sentralsykehuset i Akershus" />
		<tag k="ssr:stedsnr" v="890011" />
	</node>
	<node id="-256655" lat="59.8985499978" lon="10.944058332">
		<tag k="name" v="Heggedalen" />
		<tag k="place" v="isolated_dwelling" />
		<tag k="ssr:stedsnr" v="733093" />
	</node>
	<node id="-256651" lat="59.9222777744" lon="10.9217583269">
		<tag k="name" v="Nordli" />
		<tag k="place" v="farm" />
		<tag k="ssr:stedsnr" v="733027" />
	</node>
	<node id="-256650" lat="59.945639095" lon="10.9513566066">
		<tag k="fixme" v="consider place=hamlet" />
		<tag k="name" v="Skårerødegården" />
>>>>>>> e1d4bc35ff8a6074a6f2e91616a996b547c36f15
		<tag k="place" v="farm" />
		<tag k="ssr:stedsnr" v="144950" />
	</node>
<<<<<<< HEAD
	<node lat="59.89435555666079" lon="10.962888896674668" id="-16403">
		<tag k="name" v="Søndre Våler" />
=======
	<node id="-256647" lat="59.9237416701" lon="11.0006250077">
		<tag k="name" v="Nedre Østby" />
>>>>>>> e1d4bc35ff8a6074a6f2e91616a996b547c36f15
		<tag k="place" v="farm" />
		<tag k="ssr:stedsnr" v="144968" />
	</node>
<<<<<<< HEAD
	<node lat="59.89884444666398" lon="10.965327786270304" id="-16404">
		<tag k="name" v="Nordre Våler" />
=======
	<node id="-256646" lat="59.9085777749" lon="10.9708444364">
		<tag k="name" v="Øvre Feiring" />
>>>>>>> e1d4bc35ff8a6074a6f2e91616a996b547c36f15
		<tag k="place" v="farm" />
		<tag k="ssr:stedsnr" v="144970" />
	</node>
<<<<<<< HEAD
	<node lat="59.91298888770759" lon="10.98950278573818" id="-16405">
		<tag k="name" v="Nordenga" />
=======
	<node id="-256645" lat="59.892241667" lon="10.9774666615">
		<tag k="name" v="Skolehuset" />
>>>>>>> e1d4bc35ff8a6074a6f2e91616a996b547c36f15
		<tag k="place" v="farm" />
		<tag k="ssr:stedsnr" v="144974" />
	</node>
<<<<<<< HEAD
	<node lat="59.948944443354875" lon="10.986161119263214" id="-16406">
		<tag k="name" v="Grønlia" />
		<tag k="place" v="quarter" />
		<tag k="ssr:stedsnr" v="162037" />
	</node>
	<node lat="59.939242489636754" lon="10.947228156173967" id="-16408">
		<tag k="name" v="Robsrud" />
		<tag k="place" v="quarter" />
		<tag k="ssr:stedsnr" v="179126" />
	</node>
	<node lat="59.91179444110806" lon="10.961011116206723" id="-16421">
		<tag k="name" v="Finstad" />
		<tag k="place" v="quarter" />
		<tag k="ssr:stedsnr" v="222031" />
	</node>
	<node lat="59.910602778205835" lon="10.918605557041326" id="-16422">
		<tag k="name" v="Bjørndalen" />
		<tag k="place" v="hamlet" />
		<tag k="ssr:stedsnr" v="222037" />
	</node>
	<node lat="59.924872225860234" lon="10.930488891716205" id="-16424">
		<tag k="name" v="Røykås" />
=======
	<node id="-256643" lat="59.939550004" lon="11.0073833287">
		<tag k="name" v="Fjellstad" />
		<tag k="place" v="hamlet" />
		<tag k="ssr:stedsnr" v="630577" />
	</node>
	<node id="-256639" lat="59.9166861109" lon="10.9768722246">
		<tag k="name" v="Nes" />
		<tag k="place" v="farm" />
		<tag k="ssr:stedsnr" v="611022" />
	</node>
	<node id="-256638" lat="59.9201372014" lon="10.9576989284">
		<tag k="fixme" v="consider place=hamlet" />
		<tag k="name" v="Skårer" />
		<tag k="place" v="farm" />
		<tag k="ssr:stedsnr" v="611015" />
	</node>
	<node id="-256635" lat="59.9422861136" lon="10.9690222293">
		<tag k="name" v="Haneborglia" />
>>>>>>> e1d4bc35ff8a6074a6f2e91616a996b547c36f15
		<tag k="place" v="quarter" />
		<tag k="ssr:stedsnr" v="283028" />
	</node>
<<<<<<< HEAD
	<node lat="59.93219186889532" lon="11.020780599016764" id="-16431">
		<tag k="fixme" v="consider place=suburb, village or hamlet" />
		<tag k="name" v="Kurland" />
=======
	<node id="-256634" lat="59.9339833317" lon="10.9529777837">
		<tag k="name" v="Kjenn" />
>>>>>>> e1d4bc35ff8a6074a6f2e91616a996b547c36f15
		<tag k="place" v="quarter" />
		<tag k="ssr:stedsnr" v="327600" />
	</node>
<<<<<<< HEAD
	<node lat="59.93023333687475" lon="10.95516111728995" id="-16432">
		<tag k="amenity" v="school" />
		<tag k="name" v="Solheim skole" />
		<tag k="ssr:stedsnr" v="327935" />
	</node>
	<node lat="59.90005278233315" lon="10.986847215627165" id="-16433">
		<tag k="name" v="Kirkerudbråten" />
=======
	<node id="-256633" lat="59.9223361076" lon="10.9856388872">
		<tag k="name" v="Mellom-Røyri" />
		<tag k="place" v="farm" />
		<tag k="ssr:stedsnr" v="691983" />
	</node>
	<node id="-256632" lat="59.8957138908" lon="10.9601555607">
		<tag k="name" v="Vestre Våler" />
>>>>>>> e1d4bc35ff8a6074a6f2e91616a996b547c36f15
		<tag k="place" v="farm" />
		<tag k="ssr:stedsnr" v="327948" />
	</node>
<<<<<<< HEAD
	<node lat="59.89249444863393" lon="10.982997226330603" id="-16434">
		<tag k="name" v="Grytehaugen" />
=======
	<node id="-256631" lat="59.8799361071" lon="10.9884222149">
		<tag k="name" v="Sandstykket" />
>>>>>>> e1d4bc35ff8a6074a6f2e91616a996b547c36f15
		<tag k="place" v="farm" />
		<tag k="ssr:stedsnr" v="327954" />
	</node>
<<<<<<< HEAD
	<node lat="59.89752499605363" lon="10.968286109367849" id="-16435">
		<tag k="name" v="Grinda" />
		<tag k="place" v="farm" />
		<tag k="ssr:stedsnr" v="327955" />
	</node>
	<node lat="59.91688055276741" lon="11.001808328168696" id="-16436">
		<tag k="name" v="Nylenne" />
		<tag k="place" v="locality" />
		<tag k="ssr:stedsnr" v="327627" />
	</node>
	<node lat="59.89671388670079" lon="10.969616673181019" id="-16437">
		<tag k="name" v="Hellerud" />
=======
	<node id="-256629" lat="59.918511112" lon="10.9611277699">
		<tag k="amenity" v="nursing_home" />
		<tag k="name" v="Lørenskog sykehjem" />
		<tag k="ssr:stedsnr" v="691930" />
	</node>
	<node id="-256628" lat="59.9338611116" lon="10.9715527798">
		<tag k="amenity" v="nursing_home" />
		<tag k="name" v="Dovre trygdesenter" />
		<tag k="ssr:stedsnr" v="691928" />
	</node>
	<node id="-256620" lat="59.9376694475" lon="10.9888972245">
		<tag k="name" v="Lørdagsrud" />
>>>>>>> e1d4bc35ff8a6074a6f2e91616a996b547c36f15
		<tag k="place" v="locality" />
		<tag k="ssr:stedsnr" v="327629" />
	</node>
<<<<<<< HEAD
	<node lat="59.92477777662178" lon="10.993011103175744" id="-16438">
		<tag k="name" v="Tangen" />
=======
	<node id="-256619" lat="59.9159833374" lon="10.9963583371">
		<tag k="name" v="Nordal" />
>>>>>>> e1d4bc35ff8a6074a6f2e91616a996b547c36f15
		<tag k="place" v="locality" />
		<tag k="ssr:stedsnr" v="327633" />
	</node>
<<<<<<< HEAD
	<node lat="59.92073333187374" lon="10.985963884696892" id="-16441">
		<tag k="name" v="Søndre Røyri" />
		<tag k="place" v="farm" />
		<tag k="ssr:stedsnr" v="327978" />
	</node>
	<node lat="59.93243055806621" lon="10.929674998812636" id="-16442">
		<tag k="name" v="Visperud" />
		<tag k="place" v="quarter" />
		<tag k="ssr:stedsnr" v="343035" />
	</node>
	<node lat="59.88698126646243" lon="10.983562036150557" id="-16443">
		<tag k="fixme" v="consider place=hamlet" />
		<tag k="name" v="Losby" />
=======
	<node id="-256612" lat="59.9249749993" lon="10.9712361163">
		<tag k="name" v="Nordre Nordli" />
		<tag k="place" v="farm" />
		<tag k="ssr:stedsnr" v="691107" />
	</node>
	<node id="-256504" lat="59.8953833338" lon="10.9676638935">
		<tag k="name" v="Østre Våler" />
		<tag k="place" v="farm" />
		<tag k="ssr:stedsnr" v="266971" />
	</node>
	<node id="-256601" lat="59.9337527811" lon="10.9946666701">
		<tag k="name" v="Nordbyhagen" />
		<tag k="place" v="quarter" />
		<tag k="ssr:stedsnr" v="526030" />
	</node>
	<node id="-256600" lat="59.9391277801" lon="10.9470499951">
		<tag k="alt_name" v="Robsrud" />
		<tag k="name" v="Rufsrud" />
		<tag k="place" v="quarter" />
		<tag k="ssr:stedsnr" v="526020" />
	</node>
	<node id="-256596" lat="59.9300749965" lon="11.0302527862">
		<tag k="name" v="Sandbekken" />
		<tag k="place" v="isolated_dwelling" />
		<tag k="ssr:stedsnr" v="490003" />
	</node>
	<node id="-256595" lat="59.876280792" lon="10.993455285">
		<tag k="name" v="Garterud" />
>>>>>>> e1d4bc35ff8a6074a6f2e91616a996b547c36f15
		<tag k="place" v="farm" />
		<tag k="ssr:stedsnr" v="368198" />
	</node>
<<<<<<< HEAD
	<node lat="59.92161389305357" lon="10.973624993154068" id="-16448">
		<tag k="name" v="Nordre Sørli" />
		<tag k="place" v="isolated_dwelling" />
		<tag k="ssr:stedsnr" v="387875" />
	</node>
	<node lat="59.92812777607533" lon="10.953438887324468" id="-16452">
		<tag k="name" v="Lørenskog sentrum" />
=======
	<node id="-256588" lat="59.9202416626" lon="10.9768611177">
		<tag k="name" v="Sørli" />
		<tag k="place" v="isolated_dwelling" />
		<tag k="ssr:stedsnr" v="672024" />
	</node>
	<node id="-256587" lat="59.9221511731" lon="10.9868934377">
		<tag k="name" v="Røyri" />
		<tag k="place" v="farm" />
		<tag k="ssr:stedsnr" v="672019" />
	</node>
	<node id="-256586" lat="59.9212000029" lon="10.9506249954">
		<tag k="alt_name" v="Søndre Rolvsrud" />
		<tag k="name" v="Rolvsrud" />
		<tag k="place" v="farm" />
		<tag k="ssr:stedsnr" v="672014" />
	</node>
	<node id="-256585" lat="59.9272527773" lon="10.9371722206">
		<tag k="name" v="Rasta" />
		<tag k="place" v="farm" />
		<tag k="ssr:stedsnr" v="672007" />
	</node>
	<node id="-256584" lat="59.9309722239" lon="10.9537222292">
		<tag k="fixme" v="consider place=suburb, village or hamlet" />
		<tag k="name" v="Kjenn" />
>>>>>>> e1d4bc35ff8a6074a6f2e91616a996b547c36f15
		<tag k="place" v="quarter" />
		<tag k="ssr:stedsnr" v="404035" />
	</node>
<<<<<<< HEAD
	<node lat="59.9397638920078" lon="10.997013881640498" id="-16453">
		<tag k="name" v="Vittenberg" />
		<tag k="place" v="quarter" />
		<tag k="ssr:stedsnr" v="404041" />
	</node>
	<node lat="59.922900001979784" lon="10.990577770485823" id="-16457">
=======
	<node id="-256583" lat="59.9288749983" lon="11.0219055637">
		<tag k="name" v="Skihytta" />
		<tag k="place" v="isolated_dwelling" />
		<tag k="ssr:stedsnr" v="672004" />
	</node>
	<node id="-256579" lat="59.922900002" lon="10.9905777705">
>>>>>>> e1d4bc35ff8a6074a6f2e91616a996b547c36f15
		<tag k="name" v="Norum" />
		<tag k="place" v="farm" />
		<tag k="ssr:stedsnr" v="429020" />
	</node>
<<<<<<< HEAD
	<node lat="59.93994811082169" lon="10.984674709950193" id="-16462">
		<tag k="amenity" v="school" />
		<tag k="name" v="Fjellhamar skole" />
		<tag k="ssr:stedsnr" v="448960" />
	</node>
	<node lat="59.88250000313304" lon="10.988202770566483" id="-16463">
		<tag k="name" v="Sagenga" />
=======
	<node id="-256578" lat="59.9320472191" lon="11.0198861025">
		<tag k="name" v="Kuland" />
		<tag k="place" v="farm" />
		<tag k="ssr:stedsnr" v="429002" />
	</node>
	<node id="-256577" lat="59.9416749986" lon="11.0089611104">
		<tag k="name" v="Guldal" />
		<tag k="place" v="quarter" />
		<tag k="ssr:stedsnr" v="509994" />
	</node>
	<node id="-256576" lat="59.9108749976" lon="10.9201583255">
		<tag k="name" v="Nyborg" />
		<tag k="place" v="farm" />
		<tag k="ssr:stedsnr" v="509982" />
	</node>
	<node id="-256575" lat="59.9001527769" lon="10.9681888861">
		<tag k="amenity" v="school" />
		<tag k="name" v="Fredheim skole" />
		<tag k="ssr:stedsnr" v="509930" />
	</node>
	<node id="-256570" lat="59.9356722183" lon="11.0020527722">
		<tag k="name" v="Haugen" />
		<tag k="place" v="locality" />
		<tag k="ssr:stedsnr" v="509627" />
	</node>
	<node id="-256569" lat="59.9171249968" lon="10.9926444501">
		<tag k="name" v="Røyrihagan" />
		<tag k="place" v="locality" />
		<tag k="ssr:stedsnr" v="509624" />
	</node>
	<node id="-256568" lat="59.9132944406" lon="10.9833416721">
		<tag k="name" v="Bomma" />
		<tag k="place" v="locality" />
		<tag k="ssr:stedsnr" v="509621" />
	</node>
	<node id="-256567" lat="59.9228999996" lon="11.0069916719">
		<tag k="name" v="Øvre Østby" />
>>>>>>> e1d4bc35ff8a6074a6f2e91616a996b547c36f15
		<tag k="place" v="farm" />
		<tag k="ssr:stedsnr" v="448965" />
	</node>
<<<<<<< HEAD
	<node lat="59.918944447106156" lon="11.009861110122607" id="-16473">
=======
	<node id="-256566" lat="59.9189444471" lon="11.0098611101">
>>>>>>> e1d4bc35ff8a6074a6f2e91616a996b547c36f15
		<tag k="name" v="NRTKs hytte" />
		<tag k="place" v="isolated_dwelling" />
		<tag k="ssr:stedsnr" v="509593" />
	</node>
<<<<<<< HEAD
	<node lat="59.92289999961655" lon="11.006991671931802" id="-16474">
		<tag k="name" v="Øvre Østby" />
		<tag k="place" v="farm" />
		<tag k="ssr:stedsnr" v="509600" />
	</node>
	<node lat="59.94167499861561" lon="11.008961110353189" id="-16480">
		<tag k="name" v="Guldal" />
		<tag k="place" v="quarter" />
		<tag k="ssr:stedsnr" v="509994" />
	</node>
	<node lat="59.9375416668501" lon="10.98415277732011" id="-16481">
		<tag k="name" v="Fjellhamar" />
		<tag k="place" v="quarter" />
		<tag k="ssr:stedsnr" v="526044" />
	</node>
	<node lat="59.9045833305202" lon="10.940716673906229" id="-16484">
		<tag k="name" v="Høgda" />
		<tag k="place" v="isolated_dwelling" />
		<tag k="ssr:stedsnr" v="550088" />
	</node>
	<node lat="59.87380555333272" lon="10.997750003116405" id="-16487">
		<tag k="name" v="Finnland" />
		<tag k="place" v="isolated_dwelling" />
		<tag k="ssr:stedsnr" v="550191" />
	</node>
	<node lat="59.90555435456442" lon="10.953414056065387" id="-16488">
		<tag k="name" v="Hauger" />
		<tag k="place" v="hamlet" />
		<tag k="ssr:stedsnr" v="551075" />
	</node>
	<node lat="59.93374722623777" lon="10.999849999657195" id="-16494">
		<tag k="name" v="Nordheim" />
		<tag k="place" v="farm" />
		<tag k="ssr:stedsnr" v="569981" />
	</node>
	<node lat="59.94166666262315" lon="10.989377783843734" id="-16495">
		<tag k="alt_name" v="Fjellhammer Brug;Fjeldhammer Brug" />
		<tag k="name" v="Fjellhammer bruk" />
		<tag k="place" v="quarter" />
		<tag k="ssr:stedsnr" v="569996" />
	</node>
	<node lat="59.923866666238936" lon="10.995394443880302" id="-16496">
		<tag k="name" v="Sørli" />
		<tag k="place" v="isolated_dwelling" />
		<tag k="ssr:stedsnr" v="569849" />
	</node>
	<node lat="59.89220833665583" lon="10.959005556585216" id="-16497">
		<tag k="name" v="Vesle Dalbakk" />
		<tag k="place" v="farm" />
		<tag k="ssr:stedsnr" v="569937" />
	</node>
	<node lat="59.868844445828884" lon="10.996230549012303" id="-16498">
		<tag k="name" v="Søndre Tangen" />
		<tag k="place" v="farm" />
		<tag k="ssr:stedsnr" v="569948" />
	</node>
	<node lat="59.89723888977856" lon="10.969200004429064" id="-16499">
		<tag k="name" v="Heia" />
		<tag k="place" v="isolated_dwelling" />
		<tag k="ssr:stedsnr" v="569949" />
	</node>
	<node lat="59.91668182702184" lon="10.976265365204261" id="-16500">
		<tag k="fixme" v="consider place=hamlet" />
		<tag k="name" v="Nes" />
		<tag k="place" v="farm" />
		<tag k="ssr:stedsnr" v="611022" />
	</node>
	<node lat="59.939550003950934" lon="11.007383328661067" id="-16504">
		<tag k="name" v="Fjellstad" />
=======
	<node id="-256562" lat="59.9216138931" lon="10.9736249932">
		<tag k="name" v="Nordre Sørli" />
		<tag k="place" v="isolated_dwelling" />
		<tag k="ssr:stedsnr" v="387875" />
	</node>
	<node id="-256561" lat="59.8952694483" lon="10.9712444482">
		<tag k="name" v="Morkbråten" />
		<tag k="place" v="farm" />
		<tag k="ssr:stedsnr" v="387974" />
	</node>
	<node id="-256560" lat="59.9186916697" lon="11.0012083266">
		<tag k="name" v="Nordli" />
		<tag k="place" v="isolated_dwelling" />
		<tag k="ssr:stedsnr" v="387965" />
	</node>
	<node id="-256559" lat="59.8707138863" lon="10.9948555552">
		<tag k="name" v="Nordre Tangen" />
		<tag k="place" v="farm" />
		<tag k="ssr:stedsnr" v="387964" />
	</node>
	<node id="-256552" lat="59.9193333371" lon="11.0025111109">
		<tag k="name" v="Lille Stensrud" />
		<tag k="place" v="locality" />
		<tag k="ssr:stedsnr" v="387663" />
	</node>
	<node id="-256551" lat="59.9024166635" lon="10.9875194503">
		<tag k="name" v="Sanderud" />
		<tag k="place" v="locality" />
		<tag k="ssr:stedsnr" v="387662" />
	</node>
	<node id="-256550" lat="59.8448055517" lon="11.0242888903">
		<tag k="name" v="Kustinta" />
		<tag k="place" v="locality" />
		<tag k="ssr:stedsnr" v="387658" />
	</node>
	<node id="-256543" lat="59.9296583375" lon="10.980880554">
		<tag k="name" v="Torshov" />
		<tag k="place" v="farm" />
		<tag k="ssr:stedsnr" v="489017" />
	</node>
	<node id="-256542" lat="59.9302333369" lon="10.9551611173">
		<tag k="amenity" v="school" />
		<tag k="name" v="Solheim skole" />
		<tag k="ssr:stedsnr" v="327935" />
	</node>
	<node id="-256541" lat="59.8691694439" lon="10.9516055594">
		<tag k="historic" v="shieling" />
		<tag k="name" v="Ryensetra" />
		<tag k="place" v="locality" />
		<tag k="ssr:stedsnr" v="327929" />
	</node>
	<node id="-256540" lat="59.9204861145" lon="10.9385499997">
		<tag k="amenity" v="school" />
		<tag k="name" v="Rasta skole" />
		<tag k="ssr:stedsnr" v="327923" />
	</node>
	<node id="-256602" lat="59.9375416669" lon="10.9841527773">
		<tag k="name" v="Fjellhamar" />
		<tag k="place" v="quarter" />
		<tag k="ssr:stedsnr" v="526044" />
	</node>
	<node id="-256535" lat="59.9341055578" lon="10.996977784">
		<tag k="fixme" v="consider place=hamlet" />
		<tag k="name" v="Nordbygda" />
		<tag k="place" v="village" />
		<tag k="ssr:stedsnr" v="465049" />
	</node>
	<node id="-256534" lat="59.9131694461" lon="10.9754361058">
		<tag k="name" v="Nesåsen" />
		<tag k="place" v="quarter" />
		<tag k="ssr:stedsnr" v="465029" />
	</node>
	<node id="-256532" lat="59.9379916691" lon="10.9785777726">
		<tag k="name" v="Fjellsrud" />
		<tag k="place" v="quarter" />
		<tag k="ssr:stedsnr" v="449000" />
	</node>
	<node id="-256531" lat="59.9356638884" lon="10.9348583352">
		<tag k="name" v="Robsrudenga" />
		<tag k="place" v="quarter" />
		<tag k="ssr:stedsnr" v="448998" />
	</node>
	<node id="-256530" lat="59.9389638918" lon="10.9919527821">
		<tag k="name" v="Blåkollen" />
		<tag k="place" v="quarter" />
		<tag k="ssr:stedsnr" v="448996" />
	</node>
	<node id="-256529" lat="59.9165444403" lon="10.9496083325">
		<tag k="name" v="Løkenhagen" />
>>>>>>> e1d4bc35ff8a6074a6f2e91616a996b547c36f15
		<tag k="place" v="hamlet" />
		<tag k="ssr:stedsnr" v="630577" />
	</node>
<<<<<<< HEAD
	<node lat="59.89224166698607" lon="10.977466661480124" id="-16510">
		<tag k="name" v="Skolehuset" />
=======
	<node id="-256528" lat="59.9307555564" lon="10.967877785">
		<tag k="name" v="Knatten" />
>>>>>>> e1d4bc35ff8a6074a6f2e91616a996b547c36f15
		<tag k="place" v="farm" />
		<tag k="ssr:stedsnr" v="630954" />
	</node>
<<<<<<< HEAD
	<node lat="59.90857777486422" lon="10.970844436364969" id="-16511">
		<tag k="name" v="Øvre Feiring" />
=======
	<node id="-256527" lat="59.9065694438" lon="10.9520222142">
		<tag k="name" v="Nordre Hauger" />
>>>>>>> e1d4bc35ff8a6074a6f2e91616a996b547c36f15
		<tag k="place" v="farm" />
		<tag k="ssr:stedsnr" v="630966" />
	</node>
<<<<<<< HEAD
	<node lat="59.92374167010971" lon="11.000625007695813" id="-16512">
		<tag k="name" v="Nedre Østby" />
=======
	<node id="-256526" lat="59.8825000031" lon="10.9882027706">
		<tag k="name" v="Sagenga" />
>>>>>>> e1d4bc35ff8a6074a6f2e91616a996b547c36f15
		<tag k="place" v="farm" />
		<tag k="ssr:stedsnr" v="630971" />
	</node>
<<<<<<< HEAD
	<node lat="59.92247222180173" lon="10.967494449559752" id="-16513">
		<tag k="amenity" v="school" />
		<tag k="name" v="Løkenåsen skole" />
		<tag k="ssr:stedsnr" v="630931" />
	</node>
	<node lat="59.93400278067055" lon="11.02312221642408" id="-16514">
		<tag k="name" v="Kurland" />
		<tag k="place" v="quarter" />
		<tag k="ssr:stedsnr" v="647041" />
	</node>
	<node lat="59.94563909498717" lon="10.951356606644154" id="-16516">
		<tag k="fixme" v="consider place=hamlet" />
		<tag k="name" v="Skårerødegården" />
		<tag k="place" v="farm" />
		<tag k="ssr:stedsnr" v="732561" />
	</node>
	<node lat="59.92227777436835" lon="10.92175832691628" id="-16517">
		<tag k="name" v="Nordli" />
		<tag k="place" v="farm" />
		<tag k="ssr:stedsnr" v="733027" />
	</node>
	<node lat="59.924322218224106" lon="10.982602779741171" id="-16525">
		<tag k="name" v="Søndre Hammer" />
		<tag k="place" v="farm" />
		<tag k="ssr:stedsnr" v="751085" />
	</node>
	<node lat="59.91680555989163" lon="10.99531110710206" id="-16527">
		<tag k="name" v="Røyribråtan" />
		<tag k="place" v="locality" />
		<tag k="ssr:stedsnr" v="751693" />
	</node>
	<node lat="59.93467221987593" lon="10.977752772307502" id="-16529">
		<tag k="name" v="Tynes" />
		<tag k="place" v="hamlet" />
		<tag k="ssr:stedsnr" v="751892" />
	</node>
	<node lat="59.92371944608507" lon="10.934536119426763" id="-16530">
		<tag k="name" v="Østlia" />
		<tag k="place" v="hamlet" />
		<tag k="ssr:stedsnr" v="751897" />
	</node>
	<node lat="59.928122218188015" lon="10.934380560077676" id="-16531">
		<tag k="name" v="Svingen" />
		<tag k="place" v="hamlet" />
		<tag k="ssr:stedsnr" v="751899" />
	</node>
	<node lat="59.910552778201144" lon="10.978547225566897" id="-16532">
		<tag k="name" v="Nedre Feiring" />
		<tag k="place" v="farm" />
		<tag k="ssr:stedsnr" v="751981" />
	</node>
	<node lat="59.93449722109195" lon="10.997197215275815" id="-16533">
		<tag k="name" v="Nordby" />
		<tag k="place" v="quarter" />
		<tag k="ssr:stedsnr" v="751997" />
	</node>
	<node lat="59.93664238002152" lon="11.007862663970556" id="-16535">
		<tag k="fixme" v="consider place=hamlet" />
		<tag k="name" v="Bårli" />
		<tag k="place" v="farm" />
		<tag k="ssr:stedsnr" v="793060" />
	</node>
	<node lat="59.91214722122248" lon="10.925786114840616" id="-16536">
		<tag k="name" v="Ekerud" />
		<tag k="place" v="isolated_dwelling" />
		<tag k="ssr:stedsnr" v="793085" />
	</node>
	<node lat="59.91078992464395" lon="10.918370454831226" id="-16537">
		<tag k="name" v="Bjørndalen" />
		<tag k="place" v="farm" />
		<tag k="ssr:stedsnr" v="793088" />
	</node>
	<node lat="59.92670277610179" lon="11.01318055287021" id="-16538">
		<tag k="name" v="Hovelsrudstua" />
		<tag k="place" v="farm" />
		<tag k="ssr:stedsnr" v="793097" />
	</node>
	<node lat="59.904438885028505" lon="10.984805562607098" id="-16541">
		<tag k="alt_name" v="Engerbråten" />
		<tag k="name" v="Engebråtan" />
		<tag k="old_name" v="Engebråten" />
		<tag k="place" v="farm" />
		<tag k="ssr:stedsnr" v="794066" />
	</node>
	<node lat="59.90082500372068" lon="10.967202783545904" id="-16542">
		<tag k="name" v="Grinderud" />
		<tag k="place" v="farm" />
		<tag k="ssr:stedsnr" v="794067" />
	</node>
	<node lat="59.92442499750682" lon="10.99802499459669" id="-16554">
		<tag k="amenity" v="nursing_home" />
		<tag k="name" v="Østbytunet behandlingshjem" />
		<tag k="ssr:stedsnr" v="812951" />
	</node>
	<node lat="59.854924996097616" lon="11.00111389318439" id="-16555">
		<tag k="historic" v="shieling" />
		<tag k="name" v="Feiringsetra" />
		<tag k="place" v="isolated_dwelling" />
		<tag k="ssr:stedsnr" v="812958" />
	</node>
	<node lat="59.89905277415925" lon="10.968561111235156" id="-16556">
		<tag k="name" v="Vålerhagan" />
		<tag k="place" v="farm" />
		<tag k="ssr:stedsnr" v="812977" />
	</node>
	<node lat="59.90530555400407" lon="10.942747221363167" id="-16557">
		<tag k="name" v="Bekkensten" />
		<tag k="place" v="locality" />
		<tag k="ssr:stedsnr" v="812666" />
	</node>
	<node lat="59.924350001917915" lon="10.947980550843479" id="-16558">
		<tag k="leisure" v="pitch" />
		<tag k="name" v="Rolvsrud idrettsplass" />
		<tag k="ssr:stedsnr" v="812675" />
	</node>
	<node lat="59.896841665481496" lon="10.958427779816976" id="-16559">
		<tag k="name" v="Vålerenga" />
		<tag k="place" v="farm" />
		<tag k="ssr:stedsnr" v="812987" />
	</node>
	<node lat="59.9047305558673" lon="10.952594439153932" id="-16560">
		<tag k="name" v="Søndre Hauger" />
		<tag k="place" v="farm" />
		<tag k="ssr:stedsnr" v="812988" />
	</node>
	<node lat="59.92006667060312" lon="10.951836106451257" id="-16561">
		<tag k="name" v="Skårer vest" />
		<tag k="place" v="quarter" />
		<tag k="ssr:stedsnr" v="813000" />
	</node>
	<node lat="59.936108334461245" lon="10.96640277839956" id="-16563">
		<tag k="name" v="Fjellhamarskogen" />
		<tag k="place" v="quarter" />
		<tag k="ssr:stedsnr" v="830044" />
	</node>
	<node lat="59.89468555729733" lon="10.953259707919798" id="-16565">
		<tag k="fixme" v="consider place=hamlet" />
		<tag k="name" v="Skulerud" />
		<tag k="place" v="farm" />
		<tag k="ssr:stedsnr" v="855078" />
	</node>
	<node lat="59.875005557528574" lon="10.990749995603746" id="-16568">
		<tag k="alt_name" v="Sotue" />
		<tag k="name" v="Sotua" />
		<tag k="place" v="farm" />
		<tag k="ssr:stedsnr" v="854172" />
	</node>
	<node lat="59.92394166879621" lon="10.971055553369252" id="-16579">
		<tag k="name" v="Søndre Nordli" />
		<tag k="place" v="farm" />
		<tag k="ssr:stedsnr" v="873096" />
	</node>
	<node lat="59.915844447438836" lon="10.97835832951976" id="-16582">
		<tag k="leisure" v="pitch" />
		<tag k="name" v="Neskollen skibakke" />
		<tag k="ssr:stedsnr" v="873613" />
	</node>
	<node lat="59.9291638931079" lon="10.964155551935102" id="-16583">
		<tag k="name" v="Skårås" />
		<tag k="place" v="locality" />
		<tag k="ssr:stedsnr" v="873637" />
	</node>
	<node lat="59.92808889188305" lon="10.938838883000136" id="-16584">
		<tag k="name" v="Bråten" />
=======
	<node id="-256525" lat="59.9396388865" lon="10.9843499927">
		<tag k="amenity" v="school" />
		<tag k="name" v="Fjellhamar skole" />
		<tag k="ssr:stedsnr" v="448960" />
	</node>
	<node id="-256455" lat="59.9017138846" lon="10.9280333354">
		<tag k="name" v="Toresrud" />
>>>>>>> e1d4bc35ff8a6074a6f2e91616a996b547c36f15
		<tag k="place" v="locality" />
		<tag k="ssr:stedsnr" v="873638" />
	</node>
<<<<<<< HEAD
	<node lat="59.91387222021262" lon="10.944999998708877" id="-16585">
		<tag k="name" v="Ilajordet" />
		<tag k="place" v="hamlet" />
		<tag k="ssr:stedsnr" v="873857" />
	</node>
	<node lat="59.88948333161821" lon="10.981827780135688" id="-16595">
		<tag k="name" v="Tomta" />
		<tag k="place" v="isolated_dwelling" />
		<tag k="ssr:stedsnr" v="873954" />
	</node>
	<node lat="59.88883055951609" lon="10.98319166199066" id="-16596">
		<tag k="name" v="Oppigard" />
		<tag k="place" v="locality" />
		<tag k="ssr:stedsnr" v="873969" />
	</node>
	<node lat="59.91848889047041" lon="10.952855555533496" id="-16597">
		<tag k="name" v="Triaden" />
		<tag k="place" v="quarter" />
		<tag k="ssr:stedsnr" v="873997" />
	</node>
	<node lat="59.87199166517021" lon="10.976255743918411" id="-16615">
		<tag k="fixme" v="consider tourism=alpine_hut or tourism=chalet" />
		<tag k="name" v="Fiskelaushytta" />
		<tag k="ssr:stedsnr" v="1074880" />
		<tag k="tourism" v="wilderness_hut" />
	</node>
	<node lat="59.91638808957415" lon="10.954698385052973" id="-16620">
		<tag k="amenity" v="kindergarten" />
		<tag k="name" v="Berger barnehage" />
		<tag k="ssr:stedsnr" v="1078235" />
	</node>
	<node lat="59.92514443340359" lon="10.954603877963576" id="-16621">
		<tag k="leisure" v="park" />
		<tag k="name" v="Skårerparken" />
		<tag k="ssr:stedsnr" v="1078321" />
	</node>
	<node lat="59.93804877923189" lon="10.979437126824415" id="-16624">
		<tag k="leisure" v="pitch" />
		<tag k="name" v="Fjellhamar arena" />
		<tag k="ssr:stedsnr" v="1081749" />
=======
	<node id="-256513" lat="59.925336111" lon="10.9839277735">
		<tag k="name" v="Mellom-Hammer" />
		<tag k="place" v="farm" />
		<tag k="ssr:stedsnr" v="448078" />
>>>>>>> e1d4bc35ff8a6074a6f2e91616a996b547c36f15
	</node>
</osm>
