<?xml version="1.0" encoding="UTF-8"?>
<<<<<<< HEAD
<osm version="0.6" generator="osmapis">
	<node lat="59.91467778153051" lon="10.991449994322174" id="-16057">
		<tag k="name" v="Tyskerudsletta" />
=======
<osm generator="osmapis" version="0.6">
	<node id="-256501" lat="59.9112027788" lon="10.9969555522">
		<tag k="name" v="Gråbeinhølet" />
		<tag k="natural" v="wetland" />
		<tag k="ssr:stedsnr" v="266911" />
	</node>
	<node id="-256500" lat="59.8468694489" lon="10.9534222205">
		<tag k="name" v="Løkenseterrøene" />
		<tag k="place" v="locality" />
		<tag k="ssr:stedsnr" v="266889" />
	</node>
	<node id="-256484" lat="59.8506666685" lon="10.9972416653">
		<tag k="name" v="Feiringsetermyr" />
		<tag k="natural" v="wetland" />
		<tag k="ssr:stedsnr" v="84923" />
	</node>
	<node id="-256483" lat="59.8791055518" lon="10.9140777766">
		<tag k="name" v="Gaupesteina" />
		<tag k="place" v="locality" />
		<tag k="ssr:stedsnr" v="84913" />
	</node>
	<node id="-256994" lat="59.8642388847" lon="10.9194027829">
		<tag k="name" v="Aslakstomta" />
		<tag k="place" v="locality" />
		<tag k="ssr:stedsnr" v="873880" />
	</node>
	<node id="-256993" lat="59.9100972202" lon="11.000077772">
		<tag k="name" v="Tømmerholen" />
		<tag k="place" v="locality" />
		<tag k="ssr:stedsnr" v="873877" />
	</node>
	<node id="-256460" lat="59.9127194409" lon="11.0186611192">
		<tag k="name" v="Lørenskogmarka øst" />
		<tag k="place" v="locality" />
		<tag k="ssr:stedsnr" v="40053" />
	</node>
	<node id="-256459" lat="59.8693888868" lon="10.9474999938">
		<tag k="name" v="Simannsmyra" />
		<tag k="natural" v="wetland" />
		<tag k="ssr:stedsnr" v="23920" />
	</node>
	<node id="-256458" lat="59.8587305534" lon="10.9314833303">
		<tag k="name" v="Skråbakkhølet" />
		<tag k="place" v="locality" />
		<tag k="ssr:stedsnr" v="23913" />
	</node>
	<node id="-256457" lat="59.8965361134" lon="10.9271083372">
		<tag k="name" v="Trettestykket" />
		<tag k="place" v="locality" />
		<tag k="ssr:stedsnr" v="23910" />
	</node>
	<node id="-256456" lat="59.9146777815" lon="10.9914499943">
		<tag k="name" v="Tyskerudsletta" />
		<tag k="place" v="locality" />
		<tag k="ssr:stedsnr" v="23902" />
	</node>
	<node id="-256966" lat="59.8711500027" lon="10.9679277819">
		<tag k="name" v="Flaskemyra" />
		<tag k="natural" v="wetland" />
		<tag k="ssr:stedsnr" v="812914" />
	</node>
	<node id="-256965" lat="59.8775138896" lon="10.9496722308">
		<tag k="name" v="Lombardiet" />
		<tag k="place" v="locality" />
		<tag k="ssr:stedsnr" v="812899" />
	</node>
	<node id="-256964" lat="59.8608694466" lon="10.9854361118">
		<tag k="name" v="Femtiliteren" />
		<tag k="place" v="locality" />
		<tag k="ssr:stedsnr" v="812896" />
	</node>
	<node id="-256955" lat="59.8456249996" lon="10.9556249938">
		<tag k="name" v="Cudriosteinen" />
		<tag k="natural" v="stone" />
		<tag k="ssr:stedsnr" v="812096" />
	</node>
	<node id="-256933" lat="59.863577776" lon="10.9380888868">
		<tag k="name" v="Skytterrøene" />
>>>>>>> e1d4bc35ff8a6074a6f2e91616a996b547c36f15
		<tag k="place" v="locality" />
		<tag k="ssr:stedsnr" v="23902" />
	</node>
<<<<<<< HEAD
	<node lat="59.89653611335485" lon="10.92710833717916" id="-16058">
		<tag k="name" v="Trettestykket" />
=======
	<node id="-256932" lat="59.895286113" lon="10.9807555612">
		<tag k="name" v="Vestmorkhagan" />
>>>>>>> e1d4bc35ff8a6074a6f2e91616a996b547c36f15
		<tag k="place" v="locality" />
		<tag k="ssr:stedsnr" v="23910" />
	</node>
<<<<<<< HEAD
	<node lat="59.858730553412656" lon="10.93148333025332" id="-16059">
		<tag k="name" v="Skråbakkhølet" />
=======
	<node id="-256931" lat="59.9095083375" lon="11.0259055529">
		<tag k="name" v="Jutebrenna" />
>>>>>>> e1d4bc35ff8a6074a6f2e91616a996b547c36f15
		<tag k="place" v="locality" />
		<tag k="ssr:stedsnr" v="23913" />
	</node>
<<<<<<< HEAD
	<node lat="59.87910555176319" lon="10.914077776567593" id="-16072">
		<tag k="name" v="Gaupesteina" />
		<tag k="place" v="locality" />
		<tag k="ssr:stedsnr" v="84913" />
	</node>
	<node lat="59.85066666847675" lon="10.997241665299116" id="-16073">
		<tag k="name" v="Feiringsetermyr" />
=======
	<node id="-256915" lat="59.8584722254" lon="10.9902194416">
		<tag k="name" v="Mellomslora" />
		<tag k="place" v="locality" />
		<tag k="ssr:stedsnr" v="630851" />
	</node>
	<node id="-256911" lat="59.9057611096" lon="10.9241805572">
		<tag k="name" v="Torvmyra" />
		<tag k="natural" v="wetland" />
		<tag k="ssr:stedsnr" v="630902" />
	</node>
	<node id="-256910" lat="59.9069666682" lon="10.999319436">
		<tag k="name" v="Torvmyra" />
		<tag k="natural" v="wetland" />
		<tag k="ssr:stedsnr" v="630895" />
	</node>
	<node id="-256909" lat="59.9095083348" lon="10.9947750018">
		<tag k="name" v="Lemyra" />
		<tag k="natural" v="wetland" />
		<tag k="ssr:stedsnr" v="630892" />
	</node>
	<node id="-256908" lat="59.8858361105" lon="11.0022583272">
		<tag k="name" v="Nestemyra" />
		<tag k="natural" v="wetland" />
		<tag k="ssr:stedsnr" v="630891" />
	</node>
	<node id="-256907" lat="59.8825638853" lon="10.9968138844">
		<tag k="name" v="Langmyra" />
>>>>>>> e1d4bc35ff8a6074a6f2e91616a996b547c36f15
		<tag k="natural" v="wetland" />
		<tag k="ssr:stedsnr" v="84923" />
	</node>
<<<<<<< HEAD
	<node lat="59.84338611172202" lon="10.958527786311873" id="-16075">
=======
	<node id="-256906" lat="59.8998083351" lon="11.0100972154">
>>>>>>> e1d4bc35ff8a6074a6f2e91616a996b547c36f15
		<tag k="historic" v="shieling" />
		<tag k="loc_name" v="Løykjesetra" />
		<tag k="name" v="Løkensetra" />
		<tag k="place" v="locality" />
		<tag k="ssr:stedsnr" v="84896" />
	</node>
<<<<<<< HEAD
	<node lat="59.8550611090862" lon="10.97619722343779" id="-16086">
		<tag k="alt_name" v="Høymyra" />
		<tag k="name" v="Høgmyra" />
=======
	<node id="-256896" lat="59.8748194469" lon="10.930816675">
		<tag k="name" v="Gråbeinmåsan" />
>>>>>>> e1d4bc35ff8a6074a6f2e91616a996b547c36f15
		<tag k="natural" v="wetland" />
		<tag k="ssr:stedsnr" v="126220" />
	</node>
<<<<<<< HEAD
	<node lat="59.84686944892644" lon="10.95342222046591" id="-16102">
		<tag k="name" v="Løkenseterrøene" />
=======
	<node id="-256888" lat="59.9112027774" lon="11.0165111115">
		<tag k="name" v="Nordlistykket" />
>>>>>>> e1d4bc35ff8a6074a6f2e91616a996b547c36f15
		<tag k="place" v="locality" />
		<tag k="ssr:stedsnr" v="266889" />
	</node>
<<<<<<< HEAD
	<node lat="59.88537222495211" lon="10.987333326052866" id="-16108">
		<tag k="name" v="Lønnefløtten" />
=======
	<node id="-256887" lat="59.8416166644" lon="10.9809305565">
		<tag k="historic" v="shieling" />
		<tag k="name" v="Lisetra" />
>>>>>>> e1d4bc35ff8a6074a6f2e91616a996b547c36f15
		<tag k="place" v="locality" />
		<tag k="ssr:stedsnr" v="205897" />
	</node>
<<<<<<< HEAD
	<node lat="59.91120277879283" lon="10.996955552220639" id="-16120">
		<tag k="name" v="Gråbeinhølet" />
=======
	<node id="-256873" lat="59.8427249971" lon="10.9644249942">
		<tag k="name" v="Løkensetermyrene" />
>>>>>>> e1d4bc35ff8a6074a6f2e91616a996b547c36f15
		<tag k="natural" v="wetland" />
		<tag k="ssr:stedsnr" v="266911" />
	</node>
<<<<<<< HEAD
	<node lat="59.86101110984453" lon="10.93722500521805" id="-16127">
		<tag k="alt_name" v="Kalvebrumåsan" />
		<tag k="name" v="Kavlebrumyra" />
		<tag k="natural" v="wetland" />
		<tag k="ssr:stedsnr" v="308201" />
	</node>
	<node lat="59.85553611170365" lon="11.01017500767827" id="-16132">
		<tag k="historic" v="shieling" />
		<tag k="name" v="Bårliseter" />
=======
	<node id="-256862" lat="59.8460083361" lon="10.9428388854">
		<tag k="alt_name" v="Blåsynsmåsan" />
		<tag k="name" v="Blåsynmåsan" />
		<tag k="natural" v="wetland" />
		<tag k="old_name" v="Blåsynmosen" />
		<tag k="ssr:stedsnr" v="430231" />
	</node>
	<node id="-256851" lat="59.8424944416" lon="10.9395138852">
		<tag k="name" v="Blåsynsrøene" />
		<tag k="place" v="locality" />
		<tag k="ssr:stedsnr" v="387897" />
	</node>
	<node id="-256850" lat="59.8590194481" lon="10.9335305622">
		<tag k="name" v="17. maiplassen" />
		<tag k="place" v="locality" />
		<tag k="ssr:stedsnr" v="387894" />
	</node>
	<node id="-256849" lat="59.8596222239" lon="11.0016527842">
		<tag k="name" v="Morktanga" />
		<tag k="place" v="locality" />
		<tag k="ssr:stedsnr" v="387889" />
	</node>
	<node id="-256848" lat="59.8633833356" lon="11.0071777772">
		<tag k="name" v="Merrasprenga" />
>>>>>>> e1d4bc35ff8a6074a6f2e91616a996b547c36f15
		<tag k="place" v="locality" />
		<tag k="ssr:stedsnr" v="327821" />
	</node>
<<<<<<< HEAD
	<node lat="59.889480558375084" lon="11.009949995261284" id="-16133">
=======
	<node id="-256833" lat="59.8894805584" lon="11.0099499953">
>>>>>>> e1d4bc35ff8a6074a6f2e91616a996b547c36f15
		<tag k="name" v="Breimåsan" />
		<tag k="natural" v="wetland" />
		<tag k="ssr:stedsnr" v="327862" />
	</node>
<<<<<<< HEAD
	<node lat="59.859447218758646" lon="10.963358337323598" id="-16146">
		<tag k="name" v="Setermyra" />
=======
	<node id="-256820" lat="59.8610111098" lon="10.9372250052">
		<tag k="alt_name" v="Kalvebrumåsan" />
		<tag k="name" v="Kavlebrumyra" />
		<tag k="natural" v="wetland" />
		<tag k="ssr:stedsnr" v="308201" />
	</node>
	<node id="-256816" lat="59.9432777809" lon="10.9463361164">
		<tag k="name" v="Sumpen" />
		<tag k="natural" v="wetland" />
		<tag k="ssr:stedsnr" v="205933" />
	</node>
	<node id="-256815" lat="59.9085972223" lon="11.0019972201">
		<tag k="name" v="Røyrimyra" />
>>>>>>> e1d4bc35ff8a6074a6f2e91616a996b547c36f15
		<tag k="natural" v="wetland" />
		<tag k="ssr:stedsnr" v="387905" />
	</node>
<<<<<<< HEAD
	<node lat="59.878158333603544" lon="10.962788881950054" id="-16147">
		<tag k="name" v="Igletjernmåsan" />
=======
	<node id="-256814" lat="59.9531444407" lon="10.9666499967">
		<tag k="name" v="Røssmyra" />
>>>>>>> e1d4bc35ff8a6074a6f2e91616a996b547c36f15
		<tag k="natural" v="wetland" />
		<tag k="ssr:stedsnr" v="387908" />
	</node>
<<<<<<< HEAD
	<node lat="59.89459444398632" lon="10.998000000711455" id="-16148">
		<tag k="name" v="Steinbråtemyrene" />
=======
	<node id="-256813" lat="59.8908166692" lon="10.9734111031">
		<tag k="name" v="Lennemyra" />
>>>>>>> e1d4bc35ff8a6074a6f2e91616a996b547c36f15
		<tag k="natural" v="wetland" />
		<tag k="ssr:stedsnr" v="387909" />
	</node>
<<<<<<< HEAD
	<node lat="59.86281944463772" lon="10.919416673950444" id="-16149">
		<tag k="name" v="Skyttenmyra" />
=======
	<node id="-256812" lat="59.8635055586" lon="10.9806166594">
		<tag k="name" v="Rundmyr" />
>>>>>>> e1d4bc35ff8a6074a6f2e91616a996b547c36f15
		<tag k="natural" v="wetland" />
		<tag k="ssr:stedsnr" v="387914" />
	</node>
<<<<<<< HEAD
	<node lat="59.88479722621053" lon="10.935380552403156" id="-16150">
		<tag k="name" v="Setermyra" />
=======
	<node id="-256811" lat="59.8586027762" lon="11.0155916591">
		<tag k="name" v="Delingsmyra" />
>>>>>>> e1d4bc35ff8a6074a6f2e91616a996b547c36f15
		<tag k="natural" v="wetland" />
		<tag k="ssr:stedsnr" v="387917" />
	</node>
<<<<<<< HEAD
	<node lat="59.85901944812538" lon="10.93353056222486" id="-16156">
		<tag k="name" v="17. maiplassen" />
=======
	<node id="-256810" lat="59.8510111141" lon="10.9362083416">
		<tag k="name" v="Kastvangen" />
>>>>>>> e1d4bc35ff8a6074a6f2e91616a996b547c36f15
		<tag k="place" v="locality" />
		<tag k="ssr:stedsnr" v="387894" />
	</node>
<<<<<<< HEAD
	<node lat="59.8424944415513" lon="10.93951388522552" id="-16157">
		<tag k="name" v="Blåsynsrøene" />
=======
	<node id="-256809" lat="59.885372225" lon="10.9873333261">
		<tag k="name" v="Lønnefløtten" />
>>>>>>> e1d4bc35ff8a6074a6f2e91616a996b547c36f15
		<tag k="place" v="locality" />
		<tag k="ssr:stedsnr" v="387897" />
	</node>
<<<<<<< HEAD
	<node lat="59.905369447525096" lon="11.022725005354467" id="-16169">
		<tag k="name" v="Ilemyr" />
=======
	<node id="-256785" lat="59.8658027738" lon="10.9389861141">
		<tag k="name" v="Stokkholtmyra" />
>>>>>>> e1d4bc35ff8a6074a6f2e91616a996b547c36f15
		<tag k="natural" v="wetland" />
		<tag k="ssr:stedsnr" v="448908" />
	</node>
<<<<<<< HEAD
	<node lat="59.84375000196862" lon="10.99125834130045" id="-16170">
		<tag k="name" v="Middagsmyra" />
=======
	<node id="-256784" lat="59.9100305565" lon="10.9190944456">
		<tag k="name" v="Bjørndalsmyra" />
>>>>>>> e1d4bc35ff8a6074a6f2e91616a996b547c36f15
		<tag k="natural" v="wetland" />
		<tag k="ssr:stedsnr" v="448912" />
	</node>
<<<<<<< HEAD
	<node lat="59.90568333729111" lon="10.992180561196385" id="-16171">
		<tag k="name" v="Brenna" />
=======
	<node id="-256783" lat="59.8526111121" lon="10.9506833412">
		<tag k="name" v="Eggemåsan" />
>>>>>>> e1d4bc35ff8a6074a6f2e91616a996b547c36f15
		<tag k="natural" v="wetland" />
		<tag k="ssr:stedsnr" v="448930" />
	</node>
<<<<<<< HEAD
	<node lat="59.88645277350056" lon="10.935533337503497" id="-16172">
		<tag k="name" v="Tørråsmyra" />
		<tag k="natural" v="wetland" />
		<tag k="ssr:stedsnr" v="448932" />
	</node>
	<node lat="59.89864444207805" lon="10.929591667440178" id="-16173">
		<tag k="name" v="Langmyra" />
=======
	<node id="-256782" lat="59.8559755575" lon="10.9678076373">
		<tag k="name" v="Tretjernhøla" />
		<tag k="natural" v="wetland" />
		<tag k="ssr:stedsnr" v="144888" />
	</node>
	<node id="-256768" lat="59.8550611091" lon="10.9761972234">
		<tag k="alt_name" v="Høymyra" />
		<tag k="name" v="Høgmyra" />
>>>>>>> e1d4bc35ff8a6074a6f2e91616a996b547c36f15
		<tag k="natural" v="wetland" />
		<tag k="ssr:stedsnr" v="448936" />
	</node>
<<<<<<< HEAD
	<node lat="59.890463892548894" lon="10.921749995121235" id="-16181">
		<tag k="alt_name" v="Setermyra" />
		<tag k="name" v="Sætermyr" />
=======
	<node id="-256766" lat="59.8798555548" lon="10.9266388923">
		<tag k="alt_name" v="Dammyra" />
		<tag k="name" v="Dammyr" />
>>>>>>> e1d4bc35ff8a6074a6f2e91616a996b547c36f15
		<tag k="natural" v="wetland" />
		<tag k="ssr:stedsnr" v="672146" />
	</node>
<<<<<<< HEAD
	<node lat="59.89795555286134" lon="11.022697224978407" id="-16187">
		<tag k="name" v="Ismyra" />
		<tag k="natural" v="wetland" />
		<tag k="ssr:stedsnr" v="509456" />
	</node>
	<node lat="59.8427249970914" lon="10.964424994175785" id="-16201">
		<tag k="name" v="Løkensetermyrene" />
=======
	<node id="-256758" lat="59.8433861117" lon="10.9585277863">
		<tag k="historic" v="shieling" />
		<tag k="loc_name" v="Løykjesetra" />
		<tag k="name" v="Løkensetra" />
		<tag k="place" v="locality" />
		<tag k="ssr:stedsnr" v="84896" />
	</node>
	<node id="-256734" lat="59.8751999988" lon="11.0004944519">
		<tag k="name" v="Finnlandsmyra" />
>>>>>>> e1d4bc35ff8a6074a6f2e91616a996b547c36f15
		<tag k="natural" v="wetland" />
		<tag k="ssr:stedsnr" v="550197" />
	</node>
<<<<<<< HEAD
	<node lat="59.90826666610689" lon="11.022038895480144" id="-16214">
		<tag k="historic" v="shieling" />
		<tag k="name" v="Jongseter" />
=======
	<node id="-256704" lat="59.8559444475" lon="10.9764472158">
		<tag k="name" v="Høymyrholtet" />
>>>>>>> e1d4bc35ff8a6074a6f2e91616a996b547c36f15
		<tag k="place" v="locality" />
		<tag k="ssr:stedsnr" v="691858" />
	</node>
<<<<<<< HEAD
	<node lat="59.85762499646273" lon="10.996458337121455" id="-16215">
		<tag k="name" v="Askeslora" />
		<tag k="place" v="locality" />
		<tag k="ssr:stedsnr" v="691871" />
	</node>
	<node lat="59.856772226005525" lon="10.924638889201173" id="-16234">
		<tag k="name" v="Purkemyrene" />
=======
	<node id="-256995" lat="59.8998722217" lon="11.004691673">
		<tag k="name" v="Odølingsmyra" />
		<tag k="natural" v="wetland" />
		<tag k="ssr:stedsnr" v="873890" />
	</node>
	<node id="-256696" lat="59.8929138846" lon="10.9257694399">
		<tag k="name" v="Kloppmyra" />
>>>>>>> e1d4bc35ff8a6074a6f2e91616a996b547c36f15
		<tag k="natural" v="wetland" />
		<tag k="ssr:stedsnr" v="611220" />
	</node>
<<<<<<< HEAD
	<node lat="59.85982222104949" lon="10.952749992979168" id="-16235">
		<tag k="name" v="Langmyra" />
=======
	<node id="-256687" lat="59.9072666699" lon="10.993541673">
		<tag k="name" v="Pjaskemyra" />
>>>>>>> e1d4bc35ff8a6074a6f2e91616a996b547c36f15
		<tag k="natural" v="wetland" />
		<tag k="ssr:stedsnr" v="611221" />
	</node>
<<<<<<< HEAD
	<node lat="59.88256388526416" lon="10.99681388436031" id="-16241">
		<tag k="name" v="Langmyra" />
		<tag k="natural" v="wetland" />
		<tag k="ssr:stedsnr" v="630890" />
	</node>
	<node lat="59.885836110475715" lon="11.002258327203801" id="-16242">
		<tag k="name" v="Nestemyra" />
=======
	<node id="-256649" lat="59.8525666668" lon="10.9836916595">
		<tag k="name" v="Skålsjømyra" />
>>>>>>> e1d4bc35ff8a6074a6f2e91616a996b547c36f15
		<tag k="natural" v="wetland" />
		<tag k="ssr:stedsnr" v="630891" />
	</node>
<<<<<<< HEAD
	<node lat="59.90950833478137" lon="10.994775001799136" id="-16243">
		<tag k="name" v="Lemyra" />
=======
	<node id="-256648" lat="59.9008027808" lon="11.0146805611">
		<tag k="name" v="Langmyra" />
>>>>>>> e1d4bc35ff8a6074a6f2e91616a996b547c36f15
		<tag k="natural" v="wetland" />
		<tag k="ssr:stedsnr" v="630892" />
	</node>
<<<<<<< HEAD
	<node lat="59.906966668170625" lon="10.999319436011756" id="-16244">
		<tag k="name" v="Torvmyra" />
=======
	<node id="-256641" lat="59.859822221" lon="10.952749993">
		<tag k="name" v="Langmyra" />
>>>>>>> e1d4bc35ff8a6074a6f2e91616a996b547c36f15
		<tag k="natural" v="wetland" />
		<tag k="ssr:stedsnr" v="630895" />
	</node>
<<<<<<< HEAD
	<node lat="59.90576110955288" lon="10.924180557204087" id="-16245">
		<tag k="name" v="Torvmyra" />
=======
	<node id="-256640" lat="59.856772226" lon="10.9246388892">
		<tag k="name" v="Purkemyrene" />
>>>>>>> e1d4bc35ff8a6074a6f2e91616a996b547c36f15
		<tag k="natural" v="wetland" />
		<tag k="ssr:stedsnr" v="630902" />
	</node>
<<<<<<< HEAD
	<node lat="59.87306111273114" lon="10.936977772388252" id="-16271">
		<tag k="name" v="Musehogget" />
		<tag k="place" v="locality" />
		<tag k="ssr:stedsnr" v="691876" />
	</node>
	<node lat="59.91710555772354" lon="11.008438896329464" id="-16272">
		<tag k="name" v="Tranbærmyra" />
=======
	<node id="-256626" lat="59.8792416654" lon="10.9355277841">
		<tag k="name" v="Kastmyra" />
>>>>>>> e1d4bc35ff8a6074a6f2e91616a996b547c36f15
		<tag k="natural" v="wetland" />
		<tag k="ssr:stedsnr" v="691879" />
	</node>
<<<<<<< HEAD
	<node lat="59.88886944148723" lon="10.9649111061431" id="-16273">
=======
	<node id="-256625" lat="59.8888694415" lon="10.9649111061">
>>>>>>> e1d4bc35ff8a6074a6f2e91616a996b547c36f15
		<tag k="name" v="Vålermyra" />
		<tag k="natural" v="wetland" />
		<tag k="ssr:stedsnr" v="691888" />
	</node>
<<<<<<< HEAD
	<node lat="59.8792416653971" lon="10.935527784118124" id="-16274">
		<tag k="name" v="Kastmyra" />
=======
	<node id="-256624" lat="59.9171055577" lon="11.0084388963">
		<tag k="name" v="Tranbærmyra" />
>>>>>>> e1d4bc35ff8a6074a6f2e91616a996b547c36f15
		<tag k="natural" v="wetland" />
		<tag k="ssr:stedsnr" v="691899" />
	</node>
<<<<<<< HEAD
	<node lat="59.90950833745605" lon="11.025905552919411" id="-16284">
		<tag k="name" v="Jutebrenna" />
=======
	<node id="-256623" lat="59.8730611127" lon="10.9369777724">
		<tag k="name" v="Musehogget" />
>>>>>>> e1d4bc35ff8a6074a6f2e91616a996b547c36f15
		<tag k="place" v="locality" />
		<tag k="ssr:stedsnr" v="751908" />
	</node>
<<<<<<< HEAD
	<node lat="59.89528611300359" lon="10.980755561228003" id="-16285">
		<tag k="name" v="Vestmorkhagan" />
=======
	<node id="-256622" lat="59.8576249965" lon="10.9964583371">
		<tag k="name" v="Askeslora" />
>>>>>>> e1d4bc35ff8a6074a6f2e91616a996b547c36f15
		<tag k="place" v="locality" />
		<tag k="ssr:stedsnr" v="751915" />
	</node>
<<<<<<< HEAD
	<node lat="59.86357777599009" lon="10.938088886761122" id="-16286">
		<tag k="name" v="Skytterrøene" />
=======
	<node id="-256621" lat="59.9082666661" lon="11.0220388955">
		<tag k="historic" v="shieling" />
		<tag k="name" v="Jongseter" />
>>>>>>> e1d4bc35ff8a6074a6f2e91616a996b547c36f15
		<tag k="place" v="locality" />
		<tag k="ssr:stedsnr" v="751918" />
	</node>
<<<<<<< HEAD
	<node lat="59.871150002669104" lon="10.967927781892175" id="-16304">
		<tag k="name" v="Flaskemyra" />
		<tag k="natural" v="wetland" />
		<tag k="ssr:stedsnr" v="812914" />
	</node>
	<node lat="59.907266669894426" lon="10.993541672958202" id="-16320">
		<tag k="name" v="Pjaskemyra" />
		<tag k="natural" v="wetland" />
		<tag k="ssr:stedsnr" v="934901" />
	</node>
	<node lat="59.869388886835715" lon="10.947499993792874" id="-16346">
		<tag k="name" v="Simannsmyra" />
=======
	<node id="-256603" lat="59.8920166639" lon="10.9232166655">
		<tag k="name" v="Lørenskogmarka vest" />
		<tag k="place" v="locality" />
		<tag k="ssr:stedsnr" v="526048" />
	</node>
	<node id="-256599" lat="59.855169446" lon="10.9528472276">
		<tag k="name" v="Bjørnebettet" />
		<tag k="place" v="locality" />
		<tag k="ssr:stedsnr" v="509858" />
	</node>
	<node id="-256598" lat="59.8979555529" lon="11.022697225">
		<tag k="name" v="Ismyra" />
>>>>>>> e1d4bc35ff8a6074a6f2e91616a996b547c36f15
		<tag k="natural" v="wetland" />
		<tag k="ssr:stedsnr" v="23920" />
	</node>
<<<<<<< HEAD
	<node lat="59.87519999875072" lon="11.000494451945599" id="-16353">
		<tag k="name" v="Finnlandsmyra" />
=======
	<node id="-256593" lat="59.8904638925" lon="10.9217499951">
		<tag k="alt_name" v="Setermyra" />
		<tag k="name" v="Sætermyr" />
>>>>>>> e1d4bc35ff8a6074a6f2e91616a996b547c36f15
		<tag k="natural" v="wetland" />
		<tag k="ssr:stedsnr" v="23925" />
	</node>
<<<<<<< HEAD
	<node lat="59.912719440927305" lon="11.018661119238244" id="-16358">
		<tag k="name" v="Lørenskogmarka øst" />
		<tag k="place" v="locality" />
		<tag k="ssr:stedsnr" v="40053" />
	</node>
	<node lat="59.87985555482843" lon="10.926638892254884" id="-16381">
		<tag k="alt_name" v="Dammyra" />
		<tag k="name" v="Dammyr" />
=======
	<node id="-256582" lat="59.843750002" lon="10.9912583413">
		<tag k="name" v="Middagsmyra" />
>>>>>>> e1d4bc35ff8a6074a6f2e91616a996b547c36f15
		<tag k="natural" v="wetland" />
		<tag k="ssr:stedsnr" v="126170" />
	</node>
<<<<<<< HEAD
	<node lat="59.855975557500734" lon="10.967807637274193" id="-16396">
		<tag k="name" v="Tretjernhøla" />
=======
	<node id="-256581" lat="59.9053694475" lon="11.0227250054">
		<tag k="name" v="Ilemyr" />
>>>>>>> e1d4bc35ff8a6074a6f2e91616a996b547c36f15
		<tag k="natural" v="wetland" />
		<tag k="ssr:stedsnr" v="144888" />
	</node>
<<<<<<< HEAD
	<node lat="59.8526111120866" lon="10.950683341218006" id="-16397">
		<tag k="name" v="Eggemåsan" />
		<tag k="natural" v="wetland" />
		<tag k="ssr:stedsnr" v="144904" />
	</node>
	<node lat="59.91003055647137" lon="10.91909444561072" id="-16398">
		<tag k="name" v="Bjørndalsmyra" />
		<tag k="natural" v="wetland" />
		<tag k="ssr:stedsnr" v="144917" />
	</node>
	<node lat="59.865802773761494" lon="10.938986114053526" id="-16399">
		<tag k="name" v="Stokkholtmyra" />
		<tag k="natural" v="wetland" />
		<tag k="ssr:stedsnr" v="144923" />
	</node>
	<node lat="59.85101111410036" lon="10.93620834160187" id="-16414">
		<tag k="name" v="Kastvangen" />
=======
	<node id="-256574" lat="59.8856138876" lon="10.9323472142">
		<tag k="historic" v="shieling" />
		<tag k="name" v="Skullerudsetra" />
		<tag k="place" v="locality" />
		<tag k="ssr:stedsnr" v="509843" />
	</node>
	<node id="-256573" lat="59.8888861095" lon="10.9223583398">
		<tag k="historic" v="shieling" />
		<tag k="name" v="Haugerseter" />
		<tag k="place" v="locality" />
		<tag k="ssr:stedsnr" v="509842" />
	</node>
	<node id="-256572" lat="59.9085666655" lon="11.0158777709">
		<tag k="historic" v="shieling" />
		<tag k="name" v="Rattvoll" />
>>>>>>> e1d4bc35ff8a6074a6f2e91616a996b547c36f15
		<tag k="place" v="locality" />
		<tag k="ssr:stedsnr" v="205912" />
	</node>
<<<<<<< HEAD
	<node lat="59.858602776225105" lon="11.01559165905441" id="-16415">
		<tag k="name" v="Delingsmyra" />
=======
	<node id="-256571" lat="59.9045694446" lon="10.9938166751">
		<tag k="name" v="Jentebråtamyra" />
>>>>>>> e1d4bc35ff8a6074a6f2e91616a996b547c36f15
		<tag k="natural" v="wetland" />
		<tag k="ssr:stedsnr" v="205915" />
	</node>
<<<<<<< HEAD
	<node lat="59.86350555856709" lon="10.980616659396372" id="-16416">
		<tag k="name" v="Rundmyr" />
=======
	<node id="-256557" lat="59.8847972262" lon="10.9353805524">
		<tag k="name" v="Setermyra" />
>>>>>>> e1d4bc35ff8a6074a6f2e91616a996b547c36f15
		<tag k="natural" v="wetland" />
		<tag k="ssr:stedsnr" v="205919" />
	</node>
<<<<<<< HEAD
	<node lat="59.890816669186734" lon="10.973411103145171" id="-16417">
		<tag k="name" v="Lennemyra" />
=======
	<node id="-256556" lat="59.8628194446" lon="10.919416674">
		<tag k="name" v="Skyttenmyra" />
>>>>>>> e1d4bc35ff8a6074a6f2e91616a996b547c36f15
		<tag k="natural" v="wetland" />
		<tag k="ssr:stedsnr" v="205921" />
	</node>
<<<<<<< HEAD
	<node lat="59.95314444068225" lon="10.96664999670523" id="-16418">
		<tag k="name" v="Røssmyra" />
=======
	<node id="-256555" lat="59.894594444" lon="10.9980000007">
		<tag k="name" v="Steinbråtemyrene" />
>>>>>>> e1d4bc35ff8a6074a6f2e91616a996b547c36f15
		<tag k="natural" v="wetland" />
		<tag k="ssr:stedsnr" v="205925" />
	</node>
<<<<<<< HEAD
	<node lat="59.90859722234871" lon="11.00199722010214" id="-16419">
		<tag k="name" v="Røyrimyra" />
=======
	<node id="-256554" lat="59.8781583336" lon="10.962788882">
		<tag k="name" v="Igletjernmåsan" />
>>>>>>> e1d4bc35ff8a6074a6f2e91616a996b547c36f15
		<tag k="natural" v="wetland" />
		<tag k="ssr:stedsnr" v="205929" />
	</node>
<<<<<<< HEAD
	<node lat="59.943277780866" lon="10.946336116382087" id="-16420">
		<tag k="name" v="Sumpen" />
=======
	<node id="-256553" lat="59.8594472188" lon="10.9633583373">
		<tag k="name" v="Setermyra" />
>>>>>>> e1d4bc35ff8a6074a6f2e91616a996b547c36f15
		<tag k="natural" v="wetland" />
		<tag k="ssr:stedsnr" v="205933" />
	</node>
<<<<<<< HEAD
	<node lat="59.91380277925358" lon="11.009361116632894" id="-16439">
=======
	<node id="-256538" lat="59.9138027793" lon="11.0093611166">
>>>>>>> e1d4bc35ff8a6074a6f2e91616a996b547c36f15
		<tag k="name" v="Stensrudmarka" />
		<tag k="place" v="locality" />
		<tag k="ssr:stedsnr" v="327827" />
	</node>
<<<<<<< HEAD
	<node lat="59.86338333562706" lon="11.00717777720419" id="-16449">
		<tag k="name" v="Merrasprenga" />
		<tag k="place" v="locality" />
		<tag k="ssr:stedsnr" v="387886" />
	</node>
	<node lat="59.85962222390177" lon="11.001652784220365" id="-16450">
		<tag k="name" v="Morktanga" />
		<tag k="place" v="locality" />
		<tag k="ssr:stedsnr" v="387889" />
	</node>
	<node lat="59.858755556822636" lon="11.006677772477529" id="-16455">
=======
	<node id="-256537" lat="59.8555361117" lon="11.0101750077">
		<tag k="historic" v="shieling" />
		<tag k="name" v="Bårliseter" />
		<tag k="place" v="locality" />
		<tag k="ssr:stedsnr" v="327821" />
	</node>
	<node id="-256524" lat="59.8986444421" lon="10.9295916674">
		<tag k="name" v="Langmyra" />
		<tag k="natural" v="wetland" />
		<tag k="ssr:stedsnr" v="448936" />
	</node>
	<node id="-256523" lat="59.8864527735" lon="10.9355333375">
		<tag k="name" v="Tørråsmyra" />
		<tag k="natural" v="wetland" />
		<tag k="ssr:stedsnr" v="448932" />
	</node>
	<node id="-256522" lat="59.9056833373" lon="10.9921805612">
		<tag k="name" v="Brenna" />
		<tag k="natural" v="wetland" />
		<tag k="ssr:stedsnr" v="448930" />
	</node>
	<node id="-256521" lat="59.8587555568" lon="11.0066777725">
>>>>>>> e1d4bc35ff8a6074a6f2e91616a996b547c36f15
		<tag k="name" v="Trondslora" />
		<tag k="place" v="locality" />
		<tag k="ssr:stedsnr" v="448901" />
	</node>
<<<<<<< HEAD
	<node lat="59.846008336053984" lon="10.94283888541417" id="-16461">
		<tag k="alt_name" v="Blåsynsmåsan" />
		<tag k="name" v="Blåsynmåsan" />
		<tag k="natural" v="wetland" />
		<tag k="old_name" v="Blåsynmosen" />
		<tag k="ssr:stedsnr" v="430231" />
	</node>
	<node lat="59.85516944600501" lon="10.952847227569714" id="-16475">
		<tag k="name" v="Bjørnebettet" />
		<tag k="place" v="locality" />
		<tag k="ssr:stedsnr" v="509858" />
	</node>
	<node lat="59.904569444574435" lon="10.993816675143732" id="-16476">
		<tag k="name" v="Jentebråtamyra" />
		<tag k="natural" v="wetland" />
		<tag k="ssr:stedsnr" v="509888" />
	</node>
	<node lat="59.90856666553606" lon="11.015877770871136" id="-16477">
		<tag k="historic" v="shieling" />
		<tag k="name" v="Rattvoll" />
		<tag k="place" v="locality" />
		<tag k="ssr:stedsnr" v="509840" />
	</node>
	<node lat="59.888886109468764" lon="10.922358339849012" id="-16478">
		<tag k="historic" v="shieling" />
		<tag k="name" v="Haugerseter" />
		<tag k="place" v="locality" />
		<tag k="ssr:stedsnr" v="509842" />
	</node>
	<node lat="59.88561388761257" lon="10.93234721423793" id="-16479">
		<tag k="historic" v="shieling" />
		<tag k="name" v="Skullerudsetra" />
		<tag k="place" v="locality" />
		<tag k="ssr:stedsnr" v="509843" />
	</node>
	<node lat="59.892016663886004" lon="10.923216665530248" id="-16482">
		<tag k="name" v="Lørenskogmarka vest" />
		<tag k="place" v="locality" />
		<tag k="ssr:stedsnr" v="526048" />
	</node>
	<node lat="59.84161666444928" lon="10.980930556474227" id="-16489">
		<tag k="historic" v="shieling" />
		<tag k="name" v="Lisetra" />
		<tag k="place" v="locality" />
		<tag k="ssr:stedsnr" v="569853" />
	</node>
	<node lat="59.91120277741843" lon="11.016511111528274" id="-16490">
		<tag k="name" v="Nordlistykket" />
		<tag k="place" v="locality" />
		<tag k="ssr:stedsnr" v="569856" />
	</node>
	<node lat="59.87481944687725" lon="10.93081667497459" id="-16502">
		<tag k="name" v="Gråbeinmåsan" />
		<tag k="natural" v="wetland" />
		<tag k="old_name" v="Gråbeinmosen" />
		<tag k="ssr:stedsnr" v="611169" />
	</node>
	<node lat="59.899808335129926" lon="11.010097215362759" id="-16505">
		<tag k="historic" v="shieling" />
		<tag k="name" v="Plåterudseter" />
		<tag k="place" v="locality" />
		<tag k="ssr:stedsnr" v="630830" />
	</node>
	<node lat="59.85847222540119" lon="10.990219441627303" id="-16507">
		<tag k="name" v="Mellomslora" />
		<tag k="place" v="locality" />
		<tag k="ssr:stedsnr" v="630851" />
	</node>
	<node lat="59.90080278075837" lon="11.014680561113197" id="-16508">
		<tag k="name" v="Langmyra" />
		<tag k="natural" v="wetland" />
		<tag k="ssr:stedsnr" v="630873" />
	</node>
	<node lat="59.85256666682886" lon="10.983691659542949" id="-16509">
		<tag k="name" v="Skålsjømyra" />
		<tag k="natural" v="wetland" />
		<tag k="ssr:stedsnr" v="630876" />
	</node>
	<node lat="59.8456249996094" lon="10.955624993786156" id="-16545">
		<tag k="name" v="Cudriosteinen" />
		<tag k="natural" v="stone" />
		<tag k="ssr:stedsnr" v="812096" />
	</node>
	<node lat="59.86086944659096" lon="10.985436111843473" id="-16552">
		<tag k="name" v="Femtiliteren" />
		<tag k="place" v="locality" />
		<tag k="ssr:stedsnr" v="812896" />
	</node>
	<node lat="59.87751388961145" lon="10.949672230775748" id="-16553">
		<tag k="name" v="Lombardiet" />
		<tag k="place" v="locality" />
		<tag k="ssr:stedsnr" v="812899" />
	</node>
	<node lat="59.8559444474539" lon="10.97644721576863" id="-16586">
		<tag k="name" v="Høymyrholtet" />
		<tag k="place" v="locality" />
		<tag k="ssr:stedsnr" v="873871" />
	</node>
	<node lat="59.910097220246264" lon="11.000077772015759" id="-16587">
		<tag k="name" v="Tømmerholen" />
		<tag k="place" v="locality" />
		<tag k="ssr:stedsnr" v="873877" />
	</node>
	<node lat="59.8642388846783" lon="10.919402782902228" id="-16588">
		<tag k="name" v="Aslakstomta" />
		<tag k="place" v="locality" />
		<tag k="ssr:stedsnr" v="873880" />
	</node>
	<node lat="59.89987222172006" lon="11.004691673044166" id="-16589">
		<tag k="name" v="Odølingsmyra" />
		<tag k="natural" v="wetland" />
		<tag k="ssr:stedsnr" v="873890" />
	</node>
	<node lat="59.892913884594705" lon="10.925769439942234" id="-16590">
		<tag k="name" v="Kloppmyra" />
		<tag k="natural" v="wetland" />
		<tag k="ssr:stedsnr" v="873910" />
	</node>
=======
>>>>>>> e1d4bc35ff8a6074a6f2e91616a996b547c36f15
</osm>
