<?xml version="1.0" encoding="UTF-8"?>
<<<<<<< HEAD
<osm version="0.6" generator="osmapis">
	<node lat="59.90416864491692" lon="11.017073471555099" id="-16054">
		<tag k="fixme" v="consider natural=peak for the most distinct mountains in the district" />
		<tag k="name" v="Jongseterås" />
		<tag k="natural" v="hill" />
=======
<osm generator="osmapis" version="0.6">
	<node id="-256512" lat="59.9154972241" lon="10.9180111069">
		<tag k="fixme" v="consider natural=peak for the most distinct mountains in the district" />
		<tag k="name" v="Mølleråsen" />
		<tag k="natural" v="hill" />
		<tag k="place" v="locality" />
		<tag k="ssr:stedsnr" v="448073" />
	</node>
	<node id="-256511" lat="59.8397611123" lon="11.0033249974">
		<tag k="name" v="Vestre Tonekollen" />
		<tag k="natural" v="hill" />
		<tag k="place" v="locality" />
		<tag k="ssr:stedsnr" v="448064" />
	</node>
	<node id="-256510" lat="59.8410527782" lon="10.9773055524">
		<tag k="name" v="Søndre Liseterkollen" />
		<tag k="natural" v="hill" />
		<tag k="place" v="locality" />
		<tag k="ssr:stedsnr" v="448063" />
	</node>
	<node id="-256492" lat="59.892172219" lon="11.0054250026">
		<tag k="name" v="Veslevannsdalen" />
		<tag k="natural" v="valley" />
		<tag k="place" v="locality" />
		<tag k="ssr:stedsnr" v="266107" />
	</node>
	<node id="-256490" lat="59.8823111135" lon="10.962022225">
		<tag k="name" v="Liadalen" />
		<tag k="natural" v="valley" />
		<tag k="place" v="locality" />
		<tag k="ssr:stedsnr" v="266096" />
	</node>
	<node id="-256488" lat="59.8906749983" lon="10.939225008">
		<tag k="name" v="Skullerudkollen" />
		<tag k="natural" v="hill" />
		<tag k="place" v="locality" />
		<tag k="ssr:stedsnr" v="266039" />
	</node>
	<node id="-256480" lat="59.9241805553" lon="11.0208138919">
		<tag k="name" v="Kopledalen" />
		<tag k="natural" v="valley" />
		<tag k="place" v="locality" />
		<tag k="ssr:stedsnr" v="84660" />
	</node>
	<node id="-256478" lat="59.8863111122" lon="10.9121694531">
		<tag k="name" v="Sundliene" />
		<tag k="natural" v="slope" />
		<tag k="place" v="locality" />
		<tag k="ssr:stedsnr" v="84114" />
	</node>
	<node id="-256989" lat="59.9144472193" lon="10.993902783">
		<tag k="name" v="Toppberget" />
		<tag k="natural" v="hill" />
		<tag k="place" v="locality" />
		<tag k="ssr:stedsnr" v="873045" />
	</node>
	<node id="-256988" lat="59.909661112" lon="10.9908000057">
		<tag k="name" v="Kleiva" />
		<tag k="natural" v="valley" />
		<tag k="place" v="locality" />
		<tag k="ssr:stedsnr" v="873102" />
	</node>
	<node id="-256987" lat="59.9007222263" lon="10.9895916721">
		<tag k="name" v="Bakkeruddalen" />
		<tag k="natural" v="valley" />
		<tag k="place" v="locality" />
		<tag k="ssr:stedsnr" v="873100" />
	</node>
	<node id="-256474" lat="59.8936722192" lon="10.9354722133">
		<tag k="name" v="Furuberget" />
		<tag k="natural" v="hill" />
		<tag k="place" v="locality" />
		<tag k="ssr:stedsnr" v="84053" />
	</node>
	<node id="-256985" lat="59.8726583299" lon="11.0113527719">
		<tag k="alt_name" v="Gjerterudlia" />
		<tag k="name" v="Gjertrudlia" />
		<tag k="natural" v="slope" />
		<tag k="place" v="locality" />
		<tag k="ssr:stedsnr" v="873092" />
	</node>
	<node id="-256984" lat="59.9099583377" lon="11.0078222175">
		<tag k="fixme" v="consider natural=peak for the most distinct mountains in the district" />
		<tag k="name" v="Tordenås" />
		<tag k="natural" v="hill" />
		<tag k="place" v="locality" />
		<tag k="ssr:stedsnr" v="873083" />
	</node>
	<node id="-256983" lat="59.9469694401" lon="10.968541672">
		<tag k="fixme" v="consider natural=peak for the most distinct mountains in the district" />
		<tag k="name" v="Haneborgåsen" />
		<tag k="natural" v="hill" />
		<tag k="place" v="locality" />
		<tag k="ssr:stedsnr" v="873074" />
	</node>
	<node id="-256982" lat="59.8769777756" lon="10.9860277779">
		<tag k="fixme" v="consider natural=peak for the most distinct mountains in the district" />
		<tag k="name" v="Løkkåsen" />
		<tag k="natural" v="hill" />
		<tag k="place" v="locality" />
		<tag k="ssr:stedsnr" v="873071" />
	</node>
	<node id="-256981" lat="59.8729777746" lon="11.0018833289">
		<tag k="fixme" v="consider natural=peak for the most distinct mountains in the district" />
		<tag k="name" v="Finnlandsåsen" />
		<tag k="natural" v="hill" />
		<tag k="place" v="locality" />
		<tag k="ssr:stedsnr" v="873067" />
	</node>
	<node id="-256980" lat="59.9039444483" lon="10.9219472256">
		<tag k="fixme" v="consider natural=peak for the most distinct mountains in the district" />
		<tag k="name" v="Brennåsen" />
		<tag k="natural" v="hill" />
		<tag k="place" v="locality" />
		<tag k="ssr:stedsnr" v="873063" />
	</node>
	<node id="-256976" lat="59.8455805573" lon="10.9806222238">
		<tag k="fixme" v="consider natural=peak for the most distinct mountains in the district" />
		<tag k="name" v="Liseterkollen" />
		<tag k="natural" v="hill" />
		<tag k="place" v="locality" />
		<tag k="ssr:stedsnr" v="817811" />
	</node>
	<node id="-256463" lat="59.8652861108" lon="10.9243249962">
		<tag k="fixme" v="consider natural=peak for the most distinct mountains in the district" />
		<tag k="name" v="Nilsåsen" />
		<tag k="natural" v="hill" />
		<tag k="place" v="locality" />
		<tag k="ssr:stedsnr" v="65130" />
	</node>
	<node id="-256954" lat="59.9006694465" lon="11.0226305468">
		<tag k="name" v="Isdalen" />
		<tag k="natural" v="valley" />
>>>>>>> e1d4bc35ff8a6074a6f2e91616a996b547c36f15
		<tag k="place" v="locality" />
		<tag k="ssr:stedsnr" v="23084" />
	</node>
<<<<<<< HEAD
	<node lat="59.863036110117584" lon="10.994352773770174" id="-16055">
		<tag k="name" v="Malmerlia" />
		<tag k="natural" v="slope" />
=======
	<node id="-256953" lat="59.8634000002" lon="10.9249805619">
		<tag k="name" v="Tjuvdalen" />
		<tag k="natural" v="valley" />
>>>>>>> e1d4bc35ff8a6074a6f2e91616a996b547c36f15
		<tag k="place" v="locality" />
		<tag k="ssr:stedsnr" v="23093" />
	</node>
<<<<<<< HEAD
	<node lat="59.87709444795953" lon="11.019649997214872" id="-16066">
		<tag k="alt_name" v="Trettås" />
=======
	<node id="-256952" lat="59.8829500028" lon="11.006080561">
>>>>>>> e1d4bc35ff8a6074a6f2e91616a996b547c36f15
		<tag k="fixme" v="consider natural=peak for the most distinct mountains in the district" />
		<tag k="name" v="Trettåsen" />
		<tag k="natural" v="hill" />
		<tag k="place" v="locality" />
		<tag k="ssr:stedsnr" v="65185" />
	</node>
<<<<<<< HEAD
	<node lat="59.84418611506501" lon="11.012063890273659" id="-16067">
		<tag k="name" v="Østre Tonekollen" />
=======
	<node id="-256951" lat="59.8956916655" lon="10.9479944485">
		<tag k="name" v="Linderudkollen" />
>>>>>>> e1d4bc35ff8a6074a6f2e91616a996b547c36f15
		<tag k="natural" v="hill" />
		<tag k="place" v="locality" />
		<tag k="ssr:stedsnr" v="84080" />
	</node>
<<<<<<< HEAD
	<node lat="59.884436115437914" lon="11.01611945168885" id="-16068">
=======
	<node id="-256948" lat="59.9140472223" lon="10.938497221">
>>>>>>> e1d4bc35ff8a6074a6f2e91616a996b547c36f15
		<tag k="fixme" v="consider natural=peak for the most distinct mountains in the district" />
		<tag k="name" v="Hvitvannsåsen" />
		<tag k="natural" v="hill" />
		<tag k="place" v="locality" />
		<tag k="ssr:stedsnr" v="84105" />
	</node>
<<<<<<< HEAD
	<node lat="59.87155000395343" lon="10.958744450651054" id="-16069">
=======
	<node id="-256921" lat="59.8635916633" lon="10.9115916606">
>>>>>>> e1d4bc35ff8a6074a6f2e91616a996b547c36f15
		<tag k="fixme" v="consider natural=peak for the most distinct mountains in the district" />
		<tag k="name" v="Strudsåsen" />
		<tag k="natural" v="hill" />
		<tag k="place" v="locality" />
		<tag k="ssr:stedsnr" v="84108" />
	</node>
<<<<<<< HEAD
	<node lat="59.88631111221008" lon="10.91216945312461" id="-16070">
		<tag k="name" v="Sundliene" />
		<tag k="natural" v="slope" />
		<tag k="place" v="locality" />
		<tag k="ssr:stedsnr" v="84114" />
	</node>
	<node lat="59.89598333702374" lon="10.932572216226845" id="-16085">
		<tag k="alt_name" v="Kvennåsen" />
=======
	<node id="-256904" lat="59.9075333327" lon="10.986688884">
		<tag k="name" v="Blåveislia" />
		<tag k="natural" v="slope" />
		<tag k="place" v="locality" />
		<tag k="ssr:stedsnr" v="630089" />
	</node>
	<node id="-256903" lat="59.8545527783" lon="10.9294416665">
		<tag k="name" v="Losbydalen" />
		<tag k="natural" v="valley" />
		<tag k="place" v="locality" />
		<tag k="ssr:stedsnr" v="630083" />
	</node>
	<node id="-256902" lat="59.8706222231" lon="10.9980249986">
>>>>>>> e1d4bc35ff8a6074a6f2e91616a996b547c36f15
		<tag k="fixme" v="consider natural=peak for the most distinct mountains in the district" />
		<tag k="name" v="Kvernås" />
		<tag k="natural" v="hill" />
		<tag k="place" v="locality" />
		<tag k="ssr:stedsnr" v="126084" />
	</node>
<<<<<<< HEAD
	<node lat="59.88513888737632" lon="10.954775006343365" id="-16105">
		<tag k="name" v="Kula" />
=======
	<node id="-256901" lat="59.8670944442" lon="10.982874995">
		<tag k="name" v="Mønekollen" />
>>>>>>> e1d4bc35ff8a6074a6f2e91616a996b547c36f15
		<tag k="natural" v="hill" />
		<tag k="place" v="locality" />
		<tag k="ssr:stedsnr" v="205045" />
	</node>
<<<<<<< HEAD
	<node lat="59.89067499825229" lon="10.939225008041376" id="-16114">
		<tag k="name" v="Skullerudkollen" />
=======
	<node id="-256897" lat="59.872752777" lon="10.9295749991">
		<tag k="alt_name" v="Garfangåsen" />
		<tag k="fixme" v="consider natural=peak for the most distinct mountains in the district" />
		<tag k="name" v="Gardfangåsen" />
>>>>>>> e1d4bc35ff8a6074a6f2e91616a996b547c36f15
		<tag k="natural" v="hill" />
		<tag k="place" v="locality" />
		<tag k="ssr:stedsnr" v="266039" />
	</node>
<<<<<<< HEAD
	<node lat="59.88231111347128" lon="10.962022224954733" id="-16115">
		<tag k="name" v="Liadalen" />
		<tag k="natural" v="valley" />
=======
	<node id="-256885" lat="59.9192611155" lon="11.0084888865">
		<tag k="fixme" v="consider natural=peak for the most distinct mountains in the district" />
		<tag k="name" v="Tjuvåsen" />
		<tag k="natural" v="hill" />
>>>>>>> e1d4bc35ff8a6074a6f2e91616a996b547c36f15
		<tag k="place" v="locality" />
		<tag k="ssr:stedsnr" v="266096" />
	</node>
<<<<<<< HEAD
	<node lat="59.89217221903003" lon="11.00542500257273" id="-16117">
		<tag k="name" v="Veslevannsdalen" />
=======
	<node id="-256882" lat="59.8865444445" lon="10.9335722238">
		<tag k="name" v="Mesmerkleiva" />
>>>>>>> e1d4bc35ff8a6074a6f2e91616a996b547c36f15
		<tag k="natural" v="valley" />
		<tag k="place" v="locality" />
		<tag k="ssr:stedsnr" v="266107" />
	</node>
<<<<<<< HEAD
	<node lat="59.88006944015374" lon="10.937638888142624" id="-16128">
=======
	<node id="-256881" lat="59.9128916623" lon="11.0240972196">
>>>>>>> e1d4bc35ff8a6074a6f2e91616a996b547c36f15
		<tag k="fixme" v="consider natural=peak for the most distinct mountains in the district" />
		<tag k="name" v="Tørråsen" />
		<tag k="natural" v="hill" />
		<tag k="place" v="locality" />
		<tag k="ssr:stedsnr" v="327059" />
	</node>
<<<<<<< HEAD
	<node lat="59.8933416692628" lon="11.010597215258318" id="-16129">
		<tag k="fixme" v="consider natural=peak for the most distinct mountains in the district" />
		<tag k="name" v="Nestemyråsen" />
=======
	<node id="-256880" lat="59.8691444444" lon="10.9252388832">
		<tag k="fixme" v="consider natural=peak for the most distinct mountains in the district" />
		<tag k="name" v="Skråbakkåsen" />
		<tag k="natural" v="hill" />
		<tag k="place" v="locality" />
		<tag k="ssr:stedsnr" v="569076" />
	</node>
	<node id="-256879" lat="59.9100638846" lon="11.0119861156">
		<tag k="name" v="Arnlihøgda" />
		<tag k="natural" v="hill" />
		<tag k="place" v="locality" />
		<tag k="ssr:stedsnr" v="569072" />
	</node>
	<node id="-256878" lat="59.9021694429" lon="10.9729083381">
		<tag k="name" v="Rudkollen" />
>>>>>>> e1d4bc35ff8a6074a6f2e91616a996b547c36f15
		<tag k="natural" v="hill" />
		<tag k="place" v="locality" />
		<tag k="ssr:stedsnr" v="327076" />
	</node>
<<<<<<< HEAD
	<node lat="59.90703888923021" lon="11.007030562920265" id="-16142">
		<tag k="name" v="Grevlingdalen" />
		<tag k="natural" v="valley" />
=======
	<node id="-256877" lat="59.8868611109" lon="10.9508833402">
		<tag k="name" v="Hestekollen" />
		<tag k="natural" v="hill" />
>>>>>>> e1d4bc35ff8a6074a6f2e91616a996b547c36f15
		<tag k="place" v="locality" />
		<tag k="ssr:stedsnr" v="387114" />
	</node>
<<<<<<< HEAD
	<node lat="59.85090555128954" lon="10.97485000485798" id="-16159">
		<tag k="name" v="Østmarka" />
		<tag k="natural" v="wood" />
		<tag k="ssr:stedsnr" v="490224" />
	</node>
	<node lat="59.9010500002478" lon="10.973750008245359" id="-16162">
=======
	<node id="-256876" lat="59.9077888844" lon="10.9876388948">
		<tag k="name" v="Kirkerudkollen" />
		<tag k="natural" v="hill" />
		<tag k="place" v="locality" />
		<tag k="ssr:stedsnr" v="569052" />
	</node>
	<node id="-256860" lat="59.9010500002" lon="10.9737500082">
>>>>>>> e1d4bc35ff8a6074a6f2e91616a996b547c36f15
		<tag k="fixme" v="consider natural=peak for the most distinct mountains in the district" />
		<tag k="name" v="Feiringåsen" />
		<tag k="natural" v="hill" />
		<tag k="place" v="locality" />
		<tag k="ssr:stedsnr" v="430068" />
	</node>
<<<<<<< HEAD
	<node lat="59.9154972240889" lon="10.918011106864098" id="-16164">
=======
	<node id="-256847" lat="59.8466722197" lon="10.964113888">
>>>>>>> e1d4bc35ff8a6074a6f2e91616a996b547c36f15
		<tag k="fixme" v="consider natural=peak for the most distinct mountains in the district" />
		<tag k="name" v="Mølleråsen" />
		<tag k="natural" v="hill" />
		<tag k="place" v="locality" />
<<<<<<< HEAD
		<tag k="ssr:stedsnr" v="448073" />
	</node>
	<node lat="59.86826388633448" lon="10.970569447864495" id="-16166">
		<tag k="fixme" v="consider natural=peak for the most distinct mountains in the district" />
		<tag k="name" v="Drettvannsåsen" />
		<tag k="natural" v="hill" />
=======
		<tag k="ssr:stedsnr" v="387089" />
	</node>
	<node id="-256827" lat="59.8941499991" lon="11.0010861152">
		<tag k="name" v="Styggvannsdalen" />
		<tag k="natural" v="valley" />
		<tag k="place" v="locality" />
		<tag k="ssr:stedsnr" v="327096" />
	</node>
	<node id="-256826" lat="59.8657555555" lon="10.9733583263">
		<tag k="name" v="Snøsokkdalen" />
		<tag k="natural" v="valley" />
		<tag k="place" v="locality" />
		<tag k="ssr:stedsnr" v="327091" />
	</node>
	<node id="-256825" lat="59.8952805563" lon="10.974488894">
		<tag k="name" v="Bråtabakken" />
		<tag k="natural" v="slope" />
>>>>>>> e1d4bc35ff8a6074a6f2e91616a996b547c36f15
		<tag k="place" v="locality" />
		<tag k="ssr:stedsnr" v="448083" />
	</node>
<<<<<<< HEAD
	<node lat="59.84791944249081" lon="11.010552778619946" id="-16167">
		<tag k="name" v="Skårerlia" />
=======
	<node id="-256824" lat="59.8766361144" lon="10.9773388899">
		<tag k="alt_name" v="Endtjernliene" />
		<tag k="name" v="Endtjernlia" />
>>>>>>> e1d4bc35ff8a6074a6f2e91616a996b547c36f15
		<tag k="natural" v="slope" />
		<tag k="place" v="locality" />
		<tag k="ssr:stedsnr" v="448086" />
	</node>
<<<<<<< HEAD
	<node lat="59.94474444596171" lon="10.967341663221411" id="-16180">
		<tag k="name" v="Skjettenkollen" />
=======
	<node id="-256823" lat="59.8933416693" lon="11.0105972153">
		<tag k="fixme" v="consider natural=peak for the most distinct mountains in the district" />
		<tag k="name" v="Nestemyråsen" />
>>>>>>> e1d4bc35ff8a6074a6f2e91616a996b547c36f15
		<tag k="natural" v="hill" />
		<tag k="place" v="locality" />
		<tag k="ssr:stedsnr" v="672044" />
	</node>
<<<<<<< HEAD
	<node lat="59.88153610924561" lon="10.920011103359194" id="-16182">
		<tag k="name" v="Skilledalen" />
		<tag k="natural" v="valley" />
=======
	<node id="-256822" lat="59.8800694402" lon="10.9376388881">
		<tag k="fixme" v="consider natural=peak for the most distinct mountains in the district" />
		<tag k="name" v="Tørråsen" />
		<tag k="natural" v="hill" />
>>>>>>> e1d4bc35ff8a6074a6f2e91616a996b547c36f15
		<tag k="place" v="locality" />
		<tag k="ssr:stedsnr" v="672148" />
	</node>
<<<<<<< HEAD
	<node lat="59.86260000042167" lon="10.949374996273772" id="-16186">
		<tag k="alt_name" v="Mortvassåsen" />
=======
	<node id="-256819" lat="59.8872888845" lon="10.9306999945">
>>>>>>> e1d4bc35ff8a6074a6f2e91616a996b547c36f15
		<tag k="fixme" v="consider natural=peak for the most distinct mountains in the district" />
		<tag k="name" v="Mortvannsåsen" />
		<tag k="natural" v="hill" />
		<tag k="place" v="locality" />
		<tag k="ssr:stedsnr" v="490141" />
	</node>
<<<<<<< HEAD
	<node lat="59.91315555726072" lon="10.975913894272884" id="-16203">
=======
	<node id="-256477" lat="59.871550004" lon="10.9587444507">
		<tag k="fixme" v="consider natural=peak for the most distinct mountains in the district" />
		<tag k="name" v="Strudsåsen" />
		<tag k="natural" v="hill" />
		<tag k="place" v="locality" />
		<tag k="ssr:stedsnr" v="84108" />
	</node>
	<node id="-256476" lat="59.8844361154" lon="11.0161194517">
		<tag k="fixme" v="consider natural=peak for the most distinct mountains in the district" />
		<tag k="name" v="Hvitvannsåsen" />
		<tag k="natural" v="hill" />
		<tag k="place" v="locality" />
		<tag k="ssr:stedsnr" v="84105" />
	</node>
	<node id="-256806" lat="59.9205194435" lon="11.0160583263">
>>>>>>> e1d4bc35ff8a6074a6f2e91616a996b547c36f15
		<tag k="fixme" v="consider natural=peak for the most distinct mountains in the district" />
		<tag k="name" v="Nesåsen" />
		<tag k="natural" v="hill" />
		<tag k="place" v="locality" />
		<tag k="ssr:stedsnr" v="691087" />
	</node>
<<<<<<< HEAD
	<node lat="59.86497777451935" lon="11.004616669809755" id="-16204">
=======
	<node id="-256804" lat="59.9103527777" lon="10.9400638853">
>>>>>>> e1d4bc35ff8a6074a6f2e91616a996b547c36f15
		<tag k="fixme" v="consider natural=peak for the most distinct mountains in the district" />
		<tag k="name" v="Elgås" />
		<tag k="natural" v="hill" />
		<tag k="place" v="locality" />
		<tag k="ssr:stedsnr" v="691098" />
	</node>
<<<<<<< HEAD
	<node lat="59.86921111122392" lon="10.975855561605547" id="-16205">
=======
	<node id="-256803" lat="59.8649999966" lon="10.9986388867">
>>>>>>> e1d4bc35ff8a6074a6f2e91616a996b547c36f15
		<tag k="fixme" v="consider natural=peak for the most distinct mountains in the district" />
		<tag k="name" v="Romsås" />
		<tag k="natural" v="hill" />
		<tag k="place" v="locality" />
		<tag k="ssr:stedsnr" v="691101" />
	</node>
<<<<<<< HEAD
	<node lat="59.91736388558696" lon="10.999988883566207" id="-16206">
		<tag k="name" v="Suseberget" />
=======
	<node id="-256802" lat="59.8851388874" lon="10.9547750063">
		<tag k="name" v="Kula" />
>>>>>>> e1d4bc35ff8a6074a6f2e91616a996b547c36f15
		<tag k="natural" v="hill" />
		<tag k="place" v="locality" />
		<tag k="ssr:stedsnr" v="691053" />
	</node>
<<<<<<< HEAD
	<node lat="59.95199722164799" lon="10.963766662500387" id="-16207">
		<tag k="name" v="Osloutsikten" />
=======
	<node id="-256475" lat="59.8574861101" lon="10.9258166683">
		<tag k="name" v="Cudrioberget" />
		<tag k="natural" v="hill" />
		<tag k="place" v="locality" />
		<tag k="ssr:stedsnr" v="84054" />
	</node>
	<node id="-256800" lat="59.9033361109" lon="10.9271888802">
		<tag k="alt_name" v="Seteråsen" />
		<tag k="fixme" v="consider natural=peak for the most distinct mountains in the district" />
		<tag k="name" v="Sæteråsen" />
>>>>>>> e1d4bc35ff8a6074a6f2e91616a996b547c36f15
		<tag k="natural" v="hill" />
		<tag k="place" v="locality" />
		<tag k="ssr:stedsnr" v="691058" />
	</node>
<<<<<<< HEAD
	<node lat="59.870716662620566" lon="10.95221388738883" id="-16208">
		<tag k="name" v="Ryenseterkollen" />
=======
	<node id="-256776" lat="59.9221583371" lon="11.0235166674">
		<tag k="fixme" v="consider natural=peak for the most distinct mountains in the district" />
		<tag k="name" v="Midtåsen" />
>>>>>>> e1d4bc35ff8a6074a6f2e91616a996b547c36f15
		<tag k="natural" v="hill" />
		<tag k="place" v="locality" />
		<tag k="ssr:stedsnr" v="691068" />
	</node>
<<<<<<< HEAD
	<node lat="59.886544444510136" lon="10.933572223756665" id="-16219">
		<tag k="name" v="Mesmerkleiva" />
=======
	<node id="-256774" lat="59.8677277767" lon="10.9360666735">
		<tag k="name" v="Puttedalen" />
>>>>>>> e1d4bc35ff8a6074a6f2e91616a996b547c36f15
		<tag k="natural" v="valley" />
		<tag k="place" v="locality" />
		<tag k="ssr:stedsnr" v="569109" />
	</node>
<<<<<<< HEAD
	<node lat="59.88686111086014" lon="10.950883340216901" id="-16220">
		<tag k="name" v="Hestekollen" />
		<tag k="natural" v="hill" />
=======
	<node id="-256773" lat="59.904572219" lon="10.9295333298">
		<tag k="name" v="Langmyrdalen" />
		<tag k="natural" v="valley" />
>>>>>>> e1d4bc35ff8a6074a6f2e91616a996b547c36f15
		<tag k="place" v="locality" />
		<tag k="ssr:stedsnr" v="569055" />
	</node>
<<<<<<< HEAD
	<node lat="59.90216944288576" lon="10.972908338098689" id="-16221">
		<tag k="name" v="Rudkollen" />
		<tag k="natural" v="hill" />
=======
	<node id="-256772" lat="59.8689083314" lon="10.9914555588">
		<tag k="name" v="Arndalen" />
		<tag k="natural" v="valley" />
>>>>>>> e1d4bc35ff8a6074a6f2e91616a996b547c36f15
		<tag k="place" v="locality" />
		<tag k="ssr:stedsnr" v="569057" />
	</node>
<<<<<<< HEAD
	<node lat="59.91006388462163" lon="11.011986115574453" id="-16222">
		<tag k="name" v="Arnlihøgda" />
=======
	<node id="-256771" lat="59.8557916629" lon="10.9872999981">
		<tag k="fixme" v="consider natural=peak for the most distinct mountains in the district" />
		<tag k="name" v="Damåsen" />
>>>>>>> e1d4bc35ff8a6074a6f2e91616a996b547c36f15
		<tag k="natural" v="hill" />
		<tag k="place" v="locality" />
		<tag k="ssr:stedsnr" v="569072" />
	</node>
<<<<<<< HEAD
	<node lat="59.91926111548464" lon="11.00848888651243" id="-16225">
=======
	<node id="-256770" lat="59.9066472265" lon="10.9160777798">
>>>>>>> e1d4bc35ff8a6074a6f2e91616a996b547c36f15
		<tag k="fixme" v="consider natural=peak for the most distinct mountains in the district" />
		<tag k="name" v="Tjuvåsen" />
		<tag k="natural" v="hill" />
		<tag k="place" v="locality" />
		<tag k="ssr:stedsnr" v="569648" />
	</node>
<<<<<<< HEAD
	<node lat="59.87275277697263" lon="10.929574999050114" id="-16236">
		<tag k="alt_name" v="Garfangåsen" />
=======
	<node id="-256769" lat="59.9092472259" lon="10.9330361108">
>>>>>>> e1d4bc35ff8a6074a6f2e91616a996b547c36f15
		<tag k="fixme" v="consider natural=peak for the most distinct mountains in the district" />
		<tag k="name" v="Gardfangåsen" />
		<tag k="natural" v="hill" />
		<tag k="place" v="locality" />
		<tag k="ssr:stedsnr" v="611171" />
	</node>
<<<<<<< HEAD
	<node lat="59.86709444422516" lon="10.982874994953752" id="-16237">
		<tag k="name" v="Mønekollen" />
=======
	<node id="-256764" lat="59.895983337" lon="10.9325722162">
		<tag k="alt_name" v="Kvennåsen" />
		<tag k="fixme" v="consider natural=peak for the most distinct mountains in the district" />
		<tag k="name" v="Kvernås" />
>>>>>>> e1d4bc35ff8a6074a6f2e91616a996b547c36f15
		<tag k="natural" v="hill" />
		<tag k="place" v="locality" />
		<tag k="ssr:stedsnr" v="630058" />
	</node>
<<<<<<< HEAD
	<node lat="59.87062222306705" lon="10.998024998591468" id="-16238">
=======
	<node id="-256762" lat="59.8436277821" lon="10.9386055478">
>>>>>>> e1d4bc35ff8a6074a6f2e91616a996b547c36f15
		<tag k="fixme" v="consider natural=peak for the most distinct mountains in the district" />
		<tag k="name" v="Fløytsagåsen" />
		<tag k="natural" v="hill" />
		<tag k="place" v="locality" />
		<tag k="ssr:stedsnr" v="630073" />
	</node>
<<<<<<< HEAD
	<node lat="59.90753333273633" lon="10.986688884043614" id="-16239">
		<tag k="name" v="Blåveislia" />
		<tag k="natural" v="slope" />
=======
	<node id="-256751" lat="59.8441861151" lon="11.0120638903">
		<tag k="name" v="Østre Tonekollen" />
		<tag k="natural" v="hill" />
>>>>>>> e1d4bc35ff8a6074a6f2e91616a996b547c36f15
		<tag k="place" v="locality" />
		<tag k="ssr:stedsnr" v="630089" />
	</node>
<<<<<<< HEAD
	<node lat="59.865249999652605" lon="10.931627785081226" id="-16260">
		<tag k="alt_name" v="Svarvestolbrenna" />
		<tag k="fixme" v="consider natural=peak for the most distinct mountains in the district" />
		<tag k="name" v="Svarvestolsbrenna" />
=======
	<node id="-256750" lat="59.8451694486" lon="10.9948138948">
		<tag k="name" v="Makrellknatten" />
>>>>>>> e1d4bc35ff8a6074a6f2e91616a996b547c36f15
		<tag k="natural" v="hill" />
		<tag k="place" v="locality" />
		<tag k="ssr:stedsnr" v="672126" />
	</node>
<<<<<<< HEAD
	<node lat="59.89053888509798" lon="10.956363889970197" id="-16263">
		<tag k="name" v="Vålerlia" />
		<tag k="natural" v="slope" />
=======
	<node id="-256748" lat="59.877094448" lon="11.0196499972">
		<tag k="alt_name" v="Trettås" />
		<tag k="fixme" v="consider natural=peak for the most distinct mountains in the district" />
		<tag k="name" v="Trettåsen" />
		<tag k="natural" v="hill" />
>>>>>>> e1d4bc35ff8a6074a6f2e91616a996b547c36f15
		<tag k="place" v="locality" />
		<tag k="ssr:stedsnr" v="691105" />
	</node>
<<<<<<< HEAD
	<node lat="59.8437444473927" lon="11.009302782733553" id="-16265">
		<tag k="name" v="Tonekolldalen" />
		<tag k="natural" v="valley" />
=======
	<node id="-256747" lat="59.8817234197" lon="10.9565925865">
		<tag k="fixme" v="consider natural=peak for the most distinct mountains in the district" />
		<tag k="name" v="Tronfjellet" />
		<tag k="natural" v="hill" />
>>>>>>> e1d4bc35ff8a6074a6f2e91616a996b547c36f15
		<tag k="place" v="locality" />
		<tag k="ssr:stedsnr" v="691112" />
	</node>
<<<<<<< HEAD
	<node lat="59.86258889149052" lon="11.010180562981482" id="-16266">
		<tag k="name" v="Kalddalen" />
		<tag k="natural" v="valley" />
=======
	<node id="-256730" lat="59.8630361101" lon="10.9943527738">
		<tag k="name" v="Malmerlia" />
		<tag k="natural" v="slope" />
>>>>>>> e1d4bc35ff8a6074a6f2e91616a996b547c36f15
		<tag k="place" v="locality" />
		<tag k="ssr:stedsnr" v="691125" />
	</node>
<<<<<<< HEAD
	<node lat="59.86902499790645" lon="10.919630553638537" id="-16279">
		<tag k="name" v="Deledalen" />
		<tag k="natural" v="valley" />
=======
	<node id="-256729" lat="59.9041686449" lon="11.0170734716">
		<tag k="fixme" v="consider natural=peak for the most distinct mountains in the district" />
		<tag k="name" v="Jongseterås" />
		<tag k="natural" v="hill" />
>>>>>>> e1d4bc35ff8a6074a6f2e91616a996b547c36f15
		<tag k="place" v="locality" />
		<tag k="ssr:stedsnr" v="733150" />
	</node>
<<<<<<< HEAD
	<node lat="59.86359166325246" lon="10.911591660584628" id="-16280">
		<tag k="fixme" v="consider natural=peak for the most distinct mountains in the district" />
		<tag k="name" v="Sagåsen" />
=======
	<node id="-256727" lat="59.8602000011" lon="10.9920555633">
		<tag k="name" v="Espbrenna" />
>>>>>>> e1d4bc35ff8a6074a6f2e91616a996b547c36f15
		<tag k="natural" v="hill" />
		<tag k="place" v="locality" />
		<tag k="ssr:stedsnr" v="751064" />
	</node>
<<<<<<< HEAD
	<node lat="59.914047222347754" lon="10.938497220964575" id="-16292">
		<tag k="fixme" v="consider natural=peak for the most distinct mountains in the district" />
		<tag k="name" v="Vallerudåsen" />
=======
	<node id="-256726" lat="59.8763337926" lon="10.9914502911">
		<tag k="name" v="Garterudberget" />
>>>>>>> e1d4bc35ff8a6074a6f2e91616a996b547c36f15
		<tag k="natural" v="hill" />
		<tag k="place" v="locality" />
		<tag k="ssr:stedsnr" v="793121" />
	</node>
<<<<<<< HEAD
	<node lat="59.924230553087554" lon="10.962361105878582" id="-16296">
		<tag k="fixme" v="consider natural=peak for the most distinct mountains in the district" />
		<tag k="name" v="Skåreråsen" />
=======
	<node id="-256725" lat="59.8846500009" lon="10.9415166748">
		<tag k="name" v="Lyerberget" />
>>>>>>> e1d4bc35ff8a6074a6f2e91616a996b547c36f15
		<tag k="natural" v="hill" />
		<tag k="place" v="locality" />
		<tag k="ssr:stedsnr" v="915014" />
	</node>
<<<<<<< HEAD
	<node lat="59.86957500227771" lon="10.943661113882312" id="-16299">
		<tag k="alt_name" v="Rudsvangsholtet;Rudvangsholtet" />
		<tag k="fixme" v="consider natural=peak for the most distinct mountains in the district" />
		<tag k="name" v="Rudsvangholtet" />
		<tag k="natural" v="hill" />
		<tag k="old_name" v="Rudvangholtet" />
=======
	<node id="-256723" lat="59.854258336" lon="10.9339916651">
		<tag k="loc_name" v="Løykjebrudalen" />
		<tag k="name" v="Løkebrudalen" />
		<tag k="natural" v="valley" />
>>>>>>> e1d4bc35ff8a6074a6f2e91616a996b547c36f15
		<tag k="place" v="locality" />
		<tag k="ssr:stedsnr" v="915140" />
	</node>
<<<<<<< HEAD
	<node lat="59.88114999597237" lon="10.93307222557233" id="-16301">
=======
	<node id="-256708" lat="59.881149996" lon="10.9330722256">
>>>>>>> e1d4bc35ff8a6074a6f2e91616a996b547c36f15
		<tag k="alt_name" v="Seterkollen" />
		<tag k="fixme" v="consider natural=peak for the most distinct mountains in the district" />
		<tag k="name" v="Sæterkollen" />
		<tag k="natural" v="hill" />
		<tag k="place" v="locality" />
		<tag k="ssr:stedsnr" v="915158" />
	</node>
<<<<<<< HEAD
	<node lat="59.86340000023674" lon="10.924980561915545" id="-16302">
		<tag k="name" v="Tjuvdalen" />
		<tag k="natural" v="valley" />
=======
	<node id="-256694" lat="59.8703583294" lon="10.9793638801">
		<tag k="name" v="Veslekollen" />
		<tag k="natural" v="hill" />
>>>>>>> e1d4bc35ff8a6074a6f2e91616a996b547c36f15
		<tag k="place" v="locality" />
		<tag k="ssr:stedsnr" v="812084" />
	</node>
<<<<<<< HEAD
	<node lat="59.885972220325286" lon="11.0141500006369" id="-16310">
=======
	<node id="-256693" lat="59.8859722203" lon="11.0141500006">
>>>>>>> e1d4bc35ff8a6074a6f2e91616a996b547c36f15
		<tag k="name" v="Djupdalen" />
		<tag k="natural" v="valley" />
		<tag k="place" v="locality" />
		<tag k="ssr:stedsnr" v="855513" />
	</node>
<<<<<<< HEAD
	<node lat="59.882127778870306" lon="10.993347225153308" id="-16311">
		<tag k="name" v="Møllerenghagan" />
=======
	<node id="-256691" lat="59.8791333335" lon="11.0147555604">
		<tag k="alt_name" v="Gjerterudkampen" />
		<tag k="fixme" v="consider natural=peak for the most distinct mountains in the district" />
		<tag k="name" v="Geiterudfjellet" />
>>>>>>> e1d4bc35ff8a6074a6f2e91616a996b547c36f15
		<tag k="natural" v="hill" />
		<tag k="place" v="locality" />
		<tag k="ssr:stedsnr" v="934042" />
	</node>
<<<<<<< HEAD
	<node lat="59.868833331711365" lon="11.01423054680147" id="-16312">
=======
	<node id="-256677" lat="59.8688333317" lon="11.0142305468">
>>>>>>> e1d4bc35ff8a6074a6f2e91616a996b547c36f15
		<tag k="name" v="Badstudalen" />
		<tag k="natural" v="valley" />
		<tag k="place" v="locality" />
		<tag k="ssr:stedsnr" v="934095" />
	</node>
<<<<<<< HEAD
	<node lat="59.865613887286756" lon="10.91848610487598" id="-16313">
=======
	<node id="-256676" lat="59.9113277787" lon="10.9301611062">
>>>>>>> e1d4bc35ff8a6074a6f2e91616a996b547c36f15
		<tag k="fixme" v="consider natural=peak for the most distinct mountains in the district" />
		<tag k="name" v="Skogbakkåsen" />
		<tag k="natural" v="hill" />
		<tag k="place" v="locality" />
		<tag k="ssr:stedsnr" v="934053" />
	</node>
<<<<<<< HEAD
	<node lat="59.90062222155251" lon="10.914786104135915" id="-16314">
=======
	<node id="-256675" lat="59.9006222216" lon="10.9147861041">
>>>>>>> e1d4bc35ff8a6074a6f2e91616a996b547c36f15
		<tag k="fixme" v="consider natural=peak for the most distinct mountains in the district" />
		<tag k="name" v="Toresplassåsen" />
		<tag k="natural" v="hill" />
		<tag k="place" v="locality" />
		<tag k="ssr:stedsnr" v="934060" />
	</node>
<<<<<<< HEAD
	<node lat="59.911327778685454" lon="10.930161106212973" id="-16315">
=======
	<node id="-256674" lat="59.8656138873" lon="10.9184861049">
>>>>>>> e1d4bc35ff8a6074a6f2e91616a996b547c36f15
		<tag k="fixme" v="consider natural=peak for the most distinct mountains in the district" />
		<tag k="name" v="Tistilåsen" />
		<tag k="natural" v="hill" />
		<tag k="place" v="locality" />
		<tag k="ssr:stedsnr" v="934069" />
	</node>
<<<<<<< HEAD
	<node lat="59.854258336020955" lon="10.933991665126996" id="-16344">
		<tag k="loc_name" v="Løykjebrudalen" />
		<tag k="name" v="Løkebrudalen" />
		<tag k="natural" v="valley" />
		<tag k="place" v="locality" />
		<tag k="ssr:stedsnr" v="5230" />
	</node>
	<node lat="59.88465000092508" lon="10.94151667480974" id="-16347">
		<tag k="name" v="Lyerberget" />
=======
	<node id="-256673" lat="59.8821277789" lon="10.9933472252">
		<tag k="name" v="Møllerenghagan" />
>>>>>>> e1d4bc35ff8a6074a6f2e91616a996b547c36f15
		<tag k="natural" v="hill" />
		<tag k="place" v="locality" />
		<tag k="ssr:stedsnr" v="23047" />
	</node>
<<<<<<< HEAD
	<node lat="59.8763337925759" lon="10.991450291104735" id="-16348">
		<tag k="name" v="Garterudberget" />
=======
	<node id="-256670" lat="59.8813250029" lon="10.9670500081">
		<tag k="fixme" v="consider natural=peak for the most distinct mountains in the district" />
		<tag k="name" v="Svartåsen" />
>>>>>>> e1d4bc35ff8a6074a6f2e91616a996b547c36f15
		<tag k="natural" v="hill" />
		<tag k="place" v="locality" />
		<tag k="ssr:stedsnr" v="23054" />
	</node>
<<<<<<< HEAD
	<node lat="59.8602000010673" lon="10.9920555633233" id="-16349">
		<tag k="name" v="Espbrenna" />
		<tag k="natural" v="hill" />
		<tag k="place" v="locality" />
		<tag k="ssr:stedsnr" v="23056" />
	</node>
	<node lat="59.86528611076096" lon="10.924324996241872" id="-16362">
=======
	<node id="-256666" lat="59.8695750023" lon="10.9436611139">
		<tag k="alt_name" v="Rudsvangsholtet;Rudvangsholtet" />
>>>>>>> e1d4bc35ff8a6074a6f2e91616a996b547c36f15
		<tag k="fixme" v="consider natural=peak for the most distinct mountains in the district" />
		<tag k="name" v="Nilsåsen" />
		<tag k="natural" v="hill" />
		<tag k="place" v="locality" />
		<tag k="ssr:stedsnr" v="65130" />
	</node>
<<<<<<< HEAD
	<node lat="59.88172341971001" lon="10.956592586470425" id="-16363">
=======
	<node id="-256665" lat="59.9242305531" lon="10.9623611059">
>>>>>>> e1d4bc35ff8a6074a6f2e91616a996b547c36f15
		<tag k="fixme" v="consider natural=peak for the most distinct mountains in the district" />
		<tag k="name" v="Tronfjellet" />
		<tag k="natural" v="hill" />
		<tag k="place" v="locality" />
		<tag k="ssr:stedsnr" v="65169" />
	</node>
<<<<<<< HEAD
	<node lat="59.89367221922424" lon="10.93547221331557" id="-16365">
		<tag k="name" v="Furuberget" />
		<tag k="natural" v="hill" />
		<tag k="place" v="locality" />
		<tag k="ssr:stedsnr" v="84053" />
	</node>
	<node lat="59.85748611008215" lon="10.92581666827105" id="-16366">
		<tag k="name" v="Cudrioberget" />
		<tag k="natural" v="hill" />
		<tag k="place" v="locality" />
		<tag k="ssr:stedsnr" v="84054" />
	</node>
	<node lat="59.845169448592685" lon="10.994813894803869" id="-16367">
		<tag k="name" v="Makrellknatten" />
		<tag k="natural" v="hill" />
		<tag k="place" v="locality" />
		<tag k="ssr:stedsnr" v="84078" />
	</node>
	<node lat="59.92418055527754" lon="11.020813891921334" id="-16373">
		<tag k="name" v="Kopledalen" />
=======
	<node id="-256661" lat="59.8690249979" lon="10.9196305536">
		<tag k="name" v="Deledalen" />
>>>>>>> e1d4bc35ff8a6074a6f2e91616a996b547c36f15
		<tag k="natural" v="valley" />
		<tag k="place" v="locality" />
		<tag k="ssr:stedsnr" v="84660" />
	</node>
<<<<<<< HEAD
	<node lat="59.843627782064154" lon="10.938605547826944" id="-16379">
=======
	<node id="-256654" lat="59.9022611137" lon="10.9319361182">
		<tag k="alt_name" v="Langåsen" />
>>>>>>> e1d4bc35ff8a6074a6f2e91616a996b547c36f15
		<tag k="fixme" v="consider natural=peak for the most distinct mountains in the district" />
		<tag k="name" v="Blåsyna" />
		<tag k="natural" v="hill" />
		<tag k="place" v="locality" />
		<tag k="ssr:stedsnr" v="125210" />
	</node>
<<<<<<< HEAD
	<node lat="59.90924722593581" lon="10.933036110795957" id="-16383">
=======
	<node id="-256653" lat="59.9008193296" lon="11.0208749239">
>>>>>>> e1d4bc35ff8a6074a6f2e91616a996b547c36f15
		<tag k="fixme" v="consider natural=peak for the most distinct mountains in the district" />
		<tag k="name" v="Lintjernåsen" />
		<tag k="natural" v="hill" />
		<tag k="place" v="locality" />
		<tag k="ssr:stedsnr" v="144066" />
	</node>
<<<<<<< HEAD
	<node lat="59.906647226470064" lon="10.916077779824217" id="-16384">
=======
	<node id="-256652" lat="59.9023555548" lon="11.0056999977">
>>>>>>> e1d4bc35ff8a6074a6f2e91616a996b547c36f15
		<tag k="fixme" v="consider natural=peak for the most distinct mountains in the district" />
		<tag k="name" v="Bjørndalsåsen" />
		<tag k="natural" v="hill" />
		<tag k="place" v="locality" />
		<tag k="ssr:stedsnr" v="144067" />
	</node>
<<<<<<< HEAD
	<node lat="59.85579166294256" lon="10.987299998050652" id="-16385">
		<tag k="fixme" v="consider natural=peak for the most distinct mountains in the district" />
		<tag k="name" v="Damåsen" />
		<tag k="natural" v="hill" />
		<tag k="place" v="locality" />
		<tag k="ssr:stedsnr" v="144070" />
	</node>
	<node lat="59.868908331432266" lon="10.991455558780581" id="-16386">
		<tag k="name" v="Arndalen" />
		<tag k="natural" v="valley" />
		<tag k="place" v="locality" />
		<tag k="ssr:stedsnr" v="144083" />
	</node>
	<node lat="59.90457221895824" lon="10.929533329841878" id="-16387">
		<tag k="name" v="Langmyrdalen" />
		<tag k="natural" v="valley" />
		<tag k="place" v="locality" />
		<tag k="ssr:stedsnr" v="144091" />
	</node>
	<node lat="59.86772777673112" lon="10.936066673517681" id="-16388">
		<tag k="name" v="Puttedalen" />
=======
	<node id="-256614" lat="59.8625888915" lon="11.010180563">
		<tag k="name" v="Kalddalen" />
>>>>>>> e1d4bc35ff8a6074a6f2e91616a996b547c36f15
		<tag k="natural" v="valley" />
		<tag k="place" v="locality" />
		<tag k="ssr:stedsnr" v="144093" />
	</node>
<<<<<<< HEAD
	<node lat="59.92215833714183" lon="11.023516667427623" id="-16390">
		<tag k="fixme" v="consider natural=peak for the most distinct mountains in the district" />
		<tag k="name" v="Midtåsen" />
		<tag k="natural" v="hill" />
=======
	<node id="-256613" lat="59.8437444474" lon="11.0093027827">
		<tag k="name" v="Tonekolldalen" />
		<tag k="natural" v="valley" />
>>>>>>> e1d4bc35ff8a6074a6f2e91616a996b547c36f15
		<tag k="place" v="locality" />
		<tag k="ssr:stedsnr" v="144658" />
	</node>
<<<<<<< HEAD
	<node lat="59.90333611090798" lon="10.927188880175875" id="-16409">
		<tag k="alt_name" v="Seteråsen" />
		<tag k="fixme" v="consider natural=peak for the most distinct mountains in the district" />
		<tag k="name" v="Sæteråsen" />
		<tag k="natural" v="hill" />
=======
	<node id="-256611" lat="59.8905388851" lon="10.95636389">
		<tag k="name" v="Vålerlia" />
		<tag k="natural" v="slope" />
>>>>>>> e1d4bc35ff8a6074a6f2e91616a996b547c36f15
		<tag k="place" v="locality" />
		<tag k="ssr:stedsnr" v="187071" />
	</node>
<<<<<<< HEAD
	<node lat="59.86499999659269" lon="10.998638886684832" id="-16411">
=======
	<node id="-256610" lat="59.8692111112" lon="10.9758555616">
>>>>>>> e1d4bc35ff8a6074a6f2e91616a996b547c36f15
		<tag k="fixme" v="consider natural=peak for the most distinct mountains in the district" />
		<tag k="name" v="Malmeråsen" />
		<tag k="natural" v="hill" />
		<tag k="place" v="locality" />
		<tag k="ssr:stedsnr" v="205064" />
	</node>
<<<<<<< HEAD
	<node lat="59.9103527776984" lon="10.94006388530581" id="-16412">
=======
	<node id="-256609" lat="59.8649777745" lon="11.0046166698">
>>>>>>> e1d4bc35ff8a6074a6f2e91616a996b547c36f15
		<tag k="fixme" v="consider natural=peak for the most distinct mountains in the district" />
		<tag k="name" v="Løgnås" />
		<tag k="natural" v="hill" />
		<tag k="place" v="locality" />
		<tag k="ssr:stedsnr" v="205072" />
	</node>
<<<<<<< HEAD
	<node lat="59.92051944345865" lon="11.0160583262766" id="-16413">
=======
	<node id="-256608" lat="59.9131555573" lon="10.9759138943">
>>>>>>> e1d4bc35ff8a6074a6f2e91616a996b547c36f15
		<tag k="fixme" v="consider natural=peak for the most distinct mountains in the district" />
		<tag k="name" v="Østbyåsen" />
		<tag k="natural" v="hill" />
		<tag k="place" v="locality" />
		<tag k="ssr:stedsnr" v="205677" />
	</node>
<<<<<<< HEAD
	<node lat="59.887288884515456" lon="10.930699994482831" id="-16426">
		<tag k="fixme" v="consider natural=peak for the most distinct mountains in the district" />
		<tag k="name" v="Haugerkollen" />
=======
	<node id="-256607" lat="59.8707166626" lon="10.9522138874">
		<tag k="name" v="Ryenseterkollen" />
>>>>>>> e1d4bc35ff8a6074a6f2e91616a996b547c36f15
		<tag k="natural" v="hill" />
		<tag k="place" v="locality" />
		<tag k="ssr:stedsnr" v="308139" />
	</node>
<<<<<<< HEAD
	<node lat="59.87663611437946" lon="10.977338889875407" id="-16427">
		<tag k="alt_name" v="Endtjernliene" />
		<tag k="name" v="Endtjernlia" />
		<tag k="natural" v="slope" />
=======
	<node id="-256606" lat="59.9519972216" lon="10.9637666625">
		<tag k="name" v="Osloutsikten" />
		<tag k="natural" v="hill" />
>>>>>>> e1d4bc35ff8a6074a6f2e91616a996b547c36f15
		<tag k="place" v="locality" />
		<tag k="ssr:stedsnr" v="327086" />
	</node>
<<<<<<< HEAD
	<node lat="59.89528055632329" lon="10.974488893951355" id="-16428">
		<tag k="name" v="Bråtabakken" />
		<tag k="natural" v="slope" />
=======
	<node id="-256605" lat="59.9173638856" lon="10.9999888836">
		<tag k="name" v="Suseberget" />
		<tag k="natural" v="hill" />
>>>>>>> e1d4bc35ff8a6074a6f2e91616a996b547c36f15
		<tag k="place" v="locality" />
		<tag k="ssr:stedsnr" v="327090" />
	</node>
<<<<<<< HEAD
	<node lat="59.86575555549478" lon="10.973358326326077" id="-16429">
		<tag k="name" v="Snøsokkdalen" />
=======
	<node id="-256594" lat="59.8815361092" lon="10.9200111034">
		<tag k="name" v="Skilledalen" />
>>>>>>> e1d4bc35ff8a6074a6f2e91616a996b547c36f15
		<tag k="natural" v="valley" />
		<tag k="place" v="locality" />
		<tag k="ssr:stedsnr" v="327091" />
	</node>
<<<<<<< HEAD
	<node lat="59.89414999912839" lon="11.001086115178929" id="-16430">
		<tag k="name" v="Styggvannsdalen" />
		<tag k="natural" v="valley" />
=======
	<node id="-256591" lat="59.8652499997" lon="10.9316277851">
		<tag k="alt_name" v="Svarvestolbrenna" />
		<tag k="fixme" v="consider natural=peak for the most distinct mountains in the district" />
		<tag k="name" v="Svarvestolsbrenna" />
		<tag k="natural" v="hill" />
>>>>>>> e1d4bc35ff8a6074a6f2e91616a996b547c36f15
		<tag k="place" v="locality" />
		<tag k="ssr:stedsnr" v="327096" />
	</node>
<<<<<<< HEAD
	<node lat="59.912094446656006" lon="10.917777773666542" id="-16445">
		<tag k="name" v="Bjerkelund" />
=======
	<node id="-256589" lat="59.944744446" lon="10.9673416632">
		<tag k="name" v="Skjettenkollen" />
>>>>>>> e1d4bc35ff8a6074a6f2e91616a996b547c36f15
		<tag k="natural" v="hill" />
		<tag k="place" v="locality" />
		<tag k="ssr:stedsnr" v="387054" />
	</node>
<<<<<<< HEAD
	<node lat="59.92927222199659" lon="10.972544449491968" id="-16446">
		<tag k="name" v="Kråkåsen" />
=======
	<node id="-256565" lat="59.9300555514" lon="10.9661083291">
		<tag k="name" v="Knatteåsen" />
>>>>>>> e1d4bc35ff8a6074a6f2e91616a996b547c36f15
		<tag k="natural" v="hill" />
		<tag k="place" v="locality" />
		<tag k="ssr:stedsnr" v="387055" />
	</node>
<<<<<<< HEAD
	<node lat="59.846672219657094" lon="10.964113888018375" id="-16447">
		<tag k="fixme" v="consider natural=peak for the most distinct mountains in the district" />
		<tag k="name" v="Velåsen" />
=======
	<node id="-256564" lat="59.9112888928" lon="10.992852773">
		<tag k="name" v="St. Hansberget" />
>>>>>>> e1d4bc35ff8a6074a6f2e91616a996b547c36f15
		<tag k="natural" v="hill" />
		<tag k="place" v="locality" />
		<tag k="ssr:stedsnr" v="387089" />
	</node>
<<<<<<< HEAD
	<node lat="59.84105277817561" lon="10.977305552428836" id="-16464">
		<tag k="name" v="Søndre Liseterkollen" />
		<tag k="natural" v="hill" />
=======
	<node id="-256563" lat="59.9118749996" lon="11.0056527728">
		<tag k="name" v="Trolldalen" />
		<tag k="natural" v="valley" />
>>>>>>> e1d4bc35ff8a6074a6f2e91616a996b547c36f15
		<tag k="place" v="locality" />
		<tag k="ssr:stedsnr" v="448063" />
	</node>
<<<<<<< HEAD
	<node lat="59.839761112267986" lon="11.003324997419094" id="-16465">
		<tag k="name" v="Vestre Tonekollen" />
=======
	<node id="-256549" lat="59.929272222" lon="10.9725444495">
		<tag k="name" v="Kråkåsen" />
>>>>>>> e1d4bc35ff8a6074a6f2e91616a996b547c36f15
		<tag k="natural" v="hill" />
		<tag k="place" v="locality" />
		<tag k="ssr:stedsnr" v="448064" />
	</node>
<<<<<<< HEAD
	<node lat="59.93029722049183" lon="11.012372223479614" id="-16467">
		<tag k="name" v="Hovelsrudhagan" />
=======
	<node id="-256548" lat="59.9120944467" lon="10.9177777737">
		<tag k="name" v="Bjerkelund" />
>>>>>>> e1d4bc35ff8a6074a6f2e91616a996b547c36f15
		<tag k="natural" v="hill" />
		<tag k="place" v="locality" />
		<tag k="ssr:stedsnr" v="448683" />
	</node>
<<<<<<< HEAD
	<node lat="59.91128889281993" lon="10.992852772956759" id="-16469">
		<tag k="name" v="St. Hansberget" />
		<tag k="natural" v="hill" />
		<tag k="place" v="locality" />
		<tag k="ssr:stedsnr" v="509038" />
	</node>
	<node lat="59.93005555142591" lon="10.966108329096352" id="-16470">
		<tag k="name" v="Knatteåsen" />
=======
	<node id="-256547" lat="59.9070388892" lon="11.0070305629">
		<tag k="name" v="Grevlingdalen" />
		<tag k="natural" v="valley" />
		<tag k="place" v="locality" />
		<tag k="ssr:stedsnr" v="387114" />
	</node>
	<node id="-256546" lat="59.8509055513" lon="10.9748500049">
		<tag k="name" v="Østmarka" />
		<tag k="natural" v="wood" />
		<tag k="ssr:stedsnr" v="490224" />
	</node>
	<node id="-256545" lat="59.8626000004" lon="10.9493749963">
		<tag k="alt_name" v="Mortvassåsen" />
		<tag k="fixme" v="consider natural=peak for the most distinct mountains in the district" />
		<tag k="name" v="Mortvannsåsen" />
>>>>>>> e1d4bc35ff8a6074a6f2e91616a996b547c36f15
		<tag k="natural" v="hill" />
		<tag k="place" v="locality" />
		<tag k="ssr:stedsnr" v="509039" />
	</node>
<<<<<<< HEAD
	<node lat="59.9118749996358" lon="11.005652772810512" id="-16472">
		<tag k="name" v="Trolldalen" />
		<tag k="natural" v="valley" />
=======
	<node id="-256519" lat="59.9302972205" lon="11.0123722235">
		<tag k="name" v="Hovelsrudhagan" />
		<tag k="natural" v="hill" />
>>>>>>> e1d4bc35ff8a6074a6f2e91616a996b547c36f15
		<tag k="place" v="locality" />
		<tag k="ssr:stedsnr" v="509091" />
	</node>
<<<<<<< HEAD
	<node lat="59.90778888443947" lon="10.987638894801245" id="-16491">
		<tag k="name" v="Kirkerudkollen" />
		<tag k="natural" v="hill" />
=======
	<node id="-256515" lat="59.8479194425" lon="11.0105527786">
		<tag k="name" v="Skårerlia" />
		<tag k="natural" v="slope" />
>>>>>>> e1d4bc35ff8a6074a6f2e91616a996b547c36f15
		<tag k="place" v="locality" />
		<tag k="ssr:stedsnr" v="569052" />
	</node>
<<<<<<< HEAD
	<node lat="59.869144444423185" lon="10.925238883175007" id="-16492">
=======
	<node id="-256514" lat="59.8682638863" lon="10.9705694479">
>>>>>>> e1d4bc35ff8a6074a6f2e91616a996b547c36f15
		<tag k="fixme" v="consider natural=peak for the most distinct mountains in the district" />
		<tag k="name" v="Skråbakkåsen" />
		<tag k="natural" v="hill" />
		<tag k="place" v="locality" />
		<tag k="ssr:stedsnr" v="569076" />
	</node>
<<<<<<< HEAD
	<node lat="59.9128916622816" lon="11.024097219639685" id="-16493">
		<tag k="fixme" v="consider natural=peak for the most distinct mountains in the district" />
		<tag k="name" v="Svaraberget" />
		<tag k="natural" v="hill" />
		<tag k="place" v="locality" />
		<tag k="ssr:stedsnr" v="569087" />
	</node>
	<node lat="59.85455277829563" lon="10.92944166650637" id="-16503">
		<tag k="name" v="Losbydalen" />
		<tag k="natural" v="valley" />
		<tag k="place" v="locality" />
		<tag k="ssr:stedsnr" v="630083" />
	</node>
	<node lat="59.90235555484325" lon="11.005699997696622" id="-16518">
		<tag k="fixme" v="consider natural=peak for the most distinct mountains in the district" />
		<tag k="name" v="Linfjellet" />
		<tag k="natural" v="hill" />
		<tag k="place" v="locality" />
		<tag k="ssr:stedsnr" v="733081" />
	</node>
	<node lat="59.90081932962141" lon="11.020874923923518" id="-16519">
		<tag k="fixme" v="consider natural=peak for the most distinct mountains in the district" />
		<tag k="name" v="Dunderen" />
		<tag k="natural" v="hill" />
		<tag k="place" v="locality" />
		<tag k="ssr:stedsnr" v="733082" />
	</node>
	<node lat="59.902261113716776" lon="10.931936118201703" id="-16520">
		<tag k="alt_name" v="Langåsen" />
		<tag k="fixme" v="consider natural=peak for the most distinct mountains in the district" />
		<tag k="name" v="Linås" />
		<tag k="natural" v="hill" />
		<tag k="place" v="locality" />
		<tag k="ssr:stedsnr" v="733088" />
	</node>
	<node lat="59.88132500292662" lon="10.967050008102884" id="-16540">
		<tag k="fixme" v="consider natural=peak for the most distinct mountains in the district" />
		<tag k="name" v="Svartåsen" />
		<tag k="natural" v="hill" />
		<tag k="place" v="locality" />
		<tag k="ssr:stedsnr" v="793173" />
	</node>
	<node lat="59.90066944648786" lon="11.022630546793602" id="-16544">
		<tag k="name" v="Isdalen" />
		<tag k="natural" v="valley" />
		<tag k="place" v="locality" />
		<tag k="ssr:stedsnr" v="812094" />
	</node>
	<node lat="59.89569166553818" lon="10.947994448450626" id="-16550">
		<tag k="name" v="Linderudkollen" />
		<tag k="natural" v="hill" />
		<tag k="place" v="locality" />
		<tag k="ssr:stedsnr" v="812046" />
	</node>
	<node lat="59.88295000284499" lon="11.006080560996049" id="-16551">
		<tag k="fixme" v="consider natural=peak for the most distinct mountains in the district" />
		<tag k="name" v="Puttåsen" />
		<tag k="natural" v="hill" />
		<tag k="place" v="locality" />
		<tag k="ssr:stedsnr" v="812070" />
	</node>
	<node lat="59.845580557265706" lon="10.980622223755773" id="-16562">
		<tag k="fixme" v="consider natural=peak for the most distinct mountains in the district" />
		<tag k="name" v="Liseterkollen" />
		<tag k="natural" v="hill" />
		<tag k="place" v="locality" />
		<tag k="ssr:stedsnr" v="817811" />
	</node>
	<node lat="59.87913333346902" lon="11.014755560397925" id="-16569">
		<tag k="alt_name" v="Gjerterudkampen" />
		<tag k="fixme" v="consider natural=peak for the most distinct mountains in the district" />
		<tag k="name" v="Geiterudfjellet" />
		<tag k="natural" v="hill" />
		<tag k="place" v="locality" />
		<tag k="ssr:stedsnr" v="854173" />
	</node>
	<node lat="59.90394444832942" lon="10.92194722562091" id="-16570">
		<tag k="fixme" v="consider natural=peak for the most distinct mountains in the district" />
		<tag k="name" v="Brennåsen" />
		<tag k="natural" v="hill" />
		<tag k="place" v="locality" />
		<tag k="ssr:stedsnr" v="873063" />
	</node>
	<node lat="59.8729777745528" lon="11.001883328880714" id="-16571">
		<tag k="fixme" v="consider natural=peak for the most distinct mountains in the district" />
		<tag k="name" v="Finnlandsåsen" />
		<tag k="natural" v="hill" />
		<tag k="place" v="locality" />
		<tag k="ssr:stedsnr" v="873067" />
	</node>
	<node lat="59.876977775585914" lon="10.98602777788576" id="-16572">
		<tag k="fixme" v="consider natural=peak for the most distinct mountains in the district" />
		<tag k="name" v="Løkkåsen" />
		<tag k="natural" v="hill" />
		<tag k="place" v="locality" />
		<tag k="ssr:stedsnr" v="873071" />
	</node>
	<node lat="59.94696944009291" lon="10.968541672011163" id="-16573">
		<tag k="fixme" v="consider natural=peak for the most distinct mountains in the district" />
		<tag k="name" v="Haneborgåsen" />
		<tag k="natural" v="hill" />
		<tag k="place" v="locality" />
		<tag k="ssr:stedsnr" v="873074" />
	</node>
	<node lat="59.91444721932888" lon="10.993902782962305" id="-16574">
		<tag k="name" v="Toppberget" />
		<tag k="natural" v="hill" />
		<tag k="place" v="locality" />
		<tag k="ssr:stedsnr" v="873045" />
	</node>
	<node lat="59.870358329371506" lon="10.979363880058145" id="-16575">
		<tag k="name" v="Veslekollen" />
		<tag k="natural" v="hill" />
		<tag k="place" v="locality" />
		<tag k="ssr:stedsnr" v="873055" />
	</node>
	<node lat="59.909958337661614" lon="11.007822217523007" id="-16577">
		<tag k="fixme" v="consider natural=peak for the most distinct mountains in the district" />
		<tag k="name" v="Tordenås" />
		<tag k="natural" v="hill" />
		<tag k="place" v="locality" />
		<tag k="ssr:stedsnr" v="873083" />
	</node>
	<node lat="59.87265832992158" lon="11.011352771891545" id="-16578">
		<tag k="alt_name" v="Gjerterudlia" />
		<tag k="name" v="Gjertrudlia" />
		<tag k="natural" v="slope" />
		<tag k="place" v="locality" />
		<tag k="ssr:stedsnr" v="873092" />
	</node>
	<node lat="59.900722226253926" lon="10.989591672108105" id="-16580">
		<tag k="name" v="Bakkeruddalen" />
		<tag k="natural" v="valley" />
		<tag k="place" v="locality" />
		<tag k="ssr:stedsnr" v="873100" />
	</node>
	<node lat="59.90966111198441" lon="10.990800005681743" id="-16581">
		<tag k="name" v="Kleiva" />
		<tag k="natural" v="valley" />
		<tag k="place" v="locality" />
		<tag k="ssr:stedsnr" v="873102" />
	</node>
=======
>>>>>>> e1d4bc35ff8a6074a6f2e91616a996b547c36f15
</osm>
