<?xml version="1.0" encoding="UTF-8"?>
<<<<<<< HEAD
<osm version="0.6" generator="osmapis">
	<node lat="59.83820562801601" lon="11.046235313356213" id="-16339">
=======
<osm generator="osmapis" version="0.6">
	<node id="-257024" lat="59.838205628" lon="11.0462353134">
>>>>>>> e1d4bc35ff8a6074a6f2e91616a996b547c36f15
		<tag k="fixme" v="consider boundary=protected_area and relevant protect_class if not nature reserve" />
		<tag k="leisure" v="nature_reserve" />
		<tag k="name" v="Østmarka naturreservat" />
		<tag k="ssr:stedsnr" v="972728" />
	</node>
<<<<<<< HEAD
	<node lat="59.940552781264905" lon="10.9815027696697" id="-16456">
=======
	<node id="-256857" lat="59.9405527813" lon="10.9815027697">
>>>>>>> e1d4bc35ff8a6074a6f2e91616a996b547c36f15
		<tag k="name" v="Fjellhamar sokn" />
		<tag k="old_name" v="Lørenskog sokn" />
		<tag k="place" v="hamlet" />
		<tag k="ssr:stedsnr" v="420846" />
	</node>
	<node lat="59.85519903591345" lon="10.96827949538689" id="-16619">
		<tag k="fixme" v="consider boundary=protected_area and relevant protect_class if not nature reserve" />
		<tag k="leisure" v="nature_reserve" />
		<tag k="name" v="Tretjernhøla naturreservat" />
		<tag k="ssr:stedsnr" v="1078020" />
	</node>
</osm>
