<?xml version="1.0" encoding="UTF-8"?>
<osm generator="osmapis" version="0.6">
	<node id="-232680" lat="59.9422650257" lon="10.9797782669">
		<tag k="amenity" v="place_of_worship" />
		<tag k="denomination" v="lutheran" />
		<tag k="name" v="Fjellhamar kirke" />
		<tag k="religion" v="christian" />
		<tag k="ssr:stedsnr" v="990993" />
	</node>
	<node id="-232380" lat="59.9190999973" lon="10.9603083349">
		<tag k="amenity" v="community_centre" />
		<tag k="loc_name" v="Bøndenes hus" />
		<tag k="name" v="Bøndernes hus" />
		<tag k="ssr:stedsnr" v="873927" />
	</node>
	<node id="-232548" lat="59.9245585303" lon="10.9848262487">
		<tag k="alt_name" v="Lørenskog" />
		<tag k="amenity" v="place_of_worship" />
		<tag k="denomination" v="lutheran" />
		<tag k="name" v="Lørenskog kirke" />
		<tag k="religion" v="christian" />
		<tag k="ssr:stedsnr" v="550028" />
	</node>
	<node id="-232298" lat="59.9301527745" lon="10.932808329">
		<tag k="name" v="Røykås trafostasjon" />
		<tag k="place" v="locality" />
		<tag k="ssr:stedsnr" v="691647" />
	</node>
	<node id="-232145" lat="59.9195999961" lon="10.9603694425">
		<tag k="alt_name" v="Skårer kapell" />
		<tag k="amenity" v="place_of_worship" />
		<tag k="denomination" v="lutheran" />
		<tag k="name" v="Skårer kirke" />
		<tag k="religion" v="christian" />
		<tag k="ssr:stedsnr" v="247018" />
	</node>
</osm>
