<?xml version="1.0" encoding="UTF-8"?>
<<<<<<< HEAD
<osm version="0.6" generator="osmapis">
	<node lat="59.840083335498385" lon="11.018561113270023" id="-16050">
		<tag k="alt_name" v="Kytetjernet, nordre;Nordre Kyttjern" />
		<tag k="name" v="Nordre Kytetjernet" />
		<tag k="natural" v="water" />
		<tag k="ssr:stedsnr" v="4203" />
	</node>
	<node lat="59.90090833666298" lon="10.999738883442852" id="-16051">
		<tag k="name" v="Styggvannet" />
		<tag k="natural" v="water" />
		<tag k="old_name" v="Styggvatnet" />
		<tag k="ssr:stedsnr" v="5060" />
	</node>
	<node lat="59.87186111308392" lon="10.938138885750657" id="-16052">
		<tag k="name" v="Halssjøputten" />
		<tag k="natural" v="bay" />
		<tag k="ssr:stedsnr" v="23143" />
	</node>
	<node lat="59.91833889103931" lon="10.979225004333031" id="-16060">
		<tag k="name" v="Neskulpen" />
		<tag k="place" v="locality" />
		<tag k="ssr:stedsnr" v="23937" />
	</node>
	<node lat="59.90660555408826" lon="10.955291669409618" id="-16061">
		<tag k="name" v="Haugerbekken" />
		<tag k="ssr:stedsnr" v="23940" />
		<tag k="waterway" v="stream" />
	</node>
	<node lat="59.84638889302676" lon="11.01593056051075" id="-16071">
		<tag k="name" v="Skårerputten" />
		<tag k="natural" v="water" />
		<tag k="ssr:stedsnr" v="84140" />
	</node>
	<node lat="59.86230277410805" lon="10.971466663128133" id="-16074">
		<tag k="name" v="Slettnebbet" />
		<tag k="natural" v="cape" />
		<tag k="ssr:stedsnr" v="84941" />
	</node>
	<node lat="59.854258336788185" lon="11.01777499139947" id="-16078">
		<tag k="alt_name" v="Biritjern" />
		<tag k="name" v="Biritjernet" />
		<tag k="natural" v="water" />
		<tag k="ssr:stedsnr" v="247214" />
	</node>
	<node lat="59.90955509971705" lon="11.01991044489089" id="-16079">
		<tag k="name" v="Østbyputten" />
		<tag k="natural" v="water" />
		<tag k="ssr:stedsnr" v="247105" />
	</node>
	<node lat="59.89200278157467" lon="10.934558334134543" id="-16080">
		<tag k="alt_name" v="Knuttjernet" />
		<tag k="name" v="Knuttjern" />
		<tag k="natural" v="water" />
		<tag k="ssr:stedsnr" v="248080" />
	</node>
	<node lat="59.84870702787692" lon="10.93191184954834" id="-16081">
		<tag k="alt_name" v="Slepptjern" />
		<tag k="name" v="Slepptjernet" />
		<tag k="natural" v="water" />
		<tag k="ssr:stedsnr" v="248239" />
	</node>
	<node lat="59.870429751373905" lon="10.97258129328246" id="-16083">
		<tag k="alt_name" v="Fiskeløysa" />
		<tag k="name" v="Fiskelausa" />
		<tag k="natural" v="water" />
		<tag k="ssr:stedsnr" v="126133" />
	</node>
	<node lat="59.87563333563867" lon="10.97472499211696" id="-16093">
		<tag k="name" v="Endtjernet" />
		<tag k="natural" v="water" />
		<tag k="ssr:stedsnr" v="186178" />
	</node>
	<node lat="59.840222224549585" lon="10.985222223997669" id="-16094">
		<tag k="name" v="Liseterputten" />
		<tag k="natural" v="water" />
		<tag k="ssr:stedsnr" v="186195" />
	</node>
	<node lat="59.94108889198424" lon="10.942294445678309" id="-16096">
		<tag k="name" v="Ellingsrudelva" />
		<tag k="ssr:stedsnr" v="266129" />
		<tag k="waterway" v="river" />
	</node>
	<node lat="59.87494444701215" lon="10.940238882860514" id="-16116">
		<tag k="name" v="Vesle Halssjøen" />
		<tag k="natural" v="water" />
		<tag k="ssr:stedsnr" v="266102" />
	</node>
	<node lat="59.856390945790864" lon="10.967769586833949" id="-16126">
		<tag k="name" v="Tretjerna" />
		<tag k="natural" v="water" />
		<tag k="ssr:stedsnr" v="308203" />
		<tag k="water" v="lake" />
	</node>
	<node lat="59.86688671116087" lon="10.912114348055619" id="-16135">
		<tag k="name" v="Skullerudtangen" />
		<tag k="natural" v="cape" />
		<tag k="ssr:stedsnr" v="327906" />
	</node>
	<node lat="59.86627222438511" lon="10.961077781064438" id="-16141">
		<tag k="name" v="Mortvannet" />
		<tag k="natural" v="water" />
		<tag k="old_name" v="Mortvatn" />
		<tag k="ssr:stedsnr" v="369126" />
	</node>
	<node lat="59.86829999642986" lon="11.000244435622347" id="-16151">
		<tag k="name" v="Geiterudtangen" />
		<tag k="natural" v="cape" />
		<tag k="ssr:stedsnr" v="387919" />
	</node>
	<node lat="59.90553601924117" lon="11.028810614810851" id="-16161">
		<tag k="alt_name" v="Blåtjern" />
		<tag k="name" v="Blåtjernet" />
		<tag k="natural" v="water" />
		<tag k="ssr:stedsnr" v="430062" />
	</node>
	<node lat="59.93456389063975" lon="10.968163887601657" id="-16168">
		<tag k="name" v="Vesletjernet" />
		<tag k="natural" v="water" />
		<tag k="ssr:stedsnr" v="448121" />
	</node>
	<node lat="59.89435277519767" lon="10.98722499370227" id="-16185">
		<tag k="name" v="Losbyelva" />
		<tag k="ssr:stedsnr" v="490083" />
		<tag k="waterway" v="stream" />
	</node>
	<node lat="59.84432777614337" lon="10.926241661485754" id="-16191">
=======
<osm generator="osmapis" version="0.6">
	<node id="-257023" lat="59.8443277761" lon="10.9262416615">
>>>>>>> e1d4bc35ff8a6074a6f2e91616a996b547c36f15
		<tag k="alt_name" v="Svanefoss" />
		<tag k="name" v="Svanefossen" />
		<tag k="natural" v="waterfall" />
		<tag k="ssr:stedsnr" v="509902" />
	</node>
<<<<<<< HEAD
	<node lat="59.842263887544604" lon="10.927199997319027" id="-16209">
		<tag k="name" v="Eriksvannbekken" />
		<tag k="ssr:stedsnr" v="691198" />
		<tag k="waterway" v="stream" />
	</node>
	<node lat="59.93607778057324" lon="11.00493056179002" id="-16224">
		<tag k="name" v="Bårlibekken" />
		<tag k="ssr:stedsnr" v="569642" />
		<tag k="waterway" v="stream" />
	</node>
	<node lat="59.874650003662126" lon="10.992047219363213" id="-16226">
=======
	<node id="-256765" lat="59.8704297514" lon="10.9725812933">
		<tag k="alt_name" v="Fiskeløysa" />
		<tag k="name" v="Fiskelausa" />
		<tag k="natural" v="water" />
		<tag k="ssr:stedsnr" v="126133" />
	</node>
	<node id="-257018" lat="59.9055360192" lon="11.0288106148">
		<tag k="alt_name" v="Blåtjern" />
		<tag k="name" v="Blåtjernet" />
		<tag k="natural" v="water" />
		<tag k="ssr:stedsnr" v="430062" />
	</node>
	<node id="-256889" lat="59.8746500037" lon="10.9920472194">
>>>>>>> e1d4bc35ff8a6074a6f2e91616a996b547c36f15
		<tag k="name" v="St. Helena" />
		<tag k="place" v="islet" />
		<tag k="ssr:stedsnr" v="569906" />
	</node>
<<<<<<< HEAD
	<node lat="59.9023500044881" lon="10.920188880784801" id="-16227">
		<tag k="name" v="Igletjernbekken" />
		<tag k="ssr:stedsnr" v="569911" />
		<tag k="waterway" v="stream" />
	</node>
	<node lat="59.90797499729453" lon="11.002302785391757" id="-16259">
		<tag k="name" v="Røyritjernet" />
		<tag k="natural" v="water" />
		<tag k="ssr:stedsnr" v="672110" />
	</node>
	<node lat="59.865236110810734" lon="11.008399999744418" id="-16261">
		<tag k="name" v="Geitsjøen" />
		<tag k="natural" v="water" />
		<tag k="ssr:stedsnr" v="672129" />
	</node>
	<node lat="59.87238889318892" lon="10.998691659871815" id="-16267">
		<tag k="name" v="Grytebråtevika" />
		<tag k="natural" v="bay" />
		<tag k="ssr:stedsnr" v="691144" />
	</node>
	<node lat="59.89267221945636" lon="10.950591660654899" id="-16268">
=======
	<node id="-256759" lat="59.8623027741" lon="10.9714666631">
		<tag k="name" v="Slettnebbet" />
		<tag k="natural" v="cape" />
		<tag k="ssr:stedsnr" v="84941" />
	</node>
	<node id="-256884" lat="59.9360777806" lon="11.0049305618">
		<tag k="name" v="Bårlibekken" />
		<tag k="ssr:stedsnr" v="569642" />
		<tag k="waterway" v="stream" />
	</node>
	<node id="-256627" lat="59.8926722195" lon="10.9505916607">
>>>>>>> e1d4bc35ff8a6074a6f2e91616a996b547c36f15
		<tag k="name" v="Skillebekk" />
		<tag k="ssr:stedsnr" v="691910" />
		<tag k="waterway" v="stream" />
	</node>
<<<<<<< HEAD
	<node lat="59.90677499745937" lon="10.935186113693012" id="-16297">
		<tag k="alt_name" v="Lintjernet" />
		<tag k="name" v="Lintjern" />
		<tag k="natural" v="water" />
		<tag k="ssr:stedsnr" v="915069" />
	</node>
	<node lat="59.89615833711726" lon="10.924369449708063" id="-16303">
		<tag k="name" v="Igletjern" />
=======
	<node id="-256753" lat="59.9116333343" lon="10.9148499969">
		<tag k="name" v="Ellingsrudelva" />
		<tag k="ssr:stedsnr" v="84636" />
		<tag k="waterway" v="river" />
	</node>
	<node id="-256752" lat="59.846388893" lon="11.0159305605">
		<tag k="name" v="Skårerputten" />
>>>>>>> e1d4bc35ff8a6074a6f2e91616a996b547c36f15
		<tag k="natural" v="water" />
		<tag k="ssr:stedsnr" v="812131" />
	</node>
<<<<<<< HEAD
	<node lat="59.8669972213207" lon="11.01053610414787" id="-16321">
		<tag k="name" v="Tyrihjellnebbet" />
		<tag k="natural" v="cape" />
		<tag k="ssr:stedsnr" v="934921" />
	</node>
	<node lat="59.87525555835414" lon="10.996524993431317" id="-16331">
		<tag k="name" v="Bispetangen" />
		<tag k="natural" v="cape" />
		<tag k="ssr:stedsnr" v="934915" />
	</node>
	<node lat="59.932030551865665" lon="10.970088891584071" id="-16342">
		<tag k="alt_name" v="Fjellhammarelva" />
		<tag k="name" v="Fjellhamarelva" />
		<tag k="ssr:stedsnr" v="4012" />
		<tag k="waterway" v="stream" />
	</node>
	<node lat="59.84595832912178" lon="10.958983324777401" id="-16345">
		<tag k="alt_name" v="Svarttjernet" />
		<tag k="name" v="Svartkulp" />
		<tag k="natural" v="water" />
		<tag k="ssr:stedsnr" v="5239" />
	</node>
	<node lat="59.93854961321934" lon="10.955264090192058" id="-16360">
=======
	<node id="-256616" lat="59.8422638875" lon="10.9271999973">
		<tag k="name" v="Eriksvannbekken" />
		<tag k="ssr:stedsnr" v="691198" />
		<tag k="waterway" v="stream" />
	</node>
	<node id="-256493" lat="59.941088892" lon="10.9422944457">
		<tag k="name" v="Ellingsrudelva" />
		<tag k="ssr:stedsnr" v="266129" />
		<tag k="waterway" v="river" />
	</node>
	<node id="-256722" lat="59.9009083367" lon="10.9997388834">
		<tag k="name" v="Styggvannet" />
		<tag k="natural" v="water" />
		<tag k="old_name" v="Styggvatnet" />
		<tag k="ssr:stedsnr" v="5060" />
	</node>
	<node id="-256615" lat="59.8723888932" lon="10.9986916599">
		<tag k="name" v="Grytebråtevika" />
		<tag k="natural" v="bay" />
		<tag k="ssr:stedsnr" v="691144" />
	</node>
	<node id="-256744" lat="59.9385496132" lon="10.9552640902">
>>>>>>> e1d4bc35ff8a6074a6f2e91616a996b547c36f15
		<tag k="alt_name" v="Langtjernet" />
		<tag k="name" v="Langvannet" />
		<tag k="natural" v="water" />
		<tag k="ssr:stedsnr" v="65045" />
	</node>
<<<<<<< HEAD
	<node lat="59.911633334324115" lon="10.914849996917804" id="-16370">
		<tag k="name" v="Ellingsrudelva" />
		<tag k="ssr:stedsnr" v="84636" />
		<tag k="waterway" v="river" />
	</node>
	<node lat="59.92028611148941" lon="11.02656389779893" id="-16372">
		<tag k="name" v="Hovelsrudtangen" />
		<tag k="natural" v="cape" />
		<tag k="ssr:stedsnr" v="84654" />
	</node>
	<node lat="59.91281666461958" lon="10.915702781106955" id="-16375">
=======
	<node id="-256871" lat="59.8734717329" lon="10.9941415527">
		<tag k="name" v="Mønevannet" />
		<tag k="natural" v="water" />
		<tag k="old_name" v="Mønevatn" />
		<tag k="ssr:stedsnr" v="550186" />
		<tag k="water" v="lake" />
	</node>
	<node id="-256870" lat="59.8756638855" lon="10.951027769">
		<tag k="alt_name" v="Halssjøen" />
		<tag k="name" v="Halsjøen" />
		<tag k="natural" v="water" />
		<tag k="old_name" v="Store Halsjøen" />
		<tag k="ssr:stedsnr" v="550185" />
		<tag k="water" v="lake" />
	</node>
	<node id="-256482" lat="59.9128166646" lon="10.9157027811">
>>>>>>> e1d4bc35ff8a6074a6f2e91616a996b547c36f15
		<tag k="name" v="Dammen" />
		<tag k="ssr:stedsnr" v="84669" />
		<tag k="waterway" v="dam" />
	</node>
<<<<<<< HEAD
	<node lat="59.8787222182511" lon="10.966699995720704" id="-16382">
		<tag k="name" v="Igletjernet" />
		<tag k="natural" v="water" />
		<tag k="ssr:stedsnr" v="126171" />
	</node>
	<node lat="59.904975002071666" lon="10.913341669619186" id="-16392">
		<tag k="name" v="Dammen" />
		<tag k="ssr:stedsnr" v="144666" />
		<tag k="waterway" v="dam" />
	</node>
	<node lat="59.86851111249948" lon="11.007172228636819" id="-16400">
		<tag k="name" v="Geitsjøbogen" />
		<tag k="natural" v="cape" />
		<tag k="ssr:stedsnr" v="144927" />
	</node>
	<node lat="59.93718333008446" lon="10.9873749989413" id="-16401">
		<tag k="name" v="Fjellhamardammen" />
		<tag k="natural" v="water" />
		<tag k="ssr:stedsnr" v="144930" />
		<tag k="water" v="lake" />
	</node>
	<node lat="59.888233335714915" lon="10.910469437483851" id="-16410">
		<tag k="name" v="Mortvika" />
		<tag k="natural" v="bay" />
		<tag k="ssr:stedsnr" v="205128" />
	</node>
	<node lat="59.92470833252043" lon="10.981394441848746" id="-16440">
		<tag k="name" v="St. Olavs kilde" />
		<tag k="place" v="locality" />
		<tag k="ssr:stedsnr" v="327900" />
	</node>
	<node lat="59.86715555716191" lon="10.99898889351789" id="-16444">
		<tag k="name" v="Fløyta" />
		<tag k="natural" v="water" />
		<tag k="ssr:stedsnr" v="369131" />
	</node>
	<node lat="59.91627777871275" lon="10.971608342227878" id="-16451">
		<tag k="name" v="Finstadbekken" />
		<tag k="ssr:stedsnr" v="448666" />
		<tag k="waterway" v="stream" />
	</node>
	<node lat="59.95147222386762" lon="10.96783888945044" id="-16458">
=======
	<node id="-256736" lat="59.9066055541" lon="10.9552916694">
		<tag k="name" v="Haugerbekken" />
		<tag k="ssr:stedsnr" v="23940" />
		<tag k="waterway" v="stream" />
	</node>
	<node id="-256735" lat="59.918338891" lon="10.9792250043">
		<tag k="name" v="Neskulpen" />
		<tag k="place" v="locality" />
		<tag k="ssr:stedsnr" v="23937" />
	</node>
	<node id="-256990" lat="59.8770194479" lon="11.0041750062">
		<tag k="name" v="Putten" />
		<tag k="natural" v="water" />
		<tag k="ssr:stedsnr" v="873132" />
	</node>
	<node id="-256731" lat="59.8718611131" lon="10.9381388858">
		<tag k="name" v="Halssjøputten" />
		<tag k="natural" v="bay" />
		<tag k="ssr:stedsnr" v="23143" />
	</node>
	<node id="-256858" lat="59.9514722239" lon="10.9678388895">
>>>>>>> e1d4bc35ff8a6074a6f2e91616a996b547c36f15
		<tag k="name" v="Svarttjern" />
		<tag k="natural" v="water" />
		<tag k="ssr:stedsnr" v="429032" />
	</node>
<<<<<<< HEAD
	<node lat="59.86366110899119" lon="10.997161114156478" id="-16459">
		<tag k="alt_name" v="Malmern" />
		<tag k="name" v="Malmeren" />
=======
	<node id="-256473" lat="59.8487070279" lon="10.9319118495">
		<tag k="alt_name" v="Slepptjern" />
		<tag k="name" v="Slepptjernet" />
>>>>>>> e1d4bc35ff8a6074a6f2e91616a996b547c36f15
		<tag k="natural" v="water" />
		<tag k="ssr:stedsnr" v="430129" />
	</node>
<<<<<<< HEAD
	<node lat="59.84458926568366" lon="10.970709327283547" id="-16460">
		<tag k="name" v="Skålsjøen" />
=======
	<node id="-256472" lat="59.8920027816" lon="10.9345583341">
		<tag k="alt_name" v="Knuttjernet" />
		<tag k="name" v="Knuttjern" />
>>>>>>> e1d4bc35ff8a6074a6f2e91616a996b547c36f15
		<tag k="natural" v="water" />
		<tag k="ssr:stedsnr" v="430230" />
		<tag k="water" v="lake" />
	</node>
<<<<<<< HEAD
	<node lat="59.851613887346716" lon="11.007230555673832" id="-16466">
		<tag k="name" v="Tonevannsvika" />
		<tag k="natural" v="bay" />
		<tag k="ssr:stedsnr" v="448128" />
	</node>
	<node lat="59.84338888700031" lon="11.005802772347744" id="-16471">
=======
	<node id="-256470" lat="59.8542583368" lon="11.0177749914">
		<tag k="alt_name" v="Biritjern" />
		<tag k="name" v="Biritjernet" />
		<tag k="natural" v="water" />
		<tag k="ssr:stedsnr" v="247214" />
	</node>
	<node id="-256597" lat="59.843388887" lon="11.0058027723">
>>>>>>> e1d4bc35ff8a6074a6f2e91616a996b547c36f15
		<tag k="name" v="Lagmannsputten" />
		<tag k="natural" v="water" />
		<tag k="ssr:stedsnr" v="509115" />
		<tag k="water" v="pond" />
	</node>
<<<<<<< HEAD
	<node lat="59.87566388554151" lon="10.95102776898097" id="-16485">
		<tag k="alt_name" v="Halssjøen" />
		<tag k="name" v="Halsjøen" />
=======
	<node id="-256724" lat="59.8459583291" lon="10.9589833248">
		<tag k="alt_name" v="Svarttjernet" />
		<tag k="name" v="Svartkulp" />
>>>>>>> e1d4bc35ff8a6074a6f2e91616a996b547c36f15
		<tag k="natural" v="water" />
		<tag k="old_name" v="Store Halsjøen" />
		<tag k="ssr:stedsnr" v="550185" />
		<tag k="water" v="lake" />
	</node>
<<<<<<< HEAD
	<node lat="59.8734717329058" lon="10.99414155266285" id="-16486">
		<tag k="name" v="Mønevannet" />
		<tag k="natural" v="water" />
		<tag k="old_name" v="Mønevatn" />
		<tag k="ssr:stedsnr" v="550186" />
		<tag k="water" v="lake" />
	</node>
	<node lat="59.88815832941007" lon="10.94002499557467" id="-16501">
		<tag k="alt_name" v="Skullerudtjernet" />
		<tag k="name" v="Skullerudtjern" />
=======
	<node id="-256590" lat="59.9079749973" lon="11.0023027854">
		<tag k="name" v="Røyritjernet" />
		<tag k="natural" v="water" />
		<tag k="ssr:stedsnr" v="672110" />
	</node>
	<node id="-256978" lat="59.8633666696" lon="10.9697666617">
		<tag k="alt_name" v="Drettvann" />
		<tag k="name" v="Drettvannet" />
>>>>>>> e1d4bc35ff8a6074a6f2e91616a996b547c36f15
		<tag k="natural" v="water" />
		<tag k="ssr:stedsnr" v="611159" />
	</node>
<<<<<<< HEAD
	<node lat="59.868663890548476" lon="10.910999995312238" id="-16506">
		<tag k="name" v="Tangenøya" />
		<tag k="place" v="island" />
		<tag k="ssr:stedsnr" v="630916" />
	</node>
	<node lat="59.85776388807438" lon="10.916052781075047" id="-16521">
		<tag k="alt_name" v="Søndre Elvåga" />
		<tag k="name" v="Sør-Elvåga" />
=======
	<node id="-256721" lat="59.8400833355" lon="11.0185611133">
		<tag k="alt_name" v="Kytetjernet, nordre;Nordre Kyttjern" />
		<tag k="name" v="Nordre Kytetjernet" />
>>>>>>> e1d4bc35ff8a6074a6f2e91616a996b547c36f15
		<tag k="natural" v="water" />
		<tag k="ssr:stedsnr" v="733213" />
		<tag k="water" v="lake" />
	</node>
<<<<<<< HEAD
	<node lat="59.855449999429084" lon="11.00449166063897" id="-16522">
		<tag k="name" v="Røyrivannet" />
=======
	<node id="-256592" lat="59.8652361108" lon="11.0083999997">
		<tag k="name" v="Geitsjøen" />
>>>>>>> e1d4bc35ff8a6074a6f2e91616a996b547c36f15
		<tag k="natural" v="water" />
		<tag k="old_name" v="Røyrivatnet" />
		<tag k="ssr:stedsnr" v="733218" />
	</node>
<<<<<<< HEAD
	<node lat="59.847463890420215" lon="11.022058334268852" id="-16523">
		<tag k="alt_name" v="Nordre Krokvann" />
		<tag k="name" v="Nordre Krokvannet" />
=======
	<node id="-256846" lat="59.8671555572" lon="10.9989888935">
		<tag k="name" v="Fløyta" />
>>>>>>> e1d4bc35ff8a6074a6f2e91616a996b547c36f15
		<tag k="natural" v="water" />
		<tag k="old_name" v="Krokvatnet, nordre" />
		<tag k="ssr:stedsnr" v="733230" />
	</node>
<<<<<<< HEAD
	<node lat="59.87226111369648" lon="10.964041672013302" id="-16524">
		<tag k="name" v="Klubbtjern" />
		<tag k="natural" v="water" />
		<tag k="ssr:stedsnr" v="751111" />
	</node>
	<node lat="59.874255552439635" lon="10.993152779370819" id="-16528">
		<tag k="name" v="Maurodden" />
=======
	<node id="-256717" lat="59.9320305519" lon="10.9700888916">
		<tag k="alt_name" v="Fjellhammarelva" />
		<tag k="name" v="Fjellhamarelva" />
		<tag k="ssr:stedsnr" v="4012" />
		<tag k="waterway" v="stream" />
	</node>
	<node id="-256714" lat="59.8752555584" lon="10.9965249934">
		<tag k="name" v="Bispetangen" />
>>>>>>> e1d4bc35ff8a6074a6f2e91616a996b547c36f15
		<tag k="natural" v="cape" />
		<tag k="ssr:stedsnr" v="751941" />
	</node>
<<<<<<< HEAD
	<node lat="59.91903055912972" lon="11.02715556121246" id="-16539">
		<tag k="name" v="Åmotdammen" />
=======
	<node id="-256580" lat="59.863661109" lon="10.9971611142">
		<tag k="alt_name" v="Malmern" />
		<tag k="name" v="Malmeren" />
>>>>>>> e1d4bc35ff8a6074a6f2e91616a996b547c36f15
		<tag k="natural" v="water" />
		<tag k="ssr:stedsnr" v="793100" />
		<tag k="water" v="lake" />
	</node>
<<<<<<< HEAD
	<node lat="59.89476111399931" lon="11.010749999327203" id="-16543">
		<tag k="alt_name" v="Veslevann" />
		<tag k="name" v="Veslevannet" />
		<tag k="natural" v="water" />
		<tag k="ssr:stedsnr" v="811891" />
	</node>
	<node lat="59.868036113021134" lon="10.97816666486946" id="-16546">
		<tag k="name" v="Lusetjern" />
		<tag k="natural" v="water" />
		<tag k="ssr:stedsnr" v="812126" />
	</node>
	<node lat="59.90121944259772" lon="11.01013055033943" id="-16547">
		<tag k="name" v="Plåterudsetertjern" />
		<tag k="natural" v="water" />
		<tag k="ssr:stedsnr" v="812144" />
	</node>
	<node lat="59.878177782221606" lon="10.951619436523512" id="-16548">
		<tag k="name" v="Morkputten" />
		<tag k="natural" v="water" />
		<tag k="ssr:stedsnr" v="812148" />
		<tag k="water" v="pond" />
	</node>
	<node lat="59.86002778039111" lon="10.999863889326738" id="-16549">
=======
	<node id="-256516" lat="59.9345638906" lon="10.9681638876">
		<tag k="name" v="Vesletjernet" />
		<tag k="natural" v="water" />
		<tag k="ssr:stedsnr" v="448121" />
	</node>
	<node id="-256834" lat="59.9247083325" lon="10.9813944418">
		<tag k="name" v="St. Olavs kilde" />
		<tag k="place" v="locality" />
		<tag k="ssr:stedsnr" v="327900" />
	</node>
	<node id="-256845" lat="59.8662722244" lon="10.9610777811">
		<tag k="name" v="Mortvannet" />
		<tag k="natural" v="water" />
		<tag k="old_name" v="Mortvatn" />
		<tag k="ssr:stedsnr" v="369126" />
	</node>
	<node id="-256960" lat="59.8600277804" lon="10.9998638893">
>>>>>>> e1d4bc35ff8a6074a6f2e91616a996b547c36f15
		<tag k="name" v="Knurra" />
		<tag k="natural" v="strait" />
		<tag k="ssr:stedsnr" v="812149" />
	</node>
<<<<<<< HEAD
	<node lat="59.86336666961883" lon="10.969766661714756" id="-16566">
		<tag k="alt_name" v="Drettvann" />
		<tag k="name" v="Drettvannet" />
		<tag k="natural" v="water" />
		<tag k="old_name" v="Dretvatn" />
		<tag k="ssr:stedsnr" v="854125" />
		<tag k="water" v="lake" />
	</node>
	<node lat="59.87714999875969" lon="10.909111114824249" id="-16567">
		<tag k="alt_name" v="Nordre Elvåga" />
		<tag k="name" v="Nord-Elvåga" />
=======
	<node id="-256959" lat="59.8781777822" lon="10.9516194365">
		<tag k="name" v="Morkputten" />
		<tag k="natural" v="water" />
		<tag k="ssr:stedsnr" v="812148" />
		<tag k="water" v="pond" />
	</node>
	<node id="-256958" lat="59.9012194426" lon="11.0101305503">
		<tag k="name" v="Plåterudsetertjern" />
>>>>>>> e1d4bc35ff8a6074a6f2e91616a996b547c36f15
		<tag k="natural" v="water" />
		<tag k="ssr:stedsnr" v="854169" />
		<tag k="water" v="lake" />
	</node>
<<<<<<< HEAD
	<node lat="59.877019447867475" lon="11.004175006245612" id="-16576">
		<tag k="name" v="Putten" />
		<tag k="natural" v="water" />
		<tag k="ssr:stedsnr" v="873132" />
	</node>
	<node lat="59.86907777593463" lon="11.004844438649982" id="-16591">
		<tag k="name" v="Ospøya" />
		<tag k="place" v="island" />
		<tag k="ssr:stedsnr" v="873921" />
	</node>
	<node lat="59.948269446901136" lon="10.951241675159327" id="-16592">
=======
	<node id="-256957" lat="59.8961583371" lon="10.9243694497">
		<tag k="name" v="Igletjern" />
		<tag k="natural" v="water" />
		<tag k="ssr:stedsnr" v="812131" />
	</node>
	<node id="-256956" lat="59.868036113" lon="10.9781666649">
		<tag k="name" v="Lusetjern" />
		<tag k="natural" v="water" />
		<tag k="ssr:stedsnr" v="812126" />
	</node>
	<node id="-256699" lat="59.9381638875" lon="10.9994166677">
		<tag k="name" v="Vittenbergbekken" />
		<tag k="ssr:stedsnr" v="873925" />
		<tag k="waterway" v="stream" />
	</node>
	<node id="-256698" lat="59.9482694469" lon="10.9512416752">
>>>>>>> e1d4bc35ff8a6074a6f2e91616a996b547c36f15
		<tag k="name" v="Djupdalsbekken" />
		<tag k="ssr:stedsnr" v="873923" />
		<tag k="waterway" v="stream" />
	</node>
<<<<<<< HEAD
	<node lat="59.938163887458074" lon="10.99941666772951" id="-16593">
		<tag k="name" v="Vittenbergbekken" />
		<tag k="ssr:stedsnr" v="873925" />
		<tag k="waterway" v="stream" />
=======
	<node id="-256697" lat="59.8690777759" lon="11.0048444386">
		<tag k="name" v="Ospøya" />
		<tag k="place" v="island" />
		<tag k="ssr:stedsnr" v="873921" />
	</node>
	<node id="-256950" lat="59.894761114" lon="11.0107499993">
		<tag k="alt_name" v="Veslevann" />
		<tag k="name" v="Veslevannet" />
		<tag k="natural" v="water" />
		<tag k="ssr:stedsnr" v="811891" />
	</node>
	<node id="-256821" lat="59.8563909458" lon="10.9677695868">
		<tag k="name" v="Tretjerna" />
		<tag k="natural" v="water" />
		<tag k="ssr:stedsnr" v="308203" />
		<tag k="water" v="lake" />
	</node>
	<node id="-256767" lat="59.8787222183" lon="10.9666999957">
		<tag k="name" v="Igletjernet" />
		<tag k="natural" v="water" />
		<tag k="ssr:stedsnr" v="126171" />
	</node>
	<node id="-256947" lat="59.9190305591" lon="11.0271555612">
		<tag k="name" v="Åmotdammen" />
		<tag k="natural" v="water" />
		<tag k="ssr:stedsnr" v="793100" />
		<tag k="water" v="lake" />
	</node>
	<node id="-256923" lat="59.8722611137" lon="10.964041672">
		<tag k="name" v="Klubbtjern" />
		<tag k="natural" v="water" />
		<tag k="ssr:stedsnr" v="751111" />
	</node>
	<node id="-256689" lat="59.8771499988" lon="10.9091111148">
		<tag k="alt_name" v="Nordre Elvåga" />
		<tag k="name" v="Nord-Elvåga" />
		<tag k="natural" v="water" />
		<tag k="ssr:stedsnr" v="854169" />
		<tag k="water" v="lake" />
	</node>
	<node id="-256705" lat="59.9067749975" lon="10.9351861137">
		<tag k="alt_name" v="Lintjernet" />
		<tag k="name" v="Lintjern" />
		<tag k="natural" v="water" />
		<tag k="ssr:stedsnr" v="915069" />
	</node>
	<node id="-256558" lat="59.8682999964" lon="11.0002444356">
		<tag k="name" v="Geiterudtangen" />
		<tag k="natural" v="cape" />
		<tag k="ssr:stedsnr" v="387919" />
	</node>
	<node id="-256680" lat="59.8669972213" lon="11.0105361041">
		<tag k="name" v="Tyrihjellnebbet" />
		<tag k="natural" v="cape" />
		<tag k="ssr:stedsnr" v="934921" />
	</node>
	<node id="-256934" lat="59.8742555524" lon="10.9931527794">
		<tag k="name" v="Maurodden" />
		<tag k="natural" v="cape" />
		<tag k="ssr:stedsnr" v="751941" />
	</node>
	<node id="-256805" lat="59.8882333357" lon="10.9104694375">
		<tag k="name" v="Mortvika" />
		<tag k="natural" v="bay" />
		<tag k="ssr:stedsnr" v="205128" />
	</node>
	<node id="-256890" lat="59.9023500045" lon="10.9201888808">
		<tag k="name" v="Igletjernbekken" />
		<tag k="ssr:stedsnr" v="569911" />
		<tag k="waterway" v="stream" />
	</node>
	<node id="-256859" lat="59.8445892657" lon="10.9707093273">
		<tag k="name" v="Skålsjøen" />
		<tag k="natural" v="water" />
		<tag k="ssr:stedsnr" v="430230" />
		<tag k="water" v="lake" />
>>>>>>> e1d4bc35ff8a6074a6f2e91616a996b547c36f15
	</node>
	<node id="-256544" lat="59.8943527752" lon="10.9872249937">
		<tag k="name" v="Losbyelva" />
		<tag k="ssr:stedsnr" v="490083" />
		<tag k="waterway" v="stream" />
	</node>
	<node id="-256799" lat="59.8402222245" lon="10.985222224">
		<tag k="name" v="Liseterputten" />
		<tag k="natural" v="water" />
		<tag k="ssr:stedsnr" v="186195" />
	</node>
	<node id="-256798" lat="59.8756333356" lon="10.9747249921">
		<tag k="name" v="Endtjernet" />
		<tag k="natural" v="water" />
		<tag k="ssr:stedsnr" v="186178" />
	</node>
	<node id="-256539" lat="59.8668867112" lon="10.9121143481">
		<tag k="name" v="Skullerudtangen" />
		<tag k="natural" v="cape" />
		<tag k="ssr:stedsnr" v="327906" />
	</node>
	<node id="-256664" lat="59.8474638904" lon="11.0220583343">
		<tag k="alt_name" v="Nordre Krokvann" />
		<tag k="name" v="Nordre Krokvannet" />
		<tag k="natural" v="water" />
		<tag k="old_name" v="Krokvatnet, nordre" />
		<tag k="ssr:stedsnr" v="733230" />
	</node>
	<node id="-256663" lat="59.8554499994" lon="11.0044916606">
		<tag k="name" v="Røyrivannet" />
		<tag k="natural" v="water" />
		<tag k="old_name" v="Røyrivatnet" />
		<tag k="ssr:stedsnr" v="733218" />
	</node>
	<node id="-256662" lat="59.8577638881" lon="10.9160527811">
		<tag k="alt_name" v="Søndre Elvåga" />
		<tag k="name" v="Sør-Elvåga" />
		<tag k="natural" v="water" />
		<tag k="ssr:stedsnr" v="733213" />
		<tag k="water" v="lake" />
	</node>
	<node id="-256787" lat="59.9371833301" lon="10.9873749989">
		<tag k="name" v="Fjellhamardammen" />
		<tag k="natural" v="water" />
		<tag k="ssr:stedsnr" v="144930" />
		<tag k="water" v="lake" />
	</node>
	<node id="-256786" lat="59.8685111125" lon="11.0071722286">
		<tag k="name" v="Geitsjøbogen" />
		<tag k="natural" v="cape" />
		<tag k="ssr:stedsnr" v="144927" />
	</node>
	<node id="-256479" lat="59.9202861115" lon="11.0265638978">
		<tag k="name" v="Hovelsrudtangen" />
		<tag k="natural" v="cape" />
		<tag k="ssr:stedsnr" v="84654" />
	</node>
	<node id="-256778" lat="59.9049750021" lon="10.9133416696">
		<tag k="name" v="Dammen" />
		<tag k="ssr:stedsnr" v="144666" />
		<tag k="waterway" v="dam" />
	</node>
	<node id="-256518" lat="59.9162777787" lon="10.9716083422">
		<tag k="name" v="Finstadbekken" />
		<tag k="ssr:stedsnr" v="448666" />
		<tag k="waterway" v="stream" />
	</node>
	<node id="-256517" lat="59.8516138873" lon="11.0072305557">
		<tag k="name" v="Tonevannsvika" />
		<tag k="natural" v="bay" />
		<tag k="ssr:stedsnr" v="448128" />
	</node>
	<node id="-256644" lat="59.8686638905" lon="10.9109999953">
		<tag k="name" v="Tangenøya" />
		<tag k="place" v="island" />
		<tag k="ssr:stedsnr" v="630916" />
	</node>
	<node id="-256467" lat="59.9095550997" lon="11.0199104449">
		<tag k="name" v="Østbyputten" />
		<tag k="natural" v="water" />
		<tag k="ssr:stedsnr" v="247105" />
	</node>
	<node id="-256642" lat="59.8881583294" lon="10.9400249956">
		<tag k="alt_name" v="Skullerudtjernet" />
		<tag k="name" v="Skullerudtjern" />
		<tag k="natural" v="water" />
		<tag k="ssr:stedsnr" v="611159" />
	</node>
	<node id="-256491" lat="59.874944447" lon="10.9402388829">
		<tag k="name" v="Vesle Halssjøen" />
		<tag k="natural" v="water" />
		<tag k="ssr:stedsnr" v="266102" />
	</node>
</osm>
