<?xml version="1.0" encoding="UTF-8"?>
<osm version="0.6" generator="osmapis">
	<node lat="61.07998332984764" lon="4.812750003206185" id="-26598">
		<tag k="name" v="Storevika" />
		<tag k="natural" v="bay" />
		<tag k="ssr:date" v="2019-12-27" />
		<tag k="ssr:gruppe" v="kystkontur" />
		<tag k="ssr:hovedgruppe" v="sjø" />
		<tag k="ssr:stedsnr" v="8564" />
		<tag k="ssr:type" v="vikISjø" />
	</node>
	<node lat="61.12773888882308" lon="4.911230563683776" id="-26599">
		<tag k="name" v="Ospeneset" />
		<tag k="natural" v="cape" />
		<tag k="ssr:date" v="2019-12-27" />
		<tag k="ssr:gruppe" v="kystkontur" />
		<tag k="ssr:hovedgruppe" v="sjø" />
		<tag k="ssr:stedsnr" v="8565" />
		<tag k="ssr:type" v="nesISjø" />
	</node>
	<node lat="61.143441666574056" lon="4.779283336692091" id="-26601">
		<tag k="name" v="Klubbevika" />
		<tag k="natural" v="bay" />
		<tag k="ssr:date" v="2019-12-27" />
		<tag k="ssr:gruppe" v="kystkontur" />
		<tag k="ssr:hovedgruppe" v="sjø" />
		<tag k="ssr:stedsnr" v="9206" />
		<tag k="ssr:type" v="vikISjø" />
	</node>
	<node lat="61.05901111232582" lon="4.825263894976861" id="-26602">
		<tag k="alt_name" v="Leirvåg" />
		<tag k="name" v="Leirvågen" />
		<tag k="place" v="farm" />
		<tag k="ssr:date" v="2019-12-27" />
		<tag k="ssr:gruppe" v="gardsbebyggelse" />
		<tag k="ssr:hovedgruppe" v="bebyggelse" />
		<tag k="ssr:stedsnr" v="9240" />
		<tag k="ssr:type" v="bruk" />
	</node>
	<node lat="61.12166944632911" lon="4.815797230420771" id="-26603">
		<tag k="name" v="Klubben" />
		<tag k="place" v="islet" />
		<tag k="ssr:date" v="2019-12-27" />
		<tag k="ssr:gruppe" v="kystkontur" />
		<tag k="ssr:hovedgruppe" v="sjø" />
		<tag k="ssr:stedsnr" v="9138" />
		<tag k="ssr:type" v="holmeISjø" />
	</node>
	<node lat="61.13131944857382" lon="4.830711116291073" id="-26604">
		<tag k="alt_name" v="Botnevika" />
		<tag k="name" v="Botnavika" />
		<tag k="natural" v="bay" />
		<tag k="ssr:date" v="2019-12-27" />
		<tag k="ssr:gruppe" v="kystkontur" />
		<tag k="ssr:hovedgruppe" v="sjø" />
		<tag k="ssr:stedsnr" v="9144" />
		<tag k="ssr:type" v="vikISjø" />
	</node>
	<node lat="61.081752775231905" lon="4.771455552228353" id="-26605">
		<tag k="fixme" v="consider natural=peak for the most distinct mountains in the district" />
		<tag k="name" v="Vardefjellet" />
		<tag k="natural" v="hill" />
		<tag k="place" v="locality" />
		<tag k="ssr:date" v="2019-12-27" />
		<tag k="ssr:gruppe" v="høyder" />
		<tag k="ssr:hovedgruppe" v="terreng" />
		<tag k="ssr:stedsnr" v="9321" />
		<tag k="ssr:type" v="fjell" />
	</node>
	<node lat="61.1192250001764" lon="5.064341673637548" id="-26606">
		<tag k="name" v="Losnelia" />
		<tag k="natural" v="slope" />
		<tag k="place" v="locality" />
		<tag k="ssr:date" v="2019-12-27" />
		<tag k="ssr:gruppe" v="skråninger" />
		<tag k="ssr:hovedgruppe" v="terreng" />
		<tag k="ssr:stedsnr" v="9334" />
		<tag k="ssr:type" v="li" />
	</node>
	<node lat="61.092558332542175" lon="4.938247222438138" id="-26607">
		<tag k="name" v="Lødalen" />
		<tag k="natural" v="valley" />
		<tag k="place" v="locality" />
		<tag k="ssr:date" v="2019-12-27" />
		<tag k="ssr:gruppe" v="senkninger" />
		<tag k="ssr:hovedgruppe" v="terreng" />
		<tag k="ssr:stedsnr" v="9290" />
		<tag k="ssr:type" v="dal" />
	</node>
	<node lat="61.09926111357843" lon="4.913741669770839" id="-26608">
		<tag k="name" v="Eidsvika" />
		<tag k="natural" v="bay" />
		<tag k="ssr:date" v="2021-06-08" />
		<tag k="ssr:gruppe" v="kystkontur" />
		<tag k="ssr:hovedgruppe" v="sjø" />
		<tag k="ssr:stedsnr" v="9293" />
		<tag k="ssr:type" v="vikISjø" />
	</node>
	<node lat="61.02600833058119" lon="4.774813889129786" id="-26609">
		<tag k="name" v="Tungodden" />
		<tag k="natural" v="cape" />
		<tag k="ssr:date" v="2019-12-27" />
		<tag k="ssr:gruppe" v="kystkontur" />
		<tag k="ssr:hovedgruppe" v="sjø" />
		<tag k="ssr:stedsnr" v="9450" />
		<tag k="ssr:type" v="nesISjø" />
	</node>
	<node lat="61.17511944619813" lon="4.686155552738467" id="-26610">
		<tag k="name" v="Tjørnholmen" />
		<tag k="place" v="islet" />
		<tag k="ssr:date" v="2019-12-27" />
		<tag k="ssr:gruppe" v="kystkontur" />
		<tag k="ssr:hovedgruppe" v="sjø" />
		<tag k="ssr:stedsnr" v="9821" />
		<tag k="ssr:type" v="holmeISjø" />
	</node>
	<node lat="61.1568638868686" lon="4.681150008903433" id="-26611">
		<tag k="name" v="Tverken" />
		<tag k="natural" v="shoal" />
		<tag k="place" v="locality" />
		<tag k="ssr:date" v="2019-12-27" />
		<tag k="ssr:gruppe" v="grunnerISjø" />
		<tag k="ssr:hovedgruppe" v="sjø" />
		<tag k="ssr:stedsnr" v="9846" />
		<tag k="ssr:type" v="grunneISjø" />
	</node>
	<node lat="61.20273611350526" lon="4.7403555578511805" id="-26613">
		<tag k="alt_name" v="Feldeholmane" />
		<tag k="name" v="Felleholmane" />
		<tag k="place" v="islet" />
		<tag k="ssr:date" v="2019-12-27" />
		<tag k="ssr:gruppe" v="kystkontur" />
		<tag k="ssr:hovedgruppe" v="sjø" />
		<tag k="ssr:stedsnr" v="9916" />
		<tag k="ssr:type" v="holmeISjø" />
	</node>
	<node lat="61.02549166806306" lon="4.673588897541181" id="-26614">
		<tag k="name" v="Krokvatnet" />
		<tag k="natural" v="water" />
		<tag k="ssr:date" v="2019-12-27" />
		<tag k="ssr:gruppe" v="stilleståendeVann" />
		<tag k="ssr:hovedgruppe" v="ferskvann" />
		<tag k="ssr:stedsnr" v="9943" />
		<tag k="ssr:type" v="tjern" />
	</node>
	<node lat="61.11266944687956" lon="4.819394451962903" id="-26615">
		<tag k="name" v="Eiavika" />
		<tag k="natural" v="bay" />
		<tag k="ssr:date" v="2019-12-27" />
		<tag k="ssr:gruppe" v="kystkontur" />
		<tag k="ssr:hovedgruppe" v="sjø" />
		<tag k="ssr:stedsnr" v="287021" />
		<tag k="ssr:type" v="vikISjø" />
	</node>
	<node lat="61.143473034822236" lon="4.7666660694741205" id="-26617">
		<tag k="alt_name" v="Avløypeskjeret, l" />
		<tag k="fixme" v="consider seamark:type=rock or natural=shoal" />
		<tag k="name" v="Litle Avløypeskjeret" />
		<tag k="place" v="islet" />
		<tag k="ssr:date" v="2019-12-27" />
		<tag k="ssr:gruppe" v="grunnerISjø" />
		<tag k="ssr:hovedgruppe" v="sjø" />
		<tag k="ssr:stedsnr" v="234246" />
		<tag k="ssr:type" v="skjærISjø" />
	</node>
	<node lat="61.063700003067204" lon="4.819338896211277" id="-26618">
		<tag k="alt_name" v="Samsonholmen" />
		<tag k="name" v="Samsundholmen" />
		<tag k="place" v="islet" />
		<tag k="ssr:date" v="2019-12-27" />
		<tag k="ssr:gruppe" v="kystkontur" />
		<tag k="ssr:hovedgruppe" v="sjø" />
		<tag k="ssr:stedsnr" v="26000" />
		<tag k="ssr:type" v="holmeISjø" />
	</node>
	<node lat="61.11385277373307" lon="4.6716249956987665" id="-26619">
		<tag k="name" v="Tverrflua" />
		<tag k="natural" v="shoal" />
		<tag k="place" v="locality" />
		<tag k="ssr:date" v="2019-12-27" />
		<tag k="ssr:gruppe" v="grunnerISjø" />
		<tag k="ssr:hovedgruppe" v="sjø" />
		<tag k="ssr:stedsnr" v="235870" />
		<tag k="ssr:type" v="grunneISjø" />
	</node>
	<node lat="61.012369449049956" lon="4.682872229815712" id="-26620">
		<tag k="name" v="Steindalstjørna" />
		<tag k="natural" v="water" />
		<tag k="ssr:date" v="2019-12-27" />
		<tag k="ssr:gruppe" v="stilleståendeVann" />
		<tag k="ssr:hovedgruppe" v="ferskvann" />
		<tag k="ssr:stedsnr" v="43001" />
		<tag k="ssr:type" v="tjern" />
	</node>
	<node lat="61.12192777606229" lon="4.814058329261224" id="-26621">
		<tag k="name" v="Hagøyvågen" />
		<tag k="natural" v="strait" />
		<tag k="ssr:date" v="2019-12-27" />
		<tag k="ssr:gruppe" v="kystkontur" />
		<tag k="ssr:hovedgruppe" v="sjø" />
		<tag k="ssr:stedsnr" v="43210" />
		<tag k="ssr:type" v="sundISjø" />
	</node>
	<node lat="61.08667500391017" lon="4.690497217790677" id="-26622">
		<tag k="name" v="Mariholmen" />
		<tag k="place" v="islet" />
		<tag k="ssr:date" v="2019-12-27" />
		<tag k="ssr:gruppe" v="kystkontur" />
		<tag k="ssr:hovedgruppe" v="sjø" />
		<tag k="ssr:stedsnr" v="43212" />
		<tag k="ssr:type" v="holmeISjø" />
	</node>
	<node lat="61.078600001880986" lon="4.678374998931897" id="-26623">
		<tag k="name" v="Oldresundet" />
		<tag k="natural" v="strait" />
		<tag k="ssr:date" v="2021-06-08" />
		<tag k="ssr:gruppe" v="kystkontur" />
		<tag k="ssr:hovedgruppe" v="sjø" />
		<tag k="ssr:stedsnr" v="43189" />
		<tag k="ssr:type" v="sundISjø" />
	</node>
	<node lat="61.13712499654955" lon="4.801691666329922" id="-26624">
		<tag k="fixme" v="consider natural=peak for the most distinct mountains in the district" />
		<tag k="name" v="Ramneskortinden" />
		<tag k="natural" v="hill" />
		<tag k="place" v="locality" />
		<tag k="ssr:date" v="2019-12-27" />
		<tag k="ssr:gruppe" v="høyder" />
		<tag k="ssr:hovedgruppe" v="terreng" />
		<tag k="ssr:stedsnr" v="43196" />
		<tag k="ssr:type" v="ås" />
	</node>
	<node lat="60.98830555844" lon="4.603013879831786" id="-26625">
		<tag k="fixme" v="consider seamark:type=rock or natural=shoal" />
		<tag k="name" v="Stensøyskjeret" />
		<tag k="place" v="islet" />
		<tag k="ssr:date" v="2019-12-27" />
		<tag k="ssr:gruppe" v="grunnerISjø" />
		<tag k="ssr:hovedgruppe" v="sjø" />
		<tag k="ssr:stedsnr" v="43601" />
		<tag k="ssr:type" v="skjærISjø" />
	</node>
	<node lat="61.2141055551364" lon="4.766344447230325" id="-26626">
		<tag k="name" v="Reseneset" />
		<tag k="natural" v="cape" />
		<tag k="ssr:date" v="2019-12-27" />
		<tag k="ssr:gruppe" v="kystkontur" />
		<tag k="ssr:hovedgruppe" v="sjø" />
		<tag k="ssr:stedsnr" v="44004" />
		<tag k="ssr:type" v="nesISjø" />
	</node>
	<node lat="61.21713888632586" lon="4.76268332610105" id="-26627">
		<tag k="name" v="Gulholmen" />
		<tag k="place" v="islet" />
		<tag k="ssr:date" v="2019-12-27" />
		<tag k="ssr:gruppe" v="kystkontur" />
		<tag k="ssr:hovedgruppe" v="sjø" />
		<tag k="ssr:stedsnr" v="44005" />
		<tag k="ssr:type" v="holmeISjø" />
	</node>
	<node lat="61.057366663358174" lon="4.738997217807829" id="-26628">
		<tag k="name" v="Skadmyra" />
		<tag k="natural" v="wetland" />
		<tag k="ssr:date" v="2019-12-27" />
		<tag k="ssr:gruppe" v="våtmark" />
		<tag k="ssr:hovedgruppe" v="markslag" />
		<tag k="ssr:stedsnr" v="44169" />
		<tag k="ssr:type" v="myr" />
	</node>
	<node lat="61.16423611329201" lon="4.857805563505911" id="-26629">
		<tag k="name" v="Gytten" />
		<tag k="natural" v="bay" />
		<tag k="ssr:date" v="2019-12-27" />
		<tag k="ssr:gruppe" v="kystkontur" />
		<tag k="ssr:hovedgruppe" v="sjø" />
		<tag k="ssr:stedsnr" v="44342" />
		<tag k="ssr:type" v="vikISjø" />
	</node>
	<node lat="61.19025832982585" lon="4.958961116198869" id="-26630">
		<tag k="name" v="Furedalen" />
		<tag k="natural" v="valley" />
		<tag k="place" v="locality" />
		<tag k="ssr:date" v="2019-12-27" />
		<tag k="ssr:gruppe" v="senkninger" />
		<tag k="ssr:hovedgruppe" v="terreng" />
		<tag k="ssr:stedsnr" v="44388" />
		<tag k="ssr:type" v="dal" />
	</node>
	<node lat="61.037947223134196" lon="4.50589444157892" id="-26631">
		<tag k="name" v="Skansholmen" />
		<tag k="place" v="islet" />
		<tag k="ssr:date" v="2019-12-27" />
		<tag k="ssr:gruppe" v="kystkontur" />
		<tag k="ssr:hovedgruppe" v="sjø" />
		<tag k="ssr:stedsnr" v="44581" />
		<tag k="ssr:type" v="holmeISjø" />
	</node>
	<node lat="61.07306944007084" lon="4.769341669455769" id="-26632">
		<tag k="name" v="Lasketjørna" />
		<tag k="natural" v="water" />
		<tag k="ssr:date" v="2019-12-27" />
		<tag k="ssr:gruppe" v="stilleståendeVann" />
		<tag k="ssr:hovedgruppe" v="ferskvann" />
		<tag k="ssr:stedsnr" v="44592" />
		<tag k="ssr:type" v="tjern" />
	</node>
	<node lat="61.05968888714378" lon="4.7628638905533744" id="-26633">
		<tag k="name" v="Stolane" />
		<tag k="place" v="islet" />
		<tag k="ssr:date" v="2019-12-27" />
		<tag k="ssr:gruppe" v="ferskvannskontur" />
		<tag k="ssr:hovedgruppe" v="ferskvann" />
		<tag k="ssr:stedsnr" v="44596" />
		<tag k="ssr:type" v="holme" />
	</node>
	<node lat="61.071569447218955" lon="4.782408327168516" id="-26634">
		<tag k="name" v="Krokeløkjene" />
		<tag k="natural" v="wetland" />
		<tag k="ssr:date" v="2019-12-27" />
		<tag k="ssr:gruppe" v="våtmark" />
		<tag k="ssr:hovedgruppe" v="markslag" />
		<tag k="ssr:stedsnr" v="44624" />
		<tag k="ssr:type" v="myr" />
	</node>
	<node lat="61.12178888465061" lon="4.964691664659797" id="-26635">
		<tag k="name" v="Blautemyrane" />
		<tag k="natural" v="wetland" />
		<tag k="ssr:date" v="2019-12-27" />
		<tag k="ssr:gruppe" v="våtmark" />
		<tag k="ssr:hovedgruppe" v="markslag" />
		<tag k="ssr:stedsnr" v="44629" />
		<tag k="ssr:type" v="myr" />
	</node>
	<node lat="61.06611944147056" lon="4.784088880194398" id="-26636">
		<tag k="name" v="Indre Krokevassneset" />
		<tag k="natural" v="cape" />
		<tag k="ssr:date" v="2019-12-27" />
		<tag k="ssr:gruppe" v="ferskvannskontur" />
		<tag k="ssr:hovedgruppe" v="ferskvann" />
		<tag k="ssr:stedsnr" v="44631" />
		<tag k="ssr:type" v="nes" />
	</node>
	<node lat="61.06011110767735" lon="4.854313892233648" id="-26637">
		<tag k="name" v="Verpingsvikvatnet" />
		<tag k="natural" v="water" />
		<tag k="ssr:date" v="2019-12-27" />
		<tag k="ssr:gruppe" v="stilleståendeVann" />
		<tag k="ssr:hovedgruppe" v="ferskvann" />
		<tag k="ssr:stedsnr" v="44677" />
		<tag k="ssr:type" v="vann" />
		<tag k="water" v="lake" />
	</node>
	<node lat="61.08739166619161" lon="4.877447231337184" id="-26638">
		<tag k="name" v="Dyttinga" />
		<tag k="natural" v="hill" />
		<tag k="place" v="locality" />
		<tag k="ssr:date" v="2019-12-27" />
		<tag k="ssr:gruppe" v="høyder" />
		<tag k="ssr:hovedgruppe" v="terreng" />
		<tag k="ssr:stedsnr" v="44829" />
		<tag k="ssr:type" v="haug" />
	</node>
	<node lat="61.172163891803415" lon="4.8663888965221345" id="-26639">
		<tag k="name" v="Heiane" />
		<tag k="natural" v="hill" />
		<tag k="place" v="locality" />
		<tag k="ssr:date" v="2019-12-27" />
		<tag k="ssr:gruppe" v="høyder" />
		<tag k="ssr:hovedgruppe" v="terreng" />
		<tag k="ssr:stedsnr" v="44889" />
		<tag k="ssr:type" v="hei" />
	</node>
	<node lat="61.045319446927344" lon="4.809652770371794" id="-26640">
		<tag k="name" v="Ytre Steinsneset" />
		<tag k="natural" v="cape" />
		<tag k="ssr:date" v="2019-12-27" />
		<tag k="ssr:gruppe" v="kystkontur" />
		<tag k="ssr:hovedgruppe" v="sjø" />
		<tag k="ssr:stedsnr" v="44723" />
		<tag k="ssr:type" v="nesISjø" />
	</node>
	<node lat="61.18169166973965" lon="4.904308337088513" id="-26641">
		<tag k="name" v="Heiane" />
		<tag k="natural" v="hill" />
		<tag k="place" v="locality" />
		<tag k="ssr:date" v="2019-12-27" />
		<tag k="ssr:gruppe" v="høyder" />
		<tag k="ssr:hovedgruppe" v="terreng" />
		<tag k="ssr:stedsnr" v="44910" />
		<tag k="ssr:type" v="hei" />
	</node>
	<node lat="61.09225277698076" lon="4.773511103522522" id="-26642">
		<tag k="name" v="Dyttingehaugane" />
		<tag k="natural" v="hill" />
		<tag k="place" v="locality" />
		<tag k="ssr:date" v="2019-12-27" />
		<tag k="ssr:gruppe" v="høyder" />
		<tag k="ssr:hovedgruppe" v="terreng" />
		<tag k="ssr:stedsnr" v="44972" />
		<tag k="ssr:type" v="haug" />
	</node>
	<node lat="61.19050555686149" lon="4.998077774914895" id="-26643">
		<tag k="name" v="Ytre Blomlia" />
		<tag k="natural" v="slope" />
		<tag k="place" v="locality" />
		<tag k="ssr:date" v="2019-12-27" />
		<tag k="ssr:gruppe" v="skråninger" />
		<tag k="ssr:hovedgruppe" v="terreng" />
		<tag k="ssr:stedsnr" v="45510" />
		<tag k="ssr:type" v="li" />
	</node>
	<node lat="61.1384611154463" lon="5.010900006016427" id="-26644">
		<tag k="name" v="Brendehaugen" />
		<tag k="natural" v="hill" />
		<tag k="place" v="locality" />
		<tag k="ssr:date" v="2019-12-27" />
		<tag k="ssr:gruppe" v="høyder" />
		<tag k="ssr:hovedgruppe" v="terreng" />
		<tag k="ssr:stedsnr" v="45476" />
		<tag k="ssr:type" v="haug" />
	</node>
	<node lat="61.11379444628938" lon="4.942949999863118" id="-26645">
		<tag k="name" v="Smette" />
		<tag k="natural" v="valley" />
		<tag k="place" v="locality" />
		<tag k="ssr:date" v="2019-12-27" />
		<tag k="ssr:gruppe" v="senkninger" />
		<tag k="ssr:hovedgruppe" v="terreng" />
		<tag k="ssr:stedsnr" v="45876" />
		<tag k="ssr:type" v="dal" />
	</node>
	<node lat="61.17471389307514" lon="4.857238884832713" id="-26646">
		<tag k="alt_name" v="Kråkøyflea" />
		<tag k="fixme" v="consider seamark:type=rock or natural=shoal" />
		<tag k="name" v="Flæene" />
		<tag k="place" v="islet" />
		<tag k="ssr:date" v="2019-12-27" />
		<tag k="ssr:gruppe" v="grunnerISjø" />
		<tag k="ssr:hovedgruppe" v="sjø" />
		<tag k="ssr:stedsnr" v="52370" />
		<tag k="ssr:type" v="skjærISjø" />
	</node>
	<node lat="61.06750277823747" lon="4.772875006871879" id="-26647">
		<tag k="alt_name" v="Store Nipa" />
		<tag k="fixme" v="consider natural=peak for the most distinct mountains in the district" />
		<tag k="name" v="Storenipa" />
		<tag k="natural" v="hill" />
		<tag k="place" v="locality" />
		<tag k="ssr:date" v="2019-12-27" />
		<tag k="ssr:gruppe" v="høyder" />
		<tag k="ssr:hovedgruppe" v="terreng" />
		<tag k="ssr:stedsnr" v="52272" />
		<tag k="ssr:type" v="ås" />
	</node>
	<node lat="61.005536112106846" lon="4.736925001967298" id="-26648">
		<tag k="alt_name" v="Mortevågen, l" />
		<tag k="name" v="Litle Mortevågen" />
		<tag k="natural" v="bay" />
		<tag k="ssr:date" v="2019-12-27" />
		<tag k="ssr:gruppe" v="kystkontur" />
		<tag k="ssr:hovedgruppe" v="sjø" />
		<tag k="ssr:stedsnr" v="52415" />
		<tag k="ssr:type" v="vikISjø" />
	</node>
	<node lat="61.140830556523866" lon="4.871430564253642" id="-26649">
		<tag k="fixme" v="consider natural=peak for the most distinct mountains in the district" />
		<tag k="name" v="Storefjellet" />
		<tag k="natural" v="hill" />
		<tag k="place" v="locality" />
		<tag k="ssr:date" v="2019-12-27" />
		<tag k="ssr:gruppe" v="høyder" />
		<tag k="ssr:hovedgruppe" v="terreng" />
		<tag k="ssr:stedsnr" v="68543" />
		<tag k="ssr:type" v="ås" />
	</node>
	<node lat="61.07294722610941" lon="4.731949994950894" id="-26650">
		<tag k="fixme" v="multiple name tags, choose one and add the other to alt_name" />
		<tag k="name" v="Elvaneset;Saueneset" />
		<tag k="natural" v="cape" />
		<tag k="ssr:date" v="2019-12-27" />
		<tag k="ssr:gruppe" v="kystkontur" />
		<tag k="ssr:hovedgruppe" v="sjø" />
		<tag k="ssr:stedsnr" v="69583" />
		<tag k="ssr:type" v="nesISjø" />
	</node>
	<node lat="61.04530277444623" lon="4.699255548269039" id="-26651">
		<tag k="name" v="Pinevatnet" />
		<tag k="natural" v="water" />
		<tag k="ssr:date" v="2019-12-27" />
		<tag k="ssr:gruppe" v="stilleståendeVann" />
		<tag k="ssr:hovedgruppe" v="ferskvann" />
		<tag k="ssr:stedsnr" v="69836" />
		<tag k="ssr:type" v="tjern" />
	</node>
	<node lat="61.20114166875249" lon="4.818936102109544" id="-26652">
		<tag k="alt_name" v="Lauvholmen;Kråkeholmen" />
		<tag k="fixme" v="multiple name tags, choose one and add the other to alt_name" />
		<tag k="name" v="Lauvholmane;Kråkeholmane" />
		<tag k="place" v="islet" />
		<tag k="ssr:date" v="2019-12-27" />
		<tag k="ssr:gruppe" v="kystkontur" />
		<tag k="ssr:hovedgruppe" v="sjø" />
		<tag k="ssr:stedsnr" v="70102" />
		<tag k="ssr:type" v="holmeISjø" />
	</node>
	<node lat="61.195180559315766" lon="4.739058325766853" id="-26653">
		<tag k="alt_name" v="Værtåna" />
		<tag k="name" v="Værøytåna" />
		<tag k="place" v="islet" />
		<tag k="ssr:date" v="2019-12-27" />
		<tag k="ssr:gruppe" v="kystkontur" />
		<tag k="ssr:hovedgruppe" v="sjø" />
		<tag k="ssr:stedsnr" v="70106" />
		<tag k="ssr:type" v="holmeISjø" />
	</node>
	<node lat="61.1072166651536" lon="4.779550005037348" id="-26654">
		<tag k="name" v="Kattholmen" />
		<tag k="place" v="islet" />
		<tag k="ssr:date" v="2019-12-27" />
		<tag k="ssr:gruppe" v="kystkontur" />
		<tag k="ssr:hovedgruppe" v="sjø" />
		<tag k="ssr:stedsnr" v="70112" />
		<tag k="ssr:type" v="holmeISjø" />
	</node>
	<node lat="61.12752499983115" lon="4.974738892122057" id="-26655">
		<tag k="alt_name" v="Klostrevatnet" />
		<tag k="name" v="Kløstrevatnet" />
		<tag k="natural" v="water" />
		<tag k="ssr:date" v="2019-12-27" />
		<tag k="ssr:gruppe" v="stilleståendeVann" />
		<tag k="ssr:hovedgruppe" v="ferskvann" />
		<tag k="ssr:stedsnr" v="70127" />
		<tag k="ssr:type" v="tjern" />
	</node>
	<node lat="61.12767499843122" lon="4.9979722253273415" id="-26656">
		<tag k="fixme" v="consider natural=peak for the most distinct mountains in the district" />
		<tag k="name" v="Bergeheia" />
		<tag k="natural" v="hill" />
		<tag k="place" v="locality" />
		<tag k="ssr:date" v="2019-12-27" />
		<tag k="ssr:gruppe" v="høyder" />
		<tag k="ssr:hovedgruppe" v="terreng" />
		<tag k="ssr:stedsnr" v="70133" />
		<tag k="ssr:type" v="ås" />
	</node>
	<node lat="61.13217222500893" lon="5.050255561834563" id="-26657">
		<tag k="name" v="Losnedalen" />
		<tag k="natural" v="valley" />
		<tag k="place" v="locality" />
		<tag k="ssr:date" v="2019-12-27" />
		<tag k="ssr:gruppe" v="senkninger" />
		<tag k="ssr:hovedgruppe" v="terreng" />
		<tag k="ssr:stedsnr" v="70135" />
		<tag k="ssr:type" v="dal" />
	</node>
	<node lat="61.14381388557169" lon="5.004408326250813" id="-26658">
		<tag k="fixme" v="consider natural=peak for the most distinct mountains in the district" />
		<tag k="name" v="Hamnafjellet" />
		<tag k="natural" v="hill" />
		<tag k="place" v="locality" />
		<tag k="ssr:date" v="2019-12-27" />
		<tag k="ssr:gruppe" v="høyder" />
		<tag k="ssr:hovedgruppe" v="terreng" />
		<tag k="ssr:stedsnr" v="70181" />
		<tag k="ssr:type" v="ås" />
	</node>
	<node lat="61.13460277962749" lon="4.797180552759547" id="-26659">
		<tag k="name" v="Jaktholmen" />
		<tag k="place" v="islet" />
		<tag k="ssr:date" v="2019-12-27" />
		<tag k="ssr:gruppe" v="kystkontur" />
		<tag k="ssr:hovedgruppe" v="sjø" />
		<tag k="ssr:stedsnr" v="70191" />
		<tag k="ssr:type" v="holmeISjø" />
	</node>
	<node lat="61.1503055568609" lon="5.063275007804592" id="-26660">
		<tag k="alt_name" v="Kaldegjelet" />
		<tag k="name" v="Kaldegilet" />
		<tag k="natural" v="valley" />
		<tag k="place" v="locality" />
		<tag k="ssr:date" v="2019-12-27" />
		<tag k="ssr:gruppe" v="senkninger" />
		<tag k="ssr:hovedgruppe" v="terreng" />
		<tag k="ssr:stedsnr" v="70193" />
		<tag k="ssr:type" v="dal" />
	</node>
	<node lat="61.13450000245509" lon="4.722536105502026" id="-26661">
		<tag k="alt_name" v="Gulholmen" />
		<tag k="name" v="Guleholmen" />
		<tag k="place" v="islet" />
		<tag k="ssr:date" v="2019-12-27" />
		<tag k="ssr:gruppe" v="kystkontur" />
		<tag k="ssr:hovedgruppe" v="sjø" />
		<tag k="ssr:stedsnr" v="70194" />
		<tag k="ssr:type" v="holmeISjø" />
	</node>
	<node lat="61.08756388550848" lon="4.955466670074852" id="-26662">
		<tag k="name" v="Kråkevågen" />
		<tag k="natural" v="bay" />
		<tag k="ssr:date" v="2019-12-27" />
		<tag k="ssr:gruppe" v="kystkontur" />
		<tag k="ssr:hovedgruppe" v="sjø" />
		<tag k="ssr:stedsnr" v="70301" />
		<tag k="ssr:type" v="vikISjø" />
	</node>
	<node lat="61.08301388710795" lon="4.881091662267497" id="-26663">
		<tag k="alt_name" v="Kattholmane" />
		<tag k="name" v="Kattholmen" />
		<tag k="place" v="islet" />
		<tag k="ssr:date" v="2019-12-27" />
		<tag k="ssr:gruppe" v="kystkontur" />
		<tag k="ssr:hovedgruppe" v="sjø" />
		<tag k="ssr:stedsnr" v="70306" />
		<tag k="ssr:type" v="holmeISjø" />
	</node>
	<node lat="61.08529166963739" lon="4.749650007285005" id="-26664">
		<tag k="name" v="Dalesundet" />
		<tag k="natural" v="strait" />
		<tag k="ssr:date" v="2019-12-27" />
		<tag k="ssr:gruppe" v="kystkontur" />
		<tag k="ssr:hovedgruppe" v="sjø" />
		<tag k="ssr:stedsnr" v="70315" />
		<tag k="ssr:type" v="sundISjø" />
	</node>
	<node lat="61.09620555974146" lon="4.725374998378295" id="-26665">
		<tag k="name" v="Storeneset" />
		<tag k="natural" v="cape" />
		<tag k="ssr:date" v="2019-12-27" />
		<tag k="ssr:gruppe" v="kystkontur" />
		<tag k="ssr:hovedgruppe" v="sjø" />
		<tag k="ssr:stedsnr" v="70324" />
		<tag k="ssr:type" v="nesISjø" />
	</node>
	<node lat="61.20351389177361" lon="4.963258341236095" id="-26666">
		<tag k="name" v="Kvernhusvatnet" />
		<tag k="natural" v="water" />
		<tag k="ssr:date" v="2019-12-27" />
		<tag k="ssr:gruppe" v="stilleståendeVann" />
		<tag k="ssr:hovedgruppe" v="ferskvann" />
		<tag k="ssr:stedsnr" v="70091" />
		<tag k="ssr:type" v="tjern" />
	</node>
	<node lat="61.15220555692173" lon="4.904283334283593" id="-26667">
		<tag k="name" v="Djupevika" />
		<tag k="natural" v="bay" />
		<tag k="ssr:date" v="2019-12-27" />
		<tag k="ssr:gruppe" v="kystkontur" />
		<tag k="ssr:hovedgruppe" v="sjø" />
		<tag k="ssr:stedsnr" v="70207" />
		<tag k="ssr:type" v="vikISjø" />
	</node>
	<node lat="61.146722224902696" lon="4.8464916621046505" id="-26668">
		<tag k="fixme" v="consider natural=peak for the most distinct mountains in the district" />
		<tag k="name" v="Litlefjellet" />
		<tag k="natural" v="hill" />
		<tag k="place" v="locality" />
		<tag k="ssr:date" v="2019-12-27" />
		<tag k="ssr:gruppe" v="høyder" />
		<tag k="ssr:hovedgruppe" v="terreng" />
		<tag k="ssr:stedsnr" v="70210" />
		<tag k="ssr:type" v="ås" />
	</node>
	<node lat="61.16268889150813" lon="5.059758329585974" id="-26669">
		<tag k="name" v="Fureneset" />
		<tag k="natural" v="cape" />
		<tag k="ssr:date" v="2019-12-27" />
		<tag k="ssr:gruppe" v="kystkontur" />
		<tag k="ssr:hovedgruppe" v="sjø" />
		<tag k="ssr:stedsnr" v="70224" />
		<tag k="ssr:type" v="nesISjø" />
	</node>
	<node lat="61.16262222029357" lon="5.039633331616226" id="-26670">
		<tag k="alt_name" v="Mainova" />
		<tag k="fixme" v="consider natural=peak for the most distinct mountains in the district" />
		<tag k="name" v="Meinova" />
		<tag k="natural" v="hill" />
		<tag k="place" v="locality" />
		<tag k="ssr:date" v="2019-12-27" />
		<tag k="ssr:gruppe" v="høyder" />
		<tag k="ssr:hovedgruppe" v="terreng" />
		<tag k="ssr:stedsnr" v="70225" />
		<tag k="ssr:type" v="ås" />
	</node>
	<node lat="61.06290782847418" lon="4.754817635887146" id="-26671">
		<tag k="alt_name" v="Ravnøy" />
		<tag k="fixme" v="consider place=hamlet" />
		<tag k="name" v="Rånøyna" />
		<tag k="place" v="farm" />
		<tag k="ssr:date" v="2019-12-27" />
		<tag k="ssr:gruppe" v="gardsbebyggelse" />
		<tag k="ssr:hovedgruppe" v="bebyggelse" />
		<tag k="ssr:stedsnr" v="70273" />
		<tag k="ssr:type" v="gard" />
	</node>
	<node lat="61.069577773435874" lon="4.861888892439683" id="-26672">
		<tag k="alt_name" v="Sandvikneset" />
		<tag k="name" v="Sandviksneset" />
		<tag k="natural" v="cape" />
		<tag k="ssr:date" v="2019-12-27" />
		<tag k="ssr:gruppe" v="kystkontur" />
		<tag k="ssr:hovedgruppe" v="sjø" />
		<tag k="ssr:stedsnr" v="70275" />
		<tag k="ssr:type" v="nesISjø" />
	</node>
	<node lat="61.08174444824785" lon="4.92071944194979" id="-26673">
		<tag k="name" v="Knaget" />
		<tag k="natural" v="cape" />
		<tag k="ssr:date" v="2019-12-27" />
		<tag k="ssr:gruppe" v="kystkontur" />
		<tag k="ssr:hovedgruppe" v="sjø" />
		<tag k="ssr:stedsnr" v="70280" />
		<tag k="ssr:type" v="nesISjø" />
	</node>
	<node lat="61.07798888814467" lon="4.7389194537935815" id="-26674">
		<tag k="fixme" v="multiple name tags, choose one and add the other to alt_name" />
		<tag k="name" v="Daløyna;Rånøyna" />
		<tag k="place" v="island" />
		<tag k="ssr:date" v="2019-12-27" />
		<tag k="ssr:gruppe" v="kystkontur" />
		<tag k="ssr:hovedgruppe" v="sjø" />
		<tag k="ssr:stedsnr" v="70282" />
		<tag k="ssr:type" v="øyISjø" />
	</node>
	<node lat="61.02557222605465" lon="4.734769448336313" id="-26675">
		<tag k="name" v="Askedalen" />
		<tag k="natural" v="valley" />
		<tag k="place" v="locality" />
		<tag k="ssr:date" v="2019-12-27" />
		<tag k="ssr:gruppe" v="senkninger" />
		<tag k="ssr:hovedgruppe" v="terreng" />
		<tag k="ssr:stedsnr" v="70429" />
		<tag k="ssr:type" v="dal" />
	</node>
	<node lat="61.03949604881593" lon="4.7418270908146445" id="-26676">
		<tag k="fixme" v="consider seamark:type=rock or natural=shoal" />
		<tag k="loc_name" v="Fængskjær" />
		<tag k="name" v="Fengskjeret" />
		<tag k="place" v="islet" />
		<tag k="ssr:date" v="2019-12-27" />
		<tag k="ssr:gruppe" v="grunnerISjø" />
		<tag k="ssr:hovedgruppe" v="sjø" />
		<tag k="ssr:stedsnr" v="70474" />
		<tag k="ssr:type" v="skjærISjø" />
	</node>
	<node lat="61.1986361084178" lon="4.648794453440725" id="-26677">
		<tag k="alt_name" v="Barsteingrunnen" />
		<tag k="name" v="Bardsteingrunnen" />
		<tag k="natural" v="shoal" />
		<tag k="place" v="locality" />
		<tag k="ssr:date" v="2019-12-27" />
		<tag k="ssr:gruppe" v="grunnerISjø" />
		<tag k="ssr:hovedgruppe" v="sjø" />
		<tag k="ssr:stedsnr" v="70820" />
		<tag k="ssr:type" v="grunneISjø" />
	</node>
	<node lat="61.19678889158196" lon="4.68488332887508" id="-26678">
		<tag k="fixme" v="consider seamark:type=rock or natural=shoal" />
		<tag k="name" v="Stokken" />
		<tag k="place" v="islet" />
		<tag k="ssr:date" v="2019-12-27" />
		<tag k="ssr:gruppe" v="grunnerISjø" />
		<tag k="ssr:hovedgruppe" v="sjø" />
		<tag k="ssr:stedsnr" v="70822" />
		<tag k="ssr:type" v="skjærISjø" />
	</node>
	<node lat="61.218074998034254" lon="4.728947223318511" id="-26679">
		<tag k="name" v="Kvaløyna" />
		<tag k="place" v="islet" />
		<tag k="ssr:date" v="2019-12-27" />
		<tag k="ssr:gruppe" v="kystkontur" />
		<tag k="ssr:hovedgruppe" v="sjø" />
		<tag k="ssr:stedsnr" v="70883" />
		<tag k="ssr:type" v="holmeISjø" />
	</node>
	<node lat="61.21751666764423" lon="4.798883329474351" id="-26680">
		<tag k="alt_name" v="Nordre Drivøyskjera" />
		<tag k="fixme" v="consider seamark:type=rock or natural=shoal" />
		<tag k="name" v="Drivøyskjera" />
		<tag k="place" v="islet" />
		<tag k="ssr:date" v="2019-12-27" />
		<tag k="ssr:gruppe" v="grunnerISjø" />
		<tag k="ssr:hovedgruppe" v="sjø" />
		<tag k="ssr:stedsnr" v="70896" />
		<tag k="ssr:type" v="skjærISjø" />
	</node>
	<node lat="61.051219446106856" lon="4.6970250081632505" id="-26681">
		<tag k="fixme" v="consider natural=peak for the most distinct mountains in the district" />
		<tag k="name" v="Ørnefjellet" />
		<tag k="natural" v="hill" />
		<tag k="place" v="locality" />
		<tag k="ssr:date" v="2019-12-27" />
		<tag k="ssr:gruppe" v="høyder" />
		<tag k="ssr:hovedgruppe" v="terreng" />
		<tag k="ssr:stedsnr" v="70777" />
		<tag k="ssr:type" v="ås" />
	</node>
	<node lat="61.046701419939744" lon="4.653087924665439" id="-26682">
		<tag k="name" v="Benvivatnet" />
		<tag k="natural" v="water" />
		<tag k="ssr:date" v="2019-12-27" />
		<tag k="ssr:gruppe" v="stilleståendeVann" />
		<tag k="ssr:hovedgruppe" v="ferskvann" />
		<tag k="ssr:stedsnr" v="70780" />
		<tag k="ssr:type" v="tjern" />
	</node>
	<node lat="61.21934444223969" lon="4.764144445255143" id="-26683">
		<tag k="name" v="Nordfallholmen" />
		<tag k="place" v="islet" />
		<tag k="ssr:date" v="2019-12-27" />
		<tag k="ssr:gruppe" v="kystkontur" />
		<tag k="ssr:hovedgruppe" v="sjø" />
		<tag k="ssr:stedsnr" v="70905" />
		<tag k="ssr:type" v="holmeISjø" />
	</node>
	<node lat="61.20306111518217" lon="4.794419448425925" id="-26684">
		<tag k="name" v="Kjeringholmen" />
		<tag k="place" v="islet" />
		<tag k="ssr:date" v="2019-12-27" />
		<tag k="ssr:gruppe" v="kystkontur" />
		<tag k="ssr:hovedgruppe" v="sjø" />
		<tag k="ssr:stedsnr" v="70925" />
		<tag k="ssr:type" v="holmeISjø" />
	</node>
	<node lat="61.20725833759103" lon="4.733155557254758" id="-26685">
		<tag k="fixme" v="consider seamark:type=rock or natural=shoal" />
		<tag k="name" v="Bolteskjeret" />
		<tag k="place" v="islet" />
		<tag k="ssr:date" v="2019-12-27" />
		<tag k="ssr:gruppe" v="grunnerISjø" />
		<tag k="ssr:hovedgruppe" v="sjø" />
		<tag k="ssr:stedsnr" v="70927" />
		<tag k="ssr:type" v="skjærISjø" />
	</node>
	<node lat="61.003236111213546" lon="4.611877777960965" id="-26686">
		<tag k="fixme" v="consider seamark:type=rock or natural=shoal" />
		<tag k="name" v="Slåttøyskjeret" />
		<tag k="place" v="islet" />
		<tag k="ssr:date" v="2019-12-27" />
		<tag k="ssr:gruppe" v="grunnerISjø" />
		<tag k="ssr:hovedgruppe" v="sjø" />
		<tag k="ssr:stedsnr" v="70970" />
		<tag k="ssr:type" v="skjærISjø" />
	</node>
	<node lat="61.048566663088614" lon="4.75105556479196" id="-26687">
		<tag k="alt_name" v="Synningeholmen" />
		<tag k="name" v="Syningholmen" />
		<tag k="place" v="islet" />
		<tag k="ssr:date" v="2019-12-27" />
		<tag k="ssr:gruppe" v="kystkontur" />
		<tag k="ssr:hovedgruppe" v="sjø" />
		<tag k="ssr:stedsnr" v="85104" />
		<tag k="ssr:type" v="holmeISjø" />
	</node>
	<node lat="61.04337579092903" lon="4.662353979121752" id="-26688">
		<tag k="name" v="Nordrevågen" />
		<tag k="natural" v="bay" />
		<tag k="ssr:date" v="2021-06-08" />
		<tag k="ssr:gruppe" v="kystkontur" />
		<tag k="ssr:hovedgruppe" v="sjø" />
		<tag k="ssr:stedsnr" v="86185" />
		<tag k="ssr:type" v="vågISjø" />
	</node>
	<node lat="61.00458888999269" lon="4.619675005015054" id="-26689">
		<tag k="name" v="Færøyflua" />
		<tag k="natural" v="shoal" />
		<tag k="place" v="locality" />
		<tag k="ssr:date" v="2019-12-27" />
		<tag k="ssr:gruppe" v="grunnerISjø" />
		<tag k="ssr:hovedgruppe" v="sjø" />
		<tag k="ssr:stedsnr" v="86194" />
		<tag k="ssr:type" v="grunneISjø" />
	</node>
	<node lat="61.10198055186014" lon="4.673249994912407" id="-26690">
		<tag k="name" v="Mågøytåa" />
		<tag k="natural" v="shoal" />
		<tag k="place" v="locality" />
		<tag k="ssr:date" v="2019-12-27" />
		<tag k="ssr:gruppe" v="grunnerISjø" />
		<tag k="ssr:hovedgruppe" v="sjø" />
		<tag k="ssr:stedsnr" v="88611" />
		<tag k="ssr:type" v="grunneISjø" />
	</node>
	<node lat="61.09527777931931" lon="4.754902773940985" id="-26691">
		<tag k="alt_name" v="Høyelsholmen" />
		<tag k="name" v="Fløyelsholmen" />
		<tag k="place" v="islet" />
		<tag k="ssr:date" v="2019-12-27" />
		<tag k="ssr:gruppe" v="kystkontur" />
		<tag k="ssr:hovedgruppe" v="sjø" />
		<tag k="ssr:stedsnr" v="88614" />
		<tag k="ssr:type" v="holmeISjø" />
	</node>
	<node lat="61.05224166761722" lon="4.679750003642341" id="-26692">
		<tag k="fixme" v="consider natural=peak for the most distinct mountains in the district" />
		<tag k="name" v="Marafjellet" />
		<tag k="natural" v="hill" />
		<tag k="place" v="locality" />
		<tag k="ssr:date" v="2019-12-27" />
		<tag k="ssr:gruppe" v="høyder" />
		<tag k="ssr:hovedgruppe" v="terreng" />
		<tag k="ssr:stedsnr" v="88617" />
		<tag k="ssr:type" v="ås" />
	</node>
	<node lat="61.0089972192636" lon="4.684736116941386" id="-26693">
		<tag k="name" v="Bleikemyra" />
		<tag k="natural" v="wetland" />
		<tag k="ssr:date" v="2019-12-27" />
		<tag k="ssr:gruppe" v="våtmark" />
		<tag k="ssr:hovedgruppe" v="markslag" />
		<tag k="ssr:stedsnr" v="104105" />
		<tag k="ssr:type" v="myr" />
	</node>
	<node lat="61.00271990052177" lon="4.66271563091003" id="-26694">
		<tag k="name" v="Husøyvågen" />
		<tag k="natural" v="bay" />
		<tag k="ssr:date" v="2019-12-27" />
		<tag k="ssr:gruppe" v="kystkontur" />
		<tag k="ssr:hovedgruppe" v="sjø" />
		<tag k="ssr:stedsnr" v="104199" />
		<tag k="ssr:type" v="vågISjø" />
	</node>
	<node lat="61.08081944370823" lon="4.685838896608493" id="-26695">
		<tag k="name" v="Ørnehaug" />
		<tag k="natural" v="cape" />
		<tag k="ssr:date" v="2019-12-27" />
		<tag k="ssr:gruppe" v="kystkontur" />
		<tag k="ssr:hovedgruppe" v="sjø" />
		<tag k="ssr:stedsnr" v="104210" />
		<tag k="ssr:type" v="nesISjø" />
	</node>
	<node lat="61.08740277901552" lon="4.69695276983467" id="-26696">
		<tag k="name" v="Notaholmen" />
		<tag k="place" v="islet" />
		<tag k="ssr:date" v="2019-12-27" />
		<tag k="ssr:gruppe" v="kystkontur" />
		<tag k="ssr:hovedgruppe" v="sjø" />
		<tag k="ssr:stedsnr" v="104224" />
		<tag k="ssr:type" v="holmeISjø" />
	</node>
	<node lat="61.20413889291239" lon="4.9067250086847825" id="-26697">
		<tag k="fixme" v="consider natural=peak for the most distinct mountains in the district" />
		<tag k="name" v="Såtenipa" />
		<tag k="natural" v="hill" />
		<tag k="place" v="locality" />
		<tag k="ssr:date" v="2019-12-27" />
		<tag k="ssr:gruppe" v="høyder" />
		<tag k="ssr:hovedgruppe" v="terreng" />
		<tag k="ssr:stedsnr" v="104375" />
		<tag k="ssr:type" v="ås" />
	</node>
	<node lat="61.1906499993433" lon="4.888788894660279" id="-26698">
		<tag k="name" v="Nordre Hamnen" />
		<tag k="natural" v="bay" />
		<tag k="ssr:date" v="2019-12-27" />
		<tag k="ssr:gruppe" v="kystkontur" />
		<tag k="ssr:hovedgruppe" v="sjø" />
		<tag k="ssr:stedsnr" v="104382" />
		<tag k="ssr:type" v="vikISjø" />
	</node>
	<node lat="61.19418610895816" lon="4.90342222859323" id="-26699">
		<tag k="name" v="Skjenebakkheia" />
		<tag k="natural" v="hill" />
		<tag k="place" v="locality" />
		<tag k="ssr:date" v="2019-12-27" />
		<tag k="ssr:gruppe" v="høyder" />
		<tag k="ssr:hovedgruppe" v="terreng" />
		<tag k="ssr:stedsnr" v="104392" />
		<tag k="ssr:type" v="hei" />
	</node>
	<node lat="61.06152499948216" lon="4.769197231104476" id="-26700">
		<tag k="name" v="Indre Vassneset" />
		<tag k="natural" v="cape" />
		<tag k="ssr:date" v="2019-12-27" />
		<tag k="ssr:gruppe" v="ferskvannskontur" />
		<tag k="ssr:hovedgruppe" v="ferskvann" />
		<tag k="ssr:stedsnr" v="104588" />
		<tag k="ssr:type" v="nes" />
	</node>
	<node lat="61.10849721968972" lon="4.834541663930629" id="-26701">
		<tag k="name" v="Rotemyra" />
		<tag k="natural" v="wetland" />
		<tag k="ssr:date" v="2019-12-27" />
		<tag k="ssr:gruppe" v="våtmark" />
		<tag k="ssr:hovedgruppe" v="markslag" />
		<tag k="ssr:stedsnr" v="105007" />
		<tag k="ssr:type" v="myr" />
	</node>
	<node lat="61.15741388982798" lon="5.058105554019696" id="-26702">
		<tag k="name" v="Furenesmyrane" />
		<tag k="natural" v="wetland" />
		<tag k="ssr:date" v="2019-12-27" />
		<tag k="ssr:gruppe" v="våtmark" />
		<tag k="ssr:hovedgruppe" v="markslag" />
		<tag k="ssr:stedsnr" v="105027" />
		<tag k="ssr:type" v="myr" />
	</node>
	<node lat="61.168938890720625" lon="5.008441669745886" id="-26703">
		<tag k="name" v="Slåttedalen" />
		<tag k="natural" v="valley" />
		<tag k="place" v="locality" />
		<tag k="ssr:date" v="2019-12-27" />
		<tag k="ssr:gruppe" v="senkninger" />
		<tag k="ssr:hovedgruppe" v="terreng" />
		<tag k="ssr:stedsnr" v="105224" />
		<tag k="ssr:type" v="dal" />
	</node>
	<node lat="61.090041665988956" lon="4.891141662119298" id="-26704">
		<tag k="name" v="Pollevika" />
		<tag k="natural" v="bay" />
		<tag k="ssr:date" v="2019-12-27" />
		<tag k="ssr:gruppe" v="kystkontur" />
		<tag k="ssr:hovedgruppe" v="sjø" />
		<tag k="ssr:stedsnr" v="105225" />
		<tag k="ssr:type" v="vikISjø" />
	</node>
	<node lat="61.15295000175242" lon="4.836427768549938" id="-26705">
		<tag k="fixme" v="consider natural=peak for the most distinct mountains in the district" />
		<tag k="name" v="Kvamsfjellet" />
		<tag k="natural" v="hill" />
		<tag k="place" v="locality" />
		<tag k="ssr:date" v="2019-12-27" />
		<tag k="ssr:gruppe" v="høyder" />
		<tag k="ssr:hovedgruppe" v="terreng" />
		<tag k="ssr:stedsnr" v="105178" />
		<tag k="ssr:type" v="fjell" />
	</node>
	<node lat="61.153038891995266" lon="4.858341672747964" id="-26706">
		<tag k="name" v="Håmundehaugen" />
		<tag k="natural" v="hill" />
		<tag k="place" v="locality" />
		<tag k="ssr:date" v="2019-12-27" />
		<tag k="ssr:gruppe" v="høyder" />
		<tag k="ssr:hovedgruppe" v="terreng" />
		<tag k="ssr:stedsnr" v="105188" />
		<tag k="ssr:type" v="haug" />
	</node>
	<node lat="60.9984083360919" lon="4.7001111041117944" id="-26707">
		<tag k="name" v="Storevika" />
		<tag k="natural" v="bay" />
		<tag k="ssr:date" v="2019-12-27" />
		<tag k="ssr:gruppe" v="kystkontur" />
		<tag k="ssr:hovedgruppe" v="sjø" />
		<tag k="ssr:stedsnr" v="105189" />
		<tag k="ssr:type" v="vikISjø" />
	</node>
	<node lat="61.20305833742611" lon="4.973919439134534" id="-26708">
		<tag k="fixme" v="consider natural=peak for the most distinct mountains in the district" />
		<tag k="name" v="Dyreskorfjellet" />
		<tag k="natural" v="hill" />
		<tag k="place" v="locality" />
		<tag k="ssr:date" v="2019-12-27" />
		<tag k="ssr:gruppe" v="høyder" />
		<tag k="ssr:hovedgruppe" v="terreng" />
		<tag k="ssr:stedsnr" v="105341" />
		<tag k="ssr:type" v="fjell" />
	</node>
	<node lat="61.12926110838153" lon="4.794802784599842" id="-26709">
		<tag k="fixme" v="consider seamark:type=rock or natural=shoal" />
		<tag k="name" v="Åmeskjeret" />
		<tag k="place" v="islet" />
		<tag k="ssr:date" v="2019-12-27" />
		<tag k="ssr:gruppe" v="grunnerISjø" />
		<tag k="ssr:hovedgruppe" v="sjø" />
		<tag k="ssr:stedsnr" v="105281" />
		<tag k="ssr:type" v="skjærISjø" />
	</node>
	<node lat="61.06357221963079" lon="4.789211115148723" id="-26710">
		<tag k="name" v="Klubbane" />
		<tag k="natural" v="hill" />
		<tag k="place" v="locality" />
		<tag k="ssr:date" v="2019-12-27" />
		<tag k="ssr:gruppe" v="høyder" />
		<tag k="ssr:hovedgruppe" v="terreng" />
		<tag k="ssr:stedsnr" v="105580" />
		<tag k="ssr:type" v="haug" />
	</node>
	<node lat="61.018494443143055" lon="4.5959194421010805" id="-26711">
		<tag k="fixme" v="consider seamark:type=rock or natural=shoal" />
		<tag k="name" v="Kasseskjeret" />
		<tag k="place" v="islet" />
		<tag k="ssr:date" v="2019-12-27" />
		<tag k="ssr:gruppe" v="grunnerISjø" />
		<tag k="ssr:hovedgruppe" v="sjø" />
		<tag k="ssr:stedsnr" v="105734" />
		<tag k="ssr:type" v="skjærISjø" />
	</node>
	<node lat="60.993380558566955" lon="4.596666671954138" id="-26712">
		<tag k="name" v="Krækjebærholmen" />
		<tag k="place" v="islet" />
		<tag k="ssr:date" v="2019-12-27" />
		<tag k="ssr:gruppe" v="kystkontur" />
		<tag k="ssr:hovedgruppe" v="sjø" />
		<tag k="ssr:stedsnr" v="105689" />
		<tag k="ssr:type" v="holmeISjø" />
	</node>
	<node lat="60.99805555239637" lon="4.596580548910367" id="-26713">
		<tag k="fixme" v="consider seamark:type=rock or natural=shoal" />
		<tag k="name" v="Nordre Slåttøy-skjeret" />
		<tag k="place" v="islet" />
		<tag k="ssr:date" v="2019-12-27" />
		<tag k="ssr:gruppe" v="grunnerISjø" />
		<tag k="ssr:hovedgruppe" v="sjø" />
		<tag k="ssr:stedsnr" v="105694" />
		<tag k="ssr:type" v="skjærISjø" />
	</node>
	<node lat="61.05697499978485" lon="4.844044437048326" id="-26714">
		<tag k="name" v="Verehaugane" />
		<tag k="natural" v="hill" />
		<tag k="place" v="locality" />
		<tag k="ssr:date" v="2019-12-27" />
		<tag k="ssr:gruppe" v="høyder" />
		<tag k="ssr:hovedgruppe" v="terreng" />
		<tag k="ssr:stedsnr" v="105695" />
		<tag k="ssr:type" v="haug" />
	</node>
	<node lat="61.096927779930816" lon="4.854622223525679" id="-26715">
		<tag k="name" v="Rustene" />
		<tag k="natural" v="hill" />
		<tag k="place" v="locality" />
		<tag k="ssr:date" v="2019-12-27" />
		<tag k="ssr:gruppe" v="høyder" />
		<tag k="ssr:hovedgruppe" v="terreng" />
		<tag k="ssr:stedsnr" v="105875" />
		<tag k="ssr:type" v="berg" />
	</node>
	<node lat="61.140241662676445" lon="4.895586111837336" id="-26716">
		<tag k="name" v="Åttringsvika" />
		<tag k="natural" v="bay" />
		<tag k="ssr:date" v="2019-12-27" />
		<tag k="ssr:gruppe" v="kystkontur" />
		<tag k="ssr:hovedgruppe" v="sjø" />
		<tag k="ssr:stedsnr" v="105877" />
		<tag k="ssr:type" v="vikISjø" />
	</node>
	<node lat="61.12444166459989" lon="4.894199999574845" id="-26717">
		<tag k="fixme" v="consider natural=peak for the most distinct mountains in the district" />
		<tag k="name" v="Nova" />
		<tag k="natural" v="hill" />
		<tag k="place" v="locality" />
		<tag k="ssr:date" v="2019-12-27" />
		<tag k="ssr:gruppe" v="høyder" />
		<tag k="ssr:hovedgruppe" v="terreng" />
		<tag k="ssr:stedsnr" v="105880" />
		<tag k="ssr:type" v="ås" />
	</node>
	<node lat="61.1715750001992" lon="4.900922228046877" id="-26718">
		<tag k="name" v="Randasete" />
		<tag k="natural" v="hill" />
		<tag k="place" v="locality" />
		<tag k="ssr:date" v="2019-12-27" />
		<tag k="ssr:gruppe" v="høyder" />
		<tag k="ssr:hovedgruppe" v="terreng" />
		<tag k="ssr:stedsnr" v="105912" />
		<tag k="ssr:type" v="haug" />
	</node>
	<node lat="61.1798944403847" lon="4.959413895668994" id="-26719">
		<tag k="name" v="Hamnen" />
		<tag k="natural" v="bay" />
		<tag k="ssr:date" v="2019-12-27" />
		<tag k="ssr:gruppe" v="kystkontur" />
		<tag k="ssr:hovedgruppe" v="sjø" />
		<tag k="ssr:stedsnr" v="105993" />
		<tag k="ssr:type" v="vikISjø" />
	</node>
	<node lat="61.16684999581645" lon="4.972038885122845" id="-26720">
		<tag k="name" v="Heienden" />
		<tag k="natural" v="hill" />
		<tag k="place" v="locality" />
		<tag k="ssr:date" v="2019-12-27" />
		<tag k="ssr:gruppe" v="høyder" />
		<tag k="ssr:hovedgruppe" v="terreng" />
		<tag k="ssr:stedsnr" v="105996" />
		<tag k="ssr:type" v="haug" />
	</node>
	<node lat="61.19074444628011" lon="4.999927769564588" id="-26721">
		<tag k="name" v="Indre Blomlia" />
		<tag k="natural" v="slope" />
		<tag k="place" v="locality" />
		<tag k="ssr:date" v="2019-12-27" />
		<tag k="ssr:gruppe" v="skråninger" />
		<tag k="ssr:hovedgruppe" v="terreng" />
		<tag k="ssr:stedsnr" v="106508" />
		<tag k="ssr:type" v="li" />
	</node>
	<node lat="61.10840833202825" lon="4.904005550584304" id="-26722">
		<tag k="name" v="Hola" />
		<tag k="natural" v="gorge" />
		<tag k="ssr:date" v="2019-12-27" />
		<tag k="ssr:gruppe" v="senkninger" />
		<tag k="ssr:hovedgruppe" v="terreng" />
		<tag k="ssr:stedsnr" v="106979" />
		<tag k="ssr:type" v="juv" />
	</node>
	<node lat="61.01692221812643" lon="4.742066666387199" id="-26723">
		<tag k="amenity" v="ferry_terminal" />
		<tag k="name" v="Nåra ferjekai" />
		<tag k="ssr:date" v="2021-06-08" />
		<tag k="ssr:gruppe" v="sjøfart" />
		<tag k="ssr:hovedgruppe" v="infrastruktur" />
		<tag k="ssr:stedsnr" v="107421" />
		<tag k="ssr:type" v="ferjekai" />
	</node>
	<node lat="61.08254166307942" lon="4.699127770860577" id="-26724">
		<tag k="bridge" v="yes" />
		<tag k="layer" v="1" />
		<tag k="name" v="Lundestraumen" />
		<tag k="ssr:date" v="2019-12-27" />
		<tag k="ssr:gruppe" v="samferdselsanlegg" />
		<tag k="ssr:hovedgruppe" v="infrastruktur" />
		<tag k="ssr:stedsnr" v="107422" />
		<tag k="ssr:type" v="bru" />
	</node>
	<node lat="60.99856111187936" lon="4.6050611082089885" id="-26725">
		<tag k="fixme" v="consider seamark:type=rock or natural=shoal" />
		<tag k="name" v="Vesøyskjeret" />
		<tag k="place" v="islet" />
		<tag k="ssr:date" v="2019-12-27" />
		<tag k="ssr:gruppe" v="grunnerISjø" />
		<tag k="ssr:hovedgruppe" v="sjø" />
		<tag k="ssr:stedsnr" v="249649" />
		<tag k="ssr:type" v="skjærISjø" />
	</node>
	<node lat="60.99533655297666" lon="4.706510423986609" id="-26726">
		<tag k="fixme" v="consider place=hamlet" />
		<tag k="name" v="Kverhella" />
		<tag k="place" v="farm" />
		<tag k="ssr:date" v="2019-12-27" />
		<tag k="ssr:gruppe" v="gardsbebyggelse" />
		<tag k="ssr:hovedgruppe" v="bebyggelse" />
		<tag k="ssr:stedsnr" v="249651" />
		<tag k="ssr:type" v="gard" />
	</node>
	<node lat="60.98790000378498" lon="4.683500001914399" id="-26727">
		<tag k="alt_name" v="Osletta, store;Osletta" />
		<tag k="name" v="Store Osletta" />
		<tag k="place" v="islet" />
		<tag k="ssr:date" v="2019-12-27" />
		<tag k="ssr:gruppe" v="kystkontur" />
		<tag k="ssr:hovedgruppe" v="sjø" />
		<tag k="ssr:stedsnr" v="249660" />
		<tag k="ssr:type" v="holmeISjø" />
	</node>
	<node lat="61.14901944915698" lon="5.006855562805048" id="-26728">
		<tag k="name" v="Furedalen" />
		<tag k="natural" v="valley" />
		<tag k="place" v="locality" />
		<tag k="ssr:date" v="2019-12-27" />
		<tag k="ssr:gruppe" v="senkninger" />
		<tag k="ssr:hovedgruppe" v="terreng" />
		<tag k="ssr:stedsnr" v="250518" />
		<tag k="ssr:type" v="dal" />
	</node>
	<node lat="61.11457499838765" lon="4.953477771524503" id="-26729">
		<tag k="name" v="Sula" />
		<tag k="place" v="island" />
		<tag k="ssr:date" v="2019-12-27" />
		<tag k="ssr:gruppe" v="kystkontur" />
		<tag k="ssr:hovedgruppe" v="sjø" />
		<tag k="ssr:stedsnr" v="250530" />
		<tag k="ssr:type" v="øyISjø" />
	</node>
	<node lat="61.088502330448726" lon="4.88142255051459" id="-26730">
		<tag k="fixme" v="consider place=hamlet" />
		<tag k="name" v="Pollen" />
		<tag k="place" v="farm" />
		<tag k="ssr:date" v="2019-12-27" />
		<tag k="ssr:gruppe" v="gardsbebyggelse" />
		<tag k="ssr:hovedgruppe" v="bebyggelse" />
		<tag k="ssr:stedsnr" v="250532" />
		<tag k="ssr:type" v="gard" />
	</node>
	<node lat="60.970730553124895" lon="4.572402785297819" id="-26731">
		<tag k="alt_name" v="Små - engelskjeret" />
		<tag k="fixme" v="consider seamark:type=rock or natural=shoal" />
		<tag k="name" v="Småengelsskjeret" />
		<tag k="place" v="islet" />
		<tag k="ssr:date" v="2019-12-27" />
		<tag k="ssr:gruppe" v="grunnerISjø" />
		<tag k="ssr:hovedgruppe" v="sjø" />
		<tag k="ssr:stedsnr" v="250663" />
		<tag k="ssr:type" v="skjærISjø" />
	</node>
	<node lat="60.941955557184414" lon="4.593763897281896" id="-26732">
		<tag k="name" v="Breiflua" />
		<tag k="natural" v="shoal" />
		<tag k="place" v="locality" />
		<tag k="ssr:date" v="2019-12-27" />
		<tag k="ssr:gruppe" v="grunnerISjø" />
		<tag k="ssr:hovedgruppe" v="sjø" />
		<tag k="ssr:stedsnr" v="250666" />
		<tag k="ssr:type" v="grunneISjø" />
	</node>
	<node lat="61.03317259273681" lon="4.688647855473144" id="-26733">
		<tag k="alt_name" v="Sula, yt;Sula, ytre" />
		<tag k="name" v="Ytre Sula" />
		<tag k="place" v="island" />
		<tag k="ssr:date" v="2019-12-27" />
		<tag k="ssr:gruppe" v="kystkontur" />
		<tag k="ssr:hovedgruppe" v="sjø" />
		<tag k="ssr:stedsnr" v="250679" />
		<tag k="ssr:type" v="øyISjø" />
	</node>
	<node lat="61.16577222197299" lon="4.865002776692168" id="-26734">
		<tag k="alt_name" v="Indre Hola" />
		<tag k="name" v="Indre Holene" />
		<tag k="natural" v="bay" />
		<tag k="ssr:date" v="2019-12-27" />
		<tag k="ssr:gruppe" v="kystkontur" />
		<tag k="ssr:hovedgruppe" v="sjø" />
		<tag k="ssr:stedsnr" v="251040" />
		<tag k="ssr:type" v="vikISjø" />
	</node>
	<node lat="61.17133611032857" lon="4.990700009088741" id="-26735">
		<tag k="name" v="Grønevikvatnet" />
		<tag k="natural" v="water" />
		<tag k="ssr:date" v="2019-12-27" />
		<tag k="ssr:gruppe" v="stilleståendeVann" />
		<tag k="ssr:hovedgruppe" v="ferskvann" />
		<tag k="ssr:stedsnr" v="251016" />
		<tag k="ssr:type" v="tjern" />
	</node>
	<node lat="61.17125833309142" lon="5.001433325464042" id="-26736">
		<tag k="alt_name" v="Storvik" />
		<tag k="name" v="Storevika" />
		<tag k="place" v="farm" />
		<tag k="ssr:date" v="2019-12-27" />
		<tag k="ssr:gruppe" v="gardsbebyggelse" />
		<tag k="ssr:hovedgruppe" v="bebyggelse" />
		<tag k="ssr:stedsnr" v="251018" />
		<tag k="ssr:type" v="bruk" />
	</node>
	<node lat="61.15226389312485" lon="4.778566674150073" id="-26737">
		<tag k="name" v="Lågøyholmane" />
		<tag k="place" v="islet" />
		<tag k="ssr:date" v="2021-06-08" />
		<tag k="ssr:gruppe" v="kystkontur" />
		<tag k="ssr:hovedgruppe" v="sjø" />
		<tag k="ssr:stedsnr" v="251020" />
		<tag k="ssr:type" v="holmeISjø" />
	</node>
	<node lat="61.16248888678463" lon="4.832155562652482" id="-26738">
		<tag k="name" v="Hestvika" />
		<tag k="natural" v="bay" />
		<tag k="ssr:date" v="2019-12-27" />
		<tag k="ssr:gruppe" v="kystkontur" />
		<tag k="ssr:hovedgruppe" v="sjø" />
		<tag k="ssr:stedsnr" v="251034" />
		<tag k="ssr:type" v="vikISjø" />
	</node>
	<node lat="61.19822777326879" lon="4.817683330265806" id="-26739">
		<tag k="name" v="Brattholmen" />
		<tag k="place" v="islet" />
		<tag k="ssr:date" v="2019-12-27" />
		<tag k="ssr:gruppe" v="kystkontur" />
		<tag k="ssr:hovedgruppe" v="sjø" />
		<tag k="ssr:stedsnr" v="251129" />
		<tag k="ssr:type" v="holmeISjø" />
	</node>
	<node lat="61.12564722133398" lon="4.772941664227165" id="-26740">
		<tag k="name" v="Brendeholmen" />
		<tag k="place" v="islet" />
		<tag k="ssr:date" v="2019-12-27" />
		<tag k="ssr:gruppe" v="kystkontur" />
		<tag k="ssr:hovedgruppe" v="sjø" />
		<tag k="ssr:stedsnr" v="251177" />
		<tag k="ssr:type" v="holmeISjø" />
	</node>
	<node lat="61.148016664042395" lon="5.02440833453649" id="-26741">
		<tag k="alt_name" v="Laskeneset" />
		<tag k="name" v="Gåseneset" />
		<tag k="natural" v="cape" />
		<tag k="ssr:date" v="2019-12-27" />
		<tag k="ssr:gruppe" v="kystkontur" />
		<tag k="ssr:hovedgruppe" v="sjø" />
		<tag k="ssr:stedsnr" v="251219" />
		<tag k="ssr:type" v="nesISjø" />
	</node>
	<node lat="61.02683333456602" lon="4.5920999957971835" id="-26742">
		<tag k="alt_name" v="Sandskjeret;Søre Sandskjeret" />
		<tag k="fixme" v="consider seamark:type=rock or natural=shoal" />
		<tag k="name" v="Sandskjera" />
		<tag k="place" v="islet" />
		<tag k="ssr:date" v="2019-12-27" />
		<tag k="ssr:gruppe" v="grunnerISjø" />
		<tag k="ssr:hovedgruppe" v="sjø" />
		<tag k="ssr:stedsnr" v="251834" />
		<tag k="ssr:type" v="skjærISjø" />
	</node>
	<node lat="61.0324305537" lon="4.705247220505289" id="-26743">
		<tag k="fixme" v="multiple name tags, choose one and add the other to alt_name" />
		<tag k="name" v="Djupvikvatnet;Grastjørna" />
		<tag k="natural" v="water" />
		<tag k="ssr:date" v="2019-12-27" />
		<tag k="ssr:gruppe" v="stilleståendeVann" />
		<tag k="ssr:hovedgruppe" v="ferskvann" />
		<tag k="ssr:stedsnr" v="251827" />
		<tag k="ssr:type" v="tjern" />
	</node>
	<node lat="61.04666944198627" lon="4.7093805506457365" id="-26744">
		<tag k="alt_name" v="Juvågen" />
		<tag k="name" v="Djupvågen" />
		<tag k="natural" v="bay" />
		<tag k="ssr:date" v="2019-12-27" />
		<tag k="ssr:gruppe" v="kystkontur" />
		<tag k="ssr:hovedgruppe" v="sjø" />
		<tag k="ssr:stedsnr" v="251845" />
		<tag k="ssr:type" v="vikISjø" />
	</node>
	<node lat="61.21935555853288" lon="4.717400000158333" id="-26745">
		<tag k="alt_name" v="Søre Sædingskjeret;Nordre Sædingskjeret;Sæingsskjera" />
		<tag k="fixme" v="consider seamark:type=rock or natural=shoal" />
		<tag k="name" v="Sædingsskjera" />
		<tag k="place" v="islet" />
		<tag k="ssr:date" v="2019-12-27" />
		<tag k="ssr:gruppe" v="grunnerISjø" />
		<tag k="ssr:hovedgruppe" v="sjø" />
		<tag k="ssr:stedsnr" v="251875" />
		<tag k="ssr:type" v="skjærISjø" />
	</node>
	<node lat="61.21531388861533" lon="4.7285749961216155" id="-26746">
		<tag k="fixme" v="multiple name tags, choose one and add the other to alt_name" />
		<tag k="name" v="Kvalholmen;Nordre Svarteskjeret" />
		<tag k="place" v="islet" />
		<tag k="ssr:date" v="2019-12-27" />
		<tag k="ssr:gruppe" v="kystkontur" />
		<tag k="ssr:hovedgruppe" v="sjø" />
		<tag k="ssr:stedsnr" v="251923" />
		<tag k="ssr:type" v="holmeISjø" />
	</node>
	<node lat="60.975124997455005" lon="4.5889444378526" id="-26747">
		<tag k="name" v="Breidflua" />
		<tag k="natural" v="shoal" />
		<tag k="place" v="locality" />
		<tag k="ssr:date" v="2019-12-27" />
		<tag k="ssr:gruppe" v="grunnerISjø" />
		<tag k="ssr:hovedgruppe" v="sjø" />
		<tag k="ssr:stedsnr" v="251987" />
		<tag k="ssr:type" v="grunneISjø" />
	</node>
	<node lat="61.156811114631715" lon="4.918386107796768" id="-26748">
		<tag k="name" v="Krakneset" />
		<tag k="natural" v="cape" />
		<tag k="ssr:date" v="2019-12-27" />
		<tag k="ssr:gruppe" v="ferskvannskontur" />
		<tag k="ssr:hovedgruppe" v="ferskvann" />
		<tag k="ssr:stedsnr" v="252006" />
		<tag k="ssr:type" v="nes" />
	</node>
	<node lat="61.15951944598358" lon="4.832380553367087" id="-26749">
		<tag k="name" v="Vetrahaugen" />
		<tag k="natural" v="hill" />
		<tag k="place" v="locality" />
		<tag k="ssr:date" v="2019-12-27" />
		<tag k="ssr:gruppe" v="høyder" />
		<tag k="ssr:hovedgruppe" v="terreng" />
		<tag k="ssr:stedsnr" v="252013" />
		<tag k="ssr:type" v="haug" />
	</node>
	<node lat="61.1924833334802" lon="4.8284861099067395" id="-26750">
		<tag k="fixme" v="consider seamark:type=rock or natural=shoal" />
		<tag k="name" v="Ragnhildskjera" />
		<tag k="place" v="islet" />
		<tag k="ssr:date" v="2019-12-27" />
		<tag k="ssr:gruppe" v="grunnerISjø" />
		<tag k="ssr:hovedgruppe" v="sjø" />
		<tag k="ssr:stedsnr" v="252090" />
		<tag k="ssr:type" v="skjærISjø" />
	</node>
	<node lat="61.19556944681012" lon="4.767211103923313" id="-26751">
		<tag k="name" v="Steinsøyna" />
		<tag k="place" v="islet" />
		<tag k="ssr:date" v="2019-12-27" />
		<tag k="ssr:gruppe" v="kystkontur" />
		<tag k="ssr:hovedgruppe" v="sjø" />
		<tag k="ssr:stedsnr" v="252091" />
		<tag k="ssr:type" v="holmeISjø" />
	</node>
	<node lat="61.194463892578476" lon="4.780736117241318" id="-26752">
		<tag k="fixme" v="consider seamark:type=rock or natural=shoal" />
		<tag k="name" v="Kvernhusskjera" />
		<tag k="place" v="islet" />
		<tag k="ssr:date" v="2019-12-27" />
		<tag k="ssr:gruppe" v="grunnerISjø" />
		<tag k="ssr:hovedgruppe" v="sjø" />
		<tag k="ssr:stedsnr" v="252092" />
		<tag k="ssr:type" v="skjærISjø" />
	</node>
	<node lat="61.207380556449294" lon="4.928863883172912" id="-26753">
		<tag k="name" v="Bjørnholmen" />
		<tag k="place" v="islet" />
		<tag k="ssr:date" v="2019-12-27" />
		<tag k="ssr:gruppe" v="kystkontur" />
		<tag k="ssr:hovedgruppe" v="sjø" />
		<tag k="ssr:stedsnr" v="252095" />
		<tag k="ssr:type" v="holmeISjø" />
	</node>
	<node lat="61.175377776218824" lon="4.978161104857919" id="-26754">
		<tag k="alt_name" v="Elvheim" />
		<tag k="name" v="Elva" />
		<tag k="place" v="farm" />
		<tag k="ssr:date" v="2019-12-27" />
		<tag k="ssr:gruppe" v="gardsbebyggelse" />
		<tag k="ssr:hovedgruppe" v="bebyggelse" />
		<tag k="ssr:stedsnr" v="252036" />
		<tag k="ssr:type" v="bruk" />
	</node>
	<node lat="61.17577500472424" lon="4.996038895765666" id="-26755">
		<tag k="name" v="Mjeltevika" />
		<tag k="natural" v="bay" />
		<tag k="ssr:date" v="2019-12-27" />
		<tag k="ssr:gruppe" v="kystkontur" />
		<tag k="ssr:hovedgruppe" v="sjø" />
		<tag k="ssr:stedsnr" v="252040" />
		<tag k="ssr:type" v="vikISjø" />
	</node>
	<node lat="61.179872218106574" lon="4.993599991373624" id="-26756">
		<tag k="fixme" v="consider natural=peak for the most distinct mountains in the district" />
		<tag k="name" v="Skopefjellet" />
		<tag k="natural" v="hill" />
		<tag k="place" v="locality" />
		<tag k="ssr:date" v="2019-12-27" />
		<tag k="ssr:gruppe" v="høyder" />
		<tag k="ssr:hovedgruppe" v="terreng" />
		<tag k="ssr:stedsnr" v="252042" />
		<tag k="ssr:type" v="ås" />
	</node>
	<node lat="61.178350002478695" lon="4.945777783401904" id="-26757">
		<tag k="name" v="Ruskeneset" />
		<tag k="natural" v="cape" />
		<tag k="ssr:date" v="2019-12-27" />
		<tag k="ssr:gruppe" v="kystkontur" />
		<tag k="ssr:hovedgruppe" v="sjø" />
		<tag k="ssr:stedsnr" v="252052" />
		<tag k="ssr:type" v="nesISjø" />
	</node>
	<node lat="61.188122218640885" lon="4.946755548959604" id="-26758">
		<tag k="name" v="Nordheim" />
		<tag k="place" v="farm" />
		<tag k="ssr:date" v="2019-12-27" />
		<tag k="ssr:gruppe" v="gardsbebyggelse" />
		<tag k="ssr:hovedgruppe" v="bebyggelse" />
		<tag k="ssr:stedsnr" v="252065" />
		<tag k="ssr:type" v="bruk" />
	</node>
	<node lat="61.179941666986714" lon="4.85446667335815" id="-26759">
		<tag k="name" v="Kråkøyklubben" />
		<tag k="natural" v="cape" />
		<tag k="ssr:date" v="2019-12-27" />
		<tag k="ssr:gruppe" v="kystkontur" />
		<tag k="ssr:hovedgruppe" v="sjø" />
		<tag k="ssr:stedsnr" v="252072" />
		<tag k="ssr:type" v="nesISjø" />
	</node>
	<node lat="61.17160833613309" lon="4.776091660388805" id="-26760">
		<tag k="bay" v="fjord" />
		<tag k="name" v="Lågøyfjorden" />
		<tag k="natural" v="bay" />
		<tag k="ssr:date" v="2021-06-08" />
		<tag k="ssr:gruppe" v="farvann" />
		<tag k="ssr:hovedgruppe" v="sjø" />
		<tag k="ssr:stedsnr" v="252076" />
		<tag k="ssr:type" v="fjord" />
	</node>
	<node lat="61.1975055559526" lon="4.996722213521979" id="-26761">
		<tag k="alt_name" v="Kraksnova" />
		<tag k="fixme" v="consider natural=peak for the most distinct mountains in the district" />
		<tag k="name" v="Krakksnova" />
		<tag k="natural" v="hill" />
		<tag k="place" v="locality" />
		<tag k="ssr:date" v="2019-12-27" />
		<tag k="ssr:gruppe" v="høyder" />
		<tag k="ssr:hovedgruppe" v="terreng" />
		<tag k="ssr:stedsnr" v="252078" />
		<tag k="ssr:type" v="ås" />
	</node>
	<node lat="61.12178950785465" lon="4.912742182031396" id="-26762">
		<tag k="name" v="Hagen" />
		<tag k="place" v="farm" />
		<tag k="ssr:date" v="2019-12-27" />
		<tag k="ssr:gruppe" v="gardsbebyggelse" />
		<tag k="ssr:hovedgruppe" v="bebyggelse" />
		<tag k="ssr:stedsnr" v="252107" />
		<tag k="ssr:type" v="bruk" />
	</node>
	<node lat="61.12327500123463" lon="4.99143056403467" id="-26763">
		<tag k="fixme" v="consider natural=peak for the most distinct mountains in the district" />
		<tag k="name" v="Medfjellet" />
		<tag k="natural" v="hill" />
		<tag k="place" v="locality" />
		<tag k="ssr:date" v="2019-12-27" />
		<tag k="ssr:gruppe" v="høyder" />
		<tag k="ssr:hovedgruppe" v="terreng" />
		<tag k="ssr:stedsnr" v="252115" />
		<tag k="ssr:type" v="ås" />
	</node>
	<node lat="61.12974722320103" lon="4.969361108228828" id="-26764">
		<tag k="alt_name" v="Hellersvatnet" />
		<tag k="name" v="Hellevatnet" />
		<tag k="natural" v="water" />
		<tag k="ssr:date" v="2019-12-27" />
		<tag k="ssr:gruppe" v="stilleståendeVann" />
		<tag k="ssr:hovedgruppe" v="ferskvann" />
		<tag k="ssr:stedsnr" v="252124" />
		<tag k="ssr:type" v="tjern" />
	</node>
	<node lat="61.13411944736992" lon="5.008588882855071" id="-26765">
		<tag k="fixme" v="consider natural=peak for the most distinct mountains in the district" />
		<tag k="name" v="Husefjellet" />
		<tag k="natural" v="hill" />
		<tag k="place" v="locality" />
		<tag k="ssr:date" v="2019-12-27" />
		<tag k="ssr:gruppe" v="høyder" />
		<tag k="ssr:hovedgruppe" v="terreng" />
		<tag k="ssr:stedsnr" v="252126" />
		<tag k="ssr:type" v="ås" />
	</node>
	<node lat="61.13697777957052" lon="4.914719444844496" id="-26766">
		<tag k="name" v="Hagelva" />
		<tag k="place" v="farm" />
		<tag k="ssr:date" v="2019-12-27" />
		<tag k="ssr:gruppe" v="gardsbebyggelse" />
		<tag k="ssr:hovedgruppe" v="bebyggelse" />
		<tag k="ssr:stedsnr" v="252184" />
		<tag k="ssr:type" v="bruk" />
	</node>
	<node lat="61.133893802178946" lon="4.782682378994991" id="-26767">
		<tag k="name" v="Lågøyna" />
		<tag k="place" v="island" />
		<tag k="ssr:date" v="2021-06-08" />
		<tag k="ssr:gruppe" v="kystkontur" />
		<tag k="ssr:hovedgruppe" v="sjø" />
		<tag k="ssr:stedsnr" v="252186" />
		<tag k="ssr:type" v="øyISjø" />
	</node>
	<node lat="61.13456111347248" lon="4.806261119362548" id="-26768">
		<tag k="fixme" v="consider natural=peak for the most distinct mountains in the district" />
		<tag k="name" v="Hågøytinden" />
		<tag k="natural" v="hill" />
		<tag k="place" v="locality" />
		<tag k="ssr:date" v="2019-12-27" />
		<tag k="ssr:gruppe" v="høyder" />
		<tag k="ssr:hovedgruppe" v="terreng" />
		<tag k="ssr:stedsnr" v="252187" />
		<tag k="ssr:type" v="ås" />
	</node>
	<node lat="61.15181389152728" lon="4.909750003449817" id="-26769">
		<tag k="fixme" v="consider natural=peak for the most distinct mountains in the district" />
		<tag k="name" v="Djupevikfjellet" />
		<tag k="natural" v="hill" />
		<tag k="place" v="locality" />
		<tag k="ssr:date" v="2019-12-27" />
		<tag k="ssr:gruppe" v="høyder" />
		<tag k="ssr:hovedgruppe" v="terreng" />
		<tag k="ssr:stedsnr" v="252188" />
		<tag k="ssr:type" v="ås" />
	</node>
	<node lat="61.14746111448507" lon="4.895730557769947" id="-26770">
		<tag k="name" v="Vauleholmen" />
		<tag k="place" v="islet" />
		<tag k="ssr:date" v="2019-12-27" />
		<tag k="ssr:gruppe" v="kystkontur" />
		<tag k="ssr:hovedgruppe" v="sjø" />
		<tag k="ssr:stedsnr" v="252191" />
		<tag k="ssr:type" v="holmeISjø" />
	</node>
	<node lat="61.139588891243854" lon="4.96566944715713" id="-26771">
		<tag k="fixme" v="consider natural=peak for the most distinct mountains in the district" />
		<tag k="name" v="Gaddefjellet" />
		<tag k="natural" v="hill" />
		<tag k="place" v="locality" />
		<tag k="ssr:date" v="2019-12-27" />
		<tag k="ssr:gruppe" v="høyder" />
		<tag k="ssr:hovedgruppe" v="terreng" />
		<tag k="ssr:stedsnr" v="252154" />
		<tag k="ssr:type" v="ås" />
	</node>
	<node lat="61.14046665039788" lon="4.784459077655675" id="-26772">
		<tag k="alt_name" v="Lågøyvågen" />
		<tag k="name" v="Lågøyhamn" />
		<tag k="natural" v="bay" />
		<tag k="ssr:date" v="2021-06-08" />
		<tag k="ssr:gruppe" v="kystkontur" />
		<tag k="ssr:hovedgruppe" v="sjø" />
		<tag k="ssr:stedsnr" v="252175" />
		<tag k="ssr:type" v="vågISjø" />
	</node>
	<node lat="61.13374722415377" lon="4.761127773394552" id="-26773">
		<tag k="name" v="Ekholmen" />
		<tag k="place" v="islet" />
		<tag k="ssr:date" v="2019-12-27" />
		<tag k="ssr:gruppe" v="kystkontur" />
		<tag k="ssr:hovedgruppe" v="sjø" />
		<tag k="ssr:stedsnr" v="252177" />
		<tag k="ssr:type" v="holmeISjø" />
	</node>
	<node lat="61.1365916645221" lon="4.770750003762557" id="-26774">
		<tag k="name" v="Sandholmen" />
		<tag k="place" v="islet" />
		<tag k="ssr:date" v="2019-12-27" />
		<tag k="ssr:gruppe" v="kystkontur" />
		<tag k="ssr:hovedgruppe" v="sjø" />
		<tag k="ssr:stedsnr" v="252178" />
		<tag k="ssr:type" v="holmeISjø" />
	</node>
	<node lat="61.157002780059024" lon="4.967536112349307" id="-26775">
		<tag k="alt_name" v="Nordre Engevikvatnet" />
		<tag k="name" v="Engevikvatnet" />
		<tag k="natural" v="water" />
		<tag k="ssr:date" v="2019-12-27" />
		<tag k="ssr:gruppe" v="stilleståendeVann" />
		<tag k="ssr:hovedgruppe" v="ferskvann" />
		<tag k="ssr:stedsnr" v="252211" />
		<tag k="ssr:type" v="tjern" />
	</node>
	<node lat="61.14293055877839" lon="4.798694440903773" id="-26776">
		<tag k="name" v="Hågøyneset" />
		<tag k="natural" v="cape" />
		<tag k="ssr:date" v="2019-12-27" />
		<tag k="ssr:gruppe" v="kystkontur" />
		<tag k="ssr:hovedgruppe" v="sjø" />
		<tag k="ssr:stedsnr" v="252228" />
		<tag k="ssr:type" v="nesISjø" />
	</node>
	<node lat="61.141974996612554" lon="4.778083342260017" id="-26777">
		<tag k="alt_name" v="Stolane" />
		<tag k="name" v="Lågøystolane" />
		<tag k="natural" v="cape" />
		<tag k="ssr:date" v="2019-12-27" />
		<tag k="ssr:gruppe" v="kystkontur" />
		<tag k="ssr:hovedgruppe" v="sjø" />
		<tag k="ssr:stedsnr" v="252229" />
		<tag k="ssr:type" v="nesISjø" />
	</node>
	<node lat="61.06631666687184" lon="4.7204666672482185" id="-26778">
		<tag k="name" v="Brattholmen" />
		<tag k="place" v="islet" />
		<tag k="ssr:date" v="2019-12-27" />
		<tag k="ssr:gruppe" v="kystkontur" />
		<tag k="ssr:hovedgruppe" v="sjø" />
		<tag k="ssr:stedsnr" v="252285" />
		<tag k="ssr:type" v="holmeISjø" />
	</node>
	<node lat="61.059044446354356" lon="4.938852772604272" id="-26779">
		<tag k="name" v="Martevika" />
		<tag k="natural" v="bay" />
		<tag k="ssr:date" v="2019-12-27" />
		<tag k="ssr:gruppe" v="kystkontur" />
		<tag k="ssr:hovedgruppe" v="sjø" />
		<tag k="ssr:stedsnr" v="252244" />
		<tag k="ssr:type" v="vikISjø" />
	</node>
	<node lat="61.05665555252379" lon="4.936505556478901" id="-26780">
		<tag k="name" v="Buskeneset" />
		<tag k="natural" v="cape" />
		<tag k="ssr:date" v="2019-12-27" />
		<tag k="ssr:gruppe" v="kystkontur" />
		<tag k="ssr:hovedgruppe" v="sjø" />
		<tag k="ssr:stedsnr" v="252248" />
		<tag k="ssr:type" v="nesISjø" />
	</node>
	<node lat="61.0627277756455" lon="4.882763889475574" id="-26781">
		<tag k="name" v="Nesøyna" />
		<tag k="place" v="island" />
		<tag k="ssr:date" v="2019-12-27" />
		<tag k="ssr:gruppe" v="kystkontur" />
		<tag k="ssr:hovedgruppe" v="sjø" />
		<tag k="ssr:stedsnr" v="252257" />
		<tag k="ssr:type" v="øyISjø" />
	</node>
	<node lat="61.074586108475216" lon="4.7545583340078545" id="-26782">
		<tag k="name" v="Langholmen" />
		<tag k="place" v="islet" />
		<tag k="ssr:date" v="2019-12-27" />
		<tag k="ssr:gruppe" v="kystkontur" />
		<tag k="ssr:hovedgruppe" v="sjø" />
		<tag k="ssr:stedsnr" v="252268" />
		<tag k="ssr:type" v="holmeISjø" />
	</node>
	<node lat="61.07501389355932" lon="4.94610278362456" id="-26783">
		<tag k="alt_name" v="Hittevika" />
		<tag k="name" v="Kyravika" />
		<tag k="natural" v="bay" />
		<tag k="ssr:date" v="2019-12-27" />
		<tag k="ssr:gruppe" v="kystkontur" />
		<tag k="ssr:hovedgruppe" v="sjø" />
		<tag k="ssr:stedsnr" v="252274" />
		<tag k="ssr:type" v="vikISjø" />
	</node>
	<node lat="61.075805557735436" lon="4.92291388829607" id="-26784">
		<tag k="name" v="Losnetjørna" />
		<tag k="natural" v="water" />
		<tag k="ssr:date" v="2019-12-27" />
		<tag k="ssr:gruppe" v="stilleståendeVann" />
		<tag k="ssr:hovedgruppe" v="ferskvann" />
		<tag k="ssr:stedsnr" v="252278" />
		<tag k="ssr:type" v="tjern" />
	</node>
	<node lat="61.09363055758609" lon="4.797352778715384" id="-26785">
		<tag k="alt_name" v="Børøyna" />
		<tag k="name" v="Bårdøyna" />
		<tag k="place" v="islet" />
		<tag k="ssr:date" v="2019-12-27" />
		<tag k="ssr:gruppe" v="kystkontur" />
		<tag k="ssr:hovedgruppe" v="sjø" />
		<tag k="ssr:stedsnr" v="252332" />
		<tag k="ssr:type" v="holmeISjø" />
	</node>
	<node lat="61.09626944167228" lon="4.778225009381683" id="-26786">
		<tag k="alt_name" v="Stokkevågnipa" />
		<tag k="fixme" v="consider natural=peak for the most distinct mountains in the district" />
		<tag k="name" v="Stokkevågnova" />
		<tag k="natural" v="hill" />
		<tag k="place" v="locality" />
		<tag k="ssr:date" v="2019-12-27" />
		<tag k="ssr:gruppe" v="høyder" />
		<tag k="ssr:hovedgruppe" v="terreng" />
		<tag k="ssr:stedsnr" v="252333" />
		<tag k="ssr:type" v="ås" />
	</node>
	<node lat="61.08759722663347" lon="4.752311108006523" id="-26787">
		<tag k="name" v="Hellelivika" />
		<tag k="natural" v="bay" />
		<tag k="ssr:date" v="2019-12-27" />
		<tag k="ssr:gruppe" v="kystkontur" />
		<tag k="ssr:hovedgruppe" v="sjø" />
		<tag k="ssr:stedsnr" v="252335" />
		<tag k="ssr:type" v="vikISjø" />
	</node>
	<node lat="61.10841667014436" lon="5.021605549217762" id="-26788">
		<tag k="name" v="Djupvikneset" />
		<tag k="natural" v="cape" />
		<tag k="ssr:date" v="2019-12-27" />
		<tag k="ssr:gruppe" v="kystkontur" />
		<tag k="ssr:hovedgruppe" v="sjø" />
		<tag k="ssr:stedsnr" v="252338" />
		<tag k="ssr:type" v="nesISjø" />
	</node>
	<node lat="61.09431388835719" lon="4.731238888318337" id="-26789">
		<tag k="name" v="Tangenesosen" />
		<tag k="natural" v="strait" />
		<tag k="ssr:date" v="2019-12-27" />
		<tag k="ssr:gruppe" v="kystkontur" />
		<tag k="ssr:hovedgruppe" v="sjø" />
		<tag k="ssr:stedsnr" v="252339" />
		<tag k="ssr:type" v="sundISjø" />
	</node>
	<node lat="61.11101389029842" lon="4.993894448620353" id="-26790">
		<tag k="fixme" v="consider natural=peak for the most distinct mountains in the district" />
		<tag k="name" v="Alteret" />
		<tag k="natural" v="hill" />
		<tag k="place" v="locality" />
		<tag k="ssr:date" v="2019-12-27" />
		<tag k="ssr:gruppe" v="høyder" />
		<tag k="ssr:hovedgruppe" v="terreng" />
		<tag k="ssr:stedsnr" v="252342" />
		<tag k="ssr:type" v="ås" />
	</node>
	<node lat="61.10033611086749" lon="5.014563886658943" id="-26791">
		<tag k="name" v="Båtevika" />
		<tag k="natural" v="bay" />
		<tag k="ssr:date" v="2019-12-27" />
		<tag k="ssr:gruppe" v="kystkontur" />
		<tag k="ssr:hovedgruppe" v="sjø" />
		<tag k="ssr:stedsnr" v="252291" />
		<tag k="ssr:type" v="vikISjø" />
	</node>
	<node lat="61.09040277759121" lon="4.83683055577606" id="-26792">
		<tag k="alt_name" v="Lia, nordre" />
		<tag k="name" v="Nordre Lia" />
		<tag k="place" v="farm" />
		<tag k="ssr:date" v="2019-12-27" />
		<tag k="ssr:gruppe" v="gardsbebyggelse" />
		<tag k="ssr:hovedgruppe" v="bebyggelse" />
		<tag k="ssr:stedsnr" v="252294" />
		<tag k="ssr:type" v="bruk" />
	</node>
	<node lat="61.086772221754686" lon="4.907986118446054" id="-26793">
		<tag k="alt_name" v="Helleholmen, nordre" />
		<tag k="name" v="Nordre Helleholmen" />
		<tag k="place" v="islet" />
		<tag k="ssr:date" v="2019-12-27" />
		<tag k="ssr:gruppe" v="kystkontur" />
		<tag k="ssr:hovedgruppe" v="sjø" />
		<tag k="ssr:stedsnr" v="252309" />
		<tag k="ssr:type" v="holmeISjø" />
	</node>
	<node lat="61.078461114250345" lon="4.819597220555704" id="-26794">
		<tag k="fixme" v="consider natural=peak for the most distinct mountains in the district" />
		<tag k="name" v="Trolleklubben" />
		<tag k="natural" v="hill" />
		<tag k="place" v="locality" />
		<tag k="ssr:date" v="2019-12-27" />
		<tag k="ssr:gruppe" v="høyder" />
		<tag k="ssr:hovedgruppe" v="terreng" />
		<tag k="ssr:stedsnr" v="252314" />
		<tag k="ssr:type" v="ås" />
	</node>
	<node lat="61.07807222683672" lon="4.73112778517771" id="-26795">
		<tag k="name" v="Marikollvika" />
		<tag k="natural" v="bay" />
		<tag k="ssr:date" v="2019-12-27" />
		<tag k="ssr:gruppe" v="kystkontur" />
		<tag k="ssr:hovedgruppe" v="sjø" />
		<tag k="ssr:stedsnr" v="252315" />
		<tag k="ssr:type" v="vikISjø" />
	</node>
	<node lat="61.105941669843105" lon="4.838369443863176" id="-26796">
		<tag k="alt_name" v="Ramnfjellet" />
		<tag k="fixme" v="consider natural=peak for the most distinct mountains in the district" />
		<tag k="name" v="Ramnefjellet" />
		<tag k="natural" v="hill" />
		<tag k="place" v="locality" />
		<tag k="ssr:date" v="2019-12-27" />
		<tag k="ssr:gruppe" v="høyder" />
		<tag k="ssr:hovedgruppe" v="terreng" />
		<tag k="ssr:stedsnr" v="252317" />
		<tag k="ssr:type" v="ås" />
	</node>
	<node lat="61.11608611194908" lon="5.059622225537072" id="-26797">
		<tag k="name" v="Trondneset" />
		<tag k="natural" v="cape" />
		<tag k="ssr:date" v="2019-12-27" />
		<tag k="ssr:gruppe" v="kystkontur" />
		<tag k="ssr:hovedgruppe" v="sjø" />
		<tag k="ssr:stedsnr" v="252325" />
		<tag k="ssr:type" v="nesISjø" />
	</node>
	<node lat="61.116091666976075" lon="5.078405561394926" id="-26798">
		<tag k="name" v="Einehaugvika" />
		<tag k="natural" v="bay" />
		<tag k="ssr:date" v="2019-12-27" />
		<tag k="ssr:gruppe" v="kystkontur" />
		<tag k="ssr:hovedgruppe" v="sjø" />
		<tag k="ssr:stedsnr" v="252328" />
		<tag k="ssr:type" v="vikISjø" />
	</node>
	<node lat="61.103475002575934" lon="4.989780551277303" id="-26799">
		<tag k="name" v="Dyreråsdalen" />
		<tag k="natural" v="valley" />
		<tag k="place" v="locality" />
		<tag k="ssr:date" v="2019-12-27" />
		<tag k="ssr:gruppe" v="senkninger" />
		<tag k="ssr:hovedgruppe" v="terreng" />
		<tag k="ssr:stedsnr" v="252343" />
		<tag k="ssr:type" v="dal" />
	</node>
	<node lat="61.10565555824036" lon="4.953208327969154" id="-26800">
		<tag k="name" v="Kråkåsdalen" />
		<tag k="natural" v="valley" />
		<tag k="place" v="locality" />
		<tag k="ssr:date" v="2019-12-27" />
		<tag k="ssr:gruppe" v="senkninger" />
		<tag k="ssr:hovedgruppe" v="terreng" />
		<tag k="ssr:stedsnr" v="252344" />
		<tag k="ssr:type" v="dal" />
	</node>
	<node lat="60.90961389125615" lon="4.567602774566946" id="-26801">
		<tag k="name" v="Hamarskallen" />
		<tag k="natural" v="shoal" />
		<tag k="place" v="locality" />
		<tag k="ssr:date" v="2019-12-27" />
		<tag k="ssr:gruppe" v="grunnerISjø" />
		<tag k="ssr:hovedgruppe" v="sjø" />
		<tag k="ssr:stedsnr" v="128660" />
		<tag k="ssr:type" v="grunneISjø" />
	</node>
	<node lat="61.051950000681934" lon="4.900205550929456" id="-26802">
		<tag k="fixme" v="consider natural=peak for the most distinct mountains in the district" />
		<tag k="name" v="Høgeleitet" />
		<tag k="natural" v="hill" />
		<tag k="place" v="locality" />
		<tag k="ssr:date" v="2019-12-27" />
		<tag k="ssr:gruppe" v="høyder" />
		<tag k="ssr:hovedgruppe" v="terreng" />
		<tag k="ssr:stedsnr" v="252433" />
		<tag k="ssr:type" v="ås" />
	</node>
	<node lat="61.015016666661104" lon="4.744747217028764" id="-26803">
		<tag k="name" v="Nårøyna" />
		<tag k="place" v="island" />
		<tag k="ssr:date" v="2021-06-08" />
		<tag k="ssr:gruppe" v="kystkontur" />
		<tag k="ssr:hovedgruppe" v="sjø" />
		<tag k="ssr:stedsnr" v="252421" />
		<tag k="ssr:type" v="øyISjø" />
	</node>
	<node lat="61.02098333436582" lon="4.729844448725404" id="-26804">
		<tag k="fixme" v="consider natural=peak for the most distinct mountains in the district" />
		<tag k="name" v="Stordalsfjellet" />
		<tag k="natural" v="hill" />
		<tag k="place" v="locality" />
		<tag k="ssr:date" v="2019-12-27" />
		<tag k="ssr:gruppe" v="høyder" />
		<tag k="ssr:hovedgruppe" v="terreng" />
		<tag k="ssr:stedsnr" v="252428" />
		<tag k="ssr:type" v="ås" />
	</node>
	<node lat="61.003769447143" lon="4.725613896974264" id="-26805">
		<tag k="alt_name" v="Solskaret" />
		<tag k="fixme" v="consider natural=peak for the most distinct mountains in the district" />
		<tag k="name" v="Solskardet" />
		<tag k="natural" v="hill" />
		<tag k="place" v="locality" />
		<tag k="ssr:date" v="2019-12-27" />
		<tag k="ssr:gruppe" v="høyder" />
		<tag k="ssr:hovedgruppe" v="terreng" />
		<tag k="ssr:stedsnr" v="252429" />
		<tag k="ssr:type" v="ås" />
	</node>
	<node lat="61.03850000084348" lon="4.8797944395348" id="-26806">
		<tag k="fixme" v="multiple name tags, choose one and add the other to alt_name" />
		<tag k="name" v="Ytre Humlevågneset;Anderssvar" />
		<tag k="natural" v="cape" />
		<tag k="ssr:date" v="2019-12-27" />
		<tag k="ssr:gruppe" v="kystkontur" />
		<tag k="ssr:hovedgruppe" v="sjø" />
		<tag k="ssr:stedsnr" v="252443" />
		<tag k="ssr:type" v="nesISjø" />
	</node>
	<node lat="61.03440555153768" lon="4.76371945124214" id="-26807">
		<tag k="name" v="Feiarneset" />
		<tag k="natural" v="cape" />
		<tag k="ssr:date" v="2019-12-27" />
		<tag k="ssr:gruppe" v="kystkontur" />
		<tag k="ssr:hovedgruppe" v="sjø" />
		<tag k="ssr:stedsnr" v="252448" />
		<tag k="ssr:type" v="nesISjø" />
	</node>
	<node lat="61.13505000383742" lon="5.131380556477414" id="-26808">
		<tag k="bay" v="fjord" />
		<tag k="name" v="Losnosen" />
		<tag k="natural" v="bay" />
		<tag k="ssr:date" v="2019-12-27" />
		<tag k="ssr:gruppe" v="farvann" />
		<tag k="ssr:hovedgruppe" v="sjø" />
		<tag k="ssr:stedsnr" v="252464" />
		<tag k="ssr:type" v="fjord" />
	</node>
	<node lat="61.12585555600004" lon="5.098922213777906" id="-26809">
		<tag k="name" v="Tjøreneset" />
		<tag k="natural" v="cape" />
		<tag k="ssr:date" v="2019-12-27" />
		<tag k="ssr:gruppe" v="kystkontur" />
		<tag k="ssr:hovedgruppe" v="sjø" />
		<tag k="ssr:stedsnr" v="252465" />
		<tag k="ssr:type" v="nesISjø" />
	</node>
	<node lat="61.11834444597228" lon="4.9952888814716845" id="-26810">
		<tag k="fixme" v="consider natural=peak for the most distinct mountains in the district" />
		<tag k="name" v="Vetefjellet" />
		<tag k="natural" v="hill" />
		<tag k="place" v="locality" />
		<tag k="ssr:date" v="2019-12-27" />
		<tag k="ssr:gruppe" v="høyder" />
		<tag k="ssr:hovedgruppe" v="terreng" />
		<tag k="ssr:stedsnr" v="130109" />
		<tag k="ssr:type" v="fjell" />
	</node>
	<node lat="61.12389166613504" lon="4.977988881314449" id="-26811">
		<tag k="alt_name" v="Klostreheia" />
		<tag k="fixme" v="consider natural=peak for the most distinct mountains in the district" />
		<tag k="name" v="Kløstreheia" />
		<tag k="natural" v="hill" />
		<tag k="place" v="locality" />
		<tag k="ssr:date" v="2019-12-27" />
		<tag k="ssr:gruppe" v="høyder" />
		<tag k="ssr:hovedgruppe" v="terreng" />
		<tag k="ssr:stedsnr" v="130117" />
		<tag k="ssr:type" v="ås" />
	</node>
	<node lat="61.15355047634354" lon="4.8142771859696065" id="-26812">
		<tag k="fixme" v="consider place=hamlet" />
		<tag k="name" v="Avløypet" />
		<tag k="place" v="farm" />
		<tag k="ssr:date" v="2019-12-27" />
		<tag k="ssr:gruppe" v="gardsbebyggelse" />
		<tag k="ssr:hovedgruppe" v="bebyggelse" />
		<tag k="ssr:stedsnr" v="130013" />
		<tag k="ssr:type" v="gard" />
	</node>
	<node lat="61.16462500250674" lon="4.867552780986761" id="-26813">
		<tag k="name" v="Holevatnet" />
		<tag k="natural" v="water" />
		<tag k="ssr:date" v="2019-12-27" />
		<tag k="ssr:gruppe" v="stilleståendeVann" />
		<tag k="ssr:hovedgruppe" v="ferskvann" />
		<tag k="ssr:stedsnr" v="130023" />
		<tag k="ssr:type" v="tjern" />
	</node>
	<node lat="61.16988333789491" lon="4.904111117616004" id="-26814">
		<tag k="alt_name" v="Husfjellet" />
		<tag k="fixme" v="consider natural=peak for the most distinct mountains in the district" />
		<tag k="name" v="Husefjellet" />
		<tag k="natural" v="hill" />
		<tag k="place" v="locality" />
		<tag k="ssr:date" v="2019-12-27" />
		<tag k="ssr:gruppe" v="høyder" />
		<tag k="ssr:hovedgruppe" v="terreng" />
		<tag k="ssr:stedsnr" v="130028" />
		<tag k="ssr:type" v="ås" />
	</node>
	<node lat="61.15400555233946" lon="4.9394916655853685" id="-26815">
		<tag k="alt_name" v="Geitesteinvika" />
		<tag k="name" v="Geitevika" />
		<tag k="natural" v="bay" />
		<tag k="ssr:date" v="2019-12-27" />
		<tag k="ssr:gruppe" v="kystkontur" />
		<tag k="ssr:hovedgruppe" v="sjø" />
		<tag k="ssr:stedsnr" v="130208" />
		<tag k="ssr:type" v="vikISjø" />
	</node>
	<node lat="61.05398610935292" lon="4.736544452982078" id="-26816">
		<tag k="name" v="Gjerdneset" />
		<tag k="natural" v="cape" />
		<tag k="ssr:date" v="2019-12-27" />
		<tag k="ssr:gruppe" v="kystkontur" />
		<tag k="ssr:hovedgruppe" v="sjø" />
		<tag k="ssr:stedsnr" v="130231" />
		<tag k="ssr:type" v="nesISjø" />
	</node>
	<node lat="61.122755555965405" lon="5.078508338175775" id="-26817">
		<tag k="name" v="Kaldehaugane" />
		<tag k="natural" v="hill" />
		<tag k="place" v="locality" />
		<tag k="ssr:date" v="2019-12-27" />
		<tag k="ssr:gruppe" v="høyder" />
		<tag k="ssr:hovedgruppe" v="terreng" />
		<tag k="ssr:stedsnr" v="130321" />
		<tag k="ssr:type" v="haug" />
	</node>
	<node lat="61.02982221880711" lon="4.721613882172467" id="-26818">
		<tag k="alt_name" v="Plommedalsvatnet" />
		<tag k="name" v="Plommedalstjørna" />
		<tag k="natural" v="water" />
		<tag k="ssr:date" v="2019-12-27" />
		<tag k="ssr:gruppe" v="stilleståendeVann" />
		<tag k="ssr:hovedgruppe" v="ferskvann" />
		<tag k="ssr:stedsnr" v="130395" />
		<tag k="ssr:type" v="tjern" />
	</node>
	<node lat="61.01775277616983" lon="4.781711103782189" id="-26819">
		<tag k="name" v="Tausholmen" />
		<tag k="place" v="islet" />
		<tag k="ssr:date" v="2019-12-27" />
		<tag k="ssr:gruppe" v="kystkontur" />
		<tag k="ssr:hovedgruppe" v="sjø" />
		<tag k="ssr:stedsnr" v="130403" />
		<tag k="ssr:type" v="holmeISjø" />
	</node>
	<node lat="61.0139888912208" lon="4.723322223813945" id="-26820">
		<tag k="alt_name" v="Litåsvatnet" />
		<tag k="name" v="Litlåsvatnet" />
		<tag k="natural" v="water" />
		<tag k="ssr:date" v="2019-12-27" />
		<tag k="ssr:gruppe" v="stilleståendeVann" />
		<tag k="ssr:hovedgruppe" v="ferskvann" />
		<tag k="ssr:stedsnr" v="130409" />
		<tag k="ssr:type" v="tjern" />
	</node>
	<node lat="61.04278888676914" lon="4.72703888190136" id="-26821">
		<tag k="name" v="Silen" />
		<tag k="place" v="islet" />
		<tag k="ssr:date" v="2019-12-27" />
		<tag k="ssr:gruppe" v="kystkontur" />
		<tag k="ssr:hovedgruppe" v="sjø" />
		<tag k="ssr:stedsnr" v="130429" />
		<tag k="ssr:type" v="holmeISjø" />
	</node>
	<node lat="61.09859924189272" lon="4.70130646886395" id="-26822">
		<tag k="name" v="Storøyna" />
		<tag k="place" v="farm" />
		<tag k="ssr:date" v="2019-12-27" />
		<tag k="ssr:gruppe" v="gardsbebyggelse" />
		<tag k="ssr:hovedgruppe" v="bebyggelse" />
		<tag k="ssr:stedsnr" v="130713" />
		<tag k="ssr:type" v="bruk" />
	</node>
	<node lat="61.06265278139522" lon="4.655691658741557" id="-26823">
		<tag k="alt_name" v="Storevika" />
		<tag k="name" v="Storvika" />
		<tag k="natural" v="bay" />
		<tag k="ssr:date" v="2019-12-27" />
		<tag k="ssr:gruppe" v="kystkontur" />
		<tag k="ssr:hovedgruppe" v="sjø" />
		<tag k="ssr:stedsnr" v="130726" />
		<tag k="ssr:type" v="vikISjø" />
	</node>
	<node lat="61.06052777734329" lon="4.644961114920088" id="-26824">
		<tag k="alt_name" v="Storenova" />
		<tag k="name" v="Stornova" />
		<tag k="natural" v="hill" />
		<tag k="place" v="locality" />
		<tag k="ssr:date" v="2019-12-27" />
		<tag k="ssr:gruppe" v="høyder" />
		<tag k="ssr:hovedgruppe" v="terreng" />
		<tag k="ssr:stedsnr" v="130728" />
		<tag k="ssr:type" v="haug" />
	</node>
	<node lat="61.17427221926845" lon="4.683905555186113" id="-26825">
		<tag k="fixme" v="consider seamark:type=rock or natural=shoal" />
		<tag k="name" v="Antonskjeret" />
		<tag k="place" v="islet" />
		<tag k="ssr:date" v="2019-12-27" />
		<tag k="ssr:gruppe" v="grunnerISjø" />
		<tag k="ssr:hovedgruppe" v="sjø" />
		<tag k="ssr:stedsnr" v="130791" />
		<tag k="ssr:type" v="skjærISjø" />
	</node>
	<node lat="61.18223966761588" lon="4.694357263617087" id="-26826">
		<tag k="alt_name" v="Leiaskjeret" />
		<tag k="fixme" v="consider seamark:type=rock or natural=shoal" />
		<tag k="name" v="Leiaskjera" />
		<tag k="place" v="islet" />
		<tag k="ssr:date" v="2019-12-27" />
		<tag k="ssr:gruppe" v="grunnerISjø" />
		<tag k="ssr:hovedgruppe" v="sjø" />
		<tag k="ssr:stedsnr" v="130793" />
		<tag k="ssr:type" v="skjærISjø" />
	</node>
	<node lat="61.17341667114075" lon="4.651958332832667" id="-26827">
		<tag k="alt_name" v="Indreskjeringelasset;Skjerdingslasset" />
		<tag k="fixme" v="consider seamark:type=rock or natural=shoal" />
		<tag k="name" v="Skjerdingelasset" />
		<tag k="place" v="islet" />
		<tag k="ssr:date" v="2019-12-27" />
		<tag k="ssr:gruppe" v="grunnerISjø" />
		<tag k="ssr:hovedgruppe" v="sjø" />
		<tag k="ssr:stedsnr" v="130795" />
		<tag k="ssr:type" v="skjærISjø" />
	</node>
	<node lat="61.21179166630093" lon="4.764694445244099" id="-26828">
		<tag k="alt_name" v="Ræsevågen, nordre" />
		<tag k="name" v="Nordre Resevågen" />
		<tag k="natural" v="bay" />
		<tag k="ssr:date" v="2019-12-27" />
		<tag k="ssr:gruppe" v="kystkontur" />
		<tag k="ssr:hovedgruppe" v="sjø" />
		<tag k="ssr:stedsnr" v="130920" />
		<tag k="ssr:type" v="vikISjø" />
	</node>
	<node lat="61.21450555323699" lon="4.9060777746887885" id="-26829">
		<tag k="name" v="Luten" />
		<tag k="place" v="islet" />
		<tag k="ssr:date" v="2019-12-27" />
		<tag k="ssr:gruppe" v="kystkontur" />
		<tag k="ssr:hovedgruppe" v="sjø" />
		<tag k="ssr:stedsnr" v="130925" />
		<tag k="ssr:type" v="holmeISjø" />
	</node>
	<node lat="61.20940555876743" lon="4.841080559650187" id="-26830">
		<tag k="name" v="Langevatnet" />
		<tag k="natural" v="water" />
		<tag k="ssr:date" v="2019-12-27" />
		<tag k="ssr:gruppe" v="stilleståendeVann" />
		<tag k="ssr:hovedgruppe" v="ferskvann" />
		<tag k="ssr:stedsnr" v="130927" />
		<tag k="ssr:type" v="tjern" />
	</node>
	<node lat="61.18836388729098" lon="4.694788894594856" id="-26831">
		<tag k="name" v="Litleværklubben" />
		<tag k="place" v="islet" />
		<tag k="ssr:date" v="2019-12-27" />
		<tag k="ssr:gruppe" v="kystkontur" />
		<tag k="ssr:hovedgruppe" v="sjø" />
		<tag k="ssr:stedsnr" v="130805" />
		<tag k="ssr:type" v="holmeISjø" />
	</node>
	<node lat="61.126427781022585" lon="4.594808337236159" id="-26832">
		<tag k="alt_name" v="Nordre Gardbåflua" />
		<tag k="name" v="Nordeflua" />
		<tag k="natural" v="shoal" />
		<tag k="place" v="locality" />
		<tag k="ssr:date" v="2019-12-27" />
		<tag k="ssr:gruppe" v="grunnerISjø" />
		<tag k="ssr:hovedgruppe" v="sjø" />
		<tag k="ssr:stedsnr" v="130811" />
		<tag k="ssr:type" v="grunneISjø" />
	</node>
	<node lat="61.13250000399595" lon="4.570694448237093" id="-26833">
		<tag k="fixme" v="consider seamark:type=rock or natural=shoal" />
		<tag k="name" v="Tårnskjeret" />
		<tag k="place" v="islet" />
		<tag k="ssr:date" v="2019-12-27" />
		<tag k="ssr:gruppe" v="grunnerISjø" />
		<tag k="ssr:hovedgruppe" v="sjø" />
		<tag k="ssr:stedsnr" v="130812" />
		<tag k="ssr:type" v="skjærISjø" />
	</node>
	<node lat="61.13445833767349" lon="4.714136115784894" id="-26834">
		<tag k="name" v="Svartholmane" />
		<tag k="place" v="islet" />
		<tag k="ssr:date" v="2019-12-27" />
		<tag k="ssr:gruppe" v="kystkontur" />
		<tag k="ssr:hovedgruppe" v="sjø" />
		<tag k="ssr:stedsnr" v="130815" />
		<tag k="ssr:type" v="holmeISjø" />
	</node>
	<node lat="61.12902499847336" lon="4.681072223219118" id="-26835">
		<tag k="alt_name" v="Litleleieskjeret;Litle Leiskjeret" />
		<tag k="fixme" v="consider seamark:type=rock or natural=shoal" />
		<tag k="name" v="Litle Leiaskjeret" />
		<tag k="place" v="islet" />
		<tag k="ssr:date" v="2019-12-27" />
		<tag k="ssr:gruppe" v="grunnerISjø" />
		<tag k="ssr:hovedgruppe" v="sjø" />
		<tag k="ssr:stedsnr" v="130818" />
		<tag k="ssr:type" v="skjærISjø" />
	</node>
	<node lat="61.118361107425216" lon="4.703291661194626" id="-26836">
		<tag k="name" v="Tjørnholmen" />
		<tag k="place" v="islet" />
		<tag k="ssr:date" v="2019-12-27" />
		<tag k="ssr:gruppe" v="kystkontur" />
		<tag k="ssr:hovedgruppe" v="sjø" />
		<tag k="ssr:stedsnr" v="130832" />
		<tag k="ssr:type" v="holmeISjø" />
	</node>
	<node lat="61.21596944376513" lon="4.740288888165039" id="-26837">
		<tag k="name" v="Styrsvågen" />
		<tag k="natural" v="bay" />
		<tag k="ssr:date" v="2019-12-27" />
		<tag k="ssr:gruppe" v="kystkontur" />
		<tag k="ssr:hovedgruppe" v="sjø" />
		<tag k="ssr:stedsnr" v="130871" />
		<tag k="ssr:type" v="vikISjø" />
	</node>
	<node lat="61.21888055407067" lon="4.824130560480174" id="-26838">
		<tag k="name" v="Søre Selvika" />
		<tag k="natural" v="bay" />
		<tag k="ssr:date" v="2019-12-27" />
		<tag k="ssr:gruppe" v="kystkontur" />
		<tag k="ssr:hovedgruppe" v="sjø" />
		<tag k="ssr:stedsnr" v="130881" />
		<tag k="ssr:type" v="vikISjø" />
	</node>
	<node lat="61.221116667027616" lon="4.827544444116581" id="-26839">
		<tag k="name" v="Nordre Selvika" />
		<tag k="natural" v="bay" />
		<tag k="ssr:date" v="2019-12-27" />
		<tag k="ssr:gruppe" v="kystkontur" />
		<tag k="ssr:hovedgruppe" v="sjø" />
		<tag k="ssr:stedsnr" v="130884" />
		<tag k="ssr:type" v="vikISjø" />
	</node>
	<node lat="61.00158888757394" lon="4.662522231149999" id="-26840">
		<tag k="name" v="Husøyna" />
		<tag k="place" v="island" />
		<tag k="ssr:date" v="2019-12-27" />
		<tag k="ssr:gruppe" v="kystkontur" />
		<tag k="ssr:hovedgruppe" v="sjø" />
		<tag k="ssr:stedsnr" v="130977" />
		<tag k="ssr:type" v="øyISjø" />
	</node>
	<node lat="61.1414111104366" lon="4.969266657953608" id="-26841">
		<tag k="name" v="Rotevikvatnet" />
		<tag k="natural" v="water" />
		<tag k="ssr:date" v="2019-12-27" />
		<tag k="ssr:gruppe" v="stilleståendeVann" />
		<tag k="ssr:hovedgruppe" v="ferskvann" />
		<tag k="ssr:stedsnr" v="131182" />
		<tag k="ssr:type" v="tjern" />
	</node>
	<node lat="61.0969166705649" lon="4.690063879752828" id="-26842">
		<tag k="name" v="Stokkevika" />
		<tag k="natural" v="bay" />
		<tag k="ssr:date" v="2019-12-27" />
		<tag k="ssr:gruppe" v="kystkontur" />
		<tag k="ssr:hovedgruppe" v="sjø" />
		<tag k="ssr:stedsnr" v="252741" />
		<tag k="ssr:type" v="vikISjø" />
	</node>
	<node lat="61.03874722298386" lon="4.507152779294088" id="-26843">
		<tag k="name" v="Tussen" />
		<tag k="place" v="islet" />
		<tag k="ssr:date" v="2019-12-27" />
		<tag k="ssr:gruppe" v="kystkontur" />
		<tag k="ssr:hovedgruppe" v="sjø" />
		<tag k="ssr:stedsnr" v="252771" />
		<tag k="ssr:type" v="holmeISjø" />
	</node>
	<node lat="61.13081944377759" lon="4.682947215182759" id="-26844">
		<tag k="fixme" v="consider seamark:type=rock or natural=shoal" />
		<tag k="name" v="Kvalen" />
		<tag k="place" v="islet" />
		<tag k="ssr:date" v="2019-12-27" />
		<tag k="ssr:gruppe" v="grunnerISjø" />
		<tag k="ssr:hovedgruppe" v="sjø" />
		<tag k="ssr:stedsnr" v="252826" />
		<tag k="ssr:type" v="skjærISjø" />
	</node>
	<node lat="61.15147500454858" lon="4.66140277958978" id="-26845">
		<tag k="fixme" v="consider seamark:type=rock or natural=shoal" />
		<tag k="name" v="Steineskjera" />
		<tag k="place" v="islet" />
		<tag k="ssr:date" v="2019-12-27" />
		<tag k="ssr:gruppe" v="grunnerISjø" />
		<tag k="ssr:hovedgruppe" v="sjø" />
		<tag k="ssr:stedsnr" v="252835" />
		<tag k="ssr:type" v="skjærISjø" />
	</node>
	<node lat="61.134422222644915" lon="4.68511388143898" id="-26846">
		<tag k="alt_name" v="Ytre og Nordre Sengskjeret;Nordre Sæingskjeret" />
		<tag k="fixme" v="consider seamark:type=rock or natural=shoal" />
		<tag k="name" v="Sædingsskjeret" />
		<tag k="place" v="islet" />
		<tag k="ssr:date" v="2019-12-27" />
		<tag k="ssr:gruppe" v="grunnerISjø" />
		<tag k="ssr:hovedgruppe" v="sjø" />
		<tag k="ssr:stedsnr" v="252821" />
		<tag k="ssr:type" v="skjærISjø" />
	</node>
	<node lat="61.13389722429333" lon="4.668411115766295" id="-26847">
		<tag k="name" v="Grunneflua" />
		<tag k="natural" v="shoal" />
		<tag k="place" v="locality" />
		<tag k="ssr:date" v="2019-12-27" />
		<tag k="ssr:gruppe" v="grunnerISjø" />
		<tag k="ssr:hovedgruppe" v="sjø" />
		<tag k="ssr:stedsnr" v="252823" />
		<tag k="ssr:type" v="grunneISjø" />
	</node>
	<node lat="61.22521111027672" lon="4.864594445118909" id="-26848">
		<tag k="name" v="Gavletaren" />
		<tag k="natural" v="shoal" />
		<tag k="place" v="locality" />
		<tag k="ssr:date" v="2019-12-27" />
		<tag k="ssr:gruppe" v="grunnerISjø" />
		<tag k="ssr:hovedgruppe" v="sjø" />
		<tag k="ssr:stedsnr" v="252856" />
		<tag k="ssr:type" v="grunneISjø" />
	</node>
	<node lat="61.00195833341647" lon="4.566274996790835" id="-26849">
		<tag k="fixme" v="consider seamark:type=rock or natural=shoal" />
		<tag k="name" v="Ringebåskjeret" />
		<tag k="place" v="islet" />
		<tag k="ssr:date" v="2019-12-27" />
		<tag k="ssr:gruppe" v="grunnerISjø" />
		<tag k="ssr:hovedgruppe" v="sjø" />
		<tag k="ssr:stedsnr" v="252942" />
		<tag k="ssr:type" v="skjærISjø" />
	</node>
	<node lat="61.216663893146425" lon="4.876736113795274" id="-26850">
		<tag k="name" v="Årsholmen" />
		<tag k="place" v="islet" />
		<tag k="ssr:date" v="2019-12-27" />
		<tag k="ssr:gruppe" v="kystkontur" />
		<tag k="ssr:hovedgruppe" v="sjø" />
		<tag k="ssr:stedsnr" v="252898" />
		<tag k="ssr:type" v="holmeISjø" />
	</node>
	<node lat="61.233186112245974" lon="4.752561112544917" id="-26851">
		<tag k="alt_name" v="Svartoksen, store;Svartoksen" />
		<tag k="fixme" v="consider seamark:type=rock or natural=shoal" />
		<tag k="name" v="Store Svartoksen" />
		<tag k="place" v="islet" />
		<tag k="ssr:date" v="2019-12-27" />
		<tag k="ssr:gruppe" v="grunnerISjø" />
		<tag k="ssr:hovedgruppe" v="sjø" />
		<tag k="ssr:stedsnr" v="252984" />
		<tag k="ssr:type" v="skjærISjø" />
	</node>
	<node lat="61.003608336536196" lon="4.591897225659477" id="-26852">
		<tag k="alt_name" v="Indre Hå  skjeret" />
		<tag k="fixme" v="consider seamark:type=rock or natural=shoal" />
		<tag k="name" v="Indre Håskjeret" />
		<tag k="place" v="islet" />
		<tag k="ssr:date" v="2019-12-27" />
		<tag k="ssr:gruppe" v="grunnerISjø" />
		<tag k="ssr:hovedgruppe" v="sjø" />
		<tag k="ssr:stedsnr" v="252949" />
		<tag k="ssr:type" v="skjærISjø" />
	</node>
	<node lat="61.00678333627113" lon="4.602886101602705" id="-26853">
		<tag k="alt_name" v="Tongerøyna" />
		<tag k="name" v="Tangerøyna" />
		<tag k="place" v="islet" />
		<tag k="ssr:date" v="2019-12-27" />
		<tag k="ssr:gruppe" v="kystkontur" />
		<tag k="ssr:hovedgruppe" v="sjø" />
		<tag k="ssr:stedsnr" v="252952" />
		<tag k="ssr:type" v="holmeISjø" />
	</node>
	<node lat="61.009405553216645" lon="4.656777782374478" id="-26854">
		<tag k="alt_name" v="Varøyna" />
		<tag k="name" v="Vardøyna" />
		<tag k="place" v="islet" />
		<tag k="ssr:date" v="2019-12-27" />
		<tag k="ssr:gruppe" v="kystkontur" />
		<tag k="ssr:hovedgruppe" v="sjø" />
		<tag k="ssr:stedsnr" v="252957" />
		<tag k="ssr:type" v="holmeISjø" />
	</node>
	<node lat="61.00179166896855" lon="4.69359445095782" id="-26855">
		<tag k="alt_name" v="Breiddalsneset" />
		<tag k="name" v="Breidalsneset" />
		<tag k="natural" v="cape" />
		<tag k="ssr:date" v="2019-12-27" />
		<tag k="ssr:gruppe" v="kystkontur" />
		<tag k="ssr:hovedgruppe" v="sjø" />
		<tag k="ssr:stedsnr" v="252966" />
		<tag k="ssr:type" v="nesISjø" />
	</node>
	<node lat="61.006750002200306" lon="4.712572224977333" id="-26856">
		<tag k="name" v="Kvernhusvatnet" />
		<tag k="natural" v="water" />
		<tag k="ssr:date" v="2019-12-27" />
		<tag k="ssr:gruppe" v="stilleståendeVann" />
		<tag k="ssr:hovedgruppe" v="ferskvann" />
		<tag k="ssr:stedsnr" v="252968" />
		<tag k="ssr:type" v="tjern" />
	</node>
	<node lat="61.00152777713736" lon="4.671261116222157" id="-26857">
		<tag k="name" v="Langeneset" />
		<tag k="natural" v="cape" />
		<tag k="ssr:date" v="2019-12-27" />
		<tag k="ssr:gruppe" v="kystkontur" />
		<tag k="ssr:hovedgruppe" v="sjø" />
		<tag k="ssr:stedsnr" v="252974" />
		<tag k="ssr:type" v="nesISjø" />
	</node>
	<node lat="61.056973932086414" lon="4.731363434797639" id="-26858">
		<tag k="name" v="Djupedalsflua" />
		<tag k="natural" v="shoal" />
		<tag k="place" v="locality" />
		<tag k="ssr:date" v="2019-12-27" />
		<tag k="ssr:gruppe" v="grunnerISjø" />
		<tag k="ssr:hovedgruppe" v="sjø" />
		<tag k="ssr:stedsnr" v="145135" />
		<tag k="ssr:type" v="grunneISjø" />
	</node>
	<node lat="60.998694448882304" lon="4.599377777395147" id="-26859">
		<tag k="name" v="Slåttøyna" />
		<tag k="place" v="islet" />
		<tag k="ssr:date" v="2019-12-27" />
		<tag k="ssr:gruppe" v="kystkontur" />
		<tag k="ssr:hovedgruppe" v="sjø" />
		<tag k="ssr:stedsnr" v="146092" />
		<tag k="ssr:type" v="holmeISjø" />
	</node>
	<node lat="61.03686944603538" lon="4.664694439280685" id="-26860">
		<tag k="name" v="Sørevågen" />
		<tag k="natural" v="bay" />
		<tag k="ssr:date" v="2021-06-08" />
		<tag k="ssr:gruppe" v="kystkontur" />
		<tag k="ssr:hovedgruppe" v="sjø" />
		<tag k="ssr:stedsnr" v="146165" />
		<tag k="ssr:type" v="vikISjø" />
	</node>
	<node lat="61.010133333972135" lon="4.5371250038985265" id="-26861">
		<tag k="name" v="Gurinakken" />
		<tag k="natural" v="shoal" />
		<tag k="place" v="locality" />
		<tag k="ssr:date" v="2019-12-27" />
		<tag k="ssr:gruppe" v="grunnerISjø" />
		<tag k="ssr:hovedgruppe" v="sjø" />
		<tag k="ssr:stedsnr" v="146176" />
		<tag k="ssr:type" v="grunneISjø" />
	</node>
	<node lat="61.09242275453956" lon="4.75663574154117" id="-26862">
		<tag k="name" v="Kupa" />
		<tag k="natural" v="valley" />
		<tag k="place" v="locality" />
		<tag k="ssr:date" v="2021-01-08" />
		<tag k="ssr:gruppe" v="senkninger" />
		<tag k="ssr:hovedgruppe" v="terreng" />
		<tag k="ssr:stedsnr" v="146909" />
		<tag k="ssr:type" v="botn" />
	</node>
	<node lat="61.15506944507067" lon="4.656505550651988" id="-26863">
		<tag k="name" v="Kråkesteinen" />
		<tag k="place" v="island" />
		<tag k="ssr:date" v="2019-12-27" />
		<tag k="ssr:gruppe" v="kystkontur" />
		<tag k="ssr:hovedgruppe" v="sjø" />
		<tag k="ssr:stedsnr" v="146877" />
		<tag k="ssr:type" v="øyISjø" />
	</node>
	<node lat="61.17277500173131" lon="4.953827774513314" id="-26864">
		<tag k="alt_name" v="Elvanes" />
		<tag k="name" v="Elvang" />
		<tag k="place" v="farm" />
		<tag k="ssr:date" v="2019-12-27" />
		<tag k="ssr:gruppe" v="gardsbebyggelse" />
		<tag k="ssr:hovedgruppe" v="bebyggelse" />
		<tag k="ssr:stedsnr" v="313036" />
		<tag k="ssr:type" v="bruk" />
	</node>
	<node lat="61.01879722370174" lon="4.680338882216678" id="-26865">
		<tag k="name" v="Grasdaltjørna" />
		<tag k="natural" v="water" />
		<tag k="ssr:date" v="2019-12-27" />
		<tag k="ssr:gruppe" v="stilleståendeVann" />
		<tag k="ssr:hovedgruppe" v="ferskvann" />
		<tag k="ssr:stedsnr" v="164009" />
		<tag k="ssr:type" v="tjern" />
	</node>
	<node lat="61.13790278172469" lon="4.791766659447721" id="-26866">
		<tag k="name" v="Kyrkjeberget" />
		<tag k="natural" v="cape" />
		<tag k="ssr:date" v="2019-12-27" />
		<tag k="ssr:gruppe" v="kystkontur" />
		<tag k="ssr:hovedgruppe" v="sjø" />
		<tag k="ssr:stedsnr" v="164284" />
		<tag k="ssr:type" v="nesISjø" />
	</node>
	<node lat="61.19419166557327" lon="4.887261110753524" id="-26867">
		<tag k="fixme" v="consider natural=peak for the most distinct mountains in the district" />
		<tag k="name" v="Sjøneskolten" />
		<tag k="natural" v="hill" />
		<tag k="place" v="locality" />
		<tag k="ssr:date" v="2019-12-27" />
		<tag k="ssr:gruppe" v="høyder" />
		<tag k="ssr:hovedgruppe" v="terreng" />
		<tag k="ssr:stedsnr" v="164462" />
		<tag k="ssr:type" v="ås" />
	</node>
	<node lat="61.146483335044124" lon="4.9076333239581205" id="-26868">
		<tag k="name" v="Storekleiva" />
		<tag k="natural" v="hill" />
		<tag k="place" v="locality" />
		<tag k="ssr:date" v="2019-12-27" />
		<tag k="ssr:gruppe" v="høyder" />
		<tag k="ssr:hovedgruppe" v="terreng" />
		<tag k="ssr:stedsnr" v="164858" />
		<tag k="ssr:type" v="haug" />
	</node>
	<node lat="61.004233334764514" lon="4.689547213883715" id="-26869">
		<tag k="name" v="Breidalsvika" />
		<tag k="natural" v="bay" />
		<tag k="ssr:date" v="2019-12-27" />
		<tag k="ssr:gruppe" v="kystkontur" />
		<tag k="ssr:hovedgruppe" v="sjø" />
		<tag k="ssr:stedsnr" v="165096" />
		<tag k="ssr:type" v="vikISjø" />
	</node>
	<node lat="61.059736114368896" lon="4.884161104597249" id="-26870">
		<tag k="name" v="Rotemyrvatnet" />
		<tag k="natural" v="wetland" />
		<tag k="ssr:date" v="2019-12-27" />
		<tag k="ssr:gruppe" v="våtmark" />
		<tag k="ssr:hovedgruppe" v="markslag" />
		<tag k="ssr:stedsnr" v="165208" />
		<tag k="ssr:type" v="myr" />
	</node>
	<node lat="61.06971388719263" lon="4.871749997978961" id="-26871">
		<tag k="name" v="Svartedalen" />
		<tag k="natural" v="valley" />
		<tag k="place" v="locality" />
		<tag k="ssr:date" v="2019-12-27" />
		<tag k="ssr:gruppe" v="senkninger" />
		<tag k="ssr:hovedgruppe" v="terreng" />
		<tag k="ssr:stedsnr" v="165210" />
		<tag k="ssr:type" v="dal" />
	</node>
	<node lat="61.05549721915809" lon="4.923072229559932" id="-26872">
		<tag k="name" v="Kalvevika" />
		<tag k="natural" v="bay" />
		<tag k="ssr:date" v="2019-12-27" />
		<tag k="ssr:gruppe" v="kystkontur" />
		<tag k="ssr:hovedgruppe" v="sjø" />
		<tag k="ssr:stedsnr" v="165212" />
		<tag k="ssr:type" v="vikISjø" />
	</node>
	<node lat="60.98339444584132" lon="4.682663892207859" id="-26873">
		<tag k="name" v="Kjelsøyna" />
		<tag k="place" v="islet" />
		<tag k="ssr:date" v="2019-12-27" />
		<tag k="ssr:gruppe" v="kystkontur" />
		<tag k="ssr:hovedgruppe" v="sjø" />
		<tag k="ssr:stedsnr" v="165106" />
		<tag k="ssr:type" v="holmeISjø" />
	</node>
	<node lat="61.06308055769189" lon="4.713219437395026" id="-26874">
		<tag k="name" v="Avløypeneset" />
		<tag k="natural" v="cape" />
		<tag k="ssr:date" v="2019-12-27" />
		<tag k="ssr:gruppe" v="kystkontur" />
		<tag k="ssr:hovedgruppe" v="sjø" />
		<tag k="ssr:stedsnr" v="165128" />
		<tag k="ssr:type" v="nesISjø" />
	</node>
	<node lat="61.06241110949033" lon="4.65168610790882" id="-26875">
		<tag k="name" v="Hellevika" />
		<tag k="natural" v="bay" />
		<tag k="ssr:date" v="2019-12-27" />
		<tag k="ssr:gruppe" v="kystkontur" />
		<tag k="ssr:hovedgruppe" v="sjø" />
		<tag k="ssr:stedsnr" v="165129" />
		<tag k="ssr:type" v="vikISjø" />
	</node>
	<node lat="61.00665555681494" lon="4.6612277745376085" id="-26876">
		<tag k="name" v="Klubbholmen" />
		<tag k="place" v="islet" />
		<tag k="ssr:date" v="2019-12-27" />
		<tag k="ssr:gruppe" v="kystkontur" />
		<tag k="ssr:hovedgruppe" v="sjø" />
		<tag k="ssr:stedsnr" v="165176" />
		<tag k="ssr:type" v="holmeISjø" />
	</node>
	<node lat="61.18928611472721" lon="4.977830560578549" id="-26877">
		<tag k="name" v="Rodalen" />
		<tag k="natural" v="valley" />
		<tag k="place" v="locality" />
		<tag k="ssr:date" v="2019-12-27" />
		<tag k="ssr:gruppe" v="senkninger" />
		<tag k="ssr:hovedgruppe" v="terreng" />
		<tag k="ssr:stedsnr" v="165303" />
		<tag k="ssr:type" v="dal" />
	</node>
	<node lat="61.18165833364044" lon="4.94226945062558" id="-26878">
		<tag k="name" v="Midholmen" />
		<tag k="place" v="islet" />
		<tag k="ssr:date" v="2019-12-27" />
		<tag k="ssr:gruppe" v="kystkontur" />
		<tag k="ssr:hovedgruppe" v="sjø" />
		<tag k="ssr:stedsnr" v="165272" />
		<tag k="ssr:type" v="holmeISjø" />
	</node>
	<node lat="61.19903611448775" lon="4.866547215781044" id="-26879">
		<tag k="name" v="Vassøyvågen" />
		<tag k="natural" v="bay" />
		<tag k="ssr:date" v="2019-12-27" />
		<tag k="ssr:gruppe" v="kystkontur" />
		<tag k="ssr:hovedgruppe" v="sjø" />
		<tag k="ssr:stedsnr" v="165463" />
		<tag k="ssr:type" v="vågISjø" />
	</node>
	<node lat="61.20505093959409" lon="4.862054225421984" id="-26880">
		<tag k="name" v="Buskneset" />
		<tag k="natural" v="cape" />
		<tag k="ssr:date" v="2019-12-27" />
		<tag k="ssr:gruppe" v="kystkontur" />
		<tag k="ssr:hovedgruppe" v="sjø" />
		<tag k="ssr:stedsnr" v="165467" />
		<tag k="ssr:type" v="nesISjø" />
	</node>
	<node lat="61.199730557862544" lon="4.875097214666644" id="-26881">
		<tag k="name" v="Søre Steinevika" />
		<tag k="natural" v="bay" />
		<tag k="ssr:date" v="2019-12-27" />
		<tag k="ssr:gruppe" v="kystkontur" />
		<tag k="ssr:hovedgruppe" v="sjø" />
		<tag k="ssr:stedsnr" v="165472" />
		<tag k="ssr:type" v="vikISjø" />
	</node>
	<node lat="61.19418888625662" lon="4.96659721734187" id="-26882">
		<tag k="name" v="Søre Heia" />
		<tag k="natural" v="hill" />
		<tag k="place" v="locality" />
		<tag k="ssr:date" v="2019-12-27" />
		<tag k="ssr:gruppe" v="høyder" />
		<tag k="ssr:hovedgruppe" v="terreng" />
		<tag k="ssr:stedsnr" v="165365" />
		<tag k="ssr:type" v="hei" />
	</node>
	<node lat="61.05972778179" lon="4.759622214727154" id="-26883">
		<tag k="name" v="Timrevikdalen" />
		<tag k="natural" v="valley" />
		<tag k="place" v="locality" />
		<tag k="ssr:date" v="2019-12-27" />
		<tag k="ssr:gruppe" v="senkninger" />
		<tag k="ssr:hovedgruppe" v="terreng" />
		<tag k="ssr:stedsnr" v="165526" />
		<tag k="ssr:type" v="dal" />
	</node>
	<node lat="61.0667499987679" lon="4.763705546632987" id="-26884">
		<tag k="name" v="Hundeviktjørnane" />
		<tag k="natural" v="water" />
		<tag k="ssr:date" v="2020-06-22" />
		<tag k="ssr:gruppe" v="stilleståendeVann" />
		<tag k="ssr:hovedgruppe" v="ferskvann" />
		<tag k="ssr:stedsnr" v="165579" />
		<tag k="ssr:type" v="gruppeAvTjern" />
		<tag k="water" v="lake" />
	</node>
	<node lat="61.07481389332947" lon="4.774533341637139" id="-26885">
		<tag k="name" v="Laskereset" />
		<tag k="natural" v="hill" />
		<tag k="place" v="locality" />
		<tag k="ssr:date" v="2019-12-27" />
		<tag k="ssr:gruppe" v="høyder" />
		<tag k="ssr:hovedgruppe" v="terreng" />
		<tag k="ssr:stedsnr" v="165582" />
		<tag k="ssr:type" v="haug" />
	</node>
	<node lat="61.07332222370894" lon="4.795194440763419" id="-26886">
		<tag k="name" v="Indre Selvika" />
		<tag k="natural" v="bay" />
		<tag k="ssr:date" v="2019-12-27" />
		<tag k="ssr:gruppe" v="kystkontur" />
		<tag k="ssr:hovedgruppe" v="sjø" />
		<tag k="ssr:stedsnr" v="165597" />
		<tag k="ssr:type" v="vikISjø" />
	</node>
	<node lat="61.08219166428869" lon="4.793413897375744" id="-26887">
		<tag k="name" v="Merkingsglåmen" />
		<tag k="natural" v="hill" />
		<tag k="place" v="locality" />
		<tag k="ssr:date" v="2019-12-27" />
		<tag k="ssr:gruppe" v="høyder" />
		<tag k="ssr:hovedgruppe" v="terreng" />
		<tag k="ssr:stedsnr" v="165812" />
		<tag k="ssr:type" v="haug" />
	</node>
	<node lat="61.08831944490986" lon="4.794227778991648" id="-26888">
		<tag k="name" v="Tobbevikholmen" />
		<tag k="place" v="islet" />
		<tag k="ssr:date" v="2019-12-27" />
		<tag k="ssr:gruppe" v="kystkontur" />
		<tag k="ssr:hovedgruppe" v="sjø" />
		<tag k="ssr:stedsnr" v="165817" />
		<tag k="ssr:type" v="holmeISjø" />
	</node>
	<node lat="61.080336107328684" lon="4.87009443771272" id="-26889">
		<tag k="name" v="Ingebervika" />
		<tag k="natural" v="bay" />
		<tag k="ssr:date" v="2019-12-27" />
		<tag k="ssr:gruppe" v="kystkontur" />
		<tag k="ssr:hovedgruppe" v="sjø" />
		<tag k="ssr:stedsnr" v="165858" />
		<tag k="ssr:type" v="vikISjø" />
	</node>
	<node lat="61.09485555645625" lon="4.881305548755713" id="-26890">
		<tag k="name" v="Lauvsteinbruna" />
		<tag k="natural" v="hill" />
		<tag k="place" v="locality" />
		<tag k="ssr:date" v="2019-12-27" />
		<tag k="ssr:gruppe" v="høyder" />
		<tag k="ssr:hovedgruppe" v="terreng" />
		<tag k="ssr:stedsnr" v="165863" />
		<tag k="ssr:type" v="haug" />
	</node>
	<node lat="61.13264999941975" lon="4.944866672285314" id="-26891">
		<tag k="alt_name" v="Eivika" />
		<tag k="loc_name" v="Eidvik" />
		<tag k="name" v="Eidvika" />
		<tag k="natural" v="bay" />
		<tag k="ssr:date" v="2019-12-27" />
		<tag k="ssr:gruppe" v="kystkontur" />
		<tag k="ssr:hovedgruppe" v="sjø" />
		<tag k="ssr:stedsnr" v="165784" />
		<tag k="ssr:type" v="vikISjø" />
	</node>
	<node lat="61.19340833148574" lon="4.757761104758741" id="-26892">
		<tag k="fixme" v="consider seamark:type=rock or natural=shoal" />
		<tag k="name" v="Skarvenakken" />
		<tag k="place" v="islet" />
		<tag k="ssr:date" v="2019-12-27" />
		<tag k="ssr:gruppe" v="grunnerISjø" />
		<tag k="ssr:hovedgruppe" v="sjø" />
		<tag k="ssr:stedsnr" v="166072" />
		<tag k="ssr:type" v="skjærISjø" />
	</node>
	<node lat="61.19428055712508" lon="4.750452783601858" id="-26893">
		<tag k="name" v="Manneskjerholmen" />
		<tag k="place" v="islet" />
		<tag k="ssr:date" v="2019-12-27" />
		<tag k="ssr:gruppe" v="kystkontur" />
		<tag k="ssr:hovedgruppe" v="sjø" />
		<tag k="ssr:stedsnr" v="166073" />
		<tag k="ssr:type" v="holmeISjø" />
	</node>
	<node lat="61.123916664292025" lon="5.01703889273204" id="-26894">
		<tag k="name" v="Geitekleiva" />
		<tag k="natural" v="gorge" />
		<tag k="ssr:date" v="2019-12-27" />
		<tag k="ssr:gruppe" v="senkninger" />
		<tag k="ssr:hovedgruppe" v="terreng" />
		<tag k="ssr:stedsnr" v="166459" />
		<tag k="ssr:type" v="juv" />
	</node>
	<node lat="61.152286114139145" lon="4.983661102800658" id="-26895">
		<tag k="name" v="Midtlona" />
		<tag k="natural" v="water" />
		<tag k="ssr:date" v="2019-12-27" />
		<tag k="ssr:gruppe" v="stilleståendeVann" />
		<tag k="ssr:hovedgruppe" v="ferskvann" />
		<tag k="ssr:stedsnr" v="166620" />
		<tag k="ssr:type" v="tjern" />
	</node>
	<node lat="61.19349166995256" lon="5.001008329256935" id="-26896">
		<tag k="name" v="Storeslettene" />
		<tag k="place" v="locality" />
		<tag k="ssr:date" v="2019-12-27" />
		<tag k="ssr:gruppe" v="flater" />
		<tag k="ssr:hovedgruppe" v="terreng" />
		<tag k="ssr:stedsnr" v="166518" />
		<tag k="ssr:type" v="slette" />
	</node>
	<node lat="61.16094722470746" lon="5.027638891835919" id="-26897">
		<tag k="name" v="Selleskorberga" />
		<tag k="natural" v="hill" />
		<tag k="place" v="locality" />
		<tag k="ssr:date" v="2019-12-27" />
		<tag k="ssr:gruppe" v="høyder" />
		<tag k="ssr:hovedgruppe" v="terreng" />
		<tag k="ssr:stedsnr" v="166723" />
		<tag k="ssr:type" v="berg" />
	</node>
	<node lat="61.127569441295314" lon="5.069902778881677" id="-26898">
		<tag k="name" v="Dalane" />
		<tag k="natural" v="valley" />
		<tag k="place" v="locality" />
		<tag k="ssr:date" v="2019-12-27" />
		<tag k="ssr:gruppe" v="senkninger" />
		<tag k="ssr:hovedgruppe" v="terreng" />
		<tag k="ssr:stedsnr" v="167021" />
		<tag k="ssr:type" v="dal" />
	</node>
	<node lat="61.093074995826925" lon="4.956597216743038" id="-26899">
		<tag k="name" v="Storelva" />
		<tag k="ssr:date" v="2019-12-27" />
		<tag k="ssr:gruppe" v="rennendeVann" />
		<tag k="ssr:hovedgruppe" v="ferskvann" />
		<tag k="ssr:stedsnr" v="166908" />
		<tag k="ssr:type" v="bekk" />
		<tag k="waterway" v="stream" />
	</node>
	<node lat="61.080472220810215" lon="4.951958324638593" id="-26900">
		<tag k="name" v="Årevika" />
		<tag k="natural" v="bay" />
		<tag k="ssr:date" v="2019-12-27" />
		<tag k="ssr:gruppe" v="kystkontur" />
		<tag k="ssr:hovedgruppe" v="sjø" />
		<tag k="ssr:stedsnr" v="166910" />
		<tag k="ssr:type" v="vikISjø" />
	</node>
	<node lat="61.164149995887655" lon="5.004141665539232" id="-26901">
		<tag k="name" v="Heia" />
		<tag k="natural" v="hill" />
		<tag k="place" v="locality" />
		<tag k="ssr:date" v="2019-12-27" />
		<tag k="ssr:gruppe" v="høyder" />
		<tag k="ssr:hovedgruppe" v="terreng" />
		<tag k="ssr:stedsnr" v="166979" />
		<tag k="ssr:type" v="hei" />
	</node>
	<node lat="61.108724995869935" lon="5.076441676043736" id="-26902">
		<tag k="name" v="Indre Torsholmen" />
		<tag k="place" v="islet" />
		<tag k="ssr:date" v="2019-12-27" />
		<tag k="ssr:gruppe" v="kystkontur" />
		<tag k="ssr:hovedgruppe" v="sjø" />
		<tag k="ssr:stedsnr" v="167060" />
		<tag k="ssr:type" v="holmeISjø" />
	</node>
	<node lat="61.20143054688128" lon="4.788790102414743" id="-26903">
		<tag k="name" v="Skomakaren" />
		<tag k="place" v="islet" />
		<tag k="ssr:date" v="2019-12-27" />
		<tag k="ssr:gruppe" v="kystkontur" />
		<tag k="ssr:hovedgruppe" v="sjø" />
		<tag k="ssr:stedsnr" v="173103" />
		<tag k="ssr:type" v="holmeISjø" />
	</node>
	<node lat="60.98352222574093" lon="4.607877770335201" id="-26904">
		<tag k="name" v="Ole Monsflua" />
		<tag k="natural" v="shoal" />
		<tag k="place" v="locality" />
		<tag k="ssr:date" v="2019-12-27" />
		<tag k="ssr:gruppe" v="grunnerISjø" />
		<tag k="ssr:hovedgruppe" v="sjø" />
		<tag k="ssr:stedsnr" v="189617" />
		<tag k="ssr:type" v="grunneISjø" />
	</node>
	<node lat="61.16012499704239" lon="4.9042416672306635" id="-26905">
		<tag k="name" v="Kvernhusvatnet" />
		<tag k="natural" v="water" />
		<tag k="ssr:date" v="2019-12-27" />
		<tag k="ssr:gruppe" v="stilleståendeVann" />
		<tag k="ssr:hovedgruppe" v="ferskvann" />
		<tag k="ssr:stedsnr" v="191006" />
		<tag k="ssr:type" v="tjern" />
	</node>
	<node lat="61.140563887995484" lon="4.95566944406388" id="-26906">
		<tag k="name" v="Saksevika" />
		<tag k="natural" v="bay" />
		<tag k="ssr:date" v="2019-12-27" />
		<tag k="ssr:gruppe" v="kystkontur" />
		<tag k="ssr:hovedgruppe" v="sjø" />
		<tag k="ssr:stedsnr" v="191157" />
		<tag k="ssr:type" v="vikISjø" />
	</node>
	<node lat="61.15513611101181" lon="5.026805563541699" id="-26907">
		<tag k="alt_name" v="Selleskorvikane" />
		<tag k="name" v="Seljeskorvikane" />
		<tag k="natural" v="bay" />
		<tag k="ssr:date" v="2019-12-27" />
		<tag k="ssr:gruppe" v="kystkontur" />
		<tag k="ssr:hovedgruppe" v="sjø" />
		<tag k="ssr:stedsnr" v="191176" />
		<tag k="ssr:type" v="vikISjø" />
	</node>
	<node lat="61.14924721856605" lon="5.024941663067075" id="-26908">
		<tag k="name" v="Gåsevika" />
		<tag k="natural" v="bay" />
		<tag k="ssr:date" v="2019-12-27" />
		<tag k="ssr:gruppe" v="kystkontur" />
		<tag k="ssr:hovedgruppe" v="sjø" />
		<tag k="ssr:stedsnr" v="191177" />
		<tag k="ssr:type" v="vikISjø" />
	</node>
	<node lat="61.09783029540844" lon="4.78564938250397" id="-26909">
		<tag k="fixme" v="consider place=hamlet" />
		<tag k="name" v="Stokkevåg" />
		<tag k="place" v="farm" />
		<tag k="ssr:date" v="2019-12-27" />
		<tag k="ssr:gruppe" v="gardsbebyggelse" />
		<tag k="ssr:hovedgruppe" v="bebyggelse" />
		<tag k="ssr:stedsnr" v="191314" />
		<tag k="ssr:type" v="gard" />
	</node>
	<node lat="61.09150833166842" lon="4.789908338154891" id="-26910">
		<tag k="name" v="Langemyra" />
		<tag k="natural" v="wetland" />
		<tag k="ssr:date" v="2019-12-27" />
		<tag k="ssr:gruppe" v="våtmark" />
		<tag k="ssr:hovedgruppe" v="markslag" />
		<tag k="ssr:stedsnr" v="191325" />
		<tag k="ssr:type" v="myr" />
	</node>
	<node lat="61.18172777595857" lon="4.940000000843265" id="-26911">
		<tag k="name" v="Ruskeholmen" />
		<tag k="place" v="islet" />
		<tag k="ssr:date" v="2019-12-27" />
		<tag k="ssr:gruppe" v="kystkontur" />
		<tag k="ssr:hovedgruppe" v="sjø" />
		<tag k="ssr:stedsnr" v="191054" />
		<tag k="ssr:type" v="holmeISjø" />
	</node>
	<node lat="61.18426666433629" lon="4.966300001943715" id="-26912">
		<tag k="alt_name" v="Langeholmen" />
		<tag k="name" v="Langholmen" />
		<tag k="place" v="islet" />
		<tag k="ssr:date" v="2019-12-27" />
		<tag k="ssr:gruppe" v="kystkontur" />
		<tag k="ssr:hovedgruppe" v="sjø" />
		<tag k="ssr:stedsnr" v="191055" />
		<tag k="ssr:type" v="holmeISjø" />
	</node>
	<node lat="61.186716670150695" lon="4.917938883222615" id="-26913">
		<tag k="name" v="Løketjørna" />
		<tag k="natural" v="water" />
		<tag k="ssr:date" v="2019-12-27" />
		<tag k="ssr:gruppe" v="stilleståendeVann" />
		<tag k="ssr:hovedgruppe" v="ferskvann" />
		<tag k="ssr:stedsnr" v="191060" />
		<tag k="ssr:type" v="tjern" />
	</node>
	<node lat="61.18568611213449" lon="4.894308336541856" id="-26914">
		<tag k="name" v="Arneset" />
		<tag k="natural" v="cape" />
		<tag k="ssr:date" v="2019-12-27" />
		<tag k="ssr:gruppe" v="kystkontur" />
		<tag k="ssr:hovedgruppe" v="sjø" />
		<tag k="ssr:stedsnr" v="191061" />
		<tag k="ssr:type" v="nesISjø" />
	</node>
	<node lat="61.16017221976421" lon="5.010411112485814" id="-26915">
		<tag k="alt_name" v="Melundevika" />
		<tag k="name" v="Medlundevika" />
		<tag k="natural" v="bay" />
		<tag k="ssr:date" v="2019-12-27" />
		<tag k="ssr:gruppe" v="kystkontur" />
		<tag k="ssr:hovedgruppe" v="sjø" />
		<tag k="ssr:stedsnr" v="191204" />
		<tag k="ssr:type" v="vikISjø" />
	</node>
	<node lat="61.16447222566533" lon="5.023397226336184" id="-26916">
		<tag k="name" v="Seljeskorneset" />
		<tag k="natural" v="cape" />
		<tag k="ssr:date" v="2019-12-27" />
		<tag k="ssr:gruppe" v="kystkontur" />
		<tag k="ssr:hovedgruppe" v="sjø" />
		<tag k="ssr:stedsnr" v="191207" />
		<tag k="ssr:type" v="nesISjø" />
	</node>
	<node lat="61.1387927387872" lon="4.78798104746" id="-26917">
		<tag k="fixme" v="consider place=hamlet" />
		<tag k="name" v="Lågøyna" />
		<tag k="place" v="farm" />
		<tag k="ssr:date" v="2021-06-08" />
		<tag k="ssr:gruppe" v="gardsbebyggelse" />
		<tag k="ssr:hovedgruppe" v="bebyggelse" />
		<tag k="ssr:stedsnr" v="191211" />
		<tag k="ssr:type" v="gard" />
	</node>
	<node lat="61.0703500004894" lon="4.792333326280416" id="-26918">
		<tag k="bay" v="fjord" />
		<tag k="name" v="Bjørnefjorden" />
		<tag k="natural" v="bay" />
		<tag k="ssr:date" v="2019-12-27" />
		<tag k="ssr:gruppe" v="farvann" />
		<tag k="ssr:hovedgruppe" v="sjø" />
		<tag k="ssr:stedsnr" v="191252" />
		<tag k="ssr:type" v="fjord" />
	</node>
	<node lat="61.0388138920818" lon="4.7557333420028955" id="-26919">
		<tag k="fixme" v="consider seamark:type=rock or natural=shoal" />
		<tag k="name" v="Seiskjeret" />
		<tag k="place" v="islet" />
		<tag k="ssr:date" v="2019-12-27" />
		<tag k="ssr:gruppe" v="grunnerISjø" />
		<tag k="ssr:hovedgruppe" v="sjø" />
		<tag k="ssr:stedsnr" v="191472" />
		<tag k="ssr:type" v="skjærISjø" />
	</node>
	<node lat="61.09344444583646" lon="4.709425002851248" id="-26920">
		<tag k="fixme" v="consider seamark:type=rock or natural=shoal" />
		<tag k="name" v="Grøneskjeret" />
		<tag k="place" v="islet" />
		<tag k="ssr:date" v="2019-12-27" />
		<tag k="ssr:gruppe" v="grunnerISjø" />
		<tag k="ssr:hovedgruppe" v="sjø" />
		<tag k="ssr:stedsnr" v="191710" />
		<tag k="ssr:type" v="skjærISjø" />
	</node>
	<node lat="61.085877776560835" lon="4.70025833110232" id="-26921">
		<tag k="name" v="Lundøyna" />
		<tag k="place" v="island" />
		<tag k="ssr:date" v="2019-12-27" />
		<tag k="ssr:gruppe" v="kystkontur" />
		<tag k="ssr:hovedgruppe" v="sjø" />
		<tag k="ssr:stedsnr" v="191713" />
		<tag k="ssr:type" v="øyISjø" />
	</node>
	<node lat="61.049233329612996" lon="4.53419443754695" id="-26922">
		<tag k="alt_name" v="Kvannskjeret, s;Søre Kvanskjeret" />
		<tag k="fixme" v="consider seamark:type=rock or natural=shoal" />
		<tag k="name" v="Søre Kvannskjeret" />
		<tag k="place" v="islet" />
		<tag k="ssr:date" v="2019-12-27" />
		<tag k="ssr:gruppe" v="grunnerISjø" />
		<tag k="ssr:hovedgruppe" v="sjø" />
		<tag k="ssr:stedsnr" v="191723" />
		<tag k="ssr:type" v="skjærISjø" />
	</node>
	<node lat="61.03796110717148" lon="4.5108250016012" id="-26923">
		<tag k="name" v="Utvær" />
		<tag k="place" v="island" />
		<tag k="ssr:date" v="2021-06-08" />
		<tag k="ssr:gruppe" v="kystkontur" />
		<tag k="ssr:hovedgruppe" v="sjø" />
		<tag k="ssr:stedsnr" v="191748" />
		<tag k="ssr:type" v="øyISjø" />
	</node>
	<node lat="61.05224444721786" lon="4.658566661018623" id="-26924">
		<tag k="name" v="Dammen" />
		<tag k="natural" v="bay" />
		<tag k="ssr:date" v="2019-12-27" />
		<tag k="ssr:gruppe" v="kystkontur" />
		<tag k="ssr:hovedgruppe" v="sjø" />
		<tag k="ssr:stedsnr" v="191753" />
		<tag k="ssr:type" v="vikISjø" />
	</node>
	<node lat="61.05272221999624" lon="4.688622229341825" id="-26925">
		<tag k="alt_name" v="Sperre  -  Vatnet" />
		<tag k="name" v="Sperrevatnet" />
		<tag k="natural" v="water" />
		<tag k="ssr:date" v="2019-12-27" />
		<tag k="ssr:gruppe" v="stilleståendeVann" />
		<tag k="ssr:hovedgruppe" v="ferskvann" />
		<tag k="ssr:stedsnr" v="191755" />
		<tag k="ssr:type" v="tjern" />
	</node>
	<node lat="61.213758331434086" lon="4.801322223754364" id="-26926">
		<tag k="name" v="Oksebåsholmen" />
		<tag k="place" v="islet" />
		<tag k="ssr:date" v="2019-12-27" />
		<tag k="ssr:gruppe" v="kystkontur" />
		<tag k="ssr:hovedgruppe" v="sjø" />
		<tag k="ssr:stedsnr" v="191871" />
		<tag k="ssr:type" v="holmeISjø" />
	</node>
	<node lat="61.21765833562879" lon="4.77087776933799" id="-26927">
		<tag k="alt_name" v="Tjørnholmen, nordre" />
		<tag k="name" v="Nordre Tjørnholmen" />
		<tag k="place" v="islet" />
		<tag k="ssr:date" v="2019-12-27" />
		<tag k="ssr:gruppe" v="kystkontur" />
		<tag k="ssr:hovedgruppe" v="sjø" />
		<tag k="ssr:stedsnr" v="191872" />
		<tag k="ssr:type" v="holmeISjø" />
	</node>
	<node lat="61.2095277791068" lon="4.752752776698264" id="-26928">
		<tag k="fixme" v="consider natural=peak for the most distinct mountains in the district" />
		<tag k="name" v="Ospefjellet" />
		<tag k="natural" v="hill" />
		<tag k="place" v="locality" />
		<tag k="ssr:date" v="2019-12-27" />
		<tag k="ssr:gruppe" v="høyder" />
		<tag k="ssr:hovedgruppe" v="terreng" />
		<tag k="ssr:stedsnr" v="191898" />
		<tag k="ssr:type" v="ås" />
	</node>
	<node lat="61.2097472180785" lon="4.80763611062515" id="-26929">
		<tag k="alt_name" v="Drevøyna" />
		<tag k="name" v="Drivøyna" />
		<tag k="place" v="island" />
		<tag k="ssr:date" v="2019-12-27" />
		<tag k="ssr:gruppe" v="kystkontur" />
		<tag k="ssr:hovedgruppe" v="sjø" />
		<tag k="ssr:stedsnr" v="191900" />
		<tag k="ssr:type" v="øyISjø" />
	</node>
	<node lat="61.01854166537073" lon="4.5717388798424246" id="-26930">
		<tag k="alt_name" v="Nordre Damfluskjeret" />
		<tag k="fixme" v="consider seamark:type=rock or natural=shoal" />
		<tag k="name" v="Nordre Damfliskjeret" />
		<tag k="place" v="islet" />
		<tag k="ssr:date" v="2019-12-27" />
		<tag k="ssr:gruppe" v="grunnerISjø" />
		<tag k="ssr:hovedgruppe" v="sjø" />
		<tag k="ssr:stedsnr" v="191915" />
		<tag k="ssr:type" v="skjærISjø" />
	</node>
	<node lat="61.02327222329599" lon="4.5247472161333375" id="-26931">
		<tag k="name" v="Dyroksen" />
		<tag k="place" v="islet" />
		<tag k="ssr:date" v="2019-12-27" />
		<tag k="ssr:gruppe" v="kystkontur" />
		<tag k="ssr:hovedgruppe" v="sjø" />
		<tag k="ssr:stedsnr" v="191916" />
		<tag k="ssr:type" v="holmeISjø" />
	</node>
	<node lat="61.028319447247895" lon="4.660322214069107" id="-26932">
		<tag k="name" v="Kleivetjørna" />
		<tag k="natural" v="water" />
		<tag k="ssr:date" v="2019-12-27" />
		<tag k="ssr:gruppe" v="stilleståendeVann" />
		<tag k="ssr:hovedgruppe" v="ferskvann" />
		<tag k="ssr:stedsnr" v="191919" />
		<tag k="ssr:type" v="tjern" />
	</node>
	<node lat="61.02731944271525" lon="4.648558326169898" id="-26933">
		<tag k="name" v="Stranda" />
		<tag k="natural" v="beach" />
		<tag k="ssr:date" v="2019-12-27" />
		<tag k="ssr:gruppe" v="kystkontur" />
		<tag k="ssr:hovedgruppe" v="sjø" />
		<tag k="ssr:stedsnr" v="191921" />
		<tag k="ssr:type" v="strandISjø" />
	</node>
	<node lat="61.02130278105757" lon="4.742997216952902" id="-26934">
		<tag k="name" v="Tverrlaupet" />
		<tag k="natural" v="strait" />
		<tag k="ssr:date" v="2019-12-27" />
		<tag k="ssr:gruppe" v="kystkontur" />
		<tag k="ssr:hovedgruppe" v="sjø" />
		<tag k="ssr:stedsnr" v="207144" />
		<tag k="ssr:type" v="sundISjø" />
	</node>
	<node lat="61.05835277696652" lon="4.532538897795508" id="-26935">
		<tag k="name" v="Flæene" />
		<tag k="natural" v="shoal" />
		<tag k="place" v="locality" />
		<tag k="ssr:date" v="2019-12-27" />
		<tag k="ssr:gruppe" v="grunnerISjø" />
		<tag k="ssr:hovedgruppe" v="sjø" />
		<tag k="ssr:stedsnr" v="207185" />
		<tag k="ssr:type" v="grunneISjø" />
	</node>
	<node lat="61.0528722215831" lon="4.760158336961051" id="-26936">
		<tag k="name" v="Rånøyvågen" />
		<tag k="natural" v="bay" />
		<tag k="ssr:date" v="2019-12-27" />
		<tag k="ssr:gruppe" v="kystkontur" />
		<tag k="ssr:hovedgruppe" v="sjø" />
		<tag k="ssr:stedsnr" v="268932" />
		<tag k="ssr:type" v="vikISjø" />
	</node>
	<node lat="61.09739444352246" lon="4.670663880355794" id="-26937">
		<tag k="alt_name" v="Kuleflu" />
		<tag k="name" v="Kuleflua" />
		<tag k="natural" v="shoal" />
		<tag k="place" v="locality" />
		<tag k="ssr:date" v="2019-12-27" />
		<tag k="ssr:gruppe" v="grunnerISjø" />
		<tag k="ssr:hovedgruppe" v="sjø" />
		<tag k="ssr:stedsnr" v="209674" />
		<tag k="ssr:type" v="grunneISjø" />
	</node>
	<node lat="61.110666668565614" lon="4.747336108174278" id="-26938">
		<tag k="fixme" v="consider seamark:type=rock or natural=shoal" />
		<tag k="name" v="Kariskjeret" />
		<tag k="place" v="islet" />
		<tag k="ssr:date" v="2019-12-27" />
		<tag k="ssr:gruppe" v="grunnerISjø" />
		<tag k="ssr:hovedgruppe" v="sjø" />
		<tag k="ssr:stedsnr" v="209679" />
		<tag k="ssr:type" v="skjærISjø" />
	</node>
	<node lat="61.011930556021994" lon="4.679358340550047" id="-26940">
		<tag k="name" v="Lona" />
		<tag k="natural" v="wetland" />
		<tag k="ssr:date" v="2019-12-27" />
		<tag k="ssr:gruppe" v="våtmark" />
		<tag k="ssr:hovedgruppe" v="markslag" />
		<tag k="ssr:stedsnr" v="225002" />
		<tag k="ssr:type" v="myr" />
	</node>
	<node lat="61.11223888452008" lon="4.787524995736885" id="-26941">
		<tag k="name" v="Storevika" />
		<tag k="natural" v="bay" />
		<tag k="ssr:date" v="2019-12-27" />
		<tag k="ssr:gruppe" v="kystkontur" />
		<tag k="ssr:hovedgruppe" v="sjø" />
		<tag k="ssr:stedsnr" v="225092" />
		<tag k="ssr:type" v="vikISjø" />
	</node>
	<node lat="61.08406111292992" lon="4.6939083390961525" id="-26942">
		<tag k="name" v="Husøyholmane" />
		<tag k="place" v="islet" />
		<tag k="ssr:date" v="2019-12-27" />
		<tag k="ssr:gruppe" v="kystkontur" />
		<tag k="ssr:hovedgruppe" v="sjø" />
		<tag k="ssr:stedsnr" v="225240" />
		<tag k="ssr:type" v="holmeISjø" />
	</node>
	<node lat="61.05204167082313" lon="4.790447220328582" id="-26943">
		<tag k="name" v="Fureholmkulen" />
		<tag k="place" v="islet" />
		<tag k="ssr:date" v="2019-12-27" />
		<tag k="ssr:gruppe" v="kystkontur" />
		<tag k="ssr:hovedgruppe" v="sjø" />
		<tag k="ssr:stedsnr" v="225738" />
		<tag k="ssr:type" v="holmeISjø" />
	</node>
	<node lat="61.04852777544521" lon="4.771983331033514" id="-26944">
		<tag k="name" v="Høljemyra" />
		<tag k="natural" v="wetland" />
		<tag k="ssr:date" v="2019-12-27" />
		<tag k="ssr:gruppe" v="våtmark" />
		<tag k="ssr:hovedgruppe" v="markslag" />
		<tag k="ssr:stedsnr" v="225739" />
		<tag k="ssr:type" v="myr" />
	</node>
	<node lat="61.143608331585874" lon="4.9146999969785945" id="-26945">
		<tag k="name" v="Grønemyra" />
		<tag k="natural" v="wetland" />
		<tag k="ssr:date" v="2019-12-27" />
		<tag k="ssr:gruppe" v="våtmark" />
		<tag k="ssr:hovedgruppe" v="markslag" />
		<tag k="ssr:stedsnr" v="225842" />
		<tag k="ssr:type" v="myr" />
	</node>
	<node lat="61.06117222106787" lon="4.871830548176456" id="-26946">
		<tag k="name" v="Barlindneset" />
		<tag k="natural" v="cape" />
		<tag k="ssr:date" v="2019-12-27" />
		<tag k="ssr:gruppe" v="kystkontur" />
		<tag k="ssr:hovedgruppe" v="sjø" />
		<tag k="ssr:stedsnr" v="226237" />
		<tag k="ssr:type" v="nesISjø" />
	</node>
	<node lat="61.129869444822" lon="4.733569448909208" id="-26947">
		<tag k="fixme" v="consider seamark:type=rock or natural=shoal" />
		<tag k="name" v="Saueholmskjeret" />
		<tag k="place" v="islet" />
		<tag k="ssr:date" v="2019-12-27" />
		<tag k="ssr:gruppe" v="grunnerISjø" />
		<tag k="ssr:hovedgruppe" v="sjø" />
		<tag k="ssr:stedsnr" v="226297" />
		<tag k="ssr:type" v="skjærISjø" />
	</node>
	<node lat="61.160424997076966" lon="4.858322228839205" id="-26948">
		<tag k="name" v="Skarpedalen" />
		<tag k="natural" v="valley" />
		<tag k="place" v="locality" />
		<tag k="ssr:date" v="2019-12-27" />
		<tag k="ssr:gruppe" v="senkninger" />
		<tag k="ssr:hovedgruppe" v="terreng" />
		<tag k="ssr:stedsnr" v="226183" />
		<tag k="ssr:type" v="dal" />
	</node>
	<node lat="61.16104166644277" lon="4.8497527842246475" id="-26949">
		<tag k="name" v="Steinevika" />
		<tag k="natural" v="bay" />
		<tag k="ssr:date" v="2019-12-27" />
		<tag k="ssr:gruppe" v="kystkontur" />
		<tag k="ssr:hovedgruppe" v="sjø" />
		<tag k="ssr:stedsnr" v="226201" />
		<tag k="ssr:type" v="vikISjø" />
	</node>
	<node lat="61.21464722222421" lon="4.901280551939176" id="-26950">
		<tag k="name" v="Austbø" />
		<tag k="place" v="farm" />
		<tag k="ssr:date" v="2019-12-27" />
		<tag k="ssr:gruppe" v="gardsbebyggelse" />
		<tag k="ssr:hovedgruppe" v="bebyggelse" />
		<tag k="ssr:stedsnr" v="226487" />
		<tag k="ssr:type" v="bruk" />
	</node>
	<node lat="61.07140278175004" lon="4.8304500064994595" id="-26951">
		<tag k="name" v="Kattholmen" />
		<tag k="place" v="islet" />
		<tag k="ssr:date" v="2019-12-27" />
		<tag k="ssr:gruppe" v="kystkontur" />
		<tag k="ssr:hovedgruppe" v="sjø" />
		<tag k="ssr:stedsnr" v="226695" />
		<tag k="ssr:type" v="holmeISjø" />
	</node>
	<node lat="61.068936115144716" lon="4.860702783853833" id="-26952">
		<tag k="name" v="Sandvika" />
		<tag k="natural" v="bay" />
		<tag k="ssr:date" v="2019-12-27" />
		<tag k="ssr:gruppe" v="kystkontur" />
		<tag k="ssr:hovedgruppe" v="sjø" />
		<tag k="ssr:stedsnr" v="226700" />
		<tag k="ssr:type" v="vikISjø" />
	</node>
	<node lat="61.020292252621424" lon="4.740966212813993" id="-26953">
		<tag k="name" v="Nordre Nåresundet" />
		<tag k="natural" v="strait" />
		<tag k="ssr:date" v="2021-06-08" />
		<tag k="ssr:gruppe" v="kystkontur" />
		<tag k="ssr:hovedgruppe" v="sjø" />
		<tag k="ssr:stedsnr" v="226835" />
		<tag k="ssr:type" v="sundISjø" />
	</node>
	<node lat="61.036822218676946" lon="4.763202782478569" id="-26954">
		<tag k="name" v="Lyngbakken" />
		<tag k="natural" v="slope" />
		<tag k="place" v="locality" />
		<tag k="ssr:date" v="2019-12-27" />
		<tag k="ssr:gruppe" v="skråninger" />
		<tag k="ssr:hovedgruppe" v="terreng" />
		<tag k="ssr:stedsnr" v="226811" />
		<tag k="ssr:type" v="bakke" />
	</node>
	<node lat="61.02252499742728" lon="4.783022223719088" id="-26955">
		<tag k="name" v="Oddegytten" />
		<tag k="natural" v="bay" />
		<tag k="ssr:date" v="2019-12-27" />
		<tag k="ssr:gruppe" v="kystkontur" />
		<tag k="ssr:hovedgruppe" v="sjø" />
		<tag k="ssr:stedsnr" v="226732" />
		<tag k="ssr:type" v="vikISjø" />
	</node>
	<node lat="61.17295277909592" lon="4.968780556337158" id="-26956">
		<tag k="name" v="Klovedalsheia" />
		<tag k="natural" v="hill" />
		<tag k="place" v="locality" />
		<tag k="ssr:date" v="2019-12-27" />
		<tag k="ssr:gruppe" v="høyder" />
		<tag k="ssr:hovedgruppe" v="terreng" />
		<tag k="ssr:stedsnr" v="226994" />
		<tag k="ssr:type" v="hei" />
	</node>
	<node lat="61.08366667049662" lon="4.784350005058034" id="-26957">
		<tag k="fixme" v="consider natural=peak for the most distinct mountains in the district" />
		<tag k="name" v="Kjerringerabbane" />
		<tag k="natural" v="hill" />
		<tag k="place" v="locality" />
		<tag k="ssr:date" v="2019-12-27" />
		<tag k="ssr:gruppe" v="høyder" />
		<tag k="ssr:hovedgruppe" v="terreng" />
		<tag k="ssr:stedsnr" v="226999" />
		<tag k="ssr:type" v="ås" />
	</node>
	<node lat="61.12339999560699" lon="4.9098972206857" id="-26958">
		<tag k="name" v="Hageholmen" />
		<tag k="old_name" v="Høgeholmen" />
		<tag k="place" v="islet" />
		<tag k="ssr:date" v="2019-12-27" />
		<tag k="ssr:gruppe" v="kystkontur" />
		<tag k="ssr:hovedgruppe" v="sjø" />
		<tag k="ssr:stedsnr" v="226881" />
		<tag k="ssr:type" v="holmeISjø" />
	</node>
	<node lat="61.13772221818825" lon="4.897944438631438" id="-26959">
		<tag k="name" v="Slåttevikneset" />
		<tag k="natural" v="cape" />
		<tag k="ssr:date" v="2019-12-27" />
		<tag k="ssr:gruppe" v="kystkontur" />
		<tag k="ssr:hovedgruppe" v="sjø" />
		<tag k="ssr:stedsnr" v="226896" />
		<tag k="ssr:type" v="nesISjø" />
	</node>
	<node lat="61.20754722480628" lon="4.842505551951775" id="-26960">
		<tag k="name" v="Andersvatnet" />
		<tag k="natural" v="water" />
		<tag k="ssr:date" v="2019-12-27" />
		<tag k="ssr:gruppe" v="stilleståendeVann" />
		<tag k="ssr:hovedgruppe" v="ferskvann" />
		<tag k="ssr:stedsnr" v="227388" />
		<tag k="ssr:type" v="vann" />
		<tag k="water" v="lake" />
	</node>
	<node lat="61.10531666343868" lon="4.891041671490234" id="-26961">
		<tag k="name" v="Nesseskaret" />
		<tag k="natural" v="valley" />
		<tag k="place" v="locality" />
		<tag k="ssr:date" v="2019-12-27" />
		<tag k="ssr:gruppe" v="senkninger" />
		<tag k="ssr:hovedgruppe" v="terreng" />
		<tag k="ssr:stedsnr" v="227991" />
		<tag k="ssr:type" v="skar" />
	</node>
	<node lat="61.137844443595476" lon="5.053988893431037" id="-26962">
		<tag k="name" v="Knutskaret" />
		<tag k="natural" v="valley" />
		<tag k="place" v="locality" />
		<tag k="ssr:date" v="2019-12-27" />
		<tag k="ssr:gruppe" v="senkninger" />
		<tag k="ssr:hovedgruppe" v="terreng" />
		<tag k="ssr:stedsnr" v="228032" />
		<tag k="ssr:type" v="skar" />
	</node>
	<node lat="61.09579166736202" lon="4.832202783718301" id="-26963">
		<tag k="alt_name" v="Skarveneset" />
		<tag k="name" v="Skarpeneset" />
		<tag k="natural" v="cape" />
		<tag k="ssr:date" v="2019-12-27" />
		<tag k="ssr:gruppe" v="kystkontur" />
		<tag k="ssr:hovedgruppe" v="sjø" />
		<tag k="ssr:stedsnr" v="449863" />
		<tag k="ssr:type" v="nesISjø" />
	</node>
	<node lat="61.09962221945883" lon="4.753297213375813" id="-26964">
		<tag k="name" v="Hegreneset" />
		<tag k="natural" v="cape" />
		<tag k="ssr:date" v="2019-12-27" />
		<tag k="ssr:gruppe" v="kystkontur" />
		<tag k="ssr:hovedgruppe" v="sjø" />
		<tag k="ssr:stedsnr" v="495348" />
		<tag k="ssr:type" v="nesISjø" />
	</node>
	<node lat="61.156108331807644" lon="4.8723888938561375" id="-26965">
		<tag k="alt_name" v="Vadvatnet, yt" />
		<tag k="name" v="Ytre Vadvatnet" />
		<tag k="natural" v="water" />
		<tag k="ssr:date" v="2019-12-27" />
		<tag k="ssr:gruppe" v="stilleståendeVann" />
		<tag k="ssr:hovedgruppe" v="ferskvann" />
		<tag k="ssr:stedsnr" v="234005" />
		<tag k="ssr:type" v="tjern" />
	</node>
	<node lat="61.197275004236765" lon="4.687947223581741" id="-26966">
		<tag k="name" v="Stokkefluene" />
		<tag k="natural" v="shoal" />
		<tag k="place" v="locality" />
		<tag k="ssr:date" v="2019-12-27" />
		<tag k="ssr:gruppe" v="grunnerISjø" />
		<tag k="ssr:hovedgruppe" v="sjø" />
		<tag k="ssr:stedsnr" v="234102" />
		<tag k="ssr:type" v="grunneISjø" />
	</node>
	<node lat="61.128211107458796" lon="4.817161117949712" id="-26967">
		<tag k="alt_name" v="Leirvika, nordre" />
		<tag k="name" v="Nordre Leirvika" />
		<tag k="natural" v="bay" />
		<tag k="ssr:date" v="2019-12-27" />
		<tag k="ssr:gruppe" v="kystkontur" />
		<tag k="ssr:hovedgruppe" v="sjø" />
		<tag k="ssr:stedsnr" v="234180" />
		<tag k="ssr:type" v="vikISjø" />
	</node>
	<node lat="61.168933337321924" lon="5.037202786448253" id="-26968">
		<tag k="name" v="Ytre Grøfta" />
		<tag k="natural" v="gorge" />
		<tag k="ssr:date" v="2019-12-27" />
		<tag k="ssr:gruppe" v="senkninger" />
		<tag k="ssr:hovedgruppe" v="terreng" />
		<tag k="ssr:stedsnr" v="234278" />
		<tag k="ssr:type" v="juv" />
	</node>
	<node lat="61.144283332899235" lon="4.8911416711747515" id="-26969">
		<tag k="name" v="Vaulevågen" />
		<tag k="natural" v="bay" />
		<tag k="ssr:date" v="2019-12-27" />
		<tag k="ssr:gruppe" v="kystkontur" />
		<tag k="ssr:hovedgruppe" v="sjø" />
		<tag k="ssr:stedsnr" v="234402" />
		<tag k="ssr:type" v="vikISjø" />
	</node>
	<node lat="60.99078611456133" lon="4.59867778305172" id="-26970">
		<tag k="name" v="Lyngøyna" />
		<tag k="place" v="islet" />
		<tag k="ssr:date" v="2019-12-27" />
		<tag k="ssr:gruppe" v="kystkontur" />
		<tag k="ssr:hovedgruppe" v="sjø" />
		<tag k="ssr:stedsnr" v="450095" />
		<tag k="ssr:type" v="holmeISjø" />
	</node>
	<node lat="60.98869444656129" lon="4.579013879617583" id="-26971">
		<tag k="fixme" v="consider seamark:type=rock or natural=shoal" />
		<tag k="name" v="Håskjeret" />
		<tag k="place" v="islet" />
		<tag k="ssr:date" v="2019-12-27" />
		<tag k="ssr:gruppe" v="grunnerISjø" />
		<tag k="ssr:hovedgruppe" v="sjø" />
		<tag k="ssr:stedsnr" v="450097" />
		<tag k="ssr:type" v="skjærISjø" />
	</node>
	<node lat="61.03727777591466" lon="4.646155563228294" id="-26972">
		<tag k="name" v="Sørosen" />
		<tag k="natural" v="strait" />
		<tag k="ssr:date" v="2019-12-27" />
		<tag k="ssr:gruppe" v="kystkontur" />
		<tag k="ssr:hovedgruppe" v="sjø" />
		<tag k="ssr:stedsnr" v="450153" />
		<tag k="ssr:type" v="sundISjø" />
	</node>
	<node lat="61.0467602232288" lon="4.638925820332076" id="-26973">
		<tag k="name" v="Krukka" />
		<tag k="natural" v="shoal" />
		<tag k="place" v="locality" />
		<tag k="ssr:date" v="2019-12-27" />
		<tag k="ssr:gruppe" v="grunnerISjø" />
		<tag k="ssr:hovedgruppe" v="sjø" />
		<tag k="ssr:stedsnr" v="450159" />
		<tag k="ssr:type" v="grunneISjø" />
	</node>
	<node lat="61.17711388935148" lon="4.682288882318778" id="-26974">
		<tag k="fixme" v="consider seamark:type=rock or natural=shoal" />
		<tag k="name" v="Kvalen" />
		<tag k="place" v="islet" />
		<tag k="ssr:date" v="2019-12-27" />
		<tag k="ssr:gruppe" v="grunnerISjø" />
		<tag k="ssr:hovedgruppe" v="sjø" />
		<tag k="ssr:stedsnr" v="235882" />
		<tag k="ssr:type" v="skjærISjø" />
	</node>
	<node lat="61.03228889323729" lon="4.585463887919232" id="-26975">
		<tag k="alt_name" v="Sengskjera" />
		<tag k="fixme" v="consider seamark:type=rock or natural=shoal" />
		<tag k="name" v="Sædingsskjera" />
		<tag k="place" v="islet" />
		<tag k="ssr:date" v="2019-12-27" />
		<tag k="ssr:gruppe" v="grunnerISjø" />
		<tag k="ssr:hovedgruppe" v="sjø" />
		<tag k="ssr:stedsnr" v="494778" />
		<tag k="ssr:type" v="skjærISjø" />
	</node>
	<node lat="61.06414999862547" lon="4.756905549140102" id="-26976">
		<tag k="name" v="Rånestrømmen" />
		<tag k="natural" v="strait" />
		<tag k="ssr:date" v="2019-12-27" />
		<tag k="ssr:gruppe" v="kystkontur" />
		<tag k="ssr:hovedgruppe" v="sjø" />
		<tag k="ssr:stedsnr" v="450932" />
		<tag k="ssr:type" v="sundISjø" />
	</node>
	<node lat="61.02481389040425" lon="4.535427771525762" id="-26977">
		<tag k="alt_name" v="Sylvskjera;Solvikskjera" />
		<tag k="fixme" v="consider seamark:type=rock or natural=shoal" />
		<tag k="name" v="Solveskjera" />
		<tag k="place" v="islet" />
		<tag k="ssr:date" v="2019-12-27" />
		<tag k="ssr:gruppe" v="grunnerISjø" />
		<tag k="ssr:hovedgruppe" v="sjø" />
		<tag k="ssr:stedsnr" v="252918" />
		<tag k="ssr:type" v="skjærISjø" />
	</node>
	<node lat="61.02024166494112" lon="4.593738881464917" id="-26978">
		<tag k="alt_name" v="Gårsøyna" />
		<tag k="name" v="Gåsøyna" />
		<tag k="place" v="islet" />
		<tag k="ssr:date" v="2019-12-27" />
		<tag k="ssr:gruppe" v="kystkontur" />
		<tag k="ssr:hovedgruppe" v="sjø" />
		<tag k="ssr:stedsnr" v="252921" />
		<tag k="ssr:type" v="holmeISjø" />
	</node>
	<node lat="61.01981111509388" lon="4.6677861077973475" id="-26979">
		<tag k="name" v="Straumspollen" />
		<tag k="natural" v="bay" />
		<tag k="ssr:date" v="2019-12-27" />
		<tag k="ssr:gruppe" v="kystkontur" />
		<tag k="ssr:hovedgruppe" v="sjø" />
		<tag k="ssr:stedsnr" v="252925" />
		<tag k="ssr:type" v="vikISjø" />
	</node>
	<node lat="60.9901222205625" lon="4.689886109194622" id="-26980">
		<tag k="alt_name" v="Ingebrigt - holmen" />
		<tag k="name" v="Ingebergholmen" />
		<tag k="place" v="islet" />
		<tag k="ssr:date" v="2019-12-27" />
		<tag k="ssr:gruppe" v="kystkontur" />
		<tag k="ssr:hovedgruppe" v="sjø" />
		<tag k="ssr:stedsnr" v="268107" />
		<tag k="ssr:type" v="holmeISjø" />
	</node>
	<node lat="61.07578610751755" lon="4.824963889881971" id="-26981">
		<tag k="fixme" v="consider seamark:type=rock or natural=shoal" />
		<tag k="name" v="Skarveskjeret" />
		<tag k="old_name" v="Skarveskjert" />
		<tag k="place" v="islet" />
		<tag k="ssr:date" v="2019-12-27" />
		<tag k="ssr:gruppe" v="grunnerISjø" />
		<tag k="ssr:hovedgruppe" v="sjø" />
		<tag k="ssr:stedsnr" v="268866" />
		<tag k="ssr:type" v="skjærISjø" />
	</node>
	<node lat="61.070174997669845" lon="4.841458325020888" id="-26982">
		<tag k="name" v="Storehaugen" />
		<tag k="place" v="quarter" />
		<tag k="ssr:date" v="2019-12-27" />
		<tag k="ssr:gruppe" v="bebyggelsesområder" />
		<tag k="ssr:hovedgruppe" v="bebyggelse" />
		<tag k="ssr:stedsnr" v="282693" />
		<tag k="ssr:type" v="boligfelt" />
	</node>
	<node lat="61.01647222468049" lon="4.682083332689052" id="-26984">
		<tag k="name" v="Vindnova" />
		<tag k="natural" v="hill" />
		<tag k="place" v="locality" />
		<tag k="ssr:date" v="2019-12-27" />
		<tag k="ssr:gruppe" v="høyder" />
		<tag k="ssr:hovedgruppe" v="terreng" />
		<tag k="ssr:stedsnr" v="286006" />
		<tag k="ssr:type" v="haug" />
	</node>
	<node lat="60.99354722510582" lon="4.687991662598403" id="-26985">
		<tag k="name" v="Rongsnesklubben" />
		<tag k="natural" v="hill" />
		<tag k="place" v="locality" />
		<tag k="ssr:date" v="2019-12-27" />
		<tag k="ssr:gruppe" v="høyder" />
		<tag k="ssr:hovedgruppe" v="terreng" />
		<tag k="ssr:stedsnr" v="286102" />
		<tag k="ssr:type" v="haug" />
	</node>
	<node lat="60.98886944380365" lon="4.68072777180656" id="-26986">
		<tag k="name" v="Plittholmen" />
		<tag k="place" v="islet" />
		<tag k="ssr:date" v="2019-12-27" />
		<tag k="ssr:gruppe" v="kystkontur" />
		<tag k="ssr:hovedgruppe" v="sjø" />
		<tag k="ssr:stedsnr" v="286105" />
		<tag k="ssr:type" v="holmeISjø" />
	</node>
	<node lat="61.087994443450185" lon="4.684416669119867" id="-26987">
		<tag k="name" v="Øyasundvika" />
		<tag k="natural" v="bay" />
		<tag k="ssr:date" v="2019-12-27" />
		<tag k="ssr:gruppe" v="kystkontur" />
		<tag k="ssr:hovedgruppe" v="sjø" />
		<tag k="ssr:stedsnr" v="286230" />
		<tag k="ssr:type" v="vikISjø" />
	</node>
	<node lat="61.18720277656851" lon="4.692622218522694" id="-26988">
		<tag k="fixme" v="consider seamark:type=rock or natural=shoal" />
		<tag k="name" v="Rundeskjeret" />
		<tag k="place" v="islet" />
		<tag k="ssr:date" v="2019-12-27" />
		<tag k="ssr:gruppe" v="grunnerISjø" />
		<tag k="ssr:hovedgruppe" v="sjø" />
		<tag k="ssr:stedsnr" v="286430" />
		<tag k="ssr:type" v="skjærISjø" />
	</node>
</osm>
