<?xml version="1.0" encoding="UTF-8"?>
<osm version="0.6" generator="osmapis">
	<node lat="61.11328294298322" lon="4.7505872873429436" id="-73859">
		<tag k="alt_name" v="Larsråholmen" />
		<tag k="name" v="Larsråholmen lykt" />
		<tag k="ssr:date" v="2020-09-08" />
		<tag k="ssr:gruppe" v="navigasjon" />
		<tag k="ssr:hovedgruppe" v="infrastruktur" />
		<tag k="ssr:stedsnr" v="9096" />
		<tag k="ssr:type" v="fyrlykt" />
	</node>
	<node lat="61.01258888538102" lon="4.664288889996756" id="-73875">
		<tag k="name" v="Kolgrov, øvre" />
		<tag k="old_name" v="Øvre Kolgrov" />
		<tag k="ssr:date" v="2019-12-27" />
		<tag k="ssr:gruppe" v="navigasjon" />
		<tag k="ssr:hovedgruppe" v="infrastruktur" />
		<tag k="ssr:stedsnr" v="25183" />
		<tag k="ssr:type" v="fyrlykt" />
	</node>
	<node lat="61.16302222254335" lon="5.060088892795183" id="-74242">
		<tag k="name" v="Fureneset lanterne" />
		<tag k="ssr:date" v="2019-12-27" />
		<tag k="ssr:gruppe" v="navigasjon" />
		<tag k="ssr:hovedgruppe" v="infrastruktur" />
		<tag k="ssr:stedsnr" v="283477" />
		<tag k="ssr:type" v="lanterne" />
	</node>
	<node lat="61.14815344517772" lon="5.02400442006937" id="-74394">
		<tag k="name" v="Lasken" />
		<tag k="ssr:date" v="2019-12-27" />
		<tag k="ssr:gruppe" v="navigasjon" />
		<tag k="ssr:hovedgruppe" v="infrastruktur" />
		<tag k="ssr:stedsnr" v="477443" />
		<tag k="ssr:type" v="lanterne" />
	</node>
	<node lat="61.15561817046986" lon="5.018509360490337" id="-74420">
		<tag k="alt_name" v="Seglsteinen" />
		<tag k="name" v="Seglsteinen lykt" />
		<tag k="ssr:date" v="2020-09-03" />
		<tag k="ssr:gruppe" v="navigasjon" />
		<tag k="ssr:hovedgruppe" v="infrastruktur" />
		<tag k="ssr:stedsnr" v="373214" />
		<tag k="ssr:type" v="fyrlykt" />
	</node>
	<node lat="61.039399996907854" lon="4.741530554015057" id="-74425">
		<tag k="alt_name" v="Fængskjær;Fængskjær lykt" />
		<tag k="name" v="Fengskjeret lykt" />
		<tag k="ssr:date" v="2019-12-27" />
		<tag k="ssr:gruppe" v="navigasjon" />
		<tag k="ssr:hovedgruppe" v="infrastruktur" />
		<tag k="ssr:stedsnr" v="373507" />
		<tag k="ssr:type" v="fyrlykt" />
	</node>
	<node lat="61.036524833428366" lon="4.7418178966821305" id="-74474">
		<tag k="alt_name" v="Ytre Steinsund" />
		<tag k="name" v="Ytre Steinsund lykt" />
		<tag k="old_name" v="Steinsund, yt" />
		<tag k="ssr:date" v="2020-09-08" />
		<tag k="ssr:gruppe" v="navigasjon" />
		<tag k="ssr:hovedgruppe" v="infrastruktur" />
		<tag k="ssr:stedsnr" v="418620" />
		<tag k="ssr:type" v="fyrlykt" />
	</node>
	<node lat="61.09188016611748" lon="4.683414729149117" id="-74525">
		<tag k="alt_name" v="Øisundet" />
		<tag k="name" v="Øisundet lykt" />
		<tag k="ssr:date" v="2020-09-08" />
		<tag k="ssr:gruppe" v="navigasjon" />
		<tag k="ssr:hovedgruppe" v="infrastruktur" />
		<tag k="ssr:stedsnr" v="494741" />
		<tag k="ssr:type" v="fyrlykt" />
	</node>
	<node lat="61.011744444033646" lon="4.658163882018203" id="-74710">
		<tag k="alt_name" v="Kisteholmflu" />
		<tag k="name" v="Kisteholmflu lykt" />
		<tag k="ssr:date" v="2019-12-27" />
		<tag k="ssr:gruppe" v="navigasjon" />
		<tag k="ssr:hovedgruppe" v="infrastruktur" />
		<tag k="ssr:stedsnr" v="692167" />
		<tag k="ssr:type" v="fyrlykt" />
	</node>
	<node lat="61.12190578030369" lon="5.030470994861772" id="-74771">
		<tag k="alt_name" v="Klauva" />
		<tag k="name" v="Klauva lykt" />
		<tag k="ssr:date" v="2020-09-08" />
		<tag k="ssr:gruppe" v="navigasjon" />
		<tag k="ssr:hovedgruppe" v="infrastruktur" />
		<tag k="ssr:stedsnr" v="616341" />
		<tag k="ssr:type" v="fyrlykt" />
	</node>
	<node lat="61.20137355178145" lon="4.789003127717337" id="-74788">
		<tag k="alt_name" v="Skomakeren;Skomakeren lykt" />
		<tag k="name" v="Skomakaren lykt" />
		<tag k="old_name" v="Drivøysund;Drivøysund lykt" />
		<tag k="ssr:date" v="2019-12-27" />
		<tag k="ssr:gruppe" v="navigasjon" />
		<tag k="ssr:hovedgruppe" v="infrastruktur" />
		<tag k="ssr:stedsnr" v="707355" />
		<tag k="ssr:type" v="fyrlykt" />
	</node>
	<node lat="61.206341699836564" lon="4.823143817272102" id="-74832">
		<tag k="alt_name" v="Notskjæret" />
		<tag k="name" v="Notskjeret lykt" />
		<tag k="ssr:date" v="2020-09-08" />
		<tag k="ssr:gruppe" v="navigasjon" />
		<tag k="ssr:hovedgruppe" v="infrastruktur" />
		<tag k="ssr:stedsnr" v="676934" />
		<tag k="ssr:type" v="fyrlykt" />
	</node>
	<node lat="61.108336108229736" lon="4.754691668610614" id="-74904">
		<tag k="name" v="Karinakken" />
		<tag k="ssr:date" v="2019-12-27" />
		<tag k="ssr:gruppe" v="sjøbunn" />
		<tag k="ssr:hovedgruppe" v="sjø" />
		<tag k="ssr:stedsnr" v="695678" />
		<tag k="ssr:type" v="søkkISjø" />
	</node>
	<node lat="61.059226773005854" lon="4.821743571324649" id="-75033">
		<tag k="alt_name" v="Indre Steinsund;Indre Steinsund lykt" />
		<tag k="name" v="Indre Steinsundet" />
		<tag k="old_name" v="Steinsund, in" />
		<tag k="ssr:date" v="2020-09-08" />
		<tag k="ssr:gruppe" v="navigasjon" />
		<tag k="ssr:hovedgruppe" v="infrastruktur" />
		<tag k="ssr:stedsnr" v="798248" />
		<tag k="ssr:type" v="fyrlykt" />
	</node>
	<node lat="61.149291631160764" lon="4.792581268480025" id="-75089">
		<tag k="alt_name" v="Vardeholmen" />
		<tag k="name" v="Vardeholmen lykt" />
		<tag k="old_name" v="Vardholmen" />
		<tag k="ssr:date" v="2020-09-08" />
		<tag k="ssr:gruppe" v="navigasjon" />
		<tag k="ssr:hovedgruppe" v="infrastruktur" />
		<tag k="ssr:stedsnr" v="919234" />
		<tag k="ssr:type" v="fyrlykt" />
	</node>
	<node lat="61.06062499822175" lon="4.819633339320519" id="-75099">
		<tag k="name" v="Vindnova lanterne" />
		<tag k="ssr:date" v="2019-12-27" />
		<tag k="ssr:gruppe" v="navigasjon" />
		<tag k="ssr:hovedgruppe" v="infrastruktur" />
		<tag k="ssr:stedsnr" v="816788" />
		<tag k="ssr:type" v="lanterne" />
	</node>
	<node lat="61.2101049238397" lon="4.853153325004428" id="-75165">
		<tag k="alt_name" v="Steinsøy" />
		<tag k="name" v="Steinsøyna lykt" />
		<tag k="ssr:date" v="2020-09-08" />
		<tag k="ssr:gruppe" v="navigasjon" />
		<tag k="ssr:hovedgruppe" v="infrastruktur" />
		<tag k="ssr:stedsnr" v="859923" />
		<tag k="ssr:type" v="fyrlykt" />
	</node>
	<node lat="61.0037277748449" lon="4.658575009464216" id="-75173">
		<tag k="alt_name" v="Husøyostaren" />
		<tag k="name" v="Husøyostaren lykt" />
		<tag k="ssr:date" v="2019-12-27" />
		<tag k="ssr:gruppe" v="navigasjon" />
		<tag k="ssr:hovedgruppe" v="infrastruktur" />
		<tag k="ssr:stedsnr" v="935171" />
		<tag k="ssr:type" v="fyrlykt" />
	</node>
	<node lat="61.01187147886602" lon="4.720714506159033" id="-75283">
		<tag k="name" v="Trovågen" />
		<tag k="ssr:date" v="2019-12-27" />
		<tag k="ssr:gruppe" v="veg" />
		<tag k="ssr:hovedgruppe" v="infrastruktur" />
		<tag k="ssr:stedsnr" v="973501" />
		<tag k="ssr:type" v="adressenavn" />
	</node>
	<node lat="61.07043889285612" lon="4.812026657363746" id="-75284">
		<tag k="name" v="Steinsund" />
		<tag k="ssr:date" v="2019-12-27" />
		<tag k="ssr:gruppe" v="veg" />
		<tag k="ssr:hovedgruppe" v="infrastruktur" />
		<tag k="ssr:stedsnr" v="973502" />
		<tag k="ssr:type" v="adressenavn" />
	</node>
	<node lat="61.15059533566583" lon="4.8331324833447376" id="-75285">
		<tag k="name" v="Drengenesvegen" />
		<tag k="ssr:date" v="2019-12-27" />
		<tag k="ssr:gruppe" v="veg" />
		<tag k="ssr:hovedgruppe" v="infrastruktur" />
		<tag k="ssr:stedsnr" v="973503" />
		<tag k="ssr:type" v="adressenavn" />
	</node>
	<node lat="61.02626472023506" lon="4.780086760600182" id="-75290">
		<tag k="name" v="Tungodden" />
		<tag k="ssr:date" v="2019-12-27" />
		<tag k="ssr:gruppe" v="veg" />
		<tag k="ssr:hovedgruppe" v="infrastruktur" />
		<tag k="ssr:stedsnr" v="973513" />
		<tag k="ssr:type" v="adressenavn" />
	</node>
	<node lat="61.07865433723608" lon="4.839343887635572" id="-75291">
		<tag k="name" v="Klubben" />
		<tag k="ssr:date" v="2019-12-27" />
		<tag k="ssr:gruppe" v="veg" />
		<tag k="ssr:hovedgruppe" v="infrastruktur" />
		<tag k="ssr:stedsnr" v="973514" />
		<tag k="ssr:type" v="adressenavn" />
	</node>
	<node lat="61.0669101971155" lon="4.748753189273003" id="-75292">
		<tag k="name" v="Tangenesvegen" />
		<tag k="ssr:date" v="2019-12-27" />
		<tag k="ssr:gruppe" v="veg" />
		<tag k="ssr:hovedgruppe" v="infrastruktur" />
		<tag k="ssr:stedsnr" v="973515" />
		<tag k="ssr:type" v="adressenavn" />
	</node>
	<node lat="61.07929406271324" lon="4.697360673594677" id="-75293">
		<tag k="name" v="Ytrøyvegen" />
		<tag k="ssr:date" v="2019-12-27" />
		<tag k="ssr:gruppe" v="veg" />
		<tag k="ssr:hovedgruppe" v="infrastruktur" />
		<tag k="ssr:stedsnr" v="973500" />
		<tag k="ssr:type" v="adressenavn" />
	</node>
	<node lat="60.99964206689404" lon="4.657373370680201" id="-75305">
		<tag k="alt_name" v="Søre Nåsa;Søre Nåsa lykt" />
		<tag k="name" v="Søre Nosa lykt" />
		<tag k="ssr:date" v="2019-12-27" />
		<tag k="ssr:gruppe" v="navigasjon" />
		<tag k="ssr:hovedgruppe" v="infrastruktur" />
		<tag k="ssr:stedsnr" v="7636" />
		<tag k="ssr:type" v="fyrlykt" />
	</node>
	<node lat="61.038259984771436" lon="4.640044279519364" id="-75360">
		<tag k="alt_name" v="Syltholmen" />
		<tag k="name" v="Syltholmen lykt" />
		<tag k="ssr:date" v="2020-09-08" />
		<tag k="ssr:gruppe" v="navigasjon" />
		<tag k="ssr:hovedgruppe" v="infrastruktur" />
		<tag k="ssr:stedsnr" v="9780" />
		<tag k="ssr:type" v="fyrlykt" />
	</node>
	<node lat="61.03750495578348" lon="4.874973082404691" id="-75373">
		<tag k="name" v="Grønholmen lanterne" />
		<tag k="ssr:date" v="2020-09-01" />
		<tag k="ssr:gruppe" v="navigasjon" />
		<tag k="ssr:hovedgruppe" v="infrastruktur" />
		<tag k="ssr:stedsnr" v="39373" />
		<tag k="ssr:type" v="lanterne" />
	</node>
	<node lat="61.056029800867805" lon="4.936249488278567" id="-75456">
		<tag k="alt_name" v="Kråkeneset" />
		<tag k="name" v="Kråkeneset lykt" />
		<tag k="ssr:date" v="2020-09-08" />
		<tag k="ssr:gruppe" v="navigasjon" />
		<tag k="ssr:hovedgruppe" v="infrastruktur" />
		<tag k="ssr:stedsnr" v="70250" />
		<tag k="ssr:type" v="fyrlykt" />
	</node>
	<node lat="61.0136826461187" lon="4.6477411025818975" id="-75480">
		<tag k="alt_name" v="Legøyna" />
		<tag k="name" v="Legøyna lykt" />
		<tag k="old_name" v="Legøy" />
		<tag k="ssr:date" v="2020-09-08" />
		<tag k="ssr:gruppe" v="navigasjon" />
		<tag k="ssr:hovedgruppe" v="infrastruktur" />
		<tag k="ssr:stedsnr" v="70957" />
		<tag k="ssr:type" v="fyrlykt" />
	</node>
	<node lat="60.987499998093014" lon="4.323611116692969" id="-75542">
		<tag k="name" v="Langryggene" />
		<tag k="ssr:date" v="2019-12-27" />
		<tag k="ssr:gruppe" v="sjøbunn" />
		<tag k="ssr:hovedgruppe" v="sjø" />
		<tag k="ssr:stedsnr" v="118752" />
		<tag k="ssr:type" v="ryggISjø" />
	</node>
	<node lat="60.982958708119675" lon="4.707031564070188" id="-75551">
		<tag k="alt_name" v="Kverknappen" />
		<tag k="name" v="Kverknappen lykt" />
		<tag k="old_name" v="Kværeknap" />
		<tag k="ssr:date" v="2020-09-08" />
		<tag k="ssr:gruppe" v="navigasjon" />
		<tag k="ssr:hovedgruppe" v="infrastruktur" />
		<tag k="ssr:stedsnr" v="128636" />
		<tag k="ssr:type" v="fyrlykt" />
	</node>
	<node lat="61.09710995117822" lon="4.820263175169121" id="-75664">
		<tag k="alt_name" v="Taskholmen" />
		<tag k="name" v="Taskholmen lykt" />
		<tag k="ssr:date" v="2020-09-08" />
		<tag k="ssr:gruppe" v="navigasjon" />
		<tag k="ssr:hovedgruppe" v="infrastruktur" />
		<tag k="ssr:stedsnr" v="191294" />
		<tag k="ssr:type" v="fyrlykt" />
	</node>
	<node lat="60.99972835016556" lon="4.657224486133825" id="-75680">
		<tag k="name" v="Søre Nosa varde" />
		<tag k="ssr:date" v="2019-12-27" />
		<tag k="ssr:gruppe" v="navigasjon" />
		<tag k="ssr:hovedgruppe" v="infrastruktur" />
		<tag k="ssr:stedsnr" v="191960" />
		<tag k="ssr:type" v="sjøvarde" />
	</node>
	<node lat="61.15552682692833" lon="4.655925234236979" id="-75809">
		<tag k="alt_name" v="Kråkestein" />
		<tag k="name" v="Kråkestein lykt" />
		<tag k="ssr:date" v="2020-09-08" />
		<tag k="ssr:gruppe" v="navigasjon" />
		<tag k="ssr:hovedgruppe" v="infrastruktur" />
		<tag k="ssr:stedsnr" v="312837" />
		<tag k="ssr:type" v="fyrlykt" />
	</node>
	<node lat="61.222135030391854" lon="4.720727765957489" id="-75853">
		<tag k="alt_name" v="Ospøytåa" />
		<tag k="name" v="Ospøytåna" />
		<tag k="ssr:date" v="2020-09-08" />
		<tag k="ssr:gruppe" v="navigasjon" />
		<tag k="ssr:hovedgruppe" v="infrastruktur" />
		<tag k="ssr:stedsnr" v="313997" />
		<tag k="ssr:type" v="fyrlykt" />
	</node>
	<node lat="61.0078250020333" lon="4.616911104970606" id="-75923">
		<tag k="alt_name" v="Lilleholmen;Lilleholmen lykt" />
		<tag k="name" v="Litleholmen lykt" />
		<tag k="ssr:date" v="2019-12-27" />
		<tag k="ssr:gruppe" v="navigasjon" />
		<tag k="ssr:hovedgruppe" v="infrastruktur" />
		<tag k="ssr:stedsnr" v="357641" />
		<tag k="ssr:type" v="fyrlykt" />
	</node>
	<node lat="61.2003425116396" lon="4.787857362785591" id="-75931">
		<tag k="alt_name" v="Ospøy" />
		<tag k="name" v="Ospøy lykt" />
		<tag k="ssr:date" v="2019-12-27" />
		<tag k="ssr:gruppe" v="navigasjon" />
		<tag k="ssr:hovedgruppe" v="infrastruktur" />
		<tag k="ssr:stedsnr" v="373097" />
		<tag k="ssr:type" v="fyrlykt" />
	</node>
	<node lat="61.073469442923695" lon="4.51204722400301" id="-76037">
		<tag k="name" v="Nordholmen lanterne" />
		<tag k="ssr:date" v="2019-12-27" />
		<tag k="ssr:gruppe" v="navigasjon" />
		<tag k="ssr:hovedgruppe" v="infrastruktur" />
		<tag k="ssr:stedsnr" v="416917" />
		<tag k="ssr:type" v="lanterne" />
	</node>
	<node lat="61.07394166680543" lon="4.8387999935778065" id="-76089">
		<tag k="alt_name" v="Solund" />
		<tag k="name" v="Solund kommune" />
		<tag k="ssr:date" v="2019-12-27" />
		<tag k="ssr:gruppe" v="administrativeIndelinger" />
		<tag k="ssr:hovedgruppe" v="offentligAdministrasjon" />
		<tag k="ssr:stedsnr" v="510833" />
		<tag k="ssr:type" v="kommune" />
	</node>
	<node lat="61.16740753208654" lon="4.7207428260113895" id="-76409">
		<tag k="alt_name" v="Lyngøy" />
		<tag k="name" v="Lyngøy lykt" />
		<tag k="ssr:date" v="2020-09-03" />
		<tag k="ssr:gruppe" v="navigasjon" />
		<tag k="ssr:hovedgruppe" v="infrastruktur" />
		<tag k="ssr:stedsnr" v="737051" />
		<tag k="ssr:type" v="fyrlykt" />
	</node>
	<node lat="61.00428861255458" lon="4.5923703197005805" id="-76653">
		<tag k="alt_name" v="Guridnakken;Gurinakken" />
		<tag k="name" v="Guridnakken lykt" />
		<tag k="ssr:date" v="2020-09-08" />
		<tag k="ssr:gruppe" v="navigasjon" />
		<tag k="ssr:hovedgruppe" v="infrastruktur" />
		<tag k="ssr:stedsnr" v="859945" />
		<tag k="ssr:type" v="fyrlykt" />
	</node>
	<node lat="61.011644447696845" lon="4.667938883661597" id="-76663">
		<tag k="name" v="Kolgrov, nedre" />
		<tag k="old_name" v="Nedre Kolgrov" />
		<tag k="ssr:date" v="2019-12-27" />
		<tag k="ssr:gruppe" v="navigasjon" />
		<tag k="ssr:hovedgruppe" v="infrastruktur" />
		<tag k="ssr:stedsnr" v="874200" />
		<tag k="ssr:type" v="fyrlykt" />
	</node>
	<node lat="61.21217574041304" lon="4.899511046763242" id="-76734">
		<tag k="name" v="Leknessundvika" />
		<tag k="old_name" v="Gatenr1011" />
		<tag k="ssr:date" v="2020-05-28" />
		<tag k="ssr:gruppe" v="veg" />
		<tag k="ssr:hovedgruppe" v="infrastruktur" />
		<tag k="ssr:stedsnr" v="972241" />
		<tag k="ssr:type" v="adressenavn" />
	</node>
	<node lat="61.07569660309209" lon="4.841111331494477" id="-76735">
		<tag k="name" v="Krakhellevegen" />
		<tag k="ssr:date" v="2019-12-27" />
		<tag k="ssr:gruppe" v="veg" />
		<tag k="ssr:hovedgruppe" v="infrastruktur" />
		<tag k="ssr:stedsnr" v="973472" />
		<tag k="ssr:type" v="adressenavn" />
	</node>
	<node lat="61.13514116893834" lon="4.92818005795814" id="-76736">
		<tag k="name" v="Leknessundvegen" />
		<tag k="ssr:date" v="2019-12-27" />
		<tag k="ssr:gruppe" v="veg" />
		<tag k="ssr:hovedgruppe" v="infrastruktur" />
		<tag k="ssr:stedsnr" v="973473" />
		<tag k="ssr:type" v="adressenavn" />
	</node>
	<node lat="61.07557583750441" lon="4.841107339528097" id="-76737">
		<tag k="name" v="Daløyvegen" />
		<tag k="ssr:date" v="2019-12-27" />
		<tag k="ssr:gruppe" v="veg" />
		<tag k="ssr:hovedgruppe" v="infrastruktur" />
		<tag k="ssr:stedsnr" v="973476" />
		<tag k="ssr:type" v="adressenavn" />
	</node>
	<node lat="61.054575499866154" lon="4.716726546394639" id="-76738">
		<tag k="name" v="Lundøyvegen" />
		<tag k="ssr:date" v="2019-12-27" />
		<tag k="ssr:gruppe" v="veg" />
		<tag k="ssr:hovedgruppe" v="infrastruktur" />
		<tag k="ssr:stedsnr" v="973477" />
		<tag k="ssr:type" v="adressenavn" />
	</node>
	<node lat="61.01121574465382" lon="4.693336118018563" id="-76739">
		<tag k="name" v="Kolgrovvegen" />
		<tag k="ssr:date" v="2019-12-27" />
		<tag k="ssr:gruppe" v="veg" />
		<tag k="ssr:hovedgruppe" v="infrastruktur" />
		<tag k="ssr:stedsnr" v="973478" />
		<tag k="ssr:type" v="adressenavn" />
	</node>
	<node lat="61.11754943046568" lon="5.09271050846336" id="-76740">
		<tag k="name" v="Losna" />
		<tag k="ssr:date" v="2019-12-27" />
		<tag k="ssr:gruppe" v="veg" />
		<tag k="ssr:hovedgruppe" v="infrastruktur" />
		<tag k="ssr:stedsnr" v="973479" />
		<tag k="ssr:type" v="adressenavn" />
	</node>
	<node lat="61.12402620057429" lon="4.953937256341092" id="-76741">
		<tag k="name" v="Engevikvegen" />
		<tag k="ssr:date" v="2019-12-27" />
		<tag k="ssr:gruppe" v="veg" />
		<tag k="ssr:hovedgruppe" v="infrastruktur" />
		<tag k="ssr:stedsnr" v="973480" />
		<tag k="ssr:type" v="adressenavn" />
	</node>
	<node lat="61.17563134506993" lon="4.903273551857216" id="-76742">
		<tag k="name" v="Hersvikvegen" />
		<tag k="ssr:date" v="2019-12-27" />
		<tag k="ssr:gruppe" v="veg" />
		<tag k="ssr:hovedgruppe" v="infrastruktur" />
		<tag k="ssr:stedsnr" v="973481" />
		<tag k="ssr:type" v="adressenavn" />
	</node>
	<node lat="61.109587928118884" lon="4.912155683018086" id="-76743">
		<tag k="name" v="Kråkåsvegen" />
		<tag k="ssr:date" v="2019-12-27" />
		<tag k="ssr:gruppe" v="veg" />
		<tag k="ssr:hovedgruppe" v="infrastruktur" />
		<tag k="ssr:stedsnr" v="973482" />
		<tag k="ssr:type" v="adressenavn" />
	</node>
	<node lat="61.12245454193596" lon="4.902320803272845" id="-76744">
		<tag k="name" v="Vaulevegen" />
		<tag k="ssr:date" v="2019-12-27" />
		<tag k="ssr:gruppe" v="veg" />
		<tag k="ssr:hovedgruppe" v="infrastruktur" />
		<tag k="ssr:stedsnr" v="973483" />
		<tag k="ssr:type" v="adressenavn" />
	</node>
	<node lat="61.09573513467396" lon="4.895698973140362" id="-76745">
		<tag k="name" v="Strembeneset" />
		<tag k="ssr:date" v="2019-12-27" />
		<tag k="ssr:gruppe" v="veg" />
		<tag k="ssr:hovedgruppe" v="infrastruktur" />
		<tag k="ssr:stedsnr" v="973484" />
		<tag k="ssr:type" v="adressenavn" />
	</node>
	<node lat="61.08025229764917" lon="4.860629901628328" id="-76746">
		<tag k="name" v="Hopsvegen" />
		<tag k="ssr:date" v="2019-12-27" />
		<tag k="ssr:gruppe" v="veg" />
		<tag k="ssr:hovedgruppe" v="infrastruktur" />
		<tag k="ssr:stedsnr" v="973486" />
		<tag k="ssr:type" v="adressenavn" />
	</node>
	<node lat="61.08230895012207" lon="4.847105616770705" id="-76747">
		<tag k="name" v="Strandavågvegen" />
		<tag k="ssr:date" v="2019-12-27" />
		<tag k="ssr:gruppe" v="veg" />
		<tag k="ssr:hovedgruppe" v="infrastruktur" />
		<tag k="ssr:stedsnr" v="973487" />
		<tag k="ssr:type" v="adressenavn" />
	</node>
	<node lat="61.07561586212154" lon="4.840613063178577" id="-76749">
		<tag k="name" v="Hardbakke" />
		<tag k="ssr:date" v="2019-12-27" />
		<tag k="ssr:gruppe" v="veg" />
		<tag k="ssr:hovedgruppe" v="infrastruktur" />
		<tag k="ssr:stedsnr" v="973491" />
		<tag k="ssr:type" v="adressenavn" />
	</node>
	<node lat="61.06934848769257" lon="4.839740821957249" id="-76751">
		<tag k="name" v="Håneset" />
		<tag k="ssr:date" v="2019-12-27" />
		<tag k="ssr:gruppe" v="veg" />
		<tag k="ssr:hovedgruppe" v="infrastruktur" />
		<tag k="ssr:stedsnr" v="973494" />
		<tag k="ssr:type" v="adressenavn" />
	</node>
	<node lat="61.06717447012771" lon="4.834873811491283" id="-76752">
		<tag k="name" v="Sildevika" />
		<tag k="ssr:date" v="2019-12-27" />
		<tag k="ssr:gruppe" v="veg" />
		<tag k="ssr:hovedgruppe" v="infrastruktur" />
		<tag k="ssr:stedsnr" v="973496" />
		<tag k="ssr:type" v="adressenavn" />
	</node>
	<node lat="61.063943719562886" lon="4.7587310185424405" id="-76753">
		<tag k="name" v="Solnesvegen" />
		<tag k="ssr:date" v="2019-12-27" />
		<tag k="ssr:gruppe" v="veg" />
		<tag k="ssr:hovedgruppe" v="infrastruktur" />
		<tag k="ssr:stedsnr" v="973498" />
		<tag k="ssr:type" v="adressenavn" />
	</node>
	<node lat="61.06462108946943" lon="4.752344015215411" id="-76754">
		<tag k="name" v="Steindalen" />
		<tag k="ssr:date" v="2019-12-27" />
		<tag k="ssr:gruppe" v="veg" />
		<tag k="ssr:hovedgruppe" v="infrastruktur" />
		<tag k="ssr:stedsnr" v="973499" />
		<tag k="ssr:type" v="adressenavn" />
	</node>
	<node lat="61.13120811756935" lon="4.746147119323352" id="-76778">
		<tag k="name" v="Stillebåen lykt" />
		<tag k="ssr:date" v="2019-12-27" />
		<tag k="ssr:gruppe" v="navigasjon" />
		<tag k="ssr:hovedgruppe" v="infrastruktur" />
		<tag k="ssr:stedsnr" v="1072752" />
		<tag k="ssr:type" v="fyrlykt" />
	</node>
	<node lat="60.93397976850099" lon="4.614248146452589" id="-76793">
		<tag k="name" v="Storesvala varde" />
		<tag k="ssr:date" v="2019-12-27" />
		<tag k="ssr:gruppe" v="navigasjon" />
		<tag k="ssr:hovedgruppe" v="infrastruktur" />
		<tag k="ssr:stedsnr" v="1072129" />
		<tag k="ssr:type" v="sjøvarde" />
	</node>
</osm>
