<?xml version="1.0" encoding="UTF-8"?>
<osm generator="osmapis" version="0.6">
	<node id="-775680" lat="69.9587350473" lon="21.0470404496">
		<tag k="name" v="Sommarsetbukta" />
		<tag k="natural" v="bay" />
		<tag k="ssr:stedsnr" v="262907" />
	</node>
	<node id="-776191" lat="69.8777944439" lon="21.1229860741">
		<tag k="name" v="Steinsvika" />
		<tag k="natural" v="bay" />
		<tag k="ssr:stedsnr" v="613843" />
	</node>
	<node id="-776188" lat="69.8386694439" lon="21.0567499868">
		<tag k="name" v="Verftebukta" />
		<tag k="natural" v="bay" />
		<tag k="ssr:stedsnr" v="600965" />
	</node>
	<node id="-776695" lat="69.8805499979" lon="21.1635082981">
		<tag k="name" v="Jamesmokka" />
		<tag k="name:fkv" v="Jamesmokka" />
		<tag k="natural" v="bay" />
		<tag k="ssr:stedsnr" v="795770" />
	</node>
	<node id="-776105" lat="69.87891389" lon="21.1294222006">
		<tag k="name" v="Steinsneset" />
		<tag k="natural" v="cape" />
		<tag k="ssr:stedsnr" v="565829" />
	</node>
	<node id="-776179" lat="69.8298861146" lon="21.1419610899">
		<tag k="name" v="Tjeldholmen" />
		<tag k="place" v="islet" />
		<tag k="ssr:stedsnr" v="600875" />
	</node>
	<node id="-775506" lat="69.9389638858" lon="21.0498055228">
		<tag k="fixme" v="multiple name tags, choose one and add the other to alt_name" />
		<tag k="name" v="Finnbyneset;Geokkasneset" />
		<tag k="natural" v="cape" />
		<tag k="ssr:stedsnr" v="201856" />
	</node>
	<node id="-774634" lat="69.8551722267" lon="20.8100277513">
		<tag k="name" v="Ravelseidet" />
		<tag k="place" v="locality" />
		<tag k="ssr:stedsnr" v="322517" />
	</node>
	<node id="-775591" lat="69.9089222207" lon="21.3219805133">
		<tag k="name" v="Sandbukta" />
		<tag k="natural" v="bay" />
		<tag k="ssr:stedsnr" v="237894" />
	</node>
	<node id="-775164" lat="69.919411112" lon="20.9817333108">
		<tag k="name" v="Utleira" />
		<tag k="natural" v="bay" />
		<tag k="ssr:stedsnr" v="80547" />
	</node>
	<node id="-775653" lat="69.9181250018" lon="20.9739305333">
		<tag k="name" v="Laneset" />
		<tag k="natural" v="cape" />
		<tag k="ssr:stedsnr" v="262554" />
	</node>
	<node id="-776676" lat="69.8804972254" lon="21.1529055383">
		<tag k="name" v="Vaddashollet" />
		<tag k="natural" v="bay" />
		<tag k="ssr:stedsnr" v="782724" />
	</node>
	<node id="-776674" lat="69.9196972268" lon="20.9929805424">
		<tag k="fixme" v="consider seamark:type=rock or natural=shoal" />
		<tag k="name" v="Holmeskjæret" />
		<tag k="place" v="islet" />
		<tag k="ssr:stedsnr" v="782697" />
	</node>
	<node id="-776673" lat="69.9218944481" lon="20.9972333048">
		<tag k="fixme" v="consider seamark:type=rock or natural=shoal" />
		<tag k="name" v="Langskjæret" />
		<tag k="place" v="islet" />
		<tag k="ssr:stedsnr" v="782694" />
	</node>
	<node id="-776672" lat="69.940033333" lon="20.9845360782">
		<tag k="name" v="Russebukta" />
		<tag k="natural" v="bay" />
		<tag k="ssr:stedsnr" v="782684" />
	</node>
	<node id="-776159" lat="69.8333944469" lon="20.7805110982">
		<tag k="name" v="Gamselokta" />
		<tag k="name:se" v="Gamselokta" />
		<tag k="natural" v="bay" />
		<tag k="ssr:stedsnr" v="600199" />
	</node>
	<node id="-776670" lat="69.9258000017" lon="20.9126277568">
		<tag k="name" v="Leirbukta" />
		<tag k="natural" v="bay" />
		<tag k="ssr:stedsnr" v="782661" />
	</node>
	<node id="-775131" lat="69.7892611105" lon="21.0268888696">
		<tag k="alt_name" v="Kippernes" />
		<tag k="name" v="Kipperneset" />
		<tag k="natural" v="cape" />
		<tag k="ssr:stedsnr" v="80219" />
	</node>
	<node id="-776153" lat="69.878683332" lon="21.1847471845">
		<tag k="name" v="Fallneset" />
		<tag k="natural" v="cape" />
		<tag k="ssr:stedsnr" v="599803" />
	</node>
	<node id="-774905" lat="69.8726388934" lon="21.194119425">
		<tag k="name" v="Isakneset" />
		<tag k="natural" v="cape" />
		<tag k="ssr:stedsnr" v="478788" />
	</node>
	<node id="-776660" lat="69.7849805559" lon="20.9893416324">
		<tag k="name" v="Grønnholmen" />
		<tag k="place" v="islet" />
		<tag k="ssr:stedsnr" v="782428" />
	</node>
	<node id="-774679" lat="69.9760722236" lon="21.2096221923">
		<tag k="alt_name" v="Indre Avløysinga" />
		<tag k="fixme" v="multiple name tags, choose one and add the other to alt_name" />
		<tag k="name" v="Avløysinga;Pesken" />
		<tag k="natural" v="cape" />
		<tag k="ssr:stedsnr" v="322870" />
	</node>
	<node id="-776655" lat="69.8186333355" lon="20.9159805301">
		<tag k="fixme" v="consider seamark:type=rock or natural=shoal" />
		<tag k="name" v="Skjæret" />
		<tag k="place" v="islet" />
		<tag k="ssr:stedsnr" v="782305" />
	</node>
	<node id="-776653" lat="69.9676277793" lon="21.2106694309">
		<tag k="name" v="Ytterklubben" />
		<tag k="natural" v="cape" />
		<tag k="ssr:stedsnr" v="782269" />
	</node>
	<node id="-776137" lat="69.9395944424" lon="21.0558999804">
		<tag k="name" v="Gugas" />
		<tag k="natural" v="bay" />
		<tag k="ssr:stedsnr" v="599270" />
	</node>
	<node id="-776646" lat="69.8352555591" lon="20.7787499829">
		<tag k="fixme" v="consider seamark:type=rock or natural=shoal" />
		<tag k="name" v="Skjæret" />
		<tag k="place" v="islet" />
		<tag k="ssr:stedsnr" v="782190" />
	</node>
	<node id="-777157" lat="69.8396638873" lon="21.150061095">
		<tag k="name" v="Vedneset" />
		<tag k="natural" v="cape" />
		<tag k="ssr:stedsnr" v="964993" />
	</node>
	<node id="-776131" lat="69.8555638863" lon="20.8537277585">
		<tag k="name" v="Ravelseidbotn" />
		<tag k="natural" v="bay" />
		<tag k="ssr:stedsnr" v="599097" />
	</node>
	<node id="-775229" lat="69.8319583324" lon="21.1502916317">
		<tag k="name" v="Kobbesveiva" />
		<tag k="natural" v="cape" />
		<tag k="ssr:stedsnr" v="115865" />
	</node>
	<node id="-777152" lat="69.8365777816" lon="21.0568499734">
		<tag k="name" v="Adolfneset" />
		<tag k="natural" v="cape" />
		<tag k="ssr:stedsnr" v="964946" />
	</node>
	<node id="-776127" lat="69.9227583364" lon="21.0936499837">
		<tag k="name" v="Nikkolgrunnen" />
		<tag k="natural" v="shoal" />
		<tag k="place" v="locality" />
		<tag k="ssr:stedsnr" v="591792" />
	</node>
	<node id="-776126" lat="69.853897223" lon="21.0495333092">
		<tag k="name" v="Skaioritbukta" />
		<tag k="natural" v="bay" />
		<tag k="ssr:stedsnr" v="591696" />
	</node>
	<node id="-776636" lat="69.9656277811" lon="21.2101777418">
		<tag k="name" v="Molvika" />
		<tag k="natural" v="bay" />
		<tag k="ssr:stedsnr" v="869889" />
	</node>
	<node id="-777146" lat="69.920691663" lon="20.986533314">
		<tag k="name" v="Smibukta" />
		<tag k="natural" v="bay" />
		<tag k="ssr:stedsnr" v="964707" />
	</node>
	<node id="-776118" lat="69.8173888898" lon="20.9905471892">
		<tag k="name" v="Vindneset" />
		<tag k="natural" v="cape" />
		<tag k="ssr:stedsnr" v="565962" />
	</node>
	<node id="-776265" lat="69.8995277815" lon="21.2330083098">
		<tag k="fixme" v="multiple name tags, choose one and add the other to alt_name" />
		<tag k="name" v="Farkebukta;Storbukta" />
		<tag k="natural" v="bay" />
		<tag k="ssr:stedsnr" v="626858" />
	</node>
	<node id="-775582" lat="69.8651999972" lon="21.2132083012">
		<tag k="name" v="Skoleneset" />
		<tag k="natural" v="cape" />
		<tag k="ssr:stedsnr" v="236767" />
	</node>
	<node id="-776113" lat="69.9373111114" lon="21.044088877">
		<tag k="name" v="Finnbybukta" />
		<tag k="natural" v="bay" />
		<tag k="old_name" v="Fynnbybukta" />
		<tag k="ssr:stedsnr" v="565870" />
	</node>
	<node id="-775752" lat="69.838574998" lon="20.7852666502">
		<tag k="name" v="Sandnes" />
		<tag k="natural" v="cape" />
		<tag k="ssr:stedsnr" v="419194" />
	</node>
	<node id="-776622" lat="69.8332166715" lon="21.1610277561">
		<tag k="fixme" v="multiple name tags, choose one and add the other to alt_name" />
		<tag k="name" v="Holmen;Pederholmen" />
		<tag k="place" v="islet" />
		<tag k="ssr:stedsnr" v="869795" />
	</node>
	<node id="-776620" lat="69.8403111121" lon="20.9495110889">
		<tag k="name" v="Sokkelneset" />
		<tag k="natural" v="cape" />
		<tag k="ssr:stedsnr" v="774699" />
	</node>
	<node id="-776619" lat="69.8372750036" lon="20.932724968">
		<tag k="name" v="Lakseneset" />
		<tag k="natural" v="cape" />
		<tag k="ssr:stedsnr" v="774700" />
	</node>
	<node id="-775082" lat="69.8797611084" lon="21.1337805369">
		<tag k="fixme" v="consider seamark:type=rock or natural=shoal" />
		<tag k="name" v="Skjæret" />
		<tag k="place" v="islet" />
		<tag k="ssr:stedsnr" v="54879" />
	</node>
	<node id="-776617" lat="69.9157305585" lon="21.0684416492">
		<tag k="name" v="Naikagrunnen" />
		<tag k="natural" v="shoal" />
		<tag k="place" v="locality" />
		<tag k="ssr:stedsnr" v="773786" />
	</node>
	<node id="-776616" lat="69.8695305555" lon="21.0397027559">
		<tag k="name" v="Ringoåskatbukta" />
		<tag k="natural" v="bay" />
		<tag k="ssr:stedsnr" v="773675" />
	</node>
	<node id="-777127" lat="69.854741664" lon="20.8455638629">
		<tag k="name" v="Eggeneset" />
		<tag k="natural" v="cape" />
		<tag k="ssr:stedsnr" v="964138" />
	</node>
	<node id="-775078" lat="69.91923889" lon="20.9787305351">
		<tag k="fixme" v="consider seamark:type=rock or natural=shoal" />
		<tag k="name" v="Småskjæran" />
		<tag k="place" v="islet" />
		<tag k="ssr:stedsnr" v="54733" />
	</node>
	<node id="-774564" lat="69.8599527771" lon="20.540686086">
		<tag k="name" v="Offeren" />
		<tag k="natural" v="bay" />
		<tag k="ssr:stedsnr" v="296817" />
	</node>
	<node id="-776611" lat="69.8094611159" lon="20.5318971989">
		<tag k="name" v="Oterneset" />
		<tag k="natural" v="cape" />
		<tag k="ssr:stedsnr" v="753722" />
	</node>
	<node id="-776302" lat="69.846069448" lon="20.5067388813">
		<tag k="name" v="Skjærgrunnen" />
		<tag k="natural" v="shoal" />
		<tag k="place" v="locality" />
		<tag k="ssr:stedsnr" v="660817" />
	</node>
	<node id="-776091" lat="69.898738892" lon="20.8304333213">
		<tag k="alt_name" v="Moldfarvika" />
		<tag k="name" v="Moldforvika" />
		<tag k="natural" v="bay" />
		<tag k="ssr:stedsnr" v="565562" />
	</node>
	<node id="-774896" lat="69.7829972268" lon="21.0024360788">
		<tag k="name" v="Fransneset" />
		<tag k="natural" v="cape" />
		<tag k="ssr:stedsnr" v="478480" />
	</node>
	<node id="-777118" lat="69.85043333" lon="20.9410333184">
		<tag k="name" v="Brenneset" />
		<tag k="natural" v="cape" />
		<tag k="ssr:stedsnr" v="956701" />
	</node>
	<node id="-777116" lat="69.9656472239" lon="21.0748277575">
		<tag k="name" v="Maurnesgrunnen" />
		<tag k="natural" v="shoal" />
		<tag k="place" v="locality" />
		<tag k="ssr:stedsnr" v="955818" />
	</node>
	<node id="-777115" lat="69.8808750019" lon="21.0865610763">
		<tag k="fixme" v="multiple name tags, choose one and add the other to alt_name" />
		<tag k="name" v="Vikaneset;Vorrannjargo" />
		<tag k="natural" v="cape" />
		<tag k="ssr:stedsnr" v="955703" />
	</node>
	<node id="-777114" lat="69.9474944457" lon="21.0713416377">
		<tag k="name" v="Seglneset" />
		<tag k="natural" v="cape" />
		<tag k="ssr:stedsnr" v="953042" />
	</node>
	<node id="-776601" lat="69.7760805543" lon="20.9804888724">
		<tag k="name" v="Leirbukta" />
		<tag k="natural" v="bay" />
		<tag k="ssr:stedsnr" v="747924" />
	</node>
	<node id="-776600" lat="69.7673833354" lon="20.4961249937">
		<tag k="name" v="Kommandantodden" />
		<tag k="natural" v="cape" />
		<tag k="ssr:stedsnr" v="747921" />
	</node>
	<node id="-776599" lat="69.7706999978" lon="20.5164499696">
		<tag k="alt_name" v="Spåkenesøra" />
		<tag k="name" v="Spåknesøra" />
		<tag k="natural" v="bay" />
		<tag k="ssr:stedsnr" v="747922" />
	</node>
	<node id="-774699" lat="69.8447138878" lon="21.0994416523">
		<tag k="name" v="Reašnjárga" />
		<tag k="name:se" v="Reašnjárga" />
		<tag k="natural" v="cape" />
		<tag k="old_name:se" v="Reašnjarga;Reasnjarga" />
		<tag k="ssr:stedsnr" v="323784" />
	</node>
	<node id="-774549" lat="69.7821833309" lon="20.9905888583">
		<tag k="name" v="Laittakka" />
		<tag k="name:fkv" v="Laittakka" />
		<tag k="natural" v="cape" />
		<tag k="ssr:stedsnr" v="296445" />
	</node>
	<node id="-775060" lat="69.8511777783" lon="20.9404833154">
		<tag k="name" v="Brennesbukta" />
		<tag k="natural" v="bay" />
		<tag k="ssr:stedsnr" v="54455" />
	</node>
	<node id="-776593" lat="69.9444694473" lon="21.0708083075">
		<tag k="name" v="Sandbukta" />
		<tag k="natural" v="bay" />
		<tag k="ssr:stedsnr" v="747873" />
	</node>
	<node id="-776002" lat="69.8846722264" lon="20.9206388628">
		<tag k="name" v="Nollo" />
		<tag k="natural" v="bay" />
		<tag k="ssr:stedsnr" v="539692" />
	</node>
	<node id="-777111" lat="69.7699055563" lon="20.5528555255">
		<tag k="alt_name" v="Sennarneset" />
		<tag k="name" v="Sennaneset" />
		<tag k="natural" v="cape" />
		<tag k="ssr:stedsnr" v="935853" />
	</node>
	<node id="-774528" lat="69.9269944412" lon="21.0096083071">
		<tag k="name" v="Trollbergan" />
		<tag k="natural" v="cape" />
		<tag k="ssr:stedsnr" v="289838" />
	</node>
	<node id="-774533" lat="69.791386109" lon="20.6880610859">
		<tag k="name" v="Buktamelen" />
		<tag k="natural" v="cape" />
		<tag k="ssr:stedsnr" v="296102" />
	</node>
	<node id="-775041" lat="69.9054138908" lon="21.156452756">
		<tag k="name" v="Elveskallen" />
		<tag k="natural" v="shoal" />
		<tag k="place" v="locality" />
		<tag k="ssr:stedsnr" v="46969" />
	</node>
	<node id="-775552" lat="69.9244499991" lon="20.9051916557">
		<tag k="name" v="Straumneset" />
		<tag k="natural" v="cape" />
		<tag k="ssr:stedsnr" v="236660" />
	</node>
	<node id="-775039" lat="69.9560388849" lon="21.026169425">
		<tag k="name" v="Tømmerneset" />
		<tag k="natural" v="cape" />
		<tag k="ssr:stedsnr" v="45800" />
	</node>
	<node id="-774526" lat="69.8742194463" lon="21.0393999838">
		<tag k="name" v="Storneset" />
		<tag k="natural" v="cape" />
		<tag k="ssr:stedsnr" v="288670" />
	</node>
	<node id="-775037" lat="69.7870833347" lon="20.5676610846">
		<tag k="name" v="Hamnneset - Gárgu" />
		<tag k="name:no" v="Hamnneset" />
		<tag k="name:se" v="Gárgu" />
		<tag k="natural" v="cape" />
		<tag k="ssr:stedsnr" v="45718" />
	</node>
	<node id="-774524" lat="69.8078833347" lon="20.991641641">
		<tag k="name" v="Nordkjosen" />
		<tag k="natural" v="bay" />
		<tag k="ssr:stedsnr" v="288588" />
	</node>
	<node id="-775035" lat="69.8125111105" lon="20.9939249851">
		<tag k="name" v="Lessiniemi" />
		<tag k="name:fkv" v="Lessiniemi" />
		<tag k="natural" v="cape" />
		<tag k="ssr:stedsnr" v="45600" />
	</node>
	<node id="-776057" lat="69.8410305595" lon="21.1572138613">
		<tag k="name" v="Storbukta" />
		<tag k="natural" v="bay" />
		<tag k="ssr:stedsnr" v="564768" />
	</node>
	<node id="-775030" lat="69.8752111128" lon="20.7414527576">
		<tag k="name" v="Sandestøen" />
		<tag k="natural" v="shoal" />
		<tag k="place" v="locality" />
		<tag k="ssr:stedsnr" v="24756" />
	</node>
	<node id="-775029" lat="69.8429305553" lon="20.9494527548">
		<tag k="name" v="Okseneset" />
		<tag k="natural" v="cape" />
		<tag k="ssr:stedsnr" v="19998" />
	</node>
	<node id="-775228" lat="69.831094446" lon="21.1459721971">
		<tag k="name" v="Løkneset" />
		<tag k="natural" v="cape" />
		<tag k="ssr:stedsnr" v="115864" />
	</node>
	<node id="-776254" lat="69.9208305595" lon="20.9931222099">
		<tag k="name" v="Naustneset" />
		<tag k="natural" v="cape" />
		<tag k="ssr:stedsnr" v="626574" />
	</node>
	<node id="-775538" lat="69.8779444444" lon="21.1962527421">
		<tag k="name" v="Straumen" />
		<tag k="natural" v="strait" />
		<tag k="ssr:stedsnr" v="228965" />
	</node>
	<node id="-775537" lat="69.8112805586" lon="21.137811076">
		<tag k="name" v="Straumfjordbotn" />
		<tag k="natural" v="bay" />
		<tag k="ssr:stedsnr" v="227937" />
	</node>
	<node id="-775536" lat="69.9320861093" lon="20.9622666523">
		<tag k="alt_name" v="Hamneneset" />
		<tag k="name" v="Hamnneset" />
		<tag k="natural" v="cape" />
		<tag k="ssr:stedsnr" v="227804" />
	</node>
	<node id="-775535" lat="69.9224694493" lon="20.8911860818">
		<tag k="alt_name" v="Håkjerringbergan" />
		<tag k="name" v="Håkjerringberget" />
		<tag k="natural" v="cape" />
		<tag k="ssr:stedsnr" v="227765" />
	</node>
	<node id="-775533" lat="69.8315638884" lon="21.0277027422">
		<tag k="alt_name" v="Bjørkneset" />
		<tag k="name" v="Bjørkeneset" />
		<tag k="natural" v="cape" />
		<tag k="ssr:stedsnr" v="227696" />
	</node>
	<node id="-775532" lat="69.8608999975" lon="20.8759666414">
		<tag k="name" v="Marsitneset" />
		<tag k="natural" v="cape" />
		<tag k="ssr:stedsnr" v="227637" />
	</node>
	<node id="-775531" lat="69.8144277793" lon="20.9185944102">
		<tag k="alt_name" v="Davisitneset" />
		<tag k="name" v="Davvisiidineset" />
		<tag k="natural" v="cape" />
		<tag k="ssr:stedsnr" v="227629" />
	</node>
	<node id="-775529" lat="69.806861115" lon="20.7414083144">
		<tag k="name" v="Mattisneset" />
		<tag k="natural" v="cape" />
		<tag k="ssr:stedsnr" v="207804" />
	</node>
	<node id="-775016" lat="69.7735555567" lon="20.5320444164">
		<tag k="alt_name" v="Skogholmen, store" />
		<tag k="fixme" v="multiple name tags, choose one and add the other to alt_name" />
		<tag k="name" v="Skogholmen;Store Skogholmen" />
		<tag k="place" v="islet" />
		<tag k="ssr:stedsnr" v="19924" />
	</node>
	<node id="-775740" lat="69.942069448" lon="20.9940444245">
		<tag k="name" v="Mikkelvika" />
		<tag k="natural" v="bay" />
		<tag k="ssr:stedsnr" v="418711" />
	</node>
	<node id="-774561" lat="69.873838889" lon="21.1951721863">
		<tag k="name" v="Straumbukta" />
		<tag k="natural" v="bay" />
		<tag k="ssr:stedsnr" v="296773" />
	</node>
	<node id="-775260" lat="69.8784000023" lon="21.1014499793">
		<tag k="name" v="Fallvika" />
		<tag k="natural" v="bay" />
		<tag k="ssr:stedsnr" v="127858" />
	</node>
	<node id="-776027" lat="69.8775444483" lon="21.1918999629">
		<tag k="name" v="Sørneset - Salaniemi" />
		<tag k="name:fkv" v="Salaniemi" />
		<tag k="name:no" v="Sørneset" />
		<tag k="natural" v="cape" />
		<tag k="ssr:stedsnr" v="540842" />
	</node>
	<node id="-774713" lat="69.9194083306" lon="20.873116635">
		<tag k="name" v="Molteneset" />
		<tag k="natural" v="cape" />
		<tag k="ssr:stedsnr" v="348750" />
	</node>
	<node id="-777043" lat="69.9292277787" lon="21.015247191">
		<tag k="alt_name" v="Trollbukta" />
		<tag k="name" v="Trollvika" />
		<tag k="natural" v="bay" />
		<tag k="ssr:stedsnr" v="929556" />
	</node>
	<node id="-777042" lat="69.9574444434" lon="21.0768444145">
		<tag k="name" v="Maurneset" />
		<tag k="natural" v="cape" />
		<tag k="ssr:stedsnr" v="929557" />
	</node>
	<node id="-776014" lat="69.8343055614" lon="21.1544166304">
		<tag k="name" v="Bergeneset" />
		<tag k="natural" v="cape" />
		<tag k="ssr:stedsnr" v="539993" />
	</node>
	<node id="-775501" lat="69.9019722274" lon="21.1999721917">
		<tag k="name" v="Klubbenes" />
		<tag k="natural" v="cape" />
		<tag k="ssr:stedsnr" v="201829" />
	</node>
	<node id="-774987" lat="69.9250222189" lon="21.0029499843">
		<tag k="name" v="Hestevika" />
		<tag k="natural" v="bay" />
		<tag k="ssr:stedsnr" v="19522" />
	</node>
	<node id="-774986" lat="69.9134583315" lon="20.8550749839">
		<tag k="name" v="Moldforneset" />
		<tag k="natural" v="cape" />
		<tag k="ssr:stedsnr" v="19519" />
	</node>
	<node id="-774985" lat="69.915552779" lon="20.859408304">
		<tag k="name" v="Moldebukta" />
		<tag k="natural" v="bay" />
		<tag k="ssr:stedsnr" v="19518" />
	</node>
	<node id="-776005" lat="69.8757861143" lon="21.1946444228">
		<tag k="name" v="Lilleneset" />
		<tag k="natural" v="cape" />
		<tag k="ssr:stedsnr" v="539769" />
	</node>
	<node id="-776003" lat="69.9188888877" lon="20.9905527499">
		<tag k="name" v="Mattisnesholmen" />
		<tag k="place" v="islet" />
		<tag k="ssr:stedsnr" v="539720" />
	</node>
	<node id="-776514" lat="69.8805888908" lon="21.1977610832">
		<tag k="name" v="Røytvika" />
		<tag k="natural" v="bay" />
		<tag k="ssr:stedsnr" v="734763" />
	</node>
	<node id="-774539" lat="69.8948333351" lon="21.1857221842">
		<tag k="name" v="Manneskeila" />
		<tag k="natural" v="bay" />
		<tag k="ssr:stedsnr" v="296259" />
	</node>
	<node id="-775989" lat="69.8314666711" lon="21.0249749766">
		<tag k="name" v="Goddasianeset" />
		<tag k="natural" v="cape" />
		<tag k="ssr:stedsnr" v="539275" />
	</node>
	<node id="-776507" lat="69.8489027791" lon="21.2224333028">
		<tag k="name" v="Jakobbukta" />
		<tag k="natural" v="bay" />
		<tag k="ssr:stedsnr" v="722929" />
	</node>
	<node id="-775391" lat="69.8402222267" lon="21.2085110897">
		<tag k="name" v="Fossneset" />
		<tag k="natural" v="cape" />
		<tag k="ssr:stedsnr" v="175998" />
	</node>
	<node id="-776504" lat="69.8999833319" lon="21.3061999612">
		<tag k="name" v="Leirvågen" />
		<tag k="natural" v="bay" />
		<tag k="ssr:stedsnr" v="722922" />
	</node>
	<node id="-775991" lat="69.792669444" lon="20.9543194134">
		<tag k="name" v="Neset" />
		<tag k="natural" v="cape" />
		<tag k="ssr:stedsnr" v="539325" />
	</node>
	<node id="-776502" lat="69.9002583393" lon="21.2804444099">
		<tag k="name" v="Dyrneset" />
		<tag k="natural" v="cape" />
		<tag k="ssr:stedsnr" v="722916" />
	</node>
	<node id="-776501" lat="69.8542638918" lon="21.2252749848">
		<tag k="name" v="Durmålskarbukta" />
		<tag k="natural" v="bay" />
		<tag k="ssr:stedsnr" v="722899" />
	</node>
	<node id="-776500" lat="69.8609611141" lon="21.2174333192">
		<tag k="name" v="Valbukta" />
		<tag k="natural" v="bay" />
		<tag k="ssr:stedsnr" v="722897" />
	</node>
	<node id="-775985" lat="69.9573527794" lon="21.0766805259">
		<tag k="name" v="Forradalsneset" />
		<tag k="natural" v="cape" />
		<tag k="ssr:stedsnr" v="539237" />
	</node>
	<node id="-776264" lat="69.9003138908" lon="21.2912638555">
		<tag k="alt_name" v="Hamnebukt" />
		<tag k="name" v="Hamnebukta" />
		<tag k="natural" v="bay" />
		<tag k="ssr:stedsnr" v="626856" />
	</node>
	<node id="-774525" lat="69.8513083361" lon="20.8812277679">
		<tag k="name" v="Latterneset" />
		<tag k="natural" v="cape" />
		<tag k="ssr:stedsnr" v="288614" />
	</node>
	<node id="-777002" lat="69.879472227" lon="21.1346138624">
		<tag k="name" v="Lillebukta" />
		<tag k="natural" v="bay" />
		<tag k="ssr:stedsnr" v="916787" />
	</node>
	<node id="-775977" lat="69.9536502237" lon="21.0210377475">
		<tag k="name" v="Tømmernesbukta" />
		<tag k="natural" v="bay" />
		<tag k="ssr:stedsnr" v="535149" />
	</node>
	<node id="-775975" lat="69.9100777744" lon="21.156747198">
		<tag k="name" v="Klubbenesgrunnen" />
		<tag k="natural" v="shoal" />
		<tag k="place" v="locality" />
		<tag k="ssr:stedsnr" v="531970" />
	</node>
	<node id="-775974" lat="69.8001749975" lon="20.9292610895">
		<tag k="name" v="Sørkjosen - Rässikäisenmukka" />
		<tag k="name:fkv" v="Rässikäisenmukka" />
		<tag k="name:no" v="Sørkjosen" />
		<tag k="natural" v="bay" />
		<tag k="ssr:stedsnr" v="531680" />
	</node>
	<node id="-776485" lat="69.8347361146" lon="21.1983444323">
		<tag k="name" v="Reiarbukta" />
		<tag k="natural" v="bay" />
		<tag k="ssr:stedsnr" v="721999" />
	</node>
	<node id="-776484" lat="69.8403722239" lon="21.1483499662">
		<tag k="name" v="Vednesbukta" />
		<tag k="natural" v="bay" />
		<tag k="ssr:stedsnr" v="721997" />
	</node>
	<node id="-776483" lat="69.8387749977" lon="21.1513555199">
		<tag k="name" v="Bauskarmotta" />
		<tag k="natural" v="bay" />
		<tag k="ssr:stedsnr" v="721995" />
	</node>
	<node id="-775969" lat="69.8374222245" lon="20.9426027614">
		<tag k="name" v="Skjellneset" />
		<tag k="natural" v="cape" />
		<tag k="ssr:stedsnr" v="539405" />
	</node>
	<node id="-774944" lat="69.8502888877" lon="20.5243277473">
		<tag k="name" v="Melkjeila" />
		<tag k="natural" v="bay" />
		<tag k="ssr:stedsnr" v="267733" />
	</node>
	<node id="-776479" lat="69.8788305571" lon="20.9158166456">
		<tag k="name" v="Lannilahti" />
		<tag k="name:fkv" v="Lannilahti" />
		<tag k="natural" v="bay" />
		<tag k="ssr:stedsnr" v="721690" />
	</node>
	<node id="-775964" lat="69.7981972252" lon="20.5389444205">
		<tag k="name" v="Laneset" />
		<tag k="natural" v="cape" />
		<tag k="ssr:stedsnr" v="510884" />
	</node>
	<node id="-776987" lat="69.9132888876" lon="21.3175360885">
		<tag k="name" v="Styrmannstjønna" />
		<tag k="natural" v="bay" />
		<tag k="ssr:stedsnr" v="904918" />
	</node>
	<node id="-775962" lat="69.8782944419" lon="20.7348777453">
		<tag k="name" v="Ryggen" />
		<tag k="natural" v="shoal" />
		<tag k="place" v="locality" />
		<tag k="ssr:stedsnr" v="510784" />
	</node>
	<node id="-775960" lat="69.8185194406" lon="20.529719432">
		<tag k="name" v="Rekneset" />
		<tag k="natural" v="cape" />
		<tag k="ssr:stedsnr" v="510772" />
	</node>
	<node id="-775959" lat="69.8422777751" lon="20.5169166448">
		<tag k="name" v="Lakseberget" />
		<tag k="natural" v="cape" />
		<tag k="ssr:stedsnr" v="510769" />
	</node>
	<node id="-775155" lat="69.8437583294" lon="21.1830027559">
		<tag k="bay" v="fjord" />
		<tag k="name" v="Straumfjorden - Siidavuotna - Raumavuono" />
		<tag k="name:fkv" v="Raumavuono" />
		<tag k="name:no" v="Straumfjorden" />
		<tag k="name:se" v="Siidavuotna" />
		<tag k="natural" v="bay" />
		<tag k="ssr:stedsnr" v="80446" />
	</node>
	<node id="-776465" lat="69.8789527779" lon="21.174669422">
		<tag k="name" v="Rundbukta" />
		<tag k="natural" v="bay" />
		<tag k="ssr:stedsnr" v="721731" />
	</node>
	<node id="-776263" lat="69.8787138857" lon="21.183177753">
		<tag k="name" v="Falla" />
		<tag k="natural" v="bay" />
		<tag k="ssr:stedsnr" v="626834" />
	</node>
	<node id="-775950" lat="69.9339444428" lon="20.9686610925">
		<tag k="name" v="Klubben" />
		<tag k="natural" v="cape" />
		<tag k="ssr:stedsnr" v="505477" />
	</node>
	<node id="-775949" lat="69.9118722267" lon="21.2329110946">
		<tag k="alt_name:no" v="Øksfjorden" />
		<tag k="bay" v="fjord" />
		<tag k="name" v="Oksfjorden - Ákšovuotna - Aksuvuono" />
		<tag k="name:fkv" v="Aksuvuono" />
		<tag k="name:no" v="Oksfjorden" />
		<tag k="name:se" v="Ákšovuotna" />
		<tag k="natural" v="bay" />
		<tag k="ssr:stedsnr" v="505467" />
	</node>
	<node id="-774921" lat="69.9336888924" lon="21.0308749819">
		<tag k="name" v="Finnbybergan" />
		<tag k="natural" v="cape" />
		<tag k="ssr:stedsnr" v="895801" />
	</node>
	<node id="-775944" lat="69.8443361102" lon="20.9445860891">
		<tag k="name" v="Eggeneset" />
		<tag k="natural" v="cape" />
		<tag k="ssr:stedsnr" v="504989" />
	</node>
	<node id="-774918" lat="69.8520527774" lon="20.9317416528">
		<tag k="name" v="Bonnikabukta" />
		<tag k="natural" v="bay" />
		<tag k="ssr:stedsnr" v="895634" />
	</node>
	<node id="-774917" lat="69.9974916711" lon="21.2245166537">
		<tag k="alt_name" v="Pålsavikneset" />
		<tag k="name" v="Pålsaneset" />
		<tag k="natural" v="cape" />
		<tag k="ssr:stedsnr" v="895013" />
	</node>
	<node id="-775938" lat="69.9535944434" lon="21.3802888524">
		<tag k="name" v="Nuovas" />
		<tag k="name:se" v="Nuovas" />
		<tag k="natural" v="cape" />
		<tag k="ssr:stedsnr" v="504867" />
	</node>
	<node id="-776961" lat="69.8332916677" lon="20.516994426">
		<tag k="name" v="Russeneset" />
		<tag k="natural" v="cape" />
		<tag k="ssr:stedsnr" v="903743" />
	</node>
	<node id="-776448" lat="69.8445027755" lon="20.4953333023">
		<tag k="name" v="Brottet" />
		<tag k="place" v="locality" />
		<tag k="seamark:type" v="rock" />
		<tag k="ssr:stedsnr" v="692744" />
	</node>
	<node id="-776959" lat="69.8734861122" lon="21.0346583031">
		<tag k="name" v="Fyrneset" />
		<tag k="natural" v="cape" />
		<tag k="ssr:stedsnr" v="903699" />
	</node>
	<node id="-776958" lat="69.8714388875" lon="21.0471527425">
		<tag k="name" v="Eidet" />
		<tag k="place" v="locality" />
		<tag k="ssr:stedsnr" v="903698" />
	</node>
	<node id="-776445" lat="69.8199749964" lon="20.9111444195">
		<tag k="name" v="Hjellneset" />
		<tag k="natural" v="cape" />
		<tag k="ssr:stedsnr" v="687962" />
	</node>
	<node id="-775978" lat="69.9297166697" lon="20.9557444159">
		<tag k="name" v="Lillehamna" />
		<tag k="natural" v="bay" />
		<tag k="ssr:stedsnr" v="535151" />
	</node>
	<node id="-774906" lat="69.8753777776" lon="21.1900555266">
		<tag k="name" v="Resiranta" />
		<tag k="name:fkv" v="Resiranta" />
		<tag k="natural" v="beach" />
		<tag k="place" v="locality" />
		<tag k="ssr:stedsnr" v="478790" />
	</node>
	<node id="-777087" lat="69.8444638878" lon="20.789263856">
		<tag k="alt_name" v="Eidbukta" />
		<tag k="name" v="Eidebukta" />
		<tag k="natural" v="bay" />
		<tag k="ssr:stedsnr" v="929991" />
	</node>
	<node id="-776949" lat="69.7937500021" lon="20.9393749853">
		<tag k="name" v="Hamna" />
		<tag k="natural" v="bay" />
		<tag k="ssr:stedsnr" v="903372" />
	</node>
	<node id="-774899" lat="69.8689583313" lon="20.8992221897">
		<tag k="name" v="Gurutofta" />
		<tag k="natural" v="bay" />
		<tag k="ssr:stedsnr" v="478722" />
	</node>
	<node id="-776434" lat="69.8956166673" lon="21.1888833073">
		<tag k="name" v="Manneset" />
		<tag k="natural" v="cape" />
		<tag k="ssr:stedsnr" v="687855" />
	</node>
	<node id="-776432" lat="69.8749499983" lon="21.0561471997">
		<tag k="name" v="Stornesbukta" />
		<tag k="natural" v="bay" />
		<tag k="ssr:stedsnr" v="687827" />
	</node>
	<node id="-776943" lat="69.9613027744" lon="21.2049583036">
		<tag k="name" v="Innerklubben" />
		<tag k="natural" v="cape" />
		<tag k="ssr:stedsnr" v="903273" />
	</node>
	<node id="-775406" lat="69.9016916716" lon="21.2166055275">
		<tag k="name" v="Monsneset" />
		<tag k="natural" v="cape" />
		<tag k="ssr:stedsnr" v="176894" />
	</node>
	<node id="-776941" lat="69.7713166718" lon="20.5545083072">
		<tag k="name" v="Skittehollet" />
		<tag k="natural" v="bay" />
		<tag k="ssr:stedsnr" v="903236" />
	</node>
	<node id="-776424" lat="69.9122527749" lon="20.9691388694">
		<tag k="name" v="Langneset" />
		<tag k="natural" v="cape" />
		<tag k="ssr:stedsnr" v="687532" />
	</node>
	<node id="-774885" lat="69.9635555523" lon="21.2107860786">
		<tag k="name" v="Sørkeila" />
		<tag k="natural" v="bay" />
		<tag k="ssr:stedsnr" v="478277" />
	</node>
	<node id="-775907" lat="69.8577416705" lon="20.8865249729">
		<tag k="bay" v="fjord" />
		<tag k="name" v="Bakkebyfjorden - Sokkuvuono" />
		<tag k="name:fkv" v="Sokkuvuono" />
		<tag k="name:no" v="Bakkebyfjorden" />
		<tag k="natural" v="bay" />
		<tag k="ssr:stedsnr" v="504534" />
	</node>
	<node id="-776929" lat="69.8002277786" lon="20.7194860976">
		<tag k="name" v="Bourneset" />
		<tag k="natural" v="cape" />
		<tag k="ssr:stedsnr" v="875798" />
	</node>
	<node id="-774907" lat="69.8456138884" lon="20.5169694234">
		<tag k="fixme" v="consider seamark:type=rock or natural=shoal" />
		<tag k="name" v="Skjæret" />
		<tag k="place" v="islet" />
		<tag k="ssr:stedsnr" v="478834" />
	</node>
	<node id="-776415" lat="69.9237611087" lon="21.1094222073">
		<tag k="bay" v="fjord" />
		<tag k="name" v="Reisafjorden - Ráisavuotna - Raisinvuono" />
		<tag k="name:fkv" v="Raisinvuono" />
		<tag k="name:no" v="Reisafjorden" />
		<tag k="name:se" v="Ráisavuotna" />
		<tag k="natural" v="bay" />
		<tag k="ssr:stedsnr" v="687462" />
	</node>
	<node id="-774878" lat="69.849080559" lon="20.9454833025">
		<tag k="name" v="Bosolobåen" />
		<tag k="place" v="locality" />
		<tag k="seamark:type" v="rock" />
		<tag k="ssr:stedsnr" v="410662" />
	</node>
	<node id="-776412" lat="69.894433334" lon="20.8197027641">
		<tag k="name" v="Trollvika" />
		<tag k="natural" v="bay" />
		<tag k="ssr:stedsnr" v="687458" />
	</node>
	<node id="-777167" lat="69.9176805569" lon="21.2631666352">
		<tag k="name" v="Oksfjordhamn" />
		<tag k="natural" v="bay" />
		<tag k="ssr:stedsnr" v="965936" />
	</node>
	<node id="-776920" lat="69.7914361098" lon="20.6661416432">
		<tag k="name" v="Rotnes" />
		<tag k="natural" v="cape" />
		<tag k="ssr:stedsnr" v="869933" />
	</node>
	<node id="-775972" lat="69.8934055546" lon="20.8134805412">
		<tag k="name" v="Kjerringa" />
		<tag k="natural" v="cape" />
		<tag k="ssr:stedsnr" v="530764" />
	</node>
	<node id="-774870" lat="69.764947226" lon="20.4847222191">
		<tag k="name" v="Stranda" />
		<tag k="natural" v="beach" />
		<tag k="place" v="locality" />
		<tag k="ssr:stedsnr" v="388838" />
	</node>
	<node id="-774869" lat="69.7920388908" lon="20.6919694315">
		<tag k="name" v="Elveøra" />
		<tag k="natural" v="bay" />
		<tag k="ssr:stedsnr" v="388144" />
	</node>
	<node id="-775545" lat="69.8629944407" lon="20.5477527618">
		<tag k="name" v="Mannhollet" />
		<tag k="natural" v="bay" />
		<tag k="ssr:stedsnr" v="235849" />
	</node>
	<node id="-774867" lat="69.8312472186" lon="20.9090694254">
		<tag k="alt_name" v="Sokkelvika, yt" />
		<tag k="fixme" v="multiple name tags, choose one and add the other to alt_name" />
		<tag k="name" v="Sokkelvika;Ytre Sokkelvika" />
		<tag k="natural" v="bay" />
		<tag k="ssr:stedsnr" v="383995" />
	</node>
	<node id="-775971" lat="69.8583916696" lon="21.043663866">
		<tag k="name" v="Trettebukta - Vuohppi" />
		<tag k="name:no" v="Trettebukta" />
		<tag k="name:se" v="Vuohppi" />
		<tag k="natural" v="bay" />
		<tag k="ssr:stedsnr" v="530709" />
	</node>
	<node id="-774556" lat="69.8004638894" lon="21.0262610886">
		<tag k="name" v="Lanangarko" />
		<tag k="name:fkv" v="Lanangarko" />
		<tag k="natural" v="cape" />
		<tag k="ssr:stedsnr" v="296694" />
	</node>
	<node id="-776141" lat="69.8546833358" lon="21.180008308">
		<tag k="name" v="Vindneset" />
		<tag k="natural" v="cape" />
		<tag k="ssr:stedsnr" v="599301" />
	</node>
	<node id="-775988" lat="69.8281583324" lon="21.015824979">
		<tag k="name" v="Storsanden" />
		<tag k="natural" v="beach" />
		<tag k="place" v="locality" />
		<tag k="ssr:stedsnr" v="539271" />
	</node>
	<node id="-776907" lat="69.9247777742" lon="20.8756916502">
		<tag k="name" v="Maursundet - Márnuorri" />
		<tag k="name:no" v="Maursundet" />
		<tag k="name:se" v="Márnuorri" />
		<tag k="natural" v="strait" />
		<tag k="ssr:stedsnr" v="869621" />
	</node>
	<node id="-775882" lat="69.8805472198" lon="21.1477221817">
		<tag k="name" v="Jossilakeila" />
		<tag k="natural" v="bay" />
		<tag k="ssr:stedsnr" v="491759" />
	</node>
	<node id="-775368" lat="69.872094447" lon="21.1991916343">
		<tag k="fixme" v="consider seamark:type=rock or natural=shoal" />
		<tag k="name" v="Skarveskjæret" />
		<tag k="place" v="islet" />
		<tag k="ssr:stedsnr" v="175788" />
	</node>
	<node id="-776396" lat="69.8207888868" lon="20.9057888775">
		<tag k="alt_name" v="Sokkelvika, in" />
		<tag k="name" v="Indre Sokkelvik" />
		<tag k="natural" v="bay" />
		<tag k="old_name" v="Sokkelvika" />
		<tag k="ssr:stedsnr" v="686984" />
	</node>
	<node id="-775366" lat="69.9160888864" lon="20.9679583126">
		<tag k="name" v="Leirosholman" />
		<tag k="place" v="islet" />
		<tag k="ssr:stedsnr" v="175747" />
	</node>
	<node id="-775877" lat="69.8443999979" lon="20.9492416313">
		<tag k="name" v="Storvika" />
		<tag k="natural" v="bay" />
		<tag k="ssr:stedsnr" v="470654" />
	</node>
	<node id="-775033" lat="69.7925583348" lon="21.0125027586">
		<tag k="fixme" v="multiple name tags, choose one and add the other to alt_name" />
		<tag k="name" v="Dorras;Dorrasnasen" />
		<tag k="natural" v="cape" />
		<tag k="ssr:stedsnr" v="45596" />
	</node>
	<node id="-776387" lat="69.830852777" lon="21.1849221949">
		<tag k="fixme" v="multiple name tags, choose one and add the other to alt_name" />
		<tag k="name" v="Sandneset;Storsandneset" />
		<tag k="natural" v="cape" />
		<tag k="ssr:stedsnr" v="686754" />
	</node>
	<node id="-775873" lat="69.8810833381" lon="21.1585110818">
		<tag k="fixme" v="consider seamark:type=rock or natural=shoal" />
		<tag k="name" v="Fallskjæret" />
		<tag k="place" v="islet" />
		<tag k="ssr:stedsnr" v="461778" />
	</node>
	<node id="-775359" lat="69.8609555525" lon="21.1911499714">
		<tag k="name" v="Hestnesbukta" />
		<tag k="natural" v="bay" />
		<tag k="ssr:stedsnr" v="175311" />
	</node>
	<node id="-776965" lat="69.8761888872" lon="21.1862083072">
		<tag k="name" v="Fallneset" />
		<tag k="natural" v="cape" />
		<tag k="ssr:stedsnr" v="903779" />
	</node>
	<node id="-775476" lat="69.93538889" lon="20.9517221963">
		<tag k="name" v="Pallen" />
		<tag k="natural" v="shoal" />
		<tag k="place" v="locality" />
		<tag k="ssr:stedsnr" v="201545" />
	</node>
	<node id="-774841" lat="69.8437972209" lon="21.0427416415">
		<tag k="name" v="Storvika - Isolahti" />
		<tag k="name:fkv" v="Isolahti" />
		<tag k="name:no" v="Storvika" />
		<tag k="natural" v="bay" />
		<tag k="ssr:stedsnr" v="383788" />
	</node>
	<node id="-775352" lat="69.8522416712" lon="20.7803138659">
		<tag k="name" v="Neset" />
		<tag k="natural" v="cape" />
		<tag k="ssr:stedsnr" v="175008" />
	</node>
	<node id="-775862" lat="69.9431027803" lon="21.1951388724">
		<tag k="fixme" v="multiple name tags, choose one and add the other to alt_name" />
		<tag k="name" v="Knevika;Knevikbukta" />
		<tag k="natural" v="bay" />
		<tag k="ssr:stedsnr" v="444882" />
	</node>
	<node id="-775861" lat="69.936763888" lon="21.1858860937">
		<tag k="name" v="Årneset" />
		<tag k="natural" v="cape" />
		<tag k="ssr:stedsnr" v="444879" />
	</node>
	<node id="-774836" lat="69.8195527794" lon="21.1543583041">
		<tag k="alt_name" v="Litlesandneset;Lillesandnes" />
		<tag k="name" v="Lillesandneset" />
		<tag k="natural" v="cape" />
		<tag k="ssr:stedsnr" v="383769" />
	</node>
	<node id="-776968" lat="69.8673916657" lon="20.7492027649">
		<tag k="name" v="Steffenhamna" />
		<tag k="natural" v="bay" />
		<tag k="ssr:stedsnr" v="904027" />
	</node>
	<node id="-775855" lat="69.8801527759" lon="21.1468083051">
		<tag k="name" v="Perneset" />
		<tag k="natural" v="cape" />
		<tag k="ssr:stedsnr" v="444818" />
	</node>
	<node id="-776366" lat="69.935216669" lon="20.9768333201">
		<tag k="name" v="Selbuvika" />
		<tag k="natural" v="bay" />
		<tag k="ssr:stedsnr" v="686591" />
	</node>
	<node id="-776365" lat="69.9493416645" lon="21.0086499664">
		<tag k="name" v="Grunneset" />
		<tag k="natural" v="cape" />
		<tag k="ssr:stedsnr" v="686580" />
	</node>
	<node id="-776364" lat="69.8537972244" lon="20.7743416423">
		<tag k="fixme" v="multiple name tags, choose one and add the other to alt_name" />
		<tag k="name" v="Larsbukta;Ravelseidbukta" />
		<tag k="natural" v="bay" />
		<tag k="ssr:stedsnr" v="686538" />
	</node>
	<node id="-774826" lat="69.9155416677" lon="20.9633555336">
		<tag k="name" v="Leirosen" />
		<tag k="natural" v="bay" />
		<tag k="ssr:stedsnr" v="383561" />
	</node>
	<node id="-775879" lat="69.8240388918" lon="21.1315555421">
		<tag k="name" v="Dangasneset" />
		<tag k="natural" v="cape" />
		<tag k="ssr:stedsnr" v="470949" />
	</node>
	<node id="-774854" lat="69.8891111111" lon="21.2175583186">
		<tag k="name" v="Vuošnjárga" />
		<tag k="name:se" v="Vuošnjárga" />
		<tag k="natural" v="cape" />
		<tag k="old_name:se" v="Vuošnjarga" />
		<tag k="ssr:stedsnr" v="383850" />
	</node>
	<node id="-775840" lat="69.9312277794" lon="20.9585805448">
		<tag k="name" v="Storhamna" />
		<tag k="natural" v="bay" />
		<tag k="ssr:stedsnr" v="444569" />
	</node>
	<node id="-776133" lat="69.7911861085" lon="20.6824860804">
		<tag k="name" v="Bukta" />
		<tag k="natural" v="bay" />
		<tag k="ssr:stedsnr" v="599112" />
	</node>
	<node id="-775832" lat="69.872361116" lon="20.7558610894">
		<tag k="alt_name" v="Kollgryta" />
		<tag k="name" v="Kolgryta" />
		<tag k="natural" v="beach" />
		<tag k="place" v="locality" />
		<tag k="ssr:stedsnr" v="444489" />
	</node>
	<node id="-775319" lat="69.836438893" lon="21.1546138714">
		<tag k="name" v="Holmeneset" />
		<tag k="natural" v="cape" />
		<tag k="ssr:stedsnr" v="140765" />
	</node>
	<node id="-775830" lat="69.932105555" lon="21.0254083008">
		<tag k="name" v="Storbukta" />
		<tag k="natural" v="bay" />
		<tag k="ssr:stedsnr" v="444434" />
	</node>
	<node id="-776814" lat="69.867563886" lon="21.0421721942">
		<tag k="name" v="Lillevika" />
		<tag k="natural" v="bay" />
		<tag k="ssr:stedsnr" v="843741" />
	</node>
	<node id="-776335" lat="69.8593444456" lon="21.2195249638">
		<tag k="name" v="Valklubben" />
		<tag k="natural" v="cape" />
		<tag k="ssr:stedsnr" v="661926" />
	</node>
	<node id="-776301" lat="69.8650333339" lon="21.1933472083">
		<tag k="name" v="Hesteneset" />
		<tag k="natural" v="cape" />
		<tag k="ssr:stedsnr" v="660759" />
	</node>
	<node id="-775817" lat="69.7914499964" lon="21.0880360899">
		<tag k="name" v="Straumfjordeidet" />
		<tag k="place" v="locality" />
		<tag k="ssr:stedsnr" v="444174" />
	</node>
	<node id="-776128" lat="69.8731888862" lon="21.1902444136">
		<tag k="name" v="Straumfjordneset" />
		<tag k="natural" v="cape" />
		<tag k="ssr:stedsnr" v="591967" />
	</node>
	<node id="-775786" lat="69.8797666643" lon="21.1670694114">
		<tag k="name" v="Brottneset" />
		<tag k="natural" v="cape" />
		<tag k="ssr:stedsnr" v="431786" />
	</node>
	<node id="-774591" lat="69.8257777783" lon="21.1329194169">
		<tag k="name" v="Langnesbukta" />
		<tag k="natural" v="bay" />
		<tag k="ssr:stedsnr" v="298000" />
	</node>
	<node id="-775593" lat="69.8795222241" lon="21.1390944222">
		<tag k="name" v="Mollamokka" />
		<tag k="name:fkv" v="Mollamokka" />
		<tag k="natural" v="bay" />
		<tag k="ssr:stedsnr" v="248777" />
	</node>
	<node id="-776306" lat="69.8647388864" lon="20.7495999669">
		<tag k="name" v="Mellavika" />
		<tag k="natural" v="bay" />
		<tag k="ssr:stedsnr" v="661033" />
	</node>
	<node id="-775878" lat="69.8536222209" lon="21.0402972094">
		<tag k="fixme" v="consider seamark:type=rock or natural=shoal" />
		<tag k="name" v="Skjæret" />
		<tag k="place" v="islet" />
		<tag k="ssr:stedsnr" v="470697" />
	</node>
	<node id="-776813" lat="69.8134055529" lon="20.990677739">
		<tag k="name" v="Ytterbukta" />
		<tag k="natural" v="bay" />
		<tag k="ssr:stedsnr" v="843728" />
	</node>
	<node id="-775276" lat="69.7932277788" lon="21.0364999681">
		<tag k="name" v="Pollen - Pollo" />
		<tag k="name:fkv" v="Pollo" />
		<tag k="name:no" v="Pollen" />
		<tag k="natural" v="bay" />
		<tag k="ssr:stedsnr" v="140181" />
	</node>
	<node id="-776298" lat="69.8786694481" lon="21.1801360923">
		<tag k="name" v="Seglingsmerkebukta" />
		<tag k="natural" v="bay" />
		<tag k="ssr:stedsnr" v="660743" />
	</node>
	<node id="-775785" lat="69.8795583367" lon="21.1703249885">
		<tag k="name" v="Langbukta" />
		<tag k="natural" v="bay" />
		<tag k="ssr:stedsnr" v="431784" />
	</node>
	<node id="-776293" lat="69.8246249987" lon="20.903199971">
		<tag k="name" v="Bertelneset" />
		<tag k="natural" v="cape" />
		<tag k="ssr:stedsnr" v="660439" />
	</node>
	<node id="-776798" lat="69.8241055575" lon="20.9995333134">
		<tag k="name" v="Ivrineset" />
		<tag k="natural" v="cape" />
		<tag k="ssr:stedsnr" v="843308" />
	</node>
	<node id="-776284" lat="69.9029805585" lon="20.8492249733">
		<tag k="name" v="Rottenvika" />
		<tag k="natural" v="bay" />
		<tag k="ssr:stedsnr" v="660100" />
	</node>
	<node id="-776122" lat="69.8225972234" lon="20.9855833057">
		<tag k="name" v="Geitholmen" />
		<tag k="place" v="islet" />
		<tag k="ssr:stedsnr" v="565980" />
	</node>
	<node id="-774876" lat="69.8619194445" lon="21.0286805348">
		<tag k="name" v="Sørenstøa" />
		<tag k="natural" v="bay" />
		<tag k="ssr:stedsnr" v="409690" />
	</node>
	<node id="-776280" lat="69.9305666685" lon="20.9460027643">
		<tag k="fixme" v="consider seamark:type=rock or natural=shoal" />
		<tag k="name" v="Lilleøra" />
		<tag k="place" v="islet" />
		<tag k="ssr:stedsnr" v="656159" />
	</node>
	<node id="-776279" lat="69.9296722227" lon="20.9578583051">
		<tag k="name" v="Masterneset" />
		<tag k="natural" v="cape" />
		<tag k="ssr:stedsnr" v="656156" />
	</node>
	<node id="-776272" lat="69.8471805545" lon="20.5197444216">
		<tag k="name" v="Skjærneset" />
		<tag k="natural" v="cape" />
		<tag k="ssr:stedsnr" v="631754" />
	</node>
	<node id="-775245" lat="69.8731194443" lon="21.2051666293">
		<tag k="name" v="Diket" />
		<tag k="natural" v="cape" />
		<tag k="ssr:stedsnr" v="115766" />
	</node>
	<node id="-776780" lat="69.900180555" lon="21.190438869">
		<tag k="name" v="Mannesgrunnen" />
		<tag k="natural" v="shoal" />
		<tag k="place" v="locality" />
		<tag k="ssr:stedsnr" v="835972" />
	</node>
	<node id="-776779" lat="69.9288722264" lon="20.9507055332">
		<tag k="name" v="Skomakareidet" />
		<tag k="place" v="locality" />
		<tag k="ssr:stedsnr" v="834809" />
	</node>
	<node id="-776777" lat="69.8166861082" lon="20.7653360988">
		<tag k="name" v="Andersbukta" />
		<tag k="natural" v="bay" />
		<tag k="ssr:stedsnr" v="814816" />
	</node>
	<node id="-776776" lat="69.8021472239" lon="20.6507111003">
		<tag k="name" v="Rødberggrunnen" />
		<tag k="natural" v="shoal" />
		<tag k="place" v="locality" />
		<tag k="ssr:stedsnr" v="813838" />
	</node>
	<node id="-776775" lat="69.7623111088" lon="20.4610833077">
		<tag k="name" v="Spåkenesodden" />
		<tag k="natural" v="cape" />
		<tag k="ssr:stedsnr" v="813832" />
	</node>
	<node id="-774726" lat="69.8258805596" lon="21.008338859">
		<tag k="name" v="Lillesanden" />
		<tag k="natural" v="beach" />
		<tag k="place" v="locality" />
		<tag k="ssr:stedsnr" v="357300" />
	</node>
	<node id="-776772" lat="69.839691664" lon="20.951486082">
		<tag k="fixme" v="multiple name tags, choose one and add the other to alt_name" />
		<tag k="name" v="Sandneset;Sandnesodden" />
		<tag k="natural" v="cape" />
		<tag k="ssr:stedsnr" v="808999" />
	</node>
	<node id="-776771" lat="69.8027416712" lon="20.6427861017">
		<tag k="loc_name:se" v="Geailu" />
		<tag k="name" v="Kjelvågen" />
		<tag k="name:no" v="Kjelvågen" />
		<tag k="natural" v="bay" />
		<tag k="ssr:stedsnr" v="808948" />
	</node>
	<node id="-775772" lat="69.9378138929" lon="21.0492888785">
		<tag k="name" v="Bryggeneset" />
		<tag k="natural" v="cape" />
		<tag k="ssr:stedsnr" v="419736" />
	</node>
	<node id="-775741" lat="69.926836112" lon="21.0093722031">
		<tag k="name" v="Trollbergodden" />
		<tag k="natural" v="cape" />
		<tag k="ssr:stedsnr" v="418710" />
	</node>
	<node id="-776252" lat="69.8619361102" lon="20.6164333046">
		<tag k="name" v="Uløya - Ulisuolu" />
		<tag k="name:no" v="Uløya" />
		<tag k="name:se" v="Ulisuolu" />
		<tag k="old_name:no" v="Uløy" />
		<tag k="place" v="island" />
		<tag k="ssr:stedsnr" v="626536" />
	</node>
	<node id="-775227" lat="69.8794111105" lon="21.1324249613">
		<tag k="name" v="Burneset" />
		<tag k="natural" v="cape" />
		<tag k="ssr:stedsnr" v="115843" />
	</node>
	<node id="-775737" lat="69.8040972192" lon="21.0158333195">
		<tag k="name" v="Harangarko" />
		<tag k="name:fkv" v="Harangarko" />
		<tag k="natural" v="cape" />
		<tag k="ssr:stedsnr" v="418683" />
	</node>
	<node id="-776247" lat="69.7593777752" lon="21.0681610753">
		<tag k="fixme" v="multiple name tags, choose one and add the other to alt_name" />
		<tag k="name" v="Jontineset;Neset" />
		<tag k="natural" v="cape" />
		<tag k="ssr:stedsnr" v="626237" />
	</node>
	<node id="-776757" lat="69.879841668" lon="21.1903305214">
		<tag k="name" v="Sørnesodden" />
		<tag k="natural" v="cape" />
		<tag k="ssr:stedsnr" v="808814" />
	</node>
	<node id="-774708" lat="69.8438916682" lon="20.5171666581">
		<tag k="fixme" v="consider seamark:type=rock or natural=shoal" />
		<tag k="name" v="Lilleskjæret" />
		<tag k="place" v="islet" />
		<tag k="ssr:stedsnr" v="328737" />
	</node>
	<node id="-776243" lat="69.8381055604" lon="20.9480583154">
		<tag k="name" v="Svartneset" />
		<tag k="natural" v="cape" />
		<tag k="ssr:stedsnr" v="625978" />
	</node>
	<node id="-775218" lat="69.8401972246" lon="20.9308944355">
		<tag k="name" v="Eidet" />
		<tag k="place" v="locality" />
		<tag k="ssr:stedsnr" v="114471" />
	</node>
	<node id="-774920" lat="69.8755888925" lon="21.0451583135">
		<tag k="name" v="Storneshamna" />
		<tag k="natural" v="bay" />
		<tag k="ssr:stedsnr" v="895680" />
	</node>
	<node id="-775723" lat="69.9020749999" lon="21.2115749606">
		<tag k="name" v="Klubbeneshamna" />
		<tag k="natural" v="bay" />
		<tag k="ssr:stedsnr" v="418278" />
	</node>
	<node id="-776746" lat="69.8459666683" lon="20.9372222053">
		<tag k="alt_name" v="Kvalvika" />
		<tag k="name" v="Kvalbukta" />
		<tag k="natural" v="bay" />
		<tag k="ssr:stedsnr" v="808505" />
	</node>
	<node id="-776233" lat="69.8132055588" lon="21.1334638609">
		<tag k="name" v="Russeholmen" />
		<tag k="place" v="islet" />
		<tag k="ssr:stedsnr" v="625780" />
	</node>
	<node id="-776743" lat="69.868158332" lon="20.9129194314">
		<tag k="name" v="Seljeholmen" />
		<tag k="place" v="islet" />
		<tag k="ssr:stedsnr" v="808487" />
	</node>
	<node id="-775206" lat="69.9927611153" lon="21.2045333043">
		<tag k="name" v="Pålsavikgrunnen" />
		<tag k="natural" v="shoal" />
		<tag k="place" v="locality" />
		<tag k="ssr:stedsnr" v="106020" />
	</node>
	<node id="-775205" lat="70.0015194422" lon="21.2297444266">
		<tag k="name" v="Perbukta" />
		<tag k="natural" v="bay" />
		<tag k="ssr:stedsnr" v="106017" />
	</node>
	<node id="-775203" lat="69.8225749967" lon="20.9069749729">
		<tag k="name" v="Indre Sokkelvika" />
		<tag k="natural" v="bay" />
		<tag k="ssr:stedsnr" v="89357" />
	</node>
	<node id="-776453" lat="69.7820111156" lon="21.0045638669">
		<tag k="name" v="Elvenes" />
		<tag k="natural" v="cape" />
		<tag k="ssr:stedsnr" v="713668" />
	</node>
	<node id="-775707" lat="69.9157666701" lon="21.3002721983">
		<tag k="name" v="Elveneset" />
		<tag k="natural" v="cape" />
		<tag k="ssr:stedsnr" v="479905" />
	</node>
	<node id="-774567" lat="69.942469448" lon="21.0674055278">
		<tag k="name" v="Torskeneset" />
		<tag k="natural" v="cape" />
		<tag k="ssr:stedsnr" v="296866" />
	</node>
	<node id="-774925" lat="69.7624833366" lon="20.4639027607">
		<tag k="name" v="Spåkenes - Spoahkkanjárga" />
		<tag k="name:no" v="Spåkenes" />
		<tag k="name:se" v="Spoahkkanjárga" />
		<tag k="natural" v="cape" />
		<tag k="ssr:stedsnr" v="389293" />
	</node>
	<node id="-774680" lat="69.9484583317" lon="21.0725444157">
		<tag k="name" v="Seglnesbukta" />
		<tag k="natural" v="bay" />
		<tag k="ssr:stedsnr" v="322887" />
	</node>
	<node id="-775191" lat="69.8458694493" lon="20.7491749843">
		<tag k="alt_name:no" v="Rottsund" />
		<tag k="fixme" v="multiple name tags, choose one and add the other to alt_name" />
		<tag k="name" v="Rotsundet - Guohcanuorri;Gárggonuorri - Nuora" />
		<tag k="name:fkv" v="Nuora" />
		<tag k="name:no" v="Rotsundet" />
		<tag k="name:se" v="Guohcanuorri;Gárggonuorri" />
		<tag k="natural" v="strait" />
		<tag k="ssr:stedsnr" v="80972" />
	</node>
	<node id="-774635" lat="69.8533000032" lon="20.9324638765">
		<tag k="name" v="Bonnikaholmen - Bonnetsuolu" />
		<tag k="name:no" v="Bonnikaholmen" />
		<tag k="name:se" v="Bonnetsuolu" />
		<tag k="place" v="islet" />
		<tag k="ssr:stedsnr" v="322523" />
	</node>
	<node id="-774527" lat="69.9307805566" lon="21.0983860833">
		<tag k="name" v="Seglnesgrunnen" />
		<tag k="natural" v="shoal" />
		<tag k="place" v="locality" />
		<tag k="ssr:stedsnr" v="288788" />
	</node>
	<node id="-775341" lat="69.7732472215" lon="20.5249999743">
		<tag k="alt_name" v="Skogholmen, l" />
		<tag k="fixme" v="multiple name tags, choose one and add the other to alt_name" />
		<tag k="name" v="Lilleholmen;Lille Skogholmen" />
		<tag k="place" v="islet" />
		<tag k="ssr:stedsnr" v="140931" />
	</node>
	<node id="-775692" lat="69.7956166663" lon="20.5425805499">
		<tag k="name" v="Ryggevika" />
		<tag k="natural" v="bay" />
		<tag k="ssr:stedsnr" v="267863" />
	</node>
	<node id="-774659" lat="69.8275361116" lon="21.1329499692">
		<tag k="fixme" v="multiple name tags, choose one and add the other to alt_name" />
		<tag k="name" v="Langneset;Laukvollneset" />
		<tag k="natural" v="cape" />
		<tag k="ssr:stedsnr" v="322740" />
	</node>
	<node id="-775083" lat="69.8221194476" lon="21.1323749766">
		<tag k="name" v="Dangasbukta" />
		<tag k="natural" v="bay" />
		<tag k="ssr:stedsnr" v="54896" />
	</node>
</osm>
