<?xml version="1.0" encoding="UTF-8"?>
<osm generator="osmapis" version="0.6">
	<node id="-776190" lat="69.7362361145" lon="21.090394423">
		<tag k="name" v="Stormyra" />
		<tag k="natural" v="wetland" />
		<tag k="ssr:stedsnr" v="611682" />
	</node>
	<node id="-776189" lat="69.8343027804" lon="21.4057805383">
		<tag k="name" v="Nordpolen" />
		<tag k="place" v="locality" />
		<tag k="ssr:stedsnr" v="600995" />
	</node>
	<node id="-775671" lat="69.8693388889" lon="21.0759694148">
		<tag k="name" v="Stormyra" />
		<tag k="natural" v="wetland" />
		<tag k="ssr:stedsnr" v="262840" />
	</node>
	<node id="-774739" lat="69.6664527772" lon="21.2341638707">
		<tag k="name" v="Storslåtta" />
		<tag k="place" v="locality" />
		<tag k="ssr:stedsnr" v="357551" />
	</node>
	<node id="-776682" lat="69.7632055553" lon="20.5283610966">
		<tag k="name" v="Rotsundmyra" />
		<tag k="natural" v="wetland" />
		<tag k="ssr:stedsnr" v="782980" />
	</node>
	<node id="-776164" lat="69.7432361134" lon="20.7180416549">
		<tag k="name" v="Langmyran" />
		<tag k="natural" v="wetland" />
		<tag k="ssr:stedsnr" v="600245" />
	</node>
	<node id="-776160" lat="69.7616055528" lon="20.7377138605">
		<tag k="name" v="Stormyra" />
		<tag k="natural" v="wetland" />
		<tag k="ssr:stedsnr" v="600208" />
	</node>
	<node id="-776663" lat="69.6614499962" lon="21.3091277562">
		<tag k="name" v="Potkaskogen" />
		<tag k="place" v="locality" />
		<tag k="ssr:stedsnr" v="782534" />
	</node>
	<node id="-776146" lat="69.6402111159" lon="21.2964332966">
		<tag k="name" v="Øverslåtta" />
		<tag k="place" v="locality" />
		<tag k="ssr:stedsnr" v="599599" />
	</node>
	<node id="-774602" lat="69.7719499974" lon="21.0549388529">
		<tag k="name" v="Dalojänkkä" />
		<tag k="name:fkv" v="Dalojänkkä" />
		<tag k="natural" v="wetland" />
		<tag k="ssr:stedsnr" v="297945" />
	</node>
	<node id="-777161" lat="69.7393611093" lon="21.2395249773">
		<tag k="name" v="Sakatjeralaka" />
		<tag k="name:fkv" v="Sakatjeralaka" />
		<tag k="natural" v="wetland" />
		<tag k="ssr:stedsnr" v="965746" />
	</node>
	<node id="-777160" lat="69.7458611106" lon="21.2536777449">
		<tag k="name" v="Bårogentaskogen" />
		<tag k="place" v="locality" />
		<tag k="ssr:stedsnr" v="965745" />
	</node>
	<node id="-775244" lat="69.8663777761" lon="21.1860194228">
		<tag k="name" v="Hestenesmyra" />
		<tag k="natural" v="wetland" />
		<tag k="ssr:stedsnr" v="115759" />
	</node>
	<node id="-776639" lat="69.870024998" lon="20.8711499707">
		<tag k="name" v="Sennamyra" />
		<tag k="natural" v="wetland" />
		<tag k="ssr:stedsnr" v="782005" />
	</node>
	<node id="-777149" lat="69.8763277825" lon="21.1889194216">
		<tag k="name" v="Makkeleira" />
		<tag k="place" v="locality" />
		<tag k="ssr:stedsnr" v="964770" />
	</node>
	<node id="-774584" lat="69.79108889" lon="21.1678194164">
		<tag k="name" v="Myran" />
		<tag k="natural" v="wetland" />
		<tag k="ssr:stedsnr" v="297500" />
	</node>
	<node id="-774583" lat="69.789611112" lon="21.1662777419">
		<tag k="name" v="Trollilantto" />
		<tag k="name:fkv" v="Trollilantto" />
		<tag k="natural" v="wetland" />
		<tag k="ssr:stedsnr" v="297490" />
	</node>
	<node id="-777142" lat="69.798313894" lon="21.0999222008">
		<tag k="name" v="Svennmyra" />
		<tag k="natural" v="wetland" />
		<tag k="ssr:stedsnr" v="964588" />
	</node>
	<node id="-777140" lat="69.783508337" lon="21.0216249664">
		<tag k="name" v="Baliotta" />
		<tag k="name:fkv" v="Baliotta" />
		<tag k="place" v="locality" />
		<tag k="ssr:stedsnr" v="964479" />
	</node>
	<node id="-775091" lat="69.7010777771" lon="21.272202747">
		<tag k="name" v="Storslåtta" />
		<tag k="place" v="locality" />
		<tag k="ssr:stedsnr" v="55689" />
	</node>
	<node id="-775774" lat="69.6766222224" lon="21.2998055169">
		<tag k="name" v="Larsslåtten" />
		<tag k="place" v="locality" />
		<tag k="ssr:stedsnr" v="419747" />
	</node>
	<node id="-775092" lat="69.7083555588" lon="21.2739499714">
		<tag k="name" v="Lohkamyra" />
		<tag k="natural" v="wetland" />
		<tag k="ssr:stedsnr" v="55697" />
	</node>
	<node id="-775087" lat="69.7013416699" lon="21.0790360984">
		<tag k="name" v="Langmyra" />
		<tag k="natural" v="wetland" />
		<tag k="ssr:stedsnr" v="55704" />
	</node>
	<node id="-777130" lat="69.7819611146" lon="20.7208416571">
		<tag k="name" v="Slåttskogan" />
		<tag k="place" v="locality" />
		<tag k="ssr:stedsnr" v="964258" />
	</node>
	<node id="-775239" lat="69.7038472255" lon="21.2721110869">
		<tag k="name" v="Storslåttmyra" />
		<tag k="natural" v="wetland" />
		<tag k="ssr:stedsnr" v="115693" />
	</node>
	<node id="-775588" lat="69.6905666708" lon="21.2347138639">
		<tag k="name" v="Pettermelen" />
		<tag k="place" v="locality" />
		<tag k="ssr:stedsnr" v="237747" />
	</node>
	<node id="-774563" lat="69.8002694462" lon="20.5392360871">
		<tag k="name" v="Kvalbeinåkeren" />
		<tag k="place" v="locality" />
		<tag k="ssr:stedsnr" v="296781" />
	</node>
	<node id="-775073" lat="69.9248305535" lon="20.9576333155">
		<tag k="name" v="Stormyra" />
		<tag k="natural" v="wetland" />
		<tag k="ssr:stedsnr" v="54698" />
	</node>
	<node id="-775581" lat="69.8834583354" lon="21.1896360848">
		<tag k="name" v="Øra" />
		<tag k="place" v="locality" />
		<tag k="ssr:stedsnr" v="236739" />
	</node>
	<node id="-775063" lat="69.6503999982" lon="21.3148694091">
		<tag k="name" v="Hallenskogen" />
		<tag k="place" v="locality" />
		<tag k="ssr:stedsnr" v="54572" />
	</node>
	<node id="-774548" lat="69.781544444" lon="21.0240333144">
		<tag k="name" v="Balimelen" />
		<tag k="place" v="locality" />
		<tag k="ssr:stedsnr" v="296444" />
	</node>
	<node id="-774544" lat="69.7858555549" lon="20.9307360875">
		<tag k="name" v="Torvemyran" />
		<tag k="natural" v="wetland" />
		<tag k="ssr:stedsnr" v="296347" />
	</node>
	<node id="-775055" lat="69.8577527774" lon="21.1846416416">
		<tag k="landuse" v="meadow" />
		<tag k="name" v="Mallokänttä" />
		<tag k="name:fkv" v="Mallokänttä" />
		<tag k="ssr:stedsnr" v="54323" />
	</node>
	<node id="-774535" lat="69.7796250002" lon="20.7115916507">
		<tag k="name" v="Dillemyra" />
		<tag k="natural" v="wetland" />
		<tag k="ssr:stedsnr" v="296211" />
	</node>
	<node id="-774721" lat="69.7830555608" lon="20.709627749">
		<tag k="name" v="Bankskogen" />
		<tag k="place" v="locality" />
		<tag k="ssr:stedsnr" v="357241" />
	</node>
	<node id="-774532" lat="69.8520555572" lon="20.7958194307">
		<tag k="name" v="Brokstestakmyra" />
		<tag k="natural" v="wetland" />
		<tag k="ssr:stedsnr" v="296009" />
	</node>
	<node id="-775043" lat="69.8151166701" lon="20.7941527624">
		<tag k="name" v="Torven" />
		<tag k="natural" v="wetland" />
		<tag k="ssr:stedsnr" v="54060" />
	</node>
	<node id="-774891" lat="69.7470666691" lon="21.0113360786">
		<tag k="name" v="Stormyra" />
		<tag k="natural" v="wetland" />
		<tag k="ssr:stedsnr" v="478402" />
	</node>
	<node id="-775549" lat="69.8192083343" lon="20.7816971976">
		<tag k="name" v="Brustadmyran" />
		<tag k="natural" v="wetland" />
		<tag k="ssr:stedsnr" v="236055" />
	</node>
	<node id="-775402" lat="69.6914749969" lon="21.0823805338">
		<tag k="name" v="Stormyra" />
		<tag k="natural" v="wetland" />
		<tag k="ssr:stedsnr" v="176625" />
	</node>
	<node id="-775024" lat="69.8225055565" lon="20.7873527691">
		<tag k="name" v="Stormyra" />
		<tag k="natural" v="wetland" />
		<tag k="ssr:stedsnr" v="19963" />
	</node>
	<node id="-777056" lat="69.7274305525" lon="21.2413194206">
		<tag k="name" v="Baskabutskogen" />
		<tag k="place" v="locality" />
		<tag k="ssr:stedsnr" v="929670" />
	</node>
	<node id="-777048" lat="69.7290499977" lon="20.639688873">
		<tag k="name" v="Sorbmejiehkki" />
		<tag k="name:se" v="Sorbmejiehkki" />
		<tag k="natural" v="glacier" />
		<tag k="ssr:stedsnr" v="929594" />
	</node>
	<node id="-776023" lat="69.7477222266" lon="21.2435777453">
		<tag k="landuse" v="meadow" />
		<tag k="name" v="Laoungakenttä" />
		<tag k="name:fkv" v="Laoungakenttä" />
		<tag k="ssr:stedsnr" v="540723" />
	</node>
	<node id="-774969" lat="69.7682361088" lon="21.5233638622">
		<tag k="name" v="Luovttat" />
		<tag k="name:se" v="Luovttat" />
		<tag k="natural" v="glacier" />
		<tag k="ssr:stedsnr" v="19204" />
	</node>
	<node id="-776020" lat="69.7744611127" lon="21.017052741">
		<tag k="name" v="Båtnesøra" />
		<tag k="place" v="locality" />
		<tag k="ssr:stedsnr" v="540635" />
	</node>
	<node id="-776004" lat="69.8295138895" lon="20.5225360818">
		<tag k="name" v="Steallijeaggi" />
		<tag k="name:se" v="Steallijeaggi" />
		<tag k="natural" v="wetland" />
		<tag k="ssr:stedsnr" v="539733" />
	</node>
	<node id="-774976" lat="69.5913444418" lon="21.2512749791">
		<tag k="name" v="Bergskogen" />
		<tag k="place" v="locality" />
		<tag k="ssr:stedsnr" v="19347" />
	</node>
	<node id="-776509" lat="69.4888500045" lon="21.4784638663">
		<tag k="name" v="Biltoskogen" />
		<tag k="place" v="locality" />
		<tag k="ssr:stedsnr" v="722950" />
	</node>
	<node id="-776505" lat="69.9087694497" lon="21.3596971905">
		<tag k="name" v="Stormyran" />
		<tag k="natural" v="wetland" />
		<tag k="ssr:stedsnr" v="722921" />
	</node>
	<node id="-775475" lat="69.6947250033" lon="20.6609888714">
		<tag k="name" v="Goahtejiehkki" />
		<tag k="name:se" v="Goahtejiehkki" />
		<tag k="natural" v="glacier" />
		<tag k="ssr:stedsnr" v="201532" />
	</node>
	<node id="-776498" lat="69.7423166635" lon="21.2608305244">
		<tag k="name" v="Fjellmyran" />
		<tag k="natural" v="wetland" />
		<tag k="ssr:stedsnr" v="722762" />
	</node>
	<node id="-776494" lat="69.7419000039" lon="21.0819805224">
		<tag k="name" v="Myrkroken" />
		<tag k="natural" v="wetland" />
		<tag k="ssr:stedsnr" v="722680" />
	</node>
	<node id="-776327" lat="69.6838666643" lon="21.2900999567">
		<tag k="name" v="Storsteinslåtten" />
		<tag k="place" v="locality" />
		<tag k="ssr:stedsnr" v="661705" />
	</node>
	<node id="-776999" lat="69.8236138854" lon="21.1212916445">
		<tag k="name" v="Betshammermyra" />
		<tag k="natural" v="wetland" />
		<tag k="ssr:stedsnr" v="904989" />
	</node>
	<node id="-776998" lat="69.8310583346" lon="21.0733360935">
		<tag k="name" v="Joseftorva" />
		<tag k="natural" v="wetland" />
		<tag k="ssr:stedsnr" v="904985" />
	</node>
	<node id="-776482" lat="69.8248027763" lon="21.0579360793">
		<tag k="name" v="Stormyra" />
		<tag k="natural" v="wetland" />
		<tag k="ssr:stedsnr" v="721977" />
	</node>
	<node id="-776992" lat="69.7918361098" lon="21.1825610792">
		<tag k="name" v="Jermekänttä" />
		<tag k="name:fkv" v="Jermekänttä" />
		<tag k="natural" v="wetland" />
		<tag k="ssr:stedsnr" v="904964" />
	</node>
	<node id="-776476" lat="69.9242749962" lon="20.9629333158">
		<tag k="name" v="Stormyrholmen" />
		<tag k="natural" v="wetland" />
		<tag k="ssr:stedsnr" v="721673" />
	</node>
	<node id="-776474" lat="69.7905861094" lon="21.0790582948">
		<tag k="name" v="Stormyra" />
		<tag k="natural" v="wetland" />
		<tag k="ssr:stedsnr" v="721604" />
	</node>
	<node id="-776470" lat="69.7892111088" lon="21.1018499639">
		<tag k="name" v="Steallimyra" />
		<tag k="natural" v="wetland" />
		<tag k="ssr:stedsnr" v="721507" />
	</node>
	<node id="-776977" lat="69.6665305539" lon="21.2852471923">
		<tag k="name" v="Lunslåtten" />
		<tag k="place" v="locality" />
		<tag k="ssr:stedsnr" v="904539" />
	</node>
	<node id="-776974" lat="69.7649555596" lon="20.724305538">
		<tag k="name" v="Storelvskogen" />
		<tag k="place" v="locality" />
		<tag k="ssr:stedsnr" v="904233" />
	</node>
	<node id="-776973" lat="69.7744027797" lon="20.7269305261">
		<tag k="name" v="Gamskogen" />
		<tag k="place" v="locality" />
		<tag k="ssr:stedsnr" v="904223" />
	</node>
	<node id="-776971" lat="69.8268388878" lon="20.8217610948">
		<tag k="name" v="Skavgropmyra" />
		<tag k="natural" v="wetland" />
		<tag k="ssr:stedsnr" v="904193" />
	</node>
	<node id="-775941" lat="69.8053249978" lon="20.6516471943">
		<tag k="loc_name:se" v="Ruksesorridat" />
		<tag k="name" v="Rødbergan" />
		<tag k="name:no" v="Rødbergan" />
		<tag k="place" v="locality" />
		<tag k="ssr:stedsnr" v="504967" />
	</node>
	<node id="-774914" lat="69.7824666679" lon="20.7281471952">
		<tag k="name" v="Blåmyra" />
		<tag k="natural" v="wetland" />
		<tag k="ssr:stedsnr" v="479229" />
	</node>
	<node id="-776960" lat="69.8651416702" lon="21.0454749795">
		<tag k="name" v="Simoljenkkä" />
		<tag k="name:fkv" v="Simoljenkkä" />
		<tag k="natural" v="wetland" />
		<tag k="ssr:stedsnr" v="903702" />
	</node>
	<node id="-774909" lat="69.8325972188" lon="21.1373027597">
		<tag k="name" v="Lautokänttä" />
		<tag k="name:fkv" v="Lautokänttä" />
		<tag k="place" v="locality" />
		<tag k="ssr:stedsnr" v="478997" />
	</node>
	<node id="-776956" lat="69.7961472224" lon="21.0721527438">
		<tag k="name" v="Goskemijenkkä" />
		<tag k="name:fkv" v="Goskemijenkkä" />
		<tag k="natural" v="wetland" />
		<tag k="ssr:stedsnr" v="903609" />
	</node>
	<node id="-775931" lat="69.8767388902" lon="21.1999916351">
		<tag k="alt_name" v="Naustøyra" />
		<tag k="name" v="Naustøra" />
		<tag k="place" v="locality" />
		<tag k="ssr:stedsnr" v="504809" />
	</node>
	<node id="-775412" lat="69.7884249976" lon="21.1765138485">
		<tag k="name" v="Delkisjänkkä" />
		<tag k="name:fkv" v="Delkisjänkkä" />
		<tag k="natural" v="wetland" />
		<tag k="ssr:stedsnr" v="176934" />
	</node>
	<node id="-775410" lat="69.4757861094" lon="21.4907471835">
		<tag k="name" v="Hurrikaskogen" />
		<tag k="place" v="locality" />
		<tag k="ssr:stedsnr" v="176925" />
	</node>
	<node id="-775409" lat="69.7900916646" lon="21.194891628">
		<tag k="name" v="Leppenkenttä" />
		<tag k="name:fkv" v="Leppenkenttä" />
		<tag k="place" v="locality" />
		<tag k="ssr:stedsnr" v="176924" />
	</node>
	<node id="-775403" lat="69.7188250025" lon="21.253638862">
		<tag k="name" v="Torvbrumyra" />
		<tag k="natural" v="wetland" />
		<tag k="ssr:stedsnr" v="176771" />
	</node>
	<node id="-776938" lat="69.7597444466" lon="20.7120444246">
		<tag k="name" v="Nerteigan" />
		<tag k="place" v="locality" />
		<tag k="ssr:stedsnr" v="903218" />
	</node>
	<node id="-775397" lat="69.7870555529" lon="20.7437527476">
		<tag k="name" v="Lilleura" />
		<tag k="natural" v="scree" />
		<tag k="ssr:stedsnr" v="176224" />
	</node>
	<node id="-775392" lat="69.8704888886" lon="20.7575749787">
		<tag k="name" v="Rødura" />
		<tag k="natural" v="scree" />
		<tag k="ssr:stedsnr" v="176042" />
	</node>
	<node id="-776927" lat="69.5497277831" lon="21.3001777484">
		<tag k="name" v="Sappenskogen" />
		<tag k="place" v="locality" />
		<tag k="ssr:stedsnr" v="873360" />
	</node>
	<node id="-775386" lat="69.759094447" lon="20.4643499773">
		<tag k="name" v="Kandejordet" />
		<tag k="place" v="locality" />
		<tag k="ssr:stedsnr" v="175960" />
	</node>
	<node id="-775385" lat="69.8452277788" lon="20.5307610893">
		<tag k="name" v="Sarvijeaggi" />
		<tag k="natural" v="wetland" />
		<tag k="ssr:stedsnr" v="175846" />
	</node>
	<node id="-775896" lat="69.5508722264" lon="21.3959638544">
		<tag k="name" v="Langmyra" />
		<tag k="natural" v="wetland" />
		<tag k="ssr:stedsnr" v="504227" />
	</node>
	<node id="-775379" lat="69.7914861143" lon="21.107361097">
		<tag k="name" v="Skjellmyra" />
		<tag k="natural" v="wetland" />
		<tag k="ssr:stedsnr" v="175606" />
	</node>
	<node id="-775375" lat="69.7234555586" lon="21.0756527494">
		<tag k="name" v="Olamyra" />
		<tag k="natural" v="wetland" />
		<tag k="ssr:stedsnr" v="175563" />
	</node>
	<node id="-775373" lat="69.8407749965" lon="20.9211694206">
		<tag k="name" v="Stormyra" />
		<tag k="natural" v="wetland" />
		<tag k="ssr:stedsnr" v="175495" />
	</node>
	<node id="-775883" lat="69.7388305592" lon="21.2366638693">
		<tag k="name" v="Røyelmyran" />
		<tag k="natural" v="wetland" />
		<tag k="ssr:stedsnr" v="503678" />
	</node>
	<node id="-775365" lat="69.9282972234" lon="20.9921166471">
		<tag k="name" v="Stakmyra" />
		<tag k="natural" v="wetland" />
		<tag k="ssr:stedsnr" v="175740" />
	</node>
	<node id="-774774" lat="69.7496250049" lon="21.0913555291">
		<tag k="name" v="Galsomelen" />
		<tag k="place" v="locality" />
		<tag k="ssr:stedsnr" v="369618" />
	</node>
	<node id="-776882" lat="69.7502138871" lon="20.9339027578">
		<tag k="name" v="Snøfonna" />
		<tag k="natural" v="glacier" />
		<tag k="ssr:stedsnr" v="868863" />
	</node>
	<node id="-774940" lat="69.7889648558" lon="20.571328196">
		<tag k="name" v="Nordvollen" />
		<tag k="place" v="locality" />
		<tag k="ssr:stedsnr" v="1073814" />
	</node>
	<node id="-776351" lat="69.809313886" lon="21.5860694052">
		<tag k="alt_name" v="Vaddas gruver" />
		<tag k="landuse" v="quarry" />
		<tag k="name" v="Váddás gruver" />
		<tag k="ssr:stedsnr" v="686183" />
	</node>
	<node id="-775316" lat="69.1579666709" lon="22.2367721555">
		<tag k="name" v="Bávdnjaleamši" />
		<tag k="name:se" v="Bávdnjaleamši" />
		<tag k="natural" v="wetland" />
		<tag k="old_name:se" v="Bavdnjalæmši" />
		<tag k="ssr:stedsnr" v="140698" />
	</node>
	<node id="-776337" lat="69.5218416664" lon="21.4274138539">
		<tag k="name" v="Storslåtten" />
		<tag k="place" v="locality" />
		<tag k="ssr:stedsnr" v="661956" />
	</node>
	<node id="-776336" lat="69.7898527801" lon="21.1993249761">
		<tag k="name" v="Hansislåtta" />
		<tag k="place" v="locality" />
		<tag k="ssr:stedsnr" v="661950" />
	</node>
	<node id="-776332" lat="69.9061888876" lon="21.320766644">
		<tag k="name" v="Fiskelvøra" />
		<tag k="place" v="locality" />
		<tag k="ssr:stedsnr" v="661913" />
	</node>
	<node id="-775815" lat="69.2870388949" lon="22.0909499499">
		<tag k="name" v="Skierbmárohtu" />
		<tag k="name:se" v="Skierbmárohtu" />
		<tag k="place" v="locality" />
		<tag k="ssr:stedsnr" v="443839" />
	</node>
	<node id="-776837" lat="69.8190138926" lon="21.4603694061">
		<tag k="landuse" v="meadow" />
		<tag k="name" v="Dalstutomta" />
		<tag k="ssr:stedsnr" v="844992" />
	</node>
	<node id="-776833" lat="69.8016694428" lon="21.1238138629">
		<tag k="landuse" v="meadow" />
		<tag k="name" v="Leppakenttä" />
		<tag k="name:fkv" v="Leppakenttä" />
		<tag k="ssr:stedsnr" v="844826" />
	</node>
	<node id="-775295" lat="69.6594194448" lon="21.2559444178">
		<tag k="name" v="Tørrfosskogen" />
		<tag k="place" v="locality" />
		<tag k="ssr:stedsnr" v="140333" />
	</node>
	<node id="-776830" lat="69.6937416689" lon="21.24048053">
		<tag k="name" v="Lortbekkmyra" />
		<tag k="natural" v="wetland" />
		<tag k="ssr:stedsnr" v="844738" />
	</node>
	<node id="-776829" lat="69.7012861096" lon="21.2808333038">
		<tag k="name" v="Aboslåtta" />
		<tag k="place" v="locality" />
		<tag k="ssr:stedsnr" v="844735" />
	</node>
	<node id="-776827" lat="69.6235388873" lon="21.3064694218">
		<tag k="name" v="Nerskogen" />
		<tag k="place" v="locality" />
		<tag k="ssr:stedsnr" v="844512" />
	</node>
	<node id="-776825" lat="69.8254611138" lon="21.0733944115">
		<tag k="name" v="Asagentatorva" />
		<tag k="natural" v="wetland" />
		<tag k="ssr:stedsnr" v="843967" />
	</node>
	<node id="-776311" lat="69.5476805603" lon="21.317355528">
		<tag k="name" v="Nerslåtta" />
		<tag k="place" v="locality" />
		<tag k="ssr:stedsnr" v="661468" />
	</node>
	<node id="-776822" lat="69.7900888878" lon="21.1800277618">
		<tag k="name" v="Jensislåtta" />
		<tag k="place" v="locality" />
		<tag k="ssr:stedsnr" v="843931" />
	</node>
	<node id="-776821" lat="69.7890888914" lon="21.2011333074">
		<tag k="name" v="Klas-Johannesslåtta" />
		<tag k="place" v="locality" />
		<tag k="ssr:stedsnr" v="843929" />
	</node>
	<node id="-775284" lat="69.6949888899" lon="21.2532749644">
		<tag k="alt_name" v="Kjelderskogen" />
		<tag k="name" v="Kjellerskogen" />
		<tag k="place" v="locality" />
		<tag k="ssr:stedsnr" v="140354" />
	</node>
	<node id="-776307" lat="69.8407805554" lon="20.8578360842">
		<tag k="name" v="Stormyra" />
		<tag k="natural" v="wetland" />
		<tag k="ssr:stedsnr" v="661179" />
	</node>
	<node id="-774769" lat="69.7547555529" lon="21.2903221842">
		<tag k="name" v="Stormyra" />
		<tag k="natural" v="wetland" />
		<tag k="ssr:stedsnr" v="358755" />
	</node>
	<node id="-776303" lat="69.8325861129" lon="21.1179666359">
		<tag k="name" v="Buktskogen" />
		<tag k="place" v="locality" />
		<tag k="ssr:stedsnr" v="660959" />
	</node>
	<node id="-776299" lat="69.8554027782" lon="21.0494333146">
		<tag k="name" v="Lasskenttä" />
		<tag k="name:fkv" v="Lasskenttä" />
		<tag k="place" v="locality" />
		<tag k="ssr:stedsnr" v="660753" />
	</node>
	<node id="-776297" lat="69.7936638867" lon="21.0739083147">
		<tag k="name" v="Randmyra" />
		<tag k="natural" v="wetland" />
		<tag k="ssr:stedsnr" v="660627" />
	</node>
	<node id="-776805" lat="69.7161138933" lon="21.0737916395">
		<tag k="name" v="Henrikmyra" />
		<tag k="natural" v="wetland" />
		<tag k="ssr:stedsnr" v="843576" />
	</node>
	<node id="-775267" lat="69.2083972215" lon="22.3824943801">
		<tag k="name" v="Holvináhpi" />
		<tag k="name:se" v="Holvináhpi" />
		<tag k="natural" v="wetland" />
		<tag k="old_name:se" v="Hålvinappi" />
		<tag k="ssr:stedsnr" v="139667" />
	</node>
	<node id="-774753" lat="69.8734138856" lon="21.1422305267">
		<tag k="name" v="Storsteinen" />
		<tag k="natural" v="stone" />
		<tag k="ssr:stedsnr" v="357768" />
	</node>
	<node id="-776288" lat="69.7689833362" lon="20.5681888785">
		<tag k="name" v="Middagssteinen" />
		<tag k="natural" v="stone" />
		<tag k="ssr:stedsnr" v="660247" />
	</node>
	<node id="-774750" lat="69.8953194476" lon="20.9107194219">
		<tag k="name" v="Stormyra" />
		<tag k="natural" v="wetland" />
		<tag k="ssr:stedsnr" v="357726" />
	</node>
	<node id="-775254" lat="69.827952777" lon="21.0547471915">
		<tag k="name" v="Snemyra" />
		<tag k="natural" v="wetland" />
		<tag k="ssr:stedsnr" v="115972" />
	</node>
	<node id="-775763" lat="69.6256138933" lon="21.2479471868">
		<tag k="name" v="Langmyra" />
		<tag k="natural" v="wetland" />
		<tag k="ssr:stedsnr" v="419521" />
	</node>
	<node id="-776783" lat="69.7969111111" lon="21.1075944252">
		<tag k="name" v="Kjellarmyra" />
		<tag k="natural" v="wetland" />
		<tag k="ssr:stedsnr" v="843610" />
	</node>
	<node id="-776782" lat="69.9293083383" lon="20.9385916415">
		<tag k="name" v="Klokkarøra" />
		<tag k="place" v="locality" />
		<tag k="ssr:stedsnr" v="839162" />
	</node>
	<node id="-775756" lat="69.7644861095" lon="20.7172916367">
		<tag k="name" v="Nerteigen" />
		<tag k="place" v="locality" />
		<tag k="ssr:stedsnr" v="419222" />
	</node>
	<node id="-774728" lat="69.8315194443" lon="21.0320444065">
		<tag k="landuse" v="meadow" />
		<tag k="name" v="Ravalikenttä" />
		<tag k="name:fkv" v="Ravalikenttä" />
		<tag k="ssr:stedsnr" v="357303" />
	</node>
	<node id="-775438" lat="69.3757138876" lon="21.8274249658">
		<tag k="name" v="Mollešvuopmi" />
		<tag k="name:se" v="Mollešvuopmi" />
		<tag k="place" v="locality" />
		<tag k="ssr:stedsnr" v="200826" />
	</node>
	<node id="-775750" lat="69.789924998" lon="20.5582916499">
		<tag k="name" v="Orresteinen" />
		<tag k="natural" v="stone" />
		<tag k="ssr:stedsnr" v="418856" />
	</node>
	<node id="-776260" lat="69.8598388947" lon="21.3747860714">
		<tag k="name" v="Allmenningsmyran" />
		<tag k="natural" v="wetland" />
		<tag k="ssr:stedsnr" v="626815" />
	</node>
	<node id="-774582" lat="69.5456694447" lon="21.293224972">
		<tag k="name" v="Nyslåtta" />
		<tag k="place" v="locality" />
		<tag k="ssr:stedsnr" v="297481" />
	</node>
	<node id="-775233" lat="69.6433083375" lon="21.2985888711">
		<tag k="name" v="Mellakoskislåtta" />
		<tag k="place" v="locality" />
		<tag k="ssr:stedsnr" v="115555" />
	</node>
	<node id="-776766" lat="69.7606027801" lon="20.4831694353">
		<tag k="fixme" v="multiple name tags, choose one and add the other to alt_name" />
		<tag k="name" v="Spåkenesmyra;Stormyra" />
		<tag k="natural" v="wetland" />
		<tag k="ssr:stedsnr" v="808914" />
	</node>
	<node id="-776248" lat="69.6679888944" lon="21.2466360741">
		<tag k="name" v="Holmeskogen" />
		<tag k="place" v="locality" />
		<tag k="ssr:stedsnr" v="626363" />
	</node>
	<node id="-775223" lat="69.7657805531" lon="20.7248638553">
		<tag k="name" v="Pettersenmyra" />
		<tag k="natural" v="wetland" />
		<tag k="ssr:stedsnr" v="115226" />
	</node>
	<node id="-775731" lat="69.6562777757" lon="21.2812444226">
		<tag k="name" v="Heikaskogen" />
		<tag k="place" v="locality" />
		<tag k="ssr:stedsnr" v="418544" />
	</node>
	<node id="-775727" lat="69.7989416658" lon="21.1287027409">
		<tag k="name" v="Ragijenkkä" />
		<tag k="name:fkv" v="Ragijenkkä" />
		<tag k="natural" v="wetland" />
		<tag k="ssr:stedsnr" v="418502" />
	</node>
	<node id="-775211" lat="69.8481888875" lon="20.8015527593">
		<tag k="name" v="Stormyra" />
		<tag k="natural" v="wetland" />
		<tag k="ssr:stedsnr" v="114101" />
	</node>
	<node id="-775716" lat="69.8435305585" lon="20.8536805367">
		<tag k="name" v="Stormyra" />
		<tag k="natural" v="wetland" />
		<tag k="ssr:stedsnr" v="418089" />
	</node>
	<node id="-775201" lat="69.7625611157" lon="20.5187916398">
		<tag k="alt_name" v="Daljorda" />
		<tag k="name" v="Daljordet" />
		<tag k="place" v="locality" />
		<tag k="ssr:stedsnr" v="85812" />
	</node>
	<node id="-775710" lat="69.790880552" lon="21.1779860858">
		<tag k="name" v="Dalslåtta" />
		<tag k="place" v="locality" />
		<tag k="ssr:stedsnr" v="479941" />
	</node>
	<node id="-775706" lat="69.8012916695" lon="21.1000138625">
		<tag k="landuse" v="meadow" />
		<tag k="name" v="Vollakenttä" />
		<tag k="name:fkv" v="Vollakenttä" />
		<tag k="ssr:stedsnr" v="479863" />
	</node>
	<node id="-774681" lat="69.760872224" lon="20.5054111051">
		<tag k="fixme" v="multiple name tags, choose one and add the other to alt_name" />
		<tag k="name" v="Kvitmyra;Slottemyra" />
		<tag k="natural" v="wetland" />
		<tag k="ssr:stedsnr" v="322913" />
	</node>
	<node id="-775703" lat="69.7250222218" lon="21.2588833118">
		<tag k="name" v="Baskabutmyra" />
		<tag k="natural" v="wetland" />
		<tag k="ssr:stedsnr" v="479775" />
	</node>
	<node id="-775700" lat="69.6907888907" lon="21.2680971829">
		<tag k="name" v="Stormyra" />
		<tag k="natural" v="wetland" />
		<tag k="ssr:stedsnr" v="479729" />
	</node>
	<node id="-777124" lat="69.8524888893" lon="20.7829138644">
		<tag k="name" v="Nesmyra" />
		<tag k="natural" v="wetland" />
		<tag k="ssr:stedsnr" v="964016" />
	</node>
	<node id="-775693" lat="69.6697250008" lon="21.2783527462">
		<tag k="name" v="Rødstillslåtten" />
		<tag k="place" v="locality" />
		<tag k="ssr:stedsnr" v="479570" />
	</node>
	<node id="-774742" lat="69.7904916679" lon="21.1017527608">
		<tag k="name" v="Steallislåtta" />
		<tag k="place" v="locality" />
		<tag k="ssr:stedsnr" v="357593" />
	</node>
	<node id="-776194" lat="69.1036277784" lon="22.3169916147">
		<tag k="name" v="Geassáhpi" />
		<tag k="name:se" v="Geassáhpi" />
		<tag k="natural" v="wetland" />
		<tag k="old_name:se" v="Gæssappi" />
		<tag k="ssr:stedsnr" v="624739" />
	</node>
</osm>
