<?xml version="1.0" encoding="UTF-8"?>
<osm generator="osmapis" version="0.6">
	<node id="-776169" lat="69.7686777804" lon="21.00764443">
		<tag k="name" v="Navaren" />
		<tag k="place" v="quarter" />
		<tag k="ssr:stedsnr" v="600606" />
	</node>
	<node id="-776155" lat="69.7940027771" lon="20.6022583074">
		<tag k="name" v="John-Kristianplassen" />
		<tag k="place" v="locality" />
		<tag k="ssr:stedsnr" v="599869" />
	</node>
	<node id="-776150" lat="69.8730972251" lon="21.0434610906">
		<tag k="name" v="Stornes" />
		<tag k="place" v="farm" />
		<tag k="ssr:stedsnr" v="599719" />
	</node>
	<node id="-776123" lat="69.8293388901" lon="20.7857499832">
		<tag k="alt_name" v="Ravelseidet, in;Ravelseidet indre" />
		<tag k="name" v="Indre Ravelseidet" />
		<tag k="place" v="farm" />
		<tag k="ssr:stedsnr" v="565997" />
	</node>
	<node id="-776121" lat="69.8226666629" lon="20.531311098">
		<tag k="name" v="Flateng" />
		<tag k="place" v="farm" />
		<tag k="ssr:stedsnr" v="565975" />
	</node>
	<node id="-776120" lat="69.799461974" lon="20.9269455346">
		<tag k="name" v="Ytre Sørkjosen" />
		<tag k="place" v="farm" />
		<tag k="ssr:stedsnr" v="565968" />
	</node>
	<node id="-776119" lat="69.8091166662" lon="20.5341888753">
		<tag k="fixme" v="multiple name tags, choose one and add the other to alt_name" />
		<tag k="name" v="Skilet;Skjellet" />
		<tag k="place" v="farm" />
		<tag k="ssr:stedsnr" v="565964" />
	</node>
	<node id="-776116" lat="69.8097111135" lon="20.6816138714">
		<tag k="name" v="Rødberg" />
		<tag k="place" v="locality" />
		<tag k="ssr:stedsnr" v="565955" />
	</node>
	<node id="-776115" lat="69.7739888912" lon="20.5662388722">
		<tag k="name" v="Klavenes" />
		<tag k="place" v="farm" />
		<tag k="ssr:stedsnr" v="565933" />
	</node>
	<node id="-776114" lat="69.7782694462" lon="20.9619527427">
		<tag k="name" v="Solly" />
		<tag k="place" v="farm" />
		<tag k="ssr:stedsnr" v="565930" />
	</node>
	<node id="-776110" lat="69.9138499976" lon="21.3214277392">
		<tag k="fixme" v="consider place=hamlet" />
		<tag k="loc_name:fkv" v="Aksuvuononhamina" />
		<tag k="name" v="Oksfjordhamn" />
		<tag k="name:no" v="Oksfjordhamn" />
		<tag k="place" v="village" />
		<tag k="ssr:stedsnr" v="565856" />
	</node>
	<node id="-776109" lat="69.9069055556" lon="21.350997203">
		<tag k="name" v="Haug" />
		<tag k="place" v="farm" />
		<tag k="ssr:stedsnr" v="565854" />
	</node>
	<node id="-776108" lat="69.8912749962" lon="21.332674979">
		<tag k="name" v="Skogli" />
		<tag k="place" v="isolated_dwelling" />
		<tag k="ssr:stedsnr" v="565845" />
	</node>
	<node id="-776107" lat="69.8884833353" lon="21.1918416445">
		<tag k="name" v="Alvestad" />
		<tag k="place" v="isolated_dwelling" />
		<tag k="ssr:stedsnr" v="565838" />
	</node>
	<node id="-776106" lat="69.8841900846" lon="21.4421719564">
		<tag k="name" v="Mettevoll" />
		<tag k="old_name" v="Mettevollen" />
		<tag k="place" v="farm" />
		<tag k="ssr:stedsnr" v="565832" />
	</node>
	<node id="-776104" lat="69.8763861126" lon="21.2046499825">
		<tag k="fixme" v="consider place=hamlet" />
		<tag k="name" v="Straumfjordnes" />
		<tag k="place" v="village" />
		<tag k="ssr:stedsnr" v="565826" />
	</node>
	<node id="-776103" lat="69.878644447" lon="21.4413777577">
		<tag k="name" v="Seljeland" />
		<tag k="place" v="farm" />
		<tag k="ssr:stedsnr" v="565819" />
	</node>
	<node id="-776102" lat="69.8551416679" lon="21.0535694308">
		<tag k="alt_name" v="Storvik, yt" />
		<tag k="name" v="Ytre Storvik" />
		<tag k="place" v="farm" />
		<tag k="ssr:stedsnr" v="565815" />
	</node>
	<node id="-776100" lat="69.8565500022" lon="21.2293110762">
		<tag k="alt_name" v="Hammervoll" />
		<tag k="name" v="Hamarvoll" />
		<tag k="place" v="farm" />
		<tag k="ssr:stedsnr" v="565803" />
	</node>
	<node id="-776098" lat="69.8244305537" lon="21.4322388576">
		<tag k="name" v="Dalheim" />
		<tag k="place" v="farm" />
		<tag k="ssr:stedsnr" v="565782" />
	</node>
	<node id="-774811" lat="69.6800444498" lon="21.2309083043">
		<tag k="name" v="Olsborg" />
		<tag k="place" v="farm" />
		<tag k="ssr:stedsnr" v="383341" />
	</node>
	<node id="-776090" lat="69.9204694477" lon="20.9687833013">
		<tag k="name" v="Slettmo" />
		<tag k="place" v="farm" />
		<tag k="ssr:stedsnr" v="565544" />
	</node>
	<node id="-776089" lat="69.9178694485" lon="20.9629499681">
		<tag k="name" v="Leiros" />
		<tag k="place" v="farm" />
		<tag k="ssr:stedsnr" v="565536" />
	</node>
	<node id="-776082" lat="69.8659055527" lon="20.8903249847">
		<tag k="name" v="Solvang" />
		<tag k="place" v="farm" />
		<tag k="ssr:stedsnr" v="565477" />
	</node>
	<node id="-776079" lat="69.8070222206" lon="20.7497999749">
		<tag k="name" v="Langlia" />
		<tag k="place" v="farm" />
		<tag k="ssr:stedsnr" v="565442" />
	</node>
	<node id="-776073" lat="69.6770555591" lon="21.2453999734">
		<tag k="name" v="Nyelvholmen" />
		<tag k="place" v="farm" />
		<tag k="ssr:stedsnr" v="565319" />
	</node>
	<node id="-776071" lat="69.6643444479" lon="21.3050749638">
		<tag k="name" v="Solheim" />
		<tag k="place" v="farm" />
		<tag k="ssr:stedsnr" v="565306" />
	</node>
	<node id="-776066" lat="69.7911333376" lon="21.0490499659">
		<tag k="alt_name" v="Flatvoll" />
		<tag k="name" v="Flatvollen" />
		<tag k="place" v="farm" />
		<tag k="ssr:stedsnr" v="565178" />
	</node>
	<node id="-776051" lat="69.7467083318" lon="21.1095999648">
		<tag k="name" v="Ringstad" />
		<tag k="place" v="farm" />
		<tag k="ssr:stedsnr" v="564728" />
	</node>
	<node id="-776050" lat="69.7413055569" lon="21.1596555237">
		<tag k="name" v="Fagertun" />
		<tag k="place" v="farm" />
		<tag k="ssr:stedsnr" v="564719" />
	</node>
	<node id="-776047" lat="69.7342999963" lon="21.2066277546">
		<tag k="name" v="Rundhaug" />
		<tag k="place" v="farm" />
		<tag k="ssr:stedsnr" v="564679" />
	</node>
	<node id="-776046" lat="69.7368000022" lon="21.1955499767">
		<tag k="name" v="Hauge" />
		<tag k="place" v="farm" />
		<tag k="ssr:stedsnr" v="564678" />
	</node>
	<node id="-776045" lat="69.7232749971" lon="21.0509388681">
		<tag k="name" v="Heggenes" />
		<tag k="place" v="farm" />
		<tag k="ssr:stedsnr" v="564676" />
	</node>
	<node id="-776039" lat="69.8594472239" lon="20.8655416542">
		<tag k="alt_name" v="Bakkeby, yt" />
		<tag k="name" v="Ytre Bakkeby" />
		<tag k="place" v="farm" />
		<tag k="ssr:stedsnr" v="564543" />
	</node>
	<node id="-776038" lat="69.8479666692" lon="20.7922833168">
		<tag k="name" v="Bergheim" />
		<tag k="place" v="farm" />
		<tag k="ssr:stedsnr" v="564530" />
	</node>
	<node id="-775992" lat="69.7860448852" lon="20.9486672842">
		<tag k="name" v="Sørkjosen" />
		<tag k="place" v="farm" />
		<tag k="ssr:stedsnr" v="539347" />
	</node>
	<node id="-775979" lat="69.9278666647" lon="20.9489610875">
		<tag k="name" v="Hamn" />
		<tag k="place" v="farm" />
		<tag k="ssr:stedsnr" v="535166" />
	</node>
	<node id="-775976" lat="69.8988083319" lon="21.289627758">
		<tag k="name" v="Hamnes" />
		<tag k="place" v="farm" />
		<tag k="ssr:stedsnr" v="531972" />
	</node>
	<node id="-775973" lat="69.9148638894" lon="21.318472187">
		<tag k="name" v="Akkarjord" />
		<tag k="place" v="isolated_dwelling" />
		<tag k="ssr:stedsnr" v="531017" />
	</node>
	<node id="-775968" lat="69.8379055555" lon="20.9172027547">
		<tag k="name" v="Sokkelvik" />
		<tag k="place" v="farm" />
		<tag k="ssr:stedsnr" v="539406" />
	</node>
	<node id="-775967" lat="69.7267722229" lon="21.2145055278">
		<tag k="name" v="Skogheim" />
		<tag k="place" v="farm" />
		<tag k="ssr:stedsnr" v="525184" />
	</node>
	<node id="-775965" lat="69.7890888871" lon="21.0494333083">
		<tag k="name" v="Flatvoll" />
		<tag k="place" v="hamlet" />
		<tag k="ssr:stedsnr" v="512005" />
	</node>
	<node id="-775958" lat="69.8919194463" lon="20.8012694184">
		<tag k="name" v="Russelv" />
		<tag k="place" v="locality" />
		<tag k="ssr:stedsnr" v="510155" />
	</node>
	<node id="-775957" lat="69.8592777789" lon="21.0513360911">
		<tag k="name" v="Myrli" />
		<tag k="place" v="farm" />
		<tag k="ssr:stedsnr" v="505810" />
	</node>
	<node id="-775956" lat="69.8479666685" lon="21.2276055275">
		<tag k="name" v="Durmålsskardet" />
		<tag k="place" v="isolated_dwelling" />
		<tag k="ssr:stedsnr" v="505788" />
	</node>
	<node id="-775955" lat="69.8536805567" lon="21.2321472064">
		<tag k="name" v="Durmålsskardet" />
		<tag k="place" v="farm" />
		<tag k="ssr:stedsnr" v="505787" />
	</node>
	<node id="-775951" lat="69.870299997" lon="20.9002083065">
		<tag k="alt_name" v="Selje" />
		<tag k="name" v="Selja" />
		<tag k="place" v="farm" />
		<tag k="ssr:stedsnr" v="505511" />
	</node>
	<node id="-775946" lat="69.6061781155" lon="21.2989307461">
		<tag k="fixme" v="consider place=hamlet" />
		<tag k="name" v="Holmbo" />
		<tag k="place" v="farm" />
		<tag k="ssr:stedsnr" v="505366" />
	</node>
	<node id="-775945" lat="69.6555611158" lon="21.3081166437">
		<tag k="alt_name" v="Gæira" />
		<tag k="name" v="Geira" />
		<tag k="place" v="farm" />
		<tag k="ssr:stedsnr" v="505336" />
	</node>
	<node id="-775942" lat="69.8249416703" lon="20.7845999835">
		<tag k="name" v="Myrland" />
		<tag k="place" v="farm" />
		<tag k="ssr:stedsnr" v="504977" />
	</node>
	<node id="-775940" lat="69.7882138862" lon="20.6425666463">
		<tag k="name" v="Skog" />
		<tag k="place" v="farm" />
		<tag k="ssr:stedsnr" v="504956" />
	</node>
	<node id="-775937" lat="69.9177305559" lon="21.290638849">
		<tag k="name" v="Nordeng" />
		<tag k="place" v="farm" />
		<tag k="ssr:stedsnr" v="504852" />
	</node>
	<node id="-775926" lat="69.8236750043" lon="21.1794527453">
		<tag k="name" v="Fagerli" />
		<tag k="place" v="isolated_dwelling" />
		<tag k="ssr:stedsnr" v="504758" />
	</node>
	<node id="-775924" lat="69.7430249979" lon="21.0552999702">
		<tag k="name" v="Grubbli" />
		<tag k="place" v="farm" />
		<tag k="ssr:stedsnr" v="504744" />
	</node>
	<node id="-775919" lat="69.7372194483" lon="21.1258944072">
		<tag k="alt_name" v="Annabakkelva;Annebakkelv" />
		<tag k="name" v="Annabakkelv" />
		<tag k="place" v="farm" />
		<tag k="ssr:stedsnr" v="504704" />
	</node>
	<node id="-775918" lat="69.493233332" lon="21.4599666276">
		<tag k="name" v="Puntastilla" />
		<tag k="place" v="isolated_dwelling" />
		<tag k="ssr:stedsnr" v="504705" />
	</node>
	<node id="-775916" lat="69.7253361111" lon="21.2298805146">
		<tag k="name" v="Vegmo" />
		<tag k="place" v="isolated_dwelling" />
		<tag k="ssr:stedsnr" v="504687" />
	</node>
	<node id="-775908" lat="69.8618250056" lon="20.8754944166">
		<tag k="name" v="Bjørkestad" />
		<tag k="place" v="farm" />
		<tag k="ssr:stedsnr" v="504540" />
	</node>
	<node id="-775906" lat="69.8505444437" lon="20.7844944203">
		<tag k="name" v="Elvebakken" />
		<tag k="place" v="farm" />
		<tag k="ssr:stedsnr" v="504524" />
	</node>
	<node id="-775900" lat="69.7014361091" lon="21.2539221868">
		<tag k="name" v="Molund" />
		<tag k="place" v="farm" />
		<tag k="ssr:stedsnr" v="504316" />
	</node>
	<node id="-775895" lat="69.5357750027" lon="21.3471833035">
		<tag k="name" v="Gahperus" />
		<tag k="name:se" v="Gahperus" />
		<tag k="place" v="farm" />
		<tag k="ssr:stedsnr" v="504222" />
	</node>
	<node id="-775894" lat="69.521855558" lon="21.410713856">
		<tag k="name" v="Svartfoss" />
		<tag k="place" v="farm" />
		<tag k="ssr:stedsnr" v="504217" />
	</node>
	<node id="-775893" lat="69.7772194467" lon="21.0407471875">
		<tag k="name" v="Mælen" />
		<tag k="place" v="farm" />
		<tag k="ssr:stedsnr" v="504186" />
	</node>
	<node id="-775891" lat="69.7928499992" lon="21.1201833188">
		<tag k="alt_name" v="Oldervoll" />
		<tag k="name" v="Oldervollen" />
		<tag k="place" v="isolated_dwelling" />
		<tag k="ssr:stedsnr" v="504179" />
	</node>
	<node id="-775889" lat="69.7959000005" lon="21.0895527454">
		<tag k="name" v="Rollstad" />
		<tag k="place" v="farm" />
		<tag k="ssr:stedsnr" v="504166" />
	</node>
	<node id="-775885" lat="69.7452361094" lon="21.1465055255">
		<tag k="name" v="Blomli" />
		<tag k="place" v="farm" />
		<tag k="ssr:stedsnr" v="503689" />
	</node>
	<node id="-775884" lat="69.7431499975" lon="21.156261079">
		<tag k="alt_name" v="Hysingjord" />
		<tag k="name" v="Hysingjorda" />
		<tag k="place" v="farm" />
		<tag k="ssr:stedsnr" v="503681" />
	</node>
	<node id="-775880" lat="69.9273333319" lon="21.2138944271">
		<tag k="alt_name" v="Arneng, yt" />
		<tag k="fixme" v="multiple name tags, choose one and add the other to alt_name" />
		<tag k="name" v="Arneng;Ytre Arneng" />
		<tag k="place" v="farm" />
		<tag k="ssr:stedsnr" v="487871" />
	</node>
	<node id="-775876" lat="69.7846249988" lon="20.9590833065">
		<tag k="name" v="Metambe" />
		<tag k="place" v="isolated_dwelling" />
		<tag k="ssr:stedsnr" v="470623" />
	</node>
	<node id="-775875" lat="69.8307444433" lon="21.048233314">
		<tag k="name" v="Indre Storvik" />
		<tag k="place" v="hamlet" />
		<tag k="ssr:stedsnr" v="470706" />
	</node>
	<node id="-775874" lat="69.8422972243" lon="21.0619083109">
		<tag k="name" v="Haugen" />
		<tag k="place" v="isolated_dwelling" />
		<tag k="ssr:stedsnr" v="470703" />
	</node>
	<node id="-775872" lat="69.777588887" lon="20.5896055341">
		<tag k="fixme" v="consider place=hamlet" />
		<tag k="loc_name:fkv" v="Nuora" />
		<tag k="name" v="Rotsund" />
		<tag k="name:no" v="Rotsund" />
		<tag k="place" v="village" />
		<tag k="ssr:stedsnr" v="451879" />
	</node>
	<node id="-775869" lat="69.7940555526" lon="20.9335194253">
		<tag k="name" v="Ramnklo" />
		<tag k="place" v="farm" />
		<tag k="ssr:stedsnr" v="444966" />
	</node>
	<node id="-775864" lat="69.7720222231" lon="21.0129305305">
		<tag k="name" v="Båtnes" />
		<tag k="place" v="farm" />
		<tag k="ssr:stedsnr" v="444925" />
	</node>
	<node id="-775859" lat="69.901727779" lon="21.3743027458">
		<tag k="name" v="Elvestad" />
		<tag k="place" v="isolated_dwelling" />
		<tag k="ssr:stedsnr" v="444844" />
	</node>
	<node id="-775857" lat="69.8898000049" lon="21.3407832986">
		<tag k="name" v="Vannbukta" />
		<tag k="place" v="isolated_dwelling" />
		<tag k="ssr:stedsnr" v="444825" />
	</node>
	<node id="-775856" lat="69.8746833372" lon="21.1821583115">
		<tag k="name" v="Lyngmo" />
		<tag k="place" v="farm" />
		<tag k="ssr:stedsnr" v="444820" />
	</node>
	<node id="-775854" lat="69.8681083311" lon="21.2175333019">
		<tag k="alt_name" v="Bjerkli" />
		<tag k="name" v="Bjørkli" />
		<tag k="place" v="farm" />
		<tag k="ssr:stedsnr" v="444807" />
	</node>
	<node id="-775853" lat="69.8663305576" lon="21.0414610961">
		<tag k="fixme" v="multiple name tags, choose one and add the other to alt_name" />
		<tag k="name" v="Litlevik;Stangnesbukt" />
		<tag k="place" v="isolated_dwelling" />
		<tag k="ssr:stedsnr" v="444801" />
	</node>
	<node id="-775850" lat="69.8453305578" lon="21.1504333142">
		<tag k="name" v="Storbukta" />
		<tag k="place" v="farm" />
		<tag k="ssr:stedsnr" v="444768" />
	</node>
	<node id="-775849" lat="69.8315777818" lon="21.0518471886">
		<tag k="alt_name" v="Storvik, in" />
		<tag k="fixme" v="multiple name tags, choose one and add the other to alt_name" />
		<tag k="name" v="Assevoll;Indre Storvik" />
		<tag k="place" v="farm" />
		<tag k="ssr:stedsnr" v="444763" />
	</node>
	<node id="-775847" lat="69.7131500055" lon="21.2307999669">
		<tag k="name" v="Kjellmo" />
		<tag k="place" v="farm" />
		<tag k="ssr:stedsnr" v="444704" />
	</node>
	<node id="-775846" lat="69.7119861094" lon="21.2487249742">
		<tag k="name" v="Sætrum" />
		<tag k="place" v="farm" />
		<tag k="ssr:stedsnr" v="444699" />
	</node>
	<node id="-775845" lat="69.7364256807" lon="21.1780727552">
		<tag k="name" v="Røyland" />
		<tag k="place" v="farm" />
		<tag k="ssr:stedsnr" v="444689" />
	</node>
	<node id="-775844" lat="69.7328722251" lon="21.183836082">
		<tag k="name" v="Solborg" />
		<tag k="old_name" v="Solberg" />
		<tag k="place" v="farm" />
		<tag k="ssr:stedsnr" v="444683" />
	</node>
	<node id="-775843" lat="69.7346861071" lon="21.2105110917">
		<tag k="name" v="Enga" />
		<tag k="place" v="farm" />
		<tag k="ssr:stedsnr" v="444681" />
	</node>
	<node id="-775841" lat="69.9358421704" lon="20.9838549345">
		<tag k="name" v="Skogly" />
		<tag k="place" v="farm" />
		<tag k="ssr:stedsnr" v="444568" />
	</node>
	<node id="-775826" lat="69.6039361145" lon="21.2659694216">
		<tag k="name" v="Fielma" />
		<tag k="place" v="farm" />
		<tag k="ssr:stedsnr" v="444325" />
	</node>
	<node id="-775822" lat="69.683227781" lon="21.2196638523">
		<tag k="name" v="Voll" />
		<tag k="place" v="isolated_dwelling" />
		<tag k="ssr:stedsnr" v="444304" />
	</node>
	<node id="-775821" lat="69.6819833374" lon="21.2492499758">
		<tag k="name" v="Einevoll" />
		<tag k="place" v="farm" />
		<tag k="ssr:stedsnr" v="444301" />
	</node>
	<node id="-775820" lat="69.6682222239" lon="21.2647694097">
		<tag k="name" v="Slettset" />
		<tag k="place" v="farm" />
		<tag k="ssr:stedsnr" v="444293" />
	</node>
	<node id="-775806" lat="69.7437194492" lon="21.1512305364">
		<tag k="name" v="Bakketun" />
		<tag k="place" v="farm" />
		<tag k="ssr:stedsnr" v="443700" />
	</node>
	<node id="-775792" lat="69.5508555562" lon="21.3112471847">
		<tag k="name" v="Bjørnlund" />
		<tag k="place" v="farm" />
		<tag k="ssr:stedsnr" v="444239" />
	</node>
	<node id="-775770" lat="69.7595361089" lon="21.0309499745">
		<tag k="name" v="Tomasjord" />
		<tag k="place" v="farm" />
		<tag k="ssr:stedsnr" v="419692" />
	</node>
	<node id="-775769" lat="69.7589027763" lon="21.0224277474">
		<tag k="name" v="Sagvollen" />
		<tag k="place" v="farm" />
		<tag k="ssr:stedsnr" v="419691" />
	</node>
	<node id="-775767" lat="69.7691527831" lon="21.0163249759">
		<tag k="name" v="Arildborg" />
		<tag k="place" v="farm" />
		<tag k="ssr:stedsnr" v="419636" />
	</node>
	<node id="-775765" lat="69.6084777824" lon="21.2878138485">
		<tag k="name" v="Heimlund" />
		<tag k="place" v="farm" />
		<tag k="ssr:stedsnr" v="419524" />
	</node>
	<node id="-775743" lat="69.9052694469" lon="20.9494833204">
		<tag k="name" v="Gammelgården" />
		<tag k="place" v="farm" />
		<tag k="ssr:stedsnr" v="418716" />
	</node>
	<node id="-775729" lat="69.7303888921" lon="21.1833999834">
		<tag k="name" v="Røyelen" />
		<tag k="place" v="farm" />
		<tag k="ssr:stedsnr" v="418542" />
	</node>
	<node id="-775708" lat="69.9074527742" lon="21.3365138617">
		<tag k="name" v="Vintersetet" />
		<tag k="place" v="locality" />
		<tag k="ssr:stedsnr" v="479906" />
	</node>
	<node id="-775695" lat="69.773874998" lon="21.0295972058">
		<tag k="name" v="Hansabakken" />
		<tag k="place" v="farm" />
		<tag k="ssr:stedsnr" v="479675" />
	</node>
	<node id="-775690" lat="69.8424750029" lon="20.7941055333">
		<tag k="name" v="Eldstad" />
		<tag k="place" v="farm" />
		<tag k="ssr:stedsnr" v="262992" />
	</node>
	<node id="-775689" lat="69.8194611114" lon="20.774655537">
		<tag k="name" v="Langslett" />
		<tag k="place" v="farm" />
		<tag k="ssr:stedsnr" v="262986" />
	</node>
	<node id="-775686" lat="69.7858694461" lon="20.7147721998">
		<tag k="name" v="Rotsunddalen" />
		<tag k="place" v="farm" />
		<tag k="ssr:stedsnr" v="262959" />
	</node>
	<node id="-775684" lat="69.7850002863" lon="20.7049998893">
		<tag k="fixme" v="consider place=hamlet" />
		<tag k="name" v="Rotsundelva" />
		<tag k="place" v="farm" />
		<tag k="ssr:stedsnr" v="262950" />
	</node>
	<node id="-775683" lat="69.7719472241" lon="20.5554194389">
		<tag k="name" v="Leiknes" />
		<tag k="place" v="farm" />
		<tag k="ssr:stedsnr" v="262943" />
	</node>
	<node id="-775682" lat="69.7837583347" lon="20.6210277501">
		<tag k="name" v="Nybo" />
		<tag k="place" v="farm" />
		<tag k="ssr:stedsnr" v="262938" />
	</node>
	<node id="-775681" lat="69.7765750005" lon="20.7247444275">
		<tag k="name" v="Lundemo" />
		<tag k="place" v="farm" />
		<tag k="ssr:stedsnr" v="262936" />
	</node>
	<node id="-775677" lat="69.9201361106" lon="21.2471472038">
		<tag k="alt_name" v="Bakkevoll" />
		<tag k="name" v="Bakkevollen" />
		<tag k="place" v="isolated_dwelling" />
		<tag k="ssr:stedsnr" v="262888" />
	</node>
	<node id="-775676" lat="69.9154638914" lon="21.31724164">
		<tag k="name" v="Elvelund" />
		<tag k="place" v="farm" />
		<tag k="ssr:stedsnr" v="262884" />
	</node>
	<node id="-775675" lat="69.8907694408" lon="21.1918333143">
		<tag k="alt_name" v="Gamlevær" />
		<tag k="name" v="Gammelvær" />
		<tag k="place" v="locality" />
		<tag k="ssr:stedsnr" v="262867" />
	</node>
	<node id="-775673" lat="69.8795861099" lon="21.4414749595">
		<tag k="name" v="Elveland" />
		<tag k="place" v="farm" />
		<tag k="ssr:stedsnr" v="262852" />
	</node>
	<node id="-775672" lat="69.8729999962" lon="21.44519164">
		<tag k="name" v="Rosenlund" />
		<tag k="place" v="farm" />
		<tag k="ssr:stedsnr" v="262853" />
	</node>
	<node id="-775670" lat="69.8627111084" lon="21.0497638564">
		<tag k="name" v="Myrstad" />
		<tag k="place" v="isolated_dwelling" />
		<tag k="ssr:stedsnr" v="262836" />
	</node>
	<node id="-775669" lat="69.866861107" lon="21.4118972017">
		<tag k="name" v="Nedregård" />
		<tag k="place" v="isolated_dwelling" />
		<tag k="ssr:stedsnr" v="262833" />
	</node>
	<node id="-775654" lat="69.8971722203" lon="20.841133314">
		<tag k="alt_name" v="Moldfarvika" />
		<tag k="name" v="Moldforvika" />
		<tag k="place" v="farm" />
		<tag k="ssr:stedsnr" v="262560" />
	</node>
	<node id="-775646" lat="69.5962388928" lon="21.3064833102">
		<tag k="name" v="Lyngstad" />
		<tag k="place" v="isolated_dwelling" />
		<tag k="ssr:stedsnr" v="262351" />
	</node>
	<node id="-775642" lat="69.6756333322" lon="21.2784305301">
		<tag k="name" v="Nyvoll" />
		<tag k="place" v="farm" />
		<tag k="ssr:stedsnr" v="262314" />
	</node>
	<node id="-775637" lat="69.7936722245" lon="21.0941416457">
		<tag k="name" v="Myra" />
		<tag k="place" v="farm" />
		<tag k="ssr:stedsnr" v="262200" />
	</node>
	<node id="-775633" lat="69.7711694415" lon="20.989972196">
		<tag k="name" v="Blomstereng" />
		<tag k="place" v="farm" />
		<tag k="ssr:stedsnr" v="261876" />
	</node>
	<node id="-775628" lat="69.3188861166" lon="21.9674971848">
		<tag k="fixme" v="consider tourism=alpine_hut or tourism=chalet" />
		<tag k="name" v="Nedrefosshytta" />
		<tag k="ssr:stedsnr" v="261818" />
		<tag k="tourism" v="wilderness_hut" />
	</node>
	<node id="-775613" lat="69.2940083373" lon="21.5069138573">
		<tag k="name" v="Somashytta" />
		<tag k="place" v="isolated_dwelling" />
		<tag k="ssr:stedsnr" v="261648" />
	</node>
	<node id="-775602" lat="69.5767277815" lon="21.250511087">
		<tag k="name" v="Fossmo" />
		<tag k="place" v="farm" />
		<tag k="ssr:stedsnr" v="261269" />
	</node>
	<node id="-775411" lat="69.4837333367" lon="21.487349956">
		<tag k="name" v="Rognli" />
		<tag k="place" v="farm" />
		<tag k="ssr:stedsnr" v="176927" />
	</node>
	<node id="-777117" lat="69.7899333335" lon="20.9502527489">
		<tag k="name" v="Baisit" />
		<tag k="place" v="isolated_dwelling" />
		<tag k="ssr:stedsnr" v="956686" />
	</node>
	<node id="-775573" lat="69.6907666654" lon="21.2462555161">
		<tag k="name" v="Kjelderen" />
		<tag k="place" v="farm" />
		<tag k="ssr:stedsnr" v="236697" />
	</node>
	<node id="-775556" lat="69.7863916703" lon="20.7043944266">
		<tag k="amenity" v="school" />
		<tag k="name" v="Rotsundelv skole" />
		<tag k="ssr:stedsnr" v="236250" />
	</node>
	<node id="-775547" lat="69.7819027771" lon="20.6097194127">
		<tag k="name" v="Rotsund Nordre" />
		<tag k="place" v="farm" />
		<tag k="ssr:stedsnr" v="235891" />
	</node>
	<node id="-775539" lat="69.736483337" lon="21.1955888675">
		<tag k="name" v="Aspelund" />
		<tag k="place" v="farm" />
		<tag k="ssr:stedsnr" v="229126" />
	</node>
	<node id="-775534" lat="69.9109861107" lon="20.8566027614">
		<tag k="name" v="Moldfarnes" />
		<tag k="place" v="locality" />
		<tag k="ssr:stedsnr" v="227755" />
	</node>
	<node id="-775530" lat="69.7848666681" lon="20.9498499698">
		<tag k="name" v="Bjørkely" />
		<tag k="place" v="isolated_dwelling" />
		<tag k="ssr:stedsnr" v="227612" />
	</node>
	<node id="-775526" lat="69.559202776" lon="21.2981499719">
		<tag k="loc_name:fkv" v="Sappi" />
		<tag k="name" v="Sappen" />
		<tag k="name:no" v="Sappen" />
		<tag k="place" v="hamlet" />
		<tag k="ssr:stedsnr" v="204287" />
	</node>
	<node id="-775523" lat="69.8134972264" lon="20.5326638756">
		<tag k="name" v="Mellomberget" />
		<tag k="place" v="farm" />
		<tag k="ssr:stedsnr" v="201977" />
	</node>
	<node id="-775522" lat="69.8116527802" lon="20.7568222053">
		<tag k="name" v="Myre" />
		<tag k="place" v="farm" />
		<tag k="ssr:stedsnr" v="201976" />
	</node>
	<node id="-775521" lat="69.8205222228" lon="20.5323110863">
		<tag k="alt_name" v="Gamlevær" />
		<tag k="name" v="Gammelvær" />
		<tag k="place" v="farm" />
		<tag k="ssr:stedsnr" v="201970" />
	</node>
	<node id="-775519" lat="69.7858972232" lon="20.9504916344">
		<tag k="loc_name:fkv" v="Rässikäinen" />
		<tag k="loc_name:se" v="Reaššegeahči" />
		<tag k="name" v="Sørkjosen" />
		<tag k="name:no" v="Sørkjosen" />
		<tag k="place" v="village" />
		<tag k="ssr:stedsnr" v="201953" />
	</node>
	<node id="-775518" lat="69.7884833349" lon="20.5672027521">
		<tag k="alt_name:no" v="Havnnes" />
		<tag k="fixme" v="consider place=hamlet" />
		<tag k="name" v="Hamnnes - Gárgu" />
		<tag k="name:no" v="Hamnnes" />
		<tag k="name:se" v="Gárgu" />
		<tag k="place" v="village" />
		<tag k="ssr:stedsnr" v="201944" />
	</node>
	<node id="-775516" lat="69.7689416663" lon="20.7277249771">
		<tag k="name" v="Nyheim" />
		<tag k="place" v="farm" />
		<tag k="ssr:stedsnr" v="201936" />
	</node>
	<node id="-775514" lat="69.755933334" lon="20.522191642">
		<tag k="name" v="Tuestad" />
		<tag k="place" v="farm" />
		<tag k="ssr:stedsnr" v="201926" />
	</node>
	<node id="-775513" lat="69.7729305589" lon="20.9775194093">
		<tag k="name" v="Solstad" />
		<tag k="place" v="farm" />
		<tag k="ssr:stedsnr" v="201910" />
	</node>
	<node id="-775512" lat="69.7696333293" lon="20.9828694306">
		<tag k="name" v="Navaren" />
		<tag k="place" v="farm" />
		<tag k="ssr:stedsnr" v="201908" />
	</node>
	<node id="-775511" lat="69.7732722235" lon="21.0091860906">
		<tag k="name" v="Sandøra" />
		<tag k="place" v="farm" />
		<tag k="ssr:stedsnr" v="201905" />
	</node>
	<node id="-775505" lat="69.9347444488" lon="21.1873583023">
		<tag k="name" v="Nyheim" />
		<tag k="place" v="farm" />
		<tag k="ssr:stedsnr" v="201848" />
	</node>
	<node id="-774712" lat="69.9264194485" lon="21.2163749655">
		<tag k="name" v="Arneng" />
		<tag k="place" v="hamlet" />
		<tag k="ssr:stedsnr" v="329893" />
	</node>
	<node id="-775499" lat="69.8958138861" lon="21.1922694169">
		<tag k="name" v="Brattvoll" />
		<tag k="place" v="isolated_dwelling" />
		<tag k="ssr:stedsnr" v="201823" />
	</node>
	<node id="-775498" lat="69.901938888" lon="21.3586082946">
		<tag k="name" v="Lystad" />
		<tag k="place" v="isolated_dwelling" />
		<tag k="ssr:stedsnr" v="201824" />
	</node>
	<node id="-775497" lat="69.8972500028" lon="21.3053971964">
		<tag k="name" v="Leirvåg" />
		<tag k="place" v="farm" />
		<tag k="ssr:stedsnr" v="201822" />
	</node>
	<node id="-775495" lat="69.883897223" lon="21.1934360863">
		<tag k="name" v="Øyra" />
		<tag k="place" v="isolated_dwelling" />
		<tag k="ssr:stedsnr" v="201807" />
	</node>
	<node id="-775493" lat="69.8777027822" lon="21.1302999706">
		<tag k="name" v="Steinsvik" />
		<tag k="place" v="farm" />
		<tag k="ssr:stedsnr" v="201801" />
	</node>
	<node id="-775492" lat="69.8678583319" lon="21.0537416496">
		<tag k="name" v="Heimstad" />
		<tag k="place" v="isolated_dwelling" />
		<tag k="ssr:stedsnr" v="201789" />
	</node>
	<node id="-775489" lat="69.8673722251" lon="21.2142944117">
		<tag k="alt_name" v="Marvik, in" />
		<tag k="fixme" v="multiple name tags, choose one and add the other to alt_name" />
		<tag k="name" v="Marvik;Indre Marvik" />
		<tag k="place" v="farm" />
		<tag k="ssr:stedsnr" v="201775" />
	</node>
	<node id="-775473" lat="69.9215990695" lon="20.9889969858">
		<tag k="alt_name" v="Indreidet" />
		<tag k="name" v="Eidet Indre" />
		<tag k="place" v="farm" />
		<tag k="ssr:stedsnr" v="201513" />
	</node>
	<node id="-775472" lat="69.9204833329" lon="20.9764610817">
		<tag k="name" v="Utleira" />
		<tag k="place" v="farm" />
		<tag k="ssr:stedsnr" v="201512" />
	</node>
	<node id="-775471" lat="69.9265444477" lon="20.9221527624">
		<tag k="name" v="Bakkemo" />
		<tag k="place" v="farm" />
		<tag k="ssr:stedsnr" v="201508" />
	</node>
	<node id="-775470" lat="69.8563138908" lon="20.7677527696">
		<tag k="name" v="Syrstad" />
		<tag k="place" v="farm" />
		<tag k="ssr:stedsnr" v="201492" />
	</node>
	<node id="-774706" lat="69.7846333327" lon="20.7059083124">
		<tag k="name" v="Solvang" />
		<tag k="place" v="farm" />
		<tag k="ssr:stedsnr" v="323948" />
	</node>
	<node id="-775463" lat="69.8516333303" lon="21.0595166484">
		<tag k="alt_name" v="Storvik, yt" />
		<tag k="name" v="Storvik Ytre" />
		<tag k="place" v="farm" />
		<tag k="ssr:stedsnr" v="201428" />
	</node>
	<node id="-774705" lat="69.7722277789" lon="20.5561499894">
		<tag k="alt_name" v="Byarnes;Biarneset" />
		<tag k="name" v="Biarnes" />
		<tag k="place" v="farm" />
		<tag k="ssr:stedsnr" v="323933" />
	</node>
	<node id="-775457" lat="69.6039916708" lon="21.2427083155">
		<tag k="alt_name" v="Øvrebukta" />
		<tag k="name" v="Øverbukt" />
		<tag k="place" v="farm" />
		<tag k="ssr:stedsnr" v="201338" />
	</node>
	<node id="-774704" lat="69.7830249995" lon="20.7192333108">
		<tag k="name" v="Vonheim" />
		<tag k="place" v="farm" />
		<tag k="ssr:stedsnr" v="323923" />
	</node>
	<node id="-775454" lat="69.6961083362" lon="21.2343360959">
		<tag k="name" v="Kjelleren" />
		<tag k="place" v="farm" />
		<tag k="ssr:stedsnr" v="201327" />
	</node>
	<node id="-775453" lat="69.6890277764" lon="21.0813110718">
		<tag k="name" v="Furulund" />
		<tag k="place" v="farm" />
		<tag k="ssr:stedsnr" v="201320" />
	</node>
	<node id="-775448" lat="69.7545333317" lon="21.0321583134">
		<tag k="alt_name" v="Forsnes" />
		<tag k="name" v="Fossnes" />
		<tag k="place" v="farm" />
		<tag k="ssr:stedsnr" v="201199" />
	</node>
	<node id="-775445" lat="69.7899777812" lon="21.0504416352">
		<tag k="name" v="Sletta" />
		<tag k="place" v="farm" />
		<tag k="ssr:stedsnr" v="201188" />
	</node>
	<node id="-774702" lat="69.9006000009" lon="21.3735777477">
		<tag k="name" v="Nordrevatn" />
		<tag k="place" v="isolated_dwelling" />
		<tag k="ssr:stedsnr" v="323841" />
	</node>
	<node id="-774701" lat="69.890250003" lon="21.3387055313">
		<tag k="name" v="Elverum" />
		<tag k="place" v="isolated_dwelling" />
		<tag k="ssr:stedsnr" v="323836" />
	</node>
	<node id="-774813" lat="69.6092916675" lon="21.257611071">
		<tag k="name" v="Fjellheim" />
		<tag k="place" v="isolated_dwelling" />
		<tag k="ssr:stedsnr" v="383380" />
	</node>
	<node id="-777086" lat="69.8170166669" lon="20.7712027662">
		<tag k="name" v="Fagerheim" />
		<tag k="place" v="farm" />
		<tag k="ssr:stedsnr" v="929981" />
	</node>
	<node id="-775390" lat="69.7646944494" lon="20.5391305283">
		<tag k="name" v="Øya" />
		<tag k="place" v="farm" />
		<tag k="ssr:stedsnr" v="175984" />
	</node>
	<node id="-775371" lat="69.7857861101" lon="20.9410583014">
		<tag k="building" v="industrial" />
		<tag k="industrial" v="factory" />
		<tag k="name" v="Nordreisa Meieri" />
		<tag k="ssr:stedsnr" v="175374" />
	</node>
	<node id="-775354" lat="69.8946888911" lon="20.8329138643">
		<tag k="name" v="Russelv" />
		<tag k="place" v="isolated_dwelling" />
		<tag k="ssr:stedsnr" v="175087" />
	</node>
	<node id="-775350" lat="69.8635222245" lon="20.8837333112">
		<tag k="name" v="Ytre Bakkeby" />
		<tag k="place" v="hamlet" />
		<tag k="ssr:stedsnr" v="167704" />
	</node>
	<node id="-775349" lat="69.856441667" lon="21.0516472047">
		<tag k="name" v="Trette" />
		<tag k="place" v="farm" />
		<tag k="ssr:stedsnr" v="166710" />
	</node>
	<node id="-775347" lat="69.8527805569" lon="21.0603527663">
		<tag k="name" v="Grinde" />
		<tag k="place" v="isolated_dwelling" />
		<tag k="ssr:stedsnr" v="166705" />
	</node>
	<node id="-775346" lat="69.8573416703" lon="20.7642860857">
		<tag k="name" v="Storberget" />
		<tag k="place" v="farm" />
		<tag k="ssr:stedsnr" v="146787" />
	</node>
	<node id="-775343" lat="69.7715722218" lon="20.728936084">
		<tag k="name" v="Lund" />
		<tag k="place" v="farm" />
		<tag k="ssr:stedsnr" v="140939" />
	</node>
	<node id="-775340" lat="69.777274997" lon="20.7149166411">
		<tag k="name" v="Bjørkelund" />
		<tag k="place" v="farm" />
		<tag k="ssr:stedsnr" v="140928" />
	</node>
	<node id="-775338" lat="69.8266999975" lon="20.7845833131">
		<tag k="alt_name" v="Langslett" />
		<tag k="name" v="Langsletta" />
		<tag k="place" v="farm" />
		<tag k="ssr:stedsnr" v="140971" />
	</node>
	<node id="-775337" lat="69.9023722219" lon="21.208108313">
		<tag k="name" v="Klubbeneshamn" />
		<tag k="place" v="isolated_dwelling" />
		<tag k="ssr:stedsnr" v="140848" />
	</node>
	<node id="-775331" lat="69.8693861152" lon="21.216966637">
		<tag k="name" v="Solås" />
		<tag k="place" v="isolated_dwelling" />
		<tag k="ssr:stedsnr" v="140806" />
	</node>
	<node id="-775330" lat="69.857058337" lon="21.1823388648">
		<tag k="name" v="Sommarset" />
		<tag k="place" v="isolated_dwelling" />
		<tag k="ssr:stedsnr" v="140796" />
	</node>
	<node id="-775328" lat="69.8444916672" lon="21.2233971824">
		<tag k="name" v="Heggelund" />
		<tag k="place" v="isolated_dwelling" />
		<tag k="ssr:stedsnr" v="140774" />
	</node>
	<node id="-775326" lat="69.7591555607" lon="20.5333360904">
		<tag k="name" v="Myrland" />
		<tag k="place" v="farm" />
		<tag k="ssr:stedsnr" v="140918" />
	</node>
	<node id="-775324" lat="69.9386722206" lon="21.0475110772">
		<tag k="alt_name" v="Eidet, Ytre" />
		<tag k="name" v="Ytre Eidet" />
		<tag k="place" v="isolated_dwelling" />
		<tag k="ssr:stedsnr" v="140869" />
	</node>
	<node id="-775321" lat="69.7492444416" lon="21.0559833088">
		<tag k="name" v="Nygård" />
		<tag k="place" v="farm" />
		<tag k="ssr:stedsnr" v="140742" />
	</node>
	<node id="-775315" lat="69.7018083321" lon="21.2315583046">
		<tag k="name" v="Solvang" />
		<tag k="place" v="farm" />
		<tag k="ssr:stedsnr" v="140692" />
	</node>
	<node id="-775300" lat="69.9263055571" lon="20.9451777496">
		<tag k="name" v="Nylund" />
		<tag k="place" v="farm" />
		<tag k="ssr:stedsnr" v="140518" />
	</node>
	<node id="-775297" lat="69.6802194424" lon="21.268666644">
		<tag k="name" v="Elvegård" />
		<tag k="place" v="isolated_dwelling" />
		<tag k="ssr:stedsnr" v="140346" />
	</node>
	<node id="-775296" lat="69.6606611137" lon="21.2826416353">
		<tag k="name" v="Tørrfossnes - Heikka" />
		<tag k="name:fkv" v="Heikka" />
		<tag k="name:no" v="Tørrfossnes" />
		<tag k="place" v="farm" />
		<tag k="ssr:stedsnr" v="140334" />
	</node>
	<node id="-775018" lat="69.7895611077" lon="20.6513055307">
		<tag k="name" v="Sletta" />
		<tag k="place" v="farm" />
		<tag k="ssr:stedsnr" v="19940" />
	</node>
	<node id="-775281" lat="69.7729500004" lon="21.0259083204">
		<tag k="name" v="Strand" />
		<tag k="place" v="farm" />
		<tag k="ssr:stedsnr" v="140204" />
	</node>
	<node id="-775280" lat="69.7805916628" lon="21.0405194281">
		<tag k="name" v="Rovdas" />
		<tag k="place" v="quarter" />
		<tag k="ssr:stedsnr" v="140196" />
	</node>
	<node id="-775278" lat="69.7937527806" lon="21.1104777611">
		<tag k="name" v="Løkli" />
		<tag k="place" v="farm" />
		<tag k="ssr:stedsnr" v="140189" />
	</node>
	<node id="-775277" lat="69.8003499978" lon="21.0888999826">
		<tag k="name" v="Lyngmo" />
		<tag k="place" v="farm" />
		<tag k="ssr:stedsnr" v="140184" />
	</node>
	<node id="-775259" lat="69.8727750007" lon="21.191986082">
		<tag k="name" v="Straumfjord s" />
		<tag k="place" v="farm" />
		<tag k="ssr:stedsnr" v="127814" />
	</node>
	<node id="-775249" lat="69.9175285142" lon="21.2872867595">
		<tag k="name" v="Lilleng" />
		<tag k="place" v="farm" />
		<tag k="ssr:stedsnr" v="115928" />
	</node>
	<node id="-775237" lat="69.763713887" lon="21.0309721846">
		<tag k="name" v="Hesthagen" />
		<tag k="place" v="quarter" />
		<tag k="ssr:stedsnr" v="115635" />
	</node>
	<node id="-775231" lat="69.7402888931" lon="21.1461721879">
		<tag k="name" v="Ravdilla" />
		<tag k="place" v="locality" />
		<tag k="ssr:stedsnr" v="115547" />
	</node>
	<node id="-777057" lat="69.7281527754" lon="21.2095860946">
		<tag k="name" v="Teigstad" />
		<tag k="place" v="farm" />
		<tag k="ssr:stedsnr" v="929672" />
	</node>
	<node id="-775204" lat="69.8378194485" lon="20.9170777538">
		<tag k="name" v="Sokkelvik" />
		<tag k="place" v="hamlet" />
		<tag k="ssr:stedsnr" v="89372" />
	</node>
	<node id="-775202" lat="69.8297444473" lon="20.7847944202">
		<tag k="fixme" v="consider place=hamlet" />
		<tag k="name" v="Ravelseidet" />
		<tag k="place" v="village" />
		<tag k="ssr:stedsnr" v="89355" />
	</node>
	<node id="-775199" lat="69.8095583355" lon="20.6706833255">
		<tag k="name" v="Skognes" />
		<tag k="place" v="locality" />
		<tag k="ssr:stedsnr" v="85124" />
	</node>
	<node id="-775198" lat="69.7856111123" lon="20.6303888611">
		<tag k="name" v="Sollia" />
		<tag k="place" v="farm" />
		<tag k="ssr:stedsnr" v="80948" />
	</node>
	<node id="-775196" lat="69.7728083351" lon="20.9814027478">
		<tag k="name" v="Fossvoll" />
		<tag k="place" v="farm" />
		<tag k="ssr:stedsnr" v="80917" />
	</node>
	<node id="-775194" lat="69.8380833342" lon="20.5204888724">
		<tag k="name" v="Åsheim" />
		<tag k="place" v="farm" />
		<tag k="ssr:stedsnr" v="80997" />
	</node>
	<node id="-775192" lat="69.7978666714" lon="20.7179416434">
		<tag k="alt_name" v="Ladevollen" />
		<tag k="name" v="Ladevoll" />
		<tag k="place" v="farm" />
		<tag k="ssr:stedsnr" v="80973" />
	</node>
	<node id="-775189" lat="69.8194611114" lon="20.774655537">
		<tag k="alt_name" v="Langli" />
		<tag k="name" v="Langlia" />
		<tag k="place" v="farm" />
		<tag k="ssr:stedsnr" v="80960" />
	</node>
	<node id="-775188" lat="69.8988972262" lon="21.3925638631">
		<tag k="name" v="Pavelsnes" />
		<tag k="place" v="isolated_dwelling" />
		<tag k="ssr:stedsnr" v="80842" />
	</node>
	<node id="-775184" lat="69.871813891" lon="21.4432194141">
		<tag k="name" v="Elvebakken" />
		<tag k="place" v="farm" />
		<tag k="ssr:stedsnr" v="80809" />
	</node>
	<node id="-775183" lat="69.7286861107" lon="21.0479221964">
		<tag k="name" v="Solstad" />
		<tag k="place" v="farm" />
		<tag k="ssr:stedsnr" v="80697" />
	</node>
	<node id="-775180" lat="69.9203138884" lon="21.2417721959">
		<tag k="alt_name" v="Arneng, in" />
		<tag k="fixme" v="multiple name tags, choose one and add the other to alt_name" />
		<tag k="name" v="Arneng;Indre Arneng" />
		<tag k="place" v="farm" />
		<tag k="ssr:stedsnr" v="80878" />
	</node>
	<node id="-775178" lat="69.9159750053" lon="21.3110971883">
		<tag k="name" v="Elvenes" />
		<tag k="place" v="farm" />
		<tag k="ssr:stedsnr" v="80869" />
	</node>
	<node id="-775177" lat="69.8996138874" lon="21.2823388597">
		<tag k="name" v="Dyrnes" />
		<tag k="place" v="farm" />
		<tag k="ssr:stedsnr" v="80858" />
	</node>
	<node id="-775176" lat="69.9042166706" lon="21.3493444184">
		<tag k="name" v="Lysmen" />
		<tag k="place" v="isolated_dwelling" />
		<tag k="ssr:stedsnr" v="80853" />
	</node>
	<node id="-775173" lat="69.8537611115" lon="21.1764527624">
		<tag k="name" v="Lian" />
		<tag k="place" v="farm" />
		<tag k="ssr:stedsnr" v="80795" />
	</node>
	<node id="-775172" lat="69.8303277787" lon="21.0381416382">
		<tag k="name" v="Nyheim" />
		<tag k="place" v="farm" />
		<tag k="ssr:stedsnr" v="80792" />
	</node>
	<node id="-775171" lat="69.8387111107" lon="21.1424833112">
		<tag k="name" v="Molund" />
		<tag k="place" v="farm" />
		<tag k="ssr:stedsnr" v="80789" />
	</node>
	<node id="-775170" lat="69.82098889" lon="21.167688861">
		<tag k="name" v="Nordli" />
		<tag k="place" v="farm" />
		<tag k="ssr:stedsnr" v="80767" />
	</node>
	<node id="-775169" lat="69.9432722248" lon="21.0018555379">
		<tag k="name" v="Hammarvoll" />
		<tag k="place" v="farm" />
		<tag k="ssr:stedsnr" v="80600" />
	</node>
	<node id="-775166" lat="69.9064916707" lon="20.9567305428">
		<tag k="fixme" v="multiple name tags, choose one and add the other to alt_name" />
		<tag k="name" v="Eidet;Indre Eidet" />
		<tag k="place" v="farm" />
		<tag k="ssr:stedsnr" v="80568" />
	</node>
	<node id="-775165" lat="69.9028444403" lon="20.8521194296">
		<tag k="name" v="Rotnvika" />
		<tag k="place" v="farm" />
		<tag k="ssr:stedsnr" v="80566" />
	</node>
	<node id="-775161" lat="69.8395833324" lon="20.5191555424">
		<tag k="name" v="Berglund" />
		<tag k="place" v="farm" />
		<tag k="ssr:stedsnr" v="80528" />
	</node>
	<node id="-775160" lat="69.8492999965" lon="20.7875416508">
		<tag k="name" v="Slettvoll" />
		<tag k="place" v="farm" />
		<tag k="ssr:stedsnr" v="80520" />
	</node>
	<node id="-775148" lat="69.6134555573" lon="21.2884722027">
		<tag k="alt_name" v="Bergbukt" />
		<tag k="name" v="Bergebukta" />
		<tag k="place" v="farm" />
		<tag k="ssr:stedsnr" v="80369" />
	</node>
	<node id="-775145" lat="69.6702833336" lon="21.2891944062">
		<tag k="name" v="Skogstad" />
		<tag k="place" v="farm" />
		<tag k="ssr:stedsnr" v="80327" />
	</node>
	<node id="-775144" lat="69.6571888919" lon="21.3154860951">
		<tag k="name" v="Brattfjell" />
		<tag k="place" v="farm" />
		<tag k="ssr:stedsnr" v="80319" />
	</node>
	<node id="-777181" lat="69.4483540979" lon="21.5420591797">
		<tag k="fixme" v="consider tourism=alpine_hut or tourism=chalet" />
		<tag k="loc_name:no" v="Nordkalottstua" />
		<tag k="name" v="Ovi Raishiin" />
		<tag k="name:fkv" v="Ovi Raishiin" />
		<tag k="ssr:stedsnr" v="972924" />
		<tag k="tourism" v="wilderness_hut" />
	</node>
	<node id="-777180" lat="69.8853756396" lon="21.4427819428">
		<tag k="fixme" v="consider place=hamlet" />
		<tag k="name" v="Mettevollen - Máhtegieddi" />
		<tag k="name:no" v="Mettevollen" />
		<tag k="name:se" v="Máhtegieddi" />
		<tag k="place" v="farm" />
		<tag k="ssr:stedsnr" v="972394" />
	</node>
	<node id="-777179" lat="69.8078467424" lon="20.9172141632">
		<tag k="name" v="Sørkjosen" />
		<tag k="place" v="farm" />
		<tag k="ssr:stedsnr" v="972262" />
	</node>
	<node id="-777178" lat="69.789156179" lon="20.9245714247">
		<tag k="name" v="Sørkjosen" />
		<tag k="place" v="farm" />
		<tag k="ssr:stedsnr" v="972258" />
	</node>
	<node id="-777177" lat="69.7813006859" lon="20.9413116886">
		<tag k="name" v="Sørkjosen" />
		<tag k="place" v="farm" />
		<tag k="ssr:stedsnr" v="972254" />
	</node>
	<node id="-777176" lat="69.783720936" lon="20.9352396032">
		<tag k="fixme" v="consider place=hamlet" />
		<tag k="name" v="Sørkjosen - Reaššegeahči - Rässikäinen" />
		<tag k="name:fkv" v="Rässikäinen" />
		<tag k="name:no" v="Sørkjosen" />
		<tag k="name:se" v="Reaššegeahči" />
		<tag k="place" v="farm" />
		<tag k="ssr:stedsnr" v="972108" />
	</node>
	<node id="-777173" lat="69.8237250026" lon="21.4483138491">
		<tag k="name" v="Nymo" />
		<tag k="place" v="farm" />
		<tag k="ssr:stedsnr" v="965990" />
	</node>
	<node id="-777171" lat="69.9664555574" lon="21.236577764">
		<tag k="name" v="Sommersetet" />
		<tag k="place" v="locality" />
		<tag k="ssr:stedsnr" v="965962" />
	</node>
	<node id="-775122" lat="69.7469194439" lon="21.0308277464">
		<tag k="name" v="Øya" />
		<tag k="place" v="farm" />
		<tag k="ssr:stedsnr" v="79710" />
	</node>
	<node id="-775121" lat="69.4637805616" lon="21.5250944032">
		<tag k="name" v="Kjerkestilla" />
		<tag k="place" v="isolated_dwelling" />
		<tag k="ssr:stedsnr" v="79711" />
	</node>
	<node id="-775117" lat="69.7406999995" lon="21.0581972043">
		<tag k="name" v="Åsheim" />
		<tag k="place" v="farm" />
		<tag k="ssr:stedsnr" v="79702" />
	</node>
	<node id="-775116" lat="69.7412999994" lon="21.0209860873">
		<tag k="name" v="Bakkemo" />
		<tag k="place" v="farm" />
		<tag k="ssr:stedsnr" v="79703" />
	</node>
	<node id="-775110" lat="69.7495250024" lon="21.0291805395">
		<tag k="name" v="Løvstad" />
		<tag k="place" v="farm" />
		<tag k="ssr:stedsnr" v="79673" />
	</node>
	<node id="-775096" lat="69.8345638948" lon="21.4202388487">
		<tag k="name" v="Oksfjorddalen" />
		<tag k="place" v="farm" />
		<tag k="ssr:stedsnr" v="55981" />
	</node>
	<node id="-775095" lat="69.9644499993" lon="21.2214666397">
		<tag k="name" v="Bakke" />
		<tag k="place" v="locality" />
		<tag k="ssr:stedsnr" v="55954" />
	</node>
	<node id="-777139" lat="69.7878111127" lon="21.0283194212">
		<tag k="name" v="Kippernes" />
		<tag k="place" v="farm" />
		<tag k="ssr:stedsnr" v="964477" />
	</node>
	<node id="-777129" lat="69.7924111097" lon="20.7173333197">
		<tag k="loc_name" v="Rottsundelva" />
		<tag k="name" v="Rotsundelven" />
		<tag k="place" v="farm" />
		<tag k="ssr:stedsnr" v="964255" />
	</node>
	<node id="-775069" lat="69.8360972259" lon="20.5198916499">
		<tag k="name" v="Báisigieddi" />
		<tag k="name:se" v="Báisigieddi" />
		<tag k="place" v="farm" />
		<tag k="ssr:stedsnr" v="54755" />
	</node>
	<node id="-775067" lat="69.7769888924" lon="21.0219027619">
		<tag k="name" v="Olderskogen" />
		<tag k="place" v="farm" />
		<tag k="ssr:stedsnr" v="54633" />
	</node>
	<node id="-774639" lat="69.9288611165" lon="20.9592027518">
		<tag k="name" v="Hamneidet" />
		<tag k="place" v="hamlet" />
		<tag k="ssr:stedsnr" v="322574" />
	</node>
	<node id="-775064" lat="69.5963777743" lon="21.23663331">
		<tag k="name" v="Holmbo nedre" />
		<tag k="place" v="farm" />
		<tag k="ssr:stedsnr" v="54581" />
	</node>
	<node id="-777110" lat="69.8077916652" lon="20.6559916475">
		<tag k="name" v="Leirnes" />
		<tag k="place" v="locality" />
		<tag k="ssr:stedsnr" v="935153" />
	</node>
	<node id="-777109" lat="69.7804666678" lon="20.6057860823">
		<tag k="name" v="Rotsund" />
		<tag k="place" v="farm" />
		<tag k="ssr:stedsnr" v="930949" />
	</node>
	<node id="-777107" lat="69.7824666673" lon="20.9531610747">
		<tag k="name" v="Alfheim" />
		<tag k="place" v="farm" />
		<tag k="ssr:stedsnr" v="930929" />
	</node>
	<node id="-777106" lat="69.7771472259" lon="20.7311249846">
		<tag k="name" v="Dalheim" />
		<tag k="place" v="farm" />
		<tag k="ssr:stedsnr" v="930920" />
	</node>
	<node id="-777104" lat="69.9017916681" lon="21.3567805261">
		<tag k="name" v="Barstad" />
		<tag k="place" v="isolated_dwelling" />
		<tag k="ssr:stedsnr" v="930854" />
	</node>
	<node id="-777103" lat="69.8997138903" lon="21.3896916425">
		<tag k="name" v="Skogstad" />
		<tag k="place" v="isolated_dwelling" />
		<tag k="ssr:stedsnr" v="930848" />
	</node>
	<node id="-777101" lat="69.8689888901" lon="21.2162944226">
		<tag k="amenity" v="school" />
		<tag k="fixme" v="multiple name tags, choose one and add the other to alt_name" />
		<tag k="name" v="Straumfjord skole;Straumfjordheimen" />
		<tag k="ssr:stedsnr" v="930826" />
	</node>
	<node id="-777094" lat="69.7505500002" lon="21.0491805377">
		<tag k="name" v="Tangen" />
		<tag k="place" v="farm" />
		<tag k="ssr:stedsnr" v="930228" />
	</node>
	<node id="-775040" lat="69.8806833377" lon="21.2005249858">
		<tag k="name" v="Rottvik" />
		<tag k="place" v="isolated_dwelling" />
		<tag k="ssr:stedsnr" v="46968" />
	</node>
	<node id="-775038" lat="69.9272611115" lon="20.9346277531">
		<tag k="name" v="Klokkarvollen" />
		<tag k="place" v="farm" />
		<tag k="ssr:stedsnr" v="45760" />
	</node>
	<node id="-777085" lat="69.8228749992" lon="20.5315972092">
		<tag k="name" v="Storsletta" />
		<tag k="place" v="farm" />
		<tag k="ssr:stedsnr" v="929980" />
	</node>
	<node id="-775036" lat="69.8136777751" lon="20.7616055374">
		<tag k="name" v="Myrsletta" />
		<tag k="place" v="isolated_dwelling" />
		<tag k="ssr:stedsnr" v="45671" />
	</node>
	<node id="-775032" lat="69.91715" lon="21.2922444252">
		<tag k="name" v="Arildseng" />
		<tag k="place" v="hamlet" />
		<tag k="ssr:stedsnr" v="37776" />
	</node>
	<node id="-777079" lat="69.787250002" lon="20.7039805237">
		<tag k="name" v="Framnes" />
		<tag k="place" v="farm" />
		<tag k="ssr:stedsnr" v="929944" />
	</node>
	<node id="-777078" lat="69.7626999974" lon="20.73510275">
		<tag k="name" v="Fyn" />
		<tag k="place" v="farm" />
		<tag k="ssr:stedsnr" v="929922" />
	</node>
	<node id="-777077" lat="69.7618472214" lon="20.5382194219">
		<tag k="name" v="Kolbotn" />
		<tag k="place" v="farm" />
		<tag k="ssr:stedsnr" v="929916" />
	</node>
	<node id="-775028" lat="69.830713893" lon="20.5233971947">
		<tag k="name" v="Bakkemo" />
		<tag k="place" v="farm" />
		<tag k="ssr:stedsnr" v="19996" />
	</node>
	<node id="-777075" lat="69.8436083336" lon="21.2213833065">
		<tag k="name" v="Forsmo" />
		<tag k="place" v="farm" />
		<tag k="ssr:stedsnr" v="929772" />
	</node>
	<node id="-775023" lat="69.7998722195" lon="20.7175166361">
		<tag k="name" v="Neset" />
		<tag k="place" v="farm" />
		<tag k="ssr:stedsnr" v="19955" />
	</node>
	<node id="-777070" lat="69.7483277823" lon="21.1007471919">
		<tag k="name" v="Andsjøen" />
		<tag k="place" v="farm" />
		<tag k="ssr:stedsnr" v="929739" />
	</node>
	<node id="-775021" lat="69.8121527785" lon="20.9940027516">
		<tag k="alt_name" v="Nordkjos" />
		<tag k="name" v="Nordkjosen" />
		<tag k="place" v="farm" />
		<tag k="ssr:stedsnr" v="19949" />
	</node>
	<node id="-775019" lat="69.7870888927" lon="20.9448194348">
		<tag k="name" v="Øvregård" />
		<tag k="place" v="farm" />
		<tag k="ssr:stedsnr" v="19943" />
	</node>
	<node id="-777066" lat="69.7182166655" lon="21.0623471995">
		<tag k="name" v="Kildal" />
		<tag k="place" v="farm" />
		<tag k="ssr:stedsnr" v="929708" />
	</node>
	<node id="-775017" lat="69.7914972263" lon="20.5950166393">
		<tag k="name" v="Hagen" />
		<tag k="place" v="farm" />
		<tag k="ssr:stedsnr" v="19936" />
	</node>
	<node id="-777063" lat="69.7047694466" lon="21.244677738">
		<tag k="name" v="Holmen" />
		<tag k="place" v="farm" />
		<tag k="ssr:stedsnr" v="929691" />
	</node>
	<node id="-777062" lat="69.7104083374" lon="21.2496360733">
		<tag k="name" v="Myrland" />
		<tag k="place" v="farm" />
		<tag k="ssr:stedsnr" v="929690" />
	</node>
	<node id="-777058" lat="69.7219305544" lon="21.2226222052">
		<tag k="name" v="Heimdal" />
		<tag k="place" v="farm" />
		<tag k="ssr:stedsnr" v="929673" />
	</node>
	<node id="-775009" lat="69.8876138878" lon="21.3481472017">
		<tag k="name" v="Bjørnnes" />
		<tag k="place" v="isolated_dwelling" />
		<tag k="ssr:stedsnr" v="19827" />
	</node>
	<node id="-775008" lat="69.8768388931" lon="21.0472110857">
		<tag k="name" v="Storneshamn" />
		<tag k="place" v="locality" />
		<tag k="ssr:stedsnr" v="19820" />
	</node>
	<node id="-775007" lat="69.874000004" lon="21.4114638722">
		<tag k="name" v="Arnesland" />
		<tag k="place" v="isolated_dwelling" />
		<tag k="ssr:stedsnr" v="19804" />
	</node>
	<node id="-775006" lat="69.8618500038" lon="21.4097999605">
		<tag k="name" v="Skoglund" />
		<tag k="place" v="farm" />
		<tag k="ssr:stedsnr" v="19787" />
	</node>
	<node id="-775005" lat="69.8421027818" lon="21.218513871">
		<tag k="name" v="Forsnes" />
		<tag k="place" v="farm" />
		<tag k="ssr:stedsnr" v="19775" />
	</node>
	<node id="-775004" lat="69.8386250007" lon="21.2110360938">
		<tag k="name" v="Nylund" />
		<tag k="place" v="isolated_dwelling" />
		<tag k="ssr:stedsnr" v="19774" />
	</node>
	<node id="-774999" lat="69.7077222235" lon="21.2409222013">
		<tag k="name" v="Moskodal" />
		<tag k="place" v="farm" />
		<tag k="ssr:stedsnr" v="19705" />
	</node>
	<node id="-774998" lat="69.7064638855" lon="21.2395444201">
		<tag k="name" v="Rismo" />
		<tag k="place" v="farm" />
		<tag k="ssr:stedsnr" v="19702" />
	</node>
	<node id="-774996" lat="69.7342666646" lon="21.1811527505">
		<tag k="name" v="Røyelelv" />
		<tag k="place" v="farm" />
		<tag k="ssr:stedsnr" v="19692" />
	</node>
	<node id="-774988" lat="69.8978499964" lon="20.9353472035">
		<tag k="name" v="Rakto" />
		<tag k="place" v="locality" />
		<tag k="ssr:stedsnr" v="19535" />
	</node>
	<node id="-777033" lat="69.5683777759" lon="21.3021610706">
		<tag k="name" v="Elvestrand" />
		<tag k="place" v="farm" />
		<tag k="ssr:stedsnr" v="929250" />
	</node>
	<node id="-777032" lat="69.5596833298" lon="21.2940583077">
		<tag k="name" v="Lund" />
		<tag k="place" v="farm" />
		<tag k="ssr:stedsnr" v="929242" />
	</node>
	<node id="-777031" lat="69.5256555557" lon="21.3764360762">
		<tag k="name" v="Heggemo" />
		<tag k="place" v="farm" />
		<tag k="ssr:stedsnr" v="929235" />
	</node>
	<node id="-777030" lat="69.5029722189" lon="21.4597166332">
		<tag k="alt_name" v="Bjørkli" />
		<tag k="name" v="Bjørkly" />
		<tag k="place" v="farm" />
		<tag k="ssr:stedsnr" v="929230" />
	</node>
	<node id="-777029" lat="69.5144138876" lon="21.4098305117">
		<tag k="name" v="Vangen" />
		<tag k="place" v="farm" />
		<tag k="ssr:stedsnr" v="929231" />
	</node>
	<node id="-777025" lat="69.7745527797" lon="21.0500999635">
		<tag k="name" v="Holtet" />
		<tag k="place" v="isolated_dwelling" />
		<tag k="ssr:stedsnr" v="929196" />
	</node>
	<node id="-777024" lat="69.7998833348" lon="21.1177499829">
		<tag k="name" v="Kringen" />
		<tag k="place" v="farm" />
		<tag k="ssr:stedsnr" v="929178" />
	</node>
	<node id="-774974" lat="69.6991555534" lon="21.2620999805">
		<tag k="name" v="Elveslett" />
		<tag k="place" v="farm" />
		<tag k="ssr:stedsnr" v="19336" />
	</node>
	<node id="-777019" lat="69.7398861082" lon="21.1504444138">
		<tag k="name" v="Seljelund" />
		<tag k="place" v="farm" />
		<tag k="ssr:stedsnr" v="928711" />
	</node>
	<node id="-777018" lat="69.7391666647" lon="21.2006916341">
		<tag k="alt_name" v="Seterli" />
		<tag k="name" v="Sæterli" />
		<tag k="place" v="isolated_dwelling" />
		<tag k="ssr:stedsnr" v="928701" />
	</node>
	<node id="-776571" lat="69.88563611" lon="20.9205749854">
		<tag k="fixme" v="multiple name tags, choose one and add the other to alt_name" />
		<tag k="name" v="Offern;Sæterheimen" />
		<tag k="place" v="farm" />
		<tag k="ssr:stedsnr" v="747544" />
	</node>
	<node id="-777005" lat="69.8888361154" lon="21.3592971939">
		<tag k="name" v="Nyheim" />
		<tag k="place" v="isolated_dwelling" />
		<tag k="ssr:stedsnr" v="929821" />
	</node>
	<node id="-777001" lat="69.7502055558" lon="21.0499888543">
		<tag k="name" v="Tømmernes" />
		<tag k="place" v="farm" />
		<tag k="ssr:stedsnr" v="916694" />
	</node>
	<node id="-776994" lat="69.8332777812" lon="21.0564249876">
		<tag k="name" v="Skogly" />
		<tag k="place" v="farm" />
		<tag k="ssr:stedsnr" v="904971" />
	</node>
	<node id="-774942" lat="69.6064279299" lon="21.30111015">
		<tag k="loc_name:fkv" v="Holmpuui" />
		<tag k="name" v="Holmbo" />
		<tag k="name:no" v="Holmbo" />
		<tag k="place" v="farm" />
		<tag k="ssr:stedsnr" v="989203" />
	</node>
	<node id="-774941" lat="69.5203470208" lon="21.3855553846">
		<tag k="name" v="Fagerstrand" />
		<tag k="place" v="farm" />
		<tag k="ssr:stedsnr" v="989168" />
	</node>
	<node id="-776983" lat="69.7223472221" lon="21.2280582925">
		<tag k="name" v="Baskabut" />
		<tag k="place" v="farm" />
		<tag k="ssr:stedsnr" v="904760" />
	</node>
	<node id="-774932" lat="69.7882392647" lon="20.640665062">
		<tag k="fixme" v="multiple name tags, choose one and add the other to alt_name" />
		<tag k="name" v="Boyahuset;Bjørklund" />
		<tag k="place" v="farm" />
		<tag k="ssr:stedsnr" v="1073118" />
	</node>
	<node id="-774930" lat="69.7933319196" lon="21.0508094026">
		<tag k="name" v="Nordkjosbotn" />
		<tag k="place" v="farm" />
		<tag k="ssr:stedsnr" v="80203" />
	</node>
	<node id="-774929" lat="69.7533900745" lon="21.0211668693">
		<tag k="name" v="Vollstad" />
		<tag k="place" v="farm" />
		<tag k="ssr:stedsnr" v="444197" />
	</node>
	<node id="-776976" lat="69.55832222" lon="21.3028916346">
		<tag k="name" v="Elvestad" />
		<tag k="place" v="farm" />
		<tag k="ssr:stedsnr" v="904501" />
	</node>
	<node id="-774927" lat="69.8636931281" lon="20.8830830977">
		<tag k="name" v="Bukta" />
		<tag k="place" v="farm" />
		<tag k="ssr:stedsnr" v="929513" />
	</node>
	<node id="-774926" lat="69.7617679897" lon="20.4662364157">
		<tag k="fixme" v="consider place=hamlet" />
		<tag k="name" v="Spåkenes - Spoahkkanjárga" />
		<tag k="name:no" v="Spåkenes" />
		<tag k="name:se" v="Spoahkkanjárga" />
		<tag k="place" v="farm" />
		<tag k="ssr:stedsnr" v="1072866" />
	</node>
	<node id="-774922" lat="69.9409261326" lon="20.9946794318">
		<tag k="name" v="Mikkelvika" />
		<tag k="place" v="farm" />
		<tag k="ssr:stedsnr" v="808585" />
	</node>
	<node id="-776967" lat="69.7938138884" lon="20.560469417">
		<tag k="name" v="Bakkestua" />
		<tag k="place" v="isolated_dwelling" />
		<tag k="ssr:stedsnr" v="903860" />
	</node>
	<node id="-774910" lat="69.7642861089" lon="20.4759805402">
		<tag k="name" v="Språkenes Nordre" />
		<tag k="place" v="farm" />
		<tag k="ssr:stedsnr" v="478998" />
	</node>
	<node id="-776950" lat="69.7522527775" lon="21.0441444124">
		<tag k="name" v="Tangen" />
		<tag k="place" v="farm" />
		<tag k="ssr:stedsnr" v="903403" />
	</node>
	<node id="-776944" lat="69.8973277775" lon="21.2003194151">
		<tag k="name" v="Straumfjord n" />
		<tag k="place" v="farm" />
		<tag k="ssr:stedsnr" v="903285" />
	</node>
	<node id="-774892" lat="69.7545694432" lon="21.0249360922">
		<tag k="name" v="Saga" />
		<tag k="place" v="farm" />
		<tag k="ssr:stedsnr" v="478408" />
	</node>
	<node id="-776931" lat="69.7938622884" lon="21.0493034213">
		<tag k="name" v="Beckmo" />
		<tag k="place" v="farm" />
		<tag k="ssr:stedsnr" v="877244" />
	</node>
	<node id="-776930" lat="69.4850055569" lon="21.477722193">
		<tag k="name" v="Bilto" />
		<tag k="place" v="hamlet" />
		<tag k="ssr:stedsnr" v="876357" />
	</node>
	<node id="-776926" lat="69.8216388901" lon="20.5320083164">
		<tag k="name" v="Seljevoll" />
		<tag k="place" v="farm" />
		<tag k="ssr:stedsnr" v="869974" />
	</node>
	<node id="-774877" lat="69.940133333" lon="21.0567638557">
		<tag k="name" v="Geokkas" />
		<tag k="place" v="locality" />
		<tag k="ssr:stedsnr" v="409803" />
	</node>
	<node id="-776924" lat="69.7954722266" lon="20.7170944266">
		<tag k="name" v="Fagerli" />
		<tag k="place" v="farm" />
		<tag k="ssr:stedsnr" v="869969" />
	</node>
	<node id="-776922" lat="69.7759444491" lon="20.5835721953">
		<tag k="name" v="Seljevoll" />
		<tag k="place" v="farm" />
		<tag k="ssr:stedsnr" v="869942" />
	</node>
	<node id="-776921" lat="69.7865055592" lon="20.6332333124">
		<tag k="name" v="Heimstad" />
		<tag k="place" v="farm" />
		<tag k="ssr:stedsnr" v="869938" />
	</node>
	<node id="-776919" lat="69.7735388915" lon="20.7247638807">
		<tag k="name" v="Elvevoll" />
		<tag k="place" v="farm" />
		<tag k="ssr:stedsnr" v="869931" />
	</node>
	<node id="-776918" lat="69.8291888875" lon="21.128516632">
		<tag k="name" v="Vildenvang" />
		<tag k="place" v="farm" />
		<tag k="ssr:stedsnr" v="869785" />
	</node>
	<node id="-776915" lat="69.7174944452" lon="21.2363860859">
		<tag k="name" v="Rydningen" />
		<tag k="place" v="farm" />
		<tag k="ssr:stedsnr" v="869744" />
	</node>
	<node id="-776914" lat="69.7127000017" lon="21.238097188">
		<tag k="fixme" v="consider place=hamlet" />
		<tag k="name" v="Moskodal" />
		<tag k="place" v="village" />
		<tag k="ssr:stedsnr" v="869742" />
	</node>
	<node id="-774864" lat="69.8228583357" lon="20.7811721912">
		<tag k="name" v="Brustad" />
		<tag k="place" v="farm" />
		<tag k="ssr:stedsnr" v="383978" />
	</node>
	<node id="-774863" lat="69.7896527818" lon="20.5773916544">
		<tag k="name" v="Gjerdet" />
		<tag k="place" v="farm" />
		<tag k="ssr:stedsnr" v="383973" />
	</node>
	<node id="-776910" lat="69.729097222" lon="21.2068249829">
		<tag k="name" v="Østgård" />
		<tag k="old_name" v="Austgård" />
		<tag k="place" v="farm" />
		<tag k="ssr:stedsnr" v="869717" />
	</node>
	<node id="-774861" lat="69.7782944409" lon="20.594488871">
		<tag k="name" v="Lasletta" />
		<tag k="place" v="farm" />
		<tag k="ssr:stedsnr" v="383956" />
	</node>
	<node id="-774860" lat="69.7868638935" lon="20.6360416478">
		<tag k="name" v="Haug" />
		<tag k="place" v="farm" />
		<tag k="ssr:stedsnr" v="383952" />
	</node>
	<node id="-774859" lat="69.7874166657" lon="20.6396444335">
		<tag k="name" v="Sørli" />
		<tag k="place" v="farm" />
		<tag k="ssr:stedsnr" v="383953" />
	</node>
	<node id="-774858" lat="69.7833888909" lon="20.6172916427">
		<tag k="name" v="Enga" />
		<tag k="place" v="farm" />
		<tag k="ssr:stedsnr" v="383941" />
	</node>
	<node id="-774855" lat="69.8932777758" lon="21.3261138602">
		<tag k="name" v="Myrheim" />
		<tag k="place" v="isolated_dwelling" />
		<tag k="ssr:stedsnr" v="383861" />
	</node>
	<node id="-774853" lat="69.8788111116" lon="21.2015416422">
		<tag k="name" v="Straumen" />
		<tag k="place" v="isolated_dwelling" />
		<tag k="ssr:stedsnr" v="383839" />
	</node>
	<node id="-774852" lat="69.8743888938" lon="21.4198360794">
		<tag k="name" v="Vassbotn" />
		<tag k="place" v="farm" />
		<tag k="ssr:stedsnr" v="383836" />
	</node>
	<node id="-776897" lat="69.8305833362" lon="21.0442305293">
		<tag k="alt_name" v="Storvik, in" />
		<tag k="fixme" v="consider place=hamlet" />
		<tag k="name" v="Storvik Indre" />
		<tag k="place" v="farm" />
		<tag k="ssr:stedsnr" v="869494" />
	</node>
	<node id="-774848" lat="69.872125004" lon="21.0585610853">
		<tag k="name" v="Stornes" />
		<tag k="place" v="farm" />
		<tag k="ssr:stedsnr" v="383824" />
	</node>
	<node id="-774847" lat="69.8719250004" lon="21.4116833119">
		<tag k="name" v="Sætermo" />
		<tag k="place" v="farm" />
		<tag k="ssr:stedsnr" v="383818" />
	</node>
	<node id="-774846" lat="69.8644666656" lon="21.4118499717">
		<tag k="name" v="Molund" />
		<tag k="place" v="farm" />
		<tag k="ssr:stedsnr" v="383816" />
	</node>
	<node id="-774845" lat="69.8637944449" lon="21.2242805267">
		<tag k="name" v="Skogstad" />
		<tag k="place" v="farm" />
		<tag k="ssr:stedsnr" v="383806" />
	</node>
	<node id="-774844" lat="69.8693027804" lon="21.2109555416">
		<tag k="alt_name" v="Marvik, yt" />
		<tag k="fixme" v="multiple name tags, choose one and add the other to alt_name" />
		<tag k="name" v="Marvik;Ytre Marvik" />
		<tag k="place" v="farm" />
		<tag k="ssr:stedsnr" v="383804" />
	</node>
	<node id="-774843" lat="69.8347222191" lon="21.0579610777">
		<tag k="alt_name" v="Lia" />
		<tag k="name" v="Lian" />
		<tag k="place" v="farm" />
		<tag k="ssr:stedsnr" v="383795" />
	</node>
	<node id="-774842" lat="69.8453333377" lon="21.2243666384">
		<tag k="name" v="Liland" />
		<tag k="place" v="isolated_dwelling" />
		<tag k="ssr:stedsnr" v="383790" />
	</node>
	<node id="-776889" lat="69.5601888863" lon="21.2928583061">
		<tag k="name" v="Sappen" />
		<tag k="place" v="farm" />
		<tag k="ssr:stedsnr" v="869292" />
	</node>
	<node id="-776887" lat="69.7946388864" lon="21.1032582981">
		<tag k="name" v="Løken" />
		<tag k="place" v="isolated_dwelling" />
		<tag k="ssr:stedsnr" v="869215" />
	</node>
	<node id="-776886" lat="69.8013027757" lon="21.0954221898">
		<tag k="fixme" v="multiple name tags, choose one and add the other to alt_name" />
		<tag k="name" v="Myrslett;Nysletta" />
		<tag k="place" v="farm" />
		<tag k="ssr:stedsnr" v="869213" />
	</node>
	<node id="-776884" lat="69.8456111105" lon="20.8537055374">
		<tag k="name" v="Bekkevoll" />
		<tag k="place" v="farm" />
		<tag k="ssr:stedsnr" v="868980" />
	</node>
	<node id="-774835" lat="69.8030833355" lon="21.1076277514">
		<tag k="name" v="Loppevollen" />
		<tag k="place" v="farm" />
		<tag k="ssr:stedsnr" v="383765" />
	</node>
	<node id="-774827" lat="69.9257305523" lon="20.9181360835">
		<tag k="name" v="Gråsanden" />
		<tag k="place" v="locality" />
		<tag k="ssr:stedsnr" v="383570" />
	</node>
	<node id="-774824" lat="69.8454305576" lon="20.5186916382">
		<tag k="name" v="Skjeret" />
		<tag k="place" v="farm" />
		<tag k="ssr:stedsnr" v="383547" />
	</node>
	<node id="-774823" lat="69.8520666646" lon="20.8438805284">
		<tag k="name" v="Myrenga" />
		<tag k="place" v="farm" />
		<tag k="ssr:stedsnr" v="383543" />
	</node>
	<node id="-776868" lat="69.4030638889" lon="21.7159416284">
		<tag k="name" v="Sieimma" />
		<tag k="name:se" v="Sieimma" />
		<tag k="place" v="isolated_dwelling" />
		<tag k="ssr:stedsnr" v="868769" />
	</node>
	<node id="-776864" lat="69.8422499985" lon="21.1439110856">
		<tag k="name" v="Straumsli" />
		<tag k="place" v="farm" />
		<tag k="ssr:stedsnr" v="868733" />
	</node>
	<node id="-774815" lat="69.6366888933" lon="21.2890971856">
		<tag k="name" v="Fjellstad" />
		<tag k="place" v="farm" />
		<tag k="ssr:stedsnr" v="383386" />
	</node>
	<node id="-774814" lat="69.6250111082" lon="21.3156777436">
		<tag k="name" v="Nyheim" />
		<tag k="place" v="farm" />
		<tag k="ssr:stedsnr" v="383383" />
	</node>
	<node id="-776861" lat="69.7420000026" lon="21.1527027437">
		<tag k="name" v="Furumo" />
		<tag k="place" v="farm" />
		<tag k="ssr:stedsnr" v="868699" />
	</node>
	<node id="-774812" lat="69.5991916711" lon="21.3072027456">
		<tag k="name" v="Mariastilla" />
		<tag k="place" v="farm" />
		<tag k="ssr:stedsnr" v="383370" />
	</node>
	<node id="-776859" lat="69.4368805566" lon="21.5818805281">
		<tag k="name" v="Ansamukka" />
		<tag k="name:fkv" v="Ansamukka" />
		<tag k="place" v="locality" />
		<tag k="ssr:stedsnr" v="868683" />
	</node>
	<node id="-774810" lat="69.677808337" lon="21.236819424">
		<tag k="name" v="Holmen" />
		<tag k="place" v="farm" />
		<tag k="ssr:stedsnr" v="383340" />
	</node>
	<node id="-774808" lat="69.5078805547" lon="21.4301555326">
		<tag k="name" v="Bunta - Puntta" />
		<tag k="name:fkv" v="Puntta" />
		<tag k="name:no" v="Bunta" />
		<tag k="place" v="farm" />
		<tag k="ssr:stedsnr" v="383285" />
	</node>
	<node id="-774807" lat="69.5168277769" lon="21.3969582875">
		<tag k="name" v="Svartfosslandet" />
		<tag k="place" v="farm" />
		<tag k="ssr:stedsnr" v="383281" />
	</node>
	<node id="-774805" lat="69.7929499981" lon="21.079838852">
		<tag k="name" v="Myrheim" />
		<tag k="place" v="farm" />
		<tag k="ssr:stedsnr" v="383214" />
	</node>
	<node id="-776847" lat="69.568952781" lon="21.2733888643">
		<tag k="name" v="Hauketun" />
		<tag k="place" v="farm" />
		<tag k="ssr:stedsnr" v="868252" />
	</node>
	<node id="-774775" lat="69.7438444425" lon="21.1409194243">
		<tag k="name" v="Galilaen" />
		<tag k="place" v="farm" />
		<tag k="ssr:stedsnr" v="372583" />
	</node>
	<node id="-774928" lat="69.8232824892" lon="21.4400405721">
		<tag k="name" v="Solvang" />
		<tag k="place" v="farm" />
		<tag k="ssr:stedsnr" v="80770" />
	</node>
	<node id="-774766" lat="69.7438861143" lon="21.1642888508">
		<tag k="name" v="Mølleng" />
		<tag k="place" v="farm" />
		<tag k="ssr:stedsnr" v="358591" />
	</node>
	<node id="-776810" lat="69.7745222249" lon="20.9781249796">
		<tag k="name" v="Leirbukt" />
		<tag k="place" v="farm" />
		<tag k="ssr:stedsnr" v="843645" />
	</node>
	<node id="-776804" lat="69.6684361094" lon="21.299430529">
		<tag k="name" v="Potka" />
		<tag k="place" v="farm" />
		<tag k="ssr:stedsnr" v="843570" />
	</node>
	<node id="-776799" lat="69.8313527785" lon="21.0473749883">
		<tag k="name" v="Vang" />
		<tag k="place" v="farm" />
		<tag k="ssr:stedsnr" v="843312" />
	</node>
	<node id="-774738" lat="69.6576833332" lon="21.2884027561">
		<tag k="name" v="Tørfoss" />
		<tag k="place" v="farm" />
		<tag k="ssr:stedsnr" v="357542" />
	</node>
	<node id="-774735" lat="69.7325444436" lon="21.0373499615">
		<tag k="name" v="Kvernelv" />
		<tag k="place" v="farm" />
		<tag k="ssr:stedsnr" v="357417" />
	</node>
	<node id="-776778" lat="69.8531416667" lon="21.0595999775">
		<tag k="name" v="Ytre Storvik" />
		<tag k="place" v="hamlet" />
		<tag k="ssr:stedsnr" v="834713" />
	</node>
	<node id="-774729" lat="69.8244222215" lon="21.0467360757">
		<tag k="name" v="Sommersetet" />
		<tag k="place" v="locality" />
		<tag k="ssr:stedsnr" v="357304" />
	</node>
	<node id="-774725" lat="69.856783335" lon="21.1779194159">
		<tag k="historic" v="shieling" />
		<tag k="name" v="Setra" />
		<tag k="place" v="locality" />
		<tag k="ssr:stedsnr" v="357293" />
	</node>
	<node id="-776770" lat="69.7902611123" lon="20.7144777634">
		<tag k="alt_name" v="Rotsundelva, store" />
		<tag k="name" v="Store Rotsundelva" />
		<tag k="place" v="farm" />
		<tag k="ssr:stedsnr" v="808939" />
	</node>
	<node id="-776769" lat="69.7718138885" lon="20.5612666482">
		<tag k="name" v="Bakkemo" />
		<tag k="place" v="farm" />
		<tag k="ssr:stedsnr" v="808933" />
	</node>
	<node id="-776768" lat="69.7571416709" lon="20.7394027601">
		<tag k="name" v="Hornset" />
		<tag k="place" v="farm" />
		<tag k="ssr:stedsnr" v="808921" />
	</node>
	<node id="-774715" lat="69.9216055599" lon="20.9853583214">
		<tag k="name" v="Mattisnes" />
		<tag k="place" v="isolated_dwelling" />
		<tag k="ssr:stedsnr" v="349811" />
	</node>
	<node id="-776760" lat="69.923347222" lon="21.2295860818">
		<tag k="name" v="Rydeng" />
		<tag k="place" v="isolated_dwelling" />
		<tag k="ssr:stedsnr" v="808855" />
	</node>
	<node id="-774711" lat="69.9652444465" lon="21.2160083064">
		<tag k="name" v="Molvik" />
		<tag k="place" v="locality" />
		<tag k="ssr:stedsnr" v="329581" />
	</node>
	<node id="-776756" lat="69.8558138878" lon="21.2331166259">
		<tag k="name" v="Rognlund" />
		<tag k="place" v="isolated_dwelling" />
		<tag k="ssr:stedsnr" v="808787" />
	</node>
	<node id="-776755" lat="69.8494833313" lon="21.0596332952">
		<tag k="name" v="Nesheim" />
		<tag k="place" v="farm" />
		<tag k="ssr:stedsnr" v="808783" />
	</node>
	<node id="-776754" lat="69.8032916703" lon="21.0211527603">
		<tag k="alt_name" v="Kvænnes" />
		<tag k="name" v="Kvennes" />
		<tag k="place" v="isolated_dwelling" />
		<tag k="ssr:stedsnr" v="808761" />
	</node>
	<node id="-776753" lat="69.7173055598" lon="21.2641083077">
		<tag k="name" v="Heggeslett" />
		<tag k="place" v="farm" />
		<tag k="ssr:stedsnr" v="808709" />
	</node>
	<node id="-776752" lat="69.6991027764" lon="21.2312360923">
		<tag k="name" v="Myrvoll" />
		<tag k="place" v="farm" />
		<tag k="ssr:stedsnr" v="808694" />
	</node>
	<node id="-776750" lat="69.7377611107" lon="21.1230388603">
		<tag k="name" v="Strandheim" />
		<tag k="place" v="farm" />
		<tag k="ssr:stedsnr" v="808690" />
	</node>
	<node id="-776749" lat="69.8588000025" lon="21.2274749708">
		<tag k="name" v="Myrvang" />
		<tag k="place" v="farm" />
		<tag k="ssr:stedsnr" v="808789" />
	</node>
	<node id="-776747" lat="69.8566888899" lon="20.8452249882">
		<tag k="name" v="Midtgård" />
		<tag k="place" v="farm" />
		<tag k="ssr:stedsnr" v="808509" />
	</node>
	<node id="-774698" lat="69.8521555565" lon="21.2279860753">
		<tag k="alt_name" v="Elveslett" />
		<tag k="name" v="Elvesletta" />
		<tag k="place" v="isolated_dwelling" />
		<tag k="ssr:stedsnr" v="323781" />
	</node>
	<node id="-774919" lat="69.8506499985" lon="20.8486777546">
		<tag k="alt_name" v="Bakkeby Indre" />
		<tag k="name" v="Indre Bakkeby" />
		<tag k="place" v="hamlet" />
		<tag k="ssr:stedsnr" v="895650" />
	</node>
	<node id="-774692" lat="69.605236109" lon="21.2536999769">
		<tag k="name" v="Liland" />
		<tag k="place" v="hamlet" />
		<tag k="ssr:stedsnr" v="323359" />
	</node>
	<node id="-774691" lat="69.6201333348" lon="21.2953555255">
		<tag k="name" v="Rognmo" />
		<tag k="place" v="farm" />
		<tag k="ssr:stedsnr" v="323356" />
	</node>
	<node id="-774689" lat="69.8358277795" lon="20.5229333087">
		<tag k="name" v="Bergheim" />
		<tag k="place" v="farm" />
		<tag k="ssr:stedsnr" v="322999" />
	</node>
	<node id="-776736" lat="69.648352778" lon="21.302033309">
		<tag k="name" v="Hallen" />
		<tag k="place" v="farm" />
		<tag k="ssr:stedsnr" v="808367" />
	</node>
	<node id="-774687" lat="69.8364305566" lon="20.8964555404">
		<tag k="alt_name" v="Sokkelvika, yt" />
		<tag k="name" v="Ytre Sokkelvika" />
		<tag k="place" v="farm" />
		<tag k="ssr:stedsnr" v="322992" />
	</node>
	<node id="-776734" lat="69.6882999994" lon="21.2192527617">
		<tag k="name" v="Haugset" />
		<tag k="place" v="farm" />
		<tag k="ssr:stedsnr" v="808329" />
	</node>
	<node id="-774685" lat="69.8203361102" lon="20.8872388751">
		<tag k="alt_name" v="Sokkelvika, in" />
		<tag k="name" v="Indre Sokkelvika" />
		<tag k="place" v="farm" />
		<tag k="ssr:stedsnr" v="322976" />
	</node>
	<node id="-776732" lat="69.6785250036" lon="21.2693777575">
		<tag k="name" v="Solberg" />
		<tag k="place" v="farm" />
		<tag k="ssr:stedsnr" v="808318" />
	</node>
	<node id="-776731" lat="69.6727861082" lon="21.2817471844">
		<tag k="name" v="Kvam" />
		<tag k="place" v="farm" />
		<tag k="ssr:stedsnr" v="808311" />
	</node>
	<node id="-776729" lat="69.5597694452" lon="21.3021416345">
		<tag k="amenity" v="school" />
		<tag k="name" v="Sappen Leirskole" />
		<tag k="ssr:stedsnr" v="808260" />
	</node>
	<node id="-776728" lat="69.5421722198" lon="21.3326555115">
		<tag k="name" v="Bjørkeng" />
		<tag k="place" v="farm" />
		<tag k="ssr:stedsnr" v="808248" />
	</node>
	<node id="-776727" lat="69.5541666651" lon="21.2957249768">
		<tag k="alt_name" v="Øvresappen" />
		<tag k="name" v="Øvre Sappen" />
		<tag k="place" v="farm" />
		<tag k="ssr:stedsnr" v="808244" />
	</node>
	<node id="-776726" lat="69.5381861088" lon="21.3382416386">
		<tag k="name" v="Elveland" />
		<tag k="place" v="farm" />
		<tag k="ssr:stedsnr" v="808237" />
	</node>
	<node id="-774677" lat="69.9193805541" lon="21.2734083131">
		<tag k="name" v="Myrland" />
		<tag k="place" v="farm" />
		<tag k="ssr:stedsnr" v="322845" />
	</node>
	<node id="-776724" lat="69.5216984862" lon="21.3838382463">
		<tag k="name" v="Hellighesja" />
		<tag k="place" v="farm" />
		<tag k="ssr:stedsnr" v="808229" />
	</node>
	<node id="-776721" lat="69.7955083305" lon="21.1143083117">
		<tag k="alt_name" v="Tretta" />
		<tag k="name" v="Tretten" />
		<tag k="place" v="farm" />
		<tag k="ssr:stedsnr" v="808171" />
	</node>
	<node id="-774672" lat="69.3462361109" lon="21.8613610679">
		<tag k="name" v="Vuomádat" />
		<tag k="name:se" v="Vuomádat" />
		<tag k="place" v="isolated_dwelling" />
		<tag k="ssr:stedsnr" v="322825" />
	</node>
	<node id="-774666" lat="69.876475003" lon="21.4375138544">
		<tag k="name" v="Teigen" />
		<tag k="place" v="farm" />
		<tag k="ssr:stedsnr" v="322789" />
	</node>
	<node id="-774664" lat="69.8461888938" lon="21.064730522">
		<tag k="name" v="Myrvang" />
		<tag k="place" v="isolated_dwelling" />
		<tag k="ssr:stedsnr" v="322757" />
	</node>
	<node id="-774663" lat="69.8411083343" lon="21.0620555366">
		<tag k="name" v="Fjellstad" />
		<tag k="place" v="farm" />
		<tag k="ssr:stedsnr" v="322755" />
	</node>
	<node id="-774661" lat="69.8296055547" lon="21.0425388637">
		<tag k="alt_name" v="Buktevoll" />
		<tag k="name" v="Buktevollen" />
		<tag k="place" v="farm" />
		<tag k="ssr:stedsnr" v="322748" />
	</node>
	<node id="-776708" lat="69.7482555524" lon="21.0336249729">
		<tag k="alt_name" v="Sagelv" />
		<tag k="name" v="Sagelva" />
		<tag k="place" v="farm" />
		<tag k="ssr:stedsnr" v="807717" />
	</node>
	<node id="-776707" lat="69.7431472242" lon="21.0559527614">
		<tag k="name" v="Kålheim" />
		<tag k="place" v="farm" />
		<tag k="ssr:stedsnr" v="807711" />
	</node>
	<node id="-776706" lat="69.4853472191" lon="21.4779527512">
		<tag k="name" v="Biltu" />
		<tag k="name:se" v="Biltu" />
		<tag k="old_name:se" v="Bilto" />
		<tag k="place" v="farm" />
		<tag k="ssr:stedsnr" v="807708" />
	</node>
	<node id="-776687" lat="69.6901250035" lon="21.0765416402">
		<tag k="name" v="Lillestø" />
		<tag k="place" v="isolated_dwelling" />
		<tag k="ssr:stedsnr" v="783738" />
	</node>
	<node id="-776685" lat="69.6863444437" lon="21.0850194149">
		<tag k="name" v="Kildal Øvre" />
		<tag k="place" v="farm" />
		<tag k="ssr:stedsnr" v="783643" />
	</node>
	<node id="-774636" lat="69.8506055558" lon="20.8486527604">
		<tag k="fixme" v="consider place=hamlet" />
		<tag k="loc_name:fkv" v="Sokkuvuono" />
		<tag k="name" v="Bakkeby" />
		<tag k="name:no" v="Bakkeby" />
		<tag k="place" v="village" />
		<tag k="ssr:stedsnr" v="322526" />
	</node>
	<node id="-776683" lat="69.7649861105" lon="20.4916638617">
		<tag k="name" v="Ågekjerran" />
		<tag k="place" v="farm" />
		<tag k="ssr:stedsnr" v="782996" />
	</node>
	<node id="-774624" lat="69.6535500009" lon="21.3062832934">
		<tag k="name" v="Mellomjorda" />
		<tag k="place" v="farm" />
		<tag k="ssr:stedsnr" v="322286" />
	</node>
	<node id="-774622" lat="69.5748611128" lon="21.2512055154">
		<tag k="name" v="Fossheim" />
		<tag k="place" v="farm" />
		<tag k="ssr:stedsnr" v="322243" />
	</node>
	<node id="-774620" lat="69.7682500003" lon="21.0451610746">
		<tag k="name" v="Lunde" />
		<tag k="place" v="farm" />
		<tag k="ssr:stedsnr" v="322192" />
	</node>
	<node id="-774609" lat="69.8744027756" lon="21.2059249781">
		<tag k="name" v="Bliksgård" />
		<tag k="place" v="farm" />
		<tag k="ssr:stedsnr" v="322804" />
	</node>
	<node id="-774606" lat="69.7663972262" lon="21.0523944124">
		<tag k="name" v="Lunde" />
		<tag k="place" v="quarter" />
		<tag k="ssr:stedsnr" v="309948" />
	</node>
	<node id="-774590" lat="69.8750722192" lon="21.4160222026">
		<tag k="name" v="Elvebakken" />
		<tag k="name:se" v="Elvebakken" />
		<tag k="place" v="farm" />
		<tag k="ssr:stedsnr" v="297997" />
	</node>
	<node id="-776634" lat="69.9271722189" lon="21.3014027496">
		<tag k="name" v="Arildstad" />
		<tag k="old_name" v="Arildsdal" />
		<tag k="place" v="farm" />
		<tag k="ssr:stedsnr" v="869876" />
	</node>
	<node id="-776633" lat="69.9140527761" lon="21.3229388669">
		<tag k="name" v="Nygård" />
		<tag k="place" v="farm" />
		<tag k="ssr:stedsnr" v="869872" />
	</node>
	<node id="-776631" lat="69.9009638872" lon="21.3710027545">
		<tag k="name" v="Gardmo" />
		<tag k="place" v="isolated_dwelling" />
		<tag k="ssr:stedsnr" v="869864" />
	</node>
	<node id="-776628" lat="69.85956667" lon="21.1848333019">
		<tag k="name" v="Hestnes" />
		<tag k="place" v="isolated_dwelling" />
		<tag k="ssr:stedsnr" v="869827" />
	</node>
	<node id="-776625" lat="69.8620111109" lon="21.2263666479">
		<tag k="name" v="Skoglund" />
		<tag k="place" v="farm" />
		<tag k="ssr:stedsnr" v="869817" />
	</node>
	<node id="-774576" lat="69.7702083313" lon="20.7223194177">
		<tag k="name" v="Rotsunddalen" />
		<tag k="place" v="farm" />
		<tag k="ssr:stedsnr" v="297226" />
	</node>
	<node id="-776623" lat="69.8323555548" lon="21.1959444182">
		<tag k="name" v="Sandnes" />
		<tag k="place" v="farm" />
		<tag k="ssr:stedsnr" v="869798" />
	</node>
	<node id="-776618" lat="69.7775777813" lon="20.9651610903">
		<tag k="name" v="Skogly" />
		<tag k="place" v="isolated_dwelling" />
		<tag k="ssr:stedsnr" v="774685" />
	</node>
	<node id="-774569" lat="69.7637861103" lon="20.4827805255">
		<tag k="name" v="Kriken" />
		<tag k="place" v="farm" />
		<tag k="ssr:stedsnr" v="296999" />
	</node>
	<node id="-776615" lat="69.8000361113" lon="21.1213721884">
		<tag k="name" v="Tretten" />
		<tag k="place" v="hamlet" />
		<tag k="ssr:stedsnr" v="756856" />
	</node>
	<node id="-776614" lat="69.7882166676" lon="20.7107722066">
		<tag k="fixme" v="consider place=hamlet" />
		<tag k="name" v="Rotsundelv" />
		<tag k="place" v="village" />
		<tag k="ssr:stedsnr" v="755836" />
	</node>
	<node id="-776613" lat="69.9094416694" lon="21.3278444293">
		<tag k="name" v="Sandbukt" />
		<tag k="place" v="farm" />
		<tag k="ssr:stedsnr" v="755274" />
	</node>
	<node id="-776609" lat="69.8338944469" lon="20.5207527627">
		<tag k="name" v="Russnes" />
		<tag k="place" v="farm" />
		<tag k="ssr:stedsnr" v="747999" />
	</node>
	<node id="-776608" lat="69.8464027739" lon="20.8611110938">
		<tag k="name" v="Askheim" />
		<tag k="place" v="farm" />
		<tag k="ssr:stedsnr" v="747988" />
	</node>
	<node id="-776604" lat="69.7905111078" lon="20.6668055323">
		<tag k="name" v="Eng" />
		<tag k="place" v="farm" />
		<tag k="ssr:stedsnr" v="747943" />
	</node>
	<node id="-776602" lat="69.7886027743" lon="20.6971805449">
		<tag k="name" v="Dalsletta" />
		<tag k="place" v="farm" />
		<tag k="ssr:stedsnr" v="747939" />
	</node>
	<node id="-776598" lat="69.7787611147" lon="20.7043194283">
		<tag k="name" v="Solhaugen" />
		<tag k="place" v="farm" />
		<tag k="ssr:stedsnr" v="747920" />
	</node>
	<node id="-776596" lat="69.7628694457" lon="20.4857444374">
		<tag k="name" v="Vollen" />
		<tag k="place" v="farm" />
		<tag k="ssr:stedsnr" v="747908" />
	</node>
	<node id="-776590" lat="69.9173000007" lon="21.3063166352">
		<tag k="name" v="Akkarjorda" />
		<tag k="place" v="farm" />
		<tag k="ssr:stedsnr" v="747859" />
	</node>
	<node id="-776584" lat="69.8022333351" lon="21.0995222014">
		<tag k="name" v="Nordkjoseidet" />
		<tag k="place" v="farm" />
		<tag k="ssr:stedsnr" v="747760" />
	</node>
	<node id="-776583" lat="69.7487777763" lon="21.0805583182">
		<tag k="name" v="Krakenes" />
		<tag k="place" v="farm" />
		<tag k="ssr:stedsnr" v="747755" />
	</node>
	<node id="-776581" lat="69.720494447" lon="21.2344610719">
		<tag k="name" v="Nymoen" />
		<tag k="place" v="farm" />
		<tag k="ssr:stedsnr" v="747706" />
	</node>
	<node id="-776579" lat="69.7287055554" lon="21.0425221968">
		<tag k="name" v="Nesmo" />
		<tag k="place" v="farm" />
		<tag k="ssr:stedsnr" v="747690" />
	</node>
	<node id="-774523" lat="69.9212944488" lon="21.2379471967">
		<tag k="name" v="Steinnes" />
		<tag k="place" v="isolated_dwelling" />
		<tag k="ssr:stedsnr" v="288037" />
	</node>
	<node id="-776570" lat="69.9192000006" lon="20.960802767">
		<tag k="name" v="Åsheim" />
		<tag k="place" v="farm" />
		<tag k="ssr:stedsnr" v="747527" />
	</node>
	<node id="-776568" lat="69.8484286053" lon="20.8692276471">
		<tag k="alt_name" v="Lattern;Latteren" />
		<tag k="name" v="Rydningen" />
		<tag k="place" v="farm" />
		<tag k="ssr:stedsnr" v="747515" />
	</node>
	<node id="-776567" lat="69.8478861154" lon="20.856327754">
		<tag k="name" v="Nylund" />
		<tag k="place" v="farm" />
		<tag k="ssr:stedsnr" v="747507" />
	</node>
	<node id="-776562" lat="69.6761888877" lon="21.2735860821">
		<tag k="name" v="Skjønsfjell" />
		<tag k="place" v="farm" />
		<tag k="ssr:stedsnr" v="747418" />
	</node>
	<node id="-776558" lat="69.5815944444" lon="21.2466638567">
		<tag k="fixme" v="multiple name tags, choose one and add the other to alt_name" />
		<tag k="name" v="Bergskog;Bergskog øvre" />
		<tag k="place" v="farm" />
		<tag k="ssr:stedsnr" v="747337" />
	</node>
	<node id="-776557" lat="69.6964083388" lon="21.2816944091">
		<tag k="name" v="Skogli" />
		<tag k="place" v="isolated_dwelling" />
		<tag k="ssr:stedsnr" v="747335" />
	</node>
	<node id="-776556" lat="69.6868083322" lon="21.0924694185">
		<tag k="name" v="Samueldalen" />
		<tag k="place" v="farm" />
		<tag k="ssr:stedsnr" v="747334" />
	</node>
	<node id="-776555" lat="69.655994448" lon="21.2959055395">
		<tag k="name" v="Fossland" />
		<tag k="place" v="farm" />
		<tag k="ssr:stedsnr" v="747305" />
	</node>
	<node id="-776550" lat="69.8740916645" lon="21.1929360776">
		<tag k="name" v="Tangen" />
		<tag k="place" v="farm" />
		<tag k="ssr:stedsnr" v="747820" />
	</node>
	<node id="-776548" lat="69.8721666664" lon="21.1927555348">
		<tag k="name" v="Storvoll" />
		<tag k="place" v="isolated_dwelling" />
		<tag k="ssr:stedsnr" v="747811" />
	</node>
	<node id="-776535" lat="69.4821111161" lon="21.4830888471">
		<tag k="name" v="Daleng" />
		<tag k="place" v="locality" />
		<tag k="ssr:stedsnr" v="746691" />
	</node>
	<node id="-776530" lat="69.4973555594" lon="21.4425555304">
		<tag k="name" v="Puntafoss - Puntankoski" />
		<tag k="name:fkv" v="Puntankoski" />
		<tag k="name:no" v="Puntafoss" />
		<tag k="place" v="isolated_dwelling" />
		<tag k="ssr:stedsnr" v="746665" />
	</node>
	<node id="-774883" lat="69.7853694463" lon="20.6941138603">
		<tag k="name" v="Sommarsetet" />
		<tag k="place" v="locality" />
		<tag k="ssr:stedsnr" v="478235" />
	</node>
	<node id="-776521" lat="69.5297444493" lon="21.3679249639">
		<tag k="name" v="Oskarnes" />
		<tag k="place" v="farm" />
		<tag k="ssr:stedsnr" v="747253" />
	</node>
	<node id="-776520" lat="69.5170472209" lon="21.4207333123">
		<tag k="name" v="Lynås" />
		<tag k="place" v="locality" />
		<tag k="ssr:stedsnr" v="747245" />
	</node>
	<node id="-776519" lat="69.7536638877" lon="21.0331055214">
		<tag k="name" v="Sagstad" />
		<tag k="place" v="farm" />
		<tag k="ssr:stedsnr" v="747214" />
	</node>
	<node id="-774686" lat="69.8423888893" lon="20.9414194237">
		<tag k="name" v="Sokkelnes" />
		<tag k="place" v="farm" />
		<tag k="ssr:stedsnr" v="322980" />
	</node>
	<node id="-776759" lat="69.9178916639" lon="21.269069405">
		<tag k="name" v="Hamn" />
		<tag k="place" v="farm" />
		<tag k="ssr:stedsnr" v="808850" />
	</node>
	<node id="-776495" lat="69.772177782" lon="21.0343888612">
		<tag k="name" v="Dørmamoen" />
		<tag k="place" v="quarter" />
		<tag k="ssr:stedsnr" v="722690" />
	</node>
	<node id="-776493" lat="69.7663055534" lon="21.0352860729">
		<tag k="amenity" v="nursing_home" />
		<tag k="name" v="Sonjatun" />
		<tag k="ssr:stedsnr" v="722672" />
	</node>
	<node id="-774873" lat="69.8226638937" lon="20.5299138688">
		<tag k="loc_name:se" v="Stuoragieddi" />
		<tag k="name" v="Storsletta" />
		<tag k="name:no" v="Storsletta" />
		<tag k="place" v="hamlet" />
		<tag k="ssr:stedsnr" v="392602" />
	</node>
	<node id="-776462" lat="69.750541665" lon="21.0412666474">
		<tag k="name" v="Tømmernes" />
		<tag k="place" v="farm" />
		<tag k="ssr:stedsnr" v="721399" />
	</node>
	<node id="-776454" lat="69.7368111146" lon="21.1839916445">
		<tag k="name" v="Storslett" />
		<tag k="place" v="farm" />
		<tag k="ssr:stedsnr" v="715118" />
	</node>
	<node id="-776452" lat="69.8023083389" lon="21.1224166382">
		<tag k="name" v="Bakken" />
		<tag k="place" v="farm" />
		<tag k="ssr:stedsnr" v="695232" />
	</node>
	<node id="-776451" lat="69.8440944435" lon="21.0641610849">
		<tag k="fixme" v="consider place=hamlet" />
		<tag k="loc_name:fkv" v="Isolahti" />
		<tag k="name" v="Storvik" />
		<tag k="name:no" v="Storvik" />
		<tag k="place" v="village" />
		<tag k="ssr:stedsnr" v="694010" />
	</node>
	<node id="-776450" lat="69.7907916681" lon="20.5538638619">
		<tag k="name" v="Danskebyvollen" />
		<tag k="place" v="isolated_dwelling" />
		<tag k="ssr:stedsnr" v="693847" />
	</node>
	<node id="-776446" lat="69.8074611162" lon="20.5357305321">
		<tag k="name" v="Urdvoll" />
		<tag k="place" v="farm" />
		<tag k="ssr:stedsnr" v="687965" />
	</node>
	<node id="-776444" lat="69.8093138915" lon="20.7505416489">
		<tag k="name" v="Myrenga" />
		<tag k="place" v="farm" />
		<tag k="ssr:stedsnr" v="687959" />
	</node>
	<node id="-776443" lat="69.8029250043" lon="20.7325555247">
		<tag k="name" v="Bakkevoll" />
		<tag k="place" v="farm" />
		<tag k="ssr:stedsnr" v="687958" />
	</node>
	<node id="-776442" lat="69.7787277758" lon="20.5980999807">
		<tag k="name" v="Bakketun" />
		<tag k="place" v="farm" />
		<tag k="ssr:stedsnr" v="687947" />
	</node>
	<node id="-776441" lat="69.7691527793" lon="20.7242805426">
		<tag k="name" v="Dalheim" />
		<tag k="place" v="farm" />
		<tag k="ssr:stedsnr" v="687931" />
	</node>
	<node id="-776440" lat="69.7738805593" lon="20.5762527612">
		<tag k="alt_name" v="Rotsund, s" />
		<tag k="name" v="Rotsund Søndre" />
		<tag k="place" v="farm" />
		<tag k="ssr:stedsnr" v="687928" />
	</node>
	<node id="-776439" lat="69.930811113" lon="21.2005333108">
		<tag k="alt_name" v="Storeng" />
		<tag k="name" v="Storenga" />
		<tag k="place" v="isolated_dwelling" />
		<tag k="ssr:stedsnr" v="687877" />
	</node>
	<node id="-776438" lat="69.9260000003" lon="21.2203471989">
		<tag k="name" v="Leirbakken" />
		<tag k="place" v="isolated_dwelling" />
		<tag k="ssr:stedsnr" v="687875" />
	</node>
	<node id="-776437" lat="69.9189388936" lon="21.2563638598">
		<tag k="name" v="Hamneng" />
		<tag k="place" v="farm" />
		<tag k="ssr:stedsnr" v="687870" />
	</node>
	<node id="-776436" lat="69.9175944491" lon="21.2958638629">
		<tag k="name" v="Arildseng" />
		<tag k="place" v="farm" />
		<tag k="ssr:stedsnr" v="687865" />
	</node>
	<node id="-776435" lat="69.9119999995" lon="21.327238859">
		<tag k="name" v="Sandelva" />
		<tag k="place" v="farm" />
		<tag k="ssr:stedsnr" v="687862" />
	</node>
	<node id="-776433" lat="69.8870888864" lon="21.4375499572">
		<tag k="name" v="Nyvoll" />
		<tag k="place" v="isolated_dwelling" />
		<tag k="ssr:stedsnr" v="687836" />
	</node>
	<node id="-776431" lat="69.8755055591" lon="21.4344888652">
		<tag k="name" v="Holmen" />
		<tag k="place" v="farm" />
		<tag k="ssr:stedsnr" v="687818" />
	</node>
	<node id="-776428" lat="69.7502333313" lon="20.7319027454">
		<tag k="name" v="Helgeli" />
		<tag k="place" v="farm" />
		<tag k="ssr:stedsnr" v="687619" />
	</node>
	<node id="-774983" lat="69.8558194416" lon="20.7714055235">
		<tag k="alt_name" v="Ravelseidet, yt" />
		<tag k="fixme" v="multiple name tags, choose one and add the other to alt_name" />
		<tag k="name" v="Ravelseidet;Ytre Ravelseidet" />
		<tag k="place" v="farm" />
		<tag k="ssr:stedsnr" v="19509" />
	</node>
	<node id="-776417" lat="69.8674388915" lon="20.8932416464">
		<tag k="name" v="Bakkesti" />
		<tag k="place" v="farm" />
		<tag k="ssr:stedsnr" v="687491" />
	</node>
	<node id="-774849" lat="69.8723194429" lon="21.2105444147">
		<tag k="name" v="Nyskog" />
		<tag k="place" v="farm" />
		<tag k="ssr:stedsnr" v="383829" />
	</node>
	<node id="-776409" lat="69.7740638877" lon="21.041538863">
		<tag k="name" v="Mælen" />
		<tag k="place" v="farm" />
		<tag k="ssr:stedsnr" v="687440" />
	</node>
	<node id="-776408" lat="69.6196138915" lon="21.3049194069">
		<tag k="name" v="Vinnelys - Varppi" />
		<tag k="name:fkv" v="Varppi" />
		<tag k="name:no" v="Vinnelys" />
		<tag k="place" v="farm" />
		<tag k="ssr:stedsnr" v="687370" />
	</node>
	<node id="-776406" lat="69.673027777" lon="21.2588166273">
		<tag k="name" v="Kjosvoll" />
		<tag k="place" v="farm" />
		<tag k="ssr:stedsnr" v="687335" />
	</node>
	<node id="-776403" lat="69.758355558" lon="21.0333499737">
		<tag k="name" v="Nylund" />
		<tag k="place" v="farm" />
		<tag k="ssr:stedsnr" v="687215" />
	</node>
	<node id="-776402" lat="69.7682305589" lon="21.0244888613">
		<tag k="loc_name:fkv" v="Hansinkenttä" />
		<tag k="name" v="Storslett" />
		<tag k="name:no" v="Storslett" />
		<tag k="place" v="village" />
		<tag k="ssr:stedsnr" v="687207" />
	</node>
	<node id="-776399" lat="69.8457333343" lon="20.7942360832">
		<tag k="name" v="Eidebukta" />
		<tag k="place" v="farm" />
		<tag k="ssr:stedsnr" v="686993" />
	</node>
	<node id="-776398" lat="69.8395944416" lon="20.789402751">
		<tag k="alt_name" v="Sandnes" />
		<tag k="name" v="Sandenes" />
		<tag k="place" v="farm" />
		<tag k="ssr:stedsnr" v="686991" />
	</node>
	<node id="-776397" lat="69.8389055546" lon="20.9249194221">
		<tag k="name" v="Nyheim" />
		<tag k="place" v="farm" />
		<tag k="ssr:stedsnr" v="686987" />
	</node>
	<node id="-776379" lat="69.7317083354" lon="21.0396249678">
		<tag k="name" v="Haugland" />
		<tag k="place" v="farm" />
		<tag k="ssr:stedsnr" v="686701" />
	</node>
	<node id="-776363" lat="69.856658338" lon="20.8516083118">
		<tag k="name" v="Nedregård" />
		<tag k="place" v="farm" />
		<tag k="ssr:stedsnr" v="686535" />
	</node>
	<node id="-776362" lat="69.8583694425" lon="20.8564777648">
		<tag k="name" v="Nyeng" />
		<tag k="place" v="farm" />
		<tag k="ssr:stedsnr" v="686533" />
	</node>
	<node id="-776359" lat="69.6866500009" lon="21.2414971897">
		<tag k="name" v="Potkaelv" />
		<tag k="place" v="farm" />
		<tag k="ssr:stedsnr" v="686314" />
	</node>
	<node id="-776355" lat="69.5306138902" lon="21.3720138657">
		<tag k="alt_name" v="Tromsanes" />
		<tag k="name" v="Tronsanes" />
		<tag k="place" v="farm" />
		<tag k="ssr:stedsnr" v="686248" />
	</node>
	<node id="-776352" lat="69.7984583309" lon="21.0955388592">
		<tag k="name" v="Skogbakken" />
		<tag k="place" v="locality" />
		<tag k="ssr:stedsnr" v="686185" />
	</node>
	<node id="-776342" lat="69.8769694465" lon="21.0953471897">
		<tag k="fixme" v="multiple name tags, choose one and add the other to alt_name" />
		<tag k="name" v="Fallvika;Vika" />
		<tag k="place" v="farm" />
		<tag k="ssr:stedsnr" v="673827" />
	</node>
	<node id="-776334" lat="69.8951222264" lon="21.3257833174">
		<tag k="name" v="Lavollen" />
		<tag k="place" v="farm" />
		<tag k="ssr:stedsnr" v="661920" />
	</node>
	<node id="-776333" lat="69.8963222185" lon="21.3271333114">
		<tag k="name" v="Oksfjordvannet" />
		<tag k="place" v="farm" />
		<tag k="ssr:stedsnr" v="661918" />
	</node>
	<node id="-776325" lat="69.7066194421" lon="21.2597971915">
		<tag k="name" v="Moskodal" />
		<tag k="place" v="farm" />
		<tag k="ssr:stedsnr" v="661697" />
	</node>
	<node id="-776321" lat="69.775827779" lon="21.0397083091">
		<tag k="name" v="Dørme" />
		<tag k="place" v="farm" />
		<tag k="ssr:stedsnr" v="661606" />
	</node>
	<node id="-776320" lat="69.7694666695" lon="20.997047209">
		<tag k="amenity" v="school" />
		<tag k="name" v="Nordreisa videregående skole" />
		<tag k="ssr:stedsnr" v="661598" />
	</node>
	<node id="-776319" lat="69.736280554" lon="21.1755610925">
		<tag k="name" v="Lantrodo" />
		<tag k="place" v="farm" />
		<tag k="ssr:stedsnr" v="661548" />
	</node>
	<node id="-776282" lat="69.7548472258" lon="21.0205333115">
		<tag k="name" v="Elvevoll" />
		<tag k="place" v="farm" />
		<tag k="ssr:stedsnr" v="660074" />
	</node>
	<node id="-776277" lat="69.8654861141" lon="21.039747194">
		<tag k="name" v="Oksebukt" />
		<tag k="place" v="isolated_dwelling" />
		<tag k="ssr:stedsnr" v="652699" />
	</node>
	<node id="-776276" lat="69.9087944451" lon="21.327899968">
		<tag k="name" v="Sandbu" />
		<tag k="place" v="isolated_dwelling" />
		<tag k="ssr:stedsnr" v="652015" />
	</node>
	<node id="-776275" lat="69.904855554" lon="21.3240055206">
		<tag k="name" v="Elveslett" />
		<tag k="place" v="locality" />
		<tag k="ssr:stedsnr" v="652011" />
	</node>
	<node id="-776274" lat="69.9378777785" lon="21.0390221898">
		<tag k="name" v="Finnby" />
		<tag k="place" v="locality" />
		<tag k="ssr:stedsnr" v="651815" />
	</node>
	<node id="-776271" lat="69.806" lon="20.9226499676">
		<tag k="name" v="Jubelen" />
		<tag k="place" v="farm" />
		<tag k="ssr:stedsnr" v="626971" />
	</node>
	<node id="-776270" lat="69.7876861086" lon="20.7156638723">
		<tag k="alt_name" v="Rotsundelva, l" />
		<tag k="name" v="Lille Rotsundelva" />
		<tag k="place" v="farm" />
		<tag k="ssr:stedsnr" v="626962" />
	</node>
	<node id="-776269" lat="69.7763083351" lon="20.588352752">
		<tag k="name" v="Bakkejorda" />
		<tag k="place" v="farm" />
		<tag k="ssr:stedsnr" v="626960" />
	</node>
	<node id="-776268" lat="69.7824861087" lon="20.6143111016">
		<tag k="name" v="Nordregård" />
		<tag k="place" v="farm" />
		<tag k="ssr:stedsnr" v="626959" />
	</node>
	<node id="-776267" lat="69.7809861139" lon="20.9619583117">
		<tag k="name" v="Bjørkelund" />
		<tag k="place" v="farm" />
		<tag k="ssr:stedsnr" v="626944" />
	</node>
	<node id="-776266" lat="69.7656888902" lon="20.4961555405">
		<tag k="name" v="Slottet" />
		<tag k="place" v="farm" />
		<tag k="ssr:stedsnr" v="626941" />
	</node>
	<node id="-776262" lat="69.8760749987" lon="21.446227747">
		<tag k="name" v="Livoll" />
		<tag k="place" v="farm" />
		<tag k="ssr:stedsnr" v="626825" />
	</node>
	<node id="-776261" lat="69.8656472201" lon="21.2179444077">
		<tag k="name" v="Rydningen" />
		<tag k="place" v="farm" />
		<tag k="ssr:stedsnr" v="626826" />
	</node>
	<node id="-776259" lat="69.8619055586" lon="21.4088388529">
		<tag k="name" v="Øvregård" />
		<tag k="old_name" v="Øvergard" />
		<tag k="place" v="isolated_dwelling" />
		<tag k="ssr:stedsnr" v="626814" />
	</node>
	<node id="-776258" lat="69.8583916643" lon="21.2305166265">
		<tag k="name" v="Berg" />
		<tag k="place" v="farm" />
		<tag k="ssr:stedsnr" v="626806" />
	</node>
	<node id="-776250" lat="69.6301694481" lon="21.29418053">
		<tag k="name" v="Bergmo" />
		<tag k="place" v="farm" />
		<tag k="ssr:stedsnr" v="626402" />
	</node>
	<node id="-776249" lat="69.6075361107" lon="21.2542416304">
		<tag k="alt_name" v="Nedrebukta" />
		<tag k="name" v="Nerbukt" />
		<tag k="place" v="farm" />
		<tag k="ssr:stedsnr" v="626394" />
	</node>
	<node id="-776244" lat="69.8140749986" lon="20.7622305289">
		<tag k="name" v="Myrli" />
		<tag k="place" v="farm" />
		<tag k="ssr:stedsnr" v="625982" />
	</node>
	<node id="-776235" lat="69.8365000012" lon="21.1451499791">
		<tag k="name" v="Soleng" />
		<tag k="place" v="farm" />
		<tag k="ssr:stedsnr" v="625784" />
	</node>
	<node id="-776228" lat="69.4569861122" lon="21.5331666369">
		<tag k="name" v="Saraelv" />
		<tag k="place" v="farm" />
		<tag k="ssr:stedsnr" v="625736" />
	</node>
	<node id="-776226" lat="69.7309055559" lon="21.1955360895">
		<tag k="alt_name" v="Elvejord" />
		<tag k="name" v="Elvejorda" />
		<tag k="place" v="farm" />
		<tag k="ssr:stedsnr" v="625709" />
	</node>
	<node id="-776224" lat="69.7244611123" lon="21.0502666291">
		<tag k="name" v="Sakshaug" />
		<tag k="place" v="farm" />
		<tag k="ssr:stedsnr" v="625704" />
	</node>
	<node id="-776223" lat="69.7266833297" lon="21.2104860865">
		<tag k="name" v="Elveskog" />
		<tag k="place" v="farm" />
		<tag k="ssr:stedsnr" v="625697" />
	</node>
	<node id="-776211" lat="69.8630750029" lon="20.8785916502">
		<tag k="name" v="Skoglund" />
		<tag k="place" v="farm" />
		<tag k="ssr:stedsnr" v="625526" />
	</node>
	<node id="-776210" lat="69.8605361122" lon="20.8685916507">
		<tag k="name" v="Nyheim" />
		<tag k="place" v="farm" />
		<tag k="ssr:stedsnr" v="625518" />
	</node>
	<node id="-776209" lat="69.8519527831" lon="20.8077888647">
		<tag k="leisure" v="pitch" />
		<tag k="name" v="Rissbakken" />
		<tag k="ssr:stedsnr" v="625507" />
	</node>
	<node id="-776193" lat="69.7438638907" lon="21.1148583129">
		<tag k="alt_name:no" v="Snemyra" />
		<tag k="name" v="Snemyr - Lumijänkkä" />
		<tag k="name:fkv" v="Lumijänkkä" />
		<tag k="name:no" v="Snemyr" />
		<tag k="place" v="farm" />
		<tag k="ssr:stedsnr" v="624737" />
	</node>
</osm>
