<?xml version="1.0" encoding="UTF-8"?>
<osm generator="osmapis" version="0.6">
	<node id="-24435" lat="59.7517944473" lon="10.6363916588">
		<tag k="bridge" v="yes" />
		<tag k="layer" v="1" />
		<tag k="name" v="Kløfta" />
		<tag k="ssr:stedsnr" v="652111" />
	</node>
	<node id="-24434" lat="59.8350833291" lon="10.6769666591">
		<tag k="bridge" v="yes" />
		<tag k="layer" v="1" />
		<tag k="name" v="Berger stadion" />
		<tag k="ssr:stedsnr" v="652108" />
	</node>
	<node id="-24042" lat="59.8547000003" lon="10.680116666">
		<tag k="man_made" v="quay" />
		<tag k="name" v="Ursvik brygge" />
		<tag k="place" v="locality" />
		<tag k="ssr:stedsnr" v="344484" />
	</node>
	<node id="-24169" lat="59.8566527817" lon="10.6498277853">
		<tag k="man_made" v="quay" />
		<tag k="name" v="Søndre Flaskebekk brygge" />
		<tag k="place" v="locality" />
		<tag k="ssr:stedsnr" v="102521" />
	</node>
	<node id="-24422" lat="59.8185944448" lon="10.6177861037">
		<tag k="loc_name" v="Alværn brygge" />
		<tag k="man_made" v="quay" />
		<tag k="name" v="Alvern brygge" />
		<tag k="place" v="locality" />
		<tag k="ssr:stedsnr" v="645797" />
	</node>
	<node id="-24421" lat="59.846044446" lon="10.6464277842">
		<tag k="man_made" v="quay" />
		<tag k="name" v="Kavringstrand brygge" />
		<tag k="place" v="locality" />
		<tag k="ssr:stedsnr" v="645621" />
	</node>
	<node id="-24162" lat="59.7941333318" lon="10.6065333394">
		<tag k="man_made" v="quay" />
		<tag k="name" v="Fjellstrand brygge" />
		<tag k="place" v="locality" />
		<tag k="ssr:stedsnr" v="99158" />
	</node>
	<node id="-24004" lat="59.8606388923" lon="10.6529888947">
		<tag k="man_made" v="quay" />
		<tag k="name" v="Flaskebekk brygge" />
		<tag k="place" v="locality" />
		<tag k="ssr:stedsnr" v="284453" />
	</node>
	<node id="-24535" lat="59.8330277775" lon="10.696188894">
		<tag k="man_made" v="quay" />
		<tag k="name" v="Berger brygge" />
		<tag k="place" v="locality" />
		<tag k="ssr:stedsnr" v="830478" />
	</node>
	<node id="-24148" lat="59.7785527816" lon="10.5936722226">
		<tag k="man_made" v="breakwater" />
		<tag k="name" v="Granerudstøa" />
		<tag k="place" v="locality" />
		<tag k="ssr:stedsnr" v="65682" />
	</node>
	<node id="-24531" lat="59.7792527802" lon="10.7096166621">
		<tag k="man_made" v="quay" />
		<tag k="name" v="Blylaget brygge" />
		<tag k="old_name" v="Bløylaget brygge" />
		<tag k="place" v="locality" />
		<tag k="ssr:stedsnr" v="830394" />
	</node>
	<node id="-24269" lat="59.7810444407" lon="10.5949305547">
		<tag k="man_made" v="quay" />
		<tag k="name" v="Dalkenstrand" />
		<tag k="place" v="locality" />
		<tag k="ssr:stedsnr" v="421050" />
	</node>
	<node id="-24008" lat="59.8446055547" lon="10.6920499932">
		<tag k="man_made" v="quay" />
		<tag k="name" v="Hellvik brygge" />
		<tag k="place" v="locality" />
		<tag k="ssr:stedsnr" v="284510" />
	</node>
	<node id="-24007" lat="59.8514472227" lon="10.6489805597">
		<tag k="man_made" v="quay" />
		<tag k="name" v="Sjøstrand brygge" />
		<tag k="place" v="locality" />
		<tag k="ssr:stedsnr" v="284504" />
	</node>
	<node id="-24005" lat="59.8621305563" lon="10.6720444443">
		<tag k="man_made" v="quay" />
		<tag k="name" v="Oksval brygge" />
		<tag k="place" v="locality" />
		<tag k="ssr:stedsnr" v="284482" />
	</node>
	<node id="-24388" lat="59.7943444428" lon="10.6130888893">
		<tag k="bridge" v="yes" />
		<tag k="layer" v="1" />
		<tag k="name" v="Vangen" />
		<tag k="ssr:stedsnr" v="592125" />
	</node>
	<node id="-23993" lat="59.7893277804" lon="10.5998333296">
		<tag k="man_made" v="quay" />
		<tag k="name" v="Dalbo brygge" />
		<tag k="place" v="locality" />
		<tag k="ssr:stedsnr" v="282483" />
	</node>
	<node id="-24242" lat="59.8298777799" lon="10.6959944463">
		<tag k="man_made" v="quay" />
		<tag k="name" v="Fjordvangen brygge" />
		<tag k="place" v="locality" />
		<tag k="ssr:stedsnr" v="221838" />
	</node>
	<node id="-24233" lat="59.7344305533" lon="10.5852194409">
		<tag k="man_made" v="quay" />
		<tag k="name" v="Fagerstrand brygge" />
		<tag k="place" v="locality" />
		<tag k="ssr:stedsnr" v="221330" />
	</node>
	<node id="-24486" lat="59.7635750011" lon="10.5830055531">
		<tag k="man_made" v="quay" />
		<tag k="name" v="Nordre Spro brygge" />
		<tag k="place" v="locality" />
		<tag k="ssr:stedsnr" v="767353" />
	</node>
	<node id="-24352" lat="59.8091124627" lon="10.7035381735">
		<tag k="man_made" v="quay" />
		<tag k="name" v="Presteskjær brygge" />
		<tag k="place" v="locality" />
		<tag k="ssr:stedsnr" v="550672" />
	</node>
	<node id="-24471" lat="59.7703611087" lon="10.6915194438">
		<tag k="bridge" v="yes" />
		<tag k="layer" v="1" />
		<tag k="name" v="Sagstu" />
		<tag k="ssr:stedsnr" v="713132" />
	</node>
	<node id="-24342" lat="59.8199472196" lon="10.6991805582">
		<tag k="man_made" v="quay" />
		<tag k="name" v="Sørby brygge" />
		<tag k="place" v="locality" />
		<tag k="ssr:stedsnr" v="525841" />
	</node>
	<node id="-24082" lat="59.7868972197" lon="10.5973666708">
		<tag k="man_made" v="quay" />
		<tag k="name" v="Nordstrand brygge" />
		<tag k="place" v="locality" />
		<tag k="ssr:stedsnr" v="889503" />
	</node>
	<node id="-24461" lat="59.8361944453" lon="10.656327785">
		<tag k="bridge" v="yes" />
		<tag k="layer" v="1" />
		<tag k="name" v="Steinbruene" />
		<tag k="ssr:stedsnr" v="707653" />
	</node>
	<node id="-24204" lat="59.8701694435" lon="10.6549972214">
		<tag k="man_made" v="quay" />
		<tag k="name" v="Nesoddtangen brygge" />
		<tag k="place" v="locality" />
		<tag k="ssr:stedsnr" v="162459" />
	</node>
	<node id="-24586" lat="59.7761583351" lon="10.5920444385">
		<tag k="man_made" v="quay" />
		<tag k="name" v="Svestad brygge" />
		<tag k="place" v="locality" />
		<tag k="ssr:stedsnr" v="949459" />
	</node>
	<node id="-24195" lat="59.7543805534" lon="10.5828888829">
		<tag k="man_made" v="quay" />
		<tag k="name" v="Søndre Spro brygge" />
		<tag k="place" v="locality" />
		<tag k="ssr:stedsnr" v="160322" />
	</node>
	<node id="-24578" lat="59.7913888933" lon="10.7060666601">
		<tag k="alt_name" v="Bomannsvik brygge" />
		<tag k="man_made" v="quay" />
		<tag k="name" v="Bomansvik brygge" />
		<tag k="place" v="locality" />
		<tag k="ssr:stedsnr" v="949115" />
	</node>
</osm>
