<?xml version="1.0" encoding="UTF-8"?>
<osm generator="osmapis" version="0.6">
	<node id="-24191" lat="59.7641249958" lon="10.5946749962">
		<tag k="name" v="Sprodammen" />
		<tag k="natural" v="water" />
		<tag k="ssr:stedsnr" v="126622" />
	</node>
	<node id="-24442" lat="59.7795666633" lon="10.6231111081">
		<tag k="name" v="Høyåstjern" />
		<tag k="natural" v="water" />
		<tag k="ssr:stedsnr" v="647437" />
	</node>
	<node id="-24563" lat="59.8105944432" lon="10.6782500017">
		<tag k="alt_name" v="Røertjern" />
		<tag k="name" v="Røertjernet" />
		<tag k="natural" v="water" />
		<tag k="ssr:stedsnr" v="855717" />
	</node>
	<node id="-24049" lat="59.7685527795" lon="10.5946916645">
		<tag k="name" v="Nydammen" />
		<tag k="natural" v="water" />
		<tag k="ssr:stedsnr" v="342529" />
	</node>
	<node id="-24430" lat="59.762680553" lon="10.590172214">
		<tag k="name" v="Torghagendammen" />
		<tag k="natural" v="water" />
		<tag k="ssr:stedsnr" v="645334" />
	</node>
	<node id="-24555" lat="59.7944250031" lon="10.6206611153">
		<tag k="name" v="Nyborgdammene" />
		<tag k="natural" v="water" />
		<tag k="ssr:stedsnr" v="854624" />
	</node>
	<node id="-24553" lat="59.8174861082" lon="10.6950083342">
		<tag k="name" v="Sørbybekken" />
		<tag k="ssr:stedsnr" v="847343" />
		<tag k="waterway" v="stream" />
	</node>
	<node id="-24166" lat="59.7587250001" lon="10.5888416593">
		<tag k="alt_name" v="Bråtedammen" />
		<tag k="name" v="Bråtadammen" />
		<tag k="natural" v="water" />
		<tag k="ssr:stedsnr" v="66637" />
	</node>
	<node id="-24292" lat="59.8179194474" lon="10.6429666598">
		<tag k="alt_name" v="Totjernet" />
		<tag k="name" v="Totjern" />
		<tag k="natural" v="water" />
		<tag k="ssr:stedsnr" v="430727" />
	</node>
	<node id="-24486" lat="59.7760305531" lon="10.7018111041">
		<tag k="alt_name" v="Bløylagdammen" />
		<tag k="name" v="Blylagdammen" />
		<tag k="natural" v="water" />
		<tag k="ssr:stedsnr" v="724736" />
	</node>
	<node id="-24287" lat="59.850644443" lon="10.6653416653">
		<tag k="alt_name" v="Skoklefalltjern" />
		<tag k="name" v="Skoklefalltjernet" />
		<tag k="natural" v="water" />
		<tag k="ssr:stedsnr" v="429792" />
	</node>
	<node id="-24157" lat="59.7851348238" lon="10.6713041369">
		<tag k="alt_name" v="Kjenslitjern;Kjenslitjernet" />
		<tag k="name" v="Tjernslitjernet" />
		<tag k="natural" v="water" />
		<tag k="ssr:stedsnr" v="65662" />
	</node>
	<node id="-24155" lat="59.7887138918" lon="10.6354750038">
		<tag k="alt_name" v="Granerudtjern" />
		<tag k="name" v="Granerudtjernet" />
		<tag k="natural" v="water" />
		<tag k="ssr:stedsnr" v="65644" />
	</node>
	<node id="-24538" lat="59.7391777771" lon="10.5886999925">
		<tag k="name" v="Lilleruddammen" />
		<tag k="natural" v="water" />
		<tag k="ssr:stedsnr" v="828941" />
	</node>
	<node id="-24036" lat="59.7350944423" lon="10.603841664">
		<tag k="name" v="Agnorbekken" />
		<tag k="ssr:stedsnr" v="342933" />
		<tag k="waterway" v="stream" />
	</node>
	<node id="-24275" lat="59.7715058198" lon="10.6948121018">
		<tag k="name" v="Hasla" />
		<tag k="ssr:stedsnr" v="249244" />
		<tag k="waterway" v="river" />
	</node>
	<node id="-24528" lat="59.7614777794" lon="10.5900444384">
		<tag k="name" v="Temsen" />
		<tag k="natural" v="water" />
		<tag k="ssr:stedsnr" v="828351" />
	</node>
	<node id="-24397" lat="59.7832527816" lon="10.7038166713">
		<tag k="name" v="Krystalldammen" />
		<tag k="natural" v="water" />
		<tag k="ssr:stedsnr" v="586406" />
	</node>
	<node id="-24133" lat="59.7686138881" lon="10.5913277805">
		<tag k="name" v="Rogneskjærdammen" />
		<tag k="natural" v="water" />
		<tag k="ssr:stedsnr" v="39531" />
	</node>
	<node id="-24001" lat="59.7624722254" lon="10.5956277713">
		<tag k="name" v="Nydammen" />
		<tag k="natural" v="water" />
		<tag k="ssr:stedsnr" v="282326" />
	</node>
	<node id="-24382" lat="59.766580555" lon="10.5893083331">
		<tag k="name" v="Buksedammen" />
		<tag k="natural" v="water" />
		<tag k="ssr:stedsnr" v="585563" />
	</node>
	<node id="-24378" lat="59.8022749975" lon="10.6090999955">
		<tag k="name" v="Sørstrand" />
		<tag k="natural" v="beach" />
		<tag k="ssr:stedsnr" v="584132" />
	</node>
	<node id="-24241" lat="59.7995583318" lon="10.6225861063">
		<tag k="name" v="Persilengtjern" />
		<tag k="natural" v="water" />
		<tag k="ssr:stedsnr" v="221150" />
	</node>
	<node id="-24109" lat="59.788058335" lon="10.6106916664">
		<tag k="name" v="Dalatjern" />
		<tag k="natural" v="water" />
		<tag k="ssr:stedsnr" v="4664" />
	</node>
	<node id="-24230" lat="59.8114555594" lon="10.6576805495">
		<tag k="name" v="Ravnsborgtjernet" />
		<tag k="natural" v="water" />
		<tag k="ssr:stedsnr" v="187658" />
	</node>
	<node id="-24229" lat="59.8113277798" lon="10.6342638928">
		<tag k="alt_name" v="Blekslitjern" />
		<tag k="fixme" v="multiple name tags, choose one and add the other to alt_name" />
		<tag k="name" v="Blekslitjernet;Bråtetjernet" />
		<tag k="natural" v="water" />
		<tag k="ssr:stedsnr" v="187657" />
	</node>
	<node id="-24144" lat="59.8479277782" lon="10.6552138896">
		<tag k="name" v="Flauet" />
		<tag k="place" v="islet" />
		<tag k="ssr:stedsnr" v="41491" />
	</node>
	<node id="-24599" lat="59.7720752035" lon="10.5930829768">
		<tag k="name" v="Engsdammen" />
		<tag k="natural" v="water" />
		<tag k="ssr:stedsnr" v="949462" />
	</node>
	<node id="-24211" lat="59.8127388889" lon="10.6892555637">
		<tag k="name" v="Sørbydammen" />
		<tag k="natural" v="water" />
		<tag k="ssr:stedsnr" v="160814" />
	</node>
	<node id="-24080" lat="59.8214750017" lon="10.640327776">
		<tag k="name" v="Måsatjernet" />
		<tag k="natural" v="water" />
		<tag k="ssr:stedsnr" v="403820" />
	</node>
	<node id="-24591" lat="59.8046027753" lon="10.6234916578">
		<tag k="name" v="Holentjern" />
		<tag k="natural" v="water" />
		<tag k="ssr:stedsnr" v="949140" />
	</node>
	<node id="-24203" lat="59.8050944422" lon="10.6265805467">
		<tag k="name" v="Ellingstadtjern" />
		<tag k="natural" v="water" />
		<tag k="ssr:stedsnr" v="160104" />
	</node>
	<node id="-24583" lat="59.7994944466" lon="10.6703305619">
		<tag k="name" v="Grøndammen" />
		<tag k="natural" v="water" />
		<tag k="ssr:stedsnr" v="915687" />
	</node>
	<node id="-24070" lat="59.7667166701" lon="10.6131888867">
		<tag k="alt_name" v="Svestadtjern" />
		<tag k="name" v="Svestadtjernet" />
		<tag k="natural" v="water" />
		<tag k="ssr:stedsnr" v="369594" />
	</node>
	<node id="-24069" lat="59.7710250007" lon="10.5966972258">
		<tag k="name" v="Sevholdammen" />
		<tag k="natural" v="water" />
		<tag k="ssr:stedsnr" v="369573" />
	</node>
	<node id="-24068" lat="59.8457277804" lon="10.6563138946">
		<tag k="name" v="Flaskebekktjernet" />
		<tag k="natural" v="water" />
		<tag k="ssr:stedsnr" v="368806" />
	</node>
	<node id="-24451" lat="59.7466805511" lon="10.5880194444">
		<tag k="name" v="Gaupemyrdammen" />
		<tag k="natural" v="water" />
		<tag k="ssr:stedsnr" v="670958" />
	</node>
</osm>
