<?xml version="1.0" encoding="UTF-8"?>
<osm generator="osmapis" version="0.6">
	<node id="-323712" lat="59.2497854616" lon="7.54481777893">
		<tag k="name" v="Stavvassvegen" />
		<tag k="ssr:date" v="2019-05-31" />
		<tag k="ssr:gruppe" v="veg" />
		<tag k="ssr:hovedgruppe" v="infrastruktur" />
		<tag k="ssr:stedsnr" v="973990" />
		<tag k="ssr:type" v="adressenavn" />
	</node>
	<node id="-323711" lat="59.2828877378" lon="7.49914301894">
		<tag k="name" v="Veiåstøylen hyttegrend" />
		<tag k="ssr:date" v="2019-05-31" />
		<tag k="ssr:gruppe" v="veg" />
		<tag k="ssr:hovedgruppe" v="infrastruktur" />
		<tag k="ssr:stedsnr" v="973977" />
		<tag k="ssr:type" v="adressenavn" />
	</node>
	<node id="-323710" lat="59.290024601" lon="7.4915011074">
		<tag k="name" v="Brakamo hyttegrend" />
		<tag k="ssr:date" v="2019-05-31" />
		<tag k="ssr:gruppe" v="veg" />
		<tag k="ssr:hovedgruppe" v="infrastruktur" />
		<tag k="ssr:stedsnr" v="973975" />
		<tag k="ssr:type" v="adressenavn" />
	</node>
	<node id="-323709" lat="59.2853527731" lon="7.49715647795">
		<tag k="name" v="Bakkebu hyttegrend" />
		<tag k="ssr:date" v="2019-05-31" />
		<tag k="ssr:gruppe" v="veg" />
		<tag k="ssr:hovedgruppe" v="infrastruktur" />
		<tag k="ssr:stedsnr" v="973976" />
		<tag k="ssr:type" v="adressenavn" />
	</node>
	<node id="-323708" lat="59.3439769811" lon="7.59369712495">
		<tag k="name" v="Osen hyttegrend" />
		<tag k="ssr:date" v="2019-05-31" />
		<tag k="ssr:gruppe" v="veg" />
		<tag k="ssr:hovedgruppe" v="infrastruktur" />
		<tag k="ssr:stedsnr" v="973974" />
		<tag k="ssr:type" v="adressenavn" />
	</node>
	<node id="-323707" lat="59.3451486679" lon="7.57254716076">
		<tag k="name" v="Grytestøyl hyttegrend" />
		<tag k="ssr:date" v="2019-05-31" />
		<tag k="ssr:gruppe" v="veg" />
		<tag k="ssr:hovedgruppe" v="infrastruktur" />
		<tag k="ssr:stedsnr" v="973973" />
		<tag k="ssr:type" v="adressenavn" />
	</node>
	<node id="-323706" lat="59.3474945909" lon="7.55659444361">
		<tag k="name" v="Hola hyttegrend" />
		<tag k="ssr:date" v="2019-05-31" />
		<tag k="ssr:gruppe" v="veg" />
		<tag k="ssr:hovedgruppe" v="infrastruktur" />
		<tag k="ssr:stedsnr" v="973972" />
		<tag k="ssr:type" v="adressenavn" />
	</node>
	<node id="-323705" lat="59.3303010182" lon="7.49795078133">
		<tag k="name" v="Strondi hyttegrend" />
		<tag k="ssr:date" v="2019-05-31" />
		<tag k="ssr:gruppe" v="veg" />
		<tag k="ssr:hovedgruppe" v="infrastruktur" />
		<tag k="ssr:stedsnr" v="973970" />
		<tag k="ssr:type" v="adressenavn" />
	</node>
	<node id="-323704" lat="59.3308461421" lon="7.49798660668">
		<tag k="name" v="Fiti hyttegrend" />
		<tag k="ssr:date" v="2019-05-31" />
		<tag k="ssr:gruppe" v="veg" />
		<tag k="ssr:hovedgruppe" v="infrastruktur" />
		<tag k="ssr:stedsnr" v="973971" />
		<tag k="ssr:type" v="adressenavn" />
	</node>
	<node id="-323703" lat="59.328230967" lon="7.49773712631">
		<tag k="name" v="Lislebu hyttegrend" />
		<tag k="ssr:date" v="2019-05-31" />
		<tag k="ssr:gruppe" v="veg" />
		<tag k="ssr:hovedgruppe" v="infrastruktur" />
		<tag k="ssr:stedsnr" v="973968" />
		<tag k="ssr:type" v="adressenavn" />
	</node>
	<node id="-323702" lat="59.3236369047" lon="7.49789605101">
		<tag k="name" v="Nedre Ædan hyttegrend" />
		<tag k="ssr:date" v="2019-05-31" />
		<tag k="ssr:gruppe" v="veg" />
		<tag k="ssr:hovedgruppe" v="infrastruktur" />
		<tag k="ssr:stedsnr" v="973967" />
		<tag k="ssr:type" v="adressenavn" />
	</node>
	<node id="-323701" lat="59.3218621045" lon="7.49762151885">
		<tag k="name" v="Øvre Ædan hyttegrend" />
		<tag k="ssr:date" v="2019-05-31" />
		<tag k="ssr:gruppe" v="veg" />
		<tag k="ssr:hovedgruppe" v="infrastruktur" />
		<tag k="ssr:stedsnr" v="973966" />
		<tag k="ssr:type" v="adressenavn" />
	</node>
	<node id="-320338" lat="59.2119055536" lon="7.53339722568">
		<tag k="name" v="Valle kommune" />
		<tag k="ssr:date" v="2016-05-10" />
		<tag k="ssr:gruppe" v="administrativeIndelinger" />
		<tag k="ssr:hovedgruppe" v="offentligAdministrasjon" />
		<tag k="ssr:stedsnr" v="510932" />
		<tag k="ssr:type" v="kommune" />
	</node>
	<node id="-323732" lat="59.2370443769" lon="7.54618878626">
		<tag k="name" v="Svalestuen" />
		<tag k="ssr:date" v="2017-01-27" />
		<tag k="ssr:gruppe" v="veg" />
		<tag k="ssr:hovedgruppe" v="infrastruktur" />
		<tag k="ssr:stedsnr" v="974187" />
		<tag k="ssr:type" v="adressetilleggsnavn" />
	</node>
	<node id="-323731" lat="59.3478648748" lon="7.54042468848">
		<tag k="name" v="Reisstøyl hyttegrend" />
		<tag k="ssr:date" v="2019-05-31" />
		<tag k="ssr:gruppe" v="veg" />
		<tag k="ssr:hovedgruppe" v="infrastruktur" />
		<tag k="ssr:stedsnr" v="974155" />
		<tag k="ssr:type" v="adressenavn" />
	</node>
	<node id="-323730" lat="59.2399350631" lon="7.47950630926">
		<tag k="name" v="Bjørnevassvegen" />
		<tag k="ssr:date" v="2019-05-31" />
		<tag k="ssr:gruppe" v="veg" />
		<tag k="ssr:hovedgruppe" v="infrastruktur" />
		<tag k="ssr:stedsnr" v="974154" />
		<tag k="ssr:type" v="adressenavn" />
	</node>
	<node id="-323729" lat="59.0470663713" lon="7.55994986281">
		<tag k="name" v="Helle heieveg" />
		<tag k="ssr:date" v="2019-05-31" />
		<tag k="ssr:gruppe" v="veg" />
		<tag k="ssr:hovedgruppe" v="infrastruktur" />
		<tag k="ssr:stedsnr" v="974150" />
		<tag k="ssr:type" v="adressenavn" />
	</node>
	<node id="-323728" lat="59.056844448" lon="7.5719580475">
		<tag k="name" v="Straume heieveg" />
		<tag k="ssr:date" v="2019-05-31" />
		<tag k="ssr:gruppe" v="veg" />
		<tag k="ssr:hovedgruppe" v="infrastruktur" />
		<tag k="ssr:stedsnr" v="974148" />
		<tag k="ssr:type" v="adressenavn" />
	</node>
	<node id="-323727" lat="59.0655747476" lon="7.38249992467">
		<tag k="name" v="Greinevegen" />
		<tag k="ssr:date" v="2019-05-31" />
		<tag k="ssr:gruppe" v="veg" />
		<tag k="ssr:hovedgruppe" v="infrastruktur" />
		<tag k="ssr:stedsnr" v="974145" />
		<tag k="ssr:type" v="adressenavn" />
	</node>
	<node id="-323726" lat="59.0676997758" lon="7.38516456692">
		<tag k="name" v="Raudetjønnsvegen" />
		<tag k="ssr:date" v="2019-05-31" />
		<tag k="ssr:gruppe" v="veg" />
		<tag k="ssr:hovedgruppe" v="infrastruktur" />
		<tag k="ssr:stedsnr" v="974144" />
		<tag k="ssr:type" v="adressenavn" />
	</node>
	<node id="-323725" lat="59.07247593" lon="7.39603773172">
		<tag k="name" v="Evardalsvegen" />
		<tag k="ssr:date" v="2019-05-31" />
		<tag k="ssr:gruppe" v="veg" />
		<tag k="ssr:hovedgruppe" v="infrastruktur" />
		<tag k="ssr:stedsnr" v="974143" />
		<tag k="ssr:type" v="adressenavn" />
	</node>
	<node id="-323724" lat="59.0893975212" lon="7.4682487379">
		<tag k="name" v="Kvisleåsen" />
		<tag k="ssr:date" v="2019-05-31" />
		<tag k="ssr:gruppe" v="veg" />
		<tag k="ssr:hovedgruppe" v="infrastruktur" />
		<tag k="ssr:stedsnr" v="974136" />
		<tag k="ssr:type" v="adressenavn" />
	</node>
	<node id="-323723" lat="59.0867141136" lon="7.5468445477">
		<tag k="name" v="Nedre Rysstadmone" />
		<tag k="ssr:date" v="2019-05-31" />
		<tag k="ssr:gruppe" v="veg" />
		<tag k="ssr:hovedgruppe" v="infrastruktur" />
		<tag k="ssr:stedsnr" v="974033" />
		<tag k="ssr:type" v="adressenavn" />
	</node>
	<node id="-323721" lat="59.0829237163" lon="7.5395459021">
		<tag k="name" v="Baklivegen" />
		<tag k="ssr:date" v="2019-05-31" />
		<tag k="ssr:gruppe" v="veg" />
		<tag k="ssr:hovedgruppe" v="infrastruktur" />
		<tag k="ssr:stedsnr" v="974029" />
		<tag k="ssr:type" v="adressenavn" />
	</node>
	<node id="-323720" lat="59.1143427266" lon="7.5190466402">
		<tag k="name" v="Gjerdestøylvegen" />
		<tag k="ssr:date" v="2019-05-31" />
		<tag k="ssr:gruppe" v="veg" />
		<tag k="ssr:hovedgruppe" v="infrastruktur" />
		<tag k="ssr:stedsnr" v="974024" />
		<tag k="ssr:type" v="adressenavn" />
	</node>
	<node id="-323719" lat="59.1428639791" lon="7.49648773795">
		<tag k="name" v="Støyledalsvegen" />
		<tag k="ssr:date" v="2019-05-31" />
		<tag k="ssr:gruppe" v="veg" />
		<tag k="ssr:hovedgruppe" v="infrastruktur" />
		<tag k="ssr:stedsnr" v="974017" />
		<tag k="ssr:type" v="adressenavn" />
	</node>
	<node id="-323717" lat="59.1894265008" lon="7.53348042254">
		<tag k="name" v="Tveitelivegen" />
		<tag k="ssr:date" v="2019-05-31" />
		<tag k="ssr:gruppe" v="veg" />
		<tag k="ssr:hovedgruppe" v="infrastruktur" />
		<tag k="ssr:stedsnr" v="974014" />
		<tag k="ssr:type" v="adressenavn" />
	</node>
	<node id="-323716" lat="59.1946555351" lon="7.54067059813">
		<tag k="name" v="Stavedalsvegen" />
		<tag k="ssr:date" v="2019-05-31" />
		<tag k="ssr:gruppe" v="veg" />
		<tag k="ssr:hovedgruppe" v="infrastruktur" />
		<tag k="ssr:stedsnr" v="974013" />
		<tag k="ssr:type" v="adressenavn" />
	</node>
	<node id="-323715" lat="59.1921954544" lon="7.49886713809">
		<tag k="name" v="Hylesdalen heieveg" />
		<tag k="ssr:date" v="2019-05-31" />
		<tag k="ssr:gruppe" v="veg" />
		<tag k="ssr:hovedgruppe" v="infrastruktur" />
		<tag k="ssr:stedsnr" v="974011" />
		<tag k="ssr:type" v="adressenavn" />
	</node>
	<node id="-323714" lat="59.2181995801" lon="7.55165295217">
		<tag k="name" v="Fjøddevegen" />
		<tag k="ssr:date" v="2019-05-31" />
		<tag k="ssr:gruppe" v="veg" />
		<tag k="ssr:hovedgruppe" v="infrastruktur" />
		<tag k="ssr:stedsnr" v="974005" />
		<tag k="ssr:type" v="adressenavn" />
	</node>
	<node id="-323713" lat="59.2316976042" lon="7.56066764205">
		<tag k="name" v="Tveitebø heieveg" />
		<tag k="ssr:date" v="2019-05-31" />
		<tag k="ssr:gruppe" v="veg" />
		<tag k="ssr:hovedgruppe" v="infrastruktur" />
		<tag k="ssr:stedsnr" v="973991" />
		<tag k="ssr:type" v="adressenavn" />
	</node>
</osm>
