<?xml version="1.0" encoding="UTF-8"?>
<osm generator="osmapis" version="0.6">
	<node id="-764027" lat="70.1591388895" lon="18.9840833297">
		<tag k="name" v="Bjørn" />
		<tag k="old_name" v="Bjørnen" />
		<tag k="ssr:date" v="2016-05-10" />
		<tag k="ssr:gruppe" v="navigasjon" />
		<tag k="ssr:hovedgruppe" v="infrastruktur" />
		<tag k="ssr:stedsnr" v="201551" />
		<tag k="ssr:type" v="fyrlykt" />
	</node>
	<node id="-763156" lat="70.0993587916" lon="19.0369725694">
		<tag k="name" v="Hersøya" />
		<tag k="ssr:date" v="2019-05-30" />
		<tag k="ssr:gruppe" v="veg" />
		<tag k="ssr:hovedgruppe" v="infrastruktur" />
		<tag k="ssr:stedsnr" v="1010603" />
		<tag k="ssr:type" v="adressenavn" />
	</node>
	<node id="-764022" lat="69.9043527787" lon="19.477047212">
		<tag k="name" v="Gamneset" />
		<tag k="ssr:date" v="2016-05-10" />
		<tag k="ssr:gruppe" v="navigasjon" />
		<tag k="ssr:hovedgruppe" v="infrastruktur" />
		<tag k="ssr:stedsnr" v="201499" />
		<tag k="ssr:type" v="fyrlykt" />
	</node>
	<node id="-763155" lat="70.2261696189" lon="19.7411902658">
		<tag k="name" v="Burøya" />
		<tag k="ssr:date" v="2019-05-30" />
		<tag k="ssr:gruppe" v="veg" />
		<tag k="ssr:hovedgruppe" v="infrastruktur" />
		<tag k="ssr:stedsnr" v="1010600" />
		<tag k="ssr:type" v="adressenavn" />
	</node>
	<node id="-763247" lat="70.0244611131" lon="18.8398722187">
		<tag k="name" v="Straumsnes" />
		<tag k="ssr:date" v="2016-05-10" />
		<tag k="ssr:gruppe" v="navigasjon" />
		<tag k="ssr:hovedgruppe" v="infrastruktur" />
		<tag k="ssr:stedsnr" v="19665" />
		<tag k="ssr:type" v="fyrlykt" />
	</node>
	<node id="-763142" lat="70.1338542656" lon="20.0022339631">
		<tag k="name" v="Lille-Skorøya" />
		<tag k="ssr:date" v="2019-12-05" />
		<tag k="ssr:gruppe" v="veg" />
		<tag k="ssr:hovedgruppe" v="infrastruktur" />
		<tag k="ssr:stedsnr" v="1073757" />
		<tag k="ssr:type" v="adressenavn" />
	</node>
	<node id="-765930" lat="70.1898166642" lon="18.8990722049">
		<tag k="name" v="Ormholmen" />
		<tag k="ssr:date" v="2016-05-11" />
		<tag k="ssr:gruppe" v="navigasjon" />
		<tag k="ssr:hovedgruppe" v="infrastruktur" />
		<tag k="ssr:stedsnr" v="808338" />
		<tag k="ssr:type" v="fyrlykt" />
	</node>
	<node id="-763241" lat="70.2455083313" lon="19.4999944428">
		<tag k="name" v="Torsvåg" />
		<tag k="old_name" v="Torsvåg fyr" />
		<tag k="ssr:date" v="2016-05-10" />
		<tag k="ssr:gruppe" v="navigasjon" />
		<tag k="ssr:hovedgruppe" v="infrastruktur" />
		<tag k="ssr:stedsnr" v="19616" />
		<tag k="ssr:type" v="fyrlykt" />
	</node>
	<node id="-763238" lat="70.238024996" lon="19.5027944416">
		<tag k="name" v="Skarvbarden" />
		<tag k="ssr:date" v="2016-05-10" />
		<tag k="ssr:gruppe" v="navigasjon" />
		<tag k="ssr:hovedgruppe" v="infrastruktur" />
		<tag k="ssr:stedsnr" v="19604" />
		<tag k="ssr:type" v="fyrlykt" />
	</node>
	<node id="-762637" lat="70.1443749962" lon="20.0420888823">
		<tag k="name" v="Store Skorøya" />
		<tag k="ssr:date" v="2016-05-10" />
		<tag k="ssr:gruppe" v="navigasjon" />
		<tag k="ssr:hovedgruppe" v="infrastruktur" />
		<tag k="ssr:stedsnr" v="322881" />
		<tag k="ssr:type" v="fyrlykt" />
	</node>
	<node id="-764888" lat="70.1035138883" lon="19.1111972061">
		<tag k="name" v="Langholmbåen" />
		<tag k="ssr:date" v="2016-05-10" />
		<tag k="ssr:gruppe" v="navigasjon" />
		<tag k="ssr:hovedgruppe" v="infrastruktur" />
		<tag k="ssr:stedsnr" v="564531" />
		<tag k="ssr:type" v="fyrlykt" />
	</node>
	<node id="-763172" lat="70.1431074467" lon="19.9341291619">
		<tag k="name" v="Slettnesstien" />
		<tag k="ssr:date" v="2019-05-30" />
		<tag k="ssr:gruppe" v="veg" />
		<tag k="ssr:hovedgruppe" v="infrastruktur" />
		<tag k="ssr:stedsnr" v="1010838" />
		<tag k="ssr:type" v="adressenavn" />
	</node>
	<node id="-765396" lat="70.078519442" lon="19.0466694326">
		<tag k="name" v="Dyrsnes" />
		<tag k="ssr:date" v="2016-05-11" />
		<tag k="ssr:gruppe" v="navigasjon" />
		<tag k="ssr:hovedgruppe" v="infrastruktur" />
		<tag k="ssr:stedsnr" v="686514" />
		<tag k="ssr:type" v="fyrlykt" />
	</node>
	<node id="-765138" lat="70.2922750017" lon="19.7767027629">
		<tag k="name" v="Store Grimsholmen" />
		<tag k="ssr:date" v="2016-05-10" />
		<tag k="ssr:gruppe" v="navigasjon" />
		<tag k="ssr:hovedgruppe" v="infrastruktur" />
		<tag k="ssr:stedsnr" v="625357" />
		<tag k="ssr:type" v="fyrlykt" />
	</node>
	<node id="-765393" lat="70.3167500038" lon="20.1534749769">
		<tag k="name" v="Fugløykalven" />
		<tag k="old_name" v="Fugløykalven fyr" />
		<tag k="ssr:date" v="2016-05-11" />
		<tag k="ssr:gruppe" v="navigasjon" />
		<tag k="ssr:hovedgruppe" v="infrastruktur" />
		<tag k="ssr:stedsnr" v="686343" />
		<tag k="ssr:type" v="fyrlykt" />
	</node>
	<node id="-763726" lat="70.2624944446" lon="19.7635472106">
		<tag k="name" v="Burøynakken" />
		<tag k="ssr:date" v="2016-05-10" />
		<tag k="ssr:gruppe" v="navigasjon" />
		<tag k="ssr:hovedgruppe" v="infrastruktur" />
		<tag k="ssr:stedsnr" v="140384" />
		<tag k="ssr:type" v="fyrlykt" />
	</node>
	<node id="-764365" lat="69.9758669331" lon="19.6717113921">
		<tag k="name" v="Langsundet" />
		<tag k="old_name" v="Skattøra" />
		<tag k="ssr:date" v="2018-05-15" />
		<tag k="ssr:gruppe" v="navigasjon" />
		<tag k="ssr:hovedgruppe" v="infrastruktur" />
		<tag k="ssr:stedsnr" v="268274" />
		<tag k="ssr:type" v="fyrlykt" />
	</node>
	<node id="-766282" lat="70.1549500039" lon="19.9149361027">
		<tag k="name" v="Svartebergan" />
		<tag k="ssr:date" v="2016-05-11" />
		<tag k="ssr:gruppe" v="navigasjon" />
		<tag k="ssr:hovedgruppe" v="infrastruktur" />
		<tag k="ssr:stedsnr" v="878045" />
		<tag k="ssr:type" v="fyrlykt" />
	</node>
	<node id="-762949" lat="70.223441664" lon="19.7396583198">
		<tag k="name" v="Burøysundet" />
		<tag k="ssr:date" v="2016-05-10" />
		<tag k="ssr:gruppe" v="navigasjon" />
		<tag k="ssr:hovedgruppe" v="infrastruktur" />
		<tag k="ssr:stedsnr" v="383878" />
		<tag k="ssr:type" v="fyrlykt" />
	</node>
	<node id="-766660" lat="68.4849327361" lon="16.2297866207">
		<tag k="fixme" v="multiple name tags, choose one and add the other to alt_name" />
		<tag k="name" v="Nord-Noreg;Nord-Norge" />
		<tag k="ssr:date" v="2017-05-18" />
		<tag k="ssr:gruppe" v="administrativeIndelinger" />
		<tag k="ssr:hovedgruppe" v="offentligAdministrasjon" />
		<tag k="ssr:stedsnr" v="976106" />
		<tag k="ssr:type" v="annenAdministrativInndeling" />
	</node>
	<node id="-764481" lat="70.2511499989" lon="19.5231444284">
		<tag k="name" v="Nakkesletta" />
		<tag k="ssr:date" v="2016-05-10" />
		<tag k="ssr:gruppe" v="navigasjon" />
		<tag k="ssr:hovedgruppe" v="infrastruktur" />
		<tag k="ssr:stedsnr" v="444381" />
		<tag k="ssr:type" v="fyrlykt" />
	</node>
	<node id="-764989" lat="70.0308777791" lon="19.3090388874">
		<tag k="name" v="Dåfjorden" />
		<tag k="ssr:date" v="2016-05-10" />
		<tag k="ssr:gruppe" v="navigasjon" />
		<tag k="ssr:hovedgruppe" v="infrastruktur" />
		<tag k="ssr:stedsnr" v="565995" />
		<tag k="ssr:type" v="fyrlykt" />
	</node>
	<node id="-763146" lat="69.8961602835" lon="19.1282190861">
		<tag k="name" v="Ringvassbu" />
		<tag k="ssr:date" v="2019-12-05" />
		<tag k="ssr:gruppe" v="veg" />
		<tag k="ssr:hovedgruppe" v="infrastruktur" />
		<tag k="ssr:stedsnr" v="1073761" />
		<tag k="ssr:type" v="adressenavn" />
	</node>
	<node id="-766262" lat="70.0968138908" lon="19.6845999869">
		<tag k="name" v="Vannøyklubben" />
		<tag k="old_name" v="Vannaklubben" />
		<tag k="ssr:date" v="2016-05-11" />
		<tag k="ssr:gruppe" v="navigasjon" />
		<tag k="ssr:hovedgruppe" v="infrastruktur" />
		<tag k="ssr:stedsnr" v="869788" />
		<tag k="ssr:type" v="fyrlykt" />
	</node>
	<node id="-764596" lat="69.9618444463" lon="19.6181083155">
		<tag k="name" v="Karlsøy kommune" />
		<tag k="ssr:date" v="2016-05-10" />
		<tag k="ssr:gruppe" v="administrativeIndelinger" />
		<tag k="ssr:hovedgruppe" v="offentligAdministrasjon" />
		<tag k="ssr:stedsnr" v="451543" />
		<tag k="ssr:type" v="kommune" />
	</node>
	<node id="-764979" lat="70.1281749998" lon="19.9975027707">
		<tag k="name" v="Valaneset" />
		<tag k="ssr:date" v="2016-05-10" />
		<tag k="ssr:gruppe" v="navigasjon" />
		<tag k="ssr:hovedgruppe" v="infrastruktur" />
		<tag k="ssr:stedsnr" v="565879" />
		<tag k="ssr:type" v="fyrlykt" />
	</node>
	<node id="-766511" lat="70.0359694488" lon="19.5401333321">
		<tag k="name" v="Brennes" />
		<tag k="ssr:date" v="2016-05-11" />
		<tag k="ssr:gruppe" v="navigasjon" />
		<tag k="ssr:hovedgruppe" v="infrastruktur" />
		<tag k="ssr:stedsnr" v="930990" />
		<tag k="ssr:type" v="fyrlykt" />
	</node>
	<node id="-763178" lat="70.0278250293" lon="18.9729657217">
		<tag k="name" v="Futjordstranda" />
		<tag k="ssr:date" v="2019-05-30" />
		<tag k="ssr:gruppe" v="veg" />
		<tag k="ssr:hovedgruppe" v="infrastruktur" />
		<tag k="ssr:stedsnr" v="1010887" />
		<tag k="ssr:type" v="adressenavn" />
	</node>
	<node id="-763177" lat="69.9755409809" lon="19.1123409368">
		<tag k="name" v="Lassenakken" />
		<tag k="ssr:date" v="2019-05-30" />
		<tag k="ssr:gruppe" v="veg" />
		<tag k="ssr:hovedgruppe" v="infrastruktur" />
		<tag k="ssr:stedsnr" v="1010883" />
		<tag k="ssr:type" v="adressenavn" />
	</node>
	<node id="-763176" lat="70.0090414937" lon="19.0499466445">
		<tag k="name" v="Tisnesstranda" />
		<tag k="ssr:date" v="2019-05-30" />
		<tag k="ssr:gruppe" v="veg" />
		<tag k="ssr:hovedgruppe" v="infrastruktur" />
		<tag k="ssr:stedsnr" v="1010881" />
		<tag k="ssr:type" v="adressenavn" />
	</node>
	<node id="-763175" lat="70.0898286827" lon="18.8635191466">
		<tag k="name" v="Indre Andamsfjorden" />
		<tag k="ssr:date" v="2019-05-30" />
		<tag k="ssr:gruppe" v="veg" />
		<tag k="ssr:hovedgruppe" v="infrastruktur" />
		<tag k="ssr:stedsnr" v="1010872" />
		<tag k="ssr:type" v="adressenavn" />
	</node>
	<node id="-763174" lat="70.0771879568" lon="19.152095137">
		<tag k="name" v="Fagerfjorden" />
		<tag k="ssr:date" v="2019-05-30" />
		<tag k="ssr:gruppe" v="veg" />
		<tag k="ssr:hovedgruppe" v="infrastruktur" />
		<tag k="ssr:stedsnr" v="1010869" />
		<tag k="ssr:type" v="adressenavn" />
	</node>
	<node id="-763173" lat="70.0908430299" lon="18.9289996651">
		<tag k="name" v="Toftefjorden" />
		<tag k="ssr:date" v="2019-05-30" />
		<tag k="ssr:gruppe" v="veg" />
		<tag k="ssr:hovedgruppe" v="infrastruktur" />
		<tag k="ssr:stedsnr" v="1010862" />
		<tag k="ssr:type" v="adressenavn" />
	</node>
	<node id="-765988" lat="69.8544333367" lon="19.7195083289">
		<tag k="name" v="Grøtsund" />
		<tag k="ssr:date" v="2016-05-11" />
		<tag k="ssr:gruppe" v="navigasjon" />
		<tag k="ssr:hovedgruppe" v="infrastruktur" />
		<tag k="ssr:stedsnr" v="808689" />
		<tag k="ssr:type" v="fyrlykt" />
	</node>
	<node id="-763171" lat="69.9944116342" lon="19.5392129381">
		<tag k="name" v="Brennesstien" />
		<tag k="ssr:date" v="2019-05-30" />
		<tag k="ssr:gruppe" v="veg" />
		<tag k="ssr:hovedgruppe" v="infrastruktur" />
		<tag k="ssr:stedsnr" v="1010832" />
		<tag k="ssr:type" v="adressenavn" />
	</node>
	<node id="-763170" lat="70.0335879408" lon="19.4103664354">
		<tag k="name" v="Gamvikstien" />
		<tag k="ssr:date" v="2019-05-30" />
		<tag k="ssr:gruppe" v="veg" />
		<tag k="ssr:hovedgruppe" v="infrastruktur" />
		<tag k="ssr:stedsnr" v="1010830" />
		<tag k="ssr:type" v="adressenavn" />
	</node>
	<node id="-763169" lat="69.9192166219" lon="19.7802804377">
		<tag k="name" v="Havneveien" />
		<tag k="ssr:date" v="2019-05-30" />
		<tag k="ssr:gruppe" v="veg" />
		<tag k="ssr:hovedgruppe" v="infrastruktur" />
		<tag k="ssr:stedsnr" v="1010828" />
		<tag k="ssr:type" v="adressenavn" />
	</node>
	<node id="-763168" lat="69.9546739108" lon="19.6681663685">
		<tag k="name" v="Kaiveien" />
		<tag k="ssr:date" v="2019-05-30" />
		<tag k="ssr:gruppe" v="veg" />
		<tag k="ssr:hovedgruppe" v="infrastruktur" />
		<tag k="ssr:stedsnr" v="1010823" />
		<tag k="ssr:type" v="adressenavn" />
	</node>
	<node id="-763167" lat="70.0090417316" lon="19.9216393033">
		<tag k="name" v="Kirkegårdsveien" />
		<tag k="ssr:date" v="2019-05-30" />
		<tag k="ssr:gruppe" v="veg" />
		<tag k="ssr:hovedgruppe" v="infrastruktur" />
		<tag k="ssr:stedsnr" v="1010816" />
		<tag k="ssr:type" v="adressenavn" />
	</node>
	<node id="-763166" lat="69.9527269105" lon="19.6709395272">
		<tag k="name" v="Idrettsveien" />
		<tag k="ssr:date" v="2019-05-30" />
		<tag k="ssr:gruppe" v="veg" />
		<tag k="ssr:hovedgruppe" v="infrastruktur" />
		<tag k="ssr:stedsnr" v="1010771" />
		<tag k="ssr:type" v="adressenavn" />
	</node>
	<node id="-763165" lat="70.1512471836" lon="20.0229092269">
		<tag k="name" v="Store Skorøya" />
		<tag k="ssr:date" v="2019-05-30" />
		<tag k="ssr:gruppe" v="veg" />
		<tag k="ssr:hovedgruppe" v="infrastruktur" />
		<tag k="ssr:stedsnr" v="1010635" />
		<tag k="ssr:type" v="adressenavn" />
	</node>
	<node id="-763164" lat="70.1551703838" lon="20.1751939108">
		<tag k="name" v="Spenna" />
		<tag k="ssr:date" v="2019-05-30" />
		<tag k="ssr:gruppe" v="veg" />
		<tag k="ssr:hovedgruppe" v="infrastruktur" />
		<tag k="ssr:stedsnr" v="1010632" />
		<tag k="ssr:type" v="adressenavn" />
	</node>
	<node id="-763163" lat="70.1181877677" lon="19.3539504557">
		<tag k="name" v="Helgøya" />
		<tag k="ssr:date" v="2019-05-30" />
		<tag k="ssr:gruppe" v="veg" />
		<tag k="ssr:hovedgruppe" v="infrastruktur" />
		<tag k="ssr:stedsnr" v="1010629" />
		<tag k="ssr:type" v="adressenavn" />
	</node>
	<node id="-763162" lat="70.1575109355" lon="19.7748594685">
		<tag k="name" v="Skipsfjorden" />
		<tag k="ssr:date" v="2019-05-30" />
		<tag k="ssr:gruppe" v="veg" />
		<tag k="ssr:hovedgruppe" v="infrastruktur" />
		<tag k="ssr:stedsnr" v="1010626" />
		<tag k="ssr:type" v="adressenavn" />
	</node>
	<node id="-763161" lat="70.2560689448" lon="19.1915365736">
		<tag k="name" v="Nordkvaløya" />
		<tag k="ssr:date" v="2019-05-30" />
		<tag k="ssr:gruppe" v="veg" />
		<tag k="ssr:hovedgruppe" v="infrastruktur" />
		<tag k="ssr:stedsnr" v="1010623" />
		<tag k="ssr:type" v="adressenavn" />
	</node>
	<node id="-763160" lat="70.1476840461" lon="18.7812178599">
		<tag k="name" v="Grøtøya" />
		<tag k="ssr:date" v="2019-05-30" />
		<tag k="ssr:gruppe" v="veg" />
		<tag k="ssr:hovedgruppe" v="infrastruktur" />
		<tag k="ssr:stedsnr" v="1010620" />
		<tag k="ssr:type" v="adressenavn" />
	</node>
	<node id="-763159" lat="70.2660223223" lon="20.2657930457">
		<tag k="name" v="Nord-Fugløya" />
		<tag k="ssr:date" v="2019-05-30" />
		<tag k="ssr:gruppe" v="veg" />
		<tag k="ssr:hovedgruppe" v="infrastruktur" />
		<tag k="ssr:stedsnr" v="1010617" />
		<tag k="ssr:type" v="adressenavn" />
	</node>
	<node id="-763158" lat="70.3165660656" lon="20.1537193659">
		<tag k="name" v="Fugløykalven" />
		<tag k="ssr:date" v="2019-05-30" />
		<tag k="ssr:gruppe" v="veg" />
		<tag k="ssr:hovedgruppe" v="infrastruktur" />
		<tag k="ssr:stedsnr" v="1010611" />
		<tag k="ssr:type" v="adressenavn" />
	</node>
	<node id="-763157" lat="70.0580315302" lon="19.373898406">
		<tag k="name" v="Dåvøya" />
		<tag k="ssr:date" v="2019-05-30" />
		<tag k="ssr:gruppe" v="veg" />
		<tag k="ssr:hovedgruppe" v="infrastruktur" />
		<tag k="ssr:stedsnr" v="1010607" />
		<tag k="ssr:type" v="adressenavn" />
	</node>
	<node id="-765460" lat="70.1324833357" lon="18.6474277675">
		<tag k="name" v="Eggeløysa" />
		<tag k="old_name" v="Eggløysa" />
		<tag k="ssr:date" v="2016-05-11" />
		<tag k="ssr:gruppe" v="navigasjon" />
		<tag k="ssr:hovedgruppe" v="infrastruktur" />
		<tag k="ssr:stedsnr" v="687593" />
		<tag k="ssr:type" v="fyrlykt" />
	</node>
	<node id="-764691" lat="70.1523916678" lon="20.1760583203">
		<tag k="name" v="Valholmen" />
		<tag k="ssr:date" v="2016-05-10" />
		<tag k="ssr:gruppe" v="navigasjon" />
		<tag k="ssr:hovedgruppe" v="infrastruktur" />
		<tag k="ssr:stedsnr" v="504943" />
		<tag k="ssr:type" v="fyrlykt" />
	</node>
	<node id="-763154" lat="70.1690220916" lon="19.0108554377">
		<tag k="name" v="Lille Måsværet" />
		<tag k="ssr:date" v="2019-05-30" />
		<tag k="ssr:gruppe" v="veg" />
		<tag k="ssr:hovedgruppe" v="infrastruktur" />
		<tag k="ssr:stedsnr" v="1010590" />
		<tag k="ssr:type" v="adressenavn" />
	</node>
	<node id="-764942" lat="70.13400833" lon="18.7936722282">
		<tag k="name" v="Andamsmulen" />
		<tag k="ssr:date" v="2016-05-10" />
		<tag k="ssr:gruppe" v="navigasjon" />
		<tag k="ssr:hovedgruppe" v="infrastruktur" />
		<tag k="ssr:stedsnr" v="565573" />
		<tag k="ssr:type" v="fyrlykt" />
	</node>
	<node id="-764045" lat="70.0657305564" lon="19.0244972042">
		<tag k="name" v="Finnesklubben" />
		<tag k="old_name" v="Finnes" />
		<tag k="ssr:date" v="2016-05-10" />
		<tag k="ssr:gruppe" v="navigasjon" />
		<tag k="ssr:hovedgruppe" v="infrastruktur" />
		<tag k="ssr:stedsnr" v="201723" />
		<tag k="ssr:type" v="fyrlykt" />
	</node>
	<node id="-763274" lat="70.10926389" lon="19.3711027606">
		<tag k="name" v="Helgøya" />
		<tag k="ssr:date" v="2016-05-10" />
		<tag k="ssr:gruppe" v="navigasjon" />
		<tag k="ssr:hovedgruppe" v="infrastruktur" />
		<tag k="ssr:stedsnr" v="19799" />
		<tag k="ssr:type" v="fyrlykt" />
	</node>
	<node id="-763145" lat="69.9919488528" lon="19.0665900064">
		<tag k="name" v="Pernilsajorda" />
		<tag k="ssr:date" v="2019-12-05" />
		<tag k="ssr:gruppe" v="veg" />
		<tag k="ssr:hovedgruppe" v="infrastruktur" />
		<tag k="ssr:stedsnr" v="1073760" />
		<tag k="ssr:type" v="adressenavn" />
	</node>
	<node id="-763144" lat="70.0193774748" lon="19.0746053611">
		<tag k="name" v="Skogsnesdalsveien" />
		<tag k="ssr:date" v="2019-12-05" />
		<tag k="ssr:gruppe" v="veg" />
		<tag k="ssr:hovedgruppe" v="infrastruktur" />
		<tag k="ssr:stedsnr" v="1073759" />
		<tag k="ssr:type" v="adressenavn" />
	</node>
	<node id="-763143" lat="69.9626773723" lon="19.1663166727">
		<tag k="name" v="Bruhaugveien" />
		<tag k="ssr:date" v="2019-12-05" />
		<tag k="ssr:gruppe" v="veg" />
		<tag k="ssr:hovedgruppe" v="infrastruktur" />
		<tag k="ssr:stedsnr" v="1073758" />
		<tag k="ssr:type" v="adressenavn" />
	</node>
	<node id="-763526" lat="69.9953194491" lon="19.9642027644">
		<tag k="name" v="Karlsøya" />
		<tag k="ssr:date" v="2016-05-10" />
		<tag k="ssr:gruppe" v="navigasjon" />
		<tag k="ssr:hovedgruppe" v="infrastruktur" />
		<tag k="ssr:stedsnr" v="80649" />
		<tag k="ssr:type" v="fyrlykt" />
	</node>
	<node id="-763141" lat="69.9677510376" lon="19.1482217926">
		<tag k="name" v="Lavollveien" />
		<tag k="ssr:date" v="2019-12-05" />
		<tag k="ssr:gruppe" v="veg" />
		<tag k="ssr:hovedgruppe" v="infrastruktur" />
		<tag k="ssr:stedsnr" v="1073756" />
		<tag k="ssr:type" v="adressenavn" />
	</node>
	<node id="-762859" lat="70.0987111114" lon="20.1229361023">
		<tag k="name" v="Fakken" />
		<tag k="ssr:date" v="2016-05-10" />
		<tag k="ssr:gruppe" v="navigasjon" />
		<tag k="ssr:hovedgruppe" v="infrastruktur" />
		<tag k="ssr:stedsnr" v="361120" />
		<tag k="ssr:type" v="lanterne" />
	</node>
</osm>
