<?xml version="1.0" encoding="UTF-8"?>
<osm generator="osmapis" version="0.6">
	<node id="-265077" lat="60.2628916703" lon="11.2397222185">
		<tag k="fixme" v="consider boundary=protected_area and relevant protect_class if not nature reserve" />
		<tag k="leisure" v="nature_reserve" />
		<tag k="name" v="Svangerud naturminne" />
		<tag k="ssr:stedsnr" v="908982" />
	</node>
	<node id="-266108" lat="60.3177000032" lon="11.2511000063">
		<tag k="fixme" v="consider boundary=protected_area and relevant protect_class if not nature reserve" />
		<tag k="leisure" v="nature_reserve" />
		<tag k="name" v="Eidsvoll prestegård naturreservat" />
		<tag k="ssr:stedsnr" v="969434" />
	</node>
	<node id="-265881" lat="60.5421444481" lon="11.1737555498">
		<tag k="fixme" v="consider boundary=protected_area and relevant protect_class if not nature reserve" />
		<tag k="leisure" v="nature_reserve" />
		<tag k="name" v="Stubberud naturreservat" />
		<tag k="ssr:stedsnr" v="647034" />
	</node>
	<node id="-264952" lat="60.3314972268" lon="11.2716333257">
		<tag k="fixme" v="consider boundary=protected_area and relevant protect_class if not nature reserve" />
		<tag k="leisure" v="nature_reserve" />
		<tag k="name" v="Vilberg naturminne" />
		<tag k="ssr:stedsnr" v="726422" />
	</node>
	<node id="-265495" lat="60.2871250016" lon="11.2971416618">
		<tag k="fixme" v="consider boundary=protected_area and relevant protect_class if not nature reserve" />
		<tag k="leisure" v="nature_reserve" />
		<tag k="name" v="Frilset naturreservat" />
		<tag k="ssr:stedsnr" v="303490" />
	</node>
	<node id="-266134" lat="60.4746884466" lon="11.1702820582">
		<tag k="fixme" v="consider boundary=protected_area and relevant protect_class if not nature reserve" />
		<tag k="leisure" v="nature_reserve" />
		<tag k="name" v="Svenstadlia naturreservat" />
		<tag k="ssr:stedsnr" v="1074743" />
	</node>
	<node id="-265813" lat="60.2472833349" lon="11.2036527717">
		<tag k="fixme" v="consider boundary=protected_area and relevant protect_class if not nature reserve" />
		<tag k="leisure" v="nature_reserve" />
		<tag k="name" v="Andelven, Nessa og Rissa naturreservat" />
		<tag k="ssr:stedsnr" v="600200" />
	</node>
	<node id="-264468" lat="60.3277083307" lon="11.3844111095">
		<tag k="fixme" v="consider boundary=protected_area and relevant protect_class if not nature reserve" />
		<tag k="leisure" v="nature_reserve" />
		<tag k="name" v="Hatteråsen naturreservat" />
		<tag k="ssr:stedsnr" v="241472" />
	</node>
	<node id="-265713" lat="60.2854472242" lon="11.2944527723">
		<tag k="fixme" v="consider boundary=protected_area and relevant protect_class if not nature reserve" />
		<tag k="leisure" v="nature_reserve" />
		<tag k="name" v="Vorma naturreservat" />
		<tag k="ssr:stedsnr" v="541010" />
	</node>
	<node id="-265807" lat="60.4342277823" lon="11.1956194367">
		<tag k="fixme" v="consider boundary=protected_area and relevant protect_class if not nature reserve" />
		<tag k="leisure" v="nature_reserve" />
		<tag k="name" v="Leirfalla naturreservat" />
		<tag k="ssr:stedsnr" v="588695" />
	</node>
	<node id="-265486" lat="60.2541777773" lon="11.126761116">
		<tag k="fixme" v="consider boundary=protected_area and relevant protect_class if not nature reserve" />
		<tag k="leisure" v="nature_reserve" />
		<tag k="name" v="Aurmoen landskapsvernområde" />
		<tag k="ssr:stedsnr" v="300646" />
	</node>
	<node id="-264746" lat="60.3280944432" lon="11.3229555636">
		<tag k="fixme" v="consider boundary=protected_area and relevant protect_class if not nature reserve" />
		<tag k="leisure" v="nature_reserve" />
		<tag k="name" v="Jøndalsåsen naturvernområde" />
		<tag k="ssr:stedsnr" v="423414" />
	</node>
	<node id="-265832" lat="60.2995000001" lon="11.3714416639">
		<tag k="fixme" v="consider boundary=protected_area and relevant protect_class if not nature reserve" />
		<tag k="leisure" v="nature_reserve" />
		<tag k="name" v="Tretjernmyr naturreservat" />
		<tag k="ssr:stedsnr" v="604730" />
	</node>
	<node id="-265285" lat="60.3321166628" lon="11.2878916583">
		<tag k="fixme" v="consider boundary=protected_area and relevant protect_class if not nature reserve" />
		<tag k="leisure" v="nature_reserve" />
		<tag k="name" v="Elstad naturminne" />
		<tag k="ssr:stedsnr" v="59402" />
	</node>
	<node id="-265444" lat="60.4192222212" lon="11.257224999">
		<tag k="fixme" v="consider boundary=protected_area and relevant protect_class if not nature reserve" />
		<tag k="leisure" v="nature_reserve" />
		<tag k="name" v="Ørbekk kulturlandskap" />
		<tag k="ssr:stedsnr" v="181495" />
	</node>
</osm>
