<?xml version="1.0" encoding="UTF-8"?>
<<<<<<< HEAD
<osm version="0.6" generator="osmapis">
	<node lat="60.277636111883155" lon="11.121936118433453" id="-12784">
		<tag k="name" v="Karlsberget" />
=======
<osm generator="osmapis" version="0.6">
	<node id="-264697" lat="60.4123444443" lon="11.3335555489">
		<tag k="fixme" v="consider natural=peak for the most distinct mountains in the district" />
		<tag k="name" v="Butjennhøgda" />
		<tag k="natural" v="hill" />
		<tag k="place" v="locality" />
		<tag k="ssr:stedsnr" v="491512" />
	</node>
	<node id="-264689" lat="60.3201916646" lon="11.2582444459">
		<tag k="name" v="Bårlidalen" />
		<tag k="natural" v="valley" />
		<tag k="place" v="locality" />
		<tag k="ssr:stedsnr" v="491135" />
	</node>
	<node id="-265195" lat="60.3236027783" lon="11.1361138913">
		<tag k="name" v="Badstubråtabakken" />
		<tag k="natural" v="slope" />
		<tag k="place" v="locality" />
		<tag k="ssr:stedsnr" v="967456" />
	</node>
	<node id="-265191" lat="60.3109277799" lon="11.2659138917">
		<tag k="fixme" v="consider natural=peak for the most distinct mountains in the district" />
		<tag k="name" v="Bårliåsen" />
		<tag k="natural" v="hill" />
		<tag k="place" v="locality" />
		<tag k="ssr:stedsnr" v="951308" />
	</node>
	<node id="-265695" lat="60.5472999961" lon="11.1269583403">
		<tag k="fixme" v="consider natural=peak for the most distinct mountains in the district" />
		<tag k="name" v="Langtjennåsen" />
		<tag k="natural" v="hill" />
		<tag k="place" v="locality" />
		<tag k="ssr:stedsnr" v="526978" />
	</node>
	<node id="-265179" lat="60.4709417376" lon="11.1220750246">
		<tag k="alt_name" v="Spillekampen;Bjørkekollen" />
		<tag k="fixme" v="consider natural=peak for the most distinct mountains in the district" />
		<tag k="name" v="Spelkampen" />
		<tag k="natural" v="hill" />
		<tag k="place" v="locality" />
		<tag k="ssr:stedsnr" v="916454" />
	</node>
	<node id="-265686" lat="60.5268472193" lon="11.1571638852">
		<tag k="fixme" v="consider natural=peak for the most distinct mountains in the district" />
		<tag k="name" v="Stefferudkollen" />
		<tag k="natural" v="hill" />
		<tag k="place" v="locality" />
		<tag k="ssr:stedsnr" v="432458" />
	</node>
	<node id="-265173" lat="60.297513893" lon="11.3294166683">
		<tag k="name" v="Brennhaugen" />
		<tag k="natural" v="hill" />
		<tag k="place" v="locality" />
		<tag k="ssr:stedsnr" v="916167" />
	</node>
	<node id="-264657" lat="60.2740944463" lon="11.1528666711">
		<tag k="name" v="Granhaugdalen" />
		<tag k="natural" v="valley" />
		<tag k="place" v="locality" />
		<tag k="ssr:stedsnr" v="479801" />
	</node>
	<node id="-265167" lat="60.4576805578" lon="11.3138305599">
		<tag k="name" v="Delefuruberget" />
		<tag k="natural" v="hill" />
		<tag k="place" v="locality" />
		<tag k="ssr:stedsnr" v="908915" />
	</node>
	<node id="-265674" lat="60.3055611115" lon="11.1298666667">
		<tag k="fixme" v="consider natural=peak for the most distinct mountains in the district" />
		<tag k="name" v="Staviåsen" />
		<tag k="natural" v="hill" />
		<tag k="place" v="locality" />
		<tag k="ssr:stedsnr" v="431161" />
	</node>
	<node id="-265150" lat="60.4682750002" lon="11.2828999991">
		<tag k="fixme" v="multiple name tags, choose one and add the other to alt_name; consider natural=peak for the most distinct mountains in the district" />
		<tag k="name" v="Brenna;Ulvinbrenna" />
		<tag k="natural" v="hill" />
		<tag k="place" v="locality" />
		<tag k="ssr:stedsnr" v="856466" />
	</node>
	<node id="-265149" lat="60.2934555554" lon="11.263836114">
		<tag k="alt_name" v="Strandsåsen" />
		<tag k="fixme" v="consider natural=peak for the most distinct mountains in the district" />
		<tag k="name" v="Strandåsen" />
		<tag k="natural" v="hill" />
		<tag k="place" v="locality" />
		<tag k="ssr:stedsnr" v="856180" />
	</node>
	<node id="-265658" lat="60.4822916638" lon="11.2517166639">
		<tag k="name" v="Ulvinlia" />
		<tag k="natural" v="slope" />
		<tag k="place" v="locality" />
		<tag k="ssr:stedsnr" v="423273" />
	</node>
	<node id="-265145" lat="60.3235111097" lon="11.382772218">
		<tag k="fixme" v="consider natural=peak for the most distinct mountains in the district" />
		<tag k="name" v="Hatteråsen" />
		<tag k="natural" v="hill" />
		<tag k="place" v="locality" />
		<tag k="ssr:stedsnr" v="856108" />
	</node>
	<node id="-265649" lat="60.3876999993" lon="11.1688583266">
		<tag k="name" v="Lyberget" />
		<tag k="natural" v="hill" />
		<tag k="place" v="locality" />
		<tag k="ssr:stedsnr" v="419990" />
	</node>
	<node id="-265135" lat="60.3849083368" lon="11.1549000001">
		<tag k="fixme" v="consider natural=peak for the most distinct mountains in the district" />
		<tag k="name" v="Rognholen" />
		<tag k="natural" v="hill" />
		<tag k="place" v="locality" />
		<tag k="ssr:stedsnr" v="856022" />
	</node>
	<node id="-264606" lat="60.2898499995" lon="11.3079361059">
		<tag k="fixme" v="consider natural=peak for the most distinct mountains in the district" />
		<tag k="name" v="Frilsetåsen" />
		<tag k="natural" v="hill" />
		<tag k="place" v="locality" />
		<tag k="ssr:stedsnr" v="241711" />
	</node>
	<node id="-265627" lat="60.3516694463" lon="11.1723000002">
		<tag k="name" v="Revhaugen" />
		<tag k="natural" v="hill" />
		<tag k="place" v="locality" />
		<tag k="ssr:stedsnr" v="404199" />
	</node>
	<node id="-265626" lat="60.3527888883" lon="11.1326027696">
		<tag k="name" v="Blekstadlia" />
		<tag k="natural" v="slope" />
		<tag k="place" v="locality" />
		<tag k="ssr:stedsnr" v="404198" />
	</node>
	<node id="-265621" lat="60.5183777818" lon="11.135788881">
		<tag k="fixme" v="consider natural=peak for the most distinct mountains in the district" />
		<tag k="name" v="Pipfjellet" />
		<tag k="natural" v="hill" />
		<tag k="place" v="locality" />
		<tag k="ssr:stedsnr" v="370540" />
	</node>
	<node id="-265108" lat="60.5160277735" lon="11.0937722144">
		<tag k="fixme" v="consider natural=peak for the most distinct mountains in the district" />
		<tag k="name" v="Skurven" />
		<tag k="natural" v="hill" />
		<tag k="place" v="locality" />
		<tag k="ssr:stedsnr" v="918998" />
	</node>
	<node id="-264595" lat="60.4785777775" lon="11.2767083397">
		<tag k="name" v="Grevlingberget" />
		<tag k="natural" v="hill" />
		<tag k="place" v="locality" />
		<tag k="ssr:stedsnr" v="221205" />
	</node>
	<node id="-265618" lat="60.4306611102" lon="11.1387194471">
		<tag k="fixme" v="consider natural=peak for the most distinct mountains in the district" />
		<tag k="name" v="Dølafjellet" />
		<tag k="natural" v="hill" />
		<tag k="place" v="locality" />
		<tag k="ssr:stedsnr" v="370499" />
	</node>
	<node id="-265104" lat="60.3749444429" lon="11.3045027863">
		<tag k="alt_name" v="Skarbergsdalen" />
		<tag k="name" v="Skardbergsdalen" />
		<tag k="natural" v="valley" />
		<tag k="place" v="locality" />
		<tag k="ssr:stedsnr" v="917043" />
	</node>
	<node id="-265611" lat="60.267586107" lon="11.1812416603">
		<tag k="name" v="Råholtsmoen" />
		<tag k="place" v="locality" />
		<tag k="ssr:stedsnr" v="370234" />
	</node>
	<node id="-264575" lat="60.3750638894" lon="11.1403527709">
		<tag k="name" v="Tørkoppen" />
		<tag k="natural" v="hill" />
		<tag k="place" v="locality" />
		<tag k="ssr:stedsnr" v="285080" />
	</node>
	<node id="-265596" lat="60.3643527739" lon="11.2879583275">
		<tag k="name" v="Skarpen" />
		<tag k="natural" v="hill" />
		<tag k="place" v="locality" />
		<tag k="ssr:stedsnr" v="370097" />
	</node>
	<node id="-265583" lat="60.3801583373" lon="11.1420111087">
		<tag k="fixme" v="consider natural=peak for the most distinct mountains in the district" />
		<tag k="name" v="Geitryggen" />
>>>>>>> e1d4bc35ff8a6074a6f2e91616a996b547c36f15
		<tag k="natural" v="hill" />
		<tag k="place" v="locality" />
		<tag k="ssr:stedsnr" v="55771" />
	</node>
<<<<<<< HEAD
	<node lat="60.46854721840922" lon="11.289086113078296" id="-12794">
		<tag k="name" v="Sjølia" />
		<tag k="natural" v="slope" />
=======
	<node id="-266091" lat="60.4181361075" lon="11.2661222218">
		<tag k="fixme" v="consider natural=peak for the most distinct mountains in the district" />
		<tag k="name" v="Rugdetoppen" />
		<tag k="natural" v="hill" />
>>>>>>> e1d4bc35ff8a6074a6f2e91616a996b547c36f15
		<tag k="place" v="locality" />
		<tag k="ssr:stedsnr" v="240438" />
	</node>
	<node lat="60.3407333306473" lon="11.123577781709429" id="-12817">
		<tag k="name" v="Parisbrenna" />
		<tag k="natural" v="ridge" />
		<tag k="place" v="locality" />
		<tag k="ssr:stedsnr" v="67120" />
	</node>
<<<<<<< HEAD
	<node lat="60.289849999548785" lon="11.307936105886188" id="-12818">
=======
	<node id="-265575" lat="60.3220333369" lon="11.1593916621">
>>>>>>> e1d4bc35ff8a6074a6f2e91616a996b547c36f15
		<tag k="fixme" v="consider natural=peak for the most distinct mountains in the district" />
		<tag k="name" v="Frilsetåsen" />
		<tag k="natural" v="hill" />
		<tag k="place" v="locality" />
		<tag k="ssr:stedsnr" v="241711" />
	</node>
<<<<<<< HEAD
	<node lat="60.30460277878988" lon="11.117188881989241" id="-12844">
		<tag k="name" v="Brennberget" />
=======
	<node id="-266084" lat="60.4659472217" lon="11.1243777778">
		<tag k="fixme" v="consider natural=peak for the most distinct mountains in the district" />
		<tag k="name" v="Kampen" />
>>>>>>> e1d4bc35ff8a6074a6f2e91616a996b547c36f15
		<tag k="natural" v="hill" />
		<tag k="place" v="locality" />
		<tag k="ssr:stedsnr" v="102621" />
	</node>
<<<<<<< HEAD
	<node lat="60.24360833074984" lon="11.239108329131502" id="-12880">
		<tag k="fixme" v="consider natural=peak for the most distinct mountains in the district" />
		<tag k="name" v="Hasleråsen" />
=======
	<node id="-266082" lat="60.4469638882" lon="11.3392749921">
		<tag k="name" v="Harpeholen" />
>>>>>>> e1d4bc35ff8a6074a6f2e91616a996b547c36f15
		<tag k="natural" v="hill" />
		<tag k="place" v="locality" />
		<tag k="ssr:stedsnr" v="126306" />
	</node>
<<<<<<< HEAD
	<node lat="60.25453333471263" lon="11.283175004083631" id="-12884">
		<tag k="alt_name" v="Borstadkampen" />
		<tag k="name" v="Bårstadkampen" />
		<tag k="natural" v="hill" />
		<tag k="place" v="locality" />
		<tag k="ssr:stedsnr" v="127246" />
	</node>
	<node lat="60.459238890201384" lon="11.137799996432467" id="-12896">
		<tag k="fixme" v="consider natural=peak for the most distinct mountains in the district" />
		<tag k="name" v="Risberget" />
		<tag k="natural" v="hill" />
=======
	<node id="-266079" lat="60.3735611112" lon="11.1322361146">
		<tag k="name" v="Stordalen" />
		<tag k="natural" v="valley" />
>>>>>>> e1d4bc35ff8a6074a6f2e91616a996b547c36f15
		<tag k="place" v="locality" />
		<tag k="ssr:stedsnr" v="141982" />
	</node>
<<<<<<< HEAD
	<node lat="60.350583330107725" lon="11.122180557655996" id="-12926">
		<tag k="fixme" v="consider natural=peak for the most distinct mountains in the district" />
		<tag k="name" v="Parishøgda" />
		<tag k="natural" v="hill" />
=======
	<node id="-265048" lat="60.3831222179" lon="11.213808336">
		<tag k="name" v="Bergermoen" />
>>>>>>> e1d4bc35ff8a6074a6f2e91616a996b547c36f15
		<tag k="place" v="locality" />
		<tag k="ssr:stedsnr" v="188092" />
	</node>
<<<<<<< HEAD
	<node lat="60.43650832898255" lon="11.158913895588094" id="-12941">
		<tag k="fixme" v="consider natural=peak for the most distinct mountains in the district" />
		<tag k="name" v="Byuhøgda" />
		<tag k="natural" v="hill" />
		<tag k="place" v="locality" />
		<tag k="ssr:stedsnr" v="188488" />
	</node>
	<node lat="60.47857777754094" lon="11.276708339734148" id="-12944">
		<tag k="name" v="Grevlingberget" />
=======
	<node id="-264530" lat="60.2545333347" lon="11.2831750041">
		<tag k="alt_name" v="Borstadkampen" />
		<tag k="name" v="Bårstadkampen" />
		<tag k="natural" v="hill" />
		<tag k="place" v="locality" />
		<tag k="ssr:stedsnr" v="127246" />
	</node>
	<node id="-265552" lat="60.29542778" lon="11.1583055559">
		<tag k="name" v="Trollhaugen" />
>>>>>>> e1d4bc35ff8a6074a6f2e91616a996b547c36f15
		<tag k="natural" v="hill" />
		<tag k="place" v="locality" />
		<tag k="ssr:stedsnr" v="221205" />
	</node>
<<<<<<< HEAD
	<node lat="60.23636944779889" lon="11.215583325524108" id="-12961">
		<tag k="name" v="Krokhagamoen" />
=======
	<node id="-265035" lat="60.3990416671" lon="11.1390583359">
		<tag k="name" v="Tasketjennsdalen" />
		<tag k="natural" v="valley" />
>>>>>>> e1d4bc35ff8a6074a6f2e91616a996b547c36f15
		<tag k="place" v="locality" />
		<tag k="ssr:stedsnr" v="237188" />
	</node>
<<<<<<< HEAD
	<node lat="60.262605552228855" lon="11.174258335975495" id="-12962">
=======
	<node id="-265542" lat="60.3568694438" lon="11.1042416712">
>>>>>>> e1d4bc35ff8a6074a6f2e91616a996b547c36f15
		<tag k="fixme" v="consider natural=peak for the most distinct mountains in the district" />
		<tag k="name" v="Ladderudåsen" />
		<tag k="natural" v="hill" />
		<tag k="place" v="locality" />
		<tag k="ssr:stedsnr" v="237784" />
	</node>
<<<<<<< HEAD
	<node lat="60.375063889432184" lon="11.140352770865828" id="-12994">
		<tag k="name" v="Tørkoppen" />
=======
	<node id="-266052" lat="60.2752583374" lon="11.2055888923">
		<tag k="name" v="Ridderhaugen" />
>>>>>>> e1d4bc35ff8a6074a6f2e91616a996b547c36f15
		<tag k="natural" v="hill" />
		<tag k="place" v="locality" />
		<tag k="ssr:stedsnr" v="285080" />
	</node>
<<<<<<< HEAD
	<node lat="60.26542777702255" lon="11.14385555355093" id="-13002">
		<tag k="name" v="Grønne port" />
=======
	<node id="-264758" lat="60.4870527768" lon="11.2652694521">
		<tag k="fixme" v="consider natural=peak for the most distinct mountains in the district" />
		<tag k="name" v="Mohue" />
		<tag k="natural" v="hill" />
		<tag k="place" v="locality" />
		<tag k="ssr:stedsnr" v="431433" />
	</node>
	<node id="-265019" lat="60.3575527794" lon="11.1595833316">
		<tag k="name" v="Helvetesdalen" />
		<tag k="natural" v="valley" />
>>>>>>> e1d4bc35ff8a6074a6f2e91616a996b547c36f15
		<tag k="place" v="locality" />
		<tag k="ssr:stedsnr" v="297786" />
	</node>
<<<<<<< HEAD
	<node lat="60.39900833743621" lon="11.305694438684643" id="-13024">
		<tag k="name" v="Fallhøgda" />
		<tag k="natural" v="hill" />
		<tag k="place" v="locality" />
		<tag k="ssr:stedsnr" v="309008" />
	</node>
	<node lat="60.40719444477264" lon="11.32535834087659" id="-13031">
		<tag k="fixme" v="consider natural=peak for the most distinct mountains in the district" />
		<tag k="name" v="Ristjennåsen" />
		<tag k="natural" v="hill" />
		<tag k="place" v="locality" />
		<tag k="ssr:stedsnr" v="309518" />
	</node>
	<node lat="60.46586111353123" lon="11.108347219852131" id="-13051">
		<tag k="fixme" v="consider natural=peak for the most distinct mountains in the district" />
		<tag k="name" v="Brågåtjennskollen" />
=======
	<node id="-265018" lat="60.3630666664" lon="11.165841673">
		<tag k="name" v="Svartle" />
		<tag k="natural" v="cliff" />
		<tag k="ssr:stedsnr" v="890201" />
	</node>
	<node id="-266036" lat="60.3390805548" lon="11.1665527789">
		<tag k="name" v="Eikeberget" />
>>>>>>> e1d4bc35ff8a6074a6f2e91616a996b547c36f15
		<tag k="natural" v="hill" />
		<tag k="place" v="locality" />
		<tag k="ssr:stedsnr" v="467570" />
	</node>
<<<<<<< HEAD
	<node lat="60.475608335971906" lon="11.12015278103163" id="-13052">
		<tag k="name" v="Høgda" />
		<tag k="place" v="locality" />
		<tag k="ssr:stedsnr" v="467575" />
	</node>
	<node lat="60.380158337269506" lon="11.142011108664265" id="-13077">
=======
	<node id="-265517" lat="60.4071944448" lon="11.3253583409">
		<tag k="fixme" v="consider natural=peak for the most distinct mountains in the district" />
		<tag k="name" v="Ristjennåsen" />
		<tag k="natural" v="hill" />
		<tag k="place" v="locality" />
		<tag k="ssr:stedsnr" v="309518" />
	</node>
	<node id="-264490" lat="60.4231888917" lon="11.1873805625">
>>>>>>> e1d4bc35ff8a6074a6f2e91616a996b547c36f15
		<tag k="fixme" v="consider natural=peak for the most distinct mountains in the district" />
		<tag k="name" v="Geitryggen" />
		<tag k="natural" v="hill" />
		<tag k="place" v="locality" />
		<tag k="ssr:stedsnr" v="370022" />
	</node>
<<<<<<< HEAD
	<node lat="60.27409444629679" lon="11.152866671064217" id="-13089">
		<tag k="name" v="Granhaugdalen" />
		<tag k="natural" v="valley" />
=======
	<node id="-264592" lat="60.265427777" lon="11.1438555536">
		<tag k="name" v="Grønne port" />
		<tag k="place" v="locality" />
		<tag k="ssr:stedsnr" v="297786" />
	</node>
	<node id="-264997" lat="60.5588722203" lon="11.1379527699">
		<tag k="name" v="Pålshaugen" />
		<tag k="natural" v="hill" />
>>>>>>> e1d4bc35ff8a6074a6f2e91616a996b547c36f15
		<tag k="place" v="locality" />
		<tag k="ssr:stedsnr" v="479801" />
	</node>
<<<<<<< HEAD
	<node lat="60.35278888832499" lon="11.132602769633753" id="-13104">
		<tag k="name" v="Blekstadlia" />
		<tag k="natural" v="slope" />
=======
	<node id="-265506" lat="60.3335694436" lon="11.3841500035">
		<tag k="fixme" v="consider natural=peak for the most distinct mountains in the district" />
		<tag k="name" v="Tretjennshaugen" />
		<tag k="natural" v="hill" />
>>>>>>> e1d4bc35ff8a6074a6f2e91616a996b547c36f15
		<tag k="place" v="locality" />
		<tag k="ssr:stedsnr" v="404198" />
	</node>
<<<<<<< HEAD
	<node lat="60.38769999933292" lon="11.168858326575798" id="-13112">
		<tag k="name" v="Lyberget" />
		<tag k="natural" v="hill" />
		<tag k="place" v="locality" />
		<tag k="ssr:stedsnr" v="419990" />
	</node>
	<node lat="60.319816361479596" lon="11.257769779076538" id="-13121">
		<tag k="name" v="Bårlidalen" />
		<tag k="natural" v="valley" />
=======
	<node id="-264986" lat="60.4827638881" lon="11.261349995">
		<tag k="name" v="Storsveberget" />
		<tag k="natural" v="hill" />
		<tag k="place" v="locality" />
		<tag k="ssr:stedsnr" v="734431" />
	</node>
	<node id="-266003" lat="60.3511583319" lon="11.2869972304">
		<tag k="name" v="Hemliåsen" />
		<tag k="natural" v="hill" />
>>>>>>> e1d4bc35ff8a6074a6f2e91616a996b547c36f15
		<tag k="place" v="locality" />
		<tag k="ssr:stedsnr" v="491135" />
	</node>
<<<<<<< HEAD
	<node lat="60.38673333292057" lon="11.334225008328552" id="-13147">
		<tag k="name" v="Djupdalen" />
		<tag k="natural" v="valley" />
		<tag k="place" v="locality" />
		<tag k="ssr:stedsnr" v="673048" />
	</node>
	<node lat="60.309747225791135" lon="11.323822228150409" id="-13162">
=======
	<node id="-264835" lat="60.3097472258" lon="11.3238222282">
		<tag k="fixme" v="consider natural=peak for the most distinct mountains in the district" />
		<tag k="name" v="Engertoppen" />
		<tag k="natural" v="hill" />
		<tag k="place" v="locality" />
		<tag k="ssr:stedsnr" v="674146" />
	</node>
	<node id="-265005" lat="60.5088222262" lon="11.0836333426">
		<tag k="name" v="Almelia" />
		<tag k="natural" v="slope" />
		<tag k="place" v="locality" />
		<tag k="ssr:stedsnr" v="664315" />
	</node>
	<node id="-265481" lat="60.436508329" lon="11.1589138956">
>>>>>>> e1d4bc35ff8a6074a6f2e91616a996b547c36f15
		<tag k="fixme" v="consider natural=peak for the most distinct mountains in the district" />
		<tag k="name" v="Engertoppen" />
		<tag k="natural" v="hill" />
		<tag k="place" v="locality" />
		<tag k="ssr:stedsnr" v="674146" />
	</node>
<<<<<<< HEAD
	<node lat="60.46195833628862" lon="11.304483331786264" id="-13190">
		<tag k="name" v="Ovnsmyrholen" />
		<tag k="natural" v="hill" />
		<tag k="place" v="locality" />
		<tag k="ssr:stedsnr" v="483907" />
	</node>
	<node lat="60.41234444425521" lon="11.333555548908485" id="-13198">
		<tag k="fixme" v="consider natural=peak for the most distinct mountains in the district" />
		<tag k="name" v="Butjennhøgda" />
		<tag k="natural" v="hill" />
		<tag k="place" v="locality" />
		<tag k="ssr:stedsnr" v="491512" />
	</node>
	<node lat="60.366447222299556" lon="11.125497216940158" id="-13207">
=======
	<node id="-265479" lat="60.4588194442" lon="11.1605611115">
		<tag k="fixme" v="consider natural=peak for the most distinct mountains in the district" />
		<tag k="name" v="Årneskollen" />
		<tag k="natural" v="hill" />
		<tag k="place" v="locality" />
		<tag k="ssr:stedsnr" v="188468" />
	</node>
	<node id="-264449" lat="60.3809527767" lon="11.3981388947">
		<tag k="name" v="Ormberget" />
		<tag k="natural" v="cliff" />
		<tag k="ssr:stedsnr" v="58851" />
	</node>
	<node id="-264445" lat="60.2626055522" lon="11.174258336">
>>>>>>> e1d4bc35ff8a6074a6f2e91616a996b547c36f15
		<tag k="fixme" v="consider natural=peak for the most distinct mountains in the district" />
		<tag k="name" v="Himtjennshøgda" />
		<tag k="natural" v="hill" />
		<tag k="place" v="locality" />
		<tag k="ssr:stedsnr" v="525207" />
	</node>
<<<<<<< HEAD
	<node lat="60.373952776797076" lon="11.15747777525155" id="-13239">
		<tag k="name" v="Mistberget" />
		<tag k="natural" v="hill" />
=======
	<node id="-264443" lat="60.2363694478" lon="11.2155833255">
		<tag k="name" v="Krokhagamoen" />
>>>>>>> e1d4bc35ff8a6074a6f2e91616a996b547c36f15
		<tag k="place" v="locality" />
		<tag k="ssr:stedsnr" v="552053" />
	</node>
<<<<<<< HEAD
	<node lat="60.255766666661415" lon="11.153127772574114" id="-13266">
		<tag k="fixme" v="consider natural=peak for the most distinct mountains in the district" />
		<tag k="name" v="Stokkåsen" />
		<tag k="natural" v="hill" />
		<tag k="place" v="locality" />
		<tag k="ssr:stedsnr" v="783769" />
	</node>
	<node lat="60.334027778809926" lon="11.144638887711851" id="-13272">
=======
	<node id="-265975" lat="60.3627972243" lon="11.21696112">
		<tag k="name" v="Dokkenmoen" />
		<tag k="place" v="locality" />
		<tag k="ssr:stedsnr" v="795104" />
	</node>
	<node id="-265458" lat="60.3505833301" lon="11.1221805577">
>>>>>>> e1d4bc35ff8a6074a6f2e91616a996b547c36f15
		<tag k="fixme" v="consider natural=peak for the most distinct mountains in the district" />
		<tag k="name" v="Skrømtehaugen" />
		<tag k="natural" v="hill" />
		<tag k="place" v="locality" />
		<tag k="ssr:stedsnr" v="602868" />
	</node>
<<<<<<< HEAD
	<node lat="60.32392777701019" lon="11.160530548224184" id="-13282">
		<tag k="name" v="Holmehøgda" />
		<tag k="natural" v="hill" />
=======
	<node id="-264425" lat="60.4303666677" lon="11.1730083301">
		<tag k="name" v="Svartlia" />
		<tag k="natural" v="slope" />
>>>>>>> e1d4bc35ff8a6074a6f2e91616a996b547c36f15
		<tag k="place" v="locality" />
		<tag k="ssr:stedsnr" v="604760" />
	</node>
<<<<<<< HEAD
	<node lat="60.4786944480294" lon="11.120972218847657" id="-13291">
=======
	<node id="-264931" lat="60.5677333369" lon="11.1498722157">
>>>>>>> e1d4bc35ff8a6074a6f2e91616a996b547c36f15
		<tag k="fixme" v="consider natural=peak for the most distinct mountains in the district" />
		<tag k="name" v="Nordhøgda" />
		<tag k="natural" v="hill" />
		<tag k="place" v="locality" />
		<tag k="ssr:stedsnr" v="612412" />
	</node>
<<<<<<< HEAD
	<node lat="60.3481250040917" lon="11.156713881355746" id="-13297">
=======
	<node id="-265952" lat="60.3006111077" lon="11.3513944453">
>>>>>>> e1d4bc35ff8a6074a6f2e91616a996b547c36f15
		<tag k="name" v="Djupdalen" />
		<tag k="natural" v="valley" />
		<tag k="place" v="locality" />
		<tag k="ssr:stedsnr" v="612667" />
	</node>
<<<<<<< HEAD
	<node lat="60.42894166452468" lon="11.255027775283382" id="-13306">
		<tag k="alt_name" v="Korslundhaugen" />
		<tag k="fixme" v="consider natural=peak for the most distinct mountains in the district" />
		<tag k="name" v="Korslundhøgda" />
=======
	<node id="-264918" lat="60.323927777" lon="11.1605305482">
		<tag k="name" v="Holmehøgda" />
>>>>>>> e1d4bc35ff8a6074a6f2e91616a996b547c36f15
		<tag k="natural" v="hill" />
		<tag k="place" v="locality" />
		<tag k="ssr:stedsnr" v="613499" />
	</node>
<<<<<<< HEAD
	<node lat="60.34421667070829" lon="11.105799998764459" id="-13338">
		<tag k="name" v="Høgfjelldalen" />
		<tag k="natural" v="valley" />
=======
	<node id="-265932" lat="60.2557666667" lon="11.1531277726">
		<tag k="fixme" v="consider natural=peak for the most distinct mountains in the district" />
		<tag k="name" v="Stokkåsen" />
		<tag k="natural" v="hill" />
>>>>>>> e1d4bc35ff8a6074a6f2e91616a996b547c36f15
		<tag k="place" v="locality" />
		<tag k="ssr:stedsnr" v="663993" />
	</node>
<<<<<<< HEAD
	<node lat="60.398730740717866" lon="11.269195574566282" id="-13349">
		<tag k="alt_name" v="Ninabben" />
=======
	<node id="-265419" lat="60.3960500034" lon="11.383291672">
>>>>>>> e1d4bc35ff8a6074a6f2e91616a996b547c36f15
		<tag k="fixme" v="consider natural=peak for the most distinct mountains in the district" />
		<tag k="name" v="Nynabben" />
		<tag k="natural" v="hill" />
		<tag k="place" v="locality" />
		<tag k="ssr:stedsnr" v="673011" />
	</node>
<<<<<<< HEAD
	<node lat="60.39904166712031" lon="11.139058335892502" id="-13367">
		<tag k="name" v="Tasketjennsdalen" />
=======
	<node id="-264905" lat="60.2647555554" lon="11.1442805495">
		<tag k="name" v="Borkhyttedalen" />
>>>>>>> e1d4bc35ff8a6074a6f2e91616a996b547c36f15
		<tag k="natural" v="valley" />
		<tag k="place" v="locality" />
		<tag k="ssr:stedsnr" v="891857" />
	</node>
<<<<<<< HEAD
	<node lat="60.40078888760426" lon="11.367441673606153" id="-13387">
		<tag k="name" v="Neverberget" />
		<tag k="natural" v="hill" />
=======
	<node id="-265415" lat="60.4500388913" lon="11.1418305533">
		<tag k="name" v="Tjuvknartrøet" />
		<tag k="natural" v="ridge" />
>>>>>>> e1d4bc35ff8a6074a6f2e91616a996b547c36f15
		<tag k="place" v="locality" />
		<tag k="ssr:stedsnr" v="709884" />
	</node>
<<<<<<< HEAD
	<node lat="60.25240833232267" lon="11.220608336207544" id="-13392">
		<tag k="name" v="Krokhagamoen" />
		<tag k="place" v="locality" />
		<tag k="ssr:stedsnr" v="722217" />
	</node>
	<node lat="60.558872220279866" lon="11.137952769926098" id="-13437">
		<tag k="name" v="Pålshaugen" />
=======
	<node id="-265917" lat="60.5524111156" lon="11.1415749913">
		<tag k="fixme" v="consider natural=peak for the most distinct mountains in the district" />
		<tag k="name" v="Dalkollen" />
>>>>>>> e1d4bc35ff8a6074a6f2e91616a996b547c36f15
		<tag k="natural" v="hill" />
		<tag k="place" v="locality" />
		<tag k="ssr:stedsnr" v="735389" />
	</node>
<<<<<<< HEAD
	<node lat="60.487569443588725" lon="11.250669437130272" id="-13451">
		<tag k="name" v="Fagberget" />
=======
	<node id="-265404" lat="60.4592388902" lon="11.1377999964">
		<tag k="fixme" v="consider natural=peak for the most distinct mountains in the district" />
		<tag k="name" v="Risberget" />
>>>>>>> e1d4bc35ff8a6074a6f2e91616a996b547c36f15
		<tag k="natural" v="hill" />
		<tag k="place" v="locality" />
		<tag k="ssr:stedsnr" v="767214" />
	</node>
<<<<<<< HEAD
	<node lat="60.36051944600782" lon="11.160577775495188" id="-13458">
=======
	<node id="-265915" lat="60.360519446" lon="11.1605777755">
>>>>>>> e1d4bc35ff8a6074a6f2e91616a996b547c36f15
		<tag k="name" v="Vippelia" />
		<tag k="natural" v="slope" />
		<tag k="place" v="locality" />
		<tag k="ssr:stedsnr" v="768201" />
	</node>
<<<<<<< HEAD
	<node lat="60.552411115603405" lon="11.141574991280729" id="-13459">
		<tag k="fixme" v="consider natural=peak for the most distinct mountains in the district" />
		<tag k="name" v="Dalkollen" />
		<tag k="natural" v="hill" />
		<tag k="place" v="locality" />
		<tag k="ssr:stedsnr" v="768945" />
	</node>
	<node lat="60.4576805578151" lon="11.3138305598616" id="-13475">
		<tag k="name" v="Delefuruberget" />
		<tag k="natural" v="hill" />
		<tag k="place" v="locality" />
		<tag k="ssr:stedsnr" v="908915" />
	</node>
	<node lat="60.300611107691026" lon="11.351394445336814" id="-13495">
		<tag k="name" v="Djupdalen" />
		<tag k="natural" v="valley" />
		<tag k="place" v="locality" />
		<tag k="ssr:stedsnr" v="787710" />
	</node>
	<node lat="60.36279722426974" lon="11.216961119982871" id="-13500">
		<tag k="name" v="Dokkenmoen" />
=======
	<node id="-265042" lat="60.2524083323" lon="11.2206083362">
		<tag k="name" v="Krokhagamoen" />
		<tag k="place" v="locality" />
		<tag k="ssr:stedsnr" v="722217" />
	</node>
	<node id="-265907" lat="60.4875694436" lon="11.2506694371">
		<tag k="name" v="Fagberget" />
		<tag k="natural" v="hill" />
		<tag k="place" v="locality" />
		<tag k="ssr:stedsnr" v="767214" />
	</node>
	<node id="-265906" lat="60.3826749959" lon="11.3245861086">
		<tag k="name" v="Godlidalen" />
		<tag k="natural" v="valley" />
		<tag k="place" v="locality" />
		<tag k="ssr:stedsnr" v="748999" />
	</node>
	<node id="-265387" lat="60.3628027775" lon="11.3012499945">
		<tag k="name" v="Hestdalen" />
		<tag k="natural" v="valley" />
		<tag k="place" v="locality" />
		<tag k="ssr:stedsnr" v="127076" />
	</node>
	<node id="-265898" lat="60.4043166628" lon="11.1951666652">
		<tag k="name" v="Minnemoen" />
>>>>>>> e1d4bc35ff8a6074a6f2e91616a996b547c36f15
		<tag k="place" v="locality" />
		<tag k="ssr:stedsnr" v="795104" />
	</node>
<<<<<<< HEAD
	<node lat="60.470941737559585" lon="11.122075024615057" id="-13527">
		<tag k="alt_name" v="Spillekampen;Bjørkekollen" />
=======
	<node id="-265329" lat="60.3046027788" lon="11.117188882">
		<tag k="name" v="Brennberget" />
		<tag k="natural" v="hill" />
		<tag k="place" v="locality" />
		<tag k="ssr:stedsnr" v="102621" />
	</node>
	<node id="-265380" lat="60.2436083307" lon="11.2391083291">
>>>>>>> e1d4bc35ff8a6074a6f2e91616a996b547c36f15
		<tag k="fixme" v="consider natural=peak for the most distinct mountains in the district" />
		<tag k="name" v="Spelkampen" />
		<tag k="natural" v="hill" />
		<tag k="place" v="locality" />
		<tag k="ssr:stedsnr" v="916454" />
	</node>
<<<<<<< HEAD
	<node lat="60.374944442915705" lon="11.304502786259395" id="-13529">
		<tag k="alt_name" v="Skarbergsdalen" />
		<tag k="name" v="Skardbergsdalen" />
		<tag k="natural" v="valley" />
=======
	<node id="-265889" lat="60.4744499975" lon="11.1013000045">
		<tag k="name" v="Høltjennlia" />
		<tag k="natural" v="slope" />
>>>>>>> e1d4bc35ff8a6074a6f2e91616a996b547c36f15
		<tag k="place" v="locality" />
		<tag k="ssr:stedsnr" v="917043" />
	</node>
<<<<<<< HEAD
	<node lat="60.339080554848934" lon="11.16655277885404" id="-13560">
		<tag k="name" v="Eikeberget" />
		<tag k="natural" v="hill" />
		<tag k="place" v="locality" />
		<tag k="ssr:stedsnr" v="846886" />
	</node>
	<node lat="60.32351110974021" lon="11.382772218029892" id="-13569">
		<tag k="fixme" v="consider natural=peak for the most distinct mountains in the district" />
		<tag k="name" v="Hatteråsen" />
=======
	<node id="-265498" lat="60.3990083374" lon="11.3056944387">
		<tag k="name" v="Fallhøgda" />
		<tag k="natural" v="hill" />
		<tag k="place" v="locality" />
		<tag k="ssr:stedsnr" v="309008" />
	</node>
	<node id="-265370" lat="60.4557749973" lon="11.3177027844">
		<tag k="name" v="Vinkelmyrholen" />
		<tag k="natural" v="hill" />
		<tag k="place" v="locality" />
		<tag k="ssr:stedsnr" v="119903" />
	</node>
	<node id="-264856" lat="60.3846805525" lon="11.1416555588">
		<tag k="name" v="Koiedalen" />
		<tag k="natural" v="valley" />
		<tag k="place" v="locality" />
		<tag k="ssr:stedsnr" v="540993" />
	</node>
	<node id="-265874" lat="60.4289416645" lon="11.2550277753">
		<tag k="alt_name" v="Korslundhaugen" />
		<tag k="fixme" v="consider natural=peak for the most distinct mountains in the district" />
		<tag k="name" v="Korslundhøgda" />
		<tag k="natural" v="hill" />
		<tag k="place" v="locality" />
		<tag k="ssr:stedsnr" v="613499" />
	</node>
	<node id="-264847" lat="60.4774833377" lon="11.1032416732">
		<tag k="name" v="Ospedalen" />
		<tag k="natural" v="valley" />
		<tag k="place" v="locality" />
		<tag k="ssr:stedsnr" v="527563" />
	</node>
	<node id="-264845" lat="60.2930277788" lon="11.1450638874">
		<tag k="name" v="Revhaugen" />
>>>>>>> e1d4bc35ff8a6074a6f2e91616a996b547c36f15
		<tag k="natural" v="hill" />
		<tag k="place" v="locality" />
		<tag k="ssr:stedsnr" v="856108" />
	</node>
<<<<<<< HEAD
	<node lat="60.38490833682675" lon="11.15490000005422" id="-13577">
=======
	<node id="-264843" lat="60.3664472223" lon="11.1254972169">
>>>>>>> e1d4bc35ff8a6074a6f2e91616a996b547c36f15
		<tag k="fixme" v="consider natural=peak for the most distinct mountains in the district" />
		<tag k="name" v="Rognholen" />
		<tag k="natural" v="hill" />
		<tag k="place" v="locality" />
		<tag k="ssr:stedsnr" v="856022" />
	</node>
<<<<<<< HEAD
	<node lat="60.363066666353504" lon="11.165841672985527" id="-13593">
		<tag k="name" v="Svartle" />
		<tag k="natural" v="cliff" />
		<tag k="ssr:stedsnr" v="890201" />
	</node>
	<node lat="60.35755277943261" lon="11.159583331623836" id="-13594">
		<tag k="name" v="Helvetesdalen" />
=======
	<node id="-265859" lat="60.3481250041" lon="11.1567138814">
		<tag k="name" v="Djupdalen" />
>>>>>>> e1d4bc35ff8a6074a6f2e91616a996b547c36f15
		<tag k="natural" v="valley" />
		<tag k="place" v="locality" />
		<tag k="ssr:stedsnr" v="890208" />
	</node>
<<<<<<< HEAD
	<node lat="60.297513892992725" lon="11.329416668275787" id="-13613">
		<tag k="name" v="Brennhaugen" />
=======
	<node id="-265339" lat="60.4514500025" lon="11.3235250054">
		<tag k="name" v="Midtrøysholen" />
>>>>>>> e1d4bc35ff8a6074a6f2e91616a996b547c36f15
		<tag k="natural" v="hill" />
		<tag k="place" v="locality" />
		<tag k="ssr:stedsnr" v="916167" />
	</node>
<<<<<<< HEAD
	<node lat="60.516027773521834" lon="11.093772214448178" id="-13623">
		<tag k="fixme" v="consider natural=peak for the most distinct mountains in the district" />
		<tag k="name" v="Skurven" />
=======
	<node id="-264818" lat="60.4619583363" lon="11.3044833318">
		<tag k="name" v="Ovnsmyrholen" />
>>>>>>> e1d4bc35ff8a6074a6f2e91616a996b547c36f15
		<tag k="natural" v="hill" />
		<tag k="place" v="locality" />
		<tag k="ssr:stedsnr" v="918998" />
	</node>
<<<<<<< HEAD
	<node lat="60.3109277798699" lon="11.265913891697005" id="-13631">
=======
	<node id="-265841" lat="60.478694448" lon="11.1209722188">
>>>>>>> e1d4bc35ff8a6074a6f2e91616a996b547c36f15
		<tag k="fixme" v="consider natural=peak for the most distinct mountains in the district" />
		<tag k="name" v="Bårliåsen" />
		<tag k="natural" v="hill" />
		<tag k="place" v="locality" />
		<tag k="ssr:stedsnr" v="951308" />
	</node>
<<<<<<< HEAD
	<node lat="60.37356111123423" lon="11.132236114584568" id="-13632">
		<tag k="name" v="Stordalen" />
=======
	<node id="-264811" lat="60.3867333329" lon="11.3342250083">
		<tag k="name" v="Djupdalen" />
>>>>>>> e1d4bc35ff8a6074a6f2e91616a996b547c36f15
		<tag k="natural" v="valley" />
		<tag k="place" v="locality" />
		<tag k="ssr:stedsnr" v="952093" />
	</node>
<<<<<<< HEAD
	<node lat="60.46594722172678" lon="11.124377777753491" id="-13634">
=======
	<node id="-264804" lat="60.3987722182" lon="11.2691888955">
		<tag k="alt_name" v="Ninabben" />
>>>>>>> e1d4bc35ff8a6074a6f2e91616a996b547c36f15
		<tag k="fixme" v="consider natural=peak for the most distinct mountains in the district" />
		<tag k="name" v="Kampen" />
		<tag k="natural" v="hill" />
		<tag k="place" v="locality" />
		<tag k="ssr:stedsnr" v="952544" />
	</node>
<<<<<<< HEAD
	<node lat="60.4556805577705" lon="11.15515000732296" id="-13667">
		<tag k="fixme" v="consider natural=peak for the most distinct mountains in the district" />
		<tag k="name" v="Knarten" />
		<tag k="natural" v="hill" />
		<tag k="place" v="locality" />
		<tag k="ssr:stedsnr" v="6455" />
	</node>
	<node lat="60.44935000076693" lon="11.127675005374195" id="-13668">
		<tag k="alt_name" v="Prestbråtaberget" />
		<tag k="name" v="Prestbråteberget" />
		<tag k="natural" v="hill" />
		<tag k="place" v="locality" />
		<tag k="ssr:stedsnr" v="6496" />
	</node>
	<node lat="60.48476667089242" lon="11.274630562525225" id="-13669">
=======
	<node id="-265823" lat="60.4654527819" lon="11.2810111083">
		<tag k="name" v="Navneberget" />
		<tag k="natural" v="hill" />
		<tag k="place" v="locality" />
		<tag k="ssr:stedsnr" v="603383" />
	</node>
	<node id="-264797" lat="60.475608336" lon="11.120152781">
		<tag k="name" v="Høgda" />
		<tag k="place" v="locality" />
		<tag k="ssr:stedsnr" v="467575" />
	</node>
	<node id="-264796" lat="60.4658611135" lon="11.1083472199">
>>>>>>> e1d4bc35ff8a6074a6f2e91616a996b547c36f15
		<tag k="fixme" v="consider natural=peak for the most distinct mountains in the district" />
		<tag k="name" v="Brennhaugen" />
		<tag k="natural" v="hill" />
		<tag k="place" v="locality" />
		<tag k="ssr:stedsnr" v="6413" />
	</node>
<<<<<<< HEAD
	<node lat="60.33155833062874" lon="11.150291665814665" id="-13700">
		<tag k="name" v="Røydalen" />
		<tag k="natural" v="valley" />
=======
	<node id="-265817" lat="60.3340277788" lon="11.1446388877">
		<tag k="fixme" v="consider natural=peak for the most distinct mountains in the district" />
		<tag k="name" v="Skrømtehaugen" />
		<tag k="natural" v="hill" />
>>>>>>> e1d4bc35ff8a6074a6f2e91616a996b547c36f15
		<tag k="place" v="locality" />
		<tag k="ssr:stedsnr" v="57893" />
	</node>
<<<<<<< HEAD
	<node lat="60.332161115122766" lon="11.115422226736454" id="-13702">
		<tag k="name" v="Sebergsletta" />
		<tag k="place" v="locality" />
		<tag k="ssr:stedsnr" v="57997" />
	</node>
	<node lat="60.38095277667482" lon="11.39813889466334" id="-13711">
		<tag k="name" v="Ormberget" />
		<tag k="natural" v="cliff" />
		<tag k="ssr:stedsnr" v="58851" />
	</node>
	<node lat="60.32510555917123" lon="11.156063894384268" id="-13714">
=======
	<node id="-264602" lat="60.3773750033" lon="11.4023194488">
		<tag k="fixme" v="consider natural=peak for the most distinct mountains in the district" />
		<tag k="name" v="Garpen" />
		<tag k="natural" v="hill" />
		<tag k="place" v="locality" />
		<tag k="ssr:stedsnr" v="444997" />
	</node>
	<node id="-264785" lat="60.2921499959" lon="11.2074888817">
		<tag k="name" v="Bønsbakken" />
		<tag k="natural" v="slope" />
		<tag k="place" v="locality" />
		<tag k="ssr:stedsnr" v="665719" />
	</node>
	<node id="-264461" lat="60.4685472184" lon="11.2890861131">
		<tag k="name" v="Sjølia" />
		<tag k="natural" v="slope" />
		<tag k="place" v="locality" />
		<tag k="ssr:stedsnr" v="240438" />
	</node>
	<node id="-265292" lat="60.2986999959" lon="11.3139166742">
>>>>>>> e1d4bc35ff8a6074a6f2e91616a996b547c36f15
		<tag k="fixme" v="consider natural=peak for the most distinct mountains in the district" />
		<tag k="name" v="Bjørkåsen" />
		<tag k="natural" v="hill" />
		<tag k="place" v="locality" />
		<tag k="ssr:stedsnr" v="59686" />
	</node>
<<<<<<< HEAD
	<node lat="60.2946250012557" lon="11.372825002235826" id="-13715">
=======
	<node id="-265291" lat="60.2946250013" lon="11.3728250022">
>>>>>>> e1d4bc35ff8a6074a6f2e91616a996b547c36f15
		<tag k="fixme" v="consider natural=peak for the most distinct mountains in the district" />
		<tag k="name" v="Steinsjøhøgda" />
		<tag k="natural" v="hill" />
		<tag k="place" v="locality" />
		<tag k="ssr:stedsnr" v="59687" />
	</node>
<<<<<<< HEAD
	<node lat="60.29869999590111" lon="11.313916674181465" id="-13716">
=======
	<node id="-265290" lat="60.3251055592" lon="11.1560638944">
>>>>>>> e1d4bc35ff8a6074a6f2e91616a996b547c36f15
		<tag k="fixme" v="consider natural=peak for the most distinct mountains in the district" />
		<tag k="name" v="Ormberget" />
		<tag k="natural" v="hill" />
		<tag k="place" v="locality" />
		<tag k="ssr:stedsnr" v="59692" />
	</node>
<<<<<<< HEAD
	<node lat="60.42318889171132" lon="11.187380562479305" id="-13738">
		<tag k="fixme" v="consider natural=peak for the most distinct mountains in the district" />
		<tag k="name" v="Byrudhøgda" />
		<tag k="natural" v="hill" />
=======
	<node id="-264776" lat="60.3442166707" lon="11.1057999988">
		<tag k="name" v="Høgfjelldalen" />
		<tag k="natural" v="valley" />
>>>>>>> e1d4bc35ff8a6074a6f2e91616a996b547c36f15
		<tag k="place" v="locality" />
		<tag k="ssr:stedsnr" v="67536" />
	</node>
<<<<<<< HEAD
	<node lat="60.45145000251227" lon="11.323525005366024" id="-13756">
		<tag k="name" v="Midtrøysholen" />
		<tag k="natural" v="hill" />
=======
	<node id="-264482" lat="60.3407333306" lon="11.1235777817">
		<tag k="name" v="Parisbrenna" />
		<tag k="natural" v="ridge" />
		<tag k="place" v="locality" />
		<tag k="ssr:stedsnr" v="67120" />
	</node>
	<node id="-265270" lat="60.3321611151" lon="11.1154222267">
		<tag k="name" v="Sebergsletta" />
>>>>>>> e1d4bc35ff8a6074a6f2e91616a996b547c36f15
		<tag k="place" v="locality" />
		<tag k="ssr:stedsnr" v="103558" />
	</node>
<<<<<<< HEAD
	<node lat="60.455774997305994" lon="11.31770278440109" id="-13780">
		<tag k="name" v="Vinkelmyrholen" />
		<tag k="natural" v="hill" />
=======
	<node id="-265780" lat="60.4803138868" lon="11.2768166616">
		<tag k="name" v="Brennhaugdalen" />
		<tag k="natural" v="valley" />
>>>>>>> e1d4bc35ff8a6074a6f2e91616a996b547c36f15
		<tag k="place" v="locality" />
		<tag k="ssr:stedsnr" v="119903" />
	</node>
<<<<<<< HEAD
	<node lat="60.36280277749641" lon="11.301249994456395" id="-13788">
		<tag k="name" v="Hestdalen" />
=======
	<node id="-265266" lat="60.3315583306" lon="11.1502916658">
		<tag k="name" v="Røydalen" />
>>>>>>> e1d4bc35ff8a6074a6f2e91616a996b547c36f15
		<tag k="natural" v="valley" />
		<tag k="place" v="locality" />
		<tag k="ssr:stedsnr" v="127076" />
	</node>
<<<<<<< HEAD
	<node lat="60.450038891331964" lon="11.141830553348019" id="-13817">
		<tag k="name" v="Tjuvknartrøet" />
		<tag k="natural" v="ridge" />
=======
	<node id="-264883" lat="60.4007888876" lon="11.3674416736">
		<tag k="name" v="Neverberget" />
		<tag k="natural" v="hill" />
		<tag k="place" v="locality" />
		<tag k="ssr:stedsnr" v="709884" />
	</node>
	<node id="-264750" lat="60.3771861124" lon="11.1475861026">
		<tag k="name" v="Kleivdalen" />
		<tag k="natural" v="valley" />
>>>>>>> e1d4bc35ff8a6074a6f2e91616a996b547c36f15
		<tag k="place" v="locality" />
		<tag k="ssr:stedsnr" v="163738" />
	</node>
<<<<<<< HEAD
	<node lat="60.396050003369275" lon="11.383291671987598" id="-13827">
		<tag k="fixme" v="consider natural=peak for the most distinct mountains in the district" />
		<tag k="name" v="Brandteberga" />
=======
	<node id="-265771" lat="60.4204166694" lon="11.1641888806">
		<tag k="fixme" v="consider natural=peak for the most distinct mountains in the district" />
		<tag k="name" v="Ryneskollen" />
		<tag k="natural" v="hill" />
		<tag k="place" v="locality" />
		<tag k="ssr:stedsnr" v="552568" />
	</node>
	<node id="-265256" lat="60.2776361119" lon="11.1219361184">
		<tag k="name" v="Karlsberget" />
>>>>>>> e1d4bc35ff8a6074a6f2e91616a996b547c36f15
		<tag k="natural" v="hill" />
		<tag k="place" v="locality" />
		<tag k="ssr:stedsnr" v="163887" />
	</node>
<<<<<<< HEAD
	<node lat="60.45881944424921" lon="11.160561111546391" id="-13862">
		<tag k="fixme" v="consider natural=peak for the most distinct mountains in the district" />
		<tag k="name" v="Årneskollen" />
=======
	<node id="-265767" lat="60.4729805523" lon="11.2776749952">
		<tag k="name" v="Botolfshøgda" />
>>>>>>> e1d4bc35ff8a6074a6f2e91616a996b547c36f15
		<tag k="natural" v="hill" />
		<tag k="place" v="locality" />
		<tag k="ssr:stedsnr" v="188468" />
	</node>
<<<<<<< HEAD
	<node lat="60.43036666773794" lon="11.173008330129578" id="-13880">
		<tag k="name" v="Svartlia" />
		<tag k="natural" v="slope" />
		<tag k="place" v="locality" />
		<tag k="ssr:stedsnr" v="224850" />
	</node>
	<node lat="60.33356944362329" lon="11.384150003499428" id="-13915">
=======
	<node id="-264731" lat="60.4645555595" lon="11.1623777782">
>>>>>>> e1d4bc35ff8a6074a6f2e91616a996b547c36f15
		<tag k="fixme" v="consider natural=peak for the most distinct mountains in the district" />
		<tag k="name" v="Tretjennshaugen" />
		<tag k="natural" v="hill" />
		<tag k="place" v="locality" />
		<tag k="ssr:stedsnr" v="309103" />
	</node>
<<<<<<< HEAD
	<node lat="60.3568694438168" lon="11.104241671155496" id="-13936">
		<tag k="fixme" v="consider natural=peak for the most distinct mountains in the district" />
		<tag k="name" v="Siggerudhaugen" />
=======
	<node id="-265238" lat="60.4493500008" lon="11.1276750054">
		<tag k="alt_name" v="Prestbråtaberget" />
		<tag k="name" v="Prestbråteberget" />
>>>>>>> e1d4bc35ff8a6074a6f2e91616a996b547c36f15
		<tag k="natural" v="hill" />
		<tag k="place" v="locality" />
		<tag k="ssr:stedsnr" v="343223" />
	</node>
<<<<<<< HEAD
	<node lat="60.29542777999975" lon="11.15830555591185" id="-13943">
		<tag k="name" v="Trollhaugen" />
=======
	<node id="-265236" lat="60.4556805578" lon="11.1551500073">
		<tag k="fixme" v="consider natural=peak for the most distinct mountains in the district" />
		<tag k="name" v="Knarten" />
>>>>>>> e1d4bc35ff8a6074a6f2e91616a996b547c36f15
		<tag k="natural" v="hill" />
		<tag k="place" v="locality" />
		<tag k="ssr:stedsnr" v="345494" />
	</node>
<<<<<<< HEAD
	<node lat="60.322033336927134" lon="11.159391662088456" id="-13983">
		<tag k="fixme" v="consider natural=peak for the most distinct mountains in the district" />
		<tag k="name" v="Vernerberget" />
=======
	<node id="-265744" lat="60.3739527768" lon="11.1574777753">
		<tag k="name" v="Mistberget" />
>>>>>>> e1d4bc35ff8a6074a6f2e91616a996b547c36f15
		<tag k="natural" v="hill" />
		<tag k="place" v="locality" />
		<tag k="ssr:stedsnr" v="362748" />
	</node>
<<<<<<< HEAD
	<node lat="60.43066111019023" lon="11.138719447063528" id="-13993">
=======
	<node id="-265230" lat="60.4847666709" lon="11.2746305625">
>>>>>>> e1d4bc35ff8a6074a6f2e91616a996b547c36f15
		<tag k="fixme" v="consider natural=peak for the most distinct mountains in the district" />
		<tag k="name" v="Dølafjellet" />
		<tag k="natural" v="hill" />
		<tag k="place" v="locality" />
		<tag k="ssr:stedsnr" v="370499" />
	</node>
<<<<<<< HEAD
	<node lat="60.364352773859" lon="11.287958327515856" id="-14005">
		<tag k="name" v="Skarpen" />
		<tag k="natural" v="hill" />
		<tag k="place" v="locality" />
		<tag k="ssr:stedsnr" v="370097" />
	</node>
	<node lat="60.26758610695029" lon="11.181241660316818" id="-14012">
		<tag k="name" v="Råholtsmoen" />
		<tag k="place" v="locality" />
		<tag k="ssr:stedsnr" v="370234" />
	</node>
	<node lat="60.518377781751575" lon="11.135788881017787" id="-14020">
		<tag k="fixme" v="consider natural=peak for the most distinct mountains in the district" />
		<tag k="name" v="Pipfjellet" />
		<tag k="natural" v="hill" />
		<tag k="place" v="locality" />
		<tag k="ssr:stedsnr" v="370540" />
	</node>
	<node lat="60.351669446296334" lon="11.172300000194731" id="-14024">
		<tag k="name" v="Revhaugen" />
		<tag k="natural" v="hill" />
		<tag k="place" v="locality" />
		<tag k="ssr:stedsnr" v="404199" />
	</node>
	<node lat="60.48229166378356" lon="11.251716663942368" id="-14055">
		<tag k="name" v="Ulvinlia" />
		<tag k="natural" v="slope" />
		<tag k="place" v="locality" />
		<tag k="ssr:stedsnr" v="423273" />
	</node>
	<node lat="60.377186112390525" lon="11.147586102586546" id="-14062">
		<tag k="name" v="Kleivdalen" />
		<tag k="natural" v="valley" />
		<tag k="place" v="locality" />
		<tag k="ssr:stedsnr" v="431038" />
	</node>
	<node lat="60.30556111146792" lon="11.129866666723752" id="-14068">
		<tag k="fixme" v="consider natural=peak for the most distinct mountains in the district" />
		<tag k="name" v="Staviåsen" />
		<tag k="natural" v="hill" />
		<tag k="place" v="locality" />
		<tag k="ssr:stedsnr" v="431161" />
	</node>
	<node lat="60.48705277680006" lon="11.26526945213325" id="-14074">
		<tag k="fixme" v="consider natural=peak for the most distinct mountains in the district" />
		<tag k="name" v="Mohue" />
		<tag k="natural" v="hill" />
		<tag k="place" v="locality" />
		<tag k="ssr:stedsnr" v="431433" />
	</node>
	<node lat="60.52684721925533" lon="11.157163885199129" id="-14083">
		<tag k="fixme" v="consider natural=peak for the most distinct mountains in the district" />
		<tag k="name" v="Stefferudkollen" />
		<tag k="natural" v="hill" />
		<tag k="place" v="locality" />
		<tag k="ssr:stedsnr" v="432458" />
	</node>
	<node lat="60.37737500330124" lon="11.402319448790108" id="-14086">
		<tag k="fixme" v="consider natural=peak for the most distinct mountains in the district" />
		<tag k="name" v="Garpen" />
		<tag k="natural" v="hill" />
		<tag k="place" v="locality" />
		<tag k="ssr:stedsnr" v="444997" />
	</node>
	<node lat="60.464555559457295" lon="11.162377778226453" id="-14087">
		<tag k="fixme" v="consider natural=peak for the most distinct mountains in the district" />
		<tag k="name" v="Liumskollen" />
		<tag k="natural" v="hill" />
		<tag k="place" v="locality" />
		<tag k="ssr:stedsnr" v="505980" />
	</node>
	<node lat="60.54729999608563" lon="11.126958340297909" id="-14094">
		<tag k="fixme" v="consider natural=peak for the most distinct mountains in the district" />
		<tag k="name" v="Langtjennåsen" />
		<tag k="natural" v="hill" />
		<tag k="place" v="locality" />
		<tag k="ssr:stedsnr" v="526978" />
	</node>
	<node lat="60.29302777876715" lon="11.1450638874117" id="-14101">
		<tag k="name" v="Revhaugen" />
		<tag k="natural" v="hill" />
		<tag k="place" v="locality" />
		<tag k="ssr:stedsnr" v="527553" />
	</node>
	<node lat="60.477483337723456" lon="11.10324167321014" id="-14103">
		<tag k="name" v="Ospedalen" />
		<tag k="natural" v="valley" />
		<tag k="place" v="locality" />
		<tag k="ssr:stedsnr" v="527563" />
	</node>
	<node lat="60.384680552455364" lon="11.141655558759702" id="-14114">
		<tag k="name" v="Koiedalen" />
		<tag k="natural" v="valley" />
		<tag k="place" v="locality" />
		<tag k="ssr:stedsnr" v="540993" />
	</node>
	<node lat="60.47298055234769" lon="11.277674995171505" id="-14149">
		<tag k="name" v="Botolfshøgda" />
		<tag k="natural" v="hill" />
		<tag k="place" v="locality" />
		<tag k="ssr:stedsnr" v="552475" />
	</node>
	<node lat="60.4204166694212" lon="11.164188880613269" id="-14152">
		<tag k="fixme" v="consider natural=peak for the most distinct mountains in the district" />
		<tag k="name" v="Ryneskollen" />
		<tag k="natural" v="hill" />
		<tag k="place" v="locality" />
		<tag k="ssr:stedsnr" v="552568" />
	</node>
	<node lat="60.48031388679427" lon="11.27681666163874" id="-14157">
		<tag k="name" v="Brennhaugdalen" />
		<tag k="natural" v="valley" />
		<tag k="place" v="locality" />
		<tag k="ssr:stedsnr" v="585214" />
	</node>
	<node lat="60.26475555538645" lon="11.144280549473145" id="-14186">
		<tag k="name" v="Borkhyttedalen" />
		<tag k="natural" v="valley" />
		<tag k="place" v="locality" />
		<tag k="ssr:stedsnr" v="600772" />
	</node>
	<node lat="60.46545278187059" lon="11.28101110831727" id="-14195">
		<tag k="name" v="Navneberget" />
		<tag k="natural" v="hill" />
		<tag k="place" v="locality" />
		<tag k="ssr:stedsnr" v="603383" />
	</node>
	<node lat="60.56773333693181" lon="11.149872215688442" id="-14235">
		<tag k="fixme" v="consider natural=peak for the most distinct mountains in the district" />
		<tag k="name" v="Skreikampen" />
		<tag k="natural" v="hill" />
		<tag k="place" v="locality" />
		<tag k="ssr:stedsnr" v="614971" />
	</node>
	<node lat="60.474449997452" lon="11.101300004466545" id="-14245">
		<tag k="name" v="Høltjennlia" />
		<tag k="natural" v="slope" />
		<tag k="place" v="locality" />
		<tag k="ssr:stedsnr" v="648567" />
	</node>
	<node lat="60.404316662834404" lon="11.195166665208582" id="-14247">
		<tag k="name" v="Minnemoen" />
		<tag k="place" v="locality" />
		<tag k="ssr:stedsnr" v="648811" />
	</node>
	<node lat="60.39964444551757" lon="11.177186120240012" id="-14248">
		<tag k="name" v="Vinterdalen" />
		<tag k="natural" v="valley" />
		<tag k="place" v="locality" />
		<tag k="ssr:stedsnr" v="648819" />
	</node>
	<node lat="60.5088222262333" lon="11.08363334260887" id="-14267">
		<tag k="name" v="Almelia" />
		<tag k="natural" v="slope" />
		<tag k="place" v="locality" />
		<tag k="ssr:stedsnr" v="664315" />
	</node>
	<node lat="60.292149995933094" lon="11.207488881707205" id="-14270">
		<tag k="name" v="Bønsbakken" />
		<tag k="natural" v="slope" />
		<tag k="place" v="locality" />
		<tag k="ssr:stedsnr" v="665719" />
	</node>
	<node lat="60.32347777486849" lon="11.166697225956572" id="-14272">
		<tag k="fixme" v="consider natural=peak for the most distinct mountains in the district" />
		<tag k="name" v="Høgfjellet" />
		<tag k="natural" v="hill" />
		<tag k="place" v="locality" />
		<tag k="ssr:stedsnr" v="665766" />
	</node>
	<node lat="60.38312221790866" lon="11.21380833595858" id="-14287">
		<tag k="name" v="Bergermoen" />
		<tag k="place" v="locality" />
		<tag k="ssr:stedsnr" v="723963" />
	</node>
	<node lat="60.48276388805087" lon="11.261349995004107" id="-14314">
		<tag k="name" v="Storsveberget" />
		<tag k="natural" v="hill" />
		<tag k="place" v="locality" />
		<tag k="ssr:stedsnr" v="734431" />
	</node>
	<node lat="60.3826749958942" lon="11.32458610858813" id="-14319">
		<tag k="name" v="Godlidalen" />
		<tag k="natural" v="valley" />
		<tag k="place" v="locality" />
		<tag k="ssr:stedsnr" v="748999" />
	</node>
	<node lat="60.351158331939125" lon="11.286997230380775" id="-14392">
		<tag k="name" v="Hemliåsen" />
		<tag k="natural" v="hill" />
		<tag k="place" v="locality" />
		<tag k="ssr:stedsnr" v="829061" />
	</node>
	<node lat="60.27525833742473" lon="11.205588892312596" id="-14419">
		<tag k="name" v="Ridderhaugen" />
		<tag k="natural" v="hill" />
		<tag k="place" v="locality" />
		<tag k="ssr:stedsnr" v="848948" />
	</node>
	<node lat="60.4682750001587" lon="11.282899999123996" id="-14433">
		<tag k="fixme" v="multiple name tags, choose one and add the other to alt_name; consider natural=peak for the most distinct mountains in the district" />
		<tag k="name" v="Brenna;Ulvinbrenna" />
		<tag k="natural" v="hill" />
		<tag k="place" v="locality" />
		<tag k="ssr:stedsnr" v="856466" />
	</node>
	<node lat="60.29345555542917" lon="11.263836114020215" id="-14438">
		<tag k="alt_name" v="Strandsåsen" />
		<tag k="fixme" v="consider natural=peak for the most distinct mountains in the district" />
		<tag k="name" v="Strandåsen" />
		<tag k="natural" v="hill" />
		<tag k="place" v="locality" />
		<tag k="ssr:stedsnr" v="856180" />
	</node>
	<node lat="60.4469638881953" lon="11.339274992101382" id="-14446">
		<tag k="name" v="Harpeholen" />
		<tag k="natural" v="hill" />
		<tag k="place" v="locality" />
		<tag k="ssr:stedsnr" v="952538" />
	</node>
	<node lat="60.41813610752574" lon="11.266122221846372" id="-14449">
		<tag k="fixme" v="consider natural=peak for the most distinct mountains in the district" />
		<tag k="name" v="Rugdetoppen" />
		<tag k="natural" v="hill" />
		<tag k="place" v="locality" />
		<tag k="ssr:stedsnr" v="952693" />
	</node>
	<node lat="60.32360277833377" lon="11.136113891316176" id="-14459">
		<tag k="name" v="Badstubråtabakken" />
		<tag k="natural" v="slope" />
		<tag k="place" v="locality" />
		<tag k="ssr:stedsnr" v="967456" />
=======
	<node id="-264787" lat="60.3234777749" lon="11.166697226">
		<tag k="fixme" v="consider natural=peak for the most distinct mountains in the district" />
		<tag k="name" v="Høgfjellet" />
		<tag k="natural" v="hill" />
		<tag k="place" v="locality" />
		<tag k="ssr:stedsnr" v="665766" />
	</node>
	<node id="-265899" lat="60.3996444455" lon="11.1771861202">
		<tag k="name" v="Vinterdalen" />
		<tag k="natural" v="valley" />
		<tag k="place" v="locality" />
		<tag k="ssr:stedsnr" v="648819" />
>>>>>>> e1d4bc35ff8a6074a6f2e91616a996b547c36f15
	</node>
</osm>
