<?xml version="1.0" encoding="UTF-8"?>
<osm version="0.6" generator="osmapis">
	<node lat="60.36241667017831" lon="11.109566667516903" id="-13631">
		<tag k="bridge" v="yes" />
		<tag k="layer" v="1" />
		<tag k="name" v="Østerudkloppa" />
		<tag k="ssr:stedsnr" v="40260" />
	</node>
	<node lat="60.26452777479634" lon="11.119369446659306" id="-13637">
		<tag k="highway" v="path" />
		<tag k="name" v="Vestre Nannestadvegen" />
		<tag k="ssr:stedsnr" v="237765" />
	</node>
	<node lat="60.44450833635959" lon="11.194536106505963" id="-13638">
		<tag k="bridge" v="yes" />
		<tag k="layer" v="1" />
		<tag k="name" v="Engebekk" />
		<tag k="ssr:stedsnr" v="46805" />
	</node>
	<node lat="60.29684166539428" lon="11.18992500778485" id="-13661">
		<tag k="landuse" v="industrial" />
		<tag k="name" v="Mago C" />
		<tag k="power" v="plant" />
		<tag k="ssr:stedsnr" v="59672" />
	</node>
	<node lat="60.40281110990935" lon="11.2363500050037" id="-13720">
		<tag k="bridge" v="yes" />
		<tag k="layer" v="1" />
		<tag k="name" v="Dorrbrua" />
		<tag k="ssr:stedsnr" v="107805" />
	</node>
	<node lat="60.301875004393594" lon="11.171672222285727" id="-13761">
		<tag k="landuse" v="industrial" />
		<tag k="name" v="Mago B" />
		<tag k="power" v="plant" />
		<tag k="ssr:stedsnr" v="163568" />
	</node>
	<node lat="60.29220000201774" lon="11.213072218533302" id="-13766">
		<tag k="bridge" v="yes" />
		<tag k="layer" v="1" />
		<tag k="name" v="Bøn" />
		<tag k="ssr:stedsnr" v="167806" />
	</node>
	<node lat="60.31913333781368" lon="11.193058333302817" id="-13767">
		<tag k="alt_name" v="Brensmork" />
		<tag k="bridge" v="yes" />
		<tag k="layer" v="1" />
		<tag k="name" v="Brennsmork" />
		<tag k="ssr:stedsnr" v="167811" />
	</node>
	<node lat="60.257830557010195" lon="11.183438880295379" id="-13768">
		<tag k="bridge" v="yes" />
		<tag k="layer" v="1" />
		<tag k="name" v="Ladderud" />
		<tag k="ssr:stedsnr" v="167857" />
	</node>
	<node lat="60.355105556517486" lon="11.190569437939711" id="-13807">
		<tag k="junction" v="yes" />
		<tag k="name" v="Oppsaleid" />
		<tag k="place" v="locality" />
		<tag k="ssr:stedsnr" v="222181" />
	</node>
	<node lat="60.56586389323146" lon="11.10889167391531" id="-13808">
		<tag k="highway" v="path" />
		<tag k="name" v="Nysetervegen" />
		<tag k="ssr:stedsnr" v="222984" />
	</node>
	<node lat="60.300222225897905" lon="11.167513897298509" id="-13818">
		<tag k="bridge" v="yes" />
		<tag k="layer" v="1" />
		<tag k="name" v="Andelv" />
		<tag k="ssr:stedsnr" v="228829" />
	</node>
	<node lat="60.34930277727492" lon="11.208841671437957" id="-13858">
		<tag k="bridge" v="yes" />
		<tag k="layer" v="1" />
		<tag k="name" v="Langveg" />
		<tag k="ssr:stedsnr" v="289889" />
	</node>
	<node lat="60.460072219205365" lon="11.242166665897916" id="-13911">
		<tag k="bridge" v="yes" />
		<tag k="layer" v="1" />
		<tag k="name" v="Brøhaug" />
		<tag k="ssr:stedsnr" v="471798" />
	</node>
	<node lat="60.49384444772134" lon="11.23650555724687" id="-13912">
		<tag k="bridge" v="yes" />
		<tag k="layer" v="1" />
		<tag k="name" v="Skrårud" />
		<tag k="ssr:stedsnr" v="471835" />
	</node>
	<node lat="60.282413889388344" lon="11.141141673188836" id="-13913">
		<tag k="bridge" v="yes" />
		<tag k="layer" v="1" />
		<tag k="name" v="Sundbyvegen" />
		<tag k="ssr:stedsnr" v="471837" />
	</node>
	<node lat="60.28824444374036" lon="11.170455563406916" id="-13914">
		<tag k="bridge" v="yes" />
		<tag k="layer" v="1" />
		<tag k="name" v="Trondheimsveien" />
		<tag k="ssr:stedsnr" v="471839" />
	</node>
	<node lat="60.29872222380734" lon="11.192558329287094" id="-13915">
		<tag k="bridge" v="yes" />
		<tag k="layer" v="1" />
		<tag k="name" v="Nygårdsveien" />
		<tag k="ssr:stedsnr" v="471843" />
	</node>
	<node lat="60.588488891665335" lon="11.145313893573581" id="-13916">
		<tag k="bridge" v="yes" />
		<tag k="layer" v="1" />
		<tag k="name" v="Skomakerbekk" />
		<tag k="ssr:stedsnr" v="471848" />
	</node>
	<node lat="60.3202027773159" lon="11.258144445518276" id="-13929">
		<tag k="bridge" v="yes" />
		<tag k="layer" v="1" />
		<tag k="name" v="Bårlidalen" />
		<tag k="ssr:stedsnr" v="349813" />
	</node>
	<node lat="60.32071666703227" lon="11.25808054997901" id="-13955">
		<tag k="landuse" v="industrial" />
		<tag k="name" v="Mago D" />
		<tag k="power" v="plant" />
		<tag k="ssr:stedsnr" v="482499" />
	</node>
	<node lat="60.46414999883803" lon="11.243988888456345" id="-13967">
		<tag k="bridge" v="yes" />
		<tag k="layer" v="1" />
		<tag k="name" v="Hellum" />
		<tag k="ssr:stedsnr" v="410845" />
	</node>
	<node lat="60.30166388803849" lon="11.17797499344481" id="-14031">
		<tag k="landuse" v="industrial" />
		<tag k="name" v="Mago A" />
		<tag k="power" v="plant" />
		<tag k="ssr:stedsnr" v="466621" />
	</node>
	<node lat="60.35516666622274" lon="11.342666673663265" id="-14073">
		<tag k="bridge" v="yes" />
		<tag k="layer" v="1" />
		<tag k="name" v="Aspeli" />
		<tag k="ssr:stedsnr" v="531820" />
	</node>
	<node lat="60.31360277532904" lon="11.145341668849579" id="-14074">
		<tag k="bridge" v="yes" />
		<tag k="layer" v="1" />
		<tag k="name" v="Østsidevegen" />
		<tag k="ssr:stedsnr" v="531851" />
	</node>
	<node lat="60.28779166910385" lon="11.169416666364784" id="-14075">
		<tag k="name" v="Eidsvoll verk holdeplass" />
		<tag k="railway" v="halt" />
		<tag k="ssr:stedsnr" v="535103" />
		<tag k="train" v="yes" />
	</node>
	<node lat="60.42640277391645" lon="11.285922223007656" id="-14122">
		<tag k="ford" v="yes" />
		<tag k="name" v="Ørbekkvad" />
		<tag k="place" v="locality" />
		<tag k="ssr:stedsnr" v="588709" />
	</node>
	<node lat="60.37533701321376" lon="11.12440701289624" id="-14216">
		<tag k="highway" v="path" />
		<tag k="name" v="Midtvegen" />
		<tag k="ssr:stedsnr" v="890838" />
	</node>
	<node lat="60.33156111193923" lon="11.190049999655136" id="-14246">
		<tag k="bridge" v="yes" />
		<tag k="layer" v="1" />
		<tag k="name" v="Bogsrud" />
		<tag k="ssr:stedsnr" v="714787" />
	</node>
	<node lat="60.32921111136418" lon="11.188041657840053" id="-14247">
		<tag k="bridge" v="yes" />
		<tag k="layer" v="1" />
		<tag k="name" v="Bogsrudveien" />
		<tag k="ssr:stedsnr" v="714788" />
	</node>
	<node lat="60.38489166705637" lon="11.195674996001424" id="-14248">
		<tag k="bridge" v="yes" />
		<tag k="layer" v="1" />
		<tag k="name" v="Stensby" />
		<tag k="ssr:stedsnr" v="714823" />
	</node>
	<node lat="60.471774995733924" lon="11.171127779846255" id="-14249">
		<tag k="bridge" v="yes" />
		<tag k="layer" v="1" />
		<tag k="name" v="Trillerud" />
		<tag k="ssr:stedsnr" v="714830" />
	</node>
	<node lat="60.426019441723454" lon="11.241066669503835" id="-14299">
		<tag k="bridge" v="yes" />
		<tag k="layer" v="1" />
		<tag k="name" v="Ørbekk" />
		<tag k="ssr:stedsnr" v="228854" />
	</node>
	<node lat="60.38351944118467" lon="11.265527769163128" id="-14300">
		<tag k="bridge" v="yes" />
		<tag k="layer" v="1" />
		<tag k="name" v="Holt" />
		<tag k="ssr:stedsnr" v="228868" />
	</node>
	<node lat="60.441580557590925" lon="11.2417777831475" id="-14301">
		<tag k="bridge" v="yes" />
		<tag k="layer" v="1" />
		<tag k="name" v="Korslund" />
		<tag k="ssr:stedsnr" v="228872" />
	</node>
	<node lat="60.28779444379293" lon="11.214016673659552" id="-14335">
		<tag k="bridge" v="yes" />
		<tag k="layer" v="1" />
		<tag k="name" v="Risheim" />
		<tag k="ssr:stedsnr" v="774856" />
	</node>
	<node lat="60.3741138861406" lon="11.20671667316971" id="-14336">
		<tag k="bridge" v="yes" />
		<tag k="layer" v="1" />
		<tag k="name" v="Julsrud" />
		<tag k="ssr:stedsnr" v="774862" />
	</node>
	<node lat="60.33081944065619" lon="11.121349999328167" id="-14348">
		<tag k="fixme" v="verify maritime location" />
		<tag k="mooring" v="yes" />
		<tag k="name" v="Bønseterstøa" />
		<tag k="place" v="locality" />
		<tag k="ssr:stedsnr" v="785998" />
	</node>
	<node lat="60.413741664917744" lon="11.241447224197826" id="-14458">
		<tag k="bridge" v="yes" />
		<tag k="layer" v="1" />
		<tag k="name" v="Langsetenga" />
		<tag k="ssr:stedsnr" v="896867" />
	</node>
	<node lat="60.30590555909326" lon="11.206069452465103" id="-14459">
		<tag k="bridge" v="yes" />
		<tag k="layer" v="1" />
		<tag k="name" v="Nessfossen" />
		<tag k="ssr:stedsnr" v="896870" />
	</node>
	<node lat="60.246644445015114" lon="11.182047227834364" id="-14470">
		<tag k="bridge" v="yes" />
		<tag k="layer" v="1" />
		<tag k="name" v="Fjelberg" />
		<tag k="ssr:stedsnr" v="228820" />
	</node>
	<node lat="60.35741111212931" lon="11.205719439258349" id="-14499">
		<tag k="bridge" v="yes" />
		<tag k="layer" v="1" />
		<tag k="name" v="Fjellhamar" />
		<tag k="ssr:stedsnr" v="956798" />
	</node>
	<node lat="60.32659166686186" lon="11.252027780869168" id="-14500">
		<tag k="bridge" v="yes" />
		<tag k="layer" v="1" />
		<tag k="name" v="Eidsvoll" />
		<tag k="ssr:stedsnr" v="956801" />
	</node>
	<node lat="60.33419722524259" lon="11.321738883019755" id="-14502">
		<tag k="fixme" v="consider highway=path" />
		<tag k="highway" v="track" />
		<tag k="name" v="Gamle Gullverksvegen" />
		<tag k="ssr:stedsnr" v="969385" />
	</node>
	<node lat="60.284147217917244" lon="11.137949995999826" id="-14508">
		<tag k="bridge" v="yes" />
		<tag k="layer" v="1" />
		<tag k="name" v="Andelva syd" />
		<tag k="ssr:stedsnr" v="228826" />
	</node>
	<node lat="60.32969444208682" lon="11.247686119035198" id="-14522">
		<tag k="alt_name" v="Eidsvoll" />
		<tag k="name" v="Eidsvoll stasjon" />
		<tag k="railway" v="station" />
		<tag k="ssr:stedsnr" v="6133" />
		<tag k="train" v="yes" />
	</node>
	<node lat="60.41791389019872" lon="11.24113054675537" id="-14535">
		<tag k="bridge" v="yes" />
		<tag k="layer" v="1" />
		<tag k="name" v="Saltkleiva" />
		<tag k="ssr:stedsnr" v="46852" />
	</node>
	<node lat="60.372433334460425" lon="11.202611115812742" id="-14618">
		<tag k="bridge" v="yes" />
		<tag k="layer" v="1" />
		<tag k="name" v="Tømte" />
		<tag k="ssr:stedsnr" v="107845" />
	</node>
	<node lat="60.28220833044202" lon="11.174366673979234" id="-14619">
		<tag k="bridge" v="yes" />
		<tag k="layer" v="1" />
		<tag k="name" v="Råholt" />
		<tag k="ssr:stedsnr" v="107851" />
	</node>
	<node lat="60.32856666807428" lon="11.20417777947154" id="-14620">
		<tag k="bridge" v="yes" />
		<tag k="layer" v="1" />
		<tag k="name" v="Garmo" />
		<tag k="ssr:stedsnr" v="107856" />
	</node>
	<node lat="60.33551388455912" lon="11.32981944522709" id="-14621">
		<tag k="bridge" v="yes" />
		<tag k="layer" v="1" />
		<tag k="name" v="Jønsjø" />
		<tag k="ssr:stedsnr" v="107858" />
	</node>
	<node lat="60.57051110847296" lon="11.165266670932414" id="-14622">
		<tag k="bridge" v="yes" />
		<tag k="layer" v="1" />
		<tag k="name" v="Kunstmesterdal" />
		<tag k="ssr:stedsnr" v="107863" />
	</node>
	<node lat="60.287213892882" lon="11.168366660239107" id="-14687">
		<tag k="bridge" v="yes" />
		<tag k="layer" v="1" />
		<tag k="name" v="Sagmoveien" />
		<tag k="ssr:stedsnr" v="167850" />
	</node>
	<node lat="60.253738891443554" lon="11.199055559367753" id="-14757">
		<tag k="bridge" v="yes" />
		<tag k="layer" v="1" />
		<tag k="name" v="Dal" />
		<tag k="ssr:stedsnr" v="289840" />
	</node>
	<node lat="60.45535555331251" lon="11.239399997860744" id="-14812">
		<tag k="bridge" v="yes" />
		<tag k="layer" v="1" />
		<tag k="name" v="Splitten" />
		<tag k="ssr:stedsnr" v="349857" />
	</node>
	<node lat="60.274972221330266" lon="11.179033329081678" id="-14813">
		<tag k="bridge" v="yes" />
		<tag k="layer" v="1" />
		<tag k="name" v="Råholt kirke" />
		<tag k="ssr:stedsnr" v="349866" />
	</node>
	<node lat="60.59396944224621" lon="11.136436103467918" id="-14814">
		<tag k="bridge" v="yes" />
		<tag k="layer" v="1" />
		<tag k="name" v="Rennedal" />
		<tag k="ssr:stedsnr" v="349869" />
	</node>
	<node lat="60.31939444358284" lon="11.15748888790243" id="-14815">
		<tag k="bridge" v="yes" />
		<tag k="layer" v="1" />
		<tag k="name" v="Holmjordet" />
		<tag k="ssr:stedsnr" v="349874" />
	</node>
	<node lat="60.35068888659264" lon="11.336150007198821" id="-14816">
		<tag k="bridge" v="yes" />
		<tag k="layer" v="1" />
		<tag k="name" v="Hoelseter" />
		<tag k="ssr:stedsnr" v="349876" />
	</node>
	<node lat="60.30821110948785" lon="11.307347231005943" id="-14832">
		<tag k="landuse" v="industrial" />
		<tag k="name" v="Fosserud" />
		<tag k="power" v="plant" />
		<tag k="ssr:stedsnr" v="361527" />
	</node>
	<node lat="60.32991110940978" lon="11.250347213243012" id="-14849">
		<tag k="man_made" v="quay" />
		<tag k="name" v="Skibladner brygge i Eidsvoll" />
		<tag k="place" v="locality" />
		<tag k="ssr:stedsnr" v="364590" />
	</node>
	<node lat="60.33758611479479" lon="11.384552771052649" id="-14886">
		<tag k="highway" v="path" />
		<tag k="name" v="Vognvegen" />
		<tag k="ssr:stedsnr" v="404245" />
	</node>
	<node lat="60.400405553207214" lon="11.23773611847106" id="-14897">
		<tag k="bridge" v="yes" />
		<tag k="layer" v="1" />
		<tag k="name" v="Minnesund" />
		<tag k="ssr:stedsnr" v="410833" />
	</node>
	<node lat="60.4908972261041" lon="11.236208342106568" id="-14898">
		<tag k="bridge" v="yes" />
		<tag k="layer" v="1" />
		<tag k="name" v="Skrårudstuen" />
		<tag k="ssr:stedsnr" v="410823" />
	</node>
	<node lat="60.57445000065022" lon="11.161913882315046" id="-14899">
		<tag k="bridge" v="yes" />
		<tag k="layer" v="1" />
		<tag k="name" v="Sleipheldal" />
		<tag k="ssr:stedsnr" v="410825" />
	</node>
	<node lat="60.522961110374894" lon="11.183169447887792" id="-14900">
		<tag k="bridge" v="yes" />
		<tag k="layer" v="1" />
		<tag k="name" v="Torgrundrud" />
		<tag k="ssr:stedsnr" v="410828" />
	</node>
	<node lat="60.49679999714895" lon="11.155544448526202" id="-14901">
		<tag k="bridge" v="yes" />
		<tag k="layer" v="1" />
		<tag k="name" v="Flesvik" />
		<tag k="ssr:stedsnr" v="410784" />
	</node>
	<node lat="60.248811113600624" lon="11.202600000835417" id="-14918">
		<tag k="alt_name" v="Dal" />
		<tag k="name" v="Dal stasjon" />
		<tag k="railway" v="station" />
		<tag k="ssr:stedsnr" v="430328" />
		<tag k="train" v="yes" />
	</node>
	<node lat="60.32983055439314" lon="11.189019437910328" id="-14965">
		<tag k="bridge" v="yes" />
		<tag k="layer" v="1" />
		<tag k="name" v="Bogsrudveien" />
		<tag k="ssr:stedsnr" v="531816" />
	</node>
	<node lat="60.32841388565097" lon="11.262497217795808" id="-14966">
		<tag k="bridge" v="yes" />
		<tag k="layer" v="1" />
		<tag k="name" v="Borkestampa" />
		<tag k="ssr:stedsnr" v="531817" />
	</node>
	<node lat="60.259230557979336" lon="11.185499999488611" id="-14967">
		<tag k="bridge" v="yes" />
		<tag k="layer" v="1" />
		<tag k="name" v="Vestbysvingen" />
		<tag k="ssr:stedsnr" v="531849" />
	</node>
	<node lat="60.270386109988664" lon="11.156874992570025" id="-14968">
		<tag k="bridge" v="yes" />
		<tag k="layer" v="1" />
		<tag k="name" v="Grevlingmyra" />
		<tag k="ssr:stedsnr" v="531858" />
	</node>
	<node lat="60.393513891388075" lon="11.221986110470676" id="-14969">
		<tag k="bridge" v="yes" />
		<tag k="layer" v="1" />
		<tag k="name" v="Fredheim" />
		<tag k="ssr:stedsnr" v="531861" />
	</node>
	<node lat="60.30579721994986" lon="11.300641668397075" id="-14970">
		<tag k="bridge" v="yes" />
		<tag k="layer" v="1" />
		<tag k="name" v="Jøndal" />
		<tag k="ssr:stedsnr" v="531866" />
	</node>
	<node lat="60.4219027809103" lon="11.240105560915108" id="-15038">
		<tag k="bridge" v="yes" />
		<tag k="layer" v="1" />
		<tag k="name" v="Støijordet" />
		<tag k="ssr:stedsnr" v="592880" />
	</node>
	<node lat="60.40674999747428" lon="11.151594450254692" id="-15039">
		<tag k="bridge" v="yes" />
		<tag k="layer" v="1" />
		<tag k="name" v="Breiå" />
		<tag k="ssr:stedsnr" v="592845" />
	</node>
	<node lat="60.32946110796579" lon="11.269988887690921" id="-15040">
		<tag k="bridge" v="yes" />
		<tag k="layer" v="1" />
		<tag k="name" v="Plassen" />
		<tag k="ssr:stedsnr" v="592887" />
	</node>
	<node lat="60.317133330216905" lon="11.151394437895808" id="-15041">
		<tag k="bridge" v="yes" />
		<tag k="layer" v="1" />
		<tag k="name" v="Klaseiemåsan" />
		<tag k="ssr:stedsnr" v="592896" />
	</node>
	<node lat="60.280249998056874" lon="11.242061115302207" id="-15110">
		<tag k="bridge" v="yes" />
		<tag k="layer" v="1" />
		<tag k="name" v="Finstadbekk" />
		<tag k="ssr:stedsnr" v="653804" />
	</node>
	<node lat="60.2877055546382" lon="11.133944445258177" id="-15111">
		<tag k="bridge" v="yes" />
		<tag k="layer" v="1" />
		<tag k="name" v="Andelva nord" />
		<tag k="ssr:stedsnr" v="653814" />
	</node>
	<node lat="60.33092778123368" lon="11.212861106852262" id="-15112">
		<tag k="bridge" v="yes" />
		<tag k="layer" v="1" />
		<tag k="name" v="Hammerstad" />
		<tag k="ssr:stedsnr" v="653856" />
	</node>
	<node lat="60.25947221822616" lon="11.175522221219095" id="-15134">
		<tag k="bridge" v="yes" />
		<tag k="layer" v="1" />
		<tag k="name" v="Fjellet" />
		<tag k="ssr:stedsnr" v="714771" />
	</node>
	<node lat="60.43904444172689" lon="11.240450002709716" id="-15135">
		<tag k="bridge" v="yes" />
		<tag k="layer" v="1" />
		<tag k="name" v="Dalsrud" />
		<tag k="ssr:stedsnr" v="714780" />
	</node>
	<node lat="60.360719445633" lon="11.209219446309879" id="-15136">
		<tag k="bridge" v="yes" />
		<tag k="layer" v="1" />
		<tag k="name" v="Bråten" />
		<tag k="old_name" v="Bråthen" />
		<tag k="ssr:stedsnr" v="714781" />
	</node>
	<node lat="60.24906944140683" lon="11.205780549597447" id="-15137">
		<tag k="bridge" v="yes" />
		<tag k="layer" v="1" />
		<tag k="name" v="Skytterseter" />
		<tag k="ssr:stedsnr" v="714822" />
	</node>
	<node lat="60.31991110732319" lon="11.16170554659481" id="-15138">
		<tag k="bridge" v="yes" />
		<tag k="layer" v="1" />
		<tag k="name" v="Nettsjøen" />
		<tag k="ssr:stedsnr" v="714836" />
	</node>
	<node lat="60.327419440792426" lon="11.24792777772408" id="-15139">
		<tag k="bridge" v="yes" />
		<tag k="layer" v="1" />
		<tag k="name" v="Holsevja" />
		<tag k="ssr:stedsnr" v="714840" />
	</node>
	<node lat="60.34589166976277" lon="11.161966669588178" id="-15146">
		<tag k="name" v="Vanggrinda" />
		<tag k="place" v="locality" />
		<tag k="ssr:stedsnr" v="724923" />
	</node>
	<node lat="60.4109944446544" lon="11.24249166503868" id="-15191">
		<tag k="bridge" v="yes" />
		<tag k="layer" v="1" />
		<tag k="name" v="Langset" />
		<tag k="ssr:stedsnr" v="774850" />
	</node>
	<node lat="60.47033888646852" lon="11.239741665496362" id="-15241">
		<tag k="alt_name" v="Morskogen" />
		<tag k="name" v="Morskogen stasjon" />
		<tag k="railway" v="station" />
		<tag k="ssr:stedsnr" v="795484" />
		<tag k="train" v="yes" />
	</node>
	<node lat="60.394080670285724" lon="11.220829852311788" id="-15260">
		<tag k="junction" v="yes" />
		<tag k="name" v="Fredheim" />
		<tag k="place" v="locality" />
		<tag k="ssr:stedsnr" v="831769" />
	</node>
	<node lat="60.29149166499131" lon="11.134238885650438" id="-15262">
		<tag k="bridge" v="yes" />
		<tag k="layer" v="1" />
		<tag k="name" v="Sunnaveien" />
		<tag k="ssr:stedsnr" v="835839" />
	</node>
</osm>
