<?xml version="1.0" encoding="UTF-8"?>
<<<<<<< HEAD
<osm version="0.6" generator="osmapis">
	<node lat="60.4558416704945" lon="11.164672221722839" id="-12776">
		<tag k="name" v="Kolltjennmyra" />
=======
<osm generator="osmapis" version="0.6">
	<node id="-265728" lat="60.2677027755" lon="11.2579694445">
		<tag k="name" v="Vardumsmarka" />
		<tag k="place" v="locality" />
		<tag k="ssr:stedsnr" v="544970" />
	</node>
	<node id="-265212" lat="60.3838333344" lon="11.3927777785">
		<tag k="name" v="Tretjennsmyra" />
		<tag k="natural" v="wetland" />
		<tag k="ssr:stedsnr" v="6044" />
	</node>
	<node id="-265721" lat="60.4917250018" lon="11.0873972291">
		<tag k="name" v="Almelimarka" />
		<tag k="place" v="locality" />
		<tag k="ssr:stedsnr" v="543417" />
	</node>
	<node id="-265714" lat="60.3352944485" lon="11.165686118">
		<tag k="name" v="Busmyra" />
		<tag k="natural" v="wetland" />
		<tag k="ssr:stedsnr" v="542882" />
	</node>
	<node id="-265200" lat="60.3254277762" lon="11.1532416667">
		<tag k="name" v="Svensmyra" />
		<tag k="natural" v="wetland" />
		<tag k="ssr:stedsnr" v="969705" />
	</node>
	<node id="-264686" lat="60.344719445" lon="11.2966972232">
		<tag k="name" v="Haukemyra" />
		<tag k="natural" v="wetland" />
		<tag k="ssr:stedsnr" v="491085" />
	</node>
	<node id="-264684" lat="60.4055361146" lon="11.3238083267">
		<tag k="name" v="Røysistormyrene" />
		<tag k="natural" v="wetland" />
		<tag k="ssr:stedsnr" v="345853" />
	</node>
	<node id="-265192" lat="60.401719445" lon="11.1445722291">
		<tag k="name" v="Doknesmarka" />
		<tag k="place" v="locality" />
		<tag k="ssr:stedsnr" v="952828" />
	</node>
	<node id="-265701" lat="60.4091722247" lon="11.3535416749">
		<tag k="name" v="Stokkelsbeita" />
		<tag k="place" v="locality" />
		<tag k="ssr:stedsnr" v="527860" />
	</node>
	<node id="-265700" lat="60.4296611136" lon="11.1788138943">
		<tag k="name" v="Berntmyra" />
		<tag k="natural" v="wetland" />
		<tag k="ssr:stedsnr" v="527848" />
	</node>
	<node id="-265691" lat="60.3689027805" lon="11.1127611061">
		<tag k="name" v="Langmyra" />
		<tag k="natural" v="wetland" />
		<tag k="ssr:stedsnr" v="525262" />
	</node>
	<node id="-265690" lat="60.3502861079" lon="11.1188249946">
		<tag k="name" v="Togmyra" />
		<tag k="natural" v="wetland" />
		<tag k="ssr:stedsnr" v="525261" />
	</node>
	<node id="-265465" lat="60.3144027812" lon="11.3643194401">
		<tag k="alt_name" v="Tretjennsmyra" />
		<tag k="name" v="Tretjennmyra" />
		<tag k="natural" v="wetland" />
		<tag k="ssr:stedsnr" v="188172" />
	</node>
	<node id="-265682" lat="60.437175004" lon="11.2929555547">
		<tag k="fixme" v="multiple name tags, choose one and add the other to alt_name" />
		<tag k="name" v="Dorrstormyra;Torvmyra" />
		<tag k="natural" v="wetland" />
		<tag k="ssr:stedsnr" v="431476" />
	</node>
	<node id="-265678" lat="60.2996972178" lon="11.3308194466">
		<tag k="name" v="Stormåsan" />
		<tag k="natural" v="wetland" />
		<tag k="ssr:stedsnr" v="431185" />
	</node>
	<node id="-265676" lat="60.2539305555" lon="11.1343277813">
		<tag k="name" v="Vekatomyra" />
		<tag k="natural" v="wetland" />
		<tag k="ssr:stedsnr" v="431245" />
	</node>
	<node id="-265155" lat="60.3519861135" lon="11.2097388811">
		<tag k="landuse" v="quarry" />
		<tag k="name" v="Langveggbruddet" />
		<tag k="ssr:stedsnr" v="950227" />
	</node>
	<node id="-265154" lat="60.3614416662" lon="11.1479833302">
		<tag k="name" v="Åsdammen" />
		<tag k="natural" v="wetland" />
		<tag k="ssr:stedsnr" v="950205" />
	</node>
	<node id="-265657" lat="60.3275361144" lon="11.3713361023">
		<tag k="name" v="Hatteråsmyra" />
		<tag k="natural" v="wetland" />
		<tag k="ssr:stedsnr" v="422526" />
	</node>
	<node id="-265656" lat="60.4767833346" lon="11.2833694424">
		<tag k="name" v="Haramyra" />
		<tag k="natural" v="wetland" />
		<tag k="ssr:stedsnr" v="422395" />
	</node>
	<node id="-265141" lat="60.2649555597" lon="11.1597527712">
		<tag k="name" v="Høgmåsan" />
		<tag k="natural" v="wetland" />
		<tag k="ssr:stedsnr" v="856203" />
	</node>
	<node id="-264628" lat="60.3543805534" lon="11.1121111123">
		<tag k="name" v="Karlstumyra" />
		<tag k="natural" v="wetland" />
		<tag k="ssr:stedsnr" v="465239" />
	</node>
	<node id="-264626" lat="60.3544250025" lon="11.127505559">
		<tag k="name" v="Merradalsmyra" />
		<tag k="natural" v="wetland" />
		<tag k="ssr:stedsnr" v="465193" />
	</node>
	<node id="-265643" lat="60.2596472202" lon="11.1722555549">
		<tag k="name" v="Langmåsan" />
		<tag k="natural" v="wetland" />
		<tag k="ssr:stedsnr" v="419767" />
	</node>
	<node id="-265121" lat="60.3155484272" lon="11.1531836226">
		<tag k="alt_name" v="Klauseiemåsan" />
		<tag k="name" v="Klaseiemåsan" />
		<tag k="natural" v="wetland" />
		<tag k="ssr:stedsnr" v="795178" />
	</node>
	<node id="-265622" lat="60.4330527739" lon="11.3477305529">
		<tag k="landuse" v="quarry" />
		<tag k="name" v="Brøstadgruva" />
		<tag k="ssr:stedsnr" v="383986" />
	</node>
	<node id="-264594" lat="60.2733166662" lon="11.1307722223">
		<tag k="name" v="Frankrikelund" />
		<tag k="place" v="locality" />
		<tag k="ssr:stedsnr" v="298754" />
	</node>
	<node id="-264591" lat="60.2636333371" lon="11.1503722188">
		<tag k="name" v="Borkhyttholen" />
		<tag k="place" v="locality" />
		<tag k="ssr:stedsnr" v="297785" />
	</node>
	<node id="-264580" lat="60.4404722252" lon="11.3282666723">
		<tag k="name" v="Brøstadvangmyra" />
		<tag k="natural" v="wetland" />
		<tag k="ssr:stedsnr" v="285543" />
	</node>
	<node id="-265089" lat="60.4098833345" lon="11.3382999986">
		<tag k="name" v="Skinnfellmyrene" />
		<tag k="natural" v="wetland" />
		<tag k="ssr:stedsnr" v="770862" />
	</node>
	<node id="-264574" lat="60.4336999975" lon="11.3605027742">
		<tag k="name" v="St. Thomas myr" />
		<tag k="natural" v="wetland" />
		<tag k="ssr:stedsnr" v="179273" />
	</node>
	<node id="-266099" lat="60.2678333325" lon="11.1384250025">
		<tag k="name" v="Titerudmyra" />
		<tag k="natural" v="wetland" />
		<tag k="ssr:stedsnr" v="965783" />
	</node>
	<node id="-266098" lat="60.2383055576" lon="11.2473638881">
		<tag k="name" v="Ålborgmyra" />
		<tag k="natural" v="wetland" />
		<tag k="ssr:stedsnr" v="965191" />
	</node>
	<node id="-265071" lat="60.2970861141" lon="11.3804222189">
		<tag k="name" v="Svinestein" />
		<tag k="natural" v="stone" />
		<tag k="ssr:stedsnr" v="908519" />
	</node>
	<node id="-264558" lat="60.4241361102" lon="11.1585138914">
		<tag k="name" v="Bamsemyra" />
>>>>>>> e1d4bc35ff8a6074a6f2e91616a996b547c36f15
		<tag k="natural" v="wetland" />
		<tag k="ssr:stedsnr" v="42705" />
	</node>
<<<<<<< HEAD
	<node lat="60.48126389248186" lon="11.26892222225453" id="-12835">
		<tag k="name" v="Rundmyra" />
=======
	<node id="-264557" lat="60.4229888896" lon="11.3264888912">
		<tag k="name" v="Merramyra" />
>>>>>>> e1d4bc35ff8a6074a6f2e91616a996b547c36f15
		<tag k="natural" v="wetland" />
		<tag k="ssr:stedsnr" v="100210" />
	</node>
<<<<<<< HEAD
	<node lat="60.360261106909476" lon="11.128683331526755" id="-12837">
		<tag k="name" v="Marihansmyr" />
=======
	<node id="-264556" lat="60.4170722215" lon="11.2732055633">
		<tag k="name" v="Flamyra" />
>>>>>>> e1d4bc35ff8a6074a6f2e91616a996b547c36f15
		<tag k="natural" v="wetland" />
		<tag k="ssr:stedsnr" v="101167" />
	</node>
<<<<<<< HEAD
	<node lat="60.35792499543258" lon="11.164847230870595" id="-12838">
		<tag k="name" v="Skurvefjellet" />
		<tag k="place" v="locality" />
		<tag k="ssr:stedsnr" v="101176" />
	</node>
	<node lat="60.259427773472694" lon="11.152788887403045" id="-12854">
		<tag k="name" v="Stormåsan" />
=======
	<node id="-266090" lat="60.4308388928" lon="11.2933749952">
		<tag k="name" v="Åsmyra" />
		<tag k="natural" v="wetland" />
		<tag k="ssr:stedsnr" v="952683" />
	</node>
	<node id="-265577" lat="60.4602083364" lon="11.3043722293">
		<tag k="name" v="Ovnsmyra" />
>>>>>>> e1d4bc35ff8a6074a6f2e91616a996b547c36f15
		<tag k="natural" v="wetland" />
		<tag k="ssr:stedsnr" v="249187" />
	</node>
<<<<<<< HEAD
	<node lat="60.27674444295402" lon="11.153330550966615" id="-12867">
		<tag k="name" v="Bekkedalsmyrene" />
=======
	<node id="-265576" lat="60.3312555585" lon="11.1711055568">
		<tag k="name" v="Blakkesrudmyra" />
>>>>>>> e1d4bc35ff8a6074a6f2e91616a996b547c36f15
		<tag k="natural" v="wetland" />
		<tag k="ssr:stedsnr" v="116802" />
	</node>
<<<<<<< HEAD
	<node lat="60.545755556938516" lon="11.105374992262044" id="-12897">
		<tag k="alt_name" v="Raumyra" />
		<tag k="name" v="Raudmyra" />
=======
	<node id="-265063" lat="60.2598944455" lon="11.1819777712">
		<tag k="name" v="Ladderudmyra" />
>>>>>>> e1d4bc35ff8a6074a6f2e91616a996b547c36f15
		<tag k="natural" v="wetland" />
		<tag k="ssr:stedsnr" v="161955" />
	</node>
<<<<<<< HEAD
	<node lat="60.30083888713376" lon="11.15965834185898" id="-12904">
		<tag k="name" v="Stavijordet" />
=======
	<node id="-265061" lat="60.331099996" lon="11.1447722292">
		<tag k="alt_name" v="Piro Sr" />
		<tag k="historic" v="shieling" />
		<tag k="name" v="Pirosetervangen" />
>>>>>>> e1d4bc35ff8a6074a6f2e91616a996b547c36f15
		<tag k="place" v="locality" />
		<tag k="ssr:stedsnr" v="163569" />
	</node>
<<<<<<< HEAD
	<node lat="60.41707222150946" lon="11.2732055633285" id="-12905">
		<tag k="name" v="Flamyra" />
=======
	<node id="-264548" lat="60.4462472245" lon="11.3456777771">
		<tag k="name" v="Langmyra" />
>>>>>>> e1d4bc35ff8a6074a6f2e91616a996b547c36f15
		<tag k="natural" v="wetland" />
		<tag k="ssr:stedsnr" v="163711" />
	</node>
<<<<<<< HEAD
	<node lat="60.42298888959691" lon="11.32648889116889" id="-12906">
		<tag k="name" v="Merramyra" />
=======
	<node id="-266083" lat="60.4552138931" lon="11.3224666742">
		<tag k="name" v="Vinkelmyra" />
>>>>>>> e1d4bc35ff8a6074a6f2e91616a996b547c36f15
		<tag k="natural" v="wetland" />
		<tag k="ssr:stedsnr" v="163721" />
	</node>
<<<<<<< HEAD
	<node lat="60.42413611024842" lon="11.15851389140667" id="-12907">
		<tag k="name" v="Bamsemyra" />
=======
	<node id="-265056" lat="60.2650999989" lon="11.2286805493">
		<tag k="name" v="Sundbymyra" />
>>>>>>> e1d4bc35ff8a6074a6f2e91616a996b547c36f15
		<tag k="natural" v="wetland" />
		<tag k="ssr:stedsnr" v="163875" />
	</node>
<<<<<<< HEAD
	<node lat="60.31440278122834" lon="11.364319440148618" id="-12934">
		<tag k="alt_name" v="Tretjennsmyra" />
		<tag k="name" v="Tretjennmyra" />
		<tag k="natural" v="wetland" />
		<tag k="ssr:stedsnr" v="188172" />
	</node>
	<node lat="60.43980555123613" lon="11.174258340278564" id="-12957">
		<tag k="name" v="Osperudmyra" />
=======
	<node id="-264542" lat="60.5457555569" lon="11.1053749923">
		<tag k="alt_name" v="Raumyra" />
		<tag k="name" v="Raudmyra" />
		<tag k="natural" v="wetland" />
		<tag k="ssr:stedsnr" v="161955" />
	</node>
	<node id="-265565" lat="60.275877774" lon="11.1138833356">
		<tag k="name" v="Gruekra" />
		<tag k="place" v="locality" />
		<tag k="ssr:stedsnr" v="358773" />
	</node>
	<node id="-265556" lat="60.4032222202" lon="11.1758638886">
		<tag k="landuse" v="meadow" />
		<tag k="name" v="Svenskerudløkka" />
		<tag k="ssr:stedsnr" v="345835" />
	</node>
	<node id="-266066" lat="60.3429250004" lon="11.3830499951">
		<tag k="name" v="Spyttmyra" />
>>>>>>> e1d4bc35ff8a6074a6f2e91616a996b547c36f15
		<tag k="natural" v="wetland" />
		<tag k="ssr:stedsnr" v="224734" />
	</node>
<<<<<<< HEAD
	<node lat="60.458669446474076" lon="11.341200004816658" id="-12972">
		<tag k="name" v="Stjernebeita" />
		<tag k="place" v="locality" />
		<tag k="ssr:stedsnr" v="240895" />
	</node>
	<node lat="60.45620277580421" lon="11.325272224265271" id="-12973">
		<tag k="name" v="Grønnsjømyra" />
=======
	<node id="-264522" lat="60.4295472226" lon="11.3665722173">
		<tag k="name" v="Bjønnmyra" />
		<tag k="natural" v="wetland" />
		<tag k="ssr:stedsnr" v="118244" />
	</node>
	<node id="-264520" lat="60.276744443" lon="11.153330551">
		<tag k="name" v="Bekkedalsmyrene" />
>>>>>>> e1d4bc35ff8a6074a6f2e91616a996b547c36f15
		<tag k="natural" v="wetland" />
		<tag k="ssr:stedsnr" v="240896" />
	</node>
<<<<<<< HEAD
	<node lat="60.31722500184385" lon="11.145130550959587" id="-12979">
		<tag k="name" v="Korneliusmyra" />
=======
	<node id="-265543" lat="60.3634361144" lon="11.1098333409">
		<tag k="name" v="Hjørnemyra" />
>>>>>>> e1d4bc35ff8a6074a6f2e91616a996b547c36f15
		<tag k="natural" v="wetland" />
		<tag k="ssr:stedsnr" v="241729" />
	</node>
<<<<<<< HEAD
	<node lat="60.23795555546826" lon="11.256319447328337" id="-12983">
		<tag k="alt_name" v="Ålborgsetra" />
		<tag k="historic" v="shieling" />
		<tag k="name" v="Ålborgseter" />
		<tag k="place" v="locality" />
		<tag k="ssr:stedsnr" v="248305" />
	</node>
	<node lat="60.2636333370609" lon="11.15037221875656" id="-13001">
		<tag k="name" v="Borkhyttholen" />
		<tag k="place" v="locality" />
		<tag k="ssr:stedsnr" v="297785" />
	</node>
	<node lat="60.354425002508364" lon="11.12750555901382" id="-13019">
		<tag k="name" v="Merradalsmyra" />
=======
	<node id="-264516" lat="60.4812638925" lon="11.2689222223">
		<tag k="name" v="Rundmyra" />
		<tag k="natural" v="wetland" />
		<tag k="ssr:stedsnr" v="100210" />
	</node>
	<node id="-266046" lat="60.3123277784" lon="11.3749249939">
		<tag k="name" v="Galgemyra" />
>>>>>>> e1d4bc35ff8a6074a6f2e91616a996b547c36f15
		<tag k="natural" v="wetland" />
		<tag k="ssr:stedsnr" v="465193" />
	</node>
<<<<<<< HEAD
	<node lat="60.3543805533654" lon="11.112111112324037" id="-13021">
		<tag k="name" v="Karlstumyra" />
=======
	<node id="-265020" lat="60.3351944421" lon="11.3927472277">
		<tag k="name" v="Gamlevangmyra" />
>>>>>>> e1d4bc35ff8a6074a6f2e91616a996b547c36f15
		<tag k="natural" v="wetland" />
		<tag k="ssr:stedsnr" v="465239" />
	</node>
<<<<<<< HEAD
	<node lat="60.32799444680172" lon="11.381950005865775" id="-13022">
		<tag k="name" v="Mårramyra" />
		<tag k="natural" v="wetland" />
		<tag k="ssr:stedsnr" v="465248" />
	</node>
	<node lat="60.42537777518228" lon="11.340713880092403" id="-13040">
=======
	<node id="-265531" lat="60.4253777752" lon="11.3407138801">
>>>>>>> e1d4bc35ff8a6074a6f2e91616a996b547c36f15
		<tag k="alt_name" v="Kjuklingtjennsmyr" />
		<tag k="name" v="Kyllingmyra" />
		<tag k="natural" v="wetland" />
		<tag k="ssr:stedsnr" v="310494" />
	</node>
<<<<<<< HEAD
	<node lat="60.48394167032748" lon="11.263311113038517" id="-13101">
		<tag k="name" v="Skillgardsmyra" />
=======
	<node id="-264505" lat="60.2594277735" lon="11.1527888874">
		<tag k="name" v="Stormåsan" />
>>>>>>> e1d4bc35ff8a6074a6f2e91616a996b547c36f15
		<tag k="natural" v="wetland" />
		<tag k="ssr:stedsnr" v="403224" />
	</node>
<<<<<<< HEAD
	<node lat="60.401955554689174" lon="11.31389166983381" id="-13107">
		<tag k="name" v="Ristjennmåsan" />
=======
	<node id="-266037" lat="60.337300002" lon="11.3247138963">
		<tag k="name" v="Torvstrømyra" />
>>>>>>> e1d4bc35ff8a6074a6f2e91616a996b547c36f15
		<tag k="natural" v="wetland" />
		<tag k="ssr:stedsnr" v="406874" />
	</node>
<<<<<<< HEAD
	<node lat="60.476783334555634" lon="11.283369442425617" id="-13114">
		<tag k="name" v="Haramyra" />
		<tag k="natural" v="wetland" />
		<tag k="ssr:stedsnr" v="422395" />
	</node>
	<node lat="60.32753611444103" lon="11.371336102317558" id="-13115">
		<tag k="name" v="Hatteråsmyra" />
=======
	<node id="-264494" lat="60.2379555555" lon="11.2563194473">
		<tag k="alt_name" v="Ålborgsetra" />
		<tag k="historic" v="shieling" />
		<tag k="name" v="Ålborgseter" />
		<tag k="place" v="locality" />
		<tag k="ssr:stedsnr" v="248305" />
	</node>
	<node id="-266026" lat="60.3989027765" lon="11.1437527751">
		<tag k="name" v="Doknesmyra" />
>>>>>>> e1d4bc35ff8a6074a6f2e91616a996b547c36f15
		<tag k="natural" v="wetland" />
		<tag k="ssr:stedsnr" v="422526" />
	</node>
<<<<<<< HEAD
	<node lat="60.25393055554311" lon="11.134327781259886" id="-13131">
		<tag k="name" v="Vekatomyra" />
=======
	<node id="-266024" lat="60.4534166691" lon="11.1136861139">
		<tag k="name" v="Puttmyrene" />
>>>>>>> e1d4bc35ff8a6074a6f2e91616a996b547c36f15
		<tag k="natural" v="wetland" />
		<tag k="ssr:stedsnr" v="431245" />
	</node>
<<<<<<< HEAD
	<node lat="60.39057499954519" lon="11.135924994640149" id="-13146">
		<tag k="name" v="Fugleputtmyra" />
=======
	<node id="-264479" lat="60.2776000029" lon="11.140908326">
		<tag k="name" v="Verkensmåsan" />
>>>>>>> e1d4bc35ff8a6074a6f2e91616a996b547c36f15
		<tag k="natural" v="wetland" />
		<tag k="ssr:stedsnr" v="673002" />
	</node>
<<<<<<< HEAD
	<node lat="60.355755557765335" lon="11.187222218142352" id="-13172">
		<tag k="name" v="Ringmyra" />
=======
	<node id="-266009" lat="60.3513305579" lon="11.1689416613">
		<tag k="name" v="Kulpmyra" />
>>>>>>> e1d4bc35ff8a6074a6f2e91616a996b547c36f15
		<tag k="natural" v="wetland" />
		<tag k="ssr:stedsnr" v="465212" />
	</node>
<<<<<<< HEAD
	<node lat="60.34471944497078" lon="11.296697223220649" id="-13197">
		<tag k="name" v="Haukemyra" />
=======
	<node id="-264472" lat="60.3172250018" lon="11.145130551">
		<tag k="name" v="Korneliusmyra" />
>>>>>>> e1d4bc35ff8a6074a6f2e91616a996b547c36f15
		<tag k="natural" v="wetland" />
		<tag k="ssr:stedsnr" v="491085" />
	</node>
<<<<<<< HEAD
	<node lat="60.35028610789061" lon="11.118824994569666" id="-13208">
		<tag k="name" v="Togmyra" />
		<tag k="natural" v="wetland" />
		<tag k="ssr:stedsnr" v="525261" />
	</node>
	<node lat="60.368902780472936" lon="11.112761106092874" id="-13209">
		<tag k="name" v="Langmyra" />
=======
	<node id="-266006" lat="60.3626527775" lon="11.1335555527">
		<tag k="name" v="Svingmyra" />
>>>>>>> e1d4bc35ff8a6074a6f2e91616a996b547c36f15
		<tag k="natural" v="wetland" />
		<tag k="ssr:stedsnr" v="525262" />
	</node>
<<<<<<< HEAD
	<node lat="60.33529444849904" lon="11.165686118044398" id="-13225">
		<tag k="name" v="Busmyra" />
=======
	<node id="-264465" lat="60.4562027758" lon="11.3252722243">
		<tag k="name" v="Grønnsjømyra" />
>>>>>>> e1d4bc35ff8a6074a6f2e91616a996b547c36f15
		<tag k="natural" v="wetland" />
		<tag k="ssr:stedsnr" v="542882" />
	</node>
<<<<<<< HEAD
	<node lat="60.49172500184912" lon="11.087397229077053" id="-13227">
		<tag k="name" v="Almelimarka" />
=======
	<node id="-264464" lat="60.4586694465" lon="11.3412000048">
		<tag k="name" v="Stjernebeita" />
>>>>>>> e1d4bc35ff8a6074a6f2e91616a996b547c36f15
		<tag k="place" v="locality" />
		<tag k="ssr:stedsnr" v="543417" />
	</node>
<<<<<<< HEAD
	<node lat="60.267702775518366" lon="11.25796944445079" id="-13234">
		<tag k="name" v="Vardumsmarka" />
		<tag k="place" v="locality" />
		<tag k="ssr:stedsnr" v="544970" />
	</node>
	<node lat="60.31777499989581" lon="11.399472218286574" id="-13250">
		<tag k="name" v="Settungen" />
=======
	<node id="-264974" lat="60.3192000035" lon="11.3638777833">
		<tag k="name" v="Høgmyra" />
>>>>>>> e1d4bc35ff8a6074a6f2e91616a996b547c36f15
		<tag k="natural" v="wetland" />
		<tag k="ssr:stedsnr" v="565996" />
	</node>
<<<<<<< HEAD
	<node lat="60.457111113033385" lon="11.15557222816118" id="-13261">
		<tag k="name" v="Blautmyra" />
=======
	<node id="-264972" lat="60.3368833323" lon="11.1380583288">
		<tag k="name" v="Gråmyra" />
>>>>>>> e1d4bc35ff8a6074a6f2e91616a996b547c36f15
		<tag k="natural" v="wetland" />
		<tag k="ssr:stedsnr" v="588555" />
	</node>
<<<<<<< HEAD
	<node lat="60.27131944072037" lon="11.111330551134841" id="-13269">
		<tag k="name" v="Bottenmyra" />
		<tag k="natural" v="wetland" />
		<tag k="ssr:stedsnr" v="600757" />
	</node>
	<node lat="60.36178055322446" lon="11.286616659805256" id="-13309">
		<tag k="landuse" v="quarry" />
		<tag k="name" v="Sandegruva" />
		<tag k="ssr:stedsnr" v="646011" />
	</node>
	<node lat="60.27460555439645" lon="11.155036104032488" id="-13330">
		<tag k="name" v="Håkonsholene" />
		<tag k="place" v="locality" />
		<tag k="ssr:stedsnr" v="661783" />
	</node>
	<node lat="60.38341111064773" lon="11.13119444398345" id="-13334">
		<tag k="name" v="Lorthølsmarka" />
		<tag k="place" v="locality" />
		<tag k="ssr:stedsnr" v="662994" />
	</node>
	<node lat="60.33387221817196" lon="11.122580559679221" id="-13339">
		<tag k="name" v="Svartormyra" />
=======
	<node id="-265986" lat="60.4404638858" lon="11.156961116">
		<tag k="name" v="Vidvangmyra" />
>>>>>>> e1d4bc35ff8a6074a6f2e91616a996b547c36f15
		<tag k="natural" v="wetland" />
		<tag k="ssr:stedsnr" v="663997" />
	</node>
<<<<<<< HEAD
	<node lat="60.33519444210344" lon="11.392747227736734" id="-13347">
		<tag k="name" v="Gamlevangmyra" />
		<tag k="natural" v="wetland" />
		<tag k="ssr:stedsnr" v="890261" />
	</node>
	<node lat="60.34949999992816" lon="11.158888881230093" id="-13375">
		<tag k="name" v="Sjursmyra" />
=======
	<node id="-265977" lat="60.3500777746" lon="11.3812000052">
		<tag k="alt_name" v="Stormyr" />
		<tag k="name" v="Stormyra" />
		<tag k="natural" v="wetland" />
		<tag k="ssr:stedsnr" v="795124" />
	</node>
	<node id="-264436" lat="60.369588885" lon="11.1322861062">
		<tag k="name" v="Kloppmyra" />
>>>>>>> e1d4bc35ff8a6074a6f2e91616a996b547c36f15
		<tag k="natural" v="wetland" />
		<tag k="ssr:stedsnr" v="707211" />
	</node>
<<<<<<< HEAD
	<node lat="60.336883332281836" lon="11.138058328822288" id="-13428">
		<tag k="name" v="Gråmyra" />
		<tag k="natural" v="wetland" />
		<tag k="ssr:stedsnr" v="734110" />
	</node>
	<node lat="60.2598944455327" lon="11.181977771192667" id="-13444">
		<tag k="name" v="Ladderudmyra" />
		<tag k="natural" v="wetland" />
		<tag k="ssr:stedsnr" v="904745" />
	</node>
	<node lat="60.33109999604005" lon="11.144772229200003" id="-13449">
		<tag k="alt_name" v="Piro Sr" />
		<tag k="historic" v="shieling" />
		<tag k="name" v="Pirosetervangen" />
=======
	<node id="-264435" lat="60.3658222195" lon="11.1420138928">
		<tag k="name" v="Øvre Grønna" />
		<tag k="natural" v="wetland" />
		<tag k="ssr:stedsnr" v="40213" />
	</node>
	<node id="-265939" lat="60.3456805562" lon="11.1500638839">
		<tag k="name" v="Rundmyrene" />
		<tag k="natural" v="wetland" />
		<tag k="ssr:stedsnr" v="785908" />
	</node>
	<node id="-265341" lat="60.4162166663" lon="11.3549416709">
		<tag k="name" v="Sjåseen" />
		<tag k="place" v="locality" />
		<tag k="ssr:stedsnr" v="103687" />
	</node>
	<node id="-264424" lat="60.3943000012" lon="11.1766833424">
		<tag k="name" v="Hesthagan" />
>>>>>>> e1d4bc35ff8a6074a6f2e91616a996b547c36f15
		<tag k="place" v="locality" />
		<tag k="ssr:stedsnr" v="906894" />
	</node>
<<<<<<< HEAD
	<node lat="60.35871944178174" lon="11.148130556657536" id="-13456">
		<tag k="name" v="Åsgardsmyra" />
=======
	<node id="-264421" lat="60.4398055512" lon="11.1742583403">
		<tag k="name" v="Osperudmyra" />
>>>>>>> e1d4bc35ff8a6074a6f2e91616a996b547c36f15
		<tag k="natural" v="wetland" />
		<tag k="ssr:stedsnr" v="768191" />
	</node>
<<<<<<< HEAD
	<node lat="60.34986111091833" lon="11.152675001073352" id="-13457">
		<tag k="name" v="Bjørkhaugmyra" />
=======
	<node id="-264420" lat="60.419705552" lon="11.3440944394">
		<tag k="name" v="Tegermyr" />
>>>>>>> e1d4bc35ff8a6074a6f2e91616a996b547c36f15
		<tag k="natural" v="wetland" />
		<tag k="ssr:stedsnr" v="768195" />
	</node>
<<<<<<< HEAD
	<node lat="60.327224999898945" lon="11.15160278157192" id="-13465">
		<tag k="historic" v="shieling" />
		<tag k="name" v="Gladbakkvangen" />
=======
	<node id="-265442" lat="60.2786333366" lon="11.276033331">
		<tag k="name" v="Dølimarka" />
>>>>>>> e1d4bc35ff8a6074a6f2e91616a996b547c36f15
		<tag k="place" v="locality" />
		<tag k="ssr:stedsnr" v="907441" />
	</node>
<<<<<<< HEAD
	<node lat="60.40988333445388" lon="11.338299998626034" id="-13471">
		<tag k="name" v="Skinnfellmyrene" />
=======
	<node id="-265953" lat="60.3041777776" lon="11.265500008">
		<tag k="name" v="Merramyra" />
>>>>>>> e1d4bc35ff8a6074a6f2e91616a996b547c36f15
		<tag k="natural" v="wetland" />
		<tag k="ssr:stedsnr" v="770862" />
	</node>
<<<<<<< HEAD
	<node lat="60.29708611409642" lon="11.380422218851708" id="-13476">
		<tag k="name" v="Svinestein" />
		<tag k="natural" v="stone" />
		<tag k="ssr:stedsnr" v="908519" />
	</node>
	<node lat="60.30391389205737" lon="11.33019722533821" id="-13494">
=======
	<node id="-265951" lat="60.3039138921" lon="11.3301972253">
>>>>>>> e1d4bc35ff8a6074a6f2e91616a996b547c36f15
		<tag k="name" v="Jøndalsmåsan" />
		<tag k="natural" v="wetland" />
		<tag k="ssr:stedsnr" v="787709" />
	</node>
<<<<<<< HEAD
	<node lat="60.31554842724228" lon="11.153183622614685" id="-13505">
		<tag k="alt_name" v="Klauseiemåsan" />
		<tag k="name" v="Klaseiemåsan" />
=======
	<node id="-265432" lat="60.3306805552" lon="11.1255805625">
		<tag k="name" v="Hyttemyra" />
>>>>>>> e1d4bc35ff8a6074a6f2e91616a996b547c36f15
		<tag k="natural" v="wetland" />
		<tag k="ssr:stedsnr" v="795178" />
	</node>
<<<<<<< HEAD
	<node lat="60.36265277751351" lon="11.133555552657358" id="-13539">
		<tag k="name" v="Svingmyra" />
=======
	<node id="-265428" lat="60.2678694459" lon="11.1500166718">
		<tag k="name" v="Rismyra" />
>>>>>>> e1d4bc35ff8a6074a6f2e91616a996b547c36f15
		<tag k="natural" v="wetland" />
		<tag k="ssr:stedsnr" v="829176" />
	</node>
<<<<<<< HEAD
	<node lat="60.35133055787503" lon="11.168941661288349" id="-13542">
		<tag k="name" v="Kulpmyra" />
		<tag k="natural" v="wetland" />
		<tag k="ssr:stedsnr" v="829184" />
	</node>
	<node lat="60.398902776486736" lon="11.143752775066089" id="-13551">
		<tag k="name" v="Doknesmyra" />
=======
	<node id="-264403" lat="60.3565416694" lon="11.1616027818">
		<tag k="name" v="Purkemyra" />
		<tag k="natural" v="wetland" />
		<tag k="ssr:stedsnr" v="222168" />
	</node>
	<node id="-264402" lat="60.3643277764" lon="11.1450888837">
		<tag k="name" v="Nedre Grønna" />
>>>>>>> e1d4bc35ff8a6074a6f2e91616a996b547c36f15
		<tag k="natural" v="wetland" />
		<tag k="ssr:stedsnr" v="831784" />
	</node>
<<<<<<< HEAD
	<node lat="60.45341666911787" lon="11.113686113866777" id="-13553">
		<tag k="name" v="Puttmyrene" />
=======
	<node id="-265937" lat="60.3847416643" lon="11.1607499941">
		<tag k="name" v="Bjønnmyra" />
>>>>>>> e1d4bc35ff8a6074a6f2e91616a996b547c36f15
		<tag k="natural" v="wetland" />
		<tag k="ssr:stedsnr" v="831684" />
	</node>
<<<<<<< HEAD
	<node lat="60.342925000380205" lon="11.38304999510807" id="-13578">
		<tag k="name" v="Spyttmyra" />
=======
	<node id="-265935" lat="60.2703583347" lon="11.1588055525">
		<tag k="name" v="Grevlingmyra" />
>>>>>>> e1d4bc35ff8a6074a6f2e91616a996b547c36f15
		<tag k="natural" v="wetland" />
		<tag k="ssr:stedsnr" v="856097" />
	</node>
<<<<<<< HEAD
	<node lat="60.26495555967779" lon="11.159752771246303" id="-13579">
		<tag k="name" v="Høgmåsan" />
		<tag k="natural" v="wetland" />
		<tag k="ssr:stedsnr" v="856203" />
	</node>
	<node lat="60.29722777872009" lon="11.325775000737824" id="-13605">
		<tag k="name" v="Brennhaugmyra" />
=======
	<node id="-264910" lat="60.388502775" lon="11.157569449">
		<tag k="name" v="Puttmyra" />
		<tag k="natural" v="wetland" />
		<tag k="ssr:stedsnr" v="601990" />
	</node>
	<node id="-265418" lat="60.4291916636" lon="11.1385500076">
		<tag k="name" v="Gammelvangen" />
		<tag k="place" v="locality" />
		<tag k="ssr:stedsnr" v="163851" />
	</node>
	<node id="-264904" lat="60.2713194407" lon="11.1113305511">
		<tag k="name" v="Bottenmyra" />
>>>>>>> e1d4bc35ff8a6074a6f2e91616a996b547c36f15
		<tag k="natural" v="wetland" />
		<tag k="ssr:stedsnr" v="908753" />
	</node>
<<<<<<< HEAD
	<node lat="60.3614416661866" lon="11.147983330198612" id="-13626">
		<tag k="name" v="Åsdammen" />
=======
	<node id="-265164" lat="60.3272249999" lon="11.1516027816">
		<tag k="historic" v="shieling" />
		<tag k="name" v="Gladbakkvangen" />
		<tag k="place" v="locality" />
		<tag k="ssr:stedsnr" v="907441" />
	</node>
	<node id="-265407" lat="60.3580638907" lon="11.1007833315">
		<tag k="loc_name" v="Elimyra" />
		<tag k="name" v="Elgmyra" />
>>>>>>> e1d4bc35ff8a6074a6f2e91616a996b547c36f15
		<tag k="natural" v="wetland" />
		<tag k="ssr:stedsnr" v="950205" />
	</node>
<<<<<<< HEAD
	<node lat="60.35198611350097" lon="11.209738881135674" id="-13627">
		<tag k="landuse" v="quarry" />
		<tag k="name" v="Langveggbruddet" />
		<tag k="ssr:stedsnr" v="950227" />
	</node>
	<node lat="60.45521389306026" lon="11.322466674160292" id="-13633">
		<tag k="name" v="Vinkelmyra" />
=======
	<node id="-265916" lat="60.3631000016" lon="11.1224138957">
		<tag k="name" v="Haugsmyra" />
		<tag k="natural" v="wetland" />
		<tag k="ssr:stedsnr" v="768237" />
	</node>
	<node id="-265914" lat="60.3498611109" lon="11.1526750011">
		<tag k="name" v="Bjørkhaugmyra" />
>>>>>>> e1d4bc35ff8a6074a6f2e91616a996b547c36f15
		<tag k="natural" v="wetland" />
		<tag k="ssr:stedsnr" v="952543" />
	</node>
<<<<<<< HEAD
	<node lat="60.2678333324989" lon="11.13842500248783" id="-13643">
		<tag k="name" v="Titerudmyra" />
=======
	<node id="-265913" lat="60.3587194418" lon="11.1481305567">
		<tag k="name" v="Åsgardsmyra" />
>>>>>>> e1d4bc35ff8a6074a6f2e91616a996b547c36f15
		<tag k="natural" v="wetland" />
		<tag k="ssr:stedsnr" v="965783" />
	</node>
<<<<<<< HEAD
	<node lat="60.38383333435004" lon="11.392777778535782" id="-13655">
		<tag k="name" v="Tretjennsmyra" />
=======
	<node id="-264734" lat="60.4839416703" lon="11.263311113">
		<tag k="name" v="Skillgardsmyra" />
		<tag k="natural" v="wetland" />
		<tag k="ssr:stedsnr" v="403224" />
	</node>
	<node id="-265075" lat="60.2972277787" lon="11.3257750007">
		<tag k="name" v="Brennhaugmyra" />
		<tag k="natural" v="wetland" />
		<tag k="ssr:stedsnr" v="908753" />
	</node>
	<node id="-265888" lat="60.2812805575" lon="11.1276361047">
		<tag k="name" v="Frankmyrene" />
>>>>>>> e1d4bc35ff8a6074a6f2e91616a996b547c36f15
		<tag k="natural" v="wetland" />
		<tag k="ssr:stedsnr" v="6044" />
	</node>
<<<<<<< HEAD
	<node lat="60.36582221945288" lon="11.142013892830136" id="-13678">
		<tag k="name" v="Øvre Grønna" />
=======
	<node id="-264862" lat="60.3494999999" lon="11.1588888812">
		<tag k="name" v="Sjursmyra" />
>>>>>>> e1d4bc35ff8a6074a6f2e91616a996b547c36f15
		<tag k="natural" v="wetland" />
		<tag k="ssr:stedsnr" v="40213" />
	</node>
<<<<<<< HEAD
	<node lat="60.36958888501992" lon="11.132286106202603" id="-13679">
		<tag k="name" v="Kloppmyra" />
		<tag k="natural" v="wetland" />
		<tag k="ssr:stedsnr" v="40214" />
	</node>
	<node lat="60.43449166925881" lon="11.140680551239493" id="-13687">
		<tag k="name" v="Vivangsmyra" />
		<tag k="natural" v="wetland" />
		<tag k="ssr:stedsnr" v="42816" />
	</node>
	<node lat="60.36724999860117" lon="11.378822224815003" id="-13729">
		<tag k="name" v="Benkemyra" />
=======
	<node id="-265884" lat="60.3706305599" lon="11.1131638842">
		<tag k="name" v="Byfellholen" />
		<tag k="place" v="locality" />
		<tag k="ssr:stedsnr" v="648082" />
	</node>
	<node id="-264857" lat="60.3448555539" lon="11.1181277723">
		<tag k="name" v="Lauvhesjemyra" />
>>>>>>> e1d4bc35ff8a6074a6f2e91616a996b547c36f15
		<tag k="natural" v="wetland" />
		<tag k="ssr:stedsnr" v="67067" />
	</node>
<<<<<<< HEAD
	<node lat="60.27760000285361" lon="11.140908326041494" id="-13731">
		<tag k="name" v="Verkensmåsan" />
		<tag k="natural" v="wetland" />
		<tag k="ssr:stedsnr" v="67208" />
	</node>
	<node lat="60.394274999037236" lon="11.167769443023676" id="-13751">
		<tag k="name" v="Nyseterløkka" />
		<tag k="place" v="locality" />
		<tag k="ssr:stedsnr" v="102847" />
	</node>
	<node lat="60.37683055440702" lon="11.156724999659927" id="-13754">
		<tag k="name" v="Stormyra" />
		<tag k="natural" v="wetland" />
		<tag k="ssr:stedsnr" v="103073" />
	</node>
	<node lat="60.3794749999701" lon="11.126383328542321" id="-13755">
		<tag k="name" v="Lorthølsvangen" />
		<tag k="place" v="locality" />
		<tag k="ssr:stedsnr" v="103075" />
	</node>
	<node lat="60.45520833626263" lon="11.31464444949455" id="-13757">
=======
	<node id="-265877" lat="60.3617805532" lon="11.2866166598">
		<tag k="landuse" v="quarry" />
		<tag k="name" v="Sandegruva" />
		<tag k="ssr:stedsnr" v="646011" />
	</node>
	<node id="-265359" lat="60.3353222249" lon="11.121733333">
		<tag k="historic" v="shieling" />
		<tag k="name" v="Bønseter" />
		<tag k="place" v="locality" />
		<tag k="ssr:stedsnr" v="118989" />
	</node>
	<node id="-265869" lat="60.4372305537" lon="11.2998249935">
		<tag k="alt_name" v="Stutmyra" />
		<tag k="name" v="Stutmyr" />
		<tag k="natural" v="wetland" />
		<tag k="ssr:stedsnr" v="613449" />
	</node>
	<node id="-265354" lat="60.3861805524" lon="11.152786116">
		<tag k="name" v="Stormyra" />
		<tag k="natural" v="wetland" />
		<tag k="ssr:stedsnr" v="116997" />
	</node>
	<node id="-265350" lat="60.2428138847" lon="11.2169055618">
		<tag k="name" v="Haslermarka" />
		<tag k="place" v="locality" />
		<tag k="ssr:stedsnr" v="116181" />
	</node>
	<node id="-265853" lat="60.3292361103" lon="11.1411194354">
		<tag k="name" v="Langmyra" />
		<tag k="natural" v="wetland" />
		<tag k="ssr:stedsnr" v="612141" />
	</node>
	<node id="-265340" lat="60.4552083363" lon="11.3146444495">
>>>>>>> e1d4bc35ff8a6074a6f2e91616a996b547c36f15
		<tag k="name" v="Totjennsmyra" />
		<tag k="natural" v="wetland" />
		<tag k="ssr:stedsnr" v="103561" />
	</node>
<<<<<<< HEAD
	<node lat="60.41621666625527" lon="11.354941670882763" id="-13758">
		<tag k="name" v="Sjåseen" />
=======
	<node id="-264554" lat="60.3008388871" lon="11.1596583419">
		<tag k="name" v="Stavijordet" />
		<tag k="place" v="locality" />
		<tag k="ssr:stedsnr" v="163569" />
	</node>
	<node id="-265338" lat="60.379475" lon="11.1263833285">
		<tag k="name" v="Lorthølsvangen" />
>>>>>>> e1d4bc35ff8a6074a6f2e91616a996b547c36f15
		<tag k="place" v="locality" />
		<tag k="ssr:stedsnr" v="103687" />
	</node>
<<<<<<< HEAD
	<node lat="60.24281388466363" lon="11.216905561772442" id="-13765">
		<tag k="name" v="Haslermarka" />
		<tag k="place" v="locality" />
		<tag k="ssr:stedsnr" v="116181" />
	</node>
	<node lat="60.38618055238535" lon="11.152786115951168" id="-13767">
=======
	<node id="-265337" lat="60.3768305544" lon="11.1567249997">
>>>>>>> e1d4bc35ff8a6074a6f2e91616a996b547c36f15
		<tag k="name" v="Stormyra" />
		<tag k="natural" v="wetland" />
		<tag k="ssr:stedsnr" v="116997" />
	</node>
<<<<<<< HEAD
	<node lat="60.429547222591346" lon="11.366572217313818" id="-13768">
		<tag k="name" v="Bjønnmyra" />
		<tag k="natural" v="wetland" />
		<tag k="ssr:stedsnr" v="118244" />
	</node>
	<node lat="60.335322224937975" lon="11.121733333002528" id="-13773">
		<tag k="historic" v="shieling" />
		<tag k="name" v="Bønseter" />
=======
	<node id="-265333" lat="60.394274999" lon="11.167769443">
		<tag k="name" v="Nyseterløkka" />
>>>>>>> e1d4bc35ff8a6074a6f2e91616a996b547c36f15
		<tag k="place" v="locality" />
		<tag k="ssr:stedsnr" v="118989" />
	</node>
<<<<<<< HEAD
	<node lat="60.336611112349246" lon="11.372230555126956" id="-13808">
		<tag k="name" v="Dalumsbråtamyra" />
=======
	<node id="-265834" lat="60.288144443" lon="11.3192138842">
		<tag k="name" v="Frilsetmåsan" />
>>>>>>> e1d4bc35ff8a6074a6f2e91616a996b547c36f15
		<tag k="natural" v="wetland" />
		<tag k="ssr:stedsnr" v="161256" />
	</node>
<<<<<<< HEAD
	<node lat="60.35806389065841" lon="11.100783331481733" id="-13809">
		<tag k="loc_name" v="Elimyra" />
		<tag k="name" v="Elgmyra" />
=======
	<node id="-265831" lat="60.2961499989" lon="11.3415722298">
		<tag k="alt_name" v="Storrtjennmåsan" />
		<tag k="name" v="Starrtjennmåsan" />
>>>>>>> e1d4bc35ff8a6074a6f2e91616a996b547c36f15
		<tag k="natural" v="wetland" />
		<tag k="ssr:stedsnr" v="161245" />
	</node>
<<<<<<< HEAD
	<node lat="60.44624722445952" lon="11.345677777103" id="-13811">
		<tag k="name" v="Langmyra" />
=======
	<node id="-265829" lat="60.3145611121" lon="11.1420583356">
		<tag k="name" v="Rødviksmyrene" />
>>>>>>> e1d4bc35ff8a6074a6f2e91616a996b547c36f15
		<tag k="natural" v="wetland" />
		<tag k="ssr:stedsnr" v="163514" />
	</node>
<<<<<<< HEAD
	<node lat="60.42919166362968" lon="11.138550007634132" id="-13826">
		<tag k="name" v="Gammelvangen" />
=======
	<node id="-265316" lat="60.3579249954" lon="11.1648472309">
		<tag k="name" v="Skurvefjellet" />
>>>>>>> e1d4bc35ff8a6074a6f2e91616a996b547c36f15
		<tag k="place" v="locality" />
		<tag k="ssr:stedsnr" v="163851" />
	</node>
<<<<<<< HEAD
	<node lat="60.26786944586304" lon="11.150016671755777" id="-13834">
		<tag k="name" v="Rismyra" />
=======
	<node id="-265315" lat="60.3602611069" lon="11.1286833315">
		<tag k="name" v="Marihansmyr" />
>>>>>>> e1d4bc35ff8a6074a6f2e91616a996b547c36f15
		<tag k="natural" v="wetland" />
		<tag k="ssr:stedsnr" v="176787" />
	</node>
<<<<<<< HEAD
	<node lat="60.3306805552081" lon="11.125580562507382" id="-13840">
		<tag k="name" v="Hyttemyra" />
=======
	<node id="-265309" lat="60.3672499986" lon="11.3788222248">
		<tag k="name" v="Benkemyra" />
>>>>>>> e1d4bc35ff8a6074a6f2e91616a996b547c36f15
		<tag k="natural" v="wetland" />
		<tag k="ssr:stedsnr" v="178982" />
	</node>
<<<<<<< HEAD
	<node lat="60.433699997456934" lon="11.360502774236272" id="-13842">
		<tag k="name" v="St. Thomas myr" />
=======
	<node id="-265816" lat="60.3322805524" lon="11.130430555">
		<tag k="name" v="Lauvmyra" />
>>>>>>> e1d4bc35ff8a6074a6f2e91616a996b547c36f15
		<tag k="natural" v="wetland" />
		<tag k="ssr:stedsnr" v="179273" />
	</node>
<<<<<<< HEAD
	<node lat="60.27863333657388" lon="11.276033331022564" id="-13847">
		<tag k="name" v="Dølimarka" />
		<tag k="place" v="locality" />
		<tag k="ssr:stedsnr" v="180982" />
	</node>
	<node lat="60.36432777641033" lon="11.145088883664286" id="-13867">
		<tag k="name" v="Nedre Grønna" />
=======
	<node id="-264791" lat="60.3557555578" lon="11.1872222181">
		<tag k="name" v="Ringmyra" />
>>>>>>> e1d4bc35ff8a6074a6f2e91616a996b547c36f15
		<tag k="natural" v="wetland" />
		<tag k="ssr:stedsnr" v="222161" />
	</node>
<<<<<<< HEAD
	<node lat="60.356541669361086" lon="11.1616027818433" id="-13868">
		<tag k="name" v="Purkemyra" />
=======
	<node id="-264803" lat="60.3905749995" lon="11.1359249946">
		<tag k="name" v="Fugleputtmyra" />
		<tag k="natural" v="wetland" />
		<tag k="ssr:stedsnr" v="673002" />
	</node>
	<node id="-265804" lat="60.457111113" lon="11.1555722282">
		<tag k="name" v="Blautmyra" />
>>>>>>> e1d4bc35ff8a6074a6f2e91616a996b547c36f15
		<tag k="natural" v="wetland" />
		<tag k="ssr:stedsnr" v="222168" />
	</node>
<<<<<<< HEAD
	<node lat="60.419705552016545" lon="11.344094439412352" id="-13877">
		<tag k="name" v="Tegermyr" />
=======
	<node id="-264777" lat="60.3338722182" lon="11.1225805597">
		<tag k="name" v="Svartormyra" />
>>>>>>> e1d4bc35ff8a6074a6f2e91616a996b547c36f15
		<tag k="natural" v="wetland" />
		<tag k="ssr:stedsnr" v="224719" />
	</node>
<<<<<<< HEAD
	<node lat="60.394300001151976" lon="11.176683342388198" id="-13879">
		<tag k="name" v="Hesthagan" />
=======
	<node id="-264774" lat="60.3834111106" lon="11.131194444">
		<tag k="name" v="Lorthølsmarka" />
>>>>>>> e1d4bc35ff8a6074a6f2e91616a996b547c36f15
		<tag k="place" v="locality" />
		<tag k="ssr:stedsnr" v="224830" />
	</node>
<<<<<<< HEAD
	<node lat="60.440472225155794" lon="11.328266672330287" id="-13892">
		<tag k="name" v="Brøstadvangmyra" />
		<tag k="natural" v="wetland" />
		<tag k="ssr:stedsnr" v="285543" />
	</node>
	<node lat="60.27331666623176" lon="11.13077222226488" id="-13903">
		<tag k="name" v="Frankrikelund" />
=======
	<node id="-264769" lat="60.2746055544" lon="11.155036104">
		<tag k="name" v="Håkonsholene" />
>>>>>>> e1d4bc35ff8a6074a6f2e91616a996b547c36f15
		<tag k="place" v="locality" />
		<tag k="ssr:stedsnr" v="298754" />
	</node>
<<<<<<< HEAD
	<node lat="60.36343611443181" lon="11.109833340919295" id="-13937">
		<tag k="name" v="Hjørnemyra" />
=======
	<node id="-264629" lat="60.3279944468" lon="11.3819500059">
		<tag k="name" v="Mårramyra" />
		<tag k="natural" v="wetland" />
		<tag k="ssr:stedsnr" v="465248" />
	</node>
	<node id="-264764" lat="60.2745888905" lon="11.1141972181">
		<tag k="name" v="Sjømyra" />
>>>>>>> e1d4bc35ff8a6074a6f2e91616a996b547c36f15
		<tag k="natural" v="wetland" />
		<tag k="ssr:stedsnr" v="343230" />
	</node>
<<<<<<< HEAD
	<node lat="60.40322222024676" lon="11.175863888569216" id="-13951">
		<tag k="landuse" v="meadow" />
		<tag k="name" v="Svenskerudløkka" />
		<tag k="ssr:stedsnr" v="345835" />
	</node>
	<node lat="60.405536114568356" lon="11.323808326690648" id="-13953">
		<tag k="name" v="Røysistormyrene" />
=======
	<node id="-265783" lat="60.3662222219" lon="11.3283888899">
		<tag k="name" v="Myra" />
>>>>>>> e1d4bc35ff8a6074a6f2e91616a996b547c36f15
		<tag k="natural" v="wetland" />
		<tag k="ssr:stedsnr" v="345853" />
	</node>
<<<<<<< HEAD
	<node lat="60.27587777400032" lon="11.11388333557861" id="-13959">
		<tag k="name" v="Gruekra" />
		<tag k="place" v="locality" />
		<tag k="ssr:stedsnr" v="358773" />
	</node>
	<node lat="60.3312555585051" lon="11.171105556781017" id="-13980">
		<tag k="name" v="Blakkesrudmyra" />
=======
	<node id="-265777" lat="60.3177749999" lon="11.3994722183">
		<tag k="name" v="Settungen" />
>>>>>>> e1d4bc35ff8a6074a6f2e91616a996b547c36f15
		<tag k="natural" v="wetland" />
		<tag k="ssr:stedsnr" v="362750" />
	</node>
<<<<<<< HEAD
	<node lat="60.46020833637526" lon="11.304372229346605" id="-13984">
		<tag k="name" v="Ovnsmyra" />
=======
	<node id="-264541" lat="60.3366111123" lon="11.3722305551">
		<tag k="name" v="Dalumsbråtamyra" />
		<tag k="natural" v="wetland" />
		<tag k="ssr:stedsnr" v="161256" />
	</node>
	<node id="-264742" lat="60.4019555547" lon="11.3138916698">
		<tag k="name" v="Ristjennmåsan" />
>>>>>>> e1d4bc35ff8a6074a6f2e91616a996b547c36f15
		<tag k="natural" v="wetland" />
		<tag k="ssr:stedsnr" v="362879" />
	</node>
	<node lat="60.43307235481105" lon="11.348526046559035" id="-14022">
		<tag k="landuse" v="quarry" />
		<tag k="name" v="Brøstadgruva" />
		<tag k="ssr:stedsnr" v="383986" />
	</node>
<<<<<<< HEAD
	<node lat="60.30275555100534" lon="11.133827786448421" id="-14032">
=======
	<node id="-264740" lat="60.302755551" lon="11.1338277864">
>>>>>>> e1d4bc35ff8a6074a6f2e91616a996b547c36f15
		<tag k="name" v="Haramyra" />
		<tag k="natural" v="wetland" />
		<tag k="ssr:stedsnr" v="406552" />
	</node>
<<<<<<< HEAD
	<node lat="60.259647220202865" lon="11.172255554921687" id="-14046">
		<tag k="name" v="Langmåsan" />
=======
	<node id="-265249" lat="60.4344916693" lon="11.1406805512">
		<tag k="name" v="Vivangsmyra" />
>>>>>>> e1d4bc35ff8a6074a6f2e91616a996b547c36f15
		<tag k="natural" v="wetland" />
		<tag k="ssr:stedsnr" v="419767" />
	</node>
<<<<<<< HEAD
	<node lat="60.2996972177531" lon="11.330819446618905" id="-14077">
		<tag k="name" v="Stormåsan" />
=======
	<node id="-265246" lat="60.4558416705" lon="11.1646722217">
		<tag k="name" v="Kolltjennmyra" />
>>>>>>> e1d4bc35ff8a6074a6f2e91616a996b547c36f15
		<tag k="natural" v="wetland" />
		<tag k="ssr:stedsnr" v="431185" />
	</node>
<<<<<<< HEAD
	<node lat="60.43717500402605" lon="11.29295555472932" id="-14080">
		<tag k="fixme" v="multiple name tags, choose one and add the other to alt_name" />
		<tag k="name" v="Torvmyra;Dorrstormyra" />
		<tag k="natural" v="wetland" />
		<tag k="ssr:stedsnr" v="431476" />
	</node>
	<node lat="60.429661113640016" lon="11.178813894311304" id="-14098">
		<tag k="name" v="Berntmyra" />
		<tag k="natural" v="wetland" />
		<tag k="ssr:stedsnr" v="527848" />
	</node>
	<node lat="60.40917222470067" lon="11.353541674918329" id="-14099">
		<tag k="name" v="Stokkelsbeita" />
		<tag k="place" v="locality" />
		<tag k="ssr:stedsnr" v="527860" />
	</node>
	<node lat="60.34485555392467" lon="11.118127772280568" id="-14117">
		<tag k="name" v="Lauvhesjemyra" />
		<tag k="natural" v="wetland" />
		<tag k="ssr:stedsnr" v="542991" />
	</node>
	<node lat="60.36622222189358" lon="11.328388889926964" id="-14158">
		<tag k="name" v="Myra" />
		<tag k="natural" v="wetland" />
		<tag k="ssr:stedsnr" v="586011" />
	</node>
	<node lat="60.38850277501403" lon="11.157569449047228" id="-14190">
		<tag k="name" v="Puttmyra" />
		<tag k="natural" v="wetland" />
		<tag k="ssr:stedsnr" v="601990" />
	</node>
	<node lat="60.33228055242705" lon="11.130430555025423" id="-14197">
		<tag k="name" v="Lauvmyra" />
		<tag k="natural" v="wetland" />
		<tag k="ssr:stedsnr" v="602988" />
	</node>
	<node lat="60.296149998855824" lon="11.341572229782308" id="-14202">
		<tag k="alt_name" v="Storrtjennmåsan" />
		<tag k="name" v="Starrtjennmåsan" />
		<tag k="natural" v="wetland" />
		<tag k="ssr:stedsnr" v="604721" />
	</node>
	<node lat="60.288144442970655" lon="11.319213884180853" id="-14205">
		<tag k="name" v="Frilsetmåsan" />
		<tag k="natural" v="wetland" />
		<tag k="ssr:stedsnr" v="604743" />
	</node>
	<node lat="60.314561112086686" lon="11.142058335648597" id="-14206">
		<tag k="name" v="Rødviksmyrene" />
		<tag k="natural" v="wetland" />
		<tag k="ssr:stedsnr" v="604776" />
	</node>
	<node lat="60.3292361102513" lon="11.141119435369118" id="-14215">
		<tag k="name" v="Langmyra" />
		<tag k="natural" v="wetland" />
		<tag k="ssr:stedsnr" v="612141" />
	</node>
	<node lat="60.437230553652434" lon="11.299824993498515" id="-14233">
		<tag k="alt_name" v="Stutmyra" />
		<tag k="name" v="Stutmyr" />
		<tag k="natural" v="wetland" />
		<tag k="ssr:stedsnr" v="613449" />
	</node>
	<node lat="60.37063055993909" lon="11.113163884220647" id="-14241">
		<tag k="name" v="Byfellholen" />
		<tag k="place" v="locality" />
		<tag k="ssr:stedsnr" v="648082" />
	</node>
	<node lat="60.28128055746555" lon="11.127636104658093" id="-14244">
		<tag k="name" v="Frankmyrene" />
		<tag k="natural" v="wetland" />
		<tag k="ssr:stedsnr" v="648565" />
	</node>
	<node lat="60.274588890526736" lon="11.114197218082715" id="-14257">
		<tag k="name" v="Sjømyra" />
		<tag k="natural" v="wetland" />
		<tag k="ssr:stedsnr" v="661748" />
	</node>
	<node lat="60.26509999889056" lon="11.228680549287969" id="-14302">
		<tag k="name" v="Sundbymyra" />
		<tag k="natural" v="wetland" />
		<tag k="ssr:stedsnr" v="726958" />
	</node>
	<node lat="60.31920000348859" lon="11.36387778327946" id="-14307">
		<tag k="name" v="Høgmyra" />
		<tag k="natural" v="wetland" />
		<tag k="ssr:stedsnr" v="734135" />
	</node>
	<node lat="60.363100001633306" lon="11.122413895734482" id="-14320">
		<tag k="name" v="Haugsmyra" />
		<tag k="natural" v="wetland" />
		<tag k="ssr:stedsnr" v="768237" />
	</node>
	<node lat="60.27035833469853" lon="11.158805552498388" id="-14336">
		<tag k="name" v="Grevlingmyra" />
		<tag k="natural" v="wetland" />
		<tag k="ssr:stedsnr" v="783796" />
	</node>
	<node lat="60.384741664290715" lon="11.16074999407215" id="-14338">
		<tag k="name" v="Bjønnmyra" />
		<tag k="natural" v="wetland" />
		<tag k="ssr:stedsnr" v="783995" />
	</node>
	<node lat="60.34568055619609" lon="11.150063883937188" id="-14339">
		<tag k="name" v="Rundmyrene" />
		<tag k="natural" v="wetland" />
		<tag k="ssr:stedsnr" v="785908" />
	</node>
	<node lat="60.304177777615564" lon="11.265500008040277" id="-14353">
		<tag k="name" v="Merramyra" />
		<tag k="natural" v="wetland" />
		<tag k="ssr:stedsnr" v="787723" />
	</node>
	<node lat="60.350077774583866" lon="11.381200005157234" id="-14370">
		<tag k="alt_name" v="Stormyr" />
		<tag k="name" v="Stormyra" />
		<tag k="natural" v="wetland" />
		<tag k="ssr:stedsnr" v="795124" />
	</node>
	<node lat="60.440463885809216" lon="11.156961116042744" id="-14384">
		<tag k="name" v="Vidvangmyra" />
		<tag k="natural" v="wetland" />
		<tag k="ssr:stedsnr" v="795501" />
	</node>
	<node lat="60.31232777842104" lon="11.374924993871023" id="-14407">
		<tag k="name" v="Galgemyra" />
		<tag k="natural" v="wetland" />
		<tag k="ssr:stedsnr" v="847528" />
	</node>
	<node lat="60.33730000202704" lon="11.324713896256451" id="-14408">
		<tag k="name" v="Torvstrømyra" />
		<tag k="natural" v="wetland" />
		<tag k="ssr:stedsnr" v="847146" />
	</node>
	<node lat="60.40171944498278" lon="11.144572229118749" id="-14444">
		<tag k="name" v="Doknesmarka" />
		<tag k="place" v="locality" />
		<tag k="ssr:stedsnr" v="952828" />
	</node>
	<node lat="60.43083889280541" lon="11.293374995191456" id="-14448">
		<tag k="name" v="Åsmyra" />
		<tag k="natural" v="wetland" />
		<tag k="ssr:stedsnr" v="952683" />
	</node>
	<node lat="60.23830555756513" lon="11.247363888065044" id="-14453">
		<tag k="name" v="Ålborgmyra" />
		<tag k="natural" v="wetland" />
		<tag k="ssr:stedsnr" v="965191" />
	</node>
	<node lat="60.325427776173974" lon="11.153241666746553" id="-14467">
		<tag k="name" v="Svensmyra" />
		<tag k="natural" v="wetland" />
		<tag k="ssr:stedsnr" v="969705" />
	</node>
=======
>>>>>>> e1d4bc35ff8a6074a6f2e91616a996b547c36f15
</osm>
