<?xml version="1.0" encoding="UTF-8"?>
<osm generator="osmapis" version="0.6">
	<node id="-32765" lat="60.3964472235" lon="11.2558111103">
		<tag k="alt_name" v="Røysi negarn" />
		<tag k="name" v="Nedgarden Røysi" />
		<tag k="place" v="farm" />
		<tag k="ssr:stedsnr" v="952797" />
	</node>
	<node id="-32764" lat="60.4427638862" lon="11.1866888854">
		<tag k="name" v="Søndre Bålsrud" />
		<tag k="place" v="farm" />
		<tag k="ssr:stedsnr" v="952727" />
	</node>
	<node id="-32759" lat="60.3027333292" lon="11.1541722158">
		<tag k="name" v="Jørns" />
		<tag k="place" v="farm" />
		<tag k="ssr:stedsnr" v="952582" />
	</node>
	<node id="-32758" lat="60.302141669" lon="11.158586114">
		<tag k="name" v="Haua" />
		<tag k="place" v="farm" />
		<tag k="ssr:stedsnr" v="952580" />
	</node>
	<node id="-32756" lat="60.2914055597" lon="11.2283000073">
		<tag k="name" v="Gutuhaugen" />
		<tag k="place" v="farm" />
		<tag k="ssr:stedsnr" v="952574" />
	</node>
	<node id="-32755" lat="60.4730722211" lon="11.2405138909">
		<tag k="name" v="Stenberg" />
		<tag k="place" v="farm" />
		<tag k="ssr:stedsnr" v="952565" />
	</node>
	<node id="-32751" lat="60.4530583314" lon="11.2955249944">
		<tag k="historic" v="shieling" />
		<tag k="name" v="Ovrivangen" />
		<tag k="place" v="locality" />
		<tag k="ssr:stedsnr" v="952533" />
	</node>
	<node id="-32748" lat="60.5460777788" lon="11.1843222166">
		<tag k="name" v="Stubberud" />
		<tag k="place" v="farm" />
		<tag k="ssr:stedsnr" v="950928" />
	</node>
	<node id="-32746" lat="60.3072888916" lon="11.3638749972">
		<tag k="historic" v="shieling" />
		<tag k="name" v="Jøndalsvangen" />
		<tag k="place" v="locality" />
		<tag k="ssr:stedsnr" v="869992" />
	</node>
	<node id="-32742" lat="60.3007757281" lon="11.2787884543">
		<tag k="fixme" v="consider place=hamlet" />
		<tag k="name" v="Fraurud" />
		<tag k="place" v="farm" />
		<tag k="ssr:stedsnr" v="856150" />
	</node>
	<node id="-32741" lat="60.3156437046" lon="11.2571616762">
		<tag k="name" v="Steinerud" />
		<tag k="place" v="farm" />
		<tag k="ssr:stedsnr" v="856147" />
	</node>
	<node id="-32740" lat="60.3058555518" lon="11.1510277711">
		<tag k="alt_name" v="Teie" />
		<tag k="name" v="Teje" />
		<tag k="place" v="farm" />
		<tag k="ssr:stedsnr" v="856141" />
	</node>
	<node id="-32739" lat="60.3118829353" lon="11.2193598944">
		<tag k="fixme" v="consider place=hamlet" />
		<tag k="name" v="Bjørke" />
		<tag k="place" v="farm" />
		<tag k="ssr:stedsnr" v="856135" />
	</node>
	<node id="-32738" lat="60.3274611149" lon="11.2379500028">
		<tag k="name" v="Egger" />
		<tag k="place" v="farm" />
		<tag k="ssr:stedsnr" v="856116" />
	</node>
	<node id="-32737" lat="60.3265944411" lon="11.3933333389">
		<tag k="historic" v="shieling" />
		<tag k="name" v="Gruevangen" />
		<tag k="place" v="locality" />
		<tag k="ssr:stedsnr" v="856112" />
	</node>
	<node id="-32735" lat="60.3478361074" lon="11.2852499925">
		<tag k="name" v="Dalum" />
		<tag k="place" v="farm" />
		<tag k="ssr:stedsnr" v="856082" />
	</node>
	<node id="-32734" lat="60.3565611104" lon="11.2976027829">
		<tag k="name" v="Hemlihøgda" />
		<tag k="place" v="farm" />
		<tag k="ssr:stedsnr" v="855086" />
	</node>
	<node id="-32733" lat="60.3287388874" lon="11.2585083396">
		<tag k="amenity" v="nursing_home" />
		<tag k="name" v="Sundet legesenter" />
		<tag k="ssr:stedsnr" v="849724" />
	</node>
	<node id="-32731" lat="60.3289527801" lon="11.2611666733">
		<tag k="amenity" v="townhall" />
		<tag k="name" v="Eidsvoll rådhus" />
		<tag k="ssr:stedsnr" v="849721" />
	</node>
	<node id="-32728" lat="60.2754833311" lon="11.3220416679">
		<tag k="name" v="Frilsetteie" />
		<tag k="place" v="farm" />
		<tag k="ssr:stedsnr" v="848987" />
	</node>
	<node id="-32727" lat="60.2768166711" lon="11.3093500021">
		<tag k="alt_name" v="Frilset nordgarn" />
		<tag k="name" v="Nordgarden Frilset" />
		<tag k="place" v="farm" />
		<tag k="ssr:stedsnr" v="848986" />
	</node>
	<node id="-32726" lat="60.2779500013" lon="11.2607027798">
		<tag k="name" v="Nylund" />
		<tag k="place" v="farm" />
		<tag k="ssr:stedsnr" v="848961" />
	</node>
	<node id="-32725" lat="60.2837750003" lon="11.1858666651">
		<tag k="alt_name" v="Fuglerud nordre" />
		<tag k="name" v="Nordre Fuglerud" />
		<tag k="place" v="farm" />
		<tag k="ssr:stedsnr" v="848960" />
	</node>
	<node id="-32724" lat="60.2763611072" lon="11.1942527687">
		<tag k="name" v="Solvang" />
		<tag k="place" v="farm" />
		<tag k="ssr:stedsnr" v="848958" />
	</node>
	<node id="-32723" lat="60.2763444446" lon="11.2249611115">
		<tag k="name" v="Vårum" />
		<tag k="place" v="farm" />
		<tag k="ssr:stedsnr" v="848957" />
	</node>
	<node id="-32721" lat="60.2678833349" lon="11.20181945">
		<tag k="name" v="Sørli" />
		<tag k="place" v="farm" />
		<tag k="ssr:stedsnr" v="848932" />
	</node>
	<node id="-32720" lat="60.3209972199" lon="11.172272214">
		<tag k="name" v="Blakkesrudenga" />
		<tag k="place" v="farm" />
		<tag k="ssr:stedsnr" v="848746" />
	</node>
	<node id="-32718" lat="60.2861611075" lon="11.2843722245">
		<tag k="name" v="Fjellstad" />
		<tag k="place" v="farm" />
		<tag k="ssr:stedsnr" v="848680" />
	</node>
	<node id="-32717" lat="60.3706083368" lon="11.359738885">
		<tag k="name" v="Finsbråtan" />
		<tag k="place" v="farm" />
		<tag k="ssr:stedsnr" v="847844" />
	</node>
	<node id="-32715" lat="60.3225249976" lon="11.2678222137">
		<tag k="name" v="Sundfossen" />
		<tag k="place" v="farm" />
		<tag k="ssr:stedsnr" v="847513" />
	</node>
	<node id="-32714" lat="60.3251861131" lon="11.2455638883">
		<tag k="name" v="Wergelandshaugen" />
		<tag k="place" v="isolated_dwelling" />
		<tag k="ssr:stedsnr" v="847509" />
	</node>
	<node id="-32713" lat="60.4609250015" lon="11.2746722199">
		<tag k="name" v="Solhaug" />
		<tag k="place" v="farm" />
		<tag k="ssr:stedsnr" v="847428" />
	</node>
	<node id="-32712" lat="60.4984968219" lon="11.1432912257">
		<tag k="name" v="Bråten" />
		<tag k="place" v="farm" />
		<tag k="ssr:stedsnr" v="847409" />
	</node>
	<node id="-32711" lat="60.5001805528" lon="11.093566673">
		<tag k="name" v="Haukåsen" />
		<tag k="place" v="farm" />
		<tag k="ssr:stedsnr" v="847358" />
	</node>
	<node id="-32709" lat="60.5046583378" lon="11.1717722141">
		<tag k="alt_name" v="Disserud nedre" />
		<tag k="name" v="Nedre Disserud" />
		<tag k="place" v="farm" />
		<tag k="ssr:stedsnr" v="847348" />
	</node>
	<node id="-32708" lat="60.5124555581" lon="11.173477773">
		<tag k="name" v="Myrvoll" />
		<tag k="place" v="farm" />
		<tag k="ssr:stedsnr" v="847340" />
	</node>
	<node id="-32705" lat="60.3791111086" lon="11.2722999926">
		<tag k="alt_name" v="Ljødal søstun" />
		<tag k="name" v="Søstuen Ljødal" />
		<tag k="place" v="farm" />
		<tag k="ssr:stedsnr" v="844981" />
	</node>
	<node id="-32703" lat="60.3800777793" lon="11.2482000067">
		<tag k="name" v="Lynes" />
		<tag k="place" v="farm" />
		<tag k="ssr:stedsnr" v="844777" />
	</node>
	<node id="-32702" lat="60.388280558" lon="11.2734305514">
		<tag k="building" v="industrial" />
		<tag k="name" v="Holt sag" />
		<tag k="ssr:stedsnr" v="844776" />
	</node>
	<node id="-32698" lat="60.3968583371" lon="11.1893250062">
		<tag k="alt_name" v="Eidshaug vestre" />
		<tag k="name" v="Vestre Eidshaug" />
		<tag k="place" v="farm" />
		<tag k="ssr:stedsnr" v="831804" />
	</node>
	<node id="-32697" lat="60.3988916693" lon="11.1644277763">
		<tag k="historic" v="shieling" />
		<tag k="name" v="Julsrudseter" />
		<tag k="place" v="locality" />
		<tag k="ssr:stedsnr" v="831789" />
	</node>
	<node id="-32693" lat="60.4658555513" lon="11.1790749988">
		<tag k="name" v="Solbakken" />
		<tag k="place" v="farm" />
		<tag k="ssr:stedsnr" v="831525" />
	</node>
	<node id="-32691" lat="60.4380416699" lon="11.2507694501">
		<tag k="alt_name" v="Korslund øvre" />
		<tag k="name" v="Øvre Korslund" />
		<tag k="place" v="farm" />
		<tag k="ssr:stedsnr" v="831515" />
	</node>
	<node id="-32689" lat="60.2914916647" lon="11.1688666577">
		<tag k="name" v="Haget" />
		<tag k="place" v="farm" />
		<tag k="ssr:stedsnr" v="831508" />
	</node>
	<node id="-32688" lat="60.3575499994" lon="11.3580694378">
		<tag k="name" v="Bleikeberg" />
		<tag k="place" v="farm" />
		<tag k="ssr:stedsnr" v="831085" />
	</node>
	<node id="-32687" lat="60.3103944486" lon="11.2474472223">
		<tag k="alt_name" v="Ålborg søgarn" />
		<tag k="name" v="Søgarden Ålborg" />
		<tag k="place" v="farm" />
		<tag k="ssr:stedsnr" v="830300" />
	</node>
	<node id="-32686" lat="60.316427779" lon="11.2460861074">
		<tag k="name" v="Hunnsebettet" />
		<tag k="place" v="hamlet" />
		<tag k="ssr:stedsnr" v="830285" />
	</node>
	<node id="-32684" lat="60.5533666699" lon="11.1784666685">
		<tag k="name" v="Åsli" />
		<tag k="place" v="farm" />
		<tag k="ssr:stedsnr" v="829949" />
	</node>
	<node id="-32683" lat="60.3647166629" lon="11.2751249975">
		<tag k="alt_name" v="Sander okgarn" />
		<tag k="name" v="Oppgarden Sander" />
		<tag k="place" v="farm" />
		<tag k="ssr:stedsnr" v="829853" />
	</node>
	<node id="-32680" lat="60.3531555548" lon="11.1862499966">
		<tag k="name" v="Skogsrud" />
		<tag k="place" v="isolated_dwelling" />
		<tag k="ssr:stedsnr" v="829198" />
	</node>
	<node id="-32678" lat="60.3545249962" lon="11.1513527685">
		<tag k="historic" v="shieling" />
		<tag k="name" v="Vestgardsvangen" />
		<tag k="place" v="locality" />
		<tag k="ssr:stedsnr" v="829183" />
	</node>
	<node id="-32677" lat="60.3656166657" lon="11.1525361161">
		<tag k="name" v="Kleivdalshytta" />
		<tag k="place" v="isolated_dwelling" />
		<tag k="ssr:stedsnr" v="829177" />
	</node>
	<node id="-32675" lat="60.363033333" lon="11.1924972218">
		<tag k="name" v="Rønningen" />
		<tag k="place" v="farm" />
		<tag k="ssr:stedsnr" v="829069" />
	</node>
	<node id="-32674" lat="60.3516361126" lon="11.2414750089">
		<tag k="name" v="Doknes" />
		<tag k="place" v="farm" />
		<tag k="ssr:stedsnr" v="829066" />
	</node>
	<node id="-32672" lat="60.353233333" lon="11.2885555622">
		<tag k="name" v="Hemlibakken" />
		<tag k="place" v="farm" />
		<tag k="ssr:stedsnr" v="829059" />
	</node>
	<node id="-32671" lat="60.3693749977" lon="11.2759583385">
		<tag k="name" v="Vollsgrenda" />
		<tag k="place" v="hamlet" />
		<tag k="ssr:stedsnr" v="829018" />
	</node>
	<node id="-32669" lat="60.3805916692" lon="11.2655472172">
		<tag k="name" v="Nord-Brøstad" />
		<tag k="place" v="farm" />
		<tag k="ssr:stedsnr" v="829007" />
	</node>
	<node id="-32668" lat="60.3654555529" lon="11.2682499915">
		<tag k="alt_name" v="Sander søstun" />
		<tag k="name" v="Søstuen Sander" />
		<tag k="place" v="farm" />
		<tag k="ssr:stedsnr" v="829004" />
	</node>
	<node id="-32667" lat="60.5129777735" lon="11.1811277708">
		<tag k="name" v="Fagernes" />
		<tag k="place" v="farm" />
		<tag k="ssr:stedsnr" v="829002" />
	</node>
	<node id="-32666" lat="60.4697305565" lon="11.2400472183">
		<tag k="fixme" v="consider place=hamlet" />
		<tag k="name" v="Morskogen" />
		<tag k="place" v="village" />
		<tag k="ssr:stedsnr" v="814397" />
	</node>
	<node id="-32664" lat="60.5593539253" lon="11.1825165895">
		<tag k="fixme" v="consider place=hamlet" />
		<tag k="name" v="Berger" />
		<tag k="place" v="farm" />
		<tag k="ssr:stedsnr" v="796399" />
	</node>
	<node id="-32663" lat="60.5566916711" lon="11.1044999932">
		<tag k="name" v="Falla" />
		<tag k="place" v="isolated_dwelling" />
		<tag k="ssr:stedsnr" v="796398" />
	</node>
	<node id="-32662" lat="60.4742805532" lon="11.2471666609">
		<tag k="alt_name" v="Ulvin;Ulven;Ulvin søndre;Ulven søndre" />
		<tag k="fixme" v="consider place=hamlet" />
		<tag k="name" v="Søndre Ulvin" />
		<tag k="place" v="farm" />
		<tag k="ssr:stedsnr" v="795687" />
	</node>
	<node id="-32661" lat="60.4320444421" lon="11.1895861064">
		<tag k="name" v="Solberg" />
		<tag k="place" v="farm" />
		<tag k="ssr:stedsnr" v="795548" />
	</node>
	<node id="-32660" lat="60.5228999962" lon="11.1861694393">
		<tag k="building" v="industrial" />
		<tag k="industrial" v="factory" />
		<tag k="name" v="Mølla" />
		<tag k="ssr:stedsnr" v="795545" />
	</node>
	<node id="-32658" lat="60.4511361106" lon="11.1356666628">
		<tag k="historic" v="shieling" />
		<tag k="name" v="Stordalsetra" />
		<tag k="place" v="locality" />
		<tag k="ssr:stedsnr" v="795513" />
	</node>
	<node id="-32657" lat="60.4347638919" lon="11.185897229">
		<tag k="name" v="Granheim" />
		<tag k="place" v="isolated_dwelling" />
		<tag k="ssr:stedsnr" v="795502" />
	</node>
	<node id="-32653" lat="60.4646527749" lon="11.2419166586">
		<tag k="name" v="Hellum" />
		<tag k="place" v="farm" />
		<tag k="ssr:stedsnr" v="795466" />
	</node>
	<node id="-32652" lat="60.4609361132" lon="11.2966638964">
		<tag k="name" v="Lysjøen" />
		<tag k="place" v="farm" />
		<tag k="ssr:stedsnr" v="795465" />
	</node>
	<node id="-32651" lat="60.4986916689" lon="11.1286166686">
		<tag k="alt_name" v="Limseth" />
		<tag k="name" v="Limset" />
		<tag k="place" v="farm" />
		<tag k="ssr:stedsnr" v="795445" />
	</node>
	<node id="-32648" lat="60.3349142878" lon="11.2326518624">
		<tag k="fixme" v="consider place=hamlet" />
		<tag k="name" v="Hol" />
		<tag k="place" v="farm" />
		<tag k="ssr:stedsnr" v="795130" />
	</node>
	<node id="-32646" lat="60.3458499987" lon="11.2670555543">
		<tag k="fixme" v="consider place=hamlet" />
		<tag k="name" v="Røkholt" />
		<tag k="place" v="farm" />
		<tag k="ssr:stedsnr" v="795114" />
	</node>
	<node id="-32644" lat="60.3741055541" lon="11.2674999952">
		<tag k="name" v="Habbarstad" />
		<tag k="place" v="hamlet" />
		<tag k="ssr:stedsnr" v="795087" />
	</node>
	<node id="-32643" lat="60.3726916622" lon="11.3506555584">
		<tag k="name" v="Sjøberg" />
		<tag k="place" v="hamlet" />
		<tag k="ssr:stedsnr" v="795086" />
	</node>
	<node id="-32642" lat="60.255483334" lon="11.2246833246">
		<tag k="name" v="Moen" />
		<tag k="place" v="farm" />
		<tag k="ssr:stedsnr" v="795249" />
	</node>
	<node id="-32641" lat="60.2567249978" lon="11.2070805614">
		<tag k="name" v="Løk" />
		<tag k="place" v="farm" />
		<tag k="ssr:stedsnr" v="795246" />
	</node>
	<node id="-32639" lat="60.2978833293" lon="11.1414027754">
		<tag k="name" v="Baserud" />
		<tag k="place" v="farm" />
		<tag k="ssr:stedsnr" v="795198" />
	</node>
	<node id="-32638" lat="60.379191663" lon="11.2495555588">
		<tag k="fixme" v="consider place=hamlet" />
		<tag k="name" v="Lynes" />
		<tag k="place" v="farm" />
		<tag k="ssr:stedsnr" v="795064" />
	</node>
	<node id="-32637" lat="60.3935500037" lon="11.3017694461">
		<tag k="name" v="Kampenhaug" />
		<tag k="place" v="farm" />
		<tag k="ssr:stedsnr" v="795042" />
	</node>
	<node id="-32635" lat="60.2414166654" lon="11.222874994">
		<tag k="name" v="Hasler" />
		<tag k="place" v="farm" />
		<tag k="ssr:stedsnr" v="794292" />
	</node>
	<node id="-32634" lat="60.3375805565" lon="11.3075194468">
		<tag k="leisure" v="pitch" />
		<tag k="name" v="Finnkollen lysløype" />
		<tag k="ssr:stedsnr" v="788526" />
	</node>
	<node id="-32633" lat="60.2841916706" lon="11.1812999948">
		<tag k="leisure" v="pitch" />
		<tag k="name" v="Eidsvoll stadion" />
		<tag k="ssr:stedsnr" v="788698" />
	</node>
	<node id="-32632" lat="60.4928638884" lon="11.1542694521">
		<tag k="leisure" v="pitch" />
		<tag k="name" v="Feiring idrettsanlegg" />
		<tag k="ssr:stedsnr" v="788697" />
	</node>
	<node id="-32631" lat="60.3859388927" lon="11.1918055532">
		<tag k="leisure" v="pitch" />
		<tag k="name" v="Minnesund skistadion" />
		<tag k="ssr:stedsnr" v="788684" />
	</node>
	<node id="-32630" lat="60.3157305593" lon="11.1441444448">
		<tag k="leisure" v="pitch" />
		<tag k="name" v="Eidsvoll verk skistadion" />
		<tag k="ssr:stedsnr" v="788683" />
	</node>
	<node id="-32629" lat="60.3279999973" lon="11.2738722183">
		<tag k="amenity" v="nursing_home" />
		<tag k="name" v="Vilberg legesenter" />
		<tag k="ssr:stedsnr" v="788671" />
	</node>
	<node id="-32628" lat="60.3282750019" lon="11.258802771">
		<tag k="name" v="Eidsvoll sentrum" />
		<tag k="place" v="quarter" />
		<tag k="ssr:stedsnr" v="788667" />
	</node>
	<node id="-32626" lat="60.3277250013" lon="11.2221361105">
		<tag k="building" v="civic" />
		<tag k="name" v="Eidsvoll brannstasjon" />
		<tag k="ssr:stedsnr" v="788665" />
	</node>
	<node id="-32625" lat="60.2671222183" lon="11.2200138961">
		<tag k="name" v="Svingen" />
		<tag k="place" v="farm" />
		<tag k="ssr:stedsnr" v="787944" />
	</node>
	<node id="-32620" lat="60.3273527821" lon="11.2838999988">
		<tag k="alt_name" v="Grue nordgarn" />
		<tag k="name" v="Nordgarden Grue" />
		<tag k="place" v="farm" />
		<tag k="ssr:stedsnr" v="787401" />
	</node>
	<node id="-32619" lat="60.3280472228" lon="11.2595666638">
		<tag k="name" v="Sundet" />
		<tag k="place" v="quarter" />
		<tag k="ssr:stedsnr" v="787398" />
	</node>
	<node id="-32618" lat="60.3431250001" lon="11.275036117">
		<tag k="alt_name" v="Sandholt østgarn" />
		<tag k="name" v="Østgarden Sandholt" />
		<tag k="place" v="farm" />
		<tag k="ssr:stedsnr" v="787384" />
	</node>
	<node id="-32616" lat="60.4967972182" lon="11.1615388861">
		<tag k="name" v="Kjonerud" />
		<tag k="place" v="farm" />
		<tag k="ssr:stedsnr" v="786335" />
	</node>
	<node id="-32615" lat="60.5000999972" lon="11.1626694357">
		<tag k="amenity" v="nursing_home" />
		<tag k="name" v="Feiring aldersheim" />
		<tag k="ssr:stedsnr" v="786321" />
	</node>
	<node id="-32614" lat="60.5120138859" lon="11.1752138812">
		<tag k="name" v="Kokkeby" />
		<tag k="place" v="farm" />
		<tag k="ssr:stedsnr" v="786314" />
	</node>
	<node id="-32611" lat="60.3442361117" lon="11.1879361026">
		<tag k="name" v="Svenskerud" />
		<tag k="place" v="farm" />
		<tag k="ssr:stedsnr" v="785943" />
	</node>
	<node id="-32608" lat="60.3334361072" lon="11.1848583355">
		<tag k="name" v="Boksrud" />
		<tag k="place" v="farm" />
		<tag k="ssr:stedsnr" v="785930" />
	</node>
	<node id="-32603" lat="60.2646027761" lon="11.1146916661">
		<tag k="name" v="Hansbråtan" />
		<tag k="place" v="locality" />
		<tag k="ssr:stedsnr" v="783774" />
	</node>
	<node id="-32601" lat="60.2607861079" lon="11.2077805515">
		<tag k="name" v="Holtet" />
		<tag k="place" v="locality" />
		<tag k="ssr:stedsnr" v="783767" />
	</node>
	<node id="-32599" lat="60.4010833339" lon="11.1582555577">
		<tag k="historic" v="shieling" />
		<tag k="name" v="Julsrudseter" />
		<tag k="place" v="locality" />
		<tag k="ssr:stedsnr" v="770832" />
	</node>
	<node id="-32597" lat="60.3920805546" lon="11.1412527761">
		<tag k="name" v="Julsrudhytta" />
		<tag k="place" v="isolated_dwelling" />
		<tag k="ssr:stedsnr" v="770813" />
	</node>
	<node id="-32596" lat="60.4013055554" lon="11.1881916748">
		<tag k="alt_name" v="Myrer Karistun" />
		<tag k="name" v="Karistuen Myrer" />
		<tag k="place" v="farm" />
		<tag k="ssr:stedsnr" v="770804" />
	</node>
	<node id="-32594" lat="60.4531277756" lon="11.1916944445">
		<tag k="name" v="Tosterud" />
		<tag k="place" v="farm" />
		<tag k="ssr:stedsnr" v="770727" />
	</node>
	<node id="-32593" lat="60.4675138885" lon="11.2398750028">
		<tag k="name" v="Karlstua" />
		<tag k="place" v="farm" />
		<tag k="ssr:stedsnr" v="770549" />
	</node>
	<node id="-32591" lat="60.2869111151" lon="11.1655055538">
		<tag k="name" v="Fransstua" />
		<tag k="place" v="farm" />
		<tag k="ssr:stedsnr" v="770538" />
	</node>
	<node id="-32590" lat="60.3017527752" lon="11.1421444359">
		<tag k="name" v="Vestbråtan" />
		<tag k="place" v="farm" />
		<tag k="ssr:stedsnr" v="770533" />
	</node>
	<node id="-32589" lat="60.4466638894" lon="11.2405666648">
		<tag k="name" v="Korslundsletta" />
		<tag k="place" v="farm" />
		<tag k="ssr:stedsnr" v="770500" />
	</node>
	<node id="-32588" lat="60.5531805538" lon="11.1561638807">
		<tag k="name" v="Sandvikbekken" />
		<tag k="place" v="farm" />
		<tag k="ssr:stedsnr" v="768947" />
	</node>
	<node id="-32582" lat="60.3603333299" lon="11.1510277695">
		<tag k="name" v="Håkonshytta" />
		<tag k="place" v="isolated_dwelling" />
		<tag k="ssr:stedsnr" v="768187" />
	</node>
	<node id="-32581" lat="60.5216472186" lon="11.1781944511">
		<tag k="name" v="Stefferud" />
		<tag k="place" v="farm" />
		<tag k="ssr:stedsnr" v="768038" />
	</node>
	<node id="-32580" lat="60.3591000012" lon="11.353302776">
		<tag k="name" v="Rundtom" />
		<tag k="place" v="farm" />
		<tag k="ssr:stedsnr" v="768025" />
	</node>
	<node id="-32579" lat="60.5200388928" lon="11.1777222181">
		<tag k="name" v="Stefferud" />
		<tag k="place" v="farm" />
		<tag k="ssr:stedsnr" v="768008" />
	</node>
	<node id="-32578" lat="60.3657750029" lon="11.2519666641">
		<tag k="name" v="Odden" />
		<tag k="place" v="farm" />
		<tag k="ssr:stedsnr" v="768007" />
	</node>
	<node id="-32575" lat="60.562958335" lon="11.1272388847">
		<tag k="historic" v="shieling" />
		<tag k="name" v="Bergerseter" />
		<tag k="place" v="locality" />
		<tag k="ssr:stedsnr" v="748985" />
	</node>
	<node id="-32572" lat="60.4345305554" lon="11.1544777869">
		<tag k="name" v="Bålsrudhytta" />
		<tag k="place" v="isolated_dwelling" />
		<tag k="ssr:stedsnr" v="648851" />
	</node>
	<node id="-32570" lat="60.4118083323" lon="11.1377000053">
		<tag k="name" v="Granhytta" />
		<tag k="place" v="isolated_dwelling" />
		<tag k="ssr:stedsnr" v="648831" />
	</node>
	<node id="-32567" lat="60.3989888893" lon="11.2016499958">
		<tag k="alt_name" v="Tansum søndre" />
		<tag k="name" v="Søndre Tansum" />
		<tag k="place" v="farm" />
		<tag k="ssr:stedsnr" v="648795" />
	</node>
	<node id="-32566" lat="60.3021861111" lon="11.1685972159">
		<tag k="name" v="Piro" />
		<tag k="place" v="farm" />
		<tag k="ssr:stedsnr" v="648611" />
	</node>
	<node id="-32565" lat="60.2994305551" lon="11.1804138878">
		<tag k="name" v="Madses" />
		<tag k="place" v="farm" />
		<tag k="ssr:stedsnr" v="648609" />
	</node>
	<node id="-32564" lat="60.2972944461" lon="11.1672250059">
		<tag k="amenity" v="school" />
		<tag k="name" v="Eidsvoll skole" />
		<tag k="ssr:stedsnr" v="648608" />
	</node>
	<node id="-32562" lat="60.2863083323" lon="11.1918249919">
		<tag k="name" v="Skjønhaug" />
		<tag k="place" v="farm" />
		<tag k="ssr:stedsnr" v="648603" />
	</node>
	<node id="-32561" lat="60.4402999996" lon="11.1386805637">
		<tag k="name" v="Årneshytta" />
		<tag k="place" v="isolated_dwelling" />
		<tag k="ssr:stedsnr" v="648741" />
	</node>
	<node id="-32560" lat="60.4280305515" lon="11.2430083356">
		<tag k="name" v="Ørbekkenga" />
		<tag k="place" v="farm" />
		<tag k="ssr:stedsnr" v="648700" />
	</node>
	<node id="-32555" lat="60.5565083343" lon="11.1863388857">
		<tag k="name" v="Nordre Alnes" />
		<tag k="place" v="farm" />
		<tag k="ssr:stedsnr" v="647992" />
	</node>
	<node id="-32552" lat="60.5607888871" lon="11.1794222248">
		<tag k="name" v="Enger" />
		<tag k="place" v="farm" />
		<tag k="ssr:stedsnr" v="647959" />
	</node>
	<node id="-32550" lat="60.3694320626" lon="11.2751465016">
		<tag k="name" v="Habbarstadvollen" />
		<tag k="place" v="farm" />
		<tag k="ssr:stedsnr" v="647020" />
	</node>
	<node id="-32549" lat="60.5138472195" lon="11.1871972166">
		<tag k="name" v="Fagernes" />
		<tag k="place" v="farm" />
		<tag k="ssr:stedsnr" v="647005" />
	</node>
	<node id="-32548" lat="60.3615999978" lon="11.2156111071">
		<tag k="name" v="Dokkensvingen" />
		<tag k="place" v="farm" />
		<tag k="ssr:stedsnr" v="646046" />
	</node>
	<node id="-32546" lat="60.3592055524" lon="11.2707888826">
		<tag k="alt_name" v="Hol arstun" />
		<tag k="name" v="Arstuen Hol" />
		<tag k="place" v="farm" />
		<tag k="ssr:stedsnr" v="646008" />
	</node>
	<node id="-32545" lat="60.3642222209" lon="11.2535833396">
		<tag k="name" v="Finnsflaen" />
		<tag k="place" v="farm" />
		<tag k="ssr:stedsnr" v="646002" />
	</node>
	<node id="-32542" lat="60.4415333357" lon="11.3363777801">
		<tag k="alt_name" v="Brustadvangen" />
		<tag k="name" v="Brøstadvangen" />
		<tag k="place" v="locality" />
		<tag k="ssr:stedsnr" v="613469" />
	</node>
	<node id="-32538" lat="60.4432805601" lon="11.1845861051">
		<tag k="fixme" v="consider place=hamlet" />
		<tag k="name" v="Bålsrud" />
		<tag k="place" v="farm" />
		<tag k="ssr:stedsnr" v="613442" />
	</node>
	<node id="-32537" lat="60.300537969" lon="11.2518485006">
		<tag k="fixme" v="consider place=hamlet" />
		<tag k="name" v="Dalum" />
		<tag k="place" v="farm" />
		<tag k="ssr:stedsnr" v="613148" />
	</node>
	<node id="-32536" lat="60.312674996" lon="11.2875361125">
		<tag k="name" v="Katterud" />
		<tag k="place" v="farm" />
		<tag k="ssr:stedsnr" v="613146" />
	</node>
	<node id="-32535" lat="60.3118416631" lon="11.1630638885">
		<tag k="name" v="Olsrud" />
		<tag k="place" v="farm" />
		<tag k="ssr:stedsnr" v="613135" />
	</node>
	<node id="-32534" lat="60.312299997" lon="11.2008083299">
		<tag k="name" v="Åmot" />
		<tag k="place" v="farm" />
		<tag k="ssr:stedsnr" v="613134" />
	</node>
	<node id="-32533" lat="60.3167638932" lon="11.3175666642">
		<tag k="name" v="Åsletta" />
		<tag k="place" v="farm" />
		<tag k="ssr:stedsnr" v="613126" />
	</node>
	<node id="-32532" lat="60.3661333365" lon="11.216550006">
		<tag k="name" v="Dokken" />
		<tag k="place" v="farm" />
		<tag k="ssr:stedsnr" v="613080" />
	</node>
	<node id="-32531" lat="60.2744890777" lon="11.2161591359">
		<tag k="alt_name" v="Linnerud" />
		<tag k="name" v="Linderud" />
		<tag k="place" v="farm" />
		<tag k="ssr:stedsnr" v="613193" />
	</node>
	<node id="-32530" lat="60.2727713018" lon="11.3194451024">
		<tag k="fixme" v="consider place=hamlet" />
		<tag k="name" v="Frilset" />
		<tag k="place" v="farm" />
		<tag k="ssr:stedsnr" v="613187" />
	</node>
	<node id="-32528" lat="60.4193464575" lon="11.257674188">
		<tag k="alt_name" v="Fallet" />
		<tag k="name" v="Ørbekkfallet" />
		<tag k="place" v="farm" />
		<tag k="ssr:stedsnr" v="612526" />
	</node>
	<node id="-32525" lat="60.4170527815" lon="11.1533388802">
		<tag k="name" v="Rynes" />
		<tag k="place" v="farm" />
		<tag k="ssr:stedsnr" v="612496" />
	</node>
	<node id="-32524" lat="60.329077777" lon="11.2283138811">
		<tag k="name" v="Myrer" />
		<tag k="place" v="farm" />
		<tag k="ssr:stedsnr" v="612146" />
	</node>
	<node id="-32522" lat="60.3517000021" lon="11.3648861101">
		<tag k="name" v="Sortnes" />
		<tag k="place" v="farm" />
		<tag k="ssr:stedsnr" v="612117" />
	</node>
	<node id="-32520" lat="60.3532250023" lon="11.3565861041">
		<tag k="name" v="Tunli" />
		<tag k="place" v="farm" />
		<tag k="ssr:stedsnr" v="612107" />
	</node>
	<node id="-32519" lat="60.3504027787" lon="11.1952638846">
		<tag k="name" v="Hellerud" />
		<tag k="place" v="farm" />
		<tag k="ssr:stedsnr" v="612096" />
	</node>
	<node id="-32518" lat="60.3665472193" lon="11.3460944478">
		<tag k="alt_name" v="Søli" />
		<tag k="name" v="Sørli" />
		<tag k="place" v="farm" />
		<tag k="ssr:stedsnr" v="612092" />
	</node>
	<node id="-32516" lat="60.4730158586" lon="11.14452262">
		<tag k="fixme" v="consider place=hamlet" />
		<tag k="name" v="Svenby" />
		<tag k="place" v="farm" />
		<tag k="ssr:stedsnr" v="612451" />
	</node>
	<node id="-32515" lat="60.4609305552" lon="11.2880944472">
		<tag k="alt_name" v="Ulvesetra" />
		<tag k="historic" v="shieling" />
		<tag k="name" v="Ulvinsetra" />
		<tag k="place" v="locality" />
		<tag k="ssr:stedsnr" v="612435" />
	</node>
	<node id="-32514" lat="60.488699998" lon="11.1494499942">
		<tag k="name" v="Rud" />
		<tag k="place" v="farm" />
		<tag k="ssr:stedsnr" v="612427" />
	</node>
	<node id="-32513" lat="60.4910638928" lon="11.1554694432">
		<tag k="alt_name" v="Ødegård" />
		<tag k="name" v="Øgarden" />
		<tag k="place" v="isolated_dwelling" />
		<tag k="ssr:stedsnr" v="612426" />
	</node>
	<node id="-32512" lat="60.4863944432" lon="11.1631777837">
		<tag k="name" v="Mjøsstrand" />
		<tag k="place" v="neighbourhood" />
		<tag k="ssr:stedsnr" v="612415" />
	</node>
	<node id="-32510" lat="60.3607250029" lon="11.193300003">
		<tag k="fixme" v="consider place=hamlet" />
		<tag k="name" v="Oppsalenga" />
		<tag k="place" v="farm" />
		<tag k="ssr:stedsnr" v="612079" />
	</node>
	<node id="-32508" lat="60.2958888846" lon="11.1959944489">
		<tag k="leisure" v="pitch" />
		<tag k="name" v="Bøn stadion" />
		<tag k="ssr:stedsnr" v="606704" />
	</node>
	<node id="-32507" lat="60.2813769222" lon="11.1740984696">
		<tag k="amenity" v="nursing_home" />
		<tag k="name" v="Råholt legesenter" />
		<tag k="ssr:stedsnr" v="606686" />
	</node>
	<node id="-32503" lat="60.3000333331" lon="11.2503916727">
		<tag k="name" v="Sø-Dalum" />
		<tag k="place" v="farm" />
		<tag k="ssr:stedsnr" v="604734" />
	</node>
	<node id="-32500" lat="60.3022222204" lon="11.1931638902">
		<tag k="name" v="Olstad" />
		<tag k="old_name" v="Solstad" />
		<tag k="place" v="isolated_dwelling" />
		<tag k="ssr:stedsnr" v="604716" />
	</node>
	<node id="-32498" lat="60.3115888855" lon="11.2979527861">
		<tag k="name" v="Engerhagan" />
		<tag k="place" v="hamlet" />
		<tag k="ssr:stedsnr" v="603506" />
	</node>
	<node id="-32497" lat="60.3219083316" lon="11.2401055643">
		<tag k="name" v="Fagerli" />
		<tag k="place" v="farm" />
		<tag k="ssr:stedsnr" v="603486" />
	</node>
	<node id="-32496" lat="60.5087972245" lon="11.1692250026">
		<tag k="name" v="Toppen" />
		<tag k="place" v="farm" />
		<tag k="ssr:stedsnr" v="603303" />
	</node>
	<node id="-32492" lat="60.4630638899" lon="11.298249996">
		<tag k="name" v="Lysjøkoia" />
		<tag k="place" v="isolated_dwelling" />
		<tag k="ssr:stedsnr" v="603380" />
	</node>
	<node id="-32491" lat="60.3456694451" lon="11.2179750016">
		<tag k="name" v="Smedstadhagan" />
		<tag k="place" v="farm" />
		<tag k="ssr:stedsnr" v="602928" />
	</node>
	<node id="-32490" lat="60.3451999963" lon="11.2395999912">
		<tag k="fixme" v="multiple name tags, choose one and add the other to alt_name" />
		<tag k="name" v="Kommisrud;Nordstuen Kommisrud" />
		<tag k="place" v="farm" />
		<tag k="ssr:stedsnr" v="602924" />
	</node>
	<node id="-32489" lat="60.3358333368" lon="11.2051111122">
		<tag k="alt_name" v="Ås vestgarn" />
		<tag k="name" v="Vestgarden Ås" />
		<tag k="place" v="farm" />
		<tag k="ssr:stedsnr" v="602912" />
	</node>
	<node id="-32488" lat="60.328286113" lon="11.1769055475">
		<tag k="alt_name" v="Blakkesrud søndre" />
		<tag k="name" v="Søndre Blakkesrud" />
		<tag k="place" v="farm" />
		<tag k="ssr:stedsnr" v="602882" />
	</node>
	<node id="-32484" lat="60.2524483221" lon="11.2037183108">
		<tag k="fixme" v="consider place=hamlet" />
		<tag k="name" v="Bjørnsrud" />
		<tag k="place" v="farm" />
		<tag k="ssr:stedsnr" v="600207" />
	</node>
	<node id="-32482" lat="60.2422333362" lon="11.173900006">
		<tag k="name" v="Homlen" />
		<tag k="place" v="farm" />
		<tag k="ssr:stedsnr" v="600198" />
	</node>
	<node id="-32476" lat="60.4156249979" lon="11.2675111065">
		<tag k="alt_name" v="Holtet nordstun" />
		<tag k="name" v="Nordstuen Holtet" />
		<tag k="place" v="farm" />
		<tag k="ssr:stedsnr" v="588691" />
	</node>
	<node id="-32475" lat="60.4702000012" lon="11.1737611172">
		<tag k="name" v="Sundby" />
		<tag k="place" v="farm" />
		<tag k="ssr:stedsnr" v="588559" />
	</node>
	<node id="-32473" lat="60.4448166642" lon="11.243075003">
		<tag k="alt_name" v="Korslund nedre" />
		<tag k="name" v="Nedre Korslund" />
		<tag k="place" v="farm" />
		<tag k="ssr:stedsnr" v="588543" />
	</node>
	<node id="-32472" lat="60.4421666639" lon="11.2405111054">
		<tag k="name" v="Framnes" />
		<tag k="place" v="farm" />
		<tag k="ssr:stedsnr" v="588496" />
	</node>
	<node id="-32470" lat="60.3926416644" lon="11.2322972159">
		<tag k="name" v="Minneverket" />
		<tag k="place" v="farm" />
		<tag k="ssr:stedsnr" v="587825" />
	</node>
	<node id="-32469" lat="60.2977083313" lon="11.178616669">
		<tag k="name" v="Amunds" />
		<tag k="place" v="farm" />
		<tag k="ssr:stedsnr" v="587638" />
	</node>
	<node id="-32468" lat="60.2847117341" lon="11.2197526402">
		<tag k="alt_name" v="Nestun" />
		<tag k="name" v="Nedstuen Haga" />
		<tag k="place" v="farm" />
		<tag k="ssr:stedsnr" v="587625" />
	</node>
	<node id="-32465" lat="60.2952861107" lon="11.1615527702">
		<tag k="name" v="Mattises" />
		<tag k="place" v="farm" />
		<tag k="ssr:stedsnr" v="587572" />
	</node>
	<node id="-32464" lat="60.401700001" lon="11.1871833333">
		<tag k="alt_name" v="Myrer nystun" />
		<tag k="name" v="Nystuen Myrer" />
		<tag k="place" v="farm" />
		<tag k="ssr:stedsnr" v="587823" />
	</node>
	<node id="-32459" lat="60.3668972253" lon="11.197327771">
		<tag k="alt_name" v="Åsgard nordgarn" />
		<tag k="name" v="Nordgarden Åsgard" />
		<tag k="place" v="farm" />
		<tag k="ssr:stedsnr" v="586045" />
	</node>
	<node id="-32458" lat="60.3625277791" lon="11.1985750046">
		<tag k="name" v="Oppsalenga" />
		<tag k="place" v="farm" />
		<tag k="ssr:stedsnr" v="586044" />
	</node>
	<node id="-32457" lat="60.3558194431" lon="11.2817027731">
		<tag k="name" v="Dalsløkka" />
		<tag k="place" v="farm" />
		<tag k="ssr:stedsnr" v="586039" />
	</node>
	<node id="-32456" lat="60.3517055516" lon="11.2373999993">
		<tag k="alt_name" v="Doknes søgarn" />
		<tag k="name" v="Søgarden Doknes" />
		<tag k="place" v="farm" />
		<tag k="ssr:stedsnr" v="586035" />
	</node>
	<node id="-32455" lat="60.3593333361" lon="11.191974997">
		<tag k="name" v="Fjellheim" />
		<tag k="place" v="farm" />
		<tag k="ssr:stedsnr" v="586032" />
	</node>
	<node id="-32452" lat="60.5163222216" lon="11.1770333377">
		<tag k="alt_name" v="Rundholt nordre" />
		<tag k="name" v="Nordre Rundholt" />
		<tag k="place" v="farm" />
		<tag k="ssr:stedsnr" v="586009" />
	</node>
	<node id="-32451" lat="60.5240888884" lon="11.1095638829">
		<tag k="historic" v="shieling" />
		<tag k="name" v="Steinbergsetra" />
		<tag k="place" v="locality" />
		<tag k="ssr:stedsnr" v="586004" />
	</node>
	<node id="-32449" lat="60.4798999977" lon="11.2688444507">
		<tag k="name" v="Rundmyrkoia" />
		<tag k="place" v="isolated_dwelling" />
		<tag k="ssr:stedsnr" v="585213" />
	</node>
	<node id="-32448" lat="60.475661109" lon="11.1465055465">
		<tag k="name" v="Bjørkehaugen" />
		<tag k="place" v="farm" />
		<tag k="ssr:stedsnr" v="588562" />
	</node>
	<node id="-32444" lat="60.5587888864" lon="11.1496583356">
		<tag k="fixme" v="multiple name tags, choose one and add the other to alt_name" />
		<tag k="historic" v="shieling" />
		<tag k="name" v="Hemre Bergersetra;Holsetra" />
		<tag k="place" v="locality" />
		<tag k="ssr:stedsnr" v="553384" />
	</node>
	<node id="-32440" lat="60.5183055597" lon="11.1150083289">
		<tag k="historic" v="shieling" />
		<tag k="name" v="Bamrudsetra" />
		<tag k="place" v="locality" />
		<tag k="ssr:stedsnr" v="552563" />
	</node>
	<node id="-32439" lat="60.412524998" lon="11.3584999988">
		<tag k="name" v="Rønsenvangen" />
		<tag k="place" v="isolated_dwelling" />
		<tag k="ssr:stedsnr" v="552559" />
	</node>
	<node id="-32438" lat="60.2483944404" lon="11.2027527705">
		<tag k="name" v="Dal" />
		<tag k="place" v="village" />
		<tag k="ssr:stedsnr" v="552242" />
	</node>
	<node id="-32436" lat="60.4590555517" lon="11.2520055637">
		<tag k="name" v="Brøhaugstua" />
		<tag k="place" v="farm" />
		<tag k="ssr:stedsnr" v="552462" />
	</node>
	<node id="-32435" lat="60.4623166624" lon="11.3109527754">
		<tag k="alt_name" v="Finnsbråten" />
		<tag k="name" v="Finnsbråtan" />
		<tag k="place" v="isolated_dwelling" />
		<tag k="ssr:stedsnr" v="552454" />
	</node>
	<node id="-32433" lat="60.2562694469" lon="11.19695555">
		<tag k="alt_name" v="Mo" />
		<tag k="name" v="Hjera" />
		<tag k="place" v="farm" />
		<tag k="ssr:stedsnr" v="552231" />
	</node>
	<node id="-32432" lat="60.2740694455" lon="11.119211115">
		<tag k="alt_name" v="Berger bruk" />
		<tag k="name" v="Berger" />
		<tag k="place" v="farm" />
		<tag k="ssr:stedsnr" v="552214" />
	</node>
	<node id="-32431" lat="60.2894694407" lon="11.1557944485">
		<tag k="fixme" v="consider place=suburb, village or hamlet" />
		<tag k="name" v="Sagmoen" />
		<tag k="place" v="quarter" />
		<tag k="ssr:stedsnr" v="552192" />
	</node>
	<node id="-32430" lat="60.2876142855" lon="11.2845112498">
		<tag k="fixme" v="consider place=hamlet" />
		<tag k="name" v="Strand" />
		<tag k="place" v="farm" />
		<tag k="ssr:stedsnr" v="552188" />
	</node>
	<node id="-32429" lat="60.2825527803" lon="11.2552500027">
		<tag k="name" v="Kinn" />
		<tag k="place" v="farm" />
		<tag k="ssr:stedsnr" v="552186" />
	</node>
	<node id="-32427" lat="60.3884027786" lon="11.3125472266">
		<tag k="historic" v="shieling" />
		<tag k="name" v="Lynessetra" />
		<tag k="place" v="locality" />
		<tag k="ssr:stedsnr" v="552038" />
	</node>
	<node id="-32426" lat="60.3354333351" lon="11.2046749919">
		<tag k="fixme" v="consider place=hamlet" />
		<tag k="name" v="Ås" />
		<tag k="place" v="farm" />
		<tag k="ssr:stedsnr" v="552130" />
	</node>
	<node id="-32425" lat="60.3406388851" lon="11.171794448">
		<tag k="name" v="Vollebekk" />
		<tag k="place" v="isolated_dwelling" />
		<tag k="ssr:stedsnr" v="552115" />
	</node>
	<node id="-32424" lat="60.3429305567" lon="11.2704250077">
		<tag k="fixme" v="consider place=hamlet" />
		<tag k="name" v="Sandholt" />
		<tag k="place" v="farm" />
		<tag k="ssr:stedsnr" v="552103" />
	</node>
	<node id="-32423" lat="60.3515305595" lon="11.1753111204">
		<tag k="name" v="Sandhaugen" />
		<tag k="place" v="isolated_dwelling" />
		<tag k="ssr:stedsnr" v="552091" />
	</node>
	<node id="-32422" lat="60.3657749961" lon="11.3303972205">
		<tag k="name" v="Hemlivangen" />
		<tag k="place" v="farm" />
		<tag k="ssr:stedsnr" v="552087" />
	</node>
	<node id="-32421" lat="60.3591750019" lon="11.3671222151">
		<tag k="name" v="Skogli" />
		<tag k="place" v="farm" />
		<tag k="ssr:stedsnr" v="552085" />
	</node>
	<node id="-32418" lat="60.3618138881" lon="11.1549694486">
		<tag k="historic" v="shieling" />
		<tag k="name" v="Lisetra" />
		<tag k="place" v="locality" />
		<tag k="ssr:stedsnr" v="552063" />
	</node>
	<node id="-32417" lat="60.3856138915" lon="11.1645277809">
		<tag k="name" v="Fatoppvangen" />
		<tag k="place" v="locality" />
		<tag k="ssr:stedsnr" v="552060" />
	</node>
	<node id="-32416" lat="60.3802583344" lon="11.3606000016">
		<tag k="name" v="Millidalen" />
		<tag k="place" v="farm" />
		<tag k="ssr:stedsnr" v="552059" />
	</node>
	<node id="-32415" lat="60.377141671" lon="11.2650333273">
		<tag k="name" v="Brøstad" />
		<tag k="old_name" v="Brustad" />
		<tag k="place" v="hamlet" />
		<tag k="ssr:stedsnr" v="552057" />
	</node>
	<node id="-32413" lat="60.398825001" lon="11.2017722285">
		<tag k="fixme" v="consider place=hamlet" />
		<tag k="name" v="Tansum" />
		<tag k="place" v="farm" />
		<tag k="ssr:stedsnr" v="552017" />
	</node>
	<node id="-32411" lat="60.3908666625" lon="11.1657833318">
		<tag k="name" v="Fatoppstua" />
		<tag k="place" v="isolated_dwelling" />
		<tag k="ssr:stedsnr" v="552002" />
	</node>
	<node id="-32407" lat="60.3296111125" lon="11.2152527785">
		<tag k="amenity" v="school" />
		<tag k="name" v="Ås skole" />
		<tag k="ssr:stedsnr" v="545709" />
	</node>
	<node id="-32406" lat="60.2447583374" lon="11.2052722143">
		<tag k="leisure" v="pitch" />
		<tag k="name" v="Dal idrettsanlegg" />
		<tag k="ssr:stedsnr" v="545688" />
	</node>
	<node id="-32405" lat="60.3017972204" lon="11.2427472226">
		<tag k="name" v="Hellberget" />
		<tag k="place" v="farm" />
		<tag k="ssr:stedsnr" v="544733" />
	</node>
	<node id="-32404" lat="60.2983000035" lon="11.2773472196">
		<tag k="name" v="Fraurud søenga" />
		<tag k="place" v="farm" />
		<tag k="ssr:stedsnr" v="544726" />
	</node>
	<node id="-32403" lat="60.3047638873" lon="11.3014916727">
		<tag k="alt_name" v="Jøndal dølstun" />
		<tag k="name" v="Dølstuen Jøndal" />
		<tag k="place" v="farm" />
		<tag k="ssr:stedsnr" v="544720" />
	</node>
	<node id="-32402" lat="60.3082249972" lon="11.1606722227">
		<tag k="name" v="Holen" />
		<tag k="place" v="farm" />
		<tag k="ssr:stedsnr" v="544713" />
	</node>
	<node id="-32401" lat="60.3043694473" lon="11.2017249988">
		<tag k="name" v="Dønnumsflaen" />
		<tag k="place" v="farm" />
		<tag k="ssr:stedsnr" v="544681" />
	</node>
	<node id="-32400" lat="60.3045194413" lon="11.188427769">
		<tag k="name" v="Fossum" />
		<tag k="place" v="farm" />
		<tag k="ssr:stedsnr" v="544679" />
	</node>
	<node id="-32399" lat="60.2795777737" lon="11.1887527736">
		<tag k="alt_name" v="Fuglerud søndre" />
		<tag k="name" v="Søndre Fuglerud" />
		<tag k="place" v="farm" />
		<tag k="ssr:stedsnr" v="544974" />
	</node>
	<node id="-32397" lat="60.2737138876" lon="11.1887222257">
		<tag k="amenity" v="school" />
		<tag k="name" v="Råholt skole" />
		<tag k="old_name" v="Råholt barneskole" />
		<tag k="ssr:stedsnr" v="544961" />
	</node>
	<node id="-32396" lat="60.3464527785" lon="11.2658777834">
		<tag k="alt_name" v="Røkholt nordgarn" />
		<tag k="name" v="Nordgarden Røkholt" />
		<tag k="place" v="farm" />
		<tag k="ssr:stedsnr" v="544373" />
	</node>
	<node id="-32394" lat="60.3427805511" lon="11.2704444473">
		<tag k="alt_name" v="Sandholt nordstun" />
		<tag k="name" v="Nordstuen Sandholt" />
		<tag k="place" v="farm" />
		<tag k="ssr:stedsnr" v="544362" />
	</node>
	<node id="-32393" lat="60.3054555536" lon="11.3030611026">
		<tag k="alt_name" v="Jøndal øststun" />
		<tag k="name" v="Øststuen Jøndal" />
		<tag k="place" v="farm" />
		<tag k="ssr:stedsnr" v="543480" />
	</node>
	<node id="-32392" lat="60.4805333334" lon="11.1619138976">
		<tag k="name" v="Årnes" />
		<tag k="place" v="farm" />
		<tag k="ssr:stedsnr" v="543401" />
	</node>
	<node id="-32390" lat="60.4713583329" lon="11.2665055608">
		<tag k="name" v="Nordstad" />
		<tag k="place" v="farm" />
		<tag k="ssr:stedsnr" v="543416" />
	</node>
	<node id="-32389" lat="60.4653555599" lon="11.2735638838">
		<tag k="name" v="Lyngstad" />
		<tag k="place" v="farm" />
		<tag k="ssr:stedsnr" v="543411" />
	</node>
	<node id="-32387" lat="60.3421583296" lon="11.2174638814">
		<tag k="name" v="Sø-Smedstad" />
		<tag k="place" v="farm" />
		<tag k="ssr:stedsnr" v="542940" />
	</node>
	<node id="-32386" lat="60.3436333319" lon="11.2243416598">
		<tag k="alt_name" v="Smedstad søstun" />
		<tag k="name" v="Søstuen Smedstad" />
		<tag k="place" v="farm" />
		<tag k="ssr:stedsnr" v="542937" />
	</node>
	<node id="-32385" lat="60.3370138854" lon="11.1858388917">
		<tag k="name" v="Boksrudbråtan" />
		<tag k="place" v="farm" />
		<tag k="ssr:stedsnr" v="542919" />
	</node>
	<node id="-32368" lat="60.4476805537" lon="11.1880555626">
		<tag k="name" v="Berget" />
		<tag k="place" v="farm" />
		<tag k="ssr:stedsnr" v="527746" />
	</node>
	<node id="-32367" lat="60.5452972185" lon="11.1560944527">
		<tag k="historic" v="shieling" />
		<tag k="name" v="Alnesseter" />
		<tag k="place" v="locality" />
		<tag k="ssr:stedsnr" v="526951" />
	</node>
	<node id="-32364" lat="60.3059361153" lon="11.2766666734">
		<tag k="alt_name" v="Nord-Strand søgarn" />
		<tag k="name" v="Søgarden Nord-Strand" />
		<tag k="place" v="farm" />
		<tag k="ssr:stedsnr" v="526310" />
	</node>
	<node id="-32363" lat="60.3040917546" lon="11.2538192219">
		<tag k="name" v="Innleggen" />
		<tag k="place" v="locality" />
		<tag k="ssr:stedsnr" v="526305" />
	</node>
	<node id="-32362" lat="60.3056444482" lon="11.2121472275">
		<tag k="alt_name" v="Dønnum nystun" />
		<tag k="name" v="Nystuen Dønnum" />
		<tag k="place" v="farm" />
		<tag k="ssr:stedsnr" v="526286" />
	</node>
	<node id="-32359" lat="60.3494222245" lon="11.286061106">
		<tag k="name" v="Høgtun" />
		<tag k="place" v="farm" />
		<tag k="ssr:stedsnr" v="525059" />
	</node>
	<node id="-32358" lat="60.3487972242" lon="11.3659749918">
		<tag k="name" v="Storbråtan" />
		<tag k="place" v="farm" />
		<tag k="ssr:stedsnr" v="525033" />
	</node>
	<node id="-32354" lat="60.4154348977" lon="11.2683901989">
		<tag k="fixme" v="consider place=hamlet" />
		<tag k="name" v="Holtet" />
		<tag k="place" v="farm" />
		<tag k="ssr:stedsnr" v="431539" />
	</node>
	<node id="-32353" lat="60.4452333289" lon="11.1965444523">
		<tag k="name" v="Bekkelund" />
		<tag k="place" v="farm" />
		<tag k="ssr:stedsnr" v="431497" />
	</node>
	<node id="-32350" lat="60.2828361109" lon="11.1722805495">
		<tag k="name" v="Råholt" />
		<tag k="place" v="farm" />
		<tag k="ssr:stedsnr" v="431198" />
	</node>
	<node id="-32349" lat="60.3064930342" lon="11.2902410614">
		<tag k="fixme" v="consider place=hamlet" />
		<tag k="name" v="Våler" />
		<tag k="place" v="farm" />
		<tag k="ssr:stedsnr" v="431186" />
	</node>
	<node id="-32347" lat="60.2916249967" lon="11.1701055644">
		<tag k="name" v="Lundgard" />
		<tag k="place" v="farm" />
		<tag k="ssr:stedsnr" v="431182" />
	</node>
	<node id="-32345" lat="60.2636972222" lon="11.1839111098">
		<tag k="name" v="Ladderud" />
		<tag k="place" v="farm" />
		<tag k="ssr:stedsnr" v="431236" />
	</node>
	<node id="-32343" lat="60.3106629914" lon="11.2448261879">
		<tag k="fixme" v="consider place=hamlet" />
		<tag k="name" v="Ålborg" />
		<tag k="place" v="farm" />
		<tag k="ssr:stedsnr" v="431156" />
	</node>
	<node id="-32339" lat="60.3188000162" lon="11.1894466683">
		<tag k="alt_name" v="Brensmork" />
		<tag k="fixme" v="consider place=hamlet" />
		<tag k="name" v="Brennsmork" />
		<tag k="place" v="farm" />
		<tag k="ssr:stedsnr" v="431130" />
	</node>
	<node id="-32338" lat="60.3420361148" lon="11.2013194425">
		<tag k="fixme" v="consider place=hamlet" />
		<tag k="name" v="Ås" />
		<tag k="place" v="farm" />
		<tag k="ssr:stedsnr" v="431125" />
	</node>
	<node id="-32337" lat="60.3370333347" lon="11.178683325">
		<tag k="name" v="Kroksrud" />
		<tag k="place" v="farm" />
		<tag k="ssr:stedsnr" v="431124" />
	</node>
	<node id="-32336" lat="60.3491573196" lon="11.3309663511">
		<tag k="name" v="Myrvoll" />
		<tag k="place" v="farm" />
		<tag k="ssr:stedsnr" v="431094" />
	</node>
	<node id="-32335" lat="60.3597611145" lon="11.4115944396">
		<tag k="name" v="Vilbergsvangen" />
		<tag k="place" v="isolated_dwelling" />
		<tag k="ssr:stedsnr" v="431088" />
	</node>
	<node id="-32333" lat="60.2831444472" lon="11.2398944401">
		<tag k="name" v="Holtflaen" />
		<tag k="place" v="farm" />
		<tag k="ssr:stedsnr" v="423982" />
	</node>
	<node id="-32332" lat="60.276091666" lon="11.2479305584">
		<tag k="name" v="Mamre" />
		<tag k="place" v="farm" />
		<tag k="ssr:stedsnr" v="423978" />
	</node>
	<node id="-32331" lat="60.2693861131" lon="11.2021194483">
		<tag k="name" v="Rundtom" />
		<tag k="place" v="farm" />
		<tag k="ssr:stedsnr" v="423960" />
	</node>
	<node id="-32330" lat="60.3077583304" lon="11.161163891">
		<tag k="name" v="Forberg" />
		<tag k="place" v="farm" />
		<tag k="ssr:stedsnr" v="423731" />
	</node>
	<node id="-32329" lat="60.3299888923" lon="11.293124995">
		<tag k="name" v="Sandhaugen" />
		<tag k="place" v="farm" />
		<tag k="ssr:stedsnr" v="423439" />
	</node>
	<node id="-32325" lat="60.485027782" lon="11.1556249961">
		<tag k="name" v="Enga" />
		<tag k="place" v="farm" />
		<tag k="ssr:stedsnr" v="422371" />
	</node>
	<node id="-32324" lat="60.4972611129" lon="11.1394472154">
		<tag k="name" v="Skålerud" />
		<tag k="place" v="farm" />
		<tag k="ssr:stedsnr" v="422361" />
	</node>
	<node id="-32323" lat="60.346630555" lon="11.2240027775">
		<tag k="alt_name" v="Smedstad vestgarn" />
		<tag k="name" v="Vestgarden Smedstad" />
		<tag k="place" v="farm" />
		<tag k="ssr:stedsnr" v="421936" />
	</node>
	<node id="-32322" lat="60.342327779" lon="11.2029055471">
		<tag k="alt_name" v="Jørnstun Ås" />
		<tag k="name" v="Jørnsstuen Ås" />
		<tag k="place" v="farm" />
		<tag k="ssr:stedsnr" v="421922" />
	</node>
	<node id="-32318" lat="60.3788333367" lon="11.2669666712">
		<tag k="name" v="Midt-Brøstad" />
		<tag k="place" v="farm" />
		<tag k="ssr:stedsnr" v="419964" />
	</node>
	<node id="-32316" lat="60.2764638931" lon="11.127286114">
		<tag k="name" v="Smedhaugen" />
		<tag k="place" v="farm" />
		<tag k="ssr:stedsnr" v="419797" />
	</node>
	<node id="-32315" lat="60.2824111083" lon="11.1715750006">
		<tag k="amenity" v="nursing_home" />
		<tag k="name" v="Gladbakk" />
		<tag k="ssr:stedsnr" v="419793" />
	</node>
	<node id="-32306" lat="60.4482722245" lon="11.1937138959">
		<tag k="name" v="Tosterud" />
		<tag k="place" v="farm" />
		<tag k="ssr:stedsnr" v="406999" />
	</node>
	<node id="-32305" lat="60.4144305523" lon="11.1381638819">
		<tag k="name" v="Tømtehytta" />
		<tag k="place" v="isolated_dwelling" />
		<tag k="ssr:stedsnr" v="406888" />
	</node>
	<node id="-32304" lat="60.4109527782" lon="11.2453750085">
		<tag k="alt_name" v="Langsetstun" />
		<tag k="name" v="Langsetstuen" />
		<tag k="place" v="farm" />
		<tag k="ssr:stedsnr" v="406881" />
	</node>
	<node id="-32303" lat="60.3971611157" lon="11.1906166585">
		<tag k="alt_name" v="Eidshaug østre" />
		<tag k="name" v="Østre Eidshaug" />
		<tag k="place" v="farm" />
		<tag k="ssr:stedsnr" v="406848" />
	</node>
	<node id="-32302" lat="60.4080416622" lon="11.1373805543">
		<tag k="name" v="Myrerhytta" />
		<tag k="place" v="isolated_dwelling" />
		<tag k="ssr:stedsnr" v="406841" />
	</node>
	<node id="-32301" lat="60.4461416656" lon="11.1843694508">
		<tag k="alt_name" v="Bjørndal søndre" />
		<tag k="name" v="Søndre Bjørndal" />
		<tag k="place" v="farm" />
		<tag k="ssr:stedsnr" v="406731" />
	</node>
	<node id="-32300" lat="60.2871138887" lon="11.1996416657">
		<tag k="name" v="Trollhaug" />
		<tag k="place" v="isolated_dwelling" />
		<tag k="ssr:stedsnr" v="406584" />
	</node>
	<node id="-32299" lat="60.2915750008" lon="11.2229916584">
		<tag k="alt_name" v="Finstad store" />
		<tag k="name" v="Store Finstad" />
		<tag k="place" v="farm" />
		<tag k="ssr:stedsnr" v="406581" />
	</node>
	<node id="-32295" lat="60.5319166666" lon="11.1851916628">
		<tag k="name" v="Skjelle" />
		<tag k="place" v="farm" />
		<tag k="ssr:stedsnr" v="404032" />
	</node>
	<node id="-32294" lat="60.3747722224" lon="11.2394166614">
		<tag k="alt_name" v="Seterdal" />
		<tag k="fixme" v="consider place=hamlet" />
		<tag k="name" v="Sæterdal" />
		<tag k="place" v="farm" />
		<tag k="ssr:stedsnr" v="403830" />
	</node>
	<node id="-32290" lat="60.4099583316" lon="11.3569749992">
		<tag k="name" v="Holsvangen" />
		<tag k="place" v="isolated_dwelling" />
		<tag k="ssr:stedsnr" v="370536" />
	</node>
	<node id="-32289" lat="60.4087000021" lon="11.1987555494">
		<tag k="fixme" v="consider place=hamlet" />
		<tag k="name" v="Trandum" />
		<tag k="place" v="farm" />
		<tag k="ssr:stedsnr" v="370526" />
	</node>
	<node id="-32287" lat="60.5045469323" lon="11.1727069158">
		<tag k="fixme" v="consider place=hamlet" />
		<tag k="name" v="Disserud" />
		<tag k="place" v="farm" />
		<tag k="ssr:stedsnr" v="370488" />
	</node>
	<node id="-32284" lat="60.4898638901" lon="11.1503194393">
		<tag k="name" v="Haugli" />
		<tag k="place" v="farm" />
		<tag k="ssr:stedsnr" v="370450" />
	</node>
	<node id="-32280" lat="60.275594442" lon="11.2225222165">
		<tag k="name" v="Krokhagen" />
		<tag k="place" v="farm" />
		<tag k="ssr:stedsnr" v="370231" />
	</node>
	<node id="-32279" lat="60.2916655311" lon="11.2219562948">
		<tag k="fixme" v="consider place=hamlet" />
		<tag k="name" v="Finstad" />
		<tag k="place" v="farm" />
		<tag k="ssr:stedsnr" v="370205" />
	</node>
	<node id="-32276" lat="60.3317472245" lon="11.2164499992">
		<tag k="name" v="Hammerstad" />
		<tag k="place" v="hamlet" />
		<tag k="ssr:stedsnr" v="370155" />
	</node>
	<node id="-32274" lat="60.3296499959" lon="11.3341333275">
		<tag k="alt_name" v="Iversbråten" />
		<tag k="name" v="Iversbråtan" />
		<tag k="place" v="farm" />
		<tag k="ssr:stedsnr" v="370144" />
	</node>
	<node id="-32273" lat="60.3259600478" lon="11.2865328274">
		<tag k="fixme" v="consider place=hamlet" />
		<tag k="name" v="Grue" />
		<tag k="place" v="farm" />
		<tag k="ssr:stedsnr" v="370141" />
	</node>
	<node id="-32272" lat="60.3508888872" lon="11.3390777816">
		<tag k="alt_name" v="Ospelia" />
		<tag k="name" v="Asplia" />
		<tag k="place" v="farm" />
		<tag k="ssr:stedsnr" v="370128" />
	</node>
	<node id="-32270" lat="60.342381031" lon="11.2837703799">
		<tag k="fixme" v="consider place=hamlet" />
		<tag k="name" v="Røkholt" />
		<tag k="place" v="farm" />
		<tag k="ssr:stedsnr" v="370120" />
	</node>
	<node id="-32269" lat="60.354963888" lon="11.333133328">
		<tag k="alt_name" v="Holsæter" />
		<tag k="name" v="Holseter" />
		<tag k="place" v="hamlet" />
		<tag k="ssr:stedsnr" v="370109" />
	</node>
	<node id="-32268" lat="60.3465972246" lon="11.1371833298">
		<tag k="historic" v="shieling" />
		<tag k="name" v="Parissetra" />
		<tag k="place" v="locality" />
		<tag k="ssr:stedsnr" v="370104" />
	</node>
	<node id="-32267" lat="60.3464388856" lon="11.1938111122">
		<tag k="name" v="Li" />
		<tag k="place" v="farm" />
		<tag k="ssr:stedsnr" v="370100" />
	</node>
	<node id="-32265" lat="60.3554500004" lon="11.1948333423">
		<tag k="name" v="Oppsal" />
		<tag k="place" v="farm" />
		<tag k="ssr:stedsnr" v="370096" />
	</node>
	<node id="-32264" lat="60.3794750043" lon="11.2717722181">
		<tag k="fixme" v="consider place=hamlet" />
		<tag k="name" v="Ljødal" />
		<tag k="place" v="farm" />
		<tag k="ssr:stedsnr" v="370082" />
	</node>
	<node id="-32263" lat="60.3752777742" lon="11.2747472186">
		<tag k="name" v="Østenga" />
		<tag k="place" v="farm" />
		<tag k="ssr:stedsnr" v="370080" />
	</node>
	<node id="-32262" lat="60.3739614541" lon="11.2190932479">
		<tag k="fixme" v="consider place=hamlet" />
		<tag k="name" v="Berger" />
		<tag k="place" v="farm" />
		<tag k="ssr:stedsnr" v="370079" />
	</node>
	<node id="-32260" lat="60.3799944407" lon="11.2360555598">
		<tag k="name" v="Bunes" />
		<tag k="place" v="farm" />
		<tag k="ssr:stedsnr" v="370061" />
	</node>
	<node id="-32259" lat="60.3854" lon="11.225894452">
		<tag k="name" v="Bjørnstad" />
		<tag k="place" v="farm" />
		<tag k="ssr:stedsnr" v="370059" />
	</node>
	<node id="-32258" lat="60.3851250034" lon="11.1933638904">
		<tag k="name" v="Leirvoll" />
		<tag k="old_name" v="Stensrud;Stensmo" />
		<tag k="place" v="farm" />
		<tag k="ssr:stedsnr" v="370054" />
	</node>
	<node id="-32256" lat="60.3792111144" lon="11.1998333312">
		<tag k="fixme" v="consider place=hamlet" />
		<tag k="name" v="Julsrud" />
		<tag k="place" v="farm" />
		<tag k="ssr:stedsnr" v="370043" />
	</node>
	<node id="-32250" lat="60.4846472201" lon="11.1407083382">
		<tag k="leisure" v="pitch" />
		<tag k="name" v="Melbybakken" />
		<tag k="ssr:stedsnr" v="363491" />
	</node>
	<node id="-32248" lat="60.2692111111" lon="11.1898861057">
		<tag k="name" v="Nordli" />
		<tag k="place" v="quarter" />
		<tag k="ssr:stedsnr" v="362946" />
	</node>
	<node id="-32244" lat="60.2914666638" lon="11.2809055598">
		<tag k="name" v="Falkebo" />
		<tag k="place" v="isolated_dwelling" />
		<tag k="ssr:stedsnr" v="362700" />
	</node>
	<node id="-32243" lat="60.3337416663" lon="11.2405555579">
		<tag k="alt_name" v="Botshaug okgarn" />
		<tag k="name" v="Oppgarden Botshaug" />
		<tag k="place" v="farm" />
		<tag k="ssr:stedsnr" v="362425" />
	</node>
	<node id="-32242" lat="60.3244833355" lon="11.2456250086">
		<tag k="name" v="Kirkelund" />
		<tag k="place" v="farm" />
		<tag k="ssr:stedsnr" v="361534" />
	</node>
	<node id="-32241" lat="60.468449996" lon="11.2922083292">
		<tag k="historic" v="shieling" />
		<tag k="name" v="Granlisetra" />
		<tag k="place" v="locality" />
		<tag k="ssr:stedsnr" v="361442" />
	</node>
	<node id="-32240" lat="60.4573166632" lon="11.2934416718">
		<tag k="name" v="Lysjøhimet" />
		<tag k="place" v="farm" />
		<tag k="ssr:stedsnr" v="361440" />
	</node>
	<node id="-32238" lat="60.3786083346" lon="11.1984777762">
		<tag k="alt_name" v="Julsrud arstun" />
		<tag k="name" v="Arstuen Julsrud" />
		<tag k="place" v="farm" />
		<tag k="ssr:stedsnr" v="358989" />
	</node>
	<node id="-32236" lat="60.3860166626" lon="11.2304444491">
		<tag k="name" v="Dytterud" />
		<tag k="place" v="farm" />
		<tag k="ssr:stedsnr" v="358984" />
	</node>
	<node id="-32228" lat="60.3926777764" lon="11.2069055604">
		<tag k="name" v="Minne industriområde" />
		<tag k="place" v="quarter" />
		<tag k="ssr:stedsnr" v="345801" />
	</node>
	<node id="-32227" lat="60.4297888925" lon="11.1556361188">
		<tag k="name" v="Holshytta" />
		<tag k="place" v="isolated_dwelling" />
		<tag k="ssr:stedsnr" v="345843" />
	</node>
	<node id="-32225" lat="60.4197416653" lon="11.2593305617">
		<tag k="name" v="Ørbekklykkja" />
		<tag k="place" v="farm" />
		<tag k="ssr:stedsnr" v="345692" />
	</node>
	<node id="-32224" lat="60.4152222215" lon="11.2673555523">
		<tag k="alt_name" v="Holtet nestun" />
		<tag k="name" v="Nedstuen Holtet" />
		<tag k="place" v="farm" />
		<tag k="ssr:stedsnr" v="345676" />
	</node>
	<node id="-32221" lat="60.2940777736" lon="11.1568222208">
		<tag k="name" v="Furulund" />
		<tag k="place" v="farm" />
		<tag k="ssr:stedsnr" v="345493" />
	</node>
	<node id="-32220" lat="60.2952083322" lon="11.1657472206">
		<tag k="name" v="Perses" />
		<tag k="place" v="farm" />
		<tag k="ssr:stedsnr" v="345492" />
	</node>
	<node id="-32219" lat="60.2974611093" lon="11.1707638933">
		<tag k="name" v="Jokums" />
		<tag k="place" v="farm" />
		<tag k="ssr:stedsnr" v="345547" />
	</node>
	<node id="-32217" lat="60.2881138899" lon="11.1994361157">
		<tag k="name" v="Bosen" />
		<tag k="place" v="isolated_dwelling" />
		<tag k="ssr:stedsnr" v="345538" />
	</node>
	<node id="-32216" lat="60.291191664" lon="11.2325555613">
		<tag k="name" v="Grindløkka" />
		<tag k="place" v="farm" />
		<tag k="ssr:stedsnr" v="345535" />
	</node>
	<node id="-32215" lat="60.3705527781" lon="11.1271055527">
		<tag k="name" v="Smedstadrødet" />
		<tag k="place" v="locality" />
		<tag k="ssr:stedsnr" v="345092" />
	</node>
	<node id="-32214" lat="60.5497500001" lon="11.1904416741">
		<tag k="name" v="Langgard" />
		<tag k="place" v="farm" />
		<tag k="ssr:stedsnr" v="343970" />
	</node>
	<node id="-32211" lat="60.3623388922" lon="11.1548055527">
		<tag k="name" v="Oppsalhytta" />
		<tag k="place" v="isolated_dwelling" />
		<tag k="ssr:stedsnr" v="343186" />
	</node>
	<node id="-32210" lat="60.3611555556" lon="11.1556166598">
		<tag k="name" v="Fodstadhytta" />
		<tag k="place" v="isolated_dwelling" />
		<tag k="ssr:stedsnr" v="343184" />
	</node>
	<node id="-32209" lat="60.3516555581" lon="11.1399611095">
		<tag k="name" v="Rømdalen" />
		<tag k="place" v="isolated_dwelling" />
		<tag k="ssr:stedsnr" v="343181" />
	</node>
	<node id="-32208" lat="60.3590027756" lon="11.2074750074">
		<tag k="name" v="Fjellhamar" />
		<tag k="place" v="farm" />
		<tag k="ssr:stedsnr" v="343052" />
	</node>
	<node id="-32207" lat="60.3587361157" lon="11.2176277749">
		<tag k="alt_name" v="Dokken vestgarn" />
		<tag k="name" v="Vestgarden Dokken" />
		<tag k="place" v="farm" />
		<tag k="ssr:stedsnr" v="343049" />
	</node>
	<node id="-32206" lat="60.53906944" lon="11.1866027755">
		<tag k="name" v="Sandvika" />
		<tag k="place" v="farm" />
		<tag k="ssr:stedsnr" v="343034" />
	</node>
	<node id="-32205" lat="60.3622416664" lon="11.3468555593">
		<tag k="name" v="Fossen" />
		<tag k="place" v="farm" />
		<tag k="ssr:stedsnr" v="343016" />
	</node>
	<node id="-32204" lat="60.3117638854" lon="11.2056583265">
		<tag k="name" v="Blekstad" />
		<tag k="place" v="farm" />
		<tag k="ssr:stedsnr" v="323989" />
	</node>
	<node id="-32202" lat="60.4234500004" lon="11.2659555583">
		<tag k="fixme" v="multiple name tags, choose one and add the other to alt_name" />
		<tag k="name" v="Høgda;Ørbekkhøgda" />
		<tag k="place" v="farm" />
		<tag k="ssr:stedsnr" v="310496" />
	</node>
	<node id="-32198" lat="60.5859936107" lon="11.1468373677">
		<tag k="fixme" v="consider place=hamlet" />
		<tag k="name" v="Skomakarbekken" />
		<tag k="place" v="farm" />
		<tag k="ssr:stedsnr" v="310385" />
	</node>
	<node id="-32196" lat="60.2691333333" lon="11.2933527792">
		<tag k="fixme" v="consider place=hamlet" />
		<tag k="name" v="Døli" />
		<tag k="place" v="farm" />
		<tag k="ssr:stedsnr" v="310193" />
	</node>
	<node id="-32195" lat="60.2753527736" lon="11.3256472157">
		<tag k="name" v="Østvoll" />
		<tag k="place" v="farm" />
		<tag k="ssr:stedsnr" v="310181" />
	</node>
	<node id="-32194" lat="60.2765416636" lon="11.2329694469">
		<tag k="name" v="Østerud" />
		<tag k="place" v="farm" />
		<tag k="ssr:stedsnr" v="310177" />
	</node>
	<node id="-32193" lat="60.2908055525" lon="11.1442055594">
		<tag k="alt_name" v="Saghagen" />
		<tag k="name" v="Saghagan" />
		<tag k="place" v="farm" />
		<tag k="ssr:stedsnr" v="310163" />
	</node>
	<node id="-32192" lat="60.3756361074" lon="11.3586972131">
		<tag k="name" v="Vangen" />
		<tag k="place" v="farm" />
		<tag k="ssr:stedsnr" v="310060" />
	</node>
	<node id="-32191" lat="60.3763277788" lon="11.3218999977">
		<tag k="alt_name" v="Sannervangen" />
		<tag k="historic" v="shieling" />
		<tag k="name" v="Sandervangen" />
		<tag k="place" v="locality" />
		<tag k="ssr:stedsnr" v="310057" />
	</node>
	<node id="-32189" lat="60.4202055539" lon="11.2392805591">
		<tag k="alt_name" v="Sameia" />
		<tag k="name" v="Sameiga" />
		<tag k="place" v="farm" />
		<tag k="ssr:stedsnr" v="309532" />
	</node>
	<node id="-32188" lat="60.4192833334" lon="11.1420611102">
		<tag k="historic" v="shieling" />
		<tag k="name" v="Myrersetra" />
		<tag k="place" v="locality" />
		<tag k="ssr:stedsnr" v="309528" />
	</node>
	<node id="-32186" lat="60.4081749986" lon="11.2459222257">
		<tag k="name" v="Lerhus" />
		<tag k="place" v="farm" />
		<tag k="ssr:stedsnr" v="309510" />
	</node>
	<node id="-32185" lat="60.4446500012" lon="11.2432749961">
		<tag k="fixme" v="consider place=hamlet" />
		<tag k="name" v="Korslund" />
		<tag k="place" v="farm" />
		<tag k="ssr:stedsnr" v="309497" />
	</node>
	<node id="-32184" lat="60.4681499972" lon="11.1772722206">
		<tag k="name" v="Lium" />
		<tag k="place" v="farm" />
		<tag k="ssr:stedsnr" v="309478" />
	</node>
	<node id="-32183" lat="60.4609280999" lon="11.2415366875">
		<tag k="fixme" v="consider place=hamlet" />
		<tag k="name" v="Brøhaug" />
		<tag k="place" v="farm" />
		<tag k="ssr:stedsnr" v="309474" />
	</node>
	<node id="-32182" lat="60.4843545189" lon="11.1413473364">
		<tag k="fixme" v="consider place=hamlet" />
		<tag k="name" v="Melby" />
		<tag k="place" v="farm" />
		<tag k="ssr:stedsnr" v="309425" />
	</node>
	<node id="-32180" lat="60.3095583301" lon="11.1503861021">
		<tag k="name" v="Ormlia" />
		<tag k="place" v="farm" />
		<tag k="ssr:stedsnr" v="309158" />
	</node>
	<node id="-32179" lat="60.3205750011" lon="11.1958888814">
		<tag k="name" v="Siggerud" />
		<tag k="place" v="farm" />
		<tag k="ssr:stedsnr" v="309147" />
	</node>
	<node id="-32178" lat="60.3271249962" lon="11.1532805548">
		<tag k="name" v="Gladbakk" />
		<tag k="place" v="locality" />
		<tag k="ssr:stedsnr" v="309125" />
	</node>
	<node id="-32177" lat="60.3171499988" lon="11.2019499969">
		<tag k="name" v="Skofset" />
		<tag k="place" v="farm" />
		<tag k="ssr:stedsnr" v="309123" />
	</node>
	<node id="-32175" lat="60.337568295" lon="11.2773496025">
		<tag k="fixme" v="consider place=hamlet" />
		<tag k="name" v="Tønsåker" />
		<tag k="place" v="farm" />
		<tag k="ssr:stedsnr" v="309100" />
	</node>
	<node id="-32174" lat="60.3586000042" lon="11.3471111183">
		<tag k="name" v="Østberg" />
		<tag k="place" v="farm" />
		<tag k="ssr:stedsnr" v="309089" />
	</node>
	<node id="-32173" lat="60.3589499977" lon="11.3626749926">
		<tag k="name" v="Lia" />
		<tag k="place" v="farm" />
		<tag k="ssr:stedsnr" v="309087" />
	</node>
	<node id="-32172" lat="60.3442898883" lon="11.2389884794">
		<tag k="fixme" v="consider place=hamlet" />
		<tag k="name" v="Kommisrud" />
		<tag k="place" v="farm" />
		<tag k="ssr:stedsnr" v="309086" />
	</node>
	<node id="-32171" lat="60.36070556" lon="11.3554583309">
		<tag k="name" v="Solberg" />
		<tag k="place" v="farm" />
		<tag k="ssr:stedsnr" v="309079" />
	</node>
	<node id="-32170" lat="60.3778555577" lon="11.357777782">
		<tag k="alt_name" v="Rikardsbråten" />
		<tag k="fixme" v="consider place=hamlet" />
		<tag k="name" v="Rikardsbråtan" />
		<tag k="place" v="farm" />
		<tag k="ssr:stedsnr" v="309035" />
	</node>
	<node id="-32169" lat="60.3934805547" lon="11.3457527754">
		<tag k="name" v="Måvangen" />
		<tag k="place" v="isolated_dwelling" />
		<tag k="ssr:stedsnr" v="309023" />
	</node>
	<node id="-32167" lat="60.2738777733" lon="11.1874666729">
		<tag k="amenity" v="kindergarten" />
		<tag k="name" v="Bønsmoen barnehage" />
		<tag k="ssr:stedsnr" v="303733" />
	</node>
	<node id="-32166" lat="60.2935944455" lon="11.1582750026">
		<tag k="amenity" v="school" />
		<tag k="name" v="Eidsvoll verk skole" />
		<tag k="ssr:stedsnr" v="303732" />
	</node>
	<node id="-32164" lat="60.2793111082" lon="11.2077083275">
		<tag k="name" v="Hjera" />
		<tag k="place" v="farm" />
		<tag k="ssr:stedsnr" v="301981" />
	</node>
	<node id="-32163" lat="60.2745777754" lon="11.1935166659">
		<tag k="name" v="Østegård" />
		<tag k="place" v="isolated_dwelling" />
		<tag k="ssr:stedsnr" v="301973" />
	</node>
	<node id="-32161" lat="60.3418666682" lon="11.2835194411">
		<tag k="alt_name" v="Røkholt øststun" />
		<tag k="name" v="Øststuen Røkholt" />
		<tag k="place" v="farm" />
		<tag k="ssr:stedsnr" v="301351" />
	</node>
	<node id="-32160" lat="60.3401999981" lon="11.2926999972">
		<tag k="name" v="Breidablikk" />
		<tag k="place" v="farm" />
		<tag k="ssr:stedsnr" v="301347" />
	</node>
	<node id="-32159" lat="60.3326805582" lon="11.2901611035">
		<tag k="name" v="Haugen" />
		<tag k="place" v="farm" />
		<tag k="ssr:stedsnr" v="301391" />
	</node>
	<node id="-32158" lat="60.3475444427" lon="11.2268388801">
		<tag k="alt_name" v="Smedstad nordstun" />
		<tag k="name" v="Nordstuen Smedstad" />
		<tag k="place" v="farm" />
		<tag k="ssr:stedsnr" v="300935" />
	</node>
	<node id="-32154" lat="60.4228260126" lon="11.2487090882">
		<tag k="fixme" v="consider place=hamlet" />
		<tag k="name" v="Ørbekk" />
		<tag k="place" v="farm" />
		<tag k="ssr:stedsnr" v="188554" />
	</node>
	<node id="-32152" lat="60.4338027768" lon="11.2780833421">
		<tag k="alt_name" v="Holtet, øvre;Holtet øvre" />
		<tag k="name" v="Øvre Holtet" />
		<tag k="place" v="farm" />
		<tag k="ssr:stedsnr" v="188493" />
	</node>
	<node id="-32148" lat="60.4979196922" lon="11.1370720619">
		<tag k="fixme" v="consider place=hamlet" />
		<tag k="name" v="Skålerud" />
		<tag k="place" v="farm" />
		<tag k="ssr:stedsnr" v="188456" />
	</node>
	<node id="-32145" lat="60.2580750037" lon="11.2300999936">
		<tag k="name" v="Svangerudenga" />
		<tag k="place" v="farm" />
		<tag k="ssr:stedsnr" v="188236" />
	</node>
	<node id="-32144" lat="60.2659000022" lon="11.2237249928">
		<tag k="name" v="Myrhaug" />
		<tag k="place" v="farm" />
		<tag k="ssr:stedsnr" v="188231" />
	</node>
	<node id="-32143" lat="60.2794750042" lon="11.1862361044">
		<tag k="fixme" v="consider place=hamlet" />
		<tag k="name" v="Fuglerud" />
		<tag k="place" v="farm" />
		<tag k="ssr:stedsnr" v="188214" />
	</node>
	<node id="-32142" lat="60.2759361112" lon="11.1175222198">
		<tag k="name" v="Smedhaugen" />
		<tag k="place" v="locality" />
		<tag k="ssr:stedsnr" v="188212" />
	</node>
	<node id="-32140" lat="60.2905777765" lon="11.202583327">
		<tag k="name" v="Bøn" />
		<tag k="place" v="farm" />
		<tag k="ssr:stedsnr" v="188194" />
	</node>
	<node id="-32139" lat="60.3014444413" lon="11.1672083294">
		<tag k="alt_name" v="Eidsvoll Værk" />
		<tag k="fixme" v="consider place=hamlet" />
		<tag k="name" v="Eidsvoll verk" />
		<tag k="place" v="village" />
		<tag k="ssr:stedsnr" v="188192" />
	</node>
	<node id="-32138" lat="60.3058555521" lon="11.1675083338">
		<tag k="fixme" v="multiple name tags, choose one and add the other to alt_name" />
		<tag k="name" v="Gata;Kornelius" />
		<tag k="place" v="farm" />
		<tag k="ssr:stedsnr" v="188191" />
	</node>
	<node id="-32136" lat="60.3112277808" lon="11.2947833254">
		<tag k="fixme" v="consider place=hamlet" />
		<tag k="name" v="Nordhaug" />
		<tag k="place" v="farm" />
		<tag k="ssr:stedsnr" v="188182" />
	</node>
	<node id="-32134" lat="60.3018361105" lon="11.1474333264">
		<tag k="alt_name" v="Grenaker" />
		<tag k="name" v="Grendåker" />
		<tag k="place" v="farm" />
		<tag k="ssr:stedsnr" v="188171" />
	</node>
	<node id="-32133" lat="60.3187888877" lon="11.2328027786">
		<tag k="name" v="Mork" />
		<tag k="place" v="farm" />
		<tag k="ssr:stedsnr" v="188157" />
	</node>
	<node id="-32130" lat="60.3345527735" lon="11.3412861138">
		<tag k="alt_name" v="Jonsbråten" />
		<tag k="fixme" v="consider place=hamlet" />
		<tag k="name" v="Jonsbråtan" />
		<tag k="place" v="farm" />
		<tag k="ssr:stedsnr" v="188117" />
	</node>
	<node id="-32129" lat="60.3606833362" lon="11.2893333401">
		<tag k="name" v="Steinbekken" />
		<tag k="place" v="farm" />
		<tag k="ssr:stedsnr" v="188102" />
	</node>
	<node id="-32127" lat="60.3713416636" lon="11.2023055617">
		<tag k="name" v="Tømte" />
		<tag k="place" v="farm" />
		<tag k="ssr:stedsnr" v="188081" />
	</node>
	<node id="-32126" lat="60.3732999963" lon="11.2311361188">
		<tag k="alt_name" v="Setre" />
		<tag k="fixme" v="consider place=hamlet" />
		<tag k="name" v="Sætre" />
		<tag k="place" v="farm" />
		<tag k="ssr:stedsnr" v="188075" />
	</node>
	<node id="-32125" lat="60.3717305516" lon="11.2565027691">
		<tag k="fixme" v="consider place=hamlet" />
		<tag k="name" v="Rønsen" />
		<tag k="place" v="farm" />
		<tag k="ssr:stedsnr" v="188072" />
	</node>
	<node id="-32124" lat="60.384499828" lon="11.233492185">
		<tag k="fixme" v="consider place=hamlet" />
		<tag k="name" v="Dytterud" />
		<tag k="place" v="farm" />
		<tag k="ssr:stedsnr" v="188053" />
	</node>
	<node id="-32123" lat="60.3890111104" lon="11.2435999974">
		<tag k="name" v="Kråkvål" />
		<tag k="place" v="farm" />
		<tag k="ssr:stedsnr" v="188043" />
	</node>
	<node id="-32122" lat="60.394833329" lon="11.2166527729">
		<tag k="name" v="Sanderud" />
		<tag k="place" v="farm" />
		<tag k="ssr:stedsnr" v="188029" />
	</node>
	<node id="-32121" lat="60.3955749959" lon="11.246863886">
		<tag k="name" v="Toftnes" />
		<tag k="place" v="farm" />
		<tag k="ssr:stedsnr" v="188026" />
	</node>
	<node id="-32120" lat="60.3999749988" lon="11.2882250071">
		<tag k="name" v="Gunnesfallet" />
		<tag k="place" v="farm" />
		<tag k="ssr:stedsnr" v="188012" />
	</node>
	<node id="-32119" lat="60.397617557" lon="11.1871098076">
		<tag k="fixme" v="consider place=hamlet" />
		<tag k="name" v="Eidshaug" />
		<tag k="place" v="farm" />
		<tag k="ssr:stedsnr" v="188002" />
	</node>
	<node id="-32118" lat="60.4886638899" lon="11.1512416756">
		<tag k="name" v="Bjørnstad" />
		<tag k="place" v="farm" />
		<tag k="ssr:stedsnr" v="300394" />
	</node>
	<node id="-32117" lat="60.2504583322" lon="11.180483338">
		<tag k="amenity" v="sports_centre" />
		<tag k="name" v="Letohallen" />
		<tag k="ssr:stedsnr" v="181724" />
	</node>
	<node id="-32116" lat="60.4953388918" lon="11.155597217">
		<tag k="leisure" v="pitch" />
		<tag k="name" v="Feiring lysløype" />
		<tag k="ssr:stedsnr" v="181721" />
	</node>
	<node id="-32113" lat="60.2740192508" lon="11.2175056149">
		<tag k="alt_name" v="Linnerud søndre" />
		<tag k="name" v="Søndre Linnerud" />
		<tag k="place" v="farm" />
		<tag k="ssr:stedsnr" v="180949" />
	</node>
	<node id="-32111" lat="60.2989583323" lon="11.1911694509">
		<tag k="name" v="Øystad" />
		<tag k="place" v="farm" />
		<tag k="ssr:stedsnr" v="180693" />
	</node>
	<node id="-32108" lat="60.3032583375" lon="11.2525499937">
		<tag k="name" v="Dalum" />
		<tag k="place" v="farm" />
		<tag k="ssr:stedsnr" v="180717" />
	</node>
	<node id="-32107" lat="60.2882583326" lon="11.2829638891">
		<tag k="name" v="Søndre Strand" />
		<tag k="place" v="farm" />
		<tag k="ssr:stedsnr" v="180714" />
	</node>
	<node id="-32106" lat="60.3401333305" lon="11.261324992">
		<tag k="name" v="Hagalykkja" />
		<tag k="place" v="hamlet" />
		<tag k="ssr:stedsnr" v="180382" />
	</node>
	<node id="-32105" lat="60.4861111138" lon="11.1512916606">
		<tag k="name" v="Lykkja" />
		<tag k="place" v="farm" />
		<tag k="ssr:stedsnr" v="179380" />
	</node>
	<node id="-32104" lat="60.4990611106" lon="11.1626194381">
		<tag k="name" v="Flesvik" />
		<tag k="place" v="farm" />
		<tag k="ssr:stedsnr" v="179340" />
	</node>
	<node id="-32101" lat="60.3719361146" lon="11.2568722304">
		<tag k="alt_name" v="Rønsen nystun" />
		<tag k="name" v="Nystuen Rønsen" />
		<tag k="place" v="farm" />
		<tag k="ssr:stedsnr" v="176973" />
	</node>
	<node id="-32100" lat="60.2812972238" lon="11.1605222262">
		<tag k="name" v="Bekkedal" />
		<tag k="place" v="farm" />
		<tag k="ssr:stedsnr" v="176800" />
	</node>
	<node id="-32099" lat="60.278744445" lon="11.1491388957">
		<tag k="leisure" v="pitch" />
		<tag k="name" v="Lysakerbakken" />
		<tag k="ssr:stedsnr" v="176794" />
	</node>
	<node id="-32096" lat="60.2751444415" lon="11.1727027697">
		<tag k="name" v="Kroken" />
		<tag k="place" v="farm" />
		<tag k="ssr:stedsnr" v="176775" />
	</node>
	<node id="-32095" lat="60.2709500039" lon="11.1444694508">
		<tag k="name" v="Øvreberger" />
		<tag k="place" v="locality" />
		<tag k="ssr:stedsnr" v="176773" />
	</node>
	<node id="-32094" lat="60.3890777823" lon="11.2687861054">
		<tag k="alt_name" v="Fremminstun" />
		<tag k="name" v="Fremminstuen" />
		<tag k="place" v="farm" />
		<tag k="ssr:stedsnr" v="176761" />
	</node>
	<node id="-32087" lat="60.395249998" lon="11.193719443">
		<tag k="loc_name" v="Dalsbråtan" />
		<tag k="name" v="Dalsbråten" />
		<tag k="place" v="farm" />
		<tag k="ssr:stedsnr" v="163835" />
	</node>
	<node id="-32086" lat="60.4097027773" lon="11.1969638818">
		<tag k="alt_name" v="Trandum nordgarn" />
		<tag k="name" v="Nordgarden Trandum" />
		<tag k="place" v="farm" />
		<tag k="ssr:stedsnr" v="163826" />
	</node>
	<node id="-32084" lat="60.4233666702" lon="11.2490277845">
		<tag k="alt_name" v="Ørbekk oppstun" />
		<tag k="name" v="Oppstuen Ørbekk" />
		<tag k="place" v="farm" />
		<tag k="ssr:stedsnr" v="163700" />
	</node>
	<node id="-32083" lat="60.4273722226" lon="11.246888886">
		<tag k="name" v="Barås" />
		<tag k="place" v="farm" />
		<tag k="ssr:stedsnr" v="163694" />
	</node>
	<node id="-32080" lat="60.3006694479" lon="11.1551583391">
		<tag k="name" v="Rustad" />
		<tag k="place" v="farm" />
		<tag k="ssr:stedsnr" v="163499" />
	</node>
	<node id="-32079" lat="60.2945444401" lon="11.1412000077">
		<tag k="name" v="Steinodden" />
		<tag k="place" v="farm" />
		<tag k="ssr:stedsnr" v="163495" />
	</node>
	<node id="-32078" lat="60.5557916643" lon="11.1872388914">
		<tag k="name" v="Søndre Alnes" />
		<tag k="place" v="farm" />
		<tag k="ssr:stedsnr" v="161981" />
	</node>
	<node id="-32076" lat="60.4935583369" lon="11.1478527783">
		<tag k="name" v="Stenberg" />
		<tag k="place" v="farm" />
		<tag k="ssr:stedsnr" v="300389" />
	</node>
	<node id="-32075" lat="60.4979222234" lon="11.1351583296">
		<tag k="name" v="Nordre Skålerud" />
		<tag k="place" v="farm" />
		<tag k="ssr:stedsnr" v="300387" />
	</node>
	<node id="-32073" lat="60.5137333337" lon="11.168613889">
		<tag k="name" v="Bakken" />
		<tag k="place" v="farm" />
		<tag k="ssr:stedsnr" v="141981" />
	</node>
	<node id="-32072" lat="60.2973611132" lon="11.3659833358">
		<tag k="name" v="Frilsetvangen" />
		<tag k="place" v="locality" />
		<tag k="ssr:stedsnr" v="140948" />
	</node>
	<node id="-32071" lat="60.5220495832" lon="11.1759587122">
		<tag k="fixme" v="consider place=hamlet" />
		<tag k="name" v="Stefferud" />
		<tag k="place" v="farm" />
		<tag k="ssr:stedsnr" v="128466" />
	</node>
	<node id="-32069" lat="60.4392249989" lon="11.2407861119">
		<tag k="name" v="Dalsrud" />
		<tag k="place" v="isolated_dwelling" />
		<tag k="ssr:stedsnr" v="127477" />
	</node>
	<node id="-32068" lat="60.4424055533" lon="11.1920805469">
		<tag k="alt_name" v="Stenset" />
		<tag k="name" v="Steinset" />
		<tag k="place" v="farm" />
		<tag k="ssr:stedsnr" v="127475" />
	</node>
	<node id="-32067" lat="60.4796088088" lon="11.1633721009">
		<tag k="fixme" v="consider place=hamlet" />
		<tag k="name" v="Årnes" />
		<tag k="place" v="farm" />
		<tag k="ssr:stedsnr" v="127456" />
	</node>
	<node id="-32065" lat="60.4934000036" lon="11.1076749975">
		<tag k="alt_name" v="Almeli" />
		<tag k="name" v="Almelia" />
		<tag k="place" v="farm" />
		<tag k="ssr:stedsnr" v="127427" />
	</node>
	<node id="-32062" lat="60.2876194478" lon="11.1716138867">
		<tag k="alt_name" v="Mostue" />
		<tag k="name" v="Mostu" />
		<tag k="place" v="farm" />
		<tag k="ssr:stedsnr" v="127192" />
	</node>
	<node id="-32061" lat="60.2874583341" lon="11.3280666721">
		<tag k="name" v="Nordby" />
		<tag k="place" v="farm" />
		<tag k="ssr:stedsnr" v="127186" />
	</node>
	<node id="-32060" lat="60.3048620055" lon="11.3034641819">
		<tag k="fixme" v="consider place=hamlet" />
		<tag k="name" v="Jøndal" />
		<tag k="place" v="farm" />
		<tag k="ssr:stedsnr" v="127175" />
	</node>
	<node id="-32059" lat="60.3562000005" lon="11.365150009">
		<tag k="alt_name" v="Sandholtvangen;Sandholt Sr" />
		<tag k="name" v="Granli" />
		<tag k="place" v="farm" />
		<tag k="ssr:stedsnr" v="127092" />
	</node>
	<node id="-32058" lat="60.3522833374" lon="11.260516661">
		<tag k="name" v="Må" />
		<tag k="place" v="farm" />
		<tag k="ssr:stedsnr" v="127084" />
	</node>
	<node id="-32056" lat="60.3595083371" lon="11.1785249951">
		<tag k="name" v="Åsen" />
		<tag k="place" v="isolated_dwelling" />
		<tag k="ssr:stedsnr" v="127072" />
	</node>
	<node id="-32055" lat="60.3590500034" lon="11.2707305539">
		<tag k="name" v="Hol" />
		<tag k="place" v="farm" />
		<tag k="ssr:stedsnr" v="127071" />
	</node>
	<node id="-32054" lat="60.3532755304" lon="11.2393221538">
		<tag k="name" v="Dokknes" />
		<tag k="place" v="hamlet" />
		<tag k="ssr:stedsnr" v="127070" />
	</node>
	<node id="-32053" lat="60.3584826257" lon="11.2239274801">
		<tag k="fixme" v="consider place=hamlet" />
		<tag k="name" v="Dokken" />
		<tag k="place" v="farm" />
		<tag k="ssr:stedsnr" v="127068" />
	</node>
	<node id="-32051" lat="60.3891944413" lon="11.2078499959">
		<tag k="name" v="Nygård" />
		<tag k="place" v="farm" />
		<tag k="ssr:stedsnr" v="127033" />
	</node>
	<node id="-32049" lat="60.3064611077" lon="11.1954388832">
		<tag k="alt_name" v="Fossumhagen" />
		<tag k="name" v="Fossumhagan" />
		<tag k="place" v="farm" />
		<tag k="ssr:stedsnr" v="127163" />
	</node>
	<node id="-32048" lat="60.3053359389" lon="11.2369304177">
		<tag k="fixme" v="consider place=hamlet" />
		<tag k="name" v="Grova" />
		<tag k="place" v="farm" />
		<tag k="ssr:stedsnr" v="127162" />
	</node>
	<node id="-32047" lat="60.3069984288" lon="11.2113872087">
		<tag k="name" v="Dønnum" />
		<tag k="place" v="hamlet" />
		<tag k="ssr:stedsnr" v="127157" />
	</node>
	<node id="-32045" lat="60.3358777754" lon="11.2601611153">
		<tag k="leisure" v="pitch" />
		<tag k="name" v="Eidsvoll kunstgrasbane" />
		<tag k="ssr:stedsnr" v="121711" />
	</node>
	<node id="-32044" lat="60.2842583292" lon="11.1695083258">
		<tag k="amenity" v="sports_centre" />
		<tag k="name" v="Råholthallen" />
		<tag k="ssr:stedsnr" v="121707" />
	</node>
	<node id="-32043" lat="60.2821556635" lon="11.171526186">
		<tag k="amenity" v="nursing_home" />
		<tag k="name" v="Råholt bosenter" />
		<tag k="ssr:stedsnr" v="121694" />
	</node>
	<node id="-32042" lat="60.2699416644" lon="11.3162805628">
		<tag k="alt_name" v="Frilset negarn" />
		<tag k="name" v="Nedgarden Frilset" />
		<tag k="place" v="farm" />
		<tag k="ssr:stedsnr" v="119985" />
	</node>
	<node id="-32041" lat="60.2703390506" lon="11.2039533965">
		<tag k="alt_name" v="Hjera s." />
		<tag k="name" v="Søndre Hjera" />
		<tag k="place" v="farm" />
		<tag k="ssr:stedsnr" v="119965" />
	</node>
	<node id="-32039" lat="60.3033805515" lon="11.2453888848">
		<tag k="name" v="Vestby" />
		<tag k="place" v="farm" />
		<tag k="ssr:stedsnr" v="119739" />
	</node>
	<node id="-32038" lat="60.3028305516" lon="11.2490805613">
		<tag k="name" v="Sletta" />
		<tag k="place" v="farm" />
		<tag k="ssr:stedsnr" v="119737" />
	</node>
	<node id="-32034" lat="60.3051916656" lon="11.2036611062">
		<tag k="name" v="Dønnumshaugen" />
		<tag k="place" v="farm" />
		<tag k="ssr:stedsnr" v="119687" />
	</node>
	<node id="-32033" lat="60.3333805517" lon="11.260224992">
		<tag k="name" v="Øvre Vilberg" />
		<tag k="place" v="farm" />
		<tag k="ssr:stedsnr" v="119434" />
	</node>
	<node id="-32032" lat="60.3289833317" lon="11.2919500034">
		<tag k="name" v="Bjørkås" />
		<tag k="place" v="farm" />
		<tag k="ssr:stedsnr" v="119422" />
	</node>
	<node id="-32030" lat="60.4798249997" lon="11.242274997">
		<tag k="alt_name" v="Ulvin negarn;Ulven nedre;Nedre Ulven" />
		<tag k="fixme" v="consider place=hamlet" />
		<tag k="name" v="Nedgarden Ulvin" />
		<tag k="place" v="farm" />
		<tag k="ssr:stedsnr" v="119250" />
	</node>
	<node id="-32028" lat="60.3345796184" lon="11.2332678158">
		<tag k="alt_name" v="Hol okgarn" />
		<tag k="name" v="Oppgarden Hol" />
		<tag k="place" v="farm" />
		<tag k="ssr:stedsnr" v="118930" />
	</node>
	<node id="-32027" lat="60.3239277751" lon="11.2704194395">
		<tag k="name" v="Kastellet" />
		<tag k="place" v="farm" />
		<tag k="ssr:stedsnr" v="118457" />
	</node>
	<node id="-32026" lat="60.495613891" lon="11.1249916614">
		<tag k="name" v="Røysebakken" />
		<tag k="place" v="farm" />
		<tag k="ssr:stedsnr" v="118377" />
	</node>
	<node id="-32025" lat="60.4987388925" lon="11.150252781">
		<tag k="name" v="Sollia" />
		<tag k="place" v="farm" />
		<tag k="ssr:stedsnr" v="118356" />
	</node>
	<node id="-32023" lat="60.3899527808" lon="11.2617861196">
		<tag k="name" v="Fremmin" />
		<tag k="place" v="farm" />
		<tag k="ssr:stedsnr" v="116971" />
	</node>
	<node id="-32022" lat="60.2767027812" lon="11.1663666691">
		<tag k="name" v="Tærudåsen" />
		<tag k="place" v="farm" />
		<tag k="ssr:stedsnr" v="116790" />
	</node>
	<node id="-32021" lat="60.2665777768" lon="11.1377638889">
		<tag k="name" v="Langmyrhaugen" />
		<tag k="place" v="locality" />
		<tag k="ssr:stedsnr" v="116779" />
	</node>
	<node id="-32013" lat="60.4483694461" lon="11.1937749988">
		<tag k="name" v="Tosterud" />
		<tag k="place" v="hamlet" />
		<tag k="ssr:stedsnr" v="103715" />
	</node>
	<node id="-32012" lat="60.4248638908" lon="11.2470055603">
		<tag k="name" v="Haslebakken" />
		<tag k="place" v="farm" />
		<tag k="ssr:stedsnr" v="103691" />
	</node>
	<node id="-32002" lat="60.4056611138" lon="11.1925499982">
		<tag k="name" v="Haglund" />
		<tag k="place" v="farm" />
		<tag k="ssr:stedsnr" v="102838" />
	</node>
	<node id="-32001" lat="60.3947083313" lon="11.2187333321">
		<tag k="name" v="Vestheim" />
		<tag k="place" v="farm" />
		<tag k="ssr:stedsnr" v="102836" />
	</node>
	<node id="-32000" lat="60.3967472232" lon="11.2203611022">
		<tag k="name" v="Sanderudlunden" />
		<tag k="place" v="neighbourhood" />
		<tag k="ssr:stedsnr" v="102835" />
	</node>
	<node id="-31998" lat="60.2925166623" lon="11.1555083356">
		<tag k="name" v="Mattisholtet" />
		<tag k="place" v="quarter" />
		<tag k="ssr:stedsnr" v="102617" />
	</node>
	<node id="-31997" lat="60.3074527757" lon="11.2461944502">
		<tag k="alt_name" v="Sneisrud Olastun" />
		<tag k="name" v="Olastuen Sneisrud" />
		<tag k="place" v="farm" />
		<tag k="ssr:stedsnr" v="102373" />
	</node>
	<node id="-31995" lat="60.3178833324" lon="11.2850138869">
		<tag k="alt_name" v="Styri negarn" />
		<tag k="name" v="Nedgarden Styri" />
		<tag k="place" v="farm" />
		<tag k="ssr:stedsnr" v="102318" />
	</node>
	<node id="-31994" lat="60.560088891" lon="11.1805055535">
		<tag k="alt_name" v="Berger nordre" />
		<tag k="name" v="Nordre Berger" />
		<tag k="place" v="locality" />
		<tag k="ssr:stedsnr" v="101955" />
	</node>
	<node id="-31993" lat="60.5544638857" lon="11.1694916669">
		<tag k="name" v="Søbakken" />
		<tag k="place" v="farm" />
		<tag k="ssr:stedsnr" v="101950" />
	</node>
	<node id="-31992" lat="60.5487027815" lon="11.1676305483">
		<tag k="alt_name" v="Bråten" />
		<tag k="name" v="Bråtan" />
		<tag k="place" v="locality" />
		<tag k="ssr:stedsnr" v="101946" />
	</node>
	<node id="-31988" lat="60.3491222221" lon="11.1175527852">
		<tag k="name" v="Henaugdelshytta" />
		<tag k="place" v="isolated_dwelling" />
		<tag k="ssr:stedsnr" v="101221" />
	</node>
	<node id="-31987" lat="60.3607416649" lon="11.1550972247">
		<tag k="name" v="Mostuhytta" />
		<tag k="place" v="isolated_dwelling" />
		<tag k="ssr:stedsnr" v="101178" />
	</node>
	<node id="-31983" lat="60.4370611124" lon="11.3407527797">
		<tag k="alt_name" v="Bråten" />
		<tag k="name" v="Gruvebråtan" />
		<tag k="place" v="isolated_dwelling" />
		<tag k="ssr:stedsnr" v="67470" />
	</node>
	<node id="-31980" lat="60.3520999981" lon="11.2200888899">
		<tag k="name" v="Langvegg" />
		<tag k="place" v="farm" />
		<tag k="ssr:stedsnr" v="67093" />
	</node>
	<node id="-31978" lat="60.3886950123" lon="11.3594656075">
		<tag k="alt_name" v="Knofsløkken;Verket" />
		<tag k="fixme" v="consider place=hamlet" />
		<tag k="name" v="Knofsløkka" />
		<tag k="place" v="farm" />
		<tag k="ssr:stedsnr" v="67030" />
	</node>
	<node id="-31977" lat="60.2814611144" lon="11.293991671">
		<tag k="alt_name" v="Dølihagen" />
		<tag k="name" v="Dølihagan" />
		<tag k="place" v="hamlet" />
		<tag k="ssr:stedsnr" v="67200" />
	</node>
	<node id="-31976" lat="60.2935805511" lon="11.3220777829">
		<tag k="name" v="Inngjerdinga" />
		<tag k="place" v="farm" />
		<tag k="ssr:stedsnr" v="67190" />
	</node>
	<node id="-31974" lat="60.2932222218" lon="11.1630638807">
		<tag k="name" v="Toftner" />
		<tag k="place" v="farm" />
		<tag k="ssr:stedsnr" v="67176" />
	</node>
	<node id="-31973" lat="60.3062250007" lon="11.1714972262">
		<tag k="name" v="Karlstua" />
		<tag k="place" v="farm" />
		<tag k="ssr:stedsnr" v="67174" />
	</node>
	<node id="-31971" lat="60.2870888873" lon="11.3317499914">
		<tag k="name" v="Jonsrud" />
		<tag k="place" v="farm" />
		<tag k="ssr:stedsnr" v="66907" />
	</node>
	<node id="-31969" lat="60.3876027736" lon="11.2117527713">
		<tag k="leisure" v="pitch" />
		<tag k="name" v="Nygårdssletta" />
		<tag k="ssr:stedsnr" v="60705" />
	</node>
	<node id="-31968" lat="60.3313444476" lon="11.2254805538">
		<tag k="leisure" v="pitch" />
		<tag k="name" v="Myrer stadion" />
		<tag k="ssr:stedsnr" v="60703" />
	</node>
	<node id="-31964" lat="60.2773083376" lon="11.2621222285">
		<tag k="name" v="Frøhaug" />
		<tag k="place" v="isolated_dwelling" />
		<tag k="ssr:stedsnr" v="59970" />
	</node>
	<node id="-31963" lat="60.3000027756" lon="11.2770499926">
		<tag k="name" v="Sø-Fraurud" />
		<tag k="place" v="farm" />
		<tag k="ssr:stedsnr" v="59693" />
	</node>
	<node id="-31958" lat="60.2856166689" lon="11.2526388966">
		<tag k="name" v="Kinnsenga" />
		<tag k="place" v="farm" />
		<tag k="ssr:stedsnr" v="59664" />
	</node>
	<node id="-31957" lat="60.3389472252" lon="11.2913055574">
		<tag k="alt_name" v="Smedstun" />
		<tag k="name" v="Smedstuen" />
		<tag k="place" v="farm" />
		<tag k="ssr:stedsnr" v="59408" />
	</node>
	<node id="-31956" lat="60.3352944483" lon="11.2853611146">
		<tag k="alt_name" v="Elstad nordgarn" />
		<tag k="name" v="Nordgarden Elstad" />
		<tag k="place" v="farm" />
		<tag k="ssr:stedsnr" v="59404" />
	</node>
	<node id="-31954" lat="60.3308111081" lon="11.2780916611">
		<tag k="alt_name" v="Elstad nerstun" />
		<tag k="name" v="Nerstuen Elstad" />
		<tag k="place" v="farm" />
		<tag k="ssr:stedsnr" v="59401" />
	</node>
	<node id="-31952" lat="60.3457166708" lon="11.2663527849">
		<tag k="name" v="Oppstuen Røkholt" />
		<tag k="place" v="farm" />
		<tag k="ssr:stedsnr" v="59374" />
	</node>
	<node id="-31951" lat="60.33734444" lon="11.2759194512">
		<tag k="alt_name" v="Tønsaker nordstun" />
		<tag k="name" v="Nordstuen Tønsåker" />
		<tag k="place" v="farm" />
		<tag k="ssr:stedsnr" v="59371" />
	</node>
	<node id="-31950" lat="60.339505558" lon="11.2907305618">
		<tag k="name" v="Sletta" />
		<tag k="place" v="farm" />
		<tag k="ssr:stedsnr" v="59365" />
	</node>
	<node id="-31949" lat="60.4749444426" lon="11.2531611094">
		<tag k="name" v="Sleppa" />
		<tag k="place" v="farm" />
		<tag k="ssr:stedsnr" v="58446" />
	</node>
	<node id="-31948" lat="60.4669166631" lon="11.2683416583">
		<tag k="name" v="Høgstad" />
		<tag k="place" v="farm" />
		<tag k="ssr:stedsnr" v="58443" />
	</node>
	<node id="-31947" lat="60.4659194482" lon="11.2945777836">
		<tag k="historic" v="shieling" />
		<tag k="name" v="Nysetra" />
		<tag k="place" v="locality" />
		<tag k="ssr:stedsnr" v="58437" />
	</node>
	<node id="-31946" lat="60.4833638894" lon="11.1601916695">
		<tag k="name" v="Nedre Bjørnstad" />
		<tag k="place" v="farm" />
		<tag k="ssr:stedsnr" v="58426" />
	</node>
	<node id="-31945" lat="60.4853027775" lon="11.1529111173">
		<tag k="name" v="Framnes" />
		<tag k="place" v="farm" />
		<tag k="ssr:stedsnr" v="58417" />
	</node>
	<node id="-31943" lat="60.4916777788" lon="11.1541888885">
		<tag k="amenity" v="school" />
		<tag k="name" v="Feiring skole" />
		<tag k="ssr:stedsnr" v="58413" />
	</node>
	<node id="-31942" lat="60.497233331" lon="11.1589111175">
		<tag k="name" v="Sundeggen" />
		<tag k="place" v="farm" />
		<tag k="ssr:stedsnr" v="58361" />
	</node>
	<node id="-31941" lat="60.5018305546" lon="11.1656083358">
		<tag k="name" v="Fjellstad" />
		<tag k="place" v="farm" />
		<tag k="ssr:stedsnr" v="58351" />
	</node>
	<node id="-31938" lat="60.3445277742" lon="11.2373444412">
		<tag k="fixme" v="multiple name tags, choose one and add the other to alt_name" />
		<tag k="name" v="Kommisrud;Arstuen Kommisrud" />
		<tag k="place" v="farm" />
		<tag k="ssr:stedsnr" v="57921" />
	</node>
	<node id="-31937" lat="60.3346583325" lon="11.2120083418">
		<tag k="alt_name" v="Lille-Ås" />
		<tag k="name" v="Lilleås" />
		<tag k="place" v="farm" />
		<tag k="ssr:stedsnr" v="57913" />
	</node>
	<node id="-31934" lat="60.3752750023" lon="11.2153416638">
		<tag k="alt_name" v="Berger nordstun" />
		<tag k="name" v="Nordstuen Berger" />
		<tag k="place" v="farm" />
		<tag k="ssr:stedsnr" v="55988" />
	</node>
	<node id="-31933" lat="60.3750749981" lon="11.2203916659">
		<tag k="alt_name" v="Berger østgarn" />
		<tag k="name" v="Østgarden Berger" />
		<tag k="place" v="farm" />
		<tag k="ssr:stedsnr" v="55986" />
	</node>
	<node id="-31932" lat="60.3836611148" lon="11.2332972267">
		<tag k="name" v="Dytterud" />
		<tag k="place" v="farm" />
		<tag k="ssr:stedsnr" v="55982" />
	</node>
	<node id="-31930" lat="60.3727638913" lon="11.2684666713">
		<tag k="alt_name" v="Habbarstad søstun" />
		<tag k="name" v="Søstuen Habbarstad" />
		<tag k="place" v="farm" />
		<tag k="ssr:stedsnr" v="55975" />
	</node>
	<node id="-31929" lat="60.3798361076" lon="11.271897219">
		<tag k="alt_name" v="Ljødal nordstun" />
		<tag k="name" v="Nordstuen Ljødal" />
		<tag k="place" v="farm" />
		<tag k="ssr:stedsnr" v="55968" />
	</node>
	<node id="-31928" lat="60.2800888894" lon="11.1664833279">
		<tag k="name" v="Birkelund" />
		<tag k="place" v="farm" />
		<tag k="ssr:stedsnr" v="55779" />
	</node>
	<node id="-31927" lat="60.2832666641" lon="11.1676166584">
		<tag k="amenity" v="school" />
		<tag k="name" v="Råholt ungdomsskole" />
		<tag k="ssr:stedsnr" v="55775" />
	</node>
	<node id="-31923" lat="60.240388886" lon="11.1724416589">
		<tag k="name" v="Homlen" />
		<tag k="place" v="farm" />
		<tag k="ssr:stedsnr" v="55188" />
	</node>
	<node id="-31920" lat="60.4058361109" lon="11.2563333386">
		<tag k="alt_name" v="Røysistun" />
		<tag k="name" v="Røysistuen" />
		<tag k="place" v="farm" />
		<tag k="ssr:stedsnr" v="42836" />
	</node>
	<node id="-31918" lat="60.4096444463" lon="11.1376861137">
		<tag k="name" v="Bjerkneshytta" />
		<tag k="place" v="isolated_dwelling" />
		<tag k="ssr:stedsnr" v="42807" />
	</node>
	<node id="-31917" lat="60.4540972187" lon="11.174250004">
		<tag k="name" v="Hansbråtan" />
		<tag k="place" v="locality" />
		<tag k="ssr:stedsnr" v="42707" />
	</node>
	<node id="-31915" lat="60.432541665" lon="11.2725972165">
		<tag k="name" v="Korslundlykkja" />
		<tag k="place" v="farm" />
		<tag k="ssr:stedsnr" v="42662" />
	</node>
	<node id="-31914" lat="60.302372218" lon="11.1559416619">
		<tag k="name" v="Nystua" />
		<tag k="place" v="farm" />
		<tag k="ssr:stedsnr" v="42565" />
	</node>
	<node id="-31912" lat="60.553530556" lon="11.1805194355">
		<tag k="name" v="Østli" />
		<tag k="place" v="farm" />
		<tag k="ssr:stedsnr" v="40948" />
	</node>
	<node id="-31911" lat="60.5529527741" lon="11.1613833415">
		<tag k="name" v="Limbodal" />
		<tag k="place" v="farm" />
		<tag k="ssr:stedsnr" v="40946" />
	</node>
	<node id="-31910" lat="60.545547224" lon="11.1649749981">
		<tag k="name" v="Eftasmyra" />
		<tag k="place" v="farm" />
		<tag k="ssr:stedsnr" v="40943" />
	</node>
	<node id="-31909" lat="60.4318972182" lon="11.3027527768">
		<tag k="name" v="Ørbekkvangen" />
		<tag k="place" v="isolated_dwelling" />
		<tag k="ssr:stedsnr" v="6530" />
	</node>
	<node id="-31905" lat="60.4616500036" lon="11.2451472278">
		<tag k="name" v="Granum" />
		<tag k="old_name" v="Enga" />
		<tag k="place" v="farm" />
		<tag k="ssr:stedsnr" v="6448" />
	</node>
	<node id="-31903" lat="60.4903083299" lon="11.2336194422">
		<tag k="name" v="Skrårudstua" />
		<tag k="place" v="farm" />
		<tag k="ssr:stedsnr" v="6432" />
	</node>
	<node id="-31902" lat="60.4832777755" lon="11.1530972295">
		<tag k="fixme" v="consider place=hamlet" />
		<tag k="name" v="Bjørnstad" />
		<tag k="place" v="farm" />
		<tag k="ssr:stedsnr" v="6423" />
	</node>
	<node id="-31898" lat="60.2805000015" lon="11.3292472203">
		<tag k="name" v="Frilsetbakken" />
		<tag k="place" v="farm" />
		<tag k="ssr:stedsnr" v="6191" />
	</node>
	<node id="-31897" lat="60.2882166653" lon="11.3103000001">
		<tag k="name" v="Frilsetåsen" />
		<tag k="place" v="farm" />
		<tag k="ssr:stedsnr" v="6187" />
	</node>
	<node id="-31894" lat="60.3227749961" lon="11.2742694511">
		<tag k="name" v="Grueflaen" />
		<tag k="place" v="farm" />
		<tag k="ssr:stedsnr" v="6139" />
	</node>
	<node id="-31892" lat="60.3324250003" lon="11.2799861042">
		<tag k="alt_name" v="Elstad vestre" />
		<tag k="fixme" v="multiple name tags, choose one and add the other to alt_name" />
		<tag k="name" v="Vilberg;Vestre Elstad" />
		<tag k="place" v="farm" />
		<tag k="ssr:stedsnr" v="6131" />
	</node>
	<node id="-31891" lat="60.3508000038" lon="11.3653722217">
		<tag k="alt_name" v="Storbråten" />
		<tag k="fixme" v="consider place=hamlet" />
		<tag k="name" v="Storbråtan" />
		<tag k="place" v="farm" />
		<tag k="ssr:stedsnr" v="6117" />
	</node>
	<node id="-31890" lat="60.336761114" lon="11.3317972251">
		<tag k="alt_name" v="Maurbråten" />
		<tag k="name" v="Maurbråtan" />
		<tag k="place" v="farm" />
		<tag k="ssr:stedsnr" v="6111" />
	</node>
	<node id="-31889" lat="60.3652611141" lon="11.2682777709">
		<tag k="fixme" v="consider place=hamlet" />
		<tag k="name" v="Sander" />
		<tag k="place" v="farm" />
		<tag k="ssr:stedsnr" v="6081" />
	</node>
	<node id="-31888" lat="60.3547972226" lon="11.2130472147">
		<tag k="name" v="Haug" />
		<tag k="place" v="farm" />
		<tag k="ssr:stedsnr" v="6079" />
	</node>
	<node id="-31886" lat="60.3548722199" lon="11.159280554">
		<tag k="name" v="Kvedalen" />
		<tag k="place" v="isolated_dwelling" />
		<tag k="ssr:stedsnr" v="6069" />
	</node>
	<node id="-31885" lat="60.3592833347" lon="11.15757777">
		<tag k="name" v="Spetalen" />
		<tag k="place" v="isolated_dwelling" />
		<tag k="ssr:stedsnr" v="6068" />
	</node>
	<node id="-31883" lat="60.3856500039" lon="11.2681027714">
		<tag k="name" v="Holt" />
		<tag k="place" v="farm" />
		<tag k="ssr:stedsnr" v="6049" />
	</node>
	<node id="-31881" lat="60.3943749986" lon="11.278458332">
		<tag k="name" v="Langbakken" />
		<tag k="place" v="farm" />
		<tag k="ssr:stedsnr" v="6032" />
	</node>
	<node id="-31879" lat="60.3904361108" lon="11.3442833281">
		<tag k="alt_name" v="Tronsbråten" />
		<tag k="name" v="Tronsbråtan" />
		<tag k="place" v="farm" />
		<tag k="ssr:stedsnr" v="6027" />
	</node>
	<node id="-31878" lat="60.4061027794" lon="11.1416472273">
		<tag k="alt_name" v="Dokknesvangen" />
		<tag k="name" v="Doknesvangen" />
		<tag k="place" v="isolated_dwelling" />
		<tag k="ssr:stedsnr" v="6021" />
	</node>
	<node id="-31877" lat="60.4029888885" lon="11.3619388921">
		<tag k="historic" v="shieling" />
		<tag k="name" v="Røysivangen" />
		<tag k="place" v="locality" />
		<tag k="ssr:stedsnr" v="6010" />
	</node>
	<node id="-31875" lat="60.337569441" lon="11.2631972174">
		<tag k="amenity" v="school" />
		<tag k="name" v="Eidsvoll videregående skole" />
		<tag k="ssr:stedsnr" v="970304" />
	</node>
	<node id="-31874" lat="60.2802055572" lon="11.2606777808">
		<tag k="loc_name" v="Høybråtan" />
		<tag k="name" v="Høybråten" />
		<tag k="place" v="farm" />
		<tag k="ssr:stedsnr" v="969969" />
	</node>
	<node id="-31873" lat="60.2761416628" lon="11.2541194475">
		<tag k="alt_name" v="Vardum øvre" />
		<tag k="name" v="Øvre Vardum" />
		<tag k="place" v="farm" />
		<tag k="ssr:stedsnr" v="969958" />
	</node>
	<node id="-31872" lat="60.2628472267" lon="11.2017166663">
		<tag k="name" v="Manerud" />
		<tag k="place" v="locality" />
		<tag k="ssr:stedsnr" v="969926" />
	</node>
	<node id="-31871" lat="60.2931500006" lon="11.2515999952">
		<tag k="alt_name" v="Skarprud" />
		<tag k="name" v="Skarperud" />
		<tag k="place" v="farm" />
		<tag k="ssr:stedsnr" v="969718" />
	</node>
	<node id="-31869" lat="60.3105166689" lon="11.1617083257">
		<tag k="name" v="Klaseie" />
		<tag k="place" v="farm" />
		<tag k="ssr:stedsnr" v="969704" />
	</node>
	<node id="-31868" lat="60.3330805556" lon="11.2981972244">
		<tag k="name" v="Elstadlia" />
		<tag k="place" v="hamlet" />
		<tag k="ssr:stedsnr" v="969420" />
	</node>
	<node id="-31866" lat="60.4803138897" lon="11.1538361039">
		<tag k="name" v="Bjørnstad" />
		<tag k="place" v="farm" />
		<tag k="ssr:stedsnr" v="968422" />
	</node>
	<node id="-31864" lat="60.2731972227" lon="11.1113583273">
		<tag k="name" v="Finnbråtan" />
		<tag k="place" v="locality" />
		<tag k="ssr:stedsnr" v="965763" />
	</node>
	<node id="-31863" lat="60.3768388905" lon="11.3522972239">
		<tag k="name" v="Vestli" />
		<tag k="place" v="farm" />
		<tag k="ssr:stedsnr" v="965762" />
	</node>
	<node id="-31860" lat="60.306274999" lon="11.2873333388">
		<tag k="alt_name" v="Våler nordstun" />
		<tag k="name" v="Nordstuen Våler" />
		<tag k="place" v="farm" />
		<tag k="ssr:stedsnr" v="951306" />
	</node>
	<node id="-31859" lat="60.305919449" lon="11.2876722192">
		<tag k="alt_name" v="Våler søstun" />
		<tag k="name" v="Søstuen Våler" />
		<tag k="place" v="farm" />
		<tag k="ssr:stedsnr" v="951304" />
	</node>
	<node id="-31858" lat="60.3139750017" lon="11.2747277725">
		<tag k="name" v="Brøstet" />
		<tag k="place" v="isolated_dwelling" />
		<tag k="ssr:stedsnr" v="951255" />
	</node>
	<node id="-31857" lat="60.368841669" lon="11.2613027732">
		<tag k="name" v="Rønsenflaen" />
		<tag k="place" v="farm" />
		<tag k="ssr:stedsnr" v="950007" />
	</node>
	<node id="-31855" lat="60.4999354751" lon="11.1303822841">
		<tag k="fixme" v="consider place=hamlet" />
		<tag k="name" v="Limset" />
		<tag k="place" v="farm" />
		<tag k="ssr:stedsnr" v="917417" />
	</node>
	<node id="-31854" lat="60.4383613023" lon="11.2502435619">
		<tag k="fixme" v="consider place=hamlet" />
		<tag k="name" v="Korslund" />
		<tag k="place" v="farm" />
		<tag k="ssr:stedsnr" v="917411" />
	</node>
	<node id="-31853" lat="60.2612861108" lon="11.1780833342">
		<tag k="name" v="Fjellet" />
		<tag k="place" v="farm" />
		<tag k="ssr:stedsnr" v="917168" />
	</node>
	<node id="-31852" lat="60.2697638866" lon="11.2471166578">
		<tag k="name" v="Trollerud" />
		<tag k="place" v="farm" />
		<tag k="ssr:stedsnr" v="917166" />
	</node>
	<node id="-31851" lat="60.2668222231" lon="11.1105694453">
		<tag k="name" v="Bruserud" />
		<tag k="place" v="farm" />
		<tag k="ssr:stedsnr" v="917158" />
	</node>
	<node id="-31848" lat="60.4947138851" lon="11.2360166581">
		<tag k="name" v="Skrårud" />
		<tag k="place" v="farm" />
		<tag k="ssr:stedsnr" v="916428" />
	</node>
	<node id="-31847" lat="60.2836249999" lon="11.2428861045">
		<tag k="name" v="Finstadbekken" />
		<tag k="place" v="farm" />
		<tag k="ssr:stedsnr" v="916177" />
	</node>
	<node id="-31846" lat="60.2934583357" lon="11.3037750055">
		<tag k="name" v="Åsroa" />
		<tag k="place" v="farm" />
		<tag k="ssr:stedsnr" v="916174" />
	</node>
	<node id="-31845" lat="60.2937972231" lon="11.2389416656">
		<tag k="name" v="Fjellhaug" />
		<tag k="place" v="farm" />
		<tag k="ssr:stedsnr" v="916173" />
	</node>
	<node id="-31842" lat="60.2995777752" lon="11.1607972164">
		<tag k="name" v="Stavi" />
		<tag k="place" v="isolated_dwelling" />
		<tag k="ssr:stedsnr" v="916162" />
	</node>
	<node id="-31841" lat="60.3299166259" lon="11.1791697184">
		<tag k="fixme" v="consider place=hamlet" />
		<tag k="name" v="Blakkesrud" />
		<tag k="place" v="farm" />
		<tag k="ssr:stedsnr" v="916130" />
	</node>
	<node id="-31840" lat="60.3925168346" lon="11.1924652007">
		<tag k="alt_name" v="Smestad" />
		<tag k="fixme" v="consider place=hamlet" />
		<tag k="name" v="Smedstad" />
		<tag k="place" v="farm" />
		<tag k="ssr:stedsnr" v="916029" />
	</node>
	<node id="-31839" lat="60.3931111085" lon="11.2586555601">
		<tag k="alt_name" v="Vesleenga" />
		<tag k="name" v="Veslenga" />
		<tag k="place" v="farm" />
		<tag k="ssr:stedsnr" v="916023" />
	</node>
	<node id="-31838" lat="60.2484333344" lon="11.2243833263">
		<tag k="name" v="Smedstua" />
		<tag k="place" v="farm" />
		<tag k="ssr:stedsnr" v="915311" />
	</node>
	<node id="-31836" lat="60.4962833373" lon="11.1465944439">
		<tag k="name" v="Bamrud" />
		<tag k="place" v="farm" />
		<tag k="ssr:stedsnr" v="907333" />
	</node>
	<node id="-31835" lat="60.3242833343" lon="11.2436555468">
		<tag k="name" v="Breidablikk" />
		<tag k="place" v="farm" />
		<tag k="ssr:stedsnr" v="907445" />
	</node>
	<node id="-31833" lat="60.3352824928" lon="11.3003838569">
		<tag k="name" v="Finnbråtan" />
		<tag k="place" v="locality" />
		<tag k="ssr:stedsnr" v="907121" />
	</node>
	<node id="-31832" lat="60.3315333333" lon="11.2006361134">
		<tag k="name" v="Klokkerenga" />
		<tag k="place" v="farm" />
		<tag k="ssr:stedsnr" v="906925" />
	</node>
	<node id="-31831" lat="60.3308083316" lon="11.2391583418">
		<tag k="alt_name" v="Hol negarn" />
		<tag k="name" v="Nedgarden Hol" />
		<tag k="place" v="farm" />
		<tag k="ssr:stedsnr" v="906921" />
	</node>
	<node id="-31830" lat="60.3387888868" lon="11.2245388843">
		<tag k="name" v="Hol" />
		<tag k="place" v="farm" />
		<tag k="ssr:stedsnr" v="906919" />
	</node>
	<node id="-31828" lat="60.2613777811" lon="11.2401250056">
		<tag k="name" v="Svangerudlia" />
		<tag k="place" v="farm" />
		<tag k="ssr:stedsnr" v="904770" />
	</node>
	<node id="-31823" lat="60.5629400665" lon="11.1752492795">
		<tag k="fixme" v="consider place=hamlet" />
		<tag k="name" v="Hol" />
		<tag k="place" v="farm" />
		<tag k="ssr:stedsnr" v="857418" />
	</node>
	<node id="-31821" lat="60.4447749964" lon="11.1926111122">
		<tag k="fixme" v="multiple name tags, choose one and add the other to alt_name" />
		<tag k="name" v="Enga;Tosterudengen" />
		<tag k="place" v="farm" />
		<tag k="ssr:stedsnr" v="856517" />
	</node>
	<node id="-31818" lat="60.2979528808" lon="11.2378333492">
		<tag k="fixme" v="consider place=hamlet" />
		<tag k="name" v="Finstad" />
		<tag k="place" v="farm" />
		<tag k="ssr:stedsnr" v="856177" />
	</node>
	<node id="-31816" lat="60.3330749963" lon="11.3408749952">
		<tag k="name" v="Søstuen" />
		<tag k="place" v="farm" />
		<tag k="ssr:stedsnr" v="856111" />
	</node>
	<node id="-31814" lat="60.3331793047" lon="11.3012769402">
		<tag k="fixme" v="consider place=suburb, village or hamlet" />
		<tag k="loc_name" v="Finnbråtan" />
		<tag k="name" v="Finnbråtengrenda" />
		<tag k="place" v="quarter" />
		<tag k="ssr:stedsnr" v="856103" />
	</node>
	<node id="-31813" lat="60.2704356624" lon="11.2042689142">
		<tag k="fixme" v="consider place=hamlet" />
		<tag k="name" v="Hjera" />
		<tag k="place" v="farm" />
		<tag k="ssr:stedsnr" v="856209" />
	</node>
	<node id="-31812" lat="60.2713111119" lon="11.2224305613">
		<tag k="name" v="Løken" />
		<tag k="place" v="farm" />
		<tag k="ssr:stedsnr" v="856204" />
	</node>
	<node id="-31810" lat="60.3429000018" lon="11.3342250085">
		<tag k="alt_name" v="Tjennsmo" />
		<tag k="name" v="Tjernsmo" />
		<tag k="place" v="farm" />
		<tag k="ssr:stedsnr" v="856081" />
	</node>
	<node id="-31809" lat="60.3613583346" lon="11.3284861119">
		<tag k="name" v="Graslia" />
		<tag k="place" v="farm" />
		<tag k="ssr:stedsnr" v="856075" />
	</node>
	<node id="-31808" lat="60.3753111135" lon="11.2804972221">
		<tag k="alt_name" v="Habbarstadkleiva" />
		<tag k="name" v="Kleiva" />
		<tag k="place" v="isolated_dwelling" />
		<tag k="ssr:stedsnr" v="856063" />
	</node>
	<node id="-31807" lat="60.3664888873" lon="11.3467777719">
		<tag k="fixme" v="consider place=hamlet" />
		<tag k="name" v="Gullverket" />
		<tag k="place" v="village" />
		<tag k="ssr:stedsnr" v="856061" />
	</node>
	<node id="-31806" lat="60.3734611096" lon="11.3624472239">
		<tag k="name" v="Botshaugdalen" />
		<tag k="place" v="farm" />
		<tag k="ssr:stedsnr" v="856060" />
	</node>
	<node id="-31804" lat="60.4028305522" lon="11.1507277835">
		<tag k="alt_name" v="Julsrudseter" />
		<tag k="historic" v="shieling" />
		<tag k="name" v="Julsrudsetra" />
		<tag k="place" v="locality" />
		<tag k="ssr:stedsnr" v="856020" />
	</node>
	<node id="-31803" lat="60.3606055571" lon="11.1505472305">
		<tag k="name" v="Lensmannsvangen" />
		<tag k="place" v="isolated_dwelling" />
		<tag k="ssr:stedsnr" v="855056" />
	</node>
	<node id="-31802" lat="60.3456194411" lon="11.1972722211">
		<tag k="name" v="Nyhus" />
		<tag k="place" v="farm" />
		<tag k="ssr:stedsnr" v="846922" />
	</node>
	<node id="-31801" lat="60.562722225" lon="11.1263305648">
		<tag k="historic" v="shieling" />
		<tag k="name" v="Bergersetra" />
		<tag k="place" v="locality" />
		<tag k="ssr:stedsnr" v="936448" />
	</node>
	<node id="-31798" lat="60.42505" lon="11.2994305619">
		<tag k="name" v="Bjørnholtet" />
		<tag k="place" v="farm" />
		<tag k="ssr:stedsnr" v="930983" />
	</node>
	<node id="-31797" lat="60.422341666" lon="11.2394194373">
		<tag k="name" v="Støjordet" />
		<tag k="place" v="farm" />
		<tag k="ssr:stedsnr" v="795562" />
	</node>
	<node id="-31796" lat="60.5139185545" lon="11.1860093628">
		<tag k="fixme" v="consider place=hamlet" />
		<tag k="name" v="Fagernes" />
		<tag k="place" v="farm" />
		<tag k="ssr:stedsnr" v="795559" />
	</node>
	<node id="-31795" lat="60.3082166636" lon="11.1621916579">
		<tag k="name" v="Skoglund" />
		<tag k="place" v="farm" />
		<tag k="ssr:stedsnr" v="795191" />
	</node>
	<node id="-31794" lat="60.3003333313" lon="11.2829361192">
		<tag k="name" v="Sinkerud" />
		<tag k="place" v="farm" />
		<tag k="ssr:stedsnr" v="795187" />
	</node>
	<node id="-31793" lat="60.3057170888" lon="11.2768484598">
		<tag k="alt_name" v="Strand, nordre" />
		<tag k="fixme" v="consider place=hamlet" />
		<tag k="name" v="Nordre Strand" />
		<tag k="place" v="farm" />
		<tag k="ssr:stedsnr" v="795185" />
	</node>
	<node id="-31790" lat="60.3163163363" lon="11.1619057905">
		<tag k="fixme" v="consider place=hamlet" />
		<tag k="name" v="Holm" />
		<tag k="place" v="farm" />
		<tag k="ssr:stedsnr" v="795176" />
	</node>
	<node id="-31789" lat="60.3103472256" lon="11.255066669">
		<tag k="name" v="Bårli" />
		<tag k="place" v="farm" />
		<tag k="ssr:stedsnr" v="795170" />
	</node>
	<node id="-31788" lat="60.3187694428" lon="11.2898916599">
		<tag k="name" v="Styri" />
		<tag k="place" v="hamlet" />
		<tag k="ssr:stedsnr" v="795165" />
	</node>
	<node id="-31786" lat="60.2892695506" lon="11.2190828494">
		<tag k="fixme" v="consider place=hamlet" />
		<tag k="name" v="Løken" />
		<tag k="place" v="farm" />
		<tag k="ssr:stedsnr" v="795217" />
	</node>
	<node id="-31783" lat="60.3369750044" lon="11.3278805483">
		<tag k="fixme" v="consider natural=beach + surface=sand" />
		<tag k="leisure" v="swimming_area" />
		<tag k="name" v="Fløyta" />
		<tag k="place" v="locality" />
		<tag k="ssr:stedsnr" v="788560" />
	</node>
	<node id="-31782" lat="60.2768833292" lon="11.2590555612">
		<tag k="name" v="Melby" />
		<tag k="place" v="isolated_dwelling" />
		<tag k="ssr:stedsnr" v="787969" />
	</node>
	<node id="-31781" lat="60.334602774" lon="11.2854388939">
		<tag k="alt_name" v="Elstad Jonstun" />
		<tag k="name" v="Jonstuen Elstad" />
		<tag k="place" v="farm" />
		<tag k="ssr:stedsnr" v="787412" />
	</node>
	<node id="-31780" lat="60.3321638913" lon="11.2614638886">
		<tag k="amenity" v="school" />
		<tag k="name" v="Vilberg skole" />
		<tag k="old_name" v="Vilberg barneskole" />
		<tag k="ssr:stedsnr" v="787409" />
	</node>
	<node id="-31779" lat="60.3332305517" lon="11.2647444507">
		<tag k="name" v="Nedre Vilberg" />
		<tag k="place" v="quarter" />
		<tag k="ssr:stedsnr" v="787408" />
	</node>
	<node id="-31775" lat="60.2786999978" lon="11.2518611057">
		<tag k="fixme" v="consider place=hamlet" />
		<tag k="name" v="Vardrum" />
		<tag k="place" v="farm" />
		<tag k="ssr:stedsnr" v="917148" />
	</node>
	<node id="-31773" lat="60.3662499999" lon="11.197505554">
		<tag k="fixme" v="consider place=hamlet" />
		<tag k="loc_name" v="Åsgård" />
		<tag k="name" v="Åsgard" />
		<tag k="place" v="farm" />
		<tag k="ssr:stedsnr" v="917064" />
	</node>
	<node id="-31770" lat="60.4686277783" lon="11.2545861144">
		<tag k="alt_name" v="Ulvelia" />
		<tag k="fixme" v="multiple name tags, choose one and add the other to alt_name" />
		<tag k="name" v="Lien;Sølia;Ulvinlia" />
		<tag k="old_name" v="Ulvenlien" />
		<tag k="place" v="farm" />
		<tag k="ssr:stedsnr" v="916439" />
	</node>
	<node id="-31769" lat="60.460763892" lon="11.2476138821">
		<tag k="name" v="Røysheim" />
		<tag k="place" v="farm" />
		<tag k="ssr:stedsnr" v="916438" />
	</node>
	<node id="-31768" lat="60.4135916675" lon="11.1980416612">
		<tag k="name" v="Byrud" />
		<tag k="place" v="farm" />
		<tag k="ssr:stedsnr" v="916502" />
	</node>
	<node id="-31767" lat="60.4438916643" lon="11.1961999977">
		<tag k="name" v="Vikeren" />
		<tag k="place" v="farm" />
		<tag k="ssr:stedsnr" v="916480" />
	</node>
	<node id="-31766" lat="60.2850302737" lon="11.2192146289">
		<tag k="fixme" v="consider place=hamlet" />
		<tag k="name" v="Haga" />
		<tag k="place" v="farm" />
		<tag k="ssr:stedsnr" v="916187" />
	</node>
	<node id="-31765" lat="60.2852222178" lon="11.1971555572">
		<tag k="name" v="Bønsdalen" />
		<tag k="place" v="quarter" />
		<tag k="ssr:stedsnr" v="916186" />
	</node>
	<node id="-31764" lat="60.3358626781" lon="11.285491208">
		<tag k="fixme" v="consider place=hamlet" />
		<tag k="name" v="Elstad" />
		<tag k="place" v="farm" />
		<tag k="ssr:stedsnr" v="916101" />
	</node>
	<node id="-31762" lat="60.3635611128" lon="11.3625027769">
		<tag k="name" v="Fjellberg" />
		<tag k="place" v="farm" />
		<tag k="ssr:stedsnr" v="916082" />
	</node>
	<node id="-31760" lat="60.398227777" lon="11.2998861116">
		<tag k="name" v="Lønnlifallet" />
		<tag k="place" v="farm" />
		<tag k="ssr:stedsnr" v="770865" />
	</node>
	<node id="-31757" lat="60.3111027796" lon="11.2470972147">
		<tag k="alt_name" v="Ålborg Hansstun" />
		<tag k="name" v="Hansstuen Ålborg" />
		<tag k="place" v="farm" />
		<tag k="ssr:stedsnr" v="769320" />
	</node>
	<node id="-31756" lat="60.3232166653" lon="11.2387277695">
		<tag k="name" v="Torshaug" />
		<tag k="place" v="farm" />
		<tag k="ssr:stedsnr" v="769307" />
	</node>
	<node id="-31755" lat="60.3541750044" lon="11.2388944473">
		<tag k="alt_name" v="Doknes nordgarn" />
		<tag k="name" v="Nordgarden Doknes" />
		<tag k="place" v="farm" />
		<tag k="ssr:stedsnr" v="768058" />
	</node>
	<node id="-31754" lat="60.3576666667" lon="11.2278361144">
		<tag k="alt_name" v="Dokken østgarn" />
		<tag k="name" v="Østgarden Dokken" />
		<tag k="place" v="farm" />
		<tag k="ssr:stedsnr" v="768057" />
	</node>
	<node id="-31753" lat="60.2838194478" lon="11.1694805648">
		<tag k="amenity" v="sports_centre" />
		<tag k="name" v="Råholt bad" />
		<tag k="ssr:stedsnr" v="910698" />
	</node>
	<node id="-31752" lat="60.2893361117" lon="11.2445527701">
		<tag k="leisure" v="pitch" />
		<tag k="name" v="Finstad sportsklubb lysløype" />
		<tag k="ssr:stedsnr" v="910693" />
	</node>
	<node id="-31751" lat="60.3346805513" lon="11.2598805639">
		<tag k="amenity" v="school" />
		<tag k="name" v="Vilberg ungdomsskole" />
		<tag k="ssr:stedsnr" v="910688" />
	</node>
	<node id="-31750" lat="60.4233055551" lon="11.3569611189">
		<tag k="fixme" v="consider natural=beach + surface=sand" />
		<tag k="leisure" v="swimming_area" />
		<tag k="name" v="Nordre Holsjøen" />
		<tag k="place" v="locality" />
		<tag k="ssr:stedsnr" v="910585" />
	</node>
	<node id="-31749" lat="60.278341669" lon="11.2525888875">
		<tag k="name" v="Vardum" />
		<tag k="place" v="farm" />
		<tag k="ssr:stedsnr" v="908988" />
	</node>
	<node id="-31748" lat="60.2795250003" lon="11.2568305538">
		<tag k="name" v="Jokta" />
		<tag k="place" v="farm" />
		<tag k="ssr:stedsnr" v="908987" />
	</node>
	<node id="-31746" lat="60.2679555545" lon="11.2398861055">
		<tag k="name" v="Kolberg" />
		<tag k="place" v="farm" />
		<tag k="ssr:stedsnr" v="908979" />
	</node>
	<node id="-31744" lat="60.3105750025" lon="11.1801611191">
		<tag k="alt_name" v="Jonsrud øvre" />
		<tag k="name" v="Øvre Jonsrud" />
		<tag k="place" v="farm" />
		<tag k="ssr:stedsnr" v="908737" />
	</node>
	<node id="-31743" lat="60.2991027767" lon="11.198238894">
		<tag k="alt_name" v="Venjar søgarn" />
		<tag k="name" v="Søgarden Venjar" />
		<tag k="place" v="farm" />
		<tag k="ssr:stedsnr" v="908725" />
	</node>
	<node id="-31740" lat="60.3287472197" lon="11.2653388838">
		<tag k="name" v="Vormvik" />
		<tag k="place" v="farm" />
		<tag k="ssr:stedsnr" v="908422" />
	</node>
	<node id="-31738" lat="60.3200611125" lon="11.3759555468">
		<tag k="name" v="Sjølyst" />
		<tag k="place" v="isolated_dwelling" />
		<tag k="ssr:stedsnr" v="907474" />
	</node>
	<node id="-31736" lat="60.4841444485" lon="11.1418777782">
		<tag k="name" v="Melby" />
		<tag k="place" v="farm" />
		<tag k="ssr:stedsnr" v="907347" />
	</node>
	<node id="-31735" lat="60.3753638894" lon="11.2670694432">
		<tag k="alt_name" v="Habbarstad nordstun" />
		<tag k="name" v="Nordstuen Habbarstad" />
		<tag k="place" v="farm" />
		<tag k="ssr:stedsnr" v="905981" />
	</node>
	<node id="-31734" lat="60.2754500039" lon="11.1733027865">
		<tag k="name" v="Bjørgan" />
		<tag k="place" v="farm" />
		<tag k="ssr:stedsnr" v="904778" />
	</node>
	<node id="-31732" lat="60.3473472214" lon="11.1850083353">
		<tag k="name" v="Lisbakken" />
		<tag k="place" v="farm" />
		<tag k="ssr:stedsnr" v="906933" />
	</node>
	<node id="-31729" lat="60.2827277773" lon="11.2523305626">
		<tag k="amenity" v="nursing_home" />
		<tag k="name" v="Birkelund sykehjem" />
		<tag k="ssr:stedsnr" v="726986" />
	</node>
	<node id="-31728" lat="60.2782583328" lon="11.2298111021">
		<tag k="name" v="Bunes" />
		<tag k="place" v="farm" />
		<tag k="ssr:stedsnr" v="726976" />
	</node>
	<node id="-31727" lat="60.2760055561" lon="11.2049527799">
		<tag k="name" v="Hjera" />
		<tag k="place" v="farm" />
		<tag k="ssr:stedsnr" v="726975" />
	</node>
	<node id="-31724" lat="60.3043083336" lon="11.3013166682">
		<tag k="alt_name" v="Jøndal Taraldstun" />
		<tag k="name" v="Taraldstuen Jøndal" />
		<tag k="place" v="farm" />
		<tag k="ssr:stedsnr" v="726726" />
	</node>
	<node id="-31723" lat="60.3099194466" lon="11.1718638839">
		<tag k="alt_name" v="Kornelius østre" />
		<tag k="name" v="Østre Kornelius" />
		<tag k="place" v="farm" />
		<tag k="ssr:stedsnr" v="726716" />
	</node>
	<node id="-31720" lat="60.3728666626" lon="11.1937194405">
		<tag k="alt_name" v="Askheim okgarn" />
		<tag k="name" v="Oppgarden Askheim" />
		<tag k="place" v="farm" />
		<tag k="ssr:stedsnr" v="723981" />
	</node>
	<node id="-31719" lat="60.3796666627" lon="11.1996555555">
		<tag k="alt_name" v="Julsrud innstun" />
		<tag k="loc_name" v="Innistun Julsrud;Innistuen Julsrud" />
		<tag k="name" v="Innstuen Julsrud" />
		<tag k="place" v="farm" />
		<tag k="ssr:stedsnr" v="723973" />
	</node>
	<node id="-31716" lat="60.3906999977" lon="11.2350861186">
		<tag k="name" v="Bjørknes" />
		<tag k="place" v="farm" />
		<tag k="ssr:stedsnr" v="723961" />
	</node>
	<node id="-31715" lat="60.3730305514" lon="11.257475007">
		<tag k="alt_name" v="Rønsen nordstun" />
		<tag k="name" v="Nordstuen Rønsen" />
		<tag k="place" v="farm" />
		<tag k="ssr:stedsnr" v="723958" />
	</node>
	<node id="-31711" lat="60.3623638878" lon="11.2650777865">
		<tag k="alt_name" v="Hol negarn" />
		<tag k="name" v="Nedgarden Hol" />
		<tag k="place" v="farm" />
		<tag k="ssr:stedsnr" v="708011" />
	</node>
	<node id="-31710" lat="60.4160194404" lon="11.2632500073">
		<tag k="name" v="Vestenga" />
		<tag k="place" v="farm" />
		<tag k="ssr:stedsnr" v="892672" />
	</node>
	<node id="-31709" lat="60.4744249959" lon="11.147422214">
		<tag k="name" v="Nedre Svenby" />
		<tag k="place" v="farm" />
		<tag k="ssr:stedsnr" v="892549" />
	</node>
	<node id="-31708" lat="60.4733361135" lon="11.1436944379">
		<tag k="name" v="Øvre Svenby" />
		<tag k="place" v="farm" />
		<tag k="ssr:stedsnr" v="892548" />
	</node>
	<node id="-31707" lat="60.4456194437" lon="11.3179083423">
		<tag k="name" v="Langsetvangen" />
		<tag k="place" v="locality" />
		<tag k="ssr:stedsnr" v="892531" />
	</node>
	<node id="-31706" lat="60.4332749992" lon="11.1543944441">
		<tag k="name" v="Solberghytta" />
		<tag k="place" v="isolated_dwelling" />
		<tag k="ssr:stedsnr" v="891861" />
	</node>
	<node id="-31704" lat="60.4089638917" lon="11.1982194373">
		<tag k="alt_name" v="Trandum nordstun" />
		<tag k="name" v="Nordstuen Trandum" />
		<tag k="place" v="farm" />
		<tag k="ssr:stedsnr" v="891839" />
	</node>
	<node id="-31703" lat="60.4029499964" lon="11.193530558">
		<tag k="name" v="Myrerhagan" />
		<tag k="place" v="farm" />
		<tag k="ssr:stedsnr" v="891837" />
	</node>
	<node id="-31702" lat="60.2831333288" lon="11.3349777845">
		<tag k="name" v="Sandbakken" />
		<tag k="place" v="farm" />
		<tag k="ssr:stedsnr" v="891585" />
	</node>
	<node id="-31701" lat="60.2868611111" lon="11.1504694507">
		<tag k="alt_name" v="Dalen østre" />
		<tag k="name" v="Østre Dalen" />
		<tag k="place" v="farm" />
		<tag k="ssr:stedsnr" v="891573" />
	</node>
	<node id="-31699" lat="60.3110305568" lon="11.2460222136">
		<tag k="alt_name" v="Ålborg dølstun" />
		<tag k="name" v="Dølstuen Ålborg" />
		<tag k="place" v="farm" />
		<tag k="ssr:stedsnr" v="891355" />
	</node>
	<node id="-31698" lat="60.5852416652" lon="11.1496666741">
		<tag k="name" v="Skomakerbekken" />
		<tag k="place" v="farm" />
		<tag k="ssr:stedsnr" v="890994" />
	</node>
	<node id="-31697" lat="60.5482916703" lon="11.1906361112">
		<tag k="name" v="Langgard" />
		<tag k="place" v="farm" />
		<tag k="ssr:stedsnr" v="890956" />
	</node>
	<node id="-31696" lat="60.5548833313" lon="11.1785138874">
		<tag k="name" v="Oppegård" />
		<tag k="place" v="farm" />
		<tag k="ssr:stedsnr" v="890953" />
	</node>
	<node id="-31691" lat="60.4792722234" lon="11.2442166612">
		<tag k="alt_name" v="Ulvin Okgarn;Ulven øvre;Øvre Ulven;Øvre Ulvin" />
		<tag k="fixme" v="consider place=hamlet" />
		<tag k="name" v="Oppgarden Ulvin" />
		<tag k="place" v="farm" />
		<tag k="ssr:stedsnr" v="890474" />
	</node>
	<node id="-31687" lat="60.3590972203" lon="11.2234555468">
		<tag k="alt_name" v="Dokken okgarn" />
		<tag k="name" v="Oppgarden Dokken" />
		<tag k="place" v="farm" />
		<tag k="ssr:stedsnr" v="890048" />
	</node>
	<node id="-31686" lat="60.5240861152" lon="11.1828222215">
		<tag k="name" v="Torgunrud" />
		<tag k="place" v="farm" />
		<tag k="ssr:stedsnr" v="890030" />
	</node>
	<node id="-31684" lat="60.5265250027" lon="11.1190333284">
		<tag k="historic" v="shieling" />
		<tag k="name" v="Flesviksetra" />
		<tag k="place" v="locality" />
		<tag k="ssr:stedsnr" v="890003" />
	</node>
	<node id="-31679" lat="60.2919249957" lon="11.2444749933">
		<tag k="name" v="Fredheim" />
		<tag k="place" v="farm" />
		<tag k="ssr:stedsnr" v="674166" />
	</node>
	<node id="-31678" lat="60.3277355825" lon="11.2970375152">
		<tag k="name" v="Støråsen" />
		<tag k="place" v="locality" />
		<tag k="ssr:stedsnr" v="674116" />
	</node>
	<node id="-31677" lat="60.2751305557" lon="11.1790111107">
		<tag k="name" v="Råholt" />
		<tag k="place" v="village" />
		<tag k="ssr:stedsnr" v="880185" />
	</node>
	<node id="-31676" lat="60.4914249966" lon="11.1342750062">
		<tag k="name" v="Dalsrud" />
		<tag k="place" v="farm" />
		<tag k="ssr:stedsnr" v="664347" />
	</node>
	<node id="-31673" lat="60.3414944467" lon="11.2033555519">
		<tag k="alt_name" v="Nystun Ås" />
		<tag k="name" v="Nystuen Ås" />
		<tag k="place" v="farm" />
		<tag k="ssr:stedsnr" v="663917" />
	</node>
	<node id="-31670" lat="60.5106277766" lon="11.1711833306">
		<tag k="name" v="Rømmerud" />
		<tag k="place" v="farm" />
		<tag k="ssr:stedsnr" v="735478" />
	</node>
	<node id="-31669" lat="60.5349111104" lon="11.1311027778">
		<tag k="name" v="Blaker" />
		<tag k="place" v="farm" />
		<tag k="ssr:stedsnr" v="735456" />
	</node>
	<node id="-31668" lat="60.5565313419" lon="11.1887855135">
		<tag k="fixme" v="consider place=hamlet" />
		<tag k="name" v="Alnes" />
		<tag k="place" v="farm" />
		<tag k="ssr:stedsnr" v="735391" />
	</node>
	<node id="-31666" lat="60.4222249975" lon="11.237322224">
		<tag k="name" v="Støa" />
		<tag k="place" v="farm" />
		<tag k="ssr:stedsnr" v="648872" />
	</node>
	<node id="-31665" lat="60.4437499996" lon="11.2477527761">
		<tag k="name" v="Oppheim" />
		<tag k="place" v="farm" />
		<tag k="ssr:stedsnr" v="734498" />
	</node>
	<node id="-31664" lat="60.4347777781" lon="11.2636472257">
		<tag k="name" v="Helgeli" />
		<tag k="place" v="farm" />
		<tag k="ssr:stedsnr" v="734477" />
	</node>
	<node id="-31663" lat="60.4408194448" lon="11.1853222145">
		<tag k="name" v="Jonsrud" />
		<tag k="place" v="farm" />
		<tag k="ssr:stedsnr" v="734475" />
	</node>
	<node id="-31662" lat="60.4390333318" lon="11.1922277838">
		<tag k="name" v="Kroken" />
		<tag k="place" v="farm" />
		<tag k="ssr:stedsnr" v="734474" />
	</node>
	<node id="-31660" lat="60.4556166636" lon="11.1910805638">
		<tag k="alt_name" v="Tosterud, nordre" />
		<tag k="loc_name" v="Nord-Tosterud" />
		<tag k="name" v="Nordre Tosterud" />
		<tag k="place" v="farm" />
		<tag k="ssr:stedsnr" v="734452" />
	</node>
	<node id="-31659" lat="60.4925750012" lon="11.1317333285">
		<tag k="fixme" v="consider place=hamlet" />
		<tag k="name" v="Røyse" />
		<tag k="place" v="farm" />
		<tag k="ssr:stedsnr" v="734446" />
	</node>
	<node id="-31658" lat="60.4937500008" lon="11.1556305542">
		<tag k="name" v="Røysli" />
		<tag k="place" v="farm" />
		<tag k="ssr:stedsnr" v="734444" />
	</node>
	<node id="-31657" lat="60.497244417" lon="11.1467297105">
		<tag k="fixme" v="consider place=hamlet" />
		<tag k="name" v="Bamrud" />
		<tag k="place" v="farm" />
		<tag k="ssr:stedsnr" v="734443" />
	</node>
	<node id="-31654" lat="60.3176194436" lon="11.2216111066">
		<tag k="name" v="Ringerstua" />
		<tag k="place" v="isolated_dwelling" />
		<tag k="ssr:stedsnr" v="647327" />
	</node>
	<node id="-31653" lat="60.2602393365" lon="11.3094587027">
		<tag k="name" v="Bårstad" />
		<tag k="place" v="farm" />
		<tag k="ssr:stedsnr" v="734238" />
	</node>
	<node id="-31652" lat="60.2656194421" lon="11.2404333414">
		<tag k="name" v="Svangerud" />
		<tag k="place" v="farm" />
		<tag k="ssr:stedsnr" v="734225" />
	</node>
	<node id="-31650" lat="60.3740138905" lon="11.3562277854">
		<tag k="name" v="Vangen" />
		<tag k="place" v="farm" />
		<tag k="ssr:stedsnr" v="734221" />
	</node>
	<node id="-31649" lat="60.2813138889" lon="11.2168055466">
		<tag k="name" v="Ødegård" />
		<tag k="place" v="farm" />
		<tag k="ssr:stedsnr" v="734214" />
	</node>
	<node id="-31648" lat="60.2723416651" lon="11.2376916732">
		<tag k="name" v="Sundby" />
		<tag k="place" v="farm" />
		<tag k="ssr:stedsnr" v="734212" />
	</node>
	<node id="-31647" lat="60.2939277734" lon="11.2784777739">
		<tag k="alt_name" v="Strand, søndre;Sø-Strand" />
		<tag k="name" v="Søndre Strand" />
		<tag k="place" v="farm" />
		<tag k="ssr:stedsnr" v="734194" />
	</node>
	<node id="-31646" lat="60.3020666642" lon="11.1976222217">
		<tag k="alt_name" v="Venjerbakken" />
		<tag k="name" v="Venjarbakken" />
		<tag k="place" v="farm" />
		<tag k="ssr:stedsnr" v="734166" />
	</node>
	<node id="-31645" lat="60.3198361083" lon="11.2463111081">
		<tag k="alt_name" v="Eidsvoll prestegard" />
		<tag k="name" v="Prestegarden" />
		<tag k="place" v="farm" />
		<tag k="ssr:stedsnr" v="734138" />
	</node>
	<node id="-31643" lat="60.339399996" lon="11.211033326">
		<tag k="name" v="Østby" />
		<tag k="place" v="farm" />
		<tag k="ssr:stedsnr" v="734113" />
	</node>
	<node id="-31641" lat="60.3445222246" lon="11.3434972235">
		<tag k="alt_name" v="Morttjennbakken" />
		<tag k="name" v="Morttjernsbakken" />
		<tag k="place" v="farm" />
		<tag k="ssr:stedsnr" v="734105" />
	</node>
	<node id="-31640" lat="60.3583583331" lon="11.2798861091">
		<tag k="name" v="Holsletta" />
		<tag k="place" v="farm" />
		<tag k="ssr:stedsnr" v="734090" />
	</node>
	<node id="-31638" lat="60.3701146865" lon="11.3598705289">
		<tag k="alt_name" v="Finnsbråten" />
		<tag k="fixme" v="consider place=hamlet" />
		<tag k="name" v="Finnsbråtan" />
		<tag k="place" v="farm" />
		<tag k="ssr:stedsnr" v="734056" />
	</node>
	<node id="-31635" lat="60.3849527803" lon="11.2042583416">
		<tag k="name" v="Paulsmoen" />
		<tag k="place" v="farm" />
		<tag k="ssr:stedsnr" v="734050" />
	</node>
	<node id="-31634" lat="60.390150002" lon="11.2423333423">
		<tag k="name" v="Bjørknes" />
		<tag k="place" v="farm" />
		<tag k="ssr:stedsnr" v="734032" />
	</node>
	<node id="-31633" lat="60.3951194402" lon="11.3609305595">
		<tag k="name" v="Lesja" />
		<tag k="place" v="farm" />
		<tag k="ssr:stedsnr" v="734026" />
	</node>
	<node id="-31632" lat="60.4035500003" lon="11.2647250059">
		<tag k="name" v="Røysilia" />
		<tag k="place" v="farm" />
		<tag k="ssr:stedsnr" v="734016" />
	</node>
	<node id="-31631" lat="60.234975" lon="11.2373972165">
		<tag k="name" v="Svinåsen" />
		<tag k="place" v="farm" />
		<tag k="ssr:stedsnr" v="733306" />
	</node>
	<node id="-31628" lat="60.2811548755" lon="11.1739228105">
		<tag k="building" v="commercial" />
		<tag k="name" v="Amfi Eidsvoll" />
		<tag k="ssr:stedsnr" v="728656" />
	</node>
	<node id="-31626" lat="60.3175611153" lon="11.1587166615">
		<tag k="name" v="Holm" />
		<tag k="place" v="farm" />
		<tag k="ssr:stedsnr" v="726761" />
	</node>
	<node id="-31621" lat="60.3269583373" lon="11.2848861102">
		<tag k="alt_name" v="Grue midtgarn" />
		<tag k="name" v="Midtgarden Grue" />
		<tag k="place" v="farm" />
		<tag k="ssr:stedsnr" v="726419" />
	</node>
	<node id="-31620" lat="60.3378500025" lon="11.2762444401">
		<tag k="alt_name" v="Tønsaker øgarn" />
		<tag k="name" v="Øgarden Tønsåker" />
		<tag k="place" v="farm" />
		<tag k="ssr:stedsnr" v="726392" />
	</node>
	<node id="-31619" lat="60.3441805538" lon="11.2915638946">
		<tag k="name" v="Skakkland" />
		<tag k="place" v="isolated_dwelling" />
		<tag k="ssr:stedsnr" v="726389" />
	</node>
	<node id="-31617" lat="60.4975166626" lon="11.1464027858">
		<tag k="name" v="Bamrud" />
		<tag k="place" v="farm" />
		<tag k="ssr:stedsnr" v="725342" />
	</node>
	<node id="-31616" lat="60.4962833335" lon="11.1258555603">
		<tag k="name" v="Røyse" />
		<tag k="place" v="farm" />
		<tag k="ssr:stedsnr" v="725313" />
	</node>
	<node id="-31615" lat="60.5000444488" lon="11.1316194463">
		<tag k="name" v="Jeriko" />
		<tag k="place" v="farm" />
		<tag k="ssr:stedsnr" v="725312" />
	</node>
	<node id="-31613" lat="60.5050694475" lon="11.1709416666">
		<tag k="alt_name" v="Disserud øvre" />
		<tag k="name" v="Øvre Disserud" />
		<tag k="place" v="farm" />
		<tag k="ssr:stedsnr" v="725307" />
	</node>
	<node id="-31612" lat="60.3434111096" lon="11.1868305645">
		<tag k="name" v="Grøndalen" />
		<tag k="place" v="farm" />
		<tag k="ssr:stedsnr" v="724952" />
	</node>
	<node id="-31611" lat="60.3446777809" lon="11.1948888819">
		<tag k="name" v="Dalshaugen" />
		<tag k="place" v="farm" />
		<tag k="ssr:stedsnr" v="724951" />
	</node>
	<node id="-31610" lat="60.3470861127" lon="11.1975694489">
		<tag k="name" v="Granlund" />
		<tag k="place" v="farm" />
		<tag k="ssr:stedsnr" v="724942" />
	</node>
	<node id="-31609" lat="60.3431722253" lon="11.1985583371">
		<tag k="name" v="Slottet" />
		<tag k="place" v="farm" />
		<tag k="ssr:stedsnr" v="724928" />
	</node>
	<node id="-31607" lat="60.3795833365" lon="11.2491638933">
		<tag k="name" v="Lynes" />
		<tag k="place" v="farm" />
		<tag k="ssr:stedsnr" v="723750" />
	</node>
	<node id="-31606" lat="60.2833999969" lon="11.1655805627">
		<tag k="name" v="Grinda" />
		<tag k="place" v="farm" />
		<tag k="ssr:stedsnr" v="722826" />
	</node>
	<node id="-31605" lat="60.2778500033" lon="11.1282444458">
		<tag k="name" v="Elvebekken" />
		<tag k="place" v="locality" />
		<tag k="ssr:stedsnr" v="722823" />
	</node>
	<node id="-31603" lat="60.2607111107" lon="11.2138861168">
		<tag k="name" v="Hagamoen" />
		<tag k="place" v="quarter" />
		<tag k="ssr:stedsnr" v="722785" />
	</node>
	<node id="-31602" lat="60.2571777773" lon="11.1891888918">
		<tag k="name" v="Moen" />
		<tag k="place" v="farm" />
		<tag k="ssr:stedsnr" v="722778" />
	</node>
	<node id="-31600" lat="60.5542305572" lon="11.1932444522">
		<tag k="name" v="Stigersand" />
		<tag k="place" v="farm" />
		<tag k="ssr:stedsnr" v="613410" />
	</node>
	<node id="-31599" lat="60.55510482" lon="11.178630868">
		<tag k="fixme" v="consider place=hamlet" />
		<tag k="name" v="Oppegård" />
		<tag k="place" v="farm" />
		<tag k="ssr:stedsnr" v="613405" />
	</node>
	<node id="-31598" lat="60.2581055583" lon="11.2913555499">
		<tag k="alt_name" v="Nygard" />
		<tag k="name" v="Nygård" />
		<tag k="place" v="farm" />
		<tag k="ssr:stedsnr" v="613207" />
	</node>
	<node id="-31596" lat="60.3966972244" lon="11.2308500087">
		<tag k="name" v="Minne" />
		<tag k="place" v="farm" />
		<tag k="ssr:stedsnr" v="612035" />
	</node>
	<node id="-31595" lat="60.4005249959" lon="11.2398972224">
		<tag k="name" v="Dorr" />
		<tag k="place" v="farm" />
		<tag k="ssr:stedsnr" v="612019" />
	</node>
	<node id="-31593" lat="60.3979417888" lon="11.2976285529">
		<tag k="loc_name" v="Lønlifjallet" />
		<tag k="name" v="Lønnlifallet" />
		<tag k="place" v="farm" />
		<tag k="ssr:stedsnr" v="612012" />
	</node>
	<node id="-31592" lat="60.273252776" lon="11.3211250008">
		<tag k="alt_name" v="Frilset øvre østgarn" />
		<tag k="name" v="Øvre Østgarden Frilset" />
		<tag k="place" v="farm" />
		<tag k="ssr:stedsnr" v="604989" />
	</node>
	<node id="-31591" lat="60.2803222181" lon="11.1889277763">
		<tag k="name" v="Øvre" />
		<tag k="place" v="farm" />
		<tag k="ssr:stedsnr" v="604986" />
	</node>
	<node id="-31590" lat="60.2762055569" lon="11.1851805472">
		<tag k="name" v="Teiet" />
		<tag k="place" v="hamlet" />
		<tag k="ssr:stedsnr" v="604973" />
	</node>
	<node id="-31589" lat="60.306366668" lon="11.1737805604">
		<tag k="name" v="Bens" />
		<tag k="place" v="isolated_dwelling" />
		<tag k="ssr:stedsnr" v="604763" />
	</node>
	<node id="-31586" lat="60.3333861139" lon="11.2418888968">
		<tag k="alt_name" v="Botshaug negarn" />
		<tag k="name" v="Nedgarden Botshaug" />
		<tag k="place" v="locality" />
		<tag k="ssr:stedsnr" v="604417" />
	</node>
	<node id="-31585" lat="60.3280194449" lon="11.2742916691">
		<tag k="name" v="Gruemyra" />
		<tag k="place" v="hamlet" />
		<tag k="ssr:stedsnr" v="604402" />
	</node>
	<node id="-31584" lat="60.4660222239" lon="11.2697888893">
		<tag k="alt_name" v="Ulvinmyrane;Ulvemyrane" />
		<tag k="loc_name" v="Ulvinmyra;Myra" />
		<tag k="name" v="Ulvinmyrene" />
		<tag k="place" v="hamlet" />
		<tag k="ssr:stedsnr" v="603411" />
	</node>
	<node id="-31583" lat="60.48135556" lon="11.1493750009">
		<tag k="name" v="Bjørnstad" />
		<tag k="place" v="farm" />
		<tag k="ssr:stedsnr" v="603369" />
	</node>
	<node id="-31582" lat="60.4842527772" lon="11.146872226">
		<tag k="alt_name" v="Jostun" />
		<tag k="name" v="Jostuen" />
		<tag k="place" v="farm" />
		<tag k="ssr:stedsnr" v="603368" />
	</node>
	<node id="-31581" lat="60.3856222181" lon="11.1417527771">
		<tag k="name" v="Koiedalsstua" />
		<tag k="place" v="isolated_dwelling" />
		<tag k="ssr:stedsnr" v="601996" />
	</node>
	<node id="-31579" lat="60.3740833373" lon="11.2673805545">
		<tag k="alt_name" v="Habbarstad nordgarn" />
		<tag k="name" v="Nordgarden Habbarstad" />
		<tag k="place" v="farm" />
		<tag k="ssr:stedsnr" v="601969" />
	</node>
	<node id="-31578" lat="60.3856416711" lon="11.2727388945">
		<tag k="alt_name" v="Tronstun" />
		<tag k="name" v="Tronstuen" />
		<tag k="place" v="farm" />
		<tag k="ssr:stedsnr" v="601965" />
	</node>
	<node id="-31577" lat="60.3830027819" lon="11.2690333406">
		<tag k="name" v="Habbarstadbakken" />
		<tag k="place" v="farm" />
		<tag k="ssr:stedsnr" v="601963" />
	</node>
	<node id="-31576" lat="60.2688805555" lon="11.1273916618">
		<tag k="name" v="Verner" />
		<tag k="place" v="farm" />
		<tag k="ssr:stedsnr" v="600773" />
	</node>
	<node id="-31573" lat="60.2456111101" lon="11.2237055606">
		<tag k="name" v="Smedstua" />
		<tag k="place" v="locality" />
		<tag k="ssr:stedsnr" v="600203" />
	</node>
	<node id="-31562" lat="60.3264833379" lon="11.1940944377">
		<tag k="name" v="Siggerudhagan" />
		<tag k="place" v="quarter" />
		<tag k="ssr:stedsnr" v="590713" />
	</node>
	<node id="-31561" lat="60.2912768526" lon="11.1986540851">
		<tag k="fixme" v="consider place=suburb, village or hamlet" />
		<tag k="name" v="Bøn" />
		<tag k="place" v="quarter" />
		<tag k="ssr:stedsnr" v="711723" />
	</node>
	<node id="-31559" lat="60.4327138876" lon="11.1490499957">
		<tag k="name" v="Grønna" />
		<tag k="place" v="isolated_dwelling" />
		<tag k="ssr:stedsnr" v="587860" />
	</node>
	<node id="-31558" lat="60.3138111125" lon="11.2022861121">
		<tag k="name" v="Veverbakken" />
		<tag k="place" v="farm" />
		<tag k="ssr:stedsnr" v="587331" />
	</node>
	<node id="-31557" lat="60.3114277749" lon="11.2207583351">
		<tag k="alt_name" v="Bjørke søstun" />
		<tag k="name" v="Søstuen Bjørke" />
		<tag k="place" v="farm" />
		<tag k="ssr:stedsnr" v="587328" />
	</node>
	<node id="-31556" lat="60.3123250039" lon="11.2192944403">
		<tag k="alt_name" v="Bjørke Kyhnstun" />
		<tag k="name" v="Kyhnstuen Bjørke" />
		<tag k="place" v="farm" />
		<tag k="ssr:stedsnr" v="587326" />
	</node>
	<node id="-31555" lat="60.5588055541" lon="11.1766055606">
		<tag k="name" v="Nordhagan" />
		<tag k="place" v="farm" />
		<tag k="ssr:stedsnr" v="586949" />
	</node>
	<node id="-31552" lat="60.4028666699" lon="11.1888388972">
		<tag k="alt_name" v="Myrer nordgarn" />
		<tag k="name" v="Nordgarden Myrer" />
		<tag k="place" v="farm" />
		<tag k="ssr:stedsnr" v="709811" />
	</node>
	<node id="-31551" lat="60.4471833357" lon="11.1839666712">
		<tag k="alt_name" v="Bjørndal nordre" />
		<tag k="name" v="Nordre Bjørndal" />
		<tag k="place" v="farm" />
		<tag k="ssr:stedsnr" v="709725" />
	</node>
	<node id="-31548" lat="60.4143805598" lon="11.2428305532">
		<tag k="name" v="Øverland" />
		<tag k="place" v="farm" />
		<tag k="ssr:stedsnr" v="709677" />
	</node>
	<node id="-31547" lat="60.2883999958" lon="11.1875333311">
		<tag k="name" v="Menserud" />
		<tag k="place" v="isolated_dwelling" />
		<tag k="ssr:stedsnr" v="709590" />
	</node>
	<node id="-31546" lat="60.2899833362" lon="11.2069611085">
		<tag k="name" v="Lerkelund" />
		<tag k="place" v="isolated_dwelling" />
		<tag k="ssr:stedsnr" v="709588" />
	</node>
	<node id="-31545" lat="60.2897250018" lon="11.2074500016">
		<tag k="name" v="Nedre Bøn" />
		<tag k="place" v="farm" />
		<tag k="ssr:stedsnr" v="709587" />
	</node>
	<node id="-31544" lat="60.4601388886" lon="11.1875666706">
		<tag k="name" v="Bekkedal" />
		<tag k="place" v="farm" />
		<tag k="ssr:stedsnr" v="709576" />
	</node>
	<node id="-31543" lat="60.4767500017" lon="11.159297217">
		<tag k="name" v="Token" />
		<tag k="place" v="farm" />
		<tag k="ssr:stedsnr" v="709572" />
	</node>
	<node id="-31542" lat="60.2916638878" lon="11.1616944365">
		<tag k="name" v="Sandhaugen" />
		<tag k="place" v="farm" />
		<tag k="ssr:stedsnr" v="709558" />
	</node>
	<node id="-31541" lat="60.2902055565" lon="11.1596611076">
		<tag k="name" v="Saga" />
		<tag k="place" v="isolated_dwelling" />
		<tag k="ssr:stedsnr" v="709552" />
	</node>
	<node id="-31539" lat="60.3251666634" lon="11.2058972294">
		<tag k="name" v="Vestvang" />
		<tag k="place" v="quarter" />
		<tag k="ssr:stedsnr" v="582514" />
	</node>
	<node id="-31538" lat="60.3785111083" lon="11.1259194521">
		<tag k="name" v="Krafttjernstua" />
		<tag k="place" v="farm" />
		<tag k="ssr:stedsnr" v="709079" />
	</node>
	<node id="-31537" lat="60.5497999993" lon="11.1641833315">
		<tag k="name" v="Vangen" />
		<tag k="place" v="farm" />
		<tag k="ssr:stedsnr" v="708939" />
	</node>
	<node id="-31536" lat="60.5245722654" lon="11.1868368762">
		<tag k="name" v="Torgunrud" />
		<tag k="place" v="farm" />
		<tag k="ssr:stedsnr" v="708035" />
	</node>
	<node id="-31534" lat="60.5175777804" lon="11.1792694454">
		<tag k="name" v="Lund" />
		<tag k="place" v="farm" />
		<tag k="ssr:stedsnr" v="708001" />
	</node>
	<node id="-31533" lat="60.4850194471" lon="11.2501805575">
		<tag k="name" v="Ulvinkoia" />
		<tag k="place" v="locality" />
		<tag k="ssr:stedsnr" v="707267" />
	</node>
	<node id="-31531" lat="60.3121305538" lon="11.1456638902">
		<tag k="building" v="commercial" />
		<tag k="name" v="Nebbenes" />
		<tag k="ssr:stedsnr" v="571662" />
	</node>
	<node id="-31530" lat="60.4985472179" lon="11.1588166739">
		<tag k="name" v="Flesvik" />
		<tag k="place" v="farm" />
		<tag k="ssr:stedsnr" v="543361" />
	</node>
	<node id="-31528" lat="60.4827500029" lon="11.2349916584">
		<tag k="name" v="Narviktangen" />
		<tag k="place" v="isolated_dwelling" />
		<tag k="ssr:stedsnr" v="543354" />
	</node>
	<node id="-31525" lat="60.3777388913" lon="11.2005611039">
		<tag k="alt_name" v="Julsrud søstun" />
		<tag k="name" v="Søstuen Julsrud" />
		<tag k="place" v="farm" />
		<tag k="ssr:stedsnr" v="540988" />
	</node>
	<node id="-31523" lat="60.3728055552" lon="11.2702305624">
		<tag k="alt_name" v="Habbarstad okgarn" />
		<tag k="name" v="Oppgarden Habbarstad" />
		<tag k="place" v="farm" />
		<tag k="ssr:stedsnr" v="540973" />
	</node>
	<node id="-31522" lat="60.3726000012" lon="11.2663694443">
		<tag k="alt_name" v="Habbarstad nestun" />
		<tag k="name" v="Nedstuen Habbarstad" />
		<tag k="place" v="farm" />
		<tag k="ssr:stedsnr" v="540971" />
	</node>
	<node id="-31520" lat="60.2541333299" lon="11.201186103">
		<tag k="amenity" v="school" />
		<tag k="name" v="Dal skole" />
		<tag k="ssr:stedsnr" v="540203" />
	</node>
	<node id="-31519" lat="60.4766833292" lon="11.1478277707">
		<tag k="name" v="Bjørke" />
		<tag k="place" v="farm" />
		<tag k="ssr:stedsnr" v="527569" />
	</node>
	<node id="-31516" lat="60.4646416671" lon="11.1222916707">
		<tag k="historic" v="shieling" />
		<tag k="name" v="Bjørkesetra" />
		<tag k="place" v="locality" />
		<tag k="ssr:stedsnr" v="527560" />
	</node>
	<node id="-31514" lat="60.2859777804" lon="11.1792305523">
		<tag k="name" v="Bønsmoen" />
		<tag k="place" v="farm" />
		<tag k="ssr:stedsnr" v="527552" />
	</node>
	<node id="-31512" lat="60.3526249966" lon="11.1852166724">
		<tag k="name" v="Skogbakken" />
		<tag k="place" v="farm" />
		<tag k="ssr:stedsnr" v="525205" />
	</node>
	<node id="-31511" lat="60.3662416676" lon="11.2668722306">
		<tag k="alt_name" v="Sander negarn" />
		<tag k="name" v="Nedgarden Sander" />
		<tag k="place" v="farm" />
		<tag k="ssr:stedsnr" v="525006" />
	</node>
	<node id="-31510" lat="60.5537972218" lon="11.173041659">
		<tag k="name" v="Øverbygda" />
		<tag k="place" v="hamlet" />
		<tag k="ssr:stedsnr" v="675501" />
	</node>
	<node id="-31509" lat="60.5582722215" lon="11.1557555538">
		<tag k="name" v="Fallet" />
		<tag k="place" v="farm" />
		<tag k="ssr:stedsnr" v="674377" />
	</node>
	<node id="-31507" lat="60.2984887028" lon="11.2007270611">
		<tag k="alt_name" v="Venjer;Venger" />
		<tag k="name" v="Venjar" />
		<tag k="place" v="hamlet" />
		<tag k="ssr:stedsnr" v="674152" />
	</node>
	<node id="-31506" lat="60.3093361081" lon="11.3010361178">
		<tag k="name" v="Enger" />
		<tag k="place" v="farm" />
		<tag k="ssr:stedsnr" v="674149" />
	</node>
	<node id="-31504" lat="60.3101872352" lon="11.1813213082">
		<tag k="fixme" v="consider place=hamlet" />
		<tag k="name" v="Jonsrud" />
		<tag k="place" v="farm" />
		<tag k="ssr:stedsnr" v="674139" />
	</node>
	<node id="-31503" lat="60.3077500004" lon="11.24535278">
		<tag k="fixme" v="consider place=hamlet" />
		<tag k="name" v="Sneisrud" />
		<tag k="place" v="farm" />
		<tag k="ssr:stedsnr" v="674134" />
	</node>
	<node id="-31501" lat="60.3788111068" lon="11.1696999938">
		<tag k="alt_name" v="Nyseter" />
		<tag k="historic" v="shieling" />
		<tag k="name" v="Nysetra" />
		<tag k="place" v="locality" />
		<tag k="ssr:stedsnr" v="674026" />
	</node>
	<node id="-31499" lat="60.4078888881" lon="11.2701777857">
		<tag k="name" v="Nabbvangen" />
		<tag k="place" v="farm" />
		<tag k="ssr:stedsnr" v="673493" />
	</node>
	<node id="-31497" lat="60.4168500008" lon="11.3488249948">
		<tag k="name" v="Lynesvangen" />
		<tag k="place" v="locality" />
		<tag k="ssr:stedsnr" v="673485" />
	</node>
	<node id="-31496" lat="60.446850002" lon="11.1837750071">
		<tag k="name" v="Bjørndal" />
		<tag k="place" v="farm" />
		<tag k="ssr:stedsnr" v="673471" />
	</node>
	<node id="-31493" lat="60.4618055513" lon="11.1828416608">
		<tag k="name" v="Bekkedal" />
		<tag k="place" v="farm" />
		<tag k="ssr:stedsnr" v="673444" />
	</node>
	<node id="-31491" lat="60.4795999964" lon="11.1444805585">
		<tag k="name" v="Bjørke" />
		<tag k="place" v="farm" />
		<tag k="ssr:stedsnr" v="673438" />
	</node>
	<node id="-31490" lat="60.4734525195" lon="11.16824415">
		<tag k="fixme" v="consider place=hamlet" />
		<tag k="name" v="Svenstad" />
		<tag k="place" v="farm" />
		<tag k="ssr:stedsnr" v="673437" />
	</node>
	<node id="-31487" lat="60.3268055588" lon="11.2984972187">
		<tag k="name" v="Staurdalen" />
		<tag k="place" v="farm" />
		<tag k="ssr:stedsnr" v="483403" />
	</node>
	<node id="-31486" lat="60.3331250023" lon="11.2128833405">
		<tag k="alt_name" v="Linlykkja" />
		<tag k="name" v="Linløkka" />
		<tag k="place" v="farm" />
		<tag k="ssr:stedsnr" v="673139" />
	</node>
	<node id="-31485" lat="60.3278472213" lon="11.1888138826">
		<tag k="alt_name" v="Boksrud;Boksrud søndre" />
		<tag k="name" v="Søndre Boksrud" />
		<tag k="place" v="farm" />
		<tag k="ssr:stedsnr" v="673135" />
	</node>
	<node id="-31483" lat="60.3456861104" lon="11.1673499964">
		<tag k="name" v="Saga" />
		<tag k="place" v="isolated_dwelling" />
		<tag k="ssr:stedsnr" v="673102" />
	</node>
	<node id="-31482" lat="60.3509388884" lon="11.192163896">
		<tag k="alt_name" v="Slåttbråten" />
		<tag k="name" v="Slåttbråtan" />
		<tag k="place" v="farm" />
		<tag k="ssr:stedsnr" v="673098" />
	</node>
	<node id="-31479" lat="60.3969390494" lon="11.2571759937">
		<tag k="fixme" v="consider place=hamlet" />
		<tag k="name" v="Røysi" />
		<tag k="place" v="farm" />
		<tag k="ssr:stedsnr" v="673029" />
	</node>
	<node id="-31478" lat="60.3890305563" lon="11.2618750035">
		<tag k="fixme" v="consider place=hamlet" />
		<tag k="name" v="Fremmin" />
		<tag k="place" v="farm" />
		<tag k="ssr:stedsnr" v="673027" />
	</node>
	<node id="-31477" lat="60.3882500044" lon="11.3617777829">
		<tag k="alt_name" v="Glabakk" />
		<tag k="name" v="Gladbakk" />
		<tag k="place" v="isolated_dwelling" />
		<tag k="ssr:stedsnr" v="673022" />
	</node>
	<node id="-31476" lat="60.503997221" lon="11.162711117">
		<tag k="name" v="Pina" />
		<tag k="place" v="farm" />
		<tag k="ssr:stedsnr" v="482311" />
	</node>
	<node id="-31475" lat="60.3938796047" lon="11.2207275372">
		<tag k="name" v="Minnesund" />
		<tag k="place" v="village" />
		<tag k="ssr:stedsnr" v="673013" />
	</node>
	<node id="-31472" lat="60.3792861094" lon="11.3302111043">
		<tag k="name" v="Golidalen" />
		<tag k="place" v="isolated_dwelling" />
		<tag k="ssr:stedsnr" v="480779" />
	</node>
	<node id="-31470" lat="60.2299249987" lon="11.2280611042">
		<tag k="name" v="Sætre" />
		<tag k="place" v="farm" />
		<tag k="ssr:stedsnr" v="480153" />
	</node>
	<node id="-31469" lat="60.2685277818" lon="11.120858326">
		<tag k="name" v="Bottenlykkja" />
		<tag k="place" v="locality" />
		<tag k="ssr:stedsnr" v="479764" />
	</node>
	<node id="-31468" lat="60.2606000028" lon="11.1843749945">
		<tag k="name" v="Ladderud" />
		<tag k="place" v="farm" />
		<tag k="ssr:stedsnr" v="479759" />
	</node>
	<node id="-31464" lat="60.2976222253" lon="11.1536361034">
		<tag k="name" v="Rolighet" />
		<tag k="place" v="farm" />
		<tag k="ssr:stedsnr" v="466563" />
	</node>
	<node id="-31463" lat="60.3334250014" lon="11.2671111069">
		<tag k="amenity" v="nursing_home" />
		<tag k="name" v="Vilberg helsetun" />
		<tag k="ssr:stedsnr" v="667653" />
	</node>
	<node id="-31460" lat="60.5148361139" lon="11.1746027834">
		<tag k="name" v="Valdres" />
		<tag k="place" v="farm" />
		<tag k="ssr:stedsnr" v="465009" />
	</node>
	<node id="-31459" lat="60.3606388921" lon="11.2677861048">
		<tag k="alt_name" v="Hol okgarn" />
		<tag k="name" v="Oppgarden Hol" />
		<tag k="place" v="farm" />
		<tag k="ssr:stedsnr" v="465003" />
	</node>
	<node id="-31458" lat="60.2687111153" lon="11.2087305485">
		<tag k="name" v="Varud" />
		<tag k="place" v="farm" />
		<tag k="ssr:stedsnr" v="665975" />
	</node>
	<node id="-31454" lat="60.3300444414" lon="11.3204666641">
		<tag k="building" v="industrial" />
		<tag k="industrial" v="factory" />
		<tag k="name" v="Jønsjø sag" />
		<tag k="ssr:stedsnr" v="665435" />
	</node>
	<node id="-31452" lat="60.4954083323" lon="11.1021999952">
		<tag k="historic" v="shieling" />
		<tag k="name" v="Almeliseter" />
		<tag k="place" v="locality" />
		<tag k="ssr:stedsnr" v="664385" />
	</node>
	<node id="-31451" lat="60.4727166697" lon="11.288033332">
		<tag k="historic" v="shieling" />
		<tag k="name" v="Skrårudsetra" />
		<tag k="place" v="locality" />
		<tag k="ssr:stedsnr" v="664379" />
	</node>
	<node id="-31450" lat="60.4627555542" lon="11.2748000051">
		<tag k="name" v="Bjørkhaug" />
		<tag k="place" v="farm" />
		<tag k="ssr:stedsnr" v="664366" />
	</node>
	<node id="-31449" lat="60.3227138856" lon="11.2455777803">
		<tag k="leisure" v="park" />
		<tag k="name" v="Wergelandslunden" />
		<tag k="ssr:stedsnr" v="664474" />
	</node>
	<node id="-31445" lat="60.3287944459" lon="11.1488972248">
		<tag k="name" v="Venjarhytta" />
		<tag k="place" v="isolated_dwelling" />
		<tag k="ssr:stedsnr" v="663896" />
	</node>
	<node id="-31442" lat="60.3764861143" lon="11.2191805612">
		<tag k="name" v="Haugen" />
		<tag k="place" v="farm" />
		<tag k="ssr:stedsnr" v="662987" />
	</node>
	<node id="-31440" lat="60.3845111121" lon="11.2726944408">
		<tag k="alt_name" v="Pålstun;Paulstuen" />
		<tag k="name" v="Pålstuen" />
		<tag k="place" v="farm" />
		<tag k="ssr:stedsnr" v="662973" />
	</node>
	<node id="-31438" lat="60.2838833295" lon="11.1793249943">
		<tag k="amenity" v="school" />
		<tag k="name" v="Bønsmoen skole" />
		<tag k="old_name" v="Råholt ungdomsskole" />
		<tag k="ssr:stedsnr" v="661780" />
	</node>
	<node id="-31436" lat="60.2801499993" lon="11.173052773">
		<tag k="name" v="Haugen" />
		<tag k="place" v="quarter" />
		<tag k="ssr:stedsnr" v="661778" />
	</node>
	<node id="-31427" lat="60.4882916703" lon="11.1363444474">
		<tag k="name" v="Brosshaug" />
		<tag k="place" v="farm" />
		<tag k="ssr:stedsnr" v="431416" />
	</node>
	<node id="-31426" lat="60.2821194444" lon="11.3359916626">
		<tag k="name" v="Sanderud" />
		<tag k="place" v="farm" />
		<tag k="ssr:stedsnr" v="431206" />
	</node>
	<node id="-31425" lat="60.2819083332" lon="11.1510833381">
		<tag k="name" v="Tyskerud" />
		<tag k="place" v="farm" />
		<tag k="ssr:stedsnr" v="431203" />
	</node>
	<node id="-31424" lat="60.35320833" lon="11.3627111027">
		<tag k="name" v="Nordli" />
		<tag k="place" v="farm" />
		<tag k="ssr:stedsnr" v="431109" />
	</node>
	<node id="-31423" lat="60.3528961187" lon="11.2833851466">
		<tag k="fixme" v="consider place=hamlet" />
		<tag k="name" v="Hemli" />
		<tag k="place" v="farm" />
		<tag k="ssr:stedsnr" v="431105" />
	</node>
	<node id="-31422" lat="60.3854611124" lon="11.258525005">
		<tag k="name" v="Lynesdalen" />
		<tag k="place" v="farm" />
		<tag k="ssr:stedsnr" v="431045" />
	</node>
	<node id="-31421" lat="60.3728999978" lon="11.1905666695">
		<tag k="alt_name" v="Askheim" />
		<tag k="fixme" v="consider place=hamlet" />
		<tag k="name" v="Askjum" />
		<tag k="old_name" v="Askim" />
		<tag k="place" v="farm" />
		<tag k="ssr:stedsnr" v="431039" />
	</node>
	<node id="-31419" lat="60.3937083367" lon="11.372611119">
		<tag k="historic" v="shieling" />
		<tag k="name" v="Tutlidalen" />
		<tag k="place" v="locality" />
		<tag k="ssr:stedsnr" v="431023" />
	</node>
	<node id="-31418" lat="60.2995135453" lon="11.2003991556">
		<tag k="alt_name" v="Arstun Venjar" />
		<tag k="name" v="Arstuen Venjar" />
		<tag k="place" v="farm" />
		<tag k="ssr:stedsnr" v="423721" />
	</node>
	<node id="-31417" lat="60.3011888873" lon="11.1926416749">
		<tag k="name" v="Voll" />
		<tag k="place" v="isolated_dwelling" />
		<tag k="ssr:stedsnr" v="423719" />
	</node>
	<node id="-31415" lat="60.4785305562" lon="11.1695694424">
		<tag k="fixme" v="consider natural=beach + surface=sand" />
		<tag k="leisure" v="swimming_area" />
		<tag k="loc_name" v="Årnesstrand" />
		<tag k="name" v="Årnesstranda" />
		<tag k="place" v="locality" />
		<tag k="ssr:stedsnr" v="422333" />
	</node>
	<node id="-31414" lat="60.3293166649" lon="11.2892555513">
		<tag k="name" v="Elstadenga" />
		<tag k="place" v="farm" />
		<tag k="ssr:stedsnr" v="419302" />
	</node>
	<node id="-31413" lat="60.3154361114" lon="11.1463722261">
		<tag k="building" v="commercial" />
		<tag k="name" v="Nebbenes" />
		<tag k="ssr:stedsnr" v="509820" />
	</node>
	<node id="-31411" lat="60.4012444451" lon="11.1984805607">
		<tag k="alt_name" v="Tansum nordre" />
		<tag k="name" v="Nordre Tansum" />
		<tag k="place" v="farm" />
		<tag k="ssr:stedsnr" v="406815" />
	</node>
	<node id="-31408" lat="60.3135500002" lon="11.220141665">
		<tag k="alt_name" v="Amundstun" />
		<tag k="name" v="Amundsstuen" />
		<tag k="place" v="farm" />
		<tag k="ssr:stedsnr" v="405311" />
	</node>
	<node id="-31407" lat="60.3674888884" lon="11.2092638919">
		<tag k="alt_name" v="Tømte søgarn" />
		<tag k="name" v="Søgarden Tømte" />
		<tag k="place" v="farm" />
		<tag k="ssr:stedsnr" v="404059" />
	</node>
	<node id="-31405" lat="60.3670388904" lon="11.2569861113">
		<tag k="alt_name" v="Rønsen søgarn" />
		<tag k="name" v="Søgarden Rønsen" />
		<tag k="place" v="farm" />
		<tag k="ssr:stedsnr" v="404003" />
	</node>
	<node id="-31403" lat="60.2866388896" lon="11.1259944518">
		<tag k="name" v="Sundet" />
		<tag k="place" v="farm" />
		<tag k="ssr:stedsnr" v="505995" />
	</node>
	<node id="-31402" lat="60.3309611153" lon="11.3059249947">
		<tag k="name" v="Brennlia" />
		<tag k="place" v="farm" />
		<tag k="ssr:stedsnr" v="505993" />
	</node>
	<node id="-31398" lat="60.3741916692" lon="11.203694437">
		<tag k="alt_name" v="Julsrud nystun" />
		<tag k="name" v="Nystuen Julsrud" />
		<tag k="place" v="farm" />
		<tag k="ssr:stedsnr" v="298990" />
	</node>
	<node id="-31397" lat="60.3735555514" lon="11.2182361076">
		<tag k="name" v="Flaen" />
		<tag k="place" v="farm" />
		<tag k="ssr:stedsnr" v="298986" />
	</node>
	<node id="-31396" lat="60.376438891" lon="11.2381166649">
		<tag k="alt_name" v="Seterdal" />
		<tag k="name" v="Sæterdal" />
		<tag k="place" v="farm" />
		<tag k="ssr:stedsnr" v="298979" />
	</node>
	<node id="-31395" lat="60.5485866788" lon="11.1905283806">
		<tag k="fixme" v="consider place=hamlet" />
		<tag k="name" v="Langgard" />
		<tag k="place" v="farm" />
		<tag k="ssr:stedsnr" v="371453" />
	</node>
	<node id="-31393" lat="60.3180611082" lon="11.1892083268">
		<tag k="amenity" v="kindergarten" />
		<tag k="name" v="Brennsmork barnehage" />
		<tag k="ssr:stedsnr" v="363707" />
	</node>
	<node id="-31392" lat="60.2658888911" lon="11.1866972312">
		<tag k="amenity" v="kindergarten" />
		<tag k="name" v="Råholtbråtan barnehage" />
		<tag k="ssr:stedsnr" v="363704" />
	</node>
	<node id="-31391" lat="60.2726777796" lon="11.3180638892">
		<tag k="alt_name" v="Frilset østgarn" />
		<tag k="name" v="Østgarden Frilset" />
		<tag k="place" v="farm" />
		<tag k="ssr:stedsnr" v="362975" />
	</node>
	<node id="-31390" lat="60.2773333362" lon="11.2558472239">
		<tag k="name" v="Bergheim" />
		<tag k="place" v="isolated_dwelling" />
		<tag k="ssr:stedsnr" v="362970" />
	</node>
	<node id="-31389" lat="60.2988027822" lon="11.2033222284">
		<tag k="alt_name" v="Venjar østgarn" />
		<tag k="name" v="Østgarden Venjar" />
		<tag k="place" v="farm" />
		<tag k="ssr:stedsnr" v="362716" />
	</node>
	<node id="-31388" lat="60.3361305568" lon="11.2611388855">
		<tag k="leisure" v="pitch" />
		<tag k="name" v="Eidsvollhallen" />
		<tag k="ssr:stedsnr" v="362421" />
	</node>
	<node id="-31387" lat="60.3302805528" lon="11.2443388808">
		<tag k="name" v="Holstangen" />
		<tag k="place" v="hamlet" />
		<tag k="ssr:stedsnr" v="362412" />
	</node>
	<node id="-31386" lat="60.4793472217" lon="11.1636194526">
		<tag k="name" v="Årnes" />
		<tag k="place" v="farm" />
		<tag k="ssr:stedsnr" v="361423" />
	</node>
	<node id="-31385" lat="60.4923972239" lon="11.1312972203">
		<tag k="name" v="Nordgard" />
		<tag k="place" v="farm" />
		<tag k="ssr:stedsnr" v="361416" />
	</node>
	<node id="-31384" lat="60.3254694418" lon="11.2852361173">
		<tag k="alt_name" v="Grue søgarn" />
		<tag k="name" v="Søgarden Grue" />
		<tag k="place" v="farm" />
		<tag k="ssr:stedsnr" v="361528" />
	</node>
	<node id="-31382" lat="60.5067333357" lon="11.1646416755">
		<tag k="name" v="Olsrud" />
		<tag k="place" v="farm" />
		<tag k="ssr:stedsnr" v="361357" />
	</node>
	<node id="-31381" lat="60.3470277761" lon="11.2275472243">
		<tag k="alt_name" v="Smedstad østgarn" />
		<tag k="name" v="Østgarden Smedstad" />
		<tag k="place" v="farm" />
		<tag k="ssr:stedsnr" v="360923" />
	</node>
	<node id="-31380" lat="60.3435583308" lon="11.2378388818">
		<tag k="fixme" v="multiple name tags, choose one and add the other to alt_name" />
		<tag k="name" v="Kommisrud;Søstuen Kommisrud" />
		<tag k="place" v="farm" />
		<tag k="ssr:stedsnr" v="360921" />
	</node>
	<node id="-31378" lat="60.3398388878" lon="11.1914833363">
		<tag k="name" v="Bakken" />
		<tag k="place" v="farm" />
		<tag k="ssr:stedsnr" v="360903" />
	</node>
	<node id="-31377" lat="60.3734722234" lon="11.2715999912">
		<tag k="alt_name" v="Habbarstad østgarn" />
		<tag k="name" v="Østgarden Habbarstad" />
		<tag k="place" v="farm" />
		<tag k="ssr:stedsnr" v="298966" />
	</node>
	<node id="-31376" lat="60.5388195368" lon="11.1871719537">
		<tag k="fixme" v="consider place=hamlet" />
		<tag k="name" v="Sandvika" />
		<tag k="place" v="farm" />
		<tag k="ssr:stedsnr" v="492449" />
	</node>
	<node id="-31375" lat="60.5486777743" lon="11.1809750033">
		<tag k="name" v="Stubberud" />
		<tag k="place" v="farm" />
		<tag k="ssr:stedsnr" v="492445" />
	</node>
	<node id="-31374" lat="60.3712444448" lon="11.2748555509">
		<tag k="alt_name" v="Habbarstad vestgarn" />
		<tag k="name" v="Vestgarden Habbarstad" />
		<tag k="place" v="farm" />
		<tag k="ssr:stedsnr" v="358975" />
	</node>
	<node id="-31373" lat="60.3809694423" lon="11.2766027854">
		<tag k="alt_name" v="Ljødalstun" />
		<tag k="name" v="Ljødalstuen" />
		<tag k="place" v="farm" />
		<tag k="ssr:stedsnr" v="358970" />
	</node>
	<node id="-31372" lat="60.5660166708" lon="11.1625250033">
		<tag k="name" v="Norddalen" />
		<tag k="place" v="farm" />
		<tag k="ssr:stedsnr" v="492374" />
	</node>
	<node id="-31371" lat="60.2675249982" lon="11.3234222239">
		<tag k="name" v="Tune" />
		<tag k="place" v="farm" />
		<tag k="ssr:stedsnr" v="492165" />
	</node>
	<node id="-31370" lat="60.2707222202" lon="11.1262805626">
		<tag k="name" v="Gata" />
		<tag k="place" v="isolated_dwelling" />
		<tag k="ssr:stedsnr" v="492158" />
	</node>
	<node id="-31369" lat="60.2794427093" lon="11.2080609775">
		<tag k="fixme" v="consider place=hamlet" />
		<tag k="name" v="Hjera" />
		<tag k="place" v="farm" />
		<tag k="ssr:stedsnr" v="492151" />
	</node>
	<node id="-31368" lat="60.3738916639" lon="11.2754944406">
		<tag k="name" v="Sameiløkka" />
		<tag k="place" v="farm" />
		<tag k="ssr:stedsnr" v="492048" />
	</node>
	<node id="-31366" lat="60.4094555533" lon="11.2439749932">
		<tag k="name" v="Langset" />
		<tag k="place" v="farm" />
		<tag k="ssr:stedsnr" v="491498" />
	</node>
	<node id="-31365" lat="60.4129638858" lon="11.2442777775">
		<tag k="name" v="Langsetenga" />
		<tag k="place" v="farm" />
		<tag k="ssr:stedsnr" v="491496" />
	</node>
	<node id="-31364" lat="60.4469833353" lon="11.1943611041">
		<tag k="alt_name" v="Tosterud, søndre" />
		<tag k="loc_name" v="Sør-Tosterud" />
		<tag k="name" v="Søndre Tosterud" />
		<tag k="place" v="farm" />
		<tag k="ssr:stedsnr" v="491478" />
	</node>
	<node id="-31363" lat="60.4564166706" lon="11.1514000041">
		<tag k="alt_name" v="Haugsetra" />
		<tag k="historic" v="shieling" />
		<tag k="name" v="Haug seter" />
		<tag k="place" v="locality" />
		<tag k="ssr:stedsnr" v="491436" />
	</node>
	<node id="-31362" lat="60.292544443" lon="11.1967111121">
		<tag k="alt_name" v="Nygard" />
		<tag k="name" v="Nygård" />
		<tag k="place" v="quarter" />
		<tag k="ssr:stedsnr" v="491175" />
	</node>
	<node id="-31360" lat="60.314538892" lon="11.1881138918">
		<tag k="name" v="Nes" />
		<tag k="place" v="farm" />
		<tag k="ssr:stedsnr" v="491146" />
	</node>
	<node id="-31358" lat="60.3343112799" lon="11.2406978221">
		<tag k="alt_name" v="Båtshaug" />
		<tag k="fixme" v="consider place=hamlet" />
		<tag k="name" v="Botshaug" />
		<tag k="place" v="farm" />
		<tag k="ssr:stedsnr" v="491129" />
	</node>
	<node id="-31357" lat="60.3539972208" lon="11.4099722213">
		<tag k="name" v="Invidia" />
		<tag k="place" v="isolated_dwelling" />
		<tag k="ssr:stedsnr" v="491095" />
	</node>
	<node id="-31355" lat="60.4018824968" lon="11.1886503422">
		<tag k="fixme" v="consider place=hamlet" />
		<tag k="name" v="Myrer" />
		<tag k="place" v="farm" />
		<tag k="ssr:stedsnr" v="491016" />
	</node>
	<node id="-31353" lat="60.3020527752" lon="11.1557027777">
		<tag k="name" v="Abrahams" />
		<tag k="place" v="farm" />
		<tag k="ssr:stedsnr" v="345555" />
	</node>
	<node id="-31352" lat="60.4034138876" lon="11.2401694534">
		<tag k="amenity" v="school" />
		<tag k="name" v="Langset skole" />
		<tag k="ssr:stedsnr" v="345821" />
	</node>
	<node id="-31351" lat="60.408194442" lon="11.1980055512">
		<tag k="alt_name" v="Trandum søstun" />
		<tag k="name" v="Søstuen Trandum" />
		<tag k="place" v="farm" />
		<tag k="ssr:stedsnr" v="345819" />
	</node>
	<node id="-31350" lat="60.398448725" lon="11.2564096146">
		<tag k="alt_name" v="Røysi okgarn" />
		<tag k="name" v="Oppgarden Røysi" />
		<tag k="place" v="farm" />
		<tag k="ssr:stedsnr" v="345809" />
	</node>
	<node id="-31348" lat="60.3941361147" lon="11.214375006">
		<tag k="name" v="Sanderud" />
		<tag k="place" v="quarter" />
		<tag k="ssr:stedsnr" v="345805" />
	</node>
	<node id="-31347" lat="60.415341663" lon="11.2699055485">
		<tag k="name" v="Flaen" />
		<tag k="place" v="farm" />
		<tag k="ssr:stedsnr" v="345673" />
	</node>
	<node id="-31346" lat="60.4713499993" lon="11.17149167">
		<tag k="name" v="Haugen" />
		<tag k="place" v="farm" />
		<tag k="ssr:stedsnr" v="345514" />
	</node>
	<node id="-31344" lat="60.3226055546" lon="11.2135305587">
		<tag k="name" v="Bjørkehagan" />
		<tag k="place" v="farm" />
		<tag k="ssr:stedsnr" v="344305" />
	</node>
	<node id="-31343" lat="60.3078611147" lon="11.2122416756">
		<tag k="alt_name" v="Dønnum nordgarn" />
		<tag k="name" v="Nordgarden Dønnum" />
		<tag k="place" v="farm" />
		<tag k="ssr:stedsnr" v="344302" />
	</node>
	<node id="-31342" lat="60.2944805578" lon="11.1602166578">
		<tag k="amenity" v="nursing_home" />
		<tag k="name" v="Fagerhøy avlasting" />
		<tag k="ssr:stedsnr" v="485643" />
	</node>
	<node id="-31341" lat="60.2983027803" lon="11.2379638976">
		<tag k="alt_name" v="Finstad vesle" />
		<tag k="name" v="Vesle Finstad" />
		<tag k="place" v="farm" />
		<tag k="ssr:stedsnr" v="483719" />
	</node>
	<node id="-31340" lat="60.3162944478" lon="11.1632138924">
		<tag k="name" v="Holm" />
		<tag k="place" v="farm" />
		<tag k="ssr:stedsnr" v="483789" />
	</node>
	<node id="-31339" lat="60.3065027751" lon="11.175836105">
		<tag k="name" v="Haugers" />
		<tag k="place" v="locality" />
		<tag k="ssr:stedsnr" v="483783" />
	</node>
	<node id="-31338" lat="60.3275303898" lon="11.2983825895">
		<tag k="name" v="Gruebråtan" />
		<tag k="place" v="farm" />
		<tag k="ssr:stedsnr" v="483438" />
	</node>
	<node id="-31336" lat="60.4883111149" lon="11.1513805529">
		<tag k="name" v="Borgen" />
		<tag k="place" v="farm" />
		<tag k="ssr:stedsnr" v="482383" />
	</node>
	<node id="-31335" lat="60.4838500035" lon="11.150613893">
		<tag k="name" v="Holen" />
		<tag k="place" v="farm" />
		<tag k="ssr:stedsnr" v="482380" />
	</node>
	<node id="-31333" lat="60.3252611114" lon="11.2516555609">
		<tag k="alt_name" v="Prestebakken" />
		<tag k="name" v="Prestbakken" />
		<tag k="place" v="farm" />
		<tag k="ssr:stedsnr" v="482489" />
	</node>
	<node id="-31332" lat="60.3295583336" lon="11.2022249983">
		<tag k="name" v="Kroksrud" />
		<tag k="place" v="farm" />
		<tag k="ssr:stedsnr" v="481917" />
	</node>
	<node id="-31331" lat="60.3279388883" lon="11.2060638908">
		<tag k="name" v="Garmo" />
		<tag k="place" v="farm" />
		<tag k="ssr:stedsnr" v="481913" />
	</node>
	<node id="-31330" lat="60.3427027811" lon="11.2041805546">
		<tag k="alt_name" v="Nordgarn Ås" />
		<tag k="name" v="Nordgarden Ås" />
		<tag k="place" v="farm" />
		<tag k="ssr:stedsnr" v="481902" />
	</node>
	<node id="-31329" lat="60.339302781" lon="11.1902333262">
		<tag k="name" v="Beinerud" />
		<tag k="place" v="locality" />
		<tag k="ssr:stedsnr" v="481900" />
	</node>
	<node id="-31328" lat="60.3898083355" lon="11.2012472269">
		<tag k="name" v="Stenshol" />
		<tag k="place" v="quarter" />
		<tag k="ssr:stedsnr" v="480988" />
	</node>
	<node id="-31317" lat="60.4049916648" lon="11.2397527853">
		<tag k="leisure" v="pitch" />
		<tag k="name" v="Minnesund idrettspark" />
		<tag k="ssr:stedsnr" v="303703" />
	</node>
	<node id="-31316" lat="60.3377027808" lon="11.2616999938">
		<tag k="leisure" v="pitch" />
		<tag k="name" v="Eidsvoll tennisbane" />
		<tag k="ssr:stedsnr" v="303702" />
	</node>
	<node id="-31315" lat="60.3173083333" lon="11.1715749927">
		<tag k="name" v="Byrildrud" />
		<tag k="place" v="locality" />
		<tag k="ssr:stedsnr" v="301754" />
	</node>
	<node id="-31314" lat="60.3040666678" lon="11.3039250089">
		<tag k="alt_name" v="Jøndal søgarn" />
		<tag k="name" v="Søgarden Jøndal" />
		<tag k="place" v="farm" />
		<tag k="ssr:stedsnr" v="301710" />
	</node>
	<node id="-31313" lat="60.295391669" lon="11.2342916643">
		<tag k="name" v="Nordli" />
		<tag k="place" v="farm" />
		<tag k="ssr:stedsnr" v="301677" />
	</node>
	<node id="-31312" lat="60.3351972258" lon="11.2883805481">
		<tag k="alt_name" v="Elstad Nordstun" />
		<tag k="name" v="Nordstuen Elstad" />
		<tag k="place" v="farm" />
		<tag k="ssr:stedsnr" v="301403" />
	</node>
	<node id="-31311" lat="60.3331555534" lon="11.2062166695">
		<tag k="alt_name" v="Ås melgarn" />
		<tag k="name" v="Melgarden Ås" />
		<tag k="place" v="farm" />
		<tag k="ssr:stedsnr" v="300922" />
	</node>
	<node id="-31308" lat="60.3923577143" lon="11.1917383565">
		<tag k="name" v="Smedstadflaen" />
		<tag k="place" v="farm" />
		<tag k="ssr:stedsnr" v="466835" />
	</node>
	<node id="-31307" lat="60.4264472228" lon="11.2464416712">
		<tag k="alt_name" v="Ørbekk nordstun" />
		<tag k="name" v="Nordstuen Ørbekk" />
		<tag k="place" v="farm" />
		<tag k="ssr:stedsnr" v="466747" />
	</node>
	<node id="-31306" lat="60.4246583292" lon="11.2501527698">
		<tag k="name" v="Bakkelykkja" />
		<tag k="place" v="farm" />
		<tag k="ssr:stedsnr" v="466744" />
	</node>
	<node id="-31304" lat="60.3080027788" lon="11.2445305479">
		<tag k="alt_name" v="Sneisrud Jacobsstun" />
		<tag k="name" v="Jacobsstuen Sneisrud" />
		<tag k="place" v="farm" />
		<tag k="ssr:stedsnr" v="466344" />
	</node>
	<node id="-31302" lat="60.3251861154" lon="11.2322333298">
		<tag k="name" v="Marienlyst" />
		<tag k="place" v="farm" />
		<tag k="ssr:stedsnr" v="466337" />
	</node>
	<node id="-31300" lat="60.5585944446" lon="11.1817194531">
		<tag k="alt_name" v="Berger søndre" />
		<tag k="name" v="Søndre Berger" />
		<tag k="place" v="farm" />
		<tag k="ssr:stedsnr" v="465948" />
	</node>
	<node id="-31297" lat="60.3464194412" lon="11.3667638922">
		<tag k="historic" v="shieling" />
		<tag k="name" v="Søbråtan" />
		<tag k="place" v="locality" />
		<tag k="ssr:stedsnr" v="465238" />
	</node>
	<node id="-31295" lat="60.3617249983" lon="11.195491673">
		<tag k="alt_name" v="Oppsalenga nordre" />
		<tag k="name" v="Nordre Oppsalenga" />
		<tag k="place" v="farm" />
		<tag k="ssr:stedsnr" v="465048" />
	</node>
	<node id="-31294" lat="60.5278333357" lon="11.1838416608">
		<tag k="fixme" v="multiple name tags, choose one and add the other to alt_name" />
		<tag k="name" v="Toberud;Torgunrud" />
		<tag k="place" v="farm" />
		<tag k="ssr:stedsnr" v="465021" />
	</node>
	<node id="-31293" lat="60.5155861087" lon="11.1764194406">
		<tag k="name" v="Rundholt" />
		<tag k="place" v="farm" />
		<tag k="ssr:stedsnr" v="465011" />
	</node>
	<node id="-31292" lat="60.3927500027" lon="11.3648972221">
		<tag k="historic" v="shieling" />
		<tag k="name" v="Lesjabråtan" />
		<tag k="place" v="locality" />
		<tag k="ssr:stedsnr" v="285865" />
	</node>
	<node id="-31291" lat="60.4153305528" lon="11.1381305587">
		<tag k="name" v="Byrudhytta" />
		<tag k="place" v="isolated_dwelling" />
		<tag k="ssr:stedsnr" v="285859" />
	</node>
	<node id="-31290" lat="60.3983110891" lon="11.25680385">
		<tag k="name" v="Langsethaugen" />
		<tag k="place" v="locality" />
		<tag k="ssr:stedsnr" v="285851" />
	</node>
	<node id="-31288" lat="60.4059722182" lon="11.1802416621">
		<tag k="name" v="Myrerstua" />
		<tag k="place" v="isolated_dwelling" />
		<tag k="ssr:stedsnr" v="285835" />
	</node>
	<node id="-31287" lat="60.4047611143" lon="11.1861361078">
		<tag k="name" v="Myrer" />
		<tag k="place" v="farm" />
		<tag k="ssr:stedsnr" v="285816" />
	</node>
	<node id="-31286" lat="60.4006250022" lon="11.1984583387">
		<tag k="alt_name" v="Tansum midtre" />
		<tag k="name" v="Midtre Tansum" />
		<tag k="place" v="farm" />
		<tag k="ssr:stedsnr" v="285815" />
	</node>
	<node id="-31285" lat="60.3693527735" lon="11.2802722289">
		<tag k="name" v="Perslia" />
		<tag k="place" v="farm" />
		<tag k="ssr:stedsnr" v="283010" />
	</node>
	<node id="-31284" lat="60.4039111119" lon="11.2405305607">
		<tag k="amenity" v="sports_centre" />
		<tag k="name" v="Minnesundhallen" />
		<tag k="ssr:stedsnr" v="242674" />
	</node>
	<node id="-31283" lat="60.4776416695" lon="11.1657250064">
		<tag k="amenity" v="sports_centre" />
		<tag k="name" v="Feiring bad" />
		<tag k="ssr:stedsnr" v="242669" />
	</node>
	<node id="-31282" lat="60.2908694416" lon="11.1613166588">
		<tag k="amenity" v="nursing_home" />
		<tag k="name" v="Valstad sykehjem" />
		<tag k="ssr:stedsnr" v="242658" />
	</node>
	<node id="-31281" lat="60.2903916651" lon="11.2035888908">
		<tag k="amenity" v="nursing_home" />
		<tag k="name" v="Bøn sykehjem" />
		<tag k="ssr:stedsnr" v="242655" />
	</node>
	<node id="-31280" lat="60.332536108" lon="11.25864445">
		<tag k="amenity" v="kindergarten" />
		<tag k="name" v="Vilberg barnehage" />
		<tag k="ssr:stedsnr" v="242707" />
	</node>
	<node id="-31279" lat="60.2775055548" lon="11.1923944449">
		<tag k="name" v="Svenskerud" />
		<tag k="place" v="farm" />
		<tag k="ssr:stedsnr" v="241959" />
	</node>
	<node id="-31278" lat="60.2892194419" lon="11.2825583335">
		<tag k="name" v="Lindset" />
		<tag k="place" v="farm" />
		<tag k="ssr:stedsnr" v="241666" />
	</node>
	<node id="-31277" lat="60.2864833374" lon="11.2412083351">
		<tag k="amenity" v="school" />
		<tag k="name" v="Finstad skole" />
		<tag k="ssr:stedsnr" v="241660" />
	</node>
	<node id="-31275" lat="60.3367888872" lon="11.330694444">
		<tag k="name" v="Åbakken" />
		<tag k="place" v="farm" />
		<tag k="ssr:stedsnr" v="241368" />
	</node>
	<node id="-31274" lat="60.3374527742" lon="11.2852944413">
		<tag k="name" v="Enerud" />
		<tag k="place" v="farm" />
		<tag k="ssr:stedsnr" v="241357" />
	</node>
	<node id="-31271" lat="60.3427999993" lon="11.35923611">
		<tag k="historic" v="shieling" />
		<tag k="name" v="Gråbakkvangen" />
		<tag k="place" v="locality" />
		<tag k="ssr:stedsnr" v="444995" />
	</node>
	<node id="-31270" lat="60.3425861066" lon="11.3590916722">
		<tag k="historic" v="shieling" />
		<tag k="name" v="Gråbakkvangen" />
		<tag k="place" v="locality" />
		<tag k="ssr:stedsnr" v="444993" />
	</node>
	<node id="-31266" lat="60.2891305535" lon="11.2188111101">
		<tag k="name" v="Løken" />
		<tag k="place" v="farm" />
		<tag k="ssr:stedsnr" v="224561" />
	</node>
	<node id="-31256" lat="60.447200004" lon="11.1922222203">
		<tag k="name" v="Pynten" />
		<tag k="place" v="farm" />
		<tag k="ssr:stedsnr" v="285715" />
	</node>
	<node id="-31255" lat="60.4444527777" lon="11.1838944442">
		<tag k="name" v="Nordre Bålsrud" />
		<tag k="place" v="farm" />
		<tag k="ssr:stedsnr" v="285714" />
	</node>
	<node id="-31254" lat="60.4435833321" lon="11.1848722148">
		<tag k="name" v="Melgård" />
		<tag k="place" v="farm" />
		<tag k="ssr:stedsnr" v="285713" />
	</node>
	<node id="-31253" lat="60.4267944453" lon="11.3225277854">
		<tag k="name" v="Fremminvangen" />
		<tag k="place" v="locality" />
		<tag k="ssr:stedsnr" v="285704" />
	</node>
	<node id="-31252" lat="60.303738888" lon="11.1597055549">
		<tag k="name" v="Håkens" />
		<tag k="place" v="farm" />
		<tag k="ssr:stedsnr" v="285580" />
	</node>
	<node id="-31251" lat="60.3029055598" lon="11.1662749978">
		<tag k="name" v="Bokkens" />
		<tag k="place" v="farm" />
		<tag k="ssr:stedsnr" v="285579" />
	</node>
	<node id="-31249" lat="60.4381333317" lon="11.302125007">
		<tag k="name" v="Stutmyrkoia" />
		<tag k="place" v="isolated_dwelling" />
		<tag k="ssr:stedsnr" v="285541" />
	</node>
	<node id="-31248" lat="60.2687361151" lon="11.2931749952">
		<tag k="name" v="Døli" />
		<tag k="place" v="farm" />
		<tag k="ssr:stedsnr" v="180964" />
	</node>
	<node id="-31247" lat="60.3030888871" lon="11.2144527839">
		<tag k="alt_name" v="Dønnum nedre" />
		<tag k="name" v="Nedre Dønnum" />
		<tag k="place" v="farm" />
		<tag k="ssr:stedsnr" v="180667" />
	</node>
	<node id="-31246" lat="60.3007583298" lon="11.2763611091">
		<tag k="name" v="Nord-Fraurud" />
		<tag k="place" v="farm" />
		<tag k="ssr:stedsnr" v="180709" />
	</node>
	<node id="-31243" lat="60.3296583352" lon="11.1798222235">
		<tag k="alt_name" v="Blakkesrud nordre" />
		<tag k="name" v="Nordre Blakkesrud" />
		<tag k="place" v="farm" />
		<tag k="ssr:stedsnr" v="178870" />
	</node>
	<node id="-31240" lat="60.2902611111" lon="11.1660722232">
		<tag k="name" v="Lund" />
		<tag k="place" v="farm" />
		<tag k="ssr:stedsnr" v="284563" />
	</node>
	<node id="-31237" lat="60.3088097541" lon="11.210762102">
		<tag k="alt_name" v="Dønnum vestgarn" />
		<tag k="name" v="Vestgarden Dønnum" />
		<tag k="place" v="farm" />
		<tag k="ssr:stedsnr" v="284312" />
	</node>
	<node id="-31236" lat="60.3080194402" lon="11.181999993">
		<tag k="alt_name" v="Jonsrud nedre" />
		<tag k="name" v="Nedre Jonsrud" />
		<tag k="old_name" v="Jonstud nedre;Nedre Jonstud" />
		<tag k="place" v="farm" />
		<tag k="ssr:stedsnr" v="284305" />
	</node>
	<node id="-31235" lat="60.5878527736" lon="11.1460583408">
		<tag k="name" v="Skomakerbekken" />
		<tag k="place" v="farm" />
		<tag k="ssr:stedsnr" v="283997" />
	</node>
	<node id="-31234" lat="60.5632083348" lon="11.1759166645">
		<tag k="name" v="Hol" />
		<tag k="place" v="farm" />
		<tag k="ssr:stedsnr" v="283962" />
	</node>
	<node id="-31233" lat="60.5568805519" lon="11.1777722252">
		<tag k="name" v="Nordre Oppegård" />
		<tag k="place" v="farm" />
		<tag k="ssr:stedsnr" v="283952" />
	</node>
	<node id="-31232" lat="60.3675888861" lon="11.1388472166">
		<tag k="name" v="Nystuhytta" />
		<tag k="place" v="isolated_dwelling" />
		<tag k="ssr:stedsnr" v="283165" />
	</node>
	<node id="-31231" lat="60.3582555531" lon="11.2292555631">
		<tag k="alt_name" v="Dokken negarn" />
		<tag k="name" v="Nedgarden Dokken" />
		<tag k="place" v="farm" />
		<tag k="ssr:stedsnr" v="283049" />
	</node>
	<node id="-31225" lat="60.4189361121" lon="11.2608916597">
		<tag k="name" v="Nordli" />
		<tag k="place" v="farm" />
		<tag k="ssr:stedsnr" v="163705" />
	</node>
	<node id="-31222" lat="60.3046666653" lon="11.173958342">
		<tag k="name" v="Solbakken" />
		<tag k="place" v="isolated_dwelling" />
		<tag k="ssr:stedsnr" v="163563" />
	</node>
	<node id="-31221" lat="60.2865277787" lon="11.1868277737">
		<tag k="name" v="Granly" />
		<tag k="place" v="farm" />
		<tag k="ssr:stedsnr" v="163556" />
	</node>
	<node id="-31220" lat="60.2771166627" lon="11.2988083413">
		<tag k="name" v="Dølitangen" />
		<tag k="place" v="farm" />
		<tag k="ssr:stedsnr" v="163522" />
	</node>
	<node id="-31219" lat="60.4747111139" lon="11.1172194529">
		<tag k="name" v="Melbyhytta" />
		<tag k="place" v="isolated_dwelling" />
		<tag k="ssr:stedsnr" v="163520" />
	</node>
	<node id="-31216" lat="60.3096333297" lon="11.2711666629">
		<tag k="name" v="Østli" />
		<tag k="place" v="isolated_dwelling" />
		<tag k="ssr:stedsnr" v="162322" />
	</node>
	<node id="-31215" lat="60.3078777787" lon="11.2756055498">
		<tag k="alt_name" v="Nord-Strand nordgarn" />
		<tag k="name" v="Nordgarden Nord-Strand" />
		<tag k="place" v="farm" />
		<tag k="ssr:stedsnr" v="162320" />
	</node>
	<node id="-31214" lat="60.3252638866" lon="11.2011027851">
		<tag k="name" v="Næringa" />
		<tag k="place" v="isolated_dwelling" />
		<tag k="ssr:stedsnr" v="162313" />
	</node>
	<node id="-31213" lat="60.3187416687" lon="11.1952666648">
		<tag k="name" v="Åmothaugen" />
		<tag k="place" v="farm" />
		<tag k="ssr:stedsnr" v="162309" />
	</node>
	<node id="-31207" lat="60.3692888898" lon="11.3465111162">
		<tag k="name" v="Tjærebråtan" />
		<tag k="place" v="farm" />
		<tag k="ssr:stedsnr" v="161016" />
	</node>
	<node id="-31206" lat="60.3485083299" lon="11.3360249921">
		<tag k="name" v="Sandholtbråtan" />
		<tag k="place" v="farm" />
		<tag k="ssr:stedsnr" v="161012" />
	</node>
	<node id="-31203" lat="60.3304527814" lon="11.2616055486">
		<tag k="name" v="Eidsvoll" />
		<tag k="place" v="village" />
		<tag k="ssr:stedsnr" v="127125" />
	</node>
	<node id="-31202" lat="60.3190111103" lon="11.1656944466">
		<tag k="name" v="Kappåsen" />
		<tag k="old_name" v="Kappaasen" />
		<tag k="place" v="farm" />
		<tag k="ssr:stedsnr" v="127114" />
	</node>
	<node id="-31201" lat="60.3297611139" lon="11.3426111053">
		<tag k="name" v="Grandalen" />
		<tag k="place" v="isolated_dwelling" />
		<tag k="ssr:stedsnr" v="127109" />
	</node>
	<node id="-31199" lat="60.2759527733" lon="11.2424250058">
		<tag k="name" v="Våler" />
		<tag k="place" v="farm" />
		<tag k="ssr:stedsnr" v="127210" />
	</node>
	<node id="-31197" lat="60.4041444458" lon="11.2485166728">
		<tag k="name" v="Ovri" />
		<tag k="place" v="farm" />
		<tag k="ssr:stedsnr" v="127012" />
	</node>
	<node id="-31196" lat="60.4041388872" lon="11.2461194354">
		<tag k="name" v="Ovrilia" />
		<tag k="place" v="quarter" />
		<tag k="ssr:stedsnr" v="263000" />
	</node>
	<node id="-31195" lat="60.3398416653" lon="11.2801166669">
		<tag k="alt_name" v="Tønsaker okgarn" />
		<tag k="name" v="Oppgarden Tønsåker" />
		<tag k="place" v="farm" />
		<tag k="ssr:stedsnr" v="119381" />
	</node>
	<node id="-31194" lat="60.3410694448" lon="11.1986333411">
		<tag k="alt_name" v="Veslestun" />
		<tag k="name" v="Veslestuen" />
		<tag k="place" v="farm" />
		<tag k="ssr:stedsnr" v="118923" />
	</node>
	<node id="-31193" lat="60.4968638933" lon="11.150747221">
		<tag k="name" v="Dalen" />
		<tag k="place" v="farm" />
		<tag k="ssr:stedsnr" v="118331" />
	</node>
	<node id="-31191" lat="60.2804333351" lon="11.1546222153">
		<tag k="name" v="Amundrud" />
		<tag k="place" v="farm" />
		<tag k="ssr:stedsnr" v="116805" />
	</node>
	<node id="-31188" lat="60.3569694474" lon="11.14910277">
		<tag k="name" v="Åsgardhytta" />
		<tag k="place" v="isolated_dwelling" />
		<tag k="ssr:stedsnr" v="101863" />
	</node>
	<node id="-31187" lat="60.5153277746" lon="11.1795555556">
		<tag k="name" v="Sørli" />
		<tag k="place" v="farm" />
		<tag k="ssr:stedsnr" v="101002" />
	</node>
	<node id="-31185" lat="60.5244416677" lon="11.1866888886">
		<tag k="fixme" v="multiple name tags, choose one and add the other to alt_name; consider place=hamlet" />
		<tag k="name" v="Torgunnrud;Torgunrud" />
		<tag k="place" v="farm" />
		<tag k="ssr:stedsnr" v="250476" />
	</node>
	<node id="-31182" lat="60.4471694475" lon="11.323800008">
		<tag k="name" v="Grønnsjøkoia" />
		<tag k="place" v="isolated_dwelling" />
		<tag k="ssr:stedsnr" v="249475" />
	</node>
	<node id="-31181" lat="60.4444138852" lon="11.2919999946">
		<tag k="name" v="Dorrsvangen" />
		<tag k="place" v="isolated_dwelling" />
		<tag k="ssr:stedsnr" v="249474" />
	</node>
	<node id="-31180" lat="60.4433623693" lon="11.2491948872">
		<tag k="alt_name" v="Lønnlien;Åsland" />
		<tag k="name" v="Lønnlia" />
		<tag k="place" v="farm" />
		<tag k="ssr:stedsnr" v="249472" />
	</node>
	<node id="-31179" lat="60.4357555564" lon="11.2785277866">
		<tag k="name" v="Granholt" />
		<tag k="place" v="farm" />
		<tag k="ssr:stedsnr" v="249459" />
	</node>
	<node id="-31178" lat="60.4394111148" lon="11.2567500048">
		<tag k="fixme" v="multiple name tags, choose one and add the other to alt_name" />
		<tag k="name" v="Bakken;Korslundbakken" />
		<tag k="place" v="farm" />
		<tag k="ssr:stedsnr" v="249458" />
	</node>
	<node id="-31176" lat="60.2511527816" lon="11.2102111047">
		<tag k="alt_name" v="Skyttersæter" />
		<tag k="name" v="Skytterseter" />
		<tag k="place" v="farm" />
		<tag k="ssr:stedsnr" v="249198" />
	</node>
	<node id="-31174" lat="60.2818138916" lon="11.1667888968">
		<tag k="name" v="Tærud" />
		<tag k="place" v="farm" />
		<tag k="ssr:stedsnr" v="249169" />
	</node>
	<node id="-31173" lat="60.2982222254" lon="11.1437944479">
		<tag k="name" v="Møllerud" />
		<tag k="place" v="farm" />
		<tag k="ssr:stedsnr" v="249155" />
	</node>
	<node id="-31172" lat="60.2958055571" lon="11.2133083407">
		<tag k="name" v="Kalsegg" />
		<tag k="place" v="farm" />
		<tag k="ssr:stedsnr" v="249152" />
	</node>
	<node id="-31171" lat="60.3014000021" lon="11.1488499933">
		<tag k="name" v="Borgers" />
		<tag k="place" v="farm" />
		<tag k="ssr:stedsnr" v="249150" />
	</node>
	<node id="-31170" lat="60.3046777794" lon="11.1878305615">
		<tag k="fixme" v="consider place=hamlet" />
		<tag k="name" v="Fossum" />
		<tag k="place" v="farm" />
		<tag k="ssr:stedsnr" v="249144" />
	</node>
	<node id="-31169" lat="60.3223666667" lon="11.2342499928">
		<tag k="name" v="Vegamot" />
		<tag k="place" v="hamlet" />
		<tag k="ssr:stedsnr" v="249125" />
	</node>
	<node id="-31168" lat="60.3336499961" lon="11.1844972207">
		<tag k="fixme" v="consider place=hamlet" />
		<tag k="name" v="Boksrud" />
		<tag k="place" v="farm" />
		<tag k="ssr:stedsnr" v="249118" />
	</node>
	<node id="-31167" lat="60.3666194478" lon="11.2763277842">
		<tag k="name" v="Badstuholen" />
		<tag k="place" v="farm" />
		<tag k="ssr:stedsnr" v="249063" />
	</node>
	<node id="-31166" lat="60.3898555547" lon="11.3087499987">
		<tag k="name" v="Habbarstadvangen" />
		<tag k="place" v="farm" />
		<tag k="ssr:stedsnr" v="249024" />
	</node>
	<node id="-31165" lat="60.4211861243" lon="11.2548928265">
		<tag k="alt_name" v="Opengen;Bekkevoll" />
		<tag k="name" v="Oppenga" />
		<tag k="place" v="farm" />
		<tag k="ssr:stedsnr" v="248492" />
	</node>
	<node id="-31162" lat="60.3532972239" lon="11.2738388957">
		<tag k="name" v="Milli" />
		<tag k="place" v="farm" />
		<tag k="ssr:stedsnr" v="248061" />
	</node>
	<node id="-31161" lat="60.498749999" lon="11.1589750017">
		<tag k="fixme" v="consider place=hamlet" />
		<tag k="name" v="Flesvik" />
		<tag k="place" v="farm" />
		<tag k="ssr:stedsnr" v="67411" />
	</node>
	<node id="-31158" lat="60.4292527744" lon="11.3596333362">
		<tag k="alt_name" v="Løntjernbråten" />
		<tag k="name" v="Lønntjennbråtan" />
		<tag k="place" v="isolated_dwelling" />
		<tag k="ssr:stedsnr" v="67527" />
	</node>
	<node id="-31156" lat="60.4106277741" lon="11.1898250054">
		<tag k="name" v="Byrudstua" />
		<tag k="place" v="isolated_dwelling" />
		<tag k="ssr:stedsnr" v="67510" />
	</node>
	<node id="-31155" lat="60.3072638923" lon="11.1995277806">
		<tag k="name" v="Brenna" />
		<tag k="place" v="farm" />
		<tag k="ssr:stedsnr" v="67153" />
	</node>
	<node id="-31154" lat="60.321972219" lon="11.2502333372">
		<tag k="name" v="Nordheim" />
		<tag k="place" v="farm" />
		<tag k="ssr:stedsnr" v="67147" />
	</node>
	<node id="-31153" lat="60.316308335" lon="11.2940666641">
		<tag k="fixme" v="consider place=suburb, village or hamlet" />
		<tag k="name" v="Styrigrenda" />
		<tag k="place" v="quarter" />
		<tag k="ssr:stedsnr" v="67146" />
	</node>
	<node id="-31151" lat="60.346303303" lon="11.2256247165">
		<tag k="alt_name" v="Smestad" />
		<tag k="name" v="Smedstad" />
		<tag k="place" v="hamlet" />
		<tag k="ssr:stedsnr" v="67102" />
	</node>
	<node id="-31150" lat="60.2728000042" lon="11.1749888839">
		<tag k="name" v="Vestenga" />
		<tag k="place" v="farm" />
		<tag k="ssr:stedsnr" v="67209" />
	</node>
	<node id="-31147" lat="60.2459388874" lon="11.1733305623">
		<tag k="name" v="Fjellberg" />
		<tag k="place" v="farm" />
		<tag k="ssr:stedsnr" v="66323" />
	</node>
	<node id="-31146" lat="60.3814861105" lon="11.1927583373">
		<tag k="amenity" v="kindergarten" />
		<tag k="name" v="Stensby barnehage" />
		<tag k="ssr:stedsnr" v="242713" />
	</node>
	<node id="-31144" lat="60.2475583364" lon="11.2059861047">
		<tag k="leisure" v="pitch" />
		<tag k="name" v="Dal hoppbakke" />
		<tag k="ssr:stedsnr" v="242495" />
	</node>
	<node id="-31143" lat="60.2635222236" lon="11.1885277767">
		<tag k="name" v="Furulundjordet" />
		<tag k="place" v="quarter" />
		<tag k="ssr:stedsnr" v="241949" />
	</node>
	<node id="-31141" lat="60.3015472247" lon="11.2749305469">
		<tag k="name" v="Bråtan" />
		<tag k="place" v="farm" />
		<tag k="ssr:stedsnr" v="241698" />
	</node>
	<node id="-31139" lat="60.2975194421" lon="11.1924305556">
		<tag k="name" v="Brubakken" />
		<tag k="place" v="farm" />
		<tag k="ssr:stedsnr" v="241684" />
	</node>
	<node id="-31137" lat="60.3341500041" lon="11.2860611052">
		<tag k="alt_name" v="Elstad nystun" />
		<tag k="name" v="Nystuen Elstad" />
		<tag k="place" v="farm" />
		<tag k="ssr:stedsnr" v="241389" />
	</node>
	<node id="-31133" lat="60.4786861085" lon="11.2480527784">
		<tag k="alt_name" v="Ulvensletten;Sletten" />
		<tag k="name" v="Sletta" />
		<tag k="place" v="farm" />
		<tag k="ssr:stedsnr" v="240499" />
	</node>
	<node id="-31132" lat="60.4918888934" lon="11.0815444399">
		<tag k="name" v="Kleiva" />
		<tag k="place" v="isolated_dwelling" />
		<tag k="ssr:stedsnr" v="240440" />
	</node>
	<node id="-31130" lat="60.4816638862" lon="11.1641000001">
		<tag k="name" v="Årnes" />
		<tag k="place" v="locality" />
		<tag k="ssr:stedsnr" v="240421" />
	</node>
	<node id="-31129" lat="60.4926500005" lon="11.1462805502">
		<tag k="name" v="Stenberg" />
		<tag k="place" v="farm" />
		<tag k="ssr:stedsnr" v="240406" />
	</node>
	<node id="-31127" lat="60.5006277804" lon="11.1689527716">
		<tag k="name" v="Nygård" />
		<tag k="place" v="farm" />
		<tag k="ssr:stedsnr" v="240349" />
	</node>
	<node id="-31126" lat="60.5050000029" lon="11.1663666661">
		<tag k="name" v="Bellarud" />
		<tag k="place" v="farm" />
		<tag k="ssr:stedsnr" v="240338" />
	</node>
	<node id="-31123" lat="60.3366111137" lon="11.1520944386">
		<tag k="historic" v="shieling" />
		<tag k="loc_name" v="Bjørkeseter" />
		<tag k="name" v="Bjørke Sr" />
		<tag k="place" v="locality" />
		<tag k="ssr:stedsnr" v="239906" />
	</node>
	<node id="-31122" lat="60.3234583305" lon="11.2558055595">
		<tag k="name" v="Møllerhaugen" />
		<tag k="place" v="farm" />
		<tag k="ssr:stedsnr" v="239478" />
	</node>
	<node id="-31121" lat="60.3212055578" lon="11.2657027712">
		<tag k="name" v="Tunneltoppen" />
		<tag k="place" v="hamlet" />
		<tag k="ssr:stedsnr" v="239475" />
	</node>
	<node id="-31118" lat="60.3742250042" lon="11.269583331">
		<tag k="alt_name" v="Habbarstad arstun" />
		<tag k="name" v="Arstuen Habbarstad" />
		<tag k="place" v="farm" />
		<tag k="ssr:stedsnr" v="237980" />
	</node>
	<node id="-31117" lat="60.2780694425" lon="11.1744722296">
		<tag k="name" v="Holter" />
		<tag k="place" v="quarter" />
		<tag k="ssr:stedsnr" v="237787" />
	</node>
	<node id="-31112" lat="60.311061107" lon="11.2485055548">
		<tag k="alt_name" v="Ålborg nordgarn" />
		<tag k="name" v="Nordgarden Ålborg" />
		<tag k="place" v="farm" />
		<tag k="ssr:stedsnr" v="41326" />
	</node>
	<node id="-31111" lat="60.3168111138" lon="11.2589333256">
		<tag k="name" v="Bårlidalsgrenda" />
		<tag k="place" v="farm" />
		<tag k="ssr:stedsnr" v="41265" />
	</node>
	<node id="-31110" lat="60.3209222204" lon="11.2848444434">
		<tag k="alt_name" v="Styri okgarn" />
		<tag k="name" v="Oppgarden Styri" />
		<tag k="place" v="farm" />
		<tag k="ssr:stedsnr" v="41263" />
	</node>
	<node id="-31109" lat="60.5557666655" lon="11.1684861069">
		<tag k="name" v="Bjønnlykkja" />
		<tag k="place" v="farm" />
		<tag k="ssr:stedsnr" v="40952" />
	</node>
	<node id="-31107" lat="60.3400833348" lon="11.3659944531">
		<tag k="historic" v="shieling" />
		<tag k="name" v="Røkholtvangen" />
		<tag k="place" v="locality" />
		<tag k="ssr:stedsnr" v="40255" />
	</node>
	<node id="-31104" lat="60.3658666695" lon="11.1972222308">
		<tag k="alt_name" v="Åsgard søgarn" />
		<tag k="name" v="Søgarden Åsgard" />
		<tag k="place" v="farm" />
		<tag k="ssr:stedsnr" v="40068" />
	</node>
	<node id="-31103" lat="60.3527944435" lon="11.2836861188">
		<tag k="name" v="Hemli" />
		<tag k="place" v="farm" />
		<tag k="ssr:stedsnr" v="40064" />
	</node>
	<node id="-31102" lat="60.5147944421" lon="11.1721583299">
		<tag k="name" v="Klæmen" />
		<tag k="place" v="farm" />
		<tag k="ssr:stedsnr" v="40024" />
	</node>
	<node id="-31101" lat="60.3679694471" lon="11.2777472293">
		<tag k="name" v="Sø-vollen" />
		<tag k="place" v="farm" />
		<tag k="ssr:stedsnr" v="40020" />
	</node>
	<node id="-31100" lat="60.5154666631" lon="11.1847944524">
		<tag k="name" v="Fagernes" />
		<tag k="place" v="farm" />
		<tag k="ssr:stedsnr" v="40007" />
	</node>
	<node id="-31092" lat="60.4465361134" lon="11.1773972134">
		<tag k="name" v="Bjørndal" />
		<tag k="place" v="isolated_dwelling" />
		<tag k="ssr:stedsnr" v="224739" />
	</node>
	<node id="-31088" lat="60.4510111077" lon="11.1210583418">
		<tag k="name" v="Årneshytta" />
		<tag k="place" v="isolated_dwelling" />
		<tag k="ssr:stedsnr" v="224705" />
	</node>
	<node id="-31087" lat="60.4228999973" lon="11.2463416706">
		<tag k="alt_name" v="Ørbekk søstun" />
		<tag k="name" v="Søstuen Ørbekk" />
		<tag k="place" v="farm" />
		<tag k="ssr:stedsnr" v="224685" />
	</node>
	<node id="-31086" lat="60.4606581137" lon="11.241960749">
		<tag k="name" v="Brøhaug" />
		<tag k="place" v="farm" />
		<tag k="ssr:stedsnr" v="224541" />
	</node>
	<node id="-31084" lat="60.2883361145" lon="11.1507999928">
		<tag k="name" v="Grønvoll" />
		<tag k="place" v="farm" />
		<tag k="ssr:stedsnr" v="224522" />
	</node>
	<node id="-31083" lat="60.2890555562" lon="11.1407333279">
		<tag k="name" v="Merra" />
		<tag k="place" v="isolated_dwelling" />
		<tag k="ssr:stedsnr" v="224521" />
	</node>
	<node id="-31080" lat="60.3800166668" lon="11.1740250067">
		<tag k="name" v="Askjumvangen" />
		<tag k="place" v="isolated_dwelling" />
		<tag k="ssr:stedsnr" v="224093" />
	</node>
	<node id="-31078" lat="60.3059416711" lon="11.2495472219">
		<tag k="alt_name" v="Sneisrud Kristenstun" />
		<tag k="name" v="Kristenstuen Sneisrud" />
		<tag k="place" v="farm" />
		<tag k="ssr:stedsnr" v="223325" />
	</node>
	<node id="-31076" lat="60.3115222186" lon="11.2102444502">
		<tag k="name" v="Auli" />
		<tag k="place" v="farm" />
		<tag k="ssr:stedsnr" v="223314" />
	</node>
	<node id="-31071" lat="60.3620777746" lon="11.2164777827">
		<tag k="name" v="Dokkens Minde" />
		<tag k="place" v="isolated_dwelling" />
		<tag k="ssr:stedsnr" v="222039" />
	</node>
	<node id="-31070" lat="60.5424277814" lon="11.1883972294">
		<tag k="name" v="Stubberuddalen" />
		<tag k="place" v="hamlet" />
		<tag k="ssr:stedsnr" v="222024" />
	</node>
	<node id="-31069" lat="60.5141888887" lon="11.1745944423">
		<tag k="name" v="Øvergård" />
		<tag k="place" v="farm" />
		<tag k="ssr:stedsnr" v="222019" />
	</node>
	<node id="-31068" lat="60.3610777783" lon="11.2821250058">
		<tag k="name" v="Sanderhaugen" />
		<tag k="place" v="farm" />
		<tag k="ssr:stedsnr" v="222008" />
	</node>
	<node id="-31067" lat="60.3577583359" lon="11.2729166703">
		<tag k="alt_name" v="Hol søgarn" />
		<tag k="name" v="Søgarden Hol" />
		<tag k="place" v="farm" />
		<tag k="ssr:stedsnr" v="222007" />
	</node>
	<node id="-32788" lat="60.2500890333" lon="11.1794911217">
		<tag k="name" v="Letohallen" />
		<tag k="ssr:stedsnr" v="989170" />
		<tag k="tourism" v="hotel" />
	</node>
	<node id="-32786" lat="60.2594987949" lon="11.3094172347">
		<tag k="fixme" v="consider place=hamlet" />
		<tag k="name" v="Borstad" />
		<tag k="place" v="farm" />
		<tag k="ssr:stedsnr" v="976229" />
	</node>
	<node id="-32785" lat="60.2969655944" lon="11.2352630793">
		<tag k="name" v="Finstad" />
		<tag k="place" v="hamlet" />
		<tag k="ssr:stedsnr" v="976225" />
	</node>
	<node id="-32781" lat="60.2729361114" lon="11.1961388835">
		<tag k="name" v="Sandbakken" />
		<tag k="place" v="isolated_dwelling" />
		<tag k="ssr:stedsnr" v="969945" />
	</node>
	<node id="-32780" lat="60.2740388907" lon="11.1984194413">
		<tag k="name" v="Holmerud" />
		<tag k="place" v="farm" />
		<tag k="ssr:stedsnr" v="969944" />
	</node>
	<node id="-32779" lat="60.3136472215" lon="11.1640527739">
		<tag k="name" v="Sommero" />
		<tag k="place" v="farm" />
		<tag k="ssr:stedsnr" v="969734" />
	</node>
	<node id="-32776" lat="60.478703562" lon="11.2433594914">
		<tag k="alt_name" v="Ulven" />
		<tag k="name" v="Ulvin" />
		<tag k="place" v="hamlet" />
		<tag k="ssr:stedsnr" v="968477" />
	</node>
	<node id="-32775" lat="60.4856333358" lon="11.2377222278">
		<tag k="name" v="Ulvinberget" />
		<tag k="place" v="isolated_dwelling" />
		<tag k="ssr:stedsnr" v="968351" />
	</node>
	<node id="-32773" lat="60.5002472252" lon="11.1474555632">
		<tag k="name" v="Fløyrud" />
		<tag k="place" v="farm" />
		<tag k="ssr:stedsnr" v="968347" />
	</node>
	<node id="-32772" lat="60.3724166628" lon="11.1976444379">
		<tag k="alt_name" v="Askheim negarn" />
		<tag k="name" v="Nedgarden Askheim" />
		<tag k="place" v="farm" />
		<tag k="ssr:stedsnr" v="965994" />
	</node>
	<node id="-32770" lat="60.3772083332" lon="11.2653638852">
		<tag k="name" v="Sø-Brøstad" />
		<tag k="place" v="farm" />
		<tag k="ssr:stedsnr" v="965979" />
	</node>
</osm>
