<?xml version="1.0" encoding="UTF-8"?>
<<<<<<< HEAD
<osm version="0.6" generator="osmapis">
	<node lat="60.403252778984985" lon="11.37882500611983" id="-12759">
		<tag k="name" v="Røysitjennet" />
		<tag k="natural" v="water" />
		<tag k="ssr:stedsnr" v="6009" />
	</node>
	<node lat="60.29624722096133" lon="11.34568611244177" id="-12761">
		<tag k="alt_name" v="Storrtjennet" />
		<tag k="name" v="Starrtjennet" />
		<tag k="natural" v="water" />
		<tag k="ssr:stedsnr" v="6172" />
	</node>
	<node lat="60.36617499979872" lon="11.136233330330217" id="-12762">
		<tag k="alt_name" v="Himtjennet" />
		<tag k="name" v="Himtjenn" />
		<tag k="natural" v="water" />
		<tag k="ssr:stedsnr" v="6055" />
	</node>
	<node lat="60.36081111432755" lon="11.103136114501769" id="-12765">
		<tag k="alt_name" v="Totjenn" />
		<tag k="name" v="Totjenna" />
=======
<osm generator="osmapis" version="0.6">
	<node id="-264960" lat="60.2731444481" lon="11.2089194508">
		<tag k="name" v="Risa" />
		<tag k="ssr:stedsnr" v="733302" />
		<tag k="waterway" v="river" />
	</node>
	<node id="-265214" lat="60.3661749998" lon="11.1362333303">
		<tag k="alt_name" v="Himtjennet" />
		<tag k="name" v="Himtjenn" />
		<tag k="natural" v="water" />
		<tag k="ssr:stedsnr" v="6055" />
	</node>
	<node id="-265725" lat="60.3421111104" lon="11.2566055536">
		<tag k="name" v="Sandholtevja" />
		<tag k="natural" v="bay" />
		<tag k="ssr:stedsnr" v="544364" />
	</node>
	<node id="-265210" lat="60.3888555556" lon="11.2732222275">
		<tag k="name" v="Holtdammen" />
		<tag k="natural" v="water" />
		<tag k="ssr:stedsnr" v="6031" />
	</node>
	<node id="-265718" lat="60.51976389" lon="11.109191673">
		<tag k="name" v="Sølvputten" />
		<tag k="natural" v="water" />
		<tag k="ssr:stedsnr" v="543351" />
		<tag k="water" v="pond" />
	</node>
	<node id="-264691" lat="60.3095000011" lon="11.3911499991">
		<tag k="alt_name" v="Svartpytt, østre;Østre Svartputten" />
		<tag k="name" v="Østre Svartpytt" />
		<tag k="natural" v="water" />
		<tag k="ssr:stedsnr" v="491156" />
	</node>
	<node id="-265703" lat="60.4011749982" lon="11.3603888942">
		<tag k="name" v="Åa" />
		<tag k="ssr:stedsnr" v="527872" />
		<tag k="waterway" v="river" />
	</node>
	<node id="-264870" lat="60.2907333307" lon="11.1375499908">
		<tag k="name" v="Langholmen" />
		<tag k="place" v="islet" />
		<tag k="ssr:stedsnr" v="709549" />
	</node>
	<node id="-265186" lat="60.5321944457" lon="11.1251277843">
		<tag k="name" v="Bladtjennet" />
		<tag k="natural" v="water" />
		<tag k="ssr:stedsnr" v="917455" />
	</node>
	<node id="-264955" lat="60.2879805594" lon="11.29595277">
		<tag k="name" v="Hummelievja" />
		<tag k="natural" v="bay" />
		<tag k="ssr:stedsnr" v="726690" />
	</node>
	<node id="-265696" lat="60.5451750034" lon="11.1530249956">
		<tag k="name" v="Alnesputten" />
		<tag k="natural" v="water" />
		<tag k="ssr:stedsnr" v="526950" />
	</node>
	<node id="-265180" lat="60.4656916653" lon="11.1553777848">
		<tag k="name" v="Trilterudbekken" />
		<tag k="ssr:stedsnr" v="916458" />
		<tag k="waterway" v="stream" />
	</node>
	<node id="-264664" lat="60.4944722248" lon="11.1675222186">
		<tag k="name" v="Bærtangen" />
		<tag k="natural" v="cape" />
		<tag k="ssr:stedsnr" v="482377" />
	</node>
	<node id="-265687" lat="60.3633277779" lon="11.254372231">
		<tag k="name" v="Rønsenevja" />
		<tag k="natural" v="bay" />
		<tag k="ssr:stedsnr" v="525001" />
	</node>
	<node id="-265174" lat="60.2840250031" lon="11.1248250024">
		<tag k="name" v="Frankøya" />
		<tag k="place" v="islet" />
		<tag k="ssr:stedsnr" v="916168" />
	</node>
	<node id="-265685" lat="60.529022226" lon="11.1342333317">
		<tag k="name" v="Disserudtjennet" />
		<tag k="natural" v="water" />
		<tag k="ssr:stedsnr" v="432455" />
	</node>
	<node id="-265681" lat="60.5016249967" lon="11.0999083406">
		<tag k="name" v="Damtjennet" />
		<tag k="natural" v="water" />
		<tag k="ssr:stedsnr" v="431475" />
	</node>
	<node id="-264656" lat="60.262569442" lon="11.1710194521">
		<tag k="name" v="Køla" />
		<tag k="natural" v="water" />
		<tag k="ssr:stedsnr" v="479791" />
	</node>
	<node id="-264654" lat="60.3461499971" lon="11.1061055531">
		<tag k="name" v="Skillebekken" />
		<tag k="old_name" v="Snøplogbekken" />
		<tag k="ssr:stedsnr" v="479083" />
		<tag k="waterway" v="stream" />
	</node>
	<node id="-264409" lat="60.3088055581" lon="11.2797083345">
		<tag k="name" v="Nordtangen" />
		<tag k="natural" v="cape" />
		<tag k="ssr:stedsnr" v="223332" />
	</node>
	<node id="-265671" lat="60.3332277759" lon="11.1325222311">
		<tag k="name" v="Makrellbekken" />
		<tag k="ssr:stedsnr" v="431134" />
		<tag k="waterway" v="stream" />
	</node>
	<node id="-265670" lat="60.3340972231" lon="11.1581055526">
		<tag k="name" v="Netsjøen" />
		<tag k="natural" v="water" />
		<tag k="ssr:stedsnr" v="431133" />
		<tag k="water" v="lake" />
	</node>
	<node id="-265206" lat="60.403252779" lon="11.3788250061">
		<tag k="name" v="Røysitjennet" />
		<tag k="natural" v="water" />
		<tag k="ssr:stedsnr" v="6009" />
	</node>
	<node id="-265152" lat="60.5637249966" lon="11.1315222165">
		<tag k="name" v="Skomakartjennet" />
		<tag k="natural" v="water" />
		<tag k="ssr:stedsnr" v="857416" />
	</node>
	<node id="-265147" lat="60.3182166651" lon="11.165877784">
		<tag k="name" v="Nessa" />
		<tag k="ssr:stedsnr" v="856154" />
		<tag k="waterway" v="stream" />
	</node>
	<node id="-265647" lat="60.383438889" lon="11.246472219">
		<tag k="name" v="Fremminøya" />
		<tag k="place" v="islet" />
		<tag k="ssr:stedsnr" v="419958" />
	</node>
	<node id="-265644" lat="60.2761777772" lon="11.1199250039">
		<tag k="name" v="Bergersumpa" />
		<tag k="natural" v="bay" />
		<tag k="ssr:stedsnr" v="419788" />
	</node>
	<node id="-264619" lat="60.4317694422" lon="11.14360833">
		<tag k="name" v="Kinngåsputten" />
		<tag k="natural" v="water" />
		<tag k="ssr:stedsnr" v="285843" />
	</node>
	<node id="-265130" lat="60.3972250017" lon="11.2432055629">
		<tag k="name" v="Storenga" />
		<tag k="natural" v="cape" />
		<tag k="ssr:stedsnr" v="931000" />
	</node>
	<node id="-265129" lat="60.3057833326" lon="11.1165027839">
		<tag k="name" v="Lortvika" />
		<tag k="natural" v="bay" />
		<tag k="ssr:stedsnr" v="930992" />
	</node>
	<node id="-265122" lat="60.3080000037" lon="11.3749000017">
		<tag k="alt_name" v="Svartpytt, vestre;Vestre Svartputten" />
		<tag k="name" v="Vestre Svartpytt" />
		<tag k="natural" v="water" />
		<tag k="ssr:stedsnr" v="795183" />
		<tag k="water" v="pond" />
	</node>
	<node id="-266145" lat="60.4223633048" lon="11.3733371834">
		<tag k="name" v="Store Lønnvangtjennet" />
		<tag k="natural" v="water" />
		<tag k="ssr:stedsnr" v="654893" />
	</node>
	<node id="-266144" lat="60.4593070384" lon="11.3431639836">
		<tag k="name" v="Ottsjøen" />
		<tag k="natural" v="water" />
		<tag k="ssr:stedsnr" v="6445" />
		<tag k="water" v="lake" />
	</node>
	<node id="-265117" lat="60.2791749964" lon="11.1195500038">
		<tag k="name" v="Skurvøya" />
		<tag k="place" v="islet" />
		<tag k="ssr:stedsnr" v="795218" />
	</node>
	<node id="-265115" lat="60.2835749997" lon="11.1158194513">
		<tag k="name" v="Bergerøya" />
		<tag k="place" v="island" />
		<tag k="ssr:stedsnr" v="795206" />
	</node>
	<node id="-265623" lat="60.3480361093" lon="11.0403250073">
		<tag k="name" v="Hurdalssjøen" />
		<tag k="natural" v="water" />
		<tag k="ssr:stedsnr" v="384430" />
		<tag k="water" v="lake" />
	</node>
	<node id="-265107" lat="60.5393583305" lon="11.146324995">
		<tag k="name" v="Atthaldsdammen" />
		<tag k="natural" v="water" />
		<tag k="ssr:stedsnr" v="917448" />
	</node>
	<node id="-265106" lat="60.4335250006" lon="11.1661222261">
		<tag k="name" v="Svartputten" />
		<tag k="natural" v="water" />
		<tag k="ssr:stedsnr" v="917463" />
	</node>
	<node id="-265616" lat="60.4479749988" lon="11.3157833272">
		<tag k="name" v="Grønnsjøbekken" />
		<tag k="ssr:stedsnr" v="370459" />
		<tag k="waterway" v="stream" />
	</node>
	<node id="-265615" lat="60.4519500016" lon="11.2725999912">
		<tag k="name" v="Trehørningen" />
		<tag k="natural" v="water" />
		<tag k="ssr:stedsnr" v="370458" />
	</node>
	<node id="-265608" lat="60.3006555568" lon="11.3610250015">
		<tag k="name" v="Kvetjennet" />
		<tag k="natural" v="water" />
		<tag k="ssr:stedsnr" v="370192" />
	</node>
	<node id="-265607" lat="60.3172000023" lon="11.376752783">
		<tag k="name" v="Fiskeløysa" />
		<tag k="natural" v="water" />
		<tag k="ssr:stedsnr" v="370160" />
	</node>
	<node id="-265605" lat="60.3237690676" lon="11.1246592003">
		<tag k="name" v="Rødvika" />
		<tag k="natural" v="bay" />
		<tag k="ssr:stedsnr" v="370145" />
	</node>
	<node id="-264854" lat="60.3749361132" lon="11.2504416699">
		<tag k="name" v="Smørtynnevja" />
		<tag k="natural" v="bay" />
		<tag k="ssr:stedsnr" v="540974" />
	</node>
	<node id="-265601" lat="60.3405972236" lon="11.3359500033">
		<tag k="alt_name" v="Morttjennet" />
		<tag k="name" v="Morttjenn" />
		<tag k="natural" v="water" />
		<tag k="ssr:stedsnr" v="370124" />
	</node>
	<node id="-265088" lat="60.3834472184" lon="11.1652000037">
		<tag k="name" v="Askjumbekken" />
		<tag k="ssr:stedsnr" v="770079" />
		<tag k="waterway" v="stream" />
	</node>
	<node id="-264572" lat="60.3415083366" lon="11.1604083327">
		<tag k="name" v="Lauvodden" />
		<tag k="natural" v="cape" />
		<tag k="ssr:stedsnr" v="178866" />
	</node>
	<node id="-264569" lat="60.309525004" lon="11.2847722155">
		<tag k="name" v="Vålerevja" />
		<tag k="natural" v="bay" />
		<tag k="ssr:stedsnr" v="284324" />
	</node>
	<node id="-266104" lat="60.5140472205" lon="11.1208249939">
		<tag k="name" v="Stårrputten" />
		<tag k="natural" v="water" />
		<tag k="ssr:stedsnr" v="968350" />
	</node>
	<node id="-265591" lat="60.3680388902" lon="11.387991667">
		<tag k="alt_name" v="Benketjennet" />
		<tag k="name" v="Benketjenn" />
		<tag k="natural" v="water" />
		<tag k="ssr:stedsnr" v="370066" />
	</node>
	<node id="-266101" lat="60.2614444402" lon="11.3172166707">
		<tag k="name" v="Frilsetevja" />
		<tag k="natural" v="bay" />
		<tag k="ssr:stedsnr" v="966132" />
	</node>
	<node id="-265587" lat="60.3784138906" lon="11.3989249987">
		<tag k="name" v="Larsputten" />
		<tag k="natural" v="water" />
		<tag k="ssr:stedsnr" v="370046" />
	</node>
	<node id="-265585" lat="60.3775611092" lon="11.206180562">
		<tag k="name" v="Julsrudåa" />
		<tag k="ssr:stedsnr" v="370042" />
		<tag k="waterway" v="stream" />
	</node>
	<node id="-265584" lat="60.3932499984" lon="11.1905055586">
		<tag k="alt_name" v="Stensbyåa" />
		<tag k="name" v="Stensbyelva" />
		<tag k="ssr:stedsnr" v="370040" />
		<tag k="waterway" v="stream" />
	</node>
	<node id="-265069" lat="60.3169750007" lon="11.3813472133">
		<tag k="name" v="Vesle Fiskeløysa" />
>>>>>>> e1d4bc35ff8a6074a6f2e91616a996b547c36f15
		<tag k="natural" v="water" />
		<tag k="ssr:stedsnr" v="6072" />
		<tag k="water" v="lake" />
	</node>
<<<<<<< HEAD
	<node lat="60.19805555876448" lon="11.379016665384645" id="-12766">
		<tag k="name" v="Vorma" />
		<tag k="ssr:stedsnr" v="6274" />
		<tag k="waterway" v="river" />
	</node>
	<node lat="60.4448750008113" lon="11.159144452189068" id="-12767">
		<tag k="name" v="Årnestjenn" />
=======
	<node id="-266092" lat="60.4529916687" lon="11.120113888">
		<tag k="name" v="Hølbekken" />
		<tag k="ssr:stedsnr" v="952700" />
		<tag k="waterway" v="stream" />
	</node>
	<node id="-264679" lat="60.3939305527" lon="11.2330916744">
		<tag k="name" v="Minnevika" />
		<tag k="natural" v="bay" />
		<tag k="ssr:stedsnr" v="345808" />
	</node>
	<node id="-265361" lat="60.3297888914" lon="11.2458638822">
		<tag k="name" v="Holsevja" />
		<tag k="natural" v="bay" />
		<tag k="ssr:stedsnr" v="119413" />
	</node>
	<node id="-264547" lat="60.2881361141" lon="11.1548388971">
		<tag k="name" v="Martiniustjennet" />
>>>>>>> e1d4bc35ff8a6074a6f2e91616a996b547c36f15
		<tag k="natural" v="water" />
		<tag k="ssr:stedsnr" v="6494" />
	</node>
<<<<<<< HEAD
	<node lat="60.3180194446346" lon="11.270841658291333" id="-12781">
		<tag k="name" v="Verdens ende" />
		<tag k="natural" v="cape" />
		<tag k="ssr:stedsnr" v="239474" />
	</node>
	<node lat="60.33995555762179" lon="11.156933329167831" id="-12788">
		<tag k="name" v="Sjøtangen" />
		<tag k="natural" v="cape" />
		<tag k="ssr:stedsnr" v="57883" />
	</node>
	<node lat="60.49415278212607" lon="11.165497231031008" id="-12791">
		<tag k="name" v="Flesvika" />
=======
	<node id="-265569" lat="60.3233861101" lon="11.3940027705">
		<tag k="name" v="Settungen" />
		<tag k="natural" v="water" />
		<tag k="ssr:stedsnr" v="361000" />
		<tag k="water" v="lake" />
	</node>
	<node id="-265567" lat="60.3720166671" lon="11.2281277767">
		<tag k="name" v="Julsruddalsevja" />
>>>>>>> e1d4bc35ff8a6074a6f2e91616a996b547c36f15
		<tag k="natural" v="bay" />
		<tag k="ssr:stedsnr" v="58415" />
	</node>
<<<<<<< HEAD
	<node lat="60.24215277738969" lon="11.204249996841284" id="-12808">
		<tag k="name" v="Gudmundsbekken" />
		<tag k="ssr:stedsnr" v="241263" />
		<tag k="waterway" v="stream" />
	</node>
	<node lat="60.39380277756021" lon="11.140294448039661" id="-12819">
		<tag k="name" v="Tasketjennet" />
		<tag k="natural" v="water" />
		<tag k="ssr:stedsnr" v="67001" />
	</node>
	<node lat="60.45348333734922" lon="11.126455548322362" id="-12823">
		<tag k="alt_name" v="Søndre Morttjenn" />
		<tag k="name" v="Søndre Morttjennet" />
		<tag k="natural" v="water" />
		<tag k="ssr:stedsnr" v="67439" />
	</node>
	<node lat="60.43457499878701" lon="11.133805546540216" id="-12861">
		<tag k="name" v="Tommesjøen" />
		<tag k="natural" v="water" />
		<tag k="ssr:stedsnr" v="249480" />
	</node>
	<node lat="60.54611389145557" lon="11.11739721776418" id="-12863">
		<tag k="name" v="Langtjennet" />
=======
	<node id="-264801" lat="60.3760722234" lon="11.3356777811">
		<tag k="name" v="Sjøbotn" />
		<tag k="natural" v="bay" />
		<tag k="ssr:stedsnr" v="480778" />
	</node>
	<node id="-266077" lat="60.5547249983" lon="11.1073083293">
		<tag k="name" v="Fallabekken" />
		<tag k="ssr:stedsnr" v="950962" />
		<tag k="waterway" v="stream" />
	</node>
	<node id="-265051" lat="60.5095305552" lon="11.1488361188">
		<tag k="name" v="Sandbekken" />
		<tag k="ssr:stedsnr" v="725303" />
		<tag k="waterway" v="stream" />
	</node>
	<node id="-266074" lat="60.4404250044" lon="11.1350999965">
		<tag k="name" v="Agavatnet" />
		<tag k="natural" v="water" />
		<tag k="ssr:stedsnr" v="856527" />
	</node>
	<node id="-266073" lat="60.4709333316" lon="11.1810333388">
		<tag k="name" v="Ekornholmen" />
		<tag k="place" v="islet" />
		<tag k="ssr:stedsnr" v="856481" />
	</node>
	<node id="-265047" lat="60.3865999991" lon="11.2337527802">
		<tag k="name" v="Dytterudbekken" />
		<tag k="ssr:stedsnr" v="723962" />
		<tag k="waterway" v="stream" />
	</node>
	<node id="-264534" lat="60.4237589795" lon="11.3569062115">
		<tag k="alt_name" v="Holsjøen, nordre;Nordre Holsjø" />
		<tag k="loc_name" v="Øvre Holsjøen" />
		<tag k="name" v="Nordre Holsjøen" />
>>>>>>> e1d4bc35ff8a6074a6f2e91616a996b547c36f15
		<tag k="natural" v="water" />
		<tag k="ssr:stedsnr" v="250398" />
	</node>
<<<<<<< HEAD
	<node lat="60.32978889137279" lon="11.245863882209546" id="-12871">
		<tag k="name" v="Holsevja" />
		<tag k="natural" v="bay" />
		<tag k="ssr:stedsnr" v="119413" />
	</node>
	<node lat="60.298416667764606" lon="11.293027780137367" id="-12874">
		<tag k="name" v="Sagåa" />
		<tag k="natural" v="bay" />
		<tag k="ssr:stedsnr" v="119722" />
	</node>
	<node lat="60.303602779665" lon="11.295980552767091" id="-12875">
		<tag k="name" v="Jondalsåa" />
		<tag k="ssr:stedsnr" v="119725" />
		<tag k="waterway" v="river" />
	</node>
	<node lat="60.2955805513223" lon="11.292866666213884" id="-12876">
		<tag k="name" v="Langåa" />
		<tag k="natural" v="bay" />
		<tag k="ssr:stedsnr" v="119726" />
	</node>
	<node lat="60.27308055577873" lon="11.277166670045668" id="-12882">
=======
	<node id="-265044" lat="60.3830222251" lon="11.2472416627">
		<tag k="name" v="Vesleelva" />
		<tag k="natural" v="strait" />
		<tag k="ssr:stedsnr" v="723954" />
	</node>
	<node id="-265553" lat="60.2844916662" lon="11.1313361025">
		<tag k="name" v="Skjul" />
		<tag k="place" v="islet" />
		<tag k="ssr:stedsnr" v="345499" />
	</node>
	<node id="-264528" lat="60.2730805558" lon="11.27716667">
>>>>>>> e1d4bc35ff8a6074a6f2e91616a996b547c36f15
		<tag k="alt_name" v="Dølitjennet" />
		<tag k="name" v="Dølitjenn" />
		<tag k="natural" v="water" />
		<tag k="ssr:stedsnr" v="127208" />
	</node>
<<<<<<< HEAD
	<node lat="60.31815833697389" lon="11.11820000418836" id="-12887">
		<tag k="name" v="Larsvika" />
		<tag k="natural" v="bay" />
		<tag k="ssr:stedsnr" v="127144" />
	</node>
	<node lat="60.45779166594904" lon="11.119900005538307" id="-12891">
		<tag k="alt_name" v="Nordre Morttjenn" />
		<tag k="name" v="Nordre Morttjennet" />
		<tag k="natural" v="water" />
		<tag k="ssr:stedsnr" v="127449" />
	</node>
	<node lat="60.42375897945322" lon="11.356906211496847" id="-12893">
		<tag k="alt_name" v="Holsjøen, nordre;Nordre Holsjø" />
		<tag k="loc_name" v="Øvre Holsjøen" />
		<tag k="name" v="Nordre Holsjøen" />
=======
	<node id="-264832" lat="60.369036113" lon="11.1621944381">
		<tag k="alt_name" v="Kampetjennet" />
		<tag k="name" v="Kampetjenn" />
		<tag k="natural" v="water" />
		<tag k="ssr:stedsnr" v="674044" />
	</node>
	<node id="-264759" lat="60.4616249955" lon="11.3182722304">
		<tag k="name" v="Digerauget" />
		<tag k="natural" v="water" />
		<tag k="ssr:stedsnr" v="431439" />
	</node>
	<node id="-265030" lat="60.2953805558" lon="11.1301083311">
		<tag k="name" v="Staviåstjennet" />
		<tag k="natural" v="water" />
		<tag k="ssr:stedsnr" v="891569" />
	</node>
	<node id="-264514" lat="60.5461138915" lon="11.1173972178">
		<tag k="name" v="Langtjennet" />
>>>>>>> e1d4bc35ff8a6074a6f2e91616a996b547c36f15
		<tag k="natural" v="water" />
		<tag k="ssr:stedsnr" v="127520" />
		<tag k="water" v="lake" />
	</node>
<<<<<<< HEAD
	<node lat="60.42149444649286" lon="11.288302771763695" id="-12894">
		<tag k="name" v="Fløyta" />
		<tag k="natural" v="water" />
		<tag k="ssr:stedsnr" v="127545" />
		<tag k="water" v="lake" />
	</node>
	<node lat="60.38618333390249" lon="11.393586114761746" id="-12911">
		<tag k="name" v="Tretjenna" />
=======
	<node id="-264513" lat="60.4345749988" lon="11.1338055465">
		<tag k="name" v="Tommesjøen" />
		<tag k="natural" v="water" />
		<tag k="ssr:stedsnr" v="249480" />
	</node>
	<node id="-265024" lat="60.3707722205" lon="11.2101027726">
		<tag k="name" v="Tømtebekken" />
		<tag k="ssr:stedsnr" v="890865" />
		<tag k="waterway" v="stream" />
	</node>
	<node id="-265533" lat="60.512711111" lon="11.15465278">
		<tag k="name" v="Sandbekken" />
		<tag k="ssr:stedsnr" v="310501" />
		<tag k="waterway" v="stream" />
	</node>
	<node id="-265530" lat="60.4368527742" lon="11.1519944354">
		<tag k="alt_name" v="Byua, store" />
		<tag k="name" v="Store Byua" />
>>>>>>> e1d4bc35ff8a6074a6f2e91616a996b547c36f15
		<tag k="natural" v="water" />
		<tag k="ssr:stedsnr" v="168171" />
		<tag k="water" v="lake" />
	</node>
<<<<<<< HEAD
	<node lat="60.5094897456344" lon="11.152466961595682" id="-12912">
		<tag k="name" v="Stutjennet" />
=======
	<node id="-265529" lat="60.4375249981" lon="11.3489750069">
		<tag k="name" v="Raudvatnet" />
>>>>>>> e1d4bc35ff8a6074a6f2e91616a996b547c36f15
		<tag k="natural" v="water" />
		<tag k="ssr:stedsnr" v="179320" />
	</node>
<<<<<<< HEAD
	<node lat="60.29020277995289" lon="11.316047229754364" id="-12927">
		<tag k="name" v="Frilsettjennet" />
=======
	<node id="-266040" lat="60.5162138923" lon="11.1173944484">
		<tag k="name" v="Støputten" />
>>>>>>> e1d4bc35ff8a6074a6f2e91616a996b547c36f15
		<tag k="natural" v="water" />
		<tag k="ssr:stedsnr" v="188206" />
	</node>
<<<<<<< HEAD
	<node lat="60.34088333678603" lon="11.378069443844977" id="-12932">
		<tag k="alt_name" v="Tretjennet" />
		<tag k="name" v="Tretjenn" />
=======
	<node id="-265015" lat="60.3602999986" lon="11.3417472223">
		<tag k="name" v="Fosstjennet" />
>>>>>>> e1d4bc35ff8a6074a6f2e91616a996b547c36f15
		<tag k="natural" v="water" />
		<tag k="ssr:stedsnr" v="188118" />
	</node>
<<<<<<< HEAD
	<node lat="60.47817778126305" lon="11.266250005351544" id="-12940">
		<tag k="name" v="Ulvintjenn" />
		<tag k="natural" v="water" />
		<tag k="ssr:stedsnr" v="188472" />
	</node>
	<node lat="60.34660277473668" lon="11.322213888023551" id="-12943">
		<tag k="name" v="Fløyta" />
=======
	<node id="-265012" lat="60.5325888883" lon="11.1708888861">
		<tag k="name" v="Torgunrudelva" />
		<tag k="ssr:stedsnr" v="675506" />
		<tag k="waterway" v="stream" />
	</node>
	<node id="-265011" lat="60.5452416662" lon="11.1381833337">
		<tag k="name" v="Holmtjennet" />
>>>>>>> e1d4bc35ff8a6074a6f2e91616a996b547c36f15
		<tag k="natural" v="water" />
		<tag k="ssr:stedsnr" v="188703" />
		<tag k="water" v="lake" />
	</node>
<<<<<<< HEAD
	<node lat="60.30880555811249" lon="11.27970833453399" id="-12953">
		<tag k="name" v="Nordtangen" />
		<tag k="natural" v="cape" />
		<tag k="ssr:stedsnr" v="223332" />
	</node>
	<node lat="60.29723888862098" lon="11.189172219503304" id="-12977">
		<tag k="name" v="Venjarfossen" />
		<tag k="natural" v="waterfall" />
		<tag k="ssr:stedsnr" v="241685" />
	</node>
	<node lat="60.36417500427369" lon="11.38858056260804" id="-12982">
=======
	<node id="-266034" lat="60.2817166672" lon="11.1121611102">
		<tag k="name" v="Kuodden" />
		<tag k="place" v="islet" />
		<tag k="ssr:stedsnr" v="844791" />
	</node>
	<node id="-265520" lat="60.2956277794" lon="11.1174027735">
		<tag k="name" v="Nordre Kvernvika" />
		<tag k="natural" v="bay" />
		<tag k="ssr:stedsnr" v="309944" />
	</node>
	<node id="-264493" lat="60.3641750043" lon="11.3885805626">
>>>>>>> e1d4bc35ff8a6074a6f2e91616a996b547c36f15
		<tag k="alt_name" v="Rundtjennet" />
		<tag k="name" v="Rundtjenn" />
		<tag k="natural" v="water" />
		<tag k="ssr:stedsnr" v="248067" />
	</node>
<<<<<<< HEAD
	<node lat="60.30896944574493" lon="11.279013894893643" id="-12992">
		<tag k="name" v="Strandsevja" />
		<tag k="natural" v="bay" />
		<tag k="ssr:stedsnr" v="284323" />
	</node>
	<node lat="60.30952500397662" lon="11.284772215547298" id="-12993">
		<tag k="name" v="Vålerevja" />
		<tag k="natural" v="bay" />
		<tag k="ssr:stedsnr" v="284324" />
	</node>
	<node lat="60.29868333386973" lon="11.186083330634956" id="-13012">
		<tag k="name" v="Eivindsvika" />
		<tag k="natural" v="bay" />
		<tag k="ssr:stedsnr" v="301688" />
	</node>
	<node lat="60.51271111100123" lon="11.154652779959386" id="-13042">
		<tag k="name" v="Sandbekken" />
		<tag k="ssr:stedsnr" v="310501" />
		<tag k="waterway" v="stream" />
	</node>
	<node lat="60.39393055265002" lon="11.233091674432638" id="-13066">
		<tag k="name" v="Minnevika" />
=======
	<node id="-265004" lat="60.5014777773" lon="11.1679722143">
		<tag k="name" v="Nygårdsbekken" />
		<tag k="ssr:stedsnr" v="664305" />
		<tag k="waterway" v="stream" />
	</node>
	<node id="-265010" lat="60.2892749985" lon="11.1812750044">
		<tag k="name" v="Mobekken" />
		<tag k="ssr:stedsnr" v="674177" />
		<tag k="waterway" v="stream" />
	</node>
	<node id="-265001" lat="60.5165333314" lon="11.1193666735">
		<tag k="name" v="Flesvikelva" />
		<tag k="ssr:stedsnr" v="735479" />
		<tag k="waterway" v="stream" />
	</node>
	<node id="-264412" lat="60.437911109" lon="11.2477611158">
		<tag k="name" v="Dalsrudbekken" />
		<tag k="ssr:stedsnr" v="224520" />
		<tag k="waterway" v="stream" />
	</node>
	<node id="-266022" lat="60.2849027745" lon="11.1134166658">
		<tag k="name" v="Vadraget" />
>>>>>>> e1d4bc35ff8a6074a6f2e91616a996b547c36f15
		<tag k="natural" v="bay" />
		<tag k="ssr:stedsnr" v="345808" />
	</node>
<<<<<<< HEAD
	<node lat="60.346149997122644" lon="11.106105553120374" id="-13076">
		<tag k="name" v="Skillebekken" />
		<tag k="old_name" v="Snøplogbekken" />
		<tag k="ssr:stedsnr" v="479083" />
		<tag k="waterway" v="stream" />
	</node>
	<node lat="60.39324999843737" lon="11.19050555863625" id="-13078">
		<tag k="alt_name" v="Stensbyåa" />
		<tag k="name" v="Stensbyelva" />
		<tag k="ssr:stedsnr" v="370040" />
		<tag k="waterway" v="stream" />
	</node>
	<node lat="60.37756110922858" lon="11.206180562010537" id="-13079">
		<tag k="name" v="Julsrudåa" />
		<tag k="ssr:stedsnr" v="370042" />
		<tag k="waterway" v="stream" />
	</node>
	<node lat="60.37841389061893" lon="11.398924998699451" id="-13081">
		<tag k="name" v="Larsputten" />
=======
	<node id="-266020" lat="60.2958222262" lon="11.1637777825">
		<tag k="name" v="Perssvingen" />
		<tag k="place" v="locality" />
		<tag k="ssr:stedsnr" v="831509" />
	</node>
	<node id="-266015" lat="60.3057166651" lon="11.2061055535">
		<tag k="name" v="Nesfossen" />
		<tag k="natural" v="waterfall" />
		<tag k="ssr:stedsnr" v="830275" />
	</node>
	<node id="-264478" lat="60.3938027776" lon="11.140294448">
		<tag k="name" v="Tasketjennet" />
		<tag k="natural" v="water" />
		<tag k="ssr:stedsnr" v="67001" />
	</node>
	<node id="-265093" lat="60.3164777793" lon="11.3395305636">
		<tag k="alt_name" v="Lomtjennet" />
		<tag k="name" v="Lomtjenn" />
		<tag k="natural" v="water" />
		<tag k="ssr:stedsnr" v="916139" />
	</node>
	<node id="-266011" lat="60.3575388898" lon="11.1004416718">
		<tag k="name" v="Elgputten" />
>>>>>>> e1d4bc35ff8a6074a6f2e91616a996b547c36f15
		<tag k="natural" v="water" />
		<tag k="ssr:stedsnr" v="370046" />
	</node>
<<<<<<< HEAD
	<node lat="60.36803889020866" lon="11.387991667010978" id="-13083">
		<tag k="alt_name" v="Benketjennet" />
		<tag k="name" v="Benketjenn" />
		<tag k="natural" v="water" />
		<tag k="ssr:stedsnr" v="370066" />
	</node>
	<node lat="60.262569442041524" lon="11.171019452115296" id="-13088">
		<tag k="name" v="Køla" />
=======
	<node id="-264470" lat="60.2972388886" lon="11.1891722195">
		<tag k="name" v="Venjarfossen" />
		<tag k="natural" v="waterfall" />
		<tag k="ssr:stedsnr" v="241685" />
	</node>
	<node id="-264981" lat="60.2651713339" lon="11.1941536403">
		<tag k="alt_name" v="Huldretjenn" />
		<tag k="name" v="Huldertjennet" />
>>>>>>> e1d4bc35ff8a6074a6f2e91616a996b547c36f15
		<tag k="natural" v="water" />
		<tag k="ssr:stedsnr" v="479791" />
	</node>
<<<<<<< HEAD
	<node lat="60.37607222344328" lon="11.33567778107177" id="-13091">
		<tag k="name" v="Sjøbotn" />
=======
	<node id="-265492" lat="60.2986833339" lon="11.1860833306">
		<tag k="name" v="Eivindsvika" />
>>>>>>> e1d4bc35ff8a6074a6f2e91616a996b547c36f15
		<tag k="natural" v="bay" />
		<tag k="ssr:stedsnr" v="480778" />
	</node>
<<<<<<< HEAD
	<node lat="60.27617777723015" lon="11.119925003947275" id="-13111">
		<tag k="name" v="Bergersumpa" />
		<tag k="natural" v="bay" />
		<tag k="ssr:stedsnr" v="419788" />
	</node>
	<node lat="60.30950000109921" lon="11.391149999146887" id="-13126">
		<tag k="alt_name" v="Svartpytt, østre;Østre Svartputten" />
		<tag k="name" v="Østre Svartpytt" />
		<tag k="natural" v="water" />
		<tag k="ssr:stedsnr" v="491156" />
	</node>
	<node lat="60.480638891947294" lon="11.195405555401956" id="-13133">
		<tag k="name" v="Mjøsa" />
=======
	<node id="-264489" lat="60.5112583379" lon="11.0979083301">
		<tag k="name" v="Åstjennet" />
		<tag k="natural" v="water" />
		<tag k="ssr:stedsnr" v="67532" />
	</node>
	<node id="-266000" lat="60.354408332" lon="11.340691663">
		<tag k="name" v="Rennåa" />
		<tag k="ssr:stedsnr" v="829016" />
		<tag k="waterway" v="river" />
	</node>
	<node id="-265485" lat="60.3466027747" lon="11.322213888">
		<tag k="name" v="Fløyta" />
>>>>>>> e1d4bc35ff8a6074a6f2e91616a996b547c36f15
		<tag k="natural" v="water" />
		<tag k="ssr:stedsnr" v="431452" />
		<tag k="water" v="lake" />
	</node>
<<<<<<< HEAD
	<node lat="60.397311114704706" lon="11.236425007447403" id="-13145">
		<tag k="name" v="Minnesund" />
		<tag k="natural" v="strait" />
		<tag k="ssr:stedsnr" v="673030" />
	</node>
	<node lat="60.49649999659624" lon="11.168955563309863" id="-13150">
		<tag k="alt_name" v="Kalbråttåvika" />
		<tag k="name" v="Kalvbråtavika" />
		<tag k="natural" v="bay" />
		<tag k="ssr:stedsnr" v="673415" />
	</node>
	<node lat="60.41344999591831" lon="11.13728055571457" id="-13152">
		<tag k="name" v="Lyngholmen" />
		<tag k="place" v="islet" />
		<tag k="ssr:stedsnr" v="673488" />
	</node>
	<node lat="60.47268055375591" lon="11.116700002311033" id="-13156">
		<tag k="name" v="Høgdeputten" />
=======
	<node id="-265483" lat="60.5240888891" lon="11.1315583411">
		<tag k="name" v="Offsettjennet" />
		<tag k="natural" v="water" />
		<tag k="ssr:stedsnr" v="188546" />
	</node>
	<node id="-264969" lat="60.3724027742" lon="11.3200305643">
		<tag k="name" v="Ørkyttjennet" />
		<tag k="natural" v="water" />
		<tag k="ssr:stedsnr" v="734062" />
	</node>
	<node id="-265480" lat="60.4781777813" lon="11.2662500054">
		<tag k="name" v="Ulvintjenn" />
>>>>>>> e1d4bc35ff8a6074a6f2e91616a996b547c36f15
		<tag k="natural" v="water" />
		<tag k="ssr:stedsnr" v="673439" />
	</node>
<<<<<<< HEAD
	<node lat="60.36903611301408" lon="11.162194438087377" id="-13158">
		<tag k="alt_name" v="Kampetjennet" />
		<tag k="name" v="Kampetjenn" />
=======
	<node id="-264967" lat="60.3690111119" lon="11.1741444451">
		<tag k="name" v="Gørstadtjennet" />
>>>>>>> e1d4bc35ff8a6074a6f2e91616a996b547c36f15
		<tag k="natural" v="water" />
		<tag k="ssr:stedsnr" v="674044" />
	</node>
<<<<<<< HEAD
	<node lat="60.28927499846865" lon="11.181275004413104" id="-13165">
		<tag k="name" v="Mobekken" />
		<tag k="ssr:stedsnr" v="674177" />
		<tag k="waterway" v="stream" />
	</node>
	<node lat="60.5127472207585" lon="11.108261111278527" id="-13167">
		<tag k="name" v="Bjørntjennet" />
		<tag k="natural" v="water" />
		<tag k="ssr:stedsnr" v="674494" />
	</node>
	<node lat="60.28282499878021" lon="11.123738890357354" id="-13175">
		<tag k="name" v="Veslesundet" />
		<tag k="natural" v="strait" />
		<tag k="ssr:stedsnr" v="466581" />
	</node>
	<node lat="60.40183055544232" lon="11.278841667372792" id="-13177">
		<tag k="loc_name" v="Lya" />
		<tag k="name" v="Holtåa" />
		<tag k="ssr:stedsnr" v="466880" />
		<tag k="waterway" v="river" />
	</node>
	<node lat="60.49447222484116" lon="11.16752221859843" id="-13184">
		<tag k="name" v="Bærtangen" />
=======
	<node id="-264966" lat="60.3669000046" lon="11.117780552">
		<tag k="name" v="Djuptjenn" />
		<tag k="natural" v="water" />
		<tag k="ssr:stedsnr" v="734053" />
	</node>
	<node id="-265989" lat="60.4241111133" lon="11.2744750047">
		<tag k="name" v="Holtsjøen" />
		<tag k="natural" v="water" />
		<tag k="ssr:stedsnr" v="795544" />
		<tag k="water" v="lake" />
	</node>
	<node id="-265476" lat="60.2621527778" lon="11.277330555">
		<tag k="alt_name" v="Borstadtjennet" />
		<tag k="name" v="Bårstadtjennet" />
		<tag k="natural" v="water" />
		<tag k="ssr:stedsnr" v="188237" />
	</node>
	<node id="-264450" lat="60.3180194446" lon="11.2708416583">
		<tag k="name" v="Verdens ende" />
>>>>>>> e1d4bc35ff8a6074a6f2e91616a996b547c36f15
		<tag k="natural" v="cape" />
		<tag k="ssr:stedsnr" v="482377" />
	</node>
<<<<<<< HEAD
	<node lat="60.41001944632951" lon="11.29421666493183" id="-13203">
		<tag k="name" v="Djupdalsbekken" />
		<tag k="ssr:stedsnr" v="505976" />
		<tag k="waterway" v="stream" />
	</node>
	<node lat="60.40117499816794" lon="11.360388894157099" id="-13214">
		<tag k="name" v="Åa" />
		<tag k="ssr:stedsnr" v="527872" />
		<tag k="waterway" v="river" />
	</node>
	<node lat="60.3849194483828" lon="11.253433335590277" id="-13220">
		<tag k="name" v="Lynesdalsevja" />
=======
	<node id="-265984" lat="60.4581999964" lon="11.3286861098">
		<tag k="name" v="Ottbekken" />
		<tag k="ssr:stedsnr" v="795475" />
		<tag k="waterway" v="stream" />
	</node>
	<node id="-265471" lat="60.29020278" lon="11.3160472298">
		<tag k="name" v="Frilsettjennet" />
		<tag k="natural" v="water" />
		<tag k="ssr:stedsnr" v="188206" />
	</node>
	<node id="-264957" lat="60.4579222236" lon="11.3381333386">
		<tag k="name" v="Durålvika" />
>>>>>>> e1d4bc35ff8a6074a6f2e91616a996b547c36f15
		<tag k="natural" v="bay" />
		<tag k="ssr:stedsnr" v="540963" />
	</node>
<<<<<<< HEAD
	<node lat="60.37493611318682" lon="11.250441669910924" id="-13223">
		<tag k="name" v="Smørtynnevja" />
		<tag k="natural" v="bay" />
		<tag k="ssr:stedsnr" v="540974" />
	</node>
	<node lat="60.317330558424935" lon="11.345080554923362" id="-13245">
		<tag k="alt_name" v="Setertjennet" />
		<tag k="name" v="Setertjenn" />
=======
	<node id="-265980" lat="60.330030557" lon="11.3268416649">
		<tag k="name" v="Jønsjøen" />
>>>>>>> e1d4bc35ff8a6074a6f2e91616a996b547c36f15
		<tag k="natural" v="water" />
		<tag k="ssr:stedsnr" v="552137" />
	</node>
<<<<<<< HEAD
	<node lat="60.44237500310792" lon="11.14377500547315" id="-13247">
		<tag k="alt_name" v="Byua, vesle" />
		<tag k="name" v="Vesle Byua" />
=======
	<node id="-265979" lat="60.3445777789" lon="11.3516222137">
		<tag k="alt_name" v="Rautjennet" />
		<tag k="name" v="Raudtjenn" />
>>>>>>> e1d4bc35ff8a6074a6f2e91616a996b547c36f15
		<tag k="natural" v="water" />
		<tag k="ssr:stedsnr" v="552519" />
	</node>
<<<<<<< HEAD
	<node lat="60.44070000317188" lon="11.357283331427949" id="-13248">
		<tag k="fixme" v="multiple name tags, choose one and add the other to alt_name" />
		<tag k="name" v="Røyvatnet;Vesle Raudvatnet" />
		<tag k="natural" v="water" />
		<tag k="ssr:stedsnr" v="552530" />
	</node>
	<node lat="60.303761114759666" lon="11.11703610751366" id="-13249">
		<tag k="name" v="Brennbergodden" />
		<tag k="natural" v="cape" />
		<tag k="ssr:stedsnr" v="565993" />
	</node>
	<node lat="60.35716944698831" lon="11.10790555976145" id="-13257">
		<tag k="name" v="Linbroktjennet" />
=======
	<node id="-264953" lat="60.4795944428" lon="11.2574194355">
		<tag k="name" v="Ulvinbekken" />
		<tag k="ssr:stedsnr" v="726288" />
		<tag k="waterway" v="stream" />
	</node>
	<node id="-265462" lat="60.3412888876" lon="11.149574998">
		<tag k="name" v="Parisbekken" />
		<tag k="ssr:stedsnr" v="188131" />
		<tag k="waterway" v="stream" />
	</node>
	<node id="-265461" lat="60.3408833368" lon="11.3780694438">
		<tag k="alt_name" v="Tretjennet" />
		<tag k="name" v="Tretjenn" />
>>>>>>> e1d4bc35ff8a6074a6f2e91616a996b547c36f15
		<tag k="natural" v="water" />
		<tag k="ssr:stedsnr" v="586243" />
	</node>
<<<<<<< HEAD
	<node lat="60.368994440282115" lon="11.12239722421455" id="-13258">
		<tag k="name" v="Buksetjennet" />
=======
	<node id="-264539" lat="60.5388305587" lon="11.1764694474">
		<tag k="name" v="Skautjennet" />
		<tag k="natural" v="water" />
		<tag k="ssr:stedsnr" v="161023" />
	</node>
	<node id="-265966" lat="60.3948999963" lon="11.3289750061">
		<tag k="name" v="Svartputten" />
>>>>>>> e1d4bc35ff8a6074a6f2e91616a996b547c36f15
		<tag k="natural" v="water" />
		<tag k="ssr:stedsnr" v="586251" />
	</node>
<<<<<<< HEAD
	<node lat="60.46236111426453" lon="11.296344452318152" id="-13274">
		<tag k="name" v="Lysjødammen" />
		<tag k="ssr:stedsnr" v="603387" />
		<tag k="waterway" v="dam" />
	</node>
	<node lat="60.474491664873774" lon="11.2834277815109" id="-13275">
		<tag k="name" v="Skrårudseterbekken" />
		<tag k="ssr:stedsnr" v="603389" />
		<tag k="waterway" v="stream" />
	</node>
	<node lat="60.32794722587963" lon="11.262747215485284" id="-13280">
		<tag k="name" v="Sundevja" />
		<tag k="natural" v="bay" />
		<tag k="ssr:stedsnr" v="604401" />
	</node>
	<node lat="60.40289999921836" lon="11.334894448970157" id="-13287">
=======
	<node id="-264423" lat="60.3961222223" lon="11.2448611091">
		<tag k="name" v="Toftnesevja" />
		<tag k="natural" v="bay" />
		<tag k="ssr:stedsnr" v="224817" />
	</node>
	<node id="-264934" lat="60.2830527819" lon="11.1779305526">
		<tag k="name" v="Kjeldalsbekken" />
		<tag k="ssr:stedsnr" v="722819" />
		<tag k="waterway" v="stream" />
	</node>
	<node id="-264419" lat="60.4436305521" lon="11.1207583357">
		<tag k="name" v="Brustadsetervika" />
		<tag k="natural" v="bay" />
		<tag k="ssr:stedsnr" v="224711" />
	</node>
	<node id="-264415" lat="60.2872638859" lon="11.1197916654">
		<tag k="name" v="Bukkeskjærene" />
		<tag k="place" v="islet" />
		<tag k="ssr:stedsnr" v="224531" />
	</node>
	<node id="-265791" lat="60.3689944403" lon="11.1223972242">
		<tag k="name" v="Buksetjennet" />
		<tag k="natural" v="water" />
		<tag k="ssr:stedsnr" v="586251" />
	</node>
	<node id="-264924" lat="60.4028999992" lon="11.334894449">
>>>>>>> e1d4bc35ff8a6074a6f2e91616a996b547c36f15
		<tag k="alt_name" v="Rumpetjennet" />
		<tag k="name" v="Rumpetjenn" />
		<tag k="natural" v="water" />
		<tag k="ssr:stedsnr" v="612013" />
	</node>
<<<<<<< HEAD
	<node lat="60.41670833750174" lon="11.177291672993533" id="-13295">
		<tag k="name" v="Himtjenn" />
=======
	<node id="-265947" lat="60.4638861114" lon="11.3030027687">
		<tag k="name" v="Pinnfellvika" />
		<tag k="natural" v="bay" />
		<tag k="ssr:stedsnr" v="786900" />
	</node>
	<node id="-265433" lat="60.5094897456" lon="11.1524669616">
		<tag k="name" v="Stutjennet" />
>>>>>>> e1d4bc35ff8a6074a6f2e91616a996b547c36f15
		<tag k="natural" v="water" />
		<tag k="ssr:stedsnr" v="612520" />
	</node>
<<<<<<< HEAD
	<node lat="60.43137777615351" lon="11.264900006346625" id="-13305">
		<tag k="name" v="Helgelitjennet" />
		<tag k="natural" v="water" />
		<tag k="ssr:stedsnr" v="613497" />
	</node>
	<node lat="60.30334721898967" lon="11.172766672869857" id="-13315">
		<tag k="name" v="Sumpen" />
		<tag k="natural" v="water" />
		<tag k="ssr:stedsnr" v="648607" />
		<tag k="water" v="lake" />
	</node>
	<node lat="60.40191389063998" lon="11.149669437072106" id="-13321">
		<tag k="name" v="Henriksputten" />
=======
	<node id="-265943" lat="60.5082027779" lon="11.1331750026">
		<tag k="name" v="Åtjenn" />
		<tag k="natural" v="water" />
		<tag k="ssr:stedsnr" v="786311" />
	</node>
	<node id="-264917" lat="60.3279472259" lon="11.2627472155">
		<tag k="name" v="Sundevja" />
		<tag k="natural" v="bay" />
		<tag k="ssr:stedsnr" v="604401" />
	</node>
	<node id="-265427" lat="60.2797499958" lon="11.1166111081">
		<tag k="name" v="Bergersundet" />
		<tag k="natural" v="strait" />
		<tag k="ssr:stedsnr" v="176782" />
	</node>
	<node id="-264538" lat="60.5295111146" lon="11.1546444515">
		<tag k="name" v="Kolltjennet" />
		<tag k="natural" v="water" />
		<tag k="ssr:stedsnr" v="161022" />
	</node>
	<node id="-265936" lat="60.3867222219" lon="11.1933833257">
		<tag k="name" v="Stensbydammen" />
>>>>>>> e1d4bc35ff8a6074a6f2e91616a996b547c36f15
		<tag k="natural" v="water" />
		<tag k="ssr:stedsnr" v="648838" />
		<tag k="water" v="pond" />
	</node>
<<<<<<< HEAD
	<node lat="60.52208611167403" lon="11.138824991651784" id="-13322">
		<tag k="name" v="Svartputten" />
		<tag k="natural" v="water" />
		<tag k="ssr:stedsnr" v="708033" />
	</node>
	<node lat="60.385322226305455" lon="11.183016664298309" id="-13331">
		<tag k="name" v="Breibekken" />
		<tag k="ssr:stedsnr" v="662981" />
		<tag k="waterway" v="stream" />
	</node>
	<node lat="60.38695278189833" lon="11.180530556344692" id="-13333">
		<tag k="name" v="Gruvebekken" />
		<tag k="ssr:stedsnr" v="662991" />
		<tag k="waterway" v="stream" />
	</node>
	<node lat="60.29073333066877" lon="11.137549990816218" id="-13335">
		<tag k="name" v="Langholmen" />
		<tag k="place" v="islet" />
		<tag k="ssr:stedsnr" v="709549" />
	</node>
	<node lat="60.50147777728042" lon="11.167972214344674" id="-13341">
		<tag k="name" v="Nygårdsbekken" />
		<tag k="ssr:stedsnr" v="664305" />
		<tag k="waterway" v="stream" />
	</node>
	<node lat="60.33682777707426" lon="11.314677780053842" id="-13353">
		<tag k="name" v="Vidtjennet" />
=======
	<node id="-264568" lat="60.3089694457" lon="11.2790138949">
		<tag k="name" v="Strandsevja" />
		<tag k="natural" v="bay" />
		<tag k="ssr:stedsnr" v="284323" />
	</node>
	<node id="-265422" lat="60.3861833339" lon="11.3935861148">
		<tag k="name" v="Tretjenna" />
		<tag k="natural" v="water" />
		<tag k="ssr:stedsnr" v="168171" />
		<tag k="water" v="lake" />
	</node>
	<node id="-264396" lat="60.5878166653" lon="11.1224111062">
		<tag k="name" v="Sikkelibekken" />
		<tag k="ssr:stedsnr" v="221938" />
		<tag k="waterway" v="stream" />
	</node>
	<node id="-265928" lat="60.405961108" lon="11.1477027764">
		<tag k="name" v="Fløyta" />
		<tag k="natural" v="water" />
		<tag k="ssr:stedsnr" v="770826" />
	</node>
	<node id="-265412" lat="60.4580833335" lon="11.2948249928">
		<tag k="name" v="Lysjøåa" />
		<tag k="ssr:stedsnr" v="163690" />
		<tag k="waterway" v="river" />
	</node>
	<node id="-264822" lat="60.4726805538" lon="11.1167000023">
		<tag k="name" v="Høgdeputten" />
		<tag k="natural" v="water" />
		<tag k="ssr:stedsnr" v="673439" />
	</node>
	<node id="-265922" lat="60.354502777" lon="11.099863892">
		<tag k="name" v="Totjennsbekken" />
		<tag k="ssr:stedsnr" v="770542" />
		<tag k="waterway" v="stream" />
	</node>
	<node id="-264991" lat="60.4737472219" lon="11.1082944444">
		<tag k="name" v="Brågåtjenna" />
		<tag k="natural" v="water" />
		<tag k="ssr:stedsnr" v="734459" />
		<tag k="water" v="lake" />
	</node>
	<node id="-265400" lat="60.4327500015" lon="11.3405527745">
		<tag k="name" v="Putten" />
>>>>>>> e1d4bc35ff8a6074a6f2e91616a996b547c36f15
		<tag k="natural" v="water" />
		<tag k="ssr:stedsnr" v="673114" />
	</node>
<<<<<<< HEAD
	<node lat="60.37077222050901" lon="11.210102772578356" id="-13354">
		<tag k="name" v="Tømtebekken" />
		<tag k="ssr:stedsnr" v="890865" />
		<tag k="waterway" v="stream" />
	</node>
	<node lat="60.41715277496611" lon="11.159322224417576" id="-13357">
		<tag k="name" v="Rynestjenn" />
=======
	<node id="-264884" lat="60.5509972248" lon="11.1484499967">
		<tag k="name" v="Daltjennet" />
>>>>>>> e1d4bc35ff8a6074a6f2e91616a996b547c36f15
		<tag k="natural" v="water" />
		<tag k="ssr:stedsnr" v="673506" />
	</node>
<<<<<<< HEAD
	<node lat="60.54524166623523" lon="11.13818333372569" id="-13363">
		<tag k="name" v="Holmtjennet" />
=======
	<node id="-265394" lat="60.4214944465" lon="11.2883027718">
		<tag k="name" v="Fløyta" />
>>>>>>> e1d4bc35ff8a6074a6f2e91616a996b547c36f15
		<tag k="natural" v="water" />
		<tag k="ssr:stedsnr" v="674463" />
	</node>
<<<<<<< HEAD
	<node lat="60.53258888831532" lon="11.17088888607215" id="-13364">
		<tag k="name" v="Torgunrudelva" />
		<tag k="ssr:stedsnr" v="675506" />
		<tag k="waterway" v="stream" />
	</node>
	<node lat="60.44753610725236" lon="11.121522220024932" id="-13383">
=======
	<node id="-264880" lat="60.4212249994" lon="11.3002555529">
		<tag k="name" v="Bjønngjellerbekken" />
		<tag k="ssr:stedsnr" v="709718" />
		<tag k="waterway" v="stream" />
	</node>
	<node id="-264879" lat="60.4475361073" lon="11.12152222">
>>>>>>> e1d4bc35ff8a6074a6f2e91616a996b547c36f15
		<tag k="name" v="Bjørtjenn" />
		<tag k="natural" v="water" />
		<tag k="ssr:stedsnr" v="709710" />
	</node>
<<<<<<< HEAD
	<node lat="60.42122499941758" lon="11.3002555528854" id="-13384">
		<tag k="name" v="Bjønngjellerbekken" />
		<tag k="ssr:stedsnr" v="709718" />
		<tag k="waterway" v="stream" />
	</node>
	<node lat="60.28305278193135" lon="11.177930552559747" id="-13394">
		<tag k="name" v="Kjeldalsbekken" />
		<tag k="ssr:stedsnr" v="722819" />
		<tag k="waterway" v="stream" />
	</node>
	<node lat="60.509530555151635" lon="11.148836118845383" id="-13402">
		<tag k="name" v="Sandbekken" />
		<tag k="ssr:stedsnr" v="725303" />
		<tag k="waterway" v="stream" />
	</node>
	<node lat="60.47959444276983" lon="11.257419435545673" id="-13407">
		<tag k="name" v="Ulvinbekken" />
		<tag k="ssr:stedsnr" v="726288" />
		<tag k="waterway" v="stream" />
	</node>
	<node lat="60.287980559449394" lon="11.295952770003424" id="-13411">
		<tag k="name" v="Hummelievja" />
		<tag k="natural" v="bay" />
		<tag k="ssr:stedsnr" v="726690" />
	</node>
	<node lat="60.27314444807673" lon="11.208919450833507" id="-13418">
		<tag k="name" v="Risa" />
		<tag k="ssr:stedsnr" v="733302" />
		<tag k="waterway" v="river" />
	</node>
	<node lat="60.265171333942355" lon="11.194153640315374" id="-13424">
		<tag k="alt_name" v="Huldretjenn" />
		<tag k="name" v="Huldertjennet" />
		<tag k="natural" v="water" />
		<tag k="ssr:stedsnr" v="734222" />
	</node>
	<node lat="60.51653333135756" lon="11.119366673451392" id="-13440">
		<tag k="name" v="Flesvikelva" />
		<tag k="ssr:stedsnr" v="735479" />
		<tag k="waterway" v="stream" />
	</node>
	<node lat="60.38142222076764" lon="11.316355560259913" id="-13447">
		<tag k="name" v="Fiskeløysa" />
		<tag k="natural" v="water" />
		<tag k="ssr:stedsnr" v="905773" />
	</node>
	<node lat="60.316975000697866" lon="11.381347213252868" id="-13468">
		<tag k="name" v="Vesle Fiskeløysa" />
		<tag k="natural" v="water" />
		<tag k="ssr:stedsnr" v="907476" />
	</node>
	<node lat="60.50820277793441" lon="11.133175002579078" id="-13491">
		<tag k="name" v="Åtjenn" />
		<tag k="natural" v="water" />
		<tag k="ssr:stedsnr" v="786311" />
	</node>
	<node lat="60.308000003700776" lon="11.37490000166551" id="-13506">
		<tag k="alt_name" v="Svartpytt, vestre;Vestre Svartputten" />
		<tag k="name" v="Vestre Svartpytt" />
		<tag k="natural" v="water" />
		<tag k="ssr:stedsnr" v="795183" />
		<tag k="water" v="pond" />
	</node>
	<node lat="60.28357499971588" lon="11.11581945130331" id="-13509">
		<tag k="name" v="Bergerøya" />
		<tag k="place" v="island" />
		<tag k="ssr:stedsnr" v="795206" />
	</node>
	<node lat="60.45819999637971" lon="11.328686109801314" id="-13515">
		<tag k="name" v="Ottbekken" />
		<tag k="ssr:stedsnr" v="795475" />
		<tag k="waterway" v="stream" />
	</node>
	<node lat="60.503083329083665" lon="11.08128056084883" id="-13516">
		<tag k="alt_name" v="Kleivtjennet" />
		<tag k="name" v="Kleivtjenn" />
		<tag k="natural" v="water" />
		<tag k="ssr:stedsnr" v="796728" />
	</node>
	<node lat="60.31647777930275" lon="11.339530563595018" id="-13522">
		<tag k="alt_name" v="Lomtjennet" />
		<tag k="name" v="Lomtjenn" />
=======
	<node id="-265901" lat="60.4019138906" lon="11.1496694371">
		<tag k="name" v="Henriksputten" />
		<tag k="natural" v="water" />
		<tag k="ssr:stedsnr" v="648838" />
		<tag k="water" v="pond" />
	</node>
	<node id="-265159" lat="60.3814222208" lon="11.3163555603">
		<tag k="name" v="Fiskeløysa" />
		<tag k="natural" v="water" />
		<tag k="ssr:stedsnr" v="905773" />
	</node>
	<node id="-265382" lat="60.3533611121" lon="11.1366750085">
		<tag k="name" v="Rømdalsputten" />
		<tag k="natural" v="water" />
		<tag k="ssr:stedsnr" v="127065" />
	</node>
	<node id="-265893" lat="60.303347219" lon="11.1727666729">
		<tag k="name" v="Sumpen" />
		<tag k="natural" v="water" />
		<tag k="ssr:stedsnr" v="648607" />
		<tag k="water" v="lake" />
	</node>
	<node id="-264865" lat="60.5220861117" lon="11.1388249917">
		<tag k="name" v="Svartputten" />
		<tag k="natural" v="water" />
		<tag k="ssr:stedsnr" v="708033" />
	</node>
	<node id="-265376" lat="60.318158337" lon="11.1182000042">
		<tag k="name" v="Larsvika" />
		<tag k="natural" v="bay" />
		<tag k="ssr:stedsnr" v="127144" />
	</node>
	<node id="-265883" lat="60.5499444489" lon="11.1084916608">
		<tag k="name" v="Storvatnbekken" />
		<tag k="ssr:stedsnr" v="647967" />
		<tag k="waterway" v="stream" />
	</node>
	<node id="-265367" lat="60.2955805513" lon="11.2928666662">
		<tag k="name" v="Langåa" />
		<tag k="natural" v="bay" />
		<tag k="ssr:stedsnr" v="119726" />
	</node>
	<node id="-265366" lat="60.3036027797" lon="11.2959805528">
		<tag k="name" v="Jondalsåa" />
		<tag k="ssr:stedsnr" v="119725" />
		<tag k="waterway" v="river" />
	</node>
	<node id="-265365" lat="60.2984166678" lon="11.2930277801">
		<tag k="name" v="Sagåa" />
		<tag k="natural" v="bay" />
		<tag k="ssr:stedsnr" v="119722" />
	</node>
	<node id="-264851" lat="60.3849194484" lon="11.2534333356">
		<tag k="name" v="Lynesdalsevja" />
		<tag k="natural" v="bay" />
		<tag k="ssr:stedsnr" v="540963" />
	</node>
	<node id="-265873" lat="60.4313777762" lon="11.2649000063">
		<tag k="name" v="Helgelitjennet" />
		<tag k="natural" v="water" />
		<tag k="ssr:stedsnr" v="613497" />
	</node>
	<node id="-264848" lat="60.2852722261" lon="11.1263027746">
		<tag k="name" v="Store Sundgapet" />
		<tag k="natural" v="strait" />
		<tag k="ssr:stedsnr" v="527564" />
	</node>
	<node id="-265871" lat="60.4470083311" lon="11.3335499913">
		<tag k="name" v="Grønnsjøen" />
>>>>>>> e1d4bc35ff8a6074a6f2e91616a996b547c36f15
		<tag k="natural" v="water" />
		<tag k="ssr:stedsnr" v="916139" />
	</node>
<<<<<<< HEAD
	<node lat="60.465691665300604" lon="11.155377784814458" id="-13528">
		<tag k="name" v="Trilterudbekken" />
		<tag k="ssr:stedsnr" v="916458" />
		<tag k="waterway" v="stream" />
	</node>
	<node lat="60.539358330503326" lon="11.146324995013599" id="-13533">
		<tag k="name" v="Atthaldsdammen" />
		<tag k="natural" v="water" />
		<tag k="ssr:stedsnr" v="917448" />
	</node>
	<node lat="60.53219444572297" lon="11.125127784320256" id="-13534">
		<tag k="name" v="Bladtjennet" />
		<tag k="natural" v="water" />
		<tag k="ssr:stedsnr" v="917455" />
	</node>
	<node lat="60.35440833199195" lon="11.340691663004582" id="-13537">
		<tag k="name" v="Rennåa" />
		<tag k="ssr:stedsnr" v="829016" />
		<tag k="waterway" v="river" />
	</node>
	<node lat="60.30571666507389" lon="11.20610555346754" id="-13545">
		<tag k="name" v="Nesfossen" />
		<tag k="natural" v="waterfall" />
		<tag k="ssr:stedsnr" v="830275" />
	</node>
	<node lat="60.29582222618439" lon="11.163777782462056" id="-13549">
		<tag k="name" v="Perssvingen" />
		<tag k="ssr:stedsnr" v="831509" />
		<tag k="waterway" v="river" />
	</node>
	<node lat="60.28171666717623" lon="11.112161110232377" id="-13557">
		<tag k="name" v="Kuodden" />
		<tag k="place" v="islet" />
		<tag k="ssr:stedsnr" v="844791" />
	</node>
	<node lat="60.47093333164749" lon="11.181033338773297" id="-13582">
		<tag k="name" v="Ekornholmen" />
=======
	<node id="-265870" lat="60.4120111128" lon="11.1969555516">
		<tag k="name" v="Byrudelva" />
		<tag k="ssr:stedsnr" v="613454" />
		<tag k="waterway" v="stream" />
	</node>
	<node id="-264838" lat="60.5127472208" lon="11.1082611113">
		<tag k="name" v="Bjørntjennet" />
		<tag k="natural" v="water" />
		<tag k="ssr:stedsnr" v="674494" />
	</node>
	<node id="-265439" lat="60.2959527745" lon="11.1909138922">
		<tag k="name" v="Badevika" />
		<tag k="natural" v="bay" />
		<tag k="ssr:stedsnr" v="180689" />
	</node>
	<node id="-265857" lat="60.4167083375" lon="11.177291673">
		<tag k="name" v="Himtjenn" />
		<tag k="natural" v="water" />
		<tag k="ssr:stedsnr" v="612520" />
	</node>
	<node id="-265856" lat="60.407574997" lon="11.1456250063">
		<tag k="alt_name" v="Tisjøen, vesle" />
		<tag k="name" v="Vesle Tisjøen" />
		<tag k="natural" v="water" />
		<tag k="ssr:stedsnr" v="612498" />
	</node>
	<node id="-264640" lat="60.4018305554" lon="11.2788416674">
		<tag k="loc_name" v="Lya" />
		<tag k="name" v="Holtåa" />
		<tag k="ssr:stedsnr" v="466880" />
		<tag k="waterway" v="river" />
	</node>
	<node id="-264830" lat="60.417152775" lon="11.1593222244">
		<tag k="name" v="Rynestjenn" />
		<tag k="natural" v="water" />
		<tag k="ssr:stedsnr" v="673506" />
	</node>
	<node id="-265237" lat="60.4448750008" lon="11.1591444522">
		<tag k="name" v="Årnestjenn" />
		<tag k="natural" v="water" />
		<tag k="ssr:stedsnr" v="6494" />
	</node>
	<node id="-264828" lat="60.4134499959" lon="11.1372805557">
		<tag k="name" v="Lyngholmen" />
>>>>>>> e1d4bc35ff8a6074a6f2e91616a996b547c36f15
		<tag k="place" v="islet" />
		<tag k="ssr:stedsnr" v="856481" />
	</node>
<<<<<<< HEAD
	<node lat="60.56372499660524" lon="11.131522216549266" id="-13584">
		<tag k="name" v="Skomakartjennet" />
=======
	<node id="-265851" lat="60.3567444428" lon="11.3814527791">
		<tag k="name" v="Sandholttjennet" />
>>>>>>> e1d4bc35ff8a6074a6f2e91616a996b547c36f15
		<tag k="natural" v="water" />
		<tag k="ssr:stedsnr" v="857416" />
	</node>
<<<<<<< HEAD
	<node lat="60.30578333259057" lon="11.116502783922408" id="-13587">
		<tag k="name" v="Lortvika" />
		<tag k="natural" v="bay" />
		<tag k="ssr:stedsnr" v="930992" />
	</node>
	<node lat="60.39722500172062" lon="11.243205562873547" id="-13588">
		<tag k="name" v="Storenga" />
		<tag k="natural" v="cape" />
		<tag k="ssr:stedsnr" v="931000" />
	</node>
	<node lat="60.36029999857374" lon="11.34174722227662" id="-13590">
		<tag k="name" v="Fosstjennet" />
=======
	<node id="-264859" lat="60.4974833329" lon="11.1750055625">
		<tag k="name" v="Nygardsodden" />
		<tag k="natural" v="cape" />
		<tag k="ssr:stedsnr" v="543358" />
	</node>
	<node id="-265335" lat="60.4011999964" lon="11.1521833292">
		<tag k="name" v="Karusstjennet" />
>>>>>>> e1d4bc35ff8a6074a6f2e91616a996b547c36f15
		<tag k="natural" v="water" />
		<tag k="ssr:stedsnr" v="890024" />
	</node>
<<<<<<< HEAD
	<node lat="60.29538055577579" lon="11.130108331092602" id="-13598">
		<tag k="name" v="Staviåstjennet" />
		<tag k="natural" v="water" />
		<tag k="ssr:stedsnr" v="891569" />
	</node>
	<node lat="60.28402500308785" lon="11.12482500242014" id="-13614">
		<tag k="name" v="Frankøya" />
		<tag k="place" v="islet" />
		<tag k="ssr:stedsnr" v="916168" />
	</node>
	<node lat="60.43352500056302" lon="11.166122226128353" id="-13622">
		<tag k="name" v="Svartputten" />
		<tag k="natural" v="water" />
		<tag k="ssr:stedsnr" v="917463" />
	</node>
	<node lat="60.3888555556146" lon="11.27322222752968" id="-13653">
		<tag k="name" v="Holtdammen" />
=======
	<node id="-265334" lat="60.3993861088" lon="11.1698361133">
		<tag k="name" v="Julsrudbekken" />
		<tag k="ssr:stedsnr" v="102858" />
		<tag k="waterway" v="stream" />
	</node>
	<node id="-264819" lat="60.4964999966" lon="11.1689555633">
		<tag k="alt_name" v="Kalbråttåvika" />
		<tag k="name" v="Kalvbråtavika" />
		<tag k="natural" v="bay" />
		<tag k="ssr:stedsnr" v="673415" />
	</node>
	<node id="-264603" lat="60.2421527774" lon="11.2042499968">
		<tag k="name" v="Gudmundsbekken" />
		<tag k="ssr:stedsnr" v="241263" />
		<tag k="waterway" v="stream" />
	</node>
	<node id="-264814" lat="60.3368277771" lon="11.3146777801">
		<tag k="name" v="Vidtjennet" />
>>>>>>> e1d4bc35ff8a6074a6f2e91616a996b547c36f15
		<tag k="natural" v="water" />
		<tag k="ssr:stedsnr" v="6031" />
	</node>
<<<<<<< HEAD
	<node lat="60.30808889267427" lon="11.230774996543522" id="-13666">
		<tag k="name" v="Andelva" />
		<tag k="ssr:stedsnr" v="6143" />
		<tag k="waterway" v="river" />
	</node>
	<node lat="60.48094999595521" lon="11.099449998167701" id="-13670">
		<tag k="alt_name" v="Agavatn" />
		<tag k="name" v="Agavatnet" />
=======
	<node id="-264810" lat="60.3973111147" lon="11.2364250074">
		<tag k="name" v="Minnesund" />
		<tag k="natural" v="strait" />
		<tag k="ssr:stedsnr" v="673030" />
	</node>
	<node id="-265321" lat="60.5458166655" lon="11.1465916723">
		<tag k="name" v="Midttjennet" />
>>>>>>> e1d4bc35ff8a6074a6f2e91616a996b547c36f15
		<tag k="natural" v="water" />
		<tag k="ssr:stedsnr" v="6420" />
	</node>
<<<<<<< HEAD
	<node lat="60.46676111130955" lon="11.298175001607914" id="-13673">
		<tag k="name" v="Lysjøen" />
		<tag k="natural" v="water" />
		<tag k="old_name" v="Lysjø" />
		<tag k="ssr:stedsnr" v="6440" />
		<tag k="water" v="lake" />
	</node>
	<node lat="60.45930703838594" lon="11.343163983602558" id="-13674">
		<tag k="name" v="Ottsjøen" />
=======
	<node id="-265319" lat="60.3617888895" lon="11.1094166588">
		<tag k="name" v="Kyllingtjennet" />
		<tag k="natural" v="water" />
		<tag k="ssr:stedsnr" v="101223" />
	</node>
	<node id="-264773" lat="60.3869527819" lon="11.1805305563">
		<tag k="name" v="Gruvebekken" />
		<tag k="ssr:stedsnr" v="662991" />
		<tag k="waterway" v="stream" />
	</node>
	<node id="-265314" lat="60.4276361151" lon="11.1664305531">
		<tag k="name" v="Langtjenn" />
>>>>>>> e1d4bc35ff8a6074a6f2e91616a996b547c36f15
		<tag k="natural" v="water" />
		<tag k="ssr:stedsnr" v="6445" />
		<tag k="water" v="lake" />
	</node>
<<<<<<< HEAD
	<node lat="60.2863027765644" lon="11.11806666290883" id="-13686">
		<tag k="name" v="Tollskjæret" />
		<tag k="place" v="islet" />
		<tag k="ssr:stedsnr" v="42534" />
	</node>
	<node lat="60.33687778068621" lon="11.117647227875368" id="-13701">
		<tag k="name" v="Bønseterbekken" />
		<tag k="ssr:stedsnr" v="57990" />
		<tag k="waterway" v="stream" />
	</node>
	<node lat="60.30957500104227" lon="11.336783337513358" id="-13724">
		<tag k="name" v="Igleputten" />
=======
	<node id="-265825" lat="60.4744916649" lon="11.2834277815">
		<tag k="name" v="Skrårudseterbekken" />
		<tag k="ssr:stedsnr" v="603389" />
		<tag k="waterway" v="stream" />
	</node>
	<node id="-265312" lat="60.4534833373" lon="11.1264555483">
		<tag k="alt_name" v="Søndre Morttjenn" />
		<tag k="name" v="Søndre Morttjennet" />
		<tag k="natural" v="water" />
		<tag k="ssr:stedsnr" v="67439" />
	</node>
	<node id="-265311" lat="60.2683777784" lon="11.2716694479">
		<tag k="alt_name" v="Vardumstjennet" />
		<tag k="name" v="Vardrumstjennet" />
>>>>>>> e1d4bc35ff8a6074a6f2e91616a996b547c36f15
		<tag k="natural" v="water" />
		<tag k="ssr:stedsnr" v="67166" />
	</node>
<<<<<<< HEAD
	<node lat="60.30515277841756" lon="11.369749998520946" id="-13727">
=======
	<node id="-265305" lat="60.3051527784" lon="11.3697499985">
>>>>>>> e1d4bc35ff8a6074a6f2e91616a996b547c36f15
		<tag k="name" v="Tretjennet" />
		<tag k="natural" v="water" />
		<tag k="ssr:stedsnr" v="67184" />
	</node>
<<<<<<< HEAD
	<node lat="60.268377778353944" lon="11.271669447925428" id="-13733">
		<tag k="alt_name" v="Vardumstjennet" />
		<tag k="name" v="Vardrumstjennet" />
		<tag k="natural" v="water" />
		<tag k="ssr:stedsnr" v="67239" />
	</node>
	<node lat="60.42763611510403" lon="11.166430553053504" id="-13735">
		<tag k="name" v="Langtjenn" />
=======
	<node id="-265815" lat="60.272197225" lon="11.1296138958">
		<tag k="name" v="Elvebekken" />
		<tag k="ssr:stedsnr" v="600791" />
		<tag k="waterway" v="stream" />
	</node>
	<node id="-265302" lat="60.309575001" lon="11.3367833375">
		<tag k="name" v="Igleputten" />
>>>>>>> e1d4bc35ff8a6074a6f2e91616a996b547c36f15
		<tag k="natural" v="water" />
		<tag k="ssr:stedsnr" v="67478" />
	</node>
<<<<<<< HEAD
	<node lat="60.511258337868306" lon="11.097908330086273" id="-13737">
		<tag k="name" v="Åstjennet" />
=======
	<node id="-265801" lat="60.3922333307" lon="11.1506472306">
		<tag k="name" v="Slåssvangputten" />
>>>>>>> e1d4bc35ff8a6074a6f2e91616a996b547c36f15
		<tag k="natural" v="water" />
		<tag k="ssr:stedsnr" v="67532" />
	</node>
<<<<<<< HEAD
	<node lat="60.361788889480785" lon="11.109416658761402" id="-13740">
		<tag k="name" v="Kyllingtjennet" />
		<tag k="natural" v="water" />
		<tag k="ssr:stedsnr" v="101223" />
	</node>
	<node lat="60.54581666553722" lon="11.146591672272637" id="-13743">
		<tag k="name" v="Midttjennet" />
		<tag k="natural" v="water" />
		<tag k="ssr:stedsnr" v="101942" />
	</node>
	<node lat="60.399386108824665" lon="11.169836113279107" id="-13752">
		<tag k="name" v="Julsrudbekken" />
		<tag k="ssr:stedsnr" v="102858" />
		<tag k="waterway" v="stream" />
	</node>
	<node lat="60.40119999636857" lon="11.152183329221746" id="-13753">
		<tag k="name" v="Karusstjennet" />
		<tag k="natural" v="water" />
		<tag k="ssr:stedsnr" v="102859" />
	</node>
	<node lat="60.353361112062146" lon="11.136675008463236" id="-13783">
		<tag k="name" v="Rømdalsputten" />
=======
	<node id="-265797" lat="60.2958249967" lon="11.1526138854">
		<tag k="name" v="Skriverodden" />
		<tag k="natural" v="cape" />
		<tag k="ssr:stedsnr" v="587579" />
	</node>
	<node id="-265796" lat="60.2943277741" lon="11.1458194483">
		<tag k="name" v="Gudbrandsodden" />
		<tag k="natural" v="cape" />
		<tag k="ssr:stedsnr" v="587576" />
	</node>
	<node id="-264771" lat="60.3853222263" lon="11.1830166643">
		<tag k="name" v="Breibekken" />
		<tag k="ssr:stedsnr" v="662981" />
		<tag k="waterway" v="stream" />
	</node>
	<node id="-265995" lat="60.5030833291" lon="11.0812805608">
		<tag k="alt_name" v="Kleivtjennet" />
		<tag k="name" v="Kleivtjenn" />
		<tag k="natural" v="water" />
		<tag k="ssr:stedsnr" v="796728" />
	</node>
	<node id="-265824" lat="60.4623611143" lon="11.2963444523">
		<tag k="name" v="Lysjødammen" />
		<tag k="ssr:stedsnr" v="603387" />
		<tag k="waterway" v="dam" />
	</node>
	<node id="-265790" lat="60.357169447" lon="11.1079055598">
		<tag k="name" v="Linbroktjennet" />
>>>>>>> e1d4bc35ff8a6074a6f2e91616a996b547c36f15
		<tag k="natural" v="water" />
		<tag k="ssr:stedsnr" v="127065" />
	</node>
<<<<<<< HEAD
	<node lat="60.432750001461265" lon="11.340552774467703" id="-13799">
		<tag k="name" v="Putten" />
		<tag k="natural" v="water" />
		<tag k="ssr:stedsnr" v="127486" />
	</node>
	<node lat="60.52951111463438" lon="11.154644451544215" id="-13806">
		<tag k="name" v="Kolltjennet" />
		<tag k="natural" v="water" />
		<tag k="ssr:stedsnr" v="161022" />
	</node>
	<node lat="60.538830558710224" lon="11.176469447375542" id="-13807">
		<tag k="name" v="Skautjennet" />
=======
	<node id="-264765" lat="60.2569750003" lon="11.2460611048">
		<tag k="name" v="Svintjennsbekken" />
		<tag k="ssr:stedsnr" v="661756" />
		<tag k="waterway" v="stream" />
	</node>
	<node id="-265274" lat="60.4941527821" lon="11.165497231">
		<tag k="name" v="Flesvika" />
		<tag k="natural" v="bay" />
		<tag k="ssr:stedsnr" v="58415" />
	</node>
	<node id="-265055" lat="60.2741250026" lon="11.2314833371">
		<tag k="name" v="Svangerudbekken" />
		<tag k="ssr:stedsnr" v="726954" />
		<tag k="waterway" v="stream" />
	</node>
	<node id="-264760" lat="60.4806388919" lon="11.1954055554">
		<tag k="name" v="Mjøsa" />
>>>>>>> e1d4bc35ff8a6074a6f2e91616a996b547c36f15
		<tag k="natural" v="water" />
		<tag k="ssr:stedsnr" v="161023" />
	</node>
<<<<<<< HEAD
	<node lat="60.288136114078306" lon="11.154838897060392" id="-13816">
		<tag k="name" v="Martiniustjennet" />
		<tag k="natural" v="water" />
		<tag k="ssr:stedsnr" v="163504" />
	</node>
	<node lat="60.45808333348515" lon="11.294824992840697" id="-13820">
		<tag k="name" v="Lysjøåa" />
		<tag k="ssr:stedsnr" v="163690" />
		<tag k="waterway" v="river" />
	</node>
	<node lat="60.27974999577786" lon="11.116611108127977" id="-13833">
		<tag k="name" v="Bergersundet" />
		<tag k="natural" v="strait" />
		<tag k="ssr:stedsnr" v="176782" />
	</node>
	<node lat="60.34150833658709" lon="11.160408332707897" id="-13838">
		<tag k="name" v="Lauvodden" />
=======
	<node id="-265396" lat="60.4577916659" lon="11.1199000055">
		<tag k="alt_name" v="Nordre Morttjenn" />
		<tag k="name" v="Nordre Morttjennet" />
		<tag k="natural" v="water" />
		<tag k="ssr:stedsnr" v="127449" />
	</node>
	<node id="-265269" lat="60.3368777807" lon="11.1176472279">
		<tag k="name" v="Bønseterbekken" />
		<tag k="ssr:stedsnr" v="57990" />
		<tag k="waterway" v="stream" />
	</node>
	<node id="-264635" lat="60.2828249988" lon="11.1237388904">
		<tag k="name" v="Veslesundet" />
		<tag k="natural" v="strait" />
		<tag k="ssr:stedsnr" v="466581" />
	</node>
	<node id="-265265" lat="60.3399555576" lon="11.1569333292">
		<tag k="name" v="Sjøtangen" />
		<tag k="natural" v="cape" />
		<tag k="ssr:stedsnr" v="57883" />
	</node>
	<node id="-265776" lat="60.3037611148" lon="11.1170361075">
		<tag k="name" v="Brennbergodden" />
>>>>>>> e1d4bc35ff8a6074a6f2e91616a996b547c36f15
		<tag k="natural" v="cape" />
		<tag k="ssr:stedsnr" v="178866" />
	</node>
<<<<<<< HEAD
	<node lat="60.295952774533625" lon="11.190913892206634" id="-13844">
		<tag k="name" v="Badevika" />
		<tag k="natural" v="bay" />
		<tag k="ssr:stedsnr" v="180689" />
	</node>
	<node lat="60.34128888759212" lon="11.149574997999746" id="-13855">
		<tag k="name" v="Parisbekken" />
		<tag k="ssr:stedsnr" v="188131" />
		<tag k="waterway" v="stream" />
	</node>
	<node lat="60.26215277776277" lon="11.277330554987197" id="-13859">
		<tag k="alt_name" v="Borstadtjennet" />
		<tag k="name" v="Bårstadtjennet" />
		<tag k="natural" v="water" />
		<tag k="ssr:stedsnr" v="188237" />
	</node>
	<node lat="60.25009444319472" lon="11.253883336678912" id="-13860">
		<tag k="alt_name" v="Svintjennet" />
		<tag k="name" v="Svintjenn" />
=======
	<node id="-265775" lat="60.5311694428" lon="11.1059222139">
		<tag k="name" v="Syljutjennet" />
		<tag k="natural" v="water" />
		<tag k="ssr:stedsnr" v="553469" />
	</node>
	<node id="-265773" lat="60.4407000032" lon="11.3572833314">
		<tag k="fixme" v="multiple name tags, choose one and add the other to alt_name" />
		<tag k="name" v="Røyvatnet;Vesle Raudvatnet" />
		<tag k="natural" v="water" />
		<tag k="ssr:stedsnr" v="552530" />
	</node>
	<node id="-265772" lat="60.4423750031" lon="11.1437750055">
		<tag k="alt_name" v="Byua, vesle" />
		<tag k="name" v="Vesle Byua" />
		<tag k="natural" v="water" />
		<tag k="ssr:stedsnr" v="552519" />
	</node>
	<node id="-265764" lat="60.3173305584" lon="11.3450805549">
		<tag k="alt_name" v="Setertjennet" />
		<tag k="name" v="Setertjenn" />
>>>>>>> e1d4bc35ff8a6074a6f2e91616a996b547c36f15
		<tag k="natural" v="water" />
		<tag k="ssr:stedsnr" v="188251" />
	</node>
<<<<<<< HEAD
	<node lat="60.524088889060586" lon="11.131558341065253" id="-13863">
		<tag k="name" v="Offsettjennet" />
		<tag k="natural" v="water" />
		<tag k="ssr:stedsnr" v="188546" />
	</node>
	<node lat="60.587816665331495" lon="11.122411106157653" id="-13865">
		<tag k="name" v="Sikkelibekken" />
		<tag k="ssr:stedsnr" v="221938" />
		<tag k="waterway" v="stream" />
	</node>
	<node lat="60.43791110903815" lon="11.247761115758827" id="-13872">
		<tag k="name" v="Dalsrudbekken" />
		<tag k="ssr:stedsnr" v="224520" />
		<tag k="waterway" v="stream" />
	</node>
	<node lat="60.2872638858538" lon="11.119791665443952" id="-13875">
		<tag k="name" v="Bukkeskjærene" />
		<tag k="place" v="islet" />
		<tag k="ssr:stedsnr" v="224531" />
	</node>
	<node lat="60.44363055210144" lon="11.120758335712946" id="-13876">
		<tag k="name" v="Brustadsetervika" />
		<tag k="natural" v="bay" />
		<tag k="ssr:stedsnr" v="224711" />
	</node>
	<node lat="60.396122222271494" lon="11.24486110912642" id="-13878">
		<tag k="name" v="Toftnesevja" />
		<tag k="natural" v="bay" />
		<tag k="ssr:stedsnr" v="224817" />
	</node>
	<node lat="60.4317694421681" lon="11.143608330047" id="-13895">
		<tag k="name" v="Kinngåsputten" />
		<tag k="natural" v="water" />
		<tag k="ssr:stedsnr" v="285843" />
	</node>
	<node lat="60.295627779423604" lon="11.117402773458501" id="-13923">
		<tag k="name" v="Nordre Kvernvika" />
		<tag k="natural" v="bay" />
		<tag k="ssr:stedsnr" v="309944" />
	</node>
	<node lat="60.43752499805291" lon="11.348975006948537" id="-13927">
		<tag k="name" v="Raudvatnet" />
=======
	<node id="-264739" lat="60.3676444487" lon="11.4158611168">
		<tag k="name" v="Bjugen" />
		<tag k="natural" v="water" />
		<tag k="ssr:stedsnr" v="406075" />
	</node>
	<node id="-266075" lat="60.4289222242" lon="11.3491361128">
		<tag k="name" v="Lønntjennet" />
		<tag k="natural" v="water" />
		<tag k="ssr:stedsnr" v="856545" />
	</node>
	<node id="-264736" lat="60.3496194462" lon="11.2629805623">
		<tag k="name" v="Måevja" />
		<tag k="natural" v="bay" />
		<tag k="ssr:stedsnr" v="404053" />
	</node>
	<node id="-265758" lat="60.3229722199" lon="11.3179722243">
		<tag k="name" v="Jøndalsåa" />
		<tag k="ssr:stedsnr" v="552154" />
		<tag k="waterway" v="river" />
	</node>
	<node id="-265477" lat="60.2500944432" lon="11.2538833367">
		<tag k="alt_name" v="Svintjennet" />
		<tag k="name" v="Svintjenn" />
		<tag k="natural" v="water" />
		<tag k="ssr:stedsnr" v="188251" />
	</node>
	<node id="-265243" lat="60.2863027766" lon="11.1180666629">
		<tag k="name" v="Tollskjæret" />
		<tag k="place" v="islet" />
		<tag k="ssr:stedsnr" v="42534" />
	</node>
	<node id="-264730" lat="60.4100194463" lon="11.2942166649">
		<tag k="name" v="Djupdalsbekken" />
		<tag k="ssr:stedsnr" v="505976" />
		<tag k="waterway" v="stream" />
	</node>
	<node id="-264729" lat="60.2926611109" lon="11.1152583315">
		<tag k="name" v="Søndre Kvernvika" />
		<tag k="natural" v="bay" />
		<tag k="ssr:stedsnr" v="505933" />
	</node>
	<node id="-265750" lat="60.3692749958" lon="11.3411083415">
		<tag k="alt_name" v="Holsjøen, søndre" />
		<tag k="loc_name" v="Nedre Holsjøen" />
		<tag k="name" v="Søndre Holsjøen" />
		<tag k="natural" v="water" />
		<tag k="ssr:stedsnr" v="552070" />
		<tag k="water" v="lake" />
	</node>
	<node id="-265749" lat="60.3649111088" lon="11.1438944407">
		<tag k="name" v="Røssbekken" />
		<tag k="ssr:stedsnr" v="552065" />
		<tag k="waterway" v="stream" />
	</node>
	<node id="-265234" lat="60.4667611113" lon="11.2981750016">
		<tag k="name" v="Lysjøen" />
>>>>>>> e1d4bc35ff8a6074a6f2e91616a996b547c36f15
		<tag k="natural" v="water" />
		<tag k="ssr:stedsnr" v="310464" />
	</node>
<<<<<<< HEAD
	<node lat="60.43685277419789" lon="11.151994435379715" id="-13928">
		<tag k="alt_name" v="Byua, store" />
		<tag k="name" v="Store Byua" />
=======
	<node id="-265231" lat="60.480949996" lon="11.0994499982">
		<tag k="alt_name" v="Agavatn" />
		<tag k="name" v="Agavatnet" />
>>>>>>> e1d4bc35ff8a6074a6f2e91616a996b547c36f15
		<tag k="natural" v="water" />
		<tag k="ssr:stedsnr" v="310471" />
	</node>
<<<<<<< HEAD
	<node lat="60.28449166616256" lon="11.131336102529046" id="-13944">
		<tag k="name" v="Skjul" />
		<tag k="place" v="islet" />
		<tag k="ssr:stedsnr" v="345499" />
	</node>
	<node lat="60.3720166670844" lon="11.228127776741685" id="-13962">
		<tag k="name" v="Julsruddalsevja" />
		<tag k="natural" v="bay" />
		<tag k="ssr:stedsnr" v="358985" />
	</node>
	<node lat="60.32338611009049" lon="11.394002770470783" id="-13968">
		<tag k="name" v="Settungen" />
=======
	<node id="-265742" lat="60.401477776" lon="11.310300008">
		<tag k="name" v="Ristjennet" />
>>>>>>> e1d4bc35ff8a6074a6f2e91616a996b547c36f15
		<tag k="natural" v="water" />
		<tag k="ssr:stedsnr" v="361000" />
		<tag k="water" v="lake" />
	</node>
<<<<<<< HEAD
	<node lat="60.340597223614225" lon="11.335950003339477" id="-13997">
		<tag k="alt_name" v="Morttjennet" />
		<tag k="name" v="Morttjenn" />
		<tag k="natural" v="water" />
		<tag k="ssr:stedsnr" v="370124" />
	</node>
	<node lat="60.32376906762024" lon="11.12465920029497" id="-14001">
		<tag k="name" v="Rødvika" />
		<tag k="natural" v="bay" />
		<tag k="ssr:stedsnr" v="370145" />
	</node>
	<node lat="60.31720000232881" lon="11.37675278295021" id="-14003">
		<tag k="name" v="Fiskeløysa" />
=======
	<node id="-265229" lat="60.1980555588" lon="11.3790166654">
		<tag k="name" v="Vorma" />
		<tag k="ssr:stedsnr" v="6274" />
		<tag k="waterway" v="river" />
	</node>
	<node id="-265740" lat="60.2021694433" lon="11.4383444355">
		<tag k="name" v="Kampåa" />
		<tag k="ssr:stedsnr" v="551258" />
		<tag k="waterway" v="river" />
	</node>
	<node id="-265226" lat="60.296247221" lon="11.3456861124">
		<tag k="alt_name" v="Storrtjennet" />
		<tag k="name" v="Starrtjennet" />
>>>>>>> e1d4bc35ff8a6074a6f2e91616a996b547c36f15
		<tag k="natural" v="water" />
		<tag k="ssr:stedsnr" v="370160" />
	</node>
<<<<<<< HEAD
	<node lat="60.30065555680107" lon="11.361025001530544" id="-14009">
		<tag k="name" v="Kvetjennet" />
		<tag k="natural" v="water" />
		<tag k="ssr:stedsnr" v="370192" />
	</node>
	<node lat="60.451950001631594" lon="11.272599991211605" id="-14016">
		<tag k="name" v="Trehørningen" />
		<tag k="natural" v="water" />
		<tag k="ssr:stedsnr" v="370458" />
	</node>
	<node lat="60.447974998835335" lon="11.31578332724052" id="-14017">
		<tag k="name" v="Grønnsjøbekken" />
		<tag k="ssr:stedsnr" v="370459" />
		<tag k="waterway" v="stream" />
	</node>
	<node lat="60.34803610930883" lon="11.04032500730429" id="-14023">
		<tag k="name" v="Hurdalssjøen" />
		<tag k="natural" v="water" />
		<tag k="ssr:stedsnr" v="384430" />
		<tag k="water" v="lake" />
	</node>
	<node lat="60.34961944616938" lon="11.262980562262856" id="-14026">
		<tag k="name" v="Måevja" />
		<tag k="natural" v="bay" />
		<tag k="ssr:stedsnr" v="404053" />
	</node>
	<node lat="60.367644448707054" lon="11.415861116802361" id="-14029">
		<tag k="name" v="Bjugen" />
		<tag k="natural" v="water" />
		<tag k="ssr:stedsnr" v="406075" />
	</node>
	<node lat="60.383438888986554" lon="11.246472218967721" id="-14047">
		<tag k="name" v="Fremminøya" />
		<tag k="place" v="islet" />
		<tag k="ssr:stedsnr" v="419958" />
	</node>
	<node lat="60.33409722305793" lon="11.15810555255804" id="-14070">
		<tag k="name" v="Netsjøen" />
		<tag k="natural" v="water" />
		<tag k="ssr:stedsnr" v="431133" />
		<tag k="water" v="lake" />
	</node>
	<node lat="60.333227775941886" lon="11.132522231056887" id="-14071">
		<tag k="name" v="Makrellbekken" />
		<tag k="ssr:stedsnr" v="431134" />
		<tag k="waterway" v="stream" />
	</node>
	<node lat="60.46162499551215" lon="11.318272230352306" id="-14075">
		<tag k="name" v="Digerauget" />
		<tag k="natural" v="water" />
		<tag k="ssr:stedsnr" v="431439" />
	</node>
	<node lat="60.50162499674827" lon="11.099908340570758" id="-14079">
		<tag k="name" v="Damtjennet" />
		<tag k="natural" v="water" />
		<tag k="ssr:stedsnr" v="431475" />
	</node>
	<node lat="60.529022226030214" lon="11.134233331659564" id="-14082">
		<tag k="name" v="Disserudtjennet" />
		<tag k="natural" v="water" />
		<tag k="ssr:stedsnr" v="432455" />
	</node>
	<node lat="60.29266111094631" lon="11.115258331493822" id="-14090">
		<tag k="name" v="Søndre Kvernvika" />
		<tag k="natural" v="bay" />
		<tag k="ssr:stedsnr" v="505933" />
	</node>
	<node lat="60.36332777790041" lon="11.254372230988894" id="-14093">
		<tag k="name" v="Rønsenevja" />
		<tag k="natural" v="bay" />
		<tag k="ssr:stedsnr" v="525001" />
	</node>
	<node lat="60.54517500342646" lon="11.153024995599834" id="-14095">
		<tag k="name" v="Alnesputten" />
		<tag k="natural" v="water" />
		<tag k="ssr:stedsnr" v="526950" />
	</node>
	<node lat="60.28527222610892" lon="11.126302774621163" id="-14104">
		<tag k="name" v="Store Sundgapet" />
		<tag k="natural" v="strait" />
		<tag k="ssr:stedsnr" v="527564" />
	</node>
	<node lat="60.51976388998013" lon="11.109191673000492" id="-14120">
		<tag k="name" v="Sølvputten" />
		<tag k="natural" v="water" />
		<tag k="ssr:stedsnr" v="543351" />
		<tag k="water" v="pond" />
	</node>
	<node lat="60.49748333294656" lon="11.175005562505689" id="-14122">
		<tag k="name" v="Nygardsodden" />
		<tag k="natural" v="cape" />
		<tag k="ssr:stedsnr" v="543358" />
	</node>
	<node lat="60.34211111044775" lon="11.25660555355307" id="-14125">
		<tag k="name" v="Sandholtevja" />
		<tag k="natural" v="bay" />
		<tag k="ssr:stedsnr" v="544364" />
	</node>
	<node lat="60.202169443311384" lon="11.438344435548233" id="-14132">
		<tag k="name" v="Kampåa" />
		<tag k="ssr:stedsnr" v="551258" />
		<tag k="waterway" v="river" />
	</node>
	<node lat="60.40147777597456" lon="11.310300007966594" id="-14137">
		<tag k="name" v="Ristjennet" />
		<tag k="natural" v="water" />
		<tag k="ssr:stedsnr" v="552011" />
	</node>
	<node lat="60.36491110883979" lon="11.143894440741507" id="-14143">
		<tag k="name" v="Røssbekken" />
		<tag k="ssr:stedsnr" v="552065" />
		<tag k="waterway" v="stream" />
	</node>
	<node lat="60.36927499578366" lon="11.341108341480686" id="-14144">
		<tag k="alt_name" v="Holsjøen, søndre" />
		<tag k="loc_name" v="Nedre Holsjøen" />
		<tag k="name" v="Søndre Holsjøen" />
		<tag k="natural" v="water" />
		<tag k="ssr:stedsnr" v="552070" />
		<tag k="water" v="lake" />
	</node>
	<node lat="60.3229722199173" lon="11.317972224336529" id="-14146">
		<tag k="name" v="Jøndalsåa" />
		<tag k="ssr:stedsnr" v="552154" />
		<tag k="waterway" v="river" />
	</node>
	<node lat="60.53116944282701" lon="11.10592221392721" id="-14154">
		<tag k="name" v="Syljutjennet" />
		<tag k="natural" v="water" />
		<tag k="ssr:stedsnr" v="553469" />
	</node>
	<node lat="60.55099722481482" lon="11.148449996700133" id="-14164">
		<tag k="name" v="Daltjennet" />
		<tag k="natural" v="water" />
		<tag k="ssr:stedsnr" v="586939" />
	</node>
	<node lat="60.294327774090306" lon="11.145819448265737" id="-14171">
		<tag k="name" v="Gudbrandsodden" />
		<tag k="natural" v="cape" />
		<tag k="ssr:stedsnr" v="587576" />
	</node>
	<node lat="60.29582499665607" lon="11.1526138854059" id="-14172">
		<tag k="name" v="Skriverodden" />
		<tag k="natural" v="cape" />
		<tag k="ssr:stedsnr" v="587579" />
	</node>
	<node lat="60.392233330650235" lon="11.150647230608389" id="-14175">
		<tag k="name" v="Slåssvangputten" />
		<tag k="natural" v="water" />
		<tag k="ssr:stedsnr" v="587842" />
	</node>
	<node lat="60.27219722502842" lon="11.129613895788944" id="-14188">
		<tag k="name" v="Elvebekken" />
		<tag k="ssr:stedsnr" v="600791" />
		<tag k="waterway" v="stream" />
	</node>
	<node lat="60.35674444275651" lon="11.381452779108445" id="-14223">
		<tag k="name" v="Sandholttjennet" />
		<tag k="natural" v="water" />
		<tag k="ssr:stedsnr" v="612114" />
	</node>
	<node lat="60.40757499700421" lon="11.14562500631367" id="-14225">
		<tag k="alt_name" v="Tisjøen, vesle" />
		<tag k="name" v="Vesle Tisjøen" />
		<tag k="natural" v="water" />
		<tag k="ssr:stedsnr" v="612498" />
	</node>
	<node lat="60.44700833111462" lon="11.333549991266562" id="-14230">
		<tag k="name" v="Grønnsjøen" />
		<tag k="natural" v="water" />
		<tag k="ssr:stedsnr" v="613468" />
		<tag k="water" v="lake" />
	</node>
	<node lat="60.4120111128109" lon="11.19695555157321" id="-14234">
		<tag k="name" v="Byrudelva" />
		<tag k="ssr:stedsnr" v="613454" />
		<tag k="waterway" v="stream" />
	</node>
	<node lat="60.54994444886777" lon="11.108491660752042" id="-14240">
		<tag k="name" v="Storvatnbekken" />
		<tag k="ssr:stedsnr" v="647967" />
		<tag k="waterway" v="stream" />
	</node>
	<node lat="60.42236330481132" lon="11.373337183444134" id="-14255">
		<tag k="name" v="Store Lønnvangtjennet" />
		<tag k="natural" v="water" />
		<tag k="ssr:stedsnr" v="654893" />
	</node>
	<node lat="60.25697500033237" lon="11.246061104770499" id="-14258">
		<tag k="name" v="Svintjennsbekken" />
		<tag k="ssr:stedsnr" v="661756" />
		<tag k="waterway" v="stream" />
	</node>
	<node lat="60.38302222514823" lon="11.247241662711348" id="-14283">
		<tag k="name" v="Vesleelva" />
		<tag k="natural" v="strait" />
		<tag k="ssr:stedsnr" v="723954" />
	</node>
	<node lat="60.38659999906404" lon="11.233752780230292" id="-14286">
		<tag k="name" v="Dytterudbekken" />
		<tag k="ssr:stedsnr" v="723962" />
		<tag k="waterway" v="stream" />
	</node>
	<node lat="60.45792222355866" lon="11.33813333857241" id="-14300">
		<tag k="name" v="Durålvika" />
		<tag k="natural" v="bay" />
		<tag k="ssr:stedsnr" v="726897" />
	</node>
	<node lat="60.274125002610155" lon="11.231483337101775" id="-14301">
		<tag k="name" v="Svangerudbekken" />
		<tag k="ssr:stedsnr" v="726954" />
		<tag k="waterway" v="stream" />
	</node>
	<node lat="60.3669000045584" lon="11.117780551988584" id="-14309">
		<tag k="name" v="Djuptjenn" />
		<tag k="natural" v="water" />
		<tag k="ssr:stedsnr" v="734053" />
	</node>
	<node lat="60.369011111875835" lon="11.174144445117573" id="-14310">
		<tag k="name" v="Gørstadtjennet" />
		<tag k="natural" v="water" />
		<tag k="ssr:stedsnr" v="734055" />
	</node>
	<node lat="60.37240277415633" lon="11.320030564267313" id="-14312">
		<tag k="name" v="Ørkyttjennet" />
		<tag k="natural" v="water" />
		<tag k="ssr:stedsnr" v="734062" />
	</node>
	<node lat="60.47374722187179" lon="11.108294444413959" id="-14315">
		<tag k="name" v="Brågåtjenna" />
		<tag k="natural" v="water" />
		<tag k="ssr:stedsnr" v="734459" />
		<tag k="water" v="lake" />
	</node>
	<node lat="60.383447218358974" lon="11.165200003700154" id="-14324">
		<tag k="name" v="Askjumbekken" />
		<tag k="ssr:stedsnr" v="770079" />
		<tag k="waterway" v="stream" />
	</node>
	<node lat="60.35450277700485" lon="11.099863892029456" id="-14328">
		<tag k="name" v="Totjennsbekken" />
		<tag k="ssr:stedsnr" v="770542" />
		<tag k="waterway" v="stream" />
	</node>
	<node lat="60.40596110796643" lon="11.147702776381458" id="-14331">
		<tag k="name" v="Fløyta" />
		<tag k="natural" v="water" />
		<tag k="ssr:stedsnr" v="770826" />
	</node>
	<node lat="60.38672222185773" lon="11.19338332565882" id="-14337">
		<tag k="name" v="Stensbydammen" />
		<tag k="natural" v="water" />
		<tag k="ssr:stedsnr" v="783985" />
	</node>
	<node lat="60.46388611135183" lon="11.303002768712163" id="-14346">
		<tag k="name" v="Pinnfellvika" />
		<tag k="natural" v="bay" />
		<tag k="ssr:stedsnr" v="786900" />
	</node>
	<node lat="60.394899996325016" lon="11.328975006090495" id="-14366">
		<tag k="name" v="Svartputten" />
		<tag k="natural" v="water" />
		<tag k="ssr:stedsnr" v="795040" />
	</node>
	<node lat="60.34457777885258" lon="11.351622213699086" id="-14372">
		<tag k="alt_name" v="Rautjennet" />
		<tag k="name" v="Raudtjenn" />
		<tag k="natural" v="water" />
		<tag k="ssr:stedsnr" v="795138" />
	</node>
	<node lat="60.33003055698209" lon="11.326841664910859" id="-14373">
		<tag k="name" v="Jønsjøen" />
		<tag k="natural" v="water" />
		<tag k="ssr:stedsnr" v="795145" />
		<tag k="water" v="lake" />
	</node>
	<node lat="60.279174996405374" lon="11.119550003773846" id="-14375">
		<tag k="name" v="Skurvøya" />
		<tag k="place" v="islet" />
		<tag k="ssr:stedsnr" v="795218" />
	</node>
	<node lat="60.42411111334909" lon="11.274475004681353" id="-14380">
		<tag k="name" v="Holtsjøen" />
		<tag k="natural" v="water" />
		<tag k="ssr:stedsnr" v="795544" />
		<tag k="water" v="lake" />
	</node>
	<node lat="60.35753888980256" lon="11.100441671764003" id="-14395">
		<tag k="name" v="Elgputten" />
		<tag k="natural" v="water" />
		<tag k="ssr:stedsnr" v="829235" />
	</node>
	<node lat="60.2849027744877" lon="11.1134166658107" id="-14400">
		<tag k="name" v="Vadraget" />
		<tag k="natural" v="bay" />
		<tag k="ssr:stedsnr" v="831522" />
	</node>
	<node lat="60.516213892328686" lon="11.117394448442132" id="-14411">
		<tag k="name" v="Støputten" />
		<tag k="natural" v="water" />
		<tag k="ssr:stedsnr" v="847354" />
		<tag k="water" v="pond" />
	</node>
	<node lat="60.42892222417727" lon="11.34913611278238" id="-14434">
		<tag k="name" v="Lønntjennet" />
		<tag k="natural" v="water" />
		<tag k="ssr:stedsnr" v="856545" />
	</node>
	<node lat="60.3182166651177" lon="11.165877783952354" id="-14436">
		<tag k="name" v="Nessa" />
		<tag k="ssr:stedsnr" v="856154" />
		<tag k="waterway" v="stream" />
	</node>
	<node lat="60.44042500435538" lon="11.135099996454084" id="-14439">
		<tag k="name" v="Agavatnet" />
		<tag k="natural" v="water" />
		<tag k="ssr:stedsnr" v="856527" />
	</node>
	<node lat="60.554724998268014" lon="11.10730832925646" id="-14442">
		<tag k="name" v="Fallabekken" />
		<tag k="ssr:stedsnr" v="950962" />
		<tag k="waterway" v="stream" />
	</node>
	<node lat="60.452991668748545" lon="11.120113888032437" id="-14450">
		<tag k="name" v="Hølbekken" />
		<tag k="ssr:stedsnr" v="952700" />
		<tag k="waterway" v="stream" />
	</node>
	<node lat="60.26144444021215" lon="11.317216670698196" id="-14454">
		<tag k="name" v="Frilsetevja" />
		<tag k="natural" v="bay" />
		<tag k="ssr:stedsnr" v="966132" />
	</node>
	<node lat="60.514047220473834" lon="11.120824993903822" id="-14461">
		<tag k="name" v="Stårrputten" />
		<tag k="natural" v="water" />
		<tag k="ssr:stedsnr" v="968350" />
	</node>
=======
	<node id="-265225" lat="60.3080888927" lon="11.2307749965">
		<tag k="name" v="Andelva" />
		<tag k="ssr:stedsnr" v="6143" />
		<tag k="waterway" v="river" />
	</node>
	<node id="-265217" lat="60.3608111143" lon="11.1031361145">
		<tag k="alt_name" v="Totjenn" />
		<tag k="name" v="Totjenna" />
		<tag k="natural" v="water" />
		<tag k="ssr:stedsnr" v="6072" />
		<tag k="water" v="lake" />
	</node>
>>>>>>> e1d4bc35ff8a6074a6f2e91616a996b547c36f15
</osm>
