<?xml version="1.0" encoding="UTF-8"?>
<osm generator="osmapis" version="0.6">
	<node id="-408062" lat="58.9289527755" lon="6.25020555159">
		<tag k="name" v="Skitlandsbeitet" />
		<tag k="place" v="locality" />
		<tag k="ssr:stedsnr" v="422381" />
	</node>
	<node id="-408060" lat="58.9424583289" lon="6.27108888896">
		<tag k="name" v="Myrane" />
		<tag k="natural" v="wetland" />
		<tag k="ssr:stedsnr" v="422353" />
	</node>
	<node id="-408569" lat="58.9066888912" lon="6.31144444478">
		<tag k="name" v="Piggete Steinen" />
		<tag k="natural" v="stone" />
		<tag k="ssr:stedsnr" v="727095" />
	</node>
	<node id="-408056" lat="58.9467888873" lon="6.30008055836">
		<tag k="historic" v="shieling" />
		<tag k="name" v="Tydlebakka" />
		<tag k="place" v="locality" />
		<tag k="ssr:stedsnr" v="421230" />
	</node>
	<node id="-408567" lat="58.974358334" lon="6.25840278062">
		<tag k="name" v="Storemyr" />
		<tag k="natural" v="wetland" />
		<tag k="ssr:stedsnr" v="727050" />
	</node>
	<node id="-407550" lat="58.9539972237" lon="6.15890277192">
		<tag k="name" v="Gullura" />
		<tag k="natural" v="scree" />
		<tag k="ssr:stedsnr" v="478985" />
	</node>
	<node id="-408558" lat="58.9455722209" lon="6.21351666635">
		<tag k="name" v="Resagarden" />
		<tag k="place" v="locality" />
		<tag k="ssr:stedsnr" v="726417" />
	</node>
	<node id="-408029" lat="58.8871249975" lon="6.31461388159">
		<tag k="name" v="Tausamyrane" />
		<tag k="natural" v="wetland" />
		<tag k="ssr:stedsnr" v="244676" />
	</node>
	<node id="-407998" lat="59.02022778" lon="6.34668611017">
		<tag k="name" v="Hamramyra" />
		<tag k="natural" v="wetland" />
		<tag k="ssr:stedsnr" v="242198" />
	</node>
	<node id="-407454" lat="58.9380944405" lon="6.06447222064">
		<tag k="name" v="Tjørtomyr" />
		<tag k="natural" v="wetland" />
		<tag k="ssr:stedsnr" v="362649" />
	</node>
	<node id="-407986" lat="58.8871527741" lon="6.24818055722">
		<tag k="name" v="Hagjen" />
		<tag k="place" v="locality" />
		<tag k="ssr:stedsnr" v="241783" />
	</node>
	<node id="-407467" lat="58.9587500005" lon="6.2647555529">
		<tag k="name" v="Stilkamyra" />
		<tag k="natural" v="wetland" />
		<tag k="ssr:stedsnr" v="363018" />
	</node>
	<node id="-407458" lat="58.9045527778" lon="6.25466389302">
		<tag k="name" v="Busteinane" />
		<tag k="natural" v="stone" />
		<tag k="ssr:stedsnr" v="362811" />
	</node>
	<node id="-407456" lat="58.9437138852" lon="6.17381388711">
		<tag k="historic" v="shieling" />
		<tag k="name" v="Eiastølen" />
		<tag k="place" v="locality" />
		<tag k="ssr:stedsnr" v="362677" />
	</node>
	<node id="-408990" lat="58.9710861141" lon="6.33487499731">
		<tag k="name" v="Bergmyrane" />
		<tag k="natural" v="wetland" />
		<tag k="ssr:stedsnr" v="969249" />
	</node>
	<node id="-408901" lat="58.9474611081" lon="6.04252778145">
		<tag k="name" v="Kringlemyr" />
		<tag k="natural" v="wetland" />
		<tag k="ssr:stedsnr" v="909898" />
	</node>
	<node id="-407450" lat="58.8876527781" lon="6.14289166484">
		<tag k="name" v="Trodlamyrane" />
		<tag k="natural" v="wetland" />
		<tag k="ssr:stedsnr" v="362207" />
	</node>
	<node id="-408978" lat="58.9426944433" lon="6.25119721936">
		<tag k="historic" v="shieling" />
		<tag k="name" v="Eiastølen" />
		<tag k="place" v="locality" />
		<tag k="ssr:stedsnr" v="968421" />
	</node>
	<node id="-407346" lat="58.8885250038" lon="6.19620277065">
		<tag k="historic" v="shieling" />
		<tag k="name" v="Byrkjelandsstølen" />
		<tag k="place" v="locality" />
		<tag k="ssr:stedsnr" v="302157" />
	</node>
	<node id="-407437" lat="58.9362583338" lon="6.29839999878">
		<tag k="name" v="Vida Myrå" />
		<tag k="natural" v="wetland" />
		<tag k="ssr:stedsnr" v="360213" />
	</node>
	<node id="-408968" lat="58.9165000044" lon="6.26135834031">
		<tag k="name" v="Tukksteinen" />
		<tag k="natural" v="stone" />
		<tag k="ssr:stedsnr" v="967246" />
	</node>
	<node id="-407430" lat="58.8636194477" lon="6.14796389501">
		<tag k="name" v="Vettaseet" />
		<tag k="place" v="locality" />
		<tag k="ssr:stedsnr" v="358173" />
	</node>
	<node id="-408452" lat="59.0542777741" lon="6.6302500015">
		<tag k="alt_name" v="Måkasteinen" />
		<tag k="name" v="Måkastein" />
		<tag k="natural" v="stone" />
		<tag k="ssr:stedsnr" v="630965" />
	</node>
	<node id="-407917" lat="59.1244583333" lon="6.62962222551">
		<tag k="name" v="Stormyra" />
		<tag k="natural" v="wetland" />
		<tag k="ssr:stedsnr" v="183119" />
	</node>
	<node id="-408911" lat="58.9759638928" lon="6.42909721907">
		<tag k="name" v="Uraleitet" />
		<tag k="natural" v="scree" />
		<tag k="ssr:stedsnr" v="911535" />
	</node>
	<node id="-407885" lat="58.9376222201" lon="6.20202221485">
		<tag k="historic" v="shieling" />
		<tag k="name" v="Vassbottstølen" />
		<tag k="place" v="locality" />
		<tag k="ssr:stedsnr" v="180687" />
	</node>
	<node id="-407884" lat="58.9322388879" lon="6.18081943615">
		<tag k="name" v="Vassbottura" />
		<tag k="natural" v="scree" />
		<tag k="ssr:stedsnr" v="180684" />
	</node>
	<node id="-407877" lat="58.8871694443" lon="6.30263055603">
		<tag k="name" v="Daursbeitet" />
		<tag k="place" v="locality" />
		<tag k="ssr:stedsnr" v="179997" />
	</node>
	<node id="-407363" lat="58.9419694451" lon="6.04917222604">
		<tag k="name" v="Steinbergskogen" />
		<tag k="place" v="locality" />
		<tag k="ssr:stedsnr" v="302872" />
	</node>
	<node id="-408380" lat="58.9294166695" lon="6.21316666471">
		<tag k="historic" v="shieling" />
		<tag k="name" v="Nibestøl" />
		<tag k="place" v="locality" />
		<tag k="ssr:stedsnr" v="605683" />
	</node>
	<node id="-408378" lat="58.910055559" lon="6.13074167032">
		<tag k="historic" v="shieling" />
		<tag k="name" v="Heimre Stølen" />
		<tag k="place" v="locality" />
		<tag k="ssr:stedsnr" v="605638" />
	</node>
	<node id="-407353" lat="58.9642472223" lon="6.32695000619">
		<tag k="name" v="Tjuahedler" />
		<tag k="natural" v="stone" />
		<tag k="ssr:stedsnr" v="302289" />
	</node>
	<node id="-408882" lat="59.0287777746" lon="6.3889888933">
		<tag k="name" v="Hestamyra" />
		<tag k="natural" v="wetland" />
		<tag k="ssr:stedsnr" v="909189" />
	</node>
	<node id="-407345" lat="58.9212277741" lon="6.32791389659">
		<tag k="name" v="Indre Kjilen" />
		<tag k="natural" v="wetland" />
		<tag k="ssr:stedsnr" v="302116" />
	</node>
	<node id="-408876" lat="58.9010416661" lon="6.24889999881">
		<tag k="name" v="Åssteinane" />
		<tag k="natural" v="stone" />
		<tag k="ssr:stedsnr" v="908834" />
	</node>
	<node id="-407858" lat="58.8679138917" lon="6.21216666552">
		<tag k="name" v="Ljødemyr" />
		<tag k="natural" v="wetland" />
		<tag k="ssr:stedsnr" v="161933" />
	</node>
	<node id="-407335" lat="58.9621361119" lon="6.25786111811">
		<tag k="name" v="Viermyr" />
		<tag k="natural" v="wetland" />
		<tag k="ssr:stedsnr" v="302018" />
	</node>
	<node id="-408866" lat="58.9241944419" lon="6.16633889614">
		<tag k="name" v="Fiskesteinen" />
		<tag k="natural" v="stone" />
		<tag k="ssr:stedsnr" v="907322" />
	</node>
	<node id="-408352" lat="58.9118444479" lon="6.24225555797">
		<tag k="name" v="Halfarsteinen" />
		<tag k="natural" v="stone" />
		<tag k="ssr:stedsnr" v="603289" />
	</node>
	<node id="-408861" lat="58.9066638898" lon="6.25890833273">
		<tag k="name" v="Kyrkjå" />
		<tag k="natural" v="stone" />
		<tag k="ssr:stedsnr" v="907235" />
	</node>
	<node id="-407324" lat="58.9112722216" lon="6.17618888745">
		<tag k="name" v="Kjeringtjønnmyra" />
		<tag k="natural" v="wetland" />
		<tag k="ssr:stedsnr" v="300357" />
	</node>
	<node id="-408347" lat="58.9509000033" lon="6.08672221551">
		<tag k="name" v="Gråur" />
		<tag k="natural" v="scree" />
		<tag k="ssr:stedsnr" v="600959" />
	</node>
	<node id="-408328" lat="58.8660972179" lon="6.22962499952">
		<tag k="historic" v="shieling" />
		<tag k="name" v="Mælstølen" />
		<tag k="place" v="locality" />
		<tag k="ssr:stedsnr" v="586943" />
	</node>
	<node id="-407814" lat="58.9364694447" lon="6.22081388142">
		<tag k="historic" v="shieling" />
		<tag k="name" v="Hagastølen" />
		<tag k="place" v="locality" />
		<tag k="ssr:stedsnr" v="122542" />
	</node>
	<node id="-407793" lat="58.906136107" lon="6.13313332601">
		<tag k="name" v="Eiketødne" />
		<tag k="place" v="locality" />
		<tag k="ssr:stedsnr" v="120628" />
	</node>
	<node id="-407784" lat="58.902602776" lon="6.1845722285">
		<tag k="name" v="Torvmyra" />
		<tag k="natural" v="wetland" />
		<tag k="ssr:stedsnr" v="120130" />
	</node>
	<node id="-408801" lat="59.0636611092" lon="6.70585555825">
		<tag k="name" v="Austmannsteinen" />
		<tag k="natural" v="stone" />
		<tag k="ssr:stedsnr" v="849862" />
	</node>
	<node id="-407775" lat="58.9427638886" lon="6.27918332982">
		<tag k="historic" v="shieling" />
		<tag k="name" v="Fossanstølen" />
		<tag k="place" v="locality" />
		<tag k="ssr:stedsnr" v="118230" />
	</node>
	<node id="-407770" lat="58.9573083362" lon="6.06170555724">
		<tag k="name" v="Melingstølen" />
		<tag k="place" v="locality" />
		<tag k="ssr:stedsnr" v="115484" />
	</node>
	<node id="-408793" lat="58.9203722183" lon="6.31616388572">
		<tag k="name" v="Heimre Kjilen" />
		<tag k="natural" v="wetland" />
		<tag k="ssr:stedsnr" v="849127" />
	</node>
	<node id="-407766" lat="58.9510861127" lon="6.12267221539">
		<tag k="name" v="Skjerå" />
		<tag k="natural" v="scree" />
		<tag k="ssr:stedsnr" v="115881" />
	</node>
	<node id="-408788" lat="58.9901833303" lon="6.26231389743">
		<tag k="historic" v="shieling" />
		<tag k="name" v="Griggelistølen" />
		<tag k="place" v="locality" />
		<tag k="ssr:stedsnr" v="849076" />
	</node>
	<node id="-408261" lat="58.8848361078" lon="6.13140832652">
		<tag k="name" v="Holmyr" />
		<tag k="natural" v="wetland" />
		<tag k="ssr:stedsnr" v="544193" />
	</node>
	<node id="-408257" lat="58.85976667" lon="6.16564166803">
		<tag k="name" v="Gilura" />
		<tag k="natural" v="scree" />
		<tag k="ssr:stedsnr" v="542987" />
	</node>
	<node id="-408255" lat="58.8582388934" lon="6.15625278078">
		<tag k="name" v="Geitasteinen" />
		<tag k="natural" v="stone" />
		<tag k="ssr:stedsnr" v="542931" />
	</node>
	<node id="-408765" lat="58.8892083294" lon="6.27474999572">
		<tag k="historic" v="shieling" />
		<tag k="name" v="Nerespedalstølen" />
		<tag k="place" v="locality" />
		<tag k="ssr:stedsnr" v="848000" />
	</node>
	<node id="-408244" lat="58.9624750022" lon="6.21270833225">
		<tag k="name" v="Gullura" />
		<tag k="natural" v="scree" />
		<tag k="ssr:stedsnr" v="545012" />
	</node>
	<node id="-408750" lat="58.9636694419" lon="6.05493611883">
		<tag k="name" v="Kroga" />
		<tag k="place" v="locality" />
		<tag k="ssr:stedsnr" v="843506" />
	</node>
	<node id="-407323" lat="58.9199916652" lon="6.24928611023">
		<tag k="historic" v="shieling" />
		<tag k="name" v="Halfarsteinen" />
		<tag k="place" v="locality" />
		<tag k="ssr:stedsnr" v="300304" />
	</node>
	<node id="-408736" lat="58.8657166638" lon="6.24577222447">
		<tag k="historic" v="shieling" />
		<tag k="name" v="Indre Mælstølen" />
		<tag k="place" v="locality" />
		<tag k="ssr:stedsnr" v="829946" />
	</node>
	<node id="-408734" lat="58.9344555592" lon="6.30071388525">
		<tag k="name" v="Bonisteinen" />
		<tag k="natural" v="stone" />
		<tag k="ssr:stedsnr" v="829489" />
	</node>
	<node id="-408215" lat="58.8997972222" lon="6.33753055292">
		<tag k="name" v="Jonssteinen" />
		<tag k="natural" v="stone" />
		<tag k="ssr:stedsnr" v="486742" />
	</node>
	<node id="-407690" lat="58.9132527754" lon="6.27519999511">
		<tag k="landuse" v="meadow" />
		<tag k="name" v="Bojahagen" />
		<tag k="ssr:stedsnr" v="60110" />
	</node>
	<node id="-408695" lat="59.0637833322" lon="6.61851666705">
		<tag k="historic" v="shieling" />
		<tag k="name" v="Tjørnastølen" />
		<tag k="place" v="locality" />
		<tag k="ssr:stedsnr" v="788861" />
	</node>
	<node id="-408179" lat="59.0698500039" lon="6.42778333093">
		<tag k="name" v="Vadlalimyrane" />
		<tag k="natural" v="wetland" />
		<tag k="ssr:stedsnr" v="484801" />
	</node>
	<node id="-408177" lat="58.9322722209" lon="6.1985444359">
		<tag k="name" v="Skitmyrane" />
		<tag k="natural" v="wetland" />
		<tag k="ssr:stedsnr" v="484671" />
	</node>
	<node id="-408682" lat="59.0513972215" lon="6.28381389384">
		<tag k="historic" v="shieling" />
		<tag k="name" v="Gamlestølen" />
		<tag k="place" v="locality" />
		<tag k="ssr:stedsnr" v="788136" />
	</node>
	<node id="-407656" lat="58.9231472183" lon="6.21073611391">
		<tag k="historic" v="shieling" />
		<tag k="name" v="Haukalistølen" />
		<tag k="place" v="locality" />
		<tag k="ssr:stedsnr" v="57286" />
	</node>
	<node id="-408676" lat="58.9270694462" lon="6.16108055878">
		<tag k="historic" v="shieling" />
		<tag k="name" v="Bortre Stølen" />
		<tag k="place" v="locality" />
		<tag k="ssr:stedsnr" v="787668" />
	</node>
	<node id="-408163" lat="58.9032722241" lon="6.12317500265">
		<tag k="name" v="Viemyr" />
		<tag k="natural" v="wetland" />
		<tag k="ssr:stedsnr" v="483252" />
	</node>
	<node id="-408162" lat="58.9025555567" lon="6.12804722034">
		<tag k="name" v="Myrane" />
		<tag k="natural" v="wetland" />
		<tag k="ssr:stedsnr" v="483235" />
	</node>
	<node id="-407648" lat="58.9492472216" lon="6.15047500724">
		<tag k="name" v="Dørvikmyrane" />
		<tag k="natural" v="wetland" />
		<tag k="ssr:stedsnr" v="54983" />
	</node>
	<node id="-407647" lat="58.9540833312" lon="6.06846944628">
		<tag k="name" v="Lerangstølen" />
		<tag k="place" v="locality" />
		<tag k="ssr:stedsnr" v="54568" />
	</node>
	<node id="-407645" lat="58.9510861127" lon="6.12267221539">
		<tag k="name" v="Lyngtuna" />
		<tag k="natural" v="scree" />
		<tag k="ssr:stedsnr" v="54385" />
	</node>
	<node id="-408666" lat="58.8978361078" lon="6.18264999501">
		<tag k="name" v="Torvslettene" />
		<tag k="place" v="locality" />
		<tag k="ssr:stedsnr" v="787127" />
	</node>
	<node id="-408662" lat="58.8495611085" lon="6.18086944458">
		<tag k="name" v="Sælia" />
		<tag k="natural" v="scree" />
		<tag k="ssr:stedsnr" v="785995" />
	</node>
	<node id="-408656" lat="58.9182722209" lon="6.26313056424">
		<tag k="name" v="Kolhaug" />
		<tag k="natural" v="stone" />
		<tag k="ssr:stedsnr" v="785256" />
	</node>
	<node id="-408140" lat="58.9307694448" lon="6.15931665989">
		<tag k="name" v="Krogamyra" />
		<tag k="natural" v="wetland" />
		<tag k="ssr:stedsnr" v="466518" />
	</node>
	<node id="-408646" lat="58.9508166697" lon="6.06199721364">
		<tag k="name" v="Maramyra" />
		<tag k="natural" v="wetland" />
		<tag k="ssr:stedsnr" v="782529" />
	</node>
	<node id="-407611" lat="58.8945388856" lon="6.35001110616">
		<tag k="historic" v="shieling" />
		<tag k="name" v="Indrestølen" />
		<tag k="place" v="locality" />
		<tag k="ssr:stedsnr" v="1735" />
	</node>
	<node id="-408669" lat="58.8878333367" lon="6.11751666911">
		<tag k="name" v="Torvmyra" />
		<tag k="natural" v="wetland" />
		<tag k="ssr:stedsnr" v="787195" />
	</node>
	<node id="-407590" lat="59.0702388927" lon="6.42829999636">
		<tag k="name" v="Moltemyra" />
		<tag k="natural" v="wetland" />
		<tag k="ssr:stedsnr" v="1028" />
	</node>
	<node id="-408610" lat="58.8893749983" lon="6.26990000232">
		<tag k="alt_name" v="Stølsmyra" />
		<tag k="name" v="Stølsmyrane" />
		<tag k="natural" v="wetland" />
		<tag k="ssr:stedsnr" v="729772" />
	</node>
	<node id="-408091" lat="58.9755388901" lon="6.26344999811">
		<tag k="name" v="Endrane" />
		<tag k="natural" v="wetland" />
		<tag k="ssr:stedsnr" v="425499" />
	</node>
	<node id="-408085" lat="59.0616805599" lon="6.68149722157">
		<tag k="name" v="Jonsoksteinen" />
		<tag k="natural" v="stone" />
		<tag k="ssr:stedsnr" v="424830" />
	</node>
	<node id="-408238" lat="58.8671250037" lon="6.20801389595">
		<tag k="historic" v="shieling" />
		<tag k="name" v="Litlabrekka" />
		<tag k="place" v="locality" />
		<tag k="ssr:stedsnr" v="525940" />
	</node>
	<node id="-408072" lat="58.9318666641" lon="6.17824167505">
		<tag k="landuse" v="meadow" />
		<tag k="name" v="Slåttå" />
		<tag k="ssr:stedsnr" v="423716" />
	</node>
	<node id="-408579" lat="59.065149998" lon="6.66807221808">
		<tag k="name" v="Kongesteinen" />
		<tag k="natural" v="stone" />
		<tag k="ssr:stedsnr" v="727836" />
	</node>
</osm>
