<?xml version="1.0" encoding="UTF-8"?>
<osm generator="osmapis" version="0.6">
	<node id="-408190" lat="58.9006416663" lon="6.23479443651">
		<tag k="fixme" v="verify maritime location" />
		<tag k="mooring" v="yes" />
		<tag k="name" v="Likstø" />
		<tag k="place" v="locality" />
		<tag k="ssr:stedsnr" v="42176" />
	</node>
	<node id="-409210" lat="58.9916027751" lon="6.25633610269">
		<tag k="fixme" v="verify maritime location" />
		<tag k="mooring" v="yes" />
		<tag k="name" v="Sjurshamn" />
		<tag k="place" v="locality" />
		<tag k="ssr:stedsnr" v="787045" />
	</node>
	<node id="-408440" lat="58.9239000015" lon="6.28459443737">
		<tag k="ford" v="yes" />
		<tag k="name" v="Antusvadet" />
		<tag k="place" v="locality" />
		<tag k="ssr:stedsnr" v="181062" />
	</node>
	<node id="-408309" lat="58.8715527753" lon="6.18027777711">
		<tag k="bridge" v="yes" />
		<tag k="layer" v="1" />
		<tag k="name" v="Kleppa" />
		<tag k="ssr:stedsnr" v="107693" />
	</node>
	<node id="-408692" lat="58.9371388892" lon="6.03815000846">
		<tag k="bridge" v="yes" />
		<tag k="layer" v="1" />
		<tag k="name" v="Lerang" />
		<tag k="ssr:stedsnr" v="471676" />
	</node>
	<node id="-409322" lat="58.9584388901" lon="6.19690832821">
		<tag k="highway" v="path" />
		<tag k="name" v="Grøstien" />
		<tag k="ssr:stedsnr" v="849005" />
	</node>
	<node id="-408103" lat="58.9251027794" lon="6.09233611273">
		<tag k="layer" v="-1" />
		<tag k="name" v="Nibå" />
		<tag k="ssr:stedsnr" v="894387" />
		<tag k="tunnel" v="yes" />
	</node>
	<node id="-407889" lat="58.9397333359" lon="6.37105555579">
		<tag k="highway" v="path" />
		<tag k="name" v="Driftaveien" />
		<tag k="ssr:stedsnr" v="302092" />
	</node>
	<node id="-408932" lat="58.8835916633" lon="6.29513889314">
		<tag k="highway" v="path" />
		<tag k="name" v="Sigmundstien" />
		<tag k="ssr:stedsnr" v="605979" />
	</node>
	<node id="-409187" lat="58.8755972218" lon="6.13703334118">
		<tag k="bridge" v="yes" />
		<tag k="layer" v="1" />
		<tag k="name" v="Rossavik" />
		<tag k="ssr:stedsnr" v="775654" />
	</node>
	<node id="-409561" lat="59.0546902453" lon="6.64527618489">
		<tag k="amenity" v="ferry_terminal" />
		<tag k="name" v="Lysebotn ferjekai" />
		<tag k="ssr:stedsnr" v="978637" />
	</node>
	<node id="-409560" lat="58.9059276019" lon="6.07536631316">
		<tag k="amenity" v="ferry_terminal" />
		<tag k="name" v="Oanes ferjekai" />
		<tag k="ssr:stedsnr" v="978590" />
	</node>
	<node id="-409557" lat="58.969125307" lon="6.15755799724">
		<tag k="man_made" v="quay" />
		<tag k="name" v="Revså kai" />
		<tag k="place" v="locality" />
		<tag k="ssr:stedsnr" v="973943" />
	</node>
	<node id="-408787" lat="59.0418583369" lon="6.3960944522">
		<tag k="bridge" v="yes" />
		<tag k="layer" v="1" />
		<tag k="name" v="Furestølen" />
		<tag k="ssr:stedsnr" v="532671" />
	</node>
	<node id="-408786" lat="59.0162888908" lon="6.32309166903">
		<tag k="amenity" v="ferry_terminal" />
		<tag k="name" v="Songesand ferjekai" />
		<tag k="ssr:stedsnr" v="532656" />
	</node>
	<node id="-408017" lat="58.9143138908" lon="6.29964443988">
		<tag k="ford" v="yes" />
		<tag k="name" v="Spranget" />
		<tag k="place" v="locality" />
		<tag k="ssr:stedsnr" v="363080" />
	</node>
	<node id="-408782" lat="59.0542861105" lon="6.66507499574">
		<tag k="layer" v="-1" />
		<tag k="name" v="Lysetunnelen" />
		<tag k="ssr:stedsnr" v="510625" />
		<tag k="tunnel" v="yes" />
	</node>
	<node id="-409288" lat="59.0499305534" lon="6.40513611689">
		<tag k="bridge" v="yes" />
		<tag k="layer" v="1" />
		<tag k="name" v="Mørkebudalen" />
		<tag k="ssr:stedsnr" v="836654" />
	</node>
	<node id="-409287" lat="58.9210527757" lon="6.10229443722">
		<tag k="alt_name" v="Liahammaren" />
		<tag k="layer" v="-1" />
		<tag k="name" v="Liahammar" />
		<tag k="ssr:stedsnr" v="833318" />
		<tag k="tunnel" v="yes" />
	</node>
	<node id="-409280" lat="58.9456583341" lon="6.31743333246">
		<tag k="ford" v="yes" />
		<tag k="name" v="Sauavadet" />
		<tag k="place" v="locality" />
		<tag k="ssr:stedsnr" v="829492" />
	</node>
	<node id="-408693" lat="58.8641861118" lon="6.15331110472">
		<tag k="bridge" v="yes" />
		<tag k="layer" v="1" />
		<tag k="name" v="Mæle" />
		<tag k="ssr:stedsnr" v="471680" />
	</node>
	<node id="-408308" lat="58.9419972264" lon="6.09549721909">
		<tag k="layer" v="-1" />
		<tag k="name" v="Høllesli" />
		<tag k="ssr:stedsnr" v="105514" />
		<tag k="tunnel" v="yes" />
	</node>
	<node id="-409523" lat="58.8866166697" lon="6.1063861129">
		<tag k="highway" v="path" />
		<tag k="name" v="Stien" />
		<tag k="ssr:stedsnr" v="969035" />
	</node>
	<node id="-407858" lat="58.9170027797" lon="6.27189999653">
		<tag k="bridge" v="yes" />
		<tag k="layer" v="1" />
		<tag k="name" v="Espedal (Øvre)" />
		<tag k="ssr:stedsnr" v="46722" />
	</node>
	<node id="-408881" lat="58.8855972233" lon="6.20409721778">
		<tag k="bridge" v="yes" />
		<tag k="layer" v="1" />
		<tag k="name" v="Eikeland" />
		<tag k="ssr:stedsnr" v="592714" />
	</node>
	<node id="-408880" lat="58.8857916686" lon="6.20837500016">
		<tag k="bridge" v="yes" />
		<tag k="layer" v="1" />
		<tag k="name" v="Espedal Nedre" />
		<tag k="ssr:stedsnr" v="592715" />
	</node>
	<node id="-408111" lat="59.1190969627" lon="6.89325804472">
		<tag k="landuse" v="industrial" />
		<tag k="name" v="Duge kraftverk" />
		<tag k="power" v="plant" />
		<tag k="ssr:stedsnr" v="981299" />
	</node>
	<node id="-408110" lat="58.9767723506" lon="6.2182419887">
		<tag k="alt_name" v="Katthamn" />
		<tag k="landuse" v="harbour" />
		<tag k="name" v="Katthavn" />
		<tag k="seamark:type" v="harbour" />
		<tag k="ssr:stedsnr" v="389587" />
	</node>
	<node id="-409004" lat="58.8942166675" lon="6.22308611548">
		<tag k="ford" v="yes" />
		<tag k="name" v="Gangsteinane" />
		<tag k="place" v="locality" />
		<tag k="ssr:stedsnr" v="648177" />
	</node>
	<node id="-408105" lat="58.9015228118" lon="6.08817719716">
		<tag k="amenity" v="ferry_terminal" />
		<tag k="name" v="Forsand ferjekai" />
		<tag k="ssr:stedsnr" v="896729" />
	</node>
	<node id="-408104" lat="59.0333277786" lon="6.39381111337">
		<tag k="bridge" v="yes" />
		<tag k="layer" v="1" />
		<tag k="name" v="Helmikstølen" />
		<tag k="ssr:stedsnr" v="896730" />
	</node>
	<node id="-408999" lat="58.9688555527" lon="6.15580000114">
		<tag k="landuse" v="harbour" />
		<tag k="name" v="Stølahavn" />
		<tag k="seamark:type" v="harbour" />
		<tag k="ssr:stedsnr" v="631546" />
	</node>
	<node id="-407857" lat="58.8909416675" lon="6.14514999682">
		<tag k="bridge" v="yes" />
		<tag k="layer" v="1" />
		<tag k="name" v="Forsand" />
		<tag k="ssr:stedsnr" v="46723" />
	</node>
	<node id="-408611" lat="58.8909805577" lon="6.14511944527">
		<tag k="bridge" v="yes" />
		<tag k="layer" v="1" />
		<tag k="name" v="Rossavik" />
		<tag k="ssr:stedsnr" v="423211" />
	</node>
	<node id="-407856" lat="59.0566083367" lon="6.65675277442">
		<tag k="bridge" v="yes" />
		<tag k="layer" v="1" />
		<tag k="name" v="Lysebotn" />
		<tag k="ssr:stedsnr" v="46719" />
	</node>
	<node id="-409374" lat="58.919669443" lon="6.41168611825">
		<tag k="highway" v="path" />
		<tag k="name" v="Heimra Klemma" />
		<tag k="ssr:stedsnr" v="851700" />
	</node>
	<node id="-408090" lat="59.0567055548" lon="6.66733055095">
		<tag k="bridge" v="yes" />
		<tag k="layer" v="1" />
		<tag k="name" v="Lyseelva" />
		<tag k="ssr:stedsnr" v="411651" />
	</node>
	<node id="-407961" lat="58.9196194431" lon="6.10103332499">
		<tag k="highway" v="path" />
		<tag k="name" v="Nesastigen" />
		<tag k="ssr:stedsnr" v="329561" />
	</node>
	<node id="-409112" lat="58.9814166696" lon="6.22908610533">
		<tag k="man_made" v="quay" />
		<tag k="name" v="Fossmork" />
		<tag k="place" v="locality" />
		<tag k="ssr:stedsnr" v="727041" />
	</node>
	<node id="-408025" lat="58.9848944463" lon="6.35931110239">
		<tag k="highway" v="path" />
		<tag k="name" v="Svenskaveien" />
		<tag k="ssr:stedsnr" v="363213" />
	</node>
	<node id="-408212" lat="58.9038555598" lon="6.32291665989">
		<tag k="ford" v="yes" />
		<tag k="name" v="Hedlesdalvadet" />
		<tag k="place" v="locality" />
		<tag k="ssr:stedsnr" v="58995" />
	</node>
	<node id="-408332" lat="59.0118916695" lon="6.26311666296">
		<tag k="man_made" v="quay" />
		<tag k="name" v="Brattlikaien" />
		<tag k="place" v="locality" />
		<tag k="ssr:stedsnr" v="120194" />
	</node>
	<node id="-408585" lat="59.0801388917" lon="6.34792499784">
		<tag k="fixme" v="verify maritime location" />
		<tag k="mooring" v="yes" />
		<tag k="name" v="Pramstød" />
		<tag k="place" v="locality" />
		<tag k="ssr:stedsnr" v="245094" />
	</node>
	<node id="-408364" lat="58.9202638869" lon="6.44169999632">
		<tag k="highway" v="path" />
		<tag k="name" v="Indra Klemma" />
		<tag k="ssr:stedsnr" v="122700" />
	</node>
</osm>
