<?xml version="1.0" encoding="UTF-8"?>
<osm generator="osmapis" version="0.6">
	<node id="-409088" lat="58.8962472252" lon="6.22978056244">
		<tag k="name" v="Der auste" />
		<tag k="place" v="farm" />
		<tag k="ssr:stedsnr" v="709159" />
	</node>
	<node id="-409086" lat="58.8774972259" lon="6.18328055007">
		<tag k="name" v="Bakkane" />
		<tag k="place" v="farm" />
		<tag k="ssr:stedsnr" v="707946" />
	</node>
	<node id="-409071" lat="59.0330872862" lon="6.39785105683">
		<tag k="fixme" v="consider place=hamlet" />
		<tag k="name" v="Helmikstølen" />
		<tag k="place" v="farm" />
		<tag k="ssr:stedsnr" v="669028" />
	</node>
	<node id="-409069" lat="59.0677305518" lon="6.50506389084">
		<tag k="historic" v="shieling" />
		<tag k="name" v="Håhellerstølen" />
		<tag k="place" v="locality" />
		<tag k="ssr:stedsnr" v="669022" />
	</node>
	<node id="-408556" lat="58.8659555572" lon="6.22800833646">
		<tag k="historic" v="shieling" />
		<tag k="name" v="Eikelandsstølen" />
		<tag k="place" v="locality" />
		<tag k="ssr:stedsnr" v="243665" />
	</node>
	<node id="-408555" lat="58.9082750032" lon="6.1843138968">
		<tag k="name" v="Jonskardet" />
		<tag k="place" v="farm" />
		<tag k="ssr:stedsnr" v="243632" />
	</node>
	<node id="-409061" lat="58.9360009698" lon="6.09725531461">
		<tag k="alt_name" v="Hyllesli;Hydleslia" />
		<tag k="fixme" v="consider place=hamlet" />
		<tag k="name" v="Høllesli" />
		<tag k="place" v="farm" />
		<tag k="ssr:stedsnr" v="668757" />
	</node>
	<node id="-409059" lat="58.9182250022" lon="6.26817500452">
		<tag k="name" v="Hellesvollen" />
		<tag k="place" v="farm" />
		<tag k="ssr:stedsnr" v="668733" />
	</node>
	<node id="-409056" lat="58.8911904879" lon="6.22032523606">
		<tag k="alt_name" v="Espedal, nedre" />
		<tag k="fixme" v="consider place=hamlet" />
		<tag k="name" v="Nedre Espedal" />
		<tag k="place" v="farm" />
		<tag k="ssr:stedsnr" v="668709" />
	</node>
	<node id="-408540" lat="58.9437128694" lon="6.02149745777">
		<tag k="fixme" v="consider place=hamlet" />
		<tag k="name" v="Meling" />
		<tag k="place" v="farm" />
		<tag k="ssr:stedsnr" v="243724" />
	</node>
	<node id="-408539" lat="58.9424688478" lon="6.1330087272">
		<tag k="alt_name" v="Viga" />
		<tag k="fixme" v="consider place=hamlet" />
		<tag k="name" v="Vika" />
		<tag k="place" v="farm" />
		<tag k="ssr:stedsnr" v="243721" />
	</node>
	<node id="-409562" lat="59.1156715716" lon="6.87539067265">
		<tag k="fixme" v="consider tourism=alpine_hut or tourism=chalet" />
		<tag k="name" v="Grautheller" />
		<tag k="ssr:stedsnr" v="979824" />
		<tag k="tourism" v="wilderness_hut" />
	</node>
	<node id="-408535" lat="58.9559638918" lon="6.17762777865">
		<tag k="name" v="Pålaplasset" />
		<tag k="place" v="locality" />
		<tag k="ssr:stedsnr" v="242001" />
	</node>
	<node id="-409556" lat="58.9867541397" lon="6.34233300485">
		<tag k="fixme" v="consider tourism=alpine_hut or tourism=chalet" />
		<tag k="name" v="Skåpet" />
		<tag k="old_name" v="Nye Skåpet" />
		<tag k="ssr:stedsnr" v="971463" />
		<tag k="tourism" v="wilderness_hut" />
	</node>
	<node id="-408528" lat="58.9460138866" lon="6.07367500659">
		<tag k="historic" v="shieling" />
		<tag k="name" v="Erevikstølen" />
		<tag k="place" v="locality" />
		<tag k="ssr:stedsnr" v="241611" />
	</node>
	<node id="-408481" lat="59.0541995656" lon="6.65037257702">
		<tag k="alt_name" v="Nerabø" />
		<tag k="fixme" v="consider place=hamlet" />
		<tag k="name" v="Nedrabø" />
		<tag k="place" v="farm" />
		<tag k="ssr:stedsnr" v="183810" />
	</node>
	<node id="-408395" lat="59.1124564866" lon="6.8765808184">
		<tag k="fixme" v="consider tourism=alpine_hut or tourism=chalet" />
		<tag k="name" v="Grautheller" />
		<tag k="old_name" v="Grautheller turisthytte" />
		<tag k="ssr:stedsnr" v="141430" />
		<tag k="tourism" v="wilderness_hut" />
	</node>
	<node id="-409532" lat="58.8970750006" lon="6.13824167401">
		<tag k="name" v="Odda" />
		<tag k="place" v="farm" />
		<tag k="ssr:stedsnr" v="969213" />
	</node>
	<node id="-409019" lat="58.8852916668" lon="6.20712222584">
		<tag k="name" v="Tjelmen" />
		<tag k="place" v="farm" />
		<tag k="ssr:stedsnr" v="665161" />
	</node>
	<node id="-408506" lat="58.9266555536" lon="6.20805555285">
		<tag k="barrier" v="fence" />
		<tag k="name" v="Braudagarden" />
		<tag k="ssr:stedsnr" v="239310" />
	</node>
	<node id="-407993" lat="58.8865661931" lon="6.21127732007">
		<tag k="fixme" v="consider place=hamlet" />
		<tag k="name" v="Brunnabakka" />
		<tag k="place" v="farm" />
		<tag k="ssr:stedsnr" v="362131" />
	</node>
	<node id="-408500" lat="58.9496138921" lon="6.0223611023">
		<tag k="name" v="Hetledalen" />
		<tag k="place" v="farm" />
		<tag k="ssr:stedsnr" v="236291" />
	</node>
	<node id="-408648" lat="59.0609944461" lon="6.41262778008">
		<tag k="historic" v="shieling" />
		<tag k="name" v="Kåsastølen" />
		<tag k="place" v="locality" />
		<tag k="ssr:stedsnr" v="426049" />
	</node>
	<node id="-409003" lat="59.1163806544" lon="6.87521208907">
		<tag k="fixme" v="consider tourism=alpine_hut or tourism=chalet" />
		<tag k="name" v="Heiberghytta Grautheller" />
		<tag k="ssr:stedsnr" v="647210" />
		<tag k="tourism" v="wilderness_hut" />
	</node>
	<node id="-407975" lat="58.8635305532" lon="6.15529166318">
		<tag k="name" v="Torehagen" />
		<tag k="place" v="farm" />
		<tag k="ssr:stedsnr" v="358172" />
	</node>
	<node id="-409509" lat="58.9177444431" lon="6.27123333263">
		<tag k="name" v="Garden" />
		<tag k="place" v="farm" />
		<tag k="ssr:stedsnr" v="967231" />
	</node>
	<node id="-408483" lat="58.8900750025" lon="6.27346944817">
		<tag k="name" v="Espedalsstølen" />
		<tag k="place" v="isolated_dwelling" />
		<tag k="ssr:stedsnr" v="183755" />
	</node>
	<node id="-409505" lat="58.933133333" lon="6.14589444288">
		<tag k="historic" v="shieling" />
		<tag k="name" v="Vigastølen" />
		<tag k="place" v="locality" />
		<tag k="ssr:stedsnr" v="952597" />
	</node>
	<node id="-408479" lat="58.934122219" lon="6.03752222332">
		<tag k="alt_name" v="Skeivik, ytre;Ytra Skeivig;Ytre Skeivik" />
		<tag k="name" v="Ytra Skeivik" />
		<tag k="place" v="farm" />
		<tag k="ssr:stedsnr" v="183738" />
	</node>
	<node id="-407964" lat="59.0123527815" lon="6.42581943999">
		<tag k="alt_name" v="Fløyrli turiststasjon" />
		<tag k="fixme" v="consider tourism=alpine_hut or tourism=chalet" />
		<tag k="name" v="Flørli turiststasjon" />
		<tag k="old_name" v="Fløyrli" />
		<tag k="ssr:stedsnr" v="344130" />
		<tag k="tourism" v="wilderness_hut" />
	</node>
	<node id="-408218" lat="58.8847694441" lon="6.21249167395">
		<tag k="name" v="Kvednabakken" />
		<tag k="place" v="farm" />
		<tag k="ssr:stedsnr" v="59143" />
	</node>
	<node id="-408985" lat="59.0871833299" lon="6.83102778527">
		<tag k="historic" v="shieling" />
		<tag k="name" v="Raunane" />
		<tag k="place" v="locality" />
		<tag k="ssr:stedsnr" v="608166" />
	</node>
	<node id="-407957" lat="58.9988148671" lon="6.28376254896">
		<tag k="fixme" v="consider place=hamlet" />
		<tag k="name" v="Mulen" />
		<tag k="place" v="farm" />
		<tag k="ssr:stedsnr" v="305275" />
	</node>
	<node id="-409492" lat="59.0173763581" lon="6.32325959133">
		<tag k="fixme" v="consider place=hamlet" />
		<tag k="name" v="Songesand" />
		<tag k="place" v="farm" />
		<tag k="ssr:stedsnr" v="912201" />
	</node>
	<node id="-409490" lat="59.0934722209" lon="6.61900833105">
		<tag k="historic" v="shieling" />
		<tag k="name" v="Krokstøl" />
		<tag k="place" v="locality" />
		<tag k="ssr:stedsnr" v="912181" />
	</node>
	<node id="-409489" lat="59.0908833318" lon="6.64675832728">
		<tag k="historic" v="shieling" />
		<tag k="name" v="Tangastølen" />
		<tag k="place" v="locality" />
		<tag k="ssr:stedsnr" v="912175" />
	</node>
	<node id="-408975" lat="59.0243087404" lon="6.34260230904">
		<tag k="fixme" v="consider place=hamlet" />
		<tag k="name" v="Hatleskog" />
		<tag k="place" v="farm" />
		<tag k="ssr:stedsnr" v="608031" />
	</node>
	<node id="-408215" lat="58.8900944403" lon="6.21777500769">
		<tag k="name" v="Aunå" />
		<tag k="place" v="farm" />
		<tag k="ssr:stedsnr" v="59106" />
	</node>
	<node id="-409478" lat="59.0602712808" lon="6.4183370722">
		<tag k="historic" v="shieling" />
		<tag k="name" v="Helmikstølen" />
		<tag k="place" v="locality" />
		<tag k="ssr:stedsnr" v="912044" />
	</node>
	<node id="-408129" lat="58.8962203346" lon="6.22794909345">
		<tag k="fixme" v="consider place=hamlet" />
		<tag k="name" v="Løland" />
		<tag k="place" v="farm" />
		<tag k="ssr:stedsnr" v="724" />
	</node>
	<node id="-409473" lat="59.0612383079" lon="6.67766556632">
		<tag k="fixme" v="consider place=hamlet" />
		<tag k="name" v="Lyse" />
		<tag k="place" v="farm" />
		<tag k="ssr:stedsnr" v="911798" />
	</node>
	<node id="-408959" lat="58.9448499964" lon="6.1034861167">
		<tag k="alt_name" v="Hamn;Habn" />
		<tag k="name" v="Hamnen" />
		<tag k="place" v="farm" />
		<tag k="ssr:stedsnr" v="607714" />
	</node>
	<node id="-409468" lat="58.9154000033" lon="6.27027500493">
		<tag k="name" v="Almavollen" />
		<tag k="place" v="farm" />
		<tag k="ssr:stedsnr" v="911733" />
	</node>
	<node id="-409466" lat="58.9560270356" lon="6.19560045016">
		<tag k="alt_name" v="Indra Eidane;Øvre Eiane" />
		<tag k="fixme" v="consider place=hamlet" />
		<tag k="name" v="Øvreidane" />
		<tag k="place" v="farm" />
		<tag k="ssr:stedsnr" v="911709" />
	</node>
	<node id="-409461" lat="58.8720198" lon="6.18268225093">
		<tag k="fixme" v="consider place=hamlet" />
		<tag k="name" v="Kleppa" />
		<tag k="place" v="farm" />
		<tag k="ssr:stedsnr" v="911586" />
	</node>
	<node id="-407924" lat="58.8987166663" lon="6.09359445268">
		<tag k="name" v="Forsand" />
		<tag k="place" v="farm" />
		<tag k="ssr:stedsnr" v="304658" />
	</node>
	<node id="-407923" lat="58.8964611072" lon="6.10347500762">
		<tag k="name" v="Myrbakken" />
		<tag k="place" v="farm" />
		<tag k="ssr:stedsnr" v="304655" />
	</node>
	<node id="-408945" lat="58.9033000044" lon="6.10477499383">
		<tag k="fixme" v="consider place=hamlet" />
		<tag k="name" v="Forsand" />
		<tag k="place" v="village" />
		<tag k="ssr:stedsnr" v="607630" />
	</node>
	<node id="-408944" lat="58.9070112618" lon="6.18299288496">
		<tag k="fixme" v="consider place=hamlet" />
		<tag k="name" v="Oaland" />
		<tag k="place" v="farm" />
		<tag k="ssr:stedsnr" v="607629" />
	</node>
	<node id="-408943" lat="58.8733724507" lon="6.13619293951">
		<tag k="alt_name" v="Rossavik" />
		<tag k="name" v="Rossavika" />
		<tag k="place" v="hamlet" />
		<tag k="ssr:stedsnr" v="607569" />
	</node>
	<node id="-409454" lat="58.9740123713" lon="6.23433335179">
		<tag k="name" v="Myrane" />
		<tag k="place" v="farm" />
		<tag k="ssr:stedsnr" v="911525" />
	</node>
	<node id="-407916" lat="58.9736391662" lon="6.24095473916">
		<tag k="alt_name" v="Fossmork, yt" />
		<tag k="name" v="Ytre Fossmork" />
		<tag k="place" v="farm" />
		<tag k="ssr:stedsnr" v="304514" />
	</node>
	<node id="-409451" lat="59.0037527801" lon="6.40671111274">
		<tag k="name" v="Kallalistølen" />
		<tag k="place" v="isolated_dwelling" />
		<tag k="ssr:stedsnr" v="911198" />
	</node>
	<node id="-408425" lat="58.8883083311" lon="6.2140111192">
		<tag k="name" v="Moen" />
		<tag k="place" v="farm" />
		<tag k="ssr:stedsnr" v="180164" />
	</node>
	<node id="-408415" lat="59.146991667" lon="6.84454444022">
		<tag k="fixme" v="consider tourism=alpine_hut or tourism=chalet" />
		<tag k="name" v="Tverrå" />
		<tag k="ssr:stedsnr" v="178052" />
		<tag k="tourism" v="wilderness_hut" />
	</node>
	<node id="-408037" lat="58.9053789139" lon="6.07354550328">
		<tag k="fixme" v="consider place=hamlet" />
		<tag k="name" v="Oanes" />
		<tag k="place" v="farm" />
		<tag k="ssr:stedsnr" v="364641" />
	</node>
	<node id="-408122" lat="58.861484334" lon="6.15712629018">
		<tag k="alt_name" v="Mele" />
		<tag k="fixme" v="consider place=hamlet" />
		<tag k="name" v="Mæle" />
		<tag k="place" v="farm" />
		<tag k="ssr:stedsnr" v="578" />
	</node>
	<node id="-407894" lat="59.0276555587" lon="6.36988610939">
		<tag k="name" v="Solheim" />
		<tag k="place" v="farm" />
		<tag k="ssr:stedsnr" v="302250" />
	</node>
	<node id="-408403" lat="58.8806694456" lon="6.20195832651">
		<tag k="name" v="Skallen" />
		<tag k="place" v="farm" />
		<tag k="ssr:stedsnr" v="161929" />
	</node>
	<node id="-409419" lat="58.8999661649" lon="6.09380805807">
		<tag k="fixme" v="consider place=hamlet" />
		<tag k="name" v="Fossan" />
		<tag k="place" v="farm" />
		<tag k="ssr:stedsnr" v="908564" />
	</node>
	<node id="-408391" lat="59.0130399223" lon="6.42617083791">
		<tag k="fixme" v="consider place=hamlet" />
		<tag k="name" v="Flørli" />
		<tag k="place" v="farm" />
		<tag k="ssr:stedsnr" v="123219" />
	</node>
	<node id="-407875" lat="58.8847222189" lon="6.13759723093">
		<tag k="name" v="Brodane" />
		<tag k="place" v="farm" />
		<tag k="ssr:stedsnr" v="301182" />
	</node>
	<node id="-408896" lat="58.9235194437" lon="6.17779444838">
		<tag k="name" v="Kvednaveien" />
		<tag k="place" v="locality" />
		<tag k="ssr:stedsnr" v="602354" />
	</node>
	<node id="-408895" lat="58.9341388913" lon="6.09456667006">
		<tag k="name" v="Utheim" />
		<tag k="place" v="farm" />
		<tag k="ssr:stedsnr" v="601807" />
	</node>
	<node id="-408878" lat="59.0421000025" lon="6.43012778277">
		<tag k="fixme" v="consider tourism=alpine_hut or tourism=chalet" />
		<tag k="name" v="Songedalen fjellgard" />
		<tag k="ssr:stedsnr" v="586961" />
		<tag k="tourism" v="wilderness_hut" />
	</node>
	<node id="-408365" lat="58.9372772062" lon="6.03612663194">
		<tag k="alt_name" v="Leirang" />
		<tag k="fixme" v="consider place=hamlet" />
		<tag k="name" v="Lerang" />
		<tag k="place" v="farm" />
		<tag k="ssr:stedsnr" v="122713" />
	</node>
	<node id="-408875" lat="58.8821250025" lon="6.19658054793">
		<tag k="name" v="Golhaug" />
		<tag k="place" v="farm" />
		<tag k="ssr:stedsnr" v="586948" />
	</node>
	<node id="-408361" lat="58.9554161226" lon="6.17376812748">
		<tag k="alt_name" v="Nedre Eiane;Ytra Eidane" />
		<tag k="fixme" v="consider place=hamlet" />
		<tag k="name" v="Nedreidane" />
		<tag k="place" v="farm" />
		<tag k="ssr:stedsnr" v="122684" />
	</node>
	<node id="-408454" lat="58.8958587143" lon="6.1628127428">
		<tag k="fixme" v="consider place=hamlet" />
		<tag k="name" v="Rettedal" />
		<tag k="place" v="farm" />
		<tag k="ssr:stedsnr" v="182661" />
	</node>
	<node id="-408866" lat="59.0160083377" lon="6.26077500797">
		<tag k="alt_name" v="Brattlia, midtre;Bratteli;Brattelia" />
		<tag k="name" v="Midtre Brattlia" />
		<tag k="place" v="farm" />
		<tag k="ssr:stedsnr" v="548215" />
	</node>
	<node id="-408865" lat="59.0096388887" lon="6.40008610399">
		<tag k="name" v="Hamnen" />
		<tag k="place" v="isolated_dwelling" />
		<tag k="ssr:stedsnr" v="548211" />
	</node>
	<node id="-408350" lat="59.0640722802" lon="6.33935072594">
		<tag k="fixme" v="consider place=hamlet" />
		<tag k="name" v="Sundmork" />
		<tag k="place" v="farm" />
		<tag k="ssr:stedsnr" v="122022" />
	</node>
	<node id="-408860" lat="58.9273916661" lon="6.43456111944">
		<tag k="name" v="Korvabu" />
		<tag k="place" v="isolated_dwelling" />
		<tag k="ssr:stedsnr" v="547740" />
	</node>
	<node id="-408859" lat="58.9243361153" lon="6.45564166907">
		<tag k="name" v="Ernstlega" />
		<tag k="place" v="isolated_dwelling" />
		<tag k="ssr:stedsnr" v="547736" />
	</node>
	<node id="-409369" lat="59.0177361082" lon="6.26178889198">
		<tag k="alt_name" v="Brattlia, øvre;Bratteli" />
		<tag k="name" v="Øvre Brattlia" />
		<tag k="place" v="farm" />
		<tag k="ssr:stedsnr" v="851192" />
	</node>
	<node id="-408856" lat="58.9205766195" lon="6.17615594801">
		<tag k="fixme" v="consider place=hamlet" />
		<tag k="name" v="Haukali" />
		<tag k="place" v="farm" />
		<tag k="ssr:stedsnr" v="547682" />
	</node>
	<node id="-408853" lat="58.9429888901" lon="6.25109445215">
		<tag k="historic" v="shieling" />
		<tag k="name" v="Hellesstølen" />
		<tag k="place" v="locality" />
		<tag k="ssr:stedsnr" v="547582" />
	</node>
	<node id="-409364" lat="59.0300259462" lon="6.40586676465">
		<tag k="fixme" v="consider place=hamlet" />
		<tag k="name" v="Kåsen" />
		<tag k="place" v="farm" />
		<tag k="ssr:stedsnr" v="851043" />
	</node>
	<node id="-407854" lat="58.8800444424" lon="6.19091944501">
		<tag k="name" v="Moen" />
		<tag k="place" v="farm" />
		<tag k="ssr:stedsnr" v="283961" />
	</node>
	<node id="-408848" lat="59.0058833297" lon="6.42216111714">
		<tag k="fixme" v="consider tourism=alpine_hut or tourism=chalet" />
		<tag k="name" v="Flørlistølen" />
		<tag k="ssr:stedsnr" v="547202" />
		<tag k="tourism" v="wilderness_hut" />
	</node>
	<node id="-409359" lat="59.0654333309" lon="6.56039999643">
		<tag k="name" v="Fyljesdalen" />
		<tag k="place" v="farm" />
		<tag k="ssr:stedsnr" v="851007" />
	</node>
	<node id="-408845" lat="59.104774998" lon="6.6145249997">
		<tag k="historic" v="shieling" />
		<tag k="name" v="Lysestølen" />
		<tag k="place" v="locality" />
		<tag k="ssr:stedsnr" v="547143" />
	</node>
	<node id="-408844" lat="59.0475410551" lon="6.54776265852">
		<tag k="fixme" v="consider place=hamlet" />
		<tag k="name" v="Sagbakken" />
		<tag k="place" v="farm" />
		<tag k="ssr:stedsnr" v="547070" />
	</node>
	<node id="-409354" lat="58.8778527807" lon="6.25098610233">
		<tag k="name" v="Perastølen" />
		<tag k="place" v="isolated_dwelling" />
		<tag k="ssr:stedsnr" v="850619" />
	</node>
	<node id="-409350" lat="58.9769728499" lon="6.24757267767">
		<tag k="alt_name" v="Fossmork, in;Fossmork" />
		<tag k="name" v="Indre Fossmork" />
		<tag k="place" v="farm" />
		<tag k="ssr:stedsnr" v="850525" />
	</node>
	<node id="-408834" lat="58.9090083312" lon="6.30287777983">
		<tag k="alt_name" v="Espedalsstølen, øvre;Espedalsstølen" />
		<tag k="historic" v="shieling" />
		<tag k="loc_name" v="Øvre Espedalstølen" />
		<tag k="name" v="Øvre Espedalsstølen" />
		<tag k="place" v="locality" />
		<tag k="ssr:stedsnr" v="546675" />
	</node>
	<node id="-409387" lat="58.991691663" lon="6.61459999875">
		<tag k="fixme" v="consider tourism=alpine_hut or tourism=chalet" />
		<tag k="name" v="Langavatn" />
		<tag k="ssr:stedsnr" v="873507" />
		<tag k="tourism" v="wilderness_hut" />
	</node>
	<node id="-408832" lat="58.8978555512" lon="6.12874443637">
		<tag k="alt_name" v="Landdal" />
		<tag k="name" v="Landal" />
		<tag k="place" v="farm" />
		<tag k="ssr:stedsnr" v="546606" />
	</node>
	<node id="-408319" lat="58.9216305529" lon="6.07502776941">
		<tag k="name" v="Sisselstova" />
		<tag k="place" v="locality" />
		<tag k="ssr:stedsnr" v="116531" />
	</node>
	<node id="-408106" lat="58.9760076538" lon="6.24658203386">
		<tag k="fixme" v="consider place=hamlet" />
		<tag k="name" v="Fossmork" />
		<tag k="place" v="farm" />
		<tag k="ssr:stedsnr" v="1071946" />
	</node>
	<node id="-408304" lat="58.8953055511" lon="6.22233888761">
		<tag k="name" v="Der ute" />
		<tag k="place" v="farm" />
		<tag k="ssr:stedsnr" v="102171" />
	</node>
	<node id="-408301" lat="58.8761479455" lon="6.19198799292">
		<tag k="fixme" v="consider place=hamlet" />
		<tag k="name" v="Drivflåt" />
		<tag k="place" v="farm" />
		<tag k="ssr:stedsnr" v="101958" />
	</node>
	<node id="-408299" lat="58.894705556" lon="6.10211666443">
		<tag k="name" v="Hagavik" />
		<tag k="place" v="farm" />
		<tag k="ssr:stedsnr" v="85965" />
	</node>
	<node id="-408956" lat="58.9203749989" lon="6.27593055162">
		<tag k="name" v="Hestevollen" />
		<tag k="place" v="farm" />
		<tag k="ssr:stedsnr" v="607712" />
	</node>
	<node id="-409315" lat="58.8883083311" lon="6.2140111192">
		<tag k="name" v="Eikeland" />
		<tag k="place" v="farm" />
		<tag k="ssr:stedsnr" v="848172" />
	</node>
	<node id="-408288" lat="59.055402866" lon="6.64853378308">
		<tag k="fixme" v="consider place=hamlet" />
		<tag k="name" v="Lysebotn" />
		<tag k="place" v="village" />
		<tag k="ssr:stedsnr" v="62797" />
	</node>
	<node id="-409309" lat="58.9412638927" lon="6.09732221942">
		<tag k="name" v="Liå" />
		<tag k="place" v="farm" />
		<tag k="ssr:stedsnr" v="846684" />
	</node>
	<node id="-407930" lat="58.915652779" lon="6.27430000722">
		<tag k="name" v="Plasset" />
		<tag k="place" v="farm" />
		<tag k="ssr:stedsnr" v="304724" />
	</node>
	<node id="-408275" lat="59.00524167" lon="6.22486111485">
		<tag k="name" v="Hengjande" />
		<tag k="place" v="farm" />
		<tag k="ssr:stedsnr" v="62203" />
	</node>
	<node id="-408785" lat="58.8919166646" lon="6.21967776949">
		<tag k="name" v="Garden" />
		<tag k="place" v="farm" />
		<tag k="ssr:stedsnr" v="527166" />
	</node>
	<node id="-408184" lat="58.8711888902" lon="6.17839721561">
		<tag k="name" v="Nygård" />
		<tag k="place" v="farm" />
		<tag k="ssr:stedsnr" v="40960" />
	</node>
	<node id="-407851" lat="59.0549368191" lon="6.64860239317">
		<tag k="fixme" v="consider tourism=alpine_hut or tourism=chalet" />
		<tag k="name" v="Lysefjorden turisthytte" />
		<tag k="ssr:stedsnr" v="283153" />
		<tag k="tourism" v="wilderness_hut" />
	</node>
	<node id="-408777" lat="59.0231776969" lon="6.34632931741">
		<tag k="name" v="Moen" />
		<tag k="place" v="farm" />
		<tag k="ssr:stedsnr" v="487205" />
	</node>
	<node id="-408776" lat="59.0083214061" lon="6.39433672772">
		<tag k="alt_name" v="Kallalia" />
		<tag k="fixme" v="consider place=hamlet" />
		<tag k="name" v="Kallali" />
		<tag k="place" v="farm" />
		<tag k="ssr:stedsnr" v="487202" />
	</node>
	<node id="-408769" lat="59.0296055522" lon="6.42536944995">
		<tag k="name" v="Tuftene" />
		<tag k="place" v="isolated_dwelling" />
		<tag k="ssr:stedsnr" v="487033" />
	</node>
	<node id="-408256" lat="58.896002777" lon="6.13636389672">
		<tag k="name" v="Heimdal" />
		<tag k="place" v="farm" />
		<tag k="ssr:stedsnr" v="61646" />
	</node>
	<node id="-409273" lat="59.0232666674" lon="6.35162499343">
		<tag k="name" v="Sørvoll" />
		<tag k="place" v="farm" />
		<tag k="ssr:stedsnr" v="791200" />
	</node>
	<node id="-409430" lat="58.9627666653" lon="6.27659721987">
		<tag k="historic" v="shieling" />
		<tag k="name" v="Kringlevasstølen" />
		<tag k="place" v="locality" />
		<tag k="ssr:stedsnr" v="909264" />
	</node>
	<node id="-409271" lat="59.0694805542" lon="6.74333333805">
		<tag k="name" v="Dalabu" />
		<tag k="place" v="isolated_dwelling" />
		<tag k="ssr:stedsnr" v="791154" />
	</node>
	<node id="-408757" lat="58.9152250528" lon="6.27233657348">
		<tag k="alt_name" v="Espedal, øvre" />
		<tag k="fixme" v="consider place=hamlet" />
		<tag k="name" v="Øvre Espedal" />
		<tag k="place" v="farm" />
		<tag k="ssr:stedsnr" v="486725" />
	</node>
	<node id="-408947" lat="58.8973313865" lon="6.14601156821">
		<tag k="fixme" v="consider place=hamlet" />
		<tag k="name" v="Grøndal" />
		<tag k="place" v="farm" />
		<tag k="ssr:stedsnr" v="607668" />
	</node>
	<node id="-408752" lat="58.88173749" lon="6.20702524579">
		<tag k="fixme" v="consider place=hamlet" />
		<tag k="name" v="Eikjeland" />
		<tag k="place" v="farm" />
		<tag k="ssr:stedsnr" v="486694" />
	</node>
	<node id="-408751" lat="58.8957171095" lon="6.1458619696">
		<tag k="name" v="Slettabø" />
		<tag k="place" v="farm" />
		<tag k="ssr:stedsnr" v="486684" />
	</node>
	<node id="-409265" lat="59.0406733515" lon="6.51415453556">
		<tag k="fixme" v="consider place=hamlet" />
		<tag k="name" v="Håheller" />
		<tag k="place" v="farm" />
		<tag k="ssr:stedsnr" v="790186" />
	</node>
	<node id="-408749" lat="58.966174436" lon="6.02320240417">
		<tag k="fixme" v="consider place=hamlet" />
		<tag k="name" v="Berge" />
		<tag k="place" v="farm" />
		<tag k="ssr:stedsnr" v="486652" />
	</node>
	<node id="-408746" lat="58.8630680265" lon="6.14910752188">
		<tag k="fixme" v="consider place=hamlet" />
		<tag k="name" v="Helle" />
		<tag k="place" v="farm" />
		<tag k="ssr:stedsnr" v="486593" />
	</node>
	<node id="-409252" lat="58.9383210904" lon="6.18143628678">
		<tag k="alt_name" v="Vassbotn" />
		<tag k="fixme" v="consider place=hamlet" />
		<tag k="name" v="Vassbotnen" />
		<tag k="place" v="farm" />
		<tag k="ssr:stedsnr" v="789736" />
	</node>
	<node id="-409250" lat="58.9412730885" lon="6.12799980034">
		<tag k="alt_name" v="Vigadalen" />
		<tag k="name" v="Vikadalen" />
		<tag k="place" v="farm" />
		<tag k="ssr:stedsnr" v="789722" />
	</node>
	<node id="-409249" lat="58.9469475748" lon="6.0188619353">
		<tag k="fixme" v="consider place=hamlet" />
		<tag k="name" v="Nordland" />
		<tag k="place" v="farm" />
		<tag k="ssr:stedsnr" v="789709" />
	</node>
	<node id="-409248" lat="58.9426083295" lon="6.02075000022">
		<tag k="fixme" v="consider place=hamlet" />
		<tag k="name" v="Kolabygda" />
		<tag k="place" v="village" />
		<tag k="ssr:stedsnr" v="789695" />
	</node>
	<node id="-409246" lat="58.8937240119" lon="6.10511887768">
		<tag k="alt_name" v="Fossanhagen" />
		<tag k="name" v="Forsandhagen" />
		<tag k="place" v="isolated_dwelling" />
		<tag k="ssr:stedsnr" v="789644" />
	</node>
	<node id="-409245" lat="58.898213892" lon="6.11334999927">
		<tag k="name" v="Åslund" />
		<tag k="place" v="farm" />
		<tag k="ssr:stedsnr" v="789640" />
	</node>
	<node id="-409242" lat="58.9525944412" lon="6.24613888848">
		<tag k="historic" v="shieling" />
		<tag k="name" v="Holtastølen" />
		<tag k="place" v="locality" />
		<tag k="ssr:stedsnr" v="789533" />
	</node>
	<node id="-408175" lat="58.9852978656" lon="6.35051714802">
		<tag k="fixme" v="consider tourism=alpine_hut or tourism=chalet" />
		<tag k="name" v="Gamle Skåpet" />
		<tag k="old_name" v="Skåpet" />
		<tag k="ssr:stedsnr" v="21079" />
		<tag k="tourism" v="wilderness_hut" />
	</node>
	<node id="-409239" lat="59.0585527805" lon="6.6619277727">
		<tag k="amenity" v="school" />
		<tag k="name" v="Lyse" />
		<tag k="ssr:stedsnr" v="788860" />
	</node>
	<node id="-408601" lat="58.9615722238" lon="6.32691388271">
		<tag k="fixme" v="consider tourism=alpine_hut or tourism=chalet" />
		<tag k="name" v="Vinddalen" />
		<tag k="ssr:stedsnr" v="420785" />
		<tag k="tourism" v="wilderness_hut" />
	</node>
	<node id="-408205" lat="58.8610666693" lon="6.15604722888">
		<tag k="name" v="Hagjen" />
		<tag k="place" v="farm" />
		<tag k="ssr:stedsnr" v="57916" />
	</node>
	<node id="-409224" lat="58.953047223" lon="6.17950278448">
		<tag k="name" v="Holte" />
		<tag k="place" v="locality" />
		<tag k="ssr:stedsnr" v="788005" />
	</node>
	<node id="-408199" lat="58.9205055538" lon="6.07303610406">
		<tag k="name" v="Øygard" />
		<tag k="place" v="farm" />
		<tag k="ssr:stedsnr" v="55496" />
	</node>
	<node id="-407915" lat="58.9704055534" lon="6.22158611038">
		<tag k="name" v="Holte" />
		<tag k="place" v="farm" />
		<tag k="ssr:stedsnr" v="304515" />
	</node>
	<node id="-409365" lat="59.0437750019" lon="6.39897499713">
		<tag k="historic" v="shieling" />
		<tag k="name" v="Furestølen" />
		<tag k="place" v="locality" />
		<tag k="ssr:stedsnr" v="851050" />
	</node>
	<node id="-408696" lat="58.9242750032" lon="6.06967777882">
		<tag k="name" v="Nyland" />
		<tag k="place" v="farm" />
		<tag k="ssr:stedsnr" v="481691" />
	</node>
	<node id="-408687" lat="59.0158025487" lon="6.28768478334">
		<tag k="fixme" v="consider tourism=alpine_hut or tourism=chalet" />
		<tag k="name" v="Bakken gard" />
		<tag k="old_name" v="Bakken Gård" />
		<tag k="ssr:stedsnr" v="465354" />
		<tag k="tourism" v="wilderness_hut" />
	</node>
	<node id="-408265" lat="59.0258861109" lon="6.34992500475">
		<tag k="name" v="Solbakk" />
		<tag k="place" v="farm" />
		<tag k="ssr:stedsnr" v="62039" />
	</node>
	<node id="-408679" lat="59.0155766887" lon="6.28798145671">
		<tag k="name" v="Bakken" />
		<tag k="place" v="farm" />
		<tag k="ssr:stedsnr" v="427226" />
	</node>
	<node id="-408162" lat="59.0456499993" lon="6.6536722213">
		<tag k="building" v="commercial" />
		<tag k="name" v="Øygardsstølen" />
		<tag k="ssr:stedsnr" v="1778" />
	</node>
	<node id="-409184" lat="58.8685333352" lon="6.18067778331">
		<tag k="name" v="Kistiplasset" />
		<tag k="place" v="locality" />
		<tag k="ssr:stedsnr" v="768962" />
	</node>
	<node id="-408671" lat="59.070841673" lon="6.66540315899">
		<tag k="fixme" v="consider place=hamlet" />
		<tag k="name" v="Auklend" />
		<tag k="place" v="farm" />
		<tag k="ssr:stedsnr" v="427179" />
	</node>
	<node id="-408668" lat="59.0426823903" lon="6.4368735818">
		<tag k="fixme" v="consider place=hamlet" />
		<tag k="name" v="Songedal" />
		<tag k="place" v="farm" />
		<tag k="ssr:stedsnr" v="427046" />
	</node>
	<node id="-408155" lat="58.9166916674" lon="6.27493333903">
		<tag k="name" v="Gjerdet" />
		<tag k="place" v="farm" />
		<tag k="ssr:stedsnr" v="1711" />
	</node>
	<node id="-408665" lat="58.9065630442" lon="6.10731581582">
		<tag k="fixme" v="consider place=hamlet" />
		<tag k="name" v="Berge" />
		<tag k="place" v="farm" />
		<tag k="ssr:stedsnr" v="426777" />
	</node>
	<node id="-409176" lat="58.9004138916" lon="6.106222219">
		<tag k="name" v="Langheim" />
		<tag k="place" v="farm" />
		<tag k="ssr:stedsnr" v="734639" />
	</node>
	<node id="-408663" lat="58.9306222183" lon="6.05007778447">
		<tag k="alt_name" v="Skeivik, indre;Indra Skeivig;Indre Skeivik" />
		<tag k="name" v="Indra Skeivik" />
		<tag k="place" v="farm" />
		<tag k="ssr:stedsnr" v="426735" />
	</node>
	<node id="-409174" lat="59.0686027766" lon="6.66318332632">
		<tag k="name" v="Tangen" />
		<tag k="place" v="farm" />
		<tag k="ssr:stedsnr" v="730165" />
	</node>
	<node id="-408652" lat="59.1602222186" lon="6.89978889303">
		<tag k="name" v="Lysebu" />
		<tag k="ssr:stedsnr" v="426151" />
		<tag k="tourism" v="hotel" />
	</node>
	<node id="-409160" lat="59.0394361149" lon="6.33125000178">
		<tag k="historic" v="shieling" />
		<tag k="name" v="Songesandstølen" />
		<tag k="place" v="locality" />
		<tag k="ssr:stedsnr" v="730028" />
	</node>
	<node id="-409158" lat="58.9632100663" lon="6.00836065871">
		<tag k="alt_name" v="Bergsvika;Bergsvik" />
		<tag k="fixme" v="consider place=hamlet" />
		<tag k="name" v="Bergsvig" />
		<tag k="place" v="farm" />
		<tag k="ssr:stedsnr" v="729816" />
	</node>
	<node id="-408132" lat="58.9574138933" lon="6.00754722523">
		<tag k="alt_name" v="Stein" />
		<tag k="name" v="Steinen" />
		<tag k="place" v="farm" />
		<tag k="ssr:stedsnr" v="786" />
	</node>
	<node id="-409154" lat="58.8929749965" lon="6.22169445251">
		<tag k="alt_name" v="Kjærholen" />
		<tag k="name" v="Kjerholen" />
		<tag k="place" v="farm" />
		<tag k="ssr:stedsnr" v="729768" />
	</node>
	<node id="-408641" lat="58.8990166687" lon="6.11746388618">
		<tag k="name" v="Åsheim" />
		<tag k="place" v="farm" />
		<tag k="ssr:stedsnr" v="425638" />
	</node>
	<node id="-408640" lat="58.9023977416" lon="6.09708783431">
		<tag k="alt_name" v="Gjøyse" />
		<tag k="fixme" v="consider place=hamlet" />
		<tag k="name" v="Gjøysa" />
		<tag k="place" v="farm" />
		<tag k="ssr:stedsnr" v="425621" />
	</node>
	<node id="-408126" lat="58.9443362392" lon="6.02704496671">
		<tag k="fixme" v="consider place=hamlet" />
		<tag k="name" v="Brekke" />
		<tag k="place" v="farm" />
		<tag k="ssr:stedsnr" v="720" />
	</node>
	<node id="-409146" lat="58.9347027773" lon="6.47021111143">
		<tag k="name" v="Mikkelshytta" />
		<tag k="place" v="isolated_dwelling" />
		<tag k="ssr:stedsnr" v="729714" />
	</node>
	<node id="-409144" lat="58.8844611086" lon="6.13702499503">
		<tag k="name" v="Rossabø" />
		<tag k="place" v="farm" />
		<tag k="ssr:stedsnr" v="729697" />
	</node>
	<node id="-408119" lat="58.8804523856" lon="6.19415988146">
		<tag k="fixme" v="consider place=hamlet" />
		<tag k="name" v="Byrkjeland" />
		<tag k="place" v="farm" />
		<tag k="ssr:stedsnr" v="678" />
	</node>
	<node id="-408117" lat="59.0413769534" lon="6.63120181579">
		<tag k="name" v="Kjerag nødbu" />
		<tag k="place" v="locality" />
		<tag k="ssr:stedsnr" v="991021" />
	</node>
	<node id="-409139" lat="58.9467750029" lon="6.29747777817">
		<tag k="name" v="Mikkelstølen" />
		<tag k="place" v="isolated_dwelling" />
		<tag k="ssr:stedsnr" v="729551" />
	</node>
	<node id="-408107" lat="58.9347182272" lon="6.11083959485">
		<tag k="fixme" v="consider place=hamlet" />
		<tag k="name" v="Bergsholmen" />
		<tag k="place" v="farm" />
		<tag k="ssr:stedsnr" v="1071950" />
	</node>
	<node id="-409130" lat="58.9232968492" lon="6.06206256231">
		<tag k="alt_name" v="Ereviga;Erevika" />
		<tag k="fixme" v="consider place=hamlet" />
		<tag k="name" v="Erevik" />
		<tag k="place" v="farm" />
		<tag k="ssr:stedsnr" v="729264" />
	</node>
	<node id="-408241" lat="59.030754271" lon="6.38256652408">
		<tag k="name" v="Skoglund" />
		<tag k="place" v="farm" />
		<tag k="ssr:stedsnr" v="60213" />
	</node>
	<node id="-408800" lat="58.9262055566" lon="6.17609722805">
		<tag k="name" v="Gryde" />
		<tag k="place" v="locality" />
		<tag k="ssr:stedsnr" v="542350" />
	</node>
	<node id="-409263" lat="59.0202611121" lon="6.28666111677">
		<tag k="name" v="Myra" />
		<tag k="place" v="isolated_dwelling" />
		<tag k="ssr:stedsnr" v="790175" />
	</node>
	<node id="-408599" lat="58.8717111132" lon="6.13684999971">
		<tag k="alt_name" v="Nedre Rossavig" />
		<tag k="name" v="Nedre Rossavik" />
		<tag k="place" v="farm" />
		<tag k="ssr:stedsnr" v="419570" />
	</node>
	<node id="-407967" lat="58.9423861079" lon="6.12384722072">
		<tag k="name" v="Skreddaren" />
		<tag k="place" v="locality" />
		<tag k="ssr:stedsnr" v="345604" />
	</node>
	<node id="-409328" lat="58.9581111135" lon="6.18926389204">
		<tag k="name" v="Sundvor" />
		<tag k="place" v="locality" />
		<tag k="ssr:stedsnr" v="849002" />
	</node>
	<node id="-408593" lat="58.8763583329" lon="6.13481944165">
		<tag k="alt_name" v="Øvre Rossavig" />
		<tag k="name" v="Øvre Rossavik" />
		<tag k="place" v="farm" />
		<tag k="ssr:stedsnr" v="479572" />
	</node>
	<node id="-408079" lat="59.0164999473" lon="6.26307601193">
		<tag k="alt_name" v="Bratteli" />
		<tag k="fixme" v="consider place=hamlet" />
		<tag k="name" v="Brattlia" />
		<tag k="place" v="farm" />
		<tag k="ssr:stedsnr" v="388649" />
	</node>
	<node id="-408590" lat="59.0251327844" lon="6.38874677829">
		<tag k="fixme" v="consider place=hamlet" />
		<tag k="name" v="Kallastein" />
		<tag k="place" v="farm" />
		<tag k="ssr:stedsnr" v="245191" />
	</node>
	<node id="-409099" lat="58.9207000041" lon="6.08207221489">
		<tag k="name" v="Askvoll" />
		<tag k="place" v="farm" />
		<tag k="ssr:stedsnr" v="722548" />
	</node>
	<node id="-408073" lat="59.0141666687" lon="6.26210556286">
		<tag k="alt_name" v="Brattlia, nedre;Bratteli" />
		<tag k="name" v="Nedre Brattlia" />
		<tag k="place" v="farm" />
		<tag k="ssr:stedsnr" v="366208" />
	</node>
	<node id="-409092" lat="58.9498999984" lon="6.01840556425">
		<tag k="name" v="Kåseplassen" />
		<tag k="place" v="farm" />
		<tag k="ssr:stedsnr" v="721276" />
	</node>
	<node id="-408579" lat="58.9184773068" lon="6.07751895523">
		<tag k="fixme" v="consider place=hamlet" />
		<tag k="name" v="Levik" />
		<tag k="place" v="farm" />
		<tag k="ssr:stedsnr" v="244750" />
	</node>
</osm>
