<?xml version="1.0" encoding="UTF-8"?>
<osm generator="osmapis" version="0.6">
	<node id="-407544" lat="58.8933333371" lon="6.2291805466">
		<tag k="name" v="Erikreghølen" />
		<tag k="place" v="locality" />
		<tag k="ssr:stedsnr" v="406165" />
	</node>
	<node id="-407541" lat="59.0575723928" lon="6.34921095668">
		<tag k="name" v="Teinebekktjørnane" />
		<tag k="natural" v="water" />
		<tag k="ssr:stedsnr" v="241172" />
		<tag k="water" v="lake" />
	</node>
	<node id="-407540" lat="59.0005583306" lon="6.3454138968">
		<tag k="name" v="Skredbekken" />
		<tag k="ssr:stedsnr" v="241164" />
		<tag k="waterway" v="stream" />
	</node>
	<node id="-407539" lat="58.9043027763" lon="6.1829055519">
		<tag k="name" v="Oalandstjørna" />
		<tag k="natural" v="water" />
		<tag k="ssr:stedsnr" v="241130" />
	</node>
	<node id="-407526" lat="59.1002749995" lon="6.83493333836">
		<tag k="alt_name" v="Ramsdalstjørna, nedra" />
		<tag k="name" v="Nedra Ramsdalstjørna" />
		<tag k="natural" v="water" />
		<tag k="ssr:stedsnr" v="366186" />
	</node>
	<node id="-407525" lat="59.0999972245" lon="6.77585555248">
		<tag k="alt_name" v="Vaulatjørna, midtra" />
		<tag k="name" v="Midtra Vaulatjørna" />
		<tag k="natural" v="water" />
		<tag k="ssr:stedsnr" v="366177" />
		<tag k="water" v="lake" />
	</node>
	<node id="-407521" lat="59.0383222246" lon="6.68720277019">
		<tag k="name" v="Venekvævtjørna" />
		<tag k="natural" v="water" />
		<tag k="ssr:stedsnr" v="365831" />
	</node>
	<node id="-407520" lat="58.9232861111" lon="6.18988888587">
		<tag k="name" v="Grytåna" />
		<tag k="ssr:stedsnr" v="365767" />
		<tag k="waterway" v="stream" />
	</node>
	<node id="-407517" lat="58.9480805526" lon="6.18688332916">
		<tag k="alt_name" v="Eidavatn;Eiavatnet" />
		<tag k="name" v="Eidavatnet" />
		<tag k="natural" v="water" />
		<tag k="ssr:stedsnr" v="365725" />
		<tag k="water" v="lake" />
	</node>
	<node id="-407514" lat="58.9530444442" lon="6.51314444406">
		<tag k="alt_name" v="Jomfruvatnet" />
		<tag k="name" v="Nordåvatnet" />
		<tag k="natural" v="water" />
		<tag k="ssr:stedsnr" v="365564" />
		<tag k="water" v="lake" />
	</node>
	<node id="-407512" lat="58.9485361081" lon="6.38510833185">
		<tag k="name" v="Fossvatnet" />
		<tag k="natural" v="water" />
		<tag k="ssr:stedsnr" v="365552" />
		<tag k="water" v="lake" />
	</node>
	<node id="-407511" lat="58.9776855097" lon="6.31410639891">
		<tag k="alt_name" v="Skjørtjørna" />
		<tag k="name" v="Legetjørna" />
		<tag k="natural" v="water" />
		<tag k="ssr:stedsnr" v="365520" />
	</node>
	<node id="-407510" lat="58.9772777753" lon="6.35710000434">
		<tag k="name" v="Sandvatnet" />
		<tag k="natural" v="water" />
		<tag k="ssr:stedsnr" v="365518" />
	</node>
	<node id="-407509" lat="59.0004361077" lon="6.48664167158">
		<tag k="alt_name" v="Flørlivatnet, stora" />
		<tag k="name" v="Stora Flørlivatnet" />
		<tag k="natural" v="water" />
		<tag k="ssr:stedsnr" v="365260" />
		<tag k="water" v="lake" />
	</node>
	<node id="-407508" lat="59.1267972218" lon="6.67800000058">
		<tag k="name" v="Såtetjørna" />
		<tag k="natural" v="water" />
		<tag k="ssr:stedsnr" v="365146" />
	</node>
	<node id="-407499" lat="59.054391663" lon="6.29626943687">
		<tag k="name" v="Høgavatnet" />
		<tag k="natural" v="water" />
		<tag k="ssr:stedsnr" v="365006" />
	</node>
	<node id="-407498" lat="58.9621027768" lon="6.02112221363">
		<tag k="alt_name" v="Stemmevatn" />
		<tag k="name" v="Stemmevatnet" />
		<tag k="natural" v="water" />
		<tag k="ssr:stedsnr" v="364798" />
		<tag k="water" v="lake" />
	</node>
	<node id="-407497" lat="58.9614499972" lon="6.0776500007">
		<tag k="alt_name" v="Jubavatnet" />
		<tag k="name" v="Djupavatnet" />
		<tag k="natural" v="water" />
		<tag k="ssr:stedsnr" v="364795" />
		<tag k="water" v="lake" />
	</node>
	<node id="-407486" lat="58.9887320303" lon="6.34242476016">
		<tag k="name" v="Soddatjørna" />
		<tag k="natural" v="water" />
		<tag k="ssr:stedsnr" v="364511" />
	</node>
	<node id="-407484" lat="59.0586555544" lon="6.65953055125">
		<tag k="name" v="Stølsåna" />
		<tag k="ssr:stedsnr" v="363845" />
		<tag k="waterway" v="river" />
	</node>
	<node id="-407479" lat="59.0281725762" lon="6.32483722428">
		<tag k="name" v="Langatjørna" />
		<tag k="natural" v="water" />
		<tag k="ssr:stedsnr" v="363181" />
	</node>
	<node id="-407475" lat="59.0379878712" lon="6.35724786687">
		<tag k="name" v="Bustetjørna" />
		<tag k="natural" v="water" />
		<tag k="ssr:stedsnr" v="363135" />
	</node>
	<node id="-407468" lat="58.925825001" lon="6.38307778111">
		<tag k="name" v="Habn" />
		<tag k="natural" v="bay" />
		<tag k="ssr:stedsnr" v="363039" />
	</node>
	<node id="-407463" lat="58.9566611117" lon="6.19190555588">
		<tag k="name" v="Sølå" />
		<tag k="natural" v="bay" />
		<tag k="ssr:stedsnr" v="363005" />
	</node>
	<node id="-407455" lat="58.9076833351" lon="6.14380832498">
		<tag k="name" v="Vasstrand" />
		<tag k="natural" v="beach" />
		<tag k="ssr:stedsnr" v="362651" />
	</node>
	<node id="-407452" lat="58.9305222228" lon="6.17464999716">
		<tag k="name" v="Haukaliosen" />
		<tag k="natural" v="strait" />
		<tag k="ssr:stedsnr" v="362704" />
	</node>
	<node id="-407445" lat="58.8845777816" lon="6.30713889485">
		<tag k="name" v="Tausabekken" />
		<tag k="ssr:stedsnr" v="362000" />
		<tag k="waterway" v="stream" />
	</node>
	<node id="-407444" lat="58.941611108" lon="6.26713888663">
		<tag k="name" v="Hedlesfossen" />
		<tag k="natural" v="waterfall" />
		<tag k="ssr:stedsnr" v="361424" />
	</node>
	<node id="-407436" lat="58.912411107" lon="6.10589444633">
		<tag k="name" v="Skrebekk" />
		<tag k="ssr:stedsnr" v="237541" />
		<tag k="waterway" v="stream" />
	</node>
	<node id="-407434" lat="58.9189666677" lon="6.06972777962">
		<tag k="name" v="Heiatjørna" />
		<tag k="natural" v="water" />
		<tag k="ssr:stedsnr" v="358540" />
	</node>
	<node id="-407433" lat="58.9261666655" lon="6.06510278586">
		<tag k="name" v="Ereviksvatnet" />
		<tag k="natural" v="water" />
		<tag k="ssr:stedsnr" v="358511" />
		<tag k="water" v="lake" />
	</node>
	<node id="-407429" lat="58.8662027774" lon="6.16119443705">
		<tag k="alt_name" v="Mælsåna" />
		<tag k="name" v="Mælsånå" />
		<tag k="ssr:stedsnr" v="358169" />
		<tag k="waterway" v="river" />
	</node>
	<node id="-407425" lat="58.9868277781" lon="6.15699722369">
		<tag k="name" v="Lomstjørna" />
		<tag k="natural" v="water" />
		<tag k="ssr:stedsnr" v="357692" />
	</node>
	<node id="-407422" lat="58.9366166631" lon="6.15956667103">
		<tag k="name" v="Ulvsgråvatnet" />
		<tag k="natural" v="water" />
		<tag k="ssr:stedsnr" v="345476" />
	</node>
	<node id="-407411" lat="59.002963887" lon="6.38446110984">
		<tag k="name" v="Kvernåna" />
		<tag k="ssr:stedsnr" v="305185" />
		<tag k="waterway" v="stream" />
	</node>
	<node id="-407410" lat="59.1004000009" lon="6.86224999382">
		<tag k="name" v="Raudbergtjørna" />
		<tag k="natural" v="water" />
		<tag k="ssr:stedsnr" v="305184" />
	</node>
	<node id="-407409" lat="59.0786333291" lon="6.72317222113">
		<tag k="alt_name" v="Brudlitjørna, heimra" />
		<tag k="name" v="Heimra Brudlitjørna" />
		<tag k="natural" v="water" />
		<tag k="ssr:stedsnr" v="305158" />
	</node>
	<node id="-407408" lat="59.059427781" lon="6.60205556161">
		<tag k="name" v="Storatjørna" />
		<tag k="natural" v="water" />
		<tag k="ssr:stedsnr" v="305152" />
	</node>
	<node id="-407407" lat="59.1447027819" lon="6.89831944005">
		<tag k="loc_name" v="Svartevatnet" />
		<tag k="name" v="Svartevatn" />
		<tag k="natural" v="water" />
		<tag k="ssr:stedsnr" v="305142" />
		<tag k="water" v="lake" />
	</node>
	<node id="-407406" lat="59.1651055531" lon="6.89602777787">
		<tag k="name" v="Svodhellervatnet" />
		<tag k="natural" v="water" />
		<tag k="ssr:stedsnr" v="305138" />
		<tag k="water" v="lake" />
	</node>
	<node id="-407404" lat="59.1036750025" lon="6.6741249952">
		<tag k="name" v="Langatjørna" />
		<tag k="natural" v="water" />
		<tag k="ssr:stedsnr" v="305130" />
	</node>
	<node id="-407402" lat="59.026666666" lon="6.254575003">
		<tag k="name" v="Stemvatnet" />
		<tag k="natural" v="water" />
		<tag k="ssr:stedsnr" v="305052" />
	</node>
	<node id="-407398" lat="58.9774138868" lon="6.15638056359">
		<tag k="alt_name" v="Refsåna" />
		<tag k="name" v="Revsåna" />
		<tag k="ssr:stedsnr" v="304813" />
		<tag k="waterway" v="stream" />
	</node>
	<node id="-407397" lat="58.9730444436" lon="6.13596389024">
		<tag k="alt_name" v="Jydalsvatnet" />
		<tag k="name" v="Gloppavatnet" />
		<tag k="natural" v="water" />
		<tag k="ssr:stedsnr" v="304812" />
		<tag k="water" v="lake" />
	</node>
	<node id="-407391" lat="58.9122250045" lon="6.4433138958">
		<tag k="name" v="Småvatna" />
		<tag k="natural" v="water" />
		<tag k="ssr:stedsnr" v="304751" />
	</node>
	<node id="-407389" lat="58.9172000009" lon="6.44157499999">
		<tag k="name" v="Sorpene" />
		<tag k="natural" v="water" />
		<tag k="ssr:stedsnr" v="304748" />
	</node>
	<node id="-407383" lat="58.9438527786" lon="6.49162500793">
		<tag k="name" v="Nordåtjørna" />
		<tag k="natural" v="water" />
		<tag k="ssr:stedsnr" v="304716" />
	</node>
	<node id="-407376" lat="58.9411861109" lon="6.30671110375">
		<tag k="name" v="Vinddøla" />
		<tag k="ssr:stedsnr" v="304568" />
		<tag k="waterway" v="river" />
	</node>
	<node id="-407375" lat="58.9478416641" lon="6.47433055316">
		<tag k="name" v="Bergvatnet" />
		<tag k="natural" v="water" />
		<tag k="ssr:stedsnr" v="304554" />
	</node>
	<node id="-407372" lat="58.9608333361" lon="6.30351111922">
		<tag k="name" v="Nordbekktjørna" />
		<tag k="natural" v="water" />
		<tag k="ssr:stedsnr" v="304519" />
	</node>
	<node id="-407369" lat="58.9891833331" lon="6.45171388606">
		<tag k="name" v="Åkroken" />
		<tag k="place" v="locality" />
		<tag k="ssr:stedsnr" v="304502" />
	</node>
	<node id="-407367" lat="58.9922583364" lon="6.32933611556">
		<tag k="name" v="Fiskahellervatnet" />
		<tag k="natural" v="water" />
		<tag k="ssr:stedsnr" v="304494" />
	</node>
	<node id="-407366" lat="58.8634972255" lon="6.21279721907">
		<tag k="name" v="Stølsvatnet" />
		<tag k="natural" v="water" />
		<tag k="ssr:stedsnr" v="304206" />
		<tag k="water" v="lake" />
	</node>
	<node id="-407354" lat="58.9604388885" lon="6.30452778523">
		<tag k="name" v="Vinddalsvatn" />
		<tag k="natural" v="water" />
		<tag k="ssr:stedsnr" v="302291" />
		<tag k="water" v="lake" />
	</node>
	<node id="-407348" lat="59.0324638935" lon="6.32051945149">
		<tag k="name" v="Skurvedalstjørna" />
		<tag k="natural" v="water" />
		<tag k="ssr:stedsnr" v="302228" />
	</node>
	<node id="-407342" lat="58.9720250017" lon="6.26650556335">
		<tag k="name" v="Kringlevassbekken" />
		<tag k="ssr:stedsnr" v="302074" />
		<tag k="waterway" v="stream" />
	</node>
	<node id="-407339" lat="58.9800027798" lon="6.25713610944">
		<tag k="name" v="Sollitjørn" />
		<tag k="natural" v="water" />
		<tag k="ssr:stedsnr" v="302061" />
	</node>
	<node id="-407308" lat="58.8769611082" lon="6.27134166356">
		<tag k="name" v="Lauvasstronda" />
		<tag k="natural" v="beach" />
		<tag k="ssr:stedsnr" v="283945" />
	</node>
	<node id="-407305" lat="58.9377083301" lon="6.08713889266">
		<tag k="name" v="Gulitjørna" />
		<tag k="natural" v="water" />
		<tag k="ssr:stedsnr" v="282591" />
	</node>
	<node id="-407302" lat="58.9308361897" lon="6.28791829289">
		<tag k="name" v="Kaldbekk" />
		<tag k="ssr:stedsnr" v="282460" />
		<tag k="waterway" v="stream" />
	</node>
	<node id="-409010" lat="59.0652222238" lon="6.39076944716">
		<tag k="name" v="Hommabekken" />
		<tag k="ssr:stedsnr" v="970526" />
		<tag k="waterway" v="stream" />
	</node>
	<node id="-409009" lat="58.9539333338" lon="6.35054722326">
		<tag k="name" v="Tverråfossen" />
		<tag k="natural" v="waterfall" />
		<tag k="ssr:stedsnr" v="970356" />
	</node>
	<node id="-409008" lat="59.0343888862" lon="6.33494443991">
		<tag k="name" v="Leitebakktjørna" />
		<tag k="natural" v="water" />
		<tag k="ssr:stedsnr" v="970322" />
	</node>
	<node id="-409007" lat="58.9587083314" lon="6.36924443828">
		<tag k="name" v="Øykjadalsosen" />
		<tag k="natural" v="bay" />
		<tag k="ssr:stedsnr" v="970299" />
	</node>
	<node id="-409006" lat="59.0403361081" lon="6.33448333139">
		<tag k="name" v="Syrehaugtjørna" />
		<tag k="natural" v="water" />
		<tag k="ssr:stedsnr" v="970216" />
	</node>
	<node id="-409001" lat="59.0715111148" lon="6.67348610884">
		<tag k="name" v="Godåna" />
		<tag k="ssr:stedsnr" v="969875" />
		<tag k="waterway" v="river" />
	</node>
	<node id="-408998" lat="59.0430138849" lon="6.39941666767">
		<tag k="name" v="Furestøltjørna" />
		<tag k="natural" v="water" />
		<tag k="ssr:stedsnr" v="969817" />
	</node>
	<node id="-408992" lat="58.9490472259" lon="6.29764445066">
		<tag k="name" v="Tjødnå" />
		<tag k="natural" v="water" />
		<tag k="ssr:stedsnr" v="969267" />
	</node>
	<node id="-408991" lat="58.9865694448" lon="6.30929166474">
		<tag k="name" v="Tangatjørna" />
		<tag k="natural" v="water" />
		<tag k="ssr:stedsnr" v="969253" />
	</node>
	<node id="-408975" lat="58.9157472178" lon="6.22015833009">
		<tag k="name" v="Kjeringtjørna" />
		<tag k="natural" v="water" />
		<tag k="ssr:stedsnr" v="967297" />
	</node>
	<node id="-408970" lat="58.9678805559" lon="6.12671667182">
		<tag k="name" v="Litla Ulvaskogvatn" />
		<tag k="natural" v="water" />
		<tag k="ssr:stedsnr" v="964859" />
		<tag k="water" v="lake" />
	</node>
	<node id="-408963" lat="58.928188893" lon="6.14616389457">
		<tag k="name" v="Stemtjørna" />
		<tag k="natural" v="water" />
		<tag k="ssr:stedsnr" v="952599" />
	</node>
	<node id="-408952" lat="59.0144555534" lon="6.21393889166">
		<tag k="alt_name" v="Klumravatnet" />
		<tag k="name" v="Klomravatnet" />
		<tag k="natural" v="water" />
		<tag k="ssr:stedsnr" v="912262" />
	</node>
	<node id="-408951" lat="59.1830750011" lon="6.65407776966">
		<tag k="loc_name" v="Nilsebuvatn" />
		<tag k="name" v="Nilsebuvatnet" />
		<tag k="natural" v="water" />
		<tag k="ssr:stedsnr" v="912233" />
		<tag k="water" v="lake" />
	</node>
	<node id="-408939" lat="59.1173249964" lon="6.68667499801">
		<tag k="alt_name" v="Dyrgrovtjørnene, nordre" />
		<tag k="name" v="Nordre Dyrgrovtjørnene" />
		<tag k="natural" v="water" />
		<tag k="ssr:stedsnr" v="912131" />
	</node>
	<node id="-408927" lat="58.9658527786" lon="6.08912778216">
		<tag k="alt_name" v="Mjåvatnet" />
		<tag k="name" v="Mjåvatn" />
		<tag k="natural" v="water" />
		<tag k="ssr:stedsnr" v="911774" />
		<tag k="water" v="lake" />
	</node>
	<node id="-408926" lat="58.8843000019" lon="6.24290833127">
		<tag k="name" v="Brekkevatnet" />
		<tag k="natural" v="water" />
		<tag k="ssr:stedsnr" v="911759" />
	</node>
	<node id="-408923" lat="58.9523750011" lon="6.05148333456">
		<tag k="name" v="Brekketjørna" />
		<tag k="natural" v="water" />
		<tag k="ssr:stedsnr" v="911717" />
	</node>
	<node id="-408915" lat="58.9460250007" lon="6.32715000496">
		<tag k="alt_name" v="Rangvarstjørna" />
		<tag k="name" v="Rongvadtjørna" />
		<tag k="natural" v="water" />
		<tag k="ssr:stedsnr" v="911558" />
	</node>
	<node id="-408909" lat="59.0018500036" lon="6.50204999691">
		<tag k="name" v="Flørvasstjørna" />
		<tag k="natural" v="water" />
		<tag k="ssr:stedsnr" v="911266" />
	</node>
	<node id="-408908" lat="59.0076555584" lon="6.45120278579">
		<tag k="name" v="Ternevatnet" />
		<tag k="natural" v="water" />
		<tag k="ssr:stedsnr" v="911200" />
	</node>
	<node id="-408904" lat="59.0743250033" lon="6.36636110557">
		<tag k="name" v="Maratjørna" />
		<tag k="natural" v="water" />
		<tag k="ssr:stedsnr" v="911026" />
	</node>
	<node id="-408896" lat="59.066022222" lon="6.56446943995">
		<tag k="name" v="Breibekken" />
		<tag k="ssr:stedsnr" v="909868" />
		<tag k="waterway" v="stream" />
	</node>
	<node id="-408880" lat="58.9848750011" lon="6.28447778381">
		<tag k="name" v="Pottå" />
		<tag k="natural" v="water" />
		<tag k="ssr:stedsnr" v="909028" />
	</node>
	<node id="-408879" lat="58.956927778" lon="6.24780277488">
		<tag k="name" v="Sadlatjørn" />
		<tag k="natural" v="water" />
		<tag k="ssr:stedsnr" v="909012" />
	</node>
	<node id="-408870" lat="58.862075001" lon="6.19319166685">
		<tag k="name" v="Kleppatjørna" />
		<tag k="natural" v="water" />
		<tag k="ssr:stedsnr" v="907994" />
	</node>
	<node id="-408862" lat="58.9094027805" lon="6.26223332598">
		<tag k="name" v="Kvide Nebben" />
		<tag k="natural" v="cape" />
		<tag k="ssr:stedsnr" v="907237" />
	</node>
	<node id="-408860" lat="59.017483337" lon="6.27981667208">
		<tag k="name" v="Bratteliåna" />
		<tag k="ssr:stedsnr" v="906874" />
		<tag k="waterway" v="stream" />
	</node>
	<node id="-408850" lat="58.9599694445" lon="6.04203055987">
		<tag k="name" v="Aransvika" />
		<tag k="natural" v="bay" />
		<tag k="ssr:stedsnr" v="903243" />
	</node>
	<node id="-408846" lat="59.0540750006" lon="6.65218610736">
		<tag k="alt_name" v="Lyseelvi" />
		<tag k="name" v="Lyseåna" />
		<tag k="ssr:stedsnr" v="874947" />
		<tag k="waterway" v="river" />
	</node>
	<node id="-408840" lat="59.0045194432" lon="6.21035555544">
		<tag k="alt_name" v="Skogavatn" />
		<tag k="name" v="Skogavatnet" />
		<tag k="natural" v="water" />
		<tag k="ssr:stedsnr" v="852268" />
		<tag k="water" v="lake" />
	</node>
	<node id="-408837" lat="59.0761749958" lon="6.6223722192">
		<tag k="name" v="Guritjørna" />
		<tag k="natural" v="water" />
		<tag k="ssr:stedsnr" v="852166" />
	</node>
	<node id="-408835" lat="59.0829250006" lon="6.36350277958">
		<tag k="name" v="Maratangen" />
		<tag k="natural" v="cape" />
		<tag k="ssr:stedsnr" v="852098" />
	</node>
	<node id="-408834" lat="59.0427472263" lon="6.71335555937">
		<tag k="name" v="Tjodanpollen" />
		<tag k="natural" v="water" />
		<tag k="ssr:stedsnr" v="851775" />
	</node>
	<node id="-408831" lat="58.8819499988" lon="6.26653888291">
		<tag k="alt_name" v="Lauvatnet" />
		<tag k="name" v="Lauvvatnet" />
		<tag k="natural" v="water" />
		<tag k="ssr:stedsnr" v="851731" />
		<tag k="water" v="lake" />
	</node>
	<node id="-408828" lat="58.9465638916" lon="6.51767777164">
		<tag k="name" v="Nordåna" />
		<tag k="ssr:stedsnr" v="851685" />
		<tag k="waterway" v="stream" />
	</node>
	<node id="-408827" lat="58.8939638899" lon="6.11894443821">
		<tag k="alt_name" v="Fossanåna" />
		<tag k="name" v="Forsandåna" />
		<tag k="ssr:stedsnr" v="851651" />
		<tag k="waterway" v="stream" />
	</node>
	<node id="-408822" lat="59.1611750035" lon="6.68224721917">
		<tag k="name" v="Kleggjadalsvatnet" />
		<tag k="natural" v="water" />
		<tag k="ssr:stedsnr" v="851146" />
	</node>
	<node id="-408811" lat="58.8956527785" lon="6.2379555617">
		<tag k="name" v="Gardbekktjørna" />
		<tag k="natural" v="water" />
		<tag k="ssr:stedsnr" v="850734" />
	</node>
	<node id="-408808" lat="58.8732333338" lon="6.17673610829">
		<tag k="name" v="Espedalsåna" />
		<tag k="ssr:stedsnr" v="850569" />
		<tag k="waterway" v="river" />
	</node>
	<node id="-408796" lat="58.9878659865" lon="6.30184542846">
		<tag k="name" v="Mulekåstjørna" />
		<tag k="natural" v="water" />
		<tag k="ssr:stedsnr" v="849261" />
	</node>
	<node id="-408795" lat="58.9867194477" lon="6.32600834109">
		<tag k="name" v="Fiskatjørnene" />
		<tag k="natural" v="water" />
		<tag k="ssr:stedsnr" v="849262" />
	</node>
	<node id="-408789" lat="58.9770305571" lon="6.27303610602">
		<tag k="name" v="Bergheibekken" />
		<tag k="ssr:stedsnr" v="849081" />
		<tag k="waterway" v="stream" />
	</node>
	<node id="-408786" lat="58.9758777753" lon="6.22681667244">
		<tag k="name" v="Nedretjørn" />
		<tag k="natural" v="water" />
		<tag k="ssr:stedsnr" v="849061" />
	</node>
	<node id="-408782" lat="58.8952861109" lon="6.36727777605">
		<tag k="name" v="Sliratjørna" />
		<tag k="natural" v="water" />
		<tag k="ssr:stedsnr" v="848980" />
	</node>
	<node id="-408775" lat="58.9468472223" lon="6.19224999914">
		<tag k="name" v="Holsbekk" />
		<tag k="ssr:stedsnr" v="848670" />
		<tag k="waterway" v="stream" />
	</node>
	<node id="-408773" lat="58.9227805524" lon="6.14577777098">
		<tag k="name" v="Måkavatnet" />
		<tag k="natural" v="water" />
		<tag k="ssr:stedsnr" v="848651" />
		<tag k="water" v="lake" />
	</node>
	<node id="-408768" lat="58.8843861131" lon="6.20302777208">
		<tag k="name" v="Bruhølen" />
		<tag k="place" v="locality" />
		<tag k="ssr:stedsnr" v="848128" />
	</node>
	<node id="-408767" lat="58.8899416625" lon="6.14772223103">
		<tag k="name" v="Tverrbekken" />
		<tag k="ssr:stedsnr" v="848225" />
		<tag k="waterway" v="stream" />
	</node>
	<node id="-408745" lat="58.9546138864" lon="6.04878611004">
		<tag k="name" v="Søylå" />
		<tag k="natural" v="bay" />
		<tag k="ssr:stedsnr" v="843257" />
	</node>
	<node id="-408737" lat="58.8756333293" lon="6.18811666265">
		<tag k="name" v="Drivaren" />
		<tag k="place" v="locality" />
		<tag k="ssr:stedsnr" v="829958" />
	</node>
	<node id="-408731" lat="58.9681500016" lon="6.40882499416">
		<tag k="name" v="Øvra Svartavatnet" />
		<tag k="natural" v="water" />
		<tag k="ssr:stedsnr" v="809075" />
		<tag k="water" v="lake" />
	</node>
	<node id="-408724" lat="59.0509305561" lon="6.71864999545">
		<tag k="name" v="Langatjørna" />
		<tag k="natural" v="water" />
		<tag k="ssr:stedsnr" v="790819" />
	</node>
	<node id="-408721" lat="58.9200500002" lon="6.24754999449">
		<tag k="alt_name" v="Stiaren" />
		<tag k="name" v="Stigaren" />
		<tag k="ssr:stedsnr" v="790727" />
		<tag k="waterway" v="stream" />
	</node>
	<node id="-408717" lat="59.0840305565" lon="6.61447777866">
		<tag k="name" v="Krokatjørna" />
		<tag k="natural" v="water" />
		<tag k="ssr:stedsnr" v="790146" />
	</node>
	<node id="-408711" lat="59.0404277788" lon="6.42558611741">
		<tag k="name" v="Dalaåna" />
		<tag k="ssr:stedsnr" v="790039" />
		<tag k="waterway" v="river" />
	</node>
	<node id="-408709" lat="59.0633083293" lon="6.37296388429">
		<tag k="name" v="Rundatjørna" />
		<tag k="natural" v="water" />
		<tag k="ssr:stedsnr" v="790015" />
	</node>
	<node id="-408698" lat="58.9712500034" lon="6.41446110315">
		<tag k="name" v="Svartavatnet" />
		<tag k="natural" v="water" />
		<tag k="ssr:stedsnr" v="789538" />
	</node>
	<node id="-408696" lat="58.9935500043" lon="6.35601665825">
		<tag k="name" v="Breibekktjørna" />
		<tag k="natural" v="water" />
		<tag k="ssr:stedsnr" v="789504" />
	</node>
	<node id="-408684" lat="58.9763388852" lon="6.29788889693">
		<tag k="name" v="Rumpetrolltjørna" />
		<tag k="natural" v="water" />
		<tag k="ssr:stedsnr" v="788232" />
	</node>
	<node id="-408668" lat="59.0006138859" lon="6.35556388683">
		<tag k="name" v="Breibekken" />
		<tag k="ssr:stedsnr" v="787170" />
		<tag k="waterway" v="stream" />
	</node>
	<node id="-408642" lat="58.9676249973" lon="6.03577221828">
		<tag k="name" v="Rautjørna" />
		<tag k="natural" v="water" />
		<tag k="ssr:stedsnr" v="782275" />
	</node>
	<node id="-408634" lat="59.133006553" lon="6.89971772492">
		<tag k="name" v="Svartevassdammen" />
		<tag k="ssr:stedsnr" v="752271" />
		<tag k="waterway" v="dam" />
	</node>
	<node id="-408632" lat="59.020725" lon="6.69863055865">
		<tag k="alt_name" v="Tjodanvatnet, litla" />
		<tag k="loc_name" v="Litle Tjodanvatnet" />
		<tag k="name" v="Litla Tjodavatnet" />
		<tag k="natural" v="water" />
		<tag k="ssr:stedsnr" v="748406" />
		<tag k="water" v="lake" />
	</node>
	<node id="-408627" lat="59.159047226" lon="6.74368332745">
		<tag k="name" v="Gråfolåna" />
		<tag k="ssr:stedsnr" v="730140" />
		<tag k="waterway" v="river" />
	</node>
	<node id="-408626" lat="59.1244972231" lon="6.8664333324">
		<tag k="name" v="Bergetjørna" />
		<tag k="natural" v="water" />
		<tag k="ssr:stedsnr" v="730137" />
	</node>
	<node id="-408625" lat="59.1096500038" lon="6.75732499383">
		<tag k="loc_name" v="Kamsvatn" />
		<tag k="name" v="Kamsvatnet" />
		<tag k="natural" v="water" />
		<tag k="ssr:stedsnr" v="730129" />
		<tag k="water" v="lake" />
	</node>
	<node id="-408624" lat="59.0998750036" lon="6.76018055471">
		<tag k="alt_name" v="Vaulatjørna, heimra" />
		<tag k="name" v="Heimra Vaulatjørna" />
		<tag k="natural" v="water" />
		<tag k="ssr:stedsnr" v="730127" />
		<tag k="water" v="lake" />
	</node>
	<node id="-408622" lat="59.0866805522" lon="6.42851667102">
		<tag k="alt_name" v="Sandvatnet, litla;Litla Sanvatnet" />
		<tag k="name" v="Litla Sandvatnet" />
		<tag k="natural" v="water" />
		<tag k="ssr:stedsnr" v="730091" />
	</node>
	<node id="-408621" lat="59.0895240788" lon="6.38252037303">
		<tag k="name" v="Sandvatnet" />
		<tag k="natural" v="water" />
		<tag k="ssr:stedsnr" v="730089" />
		<tag k="water" v="lake" />
	</node>
	<node id="-408619" lat="59.0359166711" lon="6.24247499934">
		<tag k="alt_name" v="Kvernavatnet" />
		<tag k="name" v="Kvernavatn" />
		<tag k="natural" v="water" />
		<tag k="ssr:stedsnr" v="730051" />
	</node>
	<node id="-408606" lat="58.9139861124" lon="6.39150276922">
		<tag k="name" v="Følvatnet" />
		<tag k="natural" v="water" />
		<tag k="ssr:stedsnr" v="729751" />
	</node>
	<node id="-408603" lat="58.9249750028" lon="6.45498610299">
		<tag k="name" v="Ernsttjørna" />
		<tag k="natural" v="water" />
		<tag k="ssr:stedsnr" v="729733" />
	</node>
	<node id="-408601" lat="58.9349944432" lon="6.47339167056">
		<tag k="name" v="Hellesvatnet" />
		<tag k="natural" v="water" />
		<tag k="ssr:stedsnr" v="729713" />
	</node>
	<node id="-408599" lat="58.9285416688" lon="6.49256110775">
		<tag k="name" v="Lunnarvatnet" />
		<tag k="natural" v="water" />
		<tag k="ssr:stedsnr" v="729711" />
	</node>
	<node id="-408596" lat="58.8771611109" lon="6.28529999332">
		<tag k="name" v="Egmundsleitet" />
		<tag k="natural" v="strait" />
		<tag k="ssr:stedsnr" v="729645" />
	</node>
	<node id="-408591" lat="58.951925004" lon="6.26915000055">
		<tag k="alt_name" v="Stilkalitjørn" />
		<tag k="name" v="Stilkatjørna" />
		<tag k="natural" v="water" />
		<tag k="ssr:stedsnr" v="729542" />
	</node>
	<node id="-408589" lat="58.9795277775" lon="6.45195832889">
		<tag k="name" v="Flåvatnet" />
		<tag k="natural" v="water" />
		<tag k="ssr:stedsnr" v="729523" />
	</node>
	<node id="-408588" lat="58.9680361122" lon="6.32241944911">
		<tag k="name" v="Stakklitjørna" />
		<tag k="natural" v="water" />
		<tag k="ssr:stedsnr" v="729519" />
	</node>
	<node id="-408571" lat="58.9549083369" lon="6.36845555677">
		<tag k="name" v="Fossen" />
		<tag k="natural" v="waterfall" />
		<tag k="ssr:stedsnr" v="727218" />
	</node>
	<node id="-408570" lat="59.0062666661" lon="6.57088056373">
		<tag k="name" v="Låtervik" />
		<tag k="natural" v="bay" />
		<tag k="ssr:stedsnr" v="727202" />
	</node>
	<node id="-408568" lat="58.9730305529" lon="6.26860000543">
		<tag k="name" v="Raudebekk" />
		<tag k="ssr:stedsnr" v="727066" />
		<tag k="waterway" v="stream" />
	</node>
	<node id="-408563" lat="58.9030805568" lon="6.365677771">
		<tag k="name" v="Jonsvatnet" />
		<tag k="natural" v="water" />
		<tag k="ssr:stedsnr" v="726993" />
		<tag k="water" v="lake" />
	</node>
	<node id="-408545" lat="58.9584527813" lon="6.0374111059">
		<tag k="name" v="Aranstangane" />
		<tag k="natural" v="cape" />
		<tag k="ssr:stedsnr" v="721234" />
	</node>
	<node id="-408539" lat="58.8788166642" lon="6.19646667143">
		<tag k="name" v="Berghølen" />
		<tag k="place" v="locality" />
		<tag k="ssr:stedsnr" v="707944" />
	</node>
	<node id="-408534" lat="59.0545222186" lon="6.73798332748">
		<tag k="name" v="Pollen" />
		<tag k="natural" v="water" />
		<tag k="ssr:stedsnr" v="669791" />
	</node>
	<node id="-408533" lat="59.0432722211" lon="6.76953055185">
		<tag k="name" v="Andersvatnet" />
		<tag k="natural" v="water" />
		<tag k="ssr:stedsnr" v="669779" />
		<tag k="water" v="lake" />
	</node>
	<node id="-408529" lat="59.0990333289" lon="6.72060833479">
		<tag k="name" v="Kjelkeskarstjørna" />
		<tag k="natural" v="water" />
		<tag k="ssr:stedsnr" v="669160" />
	</node>
	<node id="-408524" lat="59.0653999967" lon="6.46761944021">
		<tag k="name" v="Hefteholstjørna" />
		<tag k="natural" v="water" />
		<tag k="ssr:stedsnr" v="669021" />
	</node>
	<node id="-408519" lat="59.0585833295" lon="6.38809999632">
		<tag k="name" v="Kvernavatn" />
		<tag k="natural" v="water" />
		<tag k="ssr:stedsnr" v="669014" />
		<tag k="water" v="lake" />
	</node>
	<node id="-408506" lat="58.9214639381" lon="6.20477475074">
		<tag k="alt_name" v="Brynetjørna" />
		<tag k="name" v="Tjørna" />
		<tag k="natural" v="water" />
		<tag k="ssr:stedsnr" v="668659" />
	</node>
	<node id="-408505" lat="58.93860556" lon="6.35032777717">
		<tag k="name" v="Sletteskarvatnet" />
		<tag k="natural" v="water" />
		<tag k="ssr:stedsnr" v="668569" />
	</node>
	<node id="-408503" lat="58.9645805581" lon="6.25949999842">
		<tag k="name" v="Salabekken" />
		<tag k="ssr:stedsnr" v="668536" />
		<tag k="waterway" v="stream" />
	</node>
	<node id="-408502" lat="58.9727416657" lon="6.28978888635">
		<tag k="name" v="Rundavatnet" />
		<tag k="natural" v="water" />
		<tag k="ssr:stedsnr" v="668530" />
	</node>
	<node id="-408501" lat="58.9948500015" lon="6.44316111394">
		<tag k="name" v="Flørliåa" />
		<tag k="ssr:stedsnr" v="668509" />
		<tag k="waterway" v="river" />
	</node>
	<node id="-408500" lat="58.8922027748" lon="6.36188889259">
		<tag k="name" v="Slirånå" />
		<tag k="ssr:stedsnr" v="666990" />
		<tag k="waterway" v="river" />
	</node>
	<node id="-408498" lat="59.0365250021" lon="6.39037222162">
		<tag k="name" v="Tverråna" />
		<tag k="ssr:stedsnr" v="666848" />
		<tag k="waterway" v="river" />
	</node>
	<node id="-408485" lat="58.9751444412" lon="6.27254166461">
		<tag k="name" v="Rundavassbekken" />
		<tag k="ssr:stedsnr" v="666060" />
		<tag k="waterway" v="stream" />
	</node>
	<node id="-408484" lat="58.9714000021" lon="6.26296944176">
		<tag k="name" v="Viermyrbekken" />
		<tag k="ssr:stedsnr" v="666059" />
		<tag k="waterway" v="stream" />
	</node>
	<node id="-408481" lat="58.9223444422" lon="6.37668611108">
		<tag k="name" v="Indravasstronda" />
		<tag k="natural" v="beach" />
		<tag k="ssr:stedsnr" v="666039" />
	</node>
	<node id="-408475" lat="58.9471416692" lon="6.18645276948">
		<tag k="name" v="Mjåsund" />
		<tag k="natural" v="strait" />
		<tag k="ssr:stedsnr" v="665705" />
	</node>
	<node id="-408472" lat="58.9399722241" lon="6.25930554819">
		<tag k="name" v="Litla Hedlesvatnet" />
		<tag k="natural" v="water" />
		<tag k="ssr:stedsnr" v="664360" />
		<tag k="water" v="lake" />
	</node>
	<node id="-408469" lat="58.9125305574" lon="6.2716444465">
		<tag k="name" v="Espenesvika" />
		<tag k="natural" v="bay" />
		<tag k="ssr:stedsnr" v="664251" />
	</node>
	<node id="-408455" lat="58.9434416699" lon="6.32155277298">
		<tag k="name" v="Trolltjørna" />
		<tag k="natural" v="water" />
		<tag k="ssr:stedsnr" v="646480" />
	</node>
	<node id="-408450" lat="58.9724361155" lon="6.22579444077">
		<tag k="name" v="Holtatjørna" />
		<tag k="natural" v="water" />
		<tag k="ssr:stedsnr" v="627075" />
		<tag k="water" v="lake" />
	</node>
	<node id="-408449" lat="58.9386861087" lon="6.24414999844">
		<tag k="name" v="Samlatjørna" />
		<tag k="natural" v="water" />
		<tag k="ssr:stedsnr" v="627071" />
		<tag k="water" v="lake" />
	</node>
	<node id="-408445" lat="59.0115777779" lon="6.21398333639">
		<tag k="name" v="Midtvatnet" />
		<tag k="natural" v="water" />
		<tag k="ssr:stedsnr" v="608250" />
		<tag k="water" v="lake" />
	</node>
	<node id="-408436" lat="59.1707750019" lon="6.73043332898">
		<tag k="name" v="Gråfolvatnet" />
		<tag k="natural" v="water" />
		<tag k="ssr:stedsnr" v="608143" />
		<tag k="water" v="lake" />
	</node>
	<node id="-408433" lat="59.0415916627" lon="6.29481389321">
		<tag k="name" v="Holmatjørna" />
		<tag k="natural" v="water" />
		<tag k="ssr:stedsnr" v="608046" />
	</node>
	<node id="-408425" lat="59.0596055564" lon="6.34243889472">
		<tag k="name" v="Sundmorkvatnet" />
		<tag k="natural" v="water" />
		<tag k="ssr:stedsnr" v="608015" />
		<tag k="water" v="lake" />
	</node>
	<node id="-408423" lat="58.9538750038" lon="6.04314444258">
		<tag k="name" v="Gåsavatnet" />
		<tag k="natural" v="water" />
		<tag k="ssr:stedsnr" v="607783" />
		<tag k="water" v="lake" />
	</node>
	<node id="-408415" lat="58.9410500041" lon="6.21553332936">
		<tag k="name" v="Nordtjørna" />
		<tag k="natural" v="water" />
		<tag k="ssr:stedsnr" v="607726" />
	</node>
	<node id="-408412" lat="58.9380305562" lon="6.04920555172">
		<tag k="name" v="Lerangsvatnet" />
		<tag k="natural" v="water" />
		<tag k="ssr:stedsnr" v="607713" />
		<tag k="water" v="lake" />
	</node>
	<node id="-408408" lat="58.9132027733" lon="6.28297499762">
		<tag k="alt_name" v="Tungebekk" />
		<tag k="name" v="Tungebekken" />
		<tag k="ssr:stedsnr" v="607703" />
		<tag k="waterway" v="stream" />
	</node>
	<node id="-408400" lat="58.9187527753" lon="6.12813610905">
		<tag k="alt_name" v="Stemvatnet" />
		<tag k="name" v="Stemmavatn" />
		<tag k="natural" v="water" />
		<tag k="ssr:stedsnr" v="607636" />
		<tag k="water" v="lake" />
	</node>
	<node id="-408395" lat="58.9762500041" lon="6.5391249956">
		<tag k="name" v="Tangen" />
		<tag k="natural" v="cape" />
		<tag k="ssr:stedsnr" v="607524" />
	</node>
	<node id="-408392" lat="58.9851305535" lon="6.42874444064">
		<tag k="name" v="Rindakòstjørna" />
		<tag k="natural" v="water" />
		<tag k="ssr:stedsnr" v="607503" />
	</node>
	<node id="-408389" lat="59.0724666627" lon="6.31603611625">
		<tag k="name" v="Svartatjørna" />
		<tag k="natural" v="water" />
		<tag k="ssr:stedsnr" v="607015" />
	</node>
	<node id="-408377" lat="58.9635722205" lon="6.31771110828">
		<tag k="name" v="Ytra Stakklitjørna" />
		<tag k="natural" v="water" />
		<tag k="ssr:stedsnr" v="605291" />
	</node>
	<node id="-408376" lat="58.9686805592" lon="6.32232500508">
		<tag k="name" v="Indra Stakklitjørna" />
		<tag k="natural" v="water" />
		<tag k="ssr:stedsnr" v="605288" />
	</node>
	<node id="-408361" lat="58.9227249987" lon="6.33914443745">
		<tag k="name" v="Gangsteinhølen" />
		<tag k="place" v="locality" />
		<tag k="ssr:stedsnr" v="605036" />
	</node>
	<node id="-408360" lat="58.9121722194" lon="6.33761110984">
		<tag k="name" v="Litla Tofrivatnet" />
		<tag k="natural" v="water" />
		<tag k="ssr:stedsnr" v="605034" />
	</node>
	<node id="-408355" lat="58.9192416645" lon="6.17244444585">
		<tag k="name" v="Vassvik" />
		<tag k="natural" v="water" />
		<tag k="ssr:stedsnr" v="603340" />
		<tag k="water" v="lake" />
	</node>
	<node id="-408353" lat="58.9236388901" lon="6.19069444334">
		<tag k="name" v="Haukaliåna" />
		<tag k="ssr:stedsnr" v="603315" />
		<tag k="waterway" v="river" />
	</node>
	<node id="-408351" lat="58.9148222184" lon="6.2542833378">
		<tag k="name" v="Ragsnebben" />
		<tag k="natural" v="cape" />
		<tag k="ssr:stedsnr" v="603288" />
	</node>
	<node id="-408344" lat="58.9661666677" lon="6.12729444901">
		<tag k="name" v="Stora Ulvaskogvatn" />
		<tag k="natural" v="water" />
		<tag k="ssr:stedsnr" v="600890" />
		<tag k="water" v="lake" />
	</node>
	<node id="-408342" lat="58.926333331" lon="6.13901945048">
		<tag k="name" v="Johansen" />
		<tag k="natural" v="water" />
		<tag k="ssr:stedsnr" v="600508" />
	</node>
	<node id="-408336" lat="58.9780611136" lon="6.15678055964">
		<tag k="name" v="Osen" />
		<tag k="natural" v="bay" />
		<tag k="ssr:stedsnr" v="599698" />
	</node>
	<node id="-408325" lat="58.9271543609" lon="6.28111121066">
		<tag k="name" v="Kvednabekken" />
		<tag k="ssr:stedsnr" v="585427" />
		<tag k="waterway" v="stream" />
	</node>
	<node id="-408315" lat="58.9180111149" lon="6.29842500524">
		<tag k="alt_name" v="Lonå" />
		<tag k="name" v="Lona" />
		<tag k="natural" v="water" />
		<tag k="ssr:stedsnr" v="547746" />
	</node>
	<node id="-408311" lat="58.9130916689" lon="6.15555833177">
		<tag k="name" v="Haukalivatnet" />
		<tag k="natural" v="water" />
		<tag k="ssr:stedsnr" v="547684" />
		<tag k="water" v="lake" />
	</node>
	<node id="-408309" lat="58.9457861074" lon="6.40258334117">
		<tag k="name" v="Ratekvævvatnet" />
		<tag k="natural" v="water" />
		<tag k="ssr:stedsnr" v="547596" />
		<tag k="water" v="lake" />
	</node>
	<node id="-408305" lat="58.9781888846" lon="6.5007361067">
		<tag k="name" v="Øvra Flørvatnet" />
		<tag k="natural" v="water" />
		<tag k="ssr:stedsnr" v="547568" />
		<tag k="water" v="lake" />
	</node>
	<node id="-408303" lat="58.9034749963" lon="6.18436110615">
		<tag k="name" v="Tjørna" />
		<tag k="natural" v="water" />
		<tag k="ssr:stedsnr" v="547251" />
	</node>
	<node id="-408301" lat="59.146122225" lon="6.65277222945">
		<tag k="name" v="Kleggjalitjørna" />
		<tag k="natural" v="water" />
		<tag k="ssr:stedsnr" v="547156" />
	</node>
	<node id="-408300" lat="59.1056222214" lon="6.78007221905">
		<tag k="alt_name" v="Vaulatjørna, indra" />
		<tag k="name" v="Indra Vaulatjørna" />
		<tag k="natural" v="water" />
		<tag k="ssr:stedsnr" v="547144" />
		<tag k="water" v="lake" />
	</node>
	<node id="-408295" lat="59.045027776" lon="6.37096110318">
		<tag k="alt_name" v="Stølatjørna" />
		<tag k="name" v="Storlitjørna" />
		<tag k="natural" v="water" />
		<tag k="ssr:stedsnr" v="547020" />
	</node>
	<node id="-408289" lat="58.9016555528" lon="6.28627500371">
		<tag k="alt_name" v="Tungevatn" />
		<tag k="name" v="Tungevatnet" />
		<tag k="natural" v="water" />
		<tag k="ssr:stedsnr" v="546693" />
	</node>
	<node id="-408283" lat="58.9893666639" lon="6.26564999258">
		<tag k="alt_name" v="Griggelibekken" />
		<tag k="name" v="Griggelva" />
		<tag k="ssr:stedsnr" v="546470" />
		<tag k="waterway" v="stream" />
	</node>
	<node id="-408282" lat="58.9908666674" lon="6.37402499791">
		<tag k="name" v="Jektatjørna" />
		<tag k="natural" v="water" />
		<tag k="ssr:stedsnr" v="546467" />
	</node>
	<node id="-408278" lat="59.0246583306" lon="6.32056389218">
		<tag k="name" v="Lomstjørna" />
		<tag k="natural" v="water" />
		<tag k="ssr:stedsnr" v="545187" />
	</node>
	<node id="-408276" lat="58.9288250283" lon="6.35525621154">
		<tag k="name" v="Bastalibekken" />
		<tag k="ssr:stedsnr" v="545057" />
		<tag k="waterway" v="stream" />
	</node>
	<node id="-408271" lat="58.9054798552" lon="6.35349366942">
		<tag k="name" v="Fannatjørna" />
		<tag k="natural" v="water" />
		<tag k="ssr:stedsnr" v="544993" />
	</node>
	<node id="-408264" lat="58.9431888918" lon="6.18726110663">
		<tag k="name" v="Strondå" />
		<tag k="natural" v="beach" />
		<tag k="ssr:stedsnr" v="544667" />
	</node>
	<node id="-408258" lat="58.8991472197" lon="6.2842111029">
		<tag k="name" v="Tungestranda" />
		<tag k="natural" v="beach" />
		<tag k="ssr:stedsnr" v="543946" />
	</node>
	<node id="-408249" lat="58.9812083297" lon="6.15358054949">
		<tag k="name" v="Holmen" />
		<tag k="place" v="islet" />
		<tag k="ssr:stedsnr" v="539679" />
	</node>
	<node id="-408248" lat="58.9763277744" lon="6.14983888112">
		<tag k="name" v="Lenne" />
		<tag k="natural" v="bay" />
		<tag k="ssr:stedsnr" v="539678" />
	</node>
	<node id="-408245" lat="58.9203693587" lon="6.33466717103">
		<tag k="name" v="Middagsbekken" />
		<tag k="ssr:stedsnr" v="545032" />
		<tag k="waterway" v="stream" />
	</node>
	<node id="-408224" lat="59.1247027738" lon="6.83819722699">
		<tag k="name" v="Finnsjø" />
		<tag k="natural" v="water" />
		<tag k="ssr:stedsnr" v="487120" />
	</node>
	<node id="-408222" lat="59.0239250016" lon="6.31603610946">
		<tag k="name" v="Stemtjørna" />
		<tag k="natural" v="water" />
		<tag k="ssr:stedsnr" v="487024" />
	</node>
	<node id="-408221" lat="58.9976944457" lon="6.20756111151">
		<tag k="alt_name" v="Lomstjørna" />
		<tag k="name" v="Lomstjørn" />
		<tag k="natural" v="water" />
		<tag k="ssr:stedsnr" v="486859" />
	</node>
	<node id="-408219" lat="58.9926999984" lon="6.67937500713">
		<tag k="name" v="Øyni" />
		<tag k="place" v="islet" />
		<tag k="ssr:stedsnr" v="486766" />
	</node>
	<node id="-408217" lat="58.9134111102" lon="6.34664444868">
		<tag k="name" v="Tofrivatnet" />
		<tag k="natural" v="water" />
		<tag k="ssr:stedsnr" v="486747" />
	</node>
	<node id="-408216" lat="58.9349555588" lon="6.17882499191">
		<tag k="alt_name" v="Vassbottvatnet" />
		<tag k="name" v="Vassbottnvatnet" />
		<tag k="natural" v="water" />
		<tag k="ssr:stedsnr" v="486746" />
		<tag k="water" v="lake" />
	</node>
	<node id="-408213" lat="58.9228277742" lon="6.40347499251">
		<tag k="name" v="Juvavassbekken" />
		<tag k="ssr:stedsnr" v="486731" />
		<tag k="waterway" v="stream" />
	</node>
	<node id="-408204" lat="58.8854555596" lon="6.17601945198">
		<tag k="name" v="Byrkjelandsvatnet" />
		<tag k="natural" v="water" />
		<tag k="ssr:stedsnr" v="486683" />
		<tag k="water" v="lake" />
	</node>
	<node id="-408199" lat="58.940774997" lon="6.31952500374">
		<tag k="alt_name" v="Nestjørn" />
		<tag k="name" v="Nestjørna" />
		<tag k="natural" v="water" />
		<tag k="ssr:stedsnr" v="486570" />
	</node>
	<node id="-408198" lat="58.9776694417" lon="6.23365278005">
		<tag k="alt_name" v="Fossånå" />
		<tag k="name" v="Fossåna" />
		<tag k="ssr:stedsnr" v="486563" />
		<tag k="waterway" v="stream" />
	</node>
	<node id="-408197" lat="58.9422722213" lon="6.25633333469">
		<tag k="name" v="Litla Hellesvatnet" />
		<tag k="natural" v="water" />
		<tag k="ssr:stedsnr" v="486557" />
	</node>
	<node id="-408195" lat="58.9605027784" lon="6.27189444788">
		<tag k="name" v="Kringlevatnet" />
		<tag k="natural" v="water" />
		<tag k="ssr:stedsnr" v="486546" />
	</node>
	<node id="-408194" lat="58.9743388849" lon="6.52866388351">
		<tag k="name" v="Stora Hoggarvatnet" />
		<tag k="natural" v="water" />
		<tag k="ssr:stedsnr" v="486544" />
		<tag k="water" v="lake" />
	</node>
	<node id="-408192" lat="59.0105999979" lon="6.56799166582">
		<tag k="name" v="Låtervikvatnet" />
		<tag k="natural" v="water" />
		<tag k="ssr:stedsnr" v="486255" />
		<tag k="water" v="lake" />
	</node>
	<node id="-408191" lat="59.0014055521" lon="6.47508054865">
		<tag k="name" v="Stora Flørvatnet" />
		<tag k="natural" v="water" />
		<tag k="ssr:stedsnr" v="486251" />
		<tag k="water" v="lake" />
	</node>
	<node id="-408189" lat="59.0571249988" lon="6.30826389244">
		<tag k="name" v="Fisketjørnhommen" />
		<tag k="natural" v="water" />
		<tag k="ssr:stedsnr" v="486008" />
	</node>
	<node id="-408187" lat="59.0776888903" lon="6.52160277676">
		<tag k="name" v="Grønakråtjørna" />
		<tag k="natural" v="water" />
		<tag k="ssr:stedsnr" v="486001" />
	</node>
	<node id="-408186" lat="58.87649167" lon="6.2336000031">
		<tag k="name" v="Neverdalstjørna" />
		<tag k="natural" v="water" />
		<tag k="ssr:stedsnr" v="485586" />
	</node>
	<node id="-408185" lat="58.9438750025" lon="6.03494167069">
		<tag k="name" v="Brekkestemmen" />
		<tag k="natural" v="water" />
		<tag k="ssr:stedsnr" v="484882" />
	</node>
	<node id="-408180" lat="59.0824083326" lon="6.48579167121">
		<tag k="name" v="Håhellerdammen" />
		<tag k="ssr:stedsnr" v="484818" />
		<tag k="waterway" v="dam" />
	</node>
	<node id="-408176" lat="58.9061750031" lon="6.15433889645">
		<tag k="name" v="Syrevik" />
		<tag k="natural" v="bay" />
		<tag k="ssr:stedsnr" v="484635" />
	</node>
	<node id="-408173" lat="58.9840305514" lon="6.33554721988">
		<tag k="name" v="Soddabekken" />
		<tag k="ssr:stedsnr" v="484223" />
		<tag k="waterway" v="stream" />
	</node>
	<node id="-408170" lat="59.0445583332" lon="6.35938611739">
		<tag k="name" v="Bytjørna" />
		<tag k="natural" v="water" />
		<tag k="ssr:stedsnr" v="484128" />
	</node>
	<node id="-408169" lat="59.0449944421" lon="6.33549999233">
		<tag k="name" v="Blommatjørna" />
		<tag k="natural" v="water" />
		<tag k="ssr:stedsnr" v="484121" />
	</node>
	<node id="-408168" lat="58.9195083342" lon="6.30313055963">
		<tag k="name" v="Holmen" />
		<tag k="natural" v="cape" />
		<tag k="ssr:stedsnr" v="484076" />
	</node>
	<node id="-408158" lat="58.8906944476" lon="6.21099167285">
		<tag k="name" v="Trettholmen" />
		<tag k="place" v="islet" />
		<tag k="ssr:stedsnr" v="483144" />
	</node>
	<node id="-408157" lat="58.8928750016" lon="6.29368055615">
		<tag k="name" v="Grønastranda" />
		<tag k="natural" v="beach" />
		<tag k="ssr:stedsnr" v="482999" />
	</node>
	<node id="-408154" lat="58.8621611078" lon="6.15148332894">
		<tag k="name" v="Toreholmen" />
		<tag k="place" v="islet" />
		<tag k="ssr:stedsnr" v="482925" />
	</node>
	<node id="-408152" lat="58.9099722195" lon="6.23875554798">
		<tag k="name" v="Graslinebben" />
		<tag k="natural" v="cape" />
		<tag k="ssr:stedsnr" v="482300" />
	</node>
	<node id="-408144" lat="58.9026944473" lon="6.23617777341">
		<tag k="name" v="Lyngnesodden" />
		<tag k="natural" v="cape" />
		<tag k="ssr:stedsnr" v="466166" />
	</node>
	<node id="-408143" lat="58.8679194484" lon="6.18910832921">
		<tag k="name" v="Kleppåna" />
		<tag k="ssr:stedsnr" v="465949" />
		<tag k="waterway" v="river" />
	</node>
	<node id="-408127" lat="59.1146250016" lon="6.89162778148">
		<tag k="name" v="Grauthellervatnet" />
		<tag k="natural" v="water" />
		<tag k="ssr:stedsnr" v="427202" />
		<tag k="water" v="lake" />
	</node>
	<node id="-408124" lat="59.0851222251" lon="6.73040277567">
		<tag k="alt_name" v="Brudlitjørna, indra" />
		<tag k="name" v="Indra Brudlitjørna" />
		<tag k="natural" v="water" />
		<tag k="ssr:stedsnr" v="427176" />
		<tag k="water" v="lake" />
	</node>
	<node id="-408118" lat="58.89518333" lon="6.39596388314">
		<tag k="name" v="Helleren" />
		<tag k="natural" v="cape" />
		<tag k="ssr:stedsnr" v="426739" />
	</node>
	<node id="-408111" lat="58.9607527736" lon="6.39658611154">
		<tag k="name" v="Langavatnet" />
		<tag k="natural" v="water" />
		<tag k="ssr:stedsnr" v="426526" />
	</node>
	<node id="-408110" lat="58.9656805589" lon="6.37493610573">
		<tag k="name" v="Øykjavatnet" />
		<tag k="natural" v="water" />
		<tag k="ssr:stedsnr" v="426522" />
	</node>
	<node id="-408109" lat="58.9706555582" lon="6.43571943775">
		<tag k="name" v="Krokavatnet" />
		<tag k="natural" v="water" />
		<tag k="ssr:stedsnr" v="426523" />
	</node>
	<node id="-408107" lat="59.007655555" lon="6.46597499343">
		<tag k="name" v="Klubbatjørna" />
		<tag k="natural" v="water" />
		<tag k="ssr:stedsnr" v="426189" />
	</node>
	<node id="-408104" lat="59.0614416658" lon="6.56216943721">
		<tag k="name" v="Fyljesdalsvatnet" />
		<tag k="natural" v="water" />
		<tag k="ssr:stedsnr" v="426058" />
	</node>
	<node id="-408101" lat="59.0638638878" lon="6.50065277328">
		<tag k="name" v="Håhellervatnet" />
		<tag k="natural" v="water" />
		<tag k="ssr:stedsnr" v="426033" />
	</node>
	<node id="-408090" lat="58.9952694456" lon="6.54580833851">
		<tag k="name" v="Krokavatnet" />
		<tag k="natural" v="water" />
		<tag k="ssr:stedsnr" v="425495" />
		<tag k="water" v="lake" />
	</node>
	<node id="-408089" lat="58.9927750015" lon="6.42323056313">
		<tag k="name" v="Rindakòsbekken" />
		<tag k="ssr:stedsnr" v="425483" />
		<tag k="waterway" v="stream" />
	</node>
	<node id="-408081" lat="59.0346947183" lon="6.36942047139">
		<tag k="name" v="Storlibekken" />
		<tag k="ssr:stedsnr" v="424163" />
		<tag k="waterway" v="stream" />
	</node>
	<node id="-408079" lat="58.9092777735" lon="6.27504445303">
		<tag k="name" v="Hesbreibekken" />
		<tag k="ssr:stedsnr" v="424087" />
		<tag k="waterway" v="stream" />
	</node>
	<node id="-408078" lat="58.9065055568" lon="6.2859083396">
		<tag k="name" v="Litla Tungevatnet" />
		<tag k="natural" v="water" />
		<tag k="ssr:stedsnr" v="424088" />
	</node>
	<node id="-408075" lat="58.983480555" lon="6.28833055837">
		<tag k="name" v="Klovsteintjørnene" />
		<tag k="natural" v="water" />
		<tag k="ssr:stedsnr" v="424030" />
	</node>
	<node id="-408064" lat="58.9038388887" lon="6.21790278577">
		<tag k="name" v="Raudafjellsvatnet" />
		<tag k="natural" v="water" />
		<tag k="ssr:stedsnr" v="423120" />
	</node>
	<node id="-408061" lat="58.9408333325" lon="6.24858055452">
		<tag k="name" v="Stråtjørn" />
		<tag k="natural" v="water" />
		<tag k="ssr:stedsnr" v="422380" />
	</node>
	<node id="-408038" lat="59.0884138929" lon="6.41741944231">
		<tag k="name" v="Storaeidet" />
		<tag k="natural" v="strait" />
		<tag k="ssr:stedsnr" v="245090" />
	</node>
	<node id="-408034" lat="59.0103249971" lon="6.71278332822">
		<tag k="name" v="Vasstjørna" />
		<tag k="natural" v="water" />
		<tag k="ssr:stedsnr" v="244777" />
	</node>
	<node id="-408022" lat="59.1041527769" lon="6.57940000318">
		<tag k="name" v="Falkadalsvatnet" />
		<tag k="natural" v="water" />
		<tag k="ssr:stedsnr" v="244120" />
	</node>
	<node id="-408017" lat="59.0692000028" lon="6.58025278507">
		<tag k="alt_name" v="Nordre Stølstjørna" />
		<tag k="name" v="Nordrestølstjørna" />
		<tag k="natural" v="water" />
		<tag k="ssr:stedsnr" v="244008" />
	</node>
	<node id="-408016" lat="59.0729388915" lon="6.5217833408">
		<tag k="name" v="Tjørna" />
		<tag k="natural" v="water" />
		<tag k="ssr:stedsnr" v="244001" />
	</node>
	<node id="-408012" lat="58.9550833315" lon="6.0573333329">
		<tag k="name" v="Gitlandsbekken" />
		<tag k="ssr:stedsnr" v="243781" />
		<tag k="waterway" v="stream" />
	</node>
	<node id="-408011" lat="58.8985777792" lon="6.19770000849">
		<tag k="name" v="Stavtjørn" />
		<tag k="natural" v="water" />
		<tag k="ssr:stedsnr" v="243680" />
	</node>
	<node id="-408007" lat="58.9798916644" lon="6.4741583308">
		<tag k="name" v="Tverrvatnet" />
		<tag k="natural" v="water" />
		<tag k="ssr:stedsnr" v="243540" />
	</node>
	<node id="-408002" lat="59.0578472259" lon="6.68465000599">
		<tag k="name" v="Tjodåna" />
		<tag k="ssr:stedsnr" v="242829" />
		<tag k="waterway" v="river" />
	</node>
	<node id="-408000" lat="58.9761079143" lon="6.34265201781">
		<tag k="name" v="Sandvassbekken" />
		<tag k="ssr:stedsnr" v="242213" />
		<tag k="waterway" v="stream" />
	</node>
	<node id="-407999" lat="59.0289116649" lon="6.331519282">
		<tag k="name" v="Lidvarstjørna" />
		<tag k="natural" v="water" />
		<tag k="ssr:stedsnr" v="242205" />
	</node>
	<node id="-407997" lat="59.0393444474" lon="6.35319721962">
		<tag k="name" v="Stigatjørna" />
		<tag k="natural" v="water" />
		<tag k="ssr:stedsnr" v="242128" />
	</node>
	<node id="-407996" lat="59.0421416665" lon="6.2794722292">
		<tag k="name" v="Stortjørn" />
		<tag k="natural" v="water" />
		<tag k="ssr:stedsnr" v="242115" />
	</node>
	<node id="-407991" lat="58.9086666701" lon="6.2441472189">
		<tag k="alt_name" v="Heimavatn" />
		<tag k="name" v="Espedalsvatnet" />
		<tag k="natural" v="water" />
		<tag k="ssr:stedsnr" v="243716" />
		<tag k="water" v="lake" />
	</node>
	<node id="-407990" lat="58.9507000028" lon="6.07741666144">
		<tag k="name" v="Tjørnalitjørna" />
		<tag k="natural" v="water" />
		<tag k="ssr:stedsnr" v="243707" />
	</node>
	<node id="-407980" lat="58.9234250023" lon="6.38489166624">
		<tag k="name" v="Følvassbekken" />
		<tag k="ssr:stedsnr" v="242036" />
		<tag k="waterway" v="stream" />
	</node>
	<node id="-407975" lat="58.9561249989" lon="6.18544167415">
		<tag k="name" v="Holmen" />
		<tag k="place" v="islet" />
		<tag k="ssr:stedsnr" v="242004" />
	</node>
	<node id="-407969" lat="58.9835694459" lon="6.26393611596">
		<tag k="name" v="Griggelitjørn" />
		<tag k="natural" v="water" />
		<tag k="ssr:stedsnr" v="241044" />
	</node>
	<node id="-407949" lat="58.8800638914" lon="6.25122499178">
		<tag k="name" v="Kuholmen" />
		<tag k="place" v="islet" />
		<tag k="ssr:stedsnr" v="222927" />
	</node>
	<node id="-407945" lat="59.0924426743" lon="6.5976432699">
		<tag k="name" v="Strandvatnet" />
		<tag k="natural" v="water" />
		<tag k="old_name" v="Strandavatnet" />
		<tag k="ssr:stedsnr" v="184088" />
		<tag k="water" v="lake" />
	</node>
	<node id="-407944" lat="59.0928361137" lon="6.54003611509">
		<tag k="name" v="Storaneset" />
		<tag k="natural" v="cape" />
		<tag k="ssr:stedsnr" v="184074" />
	</node>
	<node id="-407941" lat="59.1101277741" lon="6.69124721592">
		<tag k="alt_name" v="Dyrgrovtjørnene, heimre" />
		<tag k="name" v="Heimre Dyrgrovtjørnene" />
		<tag k="natural" v="water" />
		<tag k="ssr:stedsnr" v="184125" />
	</node>
	<node id="-407934" lat="58.8946083318" lon="6.40142500369">
		<tag k="name" v="Helravatnet" />
		<tag k="natural" v="water" />
		<tag k="ssr:stedsnr" v="183744" />
	</node>
	<node id="-407931" lat="58.9240666708" lon="6.37695000707">
		<tag k="alt_name" v="Indra Vatnet" />
		<tag k="name" v="Indravatnet" />
		<tag k="natural" v="water" />
		<tag k="ssr:stedsnr" v="183728" />
	</node>
	<node id="-407927" lat="58.9306500009" lon="6.24948332637">
		<tag k="name" v="Migartjørna" />
		<tag k="natural" v="water" />
		<tag k="ssr:stedsnr" v="183698" />
	</node>
	<node id="-407925" lat="58.9147833362" lon="6.13296110536">
		<tag k="alt_name" v="Svartlivatnet" />
		<tag k="name" v="Svartalivatn" />
		<tag k="natural" v="water" />
		<tag k="ssr:stedsnr" v="183631" />
		<tag k="water" v="lake" />
	</node>
	<node id="-407924" lat="58.9441749966" lon="6.4475944521">
		<tag k="name" v="Molteknuttjørna" />
		<tag k="natural" v="water" />
		<tag k="ssr:stedsnr" v="183519" />
	</node>
	<node id="-407922" lat="58.9453305564" lon="6.27975000113">
		<tag k="name" v="Tyllebakkvatnet" />
		<tag k="natural" v="water" />
		<tag k="ssr:stedsnr" v="183513" />
	</node>
	<node id="-407913" lat="59.0742638903" lon="6.33517777364">
		<tag k="name" v="Stemvatnet" />
		<tag k="natural" v="water" />
		<tag k="ssr:stedsnr" v="183009" />
	</node>
	<node id="-407912" lat="59.0569750005" lon="6.22667500267">
		<tag k="name" v="Langavatnet" />
		<tag k="natural" v="water" />
		<tag k="ssr:stedsnr" v="183001" />
		<tag k="water" v="lake" />
	</node>
	<node id="-407907" lat="58.8757777812" lon="6.15308332615">
		<tag k="alt_name" v="Sollitjørna" />
		<tag k="name" v="Sollivatnet" />
		<tag k="natural" v="water" />
		<tag k="ssr:stedsnr" v="182558" />
	</node>
	<node id="-407905" lat="58.9825916695" lon="6.41603332493">
		<tag k="name" v="Sauatjørna" />
		<tag k="natural" v="water" />
		<tag k="ssr:stedsnr" v="182502" />
	</node>
	<node id="-407902" lat="59.0596722264" lon="6.4455694454">
		<tag k="name" v="Longatjørna" />
		<tag k="natural" v="water" />
		<tag k="ssr:stedsnr" v="181821" />
	</node>
	<node id="-407898" lat="59.0405027748" lon="6.33823611824">
		<tag k="name" v="Beinatjørnane" />
		<tag k="natural" v="water" />
		<tag k="ssr:stedsnr" v="181155" />
	</node>
	<node id="-407897" lat="59.0407000013" lon="6.32941666236">
		<tag k="name" v="Svartehølen" />
		<tag k="place" v="locality" />
		<tag k="ssr:stedsnr" v="181141" />
	</node>
	<node id="-407895" lat="58.9247055588" lon="6.2907888839">
		<tag k="name" v="Kvitlå" />
		<tag k="ssr:stedsnr" v="181097" />
		<tag k="waterway" v="stream" />
	</node>
	<node id="-407889" lat="58.9532638875" lon="6.18948610443">
		<tag k="name" v="Neset" />
		<tag k="natural" v="cape" />
		<tag k="ssr:stedsnr" v="181005" />
	</node>
	<node id="-407871" lat="58.9173277753" lon="6.26600278609">
		<tag k="name" v="Naustrevika" />
		<tag k="natural" v="bay" />
		<tag k="ssr:stedsnr" v="178270" />
	</node>
	<node id="-407870" lat="58.9141972207" lon="6.2696888936">
		<tag k="name" v="Storågneset" />
		<tag k="natural" v="cape" />
		<tag k="ssr:stedsnr" v="178262" />
	</node>
	<node id="-407861" lat="58.9667194415" lon="6.02761944465">
		<tag k="name" v="Iglatjørna" />
		<tag k="natural" v="water" />
		<tag k="ssr:stedsnr" v="175288" />
	</node>
	<node id="-407859" lat="58.952388886" lon="6.04222777312">
		<tag k="name" v="Foreneset" />
		<tag k="natural" v="cape" />
		<tag k="ssr:stedsnr" v="175245" />
	</node>
	<node id="-407851" lat="58.9533305579" lon="6.25689443909">
		<tag k="name" v="Trodalstjørnane" />
		<tag k="natural" v="water" />
		<tag k="ssr:stedsnr" v="142080" />
		<tag k="water" v="lake" />
	</node>
	<node id="-407840" lat="59.1691972193" lon="6.65340277673">
		<tag k="name" v="Heiavatnet" />
		<tag k="natural" v="water" />
		<tag k="ssr:stedsnr" v="123159" />
		<tag k="water" v="lake" />
	</node>
	<node id="-407837" lat="59.1493527787" lon="6.61262499399">
		<tag k="name" v="Breiavatnet" />
		<tag k="natural" v="water" />
		<tag k="ssr:stedsnr" v="123153" />
		<tag k="water" v="lake" />
	</node>
	<node id="-407835" lat="59.1381805595" lon="6.67702499726">
		<tag k="name" v="Ådalstjørnene" />
		<tag k="natural" v="water" />
		<tag k="ssr:stedsnr" v="123144" />
	</node>
	<node id="-407832" lat="59.0399361089" lon="6.30811110833">
		<tag k="name" v="Tvaravatnet" />
		<tag k="natural" v="water" />
		<tag k="ssr:stedsnr" v="123071" />
	</node>
	<node id="-407829" lat="59.0382083371" lon="6.33221944766">
		<tag k="name" v="Stølatjørna" />
		<tag k="natural" v="water" />
		<tag k="ssr:stedsnr" v="123037" />
	</node>
	<node id="-407825" lat="58.9996770658" lon="6.67473936148">
		<tag k="name" v="Tjodavatnet" />
		<tag k="natural" v="water" />
		<tag k="ssr:stedsnr" v="122776" />
		<tag k="water" v="lake" />
	</node>
	<node id="-407821" lat="58.907420188" lon="6.31889671994">
		<tag k="alt_name" v="Tofribekken" />
		<tag k="name" v="Torfridbekken" />
		<tag k="ssr:stedsnr" v="122724" />
		<tag k="waterway" v="stream" />
	</node>
	<node id="-407820" lat="58.931391667" lon="6.15351111226">
		<tag k="alt_name" v="Holmavatnet" />
		<tag k="name" v="Holmavatn" />
		<tag k="natural" v="water" />
		<tag k="ssr:stedsnr" v="122723" />
		<tag k="water" v="lake" />
	</node>
	<node id="-407816" lat="58.9518499983" lon="6.10569999592">
		<tag k="alt_name" v="Stemmetjørn" />
		<tag k="name" v="Stemtjørna" />
		<tag k="natural" v="water" />
		<tag k="ssr:stedsnr" v="122690" />
	</node>
	<node id="-407811" lat="58.9505305599" lon="6.42311110632">
		<tag k="name" v="Molteknutvatnet" />
		<tag k="natural" v="water" />
		<tag k="ssr:stedsnr" v="122531" />
		<tag k="water" v="lake" />
	</node>
	<node id="-407810" lat="58.9676555546" lon="6.3089861118">
		<tag k="name" v="Uravatnet" />
		<tag k="natural" v="water" />
		<tag k="ssr:stedsnr" v="122502" />
	</node>
	<node id="-407809" lat="58.9874249969" lon="6.52233333938">
		<tag k="name" v="Krokavasstjørna" />
		<tag k="natural" v="water" />
		<tag k="ssr:stedsnr" v="122500" />
	</node>
	<node id="-407807" lat="58.9948999976" lon="6.27657500811">
		<tag k="alt_name" v="Bådabekken;Båtbekken" />
		<tag k="name" v="Båtabekken" />
		<tag k="ssr:stedsnr" v="122485" />
		<tag k="waterway" v="stream" />
	</node>
	<node id="-407806" lat="59.063855554" lon="6.62352221878">
		<tag k="name" v="Tjørnastølstjørna" />
		<tag k="natural" v="water" />
		<tag k="ssr:stedsnr" v="122147" />
	</node>
	<node id="-407802" lat="58.8774750017" lon="6.29401944152">
		<tag k="name" v="Valevatnet" />
		<tag k="natural" v="water" />
		<tag k="ssr:stedsnr" v="121634" />
		<tag k="water" v="lake" />
	</node>
	<node id="-407798" lat="59.0664166689" lon="6.56578611634">
		<tag k="name" v="Smalebekken" />
		<tag k="ssr:stedsnr" v="120855" />
		<tag k="waterway" v="stream" />
	</node>
	<node id="-407795" lat="59.0761305545" lon="6.42774999867">
		<tag k="name" v="Litla Sandvatnet" />
		<tag k="natural" v="water" />
		<tag k="ssr:stedsnr" v="120805" />
		<tag k="water" v="lake" />
	</node>
	<node id="-407783" lat="58.9064027776" lon="6.30163611247">
		<tag k="name" v="Kløstrebekk" />
		<tag k="ssr:stedsnr" v="120079" />
		<tag k="waterway" v="stream" />
	</node>
	<node id="-407778" lat="58.8565206769" lon="6.17533100579">
		<tag k="name" v="Longatjørn" />
		<tag k="natural" v="water" />
		<tag k="ssr:stedsnr" v="118985" />
	</node>
	<node id="-407776" lat="58.9095583357" lon="6.22906389627">
		<tag k="name" v="Lølandsstølen" />
		<tag k="natural" v="water" />
		<tag k="ssr:stedsnr" v="118287" />
	</node>
	<node id="-407757" lat="58.8877833328" lon="6.22893055691">
		<tag k="name" v="Storebekk" />
		<tag k="ssr:stedsnr" v="102160" />
		<tag k="waterway" v="stream" />
	</node>
	<node id="-407754" lat="59.0308166703" lon="6.3939166675">
		<tag k="name" v="Helmikstøltjørnane" />
		<tag k="natural" v="water" />
		<tag k="ssr:stedsnr" v="92735" />
	</node>
	<node id="-407752" lat="59.0000666658" lon="6.22888888648">
		<tag k="name" v="Hengjandå" />
		<tag k="ssr:stedsnr" v="85958" />
		<tag k="waterway" v="stream" />
	</node>
	<node id="-407749" lat="58.8995611076" lon="6.30630554831">
		<tag k="name" v="Krekebakktjørna" />
		<tag k="natural" v="water" />
		<tag k="ssr:stedsnr" v="81068" />
		<tag k="water" v="lake" />
	</node>
	<node id="-407738" lat="58.9211500026" lon="6.3183499984">
		<tag k="alt_name" v="Ryssdalsvatnet" />
		<tag k="name" v="Røssdalsvatnet" />
		<tag k="natural" v="water" />
		<tag k="ssr:stedsnr" v="62717" />
	</node>
	<node id="-407736" lat="58.9210777744" lon="6.25922499739">
		<tag k="alt_name" v="Miaren" />
		<tag k="name" v="Migaren" />
		<tag k="ssr:stedsnr" v="62694" />
		<tag k="waterway" v="stream" />
	</node>
	<node id="-407732" lat="58.9464333367" lon="6.36118333947">
		<tag k="name" v="Steinvatnet" />
		<tag k="natural" v="water" />
		<tag k="ssr:stedsnr" v="62541" />
	</node>
	<node id="-407731" lat="58.9436444442" lon="6.24017500148">
		<tag k="name" v="Stora Hellesvatnet" />
		<tag k="natural" v="water" />
		<tag k="ssr:stedsnr" v="62535" />
		<tag k="water" v="lake" />
	</node>
	<node id="-407728" lat="59.0157805586" lon="6.2769444483">
		<tag k="name" v="Brattliåna" />
		<tag k="ssr:stedsnr" v="62199" />
		<tag k="waterway" v="stream" />
	</node>
	<node id="-407727" lat="59.0918583331" lon="6.6352472185">
		<tag k="name" v="Stølsåna" />
		<tag k="ssr:stedsnr" v="62160" />
		<tag k="waterway" v="river" />
	</node>
	<node id="-407725" lat="59.1310472201" lon="6.8555750083">
		<tag k="name" v="Reinstjørna" />
		<tag k="natural" v="water" />
		<tag k="ssr:stedsnr" v="62132" />
	</node>
	<node id="-407717" lat="59.0638000035" lon="6.42012499421">
		<tag k="name" v="Mørkebuvatnet" />
		<tag k="natural" v="water" />
		<tag k="ssr:stedsnr" v="62029" />
	</node>
	<node id="-407714" lat="58.9579138882" lon="6.10614999859">
		<tag k="alt_name" v="Heiavatnet" />
		<tag k="name" v="Heiatjørna" />
		<tag k="natural" v="water" />
		<tag k="ssr:stedsnr" v="61770" />
		<tag k="water" v="lake" />
	</node>
	<node id="-407713" lat="58.9008416708" lon="6.24270000235">
		<tag k="alt_name" v="Stiatjørna" />
		<tag k="name" v="Stigatjørna" />
		<tag k="natural" v="water" />
		<tag k="ssr:stedsnr" v="61710" />
	</node>
	<node id="-407708" lat="58.9569464686" lon="6.31007695341">
		<tag k="alt_name" v="Nordbekk" />
		<tag k="name" v="Nordbekken" />
		<tag k="ssr:stedsnr" v="61514" />
		<tag k="waterway" v="stream" />
	</node>
	<node id="-407704" lat="58.983480557" lon="6.38424999479">
		<tag k="alt_name" v="Kvednavatnet" />
		<tag k="name" v="Kvernavatnet" />
		<tag k="natural" v="water" />
		<tag k="ssr:stedsnr" v="61484" />
	</node>
	<node id="-407702" lat="58.8634305557" lon="6.21288610654">
		<tag k="name" v="Stølsvatnet" />
		<tag k="natural" v="water" />
		<tag k="ssr:stedsnr" v="61226" />
		<tag k="water" v="lake" />
	</node>
	<node id="-407700" lat="59.0463861105" lon="6.41039167331">
		<tag k="name" v="Skaratjørna" />
		<tag k="natural" v="water" />
		<tag k="ssr:stedsnr" v="60875" />
	</node>
	<node id="-407698" lat="59.0565416676" lon="6.67690555371">
		<tag k="name" v="Middagsbekken" />
		<tag k="ssr:stedsnr" v="60859" />
		<tag k="waterway" v="stream" />
	</node>
	<node id="-407691" lat="58.9414694419" lon="6.33952499367">
		<tag k="name" v="Venetjørn" />
		<tag k="natural" v="water" />
		<tag k="ssr:stedsnr" v="60133" />
	</node>
	<node id="-407686" lat="58.9854472188" lon="6.27071666803">
		<tag k="name" v="Soffertjørn" />
		<tag k="natural" v="water" />
		<tag k="ssr:stedsnr" v="60066" />
	</node>
	<node id="-407680" lat="58.9167000032" lon="6.15079445257">
		<tag k="name" v="Strondå" />
		<tag k="natural" v="beach" />
		<tag k="ssr:stedsnr" v="59630" />
	</node>
	<node id="-407675" lat="59.0669277776" lon="6.3333111112">
		<tag k="name" v="Sundmorkåna" />
		<tag k="ssr:stedsnr" v="59176" />
		<tag k="waterway" v="river" />
	</node>
	<node id="-407674" lat="59.0673111124" lon="6.31316388135">
		<tag k="name" v="Fisketjørna" />
		<tag k="natural" v="water" />
		<tag k="ssr:stedsnr" v="59162" />
	</node>
	<node id="-407661" lat="58.861177774" lon="6.21558610795">
		<tag k="name" v="Stølsvatnet" />
		<tag k="natural" v="water" />
		<tag k="ssr:stedsnr" v="57958" />
		<tag k="water" v="lake" />
	</node>
	<node id="-407652" lat="58.9250388845" lon="6.07916944685">
		<tag k="name" v="Eikelitjørna" />
		<tag k="natural" v="water" />
		<tag k="ssr:stedsnr" v="55487" />
	</node>
	<node id="-407637" lat="58.8649861085" lon="6.2130416689">
		<tag k="name" v="Mælstølsvatnet" />
		<tag k="natural" v="water" />
		<tag k="ssr:stedsnr" v="40954" />
		<tag k="water" v="lake" />
	</node>
	<node id="-407636" lat="58.8678611091" lon="6.25370277534">
		<tag k="name" v="Longavatnet" />
		<tag k="natural" v="water" />
		<tag k="ssr:stedsnr" v="40949" />
		<tag k="water" v="lake" />
	</node>
	<node id="-407623" lat="59.1134472241" lon="6.83377500524">
		<tag k="alt_name" v="Ramsdalstjørna, øvra" />
		<tag k="name" v="Øvra Ramsdalstjørna" />
		<tag k="natural" v="water" />
		<tag k="ssr:stedsnr" v="2185" />
	</node>
	<node id="-407622" lat="59.0833361123" lon="6.57032500023">
		<tag k="name" v="Strandvasstjørna" />
		<tag k="natural" v="water" />
		<tag k="ssr:stedsnr" v="2110" />
	</node>
	<node id="-407621" lat="59.0864750022" lon="6.50693610569">
		<tag k="name" v="Håhellersandvika" />
		<tag k="natural" v="bay" />
		<tag k="ssr:stedsnr" v="2099" />
	</node>
	<node id="-407615" lat="58.995152778" lon="6.61733610951">
		<tag k="name" v="Langavatnet" />
		<tag k="natural" v="water" />
		<tag k="ssr:stedsnr" v="1773" />
	</node>
	<node id="-407614" lat="59.0063512473" lon="6.6434470728">
		<tag k="name" v="Akslaråtjørna" />
		<tag k="natural" v="water" />
		<tag k="ssr:stedsnr" v="1761" />
	</node>
	<node id="-407613" lat="58.8915916667" lon="6.29526110888">
		<tag k="alt_name" v="Sauatjørn" />
		<tag k="name" v="Sauatjørna" />
		<tag k="natural" v="water" />
		<tag k="ssr:stedsnr" v="1751" />
	</node>
	<node id="-407612" lat="58.8900305579" lon="6.33833056284">
		<tag k="alt_name" v="Gotjørn" />
		<tag k="name" v="Godtjørn" />
		<tag k="natural" v="water" />
		<tag k="ssr:stedsnr" v="1736" />
	</node>
	<node id="-407610" lat="58.9326798316" lon="6.06426220424">
		<tag k="fixme" v="multiple name tags, choose one and add the other to alt_name" />
		<tag k="name" v="Noravatnet;Nordre Erevigvatnet" />
		<tag k="natural" v="water" />
		<tag k="ssr:stedsnr" v="1728" />
		<tag k="water" v="lake" />
	</node>
	<node id="-407605" lat="58.9200803716" lon="6.13694421531">
		<tag k="name" v="Stølsvatnet" />
		<tag k="natural" v="water" />
		<tag k="ssr:stedsnr" v="1648" />
		<tag k="water" v="lake" />
	</node>
	<node id="-407603" lat="58.9512687281" lon="6.32988372993">
		<tag k="name" v="Tverråna" />
		<tag k="ssr:stedsnr" v="1554" />
		<tag k="waterway" v="stream" />
	</node>
	<node id="-407602" lat="58.961966671" lon="6.45273611603">
		<tag k="name" v="Vassleia" />
		<tag k="natural" v="water" />
		<tag k="ssr:stedsnr" v="1545" />
		<tag k="water" v="lake" />
	</node>
	<node id="-407596" lat="59.0375527753" lon="6.22281110389">
		<tag k="alt_name" v="Svartavatnet" />
		<tag k="name" v="Svartavatn" />
		<tag k="natural" v="water" />
		<tag k="ssr:stedsnr" v="1087" />
	</node>
	<node id="-407592" lat="59.0662583311" lon="6.39678610744">
		<tag k="name" v="Lokråna" />
		<tag k="natural" v="water" />
		<tag k="ssr:stedsnr" v="1036" />
	</node>
	<node id="-407591" lat="59.0738250034" lon="6.40256389697">
		<tag k="name" v="Vongsatjørnane" />
		<tag k="natural" v="water" />
		<tag k="ssr:stedsnr" v="1029" />
		<tag k="water" v="lake" />
	</node>
	<node id="-407588" lat="59.0572583316" lon="6.35382500007">
		<tag k="name" v="Teinebekken" />
		<tag k="ssr:stedsnr" v="1017" />
		<tag k="waterway" v="stream" />
	</node>
	<node id="-407585" lat="58.913047222" lon="6.41225278271">
		<tag k="name" v="Juvavatnet" />
		<tag k="natural" v="water" />
		<tag k="ssr:stedsnr" v="732" />
	</node>
	<node id="-407582" lat="58.8983500009" lon="6.27337500448">
		<tag k="name" v="Svartatjørna" />
		<tag k="natural" v="water" />
		<tag k="ssr:stedsnr" v="725" />
	</node>
	<node id="-407581" lat="58.8988305541" lon="6.23737500784">
		<tag k="name" v="Lomatjørna" />
		<tag k="natural" v="water" />
		<tag k="ssr:stedsnr" v="722" />
	</node>
	<node id="-407579" lat="58.9096888869" lon="6.19998889699">
		<tag k="alt_name" v="Sjylevatnet" />
		<tag k="name" v="Skylevatnet" />
		<tag k="natural" v="water" />
		<tag k="ssr:stedsnr" v="638" />
		<tag k="water" v="lake" />
	</node>
	<node id="-407574" lat="58.9985166628" lon="6.47617499254">
		<tag k="name" v="Eidstangen" />
		<tag k="natural" v="cape" />
		<tag k="ssr:stedsnr" v="507" />
	</node>
	<node id="-407556" lat="58.8685277789" lon="6.16480555998">
		<tag k="name" v="Åkroken" />
		<tag k="place" v="locality" />
		<tag k="ssr:stedsnr" v="890960" />
	</node>
</osm>
