<?xml version="1.0" encoding="UTF-8"?>
<osm generator="osmapis" version="0.6">
	<node id="-409087" lat="58.9476250022" lon="6.01446388528">
		<tag k="alt_name" v="Uravik" />
		<tag k="name" v="Uraviga" />
		<tag k="natural" v="bay" />
		<tag k="ssr:stedsnr" v="708353" />
	</node>
	<node id="-409084" lat="58.9366638925" lon="6.03448333927">
		<tag k="name" v="Lerangsvågen" />
		<tag k="natural" v="bay" />
		<tag k="ssr:stedsnr" v="693268" />
	</node>
	<node id="-409083" lat="58.9434361105" lon="6.12617776991">
		<tag k="alt_name" v="Dalaviga" />
		<tag k="name" v="Dalavika" />
		<tag k="natural" v="bay" />
		<tag k="ssr:stedsnr" v="678597" />
	</node>
	<node id="-409082" lat="58.9106388909" lon="6.10218611218">
		<tag k="alt_name" v="Haborsviga" />
		<tag k="name" v="Haborsvika" />
		<tag k="natural" v="bay" />
		<tag k="ssr:stedsnr" v="677606" />
	</node>
	<node id="-409077" lat="59.0168999979" lon="6.34015832586">
		<tag k="name" v="Kroknes" />
		<tag k="natural" v="cape" />
		<tag k="ssr:stedsnr" v="669182" />
	</node>
	<node id="-408560" lat="58.9611333328" lon="6.00513054713">
		<tag k="name" v="Bergsviga" />
		<tag k="natural" v="bay" />
		<tag k="ssr:stedsnr" v="243804" />
	</node>
	<node id="-408572" lat="59.0387861148" lon="6.52442499459">
		<tag k="name" v="Håhellerneset" />
		<tag k="natural" v="cape" />
		<tag k="ssr:stedsnr" v="244222" />
	</node>
	<node id="-408038" lat="58.9404888872" lon="6.1202249926">
		<tag k="bay" v="fjord" />
		<tag k="name" v="Lysefjorden" />
		<tag k="natural" v="bay" />
		<tag k="ssr:stedsnr" v="364713" />
	</node>
	<node id="-408457" lat="58.9625749969" lon="6.17601111257">
		<tag k="name" v="Høynes" />
		<tag k="natural" v="cape" />
		<tag k="ssr:stedsnr" v="182774" />
	</node>
	<node id="-409190" lat="58.9520972239" lon="6.12578610294">
		<tag k="alt_name" v="Skjeravig" />
		<tag k="name" v="Skjeravik" />
		<tag k="natural" v="bay" />
		<tag k="ssr:stedsnr" v="782342" />
	</node>
	<node id="-408571" lat="59.0466277812" lon="6.57613611662">
		<tag k="name" v="Dyrablod" />
		<tag k="natural" v="cape" />
		<tag k="ssr:stedsnr" v="244217" />
	</node>
	<node id="-408398" lat="58.9584361093" lon="5.99564721596">
		<tag k="name" v="Arholmen" />
		<tag k="place" v="islet" />
		<tag k="ssr:stedsnr" v="144012" />
	</node>
	<node id="-408527" lat="58.9574305563" lon="6.1667249987">
		<tag k="name" v="Pannevikodden" />
		<tag k="natural" v="cape" />
		<tag k="ssr:stedsnr" v="242055" />
	</node>
	<node id="-408513" lat="58.9052694462" lon="6.07129444173">
		<tag k="name" v="Strandteigen" />
		<tag k="natural" v="beach" />
		<tag k="place" v="locality" />
		<tag k="ssr:stedsnr" v="241032" />
	</node>
	<node id="-408509" lat="59.0157336249" lon="6.43332209106">
		<tag k="alt_name" v="Heimra Neset" />
		<tag k="name" v="Heimraneset" />
		<tag k="natural" v="cape" />
		<tag k="ssr:stedsnr" v="239961" />
	</node>
	<node id="-408508" lat="58.8484916641" lon="6.17882222099">
		<tag k="alt_name" v="Pelaviga" />
		<tag k="name" v="Pelavika" />
		<tag k="natural" v="bay" />
		<tag k="ssr:stedsnr" v="239773" />
	</node>
	<node id="-408507" lat="58.9175722221" lon="6.05662222123">
		<tag k="name" v="Krågetona" />
		<tag k="natural" v="cape" />
		<tag k="ssr:stedsnr" v="239706" />
	</node>
	<node id="-408505" lat="58.8917083351" lon="6.10394722575">
		<tag k="name" v="Åneset" />
		<tag k="natural" v="cape" />
		<tag k="ssr:stedsnr" v="237588" />
	</node>
	<node id="-408502" lat="58.9555361126" lon="6.13454444306">
		<tag k="name" v="Lyngtonå" />
		<tag k="natural" v="cape" />
		<tag k="ssr:stedsnr" v="236878" />
	</node>
	<node id="-409524" lat="58.9867083371" lon="6.23952499485">
		<tag k="name" v="Kåsaneset" />
		<tag k="natural" v="cape" />
		<tag k="ssr:stedsnr" v="969040" />
	</node>
	<node id="-407987" lat="58.8618027754" lon="6.14746944921">
		<tag k="name" v="Hedleodden" />
		<tag k="natural" v="cape" />
		<tag k="ssr:stedsnr" v="360935" />
	</node>
	<node id="-409010" lat="58.8704527762" lon="6.13478611147">
		<tag k="name" v="Kroppevik" />
		<tag k="natural" v="bay" />
		<tag k="ssr:stedsnr" v="661174" />
	</node>
	<node id="-409009" lat="58.8654166643" lon="6.14151666999">
		<tag k="name" v="Radlavika" />
		<tag k="natural" v="bay" />
		<tag k="ssr:stedsnr" v="661173" />
	</node>
	<node id="-409520" lat="58.9779361146" lon="6.22223055084">
		<tag k="name" v="Ingemundsviga" />
		<tag k="natural" v="bay" />
		<tag k="ssr:stedsnr" v="967516" />
	</node>
	<node id="-407983" lat="58.9931444425" lon="6.262027786">
		<tag k="name" v="Sjurshamnen" />
		<tag k="natural" v="bay" />
		<tag k="ssr:stedsnr" v="360531" />
	</node>
	<node id="-408492" lat="59.0155055538" lon="6.42070833273">
		<tag k="name" v="Flørneset" />
		<tag k="natural" v="cape" />
		<tag k="ssr:stedsnr" v="184204" />
	</node>
	<node id="-408997" lat="58.8697444461" lon="6.13356110459">
		<tag k="alt_name" v="Rossavik" />
		<tag k="loc_name" v="Rossaviga" />
		<tag k="name" v="Rossavika" />
		<tag k="natural" v="bay" />
		<tag k="ssr:stedsnr" v="630094" />
	</node>
	<node id="-409508" lat="58.9384916673" lon="6.09790277597">
		<tag k="alt_name" v="Timmervig" />
		<tag k="name" v="Timmervik" />
		<tag k="natural" v="bay" />
		<tag k="ssr:stedsnr" v="964391" />
	</node>
	<node id="-408993" lat="58.9445444429" lon="6.13245000751">
		<tag k="alt_name" v="Vigavågen" />
		<tag k="name" v="Vikavågen" />
		<tag k="natural" v="bay" />
		<tag k="ssr:stedsnr" v="616608" />
	</node>
	<node id="-407968" lat="58.9428333295" lon="6.01938055515">
		<tag k="name" v="Melingviga" />
		<tag k="natural" v="bay" />
		<tag k="ssr:stedsnr" v="357358" />
	</node>
	<node id="-409499" lat="58.8756666688" lon="6.11587221627">
		<tag k="name" v="Uburboen" />
		<tag k="place" v="locality" />
		<tag k="seamark:type" v="rock" />
		<tag k="ssr:stedsnr" v="934972" />
	</node>
	<node id="-409496" lat="58.9461472235" lon="6.1273250043">
		<tag k="name" v="Storaneset" />
		<tag k="place" v="islet" />
		<tag k="ssr:stedsnr" v="917584" />
	</node>
	<node id="-409493" lat="59.0289138884" lon="6.53196666409">
		<tag k="name" v="Låtervik" />
		<tag k="natural" v="bay" />
		<tag k="ssr:stedsnr" v="912224" />
	</node>
	<node id="-409491" lat="59.0187611084" lon="6.35540000113">
		<tag k="name" v="Skipahamnen" />
		<tag k="natural" v="bay" />
		<tag k="ssr:stedsnr" v="912198" />
	</node>
	<node id="-409481" lat="59.0867805542" lon="6.5338861133">
		<tag k="name" v="Sandvika" />
		<tag k="natural" v="bay" />
		<tag k="ssr:stedsnr" v="912099" />
	</node>
	<node id="-408452" lat="58.870436113" lon="6.12979999691">
		<tag k="alt_name" v="Gråttnes" />
		<tag k="name" v="Grottnes" />
		<tag k="natural" v="cape" />
		<tag k="ssr:stedsnr" v="182557" />
	</node>
	<node id="-409472" lat="58.9647532766" lon="6.18444438872">
		<tag k="name" v="Aslakskårvika" />
		<tag k="natural" v="bay" />
		<tag k="old_name" v="Akslaskorvika" />
		<tag k="ssr:stedsnr" v="911797" />
	</node>
	<node id="-408957" lat="58.9493333376" lon="6.13314722566">
		<tag k="alt_name" v="Dørvikneset, ytre;Dørvikneset, yttre" />
		<tag k="name" v="Ytre Dørvikneset" />
		<tag k="natural" v="cape" />
		<tag k="ssr:stedsnr" v="607711" />
	</node>
	<node id="-409463" lat="58.8842166695" lon="6.10982500692">
		<tag k="name" v="Aksnes" />
		<tag k="natural" v="cape" />
		<tag k="ssr:stedsnr" v="911684" />
	</node>
	<node id="-409460" lat="58.8759749985" lon="6.11820000289">
		<tag k="name" v="Sandnes" />
		<tag k="natural" v="cape" />
		<tag k="ssr:stedsnr" v="911577" />
	</node>
	<node id="-409444" lat="58.9486527788" lon="6.00985277945">
		<tag k="name" v="Trellskår" />
		<tag k="natural" v="cape" />
		<tag k="ssr:stedsnr" v="909894" />
	</node>
	<node id="-409443" lat="58.9338135508" lon="6.0402946045">
		<tag k="alt_name" v="Nordre Skjeivika" />
		<tag k="name" v="Ytra Skeivika" />
		<tag k="natural" v="bay" />
		<tag k="ssr:stedsnr" v="909886" />
	</node>
	<node id="-408414" lat="59.0181083324" lon="6.34761667135">
		<tag k="name" v="Apalen" />
		<tag k="natural" v="cape" />
		<tag k="ssr:stedsnr" v="176903" />
	</node>
	<node id="-407866" lat="58.8740055548" lon="6.12404722059">
		<tag k="name" v="Strondå" />
		<tag k="natural" v="beach" />
		<tag k="place" v="locality" />
		<tag k="ssr:stedsnr" v="297551" />
	</node>
	<node id="-408410" lat="58.8836388918" lon="6.10910000041">
		<tag k="name" v="Aksnes" />
		<tag k="natural" v="cape" />
		<tag k="ssr:stedsnr" v="176171" />
	</node>
	<node id="-408409" lat="58.9633416665" lon="6.14941667531">
		<tag k="name" v="Fantajuvneset" />
		<tag k="natural" v="cape" />
		<tag k="ssr:stedsnr" v="175880" />
	</node>
	<node id="-409401" lat="58.9245277819" lon="6.10519444911">
		<tag k="name" v="Bergenden" />
		<tag k="natural" v="cape" />
		<tag k="ssr:stedsnr" v="904512" />
	</node>
	<node id="-408399" lat="58.9632555558" lon="6.00441111834">
		<tag k="name" v="Grønevig" />
		<tag k="natural" v="bay" />
		<tag k="ssr:stedsnr" v="146028" />
	</node>
	<node id="-408910" lat="58.9564749969" lon="6.16527222047">
		<tag k="name" v="Pannevik" />
		<tag k="natural" v="bay" />
		<tag k="ssr:stedsnr" v="605063" />
	</node>
	<node id="-408908" lat="58.9053916682" lon="6.09693056259">
		<tag k="name" v="Farmanes" />
		<tag k="natural" v="cape" />
		<tag k="ssr:stedsnr" v="605040" />
	</node>
	<node id="-407883" lat="58.9765472211" lon="6.21940277309">
		<tag k="fixme" v="consider seamark:type=rock or natural=shoal" />
		<tag k="name" v="Galtasteinen" />
		<tag k="place" v="islet" />
		<tag k="ssr:stedsnr" v="302056" />
	</node>
	<node id="-408389" lat="59.006263887" lon="6.38154999322">
		<tag k="name" v="Kvernaneset" />
		<tag k="natural" v="cape" />
		<tag k="ssr:stedsnr" v="123206" />
	</node>
	<node id="-409412" lat="58.8602861088" lon="6.15007499738">
		<tag k="name" v="Granen" />
		<tag k="natural" v="cape" />
		<tag k="ssr:stedsnr" v="907911" />
	</node>
	<node id="-408894" lat="58.949052777" lon="6.144022227">
		<tag k="name" v="Ytra Dørvika" />
		<tag k="natural" v="bay" />
		<tag k="ssr:stedsnr" v="600973" />
	</node>
	<node id="-409404" lat="58.9647222254" lon="6.14966666985">
		<tag k="name" v="Tungå" />
		<tag k="natural" v="cape" />
		<tag k="ssr:stedsnr" v="904890" />
	</node>
	<node id="-409402" lat="59.0143416623" lon="6.29928054792">
		<tag k="name" v="Lindelineset" />
		<tag k="natural" v="cape" />
		<tag k="ssr:stedsnr" v="904856" />
	</node>
	<node id="-408889" lat="58.8608194422" lon="6.14246943724">
		<tag k="alt_name" v="Hedlegrunnen" />
		<tag k="name" v="Hellegrunnen" />
		<tag k="natural" v="shoal" />
		<tag k="place" v="locality" />
		<tag k="ssr:stedsnr" v="600530" />
	</node>
	<node id="-409400" lat="58.9647361155" lon="6.15034444655">
		<tag k="name" v="Fantahola" />
		<tag k="natural" v="bay" />
		<tag k="ssr:stedsnr" v="904375" />
	</node>
	<node id="-408885" lat="58.954694445" lon="6.14819999637">
		<tag k="alt_name" v="Dørvikneset, indre;Dørvikneset" />
		<tag k="name" v="Indre Dørvikneset" />
		<tag k="natural" v="cape" />
		<tag k="ssr:stedsnr" v="600340" />
	</node>
	<node id="-408798" lat="58.927130555" lon="6.10866110845">
		<tag k="name" v="Svartavik" />
		<tag k="natural" v="bay" />
		<tag k="ssr:stedsnr" v="540542" />
	</node>
	<node id="-408368" lat="58.9221361141" lon="6.10161944076">
		<tag k="alt_name" v="Giskelines" />
		<tag k="name" v="Giskalineset" />
		<tag k="natural" v="cape" />
		<tag k="ssr:stedsnr" v="122745" />
	</node>
	<node id="-409389" lat="58.9130277734" lon="6.10047500406">
		<tag k="alt_name" v="Bosskjer" />
		<tag k="fixme" v="consider seamark:type=rock or natural=shoal" />
		<tag k="name" v="Båtskjer" />
		<tag k="place" v="islet" />
		<tag k="ssr:stedsnr" v="874521" />
	</node>
	<node id="-407852" lat="58.9391138886" lon="6.02260555555">
		<tag k="alt_name" v="Nonsteviga" />
		<tag k="name" v="Nonstevika" />
		<tag k="natural" v="bay" />
		<tag k="ssr:stedsnr" v="283302" />
	</node>
	<node id="-408363" lat="58.9537555516" lon="6.00895556396">
		<tag k="name" v="Bruraviga" />
		<tag k="natural" v="bay" />
		<tag k="ssr:stedsnr" v="122695" />
	</node>
	<node id="-409386" lat="58.9282583288" lon="6.1128416614">
		<tag k="name" v="Skiftesneset" />
		<tag k="natural" v="cape" />
		<tag k="ssr:stedsnr" v="860645" />
	</node>
	<node id="-407849" lat="58.9339555576" lon="6.10601943972">
		<tag k="name" v="Holmsund" />
		<tag k="natural" v="strait" />
		<tag k="ssr:stedsnr" v="282587" />
	</node>
	<node id="-409384" lat="59.0000749963" lon="6.31858888359">
		<tag k="alt_name" v="Giskasætet" />
		<tag k="name" v="Giskasetet" />
		<tag k="natural" v="cape" />
		<tag k="ssr:stedsnr" v="852203" />
	</node>
	<node id="-408868" lat="59.0255888877" lon="6.48779999413">
		<tag k="name" v="Sovekroneset" />
		<tag k="natural" v="cape" />
		<tag k="ssr:stedsnr" v="570944" />
	</node>
	<node id="-408867" lat="58.8948166691" lon="6.10051666334">
		<tag k="name" v="Hagaviga" />
		<tag k="natural" v="bay" />
		<tag k="ssr:stedsnr" v="570077" />
	</node>
	<node id="-409392" lat="59.0024861149" lon="6.23657221639">
		<tag k="name" v="Lauvvik" />
		<tag k="natural" v="bay" />
		<tag k="ssr:stedsnr" v="874946" />
	</node>
	<node id="-408862" lat="58.9850277776" lon="6.19461110828">
		<tag k="alt_name" v="Skarvasetet" />
		<tag k="name" v="Skarvasete" />
		<tag k="natural" v="cape" />
		<tag k="ssr:stedsnr" v="547787" />
	</node>
	<node id="-409371" lat="58.8486833309" lon="6.17639444966">
		<tag k="alt_name" v="Kverven" />
		<tag k="name" v="Kvarven" />
		<tag k="natural" v="cape" />
		<tag k="ssr:stedsnr" v="851589" />
	</node>
	<node id="-408858" lat="58.881352781" lon="6.11402500305">
		<tag k="alt_name" v="Breivika" />
		<tag k="name" v="Breidvika" />
		<tag k="natural" v="bay" />
		<tag k="ssr:stedsnr" v="547699" />
	</node>
	<node id="-408328" lat="58.9723555527" lon="6.19504721713">
		<tag k="name" v="Kvassnes" />
		<tag k="natural" v="cape" />
		<tag k="ssr:stedsnr" v="120050" />
	</node>
	<node id="-408315" lat="58.9496590957" lon="6.01145033704">
		<tag k="alt_name" v="Trellskårviga" />
		<tag k="name" v="Trellskårvika" />
		<tag k="natural" v="bay" />
		<tag k="ssr:stedsnr" v="115396" />
	</node>
	<node id="-408314" lat="58.958127774" lon="6.13949722354">
		<tag k="name" v="Rekeneset" />
		<tag k="natural" v="cape" />
		<tag k="ssr:stedsnr" v="115386" />
	</node>
	<node id="-408313" lat="58.9323194441" lon="6.09842223009">
		<tag k="alt_name" v="Linnevig" />
		<tag k="name" v="Linnevik" />
		<tag k="natural" v="bay" />
		<tag k="ssr:stedsnr" v="115383" />
	</node>
	<node id="-408820" lat="58.9894777787" lon="6.25018332641">
		<tag k="name" v="Marvik" />
		<tag k="natural" v="bay" />
		<tag k="ssr:stedsnr" v="545044" />
	</node>
	<node id="-409325" lat="58.9300527769" lon="6.04714722681">
		<tag k="alt_name" v="Indre Skjeivika" />
		<tag k="name" v="Indra Skeivika" />
		<tag k="natural" v="bay" />
		<tag k="ssr:stedsnr" v="848867" />
	</node>
	<node id="-408297" lat="58.998994446" lon="6.29851388344">
		<tag k="name" v="Mulavig" />
		<tag k="natural" v="bay" />
		<tag k="ssr:stedsnr" v="85954" />
	</node>
	<node id="-408806" lat="58.9038888897" lon="6.07374722235">
		<tag k="name" v="Oaneset" />
		<tag k="natural" v="cape" />
		<tag k="ssr:stedsnr" v="544035" />
	</node>
	<node id="-408293" lat="59.0123583306" lon="6.27881110916">
		<tag k="name" v="Sjoklampen" />
		<tag k="natural" v="cape" />
		<tag k="ssr:stedsnr" v="63208" />
	</node>
	<node id="-408292" lat="59.02093333" lon="6.36532499264">
		<tag k="name" v="Piggstein" />
		<tag k="natural" v="cape" />
		<tag k="ssr:stedsnr" v="63204" />
	</node>
	<node id="-408286" lat="58.9876500016" lon="6.20054443967">
		<tag k="alt_name" v="Skiddvik" />
		<tag k="name" v="Skitvika" />
		<tag k="natural" v="bay" />
		<tag k="ssr:stedsnr" v="62781" />
	</node>
	<node id="-408793" lat="58.9889166673" lon="6.24702499802">
		<tag k="name" v="Klubben" />
		<tag k="natural" v="cape" />
		<tag k="ssr:stedsnr" v="545042" />
	</node>
	<node id="-409304" lat="58.8864805548" lon="6.10643056047">
		<tag k="alt_name" v="Eriksviga" />
		<tag k="name" v="Eriksvika" />
		<tag k="natural" v="bay" />
		<tag k="ssr:stedsnr" v="844707" />
	</node>
	<node id="-408788" lat="58.9434583325" lon="6.10419721448">
		<tag k="name" v="Klubben" />
		<tag k="natural" v="cape" />
		<tag k="ssr:stedsnr" v="539300" />
	</node>
	<node id="-409296" lat="58.9579638854" lon="6.13984167004">
		<tag k="name" v="Rekneneset" />
		<tag k="natural" v="cape" />
		<tag k="ssr:stedsnr" v="843879" />
	</node>
	<node id="-409294" lat="58.9450694441" lon="6.10759166013">
		<tag k="name" v="Slettaberghola" />
		<tag k="natural" v="bay" />
		<tag k="ssr:stedsnr" v="843355" />
	</node>
	<node id="-408780" lat="58.9400166673" lon="6.12069167085">
		<tag k="alt_name" v="Trossviga" />
		<tag k="name" v="Trossvika" />
		<tag k="natural" v="bay" />
		<tag k="ssr:stedsnr" v="495608" />
	</node>
	<node id="-408294" lat="58.9193861129" lon="6.10114166384">
		<tag k="name" v="Nauanes" />
		<tag k="natural" v="cape" />
		<tag k="ssr:stedsnr" v="71656" />
	</node>
	<node id="-408257" lat="58.9498916668" lon="6.14408888578">
		<tag k="alt_name" v="Dørvig" />
		<tag k="name" v="Dørviga" />
		<tag k="natural" v="bay" />
		<tag k="ssr:stedsnr" v="61689" />
	</node>
	<node id="-408255" lat="58.8537250027" lon="6.16460833361">
		<tag k="alt_name" v="Grimsneset" />
		<tag k="name" v="Grimsnes" />
		<tag k="natural" v="cape" />
		<tag k="ssr:stedsnr" v="61572" />
	</node>
	<node id="-409277" lat="58.9583138918" lon="6.00598889331">
		<tag k="name" v="Steinvig" />
		<tag k="natural" v="bay" />
		<tag k="ssr:stedsnr" v="814040" />
	</node>
	<node id="-409274" lat="58.915855559" lon="6.10277500128">
		<tag k="alt_name" v="Kvednavika" />
		<tag k="name" v="Kvernaviga" />
		<tag k="natural" v="bay" />
		<tag k="ssr:stedsnr" v="798565" />
	</node>
	<node id="-408754" lat="58.9565361076" lon="6.15921388965">
		<tag k="alt_name" v="Holmengrå" />
		<tag k="name" v="Holmen grå" />
		<tag k="place" v="islet" />
		<tag k="ssr:stedsnr" v="486719" />
	</node>
	<node id="-409247" lat="58.945644443" lon="6.01628610799">
		<tag k="name" v="Nordlandsholmen" />
		<tag k="place" v="islet" />
		<tag k="ssr:stedsnr" v="789694" />
	</node>
	<node id="-408173" lat="59.043949998" lon="6.54942499874">
		<tag k="alt_name" v="Linhamn" />
		<tag k="name" v="Linhamnen" />
		<tag k="natural" v="bay" />
		<tag k="ssr:stedsnr" v="2217" />
	</node>
	<node id="-408201" lat="59.0167416666" lon="6.33233610761">
		<tag k="alt_name" v="Sandviga" />
		<tag k="name" v="Sandvika" />
		<tag k="natural" v="bay" />
		<tag k="ssr:stedsnr" v="55915" />
	</node>
	<node id="-408172" lat="59.0298361146" lon="6.51736111482">
		<tag k="name" v="Kjetona" />
		<tag k="natural" v="cape" />
		<tag k="ssr:stedsnr" v="2215" />
	</node>
	<node id="-408195" lat="58.8642555593" lon="6.14588054729">
		<tag k="alt_name" v="Dalbuviga" />
		<tag k="name" v="Dalbuvika" />
		<tag k="natural" v="bay" />
		<tag k="ssr:stedsnr" v="55534" />
	</node>
	<node id="-408682" lat="58.9835333309" lon="6.23258889609">
		<tag k="name" v="Fossåneset" />
		<tag k="natural" v="cape" />
		<tag k="ssr:stedsnr" v="431573" />
	</node>
	<node id="-408186" lat="58.9462666652" lon="6.10849999875">
		<tag k="name" v="Foreklubben" />
		<tag k="natural" v="cape" />
		<tag k="ssr:stedsnr" v="41618" />
	</node>
	<node id="-409208" lat="58.9042583369" lon="6.09369167018">
		<tag k="name" v="Gjøysavik" />
		<tag k="natural" v="bay" />
		<tag k="ssr:stedsnr" v="786797" />
	</node>
	<node id="-408691" lat="58.9444111072" lon="6.12797500675">
		<tag k="alt_name" v="Viganeset;Neset" />
		<tag k="name" v="Vikaneset" />
		<tag k="natural" v="cape" />
		<tag k="ssr:stedsnr" v="466639" />
	</node>
	<node id="-408176" lat="58.9597833355" lon="6.17072499716">
		<tag k="alt_name" v="Oksaskjeret" />
		<tag k="fixme" v="consider seamark:type=rock or natural=shoal" />
		<tag k="name" v="Uksen" />
		<tag k="place" v="islet" />
		<tag k="ssr:stedsnr" v="24956" />
	</node>
	<node id="-409198" lat="58.9086611831" lon="6.06450578438">
		<tag k="name" v="Skottilja" />
		<tag k="natural" v="bay" />
		<tag k="ssr:stedsnr" v="783519" />
	</node>
	<node id="-408685" lat="58.9347999996" lon="6.10563611774">
		<tag k="name" v="Litle Bergsholmen" />
		<tag k="place" v="islet" />
		<tag k="ssr:stedsnr" v="464608" />
	</node>
	<node id="-408684" lat="59.0501444429" lon="6.60434444573">
		<tag k="name" v="Skarpanes" />
		<tag k="natural" v="cape" />
		<tag k="ssr:stedsnr" v="449950" />
	</node>
	<node id="-408171" lat="59.0440305584" lon="6.56031388417">
		<tag k="fixme" v="consider seamark:type=rock or natural=shoal" />
		<tag k="name" v="Galtaskjeret" />
		<tag k="place" v="islet" />
		<tag k="ssr:stedsnr" v="2202" />
	</node>
	<node id="-409194" lat="59.0252861077" lon="6.3945694497">
		<tag k="alt_name" v="Austra Vika" />
		<tag k="name" v="Austra Viga" />
		<tag k="natural" v="bay" />
		<tag k="ssr:stedsnr" v="782895" />
	</node>
	<node id="-408681" lat="59.0384166641" lon="6.49165834197">
		<tag k="name" v="Krossnes" />
		<tag k="natural" v="cape" />
		<tag k="ssr:stedsnr" v="427230" />
	</node>
	<node id="-408680" lat="59.0418083337" lon="6.58233888069">
		<tag k="name" v="Geitaneset" />
		<tag k="natural" v="cape" />
		<tag k="ssr:stedsnr" v="427229" />
	</node>
	<node id="-409191" lat="58.9494162941" lon="6.11917232814">
		<tag k="alt_name" v="Seiavig" />
		<tag k="name" v="Seiavik" />
		<tag k="natural" v="bay" />
		<tag k="ssr:stedsnr" v="782345" />
	</node>
	<node id="-408166" lat="59.0315999962" lon="6.44643610905">
		<tag k="name" v="Skipastyret" />
		<tag k="natural" v="cape" />
		<tag k="ssr:stedsnr" v="2047" />
	</node>
	<node id="-408675" lat="59.002888888" lon="6.23669999188">
		<tag k="name" v="Hengjandeviga" />
		<tag k="natural" v="bay" />
		<tag k="ssr:stedsnr" v="427211" />
	</node>
	<node id="-409186" lat="58.9311527748" lon="6.11251111686">
		<tag k="name" v="Jektaholet" />
		<tag k="natural" v="bay" />
		<tag k="ssr:stedsnr" v="770602" />
	</node>
	<node id="-409181" lat="59.0323333307" lon="6.54893610525">
		<tag k="name" v="Skarvasætet" />
		<tag k="natural" v="cape" />
		<tag k="ssr:stedsnr" v="752959" />
	</node>
	<node id="-409179" lat="58.976222222" lon="6.21643611474">
		<tag k="name" v="Galtasteinen" />
		<tag k="natural" v="cape" />
		<tag k="ssr:stedsnr" v="749544" />
	</node>
	<node id="-408666" lat="58.9713361126" lon="6.16793333083">
		<tag k="alt_name" v="Torshamn" />
		<tag k="name" v="Torshamnen" />
		<tag k="natural" v="bay" />
		<tag k="ssr:stedsnr" v="426798" />
	</node>
	<node id="-409177" lat="58.9066472223" lon="6.10040277363">
		<tag k="alt_name" v="Bergevig;Bergevika" />
		<tag k="name" v="Bergevik" />
		<tag k="natural" v="bay" />
		<tag k="ssr:stedsnr" v="738596" />
	</node>
	<node id="-408661" lat="58.9456444414" lon="6.12729722173">
		<tag k="name" v="Helleren" />
		<tag k="place" v="islet" />
		<tag k="ssr:stedsnr" v="426718" />
	</node>
	<node id="-408659" lat="58.8552388855" lon="6.16096111071">
		<tag k="name" v="Hamravika" />
		<tag k="natural" v="bay" />
		<tag k="ssr:stedsnr" v="426580" />
	</node>
	<node id="-408163" lat="58.9685249962" lon="6.18838332603">
		<tag k="alt_name" v="Dyne" />
		<tag k="name" v="Dyna" />
		<tag k="natural" v="cape" />
		<tag k="ssr:stedsnr" v="1795" />
	</node>
	<node id="-409161" lat="59.0269792463" lon="6.4087091586">
		<tag k="name" v="Kåsaklubben" />
		<tag k="natural" v="cape" />
		<tag k="ssr:stedsnr" v="730031" />
	</node>
	<node id="-409159" lat="58.9599611099" lon="5.99996667001">
		<tag k="name" v="Skaden" />
		<tag k="natural" v="cape" />
		<tag k="ssr:stedsnr" v="729818" />
	</node>
	<node id="-409151" lat="58.9323861081" lon="6.10797500346">
		<tag k="alt_name" v="Stora Bergsholmen" />
		<tag k="name" v="Bergsholmen" />
		<tag k="place" v="islet" />
		<tag k="ssr:stedsnr" v="729744" />
	</node>
	<node id="-408123" lat="58.9986305565" lon="6.22332499779">
		<tag k="name" v="Geitatørne" />
		<tag k="natural" v="beach" />
		<tag k="place" v="locality" />
		<tag k="ssr:stedsnr" v="614" />
	</node>
	<node id="-408628" lat="59.0173233984" lon="6.43924655454">
		<tag k="name" v="Indra Neset" />
		<tag k="natural" v="cape" />
		<tag k="ssr:stedsnr" v="424183" />
	</node>
	<node id="-408102" lat="58.9350499981" lon="6.11323055279">
		<tag k="name" v="Kyrkjeneset" />
		<tag k="natural" v="cape" />
		<tag k="ssr:stedsnr" v="891656" />
	</node>
	<node id="-407985" lat="58.8489972191" lon="6.1863777796">
		<tag k="name" v="Urnes" />
		<tag k="natural" v="cape" />
		<tag k="ssr:stedsnr" v="360743" />
	</node>
	<node id="-408093" lat="58.9504277819" lon="6.14735277094">
		<tag k="name" v="Indra Dørvika" />
		<tag k="natural" v="bay" />
		<tag k="ssr:stedsnr" v="478972" />
	</node>
	<node id="-408092" lat="58.9653833335" lon="6.15399721429">
		<tag k="name" v="Gloppeneset" />
		<tag k="natural" v="cape" />
		<tag k="ssr:stedsnr" v="479373" />
	</node>
	<node id="-408600" lat="58.9008250037" lon="6.08647778298">
		<tag k="name" v="Øyren" />
		<tag k="natural" v="cape" />
		<tag k="ssr:stedsnr" v="419591" />
	</node>
	<node id="-408594" lat="59.0243478446" lon="6.39037255367">
		<tag k="name" v="Kallasteinneset" />
		<tag k="natural" v="cape" />
		<tag k="ssr:stedsnr" v="479922" />
	</node>
	<node id="-408081" lat="59.0270870094" lon="6.40921211792">
		<tag k="name" v="Kåsastøa" />
		<tag k="natural" v="bay" />
		<tag k="ssr:stedsnr" v="395760" />
	</node>
	<node id="-408080" lat="58.9487666646" lon="6.01059166915">
		<tag k="name" v="Trellskår" />
		<tag k="natural" v="cape" />
		<tag k="ssr:stedsnr" v="390240" />
	</node>
	<node id="-408077" lat="58.9018833292" lon="6.08008333845">
		<tag k="name" v="Forsandsundet" />
		<tag k="natural" v="strait" />
		<tag k="ssr:stedsnr" v="374562" />
	</node>
	<node id="-408074" lat="59.0376638888" lon="6.57635000723">
		<tag k="name" v="Molen" />
		<tag k="natural" v="shoal" />
		<tag k="place" v="locality" />
		<tag k="ssr:stedsnr" v="366210" />
	</node>
	<node id="-408072" lat="59.0258555519" lon="6.37955555437">
		<tag k="name" v="Løypeklubben" />
		<tag k="natural" v="cape" />
		<tag k="ssr:stedsnr" v="366200" />
	</node>
	<node id="-408583" lat="58.975125" lon="6.20808611595">
		<tag k="name" v="Vedaneset" />
		<tag k="natural" v="cape" />
		<tag k="ssr:stedsnr" v="244818" />
	</node>
	<node id="-408145" lat="59.0119691605" lon="6.40580212573">
		<tag k="name" v="Urneset" />
		<tag k="natural" v="cape" />
		<tag k="ssr:stedsnr" v="1279" />
	</node>
	<node id="-408066" lat="59.0300388849" lon="6.43222499666">
		<tag k="name" v="Hollklubben" />
		<tag k="natural" v="cape" />
		<tag k="ssr:stedsnr" v="366038" />
	</node>
	<node id="-409089" lat="58.9309638876" lon="6.11854167495">
		<tag k="name" v="Skansen" />
		<tag k="natural" v="cape" />
		<tag k="ssr:stedsnr" v="709626" />
	</node>
</osm>
