<?xml version="1.0" encoding="UTF-8"?>
<osm version="0.6" generator="osmapis">
	<node lat="59.85387272397112" lon="6.3395627378098895" id="-66226">
		<tag k="alt_name" v="Mosnes" />
		<tag k="name" v="Mosnes lykt" />
		<tag k="ssr:date" v="2019-12-27" />
		<tag k="ssr:gruppe" v="navigasjon" />
		<tag k="ssr:hovedgruppe" v="infrastruktur" />
		<tag k="ssr:stedsnr" v="44636" />
		<tag k="ssr:type" v="fyrlykt" />
	</node>
	<node lat="59.83100718197244" lon="6.250454034927926" id="-66385">
		<tag k="alt_name" v="Skålnes" />
		<tag k="name" v="Skålnes lykt" />
		<tag k="ssr:date" v="2020-09-08" />
		<tag k="ssr:gruppe" v="navigasjon" />
		<tag k="ssr:hovedgruppe" v="infrastruktur" />
		<tag k="ssr:stedsnr" v="186050" />
		<tag k="ssr:type" v="fyrlykt" />
	</node>
	<node lat="59.68864444387537" lon="5.795402773729441" id="-66397">
		<tag k="name" v="Notaholo" />
		<tag k="ssr:date" v="2019-12-27" />
		<tag k="ssr:gruppe" v="sjøbunn" />
		<tag k="ssr:hovedgruppe" v="sjø" />
		<tag k="ssr:stedsnr" v="219586" />
		<tag k="ssr:type" v="søkkISjø" />
	</node>
	<node lat="59.63050277750045" lon="5.958086118840962" id="-66762">
		<tag k="name" v="Sunnhordland" />
		<tag k="ssr:date" v="2019-12-27" />
		<tag k="ssr:gruppe" v="terrengområder" />
		<tag k="ssr:hovedgruppe" v="terreng" />
		<tag k="ssr:stedsnr" v="692498" />
		<tag k="ssr:type" v="landskapsområde" />
	</node>
	<node lat="59.74475227296879" lon="5.926643476233663" id="-66898">
		<tag k="alt_name" v="Skånevik" />
		<tag k="name" v="Skånevik lykt" />
		<tag k="ssr:date" v="2020-09-08" />
		<tag k="ssr:gruppe" v="navigasjon" />
		<tag k="ssr:hovedgruppe" v="infrastruktur" />
		<tag k="ssr:stedsnr" v="670624" />
		<tag k="ssr:type" v="fyrlykt" />
	</node>
	<node lat="59.66472375267084" lon="5.934398166065306" id="-66978">
		<tag k="alt_name" v="Etne" />
		<tag k="name" v="Etne kommune" />
		<tag k="ssr:date" v="2019-12-27" />
		<tag k="ssr:gruppe" v="administrativeIndelinger" />
		<tag k="ssr:hovedgruppe" v="offentligAdministrasjon" />
		<tag k="ssr:stedsnr" v="752007" />
		<tag k="ssr:type" v="kommune" />
	</node>
	<node lat="59.74460833457606" lon="6.043530559933292" id="-67010">
		<tag k="alt_name" v="Susodden" />
		<tag k="name" v="Susodden lykt" />
		<tag k="ssr:date" v="2019-12-27" />
		<tag k="ssr:gruppe" v="navigasjon" />
		<tag k="ssr:hovedgruppe" v="infrastruktur" />
		<tag k="ssr:stedsnr" v="782311" />
		<tag k="ssr:type" v="fyrlykt" />
	</node>
	<node lat="59.671215787082716" lon="5.9891246916629335" id="-67128">
		<tag k="name" v="Øvre Austrheim" />
		<tag k="ssr:date" v="2019-12-27" />
		<tag k="ssr:gruppe" v="veg" />
		<tag k="ssr:hovedgruppe" v="infrastruktur" />
		<tag k="ssr:stedsnr" v="974301" />
		<tag k="ssr:type" v="adressenavn" />
	</node>
	<node lat="59.662790854505396" lon="5.978126325518828" id="-67129">
		<tag k="name" v="Nedre Austrheim" />
		<tag k="ssr:date" v="2019-12-27" />
		<tag k="ssr:gruppe" v="veg" />
		<tag k="ssr:hovedgruppe" v="infrastruktur" />
		<tag k="ssr:stedsnr" v="974302" />
		<tag k="ssr:type" v="adressenavn" />
	</node>
	<node lat="59.653510162950084" lon="6.01077344239101" id="-67131">
		<tag k="name" v="Bergsvegen" />
		<tag k="ssr:date" v="2019-12-27" />
		<tag k="ssr:gruppe" v="veg" />
		<tag k="ssr:hovedgruppe" v="infrastruktur" />
		<tag k="ssr:stedsnr" v="974304" />
		<tag k="ssr:type" v="adressenavn" />
	</node>
	<node lat="59.661397178349624" lon="6.092381988019923" id="-67132">
		<tag k="name" v="Hårlandsvegen" />
		<tag k="ssr:date" v="2019-12-27" />
		<tag k="ssr:gruppe" v="veg" />
		<tag k="ssr:hovedgruppe" v="infrastruktur" />
		<tag k="ssr:stedsnr" v="974305" />
		<tag k="ssr:type" v="adressenavn" />
	</node>
	<node lat="59.62505995779641" lon="5.893111576815682" id="-67206">
		<tag k="name" v="Haukelivegen" />
		<tag k="ssr:date" v="2019-12-27" />
		<tag k="ssr:gruppe" v="veg" />
		<tag k="ssr:hovedgruppe" v="infrastruktur" />
		<tag k="ssr:stedsnr" v="974063" />
		<tag k="ssr:type" v="adressenavn" />
	</node>
	<node lat="59.6472355977382" lon="6.0122514366276025" id="-67207">
		<tag k="name" v="Fossavegen" />
		<tag k="ssr:date" v="2019-12-27" />
		<tag k="ssr:gruppe" v="veg" />
		<tag k="ssr:hovedgruppe" v="infrastruktur" />
		<tag k="ssr:stedsnr" v="974068" />
		<tag k="ssr:type" v="adressenavn" />
	</node>
	<node lat="59.65149345127936" lon="6.0227434990597315" id="-67208">
		<tag k="name" v="Litledalsvegen" />
		<tag k="ssr:date" v="2019-12-27" />
		<tag k="ssr:gruppe" v="veg" />
		<tag k="ssr:hovedgruppe" v="infrastruktur" />
		<tag k="ssr:stedsnr" v="974069" />
		<tag k="ssr:type" v="adressenavn" />
	</node>
	<node lat="59.65595662029193" lon="5.9999371491911235" id="-67209">
		<tag k="name" v="Grindheimsvegen" />
		<tag k="ssr:date" v="2019-12-27" />
		<tag k="ssr:gruppe" v="veg" />
		<tag k="ssr:hovedgruppe" v="infrastruktur" />
		<tag k="ssr:stedsnr" v="974070" />
		<tag k="ssr:type" v="adressenavn" />
	</node>
	<node lat="59.65598467317685" lon="5.991765219510101" id="-67210">
		<tag k="name" v="Ryggjavegen" />
		<tag k="ssr:date" v="2019-12-27" />
		<tag k="ssr:gruppe" v="veg" />
		<tag k="ssr:hovedgruppe" v="infrastruktur" />
		<tag k="ssr:stedsnr" v="974071" />
		<tag k="ssr:type" v="adressenavn" />
	</node>
	<node lat="59.715721360733234" lon="6.100288728987098" id="-67211">
		<tag k="name" v="Skånevikvegen" />
		<tag k="ssr:date" v="2019-12-27" />
		<tag k="ssr:gruppe" v="veg" />
		<tag k="ssr:hovedgruppe" v="infrastruktur" />
		<tag k="ssr:stedsnr" v="974072" />
		<tag k="ssr:type" v="adressenavn" />
	</node>
	<node lat="59.726193063522125" lon="6.1203684365601285" id="-67212">
		<tag k="name" v="Åkrafjordvegen" />
		<tag k="ssr:date" v="2019-12-27" />
		<tag k="ssr:gruppe" v="veg" />
		<tag k="ssr:hovedgruppe" v="infrastruktur" />
		<tag k="ssr:stedsnr" v="974073" />
		<tag k="ssr:type" v="adressenavn" />
	</node>
	<node lat="59.64614719590176" lon="5.85092139445215" id="-67213">
		<tag k="name" v="Vestevegen" />
		<tag k="ssr:date" v="2019-12-27" />
		<tag k="ssr:gruppe" v="veg" />
		<tag k="ssr:hovedgruppe" v="infrastruktur" />
		<tag k="ssr:stedsnr" v="974074" />
		<tag k="ssr:type" v="adressenavn" />
	</node>
	<node lat="59.63838906820815" lon="5.9048633489783535" id="-67214">
		<tag k="name" v="Eikanes" />
		<tag k="ssr:date" v="2019-12-27" />
		<tag k="ssr:gruppe" v="veg" />
		<tag k="ssr:hovedgruppe" v="infrastruktur" />
		<tag k="ssr:stedsnr" v="974075" />
		<tag k="ssr:type" v="adressenavn" />
	</node>
	<node lat="59.65001076539242" lon="5.904896184443627" id="-67215">
		<tag k="name" v="Osnesvegen" />
		<tag k="ssr:date" v="2019-12-27" />
		<tag k="ssr:gruppe" v="veg" />
		<tag k="ssr:hovedgruppe" v="infrastruktur" />
		<tag k="ssr:stedsnr" v="974076" />
		<tag k="ssr:type" v="adressenavn" />
	</node>
	<node lat="59.660196976768496" lon="5.942533607616206" id="-67220">
		<tag k="name" v="Gjerdsvegen" />
		<tag k="ssr:date" v="2019-12-27" />
		<tag k="ssr:gruppe" v="veg" />
		<tag k="ssr:hovedgruppe" v="infrastruktur" />
		<tag k="ssr:stedsnr" v="974081" />
		<tag k="ssr:type" v="adressenavn" />
	</node>
	<node lat="59.659807517149304" lon="5.949009511843995" id="-67221">
		<tag k="name" v="Einerhaugvegen" />
		<tag k="ssr:date" v="2019-12-27" />
		<tag k="ssr:gruppe" v="veg" />
		<tag k="ssr:hovedgruppe" v="infrastruktur" />
		<tag k="ssr:stedsnr" v="974082" />
		<tag k="ssr:type" v="adressenavn" />
	</node>
	<node lat="59.664889232166026" lon="5.941466691704172" id="-67223">
		<tag k="name" v="Gjerdsrabbane" />
		<tag k="ssr:date" v="2019-12-27" />
		<tag k="ssr:gruppe" v="veg" />
		<tag k="ssr:hovedgruppe" v="infrastruktur" />
		<tag k="ssr:stedsnr" v="974084" />
		<tag k="ssr:type" v="adressenavn" />
	</node>
	<node lat="59.73122095649807" lon="5.927407528542912" id="-67228">
		<tag k="name" v="Hokkelshaugvegen" />
		<tag k="ssr:date" v="2019-12-27" />
		<tag k="ssr:gruppe" v="veg" />
		<tag k="ssr:hovedgruppe" v="infrastruktur" />
		<tag k="ssr:stedsnr" v="974233" />
		<tag k="ssr:type" v="adressenavn" />
	</node>
	<node lat="59.730695044253565" lon="5.923646385124705" id="-67229">
		<tag k="name" v="Furehaugvegen" />
		<tag k="ssr:date" v="2019-12-27" />
		<tag k="ssr:gruppe" v="veg" />
		<tag k="ssr:hovedgruppe" v="infrastruktur" />
		<tag k="ssr:stedsnr" v="974234" />
		<tag k="ssr:type" v="adressenavn" />
	</node>
	<node lat="59.73359674397768" lon="5.923449023261029" id="-67233">
		<tag k="name" v="Skålnes" />
		<tag k="ssr:date" v="2019-12-27" />
		<tag k="ssr:gruppe" v="veg" />
		<tag k="ssr:hovedgruppe" v="infrastruktur" />
		<tag k="ssr:stedsnr" v="974238" />
		<tag k="ssr:type" v="adressenavn" />
	</node>
	<node lat="59.87469056874727" lon="6.418094901902339" id="-67239">
		<tag k="name" v="Rullestadstranda" />
		<tag k="ssr:date" v="2019-12-27" />
		<tag k="ssr:gruppe" v="veg" />
		<tag k="ssr:hovedgruppe" v="infrastruktur" />
		<tag k="ssr:stedsnr" v="974269" />
		<tag k="ssr:type" v="adressenavn" />
	</node>
	<node lat="59.660947846450654" lon="5.928273024847905" id="-67242">
		<tag k="name" v="Sæbø" />
		<tag k="ssr:date" v="2019-12-27" />
		<tag k="ssr:gruppe" v="veg" />
		<tag k="ssr:hovedgruppe" v="infrastruktur" />
		<tag k="ssr:stedsnr" v="974393" />
		<tag k="ssr:type" v="adressenavn" />
	</node>
	<node lat="59.64951934768545" lon="5.9164518639389385" id="-67245">
		<tag k="name" v="Eiriksvik" />
		<tag k="ssr:date" v="2019-12-27" />
		<tag k="ssr:gruppe" v="veg" />
		<tag k="ssr:hovedgruppe" v="infrastruktur" />
		<tag k="ssr:stedsnr" v="974396" />
		<tag k="ssr:type" v="adressenavn" />
	</node>
	<node lat="59.73768058664761" lon="6.114914339332412" id="-67246">
		<tag k="name" v="Øvre Sævareid" />
		<tag k="ssr:date" v="2019-12-27" />
		<tag k="ssr:gruppe" v="veg" />
		<tag k="ssr:hovedgruppe" v="infrastruktur" />
		<tag k="ssr:stedsnr" v="974397" />
		<tag k="ssr:type" v="adressenavn" />
	</node>
	<node lat="59.66250982642861" lon="5.929222520498927" id="-67247">
		<tag k="name" v="Sæbøvika" />
		<tag k="ssr:date" v="2019-12-27" />
		<tag k="ssr:gruppe" v="veg" />
		<tag k="ssr:hovedgruppe" v="infrastruktur" />
		<tag k="ssr:stedsnr" v="974398" />
		<tag k="ssr:type" v="adressenavn" />
	</node>
	<node lat="59.67924238694441" lon="5.791063560871134" id="-67249">
		<tag k="name" v="Tømbervikvegen" />
		<tag k="ssr:date" v="2019-12-27" />
		<tag k="ssr:gruppe" v="veg" />
		<tag k="ssr:hovedgruppe" v="infrastruktur" />
		<tag k="ssr:stedsnr" v="974400" />
		<tag k="ssr:type" v="adressenavn" />
	</node>
	<node lat="59.744890466709194" lon="5.953821222674902" id="-67250">
		<tag k="name" v="Indranesvegen" />
		<tag k="ssr:date" v="2019-12-27" />
		<tag k="ssr:gruppe" v="veg" />
		<tag k="ssr:hovedgruppe" v="infrastruktur" />
		<tag k="ssr:stedsnr" v="974401" />
		<tag k="ssr:type" v="adressenavn" />
	</node>
	<node lat="59.67915788736627" lon="5.791989431899044" id="-67252">
		<tag k="name" v="Skotavikvegen" />
		<tag k="ssr:date" v="2019-12-27" />
		<tag k="ssr:gruppe" v="veg" />
		<tag k="ssr:hovedgruppe" v="infrastruktur" />
		<tag k="ssr:stedsnr" v="974111" />
		<tag k="ssr:type" v="adressenavn" />
	</node>
	<node lat="59.68388436143671" lon="5.801447402607513" id="-67253">
		<tag k="name" v="Sandvikvegen" />
		<tag k="ssr:date" v="2019-12-27" />
		<tag k="ssr:gruppe" v="veg" />
		<tag k="ssr:hovedgruppe" v="infrastruktur" />
		<tag k="ssr:stedsnr" v="974112" />
		<tag k="ssr:type" v="adressenavn" />
	</node>
	<node lat="59.88574678878916" lon="6.46882504665496" id="-67254">
		<tag k="name" v="Skrumssvingen" />
		<tag k="ssr:date" v="2019-12-27" />
		<tag k="ssr:gruppe" v="veg" />
		<tag k="ssr:hovedgruppe" v="infrastruktur" />
		<tag k="ssr:stedsnr" v="974270" />
		<tag k="ssr:type" v="adressenavn" />
	</node>
	<node lat="59.896364657347945" lon="6.479153008512948" id="-67255">
		<tag k="name" v="Langebu" />
		<tag k="ssr:date" v="2019-12-27" />
		<tag k="ssr:gruppe" v="veg" />
		<tag k="ssr:hovedgruppe" v="infrastruktur" />
		<tag k="ssr:stedsnr" v="974271" />
		<tag k="ssr:type" v="adressenavn" />
	</node>
	<node lat="59.898389620616754" lon="6.483318307284183" id="-67256">
		<tag k="name" v="Øykjedalen" />
		<tag k="ssr:date" v="2019-12-27" />
		<tag k="ssr:gruppe" v="veg" />
		<tag k="ssr:hovedgruppe" v="infrastruktur" />
		<tag k="ssr:stedsnr" v="974272" />
		<tag k="ssr:type" v="adressenavn" />
	</node>
	<node lat="59.90383747013456" lon="6.490782839618784" id="-67257">
		<tag k="name" v="Utløholmen" />
		<tag k="ssr:date" v="2019-12-27" />
		<tag k="ssr:gruppe" v="veg" />
		<tag k="ssr:hovedgruppe" v="infrastruktur" />
		<tag k="ssr:stedsnr" v="974273" />
		<tag k="ssr:type" v="adressenavn" />
	</node>
	<node lat="59.905151850324835" lon="6.49587642739682" id="-67258">
		<tag k="name" v="Bergstø" />
		<tag k="ssr:date" v="2019-12-27" />
		<tag k="ssr:gruppe" v="veg" />
		<tag k="ssr:hovedgruppe" v="infrastruktur" />
		<tag k="ssr:stedsnr" v="974274" />
		<tag k="ssr:type" v="adressenavn" />
	</node>
	<node lat="59.83613058656823" lon="6.232557783360973" id="-67259">
		<tag k="name" v="Djuve" />
		<tag k="ssr:date" v="2019-12-27" />
		<tag k="ssr:gruppe" v="veg" />
		<tag k="ssr:hovedgruppe" v="infrastruktur" />
		<tag k="ssr:stedsnr" v="974275" />
		<tag k="ssr:type" v="adressenavn" />
	</node>
	<node lat="59.638552345039834" lon="5.909162756913796" id="-67262">
		<tag k="name" v="Sørstrandsvegen" />
		<tag k="ssr:date" v="2019-12-27" />
		<tag k="ssr:gruppe" v="veg" />
		<tag k="ssr:hovedgruppe" v="infrastruktur" />
		<tag k="ssr:stedsnr" v="974278" />
		<tag k="ssr:type" v="adressenavn" />
	</node>
	<node lat="59.722954007259595" lon="6.127723473967674" id="-67263">
		<tag k="name" v="Frettevegen" />
		<tag k="ssr:date" v="2019-12-27" />
		<tag k="ssr:gruppe" v="veg" />
		<tag k="ssr:hovedgruppe" v="infrastruktur" />
		<tag k="ssr:stedsnr" v="974279" />
		<tag k="ssr:type" v="adressenavn" />
	</node>
	<node lat="59.875484855445116" lon="6.422535094961782" id="-67264">
		<tag k="name" v="Rullestadvegen" />
		<tag k="ssr:date" v="2019-12-27" />
		<tag k="ssr:gruppe" v="veg" />
		<tag k="ssr:hovedgruppe" v="infrastruktur" />
		<tag k="ssr:stedsnr" v="974280" />
		<tag k="ssr:type" v="adressenavn" />
	</node>
	<node lat="59.64108713292033" lon="5.87332702387105" id="-67265">
		<tag k="name" v="Årvik" />
		<tag k="ssr:date" v="2019-12-27" />
		<tag k="ssr:gruppe" v="veg" />
		<tag k="ssr:hovedgruppe" v="infrastruktur" />
		<tag k="ssr:stedsnr" v="974281" />
		<tag k="ssr:type" v="adressenavn" />
	</node>
	<node lat="59.63615335717032" lon="5.878359780931212" id="-67266">
		<tag k="name" v="Ve" />
		<tag k="ssr:date" v="2019-12-27" />
		<tag k="ssr:gruppe" v="veg" />
		<tag k="ssr:hovedgruppe" v="infrastruktur" />
		<tag k="ssr:stedsnr" v="974282" />
		<tag k="ssr:type" v="adressenavn" />
	</node>
	<node lat="59.63765167271893" lon="5.888579446037311" id="-67267">
		<tag k="name" v="Veavegen" />
		<tag k="ssr:date" v="2019-12-27" />
		<tag k="ssr:gruppe" v="veg" />
		<tag k="ssr:hovedgruppe" v="infrastruktur" />
		<tag k="ssr:stedsnr" v="974283" />
		<tag k="ssr:type" v="adressenavn" />
	</node>
	<node lat="59.63961757518962" lon="5.901240966180394" id="-67268">
		<tag k="name" v="Meland" />
		<tag k="ssr:date" v="2019-12-27" />
		<tag k="ssr:gruppe" v="veg" />
		<tag k="ssr:hovedgruppe" v="infrastruktur" />
		<tag k="ssr:stedsnr" v="974284" />
		<tag k="ssr:type" v="adressenavn" />
	</node>
	<node lat="59.63702892190858" lon="5.8973456005252505" id="-67269">
		<tag k="name" v="Melandsstølen" />
		<tag k="ssr:date" v="2019-12-27" />
		<tag k="ssr:gruppe" v="veg" />
		<tag k="ssr:hovedgruppe" v="infrastruktur" />
		<tag k="ssr:stedsnr" v="974285" />
		<tag k="ssr:type" v="adressenavn" />
	</node>
	<node lat="59.668180858609354" lon="5.980584767624137" id="-67270">
		<tag k="name" v="Stødlevegen" />
		<tag k="ssr:date" v="2019-12-27" />
		<tag k="ssr:gruppe" v="veg" />
		<tag k="ssr:hovedgruppe" v="infrastruktur" />
		<tag k="ssr:stedsnr" v="974286" />
		<tag k="ssr:type" v="adressenavn" />
	</node>
	<node lat="59.636824067230215" lon="5.893169261248282" id="-67271">
		<tag k="name" v="Åsavegen" />
		<tag k="ssr:date" v="2019-12-27" />
		<tag k="ssr:gruppe" v="veg" />
		<tag k="ssr:hovedgruppe" v="infrastruktur" />
		<tag k="ssr:stedsnr" v="974287" />
		<tag k="ssr:type" v="adressenavn" />
	</node>
	<node lat="59.648923033455866" lon="5.9175524933597385" id="-67272">
		<tag k="name" v="Vågen" />
		<tag k="ssr:date" v="2019-12-27" />
		<tag k="ssr:gruppe" v="veg" />
		<tag k="ssr:hovedgruppe" v="infrastruktur" />
		<tag k="ssr:stedsnr" v="974288" />
		<tag k="ssr:type" v="adressenavn" />
	</node>
	<node lat="59.659026685275286" lon="5.927436235258291" id="-67273">
		<tag k="name" v="Sæbøhaugen" />
		<tag k="ssr:date" v="2019-12-27" />
		<tag k="ssr:gruppe" v="veg" />
		<tag k="ssr:hovedgruppe" v="infrastruktur" />
		<tag k="ssr:stedsnr" v="974289" />
		<tag k="ssr:type" v="adressenavn" />
	</node>
	<node lat="59.661366323036276" lon="5.934595743743371" id="-67274">
		<tag k="name" v="Haugen" />
		<tag k="ssr:date" v="2019-12-27" />
		<tag k="ssr:gruppe" v="veg" />
		<tag k="ssr:hovedgruppe" v="infrastruktur" />
		<tag k="ssr:stedsnr" v="974290" />
		<tag k="ssr:type" v="adressenavn" />
	</node>
	<node lat="59.66536819929214" lon="5.937176665995691" id="-67275">
		<tag k="name" v="Tongane" />
		<tag k="ssr:date" v="2019-12-27" />
		<tag k="ssr:gruppe" v="veg" />
		<tag k="ssr:hovedgruppe" v="infrastruktur" />
		<tag k="ssr:stedsnr" v="974291" />
		<tag k="ssr:type" v="adressenavn" />
	</node>
	<node lat="59.67191480718683" lon="5.946384301657659" id="-67280">
		<tag k="name" v="Sillavegen" />
		<tag k="ssr:date" v="2019-12-27" />
		<tag k="ssr:gruppe" v="veg" />
		<tag k="ssr:hovedgruppe" v="infrastruktur" />
		<tag k="ssr:stedsnr" v="974296" />
		<tag k="ssr:type" v="adressenavn" />
	</node>
	<node lat="59.673206834726486" lon="5.9510396772276275" id="-67281">
		<tag k="name" v="Sillaåkeren" />
		<tag k="ssr:date" v="2019-12-27" />
		<tag k="ssr:gruppe" v="veg" />
		<tag k="ssr:hovedgruppe" v="infrastruktur" />
		<tag k="ssr:stedsnr" v="974297" />
		<tag k="ssr:type" v="adressenavn" />
	</node>
	<node lat="59.68572416934066" lon="5.790180807371527" id="-67284">
		<tag k="name" v="Kråkehaugen" />
		<tag k="ssr:date" v="2019-12-27" />
		<tag k="ssr:gruppe" v="veg" />
		<tag k="ssr:hovedgruppe" v="infrastruktur" />
		<tag k="ssr:stedsnr" v="974390" />
		<tag k="ssr:type" v="adressenavn" />
	</node>
	<node lat="59.728609882825836" lon="5.879562900842027" id="-67286">
		<tag k="name" v="Skogavegen" />
		<tag k="ssr:date" v="2019-12-27" />
		<tag k="ssr:gruppe" v="veg" />
		<tag k="ssr:hovedgruppe" v="infrastruktur" />
		<tag k="ssr:stedsnr" v="979206" />
		<tag k="ssr:type" v="adressenavn" />
	</node>
	<node lat="59.72590681861933" lon="5.8477534537834135" id="-68141">
		<tag k="alt_name" v="Taraldsøya lykt;Taraldsøy;Taraldsøy lykt" />
		<tag k="name" v="Taraldsøya" />
		<tag k="ssr:date" v="2019-12-27" />
		<tag k="ssr:gruppe" v="navigasjon" />
		<tag k="ssr:hovedgruppe" v="infrastruktur" />
		<tag k="ssr:stedsnr" v="853643" />
		<tag k="ssr:type" v="fyrlykt" />
	</node>
	<node lat="59.68570338293655" lon="5.795241646478761" id="-68241">
		<tag k="name" v="Notanesvegen" />
		<tag k="ssr:date" v="2019-12-27" />
		<tag k="ssr:gruppe" v="veg" />
		<tag k="ssr:hovedgruppe" v="infrastruktur" />
		<tag k="ssr:stedsnr" v="974115" />
		<tag k="ssr:type" v="adressenavn" />
	</node>
	<node lat="59.699640550572475" lon="5.82372910506838" id="-68243">
		<tag k="name" v="Gardvikvegen" />
		<tag k="ssr:date" v="2019-12-27" />
		<tag k="ssr:gruppe" v="veg" />
		<tag k="ssr:hovedgruppe" v="infrastruktur" />
		<tag k="ssr:stedsnr" v="974117" />
		<tag k="ssr:type" v="adressenavn" />
	</node>
	<node lat="59.70285012380791" lon="5.833292751439317" id="-68244">
		<tag k="name" v="Årvikkaien" />
		<tag k="ssr:date" v="2019-12-27" />
		<tag k="ssr:gruppe" v="veg" />
		<tag k="ssr:hovedgruppe" v="infrastruktur" />
		<tag k="ssr:stedsnr" v="974118" />
		<tag k="ssr:type" v="adressenavn" />
	</node>
	<node lat="59.70618399671104" lon="5.837997227250167" id="-68245">
		<tag k="name" v="Øredalsvegen" />
		<tag k="ssr:date" v="2019-12-27" />
		<tag k="ssr:gruppe" v="veg" />
		<tag k="ssr:hovedgruppe" v="infrastruktur" />
		<tag k="ssr:stedsnr" v="974119" />
		<tag k="ssr:type" v="adressenavn" />
	</node>
	<node lat="59.728734211422406" lon="5.878854099579776" id="-68247">
		<tag k="name" v="Skoglundvegen" />
		<tag k="ssr:date" v="2019-12-27" />
		<tag k="ssr:gruppe" v="veg" />
		<tag k="ssr:hovedgruppe" v="infrastruktur" />
		<tag k="ssr:stedsnr" v="974122" />
		<tag k="ssr:type" v="adressenavn" />
	</node>
	<node lat="59.728511854729035" lon="5.880711861961329" id="-68248">
		<tag k="name" v="Skogavikvegen" />
		<tag k="ssr:date" v="2019-12-27" />
		<tag k="ssr:gruppe" v="veg" />
		<tag k="ssr:hovedgruppe" v="infrastruktur" />
		<tag k="ssr:stedsnr" v="974123" />
		<tag k="ssr:type" v="adressenavn" />
	</node>
	<node lat="59.73095402699479" lon="5.907635778064098" id="-68249">
		<tag k="name" v="Møllesvikvegen" />
		<tag k="ssr:date" v="2019-12-27" />
		<tag k="ssr:gruppe" v="veg" />
		<tag k="ssr:hovedgruppe" v="infrastruktur" />
		<tag k="ssr:stedsnr" v="974124" />
		<tag k="ssr:type" v="adressenavn" />
	</node>
	<node lat="59.73295797424827" lon="5.922193278183255" id="-68251">
		<tag k="name" v="Leknestangen" />
		<tag k="ssr:date" v="2019-12-27" />
		<tag k="ssr:gruppe" v="veg" />
		<tag k="ssr:hovedgruppe" v="infrastruktur" />
		<tag k="ssr:stedsnr" v="974126" />
		<tag k="ssr:type" v="adressenavn" />
	</node>
	<node lat="59.728122383602546" lon="5.947817210200303" id="-68254">
		<tag k="name" v="Åsheimsvegen" />
		<tag k="ssr:date" v="2019-12-27" />
		<tag k="ssr:gruppe" v="veg" />
		<tag k="ssr:hovedgruppe" v="infrastruktur" />
		<tag k="ssr:stedsnr" v="974129" />
		<tag k="ssr:type" v="adressenavn" />
	</node>
	<node lat="59.738385397422114" lon="5.944500440126375" id="-68258">
		<tag k="name" v="Vedladalsvegen" />
		<tag k="ssr:date" v="2019-12-27" />
		<tag k="ssr:gruppe" v="veg" />
		<tag k="ssr:hovedgruppe" v="infrastruktur" />
		<tag k="ssr:stedsnr" v="974246" />
		<tag k="ssr:type" v="adressenavn" />
	</node>
	<node lat="59.74424358453728" lon="5.952193853931989" id="-68259">
		<tag k="name" v="Nesvågen" />
		<tag k="ssr:date" v="2019-12-27" />
		<tag k="ssr:gruppe" v="veg" />
		<tag k="ssr:hovedgruppe" v="infrastruktur" />
		<tag k="ssr:stedsnr" v="974247" />
		<tag k="ssr:type" v="adressenavn" />
	</node>
	<node lat="59.74174207809186" lon="5.940027303491211" id="-68260">
		<tag k="name" v="Geitadalsvegen" />
		<tag k="ssr:date" v="2019-12-27" />
		<tag k="ssr:gruppe" v="veg" />
		<tag k="ssr:hovedgruppe" v="infrastruktur" />
		<tag k="ssr:stedsnr" v="974252" />
		<tag k="ssr:type" v="adressenavn" />
	</node>
	<node lat="59.74418191760704" lon="5.952217988881097" id="-68262">
		<tag k="name" v="Vannesvegen" />
		<tag k="ssr:date" v="2019-12-27" />
		<tag k="ssr:gruppe" v="veg" />
		<tag k="ssr:hovedgruppe" v="infrastruktur" />
		<tag k="ssr:stedsnr" v="974254" />
		<tag k="ssr:type" v="adressenavn" />
	</node>
	<node lat="59.73233940255576" lon="6.039263788277058" id="-68263">
		<tag k="name" v="Tungesvikvegen" />
		<tag k="ssr:date" v="2019-12-27" />
		<tag k="ssr:gruppe" v="veg" />
		<tag k="ssr:hovedgruppe" v="infrastruktur" />
		<tag k="ssr:stedsnr" v="974255" />
		<tag k="ssr:type" v="adressenavn" />
	</node>
	<node lat="59.71489040498698" lon="6.087930471704951" id="-68265">
		<tag k="name" v="Hålandsvegen" />
		<tag k="ssr:date" v="2019-12-27" />
		<tag k="ssr:gruppe" v="veg" />
		<tag k="ssr:hovedgruppe" v="infrastruktur" />
		<tag k="ssr:stedsnr" v="974257" />
		<tag k="ssr:type" v="adressenavn" />
	</node>
	<node lat="59.72795319595308" lon="6.158402326144981" id="-68266">
		<tag k="name" v="Vinjavegen" />
		<tag k="ssr:date" v="2019-12-27" />
		<tag k="ssr:gruppe" v="veg" />
		<tag k="ssr:hovedgruppe" v="infrastruktur" />
		<tag k="ssr:stedsnr" v="974258" />
		<tag k="ssr:type" v="adressenavn" />
	</node>
	<node lat="59.74380419384941" lon="6.11377221426497" id="-68267">
		<tag k="name" v="Kuskjervegen" />
		<tag k="ssr:date" v="2019-12-27" />
		<tag k="ssr:gruppe" v="veg" />
		<tag k="ssr:hovedgruppe" v="infrastruktur" />
		<tag k="ssr:stedsnr" v="974259" />
		<tag k="ssr:type" v="adressenavn" />
	</node>
	<node lat="59.81836036995691" lon="6.2270400774129415" id="-68269">
		<tag k="name" v="Markhusvegen" />
		<tag k="ssr:date" v="2019-12-27" />
		<tag k="ssr:gruppe" v="veg" />
		<tag k="ssr:hovedgruppe" v="infrastruktur" />
		<tag k="ssr:stedsnr" v="974261" />
		<tag k="ssr:type" v="adressenavn" />
	</node>
	<node lat="59.821009450990324" lon="6.237573771721321" id="-68270">
		<tag k="name" v="Øvre Markhus" />
		<tag k="ssr:date" v="2019-12-27" />
		<tag k="ssr:gruppe" v="veg" />
		<tag k="ssr:hovedgruppe" v="infrastruktur" />
		<tag k="ssr:stedsnr" v="974262" />
		<tag k="ssr:type" v="adressenavn" />
	</node>
	<node lat="59.84245220563639" lon="6.271738465645977" id="-68271">
		<tag k="name" v="Eikemovegen" />
		<tag k="ssr:date" v="2019-12-27" />
		<tag k="ssr:gruppe" v="veg" />
		<tag k="ssr:hovedgruppe" v="infrastruktur" />
		<tag k="ssr:stedsnr" v="974263" />
		<tag k="ssr:type" v="adressenavn" />
	</node>
	<node lat="59.85828210984163" lon="6.275813580911133" id="-68272">
		<tag k="name" v="Vetrhusvegen" />
		<tag k="ssr:date" v="2019-12-27" />
		<tag k="ssr:gruppe" v="veg" />
		<tag k="ssr:hovedgruppe" v="infrastruktur" />
		<tag k="ssr:stedsnr" v="974264" />
		<tag k="ssr:type" v="adressenavn" />
	</node>
	<node lat="59.837821336512356" lon="6.312222039453704" id="-68273">
		<tag k="name" v="Øvre Bjørkestrandsvegen" />
		<tag k="ssr:date" v="2019-12-27" />
		<tag k="ssr:gruppe" v="veg" />
		<tag k="ssr:hovedgruppe" v="infrastruktur" />
		<tag k="ssr:stedsnr" v="974265" />
		<tag k="ssr:type" v="adressenavn" />
	</node>
	<node lat="59.838486319501094" lon="6.313600929283674" id="-68274">
		<tag k="name" v="Nedre Bjørkestrandsvegen" />
		<tag k="ssr:date" v="2019-12-27" />
		<tag k="ssr:gruppe" v="veg" />
		<tag k="ssr:hovedgruppe" v="infrastruktur" />
		<tag k="ssr:stedsnr" v="974266" />
		<tag k="ssr:type" v="adressenavn" />
	</node>
	<node lat="59.8741093425941" lon="6.400980990600987" id="-68275">
		<tag k="name" v="Fjæravegen" />
		<tag k="ssr:date" v="2019-12-27" />
		<tag k="ssr:gruppe" v="veg" />
		<tag k="ssr:hovedgruppe" v="infrastruktur" />
		<tag k="ssr:stedsnr" v="974267" />
		<tag k="ssr:type" v="adressenavn" />
	</node>
	<node lat="59.87554458446745" lon="6.406937201283371" id="-68276">
		<tag k="name" v="Flåto" />
		<tag k="ssr:date" v="2019-12-27" />
		<tag k="ssr:gruppe" v="veg" />
		<tag k="ssr:hovedgruppe" v="infrastruktur" />
		<tag k="ssr:stedsnr" v="974268" />
		<tag k="ssr:type" v="adressenavn" />
	</node>
	<node lat="59.63999744631713" lon="6.100649840083144" id="-68277">
		<tag k="name" v="Grindheimsstølen" />
		<tag k="ssr:date" v="2019-12-27" />
		<tag k="ssr:gruppe" v="veg" />
		<tag k="ssr:hovedgruppe" v="infrastruktur" />
		<tag k="ssr:stedsnr" v="974368" />
		<tag k="ssr:type" v="adressenavn" />
	</node>
	<node lat="59.67298884671007" lon="6.000442569525355" id="-68278">
		<tag k="name" v="Vadsvegen" />
		<tag k="ssr:date" v="2019-12-27" />
		<tag k="ssr:gruppe" v="veg" />
		<tag k="ssr:hovedgruppe" v="infrastruktur" />
		<tag k="ssr:stedsnr" v="974369" />
		<tag k="ssr:type" v="adressenavn" />
	</node>
	<node lat="59.68299567281876" lon="6.012261709612265" id="-68280">
		<tag k="name" v="Kvamsvegen" />
		<tag k="ssr:date" v="2019-12-27" />
		<tag k="ssr:gruppe" v="veg" />
		<tag k="ssr:hovedgruppe" v="infrastruktur" />
		<tag k="ssr:stedsnr" v="974371" />
		<tag k="ssr:type" v="adressenavn" />
	</node>
	<node lat="59.674525364251444" lon="5.912351439988192" id="-68281">
		<tag k="name" v="Fjøsnavegen" />
		<tag k="ssr:date" v="2019-12-27" />
		<tag k="ssr:gruppe" v="veg" />
		<tag k="ssr:hovedgruppe" v="infrastruktur" />
		<tag k="ssr:stedsnr" v="974372" />
		<tag k="ssr:type" v="adressenavn" />
	</node>
	<node lat="59.7266612250021" lon="5.865395894438497" id="-68283">
		<tag k="name" v="Vestre Mortveit" />
		<tag k="ssr:date" v="2019-12-27" />
		<tag k="ssr:gruppe" v="veg" />
		<tag k="ssr:hovedgruppe" v="infrastruktur" />
		<tag k="ssr:stedsnr" v="974374" />
		<tag k="ssr:type" v="adressenavn" />
	</node>
	<node lat="59.72749064383738" lon="5.866198032596505" id="-68284">
		<tag k="name" v="Austre Mortveit" />
		<tag k="ssr:date" v="2019-12-27" />
		<tag k="ssr:gruppe" v="veg" />
		<tag k="ssr:hovedgruppe" v="infrastruktur" />
		<tag k="ssr:stedsnr" v="974375" />
		<tag k="ssr:type" v="adressenavn" />
	</node>
	<node lat="59.728511854729035" lon="5.880711861961329" id="-68285">
		<tag k="name" v="Øvre Veavik" />
		<tag k="ssr:date" v="2019-12-27" />
		<tag k="ssr:gruppe" v="veg" />
		<tag k="ssr:hovedgruppe" v="infrastruktur" />
		<tag k="ssr:stedsnr" v="974376" />
		<tag k="ssr:type" v="adressenavn" />
	</node>
	<node lat="59.73125760482365" lon="5.8841529934582715" id="-68286">
		<tag k="name" v="Nedre Veavik" />
		<tag k="ssr:date" v="2019-12-27" />
		<tag k="ssr:gruppe" v="veg" />
		<tag k="ssr:hovedgruppe" v="infrastruktur" />
		<tag k="ssr:stedsnr" v="974377" />
		<tag k="ssr:type" v="adressenavn" />
	</node>
	<node lat="59.73018890234731" lon="5.936027782380488" id="-68287">
		<tag k="name" v="Milja allé" />
		<tag k="ssr:date" v="2019-12-27" />
		<tag k="ssr:gruppe" v="veg" />
		<tag k="ssr:hovedgruppe" v="infrastruktur" />
		<tag k="ssr:stedsnr" v="974378" />
		<tag k="ssr:type" v="adressenavn" />
	</node>
	<node lat="59.73624354424217" lon="6.123365696068498" id="-68290">
		<tag k="name" v="Kyrpingsvegen" />
		<tag k="ssr:date" v="2019-12-27" />
		<tag k="ssr:gruppe" v="veg" />
		<tag k="ssr:hovedgruppe" v="infrastruktur" />
		<tag k="ssr:stedsnr" v="974381" />
		<tag k="ssr:type" v="adressenavn" />
	</node>
	<node lat="59.74395332819885" lon="6.112085143425646" id="-68291">
		<tag k="name" v="Sævareidsvik" />
		<tag k="ssr:date" v="2019-12-27" />
		<tag k="ssr:gruppe" v="veg" />
		<tag k="ssr:hovedgruppe" v="infrastruktur" />
		<tag k="ssr:stedsnr" v="974382" />
		<tag k="ssr:type" v="adressenavn" />
	</node>
	<node lat="59.803942670389375" lon="6.214652455003263" id="-68292">
		<tag k="name" v="Øyravegen" />
		<tag k="ssr:date" v="2019-12-27" />
		<tag k="ssr:gruppe" v="veg" />
		<tag k="ssr:hovedgruppe" v="infrastruktur" />
		<tag k="ssr:stedsnr" v="974383" />
		<tag k="ssr:type" v="adressenavn" />
	</node>
	<node lat="59.80407630908836" lon="6.215553767274152" id="-68293">
		<tag k="name" v="Teigland" />
		<tag k="ssr:date" v="2019-12-27" />
		<tag k="ssr:gruppe" v="veg" />
		<tag k="ssr:hovedgruppe" v="infrastruktur" />
		<tag k="ssr:stedsnr" v="974384" />
		<tag k="ssr:type" v="adressenavn" />
	</node>
	<node lat="59.8198417141686" lon="6.23003942055259" id="-68294">
		<tag k="name" v="Markhushamn" />
		<tag k="ssr:date" v="2019-12-27" />
		<tag k="ssr:gruppe" v="veg" />
		<tag k="ssr:hovedgruppe" v="infrastruktur" />
		<tag k="ssr:stedsnr" v="974385" />
		<tag k="ssr:type" v="adressenavn" />
	</node>
	<node lat="59.71219218223642" lon="6.093840705350449" id="-68295">
		<tag k="name" v="Stordalsvegen" />
		<tag k="ssr:date" v="2019-12-27" />
		<tag k="ssr:gruppe" v="veg" />
		<tag k="ssr:hovedgruppe" v="infrastruktur" />
		<tag k="ssr:stedsnr" v="974386" />
		<tag k="ssr:type" v="adressenavn" />
	</node>
	<node lat="59.70622411517977" lon="6.078163303116243" id="-68296">
		<tag k="name" v="Nernesvegen" />
		<tag k="ssr:date" v="2019-12-27" />
		<tag k="ssr:gruppe" v="veg" />
		<tag k="ssr:hovedgruppe" v="infrastruktur" />
		<tag k="ssr:stedsnr" v="974387" />
		<tag k="ssr:type" v="adressenavn" />
	</node>
	<node lat="59.6704921258794" lon="5.952769316197868" id="-68300">
		<tag k="name" v="Kambsvegen" />
		<tag k="ssr:date" v="2019-12-27" />
		<tag k="ssr:gruppe" v="veg" />
		<tag k="ssr:hovedgruppe" v="infrastruktur" />
		<tag k="ssr:stedsnr" v="974096" />
		<tag k="ssr:type" v="adressenavn" />
	</node>
	<node lat="59.66481292157271" lon="5.967038045218545" id="-68301">
		<tag k="name" v="Sørheimsvegen" />
		<tag k="ssr:date" v="2019-12-27" />
		<tag k="ssr:gruppe" v="veg" />
		<tag k="ssr:hovedgruppe" v="infrastruktur" />
		<tag k="ssr:stedsnr" v="974097" />
		<tag k="ssr:type" v="adressenavn" />
	</node>
	<node lat="59.66176198058416" lon="5.9806137080976205" id="-68302">
		<tag k="name" v="Steinsvegen" />
		<tag k="ssr:date" v="2019-12-27" />
		<tag k="ssr:gruppe" v="veg" />
		<tag k="ssr:hovedgruppe" v="infrastruktur" />
		<tag k="ssr:stedsnr" v="974098" />
		<tag k="ssr:type" v="adressenavn" />
	</node>
	<node lat="59.66974043578807" lon="6.003351191798729" id="-68303">
		<tag k="name" v="Vassendvegen" />
		<tag k="ssr:date" v="2019-12-27" />
		<tag k="ssr:gruppe" v="veg" />
		<tag k="ssr:hovedgruppe" v="infrastruktur" />
		<tag k="ssr:stedsnr" v="974099" />
		<tag k="ssr:type" v="adressenavn" />
	</node>
	<node lat="59.66523544853081" lon="6.0646402475911545" id="-68304">
		<tag k="name" v="Litledalsgrenda" />
		<tag k="ssr:date" v="2019-12-27" />
		<tag k="ssr:gruppe" v="veg" />
		<tag k="ssr:hovedgruppe" v="infrastruktur" />
		<tag k="ssr:stedsnr" v="974100" />
		<tag k="ssr:type" v="adressenavn" />
	</node>
	<node lat="59.648954400684474" lon="6.097662525845474" id="-68305">
		<tag k="name" v="Kritlavegen" />
		<tag k="ssr:date" v="2019-12-27" />
		<tag k="ssr:gruppe" v="veg" />
		<tag k="ssr:hovedgruppe" v="infrastruktur" />
		<tag k="ssr:stedsnr" v="974101" />
		<tag k="ssr:type" v="adressenavn" />
	</node>
	<node lat="59.65595408290271" lon="5.960087124642552" id="-68307">
		<tag k="name" v="Grallsetevegen" />
		<tag k="ssr:date" v="2019-12-27" />
		<tag k="ssr:gruppe" v="veg" />
		<tag k="ssr:hovedgruppe" v="infrastruktur" />
		<tag k="ssr:stedsnr" v="974103" />
		<tag k="ssr:type" v="adressenavn" />
	</node>
	<node lat="59.64775124414044" lon="5.990832662439979" id="-68308">
		<tag k="name" v="Rusvegen" />
		<tag k="ssr:date" v="2019-12-27" />
		<tag k="ssr:gruppe" v="veg" />
		<tag k="ssr:hovedgruppe" v="infrastruktur" />
		<tag k="ssr:stedsnr" v="974104" />
		<tag k="ssr:type" v="adressenavn" />
	</node>
	<node lat="59.64842468767691" lon="6.033658901958794" id="-68309">
		<tag k="name" v="Kaldheimsvegen" />
		<tag k="ssr:date" v="2019-12-27" />
		<tag k="ssr:gruppe" v="veg" />
		<tag k="ssr:hovedgruppe" v="infrastruktur" />
		<tag k="ssr:stedsnr" v="974105" />
		<tag k="ssr:type" v="adressenavn" />
	</node>
	<node lat="59.71472909253484" lon="6.1038640194966245" id="-68310">
		<tag k="name" v="Øvernesvegen" />
		<tag k="ssr:date" v="2019-12-27" />
		<tag k="ssr:gruppe" v="veg" />
		<tag k="ssr:hovedgruppe" v="infrastruktur" />
		<tag k="ssr:stedsnr" v="974106" />
		<tag k="ssr:type" v="adressenavn" />
	</node>
	<node lat="59.652273330022275" lon="5.807397986491755" id="-68312">
		<tag k="name" v="Børkjenesvegen" />
		<tag k="ssr:date" v="2019-12-27" />
		<tag k="ssr:gruppe" v="veg" />
		<tag k="ssr:hovedgruppe" v="infrastruktur" />
		<tag k="ssr:stedsnr" v="974108" />
		<tag k="ssr:type" v="adressenavn" />
	</node>
	<node lat="59.66913460402423" lon="5.791474026354584" id="-68313">
		<tag k="name" v="Nervikvegen" />
		<tag k="ssr:date" v="2019-12-27" />
		<tag k="ssr:gruppe" v="veg" />
		<tag k="ssr:hovedgruppe" v="infrastruktur" />
		<tag k="ssr:stedsnr" v="974109" />
		<tag k="ssr:type" v="adressenavn" />
	</node>
	<node lat="59.717157505547135" lon="5.8497050651536515" id="-68314">
		<tag k="name" v="Taraldsøya" />
		<tag k="ssr:date" v="2019-12-27" />
		<tag k="ssr:gruppe" v="veg" />
		<tag k="ssr:hovedgruppe" v="infrastruktur" />
		<tag k="ssr:stedsnr" v="974652" />
		<tag k="ssr:type" v="adressenavn" />
	</node>
	<node lat="59.83657547093533" lon="6.243488366447624" id="-68315">
		<tag k="name" v="Teigen" />
		<tag k="ssr:date" v="2019-12-27" />
		<tag k="ssr:gruppe" v="veg" />
		<tag k="ssr:hovedgruppe" v="infrastruktur" />
		<tag k="ssr:stedsnr" v="974653" />
		<tag k="ssr:type" v="adressenavn" />
	</node>
	<node lat="59.82481503571463" lon="6.211965891884701" id="-68316">
		<tag k="name" v="Eintveit" />
		<tag k="ssr:date" v="2019-12-27" />
		<tag k="ssr:gruppe" v="veg" />
		<tag k="ssr:hovedgruppe" v="infrastruktur" />
		<tag k="ssr:stedsnr" v="974654" />
		<tag k="ssr:type" v="adressenavn" />
	</node>
	<node lat="59.8235760945081" lon="6.209892523104905" id="-68317">
		<tag k="name" v="Bjelland" />
		<tag k="ssr:date" v="2019-12-27" />
		<tag k="ssr:gruppe" v="veg" />
		<tag k="ssr:hovedgruppe" v="infrastruktur" />
		<tag k="ssr:stedsnr" v="974655" />
		<tag k="ssr:type" v="adressenavn" />
	</node>
	<node lat="59.81447105904509" lon="6.19242254737288" id="-68318">
		<tag k="name" v="Strond" />
		<tag k="ssr:date" v="2019-12-27" />
		<tag k="ssr:gruppe" v="veg" />
		<tag k="ssr:hovedgruppe" v="infrastruktur" />
		<tag k="ssr:stedsnr" v="974656" />
		<tag k="ssr:type" v="adressenavn" />
	</node>
	<node lat="59.81330242634806" lon="6.190291082429136" id="-68319">
		<tag k="name" v="Hammarsland" />
		<tag k="ssr:date" v="2019-12-27" />
		<tag k="ssr:gruppe" v="veg" />
		<tag k="ssr:hovedgruppe" v="infrastruktur" />
		<tag k="ssr:stedsnr" v="974657" />
		<tag k="ssr:type" v="adressenavn" />
	</node>
	<node lat="59.8098085331411" lon="6.173997135500639" id="-68320">
		<tag k="name" v="Kvanndal" />
		<tag k="ssr:date" v="2019-12-27" />
		<tag k="ssr:gruppe" v="veg" />
		<tag k="ssr:hovedgruppe" v="infrastruktur" />
		<tag k="ssr:stedsnr" v="974658" />
		<tag k="ssr:type" v="adressenavn" />
	</node>
	<node lat="59.8073862791099" lon="6.165819578544945" id="-68321">
		<tag k="name" v="Kallvika" />
		<tag k="ssr:date" v="2019-12-27" />
		<tag k="ssr:gruppe" v="veg" />
		<tag k="ssr:hovedgruppe" v="infrastruktur" />
		<tag k="ssr:stedsnr" v="974659" />
		<tag k="ssr:type" v="adressenavn" />
	</node>
	<node lat="59.854563089068655" lon="6.340443631288204" id="-68327">
		<tag k="name" v="Mosnes" />
		<tag k="ssr:date" v="2019-12-27" />
		<tag k="ssr:gruppe" v="veg" />
		<tag k="ssr:hovedgruppe" v="infrastruktur" />
		<tag k="ssr:stedsnr" v="981309" />
		<tag k="ssr:type" v="adressenavn" />
	</node>
	<node lat="59.652242503296115" lon="5.911140621936043" id="-68346">
		<tag k="name" v="Osnesheia" />
		<tag k="ssr:date" v="2019-12-27" />
		<tag k="ssr:gruppe" v="veg" />
		<tag k="ssr:hovedgruppe" v="infrastruktur" />
		<tag k="ssr:stedsnr" v="1073529" />
		<tag k="ssr:type" v="adressenavn" />
	</node>
</osm>
