<?xml version="1.0" encoding="UTF-8"?>
<osm generator="osmapis" version="0.6">
	<node id="-257406" lat="60.42769722" lon="10.9337416722">
		<tag k="loc_name" v="Turtemoen" />
		<tag k="name" v="Tortemoen" />
		<tag k="place" v="locality" />
		<tag k="ssr:stedsnr" v="952192" />
	</node>
	<node id="-256890" lat="60.3475138866" lon="11.0027916579">
		<tag k="name" v="Bomstua" />
		<tag k="place" v="locality" />
		<tag k="ssr:stedsnr" v="161838" />
	</node>
	<node id="-256759" lat="60.4895833308" lon="10.7236888865">
		<tag k="name" v="Erlingsvingen" />
		<tag k="place" v="locality" />
		<tag k="ssr:stedsnr" v="42232" />
	</node>
	<node id="-256243" lat="60.4532861077" lon="10.8351861184">
		<tag k="name" v="Hinkomhank" />
		<tag k="place" v="locality" />
		<tag k="ssr:stedsnr" v="465279" />
	</node>
	<node id="-256867" lat="60.4167250004" lon="11.0187305468">
		<tag k="amenity" v="community_centre" />
		<tag k="name" v="Silvifuturum" />
		<tag k="ssr:stedsnr" v="127653" />
	</node>
	<node id="-256526" lat="60.3819166635" lon="11.0285472217">
		<tag k="name" v="Jenslykkja" />
		<tag k="place" v="locality" />
		<tag k="ssr:stedsnr" v="726583" />
	</node>
	<node id="-256747" lat="60.4449833297" lon="10.8530222163">
		<tag k="name" v="Badstua" />
		<tag k="place" v="locality" />
		<tag k="ssr:stedsnr" v="40325" />
	</node>
	<node id="-256361" lat="60.4504472258" lon="10.9325305581">
		<tag k="name" v="Ulvegrava" />
		<tag k="place" v="locality" />
		<tag k="ssr:stedsnr" v="421632" />
	</node>
	<node id="-257128" lat="60.3787222181" lon="11.1002999944">
		<tag k="name" v="Milebotn" />
		<tag k="place" v="locality" />
		<tag k="ssr:stedsnr" v="527928" />
	</node>
	<node id="-256188" lat="60.4502972219" lon="10.8414888837">
		<tag k="name" v="Moen" />
		<tag k="place" v="locality" />
		<tag k="ssr:stedsnr" v="283251" />
	</node>
	<node id="-257381" lat="60.4547277746" lon="10.8139027768">
		<tag k="name" v="Skimten" />
		<tag k="place" v="locality" />
		<tag k="ssr:stedsnr" v="848435" />
	</node>
	<node id="-256228" lat="60.4225388883" lon="11.1000361127">
		<tag k="name" v="Vatninga" />
		<tag k="place" v="locality" />
		<tag k="ssr:stedsnr" v="298419" />
	</node>
	<node id="-256227" lat="60.4249666664" lon="11.0946694368">
		<tag k="name" v="Smiusvingen" />
		<tag k="place" v="locality" />
		<tag k="ssr:stedsnr" v="298415" />
	</node>
	<node id="-256481" lat="60.3843000009" lon="10.9944555467">
		<tag k="name" v="Sandbakken" />
		<tag k="place" v="locality" />
		<tag k="ssr:stedsnr" v="709730" />
	</node>
	<node id="-256734" lat="60.4486916705" lon="10.8270361094">
		<tag k="alt_name" v="Skrukkeli" />
		<tag k="amenity" v="place_of_worship" />
		<tag k="denomination" v="lutheran" />
		<tag k="name" v="Skrukkeli kapell" />
		<tag k="religion" v="christian" />
		<tag k="ssr:stedsnr" v="6681" />
	</node>
	<node id="-257245" lat="60.3825222216" lon="10.9124638977">
		<tag k="name" v="Flisbanen" />
		<tag k="place" v="locality" />
		<tag k="ssr:stedsnr" v="648717" />
	</node>
	<node id="-256471" lat="60.4179416637" lon="10.9857444469">
		<tag k="name" v="Kudalen" />
		<tag k="place" v="locality" />
		<tag k="ssr:stedsnr" v="709197" />
	</node>
	<node id="-256470" lat="60.4229305516" lon="10.9435222254">
		<tag k="name" v="Geitberget" />
		<tag k="place" v="locality" />
		<tag k="ssr:stedsnr" v="709168" />
	</node>
	<node id="-256341" lat="60.4507111123" lon="10.8370027756">
		<tag k="name" v="Benstelle" />
		<tag k="place" v="locality" />
		<tag k="ssr:stedsnr" v="404276" />
	</node>
	<node id="-257075" lat="60.4301361104" lon="11.0563722201">
		<tag k="name" v="Guripus" />
		<tag k="place" v="locality" />
		<tag k="ssr:stedsnr" v="423053" />
	</node>
	<node id="-256851" lat="60.4491388897" lon="10.9360527697">
		<tag k="name" v="Hyttetomta" />
		<tag k="place" v="locality" />
		<tag k="ssr:stedsnr" v="117646" />
	</node>
	<node id="-256099" lat="60.4560916639" lon="10.875511106">
		<tag k="name" v="Velo" />
		<tag k="place" v="locality" />
		<tag k="ssr:stedsnr" v="40302" />
	</node>
	<node id="-256207" lat="60.4827972204" lon="10.9796805628">
		<tag k="name" v="Storsvingen" />
		<tag k="place" v="locality" />
		<tag k="ssr:stedsnr" v="285057" />
	</node>
	<node id="-256333" lat="60.4095444421" lon="11.0537472228">
		<tag k="alt_name" v="Hurdal" />
		<tag k="amenity" v="place_of_worship" />
		<tag k="denomination" v="lutheran" />
		<tag k="name" v="Hurdal kirke" />
		<tag k="religion" v="christian" />
		<tag k="ssr:stedsnr" v="492566" />
	</node>
	<node id="-256823" lat="60.4617277804" lon="11.0970750009">
		<tag k="name" v="Digerkløvet" />
		<tag k="place" v="locality" />
		<tag k="ssr:stedsnr" v="102241" />
	</node>
	<node id="-256071" lat="60.4906888885" lon="10.7736055518">
		<tag k="name" v="Brurporten" />
		<tag k="place" v="locality" />
		<tag k="ssr:stedsnr" v="224065" />
	</node>
	<node id="-256070" lat="60.4934083358" lon="10.7616861082">
		<tag k="name" v="Flisbanen" />
		<tag k="place" v="locality" />
		<tag k="ssr:stedsnr" v="224063" />
	</node>
	<node id="-256065" lat="60.454894443" lon="10.8834972258">
		<tag k="name" v="Røet" />
		<tag k="place" v="locality" />
		<tag k="ssr:stedsnr" v="222285" />
	</node>
	<node id="-256064" lat="60.3802138927" lon="11.0679916592">
		<tag k="name" v="Saga" />
		<tag k="place" v="locality" />
		<tag k="ssr:stedsnr" v="222110" />
	</node>
	<node id="-257340" lat="60.4836361091" lon="11.0230666639">
		<tag k="name" v="Bjønnbakken" />
		<tag k="place" v="locality" />
		<tag k="ssr:stedsnr" v="831001" />
	</node>
	<node id="-257079" lat="60.4469694453" lon="10.8038888974">
		<tag k="name" v="Kalvake" />
		<tag k="place" v="locality" />
		<tag k="ssr:stedsnr" v="423470" />
	</node>
	<node id="-256478" lat="60.4360888911" lon="11.0617083266">
		<tag k="amenity" v="community_centre" />
		<tag k="name" v="Dalheim" />
		<tag k="ssr:stedsnr" v="709706" />
	</node>
	<node id="-256115" lat="60.4371861093" lon="10.8486694373">
		<tag k="name" v="Pramsvingen" />
		<tag k="place" v="locality" />
		<tag k="ssr:stedsnr" v="241400" />
	</node>
	<node id="-256605" lat="60.491691663" lon="10.7253499963">
		<tag k="name" v="Eikersvingen" />
		<tag k="place" v="locality" />
		<tag k="ssr:stedsnr" v="709259" />
	</node>
	<node id="-257449" lat="60.4709500008" lon="11.0090500089">
		<tag k="name" v="Flisbanen" />
		<tag k="place" v="locality" />
		<tag k="ssr:stedsnr" v="967836" />
	</node>
	<node id="-256676" lat="60.4449972186" lon="10.8699999925">
		<tag k="name" v="Mølla" />
		<tag k="place" v="locality" />
		<tag k="ssr:stedsnr" v="950313" />
	</node>
	<node id="-257054" lat="60.4538083294" lon="11.0459777685">
		<tag k="name" v="Strømmen" />
		<tag k="place" v="locality" />
		<tag k="ssr:stedsnr" v="406531" />
	</node>
	<node id="-256925" lat="60.4533611073" lon="10.8178805606">
		<tag k="name" v="Tomten" />
		<tag k="place" v="locality" />
		<tag k="ssr:stedsnr" v="181398" />
	</node>
	<node id="-257331" lat="60.4471444477" lon="10.8376194361">
		<tag k="name" v="Brenninga" />
		<tag k="place" v="locality" />
		<tag k="ssr:stedsnr" v="829277" />
	</node>
	<node id="-256923" lat="60.4511388931" lon="10.7749583326">
		<tag k="name" v="Gundersmyrbakken" />
		<tag k="place" v="locality" />
		<tag k="ssr:stedsnr" v="181446" />
	</node>
	<node id="-257302" lat="60.4287472263" lon="11.0624972281">
		<tag k="name" v="Snikker" />
		<tag k="place" v="locality" />
		<tag k="ssr:stedsnr" v="787049" />
	</node>
	<node id="-257045" lat="60.4165916691" lon="10.9924916654">
		<tag k="name" v="Gjødingsetervelta" />
		<tag k="place" v="locality" />
		<tag k="ssr:stedsnr" v="406154" />
	</node>
	<node id="-256401" lat="60.4756972226" lon="11.0253555484">
		<tag k="name" v="Sagmarka" />
		<tag k="place" v="locality" />
		<tag k="ssr:stedsnr" v="482170" />
	</node>
	<node id="-256910" lat="60.4584166631" lon="10.8139444518">
		<tag k="name" v="Snaret" />
		<tag k="place" v="locality" />
		<tag k="ssr:stedsnr" v="176895" />
	</node>
	<node id="-256781" lat="60.4480444477" lon="10.9097722136">
		<tag k="name" v="Fjellhammer" />
		<tag k="place" v="locality" />
		<tag k="ssr:stedsnr" v="57616" />
	</node>
	<node id="-257420" lat="60.3552583347" lon="11.0798249962">
		<tag k="name" v="Kipp" />
		<tag k="place" v="locality" />
		<tag k="ssr:stedsnr" v="952546" />
	</node>
	<node id="-256778" lat="60.4671583306" lon="10.7195361192">
		<tag k="name" v="Rune" />
		<tag k="place" v="locality" />
		<tag k="ssr:stedsnr" v="55926" />
	</node>
	<node id="-256133" lat="60.3854611099" lon="11.0122361166">
		<tag k="name" v="Smørbukken" />
		<tag k="place" v="locality" />
		<tag k="ssr:stedsnr" v="249570" />
	</node>
	<node id="-256260" lat="60.4901500033" lon="10.7054638942">
		<tag k="name" v="Gildringsholen" />
		<tag k="place" v="locality" />
		<tag k="ssr:stedsnr" v="466249" />
	</node>
	<node id="-257046" lat="60.4158527817" lon="11.0039972283">
		<tag k="name" v="Otervelta" />
		<tag k="place" v="locality" />
		<tag k="ssr:stedsnr" v="406163" />
	</node>
	<node id="-256897" lat="60.4568055552" lon="11.0707333287">
		<tag k="name" v="Dumpa" />
		<tag k="place" v="locality" />
		<tag k="ssr:stedsnr" v="163196" />
	</node>
</osm>
