<?xml version="1.0" encoding="UTF-8"?>
<<<<<<< HEAD
<osm version="0.6" generator="osmapis">
	<node lat="60.427391664064054" lon="10.81951945196427" id="-15037">
		<tag k="man_made" v="cairn" />
		<tag k="name" v="Lisæterrøysa" />
		<tag k="place" v="locality" />
		<tag k="ssr:stedsnr" v="41226" />
	</node>
	<node lat="60.47696944264047" lon="10.972847223443624" id="-15052">
		<tag k="fixme" v="consider highway=path" />
		<tag k="highway" v="track" />
		<tag k="name" v="Kampevegen" />
		<tag k="ssr:stedsnr" v="239167" />
	</node>
	<node lat="60.3486138923831" lon="11.086616674397817" id="-15077">
		<tag k="highway" v="path" />
		<tag k="name" v="Korketrekkeren" />
		<tag k="ssr:stedsnr" v="100716" />
	</node>
	<node lat="60.446366666974875" lon="10.826413886994457" id="-15222">
		<tag k="name" v="Nordstuvelta" />
		<tag k="place" v="locality" />
		<tag k="ssr:stedsnr" v="302431" />
	</node>
	<node lat="60.432366665148976" lon="11.066300001590802" id="-15276">
		<tag k="bridge" v="yes" />
		<tag k="layer" v="1" />
		<tag k="name" v="Knaibakken" />
		<tag k="ssr:stedsnr" v="349918" />
	</node>
	<node lat="60.42729166360891" lon="10.788536109307437" id="-15313">
		<tag k="ford" v="yes" />
		<tag k="name" v="Fuglåsvadet" />
		<tag k="place" v="locality" />
		<tag k="ssr:stedsnr" v="406207" />
	</node>
	<node lat="60.44636666421292" lon="10.817780560387071" id="-15425">
		<tag k="name" v="Nedre Brattvelta" />
		<tag k="place" v="locality" />
		<tag k="ssr:stedsnr" v="545378" />
	</node>
	<node lat="60.34986388509541" lon="11.020791667199097" id="-15473">
		<tag k="man_made" v="quay" />
		<tag k="name" v="Brygga" />
		<tag k="place" v="locality" />
		<tag k="ssr:stedsnr" v="707083" />
	</node>
	<node lat="60.44634444766288" lon="10.802180563028974" id="-15555">
		<tag k="name" v="Øvre Brattvelta" />
		<tag k="place" v="locality" />
		<tag k="ssr:stedsnr" v="727409" />
	</node>
	<node lat="60.37841111290582" lon="11.021199993977795" id="-15582">
		<tag k="highway" v="path" />
		<tag k="name" v="Hesthagabekken" />
		<tag k="ssr:stedsnr" v="770608" />
	</node>
	<node lat="60.377369446345405" lon="11.014530561903472" id="-15583">
		<tag k="highway" v="path" />
		<tag k="name" v="Merraplaga" />
		<tag k="ssr:stedsnr" v="770610" />
	</node>
	<node lat="60.40284166969325" lon="11.094283335105928" id="-15590">
		<tag k="junction" v="yes" />
		<tag k="name" v="Jakkesvingen" />
		<tag k="place" v="locality" />
		<tag k="ssr:stedsnr" v="770758" />
	</node>
	<node lat="60.43261944340996" lon="11.079475007763788" id="-15688">
=======
<osm generator="osmapis" version="0.6">
	<node id="-269055" lat="60.4487111072" lon="10.791949995">
		<tag k="fixme" v="consider highway=path" />
		<tag k="highway" v="track" />
		<tag k="name" v="Grusvegen" />
		<tag k="ssr:stedsnr" v="969437" />
	</node>
	<node id="-268282" lat="60.3456416678" lon="11.0140722149">
		<tag k="bridge" v="yes" />
		<tag k="layer" v="1" />
		<tag k="name" v="Rustad" />
		<tag k="ssr:stedsnr" v="896911" />
	</node>
	<node id="-268281" lat="60.4326194434" lon="11.0794750078">
>>>>>>> e1d4bc35ff8a6074a6f2e91616a996b547c36f15
		<tag k="bridge" v="yes" />
		<tag k="layer" v="1" />
		<tag k="name" v="Brustad" />
		<tag k="ssr:stedsnr" v="896908" />
	</node>
<<<<<<< HEAD
	<node lat="60.34564166782369" lon="11.014072214859839" id="-15689">
		<tag k="bridge" v="yes" />
		<tag k="layer" v="1" />
		<tag k="name" v="Rustad" />
		<tag k="ssr:stedsnr" v="896911" />
	</node>
	<node lat="60.449997224378485" lon="10.75755832607112" id="-15724">
=======
	<node id="-268499" lat="60.4626555564" lon="11.0843111106">
		<tag k="name" v="Østligrinda" />
		<tag k="place" v="locality" />
		<tag k="ssr:stedsnr" v="163200" />
	</node>
	<node id="-269040" lat="60.4499972244" lon="10.7575583261">
>>>>>>> e1d4bc35ff8a6074a6f2e91616a996b547c36f15
		<tag k="bridge" v="yes" />
		<tag k="layer" v="1" />
		<tag k="name" v="Fallbekken" />
		<tag k="ssr:stedsnr" v="956901" />
	</node>
<<<<<<< HEAD
	<node lat="60.46245555730812" lon="10.868749999660302" id="-15739">
		<tag k="aeroway" v="aerodrome" />
		<tag k="name" v="Damtjern flyplass" />
		<tag k="ssr:stedsnr" v="967820" />
	</node>
	<node lat="60.44871110715605" lon="10.791949994987327" id="-15741">
		<tag k="fixme" v="consider highway=path" />
		<tag k="highway" v="track" />
		<tag k="name" v="Grusvegen" />
		<tag k="ssr:stedsnr" v="969437" />
	</node>
	<node lat="60.449119446690425" lon="10.810727778913877" id="-15777">
		<tag k="bridge" v="yes" />
		<tag k="layer" v="1" />
		<tag k="name" v="Sibilrud" />
		<tag k="old_name" v="Siblisrud" />
		<tag k="ssr:stedsnr" v="46899" />
	</node>
	<node lat="60.379072226137254" lon="11.074372218853414" id="-15822">
		<tag k="bridge" v="yes" />
		<tag k="layer" v="1" />
		<tag k="name" v="Eidseter" />
		<tag k="ssr:stedsnr" v="107894" />
	</node>
	<node lat="60.450944445829734" lon="10.769274993077639" id="-15838">
		<tag k="bridge" v="yes" />
		<tag k="layer" v="1" />
		<tag k="name" v="Saubrua" />
		<tag k="ssr:stedsnr" v="120430" />
	</node>
	<node lat="60.46265555642278" lon="11.08431111058522" id="-15870">
		<tag k="name" v="Østligrinda" />
=======
	<node id="-269039" lat="60.4515805565" lon="10.7607194415">
		<tag k="bridge" v="yes" />
		<tag k="layer" v="1" />
		<tag k="name" v="Skimleflaten" />
		<tag k="ssr:stedsnr" v="956880" />
	</node>
	<node id="-269038" lat="60.4174666708" lon="10.9944916604">
		<tag k="bridge" v="yes" />
		<tag k="layer" v="1" />
		<tag k="name" v="Vesleelv" />
		<tag k="ssr:stedsnr" v="956878" />
	</node>
	<node id="-267748" lat="60.3486138924" lon="11.0866166744">
		<tag k="highway" v="path" />
		<tag k="name" v="Korketrekkeren" />
		<tag k="ssr:stedsnr" v="100716" />
	</node>
	<node id="-268131" lat="60.4925972255" lon="11.0684111147">
		<tag k="fixme" v="consider highway=path" />
		<tag k="highway" v="track" />
		<tag k="name" v="Bergvatnvegen" />
		<tag k="ssr:stedsnr" v="770003" />
	</node>
	<node id="-268240" lat="60.3741444454" lon="11.0875416645">
		<tag k="ford" v="yes" />
		<tag k="name" v="Vadet" />
		<tag k="place" v="locality" />
		<tag k="ssr:stedsnr" v="770935" />
	</node>
	<node id="-268889" lat="60.440886113" lon="10.8654833356">
		<tag k="bridge" v="yes" />
		<tag k="layer" v="1" />
		<tag k="name" v="Damtjernbekken" />
		<tag k="ssr:stedsnr" v="774891" />
	</node>
	<node id="-268900" lat="60.4595055541" lon="10.9543277704">
		<tag k="highway" v="path" />
		<tag k="name" v="Gjødingeseterstigen" />
		<tag k="ssr:stedsnr" v="785872" />
	</node>
	<node id="-268884" lat="60.3773694463" lon="11.0145305619">
		<tag k="highway" v="path" />
		<tag k="name" v="Merraplaga" />
		<tag k="ssr:stedsnr" v="770610" />
	</node>
	<node id="-268883" lat="60.3784111129" lon="11.021199994">
		<tag k="highway" v="path" />
		<tag k="name" v="Hesthagabekken" />
		<tag k="ssr:stedsnr" v="770608" />
	</node>
	<node id="-268882" lat="60.4028416697" lon="11.0942833351">
		<tag k="junction" v="yes" />
		<tag k="name" v="Jakkesvingen" />
		<tag k="place" v="locality" />
		<tag k="ssr:stedsnr" v="770758" />
	</node>
	<node id="-268880" lat="60.4005083358" lon="11.1343999986">
		<tag k="highway" v="path" />
		<tag k="name" v="Mamelundsveg" />
		<tag k="ssr:stedsnr" v="770743" />
	</node>
	<node id="-268748" lat="60.4463666642" lon="10.8177805604">
		<tag k="name" v="Nedre Brattvelta" />
		<tag k="place" v="locality" />
		<tag k="ssr:stedsnr" v="545378" />
	</node>
	<node id="-268215" lat="60.4463444477" lon="10.802180563">
		<tag k="name" v="Øvre Brattvelta" />
>>>>>>> e1d4bc35ff8a6074a6f2e91616a996b547c36f15
		<tag k="place" v="locality" />
		<tag k="ssr:stedsnr" v="727409" />
	</node>
<<<<<<< HEAD
	<node lat="60.448447222881526" lon="10.806008335558724" id="-15964">
=======
	<node id="-268100" lat="60.3738083321" lon="10.9571000076">
		<tag k="highway" v="path" />
		<tag k="name" v="Våterudsvegen" />
		<tag k="ssr:stedsnr" v="588740" />
	</node>
	<node id="-267843" lat="60.4484472229" lon="10.8060083356">
>>>>>>> e1d4bc35ff8a6074a6f2e91616a996b547c36f15
		<tag k="bridge" v="yes" />
		<tag k="layer" v="1" />
		<tag k="name" v="Dølerud" />
		<tag k="ssr:stedsnr" v="289917" />
	</node>
<<<<<<< HEAD
	<node lat="60.48539722620976" lon="10.977455564524833" id="-16005">
		<tag k="name" v="Flavelta" />
=======
	<node id="-268353" lat="60.4273916641" lon="10.819519452">
		<tag k="man_made" v="cairn" />
		<tag k="name" v="Lisæterrøysa" />
>>>>>>> e1d4bc35ff8a6074a6f2e91616a996b547c36f15
		<tag k="place" v="locality" />
		<tag k="ssr:stedsnr" v="345067" />
	</node>
	<node lat="60.366072221121094" lon="11.00975833408438" id="-16011">
		<tag k="bridge" v="yes" />
		<tag k="layer" v="1" />
		<tag k="name" v="Viken" />
		<tag k="ssr:stedsnr" v="349899" />
	</node>
<<<<<<< HEAD
	<node lat="60.44900555124156" lon="11.045033323992664" id="-16012">
=======
	<node id="-268608" lat="60.4490055512" lon="11.045033324">
>>>>>>> e1d4bc35ff8a6074a6f2e91616a996b547c36f15
		<tag k="bridge" v="yes" />
		<tag k="layer" v="1" />
		<tag k="name" v="Stampebrua" />
		<tag k="ssr:stedsnr" v="349901" />
	</node>
<<<<<<< HEAD
	<node lat="60.38469721966596" lon="11.02766666913049" id="-16024">
		<tag k="highway" v="path" />
		<tag k="name" v="Tolvervegen" />
		<tag k="ssr:stedsnr" v="362577" />
	</node>
	<node lat="60.372458335881966" lon="10.974249996108824" id="-16060">
		<tag k="fixme" v="consider highway=path" />
		<tag k="highway" v="track" />
		<tag k="name" v="Vestlivegen" />
		<tag k="ssr:stedsnr" v="406734" />
	</node>
	<node lat="60.434958332166424" lon="11.065616666132302" id="-16093">
		<tag k="junction" v="yes" />
		<tag k="name" v="Torget" />
		<tag k="place" v="locality" />
		<tag k="ssr:stedsnr" v="505932" />
	</node>
	<node lat="60.44574444203603" lon="10.843319440165686" id="-16116">
		<tag k="bridge" v="yes" />
		<tag k="layer" v="1" />
		<tag k="name" v="Svartungelva" />
		<tag k="old_name" v="Svartungsbekken" />
		<tag k="ssr:stedsnr" v="527861" />
	</node>
	<node lat="60.37380833209298" lon="10.957100007589679" id="-16169">
		<tag k="highway" v="path" />
		<tag k="name" v="Våterudsvegen" />
		<tag k="ssr:stedsnr" v="588740" />
	</node>
	<node lat="60.37359444419713" lon="11.00533610952958" id="-16233">
=======
	<node id="-268863" lat="60.4974277773" lon="10.9875111082">
		<tag k="alt_name" v="Vaet" />
		<tag k="ford" v="yes" />
		<tag k="name" v="Vadet" />
		<tag k="place" v="locality" />
		<tag k="ssr:stedsnr" v="770010" />
	</node>
	<node id="-268859" lat="60.4084694432" lon="11.0522333243">
		<tag k="bridge" v="yes" />
		<tag k="layer" v="1" />
		<tag k="name" v="Lundby" />
		<tag k="ssr:stedsnr" v="653881" />
	</node>
	<node id="-268858" lat="60.4150305572" lon="11.0109722298">
		<tag k="bridge" v="yes" />
		<tag k="layer" v="1" />
		<tag k="name" v="Raufoss" />
		<tag k="ssr:stedsnr" v="653880" />
	</node>
	<node id="-267831" lat="60.4769694426" lon="10.9728472234">
		<tag k="fixme" v="consider highway=path" />
		<tag k="highway" v="track" />
		<tag k="name" v="Kampevegen" />
		<tag k="ssr:stedsnr" v="239167" />
	</node>
	<node id="-268595" lat="60.4853972262" lon="10.9774555645">
		<tag k="name" v="Flavelta" />
		<tag k="place" v="locality" />
		<tag k="ssr:stedsnr" v="345067" />
	</node>
	<node id="-268375" lat="60.4491194467" lon="10.8107277789">
		<tag k="bridge" v="yes" />
		<tag k="layer" v="1" />
		<tag k="name" v="Sibilrud" />
		<tag k="old_name" v="Siblisrud" />
		<tag k="ssr:stedsnr" v="46899" />
	</node>
	<node id="-268848" lat="60.3735944442" lon="11.0053361095">
>>>>>>> e1d4bc35ff8a6074a6f2e91616a996b547c36f15
		<tag k="fixme" v="consider highway=path" />
		<tag k="highway" v="track" />
		<tag k="name" v="Vikensvegen" />
		<tag k="ssr:stedsnr" v="648729" />
	</node>
<<<<<<< HEAD
	<node lat="60.41503055715336" lon="11.010972229782121" id="-16241">
=======
	<node id="-268461" lat="60.4509444458" lon="10.7692749931">
>>>>>>> e1d4bc35ff8a6074a6f2e91616a996b547c36f15
		<tag k="bridge" v="yes" />
		<tag k="layer" v="1" />
		<tag k="name" v="Raufoss" />
		<tag k="ssr:stedsnr" v="653880" />
	</node>
<<<<<<< HEAD
	<node lat="60.40846944323819" lon="11.052233324308505" id="-16242">
		<tag k="bridge" v="yes" />
		<tag k="layer" v="1" />
		<tag k="name" v="Lundby" />
		<tag k="ssr:stedsnr" v="653881" />
	</node>
	<node lat="60.4556472266215" lon="10.798369447531712" id="-16262">
		<tag k="fixme" v="consider highway=path" />
		<tag k="highway" v="track" />
		<tag k="name" v="Ostelvvegen" />
		<tag k="ssr:stedsnr" v="666411" />
	</node>
	<node lat="60.492597225490215" lon="11.068411114705311" id="-16289">
		<tag k="fixme" v="consider highway=path" />
		<tag k="highway" v="track" />
		<tag k="name" v="Bergvatnvegen" />
		<tag k="ssr:stedsnr" v="770003" />
	</node>
	<node lat="60.497427777269124" lon="10.987511108239769" id="-16291">
		<tag k="alt_name" v="Vaet" />
=======
	<node id="-267948" lat="60.4272916636" lon="10.7885361093">
>>>>>>> e1d4bc35ff8a6074a6f2e91616a996b547c36f15
		<tag k="ford" v="yes" />
		<tag k="name" v="Vadet" />
		<tag k="place" v="locality" />
		<tag k="ssr:stedsnr" v="770010" />
	</node>
<<<<<<< HEAD
	<node lat="60.4005083358127" lon="11.134399998631494" id="-16304">
		<tag k="highway" v="path" />
		<tag k="name" v="Mamelundsveg" />
		<tag k="ssr:stedsnr" v="770743" />
	</node>
	<node lat="60.37414444536321" lon="11.087541664502643" id="-16308">
		<tag k="ford" v="yes" />
		<tag k="name" v="Vadet" />
=======
	<node id="-268727" lat="60.445744442" lon="10.8433194402">
		<tag k="bridge" v="yes" />
		<tag k="layer" v="1" />
		<tag k="name" v="Svartungelva" />
		<tag k="old_name" v="Svartungsbekken" />
		<tag k="ssr:stedsnr" v="527861" />
	</node>
	<node id="-268607" lat="60.3660722211" lon="11.0097583341">
		<tag k="bridge" v="yes" />
		<tag k="layer" v="1" />
		<tag k="name" v="Viken" />
		<tag k="ssr:stedsnr" v="349899" />
	</node>
	<node id="-267941" lat="60.4349583322" lon="11.0656166661">
		<tag k="junction" v="yes" />
		<tag k="name" v="Torget" />
>>>>>>> e1d4bc35ff8a6074a6f2e91616a996b547c36f15
		<tag k="place" v="locality" />
		<tag k="ssr:stedsnr" v="770935" />
	</node>
<<<<<<< HEAD
	<node lat="60.440886113010194" lon="10.865483335623376" id="-16309">
		<tag k="bridge" v="yes" />
		<tag k="layer" v="1" />
		<tag k="name" v="Damtjernbekken" />
		<tag k="ssr:stedsnr" v="774891" />
	</node>
	<node lat="60.45950555409517" lon="10.954327770413327" id="-16314">
=======
	<node id="-267940" lat="60.3846972197" lon="11.0276666691">
>>>>>>> e1d4bc35ff8a6074a6f2e91616a996b547c36f15
		<tag k="highway" v="path" />
		<tag k="name" v="Gjødingeseterstigen" />
		<tag k="ssr:stedsnr" v="785872" />
	</node>
	<node lat="60.41746667075369" lon="10.994491660442726" id="-16405">
		<tag k="bridge" v="yes" />
		<tag k="layer" v="1" />
		<tag k="name" v="Vesleelv" />
		<tag k="ssr:stedsnr" v="956878" />
	</node>
	<node lat="60.45158055652077" lon="10.760719441524362" id="-16406">
		<tag k="bridge" v="yes" />
		<tag k="layer" v="1" />
		<tag k="name" v="Skimleflaten" />
		<tag k="ssr:stedsnr" v="956880" />
	</node>
	<node lat="60.42516389115816" lon="11.082638891741468" id="-16408">
		<tag k="fixme" v="consider highway=path" />
		<tag k="highway" v="track" />
		<tag k="name" v="Telegrafvegen" />
		<tag k="ssr:stedsnr" v="965455" />
	</node>
	<node id="-268656" lat="60.3724583359" lon="10.9742499961">
		<tag k="fixme" v="consider highway=path" />
		<tag k="highway" v="track" />
		<tag k="name" v="Vestlivegen" />
		<tag k="ssr:stedsnr" v="406734" />
	</node>
	<node id="-268314" lat="60.4624555573" lon="10.8687499997">
		<tag k="aeroway" v="aerodrome" />
		<tag k="name" v="Damtjern flyplass" />
		<tag k="ssr:stedsnr" v="967820" />
	</node>
	<node id="-268442" lat="60.3790722261" lon="11.0743722189">
		<tag k="bridge" v="yes" />
		<tag k="layer" v="1" />
		<tag k="name" v="Eidseter" />
		<tag k="ssr:stedsnr" v="107894" />
	</node>
	<node id="-268056" lat="60.3498638851" lon="11.0207916672">
		<tag k="man_made" v="quay" />
		<tag k="name" v="Brygga" />
		<tag k="place" v="locality" />
		<tag k="ssr:stedsnr" v="707083" />
	</node>
	<node id="-268308" lat="60.4251638912" lon="11.0826388917">
		<tag k="fixme" v="consider highway=path" />
		<tag k="highway" v="track" />
		<tag k="name" v="Telegrafvegen" />
		<tag k="ssr:stedsnr" v="965455" />
	</node>
	<node id="-268562" lat="60.446366667" lon="10.826413887">
		<tag k="name" v="Nordstuvelta" />
		<tag k="place" v="locality" />
		<tag k="ssr:stedsnr" v="302431" />
	</node>
	<node id="-268169" lat="60.4556472266" lon="10.7983694475">
		<tag k="fixme" v="consider highway=path" />
		<tag k="highway" v="track" />
		<tag k="name" v="Ostelvvegen" />
		<tag k="ssr:stedsnr" v="666411" />
	</node>
	<node id="-267906" lat="60.4323666651" lon="11.0663000016">
		<tag k="bridge" v="yes" />
		<tag k="layer" v="1" />
		<tag k="name" v="Knaibakken" />
		<tag k="ssr:stedsnr" v="349918" />
	</node>
</osm>
