<?xml version="1.0" encoding="UTF-8"?>
<<<<<<< HEAD
<osm version="0.6" generator="osmapis">
	<node lat="60.39190180658165" lon="11.047326546199587" id="-15024">
		<tag k="fixme" v="consider place=hamlet" />
		<tag k="name" v="Sand" />
		<tag k="place" v="farm" />
		<tag k="ssr:stedsnr" v="6617" />
	</node>
	<node lat="60.37491293407519" lon="10.970187140361613" id="-15026">
		<tag k="fixme" v="consider place=hamlet" />
		<tag k="name" v="Vestlia" />
		<tag k="place" v="farm" />
		<tag k="ssr:stedsnr" v="6580" />
	</node>
	<node lat="60.38262499956487" lon="11.029719439575109" id="-15027">
		<tag k="alt_name" v="Lauvli" />
		<tag k="name" v="Løvli" />
		<tag k="place" v="farm" />
		<tag k="ssr:stedsnr" v="6589" />
	</node>
	<node lat="60.466099996357926" lon="11.05932500809384" id="-15029">
		<tag k="name" v="Bekkelund" />
		<tag k="place" v="farm" />
		<tag k="ssr:stedsnr" v="6702" />
	</node>
	<node lat="60.45974700923531" lon="10.72859172263949" id="-15030">
		<tag k="name" v="Røsåsen" />
		<tag k="place" v="locality" />
		<tag k="ssr:stedsnr" v="6703" />
	</node>
	<node lat="60.48147222274198" lon="11.01059165977621" id="-15031">
		<tag k="alt_name" v="Ringen, nordre" />
		<tag k="name" v="Nord-Ringen" />
		<tag k="place" v="farm" />
		<tag k="ssr:stedsnr" v="6708" />
	</node>
	<node lat="60.49168055709449" lon="10.997736102377864" id="-15032">
		<tag k="name" v="Fagerlund" />
		<tag k="place" v="farm" />
		<tag k="ssr:stedsnr" v="6729" />
	</node>
	<node lat="60.47889166469732" lon="10.73726110264262" id="-15033">
		<tag k="alt_name" v="Damhaughytta" />
		<tag k="name" v="Damhaugstua" />
		<tag k="place" v="isolated_dwelling" />
		<tag k="ssr:stedsnr" v="6731" />
	</node>
	<node lat="60.47737499632631" lon="11.01025000066354" id="-15034">
		<tag k="alt_name" v="Stenset" />
		<tag k="name" v="Steinset" />
		<tag k="place" v="farm" />
		<tag k="ssr:stedsnr" v="234723" />
	</node>
	<node lat="60.51415555457541" lon="11.064611110037575" id="-15039">
		<tag k="name" v="Damstua" />
		<tag k="place" v="isolated_dwelling" />
		<tag k="ssr:stedsnr" v="42125" />
	</node>
	<node lat="60.428811110409505" lon="10.91263888622736" id="-15040">
		<tag k="name" v="Øvre Grasbakken" />
		<tag k="place" v="farm" />
		<tag k="ssr:stedsnr" v="42182" />
	</node>
	<node lat="60.49035277560355" lon="10.754822229337407" id="-15041">
		<tag k="name" v="Vindflohytta" />
		<tag k="place" v="isolated_dwelling" />
		<tag k="ssr:stedsnr" v="42228" />
	</node>
	<node lat="60.40984444320349" lon="10.990227782637309" id="-15046">
		<tag k="name" v="Velgjortstua" />
		<tag k="place" v="locality" />
		<tag k="ssr:stedsnr" v="42833" />
	</node>
	<node lat="60.45984166521366" lon="11.065361113882108" id="-15051">
		<tag k="name" v="Nedre Røsrud" />
		<tag k="place" v="farm" />
		<tag k="ssr:stedsnr" v="239164" />
	</node>
	<node lat="60.47631944477779" lon="10.841216669459621" id="-15057">
		<tag k="name" v="Finnvollen" />
		<tag k="place" v="locality" />
		<tag k="ssr:stedsnr" v="239857" />
	</node>
	<node lat="60.439447225358016" lon="10.88714722159563" id="-15060">
		<tag k="alt_name" v="Sørgarden" />
		<tag k="name" v="Øvre Sørgård" />
		<tag k="place" v="farm" />
		<tag k="ssr:stedsnr" v="59411" />
	</node>
	<node lat="60.38313333190956" lon="11.022488893979201" id="-15063">
		<tag k="name" v="Steinbråten" />
		<tag k="place" v="locality" />
		<tag k="ssr:stedsnr" v="241548" />
	</node>
	<node lat="60.46895833578478" lon="11.02551945066443" id="-15068">
		<tag k="name" v="Lisbakken" />
		<tag k="place" v="farm" />
		<tag k="ssr:stedsnr" v="66681" />
	</node>
	<node lat="60.4672472245442" lon="11.050477780934532" id="-15069">
		<tag k="alt_name" v="Skogly" />
		<tag k="name" v="Skogli" />
		<tag k="place" v="farm" />
		<tag k="ssr:stedsnr" v="66682" />
	</node>
	<node lat="60.444102776831635" lon="11.062127786216767" id="-15071">
		<tag k="name" v="Nordre Opperud" />
		<tag k="place" v="farm" />
		<tag k="ssr:stedsnr" v="67658" />
	</node>
	<node lat="60.461495131404845" lon="11.061737078200212" id="-15072">
		<tag k="name" v="Ødemark" />
		<tag k="place" v="hamlet" />
		<tag k="ssr:stedsnr" v="67698" />
	</node>
	<node lat="60.48563610959171" lon="11.005463889210823" id="-15073">
		<tag k="name" v="Inngjerdinga" />
		<tag k="place" v="farm" />
		<tag k="ssr:stedsnr" v="67729" />
	</node>
	<node lat="60.49644999628905" lon="10.97965000093139" id="-15075">
		<tag k="name" v="Nordre Rognlia" />
		<tag k="place" v="farm" />
		<tag k="ssr:stedsnr" v="67739" />
	</node>
	<node lat="60.495088885794445" lon="11.006319439663937" id="-15079">
		<tag k="name" v="Holtemarka" />
		<tag k="place" v="neighbourhood" />
		<tag k="ssr:stedsnr" v="102015" />
	</node>
	<node lat="60.41926944311542" lon="10.914677781229424" id="-15080">
		<tag k="name" v="Sørseterbråtan" />
		<tag k="place" v="locality" />
		<tag k="ssr:stedsnr" v="102204" />
	</node>
	<node lat="60.44515000182466" lon="10.97342499171951" id="-15083">
		<tag k="name" v="Øvreenga" />
		<tag k="place" v="locality" />
		<tag k="ssr:stedsnr" v="102727" />
	</node>
	<node lat="60.37859722030165" lon="10.913741670999674" id="-15087">
		<tag k="name" v="Jeppedalen" />
		<tag k="place" v="hamlet" />
		<tag k="ssr:stedsnr" v="103710" />
	</node>
	<node lat="60.41695000070501" lon="11.044249996571383" id="-15094">
		<tag k="alt_name" v="Madserud" />
		<tag k="name" v="Madsrud" />
		<tag k="place" v="farm" />
		<tag k="ssr:stedsnr" v="249597" />
	</node>
	<node lat="60.414455556739014" lon="11.029299994284221" id="-15095">
		<tag k="name" v="Klokkermoen" />
		<tag k="place" v="quarter" />
		<tag k="ssr:stedsnr" v="249600" />
	</node>
	<node lat="60.348416667295034" lon="11.007269448071431" id="-15096">
		<tag k="name" v="Bergset" />
		<tag k="place" v="farm" />
		<tag k="ssr:stedsnr" v="249523" />
	</node>
	<node lat="60.35945555563124" lon="11.010686107649336" id="-15097">
		<tag k="name" v="Lykkja" />
		<tag k="place" v="farm" />
		<tag k="ssr:stedsnr" v="249539" />
	</node>
	<node lat="60.35913342960427" lon="11.00147590904022" id="-15098">
		<tag k="name" v="Sørgarden" />
		<tag k="place" v="farm" />
		<tag k="ssr:stedsnr" v="249540" />
	</node>
	<node lat="60.368505553743695" lon="11.016341659015366" id="-15099">
		<tag k="name" v="Støen" />
		<tag k="place" v="isolated_dwelling" />
		<tag k="ssr:stedsnr" v="249549" />
	</node>
	<node lat="60.36989166653452" lon="10.947997215353894" id="-15100">
		<tag k="name" v="Tomta" />
		<tag k="place" v="isolated_dwelling" />
		<tag k="ssr:stedsnr" v="249550" />
	</node>
	<node lat="60.44366110848792" lon="10.97326388699696" id="-15103">
		<tag k="name" v="Enga" />
		<tag k="place" v="farm" />
		<tag k="ssr:stedsnr" v="249638" />
	</node>
	<node lat="60.43735555953184" lon="10.813405562353099" id="-15105">
		<tag k="alt_name" v="Liseterhytta" />
		<tag k="name" v="Lisæterstua" />
		<tag k="place" v="locality" />
		<tag k="ssr:stedsnr" v="249650" />
	</node>
	<node lat="60.44995000059574" lon="11.024061117298698" id="-15106">
		<tag k="name" v="Øvre Rognstad" />
		<tag k="place" v="farm" />
		<tag k="ssr:stedsnr" v="249653" />
	</node>
	<node lat="60.48497222470561" lon="10.997649993857532" id="-15109">
		<tag k="name" v="Ringstad" />
		<tag k="place" v="farm" />
		<tag k="ssr:stedsnr" v="249706" />
	</node>
	<node lat="60.485833337741944" lon="10.803624998594463" id="-15112">
		<tag k="alt_name" v="Svartungshytta" />
		<tag k="name" v="Svartungstua" />
		<tag k="place" v="isolated_dwelling" />
		<tag k="ssr:stedsnr" v="249728" />
	</node>
	<node lat="60.40257221842012" lon="11.042849998241849" id="-15117">
		<tag k="name" v="Røysa" />
		<tag k="place" v="farm" />
		<tag k="ssr:stedsnr" v="119070" />
	</node>
	<node lat="60.447988886914395" lon="10.719886108229304" id="-15118">
		<tag k="alt_name" v="Falla vestre;Bentefaldet" />
		<tag k="name" v="Vestre Falla" />
		<tag k="place" v="isolated_dwelling" />
		<tag k="ssr:stedsnr" v="119485" />
	</node>
	<node lat="60.38645277473826" lon="11.037991664468938" id="-15119">
		<tag k="name" v="Nystuen Rud" />
		<tag k="place" v="farm" />
		<tag k="ssr:stedsnr" v="119978" />
	</node>
	<node lat="60.33811389203879" lon="11.091727773251598" id="-15125">
		<tag k="name" v="Grønerud" />
		<tag k="place" v="isolated_dwelling" />
		<tag k="ssr:stedsnr" v="127551" />
	</node>
	<node lat="60.3400989873118" lon="11.09282723915184" id="-15126">
		<tag k="fixme" v="consider place=hamlet" />
		<tag k="name" v="Langton" />
		<tag k="place" v="farm" />
		<tag k="ssr:stedsnr" v="127552" />
	</node>
	<node lat="60.44877608369132" lon="11.025663372311211" id="-15127">
		<tag k="name" v="Rognstad" />
		<tag k="place" v="hamlet" />
		<tag k="ssr:stedsnr" v="127692" />
	</node>
	<node lat="60.48538611050546" lon="10.998730558764796" id="-15130">
		<tag k="name" v="Holtet" />
		<tag k="place" v="farm" />
		<tag k="ssr:stedsnr" v="127755" />
	</node>
	<node lat="60.48891944104054" lon="10.999766663548252" id="-15131">
		<tag k="name" v="Vestenga" />
		<tag k="place" v="farm" />
		<tag k="ssr:stedsnr" v="127756" />
	</node>
	<node lat="60.423849996591784" lon="11.06375000262396" id="-15132">
		<tag k="alt_name" v="Nordgården;Nordgarden" />
		<tag k="name" v="Nordgarden Knai" />
		<tag k="old_name" v="Nordgaarden Knai" />
		<tag k="place" v="farm" />
		<tag k="ssr:stedsnr" v="157061" />
	</node>
	<node lat="60.415430553929184" lon="10.87961666114377" id="-15136">
		<tag k="name" v="Svettingshytta" />
		<tag k="place" v="locality" />
		<tag k="ssr:stedsnr" v="163208" />
	</node>
	<node lat="60.385869442162736" lon="11.029155551785715" id="-15153">
		<tag k="name" v="Rognbråtan" />
		<tag k="place" v="locality" />
		<tag k="ssr:stedsnr" v="180963" />
	</node>
	<node lat="60.38714444305547" lon="11.039197220476275" id="-15154">
		<tag k="name" v="Rud arstuen" />
		<tag k="place" v="farm" />
		<tag k="ssr:stedsnr" v="180966" />
	</node>
	<node lat="60.354208334407765" lon="11.00320278456084" id="-15162">
		<tag k="name" v="Lund" />
		<tag k="place" v="farm" />
		<tag k="ssr:stedsnr" v="188571" />
	</node>
	<node lat="60.36359444277225" lon="11.001930553788624" id="-15163">
		<tag k="name" v="Søndre Nordgarden" />
		<tag k="place" v="farm" />
		<tag k="ssr:stedsnr" v="188582" />
	</node>
	<node lat="60.36725278020457" lon="11.012530560084917" id="-15165">
		<tag k="name" v="Viken" />
		<tag k="place" v="farm" />
		<tag k="ssr:stedsnr" v="188588" />
	</node>
	<node lat="60.43380555682405" lon="11.066672222204325" id="-15167">
		<tag k="fixme" v="consider place=hamlet" />
		<tag k="name" v="Brustad" />
		<tag k="place" v="farm" />
		<tag k="ssr:stedsnr" v="188675" />
	</node>
	<node lat="60.43325277507851" lon="11.05302777575201" id="-15169">
		<tag k="alt_name" v="Garverhjemmet" />
		<tag k="name" v="Garverheimet" />
		<tag k="place" v="farm" />
		<tag k="ssr:stedsnr" v="188680" />
	</node>
	<node lat="60.48441388548254" lon="11.036819440910056" id="-15173">
		<tag k="name" v="Garsjøsetra" />
		<tag k="place" v="locality" />
		<tag k="ssr:stedsnr" v="224010" />
	</node>
	<node lat="60.44110832985306" lon="11.047849996598208" id="-15181">
		<tag k="name" v="Furulund" />
		<tag k="place" v="farm" />
		<tag k="ssr:stedsnr" v="224706" />
	</node>
	<node lat="60.45130277494497" lon="11.061255554305495" id="-15183">
		<tag k="name" v="Karinastua" />
		<tag k="place" v="isolated_dwelling" />
		<tag k="ssr:stedsnr" v="224737" />
	</node>
	<node lat="60.47114444108237" lon="11.085983335505391" id="-15186">
		<tag k="name" v="Ekralia hyttefelt" />
		<tag k="place" v="neighbourhood" />
		<tag k="ssr:stedsnr" v="239395" />
	</node>
	<node lat="60.47282221886121" lon="10.992063894381015" id="-15187">
		<tag k="name" v="Nilsbu" />
		<tag k="place" v="isolated_dwelling" />
		<tag k="ssr:stedsnr" v="239883" />
	</node>
	<node lat="60.454658334445845" lon="10.753330564268165" id="-15188">
		<tag k="name" v="Nordre Skimten" />
		<tag k="place" v="farm" />
		<tag k="ssr:stedsnr" v="241427" />
	</node>
	<node lat="60.428708337372186" lon="10.924116672917457" id="-15199">
		<tag k="name" v="Badstuenga" />
		<tag k="place" v="locality" />
		<tag k="ssr:stedsnr" v="284175" />
	</node>
	<node lat="60.48299166930735" lon="11.009886106536158" id="-15204">
		<tag k="name" v="Lundgård" />
		<tag k="place" v="farm" />
		<tag k="ssr:stedsnr" v="285007" />
	</node>
	<node lat="60.37255833135973" lon="11.080402769379424" id="-15211">
		<tag k="name" v="Langbråten" />
		<tag k="place" v="locality" />
		<tag k="ssr:stedsnr" v="285907" />
	</node>
	<node lat="60.45910832878945" lon="10.843405562916814" id="-15218">
		<tag k="name" v="Kusnarbråtan" />
		<tag k="place" v="locality" />
		<tag k="ssr:stedsnr" v="298889" />
	</node>
	<node lat="60.37378333414042" lon="11.02178332682177" id="-15227">
		<tag k="name" v="Sjursrud" />
		<tag k="place" v="isolated_dwelling" />
		<tag k="ssr:stedsnr" v="309582" />
	</node>
	<node lat="60.3754305597554" lon="10.919830560962938" id="-15228">
		<tag k="name" v="Jeppeli" />
		<tag k="place" v="isolated_dwelling" />
		<tag k="ssr:stedsnr" v="309585" />
	</node>
	<node lat="60.46658333266548" lon="11.066827772235266" id="-15229">
		<tag k="alt_name" v="Nordre Melby" />
		<tag k="name" v="Øvre Melby" />
		<tag k="place" v="farm" />
		<tag k="ssr:stedsnr" v="309704" />
	</node>
	<node lat="60.49231388636867" lon="10.969538883383812" id="-15230">
		<tag k="name" v="Bonkerud" />
		<tag k="place" v="farm" />
		<tag k="ssr:stedsnr" v="309731" />
	</node>
	<node lat="60.421874997670805" lon="10.96533333564845" id="-15231">
		<tag k="name" v="Hagen" />
		<tag k="place" v="farm" />
		<tag k="ssr:stedsnr" v="310636" />
	</node>
	<node lat="60.51141944133773" lon="10.71916667243123" id="-15235">
		<tag k="historic" v="shieling" />
		<tag k="name" v="Rognholen" />
		<tag k="place" v="isolated_dwelling" />
		<tag k="ssr:stedsnr" v="466050" />
	</node>
	<node lat="60.486372225574044" lon="10.982700004434538" id="-15236">
		<tag k="building" v="industrial" />
		<tag k="name" v="Rognlisaga" />
		<tag k="ssr:stedsnr" v="466051" />
	</node>
	<node lat="60.46156388981455" lon="11.060852780493562" id="-15240">
		<tag k="loc_name" v="Oppgarden" />
		<tag k="name" v="Øvre Ødemark" />
		<tag k="place" v="farm" />
		<tag k="ssr:stedsnr" v="466150" />
	</node>
	<node lat="60.43150555942002" lon="10.859941662124355" id="-15249">
		<tag k="name" v="Skjeggerud" />
		<tag k="place" v="locality" />
		<tag k="ssr:stedsnr" v="466188" />
	</node>
	<node lat="60.38764167117384" lon="10.98554999723767" id="-15250">
		<tag k="name" v="Kollhytta" />
		<tag k="place" v="isolated_dwelling" />
		<tag k="ssr:stedsnr" v="467659" />
	</node>
	<node lat="60.44499166812175" lon="10.873655558569943" id="-15259">
		<tag k="name" v="Brustua" />
		<tag k="place" v="isolated_dwelling" />
		<tag k="ssr:stedsnr" v="343262" />
	</node>
	<node lat="60.34737222488818" lon="11.011483328640367" id="-15262">
		<tag k="name" v="Heggeli" />
		<tag k="place" v="farm" />
		<tag k="ssr:stedsnr" v="343806" />
	</node>
	<node lat="60.42021111027511" lon="10.90528611329057" id="-15267">
		<tag k="name" v="Knuthølet" />
		<tag k="place" v="locality" />
		<tag k="ssr:stedsnr" v="345192" />
	</node>
	<node lat="60.44381465601216" lon="11.063514359836192" id="-15275">
		<tag k="fixme" v="consider place=hamlet" />
		<tag k="name" v="Opperud" />
		<tag k="place" v="farm" />
		<tag k="ssr:stedsnr" v="345704" />
	</node>
	<node lat="60.4619388928551" lon="10.730752773195684" id="-15280">
		<tag k="name" v="Hagan" />
		<tag k="place" v="locality" />
		<tag k="ssr:stedsnr" v="358914" />
	</node>
	<node lat="60.39613611199519" lon="11.126416660158771" id="-15283">
		<tag k="name" v="Vingerdalstua" />
		<tag k="place" v="isolated_dwelling" />
		<tag k="ssr:stedsnr" v="370003" />
	</node>
	<node lat="60.46356666890697" lon="11.064469446227436" id="-15285">
		<tag k="aerialway" v="drag_lift" />
		<tag k="fixme" v="consider the other aerialway types" />
		<tag k="name" v="Hurdal Skisenter" />
		<tag k="ssr:stedsnr" v="370704" />
	</node>
	<node lat="60.43991111127399" lon="11.067841674543686" id="-15288">
		<tag k="alt_name" v="Hagaholtet" />
		<tag k="name" v="Hagan" />
		<tag k="old_name" v="Hagen" />
		<tag k="place" v="isolated_dwelling" />
		<tag k="ssr:stedsnr" v="370664" />
	</node>
	<node lat="60.43904999985366" lon="10.727772228818813" id="-15289">
		<tag k="alt_name" v="Tuvsætra;Tuv Sr" />
		<tag k="historic" v="shieling" />
		<tag k="name" v="Tuvssetra" />
		<tag k="place" v="isolated_dwelling" />
		<tag k="ssr:stedsnr" v="370666" />
	</node>
	<node lat="60.44193333008871" lon="10.761986102323693" id="-15290">
		<tag k="alt_name" v="Granstua" />
		<tag k="name" v="Gransstua" />
		<tag k="place" v="isolated_dwelling" />
		<tag k="ssr:stedsnr" v="370679" />
	</node>
	<node lat="60.453074995827876" lon="10.7856000022314" id="-15292">
		<tag k="name" v="Dølerud" />
		<tag k="place" v="locality" />
		<tag k="ssr:stedsnr" v="370686" />
	</node>
	<node lat="60.45481700415926" lon="10.755890037425981" id="-15293">
		<tag k="name" v="Skimten" />
		<tag k="place" v="locality" />
		<tag k="ssr:stedsnr" v="370688" />
	</node>
	<node lat="60.45080833581871" lon="11.07271666802785" id="-15301">
		<tag k="name" v="Moseter" />
		<tag k="place" v="locality" />
		<tag k="ssr:stedsnr" v="480898" />
	</node>
	<node lat="60.40182499565587" lon="11.076733335826876" id="-15305">
		<tag k="name" v="Haraldvangen" />
		<tag k="old_name" v="Haraldvangen leirskole" />
		<tag k="ssr:stedsnr" v="383950" />
		<tag k="tourism" v="guest_house" />
	</node>
	<node lat="60.43547499673184" lon="10.88426388117895" id="-15308">
		<tag k="name" v="Jørnsrud" />
		<tag k="place" v="locality" />
		<tag k="ssr:stedsnr" v="404306" />
	</node>
	<node lat="60.453383337763405" lon="10.839899995504005" id="-15310">
		<tag k="name" v="Øvre Østbråtan" />
		<tag k="place" v="locality" />
		<tag k="ssr:stedsnr" v="404284" />
	</node>
	<node lat="60.459294446825616" lon="10.735341660404632" id="-15319">
		<tag k="name" v="Stenberg" />
		<tag k="place" v="locality" />
		<tag k="ssr:stedsnr" v="419913" />
	</node>
	<node lat="60.41593888600781" lon="11.034516663149455" id="-15322">
		<tag k="name" v="Gjødingsbråten" />
		<tag k="place" v="farm" />
		<tag k="ssr:stedsnr" v="423046" />
	</node>
	<node lat="60.39178332965157" lon="11.077855547168419" id="-15325">
		<tag k="name" v="Sandsbråten" />
		<tag k="place" v="farm" />
		<tag k="ssr:stedsnr" v="431608" />
	</node>
	<node lat="60.39893611108884" lon="10.92526389780537" id="-15326">
		<tag k="name" v="Bekkemyrstua" />
		<tag k="place" v="locality" />
		<tag k="ssr:stedsnr" v="431613" />
	</node>
	<node lat="60.400947224948496" lon="11.044599991336673" id="-15327">
		<tag k="name" v="Østbakken" />
		<tag k="place" v="farm" />
		<tag k="ssr:stedsnr" v="431615" />
	</node>
	<node lat="60.42957500283981" lon="11.061608329717064" id="-15328">
		<tag k="name" v="Knaibråten" />
		<tag k="place" v="farm" />
		<tag k="ssr:stedsnr" v="431652" />
	</node>
	<node lat="60.46518610741358" lon="11.065447227113246" id="-15329">
		<tag k="alt_name" v="Melby nedre;Søndre Melby" />
		<tag k="name" v="Nedre Melby" />
=======
<osm generator="osmapis" version="0.6">
	<node id="-268284" lat="60.4613944448" lon="10.8418638879">
		<tag k="name" v="Jonsestellet" />
		<tag k="place" v="locality" />
		<tag k="ssr:stedsnr" v="905961" />
	</node>
	<node id="-268273" lat="60.4762722196" lon="11.0359444416">
		<tag k="name" v="Skjelstad" />
		<tag k="place" v="farm" />
		<tag k="ssr:stedsnr" v="856718" />
	</node>
	<node id="-268272" lat="60.3514138908" lon="11.0050972268">
		<tag k="name" v="Grindbråten" />
		<tag k="place" v="farm" />
		<tag k="ssr:stedsnr" v="856569" />
	</node>
	<node id="-268270" lat="60.3800888846" lon="10.9117611032">
		<tag k="name" v="Øvre Jeppedalen" />
		<tag k="place" v="farm" />
		<tag k="ssr:stedsnr" v="856604" />
	</node>
	<node id="-268268" lat="60.4679500013" lon="11.0324750025">
		<tag k="name" v="Strand" />
		<tag k="place" v="farm" />
		<tag k="ssr:stedsnr" v="855711" />
	</node>
	<node id="-268267" lat="60.4710722261" lon="11.0429694394">
		<tag k="alt_name" v="Ødemarksbakken" />
		<tag k="name" v="Lundstad" />
		<tag k="place" v="farm" />
		<tag k="ssr:stedsnr" v="855709" />
	</node>
	<node id="-268259" lat="60.3556416645" lon="10.9998833256">
		<tag k="name" v="Bekken" />
		<tag k="place" v="farm" />
		<tag k="ssr:stedsnr" v="795570" />
	</node>
	<node id="-268257" lat="60.3882722192" lon="11.039394442">
		<tag k="alt_name" v="Rud" />
		<tag k="name" v="Rud nordstuen" />
		<tag k="place" v="farm" />
		<tag k="ssr:stedsnr" v="787965" />
	</node>
	<node id="-268256" lat="60.3858055592" lon="11.0380249933">
		<tag k="name" v="Søstuen Rud" />
		<tag k="place" v="farm" />
		<tag k="ssr:stedsnr" v="787962" />
	</node>
	<node id="-268253" lat="60.440591664" lon="10.8704194378">
		<tag k="name" v="Nordgårdsvangen" />
		<tag k="place" v="locality" />
		<tag k="ssr:stedsnr" v="787419" />
	</node>
	<node id="-268251" lat="60.4791527744" lon="11.0659888802">
		<tag k="name" v="Siljuholtet" />
		<tag k="place" v="locality" />
		<tag k="ssr:stedsnr" v="916742" />
	</node>
	<node id="-268249" lat="60.4629861072" lon="10.7407222235">
		<tag k="alt_name" v="Hallum" />
		<tag k="name" v="Hallom" />
		<tag k="place" v="farm" />
		<tag k="ssr:stedsnr" v="916731" />
	</node>
	<node id="-268248" lat="60.4437333362" lon="10.8710555646">
		<tag k="name" v="Sørenga" />
		<tag k="place" v="isolated_dwelling" />
		<tag k="ssr:stedsnr" v="916695" />
	</node>
	<node id="-268247" lat="60.4454777777" lon="10.8859722133">
		<tag k="name" v="Oppgarden" />
		<tag k="place" v="locality" />
		<tag k="ssr:stedsnr" v="916693" />
	</node>
	<node id="-268246" lat="60.4336666709" lon="10.9990416646">
		<tag k="alt_name" v="Skogerud" />
		<tag k="name" v="Skaugerud" />
		<tag k="place" v="locality" />
		<tag k="ssr:stedsnr" v="916680" />
	</node>
	<node id="-268238" lat="60.3925638893" lon="11.0789944357">
		<tag k="name" v="Skogly" />
		<tag k="place" v="isolated_dwelling" />
		<tag k="ssr:stedsnr" v="770880" />
	</node>
	<node id="-268234" lat="60.4868305539" lon="10.9614138892">
		<tag k="name" v="Nydalen" />
		<tag k="place" v="farm" />
		<tag k="ssr:stedsnr" v="770058" />
	</node>
	<node id="-268233" lat="60.4390916657" lon="11.0557388905">
		<tag k="name" v="Haug" />
		<tag k="place" v="farm" />
		<tag k="ssr:stedsnr" v="769738" />
	</node>
	<node id="-268232" lat="60.4516138889" lon="10.88930833">
		<tag k="name" v="Husværbråtan" />
		<tag k="place" v="locality" />
		<tag k="ssr:stedsnr" v="768268" />
	</node>
	<node id="-268227" lat="60.3852166689" lon="11.0123833423">
		<tag k="name" v="Smørbukkhytta" />
		<tag k="place" v="isolated_dwelling" />
		<tag k="ssr:stedsnr" v="908593" />
	</node>
	<node id="-268218" lat="60.4656805561" lon="10.7720777747">
		<tag k="alt_name" v="Osttjennshytta" />
		<tag k="name" v="Osttjennstua" />
		<tag k="place" v="isolated_dwelling" />
		<tag k="ssr:stedsnr" v="734713" />
	</node>
	<node id="-268216" lat="60.4692638879" lon="11.0507888822">
		<tag k="name" v="Oreholtet" />
		<tag k="place" v="farm" />
		<tag k="ssr:stedsnr" v="734709" />
	</node>
	<node id="-268211" lat="60.4660803808" lon="11.0645072957">
		<tag k="fixme" v="consider place=hamlet" />
		<tag k="name" v="Melby" />
		<tag k="place" v="farm" />
		<tag k="ssr:stedsnr" v="725178" />
	</node>
	<node id="-268210" lat="60.4774000035" lon="11.0568166712">
		<tag k="name" v="Hytta" />
		<tag k="place" v="isolated_dwelling" />
		<tag k="ssr:stedsnr" v="725175" />
	</node>
	<node id="-268208" lat="60.4549222217" lon="10.8985027784">
		<tag k="name" v="Maritrud" />
		<tag k="place" v="locality" />
		<tag k="ssr:stedsnr" v="724634" />
	</node>
	<node id="-268204" lat="60.4035972188" lon="11.0850888843">
		<tag k="name" v="Hammerstua" />
		<tag k="place" v="farm" />
		<tag k="ssr:stedsnr" v="892749" />
	</node>
	<node id="-268199" lat="60.3605416649" lon="11.0946861024">
		<tag k="name" v="Lomtjernstua" />
		<tag k="place" v="isolated_dwelling" />
		<tag k="ssr:stedsnr" v="892542" />
	</node>
	<node id="-268194" lat="60.4443638883" lon="11.0234416699">
		<tag k="name" v="Haug" />
		<tag k="place" v="farm" />
		<tag k="ssr:stedsnr" v="891755" />
	</node>
	<node id="-268192" lat="60.4542694467" lon="11.0482611161">
		<tag k="amenity" v="school" />
		<tag k="name" v="Strømmen skole" />
		<tag k="ssr:stedsnr" v="891536" />
	</node>
	<node id="-268188" lat="60.4873944452" lon="10.9959055585">
		<tag k="name" v="Solbakken" />
		<tag k="place" v="farm" />
		<tag k="ssr:stedsnr" v="891063" />
	</node>
	<node id="-268186" lat="60.5053916686" lon="11.0241666687">
		<tag k="name" v="Garsjøhytta" />
		<tag k="place" v="isolated_dwelling" />
		<tag k="ssr:stedsnr" v="891029" />
	</node>
	<node id="-268182" lat="60.3450249996" lon="11.0153277725">
		<tag k="name" v="Nedre Holen" />
		<tag k="place" v="farm" />
		<tag k="ssr:stedsnr" v="889764" />
	</node>
	<node id="-268179" lat="60.4735805568" lon="11.0701944477">
		<tag k="fixme" v="multiple name tags, choose one and add the other to alt_name" />
		<tag k="name" v="Stuen;Bergli;Solsrudstuen" />
		<tag k="old_name" v="Bergebakken" />
		<tag k="place" v="farm" />
		<tag k="ssr:stedsnr" v="687716" />
	</node>
	<node id="-268178" lat="60.4252749958" lon="11.0636083334">
		<tag k="name" v="Nystua" />
		<tag k="place" v="farm" />
		<tag k="ssr:stedsnr" v="674615" />
	</node>
	<node id="-268177" lat="60.4175527765" lon="11.0622277793">
		<tag k="name" v="Knaienga" />
		<tag k="place" v="farm" />
		<tag k="ssr:stedsnr" v="674609" />
	</node>
	<node id="-268176" lat="60.413699997" lon="10.9071944523">
		<tag k="alt_name" v="Sørseterstua" />
		<tag k="historic" v="shieling" />
		<tag k="name" v="Sørsæterstua" />
		<tag k="place" v="locality" />
		<tag k="ssr:stedsnr" v="674608" />
	</node>
	<node id="-268175" lat="60.4126055549" lon="10.9561472194">
		<tag k="alt_name" v="Knaisætra" />
		<tag k="historic" v="shieling" />
		<tag k="name" v="Knaisetra" />
		<tag k="place" v="locality" />
		<tag k="ssr:stedsnr" v="674607" />
	</node>
	<node id="-268171" lat="60.4481083378" lon="10.7252555575">
		<tag k="alt_name" v="Falla østre" />
		<tag k="name" v="Østre Falla" />
		<tag k="place" v="locality" />
		<tag k="ssr:stedsnr" v="666461" />
	</node>
	<node id="-268170" lat="60.4465416628" lon="10.7943388814">
		<tag k="name" v="Tollan" />
		<tag k="place" v="locality" />
		<tag k="ssr:stedsnr" v="666420" />
	</node>
	<node id="-268162" lat="60.427338893" lon="11.066969443">
		<tag k="name" v="Hulderhaugen" />
		<tag k="place" v="farm" />
		<tag k="ssr:stedsnr" v="662453" />
	</node>
	<node id="-268161" lat="60.4579916708" lon="10.8456527692">
		<tag k="name" v="Simarud" />
		<tag k="place" v="farm" />
		<tag k="ssr:stedsnr" v="734696" />
	</node>
	<node id="-268159" lat="60.4521500002" lon="11.0561500087">
		<tag k="name" v="Bråtalykkja" />
		<tag k="place" v="farm" />
		<tag k="ssr:stedsnr" v="734685" />
	</node>
	<node id="-268154" lat="60.4130000016" lon="11.0610111163">
		<tag k="name" v="Prestegardshagan" />
		<tag k="place" v="quarter" />
		<tag k="ssr:stedsnr" v="734645" />
	</node>
	<node id="-268152" lat="60.3967861089" lon="11.0783722155">
		<tag k="name" v="Hammersborg" />
		<tag k="place" v="farm" />
		<tag k="ssr:stedsnr" v="734623" />
	</node>
	<node id="-268151" lat="60.4060916688" lon="11.0465027732">
		<tag k="name" v="Nordre Lundby" />
		<tag k="place" v="farm" />
		<tag k="ssr:stedsnr" v="648891" />
	</node>
	<node id="-268150" lat="60.4057055521" lon="11.0457888827">
		<tag k="name" v="Søndre Lundby" />
		<tag k="place" v="farm" />
		<tag k="ssr:stedsnr" v="648888" />
	</node>
	<node id="-268148" lat="60.3710555529" lon="10.9217694444">
		<tag k="name" v="Lia" />
		<tag k="place" v="locality" />
		<tag k="ssr:stedsnr" v="734594" />
	</node>
	<node id="-268147" lat="60.3630638898" lon="11.0735416692">
		<tag k="name" v="Østerudhytta" />
		<tag k="place" v="isolated_dwelling" />
		<tag k="ssr:stedsnr" v="734581" />
	</node>
	<node id="-268139" lat="60.4521749967" lon="10.712761118">
		<tag k="alt_name" v="Haugenseter" />
		<tag k="historic" v="shieling" />
		<tag k="name" v="Fallhaugsætra" />
		<tag k="place" v="locality" />
		<tag k="ssr:stedsnr" v="734260" />
	</node>
	<node id="-268138" lat="60.4538916635" lon="10.8717111139">
		<tag k="name" v="Hanserud" />
		<tag k="place" v="locality" />
		<tag k="ssr:stedsnr" v="647314" />
	</node>
	<node id="-268136" lat="60.4634277742" lon="10.7136027828">
		<tag k="name" v="Røsåsberget" />
		<tag k="place" v="locality" />
		<tag k="ssr:stedsnr" v="734220" />
	</node>
	<node id="-268132" lat="60.486730553" lon="11.0724972179">
		<tag k="name" v="Melby hyttefelt" />
		<tag k="place" v="neighbourhood" />
		<tag k="ssr:stedsnr" v="770004" />
	</node>
	<node id="-268130" lat="60.4311055588" lon="11.0755500064">
		<tag k="name" v="Bruhaug" />
		<tag k="place" v="farm" />
		<tag k="ssr:stedsnr" v="727452" />
	</node>
	<node id="-268126" lat="60.467619448" lon="10.9886527816">
		<tag k="name" v="Glabak" />
		<tag k="place" v="locality" />
		<tag k="ssr:stedsnr" v="725862" />
	</node>
	<node id="-268125" lat="60.4531222203" lon="10.9050694372">
		<tag k="name" v="Marka" />
		<tag k="place" v="locality" />
		<tag k="ssr:stedsnr" v="724635" />
	</node>
	<node id="-268124" lat="60.4593444479" lon="10.7299777817">
		<tag k="name" v="Nedre Røsåsen" />
		<tag k="place" v="farm" />
		<tag k="ssr:stedsnr" v="723899" />
	</node>
	<node id="-268117" lat="60.4448861084" lon="10.7126500012">
		<tag k="alt_name" v="Julabo" />
		<tag k="name" v="Jularbo" />
		<tag k="place" v="isolated_dwelling" />
		<tag k="ssr:stedsnr" v="613226" />
	</node>
	<node id="-268115" lat="60.4979444423" lon="11.0762527829">
		<tag k="name" v="Bergvatn" />
		<tag k="place" v="farm" />
		<tag k="ssr:stedsnr" v="612746" />
	</node>
	<node id="-268114" lat="60.4702250005" lon="11.0759027721">
		<tag k="name" v="Melbybråten" />
		<tag k="place" v="farm" />
		<tag k="ssr:stedsnr" v="612705" />
	</node>
	<node id="-268113" lat="60.3836138895" lon="11.079222218">
		<tag k="fixme" v="multiple name tags, choose one and add the other to alt_name" />
		<tag k="name" v="Nordre Eidsæter;Nordsetra" />
		<tag k="place" v="farm" />
		<tag k="ssr:stedsnr" v="612592" />
	</node>
	<node id="-268110" lat="60.3771444452" lon="11.02349722">
		<tag k="building" v="industrial" />
		<tag k="industrial" v="factory" />
		<tag k="name" v="Rud sag" />
		<tag k="ssr:stedsnr" v="612578" />
	</node>
	<node id="-268109" lat="60.3768888849" lon="11.0807888832">
		<tag k="alt_name" v="Seterbråtan" />
		<tag k="name" v="Sæterbråten" />
		<tag k="place" v="farm" />
		<tag k="ssr:stedsnr" v="612577" />
	</node>
	<node id="-268105" lat="60.3843749996" lon="11.0318194498">
		<tag k="name" v="Dagali" />
		<tag k="place" v="farm" />
		<tag k="ssr:stedsnr" v="604979" />
	</node>
	<node id="-268093" lat="60.4516861144" lon="10.8398055585">
		<tag k="name" v="Nedre Østbråtan" />
		<tag k="place" v="locality" />
		<tag k="ssr:stedsnr" v="586307" />
	</node>
	<node id="-268088" lat="60.4080888868" lon="11.036930552">
		<tag k="alt_name" v="Rønnestuen" />
		<tag k="name" v="Rønnestua" />
		<tag k="place" v="farm" />
		<tag k="ssr:stedsnr" v="709886" />
	</node>
	<node id="-268084" lat="60.4393333366" lon="11.0638777753">
		<tag k="name" v="Hagaholtet" />
		<tag k="place" v="quarter" />
		<tag k="ssr:stedsnr" v="709739" />
	</node>
	<node id="-268083" lat="60.4473694452" lon="11.044900001">
		<tag k="leisure" v="pitch" />
		<tag k="name" v="Hurdal hestesenter" />
		<tag k="ssr:stedsnr" v="709733" />
	</node>
	<node id="-268073" lat="60.4347333308" lon="10.9154222149">
		<tag k="name" v="Taraldsetra" />
		<tag k="place" v="locality" />
		<tag k="ssr:stedsnr" v="709206" />
	</node>
	<node id="-268069" lat="60.4589499997" lon="11.0585583372">
		<tag k="fixme" v="consider place=hamlet" />
		<tag k="name" v="Nedre Ødemark" />
		<tag k="place" v="farm" />
		<tag k="ssr:stedsnr" v="709145" />
	</node>
	<node id="-268065" lat="60.4836250004" lon="11.0029361059">
		<tag k="name" v="Slåttvang" />
		<tag k="place" v="farm" />
		<tag k="ssr:stedsnr" v="709058" />
	</node>
	<node id="-268063" lat="60.4881472202" lon="10.9560166586">
		<tag k="name" v="Baronbakken" />
		<tag k="place" v="farm" />
		<tag k="ssr:stedsnr" v="709013" />
	</node>
	<node id="-268061" lat="60.4457472208" lon="10.8497194477">
		<tag k="name" v="Brenna" />
		<tag k="place" v="locality" />
		<tag k="ssr:stedsnr" v="708326" />
	</node>
	<node id="-268059" lat="60.3447888857" lon="11.0142972167">
		<tag k="name" v="Øvre Holen" />
		<tag k="place" v="farm" />
		<tag k="ssr:stedsnr" v="707776" />
	</node>
	<node id="-268054" lat="60.454669448" lon="10.7571666609">
		<tag k="name" v="Søndre Skimten" />
		<tag k="place" v="farm" />
		<tag k="ssr:stedsnr" v="544456" />
	</node>
	<node id="-268044" lat="60.5025361126" lon="11.0767111068">
		<tag k="name" v="Nord-Bergvatn" />
		<tag k="place" v="hamlet" />
		<tag k="ssr:stedsnr" v="527153" />
	</node>
	<node id="-268037" lat="60.480677781" lon="11.0227722305">
		<tag k="name" v="Lysgårdslia" />
		<tag k="place" v="hamlet" />
		<tag k="ssr:stedsnr" v="527013" />
	</node>
	<node id="-268036" lat="60.4835305573" lon="11.0598972252">
		<tag k="name" v="Seteråsbrua" />
		<tag k="place" v="farm" />
		<tag k="ssr:stedsnr" v="527011" />
	</node>
	<node id="-268034" lat="60.3971000021" lon="11.0773416662">
		<tag k="name" v="Hurdalsenteret" />
		<tag k="ssr:stedsnr" v="687940" />
		<tag k="tourism" v="hotel" />
	</node>
	<node id="-268029" lat="60.4751111156" lon="11.0189694416">
		<tag k="name" v="Gulliksrud" />
		<tag k="place" v="farm" />
		<tag k="ssr:stedsnr" v="674717" />
	</node>
	<node id="-268028" lat="60.424691668" lon="10.9671722312">
		<tag k="name" v="Øvre Lykkja" />
		<tag k="place" v="farm" />
		<tag k="ssr:stedsnr" v="674637" />
	</node>
	<node id="-268026" lat="60.4174416665" lon="11.087211118">
		<tag k="name" v="Bundli" />
>>>>>>> e1d4bc35ff8a6074a6f2e91616a996b547c36f15
		<tag k="place" v="farm" />
		<tag k="ssr:stedsnr" v="674602" />
	</node>
<<<<<<< HEAD
	<node lat="60.48705555212277" lon="10.977811119724997" id="-15333">
		<tag k="name" v="Rogne" />
		<tag k="place" v="isolated_dwelling" />
		<tag k="ssr:stedsnr" v="431740" />
	</node>
	<node lat="60.48553055511651" lon="11.02025277569696" id="-15334">
		<tag k="name" v="Rønningen" />
		<tag k="place" v="farm" />
		<tag k="ssr:stedsnr" v="431743" />
	</node>
	<node lat="60.45370555776563" lon="11.044041661847412" id="-15336">
		<tag k="name" v="Lykkja" />
=======
	<node id="-268025" lat="60.4885499986" lon="11.0182499993">
		<tag k="alt_name" v="Garsjø" />
		<tag k="name" v="Garsjøen" />
		<tag k="place" v="farm" />
		<tag k="ssr:stedsnr" v="673728" />
	</node>
	<node id="-268024" lat="60.4588472246" lon="10.7420277705">
		<tag k="alt_name" v="Røsåsbråtan" />
		<tag k="name" v="Røsåsbråten" />
>>>>>>> e1d4bc35ff8a6074a6f2e91616a996b547c36f15
		<tag k="place" v="farm" />
		<tag k="ssr:stedsnr" v="673699" />
	</node>
<<<<<<< HEAD
	<node lat="60.44675278083142" lon="10.87637777872606" id="-15337">
		<tag k="name" v="Nordenga" />
		<tag k="place" v="farm" />
		<tag k="ssr:stedsnr" v="431694" />
	</node>
	<node lat="60.438544445489555" lon="10.831591662556644" id="-15341">
		<tag k="alt_name" v="Lisætra" />
		<tag k="historic" v="shieling" />
		<tag k="name" v="Lisetra" />
		<tag k="place" v="isolated_dwelling" />
		<tag k="ssr:stedsnr" v="491662" />
	</node>
	<node lat="60.350422225532284" lon="11.005816675587896" id="-15343">
		<tag k="name" v="Myrvoll" />
		<tag k="place" v="farm" />
		<tag k="ssr:stedsnr" v="492478" />
	</node>
	<node lat="60.36212499663869" lon="10.996402782854133" id="-15344">
		<tag k="name" v="Bakken" />
		<tag k="place" v="farm" />
		<tag k="ssr:stedsnr" v="492492" />
	</node>
	<node lat="60.35732500078307" lon="11.062749992042209" id="-15345">
		<tag k="name" v="Bogen" />
		<tag k="place" v="farm" />
		<tag k="ssr:stedsnr" v="492495" />
	</node>
	<node lat="60.414144447705965" lon="11.086019448043723" id="-15347">
		<tag k="name" v="Søndre Bundli" />
		<tag k="place" v="farm" />
		<tag k="ssr:stedsnr" v="492567" />
	</node>
	<node lat="60.444119445282624" lon="11.034766661973068" id="-15349">
		<tag k="name" v="Jensrud" />
		<tag k="place" v="farm" />
		<tag k="ssr:stedsnr" v="673658" />
	</node>
	<node lat="60.43827499751075" lon="11.042599993969574" id="-15350">
		<tag k="name" v="Holtet" />
		<tag k="place" v="farm" />
		<tag k="ssr:stedsnr" v="673659" />
	</node>
	<node lat="60.43936667076534" lon="10.972147216192141" id="-15351">
		<tag k="alt_name" v="Gjødingeseterkroken" />
		<tag k="name" v="Kroken" />
		<tag k="place" v="farm" />
		<tag k="ssr:stedsnr" v="673661" />
	</node>
	<node lat="60.452352775033816" lon="11.06539999561587" id="-15352">
		<tag k="name" v="Tømte" />
		<tag k="place" v="farm" />
		<tag k="ssr:stedsnr" v="673667" />
	</node>
	<node lat="60.45280555646996" lon="11.032366663141953" id="-15353">
		<tag k="alt_name" v="Slåttbråtan" />
		<tag k="name" v="Slåttbråten" />
		<tag k="place" v="farm" />
		<tag k="ssr:stedsnr" v="673670" />
	</node>
	<node lat="60.384430557981" lon="10.971927770074416" id="-15355">
		<tag k="alt_name" v="Olufhytta" />
		<tag k="name" v="Olufstua" />
		<tag k="place" v="isolated_dwelling" />
		<tag k="ssr:stedsnr" v="673586" />
	</node>
	<node lat="60.447980581055376" lon="10.719990397120648" id="-15357">
		<tag k="alt_name" v="Bentefaldet" />
=======
	<node id="-268022" lat="60.4543111076" lon="10.8068972165">
		<tag k="name" v="Sibilrud" />
		<tag k="place" v="farm" />
		<tag k="ssr:stedsnr" v="673685" />
	</node>
	<node id="-268021" lat="60.448005553" lon="10.7198138924">
		<tag k="alt_name" v="Bentefaldet" />
		<tag k="fixme" v="consider place=hamlet" />
>>>>>>> e1d4bc35ff8a6074a6f2e91616a996b547c36f15
		<tag k="name" v="Falla" />
		<tag k="place" v="farm" />
		<tag k="ssr:stedsnr" v="673676" />
	</node>
<<<<<<< HEAD
	<node lat="60.45431110757508" lon="10.806897216485675" id="-15358">
		<tag k="name" v="Sibilrud" />
		<tag k="place" v="farm" />
		<tag k="ssr:stedsnr" v="673685" />
	</node>
	<node lat="60.45884722460398" lon="10.74202777045484" id="-15360">
		<tag k="alt_name" v="Røsåsbråtan" />
		<tag k="name" v="Røsåsbråten" />
		<tag k="place" v="farm" />
		<tag k="ssr:stedsnr" v="673699" />
	</node>
	<node lat="60.42469166803591" lon="10.967172231168187" id="-15365">
		<tag k="name" v="Øvre Lykkja" />
		<tag k="place" v="farm" />
		<tag k="ssr:stedsnr" v="674637" />
	</node>
	<node lat="60.38615468945289" lon="11.03958136886239" id="-15391">
		<tag k="alt_name" v="Rudsgardane" />
		<tag k="fixme" v="consider place=hamlet" />
		<tag k="name" v="Rudsgardene" />
		<tag k="place" v="farm" />
		<tag k="ssr:stedsnr" v="491594" />
	</node>
	<node lat="60.46005000134279" lon="10.79843333925461" id="-15393">
		<tag k="name" v="Dalen" />
		<tag k="place" v="farm" />
		<tag k="ssr:stedsnr" v="491704" />
	</node>
	<node lat="60.411261109136355" lon="11.039780551436461" id="-15397">
		<tag k="name" v="Lundemo" />
		<tag k="place" v="farm" />
		<tag k="ssr:stedsnr" v="491626" />
	</node>
	<node lat="60.447347225089786" lon="10.86966388677641" id="-15398">
		<tag k="alt_name" v="Elvebakken" />
		<tag k="name" v="Elvbakken" />
		<tag k="place" v="farm" />
		<tag k="ssr:stedsnr" v="491670" />
	</node>
	<node lat="60.44150555952209" lon="10.781338895779653" id="-15400">
		<tag k="loc_name" v="Tuvslistua" />
		<tag k="name" v="Tuvlistua" />
		<tag k="place" v="isolated_dwelling" />
		<tag k="ssr:stedsnr" v="491673" />
	</node>
	<node lat="60.46843888597079" lon="11.039516657921322" id="-15401">
		<tag k="name" v="Flaen" />
		<tag k="place" v="farm" />
		<tag k="ssr:stedsnr" v="491694" />
	</node>
	<node lat="60.44960000267443" lon="10.861375002991652" id="-15404">
		<tag k="name" v="Karigjerdinga" />
		<tag k="place" v="locality" />
		<tag k="ssr:stedsnr" v="526277" />
	</node>
	<node lat="60.45128055193707" lon="10.848472227063882" id="-15405">
		<tag k="name" v="Sålerud" />
		<tag k="place" v="locality" />
		<tag k="ssr:stedsnr" v="526282" />
	</node>
	<node lat="60.48353055733793" lon="11.059897225202779" id="-15407">
		<tag k="name" v="Seteråsbrua" />
		<tag k="place" v="farm" />
		<tag k="ssr:stedsnr" v="527011" />
	</node>
	<node lat="60.48067778103269" lon="11.022772230472283" id="-15408">
		<tag k="name" v="Lysgårdslia" />
		<tag k="place" v="hamlet" />
		<tag k="ssr:stedsnr" v="527013" />
	</node>
	<node lat="60.48285555177126" lon="11.07383334085773" id="-15410">
		<tag k="name" v="Røbekken hyttefelt" />
		<tag k="place" v="neighbourhood" />
		<tag k="ssr:stedsnr" v="527027" />
	</node>
	<node lat="60.473580556821275" lon="11.070194447712785" id="-15426">
		<tag k="fixme" v="multiple name tags, choose one and add the other to alt_name" />
		<tag k="name" v="Stuen;Solsrudstuen;Bergli" />
		<tag k="old_name" v="Bergebakken" />
		<tag k="place" v="farm" />
		<tag k="ssr:stedsnr" v="687716" />
	</node>
	<node lat="60.339300003704345" lon="11.093902773278774" id="-15427">
		<tag k="name" v="Langton" />
		<tag k="place" v="locality" />
		<tag k="ssr:stedsnr" v="552113" />
	</node>
	<node lat="60.367749995993066" lon="10.9943499918471" id="-15428">
		<tag k="name" v="Tajet" />
		<tag k="place" v="farm" />
		<tag k="ssr:stedsnr" v="552607" />
	</node>
	<node lat="60.371425001738956" lon="10.924638885630465" id="-15429">
		<tag k="name" v="Kroken" />
		<tag k="place" v="isolated_dwelling" />
		<tag k="ssr:stedsnr" v="552608" />
	</node>
	<node lat="60.376433330761365" lon="11.054127777699986" id="-15430">
		<tag k="name" v="Haugnes" />
		<tag k="place" v="farm" />
		<tag k="ssr:stedsnr" v="552616" />
	</node>
	<node lat="60.37860833143429" lon="10.913722222544576" id="-15431">
		<tag k="name" v="Nedre Jeppedalen" />
		<tag k="place" v="isolated_dwelling" />
		<tag k="ssr:stedsnr" v="552623" />
	</node>
	<node lat="60.43212222454289" lon="11.094994443297884" id="-15433">
		<tag k="name" v="Storhoggstua" />
		<tag k="place" v="locality" />
		<tag k="ssr:stedsnr" v="552513" />
	</node>
	<node lat="60.45168611437564" lon="10.839805558456886" id="-15437">
		<tag k="name" v="Nedre Østbråtan" />
		<tag k="place" v="locality" />
		<tag k="ssr:stedsnr" v="586307" />
	</node>
	<node lat="60.433624999225714" lon="10.91255833089894" id="-15442">
		<tag k="name" v="Hansebakken" />
		<tag k="place" v="locality" />
		<tag k="ssr:stedsnr" v="587206" />
	</node>
	<node lat="60.46020833123291" lon="10.727025003492923" id="-15450">
		<tag k="name" v="Øvre Røsåsen" />
		<tag k="place" v="farm" />
		<tag k="ssr:stedsnr" v="601912" />
	</node>
	<node lat="60.44007500041391" lon="10.854686118992575" id="-15459">
		<tag k="name" v="Skablandstua" />
		<tag k="place" v="isolated_dwelling" />
		<tag k="ssr:stedsnr" v="612668" />
	</node>
	<node lat="60.421649995964756" lon="11.08412499979149" id="-15463">
		<tag k="name" v="Nordenga" />
		<tag k="place" v="farm" />
		<tag k="ssr:stedsnr" v="613602" />
	</node>
	<node lat="60.42322207251722" lon="11.06602383505081" id="-15464">
		<tag k="fixme" v="consider place=hamlet" />
		<tag k="name" v="Knai" />
		<tag k="old_name" v="Knain" />
		<tag k="place" v="farm" />
		<tag k="ssr:stedsnr" v="613605" />
	</node>
	<node lat="60.35314999768051" lon="11.002958336926243" id="-15465">
		<tag k="fixme" v="consider place=hamlet" />
		<tag k="name" v="Rustaden" />
		<tag k="place" v="village" />
		<tag k="ssr:stedsnr" v="626954" />
	</node>
	<node lat="60.45389166347538" lon="10.871711113882645" id="-15468">
		<tag k="name" v="Hanserud" />
		<tag k="place" v="locality" />
		<tag k="ssr:stedsnr" v="647314" />
	</node>
	<node lat="60.49973610842426" lon="10.99225833303465" id="-15469">
		<tag k="name" v="Skålerud" />
		<tag k="place" v="locality" />
		<tag k="ssr:stedsnr" v="648008" />
	</node>
	<node lat="60.488474995933245" lon="10.966155555381087" id="-15470">
		<tag k="name" v="Dalabråtan" />
		<tag k="place" v="locality" />
		<tag k="ssr:stedsnr" v="648013" />
	</node>
	<node lat="60.49194999793446" lon="11.00841945183868" id="-15471">
		<tag k="name" v="Øvre Tømta" />
		<tag k="place" v="farm" />
		<tag k="ssr:stedsnr" v="648015" />
	</node>
	<node lat="60.46685278177836" lon="11.0806694506362" id="-15474">
		<tag k="name" v="Lukasrud" />
		<tag k="place" v="locality" />
		<tag k="ssr:stedsnr" v="648245" />
	</node>
	<node lat="60.40570555208619" lon="11.045788882703205" id="-15477">
		<tag k="name" v="Søndre Lundby" />
		<tag k="place" v="farm" />
		<tag k="ssr:stedsnr" v="648888" />
	</node>
	<node lat="60.4060916687683" lon="11.046502773160135" id="-15478">
		<tag k="name" v="Nordre Lundby" />
		<tag k="place" v="farm" />
		<tag k="ssr:stedsnr" v="648891" />
	</node>
	<node lat="60.34478888574145" lon="11.014297216672889" id="-15480">
		<tag k="name" v="Øvre Holen" />
		<tag k="place" v="farm" />
		<tag k="ssr:stedsnr" v="707776" />
	</node>
	<node lat="60.483625000408395" lon="11.00293610593993" id="-15481">
		<tag k="name" v="Slåttvang" />
		<tag k="place" v="farm" />
		<tag k="ssr:stedsnr" v="709058" />
	</node>
	<node lat="60.4596818340848" lon="11.059693635548435" id="-15485">
		<tag k="fixme" v="consider place=hamlet" />
		<tag k="name" v="Nedre Ødemark" />
		<tag k="place" v="farm" />
		<tag k="ssr:stedsnr" v="709145" />
	</node>
	<node lat="60.43473333079328" lon="10.915422214884387" id="-15489">
		<tag k="name" v="Taraldsetra" />
		<tag k="place" v="locality" />
		<tag k="ssr:stedsnr" v="709206" />
	</node>
	<node lat="60.3802833330358" lon="11.031475007922447" id="-15496">
		<tag k="name" v="Holmen" />
		<tag k="place" v="farm" />
		<tag k="ssr:stedsnr" v="665613" />
	</node>
	<node lat="60.447369445244654" lon="11.044900001002393" id="-15499">
		<tag k="leisure" v="pitch" />
		<tag k="name" v="Hurdal hestesenter" />
		<tag k="ssr:stedsnr" v="709733" />
	</node>
	<node lat="60.43933333663536" lon="11.063877775280156" id="-15500">
		<tag k="name" v="Hagaholtet" />
		<tag k="place" v="quarter" />
		<tag k="ssr:stedsnr" v="709739" />
	</node>
	<node lat="60.409008336796624" lon="11.033775002229792" id="-15506">
		<tag k="name" v="Vestlund" />
		<tag k="place" v="farm" />
		<tag k="ssr:stedsnr" v="673609" />
	</node>
	<node lat="60.43578055658927" lon="11.049280551469009" id="-15507">
		<tag k="alt_name" v="Gråterud" />
		<tag k="name" v="Gråtrud" />
		<tag k="place" v="farm" />
		<tag k="ssr:stedsnr" v="673648" />
	</node>
	<node lat="60.38048333222668" lon="11.074466669702781" id="-15509">
		<tag k="loc_name" v="Nedsetra" />
		<tag k="name" v="Vestre Eidsæter" />
		<tag k="place" v="farm" />
		<tag k="ssr:stedsnr" v="673566" />
	</node>
	<node lat="60.48873580600515" lon="11.01808089976903" id="-15512">
		<tag k="alt_name" v="Garsjø" />
		<tag k="fixme" v="consider place=hamlet" />
		<tag k="name" v="Garsjøen" />
		<tag k="place" v="farm" />
		<tag k="ssr:stedsnr" v="673728" />
	</node>
	<node lat="60.5053916685758" lon="11.024166668730006" id="-15513">
		<tag k="name" v="Garsjøhytta" />
		<tag k="place" v="isolated_dwelling" />
		<tag k="ssr:stedsnr" v="891029" />
	</node>
	<node lat="60.412605554857535" lon="10.956147219381558" id="-15515">
		<tag k="alt_name" v="Knaisætra" />
		<tag k="historic" v="shieling" />
		<tag k="name" v="Knaisetra" />
		<tag k="place" v="isolated_dwelling" />
		<tag k="ssr:stedsnr" v="674607" />
	</node>
	<node lat="60.413699996982984" lon="10.907194452274377" id="-15516">
		<tag k="alt_name" v="Sørseterstua" />
		<tag k="historic" v="shieling" />
		<tag k="name" v="Sørsæterstua" />
		<tag k="place" v="isolated_dwelling" />
		<tag k="ssr:stedsnr" v="674608" />
	</node>
	<node lat="60.41755277652148" lon="11.062227779256734" id="-15517">
		<tag k="name" v="Knaienga" />
		<tag k="place" v="farm" />
		<tag k="ssr:stedsnr" v="674609" />
	</node>
	<node lat="60.425274995806376" lon="11.06360833337247" id="-15518">
		<tag k="name" v="Nystua" />
		<tag k="place" v="farm" />
		<tag k="ssr:stedsnr" v="674615" />
	</node>
	<node lat="60.41744166652543" lon="11.08721111801911" id="-15519">
		<tag k="name" v="Bundli" />
		<tag k="place" v="farm" />
		<tag k="ssr:stedsnr" v="674602" />
	</node>
	<node lat="60.47511111562872" lon="11.018969441621854" id="-15520">
		<tag k="name" v="Gulliksrud" />
		<tag k="place" v="farm" />
		<tag k="ssr:stedsnr" v="674717" />
	</node>
	<node lat="60.454269446685934" lon="11.04826111605315" id="-15523">
		<tag k="amenity" v="school" />
		<tag k="name" v="Strømmen skole" />
		<tag k="ssr:stedsnr" v="891536" />
	</node>
	<node lat="60.360541664899436" lon="11.094686102429483" id="-15526">
		<tag k="name" v="Lomtjernstua" />
		<tag k="place" v="isolated_dwelling" />
		<tag k="ssr:stedsnr" v="892542" />
	</node>
	<node lat="60.40359721875369" lon="11.08508888432081" id="-15531">
		<tag k="name" v="Hammerstua" />
		<tag k="place" v="farm" />
		<tag k="ssr:stedsnr" v="892749" />
	</node>
	<node lat="60.39710000212032" lon="11.077341666165625" id="-15533">
		<tag k="name" v="Hurdalsenteret" />
		<tag k="ssr:stedsnr" v="687940" />
		<tag k="tourism" v="hotel" />
	</node>
	<node lat="60.445747220771544" lon="10.849719447685068" id="-15536">
		<tag k="name" v="Brenna" />
		<tag k="place" v="locality" />
		<tag k="ssr:stedsnr" v="708326" />
	</node>
	<node lat="60.4881472202024" lon="10.956016658565723" id="-15538">
		<tag k="name" v="Baronbakken" />
		<tag k="place" v="farm" />
		<tag k="ssr:stedsnr" v="709013" />
	</node>
	<node lat="60.408088886807654" lon="11.036930551991121" id="-15543">
		<tag k="alt_name" v="Rønnestuen" />
		<tag k="name" v="Rønnestua" />
		<tag k="place" v="farm" />
		<tag k="ssr:stedsnr" v="709886" />
	</node>
	<node lat="60.463427774233594" lon="10.7136027827752" id="-15556">
		<tag k="name" v="Røsåsberget" />
		<tag k="place" v="locality" />
		<tag k="ssr:stedsnr" v="734220" />
	</node>
	<node lat="60.363063889832404" lon="11.073541669220338" id="-15559">
		<tag k="name" v="Østerudhytta" />
		<tag k="place" v="isolated_dwelling" />
		<tag k="ssr:stedsnr" v="734581" />
	</node>
	<node lat="60.37105555288837" lon="10.921769444402404" id="-15560">
		<tag k="name" v="Lia" />
		<tag k="place" v="locality" />
		<tag k="ssr:stedsnr" v="734594" />
	</node>
	<node lat="60.46926388788458" lon="11.050788882192602" id="-15561">
		<tag k="name" v="Oreholtet" />
		<tag k="place" v="farm" />
		<tag k="ssr:stedsnr" v="734709" />
	</node>
	<node lat="60.46568055613288" lon="10.772077774680824" id="-15563">
		<tag k="alt_name" v="Osttjennshytta" />
		<tag k="name" v="Osttjennstua" />
		<tag k="place" v="isolated_dwelling" />
		<tag k="ssr:stedsnr" v="734713" />
	</node>
	<node lat="60.45215000019068" lon="11.05615000870498" id="-15566">
		<tag k="name" v="Bråtalykkja" />
		<tag k="place" v="farm" />
		<tag k="ssr:stedsnr" v="734685" />
	</node>
	<node lat="60.457991670834225" lon="10.84565276917528" id="-15568">
		<tag k="name" v="Simarud" />
		<tag k="place" v="farm" />
		<tag k="ssr:stedsnr" v="734696" />
	</node>
	<node lat="60.44752777438003" lon="11.032691665018294" id="-15577">
		<tag k="name" v="Nedre Rognstad" />
		<tag k="place" v="farm" />
		<tag k="ssr:stedsnr" v="769751" />
	</node>
	<node lat="60.385216668908484" lon="11.012383342283712" id="-15597">
		<tag k="name" v="Smørbukkhytta" />
		<tag k="place" v="isolated_dwelling" />
		<tag k="ssr:stedsnr" v="908593" />
	</node>
	<node lat="60.46282499766039" lon="10.735202769856455" id="-15602">
		<tag k="name" v="Pålsrud" />
		<tag k="place" v="locality" />
		<tag k="ssr:stedsnr" v="783923" />
	</node>
	<node lat="60.467530556340506" lon="11.052516661935062" id="-15603">
		<tag k="name" v="Elvesvingen" />
		<tag k="place" v="farm" />
		<tag k="ssr:stedsnr" v="785148" />
	</node>
	<node lat="60.47156944691974" lon="11.01618333796507" id="-15605">
		<tag k="name" v="Nordby" />
		<tag k="place" v="farm" />
		<tag k="ssr:stedsnr" v="785162" />
	</node>
	<node lat="60.35564166449983" lon="10.999883325565964" id="-15609">
		<tag k="name" v="Bekken" />
		<tag k="place" v="farm" />
		<tag k="ssr:stedsnr" v="795570" />
	</node>
	<node lat="60.47963610831883" lon="11.01269999269017" id="-15610">
		<tag k="alt_name" v="Ringen, søndre" />
		<tag k="name" v="Sør-Ringen" />
		<tag k="place" v="farm" />
		<tag k="ssr:stedsnr" v="795710" />
	</node>
	<node lat="60.47313333658539" lon="11.026816674625179" id="-15611">
		<tag k="name" v="Elvenga" />
		<tag k="place" v="farm" />
		<tag k="ssr:stedsnr" v="795712" />
	</node>
	<node lat="60.47667499592273" lon="11.020561106338162" id="-15612">
		<tag k="name" v="Nordenga" />
		<tag k="place" v="farm" />
		<tag k="ssr:stedsnr" v="795713" />
	</node>
	<node lat="60.48561389041181" lon="10.962213897179439" id="-15614">
		<tag k="name" v="Dalen" />
		<tag k="place" v="farm" />
		<tag k="ssr:stedsnr" v="795726" />
	</node>
	<node lat="60.419625003464084" lon="10.978583342401741" id="-15616">
		<tag k="alt_name" v="Nygård" />
		<tag k="name" v="Nygard" />
		<tag k="place" v="farm" />
		<tag k="ssr:stedsnr" v="795662" />
	</node>
	<node lat="60.42256944281497" lon="10.967969452488676" id="-15617">
		<tag k="name" v="Nedre Lykkja" />
		<tag k="place" v="isolated_dwelling" />
		<tag k="ssr:stedsnr" v="795664" />
	</node>
	<node lat="60.44381944849203" lon="11.050819442306953" id="-15618">
		<tag k="name" v="Moen" />
		<tag k="place" v="farm" />
		<tag k="ssr:stedsnr" v="795669" />
	</node>
	<node lat="60.43902222651875" lon="11.059002785406358" id="-15619">
		<tag k="name" v="Moen" />
		<tag k="place" v="farm" />
		<tag k="ssr:stedsnr" v="795670" />
	</node>
	<node lat="60.4500250004635" lon="11.05997777005172" id="-15620">
		<tag k="name" v="Brattbakken" />
		<tag k="place" v="farm" />
		<tag k="ssr:stedsnr" v="795681" />
	</node>
	<node lat="60.45028611447986" lon="11.048086106017323" id="-15621">
		<tag k="amenity" v="school" />
		<tag k="name" v="Hurdal Verk Folkehøgskole" />
		<tag k="ssr:stedsnr" v="795682" />
	</node>
	<node lat="60.47915277437378" lon="11.065988880189677" id="-15624">
		<tag k="name" v="Siljuholtet" />
		<tag k="place" v="locality" />
		<tag k="ssr:stedsnr" v="916742" />
	</node>
	<node lat="60.409119447906306" lon="11.041172224457442" id="-15628">
		<tag k="alt_name" v="Nilsstuen" />
		<tag k="name" v="Nilsstua" />
		<tag k="place" v="farm" />
		<tag k="ssr:stedsnr" v="916626" />
	</node>
	<node lat="60.3779805594942" lon="11.080625005856852" id="-15632">
		<tag k="fixme" v="multiple name tags, choose one and add the other to alt_name" />
		<tag k="name" v="Søndre Eidsæter;Søsetra" />
		<tag k="place" v="farm" />
		<tag k="ssr:stedsnr" v="916578" />
	</node>
	<node lat="60.39467500367113" lon="11.077952776494552" id="-15634">
		<tag k="name" v="Nordlund" />
		<tag k="place" v="farm" />
		<tag k="ssr:stedsnr" v="916607" />
	</node>
	<node lat="60.44373333619599" lon="10.871055564627413" id="-15635">
		<tag k="name" v="Sørenga" />
		<tag k="place" v="isolated_dwelling" />
		<tag k="ssr:stedsnr" v="916695" />
	</node>
	<node lat="60.45223055428249" lon="10.86198056424158" id="-15641">
		<tag k="name" v="Myraløkka" />
		<tag k="place" v="locality" />
		<tag k="ssr:stedsnr" v="829283" />
	</node>
	<node lat="60.455694445957" lon="10.851305559273532" id="-15642">
		<tag k="name" v="Slåttbråtan" />
		<tag k="place" v="locality" />
		<tag k="ssr:stedsnr" v="829285" />
	</node>
	<node lat="60.49310277913935" lon="11.05193056051596" id="-15646">
		<tag k="name" v="Seteråsen" />
		<tag k="place" v="farm" />
		<tag k="ssr:stedsnr" v="831037" />
	</node>
	<node lat="60.45383889332805" lon="11.041122215385776" id="-15649">
		<tag k="name" v="Monsrud" />
		<tag k="place" v="farm" />
		<tag k="ssr:stedsnr" v="831493" />
	</node>
	<node lat="60.39827221798084" lon="11.07759722468716" id="-15651">
		<tag k="name" v="Fautbråten" />
		<tag k="place" v="farm" />
		<tag k="ssr:stedsnr" v="831730" />
	</node>
	<node lat="60.4376749954878" lon="10.877886119287247" id="-15659">
		<tag k="name" v="Leivstøa" />
		<tag k="place" v="isolated_dwelling" />
		<tag k="ssr:stedsnr" v="848428" />
	</node>
	<node lat="60.400049996442526" lon="11.051008339852661" id="-15661">
		<tag k="name" v="Fagerliflaen" />
		<tag k="place" v="farm" />
		<tag k="ssr:stedsnr" v="855593" />
	</node>
	<node lat="60.45880555844602" lon="11.058783326287232" id="-15663">
		<tag k="fixme" v="multiple name tags, choose one and add the other to alt_name" />
		<tag k="name" v="Nedgarden;Ødemark, søndre;Nedre Ødemark;Søndre Ødemark" />
		<tag k="place" v="farm" />
		<tag k="ssr:stedsnr" v="855701" />
	</node>
	<node lat="60.43933055188091" lon="10.704633337243706" id="-15664">
		<tag k="alt_name" v="Ellingsbråtan" />
		<tag k="name" v="Ellingbråtån" />
		<tag k="place" v="isolated_dwelling" />
		<tag k="ssr:stedsnr" v="856143" />
	</node>
	<node lat="60.38008888463499" lon="10.911761103168047" id="-15666">
		<tag k="name" v="Øvre Jeppedalen" />
		<tag k="place" v="farm" />
		<tag k="ssr:stedsnr" v="856604" />
	</node>
	<node lat="60.42060000018215" lon="11.064575001447318" id="-15668">
		<tag k="alt_name" v="Søgarden;Knai søndre;Søndre Knai" />
		<tag k="name" v="Søgarden Knai" />
		<tag k="place" v="farm" />
		<tag k="ssr:stedsnr" v="856639" />
	</node>
	<node lat="60.424853477423866" lon="11.040907156800264" id="-15669">
		<tag k="alt_name" v="Buråsen;Buraas" />
		<tag k="fixme" v="consider place=hamlet" />
		<tag k="name" v="Burås" />
		<tag k="place" v="farm" />
		<tag k="ssr:stedsnr" v="856641" />
	</node>
	<node lat="60.45372868559743" lon="10.894477567040314" id="-15670">
		<tag k="fixme" v="consider place=hamlet" />
		<tag k="name" v="Bjørtomt" />
		<tag k="place" v="farm" />
		<tag k="ssr:stedsnr" v="856681" />
	</node>
	<node lat="60.490086111708166" lon="11.002205547390627" id="-15671">
		<tag k="alt_name" v="Tomta" />
		<tag k="name" v="Tømta" />
		<tag k="place" v="farm" />
		<tag k="ssr:stedsnr" v="856732" />
	</node>
	<node lat="60.48739444519666" lon="10.995905558481125" id="-15677">
		<tag k="name" v="Solbakken" />
		<tag k="place" v="farm" />
		<tag k="ssr:stedsnr" v="891063" />
	</node>
	<node lat="60.444363888273806" lon="11.023441669911008" id="-15682">
		<tag k="name" v="Haug" />
		<tag k="place" v="farm" />
		<tag k="ssr:stedsnr" v="891755" />
	</node>
	<node lat="60.46139444482058" lon="10.841863887891307" id="-15690">
		<tag k="name" v="Jonsestellet" />
		<tag k="place" v="locality" />
		<tag k="ssr:stedsnr" v="905961" />
	</node>
	<node lat="60.462986107168234" lon="10.740722223453623" id="-15695">
		<tag k="alt_name" v="Hallum" />
		<tag k="name" v="Hallom" />
		<tag k="place" v="farm" />
		<tag k="ssr:stedsnr" v="916731" />
	</node>
	<node lat="60.49386944249922" lon="11.010377772163334" id="-15696">
		<tag k="name" v="Innleggen" />
		<tag k="place" v="farm" />
		<tag k="ssr:stedsnr" v="916765" />
	</node>
	<node lat="60.49307777526525" lon="10.73738332736818" id="-15700">
		<tag k="alt_name" v="Flårudseter" />
		<tag k="historic" v="shieling" />
		<tag k="name" v="Flårudsætra" />
		<tag k="place" v="isolated_dwelling" />
		<tag k="ssr:stedsnr" v="916772" />
	</node>
	<node lat="60.43366667087749" lon="10.999041664640679" id="-15701">
		<tag k="alt_name" v="Skogerud" />
		<tag k="name" v="Skaugerud" />
		<tag k="place" v="locality" />
		<tag k="ssr:stedsnr" v="916680" />
	</node>
	<node lat="60.44547777773638" lon="10.885972213275672" id="-15702">
		<tag k="name" v="Oppgarden" />
		<tag k="place" v="locality" />
		<tag k="ssr:stedsnr" v="916693" />
	</node>
	<node lat="60.47590555716769" lon="11.068074997457561" id="-15708">
		<tag k="name" v="Vestli" />
		<tag k="place" v="farm" />
		<tag k="ssr:stedsnr" v="952247" />
	</node>
	<node lat="60.4123833316657" lon="11.035002779900156" id="-15723">
		<tag k="name" v="Vestby" />
		<tag k="place" v="farm" />
		<tag k="ssr:stedsnr" v="952858" />
	</node>
	<node lat="60.463152777016596" lon="10.843327771512916" id="-15737">
		<tag k="loc_name" v="Stellet" />
		<tag k="name" v="Christofferstellet" />
		<tag k="place" v="locality" />
		<tag k="ssr:stedsnr" v="967815" />
	</node>
	<node lat="60.361552778812374" lon="10.971691665257763" id="-15744">
		<tag k="name" v="Heggetjennstua" />
		<tag k="place" v="isolated_dwelling" />
		<tag k="ssr:stedsnr" v="6565" />
	</node>
	<node lat="60.429680556656265" lon="10.864561109261734" id="-15746">
		<tag k="name" v="Skjeggerudstua" />
		<tag k="place" v="locality" />
		<tag k="ssr:stedsnr" v="6654" />
	</node>
	<node lat="60.445230553054785" lon="10.96424999386642" id="-15747">
		<tag k="name" v="Gjødingssætra" />
		<tag k="place" v="farm" />
		<tag k="ssr:stedsnr" v="6663" />
	</node>
	<node lat="60.44626944701915" lon="11.044555552378364" id="-15748">
		<tag k="name" v="Tangen" />
		<tag k="place" v="farm" />
		<tag k="ssr:stedsnr" v="6675" />
	</node>
	<node lat="60.454150002739645" lon="10.848002786457533" id="-15749">
		<tag k="alt_name" v="Rugroten" />
		<tag k="name" v="Rugrota" />
		<tag k="place" v="farm" />
		<tag k="ssr:stedsnr" v="6678" />
	</node>
	<node lat="60.346225002949105" lon="11.008125005926933" id="-15750">
		<tag k="alt_name" v="Finngården" />
		<tag k="name" v="Finngarden" />
		<tag k="place" v="farm" />
		<tag k="ssr:stedsnr" v="6550" />
	</node>
	<node lat="60.41650555612883" lon="11.030883324470548" id="-15751">
		<tag k="name" v="Tømte" />
		<tag k="place" v="farm" />
		<tag k="ssr:stedsnr" v="6638" />
	</node>
	<node lat="60.415030559864036" lon="11.016277773313345" id="-15752">
		<tag k="alt_name" v="Raudfossen" />
		<tag k="name" v="Raufossen" />
		<tag k="place" v="farm" />
		<tag k="ssr:stedsnr" v="6640" />
	</node>
	<node lat="60.4252694482892" lon="11.067200007248431" id="-15753">
		<tag k="alt_name" v="Nordgarden" />
		<tag k="name" v="Nergården" />
=======
	<node id="-268019" lat="60.4528055565" lon="11.0323666631">
		<tag k="alt_name" v="Slåttbråtan" />
		<tag k="name" v="Slåttbråten" />
		<tag k="place" v="farm" />
		<tag k="ssr:stedsnr" v="673670" />
	</node>
	<node id="-268018" lat="60.452352775" lon="11.0653999956">
		<tag k="name" v="Tømte" />
		<tag k="place" v="farm" />
		<tag k="ssr:stedsnr" v="673667" />
	</node>
	<node id="-268017" lat="60.4393666708" lon="10.9721472162">
		<tag k="alt_name" v="Gjødingeseterkroken" />
		<tag k="name" v="Kroken" />
		<tag k="place" v="farm" />
		<tag k="ssr:stedsnr" v="673661" />
	</node>
	<node id="-268016" lat="60.4382749975" lon="11.042599994">
		<tag k="name" v="Holtet" />
		<tag k="place" v="farm" />
		<tag k="ssr:stedsnr" v="673659" />
	</node>
	<node id="-268015" lat="60.4441194453" lon="11.034766662">
		<tag k="name" v="Jensrud" />
		<tag k="place" v="farm" />
		<tag k="ssr:stedsnr" v="673658" />
	</node>
	<node id="-268014" lat="60.4357805566" lon="11.0492805515">
		<tag k="alt_name" v="Gråterud" />
		<tag k="name" v="Gråtrud" />
		<tag k="place" v="farm" />
		<tag k="ssr:stedsnr" v="673648" />
	</node>
	<node id="-268013" lat="60.4090083368" lon="11.0337750022">
		<tag k="name" v="Vestlund" />
		<tag k="place" v="farm" />
		<tag k="ssr:stedsnr" v="673609" />
	</node>
	<node id="-268012" lat="60.384430558" lon="10.9719277701">
		<tag k="alt_name" v="Olufhytta" />
		<tag k="name" v="Olufstua" />
		<tag k="place" v="isolated_dwelling" />
		<tag k="ssr:stedsnr" v="673586" />
	</node>
	<node id="-268008" lat="60.3804833322" lon="11.0744666697">
		<tag k="loc_name" v="Nedsetra" />
		<tag k="name" v="Vestre Eidsæter" />
		<tag k="place" v="farm" />
		<tag k="ssr:stedsnr" v="673566" />
	</node>
	<node id="-267994" lat="60.3876416712" lon="10.9855499972">
		<tag k="name" v="Kollhytta" />
		<tag k="place" v="isolated_dwelling" />
		<tag k="ssr:stedsnr" v="467659" />
	</node>
	<node id="-267981" lat="60.431013891" lon="11.0710555597">
		<tag k="leisure" v="pitch" />
		<tag k="name" v="Hurdal stadion" />
		<tag k="ssr:stedsnr" v="666470" />
	</node>
	<node id="-267979" lat="60.380283333" lon="11.0314750079">
		<tag k="name" v="Holmen" />
		<tag k="place" v="farm" />
		<tag k="ssr:stedsnr" v="665613" />
	</node>
	<node id="-267973" lat="60.4744611129" lon="11.0310638917">
		<tag k="alt_name" v="Møllerfeltet" />
		<tag k="name" v="Møllefeltet" />
		<tag k="place" v="quarter" />
		<tag k="ssr:stedsnr" v="664157" />
	</node>
	<node id="-267972" lat="60.4781333338" lon="11.0222861119">
		<tag k="name" v="Garsjømoen" />
		<tag k="place" v="farm" />
		<tag k="ssr:stedsnr" v="664155" />
	</node>
	<node id="-267966" lat="60.4009472249" lon="11.0445999913">
		<tag k="name" v="Østbakken" />
		<tag k="place" v="farm" />
		<tag k="ssr:stedsnr" v="431615" />
	</node>
	<node id="-267965" lat="60.3989361111" lon="10.9252638978">
		<tag k="name" v="Bekkemyrstua" />
		<tag k="place" v="locality" />
		<tag k="ssr:stedsnr" v="431613" />
	</node>
	<node id="-267964" lat="60.3917833297" lon="11.0778555472">
		<tag k="name" v="Sandsbråten" />
		<tag k="place" v="farm" />
		<tag k="ssr:stedsnr" v="431608" />
	</node>
	<node id="-267959" lat="60.4592944468" lon="10.7353416604">
		<tag k="name" v="Stenberg" />
		<tag k="place" v="locality" />
		<tag k="ssr:stedsnr" v="419913" />
	</node>
	<node id="-267957" lat="60.4039388846" lon="11.1050833286">
		<tag k="name" v="Dalseterstua" />
		<tag k="place" v="isolated_dwelling" />
		<tag k="ssr:stedsnr" v="406776" />
	</node>
	<node id="-267951" lat="60.3777277755" lon="10.9204916608">
		<tag k="name" v="Gorobråtan" />
		<tag k="place" v="locality" />
		<tag k="ssr:stedsnr" v="406724" />
	</node>
	<node id="-267950" lat="60.4617416685" lon="11.0690833313">
		<tag k="alt_name" v="Røsrud øvre" />
		<tag k="name" v="Øvre Røsrud" />
		<tag k="place" v="farm" />
		<tag k="ssr:stedsnr" v="406222" />
	</node>
	<node id="-267946" lat="60.4806388861" lon="11.0234249976">
		<tag k="name" v="Kalvbråten" />
		<tag k="place" v="farm" />
		<tag k="ssr:stedsnr" v="406011" />
	</node>
	<node id="-267943" lat="60.3470111073" lon="11.0134000038">
		<tag k="name" v="Smedbakken" />
		<tag k="place" v="farm" />
		<tag k="ssr:stedsnr" v="404756" />
	</node>
	<node id="-267935" lat="60.4141444477" lon="11.086019448">
		<tag k="name" v="Søndre Bundli" />
		<tag k="place" v="farm" />
		<tag k="ssr:stedsnr" v="492567" />
	</node>
	<node id="-267931" lat="60.3573250008" lon="11.062749992">
		<tag k="name" v="Bogen" />
		<tag k="place" v="farm" />
		<tag k="ssr:stedsnr" v="492495" />
	</node>
	<node id="-267930" lat="60.3621249966" lon="10.9964027829">
		<tag k="name" v="Bakken" />
		<tag k="place" v="farm" />
		<tag k="ssr:stedsnr" v="492492" />
	</node>
	<node id="-267929" lat="60.3504222255" lon="11.0058166756">
		<tag k="name" v="Myrvoll" />
		<tag k="place" v="farm" />
		<tag k="ssr:stedsnr" v="492478" />
	</node>
	<node id="-267928" lat="60.4619388929" lon="10.7307527732">
		<tag k="name" v="Hagan" />
		<tag k="place" v="locality" />
		<tag k="ssr:stedsnr" v="358914" />
	</node>
	<node id="-267923" lat="60.4600500013" lon="10.7984333393">
		<tag k="name" v="Dalen" />
		<tag k="place" v="farm" />
		<tag k="ssr:stedsnr" v="491704" />
	</node>
	<node id="-267921" lat="60.468438886" lon="11.0395166579">
		<tag k="name" v="Flaen" />
		<tag k="place" v="farm" />
		<tag k="ssr:stedsnr" v="491694" />
	</node>
	<node id="-267920" lat="60.4415055595" lon="10.7813388958">
		<tag k="loc_name" v="Tuvslistua" />
		<tag k="name" v="Tuvlistua" />
		<tag k="place" v="isolated_dwelling" />
		<tag k="ssr:stedsnr" v="491673" />
	</node>
	<node id="-267918" lat="60.4473472251" lon="10.8696638868">
		<tag k="alt_name" v="Elvebakken" />
		<tag k="name" v="Elvbakken" />
		<tag k="place" v="farm" />
		<tag k="ssr:stedsnr" v="491670" />
	</node>
	<node id="-267917" lat="60.4385444455" lon="10.8315916626">
		<tag k="alt_name" v="Lisætra" />
		<tag k="historic" v="shieling" />
		<tag k="name" v="Lisetra" />
		<tag k="place" v="locality" />
		<tag k="ssr:stedsnr" v="491662" />
	</node>
	<node id="-267913" lat="60.4112611091" lon="11.0397805514">
		<tag k="name" v="Lundemo" />
		<tag k="place" v="farm" />
		<tag k="ssr:stedsnr" v="491626" />
	</node>
	<node id="-267910" lat="60.3861546895" lon="11.0395813689">
		<tag k="alt_name" v="Rudsgardane" />
		<tag k="fixme" v="consider place=hamlet" />
		<tag k="name" v="Rudsgardene" />
		<tag k="place" v="farm" />
		<tag k="ssr:stedsnr" v="491594" />
	</node>
	<node id="-267905" lat="60.443814656" lon="11.0635143598">
		<tag k="fixme" v="consider place=hamlet" />
		<tag k="name" v="Opperud" />
		<tag k="place" v="farm" />
		<tag k="ssr:stedsnr" v="345704" />
	</node>
	<node id="-267883" lat="60.4508083358" lon="11.072716668">
		<tag k="name" v="Moseter" />
		<tag k="place" v="locality" />
		<tag k="ssr:stedsnr" v="480898" />
	</node>
	<node id="-267878" lat="60.4923138864" lon="10.9695388834">
		<tag k="name" v="Bonkerud" />
		<tag k="place" v="farm" />
		<tag k="ssr:stedsnr" v="309731" />
	</node>
	<node id="-267877" lat="60.4665833327" lon="11.0668277722">
		<tag k="alt_name" v="Nordre Melby" />
		<tag k="name" v="Øvre Melby" />
		<tag k="place" v="farm" />
		<tag k="ssr:stedsnr" v="309704" />
	</node>
	<node id="-267875" lat="60.4494250037" lon="10.7854999934">
		<tag k="name" v="Valby" />
		<tag k="place" v="locality" />
		<tag k="ssr:stedsnr" v="302419" />
	</node>
	<node id="-267859" lat="60.4315055594" lon="10.8599416621">
		<tag k="name" v="Skjeggerud" />
		<tag k="place" v="locality" />
		<tag k="ssr:stedsnr" v="466188" />
	</node>
	<node id="-267854" lat="60.4615638898" lon="11.0608527805">
		<tag k="loc_name" v="Oppgarden" />
		<tag k="name" v="Øvre Ødemark" />
		<tag k="place" v="farm" />
		<tag k="ssr:stedsnr" v="466150" />
	</node>
	<node id="-267853" lat="60.4863722256" lon="10.9827000044">
		<tag k="building" v="industrial" />
		<tag k="name" v="Rognlisaga" />
		<tag k="ssr:stedsnr" v="466051" />
	</node>
	<node id="-267852" lat="60.5114194413" lon="10.7191666724">
		<tag k="historic" v="shieling" />
		<tag k="name" v="Rognholen" />
		<tag k="place" v="locality" />
		<tag k="ssr:stedsnr" v="466050" />
	</node>
	<node id="-267850" lat="60.4591083288" lon="10.8434055629">
		<tag k="name" v="Kusnarbråtan" />
		<tag k="place" v="locality" />
		<tag k="ssr:stedsnr" v="298889" />
	</node>
	<node id="-267841" lat="60.3725583314" lon="11.0804027694">
		<tag k="name" v="Langbråten" />
		<tag k="place" v="locality" />
		<tag k="ssr:stedsnr" v="285907" />
	</node>
	<node id="-267839" lat="60.397155554" lon="11.0909388874">
		<tag k="name" v="Stallen" />
		<tag k="place" v="locality" />
		<tag k="ssr:stedsnr" v="285768" />
	</node>
	<node id="-267830" lat="60.4598416652" lon="11.0653611139">
		<tag k="name" v="Nedre Røsrud" />
		<tag k="place" v="farm" />
		<tag k="ssr:stedsnr" v="239164" />
	</node>
	<node id="-267814" lat="60.3871444431" lon="11.0391972205">
		<tag k="name" v="Rud arstuen" />
		<tag k="place" v="farm" />
		<tag k="ssr:stedsnr" v="180966" />
	</node>
	<node id="-267813" lat="60.3858694422" lon="11.0291555518">
		<tag k="name" v="Rognbråtan" />
		<tag k="place" v="locality" />
		<tag k="ssr:stedsnr" v="180963" />
	</node>
	<node id="-267809" lat="60.3823805547" lon="11.0334749934">
		<tag k="building" v="industrial" />
		<tag k="industrial" v="factory" />
		<tag k="name" v="Hurdal treindustri" />
		<tag k="ssr:stedsnr" v="180553" />
	</node>
	<node id="-267804" lat="60.4829916693" lon="11.0098861065">
		<tag k="name" v="Lundgård" />
		<tag k="place" v="farm" />
		<tag k="ssr:stedsnr" v="285007" />
	</node>
	<node id="-267803" lat="60.4432361086" lon="10.998177773">
		<tag k="name" v="Haugseter" />
		<tag k="place" v="locality" />
		<tag k="ssr:stedsnr" v="178621" />
	</node>
	<node id="-267799" lat="60.4667777766" lon="11.0859583291">
		<tag k="name" v="Ekrastua" />
		<tag k="place" v="isolated_dwelling" />
		<tag k="ssr:stedsnr" v="284221" />
	</node>
	<node id="-267794" lat="60.4287083374" lon="10.9241166729">
		<tag k="name" v="Badstuenga" />
		<tag k="place" v="locality" />
		<tag k="ssr:stedsnr" v="284175" />
	</node>
	<node id="-267793" lat="60.4203611142" lon="10.9260750001">
		<tag k="name" v="Lyuholen" />
		<tag k="place" v="locality" />
		<tag k="ssr:stedsnr" v="284170" />
	</node>
	<node id="-267792" lat="60.4145472196" lon="10.9971611036">
		<tag k="name" v="Velgjort" />
		<tag k="place" v="locality" />
		<tag k="ssr:stedsnr" v="284153" />
	</node>
	<node id="-267791" lat="60.461261111" lon="11.0599805469">
		<tag k="alt_name" v="Ødemark, midtre;Nedgarden;Nedre Ødemark" />
		<tag k="name" v="Midtre Ødemark" />
		<tag k="old_name" v="Ødemark, m" />
		<tag k="place" v="farm" />
		<tag k="ssr:stedsnr" v="284152" />
	</node>
	<node id="-267785" lat="60.3408944413" lon="11.0931916617">
		<tag k="name" v="Langtonstua" />
		<tag k="place" v="isolated_dwelling" />
		<tag k="ssr:stedsnr" v="282738" />
	</node>
	<node id="-267765" lat="60.4154305539" lon="10.8796166611">
		<tag k="name" v="Svettingshytta" />
		<tag k="place" v="locality" />
		<tag k="ssr:stedsnr" v="163208" />
	</node>
	<node id="-267762" lat="60.4484333305" lon="10.8340583248">
		<tag k="fixme" v="consider place=hamlet" />
		<tag k="name" v="Skrukkelia" />
		<tag k="place" v="village" />
		<tag k="ssr:stedsnr" v="127713" />
	</node>
	<node id="-267761" lat="60.4494972253" lon="10.8279527722">
		<tag k="name" v="Lundberg" />
		<tag k="place" v="farm" />
		<tag k="ssr:stedsnr" v="127711" />
	</node>
	<node id="-267758" lat="60.3975416688" lon="11.0452194466">
		<tag k="name" v="Fagerli" />
		<tag k="place" v="farm" />
		<tag k="ssr:stedsnr" v="127634" />
	</node>
	<node id="-267747" lat="60.4858333377" lon="10.8036249986">
		<tag k="alt_name" v="Svartungshytta" />
		<tag k="name" v="Svartungstua" />
		<tag k="place" v="isolated_dwelling" />
		<tag k="ssr:stedsnr" v="249728" />
	</node>
	<node id="-267744" lat="60.4849722247" lon="10.9976499939">
		<tag k="name" v="Ringstad" />
		<tag k="place" v="farm" />
		<tag k="ssr:stedsnr" v="249706" />
	</node>
	<node id="-267740" lat="60.4499500006" lon="11.0240611173">
		<tag k="name" v="Øvre Rognstad" />
		<tag k="place" v="farm" />
		<tag k="ssr:stedsnr" v="249653" />
	</node>
	<node id="-267739" lat="60.4373555595" lon="10.8134055624">
		<tag k="alt_name" v="Liseterhytta" />
		<tag k="name" v="Lisæterstua" />
		<tag k="place" v="locality" />
		<tag k="ssr:stedsnr" v="249650" />
	</node>
	<node id="-267737" lat="60.4436611085" lon="10.973263887">
		<tag k="name" v="Enga" />
		<tag k="place" v="farm" />
		<tag k="ssr:stedsnr" v="249638" />
	</node>
	<node id="-267736" lat="60.4144555567" lon="11.0292999943">
		<tag k="name" v="Klokkermoen" />
		<tag k="place" v="quarter" />
		<tag k="ssr:stedsnr" v="249600" />
	</node>
	<node id="-267735" lat="60.4169500007" lon="11.0442499966">
		<tag k="alt_name" v="Madserud" />
		<tag k="name" v="Madsrud" />
		<tag k="place" v="farm" />
		<tag k="ssr:stedsnr" v="249597" />
	</node>
	<node id="-267733" lat="60.3698916665" lon="10.9479972154">
		<tag k="name" v="Tomta" />
		<tag k="place" v="isolated_dwelling" />
		<tag k="ssr:stedsnr" v="249550" />
	</node>
	<node id="-267732" lat="60.3685055537" lon="11.016341659">
		<tag k="name" v="Støen" />
		<tag k="place" v="isolated_dwelling" />
		<tag k="ssr:stedsnr" v="249549" />
	</node>
	<node id="-267731" lat="60.3589074263" lon="11.001646622">
		<tag k="fixme" v="consider place=hamlet" />
		<tag k="name" v="Sørgarden" />
		<tag k="place" v="farm" />
		<tag k="ssr:stedsnr" v="249540" />
	</node>
	<node id="-267730" lat="60.3594555556" lon="11.0106861076">
		<tag k="name" v="Lykkja" />
		<tag k="place" v="farm" />
		<tag k="ssr:stedsnr" v="249539" />
	</node>
	<node id="-267729" lat="60.3484166673" lon="11.0072694481">
		<tag k="name" v="Bergset" />
		<tag k="place" v="farm" />
		<tag k="ssr:stedsnr" v="249523" />
	</node>
	<node id="-267723" lat="60.352183333" lon="10.9939500087">
		<tag k="name" v="Haugen" />
		<tag k="place" v="farm" />
		<tag k="ssr:stedsnr" v="67554" />
	</node>
	<node id="-267721" lat="60.3831333319" lon="11.022488894">
		<tag k="name" v="Steinbråten" />
		<tag k="place" v="locality" />
		<tag k="ssr:stedsnr" v="241548" />
	</node>
	<node id="-267717" lat="60.4546583344" lon="10.7533305643">
		<tag k="name" v="Nordre Skimten" />
		<tag k="place" v="farm" />
		<tag k="ssr:stedsnr" v="241427" />
	</node>
	<node id="-267714" lat="60.4728222189" lon="10.9920638944">
		<tag k="name" v="Nilsbu" />
		<tag k="place" v="isolated_dwelling" />
		<tag k="ssr:stedsnr" v="239883" />
	</node>
	<node id="-267711" lat="60.4763194448" lon="10.8412166695">
		<tag k="name" v="Finnvollen" />
		<tag k="place" v="locality" />
		<tag k="ssr:stedsnr" v="239857" />
	</node>
	<node id="-267708" lat="60.4711444411" lon="11.0859833355">
		<tag k="name" v="Ekralia hyttefelt" />
		<tag k="place" v="neighbourhood" />
		<tag k="ssr:stedsnr" v="239395" />
	</node>
	<node id="-267702" lat="60.4773749963" lon="11.0102500007">
		<tag k="alt_name" v="Stenset" />
		<tag k="name" v="Steinset" />
		<tag k="place" v="farm" />
		<tag k="ssr:stedsnr" v="234723" />
	</node>
	<node id="-267701" lat="60.5141555546" lon="11.06461111">
		<tag k="name" v="Damstua" />
		<tag k="place" v="isolated_dwelling" />
		<tag k="ssr:stedsnr" v="42125" />
	</node>
	<node id="-267698" lat="60.3802972217" lon="11.0747472238">
		<tag k="loc_name" v="Eidsæter" />
		<tag k="name" v="Eidseter" />
		<tag k="place" v="hamlet" />
		<tag k="ssr:stedsnr" v="224921" />
	</node>
	<node id="-267694" lat="60.3962944441" lon="11.0914305622">
		<tag k="name" v="Jerperud" />
		<tag k="place" v="locality" />
		<tag k="ssr:stedsnr" v="224768" />
	</node>
	<node id="-267691" lat="60.4513027749" lon="11.0612555543">
		<tag k="name" v="Karinastua" />
		<tag k="place" v="isolated_dwelling" />
		<tag k="ssr:stedsnr" v="224737" />
	</node>
	<node id="-267688" lat="60.4411083299" lon="11.0478499966">
		<tag k="name" v="Furulund" />
		<tag k="place" v="farm" />
		<tag k="ssr:stedsnr" v="224706" />
	</node>
	<node id="-267686" lat="60.4376222234" lon="11.0479583341">
		<tag k="name" v="Flattum" />
		<tag k="place" v="farm" />
		<tag k="ssr:stedsnr" v="224653" />
	</node>
	<node id="-267682" lat="60.3493583306" lon="11.0196916698">
		<tag k="building" v="industrial" />
		<tag k="name" v="Rustad verksted" />
		<tag k="ssr:stedsnr" v="224274" />
	</node>
	<node id="-267675" lat="60.4246472256" lon="10.9884416618">
		<tag k="name" v="Fjellsjøsaga" />
		<tag k="place" v="locality" />
		<tag k="ssr:stedsnr" v="224161" />
	</node>
	<node id="-267674" lat="60.4274027754" lon="11.0641222311">
		<tag k="name" v="Grue" />
		<tag k="place" v="farm" />
		<tag k="ssr:stedsnr" v="224070" />
	</node>
	<node id="-267669" lat="60.4844138855" lon="11.0368194409">
		<tag k="name" v="Garsjøsetra" />
		<tag k="place" v="locality" />
		<tag k="ssr:stedsnr" v="224010" />
	</node>
	<node id="-269053" lat="60.380444448" lon="11.0274027728">
		<tag k="name" v="Rudsenga" />
		<tag k="place" v="farm" />
		<tag k="ssr:stedsnr" v="968578" />
	</node>
	<node id="-269029" lat="60.441344444" lon="11.0586972231">
		<tag k="name" v="Opperudholtet" />
		<tag k="place" v="quarter" />
		<tag k="ssr:stedsnr" v="952732" />
	</node>
	<node id="-269020" lat="60.3591416662" lon="11.0012388828">
		<tag k="name" v="Sørgarden" />
		<tag k="place" v="farm" />
		<tag k="ssr:stedsnr" v="952523" />
	</node>
	<node id="-269018" lat="60.4123833317" lon="11.0350027799">
		<tag k="name" v="Vestby" />
		<tag k="place" v="farm" />
		<tag k="ssr:stedsnr" v="952858" />
	</node>
	<node id="-269012" lat="60.4759055572" lon="11.0680749975">
		<tag k="name" v="Vestli" />
		<tag k="place" v="farm" />
		<tag k="ssr:stedsnr" v="952247" />
	</node>
	<node id="-269009" lat="60.4205000027" lon="10.9518416742">
		<tag k="name" v="Geitbergstua" />
		<tag k="place" v="farm" />
		<tag k="ssr:stedsnr" v="952225" />
	</node>
	<node id="-269006" lat="60.4191583308" lon="10.9329083325">
		<tag k="name" v="Teljebakken" />
		<tag k="place" v="locality" />
		<tag k="ssr:stedsnr" v="952190" />
	</node>
	<node id="-269005" lat="60.4261500011" lon="10.9591749943">
		<tag k="name" v="Oppistua" />
		<tag k="place" v="farm" />
		<tag k="ssr:stedsnr" v="952159" />
	</node>
	<node id="-269001" lat="60.4900861117" lon="11.0022055474">
		<tag k="alt_name" v="Tomta" />
		<tag k="name" v="Tømta" />
		<tag k="place" v="farm" />
		<tag k="ssr:stedsnr" v="856732" />
	</node>
	<node id="-269000" lat="60.450355552" lon="10.8027500076">
		<tag k="name" v="Dølhaug" />
		<tag k="place" v="isolated_dwelling" />
		<tag k="ssr:stedsnr" v="856695" />
	</node>
	<node id="-268999" lat="60.452061113" lon="10.7609722148">
		<tag k="name" v="Skimteflaten" />
		<tag k="place" v="isolated_dwelling" />
		<tag k="ssr:stedsnr" v="856694" />
	</node>
	<node id="-268998" lat="60.4509083343" lon="10.8415416662">
		<tag k="name" v="Solbakken" />
		<tag k="place" v="isolated_dwelling" />
		<tag k="ssr:stedsnr" v="856693" />
	</node>
	<node id="-268997" lat="60.4539222241" lon="10.8942972296">
		<tag k="name" v="Bjørtomt" />
		<tag k="place" v="farm" />
		<tag k="ssr:stedsnr" v="856681" />
	</node>
	<node id="-268996" lat="60.4216972222" lon="10.9194888888">
		<tag k="name" v="Tuftelia" />
		<tag k="place" v="isolated_dwelling" />
		<tag k="ssr:stedsnr" v="856652" />
	</node>
	<node id="-268994" lat="60.4250099147" lon="11.0399135994">
		<tag k="alt_name" v="Buråsen;Buraas" />
		<tag k="name" v="Burås" />
		<tag k="place" v="farm" />
		<tag k="ssr:stedsnr" v="856641" />
	</node>
	<node id="-268993" lat="60.4206000002" lon="11.0645750014">
		<tag k="alt_name" v="Søgarden;Knai søndre;Søndre Knai" />
		<tag k="name" v="Søgarden Knai" />
		<tag k="place" v="farm" />
		<tag k="ssr:stedsnr" v="856639" />
	</node>
	<node id="-268992" lat="60.4393305519" lon="10.7046333372">
		<tag k="alt_name" v="Ellingsbråtan" />
		<tag k="name" v="Ellingbråtån" />
		<tag k="place" v="isolated_dwelling" />
		<tag k="ssr:stedsnr" v="856143" />
	</node>
	<node id="-268989" lat="60.4588055584" lon="11.0587833263">
		<tag k="fixme" v="multiple name tags, choose one and add the other to alt_name" />
		<tag k="name" v="Nedgarden;Nedre Ødemark;Ødemark, søndre;Søndre Ødemark" />
		<tag k="place" v="farm" />
		<tag k="ssr:stedsnr" v="855701" />
	</node>
	<node id="-268987" lat="60.4000499964" lon="11.0510083399">
		<tag k="name" v="Fagerliflaen" />
		<tag k="place" v="farm" />
		<tag k="ssr:stedsnr" v="855593" />
	</node>
	<node id="-268984" lat="60.4446527819" lon="10.7361055532">
		<tag k="name" v="Kølabånn" />
		<tag k="place" v="locality" />
		<tag k="ssr:stedsnr" v="848470" />
	</node>
	<node id="-268981" lat="60.4376749955" lon="10.8778861193">
		<tag k="name" v="Leivstøa" />
		<tag k="place" v="isolated_dwelling" />
		<tag k="ssr:stedsnr" v="848428" />
	</node>
	<node id="-268980" lat="60.4442944424" lon="10.8791222138">
		<tag k="name" v="Nordgård" />
		<tag k="place" v="farm" />
		<tag k="ssr:stedsnr" v="848420" />
	</node>
	<node id="-268979" lat="60.4158722185" lon="11.031313894">
		<tag k="name" v="Hvile" />
>>>>>>> e1d4bc35ff8a6074a6f2e91616a996b547c36f15
		<tag k="place" v="farm" />
		<tag k="ssr:stedsnr" v="848043" />
	</node>
<<<<<<< HEAD
	<node lat="60.42535008101425" lon="10.960224639431265" id="-15754">
		<tag k="fixme" v="consider place=hamlet" />
		<tag k="name" v="Brattlia" />
		<tag k="place" v="farm" />
		<tag k="ssr:stedsnr" v="6651" />
	</node>
	<node lat="60.49257777919272" lon="10.984500003558079" id="-15755">
		<tag k="name" v="Rognlienga" />
		<tag k="place" v="farm" />
		<tag k="ssr:stedsnr" v="6743" />
	</node>
	<node lat="60.457263888392276" lon="11.044974995175142" id="-15757">
		<tag k="name" v="Snippen" />
		<tag k="place" v="farm" />
		<tag k="ssr:stedsnr" v="6695" />
	</node>
	<node lat="60.46525833136134" lon="11.044399991157444" id="-15758">
		<tag k="name" v="Sørflaen" />
		<tag k="place" v="farm" />
		<tag k="ssr:stedsnr" v="6699" />
	</node>
	<node lat="60.33961667032043" lon="11.087599992971766" id="-15761">
		<tag k="alt_name" v="Langton nedre" />
		<tag k="name" v="Nedre Langton" />
		<tag k="place" v="farm" />
		<tag k="ssr:stedsnr" v="40086" />
	</node>
	<node lat="60.377902779075235" lon="10.934397215004102" id="-15772">
		<tag k="name" v="Hagaseter" />
		<tag k="place" v="locality" />
		<tag k="ssr:stedsnr" v="42690" />
	</node>
	<node lat="60.443833336960985" lon="10.978544448755953" id="-15773">
		<tag k="name" v="Ospebråtan" />
		<tag k="place" v="locality" />
		<tag k="ssr:stedsnr" v="42635" />
	</node>
	<node lat="60.40859999739933" lon="11.050963892314561" id="-15775">
		<tag k="amenity" v="school" />
		<tag k="name" v="Kirkekretsen skole" />
		<tag k="ssr:stedsnr" v="42843" />
	</node>
	<node lat="60.474016664933586" lon="11.029016660626233" id="-15781">
		<tag k="building" v="industrial" />
		<tag k="industrial" v="factory" />
		<tag k="name" v="Flaen mølle" />
		<tag k="ssr:stedsnr" v="57141" />
	</node>
	<node lat="60.46999444084048" lon="10.966511110341424" id="-15784">
		<tag k="name" v="Holenseter" />
		<tag k="place" v="locality" />
		<tag k="ssr:stedsnr" v="57862" />
	</node>
	<node lat="60.42076111494438" lon="11.041066663791684" id="-15791">
		<tag k="name" v="Burås" />
		<tag k="place" v="farm" />
		<tag k="ssr:stedsnr" v="67635" />
	</node>
	<node lat="60.35218333303052" lon="10.993950008677986" id="-15793">
		<tag k="name" v="Haugen" />
		<tag k="place" v="farm" />
		<tag k="ssr:stedsnr" v="67554" />
	</node>
	<node lat="60.367100959051385" lon="11.07252099579066" id="-15795">
		<tag k="fixme" v="consider place=hamlet" />
		<tag k="name" v="Østerud" />
		<tag k="place" v="farm" />
		<tag k="ssr:stedsnr" v="67574" />
	</node>
	<node lat="60.4520749981462" lon="10.858075007603334" id="-15801">
		<tag k="name" v="Vollenga" />
		<tag k="place" v="farm" />
		<tag k="ssr:stedsnr" v="67680" />
	</node>
	<node lat="60.445599996651204" lon="10.744675001351041" id="-15802">
		<tag k="name" v="Dumpidal" />
		<tag k="place" v="isolated_dwelling" />
		<tag k="ssr:stedsnr" v="67687" />
	</node>
	<node lat="60.40241110707374" lon="11.052233336632845" id="-15803">
		<tag k="name" v="Hurdalsjøen Hotell" />
		<tag k="ssr:stedsnr" v="86695" />
		<tag k="tourism" v="hotel" />
	</node>
	<node lat="60.48339722043229" lon="11.024052778297344" id="-15804">
		<tag k="name" v="Sørli" />
		<tag k="place" v="farm" />
		<tag k="ssr:stedsnr" v="102001" />
	</node>
	<node lat="60.468808333167246" lon="11.069825006147468" id="-15813">
		<tag k="name" v="Melbybakken" />
		<tag k="place" v="farm" />
		<tag k="ssr:stedsnr" v="102254" />
	</node>
	<node lat="60.364691669952904" lon="11.001180548040924" id="-15815">
		<tag k="name" v="Nordre Nordgarden" />
		<tag k="place" v="farm" />
		<tag k="ssr:stedsnr" v="103533" />
	</node>
	<node lat="60.42865277692536" lon="11.068052782346184" id="-15824">
		<tag k="name" v="Mjølnerhaugen" />
		<tag k="place" v="farm" />
		<tag k="ssr:stedsnr" v="116450" />
	</node>
	<node lat="60.414016666876414" lon="11.038099994233221" id="-15841">
		<tag k="name" v="Nordby" />
		<tag k="place" v="farm" />
		<tag k="ssr:stedsnr" v="127660" />
	</node>
	<node lat="60.4309638881738" lon="11.077138893795569" id="-15842">
		<tag k="name" v="Skogstad" />
		<tag k="place" v="farm" />
		<tag k="ssr:stedsnr" v="127666" />
	</node>
	<node lat="60.35341389185962" lon="10.92673055295895" id="-15846">
		<tag k="name" v="Damstua" />
		<tag k="place" v="isolated_dwelling" />
		<tag k="ssr:stedsnr" v="127570" />
	</node>
	<node lat="60.360969443864576" lon="10.996763895186934" id="-15847">
		<tag k="name" v="Åsli" />
		<tag k="place" v="farm" />
		<tag k="ssr:stedsnr" v="127578" />
	</node>
	<node lat="60.36537499817195" lon="10.993497218854124" id="-15848">
		<tag k="name" v="Øverbakken" />
		<tag k="place" v="farm" />
		<tag k="ssr:stedsnr" v="127579" />
	</node>
	<node lat="60.44973937920391" lon="10.827986216362994" id="-15850">
		<tag k="fixme" v="consider place=hamlet" />
		<tag k="name" v="Lundberg" />
		<tag k="place" v="farm" />
		<tag k="ssr:stedsnr" v="127711" />
	</node>
	<node lat="60.44843333054732" lon="10.834058324795059" id="-15851">
		<tag k="fixme" v="consider place=hamlet" />
		<tag k="name" v="Skrukkelia" />
		<tag k="place" v="village" />
		<tag k="ssr:stedsnr" v="127713" />
	</node>
	<node lat="60.39757085398723" lon="11.046228591501286" id="-15855">
		<tag k="fixme" v="consider place=hamlet" />
		<tag k="name" v="Fagerli" />
		<tag k="place" v="farm" />
		<tag k="ssr:stedsnr" v="127634" />
	</node>
	<node lat="60.444366449116906" lon="11.022671919848474" id="-15857">
		<tag k="fixme" v="consider place=hamlet" />
		<tag k="name" v="Haug" />
		<tag k="place" v="farm" />
		<tag k="ssr:stedsnr" v="127687" />
	</node>
	<node lat="60.47247222461722" lon="11.022444451508413" id="-15858">
		<tag k="name" v="Nordlia" />
		<tag k="place" v="farm" />
		<tag k="ssr:stedsnr" v="127721" />
	</node>
	<node lat="60.46844171851934" lon="11.06179294406496" id="-15859">
		<tag k="fixme" v="consider place=hamlet" />
		<tag k="name" v="Solsrud" />
		<tag k="place" v="farm" />
		<tag k="ssr:stedsnr" v="127730" />
	</node>
	<node lat="60.44742500227417" lon="10.86332222323065" id="-15864">
		<tag k="name" v="Benterud" />
		<tag k="place" v="locality" />
		<tag k="ssr:stedsnr" v="161290" />
	</node>
	<node lat="60.446866666836485" lon="10.884633340420478" id="-15865">
		<tag k="name" v="Oppegårdstua" />
		<tag k="place" v="isolated_dwelling" />
		<tag k="ssr:stedsnr" v="161293" />
	</node>
	<node lat="60.41405555723547" lon="10.982002775942085" id="-15868">
		<tag k="name" v="Lundbyseter" />
		<tag k="place" v="locality" />
		<tag k="ssr:stedsnr" v="163185" />
	</node>
	<node lat="60.44917777864369" lon="11.044050005354924" id="-15879">
		<tag k="name" v="Elverhøy" />
		<tag k="place" v="isolated_dwelling" />
		<tag k="ssr:stedsnr" v="163746" />
	</node>
	<node lat="60.44323610858829" lon="10.998177773046491" id="-15891">
		<tag k="name" v="Haugseter" />
		<tag k="place" v="locality" />
		<tag k="ssr:stedsnr" v="178621" />
	</node>
	<node lat="60.47757222575061" lon="11.002380556205948" id="-15892">
		<tag k="name" v="Geitsetra" />
		<tag k="place" v="locality" />
		<tag k="ssr:stedsnr" v="179176" />
	</node>
	<node lat="60.45685000402579" lon="10.852788883028044" id="-15895">
		<tag k="name" v="Borgersrud" />
		<tag k="place" v="locality" />
		<tag k="ssr:stedsnr" v="179839" />
	</node>
	<node lat="60.42991388787871" lon="11.054377777083172" id="-15896">
		<tag k="name" v="Bjørhus" />
		<tag k="place" v="farm" />
		<tag k="ssr:stedsnr" v="180039" />
	</node>
	<node lat="60.38238055471809" lon="11.033474993446552" id="-15899">
		<tag k="building" v="industrial" />
		<tag k="industrial" v="factory" />
		<tag k="name" v="Hurdal treindustri" />
		<tag k="ssr:stedsnr" v="180553" />
	</node>
	<node lat="60.455527773850406" lon="10.763649991257962" id="-15904">
		<tag k="name" v="Slåttbråtan" />
		<tag k="place" v="locality" />
		<tag k="ssr:stedsnr" v="181443" />
	</node>
	<node lat="60.43955833008009" lon="11.024225000547599" id="-15907">
		<tag k="name" v="Halsteinbakken" />
		<tag k="place" v="farm" />
		<tag k="ssr:stedsnr" v="188687" />
	</node>
	<node lat="60.458883329794006" lon="11.044399991661695" id="-15910">
		<tag k="name" v="Steinrud" />
		<tag k="place" v="isolated_dwelling" />
		<tag k="ssr:stedsnr" v="188709" />
	</node>
	<node lat="60.460312417626184" lon="11.068001137886709" id="-15911">
		<tag k="fixme" v="consider place=hamlet" />
		<tag k="name" v="Røsrud" />
		<tag k="place" v="farm" />
		<tag k="ssr:stedsnr" v="188716" />
	</node>
	<node lat="60.479466662189466" lon="11.018494452345164" id="-15915">
		<tag k="name" v="Tangen" />
		<tag k="place" v="farm" />
		<tag k="ssr:stedsnr" v="188731" />
	</node>
	<node lat="60.490069446573386" lon="11.018788895664741" id="-15917">
		<tag k="alt_name" v="Tajet" />
		<tag k="name" v="Granlund" />
		<tag k="place" v="farm" />
		<tag k="ssr:stedsnr" v="188756" />
	</node>
	<node lat="60.4932194480105" lon="10.980680550060598" id="-15918">
		<tag k="name" v="Søndre Rognlia" />
		<tag k="place" v="farm" />
		<tag k="ssr:stedsnr" v="188760" />
	</node>
	<node lat="60.49125555226925" lon="11.016386108785651" id="-15919">
		<tag k="name" v="Åsheim" />
		<tag k="place" v="farm" />
		<tag k="ssr:stedsnr" v="188765" />
	</node>
	<node lat="60.41080833603155" lon="11.038391670367657" id="-15921">
		<tag k="name" v="Lundbymoen" />
		<tag k="place" v="farm" />
		<tag k="ssr:stedsnr" v="202951" />
	</node>
	<node lat="60.427402775422806" lon="11.064122231138755" id="-15927">
		<tag k="name" v="Grue" />
		<tag k="place" v="farm" />
		<tag k="ssr:stedsnr" v="224070" />
	</node>
	<node lat="60.424647225624874" lon="10.988441661794027" id="-15928">
		<tag k="name" v="Fjellsjøsaga" />
		<tag k="place" v="locality" />
		<tag k="ssr:stedsnr" v="224161" />
	</node>
	<node lat="60.34935833058098" lon="11.019691669793316" id="-15931">
		<tag k="building" v="industrial" />
		<tag k="name" v="Rustad verksted" />
		<tag k="ssr:stedsnr" v="224274" />
	</node>
	<node lat="60.43762222337283" lon="11.047958334085994" id="-15933">
		<tag k="name" v="Flattum" />
		<tag k="place" v="farm" />
		<tag k="ssr:stedsnr" v="224653" />
	</node>
	<node lat="60.38029722166516" lon="11.074747223753615" id="-15938">
		<tag k="loc_name" v="Eidsæter" />
		<tag k="name" v="Eidseter" />
		<tag k="place" v="hamlet" />
		<tag k="ssr:stedsnr" v="224921" />
	</node>
	<node lat="60.396294444146676" lon="11.091430562206712" id="-15941">
		<tag k="name" v="Jerperud" />
		<tag k="place" v="locality" />
		<tag k="ssr:stedsnr" v="224768" />
	</node>
	<node lat="60.34089444129084" lon="11.093191661666697" id="-15944">
		<tag k="name" v="Langtonstua" />
		<tag k="place" v="isolated_dwelling" />
		<tag k="ssr:stedsnr" v="282738" />
	</node>
	<node lat="60.46126111098762" lon="11.05998054693903" id="-15952">
		<tag k="alt_name" v="Ødemark, midtre;Nedre Ødemark;Nedgarden" />
		<tag k="name" v="Midtre Ødemark" />
		<tag k="old_name" v="Ødemark, m" />
		<tag k="place" v="farm" />
		<tag k="ssr:stedsnr" v="284152" />
	</node>
	<node lat="60.41454721962657" lon="10.997161103642489" id="-15953">
		<tag k="name" v="Velgjort" />
		<tag k="place" v="locality" />
		<tag k="ssr:stedsnr" v="284153" />
	</node>
	<node lat="60.420361114199224" lon="10.926075000080104" id="-15954">
		<tag k="name" v="Lyuholen" />
		<tag k="place" v="locality" />
		<tag k="ssr:stedsnr" v="284170" />
	</node>
	<node lat="60.46677777660181" lon="11.085958329053346" id="-15955">
		<tag k="name" v="Ekrastua" />
		<tag k="place" v="isolated_dwelling" />
		<tag k="ssr:stedsnr" v="284221" />
	</node>
	<node lat="60.39715555402538" lon="11.090938887440661" id="-15963">
		<tag k="name" v="Stallen" />
		<tag k="place" v="locality" />
		<tag k="ssr:stedsnr" v="285768" />
	</node>
	<node lat="60.424849999497205" lon="10.965636117291531" id="-15973">
		<tag k="name" v="Brattlia" />
		<tag k="place" v="hamlet" />
		<tag k="ssr:stedsnr" v="301038" />
	</node>
	<node lat="60.38873889340077" lon="11.02534165808164" id="-15975">
		<tag k="name" v="Saubråtan" />
		<tag k="place" v="locality" />
		<tag k="ssr:stedsnr" v="301961" />
	</node>
	<node lat="60.44942500369371" lon="10.785499993422286" id="-15976">
		<tag k="name" v="Valby" />
		<tag k="place" v="locality" />
		<tag k="ssr:stedsnr" v="302419" />
	</node>
	<node lat="60.42875000112378" lon="10.997652771157165" id="-15978">
		<tag k="name" v="Kabberud" />
		<tag k="place" v="farm" />
		<tag k="ssr:stedsnr" v="309650" />
	</node>
	<node lat="60.395688888086454" lon="11.078466665884498" id="-15980">
		<tag k="name" v="Myrvoll" />
		<tag k="place" v="farm" />
		<tag k="ssr:stedsnr" v="309615" />
	</node>
	<node lat="60.40578976664388" lon="11.046144673224429" id="-15981">
		<tag k="fixme" v="consider place=hamlet" />
		<tag k="name" v="Lundby" />
		<tag k="place" v="farm" />
		<tag k="ssr:stedsnr" v="309627" />
	</node>
	<node lat="60.421358335354654" lon="10.915563883089005" id="-15982">
		<tag k="name" v="Tangen" />
		<tag k="place" v="farm" />
		<tag k="ssr:stedsnr" v="309660" />
	</node>
	<node lat="60.436675001982934" lon="11.056911116470244" id="-15983">
		<tag k="name" v="Tørrtopp" />
		<tag k="place" v="farm" />
		<tag k="ssr:stedsnr" v="309665" />
	</node>
	<node lat="60.44217500433986" lon="10.971030549240062" id="-15984">
		<tag k="fixme" v="multiple name tags, choose one and add the other to alt_name" />
		<tag k="name" v="Bråten;Gjødingseterbråtan" />
		<tag k="place" v="farm" />
		<tag k="ssr:stedsnr" v="309669" />
	</node>
	<node lat="60.44300832958489" lon="10.854236114598553" id="-15985">
		<tag k="name" v="Skabland" />
		<tag k="place" v="farm" />
		<tag k="ssr:stedsnr" v="309680" />
	</node>
	<node lat="60.34964722669417" lon="11.017297219468302" id="-15988">
		<tag k="alt_name" v="Rustadbruk" />
		<tag k="name" v="Rustad bruk" />
		<tag k="place" v="farm" />
		<tag k="ssr:stedsnr" v="310519" />
	</node>
	<node lat="60.350774999838144" lon="11.06629999933564" id="-15990">
		<tag k="alt_name" v="Svensgardhytta" />
		<tag k="name" v="Svensgårdhytta" />
		<tag k="place" v="isolated_dwelling" />
		<tag k="ssr:stedsnr" v="310521" />
	</node>
	<node lat="60.496180556671796" lon="11.036847230411468" id="-16001">
		<tag k="building" v="industrial" />
		<tag k="name" v="Seteråssaga" />
		<tag k="ssr:stedsnr" v="345037" />
	</node>
	<node lat="60.48368333281997" lon="10.987777776937472" id="-16006">
		<tag k="name" v="Mikalshytta" />
		<tag k="place" v="locality" />
		<tag k="ssr:stedsnr" v="345071" />
	</node>
	<node lat="60.473374999649465" lon="10.994225007655867" id="-16018">
		<tag k="name" v="Bjønnbråtan" />
		<tag k="place" v="locality" />
		<tag k="ssr:stedsnr" v="361874" />
	</node>
	<node lat="60.49689166818776" lon="11.023674996018315" id="-16027">
		<tag k="alt_name" v="Kakubråten" />
		<tag k="name" v="Kakubråtan" />
		<tag k="place" v="farm" />
		<tag k="ssr:stedsnr" v="370751" />
	</node>
	<node lat="60.496097219511775" lon="11.052319435807231" id="-16029">
		<tag k="alt_name" v="Sæteråsen;Sno" />
		<tag k="name" v="Seteråsen" />
		<tag k="place" v="farm" />
		<tag k="ssr:stedsnr" v="370756" />
	</node>
	<node lat="60.3449678858274" lon="11.014379877888414" id="-16030">
		<tag k="name" v="Holen" />
		<tag k="place" v="locality" />
		<tag k="ssr:stedsnr" v="370554" />
	</node>
	<node lat="60.431983337284194" lon="11.065755553176299" id="-16032">
		<tag k="name" v="Knaibakken" />
		<tag k="place" v="farm" />
		<tag k="ssr:stedsnr" v="370642" />
	</node>
	<node lat="60.34701110734363" lon="11.013400003778605" id="-16037">
		<tag k="name" v="Smedbakken" />
		<tag k="place" v="farm" />
		<tag k="ssr:stedsnr" v="404756" />
	</node>
	<node lat="60.46174166850707" lon="11.069083331279428" id="-16042">
		<tag k="alt_name" v="Røsrud øvre" />
		<tag k="name" v="Øvre Røsrud" />
		<tag k="place" v="farm" />
		<tag k="ssr:stedsnr" v="406222" />
	</node>
	<node lat="60.480638886060255" lon="11.023424997559998" id="-16046">
		<tag k="name" v="Kalvbråten" />
		<tag k="place" v="farm" />
		<tag k="ssr:stedsnr" v="406011" />
	</node>
	<node lat="60.445900003073945" lon="11.022208341505918" id="-16049">
		<tag k="name" v="Søndre Rognstad" />
		<tag k="place" v="farm" />
		<tag k="ssr:stedsnr" v="406750" />
	</node>
	<node lat="60.37772777547388" lon="10.920491660794147" id="-16059">
		<tag k="name" v="Gorobråtan" />
		<tag k="place" v="locality" />
		<tag k="ssr:stedsnr" v="406724" />
	</node>
	<node lat="60.38265833533953" lon="10.97219999445152" id="-16061">
		<tag k="name" v="Hølsetra" />
		<tag k="place" v="locality" />
		<tag k="ssr:stedsnr" v="406739" />
	</node>
	<node lat="60.40393888461208" lon="11.105083328565284" id="-16067">
		<tag k="name" v="Dalseterstua" />
		<tag k="place" v="isolated_dwelling" />
		<tag k="ssr:stedsnr" v="406776" />
	</node>
	<node lat="60.44075244360367" lon="10.88420462989637" id="-16079">
		<tag k="name" v="Nedre Sørgård" />
		<tag k="place" v="farm" />
		<tag k="ssr:stedsnr" v="423453" />
	</node>
	<node lat="60.38355555924611" lon="11.031369449713639" id="-16083">
=======
	<node id="-268976" lat="60.4689388848" lon="10.9953166651">
		<tag k="name" v="Ulriksbråtan" />
		<tag k="place" v="locality" />
		<tag k="ssr:stedsnr" v="847871" />
	</node>
	<node id="-268975" lat="60.4701972252" lon="11.0391499982">
		<tag k="building" v="industrial" />
		<tag k="industrial" v="factory" />
		<tag k="name" v="Flaen sag" />
		<tag k="ssr:stedsnr" v="847189" />
	</node>
	<node id="-268974" lat="60.4531472204" lon="10.9171999992">
		<tag k="name" v="Fjellsjøberget" />
		<tag k="place" v="locality" />
		<tag k="ssr:stedsnr" v="846635" />
	</node>
	<node id="-268966" lat="60.4108305557" lon="11.0525749911">
		<tag k="name" v="Hurdal prestegård" />
		<tag k="place" v="farm" />
		<tag k="ssr:stedsnr" v="831858" />
	</node>
	<node id="-268960" lat="60.398272218" lon="11.0775972247">
		<tag k="name" v="Fautbråten" />
		<tag k="place" v="farm" />
		<tag k="ssr:stedsnr" v="831730" />
	</node>
	<node id="-268958" lat="60.3921888901" lon="11.128952781">
		<tag k="name" v="Tasketjennshytta" />
		<tag k="place" v="isolated_dwelling" />
		<tag k="ssr:stedsnr" v="831717" />
	</node>
	<node id="-268952" lat="60.4538388933" lon="11.0411222154">
		<tag k="name" v="Monsrud" />
		<tag k="place" v="farm" />
		<tag k="ssr:stedsnr" v="831493" />
	</node>
	<node id="-268944" lat="60.4931027791" lon="11.0519305605">
		<tag k="name" v="Seteråsen" />
		<tag k="place" v="farm" />
		<tag k="ssr:stedsnr" v="831037" />
	</node>
	<node id="-268943" lat="60.4955012246" lon="10.9805709564">
		<tag k="fixme" v="consider place=hamlet" />
		<tag k="name" v="Rognlia" />
		<tag k="place" v="farm" />
		<tag k="ssr:stedsnr" v="831015" />
	</node>
	<node id="-268935" lat="60.455694446" lon="10.8513055593">
		<tag k="name" v="Slåttbråtan" />
		<tag k="place" v="locality" />
		<tag k="ssr:stedsnr" v="829285" />
	</node>
	<node id="-268934" lat="60.4522305543" lon="10.8619805642">
		<tag k="name" v="Myraløkka" />
		<tag k="place" v="locality" />
		<tag k="ssr:stedsnr" v="829283" />
	</node>
	<node id="-268930" lat="60.4077888919" lon="11.0295222208">
		<tag k="fixme" v="multiple name tags, choose one and add the other to alt_name" />
		<tag k="leisure" v="pitch" />
		<tag k="name" v="Lundbybakken;Romerike bakkesenter" />
		<tag k="ssr:stedsnr" v="808936" />
	</node>
	<node id="-268928" lat="60.4856138904" lon="10.9622138972">
		<tag k="name" v="Dalen" />
		<tag k="place" v="farm" />
		<tag k="ssr:stedsnr" v="795726" />
	</node>
	<node id="-268926" lat="60.4766749959" lon="11.0205611063">
		<tag k="name" v="Nordenga" />
		<tag k="place" v="farm" />
		<tag k="ssr:stedsnr" v="795713" />
	</node>
	<node id="-268925" lat="60.4731333366" lon="11.0268166746">
		<tag k="name" v="Elvenga" />
		<tag k="place" v="farm" />
		<tag k="ssr:stedsnr" v="795712" />
	</node>
	<node id="-268924" lat="60.4796361083" lon="11.0126999927">
		<tag k="alt_name" v="Ringen, søndre" />
		<tag k="name" v="Sør-Ringen" />
		<tag k="place" v="farm" />
		<tag k="ssr:stedsnr" v="795710" />
	</node>
	<node id="-268923" lat="60.4717500038" lon="11.0300083347">
		<tag k="name" v="Nordstrand" />
		<tag k="place" v="farm" />
		<tag k="ssr:stedsnr" v="795699" />
	</node>
	<node id="-268922" lat="60.4508055517" lon="10.8004111029">
		<tag k="alt_name" v="Dølerudseter;Dølerudsæter" />
		<tag k="name" v="Dølsætra" />
		<tag k="place" v="farm" />
		<tag k="ssr:stedsnr" v="795696" />
	</node>
	<node id="-268921" lat="60.4462249983" lon="10.859699999">
		<tag k="alt_name" v="Steinsrud" />
		<tag k="name" v="Stensrud" />
		<tag k="place" v="farm" />
		<tag k="ssr:stedsnr" v="795686" />
	</node>
	<node id="-268920" lat="60.4502861145" lon="11.048086106">
		<tag k="amenity" v="school" />
		<tag k="name" v="Hurdal Verk Folkehøgskole" />
		<tag k="ssr:stedsnr" v="795682" />
	</node>
	<node id="-268919" lat="60.4500250005" lon="11.0599777701">
		<tag k="name" v="Brattbakken" />
		<tag k="place" v="farm" />
		<tag k="ssr:stedsnr" v="795681" />
	</node>
	<node id="-268918" lat="60.4153250035" lon="11.119283332">
		<tag k="name" v="Vålsjøstua" />
		<tag k="place" v="isolated_dwelling" />
		<tag k="ssr:stedsnr" v="795534" />
	</node>
	<node id="-268916" lat="60.4390222265" lon="11.0590027854">
		<tag k="name" v="Moen" />
		<tag k="place" v="farm" />
		<tag k="ssr:stedsnr" v="795670" />
	</node>
	<node id="-268915" lat="60.4438194485" lon="11.0508194423">
		<tag k="name" v="Moen" />
		<tag k="place" v="farm" />
		<tag k="ssr:stedsnr" v="795669" />
	</node>
	<node id="-268914" lat="60.4225694428" lon="10.9679694525">
		<tag k="name" v="Nedre Lykkja" />
		<tag k="place" v="isolated_dwelling" />
		<tag k="ssr:stedsnr" v="795664" />
	</node>
	<node id="-268913" lat="60.4196250035" lon="10.9785833424">
		<tag k="alt_name" v="Nygård" />
		<tag k="name" v="Nygard" />
		<tag k="place" v="farm" />
		<tag k="ssr:stedsnr" v="795662" />
	</node>
	<node id="-268912" lat="60.4142194416" lon="11.0459222184">
		<tag k="name" v="Jåterud" />
		<tag k="place" v="farm" />
		<tag k="ssr:stedsnr" v="795650" />
	</node>
	<node id="-268910" lat="60.4029027791" lon="11.0517305522">
		<tag k="name" v="Skredderbakken" />
		<tag k="place" v="farm" />
		<tag k="ssr:stedsnr" v="795634" />
	</node>
	<node id="-268908" lat="60.3816805576" lon="11.0085750073">
		<tag k="alt_name" v="Rudsætra;Rudsetra;Rudssætra" />
		<tag k="historic" v="shieling" />
		<tag k="name" v="Rudssetra" />
		<tag k="place" v="locality" />
		<tag k="ssr:stedsnr" v="795597" />
	</node>
	<node id="-268904" lat="60.4558972191" lon="10.7525416717">
		<tag k="name" v="Åkerbråtan" />
		<tag k="place" v="locality" />
		<tag k="ssr:stedsnr" v="787457" />
	</node>
	<node id="-268896" lat="60.4715694469" lon="11.016183338">
		<tag k="name" v="Nordby" />
		<tag k="place" v="farm" />
		<tag k="ssr:stedsnr" v="785162" />
	</node>
	<node id="-268894" lat="60.4675305563" lon="11.0525166619">
		<tag k="name" v="Elvesvingen" />
		<tag k="place" v="farm" />
		<tag k="ssr:stedsnr" v="785148" />
	</node>
	<node id="-268893" lat="60.4628249977" lon="10.7352027699">
		<tag k="name" v="Pålsrud" />
		<tag k="place" v="locality" />
		<tag k="ssr:stedsnr" v="783923" />
	</node>
	<node id="-268891" lat="60.4415138847" lon="11.1082055576">
		<tag k="name" v="Brustadseter" />
		<tag k="place" v="locality" />
		<tag k="ssr:stedsnr" v="783885" />
	</node>
	<node id="-268867" lat="60.4907305532" lon="11.0100555481">
		<tag k="name" v="Nertømta" />
		<tag k="place" v="farm" />
		<tag k="ssr:stedsnr" v="770042" />
	</node>
	<node id="-268862" lat="60.4475277744" lon="11.032691665">
		<tag k="name" v="Nedre Rognstad" />
		<tag k="place" v="farm" />
		<tag k="ssr:stedsnr" v="769751" />
	</node>
	<node id="-268849" lat="60.4483861122" lon="11.0493083278">
		<tag k="name" v="Gullaker" />
		<tag k="place" v="farm" />
		<tag k="ssr:stedsnr" v="648740" />
	</node>
	<node id="-268847" lat="60.4445472218" lon="11.0460861067">
		<tag k="name" v="Parken" />
		<tag k="place" v="farm" />
		<tag k="ssr:stedsnr" v="648721" />
	</node>
	<node id="-268843" lat="60.4668527818" lon="11.0806694506">
		<tag k="name" v="Lukasrud" />
		<tag k="place" v="locality" />
		<tag k="ssr:stedsnr" v="648245" />
	</node>
	<node id="-268838" lat="60.4924333377" lon="11.0552000082">
		<tag k="name" v="Neråsen" />
		<tag k="place" v="farm" />
		<tag k="ssr:stedsnr" v="648036" />
	</node>
	<node id="-268836" lat="60.4919499979" lon="11.0084194518">
		<tag k="name" v="Øvre Tømta" />
		<tag k="place" v="farm" />
		<tag k="ssr:stedsnr" v="648015" />
	</node>
	<node id="-268835" lat="60.4884749959" lon="10.9661555554">
		<tag k="name" v="Dalabråtan" />
		<tag k="place" v="locality" />
		<tag k="ssr:stedsnr" v="648013" />
	</node>
	<node id="-268834" lat="60.4997361084" lon="10.992258333">
		<tag k="name" v="Skålerud" />
		<tag k="place" v="locality" />
		<tag k="ssr:stedsnr" v="648008" />
	</node>
	<node id="-268832" lat="60.4196305518" lon="10.9718416707">
		<tag k="name" v="Brattlisaga" />
		<tag k="place" v="farm" />
		<tag k="ssr:stedsnr" v="648156" />
	</node>
	<node id="-268829" lat="60.3469583297" lon="11.0044805492">
		<tag k="name" v="Skogly" />
		<tag k="place" v="farm" />
		<tag k="ssr:stedsnr" v="646840" />
	</node>
	<node id="-268827" lat="60.3531499977" lon="11.0029583369">
		<tag k="fixme" v="consider place=hamlet" />
		<tag k="name" v="Rustaden" />
		<tag k="place" v="village" />
		<tag k="ssr:stedsnr" v="626954" />
	</node>
	<node id="-268824" lat="60.4251638873" lon="10.9156972277">
		<tag k="name" v="Nedre Grasbakken" />
		<tag k="place" v="farm" />
		<tag k="ssr:stedsnr" v="613630" />
	</node>
	<node id="-268823" lat="60.4258000043" lon="10.9976194521">
		<tag k="alt_name" v="Engebretsæter;Sætre" />
		<tag k="name" v="Embretsæter" />
		<tag k="place" v="farm" />
		<tag k="ssr:stedsnr" v="613628" />
	</node>
	<node id="-268822" lat="60.4232220725" lon="11.0660238351">
		<tag k="fixme" v="consider place=hamlet" />
		<tag k="name" v="Knai" />
		<tag k="old_name" v="Knain" />
		<tag k="place" v="farm" />
		<tag k="ssr:stedsnr" v="613605" />
	</node>
	<node id="-268821" lat="60.421649996" lon="11.0841249998">
		<tag k="name" v="Nordenga" />
		<tag k="place" v="farm" />
		<tag k="ssr:stedsnr" v="613602" />
	</node>
	<node id="-268820" lat="60.4387833302" lon="10.7087305495">
		<tag k="name" v="Bustevollen" />
		<tag k="place" v="isolated_dwelling" />
		<tag k="ssr:stedsnr" v="613141" />
	</node>
	<node id="-268817" lat="60.4400750004" lon="10.854686119">
		<tag k="name" v="Skablandstua" />
		<tag k="place" v="isolated_dwelling" />
		<tag k="ssr:stedsnr" v="612668" />
	</node>
	<node id="-268811" lat="60.4902388914" lon="10.7111277782">
		<tag k="alt_name" v="Brennelvhytta" />
		<tag k="loc_name" v="Brannelvstua" />
		<tag k="name" v="Brannelvhytta" />
		<tag k="place" v="isolated_dwelling" />
		<tag k="ssr:stedsnr" v="612336" />
	</node>
	<node id="-268805" lat="60.4143000017" lon="11.0657249951">
		<tag k="name" v="Gårder" />
		<tag k="place" v="farm" />
		<tag k="ssr:stedsnr" v="604047" />
	</node>
	<node id="-268799" lat="60.4602083312" lon="10.7270250035">
		<tag k="name" v="Øvre Røsåsen" />
		<tag k="place" v="farm" />
		<tag k="ssr:stedsnr" v="601912" />
	</node>
	<node id="-268795" lat="60.4174970697" lon="11.0887737014">
		<tag k="fixme" v="consider place=hamlet" />
		<tag k="name" v="Bundli" />
		<tag k="place" v="farm" />
		<tag k="ssr:stedsnr" v="601452" />
	</node>
	<node id="-268784" lat="60.4485749983" lon="11.0459194404">
		<tag k="amenity" v="school" />
		<tag k="name" v="Hurdal ungdomsskole" />
		<tag k="ssr:stedsnr" v="587776" />
	</node>
	<node id="-268779" lat="60.4336249992" lon="10.9125583309">
		<tag k="name" v="Hansebakken" />
		<tag k="place" v="locality" />
		<tag k="ssr:stedsnr" v="587206" />
	</node>
	<node id="-268773" lat="60.3809333302" lon="11.0692333377">
		<tag k="name" v="Hurdal Opptreningssenter" />
		<tag k="ssr:stedsnr" v="565946" />
		<tag k="tourism" v="hotel" />
	</node>
	<node id="-268772" lat="60.4821972221" lon="11.0125472136">
		<tag k="name" v="Erikstellet" />
		<tag k="place" v="farm" />
		<tag k="ssr:stedsnr" v="552749" />
	</node>
	<node id="-268770" lat="60.471475003" lon="11.0816750062">
		<tag k="name" v="Harstad" />
		<tag k="place" v="farm" />
		<tag k="ssr:stedsnr" v="552737" />
	</node>
	<node id="-268769" lat="60.4703722216" lon="11.016455557">
		<tag k="name" v="Øverby" />
		<tag k="place" v="farm" />
		<tag k="ssr:stedsnr" v="552724" />
	</node>
	<node id="-268768" lat="60.4707833305" lon="10.9563166577">
		<tag k="name" v="Snultra" />
		<tag k="place" v="isolated_dwelling" />
		<tag k="ssr:stedsnr" v="552722" />
	</node>
	<node id="-268767" lat="60.4899777803" lon="10.9985222285">
		<tag k="name" v="Gran" />
		<tag k="place" v="farm" />
		<tag k="ssr:stedsnr" v="552762" />
	</node>
	<node id="-268765" lat="60.3786083314" lon="10.9137222225">
		<tag k="name" v="Nedre Jeppedalen" />
		<tag k="place" v="isolated_dwelling" />
		<tag k="ssr:stedsnr" v="552623" />
	</node>
	<node id="-268764" lat="60.3764333308" lon="11.0541277777">
		<tag k="name" v="Haugnes" />
		<tag k="place" v="farm" />
		<tag k="ssr:stedsnr" v="552616" />
	</node>
	<node id="-268763" lat="60.3714250017" lon="10.9246388856">
		<tag k="name" v="Kroken" />
		<tag k="place" v="isolated_dwelling" />
		<tag k="ssr:stedsnr" v="552608" />
	</node>
	<node id="-268762" lat="60.367749996" lon="10.9943499918">
		<tag k="name" v="Tajet" />
		<tag k="place" v="farm" />
		<tag k="ssr:stedsnr" v="552607" />
	</node>
	<node id="-268761" lat="60.364587725" lon="11.0007936909">
		<tag k="fixme" v="consider place=hamlet" />
		<tag k="name" v="Nordgarden" />
		<tag k="place" v="farm" />
		<tag k="ssr:stedsnr" v="552593" />
	</node>
	<node id="-268760" lat="60.3561694472" lon="11.0017111102">
		<tag k="name" v="Solvang" />
		<tag k="place" v="farm" />
		<tag k="ssr:stedsnr" v="552581" />
	</node>
	<node id="-268756" lat="60.4432730286" lon="11.0631082077">
		<tag k="name" v="Søndre Opperud" />
		<tag k="place" v="farm" />
		<tag k="ssr:stedsnr" v="552686" />
	</node>
	<node id="-268755" lat="60.4271749996" lon="10.964541667">
		<tag k="name" v="Brattlistua" />
		<tag k="place" v="farm" />
		<tag k="ssr:stedsnr" v="552679" />
	</node>
	<node id="-268753" lat="60.4321222245" lon="11.0949944433">
		<tag k="name" v="Storhoggstua" />
		<tag k="place" v="locality" />
		<tag k="ssr:stedsnr" v="552513" />
	</node>
	<node id="-268752" lat="60.3393000037" lon="11.0939027733">
		<tag k="name" v="Langton" />
		<tag k="place" v="locality" />
		<tag k="ssr:stedsnr" v="552113" />
	</node>
	<node id="-268750" lat="60.4040305589" lon="11.0816249914">
		<tag k="alt_name" v="Hammaren" />
		<tag k="name" v="Hammeren" />
		<tag k="place" v="farm" />
		<tag k="ssr:stedsnr" v="551587" />
	</node>
	<node id="-268749" lat="60.3465749989" lon="11.0208944413">
		<tag k="name" v="Strand" />
		<tag k="place" v="farm" />
		<tag k="ssr:stedsnr" v="551487" />
	</node>
	<node id="-268745" lat="60.4540027793" lon="10.7817694396">
		<tag k="name" v="Odalen" />
		<tag k="place" v="locality" />
		<tag k="ssr:stedsnr" v="545356" />
	</node>
	<node id="-268736" lat="60.4604499962" lon="10.822986102">
		<tag k="name" v="Presteseter" />
		<tag k="place" v="locality" />
		<tag k="ssr:stedsnr" v="540900" />
	</node>
	<node id="-268734" lat="60.442933334" lon="11.0830111117">
		<tag k="name" v="Prestberget" />
		<tag k="place" v="isolated_dwelling" />
		<tag k="ssr:stedsnr" v="540882" />
	</node>
	<node id="-268733" lat="60.4353277774" lon="11.06851389">
		<tag k="name" v="Brustadfeltet" />
		<tag k="place" v="quarter" />
		<tag k="ssr:stedsnr" v="540879" />
	</node>
	<node id="-268732" lat="60.424238886" lon="11.112844443">
		<tag k="name" v="Bundliseter" />
		<tag k="place" v="locality" />
		<tag k="ssr:stedsnr" v="540448" />
	</node>
	<node id="-268728" lat="60.4040166626" lon="11.0446638901">
		<tag k="name" v="Haugar" />
		<tag k="place" v="isolated_dwelling" />
		<tag k="ssr:stedsnr" v="527871" />
	</node>
	<node id="-268710" lat="60.4828555518" lon="11.0738333409">
		<tag k="name" v="Røbekken hyttefelt" />
		<tag k="place" v="neighbourhood" />
		<tag k="ssr:stedsnr" v="527027" />
	</node>
	<node id="-268706" lat="60.4512805519" lon="10.8484722271">
		<tag k="name" v="Sålerud" />
		<tag k="place" v="locality" />
		<tag k="ssr:stedsnr" v="526282" />
	</node>
	<node id="-268705" lat="60.4496000027" lon="10.861375003">
		<tag k="name" v="Karigjerdinga" />
		<tag k="place" v="locality" />
		<tag k="ssr:stedsnr" v="526277" />
	</node>
	<node id="-268702" lat="60.4175833343" lon="11.0362527716">
		<tag k="name" v="Tømtebakken" />
		<tag k="place" v="farm" />
		<tag k="ssr:stedsnr" v="525135" />
	</node>
	<node id="-268700" lat="60.4855305551" lon="11.0202527757">
		<tag k="name" v="Rønningen" />
		<tag k="place" v="farm" />
		<tag k="ssr:stedsnr" v="431743" />
	</node>
	<node id="-268699" lat="60.4870555521" lon="10.9778111197">
		<tag k="name" v="Rogne" />
		<tag k="place" v="isolated_dwelling" />
		<tag k="ssr:stedsnr" v="431740" />
	</node>
	<node id="-268695" lat="60.4651861074" lon="11.0654472271">
		<tag k="alt_name" v="Melby nedre;Søndre Melby" />
		<tag k="name" v="Nedre Melby" />
		<tag k="place" v="farm" />
		<tag k="ssr:stedsnr" v="431717" />
	</node>
	<node id="-268693" lat="60.4467527808" lon="10.8763777787">
		<tag k="name" v="Nordenga" />
		<tag k="place" v="farm" />
		<tag k="ssr:stedsnr" v="431694" />
	</node>
	<node id="-268692" lat="60.4537055578" lon="11.0440416618">
		<tag k="name" v="Lykkja" />
		<tag k="place" v="farm" />
		<tag k="ssr:stedsnr" v="431688" />
	</node>
	<node id="-268691" lat="60.4370444452" lon="11.0619888925">
		<tag k="name" v="Gamlemoen" />
		<tag k="place" v="farm" />
		<tag k="ssr:stedsnr" v="431681" />
	</node>
	<node id="-268690" lat="60.4355833331" lon="11.0390694497">
		<tag k="name" v="Morten" />
		<tag k="place" v="farm" />
		<tag k="ssr:stedsnr" v="431672" />
	</node>
	<node id="-268689" lat="60.4295750028" lon="11.0616083297">
		<tag k="name" v="Knaibråten" />
		<tag k="place" v="farm" />
		<tag k="ssr:stedsnr" v="431652" />
	</node>
	<node id="-268685" lat="60.3738833355" lon="10.92115555">
		<tag k="name" v="Jølmyr" />
		<tag k="place" v="isolated_dwelling" />
		<tag k="ssr:stedsnr" v="431578" />
	</node>
	<node id="-268684" lat="60.3709750033" lon="10.9942944462">
		<tag k="name" v="Tajetbråten" />
		<tag k="place" v="farm" />
		<tag k="ssr:stedsnr" v="431574" />
	</node>
	<node id="-268683" lat="60.3459472253" lon="11.0209111095">
		<tag k="alt_name" v="Grensa" />
		<tag k="name" v="Grensen" />
		<tag k="place" v="farm" />
		<tag k="ssr:stedsnr" v="431546" />
	</node>
	<node id="-268681" lat="60.3835555592" lon="11.0313694497">
>>>>>>> e1d4bc35ff8a6074a6f2e91616a996b547c36f15
		<tag k="name" v="Bjørkeli" />
		<tag k="place" v="farm" />
		<tag k="ssr:stedsnr" v="423973" />
	</node>
<<<<<<< HEAD
	<node lat="60.34594722532875" lon="11.020911109459059" id="-16084">
		<tag k="alt_name" v="Grensa" />
		<tag k="name" v="Grensen" />
		<tag k="place" v="farm" />
		<tag k="ssr:stedsnr" v="431546" />
	</node>
	<node lat="60.37097500329584" lon="10.994294446236005" id="-16085">
		<tag k="name" v="Tajetbråten" />
		<tag k="place" v="farm" />
		<tag k="ssr:stedsnr" v="431574" />
	</node>
	<node lat="60.37388333552147" lon="10.921155550042366" id="-16086">
		<tag k="name" v="Jølmyr" />
		<tag k="place" v="isolated_dwelling" />
		<tag k="ssr:stedsnr" v="431578" />
	</node>
	<node lat="60.4355833330888" lon="11.03906944967218" id="-16091">
		<tag k="name" v="Morten" />
		<tag k="place" v="farm" />
		<tag k="ssr:stedsnr" v="431672" />
	</node>
	<node lat="60.437044445151194" lon="11.061988892466292" id="-16092">
		<tag k="name" v="Gamlemoen" />
		<tag k="place" v="farm" />
		<tag k="ssr:stedsnr" v="431681" />
	</node>
	<node lat="60.41758333429331" lon="11.036252771571196" id="-16095">
		<tag k="name" v="Tømtebakken" />
		<tag k="place" v="farm" />
		<tag k="ssr:stedsnr" v="525135" />
	</node>
	<node lat="60.502553433629075" lon="11.075786808389525" id="-16105">
		<tag k="name" v="Nord-Bergvatn" />
		<tag k="place" v="farm" />
		<tag k="ssr:stedsnr" v="527153" />
	</node>
	<node lat="60.40401666262171" lon="11.04466389012635" id="-16121">
		<tag k="name" v="Haugar" />
		<tag k="place" v="isolated_dwelling" />
		<tag k="ssr:stedsnr" v="527871" />
	</node>
	<node lat="60.4242388859934" lon="11.112844442997282" id="-16124">
		<tag k="name" v="Bundliseter" />
		<tag k="place" v="locality" />
		<tag k="ssr:stedsnr" v="540448" />
	</node>
	<node lat="60.43532777735307" lon="11.068513889966056" id="-16125">
		<tag k="name" v="Brustadfeltet" />
		<tag k="place" v="quarter" />
		<tag k="ssr:stedsnr" v="540879" />
	</node>
	<node lat="60.4429333340082" lon="11.08301111172501" id="-16126">
		<tag k="name" v="Prestberget" />
		<tag k="place" v="isolated_dwelling" />
		<tag k="ssr:stedsnr" v="540882" />
	</node>
	<node lat="60.46044999623998" lon="10.822986102045611" id="-16128">
		<tag k="name" v="Presteseter" />
		<tag k="place" v="locality" />
		<tag k="ssr:stedsnr" v="540900" />
	</node>
	<node lat="60.454669448043894" lon="10.757166660864515" id="-16133">
		<tag k="name" v="Søndre Skimten" />
		<tag k="place" v="farm" />
		<tag k="ssr:stedsnr" v="544456" />
	</node>
	<node lat="60.45400277930539" lon="10.781769439572857" id="-16137">
		<tag k="name" v="Odalen" />
		<tag k="place" v="locality" />
		<tag k="ssr:stedsnr" v="545356" />
	</node>
	<node lat="60.34657499891555" lon="11.020894441324579" id="-16139">
		<tag k="name" v="Strand" />
		<tag k="place" v="farm" />
		<tag k="ssr:stedsnr" v="551487" />
	</node>
	<node lat="60.40403055891651" lon="11.081624991375046" id="-16140">
		<tag k="alt_name" v="Hammaren" />
		<tag k="name" v="Hammeren" />
		<tag k="place" v="farm" />
		<tag k="ssr:stedsnr" v="551587" />
	</node>
	<node lat="60.35616944721744" lon="11.001711110178945" id="-16142">
		<tag k="name" v="Solvang" />
		<tag k="place" v="farm" />
		<tag k="ssr:stedsnr" v="552581" />
	</node>
	<node lat="60.42717499957174" lon="10.964541667041642" id="-16143">
		<tag k="name" v="Brattlistua" />
		<tag k="place" v="farm" />
		<tag k="ssr:stedsnr" v="552679" />
	</node>
	<node lat="60.364587724977916" lon="11.000793690880705" id="-16144">
		<tag k="name" v="Nordgarden" />
		<tag k="place" v="locality" />
		<tag k="ssr:stedsnr" v="552593" />
	</node>
	<node lat="60.443273028616744" lon="11.06310820769262" id="-16145">
		<tag k="name" v="Søndre Opperud" />
		<tag k="place" v="farm" />
		<tag k="ssr:stedsnr" v="552686" />
	</node>
	<node lat="60.47078333045861" lon="10.956316657746566" id="-16149">
		<tag k="name" v="Snultra" />
		<tag k="place" v="isolated_dwelling" />
		<tag k="ssr:stedsnr" v="552722" />
	</node>
	<node lat="60.47037222159473" lon="11.016455556999254" id="-16150">
		<tag k="name" v="Øverby" />
		<tag k="place" v="farm" />
		<tag k="ssr:stedsnr" v="552724" />
	</node>
	<node lat="60.47147500296838" lon="11.081675006200564" id="-16151">
		<tag k="name" v="Harstad" />
		<tag k="place" v="farm" />
		<tag k="ssr:stedsnr" v="552737" />
	</node>
	<node lat="60.482197222071264" lon="11.012547213635473" id="-16153">
		<tag k="name" v="Erikstellet" />
		<tag k="place" v="farm" />
		<tag k="ssr:stedsnr" v="552749" />
	</node>
	<node lat="60.489977780297366" lon="10.998522228519253" id="-16154">
		<tag k="name" v="Gran" />
		<tag k="place" v="farm" />
		<tag k="ssr:stedsnr" v="552762" />
	</node>
	<node lat="60.38093333024372" lon="11.069233337694342" id="-16155">
		<tag k="name" v="Hurdal Opptreningssenter" />
		<tag k="ssr:stedsnr" v="565946" />
		<tag k="tourism" v="hotel" />
	</node>
	<node lat="60.448574998289565" lon="11.045919440405365" id="-16163">
		<tag k="amenity" v="school" />
		<tag k="name" v="Hurdal ungdomsskole" />
		<tag k="ssr:stedsnr" v="587776" />
	</node>
	<node lat="60.41749706965558" lon="11.088773701359125" id="-16177">
		<tag k="fixme" v="consider place=hamlet" />
		<tag k="name" v="Bundli" />
		<tag k="place" v="farm" />
		<tag k="ssr:stedsnr" v="601452" />
	</node>
	<node lat="60.41430000166082" lon="11.065724995084214" id="-16183">
		<tag k="name" v="Gårder" />
		<tag k="place" v="farm" />
		<tag k="ssr:stedsnr" v="604047" />
	</node>
	<node lat="60.38437499956283" lon="11.031819449810788" id="-16185">
		<tag k="name" v="Dagali" />
		<tag k="place" v="farm" />
		<tag k="ssr:stedsnr" v="604979" />
	</node>
	<node lat="60.490238891381765" lon="10.711127778205372" id="-16191">
		<tag k="alt_name" v="Brennelvhytta" />
		<tag k="loc_name" v="Brannelvstua" />
		<tag k="name" v="Brannelvhytta" />
		<tag k="place" v="isolated_dwelling" />
		<tag k="ssr:stedsnr" v="612336" />
	</node>
	<node lat="60.37688888492417" lon="11.08078888321044" id="-16193">
		<tag k="alt_name" v="Seterbråtan" />
		<tag k="name" v="Sæterbråten" />
		<tag k="place" v="farm" />
		<tag k="ssr:stedsnr" v="612577" />
	</node>
	<node lat="60.377144445249684" lon="11.023497220044668" id="-16194">
		<tag k="building" v="industrial" />
		<tag k="industrial" v="factory" />
		<tag k="name" v="Rud sag" />
		<tag k="ssr:stedsnr" v="612578" />
	</node>
	<node lat="60.383613889484195" lon="11.079222218049031" id="-16197">
		<tag k="fixme" v="multiple name tags, choose one and add the other to alt_name" />
		<tag k="name" v="Nordre Eidsæter;Nordsetra" />
		<tag k="place" v="farm" />
		<tag k="ssr:stedsnr" v="612592" />
	</node>
	<node lat="60.47022500046365" lon="11.075902772099836" id="-16201">
		<tag k="name" v="Melbybråten" />
		<tag k="place" v="farm" />
		<tag k="ssr:stedsnr" v="612705" />
	</node>
	<node lat="60.4980559882234" lon="11.076389346231512" id="-16202">
		<tag k="fixme" v="consider place=hamlet" />
		<tag k="name" v="Bergvatn" />
		<tag k="place" v="farm" />
		<tag k="ssr:stedsnr" v="612746" />
	</node>
	<node lat="60.43878333020917" lon="10.708730549517087" id="-16203">
		<tag k="name" v="Bustevollen" />
		<tag k="place" v="isolated_dwelling" />
		<tag k="ssr:stedsnr" v="613141" />
	</node>
	<node lat="60.44488610843414" lon="10.712650001154316" id="-16204">
		<tag k="alt_name" v="Julabo" />
		<tag k="name" v="Jularbo" />
		<tag k="place" v="isolated_dwelling" />
		<tag k="ssr:stedsnr" v="613226" />
	</node>
	<node lat="60.42580000426038" lon="10.997619452091968" id="-16205">
		<tag k="alt_name" v="Engebretsæter;Sætre" />
		<tag k="name" v="Embretsæter" />
		<tag k="place" v="farm" />
		<tag k="ssr:stedsnr" v="613628" />
	</node>
	<node lat="60.42516388734899" lon="10.915697227681262" id="-16206">
		<tag k="name" v="Nedre Grasbakken" />
		<tag k="place" v="farm" />
		<tag k="ssr:stedsnr" v="613630" />
	</node>
	<node lat="60.346958329749306" lon="11.004480549169093" id="-16210">
		<tag k="name" v="Skogly" />
		<tag k="place" v="farm" />
		<tag k="ssr:stedsnr" v="646840" />
	</node>
	<node lat="60.492433337691864" lon="11.055200008248573" id="-16216">
		<tag k="name" v="Neråsen" />
		<tag k="place" v="farm" />
		<tag k="ssr:stedsnr" v="648036" />
	</node>
	<node lat="60.41963055183946" lon="10.97184167072152" id="-16222">
		<tag k="name" v="Brattlisaga" />
		<tag k="place" v="farm" />
		<tag k="ssr:stedsnr" v="648156" />
	</node>
	<node lat="60.44838611218928" lon="11.04930832783108" id="-16224">
		<tag k="name" v="Gullaker" />
		<tag k="place" v="farm" />
		<tag k="ssr:stedsnr" v="648740" />
	</node>
	<node lat="60.44454722179212" lon="11.046086106706328" id="-16232">
		<tag k="name" v="Parken" />
		<tag k="place" v="farm" />
		<tag k="ssr:stedsnr" v="648721" />
	</node>
	<node lat="60.42733889296407" lon="11.066969442967" id="-16243">
		<tag k="name" v="Hulderhaugen" />
		<tag k="place" v="farm" />
		<tag k="ssr:stedsnr" v="662453" />
	</node>
	<node lat="60.47813333375045" lon="11.022286111852821" id="-16249">
		<tag k="name" v="Garsjømoen" />
		<tag k="place" v="farm" />
		<tag k="ssr:stedsnr" v="664155" />
	</node>
	<node lat="60.47446111286329" lon="11.031063891651524" id="-16250">
		<tag k="alt_name" v="Møllerfeltet" />
		<tag k="name" v="Møllefeltet" />
		<tag k="place" v="quarter" />
		<tag k="ssr:stedsnr" v="664157" />
	</node>
	<node lat="60.448108337794096" lon="10.725255557473941" id="-16259">
		<tag k="alt_name" v="Falla østre" />
		<tag k="name" v="Østre Falla" />
		<tag k="place" v="locality" />
		<tag k="ssr:stedsnr" v="666461" />
	</node>
	<node lat="60.431013891008064" lon="11.071055559657145" id="-16261">
		<tag k="leisure" v="pitch" />
		<tag k="name" v="Hurdal stadion" />
		<tag k="ssr:stedsnr" v="666470" />
	</node>
	<node lat="60.446541662820756" lon="10.794338881446336" id="-16263">
		<tag k="name" v="Tollan" />
		<tag k="place" v="locality" />
		<tag k="ssr:stedsnr" v="666420" />
	</node>
	<node lat="60.459344447872915" lon="10.729977781702178" id="-16265">
		<tag k="name" v="Nedre Røsåsen" />
		<tag k="place" v="farm" />
		<tag k="ssr:stedsnr" v="723899" />
	</node>
	<node lat="60.454922221684576" lon="10.898502778371107" id="-16266">
		<tag k="name" v="Maritrud" />
		<tag k="place" v="locality" />
		<tag k="ssr:stedsnr" v="724634" />
	</node>
	<node lat="60.45312222032455" lon="10.905069437215243" id="-16267">
		<tag k="name" v="Marka" />
		<tag k="place" v="locality" />
		<tag k="ssr:stedsnr" v="724635" />
	</node>
	<node lat="60.477400003543856" lon="11.056816671150917" id="-16269">
		<tag k="name" v="Hytta" />
		<tag k="place" v="isolated_dwelling" />
		<tag k="ssr:stedsnr" v="725175" />
	</node>
	<node lat="60.46608038082239" lon="11.064507295681718" id="-16270">
		<tag k="fixme" v="consider place=hamlet" />
		<tag k="name" v="Melby" />
		<tag k="place" v="farm" />
		<tag k="ssr:stedsnr" v="725178" />
	</node>
	<node lat="60.46761944795514" lon="10.988652781601361" id="-16271">
		<tag k="name" v="Glabak" />
		<tag k="place" v="locality" />
		<tag k="ssr:stedsnr" v="725862" />
	</node>
	<node lat="60.431105558753444" lon="11.075550006404765" id="-16274">
		<tag k="name" v="Bruhaug" />
		<tag k="place" v="farm" />
		<tag k="ssr:stedsnr" v="727452" />
	</node>
	<node lat="60.45217499666912" lon="10.71276111801136" id="-16275">
		<tag k="alt_name" v="Haugenseter" />
		<tag k="historic" v="shieling" />
		<tag k="name" v="Fallhaugsætra" />
		<tag k="place" v="isolated_dwelling" />
		<tag k="ssr:stedsnr" v="734260" />
	</node>
	<node lat="60.41300000162803" lon="11.061011116328848" id="-16278">
		<tag k="name" v="Prestegardshagan" />
		<tag k="place" v="quarter" />
		<tag k="ssr:stedsnr" v="734645" />
	</node>
	<node lat="60.396786108863004" lon="11.078372215497966" id="-16280">
		<tag k="name" v="Hammersborg" />
		<tag k="place" v="farm" />
		<tag k="ssr:stedsnr" v="734623" />
	</node>
	<node lat="60.34502499959529" lon="11.015327772503571" id="-16282">
		<tag k="name" v="Nedre Holen" />
		<tag k="place" v="farm" />
		<tag k="ssr:stedsnr" v="889764" />
	</node>
	<node lat="60.451613888879216" lon="10.889308329964077" id="-16283">
		<tag k="name" v="Husværbråtan" />
		<tag k="place" v="locality" />
		<tag k="ssr:stedsnr" v="768268" />
	</node>
	<node lat="60.43909166569452" lon="11.055738890450812" id="-16285">
		<tag k="name" v="Haug" />
		<tag k="place" v="farm" />
		<tag k="ssr:stedsnr" v="769738" />
	</node>
	<node lat="60.48683055392211" lon="10.961413889157972" id="-16286">
		<tag k="name" v="Nydalen" />
		<tag k="place" v="farm" />
		<tag k="ssr:stedsnr" v="770058" />
	</node>
	<node lat="60.392563889347585" lon="11.078994435712358" id="-16288">
		<tag k="name" v="Skogly" />
		<tag k="place" v="isolated_dwelling" />
		<tag k="ssr:stedsnr" v="770880" />
	</node>
	<node lat="60.48673055297233" lon="11.07249721789627" id="-16290">
		<tag k="name" v="Melby hyttefelt" />
		<tag k="place" v="neighbourhood" />
		<tag k="ssr:stedsnr" v="770004" />
	</node>
	<node lat="60.49073055318002" lon="11.010055548064512" id="-16295">
		<tag k="name" v="Nertømta" />
		<tag k="place" v="farm" />
		<tag k="ssr:stedsnr" v="770042" />
	</node>
	<node lat="60.441513884655414" lon="11.108205557646817" id="-16311">
		<tag k="name" v="Brustadseter" />
		<tag k="place" v="locality" />
		<tag k="ssr:stedsnr" v="783885" />
	</node>
	<node lat="60.440591664004366" lon="10.870419437814617" id="-16317">
		<tag k="name" v="Nordgårdsvangen" />
		<tag k="place" v="locality" />
		<tag k="ssr:stedsnr" v="787419" />
	</node>
	<node lat="60.45589721910882" lon="10.752541671670802" id="-16320">
		<tag k="name" v="Åkerbråtan" />
		<tag k="place" v="locality" />
		<tag k="ssr:stedsnr" v="787457" />
	</node>
	<node lat="60.38580555923544" lon="11.038024993331982" id="-16323">
		<tag k="name" v="Søstuen Rud" />
		<tag k="place" v="farm" />
		<tag k="ssr:stedsnr" v="787962" />
	</node>
	<node lat="60.38827221917469" lon="11.039394442046513" id="-16324">
		<tag k="alt_name" v="Rud" />
		<tag k="name" v="Rud nordstuen" />
		<tag k="place" v="farm" />
		<tag k="ssr:stedsnr" v="787965" />
	</node>
	<node lat="60.41532500353719" lon="11.119283331997357" id="-16327">
		<tag k="name" v="Vålsjøstua" />
		<tag k="place" v="isolated_dwelling" />
		<tag k="ssr:stedsnr" v="795534" />
	</node>
	<node lat="60.38168055760462" lon="11.008575007291078" id="-16328">
		<tag k="alt_name" v="Rudsætra;Rudsetra;Rudssætra" />
		<tag k="historic" v="shieling" />
		<tag k="name" v="Rudssetra" />
		<tag k="place" v="isolated_dwelling" />
		<tag k="ssr:stedsnr" v="795597" />
	</node>
	<node lat="60.44622499832789" lon="10.859699999021693" id="-16329">
		<tag k="alt_name" v="Steinsrud" />
		<tag k="name" v="Stensrud" />
		<tag k="place" v="farm" />
		<tag k="ssr:stedsnr" v="795686" />
	</node>
	<node lat="60.45080555174056" lon="10.80041110292141" id="-16330">
		<tag k="alt_name" v="Dølerudseter;Dølerudsæter" />
		<tag k="name" v="Dølsætra" />
		<tag k="place" v="farm" />
		<tag k="ssr:stedsnr" v="795696" />
	</node>
	<node lat="60.47175000378256" lon="11.030008334683208" id="-16331">
		<tag k="name" v="Nordstrand" />
		<tag k="place" v="farm" />
		<tag k="ssr:stedsnr" v="795699" />
	</node>
	<node lat="60.40290277914513" lon="11.051730552164157" id="-16332">
		<tag k="name" v="Skredderbakken" />
		<tag k="place" v="farm" />
		<tag k="ssr:stedsnr" v="795634" />
	</node>
	<node lat="60.414219441603414" lon="11.045922218412562" id="-16334">
		<tag k="name" v="Jåterud" />
		<tag k="place" v="farm" />
		<tag k="ssr:stedsnr" v="795650" />
	</node>
	<node lat="60.40778889189106" lon="11.029522220791145" id="-16336">
		<tag k="fixme" v="multiple name tags, choose one and add the other to alt_name" />
		<tag k="leisure" v="pitch" />
		<tag k="name" v="Lundbybakken;Romerike bakkesenter" />
		<tag k="ssr:stedsnr" v="808936" />
	</node>
	<node lat="60.49550122458914" lon="10.98057095639841" id="-16342">
		<tag k="fixme" v="consider place=hamlet" />
		<tag k="name" v="Rognlia" />
		<tag k="place" v="farm" />
		<tag k="ssr:stedsnr" v="831015" />
	</node>
	<node lat="60.39218889008914" lon="11.12895278099719" id="-16351">
		<tag k="name" v="Tasketjennshytta" />
		<tag k="place" v="isolated_dwelling" />
		<tag k="ssr:stedsnr" v="831717" />
	</node>
	<node lat="60.41062738513303" lon="11.052332359248194" id="-16357">
		<tag k="fixme" v="consider place=hamlet" />
		<tag k="name" v="Hurdal prestegård" />
		<tag k="place" v="farm" />
		<tag k="ssr:stedsnr" v="831858" />
	</node>
	<node lat="60.45314722040548" lon="10.9171999991818" id="-16363">
		<tag k="name" v="Fjellsjøberget" />
		<tag k="place" v="locality" />
		<tag k="ssr:stedsnr" v="846635" />
	</node>
	<node lat="60.47019722524081" lon="11.039149998150803" id="-16364">
		<tag k="building" v="industrial" />
		<tag k="industrial" v="factory" />
		<tag k="name" v="Flaen sag" />
		<tag k="ssr:stedsnr" v="847189" />
	</node>
	<node lat="60.46893888481866" lon="10.995316665137263" id="-16365">
		<tag k="name" v="Ulriksbråtan" />
		<tag k="place" v="locality" />
		<tag k="ssr:stedsnr" v="847871" />
	</node>
	<node lat="60.415872218470106" lon="11.03131389402244" id="-16366">
		<tag k="name" v="Hvile" />
		<tag k="place" v="farm" />
		<tag k="ssr:stedsnr" v="848043" />
	</node>
	<node lat="60.44465278192347" lon="10.736105553151386" id="-16369">
		<tag k="name" v="Kølabånn" />
		<tag k="place" v="locality" />
		<tag k="ssr:stedsnr" v="848470" />
	</node>
	<node lat="60.444294442377256" lon="10.879122213754501" id="-16370">
		<tag k="name" v="Nordgård" />
		<tag k="place" v="farm" />
		<tag k="ssr:stedsnr" v="848420" />
	</node>
	<node lat="60.47107222611393" lon="11.042969439432449" id="-16374">
		<tag k="alt_name" v="Ødemarksbakken" />
		<tag k="name" v="Lundstad" />
		<tag k="place" v="farm" />
		<tag k="ssr:stedsnr" v="855709" />
	</node>
	<node lat="60.467950001343915" lon="11.032475002545757" id="-16375">
		<tag k="name" v="Strand" />
		<tag k="place" v="farm" />
		<tag k="ssr:stedsnr" v="855711" />
	</node>
	<node lat="60.35141389077941" lon="11.005097226777783" id="-16377">
		<tag k="name" v="Grindbråten" />
		<tag k="place" v="farm" />
		<tag k="ssr:stedsnr" v="856569" />
	</node>
	<node lat="60.450908334254194" lon="10.841541666213026" id="-16378">
		<tag k="name" v="Solbakken" />
		<tag k="place" v="isolated_dwelling" />
		<tag k="ssr:stedsnr" v="856693" />
	</node>
	<node lat="60.452061113011574" lon="10.76097221484924" id="-16379">
		<tag k="name" v="Skimteflaten" />
		<tag k="place" v="isolated_dwelling" />
		<tag k="ssr:stedsnr" v="856694" />
	</node>
	<node lat="60.45035555200055" lon="10.802750007613845" id="-16380">
		<tag k="name" v="Dølhaug" />
		<tag k="place" v="isolated_dwelling" />
		<tag k="ssr:stedsnr" v="856695" />
	</node>
	<node lat="60.47627221958935" lon="11.035944441613662" id="-16381">
		<tag k="name" v="Skjelstad" />
		<tag k="place" v="farm" />
		<tag k="ssr:stedsnr" v="856718" />
	</node>
	<node lat="60.421697222194084" lon="10.919488888775565" id="-16386">
		<tag k="name" v="Tuftelia" />
		<tag k="place" v="isolated_dwelling" />
		<tag k="ssr:stedsnr" v="856652" />
	</node>
	<node lat="60.41915833081568" lon="10.932908332542715" id="-16388">
		<tag k="name" v="Teljebakken" />
		<tag k="place" v="locality" />
		<tag k="ssr:stedsnr" v="952190" />
	</node>
	<node lat="60.42050000269957" lon="10.951841674203337" id="-16391">
		<tag k="name" v="Geitbergstua" />
		<tag k="place" v="farm" />
		<tag k="ssr:stedsnr" v="952225" />
	</node>
	<node lat="60.42615000113244" lon="10.959174994260367" id="-16392">
		<tag k="name" v="Oppistua" />
		<tag k="place" v="farm" />
		<tag k="ssr:stedsnr" v="952159" />
	</node>
	<node lat="60.44134444402081" lon="11.05869722313684" id="-16402">
		<tag k="name" v="Opperudholtet" />
		<tag k="place" v="quarter" />
		<tag k="ssr:stedsnr" v="952732" />
	</node>
	<node lat="60.418611112552234" lon="11.067397213763428" id="-16407">
=======
	<node id="-268677" lat="60.4407524436" lon="10.8842046299">
		<tag k="name" v="Nedre Sørgård" />
		<tag k="place" v="farm" />
		<tag k="ssr:stedsnr" v="423453" />
	</node>
	<node id="-268672" lat="60.415938886" lon="11.0345166631">
		<tag k="name" v="Gjødingsbråten" />
		<tag k="place" v="farm" />
		<tag k="ssr:stedsnr" v="423046" />
	</node>
	<node id="-268660" lat="60.4459000031" lon="11.0222083415">
		<tag k="name" v="Søndre Rognstad" />
		<tag k="place" v="farm" />
		<tag k="ssr:stedsnr" v="406750" />
	</node>
	<node id="-268657" lat="60.3826583353" lon="10.9721999945">
		<tag k="name" v="Hølsetra" />
		<tag k="place" v="locality" />
		<tag k="ssr:stedsnr" v="406739" />
	</node>
	<node id="-268640" lat="60.4354749967" lon="10.8842638812">
		<tag k="name" v="Jørnsrud" />
		<tag k="place" v="locality" />
		<tag k="ssr:stedsnr" v="404306" />
	</node>
	<node id="-268639" lat="60.4533833378" lon="10.8398999955">
		<tag k="name" v="Øvre Østbråtan" />
		<tag k="place" v="locality" />
		<tag k="ssr:stedsnr" v="404284" />
	</node>
	<node id="-268636" lat="60.4018249957" lon="11.0767333358">
		<tag k="name" v="Haraldvangen" />
		<tag k="old_name" v="Haraldvangen leirskole" />
		<tag k="ssr:stedsnr" v="383950" />
		<tag k="tourism" v="guest_house" />
	</node>
	<node id="-268634" lat="60.4960972195" lon="11.0523194358">
		<tag k="alt_name" v="Sæteråsen;Sno" />
		<tag k="name" v="Seteråsen" />
		<tag k="place" v="farm" />
		<tag k="ssr:stedsnr" v="370756" />
	</node>
	<node id="-268632" lat="60.4968916682" lon="11.023674996">
		<tag k="alt_name" v="Kakubråten" />
		<tag k="name" v="Kakubråtan" />
		<tag k="place" v="farm" />
		<tag k="ssr:stedsnr" v="370751" />
	</node>
	<node id="-268628" lat="60.4635666689" lon="11.0644694462">
		<tag k="aerialway" v="drag_lift" />
		<tag k="fixme" v="consider the other aerialway types" />
		<tag k="name" v="Hurdal Skisenter" />
		<tag k="ssr:stedsnr" v="370704" />
	</node>
	<node id="-268627" lat="60.4548170042" lon="10.7558900374">
		<tag k="fixme" v="consider place=hamlet" />
		<tag k="name" v="Skimten" />
		<tag k="place" v="farm" />
		<tag k="ssr:stedsnr" v="370688" />
	</node>
	<node id="-268626" lat="60.4530749958" lon="10.7856000022">
		<tag k="name" v="Dølerud" />
		<tag k="place" v="locality" />
		<tag k="ssr:stedsnr" v="370686" />
	</node>
	<node id="-268624" lat="60.4419333301" lon="10.7619861023">
		<tag k="alt_name" v="Granstua" />
		<tag k="name" v="Gransstua" />
		<tag k="place" v="isolated_dwelling" />
		<tag k="ssr:stedsnr" v="370679" />
	</node>
	<node id="-268623" lat="60.4390499999" lon="10.7277722288">
		<tag k="alt_name" v="Tuvsætra;Tuv Sr" />
		<tag k="historic" v="shieling" />
		<tag k="name" v="Tuvssetra" />
		<tag k="place" v="locality" />
		<tag k="ssr:stedsnr" v="370666" />
	</node>
	<node id="-268622" lat="60.4399111113" lon="11.0678416745">
		<tag k="alt_name" v="Hagaholtet" />
		<tag k="name" v="Hagan" />
		<tag k="old_name" v="Hagen" />
		<tag k="place" v="isolated_dwelling" />
		<tag k="ssr:stedsnr" v="370664" />
	</node>
	<node id="-268621" lat="60.4319833373" lon="11.0657555532">
		<tag k="name" v="Knaibakken" />
		<tag k="place" v="farm" />
		<tag k="ssr:stedsnr" v="370642" />
	</node>
	<node id="-268617" lat="60.3448965591" lon="11.0142710183">
		<tag k="fixme" v="consider place=hamlet" />
		<tag k="name" v="Holen" />
		<tag k="place" v="farm" />
		<tag k="ssr:stedsnr" v="370554" />
	</node>
	<node id="-268616" lat="60.396136112" lon="11.1264166602">
		<tag k="name" v="Vingerdalstua" />
		<tag k="place" v="isolated_dwelling" />
		<tag k="ssr:stedsnr" v="370003" />
	</node>
	<node id="-268613" lat="60.4733749996" lon="10.9942250077">
		<tag k="name" v="Bjønnbråtan" />
		<tag k="place" v="locality" />
		<tag k="ssr:stedsnr" v="361874" />
	</node>
	<node id="-268600" lat="60.4202111103" lon="10.9052861133">
		<tag k="name" v="Knuthølet" />
		<tag k="place" v="locality" />
		<tag k="ssr:stedsnr" v="345192" />
	</node>
	<node id="-268596" lat="60.4836833328" lon="10.9877777769">
		<tag k="name" v="Mikalshytta" />
		<tag k="place" v="locality" />
		<tag k="ssr:stedsnr" v="345071" />
	</node>
	<node id="-268593" lat="60.4961805567" lon="11.0368472304">
		<tag k="building" v="industrial" />
		<tag k="name" v="Seteråssaga" />
		<tag k="ssr:stedsnr" v="345037" />
	</node>
	<node id="-268591" lat="60.3473722249" lon="11.0114833286">
		<tag k="name" v="Heggeli" />
		<tag k="place" v="farm" />
		<tag k="ssr:stedsnr" v="343806" />
	</node>
	<node id="-268588" lat="60.4449916681" lon="10.8736555586">
		<tag k="name" v="Brustua" />
		<tag k="place" v="isolated_dwelling" />
		<tag k="ssr:stedsnr" v="343262" />
	</node>
	<node id="-268582" lat="60.4218749977" lon="10.9653333356">
		<tag k="name" v="Hagen" />
		<tag k="place" v="farm" />
		<tag k="ssr:stedsnr" v="310636" />
	</node>
	<node id="-268578" lat="60.3507749998" lon="11.0662999993">
		<tag k="alt_name" v="Svensgardhytta" />
		<tag k="name" v="Svensgårdhytta" />
		<tag k="place" v="isolated_dwelling" />
		<tag k="ssr:stedsnr" v="310521" />
	</node>
	<node id="-268576" lat="60.3496472267" lon="11.0172972195">
		<tag k="alt_name" v="Rustadbruk" />
		<tag k="name" v="Rustad bruk" />
		<tag k="place" v="farm" />
		<tag k="ssr:stedsnr" v="310519" />
	</node>
	<node id="-268572" lat="60.4430083296" lon="10.8542361146">
		<tag k="name" v="Skabland" />
		<tag k="place" v="farm" />
		<tag k="ssr:stedsnr" v="309680" />
	</node>
	<node id="-268571" lat="60.4421750043" lon="10.9710305492">
		<tag k="fixme" v="multiple name tags, choose one and add the other to alt_name" />
		<tag k="name" v="Bråten;Gjødingseterbråtan" />
		<tag k="place" v="farm" />
		<tag k="ssr:stedsnr" v="309669" />
	</node>
	<node id="-268570" lat="60.436675002" lon="11.0569111165">
		<tag k="name" v="Tørrtopp" />
		<tag k="place" v="farm" />
		<tag k="ssr:stedsnr" v="309665" />
	</node>
	<node id="-268569" lat="60.4213583354" lon="10.9155638831">
		<tag k="name" v="Tangen" />
		<tag k="place" v="farm" />
		<tag k="ssr:stedsnr" v="309660" />
	</node>
	<node id="-268568" lat="60.4287500011" lon="10.9976527712">
		<tag k="name" v="Kabberud" />
		<tag k="place" v="farm" />
		<tag k="ssr:stedsnr" v="309650" />
	</node>
	<node id="-268567" lat="60.4058520525" lon="11.0464609584">
		<tag k="fixme" v="consider place=hamlet" />
		<tag k="name" v="Lundby" />
		<tag k="place" v="farm" />
		<tag k="ssr:stedsnr" v="309627" />
	</node>
	<node id="-268566" lat="60.3956888881" lon="11.0784666659">
		<tag k="name" v="Myrvoll" />
		<tag k="place" v="farm" />
		<tag k="ssr:stedsnr" v="309615" />
	</node>
	<node id="-268564" lat="60.3754305598" lon="10.919830561">
		<tag k="name" v="Jeppeli" />
		<tag k="place" v="isolated_dwelling" />
		<tag k="ssr:stedsnr" v="309585" />
	</node>
	<node id="-268563" lat="60.3737833341" lon="11.0217833268">
		<tag k="name" v="Sjursrud" />
		<tag k="place" v="isolated_dwelling" />
		<tag k="ssr:stedsnr" v="309582" />
	</node>
	<node id="-268561" lat="60.3887388934" lon="11.0253416581">
		<tag k="name" v="Saubråtan" />
		<tag k="place" v="locality" />
		<tag k="ssr:stedsnr" v="301961" />
	</node>
	<node id="-268559" lat="60.4248499995" lon="10.9656361173">
		<tag k="name" v="Brattlia" />
		<tag k="place" v="hamlet" />
		<tag k="ssr:stedsnr" v="301038" />
	</node>
	<node id="-268555" lat="60.410808336" lon="11.0383916704">
		<tag k="name" v="Lundbymoen" />
		<tag k="place" v="farm" />
		<tag k="ssr:stedsnr" v="202951" />
	</node>
	<node id="-268553" lat="60.4912555523" lon="11.0163861088">
		<tag k="name" v="Åsheim" />
		<tag k="place" v="farm" />
		<tag k="ssr:stedsnr" v="188765" />
	</node>
	<node id="-268552" lat="60.493219448" lon="10.9806805501">
		<tag k="name" v="Søndre Rognlia" />
		<tag k="place" v="farm" />
		<tag k="ssr:stedsnr" v="188760" />
	</node>
	<node id="-268551" lat="60.4900694466" lon="11.0187888957">
		<tag k="alt_name" v="Tajet" />
		<tag k="name" v="Granlund" />
		<tag k="place" v="farm" />
		<tag k="ssr:stedsnr" v="188756" />
	</node>
	<node id="-268549" lat="60.4794666622" lon="11.0184944523">
		<tag k="name" v="Tangen" />
		<tag k="place" v="farm" />
		<tag k="ssr:stedsnr" v="188731" />
	</node>
	<node id="-268547" lat="60.4603124176" lon="11.0680011379">
		<tag k="fixme" v="consider place=hamlet" />
		<tag k="name" v="Røsrud" />
		<tag k="place" v="farm" />
		<tag k="ssr:stedsnr" v="188716" />
	</node>
	<node id="-268546" lat="60.4588833298" lon="11.0443999917">
		<tag k="name" v="Steinrud" />
		<tag k="place" v="isolated_dwelling" />
		<tag k="ssr:stedsnr" v="188709" />
	</node>
	<node id="-268543" lat="60.4395583301" lon="11.0242250005">
		<tag k="name" v="Halsteinbakken" />
		<tag k="place" v="farm" />
		<tag k="ssr:stedsnr" v="188687" />
	</node>
	<node id="-268542" lat="60.4332527751" lon="11.0530277758">
		<tag k="alt_name" v="Garverhjemmet" />
		<tag k="name" v="Garverheimet" />
		<tag k="place" v="farm" />
		<tag k="ssr:stedsnr" v="188680" />
	</node>
	<node id="-268540" lat="60.4338055568" lon="11.0666722222">
		<tag k="name" v="Brustad" />
		<tag k="place" v="farm" />
		<tag k="ssr:stedsnr" v="188675" />
	</node>
	<node id="-268532" lat="60.3672527802" lon="11.0125305601">
		<tag k="name" v="Viken" />
		<tag k="place" v="farm" />
		<tag k="ssr:stedsnr" v="188588" />
	</node>
	<node id="-268530" lat="60.3635944428" lon="11.0019305538">
		<tag k="name" v="Søndre Nordgarden" />
		<tag k="place" v="farm" />
		<tag k="ssr:stedsnr" v="188582" />
	</node>
	<node id="-268529" lat="60.3542083344" lon="11.0032027846">
		<tag k="name" v="Lund" />
		<tag k="place" v="farm" />
		<tag k="ssr:stedsnr" v="188571" />
	</node>
	<node id="-268523" lat="60.4555277739" lon="10.7636499913">
		<tag k="name" v="Slåttbråtan" />
		<tag k="place" v="locality" />
		<tag k="ssr:stedsnr" v="181443" />
	</node>
	<node id="-268519" lat="60.4299138879" lon="11.0543777771">
		<tag k="name" v="Bjørhus" />
		<tag k="place" v="farm" />
		<tag k="ssr:stedsnr" v="180039" />
	</node>
	<node id="-268518" lat="60.456850004" lon="10.852788883">
		<tag k="name" v="Borgersrud" />
		<tag k="place" v="locality" />
		<tag k="ssr:stedsnr" v="179839" />
	</node>
	<node id="-268514" lat="60.4775722258" lon="11.0023805562">
		<tag k="name" v="Geitsetra" />
		<tag k="place" v="locality" />
		<tag k="ssr:stedsnr" v="179176" />
	</node>
	<node id="-268505" lat="60.4491777786" lon="11.0440500054">
		<tag k="name" v="Elverhøy" />
		<tag k="place" v="isolated_dwelling" />
		<tag k="ssr:stedsnr" v="163746" />
	</node>
	<node id="-268497" lat="60.4140555572" lon="10.9820027759">
		<tag k="name" v="Lundbyseter" />
		<tag k="place" v="locality" />
		<tag k="ssr:stedsnr" v="163185" />
	</node>
	<node id="-268490" lat="60.4468666668" lon="10.8846333404">
		<tag k="name" v="Oppegårdstua" />
		<tag k="place" v="isolated_dwelling" />
		<tag k="ssr:stedsnr" v="161293" />
	</node>
	<node id="-268489" lat="60.4474250023" lon="10.8633222232">
		<tag k="name" v="Benterud" />
		<tag k="place" v="locality" />
		<tag k="ssr:stedsnr" v="161290" />
	</node>
	<node id="-268486" lat="60.4238499966" lon="11.0637500026">
		<tag k="alt_name" v="Nordgården;Nordgarden" />
		<tag k="name" v="Nordgarden Knai" />
		<tag k="old_name" v="Nordgaarden Knai" />
		<tag k="place" v="farm" />
		<tag k="ssr:stedsnr" v="157061" />
	</node>
	<node id="-268483" lat="60.4487760837" lon="11.0256633723">
		<tag k="fixme" v="consider place=hamlet" />
		<tag k="name" v="Rognstad" />
		<tag k="place" v="farm" />
		<tag k="ssr:stedsnr" v="127692" />
	</node>
	<node id="-268482" lat="60.4443956" lon="11.0228147241">
		<tag k="fixme" v="consider place=hamlet" />
		<tag k="name" v="Haug" />
		<tag k="place" v="farm" />
		<tag k="ssr:stedsnr" v="127687" />
	</node>
	<node id="-268480" lat="60.488919441" lon="10.9997666635">
		<tag k="name" v="Vestenga" />
		<tag k="place" v="farm" />
		<tag k="ssr:stedsnr" v="127756" />
	</node>
	<node id="-268479" lat="60.4853861105" lon="10.9987305588">
		<tag k="name" v="Holtet" />
		<tag k="place" v="farm" />
		<tag k="ssr:stedsnr" v="127755" />
	</node>
	<node id="-268477" lat="60.4683611135" lon="11.0615916653">
		<tag k="name" v="Solsrud" />
		<tag k="place" v="farm" />
		<tag k="ssr:stedsnr" v="127730" />
	</node>
	<node id="-268476" lat="60.4724722246" lon="11.0224444515">
		<tag k="name" v="Nordlia" />
		<tag k="place" v="farm" />
		<tag k="ssr:stedsnr" v="127721" />
	</node>
	<node id="-268475" lat="60.3653749982" lon="10.9934972189">
		<tag k="name" v="Øverbakken" />
		<tag k="place" v="farm" />
		<tag k="ssr:stedsnr" v="127579" />
	</node>
	<node id="-268474" lat="60.3609694439" lon="10.9967638952">
		<tag k="name" v="Åsli" />
		<tag k="place" v="farm" />
		<tag k="ssr:stedsnr" v="127578" />
	</node>
	<node id="-268473" lat="60.3534138919" lon="10.926730553">
		<tag k="name" v="Damstua" />
		<tag k="place" v="isolated_dwelling" />
		<tag k="ssr:stedsnr" v="127570" />
	</node>
	<node id="-268470" lat="60.4309638882" lon="11.0771388938">
		<tag k="name" v="Skogstad" />
		<tag k="place" v="farm" />
		<tag k="ssr:stedsnr" v="127666" />
	</node>
	<node id="-268469" lat="60.4140166669" lon="11.0380999942">
		<tag k="name" v="Nordby" />
		<tag k="place" v="farm" />
		<tag k="ssr:stedsnr" v="127660" />
	</node>
	<node id="-268466" lat="60.3402805563" lon="11.0933138911">
		<tag k="name" v="Langton" />
		<tag k="place" v="farm" />
		<tag k="ssr:stedsnr" v="127552" />
	</node>
	<node id="-268465" lat="60.338113892" lon="11.0917277733">
		<tag k="name" v="Grønerud" />
		<tag k="place" v="isolated_dwelling" />
		<tag k="ssr:stedsnr" v="127551" />
	</node>
	<node id="-268459" lat="60.3864527747" lon="11.0379916645">
		<tag k="name" v="Nystuen Rud" />
		<tag k="place" v="farm" />
		<tag k="ssr:stedsnr" v="119978" />
	</node>
	<node id="-268457" lat="60.4479888869" lon="10.7198861082">
		<tag k="alt_name" v="Falla vestre;Bentefaldet" />
		<tag k="name" v="Vestre Falla" />
		<tag k="place" v="isolated_dwelling" />
		<tag k="ssr:stedsnr" v="119485" />
	</node>
	<node id="-268456" lat="60.4025722184" lon="11.0428499982">
		<tag k="name" v="Røysa" />
		<tag k="place" v="farm" />
		<tag k="ssr:stedsnr" v="119070" />
	</node>
	<node id="-268444" lat="60.4286527769" lon="11.0680527823">
		<tag k="name" v="Mjølnerhaugen" />
		<tag k="place" v="farm" />
		<tag k="ssr:stedsnr" v="116450" />
	</node>
	<node id="-268434" lat="60.3785972203" lon="10.913741671">
		<tag k="fixme" v="consider place=hamlet" />
		<tag k="name" v="Jeppedalen" />
		<tag k="place" v="farm" />
		<tag k="ssr:stedsnr" v="103710" />
	</node>
	<node id="-268430" lat="60.36469167" lon="11.001180548">
		<tag k="name" v="Nordre Nordgarden" />
		<tag k="place" v="farm" />
		<tag k="ssr:stedsnr" v="103533" />
	</node>
	<node id="-268427" lat="60.4451500018" lon="10.9734249917">
		<tag k="name" v="Øvreenga" />
		<tag k="place" v="locality" />
		<tag k="ssr:stedsnr" v="102727" />
	</node>
	<node id="-268425" lat="60.4688083332" lon="11.0698250061">
		<tag k="name" v="Melbybakken" />
		<tag k="place" v="farm" />
		<tag k="ssr:stedsnr" v="102254" />
	</node>
	<node id="-268421" lat="60.4192694431" lon="10.9146777812">
		<tag k="name" v="Sørseterbråtan" />
		<tag k="place" v="locality" />
		<tag k="ssr:stedsnr" v="102204" />
	</node>
	<node id="-268415" lat="60.4950888858" lon="11.0063194397">
		<tag k="name" v="Holtemarka" />
		<tag k="place" v="neighbourhood" />
		<tag k="ssr:stedsnr" v="102015" />
	</node>
	<node id="-268413" lat="60.4833972204" lon="11.0240527783">
		<tag k="name" v="Sørli" />
		<tag k="place" v="farm" />
		<tag k="ssr:stedsnr" v="102001" />
	</node>
	<node id="-268412" lat="60.4024111071" lon="11.0522333366">
		<tag k="name" v="Hurdalsjøen Hotell" />
		<tag k="ssr:stedsnr" v="86695" />
		<tag k="tourism" v="hotel" />
	</node>
	<node id="-268411" lat="60.4610638908" lon="11.0600916725">
		<tag k="name" v="Ødemark" />
		<tag k="place" v="hamlet" />
		<tag k="ssr:stedsnr" v="67698" />
	</node>
	<node id="-268410" lat="60.4455999967" lon="10.7446750014">
		<tag k="name" v="Dumpidal" />
		<tag k="place" v="isolated_dwelling" />
		<tag k="ssr:stedsnr" v="67687" />
	</node>
	<node id="-268409" lat="60.4520749981" lon="10.8580750076">
		<tag k="name" v="Vollenga" />
		<tag k="place" v="farm" />
		<tag k="ssr:stedsnr" v="67680" />
	</node>
	<node id="-268405" lat="60.4441027768" lon="11.0621277862">
		<tag k="name" v="Nordre Opperud" />
		<tag k="place" v="farm" />
		<tag k="ssr:stedsnr" v="67658" />
	</node>
	<node id="-268404" lat="60.4964499963" lon="10.9796500009">
		<tag k="name" v="Nordre Rognlia" />
		<tag k="place" v="farm" />
		<tag k="ssr:stedsnr" v="67739" />
	</node>
	<node id="-268402" lat="60.4856361096" lon="11.0054638892">
		<tag k="name" v="Inngjerdinga" />
		<tag k="place" v="farm" />
		<tag k="ssr:stedsnr" v="67729" />
	</node>
	<node id="-268400" lat="60.3669722217" lon="11.0722472244">
		<tag k="name" v="Østerud" />
		<tag k="place" v="farm" />
		<tag k="ssr:stedsnr" v="67574" />
	</node>
	<node id="-268398" lat="60.4207611149" lon="11.0410666638">
		<tag k="name" v="Burås" />
		<tag k="place" v="farm" />
		<tag k="ssr:stedsnr" v="67635" />
	</node>
	<node id="-268395" lat="60.4672472245" lon="11.0504777809">
		<tag k="alt_name" v="Skogly" />
		<tag k="name" v="Skogli" />
		<tag k="place" v="farm" />
		<tag k="ssr:stedsnr" v="66682" />
	</node>
	<node id="-268394" lat="60.4689583358" lon="11.0255194507">
		<tag k="name" v="Lisbakken" />
		<tag k="place" v="farm" />
		<tag k="ssr:stedsnr" v="66681" />
	</node>
	<node id="-268386" lat="60.4394472254" lon="10.8871472216">
		<tag k="alt_name" v="Sørgarden" />
		<tag k="name" v="Øvre Sørgård" />
		<tag k="place" v="farm" />
		<tag k="ssr:stedsnr" v="59411" />
	</node>
	<node id="-268384" lat="60.4699944408" lon="10.9665111103">
		<tag k="name" v="Holenseter" />
		<tag k="place" v="locality" />
		<tag k="ssr:stedsnr" v="57862" />
	</node>
	<node id="-268381" lat="60.4740166649" lon="11.0290166606">
		<tag k="building" v="industrial" />
		<tag k="industrial" v="factory" />
		<tag k="name" v="Flaen mølle" />
		<tag k="ssr:stedsnr" v="57141" />
	</node>
	<node id="-268371" lat="60.4085999974" lon="11.0509638923">
		<tag k="amenity" v="school" />
		<tag k="name" v="Kirkekretsen skole" />
		<tag k="ssr:stedsnr" v="42843" />
	</node>
	<node id="-268368" lat="60.4098444432" lon="10.9902277826">
		<tag k="name" v="Velgjortstua" />
		<tag k="place" v="locality" />
		<tag k="ssr:stedsnr" v="42833" />
	</node>
	<node id="-268366" lat="60.3779027791" lon="10.934397215">
		<tag k="name" v="Hagaseter" />
		<tag k="place" v="locality" />
		<tag k="ssr:stedsnr" v="42690" />
	</node>
	<node id="-268363" lat="60.443833337" lon="10.9785444488">
		<tag k="name" v="Ospebråtan" />
		<tag k="place" v="locality" />
		<tag k="ssr:stedsnr" v="42635" />
	</node>
	<node id="-268359" lat="60.4903527756" lon="10.7548222293">
		<tag k="name" v="Vindflohytta" />
		<tag k="place" v="isolated_dwelling" />
		<tag k="ssr:stedsnr" v="42228" />
	</node>
	<node id="-268357" lat="60.4288111104" lon="10.9126388862">
		<tag k="name" v="Øvre Grasbakken" />
		<tag k="place" v="farm" />
		<tag k="ssr:stedsnr" v="42182" />
	</node>
	<node id="-268347" lat="60.3396166703" lon="11.087599993">
		<tag k="alt_name" v="Langton nedre" />
		<tag k="name" v="Nedre Langton" />
		<tag k="place" v="farm" />
		<tag k="ssr:stedsnr" v="40086" />
	</node>
	<node id="-268344" lat="60.4925777792" lon="10.9845000036">
		<tag k="name" v="Rognlienga" />
		<tag k="place" v="farm" />
		<tag k="ssr:stedsnr" v="6743" />
	</node>
	<node id="-268343" lat="60.4788916647" lon="10.7372611026">
		<tag k="alt_name" v="Damhaughytta" />
		<tag k="name" v="Damhaugstua" />
		<tag k="place" v="isolated_dwelling" />
		<tag k="ssr:stedsnr" v="6731" />
	</node>
	<node id="-268342" lat="60.4916805571" lon="10.9977361024">
		<tag k="name" v="Fagerlund" />
		<tag k="place" v="farm" />
		<tag k="ssr:stedsnr" v="6729" />
	</node>
	<node id="-268341" lat="60.4814722227" lon="11.0105916598">
		<tag k="alt_name" v="Ringen, nordre" />
		<tag k="name" v="Nord-Ringen" />
		<tag k="place" v="farm" />
		<tag k="ssr:stedsnr" v="6708" />
	</node>
	<node id="-268340" lat="60.4597470092" lon="10.7285917226">
		<tag k="fixme" v="consider place=hamlet" />
		<tag k="name" v="Røsåsen" />
		<tag k="place" v="farm" />
		<tag k="ssr:stedsnr" v="6703" />
	</node>
	<node id="-268339" lat="60.4660999964" lon="11.0593250081">
		<tag k="name" v="Bekkelund" />
		<tag k="place" v="farm" />
		<tag k="ssr:stedsnr" v="6702" />
	</node>
	<node id="-268338" lat="60.4652583314" lon="11.0443999912">
		<tag k="name" v="Sørflaen" />
		<tag k="place" v="farm" />
		<tag k="ssr:stedsnr" v="6699" />
	</node>
	<node id="-268337" lat="60.4572638884" lon="11.0449749952">
		<tag k="name" v="Snippen" />
		<tag k="place" v="farm" />
		<tag k="ssr:stedsnr" v="6695" />
	</node>
	<node id="-268334" lat="60.4541500027" lon="10.8480027865">
		<tag k="alt_name" v="Rugroten" />
		<tag k="name" v="Rugrota" />
		<tag k="place" v="farm" />
		<tag k="ssr:stedsnr" v="6678" />
	</node>
	<node id="-268333" lat="60.446269447" lon="11.0445555524">
		<tag k="name" v="Tangen" />
		<tag k="place" v="farm" />
		<tag k="ssr:stedsnr" v="6675" />
	</node>
	<node id="-268332" lat="60.4452305531" lon="10.9642499939">
		<tag k="name" v="Gjødingssætra" />
		<tag k="place" v="farm" />
		<tag k="ssr:stedsnr" v="6663" />
	</node>
	<node id="-268331" lat="60.4296805567" lon="10.8645611093">
		<tag k="name" v="Skjeggerudstua" />
		<tag k="place" v="locality" />
		<tag k="ssr:stedsnr" v="6654" />
	</node>
	<node id="-268330" lat="60.4255972246" lon="10.9605777821">
		<tag k="name" v="Brattlia" />
		<tag k="place" v="farm" />
		<tag k="ssr:stedsnr" v="6651" />
	</node>
	<node id="-268329" lat="60.4252694483" lon="11.0672000072">
		<tag k="alt_name" v="Nordgarden" />
		<tag k="name" v="Nergården" />
		<tag k="place" v="farm" />
		<tag k="ssr:stedsnr" v="6643" />
	</node>
	<node id="-268328" lat="60.4150305599" lon="11.0162777733">
		<tag k="alt_name" v="Raudfossen" />
		<tag k="name" v="Raufossen" />
		<tag k="place" v="farm" />
		<tag k="ssr:stedsnr" v="6640" />
	</node>
	<node id="-268327" lat="60.4165055561" lon="11.0308833245">
		<tag k="name" v="Tømte" />
		<tag k="place" v="farm" />
		<tag k="ssr:stedsnr" v="6638" />
	</node>
	<node id="-268326" lat="60.3919555529" lon="11.0470666662">
		<tag k="name" v="Sand" />
		<tag k="place" v="farm" />
		<tag k="ssr:stedsnr" v="6617" />
	</node>
	<node id="-268324" lat="60.3826249996" lon="11.0297194396">
		<tag k="alt_name" v="Lauvli" />
		<tag k="name" v="Løvli" />
		<tag k="place" v="farm" />
		<tag k="ssr:stedsnr" v="6589" />
	</node>
	<node id="-268323" lat="60.3747388851" lon="10.9701638952">
		<tag k="name" v="Vestlia" />
		<tag k="place" v="farm" />
		<tag k="ssr:stedsnr" v="6580" />
	</node>
	<node id="-268321" lat="60.3615527788" lon="10.9716916653">
		<tag k="name" v="Heggetjennstua" />
		<tag k="place" v="isolated_dwelling" />
		<tag k="ssr:stedsnr" v="6565" />
	</node>
	<node id="-268320" lat="60.3462250029" lon="11.0081250059">
		<tag k="alt_name" v="Finngården" />
		<tag k="name" v="Finngarden" />
		<tag k="place" v="farm" />
		<tag k="ssr:stedsnr" v="6550" />
	</node>
	<node id="-268316" lat="60.4499888894" lon="10.7381166682">
		<tag k="name" v="Botnløkka" />
		<tag k="place" v="locality" />
		<tag k="ssr:stedsnr" v="969473" />
	</node>
	<node id="-268315" lat="60.4413333311" lon="10.8610305483">
		<tag k="name" v="Elvebekkvangen" />
		<tag k="place" v="locality" />
		<tag k="ssr:stedsnr" v="969427" />
	</node>
	<node id="-268312" lat="60.463152777" lon="10.8433277715">
		<tag k="loc_name" v="Stellet" />
		<tag k="name" v="Christofferstellet" />
		<tag k="place" v="locality" />
		<tag k="ssr:stedsnr" v="967815" />
	</node>
	<node id="-268309" lat="60.4238750019" lon="11.1103138804">
		<tag k="name" v="Jensbråtan" />
		<tag k="place" v="locality" />
		<tag k="ssr:stedsnr" v="965460" />
	</node>
	<node id="-268307" lat="60.4186111126" lon="11.0673972138">
>>>>>>> e1d4bc35ff8a6074a6f2e91616a996b547c36f15
		<tag k="name" v="Framnes" />
		<tag k="place" v="isolated_dwelling" />
		<tag k="ssr:stedsnr" v="965453" />
	</node>
<<<<<<< HEAD
	<node lat="60.42387500187911" lon="11.110313880394344" id="-16409">
		<tag k="name" v="Jensbråtan" />
		<tag k="place" v="locality" />
		<tag k="ssr:stedsnr" v="965460" />
	</node>
	<node lat="60.380444448044955" lon="11.027402772770413" id="-16411">
		<tag k="name" v="Rudsenga" />
		<tag k="place" v="farm" />
		<tag k="ssr:stedsnr" v="968578" />
	</node>
	<node lat="60.44133333105144" lon="10.861030548278178" id="-16413">
		<tag k="name" v="Elvebekkvangen" />
		<tag k="place" v="locality" />
		<tag k="ssr:stedsnr" v="969427" />
	</node>
	<node lat="60.44998888940172" lon="10.73811666818782" id="-16414">
		<tag k="name" v="Botnløkka" />
		<tag k="place" v="locality" />
		<tag k="ssr:stedsnr" v="969473" />
	</node>
	<node lat="60.3474688188606" lon="11.009212117122894" id="-16429">
		<tag k="alt_name" v="Aspelund" />
		<tag k="name" v="Roaldtun" />
		<tag k="place" v="farm" />
		<tag k="ssr:stedsnr" v="1082069" />
=======
	<node id="-268303" lat="60.4930777753" lon="10.7373833274">
		<tag k="alt_name" v="Flårudseter" />
		<tag k="historic" v="shieling" />
		<tag k="name" v="Flårudsætra" />
		<tag k="place" v="locality" />
		<tag k="ssr:stedsnr" v="916772" />
	</node>
	<node id="-268299" lat="60.4938694425" lon="11.0103777722">
		<tag k="name" v="Innleggen" />
		<tag k="place" v="farm" />
		<tag k="ssr:stedsnr" v="916765" />
	</node>
	<node id="-268295" lat="60.3779805595" lon="11.0806250059">
		<tag k="fixme" v="multiple name tags, choose one and add the other to alt_name" />
		<tag k="name" v="Søndre Eidsæter;Søsetra" />
		<tag k="place" v="farm" />
		<tag k="ssr:stedsnr" v="916578" />
	</node>
	<node id="-268294" lat="60.3704500043" lon="10.9530388932">
		<tag k="name" v="Tomtestua" />
		<tag k="place" v="locality" />
		<tag k="ssr:stedsnr" v="916564" />
	</node>
	<node id="-268292" lat="60.4091194479" lon="11.0411722245">
		<tag k="alt_name" v="Nilsstuen" />
		<tag k="name" v="Nilsstua" />
		<tag k="place" v="farm" />
		<tag k="ssr:stedsnr" v="916626" />
	</node>
	<node id="-268290" lat="60.3946750037" lon="11.0779527765">
		<tag k="name" v="Nordlund" />
		<tag k="place" v="farm" />
		<tag k="ssr:stedsnr" v="916607" />
>>>>>>> e1d4bc35ff8a6074a6f2e91616a996b547c36f15
	</node>
</osm>
