<?xml version="1.0" encoding="UTF-8"?>
<<<<<<< HEAD
<osm version="0.6" generator="osmapis">
	<node lat="60.42093458817374" lon="11.07332987828016" id="-15150">
		<tag k="fixme" v="consider boundary=protected_area and relevant protect_class if not nature reserve" />
		<tag k="leisure" v="nature_reserve" />
		<tag k="name" v="Hurdalselvdeltaet naturreservat" />
		<tag k="ssr:stedsnr" v="176402" />
	</node>
	<node lat="60.484253141255344" lon="10.70110497710765" id="-15246">
=======
<osm generator="osmapis" version="0.6">
	<node id="-268509" lat="60.4226194457" lon="11.0731361159">
>>>>>>> e1d4bc35ff8a6074a6f2e91616a996b547c36f15
		<tag k="fixme" v="consider boundary=protected_area and relevant protect_class if not nature reserve" />
		<tag k="leisure" v="nature_reserve" />
		<tag k="name" v="Sislemyrene naturreservat" />
		<tag k="ssr:stedsnr" v="466250" />
	</node>
<<<<<<< HEAD
	<node lat="60.498644440791786" lon="10.748291658873946" id="-15435">
=======
	<node id="-268055" lat="60.4986444408" lon="10.7482916589">
>>>>>>> e1d4bc35ff8a6074a6f2e91616a996b547c36f15
		<tag k="fixme" v="consider boundary=protected_area and relevant protect_class if not nature reserve" />
		<tag k="leisure" v="nature_reserve" />
		<tag k="name" v="Vindflomyrene naturreservat" />
		<tag k="ssr:stedsnr" v="694033" />
	</node>
<<<<<<< HEAD
	<node lat="60.447930666750686" lon="10.787979856500623" id="-15742">
=======
	<node id="-267862" lat="60.4842531413" lon="10.7011049771">
>>>>>>> e1d4bc35ff8a6074a6f2e91616a996b547c36f15
		<tag k="fixme" v="consider boundary=protected_area and relevant protect_class if not nature reserve" />
		<tag k="leisure" v="nature_reserve" />
		<tag k="name" v="Skandøla naturreservat" />
		<tag k="ssr:stedsnr" v="981239" />
	</node>
<<<<<<< HEAD
	<node lat="60.36535277731651" lon="11.068988891496383" id="-16168">
		<tag k="fixme" v="consider boundary=protected_area and relevant protect_class if not nature reserve" />
		<tag k="leisure" v="nature_reserve" />
		<tag k="name" v="Østerud naturminne" />
		<tag k="ssr:stedsnr" v="588727" />
	</node>
	<node lat="60.4658555594864" lon="10.924625002970185" id="-16315">
=======
	<node id="-268901" lat="60.4658555595" lon="10.924625003">
>>>>>>> e1d4bc35ff8a6074a6f2e91616a996b547c36f15
		<tag k="fixme" v="consider boundary=protected_area and relevant protect_class if not nature reserve" />
		<tag k="leisure" v="nature_reserve" />
		<tag k="name" v="Fjellsjøkampen naturreservat" />
		<tag k="ssr:stedsnr" v="785879" />
	</node>
<<<<<<< HEAD
	<node lat="60.39996321618688" lon="10.892342924299365" id="-16428">
=======
	<node id="-268099" lat="60.3653527773" lon="11.0689888915">
>>>>>>> e1d4bc35ff8a6074a6f2e91616a996b547c36f15
		<tag k="fixme" v="consider boundary=protected_area and relevant protect_class if not nature reserve" />
		<tag k="leisure" v="nature_reserve" />
		<tag k="name" v="Rognhaugen naturreservat" />
		<tag k="ssr:stedsnr" v="1081822" />
	</node>
	<node id="-269058" lat="60.4479306668" lon="10.7879798565">
		<tag k="fixme" v="consider boundary=protected_area and relevant protect_class if not nature reserve" />
		<tag k="leisure" v="nature_reserve" />
		<tag k="name" v="Skandøla naturreservat" />
		<tag k="ssr:stedsnr" v="981239" />
	</node>
</osm>
