<?xml version="1.0" encoding="UTF-8"?>
<osm version="0.6" generator="osmapis">
	<node lat="60.38879721942966" lon="11.083797221148549" id="-16686">
		<tag k="name" v="Skarpsno" />
		<tag k="place" v="locality" />
		<tag k="ssr:stedsnr" v="42895" />
	</node>
	<node lat="60.41689166512574" lon="11.10503056291997" id="-16687">
		<tag k="name" v="Kloppmyra" />
		<tag k="natural" v="wetland" />
		<tag k="ssr:stedsnr" v="237464" />
	</node>
	<node lat="60.37140555516673" lon="11.07768056324252" id="-16689">
		<tag k="name" v="Vaskebekkholtet" />
		<tag k="place" v="locality" />
		<tag k="ssr:stedsnr" v="42905" />
	</node>
	<node lat="60.45940833011984" lon="10.930208340748228" id="-16695">
		<tag k="name" v="Kampemyra" />
		<tag k="natural" v="wetland" />
		<tag k="ssr:stedsnr" v="239854" />
	</node>
	<node lat="60.38143889297304" lon="11.034686114582353" id="-16704">
		<tag k="name" v="Søstumyra" />
		<tag k="place" v="locality" />
		<tag k="ssr:stedsnr" v="241557" />
	</node>
	<node lat="60.38216388804717" lon="11.03658056065057" id="-16705">
		<tag k="name" v="Nystumyra" />
		<tag k="place" v="locality" />
		<tag k="ssr:stedsnr" v="241559" />
	</node>
	<node lat="60.434772226072845" lon="10.926511102378212" id="-16720">
		<tag k="name" v="Badstuengmyra" />
		<tag k="natural" v="wetland" />
		<tag k="ssr:stedsnr" v="102221" />
	</node>
	<node lat="60.50643610746964" lon="11.071988897419603" id="-16723">
		<tag k="name" v="Vintermyra" />
		<tag k="natural" v="wetland" />
		<tag k="ssr:stedsnr" v="103130" />
	</node>
	<node lat="60.378969444379685" lon="10.92960000791708" id="-16725">
		<tag k="name" v="Lessemyra" />
		<tag k="natural" v="wetland" />
		<tag k="ssr:stedsnr" v="103708" />
	</node>
	<node lat="60.37636111524175" lon="11.085380563187918" id="-16727">
		<tag k="name" v="Moltemyra" />
		<tag k="natural" v="wetland" />
		<tag k="ssr:stedsnr" v="103907" />
	</node>
	<node lat="60.397783329767705" lon="11.095252770049333" id="-16728">
		<tag k="name" v="Skjellmyra" />
		<tag k="natural" v="wetland" />
		<tag k="ssr:stedsnr" v="249003" />
	</node>
	<node lat="60.38618889206247" lon="11.122647225410333" id="-16729">
		<tag k="name" v="Rønsenhogget" />
		<tag k="place" v="locality" />
		<tag k="ssr:stedsnr" v="103901" />
	</node>
	<node lat="60.47924444499897" lon="10.74588611777329" id="-16750">
		<tag k="alt_name" v="Malsjømyrene" />
		<tag k="name" v="Malsjømyra" />
		<tag k="natural" v="wetland" />
		<tag k="ssr:stedsnr" v="249718" />
	</node>
	<node lat="60.46296944084932" lon="10.858958341108114" id="-16754">
		<tag k="name" v="Mikkelhøgget" />
		<tag k="place" v="locality" />
		<tag k="ssr:stedsnr" v="118832" />
	</node>
	<node lat="60.46596944315757" lon="10.934816662519442" id="-16755">
		<tag k="name" v="Bjønnhimyra" />
		<tag k="natural" v="wetland" />
		<tag k="ssr:stedsnr" v="118871" />
	</node>
	<node lat="60.45794722147985" lon="11.00599166010183" id="-16767">
		<tag k="name" v="Kollmyra" />
		<tag k="natural" v="wetland" />
		<tag k="ssr:stedsnr" v="127701" />
	</node>
	<node lat="60.47382777867786" lon="11.085483337667057" id="-16774">
		<tag k="name" v="Fegdemyra" />
		<tag k="natural" v="wetland" />
		<tag k="ssr:stedsnr" v="163205" />
	</node>
	<node lat="60.49599444859925" lon="10.7097749965679" id="-16776">
		<tag k="name" v="Brannelvmyrene" />
		<tag k="natural" v="wetland" />
		<tag k="ssr:stedsnr" v="163209" />
	</node>
	<node lat="60.430758335659014" lon="10.823013888634238" id="-16777">
		<tag k="name" v="Jakobinemyra" />
		<tag k="natural" v="wetland" />
		<tag k="ssr:stedsnr" v="163213" />
	</node>
	<node lat="60.41573333587855" lon="10.868302781151836" id="-16779">
		<tag k="name" v="Furumyra" />
		<tag k="natural" v="wetland" />
		<tag k="ssr:stedsnr" v="163215" />
	</node>
	<node lat="60.38261111007922" lon="10.924336105136002" id="-16780">
		<tag k="name" v="Saumyra" />
		<tag k="natural" v="wetland" />
		<tag k="ssr:stedsnr" v="163719" />
	</node>
	<node lat="60.375472220939436" lon="10.928013893130819" id="-16781">
		<tag k="name" v="Marikollmyra" />
		<tag k="natural" v="wetland" />
		<tag k="ssr:stedsnr" v="163725" />
	</node>
	<node lat="60.40142778137406" lon="11.131936105946526" id="-16782">
		<tag k="historic" v="shieling" />
		<tag k="name" v="Bergesetra" />
		<tag k="place" v="locality" />
		<tag k="ssr:stedsnr" v="163759" />
	</node>
	<node lat="60.39045833639582" lon="10.98935000076119" id="-16783">
		<tag k="name" v="Høgenhallmyrene" />
		<tag k="natural" v="wetland" />
		<tag k="ssr:stedsnr" v="163617" />
	</node>
	<node lat="60.366166670289346" lon="11.096697214782676" id="-16787">
		<tag k="name" v="Ruggesteinen" />
		<tag k="natural" v="stone" />
		<tag k="ssr:stedsnr" v="163679" />
	</node>
	<node lat="60.45921389178303" lon="10.966222215687164" id="-16791">
		<tag k="name" v="Lisputtmyra" />
		<tag k="natural" v="wetland" />
		<tag k="ssr:stedsnr" v="179879" />
	</node>
	<node lat="60.36208611263339" lon="11.107116671912971" id="-16817">
		<tag k="name" v="Porsmyra" />
		<tag k="natural" v="wetland" />
		<tag k="ssr:stedsnr" v="224534" />
	</node>
	<node lat="60.36128055927027" lon="11.081297220937442" id="-16818">
		<tag k="name" v="Bjønnmyra" />
		<tag k="natural" v="wetland" />
		<tag k="ssr:stedsnr" v="224535" />
	</node>
	<node lat="60.44170277329384" lon="11.040125008454888" id="-16821">
		<tag k="name" v="Torvmyra" />
		<tag k="natural" v="wetland" />
		<tag k="ssr:stedsnr" v="224708" />
	</node>
	<node lat="60.419880556777706" lon="11.07883611950152" id="-16834">
		<tag k="name" v="Åsand" />
		<tag k="natural" v="beach" />
		<tag k="ssr:stedsnr" v="262949" />
		<tag k="surface" v="sand" />
	</node>
	<node lat="60.36407777405007" lon="10.929716670323968" id="-16835">
		<tag k="name" v="Lyngtua" />
		<tag k="natural" v="wetland" />
		<tag k="ssr:stedsnr" v="282725" />
	</node>
	<node lat="60.45753888438547" lon="11.100097227088327" id="-16836">
		<tag k="name" v="Vindfalla" />
		<tag k="place" v="locality" />
		<tag k="ssr:stedsnr" v="284213" />
	</node>
	<node lat="60.43520833531241" lon="10.844233334359501" id="-16840">
		<tag k="name" v="Blautmyra" />
		<tag k="natural" v="wetland" />
		<tag k="ssr:stedsnr" v="284178" />
	</node>
	<node lat="60.37543055148722" lon="11.020505547527629" id="-16846">
		<tag k="name" v="Sjursrudstykket" />
		<tag k="place" v="locality" />
		<tag k="ssr:stedsnr" v="285623" />
	</node>
	<node lat="60.37228888990799" lon="11.084338884801795" id="-16851">
		<tag k="name" v="Bråtamyrene" />
		<tag k="natural" v="wetland" />
		<tag k="ssr:stedsnr" v="285908" />
	</node>
	<node lat="60.3840305511428" lon="11.072225001960119" id="-16853">
		<tag k="name" v="Eidseterhagan" />
		<tag k="place" v="locality" />
		<tag k="ssr:stedsnr" v="285899" />
	</node>
	<node lat="60.46960555905371" lon="10.749625008494418" id="-16854">
		<tag k="name" v="Svarttjennsmyra" />
		<tag k="natural" v="wetland" />
		<tag k="ssr:stedsnr" v="298877" />
	</node>
	<node lat="60.46271389249959" lon="10.943063891034122" id="-16858">
		<tag k="name" v="Gråsteinmyra" />
		<tag k="natural" v="wetland" />
		<tag k="ssr:stedsnr" v="300822" />
	</node>
	<node lat="60.46783055805594" lon="10.900347222816366" id="-16859">
		<tag k="name" v="Rødsteinmyrene" />
		<tag k="natural" v="wetland" />
		<tag k="ssr:stedsnr" v="300883" />
	</node>
	<node lat="60.482675003697096" lon="10.733352778016952" id="-16877">
		<tag k="name" v="Bukkemyra" />
		<tag k="natural" v="wetland" />
		<tag k="ssr:stedsnr" v="310727" />
	</node>
	<node lat="60.43298889016427" lon="10.8860833347231" id="-16882">
		<tag k="name" v="Sørgardsmyra" />
		<tag k="natural" v="wetland" />
		<tag k="ssr:stedsnr" v="466242" />
	</node>
	<node lat="60.42432222576115" lon="10.83909445058454" id="-16883">
		<tag k="name" v="Lomtjennsmyra" />
		<tag k="natural" v="wetland" />
		<tag k="ssr:stedsnr" v="466248" />
	</node>
	<node lat="60.48093610934228" lon="10.758005551544574" id="-16887">
		<tag k="name" v="Skillemyra" />
		<tag k="natural" v="wetland" />
		<tag k="ssr:stedsnr" v="466253" />
	</node>
	<node lat="60.38376111041777" lon="10.964411102461177" id="-16891">
		<tag k="name" v="Kvennmyra" />
		<tag k="natural" v="wetland" />
		<tag k="ssr:stedsnr" v="467751" />
	</node>
	<node lat="60.382188886641345" lon="10.946680553389035" id="-16892">
		<tag k="name" v="Sjuputtmyra" />
		<tag k="natural" v="wetland" />
		<tag k="ssr:stedsnr" v="467753" />
	</node>
	<node lat="60.40003610735387" lon="10.923058327318998" id="-16895">
		<tag k="name" v="Bekkemyra" />
		<tag k="natural" v="wetland" />
		<tag k="ssr:stedsnr" v="467849" />
	</node>
	<node lat="60.39933333447945" lon="11.007119453485252" id="-16912">
		<tag k="name" v="Dvergbjørkmyra" />
		<tag k="natural" v="wetland" />
		<tag k="ssr:stedsnr" v="345816" />
	</node>
	<node lat="60.39871111260745" lon="10.998458336347907" id="-16913">
		<tag k="name" v="Gamlevangsmyra" />
		<tag k="natural" v="wetland" />
		<tag k="ssr:stedsnr" v="345822" />
	</node>
	<node lat="60.46402221882741" lon="10.817130557076583" id="-16920">
		<tag k="name" v="Rennhøggmyra" />
		<tag k="natural" v="wetland" />
		<tag k="ssr:stedsnr" v="358901" />
	</node>
	<node lat="60.45432777471572" lon="10.908686119022626" id="-16936">
		<tag k="name" v="Fjellhammermyra" />
		<tag k="natural" v="wetland" />
		<tag k="ssr:stedsnr" v="481649" />
	</node>
	<node lat="60.443416663216716" lon="11.108800001535396" id="-16938">
		<tag k="name" v="Kollmyra" />
		<tag k="natural" v="wetland" />
		<tag k="ssr:stedsnr" v="480895" />
	</node>
	<node lat="60.45454721930018" lon="11.094394452188522" id="-16939">
		<tag k="name" v="Siridalsmyra" />
		<tag k="natural" v="wetland" />
		<tag k="ssr:stedsnr" v="480897" />
	</node>
	<node lat="60.4153638932639" lon="10.862105557689707" id="-16954">
		<tag k="name" v="Langmyrene" />
		<tag k="natural" v="wetland" />
		<tag k="ssr:stedsnr" v="406248" />
	</node>
	<node lat="60.4435305556146" lon="10.938680553541905" id="-16959">
		<tag k="name" v="Fjellsjømyra" />
		<tag k="natural" v="wetland" />
		<tag k="ssr:stedsnr" v="421624" />
	</node>
	<node lat="60.348638886659074" lon="11.091366667985413" id="-17001">
		<tag k="name" v="Svartholtet" />
		<tag k="place" v="locality" />
		<tag k="ssr:stedsnr" v="464775" />
	</node>
	<node lat="60.49404722425837" lon="11.004452786125512" id="-17005">
		<tag k="landuse" v="quarry" />
		<tag k="name" v="Steinbruddet" />
		<tag k="ssr:stedsnr" v="466012" />
	</node>
	<node lat="60.4586638887454" lon="11.078800004576825" id="-17007">
		<tag k="name" v="Hanskollmyra" />
		<tag k="natural" v="wetland" />
		<tag k="ssr:stedsnr" v="466223" />
	</node>
	<node lat="60.44837778045106" lon="10.997927780145877" id="-17010">
		<tag k="name" v="Stormyra" />
		<tag k="natural" v="wetland" />
		<tag k="ssr:stedsnr" v="466715" />
	</node>
	<node lat="60.45201944040797" lon="10.976588887982544" id="-17011">
		<tag k="name" v="Merramyra" />
		<tag k="natural" v="wetland" />
		<tag k="ssr:stedsnr" v="466718" />
	</node>
	<node lat="60.3662194419916" lon="10.977083330605362" id="-17014">
		<tag k="name" v="Johannesmyra" />
		<tag k="natural" v="wetland" />
		<tag k="ssr:stedsnr" v="467565" />
	</node>
	<node lat="60.38874444724753" lon="11.104266663222939" id="-17017">
		<tag k="name" v="Nysetermyra" />
		<tag k="natural" v="wetland" />
		<tag k="ssr:stedsnr" v="467914" />
	</node>
	<node lat="60.38110833380735" lon="11.098674994835578" id="-17019">
		<tag k="name" v="Grovsmyra" />
		<tag k="natural" v="wetland" />
		<tag k="ssr:stedsnr" v="467921" />
	</node>
	<node lat="60.472074998512305" lon="10.80682777258334" id="-17021">
		<tag k="name" v="Sovarmyra" />
		<tag k="natural" v="wetland" />
		<tag k="ssr:stedsnr" v="480918" />
	</node>
	<node lat="60.37897222062086" lon="11.026169442013387" id="-17022">
		<tag k="landuse" v="meadow" />
		<tag k="name" v="Utenga" />
		<tag k="ssr:stedsnr" v="483581" />
	</node>
	<node lat="60.45427777388563" lon="10.741947230602026" id="-17024">
		<tag k="name" v="Hølmarka" />
		<tag k="place" v="locality" />
		<tag k="ssr:stedsnr" v="484411" />
	</node>
	<node lat="60.45251389033148" lon="10.722124999559378" id="-17025">
		<tag k="name" v="Fallhaugløkka" />
		<tag k="place" v="locality" />
		<tag k="ssr:stedsnr" v="484413" />
	</node>
	<node lat="60.48173888656407" lon="10.699683337619637" id="-17028">
		<tag k="alt_name" v="Syslemyra" />
		<tag k="name" v="Syslemyr" />
		<tag k="natural" v="wetland" />
		<tag k="ssr:stedsnr" v="491211" />
	</node>
	<node lat="60.46473889183808" lon="10.75909445317948" id="-17031">
		<tag k="name" v="Sjakersmyra" />
		<tag k="natural" v="wetland" />
		<tag k="ssr:stedsnr" v="491702" />
	</node>
	<node lat="60.400324996682855" lon="10.988483340158725" id="-17034">
		<tag k="alt_name" v="Breidmyra" />
		<tag k="name" v="Breimyra" />
		<tag k="natural" v="wetland" />
		<tag k="ssr:stedsnr" v="491606" />
	</node>
	<node lat="60.388555556726935" lon="10.911386113190927" id="-17055">
		<tag k="name" v="Stormyrbråtan" />
		<tag k="place" v="locality" />
		<tag k="ssr:stedsnr" v="527744" />
	</node>
	<node lat="60.46375277812216" lon="10.736269440075803" id="-17059">
		<tag k="name" v="Gudbrandsbråtamyra" />
		<tag k="natural" v="wetland" />
		<tag k="ssr:stedsnr" v="540925" />
	</node>
	<node lat="60.3939944465448" lon="10.900469446861079" id="-17060">
		<tag k="name" v="Eftasverdmyra" />
		<tag k="natural" v="wetland" />
		<tag k="ssr:stedsnr" v="542417" />
	</node>
	<node lat="60.44510833704803" lon="10.79669721688645" id="-17062">
		<tag k="name" v="Tollanmyra" />
		<tag k="natural" v="wetland" />
		<tag k="ssr:stedsnr" v="545367" />
	</node>
	<node lat="60.451758332940464" lon="10.701669439994012" id="-17075">
		<tag k="alt_name" v="Kåvamyra" />
		<tag k="name" v="Kåvemyra" />
		<tag k="natural" v="wetland" />
		<tag k="ssr:stedsnr" v="578550" />
	</node>
	<node lat="60.438197218035945" lon="10.910647219895077" id="-17077">
		<tag k="name" v="Hansbakkmyra" />
		<tag k="natural" v="wetland" />
		<tag k="ssr:stedsnr" v="586318" />
	</node>
	<node lat="60.43741111338289" lon="10.973811111383611" id="-17091">
		<tag k="landuse" v="meadow" />
		<tag k="name" v="Trilterudenga" />
		<tag k="ssr:stedsnr" v="602652" />
	</node>
	<node lat="60.47699166352017" lon="10.967061116382194" id="-17093">
		<tag k="name" v="Størhusmyra" />
		<tag k="natural" v="wetland" />
		<tag k="ssr:stedsnr" v="603156" />
	</node>
	<node lat="60.44506388505646" lon="10.836830548513484" id="-17094">
		<tag k="landuse" v="meadow" />
		<tag k="name" v="Lundbergsengene" />
		<tag k="ssr:stedsnr" v="604424" />
	</node>
	<node lat="60.4960666692862" lon="10.749975008158334" id="-17101">
		<tag k="alt_name" v="Vindflomyrane;Vindflomyra" />
		<tag k="name" v="Vindflomyrene" />
		<tag k="natural" v="wetland" />
		<tag k="ssr:stedsnr" v="612765" />
	</node>
	<node lat="60.34642221964737" lon="11.101991672340848" id="-17118">
		<tag k="name" v="Siggerudmyra" />
		<tag k="natural" v="wetland" />
		<tag k="ssr:stedsnr" v="707769" />
	</node>
	<node lat="60.50219722430557" lon="11.057894444044663" id="-17121">
		<tag k="name" v="Isakmyra" />
		<tag k="natural" v="wetland" />
		<tag k="ssr:stedsnr" v="709119" />
	</node>
	<node lat="60.46528611340967" lon="10.901708342067652" id="-17134">
		<tag k="name" v="Finnskjeggmyra" />
		<tag k="natural" v="wetland" />
		<tag k="ssr:stedsnr" v="664885" />
	</node>
	<node lat="60.411374997392045" lon="11.099408339870111" id="-17140">
		<tag k="name" v="Furuhøgget" />
		<tag k="place" v="locality" />
		<tag k="ssr:stedsnr" v="709748" />
	</node>
	<node lat="60.44147499864671" lon="10.870852786359972" id="-17143">
		<tag k="landuse" v="meadow" />
		<tag k="name" v="Nordgårdsenga" />
		<tag k="ssr:stedsnr" v="666403" />
	</node>
	<node lat="60.40343889224987" lon="10.929288893105099" id="-17167">
		<tag k="name" v="Tobakksteinbrennmyra" />
		<tag k="natural" v="wetland" />
		<tag k="ssr:stedsnr" v="892821" />
	</node>
	<node lat="60.394322225669924" lon="10.908911103259666" id="-17168">
		<tag k="name" v="Skaubråtemyra" />
		<tag k="natural" v="wetland" />
		<tag k="ssr:stedsnr" v="892717" />
	</node>
	<node lat="60.3450722254558" lon="10.982291660237488" id="-17174">
		<tag k="name" v="Tohesjamyra" />
		<tag k="natural" v="wetland" />
		<tag k="ssr:stedsnr" v="707862" />
	</node>
	<node lat="60.37450555419791" lon="10.996124994891707" id="-17183">
		<tag k="name" v="Bjønnbråtemyra" />
		<tag k="natural" v="wetland" />
		<tag k="ssr:stedsnr" v="709726" />
	</node>
	<node lat="60.46719444051544" lon="10.77781667319688" id="-17188">
		<tag k="name" v="Pershaugmyra" />
		<tag k="natural" v="wetland" />
		<tag k="ssr:stedsnr" v="723890" />
	</node>
	<node lat="60.46629444160907" lon="10.821222215771808" id="-17189">
		<tag k="name" v="Folungmyra" />
		<tag k="natural" v="wetland" />
		<tag k="ssr:stedsnr" v="723891" />
	</node>
	<node lat="60.46368611007072" lon="10.875277773826056" id="-17191">
		<tag k="name" v="Haramyra" />
		<tag k="natural" v="wetland" />
		<tag k="ssr:stedsnr" v="725810" />
	</node>
	<node lat="60.38423333713805" lon="11.035749992654956" id="-17193">
		<tag k="landuse" v="meadow" />
		<tag k="name" v="Engebakken" />
		<tag k="ssr:stedsnr" v="726970" />
	</node>
	<node lat="60.475283328980986" lon="10.778049993830846" id="-17203">
		<tag k="name" v="Stormyra" />
		<tag k="natural" v="wetland" />
		<tag k="ssr:stedsnr" v="734722" />
	</node>
	<node lat="60.41759722067444" lon="11.114866669088087" id="-17211">
		<tag k="name" v="Kippmyra" />
		<tag k="natural" v="wetland" />
		<tag k="ssr:stedsnr" v="905480" />
	</node>
	<node lat="60.47023332976258" lon="10.731741675044155" id="-17212">
		<tag k="name" v="Fuglemyra" />
		<tag k="natural" v="wetland" />
		<tag k="ssr:stedsnr" v="905906" />
	</node>
	<node lat="60.4489055564215" lon="10.895313895527845" id="-17215">
		<tag k="name" v="Oppegårdstormyra" />
		<tag k="natural" v="wetland" />
		<tag k="ssr:stedsnr" v="906672" />
	</node>
	<node lat="60.41957222646065" lon="10.852594447818399" id="-17218">
		<tag k="name" v="Fjellmyra" />
		<tag k="natural" v="wetland" />
		<tag k="ssr:stedsnr" v="770214" />
	</node>
	<node lat="60.42042500206294" lon="10.984316658370265" id="-17219">
		<tag k="name" v="Nermarka" />
		<tag k="place" v="locality" />
		<tag k="ssr:stedsnr" v="770123" />
	</node>
	<node lat="60.42590555675738" lon="10.888252770594871" id="-17220">
		<tag k="name" v="Røysumholen" />
		<tag k="place" v="locality" />
		<tag k="ssr:stedsnr" v="770162" />
	</node>
	<node lat="60.47123889079613" lon="10.96691389720176" id="-17230">
		<tag k="name" v="Ilmyra" />
		<tag k="natural" v="wetland" />
		<tag k="ssr:stedsnr" v="907834" />
	</node>
	<node lat="60.465483332974095" lon="10.998108336947489" id="-17231">
		<tag k="name" v="Vardølingsmyra" />
		<tag k="natural" v="wetland" />
		<tag k="ssr:stedsnr" v="907839" />
	</node>
	<node lat="60.473483331068195" lon="10.901897217315613" id="-17235">
		<tag k="name" v="Vestre Bjønnåsmyrene" />
		<tag k="natural" v="wetland" />
		<tag k="ssr:stedsnr" v="907848" />
	</node>
	<node lat="60.44918055135046" lon="10.777669453201971" id="-17237">
		<tag k="name" v="Valbymyra" />
		<tag k="natural" v="wetland" />
		<tag k="ssr:stedsnr" v="909398" />
	</node>
	<node lat="60.40559166549389" lon="11.128777775178733" id="-17247">
		<tag k="name" v="Stormyra" />
		<tag k="natural" v="wetland" />
		<tag k="ssr:stedsnr" v="795021" />
	</node>
	<node lat="60.408877776215995" lon="10.881980558568552" id="-17268">
		<tag k="name" v="Steinmyra" />
		<tag k="natural" v="wetland" />
		<tag k="ssr:stedsnr" v="916634" />
	</node>
	<node lat="60.43928055393909" lon="11.112524990862001" id="-17275">
		<tag k="name" v="Puttmyra" />
		<tag k="natural" v="wetland" />
		<tag k="ssr:stedsnr" v="917445" />
	</node>
	<node lat="60.44793888785449" lon="10.885058331038856" id="-17279">
		<tag k="name" v="Vestengmyra" />
		<tag k="natural" v="wetland" />
		<tag k="ssr:stedsnr" v="829282" />
	</node>
	<node lat="60.45470278158604" lon="10.859958330934786" id="-17282">
		<tag k="name" v="Vintermyra" />
		<tag k="natural" v="wetland" />
		<tag k="ssr:stedsnr" v="829286" />
	</node>
	<node lat="60.461613884398744" lon="11.092338890834416" id="-17286">
		<tag k="name" v="Slettmyrene" />
		<tag k="natural" v="wetland" />
		<tag k="ssr:stedsnr" v="831214" />
	</node>
	<node lat="60.38289166559893" lon="10.916749992935175" id="-17293">
		<tag k="name" v="Langmyra" />
		<tag k="natural" v="wetland" />
		<tag k="ssr:stedsnr" v="831685" />
	</node>
	<node lat="60.46726389000045" lon="10.987755546785651" id="-17296">
		<tag k="name" v="Hemmyra" />
		<tag k="natural" v="wetland" />
		<tag k="ssr:stedsnr" v="847876" />
	</node>
	<node lat="60.48536111497547" lon="10.773916674470362" id="-17319">
		<tag k="name" v="Hølbekkmyra" />
		<tag k="natural" v="wetland" />
		<tag k="ssr:stedsnr" v="891262" />
	</node>
	<node lat="60.45195000454508" lon="10.961747218682405" id="-17320">
		<tag k="name" v="Rundmyra" />
		<tag k="natural" v="wetland" />
		<tag k="ssr:stedsnr" v="891710" />
	</node>
	<node lat="60.36329999717" lon="10.951611111823773" id="-17323">
		<tag k="name" v="Fuglemyrene" />
		<tag k="natural" v="wetland" />
		<tag k="ssr:stedsnr" v="892505" />
	</node>
	<node lat="60.37576666942666" lon="11.023211106312315" id="-17324">
		<tag k="landuse" v="meadow" />
		<tag k="name" v="Utenga" />
		<tag k="ssr:stedsnr" v="892611" />
	</node>
	<node lat="60.390930560006225" lon="10.999869436908543" id="-17325">
		<tag k="name" v="Høgmyra" />
		<tag k="natural" v="wetland" />
		<tag k="ssr:stedsnr" v="892614" />
	</node>
	<node lat="60.46258888953149" lon="10.966936120219861" id="-17332">
		<tag k="name" v="Stormyra" />
		<tag k="natural" v="wetland" />
		<tag k="ssr:stedsnr" v="916703" />
	</node>
	<node lat="60.477016670297814" lon="11.089000004858075" id="-17348">
		<tag k="name" v="Kvennmyra" />
		<tag k="natural" v="wetland" />
		<tag k="ssr:stedsnr" v="952248" />
	</node>
	<node lat="60.39443333210914" lon="10.962313886254133" id="-17353">
		<tag k="name" v="Vesle Stormyra" />
		<tag k="natural" v="wetland" />
		<tag k="ssr:stedsnr" v="952800" />
	</node>
	<node lat="60.434552777590994" lon="10.713652771691079" id="-17354">
		<tag k="name" v="Lessemyra" />
		<tag k="natural" v="wetland" />
		<tag k="ssr:stedsnr" v="952739" />
	</node>
	<node lat="60.375724997284365" lon="11.095480549918523" id="-17357">
		<tag k="name" v="Kinnmyra" />
		<tag k="natural" v="wetland" />
		<tag k="ssr:stedsnr" v="952926" />
	</node>
	<node lat="60.39666110959303" lon="11.015250003338355" id="-17361">
		<tag k="name" v="Grøftemyra" />
		<tag k="natural" v="wetland" />
		<tag k="ssr:stedsnr" v="952857" />
	</node>
	<node lat="60.46898889139487" lon="10.803347222393933" id="-17364">
		<tag k="name" v="Finnskjeggmyra" />
		<tag k="natural" v="wetland" />
		<tag k="ssr:stedsnr" v="965912" />
	</node>
	<node lat="60.43783611027916" lon="11.098769435514514" id="-17367">
		<tag k="name" v="Pusterhøgget" />
		<tag k="place" v="locality" />
		<tag k="ssr:stedsnr" v="965884" />
	</node>
	<node lat="60.44631389142378" lon="10.922013886871742" id="-17370">
		<tag k="name" v="Tjuvsteinen" />
		<tag k="natural" v="stone" />
		<tag k="ssr:stedsnr" v="967594" />
	</node>
	<node lat="60.467052776222516" lon="10.835836109180264" id="-17377">
		<tag k="name" v="Fløytmyrene" />
		<tag k="natural" v="wetland" />
		<tag k="ssr:stedsnr" v="967816" />
	</node>
	<node lat="60.34013611181439" lon="11.101950005513435" id="-17379">
		<tag k="name" v="Fjøsmyra" />
		<tag k="natural" v="wetland" />
		<tag k="ssr:stedsnr" v="967986" />
	</node>
	<node lat="60.49558611090093" lon="11.029363888768946" id="-17404">
		<tag k="name" v="Torvmyra" />
		<tag k="natural" v="wetland" />
		<tag k="ssr:stedsnr" v="42029" />
	</node>
	<node lat="60.4855333323743" lon="10.781861107563572" id="-17405">
		<tag k="name" v="Bukkemyra" />
		<tag k="natural" v="wetland" />
		<tag k="ssr:stedsnr" v="42043" />
	</node>
	<node lat="60.34945000420456" lon="11.081413888635465" id="-17407">
		<tag k="name" v="Skilledalsmyra" />
		<tag k="natural" v="wetland" />
		<tag k="ssr:stedsnr" v="42538" />
	</node>
	<node lat="60.37741667101911" lon="10.932772218343993" id="-17410">
		<tag k="name" v="Hagasetermyra" />
		<tag k="natural" v="wetland" />
		<tag k="ssr:stedsnr" v="42689" />
	</node>
	<node lat="60.47432500110403" lon="10.76627221584349" id="-17418">
		<tag k="name" v="Bergeputtmyra" />
		<tag k="natural" v="wetland" />
		<tag k="ssr:stedsnr" v="55899" />
	</node>
	<node lat="60.45838333218527" lon="10.999616675208388" id="-17424">
		<tag k="name" v="Blåbærdammen" />
		<tag k="natural" v="wetland" />
		<tag k="ssr:stedsnr" v="57865" />
	</node>
	<node lat="60.44809999742052" lon="10.711983331502932" id="-17426">
		<tag k="name" v="Fallhagen" />
		<tag k="place" v="locality" />
		<tag k="ssr:stedsnr" v="59468" />
	</node>
	<node lat="60.43172777438997" lon="10.977827781168719" id="-17438">
		<tag k="name" v="Handsagmyra" />
		<tag k="natural" v="wetland" />
		<tag k="ssr:stedsnr" v="67668" />
	</node>
	<node lat="60.48367222221348" lon="10.801977769612888" id="-17446">
		<tag k="historic" v="shieling" />
		<tag k="name" v="Hyttevollene" />
		<tag k="place" v="locality" />
		<tag k="ssr:stedsnr" v="102050" />
	</node>
	<node lat="60.39190555687716" lon="10.98684445227685" id="-17456">
		<tag k="name" v="Stokkmyra" />
		<tag k="natural" v="wetland" />
		<tag k="ssr:stedsnr" v="103812" />
	</node>
	<node lat="60.395836111283316" lon="10.943266672516042" id="-17457">
		<tag k="name" v="Hjerteresset" />
		<tag k="natural" v="wetland" />
		<tag k="ssr:stedsnr" v="103818" />
	</node>
	<node lat="60.41094722329294" lon="11.120700004201417" id="-17459">
		<tag k="name" v="Kasta" />
		<tag k="natural" v="stone" />
		<tag k="ssr:stedsnr" v="103736" />
	</node>
	<node lat="60.407547220381616" lon="11.000888886214637" id="-17460">
		<tag k="name" v="Skillestein" />
		<tag k="natural" v="stone" />
		<tag k="ssr:stedsnr" v="103853" />
	</node>
	<node lat="60.43914722349992" lon="11.07871666931488" id="-17464">
		<tag k="name" v="Vesleslåtten" />
		<tag k="place" v="locality" />
		<tag k="ssr:stedsnr" v="116871" />
	</node>
	<node lat="60.44601388472584" lon="11.095116671510384" id="-17466">
		<tag k="name" v="Krokmyra" />
		<tag k="natural" v="wetland" />
		<tag k="ssr:stedsnr" v="116879" />
	</node>
	<node lat="60.47196944308781" lon="10.735052770227421" id="-17467">
		<tag k="name" v="Dammyra" />
		<tag k="natural" v="wetland" />
		<tag k="ssr:stedsnr" v="116889" />
	</node>
	<node lat="60.475780554664475" lon="10.755433335634557" id="-17468">
		<tag k="name" v="Haremyra" />
		<tag k="natural" v="wetland" />
		<tag k="ssr:stedsnr" v="116894" />
	</node>
	<node lat="60.44107500054681" lon="10.691766670803492" id="-17478">
		<tag k="name" v="Bustevollmyrene" />
		<tag k="natural" v="wetland" />
		<tag k="ssr:stedsnr" v="120450" />
	</node>
	<node lat="60.457683330284326" lon="10.956841670297012" id="-17488">
		<tag k="alt_name" v="Daumannsmyra" />
		<tag k="name" v="Daudmannsmyra" />
		<tag k="natural" v="wetland" />
		<tag k="ssr:stedsnr" v="127704" />
	</node>
	<node lat="60.39433333739211" lon="10.914955547042018" id="-17491">
		<tag k="name" v="Jeppedalsstormyra" />
		<tag k="natural" v="wetland" />
		<tag k="ssr:stedsnr" v="127626" />
	</node>
	<node lat="60.34361944769388" lon="10.948694436038373" id="-17495">
		<tag k="name" v="Rismyra" />
		<tag k="natural" v="wetland" />
		<tag k="ssr:stedsnr" v="127682" />
	</node>
	<node lat="60.38721389019491" lon="11.098233333063437" id="-17500">
		<tag k="name" v="Skjellmyra" />
		<tag k="natural" v="wetland" />
		<tag k="ssr:stedsnr" v="163919" />
	</node>
	<node lat="60.385524997650116" lon="11.103986108899818" id="-17501">
		<tag k="name" v="Svingmyra" />
		<tag k="natural" v="wetland" />
		<tag k="ssr:stedsnr" v="163921" />
	</node>
	<node lat="60.36031389242146" lon="10.933499993051498" id="-17502">
		<tag k="name" v="Andtjennsmyra" />
		<tag k="natural" v="wetland" />
		<tag k="ssr:stedsnr" v="161131" />
	</node>
	<node lat="60.44646388583088" lon="11.012283325047946" id="-17521">
		<tag k="name" v="Kjellern" />
		<tag k="place" v="locality" />
		<tag k="ssr:stedsnr" v="163756" />
	</node>
	<node lat="60.377508333594925" lon="11.103122230574415" id="-17524">
		<tag k="name" v="Pinntjennsmyra" />
		<tag k="natural" v="wetland" />
		<tag k="ssr:stedsnr" v="163935" />
	</node>
	<node lat="60.4748305581621" lon="10.708752774586314" id="-17526">
		<tag k="name" v="Roligbrenna" />
		<tag k="place" v="locality" />
		<tag k="ssr:stedsnr" v="176877" />
	</node>
	<node lat="60.380433330685264" lon="11.021633341731661" id="-17537">
		<tag k="name" v="Lorthølet" />
		<tag k="natural" v="wetland" />
		<tag k="ssr:stedsnr" v="180550" />
	</node>
	<node lat="60.45550277395417" lon="10.729138885662415" id="-17542">
		<tag k="name" v="Langmyra" />
		<tag k="natural" v="wetland" />
		<tag k="ssr:stedsnr" v="181441" />
	</node>
	<node lat="60.39813333008315" lon="10.975936110553205" id="-17553">
		<tag k="alt_name" v="Knaiseterstormyra" />
		<tag k="name" v="Knaisæterstormyra" />
		<tag k="natural" v="wetland" />
		<tag k="ssr:stedsnr" v="188631" />
	</node>
	<node lat="60.52250555598173" lon="10.715419448732003" id="-17561">
		<tag k="name" v="Sauengmyra" />
		<tag k="natural" v="wetland" />
		<tag k="ssr:stedsnr" v="215599" />
	</node>
	<node lat="60.43350555681" lon="10.985713892366874" id="-17568">
		<tag k="name" v="Gjødingeseterstormyra" />
		<tag k="natural" v="wetland" />
		<tag k="ssr:stedsnr" v="224175" />
	</node>
	<node lat="60.380897222508914" lon="10.999308327641335" id="-17575">
		<tag k="name" v="Hvilesteinen" />
		<tag k="natural" v="stone" />
		<tag k="ssr:stedsnr" v="224726" />
	</node>
	<node lat="60.38980278077333" lon="11.087327786096823" id="-17576">
		<tag k="name" v="Sledemyra" />
		<tag k="natural" v="wetland" />
		<tag k="ssr:stedsnr" v="224828" />
	</node>
	<node lat="60.39638055962017" lon="11.018375003863051" id="-17581">
		<tag k="name" v="Tretjennsmyra" />
		<tag k="natural" v="wetland" />
		<tag k="ssr:stedsnr" v="224867" />
	</node>
	<node lat="60.50806110688556" lon="11.039852769222144" id="-17589">
		<tag k="name" v="Orrhanemyra" />
		<tag k="natural" v="wetland" />
		<tag k="ssr:stedsnr" v="285121" />
	</node>
	<node lat="60.50044444297917" lon="11.000877772972888" id="-17595">
		<tag k="alt_name" v="Brennbergene" />
		<tag k="name" v="Brennberget" />
		<tag k="place" v="locality" />
		<tag k="ssr:stedsnr" v="285027" />
	</node>
	<node lat="60.34987777573834" lon="11.102105550531553" id="-17598">
		<tag k="name" v="Revmyra" />
		<tag k="natural" v="wetland" />
		<tag k="ssr:stedsnr" v="285559" />
	</node>
	<node lat="60.39233333249732" lon="11.106730563116933" id="-17601">
		<tag k="historic" v="shieling" />
		<tag k="name" v="Nysetra" />
		<tag k="place" v="locality" />
		<tag k="ssr:stedsnr" v="285762" />
	</node>
	<node lat="60.42651944732379" lon="11.101619450644977" id="-17605">
		<tag k="name" v="Vindfalla" />
		<tag k="place" v="locality" />
		<tag k="ssr:stedsnr" v="298410" />
	</node>
	<node lat="60.474963892087054" lon="10.704066670514212" id="-17608">
		<tag k="name" v="Sentralmyra" />
		<tag k="natural" v="wetland" />
		<tag k="ssr:stedsnr" v="298870" />
	</node>
	<node lat="60.440802781010525" lon="10.999900006113961" id="-17610">
		<tag k="historic" v="shieling" />
		<tag k="name" v="Gammelvangen" />
		<tag k="place" v="locality" />
		<tag k="ssr:stedsnr" v="299668" />
	</node>
	<node lat="60.47091111126355" lon="10.981650005207513" id="-17611">
		<tag k="name" v="Gulliksrudmyra" />
		<tag k="natural" v="wetland" />
		<tag k="ssr:stedsnr" v="300183" />
	</node>
	<node lat="60.43299999707731" lon="11.122761116425066" id="-17626">
		<tag k="name" v="Knuvlebeitmyra" />
		<tag k="natural" v="wetland" />
		<tag k="ssr:stedsnr" v="310469" />
	</node>
	<node lat="60.36938611047633" lon="11.088508332463661" id="-17637">
		<tag k="name" v="Stormyra" />
		<tag k="natural" v="wetland" />
		<tag k="ssr:stedsnr" v="345508" />
	</node>
	<node lat="60.422758335191595" lon="10.87388333169173" id="-17642">
		<tag k="name" v="Skimyra" />
		<tag k="natural" v="wetland" />
		<tag k="ssr:stedsnr" v="345227" />
	</node>
	<node lat="60.3840000024727" lon="11.11116388879605" id="-17648">
		<tag k="name" v="Sølvputtmyra" />
		<tag k="natural" v="wetland" />
		<tag k="ssr:stedsnr" v="345918" />
	</node>
	<node lat="60.38023333706739" lon="11.115436106017144" id="-17649">
		<tag k="name" v="Egervangen" />
		<tag k="place" v="locality" />
		<tag k="ssr:stedsnr" v="345925" />
	</node>
	<node lat="60.46977500113484" lon="10.724077785593108" id="-17653">
		<tag k="name" v="Sprangmyra" />
		<tag k="natural" v="wetland" />
		<tag k="ssr:stedsnr" v="358891" />
	</node>
	<node lat="60.474469443482526" lon="11.003263893713452" id="-17658">
		<tag k="name" v="Kårehøgget" />
		<tag k="place" v="locality" />
		<tag k="ssr:stedsnr" v="361876" />
	</node>
	<node lat="60.47382777384849" lon="10.932955548828065" id="-17659">
		<tag k="name" v="Kjellermyra" />
		<tag k="natural" v="wetland" />
		<tag k="ssr:stedsnr" v="361889" />
	</node>
	<node lat="60.39431666984231" lon="10.957497229440385" id="-17664">
		<tag k="alt_name" v="Sverretjennsmyrene" />
		<tag k="name" v="Sverretjennsmyra" />
		<tag k="natural" v="wetland" />
		<tag k="ssr:stedsnr" v="370608" />
	</node>
	<node lat="60.488505553728075" lon="10.73780000861728" id="-17667">
		<tag k="name" v="Kloppmyra" />
		<tag k="natural" v="wetland" />
		<tag k="ssr:stedsnr" v="370753" />
	</node>
	<node lat="60.35333055868991" lon="10.94788055943151" id="-17677">
		<tag k="name" v="Huldertjennsmyrene" />
		<tag k="natural" v="wetland" />
		<tag k="ssr:stedsnr" v="404840" />
	</node>
	<node lat="60.50984444327048" lon="11.055355553076229" id="-17679">
		<tag k="name" v="Stormyra" />
		<tag k="natural" v="wetland" />
		<tag k="ssr:stedsnr" v="406125" />
	</node>
	<node lat="60.42488611561807" lon="10.853566666717741" id="-17683">
		<tag k="name" v="Eideflata" />
		<tag k="place" v="locality" />
		<tag k="ssr:stedsnr" v="406238" />
	</node>
	<node lat="60.48187777856412" lon="10.713927777203525" id="-17684">
		<tag k="name" v="Rundmyra" />
		<tag k="natural" v="wetland" />
		<tag k="ssr:stedsnr" v="406239" />
	</node>
	<node lat="60.38209166312855" lon="11.001088894630408" id="-17686">
		<tag k="name" v="Bottenustad" />
		<tag k="place" v="locality" />
		<tag k="ssr:stedsnr" v="406742" />
	</node>
	<node lat="60.4283361100519" lon="10.774133331972802" id="-17691">
		<tag k="name" v="Langslenga" />
		<tag k="natural" v="wetland" />
		<tag k="ssr:stedsnr" v="406765" />
	</node>
	<node lat="60.43191666333834" lon="10.983236103975017" id="-17693">
		<tag k="name" v="Brenninga" />
		<tag k="place" v="locality" />
		<tag k="ssr:stedsnr" v="406167" />
	</node>
	<node lat="60.394177775751665" lon="10.944819437771734" id="-17702">
		<tag k="name" v="Dagrosmyra" />
		<tag k="natural" v="wetland" />
		<tag k="ssr:stedsnr" v="406835" />
	</node>
	<node lat="60.405077779840475" lon="11.10746388127697" id="-17707">
		<tag k="name" v="Ottohøgget" />
		<tag k="place" v="locality" />
		<tag k="ssr:stedsnr" v="406779" />
	</node>
	<node lat="60.46233888869551" lon="10.896097223853985" id="-17716">
		<tag k="name" v="Garsjømyra" />
		<tag k="natural" v="wetland" />
		<tag k="ssr:stedsnr" v="422883" />
	</node>
	<node lat="60.442844440327725" lon="10.840066661195063" id="-17719">
		<tag k="name" v="Syltemyrene" />
		<tag k="natural" v="wetland" />
		<tag k="ssr:stedsnr" v="423455" />
	</node>
	<node lat="60.37646389047091" lon="11.008505553435098" id="-17726">
		<tag k="alt_name" v="Rudsætermyra" />
		<tag k="fixme" v="multiple name tags, choose one and add the other to alt_name" />
		<tag k="name" v="Julsmyra;Rudssætermyra" />
		<tag k="natural" v="wetland" />
		<tag k="ssr:stedsnr" v="431584" />
	</node>
	<node lat="60.376430553938384" lon="10.97434999200988" id="-17727">
		<tag k="name" v="Vestlistormyra" />
		<tag k="natural" v="wetland" />
		<tag k="ssr:stedsnr" v="431586" />
	</node>
	<node lat="60.34251944558094" lon="11.090830559624658" id="-17735">
		<tag k="name" v="Olabråtemyra" />
		<tag k="natural" v="wetland" />
		<tag k="ssr:stedsnr" v="525740" />
	</node>
	<node lat="60.43839444753872" lon="10.928069436090789" id="-17737">
		<tag k="name" v="Slåttmyra" />
		<tag k="natural" v="wetland" />
		<tag k="ssr:stedsnr" v="526293" />
	</node>
	<node lat="60.50986666871656" lon="11.04220556068922" id="-17743">
		<tag k="name" v="Skjellmyra" />
		<tag k="natural" v="wetland" />
		<tag k="ssr:stedsnr" v="527129" />
	</node>
	<node lat="60.362091670191134" lon="10.984122222105915" id="-17746">
		<tag k="name" v="Valdresmyra" />
		<tag k="natural" v="wetland" />
		<tag k="ssr:stedsnr" v="527514" />
	</node>
	<node lat="60.35621944631781" lon="10.965347222482064" id="-17747">
		<tag k="name" v="Rundemyra" />
		<tag k="natural" v="wetland" />
		<tag k="ssr:stedsnr" v="527518" />
	</node>
	<node lat="60.38458055336489" lon="10.920586112653053" id="-17749">
		<tag k="name" v="Signalmyra" />
		<tag k="natural" v="wetland" />
		<tag k="ssr:stedsnr" v="527758" />
	</node>
	<node lat="60.41048888665556" lon="11.08774722281688" id="-17751">
		<tag k="landuse" v="meadow" />
		<tag k="name" v="Hamnsenga" />
		<tag k="ssr:stedsnr" v="527764" />
	</node>
	<node lat="60.40084722401328" lon="11.114233336093807" id="-17753">
		<tag k="name" v="Kasperhogget" />
		<tag k="place" v="locality" />
		<tag k="ssr:stedsnr" v="527770" />
	</node>
	<node lat="60.36370277518675" lon="11.09639444608378" id="-17757">
		<tag k="name" v="Vollengmyra" />
		<tag k="natural" v="wetland" />
		<tag k="ssr:stedsnr" v="527557" />
	</node>
	<node lat="60.42678055514092" lon="11.112391664662582" id="-17761">
		<tag k="name" v="Bundlitjennsmyra" />
		<tag k="natural" v="wetland" />
		<tag k="ssr:stedsnr" v="540429" />
	</node>
	<node lat="60.41517500353568" lon="11.041005546966547" id="-17771">
		<tag k="landuse" v="meadow" />
		<tag k="name" v="Justenga" />
		<tag k="ssr:stedsnr" v="544037" />
	</node>
	<node lat="60.38978333642489" lon="11.041650001192933" id="-17774">
		<tag k="landuse" v="meadow" />
		<tag k="name" v="Nordenga" />
		<tag k="ssr:stedsnr" v="544959" />
	</node>
	<node lat="60.43795555485476" lon="10.87971943853956" id="-17775">
		<tag k="landuse" v="meadow" />
		<tag k="name" v="Sørgårdsenga" />
		<tag k="ssr:stedsnr" v="545345" />
	</node>
	<node lat="60.45248055735898" lon="10.791466675259102" id="-17777">
		<tag k="historic" v="shieling" />
		<tag k="name" v="Gamlevollen" />
		<tag k="place" v="locality" />
		<tag k="ssr:stedsnr" v="545358" />
	</node>
	<node lat="60.351255556030345" lon="10.989174995751124" id="-17795">
		<tag k="name" v="Anføttesmyra" />
		<tag k="natural" v="wetland" />
		<tag k="ssr:stedsnr" v="585726" />
	</node>
	<node lat="60.427449999976346" lon="10.887161112728153" id="-17798">
		<tag k="name" v="Brunmyra" />
		<tag k="natural" v="wetland" />
		<tag k="ssr:stedsnr" v="587232" />
	</node>
	<node lat="60.48576111077756" lon="10.708180551266015" id="-17799">
		<tag k="name" v="Gampemyra" />
		<tag k="natural" v="wetland" />
		<tag k="ssr:stedsnr" v="587238" />
	</node>
	<node lat="60.4910055530404" lon="10.698316668311842" id="-17800">
		<tag k="name" v="Lomtjennsmyrene" />
		<tag k="natural" v="wetland" />
		<tag k="ssr:stedsnr" v="587244" />
	</node>
	<node lat="60.40915277418766" lon="11.089966673231068" id="-17809">
		<tag k="name" v="Malastykket" />
		<tag k="place" v="locality" />
		<tag k="ssr:stedsnr" v="588791" />
	</node>
	<node lat="60.40836111509924" lon="11.1030638865633" id="-17810">
		<tag k="name" v="Arnemyra" />
		<tag k="natural" v="wetland" />
		<tag k="ssr:stedsnr" v="588794" />
	</node>
	<node lat="60.40200277531065" lon="11.08761943879649" id="-17811">
		<tag k="name" v="Storhøgget" />
		<tag k="place" v="locality" />
		<tag k="ssr:stedsnr" v="588796" />
	</node>
	<node lat="60.383397222377276" lon="11.09533889509355" id="-17812">
		<tag k="name" v="Stormyra" />
		<tag k="natural" v="wetland" />
		<tag k="ssr:stedsnr" v="588932" />
	</node>
	<node lat="60.421322221999006" lon="11.11736110564706" id="-17815">
		<tag k="name" v="Setermyra" />
		<tag k="natural" v="wetland" />
		<tag k="ssr:stedsnr" v="601448" />
	</node>
	<node lat="60.44091944036288" lon="11.079102773711536" id="-17817">
		<tag k="name" v="Bergslåtten" />
		<tag k="place" v="locality" />
		<tag k="ssr:stedsnr" v="601874" />
	</node>
	<node lat="60.45764444130895" lon="10.844013881277753" id="-17820">
		<tag k="landuse" v="meadow" />
		<tag k="name" v="Simarudenga" />
		<tag k="ssr:stedsnr" v="603796" />
	</node>
	<node lat="60.4643972210299" lon="10.988527772952809" id="-17821">
		<tag k="name" v="Helgemyra" />
		<tag k="natural" v="wetland" />
		<tag k="ssr:stedsnr" v="603867" />
	</node>
	<node lat="60.46151667028996" lon="10.882555555830848" id="-17823">
		<tag k="name" v="Johannesbråtamyra" />
		<tag k="natural" v="wetland" />
		<tag k="ssr:stedsnr" v="603824" />
	</node>
	<node lat="60.45108055918542" lon="10.750719437986564" id="-17826">
		<tag k="name" v="Illebrent" />
		<tag k="place" v="locality" />
		<tag k="ssr:stedsnr" v="605450" />
	</node>
	<node lat="60.34520000340234" lon="10.99116110438819" id="-17850">
		<tag k="name" v="Furumyra" />
		<tag k="natural" v="wetland" />
		<tag k="ssr:stedsnr" v="646848" />
	</node>
	<node lat="60.47889722392478" lon="10.721538895403874" id="-17851">
		<tag k="name" v="Depotmyra" />
		<tag k="natural" v="wetland" />
		<tag k="ssr:stedsnr" v="648254" />
	</node>
	<node lat="60.35183889251489" lon="11.09345833065469" id="-17862">
		<tag k="name" v="Mastemyra" />
		<tag k="natural" v="wetland" />
		<tag k="ssr:stedsnr" v="648573" />
	</node>
	<node lat="60.402566663839906" lon="10.932538892229458" id="-17875">
		<tag k="name" v="Merramyra" />
		<tag k="natural" v="wetland" />
		<tag k="ssr:stedsnr" v="648824" />
	</node>
	<node lat="60.38346389099952" lon="11.071591669064164" id="-17878">
		<tag k="name" v="Løesletta" />
		<tag k="place" v="locality" />
		<tag k="ssr:stedsnr" v="648926" />
	</node>
	<node lat="60.45242778157586" lon="11.08016388890862" id="-17883">
		<tag k="name" v="Puttmyra" />
		<tag k="natural" v="wetland" />
		<tag k="ssr:stedsnr" v="662887" />
	</node>
	<node lat="60.437422224076286" lon="11.10228889226837" id="-17884">
		<tag k="name" v="Skillegardsmyra" />
		<tag k="natural" v="wetland" />
		<tag k="ssr:stedsnr" v="662873" />
	</node>
	<node lat="60.45033889008007" lon="10.921361107118647" id="-17885">
		<tag k="name" v="Tolløfsteinen" />
		<tag k="natural" v="stone" />
		<tag k="ssr:stedsnr" v="663644" />
	</node>
	<node lat="60.440672224950546" lon="10.96888332707882" id="-17886">
		<tag k="landuse" v="meadow" />
		<tag k="name" v="Rundhaugenga" />
		<tag k="ssr:stedsnr" v="663648" />
	</node>
	<node lat="60.468436110804475" lon="10.954611112245443" id="-17891">
		<tag k="name" v="Lovisemyra" />
		<tag k="natural" v="wetland" />
		<tag k="ssr:stedsnr" v="664867" />
	</node>
	<node lat="60.469452773945754" lon="10.927947213195857" id="-17895">
		<tag k="name" v="Stormyra" />
		<tag k="natural" v="wetland" />
		<tag k="ssr:stedsnr" v="664880" />
	</node>
	<node lat="60.42523888853503" lon="11.022397228200045" id="-17897">
		<tag k="name" v="Hurdal prestegårdsskog" />
		<tag k="place" v="locality" />
		<tag k="ssr:stedsnr" v="665054" />
	</node>
	<node lat="60.48005555842822" lon="10.98826666476362" id="-17926">
		<tag k="name" v="Lismarka" />
		<tag k="place" v="locality" />
		<tag k="ssr:stedsnr" v="770064" />
	</node>
	<node lat="60.50390000233383" lon="11.020669449353667" id="-17931">
		<tag k="name" v="Garsjømarkene" />
		<tag k="place" v="locality" />
		<tag k="ssr:stedsnr" v="770028" />
	</node>
	<node lat="60.432824997783364" lon="10.977874998424213" id="-17936">
		<tag k="name" v="Slåttmyra" />
		<tag k="natural" v="wetland" />
		<tag k="ssr:stedsnr" v="770147" />
	</node>
	<node lat="60.386430556199805" lon="10.935486107531606" id="-17940">
		<tag k="name" v="Storrmyra" />
		<tag k="natural" v="wetland" />
		<tag k="ssr:stedsnr" v="770734" />
	</node>
	<node lat="60.388486111229696" lon="10.917569438688737" id="-17941">
		<tag k="name" v="Bjørkemyra" />
		<tag k="natural" v="wetland" />
		<tag k="ssr:stedsnr" v="770739" />
	</node>
	<node lat="60.38861388857511" lon="10.946974994623154" id="-17942">
		<tag k="name" v="Dammyra" />
		<tag k="natural" v="wetland" />
		<tag k="ssr:stedsnr" v="770740" />
	</node>
	<node lat="60.382663889736655" lon="11.070452774341893" id="-17946">
		<tag k="name" v="Fallandet" />
		<tag k="place" v="locality" />
		<tag k="ssr:stedsnr" v="770929" />
	</node>
	<node lat="60.4398222202836" lon="11.075233329197761" id="-17949">
		<tag k="name" v="Lensmannslåtten" />
		<tag k="place" v="locality" />
		<tag k="ssr:stedsnr" v="783883" />
	</node>
	<node lat="60.460797218761336" lon="10.890277773955676" id="-17951">
		<tag k="name" v="Rismyra" />
		<tag k="natural" v="wetland" />
		<tag k="ssr:stedsnr" v="785842" />
	</node>
	<node lat="60.458397222059496" lon="10.859113886922458" id="-17952">
		<tag k="name" v="Godmyra" />
		<tag k="natural" v="wetland" />
		<tag k="ssr:stedsnr" v="785843" />
	</node>
	<node lat="60.39149722520374" lon="11.012827778369195" id="-17961">
		<tag k="name" v="Gunnersmyra" />
		<tag k="natural" v="wetland" />
		<tag k="ssr:stedsnr" v="787952" />
	</node>
	<node lat="60.3699027776084" lon="10.928663889253928" id="-17978">
		<tag k="name" v="Merramyra" />
		<tag k="natural" v="wetland" />
		<tag k="ssr:stedsnr" v="829749" />
	</node>
	<node lat="60.465222226000236" lon="11.087277781154189" id="-17986">
		<tag k="name" v="Puttmyra" />
		<tag k="natural" v="wetland" />
		<tag k="ssr:stedsnr" v="831216" />
	</node>
	<node lat="60.365908337011206" lon="10.959891668447016" id="-17988">
		<tag k="name" v="Kammerherremyrene" />
		<tag k="natural" v="wetland" />
		<tag k="ssr:stedsnr" v="831520" />
	</node>
	<node lat="60.39394444281716" lon="11.131972221950747" id="-17991">
		<tag k="name" v="Toputtmyra" />
		<tag k="natural" v="wetland" />
		<tag k="ssr:stedsnr" v="831721" />
	</node>
	<node lat="60.40418611266851" lon="10.974630559690985" id="-17993">
		<tag k="name" v="Skrukkemyra" />
		<tag k="natural" v="wetland" />
		<tag k="ssr:stedsnr" v="831847" />
	</node>
	<node lat="60.40720833415059" lon="11.055669437251346" id="-17997">
		<tag k="name" v="Prestegårdsmyrene" />
		<tag k="natural" v="wetland" />
		<tag k="ssr:stedsnr" v="831860" />
	</node>
	<node lat="60.38466944534779" lon="11.037083326279445" id="-18011">
		<tag k="name" v="Lykkjejordet" />
		<tag k="place" v="locality" />
		<tag k="ssr:stedsnr" v="848953" />
	</node>
	<node lat="60.3794944467921" lon="10.950258326239833" id="-18039">
		<tag k="name" v="Furustubbmyra" />
		<tag k="natural" v="wetland" />
		<tag k="ssr:stedsnr" v="952722" />
	</node>
	<node lat="60.407905551968895" lon="11.09951111138664" id="-18042">
		<tag k="name" v="Haukesnatet" />
		<tag k="place" v="locality" />
		<tag k="ssr:stedsnr" v="952761" />
	</node>
	<node lat="60.43127500204176" lon="11.105361114796509" id="-18055">
		<tag k="name" v="Kipp" />
		<tag k="natural" v="wetland" />
		<tag k="ssr:stedsnr" v="969481" />
	</node>
	<node lat="60.432302773311285" lon="11.115350003630885" id="-18056">
		<tag k="name" v="Knuvlebeitet" />
		<tag k="place" v="locality" />
		<tag k="ssr:stedsnr" v="969482" />
	</node>
</osm>
