<?xml version="1.0" encoding="UTF-8"?>
<osm generator="osmapis" version="0.6">
	<node id="-32768" lat="60.3978305553" lon="10.9965722146">
		<tag k="name" v="Breimyrholen" />
		<tag k="natural" v="hill" />
		<tag k="place" v="locality" />
		<tag k="ssr:stedsnr" v="831780" />
	</node>
	<node id="-32767" lat="60.3925916658" lon="10.9702250012">
		<tag k="name" v="Hulderberget" />
		<tag k="natural" v="cliff" />
		<tag k="ssr:stedsnr" v="831774" />
	</node>
	<node id="-32252" lat="60.4445027755" lon="11.0802388877">
		<tag k="name" v="Velia" />
		<tag k="natural" v="slope" />
		<tag k="place" v="locality" />
		<tag k="ssr:stedsnr" v="116877" />
	</node>
	<node id="-32170" lat="60.3805111123" lon="10.932447225">
		<tag k="name" v="Straffekallet" />
		<tag k="natural" v="slope" />
		<tag k="place" v="locality" />
		<tag k="ssr:stedsnr" v="42680" />
	</node>
	<node id="-32760" lat="60.3626333341" lon="10.9864027798">
		<tag k="name" v="Kvernberget" />
		<tag k="natural" v="hill" />
		<tag k="place" v="locality" />
		<tag k="ssr:stedsnr" v="831516" />
	</node>
	<node id="-32759" lat="60.4498472208" lon="11.011927783">
		<tag k="name" v="Kollmyrdalen" />
		<tag k="natural" v="valley" />
		<tag k="place" v="locality" />
		<tag k="ssr:stedsnr" v="831495" />
	</node>
	<node id="-31733" lat="60.4695305574" lon="10.8201666604">
		<tag k="name" v="Dalafallet" />
		<tag k="natural" v="slope" />
		<tag k="place" v="locality" />
		<tag k="ssr:stedsnr" v="358908" />
	</node>
	<node id="-31731" lat="60.4957388866" lon="11.0181222155">
		<tag k="fixme" v="consider natural=peak for the most distinct mountains in the district" />
		<tag k="name" v="Garsjøkollen" />
		<tag k="natural" v="hill" />
		<tag k="place" v="locality" />
		<tag k="ssr:stedsnr" v="491730" />
	</node>
	<node id="-31730" lat="60.4850916649" lon="11.0343138833">
		<tag k="fixme" v="consider natural=peak for the most distinct mountains in the district" />
		<tag k="name" v="Garsjørøet" />
		<tag k="natural" v="hill" />
		<tag k="place" v="locality" />
		<tag k="ssr:stedsnr" v="491721" />
	</node>
	<node id="-32752" lat="60.4380944416" lon="10.9616194401">
		<tag k="name" v="Bredesaglia" />
		<tag k="natural" v="slope" />
		<tag k="place" v="locality" />
		<tag k="ssr:stedsnr" v="831165" />
	</node>
	<node id="-32751" lat="60.5018944427" lon="11.0699500024">
		<tag k="name" v="Bergvatnlia" />
		<tag k="natural" v="slope" />
		<tag k="place" v="locality" />
		<tag k="ssr:stedsnr" v="831144" />
	</node>
	<node id="-32238" lat="60.3505694403" lon="11.0924888874">
		<tag k="name" v="Svartholthøgda" />
		<tag k="natural" v="hill" />
		<tag k="place" v="locality" />
		<tag k="ssr:stedsnr" v="103578" />
	</node>
	<node id="-32256" lat="60.4734000014" lon="10.787072222">
		<tag k="name" v="Toppåsdalen" />
		<tag k="natural" v="valley" />
		<tag k="place" v="locality" />
		<tag k="ssr:stedsnr" v="116900" />
	</node>
	<node id="-32745" lat="60.3533388868" lon="10.9325444365">
		<tag k="name" v="Damhaugen" />
		<tag k="natural" v="hill" />
		<tag k="place" v="locality" />
		<tag k="ssr:stedsnr" v="829752" />
	</node>
	<node id="-31718" lat="60.3973833351" lon="11.0090527844">
		<tag k="name" v="Brennhaugen" />
		<tag k="natural" v="hill" />
		<tag k="place" v="locality" />
		<tag k="ssr:stedsnr" v="491607" />
	</node>
	<node id="-32737" lat="60.4585694479" lon="11.0124138821">
		<tag k="fixme" v="consider natural=peak for the most distinct mountains in the district" />
		<tag k="name" v="Liskollen" />
		<tag k="natural" v="hill" />
		<tag k="place" v="locality" />
		<tag k="ssr:stedsnr" v="811307" />
	</node>
	<node id="-32223" lat="60.4786749975" lon="10.966180558">
		<tag k="name" v="Rumpetoppen" />
		<tag k="natural" v="hill" />
		<tag k="place" v="locality" />
		<tag k="ssr:stedsnr" v="102056" />
	</node>
	<node id="-31708" lat="60.4476333307" lon="10.9971388863">
		<tag k="name" v="Fuglesletta" />
		<tag k="place" v="locality" />
		<tag k="ssr:stedsnr" v="345667" />
	</node>
	<node id="-31707" lat="60.4522416691" lon="11.0072749946">
		<tag k="name" v="Storsteinkollen" />
		<tag k="natural" v="hill" />
		<tag k="place" v="locality" />
		<tag k="ssr:stedsnr" v="345665" />
	</node>
	<node id="-31706" lat="60.4499777792" lon="10.9748472172">
		<tag k="name" v="Lyberget" />
		<tag k="natural" v="hill" />
		<tag k="place" v="locality" />
		<tag k="ssr:stedsnr" v="345659" />
	</node>
	<node id="-31705" lat="60.3878555562" lon="10.9981583317">
		<tag k="name" v="Djupdalshaugen" />
		<tag k="natural" v="hill" />
		<tag k="place" v="locality" />
		<tag k="ssr:stedsnr" v="345620" />
	</node>
	<node id="-31704" lat="60.3727972193" lon="11.0117277829">
		<tag k="name" v="Seljedalen" />
		<tag k="natural" v="valley" />
		<tag k="place" v="locality" />
		<tag k="ssr:stedsnr" v="345616" />
	</node>
	<node id="-31703" lat="60.3556805562" lon="11.066636112">
		<tag k="name" v="Bogkleiva" />
		<tag k="natural" v="slope" />
		<tag k="place" v="locality" />
		<tag k="ssr:stedsnr" v="345511" />
	</node>
	<node id="-31701" lat="60.3663861152" lon="11.0878805525">
		<tag k="name" v="Lia" />
		<tag k="natural" v="slope" />
		<tag k="place" v="locality" />
		<tag k="ssr:stedsnr" v="345507" />
	</node>
	<node id="-32212" lat="60.4316" lon="10.9190500052">
		<tag k="fixme" v="consider natural=peak for the most distinct mountains in the district" />
		<tag k="name" v="Skauenghøgda" />
		<tag k="natural" v="hill" />
		<tag k="place" v="locality" />
		<tag k="ssr:stedsnr" v="67664" />
	</node>
	<node id="-31697" lat="60.4379388908" lon="10.7660222281">
		<tag k="name" v="Kluften" />
		<tag k="place" v="locality" />
		<tag k="ssr:stedsnr" v="484424" />
	</node>
	<node id="-31565" lat="60.3995111151" lon="11.0298583393">
		<tag k="name" v="Fagerlia" />
		<tag k="natural" v="slope" />
		<tag k="place" v="locality" />
		<tag k="ssr:stedsnr" v="127641" />
	</node>
	<node id="-32203" lat="60.3612083301" lon="11.099644439">
		<tag k="name" v="Tremannshøgda" />
		<tag k="natural" v="hill" />
		<tag k="place" v="locality" />
		<tag k="ssr:stedsnr" v="67065" />
	</node>
	<node id="-31690" lat="60.4441111084" lon="10.9457861124">
		<tag k="fixme" v="consider natural=peak for the most distinct mountains in the district" />
		<tag k="name" v="Fjellsjøholen" />
		<tag k="natural" v="hill" />
		<tag k="place" v="locality" />
		<tag k="ssr:stedsnr" v="481638" />
	</node>
	<node id="-31479" lat="60.4854805514" lon="10.9845222164">
		<tag k="name" v="Dalsberga" />
		<tag k="natural" v="cliff" />
		<tag k="ssr:stedsnr" v="224066" />
	</node>
	<node id="-32197" lat="60.3957944448" lon="10.9723777756">
		<tag k="fixme" v="consider natural=peak for the most distinct mountains in the district" />
		<tag k="name" v="Geitryggen" />
		<tag k="natural" v="hill" />
		<tag k="place" v="locality" />
		<tag k="ssr:stedsnr" v="66571" />
	</node>
	<node id="-32708" lat="60.4629277809" lon="10.9276333377">
		<tag k="name" v="Abbortjennsdalen" />
		<tag k="natural" v="valley" />
		<tag k="place" v="locality" />
		<tag k="ssr:stedsnr" v="785884" />
	</node>
	<node id="-31990" lat="60.4440305598" lon="10.8478611024">
		<tag k="name" v="Sylta" />
		<tag k="place" v="locality" />
		<tag k="ssr:stedsnr" v="890329" />
	</node>
	<node id="-32193" lat="60.4479083336" lon="10.8800583367">
		<tag k="name" v="Monsfjellet" />
		<tag k="place" v="locality" />
		<tag k="ssr:stedsnr" v="59417" />
	</node>
	<node id="-31678" lat="60.4553666691" lon="10.9338583264">
		<tag k="name" v="Kulthaugdalen" />
		<tag k="natural" v="valley" />
		<tag k="place" v="locality" />
		<tag k="ssr:stedsnr" v="299664" />
	</node>
	<node id="-32701" lat="60.4800444461" lon="10.9568194478">
		<tag k="name" v="Tømmerdalen" />
		<tag k="natural" v="valley" />
		<tag k="place" v="locality" />
		<tag k="ssr:stedsnr" v="785154" />
	</node>
	<node id="-31675" lat="60.4115694471" lon="10.9998472156">
		<tag k="name" v="Lundbylia" />
		<tag k="natural" v="slope" />
		<tag k="place" v="locality" />
		<tag k="ssr:stedsnr" v="467880" />
	</node>
	<node id="-32698" lat="60.4650611093" lon="10.788269444">
		<tag k="name" v="Pershaugdalen" />
		<tag k="natural" v="valley" />
		<tag k="place" v="locality" />
		<tag k="ssr:stedsnr" v="783909" />
	</node>
	<node id="-32500" lat="60.4546388934" lon="11.013277772">
		<tag k="name" v="Rognstadkollen" />
		<tag k="natural" v="hill" />
		<tag k="place" v="locality" />
		<tag k="ssr:stedsnr" v="431699" />
	</node>
	<node id="-32182" lat="60.4295722254" lon="11.106158338">
		<tag k="name" v="Middagsberget" />
		<tag k="natural" v="hill" />
		<tag k="place" v="locality" />
		<tag k="ssr:stedsnr" v="55411" />
	</node>
	<node id="-32693" lat="60.3875250005" lon="11.1284305538">
		<tag k="name" v="Krafttjennlia" />
		<tag k="natural" v="slope" />
		<tag k="place" v="locality" />
		<tag k="ssr:stedsnr" v="770818" />
	</node>
	<node id="-32692" lat="60.3937194484" lon="10.9977000032">
		<tag k="name" v="Nysetertjennshaugen" />
		<tag k="natural" v="hill" />
		<tag k="place" v="locality" />
		<tag k="ssr:stedsnr" v="770810" />
	</node>
	<node id="-32691" lat="60.3897750011" lon="11.0068027783">
		<tag k="name" v="Karrigdalshaugen" />
		<tag k="natural" v="hill" />
		<tag k="place" v="locality" />
		<tag k="ssr:stedsnr" v="770613" />
	</node>
	<node id="-32687" lat="60.411733336" lon="11.1260722175">
		<tag k="name" v="Svarthølshaugen" />
		<tag k="natural" v="hill" />
		<tag k="place" v="locality" />
		<tag k="ssr:stedsnr" v="770744" />
	</node>
	<node id="-31662" lat="60.4661916678" lon="11.0775722141">
		<tag k="name" v="Fadderhusbakken" />
		<tag k="natural" v="slope" />
		<tag k="place" v="locality" />
		<tag k="ssr:stedsnr" v="466234" />
	</node>
	<node id="-31661" lat="60.4595777781" lon="11.0954805558">
		<tag k="name" v="Storeholen" />
		<tag k="natural" v="hill" />
		<tag k="place" v="locality" />
		<tag k="ssr:stedsnr" v="466229" />
	</node>
	<node id="-32682" lat="60.4364611149" lon="11.0161888855">
		<tag k="name" v="Fugleberget" />
		<tag k="natural" v="hill" />
		<tag k="place" v="locality" />
		<tag k="ssr:stedsnr" v="770668" />
	</node>
	<node id="-32681" lat="60.4532583294" lon="10.9861916579">
		<tag k="name" v="Gjødingseterdalene" />
		<tag k="natural" v="valley" />
		<tag k="place" v="locality" />
		<tag k="ssr:stedsnr" v="770665" />
	</node>
	<node id="-32680" lat="60.3490305543" lon="11.0674666705">
		<tag k="name" v="Gråberga" />
		<tag k="natural" v="cliff" />
		<tag k="ssr:stedsnr" v="770545" />
	</node>
	<node id="-31655" lat="60.464905556" lon="10.8010472248">
		<tag k="name" v="Trebekkdalen" />
		<tag k="natural" v="valley" />
		<tag k="place" v="locality" />
		<tag k="ssr:stedsnr" v="298888" />
	</node>
	<node id="-31654" lat="60.4596305547" lon="10.814502776">
		<tag k="name" v="Skarberget" />
		<tag k="natural" v="cliff" />
		<tag k="ssr:stedsnr" v="298883" />
	</node>
	<node id="-32677" lat="60.4833305517" lon="10.7376444447">
		<tag k="name" v="Malsjøholen" />
		<tag k="natural" v="hill" />
		<tag k="place" v="locality" />
		<tag k="ssr:stedsnr" v="770208" />
	</node>
	<node id="-32676" lat="60.4752722267" lon="11.0752416676">
		<tag k="name" v="Melbylia" />
		<tag k="natural" v="slope" />
		<tag k="place" v="locality" />
		<tag k="ssr:stedsnr" v="770202" />
	</node>
	<node id="-31651" lat="60.4558833301" lon="10.8647527741">
		<tag k="name" v="Hørja" />
		<tag k="place" v="locality" />
		<tag k="ssr:stedsnr" v="465282" />
	</node>
	<node id="-32674" lat="60.4215111156" lon="10.9359722204">
		<tag k="name" v="Damlia" />
		<tag k="natural" v="slope" />
		<tag k="place" v="locality" />
		<tag k="ssr:stedsnr" v="770152" />
	</node>
	<node id="-32672" lat="60.4803083311" lon="11.0747972304">
		<tag k="name" v="Monsdalen" />
		<tag k="natural" v="valley" />
		<tag k="place" v="locality" />
		<tag k="ssr:stedsnr" v="770037" />
	</node>
	<node id="-32671" lat="60.4976111092" lon="11.0700055557">
		<tag k="name" v="Bergvatnlia" />
		<tag k="natural" v="slope" />
		<tag k="place" v="locality" />
		<tag k="ssr:stedsnr" v="770032" />
	</node>
	<node id="-31646" lat="60.3821361117" lon="11.0767694409">
		<tag k="name" v="Skåldalen" />
		<tag k="natural" v="valley" />
		<tag k="place" v="locality" />
		<tag k="ssr:stedsnr" v="285903" />
	</node>
	<node id="-31557" lat="60.4692111085" lon="10.9323166733">
		<tag k="fixme" v="consider natural=peak for the most distinct mountains in the district" />
		<tag k="name" v="Kjellerhøgda" />
		<tag k="natural" v="hill" />
		<tag k="place" v="locality" />
		<tag k="ssr:stedsnr" v="118868" />
	</node>
	<node id="-31643" lat="60.3965138878" lon="10.9831694469">
		<tag k="fixme" v="consider natural=peak for the most distinct mountains in the district" />
		<tag k="name" v="Merratjennsholene" />
		<tag k="natural" v="hill" />
		<tag k="place" v="locality" />
		<tag k="ssr:stedsnr" v="285826" />
	</node>
	<node id="-31642" lat="60.3938333312" lon="10.9036250042">
		<tag k="alt_name" v="Skogbråtehøgda" />
		<tag k="name" v="Skaubråtehøgda" />
		<tag k="natural" v="hill" />
		<tag k="place" v="locality" />
		<tag k="ssr:stedsnr" v="248603" />
	</node>
	<node id="-31641" lat="60.3887805524" lon="11.0155805627">
		<tag k="name" v="Hattfurukollen" />
		<tag k="natural" v="hill" />
		<tag k="place" v="locality" />
		<tag k="ssr:stedsnr" v="241958" />
	</node>
	<node id="-32168" lat="60.3860277756" lon="10.9883194422">
		<tag k="name" v="Kollia" />
		<tag k="natural" v="slope" />
		<tag k="place" v="locality" />
		<tag k="ssr:stedsnr" v="42599" />
	</node>
	<node id="-31638" lat="60.3826500031" lon="11.0122611186">
		<tag k="name" v="Seterhaugen" />
		<tag k="natural" v="hill" />
		<tag k="place" v="locality" />
		<tag k="ssr:stedsnr" v="241552" />
	</node>
	<node id="-32661" lat="60.4010722187" lon="10.9990583278">
		<tag k="name" v="Gamlevangen" />
		<tag k="natural" v="hill" />
		<tag k="place" v="locality" />
		<tag k="ssr:stedsnr" v="648814" />
	</node>
	<node id="-32660" lat="60.4079416701" lon="11.1200333265">
		<tag k="name" v="Kløvdalen" />
		<tag k="natural" v="valley" />
		<tag k="place" v="locality" />
		<tag k="ssr:stedsnr" v="648763" />
	</node>
	<node id="-32659" lat="60.3997472236" lon="11.1273972262">
		<tag k="name" v="Vingerdalen" />
		<tag k="natural" v="valley" />
		<tag k="place" v="locality" />
		<tag k="ssr:stedsnr" v="648762" />
	</node>
	<node id="-32658" lat="60.392300002" lon="11.0970000059">
		<tag k="name" v="Brennerød" />
		<tag k="natural" v="hill" />
		<tag k="place" v="locality" />
		<tag k="ssr:stedsnr" v="648760" />
	</node>
	<node id="-32657" lat="60.3934166694" lon="11.1156027828">
		<tag k="name" v="Hytteholen" />
		<tag k="natural" v="hill" />
		<tag k="place" v="locality" />
		<tag k="ssr:stedsnr" v="648754" />
	</node>
	<node id="-31632" lat="60.3417777771" lon="11.1020555539">
		<tag k="name" v="Snøplogbakken" />
		<tag k="natural" v="slope" />
		<tag k="place" v="locality" />
		<tag k="ssr:stedsnr" v="297761" />
	</node>
	<node id="-32142" lat="60.4596472255" lon="10.8876666622">
		<tag k="name" v="Lyberget" />
		<tag k="natural" v="hill" />
		<tag k="place" v="locality" />
		<tag k="ssr:stedsnr" v="6688" />
	</node>
	<node id="-31629" lat="60.3886805545" lon="11.0918666724">
		<tag k="name" v="Jodalen" />
		<tag k="natural" v="valley" />
		<tag k="place" v="locality" />
		<tag k="ssr:stedsnr" v="285888" />
	</node>
	<node id="-31628" lat="60.3848611102" lon="10.9308749982">
		<tag k="name" v="Storrputthaugen" />
		<tag k="natural" v="hill" />
		<tag k="place" v="locality" />
		<tag k="ssr:stedsnr" v="285730" />
	</node>
	<node id="-32651" lat="60.4481249991" lon="10.9616972225">
		<tag k="name" v="Skarberget" />
		<tag k="place" v="locality" />
		<tag k="ssr:stedsnr" v="648685" />
	</node>
	<node id="-32648" lat="60.4605361076" lon="11.0801749939">
		<tag k="name" v="Østlia" />
		<tag k="natural" v="slope" />
		<tag k="place" v="locality" />
		<tag k="ssr:stedsnr" v="648235" />
	</node>
	<node id="-32647" lat="60.4292277793" lon="10.7915333377">
		<tag k="name" v="Fuglåsdalen" />
		<tag k="natural" v="valley" />
		<tag k="place" v="locality" />
		<tag k="ssr:stedsnr" v="648234" />
	</node>
	<node id="-31621" lat="60.4382333324" lon="10.782994451">
		<tag k="name" v="Tuvslia" />
		<tag k="natural" v="slope" />
		<tag k="place" v="locality" />
		<tag k="ssr:stedsnr" v="181411" />
	</node>
	<node id="-32345" lat="60.4039111109" lon="10.9014833358">
		<tag k="alt_name" v="Svarttjennshaugen" />
		<tag k="fixme" v="consider natural=peak for the most distinct mountains in the district" />
		<tag k="name" v="Svarttjennhaugen" />
		<tag k="natural" v="hill" />
		<tag k="place" v="locality" />
		<tag k="ssr:stedsnr" v="188652" />
	</node>
	<node id="-32124" lat="60.4047750008" lon="11.0992638943">
		<tag k="name" v="Veslekollen" />
		<tag k="natural" v="hill" />
		<tag k="place" v="locality" />
		<tag k="ssr:stedsnr" v="6019" />
	</node>
	<node id="-31722" lat="60.4403583361" lon="11.087499995">
		<tag k="name" v="Brustadkollen" />
		<tag k="natural" v="hill" />
		<tag k="place" v="locality" />
		<tag k="ssr:stedsnr" v="491660" />
	</node>
	<node id="-31807" lat="60.3857750021" lon="11.1209861171">
		<tag k="name" v="Ospelia" />
		<tag k="natural" v="slope" />
		<tag k="place" v="locality" />
		<tag k="ssr:stedsnr" v="673018" />
	</node>
	<node id="-32632" lat="60.4741333368" lon="10.7699722139">
		<tag k="loc_name" v="Kiselberget" />
		<tag k="name" v="Glasberget" />
		<tag k="natural" v="hill" />
		<tag k="place" v="locality" />
		<tag k="ssr:stedsnr" v="613698" />
	</node>
	<node id="-31607" lat="60.453638892" lon="10.9991250082">
		<tag k="fixme" v="consider natural=peak for the most distinct mountains in the district" />
		<tag k="name" v="Kollmyråsen" />
		<tag k="natural" v="hill" />
		<tag k="place" v="locality" />
		<tag k="ssr:stedsnr" v="284732" />
	</node>
	<node id="-32117" lat="60.4364777793" lon="10.9949083387">
		<tag k="name" v="Ronkelia" />
		<tag k="natural" v="slope" />
		<tag k="place" v="locality" />
		<tag k="ssr:stedsnr" v="967608" />
	</node>
	<node id="-32116" lat="60.435349997" lon="11.0018722167">
		<tag k="fixme" v="consider natural=peak for the most distinct mountains in the district" />
		<tag k="name" v="Ronkeberget" />
		<tag k="natural" v="hill" />
		<tag k="place" v="locality" />
		<tag k="ssr:stedsnr" v="967607" />
	</node>
	<node id="-32624" lat="60.4595722206" lon="10.9402583272">
		<tag k="fixme" v="consider natural=peak for the most distinct mountains in the district" />
		<tag k="name" v="Fjellsjøkampen" />
		<tag k="natural" v="hill" />
		<tag k="place" v="locality" />
		<tag k="ssr:stedsnr" v="612674" />
	</node>
	<node id="-32622" lat="60.4559361082" lon="10.9236194481">
		<tag k="name" v="Illebrent" />
		<tag k="place" v="locality" />
		<tag k="ssr:stedsnr" v="612661" />
	</node>
	<node id="-32619" lat="60.347650001" lon="10.9597777791">
		<tag k="name" v="Nordåskollen" />
		<tag k="natural" v="hill" />
		<tag k="place" v="locality" />
		<tag k="ssr:stedsnr" v="612535" />
	</node>
	<node id="-31594" lat="60.4566166654" lon="10.888672221">
		<tag k="name" v="Lokkerhaugen" />
		<tag k="place" v="locality" />
		<tag k="ssr:stedsnr" v="283249" />
	</node>
	<node id="-32616" lat="60.4566249992" lon="11.1053250002">
		<tag k="name" v="Digerknappen" />
		<tag k="natural" v="hill" />
		<tag k="place" v="locality" />
		<tag k="ssr:stedsnr" v="612446" />
	</node>
	<node id="-32097" lat="60.3998000003" lon="11.0042277814">
		<tag k="alt_name" v="Vivangsberget" />
		<tag k="name" v="Vivangskollen" />
		<tag k="natural" v="hill" />
		<tag k="place" v="locality" />
		<tag k="ssr:stedsnr" v="916619" />
	</node>
	<node id="-31584" lat="60.3949999984" lon="11.0175250031">
		<tag k="name" v="Snuruhaugen" />
		<tag k="natural" v="hill" />
		<tag k="place" v="locality" />
		<tag k="ssr:stedsnr" v="163874" />
	</node>
	<node id="-31583" lat="60.3895444469" lon="10.9692055595">
		<tag k="name" v="Rundhaugen" />
		<tag k="natural" v="hill" />
		<tag k="place" v="locality" />
		<tag k="ssr:stedsnr" v="163623" />
	</node>
	<node id="-31582" lat="60.3906333325" lon="10.9872388803">
		<tag k="name" v="Høgenhallkollen" />
		<tag k="natural" v="hill" />
		<tag k="place" v="locality" />
		<tag k="ssr:stedsnr" v="163622" />
	</node>
	<node id="-32604" lat="60.4650694462" lon="10.8252638833">
		<tag k="name" v="Kalvehaugen" />
		<tag k="natural" v="hill" />
		<tag k="place" v="locality" />
		<tag k="ssr:stedsnr" v="601893" />
	</node>
	<node id="-32603" lat="60.449405552" lon="11.0849361077">
		<tag k="name" v="Korpedalen" />
		<tag k="natural" v="valley" />
		<tag k="place" v="locality" />
		<tag k="ssr:stedsnr" v="601879" />
	</node>
	<node id="-31578" lat="60.3511000006" lon="11.0820638836">
		<tag k="name" v="Tvistholen" />
		<tag k="natural" v="hill" />
		<tag k="place" v="locality" />
		<tag k="ssr:stedsnr" v="163528" />
	</node>
	<node id="-31577" lat="60.3588222219" lon="11.072419447">
		<tag k="name" v="Langbakken" />
		<tag k="natural" v="slope" />
		<tag k="place" v="locality" />
		<tag k="ssr:stedsnr" v="163521" />
	</node>
	<node id="-31576" lat="60.3692583343" lon="11.0944111027">
		<tag k="name" v="Kinnberget" />
		<tag k="natural" v="hill" />
		<tag k="place" v="locality" />
		<tag k="ssr:stedsnr" v="163517" />
	</node>
	<node id="-32086" lat="60.3713777737" lon="11.0725638956">
		<tag k="name" v="Storbakken" />
		<tag k="natural" v="slope" />
		<tag k="place" v="locality" />
		<tag k="ssr:stedsnr" v="892908" />
	</node>
	<node id="-32597" lat="60.3875333357" lon="11.1149861143">
		<tag k="name" v="Styggedalen" />
		<tag k="natural" v="valley" />
		<tag k="place" v="locality" />
		<tag k="ssr:stedsnr" v="588928" />
	</node>
	<node id="-32084" lat="60.3888083292" lon="11.0755611134">
		<tag k="name" v="Skrømtedalen" />
		<tag k="natural" v="valley" />
		<tag k="place" v="locality" />
		<tag k="ssr:stedsnr" v="892814" />
	</node>
	<node id="-32595" lat="60.3907166691" lon="11.0049750018">
		<tag k="name" v="Karrigdalen" />
		<tag k="natural" v="valley" />
		<tag k="place" v="locality" />
		<tag k="ssr:stedsnr" v="588633" />
	</node>
	<node id="-32077" lat="60.382194446" lon="10.9277055638">
		<tag k="alt_name" v="Bjønnkollen" />
		<tag k="name" v="Bjørnkollen" />
		<tag k="natural" v="hill" />
		<tag k="place" v="locality" />
		<tag k="ssr:stedsnr" v="856606" />
	</node>
	<node id="-31562" lat="60.4010111105" lon="10.9369861044">
		<tag k="fixme" v="consider natural=peak for the most distinct mountains in the district" />
		<tag k="name" v="Middagskollen" />
		<tag k="natural" v="hill" />
		<tag k="place" v="locality" />
		<tag k="ssr:stedsnr" v="127630" />
	</node>
	<node id="-32387" lat="60.4232661917" lon="11.0478405037">
		<tag k="fixme" v="consider natural=peak for the most distinct mountains in the district" />
		<tag k="name" v="Buråsen" />
		<tag k="natural" v="hill" />
		<tag k="place" v="locality" />
		<tag k="ssr:stedsnr" v="310623" />
	</node>
	<node id="-32072" lat="60.4227500009" lon="11.1126500083">
		<tag k="alt_name" v="Seteråsen" />
		<tag k="fixme" v="consider natural=peak for the most distinct mountains in the district" />
		<tag k="name" v="Sæteråsen" />
		<tag k="natural" v="hill" />
		<tag k="place" v="locality" />
		<tag k="ssr:stedsnr" v="855477" />
	</node>
	<node id="-32071" lat="60.4673777787" lon="10.7303527753">
		<tag k="name" v="Sprangmyrdalen" />
		<tag k="natural" v="valley" />
		<tag k="place" v="locality" />
		<tag k="ssr:stedsnr" v="965934" />
	</node>
	<node id="-32582" lat="60.492297224" lon="10.9894722134">
		<tag k="name" v="Rundberget" />
		<tag k="natural" v="hill" />
		<tag k="place" v="locality" />
		<tag k="ssr:stedsnr" v="587013" />
	</node>
	<node id="-32069" lat="60.4663805592" lon="10.8713222303">
		<tag k="name" v="Anderslia" />
		<tag k="natural" v="slope" />
		<tag k="place" v="locality" />
		<tag k="ssr:stedsnr" v="847835" />
	</node>
	<node id="-31556" lat="60.4700472244" lon="10.906008332">
		<tag k="name" v="Midthaugen" />
		<tag k="natural" v="hill" />
		<tag k="place" v="locality" />
		<tag k="ssr:stedsnr" v="118866" />
	</node>
	<node id="-31555" lat="60.4679416647" lon="10.7255444372">
		<tag k="name" v="Hageberget" />
		<tag k="natural" v="hill" />
		<tag k="place" v="locality" />
		<tag k="ssr:stedsnr" v="116916" />
	</node>
	<node id="-32577" lat="60.4728888856" lon="10.81895555">
		<tag k="fixme" v="consider natural=peak for the most distinct mountains in the district" />
		<tag k="name" v="Korpehaugen" />
		<tag k="natural" v="hill" />
		<tag k="place" v="locality" />
		<tag k="ssr:stedsnr" v="552741" />
	</node>
	<node id="-31549" lat="60.4693000017" lon="10.8442222253">
		<tag k="alt_name" v="Svartungbråtaberget" />
		<tag k="fixme" v="consider natural=peak for the most distinct mountains in the district" />
		<tag k="name" v="Svartungbråteberget" />
		<tag k="natural" v="hill" />
		<tag k="place" v="locality" />
		<tag k="ssr:stedsnr" v="249697" />
	</node>
	<node id="-32056" lat="60.4582305526" lon="10.7805083403">
		<tag k="fixme" v="consider natural=peak for the most distinct mountains in the district" />
		<tag k="name" v="Røssumåsen" />
		<tag k="natural" v="hill" />
		<tag k="place" v="locality" />
		<tag k="ssr:stedsnr" v="916734" />
	</node>
	<node id="-32564" lat="60.4327000027" lon="10.8947555579">
		<tag k="name" v="Sollia" />
		<tag k="natural" v="slope" />
		<tag k="place" v="locality" />
		<tag k="ssr:stedsnr" v="552689" />
	</node>
	<node id="-32563" lat="60.4375250017" lon="11.0102055478">
		<tag k="fixme" v="consider natural=peak for the most distinct mountains in the district" />
		<tag k="name" v="Buråskollen" />
		<tag k="natural" v="hill" />
		<tag k="place" v="locality" />
		<tag k="ssr:stedsnr" v="552688" />
	</node>
	<node id="-32049" lat="60.3498972256" lon="10.9457527733">
		<tag k="fixme" v="consider natural=peak for the most distinct mountains in the district" />
		<tag k="name" v="Rustadkampen" />
		<tag k="natural" v="hill" />
		<tag k="place" v="locality" />
		<tag k="ssr:stedsnr" v="916541" />
	</node>
	<node id="-32186" lat="60.4751249978" lon="11.0469916729">
		<tag k="fixme" v="consider natural=peak for the most distinct mountains in the district" />
		<tag k="name" v="Ødemarkskollen" />
		<tag k="natural" v="hill" />
		<tag k="place" v="locality" />
		<tag k="ssr:stedsnr" v="57138" />
	</node>
	<node id="-32557" lat="60.4615555515" lon="10.8230249992">
		<tag k="alt_name" v="Lundbergskollen" />
		<tag k="fixme" v="consider natural=peak for the most distinct mountains in the district" />
		<tag k="name" v="Lundbergkollen" />
		<tag k="natural" v="hill" />
		<tag k="place" v="locality" />
		<tag k="ssr:stedsnr" v="551672" />
	</node>
	<node id="-32037" lat="60.4328694487" lon="11.0827666676">
		<tag k="name" v="Tjærekokerdalen" />
		<tag k="natural" v="valley" />
		<tag k="place" v="locality" />
		<tag k="ssr:stedsnr" v="909465" />
	</node>
	<node id="-32036" lat="60.4405555595" lon="10.6993916677">
		<tag k="name" v="Bustevollhaugen" />
		<tag k="natural" v="hill" />
		<tag k="place" v="locality" />
		<tag k="ssr:stedsnr" v="909462" />
	</node>
	<node id="-32035" lat="60.4548083292" lon="10.8262527711">
		<tag k="name" v="Ertebakkberget" />
		<tag k="natural" v="cliff" />
		<tag k="ssr:stedsnr" v="909404" />
	</node>
	<node id="-32546" lat="60.4680777788" lon="10.9909527778">
		<tag k="name" v="Handsagbakken" />
		<tag k="natural" v="slope" />
		<tag k="place" v="locality" />
		<tag k="ssr:stedsnr" v="543850" />
	</node>
	<node id="-32032" lat="60.4644944418" lon="10.8365083412">
		<tag k="name" v="Fløytmyrbakken" />
		<tag k="natural" v="slope" />
		<tag k="place" v="locality" />
		<tag k="ssr:stedsnr" v="907795" />
	</node>
	<node id="-32543" lat="60.4587027764" lon="10.8325277826">
		<tag k="name" v="Karidalen" />
		<tag k="natural" v="valley" />
		<tag k="place" v="locality" />
		<tag k="ssr:stedsnr" v="540901" />
	</node>
	<node id="-31874" lat="60.4192138869" lon="11.0056583384">
		<tag k="name" v="Svartdalen" />
		<tag k="natural" v="valley" />
		<tag k="place" v="locality" />
		<tag k="ssr:stedsnr" v="709134" />
	</node>
	<node id="-32537" lat="60.4224694433" lon="11.0946361182">
		<tag k="name" v="Oreflata" />
		<tag k="place" v="locality" />
		<tag k="ssr:stedsnr" v="540441" />
	</node>
	<node id="-32536" lat="60.3879888881" lon="10.9953527701">
		<tag k="name" v="Djupdalen" />
		<tag k="natural" v="valley" />
		<tag k="place" v="locality" />
		<tag k="ssr:stedsnr" v="540275" />
	</node>
	<node id="-31510" lat="60.4230805546" lon="11.0867000045">
		<tag k="name" v="Furubakken" />
		<tag k="natural" v="slope" />
		<tag k="place" v="locality" />
		<tag k="ssr:stedsnr" v="237457" />
	</node>
	<node id="-32018" lat="60.4688111076" lon="10.8869611027">
		<tag k="name" v="Lusmyrdalen" />
		<tag k="natural" v="valley" />
		<tag k="place" v="locality" />
		<tag k="ssr:stedsnr" v="725805" />
	</node>
	<node id="-31505" lat="60.3794638927" lon="11.0912944427">
		<tag k="name" v="Stutmyrlia" />
		<tag k="natural" v="slope" />
		<tag k="place" v="locality" />
		<tag k="ssr:stedsnr" v="224924" />
	</node>
	<node id="-32528" lat="60.3984194458" lon="11.0974305504">
		<tag k="name" v="Nyseterlia" />
		<tag k="natural" v="slope" />
		<tag k="place" v="locality" />
		<tag k="ssr:stedsnr" v="527768" />
	</node>
	<node id="-32015" lat="60.4728083352" lon="10.9797444428">
		<tag k="name" v="Kongkabus" />
		<tag k="natural" v="hill" />
		<tag k="place" v="locality" />
		<tag k="ssr:stedsnr" v="725167" />
	</node>
	<node id="-32013" lat="60.4209555558" lon="11.109272225">
		<tag k="name" v="Namnberglia" />
		<tag k="natural" v="slope" />
		<tag k="place" v="locality" />
		<tag k="ssr:stedsnr" v="722433" />
	</node>
	<node id="-31499" lat="60.4002777805" lon="11.1121444447">
		<tag k="name" v="Storlidalslia" />
		<tag k="natural" v="slope" />
		<tag k="place" v="locality" />
		<tag k="ssr:stedsnr" v="224763" />
	</node>
	<node id="-32009" lat="60.3777694451" lon="10.9982111149">
		<tag k="name" v="Potteberget" />
		<tag k="place" v="locality" />
		<tag k="ssr:stedsnr" v="892718" />
	</node>
	<node id="-32519" lat="60.4304305591" lon="10.9501472246">
		<tag k="fixme" v="consider natural=peak for the most distinct mountains in the district" />
		<tag k="name" v="Gullhaugen" />
		<tag k="natural" v="hill" />
		<tag k="place" v="locality" />
		<tag k="ssr:stedsnr" v="527197" />
	</node>
	<node id="-32518" lat="60.487277781" lon="10.7916222191">
		<tag k="name" v="Hagletjennslia" />
		<tag k="natural" v="slope" />
		<tag k="place" v="locality" />
		<tag k="ssr:stedsnr" v="527050" />
	</node>
	<node id="-32517" lat="60.4829472253" lon="10.7858305571">
		<tag k="name" v="Tømmerlunnlia" />
		<tag k="natural" v="slope" />
		<tag k="place" v="locality" />
		<tag k="ssr:stedsnr" v="527049" />
	</node>
	<node id="-32004" lat="60.3689888892" lon="11.0725388931">
		<tag k="name" v="Elilykkjebakken" />
		<tag k="natural" v="slope" />
		<tag k="place" v="locality" />
		<tag k="ssr:stedsnr" v="892537" />
	</node>
	<node id="-32003" lat="60.3628416666" lon="11.0980444515">
		<tag k="name" v="Gryta" />
		<tag k="place" v="locality" />
		<tag k="ssr:stedsnr" v="892534" />
	</node>
	<node id="-32514" lat="60.4403055523" lon="10.9283277811">
		<tag k="name" v="Slåttmyrdalen" />
		<tag k="natural" v="valley" />
		<tag k="place" v="locality" />
		<tag k="ssr:stedsnr" v="526295" />
	</node>
	<node id="-31489" lat="60.3604166661" lon="10.9875194392">
		<tag k="name" v="Galteberget" />
		<tag k="natural" v="hill" />
		<tag k="place" v="locality" />
		<tag k="ssr:stedsnr" v="224523" />
	</node>
	<node id="-31486" lat="60.4627583374" lon="11.0777888814">
		<tag k="name" v="Vatningssletta" />
		<tag k="place" v="locality" />
		<tag k="ssr:stedsnr" v="224215" />
	</node>
	<node id="-31485" lat="60.4584527737" lon="11.0934444431">
		<tag k="name" v="Siridalen" />
		<tag k="natural" v="valley" />
		<tag k="place" v="locality" />
		<tag k="ssr:stedsnr" v="224211" />
	</node>
	<node id="-31995" lat="60.4267722252" lon="10.8657916662">
		<tag k="name" v="Skjeggerudlia" />
		<tag k="natural" v="slope" />
		<tag k="place" v="locality" />
		<tag k="ssr:stedsnr" v="891256" />
	</node>
	<node id="-31991" lat="60.4918055527" lon="10.9754055561">
		<tag k="name" v="Rognlikollen" />
		<tag k="natural" v="hill" />
		<tag k="place" v="locality" />
		<tag k="ssr:stedsnr" v="891016" />
	</node>
	<node id="-32502" lat="60.46847222" lon="10.7193861121">
		<tag k="alt_name" v="Rundhaugen" />
		<tag k="name" v="Runehaugen" />
		<tag k="natural" v="hill" />
		<tag k="place" v="locality" />
		<tag k="ssr:stedsnr" v="431719" />
	</node>
	<node id="-31989" lat="60.3644694459" lon="11.1052749972">
		<tag k="name" v="Tørjeshøgda" />
		<tag k="natural" v="hill" />
		<tag k="place" v="locality" />
		<tag k="ssr:stedsnr" v="890080" />
	</node>
	<node id="-31476" lat="60.485336107" lon="11.0522944361">
		<tag k="name" v="Solbergrøet" />
		<tag k="natural" v="hill" />
		<tag k="place" v="locality" />
		<tag k="ssr:stedsnr" v="224017" />
	</node>
	<node id="-31987" lat="60.3478555534" lon="11.0747861041">
		<tag k="name" v="Gulliksbakken" />
		<tag k="natural" v="slope" />
		<tag k="place" v="locality" />
		<tag k="ssr:stedsnr" v="889763" />
	</node>
	<node id="-31474" lat="60.4879861089" lon="11.0610000054">
		<tag k="name" v="Prekestolberget" />
		<tag k="natural" v="cliff" />
		<tag k="ssr:stedsnr" v="224004" />
	</node>
	<node id="-31473" lat="60.3443722225" lon="10.9549388946">
		<tag k="name" v="Kampelia" />
		<tag k="natural" v="slope" />
		<tag k="place" v="locality" />
		<tag k="ssr:stedsnr" v="222856" />
	</node>
	<node id="-32494" lat="60.4184361114" lon="10.8626444464">
		<tag k="name" v="Sovarhaugen" />
		<tag k="natural" v="hill" />
		<tag k="place" v="locality" />
		<tag k="ssr:stedsnr" v="431632" />
	</node>
	<node id="-32507" lat="60.4771000023" lon="10.7317250012">
		<tag k="name" v="Damhaugen" />
		<tag k="natural" v="hill" />
		<tag k="place" v="locality" />
		<tag k="ssr:stedsnr" v="431747" />
	</node>
	<node id="-32488" lat="60.4163638899" lon="11.1025888938">
		<tag k="name" v="Tyrrissen" />
		<tag k="natural" v="hill" />
		<tag k="place" v="locality" />
		<tag k="ssr:stedsnr" v="431512" />
	</node>
	<node id="-31971" lat="60.469497223" lon="11.0059583256">
		<tag k="name" v="Rundhaugen" />
		<tag k="natural" v="hill" />
		<tag k="place" v="locality" />
		<tag k="ssr:stedsnr" v="664870" />
	</node>
	<node id="-32481" lat="60.4617027745" lon="10.9124111042">
		<tag k="name" v="Fjellhammerhøgda" />
		<tag k="natural" v="hill" />
		<tag k="place" v="locality" />
		<tag k="ssr:stedsnr" v="422886" />
	</node>
	<node id="-32477" lat="60.4591583343" lon="11.0688638954">
		<tag k="name" v="Karibakken" />
		<tag k="natural" v="slope" />
		<tag k="place" v="locality" />
		<tag k="ssr:stedsnr" v="422164" />
	</node>
	<node id="-32475" lat="60.469369445" lon="10.8143555556">
		<tag k="name" v="Treskoberget" />
		<tag k="natural" v="hill" />
		<tag k="place" v="locality" />
		<tag k="ssr:stedsnr" v="419901" />
	</node>
	<node id="-32474" lat="60.4711194468" lon="10.7675888921">
		<tag k="name" v="Osttjennslia" />
		<tag k="natural" v="slope" />
		<tag k="place" v="locality" />
		<tag k="ssr:stedsnr" v="419891" />
	</node>
	<node id="-32472" lat="60.3806722184" lon="11.1047972287">
		<tag k="name" v="Pinntjennslia" />
		<tag k="natural" v="slope" />
		<tag k="place" v="locality" />
		<tag k="ssr:stedsnr" v="406931" />
	</node>
	<node id="-31524" lat="60.4475805551" lon="10.7333333387">
		<tag k="name" v="Tyrirotbakken" />
		<tag k="natural" v="slope" />
		<tag k="place" v="locality" />
		<tag k="ssr:stedsnr" v="241440" />
	</node>
	<node id="-32469" lat="60.4504277801" lon="11.0036722292">
		<tag k="name" v="Harahølet" />
		<tag k="place" v="locality" />
		<tag k="ssr:stedsnr" v="406679" />
	</node>
	<node id="-32468" lat="60.4515499965" lon="10.9748861079">
		<tag k="name" v="Kalvemyrberget" />
		<tag k="natural" v="hill" />
		<tag k="place" v="locality" />
		<tag k="ssr:stedsnr" v="406674" />
	</node>
	<node id="-31952" lat="60.3613611136" lon="10.9643694453">
		<tag k="name" v="Bønsvanghaugen" />
		<tag k="natural" v="hill" />
		<tag k="place" v="locality" />
		<tag k="ssr:stedsnr" v="648533" />
	</node>
	<node id="-31951" lat="60.4076333322" lon="11.1122416697">
		<tag k="name" v="Gjelmyrputtkollen" />
		<tag k="natural" v="hill" />
		<tag k="place" v="locality" />
		<tag k="ssr:stedsnr" v="734521" />
	</node>
	<node id="-31950" lat="60.419649998" lon="10.8443500057">
		<tag k="name" v="Lomtjennsbakken" />
		<tag k="natural" v="slope" />
		<tag k="place" v="locality" />
		<tag k="ssr:stedsnr" v="648262" />
	</node>
	<node id="-31761" lat="60.393888892" lon="11.096955549">
		<tag k="name" v="Brennerøddalen" />
		<tag k="natural" v="valley" />
		<tag k="place" v="locality" />
		<tag k="ssr:stedsnr" v="406771" />
	</node>
	<node id="-31946" lat="60.4539499967" lon="10.7102361065">
		<tag k="fixme" v="consider natural=peak for the most distinct mountains in the district" />
		<tag k="name" v="Fallhaugen" />
		<tag k="natural" v="hill" />
		<tag k="place" v="locality" />
		<tag k="ssr:stedsnr" v="734262" />
	</node>
	<node id="-32457" lat="60.4716694449" lon="11.0897111044">
		<tag k="name" v="Fegdemyrhøgda" />
		<tag k="natural" v="hill" />
		<tag k="place" v="locality" />
		<tag k="ssr:stedsnr" v="406235" />
	</node>
	<node id="-32801" lat="60.4345111104" lon="11.0097444374">
		<tag k="alt_name" v="Gjødingskollen" />
		<tag k="name" v="Gjødingkollen" />
		<tag k="natural" v="hill" />
		<tag k="place" v="locality" />
		<tag k="ssr:stedsnr" v="856649" />
	</node>
	<node id="-31940" lat="60.3659111147" lon="10.9332527743">
		<tag k="name" v="Kverntjennshaugen" />
		<tag k="natural" v="hill" />
		<tag k="place" v="locality" />
		<tag k="ssr:stedsnr" v="646725" />
	</node>
	<node id="-31627" lat="60.3810944455" lon="10.944022224">
		<tag k="name" v="Våterudsdalen" />
		<tag k="natural" v="valley" />
		<tag k="place" v="locality" />
		<tag k="ssr:stedsnr" v="285725" />
	</node>
	<node id="-31513" lat="60.4422083309" lon="11.0931638842">
		<tag k="fixme" v="consider natural=peak for the most distinct mountains in the district" />
		<tag k="name" v="Damtjennshøgda" />
		<tag k="natural" v="hill" />
		<tag k="place" v="locality" />
		<tag k="ssr:stedsnr" v="237876" />
	</node>
	<node id="-32448" lat="60.3425527767" lon="11.0813916645">
		<tag k="name" v="Nordvangbakken" />
		<tag k="natural" v="slope" />
		<tag k="place" v="locality" />
		<tag k="ssr:stedsnr" v="404748" />
	</node>
	<node id="-31935" lat="60.4382166645" lon="10.8364444404">
		<tag k="name" v="Liseterlia" />
		<tag k="natural" v="slope" />
		<tag k="place" v="locality" />
		<tag k="ssr:stedsnr" v="727399" />
	</node>
	<node id="-31934" lat="60.4359972262" lon="10.8508027847">
		<tag k="name" v="Skjeggerudlia" />
		<tag k="natural" v="slope" />
		<tag k="place" v="locality" />
		<tag k="ssr:stedsnr" v="727398" />
	</node>
	<node id="-31927" lat="60.4662666681" lon="10.7786749932">
		<tag k="name" v="Pershaugen" />
		<tag k="natural" v="hill" />
		<tag k="place" v="locality" />
		<tag k="ssr:stedsnr" v="723888" />
	</node>
	<node id="-31925" lat="60.4483027798" lon="11.0906638882">
		<tag k="name" v="Korpeberget" />
		<tag k="natural" v="hill" />
		<tag k="place" v="locality" />
		<tag k="ssr:stedsnr" v="722905" />
	</node>
	<node id="-31811" lat="60.3905194483" lon="11.0316944467">
		<tag k="name" v="Furuberget" />
		<tag k="natural" v="hill" />
		<tag k="place" v="locality" />
		<tag k="ssr:stedsnr" v="483968" />
	</node>
	<node id="-31700" lat="60.3631666672" lon="11.0858611115">
		<tag k="fixme" v="consider natural=peak for the most distinct mountains in the district" />
		<tag k="name" v="Østerudåsen" />
		<tag k="natural" v="hill" />
		<tag k="place" v="locality" />
		<tag k="ssr:stedsnr" v="345506" />
	</node>
	<node id="-32431" lat="60.4583333335" lon="10.9905055582">
		<tag k="alt_name" v="Lieren" />
		<tag k="name" v="Liskampen" />
		<tag k="natural" v="hill" />
		<tag k="place" v="locality" />
		<tag k="ssr:stedsnr" v="370680" />
	</node>
	<node id="-31907" lat="60.3986472237" lon="10.9519111164">
		<tag k="name" v="Middagskollia" />
		<tag k="natural" v="slope" />
		<tag k="place" v="locality" />
		<tag k="ssr:stedsnr" v="588887" />
	</node>
	<node id="-31904" lat="60.3837722234" lon="10.9066777723">
		<tag k="name" v="Fugleberget" />
		<tag k="natural" v="cliff" />
		<tag k="ssr:stedsnr" v="588723" />
	</node>
	<node id="-31560" lat="60.397499996" lon="11.1173916626">
		<tag k="name" v="Brenntoppen" />
		<tag k="natural" v="hill" />
		<tag k="place" v="locality" />
		<tag k="ssr:stedsnr" v="127004" />
	</node>
	<node id="-31902" lat="60.4487583322" lon="10.9874611094">
		<tag k="name" v="Jodalen" />
		<tag k="natural" v="valley" />
		<tag k="place" v="locality" />
		<tag k="ssr:stedsnr" v="587716" />
	</node>
	<node id="-31901" lat="60.4473583373" lon="10.9879944429">
		<tag k="name" v="Bekkekløfta" />
		<tag k="place" v="locality" />
		<tag k="ssr:stedsnr" v="587713" />
	</node>
	<node id="-32410" lat="60.4073805528" lon="10.9076611166">
		<tag k="name" v="Sørseterhaugen" />
		<tag k="natural" v="hill" />
		<tag k="place" v="locality" />
		<tag k="ssr:stedsnr" v="345832" />
	</node>
	<node id="-31897" lat="60.465438889" lon="10.8858555478">
		<tag k="name" v="Rogntjennhaugen" />
		<tag k="natural" v="hill" />
		<tag k="place" v="locality" />
		<tag k="ssr:stedsnr" v="586105" />
	</node>
	<node id="-31893" lat="60.4047944446" lon="11.0302805511">
		<tag k="name" v="Furuberget" />
		<tag k="natural" v="slope" />
		<tag k="place" v="locality" />
		<tag k="ssr:stedsnr" v="709873" />
	</node>
	<node id="-32404" lat="60.4342861144" lon="10.9634999919">
		<tag k="fixme" v="consider natural=peak for the most distinct mountains in the district" />
		<tag k="name" v="Stuehøgda" />
		<tag k="natural" v="hill" />
		<tag k="place" v="locality" />
		<tag k="ssr:stedsnr" v="345168" />
	</node>
	<node id="-32398" lat="60.5014666712" lon="11.038947222">
		<tag k="fixme" v="consider natural=peak for the most distinct mountains in the district" />
		<tag k="name" v="Trollkjerka" />
		<tag k="natural" v="hill" />
		<tag k="place" v="locality" />
		<tag k="ssr:stedsnr" v="345035" />
	</node>
	<node id="-31884" lat="60.4511416669" lon="10.9642972246">
		<tag k="name" v="Damberget" />
		<tag k="natural" v="hill" />
		<tag k="place" v="locality" />
		<tag k="ssr:stedsnr" v="709667" />
	</node>
	<node id="-32395" lat="60.4382138901" lon="10.9049777784">
		<tag k="name" v="Bjønndalen" />
		<tag k="natural" v="valley" />
		<tag k="place" v="locality" />
		<tag k="ssr:stedsnr" v="343267" />
	</node>
	<node id="-31881" lat="60.4762749971" lon="11.0858416724">
		<tag k="name" v="Røtjennlia" />
		<tag k="natural" v="slope" />
		<tag k="place" v="locality" />
		<tag k="ssr:stedsnr" v="709243" />
	</node>
	<node id="-32390" lat="60.4761722188" lon="10.7947944444">
		<tag k="fixme" v="consider natural=peak for the most distinct mountains in the district" />
		<tag k="name" v="Toppåsen" />
		<tag k="natural" v="hill" />
		<tag k="place" v="locality" />
		<tag k="ssr:stedsnr" v="310712" />
	</node>
	<node id="-31886" lat="60.3726305547" lon="10.944369438">
		<tag k="name" v="Hagaseterdalen" />
		<tag k="natural" v="valley" />
		<tag k="place" v="locality" />
		<tag k="ssr:stedsnr" v="709715" />
	</node>
	<node id="-32386" lat="60.3576083347" lon="10.9410277753">
		<tag k="name" v="Knivhaugen" />
		<tag k="natural" v="hill" />
		<tag k="place" v="locality" />
		<tag k="ssr:stedsnr" v="310530" />
	</node>
	<node id="-31870" lat="60.4936111116" lon="11.0421111134">
		<tag k="name" v="Styggedalen" />
		<tag k="natural" v="valley" />
		<tag k="place" v="locality" />
		<tag k="ssr:stedsnr" v="709026" />
	</node>
	<node id="-31868" lat="60.4991638855" lon="11.0047861197">
		<tag k="name" v="Storåsdalen" />
		<tag k="natural" v="valley" />
		<tag k="place" v="locality" />
		<tag k="ssr:stedsnr" v="709006" />
	</node>
	<node id="-32379" lat="60.456049996" lon="11.0808250017">
		<tag k="fixme" v="consider natural=peak for the most distinct mountains in the district" />
		<tag k="name" v="Hanskollen" />
		<tag k="natural" v="hill" />
		<tag k="place" v="locality" />
		<tag k="ssr:stedsnr" v="309695" />
	</node>
	<node id="-32779" lat="60.4685611153" lon="10.8307361088">
		<tag k="name" v="Fløytmyrberget" />
		<tag k="natural" v="cliff" />
		<tag k="ssr:stedsnr" v="844920" />
	</node>
	<node id="-32371" lat="60.3847861129" lon="10.9218333397">
		<tag k="fixme" v="consider natural=peak for the most distinct mountains in the district" />
		<tag k="name" v="Signalen" />
		<tag k="natural" v="hill" />
		<tag k="place" v="locality" />
		<tag k="ssr:stedsnr" v="309609" />
	</node>
	<node id="-32104" lat="60.4601333372" lon="10.975050008">
		<tag k="alt_name" v="Faksebrennkollen" />
		<tag k="fixme" v="consider natural=peak for the most distinct mountains in the district" />
		<tag k="name" v="Faksebrennkollene" />
		<tag k="natural" v="hill" />
		<tag k="place" v="locality" />
		<tag k="ssr:stedsnr" v="916705" />
	</node>
	<node id="-31853" lat="60.3634277766" lon="11.0927500057">
		<tag k="name" v="Lomtjennsflaten" />
		<tag k="natural" v="hill" />
		<tag k="place" v="locality" />
		<tag k="ssr:stedsnr" v="527559" />
	</node>
	<node id="-32364" lat="60.4627972222" lon="10.8974166697">
		<tag k="name" v="Garsjøbekken" />
		<tag k="natural" v="hill" />
		<tag k="place" v="locality" />
		<tag k="ssr:stedsnr" v="300884" />
	</node>
	<node id="-31849" lat="60.4859250038" lon="10.7685222223">
		<tag k="alt_name" v="Auretjennslia" />
		<tag k="name" v="Aurtjennslia" />
		<tag k="natural" v="slope" />
		<tag k="place" v="locality" />
		<tag k="ssr:stedsnr" v="527237" />
	</node>
	<node id="-32584" lat="60.4317083288" lon="10.9407583364">
		<tag k="name" v="Tørkhusdalen" />
		<tag k="natural" v="valley" />
		<tag k="place" v="locality" />
		<tag k="ssr:stedsnr" v="587204" />
	</node>
	<node id="-31844" lat="60.4341083372" lon="10.785205554">
		<tag k="name" v="Rognbakken" />
		<tag k="natural" v="slope" />
		<tag k="place" v="locality" />
		<tag k="ssr:stedsnr" v="527211" />
	</node>
	<node id="-32354" lat="60.474349997" lon="10.9853333419">
		<tag k="alt_name" v="Nordlikampen" />
		<tag k="fixme" v="consider natural=peak for the most distinct mountains in the district" />
		<tag k="name" v="Nordliskampen" />
		<tag k="natural" v="hill" />
		<tag k="place" v="locality" />
		<tag k="ssr:stedsnr" v="188717" />
	</node>
	<node id="-31841" lat="60.4897583347" lon="11.0636972161">
		<tag k="name" v="Skjellegardsberget" />
		<tag k="natural" v="cliff" />
		<tag k="ssr:stedsnr" v="527005" />
	</node>
	<node id="-31839" lat="60.465902775" lon="10.7110305514">
		<tag k="alt_name" v="Røsåsberget" />
		<tag k="name" v="Anisberget" />
		<tag k="natural" v="hill" />
		<tag k="place" v="locality" />
		<tag k="ssr:stedsnr" v="518535" />
	</node>
	<node id="-31845" lat="60.472011112" lon="11.0931166647">
		<tag k="name" v="Geitryggen" />
		<tag k="natural" v="hill" />
		<tag k="place" v="locality" />
		<tag k="ssr:stedsnr" v="527223" />
	</node>
	<node id="-31657" lat="60.4936944473" lon="11.0432111079">
		<tag k="name" v="Sirihaugen" />
		<tag k="natural" v="hill" />
		<tag k="place" v="locality" />
		<tag k="ssr:stedsnr" v="466039" />
	</node>
	<node id="-32347" lat="60.4270555568" lon="10.7712638828">
		<tag k="name" v="Svartbekkhaugen" />
		<tag k="natural" v="hill" />
		<tag k="place" v="locality" />
		<tag k="ssr:stedsnr" v="188676" />
	</node>
	<node id="-32857" lat="60.4654555583" lon="10.9436083375">
		<tag k="name" v="Fiskeberget" />
		<tag k="natural" v="cliff" />
		<tag k="ssr:stedsnr" v="967840" />
	</node>
	<node id="-32343" lat="60.3864083318" lon="10.9443027859">
		<tag k="name" v="Gjellerhaugen" />
		<tag k="natural" v="hill" />
		<tag k="place" v="locality" />
		<tag k="ssr:stedsnr" v="188619" />
	</node>
	<node id="-32854" lat="60.4668472248" lon="10.8796083347">
		<tag k="name" v="Johannesbråtahaugen" />
		<tag k="natural" v="hill" />
		<tag k="place" v="locality" />
		<tag k="ssr:stedsnr" v="967791" />
	</node>
	<node id="-32771" lat="60.3989527813" lon="11.0193138874">
		<tag k="name" v="Sandsberga" />
		<tag k="natural" v="hill" />
		<tag k="place" v="locality" />
		<tag k="ssr:stedsnr" v="831855" />
	</node>
	<node id="-32851" lat="60.4753500024" lon="10.7838138847">
		<tag k="name" v="Stormyrholen" />
		<tag k="natural" v="hill" />
		<tag k="place" v="locality" />
		<tag k="ssr:stedsnr" v="965916" />
	</node>
	<node id="-31826" lat="60.4408999975" lon="10.8989416706">
		<tag k="alt_name" v="Sørgårdshaugen" />
		<tag k="fixme" v="consider natural=peak for the most distinct mountains in the district" />
		<tag k="name" v="Sørgardhaugen" />
		<tag k="natural" v="hill" />
		<tag k="place" v="locality" />
		<tag k="ssr:stedsnr" v="673671" />
	</node>
	<node id="-32841" lat="60.3825222206" lon="11.1075472241">
		<tag k="name" v="Pinntjennshøgda" />
		<tag k="natural" v="hill" />
		<tag k="place" v="locality" />
		<tag k="ssr:stedsnr" v="952919" />
	</node>
	<node id="-31816" lat="60.3757583301" lon="10.9848805638">
		<tag k="name" v="Nordgardshøgda" />
		<tag k="natural" v="hill" />
		<tag k="place" v="locality" />
		<tag k="ssr:stedsnr" v="673574" />
	</node>
	<node id="-32839" lat="60.4096444475" lon="11.1189805544">
		<tag k="name" v="Gjelmyrputthøgda" />
		<tag k="natural" v="hill" />
		<tag k="place" v="locality" />
		<tag k="ssr:stedsnr" v="952763" />
	</node>
	<node id="-31813" lat="60.3386222266" lon="10.9532527735">
		<tag k="name" v="Heggedalen" />
		<tag k="natural" v="valley" />
		<tag k="place" v="locality" />
		<tag k="ssr:stedsnr" v="673522" />
	</node>
	<node id="-32323" lat="60.4634527735" lon="10.8911250083">
		<tag k="name" v="Rishaugen" />
		<tag k="natural" v="hill" />
		<tag k="place" v="locality" />
		<tag k="ssr:stedsnr" v="179834" />
	</node>
	<node id="-32834" lat="60.3746000005" lon="10.9904166694">
		<tag k="name" v="Styggberget" />
		<tag k="natural" v="cliff" />
		<tag k="ssr:stedsnr" v="952725" />
	</node>
	<node id="-31809" lat="60.4580472179" lon="10.9854833342">
		<tag k="name" v="Gjødingseterdalen" />
		<tag k="natural" v="valley" />
		<tag k="place" v="locality" />
		<tag k="ssr:stedsnr" v="482862" />
	</node>
	<node id="-32319" lat="60.465722222" lon="10.7256972277">
		<tag k="name" v="Runedalen" />
		<tag k="natural" v="valley" />
		<tag k="place" v="locality" />
		<tag k="ssr:stedsnr" v="176917" />
	</node>
	<node id="-31669" lat="60.3592916684" lon="10.9677250014">
		<tag k="name" v="Fløythaugen" />
		<tag k="natural" v="hill" />
		<tag k="place" v="locality" />
		<tag k="ssr:stedsnr" v="467522" />
	</node>
	<node id="-32828" lat="60.3613194442" lon="11.0880444524">
		<tag k="name" v="Hvitveisdalen" />
		<tag k="natural" v="valley" />
		<tag k="place" v="locality" />
		<tag k="ssr:stedsnr" v="952550" />
	</node>
	<node id="-32307" lat="60.4027250019" lon="11.0989222304">
		<tag k="name" v="Dalseterdalen" />
		<tag k="natural" v="valley" />
		<tag k="place" v="locality" />
		<tag k="ssr:stedsnr" v="163780" />
	</node>
	<node id="-31794" lat="60.4472333347" lon="10.9753333285">
		<tag k="name" v="Brentehaugen" />
		<tag k="natural" v="hill" />
		<tag k="place" v="locality" />
		<tag k="ssr:stedsnr" v="466709" />
	</node>
	<node id="-32817" lat="60.4257055546" lon="10.8074694497">
		<tag k="name" v="Langdalen" />
		<tag k="natural" v="valley" />
		<tag k="place" v="locality" />
		<tag k="ssr:stedsnr" v="952232" />
	</node>
	<node id="-32855" lat="60.4710250013" lon="10.9758694497">
		<tag k="name" v="Gråbeinberget" />
		<tag k="natural" v="hill" />
		<tag k="place" v="locality" />
		<tag k="ssr:stedsnr" v="967834" />
	</node>
	<node id="-32666" lat="60.3944416637" lon="11.106411114">
		<tag k="name" v="Nysæterkollen" />
		<tag k="natural" v="hill" />
		<tag k="place" v="locality" />
		<tag k="ssr:stedsnr" v="748980" />
	</node>
	<node id="-31525" lat="60.4501111076" lon="10.7438138951">
		<tag k="name" v="Skåbakken" />
		<tag k="natural" v="slope" />
		<tag k="place" v="locality" />
		<tag k="ssr:stedsnr" v="241441" />
	</node>
	<node id="-32860" lat="60.4233722268" lon="11.0517305489">
		<tag k="name" v="Lauvlia" />
		<tag k="natural" v="slope" />
		<tag k="place" v="locality" />
		<tag k="ssr:stedsnr" v="969050" />
	</node>
	<node id="-32293" lat="60.4238583366" lon="10.9059194373">
		<tag k="name" v="Torva" />
		<tag k="place" v="locality" />
		<tag k="ssr:stedsnr" v="163181" />
	</node>
	<node id="-32342" lat="60.3762388873" lon="10.9303277785">
		<tag k="name" v="Marikollen" />
		<tag k="natural" v="hill" />
		<tag k="place" v="locality" />
		<tag k="ssr:stedsnr" v="188617" />
	</node>
	<node id="-31777" lat="60.453425" lon="10.9259055586">
		<tag k="name" v="Olaberget" />
		<tag k="natural" v="cliff" />
		<tag k="ssr:stedsnr" v="663649" />
	</node>
	<node id="-32797" lat="60.4736833294" lon="10.7170416611">
		<tag k="alt_name" v="Hagatjennhaugen;Hagatjennsberget" />
		<tag k="fixme" v="consider natural=peak for the most distinct mountains in the district" />
		<tag k="name" v="Haketjennberget" />
		<tag k="natural" v="hill" />
		<tag k="place" v="locality" />
		<tag k="ssr:stedsnr" v="856201" />
	</node>
	<node id="-32322" lat="60.4679499983" lon="10.8580972174">
		<tag k="name" v="Bjørtjennshøgda" />
		<tag k="natural" v="hill" />
		<tag k="place" v="locality" />
		<tag k="ssr:stedsnr" v="179831" />
	</node>
	<node id="-31663" lat="60.4669944404" lon="11.0922666724">
		<tag k="name" v="Innleggen" />
		<tag k="natural" v="hill" />
		<tag k="place" v="locality" />
		<tag k="ssr:stedsnr" v="466235" />
	</node>
	<node id="-31833" lat="60.425580556" lon="10.9411027736">
		<tag k="name" v="Rødberget" />
		<tag k="natural" v="hill" />
		<tag k="place" v="locality" />
		<tag k="ssr:stedsnr" v="674635" />
	</node>
	<node id="-31764" lat="60.4097666648" lon="10.8896055605">
		<tag k="name" v="Djupdalen" />
		<tag k="natural" v="valley" />
		<tag k="place" v="locality" />
		<tag k="ssr:stedsnr" v="406824" />
	</node>
	<node id="-32837" lat="60.4130055553" lon="11.0864722192">
		<tag k="name" v="Snøplogbakken" />
		<tag k="natural" v="slope" />
		<tag k="place" v="locality" />
		<tag k="ssr:stedsnr" v="952743" />
	</node>
	<node id="-32515" lat="60.5049583355" lon="11.0448111085">
		<tag k="fixme" v="consider natural=peak for the most distinct mountains in the district" />
		<tag k="name" v="Lomtjennshøgda" />
		<tag k="natural" v="hill" />
		<tag k="place" v="locality" />
		<tag k="ssr:stedsnr" v="527025" />
	</node>
	<node id="-32784" lat="60.4707722247" lon="10.8968444405">
		<tag k="name" v="Rødtjennsholen" />
		<tag k="natural" v="hill" />
		<tag k="place" v="locality" />
		<tag k="ssr:stedsnr" v="847883" />
	</node>
	<node id="-32189" lat="60.4757027786" lon="10.8365250088">
		<tag k="name" v="Svartungsholen" />
		<tag k="natural" v="hill" />
		<tag k="place" v="locality" />
		<tag k="ssr:stedsnr" v="57830" />
	</node>
	<node id="-32831" lat="60.4504916655" lon="10.9717694528">
		<tag k="name" v="Styggedalen" />
		<tag k="natural" v="valley" />
		<tag k="place" v="locality" />
		<tag k="ssr:stedsnr" v="952659" />
	</node>
	<node id="-31753" lat="60.4150138858" lon="10.9566527718">
		<tag k="name" v="Knaiseterlia" />
		<tag k="natural" v="slope" />
		<tag k="place" v="locality" />
		<tag k="ssr:stedsnr" v="406205" />
	</node>
	<node id="-32775" lat="60.3873833365" lon="11.1226333268">
		<tag k="name" v="Brodalsplass" />
		<tag k="place" v="locality" />
		<tag k="ssr:stedsnr" v="831910" />
	</node>
	<node id="-31592" lat="60.343188887" lon="11.0928861083">
		<tag k="name" v="Mastebakken" />
		<tag k="natural" v="slope" />
		<tag k="place" v="locality" />
		<tag k="ssr:stedsnr" v="282742" />
	</node>
	<node id="-32260" lat="60.4582638891" lon="10.866016667">
		<tag k="fixme" v="consider natural=peak for the most distinct mountains in the district" />
		<tag k="name" v="Horga" />
		<tag k="natural" v="hill" />
		<tag k="place" v="locality" />
		<tag k="ssr:stedsnr" v="118829" />
	</node>
	<node id="-32259" lat="60.4718027761" lon="10.9827222194">
		<tag k="name" v="Djupdalen" />
		<tag k="natural" v="valley" />
		<tag k="place" v="locality" />
		<tag k="ssr:stedsnr" v="118145" />
	</node>
	<node id="-32770" lat="60.4049222225" lon="10.9764000006">
		<tag k="name" v="Ellevekollen" />
		<tag k="natural" v="ridge" />
		<tag k="place" v="locality" />
		<tag k="ssr:stedsnr" v="831851" />
	</node>
	<node id="-32257" lat="60.4436000043" lon="10.9077305588">
		<tag k="name" v="Fjellsjølia" />
		<tag k="natural" v="slope" />
		<tag k="place" v="locality" />
		<tag k="ssr:stedsnr" v="117642" />
	</node>
</osm>
