<?xml version="1.0" encoding="UTF-8"?>
<<<<<<< HEAD
<osm version="0.6" generator="osmapis">
	<node lat="60.36081111432755" lon="11.103136114501769" id="-15023">
		<tag k="alt_name" v="Totjenn" />
		<tag k="name" v="Totjenna" />
		<tag k="natural" v="water" />
		<tag k="ssr:stedsnr" v="6072" />
		<tag k="water" v="lake" />
	</node>
	<node lat="60.38140278145698" lon="10.959841669767375" id="-15028">
		<tag k="name" v="Nordtjenn" />
		<tag k="natural" v="water" />
		<tag k="ssr:stedsnr" v="6593" />
	</node>
	<node lat="60.42855277728015" lon="10.878922220291884" id="-15038">
		<tag k="name" v="Skimyrbekken" />
		<tag k="ssr:stedsnr" v="41211" />
		<tag k="waterway" v="stream" />
	</node>
	<node lat="60.41843055783433" lon="11.12403888554606" id="-15045">
		<tag k="name" v="Hytteholmen" />
		<tag k="place" v="islet" />
		<tag k="ssr:stedsnr" v="237459" />
	</node>
	<node lat="60.39333610897087" lon="10.982994447145868" id="-15049">
		<tag k="name" v="Merratjenn" />
		<tag k="natural" v="water" />
		<tag k="ssr:stedsnr" v="42792" />
	</node>
	<node lat="60.449108333457005" lon="10.91323332898982" id="-15053">
		<tag k="name" v="Garnodden" />
		<tag k="natural" v="cape" />
		<tag k="ssr:stedsnr" v="239643" />
	</node>
	<node lat="60.417611110257056" lon="11.129252776268979" id="-15055">
		<tag k="name" v="Nordre Dælholen" />
		<tag k="natural" v="cape" />
		<tag k="ssr:stedsnr" v="55425" />
	</node>
	<node lat="60.47399721973167" lon="10.841666665924693" id="-15059">
		<tag k="name" v="Veslesvartungselva" />
		<tag k="ssr:stedsnr" v="239865" />
		<tag k="waterway" v="stream" />
	</node>
	<node lat="60.43650555491265" lon="10.867733327024157" id="-15062">
		<tag k="name" v="Brennodden" />
		<tag k="place" v="islet" />
		<tag k="ssr:stedsnr" v="59423" />
	</node>
	<node lat="60.379583330412316" lon="11.119347228464509" id="-15070">
		<tag k="alt_name" v="Krafttjenn" />
		<tag k="name" v="Krafttjennet" />
		<tag k="natural" v="water" />
		<tag k="ssr:stedsnr" v="67047" />
	</node>
	<node lat="60.48294999595044" lon="10.742030553746229" id="-15074">
		<tag k="name" v="Malsjøen" />
		<tag k="natural" v="water" />
		<tag k="ssr:stedsnr" v="67734" />
	</node>
	<node lat="60.448375001281846" lon="10.84541666431226" id="-15082">
		<tag k="alt_name" v="Svartungselva" />
		<tag k="name" v="Svartungelva" />
		<tag k="old_name" v="Svartungelven" />
		<tag k="ssr:stedsnr" v="248686" />
		<tag k="waterway" v="stream" />
	</node>
	<node lat="60.36922500072924" lon="11.103558326663586" id="-15091">
		<tag k="name" v="Svartputten" />
		<tag k="natural" v="water" />
		<tag k="ssr:stedsnr" v="249050" />
	</node>
	<node lat="60.46848055799555" lon="11.09609166570894" id="-15092">
		<tag k="alt_name" v="Høltjenn" />
		<tag k="name" v="Holtjennet" />
		<tag k="natural" v="water" />
		<tag k="ssr:stedsnr" v="249448" />
	</node>
	<node lat="60.43115555310678" lon="11.108877768917006" id="-15093">
		<tag k="alt_name" v="Bundlitjenn" />
		<tag k="name" v="Bundlitjennet" />
		<tag k="natural" v="water" />
		<tag k="ssr:stedsnr" v="249464" />
	</node>
	<node lat="60.43007721926743" lon="10.88449498912489" id="-15102">
		<tag k="name" v="Skrukkelisjøen" />
		<tag k="natural" v="water" />
		<tag k="ssr:stedsnr" v="249643" />
		<tag k="water" v="lake" />
	</node>
	<node lat="60.46702777801084" lon="10.966733326837572" id="-15107">
=======
<osm generator="osmapis" version="0.6">
	<node id="-268800" lat="60.451219443" lon="10.913174997">
		<tag k="name" v="Fjellsjøsanden" />
		<tag k="natural" v="beach" />
		<tag k="ssr:stedsnr" v="602649" />
	</node>
	<node id="-267775" lat="60.3951722252" lon="10.9604527741">
		<tag k="name" v="Hølseterbekken" />
		<tag k="ssr:stedsnr" v="163621" />
		<tag k="waterway" v="stream" />
	</node>
	<node id="-268458" lat="60.3812999963" lon="11.0506611078">
		<tag k="name" v="Haugnesgrunna" />
		<tag k="natural" v="shoal" />
		<tag k="place" v="locality" />
		<tag k="ssr:stedsnr" v="119586" />
	</node>
	<node id="-268793" lat="60.4145277744" lon="11.1321944385">
		<tag k="name" v="Søndre Dælholen" />
		<tag k="natural" v="cape" />
		<tag k="ssr:stedsnr" v="601443" />
	</node>
	<node id="-268276" lat="60.4719055524" lon="10.8991111068">
		<tag k="alt_name" v="Rødsteinstjennet" />
		<tag k="name" v="Rødsteintjenn" />
		<tag k="natural" v="water" />
		<tag k="ssr:stedsnr" v="856724" />
	</node>
	<node id="-268275" lat="60.471563888" lon="10.7454749957">
		<tag k="name" v="Svarttjenn" />
		<tag k="natural" v="water" />
		<tag k="ssr:stedsnr" v="856722" />
	</node>
	<node id="-268274" lat="60.4798888856" lon="11.0601027694">
		<tag k="name" v="Steinsjøelva" />
		<tag k="ssr:stedsnr" v="856719" />
		<tag k="waterway" v="river" />
	</node>
	<node id="-268785" lat="60.3502305523" lon="11.0722555553">
		<tag k="name" v="Skilledalsbekken" />
		<tag k="ssr:stedsnr" v="588558" />
		<tag k="waterway" v="stream" />
	</node>
	<node id="-268968" lat="60.3941611094" lon="11.075066673">
		<tag k="name" v="Nordvika" />
		<tag k="natural" v="bay" />
		<tag k="ssr:stedsnr" v="831866" />
	</node>
	<node id="-268269" lat="60.3711999969" lon="11.0959055481">
		<tag k="name" v="Kinna" />
		<tag k="natural" v="water" />
		<tag k="ssr:stedsnr" v="856053" />
	</node>
	<node id="-268777" lat="60.4458055578" lon="10.9884999946">
		<tag k="name" v="Skjortungsbekken" />
		<tag k="ssr:stedsnr" v="587143" />
		<tag k="waterway" v="stream" />
	</node>
	<node id="-268264" lat="60.4729499958" lon="10.8536888856">
		<tag k="name" v="Evjene" />
		<tag k="natural" v="water" />
		<tag k="ssr:stedsnr" v="847839" />
		<tag k="water" v="lake" />
	</node>
	<node id="-268775" lat="60.4824055553" lon="11.0160194356">
		<tag k="name" v="Erikstelletbekken" />
		<tag k="ssr:stedsnr" v="587008" />
		<tag k="waterway" v="stream" />
	</node>
	<node id="-268260" lat="60.4827750012" lon="10.8173277695">
		<tag k="alt_name" v="Svartungen, store" />
		<tag k="name" v="Store Svartungen" />
		<tag k="natural" v="water" />
		<tag k="ssr:stedsnr" v="795757" />
		<tag k="water" v="lake" />
	</node>
	<node id="-268349" lat="60.3475000026" lon="11.0877777722">
		<tag k="name" v="Langtonbekken" />
		<tag k="ssr:stedsnr" v="40789" />
		<tag k="waterway" v="stream" />
	</node>
	<node id="-267745" lat="60.4778777754" lon="10.769266674">
		<tag k="name" v="Glasbergtjenn" />
		<tag k="natural" v="water" />
		<tag k="ssr:stedsnr" v="249715" />
	</node>
	<node id="-267742" lat="60.4656750036" lon="10.9835666742">
		<tag k="name" v="Rundtjenn" />
		<tag k="natural" v="water" />
		<tag k="ssr:stedsnr" v="249672" />
	</node>
	<node id="-267741" lat="60.467027778" lon="10.9667333268">
>>>>>>> e1d4bc35ff8a6074a6f2e91616a996b547c36f15
		<tag k="name" v="Daltjenn" />
		<tag k="natural" v="water" />
		<tag k="ssr:stedsnr" v="249669" />
	</node>
<<<<<<< HEAD
	<node lat="60.46567500361022" lon="10.983566674209566" id="-15108">
		<tag k="name" v="Rundtjenn" />
		<tag k="natural" v="water" />
		<tag k="ssr:stedsnr" v="249672" />
	</node>
	<node lat="60.47787777542841" lon="10.769266674032334" id="-15110">
		<tag k="name" v="Glasbergtjenn" />
		<tag k="natural" v="water" />
		<tag k="ssr:stedsnr" v="249715" />
	</node>
	<node lat="60.43354453465117" lon="10.675675081051267" id="-15120">
		<tag k="alt_name" v="Lustjenn" />
		<tag k="name" v="Lustjenna" />
		<tag k="natural" v="water" />
		<tag k="ssr:stedsnr" v="127149" />
	</node>
	<node lat="60.427752775836545" lon="11.130825004565482" id="-15121">
		<tag k="name" v="Tisjøen" />
		<tag k="natural" v="water" />
		<tag k="ssr:stedsnr" v="127494" />
		<tag k="water" v="lake" />
	</node>
	<node lat="60.472463886720895" lon="10.721708329989367" id="-15129">
		<tag k="alt_name" v="Hagetjenn" />
		<tag k="name" v="Haketjenn" />
		<tag k="natural" v="water" />
		<tag k="ssr:stedsnr" v="127742" />
	</node>
	<node lat="60.486522223046286" lon="10.950566675390881" id="-15133">
		<tag k="name" v="Fløyta" />
		<tag k="natural" v="water" />
		<tag k="ssr:stedsnr" v="163011" />
		<tag k="water" v="lake" />
	</node>
	<node lat="60.506461110071164" lon="11.065033324224627" id="-15134">
		<tag k="name" v="Fløytputten" />
		<tag k="natural" v="water" />
		<tag k="ssr:stedsnr" v="163102" />
	</node>
	<node lat="60.39517222518256" lon="10.960452774060906" id="-15145">
		<tag k="name" v="Hølseterbekken" />
		<tag k="ssr:stedsnr" v="163621" />
		<tag k="waterway" v="stream" />
	</node>
	<node lat="60.37314999870911" lon="11.050311119774522" id="-15157">
		<tag k="name" v="Kjøttvika" />
		<tag k="natural" v="bay" />
		<tag k="ssr:stedsnr" v="188605" />
	</node>
	<node lat="60.37839999917348" lon="10.95513056279439" id="-15158">
		<tag k="name" v="Guttputten" />
		<tag k="natural" v="water" />
		<tag k="ssr:stedsnr" v="188610" />
	</node>
	<node lat="60.45166944612118" lon="11.1020277764317" id="-15161">
		<tag k="name" v="Vestre Morttjenn" />
		<tag k="natural" v="water" />
		<tag k="ssr:stedsnr" v="188503" />
	</node>
	<node lat="60.36312777748831" lon="11.049030547193482" id="-15164">
		<tag k="name" v="Skysskafferodden" />
		<tag k="natural" v="cape" />
		<tag k="ssr:stedsnr" v="188586" />
	</node>
	<node lat="60.38061110724765" lon="10.915472226646271" id="-15180">
		<tag k="name" v="Stormyrbekken" />
		<tag k="ssr:stedsnr" v="224704" />
		<tag k="waterway" v="stream" />
	</node>
	<node lat="60.39147221963258" lon="11.090213895295015" id="-15184">
		<tag k="name" v="Ormtjenn" />
		<tag k="natural" v="water" />
		<tag k="ssr:stedsnr" v="224912" />
	</node>
	<node lat="60.44284444252371" lon="10.867241668516797" id="-15191">
		<tag k="name" v="Brustuelva" />
		<tag k="ssr:stedsnr" v="241397" />
		<tag k="waterway" v="river" />
	</node>
	<node lat="60.38108611493277" lon="11.037202770967674" id="-15193">
		<tag k="name" v="Myrodden" />
		<tag k="natural" v="cape" />
		<tag k="ssr:stedsnr" v="241538" />
	</node>
	<node lat="60.4292888926396" lon="10.865611105504904" id="-15198">
		<tag k="name" v="Edelgranbekken" />
		<tag k="ssr:stedsnr" v="284224" />
		<tag k="waterway" v="stream" />
	</node>
	<node lat="60.42955833363281" lon="10.856650006209073" id="-15200">
		<tag k="name" v="Skjeggerudbekken" />
		<tag k="ssr:stedsnr" v="284177" />
		<tag k="waterway" v="stream" />
	</node>
	<node lat="60.4972111155441" lon="10.99297776919105" id="-15205">
		<tag k="name" v="Tjennsputten" />
		<tag k="natural" v="water" />
		<tag k="ssr:stedsnr" v="285014" />
	</node>
	<node lat="60.51131111360395" lon="11.045322226171429" id="-15206">
		<tag k="name" v="Lomtjennet" />
		<tag k="natural" v="water" />
		<tag k="ssr:stedsnr" v="285127" />
	</node>
	<node lat="60.37327778047755" lon="10.964469448629606" id="-15208">
		<tag k="name" v="Rauørbekken" />
		<tag k="ssr:stedsnr" v="285712" />
		<tag k="waterway" v="stream" />
	</node>
	<node lat="60.48254444154969" lon="10.952658341410908" id="-15223">
		<tag k="name" v="Daltjernsbekken" />
		<tag k="ssr:stedsnr" v="510134" />
		<tag k="waterway" v="stream" />
	</node>
	<node lat="60.47673333055846" lon="10.944355550183154" id="-15237">
		<tag k="name" v="Skillebekken" />
		<tag k="ssr:stedsnr" v="310706" />
		<tag k="waterway" v="stream" />
	</node>
	<node lat="60.476469441844614" lon="10.808711118950306" id="-15239">
		<tag k="name" v="Oksetjenn" />
		<tag k="natural" v="water" />
		<tag k="ssr:stedsnr" v="310733" />
	</node>
	<node lat="60.4809277744038" lon="10.765411113263232" id="-15247">
		<tag k="name" v="Glasbergputten" />
		<tag k="natural" v="water" />
		<tag k="ssr:stedsnr" v="466252" />
	</node>
	<node lat="60.37669444119304" lon="10.960538886111127" id="-15251">
		<tag k="name" v="Rauørputten" />
		<tag k="natural" v="water" />
		<tag k="ssr:stedsnr" v="467748" />
	</node>
	<node lat="60.412205556759986" lon="10.869408330777516" id="-15255">
		<tag k="name" v="Sovarhaugbekken" />
		<tag k="ssr:stedsnr" v="467834" />
		<tag k="waterway" v="stream" />
	</node>
	<node lat="60.39671110837923" lon="10.902661114668216" id="-15257">
		<tag k="name" v="Toputten" />
		<tag k="natural" v="water" />
		<tag k="ssr:stedsnr" v="467852" />
		<tag k="water" v="pond" />
	</node>
	<node lat="60.39918055827844" lon="10.910119439635155" id="-15258">
		<tag k="name" v="Svarttjennsbekken" />
		<tag k="ssr:stedsnr" v="467853" />
		<tag k="waterway" v="stream" />
	</node>
	<node lat="60.3559805594859" lon="10.926916666354723" id="-15261">
		<tag k="name" v="Bjørkevika" />
		<tag k="natural" v="bay" />
		<tag k="ssr:stedsnr" v="343792" />
	</node>
	<node lat="60.41948055650388" lon="10.957011104650283" id="-15263">
		<tag k="name" v="Fløyta" />
		<tag k="natural" v="water" />
		<tag k="ssr:stedsnr" v="345207" />
		<tag k="water" v="lake" />
	</node>
	<node lat="60.42570832924192" lon="10.797497227571553" id="-15264">
		<tag k="name" v="Fuglåsputten" />
		<tag k="natural" v="water" />
		<tag k="ssr:stedsnr" v="345216" />
		<tag k="water" v="pond" />
	</node>
	<node lat="60.41806110895344" lon="10.93681944200883" id="-15266">
		<tag k="name" v="Skrukkelidammen" />
		<tag k="ssr:stedsnr" v="345181" />
		<tag k="waterway" v="dam" />
	</node>
	<node lat="60.346149997122644" lon="11.106105553120374" id="-15282">
		<tag k="name" v="Skillebekken" />
		<tag k="old_name" v="Snøplogbekken" />
		<tag k="ssr:stedsnr" v="479083" />
		<tag k="waterway" v="stream" />
	</node>
	<node lat="60.35760676386682" lon="11.086286116988386" id="-15284">
		<tag k="alt_name" v="Rakkertjennet" />
		<tag k="name" v="Rakkertjenn" />
		<tag k="natural" v="water" />
		<tag k="ssr:stedsnr" v="370561" />
		<tag k="water" v="lake" />
	</node>
	<node lat="60.47133888649264" lon="10.869933324500751" id="-15287">
		<tag k="name" v="Vesle Damtjenn" />
		<tag k="natural" v="water" />
		<tag k="ssr:stedsnr" v="370724" />
	</node>
	<node lat="60.449886107376074" lon="10.928388884392998" id="-15295">
		<tag k="name" v="Hagavika" />
		<tag k="natural" v="bay" />
		<tag k="ssr:stedsnr" v="481646" />
	</node>
	<node lat="60.45559999723738" lon="10.905813894549443" id="-15296">
		<tag k="name" v="Fjellhammerbekken" />
		<tag k="ssr:stedsnr" v="481648" />
		<tag k="waterway" v="stream" />
	</node>
	<node lat="60.460522226166276" lon="10.96395555666364" id="-15303">
		<tag k="name" v="Lisputten" />
		<tag k="natural" v="water" />
		<tag k="ssr:stedsnr" v="482863" />
	</node>
	<node lat="60.44560832999268" lon="10.820099994123233" id="-15306">
		<tag k="name" v="Liseterkulpen" />
		<tag k="place" v="locality" />
		<tag k="ssr:stedsnr" v="484388" />
	</node>
	<node lat="60.47260832956653" lon="10.943252785119924" id="-15307">
		<tag k="name" v="Hellebekken" />
		<tag k="ssr:stedsnr" v="404113" />
		<tag k="waterway" v="stream" />
	</node>
	<node lat="60.47927222649302" lon="10.824352783302345" id="-15311">
		<tag k="name" v="Korpehaugodden" />
		<tag k="natural" v="cape" />
		<tag k="ssr:stedsnr" v="406047" />
	</node>
	<node lat="60.439466666910356" lon="10.802783331586381" id="-15314">
		<tag k="name" v="Østre Mysmerbekken" />
		<tag k="ssr:stedsnr" v="406211" />
		<tag k="waterway" v="stream" />
	</node>
	<node lat="60.474283337297464" lon="10.879747215182487" id="-15321">
		<tag k="name" v="Sandfallbekken" />
		<tag k="ssr:stedsnr" v="422840" />
		<tag k="waterway" v="stream" />
	</node>
	<node lat="60.473947218704886" lon="10.730683329034527" id="-15331">
		<tag k="name" v="Damtjenn" />
		<tag k="natural" v="water" />
		<tag k="ssr:stedsnr" v="431731" />
	</node>
	<node lat="60.47101666727057" lon="10.86032777540697" id="-15332">
		<tag k="name" v="Bjørtjenn" />
		<tag k="natural" v="water" />
		<tag k="ssr:stedsnr" v="431737" />
	</node>
	<node lat="60.4410000017239" lon="10.945891664251503" id="-15339">
		<tag k="name" v="Fjellsjøelva" />
		<tag k="ssr:stedsnr" v="491658" />
		<tag k="waterway" v="stream" />
	</node>
	<node lat="60.39124999912446" lon="10.979527772805232" id="-15354">
		<tag k="alt_name" v="Geitryggtjennet" />
		<tag k="name" v="Geitryggtjenn" />
		<tag k="natural" v="water" />
		<tag k="ssr:stedsnr" v="673585" />
	</node>
	<node lat="60.48565833687564" lon="10.970716661785739" id="-15359">
		<tag k="name" v="Høverelva" />
		<tag k="ssr:stedsnr" v="673692" />
		<tag k="waterway" v="river" />
	</node>
	<node lat="60.36046666955016" lon="10.929105554606751" id="-15363">
		<tag k="name" v="Andtjennsvika" />
		<tag k="natural" v="bay" />
		<tag k="ssr:stedsnr" v="674531" />
	</node>
	<node lat="60.49124999948981" lon="10.96801667173604" id="-15367">
		<tag k="name" v="Bonkerudbekken" />
		<tag k="ssr:stedsnr" v="466023" />
		<tag k="waterway" v="stream" />
	</node>
	<node lat="60.35968611225677" lon="10.971919448234324" id="-15374">
		<tag k="name" v="Fløyta" />
		<tag k="natural" v="water" />
		<tag k="ssr:stedsnr" v="467524" />
		<tag k="water" v="lake" />
	</node>
	<node lat="60.37590277612095" lon="10.918063887763834" id="-15376">
		<tag k="name" v="Smørvikbekken" />
		<tag k="ssr:stedsnr" v="467722" />
		<tag k="waterway" v="stream" />
	</node>
	<node lat="60.384569442369774" lon="11.111072213518794" id="-15379">
		<tag k="name" v="Sølvputten" />
		<tag k="natural" v="water" />
		<tag k="ssr:stedsnr" v="467916" />
	</node>
	<node lat="60.47836110734045" lon="10.833272216752405" id="-15381">
		<tag k="name" v="Skurvevika" />
		<tag k="natural" v="bay" />
		<tag k="ssr:stedsnr" v="480917" />
	</node>
	<node lat="60.49155277383505" lon="10.692838896988402" id="-15388">
		<tag k="name" v="Lomtjenn" />
		<tag k="natural" v="water" />
		<tag k="ssr:stedsnr" v="491329" />
	</node>
	<node lat="60.379661108016286" lon="11.03691388748943" id="-15390">
		<tag k="name" v="Skriverholmen" />
		<tag k="place" v="islet" />
		<tag k="ssr:stedsnr" v="491583" />
	</node>
	<node lat="60.44340832951453" lon="10.849405550202682" id="-15399">
		<tag k="name" v="Skandøla" />
		<tag k="ssr:stedsnr" v="491672" />
		<tag k="waterway" v="river" />
	</node>
	<node lat="60.465974996280245" lon="10.921411114474612" id="-15403">
		<tag k="name" v="Abbortjenn" />
		<tag k="natural" v="water" />
		<tag k="ssr:stedsnr" v="492668" />
	</node>
	<node lat="60.43138333640389" lon="10.87752222247762" id="-15413">
		<tag k="name" v="Furuodden" />
		<tag k="natural" v="cape" />
		<tag k="ssr:stedsnr" v="527227" />
	</node>
	<node lat="60.48119444512623" lon="10.701463879863361" id="-15414">
		<tag k="name" v="Syslemyrbekken" />
		<tag k="ssr:stedsnr" v="527228" />
		<tag k="waterway" v="stream" />
	</node>
	<node lat="60.402836111306094" lon="11.07750555375617" id="-15417">
		<tag k="name" v="Hammervika" />
		<tag k="natural" v="bay" />
		<tag k="ssr:stedsnr" v="527775" />
	</node>
	<node lat="60.47352499739551" lon="11.060991666869791" id="-15422">
		<tag k="name" v="Røbekkauren" />
		<tag k="place" v="locality" />
		<tag k="ssr:stedsnr" v="543217" />
	</node>
	<node lat="60.39572499976703" lon="10.990924999961717" id="-15432">
		<tag k="alt_name" v="Djupdalsbekken" />
		<tag k="name" v="Djupedalsbekken" />
		<tag k="ssr:stedsnr" v="552630" />
		<tag k="waterway" v="stream" />
	</node>
	<node lat="60.443850000170656" lon="11.10125000626208" id="-15434">
		<tag k="name" v="Damtjenn" />
		<tag k="natural" v="water" />
		<tag k="ssr:stedsnr" v="552532" />
	</node>
	<node lat="60.48240555531295" lon="11.016019435618231" id="-15439">
		<tag k="name" v="Erikstelletbekken" />
		<tag k="ssr:stedsnr" v="587008" />
		<tag k="waterway" v="stream" />
	</node>
	<node lat="60.511783329031005" lon="11.069980560642179" id="-15447">
		<tag k="name" v="Vintervika" />
		<tag k="natural" v="bay" />
		<tag k="ssr:stedsnr" v="588128" />
	</node>
	<node lat="60.350230552280976" lon="11.072255555328283" id="-15448">
		<tag k="name" v="Skilledalsbekken" />
		<tag k="ssr:stedsnr" v="588558" />
		<tag k="waterway" v="stream" />
	</node>
	<node lat="60.45121944295275" lon="10.913174996957055" id="-15451">
		<tag k="name" v="Fjellsjøsanden" />
		<tag k="natural" v="beach" />
		<tag k="ssr:stedsnr" v="602649" />
	</node>
	<node lat="60.437963890739276" lon="11.006613891954764" id="-15453">
		<tag k="name" v="Hundputten" />
		<tag k="natural" v="water" />
		<tag k="ssr:stedsnr" v="602657" />
	</node>
	<node lat="60.39004999955088" lon="11.114247215174732" id="-15457">
=======
	<node id="-267738" lat="60.4300772193" lon="10.8844949891">
		<tag k="name" v="Skrukkelisjøen" />
		<tag k="natural" v="water" />
		<tag k="ssr:stedsnr" v="249643" />
		<tag k="water" v="lake" />
	</node>
	<node id="-268759" lat="60.4344944484" lon="10.9547888833">
		<tag k="name" v="Fåtjenn" />
		<tag k="natural" v="water" />
		<tag k="ssr:stedsnr" v="552696" />
	</node>
	<node id="-268245" lat="60.4159305594" lon="10.9517138956">
		<tag k="name" v="Matbekken" />
		<tag k="ssr:stedsnr" v="916636" />
		<tag k="waterway" v="stream" />
	</node>
	<node id="-268754" lat="60.4438500002" lon="11.1012500063">
		<tag k="name" v="Damtjenn" />
		<tag k="natural" v="water" />
		<tag k="ssr:stedsnr" v="552532" />
	</node>
	<node id="-268241" lat="60.4117388888" lon="11.1138583354">
		<tag k="name" v="Gjelmyrputten" />
		<tag k="natural" v="water" />
		<tag k="ssr:stedsnr" v="916494" />
	</node>
	<node id="-267728" lat="60.4311555531" lon="11.1088777689">
		<tag k="alt_name" v="Bundlitjenn" />
		<tag k="name" v="Bundlitjennet" />
		<tag k="natural" v="water" />
		<tag k="ssr:stedsnr" v="249464" />
	</node>
	<node id="-267727" lat="60.468480558" lon="11.0960916657">
		<tag k="alt_name" v="Høltjenn" />
		<tag k="name" v="Holtjennet" />
		<tag k="natural" v="water" />
		<tag k="ssr:stedsnr" v="249448" />
	</node>
	<node id="-267726" lat="60.3692250007" lon="11.1035583267">
		<tag k="name" v="Svartputten" />
		<tag k="natural" v="water" />
		<tag k="ssr:stedsnr" v="249050" />
	</node>
	<node id="-268237" lat="60.4501500019" lon="10.9516194485">
		<tag k="name" v="Inngjerdingsbekken" />
		<tag k="ssr:stedsnr" v="770659" />
		<tag k="waterway" v="stream" />
	</node>
	<node id="-267724" lat="60.4483750013" lon="10.8454166643">
		<tag k="alt_name" v="Svartungselva" />
		<tag k="name" v="Svartungelva" />
		<tag k="old_name" v="Svartungelven" />
		<tag k="ssr:stedsnr" v="248686" />
		<tag k="waterway" v="stream" />
	</node>
	<node id="-267938" lat="60.4316666628" lon="11.0970083284">
		<tag k="name" v="Grovstjennbekken" />
		<tag k="ssr:stedsnr" v="362474" />
		<tag k="waterway" v="stream" />
	</node>
	<node id="-267722" lat="60.3544416635" lon="11.0625888837">
		<tag k="name" v="Bogvika" />
		<tag k="natural" v="bay" />
		<tag k="ssr:stedsnr" v="67551" />
	</node>
	<node id="-268023" lat="60.4856583369" lon="10.9707166618">
		<tag k="name" v="Høverelva" />
		<tag k="ssr:stedsnr" v="673692" />
		<tag k="waterway" v="river" />
	</node>
	<node id="-267720" lat="60.3810861149" lon="11.037202771">
		<tag k="name" v="Myrodden" />
		<tag k="natural" v="cape" />
		<tag k="ssr:stedsnr" v="241538" />
	</node>
	<node id="-268620" lat="60.4309111096" lon="11.0356138939">
		<tag k="alt_name" v="Buråstjennet" />
		<tag k="name" v="Buråstjenn" />
		<tag k="natural" v="water" />
		<tag k="ssr:stedsnr" v="370641" />
	</node>
	<node id="-268741" lat="60.4269638929" lon="11.1274111174">
		<tag k="name" v="Kuvika" />
		<tag k="natural" v="bay" />
		<tag k="ssr:stedsnr" v="544460" />
	</node>
	<node id="-269047" lat="60.4483277761" lon="10.927458337">
		<tag k="name" v="Hagaodden" />
		<tag k="natural" v="cape" />
		<tag k="ssr:stedsnr" v="967599" />
	</node>
	<node id="-267715" lat="60.4428444425" lon="10.8672416685">
		<tag k="name" v="Brustuelva" />
		<tag k="ssr:stedsnr" v="241397" />
		<tag k="waterway" v="river" />
	</node>
	<node id="-267713" lat="60.4739972197" lon="10.8416666659">
		<tag k="name" v="Veslesvartungselva" />
		<tag k="ssr:stedsnr" v="239865" />
		<tag k="waterway" v="stream" />
	</node>
	<node id="-268224" lat="60.4620694439" lon="10.7694805645">
		<tag k="name" v="Sjakersputten" />
		<tag k="natural" v="water" />
		<tag k="ssr:stedsnr" v="905931" />
		<tag k="water" v="pond" />
	</node>
	<node id="-268735" lat="60.4438722227" lon="11.0861083285">
		<tag k="name" v="Damtjennsbekken" />
		<tag k="ssr:stedsnr" v="540887" />
		<tag k="waterway" v="stream" />
	</node>
	<node id="-267709" lat="60.4491083335" lon="10.913233329">
		<tag k="name" v="Garnodden" />
		<tag k="natural" v="cape" />
		<tag k="ssr:stedsnr" v="239643" />
	</node>
	<node id="-268220" lat="60.4812000011" lon="11.0867944506">
		<tag k="name" v="Røtjenn" />
		<tag k="natural" v="water" />
		<tag k="ssr:stedsnr" v="734737" />
	</node>
	<node id="-268618" lat="60.3576067639" lon="11.086286117">
		<tag k="alt_name" v="Rakkertjennet" />
		<tag k="name" v="Rakkertjenn" />
		<tag k="natural" v="water" />
		<tag k="ssr:stedsnr" v="370561" />
		<tag k="water" v="lake" />
	</node>
	<node id="-268217" lat="60.4668111091" lon="10.7680999984">
		<tag k="alt_name" v="Ostetjenn" />
		<tag k="name" v="Osttjenn" />
		<tag k="natural" v="water" />
		<tag k="ssr:stedsnr" v="734712" />
	</node>
	<node id="-268726" lat="60.4111583338" lon="10.8991111145">
		<tag k="name" v="Knuthølbekken" />
		<tag k="ssr:stedsnr" v="527836" />
		<tag k="waterway" v="stream" />
	</node>
	<node id="-268873" lat="60.3664194477" lon="10.9865972202">
		<tag k="name" v="Bakkeputten" />
		<tag k="natural" v="water" />
		<tag k="ssr:stedsnr" v="770539" />
	</node>
	<node id="-268724" lat="60.4028361113" lon="11.0775055538">
		<tag k="name" v="Hammervika" />
		<tag k="natural" v="bay" />
		<tag k="ssr:stedsnr" v="527775" />
	</node>
	<node id="-267678" lat="60.4199722211" lon="10.9182972272">
		<tag k="name" v="Kuholmen" />
		<tag k="natural" v="cape" />
		<tag k="ssr:stedsnr" v="224190" />
	</node>
	<node id="-267697" lat="60.3914722196" lon="11.0902138953">
		<tag k="name" v="Ormtjenn" />
		<tag k="natural" v="water" />
		<tag k="ssr:stedsnr" v="224912" />
	</node>
	<node id="-268720" lat="60.4422027736" lon="10.7096750075">
		<tag k="name" v="Lustjennsbekken" />
		<tag k="ssr:stedsnr" v="527763" />
		<tag k="waterway" v="stream" />
	</node>
	<node id="-268718" lat="60.362166666" lon="11.0024583411">
		<tag k="name" v="Nordgardsbekken" />
		<tag k="ssr:stedsnr" v="527538" />
		<tag k="waterway" v="stream" />
	</node>
	<node id="-268205" lat="60.4020583317" lon="11.0761499968">
		<tag k="name" v="Gråhammeren" />
		<tag k="natural" v="cape" />
		<tag k="ssr:stedsnr" v="892752" />
	</node>
	<node id="-267692" lat="60.4093416637" lon="11.085930558">
		<tag k="name" v="Sør-Bundlivika" />
		<tag k="natural" v="bay" />
		<tag k="ssr:stedsnr" v="224755" />
	</node>
	<node id="-268714" lat="60.5128666635" lon="11.0580972188">
		<tag k="name" v="Lomtjennbekken" />
		<tag k="ssr:stedsnr" v="527124" />
		<tag k="waterway" v="stream" />
	</node>
	<node id="-267687" lat="60.3806111072" lon="10.9154722266">
		<tag k="name" v="Stormyrbekken" />
		<tag k="ssr:stedsnr" v="224704" />
		<tag k="waterway" v="stream" />
	</node>
	<node id="-268195" lat="60.5160611106" lon="11.06688334">
		<tag k="name" v="Bukkeholmene" />
		<tag k="place" v="islet" />
		<tag k="ssr:stedsnr" v="892128" />
	</node>
	<node id="-268704" lat="60.3366638903" lon="11.1011638955">
		<tag k="name" v="Langtonsand" />
		<tag k="natural" v="beach" />
		<tag k="ssr:stedsnr" v="525745" />
	</node>
	<node id="-268190" lat="60.4218722185" lon="10.8870749935">
		<tag k="name" v="Djupdalsbekken" />
		<tag k="ssr:stedsnr" v="891258" />
		<tag k="waterway" v="stream" />
	</node>
	<node id="-267677" lat="60.433333333" lon="10.9604805467">
		<tag k="name" v="Vesletjenn" />
		<tag k="natural" v="water" />
		<tag k="ssr:stedsnr" v="224176" />
	</node>
	<node id="-268187" lat="60.4802055547" lon="10.8191638912">
		<tag k="name" v="Storvika" />
		<tag k="natural" v="bay" />
		<tag k="ssr:stedsnr" v="891053" />
	</node>
	<node id="-268698" lat="60.4710166673" lon="10.8603277754">
		<tag k="name" v="Bjørtjenn" />
		<tag k="natural" v="water" />
		<tag k="ssr:stedsnr" v="431737" />
	</node>
	<node id="-268697" lat="60.4739472187" lon="10.730683329">
		<tag k="name" v="Damtjenn" />
		<tag k="natural" v="water" />
		<tag k="ssr:stedsnr" v="431731" />
	</node>
	<node id="-267952" lat="60.3875083358" lon="10.9427361074">
		<tag k="name" v="Våterudsdalsputten" />
		<tag k="natural" v="water" />
		<tag k="ssr:stedsnr" v="406752" />
	</node>
	<node id="-268174" lat="60.4363388873" lon="11.0991833273">
		<tag k="name" v="Grovstjenn" />
		<tag k="natural" v="water" />
		<tag k="ssr:stedsnr" v="674457" />
	</node>
	<node id="-268173" lat="60.3604666696" lon="10.9291055546">
		<tag k="name" v="Andtjennsvika" />
		<tag k="natural" v="bay" />
		<tag k="ssr:stedsnr" v="674531" />
	</node>
	<node id="-268679" lat="60.4504083288" lon="10.8091888964">
		<tag k="name" v="Sibilrudbekken" />
		<tag k="ssr:stedsnr" v="423469" />
		<tag k="waterway" v="stream" />
	</node>
	<node id="-268166" lat="60.465441666" lon="11.0008888885">
		<tag k="name" v="Blåbærdalsbekken" />
		<tag k="ssr:stedsnr" v="664872" />
		<tag k="waterway" v="stream" />
	</node>
	<node id="-268609" lat="60.4746944488" lon="10.7654750073">
		<tag k="name" v="Bergeputten" />
		<tag k="natural" v="water" />
		<tag k="ssr:stedsnr" v="358888" />
		<tag k="water" v="pond" />
	</node>
	<node id="-268670" lat="60.4480444477" lon="10.9097722136">
		<tag k="name" v="Fjellsjøputten" />
		<tag k="natural" v="water" />
		<tag k="ssr:stedsnr" v="421637" />
	</node>
	<node id="-268155" lat="60.4182305569" lon="10.9461472208">
		<tag k="alt_name" v="Gjødingselva" />
		<tag k="name" v="Gjødingelva" />
		<tag k="ssr:stedsnr" v="734649" />
		<tag k="waterway" v="river" />
	</node>
	<node id="-268158" lat="60.3756888893" lon="11.0748888823">
		<tag k="name" v="Lortbrudalsbekken" />
		<tag k="ssr:stedsnr" v="648931" />
		<tag k="waterway" v="stream" />
	</node>
	<node id="-268153" lat="60.4021916646" lon="10.8960833321">
		<tag k="name" v="Svarttjenn" />
		<tag k="natural" v="water" />
		<tag k="ssr:stedsnr" v="734629" />
	</node>
	<node id="-268149" lat="60.3994944468" lon="11.0514249987">
		<tag k="name" v="Flavika" />
		<tag k="natural" v="bay" />
		<tag k="ssr:stedsnr" v="648884" />
	</node>
	<node id="-268659" lat="60.3878972253" lon="10.9315083412">
		<tag k="name" v="Kjerringrisputten" />
		<tag k="natural" v="water" />
		<tag k="ssr:stedsnr" v="406749" />
	</node>
	<node id="-268142" lat="60.5019027772" lon="11.0654888875">
		<tag k="name" v="Veslefløyta" />
		<tag k="natural" v="water" />
		<tag k="ssr:stedsnr" v="648121" />
		<tag k="water" v="lake" />
	</node>
	<node id="-268141" lat="60.5052361113" lon="11.0641888814">
		<tag k="name" v="Storfløyta" />
		<tag k="natural" v="water" />
		<tag k="ssr:stedsnr" v="648120" />
		<tag k="water" v="lake" />
	</node>
	<node id="-268650" lat="60.4187361133" lon="10.9036749963">
		<tag k="name" v="Knuthølbekken" />
		<tag k="ssr:stedsnr" v="406185" />
		<tag k="waterway" v="stream" />
	</node>
	<node id="-268137" lat="60.4494638894" lon="10.7091638911">
		<tag k="name" v="Fallbekken" />
		<tag k="ssr:stedsnr" v="734249" />
		<tag k="waterway" v="stream" />
	</node>
	<node id="-268135" lat="60.3682388927" lon="10.9226916682">
		<tag k="name" v="Liaodden" />
		<tag k="natural" v="cape" />
		<tag k="ssr:stedsnr" v="646727" />
	</node>
	<node id="-268645" lat="60.5161888854" lon="11.0708611089">
		<tag k="name" v="Fartangen" />
		<tag k="natural" v="cape" />
		<tag k="ssr:stedsnr" v="406128" />
	</node>
	<node id="-268644" lat="60.4792722265" lon="10.8243527833">
		<tag k="name" v="Korpehaugodden" />
		<tag k="natural" v="cape" />
		<tag k="ssr:stedsnr" v="406047" />
	</node>
	<node id="-268641" lat="60.3658777791" lon="10.9251249915">
		<tag k="name" v="Øyangsvasan" />
		<tag k="place" v="islet" />
		<tag k="ssr:stedsnr" v="404734" />
	</node>
	<node id="-268638" lat="60.4726083296" lon="10.9432527851">
		<tag k="name" v="Hellebekken" />
		<tag k="ssr:stedsnr" v="404113" />
		<tag k="waterway" v="stream" />
	</node>
	<node id="-268637" lat="60.3480361093" lon="11.0403250073">
		<tag k="name" v="Hurdalssjøen" />
		<tag k="natural" v="water" />
		<tag k="ssr:stedsnr" v="384430" />
		<tag k="water" v="lake" />
	</node>
	<node id="-268635" lat="60.4087027746" lon="11.0612638973">
		<tag k="name" v="Meieriodden" />
		<tag k="natural" v="cape" />
		<tag k="ssr:stedsnr" v="383946" />
	</node>
	<node id="-268120" lat="60.4635444438" lon="10.8239972135">
		<tag k="name" v="Kalvetjennet" />
		<tag k="natural" v="water" />
		<tag k="ssr:stedsnr" v="723876" />
	</node>
	<node id="-268631" lat="60.4759000021" lon="10.845149994">
		<tag k="name" v="Vesle Svartungen" />
		<tag k="natural" v="water" />
		<tag k="ssr:stedsnr" v="370747" />
	</node>
	<node id="-268118" lat="60.4385416635" lon="11.1227722181">
		<tag k="name" v="Kaffehella" />
		<tag k="natural" v="cape" />
		<tag k="ssr:stedsnr" v="722902" />
	</node>
	<node id="-268242" lat="60.4169388879" lon="11.1246249982">
		<tag k="name" v="Vålsjøen" />
		<tag k="natural" v="water" />
		<tag k="ssr:stedsnr" v="916496" />
		<tag k="water" v="lake" />
	</node>
	<node id="-268112" lat="60.3825750031" lon="10.9433000091">
		<tag k="name" v="Våterudsbekken" />
		<tag k="ssr:stedsnr" v="612589" />
		<tag k="waterway" v="stream" />
	</node>
	<node id="-268111" lat="60.3819305593" lon="10.9545416617">
		<tag k="name" v="Vesttjenn" />
		<tag k="natural" v="water" />
		<tag k="ssr:stedsnr" v="612584" />
	</node>
	<node id="-268108" lat="60.3673966881" lon="10.932909061">
		<tag k="name" v="Kverntjenn" />
		<tag k="natural" v="water" />
		<tag k="ssr:stedsnr" v="612566" />
	</node>
	<node id="-268107" lat="60.3900499996" lon="11.1142472152">
>>>>>>> e1d4bc35ff8a6074a6f2e91616a996b547c36f15
		<tag k="name" v="Styggdalsbekken" />
		<tag k="ssr:stedsnr" v="612022" />
		<tag k="waterway" v="stream" />
	</node>
<<<<<<< HEAD
	<node lat="60.465772223951724" lon="10.866758327591493" id="-15461">
		<tag k="name" v="Damtjenn" />
		<tag k="natural" v="water" />
		<tag k="ssr:stedsnr" v="612683" />
	</node>
	<node lat="60.3682388926584" lon="10.922691668218581" id="-15467">
		<tag k="name" v="Liaodden" />
		<tag k="natural" v="cape" />
		<tag k="ssr:stedsnr" v="646727" />
	</node>
	<node lat="60.50523611132923" lon="11.06418888136767" id="-15472">
		<tag k="name" v="Storfløyta" />
		<tag k="natural" v="water" />
		<tag k="ssr:stedsnr" v="648120" />
		<tag k="water" v="lake" />
	</node>
	<node lat="60.42624166421708" lon="10.91010832945868" id="-15475">
		<tag k="name" v="Torvbekken" />
		<tag k="ssr:stedsnr" v="648194" />
		<tag k="waterway" v="stream" />
	</node>
	<node lat="60.511297219739944" lon="11.063755560977427" id="-15483">
		<tag k="name" v="Lomtjennsvingen" />
		<tag k="place" v="locality" />
		<tag k="ssr:stedsnr" v="709121" />
	</node>
	<node lat="60.42845555704725" lon="10.884586102877389" id="-15490">
		<tag k="name" v="Lortvika" />
		<tag k="natural" v="bay" />
		<tag k="ssr:stedsnr" v="709241" />
	</node>
	<node lat="60.43415833285207" lon="10.872413885768694" id="-15492">
		<tag k="name" v="Lauvodden" />
		<tag k="natural" v="cape" />
		<tag k="ssr:stedsnr" v="709246" />
	</node>
	<node lat="60.37604999594193" lon="11.047724999458111" id="-15510">
		<tag k="name" v="Haugnesodden" />
		<tag k="natural" v="cape" />
		<tag k="ssr:stedsnr" v="673568" />
	</node>
	<node lat="60.436338887272846" lon="11.099183327337071" id="-15514">
		<tag k="name" v="Grovstjenn" />
		<tag k="natural" v="water" />
		<tag k="ssr:stedsnr" v="674457" />
	</node>
	<node lat="60.4760750036958" lon="10.799208324741265" id="-15521">
		<tag k="alt_name" v="Toppåstjennet" />
		<tag k="name" v="Toppåstjenn" />
		<tag k="natural" v="water" />
		<tag k="ssr:stedsnr" v="674722" />
	</node>
	<node lat="60.47276110917657" lon="10.911552783326796" id="-15522">
		<tag k="alt_name" v="Bjørnåstjenn;Bjørnåstjennet" />
		<tag k="name" v="Bjønnåstjenn" />
		<tag k="natural" v="water" />
		<tag k="ssr:stedsnr" v="674724" />
	</node>
	<node lat="60.40205833165157" lon="11.07614999678943" id="-15532">
		<tag k="name" v="Gråhammeren" />
		<tag k="natural" v="cape" />
		<tag k="ssr:stedsnr" v="892752" />
	</node>
	<node lat="60.40150000040898" lon="10.88983332780624" id="-15542">
		<tag k="name" v="Kroktjenn" />
		<tag k="natural" v="water" />
		<tag k="ssr:stedsnr" v="709807" />
	</node>
	<node lat="60.46354444381222" lon="10.823997213533051" id="-15547">
		<tag k="name" v="Kalvetjennet" />
		<tag k="natural" v="water" />
		<tag k="ssr:stedsnr" v="723876" />
	</node>
	<node lat="60.44946388943158" lon="10.709163891074715" id="-15557">
		<tag k="name" v="Fallbekken" />
		<tag k="ssr:stedsnr" v="734249" />
		<tag k="waterway" v="stream" />
	</node>
	<node lat="60.402191664594554" lon="10.896083332132108" id="-15558">
		<tag k="name" v="Svarttjenn" />
		<tag k="natural" v="water" />
		<tag k="ssr:stedsnr" v="734629" />
	</node>
	<node lat="60.46681110908154" lon="10.768099998366083" id="-15562">
		<tag k="alt_name" v="Ostetjenn" />
		<tag k="name" v="Osttjenn" />
		<tag k="natural" v="water" />
		<tag k="ssr:stedsnr" v="734712" />
	</node>
	<node lat="60.48120000109866" lon="11.0867944505829" id="-15565">
		<tag k="name" v="Røtjenn" />
		<tag k="natural" v="water" />
		<tag k="ssr:stedsnr" v="734737" />
	</node>
	<node lat="60.462069443891984" lon="10.769480564481666" id="-15574">
		<tag k="name" v="Sjakersputten" />
=======
	<node id="-268106" lat="60.3852277747" lon="11.0435055507">
		<tag k="name" v="Rudsgrunna" />
		<tag k="natural" v="shoal" />
		<tag k="place" v="locality" />
		<tag k="ssr:stedsnr" v="604983" />
	</node>
	<node id="-268612" lat="60.4598777778" lon="10.9163222279">
		<tag k="name" v="Bergebekken" />
		<tag k="ssr:stedsnr" v="361830" />
		<tag k="waterway" v="stream" />
	</node>
	<node id="-268097" lat="60.511783329" lon="11.0699805606">
		<tag k="name" v="Vintervika" />
		<tag k="natural" v="bay" />
		<tag k="ssr:stedsnr" v="588128" />
	</node>
	<node id="-268531" lat="60.3631277775" lon="11.0490305472">
		<tag k="name" v="Skysskafferodden" />
		<tag k="natural" v="cape" />
		<tag k="ssr:stedsnr" v="188586" />
	</node>
	<node id="-268603" lat="60.4802055561" lon="10.7467222237">
		<tag k="name" v="Merraflåputten" />
		<tag k="natural" v="water" />
		<tag k="ssr:stedsnr" v="345235" />
	</node>
	<node id="-268602" lat="60.4837888886" lon="10.7007055508">
		<tag k="name" v="Syslemyrputten" />
		<tag k="natural" v="water" />
		<tag k="ssr:stedsnr" v="345229" />
	</node>
	<node id="-269023" lat="60.3552861137" lon="11.0150000002">
		<tag k="name" v="Røysa" />
		<tag k="natural" v="cape" />
		<tag k="ssr:stedsnr" v="952558" />
	</node>
	<node id="-268599" lat="60.418061109" lon="10.936819442">
		<tag k="name" v="Skrukkelidammen" />
		<tag k="ssr:stedsnr" v="345181" />
		<tag k="waterway" v="dam" />
	</node>
	<node id="-268086" lat="60.4015000004" lon="10.8898333278">
		<tag k="name" v="Kroktjenn" />
		<tag k="natural" v="water" />
		<tag k="ssr:stedsnr" v="709807" />
	</node>
	<node id="-268597" lat="60.4824305528" lon="10.9746361169">
		<tag k="name" v="Størhusbekken" />
		<tag k="ssr:stedsnr" v="345073" />
		<tag k="waterway" v="stream" />
	</node>
	<node id="-268766" lat="60.3957249998" lon="10.990925">
		<tag k="alt_name" v="Djupdalsbekken" />
		<tag k="name" v="Djupedalsbekken" />
		<tag k="ssr:stedsnr" v="552630" />
		<tag k="waterway" v="stream" />
	</node>
	<node id="-268594" lat="60.5142694489" lon="11.0636722181">
		<tag k="name" v="Steinsjødammen" />
		<tag k="ssr:stedsnr" v="345128" />
		<tag k="waterway" v="dam" />
	</node>
	<node id="-269008" lat="60.4254777812" lon="10.9479083296">
		<tag k="name" v="Geitbergbekken" />
		<tag k="ssr:stedsnr" v="952193" />
		<tag k="waterway" v="stream" />
	</node>
	<node id="-268076" lat="60.4341583329" lon="10.8724138858">
		<tag k="name" v="Lauvodden" />
		<tag k="natural" v="cape" />
		<tag k="ssr:stedsnr" v="709246" />
	</node>
	<node id="-268587" lat="60.4764694418" lon="10.808711119">
		<tag k="name" v="Oksetjenn" />
		<tag k="natural" v="water" />
		<tag k="ssr:stedsnr" v="310733" />
	</node>
	<node id="-268074" lat="60.428455557" lon="10.8845861029">
		<tag k="name" v="Lortvika" />
		<tag k="natural" v="bay" />
		<tag k="ssr:stedsnr" v="709241" />
	</node>
	<node id="-268585" lat="60.4692805529" lon="10.9106000087">
		<tag k="name" v="Midttjenn" />
		<tag k="natural" v="water" />
		<tag k="ssr:stedsnr" v="310715" />
	</node>
	<node id="-268583" lat="60.4767333306" lon="10.9443555502">
		<tag k="name" v="Skillebekken" />
		<tag k="ssr:stedsnr" v="310706" />
		<tag k="waterway" v="stream" />
	</node>
	<node id="-267763" lat="60.5064611101" lon="11.0650333242">
		<tag k="name" v="Fløytputten" />
		<tag k="natural" v="water" />
		<tag k="ssr:stedsnr" v="163102" />
	</node>
	<node id="-268067" lat="60.5112972197" lon="11.063755561">
		<tag k="name" v="Lomtjennsvingen" />
		<tag k="place" v="locality" />
		<tag k="ssr:stedsnr" v="709121" />
	</node>
	<node id="-269019" lat="60.4028138865" lon="11.0463861021">
		<tag k="name" v="Røystjennet" />
		<tag k="natural" v="water" />
		<tag k="ssr:stedsnr" v="952866" />
	</node>
	<node id="-268574" lat="60.3733000034" lon="11.1143250083">
		<tag k="name" v="Byfella" />
		<tag k="natural" v="water" />
		<tag k="ssr:stedsnr" v="310050" />
	</node>
	<node id="-268420" lat="60.4148861132" lon="10.989552783">
		<tag k="name" v="Breimyrbekken" />
		<tag k="ssr:stedsnr" v="102155" />
		<tag k="waterway" v="stream" />
	</node>
	<node id="-268052" lat="60.4466388855" lon="10.9163055535">
		<tag k="name" v="Lauvoddvika" />
		<tag k="natural" v="bay" />
		<tag k="ssr:stedsnr" v="542624" />
	</node>
	<node id="-268051" lat="60.4435611146" lon="10.9415555605">
		<tag k="name" v="Fjellsjødammen" />
		<tag k="ssr:stedsnr" v="542623" />
		<tag k="waterway" v="dam" />
	</node>
	<node id="-268048" lat="60.3897694448" lon="11.0768194512">
		<tag k="name" v="Sandsbråtebekken" />
		<tag k="ssr:stedsnr" v="527820" />
		<tag k="waterway" v="stream" />
	</node>
	<node id="-269016" lat="60.3969750042" lon="11.0487611185">
		<tag k="name" v="Fagerlivika" />
		<tag k="natural" v="bay" />
		<tag k="ssr:stedsnr" v="952850" />
	</node>
	<node id="-268554" lat="60.5258861137" lon="10.7133305621">
		<tag k="alt_name" v="Brannelva;Brennelva" />
		<tag k="name" v="Brandelva" />
		<tag k="ssr:stedsnr" v="189868" />
		<tag k="waterway" v="river" />
	</node>
	<node id="-268041" lat="60.4811944451" lon="10.7014638799">
		<tag k="name" v="Syslemyrbekken" />
		<tag k="ssr:stedsnr" v="527228" />
		<tag k="waterway" v="stream" />
	</node>
	<node id="-268040" lat="60.4313833364" lon="10.8775222225">
		<tag k="name" v="Furuodden" />
		<tag k="natural" v="cape" />
		<tag k="ssr:stedsnr" v="527227" />
	</node>
	<node id="-268550" lat="60.4825055516" lon="11.0796888807">
		<tag k="name" v="Røbekken" />
		<tag k="ssr:stedsnr" v="188737" />
		<tag k="waterway" v="stream" />
	</node>
	<node id="-268819" lat="60.465772224" lon="10.8667583276">
		<tag k="name" v="Damtjenn" />
		<tag k="natural" v="water" />
		<tag k="ssr:stedsnr" v="612683" />
	</node>
	<node id="-269060" lat="60.4436305521" lon="11.1207583357">
		<tag k="name" v="Brustadsetervika" />
		<tag k="natural" v="bay" />
		<tag k="ssr:stedsnr" v="224711" />
	</node>
	<node id="-268502" lat="60.405430552" lon="11.0792694364">
		<tag k="name" v="Hammerodden" />
		<tag k="natural" v="cape" />
		<tag k="ssr:stedsnr" v="163782" />
	</node>
	<node id="-268545" lat="60.4502416626" lon="10.899847223">
		<tag k="alt_name" v="Bjørtomttjennet" />
		<tag k="name" v="Bjørtomttjenn" />
>>>>>>> e1d4bc35ff8a6074a6f2e91616a996b547c36f15
		<tag k="natural" v="water" />
		<tag k="ssr:stedsnr" v="188700" />
	</node>
<<<<<<< HEAD
	<node lat="60.448327776073185" lon="10.927458337028753" id="-15575">
		<tag k="name" v="Hagaodden" />
		<tag k="natural" v="cape" />
		<tag k="ssr:stedsnr" v="967599" />
	</node>
	<node lat="60.45015000193698" lon="10.951619448465896" id="-15585">
		<tag k="name" v="Inngjerdingsbekken" />
		<tag k="ssr:stedsnr" v="770659" />
		<tag k="waterway" v="stream" />
	</node>
	<node lat="60.44765277406939" lon="10.919547213903854" id="-15606">
		<tag k="name" v="Lauvodden" />
		<tag k="natural" v="cape" />
		<tag k="ssr:stedsnr" v="785606" />
	</node>
	<node lat="60.47017499880412" lon="10.921952771965405" id="-15613">
		<tag k="name" v="Blankputten" />
		<tag k="natural" v="water" />
		<tag k="ssr:stedsnr" v="795725" />
	</node>
	<node lat="60.390930558456674" lon="11.048400009014141" id="-15615">
		<tag k="name" v="Sandsodden" />
		<tag k="natural" v="cape" />
		<tag k="ssr:stedsnr" v="795615" />
	</node>
	<node lat="60.48277500122694" lon="10.81732776950406" id="-15622">
		<tag k="alt_name" v="Svartungen, store" />
		<tag k="name" v="Store Svartungen" />
		<tag k="natural" v="water" />
		<tag k="ssr:stedsnr" v="795757" />
		<tag k="water" v="lake" />
	</node>
	<node lat="60.41173888878842" lon="11.113858335426082" id="-15625">
		<tag k="name" v="Gjelmyrputten" />
		<tag k="natural" v="water" />
		<tag k="ssr:stedsnr" v="916494" />
	</node>
	<node lat="60.416938887940056" lon="11.124624998208658" id="-15626">
		<tag k="name" v="Vålsjøen" />
		<tag k="natural" v="water" />
		<tag k="ssr:stedsnr" v="916496" />
		<tag k="water" v="lake" />
	</node>
	<node lat="60.41593055941232" lon="10.951713895564628" id="-15630">
		<tag k="name" v="Matbekken" />
		<tag k="ssr:stedsnr" v="916636" />
		<tag k="waterway" v="stream" />
	</node>
	<node lat="60.37694999658194" lon="11.051008338811142" id="-15633">
		<tag k="name" v="Haugnesvika" />
		<tag k="natural" v="bay" />
		<tag k="ssr:stedsnr" v="916580" />
	</node>
	<node lat="60.472949995750795" lon="10.8536888856313" id="-15656">
		<tag k="name" v="Evjene" />
		<tag k="natural" v="water" />
		<tag k="ssr:stedsnr" v="847839" />
		<tag k="water" v="lake" />
	</node>
	<node lat="60.405319447686615" lon="11.04006110784212" id="-15662">
		<tag k="name" v="Humletjenn" />
		<tag k="natural" v="water" />
		<tag k="ssr:stedsnr" v="855598" />
	</node>
	<node lat="60.48858055983764" lon="11.048602771274743" id="-15672">
		<tag k="name" v="Mørka" />
		<tag k="ssr:stedsnr" v="856734" />
		<tag k="waterway" v="stream" />
	</node>
	<node lat="60.48020555472105" lon="10.819163891182512" id="-15676">
		<tag k="name" v="Storvika" />
		<tag k="natural" v="bay" />
		<tag k="ssr:stedsnr" v="891053" />
	</node>
	<node lat="60.42187221854697" lon="10.887074993543179" id="-15679">
		<tag k="name" v="Djupdalsbekken" />
		<tag k="ssr:stedsnr" v="891258" />
		<tag k="waterway" v="stream" />
	</node>
	<node lat="60.51606111064148" lon="11.066883340049985" id="-15683">
		<tag k="name" v="Bukkeholmene" />
		<tag k="place" v="islet" />
		<tag k="ssr:stedsnr" v="892128" />
	</node>
	<node lat="60.42286110674902" lon="11.103508342050434" id="-15692">
		<tag k="name" v="Bundlibekken" />
		<tag k="ssr:stedsnr" v="916521" />
		<tag k="waterway" v="stream" />
	</node>
	<node lat="60.492850002782326" lon="10.741324996206146" id="-15697">
		<tag k="name" v="Malsjøbekken" />
		<tag k="ssr:stedsnr" v="916767" />
		<tag k="waterway" v="stream" />
	</node>
	<node lat="60.488038885006155" lon="10.770966671868807" id="-15698">
		<tag k="alt_name" v="Auretjenn" />
		<tag k="name" v="Aurtjenn" />
		<tag k="natural" v="water" />
		<tag k="ssr:stedsnr" v="916768" />
	</node>
	<node lat="60.49566389270335" lon="11.081988882485922" id="-15699">
		<tag k="name" v="Vangentjenn" />
		<tag k="natural" v="water" />
		<tag k="ssr:stedsnr" v="916771" />
	</node>
	<node lat="60.499466667029495" lon="11.062038882320417" id="-15706">
		<tag k="name" v="Andtjenn" />
		<tag k="natural" v="water" />
		<tag k="ssr:stedsnr" v="952039" />
	</node>
	<node lat="60.41695000387234" lon="10.995074995964288" id="-15707">
		<tag k="name" v="Vesleelvfossen" />
		<tag k="natural" v="waterfall" />
		<tag k="ssr:stedsnr" v="952212" />
	</node>
	<node lat="60.49200277577696" lon="10.761936111260919" id="-15710">
		<tag k="alt_name" v="Auretjernsbekken" />
		<tag k="name" v="Aurtjennsbekken" />
		<tag k="ssr:stedsnr" v="952256" />
		<tag k="waterway" v="stream" />
	</node>
	<node lat="60.35528611366931" lon="11.015000000153341" id="-15713">
		<tag k="name" v="Røysa" />
		<tag k="natural" v="cape" />
		<tag k="ssr:stedsnr" v="952558" />
	</node>
	<node lat="60.37475277597538" lon="11.089938897133697" id="-15719">
		<tag k="name" v="Kinnbergfossen" />
		<tag k="natural" v="waterfall" />
		<tag k="ssr:stedsnr" v="952929" />
	</node>
	<node lat="60.40772777631956" lon="10.993130547713141" id="-15720">
=======
	<node id="-268032" lat="60.4825444415" lon="10.9526583414">
		<tag k="name" v="Daltjernsbekken" />
		<tag k="ssr:stedsnr" v="510134" />
		<tag k="waterway" v="stream" />
	</node>
	<node id="-268031" lat="60.4727611092" lon="10.9115527833">
		<tag k="alt_name" v="Bjørnåstjenn;Bjørnåstjennet" />
		<tag k="name" v="Bjønnåstjenn" />
		<tag k="natural" v="water" />
		<tag k="ssr:stedsnr" v="674724" />
	</node>
	<node id="-268030" lat="60.4760750037" lon="10.7992083247">
		<tag k="alt_name" v="Toppåstjennet" />
		<tag k="name" v="Toppåstjenn" />
		<tag k="natural" v="water" />
		<tag k="ssr:stedsnr" v="674722" />
	</node>
	<node id="-268535" lat="60.3783999992" lon="10.9551305628">
		<tag k="name" v="Guttputten" />
		<tag k="natural" v="water" />
		<tag k="ssr:stedsnr" v="188610" />
	</node>
	<node id="-268534" lat="60.3731499987" lon="11.0503111198">
		<tag k="name" v="Kjøttvika" />
		<tag k="natural" v="bay" />
		<tag k="ssr:stedsnr" v="188605" />
	</node>
	<node id="-268533" lat="60.3742749969" lon="10.9171916662">
		<tag k="name" v="Smørvika" />
		<tag k="natural" v="bay" />
		<tag k="ssr:stedsnr" v="188595" />
	</node>
	<node id="-269043" lat="60.4717777784" lon="10.7529999943">
		<tag k="name" v="Svarttjennsbekken" />
		<tag k="ssr:stedsnr" v="965901" />
		<tag k="waterway" v="stream" />
	</node>
	<node id="-269042" lat="60.4776444481" lon="10.6993833422">
		<tag k="name" v="Syslemyrbekken" />
		<tag k="ssr:stedsnr" v="965895" />
		<tag k="waterway" v="stream" />
	</node>
	<node id="-268528" lat="60.3393277772" lon="10.9658250015">
		<tag k="name" v="Hegga" />
		<tag k="ssr:stedsnr" v="188563" />
		<tag k="waterway" v="river" />
	</node>
	<node id="-268527" lat="60.4516694461" lon="11.1020277764">
		<tag k="name" v="Vestre Morttjenn" />
		<tag k="natural" v="water" />
		<tag k="ssr:stedsnr" v="188503" />
	</node>
	<node id="-269037" lat="60.374752776" lon="11.0899388971">
		<tag k="name" v="Kinnbergfossen" />
		<tag k="natural" v="waterfall" />
		<tag k="ssr:stedsnr" v="952929" />
	</node>
	<node id="-268011" lat="60.3912499991" lon="10.9795277728">
		<tag k="alt_name" v="Geitryggtjennet" />
		<tag k="name" v="Geitryggtjenn" />
		<tag k="natural" v="water" />
		<tag k="ssr:stedsnr" v="673585" />
	</node>
	<node id="-268009" lat="60.3760499959" lon="11.0477249995">
		<tag k="name" v="Haugnesodden" />
		<tag k="natural" v="cape" />
		<tag k="ssr:stedsnr" v="673568" />
	</node>
	<node id="-268004" lat="60.4605222262" lon="10.9639555567">
		<tag k="name" v="Lisputten" />
		<tag k="natural" v="water" />
		<tag k="ssr:stedsnr" v="482863" />
	</node>
	<node id="-268512" lat="60.4758666625" lon="10.7357888827">
		<tag k="name" v="Damtjennsbekken" />
		<tag k="ssr:stedsnr" v="176896" />
		<tag k="waterway" v="stream" />
	</node>
	<node id="-267999" lat="60.4783611073" lon="10.8332722168">
		<tag k="name" v="Skurvevika" />
		<tag k="natural" v="bay" />
		<tag k="ssr:stedsnr" v="480917" />
	</node>
	<node id="-267998" lat="60.3845694424" lon="11.1110722135">
		<tag k="name" v="Sølvputten" />
		<tag k="natural" v="water" />
		<tag k="ssr:stedsnr" v="467916" />
	</node>
	<node id="-268325" lat="60.3814027815" lon="10.9598416698">
		<tag k="name" v="Nordtjenn" />
		<tag k="natural" v="water" />
		<tag k="ssr:stedsnr" v="6593" />
	</node>
	<node id="-267996" lat="60.3991805583" lon="10.9101194396">
		<tag k="name" v="Svarttjennsbekken" />
		<tag k="ssr:stedsnr" v="467853" />
		<tag k="waterway" v="stream" />
	</node>
	<node id="-267995" lat="60.3967111084" lon="10.9026611147">
		<tag k="name" v="Toputten" />
		<tag k="natural" v="water" />
		<tag k="ssr:stedsnr" v="467852" />
		<tag k="water" v="pond" />
	</node>
	<node id="-267992" lat="60.3759027761" lon="10.9180638878">
		<tag k="name" v="Smørvikbekken" />
		<tag k="ssr:stedsnr" v="467722" />
		<tag k="waterway" v="stream" />
	</node>
	<node id="-269015" lat="60.4077277763" lon="10.9931305477">
>>>>>>> e1d4bc35ff8a6074a6f2e91616a996b547c36f15
		<tag k="name" v="Vivangsbekken" />
		<tag k="ssr:stedsnr" v="952842" />
		<tag k="waterway" v="stream" />
	</node>
<<<<<<< HEAD
	<node lat="60.39697500423238" lon="11.048761118450372" id="-15721">
		<tag k="name" v="Fagerlivika" />
		<tag k="natural" v="bay" />
		<tag k="ssr:stedsnr" v="952850" />
	</node>
	<node lat="60.47764444811432" lon="10.699383342228586" id="-15729">
		<tag k="name" v="Syslemyrbekken" />
		<tag k="ssr:stedsnr" v="965895" />
		<tag k="waterway" v="stream" />
	</node>
	<node lat="60.471777778352845" lon="10.752999994267956" id="-15730">
		<tag k="name" v="Svarttjennsbekken" />
		<tag k="ssr:stedsnr" v="965901" />
		<tag k="waterway" v="stream" />
	</node>
	<node lat="60.364719447894785" lon="10.96995556182308" id="-15745">
		<tag k="name" v="Heggetjenn" />
		<tag k="natural" v="water" />
		<tag k="ssr:stedsnr" v="6568" />
	</node>
	<node lat="60.361080027981714" lon="11.095357281263114" id="-15759">
		<tag k="alt_name" v="Lomtjenn" />
		<tag k="name" v="Lomtjennet" />
		<tag k="natural" v="water" />
		<tag k="ssr:stedsnr" v="20980" />
	</node>
	<node lat="60.48988333520437" lon="10.991197231219465" id="-15760">
		<tag k="alt_name" v="Brennseterelva" />
		<tag k="name" v="Brennsæterelva" />
		<tag k="ssr:stedsnr" v="25135" />
		<tag k="waterway" v="river" />
	</node>
	<node lat="60.34750000264036" lon="11.087777772215597" id="-15763">
		<tag k="name" v="Langtonbekken" />
		<tag k="ssr:stedsnr" v="40789" />
		<tag k="waterway" v="stream" />
	</node>
	<node lat="60.437766667080915" lon="10.83976111305675" id="-15786">
		<tag k="name" v="Rajebekken" />
		<tag k="ssr:stedsnr" v="59429" />
		<tag k="waterway" v="stream" />
	</node>
	<node lat="60.46129444006472" lon="10.8682999991458" id="-15788">
		<tag k="alt_name" v="Damtjennsbekken" />
		<tag k="name" v="Damtjennbekken" />
		<tag k="ssr:stedsnr" v="66663" />
		<tag k="waterway" v="stream" />
	</node>
	<node lat="60.46546388716249" lon="10.888658334841937" id="-15789">
		<tag k="name" v="Rogntjenn" />
		<tag k="natural" v="water" />
		<tag k="ssr:stedsnr" v="66664" />
	</node>
	<node lat="60.35444166346062" lon="11.062588883693834" id="-15792">
		<tag k="name" v="Bogvika" />
		<tag k="natural" v="bay" />
		<tag k="ssr:stedsnr" v="67551" />
	</node>
	<node lat="60.35789444181831" lon="10.975202769202786" id="-15794">
		<tag k="name" v="Vesleelva" />
		<tag k="ssr:stedsnr" v="67570" />
		<tag k="waterway" v="stream" />
	</node>
	<node lat="60.367613337360254" lon="10.915072846181952" id="-15796">
		<tag k="name" v="Øyangen" />
		<tag k="natural" v="water" />
		<tag k="ssr:stedsnr" v="67579" />
		<tag k="water" v="lake" />
	</node>
	<node lat="60.37898611430988" lon="10.995491671943823" id="-15797">
		<tag k="alt_name" v="Vikensbekken" />
		<tag k="name" v="Vikenbekken" />
		<tag k="ssr:stedsnr" v="67585" />
		<tag k="waterway" v="stream" />
	</node>
	<node lat="60.45245555546254" lon="11.089877770960852" id="-15800">
		<tag k="name" v="Opperudtjenn" />
		<tag k="natural" v="water" />
		<tag k="ssr:stedsnr" v="67672" />
	</node>
	<node lat="60.50366388801202" lon="11.059555563704949" id="-15805">
		<tag k="name" v="Tjennslitjennet" />
		<tag k="natural" v="water" />
		<tag k="ssr:stedsnr" v="102112" />
	</node>
	<node lat="60.43359999673398" lon="10.808216668038552" id="-15806">
		<tag k="name" v="Langmyrbekken" />
		<tag k="ssr:stedsnr" v="102234" />
		<tag k="waterway" v="stream" />
	</node>
	<node lat="60.427799998209686" lon="10.971466660049352" id="-15809">
		<tag k="name" v="Kjerringputten" />
		<tag k="natural" v="water" />
		<tag k="ssr:stedsnr" v="102146" />
	</node>
	<node lat="60.41488611319998" lon="10.989552782961692" id="-15810">
		<tag k="name" v="Breimyrbekken" />
		<tag k="ssr:stedsnr" v="102155" />
		<tag k="waterway" v="stream" />
	</node>
	<node lat="60.42360000326071" lon="10.883666673446065" id="-15811">
		<tag k="name" v="Brunmyrbekken" />
		<tag k="ssr:stedsnr" v="102268" />
		<tag k="waterway" v="stream" />
	</node>
	<node lat="60.44528889301149" lon="11.015644440685762" id="-15814">
		<tag k="name" v="Kvernbekken" />
		<tag k="ssr:stedsnr" v="102792" />
		<tag k="waterway" v="stream" />
	</node>
	<node lat="60.40106944707354" lon="10.939186103042783" id="-15819">
		<tag k="name" v="Middagskolltjenn" />
		<tag k="natural" v="water" />
		<tag k="ssr:stedsnr" v="103820" />
	</node>
	<node lat="60.381299996346364" lon="11.050661107835277" id="-15836">
		<tag k="name" v="Haugnesgrunna" />
		<tag k="natural" v="shoal" />
		<tag k="place" v="locality" />
		<tag k="ssr:stedsnr" v="119586" />
	</node>
	<node lat="60.46188611074238" lon="10.745100002903996" id="-15837">
		<tag k="name" v="Futbekken" />
		<tag k="ssr:stedsnr" v="120429" />
		<tag k="waterway" v="stream" />
	</node>
	<node lat="60.378533336938396" lon="11.103733332304635" id="-15843">
		<tag k="alt_name" v="Pinntjenn" />
		<tag k="name" v="Pinntjennet" />
		<tag k="natural" v="water" />
		<tag k="ssr:stedsnr" v="127038" />
	</node>
	<node lat="60.35165277873177" lon="11.016125007973555" id="-15844">
		<tag k="alt_name" v="Leirbråtavika" />
		<tag k="name" v="Leirbråtevika" />
		<tag k="natural" v="bay" />
		<tag k="ssr:stedsnr" v="127563" />
	</node>
	<node lat="60.35840833649314" lon="10.960655546997415" id="-15845">
=======
	<node id="-269014" lat="60.4920027758" lon="10.7619361113">
		<tag k="alt_name" v="Auretjernsbekken" />
		<tag k="name" v="Aurtjennsbekken" />
		<tag k="ssr:stedsnr" v="952256" />
		<tag k="waterway" v="stream" />
	</node>
	<node id="-267986" lat="60.4809277744" lon="10.7654111133">
		<tag k="name" v="Glasbergputten" />
		<tag k="natural" v="water" />
		<tag k="ssr:stedsnr" v="466252" />
	</node>
	<node id="-267984" lat="60.4912499995" lon="10.9680166717">
		<tag k="name" v="Bonkerudbekken" />
		<tag k="ssr:stedsnr" v="466023" />
		<tag k="waterway" v="stream" />
	</node>
	<node id="-268494" lat="60.4857916652" lon="10.7953972142">
		<tag k="name" v="Toppåsbekken" />
		<tag k="ssr:stedsnr" v="163044" />
		<tag k="waterway" v="stream" />
	</node>
	<node id="-268493" lat="60.4796555515" lon="10.8100333366">
		<tag k="name" v="Oksetjernsbekken" />
		<tag k="ssr:stedsnr" v="163043" />
		<tag k="waterway" v="stream" />
	</node>
	<node id="-268492" lat="60.486522223" lon="10.9505666754">
		<tag k="name" v="Fløyta" />
		<tag k="natural" v="water" />
		<tag k="ssr:stedsnr" v="163011" />
		<tag k="water" v="lake" />
	</node>
	<node id="-269002" lat="60.4885805598" lon="11.0486027713">
		<tag k="name" v="Mørka" />
		<tag k="ssr:stedsnr" v="856734" />
		<tag k="waterway" v="stream" />
	</node>
	<node id="-267975" lat="60.4563416699" lon="10.9495916642">
		<tag k="name" v="Bladtjern" />
		<tag k="natural" v="water" />
		<tag k="ssr:stedsnr" v="664875" />
	</node>
	<node id="-268485" lat="60.3448888847" lon="11.0254666607">
		<tag k="name" v="Heggetangen" />
		<tag k="natural" v="cape" />
		<tag k="ssr:stedsnr" v="144418" />
	</node>
	<node id="-268544" lat="60.4471694414" lon="10.925555558">
		<tag k="name" v="Fjellsjøen" />
		<tag k="natural" v="water" />
		<tag k="ssr:stedsnr" v="188699" />
		<tag k="water" v="lake" />
	</node>
	<node id="-267967" lat="60.418677778" lon="10.9248249976">
		<tag k="name" v="Fløyta" />
		<tag k="natural" v="bay" />
		<tag k="ssr:stedsnr" v="431629" />
	</node>
	<node id="-268990" lat="60.4602361132" lon="10.7877472201">
		<tag k="name" v="Ostelva" />
		<tag k="ssr:stedsnr" v="855726" />
		<tag k="waterway" v="stream" />
	</node>
	<node id="-268917" lat="60.4162027798" lon="11.1307055546">
		<tag k="name" v="Dæla" />
		<tag k="natural" v="strait" />
		<tag k="ssr:stedsnr" v="795531" />
	</node>
	<node id="-268988" lat="60.4053194477" lon="11.0400611078">
		<tag k="name" v="Humletjenn" />
		<tag k="natural" v="water" />
		<tag k="ssr:stedsnr" v="855598" />
	</node>
	<node id="-267963" lat="60.4742833373" lon="10.8797472152">
		<tag k="name" v="Sandfallbekken" />
		<tag k="ssr:stedsnr" v="422840" />
		<tag k="waterway" v="stream" />
	</node>
	<node id="-267961" lat="60.4495083339" lon="10.9215472273">
		<tag k="name" v="Brunborghella" />
		<tag k="place" v="islet" />
		<tag k="ssr:stedsnr" v="421627" />
	</node>
	<node id="-268472" lat="60.3584083365" lon="10.960655547">
>>>>>>> e1d4bc35ff8a6074a6f2e91616a996b547c36f15
		<tag k="alt_name" v="Øyangbekken" />
		<tag k="name" v="Øyangsbekken" />
		<tag k="ssr:stedsnr" v="127564" />
		<tag k="waterway" v="stream" />
	</node>
<<<<<<< HEAD
	<node lat="60.39392500291852" lon="10.998947225297828" id="-15854">
		<tag k="alt_name" v="Nysetertjenn" />
		<tag k="name" v="Nysætertjenn" />
		<tag k="natural" v="water" />
		<tag k="ssr:stedsnr" v="127631" />
	</node>
	<node lat="60.34488888468171" lon="11.025466660656962" id="-15860">
		<tag k="name" v="Heggetangen" />
		<tag k="natural" v="cape" />
		<tag k="ssr:stedsnr" v="144418" />
	</node>
	<node lat="60.47965555146196" lon="10.81003333661179" id="-15871">
		<tag k="name" v="Oksetjernsbekken" />
		<tag k="ssr:stedsnr" v="163043" />
		<tag k="waterway" v="stream" />
	</node>
	<node lat="60.48579166519192" lon="10.795397214165886" id="-15872">
		<tag k="name" v="Toppåsbekken" />
		<tag k="ssr:stedsnr" v="163044" />
		<tag k="waterway" v="stream" />
	</node>
	<node lat="60.40543055199873" lon="11.079269436445703" id="-15884">
		<tag k="name" v="Hammerodden" />
		<tag k="natural" v="cape" />
		<tag k="ssr:stedsnr" v="163782" />
	</node>
	<node lat="60.47586666249501" lon="10.73578888269679" id="-15889">
		<tag k="name" v="Damtjennsbekken" />
		<tag k="ssr:stedsnr" v="176896" />
		<tag k="waterway" v="stream" />
	</node>
	<node lat="60.45024444083669" lon="10.902883339040404" id="-15890">
		<tag k="name" v="Steinodden" />
		<tag k="natural" v="cape" />
		<tag k="ssr:stedsnr" v="178618" />
	</node>
	<node lat="60.43940277810755" lon="10.868661114968463" id="-15900">
		<tag k="name" v="Granodden" />
		<tag k="natural" v="cape" />
		<tag k="ssr:stedsnr" v="181391" />
	</node>
	<node lat="60.452286107150975" lon="10.754802778952568" id="-15902">
		<tag k="name" v="Røsåsbekken" />
		<tag k="ssr:stedsnr" v="181455" />
		<tag k="waterway" v="stream" />
	</node>
	<node lat="60.37427499689675" lon="10.917191666185628" id="-15906">
		<tag k="name" v="Smørvika" />
		<tag k="natural" v="bay" />
		<tag k="ssr:stedsnr" v="188595" />
	</node>
	<node lat="60.447169441354575" lon="10.925555557989103" id="-15908">
		<tag k="name" v="Fjellsjøen" />
		<tag k="natural" v="water" />
		<tag k="ssr:stedsnr" v="188699" />
		<tag k="water" v="lake" />
	</node>
	<node lat="60.4502416625771" lon="10.89984722301433" id="-15909">
		<tag k="alt_name" v="Bjørtomttjennet" />
		<tag k="name" v="Bjørtomttjenn" />
		<tag k="natural" v="water" />
		<tag k="ssr:stedsnr" v="188700" />
	</node>
	<node lat="60.339327777221584" lon="10.965825001454931" id="-15913">
		<tag k="name" v="Hegga" />
		<tag k="ssr:stedsnr" v="188563" />
		<tag k="waterway" v="river" />
	</node>
	<node lat="60.48250555162426" lon="11.079688880654325" id="-15916">
		<tag k="name" v="Røbekken" />
		<tag k="ssr:stedsnr" v="188737" />
		<tag k="waterway" v="stream" />
	</node>
	<node lat="60.52588611368246" lon="10.713330562086606" id="-15920">
		<tag k="alt_name" v="Brannelva;Brennelva" />
		<tag k="name" v="Brandelva" />
		<tag k="ssr:stedsnr" v="189868" />
		<tag k="waterway" v="river" />
	</node>
	<node lat="60.43333333299687" lon="10.960480546733958" id="-15930">
		<tag k="name" v="Vesletjenn" />
		<tag k="natural" v="water" />
		<tag k="ssr:stedsnr" v="224176" />
	</node>
	<node lat="60.41997222108477" lon="10.91829722719449" id="-15932">
		<tag k="name" v="Kuholmen" />
		<tag k="natural" v="cape" />
		<tag k="ssr:stedsnr" v="224190" />
	</node>
	<node lat="60.44363055210144" lon="11.120758335712946" id="-15935">
		<tag k="name" v="Brustadsetervika" />
		<tag k="natural" v="bay" />
		<tag k="ssr:stedsnr" v="224711" />
	</node>
	<node lat="60.40934166373071" lon="11.08593055795659" id="-15939">
		<tag k="name" v="Sør-Bundlivika" />
		<tag k="natural" v="bay" />
		<tag k="ssr:stedsnr" v="224755" />
	</node>
	<node lat="60.44790000247205" lon="10.853805564134186" id="-15946">
		<tag k="name" v="Vollengbekken" />
		<tag k="ssr:stedsnr" v="283237" />
		<tag k="waterway" v="stream" />
	</node>
	<node lat="60.512161111295455" lon="11.073391672696744" id="-15958">
		<tag k="name" v="Steinsjøputten" />
		<tag k="natural" v="bay" />
		<tag k="ssr:stedsnr" v="285144" />
	</node>
	<node lat="60.42473610867145" lon="11.02948888573194" id="-15974">
		<tag k="name" v="Buråsbekken" />
		<tag k="ssr:stedsnr" v="301040" />
		<tag k="waterway" v="stream" />
	</node>
	<node lat="60.434061112488884" lon="11.127294443728955" id="-15977">
		<tag k="name" v="Holmen" />
		<tag k="place" v="islet" />
		<tag k="ssr:stedsnr" v="302470" />
	</node>
	<node lat="60.373300003380834" lon="11.114325008328253" id="-15986">
		<tag k="name" v="Byfella" />
		<tag k="natural" v="water" />
		<tag k="ssr:stedsnr" v="310050" />
	</node>
	<node lat="60.35577500288267" lon="11.013474998038582" id="-15989">
		<tag k="name" v="Lensmannsvika" />
		<tag k="natural" v="bay" />
		<tag k="ssr:stedsnr" v="310520" />
	</node>
	<node lat="60.46928055285974" lon="10.91060000871024" id="-15993">
		<tag k="name" v="Midttjenn" />
		<tag k="natural" v="water" />
		<tag k="ssr:stedsnr" v="310715" />
	</node>
	<node lat="60.4802055560833" lon="10.746722223713272" id="-15994">
		<tag k="name" v="Merraflåputten" />
=======
	<node id="-268471" lat="60.3516527787" lon="11.016125008">
		<tag k="alt_name" v="Leirbråtavika" />
		<tag k="name" v="Leirbråtevika" />
		<tag k="natural" v="bay" />
		<tag k="ssr:stedsnr" v="127563" />
	</node>
	<node id="-268467" lat="60.4277527758" lon="11.1308250046">
		<tag k="name" v="Tisjøen" />
		<tag k="natural" v="water" />
		<tag k="ssr:stedsnr" v="127494" />
		<tag k="water" v="lake" />
	</node>
	<node id="-267953" lat="60.4131027747" lon="11.1268888897">
		<tag k="name" v="Svarthølsvika" />
		<tag k="natural" v="bay" />
		<tag k="ssr:stedsnr" v="406756" />
	</node>
	<node id="-268464" lat="60.3785333369" lon="11.1037333323">
		<tag k="alt_name" v="Pinntjenn" />
		<tag k="name" v="Pinntjennet" />
		<tag k="natural" v="water" />
		<tag k="ssr:stedsnr" v="127038" />
	</node>
	<node id="-268463" lat="60.4335445347" lon="10.6756750811">
		<tag k="alt_name" v="Lustjenn" />
		<tag k="name" v="Lustjenna" />
		<tag k="natural" v="water" />
		<tag k="ssr:stedsnr" v="127149" />
	</node>
	<node id="-267949" lat="60.4394666669" lon="10.8027833316">
		<tag k="name" v="Østre Mysmerbekken" />
		<tag k="ssr:stedsnr" v="406211" />
		<tag k="waterway" v="stream" />
	</node>
	<node id="-268460" lat="60.4618861107" lon="10.7451000029">
		<tag k="name" v="Futbekken" />
		<tag k="ssr:stedsnr" v="120429" />
		<tag k="waterway" v="stream" />
	</node>
	<node id="-268970" lat="60.3757805532" lon="11.0834194477">
		<tag k="name" v="Seterbekken" />
		<tag k="ssr:stedsnr" v="831916" />
		<tag k="waterway" v="stream" />
	</node>
	<node id="-267944" lat="60.5129416661" lon="11.0542583348">
		<tag k="name" v="Kløfttjennet" />
		<tag k="natural" v="water" />
		<tag k="ssr:stedsnr" v="406122" />
	</node>
	<node id="-268401" lat="60.3789861143" lon="10.9954916719">
		<tag k="alt_name" v="Vikensbekken" />
		<tag k="name" v="Vikenbekken" />
		<tag k="ssr:stedsnr" v="67585" />
		<tag k="waterway" v="stream" />
	</node>
	<node id="-267939" lat="60.381772225" lon="11.0328749937">
		<tag k="name" v="Myrbekken" />
		<tag k="ssr:stedsnr" v="362562" />
		<tag k="waterway" v="stream" />
	</node>
	<node id="-268577" lat="60.3557750029" lon="11.013474998">
		<tag k="name" v="Lensmannsvika" />
		<tag k="natural" v="bay" />
		<tag k="ssr:stedsnr" v="310520" />
	</node>
	<node id="-267936" lat="60.4659749963" lon="10.9214111145">
		<tag k="name" v="Abbortjenn" />
>>>>>>> e1d4bc35ff8a6074a6f2e91616a996b547c36f15
		<tag k="natural" v="water" />
		<tag k="ssr:stedsnr" v="492668" />
	</node>
<<<<<<< HEAD
	<node lat="60.51426944890839" lon="11.06367221811911" id="-16002">
		<tag k="name" v="Steinsjødammen" />
		<tag k="ssr:stedsnr" v="345128" />
		<tag k="waterway" v="dam" />
	</node>
	<node lat="60.48378888860937" lon="10.700705550783487" id="-16004">
		<tag k="name" v="Syslemyrputten" />
		<tag k="natural" v="water" />
		<tag k="ssr:stedsnr" v="345229" />
	</node>
	<node lat="60.482430552846644" lon="10.974636116944826" id="-16007">
		<tag k="name" v="Størhusbekken" />
		<tag k="ssr:stedsnr" v="345073" />
		<tag k="waterway" v="stream" />
	</node>
	<node lat="60.474694448773434" lon="10.765475007334187" id="-16013">
		<tag k="name" v="Bergeputten" />
=======
	<node id="-267933" lat="60.4497277792" lon="10.9256500062">
		<tag k="name" v="Hagaputten" />
		<tag k="natural" v="water" />
		<tag k="ssr:stedsnr" v="360617" />
	</node>
	<node id="-268956" lat="60.3866916701" lon="10.9834972306">
		<tag k="name" v="Geitryggbekken" />
		<tag k="ssr:stedsnr" v="831595" />
		<tag k="waterway" v="stream" />
	</node>
	<node id="-268399" lat="60.3578944418" lon="10.9752027692">
		<tag k="name" v="Vesleelva" />
		<tag k="ssr:stedsnr" v="67570" />
		<tag k="waterway" v="stream" />
	</node>
	<node id="-268951" lat="60.4247333343" lon="10.8497083277">
		<tag k="name" v="Slåttbekken" />
		<tag k="ssr:stedsnr" v="831225" />
		<tag k="waterway" v="stream" />
	</node>
	<node id="-268438" lat="60.4010694471" lon="10.939186103">
		<tag k="name" v="Middagskolltjenn" />
>>>>>>> e1d4bc35ff8a6074a6f2e91616a996b547c36f15
		<tag k="natural" v="water" />
		<tag k="ssr:stedsnr" v="103820" />
	</node>
<<<<<<< HEAD
	<node lat="60.44972777918858" lon="10.92565000619208" id="-16016">
		<tag k="name" v="Hagaputten" />
		<tag k="natural" v="water" />
		<tag k="ssr:stedsnr" v="360617" />
	</node>
	<node lat="60.459877777842344" lon="10.916322227888253" id="-16017">
		<tag k="name" v="Bergebekken" />
		<tag k="ssr:stedsnr" v="361830" />
		<tag k="waterway" v="stream" />
	</node>
	<node lat="60.431666662790136" lon="11.097008328350741" id="-16022">
		<tag k="name" v="Grovstjennbekken" />
		<tag k="ssr:stedsnr" v="362474" />
		<tag k="waterway" v="stream" />
	</node>
	<node lat="60.3817722250087" lon="11.032874993705118" id="-16023">
		<tag k="name" v="Myrbekken" />
		<tag k="ssr:stedsnr" v="362562" />
		<tag k="waterway" v="stream" />
	</node>
	<node lat="60.475900002079676" lon="10.845149993998339" id="-16026">
		<tag k="name" v="Vesle Svartungen" />
		<tag k="natural" v="water" />
		<tag k="ssr:stedsnr" v="370747" />
	</node>
	<node lat="60.430911109629164" lon="11.035613893887179" id="-16031">
		<tag k="alt_name" v="Buråstjennet" />
		<tag k="name" v="Buråstjenn" />
		<tag k="natural" v="water" />
		<tag k="ssr:stedsnr" v="370641" />
	</node>
	<node lat="60.40870277459825" lon="11.061263897335415" id="-16033">
		<tag k="name" v="Meieriodden" />
		<tag k="natural" v="cape" />
		<tag k="ssr:stedsnr" v="383946" />
	</node>
	<node lat="60.34803610930883" lon="11.04032500730429" id="-16034">
		<tag k="name" v="Hurdalssjøen" />
		<tag k="natural" v="water" />
		<tag k="ssr:stedsnr" v="384430" />
		<tag k="water" v="lake" />
	</node>
	<node lat="60.36587777912722" lon="10.925124991477087" id="-16035">
		<tag k="name" v="Øyangsvasan" />
		<tag k="place" v="islet" />
		<tag k="ssr:stedsnr" v="404734" />
	</node>
	<node lat="60.51294166611586" lon="11.054258334832067" id="-16039">
		<tag k="name" v="Kløfttjennet" />
		<tag k="natural" v="water" />
		<tag k="ssr:stedsnr" v="406122" />
	</node>
	<node lat="60.51618888535359" lon="11.070861108907224" id="-16041">
		<tag k="name" v="Fartangen" />
		<tag k="natural" v="cape" />
		<tag k="ssr:stedsnr" v="406128" />
	</node>
	<node lat="60.387897225339856" lon="10.931508341232307" id="-16048">
		<tag k="name" v="Kjerringrisputten" />
		<tag k="natural" v="water" />
		<tag k="ssr:stedsnr" v="406749" />
	</node>
	<node lat="60.38750833578445" lon="10.942736107443933" id="-16050">
		<tag k="name" v="Våterudsdalsputten" />
		<tag k="natural" v="water" />
		<tag k="ssr:stedsnr" v="406752" />
	</node>
	<node lat="60.413102774723676" lon="11.12688888967077" id="-16051">
		<tag k="name" v="Svarthølsvika" />
		<tag k="natural" v="bay" />
		<tag k="ssr:stedsnr" v="406756" />
	</node>
	<node lat="60.4189805567572" lon="10.900891664684542" id="-16055">
		<tag k="name" v="Steinbekken" />
		<tag k="ssr:stedsnr" v="406179" />
		<tag k="waterway" v="stream" />
	</node>
	<node lat="60.418736113287146" lon="10.903674996321222" id="-16056">
		<tag k="name" v="Knuthølbekken" />
		<tag k="ssr:stedsnr" v="406185" />
		<tag k="waterway" v="stream" />
	</node>
	<node lat="60.44950833390956" lon="10.921547227298566" id="-16072">
		<tag k="name" v="Brunborghella" />
		<tag k="place" v="islet" />
		<tag k="ssr:stedsnr" v="421627" />
	</node>
	<node lat="60.44804444773735" lon="10.909772213598341" id="-16074">
		<tag k="name" v="Fjellsjøputten" />
		<tag k="natural" v="water" />
		<tag k="ssr:stedsnr" v="421637" />
	</node>
	<node lat="60.45040832877904" lon="10.80918889644252" id="-16081">
		<tag k="name" v="Sibilrudbekken" />
		<tag k="ssr:stedsnr" v="423469" />
		<tag k="waterway" v="stream" />
	</node>
	<node lat="60.418677777987824" lon="10.924824997639423" id="-16089">
		<tag k="name" v="Fløyta" />
		<tag k="natural" v="bay" />
		<tag k="ssr:stedsnr" v="431629" />
	</node>
	<node lat="60.33666389028489" lon="11.101163895469998" id="-16097">
		<tag k="name" v="Langtonsand" />
		<tag k="natural" v="beach" />
		<tag k="ssr:stedsnr" v="525745" />
	</node>
	<node lat="60.51286666347838" lon="11.05809721881675" id="-16103">
		<tag k="name" v="Lomtjennbekken" />
		<tag k="ssr:stedsnr" v="527124" />
		<tag k="waterway" v="stream" />
	</node>
	<node lat="60.362166666012314" lon="11.002458341103036" id="-16109">
		<tag k="name" v="Nordgardsbekken" />
		<tag k="ssr:stedsnr" v="527538" />
		<tag k="waterway" v="stream" />
	</node>
	<node lat="60.44220277360429" lon="10.709675007528165" id="-16111">
		<tag k="name" v="Lustjennsbekken" />
		<tag k="ssr:stedsnr" v="527763" />
		<tag k="waterway" v="stream" />
	</node>
	<node lat="60.41115833376566" lon="10.899111114490662" id="-16115">
		<tag k="name" v="Knuthølbekken" />
		<tag k="ssr:stedsnr" v="527836" />
		<tag k="waterway" v="stream" />
	</node>
	<node lat="60.38976944479553" lon="11.076819451223908" id="-16120">
		<tag k="name" v="Sandsbråtebekken" />
		<tag k="ssr:stedsnr" v="527820" />
		<tag k="waterway" v="stream" />
	</node>
	<node lat="60.443872222695276" lon="11.086108328537396" id="-16127">
		<tag k="name" v="Damtjennsbekken" />
		<tag k="ssr:stedsnr" v="540887" />
		<tag k="waterway" v="stream" />
	</node>
	<node lat="60.44356111456048" lon="10.941555560500221" id="-16130">
		<tag k="name" v="Fjellsjødammen" />
		<tag k="ssr:stedsnr" v="542623" />
		<tag k="waterway" v="dam" />
	</node>
	<node lat="60.446638885484944" lon="10.916305553520477" id="-16131">
		<tag k="name" v="Lauvoddvika" />
		<tag k="natural" v="bay" />
		<tag k="ssr:stedsnr" v="542624" />
	</node>
	<node lat="60.42696389287307" lon="11.12741111742689" id="-16134">
		<tag k="name" v="Kuvika" />
		<tag k="natural" v="bay" />
		<tag k="ssr:stedsnr" v="544460" />
	</node>
	<node lat="60.434494448371005" lon="10.954788883298743" id="-16148">
		<tag k="name" v="Fåtjenn" />
		<tag k="natural" v="water" />
		<tag k="ssr:stedsnr" v="552696" />
	</node>
	<node lat="60.44580555777114" lon="10.988499994618572" id="-16162">
		<tag k="name" v="Skjortungsbekken" />
		<tag k="ssr:stedsnr" v="587143" />
		<tag k="waterway" v="stream" />
	</node>
	<node lat="60.41452777441793" lon="11.132194438457832" id="-16175">
		<tag k="name" v="Søndre Dælholen" />
		<tag k="natural" v="cape" />
		<tag k="ssr:stedsnr" v="601443" />
	</node>
	<node lat="60.38522777466599" lon="11.043505550737551" id="-16186">
		<tag k="name" v="Rudsgrunna" />
		<tag k="natural" v="shoal" />
		<tag k="place" v="locality" />
		<tag k="ssr:stedsnr" v="604983" />
	</node>
	<node lat="60.36739668811264" lon="10.932909061014843" id="-16192">
		<tag k="name" v="Kverntjenn" />
		<tag k="natural" v="water" />
		<tag k="ssr:stedsnr" v="612566" />
	</node>
	<node lat="60.381930559303896" lon="10.95454166166012" id="-16195">
		<tag k="name" v="Vesttjenn" />
		<tag k="natural" v="water" />
		<tag k="ssr:stedsnr" v="612584" />
	</node>
	<node lat="60.38257500313771" lon="10.943300009142828" id="-16196">
		<tag k="name" v="Våterudsbekken" />
		<tag k="ssr:stedsnr" v="612589" />
		<tag k="waterway" v="stream" />
	</node>
	<node lat="60.44788888761498" lon="11.112772213972775" id="-16198">
		<tag k="name" v="Aklangen" />
		<tag k="natural" v="water" />
		<tag k="ssr:stedsnr" v="612479" />
		<tag k="water" v="lake" />
	</node>
	<node lat="60.4361027739022" lon="10.94005555462004" id="-16199">
		<tag k="name" v="Kalvtjenn" />
		<tag k="natural" v="water" />
		<tag k="ssr:stedsnr" v="612648" />
	</node>
	<node lat="60.4451555535541" lon="10.75941666701242" id="-16200">
		<tag k="name" v="Svartbekken" />
		<tag k="ssr:stedsnr" v="612655" />
		<tag k="waterway" v="stream" />
	</node>
	<node lat="60.515786108349175" lon="11.068733338766618" id="-16207">
		<tag k="name" v="Steinsjøen" />
		<tag k="natural" v="water" />
		<tag k="ssr:stedsnr" v="613697" />
		<tag k="water" v="lake" />
	</node>
	<node lat="60.34731111048696" lon="10.958449998178077" id="-16209">
		<tag k="name" v="Huldertjenn" />
		<tag k="natural" v="water" />
		<tag k="ssr:stedsnr" v="646758" />
	</node>
	<node lat="60.50753610790803" lon="11.077977773910295" id="-16214">
		<tag k="name" v="Tjennsputtbekken" />
		<tag k="ssr:stedsnr" v="648146" />
		<tag k="waterway" v="stream" />
	</node>
	<node lat="60.501836108814686" lon="11.060913894285827" id="-16215">
		<tag k="name" v="Midttjennet" />
		<tag k="natural" v="water" />
		<tag k="ssr:stedsnr" v="648020" />
	</node>
	<node lat="60.50190277716974" lon="11.06548888746123" id="-16217">
		<tag k="name" v="Veslefløyta" />
		<tag k="natural" v="water" />
		<tag k="ssr:stedsnr" v="648121" />
		<tag k="water" v="lake" />
	</node>
	<node lat="60.414780551273864" lon="10.968733333934805" id="-16219">
		<tag k="name" v="Skillebekken" />
		<tag k="ssr:stedsnr" v="648222" />
		<tag k="waterway" v="stream" />
	</node>
	<node lat="60.3930388877825" lon="11.123419437638335" id="-16225">
		<tag k="name" v="Putten" />
		<tag k="natural" v="water" />
		<tag k="ssr:stedsnr" v="648753" />
	</node>
	<node lat="60.385697217734304" lon="11.07176944892201" id="-16235">
		<tag k="name" v="Nordseterberget" />
		<tag k="natural" v="cape" />
		<tag k="ssr:stedsnr" v="648817" />
	</node>
	<node lat="60.39949444683727" lon="11.051424998746498" id="-16237">
		<tag k="name" v="Flavika" />
		<tag k="natural" v="bay" />
		<tag k="ssr:stedsnr" v="648884" />
	</node>
	<node lat="60.37568888929003" lon="11.07488888225392" id="-16240">
		<tag k="name" v="Lortbrudalsbekken" />
		<tag k="ssr:stedsnr" v="648931" />
		<tag k="waterway" v="stream" />
	</node>
	<node lat="60.46544166598547" lon="11.000888888453227" id="-16254">
		<tag k="name" v="Blåbærdalsbekken" />
		<tag k="ssr:stedsnr" v="664872" />
		<tag k="waterway" v="stream" />
	</node>
	<node lat="60.45634166990077" lon="10.949591664198413" id="-16255">
		<tag k="name" v="Bladtjern" />
=======
	<node id="-268948" lat="60.4184527741" lon="10.9227833411">
		<tag k="name" v="Korpodden" />
		<tag k="natural" v="cape" />
		<tag k="ssr:stedsnr" v="831185" />
	</node>
	<node id="-268739" lat="60.4735249974" lon="11.0609916669">
		<tag k="name" v="Røbekkauren" />
		<tag k="place" v="locality" />
		<tag k="ssr:stedsnr" v="543217" />
	</node>
	<node id="-267919" lat="60.4434083295" lon="10.8494055502">
		<tag k="name" v="Skandøla" />
		<tag k="ssr:stedsnr" v="491672" />
		<tag k="waterway" v="river" />
	</node>
	<node id="-268909" lat="60.3909305585" lon="11.048400009">
		<tag k="name" v="Sandsodden" />
		<tag k="natural" v="cape" />
		<tag k="ssr:stedsnr" v="795615" />
	</node>
	<node id="-268428" lat="60.445288893" lon="11.0156444407">
		<tag k="name" v="Kvernbekken" />
		<tag k="ssr:stedsnr" v="102792" />
		<tag k="waterway" v="stream" />
	</node>
	<node id="-267915" lat="60.4410000017" lon="10.9458916643">
		<tag k="name" v="Fjellsjøelva" />
		<tag k="ssr:stedsnr" v="491658" />
		<tag k="waterway" v="stream" />
	</node>
	<node id="-267914" lat="60.4593111155" lon="11.044522229">
		<tag k="name" v="Hurdalselva" />
		<tag k="ssr:stedsnr" v="491650" />
		<tag k="waterway" v="river" />
	</node>
	<node id="-268937" lat="60.4547111088" lon="10.8785249974">
		<tag k="alt_name" v="Peikko-Lähde" />
		<tag k="name" v="Trollila" />
		<tag k="natural" v="spring" />
		<tag k="ssr:stedsnr" v="829290" />
	</node>
	<node id="-268525" lat="60.4394027781" lon="10.868661115">
		<tag k="name" v="Granodden" />
		<tag k="natural" v="cape" />
		<tag k="ssr:stedsnr" v="181391" />
	</node>
	<node id="-268423" lat="60.4335999967" lon="10.808216668">
		<tag k="name" v="Langmyrbekken" />
		<tag k="ssr:stedsnr" v="102234" />
		<tag k="waterway" v="stream" />
	</node>
	<node id="-267909" lat="60.379661108" lon="11.0369138875">
		<tag k="name" v="Skriverholmen" />
		<tag k="place" v="islet" />
		<tag k="ssr:stedsnr" v="491583" />
	</node>
	<node id="-267908" lat="60.4915527738" lon="10.692838897">
		<tag k="name" v="Lomtjenn" />
		<tag k="natural" v="water" />
		<tag k="ssr:stedsnr" v="491329" />
	</node>
	<node id="-268419" lat="60.4277999982" lon="10.97146666">
		<tag k="name" v="Kjerringputten" />
		<tag k="natural" v="water" />
		<tag k="ssr:stedsnr" v="102146" />
	</node>
	<node id="-268418" lat="60.503663888" lon="11.0595555637">
		<tag k="name" v="Tjennslitjennet" />
		<tag k="natural" v="water" />
		<tag k="ssr:stedsnr" v="102112" />
	</node>
	<node id="-268929" lat="60.4913499986" lon="11.0269250059">
		<tag k="fixme" v="multiple name tags, choose one and add the other to alt_name" />
		<tag k="name" v="Merraputten;Merratjennet" />
		<tag k="natural" v="water" />
		<tag k="ssr:stedsnr" v="795746" />
	</node>
	<node id="-268927" lat="60.4701749988" lon="10.921952772">
		<tag k="name" v="Blankputten" />
		<tag k="natural" v="water" />
		<tag k="ssr:stedsnr" v="795725" />
	</node>
	<node id="-268985" lat="60.385480553" lon="11.0193499912">
		<tag k="name" v="Steinbråtebekken" />
		<tag k="ssr:stedsnr" v="848579" />
		<tag k="waterway" v="stream" />
	</node>
	<node id="-268426" lat="60.4236000033" lon="10.8836666734">
		<tag k="name" v="Brunmyrbekken" />
		<tag k="ssr:stedsnr" v="102268" />
		<tag k="waterway" v="stream" />
	</node>
	<node id="-268408" lat="60.4524555555" lon="11.089877771">
		<tag k="name" v="Opperudtjenn" />
		<tag k="natural" v="water" />
		<tag k="ssr:stedsnr" v="67672" />
	</node>
	<node id="-267893" lat="60.4257083292" lon="10.7974972276">
		<tag k="name" v="Fuglåsputten" />
		<tag k="natural" v="water" />
		<tag k="ssr:stedsnr" v="345216" />
		<tag k="water" v="pond" />
	</node>
	<node id="-267892" lat="60.4194805565" lon="10.9570111047">
		<tag k="name" v="Fløyta" />
		<tag k="natural" v="water" />
		<tag k="ssr:stedsnr" v="345207" />
		<tag k="water" v="lake" />
	</node>
	<node id="-268478" lat="60.4724638867" lon="10.72170833">
		<tag k="alt_name" v="Hagetjenn" />
		<tag k="name" v="Haketjenn" />
		<tag k="natural" v="water" />
		<tag k="ssr:stedsnr" v="127742" />
	</node>
	<node id="-267889" lat="60.44560833" lon="10.8200999941">
		<tag k="name" v="Liseterkulpen" />
		<tag k="place" v="locality" />
		<tag k="ssr:stedsnr" v="484388" />
	</node>
	<node id="-267757" lat="60.3939250029" lon="10.9989472253">
		<tag k="alt_name" v="Nysetertjenn" />
		<tag k="name" v="Nysætertjenn" />
		<tag k="natural" v="water" />
		<tag k="ssr:stedsnr" v="127631" />
	</node>
	<node id="-268911" lat="60.4166222186" lon="10.9175916672">
		<tag k="alt_name" v="Sørseterbekken" />
		<tag k="name" v="Sørsæterbekken" />
		<tag k="ssr:stedsnr" v="795649" />
		<tag k="waterway" v="stream" />
	</node>
	<node id="-267886" lat="60.4555999972" lon="10.9058138945">
		<tag k="name" v="Fjellhammerbekken" />
		<tag k="ssr:stedsnr" v="481648" />
		<tag k="waterway" v="stream" />
	</node>
	<node id="-267885" lat="60.4498861074" lon="10.9283888844">
		<tag k="name" v="Hagavika" />
		<tag k="natural" v="bay" />
		<tag k="ssr:stedsnr" v="481646" />
	</node>
	<node id="-268396" lat="60.3795833304" lon="11.1193472285">
		<tag k="alt_name" v="Krafttjenn" />
		<tag k="name" v="Krafttjennet" />
		<tag k="natural" v="water" />
		<tag k="ssr:stedsnr" v="67047" />
	</node>
	<node id="-268907" lat="60.4717750032" lon="10.7062277768">
		<tag k="name" v="Grandalsbekken" />
		<tag k="ssr:stedsnr" v="795229" />
		<tag k="waterway" v="stream" />
	</node>
	<node id="-268649" lat="60.4189805568" lon="10.9008916647">
		<tag k="name" v="Steinbekken" />
		<tag k="ssr:stedsnr" v="406179" />
		<tag k="waterway" v="stream" />
	</node>
	<node id="-268393" lat="60.4654638872" lon="10.8886583348">
		<tag k="name" v="Rogntjenn" />
		<tag k="natural" v="water" />
		<tag k="ssr:stedsnr" v="66664" />
	</node>
	<node id="-268392" lat="60.4612944401" lon="10.8682999991">
		<tag k="alt_name" v="Damtjennsbekken" />
		<tag k="name" v="Damtjennbekken" />
		<tag k="ssr:stedsnr" v="66663" />
		<tag k="waterway" v="stream" />
	</node>
	<node id="-267879" lat="60.3461499971" lon="11.1061055531">
		<tag k="name" v="Skillebekken" />
		<tag k="old_name" v="Snøplogbekken" />
		<tag k="ssr:stedsnr" v="479083" />
		<tag k="waterway" v="stream" />
	</node>
	<node id="-268389" lat="60.4377666671" lon="10.8397611131">
		<tag k="name" v="Rajebekken" />
		<tag k="ssr:stedsnr" v="59429" />
		<tag k="waterway" v="stream" />
	</node>
	<node id="-267876" lat="60.4340611125" lon="11.1272944437">
		<tag k="name" v="Holmen" />
		<tag k="place" v="islet" />
		<tag k="ssr:stedsnr" v="302470" />
	</node>
	<node id="-268897" lat="60.4476527741" lon="10.9195472139">
		<tag k="name" v="Lauvodden" />
		<tag k="natural" v="cape" />
		<tag k="ssr:stedsnr" v="785606" />
	</node>
	<node id="-268560" lat="60.4247361087" lon="11.0294888857">
		<tag k="name" v="Buråsbekken" />
		<tag k="ssr:stedsnr" v="301040" />
		<tag k="waterway" v="stream" />
	</node>
	<node id="-268319" lat="60.3608111143" lon="11.1031361145">
		<tag k="alt_name" v="Totjenn" />
		<tag k="name" v="Totjenna" />
		<tag k="natural" v="water" />
		<tag k="ssr:stedsnr" v="6072" />
		<tag k="water" v="lake" />
	</node>
	<node id="-267867" lat="60.4122055568" lon="10.8694083308">
		<tag k="name" v="Sovarhaugbekken" />
		<tag k="ssr:stedsnr" v="467834" />
		<tag k="waterway" v="stream" />
	</node>
	<node id="-267865" lat="60.3766944412" lon="10.9605388861">
		<tag k="name" v="Rauørputten" />
		<tag k="natural" v="water" />
		<tag k="ssr:stedsnr" v="467748" />
	</node>
	<node id="-267864" lat="60.3596861123" lon="10.9719194482">
		<tag k="name" v="Fløyta" />
		<tag k="natural" v="water" />
		<tag k="ssr:stedsnr" v="467524" />
		<tag k="water" v="lake" />
	</node>
	<node id="-268388" lat="60.4365055549" lon="10.867733327">
		<tag k="name" v="Brennodden" />
		<tag k="place" v="islet" />
		<tag k="ssr:stedsnr" v="59423" />
	</node>
	<node id="-267705" lat="60.4184305578" lon="11.1240388855">
		<tag k="name" v="Hytteholmen" />
		<tag k="place" v="islet" />
		<tag k="ssr:stedsnr" v="237459" />
	</node>
	<node id="-268302" lat="60.4956638927" lon="11.0819888825">
		<tag k="name" v="Vangentjenn" />
		<tag k="natural" v="water" />
		<tag k="ssr:stedsnr" v="916771" />
	</node>
	<node id="-268367" lat="60.393336109" lon="10.9829944471">
		<tag k="name" v="Merratjenn" />
		<tag k="natural" v="water" />
		<tag k="ssr:stedsnr" v="42792" />
	</node>
	<node id="-268983" lat="60.444213891" lon="10.7782527751">
		<tag k="name" v="Østre Djupdalsbekken" />
		<tag k="ssr:stedsnr" v="848436" />
		<tag k="waterway" v="stream" />
	</node>
	<node id="-268300" lat="60.4928500028" lon="10.7413249962">
		<tag k="name" v="Malsjøbekken" />
		<tag k="ssr:stedsnr" v="916767" />
		<tag k="waterway" v="stream" />
	</node>
	<node id="-268351" lat="60.4285527773" lon="10.8789222203">
		<tag k="name" v="Skimyrbekken" />
		<tag k="ssr:stedsnr" v="41211" />
		<tag k="waterway" v="stream" />
	</node>
	<node id="-268861" lat="60.3614861089" lon="10.9356916736">
		<tag k="name" v="Andtjenn" />
		<tag k="natural" v="water" />
		<tag k="ssr:stedsnr" v="768780" />
	</node>
	<node id="-268346" lat="60.4898833352" lon="10.9911972312">
		<tag k="alt_name" v="Brennsæterelva" />
		<tag k="name" v="Brennseterelva" />
		<tag k="ssr:stedsnr" v="25135" />
		<tag k="waterway" v="river" />
	</node>
	<node id="-268345" lat="60.361080028" lon="11.0953572813">
		<tag k="alt_name" v="Lomtjenn" />
		<tag k="name" v="Lomtjennet" />
		<tag k="natural" v="water" />
		<tag k="ssr:stedsnr" v="20980" />
	</node>
	<node id="-268856" lat="60.3856972177" lon="11.0717694489">
		<tag k="name" v="Nordseterberget" />
		<tag k="natural" v="cape" />
		<tag k="ssr:stedsnr" v="648817" />
	</node>
	<node id="-268850" lat="60.3930388878" lon="11.1234194376">
		<tag k="name" v="Putten" />
		<tag k="natural" v="water" />
		<tag k="ssr:stedsnr" v="648753" />
	</node>
	<node id="-267825" lat="60.3559805595" lon="10.9269166664">
		<tag k="name" v="Bjørkevika" />
		<tag k="natural" v="bay" />
		<tag k="ssr:stedsnr" v="343792" />
	</node>
	<node id="-267820" lat="60.3732777805" lon="10.9644694486">
		<tag k="name" v="Rauørbekken" />
		<tag k="ssr:stedsnr" v="285712" />
		<tag k="waterway" v="stream" />
	</node>
	<node id="-267817" lat="60.4522861072" lon="10.754802779">
		<tag k="name" v="Røsåsbekken" />
		<tag k="ssr:stedsnr" v="181455" />
		<tag k="waterway" v="stream" />
	</node>
	<node id="-268840" lat="60.4147805513" lon="10.9687333339">
		<tag k="name" v="Skillebekken" />
		<tag k="ssr:stedsnr" v="648222" />
		<tag k="waterway" v="stream" />
	</node>
	<node id="-268837" lat="60.5018361088" lon="11.0609138943">
		<tag k="name" v="Midttjennet" />
		<tag k="natural" v="water" />
		<tag k="ssr:stedsnr" v="648020" />
	</node>
	<node id="-267812" lat="60.5121611113" lon="11.0733916727">
		<tag k="name" v="Steinsjøputten" />
		<tag k="natural" v="bay" />
		<tag k="ssr:stedsnr" v="285144" />
	</node>
	<node id="-267811" lat="60.5113111136" lon="11.0453222262">
		<tag k="name" v="Lomtjennet" />
>>>>>>> e1d4bc35ff8a6074a6f2e91616a996b547c36f15
		<tag k="natural" v="water" />
		<tag k="ssr:stedsnr" v="285127" />
	</node>
<<<<<<< HEAD
	<node lat="60.43854166348203" lon="11.122772218085725" id="-16264">
		<tag k="name" v="Kaffehella" />
		<tag k="natural" v="cape" />
		<tag k="ssr:stedsnr" v="722902" />
	</node>
	<node lat="60.41823055690469" lon="10.94614722078126" id="-16279">
		<tag k="alt_name" v="Gjødingselva" />
		<tag k="name" v="Gjødingelva" />
		<tag k="ssr:stedsnr" v="734649" />
		<tag k="waterway" v="river" />
	</node>
	<node lat="60.36148610887266" lon="10.935691673585628" id="-16284">
		<tag k="name" v="Andtjenn" />
		<tag k="natural" v="water" />
		<tag k="ssr:stedsnr" v="768780" />
	</node>
	<node lat="60.366419447677394" lon="10.98659722020225" id="-16299">
		<tag k="name" v="Bakkeputten" />
		<tag k="natural" v="water" />
		<tag k="ssr:stedsnr" v="770539" />
	</node>
	<node lat="60.471775003161355" lon="10.706227776750916" id="-16325">
		<tag k="name" v="Grandalsbekken" />
		<tag k="ssr:stedsnr" v="795229" />
		<tag k="waterway" v="stream" />
	</node>
	<node lat="60.416202779776164" lon="11.130705554623882" id="-16326">
		<tag k="name" v="Dæla" />
		<tag k="natural" v="strait" />
		<tag k="ssr:stedsnr" v="795531" />
	</node>
	<node lat="60.41662221856508" lon="10.917591667211022" id="-16333">
		<tag k="alt_name" v="Sørseterbekken" />
		<tag k="name" v="Sørsæterbekken" />
		<tag k="ssr:stedsnr" v="795649" />
		<tag k="waterway" v="stream" />
	</node>
	<node lat="60.49134999859975" lon="11.02692500592855" id="-16335">
		<tag k="fixme" v="multiple name tags, choose one and add the other to alt_name" />
		<tag k="name" v="Merraputten;Merratjennet" />
		<tag k="natural" v="water" />
		<tag k="ssr:stedsnr" v="795746" />
	</node>
	<node lat="60.4547111088335" lon="10.878524997377399" id="-16338">
		<tag k="alt_name" v="Peikko-Lähde" />
		<tag k="name" v="Trollila" />
		<tag k="natural" v="spring" />
		<tag k="ssr:stedsnr" v="829290" />
	</node>
	<node lat="60.41845277408979" lon="10.922783341085456" id="-16346">
		<tag k="name" v="Korpodden" />
		<tag k="natural" v="cape" />
		<tag k="ssr:stedsnr" v="831185" />
	</node>
	<node lat="60.42473333430999" lon="10.849708327747617" id="-16348">
		<tag k="name" v="Slåttbekken" />
		<tag k="ssr:stedsnr" v="831225" />
		<tag k="waterway" v="stream" />
	</node>
	<node lat="60.38669167007856" lon="10.98349723063045" id="-16350">
		<tag k="name" v="Geitryggbekken" />
		<tag k="ssr:stedsnr" v="831595" />
		<tag k="waterway" v="stream" />
	</node>
	<node lat="60.39416110935682" lon="11.07506667302824" id="-16359">
		<tag k="name" v="Nordvika" />
		<tag k="natural" v="bay" />
		<tag k="ssr:stedsnr" v="831866" />
	</node>
	<node lat="60.375780553152495" lon="11.08341944770681" id="-16360">
		<tag k="name" v="Seterbekken" />
		<tag k="ssr:stedsnr" v="831916" />
		<tag k="waterway" v="stream" />
	</node>
	<node lat="60.444213890974595" lon="10.77825277508541" id="-16368">
		<tag k="name" v="Østre Djupdalsbekken" />
		<tag k="ssr:stedsnr" v="848436" />
		<tag k="waterway" v="stream" />
	</node>
	<node lat="60.385480552993656" lon="11.019349991222688" id="-16371">
		<tag k="name" v="Steinbråtebekken" />
		<tag k="ssr:stedsnr" v="848579" />
		<tag k="waterway" v="stream" />
	</node>
	<node lat="60.37119999692057" lon="11.095905548095459" id="-16373">
		<tag k="name" v="Kinna" />
		<tag k="natural" v="water" />
		<tag k="ssr:stedsnr" v="856053" />
	</node>
	<node lat="60.46023611319538" lon="10.787747220143983" id="-16376">
		<tag k="name" v="Ostelva" />
		<tag k="ssr:stedsnr" v="855726" />
		<tag k="waterway" v="stream" />
	</node>
	<node lat="60.47988888560453" lon="11.060102769381201" id="-16382">
		<tag k="name" v="Steinsjøelva" />
		<tag k="ssr:stedsnr" v="856719" />
		<tag k="waterway" v="river" />
	</node>
	<node lat="60.47156388802499" lon="10.745474995685106" id="-16383">
		<tag k="name" v="Svarttjenn" />
		<tag k="natural" v="water" />
		<tag k="ssr:stedsnr" v="856722" />
	</node>
	<node lat="60.471905552374025" lon="10.899111106809999" id="-16384">
		<tag k="alt_name" v="Rødsteinstjennet" />
		<tag k="name" v="Rødsteintjenn" />
		<tag k="natural" v="water" />
		<tag k="ssr:stedsnr" v="856724" />
	</node>
	<node lat="60.42547778115729" lon="10.947908329636158" id="-16390">
		<tag k="name" v="Geitbergbekken" />
		<tag k="ssr:stedsnr" v="952193" />
		<tag k="waterway" v="stream" />
=======
	<node id="-268322" lat="60.3647194479" lon="10.9699555618">
		<tag k="name" v="Heggetjenn" />
		<tag k="natural" v="water" />
		<tag k="ssr:stedsnr" v="6568" />
	</node>
	<node id="-268833" lat="60.4262416642" lon="10.9101083295">
		<tag k="name" v="Torvbekken" />
		<tag k="ssr:stedsnr" v="648194" />
		<tag k="waterway" v="stream" />
	</node>
	<node id="-268831" lat="60.5075361079" lon="11.0779777739">
		<tag k="name" v="Tjennsputtbekken" />
		<tag k="ssr:stedsnr" v="648146" />
		<tag k="waterway" v="stream" />
	</node>
	<node id="-268403" lat="60.482949996" lon="10.7420305537">
		<tag k="name" v="Malsjøen" />
		<tag k="natural" v="water" />
		<tag k="ssr:stedsnr" v="67734" />
	</node>
	<node id="-267805" lat="60.4972111155" lon="10.9929777692">
		<tag k="name" v="Tjennsputten" />
		<tag k="natural" v="water" />
		<tag k="ssr:stedsnr" v="285014" />
	</node>
	<node id="-268828" lat="60.3473111105" lon="10.9584499982">
		<tag k="name" v="Huldertjenn" />
		<tag k="natural" v="water" />
		<tag k="ssr:stedsnr" v="646758" />
	</node>
	<node id="-267802" lat="60.4502444408" lon="10.902883339">
		<tag k="name" v="Steinodden" />
		<tag k="natural" v="cape" />
		<tag k="ssr:stedsnr" v="178618" />
	</node>
	<node id="-268825" lat="60.5157861083" lon="11.0687333388">
		<tag k="name" v="Steinsjøen" />
		<tag k="natural" v="water" />
		<tag k="ssr:stedsnr" v="613697" />
		<tag k="water" v="lake" />
	</node>
	<node id="-267800" lat="60.4292888926" lon="10.8656111055">
		<tag k="name" v="Edelgranbekken" />
		<tag k="ssr:stedsnr" v="284224" />
		<tag k="waterway" v="stream" />
	</node>
	<node id="-268377" lat="60.4176111103" lon="11.1292527763">
		<tag k="name" v="Nordre Dælholen" />
		<tag k="natural" v="cape" />
		<tag k="ssr:stedsnr" v="55425" />
	</node>
	<node id="-267795" lat="60.4295583336" lon="10.8566500062">
		<tag k="name" v="Skjeggerudbekken" />
		<tag k="ssr:stedsnr" v="284177" />
		<tag k="waterway" v="stream" />
	</node>
	<node id="-268305" lat="60.4169500039" lon="10.995074996">
		<tag k="name" v="Vesleelvfossen" />
		<tag k="natural" v="waterfall" />
		<tag k="ssr:stedsnr" v="952212" />
	</node>
	<node id="-268304" lat="60.499466667" lon="11.0620388823">
		<tag k="name" v="Andtjenn" />
		<tag k="natural" v="water" />
		<tag k="ssr:stedsnr" v="952039" />
	</node>
	<node id="-268815" lat="60.4451555536" lon="10.759416667">
		<tag k="name" v="Svartbekken" />
		<tag k="ssr:stedsnr" v="612655" />
		<tag k="waterway" v="stream" />
	</node>
	<node id="-268814" lat="60.4361027739" lon="10.9400555546">
		<tag k="name" v="Kalvtjenn" />
		<tag k="natural" v="water" />
		<tag k="ssr:stedsnr" v="612648" />
	</node>
	<node id="-268301" lat="60.488038885" lon="10.7709666719">
		<tag k="alt_name" v="Auretjenn" />
		<tag k="name" v="Aurtjenn" />
		<tag k="natural" v="water" />
		<tag k="ssr:stedsnr" v="916768" />
	</node>
	<node id="-268812" lat="60.4478888876" lon="11.112772214">
		<tag k="name" v="Aklangen" />
		<tag k="natural" v="water" />
		<tag k="ssr:stedsnr" v="612479" />
		<tag k="water" v="lake" />
	</node>
	<node id="-267787" lat="60.4479000025" lon="10.8538055641">
		<tag k="name" v="Vollengbekken" />
		<tag k="ssr:stedsnr" v="283237" />
		<tag k="waterway" v="stream" />
	</node>
	<node id="-268296" lat="60.3769499966" lon="11.0510083388">
		<tag k="name" v="Haugnesvika" />
		<tag k="natural" v="bay" />
		<tag k="ssr:stedsnr" v="916580" />
	</node>
	<node id="-268293" lat="60.4228611067" lon="11.1035083421">
		<tag k="name" v="Bundlibekken" />
		<tag k="ssr:stedsnr" v="916521" />
		<tag k="waterway" v="stream" />
	</node>
	<node id="-268630" lat="60.4713388865" lon="10.8699333245">
		<tag k="name" v="Vesle Damtjenn" />
		<tag k="natural" v="water" />
		<tag k="ssr:stedsnr" v="370724" />
	</node>
	<node id="-268802" lat="60.4379638907" lon="11.006613892">
		<tag k="name" v="Hundputten" />
		<tag k="natural" v="water" />
		<tag k="ssr:stedsnr" v="602657" />
>>>>>>> e1d4bc35ff8a6074a6f2e91616a996b547c36f15
	</node>
	<node lat="60.402813886519745" lon="11.046386102057308" id="-16396">
		<tag k="name" v="Røystjennet" />
		<tag k="natural" v="water" />
		<tag k="ssr:stedsnr" v="952866" />
	</node>
</osm>
