<?xml version="1.0" encoding="UTF-8"?>
<osm version="0.6" generator="osmapis">
	<node lat="58.11968332953262" lon="8.209738890383738" id="-31127">
		<tag k="name" v="Indre Ulvøya" />
		<tag k="place" v="island" />
		<tag k="ssr:stedsnr" v="512" />
	</node>
	<node lat="58.234782279450144" lon="8.36656207274877" id="-31131">
		<tag k="name" v="Slåttholmen" />
		<tag k="place" v="islet" />
		<tag k="ssr:stedsnr" v="261" />
	</node>
	<node lat="58.23054722653646" lon="8.36008611348018" id="-31133">
		<tag k="name" v="Steinholmen" />
		<tag k="place" v="islet" />
		<tag k="ssr:stedsnr" v="298" />
	</node>
	<node lat="58.21807222601126" lon="8.389975003078296" id="-31137">
		<tag k="name" v="Justøygavlen" />
		<tag k="natural" v="cape" />
		<tag k="ssr:stedsnr" v="460" />
	</node>
	<node lat="58.17548889096982" lon="8.303213894579784" id="-31141">
		<tag k="name" v="Øygholmen" />
		<tag k="place" v="islet" />
		<tag k="ssr:stedsnr" v="594" />
	</node>
	<node lat="58.17510555990506" lon="8.21884444182123" id="-31142">
		<tag k="name" v="Hestholmen" />
		<tag k="place" v="islet" />
		<tag k="ssr:stedsnr" v="596" />
	</node>
	<node lat="58.16673055429655" lon="8.307513889998347" id="-31143">
		<tag k="name" v="Klåholmen" />
		<tag k="place" v="islet" />
		<tag k="ssr:stedsnr" v="600" />
	</node>
	<node lat="58.15099722552197" lon="8.283208332972073" id="-31144">
		<tag k="name" v="Hvalholmsund" />
		<tag k="natural" v="strait" />
		<tag k="ssr:stedsnr" v="21042" />
	</node>
	<node lat="58.11515000084168" lon="8.265652776867695" id="-31145">
		<tag k="name" v="Hummerbåen" />
		<tag k="place" v="locality" />
		<tag k="seamark:type" v="rock" />
		<tag k="ssr:stedsnr" v="21336" />
	</node>
	<node lat="58.11182222058298" lon="8.221541660187114" id="-31147">
		<tag k="name" v="Lille Ertholmen" />
		<tag k="place" v="islet" />
		<tag k="ssr:stedsnr" v="21347" />
	</node>
	<node lat="58.200013891388394" lon="8.254888887601501" id="-31149">
		<tag k="name" v="Brennevinsbukta" />
		<tag k="natural" v="bay" />
		<tag k="ssr:stedsnr" v="21714" />
	</node>
	<node lat="58.23338055620661" lon="8.419086119048318" id="-31150">
		<tag k="name" v="Lille Malmbukta" />
		<tag k="natural" v="bay" />
		<tag k="ssr:stedsnr" v="21752" />
	</node>
	<node lat="58.14551667000659" lon="8.191183330825268" id="-31151">
		<tag k="name" v="Rovodden" />
		<tag k="natural" v="cape" />
		<tag k="ssr:stedsnr" v="21586" />
	</node>
	<node lat="58.24263055969392" lon="8.430908331231368" id="-31152">
		<tag k="name" v="Kjelleholmen" />
		<tag k="place" v="islet" />
		<tag k="ssr:stedsnr" v="21675" />
	</node>
	<node lat="58.183030552083544" lon="8.348591671510642" id="-31153">
		<tag k="name" v="Lille Melkebøtta" />
		<tag k="natural" v="shoal" />
		<tag k="place" v="locality" />
		<tag k="ssr:stedsnr" v="21692" />
	</node>
	<node lat="58.25722500163395" lon="8.42830556363519" id="-31155">
		<tag k="name" v="Buviga" />
		<tag k="natural" v="bay" />
		<tag k="ssr:stedsnr" v="21837" />
	</node>
	<node lat="58.21554722346649" lon="8.390436115622009" id="-31157">
		<tag k="name" v="Danehavn" />
		<tag k="natural" v="bay" />
		<tag k="ssr:stedsnr" v="21847" />
	</node>
	<node lat="58.29668333690947" lon="8.444091661507391" id="-31158">
		<tag k="name" v="Verven" />
		<tag k="natural" v="beach" />
		<tag k="ssr:stedsnr" v="21849" />
	</node>
	<node lat="58.11329722285337" lon="8.201244444416263" id="-31162">
		<tag k="name" v="Lille Krogsund" />
		<tag k="natural" v="strait" />
		<tag k="ssr:stedsnr" v="21988" />
	</node>
	<node lat="58.11294999578172" lon="8.204852777625089" id="-31163">
		<tag k="name" v="Stongholmen" />
		<tag k="place" v="islet" />
		<tag k="ssr:stedsnr" v="21989" />
	</node>
	<node lat="58.21412499986138" lon="8.315530553142287" id="-31170">
		<tag k="name" v="Vragviga" />
		<tag k="natural" v="bay" />
		<tag k="ssr:stedsnr" v="22005" />
	</node>
	<node lat="58.17478055514185" lon="8.274544438006034" id="-31173">
		<tag k="name" v="Øreslandsdybingen" />
		<tag k="natural" v="bay" />
		<tag k="ssr:stedsnr" v="22041" />
	</node>
	<node lat="58.15996111128226" lon="8.200441661460328" id="-31182">
		<tag k="fixme" v="consider seamark:type=rock or natural=shoal" />
		<tag k="name" v="Utslo" />
		<tag k="place" v="islet" />
		<tag k="ssr:stedsnr" v="22186" />
	</node>
	<node lat="58.17382499789743" lon="8.298041658317569" id="-31194">
		<tag k="name" v="Hummerviga" />
		<tag k="natural" v="bay" />
		<tag k="ssr:stedsnr" v="22446" />
	</node>
	<node lat="58.1871027798178" lon="8.308552773554698" id="-31195">
		<tag k="name" v="Odden" />
		<tag k="natural" v="cape" />
		<tag k="ssr:stedsnr" v="22450" />
	</node>
	<node lat="58.21491666919432" lon="8.341152786076654" id="-31200">
		<tag k="name" v="Kvernhuskilen" />
		<tag k="natural" v="bay" />
		<tag k="ssr:stedsnr" v="22890" />
	</node>
	<node lat="58.10939444163128" lon="8.202788889331687" id="-31202">
		<tag k="name" v="Fugleholmane" />
		<tag k="place" v="islet" />
		<tag k="ssr:stedsnr" v="58780" />
	</node>
	<node lat="58.24224444375728" lon="8.443336113694604" id="-31203">
		<tag k="name" v="Kattholmen" />
		<tag k="place" v="islet" />
		<tag k="ssr:stedsnr" v="60270" />
	</node>
	<node lat="58.200927780358064" lon="8.312461107280358" id="-31207">
		<tag k="name" v="Jonsøya" />
		<tag k="place" v="islet" />
		<tag k="ssr:stedsnr" v="60384" />
	</node>
	<node lat="58.12306110676289" lon="8.251697228933542" id="-31213">
		<tag k="name" v="Ramsøya" />
		<tag k="place" v="island" />
		<tag k="ssr:stedsnr" v="61496" />
	</node>
	<node lat="58.16428888846191" lon="8.281744448116354" id="-31214">
		<tag k="name" v="Småholmane" />
		<tag k="place" v="islet" />
		<tag k="ssr:stedsnr" v="61605" />
	</node>
	<node lat="58.16863055681318" lon="8.223622229850676" id="-31215">
		<tag k="name" v="Årsneskilen" />
		<tag k="natural" v="strait" />
		<tag k="ssr:stedsnr" v="61607" />
	</node>
	<node lat="58.19817499584699" lon="8.295125005833457" id="-31222">
		<tag k="name" v="Store Vedderstøholmen" />
		<tag k="place" v="islet" />
		<tag k="ssr:stedsnr" v="242374" />
	</node>
	<node lat="58.20945555330296" lon="8.378097226441584" id="-31223">
		<tag k="name" v="Kåvig" />
		<tag k="natural" v="bay" />
		<tag k="ssr:stedsnr" v="242446" />
	</node>
	<node lat="58.237502780130164" lon="8.439236114445597" id="-31234">
		<tag k="name" v="Havsteinen" />
		<tag k="place" v="islet" />
		<tag k="ssr:stedsnr" v="243301" />
	</node>
	<node lat="58.24111944584627" lon="8.394574996609013" id="-31235">
		<tag k="name" v="Høyholmen" />
		<tag k="place" v="islet" />
		<tag k="ssr:stedsnr" v="243305" />
	</node>
	<node lat="58.19014359694613" lon="8.325474621977824" id="-31236">
		<tag k="name" v="Meholmen" />
		<tag k="place" v="islet" />
		<tag k="ssr:stedsnr" v="243387" />
	</node>
	<node lat="58.20582777437755" lon="8.379266659312211" id="-31241">
		<tag k="name" v="Båersholmen" />
		<tag k="place" v="islet" />
		<tag k="ssr:stedsnr" v="243408" />
	</node>
	<node lat="58.11679444560705" lon="8.22201944740898" id="-31243">
		<tag k="name" v="Mågeholmen" />
		<tag k="place" v="islet" />
		<tag k="ssr:stedsnr" v="243510" />
	</node>
	<node lat="58.11923889269768" lon="8.227408327529263" id="-31244">
		<tag k="name" v="Lyngholmen" />
		<tag k="place" v="islet" />
		<tag k="ssr:stedsnr" v="243511" />
	</node>
	<node lat="58.11094721926528" lon="8.213302785903252" id="-31245">
		<tag k="name" v="Ytre Ulvøya" />
		<tag k="place" v="island" />
		<tag k="ssr:stedsnr" v="243528" />
	</node>
	<node lat="58.117344445660024" lon="8.25600000655441" id="-31246">
		<tag k="name" v="Fugleholmane" />
		<tag k="place" v="islet" />
		<tag k="ssr:stedsnr" v="243530" />
	</node>
	<node lat="58.196819442417116" lon="8.338797214787611" id="-31250">
		<tag k="name" v="Kraviga" />
		<tag k="natural" v="bay" />
		<tag k="ssr:stedsnr" v="82012" />
	</node>
	<node lat="58.14650832930586" lon="8.263383339148573" id="-31255">
		<tag k="name" v="Helløyholmen" />
		<tag k="place" v="islet" />
		<tag k="ssr:stedsnr" v="82189" />
	</node>
	<node lat="58.16129444475001" lon="8.240894448645903" id="-31264">
		<tag k="name" v="Seiholmane" />
		<tag k="place" v="islet" />
		<tag k="ssr:stedsnr" v="82345" />
	</node>
	<node lat="58.15476667091226" lon="8.205372230450868" id="-31267">
		<tag k="name" v="Breivig" />
		<tag k="natural" v="bay" />
		<tag k="ssr:stedsnr" v="82209" />
	</node>
	<node lat="58.162458335480984" lon="8.197816668861446" id="-31268">
		<tag k="name" v="Risegerholmen" />
		<tag k="place" v="islet" />
		<tag k="ssr:stedsnr" v="82212" />
	</node>
	<node lat="58.16291388488392" lon="8.193183326940025" id="-31271">
		<tag k="name" v="Hundstangen" />
		<tag k="natural" v="cape" />
		<tag k="ssr:stedsnr" v="82217" />
	</node>
	<node lat="58.15810555133126" lon="8.187738885920236" id="-31272">
		<tag k="name" v="Husnes" />
		<tag k="natural" v="cape" />
		<tag k="ssr:stedsnr" v="82220" />
	</node>
	<node lat="58.163752779491595" lon="8.286933329831504" id="-31275">
		<tag k="fixme" v="consider seamark:type=rock or natural=shoal" />
		<tag k="name" v="Småholmskjeret" />
		<tag k="place" v="islet" />
		<tag k="ssr:stedsnr" v="82513" />
	</node>
	<node lat="58.172258336375585" lon="8.316938882048433" id="-31276">
		<tag k="name" v="Vestre Grønningsgrunnen" />
		<tag k="natural" v="shoal" />
		<tag k="place" v="locality" />
		<tag k="ssr:stedsnr" v="82518" />
	</node>
	<node lat="58.14957222249402" lon="8.268297216694025" id="-31279">
		<tag k="name" v="Gunderske holmen" />
		<tag k="place" v="islet" />
		<tag k="ssr:stedsnr" v="82581" />
	</node>
	<node lat="58.19318889021991" lon="8.325819447682665" id="-31280">
		<tag k="name" v="Sauholmen" />
		<tag k="place" v="islet" />
		<tag k="ssr:stedsnr" v="82707" />
	</node>
	<node lat="58.19548333006764" lon="8.395744448068918" id="-31281">
		<tag k="name" v="Steinen" />
		<tag k="natural" v="shoal" />
		<tag k="place" v="locality" />
		<tag k="ssr:stedsnr" v="82716" />
	</node>
	<node lat="58.236833335425" lon="8.413230550336756" id="-31282">
		<tag k="name" v="Kompeskjerhola" />
		<tag k="natural" v="bay" />
		<tag k="ssr:stedsnr" v="82724" />
	</node>
	<node lat="58.23668888659697" lon="8.402788887355904" id="-31283">
		<tag k="name" v="Ytre Langøya" />
		<tag k="natural" v="cape" />
		<tag k="ssr:stedsnr" v="82726" />
	</node>
	<node lat="58.23451666254801" lon="8.425608335880453" id="-31284">
		<tag k="fixme" v="consider seamark:type=rock or natural=shoal" />
		<tag k="name" v="Rottholmen" />
		<tag k="place" v="islet" />
		<tag k="ssr:stedsnr" v="82733" />
	</node>
	<node lat="58.235961107003895" lon="8.37608333515592" id="-31285">
		<tag k="name" v="Bergshavodden" />
		<tag k="natural" v="cape" />
		<tag k="ssr:stedsnr" v="82614" />
	</node>
	<node lat="58.216255553192454" lon="8.33592499834569" id="-31286">
		<tag k="fixme" v="consider seamark:type=rock or natural=shoal" />
		<tag k="name" v="Kavringen" />
		<tag k="place" v="islet" />
		<tag k="ssr:stedsnr" v="82622" />
	</node>
	<node lat="58.242125003271155" lon="8.428794449023712" id="-31289">
		<tag k="fixme" v="consider seamark:type=rock or natural=shoal" />
		<tag k="name" v="Kjelleholmskjæra" />
		<tag k="place" v="islet" />
		<tag k="ssr:stedsnr" v="82638" />
	</node>
	<node lat="58.20841944497184" lon="8.327500008026602" id="-31290">
		<tag k="name" v="Røssnes" />
		<tag k="natural" v="cape" />
		<tag k="ssr:stedsnr" v="82686" />
	</node>
	<node lat="58.18988333223063" lon="8.341538888508229" id="-31291">
		<tag k="name" v="Lille Mannholmen" />
		<tag k="place" v="islet" />
		<tag k="ssr:stedsnr" v="82649" />
	</node>
	<node lat="58.10073055738644" lon="8.220677781124506" id="-31299">
		<tag k="name" v="Furegrunnen" />
		<tag k="natural" v="shoal" />
		<tag k="place" v="locality" />
		<tag k="ssr:stedsnr" v="83906" />
	</node>
	<node lat="58.15122499708167" lon="8.3307583257501" id="-31300">
		<tag k="name" v="Runken" />
		<tag k="natural" v="shoal" />
		<tag k="place" v="locality" />
		<tag k="ssr:stedsnr" v="83908" />
	</node>
	<node lat="58.237602781945796" lon="8.426538890230434" id="-31304">
		<tag k="name" v="Humløya" />
		<tag k="place" v="islet" />
		<tag k="ssr:stedsnr" v="121311" />
	</node>
	<node lat="58.233877775311704" lon="8.383530563685309" id="-31306">
		<tag k="name" v="Skauerøya" />
		<tag k="place" v="island" />
		<tag k="ssr:stedsnr" v="121316" />
	</node>
	<node lat="58.183972221913585" lon="8.20607222144513" id="-31310">
		<tag k="bay" v="fjord" />
		<tag k="name" v="Isefjærfjorden" />
		<tag k="natural" v="bay" />
		<tag k="ssr:stedsnr" v="121415" />
	</node>
	<node lat="58.15927499762669" lon="8.297616669257831" id="-31313">
		<tag k="name" v="Skyllholmen" />
		<tag k="place" v="islet" />
		<tag k="ssr:stedsnr" v="121565" />
	</node>
	<node lat="58.15329166312183" lon="8.277702778757003" id="-31314">
		<tag k="name" v="Ytre Tronderøya" />
		<tag k="place" v="island" />
		<tag k="ssr:stedsnr" v="121567" />
	</node>
	<node lat="58.15930088419349" lon="8.282309793082153" id="-31315">
		<tag k="name" v="Kjeholmane" />
		<tag k="place" v="islet" />
		<tag k="ssr:stedsnr" v="121569" />
	</node>
	<node lat="58.14051666976854" lon="8.238272220566182" id="-31317">
		<tag k="name" v="Hellekilen" />
		<tag k="natural" v="bay" />
		<tag k="ssr:stedsnr" v="121588" />
	</node>
	<node lat="58.17591666571578" lon="8.234497214352174" id="-31321">
		<tag k="name" v="Øreslandskilen" />
		<tag k="natural" v="bay" />
		<tag k="ssr:stedsnr" v="142089" />
	</node>
	<node lat="58.18303055260742" lon="8.201219443606707" id="-31326">
		<tag k="name" v="Lille Erviga" />
		<tag k="natural" v="bay" />
		<tag k="ssr:stedsnr" v="142113" />
	</node>
	<node lat="58.140441382755355" lon="8.272196671910168" id="-31329">
		<tag k="name" v="Store Mågholmen" />
		<tag k="place" v="islet" />
		<tag k="ssr:stedsnr" v="142184" />
	</node>
	<node lat="58.14025833192185" lon="8.196894443900318" id="-31331">
		<tag k="name" v="Store Torskerumpa" />
		<tag k="place" v="islet" />
		<tag k="ssr:stedsnr" v="142541" />
	</node>
	<node lat="58.10815277972458" lon="8.212569440283591" id="-31332">
		<tag k="fixme" v="consider seamark:type=rock or natural=shoal" />
		<tag k="name" v="Østre Kleveskjær" />
		<tag k="place" v="islet" />
		<tag k="ssr:stedsnr" v="142547" />
	</node>
	<node lat="58.20721944473813" lon="8.326983326013575" id="-31337">
		<tag k="name" v="Rossnes" />
		<tag k="natural" v="cape" />
		<tag k="ssr:stedsnr" v="142458" />
	</node>
	<node lat="58.2031000006864" lon="8.373419437336956" id="-31338">
		<tag k="name" v="Hersviga" />
		<tag k="natural" v="bay" />
		<tag k="ssr:stedsnr" v="142461" />
	</node>
	<node lat="58.190252776688055" lon="8.351124993373034" id="-31339">
		<tag k="name" v="Ytre havn" />
		<tag k="place" v="locality" />
		<tag k="seamark:type" v="rock" />
		<tag k="ssr:stedsnr" v="142467" />
	</node>
	<node lat="58.17018333758638" lon="8.234619443059424" id="-31340">
		<tag k="name" v="Breiviga" />
		<tag k="natural" v="bay" />
		<tag k="ssr:stedsnr" v="142490" />
	</node>
	<node lat="58.15625000160206" lon="8.282861106498045" id="-31341">
		<tag k="name" v="Styrsholmsanden" />
		<tag k="natural" v="beach" />
		<tag k="ssr:stedsnr" v="142492" />
	</node>
	<node lat="58.23907777454814" lon="8.384655552191642" id="-31342">
		<tag k="name" v="Ivershola" />
		<tag k="natural" v="bay" />
		<tag k="ssr:stedsnr" v="142631" />
	</node>
	<node lat="58.206094442416635" lon="8.384030563207471" id="-31349">
		<tag k="name" v="Eigegrunnen" />
		<tag k="natural" v="shoal" />
		<tag k="place" v="locality" />
		<tag k="ssr:stedsnr" v="142841" />
	</node>
	<node lat="58.25764999574335" lon="8.433416665750423" id="-31353">
		<tag k="name" v="Kalnes" />
		<tag k="natural" v="cape" />
		<tag k="ssr:stedsnr" v="142852" />
	</node>
	<node lat="58.20878333006764" lon="8.311069439939475" id="-31354">
		<tag k="name" v="Indre Klauva" />
		<tag k="natural" v="bay" />
		<tag k="ssr:stedsnr" v="142703" />
	</node>
	<node lat="58.12524166896434" lon="8.24110833235535" id="-31358">
		<tag k="name" v="Andeskjærtangen" />
		<tag k="natural" v="cape" />
		<tag k="ssr:stedsnr" v="142906" />
	</node>
	<node lat="58.11674722156343" lon="8.245699994329778" id="-31363">
		<tag k="name" v="Strømholmen" />
		<tag k="place" v="islet" />
		<tag k="ssr:stedsnr" v="142881" />
	</node>
	<node lat="58.19443611130534" lon="8.320911111406842" id="-31369">
		<tag k="name" v="Store Beltesholmen" />
		<tag k="place" v="islet" />
		<tag k="ssr:stedsnr" v="143317" />
	</node>
	<node lat="58.222751837101974" lon="8.434341028729516" id="-31372">
		<tag k="name" v="Ytre Malmgrunnen" />
		<tag k="natural" v="shoal" />
		<tag k="place" v="locality" />
		<tag k="ssr:stedsnr" v="143890" />
	</node>
	<node lat="58.24373611184749" lon="8.391444448734127" id="-31373">
		<tag k="name" v="Lille Lamholmen" />
		<tag k="place" v="islet" />
		<tag k="ssr:stedsnr" v="324643" />
	</node>
	<node lat="58.237552777482854" lon="8.40123611306501" id="-31378">
		<tag k="name" v="Langøya" />
		<tag k="place" v="islet" />
		<tag k="ssr:stedsnr" v="182302" />
	</node>
	<node lat="58.18654166860826" lon="8.325866665346572" id="-31379">
		<tag k="name" v="Burholmen" />
		<tag k="place" v="islet" />
		<tag k="ssr:stedsnr" v="182404" />
	</node>
	<node lat="58.19009722486426" lon="8.347944541231833" id="-31381">
		<tag k="name" v="Risholmen" />
		<tag k="place" v="islet" />
		<tag k="ssr:stedsnr" v="182415" />
	</node>
	<node lat="58.19379999915899" lon="8.356138886683134" id="-31382">
		<tag k="name" v="Store Sandvigholmen" />
		<tag k="place" v="islet" />
		<tag k="ssr:stedsnr" v="182417" />
	</node>
	<node lat="58.21387222560641" lon="8.356538892427984" id="-31383">
		<tag k="name" v="Justøya" />
		<tag k="place" v="island" />
		<tag k="ssr:stedsnr" v="182431" />
	</node>
	<node lat="58.22027500167906" lon="8.383794441273636" id="-31384">
		<tag k="name" v="Ronnsholmen" />
		<tag k="place" v="islet" />
		<tag k="ssr:stedsnr" v="182440" />
	</node>
	<node lat="58.20547222329507" lon="8.37415833567712" id="-31386">
		<tag k="name" v="Honnsviga" />
		<tag k="natural" v="bay" />
		<tag k="ssr:stedsnr" v="182398" />
	</node>
	<node lat="58.12424444640072" lon="8.243983339336323" id="-31387">
		<tag k="name" v="Ramsøysund" />
		<tag k="natural" v="strait" />
		<tag k="ssr:stedsnr" v="182515" />
	</node>
	<node lat="58.14884284743744" lon="8.313518424619318" id="-31391">
		<tag k="name" v="Tronderøyholmen" />
		<tag k="place" v="islet" />
		<tag k="ssr:stedsnr" v="182535" />
	</node>
	<node lat="58.21063333240616" lon="8.322169448598762" id="-31395">
		<tag k="name" v="Stisund" />
		<tag k="natural" v="strait" />
		<tag k="ssr:stedsnr" v="264004" />
	</node>
	<node lat="58.20790277331819" lon="8.325116659064896" id="-31396">
		<tag k="name" v="Haukholmen" />
		<tag k="place" v="islet" />
		<tag k="ssr:stedsnr" v="264007" />
	</node>
	<node lat="58.13306666989808" lon="8.280730562992051" id="-31398">
		<tag k="name" v="Lille Grønningen" />
		<tag k="place" v="islet" />
		<tag k="ssr:stedsnr" v="264020" />
	</node>
	<node lat="58.107252779383195" lon="8.197933333864937" id="-31401">
		<tag k="name" v="Tavlane" />
		<tag k="place" v="islet" />
		<tag k="ssr:stedsnr" v="263770" />
	</node>
	<node lat="58.112630558809606" lon="8.228655557544846" id="-31408">
		<tag k="name" v="Jakobs knadde" />
		<tag k="natural" v="shoal" />
		<tag k="place" v="locality" />
		<tag k="ssr:stedsnr" v="264330" />
	</node>
	<node lat="58.176305554722106" lon="8.297841664282013" id="-31412">
		<tag k="name" v="Buhusholmen" />
		<tag k="place" v="islet" />
		<tag k="ssr:stedsnr" v="264460" />
	</node>
	<node lat="58.193522226027675" lon="8.2844055522664" id="-31413">
		<tag k="name" v="Lusekilen" />
		<tag k="natural" v="bay" />
		<tag k="ssr:stedsnr" v="264462" />
	</node>
	<node lat="58.20581388732001" lon="8.281991662553752" id="-31414">
		<tag k="name" v="Høydalsbukta" />
		<tag k="natural" v="bay" />
		<tag k="ssr:stedsnr" v="264035" />
	</node>
	<node lat="58.15571388806274" lon="8.29269167450252" id="-31417">
		<tag k="name" v="Mågeholmen" />
		<tag k="place" v="islet" />
		<tag k="ssr:stedsnr" v="264045" />
	</node>
	<node lat="58.145080559826475" lon="8.272163890948029" id="-31421">
		<tag k="name" v="Lille Risholmen" />
		<tag k="place" v="islet" />
		<tag k="ssr:stedsnr" v="264157" />
	</node>
	<node lat="58.20310000258155" lon="8.264780562292373" id="-31424">
		<tag k="name" v="Bjørnviga" />
		<tag k="natural" v="bay" />
		<tag k="ssr:stedsnr" v="264126" />
	</node>
	<node lat="58.12082778099348" lon="8.276236104513696" id="-31435">
		<tag k="name" v="Steinen" />
		<tag k="natural" v="shoal" />
		<tag k="place" v="locality" />
		<tag k="ssr:stedsnr" v="264358" />
	</node>
	<node lat="58.137755559423134" lon="8.245083326141437" id="-31438">
		<tag k="name" v="Lindenes" />
		<tag k="natural" v="cape" />
		<tag k="ssr:stedsnr" v="264170" />
	</node>
	<node lat="58.24858610987868" lon="8.440599994980175" id="-31440">
		<tag k="fixme" v="consider seamark:type=rock or natural=shoal" />
		<tag k="name" v="Fladeskjer" />
		<tag k="place" v="islet" />
		<tag k="ssr:stedsnr" v="264816" />
	</node>
	<node lat="58.14367222172896" lon="8.196527783980125" id="-31443">
		<tag k="name" v="Ytre Breiviga" />
		<tag k="natural" v="bay" />
		<tag k="ssr:stedsnr" v="264913" />
	</node>
	<node lat="58.184380553719265" lon="8.304736110096309" id="-31446">
		<tag k="name" v="Dybviga" />
		<tag k="natural" v="bay" />
		<tag k="ssr:stedsnr" v="264470" />
	</node>
	<node lat="58.213652773926704" lon="8.333761113650276" id="-31447">
		<tag k="bay" v="fjord" />
		<tag k="name" v="Nesefjorden" />
		<tag k="natural" v="bay" />
		<tag k="ssr:stedsnr" v="264473" />
	</node>
	<node lat="58.2098472203301" lon="8.38195833894085" id="-31448">
		<tag k="name" v="Saltviga" />
		<tag k="natural" v="bay" />
		<tag k="ssr:stedsnr" v="264475" />
	</node>
	<node lat="58.18256389052096" lon="8.275269447016148" id="-31449">
		<tag k="name" v="Haugevigkilen" />
		<tag k="natural" v="bay" />
		<tag k="ssr:stedsnr" v="264480" />
	</node>
	<node lat="58.19217777427646" lon="8.313811111604236" id="-31450">
		<tag k="name" v="Tåreslandsbukta" />
		<tag k="natural" v="bay" />
		<tag k="ssr:stedsnr" v="264554" />
	</node>
	<node lat="58.149047221074575" lon="8.191183341776204" id="-31451">
		<tag k="name" v="Eskeviga" />
		<tag k="natural" v="bay" />
		<tag k="ssr:stedsnr" v="264563" />
	</node>
	<node lat="58.15212777711535" lon="8.254211116940425" id="-31453">
		<tag k="fixme" v="consider seamark:type=rock or natural=shoal" />
		<tag k="name" v="Daudmannsskjær" />
		<tag k="place" v="islet" />
		<tag k="ssr:stedsnr" v="264574" />
	</node>
	<node lat="58.19091667019972" lon="8.346594449766476" id="-31454">
		<tag k="name" v="Gaupholmsund" />
		<tag k="natural" v="strait" />
		<tag k="ssr:stedsnr" v="264656" />
	</node>
	<node lat="58.184163887730094" lon="8.378144448806477" id="-31455">
		<tag k="name" v="Mellom Steingrunnene" />
		<tag k="natural" v="shoal" />
		<tag k="place" v="locality" />
		<tag k="ssr:stedsnr" v="264668" />
	</node>
	<node lat="58.17371110801628" lon="8.305563885271148" id="-31456">
		<tag k="name" v="Lille Øygholmen" />
		<tag k="place" v="islet" />
		<tag k="ssr:stedsnr" v="264670" />
	</node>
	<node lat="58.179013884893415" lon="8.219277777269056" id="-31458">
		<tag k="name" v="Neset" />
		<tag k="natural" v="cape" />
		<tag k="ssr:stedsnr" v="264526" />
	</node>
	<node lat="58.180605554459085" lon="8.217280547412631" id="-31459">
		<tag k="name" v="Skyllsund" />
		<tag k="natural" v="strait" />
		<tag k="ssr:stedsnr" v="264528" />
	</node>
	<node lat="58.194413890703956" lon="8.30459166497133" id="-31461">
		<tag k="name" v="Flesisara" />
		<tag k="natural" v="cape" />
		<tag k="ssr:stedsnr" v="264531" />
	</node>
	<node lat="58.15475832913009" lon="8.328466664479436" id="-31462">
		<tag k="name" v="Fladegrunnen" />
		<tag k="natural" v="shoal" />
		<tag k="place" v="locality" />
		<tag k="ssr:stedsnr" v="264534" />
	</node>
	<node lat="58.1986499986812" lon="8.318847219917293" id="-31465">
		<tag k="name" v="Hellersøytangen" />
		<tag k="natural" v="cape" />
		<tag k="ssr:stedsnr" v="264701" />
	</node>
	<node lat="58.12323888834866" lon="8.256627786052556" id="-31468">
		<tag k="name" v="Store Ramsøybuktklova" />
		<tag k="natural" v="bay" />
		<tag k="ssr:stedsnr" v="264884" />
	</node>
	<node lat="58.12734444509068" lon="8.206586109585604" id="-31471">
		<tag k="name" v="Kjøbmannviga" />
		<tag k="natural" v="bay" />
		<tag k="ssr:stedsnr" v="264980" />
	</node>
	<node lat="58.12677499769161" lon="8.204852773629357" id="-31472">
		<tag k="name" v="Kjøbmannvigholmane" />
		<tag k="place" v="islet" />
		<tag k="ssr:stedsnr" v="264983" />
	</node>
	<node lat="58.11437499823998" lon="8.214488883512535" id="-31476">
		<tag k="name" v="Lille Makrellviga" />
		<tag k="natural" v="bay" />
		<tag k="ssr:stedsnr" v="203348" />
	</node>
	<node lat="58.124666670863384" lon="8.291455558448423" id="-31480">
		<tag k="name" v="Grønningshausen" />
		<tag k="natural" v="shoal" />
		<tag k="place" v="locality" />
		<tag k="ssr:stedsnr" v="203617" />
	</node>
	<node lat="58.18864722332556" lon="8.392594441501592" id="-31483">
		<tag k="name" v="Skjeregrunnen" />
		<tag k="natural" v="shoal" />
		<tag k="place" v="locality" />
		<tag k="ssr:stedsnr" v="203693" />
	</node>
	<node lat="58.17720000056824" lon="8.302497213832545" id="-31485">
		<tag k="name" v="Lille Sandsund" />
		<tag k="natural" v="strait" />
		<tag k="ssr:stedsnr" v="203550" />
	</node>
	<node lat="58.188163889987116" lon="8.29961945173269" id="-31486">
		<tag k="name" v="Flesiklauva" />
		<tag k="natural" v="bay" />
		<tag k="ssr:stedsnr" v="203705" />
	</node>
	<node lat="58.21229444729501" lon="8.318169443968362" id="-31488">
		<tag k="name" v="Skolemesterklova" />
		<tag k="natural" v="bay" />
		<tag k="ssr:stedsnr" v="203726" />
	</node>
	<node lat="58.19782500036673" lon="8.30020833081439" id="-31489">
		<tag k="name" v="Nilsholmen" />
		<tag k="place" v="islet" />
		<tag k="ssr:stedsnr" v="203727" />
	</node>
	<node lat="58.141233334635174" lon="8.26271111402456" id="-31493">
		<tag k="name" v="Nordre Lyngholmen" />
		<tag k="place" v="islet" />
		<tag k="ssr:stedsnr" v="204106" />
	</node>
	<node lat="58.169252777683816" lon="8.23565833914105" id="-31494">
		<tag k="name" v="Torborgnes" />
		<tag k="natural" v="cape" />
		<tag k="ssr:stedsnr" v="204153" />
	</node>
	<node lat="58.13051944568319" lon="8.242852778773251" id="-31495">
		<tag k="name" v="Tenneviga" />
		<tag k="natural" v="bay" />
		<tag k="ssr:stedsnr" v="204117" />
	</node>
	<node lat="58.18140277455459" lon="8.219708341861253" id="-31501">
		<tag k="name" v="Kallandstrand" />
		<tag k="natural" v="beach" />
		<tag k="ssr:stedsnr" v="204047" />
	</node>
	<node lat="58.17365833046076" lon="8.227730556204216" id="-31503">
		<tag k="name" v="Krossodden" />
		<tag k="natural" v="cape" />
		<tag k="ssr:stedsnr" v="204054" />
	</node>
	<node lat="58.24243611163923" lon="8.45246943618665" id="-31505">
		<tag k="fixme" v="consider seamark:type=rock or natural=shoal" />
		<tag k="name" v="Langeskjer" />
		<tag k="place" v="islet" />
		<tag k="ssr:stedsnr" v="204207" />
	</node>
	<node lat="58.18505277932273" lon="8.300716660734627" id="-31514">
		<tag k="name" v="Furøysund" />
		<tag k="natural" v="strait" />
		<tag k="ssr:stedsnr" v="204409" />
	</node>
	<node lat="58.192586114102475" lon="8.362638894307537" id="-31515">
		<tag k="name" v="Lille Sandvigholmen" />
		<tag k="place" v="islet" />
		<tag k="ssr:stedsnr" v="204422" />
	</node>
	<node lat="58.10700833048689" lon="8.197233327599351" id="-31519">
		<tag k="name" v="Lille Tavlane" />
		<tag k="place" v="islet" />
		<tag k="ssr:stedsnr" v="204907" />
	</node>
	<node lat="58.143774997900195" lon="8.211941663315967" id="-31520">
		<tag k="name" v="Hesleviga" />
		<tag k="natural" v="bay" />
		<tag k="ssr:stedsnr" v="204913" />
	</node>
	<node lat="58.251172224337495" lon="8.436780550082096" id="-31528">
		<tag k="name" v="Klingsundholmen" />
		<tag k="place" v="islet" />
		<tag k="ssr:stedsnr" v="204831" />
	</node>
	<node lat="58.2454416695931" lon="8.42514443655697" id="-31529">
		<tag k="name" v="Bjorviga" />
		<tag k="natural" v="bay" />
		<tag k="ssr:stedsnr" v="204838" />
	</node>
	<node lat="58.113411111390974" lon="8.21805278509846" id="-31531">
		<tag k="name" v="Løvodden" />
		<tag k="natural" v="cape" />
		<tag k="ssr:stedsnr" v="204989" />
	</node>
	<node lat="58.11911111397445" lon="8.213200000535691" id="-31532">
		<tag k="name" v="Østre Såviga" />
		<tag k="natural" v="bay" />
		<tag k="ssr:stedsnr" v="204996" />
	</node>
	<node lat="58.12128888460554" lon="8.218397223557975" id="-31533">
		<tag k="name" v="Okseviga" />
		<tag k="natural" v="bay" />
		<tag k="ssr:stedsnr" v="204999" />
	</node>
	<node lat="58.1812138910028" lon="8.29681945270371" id="-31535">
		<tag k="name" v="Furøya" />
		<tag k="place" v="island" />
		<tag k="ssr:stedsnr" v="242388" />
	</node>
	<node lat="58.172538885420664" lon="8.292483332178582" id="-31538">
		<tag k="name" v="Kalvøya" />
		<tag k="place" v="island" />
		<tag k="ssr:stedsnr" v="243606" />
	</node>
	<node lat="58.17761111099879" lon="8.21553611000241" id="-31543">
		<tag k="name" v="Kjøstveitholmen" />
		<tag k="place" v="islet" />
		<tag k="ssr:stedsnr" v="264091" />
	</node>
	<node lat="58.14959444359104" lon="8.240994448236092" id="-31547">
		<tag k="name" v="Åmlandsnes" />
		<tag k="natural" v="cape" />
		<tag k="ssr:stedsnr" v="264177" />
	</node>
	<node lat="58.17132499928802" lon="8.22483610512667" id="-31548">
		<tag k="name" v="Hovdodden" />
		<tag k="natural" v="cape" />
		<tag k="ssr:stedsnr" v="264189" />
	</node>
	<node lat="58.15481666367126" lon="8.239213888680688" id="-31549">
		<tag k="name" v="Knabesund" />
		<tag k="natural" v="strait" />
		<tag k="ssr:stedsnr" v="264197" />
	</node>
	<node lat="58.1616805599201" lon="8.21538055784785" id="-31550">
		<tag k="name" v="Vålane" />
		<tag k="natural" v="bay" />
		<tag k="ssr:stedsnr" v="264200" />
	</node>
	<node lat="58.109419441963" lon="8.200725006975116" id="-31552">
		<tag k="fixme" v="consider seamark:type=rock or natural=shoal" />
		<tag k="name" v="Greibeskjær" />
		<tag k="place" v="islet" />
		<tag k="ssr:stedsnr" v="264312" />
	</node>
	<node lat="58.12283333501378" lon="8.230130549817702" id="-31555">
		<tag k="name" v="Østre Våga" />
		<tag k="natural" v="bay" />
		<tag k="ssr:stedsnr" v="264319" />
	</node>
	<node lat="58.12176111113077" lon="8.218202777404006" id="-31556">
		<tag k="name" v="Oksevigpynten" />
		<tag k="natural" v="cape" />
		<tag k="ssr:stedsnr" v="264323" />
	</node>
	<node lat="58.19288888926268" lon="8.348944450142632" id="-31561">
		<tag k="name" v="Grisholmen" />
		<tag k="place" v="islet" />
		<tag k="ssr:stedsnr" v="264488" />
	</node>
	<node lat="58.18495833465279" lon="8.324086114764988" id="-31562">
		<tag k="name" v="Vardvigholmen" />
		<tag k="place" v="islet" />
		<tag k="ssr:stedsnr" v="264493" />
	</node>
	<node lat="58.222261113712605" lon="8.34913333586523" id="-31563">
		<tag k="name" v="Osten" />
		<tag k="natural" v="cape" />
		<tag k="ssr:stedsnr" v="264608" />
	</node>
	<node lat="58.24055277941917" lon="8.400822222119945" id="-31565">
		<tag k="name" v="Tjuvholmen" />
		<tag k="place" v="islet" />
		<tag k="ssr:stedsnr" v="264635" />
	</node>
	<node lat="58.174147225472325" lon="8.28484166024813" id="-31566">
		<tag k="name" v="Auen Vasiusholmen" />
		<tag k="place" v="islet" />
		<tag k="ssr:stedsnr" v="264543" />
	</node>
	<node lat="58.18424444272972" lon="8.285458340864288" id="-31567">
		<tag k="name" v="Kommandantodden" />
		<tag k="natural" v="cape" />
		<tag k="ssr:stedsnr" v="264546" />
	</node>
	<node lat="58.23365277646741" lon="8.372947216481053" id="-31568">
		<tag k="name" v="Langefanten" />
		<tag k="natural" v="beach" />
		<tag k="ssr:stedsnr" v="264599" />
	</node>
	<node lat="58.19481110986736" lon="8.344027769325457" id="-31569">
		<tag k="name" v="Hummersundholmen" />
		<tag k="place" v="islet" />
		<tag k="ssr:stedsnr" v="264707" />
	</node>
	<node lat="58.23498332898393" lon="8.403811108027925" id="-31570">
		<tag k="fixme" v="consider seamark:type=rock or natural=shoal" />
		<tag k="name" v="Langøyskjera" />
		<tag k="place" v="islet" />
		<tag k="ssr:stedsnr" v="264737" />
	</node>
	<node lat="58.236458330634505" lon="8.413336115639902" id="-31571">
		<tag k="fixme" v="consider seamark:type=rock or natural=shoal" />
		<tag k="name" v="Kompeskjer" />
		<tag k="place" v="islet" />
		<tag k="ssr:stedsnr" v="264742" />
	</node>
	<node lat="58.124580559763" lon="8.255880559965268" id="-31577">
		<tag k="name" v="Lille Ramsøybuktklova" />
		<tag k="natural" v="bay" />
		<tag k="ssr:stedsnr" v="264885" />
	</node>
	<node lat="58.23525833148165" lon="8.45518332849274" id="-31584">
		<tag k="name" v="Vintergrunnen" />
		<tag k="natural" v="shoal" />
		<tag k="place" v="locality" />
		<tag k="ssr:stedsnr" v="265897" />
	</node>
	<node lat="58.22963611147627" lon="8.442686111063388" id="-31585">
		<tag k="name" v="Knatten" />
		<tag k="natural" v="shoal" />
		<tag k="place" v="locality" />
		<tag k="ssr:stedsnr" v="265899" />
	</node>
	<node lat="58.22999722527953" lon="8.392205560706026" id="-31589">
		<tag k="name" v="Hestholmen" />
		<tag k="natural" v="cape" />
		<tag k="ssr:stedsnr" v="303273" />
	</node>
	<node lat="58.2294499994269" lon="8.420197221366626" id="-31590">
		<tag k="name" v="Store Malmen" />
		<tag k="place" v="islet" />
		<tag k="ssr:stedsnr" v="303274" />
	</node>
	<node lat="58.226930555938914" lon="8.380347230283126" id="-31592">
		<tag k="name" v="Asperøya" />
		<tag k="place" v="islet" />
		<tag k="ssr:stedsnr" v="303280" />
	</node>
	<node lat="58.18126897403366" lon="8.319482580640138" id="-31595">
		<tag k="name" v="Grønningen" />
		<tag k="place" v="islet" />
		<tag k="ssr:stedsnr" v="303402" />
	</node>
	<node lat="58.11563333026348" lon="8.25017777662728" id="-31598">
		<tag k="name" v="Kallen" />
		<tag k="place" v="islet" />
		<tag k="ssr:stedsnr" v="303533" />
	</node>
	<node lat="58.14423610705417" lon="8.206669439904974" id="-31599">
		<tag k="bay" v="fjord" />
		<tag k="name" v="Hæstaddybingen" />
		<tag k="natural" v="bay" />
		<tag k="ssr:stedsnr" v="303540" />
	</node>
	<node lat="58.138680554507424" lon="8.210355557169853" id="-31604">
		<tag k="name" v="Knaviga" />
		<tag k="natural" v="bay" />
		<tag k="ssr:stedsnr" v="304597" />
	</node>
	<node lat="58.1212361140285" lon="8.247427783033444" id="-31605">
		<tag k="name" v="Nibesundet" />
		<tag k="natural" v="strait" />
		<tag k="ssr:stedsnr" v="324375" />
	</node>
	<node lat="58.21140833559101" lon="8.298269437243146" id="-31606">
		<tag k="name" v="Nasledalsundet" />
		<tag k="natural" v="strait" />
		<tag k="ssr:stedsnr" v="324720" />
	</node>
	<node lat="58.23209166817528" lon="8.39322499226885" id="-31608">
		<tag k="name" v="Østre Hestholmbukta" />
		<tag k="natural" v="bay" />
		<tag k="ssr:stedsnr" v="324730" />
	</node>
	<node lat="58.237438887677534" lon="8.422969448850848" id="-31612">
		<tag k="name" v="Indre Humløybukta" />
		<tag k="natural" v="bay" />
		<tag k="ssr:stedsnr" v="324743" />
	</node>
	<node lat="58.22775277890921" lon="8.418469438364703" id="-31613">
		<tag k="name" v="Skarvskida" />
		<tag k="place" v="islet" />
		<tag k="ssr:stedsnr" v="324745" />
	</node>
	<node lat="58.1950722210002" lon="8.286233341593567" id="-31616">
		<tag k="name" v="Luseholmen" />
		<tag k="place" v="islet" />
		<tag k="ssr:stedsnr" v="325008" />
	</node>
	<node lat="58.197480551098884" lon="8.333358327947403" id="-31617">
		<tag k="name" v="Store Kattholmen" />
		<tag k="place" v="islet" />
		<tag k="ssr:stedsnr" v="325014" />
	</node>
	<node lat="58.15741666602942" lon="8.280522229945399" id="-31618">
		<tag k="name" v="Kverven" />
		<tag k="natural" v="bay" />
		<tag k="ssr:stedsnr" v="325021" />
	</node>
	<node lat="58.14938888788523" lon="8.264166674745587" id="-31625">
		<tag k="name" v="Tjuvvigodden" />
		<tag k="natural" v="cape" />
		<tag k="ssr:stedsnr" v="325155" />
	</node>
	<node lat="58.156308333692884" lon="8.19075556248084" id="-31626">
		<tag k="name" v="Krågeviga" />
		<tag k="natural" v="bay" />
		<tag k="ssr:stedsnr" v="325224" />
	</node>
	<node lat="58.22251666722179" lon="8.35303332997468" id="-31628">
		<tag k="loc_name" v="Dyvigbukta" />
		<tag k="name" v="Dybvigsbukta" />
		<tag k="natural" v="bay" />
		<tag k="ssr:stedsnr" v="325407" />
	</node>
	<node lat="58.12873610758071" lon="8.246030558848817" id="-31641">
		<tag k="fixme" v="consider seamark:type=rock or natural=shoal" />
		<tag k="name" v="Målkeskjær" />
		<tag k="place" v="islet" />
		<tag k="ssr:stedsnr" v="325872" />
	</node>
	<node lat="58.276966670379736" lon="8.427552784065162" id="-31645">
		<tag k="name" v="Kaldvellholmene" />
		<tag k="place" v="islet" />
		<tag k="ssr:stedsnr" v="330854" />
	</node>
	<node lat="58.12961944294503" lon="8.338772227601623" id="-31647">
		<tag k="name" v="Røynevardsgrunnen" />
		<tag k="natural" v="shoal" />
		<tag k="place" v="locality" />
		<tag k="ssr:stedsnr" v="342752" />
	</node>
	<node lat="58.19890277913281" lon="8.301591668564788" id="-31649">
		<tag k="name" v="Hjelmholmane" />
		<tag k="place" v="islet" />
		<tag k="ssr:stedsnr" v="364409" />
	</node>
	<node lat="58.14579999590716" lon="8.24886110830495" id="-31655">
		<tag k="name" v="Langholmen" />
		<tag k="place" v="islet" />
		<tag k="ssr:stedsnr" v="364600" />
	</node>
	<node lat="58.187033336931236" lon="8.198219439223125" id="-31657">
		<tag k="name" v="Bjelkeviga" />
		<tag k="natural" v="bay" />
		<tag k="ssr:stedsnr" v="385109" />
	</node>
	<node lat="58.2021388923353" lon="8.3422111084893" id="-31660">
		<tag k="name" v="Stuttisaula" />
		<tag k="natural" v="shoal" />
		<tag k="place" v="locality" />
		<tag k="ssr:stedsnr" v="385016" />
	</node>
	<node lat="58.137430553148434" lon="8.260863884990018" id="-31685">
		<tag k="fixme" v="consider seamark:type=rock or natural=shoal" />
		<tag k="name" v="Jenholmskjæret" />
		<tag k="place" v="islet" />
		<tag k="ssr:stedsnr" v="385594" />
	</node>
	<node lat="58.14187222599937" lon="8.203941662017709" id="-31686">
		<tag k="name" v="Seiholmen" />
		<tag k="place" v="islet" />
		<tag k="ssr:stedsnr" v="385597" />
	</node>
	<node lat="58.189938887720245" lon="8.355541674433217" id="-31687">
		<tag k="name" v="Ytre Ruholmen" />
		<tag k="place" v="islet" />
		<tag k="ssr:stedsnr" v="385702" />
	</node>
	<node lat="58.20479444487513" lon="8.32414445051472" id="-31689">
		<tag k="name" v="Breiviga" />
		<tag k="natural" v="bay" />
		<tag k="ssr:stedsnr" v="385724" />
	</node>
	<node lat="58.212005555066476" lon="8.298294451513387" id="-31690">
		<tag k="name" v="Østerbåen" />
		<tag k="place" v="locality" />
		<tag k="seamark:type" v="rock" />
		<tag k="ssr:stedsnr" v="385732" />
	</node>
	<node lat="58.197580558820356" lon="8.379363880776282" id="-31691">
		<tag k="name" v="Store Skjellholmen" />
		<tag k="place" v="islet" />
		<tag k="ssr:stedsnr" v="385736" />
	</node>
	<node lat="58.19829721857983" lon="8.329119440277633" id="-31692">
		<tag k="name" v="Krossund" />
		<tag k="natural" v="strait" />
		<tag k="ssr:stedsnr" v="385738" />
	</node>
	<node lat="58.242883335098945" lon="8.420166674934498" id="-31700">
		<tag k="name" v="Flørodden" />
		<tag k="natural" v="cape" />
		<tag k="ssr:stedsnr" v="385848" />
	</node>
	<node lat="58.124847223401936" lon="8.236677781770569" id="-31703">
		<tag k="name" v="Østre Seiviga" />
		<tag k="natural" v="bay" />
		<tag k="ssr:stedsnr" v="385904" />
	</node>
	<node lat="58.24534999747736" lon="8.450752779461133" id="-31708">
		<tag k="name" v="Lyngholmen" />
		<tag k="place" v="islet" />
		<tag k="ssr:stedsnr" v="485221" />
	</node>
	<node lat="58.198533329297746" lon="8.373450003733787" id="-31714">
		<tag k="name" v="Maurviga" />
		<tag k="natural" v="bay" />
		<tag k="ssr:stedsnr" v="485338" />
	</node>
	<node lat="58.17819315506635" lon="8.281937698114275" id="-31719">
		<tag k="name" v="Krossen" />
		<tag k="natural" v="bay" />
		<tag k="ssr:stedsnr" v="485552" />
	</node>
	<node lat="58.126225003893566" lon="8.263586116689753" id="-31720">
		<tag k="name" v="Selholmane" />
		<tag k="place" v="islet" />
		<tag k="ssr:stedsnr" v="403782" />
	</node>
	<node lat="58.18215000445599" lon="8.323074998370856" id="-31732">
		<tag k="name" v="Småholmene" />
		<tag k="place" v="islet" />
		<tag k="ssr:stedsnr" v="425411" />
	</node>
	<node lat="58.13100833519634" lon="8.206974995327156" id="-31736">
		<tag k="name" v="Ytreviga" />
		<tag k="natural" v="bay" />
		<tag k="ssr:stedsnr" v="425528" />
	</node>
	<node lat="58.272391669430824" lon="8.427655562074133" id="-31739">
		<tag k="bay" v="fjord" />
		<tag k="name" v="Kaldvellfjorden" />
		<tag k="natural" v="bay" />
		<tag k="ssr:stedsnr" v="425744" />
	</node>
	<node lat="58.196299999007714" lon="8.31730555594295" id="-31741">
		<tag k="name" v="Lille Beltesholmen" />
		<tag k="place" v="islet" />
		<tag k="ssr:stedsnr" v="446005" />
	</node>
	<node lat="58.182047221723565" lon="8.213694441326641" id="-31742">
		<tag k="name" v="Borkvig" />
		<tag k="natural" v="bay" />
		<tag k="ssr:stedsnr" v="446107" />
	</node>
	<node lat="58.13754999712764" lon="8.247300001578788" id="-31744">
		<tag k="name" v="Krosshavn" />
		<tag k="natural" v="bay" />
		<tag k="ssr:stedsnr" v="446205" />
	</node>
	<node lat="58.16431111342478" lon="8.19149166353121" id="-31745">
		<tag k="name" v="Helle" />
		<tag k="natural" v="cape" />
		<tag k="ssr:stedsnr" v="446261" />
	</node>
	<node lat="58.15640555600119" lon="8.247119439578519" id="-31757">
		<tag k="name" v="Breiviga" />
		<tag k="natural" v="bay" />
		<tag k="ssr:stedsnr" v="446377" />
	</node>
	<node lat="58.156663891524715" lon="8.25005833678157" id="-31759">
		<tag k="name" v="Åmbunesviga" />
		<tag k="natural" v="bay" />
		<tag k="ssr:stedsnr" v="446381" />
	</node>
	<node lat="58.16343332900708" lon="8.27455277717343" id="-31760">
		<tag k="fixme" v="consider seamark:type=rock or natural=shoal" />
		<tag k="name" v="Saueskjærane" />
		<tag k="place" v="islet" />
		<tag k="ssr:stedsnr" v="446394" />
	</node>
	<node lat="58.18983333285766" lon="8.30550000822475" id="-31764">
		<tag k="name" v="Løggenes" />
		<tag k="natural" v="cape" />
		<tag k="ssr:stedsnr" v="446472" />
	</node>
	<node lat="58.1866388849665" lon="8.355694445214963" id="-31765">
		<tag k="name" v="Eivindsholmen" />
		<tag k="place" v="islet" />
		<tag k="ssr:stedsnr" v="446483" />
	</node>
	<node lat="58.23697222665866" lon="8.372280558119469" id="-31767">
		<tag k="fixme" v="consider seamark:type=rock or natural=shoal" />
		<tag k="name" v="Mågeholmen" />
		<tag k="place" v="islet" />
		<tag k="ssr:stedsnr" v="446630" />
	</node>
	<node lat="58.22646389016419" lon="8.357469444439655" id="-31769">
		<tag k="name" v="Krossvigsundet" />
		<tag k="natural" v="strait" />
		<tag k="ssr:stedsnr" v="446638" />
	</node>
	<node lat="58.21872221908595" lon="8.342555562829764" id="-31770">
		<tag k="name" v="Monsensvig" />
		<tag k="natural" v="bay" />
		<tag k="ssr:stedsnr" v="446642" />
	</node>
	<node lat="58.24141111010336" lon="8.411011112568518" id="-31771">
		<tag k="name" v="Hjelmsund" />
		<tag k="natural" v="strait" />
		<tag k="ssr:stedsnr" v="446675" />
	</node>
	<node lat="58.187408331947225" lon="8.335363885245599" id="-31772">
		<tag k="name" v="Vestre Mannholmgrunnen" />
		<tag k="natural" v="shoal" />
		<tag k="place" v="locality" />
		<tag k="ssr:stedsnr" v="446678" />
	</node>
	<node lat="58.14128332942654" lon="8.196052783296572" id="-31773">
		<tag k="name" v="Fureholmen" />
		<tag k="place" v="islet" />
		<tag k="ssr:stedsnr" v="446573" />
	</node>
	<node lat="58.121777777880126" lon="8.24526667329075" id="-31774">
		<tag k="name" v="Slikkerbåen" />
		<tag k="place" v="locality" />
		<tag k="seamark:type" v="rock" />
		<tag k="ssr:stedsnr" v="446575" />
	</node>
	<node lat="58.14438610960659" lon="8.242436111078128" id="-31775">
		<tag k="name" v="Nordtangen" />
		<tag k="natural" v="cape" />
		<tag k="ssr:stedsnr" v="446579" />
	</node>
	<node lat="58.15126111132581" lon="8.260886112227642" id="-31776">
		<tag k="name" v="Sandøylandet" />
		<tag k="natural" v="beach" />
		<tag k="ssr:stedsnr" v="446584" />
	</node>
	<node lat="58.198291664446856" lon="8.3775611101044" id="-31777">
		<tag k="name" v="Lille Skjellholmen" />
		<tag k="place" v="islet" />
		<tag k="ssr:stedsnr" v="446726" />
	</node>
	<node lat="58.12074444782284" lon="8.245652783115707" id="-31780">
		<tag k="name" v="Store Nibe" />
		<tag k="place" v="island" />
		<tag k="ssr:stedsnr" v="446874" />
	</node>
	<node lat="58.12836111271555" lon="8.258158340607702" id="-31781">
		<tag k="name" v="Lille Klovholmen" />
		<tag k="place" v="islet" />
		<tag k="ssr:stedsnr" v="446893" />
	</node>
	<node lat="58.12965092933164" lon="8.203760439166425" id="-31782">
		<tag k="name" v="Åbållvigholmen" />
		<tag k="place" v="islet" />
		<tag k="ssr:stedsnr" v="446986" />
	</node>
	<node lat="58.22108055693045" lon="8.469102783804681" id="-31784">
		<tag k="name" v="Gåsegrunnene" />
		<tag k="natural" v="shoal" />
		<tag k="place" v="locality" />
		<tag k="ssr:stedsnr" v="447875" />
	</node>
	<node lat="58.17813055888678" lon="8.368866664386305" id="-31785">
		<tag k="name" v="Store Nødinggrunnen" />
		<tag k="natural" v="shoal" />
		<tag k="place" v="locality" />
		<tag k="ssr:stedsnr" v="447879" />
	</node>
	<node lat="58.10351666671138" lon="8.22832222222247" id="-31786">
		<tag k="name" v="Kåresteinen" />
		<tag k="natural" v="shoal" />
		<tag k="place" v="locality" />
		<tag k="ssr:stedsnr" v="447889" />
	</node>
	<node lat="58.21870833176517" lon="8.376294441659992" id="-31798">
		<tag k="name" v="Ronna" />
		<tag k="place" v="locality" />
		<tag k="ssr:stedsnr" v="485376" />
	</node>
	<node lat="58.22269444788433" lon="8.470713892835105" id="-31799">
		<tag k="name" v="Gåsa" />
		<tag k="place" v="islet" />
		<tag k="ssr:stedsnr" v="485381" />
	</node>
	<node lat="58.20683611073959" lon="8.41928055174423" id="-31801">
		<tag k="fixme" v="consider seamark:type=rock or natural=shoal" />
		<tag k="name" v="Nordbåen" />
		<tag k="place" v="islet" />
		<tag k="ssr:stedsnr" v="485416" />
	</node>
	<node lat="58.11825833631458" lon="8.244038892079962" id="-31806">
		<tag k="fixme" v="consider seamark:type=rock or natural=shoal" />
		<tag k="name" v="Nordre Lyrskjær" />
		<tag k="place" v="islet" />
		<tag k="ssr:stedsnr" v="506362" />
	</node>
	<node lat="58.147949997993194" lon="8.2752916702263" id="-31807">
		<tag k="fixme" v="consider seamark:type=rock or natural=shoal" />
		<tag k="name" v="Steinvigskjær" />
		<tag k="place" v="islet" />
		<tag k="ssr:stedsnr" v="506604" />
	</node>
	<node lat="58.192486111926776" lon="8.348124991737334" id="-31808">
		<tag k="name" v="Paulen" />
		<tag k="natural" v="strait" />
		<tag k="ssr:stedsnr" v="506665" />
	</node>
	<node lat="58.18511666388437" lon="8.376738885882897" id="-31810">
		<tag k="name" v="Indre Steingrunnene" />
		<tag k="natural" v="shoal" />
		<tag k="place" v="locality" />
		<tag k="ssr:stedsnr" v="506679" />
	</node>
	<node lat="58.18382222572079" lon="8.34965833592206" id="-31811">
		<tag k="name" v="Store Melkebøtta" />
		<tag k="natural" v="shoal" />
		<tag k="place" v="locality" />
		<tag k="ssr:stedsnr" v="506681" />
	</node>
	<node lat="58.10676666743591" lon="8.205463885698643" id="-31813">
		<tag k="fixme" v="consider seamark:type=rock or natural=shoal" />
		<tag k="name" v="Kjerringskjær" />
		<tag k="place" v="islet" />
		<tag k="ssr:stedsnr" v="506563" />
	</node>
	<node lat="58.20331666687061" lon="8.293472213759367" id="-31814">
		<tag k="name" v="Eidet" />
		<tag k="place" v="locality" />
		<tag k="ssr:stedsnr" v="506703" />
	</node>
	<node lat="58.20361111407408" lon="8.31183888352324" id="-31815">
		<tag k="name" v="Furtekrogen" />
		<tag k="natural" v="bay" />
		<tag k="ssr:stedsnr" v="506706" />
	</node>
	<node lat="58.20722222343561" lon="8.297255556425675" id="-31816">
		<tag k="name" v="Vestre Høyholmgrunnen" />
		<tag k="natural" v="shoal" />
		<tag k="place" v="locality" />
		<tag k="ssr:stedsnr" v="506716" />
	</node>
	<node lat="58.195533336385196" lon="8.326216672324579" id="-31817">
		<tag k="name" v="Rekebukta" />
		<tag k="natural" v="bay" />
		<tag k="ssr:stedsnr" v="506721" />
	</node>
	<node lat="58.143945129130515" lon="8.282138369461675" id="-31820">
		<tag k="name" v="Store Kvalsholmen" />
		<tag k="place" v="islet" />
		<tag k="ssr:stedsnr" v="507014" />
	</node>
	<node lat="58.18022778189409" lon="8.223527772663823" id="-31822">
		<tag k="name" v="Skjølsund" />
		<tag k="natural" v="strait" />
		<tag k="ssr:stedsnr" v="507059" />
	</node>
	<node lat="58.16676111347871" lon="8.251413881281755" id="-31835">
		<tag k="name" v="Kjerkenes" />
		<tag k="natural" v="cape" />
		<tag k="ssr:stedsnr" v="507164" />
	</node>
	<node lat="58.16787777876917" lon="8.235994445149522" id="-31836">
		<tag k="name" v="Bruholmen" />
		<tag k="place" v="islet" />
		<tag k="ssr:stedsnr" v="507175" />
	</node>
	<node lat="58.17857777975677" lon="8.3170472256086" id="-31846">
		<tag k="name" v="Rabet" />
		<tag k="place" v="islet" />
		<tag k="ssr:stedsnr" v="507468" />
	</node>
	<node lat="58.24782222306291" lon="8.384791673638208" id="-31851">
		<tag k="name" v="Orehola" />
		<tag k="natural" v="bay" />
		<tag k="ssr:stedsnr" v="507922" />
	</node>
	<node lat="58.24742499666582" lon="8.378386102828062" id="-31853">
		<tag k="name" v="Lillesand havn" />
		<tag k="natural" v="bay" />
		<tag k="ssr:stedsnr" v="507809" />
	</node>
	<node lat="58.11688889071702" lon="8.253611115746722" id="-31856">
		<tag k="name" v="Lille Fugleholmen" />
		<tag k="place" v="islet" />
		<tag k="ssr:stedsnr" v="507894" />
	</node>
	<node lat="58.124977782030726" lon="8.264524991615545" id="-31857">
		<tag k="fixme" v="consider seamark:type=rock or natural=shoal" />
		<tag k="name" v="Teineskjær" />
		<tag k="place" v="islet" />
		<tag k="ssr:stedsnr" v="507897" />
	</node>
	<node lat="58.22402222549334" lon="8.476994443237544" id="-31858">
		<tag k="name" v="Makrellgrunnen" />
		<tag k="natural" v="shoal" />
		<tag k="place" v="locality" />
		<tag k="ssr:stedsnr" v="507899" />
	</node>
	<node lat="58.160752779990396" lon="8.270541664764181" id="-31860">
		<tag k="name" v="Vasshjulholmen" />
		<tag k="place" v="islet" />
		<tag k="ssr:stedsnr" v="688294" />
	</node>
	<node lat="58.21546388497239" lon="8.392080561607164" id="-31865">
		<tag k="name" v="Urholmen" />
		<tag k="place" v="islet" />
		<tag k="ssr:stedsnr" v="546421" />
	</node>
	<node lat="58.13190000190218" lon="8.276961102590018" id="-31867">
		<tag k="name" v="Store Grønningen" />
		<tag k="place" v="islet" />
		<tag k="ssr:stedsnr" v="546475" />
	</node>
	<node lat="58.10685277614166" lon="8.197227779080526" id="-31868">
		<tag k="name" v="Tavlene" />
		<tag k="place" v="islet" />
		<tag k="ssr:stedsnr" v="546486" />
	</node>
	<node lat="58.11780555745542" lon="8.24240555596914" id="-31874">
		<tag k="fixme" v="consider seamark:type=rock or natural=shoal" />
		<tag k="name" v="Høye Simons båe" />
		<tag k="place" v="islet" />
		<tag k="ssr:stedsnr" v="688336" />
	</node>
	<node lat="58.109780558385324" lon="8.206244447307366" id="-31875">
		<tag k="fixme" v="consider seamark:type=rock or natural=shoal" />
		<tag k="name" v="Suggholmskjær" />
		<tag k="place" v="islet" />
		<tag k="ssr:stedsnr" v="688340" />
	</node>
	<node lat="58.121677775148925" lon="8.20184999521705" id="-31876">
		<tag k="fixme" v="consider seamark:type=rock or natural=shoal" />
		<tag k="name" v="Vestre Såvigskjær" />
		<tag k="place" v="islet" />
		<tag k="ssr:stedsnr" v="688347" />
	</node>
	<node lat="58.123611111277214" lon="8.22431666876801" id="-31877">
		<tag k="name" v="Furevigbåen" />
		<tag k="place" v="locality" />
		<tag k="seamark:type" v="rock" />
		<tag k="ssr:stedsnr" v="688349" />
	</node>
	<node lat="58.119202775625595" lon="8.269052785290823" id="-31878">
		<tag k="name" v="Søderbåen" />
		<tag k="place" v="locality" />
		<tag k="seamark:type" v="rock" />
		<tag k="ssr:stedsnr" v="688359" />
	</node>
	<node lat="58.172277777561405" lon="8.230183339070031" id="-31880">
		<tag k="name" v="Langebukta" />
		<tag k="natural" v="bay" />
		<tag k="ssr:stedsnr" v="688367" />
	</node>
	<node lat="58.157908334086116" lon="8.259561107332217" id="-31882">
		<tag k="fixme" v="consider seamark:type=rock or natural=shoal" />
		<tag k="name" v="Gulholmen" />
		<tag k="place" v="islet" />
		<tag k="ssr:stedsnr" v="688371" />
	</node>
	<node lat="58.118483332911744" lon="8.246463888095763" id="-31883">
		<tag k="name" v="Lyrskjærbåen" />
		<tag k="place" v="locality" />
		<tag k="seamark:type" v="rock" />
		<tag k="ssr:stedsnr" v="688577" />
	</node>
	<node lat="58.132572223884885" lon="8.266036112121904" id="-31884">
		<tag k="fixme" v="consider seamark:type=rock or natural=shoal" />
		<tag k="name" v="Skarveskjær" />
		<tag k="place" v="islet" />
		<tag k="ssr:stedsnr" v="688582" />
	</node>
	<node lat="58.14336944875718" lon="8.211666660462273" id="-31885">
		<tag k="name" v="Kastodden" />
		<tag k="natural" v="cape" />
		<tag k="ssr:stedsnr" v="688592" />
	</node>
	<node lat="58.23811111092657" lon="8.395588884110673" id="-31886">
		<tag k="name" v="Storegabet" />
		<tag k="natural" v="strait" />
		<tag k="ssr:stedsnr" v="688671" />
	</node>
	<node lat="58.165213892255686" lon="8.308405554333714" id="-31887">
		<tag k="name" v="Lille Kålholmen" />
		<tag k="place" v="islet" />
		<tag k="ssr:stedsnr" v="688526" />
	</node>
	<node lat="58.17217777913958" lon="8.307772228174736" id="-31888">
		<tag k="name" v="Lille Nidingen" />
		<tag k="natural" v="shoal" />
		<tag k="place" v="locality" />
		<tag k="ssr:stedsnr" v="688527" />
	</node>
	<node lat="58.173613889438265" lon="8.311349995653563" id="-31890">
		<tag k="name" v="Store Nidingen" />
		<tag k="natural" v="shoal" />
		<tag k="place" v="locality" />
		<tag k="ssr:stedsnr" v="688698" />
	</node>
	<node lat="58.213963890413574" lon="8.303683340098408" id="-31892">
		<tag k="name" v="Dretteviga" />
		<tag k="natural" v="bay" />
		<tag k="ssr:stedsnr" v="688726" />
	</node>
	<node lat="58.210238892955225" lon="8.301836115141686" id="-31893">
		<tag k="name" v="Østre Høyholmgrunnen" />
		<tag k="natural" v="shoal" />
		<tag k="place" v="locality" />
		<tag k="ssr:stedsnr" v="688730" />
	</node>
	<node lat="58.23661944277586" lon="8.425149996649157" id="-31894">
		<tag k="name" v="Ytre Humløybukta" />
		<tag k="natural" v="bay" />
		<tag k="ssr:stedsnr" v="688754" />
	</node>
	<node lat="58.22483888484219" lon="8.42424167482115" id="-31895">
		<tag k="name" v="Indre Malmgrunnene" />
		<tag k="natural" v="shoal" />
		<tag k="place" v="locality" />
		<tag k="ssr:stedsnr" v="688756" />
	</node>
	<node lat="58.21756944609333" lon="8.402761112751993" id="-31896">
		<tag k="name" v="Nebbgrunnen" />
		<tag k="natural" v="shoal" />
		<tag k="place" v="locality" />
		<tag k="ssr:stedsnr" v="688758" />
	</node>
	<node lat="58.16143888722147" lon="8.287438893630988" id="-31899">
		<tag k="name" v="Hessvigholmen" />
		<tag k="place" v="islet" />
		<tag k="ssr:stedsnr" v="689024" />
	</node>
	<node lat="58.16778055901798" lon="8.289252782348646" id="-31900">
		<tag k="name" v="Dyreholmene" />
		<tag k="place" v="islet" />
		<tag k="ssr:stedsnr" v="689025" />
	</node>
	<node lat="58.16971944216023" lon="8.230936116566447" id="-31906">
		<tag k="name" v="Naudesund" />
		<tag k="natural" v="strait" />
		<tag k="ssr:stedsnr" v="689220" />
	</node>
	<node lat="58.14791111116866" lon="8.269399998456812" id="-31910">
		<tag k="name" v="Stokkholmen" />
		<tag k="place" v="islet" />
		<tag k="ssr:stedsnr" v="689171" />
	</node>
	<node lat="58.143008332975995" lon="8.251330553428037" id="-31911">
		<tag k="name" v="Langholmsund" />
		<tag k="natural" v="strait" />
		<tag k="ssr:stedsnr" v="689174" />
	</node>
	<node lat="58.16338055244983" lon="8.184630553809786" id="-31913">
		<tag k="name" v="Ånastrand" />
		<tag k="natural" v="beach" />
		<tag k="ssr:stedsnr" v="689242" />
	</node>
	<node lat="58.163572220714016" lon="8.206761105759721" id="-31916">
		<tag k="name" v="Træviga" />
		<tag k="natural" v="bay" />
		<tag k="ssr:stedsnr" v="689229" />
	</node>
	<node lat="58.12052778012847" lon="8.227588894795492" id="-31935">
		<tag k="name" v="Lyngholmsund" />
		<tag k="natural" v="strait" />
		<tag k="ssr:stedsnr" v="689858" />
	</node>
	<node lat="58.108891662900255" lon="8.21268889392476" id="-31936">
		<tag k="name" v="Østre Kleven" />
		<tag k="natural" v="bay" />
		<tag k="ssr:stedsnr" v="689975" />
	</node>
	<node lat="58.20719905643571" lon="8.29759146639413" id="-31941">
		<tag k="bay" v="fjord" />
		<tag k="name" v="Vallesverdfjorden" />
		<tag k="natural" v="bay" />
		<tag k="ssr:stedsnr" v="567005" />
	</node>
	<node lat="58.201122219661336" lon="8.33686666173851" id="-31942">
		<tag k="bay" v="fjord" />
		<tag k="name" v="Stuttifjorden" />
		<tag k="natural" v="bay" />
		<tag k="ssr:stedsnr" v="567014" />
	</node>
	<node lat="58.14466666699484" lon="8.288458327547708" id="-31943">
		<tag k="name" v="Lille Kvalsholmen" />
		<tag k="place" v="islet" />
		<tag k="ssr:stedsnr" v="567019" />
	</node>
	<node lat="58.14044166903436" lon="8.265672218237427" id="-31946">
		<tag k="name" v="Lyngholmsund" />
		<tag k="natural" v="strait" />
		<tag k="ssr:stedsnr" v="567164" />
	</node>
	<node lat="58.14436666428689" lon="8.253302775030601" id="-31947">
		<tag k="name" v="Bratteviga" />
		<tag k="natural" v="bay" />
		<tag k="ssr:stedsnr" v="567167" />
	</node>
	<node lat="58.15475277615862" lon="8.256216671524522" id="-31952">
		<tag k="name" v="Lille Bjørnholmen" />
		<tag k="place" v="islet" />
		<tag k="ssr:stedsnr" v="567204" />
	</node>
	<node lat="58.153172219925835" lon="8.204258330311987" id="-31953">
		<tag k="loc_name" v="Kjelleviga" />
		<tag k="name" v="Kjellevig" />
		<tag k="natural" v="bay" />
		<tag k="ssr:stedsnr" v="567217" />
	</node>
	<node lat="58.15173333697421" lon="8.193391664353218" id="-31954">
		<tag k="name" v="Sømsviga" />
		<tag k="natural" v="bay" />
		<tag k="ssr:stedsnr" v="567223" />
	</node>
	<node lat="58.199327775867665" lon="8.341705549150843" id="-31958">
		<tag k="name" v="Sulleviga" />
		<tag k="natural" v="bay" />
		<tag k="ssr:stedsnr" v="567269" />
	</node>
	<node lat="58.23021666958914" lon="8.373305558850431" id="-31963">
		<tag k="name" v="Lille Asperøya" />
		<tag k="place" v="islet" />
		<tag k="ssr:stedsnr" v="567417" />
	</node>
	<node lat="58.15954999680578" lon="8.287927777668584" id="-31967">
		<tag k="name" v="Upsa" />
		<tag k="place" v="islet" />
		<tag k="ssr:stedsnr" v="567502" />
	</node>
	<node lat="58.162633336504314" lon="8.311947219362597" id="-31968">
		<tag k="name" v="Kalkebåane" />
		<tag k="place" v="locality" />
		<tag k="seamark:type" v="rock" />
		<tag k="ssr:stedsnr" v="567508" />
	</node>
	<node lat="58.120830552498504" lon="8.276013887919623" id="-31971">
		<tag k="name" v="Mellomflag" />
		<tag k="natural" v="shoal" />
		<tag k="place" v="locality" />
		<tag k="ssr:stedsnr" v="567556" />
	</node>
	<node lat="58.14263055472783" lon="8.263677785955405" id="-31972">
		<tag k="fixme" v="consider seamark:type=rock or natural=shoal" />
		<tag k="name" v="Lyngholmskjærane" />
		<tag k="place" v="islet" />
		<tag k="ssr:stedsnr" v="567560" />
	</node>
	<node lat="58.18062500217813" lon="8.291261108521278" id="-31975">
		<tag k="name" v="Søylekilen" />
		<tag k="natural" v="bay" />
		<tag k="ssr:stedsnr" v="567464" />
	</node>
	<node lat="58.19078610769864" lon="8.353883332238063" id="-31978">
		<tag k="name" v="Indre Ruholmen" />
		<tag k="place" v="islet" />
		<tag k="ssr:stedsnr" v="567657" />
	</node>
	<node lat="58.17935833718181" lon="8.313061113605581" id="-31979">
		<tag k="name" v="Skaftebåen" />
		<tag k="place" v="locality" />
		<tag k="seamark:type" v="rock" />
		<tag k="ssr:stedsnr" v="567674" />
	</node>
	<node lat="58.24364166236379" lon="8.38055832920512" id="-31980">
		<tag k="name" v="Julebauen" />
		<tag k="natural" v="cape" />
		<tag k="ssr:stedsnr" v="567804" />
	</node>
	<node lat="58.15479444570097" lon="8.259758332183951" id="-31984">
		<tag k="name" v="Bjørnholmen" />
		<tag k="place" v="islet" />
		<tag k="ssr:stedsnr" v="567702" />
	</node>
	<node lat="58.127461114970544" lon="8.233044445179537" id="-31987">
		<tag k="name" v="Sandane" />
		<tag k="natural" v="shoal" />
		<tag k="place" v="locality" />
		<tag k="ssr:stedsnr" v="567902" />
	</node>
	<node lat="58.126366670912034" lon="8.265180563924499" id="-31988">
		<tag k="name" v="Store Selholmen" />
		<tag k="place" v="islet" />
		<tag k="ssr:stedsnr" v="567905" />
	</node>
	<node lat="58.12319444831396" lon="8.232941666645582" id="-31989">
		<tag k="name" v="Slurkehola" />
		<tag k="natural" v="bay" />
		<tag k="ssr:stedsnr" v="567909" />
	</node>
	<node lat="58.19879166439192" lon="8.422555554326934" id="-32007">
		<tag k="fixme" v="consider seamark:type=rock or natural=shoal" />
		<tag k="name" v="Bregen" />
		<tag k="place" v="islet" />
		<tag k="ssr:stedsnr" v="606380" />
	</node>
	<node lat="58.12980833305158" lon="8.269608330867706" id="-32011">
		<tag k="fixme" v="consider seamark:type=rock or natural=shoal" />
		<tag k="name" v="Flade Andeskjær" />
		<tag k="place" v="islet" />
		<tag k="ssr:stedsnr" v="606498" />
	</node>
	<node lat="58.12828889021464" lon="8.243713882683705" id="-32012">
		<tag k="name" v="Ytre Årholmen" />
		<tag k="place" v="islet" />
		<tag k="ssr:stedsnr" v="606500" />
	</node>
	<node lat="58.183891666963476" lon="8.315674999792234" id="-32021">
		<tag k="name" v="Bjelkeviga" />
		<tag k="natural" v="bay" />
		<tag k="ssr:stedsnr" v="627307" />
	</node>
	<node lat="58.173694441322056" lon="8.336344437937228" id="-32022">
		<tag k="name" v="Bøkslegrunnane" />
		<tag k="natural" v="shoal" />
		<tag k="place" v="locality" />
		<tag k="ssr:stedsnr" v="627309" />
	</node>
	<node lat="58.120941665184276" lon="8.256844445695746" id="-32023">
		<tag k="name" v="Ole Jensens grunne" />
		<tag k="natural" v="shoal" />
		<tag k="place" v="locality" />
		<tag k="ssr:stedsnr" v="627354" />
	</node>
	<node lat="58.12443889144764" lon="8.224911108060425" id="-32024">
		<tag k="name" v="Espeviga" />
		<tag k="natural" v="bay" />
		<tag k="ssr:stedsnr" v="627357" />
	</node>
	<node lat="58.14375277798475" lon="8.204974998843198" id="-32025">
		<tag k="name" v="Sildevigodden" />
		<tag k="natural" v="cape" />
		<tag k="ssr:stedsnr" v="627607" />
	</node>
	<node lat="58.15015000149255" lon="8.267630563814329" id="-32027">
		<tag k="name" v="Gunderske sund" />
		<tag k="natural" v="strait" />
		<tag k="ssr:stedsnr" v="627622" />
	</node>
	<node lat="58.22333055454779" lon="8.380975007830727" id="-32028">
		<tag k="name" v="Lislehavn" />
		<tag k="natural" v="bay" />
		<tag k="ssr:stedsnr" v="627659" />
	</node>
	<node lat="58.16372777376701" lon="8.239961115825224" id="-32029">
		<tag k="name" v="Skodebakkholmen" />
		<tag k="place" v="islet" />
		<tag k="ssr:stedsnr" v="627396" />
	</node>
	<node lat="58.18527499808894" lon="8.330822228846298" id="-32032">
		<tag k="name" v="Skibbegrunnen" />
		<tag k="natural" v="shoal" />
		<tag k="place" v="locality" />
		<tag k="ssr:stedsnr" v="627556" />
	</node>
	<node lat="58.18974722579638" lon="8.295447219632543" id="-32033">
		<tag k="name" v="Åsepynten" />
		<tag k="natural" v="cape" />
		<tag k="ssr:stedsnr" v="627561" />
	</node>
	<node lat="58.181552778285976" lon="8.28397778317873" id="-32037">
		<tag k="name" v="Båsen" />
		<tag k="natural" v="bay" />
		<tag k="ssr:stedsnr" v="627708" />
	</node>
	<node lat="58.23106666261738" lon="8.40299721407678" id="-32040">
		<tag k="name" v="Saltholmsundet" />
		<tag k="natural" v="strait" />
		<tag k="ssr:stedsnr" v="627753" />
	</node>
	<node lat="58.18129722613791" lon="8.33524167135556" id="-32041">
		<tag k="name" v="Vestre Helleren" />
		<tag k="place" v="locality" />
		<tag k="seamark:type" v="rock" />
		<tag k="ssr:stedsnr" v="627696" />
	</node>
	<node lat="58.19181388509768" lon="8.337655556348412" id="-32042">
		<tag k="name" v="Gibraltar" />
		<tag k="place" v="islet" />
		<tag k="ssr:stedsnr" v="627699" />
	</node>
	<node lat="58.20393611198719" lon="8.382908327021411" id="-32043">
		<tag k="fixme" v="consider seamark:type=rock or natural=shoal" />
		<tag k="name" v="Teineskjer" />
		<tag k="place" v="islet" />
		<tag k="ssr:stedsnr" v="627853" />
	</node>
	<node lat="58.13340833497045" lon="8.283069450243342" id="-32046">
		<tag k="fixme" v="consider seamark:type=rock or natural=shoal" />
		<tag k="name" v="Berggyltskjær" />
		<tag k="place" v="islet" />
		<tag k="ssr:stedsnr" v="628010" />
	</node>
	<node lat="58.219061107566596" lon="8.37671388198113" id="-32057">
		<tag k="name" v="Mebøstrand" />
		<tag k="natural" v="beach" />
		<tag k="ssr:stedsnr" v="628421" />
	</node>
	<node lat="58.23438889336497" lon="8.3556833406866" id="-32058">
		<tag k="name" v="Torskeholmen" />
		<tag k="place" v="islet" />
		<tag k="ssr:stedsnr" v="628425" />
	</node>
	<node lat="58.254716664875986" lon="8.401097216424018" id="-32072">
		<tag k="name" v="Krågeviga" />
		<tag k="natural" v="bay" />
		<tag k="ssr:stedsnr" v="628819" />
	</node>
	<node lat="58.15033889000337" lon="8.194536110681959" id="-32075">
		<tag k="name" v="Kinnesund" />
		<tag k="natural" v="strait" />
		<tag k="ssr:stedsnr" v="628899" />
	</node>
	<node lat="58.12552221856651" lon="8.222091666871833" id="-32077">
		<tag k="name" v="Torskeholmen" />
		<tag k="place" v="islet" />
		<tag k="ssr:stedsnr" v="628960" />
	</node>
	<node lat="58.12454722031241" lon="8.216888881781015" id="-32078">
		<tag k="name" v="Kjeholmen" />
		<tag k="place" v="islet" />
		<tag k="ssr:stedsnr" v="628995" />
	</node>
	<node lat="58.15484721903737" lon="8.242872223507927" id="-32084">
		<tag k="name" v="Jakteviga" />
		<tag k="natural" v="bay" />
		<tag k="ssr:stedsnr" v="666439" />
	</node>
	<node lat="58.228872224232525" lon="8.37893055077269" id="-32087">
		<tag k="name" v="Asperøysund" />
		<tag k="natural" v="strait" />
		<tag k="ssr:stedsnr" v="667288" />
	</node>
	<node lat="58.21118611196981" lon="8.387861102780777" id="-32093">
		<tag k="name" v="Tangviga" />
		<tag k="natural" v="bay" />
		<tag k="ssr:stedsnr" v="667434" />
	</node>
	<node lat="58.15022778153129" lon="8.284016672298874" id="-32097">
		<tag k="name" v="Hvalholmen" />
		<tag k="place" v="islet" />
		<tag k="ssr:stedsnr" v="667509" />
	</node>
	<node lat="58.19820833383838" lon="8.342247225841247" id="-32099">
		<tag k="name" v="Sullevigholmen" />
		<tag k="place" v="islet" />
		<tag k="ssr:stedsnr" v="688287" />
	</node>
	<node lat="58.1664472185924" lon="8.266919443952718" id="-32101">
		<tag k="name" v="Saueholmen" />
		<tag k="place" v="islet" />
		<tag k="ssr:stedsnr" v="688387" />
	</node>
	<node lat="58.13377500323857" lon="8.268091662351562" id="-32105">
		<tag k="name" v="Sauetallen" />
		<tag k="natural" v="shoal" />
		<tag k="place" v="locality" />
		<tag k="ssr:stedsnr" v="688605" />
	</node>
	<node lat="58.15211110845722" lon="8.261766665267235" id="-32106">
		<tag k="name" v="Lille Engelsholmen" />
		<tag k="place" v="islet" />
		<tag k="ssr:stedsnr" v="688635" />
	</node>
	<node lat="58.227016669050435" lon="8.382852781444184" id="-32107">
		<tag k="name" v="Asperøybauen" />
		<tag k="natural" v="cape" />
		<tag k="ssr:stedsnr" v="688654" />
	</node>
	<node lat="58.20828611400352" lon="8.336869449453701" id="-32109">
		<tag k="name" v="Gitkilholmen" />
		<tag k="place" v="islet" />
		<tag k="ssr:stedsnr" v="688838" />
	</node>
	<node lat="58.18208333195714" lon="8.369172218312523" id="-32110">
		<tag k="name" v="Lille Nødinggrunnen" />
		<tag k="natural" v="shoal" />
		<tag k="place" v="locality" />
		<tag k="ssr:stedsnr" v="688840" />
	</node>
	<node lat="58.199283332513005" lon="8.314588893546324" id="-32112">
		<tag k="name" v="Vasskjerrpynten" />
		<tag k="natural" v="cape" />
		<tag k="ssr:stedsnr" v="688715" />
	</node>
	<node lat="58.23089722595248" lon="8.399877771931248" id="-32113">
		<tag k="name" v="Kjerkesundet" />
		<tag k="natural" v="strait" />
		<tag k="ssr:stedsnr" v="688741" />
	</node>
	<node lat="58.21411944722359" lon="8.308550002962013" id="-32114">
		<tag k="name" v="Floholmen" />
		<tag k="place" v="islet" />
		<tag k="ssr:stedsnr" v="689004" />
	</node>
	<node lat="58.214758329669266" lon="8.292005561848178" id="-32115">
		<tag k="name" v="Eidebukta" />
		<tag k="natural" v="bay" />
		<tag k="ssr:stedsnr" v="689006" />
	</node>
	<node lat="58.20293333579729" lon="8.337383338053879" id="-32116">
		<tag k="name" v="Lauvstø" />
		<tag k="natural" v="cape" />
		<tag k="ssr:stedsnr" v="689012" />
	</node>
	<node lat="58.18870555137788" lon="8.201411118570828" id="-32119">
		<tag k="name" v="Møllebukta" />
		<tag k="natural" v="bay" />
		<tag k="ssr:stedsnr" v="689090" />
	</node>
	<node lat="58.1710666711889" lon="8.22959167083157" id="-32122">
		<tag k="name" v="Naudodden" />
		<tag k="natural" v="cape" />
		<tag k="ssr:stedsnr" v="689211" />
	</node>
	<node lat="58.154688892779696" lon="8.226169441057749" id="-32123">
		<tag k="name" v="Åmlandskilen" />
		<tag k="natural" v="bay" />
		<tag k="ssr:stedsnr" v="689219" />
	</node>
	<node lat="58.14261388585917" lon="8.19287500273974" id="-32149">
		<tag k="name" v="Randvigholmen" />
		<tag k="place" v="islet" />
		<tag k="ssr:stedsnr" v="689905" />
	</node>
	<node lat="58.14696944449825" lon="8.199952770045325" id="-32150">
		<tag k="name" v="Hæstadneset" />
		<tag k="natural" v="cape" />
		<tag k="ssr:stedsnr" v="689907" />
	</node>
	<node lat="58.14583055906837" lon="8.203555550816084" id="-32151">
		<tag k="name" v="Træviga" />
		<tag k="natural" v="bay" />
		<tag k="ssr:stedsnr" v="689911" />
	</node>
	<node lat="58.14524444373606" lon="8.196911104749637" id="-32152">
		<tag k="name" v="Indre Breiviga" />
		<tag k="natural" v="bay" />
		<tag k="ssr:stedsnr" v="689913" />
	</node>
	<node lat="58.10941111225716" lon="8.209316670988033" id="-32153">
		<tag k="name" v="Tjuvhola" />
		<tag k="natural" v="bay" />
		<tag k="ssr:stedsnr" v="689981" />
	</node>
	<node lat="58.11238333445721" lon="8.20556945163251" id="-32154">
		<tag k="name" v="Stongholmsund" />
		<tag k="natural" v="strait" />
		<tag k="ssr:stedsnr" v="689985" />
	</node>
	<node lat="58.11003889301141" lon="8.202875004209037" id="-32155">
		<tag k="name" v="Soldaterholmen" />
		<tag k="place" v="islet" />
		<tag k="ssr:stedsnr" v="689986" />
	</node>
	<node lat="58.11617500074127" lon="8.20573332961513" id="-32156">
		<tag k="bay" v="fjord" />
		<tag k="name" v="Kampedalsfjorden" />
		<tag k="natural" v="bay" />
		<tag k="ssr:stedsnr" v="689994" />
	</node>
	<node lat="58.2260916692355" lon="8.443847214760279" id="-32165">
		<tag k="name" v="Svertinggrunnene" />
		<tag k="natural" v="shoal" />
		<tag k="place" v="locality" />
		<tag k="ssr:stedsnr" v="724587" />
	</node>
	<node lat="58.24085555313183" lon="8.454175003792828" id="-32167">
		<tag k="alt_name" v="Bergkyrkja" />
		<tag k="name" v="Bergkjerka" />
		<tag k="place" v="islet" />
		<tag k="ssr:stedsnr" v="728269" />
	</node>
	<node lat="58.19855555188236" lon="8.409844445195704" id="-32170">
		<tag k="fixme" v="consider seamark:type=rock or natural=shoal" />
		<tag k="name" v="Langbåen" />
		<tag k="place" v="islet" />
		<tag k="ssr:stedsnr" v="728371" />
	</node>
	<node lat="58.18515068601598" lon="8.357758508034951" id="-32171">
		<tag k="name" v="Nødingen" />
		<tag k="place" v="islet" />
		<tag k="ssr:stedsnr" v="728376" />
	</node>
	<node lat="58.11227500094936" lon="8.223530561956252" id="-32179">
		<tag k="name" v="Østre Ertholmen" />
		<tag k="place" v="islet" />
		<tag k="ssr:stedsnr" v="728708" />
	</node>
	<node lat="58.15183055984376" lon="8.22544722766657" id="-32186">
		<tag k="name" v="Bukkenes" />
		<tag k="natural" v="cape" />
		<tag k="ssr:stedsnr" v="749207" />
	</node>
	<node lat="58.13962222295541" lon="8.251274997851251" id="-32192">
		<tag k="name" v="Trolleviga" />
		<tag k="natural" v="bay" />
		<tag k="ssr:stedsnr" v="749170" />
	</node>
	<node lat="58.133497219649456" lon="8.251688886028687" id="-32193">
		<tag k="name" v="Breiviga" />
		<tag k="natural" v="bay" />
		<tag k="ssr:stedsnr" v="749177" />
	</node>
	<node lat="58.12234722214656" lon="8.239227778979279" id="-32195">
		<tag k="name" v="Østre Hellerane" />
		<tag k="natural" v="shoal" />
		<tag k="place" v="locality" />
		<tag k="ssr:stedsnr" v="749325" />
	</node>
	<node lat="58.12563055279065" lon="8.252216673510933" id="-32196">
		<tag k="fixme" v="consider seamark:type=rock or natural=shoal" />
		<tag k="name" v="Skjærane" />
		<tag k="place" v="islet" />
		<tag k="ssr:stedsnr" v="749367" />
	</node>
	<node lat="58.13088055758335" lon="8.251105562864597" id="-32199">
		<tag k="name" v="Østre Sverrviga" />
		<tag k="natural" v="bay" />
		<tag k="ssr:stedsnr" v="749606" />
	</node>
	<node lat="58.134702775890666" lon="8.277319438284549" id="-32200">
		<tag k="name" v="Skottehola" />
		<tag k="natural" v="bay" />
		<tag k="ssr:stedsnr" v="749610" />
	</node>
	<node lat="58.13773611301878" lon="8.28969445172913" id="-32201">
		<tag k="name" v="Store Kvalsholmhausane" />
		<tag k="natural" v="shoal" />
		<tag k="place" v="locality" />
		<tag k="ssr:stedsnr" v="749618" />
	</node>
	<node lat="58.12632222272957" lon="8.28430278010688" id="-32202">
		<tag k="name" v="Grønningsskjær" />
		<tag k="natural" v="shoal" />
		<tag k="place" v="locality" />
		<tag k="ssr:stedsnr" v="749621" />
	</node>
	<node lat="58.15198888708113" lon="8.194322220032438" id="-32203">
		<tag k="name" v="Østerbukta" />
		<tag k="natural" v="bay" />
		<tag k="ssr:stedsnr" v="749623" />
	</node>
	<node lat="58.160647222660415" lon="8.189350005576395" id="-32204">
		<tag k="fixme" v="consider seamark:type=rock or natural=shoal" />
		<tag k="name" v="Skarveskjær" />
		<tag k="place" v="islet" />
		<tag k="ssr:stedsnr" v="749626" />
	</node>
	<node lat="58.1420805522848" lon="8.195022217035627" id="-32206">
		<tag k="name" v="Urholmen" />
		<tag k="place" v="islet" />
		<tag k="ssr:stedsnr" v="749564" />
	</node>
	<node lat="58.13899444225436" lon="8.19969721968471" id="-32207">
		<tag k="name" v="Steineskjærgrunnen" />
		<tag k="natural" v="shoal" />
		<tag k="place" v="locality" />
		<tag k="ssr:stedsnr" v="749571" />
	</node>
	<node lat="58.186427775620864" lon="8.332222217197645" id="-32210">
		<tag k="name" v="Svartskjerbåen" />
		<tag k="place" v="locality" />
		<tag k="seamark:type" v="rock" />
		<tag k="ssr:stedsnr" v="749704" />
	</node>
	<node lat="58.18307777686743" lon="8.380313886107013" id="-32211">
		<tag k="name" v="Ytre Steingrunnene" />
		<tag k="natural" v="shoal" />
		<tag k="place" v="locality" />
		<tag k="ssr:stedsnr" v="749707" />
	</node>
	<node lat="58.17895555275037" lon="8.328355559639377" id="-32212">
		<tag k="name" v="Garpholmgrunnen" />
		<tag k="natural" v="shoal" />
		<tag k="place" v="locality" />
		<tag k="ssr:stedsnr" v="749724" />
	</node>
	<node lat="58.18682777771894" lon="8.323544448953145" id="-32213">
		<tag k="name" v="Knutshavnsund" />
		<tag k="natural" v="strait" />
		<tag k="ssr:stedsnr" v="749725" />
	</node>
	<node lat="58.2443416650094" lon="8.380727780203195" id="-32214">
		<tag k="name" v="Guttebukta" />
		<tag k="natural" v="bay" />
		<tag k="ssr:stedsnr" v="749661" />
	</node>
	<node lat="58.252616670840176" lon="8.405069437202668" id="-32220">
		<tag k="name" v="Kviviga" />
		<tag k="natural" v="bay" />
		<tag k="ssr:stedsnr" v="749863" />
	</node>
	<node lat="58.24243089726484" lon="8.391034356364617" id="-32223">
		<tag k="name" v="Risholmen" />
		<tag k="place" v="islet" />
		<tag k="ssr:stedsnr" v="749877" />
	</node>
	<node lat="58.12569722355846" lon="8.223622228042188" id="-32226">
		<tag k="name" v="Bagervigkilen" />
		<tag k="natural" v="bay" />
		<tag k="ssr:stedsnr" v="749912" />
	</node>
	<node lat="58.12781666271139" lon="8.235252774409572" id="-32227">
		<tag k="name" v="Indre Årholmen" />
		<tag k="place" v="islet" />
		<tag k="ssr:stedsnr" v="749913" />
	</node>
	<node lat="58.117597224000576" lon="8.218447215156177" id="-32230">
		<tag k="fixme" v="consider seamark:type=rock or natural=shoal" />
		<tag k="name" v="Såvigskjærane" />
		<tag k="place" v="islet" />
		<tag k="ssr:stedsnr" v="749998" />
	</node>
	<node lat="58.24545644585079" lon="8.435745038602319" id="-32239">
		<tag k="alt_name" v="Skjøtøya" />
		<tag k="name" v="Skjødøya" />
		<tag k="place" v="islet" />
		<tag k="ssr:stedsnr" v="910277" />
	</node>
	<node lat="58.242213888140306" lon="8.408825006567307" id="-32240">
		<tag k="name" v="Bukkholmen" />
		<tag k="place" v="islet" />
		<tag k="ssr:stedsnr" v="910278" />
	</node>
	<node lat="58.18070000135745" lon="8.231347228204061" id="-32245">
		<tag k="name" v="Kjøstveitkilen" />
		<tag k="natural" v="bay" />
		<tag k="ssr:stedsnr" v="910428" />
	</node>
	<node lat="58.18345278212814" lon="8.3809666746893" id="-32246">
		<tag k="name" v="Steingrunnen" />
		<tag k="natural" v="shoal" />
		<tag k="place" v="locality" />
		<tag k="ssr:stedsnr" v="784655" />
	</node>
	<node lat="58.16056944818509" lon="8.273844439360042" id="-32250">
		<tag k="name" v="Store Røysa" />
		<tag k="place" v="islet" />
		<tag k="ssr:stedsnr" v="910615" />
	</node>
	<node lat="58.22470833615283" lon="8.380363894448903" id="-32263">
		<tag k="name" v="Dyttesund" />
		<tag k="natural" v="strait" />
		<tag k="ssr:stedsnr" v="789303" />
	</node>
	<node lat="58.18619166640075" lon="8.31047777260311" id="-32266">
		<tag k="name" v="Ågerøya" />
		<tag k="place" v="island" />
		<tag k="ssr:stedsnr" v="789400" />
	</node>
	<node lat="58.196961114210204" lon="8.306133329244547" id="-32267">
		<tag k="name" v="Stakksholmane" />
		<tag k="place" v="islet" />
		<tag k="ssr:stedsnr" v="789402" />
	</node>
	<node lat="58.11850555440917" lon="8.20126944205321" id="-32268">
		<tag k="name" v="Vestre Ertholmen" />
		<tag k="place" v="islet" />
		<tag k="ssr:stedsnr" v="789506" />
	</node>
	<node lat="58.12192500191335" lon="8.231113881169525" id="-32270">
		<tag k="name" v="Krygle" />
		<tag k="place" v="islet" />
		<tag k="ssr:stedsnr" v="789527" />
	</node>
	<node lat="58.239652775253155" lon="8.365705550209618" id="-32271">
		<tag k="name" v="Lunteviga" />
		<tag k="natural" v="bay" />
		<tag k="ssr:stedsnr" v="789255" />
	</node>
	<node lat="58.1654166686504" lon="8.3055666654023" id="-32273">
		<tag k="name" v="Kålholmen" />
		<tag k="place" v="islet" />
		<tag k="ssr:stedsnr" v="789600" />
	</node>
	<node lat="58.10591388914103" lon="8.20768055388078" id="-32274">
		<tag k="name" v="Kjerringa" />
		<tag k="place" v="islet" />
		<tag k="ssr:stedsnr" v="789726" />
	</node>
	<node lat="58.15743055348146" lon="8.286572229983628" id="-32277">
		<tag k="name" v="Store Hasleberg" />
		<tag k="place" v="islet" />
		<tag k="ssr:stedsnr" v="810034" />
	</node>
	<node lat="58.14528611211914" lon="8.246950000165912" id="-32280">
		<tag k="name" v="Kjeholmen" />
		<tag k="place" v="islet" />
		<tag k="ssr:stedsnr" v="810184" />
	</node>
	<node lat="58.113538888467374" lon="8.270486105694095" id="-32286">
		<tag k="name" v="Søre Flag" />
		<tag k="natural" v="shoal" />
		<tag k="place" v="locality" />
		<tag k="ssr:stedsnr" v="810341" />
	</node>
	<node lat="58.15766666819271" lon="8.275544449831834" id="-32290">
		<tag k="name" v="Lille Røysa" />
		<tag k="place" v="islet" />
		<tag k="ssr:stedsnr" v="810203" />
	</node>
	<node lat="58.20480000401172" lon="8.315247230441392" id="-32298">
		<tag k="name" v="Ytre Klauva" />
		<tag k="natural" v="bay" />
		<tag k="ssr:stedsnr" v="810716" />
	</node>
	<node lat="58.197500001141265" lon="8.321002770951548" id="-32299">
		<tag k="name" v="Åbållbukta" />
		<tag k="natural" v="bay" />
		<tag k="ssr:stedsnr" v="810720" />
	</node>
	<node lat="58.18571944498695" lon="8.320913883187654" id="-32302">
		<tag k="name" v="Vardvig" />
		<tag k="natural" v="bay" />
		<tag k="ssr:stedsnr" v="810481" />
	</node>
	<node lat="58.18979166546404" lon="8.322313891233566" id="-32303">
		<tag k="name" v="Ågerøysund" />
		<tag k="natural" v="strait" />
		<tag k="ssr:stedsnr" v="810483" />
	</node>
	<node lat="58.236594446243245" lon="8.371538881744316" id="-32306">
		<tag k="fixme" v="consider seamark:type=rock or natural=shoal" />
		<tag k="name" v="Terneholmen" />
		<tag k="place" v="islet" />
		<tag k="ssr:stedsnr" v="810620" />
	</node>
	<node lat="58.23847222578383" lon="8.373677773405312" id="-32309">
		<tag k="name" v="Ankeret" />
		<tag k="natural" v="cape" />
		<tag k="ssr:stedsnr" v="810643" />
	</node>
	<node lat="58.11403333213684" lon="8.21305000025116" id="-32311">
		<tag k="name" v="Makrellviga" />
		<tag k="natural" v="bay" />
		<tag k="ssr:stedsnr" v="810988" />
	</node>
	<node lat="58.11429167056848" lon="8.20666110962693" id="-32312">
		<tag k="name" v="Skibbeholmen" />
		<tag k="place" v="islet" />
		<tag k="ssr:stedsnr" v="810989" />
	</node>
	<node lat="58.11436388906116" lon="8.20223332904003" id="-32313">
		<tag k="name" v="Krogsund" />
		<tag k="natural" v="strait" />
		<tag k="ssr:stedsnr" v="810990" />
	</node>
	<node lat="58.119347220956506" lon="8.221991658987235" id="-32315">
		<tag k="fixme" v="consider seamark:type=rock or natural=shoal" />
		<tag k="name" v="Teineskjær" />
		<tag k="place" v="islet" />
		<tag k="ssr:stedsnr" v="810999" />
	</node>
	<node lat="58.19501944097421" lon="8.387891661973939" id="-32319">
		<tag k="fixme" v="consider seamark:type=rock or natural=shoal" />
		<tag k="name" v="Reierskjer" />
		<tag k="place" v="islet" />
		<tag k="ssr:stedsnr" v="846617" />
	</node>
	<node lat="58.24255833510252" lon="8.37771388184366" id="-32320">
		<tag k="name" v="Sandsnes" />
		<tag k="natural" v="cape" />
		<tag k="ssr:stedsnr" v="849306" />
	</node>
	<node lat="58.1981735338843" lon="8.378664097604135" id="-32321">
		<tag k="name" v="Skjellholmene" />
		<tag k="place" v="islet" />
		<tag k="ssr:stedsnr" v="849416" />
	</node>
	<node lat="58.13391086906348" lon="8.25658098797411" id="-32322">
		<tag k="name" v="Natvigtangen" />
		<tag k="natural" v="cape" />
		<tag k="ssr:stedsnr" v="849587" />
	</node>
	<node lat="58.109747220864946" lon="8.204299994444199" id="-32332">
		<tag k="name" v="Fugleholmen" />
		<tag k="place" v="islet" />
		<tag k="ssr:stedsnr" v="850526" />
	</node>
	<node lat="58.165008330467074" lon="8.266161108792371" id="-32334">
		<tag k="name" v="Grosøya" />
		<tag k="place" v="islet" />
		<tag k="ssr:stedsnr" v="850604" />
	</node>
	<node lat="58.2117388933853" lon="8.312283331050018" id="-32338">
		<tag k="name" v="Floholmsund" />
		<tag k="natural" v="strait" />
		<tag k="ssr:stedsnr" v="870703" />
	</node>
	<node lat="58.206839281839" lon="8.338298376753983" id="-32339">
		<tag k="name" v="Gitkilen" />
		<tag k="natural" v="bay" />
		<tag k="ssr:stedsnr" v="871009" />
	</node>
	<node lat="58.20951111108916" lon="8.289108332135521" id="-32340">
		<tag k="name" v="Langholmen" />
		<tag k="natural" v="cape" />
		<tag k="ssr:stedsnr" v="871024" />
	</node>
	<node lat="58.200127779278326" lon="8.28672221656358" id="-32341">
		<tag k="name" v="Epleholmane" />
		<tag k="place" v="islet" />
		<tag k="ssr:stedsnr" v="871025" />
	</node>
	<node lat="58.20317499735419" lon="8.2553888882387" id="-32342">
		<tag k="name" v="Lauviga" />
		<tag k="natural" v="bay" />
		<tag k="ssr:stedsnr" v="871104" />
	</node>
	<node lat="58.12385555712504" lon="8.210708328222848" id="-32348">
		<tag k="name" v="Åra" />
		<tag k="natural" v="bay" />
		<tag k="ssr:stedsnr" v="871304" />
	</node>
	<node lat="58.11588610715012" lon="8.194488896213635" id="-32350">
		<tag k="name" v="Krogsbåen" />
		<tag k="place" v="locality" />
		<tag k="seamark:type" v="rock" />
		<tag k="ssr:stedsnr" v="871308" />
	</node>
	<node lat="58.115905552935935" lon="8.264252774256432" id="-32351">
		<tag k="name" v="Halen" />
		<tag k="natural" v="shoal" />
		<tag k="place" v="locality" />
		<tag k="ssr:stedsnr" v="871311" />
	</node>
	<node lat="58.11937499844746" lon="8.24926110373873" id="-32353">
		<tag k="name" v="Fløa" />
		<tag k="natural" v="shoal" />
		<tag k="place" v="locality" />
		<tag k="ssr:stedsnr" v="871317" />
	</node>
	<node lat="58.16742777721981" lon="8.247063883732666" id="-32354">
		<tag k="name" v="Stranda" />
		<tag k="natural" v="beach" />
		<tag k="ssr:stedsnr" v="871325" />
	</node>
	<node lat="58.24738055114935" lon="8.445544450014898" id="-32363">
		<tag k="fixme" v="consider seamark:type=rock or natural=shoal" />
		<tag k="name" v="Grønnasken" />
		<tag k="place" v="islet" />
		<tag k="ssr:stedsnr" v="871229" />
	</node>
	<node lat="58.19668055774982" lon="8.341366658319945" id="-32366">
		<tag k="bay" v="fjord" />
		<tag k="name" v="Kravigfjorden" />
		<tag k="natural" v="bay" />
		<tag k="ssr:stedsnr" v="871264" />
	</node>
	<node lat="58.17662500205604" lon="8.279638881340404" id="-32373">
		<tag k="name" v="Skiftensviga" />
		<tag k="natural" v="bay" />
		<tag k="ssr:stedsnr" v="871523" />
	</node>
	<node lat="58.20051666617411" lon="8.38769444046676" id="-32375">
		<tag k="name" v="Tormundsgrunnen" />
		<tag k="natural" v="shoal" />
		<tag k="place" v="locality" />
		<tag k="ssr:stedsnr" v="871708" />
	</node>
	<node lat="58.237136111886244" lon="8.399511115702328" id="-32376">
		<tag k="name" v="Langøybukta" />
		<tag k="natural" v="bay" />
		<tag k="ssr:stedsnr" v="871719" />
	</node>
	<node lat="58.14574722546059" lon="8.315261109837452" id="-32377">
		<tag k="name" v="Rabane" />
		<tag k="natural" v="shoal" />
		<tag k="place" v="locality" />
		<tag k="ssr:stedsnr" v="871475" />
	</node>
	<node lat="58.15990277580571" lon="8.243708333176372" id="-32378">
		<tag k="name" v="Søyla" />
		<tag k="natural" v="bay" />
		<tag k="ssr:stedsnr" v="871484" />
	</node>
	<node lat="58.17419166712888" lon="8.281849991937587" id="-32379">
		<tag k="name" v="Haraldsholmane" />
		<tag k="place" v="islet" />
		<tag k="ssr:stedsnr" v="871485" />
	</node>
	<node lat="58.23244166346127" lon="8.36971388826744" id="-32380">
		<tag k="name" v="Akenespynten" />
		<tag k="natural" v="cape" />
		<tag k="ssr:stedsnr" v="871609" />
	</node>
	<node lat="58.178575003043086" lon="8.30858333539928" id="-32381">
		<tag k="name" v="Ravnhilsgrunnen" />
		<tag k="natural" v="shoal" />
		<tag k="place" v="locality" />
		<tag k="ssr:stedsnr" v="871665" />
	</node>
	<node lat="58.12270277619852" lon="8.2216888832657" id="-32394">
		<tag k="bay" v="fjord" />
		<tag k="name" v="Kvivigsfjorden" />
		<tag k="natural" v="bay" />
		<tag k="ssr:stedsnr" v="871968" />
	</node>
	<node lat="58.12246111542952" lon="8.203130559199332" id="-32395">
		<tag k="name" v="Vestre Såvigholmen" />
		<tag k="place" v="islet" />
		<tag k="ssr:stedsnr" v="871974" />
	</node>
	<node lat="58.239258337790005" lon="8.382419441251562" id="-32399">
		<tag k="name" v="Speiderhola" />
		<tag k="natural" v="bay" />
		<tag k="ssr:stedsnr" v="931661" />
	</node>
	<node lat="58.24299444888302" lon="8.39073055765118" id="-32400">
		<tag k="name" v="Risholmstanga" />
		<tag k="natural" v="shoal" />
		<tag k="place" v="locality" />
		<tag k="ssr:stedsnr" v="931668" />
	</node>
	<node lat="58.11739722641679" lon="8.240583327841067" id="-32404">
		<tag k="fixme" v="consider seamark:type=rock or natural=shoal" />
		<tag k="name" v="Flade Simons båe" />
		<tag k="place" v="islet" />
		<tag k="ssr:stedsnr" v="931333" />
	</node>
	<node lat="58.12473888733036" lon="8.274083337546859" id="-32405">
		<tag k="name" v="Nordre Flag" />
		<tag k="natural" v="shoal" />
		<tag k="place" v="locality" />
		<tag k="ssr:stedsnr" v="931356" />
	</node>
	<node lat="58.109097218958105" lon="8.27244167360111" id="-32406">
		<tag k="name" v="Ytste Sidegrunnen" />
		<tag k="natural" v="shoal" />
		<tag k="place" v="locality" />
		<tag k="ssr:stedsnr" v="931360" />
	</node>
	<node lat="58.10934444353143" lon="8.229852778244322" id="-32407">
		<tag k="name" v="Mågegrunnen" />
		<tag k="natural" v="shoal" />
		<tag k="place" v="locality" />
		<tag k="ssr:stedsnr" v="931364" />
	</node>
	<node lat="58.15970555233253" lon="8.272636112873322" id="-32410">
		<tag k="name" v="Buttangsund" />
		<tag k="natural" v="strait" />
		<tag k="ssr:stedsnr" v="931374" />
	</node>
	<node lat="58.15879444149146" lon="8.261686107221148" id="-32411">
		<tag k="name" v="Fladholmen" />
		<tag k="place" v="islet" />
		<tag k="ssr:stedsnr" v="931375" />
	</node>
	<node lat="58.154305558871364" lon="8.271188883395473" id="-32413">
		<tag k="name" v="Svinehola" />
		<tag k="natural" v="bay" />
		<tag k="ssr:stedsnr" v="931386" />
	</node>
	<node lat="58.11566388456929" lon="8.262549993329332" id="-32414">
		<tag k="fixme" v="consider seamark:type=rock or natural=shoal" />
		<tag k="name" v="Hummerskjær" />
		<tag k="place" v="islet" />
		<tag k="ssr:stedsnr" v="931336" />
	</node>
	<node lat="58.19663055208786" lon="8.373438892950444" id="-32415">
		<tag k="name" v="Lille Huholmen" />
		<tag k="place" v="islet" />
		<tag k="ssr:stedsnr" v="931755" />
	</node>
	<node lat="58.20825833546115" lon="8.386055548968804" id="-32416">
		<tag k="name" v="Buksestad" />
		<tag k="natural" v="bay" />
		<tag k="ssr:stedsnr" v="931762" />
	</node>
	<node lat="58.23005833681904" lon="8.388138884015609" id="-32417">
		<tag k="name" v="Vestre Hestholmbukta" />
		<tag k="natural" v="bay" />
		<tag k="ssr:stedsnr" v="931773" />
	</node>
	<node lat="58.23622221906932" lon="8.418755551259009" id="-32418">
		<tag k="name" v="Krygle" />
		<tag k="place" v="islet" />
		<tag k="ssr:stedsnr" v="931782" />
	</node>
	<node lat="58.200722002413556" lon="8.25086188756025" id="-32424">
		<tag k="bay" v="fjord" />
		<tag k="name" v="Vallesverdfjorden" />
		<tag k="natural" v="bay" />
		<tag k="ssr:stedsnr" v="932112" />
	</node>
	<node lat="58.19451944887537" lon="8.334436107729474" id="-32432">
		<tag k="name" v="Vadsaula" />
		<tag k="natural" v="bay" />
		<tag k="ssr:stedsnr" v="931866" />
	</node>
	<node lat="58.177499996833205" lon="8.225680561889227" id="-32434">
		<tag k="name" v="Storeid" />
		<tag k="place" v="locality" />
		<tag k="ssr:stedsnr" v="932065" />
	</node>
	<node lat="58.184238891006565" lon="8.200780556488326" id="-32439">
		<tag k="name" v="Ørnestangen" />
		<tag k="natural" v="cape" />
		<tag k="ssr:stedsnr" v="932079" />
	</node>
	<node lat="58.1385055558752" lon="8.250777786144042" id="-32441">
		<tag k="name" v="Randleviga" />
		<tag k="natural" v="bay" />
		<tag k="ssr:stedsnr" v="932162" />
	</node>
	<node lat="58.13240882835878" lon="8.258382774674594" id="-32442">
		<tag k="fixme" v="consider seamark:type=rock or natural=shoal" />
		<tag k="name" v="Store Spaknesskjær" />
		<tag k="place" v="islet" />
		<tag k="ssr:stedsnr" v="932169" />
	</node>
	<node lat="58.132141409650266" lon="8.259930501806313" id="-32443">
		<tag k="fixme" v="consider seamark:type=rock or natural=shoal" />
		<tag k="name" v="Lille Spaknesskjær" />
		<tag k="place" v="islet" />
		<tag k="ssr:stedsnr" v="932171" />
	</node>
	<node lat="58.14938845680373" lon="8.230585519229226" id="-32445">
		<tag k="name" v="Skjeviga" />
		<tag k="natural" v="bay" />
		<tag k="ssr:stedsnr" v="932178" />
	</node>
	<node lat="58.17063611082937" lon="8.322405561551008" id="-32467">
		<tag k="name" v="Fladholmgrunnen" />
		<tag k="natural" v="shoal" />
		<tag k="place" v="locality" />
		<tag k="ssr:stedsnr" v="932892" />
	</node>
	<node lat="58.12808888840697" lon="8.239169436054654" id="-32468">
		<tag k="name" v="Mellom Årholmen" />
		<tag k="place" v="islet" />
		<tag k="ssr:stedsnr" v="932894" />
	</node>
	<node lat="58.1240527786498" lon="8.235094443592606" id="-32469">
		<tag k="name" v="Vestre Seiviga" />
		<tag k="natural" v="bay" />
		<tag k="ssr:stedsnr" v="932896" />
	</node>
	<node lat="58.24998611474379" lon="8.443188881797035" id="-32475">
		<tag k="name" v="Risholmen" />
		<tag k="place" v="islet" />
		<tag k="ssr:stedsnr" v="932772" />
	</node>
	<node lat="58.114880556496466" lon="8.209438887282243" id="-32484">
		<tag k="name" v="Bertesviga" />
		<tag k="natural" v="bay" />
		<tag k="ssr:stedsnr" v="932990" />
	</node>
	<node lat="58.12516389219919" lon="8.217286113381697" id="-32485">
		<tag k="name" v="Småsund" />
		<tag k="natural" v="strait" />
		<tag k="ssr:stedsnr" v="932998" />
	</node>
	<node lat="58.10770000101948" lon="8.198675008277657" id="-32487">
		<tag k="name" v="Store Tavlane" />
		<tag k="place" v="islet" />
		<tag k="ssr:stedsnr" v="932902" />
	</node>
	<node lat="58.18329166809419" lon="8.285497217906657" id="-32495">
		<tag k="name" v="Haugevigneset" />
		<tag k="natural" v="cape" />
		<tag k="ssr:stedsnr" v="910409" />
	</node>
	<node lat="58.15664166891686" lon="8.26862778380747" id="-32497">
		<tag k="name" v="Indre Tronderøya" />
		<tag k="place" v="island" />
		<tag k="ssr:stedsnr" v="910577" />
	</node>
	<node lat="58.18003889068741" lon="8.348558341308207" id="-32503">
		<tag k="name" v="Lille Savene" />
		<tag k="natural" v="shoal" />
		<tag k="place" v="locality" />
		<tag k="ssr:stedsnr" v="931294" />
	</node>
	<node lat="58.17536944234451" lon="8.286274996159232" id="-32504">
		<tag k="name" v="Store Akkuraten" />
		<tag k="place" v="islet" />
		<tag k="ssr:stedsnr" v="931560" />
	</node>
	<node lat="58.15386666961858" lon="8.245777784446334" id="-32506">
		<tag k="fixme" v="consider seamark:type=rock or natural=shoal" />
		<tag k="name" v="Selskjærane" />
		<tag k="place" v="islet" />
		<tag k="ssr:stedsnr" v="931608" />
	</node>
	<node lat="58.1459388859128" lon="8.279888883500648" id="-32507">
		<tag k="fixme" v="consider seamark:type=rock or natural=shoal" />
		<tag k="name" v="Kvalsholmsskjær" />
		<tag k="place" v="islet" />
		<tag k="ssr:stedsnr" v="931623" />
	</node>
	<node lat="58.13055555535923" lon="8.287680547964843" id="-32508">
		<tag k="name" v="Tønneses teinegrunne" />
		<tag k="natural" v="shoal" />
		<tag k="place" v="locality" />
		<tag k="ssr:stedsnr" v="931627" />
	</node>
	<node lat="58.23645555148192" lon="8.38002221650456" id="-32510">
		<tag k="name" v="Skauerøybukta" />
		<tag k="natural" v="bay" />
		<tag k="ssr:stedsnr" v="931643" />
	</node>
	<node lat="58.22585277776153" lon="8.362497229897073" id="-32511">
		<tag k="name" v="Offersviga" />
		<tag k="natural" v="bay" />
		<tag k="ssr:stedsnr" v="931651" />
	</node>
	<node lat="58.190605552268586" lon="8.336877771155986" id="-32512">
		<tag k="fixme" v="consider seamark:type=rock or natural=shoal" />
		<tag k="name" v="Greibesteinskjæra" />
		<tag k="place" v="islet" />
		<tag k="ssr:stedsnr" v="931695" />
	</node>
	<node lat="58.189769444579966" lon="8.38529445108861" id="-32513">
		<tag k="name" v="Hellene" />
		<tag k="natural" v="shoal" />
		<tag k="place" v="locality" />
		<tag k="ssr:stedsnr" v="931702" />
	</node>
	<node lat="58.20222222344563" lon="8.303063895719792" id="-32514">
		<tag k="name" v="Kvarsnesnosa" />
		<tag k="natural" v="cape" />
		<tag k="ssr:stedsnr" v="931740" />
	</node>
	<node lat="58.214641666404574" lon="8.29551666880871" id="-32515">
		<tag k="name" v="Sirishol" />
		<tag k="natural" v="bay" />
		<tag k="ssr:stedsnr" v="931748" />
	</node>
	<node lat="58.20249166274179" lon="8.314136106362833" id="-32516">
		<tag k="name" v="Jonsøysund" />
		<tag k="natural" v="strait" />
		<tag k="ssr:stedsnr" v="932003" />
	</node>
	<node lat="58.21430833250995" lon="8.294083326422598" id="-32517">
		<tag k="name" v="Sandvigholmen" />
		<tag k="place" v="islet" />
		<tag k="ssr:stedsnr" v="932009" />
	</node>
	<node lat="58.200138891253445" lon="8.294591665235746" id="-32518">
		<tag k="name" v="Ravnbergsund" />
		<tag k="natural" v="strait" />
		<tag k="ssr:stedsnr" v="932011" />
	</node>
	<node lat="58.158105557294675" lon="8.284861115616351" id="-32519">
		<tag k="name" v="Lille Hasleberg" />
		<tag k="place" v="islet" />
		<tag k="ssr:stedsnr" v="932022" />
	</node>
	<node lat="58.169897224494356" lon="8.313569444638722" id="-32523">
		<tag k="name" v="Fladholmen" />
		<tag k="place" v="islet" />
		<tag k="ssr:stedsnr" v="932046" />
	</node>
	<node lat="58.13928333521565" lon="8.267277773112177" id="-32533">
		<tag k="name" v="Søre Lyngholmen" />
		<tag k="place" v="islet" />
		<tag k="ssr:stedsnr" v="932155" />
	</node>
	<node lat="58.2541249999031" lon="8.43756110776643" id="-32540">
		<tag k="name" v="Midtsundet" />
		<tag k="natural" v="strait" />
		<tag k="ssr:stedsnr" v="932822" />
	</node>
	<node lat="58.12378611381594" lon="8.2251472248214" id="-32544">
		<tag k="name" v="Fureviga" />
		<tag k="natural" v="bay" />
		<tag k="ssr:stedsnr" v="932863" />
	</node>
	<node lat="58.2267249973252" lon="8.370719439654748" id="-32546">
		<tag k="name" v="Vassdalsbukta" />
		<tag k="natural" v="bay" />
		<tag k="ssr:stedsnr" v="933453" />
	</node>
	<node lat="58.223857358536605" lon="8.424842261013112" id="-32577">
		<tag k="name" v="Malmgrunnen" />
		<tag k="natural" v="shoal" />
		<tag k="place" v="locality" />
		<tag k="ssr:stedsnr" v="982427" />
	</node>
	<node lat="58.16133542332036" lon="8.270228760076304" id="-32583">
		<tag k="name" v="Høgholmen" />
		<tag k="place" v="islet" />
		<tag k="ssr:stedsnr" v="983046" />
	</node>
	<node lat="58.23019166294365" lon="8.431533339928272" id="-32594">
		<tag k="fixme" v="consider seamark:type=rock or natural=shoal" />
		<tag k="name" v="Svertingen" />
		<tag k="place" v="islet" />
		<tag k="ssr:stedsnr" v="293" />
	</node>
	<node lat="58.22933611287479" lon="8.355269450472024" id="-32595">
		<tag k="name" v="Grønnviga" />
		<tag k="natural" v="bay" />
		<tag k="ssr:stedsnr" v="295" />
	</node>
	<node lat="58.19089722376778" lon="8.329663889655697" id="-32596">
		<tag k="name" v="Håholmen" />
		<tag k="place" v="islet" />
		<tag k="ssr:stedsnr" v="390" />
	</node>
	<node lat="58.23919965046311" lon="8.415075825725653" id="-32598">
		<tag k="name" v="Bergsøya" />
		<tag k="place" v="islet" />
		<tag k="ssr:stedsnr" v="318" />
	</node>
	<node lat="58.14696389258965" lon="8.300077773638229" id="-32602">
		<tag k="fixme" v="consider seamark:type=rock or natural=shoal" />
		<tag k="name" v="Svertingen" />
		<tag k="place" v="islet" />
		<tag k="ssr:stedsnr" v="530" />
	</node>
	<node lat="58.146988886690025" lon="8.19279999388559" id="-32603">
		<tag k="name" v="Malløya" />
		<tag k="place" v="islet" />
		<tag k="ssr:stedsnr" v="580" />
	</node>
	<node lat="58.15891388777843" lon="8.192922226498109" id="-32606">
		<tag k="name" v="Lamholmen" />
		<tag k="place" v="islet" />
		<tag k="ssr:stedsnr" v="615" />
	</node>
	<node lat="58.15628333274597" lon="8.334894439666618" id="-32609">
		<tag k="alt_name" v="Berggrunnene" />
		<tag k="name" v="Berggrunnen" />
		<tag k="natural" v="shoal" />
		<tag k="place" v="locality" />
		<tag k="ssr:stedsnr" v="21569" />
	</node>
	<node lat="58.15738055116892" lon="8.323997226141302" id="-32610">
		<tag k="name" v="Furegrunnen" />
		<tag k="natural" v="shoal" />
		<tag k="place" v="locality" />
		<tag k="ssr:stedsnr" v="21570" />
	</node>
	<node lat="58.20706111374069" lon="8.317380560946628" id="-32612">
		<tag k="name" v="Trollviga" />
		<tag k="natural" v="bay" />
		<tag k="ssr:stedsnr" v="21721" />
	</node>
</osm>
