<?xml version="1.0" encoding="UTF-8"?>
<<<<<<< HEAD
<osm version="0.6" generator="osmapis">
	<node lat="58.23363611216983" lon="8.250372221243639" id="-38736">
		<tag k="alt_name" v="Glastadvann;Gladstadvann" />
		<tag k="name" v="Gladstadvannet" />
		<tag k="natural" v="water" />
		<tag k="ssr:stedsnr" v="272" />
		<tag k="water" v="lake" />
	</node>
	<node lat="58.21372500307196" lon="8.243649996692277" id="-38770">
		<tag k="name" v="Revhusdalstjønna" />
		<tag k="natural" v="water" />
		<tag k="ssr:stedsnr" v="22101" />
	</node>
	<node lat="58.211697217736436" lon="8.242561106381222" id="-38782">
		<tag k="name" v="Buhustjønna" />
		<tag k="natural" v="water" />
		<tag k="ssr:stedsnr" v="22099" />
	</node>
	<node lat="58.17184722115358" lon="8.202980560626209" id="-38787">
		<tag k="name" v="Hamtjønn" />
		<tag k="natural" v="water" />
		<tag k="ssr:stedsnr" v="22200" />
	</node>
	<node lat="58.32072777773432" lon="8.332047214354445" id="-38792">
		<tag k="name" v="Nebetrøkilen" />
		<tag k="natural" v="bay" />
		<tag k="ssr:stedsnr" v="22284" />
	</node>
	<node lat="58.1848138894672" lon="8.190466670497948" id="-38808">
		<tag k="alt_name" v="Svartetjønn" />
		<tag k="name" v="Svartholtjørna" />
=======
<osm generator="osmapis" version="0.6">
	<node id="-532991" lat="58.2477305535" lon="8.35941944328">
		<tag k="name" v="Borkedalsstemmen" />
		<tag k="natural" v="water" />
		<tag k="ssr:stedsnr" v="142932" />
		<tag k="water" v="lake" />
	</node>
	<node id="-532478" lat="58.3140916698" lon="8.3262333347">
		<tag k="name" v="Kristiholmen" />
		<tag k="place" v="islet" />
		<tag k="ssr:stedsnr" v="932289" />
	</node>
	<node id="-532477" lat="58.3084055545" lon="8.30983332828">
		<tag k="name" v="Villetjønn" />
		<tag k="natural" v="water" />
		<tag k="ssr:stedsnr" v="932286" />
	</node>
	<node id="-532476" lat="58.3185999999" lon="8.30766944224">
		<tag k="name" v="Refsnes" />
		<tag k="natural" v="cape" />
		<tag k="ssr:stedsnr" v="932283" />
	</node>
	<node id="-533247" lat="58.2791833299" lon="8.27357223031">
		<tag k="name" v="Krogtjønn" />
>>>>>>> e1d4bc35ff8a6074a6f2e91616a996b547c36f15
		<tag k="natural" v="water" />
		<tag k="ssr:stedsnr" v="325335" />
	</node>
<<<<<<< HEAD
	<node lat="58.27144999574391" lon="8.36309166333126" id="-38813">
		<tag k="fixme" v="multiple name tags, choose one and add the other to alt_name" />
		<tag k="name" v="Store Kvernvann;Kverntjønn" />
		<tag k="natural" v="water" />
		<tag k="ssr:stedsnr" v="60721" />
	</node>
	<node lat="58.24190555371779" lon="8.356588886229924" id="-38824">
		<tag k="name" v="Sekkebekk" />
		<tag k="ssr:stedsnr" v="242265" />
		<tag k="waterway" v="stream" />
	</node>
	<node lat="58.233736110522166" lon="8.29418610432761" id="-38830">
		<tag k="name" v="Fjelldalselva" />
		<tag k="ssr:stedsnr" v="243241" />
		<tag k="waterway" v="stream" />
	</node>
	<node lat="58.31607512343968" lon="8.324400839969837" id="-38833">
		<tag k="alt_name" v="Vestre Grimevann" />
		<tag k="name" v="Vestre Grimevannet" />
		<tag k="natural" v="water" />
		<tag k="ssr:stedsnr" v="243261" />
		<tag k="water" v="lake" />
	</node>
	<node lat="58.29710655109244" lon="8.351859640951943" id="-38836">
		<tag k="name" v="Fisketjønn" />
		<tag k="natural" v="water" />
		<tag k="ssr:stedsnr" v="243296" />
	</node>
	<node lat="58.18981666440487" lon="8.243055553488942" id="-38841">
		<tag k="alt_name" v="Småtjørn" />
		<tag k="name" v="Småtjønn" />
		<tag k="natural" v="water" />
		<tag k="ssr:stedsnr" v="243373" />
	</node>
	<node lat="58.187444448303296" lon="8.268563890091142" id="-38843">
		<tag k="name" v="Hamtjønn" />
		<tag k="natural" v="water" />
		<tag k="ssr:stedsnr" v="243394" />
	</node>
	<node lat="58.17329722371724" lon="8.161311118313543" id="-38846">
		<tag k="alt_name" v="Sjutjønnane" />
		<tag k="name" v="Sjutjørnane" />
		<tag k="natural" v="water" />
		<tag k="ssr:stedsnr" v="243416" />
		<tag k="water" v="lake" />
	</node>
	<node lat="58.224816667353046" lon="8.205186118728605" id="-38863">
		<tag k="name" v="Ulsholmen" />
		<tag k="natural" v="cape" />
		<tag k="ssr:stedsnr" v="82310" />
	</node>
	<node lat="58.32724166528103" lon="8.329300002100437" id="-38866">
		<tag k="name" v="Froholtbekken" />
		<tag k="ssr:stedsnr" v="82332" />
		<tag k="waterway" v="stream" />
	</node>
	<node lat="58.245608329475125" lon="8.341075006656489" id="-38900">
		<tag k="name" v="Lille Korvtjønn" />
		<tag k="natural" v="water" />
		<tag k="ssr:stedsnr" v="82924" />
	</node>
	<node lat="58.29540555709416" lon="8.315744448788196" id="-38909">
		<tag k="name" v="Svartetjønn" />
		<tag k="natural" v="water" />
		<tag k="ssr:stedsnr" v="121315" />
	</node>
	<node lat="58.28381389324983" lon="8.382877784380186" id="-38923">
		<tag k="name" v="Bjørkøya" />
		<tag k="place" v="islet" />
		<tag k="ssr:stedsnr" v="121725" />
	</node>
	<node lat="58.30068611522416" lon="8.395008334075635" id="-38947">
		<tag k="name" v="Vatnekilen" />
		<tag k="natural" v="bay" />
		<tag k="ssr:stedsnr" v="142802" />
	</node>
	<node lat="58.30176666356015" lon="8.322399997046183" id="-38954">
		<tag k="name" v="Ydderstadkilen" />
		<tag k="natural" v="bay" />
		<tag k="ssr:stedsnr" v="142842" />
	</node>
	<node lat="58.30021944407243" lon="8.390422220086727" id="-38959">
		<tag k="name" v="Kjerkeholmen" />
		<tag k="place" v="islet" />
		<tag k="ssr:stedsnr" v="142801" />
	</node>
	<node lat="58.24773055352526" lon="8.359419443279565" id="-38965">
		<tag k="name" v="Borkedalsstemmen" />
		<tag k="natural" v="water" />
		<tag k="ssr:stedsnr" v="142932" />
		<tag k="water" v="lake" />
	</node>
	<node lat="58.279183329863976" lon="8.273572230312842" id="-38980">
		<tag k="name" v="Krogtjønn" />
		<tag k="natural" v="water" />
		<tag k="ssr:stedsnr" v="325335" />
	</node>
	<node lat="58.17594444215938" lon="8.15027500700348" id="-38984">
		<tag k="alt_name" v="Igletjørn, nedre" />
		<tag k="name" v="Nedre Igletjørn" />
		<tag k="natural" v="water" />
		<tag k="ssr:stedsnr" v="182414" />
	</node>
	<node lat="58.21787778158628" lon="8.190644444055838" id="-38989">
		<tag k="alt_name" v="Torborgstjønn" />
		<tag k="name" v="Torborgtjørna" />
		<tag k="natural" v="water" />
		<tag k="ssr:stedsnr" v="182456" />
	</node>
	<node lat="58.312986114900085" lon="8.324436117808048" id="-39010">
		<tag k="name" v="Bærholmen" />
		<tag k="place" v="islet" />
		<tag k="ssr:stedsnr" v="264291" />
	</node>
	<node lat="58.31509721939465" lon="8.361222215149972" id="-39011">
		<tag k="name" v="Grimøya" />
		<tag k="place" v="island" />
		<tag k="ssr:stedsnr" v="264301" />
	</node>
	<node lat="58.2455750008476" lon="8.266827779209477" id="-39038">
		<tag k="name" v="Flubergstem" />
		<tag k="ssr:stedsnr" v="264357" />
		<tag k="waterway" v="dam" />
	</node>
	<node lat="58.291419441686884" lon="8.38548888184343" id="-39061">
		<tag k="name" v="Olasvig" />
		<tag k="natural" v="bay" />
		<tag k="ssr:stedsnr" v="264778" />
	</node>
	<node lat="58.30879166879797" lon="8.392919440739117" id="-39068">
		<tag k="name" v="Kvernhusbekken" />
		<tag k="ssr:stedsnr" v="264624" />
		<tag k="waterway" v="stream" />
	</node>
	<node lat="58.192836111382135" lon="8.233038894355007" id="-39106">
		<tag k="name" v="Bragetjønn" />
		<tag k="natural" v="water" />
		<tag k="ssr:stedsnr" v="204052" />
	</node>
	<node lat="58.21780938288354" lon="8.362679389191888" id="-39112">
		<tag k="name" v="Mebøkilen" />
		<tag k="natural" v="bay" />
		<tag k="ssr:stedsnr" v="204375" />
	</node>
	<node lat="58.250722224938414" lon="8.306294450340106" id="-39114">
		<tag k="name" v="Songefjelltjønna" />
		<tag k="natural" v="water" />
		<tag k="ssr:stedsnr" v="204389" />
	</node>
	<node lat="58.298969448907435" lon="8.328250002617198" id="-39128">
		<tag k="name" v="Budalstjønna" />
		<tag k="natural" v="water" />
		<tag k="ssr:stedsnr" v="204804" />
	</node>
	<node lat="58.17850555921088" lon="8.197083333452415" id="-39140">
		<tag k="alt_name" v="Barlindtjørna" />
		<tag k="name" v="Barlindtjønn" />
		<tag k="natural" v="water" />
		<tag k="ssr:stedsnr" v="242399" />
	</node>
	<node lat="58.18181944279986" lon="8.260436115921605" id="-39141">
		<tag k="name" v="Haugevigtjønna" />
		<tag k="natural" v="water" />
		<tag k="ssr:stedsnr" v="242400" />
	</node>
	<node lat="58.28126944101498" lon="8.349725006397517" id="-39144">
		<tag k="name" v="Ormetjønn" />
		<tag k="natural" v="water" />
		<tag k="ssr:stedsnr" v="243750" />
	</node>
	<node lat="58.28751666657919" lon="8.399616659279895" id="-39145">
		<tag k="alt_name" v="Kaldvelltjønnene" />
		<tag k="name" v="Kaldvelltjønn" />
		<tag k="natural" v="water" />
		<tag k="ssr:stedsnr" v="243757" />
		<tag k="water" v="lake" />
	</node>
	<node lat="58.3103805551031" lon="8.332627773656016" id="-39149">
		<tag k="name" v="Nedre Tjusnes" />
		<tag k="natural" v="cape" />
		<tag k="ssr:stedsnr" v="264244" />
	</node>
	<node lat="58.11213610669182" lon="8.214219437668946" id="-39184">
		<tag k="name" v="Sandpytten" />
		<tag k="natural" v="water" />
		<tag k="ssr:stedsnr" v="264994" />
		<tag k="water" v="pond" />
	</node>
	<node lat="58.28856388985675" lon="8.383527781673434" id="-39186">
		<tag k="name" v="Gråodden" />
		<tag k="natural" v="cape" />
		<tag k="ssr:stedsnr" v="265787" />
	</node>
	<node lat="58.231741665954544" lon="8.317213886658811" id="-39197">
		<tag k="name" v="Stemtjørn" />
		<tag k="natural" v="water" />
		<tag k="ssr:stedsnr" v="303283" />
	</node>
	<node lat="58.14208055502262" lon="8.23021388139038" id="-39207">
		<tag k="name" v="Årsnestjønna" />
		<tag k="natural" v="water" />
		<tag k="ssr:stedsnr" v="304596" />
	</node>
	<node lat="58.31370555380984" lon="8.3569944431965" id="-39231">
		<tag k="name" v="Stubbesund" />
		<tag k="natural" v="strait" />
		<tag k="ssr:stedsnr" v="325268" />
	</node>
	<node lat="58.296602773639876" lon="8.436469447587612" id="-39239">
		<tag k="name" v="Lillemyrtjønn" />
		<tag k="natural" v="water" />
		<tag k="ssr:stedsnr" v="325775" />
	</node>
	<node lat="58.278055558096455" lon="8.389130547275034" id="-39243">
		<tag k="name" v="Øvre Osen" />
		<tag k="natural" v="bay" />
		<tag k="ssr:stedsnr" v="325827" />
	</node>
	<node lat="58.29496666510944" lon="8.293805550124656" id="-39254">
		<tag k="name" v="Åletjønn" />
		<tag k="natural" v="water" />
		<tag k="ssr:stedsnr" v="364306" />
	</node>
	<node lat="58.32016666964827" lon="8.340347226805765" id="-39273">
		<tag k="name" v="Neset" />
		<tag k="natural" v="cape" />
		<tag k="ssr:stedsnr" v="385309" />
	</node>
	<node lat="58.293430557829204" lon="8.297277783316584" id="-39303">
		<tag k="name" v="Lommetjønn" />
		<tag k="natural" v="water" />
		<tag k="ssr:stedsnr" v="385827" />
	</node>
	<node lat="58.26078055881344" lon="8.396986118606463" id="-39306">
		<tag k="name" v="Fasterdammen" />
		<tag k="natural" v="water" />
		<tag k="ssr:stedsnr" v="385865" />
	</node>
	<node lat="58.24409444070167" lon="8.263272222962593" id="-39315">
		<tag k="alt_name" v="Rundetjørn" />
		<tag k="name" v="Rundetjønn" />
		<tag k="natural" v="water" />
		<tag k="ssr:stedsnr" v="485284" />
	</node>
	<node lat="58.24797222142845" lon="8.339236115160473" id="-39316">
		<tag k="name" v="Tvitjønnene" />
		<tag k="natural" v="water" />
		<tag k="ssr:stedsnr" v="485288" />
		<tag k="water" v="lake" />
	</node>
	<node lat="58.17484163909999" lon="8.1907004707955" id="-39320">
		<tag k="name" v="Toretjønn" />
		<tag k="natural" v="water" />
		<tag k="ssr:stedsnr" v="485351" />
	</node>
	<node lat="58.1757666691084" lon="8.196483333876547" id="-39321">
		<tag k="alt_name" v="Mellomtjørn" />
		<tag k="name" v="Mellomtjønn" />
		<tag k="natural" v="water" />
		<tag k="ssr:stedsnr" v="485352" />
	</node>
	<node lat="58.26774830457068" lon="8.25645274018869" id="-39327">
		<tag k="alt_name" v="Grunnevann" />
		<tag k="name" v="Grunnevannet" />
		<tag k="natural" v="water" />
		<tag k="ssr:stedsnr" v="485679" />
	</node>
	<node lat="58.295938892477196" lon="8.377213892189602" id="-39329">
		<tag k="alt_name" v="Furuholmen" />
		<tag k="name" v="Furu-øya" />
		<tag k="place" v="islet" />
		<tag k="ssr:stedsnr" v="485694" />
	</node>
	<node lat="58.22831666445279" lon="8.251261114034838" id="-39334">
		<tag k="alt_name" v="Gåsetjørn" />
		<tag k="name" v="Gåsetjønn" />
		<tag k="natural" v="water" />
		<tag k="ssr:stedsnr" v="425295" />
	</node>
	<node lat="58.31449444648891" lon="8.352900001372328" id="-39357">
		<tag k="name" v="Einerkilen" />
		<tag k="natural" v="bay" />
		<tag k="ssr:stedsnr" v="446334" />
	</node>
	<node lat="58.31474444019684" lon="8.369705561123242" id="-39358">
		<tag k="name" v="Bligsfjorden" />
		<tag k="natural" v="water" />
		<tag k="ssr:stedsnr" v="446335" />
		<tag k="water" v="lake" />
	</node>
	<node lat="58.30912778079459" lon="8.389336104555378" id="-39359">
		<tag k="name" v="Kvernhuskilen" />
		<tag k="natural" v="bay" />
		<tag k="ssr:stedsnr" v="446302" />
	</node>
	<node lat="58.225475133762004" lon="8.338639121212891" id="-39400">
		<tag k="name" v="Blindevannet" />
		<tag k="natural" v="water" />
		<tag k="ssr:stedsnr" v="485372" />
		<tag k="water" v="lake" />
	</node>
	<node lat="58.22081111311992" lon="8.327691672196048" id="-39401">
		<tag k="name" v="Storestemtjønna" />
		<tag k="natural" v="water" />
		<tag k="ssr:stedsnr" v="485374" />
	</node>
	<node lat="58.20659999609603" lon="8.210330558931735" id="-39406">
		<tag k="name" v="Urevann" />
		<tag k="natural" v="water" />
		<tag k="ssr:stedsnr" v="485429" />
	</node>
	<node lat="58.26709444800824" lon="8.321658327399884" id="-39407">
		<tag k="name" v="Fjellvannet" />
		<tag k="natural" v="water" />
		<tag k="ssr:stedsnr" v="485659" />
	</node>
	<node lat="58.315288884550114" lon="8.317938890958649" id="-39444">
		<tag k="name" v="Tingsbekkholmen" />
		<tag k="place" v="islet" />
		<tag k="ssr:stedsnr" v="507265" />
	</node>
	<node lat="58.2871083331688" lon="8.278727778423448" id="-39459">
		<tag k="name" v="Stribletjønn" />
		<tag k="natural" v="water" />
		<tag k="ssr:stedsnr" v="507824" />
	</node>
	<node lat="58.24485000103636" lon="8.288725007704178" id="-39465">
		<tag k="name" v="Nystem" />
		<tag k="natural" v="water" />
		<tag k="ssr:stedsnr" v="546321" />
	</node>
	<node lat="58.17252222392729" lon="8.147552770529591" id="-39474">
		<tag k="alt_name" v="Grundebutjørnane" />
		<tag k="name" v="Grundebutjønn" />
		<tag k="natural" v="water" />
		<tag k="ssr:stedsnr" v="546393" />
	</node>
	<node lat="58.286319441089894" lon="8.370030563588195" id="-39543">
		<tag k="name" v="Sandviga" />
		<tag k="natural" v="bay" />
		<tag k="ssr:stedsnr" v="690783" />
	</node>
	<node lat="58.32020555497875" lon="8.389125000915238" id="-39563">
		<tag k="name" v="Bjorkilen" />
		<tag k="natural" v="bay" />
		<tag k="ssr:stedsnr" v="567272" />
	</node>
	<node lat="58.32001944556736" lon="8.320075002124401" id="-39565">
		<tag k="name" v="Kokkekilen" />
		<tag k="natural" v="bay" />
		<tag k="ssr:stedsnr" v="567282" />
	</node>
	<node lat="58.321686111350225" lon="8.35741944604926" id="-39568">
		<tag k="name" v="Grimeelva" />
		<tag k="ssr:stedsnr" v="567302" />
		<tag k="waterway" v="stream" />
	</node>
	<node lat="58.244694447937135" lon="8.328694436711338" id="-39608">
		<tag k="name" v="Glamslandvatnet" />
		<tag k="natural" v="water" />
		<tag k="ssr:stedsnr" v="606321" />
		<tag k="water" v="lake" />
	</node>
	<node lat="58.25964166760195" lon="8.404466659310476" id="-39621">
		<tag k="alt_name" v="Langedalsvann" />
		<tag k="name" v="Langedalsvannet" />
		<tag k="natural" v="water" />
		<tag k="ssr:stedsnr" v="606705" />
	</node>
	<node lat="58.27139444507384" lon="8.376258335670066" id="-39623">
		<tag k="alt_name" v="Eftevann" />
		<tag k="name" v="Eftevannet" />
		<tag k="natural" v="water" />
		<tag k="ssr:stedsnr" v="606713" />
	</node>
	<node lat="58.251691667432105" lon="8.287194452724554" id="-39624">
		<tag k="name" v="Skarvedalstjønn" />
		<tag k="natural" v="water" />
		<tag k="ssr:stedsnr" v="606699" />
	</node>
	<node lat="58.22978055688277" lon="8.202497229748474" id="-39664">
		<tag k="name" v="Brennvinstjønna" />
		<tag k="natural" v="water" />
		<tag k="ssr:stedsnr" v="628316" />
	</node>
	<node lat="58.29961944785059" lon="8.366305548167938" id="-39685">
		<tag k="name" v="Andersesbukt" />
		<tag k="natural" v="bay" />
		<tag k="ssr:stedsnr" v="629751" />
	</node>
	<node lat="58.30465277389994" lon="8.348883331680565" id="-39690">
		<tag k="name" v="Tvieidet" />
		<tag k="place" v="locality" />
		<tag k="ssr:stedsnr" v="667285" />
	</node>
	<node lat="58.2282666663728" lon="8.31504721551457" id="-39692">
		<tag k="alt_name" v="Mellomtjørn" />
		<tag k="name" v="Mellomtjønn" />
		<tag k="natural" v="water" />
		<tag k="ssr:stedsnr" v="667294" />
	</node>
	<node lat="58.30741111136178" lon="8.413749993670072" id="-39693">
		<tag k="name" v="Blautetjønn" />
		<tag k="natural" v="water" />
		<tag k="ssr:stedsnr" v="667297" />
	</node>
	<node lat="58.321519446469495" lon="8.341711118402266" id="-39733">
		<tag k="name" v="Tjønna" />
		<tag k="natural" v="water" />
		<tag k="ssr:stedsnr" v="689306" />
	</node>
	<node lat="58.22781666653598" lon="8.211538895693245" id="-39734">
		<tag k="name" v="Støletjønn" />
		<tag k="natural" v="water" />
		<tag k="ssr:stedsnr" v="689332" />
	</node>
	<node lat="58.30793611030983" lon="8.372480554705499" id="-39736">
		<tag k="name" v="Vassnes" />
		<tag k="natural" v="cape" />
		<tag k="ssr:stedsnr" v="689280" />
	</node>
	<node lat="58.32123333411921" lon="8.318055561737909" id="-39741">
		<tag k="name" v="Lona" />
		<tag k="natural" v="water" />
		<tag k="ssr:stedsnr" v="689293" />
		<tag k="water" v="lake" />
	</node>
	<node lat="58.31476666243863" lon="8.324719452259016" id="-39743">
		<tag k="name" v="Byttingsholmen" />
		<tag k="place" v="islet" />
		<tag k="ssr:stedsnr" v="689299" />
	</node>
	<node lat="58.2659972207" lon="8.283133331543654" id="-39745">
		<tag k="name" v="Lonetjønnene" />
		<tag k="natural" v="water" />
		<tag k="ssr:stedsnr" v="689413" />
		<tag k="water" v="lake" />
	</node>
	<node lat="58.231597220486336" lon="8.354577783945516" id="-39748">
		<tag k="name" v="Lauenes" />
		<tag k="natural" v="cape" />
		<tag k="ssr:stedsnr" v="689391" />
	</node>
	<node lat="58.291622226633386" lon="8.326352785885916" id="-39752">
		<tag k="name" v="Stemtjønn" />
		<tag k="natural" v="water" />
		<tag k="ssr:stedsnr" v="689796" />
	</node>
	<node lat="58.289269445990286" lon="8.375411115394249" id="-39764">
		<tag k="name" v="Lilleneset" />
		<tag k="natural" v="cape" />
		<tag k="ssr:stedsnr" v="690778" />
	</node>
	<node lat="58.24777500144978" lon="8.296841662013945" id="-39773">
		<tag k="name" v="Fyldalsbekken" />
		<tag k="ssr:stedsnr" v="728304" />
		<tag k="waterway" v="stream" />
	</node>
	<node lat="58.19570555887514" lon="8.1855249920295" id="-39776">
		<tag k="name" v="Studevannet" />
		<tag k="natural" v="water" />
		<tag k="ssr:stedsnr" v="728467" />
		<tag k="water" v="lake" />
	</node>
	<node lat="58.20366389183843" lon="8.195922228263099" id="-39777">
		<tag k="alt_name" v="Rossetjørn" />
		<tag k="name" v="Rossetjønn" />
		<tag k="natural" v="water" />
		<tag k="ssr:stedsnr" v="728468" />
	</node>
	<node lat="58.16083611168298" lon="8.163336113147555" id="-39793">
		<tag k="name" v="Tvitjønnane" />
		<tag k="natural" v="water" />
		<tag k="ssr:stedsnr" v="749263" />
		<tag k="water" v="lake" />
	</node>
	<node lat="58.288563177959574" lon="8.403741972369138" id="-39820">
		<tag k="name" v="Småtjønnene" />
		<tag k="natural" v="water" />
		<tag k="ssr:stedsnr" v="749819" />
		<tag k="water" v="lake" />
	</node>
	<node lat="58.30915555632609" lon="8.351327771075699" id="-39837">
		<tag k="name" v="Meldetjønn" />
		<tag k="natural" v="water" />
		<tag k="ssr:stedsnr" v="750221" />
	</node>
	<node lat="58.309691662967275" lon="8.354580551026151" id="-39838">
		<tag k="name" v="Lommetjønn" />
		<tag k="natural" v="water" />
		<tag k="ssr:stedsnr" v="750222" />
	</node>
	<node lat="58.322994443438574" lon="8.34941666988542" id="-39840">
		<tag k="name" v="Fossbekk" />
		<tag k="ssr:stedsnr" v="750264" />
		<tag k="waterway" v="stream" />
	</node>
	<node lat="58.31720000235097" lon="8.356825000967332" id="-39841">
		<tag k="name" v="Grimøytjønna" />
		<tag k="natural" v="water" />
		<tag k="ssr:stedsnr" v="750280" />
		<tag k="water" v="lake" />
	</node>
	<node lat="58.22730833788775" lon="8.25682500637612" id="-39845">
		<tag k="name" v="Vallesværelva" />
		<tag k="ssr:stedsnr" v="910292" />
		<tag k="waterway" v="river" />
	</node>
	<node lat="58.30689444164479" lon="8.380308325685085" id="-39846">
		<tag k="name" v="Neset" />
		<tag k="natural" v="cape" />
		<tag k="ssr:stedsnr" v="910295" />
	</node>
	<node lat="58.18408548027812" lon="8.18200455170182" id="-39851">
		<tag k="name" v="Bjorstemmen" />
		<tag k="natural" v="water" />
		<tag k="ssr:stedsnr" v="910433" />
	</node>
	<node lat="58.22088055887423" lon="8.247794439654454" id="-39853">
		<tag k="alt_name" v="Hommertjønna" />
		<tag k="name" v="Hommerkleivtjørna" />
		<tag k="natural" v="water" />
		<tag k="ssr:stedsnr" v="910467" />
	</node>
	<node lat="58.257972219532235" lon="8.293608331061634" id="-39856">
		<tag k="alt_name" v="Songelitjønna" />
		<tag k="name" v="Songelitjønn" />
		<tag k="natural" v="water" />
		<tag k="ssr:stedsnr" v="910696" />
	</node>
	<node lat="58.273769321321495" lon="8.34821660361273" id="-39859">
		<tag k="name" v="Tvitjønn" />
		<tag k="natural" v="water" />
		<tag k="ssr:stedsnr" v="910721" />
	</node>
	<node lat="58.181791667988406" lon="8.15472778373221" id="-39862">
		<tag k="alt_name" v="Lomtjønn" />
		<tag k="name" v="Lomtjørn" />
		<tag k="natural" v="water" />
		<tag k="ssr:stedsnr" v="788415" />
	</node>
	<node lat="58.223630538314" lon="8.206626017825311" id="-39868">
		<tag k="alt_name" v="Ulsvann" />
		<tag k="name" v="Ulsvannet" />
		<tag k="natural" v="water" />
		<tag k="ssr:stedsnr" v="789316" />
	</node>
	<node lat="58.30351110909469" lon="8.27036111899112" id="-39869">
		<tag k="name" v="Moelva" />
		<tag k="ssr:stedsnr" v="789319" />
		<tag k="waterway" v="river" />
	</node>
	<node lat="58.22602777804228" lon="8.308622214138238" id="-39927">
		<tag k="alt_name" v="Lomtjørn" />
		<tag k="name" v="Lunnetjønn" />
		<tag k="natural" v="water" />
		<tag k="ssr:stedsnr" v="850280" />
	</node>
	<node lat="58.1740166685387" lon="8.195291668009016" id="-39933">
		<tag k="alt_name" v="Kvåsetjønn" />
		<tag k="name" v="Stemtjørn" />
		<tag k="natural" v="water" />
		<tag k="ssr:stedsnr" v="850437" />
	</node>
	<node lat="58.220097219063774" lon="8.195319442408136" id="-39934">
		<tag k="alt_name" v="Rompetjørn" />
		<tag k="name" v="Rompetjønn" />
		<tag k="natural" v="water" />
		<tag k="ssr:stedsnr" v="850479" />
	</node>
	<node lat="58.209686111382844" lon="8.238955551582713" id="-39948">
		<tag k="name" v="Smørtjønn" />
		<tag k="natural" v="water" />
		<tag k="ssr:stedsnr" v="871113" />
	</node>
	<node lat="58.166444441013425" lon="8.155794445855454" id="-39968">
		<tag k="name" v="Rossevann" />
		<tag k="natural" v="water" />
		<tag k="ssr:stedsnr" v="871231" />
		<tag k="water" v="lake" />
	</node>
	<node lat="58.30999166722096" lon="8.365899996786636" id="-39969">
		<tag k="name" v="Lillevassnestjønna" />
		<tag k="natural" v="water" />
		<tag k="ssr:stedsnr" v="871248" />
	</node>
	<node lat="58.2626861122561" lon="8.338566660290262" id="-39990">
		<tag k="name" v="Knudremyrstemmen" />
		<tag k="ssr:stedsnr" v="871813" />
		<tag k="waterway" v="stream" />
	</node>
	<node lat="58.281830554019606" lon="8.328886113454894" id="-39995">
		<tag k="name" v="Store Hattbekk" />
		<tag k="ssr:stedsnr" v="871801" />
		<tag k="waterway" v="stream" />
	</node>
	<node lat="58.181830552059594" lon="8.160833333139141" id="-40001">
		<tag k="name" v="Nedretjønn" />
		<tag k="natural" v="water" />
		<tag k="ssr:stedsnr" v="871984" />
	</node>
	<node lat="58.314091669838675" lon="8.326233334697436" id="-40035">
		<tag k="name" v="Kristiholmen" />
		<tag k="place" v="islet" />
		<tag k="ssr:stedsnr" v="932289" />
	</node>
	<node lat="58.30799999746676" lon="8.424299992154621" id="-40050">
		<tag k="name" v="Kvernbekken" />
		<tag k="ssr:stedsnr" v="932266" />
		<tag k="waterway" v="stream" />
	</node>
	<node lat="58.31859999986896" lon="8.307669442243453" id="-40053">
		<tag k="name" v="Refsnes" />
		<tag k="natural" v="cape" />
		<tag k="ssr:stedsnr" v="932283" />
	</node>
	<node lat="58.30840555445029" lon="8.30983332828182" id="-40054">
		<tag k="name" v="Villetjønn" />
		<tag k="natural" v="water" />
		<tag k="ssr:stedsnr" v="932286" />
	</node>
	<node lat="58.32422499883172" lon="8.368802786071795" id="-40063">
		<tag k="name" v="Kringletjønn" />
		<tag k="natural" v="water" />
		<tag k="ssr:stedsnr" v="932325" />
	</node>
	<node lat="58.27692777928895" lon="8.328527783056746" id="-40067">
		<tag k="name" v="Moelva" />
		<tag k="ssr:stedsnr" v="932414" />
		<tag k="waterway" v="river" />
	</node>
	<node lat="58.30196944042322" lon="8.328036112165305" id="-40083">
		<tag k="name" v="Syningtangen" />
		<tag k="natural" v="cape" />
		<tag k="ssr:stedsnr" v="932796" />
	</node>
	<node lat="58.293927776649085" lon="8.330197218435526" id="-40084">
		<tag k="name" v="Kjerketjønn" />
		<tag k="natural" v="water" />
		<tag k="ssr:stedsnr" v="932800" />
	</node>
	<node lat="58.196250004281296" lon="8.23296388988606" id="-40104">
		<tag k="name" v="Beintjønn" />
		<tag k="natural" v="water" />
		<tag k="ssr:stedsnr" v="910495" />
	</node>
	<node lat="58.19075277493925" lon="8.15936110885798" id="-40149">
		<tag k="name" v="Langsvann" />
		<tag k="natural" v="water" />
		<tag k="ssr:stedsnr" v="932944" />
		<tag k="water" v="lake" />
	</node>
	<node lat="58.30976944526791" lon="8.284277779676533" id="-40197">
		<tag k="alt_name" v="Fjellvannet, øvre" />
		<tag k="fixme" v="multiple name tags, choose one and add the other to alt_name" />
		<tag k="name" v="Østre Fjellvann;Øvre Fjellvannet" />
		<tag k="natural" v="water" />
		<tag k="ssr:stedsnr" v="291" />
	</node>
	<node lat="58.212991665219654" lon="8.191899997287228" id="-40204">
		<tag k="alt_name" v="Urdalstjørnane" />
		<tag k="name" v="Urdalstjønnane" />
		<tag k="natural" v="water" />
		<tag k="ssr:stedsnr" v="487" />
	</node>
	<node lat="58.15818611499023" lon="8.214755555744883" id="-40227">
		<tag k="name" v="Søylekilen" />
		<tag k="natural" v="water" />
		<tag k="ssr:stedsnr" v="21379" />
		<tag k="water" v="pond" />
	</node>
	<node lat="58.278133333942975" lon="8.394324992393406" id="-40250">
		<tag k="name" v="Osen" />
		<tag k="ssr:stedsnr" v="21850" />
		<tag k="waterway" v="river" />
	</node>
	<node lat="58.22649721926235" lon="8.260547218131265" id="-40258">
		<tag k="name" v="Osebekken" />
		<tag k="ssr:stedsnr" v="22025" />
		<tag k="waterway" v="stream" />
	</node>
	<node lat="58.31958333125411" lon="8.304352785954997" id="-40263">
		<tag k="name" v="Engstebekk" />
		<tag k="ssr:stedsnr" v="22317" />
		<tag k="waterway" v="stream" />
	</node>
	<node lat="58.19069444262613" lon="8.246952773080373" id="-40278">
		<tag k="name" v="Vassbotten" />
		<tag k="natural" v="bay" />
		<tag k="ssr:stedsnr" v="22064" />
	</node>
	<node lat="58.26685833291841" lon="8.31897778535139" id="-40298">
		<tag k="name" v="Lille Fjellvann" />
		<tag k="natural" v="water" />
		<tag k="ssr:stedsnr" v="22362" />
	</node>
	<node lat="58.28815833286729" lon="8.349594443121514" id="-40311">
		<tag k="name" v="Skjebbetjønn" />
		<tag k="natural" v="water" />
		<tag k="ssr:stedsnr" v="61298" />
	</node>
	<node lat="58.24218333147248" lon="8.264024996614014" id="-40312">
		<tag k="alt_name" v="Flubergtjørna" />
		<tag k="name" v="Flubergtjønn" />
		<tag k="natural" v="water" />
		<tag k="ssr:stedsnr" v="60341" />
	</node>
	<node lat="58.14932221996" lon="8.169486108837459" id="-40322">
		<tag k="alt_name" v="Daletjørna" />
		<tag k="name" v="Daletjønna" />
		<tag k="natural" v="water" />
		<tag k="ssr:stedsnr" v="61568" />
	</node>
	<node lat="58.23432777625221" lon="8.23562500731975" id="-40325">
		<tag k="name" v="Grunne Skarpnestjønn" />
		<tag k="natural" v="water" />
		<tag k="ssr:stedsnr" v="82054" />
	</node>
	<node lat="58.31581944750503" lon="8.34105555376003" id="-40329">
		<tag k="name" v="Vesternes" />
		<tag k="natural" v="cape" />
		<tag k="ssr:stedsnr" v="82248" />
	</node>
	<node lat="58.20663611217587" lon="8.211763889947573" id="-40335">
		<tag k="name" v="Holmen" />
		<tag k="place" v="islet" />
		<tag k="ssr:stedsnr" v="82150" />
	</node>
	<node lat="58.210094449002604" lon="8.192444451686285" id="-40336">
		<tag k="name" v="Lonane" />
=======
	<node id="-531447" lat="58.2456083295" lon="8.34107500666">
		<tag k="name" v="Lille Korvtjønn" />
		<tag k="natural" v="water" />
		<tag k="ssr:stedsnr" v="82924" />
	</node>
	<node id="-533494" lat="58.2442777803" lon="8.23566667018">
		<tag k="name" v="Tjønna" />
		<tag k="natural" v="water" />
		<tag k="ssr:stedsnr" v="567352" />
	</node>
	<node id="-531955" lat="58.2837024692" lon="8.27873725814">
		<tag k="name" v="Skorretjønnene" />
		<tag k="natural" v="water" />
		<tag k="ssr:stedsnr" v="446809" />
	</node>
	<node id="-532466" lat="58.3242249988" lon="8.36880278607">
		<tag k="name" v="Kringletjønn" />
		<tag k="natural" v="water" />
		<tag k="ssr:stedsnr" v="932325" />
	</node>
	<node id="-532977" lat="58.3017666636" lon="8.32239999705">
		<tag k="name" v="Ydderstadkilen" />
		<tag k="natural" v="bay" />
		<tag k="ssr:stedsnr" v="142842" />
	</node>
	<node id="-533486" lat="58.3139277734" lon="8.3030861142">
		<tag k="name" v="Fiskebekk" />
		<tag k="ssr:stedsnr" v="567289" />
		<tag k="waterway" v="stream" />
	</node>
	<node id="-533485" lat="58.3200194456" lon="8.32007500212">
		<tag k="name" v="Kokkekilen" />
		<tag k="natural" v="bay" />
		<tag k="ssr:stedsnr" v="567282" />
	</node>
	<node id="-533996" lat="58.1818305521" lon="8.16083333314">
		<tag k="name" v="Nedretjønn" />
		<tag k="natural" v="water" />
		<tag k="ssr:stedsnr" v="871984" />
	</node>
	<node id="-532970" lat="58.3006861152" lon="8.39500833408">
		<tag k="name" v="Vatnekilen" />
		<tag k="natural" v="bay" />
		<tag k="ssr:stedsnr" v="142802" />
	</node>
	<node id="-532969" lat="58.3002194441" lon="8.39042222009">
		<tag k="name" v="Kjerkeholmen" />
		<tag k="place" v="islet" />
		<tag k="ssr:stedsnr" v="142801" />
	</node>
	<node id="-533992" lat="58.281830554" lon="8.32888611345">
		<tag k="name" v="Store Hattbekk" />
		<tag k="ssr:stedsnr" v="871801" />
		<tag k="waterway" v="stream" />
	</node>
	<node id="-531431" lat="58.2846916694" lon="8.28436111378">
		<tag k="name" v="Skorrebekken" />
		<tag k="ssr:stedsnr" v="82812" />
		<tag k="waterway" v="stream" />
	</node>
	<node id="-531937" lat="58.2254527813" lon="8.20177499687">
		<tag k="name" v="Plassetjønna" />
		<tag k="natural" v="water" />
		<tag k="ssr:stedsnr" v="446350" />
	</node>
	<node id="-531936" lat="58.3147444402" lon="8.36970556112">
		<tag k="name" v="Bligsfjorden" />
		<tag k="natural" v="water" />
		<tag k="ssr:stedsnr" v="446335" />
		<tag k="water" v="lake" />
	</node>
	<node id="-531935" lat="58.3144944465" lon="8.35290000137">
		<tag k="name" v="Einerkilen" />
		<tag k="natural" v="bay" />
		<tag k="ssr:stedsnr" v="446334" />
	</node>
	<node id="-531932" lat="58.3226749956" lon="8.3211666694">
		<tag k="name" v="Froholtsbekken" />
		<tag k="ssr:stedsnr" v="446316" />
		<tag k="waterway" v="stream" />
	</node>
	<node id="-531929" lat="58.3091277808" lon="8.38933610456">
		<tag k="name" v="Kvernhuskilen" />
		<tag k="natural" v="bay" />
		<tag k="ssr:stedsnr" v="446302" />
	</node>
	<node id="-532437" lat="58.2124361131" lon="8.19269721697">
		<tag k="name" v="Urdalstjønnane" />
		<tag k="natural" v="water" />
		<tag k="ssr:stedsnr" v="932142" />
	</node>
	<node id="-531408" lat="58.2248166674" lon="8.20518611873">
		<tag k="name" v="Ulsholmen" />
		<tag k="natural" v="cape" />
		<tag k="ssr:stedsnr" v="82310" />
	</node>
	<node id="-531403" lat="58.210094449" lon="8.19244445169">
		<tag k="name" v="Lonane" />
		<tag k="natural" v="water" />
		<tag k="ssr:stedsnr" v="82155" />
		<tag k="water" v="lake" />
	</node>
	<node id="-531399" lat="58.2343277763" lon="8.23562500732">
		<tag k="name" v="Grunne Skarpnestjønn" />
		<tag k="natural" v="water" />
		<tag k="ssr:stedsnr" v="82054" />
	</node>
	<node id="-531910" lat="58.3035833366" lon="8.3712583409">
		<tag k="alt_name" v="Østre Grimevann;Grimevann;Grimevannet;Østre Grimevannet" />
		<tag k="loc_name" v="Øsre Grimevann" />
		<tag k="name" v="Austre Grimevannet" />
		<tag k="natural" v="water" />
		<tag k="ssr:stedsnr" v="425309" />
		<tag k="water" v="lake" />
	</node>
	<node id="-531907" lat="58.2721138904" lon="8.35732221973">
		<tag k="name" v="Lille Kvernvann" />
		<tag k="natural" v="water" />
		<tag k="ssr:stedsnr" v="507848" />
	</node>
	<node id="-531906" lat="58.2871083332" lon="8.27872777842">
		<tag k="name" v="Stribletjønn" />
		<tag k="natural" v="water" />
		<tag k="ssr:stedsnr" v="507824" />
	</node>
	<node id="-533952" lat="58.3099916672" lon="8.36589999679">
		<tag k="name" v="Lillevassnestjønna" />
		<tag k="natural" v="water" />
		<tag k="ssr:stedsnr" v="871248" />
	</node>
	<node id="-533951" lat="58.166444441" lon="8.15579444586">
		<tag k="name" v="Rossevann" />
		<tag k="natural" v="water" />
		<tag k="ssr:stedsnr" v="871231" />
		<tag k="water" v="lake" />
	</node>
	<node id="-531390" lat="58.1874444483" lon="8.26856389009">
		<tag k="name" v="Hamtjønn" />
		<tag k="natural" v="water" />
		<tag k="ssr:stedsnr" v="243394" />
	</node>
	<node id="-533436" lat="58.2128638892" lon="8.34689165839">
		<tag k="name" v="Bergsvannet" />
		<tag k="natural" v="water" />
		<tag k="ssr:stedsnr" v="546435" />
		<tag k="water" v="lake" />
	</node>
	<node id="-531898" lat="58.2693361095" lon="8.40903333626">
		<tag k="name" v="Sjøbekken" />
		<tag k="ssr:stedsnr" v="507866" />
		<tag k="waterway" v="stream" />
	</node>
	<node id="-533433" lat="58.1725222239" lon="8.14755277053">
		<tag k="alt_name" v="Grundebutjørnane" />
		<tag k="name" v="Grundebutjønn" />
		<tag k="natural" v="water" />
		<tag k="ssr:stedsnr" v="546393" />
	</node>
	<node id="-531896" lat="58.300138892" lon="8.37783332683">
		<tag k="name" v="Furuøyfjorden" />
		<tag k="natural" v="water" />
		<tag k="ssr:stedsnr" v="507764" />
		<tag k="water" v="lake" />
	</node>
	<node id="-532809" lat="58.2066361122" lon="8.21176388995">
		<tag k="name" v="Holmen" />
		<tag k="place" v="islet" />
		<tag k="ssr:stedsnr" v="82150" />
	</node>
	<node id="-533428" lat="58.244850001" lon="8.2887250077">
		<tag k="name" v="Nystem" />
		<tag k="natural" v="water" />
		<tag k="ssr:stedsnr" v="546321" />
	</node>
	<node id="-531379" lat="58.2337361105" lon="8.29418610433">
		<tag k="name" v="Fjelldalselva" />
		<tag k="ssr:stedsnr" v="243241" />
		<tag k="waterway" v="stream" />
	</node>
	<node id="-531377" lat="58.1818194428" lon="8.26043611592">
		<tag k="name" v="Haugevigtjønna" />
		<tag k="natural" v="water" />
		<tag k="ssr:stedsnr" v="242400" />
	</node>
	<node id="-531376" lat="58.1785055592" lon="8.19708333345">
		<tag k="alt_name" v="Barlindtjørna" />
		<tag k="name" v="Barlindtjønn" />
		<tag k="natural" v="water" />
		<tag k="ssr:stedsnr" v="242399" />
	</node>
	<node id="-533423" lat="58.2385777798" lon="8.32226666518">
		<tag k="name" v="Furekjerrtjønna" />
		<tag k="natural" v="water" />
		<tag k="ssr:stedsnr" v="546244" />
	</node>
	<node id="-531384" lat="58.2971065511" lon="8.35185964095">
		<tag k="name" v="Fisketjønn" />
		<tag k="natural" v="water" />
		<tag k="ssr:stedsnr" v="243296" />
	</node>
	<node id="-531373" lat="58.2881583329" lon="8.34959444312">
		<tag k="name" v="Skjebbetjønn" />
		<tag k="natural" v="water" />
		<tag k="ssr:stedsnr" v="61298" />
	</node>
	<node id="-533044" lat="58.2178777816" lon="8.19064444406">
		<tag k="alt_name" v="Torborgstjønn" />
		<tag k="name" v="Torborgtjørna" />
		<tag k="natural" v="water" />
		<tag k="ssr:stedsnr" v="182456" />
	</node>
	<node id="-533419" lat="58.282705557" lon="8.3727527765">
		<tag k="name" v="Neset" />
		<tag k="natural" v="cape" />
		<tag k="ssr:stedsnr" v="425884" />
	</node>
	<node id="-533927" lat="58.1536888893" lon="8.16327499979">
		<tag k="alt_name" v="Fjortjørnane" />
		<tag k="name" v="Fjordtjønnane" />
		<tag k="natural" v="water" />
		<tag k="ssr:stedsnr" v="850562" />
	</node>
	<node id="-531878" lat="58.3042583328" lon="8.36533610976">
		<tag k="name" v="Vassnesholmen" />
		<tag k="place" v="islet" />
		<tag k="ssr:stedsnr" v="507244" />
	</node>
	<node id="-531877" lat="58.3188888925" lon="8.33733333208">
		<tag k="name" v="Andeggholmen" />
		<tag k="place" v="islet" />
		<tag k="ssr:stedsnr" v="507238" />
	</node>
	<node id="-531875" lat="58.3057222231" lon="8.33222500138">
		<tag k="name" v="Askevika" />
		<tag k="natural" v="bay" />
		<tag k="ssr:stedsnr" v="507235" />
	</node>
	<node id="-533922" lat="58.2200972191" lon="8.19531944241">
		<tag k="alt_name" v="Rompetjørn" />
		<tag k="name" v="Rompetjønn" />
		<tag k="natural" v="water" />
		<tag k="ssr:stedsnr" v="850479" />
	</node>
	<node id="-532891" lat="58.2838138932" lon="8.38287778438">
		<tag k="name" v="Bjørkøya" />
		<tag k="place" v="islet" />
		<tag k="ssr:stedsnr" v="121725" />
	</node>
	<node id="-533918" lat="58.1740166685" lon="8.19529166801">
		<tag k="alt_name" v="Kvåsetjønn" />
		<tag k="name" v="Stemtjørn" />
		<tag k="natural" v="water" />
		<tag k="ssr:stedsnr" v="850437" />
	</node>
	<node id="-532381" lat="58.181791668" lon="8.15472778373">
		<tag k="alt_name" v="Lomtjønn" />
		<tag k="name" v="Lomtjørn" />
		<tag k="natural" v="water" />
		<tag k="ssr:stedsnr" v="788415" />
	</node>
	<node id="-533403" lat="58.1965361143" lon="8.22363888216">
		<tag k="name" v="Krågevann" />
		<tag k="natural" v="water" />
		<tag k="ssr:stedsnr" v="425381" />
	</node>
	<node id="-533401" lat="58.2283166645" lon="8.25126111403">
		<tag k="alt_name" v="Gåsetjørn" />
		<tag k="name" v="Gåsetjønn" />
		<tag k="natural" v="water" />
		<tag k="ssr:stedsnr" v="425295" />
	</node>
	<node id="-532376" lat="58.2737527742" lon="8.34820555314">
		<tag k="alt_name" v="Tvitjønnene" />
		<tag k="name" v="Tvitjønn" />
		<tag k="natural" v="water" />
		<tag k="ssr:stedsnr" v="910721" />
	</node>
	<node id="-533911" lat="58.226027778" lon="8.30862221414">
		<tag k="alt_name" v="Lomtjørn" />
		<tag k="name" v="Lunnetjønn" />
		<tag k="natural" v="water" />
		<tag k="ssr:stedsnr" v="850280" />
	</node>
	<node id="-533910" lat="58.3267750015" lon="8.37490833907">
		<tag k="alt_name" v="Lille Eftevann" />
		<tag k="name" v="Lille Eftevannet" />
		<tag k="natural" v="water" />
		<tag k="ssr:stedsnr" v="850258" />
	</node>
	<node id="-532373" lat="58.2579722195" lon="8.29360833106">
		<tag k="alt_name" v="Songelitjønna" />
		<tag k="name" v="Songelitjønn" />
		<tag k="natural" v="water" />
		<tag k="ssr:stedsnr" v="910696" />
	</node>
	<node id="-531347" lat="58.2264972193" lon="8.26054721813">
		<tag k="name" v="Osebekken" />
		<tag k="ssr:stedsnr" v="22025" />
		<tag k="waterway" v="stream" />
	</node>
	<node id="-531352" lat="58.2137250031" lon="8.24364999669">
		<tag k="name" v="Revhusdalstjønna" />
		<tag k="natural" v="water" />
		<tag k="ssr:stedsnr" v="22101" />
	</node>
	<node id="-532366" lat="58.1962500043" lon="8.23296388989">
		<tag k="name" v="Beintjønn" />
		<tag k="natural" v="water" />
		<tag k="ssr:stedsnr" v="910495" />
	</node>
	<node id="-532365" lat="58.2208805589" lon="8.24779443965">
		<tag k="alt_name" v="Hommertjønna" />
		<tag k="name" v="Hommerkleivtjørna" />
		<tag k="natural" v="water" />
		<tag k="ssr:stedsnr" v="910467" />
	</node>
	<node id="-532876" lat="58.2954055571" lon="8.31574444879">
		<tag k="name" v="Svartetjønn" />
		<tag k="natural" v="water" />
		<tag k="ssr:stedsnr" v="121315" />
	</node>
	<node id="-532363" lat="58.3068944416" lon="8.38030832569">
		<tag k="name" v="Neset" />
		<tag k="natural" v="cape" />
		<tag k="ssr:stedsnr" v="910295" />
	</node>
	<node id="-532362" lat="58.2273083379" lon="8.25682500638">
		<tag k="name" v="Vallesværelva" />
		<tag k="ssr:stedsnr" v="910292" />
		<tag k="waterway" v="river" />
	</node>
	<node id="-532631" lat="58.2129916652" lon="8.19189999729">
		<tag k="name" v="Urdalstjørnane" />
		<tag k="natural" v="water" />
		<tag k="ssr:stedsnr" v="487" />
	</node>
	<node id="-533484" lat="58.320205555" lon="8.38912500092">
		<tag k="name" v="Bjorkilen" />
		<tag k="natural" v="bay" />
		<tag k="ssr:stedsnr" v="567272" />
	</node>
	<node id="-532715" lat="58.1718472212" lon="8.20298056063">
		<tag k="name" v="Hamtjønn" />
		<tag k="natural" v="water" />
		<tag k="ssr:stedsnr" v="22200" />
	</node>
	<node id="-533375" lat="58.2934305578" lon="8.29727778332">
		<tag k="name" v="Lommetjønn" />
		<tag k="natural" v="water" />
		<tag k="ssr:stedsnr" v="385827" />
	</node>
	<node id="-533141" lat="58.2989694489" lon="8.32825000262">
		<tag k="name" v="Budalstjønna" />
		<tag k="natural" v="water" />
		<tag k="ssr:stedsnr" v="204804" />
	</node>
	<node id="-532348" lat="58.2886035285" lon="8.40447920851">
		<tag k="name" v="Småtjønnene" />
		<tag k="natural" v="water" />
		<tag k="ssr:stedsnr" v="749819" />
	</node>
	<node id="-533371" lat="58.3015555525" lon="8.39303333521">
		<tag k="name" v="Kariskjær" />
		<tag k="natural" v="shoal" />
		<tag k="place" v="locality" />
		<tag k="ssr:stedsnr" v="385792" />
	</node>
	<node id="-532457" lat="58.3079999975" lon="8.42429999215">
		<tag k="name" v="Kvernbekken" />
		<tag k="ssr:stedsnr" v="932266" />
		<tag k="waterway" v="stream" />
	</node>
	<node id="-533480" lat="58.3179083307" lon="8.33390276947">
		<tag k="name" v="Kjeholmen" />
		<tag k="place" v="islet" />
		<tag k="ssr:stedsnr" v="567255" />
	</node>
	<node id="-533870" lat="58.3002444436" lon="8.38757222676">
		<tag k="name" v="Fladholmen" />
		<tag k="place" v="islet" />
		<tag k="ssr:stedsnr" v="810798" />
	</node>
	<node id="-533869" lat="58.2990472225" lon="8.38601110489">
		<tag k="name" v="Askevigodden" />
		<tag k="natural" v="cape" />
		<tag k="ssr:stedsnr" v="810797" />
	</node>
	<node id="-533868" lat="58.2636000005" lon="8.41467222485">
		<tag k="name" v="Lilletj." />
		<tag k="natural" v="water" />
		<tag k="ssr:stedsnr" v="810770" />
	</node>
	<node id="-532328" lat="58.1608361117" lon="8.16333611315">
		<tag k="name" v="Tvitjønnane" />
		<tag k="natural" v="water" />
		<tag k="ssr:stedsnr" v="749263" />
	</node>
	<node id="-532326" lat="58.1543249961" lon="8.20998888668">
		<tag k="name" v="Fløndalstjønna" />
		<tag k="natural" v="water" />
		<tag k="ssr:stedsnr" v="749232" />
	</node>
	<node id="-532637" lat="58.3097694453" lon="8.28427777968">
		<tag k="alt_name" v="Fjellvannet, øvre" />
		<tag k="fixme" v="multiple name tags, choose one and add the other to alt_name" />
		<tag k="name" v="Østre Fjellvann;Øvre Fjellvannet" />
		<tag k="natural" v="water" />
		<tag k="ssr:stedsnr" v="291" />
	</node>
	<node id="-533347" lat="58.3283027733" lon="8.32510554721">
		<tag k="name" v="Steetjønn" />
		<tag k="natural" v="water" />
		<tag k="ssr:stedsnr" v="385338" />
	</node>
	<node id="-533345" lat="58.2305361067" lon="8.20613889434">
		<tag k="name" v="Slorka" />
		<tag k="natural" v="water" />
		<tag k="ssr:stedsnr" v="385334" />
	</node>
	<node id="-533339" lat="58.3201666696" lon="8.34034722681">
		<tag k="name" v="Neset" />
		<tag k="natural" v="cape" />
		<tag k="ssr:stedsnr" v="385309" />
	</node>
	<node id="-531802" lat="58.2607805588" lon="8.39698611861">
		<tag k="name" v="Fasterdammen" />
		<tag k="natural" v="water" />
		<tag k="ssr:stedsnr" v="385865" />
	</node>
	<node id="-531750" lat="58.2440944407" lon="8.26327222296">
		<tag k="alt_name" v="Rundetjørn" />
		<tag k="name" v="Rundetjønn" />
		<tag k="natural" v="water" />
		<tag k="ssr:stedsnr" v="485284" />
	</node>
	<node id="-531798" lat="58.2571944407" lon="8.34003888983">
		<tag k="name" v="Gåsetjønn" />
		<tag k="natural" v="water" />
		<tag k="ssr:stedsnr" v="385906" />
	</node>
	<node id="-533843" lat="58.1490388902" lon="8.24792778277">
		<tag k="name" v="Steinsøyhalsen" />
		<tag k="natural" v="cape" />
		<tag k="ssr:stedsnr" v="810584" />
	</node>
	<node id="-533330" lat="58.2781972234" lon="8.29846389065">
		<tag k="name" v="Holmen" />
		<tag k="place" v="islet" />
		<tag k="ssr:stedsnr" v="385387" />
	</node>
	<node id="-532816" lat="58.3272416653" lon="8.3293000021">
		<tag k="name" v="Froholtbekken" />
		<tag k="ssr:stedsnr" v="82332" />
		<tag k="waterway" v="stream" />
	</node>
	<node id="-532813" lat="58.3158194475" lon="8.34105555376">
		<tag k="name" v="Vesternes" />
		<tag k="natural" v="cape" />
		<tag k="ssr:stedsnr" v="82248" />
	</node>
	<node id="-533324" lat="58.3190972228" lon="8.39228610655">
		<tag k="name" v="Bjorstembekken" />
		<tag k="ssr:stedsnr" v="385283" />
		<tag k="waterway" v="stream" />
	</node>
	<node id="-531785" lat="58.3085861117" lon="8.3964638966">
		<tag k="name" v="Kvernhustjønn" />
		<tag k="natural" v="water" />
		<tag k="ssr:stedsnr" v="385654" />
	</node>
	<node id="-533319" lat="58.194330555" lon="8.21034722123">
		<tag k="name" v="Storemyrtjønn" />
		<tag k="natural" v="water" />
		<tag k="ssr:stedsnr" v="385085" />
	</node>
	<node id="-531425" lat="58.1854777807" lon="8.23178611489">
		<tag k="name" v="Fossen" />
		<tag k="natural" v="waterfall" />
		<tag k="ssr:stedsnr" v="82527" />
	</node>
	<node id="-532790" lat="58.14932222" lon="8.16948610884">
		<tag k="alt_name" v="Daletjørna" />
		<tag k="name" v="Daletjønna" />
		<tag k="natural" v="water" />
		<tag k="ssr:stedsnr" v="61568" />
	</node>
	<node id="-532288" lat="58.2812333327" lon="8.36745555377">
		<tag k="name" v="Svartetjønn" />
		<tag k="natural" v="water" />
		<tag k="ssr:stedsnr" v="728701" />
	</node>
	<node id="-531357" lat="58.3195833313" lon="8.30435278595">
		<tag k="name" v="Engstebekk" />
		<tag k="ssr:stedsnr" v="22317" />
		<tag k="waterway" v="stream" />
	</node>
	<node id="-532874" lat="58.2244583373" lon="8.31834721817">
		<tag k="alt_name" v="Bukketjørn" />
		<tag k="name" v="Bukketjønn" />
		<tag k="natural" v="water" />
		<tag k="ssr:stedsnr" v="121294" />
	</node>
	<node id="-532279" lat="58.2036638918" lon="8.19592222826">
		<tag k="alt_name" v="Rossetjørn" />
		<tag k="name" v="Rossetjønn" />
		<tag k="natural" v="water" />
		<tag k="ssr:stedsnr" v="728468" />
	</node>
	<node id="-532278" lat="58.1957055589" lon="8.18552499203">
		<tag k="name" v="Studevannet" />
		<tag k="natural" v="water" />
		<tag k="ssr:stedsnr" v="728467" />
		<tag k="water" v="lake" />
	</node>
	<node id="-532277" lat="58.2000944418" lon="8.21071665889">
		<tag k="name" v="Kviksvann" />
		<tag k="natural" v="water" />
		<tag k="ssr:stedsnr" v="728465" />
	</node>
	<node id="-532274" lat="58.2477750014" lon="8.29684166201">
		<tag k="name" v="Fyldalsbekken" />
		<tag k="ssr:stedsnr" v="728304" />
		<tag k="waterway" v="stream" />
	</node>
	<node id="-532273" lat="58.2477805523" lon="8.28641110416">
		<tag k="alt_name" v="Heiemyrtjønn" />
		<tag k="name" v="Heimretjørn" />
		<tag k="natural" v="water" />
		<tag k="ssr:stedsnr" v="728300" />
	</node>
	<node id="-531760" lat="58.2065999961" lon="8.21033055893">
		<tag k="name" v="Urevann" />
		<tag k="natural" v="water" />
		<tag k="ssr:stedsnr" v="485429" />
	</node>
	<node id="-533807" lat="58.3138027792" lon="8.33493055135">
		<tag k="name" v="Koholmen" />
		<tag k="place" v="islet" />
		<tag k="ssr:stedsnr" v="810271" />
	</node>
	<node id="-533806" lat="58.3036472227" lon="8.35303055588">
		<tag k="name" v="Tvieidtjønna" />
		<tag k="natural" v="water" />
		<tag k="ssr:stedsnr" v="810266" />
	</node>
	<node id="-533805" lat="58.3084305516" lon="8.33512222815">
		<tag k="name" v="Bukilen" />
		<tag k="natural" v="bay" />
		<tag k="ssr:stedsnr" v="810264" />
	</node>
	<node id="-531756" lat="58.2208111131" lon="8.3276916722">
		<tag k="name" v="Storestemtjønna" />
		<tag k="natural" v="water" />
		<tag k="ssr:stedsnr" v="485374" />
	</node>
	<node id="-531755" lat="58.2254751338" lon="8.33863912121">
		<tag k="name" v="Blindevannet" />
		<tag k="natural" v="water" />
		<tag k="ssr:stedsnr" v="485372" />
		<tag k="water" v="lake" />
	</node>
	<node id="-531754" lat="58.1747666645" lon="8.1906777769">
		<tag k="alt_name" v="Toretjørn" />
		<tag k="name" v="Toretjønn" />
		<tag k="natural" v="water" />
		<tag k="ssr:stedsnr" v="485351" />
	</node>
	<node id="-533288" lat="58.2965361092" lon="8.30245000136">
		<tag k="alt_name" v="Krogvannet" />
		<tag k="name" v="Krokvannet" />
		<tag k="natural" v="water" />
		<tag k="ssr:stedsnr" v="364307" />
	</node>
	<node id="-531751" lat="58.2479722214" lon="8.33923611516">
		<tag k="name" v="Tvitjønnene" />
		<tag k="natural" v="water" />
		<tag k="ssr:stedsnr" v="485288" />
	</node>
	<node id="-532774" lat="58.1848138895" lon="8.1904666705">
		<tag k="alt_name" v="Svartetjønn" />
		<tag k="name" v="Svartholtjørna" />
		<tag k="natural" v="water" />
		<tag k="ssr:stedsnr" v="60423" />
	</node>
	<node id="-533284" lat="58.2358166652" lon="8.21862221629">
		<tag k="alt_name" v="Steinsvann" />
		<tag k="name" v="Steinsvannet" />
		<tag k="natural" v="water" />
		<tag k="ssr:stedsnr" v="364272" />
	</node>
	<node id="-533283" lat="58.2380916672" lon="8.330874998">
		<tag k="name" v="Sangereidtjørna" />
		<tag k="natural" v="water" />
		<tag k="ssr:stedsnr" v="364270" />
	</node>
	<node id="-532770" lat="58.2421833315" lon="8.26402499661">
		<tag k="alt_name" v="Flubergtjørna" />
		<tag k="name" v="Flubergtjønn" />
		<tag k="natural" v="water" />
		<tag k="ssr:stedsnr" v="60341" />
	</node>
	<node id="-532254" lat="58.1760916701" lon="8.15065555796">
		<tag k="name" v="Grundebutjønn" />
		<tag k="natural" v="water" />
		<tag k="ssr:stedsnr" v="628969" />
	</node>
	<node id="-531740" lat="58.2780555581" lon="8.38913054728">
		<tag k="name" v="Øvre Osen" />
		<tag k="natural" v="bay" />
		<tag k="ssr:stedsnr" v="325827" />
	</node>
	<node id="-532822" lat="58.2441027755" lon="8.30923333341">
		<tag k="name" v="Svartetjønn" />
		<tag k="natural" v="water" />
		<tag k="ssr:stedsnr" v="82443" />
	</node>
	<node id="-533782" lat="58.2136583375" lon="8.28339166961">
		<tag k="name" v="Øyra" />
		<tag k="natural" v="shoal" />
		<tag k="place" v="locality" />
		<tag k="ssr:stedsnr" v="810039" />
	</node>
	<node id="-532014" lat="58.3152888846" lon="8.31793889096">
		<tag k="name" v="Tengsbekkholmen" />
		<tag k="place" v="islet" />
		<tag k="ssr:stedsnr" v="507265" />
	</node>
	<node id="-533264" lat="58.2966027736" lon="8.43646944759">
		<tag k="name" v="Lillemyrtjønn" />
		<tag k="natural" v="water" />
		<tag k="ssr:stedsnr" v="325775" />
	</node>
	<node id="-531727" lat="58.2157250007" lon="8.21924723034">
		<tag k="name" v="Langebekken" />
		<tag k="ssr:stedsnr" v="303464" />
		<tag k="waterway" v="river" />
	</node>
	<node id="-531726" lat="58.1702083312" lon="8.17340556102">
		<tag k="alt_name" v="Solumtjønna" />
		<tag k="name" v="Solumtjørna" />
		<tag k="natural" v="water" />
		<tag k="ssr:stedsnr" v="303415" />
	</node>
	<node id="-533261" lat="58.3003166692" lon="8.39920555151">
		<tag k="name" v="Danmark" />
		<tag k="place" v="islet" />
		<tag k="ssr:stedsnr" v="325755" />
	</node>
	<node id="-532236" lat="58.2409805563" lon="8.2905555535">
		<tag k="name" v="Fjelldalsbekken" />
		<tag k="ssr:stedsnr" v="628429" />
		<tag k="waterway" v="stream" />
	</node>
	<node id="-533254" lat="58.2436833312" lon="8.33043611103">
		<tag k="name" v="Storeholmen" />
		<tag k="place" v="islet" />
		<tag k="ssr:stedsnr" v="325439" />
	</node>
	<node id="-533764" lat="58.1922638878" lon="8.24960834064">
		<tag k="name" v="Holtsvann" />
		<tag k="natural" v="water" />
		<tag k="ssr:stedsnr" v="789394" />
	</node>
	<node id="-532739" lat="58.2116972177" lon="8.24256110638">
		<tag k="name" v="Buhustjønna" />
		<tag k="natural" v="water" />
		<tag k="ssr:stedsnr" v="22099" />
	</node>
	<node id="-533762" lat="58.3035111091" lon="8.27036111899">
		<tag k="name" v="Moelva" />
		<tag k="ssr:stedsnr" v="789319" />
		<tag k="waterway" v="river" />
	</node>
	<node id="-533761" lat="58.2236305383" lon="8.20662601783">
		<tag k="alt_name" v="Ulsvann" />
		<tag k="name" v="Ulsvannet" />
		<tag k="natural" v="water" />
		<tag k="ssr:stedsnr" v="789316" />
	</node>
	<node id="-532223" lat="58.2297805569" lon="8.20249722975">
		<tag k="name" v="Brennvinstjønna" />
		<tag k="natural" v="water" />
		<tag k="ssr:stedsnr" v="628316" />
	</node>
	<node id="-533246" lat="58.2245305571" lon="8.21867499898">
		<tag k="name" v="Bordalstjønna" />
		<tag k="ssr:stedsnr" v="325333" />
		<tag k="waterway" v="stream" />
	</node>
	<node id="-532732" lat="58.1906944426" lon="8.24695277308">
		<tag k="name" v="Vassbotten" />
		<tag k="natural" v="bay" />
		<tag k="ssr:stedsnr" v="22064" />
	</node>
	<node id="-533290" lat="58.2483239589" lon="8.26720954609">
		<tag k="alt_name" v="Sauctjørn" />
		<tag k="name" v="Sauetjønn" />
		<tag k="natural" v="water" />
		<tag k="ssr:stedsnr" v="364356" />
	</node>
	<node id="-533241" lat="58.3137055538" lon="8.3569944432">
		<tag k="name" v="Stubbesund" />
		<tag k="natural" v="strait" />
		<tag k="ssr:stedsnr" v="325268" />
	</node>
	<node id="-533240" lat="58.303244445" lon="8.36284166469">
		<tag k="name" v="Jørnsvassnes" />
		<tag k="natural" v="cape" />
		<tag k="ssr:stedsnr" v="325266" />
	</node>
	<node id="-531703" lat="58.2875166666" lon="8.39961665928">
		<tag k="alt_name" v="Kaldvelltjønnene" />
		<tag k="name" v="Kaldvelltjønn" />
		<tag k="natural" v="water" />
		<tag k="ssr:stedsnr" v="243757" />
	</node>
	<node id="-533748" lat="58.2442500017" lon="8.27581944319">
		<tag k="name" v="Flubergbekken" />
		<tag k="ssr:stedsnr" v="788330" />
		<tag k="waterway" v="stream" />
	</node>
	<node id="-531699" lat="58.1898166644" lon="8.24305555349">
		<tag k="alt_name" v="Småtjørn" />
		<tag k="name" v="Småtjønn" />
		<tag k="natural" v="water" />
		<tag k="ssr:stedsnr" v="243373" />
	</node>
	<node id="-531695" lat="58.1732972237" lon="8.16131111831">
		<tag k="alt_name" v="Sjutjønnane" />
		<tag k="name" v="Sjutjørnane" />
		<tag k="natural" v="water" />
		<tag k="ssr:stedsnr" v="243416" />
	</node>
	<node id="-531691" lat="58.3172750012" lon="8.32115555647">
		<tag k="alt_name" v="Vestre Grimevann" />
		<tag k="name" v="Vestre Grimevannet" />
		<tag k="natural" v="water" />
		<tag k="ssr:stedsnr" v="243261" />
		<tag k="water" v="lake" />
	</node>
	<node id="-533225" lat="58.1876277763" lon="8.17164722682">
		<tag k="name" v="Snelltjønn" />
		<tag k="natural" v="water" />
		<tag k="ssr:stedsnr" v="325100" />
	</node>
	<node id="-531685" lat="58.2419055537" lon="8.35658888623">
		<tag k="name" v="Sekkebekk" />
		<tag k="ssr:stedsnr" v="242265" />
		<tag k="waterway" v="stream" />
	</node>
	<node id="-533731" lat="58.3172000024" lon="8.35682500097">
		<tag k="name" v="Grimøytjønna" />
>>>>>>> e1d4bc35ff8a6074a6f2e91616a996b547c36f15
		<tag k="natural" v="water" />
		<tag k="ssr:stedsnr" v="750280" />
		<tag k="water" v="lake" />
	</node>
<<<<<<< HEAD
	<node lat="58.24410277553584" lon="8.309233333410274" id="-40349">
		<tag k="name" v="Svartetjønn" />
		<tag k="natural" v="water" />
		<tag k="ssr:stedsnr" v="82443" />
	</node>
	<node lat="58.18547778071742" lon="8.231786114886079" id="-40359">
		<tag k="name" v="Fossen" />
		<tag k="natural" v="waterfall" />
		<tag k="ssr:stedsnr" v="82527" />
	</node>
	<node lat="58.302427776681455" lon="8.391091667476392" id="-40374">
		<tag k="name" v="Sandviga" />
		<tag k="natural" v="cape" />
		<tag k="ssr:stedsnr" v="82780" />
	</node>
	<node lat="58.28469166939467" lon="8.284361113783456" id="-40380">
		<tag k="name" v="Skorrebekken" />
		<tag k="ssr:stedsnr" v="82812" />
		<tag k="waterway" v="stream" />
	</node>
	<node lat="58.22445833726651" lon="8.318347218168373" id="-40407">
		<tag k="alt_name" v="Bukketjørn" />
		<tag k="name" v="Bukketjønn" />
		<tag k="natural" v="water" />
		<tag k="ssr:stedsnr" v="121294" />
	</node>
	<node lat="58.21541110840813" lon="8.200902775947172" id="-40413">
		<tag k="name" v="Uldalstjørnane" />
		<tag k="natural" v="water" />
		<tag k="ssr:stedsnr" v="121454" />
		<tag k="water" v="lake" />
	</node>
	<node lat="58.18509722290117" lon="8.15878332776737" id="-40480">
		<tag k="name" v="Grasvann" />
		<tag k="natural" v="water" />
		<tag k="ssr:stedsnr" v="142960" />
		<tag k="water" v="lake" />
	</node>
	<node lat="58.30786944760474" lon="8.348966659654538" id="-40484">
		<tag k="name" v="Endetjønn" />
		<tag k="natural" v="water" />
		<tag k="ssr:stedsnr" v="143228" />
	</node>
	<node lat="58.3046500021933" lon="8.384136111704752" id="-40485">
		<tag k="name" v="Vasshaugvig" />
		<tag k="natural" v="bay" />
		<tag k="ssr:stedsnr" v="143230" />
	</node>
	<node lat="58.310558334985004" lon="8.386427780194337" id="-40486">
		<tag k="name" v="Lilleneset" />
		<tag k="natural" v="cape" />
		<tag k="ssr:stedsnr" v="143246" />
	</node>
	<node lat="58.31658888717267" lon="8.311736109652742" id="-40488">
		<tag k="name" v="Buholmen" />
		<tag k="place" v="islet" />
		<tag k="ssr:stedsnr" v="143258" />
	</node>
	<node lat="58.32025277812363" lon="8.336958339512002" id="-40490">
		<tag k="name" v="Sundet" />
		<tag k="natural" v="strait" />
		<tag k="ssr:stedsnr" v="143270" />
	</node>
	<node lat="58.30863888545143" lon="8.319863892636798" id="-40491">
		<tag k="name" v="Øvre Tjusnes" />
		<tag k="natural" v="cape" />
		<tag k="ssr:stedsnr" v="143275" />
	</node>
	<node lat="58.31578610977924" lon="8.343961106971541" id="-40492">
		<tag k="name" v="Lensebukilen" />
		<tag k="natural" v="bay" />
		<tag k="ssr:stedsnr" v="143276" />
	</node>
	<node lat="58.2299027785049" lon="8.33608055874542" id="-40497">
		<tag k="name" v="Lilletjønn" />
		<tag k="natural" v="water" />
		<tag k="ssr:stedsnr" v="143382" />
	</node>
	<node lat="58.308766665918846" lon="8.429458325981221" id="-40507">
		<tag k="name" v="Olstadtjønna" />
		<tag k="natural" v="water" />
		<tag k="ssr:stedsnr" v="182283" />
	</node>
	<node lat="58.29099167056978" lon="8.291036119032972" id="-40508">
		<tag k="name" v="Modalstjønn" />
		<tag k="natural" v="water" />
		<tag k="ssr:stedsnr" v="182297" />
	</node>
	<node lat="58.225699997755" lon="8.258294439666415" id="-40538">
		<tag k="name" v="Osane" />
		<tag k="natural" v="bay" />
		<tag k="ssr:stedsnr" v="204018" />
	</node>
	<node lat="58.309138890814936" lon="8.315569439894395" id="-40548">
		<tag k="name" v="Trolltjønnene" />
		<tag k="natural" v="water" />
		<tag k="ssr:stedsnr" v="204250" />
		<tag k="water" v="lake" />
	</node>
	<node lat="58.32250555582248" lon="8.343077782752903" id="-40549">
		<tag k="name" v="Stranda" />
		<tag k="natural" v="beach" />
		<tag k="ssr:stedsnr" v="204259" />
	</node>
	<node lat="58.311563887851825" lon="8.364527783944434" id="-40557">
		<tag k="name" v="Lillevassnes" />
		<tag k="natural" v="cape" />
		<tag k="ssr:stedsnr" v="204225" />
	</node>
	<node lat="58.28653333070461" lon="8.386619450501245" id="-40567">
		<tag k="name" v="Rollaugsvig" />
		<tag k="natural" v="bay" />
		<tag k="ssr:stedsnr" v="204750" />
	</node>
	<node lat="58.223591670357536" lon="8.248097227704248" id="-40588">
		<tag k="name" v="Steindalsbekken" />
		<tag k="ssr:stedsnr" v="303292" />
		<tag k="waterway" v="stream" />
	</node>
	<node lat="58.170208331237255" lon="8.173405561019157" id="-40591">
		<tag k="alt_name" v="Solumtjønna" />
		<tag k="name" v="Solumtjørna" />
		<tag k="natural" v="water" />
		<tag k="ssr:stedsnr" v="303415" />
	</node>
	<node lat="58.21572500072692" lon="8.219247230344509" id="-40594">
		<tag k="name" v="Langebekken" />
		<tag k="ssr:stedsnr" v="303464" />
		<tag k="waterway" v="river" />
	</node>
	<node lat="58.187627776326735" lon="8.171647226818177" id="-40629">
		<tag k="name" v="Snelltjønn" />
		<tag k="natural" v="water" />
		<tag k="ssr:stedsnr" v="325100" />
	</node>
	<node lat="58.30324444498587" lon="8.362841664693127" id="-40635">
		<tag k="name" v="Jørnsvassnes" />
		<tag k="natural" v="cape" />
		<tag k="ssr:stedsnr" v="325266" />
	</node>
	<node lat="58.224530557092436" lon="8.21867499898127" id="-40636">
		<tag k="name" v="Bordalstjønna" />
		<tag k="ssr:stedsnr" v="325333" />
		<tag k="waterway" v="stream" />
	</node>
	<node lat="58.303838893030466" lon="8.325766663919737" id="-40640">
		<tag k="name" v="Bjortjønna" />
		<tag k="natural" v="water" />
		<tag k="ssr:stedsnr" v="325315" />
	</node>
	<node lat="58.243683331206654" lon="8.330436111025449" id="-40641">
		<tag k="name" v="Storeholmen" />
		<tag k="place" v="islet" />
		<tag k="ssr:stedsnr" v="325439" />
	</node>
	<node lat="58.24748611084051" lon="8.339469436596747" id="-40647">
		<tag k="name" v="Store Korvtjønn" />
		<tag k="natural" v="water" />
		<tag k="ssr:stedsnr" v="325890" />
	</node>
	<node lat="58.30031666920294" lon="8.39920555150837" id="-40655">
		<tag k="name" v="Danmark" />
		<tag k="place" v="islet" />
		<tag k="ssr:stedsnr" v="325755" />
	</node>
	<node lat="58.238091667177905" lon="8.330874997995727" id="-40669">
		<tag k="name" v="Sangereidtjørna" />
		<tag k="natural" v="water" />
		<tag k="ssr:stedsnr" v="364270" />
	</node>
	<node lat="58.235816665208745" lon="8.218622216292145" id="-40670">
		<tag k="alt_name" v="Steinsvann" />
		<tag k="name" v="Steinsvannet" />
		<tag k="natural" v="water" />
		<tag k="ssr:stedsnr" v="364272" />
	</node>
	<node lat="58.248323958855394" lon="8.26720954609359" id="-40673">
		<tag k="alt_name" v="Sauctjørn" />
		<tag k="name" v="Sauetjønn" />
		<tag k="natural" v="water" />
		<tag k="ssr:stedsnr" v="364356" />
	</node>
	<node lat="58.24268106801404" lon="8.215790150909973" id="-40674">
		<tag k="alt_name" v="Gaustjørn" />
		<tag k="name" v="Gaustjønn" />
		<tag k="natural" v="water" />
		<tag k="ssr:stedsnr" v="364371" />
	</node>
	<node lat="58.29653610924855" lon="8.302450001362967" id="-40677">
		<tag k="alt_name" v="Krogvannet" />
		<tag k="name" v="Krokvannet" />
=======
	<node id="-533730" lat="58.3229944434" lon="8.34941666989">
		<tag k="name" v="Fossbekk" />
		<tag k="ssr:stedsnr" v="750264" />
		<tag k="waterway" v="stream" />
	</node>
	<node id="-533627" lat="58.318499998" lon="8.31893333702">
		<tag k="name" v="Storenes" />
		<tag k="natural" v="cape" />
		<tag k="ssr:stedsnr" v="628280" />
	</node>
	<node id="-533726" lat="58.309691663" lon="8.35458055103">
		<tag k="name" v="Lommetjønn" />
		<tag k="natural" v="water" />
		<tag k="ssr:stedsnr" v="750222" />
	</node>
	<node id="-533725" lat="58.3091555563" lon="8.35132777108">
		<tag k="name" v="Meldetjønn" />
		<tag k="natural" v="water" />
		<tag k="ssr:stedsnr" v="750221" />
	</node>
	<node id="-532695" lat="58.2781333339" lon="8.39432499239">
		<tag k="name" v="Osen" />
		<tag k="ssr:stedsnr" v="21850" />
		<tag k="waterway" v="river" />
	</node>
	<node id="-532163" lat="58.2263722229" lon="8.21518055494">
		<tag k="name" v="Rompetjønn" />
		<tag k="natural" v="water" />
		<tag k="ssr:stedsnr" v="567311" />
	</node>
	<node id="-532161" lat="58.3216861114" lon="8.35741944605">
		<tag k="name" v="Grimeelva" />
		<tag k="ssr:stedsnr" v="567302" />
		<tag k="waterway" v="stream" />
	</node>
	<node id="-531762" lat="58.2959388925" lon="8.37721389219">
		<tag k="alt_name" v="Furuholmen" />
		<tag k="name" v="Furu-øya" />
		<tag k="place" v="islet" />
		<tag k="ssr:stedsnr" v="485694" />
	</node>
	<node id="-532158" lat="58.2863194411" lon="8.37003056359">
		<tag k="name" v="Sandviga" />
		<tag k="natural" v="bay" />
		<tag k="ssr:stedsnr" v="690783" />
	</node>
	<node id="-532156" lat="58.289269446" lon="8.37541111539">
		<tag k="name" v="Lilleneset" />
		<tag k="natural" v="cape" />
		<tag k="ssr:stedsnr" v="690778" />
	</node>
	<node id="-531643" lat="58.2474249966" lon="8.30814999401">
		<tag k="name" v="Skumdalstjønna" />
		<tag k="natural" v="water" />
		<tag k="ssr:stedsnr" v="446454" />
	</node>
	<node id="-532666" lat="58.158186115" lon="8.21475555574">
		<tag k="name" v="Søylekilen" />
		<tag k="natural" v="water" />
		<tag k="ssr:stedsnr" v="21379" />
		<tag k="water" v="pond" />
	</node>
	<node id="-533169" lat="58.2235916704" lon="8.2480972277">
		<tag k="name" v="Steindalsbekken" />
		<tag k="ssr:stedsnr" v="303292" />
		<tag k="waterway" v="stream" />
	</node>
	<node id="-533166" lat="58.231741666" lon="8.31721388666">
		<tag k="name" v="Stemtjørn" />
		<tag k="natural" v="water" />
		<tag k="ssr:stedsnr" v="303283" />
	</node>
	<node id="-533673" lat="58.1726416652" lon="8.1946083313">
		<tag k="name" v="Stemsodden" />
		<tag k="natural" v="cape" />
		<tag k="ssr:stedsnr" v="749240" />
	</node>
	<node id="-532136" lat="58.2916222266" lon="8.32635278589">
		<tag k="name" v="Stemtjønn" />
		<tag k="natural" v="water" />
		<tag k="ssr:stedsnr" v="689796" />
	</node>
	<node id="-531621" lat="58.2351416673" lon="8.22645833141">
		<tag k="name" v="Dype Skarpnestjønn" />
		<tag k="natural" v="water" />
		<tag k="ssr:stedsnr" v="446071" />
	</node>
	<node id="-532129" lat="58.2659972207" lon="8.28313333154">
		<tag k="name" v="Lonetjønnene" />
		<tag k="natural" v="water" />
		<tag k="ssr:stedsnr" v="689413" />
	</node>
	<node id="-532127" lat="58.2315972205" lon="8.35457778395">
		<tag k="name" v="Lauenes" />
		<tag k="natural" v="cape" />
		<tag k="ssr:stedsnr" v="689391" />
	</node>
	<node id="-533291" lat="58.242681068" lon="8.21579015091">
		<tag k="alt_name" v="Gaustjørn" />
		<tag k="name" v="Gaustjønn" />
		<tag k="natural" v="water" />
		<tag k="ssr:stedsnr" v="364371" />
	</node>
	<node id="-533661" lat="58.2252222192" lon="8.2252944407">
		<tag k="name" v="Kvalhommertjønn" />
		<tag k="natural" v="water" />
		<tag k="ssr:stedsnr" v="749051" />
	</node>
	<node id="-532634" lat="58.2336361122" lon="8.25037222124">
		<tag k="alt_name" v="Glastadvann;Gladstadvann" />
		<tag k="name" v="Gladstadvannet" />
		<tag k="natural" v="water" />
		<tag k="ssr:stedsnr" v="272" />
		<tag k="water" v="lake" />
	</node>
	<node id="-532121" lat="58.2278166665" lon="8.21153889569">
		<tag k="name" v="Støletjønn" />
		<tag k="natural" v="water" />
		<tag k="ssr:stedsnr" v="689332" />
	</node>
	<node id="-532119" lat="58.3215194465" lon="8.3417111184">
		<tag k="name" v="Tjønna" />
		<tag k="natural" v="water" />
		<tag k="ssr:stedsnr" v="689306" />
	</node>
	<node id="-532117" lat="58.3147666624" lon="8.32471945226">
		<tag k="name" v="Byttingsholmen" />
		<tag k="place" v="islet" />
		<tag k="ssr:stedsnr" v="689299" />
	</node>
	<node id="-532115" lat="58.3212333341" lon="8.31805556174">
		<tag k="name" v="Lona" />
		<tag k="natural" v="water" />
		<tag k="ssr:stedsnr" v="689293" />
		<tag k="water" v="lake" />
	</node>
	<node id="-531602" lat="58.3225055558" lon="8.34307778275">
		<tag k="name" v="Stranda" />
		<tag k="natural" v="beach" />
		<tag k="ssr:stedsnr" v="204259" />
	</node>
	<node id="-533648" lat="58.2996194479" lon="8.36630554817">
		<tag k="name" v="Andersesbukt" />
		<tag k="natural" v="bay" />
		<tag k="ssr:stedsnr" v="629751" />
	</node>
	<node id="-532110" lat="58.3079361103" lon="8.37248055471">
		<tag k="name" v="Vassnes" />
		<tag k="natural" v="cape" />
		<tag k="ssr:stedsnr" v="689280" />
	</node>
	<node id="-533133" lat="58.2865333307" lon="8.3866194505">
		<tag k="name" v="Rollaugsvig" />
		<tag k="natural" v="bay" />
		<tag k="ssr:stedsnr" v="204750" />
	</node>
	<node id="-531394" lat="58.281269441" lon="8.3497250064">
		<tag k="name" v="Ormetjønn" />
		<tag k="natural" v="water" />
		<tag k="ssr:stedsnr" v="243750" />
	</node>
	<node id="-533124" lat="58.2507222249" lon="8.30629445034">
		<tag k="name" v="Songefjelltjønna" />
		<tag k="natural" v="water" />
		<tag k="ssr:stedsnr" v="204389" />
	</node>
	<node id="-533270" lat="58.2474861108" lon="8.3394694366">
		<tag k="name" v="Store Korvtjønn" />
		<tag k="natural" v="water" />
		<tag k="ssr:stedsnr" v="325890" />
	</node>
	<node id="-532609" lat="58.2769277793" lon="8.32852778306">
		<tag k="name" v="Moelva" />
		<tag k="ssr:stedsnr" v="932414" />
		<tag k="waterway" v="river" />
	</node>
	<node id="-533119" lat="58.3091388908" lon="8.31556943989">
		<tag k="name" v="Trolltjønnene" />
		<tag k="natural" v="water" />
		<tag k="ssr:stedsnr" v="204250" />
	</node>
	<node id="-531582" lat="58.2885638899" lon="8.38352778167">
		<tag k="name" v="Gråodden" />
		<tag k="natural" v="cape" />
		<tag k="ssr:stedsnr" v="265787" />
	</node>
	<node id="-532885" lat="58.2154111084" lon="8.20090277595">
		<tag k="name" v="Uldalstjørnane" />
>>>>>>> e1d4bc35ff8a6074a6f2e91616a996b547c36f15
		<tag k="natural" v="water" />
		<tag k="ssr:stedsnr" v="364307" />
	</node>
<<<<<<< HEAD
	<node lat="58.19433055499688" lon="8.210347221228387" id="-40701">
		<tag k="name" v="Storemyrtjønn" />
		<tag k="natural" v="water" />
		<tag k="ssr:stedsnr" v="385085" />
	</node>
	<node lat="58.31909722284356" lon="8.39228610655479" id="-40705">
		<tag k="name" v="Bjorstembekken" />
		<tag k="ssr:stedsnr" v="385283" />
		<tag k="waterway" v="stream" />
	</node>
	<node lat="58.23053610673988" lon="8.206138894344363" id="-40712">
		<tag k="name" v="Slorka" />
		<tag k="natural" v="water" />
		<tag k="ssr:stedsnr" v="385334" />
	</node>
	<node lat="58.328302773322534" lon="8.325105547206347" id="-40714">
		<tag k="name" v="Steetjønn" />
		<tag k="natural" v="water" />
		<tag k="ssr:stedsnr" v="385338" />
	</node>
	<node lat="58.27819722335089" lon="8.29846389064819" id="-40724">
		<tag k="name" v="Holmen" />
		<tag k="place" v="islet" />
		<tag k="ssr:stedsnr" v="385387" />
	</node>
	<node lat="58.308586111667694" lon="8.396463896597137" id="-40739">
		<tag k="name" v="Kvernhustjønn" />
		<tag k="natural" v="water" />
		<tag k="ssr:stedsnr" v="385654" />
	</node>
	<node lat="58.30155555247037" lon="8.393033335212085" id="-40749">
		<tag k="name" v="Kariskjær" />
		<tag k="natural" v="shoal" />
		<tag k="ssr:stedsnr" v="385792" />
	</node>
	<node lat="58.257194440704794" lon="8.340038889828733" id="-40756">
		<tag k="name" v="Gåsetjønn" />
		<tag k="natural" v="water" />
		<tag k="ssr:stedsnr" v="385906" />
	</node>
	<node lat="58.30254992677629" lon="8.378453492748427" id="-40769">
		<tag k="alt_name" v="Østre Grimevann;Østre Grimevannet;Grimevannet;Furuøyfjorden;Grimevann" />
		<tag k="loc_name" v="Øsre Grimevann" />
		<tag k="name" v="Austre Grimevannet" />
		<tag k="natural" v="water" />
		<tag k="ssr:stedsnr" v="425309" />
		<tag k="water" v="lake" />
	</node>
	<node lat="58.196536114305125" lon="8.223638882156154" id="-40774">
		<tag k="name" v="Krågevann" />
		<tag k="natural" v="water" />
		<tag k="ssr:stedsnr" v="425381" />
	</node>
	<node lat="58.282705556982954" lon="8.372752776497665" id="-40785">
		<tag k="name" v="Neset" />
		<tag k="natural" v="cape" />
		<tag k="ssr:stedsnr" v="425884" />
	</node>
	<node lat="58.235141667338056" lon="8.226458331409729" id="-40801">
		<tag k="name" v="Dype Skarpnestjønn" />
		<tag k="natural" v="water" />
		<tag k="ssr:stedsnr" v="446071" />
	</node>
	<node lat="58.22545278130116" lon="8.201774996866995" id="-40813">
		<tag k="name" v="Plassetjønna" />
		<tag k="natural" v="water" />
		<tag k="ssr:stedsnr" v="446350" />
	</node>
	<node lat="58.24742499659674" lon="8.308149994013194" id="-40820">
		<tag k="name" v="Skumdalstjønna" />
		<tag k="natural" v="water" />
		<tag k="ssr:stedsnr" v="446454" />
	</node>
	<node lat="58.32267499559338" lon="8.321166669397346" id="-40824">
		<tag k="name" v="Froholtsbekken" />
		<tag k="ssr:stedsnr" v="446316" />
		<tag k="waterway" v="stream" />
	</node>
	<node lat="58.28370246921495" lon="8.278737258136054" id="-40855">
		<tag k="name" v="Skorretjønnene" />
		<tag k="natural" v="water" />
		<tag k="ssr:stedsnr" v="446809" />
		<tag k="water" v="lake" />
	</node>
	<node lat="58.27211389039682" lon="8.357322219734215" id="-40893">
		<tag k="name" v="Lille Kvernvann" />
		<tag k="natural" v="water" />
		<tag k="ssr:stedsnr" v="507848" />
	</node>
	<node lat="58.30572222308751" lon="8.332225001376797" id="-40898">
		<tag k="name" v="Askevika" />
		<tag k="natural" v="bay" />
		<tag k="ssr:stedsnr" v="507235" />
	</node>
	<node lat="58.318888892474234" lon="8.337333332079137" id="-40900">
		<tag k="name" v="Andeggholmen" />
		<tag k="place" v="islet" />
		<tag k="ssr:stedsnr" v="507238" />
	</node>
	<node lat="58.30425833281121" lon="8.365336109763994" id="-40901">
		<tag k="name" v="Vassnesholmen" />
		<tag k="place" v="islet" />
		<tag k="ssr:stedsnr" v="507244" />
	</node>
	<node lat="58.32207499658314" lon="8.344963881324736" id="-40917">
		<tag k="name" v="Leirodden" />
		<tag k="natural" v="cape" />
		<tag k="ssr:stedsnr" v="507278" />
	</node>
	<node lat="58.26933610953713" lon="8.409033336263468" id="-40924">
		<tag k="name" v="Sjøbekken" />
		<tag k="ssr:stedsnr" v="507866" />
		<tag k="waterway" v="stream" />
	</node>
	<node lat="58.23857777976254" lon="8.322266665178676" id="-40937">
		<tag k="name" v="Furekjerrtjønna" />
		<tag k="natural" v="water" />
		<tag k="ssr:stedsnr" v="546244" />
	</node>
	<node lat="58.32191111412344" lon="8.37965555483042" id="-40939">
		<tag k="alt_name" v="Store Eftevann" />
		<tag k="name" v="Store Eftevannet" />
		<tag k="natural" v="water" />
		<tag k="ssr:stedsnr" v="546256" />
	</node>
	<node lat="58.30548889142975" lon="8.421694441869107" id="-40941">
		<tag k="name" v="Ålekartjønn" />
		<tag k="natural" v="water" />
		<tag k="ssr:stedsnr" v="546272" />
	</node>
	<node lat="58.21286388922429" lon="8.346891658390389" id="-40947">
		<tag k="name" v="Bergsvannet" />
		<tag k="natural" v="water" />
		<tag k="ssr:stedsnr" v="546435" />
		<tag k="water" v="lake" />
	</node>
	<node lat="58.313927773444966" lon="8.303086114200843" id="-40964">
		<tag k="name" v="Fiskebekk" />
		<tag k="ssr:stedsnr" v="567289" />
		<tag k="waterway" v="stream" />
	</node>
	<node lat="58.270313889436295" lon="8.33231943743283" id="-40968">
		<tag k="name" v="Persbekk" />
		<tag k="ssr:stedsnr" v="567822" />
		<tag k="waterway" v="stream" />
	</node>
	<node lat="58.31790833068846" lon="8.333902769470104" id="-40978">
		<tag k="name" v="Kjeholmen" />
=======
	<node id="-533116" lat="58.3115638879" lon="8.36452778394">
		<tag k="name" v="Lillevassnes" />
		<tag k="natural" v="cape" />
		<tag k="ssr:stedsnr" v="204225" />
	</node>
	<node id="-531579" lat="58.1121361067" lon="8.21421943767">
		<tag k="name" v="Sandpytten" />
		<tag k="natural" v="water" />
		<tag k="ssr:stedsnr" v="264994" />
		<tag k="water" v="pond" />
	</node>
	<node id="-533097" lat="58.1928361114" lon="8.23303889436">
		<tag k="name" v="Bragetjønn" />
		<tag k="natural" v="water" />
		<tag k="ssr:stedsnr" v="204052" />
	</node>
	<node id="-533243" lat="58.303838893" lon="8.32576666392">
		<tag k="name" v="Bjortjønna" />
		<tag k="natural" v="water" />
		<tag k="ssr:stedsnr" v="325315" />
	</node>
	<node id="-533618" lat="58.1644361088" lon="8.17362777722">
		<tag k="name" v="Åtjønn" />
		<tag k="natural" v="water" />
		<tag k="ssr:stedsnr" v="628221" />
	</node>
	<node id="-532587" lat="58.1840854803" lon="8.1820045517">
		<tag k="name" v="Bjorstemmen" />
		<tag k="natural" v="water" />
		<tag k="ssr:stedsnr" v="910433" />
	</node>
	<node id="-534121" lat="58.2677483046" lon="8.25645274019">
		<tag k="alt_name" v="Grunnevann" />
		<tag k="name" v="Grunnevannet" />
		<tag k="natural" v="water" />
		<tag k="ssr:stedsnr" v="485679" />
	</node>
	<node id="-533608" lat="58.17844167" lon="8.23992499291">
		<tag k="name" v="Øreslandsbekken" />
		<tag k="ssr:stedsnr" v="627542" />
		<tag k="waterway" v="stream" />
	</node>
	<node id="-531557" lat="58.2914194417" lon="8.38548888184">
		<tag k="name" v="Olasvig" />
		<tag k="natural" v="bay" />
		<tag k="ssr:stedsnr" v="264778" />
	</node>
	<node id="-533179" lat="58.142080555" lon="8.23021388139">
		<tag k="name" v="Årsnestjønna" />
		<tag k="natural" v="water" />
		<tag k="ssr:stedsnr" v="304596" />
	</node>
	<node id="-533087" lat="58.2256999978" lon="8.25829443967">
		<tag k="name" v="Osane" />
		<tag k="natural" v="bay" />
		<tag k="ssr:stedsnr" v="204018" />
	</node>
	<node id="-532573" lat="58.2626861123" lon="8.33856666029">
		<tag k="name" v="Knudremyrstemmen" />
		<tag k="ssr:stedsnr" v="871813" />
		<tag k="waterway" v="stream" />
	</node>
	<node id="-532751" lat="58.2668583329" lon="8.31897778535">
		<tag k="name" v="Lille Fjellvann" />
		<tag k="natural" v="water" />
		<tag k="ssr:stedsnr" v="22362" />
	</node>
	<node id="-533591" lat="58.2802027736" lon="8.26809999734">
		<tag k="alt_name" v="Knutevann" />
		<tag k="name" v="Knutevannet" />
		<tag k="natural" v="water" />
		<tag k="ssr:stedsnr" v="607740" />
	</node>
	<node id="-533590" lat="58.2713944451" lon="8.37625833567">
		<tag k="alt_name" v="Eftevann" />
		<tag k="name" v="Eftevannet" />
		<tag k="natural" v="water" />
		<tag k="ssr:stedsnr" v="606713" />
	</node>
	<node id="-533003" lat="58.310558335" lon="8.38642778019">
		<tag k="name" v="Lilleneset" />
		<tag k="natural" v="cape" />
		<tag k="ssr:stedsnr" v="143246" />
	</node>
	<node id="-533588" lat="58.2596416676" lon="8.40446665931">
		<tag k="alt_name" v="Langedalsvann" />
		<tag k="name" v="Langedalsvannet" />
		<tag k="natural" v="water" />
		<tag k="ssr:stedsnr" v="606705" />
	</node>
	<node id="-533587" lat="58.2516916674" lon="8.28719445272">
		<tag k="name" v="Skarvedalstjønn" />
		<tag k="natural" v="water" />
		<tag k="ssr:stedsnr" v="606699" />
	</node>
	<node id="-533583" lat="58.1874083313" lon="8.22751111841">
		<tag k="name" v="Kallandstjønna" />
		<tag k="natural" v="water" />
		<tag k="ssr:stedsnr" v="606350" />
	</node>
	<node id="-533582" lat="58.2446944479" lon="8.32869443671">
		<tag k="name" v="Glamslandvatnet" />
		<tag k="natural" v="water" />
		<tag k="ssr:stedsnr" v="606321" />
		<tag k="water" v="lake" />
	</node>
	<node id="-532748" lat="58.3207277777" lon="8.33204721435">
		<tag k="name" v="Nebetrøkilen" />
		<tag k="natural" v="bay" />
		<tag k="ssr:stedsnr" v="22284" />
	</node>
	<node id="-533287" lat="58.2949666651" lon="8.29380555012">
		<tag k="name" v="Åletjønn" />
		<tag k="natural" v="water" />
		<tag k="ssr:stedsnr" v="364306" />
	</node>
	<node id="-531521" lat="58.2455750008" lon="8.26682777921">
		<tag k="name" v="Flubergstem" />
		<tag k="ssr:stedsnr" v="264357" />
		<tag k="waterway" v="dam" />
	</node>
	<node id="-531502" lat="58.3103805551" lon="8.33262777366">
		<tag k="name" v="Nedre Tjusnes" />
		<tag k="natural" v="cape" />
		<tag k="ssr:stedsnr" v="264244" />
	</node>
	<node id="-531715" lat="58.3054888914" lon="8.42169444187">
		<tag k="name" v="Ålekartjønn" />
		<tag k="natural" v="water" />
		<tag k="ssr:stedsnr" v="546272" />
	</node>
	<node id="-531509" lat="58.3150972194" lon="8.36122221515">
		<tag k="name" v="Grimøya" />
		<tag k="place" v="island" />
		<tag k="ssr:stedsnr" v="264301" />
	</node>
	<node id="-531508" lat="58.3129861149" lon="8.32443611781">
		<tag k="name" v="Bærholmen" />
>>>>>>> e1d4bc35ff8a6074a6f2e91616a996b547c36f15
		<tag k="place" v="islet" />
		<tag k="ssr:stedsnr" v="567255" />
	</node>
<<<<<<< HEAD
	<node lat="58.2263722228638" lon="8.215180554939904" id="-40979">
		<tag k="name" v="Rompetjønn" />
		<tag k="natural" v="water" />
		<tag k="ssr:stedsnr" v="567311" />
	</node>
	<node lat="58.24427778034896" lon="8.235666670179684" id="-40996">
		<tag k="name" v="Tjønna" />
		<tag k="natural" v="water" />
		<tag k="ssr:stedsnr" v="567352" />
	</node>
	<node lat="58.18740833133156" lon="8.227511118407826" id="-41037">
		<tag k="name" v="Kallandstjønna" />
=======
	<node id="-532016" lat="58.3220749966" lon="8.34496388132">
		<tag k="name" v="Leirodden" />
		<tag k="natural" v="cape" />
		<tag k="ssr:stedsnr" v="507278" />
	</node>
	<node id="-533038" lat="58.1759444422" lon="8.150275007">
		<tag k="alt_name" v="Igletjørn, nedre" />
		<tag k="name" v="Nedre Igletjørn" />
>>>>>>> e1d4bc35ff8a6074a6f2e91616a996b547c36f15
		<tag k="natural" v="water" />
		<tag k="ssr:stedsnr" v="606350" />
	</node>
<<<<<<< HEAD
	<node lat="58.28020277357087" lon="8.26809999733844" id="-41044">
		<tag k="alt_name" v="Knutevann" />
		<tag k="name" v="Knutevannet" />
		<tag k="natural" v="water" />
		<tag k="ssr:stedsnr" v="607740" />
	</node>
	<node lat="58.178441669962304" lon="8.239924992906703" id="-41057">
		<tag k="name" v="Øreslandsbekken" />
		<tag k="ssr:stedsnr" v="627542" />
		<tag k="waterway" v="stream" />
	</node>
	<node lat="58.164436108769074" lon="8.17362777721609" id="-41068">
		<tag k="name" v="Åtjønn" />
		<tag k="natural" v="water" />
		<tag k="ssr:stedsnr" v="628221" />
	</node>
	<node lat="58.24098055625037" lon="8.290555553504115" id="-41071">
		<tag k="name" v="Fjelldalsbekken" />
		<tag k="ssr:stedsnr" v="628429" />
		<tag k="waterway" v="stream" />
	</node>
	<node lat="58.31849999800594" lon="8.318933337019907" id="-41083">
		<tag k="name" v="Storenes" />
		<tag k="natural" v="cape" />
		<tag k="ssr:stedsnr" v="628280" />
	</node>
	<node lat="58.176091670107944" lon="8.150655557958174" id="-41102">
		<tag k="name" v="Grundebutjønn" />
		<tag k="natural" v="water" />
		<tag k="ssr:stedsnr" v="628969" />
	</node>
	<node lat="58.18838889087982" lon="8.240624998153358" id="-41117">
		<tag k="name" v="Kjøstveittjønna" />
		<tag k="natural" v="water" />
		<tag k="ssr:stedsnr" v="667365" />
	</node>
	<node lat="58.24778055230079" lon="8.28641110415732" id="-41129">
		<tag k="alt_name" v="Heiemyrtjønn" />
		<tag k="name" v="Heimretjørn" />
		<tag k="natural" v="water" />
		<tag k="ssr:stedsnr" v="728300" />
	</node>
	<node lat="58.281233332654374" lon="8.367455553770311" id="-41135">
		<tag k="name" v="Svartetjønn" />
=======
	<node id="-532522" lat="58.2096861114" lon="8.23895555158">
		<tag k="name" v="Smørtjønn" />
		<tag k="natural" v="water" />
		<tag k="ssr:stedsnr" v="871113" />
	</node>
	<node id="-533032" lat="58.2909916706" lon="8.29103611903">
		<tag k="name" v="Modalstjønn" />
		<tag k="natural" v="water" />
		<tag k="ssr:stedsnr" v="182297" />
	</node>
	<node id="-532007" lat="58.267094448" lon="8.3216583274">
		<tag k="name" v="Fjellvannet" />
		<tag k="natural" v="water" />
		<tag k="ssr:stedsnr" v="485659" />
	</node>
	<node id="-533425" lat="58.3219111141" lon="8.37965555483">
		<tag k="alt_name" v="Store Eftevann" />
		<tag k="name" v="Store Eftevannet" />
		<tag k="natural" v="water" />
		<tag k="ssr:stedsnr" v="546256" />
	</node>
	<node id="-533540" lat="58.2703138894" lon="8.33231943743">
		<tag k="name" v="Persbekk" />
		<tag k="ssr:stedsnr" v="567822" />
		<tag k="waterway" v="stream" />
	</node>
	<node id="-532003" lat="58.1757666691" lon="8.19648333388">
		<tag k="alt_name" v="Mellomtjørn" />
		<tag k="name" v="Mellomtjønn" />
		<tag k="natural" v="water" />
		<tag k="ssr:stedsnr" v="485352" />
	</node>
	<node id="-533031" lat="58.3087666659" lon="8.42945832598">
		<tag k="name" v="Olstadtjønna" />
		<tag k="natural" v="water" />
		<tag k="ssr:stedsnr" v="182283" />
	</node>
	<node id="-533019" lat="58.2299027785" lon="8.33608055875">
		<tag k="name" v="Lilletjønn" />
		<tag k="natural" v="water" />
		<tag k="ssr:stedsnr" v="143382" />
	</node>
	<node id="-532504" lat="58.1907527749" lon="8.15936110886">
		<tag k="name" v="Langsvann" />
>>>>>>> e1d4bc35ff8a6074a6f2e91616a996b547c36f15
		<tag k="natural" v="water" />
		<tag k="ssr:stedsnr" v="932944" />
		<tag k="water" v="lake" />
	</node>
<<<<<<< HEAD
	<node lat="58.20009444176819" lon="8.21071665888952" id="-41150">
		<tag k="name" v="Kviksvann" />
		<tag k="natural" v="water" />
		<tag k="ssr:stedsnr" v="728465" />
	</node>
	<node lat="58.225222219172394" lon="8.225294440698343" id="-41165">
		<tag k="name" v="Kvalhommertjønn" />
		<tag k="natural" v="water" />
		<tag k="ssr:stedsnr" v="749051" />
	</node>
	<node lat="58.15432499609949" lon="8.209988886683002" id="-41184">
		<tag k="name" v="Fløndalstjønna" />
		<tag k="natural" v="water" />
		<tag k="ssr:stedsnr" v="749232" />
	</node>
	<node lat="58.17264166515729" lon="8.194608331304707" id="-41185">
		<tag k="name" v="Stemsodden" />
		<tag k="natural" v="cape" />
		<tag k="ssr:stedsnr" v="749240" />
	</node>
	<node lat="58.244250001705176" lon="8.275819443192095" id="-41239">
		<tag k="name" v="Flubergbekken" />
		<tag k="ssr:stedsnr" v="788330" />
		<tag k="waterway" v="stream" />
	</node>
	<node lat="58.19226388784001" lon="8.249608340644237" id="-41248">
		<tag k="name" v="Holtsvann" />
		<tag k="natural" v="water" />
		<tag k="ssr:stedsnr" v="789394" />
	</node>
	<node lat="58.219719444737486" lon="8.37133333801642" id="-41252">
		<tag k="name" v="Østerøykilen" />
		<tag k="natural" v="bay" />
		<tag k="ssr:stedsnr" v="789456" />
	</node>
	<node lat="58.213658337506445" lon="8.283391669608376" id="-41272">
		<tag k="name" v="Øyra" />
		<tag k="natural" v="shoal" />
		<tag k="place" v="locality" />
		<tag k="ssr:stedsnr" v="810039" />
	</node>
	<node lat="58.30843055161969" lon="8.335122228145654" id="-41297">
		<tag k="name" v="Bukilen" />
		<tag k="natural" v="bay" />
		<tag k="ssr:stedsnr" v="810264" />
	</node>
	<node lat="58.303647222683054" lon="8.353030555880922" id="-41298">
		<tag k="name" v="Tvieidtjønna" />
		<tag k="natural" v="water" />
		<tag k="ssr:stedsnr" v="810266" />
	</node>
	<node lat="58.31380277918737" lon="8.334930551351865" id="-41299">
		<tag k="name" v="Koholmen" />
		<tag k="place" v="islet" />
		<tag k="ssr:stedsnr" v="810271" />
	</node>
	<node lat="58.2636000004986" lon="8.414672224845992" id="-41310">
		<tag k="name" v="Lilletjønn" />
		<tag k="natural" v="water" />
		<tag k="ssr:stedsnr" v="810770" />
	</node>
	<node lat="58.149038890153555" lon="8.247927782766714" id="-41313">
		<tag k="name" v="Steinsøyhalsen" />
		<tag k="natural" v="cape" />
		<tag k="ssr:stedsnr" v="810584" />
	</node>
	<node lat="58.29904722245491" lon="8.38601110489117" id="-41324">
		<tag k="name" v="Askevigodden" />
		<tag k="natural" v="cape" />
		<tag k="ssr:stedsnr" v="810797" />
	</node>
	<node lat="58.30024444360374" lon="8.387572226764652" id="-41325">
		<tag k="name" v="Fladholmen" />
		<tag k="place" v="islet" />
		<tag k="ssr:stedsnr" v="810798" />
	</node>
	<node lat="58.32677500150793" lon="8.374908339073183" id="-41357">
		<tag k="alt_name" v="Lille Eftevann" />
		<tag k="name" v="Lille Eftevannet" />
		<tag k="natural" v="water" />
		<tag k="ssr:stedsnr" v="850258" />
	</node>
	<node lat="58.15385345801292" lon="8.164603922916047" id="-41362">
		<tag k="alt_name" v="Fjortjørnane" />
		<tag k="name" v="Fjordtjønnane" />
		<tag k="natural" v="water" />
		<tag k="ssr:stedsnr" v="850562" />
		<tag k="water" v="lake" />
=======
	<node id="-532503" lat="58.2939277766" lon="8.33019721844">
		<tag k="name" v="Kjerketjønn" />
		<tag k="natural" v="water" />
		<tag k="ssr:stedsnr" v="932800" />
	</node>
	<node id="-532502" lat="58.3019694404" lon="8.32803611217">
		<tag k="name" v="Syningtangen" />
		<tag k="natural" v="cape" />
		<tag k="ssr:stedsnr" v="932796" />
	</node>
	<node id="-533009" lat="58.3157861098" lon="8.34396110697">
		<tag k="name" v="Lensebukilen" />
		<tag k="natural" v="bay" />
		<tag k="ssr:stedsnr" v="143276" />
	</node>
	<node id="-533008" lat="58.3086388855" lon="8.31986389264">
		<tag k="name" v="Øvre Tjusnes" />
		<tag k="natural" v="cape" />
		<tag k="ssr:stedsnr" v="143275" />
	</node>
	<node id="-533007" lat="58.3202527781" lon="8.33695833951">
		<tag k="name" v="Sundet" />
		<tag k="natural" v="strait" />
		<tag k="ssr:stedsnr" v="143270" />
	</node>
	<node id="-532779" lat="58.2714499957" lon="8.36309166333">
		<tag k="fixme" v="multiple name tags, choose one and add the other to alt_name" />
		<tag k="name" v="Store Kvernvann;Kverntjønn" />
		<tag k="natural" v="water" />
		<tag k="ssr:stedsnr" v="60721" />
	</node>
	<node id="-533005" lat="58.3165888872" lon="8.31173610965">
		<tag k="name" v="Buholmen" />
		<tag k="place" v="islet" />
		<tag k="ssr:stedsnr" v="143258" />
	</node>
	<node id="-531714" lat="58.3087916688" lon="8.39291944074">
		<tag k="name" v="Kvernhusbekken" />
		<tag k="ssr:stedsnr" v="264624" />
		<tag k="waterway" v="stream" />
	</node>
	<node id="-533002" lat="58.3046500022" lon="8.3841361117">
		<tag k="name" v="Vasshaugvig" />
		<tag k="natural" v="bay" />
		<tag k="ssr:stedsnr" v="143230" />
	</node>
	<node id="-533001" lat="58.3078694476" lon="8.34896665965">
		<tag k="name" v="Endetjønn" />
		<tag k="natural" v="water" />
		<tag k="ssr:stedsnr" v="143228" />
	</node>
	<node id="-532847" lat="58.3024277767" lon="8.39109166748">
		<tag k="name" v="Sandviga" />
		<tag k="natural" v="cape" />
		<tag k="ssr:stedsnr" v="82780" />
	</node>
	<node id="-531975" lat="58.1883888909" lon="8.24062499815">
		<tag k="name" v="Kjøstveittjønna" />
		<tag k="natural" v="water" />
		<tag k="ssr:stedsnr" v="667365" />
	</node>
	<node id="-532993" lat="58.1850972229" lon="8.15878332777">
		<tag k="name" v="Grasvann" />
		<tag k="natural" v="water" />
		<tag k="ssr:stedsnr" v="142960" />
		<tag k="water" v="lake" />
	</node>
	<node id="-531972" lat="58.3074111114" lon="8.41374999367">
		<tag k="name" v="Blautetjønn" />
		<tag k="natural" v="water" />
		<tag k="ssr:stedsnr" v="667297" />
	</node>
	<node id="-531971" lat="58.2282666664" lon="8.31504721551">
		<tag k="alt_name" v="Mellomtjørn" />
		<tag k="name" v="Mellomtjønn" />
		<tag k="natural" v="water" />
		<tag k="ssr:stedsnr" v="667294" />
	</node>
	<node id="-531969" lat="58.3046527739" lon="8.34888333168">
		<tag k="name" v="Tvieidet" />
		<tag k="natural" v="strait" />
		<tag k="ssr:stedsnr" v="667285" />
>>>>>>> e1d4bc35ff8a6074a6f2e91616a996b547c36f15
	</node>
</osm>
