<?xml version="1.0" encoding="UTF-8"?>
<osm version="0.6" generator="osmapis">
	<node lat="58.22152939502739" lon="8.235366425374616" id="-37536">
		<tag k="fixme" v="consider natural=peak for the most distinct mountains in the district" />
		<tag k="name" v="Steinsåsen" />
		<tag k="natural" v="hill" />
		<tag k="place" v="locality" />
		<tag k="ssr:stedsnr" v="308" />
	</node>
	<node lat="58.18528889057804" lon="8.166374991895616" id="-37546">
		<tag k="fixme" v="consider natural=peak for the most distinct mountains in the district" />
		<tag k="name" v="Lyheia" />
		<tag k="natural" v="hill" />
		<tag k="place" v="locality" />
		<tag k="ssr:stedsnr" v="449" />
	</node>
	<node lat="58.21339166679569" lon="8.201225006982686" id="-37549">
		<tag k="name" v="Finndalen" />
		<tag k="natural" v="valley" />
		<tag k="place" v="locality" />
		<tag k="ssr:stedsnr" v="493" />
	</node>
	<node lat="58.11597222656601" lon="8.211841666994223" id="-37557">
		<tag k="name" v="Varden" />
		<tag k="natural" v="hill" />
		<tag k="place" v="locality" />
		<tag k="ssr:stedsnr" v="21341" />
	</node>
	<node lat="58.271033328891846" lon="8.34793333608518" id="-37565">
		<tag k="name" v="Skibsknatten" />
		<tag k="natural" v="hill" />
		<tag k="place" v="locality" />
		<tag k="ssr:stedsnr" v="21821" />
	</node>
	<node lat="58.25403333319652" lon="8.411449997837417" id="-37567">
		<tag k="fixme" v="consider natural=peak for the most distinct mountains in the district" />
		<tag k="name" v="Fløresteinen" />
		<tag k="natural" v="hill" />
		<tag k="place" v="locality" />
		<tag k="ssr:stedsnr" v="21839" />
	</node>
	<node lat="58.1118527767566" lon="8.207672228896637" id="-37572">
		<tag k="name" v="Fladen" />
		<tag k="place" v="locality" />
		<tag k="ssr:stedsnr" v="21986" />
	</node>
	<node lat="58.1174944454765" lon="8.215425007125276" id="-37575">
		<tag k="name" v="Storeheia" />
		<tag k="natural" v="hill" />
		<tag k="place" v="locality" />
		<tag k="ssr:stedsnr" v="21991" />
	</node>
	<node lat="58.1265777761609" lon="8.211305553460674" id="-37576">
		<tag k="fixme" v="consider natural=peak for the most distinct mountains in the district" />
		<tag k="name" v="Sundsåsen" />
		<tag k="natural" v="hill" />
		<tag k="place" v="locality" />
		<tag k="ssr:stedsnr" v="21995" />
	</node>
	<node lat="58.198038892558905" lon="8.209016667291216" id="-37579">
		<tag k="name" v="Ørneheia" />
		<tag k="natural" v="hill" />
		<tag k="place" v="locality" />
		<tag k="ssr:stedsnr" v="22114" />
	</node>
	<node lat="58.225305558816146" lon="8.2685694388858" id="-37582">
		<tag k="name" v="Skifjelldalen" />
		<tag k="natural" v="valley" />
		<tag k="place" v="locality" />
		<tag k="ssr:stedsnr" v="22038" />
	</node>
	<node lat="58.177249999513904" lon="8.26695555802339" id="-37583">
		<tag k="name" v="Galneheiane" />
		<tag k="natural" v="hill" />
		<tag k="place" v="locality" />
		<tag k="ssr:stedsnr" v="22040" />
	</node>
	<node lat="58.18565277950347" lon="8.219058332375278" id="-37585">
		<tag k="name" v="Lilledal" />
		<tag k="natural" v="valley" />
		<tag k="place" v="locality" />
		<tag k="ssr:stedsnr" v="22049" />
	</node>
	<node lat="58.18883610791351" lon="8.176655563580104" id="-37587">
		<tag k="name" v="Eigelia" />
		<tag k="natural" v="slope" />
		<tag k="place" v="locality" />
		<tag k="ssr:stedsnr" v="22086" />
	</node>
	<node lat="58.17426111470176" lon="8.184555562531104" id="-37588">
		<tag k="name" v="Graskjerrdalen" />
		<tag k="natural" v="valley" />
		<tag k="place" v="locality" />
		<tag k="ssr:stedsnr" v="22093" />
	</node>
	<node lat="58.171363893264534" lon="8.169661108937994" id="-37590">
		<tag k="name" v="Brantehei" />
		<tag k="natural" v="hill" />
		<tag k="place" v="locality" />
		<tag k="ssr:stedsnr" v="22201" />
	</node>
	<node lat="58.25742778015938" lon="8.209136113736239" id="-37596">
		<tag k="fixme" v="consider natural=peak for the most distinct mountains in the district" />
		<tag k="name" v="Slettåsen" />
		<tag k="natural" v="hill" />
		<tag k="place" v="locality" />
		<tag k="ssr:stedsnr" v="22334" />
	</node>
	<node lat="58.23605555484485" lon="8.316836108400928" id="-37598">
		<tag k="name" v="Starrheia" />
		<tag k="natural" v="hill" />
		<tag k="place" v="locality" />
		<tag k="ssr:stedsnr" v="22399" />
	</node>
	<node lat="58.2217055556931" lon="8.198208336322784" id="-37600">
		<tag k="name" v="Drangsholtdalen" />
		<tag k="natural" v="valley" />
		<tag k="place" v="locality" />
		<tag k="ssr:stedsnr" v="22295" />
	</node>
	<node lat="58.26713332886947" lon="8.29563888193477" id="-37601">
		<tag k="fixme" v="consider natural=peak for the most distinct mountains in the district" />
		<tag k="name" v="Heståskniben" />
		<tag k="natural" v="hill" />
		<tag k="place" v="locality" />
		<tag k="ssr:stedsnr" v="22404" />
	</node>
	<node lat="58.2330611098605" lon="8.308233327723073" id="-37603">
		<tag k="name" v="Varphei" />
		<tag k="natural" v="hill" />
		<tag k="place" v="locality" />
		<tag k="ssr:stedsnr" v="22435" />
	</node>
	<node lat="58.23350555935343" lon="8.304563886690039" id="-37604">
		<tag k="name" v="Mannfalldalen" />
		<tag k="natural" v="valley" />
		<tag k="place" v="locality" />
		<tag k="ssr:stedsnr" v="22436" />
	</node>
	<node lat="58.30167222239979" lon="8.416358337839819" id="-37607">
		<tag k="name" v="Bordheia" />
		<tag k="natural" v="hill" />
		<tag k="place" v="locality" />
		<tag k="ssr:stedsnr" v="22782" />
	</node>
	<node lat="58.29684444731144" lon="8.43232777979761" id="-37609">
		<tag k="fixme" v="consider natural=peak for the most distinct mountains in the district" />
		<tag k="name" v="Skorvåsen" />
		<tag k="natural" v="hill" />
		<tag k="place" v="locality" />
		<tag k="ssr:stedsnr" v="22793" />
	</node>
	<node lat="58.12131944504951" lon="8.244833325146033" id="-37623">
		<tag k="name" v="Høye Nibe" />
		<tag k="natural" v="ridge" />
		<tag k="place" v="locality" />
		<tag k="ssr:stedsnr" v="61495" />
	</node>
	<node lat="58.24765832896378" lon="8.407216665622581" id="-37630">
		<tag k="fixme" v="consider natural=peak for the most distinct mountains in the district" />
		<tag k="name" v="Fløyheia" />
		<tag k="natural" v="hill" />
		<tag k="place" v="locality" />
		<tag k="ssr:stedsnr" v="242261" />
	</node>
	<node lat="58.21147500408782" lon="8.260130551205707" id="-37635">
		<tag k="fixme" v="consider natural=peak for the most distinct mountains in the district" />
		<tag k="name" v="Bråheia" />
		<tag k="natural" v="hill" />
		<tag k="place" v="locality" />
		<tag k="ssr:stedsnr" v="242462" />
	</node>
	<node lat="58.23811388496961" lon="8.225644442214433" id="-37639">
		<tag k="fixme" v="consider natural=peak for the most distinct mountains in the district" />
		<tag k="name" v="Gausheia" />
		<tag k="natural" v="hill" />
		<tag k="place" v="locality" />
		<tag k="ssr:stedsnr" v="243246" />
	</node>
	<node lat="58.18720833132291" lon="8.173177776260037" id="-37649">
		<tag k="alt_name" v="Snelldalen" />
		<tag k="name" v="Snelldal" />
		<tag k="natural" v="valley" />
		<tag k="place" v="locality" />
		<tag k="ssr:stedsnr" v="243383" />
	</node>
	<node lat="58.20168888604933" lon="8.228447228589472" id="-37663">
		<tag k="name" v="Søndagsheia" />
		<tag k="natural" v="hill" />
		<tag k="place" v="locality" />
		<tag k="ssr:stedsnr" v="82138" />
	</node>
	<node lat="58.143183336533426" lon="8.232911111009855" id="-37665">
		<tag k="fixme" v="consider natural=peak for the most distinct mountains in the district" />
		<tag k="name" v="Tjønnåsen" />
		<tag k="natural" v="hill" />
		<tag k="place" v="locality" />
		<tag k="ssr:stedsnr" v="82183" />
	</node>
	<node lat="58.22132500417841" lon="8.196827779518587" id="-37669">
		<tag k="name" v="Rompetjønnheia" />
		<tag k="natural" v="hill" />
		<tag k="place" v="locality" />
		<tag k="ssr:stedsnr" v="82309" />
	</node>
	<node lat="58.22816389329226" lon="8.20847500210515" id="-37671">
		<tag k="fixme" v="consider natural=peak for the most distinct mountains in the district" />
		<tag k="name" v="Tereåsen" />
		<tag k="natural" v="hill" />
		<tag k="place" v="locality" />
		<tag k="ssr:stedsnr" v="82313" />
	</node>
	<node lat="58.120488886496105" lon="8.215399991725326" id="-37672">
		<tag k="name" v="Oksevigheia" />
		<tag k="natural" v="hill" />
		<tag k="place" v="locality" />
		<tag k="ssr:stedsnr" v="82317" />
	</node>
	<node lat="58.190486111463336" lon="8.19903055547419" id="-37676">
		<tag k="name" v="Lillehei" />
		<tag k="natural" v="hill" />
		<tag k="place" v="locality" />
		<tag k="ssr:stedsnr" v="82091" />
	</node>
	<node lat="58.16533888783415" lon="8.197202775810519" id="-37681">
		<tag k="fixme" v="consider natural=peak for the most distinct mountains in the district" />
		<tag k="name" v="Varfjell" />
		<tag k="natural" v="hill" />
		<tag k="place" v="locality" />
		<tag k="ssr:stedsnr" v="82216" />
	</node>
	<node lat="58.16153611132564" lon="8.178402774893332" id="-37684">
		<tag k="name" v="Olishei" />
		<tag k="natural" v="hill" />
		<tag k="place" v="locality" />
		<tag k="ssr:stedsnr" v="82227" />
	</node>
	<node lat="58.16451666313032" lon="8.162500002247002" id="-37685">
		<tag k="fixme" v="consider natural=peak for the most distinct mountains in the district" />
		<tag k="name" v="Steåsen" />
		<tag k="natural" v="hill" />
		<tag k="place" v="locality" />
		<tag k="ssr:stedsnr" v="82238" />
	</node>
	<node lat="58.17643611171165" lon="8.201677783630098" id="-37688">
		<tag k="fixme" v="consider natural=peak for the most distinct mountains in the district" />
		<tag k="name" v="Lyheia" />
		<tag k="natural" v="hill" />
		<tag k="place" v="locality" />
		<tag k="ssr:stedsnr" v="82531" />
	</node>
	<node lat="58.304350003329226" lon="8.431822223746755" id="-37698">
		<tag k="name" v="Stieheia" />
		<tag k="natural" v="hill" />
		<tag k="place" v="locality" />
		<tag k="ssr:stedsnr" v="82632" />
	</node>
	<node lat="58.289308333209796" lon="8.329427784485203" id="-37703">
		<tag k="name" v="Helleren" />
		<tag k="place" v="locality" />
		<tag k="ssr:stedsnr" v="82836" />
	</node>
	<node lat="58.279408330498306" lon="8.36013610373533" id="-37705">
		<tag k="name" v="Lundsheiene" />
		<tag k="natural" v="hill" />
		<tag k="place" v="locality" />
		<tag k="ssr:stedsnr" v="82841" />
	</node>
	<node lat="58.239894442870984" lon="8.354102772330908" id="-37708">
		<tag k="fixme" v="consider natural=peak for the most distinct mountains in the district" />
		<tag k="name" v="Kirkeheia" />
		<tag k="natural" v="hill" />
		<tag k="place" v="locality" />
		<tag k="ssr:stedsnr" v="82926" />
	</node>
	<node lat="58.31895833525734" lon="8.40742777166824" id="-37720">
		<tag k="fixme" v="consider natural=peak for the most distinct mountains in the district" />
		<tag k="name" v="Hisåsen" />
		<tag k="natural" v="hill" />
		<tag k="place" v="locality" />
		<tag k="ssr:stedsnr" v="121289" />
	</node>
	<node lat="58.18745833764803" lon="8.175005559298327" id="-37723">
		<tag k="alt_name" v="Føllet" />
		<tag k="fixme" v="consider natural=peak for the most distinct mountains in the district" />
		<tag k="name" v="Følet" />
		<tag k="natural" v="hill" />
		<tag k="place" v="locality" />
		<tag k="ssr:stedsnr" v="121418" />
	</node>
	<node lat="58.172908331172955" lon="8.174525006449757" id="-37731">
		<tag k="fixme" v="consider natural=peak for the most distinct mountains in the district" />
		<tag k="name" v="Dalen" />
		<tag k="natural" v="hill" />
		<tag k="place" v="locality" />
		<tag k="ssr:stedsnr" v="121628" />
	</node>
	<node lat="58.181277781102914" lon="8.253736116396412" id="-37733">
		<tag k="name" v="Kverndalen" />
		<tag k="natural" v="valley" />
		<tag k="place" v="locality" />
		<tag k="ssr:stedsnr" v="142096" />
	</node>
	<node lat="58.18879999777527" lon="8.246152777069332" id="-37734">
		<tag k="fixme" v="consider natural=peak for the most distinct mountains in the district" />
		<tag k="name" v="Liråsen" />
		<tag k="natural" v="hill" />
		<tag k="place" v="locality" />
		<tag k="ssr:stedsnr" v="142097" />
	</node>
	<node lat="58.18748055615563" lon="8.191038894828559" id="-37736">
		<tag k="name" v="Monen" />
		<tag k="place" v="locality" />
		<tag k="ssr:stedsnr" v="142108" />
	</node>
	<node lat="58.21360000357551" lon="8.205469448433917" id="-37738">
		<tag k="name" v="Raundalshei" />
		<tag k="natural" v="hill" />
		<tag k="place" v="locality" />
		<tag k="ssr:stedsnr" v="142171" />
	</node>
	<node lat="58.21492778108991" lon="8.191344452867627" id="-37739">
		<tag k="name" v="Masseshei" />
		<tag k="natural" v="hill" />
		<tag k="place" v="locality" />
		<tag k="ssr:stedsnr" v="142172" />
	</node>
	<node lat="58.18600555267688" lon="8.32608888757555" id="-37741">
		<tag k="name" v="Burholmkastellet" />
		<tag k="place" v="locality" />
		<tag k="ssr:stedsnr" v="142538" />
	</node>
	<node lat="58.25483333296568" lon="8.311716663914723" id="-37744">
		<tag k="name" v="Føllshei" />
		<tag k="natural" v="hill" />
		<tag k="place" v="locality" />
		<tag k="ssr:stedsnr" v="142434" />
	</node>
	<node lat="58.25253611215546" lon="8.298538885724435" id="-37745">
		<tag k="fixme" v="consider natural=peak for the most distinct mountains in the district" />
		<tag k="name" v="Kasteknuten" />
		<tag k="natural" v="hill" />
		<tag k="place" v="locality" />
		<tag k="ssr:stedsnr" v="142421" />
	</node>
	<node lat="58.24114167014639" lon="8.30101944550108" id="-37746">
		<tag k="name" v="Tjuehelleren" />
		<tag k="place" v="locality" />
		<tag k="ssr:stedsnr" v="142438" />
	</node>
	<node lat="58.29734722666791" lon="8.413452773650905" id="-37755">
		<tag k="name" v="Hansesdalsheia" />
		<tag k="natural" v="hill" />
		<tag k="place" v="locality" />
		<tag k="ssr:stedsnr" v="142808" />
	</node>
	<node lat="58.29710555433159" lon="8.416374998327653" id="-37756">
		<tag k="fixme" v="consider natural=peak for the most distinct mountains in the district" />
		<tag k="name" v="Lonåsen" />
		<tag k="natural" v="hill" />
		<tag k="place" v="locality" />
		<tag k="ssr:stedsnr" v="142810" />
	</node>
	<node lat="58.300099995750934" lon="8.42768056068455" id="-37757">
		<tag k="name" v="Dybedalsheia" />
		<tag k="natural" v="hill" />
		<tag k="place" v="locality" />
		<tag k="ssr:stedsnr" v="142817" />
	</node>
	<node lat="58.12731944856152" lon="8.241519439244883" id="-37768">
		<tag k="name" v="Nesupsa" />
		<tag k="natural" v="cliff" />
		<tag k="ssr:stedsnr" v="142905" />
	</node>
	<node lat="58.25658055395134" lon="8.360755560241143" id="-37770">
		<tag k="name" v="Kirkedalen" />
		<tag k="natural" v="valley" />
		<tag k="place" v="locality" />
		<tag k="ssr:stedsnr" v="142916" />
	</node>
	<node lat="58.27602500309554" lon="8.361038892317184" id="-37805">
		<tag k="name" v="Vardehei" />
		<tag k="natural" v="hill" />
		<tag k="place" v="locality" />
		<tag k="ssr:stedsnr" v="262925" />
	</node>
	<node lat="58.20411388809322" lon="8.335752782010335" id="-37808">
		<tag k="fixme" v="consider natural=peak for the most distinct mountains in the district" />
		<tag k="name" v="Ånjeråsen" />
		<tag k="natural" v="hill" />
		<tag k="place" v="locality" />
		<tag k="ssr:stedsnr" v="264015" />
	</node>
	<node lat="58.20985277467972" lon="8.278183336949278" id="-37810">
		<tag k="name" v="Høydalshei" />
		<tag k="natural" v="hill" />
		<tag k="place" v="locality" />
		<tag k="ssr:stedsnr" v="264032" />
	</node>
	<node lat="58.3116750036459" lon="8.40391110462853" id="-37816">
		<tag k="name" v="Jonsskoddet" />
		<tag k="natural" v="cliff" />
		<tag k="ssr:stedsnr" v="264271" />
	</node>
	<node lat="58.278072218660355" lon="8.286011112353966" id="-37820">
		<tag k="fixme" v="consider natural=peak for the most distinct mountains in the district" />
		<tag k="name" v="Eigåsknuten" />
		<tag k="natural" v="hill" />
		<tag k="place" v="locality" />
		<tag k="ssr:stedsnr" v="264419" />
	</node>
	<node lat="58.28004166885907" lon="8.284505555845783" id="-37821">
		<tag k="fixme" v="consider natural=peak for the most distinct mountains in the district" />
		<tag k="name" v="Skorreknuden" />
		<tag k="natural" v="hill" />
		<tag k="place" v="locality" />
		<tag k="ssr:stedsnr" v="264420" />
	</node>
	<node lat="58.250580553408085" lon="8.296836110974805" id="-37822">
		<tag k="name" v="Bjørndalen" />
		<tag k="natural" v="valley" />
		<tag k="place" v="locality" />
		<tag k="ssr:stedsnr" v="264433" />
	</node>
	<node lat="58.221513888226774" lon="8.274733337863513" id="-37826">
		<tag k="name" v="Bjørneholane" />
		<tag k="natural" v="valley" />
		<tag k="place" v="locality" />
		<tag k="ssr:stedsnr" v="264039" />
	</node>
	<node lat="58.224716665723584" lon="8.251366669696651" id="-37827">
		<tag k="name" v="Gåsedalen" />
		<tag k="natural" v="valley" />
		<tag k="place" v="locality" />
		<tag k="ssr:stedsnr" v="264043" />
	</node>
	<node lat="58.178705559133896" lon="8.263302771433493" id="-37829">
		<tag k="fixme" v="consider natural=peak for the most distinct mountains in the district" />
		<tag k="name" v="Smååsane" />
		<tag k="natural" v="hill" />
		<tag k="place" v="locality" />
		<tag k="ssr:stedsnr" v="264057" />
	</node>
	<node lat="58.191641664783646" lon="8.225280557290564" id="-37830">
		<tag k="name" v="Krågevannsdalen" />
		<tag k="natural" v="valley" />
		<tag k="place" v="locality" />
		<tag k="ssr:stedsnr" v="264067" />
	</node>
	<node lat="58.17521388999137" lon="8.170111109560812" id="-37836">
		<tag k="fixme" v="consider natural=peak for the most distinct mountains in the district" />
		<tag k="name" v="Røyrmyråsen" />
		<tag k="natural" v="hill" />
		<tag k="place" v="locality" />
		<tag k="ssr:stedsnr" v="264131" />
	</node>
	<node lat="58.16659166848525" lon="8.197174995287835" id="-37837">
		<tag k="name" v="Nordalshei" />
		<tag k="natural" v="hill" />
		<tag k="place" v="locality" />
		<tag k="ssr:stedsnr" v="264205" />
	</node>
	<node lat="58.15805555255663" lon="8.20611944957647" id="-37838">
		<tag k="fixme" v="consider natural=peak for the most distinct mountains in the district" />
		<tag k="loc_name" v="Faulåsen" />
		<tag k="name" v="Fuglåsen" />
		<tag k="natural" v="hill" />
		<tag k="place" v="locality" />
		<tag k="ssr:stedsnr" v="264213" />
	</node>
	<node lat="58.2475250009287" lon="8.275177777958517" id="-37844">
		<tag k="fixme" v="consider natural=peak for the most distinct mountains in the district" />
		<tag k="name" v="Kalsåsen" />
		<tag k="natural" v="hill" />
		<tag k="place" v="locality" />
		<tag k="ssr:stedsnr" v="264356" />
	</node>
	<node lat="58.267758331143426" lon="8.317888882528779" id="-37848">
		<tag k="name" v="Ole Høylands hule" />
		<tag k="natural" v="gorge" />
		<tag k="ssr:stedsnr" v="264371" />
	</node>
	<node lat="58.300974999104454" lon="8.412827771482744" id="-37850">
		<tag k="name" v="Borddalen" />
		<tag k="natural" v="valley" />
		<tag k="place" v="locality" />
		<tag k="ssr:stedsnr" v="264794" />
	</node>
	<node lat="58.278038893222195" lon="8.338574999010183" id="-37853">
		<tag k="name" v="Soveheiene" />
		<tag k="natural" v="hill" />
		<tag k="place" v="locality" />
		<tag k="ssr:stedsnr" v="264825" />
	</node>
	<node lat="58.145016670815274" lon="8.258099992759007" id="-37863">
		<tag k="name" v="Helløykniben" />
		<tag k="natural" v="hill" />
		<tag k="place" v="locality" />
		<tag k="ssr:stedsnr" v="264567" />
	</node>
	<node lat="58.12894166237262" lon="8.237513881324784" id="-37878">
		<tag k="fixme" v="consider natural=peak for the most distinct mountains in the district" />
		<tag k="name" v="Haugane" />
		<tag k="natural" v="hill" />
		<tag k="place" v="locality" />
		<tag k="ssr:stedsnr" v="264881" />
	</node>
	<node lat="58.12671944489168" lon="8.220138880836046" id="-37881">
		<tag k="name" v="Nodebakken" />
		<tag k="natural" v="slope" />
		<tag k="place" v="locality" />
		<tag k="ssr:stedsnr" v="264976" />
	</node>
	<node lat="58.1456083368209" lon="8.25309445237196" id="-37890">
		<tag k="fixme" v="consider natural=peak for the most distinct mountains in the district" />
		<tag k="name" v="Skipsheia" />
		<tag k="natural" v="hill" />
		<tag k="place" v="locality" />
		<tag k="ssr:stedsnr" v="203612" />
	</node>
	<node lat="58.25675555414644" lon="8.317819448977264" id="-37895">
		<tag k="name" v="Eigelandsheia" />
		<tag k="natural" v="hill" />
		<tag k="place" v="locality" />
		<tag k="ssr:stedsnr" v="203817" />
	</node>
	<node lat="58.208597223592264" lon="8.308472214322297" id="-37898">
		<tag k="name" v="Fjøsbakken" />
		<tag k="natural" v="hill" />
		<tag k="place" v="locality" />
		<tag k="ssr:stedsnr" v="203713" />
	</node>
	<node lat="58.19659166357754" lon="8.193894436599853" id="-37903">
		<tag k="fixme" v="consider natural=peak for the most distinct mountains in the district" />
		<tag k="name" v="Storeåsen" />
		<tag k="natural" v="hill" />
		<tag k="place" v="locality" />
		<tag k="ssr:stedsnr" v="204104" />
	</node>
	<node lat="58.17664444317201" lon="8.257124997206972" id="-37907">
		<tag k="fixme" v="consider natural=peak for the most distinct mountains in the district" />
		<tag k="name" v="Fillemonsåsen" />
		<tag k="natural" v="hill" />
		<tag k="place" v="locality" />
		<tag k="ssr:stedsnr" v="204039" />
	</node>
	<node lat="58.23015000345715" lon="8.23037221950717" id="-37909">
		<tag k="name" v="Øyesdalen" />
		<tag k="natural" v="valley" />
		<tag k="place" v="locality" />
		<tag k="ssr:stedsnr" v="204041" />
	</node>
	<node lat="58.22048888959444" lon="8.323977785701658" id="-37918">
		<tag k="name" v="Lindemyrheia" />
		<tag k="natural" v="hill" />
		<tag k="place" v="locality" />
		<tag k="ssr:stedsnr" v="204367" />
	</node>
	<node lat="58.24195277584623" lon="8.284875000156344" id="-37920">
		<tag k="fixme" v="consider natural=peak for the most distinct mountains in the district" />
		<tag k="name" v="Blokkåsen" />
		<tag k="natural" v="hill" />
		<tag k="place" v="locality" />
		<tag k="ssr:stedsnr" v="204379" />
	</node>
	<node lat="58.22185555407638" lon="8.298258341056867" id="-37922">
		<tag k="name" v="Husefjell" />
		<tag k="natural" v="hill" />
		<tag k="place" v="locality" />
		<tag k="ssr:stedsnr" v="204390" />
	</node>
	<node lat="58.236141662277944" lon="8.291980561108462" id="-37923">
		<tag k="name" v="Skoddet" />
		<tag k="natural" v="cliff" />
		<tag k="ssr:stedsnr" v="204391" />
	</node>
	<node lat="58.254866666251175" lon="8.340933326323661" id="-37929">
		<tag k="name" v="Skomaker-raua" />
		<tag k="natural" v="valley" />
		<tag k="place" v="locality" />
		<tag k="ssr:stedsnr" v="204903" />
	</node>
	<node lat="58.2698388905944" lon="8.354186105957394" id="-37938">
		<tag k="name" v="Munkehetta" />
		<tag k="natural" v="hill" />
		<tag k="place" v="locality" />
		<tag k="ssr:stedsnr" v="204816" />
	</node>
	<node lat="58.181138891503956" lon="8.191416671233185" id="-37945">
		<tag k="fixme" v="consider natural=peak for the most distinct mountains in the district" />
		<tag k="name" v="Barlindheia" />
		<tag k="natural" v="hill" />
		<tag k="place" v="locality" />
		<tag k="ssr:stedsnr" v="242405" />
	</node>
	<node lat="58.17703333438803" lon="8.24670555857609" id="-37953">
		<tag k="name" v="Grøddvardhaugen" />
		<tag k="natural" v="hill" />
		<tag k="place" v="locality" />
		<tag k="ssr:stedsnr" v="264070" />
	</node>
	<node lat="58.15202500434204" lon="8.17141944228878" id="-37955">
		<tag k="fixme" v="consider natural=peak for the most distinct mountains in the district" />
		<tag k="name" v="Bjørnåsen" />
		<tag k="natural" v="hill" />
		<tag k="place" v="locality" />
		<tag k="ssr:stedsnr" v="264235" />
	</node>
	<node lat="58.307513892645595" lon="8.352380550541527" id="-37957">
		<tag k="name" v="Lommetjønnsheia" />
		<tag k="natural" v="hill" />
		<tag k="place" v="locality" />
		<tag k="ssr:stedsnr" v="264252" />
	</node>
	<node lat="58.24017500348539" lon="8.257908333008828" id="-37962">
		<tag k="name" v="Bordal" />
		<tag k="natural" v="valley" />
		<tag k="place" v="locality" />
		<tag k="ssr:stedsnr" v="264311" />
	</node>
	<node lat="58.217352781695844" lon="8.196052777598773" id="-37965">
		<tag k="fixme" v="consider natural=peak for the most distinct mountains in the district" />
		<tag k="name" v="Kvosten" />
		<tag k="natural" v="hill" />
		<tag k="place" v="locality" />
		<tag k="ssr:stedsnr" v="264318" />
	</node>
	<node lat="58.32475833003042" lon="8.357155550191164" id="-37968">
		<tag k="fixme" v="consider natural=peak for the most distinct mountains in the district" />
		<tag k="name" v="Olashei" />
		<tag k="natural" v="hill" />
		<tag k="place" v="locality" />
		<tag k="ssr:stedsnr" v="264338" />
	</node>
	<node lat="58.22243611416782" lon="8.345330557697197" id="-37971">
		<tag k="name" v="Kvernhusdalen" />
		<tag k="natural" v="valley" />
		<tag k="place" v="locality" />
		<tag k="ssr:stedsnr" v="264407" />
	</node>
	<node lat="58.31092777488654" lon="8.421697227883888" id="-37975">
		<tag k="name" v="Mieheia" />
		<tag k="natural" v="hill" />
		<tag k="place" v="locality" />
		<tag k="ssr:stedsnr" v="264619" />
	</node>
	<node lat="58.28648888955292" lon="8.426405561499037" id="-37984">
		<tag k="name" v="Sankt Hansheia" />
		<tag k="natural" v="hill" />
		<tag k="place" v="locality" />
		<tag k="ssr:stedsnr" v="264805" />
	</node>
	<node lat="58.26830555431935" lon="8.36968888925414" id="-37986">
		<tag k="fixme" v="consider natural=peak for the most distinct mountains in the district" />
		<tag k="name" v="Kvernåsen" />
		<tag k="natural" v="hill" />
		<tag k="place" v="locality" />
		<tag k="ssr:stedsnr" v="264839" />
	</node>
	<node lat="58.12993888534154" lon="8.224333329635462" id="-37989">
		<tag k="name" v="Bæråkeren" />
		<tag k="place" v="locality" />
		<tag k="ssr:stedsnr" v="264892" />
	</node>
	<node lat="58.221277780018966" lon="8.277058331624598" id="-37997">
		<tag k="name" v="Jørensdal" />
		<tag k="natural" v="valley" />
		<tag k="place" v="locality" />
		<tag k="ssr:stedsnr" v="507434" />
	</node>
	<node lat="58.23445833164465" lon="8.27976111358611" id="-37998">
		<tag k="name" v="Langhei" />
		<tag k="natural" v="hill" />
		<tag k="place" v="locality" />
		<tag k="ssr:stedsnr" v="507436" />
	</node>
	<node lat="58.290702782075094" lon="8.30386111543117" id="-38012">
		<tag k="alt_name" v="Arneshei" />
		<tag k="fixme" v="consider natural=peak for the most distinct mountains in the district" />
		<tag k="name" v="Arnesheia" />
		<tag k="natural" v="hill" />
		<tag k="place" v="locality" />
		<tag k="ssr:stedsnr" v="304295" />
	</node>
	<node lat="58.236172226631446" lon="8.391447214012846" id="-38021">
		<tag k="name" v="Tostendalen" />
		<tag k="natural" v="valley" />
		<tag k="place" v="locality" />
		<tag k="ssr:stedsnr" v="324735" />
	</node>
	<node lat="58.19735833086952" lon="8.284988891501513" id="-38026">
		<tag k="name" v="Videdalen" />
		<tag k="natural" v="valley" />
		<tag k="place" v="locality" />
		<tag k="ssr:stedsnr" v="325006" />
	</node>
	<node lat="58.174030558645796" lon="8.18858611883656" id="-38030">
		<tag k="name" v="Opsteheiane" />
		<tag k="natural" v="hill" />
		<tag k="place" v="locality" />
		<tag k="ssr:stedsnr" v="325106" />
	</node>
	<node lat="58.17601388993423" lon="8.19222777920607" id="-38031">
		<tag k="name" v="Klovedalen" />
		<tag k="natural" v="valley" />
		<tag k="place" v="locality" />
		<tag k="ssr:stedsnr" v="325107" />
	</node>
	<node lat="58.20706111288646" lon="8.235302777319676" id="-38032">
		<tag k="name" v="Eigedalen" />
		<tag k="natural" v="valley" />
		<tag k="place" v="locality" />
		<tag k="ssr:stedsnr" v="325125" />
	</node>
	<node lat="58.19752777931331" lon="8.206772223615266" id="-38034">
		<tag k="name" v="Lille Kviksdalen" />
		<tag k="natural" v="valley" />
		<tag k="place" v="locality" />
		<tag k="ssr:stedsnr" v="325140" />
	</node>
	<node lat="58.323819446900934" lon="8.36316944904284" id="-38040">
		<tag k="name" v="Tellefshei" />
		<tag k="natural" v="hill" />
		<tag k="place" v="locality" />
		<tag k="ssr:stedsnr" v="325323" />
	</node>
	<node lat="58.30569444397217" lon="8.42541666392257" id="-38043">
		<tag k="fixme" v="consider natural=peak for the most distinct mountains in the district" />
		<tag k="name" v="Kvernåsen" />
		<tag k="natural" v="hill" />
		<tag k="place" v="locality" />
		<tag k="ssr:stedsnr" v="325631" />
	</node>
	<node lat="58.13280555982073" lon="8.205563884370278" id="-38044">
		<tag k="fixme" v="consider natural=peak for the most distinct mountains in the district" />
		<tag k="name" v="Ribehaugen" />
		<tag k="natural" v="hill" />
		<tag k="place" v="locality" />
		<tag k="ssr:stedsnr" v="325906" />
	</node>
	<node lat="58.29202222392659" lon="8.413461108950441" id="-38045">
		<tag k="name" v="Vardeheia" />
		<tag k="natural" v="hill" />
		<tag k="place" v="locality" />
		<tag k="ssr:stedsnr" v="325767" />
	</node>
	<node lat="58.28941388781831" lon="8.31201667395455" id="-38047">
		<tag k="name" v="Svartedalen" />
		<tag k="natural" v="valley" />
		<tag k="place" v="locality" />
		<tag k="ssr:stedsnr" v="325790" />
	</node>
	<node lat="58.29724444182349" lon="8.315641675036776" id="-38048">
		<tag k="fixme" v="consider natural=peak for the most distinct mountains in the district" />
		<tag k="name" v="Svartetjønnåsen" />
		<tag k="natural" v="hill" />
		<tag k="place" v="locality" />
		<tag k="ssr:stedsnr" v="325793" />
	</node>
	<node lat="58.30166944608514" lon="8.442513882237098" id="-38049">
		<tag k="name" v="Storemyrheia" />
		<tag k="natural" v="hill" />
		<tag k="place" v="locality" />
		<tag k="ssr:stedsnr" v="325823" />
	</node>
	<node lat="58.2371000031772" lon="8.295041667868675" id="-38053">
		<tag k="name" v="Kjerkeheia" />
		<tag k="natural" v="hill" />
		<tag k="place" v="locality" />
		<tag k="ssr:stedsnr" v="326476" />
	</node>
	<node lat="58.22455555586544" lon="8.30589166876023" id="-38054">
		<tag k="fixme" v="consider natural=peak for the most distinct mountains in the district" />
		<tag k="name" v="Vardåsen" />
		<tag k="natural" v="hill" />
		<tag k="place" v="locality" />
		<tag k="ssr:stedsnr" v="326478" />
	</node>
	<node lat="58.17701944227197" lon="8.206058339723352" id="-38069">
		<tag k="name" v="Prestehei" />
		<tag k="natural" v="hill" />
		<tag k="place" v="locality" />
		<tag k="ssr:stedsnr" v="385115" />
	</node>
	<node lat="58.18091944155302" lon="8.181341672962033" id="-38070">
		<tag k="name" v="Eigedalen" />
		<tag k="natural" v="valley" />
		<tag k="place" v="locality" />
		<tag k="ssr:stedsnr" v="385120" />
	</node>
	<node lat="58.17650000163124" lon="8.172680553229407" id="-38076">
		<tag k="name" v="Toredalen" />
		<tag k="natural" v="valley" />
		<tag k="place" v="locality" />
		<tag k="ssr:stedsnr" v="385149" />
	</node>
	<node lat="58.197627775338205" lon="8.227552784482388" id="-38078">
		<tag k="name" v="Mumberåsen" />
		<tag k="natural" v="hill" />
		<tag k="place" v="locality" />
		<tag k="ssr:stedsnr" v="385155" />
	</node>
	<node lat="58.31365277921705" lon="8.290652771591134" id="-38079">
		<tag k="fixme" v="consider natural=peak for the most distinct mountains in the district" />
		<tag k="name" v="Skradåsen" />
		<tag k="natural" v="hill" />
		<tag k="place" v="locality" />
		<tag k="ssr:stedsnr" v="385306" />
	</node>
	<node lat="58.251622219233894" lon="8.226891673342276" id="-38083">
		<tag k="name" v="Stavedalen" />
		<tag k="natural" v="valley" />
		<tag k="place" v="locality" />
		<tag k="ssr:stedsnr" v="385319" />
	</node>
	<node lat="58.24684444461843" lon="8.226649995642125" id="-38084">
		<tag k="name" v="Smådalene" />
		<tag k="natural" v="valley" />
		<tag k="place" v="locality" />
		<tag k="ssr:stedsnr" v="385320" />
	</node>
	<node lat="58.16937222009046" lon="8.181224994518981" id="-38091">
		<tag k="name" v="Byksdalen" />
		<tag k="natural" v="valley" />
		<tag k="place" v="locality" />
		<tag k="ssr:stedsnr" v="385254" />
	</node>
	<node lat="58.225088884469045" lon="8.3479472275179" id="-38094">
		<tag k="fixme" v="consider natural=peak for the most distinct mountains in the district" />
		<tag k="name" v="Vestre Sundsåsen" />
		<tag k="natural" v="hill" />
		<tag k="place" v="locality" />
		<tag k="ssr:stedsnr" v="385411" />
	</node>
	<node lat="58.29294722070019" lon="8.411730548182517" id="-38106">
		<tag k="name" v="Vardedalen" />
		<tag k="natural" v="valley" />
		<tag k="place" v="locality" />
		<tag k="ssr:stedsnr" v="385803" />
	</node>
	<node lat="58.28379722420482" lon="8.300108329721692" id="-38109">
		<tag k="name" v="Ragnhildshaug" />
		<tag k="natural" v="hill" />
		<tag k="place" v="locality" />
		<tag k="ssr:stedsnr" v="385824" />
	</node>
	<node lat="58.127905559054504" lon="8.224727783938153" id="-38115">
		<tag k="name" v="Skibbeheia" />
		<tag k="natural" v="hill" />
		<tag k="place" v="locality" />
		<tag k="ssr:stedsnr" v="385898" />
	</node>
	<node lat="58.2993611103022" lon="8.33668610753937" id="-38118">
		<tag k="fixme" v="consider natural=peak for the most distinct mountains in the district" />
		<tag k="name" v="Budalsåsen" />
		<tag k="natural" v="hill" />
		<tag k="place" v="locality" />
		<tag k="ssr:stedsnr" v="386764" />
	</node>
	<node lat="58.30668055266241" lon="8.305230554438662" id="-38120">
		<tag k="fixme" v="consider natural=peak for the most distinct mountains in the district" />
		<tag k="name" v="Elshåmmeren" />
		<tag k="natural" v="hill" />
		<tag k="place" v="locality" />
		<tag k="ssr:stedsnr" v="485227" />
	</node>
	<node lat="58.315319445252975" lon="8.399516664520478" id="-38121">
		<tag k="name" v="Vassdalen" />
		<tag k="natural" v="valley" />
		<tag k="place" v="locality" />
		<tag k="ssr:stedsnr" v="485229" />
	</node>
	<node lat="58.222738890974334" lon="8.216536115719778" id="-38129">
		<tag k="alt_name" v="Store Ulsheia" />
		<tag k="fixme" v="consider natural=peak for the most distinct mountains in the district" />
		<tag k="name" v="Ulsheia" />
		<tag k="natural" v="hill" />
		<tag k="place" v="locality" />
		<tag k="ssr:stedsnr" v="485401" />
	</node>
	<node lat="58.27810555219442" lon="8.34561944408091" id="-38135">
		<tag k="fixme" v="consider natural=peak for the most distinct mountains in the district" />
		<tag k="name" v="Breidehei" />
		<tag k="natural" v="hill" />
		<tag k="place" v="locality" />
		<tag k="ssr:stedsnr" v="485685" />
	</node>
	<node lat="58.214427775592476" lon="8.324122225315516" id="-38154">
		<tag k="name" v="Kilehei" />
		<tag k="natural" v="hill" />
		<tag k="place" v="locality" />
		<tag k="ssr:stedsnr" v="446030" />
	</node>
	<node lat="58.20416944013932" lon="8.209583340484837" id="-38160">
		<tag k="name" v="Vidalsheia" />
		<tag k="natural" v="hill" />
		<tag k="place" v="locality" />
		<tag k="ssr:stedsnr" v="446174" />
	</node>
	<node lat="58.20263333588895" lon="8.203266658245235" id="-38161">
		<tag k="name" v="Tverrdalen" />
		<tag k="natural" v="valley" />
		<tag k="place" v="locality" />
		<tag k="ssr:stedsnr" v="446177" />
	</node>
	<node lat="58.31175833428196" lon="8.31868889720776" id="-38162">
		<tag k="name" v="Steinkleiv" />
		<tag k="natural" v="slope" />
		<tag k="place" v="locality" />
		<tag k="ssr:stedsnr" v="446324" />
	</node>
	<node lat="58.313633331882215" lon="8.309091660032058" id="-38163">
		<tag k="name" v="Styggeli" />
		<tag k="natural" v="slope" />
		<tag k="place" v="locality" />
		<tag k="ssr:stedsnr" v="446327" />
	</node>
	<node lat="58.20832222261907" lon="8.375847228231251" id="-38167">
		<tag k="name" v="Mebøveden" />
		<tag k="natural" v="hill" />
		<tag k="place" v="locality" />
		<tag k="ssr:stedsnr" v="446304" />
	</node>
	<node lat="58.243591668053085" lon="8.2198777718977" id="-38169">
		<tag k="name" v="Bugdedalen" />
		<tag k="natural" v="valley" />
		<tag k="place" v="locality" />
		<tag k="ssr:stedsnr" v="446379" />
	</node>
	<node lat="58.17667777730458" lon="8.230747230097325" id="-38174">
		<tag k="name" v="Gruetoppen" />
		<tag k="natural" v="hill" />
		<tag k="place" v="locality" />
		<tag k="ssr:stedsnr" v="446533" />
	</node>
	<node lat="58.2232444472764" lon="8.342586116374074" id="-38179">
		<tag k="fixme" v="consider natural=peak for the most distinct mountains in the district" />
		<tag k="name" v="Ormåsen" />
		<tag k="natural" v="hill" />
		<tag k="place" v="locality" />
		<tag k="ssr:stedsnr" v="446637" />
	</node>
	<node lat="58.252125001466155" lon="8.339163884972116" id="-38189">
		<tag k="name" v="Brudestolen" />
		<tag k="natural" v="hill" />
		<tag k="place" v="locality" />
		<tag k="ssr:stedsnr" v="446917" />
	</node>
	<node lat="58.110758335649116" lon="8.21208610548219" id="-38194">
		<tag k="name" v="Tre varder" />
		<tag k="place" v="locality" />
		<tag k="ssr:stedsnr" v="447421" />
	</node>
	<node lat="58.25633333043937" lon="8.211508328599084" id="-38204">
		<tag k="alt_name" v="Gjeitåsen" />
		<tag k="fixme" v="consider natural=peak for the most distinct mountains in the district" />
		<tag k="name" v="Geitåsen" />
		<tag k="natural" v="hill" />
		<tag k="place" v="locality" />
		<tag k="ssr:stedsnr" v="484622" />
	</node>
	<node lat="58.265991669129036" lon="8.311872227921672" id="-38215">
		<tag k="alt_name" v="Bastaudalen" />
		<tag k="name" v="Badstudalen" />
		<tag k="natural" v="valley" />
		<tag k="place" v="locality" />
		<tag k="ssr:stedsnr" v="485660" />
	</node>
	<node lat="58.26913055537774" lon="8.41866111086288" id="-38216">
		<tag k="fixme" v="consider natural=peak for the most distinct mountains in the district" />
		<tag k="name" v="Dyvigodden" />
		<tag k="natural" v="hill" />
		<tag k="place" v="locality" />
		<tag k="ssr:stedsnr" v="749885" />
	</node>
	<node lat="58.19169444249701" lon="8.21683888929105" id="-38232">
		<tag k="name" v="Store Røymyrhei" />
		<tag k="natural" v="hill" />
		<tag k="place" v="locality" />
		<tag k="ssr:stedsnr" v="507056" />
	</node>
	<node lat="58.17357222025084" lon="8.239552775902947" id="-38234">
		<tag k="name" v="Hønslebakken" />
		<tag k="natural" v="slope" />
		<tag k="place" v="locality" />
		<tag k="ssr:stedsnr" v="507061" />
	</node>
	<node lat="58.16484444070477" lon="8.186902775985121" id="-38240">
		<tag k="name" v="Skiftedalen" />
		<tag k="natural" v="valley" />
		<tag k="place" v="locality" />
		<tag k="ssr:stedsnr" v="507212" />
	</node>
	<node lat="58.15999722478301" lon="8.17550000229395" id="-38241">
		<tag k="name" v="Stofferheiane" />
		<tag k="natural" v="hill" />
		<tag k="place" v="locality" />
		<tag k="ssr:stedsnr" v="507218" />
	</node>
	<node lat="58.168616668687314" lon="8.167911104632728" id="-38242">
		<tag k="name" v="Skoddmyrhei" />
		<tag k="natural" v="hill" />
		<tag k="place" v="locality" />
		<tag k="ssr:stedsnr" v="507227" />
	</node>
	<node lat="58.20858610945273" lon="8.242450002685073" id="-38243">
		<tag k="name" v="Stongheia" />
		<tag k="natural" v="hill" />
		<tag k="place" v="locality" />
		<tag k="ssr:stedsnr" v="507102" />
	</node>
	<node lat="58.20443888464926" lon="8.223455557566552" id="-38244">
		<tag k="fixme" v="consider natural=peak for the most distinct mountains in the district" />
		<tag k="name" v="Snikkeråsen" />
		<tag k="natural" v="hill" />
		<tag k="place" v="locality" />
		<tag k="ssr:stedsnr" v="507113" />
	</node>
	<node lat="58.32072500234698" lon="8.291805550224083" id="-38252">
		<tag k="fixme" v="consider natural=peak for the most distinct mountains in the district" />
		<tag k="name" v="Midtheia" />
		<tag k="natural" v="hill" />
		<tag k="place" v="locality" />
		<tag k="ssr:stedsnr" v="507268" />
	</node>
	<node lat="58.27246111035049" lon="8.278127771432798" id="-38253">
		<tag k="fixme" v="consider natural=peak for the most distinct mountains in the district" />
		<tag k="name" v="Nordbøknuten" />
		<tag k="natural" v="hill" />
		<tag k="place" v="locality" />
		<tag k="ssr:stedsnr" v="507402" />
	</node>
	<node lat="58.24283611335235" lon="8.288897217577361" id="-38255">
		<tag k="fixme" v="consider natural=peak for the most distinct mountains in the district" />
		<tag k="name" v="Duråsen" />
		<tag k="natural" v="hill" />
		<tag k="place" v="locality" />
		<tag k="ssr:stedsnr" v="507419" />
	</node>
	<node lat="58.262186108037696" lon="8.422319439011167" id="-38258">
		<tag k="fixme" v="consider natural=peak for the most distinct mountains in the district" />
		<tag k="name" v="Fløyheia" />
		<tag k="natural" v="hill" />
		<tag k="place" v="locality" />
		<tag k="ssr:stedsnr" v="507761" />
	</node>
	<node lat="58.298650000621016" lon="8.349188890457443" id="-38259">
		<tag k="name" v="Skoddheia" />
		<tag k="natural" v="hill" />
		<tag k="place" v="locality" />
		<tag k="ssr:stedsnr" v="507774" />
	</node>
	<node lat="58.24024722060239" lon="8.340574996639573" id="-38263">
		<tag k="fixme" v="consider natural=peak for the most distinct mountains in the district" />
		<tag k="name" v="Skolehusheia" />
		<tag k="natural" v="hill" />
		<tag k="place" v="locality" />
		<tag k="ssr:stedsnr" v="507924" />
	</node>
	<node lat="58.16113055163711" lon="8.266830550075921" id="-38292">
		<tag k="fixme" v="consider natural=peak for the most distinct mountains in the district" />
		<tag k="name" v="Bjørnåsen" />
		<tag k="natural" v="hill" />
		<tag k="place" v="locality" />
		<tag k="ssr:stedsnr" v="688369" />
	</node>
	<node lat="58.22117777848681" lon="8.271472218132573" id="-38308">
		<tag k="name" v="Kleivane" />
		<tag k="natural" v="slope" />
		<tag k="place" v="locality" />
		<tag k="ssr:stedsnr" v="689047" />
	</node>
	<node lat="58.18002222262789" lon="8.19360000076007" id="-38312">
		<tag k="name" v="Barlinddalen" />
		<tag k="natural" v="valley" />
		<tag k="place" v="locality" />
		<tag k="ssr:stedsnr" v="689115" />
	</node>
	<node lat="58.21879444565424" lon="8.226877770245627" id="-38313">
		<tag k="fixme" v="consider natural=peak for the most distinct mountains in the district" />
		<tag k="name" v="Stranderåsen" />
		<tag k="natural" v="hill" />
		<tag k="place" v="locality" />
		<tag k="ssr:stedsnr" v="689063" />
	</node>
	<node lat="58.22083611359892" lon="8.223800006316974" id="-38314">
		<tag k="name" v="Bordalen" />
		<tag k="natural" v="valley" />
		<tag k="place" v="locality" />
		<tag k="ssr:stedsnr" v="689067" />
	</node>
	<node lat="58.20979999847945" lon="8.200611104612138" id="-38315">
		<tag k="fixme" v="consider natural=peak for the most distinct mountains in the district" />
		<tag k="name" v="Finnheiknuten" />
		<tag k="natural" v="hill" />
		<tag k="place" v="locality" />
		<tag k="ssr:stedsnr" v="689149" />
	</node>
	<node lat="58.20417777482944" lon="8.247808334835499" id="-38316">
		<tag k="name" v="Lille Badstufjell" />
		<tag k="natural" v="hill" />
		<tag k="place" v="locality" />
		<tag k="ssr:stedsnr" v="689122" />
	</node>
	<node lat="58.200336114256594" lon="8.194008327022145" id="-38318">
		<tag k="name" v="Kviksdalen" />
		<tag k="natural" v="valley" />
		<tag k="place" v="locality" />
		<tag k="ssr:stedsnr" v="689157" />
	</node>
	<node lat="58.19814999946131" lon="8.197719451212604" id="-38319">
		<tag k="name" v="Lille Barlinddalen" />
		<tag k="natural" v="valley" />
		<tag k="place" v="locality" />
		<tag k="ssr:stedsnr" v="689159" />
	</node>
	<node lat="58.164058335504215" lon="8.184125006835803" id="-38323">
		<tag k="name" v="Trondskleiv" />
		<tag k="natural" v="slope" />
		<tag k="place" v="locality" />
		<tag k="ssr:stedsnr" v="689240" />
	</node>
	<node lat="58.15483610994009" lon="8.174625007920817" id="-38325">
		<tag k="name" v="Skibberfjell" />
		<tag k="natural" v="hill" />
		<tag k="place" v="locality" />
		<tag k="ssr:stedsnr" v="689247" />
	</node>
	<node lat="58.31117222370791" lon="8.356997217580695" id="-38331">
		<tag k="name" v="Lillevassnesheia" />
		<tag k="natural" v="hill" />
		<tag k="place" v="locality" />
		<tag k="ssr:stedsnr" v="689273" />
	</node>
	<node lat="58.237213889487954" lon="8.362125003463342" id="-38332">
		<tag k="name" v="Ørnefjell" />
		<tag k="natural" v="hill" />
		<tag k="place" v="locality" />
		<tag k="ssr:stedsnr" v="689421" />
	</node>
	<node lat="58.250725001246465" lon="8.224222214548204" id="-38333">
		<tag k="name" v="Kornbrekkdalen" />
		<tag k="natural" v="valley" />
		<tag k="place" v="locality" />
		<tag k="ssr:stedsnr" v="689351" />
	</node>
	<node lat="58.254263884934254" lon="8.275641668550167" id="-38335">
		<tag k="name" v="Sølvbergdalen" />
		<tag k="natural" v="valley" />
		<tag k="place" v="locality" />
		<tag k="ssr:stedsnr" v="689355" />
	</node>
	<node lat="58.19424166611248" lon="8.350616663054456" id="-38337">
		<tag k="name" v="Skibsheia" />
		<tag k="natural" v="hill" />
		<tag k="place" v="locality" />
		<tag k="ssr:stedsnr" v="689457" />
	</node>
	<node lat="58.28476944562491" lon="8.407316669415223" id="-38342">
		<tag k="fixme" v="consider natural=peak for the most distinct mountains in the district" />
		<tag k="name" v="Kaldvellkniben" />
		<tag k="natural" v="hill" />
		<tag k="place" v="locality" />
		<tag k="ssr:stedsnr" v="689758" />
	</node>
	<node lat="58.29528055952936" lon="8.426124999651154" id="-38343">
		<tag k="name" v="Haugene" />
		<tag k="natural" v="hill" />
		<tag k="place" v="locality" />
		<tag k="ssr:stedsnr" v="689763" />
	</node>
	<node lat="58.228769442602015" lon="8.2810694513235" id="-38348">
		<tag k="name" v="Trolldalen" />
		<tag k="natural" v="valley" />
		<tag k="place" v="locality" />
		<tag k="ssr:stedsnr" v="690504" />
	</node>
	<node lat="58.2925555595916" lon="8.348811103399164" id="-38349">
		<tag k="name" v="Midtheia" />
		<tag k="natural" v="hill" />
		<tag k="place" v="locality" />
		<tag k="ssr:stedsnr" v="690781" />
	</node>
	<node lat="58.13609999925385" lon="8.228024996298727" id="-38360">
		<tag k="name" v="Abelsdal" />
		<tag k="natural" v="valley" />
		<tag k="place" v="locality" />
		<tag k="ssr:stedsnr" v="567182" />
	</node>
	<node lat="58.14825277645291" lon="8.236552782739848" id="-38361">
		<tag k="name" v="Daleheia" />
		<tag k="natural" v="hill" />
		<tag k="place" v="locality" />
		<tag k="ssr:stedsnr" v="567183" />
	</node>
	<node lat="58.19074166564531" lon="8.214547225248216" id="-38362">
		<tag k="name" v="Lille Røymyrhei" />
		<tag k="natural" v="hill" />
		<tag k="place" v="locality" />
		<tag k="ssr:stedsnr" v="567058" />
	</node>
	<node lat="58.17123610789379" lon="8.182555561147876" id="-38366">
		<tag k="name" v="Sekkeheiane" />
		<tag k="natural" v="hill" />
		<tag k="place" v="locality" />
		<tag k="ssr:stedsnr" v="567229" />
	</node>
	<node lat="58.30991388753283" lon="8.348272229269002" id="-38367">
		<tag k="name" v="Lyttafjell" />
		<tag k="natural" v="hill" />
		<tag k="place" v="locality" />
		<tag k="ssr:stedsnr" v="567260" />
	</node>
	<node lat="58.32074999854152" lon="8.390488886372077" id="-38368">
		<tag k="name" v="Gullholmskoddet" />
		<tag k="natural" v="cliff" />
		<tag k="ssr:stedsnr" v="567266" />
	</node>
	<node lat="58.27318333517667" lon="8.298283329880396" id="-38377">
		<tag k="name" v="Glastadheia" />
		<tag k="natural" v="hill" />
		<tag k="place" v="locality" />
		<tag k="ssr:stedsnr" v="567367" />
	</node>
	<node lat="58.23770833626296" lon="8.366669450395865" id="-38387">
		<tag k="name" v="Tones fjell" />
		<tag k="place" v="locality" />
		<tag k="ssr:stedsnr" v="567606" />
	</node>
	<node lat="58.285288890631676" lon="8.279702778527723" id="-38394">
		<tag k="name" v="Røygskorra" />
		<tag k="natural" v="valley" />
		<tag k="place" v="locality" />
		<tag k="ssr:stedsnr" v="567817" />
	</node>
	<node lat="58.19747778132105" lon="8.325322215287384" id="-38396">
		<tag k="fixme" v="consider natural=peak for the most distinct mountains in the district" />
		<tag k="name" v="Jenses hei" />
		<tag k="natural" v="hill" />
		<tag k="place" v="locality" />
		<tag k="ssr:stedsnr" v="567709" />
	</node>
	<node lat="58.25498333088376" lon="8.350302785425395" id="-38401">
		<tag k="name" v="Hestedalen" />
		<tag k="natural" v="valley" />
		<tag k="place" v="locality" />
		<tag k="ssr:stedsnr" v="567920" />
	</node>
	<node lat="58.147927777464396" lon="8.21835555008605" id="-38402">
		<tag k="name" v="Husefjell" />
		<tag k="natural" v="hill" />
		<tag k="place" v="locality" />
		<tag k="ssr:stedsnr" v="567928" />
	</node>
	<node lat="58.22756389283722" lon="8.326347227438731" id="-38404">
		<tag k="name" v="Sauetjønndalen" />
		<tag k="natural" v="valley" />
		<tag k="place" v="locality" />
		<tag k="ssr:stedsnr" v="568413" />
	</node>
	<node lat="58.296277776099565" lon="8.35930832833214" id="-38405">
		<tag k="name" v="Urdalen" />
		<tag k="natural" v="valley" />
		<tag k="place" v="locality" />
		<tag k="ssr:stedsnr" v="568756" />
	</node>
	<node lat="58.232199999627454" lon="8.215680555451412" id="-38414">
		<tag k="fixme" v="consider natural=peak for the most distinct mountains in the district" />
		<tag k="name" v="Stemåsen" />
		<tag k="natural" v="hill" />
		<tag k="place" v="locality" />
		<tag k="ssr:stedsnr" v="606250" />
	</node>
	<node lat="58.197227774912946" lon="8.281100003919653" id="-38416">
		<tag k="fixme" v="consider natural=peak for the most distinct mountains in the district" />
		<tag k="name" v="Videheia" />
		<tag k="natural" v="hill" />
		<tag k="place" v="locality" />
		<tag k="ssr:stedsnr" v="606369" />
	</node>
	<node lat="58.17913055678531" lon="8.297258325746947" id="-38442">
		<tag k="name" v="Beindalen" />
		<tag k="natural" v="valley" />
		<tag k="place" v="locality" />
		<tag k="ssr:stedsnr" v="627555" />
	</node>
	<node lat="58.18311388724416" lon="8.293816671817785" id="-38447">
		<tag k="name" v="Odderdalen" />
		<tag k="natural" v="valley" />
		<tag k="place" v="locality" />
		<tag k="ssr:stedsnr" v="627705" />
	</node>
	<node lat="58.204127780479304" lon="8.373669448800396" id="-38455">
		<tag k="name" v="Honnsvigheia" />
		<tag k="natural" v="hill" />
		<tag k="place" v="locality" />
		<tag k="ssr:stedsnr" v="627856" />
	</node>
	<node lat="58.205047221410155" lon="8.233574993633674" id="-38458">
		<tag k="name" v="Fanturheia" />
		<tag k="natural" v="hill" />
		<tag k="place" v="locality" />
		<tag k="ssr:stedsnr" v="628108" />
	</node>
	<node lat="58.20219444049693" lon="8.208716673825709" id="-38460">
		<tag k="name" v="Løeheia" />
		<tag k="natural" v="hill" />
		<tag k="place" v="locality" />
		<tag k="ssr:stedsnr" v="628122" />
	</node>
	<node lat="58.198602780301435" lon="8.243775007280925" id="-38461">
		<tag k="name" v="Heia" />
		<tag k="natural" v="hill" />
		<tag k="place" v="locality" />
		<tag k="ssr:stedsnr" v="628094" />
	</node>
	<node lat="58.20937499674759" lon="8.264872222958502" id="-38462">
		<tag k="name" v="Audalen" />
		<tag k="natural" v="valley" />
		<tag k="place" v="locality" />
		<tag k="ssr:stedsnr" v="628099" />
	</node>
	<node lat="58.306663888338235" lon="8.383094436491707" id="-38463">
		<tag k="name" v="Vasshaug" />
		<tag k="natural" v="hill" />
		<tag k="place" v="locality" />
		<tag k="ssr:stedsnr" v="628254" />
	</node>
	<node lat="58.31703888577387" lon="8.298511114480261" id="-38464">
		<tag k="name" v="Kloppedalen" />
		<tag k="natural" v="valley" />
		<tag k="place" v="locality" />
		<tag k="ssr:stedsnr" v="628294" />
	</node>
	<node lat="58.32028611328989" lon="8.371024994836041" id="-38465">
		<tag k="name" v="Hasseldalen" />
		<tag k="natural" v="valley" />
		<tag k="place" v="locality" />
		<tag k="ssr:stedsnr" v="628301" />
	</node>
	<node lat="58.26205000079115" lon="8.277191664656277" id="-38466">
		<tag k="name" v="Budalen" />
		<tag k="natural" v="valley" />
		<tag k="place" v="locality" />
		<tag k="ssr:stedsnr" v="628418" />
	</node>
	<node lat="58.22229166562471" lon="8.360027777435175" id="-38467">
		<tag k="fixme" v="consider natural=peak for the most distinct mountains in the district" />
		<tag k="name" v="Østre Sundsåsen" />
		<tag k="natural" v="hill" />
		<tag k="place" v="locality" />
		<tag k="ssr:stedsnr" v="628419" />
	</node>
	<node lat="58.25201110921508" lon="8.260224992743735" id="-38475">
		<tag k="name" v="Orkedalen" />
		<tag k="natural" v="valley" />
		<tag k="place" v="locality" />
		<tag k="ssr:stedsnr" v="628356" />
	</node>
	<node lat="58.25550555472076" lon="8.263080559660422" id="-38476">
		<tag k="fixme" v="consider natural=peak for the most distinct mountains in the district" />
		<tag k="name" v="Ospåsen" />
		<tag k="natural" v="hill" />
		<tag k="place" v="locality" />
		<tag k="ssr:stedsnr" v="628358" />
	</node>
	<node lat="58.25301388634341" lon="8.246525008099576" id="-38477">
		<tag k="name" v="Byttingsåsen" />
		<tag k="natural" v="hill" />
		<tag k="place" v="locality" />
		<tag k="ssr:stedsnr" v="628361" />
	</node>
	<node lat="58.3227583315335" lon="8.389099992576861" id="-38478">
		<tag k="name" v="Gullholmen" />
		<tag k="natural" v="hill" />
		<tag k="place" v="locality" />
		<tag k="ssr:stedsnr" v="628644" />
	</node>
	<node lat="58.26201666490435" lon="8.372930550554948" id="-38480">
		<tag k="name" v="Nissehaug" />
		<tag k="natural" v="hill" />
		<tag k="place" v="locality" />
		<tag k="ssr:stedsnr" v="628814" />
	</node>
	<node lat="58.22281388545596" lon="8.334030554330385" id="-38490">
		<tag k="name" v="Midtbakken" />
		<tag k="natural" v="slope" />
		<tag k="place" v="locality" />
		<tag k="ssr:stedsnr" v="629422" />
	</node>
	<node lat="58.230633333817316" lon="8.294269441273158" id="-38491">
		<tag k="name" v="Stemhei" />
		<tag k="natural" v="hill" />
		<tag k="place" v="locality" />
		<tag k="ssr:stedsnr" v="629456" />
	</node>
	<node lat="58.28351388545853" lon="8.333288889186473" id="-38493">
		<tag k="name" v="Småheiene" />
		<tag k="natural" v="hill" />
		<tag k="place" v="locality" />
		<tag k="ssr:stedsnr" v="629755" />
	</node>
	<node lat="58.28481388975533" lon="8.344802775198296" id="-38494">
		<tag k="name" v="Breiehei" />
		<tag k="natural" v="hill" />
		<tag k="place" v="locality" />
		<tag k="ssr:stedsnr" v="629758" />
	</node>
	<node lat="58.22776666463844" lon="8.283894449924034" id="-38501">
		<tag k="alt_name" v="Bratthei" />
		<tag k="fixme" v="consider natural=peak for the most distinct mountains in the district" />
		<tag k="name" v="Brattheia" />
		<tag k="natural" v="hill" />
		<tag k="place" v="locality" />
		<tag k="ssr:stedsnr" v="667299" />
	</node>
	<node lat="58.24809999627828" lon="8.302280555313894" id="-38505">
		<tag k="alt_name" v="Lille Røynehei" />
		<tag k="fixme" v="consider natural=peak for the most distinct mountains in the district" />
		<tag k="name" v="Kjellinglandheia" />
		<tag k="natural" v="hill" />
		<tag k="place" v="locality" />
		<tag k="ssr:stedsnr" v="667337" />
	</node>
	<node lat="58.198205553581005" lon="8.337338880895839" id="-38511">
		<tag k="name" v="Øvre Buvollen" />
		<tag k="place" v="locality" />
		<tag k="ssr:stedsnr" v="688288" />
	</node>
	<node lat="58.18353611192901" lon="8.314672217121007" id="-38514">
		<tag k="name" v="Skipsheia" />
		<tag k="natural" v="hill" />
		<tag k="place" v="locality" />
		<tag k="ssr:stedsnr" v="688550" />
	</node>
	<node lat="58.192155554605336" lon="8.309347218192325" id="-38515">
		<tag k="name" v="Helle" />
		<tag k="place" v="locality" />
		<tag k="ssr:stedsnr" v="688559" />
	</node>
	<node lat="58.2179666662025" lon="8.340999992204509" id="-38519">
		<tag k="name" v="Svanshelleren" />
		<tag k="place" v="locality" />
		<tag k="ssr:stedsnr" v="688658" />
	</node>
	<node lat="58.20694999955291" lon="8.278097227709418" id="-38528">
		<tag k="name" v="Moltemyrdalen" />
		<tag k="natural" v="valley" />
		<tag k="place" v="locality" />
		<tag k="ssr:stedsnr" v="689032" />
	</node>
	<node lat="58.22673333711573" lon="8.257958339330024" id="-38529">
		<tag k="name" v="Osebakken" />
		<tag k="natural" v="slope" />
		<tag k="place" v="locality" />
		<tag k="ssr:stedsnr" v="689035" />
	</node>
	<node lat="58.19028055882395" lon="8.209158340474099" id="-38531">
		<tag k="name" v="Torenbakken" />
		<tag k="natural" v="slope" />
		<tag k="place" v="locality" />
		<tag k="ssr:stedsnr" v="689095" />
	</node>
	<node lat="58.181797218192045" lon="8.180825004439546" id="-38535">
		<tag k="name" v="Eigedalsheia" />
		<tag k="natural" v="hill" />
		<tag k="place" v="locality" />
		<tag k="ssr:stedsnr" v="689105" />
	</node>
	<node lat="58.194583329429804" lon="8.24452222389088" id="-38536">
		<tag k="name" v="Årdalsheia" />
		<tag k="natural" v="hill" />
		<tag k="place" v="locality" />
		<tag k="ssr:stedsnr" v="689133" />
	</node>
	<node lat="58.13448055175957" lon="8.247966671338586" id="-38538">
		<tag k="name" v="Kjellerdalen" />
		<tag k="natural" v="valley" />
		<tag k="place" v="locality" />
		<tag k="ssr:stedsnr" v="689193" />
	</node>
	<node lat="58.14493888526505" lon="8.234869451711784" id="-38539">
		<tag k="fixme" v="consider natural=peak for the most distinct mountains in the district" />
		<tag k="name" v="Kariåsen" />
		<tag k="natural" v="hill" />
		<tag k="place" v="locality" />
		<tag k="ssr:stedsnr" v="689198" />
	</node>
	<node lat="58.31288333173096" lon="8.412038894235256" id="-38546">
		<tag k="name" v="Askedalen" />
		<tag k="natural" v="valley" />
		<tag k="place" v="locality" />
		<tag k="ssr:stedsnr" v="689291" />
	</node>
	<node lat="58.32125277627951" lon="8.292605556793346" id="-38549">
		<tag k="name" v="Smådalene" />
		<tag k="natural" v="valley" />
		<tag k="place" v="locality" />
		<tag k="ssr:stedsnr" v="689295" />
	</node>
	<node lat="58.30523610676593" lon="8.437050007877808" id="-38554">
		<tag k="name" v="Rånneheia" />
		<tag k="natural" v="hill" />
		<tag k="place" v="locality" />
		<tag k="ssr:stedsnr" v="689606" />
	</node>
	<node lat="58.27654722099368" lon="8.403077780563057" id="-38558">
		<tag k="fixme" v="consider natural=peak for the most distinct mountains in the district" />
		<tag k="name" v="Savåsen" />
		<tag k="natural" v="hill" />
		<tag k="place" v="locality" />
		<tag k="ssr:stedsnr" v="689836" />
	</node>
	<node lat="58.21775555511616" lon="8.29376667493343" id="-38568">
		<tag k="name" v="Sandvigdalen" />
		<tag k="natural" v="valley" />
		<tag k="place" v="locality" />
		<tag k="ssr:stedsnr" v="690491" />
	</node>
	<node lat="58.22950555678525" lon="8.302977772523318" id="-38569">
		<tag k="fixme" v="consider natural=peak for the most distinct mountains in the district" />
		<tag k="name" v="Lauvåsen" />
		<tag k="natural" v="hill" />
		<tag k="place" v="locality" />
		<tag k="ssr:stedsnr" v="690496" />
	</node>
	<node lat="58.21145000102123" lon="8.322119441628661" id="-38593">
		<tag k="name" v="Irshei" />
		<tag k="natural" v="hill" />
		<tag k="place" v="locality" />
		<tag k="ssr:stedsnr" v="749010" />
	</node>
	<node lat="58.1868750026054" lon="8.2443527759993" id="-38594">
		<tag k="name" v="Ramsdalen" />
		<tag k="natural" v="valley" />
		<tag k="place" v="locality" />
		<tag k="ssr:stedsnr" v="749072" />
	</node>
	<node lat="58.17323333535047" lon="8.202119438713368" id="-38595">
		<tag k="name" v="Grendalsheia" />
		<tag k="natural" v="hill" />
		<tag k="place" v="locality" />
		<tag k="ssr:stedsnr" v="749076" />
	</node>
	<node lat="58.17162500199838" lon="8.214044436392944" id="-38598">
		<tag k="fixme" v="consider natural=peak for the most distinct mountains in the district" />
		<tag k="name" v="Tereåsen" />
		<tag k="natural" v="hill" />
		<tag k="place" v="locality" />
		<tag k="ssr:stedsnr" v="749220" />
	</node>
	<node lat="58.1678583317903" lon="8.203513893385704" id="-38599">
		<tag k="name" v="Langebakken" />
		<tag k="natural" v="slope" />
		<tag k="place" v="locality" />
		<tag k="ssr:stedsnr" v="749224" />
	</node>
	<node lat="58.13795277698913" lon="8.234500005831789" id="-38605">
		<tag k="name" v="Hustruheia" />
		<tag k="natural" v="hill" />
		<tag k="place" v="locality" />
		<tag k="ssr:stedsnr" v="749180" />
	</node>
	<node lat="58.243519447363376" lon="8.30113055698095" id="-38608">
		<tag k="fixme" v="consider natural=peak for the most distinct mountains in the district" />
		<tag k="name" v="Bjellandsåsen" />
		<tag k="natural" v="hill" />
		<tag k="place" v="locality" />
		<tag k="ssr:stedsnr" v="749468" />
	</node>
	<node lat="58.25922500216176" lon="8.277761107948399" id="-38609">
		<tag k="name" v="Gamlebuhei" />
		<tag k="natural" v="hill" />
		<tag k="place" v="locality" />
		<tag k="ssr:stedsnr" v="749478" />
	</node>
	<node lat="58.29687500381642" lon="8.386855560384621" id="-38626">
		<tag k="name" v="Askedalen" />
		<tag k="natural" v="valley" />
		<tag k="place" v="locality" />
		<tag k="ssr:stedsnr" v="749803" />
	</node>
	<node lat="58.20517777364883" lon="8.370641667013986" id="-38630">
		<tag k="name" v="Skipperheia" />
		<tag k="natural" v="hill" />
		<tag k="place" v="locality" />
		<tag k="ssr:stedsnr" v="749859" />
	</node>
	<node lat="58.249311110398565" lon="8.401311108577676" id="-38632">
		<tag k="name" v="Mien" />
		<tag k="natural" v="slope" />
		<tag k="place" v="locality" />
		<tag k="ssr:stedsnr" v="749865" />
	</node>
	<node lat="58.294802774974784" lon="8.439749992029608" id="-38633">
		<tag k="name" v="Skibbuvollheia" />
		<tag k="natural" v="hill" />
		<tag k="place" v="locality" />
		<tag k="ssr:stedsnr" v="749872" />
	</node>
	<node lat="58.27570000406927" lon="8.398869452593622" id="-38635">
		<tag k="name" v="Planen" />
		<tag k="natural" v="ridge" />
		<tag k="place" v="locality" />
		<tag k="ssr:stedsnr" v="749884" />
	</node>
	<node lat="58.129019446622024" lon="8.230272227173796" id="-38636">
		<tag k="name" v="Larsvoll" />
		<tag k="place" v="locality" />
		<tag k="ssr:stedsnr" v="749910" />
	</node>
	<node lat="58.24734166924982" lon="8.348666670164484" id="-38640">
		<tag k="fixme" v="consider natural=peak for the most distinct mountains in the district" />
		<tag k="name" v="Hesten" />
		<tag k="natural" v="hill" />
		<tag k="place" v="locality" />
		<tag k="ssr:stedsnr" v="749925" />
	</node>
	<node lat="58.318016663463325" lon="8.343480557032148" id="-38642">
		<tag k="name" v="Kjempehaugen" />
		<tag k="natural" v="hill" />
		<tag k="place" v="locality" />
		<tag k="ssr:stedsnr" v="750215" />
	</node>
	<node lat="58.30895833759117" lon="8.30815555796551" id="-38646">
		<tag k="fixme" v="consider natural=peak for the most distinct mountains in the district" />
		<tag k="name" v="Langemyråsen" />
		<tag k="natural" v="hill" />
		<tag k="place" v="locality" />
		<tag k="ssr:stedsnr" v="750258" />
	</node>
	<node lat="58.19431944133818" lon="8.19818334105544" id="-38654">
		<tag k="fixme" v="consider natural=peak for the most distinct mountains in the district" />
		<tag k="name" v="Storehei" />
		<tag k="natural" v="hill" />
		<tag k="place" v="locality" />
		<tag k="ssr:stedsnr" v="910373" />
	</node>
	<node lat="58.22237499892625" lon="8.36067499324657" id="-38659">
		<tag k="fixme" v="consider natural=peak for the most distinct mountains in the district" />
		<tag k="name" v="Sundåsen" />
		<tag k="natural" v="hill" />
		<tag k="place" v="locality" />
		<tag k="ssr:stedsnr" v="910445" />
	</node>
	<node lat="58.2702861119247" lon="8.27511943949119" id="-38665">
		<tag k="fixme" v="consider natural=peak for the most distinct mountains in the district" />
		<tag k="name" v="Nordbøknuten" />
		<tag k="natural" v="hill" />
		<tag k="place" v="locality" />
		<tag k="ssr:stedsnr" v="910719" />
	</node>
	<node lat="58.28822777997955" lon="8.35710277738906" id="-38667">
		<tag k="alt_name" v="Ørnefjell" />
		<tag k="fixme" v="consider natural=peak for the most distinct mountains in the district" />
		<tag k="name" v="Ørnehei" />
		<tag k="natural" v="hill" />
		<tag k="place" v="locality" />
		<tag k="ssr:stedsnr" v="910736" />
	</node>
	<node lat="58.18049722341815" lon="8.168016666271244" id="-38670">
		<tag k="fixme" v="consider natural=peak for the most distinct mountains in the district" />
		<tag k="name" v="Toreheia" />
		<tag k="natural" v="hill" />
		<tag k="place" v="locality" />
		<tag k="ssr:stedsnr" v="788422" />
	</node>
	<node lat="58.27088889266809" lon="8.317077782920451" id="-38673">
		<tag k="alt_name" v="Eigelandsåsen" />
		<tag k="fixme" v="consider natural=peak for the most distinct mountains in the district" />
		<tag k="name" v="Eikelandsåsen" />
		<tag k="natural" v="hill" />
		<tag k="place" v="locality" />
		<tag k="ssr:stedsnr" v="788721" />
	</node>
	<node lat="58.18951944624477" lon="8.194261117487699" id="-38689">
		<tag k="name" v="Smidalshei" />
		<tag k="natural" v="hill" />
		<tag k="place" v="locality" />
		<tag k="ssr:stedsnr" v="810106" />
	</node>
	<node lat="58.308769447551185" lon="8.326900007566927" id="-38692">
		<tag k="fixme" v="consider natural=peak for the most distinct mountains in the district" />
		<tag k="name" v="Ravnefjella" />
		<tag k="natural" v="hill" />
		<tag k="place" v="locality" />
		<tag k="ssr:stedsnr" v="810305" />
	</node>
	<node lat="58.32247500052786" lon="8.291719446138591" id="-38698">
		<tag k="name" v="Lindheia" />
		<tag k="natural" v="hill" />
		<tag k="place" v="locality" />
		<tag k="ssr:stedsnr" v="810343" />
	</node>
	<node lat="58.18236388898271" lon="8.22640000089916" id="-38699">
		<tag k="name" v="Kallandsheia" />
		<tag k="natural" v="hill" />
		<tag k="place" v="locality" />
		<tag k="ssr:stedsnr" v="810092" />
	</node>
	<node lat="58.19591388523534" lon="8.334636115682814" id="-38703">
		<tag k="fixme" v="consider natural=peak for the most distinct mountains in the district" />
		<tag k="name" v="Hulleheia" />
		<tag k="natural" v="hill" />
		<tag k="place" v="locality" />
		<tag k="ssr:stedsnr" v="810283" />
	</node>
	<node lat="58.3188416681895" lon="8.329422226838949" id="-38704">
		<tag k="fixme" v="consider natural=peak for the most distinct mountains in the district" />
		<tag k="name" v="Skrubbeheia" />
		<tag k="natural" v="hill" />
		<tag k="place" v="locality" />
		<tag k="ssr:stedsnr" v="810284" />
	</node>
	<node lat="58.23691389087315" lon="8.340230557688564" id="-38707">
		<tag k="fixme" v="consider natural=peak for the most distinct mountains in the district" />
		<tag k="name" v="Storhaug" />
		<tag k="natural" v="hill" />
		<tag k="place" v="locality" />
		<tag k="ssr:stedsnr" v="810414" />
	</node>
	<node lat="58.18578333749536" lon="8.313366674216377" id="-38715">
		<tag k="name" v="Flekkeheia" />
		<tag k="natural" v="hill" />
		<tag k="place" v="locality" />
		<tag k="ssr:stedsnr" v="810489" />
	</node>
	<node lat="58.308138886092344" lon="8.40922500849938" id="-38719">
		<tag k="fixme" v="consider natural=peak for the most distinct mountains in the district" />
		<tag k="name" v="Gjelåsen" />
		<tag k="natural" v="hill" />
		<tag k="place" v="locality" />
		<tag k="ssr:stedsnr" v="810642" />
	</node>
	<node lat="58.12728611562287" lon="8.213886117256703" id="-38725">
		<tag k="fixme" v="consider natural=peak for the most distinct mountains in the district" />
		<tag k="name" v="Åriåsen" />
		<tag k="natural" v="hill" />
		<tag k="place" v="locality" />
		<tag k="ssr:stedsnr" v="810997" />
	</node>
	<node lat="58.19480555791346" lon="8.268888896045826" id="-38738">
		<tag k="name" v="Vårberget" />
		<tag k="natural" v="hill" />
		<tag k="place" v="locality" />
		<tag k="ssr:stedsnr" v="850409" />
	</node>
	<node lat="58.20143055657385" lon="8.269202785432318" id="-38754">
		<tag k="fixme" v="consider natural=peak for the most distinct mountains in the district" />
		<tag k="name" v="Høresteinen" />
		<tag k="natural" v="hill" />
		<tag k="place" v="locality" />
		<tag k="ssr:stedsnr" v="871107" />
	</node>
	<node lat="58.21270832890753" lon="8.225955553784353" id="-38756">
		<tag k="name" v="Lille Ulsheia" />
		<tag k="natural" v="hill" />
		<tag k="place" v="locality" />
		<tag k="ssr:stedsnr" v="871115" />
	</node>
	<node lat="58.207683332084876" lon="8.214094438328859" id="-38757">
		<tag k="name" v="Urekollen" />
		<tag k="natural" v="hill" />
		<tag k="place" v="locality" />
		<tag k="ssr:stedsnr" v="871118" />
	</node>
	<node lat="58.25792777718413" lon="8.26566110758157" id="-38767">
		<tag k="name" v="Buheia" />
		<tag k="natural" v="hill" />
		<tag k="place" v="locality" />
		<tag k="ssr:stedsnr" v="871331" />
	</node>
	<node lat="58.16378889275153" lon="8.169580549871426" id="-38772">
		<tag k="name" v="Åbråtane" />
		<tag k="natural" v="slope" />
		<tag k="place" v="locality" />
		<tag k="ssr:stedsnr" v="871213" />
	</node>
	<node lat="58.16713055434153" lon="8.178561107821942" id="-38773">
		<tag k="name" v="Olashei" />
		<tag k="natural" v="hill" />
		<tag k="place" v="locality" />
		<tag k="ssr:stedsnr" v="871218" />
	</node>
	<node lat="58.23086111175151" lon="8.377086115585849" id="-38781">
		<tag k="name" v="Skibsheia" />
		<tag k="natural" v="hill" />
		<tag k="place" v="locality" />
		<tag k="ssr:stedsnr" v="871407" />
	</node>
	<node lat="58.306730556073035" lon="8.392786115143672" id="-38793">
		<tag k="fixme" v="consider natural=peak for the most distinct mountains in the district" />
		<tag k="name" v="Kvernheia" />
		<tag k="natural" v="hill" />
		<tag k="place" v="locality" />
		<tag k="ssr:stedsnr" v="871619" />
	</node>
	<node lat="58.205844440654325" lon="8.351266665680923" id="-38795">
		<tag k="name" v="Åsvårdalen" />
		<tag k="natural" v="valley" />
		<tag k="place" v="locality" />
		<tag k="ssr:stedsnr" v="871811" />
	</node>
	<node lat="58.263127774156644" lon="8.332116668214097" id="-38796">
		<tag k="fixme" v="consider natural=peak for the most distinct mountains in the district" />
		<tag k="name" v="Beljemyråsen" />
		<tag k="natural" v="hill" />
		<tag k="place" v="locality" />
		<tag k="ssr:stedsnr" v="871812" />
	</node>
	<node lat="58.11100000296415" lon="8.215811104081872" id="-38798">
		<tag k="name" v="Stongvarden" />
		<tag k="natural" v="hill" />
		<tag k="place" v="locality" />
		<tag k="ssr:stedsnr" v="871867" />
	</node>
	<node lat="58.125205555268685" lon="8.225455559927202" id="-38800">
		<tag k="fixme" v="consider natural=peak for the most distinct mountains in the district" />
		<tag k="name" v="Espåsen" />
		<tag k="natural" v="hill" />
		<tag k="place" v="locality" />
		<tag k="ssr:stedsnr" v="871869" />
	</node>
	<node lat="58.25078889307456" lon="8.383116662574036" id="-38803">
		<tag k="name" v="Kirkeheia" />
		<tag k="natural" v="hill" />
		<tag k="place" v="locality" />
		<tag k="ssr:stedsnr" v="871911" />
	</node>
	<node lat="58.24975555819433" lon="8.363005556403767" id="-38804">
		<tag k="fixme" v="consider natural=peak for the most distinct mountains in the district" />
		<tag k="name" v="Gåsebakken" />
		<tag k="natural" v="hill" />
		<tag k="place" v="locality" />
		<tag k="ssr:stedsnr" v="871918" />
	</node>
	<node lat="58.18118610762674" lon="8.166330550978037" id="-38807">
		<tag k="fixme" v="consider natural=peak for the most distinct mountains in the district" />
		<tag k="name" v="Kattetjønnåsen" />
		<tag k="natural" v="hill" />
		<tag k="place" v="locality" />
		<tag k="ssr:stedsnr" v="871981" />
	</node>
	<node lat="58.25570000063714" lon="8.424841663421848" id="-38812">
		<tag k="fixme" v="consider natural=peak for the most distinct mountains in the district" />
		<tag k="name" v="Buvigåsen" />
		<tag k="natural" v="hill" />
		<tag k="place" v="locality" />
		<tag k="ssr:stedsnr" v="931674" />
	</node>
	<node lat="58.243777779409506" lon="8.40564444541546" id="-38813">
		<tag k="name" v="Hershelleren" />
		<tag k="place" v="locality" />
		<tag k="ssr:stedsnr" v="931678" />
	</node>
	<node lat="58.16842777456951" lon="8.242374998858315" id="-38819">
		<tag k="name" v="Blokksberg" />
		<tag k="natural" v="hill" />
		<tag k="place" v="locality" />
		<tag k="ssr:stedsnr" v="931367" />
	</node>
	<node lat="58.15396944526738" lon="8.260399999090527" id="-38831">
		<tag k="fixme" v="consider natural=peak for the most distinct mountains in the district" />
		<tag k="name" v="Storeheia" />
		<tag k="natural" v="hill" />
		<tag k="place" v="locality" />
		<tag k="ssr:stedsnr" v="931635" />
	</node>
	<node lat="58.25675833590631" lon="8.320374996290363" id="-38834">
		<tag k="name" v="Badstudalen" />
		<tag k="natural" v="valley" />
		<tag k="place" v="locality" />
		<tag k="ssr:stedsnr" v="931834" />
	</node>
	<node lat="58.21304722195642" lon="8.215074999438084" id="-38837">
		<tag k="fixme" v="consider natural=peak for the most distinct mountains in the district" />
		<tag k="name" v="Bjørneknuten" />
		<tag k="natural" v="hill" />
		<tag k="place" v="locality" />
		<tag k="ssr:stedsnr" v="932130" />
	</node>
	<node lat="58.20686388716161" lon="8.218566666405358" id="-38838">
		<tag k="name" v="Gale-Raundalen" />
		<tag k="natural" v="valley" />
		<tag k="place" v="locality" />
		<tag k="ssr:stedsnr" v="932134" />
	</node>
	<node lat="58.1621444408081" lon="8.165452786146984" id="-38840">
		<tag k="fixme" v="consider natural=peak for the most distinct mountains in the district" />
		<tag k="name" v="Tvitjønnås" />
		<tag k="natural" v="hill" />
		<tag k="place" v="locality" />
		<tag k="ssr:stedsnr" v="932234" />
	</node>
	<node lat="58.154533329298154" lon="8.180083334040994" id="-38841">
		<tag k="name" v="Linderabet" />
		<tag k="natural" v="hill" />
		<tag k="place" v="locality" />
		<tag k="ssr:stedsnr" v="932237" />
	</node>
	<node lat="58.22382221998009" lon="8.226408340254599" id="-38844">
		<tag k="fixme" v="consider natural=peak for the most distinct mountains in the district" />
		<tag k="name" v="Kvalhommerknuten" />
		<tag k="natural" v="hill" />
		<tag k="place" v="locality" />
		<tag k="ssr:stedsnr" v="932058" />
	</node>
	<node lat="58.1401888860796" lon="8.227697228139057" id="-38855">
		<tag k="fixme" v="consider natural=peak for the most distinct mountains in the district" />
		<tag k="name" v="Galteshaugheia" />
		<tag k="natural" v="hill" />
		<tag k="place" v="locality" />
		<tag k="ssr:stedsnr" v="932173" />
	</node>
	<node lat="58.315449996721746" lon="8.392338887174464" id="-38858">
		<tag k="fixme" v="consider natural=peak for the most distinct mountains in the district" />
		<tag k="name" v="Store Eftevassåsen" />
		<tag k="natural" v="hill" />
		<tag k="place" v="locality" />
		<tag k="ssr:stedsnr" v="932274" />
	</node>
	<node lat="58.257694448699986" lon="8.25598611416885" id="-38862">
		<tag k="name" v="Sådemyrhei" />
		<tag k="natural" v="hill" />
		<tag k="place" v="locality" />
		<tag k="ssr:stedsnr" v="932346" />
	</node>
	<node lat="58.24490833216728" lon="8.245305558919334" id="-38865">
		<tag k="fixme" v="consider natural=peak for the most distinct mountains in the district" />
		<tag k="name" v="Sokkebandsheia" />
		<tag k="natural" v="hill" />
		<tag k="place" v="locality" />
		<tag k="ssr:stedsnr" v="932355" />
	</node>
	<node lat="58.26215833338576" lon="8.31552222517244" id="-38867">
		<tag k="name" v="Midtheia" />
		<tag k="natural" v="hill" />
		<tag k="place" v="locality" />
		<tag k="ssr:stedsnr" v="932369" />
	</node>
	<node lat="58.3189944487744" lon="8.347847225943015" id="-38869">
		<tag k="fixme" v="consider natural=peak for the most distinct mountains in the district" />
		<tag k="name" v="Grimekollen" />
		<tag k="natural" v="hill" />
		<tag k="place" v="locality" />
		<tag k="ssr:stedsnr" v="932297" />
	</node>
	<node lat="58.26130278064349" lon="8.292444446953079" id="-38873">
		<tag k="name" v="Kjempershei" />
		<tag k="natural" v="hill" />
		<tag k="place" v="locality" />
		<tag k="ssr:stedsnr" v="932405" />
	</node>
	<node lat="58.29071389044214" lon="8.391377781582008" id="-38881">
		<tag k="name" v="Slåttemyrdalen" />
		<tag k="natural" v="valley" />
		<tag k="place" v="locality" />
		<tag k="ssr:stedsnr" v="932742" />
	</node>
	<node lat="58.29052499731922" lon="8.397494443260964" id="-38882">
		<tag k="fixme" v="consider natural=peak for the most distinct mountains in the district" />
		<tag k="name" v="Tjønnåsen" />
		<tag k="natural" v="hill" />
		<tag k="place" v="locality" />
		<tag k="ssr:stedsnr" v="932747" />
	</node>
	<node lat="58.292208334683586" lon="8.420363892829231" id="-38885">
		<tag k="name" v="Brentemyrheia" />
		<tag k="natural" v="hill" />
		<tag k="place" v="locality" />
		<tag k="ssr:stedsnr" v="932761" />
	</node>
	<node lat="58.290022223632434" lon="8.307449998726682" id="-38888">
		<tag k="name" v="Tereleigen" />
		<tag k="natural" v="hill" />
		<tag k="place" v="locality" />
		<tag k="ssr:stedsnr" v="932787" />
	</node>
	<node lat="58.1090166653433" lon="8.214594448474243" id="-38892">
		<tag k="name" v="Steinvigkniben" />
		<tag k="natural" v="hill" />
		<tag k="place" v="locality" />
		<tag k="ssr:stedsnr" v="932870" />
	</node>
	<node lat="58.1284833345637" lon="8.22000555814387" id="-38893">
		<tag k="fixme" v="consider natural=peak for the most distinct mountains in the district" />
		<tag k="name" v="Kviåsen" />
		<tag k="natural" v="hill" />
		<tag k="place" v="locality" />
		<tag k="ssr:stedsnr" v="932967" />
	</node>
	<node lat="58.23161666271108" lon="8.234213893301456" id="-38905">
		<tag k="alt_name" v="Fyllesheia" />
		<tag k="fixme" v="consider natural=peak for the most distinct mountains in the district" />
		<tag k="name" v="Føllesheia" />
		<tag k="natural" v="hill" />
		<tag k="place" v="locality" />
		<tag k="ssr:stedsnr" v="910261" />
	</node>
	<node lat="58.17548333705648" lon="8.161133326037156" id="-38907">
		<tag k="alt_name" v="Åbållheia" />
		<tag k="fixme" v="consider natural=peak for the most distinct mountains in the district" />
		<tag k="name" v="Åbolheia" />
		<tag k="natural" v="hill" />
		<tag k="place" v="locality" />
		<tag k="ssr:stedsnr" v="910414" />
	</node>
	<node lat="58.207536109062666" lon="8.23657499206628" id="-38912">
		<tag k="fixme" v="consider natural=peak for the most distinct mountains in the district" />
		<tag k="name" v="Badsrufjell" />
		<tag k="natural" v="hill" />
		<tag k="place" v="locality" />
		<tag k="ssr:stedsnr" v="910501" />
	</node>
	<node lat="58.18911110904595" lon="8.319933324980061" id="-38916">
		<tag k="name" v="Kalvefjellet" />
		<tag k="natural" v="hill" />
		<tag k="place" v="locality" />
		<tag k="ssr:stedsnr" v="931566" />
	</node>
	<node lat="58.22518333574873" lon="8.247280547628234" id="-38931">
		<tag k="name" v="Morholheia" />
		<tag k="natural" v="hill" />
		<tag k="place" v="locality" />
		<tag k="ssr:stedsnr" v="932040" />
	</node>
	<node lat="58.235902777176534" lon="8.273736103666476" id="-38933">
		<tag k="name" v="Hefteliane" />
		<tag k="natural" v="slope" />
		<tag k="place" v="locality" />
		<tag k="ssr:stedsnr" v="932045" />
	</node>
	<node lat="58.22524999675699" lon="8.275533326884332" id="-38935">
		<tag k="name" v="Hundemyrheia" />
		<tag k="natural" v="hill" />
		<tag k="place" v="locality" />
		<tag k="ssr:stedsnr" v="932048" />
	</node>
	<node lat="58.19310555178876" lon="8.175261111993327" id="-38937">
		<tag k="name" v="Ramsdalen" />
		<tag k="natural" v="valley" />
		<tag k="place" v="locality" />
		<tag k="ssr:stedsnr" v="932100" />
	</node>
	<node lat="58.17568611116218" lon="8.184722222928986" id="-38939">
		<tag k="name" v="Lille Toredalen" />
		<tag k="natural" v="valley" />
		<tag k="place" v="locality" />
		<tag k="ssr:stedsnr" v="932102" />
	</node>
	<node lat="58.19769444447115" lon="8.200608326121227" id="-38941">
		<tag k="fixme" v="consider natural=peak for the most distinct mountains in the district" />
		<tag k="name" v="Hestebeidåsen" />
		<tag k="natural" v="hill" />
		<tag k="place" v="locality" />
		<tag k="ssr:stedsnr" v="932140" />
	</node>
	<node lat="58.19788055834336" lon="8.179552775502207" id="-38943">
		<tag k="name" v="Studedalen" />
		<tag k="natural" v="valley" />
		<tag k="place" v="locality" />
		<tag k="ssr:stedsnr" v="932151" />
	</node>
	<node lat="58.25048610939245" lon="8.231558329828689" id="-38946">
		<tag k="fixme" v="consider natural=peak for the most distinct mountains in the district" />
		<tag k="name" v="Hollandshei" />
		<tag k="natural" v="hill" />
		<tag k="place" v="locality" />
		<tag k="ssr:stedsnr" v="932304" />
	</node>
	<node lat="58.23419721926058" lon="8.214555561663046" id="-38948">
		<tag k="name" v="Uledalen" />
		<tag k="natural" v="valley" />
		<tag k="place" v="locality" />
		<tag k="ssr:stedsnr" v="932311" />
	</node>
	<node lat="58.27570000162816" lon="8.266333331493943" id="-38949">
		<tag k="fixme" v="consider natural=peak for the most distinct mountains in the district" />
		<tag k="name" v="Knutane" />
		<tag k="natural" v="hill" />
		<tag k="place" v="locality" />
		<tag k="ssr:stedsnr" v="932316" />
	</node>
	<node lat="58.2617916656905" lon="8.273033334552174" id="-38950">
		<tag k="fixme" v="consider natural=peak for the most distinct mountains in the district" />
		<tag k="name" v="Midthei" />
		<tag k="natural" v="hill" />
		<tag k="place" v="locality" />
		<tag k="ssr:stedsnr" v="932318" />
	</node>
	<node lat="58.2626277742887" lon="8.396391670284283" id="-38954">
		<tag k="name" v="Svåbekkdalen" />
		<tag k="natural" v="valley" />
		<tag k="place" v="locality" />
		<tag k="ssr:stedsnr" v="932855" />
	</node>
	<node lat="58.28381666716731" lon="8.340424994723582" id="-38961">
		<tag k="name" v="Hestehei" />
		<tag k="natural" v="hill" />
		<tag k="place" v="locality" />
		<tag k="ssr:stedsnr" v="933787" />
	</node>
	<node lat="58.232955553688655" lon="8.260258339954358" id="-39002">
		<tag k="alt_name" v="Ørnehei" />
		<tag k="fixme" v="consider natural=peak for the most distinct mountains in the district" />
		<tag k="name" v="Ørneheia" />
		<tag k="natural" v="hill" />
		<tag k="place" v="locality" />
		<tag k="ssr:stedsnr" v="273" />
	</node>
	<node lat="58.22228889044505" lon="8.259394443855257" id="-39008">
		<tag k="fixme" v="consider natural=peak for the most distinct mountains in the district" />
		<tag k="name" v="Steindalsheia" />
		<tag k="natural" v="hill" />
		<tag k="place" v="locality" />
		<tag k="ssr:stedsnr" v="474" />
	</node>
	<node lat="58.17854999965376" lon="8.174811116951192" id="-39010">
		<tag k="fixme" v="consider natural=peak for the most distinct mountains in the district" />
		<tag k="name" v="Bjorstemheia" />
		<tag k="natural" v="hill" />
		<tag k="place" v="locality" />
		<tag k="ssr:stedsnr" v="434" />
	</node>
	<node lat="58.17241389235924" lon="8.267155552335248" id="-39015">
		<tag k="name" v="Røynevarden" />
		<tag k="natural" v="hill" />
		<tag k="place" v="locality" />
		<tag k="ssr:stedsnr" v="589" />
	</node>
	<node lat="58.166274996332625" lon="8.232319437414853" id="-39016">
		<tag k="name" v="Dalen" />
		<tag k="natural" v="valley" />
		<tag k="place" v="locality" />
		<tag k="ssr:stedsnr" v="608" />
	</node>
	<node lat="58.20595277501133" lon="8.335472229647282" id="-39025">
		<tag k="name" v="Abrahamsstykket" />
		<tag k="natural" v="hill" />
		<tag k="place" v="locality" />
		<tag k="ssr:stedsnr" v="21295" />
	</node>
	<node lat="58.25676944738289" lon="8.311588891106314" id="-39046">
		<tag k="name" v="Lonedalen" />
		<tag k="natural" v="valley" />
		<tag k="place" v="locality" />
		<tag k="ssr:stedsnr" v="22420" />
	</node>
	<node lat="58.155005552776224" lon="8.267072227536968" id="-39050">
		<tag k="fixme" v="consider natural=peak for the most distinct mountains in the district" />
		<tag k="name" v="Trandleheia" />
		<tag k="natural" v="hill" />
		<tag k="place" v="locality" />
		<tag k="ssr:stedsnr" v="21638" />
	</node>
	<node lat="58.24329444681404" lon="8.396319447718918" id="-39053">
		<tag k="fixme" v="consider natural=peak for the most distinct mountains in the district" />
		<tag k="name" v="Udsikten" />
		<tag k="natural" v="hill" />
		<tag k="place" v="locality" />
		<tag k="ssr:stedsnr" v="21663" />
	</node>
	<node lat="58.244008331248075" lon="8.356066673016164" id="-39061">
		<tag k="fixme" v="consider natural=peak for the most distinct mountains in the district" />
		<tag k="name" v="Hestheia" />
		<tag k="natural" v="hill" />
		<tag k="place" v="locality" />
		<tag k="ssr:stedsnr" v="21918" />
	</node>
	<node lat="58.257000002619364" lon="8.374258329174674" id="-39063">
		<tag k="fixme" v="consider natural=peak for the most distinct mountains in the district" />
		<tag k="name" v="Vardåsen" />
		<tag k="natural" v="hill" />
		<tag k="place" v="locality" />
		<tag k="ssr:stedsnr" v="21926" />
	</node>
	<node lat="58.20693888820537" lon="8.194711115312543" id="-39066">
		<tag k="fixme" v="consider natural=peak for the most distinct mountains in the district" />
		<tag k="name" v="Grasåsen" />
		<tag k="natural" v="hill" />
		<tag k="place" v="locality" />
		<tag k="ssr:stedsnr" v="22124" />
	</node>
	<node lat="58.195375003849925" lon="8.174861106508898" id="-39067">
		<tag k="fixme" v="consider natural=peak for the most distinct mountains in the district" />
		<tag k="name" v="Indre Anfinnåsen" />
		<tag k="natural" v="hill" />
		<tag k="place" v="locality" />
		<tag k="ssr:stedsnr" v="22129" />
	</node>
	<node lat="58.32054722121689" lon="8.283638891047248" id="-39071">
		<tag k="name" v="Peisadalen" />
		<tag k="natural" v="valley" />
		<tag k="place" v="locality" />
		<tag k="ssr:stedsnr" v="22319" />
	</node>
	<node lat="58.244644444182065" lon="8.217419450665576" id="-39073">
		<tag k="fixme" v="consider natural=peak for the most distinct mountains in the district" />
		<tag k="name" v="Jensbuåsen" />
		<tag k="natural" v="hill" />
		<tag k="place" v="locality" />
		<tag k="ssr:stedsnr" v="22330" />
	</node>
	<node lat="58.17790833085011" lon="8.154080561127927" id="-39079">
		<tag k="name" v="Skådane" />
		<tag k="natural" v="slope" />
		<tag k="place" v="locality" />
		<tag k="ssr:stedsnr" v="21975" />
	</node>
	<node lat="58.18316110861219" lon="8.16552223053476" id="-39080">
		<tag k="name" v="Trolldalen" />
		<tag k="natural" v="valley" />
		<tag k="place" v="locality" />
		<tag k="ssr:stedsnr" v="21978" />
	</node>
	<node lat="58.17445833200489" lon="8.203558333582617" id="-39087">
		<tag k="name" v="Grendalen" />
		<tag k="natural" v="valley" />
		<tag k="place" v="locality" />
		<tag k="ssr:stedsnr" v="22073" />
	</node>
	<node lat="58.179875003241754" lon="8.203366664476745" id="-39088">
		<tag k="fixme" v="consider natural=peak for the most distinct mountains in the district" />
		<tag k="name" v="Rebbåsen" />
		<tag k="natural" v="hill" />
		<tag k="place" v="locality" />
		<tag k="ssr:stedsnr" v="22075" />
	</node>
	<node lat="58.136061109449535" lon="8.23088611154352" id="-39090">
		<tag k="fixme" v="consider natural=peak for the most distinct mountains in the district" />
		<tag k="name" v="Tønneråsen" />
		<tag k="natural" v="hill" />
		<tag k="place" v="locality" />
		<tag k="ssr:stedsnr" v="22147" />
	</node>
	<node lat="58.31133055361668" lon="8.346516667558511" id="-39097">
		<tag k="name" v="Hestebeitdalen" />
		<tag k="natural" v="valley" />
		<tag k="place" v="locality" />
		<tag k="ssr:stedsnr" v="22242" />
	</node>
	<node lat="58.30660833131396" lon="8.360166666654111" id="-39098">
		<tag k="name" v="Storevassnesheia" />
		<tag k="natural" v="hill" />
		<tag k="place" v="locality" />
		<tag k="ssr:stedsnr" v="22250" />
	</node>
	<node lat="58.32326388749348" lon="8.39272223038821" id="-39099">
		<tag k="name" v="Vassdalsbrødet" />
		<tag k="natural" v="slope" />
		<tag k="place" v="locality" />
		<tag k="ssr:stedsnr" v="22254" />
	</node>
	<node lat="58.311408331882454" lon="8.392516672932354" id="-39101">
		<tag k="fixme" v="consider natural=peak for the most distinct mountains in the district" />
		<tag k="name" v="Lille Eftevassåsen" />
		<tag k="natural" v="hill" />
		<tag k="place" v="locality" />
		<tag k="ssr:stedsnr" v="22261" />
	</node>
	<node lat="58.25191389032497" lon="8.254230559518096" id="-39103">
		<tag k="name" v="Timberheia" />
		<tag k="natural" v="hill" />
		<tag k="place" v="locality" />
		<tag k="ssr:stedsnr" v="22352" />
	</node>
	<node lat="58.27325833076107" lon="8.319775008160711" id="-39107">
		<tag k="fixme" v="consider natural=peak for the most distinct mountains in the district" />
		<tag k="name" v="Ronnsåsen" />
		<tag k="natural" v="hill" />
		<tag k="place" v="locality" />
		<tag k="ssr:stedsnr" v="22372" />
	</node>
	<node lat="58.26956388716796" lon="8.292108329360442" id="-39108">
		<tag k="name" v="Tjæregrovdalen" />
		<tag k="natural" v="valley" />
		<tag k="place" v="locality" />
		<tag k="ssr:stedsnr" v="22375" />
	</node>
	<node lat="58.29988055406025" lon="8.332141669951161" id="-39112">
		<tag k="name" v="Liehaugen" />
		<tag k="natural" v="hill" />
		<tag k="place" v="locality" />
		<tag k="ssr:stedsnr" v="22768" />
	</node>
	<node lat="58.2175638865443" lon="8.210605553704188" id="-39126">
		<tag k="alt_name" v="Ulsvasspallene" />
		<tag k="fixme" v="consider natural=peak for the most distinct mountains in the district" />
		<tag k="name" v="Ulsvasspaller" />
		<tag k="natural" v="hill" />
		<tag k="place" v="locality" />
		<tag k="ssr:stedsnr" v="61455" />
	</node>
	<node lat="58.17419444236194" lon="8.233594448811902" id="-39133">
		<tag k="name" v="Roberg" />
		<tag k="natural" v="slope" />
		<tag k="place" v="locality" />
		<tag k="ssr:stedsnr" v="82072" />
	</node>
	<node lat="58.184683333025916" lon="8.253513889009753" id="-39134">
		<tag k="name" v="Haugedalen" />
		<tag k="natural" v="valley" />
		<tag k="place" v="locality" />
		<tag k="ssr:stedsnr" v="82081" />
	</node>
	<node lat="58.3051777772188" lon="8.33947222427873" id="-39135">
		<tag k="name" v="Glaefjell" />
		<tag k="natural" v="slope" />
		<tag k="place" v="locality" />
		<tag k="ssr:stedsnr" v="82246" />
	</node>
	<node lat="58.18445277498832" lon="8.183563893778906" id="-39140">
		<tag k="name" v="Bjorstemheia" />
		<tag k="natural" v="hill" />
		<tag k="place" v="locality" />
		<tag k="ssr:stedsnr" v="82110" />
	</node>
	<node lat="58.20396389315563" lon="8.241425003537612" id="-39141">
		<tag k="name" v="Badstudalen" />
		<tag k="natural" v="valley" />
		<tag k="place" v="locality" />
		<tag k="ssr:stedsnr" v="82120" />
	</node>
	<node lat="58.32251111537815" lon="8.341480549914841" id="-39146">
		<tag k="name" v="Sjurskoddet" />
		<tag k="natural" v="cliff" />
		<tag k="ssr:stedsnr" v="82286" />
	</node>
	<node lat="58.31668055920936" lon="8.353619449938261" id="-39147">
		<tag k="fixme" v="consider natural=peak for the most distinct mountains in the district" />
		<tag k="name" v="Monheia" />
		<tag k="natural" v="hill" />
		<tag k="place" v="locality" />
		<tag k="ssr:stedsnr" v="82292" />
	</node>
	<node lat="58.2718972177955" lon="8.263738891322797" id="-39149">
		<tag k="name" v="Nordbødalen" />
		<tag k="natural" v="valley" />
		<tag k="place" v="locality" />
		<tag k="ssr:stedsnr" v="82321" />
	</node>
	<node lat="58.26499166530266" lon="8.321494452619941" id="-39154">
		<tag k="name" v="Fjellvannsheia" />
		<tag k="natural" v="hill" />
		<tag k="place" v="locality" />
		<tag k="ssr:stedsnr" v="82362" />
	</node>
	<node lat="58.2720750018607" lon="8.283077770530454" id="-39160">
		<tag k="name" v="Knutedalen" />
		<tag k="natural" v="valley" />
		<tag k="place" v="locality" />
		<tag k="ssr:stedsnr" v="82422" />
	</node>
	<node lat="58.226141666897824" lon="8.37291944762623" id="-39161">
		<tag k="fixme" v="consider natural=peak for the most distinct mountains in the district" />
		<tag k="name" v="Hausefjell" />
		<tag k="natural" v="hill" />
		<tag k="place" v="locality" />
		<tag k="ssr:stedsnr" v="82428" />
	</node>
	<node lat="58.233202775644344" lon="8.37655833404951" id="-39162">
		<tag k="name" v="Gremsdalen" />
		<tag k="natural" v="valley" />
		<tag k="place" v="locality" />
		<tag k="ssr:stedsnr" v="82429" />
	</node>
	<node lat="58.296219443165285" lon="8.405947217621748" id="-39171">
		<tag k="fixme" v="consider natural=peak for the most distinct mountains in the district" />
		<tag k="name" v="Ospåsen" />
		<tag k="natural" v="hill" />
		<tag k="place" v="locality" />
		<tag k="ssr:stedsnr" v="82787" />
	</node>
	<node lat="58.15145277675846" lon="8.268916659173545" id="-39176">
		<tag k="fixme" v="consider natural=peak for the most distinct mountains in the district" />
		<tag k="name" v="Storeheia" />
		<tag k="natural" v="hill" />
		<tag k="place" v="locality" />
		<tag k="ssr:stedsnr" v="82567" />
	</node>
	<node lat="58.29371388630066" lon="8.415958328626816" id="-39184">
		<tag k="name" v="Kaldeheia" />
		<tag k="natural" v="hill" />
		<tag k="place" v="locality" />
		<tag k="ssr:stedsnr" v="82798" />
	</node>
	<node lat="58.30142499733528" lon="8.434269448470047" id="-39185">
		<tag k="name" v="Stokkemyrdalen" />
		<tag k="natural" v="valley" />
		<tag k="place" v="locality" />
		<tag k="ssr:stedsnr" v="82801" />
	</node>
	<node lat="58.25179721888485" lon="8.33960278563589" id="-39188">
		<tag k="name" v="Formannen" />
		<tag k="natural" v="hill" />
		<tag k="place" v="locality" />
		<tag k="ssr:stedsnr" v="82814" />
	</node>
	<node lat="58.18436111102901" lon="8.166411115011778" id="-39197">
		<tag k="fixme" v="consider natural=peak for the most distinct mountains in the district" />
		<tag k="name" v="Bjørnåsen" />
		<tag k="natural" v="hill" />
		<tag k="place" v="locality" />
		<tag k="ssr:stedsnr" v="82981" />
	</node>
	<node lat="58.17603055676781" lon="8.163108331912122" id="-39201">
		<tag k="name" v="Ramsdalen" />
		<tag k="natural" v="valley" />
		<tag k="place" v="locality" />
		<tag k="ssr:stedsnr" v="82974" />
	</node>
	<node lat="58.22308333773782" lon="8.277897223200258" id="-39205">
		<tag k="name" v="Hunnemyrdalen" />
		<tag k="natural" v="valley" />
		<tag k="place" v="locality" />
		<tag k="ssr:stedsnr" v="83454" />
	</node>
	<node lat="58.26294444684978" lon="8.423594451211773" id="-39206">
		<tag k="name" v="Fjellerhaven" />
		<tag k="natural" v="slope" />
		<tag k="place" v="locality" />
		<tag k="ssr:stedsnr" v="83755" />
	</node>
	<node lat="58.29996389001569" lon="8.360644451463346" id="-39207">
		<tag k="name" v="Hallheia" />
		<tag k="natural" v="hill" />
		<tag k="place" v="locality" />
		<tag k="ssr:stedsnr" v="83768" />
	</node>
	<node lat="58.24870555284883" lon="8.277897214989961" id="-39213">
		<tag k="fixme" v="consider natural=peak for the most distinct mountains in the district" />
		<tag k="name" v="Rossåsen" />
		<tag k="natural" v="hill" />
		<tag k="place" v="locality" />
		<tag k="ssr:stedsnr" v="121348" />
	</node>
	<node lat="58.131963891992655" lon="8.249180548193177" id="-39223">
		<tag k="fixme" v="consider natural=peak for the most distinct mountains in the district" />
		<tag k="name" v="Dynge" />
		<tag k="natural" v="hill" />
		<tag k="place" v="locality" />
		<tag k="ssr:stedsnr" v="121558" />
	</node>
	<node lat="58.25412500034003" lon="8.288469448901482" id="-39224">
		<tag k="name" v="Føllsdalen" />
		<tag k="natural" v="valley" />
		<tag k="place" v="locality" />
		<tag k="ssr:stedsnr" v="142428" />
	</node>
	<node lat="58.205255557562424" lon="8.339611110176676" id="-39228">
		<tag k="name" v="Gitkilheia" />
		<tag k="natural" v="hill" />
		<tag k="place" v="locality" />
		<tag k="ssr:stedsnr" v="142014" />
	</node>
	<node lat="58.20451388527805" lon="8.285352771985528" id="-39233">
		<tag k="name" v="Maurheia" />
		<tag k="natural" v="hill" />
		<tag k="place" v="locality" />
		<tag k="ssr:stedsnr" v="142038" />
	</node>
	<node lat="58.214238885155865" lon="8.286002786315237" id="-39234">
		<tag k="name" v="Risbuheia" />
		<tag k="natural" v="hill" />
		<tag k="place" v="locality" />
		<tag k="ssr:stedsnr" v="142040" />
	</node>
	<node lat="58.21843611160685" lon="8.23524167098663" id="-39235">
		<tag k="name" v="Holdalsheia" />
		<tag k="natural" v="hill" />
		<tag k="place" v="locality" />
		<tag k="ssr:stedsnr" v="142057" />
	</node>
	<node lat="58.18533611130173" lon="8.215055552890016" id="-39237">
		<tag k="fixme" v="consider natural=peak for the most distinct mountains in the district" />
		<tag k="name" v="Buråsen" />
		<tag k="natural" v="hill" />
		<tag k="place" v="locality" />
		<tag k="ssr:stedsnr" v="142075" />
	</node>
	<node lat="58.16906944815956" lon="8.15223611700044" id="-39243">
		<tag k="name" v="Trandalen" />
		<tag k="natural" v="valley" />
		<tag k="place" v="locality" />
		<tag k="ssr:stedsnr" v="142264" />
	</node>
	<node lat="58.203063887715274" lon="8.239252785493807" id="-39246">
		<tag k="name" v="Skjærefjellet" />
		<tag k="natural" v="hill" />
		<tag k="place" v="locality" />
		<tag k="ssr:stedsnr" v="142138" />
	</node>
	<node lat="58.2119138915545" lon="8.208144441683924" id="-39248">
		<tag k="name" v="Ravndalen" />
		<tag k="natural" v="valley" />
		<tag k="place" v="locality" />
		<tag k="ssr:stedsnr" v="142162" />
	</node>
	<node lat="58.139730559281226" lon="8.24924444603568" id="-39251">
		<tag k="name" v="Trolldalen" />
		<tag k="natural" v="valley" />
		<tag k="place" v="locality" />
		<tag k="ssr:stedsnr" v="142190" />
	</node>
	<node lat="58.140727782066534" lon="8.25042222062259" id="-39252">
		<tag k="fixme" v="consider natural=peak for the most distinct mountains in the district" />
		<tag k="name" v="Trollåsen" />
		<tag k="natural" v="hill" />
		<tag k="place" v="locality" />
		<tag k="ssr:stedsnr" v="142191" />
	</node>
	<node lat="58.26678889228481" lon="8.41922499795899" id="-39280">
		<tag k="fixme" v="consider natural=peak for the most distinct mountains in the district" />
		<tag k="name" v="Høyås" />
		<tag k="natural" v="hill" />
		<tag k="place" v="locality" />
		<tag k="ssr:stedsnr" v="142764" />
	</node>
	<node lat="58.264530555883645" lon="8.426119449741917" id="-39281">
		<tag k="name" v="Brattekleiv" />
		<tag k="natural" v="slope" />
		<tag k="place" v="locality" />
		<tag k="ssr:stedsnr" v="142767" />
	</node>
	<node lat="58.279958335793616" lon="8.422522218129616" id="-39286">
		<tag k="fixme" v="consider natural=peak for the most distinct mountains in the district" />
		<tag k="name" v="Haugefjell" />
		<tag k="natural" v="hill" />
		<tag k="place" v="locality" />
		<tag k="ssr:stedsnr" v="142873" />
	</node>
	<node lat="58.27791666838308" lon="8.294141658994759" id="-39290">
		<tag k="name" v="Kjerka" />
		<tag k="natural" v="hill" />
		<tag k="place" v="locality" />
		<tag k="ssr:stedsnr" v="143348" />
	</node>
	<node lat="58.31768333183334" lon="8.300058332833586" id="-39296">
		<tag k="name" v="Tollbakken" />
		<tag k="natural" v="slope" />
		<tag k="place" v="locality" />
		<tag k="ssr:stedsnr" v="143267" />
	</node>
	<node lat="58.2287472242918" lon="8.199691667577527" id="-39300">
		<tag k="fixme" v="consider natural=peak for the most distinct mountains in the district" />
		<tag k="name" v="Dyråsen" />
		<tag k="natural" v="hill" />
		<tag k="place" v="locality" />
		<tag k="ssr:stedsnr" v="143293" />
	</node>
	<node lat="58.26495278188062" lon="8.258816672959993" id="-39301">
		<tag k="fixme" v="consider natural=peak for the most distinct mountains in the district" />
		<tag k="name" v="Byttingsås" />
		<tag k="natural" v="hill" />
		<tag k="place" v="locality" />
		<tag k="ssr:stedsnr" v="143299" />
	</node>
	<node lat="58.22806666831932" lon="8.34334445037362" id="-39303">
		<tag k="name" v="Hestemyrbakken" />
		<tag k="natural" v="slope" />
		<tag k="place" v="locality" />
		<tag k="ssr:stedsnr" v="143379" />
	</node>
	<node lat="58.2259777800692" lon="8.366219444364383" id="-39305">
		<tag k="fixme" v="consider natural=peak for the most distinct mountains in the district" />
		<tag k="name" v="Håfjellet" />
		<tag k="natural" v="hill" />
		<tag k="place" v="locality" />
		<tag k="ssr:stedsnr" v="143421" />
	</node>
	<node lat="58.22483610682845" lon="8.331311106949055" id="-39306">
		<tag k="fixme" v="consider natural=peak for the most distinct mountains in the district" />
		<tag k="name" v="Skumåsen" />
		<tag k="natural" v="hill" />
		<tag k="place" v="locality" />
		<tag k="ssr:stedsnr" v="143454" />
	</node>
	<node lat="58.22396389075398" lon="8.289369449864786" id="-39313">
		<tag k="alt_name" v="Skrubbhei" />
		<tag k="fixme" v="consider natural=peak for the most distinct mountains in the district" />
		<tag k="name" v="Stubheia" />
		<tag k="natural" v="hill" />
		<tag k="place" v="locality" />
		<tag k="ssr:stedsnr" v="182281" />
	</node>
	<node lat="58.2596598602488" lon="8.327809274487102" id="-39321">
		<tag k="fixme" v="consider natural=peak for the most distinct mountains in the district" />
		<tag k="name" v="Skifjell" />
		<tag k="natural" v="hill" />
		<tag k="place" v="locality" />
		<tag k="ssr:stedsnr" v="182707" />
	</node>
	<node lat="58.1438944439286" lon="8.173205551452268" id="-39325">
		<tag k="alt_name" v="Randevikheia" />
		<tag k="fixme" v="consider natural=peak for the most distinct mountains in the district" />
		<tag k="name" v="Randvikheia" />
		<tag k="natural" v="hill" />
		<tag k="place" v="locality" />
		<tag k="ssr:stedsnr" v="182587" />
	</node>
	<node lat="58.16756666262459" lon="8.226511102718117" id="-39330">
		<tag k="name" v="Svellvigdalen" />
		<tag k="natural" v="valley" />
		<tag k="place" v="locality" />
		<tag k="ssr:stedsnr" v="203375" />
	</node>
	<node lat="58.152944440838844" lon="8.242077776559192" id="-39337">
		<tag k="name" v="Oljeberget" />
		<tag k="natural" v="hill" />
		<tag k="place" v="locality" />
		<tag k="ssr:stedsnr" v="203599" />
	</node>
	<node lat="58.22444166813522" lon="8.264969442077556" id="-39346">
		<tag k="name" v="Sirishei" />
		<tag k="natural" v="hill" />
		<tag k="place" v="locality" />
		<tag k="ssr:stedsnr" v="204023" />
	</node>
	<node lat="58.18589999830057" lon="8.258952772248342" id="-39348">
		<tag k="name" v="Rugrasheia" />
		<tag k="natural" v="hill" />
		<tag k="place" v="locality" />
		<tag k="ssr:stedsnr" v="204035" />
	</node>
	<node lat="58.17067500061717" lon="8.198588893956963" id="-39352">
		<tag k="fixme" v="consider natural=peak for the most distinct mountains in the district" />
		<tag k="name" v="Åsane" />
		<tag k="natural" v="hill" />
		<tag k="place" v="locality" />
		<tag k="ssr:stedsnr" v="204176" />
	</node>
	<node lat="58.193283332186034" lon="8.192366673205445" id="-39359">
		<tag k="name" v="Stemåsen" />
		<tag k="natural" v="hill" />
		<tag k="place" v="locality" />
		<tag k="ssr:stedsnr" v="204065" />
	</node>
	<node lat="58.19108611377644" lon="8.174911118278521" id="-39361">
		<tag k="fixme" v="consider natural=peak for the most distinct mountains in the district" />
		<tag k="name" v="Grasåsen" />
		<tag k="natural" v="hill" />
		<tag k="place" v="locality" />
		<tag k="ssr:stedsnr" v="204080" />
	</node>
	<node lat="58.16781111231818" lon="8.26210833803942" id="-39362">
		<tag k="name" v="Svanbudalen" />
		<tag k="natural" v="valley" />
		<tag k="place" v="locality" />
		<tag k="ssr:stedsnr" v="204133" />
	</node>
	<node lat="58.31759999964837" lon="8.401183336388106" id="-39365">
		<tag k="name" v="Halvorsmyrdalen" />
		<tag k="natural" v="valley" />
		<tag k="old_name" v="Halvosmyrdalen" />
		<tag k="place" v="locality" />
		<tag k="ssr:stedsnr" v="204232" />
	</node>
	<node lat="58.22299999633301" lon="8.2016111078683" id="-39366">
		<tag k="name" v="Vareheia" />
		<tag k="natural" v="hill" />
		<tag k="place" v="locality" />
		<tag k="ssr:stedsnr" v="204279" />
	</node>
	<node lat="58.266394446419824" lon="8.27252777285387" id="-39367">
		<tag k="name" v="Eikelandshei" />
		<tag k="natural" v="hill" />
		<tag k="place" v="locality" />
		<tag k="ssr:stedsnr" v="204288" />
	</node>
	<node lat="58.261247223688244" lon="8.265163895107099" id="-39368">
		<tag k="fixme" v="consider natural=peak for the most distinct mountains in the district" />
		<tag k="name" v="Heståsen" />
		<tag k="natural" v="hill" />
		<tag k="place" v="locality" />
		<tag k="ssr:stedsnr" v="204294" />
	</node>
	<node lat="58.248622223111774" lon="8.208369440511555" id="-39369">
		<tag k="name" v="Skåreheia" />
		<tag k="natural" v="hill" />
		<tag k="place" v="locality" />
		<tag k="ssr:stedsnr" v="204309" />
	</node>
	<node lat="58.25193610668706" lon="8.271558331488611" id="-39370">
		<tag k="name" v="Tverrdalen" />
		<tag k="natural" v="valley" />
		<tag k="place" v="locality" />
		<tag k="ssr:stedsnr" v="204315" />
	</node>
	<node lat="58.288755551901716" lon="8.332544451507722" id="-39373">
		<tag k="name" v="Normann" />
		<tag k="natural" v="hill" />
		<tag k="place" v="locality" />
		<tag k="ssr:stedsnr" v="204744" />
	</node>
	<node lat="58.3018499977606" lon="8.404486106320158" id="-39376">
		<tag k="name" v="Plankåsbrodet" />
		<tag k="natural" v="slope" />
		<tag k="place" v="locality" />
		<tag k="ssr:stedsnr" v="204765" />
	</node>
	<node lat="58.298377776182" lon="8.432294442681828" id="-39379">
		<tag k="name" v="Dybedal" />
		<tag k="natural" v="valley" />
		<tag k="place" v="locality" />
		<tag k="ssr:stedsnr" v="204779" />
	</node>
	<node lat="58.300941669246875" lon="8.351580551606073" id="-39396">
		<tag k="alt_name" v="Bueheia, ytre;Ytre Buheia" />
		<tag k="fixme" v="consider natural=peak for the most distinct mountains in the district" />
		<tag k="name" v="Ytre Bueheia" />
		<tag k="natural" v="hill" />
		<tag k="place" v="locality" />
		<tag k="ssr:stedsnr" v="303296" />
	</node>
	<node lat="58.25433610880666" lon="8.354219438264337" id="-39403">
		<tag k="fixme" v="consider natural=peak for the most distinct mountains in the district" />
		<tag k="name" v="Bjelkåsen" />
		<tag k="natural" v="hill" />
		<tag k="place" v="locality" />
		<tag k="ssr:stedsnr" v="325893" />
	</node>
	<node lat="58.180141663691096" lon="8.307099993806666" id="-39425">
		<tag k="name" v="Høye skaftet" />
		<tag k="natural" v="hill" />
		<tag k="place" v="locality" />
		<tag k="ssr:stedsnr" v="324693" />
	</node>
	<node lat="58.18813333644161" lon="8.21440278014867" id="-39429">
		<tag k="fixme" v="consider natural=peak for the most distinct mountains in the district" />
		<tag k="name" v="Klappekjerråsen" />
		<tag k="natural" v="hill" />
		<tag k="place" v="locality" />
		<tag k="ssr:stedsnr" v="325049" />
	</node>
	<node lat="58.17549722195595" lon="8.19992500645328" id="-39433">
		<tag k="fixme" v="consider natural=peak for the most distinct mountains in the district" />
		<tag k="name" v="Rauknuten" />
		<tag k="natural" v="hill" />
		<tag k="place" v="locality" />
		<tag k="ssr:stedsnr" v="325085" />
	</node>
	<node lat="58.13157499813186" lon="8.237052774474428" id="-39437">
		<tag k="fixme" v="consider natural=peak for the most distinct mountains in the district" />
		<tag k="name" v="Skibbeheia" />
		<tag k="natural" v="hill" />
		<tag k="place" v="locality" />
		<tag k="ssr:stedsnr" v="325166" />
	</node>
	<node lat="58.147019442476974" lon="8.160897218759807" id="-39440">
		<tag k="fixme" v="consider natural=peak for the most distinct mountains in the district" />
		<tag k="name" v="Tangeråsen" />
		<tag k="natural" v="hill" />
		<tag k="place" v="locality" />
		<tag k="ssr:stedsnr" v="325251" />
	</node>
	<node lat="58.25144444004171" lon="8.282911113880436" id="-39449">
		<tag k="fixme" v="consider natural=peak for the most distinct mountains in the district" />
		<tag k="name" v="Skottebuåsen" />
		<tag k="natural" v="hill" />
		<tag k="place" v="locality" />
		<tag k="ssr:stedsnr" v="325454" />
	</node>
	<node lat="58.26228888886106" lon="8.342002782706365" id="-39452">
		<tag k="fixme" v="consider natural=peak for the most distinct mountains in the district" />
		<tag k="name" v="Sandvadåsen" />
		<tag k="natural" v="hill" />
		<tag k="place" v="locality" />
		<tag k="ssr:stedsnr" v="325810" />
	</node>
	<node lat="58.253322221206254" lon="8.218766664321864" id="-39457">
		<tag k="fixme" v="consider natural=peak for the most distinct mountains in the district" />
		<tag k="name" v="Buåsen" />
		<tag k="natural" v="hill" />
		<tag k="place" v="locality" />
		<tag k="ssr:stedsnr" v="325360" />
	</node>
	<node lat="58.24332222290986" lon="8.243250006238085" id="-39458">
		<tag k="name" v="Steinbakken" />
		<tag k="natural" v="ridge" />
		<tag k="place" v="locality" />
		<tag k="ssr:stedsnr" v="325362" />
	</node>
	<node lat="58.28970555114887" lon="8.386919442483888" id="-39461">
		<tag k="name" v="Hellermyrheia" />
		<tag k="natural" v="hill" />
		<tag k="place" v="locality" />
		<tag k="ssr:stedsnr" v="325751" />
	</node>
	<node lat="58.25615000365519" lon="8.383938881368657" id="-39465">
		<tag k="name" v="Kirkekleiva" />
		<tag k="natural" v="slope" />
		<tag k="place" v="locality" />
		<tag k="ssr:stedsnr" v="325927" />
	</node>
	<node lat="58.21663888676947" lon="8.32730832792116" id="-39469">
		<tag k="fixme" v="consider natural=peak for the most distinct mountains in the district" />
		<tag k="name" v="Føllåsen" />
		<tag k="natural" v="hill" />
		<tag k="place" v="locality" />
		<tag k="ssr:stedsnr" v="326444" />
	</node>
	<node lat="58.22993055918111" lon="8.324822216402193" id="-39470">
		<tag k="name" v="Ormehei" />
		<tag k="natural" v="hill" />
		<tag k="place" v="locality" />
		<tag k="ssr:stedsnr" v="326445" />
	</node>
	<node lat="58.30762778131782" lon="8.353541665551688" id="-39479">
		<tag k="alt_name" v="Bueheia, heimre;Buheia" />
		<tag k="fixme" v="consider natural=peak for the most distinct mountains in the district" />
		<tag k="name" v="Heimre Bueheia" />
		<tag k="natural" v="hill" />
		<tag k="place" v="locality" />
		<tag k="ssr:stedsnr" v="364288" />
	</node>
	<node lat="58.15769166260385" lon="8.169991663944524" id="-39496">
		<tag k="alt_name" v="Brunen" />
		<tag k="name" v="Bruna" />
		<tag k="natural" v="hill" />
		<tag k="place" v="locality" />
		<tag k="ssr:stedsnr" v="364588" />
	</node>
	<node lat="58.288322223323696" lon="8.415130550949256" id="-39500">
		<tag k="name" v="Varden" />
		<tag k="natural" v="hill" />
		<tag k="place" v="locality" />
		<tag k="ssr:stedsnr" v="364762" />
	</node>
	<node lat="58.25676110874588" lon="8.289888883712186" id="-39501">
		<tag k="fixme" v="consider natural=peak for the most distinct mountains in the district" />
		<tag k="name" v="Eigåsen" />
		<tag k="natural" v="hill" />
		<tag k="place" v="locality" />
		<tag k="ssr:stedsnr" v="385446" />
	</node>
	<node lat="58.23910833492342" lon="8.307252782283015" id="-39502">
		<tag k="name" v="Skytterhei" />
		<tag k="natural" v="hill" />
		<tag k="place" v="locality" />
		<tag k="ssr:stedsnr" v="385448" />
	</node>
	<node lat="58.1733999973141" lon="8.254552777329044" id="-39505">
		<tag k="fixme" v="consider natural=peak for the most distinct mountains in the district" />
		<tag k="name" v="Homreåsen" />
		<tag k="natural" v="hill" />
		<tag k="place" v="locality" />
		<tag k="ssr:stedsnr" v="385070" />
	</node>
	<node lat="58.21015000396655" lon="8.21969999789122" id="-39509">
		<tag k="name" v="Buheia" />
		<tag k="natural" v="hill" />
		<tag k="place" v="locality" />
		<tag k="ssr:stedsnr" v="385162" />
	</node>
	<node lat="58.31955277524329" lon="8.39324443649235" id="-39511">
		<tag k="name" v="Gullholmflaten" />
		<tag k="place" v="locality" />
		<tag k="ssr:stedsnr" v="385282" />
	</node>
	<node lat="58.15566110690538" lon="8.192094436817111" id="-39517">
		<tag k="name" v="Sømsmyrheia" />
		<tag k="natural" v="hill" />
		<tag k="place" v="locality" />
		<tag k="ssr:stedsnr" v="385228" />
	</node>
	<node lat="58.26696388819375" lon="8.291277771277446" id="-39525">
		<tag k="fixme" v="consider natural=peak for the most distinct mountains in the district" />
		<tag k="name" v="Heståsen" />
		<tag k="natural" v="hill" />
		<tag k="place" v="locality" />
		<tag k="ssr:stedsnr" v="385424" />
	</node>
	<node lat="58.25778611141573" lon="8.306197218630789" id="-39527">
		<tag k="fixme" v="consider natural=peak for the most distinct mountains in the district" />
		<tag k="name" v="Loneknipen" />
		<tag k="natural" v="hill" />
		<tag k="place" v="locality" />
		<tag k="ssr:stedsnr" v="385441" />
	</node>
	<node lat="58.25825833378915" lon="8.25305278182798" id="-39530">
		<tag k="fixme" v="consider natural=peak for the most distinct mountains in the district" />
		<tag k="name" v="Røynåsen" />
		<tag k="natural" v="hill" />
		<tag k="place" v="locality" />
		<tag k="ssr:stedsnr" v="385353" />
	</node>
	<node lat="58.29478333599027" lon="8.394413892564874" id="-39553">
		<tag k="fixme" v="consider natural=peak for the most distinct mountains in the district" />
		<tag k="name" v="Graskjerråsen" />
		<tag k="natural" v="hill" />
		<tag k="place" v="locality" />
		<tag k="ssr:stedsnr" v="385785" />
	</node>
	<node lat="58.113911108668326" lon="8.209305560994187" id="-39560">
		<tag k="name" v="Losheia" />
		<tag k="natural" v="hill" />
		<tag k="place" v="locality" />
		<tag k="ssr:stedsnr" v="385985" />
	</node>
	<node lat="58.28798333541183" lon="8.3274277847191" id="-39562">
		<tag k="name" v="Livsenskleiv" />
		<tag k="natural" v="slope" />
		<tag k="place" v="locality" />
		<tag k="ssr:stedsnr" v="385832" />
	</node>
	<node lat="58.24387777577673" lon="8.279505559621551" id="-39566">
		<tag k="name" v="Karlsdalen" />
		<tag k="natural" v="valley" />
		<tag k="place" v="locality" />
		<tag k="ssr:stedsnr" v="386433" />
	</node>
	<node lat="58.23190833628206" lon="8.290669439382704" id="-39568">
		<tag k="name" v="Bjellandsdalen" />
		<tag k="natural" v="valley" />
		<tag k="place" v="locality" />
		<tag k="ssr:stedsnr" v="386440" />
	</node>
	<node lat="58.171547218362974" lon="8.292936111188009" id="-39573">
		<tag k="fixme" v="consider natural=peak for the most distinct mountains in the district" />
		<tag k="name" v="Kalvøykniben" />
		<tag k="natural" v="hill" />
		<tag k="place" v="locality" />
		<tag k="ssr:stedsnr" v="425582" />
	</node>
	<node lat="58.2158944478034" lon="8.303805559408524" id="-39599">
		<tag k="name" v="Skibbuhei" />
		<tag k="natural" v="hill" />
		<tag k="place" v="locality" />
		<tag k="ssr:stedsnr" v="446013" />
	</node>
	<node lat="58.177522220272955" lon="8.185244437192807" id="-39600">
		<tag k="name" v="Lille Toreheia" />
		<tag k="natural" v="hill" />
		<tag k="place" v="locality" />
		<tag k="ssr:stedsnr" v="446120" />
	</node>
	<node lat="58.202833335073244" lon="8.19186944842254" id="-39601">
		<tag k="name" v="Trekongen" />
		<tag k="natural" v="hill" />
		<tag k="place" v="locality" />
		<tag k="ssr:stedsnr" v="446182" />
	</node>
	<node lat="58.28462499820831" lon="8.354847217078285" id="-39602">
		<tag k="name" v="Olashei" />
		<tag k="natural" v="hill" />
		<tag k="place" v="locality" />
		<tag k="ssr:stedsnr" v="445969" />
	</node>
	<node lat="58.207463886156475" lon="8.275477775925268" id="-39610">
		<tag k="name" v="Brenthei" />
		<tag k="natural" v="hill" />
		<tag k="place" v="locality" />
		<tag k="ssr:stedsnr" v="446149" />
	</node>
	<node lat="58.16690277706693" lon="8.198699992184117" id="-39618">
		<tag k="name" v="Nordalen" />
		<tag k="natural" v="valley" />
		<tag k="place" v="locality" />
		<tag k="ssr:stedsnr" v="446251" />
	</node>
	<node lat="58.15886111270757" lon="8.17584999847244" id="-39619">
		<tag k="name" v="Drangsdalen" />
		<tag k="natural" v="valley" />
		<tag k="place" v="locality" />
		<tag k="ssr:stedsnr" v="446267" />
	</node>
	<node lat="58.329461113324975" lon="8.307033336211415" id="-39623">
		<tag k="fixme" v="consider natural=peak for the most distinct mountains in the district" />
		<tag k="name" v="Dyblemyrheia" />
		<tag k="natural" v="hill" />
		<tag k="place" v="locality" />
		<tag k="ssr:stedsnr" v="446366" />
	</node>
	<node lat="58.25262777908292" lon="8.288441666426845" id="-39625">
		<tag k="name" v="Føllsheia" />
		<tag k="natural" v="hill" />
		<tag k="place" v="locality" />
		<tag k="ssr:stedsnr" v="446446" />
	</node>
	<node lat="58.25379721843489" lon="8.283961117911739" id="-39626">
		<tag k="name" v="Skarvedalen" />
		<tag k="natural" v="valley" />
		<tag k="place" v="locality" />
		<tag k="ssr:stedsnr" v="446449" />
	</node>
	<node lat="58.26062500049934" lon="8.309366660377052" id="-39632">
		<tag k="name" v="Vestheia" />
		<tag k="natural" v="hill" />
		<tag k="place" v="locality" />
		<tag k="ssr:stedsnr" v="446402" />
	</node>
	<node lat="58.27257222250661" lon="8.286011109245283" id="-39633">
		<tag k="name" v="Knutelia" />
		<tag k="natural" v="slope" />
		<tag k="place" v="locality" />
		<tag k="ssr:stedsnr" v="446406" />
	</node>
	<node lat="58.1828999968479" lon="8.281369440220749" id="-39634">
		<tag k="name" v="Ureheia" />
		<tag k="natural" v="hill" />
		<tag k="place" v="locality" />
		<tag k="ssr:stedsnr" v="446556" />
	</node>
	<node lat="58.14084722199326" lon="8.209200000934707" id="-39638">
		<tag k="name" v="Svåberg" />
		<tag k="natural" v="slope" />
		<tag k="place" v="locality" />
		<tag k="ssr:stedsnr" v="446567" />
	</node>
	<node lat="58.29016111462479" lon="8.33001943598094" id="-39641">
		<tag k="name" v="Hellersliene" />
		<tag k="natural" v="slope" />
		<tag k="place" v="locality" />
		<tag k="ssr:stedsnr" v="446829" />
	</node>
	<node lat="58.30194166599301" lon="8.312950007681268" id="-39643">
		<tag k="name" v="Eldshommerdalen" />
		<tag k="natural" v="valley" />
		<tag k="place" v="locality" />
		<tag k="ssr:stedsnr" v="446836" />
	</node>
	<node lat="58.28089444828247" lon="8.375119441741631" id="-39645">
		<tag k="fixme" v="consider natural=peak for the most distinct mountains in the district" />
		<tag k="name" v="Kaldvell sameie" />
		<tag k="natural" v="hill" />
		<tag k="place" v="locality" />
		<tag k="ssr:stedsnr" v="446839" />
	</node>
	<node lat="58.205469448515146" lon="8.346775008242723" id="-39646">
		<tag k="name" v="Styggedalen" />
		<tag k="natural" v="valley" />
		<tag k="place" v="locality" />
		<tag k="ssr:stedsnr" v="446842" />
	</node>
	<node lat="58.304702775872926" lon="8.425972216352825" id="-39650">
		<tag k="name" v="Frontehaven" />
		<tag k="natural" v="valley" />
		<tag k="place" v="locality" />
		<tag k="ssr:stedsnr" v="446645" />
	</node>
	<node lat="58.303502778002915" lon="8.419113893727241" id="-39651">
		<tag k="fixme" v="consider natural=peak for the most distinct mountains in the district" />
		<tag k="name" v="Bjellåsen" />
		<tag k="natural" v="hill" />
		<tag k="place" v="locality" />
		<tag k="ssr:stedsnr" v="446648" />
	</node>
	<node lat="58.25849999771471" lon="8.34351388954643" id="-39652">
		<tag k="name" v="Borkedalen" />
		<tag k="natural" v="valley" />
		<tag k="place" v="locality" />
		<tag k="ssr:stedsnr" v="446655" />
	</node>
	<node lat="58.22114444260577" lon="8.284891670074236" id="-39666">
		<tag k="name" v="Dybedal" />
		<tag k="natural" v="valley" />
		<tag k="place" v="locality" />
		<tag k="ssr:stedsnr" v="447436" />
	</node>
	<node lat="58.287888892514424" lon="8.387349991522449" id="-39668">
		<tag k="name" v="Rollaugsdal" />
		<tag k="natural" v="valley" />
		<tag k="place" v="locality" />
		<tag k="ssr:stedsnr" v="447755" />
	</node>
	<node lat="58.2359277751316" lon="8.236300007557684" id="-39672">
		<tag k="name" v="Brannheia" />
		<tag k="natural" v="hill" />
		<tag k="place" v="locality" />
		<tag k="ssr:stedsnr" v="507043" />
	</node>
	<node lat="58.19719722231888" lon="8.338947217431999" id="-39674">
		<tag k="name" v="Nedre Buvollen" />
		<tag k="place" v="locality" />
		<tag k="ssr:stedsnr" v="506284" />
	</node>
	<node lat="58.22132222237332" lon="8.341880552648501" id="-39681">
		<tag k="name" v="Kobbergruva" />
		<tag k="place" v="locality" />
		<tag k="ssr:stedsnr" v="506632" />
	</node>
	<node lat="58.15996111311902" lon="8.232386103417795" id="-39688">
		<tag k="fixme" v="consider natural=peak for the most distinct mountains in the district" />
		<tag k="name" v="Teråsen" />
		<tag k="natural" v="hill" />
		<tag k="place" v="locality" />
		<tag k="ssr:stedsnr" v="506395" />
	</node>
	<node lat="58.22060555583809" lon="8.228702774923393" id="-39702">
		<tag k="fixme" v="consider natural=peak for the most distinct mountains in the district" />
		<tag k="name" v="Buansknuten" />
		<tag k="natural" v="hill" />
		<tag k="place" v="locality" />
		<tag k="ssr:stedsnr" v="507048" />
	</node>
	<node lat="58.133486106908926" lon="8.225224995685597" id="-39704">
		<tag k="fixme" v="consider natural=peak for the most distinct mountains in the district" />
		<tag k="name" v="Buhusheia" />
		<tag k="natural" v="hill" />
		<tag k="place" v="locality" />
		<tag k="ssr:stedsnr" v="507155" />
	</node>
	<node lat="58.31930277693347" lon="8.397569445371518" id="-39709">
		<tag k="name" v="Pallene" />
		<tag k="place" v="locality" />
		<tag k="ssr:stedsnr" v="507250" />
	</node>
	<node lat="58.31115832903253" lon="8.340283336842681" id="-39710">
		<tag k="name" v="Stebrådene" />
		<tag k="natural" v="slope" />
		<tag k="place" v="locality" />
		<tag k="ssr:stedsnr" v="507252" />
	</node>
	<node lat="58.26749166237423" lon="8.264408330806086" id="-39711">
		<tag k="name" v="Broneheia" />
		<tag k="natural" v="hill" />
		<tag k="place" v="locality" />
		<tag k="ssr:stedsnr" v="507309" />
	</node>
	<node lat="58.32038888994557" lon="8.309986113169995" id="-39713">
		<tag k="fixme" v="consider natural=peak for the most distinct mountains in the district" />
		<tag k="name" v="Tingsbekkåsen" />
		<tag k="natural" v="hill" />
		<tag k="place" v="locality" />
		<tag k="ssr:stedsnr" v="507320" />
	</node>
	<node lat="58.20552777452546" lon="8.24115833811677" id="-39714">
		<tag k="fixme" v="consider natural=peak for the most distinct mountains in the district" />
		<tag k="name" v="Store Badstufjell" />
		<tag k="natural" v="hill" />
		<tag k="place" v="locality" />
		<tag k="ssr:stedsnr" v="507325" />
	</node>
	<node lat="58.24197500218598" lon="8.26954444005543" id="-39715">
		<tag k="fixme" v="consider natural=peak for the most distinct mountains in the district" />
		<tag k="name" v="Flubergåsen" />
		<tag k="natural" v="hill" />
		<tag k="place" v="locality" />
		<tag k="ssr:stedsnr" v="507332" />
	</node>
	<node lat="58.25173055619792" lon="8.26476388337229" id="-39716">
		<tag k="fixme" v="consider natural=peak for the most distinct mountains in the district" />
		<tag k="name" v="Morasberg" />
		<tag k="natural" v="hill" />
		<tag k="place" v="locality" />
		<tag k="ssr:stedsnr" v="507339" />
	</node>
	<node lat="58.249236115620604" lon="8.260652779531773" id="-39717">
		<tag k="name" v="Saudalen" />
		<tag k="natural" v="valley" />
		<tag k="place" v="locality" />
		<tag k="ssr:stedsnr" v="507343" />
	</node>
	<node lat="58.25296389219926" lon="8.2501888859415" id="-39718">
		<tag k="name" v="Røyeheia" />
		<tag k="natural" v="hill" />
		<tag k="place" v="locality" />
		<tag k="ssr:stedsnr" v="507346" />
	</node>
	<node lat="58.16893333480743" lon="8.210547226024856" id="-39719">
		<tag k="name" v="Trollfjell" />
		<tag k="natural" v="hill" />
		<tag k="place" v="locality" />
		<tag k="ssr:stedsnr" v="507186" />
	</node>
	<node lat="58.16333333199993" lon="8.215258325533016" id="-39720">
		<tag k="name" v="Rauvigheia" />
		<tag k="natural" v="hill" />
		<tag k="place" v="locality" />
		<tag k="ssr:stedsnr" v="507187" />
	</node>
	<node lat="58.250755559288926" lon="8.228247220391454" id="-39725">
		<tag k="name" v="Breiehei" />
		<tag k="natural" v="hill" />
		<tag k="place" v="locality" />
		<tag k="ssr:stedsnr" v="507292" />
	</node>
	<node lat="58.2275388876199" lon="8.348530552063547" id="-39726">
		<tag k="name" v="Askedalen" />
		<tag k="natural" v="valley" />
		<tag k="place" v="locality" />
		<tag k="ssr:stedsnr" v="507384" />
	</node>
	<node lat="58.196466666972164" lon="8.34699722186915" id="-39728">
		<tag k="name" v="Taraldshei" />
		<tag k="natural" v="hill" />
		<tag k="place" v="locality" />
		<tag k="ssr:stedsnr" v="507452" />
	</node>
	<node lat="58.230861110720895" lon="8.244661105279619" id="-39749">
		<tag k="alt_name" v="Gåsehei" />
		<tag k="fixme" v="consider natural=peak for the most distinct mountains in the district" />
		<tag k="name" v="Gåsheia" />
		<tag k="natural" v="hill" />
		<tag k="place" v="locality" />
		<tag k="ssr:stedsnr" v="546273" />
	</node>
	<node lat="58.26345555160991" lon="8.300124994700207" id="-39753">
		<tag k="alt_name" v="Lonekniben" />
		<tag k="fixme" v="consider natural=peak for the most distinct mountains in the district" />
		<tag k="name" v="Loneknipen" />
		<tag k="natural" v="hill" />
		<tag k="place" v="locality" />
		<tag k="ssr:stedsnr" v="546689" />
	</node>
	<node lat="58.20764722221426" lon="8.348919439701413" id="-39755">
		<tag k="name" v="Bonjeåsen" />
		<tag k="natural" v="hill" />
		<tag k="place" v="locality" />
		<tag k="ssr:stedsnr" v="546437" />
	</node>
	<node lat="58.210263889681045" lon="8.36893333310214" id="-39756">
		<tag k="name" v="Vedeheia" />
		<tag k="natural" v="hill" />
		<tag k="place" v="locality" />
		<tag k="ssr:stedsnr" v="546438" />
	</node>
	<node lat="58.21395833002085" lon="8.197813889589904" id="-39759">
		<tag k="fixme" v="consider natural=peak for the most distinct mountains in the district" />
		<tag k="name" v="Finnheia" />
		<tag k="natural" v="hill" />
		<tag k="place" v="locality" />
		<tag k="ssr:stedsnr" v="546451" />
	</node>
	<node lat="58.22033889065367" lon="8.266794437843771" id="-39760">
		<tag k="name" v="Barlindmoen" />
		<tag k="place" v="locality" />
		<tag k="ssr:stedsnr" v="567045" />
	</node>
	<node lat="58.23468333091614" lon="8.260327777797078" id="-39761">
		<tag k="name" v="Liane" />
		<tag k="natural" v="slope" />
		<tag k="place" v="locality" />
		<tag k="ssr:stedsnr" v="567039" />
	</node>
	<node lat="58.19525277387" lon="8.216711116388941" id="-39762">
		<tag k="name" v="Palleheia" />
		<tag k="natural" v="hill" />
		<tag k="place" v="locality" />
		<tag k="ssr:stedsnr" v="567136" />
	</node>
	<node lat="58.188233332060996" lon="8.19232221793361" id="-39766">
		<tag k="name" v="Moneheia" />
		<tag k="natural" v="hill" />
		<tag k="place" v="locality" />
		<tag k="ssr:stedsnr" v="567077" />
	</node>
	<node lat="58.17276110733578" lon="8.269936102789481" id="-39769">
		<tag k="name" v="Røynevarddalen" />
		<tag k="natural" v="valley" />
		<tag k="place" v="locality" />
		<tag k="ssr:stedsnr" v="567195" />
	</node>
	<node lat="58.30778611339335" lon="8.327150000363424" id="-39773">
		<tag k="name" v="Bjørnehjelet" />
		<tag k="place" v="locality" />
		<tag k="ssr:stedsnr" v="567298" />
	</node>
	<node lat="58.22335000330267" lon="8.345305559834989" id="-39774">
		<tag k="fixme" v="consider natural=peak for the most distinct mountains in the district" />
		<tag k="name" v="Savåsen" />
		<tag k="natural" v="hill" />
		<tag k="place" v="locality" />
		<tag k="ssr:stedsnr" v="567391" />
	</node>
	<node lat="58.28230555510171" lon="8.323294440068377" id="-39776">
		<tag k="name" v="Sandhaugene" />
		<tag k="natural" v="hill" />
		<tag k="place" v="locality" />
		<tag k="ssr:stedsnr" v="567829" />
	</node>
	<node lat="58.27561667024605" lon="8.363544441339325" id="-39777">
		<tag k="name" v="Vardeheia" />
		<tag k="natural" v="hill" />
		<tag k="place" v="locality" />
		<tag k="ssr:stedsnr" v="567835" />
	</node>
	<node lat="58.21571388936333" lon="8.344547219541878" id="-39779">
		<tag k="fixme" v="consider natural=peak for the most distinct mountains in the district" />
		<tag k="name" v="Kvernhusheia" />
		<tag k="natural" v="hill" />
		<tag k="place" v="locality" />
		<tag k="ssr:stedsnr" v="567839" />
	</node>
	<node lat="58.202922224831525" lon="8.357069436555058" id="-39780">
		<tag k="name" v="Frierheia" />
		<tag k="natural" v="hill" />
		<tag k="place" v="locality" />
		<tag k="ssr:stedsnr" v="567840" />
	</node>
	<node lat="58.164847224213446" lon="8.15880555464649" id="-39782">
		<tag k="fixme" v="consider natural=peak for the most distinct mountains in the district" />
		<tag k="name" v="Stemåsen" />
		<tag k="natural" v="hill" />
		<tag k="place" v="locality" />
		<tag k="ssr:stedsnr" v="567246" />
	</node>
	<node lat="58.31393333501955" lon="8.339286119610923" id="-39784">
		<tag k="name" v="Geitestien" />
		<tag k="natural" v="slope" />
		<tag k="place" v="locality" />
		<tag k="ssr:stedsnr" v="567250" />
	</node>
	<node lat="58.22828888489694" lon="8.217772223492819" id="-39787">
		<tag k="name" v="Jordbærheia" />
		<tag k="natural" v="hill" />
		<tag k="place" v="locality" />
		<tag k="ssr:stedsnr" v="567313" />
	</node>
	<node lat="58.26005277835309" lon="8.255091659082833" id="-39789">
		<tag k="name" v="Viemyrsmauet" />
		<tag k="natural" v="valley" />
		<tag k="place" v="locality" />
		<tag k="ssr:stedsnr" v="567321" />
	</node>
	<node lat="58.328416671168135" lon="8.296294447693962" id="-39790">
		<tag k="name" v="Veneli" />
		<tag k="natural" v="slope" />
		<tag k="place" v="locality" />
		<tag k="ssr:stedsnr" v="567325" />
	</node>
	<node lat="58.32651944789697" lon="8.340261117402754" id="-39792">
		<tag k="name" v="Strandheia" />
		<tag k="natural" v="hill" />
		<tag k="place" v="locality" />
		<tag k="ssr:stedsnr" v="567330" />
	</node>
	<node lat="58.25119167063025" lon="8.24362500641384" id="-39802">
		<tag k="fixme" v="consider natural=peak for the most distinct mountains in the district" />
		<tag k="name" v="Heftåsen" />
		<tag k="natural" v="hill" />
		<tag k="place" v="locality" />
		<tag k="ssr:stedsnr" v="567351" />
	</node>
	<node lat="58.24002222053904" lon="8.282574994700926" id="-39804">
		<tag k="name" v="Trettheia" />
		<tag k="natural" v="hill" />
		<tag k="place" v="locality" />
		<tag k="ssr:stedsnr" v="567429" />
	</node>
	<node lat="58.24552500048892" lon="8.301358334961696" id="-39805">
		<tag k="name" v="Skumdalen" />
		<tag k="natural" v="valley" />
		<tag k="place" v="locality" />
		<tag k="ssr:stedsnr" v="567434" />
	</node>
	<node lat="58.234055551707925" lon="8.338213890765536" id="-39812">
		<tag k="fixme" v="consider natural=peak for the most distinct mountains in the district" />
		<tag k="name" v="Vardåsen" />
		<tag k="natural" v="hill" />
		<tag k="place" v="locality" />
		<tag k="ssr:stedsnr" v="567395" />
	</node>
</osm>
