<?xml version="1.0" encoding="UTF-8"?>
<osm version="0.6" generator="osmapis">
	<node lat="58.192902780904106" lon="8.252677775625772" id="-31201">
		<tag k="bridge" v="yes" />
		<tag k="layer" v="1" />
		<tag k="name" v="Holtevann" />
		<tag k="ssr:stedsnr" v="46207" />
	</node>
	<node lat="58.25278611399047" lon="8.372747222307375" id="-31301">
		<tag k="bridge" v="yes" />
		<tag k="layer" v="1" />
		<tag k="name" v="Fagertun" />
		<tag k="ssr:stedsnr" v="107174" />
	</node>
	<node lat="58.21576388718262" lon="8.280283335189235" id="-31302">
		<tag k="bridge" v="yes" />
		<tag k="layer" v="1" />
		<tag k="name" v="Dalane" />
		<tag k="ssr:stedsnr" v="107175" />
	</node>
	<node lat="58.2159083367137" lon="8.271583338477544" id="-31374">
		<tag k="bridge" v="yes" />
		<tag k="layer" v="1" />
		<tag k="name" v="Østre Vallesverd" />
		<tag k="ssr:stedsnr" v="168157" />
	</node>
	<node lat="58.19822778012044" lon="8.219122227989576" id="-31375">
		<tag k="bridge" v="yes" />
		<tag k="layer" v="1" />
		<tag k="name" v="Kråkevatn" />
		<tag k="ssr:stedsnr" v="168162" />
	</node>
	<node lat="58.234730555393426" lon="8.293383333542849" id="-31436">
		<tag k="ford" v="yes" />
		<tag k="name" v="Bjellandsvad" />
		<tag k="place" v="locality" />
		<tag k="ssr:stedsnr" v="264367" />
	</node>
	<node lat="58.22460555319538" lon="8.351316667807057" id="-31588">
		<tag k="bridge" v="yes" />
		<tag k="layer" v="1" />
		<tag k="name" v="Justøy" />
		<tag k="ssr:stedsnr" v="289193" />
	</node>
	<node lat="58.16393611283355" lon="8.217477770145818" id="-31646">
		<tag k="bridge" v="yes" />
		<tag k="layer" v="1" />
		<tag k="name" v="Årsnes" />
		<tag k="ssr:stedsnr" v="471157" />
	</node>
	<node lat="58.194566670083965" lon="8.346424998347086" id="-31693">
		<tag k="man_made" v="quay" />
		<tag k="name" v="Indre havn" />
		<tag k="place" v="locality" />
		<tag k="ssr:stedsnr" v="385686" />
	</node>
	<node lat="58.24450555700604" lon="8.221202772926823" id="-31726">
		<tag k="bridge" v="yes" />
		<tag k="layer" v="1" />
		<tag k="name" v="Kornbrekke" />
		<tag k="ssr:stedsnr" v="411213" />
	</node>
	<node lat="58.169933329731826" lon="8.231575001723357" id="-31788">
		<tag k="bridge" v="yes" />
		<tag k="layer" v="1" />
		<tag k="name" v="Høvåg" />
		<tag k="ssr:stedsnr" v="471204" />
	</node>
	<node lat="58.27792222163899" lon="8.422636108151261" id="-31789">
		<tag k="bridge" v="yes" />
		<tag k="layer" v="1" />
		<tag k="name" v="Kaldvell store" />
		<tag k="ssr:stedsnr" v="471209" />
	</node>
	<node lat="58.24674721914536" lon="8.370069445839867" id="-31790">
		<tag k="bridge" v="yes" />
		<tag k="layer" v="1" />
		<tag k="name" v="Solgården" />
		<tag k="ssr:stedsnr" v="471164" />
	</node>
	<node lat="58.24015277885772" lon="8.35954999160931" id="-31791">
		<tag k="bridge" v="yes" />
		<tag k="layer" v="1" />
		<tag k="name" v="Sekkebekk" />
		<tag k="ssr:stedsnr" v="471168" />
	</node>
	<node lat="58.214030557349105" lon="8.315511112438845" id="-31891">
		<tag k="fixme" v="verify maritime location" />
		<tag k="mooring" v="yes" />
		<tag k="name" v="Kosvigstø" />
		<tag k="place" v="locality" />
		<tag k="ssr:stedsnr" v="688722" />
	</node>
	<node lat="58.312561114496326" lon="8.315019443785431" id="-31917">
		<tag k="highway" v="path" />
		<tag k="name" v="Hanses vei" />
		<tag k="ssr:stedsnr" v="689302" />
	</node>
	<node lat="58.200530555864184" lon="8.237675000091912" id="-31998">
		<tag k="bridge" v="yes" />
		<tag k="layer" v="1" />
		<tag k="name" v="Vallesverdmyra" />
		<tag k="ssr:stedsnr" v="592163" />
	</node>
	<node lat="58.20929444745808" lon="8.252866668918283" id="-31999">
		<tag k="bridge" v="yes" />
		<tag k="layer" v="1" />
		<tag k="name" v="Trøe" />
		<tag k="ssr:stedsnr" v="592167" />
	</node>
	<node lat="58.165752776432534" lon="8.190941663230145" id="-32000">
		<tag k="bridge" v="yes" />
		<tag k="layer" v="1" />
		<tag k="name" v="Kvåse" />
		<tag k="ssr:stedsnr" v="592173" />
	</node>
	<node lat="58.25276111047948" lon="8.37225555734238" id="-32001">
		<tag k="bridge" v="yes" />
		<tag k="layer" v="1" />
		<tag k="name" v="Lofthus" />
		<tag k="ssr:stedsnr" v="592175" />
	</node>
	<node lat="58.184280850097636" lon="8.315740101991707" id="-32095">
		<tag k="landuse" v="harbour" />
		<tag k="name" v="Ågerøyhavn" />
		<tag k="seamark:type" v="harbour" />
		<tag k="ssr:stedsnr" v="667399" />
	</node>
	<node lat="58.21974444716589" lon="8.304475005929744" id="-32159">
		<tag k="alt_name" v="Fjelldal" />
		<tag k="bridge" v="yes" />
		<tag k="layer" v="1" />
		<tag k="name" v="Prestebrua" />
		<tag k="ssr:stedsnr" v="690497" />
	</node>
	<node lat="58.22238889096787" lon="8.250047225809755" id="-32161">
		<tag k="bridge" v="yes" />
		<tag k="layer" v="1" />
		<tag k="name" v="Gåsedal" />
		<tag k="ssr:stedsnr" v="896202" />
	</node>
	<node lat="58.288088886601855" lon="8.289258329153174" id="-32162">
		<tag k="bridge" v="yes" />
		<tag k="layer" v="1" />
		<tag k="name" v="Skjerpe" />
		<tag k="ssr:stedsnr" v="714128" />
	</node>
	<node lat="58.143500001461526" lon="8.216877779732561" id="-32228">
		<tag k="junction" v="yes" />
		<tag k="name" v="Hæstadsvingen" />
		<tag k="place" v="locality" />
		<tag k="ssr:stedsnr" v="749918" />
	</node>
	<node lat="58.16387221857369" lon="8.259816664204687" id="-32291">
		<tag k="junction" v="yes" />
		<tag k="name" v="Kassen" />
		<tag k="place" v="locality" />
		<tag k="ssr:stedsnr" v="810208" />
	</node>
	<node lat="58.157044447243635" lon="8.18725833577577" id="-32412">
		<tag k="fixme" v="verify maritime location" />
		<tag k="mooring" v="yes" />
		<tag k="name" v="Haslestø" />
		<tag k="place" v="locality" />
		<tag k="ssr:stedsnr" v="931384" />
	</node>
	<node lat="58.189791668958144" lon="8.319375000651984" id="-32466">
		<tag k="fixme" v="verify maritime location" />
		<tag k="mooring" v="yes" />
		<tag k="name" v="Østerstø" />
		<tag k="place" v="locality" />
		<tag k="ssr:stedsnr" v="932465" />
	</node>
	<node lat="58.25369167005729" lon="8.34356111180682" id="-32486">
		<tag k="highway" v="path" />
		<tag k="name" v="Kjerkeveien" />
		<tag k="ssr:stedsnr" v="932900" />
	</node>
	<node lat="58.22730832925408" lon="8.30557222728749" id="-32547">
		<tag k="highway" v="path" />
		<tag k="name" v="Postveien" />
		<tag k="ssr:stedsnr" v="933486" />
	</node>
	<node lat="58.24639961911212" lon="8.379567311046193" id="-32578">
		<tag k="man_made" v="quay" />
		<tag k="name" v="Langbrygga" />
		<tag k="place" v="locality" />
		<tag k="ssr:stedsnr" v="982433" />
	</node>
	<node lat="58.24835243695947" lon="8.378454680790417" id="-32579">
		<tag k="man_made" v="quay" />
		<tag k="name" v="Tollbubrygga" />
		<tag k="place" v="locality" />
		<tag k="ssr:stedsnr" v="982436" />
	</node>
	<node lat="58.2470058698207" lon="8.38346773867806" id="-32580">
		<tag k="man_made" v="quay" />
		<tag k="name" v="Dypvannskaia" />
		<tag k="place" v="locality" />
		<tag k="ssr:stedsnr" v="982437" />
	</node>
</osm>
