<?xml version="1.0" encoding="UTF-8"?>
<osm version="0.6" generator="osmapis">
	<node lat="58.258852780159444" lon="8.365216666598325" id="-59598">
		<tag k="alt_name" v="Moland, vestre" />
		<tag k="amenity" v="place_of_worship" />
		<tag k="denomination" v="lutheran" />
		<tag k="name" v="Vestre Moland kirke" />
		<tag k="religion" v="christian" />
		<tag k="ssr:stedsnr" v="182694" />
	</node>
	<node lat="58.31932500188336" lon="8.396194449056807" id="-59608">
		<tag k="name" v="Middagsplassen" />
		<tag k="place" v="locality" />
		<tag k="ssr:stedsnr" v="264266" />
	</node>
	<node lat="58.31965555870456" lon="8.295397222139309" id="-59889">
		<tag k="name" v="Gonnerstua" />
		<tag k="place" v="locality" />
		<tag k="ssr:stedsnr" v="385300" />
	</node>
	<node lat="58.20487778175546" lon="8.361363893930832" id="-59923">
		<tag k="amenity" v="place_of_worship" />
		<tag k="denomination" v="lutheran" />
		<tag k="name" v="Justøy" />
		<tag k="religion" v="christian" />
		<tag k="ssr:stedsnr" v="485341" />
	</node>
	<node lat="58.31403888691436" lon="8.401408330519049" id="-60354">
		<tag k="name" v="Bjørnehiet" />
		<tag k="place" v="locality" />
		<tag k="ssr:stedsnr" v="689287" />
	</node>
	<node lat="58.319938892716465" lon="8.351344437545979" id="-60504">
		<tag k="name" v="Hovet" />
		<tag k="place" v="locality" />
		<tag k="ssr:stedsnr" v="810312" />
	</node>
	<node lat="58.19149722231366" lon="8.262136119339196" id="-60595">
		<tag k="name" v="Rygge" />
		<tag k="place" v="locality" />
		<tag k="ssr:stedsnr" v="871513" />
	</node>
	<node lat="58.26285866044259" lon="8.277334830322168" id="-60902">
		<tag k="name" v="Storehei" />
		<tag k="place" v="locality" />
		<tag k="ssr:stedsnr" v="721" />
	</node>
	<node lat="58.314869444103294" lon="8.382569443379381" id="-61036">
		<tag k="name" v="Bleget" />
		<tag k="place" v="locality" />
		<tag k="ssr:stedsnr" v="82294" />
	</node>
	<node lat="58.1676271315954" lon="8.249773247711014" id="-61488">
		<tag k="alt_name" v="Høvåg;Høvåg kjerke" />
		<tag k="amenity" v="place_of_worship" />
		<tag k="denomination" v="lutheran" />
		<tag k="name" v="Høvåg kirke" />
		<tag k="religion" v="christian" />
		<tag k="ssr:stedsnr" v="425600" />
	</node>
	<node lat="58.261155553271486" lon="8.359769441906712" id="-61957">
		<tag k="amenity" v="community_centre" />
		<tag k="name" v="Voll" />
		<tag k="ssr:stedsnr" v="788701" />
	</node>
	<node lat="58.321261107034225" lon="8.39922499829305" id="-62017">
		<tag k="name" v="Trekongen" />
		<tag k="place" v="locality" />
		<tag k="ssr:stedsnr" v="810278" />
	</node>
</osm>
