<?xml version="1.0" encoding="UTF-8"?>
<<<<<<< HEAD
<osm version="0.6" generator="osmapis">
	<node lat="58.18700833457939" lon="8.210080550638068" id="-38779">
		<tag k="name" v="Klappekjerr" />
		<tag k="natural" v="wetland" />
		<tag k="ssr:stedsnr" v="22083" />
	</node>
	<node lat="58.16730000140997" lon="8.183102778276046" id="-38784">
		<tag k="landuse" v="meadow" />
		<tag k="name" v="Haven" />
		<tag k="ssr:stedsnr" v="22206" />
	</node>
	<node lat="58.162727774376314" lon="8.186675003213608" id="-38785">
		<tag k="name" v="Bukksteinen" />
		<tag k="natural" v="stone" />
		<tag k="ssr:stedsnr" v="22209" />
	</node>
	<node lat="58.32721944282933" lon="8.3142333331853" id="-38788">
		<tag k="name" v="Hjelmmyrene" />
		<tag k="natural" v="wetland" />
		<tag k="ssr:stedsnr" v="22313" />
	</node>
	<node lat="58.25710278013314" lon="8.271591672404279" id="-38790">
		<tag k="name" v="Bjellandsmyra" />
		<tag k="natural" v="wetland" />
		<tag k="ssr:stedsnr" v="22341" />
	</node>
	<node lat="58.29048333397665" lon="8.40327500200448" id="-38801">
		<tag k="name" v="Tjønnmyrene" />
		<tag k="natural" v="wetland" />
		<tag k="ssr:stedsnr" v="22786" />
	</node>
	<node lat="58.292808337028234" lon="8.438552770355106" id="-38803">
		<tag k="name" v="Skibbuvoll" />
		<tag k="place" v="locality" />
		<tag k="ssr:stedsnr" v="22796" />
	</node>
	<node lat="58.18225277877382" lon="8.172147229769184" id="-38855">
		<tag k="name" v="Trollmyr" />
		<tag k="natural" v="wetland" />
		<tag k="ssr:stedsnr" v="82104" />
	</node>
	<node lat="58.20501111180745" lon="8.20519999242318" id="-38857">
		<tag k="name" v="Vidalsmyra" />
		<tag k="natural" v="wetland" />
		<tag k="ssr:stedsnr" v="82145" />
	</node>
	<node lat="58.1686416650849" lon="8.25999721851696" id="-38860">
		<tag k="name" v="Østrefidja" />
		<tag k="place" v="locality" />
		<tag k="ssr:stedsnr" v="82193" />
	</node>
	<node lat="58.24147222160757" lon="8.252833338988237" id="-38861">
		<tag k="name" v="Torvmyr" />
		<tag k="natural" v="wetland" />
		<tag k="ssr:stedsnr" v="82307" />
	</node>
	<node lat="58.24980555839664" lon="8.25018333678078" id="-38867">
		<tag k="name" v="Droemyr" />
		<tag k="natural" v="wetland" />
		<tag k="ssr:stedsnr" v="82343" />
	</node>
	<node lat="58.19032222030081" lon="8.211386107276171" id="-38870">
		<tag k="name" v="Ormestølmyr" />
		<tag k="natural" v="wetland" />
		<tag k="ssr:stedsnr" v="82095" />
	</node>
	<node lat="58.16916666723458" lon="8.201466668848312" id="-38873">
		<tag k="name" v="Sommermyra" />
		<tag k="natural" v="wetland" />
		<tag k="ssr:stedsnr" v="82213" />
	</node>
	<node lat="58.30288055803131" lon="8.438616662576756" id="-38892">
		<tag k="name" v="Storemyr" />
		<tag k="natural" v="wetland" />
		<tag k="ssr:stedsnr" v="82634" />
	</node>
	<node lat="58.13196388766266" lon="8.227247222348826" id="-38928">
		<tag k="name" v="Glytningsvågmyra" />
		<tag k="natural" v="wetland" />
		<tag k="ssr:stedsnr" v="142203" />
	</node>
	<node lat="58.24231389138453" lon="8.294447228760156" id="-38940">
		<tag k="name" v="Legdene" />
		<tag k="place" v="locality" />
		<tag k="ssr:stedsnr" v="142425" />
	</node>
	<node lat="58.28301666974228" lon="8.286636102609476" id="-38951">
		<tag k="name" v="Haremyr" />
		<tag k="natural" v="wetland" />
		<tag k="ssr:stedsnr" v="142826" />
	</node>
	<node lat="58.28777499682833" lon="8.292883328306308" id="-38952">
		<tag k="name" v="Skreddermyra" />
		<tag k="place" v="locality" />
		<tag k="ssr:stedsnr" v="142837" />
	</node>
	<node lat="58.12543611317317" lon="8.226736108792938" id="-38960">
		<tag k="name" v="Årekjerr" />
		<tag k="natural" v="wetland" />
		<tag k="ssr:stedsnr" v="142903" />
	</node>
	<node lat="58.15860278165247" lon="8.16025000743791" id="-38968">
		<tag k="name" v="Hestmyr" />
		<tag k="natural" v="wetland" />
		<tag k="ssr:stedsnr" v="143209" />
	</node>
	<node lat="58.310647222113104" lon="8.350055558870386" id="-38969">
		<tag k="name" v="Ospemyra" />
		<tag k="natural" v="wetland" />
		<tag k="ssr:stedsnr" v="143227" />
	</node>
	<node lat="58.17941110880042" lon="8.161788884685956" id="-38970">
		<tag k="name" v="Sydingsmyr" />
		<tag k="natural" v="wetland" />
		<tag k="ssr:stedsnr" v="142984" />
	</node>
	<node lat="58.1806750000603" lon="8.156508339563082" id="-38971">
		<tag k="name" v="Leigåsmyr" />
		<tag k="natural" v="wetland" />
		<tag k="ssr:stedsnr" v="142989" />
	</node>
	<node lat="58.32793611332999" lon="8.353652769922103" id="-38972">
		<tag k="name" v="Grasmyr" />
		<tag k="natural" v="wetland" />
		<tag k="ssr:stedsnr" v="143303" />
	</node>
	<node lat="58.25289444445422" lon="8.256122213937774" id="-38974">
		<tag k="name" v="Kjerrgårdsmyr" />
		<tag k="natural" v="wetland" />
		<tag k="ssr:stedsnr" v="143329" />
	</node>
	<node lat="58.216997221842924" lon="8.207361106350573" id="-38975">
		<tag k="name" v="Raundalsmyr" />
		<tag k="natural" v="wetland" />
		<tag k="ssr:stedsnr" v="143288" />
	</node>
	<node lat="58.262158337476464" lon="8.2643777692833" id="-38981">
		<tag k="name" v="Heståsmyra" />
		<tag k="natural" v="wetland" />
		<tag k="ssr:stedsnr" v="325341" />
	</node>
	<node lat="58.21419444736092" lon="8.276797222753563" id="-39004">
		<tag k="name" v="Plankekjerr" />
		<tag k="place" v="locality" />
		<tag k="ssr:stedsnr" v="264033" />
	</node>
	<node lat="58.31973333551432" lon="8.399680561041366" id="-39006">
		<tag k="name" v="Pallemyr" />
		<tag k="natural" v="wetland" />
		<tag k="ssr:stedsnr" v="264264" />
	</node>
	<node lat="58.20052222072693" lon="8.232116659034192" id="-39024">
		<tag k="name" v="Buhola" />
		<tag k="place" v="locality" />
		<tag k="ssr:stedsnr" v="264136" />
	</node>
	<node lat="58.21065278009257" lon="8.255688882272498" id="-39026">
		<tag k="name" v="Masseskjerr" />
		<tag k="natural" v="wetland" />
		<tag k="ssr:stedsnr" v="264116" />
	</node>
	<node lat="58.15376110746945" lon="8.192663887325656" id="-39032">
		<tag k="name" v="Sømsmyr" />
		<tag k="place" v="locality" />
		<tag k="ssr:stedsnr" v="264217" />
	</node>
	<node lat="58.164663888662" lon="8.170044448798263" id="-39034">
		<tag k="name" v="Åkjellen" />
		<tag k="place" v="locality" />
		<tag k="ssr:stedsnr" v="264229" />
	</node>
	<node lat="58.163058330812355" lon="8.159488882400616" id="-39035">
		<tag k="name" v="Juskeplassmyr" />
		<tag k="natural" v="wetland" />
		<tag k="ssr:stedsnr" v="264231" />
	</node>
	<node lat="58.23843055372157" lon="8.272086110552014" id="-39036">
		<tag k="name" v="Heftemyra" />
		<tag k="natural" v="wetland" />
		<tag k="ssr:stedsnr" v="264352" />
	</node>
	<node lat="58.29769999884459" lon="8.295133326580741" id="-39045">
		<tag k="name" v="Krogvannsmyra" />
		<tag k="natural" v="wetland" />
		<tag k="ssr:stedsnr" v="264822" />
	</node>
	<node lat="58.258549997670734" lon="8.384555547628981" id="-39049">
		<tag k="name" v="Stykkene" />
		<tag k="place" v="locality" />
		<tag k="ssr:stedsnr" v="264930" />
	</node>
	<node lat="58.305161110289106" lon="8.40993889617323" id="-39067">
		<tag k="name" v="Ponnidalsmyr" />
		<tag k="natural" v="wetland" />
		<tag k="ssr:stedsnr" v="264620" />
	</node>
	<node lat="58.272266670055885" lon="8.404099991963399" id="-39070">
		<tag k="name" v="Flaten" />
		<tag k="natural" v="wetland" />
		<tag k="ssr:stedsnr" v="264853" />
	</node>
	<node lat="58.29282221920022" lon="8.392883326005538" id="-39073">
		<tag k="name" v="Porsmyr" />
		<tag k="natural" v="wetland" />
		<tag k="ssr:stedsnr" v="264781" />
	</node>
	<node lat="58.22040277609523" lon="8.317533339725994" id="-39077">
		<tag k="name" v="Blaudemyr" />
		<tag k="natural" v="wetland" />
		<tag k="ssr:stedsnr" v="265439" />
	</node>
	<node lat="58.20822778024082" lon="8.350827779533766" id="-39079">
		<tag k="name" v="Bonjeåsmyra" />
		<tag k="natural" v="wetland" />
		<tag k="ssr:stedsnr" v="203301" />
	</node>
	<node lat="58.16867500051022" lon="8.252694439479269" id="-39095">
		<tag k="name" v="Hjemmefidja" />
		<tag k="place" v="locality" />
		<tag k="ssr:stedsnr" v="204141" />
	</node>
	<node lat="58.224538889850216" lon="8.233572216024006" id="-39103">
		<tag k="name" v="Skrubbekjerrane" />
		<tag k="natural" v="wetland" />
		<tag k="ssr:stedsnr" v="204042" />
	</node>
	<node lat="58.22256111523076" lon="8.230061114252855" id="-39104">
		<tag k="name" v="Bumyrane" />
		<tag k="natural" v="wetland" />
		<tag k="ssr:stedsnr" v="204043" />
	</node>
	<node lat="58.2148722217075" lon="8.271650002107442" id="-39108">
		<tag k="name" v="Småkjerrane" />
		<tag k="place" v="locality" />
		<tag k="ssr:stedsnr" v="204091" />
	</node>
	<node lat="58.25930555110466" lon="8.204102775104856" id="-39110">
		<tag k="name" v="Vardåssteinen" />
		<tag k="natural" v="stone" />
		<tag k="ssr:stedsnr" v="204307" />
	</node>
	<node lat="58.23532777857877" lon="8.27862499452945" id="-39117">
		<tag k="name" v="Vallesverdmyra" />
		<tag k="natural" v="wetland" />
		<tag k="ssr:stedsnr" v="204400" />
	</node>
	<node lat="58.296088888205865" lon="8.319266672926888" id="-39129">
		<tag k="name" v="Krossmyr" />
		<tag k="natural" v="wetland" />
		<tag k="ssr:stedsnr" v="204809" />
	</node>
	<node lat="58.2695694481226" lon="8.400877777367294" id="-39134">
		<tag k="name" v="Tuemyr" />
		<tag k="natural" v="wetland" />
		<tag k="ssr:stedsnr" v="204845" />
	</node>
	<node lat="58.238627773793745" lon="8.252283335443908" id="-39157">
		<tag k="name" v="Vårmyr" />
		<tag k="natural" v="wetland" />
		<tag k="ssr:stedsnr" v="264315" />
	</node>
	<node lat="58.12541388549518" lon="8.228844449808388" id="-39183">
		<tag k="name" v="Sandemyra" />
		<tag k="natural" v="wetland" />
		<tag k="ssr:stedsnr" v="264897" />
	</node>
	<node lat="58.222041669043364" lon="8.335291673724814" id="-39185">
		<tag k="name" v="Lauvekjerra" />
		<tag k="natural" v="wetland" />
		<tag k="ssr:stedsnr" v="265434" />
	</node>
	<node lat="58.20364166770073" lon="8.23263055041715" id="-39226">
		<tag k="name" v="Staksmyr" />
		<tag k="natural" v="wetland" />
		<tag k="ssr:stedsnr" v="325127" />
	</node>
	<node lat="58.20102778231747" lon="8.189222230508527" id="-39228">
		<tag k="name" v="Buane" />
		<tag k="place" v="locality" />
		<tag k="ssr:stedsnr" v="325148" />
	</node>
	<node lat="58.32197778021379" lon="8.34885554970889" id="-39234">
		<tag k="name" v="Tjæremoen" />
		<tag k="place" v="locality" />
		<tag k="ssr:stedsnr" v="325326" />
	</node>
	<node lat="58.2501972262423" lon="8.26783055614354" id="-39235">
		<tag k="name" v="Orremyra" />
		<tag k="natural" v="wetland" />
		<tag k="ssr:stedsnr" v="325368" />
	</node>
	<node lat="58.22823055485213" lon="8.26863333445335" id="-39265">
		<tag k="name" v="Bumyrane" />
		<tag k="natural" v="wetland" />
		<tag k="ssr:stedsnr" v="385061" />
	</node>
	<node lat="58.19151666506855" lon="8.272630561679149" id="-39266">
		<tag k="name" v="Flesimyrane" />
		<tag k="natural" v="wetland" />
		<tag k="ssr:stedsnr" v="385062" />
	</node>
	<node lat="58.18955277388735" lon="8.268747215085185" id="-39267">
		<tag k="name" v="Flesiskogen" />
		<tag k="place" v="locality" />
		<tag k="ssr:stedsnr" v="385063" />
	</node>
	<node lat="58.17151389017316" lon="8.211744436966331" id="-39268">
		<tag k="name" v="Flettane" />
		<tag k="place" v="locality" />
		<tag k="ssr:stedsnr" v="385220" />
	</node>
	<node lat="58.208830559548694" lon="8.238130558557508" id="-39270">
		<tag k="name" v="Rennane" />
		<tag k="place" v="locality" />
		<tag k="ssr:stedsnr" v="385150" />
	</node>
	<node lat="58.320955551987666" lon="8.335522218049103" id="-39274">
		<tag k="name" v="Sundsmyra" />
		<tag k="natural" v="wetland" />
		<tag k="ssr:stedsnr" v="385312" />
	</node>
	<node lat="58.254113889359736" lon="8.266374992251839" id="-39278">
		<tag k="name" v="Ospåsmyra" />
		<tag k="natural" v="wetland" />
		<tag k="ssr:stedsnr" v="385364" />
	</node>
	<node lat="58.123752774993065" lon="8.20776389205808" id="-39279">
		<tag k="name" v="Ura" />
		<tag k="natural" v="scree" />
		<tag k="ssr:stedsnr" v="385370" />
	</node>
	<node lat="58.159438888434934" lon="8.169099993815257" id="-39282">
		<tag k="name" v="Vattmyr" />
		<tag k="natural" v="wetland" />
		<tag k="ssr:stedsnr" v="385246" />
	</node>
	<node lat="58.16584721984139" lon="8.18064166464312" id="-39283">
		<tag k="name" v="Åsane" />
		<tag k="natural" v="wetland" />
		<tag k="ssr:stedsnr" v="385252" />
	</node>
	<node lat="58.322163887207346" lon="8.297513882861413" id="-39285">
		<tag k="name" v="Porsmyr" />
		<tag k="natural" v="wetland" />
		<tag k="ssr:stedsnr" v="385297" />
	</node>
	<node lat="58.26248889135133" lon="8.292363883708754" id="-39288">
		<tag k="name" v="Svennsmyr" />
		<tag k="natural" v="wetland" />
		<tag k="ssr:stedsnr" v="385420" />
	</node>
	<node lat="58.290508329855754" lon="8.407544446852846" id="-39298">
		<tag k="name" v="Bertelsmyr" />
		<tag k="natural" v="wetland" />
		<tag k="ssr:stedsnr" v="385802" />
	</node>
	<node lat="58.28683888697573" lon="8.307461110505088" id="-39301">
		<tag k="name" v="Andersmyr" />
		<tag k="natural" v="wetland" />
		<tag k="ssr:stedsnr" v="385823" />
	</node>
	<node lat="58.26930000203771" lon="8.409947215756942" id="-39305">
		<tag k="name" v="Flodda" />
		<tag k="place" v="locality" />
		<tag k="ssr:stedsnr" v="385853" />
	</node>
	<node lat="58.30061944771175" lon="8.34447778314889" id="-39309">
		<tag k="name" v="Bertilsmyr" />
		<tag k="natural" v="wetland" />
		<tag k="ssr:stedsnr" v="386750" />
	</node>
	<node lat="58.29950555512921" lon="8.358502775406146" id="-39310">
		<tag k="name" v="Hundemyra" />
		<tag k="natural" v="wetland" />
		<tag k="ssr:stedsnr" v="386752" />
	</node>
	<node lat="58.2198750032257" lon="8.29122222080744" id="-39338">
		<tag k="name" v="Kloppemyra" />
		<tag k="natural" v="wetland" />
		<tag k="ssr:stedsnr" v="425451" />
	</node>
	<node lat="58.15664722267484" lon="8.165577775487284" id="-39350">
		<tag k="name" v="Langemyr" />
		<tag k="natural" v="wetland" />
		<tag k="ssr:stedsnr" v="446275" />
	</node>
	<node lat="58.31760277873995" lon="8.34601666490519" id="-39351">
		<tag k="name" v="Grimekollmyra" />
		<tag k="natural" v="wetland" />
		<tag k="ssr:stedsnr" v="446286" />
	</node>
	<node lat="58.3077527734498" lon="8.384630558834246" id="-39352">
		<tag k="name" v="Vasshaugmyra" />
		<tag k="natural" v="wetland" />
		<tag k="ssr:stedsnr" v="446292" />
	</node>
	<node lat="58.295594447728305" lon="8.43883333871621" id="-39383">
		<tag k="name" v="Lillemyr" />
		<tag k="natural" v="wetland" />
		<tag k="ssr:stedsnr" v="446805" />
	</node>
	<node lat="58.19135555670268" lon="8.339597226676663" id="-39413">
		<tag k="name" v="Greibesteinen" />
		<tag k="natural" v="stone" />
		<tag k="ssr:stedsnr" v="506666" />
	</node>
	<node lat="58.19175833456875" lon="8.19079443950727" id="-39428">
		<tag k="name" v="Slettevoll" />
		<tag k="place" v="locality" />
		<tag k="ssr:stedsnr" v="507065" />
	</node>
	<node lat="58.18009166228199" lon="8.172380562103733" id="-39429">
		<tag k="name" v="Klappekjerrane" />
		<tag k="natural" v="wetland" />
		<tag k="ssr:stedsnr" v="507081" />
	</node>
	<node lat="58.18211388923039" lon="8.177563893094243" id="-39430">
		<tag k="name" v="Eigedalsmyra" />
		<tag k="natural" v="wetland" />
		<tag k="ssr:stedsnr" v="507083" />
	</node>
	<node lat="58.17072777940227" lon="8.174827783671564" id="-39431">
		<tag k="name" v="Solummyr" />
		<tag k="natural" v="wetland" />
		<tag k="ssr:stedsnr" v="507207" />
	</node>
	<node lat="58.16533333498548" lon="8.185169450514351" id="-39432">
		<tag k="landuse" v="meadow" />
		<tag k="name" v="Vesterjordet" />
		<tag k="ssr:stedsnr" v="507211" />
	</node>
	<node lat="58.211686106927885" lon="8.224936109991617" id="-39438">
		<tag k="name" v="Parken" />
		<tag k="natural" v="wetland" />
		<tag k="ssr:stedsnr" v="507120" />
	</node>
	<node lat="58.268641666014645" lon="8.319872230442725" id="-39441">
		<tag k="name" v="Fjellmannen" />
		<tag k="natural" v="stone" />
		<tag k="ssr:stedsnr" v="507356" />
	</node>
	<node lat="58.280736110611436" lon="8.30315555914345" id="-39443">
		<tag k="name" v="Småmyrene" />
		<tag k="natural" v="wetland" />
		<tag k="ssr:stedsnr" v="507365" />
	</node>
	<node lat="58.22346389154526" lon="8.374422214668975" id="-39447">
		<tag k="name" v="Vassdalsmyra" />
		<tag k="place" v="locality" />
		<tag k="ssr:stedsnr" v="507413" />
	</node>
	<node lat="58.18301944714005" lon="8.309563890990368" id="-39449">
		<tag k="name" v="Lillemyr" />
		<tag k="natural" v="wetland" />
		<tag k="ssr:stedsnr" v="507464" />
	</node>
	<node lat="58.28892500360148" lon="8.385705560646013" id="-39453">
		<tag k="name" v="Hellermyra" />
		<tag k="natural" v="wetland" />
		<tag k="ssr:stedsnr" v="507781" />
	</node>
	<node lat="58.24378610814804" lon="8.334677769958715" id="-39454">
		<tag k="name" v="Follaustykket" />
		<tag k="place" v="locality" />
		<tag k="ssr:stedsnr" v="507920" />
	</node>
	<node lat="58.17015000254016" lon="8.272813894669776" id="-39483">
		<tag k="name" v="Langekjerr" />
		<tag k="natural" v="wetland" />
		<tag k="ssr:stedsnr" v="688364" />
	</node>
	<node lat="58.17861944380395" lon="8.252130563219449" id="-39502">
		<tag k="name" v="Raunane" />
		<tag k="place" v="locality" />
		<tag k="ssr:stedsnr" v="689053" />
	</node>
	<node lat="58.19638888953967" lon="8.188797216091654" id="-39513">
		<tag k="name" v="Bjørndalsmyra" />
		<tag k="place" v="locality" />
		<tag k="ssr:stedsnr" v="689161" />
	</node>
	<node lat="58.15659166522378" lon="8.20634722857062" id="-39519">
		<tag k="name" v="Dyblemyr" />
		<tag k="natural" v="wetland" />
		<tag k="ssr:stedsnr" v="689228" />
	</node>
	<node lat="58.25176111300964" lon="8.233997220872084" id="-39522">
		<tag k="name" v="Byttingskjerr" />
		<tag k="natural" v="wetland" />
		<tag k="ssr:stedsnr" v="689324" />
	</node>
	<node lat="58.165763887053146" lon="8.164144445066645" id="-39523">
		<tag k="name" v="Snemyr" />
		<tag k="place" v="locality" />
		<tag k="ssr:stedsnr" v="689268" />
	</node>
	<node lat="58.24428333031288" lon="8.222677772940154" id="-39527">
		<tag k="name" v="Steene" />
		<tag k="natural" v="wetland" />
		<tag k="ssr:stedsnr" v="689353" />
	</node>
	<node lat="58.24662222592698" lon="8.25789444183652" id="-39529">
		<tag k="name" v="Lyngmyr" />
		<tag k="natural" v="wetland" />
		<tag k="ssr:stedsnr" v="689367" />
	</node>
	<node lat="58.18358888571393" lon="8.309638881908842" id="-39531">
		<tag k="name" v="Storemyr" />
		<tag k="place" v="locality" />
		<tag k="ssr:stedsnr" v="689458" />
	</node>
	<node lat="58.289558331222885" lon="8.393172221088074" id="-39533">
		<tag k="name" v="Langemyr" />
		<tag k="natural" v="wetland" />
		<tag k="ssr:stedsnr" v="689729" />
	</node>
	<node lat="58.29383610979695" lon="8.43579722920587" id="-39537">
		<tag k="landuse" v="meadow" />
		<tag k="name" v="Bådstø" />
		<tag k="ssr:stedsnr" v="689766" />
	</node>
	<node lat="58.274075002306205" lon="8.416450000423511" id="-39538">
		<tag k="name" v="Tjuholla" />
		<tag k="place" v="locality" />
		<tag k="ssr:stedsnr" v="689843" />
	</node>
	<node lat="58.286583330124145" lon="8.340877773404761" id="-39544">
		<tag k="name" v="Blaudemyr" />
		<tag k="natural" v="wetland" />
		<tag k="ssr:stedsnr" v="690795" />
	</node>
	<node lat="58.186149996242364" lon="8.180755550714286" id="-39548">
		<tag k="name" v="Treskomyr" />
		<tag k="natural" v="wetland" />
		<tag k="ssr:stedsnr" v="567106" />
	</node>
	<node lat="58.17971667096082" lon="8.187913889157768" id="-39549">
		<tag k="name" v="Galtekjerrane" />
		<tag k="natural" v="wetland" />
		<tag k="ssr:stedsnr" v="567112" />
	</node>
	<node lat="58.312152775311496" lon="8.396066671769749" id="-39564">
		<tag k="name" v="Bjørnmyr" />
		<tag k="natural" v="wetland" />
		<tag k="ssr:stedsnr" v="567276" />
	</node>
	<node lat="58.26396389284219" lon="8.279975003500931" id="-39566">
		<tag k="name" v="Steene" />
		<tag k="natural" v="wetland" />
		<tag k="ssr:stedsnr" v="567411" />
	</node>
	<node lat="58.24867222589507" lon="8.236894441909563" id="-39569">
		<tag k="name" v="Tygesmyr" />
		<tag k="natural" v="wetland" />
		<tag k="ssr:stedsnr" v="567305" />
	</node>
	<node lat="58.245736112490086" lon="8.380044451914326" id="-39581">
		<tag k="name" v="Ura" />
		<tag k="natural" v="scree" />
		<tag k="ssr:stedsnr" v="567625" />
	</node>
	<node lat="58.26573611265428" lon="8.400022214212044" id="-39596">
		<tag k="name" v="Kirkemyra" />
		<tag k="natural" v="wetland" />
		<tag k="ssr:stedsnr" v="567869" />
	</node>
	<node lat="58.281458334779806" lon="8.336722217611175" id="-39599">
		<tag k="name" v="Røyrmyr" />
		<tag k="natural" v="wetland" />
		<tag k="ssr:stedsnr" v="568758" />
	</node>
	<node lat="58.28384444005467" lon="8.392786112114644" id="-39600">
		<tag k="name" v="Banemyra" />
		<tag k="natural" v="wetland" />
		<tag k="ssr:stedsnr" v="568761" />
	</node>
	<node lat="58.20670000167149" lon="8.343827774202284" id="-39649">
		<tag k="name" v="Nesemyra" />
		<tag k="natural" v="wetland" />
		<tag k="ssr:stedsnr" v="628007" />
	</node>
	<node lat="58.20253055623219" lon="8.214355553649602" id="-39652">
		<tag k="name" v="Slåtta" />
		<tag k="natural" v="wetland" />
		<tag k="ssr:stedsnr" v="628113" />
	</node>
	<node lat="58.21703332950943" lon="8.220416663248042" id="-39663">
		<tag k="name" v="Trøe-løemyrene" />
		<tag k="natural" v="wetland" />
		<tag k="ssr:stedsnr" v="628311" />
	</node>
	<node lat="58.2703305595412" lon="8.26190554909273" id="-39665">
		<tag k="name" v="Kalvekjerra" />
		<tag k="natural" v="wetland" />
		<tag k="ssr:stedsnr" v="628322" />
	</node>
	<node lat="58.23839722291092" lon="8.268205554178078" id="-39666">
		<tag k="name" v="Røymyr" />
		<tag k="natural" v="wetland" />
		<tag k="ssr:stedsnr" v="628345" />
	</node>
	<node lat="58.246641670908" lon="8.264799992375949" id="-39667">
		<tag k="name" v="Mademyr" />
		<tag k="natural" v="wetland" />
		<tag k="ssr:stedsnr" v="628346" />
	</node>
	<node lat="58.28715833762145" lon="8.390322218795605" id="-39677">
		<tag k="name" v="Kaldvellmyra" />
		<tag k="place" v="locality" />
		<tag k="ssr:stedsnr" v="628750" />
	</node>
	<node lat="58.19146111318984" lon="8.163233339513633" id="-39680">
		<tag k="name" v="Stegenesmyra" />
		<tag k="natural" v="wetland" />
		<tag k="ssr:stedsnr" v="628941" />
	</node>
	<node lat="58.209847226317024" lon="8.314313887250563" id="-39715">
		<tag k="name" v="Tinnegra" />
		<tag k="place" v="locality" />
		<tag k="ssr:stedsnr" v="688708" />
	</node>
	<node lat="58.167819442243086" lon="8.259033335184567" id="-39725">
		<tag k="name" v="Fuglekjerr" />
		<tag k="natural" v="wetland" />
		<tag k="ssr:stedsnr" v="689204" />
	</node>
	<node lat="58.17436666224219" lon="8.176452778402023" id="-39730">
		<tag k="name" v="Røyrmyr" />
=======
<osm generator="osmapis" version="0.6">
	<node id="-533248" lat="58.2621583375" lon="8.26437776928">
		<tag k="name" v="Heståsmyra" />
		<tag k="natural" v="wetland" />
		<tag k="ssr:stedsnr" v="325341" />
	</node>
	<node id="-531454" lat="58.2187611139" lon="8.32524443929">
		<tag k="name" v="Lindemyr" />
		<tag k="natural" v="wetland" />
		<tag k="ssr:stedsnr" v="83421" />
	</node>
	<node id="-532475" lat="58.3190305588" lon="8.40728056097">
		<tag k="name" v="Storerøys" />
		<tag k="natural" v="stone" />
		<tag k="ssr:stedsnr" v="932276" />
	</node>
	<node id="-532986" lat="58.1254361132" lon="8.22673610879">
		<tag k="name" v="Årekjerr" />
		<tag k="natural" v="wetland" />
		<tag k="ssr:stedsnr" v="142903" />
	</node>
	<node id="-531449" lat="58.2507138923" lon="8.3695638922">
		<tag k="name" v="Rennehaven" />
		<tag k="place" v="locality" />
		<tag k="ssr:stedsnr" v="82929" />
	</node>
	<node id="-532471" lat="58.2478694483" lon="8.24391110361">
		<tag k="name" v="Spjellreskjerrene" />
		<tag k="natural" v="wetland" />
		<tag k="ssr:stedsnr" v="932351" />
	</node>
	<node id="-532470" lat="58.2487944423" lon="8.2452444452">
		<tag k="name" v="Heståskjerrene" />
		<tag k="natural" v="wetland" />
		<tag k="ssr:stedsnr" v="932349" />
	</node>
	<node id="-532468" lat="58.257102782" lon="8.20508055167">
		<tag k="name" v="Flademyrene" />
		<tag k="natural" v="wetland" />
		<tag k="ssr:stedsnr" v="932336" />
	</node>
	<node id="-533491" lat="58.2497972237" lon="8.25294721691">
		<tag k="name" v="Diplemyr" />
		<tag k="natural" v="wetland" />
		<tag k="ssr:stedsnr" v="567349" />
	</node>
	<node id="-531954" lat="58.2955944477" lon="8.43883333872">
		<tag k="name" v="Lillemyr" />
		<tag k="natural" v="wetland" />
		<tag k="ssr:stedsnr" v="446805" />
	</node>
	<node id="-532465" lat="58.1709583367" lon="8.21021666194">
		<tag k="name" v="Flettemyr" />
		<tag k="natural" v="wetland" />
		<tag k="ssr:stedsnr" v="932198" />
	</node>
	<node id="-533999" lat="58.2177722187" lon="8.28848610586">
		<tag k="name" v="Dalemyra" />
		<tag k="place" v="locality" />
		<tag k="ssr:stedsnr" v="872499" />
	</node>
	<node id="-533998" lat="58.2255166644" lon="8.2980499967">
		<tag k="name" v="Granemyra" />
		<tag k="natural" v="wetland" />
		<tag k="ssr:stedsnr" v="872489" />
	</node>
	<node id="-533993" lat="58.2556583299" lon="8.33596389046">
		<tag k="name" v="Skifjellmyra" />
		<tag k="natural" v="wetland" />
		<tag k="ssr:stedsnr" v="871896" />
	</node>
	<node id="-532968" lat="58.2923833333" lon="8.38740278461">
		<tag k="name" v="Slåttemyra" />
		<tag k="natural" v="wetland" />
		<tag k="ssr:stedsnr" v="142792" />
	</node>
	<node id="-532455" lat="58.175913893" lon="8.18056944144">
		<tag k="name" v="Toremyr" />
		<tag k="natural" v="wetland" />
		<tag k="ssr:stedsnr" v="932101" />
	</node>
	<node id="-532539" lat="58.310319443" lon="8.30317499889">
		<tag k="name" v="Langemyr" />
		<tag k="natural" v="wetland" />
		<tag k="ssr:stedsnr" v="871274" />
	</node>
	<node id="-532453" lat="58.1777722247" lon="8.17698055432">
		<tag k="name" v="Juringsteinen" />
		<tag k="natural" v="stone" />
		<tag k="ssr:stedsnr" v="932090" />
	</node>
	<node id="-532452" lat="58.1913083341" lon="8.20232500809">
		<tag k="name" v="Lilleheimyr" />
		<tag k="natural" v="wetland" />
		<tag k="ssr:stedsnr" v="932080" />
	</node>
	<node id="-531622" lat="58.2038111134" lon="8.19986666991">
		<tag k="name" v="Søndreskauen" />
		<tag k="place" v="locality" />
		<tag k="ssr:stedsnr" v="446166" />
	</node>
	<node id="-531938" lat="58.2169333302" lon="8.21738055024">
		<tag k="name" v="Skrubbkjerrene" />
		<tag k="natural" v="wetland" />
		<tag k="ssr:stedsnr" v="446354" />
	</node>
	<node id="-532449" lat="58.1901833295" lon="8.19105278174">
		<tag k="name" v="Myra" />
		<tag k="place" v="locality" />
		<tag k="ssr:stedsnr" v="932073" />
	</node>
	<node id="-532448" lat="58.1798666691" lon="8.25276111372">
		<tag k="name" v="Bronen" />
		<tag k="place" v="locality" />
		<tag k="ssr:stedsnr" v="932070" />
	</node>
	<node id="-532447" lat="58.1737472262" lon="8.24785278216">
		<tag k="name" v="Krogen" />
		<tag k="place" v="locality" />
		<tag k="ssr:stedsnr" v="932068" />
	</node>
	<node id="-532999" lat="58.1586027817" lon="8.16025000744">
		<tag k="name" v="Hestmyr" />
		<tag k="natural" v="wetland" />
		<tag k="ssr:stedsnr" v="143209" />
	</node>
	<node id="-531618" lat="58.201050001" lon="8.23781944886">
		<tag k="name" v="Kastane" />
		<tag k="place" v="locality" />
		<tag k="ssr:stedsnr" v="446130" />
	</node>
	<node id="-533242" lat="58.3132861123" lon="8.40204444092">
		<tag k="landuse" v="quarry" />
		<tag k="name" v="Klebersteinsgruva" />
		<tag k="ssr:stedsnr" v="325296" />
	</node>
	<node id="-533464" lat="58.179716671" lon="8.18791388916">
		<tag k="name" v="Galtekjerrane" />
		<tag k="natural" v="wetland" />
		<tag k="ssr:stedsnr" v="567112" />
	</node>
	<node id="-531415" lat="58.1691666672" lon="8.20146666885">
		<tag k="name" v="Sommermyra" />
		<tag k="natural" v="wetland" />
		<tag k="ssr:stedsnr" v="82213" />
	</node>
	<node id="-532438" lat="58.1975249991" lon="8.1863972285">
		<tag k="name" v="Haven" />
		<tag k="place" v="locality" />
		<tag k="ssr:stedsnr" v="932150" />
	</node>
	<node id="-532729" lat="58.1901249998" lon="8.21787778161">
		<tag k="name" v="Røymyr" />
		<tag k="natural" v="wetland" />
		<tag k="ssr:stedsnr" v="22051" />
	</node>
	<node id="-533460" lat="58.186227782" lon="8.19379166853">
		<tag k="name" v="Isefjærmyr" />
		<tag k="place" v="locality" />
		<tag k="ssr:stedsnr" v="567076" />
	</node>
	<node id="-533458" lat="58.1882583301" lon="8.22588888533">
		<tag k="name" v="Slåtta" />
		<tag k="place" v="locality" />
		<tag k="ssr:stedsnr" v="567064" />
	</node>
	<node id="-533969" lat="58.214758335" lon="8.38210278159">
		<tag k="name" v="Danemyr" />
		<tag k="natural" v="wetland" />
		<tag k="ssr:stedsnr" v="871451" />
	</node>
	<node id="-533968" lat="58.1963972232" lon="8.35892499429">
		<tag k="name" v="Hamrevoll" />
		<tag k="place" v="locality" />
		<tag k="ssr:stedsnr" v="871448" />
	</node>
	<node id="-531406" lat="58.2414722216" lon="8.25283333899">
		<tag k="name" v="Torvmyr" />
		<tag k="natural" v="wetland" />
		<tag k="ssr:stedsnr" v="82307" />
	</node>
	<node id="-531917" lat="58.2198750032" lon="8.29122222081">
		<tag k="name" v="Kloppemyra" />
		<tag k="natural" v="wetland" />
		<tag k="ssr:stedsnr" v="425451" />
	</node>
	<node id="-533451" lat="58.3121527753" lon="8.39606667177">
		<tag k="name" v="Bjørnmyr" />
		<tag k="natural" v="wetland" />
		<tag k="ssr:stedsnr" v="567276" />
	</node>
	<node id="-531959" lat="58.291863886" lon="8.32389166017">
		<tag k="name" v="Stemtjønnmyra" />
		<tag k="natural" v="wetland" />
		<tag k="ssr:stedsnr" v="446834" />
	</node>
	<node id="-531400" lat="58.1822527788" lon="8.17214722977">
		<tag k="name" v="Trollmyr" />
		<tag k="natural" v="wetland" />
		<tag k="ssr:stedsnr" v="82104" />
	</node>
	<node id="-533959" lat="58.2563138929" lon="8.25904444877">
		<tag k="name" v="Sådemyr" />
		<tag k="natural" v="wetland" />
		<tag k="ssr:stedsnr" v="871338" />
	</node>
	<node id="-532934" lat="58.2423138914" lon="8.29444722876">
		<tag k="name" v="Legdene" />
		<tag k="place" v="locality" />
		<tag k="ssr:stedsnr" v="142425" />
	</node>
	<node id="-533956" lat="58.2486361104" lon="8.27345000533">
		<tag k="name" v="Rosåsmyra" />
		<tag k="natural" v="wetland" />
		<tag k="ssr:stedsnr" v="871334" />
	</node>
	<node id="-533954" lat="58.1621055545" lon="8.24389165902">
		<tag k="name" v="Spannsslåtta" />
		<tag k="place" v="locality" />
		<tag k="ssr:stedsnr" v="871330" />
	</node>
	<node id="-531904" lat="58.2889250036" lon="8.38570556065">
		<tag k="name" v="Hellermyra" />
		<tag k="natural" v="wetland" />
		<tag k="ssr:stedsnr" v="507781" />
	</node>
	<node id="-532925" lat="58.1725388922" lon="8.18991945266">
		<tag k="name" v="Sponsmyr" />
		<tag k="natural" v="wetland" />
		<tag k="ssr:stedsnr" v="142236" />
	</node>
	<node id="-532924" lat="58.1678416641" lon="8.20723611712">
		<tag k="name" v="Flettekjerr" />
		<tag k="natural" v="wetland" />
		<tag k="ssr:stedsnr" v="142230" />
	</node>
	<node id="-533066" lat="58.1472750007" lon="8.19839722088">
		<tag k="name" v="Bårdstykket" />
		<tag k="place" v="locality" />
		<tag k="ssr:stedsnr" v="203565" />
	</node>
	<node id="-532921" lat="58.1319638877" lon="8.22724722235">
		<tag k="name" v="Glytningsvågmyra" />
		<tag k="natural" v="wetland" />
		<tag k="ssr:stedsnr" v="142203" />
	</node>
	<node id="-533944" lat="58.2590166673" lon="8.25743055663">
		<tag k="name" v="Viemyr" />
		<tag k="natural" v="wetland" />
		<tag k="ssr:stedsnr" v="871297" />
	</node>
	<node id="-531956" lat="58.2822166689" lon="8.28677222435">
		<tag k="name" v="Bosskjerrmyra" />
		<tag k="natural" v="wetland" />
		<tag k="ssr:stedsnr" v="446811" />
	</node>
	<node id="-533941" lat="58.3149138893" lon="8.34660277623">
		<tag k="name" v="Eiesmyra" />
		<tag k="natural" v="wetland" />
		<tag k="ssr:stedsnr" v="871285" />
	</node>
	<node id="-533939" lat="58.1821833345" lon="8.18783611521">
		<tag k="name" v="Småmyrane" />
		<tag k="natural" v="wetland" />
		<tag k="ssr:stedsnr" v="871092" />
	</node>
	<node id="-531890" lat="58.2234638915" lon="8.37442221467">
		<tag k="name" v="Vassdalsmyra" />
		<tag k="place" v="locality" />
		<tag k="ssr:stedsnr" v="507413" />
	</node>
	<node id="-533937" lat="58.1767527777" lon="8.26141388715">
		<tag k="name" v="Kjerkemyra" />
		<tag k="natural" v="wetland" />
		<tag k="ssr:stedsnr" v="871051" />
	</node>
	<node id="-531887" lat="58.2807361106" lon="8.30315555914">
		<tag k="name" v="Småmyrene" />
		<tag k="natural" v="wetland" />
		<tag k="ssr:stedsnr" v="507365" />
	</node>
	<node id="-531885" lat="58.268641666" lon="8.31987223044">
		<tag k="name" v="Fjellmannen" />
		<tag k="natural" v="stone" />
		<tag k="ssr:stedsnr" v="507356" />
	</node>
	<node id="-532722" lat="58.1841333328" lon="8.1571249998">
		<tag k="name" v="Lyngmyr" />
		<tag k="natural" v="wetland" />
		<tag k="ssr:stedsnr" v="21981" />
	</node>
	<node id="-531497" lat="58.1537611075" lon="8.19266388733">
		<tag k="name" v="Sømsmyr" />
		<tag k="place" v="locality" />
		<tag k="ssr:stedsnr" v="264217" />
	</node>
	<node id="-531356" lat="58.3272194428" lon="8.31423333319">
		<tag k="name" v="Hjelmmyrene" />
		<tag k="natural" v="wetland" />
		<tag k="ssr:stedsnr" v="22313" />
	</node>
	<node id="-531366" lat="58.2547166644" lon="8.30666944028">
		<tag k="name" v="Geitemyr" />
		<tag k="natural" v="wetland" />
		<tag k="ssr:stedsnr" v="22430" />
	</node>
	<node id="-531365" lat="58.2546972235" lon="8.32484722145">
		<tag k="name" v="Tøemyr" />
		<tag k="natural" v="wetland" />
		<tag k="ssr:stedsnr" v="22421" />
	</node>
	<node id="-531876" lat="58.3097833336" lon="8.33706110792">
		<tag k="name" v="Synningsmyra" />
		<tag k="natural" v="wetland" />
		<tag k="ssr:stedsnr" v="507236" />
	</node>
	<node id="-531871" lat="58.165333335" lon="8.18516945051">
		<tag k="landuse" v="meadow" />
		<tag k="name" v="Vesterjordet" />
		<tag k="ssr:stedsnr" v="507211" />
	</node>
	<node id="-531870" lat="58.1707277794" lon="8.17482778367">
		<tag k="name" v="Solummyr" />
		<tag k="natural" v="wetland" />
		<tag k="ssr:stedsnr" v="507207" />
	</node>
	<node id="-531868" lat="58.1708527804" lon="8.21593611753">
		<tag k="name" v="Skaumyr" />
		<tag k="place" v="locality" />
		<tag k="ssr:stedsnr" v="507195" />
	</node>
	<node id="-532496" lat="58.2945194442" lon="8.40898055903">
		<tag k="name" v="Årdalsmyra" />
		<tag k="natural" v="wetland" />
		<tag k="ssr:stedsnr" v="932755" />
	</node>
	<node id="-533487" lat="58.3138749968" lon="8.29602500598">
		<tag k="name" v="Tereleiken" />
		<tag k="place" v="locality" />
		<tag k="ssr:stedsnr" v="567290" />
	</node>
	<node id="-531860" lat="58.2116861069" lon="8.22493610999">
		<tag k="name" v="Parken" />
		<tag k="natural" v="wetland" />
		<tag k="ssr:stedsnr" v="507120" />
	</node>
	<node id="-532974" lat="58.2830166697" lon="8.28663610261">
		<tag k="name" v="Haremyr" />
		<tag k="natural" v="wetland" />
		<tag k="ssr:stedsnr" v="142826" />
	</node>
	<node id="-531857" lat="58.1967750034" lon="8.2472138927">
		<tag k="name" v="Holsdalsmyr" />
		<tag k="natural" v="wetland" />
		<tag k="ssr:stedsnr" v="507100" />
	</node>
	<node id="-531856" lat="58.1821138892" lon="8.17756389309">
		<tag k="name" v="Eigedalsmyra" />
		<tag k="natural" v="wetland" />
		<tag k="ssr:stedsnr" v="507083" />
	</node>
	<node id="-531855" lat="58.1800916623" lon="8.1723805621">
		<tag k="name" v="Klappekjerrane" />
		<tag k="natural" v="wetland" />
		<tag k="ssr:stedsnr" v="507081" />
	</node>
	<node id="-531854" lat="58.1917583346" lon="8.19079443951">
		<tag k="name" v="Slettevoll" />
		<tag k="place" v="locality" />
		<tag k="ssr:stedsnr" v="507065" />
	</node>
	<node id="-531607" lat="58.2593055511" lon="8.2041027751">
		<tag k="name" v="Vardåssteinen" />
		<tag k="natural" v="stone" />
		<tag k="ssr:stedsnr" v="204307" />
	</node>
	<node id="-533740" lat="58.304866667" lon="8.408588887">
		<tag k="name" v="Plankekjerrene" />
		<tag k="natural" v="wetland" />
		<tag k="ssr:stedsnr" v="750628" />
	</node>
	<node id="-532604" lat="58.2238388872" lon="8.2095555641">
		<tag k="name" v="Ulsvassmyrene" />
		<tag k="natural" v="wetland" />
		<tag k="ssr:stedsnr" v="932310" />
	</node>
	<node id="-533142" lat="58.2960888882" lon="8.31926667293">
		<tag k="name" v="Krossmyr" />
		<tag k="natural" v="wetland" />
		<tag k="ssr:stedsnr" v="204809" />
	</node>
	<node id="-533013" lat="58.3311194416" lon="8.30418334035">
		<tag k="name" v="Dyblemyr" />
		<tag k="natural" v="wetland" />
		<tag k="ssr:stedsnr" v="143300" />
	</node>
	<node id="-531327" lat="58.1821611119" lon="8.19295833336">
		<tag k="name" v="Barlindmyr" />
		<tag k="natural" v="wetland" />
		<tag k="ssr:stedsnr" v="21130" />
	</node>
	<node id="-532349" lat="58.3022055579" lon="8.43814444124">
		<tag k="name" v="Storemyr" />
		<tag k="natural" v="wetland" />
		<tag k="ssr:stedsnr" v="749826" />
	</node>
	<node id="-532859" lat="58.2942722236" lon="8.33855556215">
		<tag k="name" v="Andersesmyr" />
		<tag k="natural" v="wetland" />
		<tag k="ssr:stedsnr" v="83779" />
	</node>
	<node id="-533369" lat="58.2974472216" lon="8.40180277936">
		<tag k="name" v="Husekjerra" />
		<tag k="natural" v="wetland" />
		<tag k="ssr:stedsnr" v="385789" />
	</node>
	<node id="-533367" lat="58.3099222262" lon="8.40449166483">
		<tag k="name" v="Hisåsmyr" />
		<tag k="natural" v="wetland" />
		<tag k="ssr:stedsnr" v="385651" />
	</node>
	<node id="-533366" lat="58.3097305585" lon="8.42403611432">
		<tag k="landuse" v="quarry" />
		<tag k="name" v="Gruvene" />
		<tag k="ssr:stedsnr" v="385644" />
	</node>
	<node id="-532484" lat="58.240191669" lon="8.30480278028">
		<tag k="name" v="Tjuehellermyra" />
		<tag k="natural" v="wetland" />
		<tag k="ssr:stedsnr" v="932431" />
	</node>
	<node id="-532849" lat="58.2904750021" lon="8.41059722829">
		<tag k="name" v="Jørensmyr" />
		<tag k="natural" v="wetland" />
		<tag k="ssr:stedsnr" v="82793" />
	</node>
	<node id="-533224" lat="58.1931972246" lon="8.21186666183">
		<tag k="name" v="Storemyr" />
		<tag k="natural" v="wetland" />
		<tag k="ssr:stedsnr" v="325091" />
	</node>
	<node id="-531820" lat="58.1913555567" lon="8.33959722668">
		<tag k="name" v="Greibesteinen" />
		<tag k="natural" v="stone" />
		<tag k="ssr:stedsnr" v="506666" />
	</node>
	<node id="-532330" lat="58.1978194486" lon="8.19177221951">
		<tag k="name" v="Bjørnekjerr" />
		<tag k="natural" v="wetland" />
		<tag k="ssr:stedsnr" v="749158" />
	</node>
	<node id="-532329" lat="58.2000027753" lon="8.19206944093">
		<tag k="name" v="Kviksdalsmyr" />
		<tag k="natural" v="wetland" />
		<tag k="ssr:stedsnr" v="749155" />
	</node>
	<node id="-531815" lat="58.1844944482" lon="8.31685277716">
		<tag k="name" v="Svåa" />
		<tag k="place" v="locality" />
		<tag k="ssr:stedsnr" v="506544" />
	</node>
	<node id="-532837" lat="58.302880558" lon="8.43861666258">
		<tag k="name" v="Storemyr" />
		<tag k="natural" v="wetland" />
		<tag k="ssr:stedsnr" v="82634" />
	</node>
	<node id="-532027" lat="58.2437861081" lon="8.33467776996">
		<tag k="name" v="Follaustykket" />
		<tag k="place" v="locality" />
		<tag k="ssr:stedsnr" v="507920" />
	</node>
	<node id="-533392" lat="58.2599472191" lon="8.42031944327">
		<tag k="name" v="Myra" />
		<tag k="place" v="locality" />
		<tag k="ssr:stedsnr" v="386737" />
	</node>
	<node id="-531805" lat="58.2995055551" lon="8.35850277541">
		<tag k="name" v="Hundemyra" />
		<tag k="natural" v="wetland" />
		<tag k="ssr:stedsnr" v="386752" />
	</node>
	<node id="-533340" lat="58.320955552" lon="8.33552221805">
		<tag k="name" v="Sundsmyra" />
		<tag k="natural" v="wetland" />
		<tag k="ssr:stedsnr" v="385312" />
	</node>
	<node id="-532315" lat="58.1975833298" lon="8.25064166714">
		<tag k="name" v="Savestemmen" />
		<tag k="natural" v="wetland" />
		<tag k="ssr:stedsnr" v="749115" />
	</node>
	<node id="-532314" lat="58.1958500018" lon="8.24178333646">
		<tag k="name" v="Varpeledet" />
		<tag k="place" v="locality" />
		<tag k="ssr:stedsnr" v="749109" />
	</node>
	<node id="-532313" lat="58.1789111088" lon="8.19633889353">
		<tag k="name" v="Tjønnrosmyra" />
		<tag k="natural" v="wetland" />
		<tag k="ssr:stedsnr" v="749106" />
	</node>
	<node id="-531799" lat="58.2905083299" lon="8.40754444685">
		<tag k="name" v="Bertelsmyr" />
		<tag k="natural" v="wetland" />
		<tag k="ssr:stedsnr" v="385802" />
	</node>
	<node id="-533334" lat="58.2549972258" lon="8.3029111059">
		<tag k="name" v="Vrengekjerrene" />
		<tag k="natural" v="wetland" />
		<tag k="ssr:stedsnr" v="385440" />
	</node>
	<node id="-533817" lat="58.3216805512" lon="8.35150833842">
		<tag k="landuse" v="meadow" />
		<tag k="name" v="Mollen" />
		<tag k="ssr:stedsnr" v="810314" />
	</node>
	<node id="-533332" lat="58.2624888914" lon="8.29236388371">
		<tag k="name" v="Svennsmyr" />
		<tag k="natural" v="wetland" />
		<tag k="ssr:stedsnr" v="385420" />
	</node>
	<node id="-533390" lat="58.2268333295" lon="8.27973055106">
		<tag k="name" v="Langemyr" />
		<tag k="natural" v="wetland" />
		<tag k="ssr:stedsnr" v="386437" />
	</node>
	<node id="-533329" lat="58.1594388884" lon="8.16909999382">
		<tag k="name" v="Vattmyr" />
		<tag k="natural" v="wetland" />
		<tag k="ssr:stedsnr" v="385246" />
	</node>
	<node id="-531792" lat="58.123752775" lon="8.20776389206">
		<tag k="name" v="Ura" />
		<tag k="natural" v="scree" />
		<tag k="ssr:stedsnr" v="385370" />
	</node>
	<node id="-531791" lat="58.2541138894" lon="8.26637499225">
		<tag k="name" v="Ospåsmyra" />
		<tag k="natural" v="wetland" />
		<tag k="ssr:stedsnr" v="385364" />
	</node>
	<node id="-533326" lat="58.3221638872" lon="8.29751388286">
		<tag k="name" v="Porsmyr" />
		<tag k="natural" v="wetland" />
		<tag k="ssr:stedsnr" v="385297" />
	</node>
	<node id="-532568" lat="58.3012416627" lon="8.4107888931">
		<tag k="name" v="Plankevollen" />
		<tag k="place" v="locality" />
		<tag k="ssr:stedsnr" v="871763" />
	</node>
	<node id="-533322" lat="58.2088305595" lon="8.23813055856">
		<tag k="name" v="Rennane" />
		<tag k="place" v="locality" />
		<tag k="ssr:stedsnr" v="385150" />
	</node>
	<node id="-532808" lat="58.2050111118" lon="8.20519999242">
		<tag k="name" v="Vidalsmyra" />
		<tag k="natural" v="wetland" />
		<tag k="ssr:stedsnr" v="82145" />
	</node>
	<node id="-533831" lat="58.2399111086" lon="8.28728333322">
		<tag k="name" v="Husemyra" />
		<tag k="natural" v="wetland" />
		<tag k="ssr:stedsnr" v="810442" />
	</node>
	<node id="-533318" lat="58.2259249998" lon="8.22360834177">
		<tag k="name" v="Svartensmyr" />
		<tag k="natural" v="wetland" />
		<tag k="ssr:stedsnr" v="385080" />
	</node>
	<node id="-532292" lat="58.2895583312" lon="8.39317222109">
		<tag k="name" v="Langemyr" />
		<tag k="natural" v="wetland" />
		<tag k="ssr:stedsnr" v="689729" />
	</node>
	<node id="-533814" lat="58.3195111128" lon="8.2920777712">
		<tag k="name" v="Dalene" />
		<tag k="place" v="locality" />
		<tag k="ssr:stedsnr" v="810291" />
	</node>
	<node id="-533825" lat="58.2633944411" lon="8.30574722169">
		<tag k="name" v="Buskemyrhollene" />
		<tag k="place" v="locality" />
		<tag k="ssr:stedsnr" v="810369" />
	</node>
	<node id="-532800" lat="58.1903222203" lon="8.21138610728">
		<tag k="name" v="Ormestølmyr" />
		<tag k="natural" v="wetland" />
		<tag k="ssr:stedsnr" v="82095" />
	</node>
	<node id="-531774" lat="58.1658472198" lon="8.18064166464">
		<tag k="name" v="Åsane" />
		<tag k="natural" v="wetland" />
		<tag k="ssr:stedsnr" v="385252" />
	</node>
	<node id="-531772" lat="58.1557611136" lon="8.20218611207">
		<tag k="name" v="Oterura" />
		<tag k="natural" v="scree" />
		<tag k="ssr:stedsnr" v="385227" />
	</node>
	<node id="-533819" lat="58.3296222256" lon="8.32797778012">
		<tag k="name" v="Froholtsteer" />
		<tag k="natural" v="wetland" />
		<tag k="ssr:stedsnr" v="810336" />
	</node>
	<node id="-531770" lat="58.1715138902" lon="8.21174443697">
		<tag k="name" v="Flettane" />
		<tag k="place" v="locality" />
		<tag k="ssr:stedsnr" v="385220" />
	</node>
	<node id="-531769" lat="58.2341694411" lon="8.23083889178">
		<tag k="name" v="Gausheimyra" />
		<tag k="natural" v="wetland" />
		<tag k="ssr:stedsnr" v="385075" />
	</node>
	<node id="-531767" lat="58.1895527739" lon="8.26874721509">
		<tag k="name" v="Flesiskogen" />
		<tag k="place" v="locality" />
		<tag k="ssr:stedsnr" v="385063" />
	</node>
	<node id="-531766" lat="58.1915166651" lon="8.27263056168">
		<tag k="name" v="Flesimyrane" />
		<tag k="natural" v="wetland" />
		<tag k="ssr:stedsnr" v="385062" />
	</node>
	<node id="-531765" lat="58.2282305549" lon="8.26863333445">
		<tag k="name" v="Bumyrane" />
		<tag k="natural" v="wetland" />
		<tag k="ssr:stedsnr" v="385061" />
	</node>
	<node id="-533991" lat="58.1878472227" lon="8.1585916664">
		<tag k="name" v="Kvernmyr" />
		<tag k="natural" v="wetland" />
		<tag k="ssr:stedsnr" v="871949" />
	</node>
	<node id="-533804" lat="58.1699888908" lon="8.16459721462">
		<tag k="name" v="Hundeholane" />
		<tag k="place" v="locality" />
		<tag k="ssr:stedsnr" v="810262" />
	</node>
	<node id="-533127" lat="58.2353277786" lon="8.27862499453">
		<tag k="name" v="Vallesverdmyra" />
>>>>>>> e1d4bc35ff8a6074a6f2e91616a996b547c36f15
		<tag k="natural" v="wetland" />
		<tag k="ssr:stedsnr" v="204400" />
	</node>
<<<<<<< HEAD
	<node lat="58.323125003833496" lon="8.3033611084126" id="-39735">
		<tag k="name" v="Dyblemyr" />
		<tag k="natural" v="wetland" />
		<tag k="ssr:stedsnr" v="689339" />
	</node>
	<node lat="58.30974722662394" lon="8.340197227373991" id="-39737">
		<tag k="name" v="Bjørnemyr" />
		<tag k="natural" v="wetland" />
		<tag k="ssr:stedsnr" v="689283" />
	</node>
	<node lat="58.314830552936634" lon="8.408466665356741" id="-39740">
		<tag k="name" v="Lillerøys" />
		<tag k="natural" v="stone" />
		<tag k="ssr:stedsnr" v="689292" />
	</node>
	<node lat="58.269813890463865" lon="8.294405551411469" id="-39744">
		<tag k="name" v="Tjæregrovmyrene" />
		<tag k="natural" v="wetland" />
		<tag k="ssr:stedsnr" v="689408" />
	</node>
	<node lat="58.2608111082261" lon="8.281147217171853" id="-39746">
		<tag k="name" v="Budalsmyr" />
		<tag k="natural" v="wetland" />
		<tag k="ssr:stedsnr" v="689414" />
	</node>
	<node lat="58.307697219562556" lon="8.407505559228039" id="-39749">
		<tag k="name" v="Gjelåsmyr" />
		<tag k="natural" v="wetland" />
		<tag k="ssr:stedsnr" v="689599" />
	</node>
	<node lat="58.27100278180779" lon="8.401530561633752" id="-39750">
		<tag k="name" v="Skrubbemyr" />
		<tag k="natural" v="wetland" />
		<tag k="ssr:stedsnr" v="689833" />
	</node>
	<node lat="58.17891110882162" lon="8.19633889352505" id="-39794">
		<tag k="name" v="Tjønnrosmyra" />
		<tag k="natural" v="wetland" />
		<tag k="ssr:stedsnr" v="749106" />
	</node>
	<node lat="58.19585000175712" lon="8.241783336456054" id="-39795">
		<tag k="name" v="Varpeledet" />
		<tag k="place" v="locality" />
		<tag k="ssr:stedsnr" v="749109" />
	</node>
	<node lat="58.30220555793336" lon="8.438144441236584" id="-39821">
		<tag k="name" v="Storemyr" />
		<tag k="natural" v="wetland" />
		<tag k="ssr:stedsnr" v="749826" />
	</node>
	<node lat="58.31320278164357" lon="8.338188895864842" id="-39836">
		<tag k="name" v="Bjørkekjerr" />
		<tag k="natural" v="wetland" />
		<tag k="ssr:stedsnr" v="750219" />
	</node>
	<node lat="58.25296944624232" lon="8.216544444765658" id="-39842">
		<tag k="name" v="Kornbrekkmyra" />
		<tag k="natural" v="wetland" />
		<tag k="ssr:stedsnr" v="750321" />
	</node>
	<node lat="58.21058055147641" lon="8.275125005537728" id="-39883">
		<tag k="name" v="Moltemyra" />
		<tag k="place" v="locality" />
		<tag k="ssr:stedsnr" v="810144" />
	</node>
	<node lat="58.32168055122418" lon="8.35150833841643" id="-39887">
		<tag k="landuse" v="meadow" />
		<tag k="name" v="Mollen" />
		<tag k="ssr:stedsnr" v="810314" />
	</node>
	<node lat="58.32962222560065" lon="8.327977780122943" id="-39888">
		<tag k="name" v="Froholtsteer" />
		<tag k="natural" v="wetland" />
		<tag k="ssr:stedsnr" v="810336" />
	</node>
	<node lat="58.32647777790637" lon="8.367411109695077" id="-39889">
		<tag k="name" v="Eftevassmyra" />
		<tag k="natural" v="wetland" />
		<tag k="ssr:stedsnr" v="810339" />
	</node>
	<node lat="58.17581389117026" lon="8.236586119469065" id="-39893">
		<tag k="name" v="Vekknes" />
		<tag k="place" v="locality" />
		<tag k="ssr:stedsnr" v="810098" />
	</node>
	<node lat="58.31951111279719" lon="8.292077771197523" id="-39899">
		<tag k="name" v="Dalene" />
		<tag k="place" v="locality" />
		<tag k="ssr:stedsnr" v="810291" />
	</node>
	<node lat="58.23029166488452" lon="8.216594444616678" id="-39951">
		<tag k="name" v="Raudmyr" />
		<tag k="natural" v="wetland" />
		<tag k="ssr:stedsnr" v="871303" />
	</node>
	<node lat="58.16210555450068" lon="8.243891659017532" id="-39959">
		<tag k="name" v="Spannsslåtta" />
		<tag k="place" v="locality" />
		<tag k="ssr:stedsnr" v="871330" />
	</node>
	<node lat="58.248636110417564" lon="8.273450005325437" id="-39961">
		<tag k="name" v="Rosåsmyra" />
=======
	<node id="-532257" lat="58.2359111095" lon="8.29908611418">
		<tag k="name" v="Brønningsmyr" />
		<tag k="natural" v="wetland" />
		<tag k="ssr:stedsnr" v="629459" />
	</node>
	<node id="-533792" lat="58.2105805515" lon="8.27512500554">
		<tag k="name" v="Moltemyra" />
		<tag k="place" v="locality" />
		<tag k="ssr:stedsnr" v="810144" />
	</node>
	<node id="-533791" lat="58.1758138912" lon="8.23658611947">
		<tag k="name" v="Vekknes" />
		<tag k="place" v="locality" />
		<tag k="ssr:stedsnr" v="810098" />
	</node>
	<node id="-533790" lat="58.2362277814" lon="8.23938611722">
		<tag k="name" v="Glastadmyra" />
		<tag k="natural" v="wetland" />
		<tag k="ssr:stedsnr" v="810076" />
	</node>
	<node id="-533789" lat="58.1788499981" lon="8.26723610306">
		<tag k="name" v="Kjerkemyra" />
		<tag k="place" v="locality" />
		<tag k="ssr:stedsnr" v="810067" />
	</node>
	<node id="-532764" lat="58.292808337" lon="8.43855277036">
		<tag k="name" v="Skibbuvoll" />
		<tag k="place" v="locality" />
		<tag k="ssr:stedsnr" v="22796" />
	</node>
	<node id="-533787" lat="58.2357194487" lon="8.25933889675">
		<tag k="name" v="Urdalsmyra" />
		<tag k="natural" v="wetland" />
		<tag k="ssr:stedsnr" v="810058" />
	</node>
	<node id="-532762" lat="58.290483334" lon="8.403275002">
		<tag k="name" v="Tjønnmyrene" />
		<tag k="natural" v="wetland" />
		<tag k="ssr:stedsnr" v="22786" />
	</node>
	<node id="-532481" lat="58.2504083367" lon="8.29101666056">
		<tag k="name" v="Føllsdalsmyra" />
		<tag k="natural" v="wetland" />
		<tag k="ssr:stedsnr" v="932429" />
	</node>
	<node id="-532760" lat="58.2956277755" lon="8.38990834135">
		<tag k="name" v="Skrubbemyra" />
		<tag k="natural" v="wetland" />
		<tag k="ssr:stedsnr" v="22774" />
	</node>
	<node id="-531475" lat="58.2141944474" lon="8.27679722275">
		<tag k="name" v="Plankekjerr" />
		<tag k="place" v="locality" />
		<tag k="ssr:stedsnr" v="264033" />
	</node>
	<node id="-532240" lat="58.2913416708" lon="8.42120556086">
		<tag k="name" v="Brentemyr" />
		<tag k="natural" v="wetland" />
		<tag k="ssr:stedsnr" v="628775" />
	</node>
	<node id="-532239" lat="58.3010555522" lon="8.40595000212">
		<tag k="name" v="Karisjordet" />
		<tag k="place" v="locality" />
		<tag k="ssr:stedsnr" v="628765" />
	</node>
	<node id="-533262" lat="58.298141665" lon="8.40756388548">
		<tag k="name" v="Kaldvellhaven" />
		<tag k="place" v="locality" />
		<tag k="ssr:stedsnr" v="325758" />
	</node>
	<node id="-532975" lat="58.2877749968" lon="8.29288332831">
		<tag k="name" v="Skreddermyra" />
		<tag k="place" v="locality" />
		<tag k="ssr:stedsnr" v="142837" />
	</node>
	<node id="-532747" lat="58.317674997" lon="8.3971472201">
		<tag k="name" v="Bjorstemmyra" />
		<tag k="natural" v="wetland" />
		<tag k="ssr:stedsnr" v="22268" />
	</node>
	<node id="-533463" lat="58.1861499962" lon="8.18075555071">
		<tag k="name" v="Treskomyr" />
		<tag k="natural" v="wetland" />
		<tag k="ssr:stedsnr" v="567106" />
	</node>
	<node id="-533016" lat="58.2528944445" lon="8.25612221394">
		<tag k="name" v="Kjerrgårdsmyr" />
		<tag k="natural" v="wetland" />
		<tag k="ssr:stedsnr" v="143329" />
	</node>
	<node id="-532229" lat="58.270375004" lon="8.3068861089">
		<tag k="name" v="Badstumyra" />
		<tag k="natural" v="wetland" />
		<tag k="ssr:stedsnr" v="628375" />
	</node>
	<node id="-533252" lat="58.2501972262" lon="8.26783055614">
		<tag k="name" v="Orremyra" />
		<tag k="natural" v="wetland" />
		<tag k="ssr:stedsnr" v="325368" />
	</node>
	<node id="-532817" lat="58.2498055584" lon="8.25018333678">
		<tag k="name" v="Droemyr" />
		<tag k="natural" v="wetland" />
		<tag k="ssr:stedsnr" v="82343" />
	</node>
	<node id="-531713" lat="58.3051611103" lon="8.40993889617">
		<tag k="name" v="Ponnidalsmyr" />
		<tag k="natural" v="wetland" />
		<tag k="ssr:stedsnr" v="264620" />
	</node>
	<node id="-532736" lat="58.1870083346" lon="8.21008055064">
		<tag k="name" v="Klappekjerr" />
>>>>>>> e1d4bc35ff8a6074a6f2e91616a996b547c36f15
		<tag k="natural" v="wetland" />
		<tag k="ssr:stedsnr" v="871334" />
	</node>
<<<<<<< HEAD
	<node lat="58.15577222419162" lon="8.179077774633523" id="-39962">
		<tag k="name" v="Kjerkemyr" />
		<tag k="natural" v="wetland" />
		<tag k="ssr:stedsnr" v="871203" />
	</node>
	<node lat="58.157130555669745" lon="8.171930559221032" id="-39963">
		<tag k="name" v="Skodrosmyr" />
		<tag k="natural" v="wetland" />
		<tag k="ssr:stedsnr" v="871206" />
	</node>
	<node lat="58.161680554529276" lon="8.17185277575005" id="-39964">
		<tag k="name" v="Kjonemyrane" />
		<tag k="natural" v="wetland" />
		<tag k="ssr:stedsnr" v="871210" />
	</node>
	<node lat="58.310319443001575" lon="8.30317499888621" id="-39971">
		<tag k="name" v="Langemyr" />
		<tag k="natural" v="wetland" />
		<tag k="ssr:stedsnr" v="871274" />
	</node>
	<node lat="58.316725000880176" lon="8.293591666516505" id="-39972">
		<tag k="name" v="Skrubbskjerrene" />
		<tag k="natural" v="wetland" />
		<tag k="ssr:stedsnr" v="871277" />
	</node>
	<node lat="58.314913889275985" lon="8.346602776226034" id="-39973">
		<tag k="name" v="Eiesmyra" />
		<tag k="natural" v="wetland" />
		<tag k="ssr:stedsnr" v="871285" />
	</node>
	<node lat="58.12716944526569" lon="8.239572229286793" id="-39992">
		<tag k="name" v="Sandane" />
		<tag k="place" v="locality" />
		<tag k="ssr:stedsnr" v="871868" />
	</node>
	<node lat="58.21308611373392" lon="8.23260833267258" id="-40029">
		<tag k="name" v="Hjellmyrene" />
		<tag k="natural" v="wetland" />
		<tag k="ssr:stedsnr" v="932126" />
	</node>
	<node lat="58.17297500337298" lon="8.186572223702056" id="-40032">
		<tag k="name" v="Graudesteinane" />
		<tag k="natural" v="stone" />
		<tag k="ssr:stedsnr" v="932221" />
	</node>
	<node lat="58.17374722619024" lon="8.247852782164012" id="-40039">
		<tag k="name" v="Krogen" />
		<tag k="place" v="locality" />
		<tag k="ssr:stedsnr" v="932068" />
	</node>
	<node lat="58.17986666905371" lon="8.252761113718675" id="-40040">
		<tag k="name" v="Bronen" />
		<tag k="place" v="locality" />
		<tag k="ssr:stedsnr" v="932070" />
	</node>
	<node lat="58.19018332949925" lon="8.191052781739938" id="-40041">
		<tag k="name" v="Myra" />
		<tag k="place" v="locality" />
		<tag k="ssr:stedsnr" v="932073" />
	</node>
	<node lat="58.19130833414367" lon="8.202325008093835" id="-40044">
		<tag k="name" v="Lilleheimyr" />
		<tag k="natural" v="wetland" />
		<tag k="ssr:stedsnr" v="932080" />
	</node>
	<node lat="58.319030558849086" lon="8.407280560969069" id="-40052">
		<tag k="name" v="Storerøys" />
		<tag k="natural" v="stone" />
		<tag k="ssr:stedsnr" v="932276" />
	</node>
	<node lat="58.24879444225641" lon="8.245244445202504" id="-40056">
		<tag k="name" v="Heståskjerrene" />
		<tag k="natural" v="wetland" />
		<tag k="ssr:stedsnr" v="932349" />
	</node>
	<node lat="58.24786944832941" lon="8.243911103611463" id="-40057">
		<tag k="name" v="Spjellreskjerrene" />
		<tag k="natural" v="wetland" />
		<tag k="ssr:stedsnr" v="932351" />
	</node>
	<node lat="58.25710278202613" lon="8.205080551670273" id="-40065">
		<tag k="name" v="Flademyrene" />
		<tag k="natural" v="wetland" />
		<tag k="ssr:stedsnr" v="932336" />
	</node>
	<node lat="58.250408336748265" lon="8.291016660561713" id="-40068">
		<tag k="name" v="Føllsdalsmyra" />
		<tag k="natural" v="wetland" />
		<tag k="ssr:stedsnr" v="932429" />
	</node>
	<node lat="58.24019166898971" lon="8.304802780283957" id="-40069">
		<tag k="name" v="Tjuehellermyra" />
		<tag k="natural" v="wetland" />
		<tag k="ssr:stedsnr" v="932431" />
	</node>
	<node lat="58.297388885541636" lon="8.410594447712926" id="-40076">
		<tag k="name" v="Kvernhusmyra" />
=======
	<node id="-532222" lat="58.2170333295" lon="8.22041666325">
		<tag k="name" v="Trøe-løemyrene" />
		<tag k="natural" v="wetland" />
		<tag k="ssr:stedsnr" v="628311" />
	</node>
	<node id="-533245" lat="58.3219777802" lon="8.34885554971">
		<tag k="name" v="Tjæremoen" />
		<tag k="place" v="locality" />
		<tag k="ssr:stedsnr" v="325326" />
	</node>
	<node id="-532731" lat="58.1787722247" lon="8.25749444645">
		<tag k="name" v="Hallandmyra" />
		<tag k="natural" v="wetland" />
		<tag k="ssr:stedsnr" v="22062" />
	</node>
	<node id="-532730" lat="58.1804555525" lon="8.24671666971">
		<tag k="name" v="Øreslandsmyrane" />
		<tag k="place" v="locality" />
		<tag k="ssr:stedsnr" v="22056" />
	</node>
	<node id="-532217" lat="58.2025305562" lon="8.21435555365">
		<tag k="name" v="Slåtta" />
		<tag k="natural" v="wetland" />
		<tag k="ssr:stedsnr" v="628113" />
	</node>
	<node id="-532596" lat="58.1729750034" lon="8.1865722237">
		<tag k="name" v="Graudesteinane" />
		<tag k="natural" v="stone" />
		<tag k="ssr:stedsnr" v="932221" />
	</node>
	<node id="-533237" lat="58.1537194403" lon="8.16679166151">
		<tag k="name" v="Fjordtjønnmyr" />
		<tag k="natural" v="wetland" />
		<tag k="ssr:stedsnr" v="325250" />
	</node>
	<node id="-533118" lat="58.3220805531" lon="8.30475000239">
		<tag k="name" v="Olas kjerke" />
		<tag k="natural" v="stone" />
		<tag k="ssr:stedsnr" v="204246" />
	</node>
	<node id="-532210" lat="58.2067000017" lon="8.3438277742">
		<tag k="name" v="Nesemyra" />
		<tag k="natural" v="wetland" />
		<tag k="ssr:stedsnr" v="628007" />
	</node>
	<node id="-532719" lat="58.1742499988" lon="8.15558333545">
		<tag k="name" v="Storemyr" />
		<tag k="natural" v="wetland" />
		<tag k="ssr:stedsnr" v="21973" />
	</node>
	<node id="-533230" lat="58.2010277823" lon="8.18922223051">
		<tag k="name" v="Buane" />
		<tag k="place" v="locality" />
		<tag k="ssr:stedsnr" v="325148" />
	</node>
	<node id="-532717" lat="58.1627277744" lon="8.18667500321">
		<tag k="name" v="Bukksteinen" />
		<tag k="natural" v="stone" />
		<tag k="ssr:stedsnr" v="22209" />
	</node>
	<node id="-531692" lat="58.2867055564" lon="8.34664166722">
		<tag k="name" v="Marismyr" />
>>>>>>> e1d4bc35ff8a6074a6f2e91616a996b547c36f15
		<tag k="natural" v="wetland" />
		<tag k="ssr:stedsnr" v="447740" />
	</node>
<<<<<<< HEAD
	<node lat="58.29451944418086" lon="8.408980559032452" id="-40077">
		<tag k="name" v="Årdalsmyra" />
		<tag k="natural" v="wetland" />
		<tag k="ssr:stedsnr" v="932755" />
	</node>
	<node lat="58.28222777993978" lon="8.312297221224284" id="-40080">
		<tag k="name" v="Maris myr" />
		<tag k="natural" v="wetland" />
		<tag k="ssr:stedsnr" v="932785" />
	</node>
	<node lat="58.17921666447049" lon="8.166886112235256" id="-40087">
		<tag k="name" v="Spaksmyr" />
		<tag k="natural" v="wetland" />
		<tag k="ssr:stedsnr" v="932980" />
	</node>
	<node lat="58.2405086261501" lon="8.322930053394465" id="-40097">
		<tag k="name" v="Furekjerr" />
		<tag k="place" v="locality" />
		<tag k="ssr:stedsnr" v="910254" />
	</node>
	<node lat="58.177772224705755" lon="8.176980554324151" id="-40129">
		<tag k="name" v="Juringsteinen" />
		<tag k="natural" v="stone" />
		<tag k="ssr:stedsnr" v="932090" />
	</node>
	<node lat="58.17591389300769" lon="8.180569441441206" id="-40131">
		<tag k="name" v="Toremyr" />
		<tag k="natural" v="wetland" />
		<tag k="ssr:stedsnr" v="932101" />
	</node>
	<node lat="58.15775277865513" lon="8.20408054885973" id="-40133">
		<tag k="name" v="Linnermyr" />
		<tag k="natural" v="wetland" />
		<tag k="ssr:stedsnr" v="932204" />
	</node>
	<node lat="58.197524999070914" lon="8.18639722850289" id="-40135">
		<tag k="name" v="Haven" />
		<tag k="place" v="locality" />
		<tag k="ssr:stedsnr" v="932150" />
	</node>
	<node lat="58.17095833665458" lon="8.210216661940528" id="-40138">
		<tag k="name" v="Flettemyr" />
		<tag k="natural" v="wetland" />
		<tag k="ssr:stedsnr" v="932198" />
	</node>
	<node lat="58.22383888718442" lon="8.20955556410053" id="-40140">
		<tag k="name" v="Ulsvassmyrene" />
		<tag k="natural" v="wetland" />
		<tag k="ssr:stedsnr" v="932310" />
	</node>
	<node lat="58.267827774854695" lon="8.407894448760272" id="-40146">
		<tag k="name" v="Jordene" />
		<tag k="place" v="locality" />
		<tag k="ssr:stedsnr" v="932853" />
	</node>
	<node lat="58.2198972224511" lon="8.312399993594747" id="-40152">
		<tag k="name" v="Langemyr" />
		<tag k="place" v="locality" />
		<tag k="ssr:stedsnr" v="933490" />
	</node>
	<node lat="58.2243861121148" lon="8.278030562465643" id="-40153">
		<tag k="name" v="Hunnemyr" />
		<tag k="natural" v="wetland" />
		<tag k="ssr:stedsnr" v="933495" />
	</node>
	<node lat="58.28178610776624" lon="8.391433326228578" id="-40155">
		<tag k="name" v="Osemyra" />
		<tag k="natural" v="wetland" />
		<tag k="ssr:stedsnr" v="933791" />
	</node>
	<node lat="58.18763143236658" lon="8.31460798837482" id="-40215">
		<tag k="name" v="Brønnura" />
		<tag k="natural" v="scree" />
		<tag k="ssr:stedsnr" v="21578" />
	</node>
	<node lat="58.18216111185084" lon="8.192958333361311" id="-40217">
		<tag k="name" v="Barlindmyr" />
		<tag k="natural" v="wetland" />
		<tag k="ssr:stedsnr" v="21130" />
	</node>
	<node lat="58.25469722347955" lon="8.324847221453615" id="-40240">
		<tag k="name" v="Tøemyr" />
		<tag k="natural" v="wetland" />
		<tag k="ssr:stedsnr" v="22421" />
	</node>
	<node lat="58.254716664386244" lon="8.306669440281683" id="-40241">
		<tag k="name" v="Geitemyr" />
		<tag k="natural" v="wetland" />
		<tag k="ssr:stedsnr" v="22430" />
	</node>
	<node lat="58.17424999883614" lon="8.155583335446888" id="-40271">
		<tag k="name" v="Storemyr" />
		<tag k="natural" v="wetland" />
		<tag k="ssr:stedsnr" v="21973" />
	</node>
	<node lat="58.18413333278963" lon="8.157124999801333" id="-40274">
		<tag k="name" v="Lyngmyr" />
		<tag k="natural" v="wetland" />
		<tag k="ssr:stedsnr" v="21981" />
	</node>
	<node lat="58.19012499981698" lon="8.217877781611204" id="-40275">
		<tag k="name" v="Røymyr" />
		<tag k="natural" v="wetland" />
		<tag k="ssr:stedsnr" v="22051" />
	</node>
	<node lat="58.180455552482805" lon="8.246716669713694" id="-40276">
		<tag k="name" v="Øreslandsmyrane" />
		<tag k="place" v="locality" />
		<tag k="ssr:stedsnr" v="22056" />
	</node>
	<node lat="58.17877222467516" lon="8.257494446454176" id="-40277">
		<tag k="name" v="Hallandmyra" />
		<tag k="natural" v="wetland" />
		<tag k="ssr:stedsnr" v="22062" />
	</node>
	<node lat="58.1695277781648" lon="8.256111111384055" id="-40286">
		<tag k="name" v="Spanskjerr" />
		<tag k="place" v="locality" />
		<tag k="ssr:stedsnr" v="22170" />
	</node>
	<node lat="58.16806388639195" lon="8.21283611373805" id="-40288">
		<tag k="name" v="Opsengmyr" />
		<tag k="natural" v="wetland" />
		<tag k="ssr:stedsnr" v="22175" />
	</node>
	<node lat="58.32319722024613" lon="8.390569438556824" id="-40293">
		<tag k="name" v="Gullholmkjerrene" />
		<tag k="natural" v="wetland" />
		<tag k="ssr:stedsnr" v="22260" />
	</node>
	<node lat="58.31767499702065" lon="8.397147220103856" id="-40295">
		<tag k="name" v="Bjorstemmyra" />
		<tag k="natural" v="wetland" />
		<tag k="ssr:stedsnr" v="22268" />
	</node>
	<node lat="58.244522220799176" lon="8.243522213784063" id="-40297">
		<tag k="name" v="Småmyrene" />
		<tag k="natural" v="wetland" />
		<tag k="ssr:stedsnr" v="22355" />
	</node>
	<node lat="58.19593333492565" lon="8.283808325482392" id="-40299">
		<tag k="name" v="Budalsmyr" />
		<tag k="natural" v="wetland" />
		<tag k="ssr:stedsnr" v="22366" />
	</node>
	<node lat="58.29562777554896" lon="8.389908341350145" id="-40306">
		<tag k="name" v="Skrubbemyra" />
		<tag k="natural" v="wetland" />
		<tag k="ssr:stedsnr" v="22774" />
	</node>
	<node lat="58.27879166836295" lon="8.298627780653543" id="-40348">
		<tag k="name" v="Eigelandsmyra" />
		<tag k="place" v="locality" />
		<tag k="ssr:stedsnr" v="82370" />
	</node>
	<node lat="58.29047500210346" lon="8.41059722829442" id="-40376">
		<tag k="name" v="Jørensmyr" />
		<tag k="natural" v="wetland" />
		<tag k="ssr:stedsnr" v="82793" />
	</node>
	<node lat="58.25071389227044" lon="8.3695638921998" id="-40389">
		<tag k="name" v="Rennehaven" />
		<tag k="place" v="locality" />
		<tag k="ssr:stedsnr" v="82929" />
	</node>
	<node lat="58.21876111393243" lon="8.325244439289296" id="-40397">
		<tag k="name" v="Lindemyr" />
		<tag k="natural" v="wetland" />
		<tag k="ssr:stedsnr" v="83421" />
	</node>
	<node lat="58.29427222364113" lon="8.338555562152854" id="-40401">
		<tag k="name" v="Andersesmyr" />
		<tag k="natural" v="wetland" />
		<tag k="ssr:stedsnr" v="83779" />
	</node>
	<node lat="58.17588055198894" lon="8.25459444835577" id="-40429">
		<tag k="name" v="Grøddhaugmyra" />
		<tag k="natural" v="wetland" />
		<tag k="ssr:stedsnr" v="142069" />
	</node>
	<node lat="58.167841664077805" lon="8.207236117120136" id="-40431">
		<tag k="name" v="Flettekjerr" />
		<tag k="natural" v="wetland" />
		<tag k="ssr:stedsnr" v="142230" />
	</node>
	<node lat="58.172538892182374" lon="8.189919452659488" id="-40432">
		<tag k="name" v="Sponsmyr" />
		<tag k="natural" v="wetland" />
		<tag k="ssr:stedsnr" v="142236" />
	</node>
	<node lat="58.183688886790115" lon="8.170830553801384" id="-40438">
		<tag k="name" v="Røllen" />
		<tag k="place" v="locality" />
		<tag k="ssr:stedsnr" v="142131" />
	</node>
	<node lat="58.1996638872794" lon="8.226802777816742" id="-40440">
		<tag k="name" v="Vallesverdmyra" />
		<tag k="place" v="locality" />
		<tag k="ssr:stedsnr" v="142157" />
	</node>
	<node lat="58.136655558843685" lon="8.236469449869974" id="-40446">
		<tag k="loc_name" v="Natvigmyra" />
		<tag k="name" v="Natvigheia" />
		<tag k="natural" v="wetland" />
		<tag k="ssr:stedsnr" v="142201" />
	</node>
	<node lat="58.15605833539176" lon="8.24534721809142" id="-40450">
		<tag k="name" v="Storågeren" />
		<tag k="place" v="locality" />
		<tag k="ssr:stedsnr" v="142359" />
	</node>
	<node lat="58.18140277725584" lon="8.312247230583717" id="-40452">
		<tag k="name" v="Gallekjerr" />
=======
	<node id="-532712" lat="58.1680638864" lon="8.21283611374">
		<tag k="name" v="Opsengmyr" />
		<tag k="natural" v="wetland" />
		<tag k="ssr:stedsnr" v="22175" />
	</node>
	<node id="-533735" lat="58.2529694462" lon="8.21654444477">
		<tag k="name" v="Kornbrekkmyra" />
		<tag k="natural" v="wetland" />
		<tag k="ssr:stedsnr" v="750321" />
	</node>
	<node id="-532710" lat="58.1695277782" lon="8.25611111138">
		<tag k="name" v="Spanskjerr" />
		<tag k="place" v="locality" />
		<tag k="ssr:stedsnr" v="22170" />
	</node>
	<node id="-533221" lat="58.185286111" lon="8.19346943966">
		<tag k="name" v="Flådmyr" />
		<tag k="natural" v="wetland" />
		<tag k="ssr:stedsnr" v="325076" />
	</node>
	<node id="-533220" lat="58.1825194429" lon="8.23846667349">
		<tag k="name" v="Blåmyra" />
		<tag k="place" v="locality" />
		<tag k="ssr:stedsnr" v="325053" />
	</node>
	<node id="-533728" lat="58.3169722189" lon="8.40537499903">
		<tag k="name" v="Halvorsmyr" />
		<tag k="natural" v="wetland" />
		<tag k="old_name" v="Halvosmyr" />
		<tag k="ssr:stedsnr" v="750248" />
	</node>
	<node id="-532803" lat="58.1686416651" lon="8.25999721852">
		<tag k="name" v="Østrefidja" />
		<tag k="place" v="locality" />
		<tag k="ssr:stedsnr" v="82193" />
	</node>
	<node id="-533724" lat="58.3132027816" lon="8.33818889586">
		<tag k="name" v="Bjørkekjerr" />
		<tag k="natural" v="wetland" />
		<tag k="ssr:stedsnr" v="750219" />
	</node>
	<node id="-531675" lat="58.2736916669" lon="8.40429721742">
		<tag k="name" v="Stordalsmyr" />
		<tag k="natural" v="wetland" />
		<tag k="ssr:stedsnr" v="446868" />
	</node>
	<node id="-531668" lat="58.3039750011" lon="8.42683055184">
		<tag k="name" v="Stokkemyr" />
		<tag k="natural" v="wetland" />
		<tag k="ssr:stedsnr" v="446663" />
	</node>
	<node id="-532942" lat="58.1814027773" lon="8.31224723058">
		<tag k="name" v="Gallekjerr" />
		<tag k="place" v="locality" />
		<tag k="ssr:stedsnr" v="142470" />
	</node>
	<node id="-533655" lat="58.1854333346" lon="8.17131389148">
		<tag k="name" v="Godemyr" />
		<tag k="natural" v="wetland" />
		<tag k="ssr:stedsnr" v="749089" />
	</node>
	<node id="-532175" lat="58.2639638928" lon="8.2799750035">
		<tag k="name" v="Steene" />
		<tag k="natural" v="wetland" />
		<tag k="ssr:stedsnr" v="567411" />
	</node>
	<node id="-533965" lat="58.2457611109" lon="8.25398888269">
		<tag k="name" v="Øygardsmyra" />
		<tag k="natural" v="wetland" />
		<tag k="ssr:stedsnr" v="871347" />
	</node>
	<node id="-532172" lat="58.2535055582" lon="8.21359444087">
		<tag k="name" v="Rommyr" />
		<tag k="natural" v="wetland" />
		<tag k="ssr:stedsnr" v="567336" />
	</node>
	<node id="-532171" lat="58.2462694487" lon="8.20885277054">
		<tag k="name" v="Ruggemyr" />
		<tag k="natural" v="wetland" />
		<tag k="ssr:stedsnr" v="567335" />
	</node>
	<node id="-532170" lat="58.2526722211" lon="8.22110000102">
		<tag k="name" v="Kattuglekjerra" />
		<tag k="natural" v="wetland" />
		<tag k="ssr:stedsnr" v="567334" />
	</node>
	<node id="-533623" lat="58.1962305511" lon="8.20411389273">
		<tag k="name" v="Tretjønnmyra" />
		<tag k="natural" v="wetland" />
		<tag k="ssr:stedsnr" v="628127" />
	</node>
	<node id="-532678" lat="58.1871722199" lon="8.31346389165">
		<tag k="name" v="Brønnura" />
		<tag k="natural" v="scree" />
		<tag k="ssr:stedsnr" v="21578" />
	</node>
	<node id="-532162" lat="58.2486722259" lon="8.23689444191">
		<tag k="name" v="Tygesmyr" />
		<tag k="natural" v="wetland" />
		<tag k="ssr:stedsnr" v="567305" />
	</node>
	<node id="-532224" lat="58.2703305595" lon="8.26190554909">
		<tag k="name" v="Kalvekjerra" />
		<tag k="natural" v="wetland" />
		<tag k="ssr:stedsnr" v="628322" />
	</node>
	<node id="-532159" lat="58.2865833301" lon="8.3408777734">
		<tag k="name" v="Blaudemyr" />
		<tag k="natural" v="wetland" />
		<tag k="ssr:stedsnr" v="690795" />
	</node>
	<node id="-533109" lat="58.1603750024" lon="8.21804444343">
		<tag k="name" v="Hesthaven" />
		<tag k="place" v="locality" />
		<tag k="ssr:stedsnr" v="204162" />
	</node>
	<node id="-532512" lat="58.2243861121" lon="8.27803056247">
		<tag k="name" v="Hunnemyr" />
		<tag k="natural" v="wetland" />
		<tag k="ssr:stedsnr" v="933495" />
	</node>
	<node id="-533690" lat="58.1548499979" lon="8.2765555571">
		<tag k="name" v="Lille Kalvehaven" />
		<tag k="place" v="locality" />
		<tag k="ssr:stedsnr" v="749525" />
	</node>
	<node id="-531640" lat="58.3077527734" lon="8.38463055883">
		<tag k="name" v="Vasshaugmyra" />
		<tag k="natural" v="wetland" />
		<tag k="ssr:stedsnr" v="446292" />
	</node>
	<node id="-531639" lat="58.3176027787" lon="8.34601666491">
		<tag k="name" v="Grimekollmyra" />
		<tag k="natural" v="wetland" />
		<tag k="ssr:stedsnr" v="446286" />
	</node>
	<node id="-531638" lat="58.1566472227" lon="8.16557777549">
		<tag k="name" v="Langemyr" />
		<tag k="natural" v="wetland" />
		<tag k="ssr:stedsnr" v="446275" />
	</node>
	<node id="-533373" lat="58.286838887" lon="8.30746111051">
		<tag k="name" v="Andersmyr" />
		<tag k="natural" v="wetland" />
		<tag k="ssr:stedsnr" v="385823" />
	</node>
	<node id="-531634" lat="58.1602361147" lon="8.20646388293">
		<tag k="name" v="Nesvoll" />
		<tag k="place" v="locality" />
		<tag k="ssr:stedsnr" v="446250" />
	</node>
	<node id="-532595" lat="58.1577527787" lon="8.20408054886">
		<tag k="name" v="Linnermyr" />
		<tag k="natural" v="wetland" />
		<tag k="ssr:stedsnr" v="932204" />
	</node>
	<node id="-531632" lat="58.1644083348" lon="8.20783056249">
		<tag k="name" v="Rønningsholet" />
		<tag k="place" v="locality" />
		<tag k="ssr:stedsnr" v="446243" />
	</node>
	<node id="-531631" lat="58.1718749987" lon="8.25678888845">
		<tag k="name" v="Hområsmyra" />
		<tag k="natural" v="wetland" />
		<tag k="ssr:stedsnr" v="446240" />
	</node>
	<node id="-533820" lat="58.3264777779" lon="8.3674111097">
		<tag k="name" v="Eftevassmyra" />
		<tag k="natural" v="wetland" />
		<tag k="ssr:stedsnr" v="810339" />
	</node>
	<node id="-533675" lat="58.161630559" lon="8.2527888972">
		<tag k="name" v="Kvanneslandet" />
		<tag k="place" v="locality" />
		<tag k="ssr:stedsnr" v="749382" />
	</node>
	<node id="-532716" lat="58.1673000014" lon="8.18310277828">
		<tag k="landuse" v="meadow" />
		<tag k="name" v="Haven" />
		<tag k="ssr:stedsnr" v="22206" />
	</node>
	<node id="-532137" lat="58.2710027818" lon="8.40153056163">
		<tag k="name" v="Skrubbemyr" />
		<tag k="natural" v="wetland" />
		<tag k="ssr:stedsnr" v="689833" />
	</node>
	<node id="-531623" lat="58.2140722199" lon="8.21655000844">
		<tag k="name" v="Hismyr" />
		<tag k="natural" v="wetland" />
		<tag k="ssr:stedsnr" v="446169" />
	</node>
	<node id="-532134" lat="58.3076972196" lon="8.40750555923">
		<tag k="name" v="Gjelåsmyr" />
		<tag k="natural" v="wetland" />
		<tag k="ssr:stedsnr" v="689599" />
	</node>
	<node id="-532133" lat="58.1835888857" lon="8.30963888191">
		<tag k="name" v="Storemyr" />
		<tag k="place" v="locality" />
		<tag k="ssr:stedsnr" v="689458" />
	</node>
	<node id="-533667" lat="58.1984361116" lon="8.21721666883">
		<tag k="name" v="Hjelmane" />
		<tag k="place" v="locality" />
		<tag k="ssr:stedsnr" v="749146" />
	</node>
	<node id="-532130" lat="58.2608111082" lon="8.28114721717">
		<tag k="name" v="Budalsmyr" />
		<tag k="natural" v="wetland" />
		<tag k="ssr:stedsnr" v="689414" />
	</node>
	<node id="-532128" lat="58.2698138905" lon="8.29440555141">
		<tag k="name" v="Tjæregrovmyrene" />
		<tag k="natural" v="wetland" />
		<tag k="ssr:stedsnr" v="689408" />
	</node>
	<node id="-532126" lat="58.2466222259" lon="8.25789444184">
		<tag k="name" v="Lyngmyr" />
		<tag k="natural" v="wetland" />
		<tag k="ssr:stedsnr" v="689367" />
	</node>
	<node id="-531613" lat="58.1740194417" lon="8.24985555484">
		<tag k="name" v="Homlejordet" />
>>>>>>> e1d4bc35ff8a6074a6f2e91616a996b547c36f15
		<tag k="place" v="locality" />
		<tag k="ssr:stedsnr" v="446066" />
	</node>
<<<<<<< HEAD
	<node lat="58.292383333324146" lon="8.387402784612561" id="-40477">
		<tag k="name" v="Slåttemyra" />
		<tag k="natural" v="wetland" />
		<tag k="ssr:stedsnr" v="142792" />
	</node>
	<node lat="58.3311194416445" lon="8.30418334034841" id="-40495">
		<tag k="name" v="Dyblemyr" />
		<tag k="natural" v="wetland" />
		<tag k="ssr:stedsnr" v="143300" />
	</node>
	<node lat="58.21975555151051" lon="8.280702785643177" id="-40500">
		<tag k="name" v="Badstumyra" />
		<tag k="natural" v="wetland" />
		<tag k="ssr:stedsnr" v="143455" />
	</node>
	<node lat="58.1472750007313" lon="8.198397220878885" id="-40529">
		<tag k="name" v="Bårdstykket" />
		<tag k="place" v="locality" />
		<tag k="ssr:stedsnr" v="203565" />
	</node>
	<node lat="58.16037500239616" lon="8.21804444343386" id="-40542">
		<tag k="name" v="Hesthaven" />
		<tag k="place" v="locality" />
		<tag k="ssr:stedsnr" v="204162" />
	</node>
	<node lat="58.167222218045815" lon="8.195652770633718" id="-40546">
		<tag k="name" v="Nordalskjerr" />
		<tag k="natural" v="wetland" />
		<tag k="ssr:stedsnr" v="204179" />
	</node>
	<node lat="58.3220805531485" lon="8.30475000239196" id="-40547">
		<tag k="name" v="Olas kjerke" />
		<tag k="natural" v="stone" />
		<tag k="ssr:stedsnr" v="204246" />
	</node>
	<node lat="58.32171111389333" lon="8.334377775902533" id="-40550">
=======
	<node id="-531612" lat="58.220372219" lon="8.25399445046">
		<tag k="name" v="Savemyra" />
		<tag k="natural" v="wetland" />
		<tag k="ssr:stedsnr" v="446050" />
	</node>
	<node id="-533147" lat="58.2695694481" lon="8.40087777737">
		<tag k="name" v="Tuemyr" />
		<tag k="natural" v="wetland" />
		<tag k="ssr:stedsnr" v="204845" />
	</node>
	<node id="-532122" lat="58.3231250038" lon="8.30336110841">
		<tag k="name" v="Dyblemyr" />
		<tag k="natural" v="wetland" />
		<tag k="ssr:stedsnr" v="689339" />
	</node>
	<node id="-532120" lat="58.251761113" lon="8.23399722087">
		<tag k="name" v="Byttingskjerr" />
		<tag k="natural" v="wetland" />
		<tag k="ssr:stedsnr" v="689324" />
	</node>
	<node id="-532932" lat="58.1560583354" lon="8.24534721809">
		<tag k="name" v="Storågeren" />
		<tag k="place" v="locality" />
		<tag k="ssr:stedsnr" v="142359" />
	</node>
	<node id="-533654" lat="58.2317805588" lon="8.27140000242">
		<tag k="name" v="Storemyr" />
		<tag k="natural" v="wetland" />
		<tag k="ssr:stedsnr" v="749039" />
	</node>
	<node id="-533666" lat="58.2156944446" lon="8.23377499761">
		<tag k="name" v="Svenskeslåtta" />
		<tag k="natural" v="wetland" />
		<tag k="ssr:stedsnr" v="749130" />
	</node>
	<node id="-531604" lat="58.2489694476" lon="8.23095278385">
		<tag k="name" v="Svillemyr" />
		<tag k="natural" v="wetland" />
		<tag k="ssr:stedsnr" v="204274" />
	</node>
	<node id="-531603" lat="58.3217111139" lon="8.3343777759">
>>>>>>> e1d4bc35ff8a6074a6f2e91616a996b547c36f15
		<tag k="name" v="Udjorde" />
		<tag k="place" v="locality" />
		<tag k="ssr:stedsnr" v="204265" />
	</node>
<<<<<<< HEAD
	<node lat="58.248969447646985" lon="8.230952783846828" id="-40551">
		<tag k="name" v="Svillemyr" />
		<tag k="natural" v="wetland" />
		<tag k="ssr:stedsnr" v="204274" />
	</node>
	<node lat="58.184183332644295" lon="8.17730000422051" id="-40553">
		<tag k="name" v="Merrekjerr" />
		<tag k="natural" v="wetland" />
		<tag k="ssr:stedsnr" v="204077" />
	</node>
	<node lat="58.16296111449394" lon="8.1637472262449" id="-40556">
		<tag k="name" v="Skrubbemyr" />
		<tag k="natural" v="wetland" />
		<tag k="ssr:stedsnr" v="204195" />
	</node>
	<node lat="58.29190277599433" lon="8.363930561050312" id="-40565">
		<tag k="name" v="Havemyra" />
		<tag k="natural" v="wetland" />
		<tag k="ssr:stedsnr" v="204739" />
	</node>
	<node lat="58.299938886944375" lon="8.339275003618097" id="-40568">
		<tag k="name" v="Digesmyr" />
		<tag k="natural" v="wetland" />
		<tag k="ssr:stedsnr" v="204753" />
	</node>
	<node lat="58.29971944774992" lon="8.411024998851998" id="-40570">
		<tag k="name" v="Austmyrene" />
		<tag k="natural" v="wetland" />
		<tag k="ssr:stedsnr" v="204768" />
	</node>
	<node lat="58.294413887461246" lon="8.406019447801997" id="-40571">
		<tag k="name" v="Årdalskilen" />
		<tag k="natural" v="wetland" />
		<tag k="ssr:stedsnr" v="204772" />
	</node>
	<node lat="58.18251944288863" lon="8.238466673491558" id="-40623">
		<tag k="name" v="Blåmyra" />
		<tag k="place" v="locality" />
		<tag k="ssr:stedsnr" v="325053" />
	</node>
	<node lat="58.185286111041556" lon="8.193469439659543" id="-40625">
		<tag k="name" v="Flådmyr" />
		<tag k="natural" v="wetland" />
		<tag k="ssr:stedsnr" v="325076" />
	</node>
	<node lat="58.17416111403332" lon="8.199269440116826" id="-40627">
		<tag k="name" v="Håvet" />
		<tag k="place" v="locality" />
		<tag k="ssr:stedsnr" v="325086" />
	</node>
	<node lat="58.19319722455648" lon="8.211866661830602" id="-40628">
		<tag k="name" v="Storemyr" />
		<tag k="natural" v="wetland" />
		<tag k="ssr:stedsnr" v="325091" />
	</node>
	<node lat="58.16634444357718" lon="8.168863891418566" id="-40631">
		<tag k="name" v="Bergemyr" />
		<tag k="natural" v="wetland" />
		<tag k="ssr:stedsnr" v="325242" />
	</node>
	<node lat="58.15371944025286" lon="8.166791661512148" id="-40632">
		<tag k="name" v="Fjordtjønnmyr" />
		<tag k="natural" v="wetland" />
		<tag k="ssr:stedsnr" v="325250" />
	</node>
	<node lat="58.31328611230245" lon="8.402044440924302" id="-40639">
		<tag k="landuse" v="quarry" />
		<tag k="name" v="Klebersteinsgruva" />
		<tag k="ssr:stedsnr" v="325296" />
	</node>
	<node lat="58.320369441190486" lon="8.28154167404186" id="-40648">
		<tag k="name" v="Bjørndalsmyra" />
		<tag k="natural" v="wetland" />
		<tag k="ssr:stedsnr" v="325349" />
	</node>
	<node lat="58.298141664981394" lon="8.40756388547622" id="-40656">
		<tag k="name" v="Kaldvellhaven" />
		<tag k="place" v="locality" />
		<tag k="ssr:stedsnr" v="325758" />
	</node>
	<node lat="58.234169441079324" lon="8.230838891781746" id="-40699">
		<tag k="name" v="Gausheimyra" />
		<tag k="natural" v="wetland" />
		<tag k="ssr:stedsnr" v="385075" />
	</node>
	<node lat="58.225924999791175" lon="8.223608341772856" id="-40700">
		<tag k="name" v="Svartensmyr" />
		<tag k="natural" v="wetland" />
		<tag k="ssr:stedsnr" v="385080" />
	</node>
	<node lat="58.134455551467475" lon="8.233761114533003" id="-40703">
		<tag k="name" v="Eskekjerr" />
		<tag k="natural" v="wetland" />
		<tag k="ssr:stedsnr" v="385184" />
	</node>
	<node lat="58.15576111358896" lon="8.20218611206557" id="-40709">
		<tag k="name" v="Oterura" />
		<tag k="natural" v="scree" />
		<tag k="ssr:stedsnr" v="385227" />
	</node>
	<node lat="58.25499722580787" lon="8.302911105901028" id="-40719">
		<tag k="name" v="Vrengekjerrene" />
		<tag k="natural" v="wetland" />
		<tag k="ssr:stedsnr" v="385440" />
	</node>
	<node lat="58.19134444308693" lon="8.31578056134042" id="-40735">
		<tag k="name" v="Tåresland" />
		<tag k="place" v="locality" />
		<tag k="ssr:stedsnr" v="385485" />
	</node>
	<node lat="58.30973055853765" lon="8.4240361143215" id="-40737">
		<tag k="landuse" v="quarry" />
		<tag k="name" v="Gruvene" />
		<tag k="ssr:stedsnr" v="385644" />
	</node>
	<node lat="58.30992222624846" lon="8.404491664826132" id="-40738">
		<tag k="name" v="Hisåsmyr" />
		<tag k="natural" v="wetland" />
		<tag k="ssr:stedsnr" v="385651" />
	</node>
	<node lat="58.29744722161924" lon="8.40180277936113" id="-40747">
		<tag k="name" v="Husekjerra" />
		<tag k="natural" v="wetland" />
		<tag k="ssr:stedsnr" v="385789" />
	</node>
	<node lat="58.22683332949789" lon="8.279730551058346" id="-40760">
		<tag k="name" v="Langemyr" />
		<tag k="natural" v="wetland" />
		<tag k="ssr:stedsnr" v="386437" />
	</node>
	<node lat="58.25994721913528" lon="8.420319443268205" id="-40762">
		<tag k="name" v="Myra" />
		<tag k="place" v="locality" />
		<tag k="ssr:stedsnr" v="386737" />
	</node>
	<node lat="58.21407221990159" lon="8.216550008435476" id="-40787">
		<tag k="name" v="Hismyr" />
		<tag k="natural" v="wetland" />
		<tag k="ssr:stedsnr" v="446169" />
	</node>
	<node lat="58.27369166693147" lon="8.404297217423839" id="-40789">
		<tag k="name" v="Stordalsmyr" />
		<tag k="natural" v="wetland" />
		<tag k="ssr:stedsnr" v="446868" />
	</node>
	<node lat="58.22037221903989" lon="8.25399445045616" id="-40799">
		<tag k="name" v="Savemyra" />
		<tag k="natural" v="wetland" />
		<tag k="ssr:stedsnr" v="446050" />
	</node>
	<node lat="58.17401944172969" lon="8.2498555548437" id="-40800">
		<tag k="name" v="Humlejordet" />
		<tag k="place" v="locality" />
		<tag k="ssr:stedsnr" v="446066" />
	</node>
	<node lat="58.20105000104141" lon="8.237819448859101" id="-40802">
		<tag k="name" v="Kastane" />
		<tag k="place" v="locality" />
		<tag k="ssr:stedsnr" v="446130" />
	</node>
	<node lat="58.20381111337775" lon="8.199866669910007" id="-40805">
		<tag k="name" v="Søndreskauen" />
		<tag k="place" v="locality" />
		<tag k="ssr:stedsnr" v="446166" />
	</node>
	<node lat="58.1718749987291" lon="8.256788888447403" id="-40807">
		<tag k="name" v="Hområsmyra" />
		<tag k="natural" v="wetland" />
		<tag k="ssr:stedsnr" v="446240" />
	</node>
	<node lat="58.16440833480748" lon="8.20783056249058" id="-40808">
		<tag k="name" v="Rønningsholet" />
		<tag k="place" v="locality" />
		<tag k="ssr:stedsnr" v="446243" />
	</node>
	<node lat="58.16023611473248" lon="8.2064638829258" id="-40810">
		<tag k="name" v="Nesvoll" />
		<tag k="place" v="locality" />
		<tag k="ssr:stedsnr" v="446250" />
	</node>
	<node lat="58.216933330218595" lon="8.217380550236628" id="-40814">
		<tag k="name" v="Skrubbkjerrene" />
		<tag k="natural" v="wetland" />
		<tag k="ssr:stedsnr" v="446354" />
	</node>
	<node lat="58.29186388602549" lon="8.323891660169737" id="-40835">
		<tag k="name" v="Stemtjønnmyra" />
		<tag k="natural" v="wetland" />
		<tag k="ssr:stedsnr" v="446834" />
	</node>
	<node lat="58.30397500105224" lon="8.426830551843242" id="-40848">
		<tag k="name" v="Stokkemyr" />
		<tag k="natural" v="wetland" />
		<tag k="ssr:stedsnr" v="446663" />
	</node>
	<node lat="58.28221666890337" lon="8.286772224351965" id="-40856">
		<tag k="name" v="Bosskjerrmyra" />
		<tag k="natural" v="wetland" />
		<tag k="ssr:stedsnr" v="446811" />
	</node>
	<node lat="58.28670555642426" lon="8.346641667224622" id="-40860">
		<tag k="name" v="Marismyr" />
		<tag k="natural" v="wetland" />
		<tag k="ssr:stedsnr" v="447740" />
	</node>
	<node lat="58.18449444817157" lon="8.316852777159882" id="-40870">
		<tag k="name" v="Svåa" />
		<tag k="place" v="locality" />
		<tag k="ssr:stedsnr" v="506544" />
	</node>
	<node lat="58.14814444872837" lon="8.185244448299988" id="-40872">
		<tag k="name" v="Indre Randvig" />
		<tag k="place" v="locality" />
		<tag k="ssr:stedsnr" v="506551" />
	</node>
	<node lat="58.196775003370625" lon="8.24721389270338" id="-40894">
		<tag k="name" v="Holsdalsmyr" />
		<tag k="natural" v="wetland" />
		<tag k="ssr:stedsnr" v="507100" />
	</node>
	<node lat="58.309783333610575" lon="8.337061107922603" id="-40899">
		<tag k="name" v="Synningsmyra" />
		<tag k="natural" v="wetland" />
		<tag k="ssr:stedsnr" v="507236" />
	</node>
	<node lat="58.263919442147916" lon="8.259730554644815" id="-40905">
		<tag k="name" v="Røymyr" />
		<tag k="natural" v="wetland" />
		<tag k="ssr:stedsnr" v="507314" />
	</node>
	<node lat="58.170852780405646" lon="8.215936117534218" id="-40915">
		<tag k="name" v="Skaumyr" />
		<tag k="place" v="locality" />
		<tag k="ssr:stedsnr" v="507195" />
	</node>
	<node lat="58.22867499933023" lon="8.283258340937994" id="-40927">
		<tag k="name" v="Brattheimyr" />
		<tag k="natural" v="wetland" />
		<tag k="ssr:stedsnr" v="508455" />
	</node>
	<node lat="58.1882583300614" lon="8.225888885330244" id="-40956">
		<tag k="name" v="Slåtta" />
		<tag k="place" v="locality" />
		<tag k="ssr:stedsnr" v="567064" />
	</node>
	<node lat="58.18622778195958" lon="8.193791668528155" id="-40958">
		<tag k="name" v="Isefjærmyr" />
		<tag k="place" v="locality" />
		<tag k="ssr:stedsnr" v="567076" />
	</node>
	<node lat="58.31387499678418" lon="8.296025005981969" id="-40965">
		<tag k="name" v="Tereleiken" />
		<tag k="place" v="locality" />
		<tag k="ssr:stedsnr" v="567290" />
	</node>
	<node lat="58.25267222106403" lon="8.221100001022958" id="-40986">
		<tag k="name" v="Kattuglekjerra" />
		<tag k="natural" v="wetland" />
		<tag k="ssr:stedsnr" v="567334" />
	</node>
	<node lat="58.24626944871454" lon="8.20885277053629" id="-40987">
		<tag k="name" v="Ruggemyr" />
		<tag k="natural" v="wetland" />
		<tag k="ssr:stedsnr" v="567335" />
	</node>
	<node lat="58.25350555821279" lon="8.213594440870379" id="-40988">
		<tag k="name" v="Rommyr" />
		<tag k="natural" v="wetland" />
		<tag k="ssr:stedsnr" v="567336" />
	</node>
	<node lat="58.24979722372412" lon="8.252947216907495" id="-40993">
		<tag k="name" v="Diplemyr" />
		<tag k="natural" v="wetland" />
		<tag k="ssr:stedsnr" v="567349" />
	</node>
	<node lat="58.201869440810874" lon="8.32611389721154" id="-41012">
		<tag k="name" v="Vesterjordet" />
		<tag k="place" v="locality" />
		<tag k="ssr:stedsnr" v="567683" />
	</node>
	<node lat="58.225463884559865" lon="8.194705547746764" id="-41039">
		<tag k="alt_name" v="Langemyr" />
		<tag k="name" v="Langemyra" />
		<tag k="natural" v="wetland" />
		<tag k="ssr:stedsnr" v="606285" />
	</node>
	<node lat="58.196230551135166" lon="8.20411389272947" id="-41046">
		<tag k="name" v="Tretjønnmyra" />
		<tag k="natural" v="wetland" />
		<tag k="ssr:stedsnr" v="628127" />
	</node>
	<node lat="58.14752222635988" lon="8.199175003306474" id="-41051">
		<tag k="name" v="Slåtta" />
		<tag k="place" v="locality" />
		<tag k="ssr:stedsnr" v="627565" />
	</node>
	<node lat="58.25446111213911" lon="8.257288895424859" id="-41070">
		<tag k="name" v="Rundemyr" />
		<tag k="natural" v="wetland" />
		<tag k="ssr:stedsnr" v="628341" />
	</node>
	<node lat="58.31951111125099" lon="8.296449996687807" id="-41084">
		<tag k="name" v="Kvihusegra" />
		<tag k="place" v="locality" />
		<tag k="ssr:stedsnr" v="628281" />
	</node>
	<node lat="58.27037500404566" lon="8.306886108904175" id="-41086">
		<tag k="name" v="Badstumyra" />
		<tag k="natural" v="wetland" />
		<tag k="ssr:stedsnr" v="628375" />
	</node>
	<node lat="58.301055552173565" lon="8.405950002115954" id="-41091">
		<tag k="name" v="Karisjordet" />
		<tag k="place" v="locality" />
		<tag k="ssr:stedsnr" v="628765" />
	</node>
	<node lat="58.29134167080849" lon="8.42120556086023" id="-41092">
		<tag k="name" v="Brentemyr" />
		<tag k="natural" v="wetland" />
		<tag k="ssr:stedsnr" v="628775" />
	</node>
	<node lat="58.23591110946495" lon="8.299086114178388" id="-41104">
		<tag k="loc_name" v="Brønningsmyra" />
		<tag k="name" v="Brønningsmyr" />
		<tag k="natural" v="wetland" />
		<tag k="ssr:stedsnr" v="629459" />
	</node>
	<node lat="58.231780558826074" lon="8.27140000242152" id="-41162">
		<tag k="name" v="Storemyr" />
		<tag k="natural" v="wetland" />
		<tag k="ssr:stedsnr" v="749039" />
	</node>
	<node lat="58.19758332983184" lon="8.250641667142455" id="-41167">
		<tag k="name" v="Savestemmen" />
=======
	<node id="-532114" lat="58.3148305529" lon="8.40846666536">
		<tag k="name" v="Lillerøys" />
		<tag k="natural" v="stone" />
		<tag k="ssr:stedsnr" v="689292" />
	</node>
	<node id="-533137" lat="58.2944138875" lon="8.4060194478">
		<tag k="name" v="Årdalskilen" />
		<tag k="natural" v="wetland" />
		<tag k="ssr:stedsnr" v="204772" />
	</node>
	<node id="-533136" lat="58.2997194477" lon="8.41102499885">
		<tag k="name" v="Austmyrene" />
		<tag k="natural" v="wetland" />
		<tag k="ssr:stedsnr" v="204768" />
	</node>
	<node id="-532111" lat="58.3097472266" lon="8.34019722737">
		<tag k="name" v="Bjørnemyr" />
		<tag k="natural" v="wetland" />
		<tag k="ssr:stedsnr" v="689283" />
	</node>
	<node id="-533134" lat="58.2999388869" lon="8.33927500362">
		<tag k="name" v="Digesmyr" />
		<tag k="natural" v="wetland" />
		<tag k="ssr:stedsnr" v="204753" />
	</node>
	<node id="-533645" lat="58.1914611132" lon="8.16323333951">
		<tag k="name" v="Stegenesmyra" />
		<tag k="natural" v="wetland" />
		<tag k="ssr:stedsnr" v="628941" />
	</node>
	<node id="-532108" lat="58.1657638871" lon="8.16414444507">
		<tag k="name" v="Snemyr" />
		<tag k="place" v="locality" />
		<tag k="ssr:stedsnr" v="689268" />
	</node>
	<node id="-533131" lat="58.291902776" lon="8.36393056105">
		<tag k="name" v="Havemyra" />
		<tag k="natural" v="wetland" />
		<tag k="ssr:stedsnr" v="204739" />
	</node>
	<node id="-533641" lat="58.2871583376" lon="8.3903222188">
		<tag k="name" v="Kaldvellmyra" />
		<tag k="place" v="locality" />
		<tag k="ssr:stedsnr" v="628750" />
	</node>
	<node id="-532103" lat="58.1565916652" lon="8.20634722857">
		<tag k="name" v="Dyblemyr" />
		<tag k="natural" v="wetland" />
		<tag k="ssr:stedsnr" v="689228" />
	</node>
	<node id="-531801" lat="58.269300002" lon="8.40994721576">
		<tag k="name" v="Flodda" />
		<tag k="place" v="locality" />
		<tag k="ssr:stedsnr" v="385853" />
	</node>
	<node id="-532099" lat="58.1678194422" lon="8.25903333518">
		<tag k="name" v="Fuglekjerr" />
		<tag k="natural" v="wetland" />
		<tag k="ssr:stedsnr" v="689204" />
	</node>
	<node id="-532135" lat="58.2938361098" lon="8.43579722921">
		<tag k="landuse" v="meadow" />
		<tag k="name" v="Bådstø" />
		<tag k="ssr:stedsnr" v="689766" />
	</node>
	<node id="-533633" lat="58.2383972229" lon="8.26820555418">
		<tag k="name" v="Røymyr" />
		<tag k="natural" v="wetland" />
		<tag k="ssr:stedsnr" v="628345" />
	</node>
	<node id="-533632" lat="58.2544611121" lon="8.25728889542">
		<tag k="name" v="Rundemyr" />
		<tag k="natural" v="wetland" />
		<tag k="ssr:stedsnr" v="628341" />
	</node>
	<node id="-532094" lat="58.1963888895" lon="8.18879721609">
		<tag k="name" v="Bjørndalsmyra" />
		<tag k="place" v="locality" />
		<tag k="ssr:stedsnr" v="689161" />
	</node>
	<node id="-531581" lat="58.2204027761" lon="8.31753333973">
		<tag k="name" v="Blaudemyr" />
		<tag k="natural" v="wetland" />
		<tag k="ssr:stedsnr" v="265439" />
	</node>
	<node id="-531580" lat="58.222041669" lon="8.33529167372">
		<tag k="name" v="Lauvekjerra" />
		<tag k="natural" v="wetland" />
		<tag k="ssr:stedsnr" v="265434" />
	</node>
	<node id="-533354" lat="58.1913444431" lon="8.31578056134">
		<tag k="name" v="Tåresland" />
		<tag k="place" v="locality" />
		<tag k="ssr:stedsnr" v="385485" />
	</node>
	<node id="-532090" lat="58.1743666622" lon="8.1764527784">
		<tag k="name" v="Røyrmyr" />
		<tag k="natural" v="wetland" />
		<tag k="ssr:stedsnr" v="689134" />
	</node>
	<node id="-533113" lat="58.167222218" lon="8.19565277063">
		<tag k="name" v="Nordalskjerr" />
		<tag k="natural" v="wetland" />
		<tag k="ssr:stedsnr" v="204179" />
	</node>
	<node id="-532600" lat="58.2130861137" lon="8.23260833267">
		<tag k="name" v="Hjellmyrene" />
		<tag k="natural" v="wetland" />
		<tag k="ssr:stedsnr" v="932126" />
	</node>
	<node id="-531575" lat="58.2585499977" lon="8.38455554763">
		<tag k="name" v="Stykkene" />
		<tag k="place" v="locality" />
		<tag k="ssr:stedsnr" v="264930" />
	</node>
	<node id="-531817" lat="58.1481444487" lon="8.1852444483">
		<tag k="name" v="Indre Randvig" />
		<tag k="place" v="locality" />
		<tag k="ssr:stedsnr" v="506551" />
	</node>
	<node id="-531572" lat="58.1254138855" lon="8.22884444981">
		<tag k="name" v="Sandemyra" />
		<tag k="natural" v="wetland" />
		<tag k="ssr:stedsnr" v="264897" />
	</node>
	<node id="-533107" lat="58.1686750005" lon="8.25269443948">
		<tag k="name" v="Hjemmefidja" />
		<tag k="place" v="locality" />
		<tag k="ssr:stedsnr" v="204141" />
	</node>
	<node id="-532081" lat="58.1786194438" lon="8.25213056322">
		<tag k="name" v="Raunane" />
		<tag k="place" v="locality" />
		<tag k="ssr:stedsnr" v="689053" />
	</node>
	<node id="-531567" lat="58.2722666701" lon="8.40409999196">
		<tag k="name" v="Flaten" />
		<tag k="natural" v="wetland" />
		<tag k="ssr:stedsnr" v="264853" />
	</node>
	<node id="-533102" lat="58.2148722217" lon="8.27165000211">
		<tag k="name" v="Småkjerrane" />
		<tag k="place" v="locality" />
		<tag k="ssr:stedsnr" v="204091" />
	</node>
	<node id="-533100" lat="58.1841833326" lon="8.17730000422">
		<tag k="name" v="Merrekjerr" />
		<tag k="natural" v="wetland" />
		<tag k="ssr:stedsnr" v="204077" />
	</node>
	<node id="-531563" lat="58.2976999988" lon="8.29513332658">
		<tag k="name" v="Krogvannsmyra" />
		<tag k="natural" v="wetland" />
		<tag k="ssr:stedsnr" v="264822" />
	</node>
	<node id="-532327" lat="58.1674722216" lon="8.16895834133">
		<tag k="name" v="Skoddmyr" />
		<tag k="natural" v="wetland" />
		<tag k="ssr:stedsnr" v="749253" />
	</node>
	<node id="-533095" lat="58.2225611152" lon="8.23006111425">
		<tag k="name" v="Bumyrane" />
		<tag k="natural" v="wetland" />
		<tag k="ssr:stedsnr" v="204043" />
	</node>
	<node id="-531558" lat="58.2928222192" lon="8.39288332601">
		<tag k="name" v="Porsmyr" />
		<tag k="natural" v="wetland" />
		<tag k="ssr:stedsnr" v="264781" />
	</node>
	<node id="-533094" lat="58.2245388899" lon="8.23357221602">
		<tag k="name" v="Skrubbekjerrane" />
		<tag k="natural" v="wetland" />
		<tag k="ssr:stedsnr" v="204042" />
	</node>
	<node id="-532577" lat="58.1271694453" lon="8.23957222929">
		<tag k="name" v="Sandane" />
		<tag k="place" v="locality" />
		<tag k="ssr:stedsnr" v="871868" />
	</node>
	<node id="-532752" lat="58.1959333349" lon="8.28380832548">
		<tag k="name" v="Budalsmyr" />
		<tag k="natural" v="wetland" />
		<tag k="ssr:stedsnr" v="22366" />
	</node>
	<node id="-532062" lat="58.2098472263" lon="8.31431388725">
		<tag k="name" v="Tinnegra" />
		<tag k="place" v="locality" />
		<tag k="ssr:stedsnr" v="688708" />
	</node>
	<node id="-533597" lat="58.1475222264" lon="8.19917500331">
		<tag k="name" v="Slåtta" />
		<tag k="place" v="locality" />
		<tag k="ssr:stedsnr" v="627565" />
	</node>
	<node id="-533634" lat="58.2466416709" lon="8.26479999238">
		<tag k="name" v="Mademyr" />
		<tag k="natural" v="wetland" />
		<tag k="ssr:stedsnr" v="628346" />
	</node>
	<node id="-533727" lat="58.3120138926" lon="8.40195277284">
		<tag k="name" v="Jonsskoddkjerr" />
		<tag k="natural" v="wetland" />
		<tag k="ssr:stedsnr" v="750239" />
	</node>
	<node id="-532566" lat="58.2935333296" lon="8.40018333297">
		<tag k="name" v="Husemyra" />
		<tag k="natural" v="wetland" />
		<tag k="ssr:stedsnr" v="871758" />
	</node>
	<node id="-532902" lat="58.175880552" lon="8.25459444836">
		<tag k="name" v="Grøddhaugmyra" />
		<tag k="natural" v="wetland" />
		<tag k="ssr:stedsnr" v="142069" />
	</node>
	<node id="-532750" lat="58.2445222208" lon="8.24352221378">
		<tag k="name" v="Småmyrene" />
		<tag k="natural" v="wetland" />
		<tag k="ssr:stedsnr" v="22355" />
	</node>
	<node id="-533328" lat="58.1344555515" lon="8.23376111453">
		<tag k="name" v="Eskekjerr" />
		<tag k="natural" v="wetland" />
		<tag k="ssr:stedsnr" v="385184" />
	</node>
	<node id="-532920" lat="58.1366555588" lon="8.23646944987">
		<tag k="loc_name" v="Natvigmyra" />
		<tag k="name" v="Natvigheia" />
		<tag k="natural" v="wetland" />
		<tag k="ssr:stedsnr" v="142201" />
	</node>
	<node id="-533581" lat="58.2254638846" lon="8.19470554775">
		<tag k="alt_name" v="Langemyr" />
		<tag k="name" v="Langemyra" />
		<tag k="natural" v="wetland" />
		<tag k="ssr:stedsnr" v="606285" />
	</node>
	<node id="-532042" lat="58.1701500025" lon="8.27281389467">
		<tag k="name" v="Langekjerr" />
		<tag k="natural" v="wetland" />
		<tag k="ssr:stedsnr" v="688364" />
	</node>
	<node id="-533628" lat="58.3195111113" lon="8.29644999669">
		<tag k="name" v="Kvihusegra" />
		<tag k="place" v="locality" />
		<tag k="ssr:stedsnr" v="628281" />
	</node>
	<node id="-533393" lat="58.3006194477" lon="8.34447778315">
		<tag k="name" v="Bertilsmyr" />
		<tag k="natural" v="wetland" />
		<tag k="ssr:stedsnr" v="386750" />
	</node>
	<node id="-532031" lat="58.2286749993" lon="8.28325834094">
		<tag k="name" v="Brattheimyr" />
		<tag k="natural" v="wetland" />
		<tag k="ssr:stedsnr" v="508455" />
	</node>
	<node id="-531519" lat="58.2384305537" lon="8.27208611055">
		<tag k="name" v="Heftemyra" />
		<tag k="natural" v="wetland" />
		<tag k="ssr:stedsnr" v="264352" />
	</node>
	<node id="-533564" lat="58.2838444401" lon="8.39278611211">
		<tag k="name" v="Banemyra" />
		<tag k="natural" v="wetland" />
		<tag k="ssr:stedsnr" v="568761" />
	</node>
	<node id="-533563" lat="58.2814583348" lon="8.33672221761">
		<tag k="name" v="Røyrmyr" />
		<tag k="natural" v="wetland" />
		<tag k="ssr:stedsnr" v="568758" />
	</node>
	<node id="-531512" lat="58.2386277738" lon="8.25228333544">
		<tag k="name" v="Vårmyr" />
		<tag k="natural" v="wetland" />
		<tag k="ssr:stedsnr" v="264315" />
	</node>
	<node id="-532023" lat="58.2639194421" lon="8.25973055464">
		<tag k="name" v="Røymyr" />
		<tag k="natural" v="wetland" />
		<tag k="ssr:stedsnr" v="507314" />
	</node>
	<node id="-532534" lat="58.1616805545" lon="8.17185277575">
		<tag k="name" v="Kjonemyrane" />
		<tag k="natural" v="wetland" />
		<tag k="ssr:stedsnr" v="871210" />
	</node>
	<node id="-532533" lat="58.1571305557" lon="8.17193055922">
		<tag k="name" v="Skodrosmyr" />
		<tag k="natural" v="wetland" />
		<tag k="ssr:stedsnr" v="871206" />
	</node>
	<node id="-532532" lat="58.1557722242" lon="8.17907777463">
		<tag k="name" v="Kjerkemyr" />
		<tag k="natural" v="wetland" />
		<tag k="ssr:stedsnr" v="871203" />
	</node>
	<node id="-532019" lat="58.1830194471" lon="8.30956389099">
		<tag k="name" v="Lillemyr" />
		<tag k="natural" v="wetland" />
		<tag k="ssr:stedsnr" v="507464" />
	</node>
	<node id="-531504" lat="58.3197333355" lon="8.39968056104">
		<tag k="name" v="Pallemyr" />
		<tag k="natural" v="wetland" />
		<tag k="ssr:stedsnr" v="264264" />
	</node>
	<node id="-532525" lat="58.2302916649" lon="8.21659444462">
		<tag k="name" v="Raudmyr" />
		<tag k="natural" v="wetland" />
		<tag k="ssr:stedsnr" v="871303" />
	</node>
	<node id="-531500" lat="58.1630583308" lon="8.1594888824">
		<tag k="name" v="Juskeplassmyr" />
>>>>>>> e1d4bc35ff8a6074a6f2e91616a996b547c36f15
		<tag k="natural" v="wetland" />
		<tag k="ssr:stedsnr" v="264231" />
	</node>
<<<<<<< HEAD
	<node lat="58.21569444460391" lon="8.233774997609032" id="-41169">
		<tag k="name" v="Svenskeslåtta" />
		<tag k="natural" v="wetland" />
		<tag k="ssr:stedsnr" v="749130" />
	</node>
	<node lat="58.1984361116346" lon="8.21721666882732" id="-41170">
		<tag k="name" v="Hjelmane" />
		<tag k="place" v="locality" />
		<tag k="ssr:stedsnr" v="749146" />
	</node>
	<node lat="58.18543333463704" lon="8.17131389148181" id="-41171">
		<tag k="name" v="Godemyr" />
		<tag k="natural" v="wetland" />
		<tag k="ssr:stedsnr" v="749089" />
	</node>
	<node lat="58.189425000321144" lon="8.186122220872882" id="-41173">
		<tag k="name" v="Ramsdalsmyra" />
=======
	<node id="-531499" lat="58.1646638887" lon="8.1700444488">
		<tag k="name" v="Åkjellen" />
		<tag k="place" v="locality" />
		<tag k="ssr:stedsnr" v="264229" />
	</node>
	<node id="-532009" lat="58.1894250003" lon="8.18612222087">
		<tag k="name" v="Ramsdalsmyra" />
		<tag k="place" v="locality" />
		<tag k="ssr:stedsnr" v="749095" />
	</node>
	<node id="-533547" lat="58.2657361127" lon="8.40002221421">
		<tag k="name" v="Kirkemyra" />
		<tag k="natural" v="wetland" />
		<tag k="ssr:stedsnr" v="567869" />
	</node>
	<node id="-533223" lat="58.174161114" lon="8.19926944012">
		<tag k="name" v="Håvet" />
		<tag k="place" v="locality" />
		<tag k="ssr:stedsnr" v="325086" />
	</node>
	<node id="-531484" lat="58.2106527801" lon="8.25568888227">
		<tag k="name" v="Masseskjerr" />
		<tag k="natural" v="wetland" />
		<tag k="ssr:stedsnr" v="264116" />
	</node>
	<node id="-532514" lat="58.2817861078" lon="8.39143332623">
		<tag k="name" v="Osemyra" />
		<tag k="natural" v="wetland" />
		<tag k="ssr:stedsnr" v="933791" />
	</node>
	<node id="-531488" lat="58.2005222207" lon="8.23211665903">
		<tag k="name" v="Buhola" />
>>>>>>> e1d4bc35ff8a6074a6f2e91616a996b547c36f15
		<tag k="place" v="locality" />
		<tag k="ssr:stedsnr" v="749095" />
	</node>
<<<<<<< HEAD
	<node lat="58.16163055895078" lon="8.252788897198714" id="-41178">
		<tag k="name" v="Kvanneslandet" />
		<tag k="place" v="locality" />
		<tag k="ssr:stedsnr" v="749382" />
	</node>
	<node lat="58.20000277525291" lon="8.192069440933171" id="-41182">
		<tag k="name" v="Kviksdalsmyr" />
		<tag k="natural" v="wetland" />
		<tag k="ssr:stedsnr" v="749155" />
	</node>
	<node lat="58.19781944862432" lon="8.191772219514146" id="-41183">
		<tag k="name" v="Bjørnekjerr" />
		<tag k="natural" v="wetland" />
		<tag k="ssr:stedsnr" v="749158" />
	</node>
	<node lat="58.167472221614545" lon="8.168958341328414" id="-41187">
		<tag k="name" v="Skoddmyr" />
		<tag k="natural" v="wetland" />
		<tag k="ssr:stedsnr" v="749253" />
	</node>
	<node lat="58.15484999794446" lon="8.276555557099762" id="-41194">
		<tag k="name" v="Lille Kalvehaven" />
		<tag k="place" v="locality" />
		<tag k="ssr:stedsnr" v="749525" />
	</node>
	<node lat="58.3120138925543" lon="8.401952772843442" id="-41218">
		<tag k="name" v="Jonsskoddkjerr" />
		<tag k="natural" v="wetland" />
		<tag k="ssr:stedsnr" v="750239" />
	</node>
	<node lat="58.31697221893916" lon="8.405374999034642" id="-41219">
		<tag k="name" v="Halvorsmyr" />
		<tag k="natural" v="wetland" />
		<tag k="old_name" v="Halvosmyr" />
		<tag k="ssr:stedsnr" v="750248" />
	</node>
	<node lat="58.30486666702237" lon="8.408588886998954" id="-41231">
		<tag k="name" v="Plankekjerrene" />
		<tag k="natural" v="wetland" />
		<tag k="ssr:stedsnr" v="750628" />
	</node>
	<node lat="58.26339444107621" lon="8.30574722168666" id="-41269">
		<tag k="name" v="Buskemyrhollene" />
		<tag k="place" v="locality" />
		<tag k="ssr:stedsnr" v="810369" />
	</node>
	<node lat="58.23571944870084" lon="8.25933889674544" id="-41277">
		<tag k="name" v="Urdalsmyra" />
		<tag k="natural" v="wetland" />
		<tag k="ssr:stedsnr" v="810058" />
	</node>
	<node lat="58.17884999806372" lon="8.267236103063194" id="-41279">
		<tag k="name" v="Kjerkemyra" />
		<tag k="place" v="locality" />
		<tag k="ssr:stedsnr" v="810067" />
	</node>
	<node lat="58.23622778135306" lon="8.239386117219404" id="-41280">
		<tag k="name" v="Glastadmyra" />
		<tag k="natural" v="wetland" />
		<tag k="ssr:stedsnr" v="810076" />
	</node>
	<node lat="58.169988890848515" lon="8.164597214618253" id="-41296">
		<tag k="name" v="Hundeholane" />
		<tag k="place" v="locality" />
		<tag k="ssr:stedsnr" v="810262" />
	</node>
	<node lat="58.23991110859549" lon="8.28728333321977" id="-41312">
		<tag k="name" v="Husemyra" />
		<tag k="natural" v="wetland" />
		<tag k="ssr:stedsnr" v="810442" />
	</node>
	<node lat="58.259016667332375" lon="8.257430556631986" id="-41368">
		<tag k="name" v="Viemyr" />
		<tag k="natural" v="wetland" />
		<tag k="ssr:stedsnr" v="871297" />
	</node>
	<node lat="58.18218333450393" lon="8.187836115212578" id="-41375">
		<tag k="name" v="Småmyrane" />
		<tag k="natural" v="wetland" />
		<tag k="ssr:stedsnr" v="871092" />
	</node>
	<node lat="58.17675277770476" lon="8.261413887148924" id="-41376">
		<tag k="name" v="Kjerkemyra" />
		<tag k="natural" v="wetland" />
		<tag k="ssr:stedsnr" v="871051" />
	</node>
	<node lat="58.256313892876086" lon="8.259044448768426" id="-41380">
		<tag k="name" v="Sådemyr" />
		<tag k="natural" v="wetland" />
		<tag k="ssr:stedsnr" v="871338" />
	</node>
	<node lat="58.245761110925976" lon="8.253988882694372" id="-41386">
		<tag k="name" v="Øygardsmyra" />
		<tag k="natural" v="wetland" />
		<tag k="ssr:stedsnr" v="871347" />
	</node>
	<node lat="58.19639722317665" lon="8.358924994289476" id="-41393">
		<tag k="name" v="Hamrevoll" />
		<tag k="place" v="locality" />
		<tag k="ssr:stedsnr" v="871448" />
	</node>
	<node lat="58.21475833498937" lon="8.382102781590051" id="-41394">
		<tag k="name" v="Danemyr" />
		<tag k="natural" v="wetland" />
		<tag k="ssr:stedsnr" v="871451" />
	</node>
	<node lat="58.301241662702914" lon="8.410788893095518" id="-41403">
		<tag k="name" v="Plankevollen" />
		<tag k="place" v="locality" />
		<tag k="ssr:stedsnr" v="871763" />
	</node>
	<node lat="58.2935333296038" lon="8.400183332972789" id="-41424">
		<tag k="name" v="Husemyra" />
		<tag k="natural" v="wetland" />
		<tag k="ssr:stedsnr" v="871758" />
	</node>
	<node lat="58.25565832992166" lon="8.335963890458277" id="-41429">
		<tag k="name" v="Skifjellmyra" />
		<tag k="natural" v="wetland" />
		<tag k="ssr:stedsnr" v="871896" />
	</node>
	<node lat="58.22551666443885" lon="8.298049996698287" id="-41431">
		<tag k="name" v="Granemyra" />
		<tag k="natural" v="wetland" />
		<tag k="ssr:stedsnr" v="872489" />
	</node>
	<node lat="58.217772218700716" lon="8.288486105862088" id="-41432">
		<tag k="name" v="Dalemyra" />
		<tag k="place" v="locality" />
		<tag k="ssr:stedsnr" v="872499" />
=======
	<node id="-532511" lat="58.2198972225" lon="8.31239999359">
		<tag k="name" v="Langemyr" />
		<tag k="place" v="locality" />
		<tag k="ssr:stedsnr" v="933490" />
	</node>
	<node id="-533022" lat="58.2197555515" lon="8.28070278564">
		<tag k="name" v="Badstumyra" />
		<tag k="natural" v="wetland" />
		<tag k="ssr:stedsnr" v="143455" />
	</node>
	<node id="-532540" lat="58.3167250009" lon="8.29359166652">
		<tag k="name" v="Skrubbskjerrene" />
		<tag k="natural" v="wetland" />
		<tag k="ssr:stedsnr" v="871277" />
	</node>
	<node id="-532507" lat="58.1792166645" lon="8.16688611224">
		<tag k="name" v="Spaksmyr" />
		<tag k="natural" v="wetland" />
		<tag k="ssr:stedsnr" v="932980" />
	</node>
	<node id="-532124" lat="58.2442833303" lon="8.22267777294">
		<tag k="name" v="Steene" />
		<tag k="natural" v="wetland" />
		<tag k="ssr:stedsnr" v="689353" />
	</node>
	<node id="-532911" lat="58.1996638873" lon="8.22680277782">
		<tag k="name" v="Vallesverdmyra" />
		<tag k="place" v="locality" />
		<tag k="ssr:stedsnr" v="142157" />
	</node>
	<node id="-533528" lat="58.2018694408" lon="8.32611389721">
		<tag k="name" v="Vesterjordet" />
		<tag k="place" v="locality" />
		<tag k="ssr:stedsnr" v="567683" />
	</node>
	<node id="-532740" lat="58.2571027801" lon="8.2715916724">
		<tag k="name" v="Bjellandsmyra" />
		<tag k="natural" v="wetland" />
		<tag k="ssr:stedsnr" v="22341" />
	</node>
	<node id="-533014" lat="58.3279361133" lon="8.35365276992">
		<tag k="name" v="Grasmyr" />
		<tag k="natural" v="wetland" />
		<tag k="ssr:stedsnr" v="143303" />
	</node>
	<node id="-532825" lat="58.2787916684" lon="8.29862778065">
		<tag k="name" v="Eigelandsmyra" />
		<tag k="place" v="locality" />
		<tag k="ssr:stedsnr" v="82370" />
	</node>
	<node id="-533052" lat="58.2082277802" lon="8.35082777953">
		<tag k="name" v="Bonjeåsmyra" />
		<tag k="natural" v="wetland" />
		<tag k="ssr:stedsnr" v="203301" />
	</node>
	<node id="-532499" lat="58.2822277799" lon="8.31229722122">
		<tag k="name" v="Maris myr" />
		<tag k="natural" v="wetland" />
		<tag k="ssr:stedsnr" v="932785" />
	</node>
	<node id="-533010" lat="58.2169972218" lon="8.20736110635">
		<tag k="name" v="Raundalsmyr" />
		<tag k="natural" v="wetland" />
		<tag k="ssr:stedsnr" v="143288" />
	</node>
	<node id="-532745" lat="58.3231972202" lon="8.39056943856">
		<tag k="name" v="Gullholmkjerrene" />
		<tag k="natural" v="wetland" />
		<tag k="ssr:stedsnr" v="22260" />
	</node>
	<node id="-533520" lat="58.2457361125" lon="8.38004445191">
		<tag k="name" v="Ura" />
		<tag k="natural" v="scree" />
		<tag k="ssr:stedsnr" v="567625" />
	</node>
	<node id="-532495" lat="58.2973888855" lon="8.41059444771">
		<tag k="name" v="Kvernhusmyra" />
		<tag k="natural" v="wetland" />
		<tag k="ssr:stedsnr" v="932753" />
	</node>
	<node id="-532909" lat="58.1836888868" lon="8.1708305538">
		<tag k="name" v="Røllen" />
		<tag k="place" v="locality" />
		<tag k="ssr:stedsnr" v="142131" />
	</node>
	<node id="-531468" lat="58.1663444436" lon="8.16886389142">
		<tag k="name" v="Bergemyr" />
		<tag k="natural" v="wetland" />
		<tag k="ssr:stedsnr" v="325242" />
	</node>
	<node id="-533000" lat="58.3106472221" lon="8.35005555887">
		<tag k="name" v="Ospemyra" />
		<tag k="natural" v="wetland" />
		<tag k="ssr:stedsnr" v="143227" />
	</node>
	<node id="-531463" lat="58.2036416677" lon="8.23263055042">
		<tag k="name" v="Staksmyr" />
		<tag k="natural" v="wetland" />
		<tag k="ssr:stedsnr" v="325127" />
	</node>
	<node id="-532486" lat="58.2678277749" lon="8.40789444876">
		<tag k="name" v="Jordene" />
		<tag k="place" v="locality" />
		<tag k="ssr:stedsnr" v="932853" />
	</node>
	<node id="-533249" lat="58.3203694412" lon="8.28154167404">
		<tag k="name" v="Bjørndalsmyra" />
		<tag k="natural" v="wetland" />
		<tag k="ssr:stedsnr" v="325349" />
	</node>
	<node id="-532996" lat="58.1806750001" lon="8.15650833956">
		<tag k="name" v="Leigåsmyr" />
		<tag k="natural" v="wetland" />
		<tag k="ssr:stedsnr" v="142989" />
	</node>
	<node id="-532995" lat="58.1794111088" lon="8.16178888469">
		<tag k="name" v="Sydingsmyr" />
		<tag k="natural" v="wetland" />
		<tag k="ssr:stedsnr" v="142984" />
	</node>
	<node id="-533114" lat="58.1629611145" lon="8.16374722624">
		<tag k="name" v="Skrubbemyr" />
		<tag k="natural" v="wetland" />
		<tag k="ssr:stedsnr" v="204195" />
	</node>
	<node id="-532139" lat="58.2740750023" lon="8.41645000042">
		<tag k="name" v="Tjuholla" />
		<tag k="place" v="locality" />
		<tag k="ssr:stedsnr" v="689843" />
>>>>>>> e1d4bc35ff8a6074a6f2e91616a996b547c36f15
	</node>
</osm>
