<?xml version="1.0" encoding="UTF-8"?>
<osm version="0.6" generator="osmapis">
	<node lat="58.23357777739824" lon="8.347063889286988" id="-27923">
		<tag k="fixme" v="consider place=hamlet" />
		<tag k="name" v="Skalle" />
		<tag k="place" v="farm" />
		<tag k="ssr:stedsnr" v="303" />
	</node>
	<node lat="58.246547220899444" lon="8.320325007999532" id="-27925">
		<tag k="fixme" v="consider place=hamlet" />
		<tag k="name" v="Songe" />
		<tag k="place" v="farm" />
		<tag k="ssr:stedsnr" v="359" />
	</node>
	<node lat="58.13252500185528" lon="8.235516661815506" id="-27927">
		<tag k="fixme" v="consider place=hamlet" />
		<tag k="name" v="Dalane" />
		<tag k="place" v="farm" />
		<tag k="ssr:stedsnr" v="546" />
	</node>
	<node lat="58.15290832916056" lon="8.27225555595404" id="-27928">
		<tag k="name" v="Perlevika" />
		<tag k="place" v="farm" />
		<tag k="ssr:stedsnr" v="558" />
	</node>
	<node lat="58.23867778211973" lon="8.371905554799543" id="-27929">
		<tag k="fixme" v="consider place=hamlet" />
		<tag k="name" v="Bergshaven" />
		<tag k="place" v="farm" />
		<tag k="ssr:stedsnr" v="260" />
	</node>
	<node lat="58.19688889038901" lon="8.268613891172087" id="-27933">
		<tag k="fixme" v="consider place=hamlet" />
		<tag k="name" v="Hellevig" />
		<tag k="place" v="farm" />
		<tag k="ssr:stedsnr" v="407" />
	</node>
	<node lat="58.22034871983893" lon="8.33435988211263" id="-27935">
		<tag k="name" v="Skrukkebua" />
		<tag k="place" v="farm" />
		<tag k="ssr:stedsnr" v="452" />
	</node>
	<node lat="58.211208331110676" lon="8.281341658380295" id="-27938">
		<tag k="name" v="Høydalen" />
		<tag k="place" v="farm" />
		<tag k="ssr:stedsnr" v="497" />
	</node>
	<node lat="58.2156444401823" lon="8.284697222756662" id="-27939">
		<tag k="alt_name" v="Dalene" />
		<tag k="name" v="Dalane" />
		<tag k="place" v="farm" />
		<tag k="ssr:stedsnr" v="499" />
	</node>
	<node lat="58.25402499942539" lon="8.377383326722276" id="-27958">
		<tag k="name" v="Dovre" />
		<tag k="place" v="quarter" />
		<tag k="ssr:stedsnr" v="21933" />
	</node>
	<node lat="58.191416667770646" lon="8.16149722039398" id="-27959">
		<tag k="historic" v="shieling" />
		<tag k="name" v="Stegenes" />
		<tag k="place" v="isolated_dwelling" />
		<tag k="ssr:stedsnr" v="21949" />
	</node>
	<node lat="58.20593055824908" lon="8.252124999182772" id="-27966">
		<tag k="name" v="Neset" />
		<tag k="place" v="farm" />
		<tag k="ssr:stedsnr" v="22102" />
	</node>
	<node lat="58.12941666237543" lon="8.235147224057336" id="-27968">
		<tag k="name" v="Bellevista" />
		<tag k="place" v="farm" />
		<tag k="ssr:stedsnr" v="21894" />
	</node>
	<node lat="58.27449999613368" lon="8.279786108589326" id="-27990">
		<tag k="name" v="Doktorplassen" />
		<tag k="place" v="farm" />
		<tag k="ssr:stedsnr" v="22406" />
	</node>
	<node lat="58.21445004119274" lon="8.300097251169635" id="-28004">
		<tag k="name" v="Nasledalen" />
		<tag k="place" v="farm" />
		<tag k="ssr:stedsnr" v="60471" />
	</node>
	<node lat="58.2004666639649" lon="8.357922228032463" id="-28005">
		<tag k="name" v="Brekkhaug" />
		<tag k="place" v="farm" />
		<tag k="ssr:stedsnr" v="60383" />
	</node>
	<node lat="58.22966110893636" lon="8.312899993504187" id="-28009">
		<tag k="alt_name" v="Nyland, midtre;Nyland" />
		<tag k="name" v="Midtre Nyland" />
		<tag k="place" v="farm" />
		<tag k="ssr:stedsnr" v="61279" />
	</node>
	<node lat="58.19518055705287" lon="8.347844436102434" id="-28010">
		<tag k="name" v="Brekkestø" />
		<tag k="place" v="village" />
		<tag k="ssr:stedsnr" v="61420" />
	</node>
	<node lat="58.19271666333182" lon="8.301700004548147" id="-28015">
		<tag k="name" v="Neset" />
		<tag k="place" v="farm" />
		<tag k="ssr:stedsnr" v="61379" />
	</node>
	<node lat="58.26628888822612" lon="8.36773888538146" id="-28016">
		<tag k="name" v="Kverndalen" />
		<tag k="place" v="farm" />
		<tag k="ssr:stedsnr" v="61702" />
	</node>
	<node lat="58.25302500395337" lon="8.361124991769753" id="-28017">
		<tag k="fixme" v="consider place=hamlet" />
		<tag k="name" v="Lundemoen" />
		<tag k="place" v="farm" />
		<tag k="ssr:stedsnr" v="61694" />
	</node>
	<node lat="58.20235277629227" lon="8.35058056198276" id="-28020">
		<tag k="fixme" v="consider place=hamlet" />
		<tag k="name" v="Stutti" />
		<tag k="place" v="farm" />
		<tag k="ssr:stedsnr" v="242368" />
	</node>
	<node lat="58.20987222230841" lon="8.250588889526135" id="-28024">
		<tag k="fixme" v="consider place=hamlet" />
		<tag k="name" v="Trøe" />
		<tag k="place" v="farm" />
		<tag k="ssr:stedsnr" v="242463" />
	</node>
	<node lat="58.24028333128247" lon="8.2395916745183" id="-28026">
		<tag k="fixme" v="consider place=hamlet" />
		<tag k="name" v="Gladstad" />
		<tag k="place" v="farm" />
		<tag k="ssr:stedsnr" v="243244" />
	</node>
	<node lat="58.224488889018545" lon="8.24386666914579" id="-28029">
		<tag k="name" v="Steindalsmyrane" />
		<tag k="place" v="farm" />
		<tag k="ssr:stedsnr" v="243286" />
	</node>
	<node lat="58.30300000127908" lon="8.400033337232626" id="-28030">
		<tag k="fixme" v="consider place=hamlet" />
		<tag k="name" v="Vatne" />
		<tag k="place" v="farm" />
		<tag k="ssr:stedsnr" v="243288" />
	</node>
	<node lat="58.28449702589115" lon="8.295402710631203" id="-28032">
		<tag k="alt_name" v="Eikeland, øvre;Øvre Eigeland;Eikeland" />
		<tag k="fixme" v="consider place=hamlet" />
		<tag k="name" v="Øvre Eikeland" />
		<tag k="place" v="farm" />
		<tag k="ssr:stedsnr" v="243300" />
	</node>
	<node lat="58.196255553982645" lon="8.29294999654977" id="-28039">
		<tag k="name" v="Rønningen" />
		<tag k="place" v="farm" />
		<tag k="ssr:stedsnr" v="243395" />
	</node>
	<node lat="58.16091639215518" lon="8.246122605440686" id="-28046">
		<tag k="fixme" v="consider place=hamlet" />
		<tag k="name" v="Kvannes" />
		<tag k="place" v="farm" />
		<tag k="ssr:stedsnr" v="243617" />
	</node>
	<node lat="58.160611111941286" lon="8.222711105023327" id="-28047">
		<tag k="alt_name" v="Inngjerdsmyr" />
		<tag k="name" v="Inngjerdsmyra" />
		<tag k="place" v="farm" />
		<tag k="ssr:stedsnr" v="243618" />
	</node>
	<node lat="58.270047223611435" lon="8.407513896929409" id="-28048">
		<tag k="name" v="Tuemyr" />
		<tag k="place" v="farm" />
		<tag k="ssr:stedsnr" v="243728" />
	</node>
	<node lat="58.2620277794731" lon="8.361547214778374" id="-28092">
		<tag k="name" v="Prestholt" />
		<tag k="place" v="farm" />
		<tag k="ssr:stedsnr" v="82839" />
	</node>
	<node lat="58.24783888733791" lon="8.383558326072365" id="-28094">
		<tag k="name" v="Kokkenes" />
		<tag k="place" v="quarter" />
		<tag k="ssr:stedsnr" v="82921" />
	</node>
	<node lat="58.2253972235474" lon="8.372930551475559" id="-28097">
		<tag k="name" v="Haugenes" />
		<tag k="place" v="isolated_dwelling" />
		<tag k="ssr:stedsnr" v="83904" />
	</node>
	<node lat="58.24785000006402" lon="8.417725001755914" id="-28106">
		<tag k="fixme" v="consider place=hamlet" />
		<tag k="name" v="Flørenes" />
		<tag k="place" v="farm" />
		<tag k="ssr:stedsnr" v="121280" />
	</node>
	<node lat="58.22543889080582" lon="8.352247227862453" id="-28107">
		<tag k="name" v="Sundet" />
		<tag k="place" v="farm" />
		<tag k="ssr:stedsnr" v="121288" />
	</node>
	<node lat="58.17901666220265" lon="8.244022215682095" id="-28110">
		<tag k="name" v="Kvernvollen" />
		<tag k="place" v="farm" />
		<tag k="ssr:stedsnr" v="121417" />
	</node>
	<node lat="58.152913306319796" lon="8.216164906937916" id="-28115">
		<tag k="fixme" v="consider place=hamlet" />
		<tag k="name" v="Sævig" />
		<tag k="place" v="farm" />
		<tag k="ssr:stedsnr" v="121572" />
	</node>
	<node lat="58.265425001076835" lon="8.349725002525602" id="-28117">
		<tag k="name" v="Motangen" />
		<tag k="place" v="farm" />
		<tag k="ssr:stedsnr" v="121710" />
	</node>
	<node lat="58.26371389313011" lon="8.346383340365216" id="-28150">
		<tag k="name" v="Fyresmoen industriområde" />
		<tag k="place" v="quarter" />
		<tag k="ssr:stedsnr" v="142848" />
	</node>
	<node lat="58.253775002903254" lon="8.428791673275843" id="-28151">
		<tag k="name" v="Vadvig" />
		<tag k="place" v="isolated_dwelling" />
		<tag k="ssr:stedsnr" v="142851" />
	</node>
	<node lat="58.246508337040886" lon="8.364775001924944" id="-28159">
		<tag k="name" v="Vesterskauen" />
		<tag k="place" v="quarter" />
		<tag k="ssr:stedsnr" v="142931" />
	</node>
	<node lat="58.248569447090716" lon="8.365419452288487" id="-28161">
		<tag k="name" v="Seljelia" />
		<tag k="place" v="quarter" />
		<tag k="ssr:stedsnr" v="142934" />
	</node>
	<node lat="58.14169444646795" lon="8.210958329990133" id="-28187">
		<tag k="alt_name" v="Djupedol" />
		<tag k="name" v="Dybedal" />
		<tag k="place" v="farm" />
		<tag k="ssr:stedsnr" v="182526" />
	</node>
	<node lat="58.14672777368615" lon="8.255213893593806" id="-28188">
		<tag k="name" v="Gamle Hellesund" />
		<tag k="place" v="hamlet" />
		<tag k="ssr:stedsnr" v="182529" />
	</node>
	<node lat="58.17247500105286" lon="8.277622224272005" id="-28191">
		<tag k="alt_name" v="Rørvig" />
		<tag k="name" v="Røyrvik" />
		<tag k="place" v="isolated_dwelling" />
		<tag k="ssr:stedsnr" v="182602" />
	</node>
	<node lat="58.198813892837585" lon="8.254800006928342" id="-28222">
		<tag k="name" v="Øygarden" />
		<tag k="place" v="farm" />
		<tag k="ssr:stedsnr" v="264119" />
	</node>
	<node lat="58.15211388454347" lon="8.19425833103938" id="-28228">
		<tag k="name" v="Nesvåg" />
		<tag k="place" v="farm" />
		<tag k="ssr:stedsnr" v="264219" />
	</node>
	<node lat="58.25313055356325" lon="8.37495833350373" id="-28243">
		<tag k="leisure" v="pitch" />
		<tag k="name" v="Fagertun" />
		<tag k="ssr:stedsnr" v="264925" />
	</node>
	<node lat="58.25713889163219" lon="8.357994451310766" id="-28281">
		<tag k="leisure" v="pitch" />
		<tag k="name" v="Lillesand stadion" />
		<tag k="ssr:stedsnr" v="203651" />
	</node>
	<node lat="58.17563055565357" lon="8.24891388521334" id="-28296">
		<tag k="name" v="Liffedalen" />
		<tag k="place" v="farm" />
		<tag k="ssr:stedsnr" v="204040" />
	</node>
	<node lat="58.183077778789944" lon="8.317549993418533" id="-28315">
		<tag k="name" v="Butteluren" />
		<tag k="place" v="farm" />
		<tag k="ssr:stedsnr" v="204432" />
	</node>
	<node lat="58.24661110832402" lon="8.374652775455342" id="-28316">
		<tag k="name" v="Springvannsheia" />
		<tag k="place" v="quarter" />
		<tag k="ssr:stedsnr" v="204793" />
	</node>
	<node lat="58.252405554413514" lon="8.381211112394615" id="-28320">
		<tag k="name" v="Nygård" />
		<tag k="place" v="farm" />
		<tag k="ssr:stedsnr" v="204915" />
	</node>
	<node lat="58.25366388753141" lon="8.384630559926714" id="-28321">
		<tag k="name" v="Bergstø" />
		<tag k="place" v="farm" />
		<tag k="ssr:stedsnr" v="204918" />
	</node>
	<node lat="58.24371944871053" lon="8.360402770213023" id="-28322">
		<tag k="name" v="Furulunden" />
		<tag k="place" v="farm" />
		<tag k="ssr:stedsnr" v="204928" />
	</node>
	<node lat="58.26319166895224" lon="8.34427778011764" id="-28325">
		<tag k="name" v="Norton A/S" />
		<tag k="place" v="quarter" />
		<tag k="ssr:stedsnr" v="204811" />
	</node>
	<node lat="58.28391666990349" lon="8.316500006992994" id="-28338">
		<tag k="name" v="Ydderstad" />
		<tag k="place" v="farm" />
		<tag k="ssr:stedsnr" v="243748" />
	</node>
	<node lat="58.15654721887737" lon="8.267016674898233" id="-28357">
		<tag k="name" v="Vesterjordet" />
		<tag k="place" v="farm" />
		<tag k="ssr:stedsnr" v="264348" />
	</node>
	<node lat="58.22429999663503" lon="8.354297225937536" id="-28358">
		<tag k="name" v="Østre Sundet" />
		<tag k="place" v="farm" />
		<tag k="ssr:stedsnr" v="264405" />
	</node>
	<node lat="58.284180552726525" lon="8.414627783763157" id="-28373">
		<tag k="name" v="Sådeholla" />
		<tag k="place" v="farm" />
		<tag k="ssr:stedsnr" v="264808" />
	</node>
	<node lat="58.28047499838996" lon="8.402261111574932" id="-28375">
		<tag k="name" v="Sagemyr" />
		<tag k="place" v="farm" />
		<tag k="ssr:stedsnr" v="264844" />
	</node>
	<node lat="58.29112222401599" lon="8.370166665650443" id="-28382">
		<tag k="name" v="Plassen" />
		<tag k="place" v="locality" />
		<tag k="ssr:stedsnr" v="265790" />
	</node>
	<node lat="58.22635555509218" lon="8.35527776995494" id="-28390">
		<tag k="name" v="Krossviga" />
		<tag k="place" v="isolated_dwelling" />
		<tag k="ssr:stedsnr" v="303278" />
	</node>
	<node lat="58.23004166921586" lon="8.299033324962314" id="-28393">
		<tag k="name" v="Bronen" />
		<tag k="place" v="farm" />
		<tag k="ssr:stedsnr" v="303284" />
	</node>
	<node lat="58.1862666684941" lon="8.286899992024908" id="-28395">
		<tag k="name" v="Bjørnviga" />
		<tag k="place" v="isolated_dwelling" />
		<tag k="ssr:stedsnr" v="303407" />
	</node>
	<node lat="58.169557708588115" lon="8.226733830186259" id="-28396">
		<tag k="name" v="Nordheim" />
		<tag k="place" v="farm" />
		<tag k="ssr:stedsnr" v="303616" />
	</node>
	<node lat="58.269952779819825" lon="8.28434999362369" id="-28399">
		<tag k="name" v="Høystakkmyra" />
		<tag k="place" v="isolated_dwelling" />
		<tag k="ssr:stedsnr" v="303715" />
	</node>
	<node lat="58.19046110861202" lon="8.252983328435034" id="-28401">
		<tag k="fixme" v="consider place=hamlet" />
		<tag k="name" v="Holte" />
		<tag k="place" v="farm" />
		<tag k="ssr:stedsnr" v="304378" />
	</node>
	<node lat="58.21594166801358" lon="8.367924992746161" id="-28406">
		<tag k="name" v="Teigene" />
		<tag k="place" v="isolated_dwelling" />
		<tag k="ssr:stedsnr" v="324728" />
	</node>
	<node lat="58.276288888748375" lon="8.418500005118831" id="-28439">
		<tag k="name" v="Skolen" />
		<tag k="place" v="farm" />
		<tag k="ssr:stedsnr" v="325841" />
	</node>
	<node lat="58.196897220461345" lon="8.335741671495903" id="-28447">
		<tag k="name" v="Brekkekjerr" />
		<tag k="place" v="farm" />
		<tag k="ssr:stedsnr" v="364405" />
	</node>
	<node lat="58.18758888605327" lon="8.312838897052861" id="-28450">
		<tag k="name" v="Kilsbakken" />
		<tag k="place" v="farm" />
		<tag k="ssr:stedsnr" v="364397" />
	</node>
	<node lat="58.20827778008253" lon="8.317433335933849" id="-28451">
		<tag k="fixme" v="consider place=hamlet" />
		<tag k="name" v="Fjelldalsøya, østre" />
		<tag k="place" v="farm" />
		<tag k="ssr:stedsnr" v="364504" />
	</node>
	<node lat="58.125972219365615" lon="8.22498888205582" id="-28452">
		<tag k="fixme" v="consider place=hamlet" />
		<tag k="name" v="Bagerviga" />
		<tag k="place" v="farm" />
		<tag k="ssr:stedsnr" v="364563" />
	</node>
	<node lat="58.14771110696053" lon="8.237380558045258" id="-28453">
		<tag k="name" v="Trædalen" />
		<tag k="place" v="farm" />
		<tag k="ssr:stedsnr" v="364597" />
	</node>
	<node lat="58.249625000114484" lon="8.323102775822207" id="-28455">
		<tag k="fixme" v="consider place=hamlet" />
		<tag k="name" v="Glamsland" />
		<tag k="place" v="farm" />
		<tag k="ssr:stedsnr" v="364910" />
	</node>
	<node lat="58.32126666416034" lon="8.35750278436043" id="-28470">
		<tag k="name" v="Tallaksplass" />
		<tag k="place" v="locality" />
		<tag k="ssr:stedsnr" v="385316" />
	</node>
	<node lat="58.23834444678863" lon="8.365961111854588" id="-28495">
		<tag k="name" v="Lunteviga" />
		<tag k="place" v="farm" />
		<tag k="ssr:stedsnr" v="385821" />
	</node>
	<node lat="58.231986108359926" lon="8.318530562817541" id="-28512">
		<tag k="alt_name" v="Nyland, østre" />
		<tag k="name" v="Østre Nyland" />
		<tag k="place" v="farm" />
		<tag k="ssr:stedsnr" v="485233" />
	</node>
	<node lat="58.2494527819732" lon="8.377191663501643" id="-28520">
		<tag k="name" v="Lillesand" />
		<tag k="place" v="town" />
		<tag k="ssr:stedsnr" v="485651" />
	</node>
	<node lat="58.257590015531264" lon="8.392920173883194" id="-28521">
		<tag k="fixme" v="consider place=hamlet" />
		<tag k="name" v="Tingsaker" />
		<tag k="place" v="farm" />
		<tag k="ssr:stedsnr" v="485654" />
	</node>
	<node lat="58.30076468114094" lon="8.332675661078193" id="-28526">
		<tag k="alt_name" v="Buene, øvre" />
		<tag k="name" v="Øvre Buene" />
		<tag k="place" v="farm" />
		<tag k="ssr:stedsnr" v="425306" />
	</node>
	<node lat="58.23656944865599" lon="8.354955560093547" id="-28527">
		<tag k="name" v="Skuggevig" />
		<tag k="place" v="farm" />
		<tag k="ssr:stedsnr" v="425256" />
	</node>
	<node lat="58.23724722407589" lon="8.336005553337289" id="-28528">
		<tag k="name" v="Sangereid" />
		<tag k="place" v="farm" />
		<tag k="ssr:stedsnr" v="425258" />
	</node>
	<node lat="58.29761944878927" lon="8.425575001207932" id="-28530">
		<tag k="fixme" v="consider place=hamlet" />
		<tag k="name" v="Gitmark" />
		<tag k="place" v="farm" />
		<tag k="ssr:stedsnr" v="425301" />
	</node>
	<node lat="58.12924166958049" lon="8.208216659156946" id="-28534">
		<tag k="name" v="Stenersnes" />
		<tag k="place" v="farm" />
		<tag k="ssr:stedsnr" v="425527" />
	</node>
	<node lat="58.13118888835525" lon="8.210361111712746" id="-28536">
		<tag k="fixme" v="consider place=hamlet" />
		<tag k="name" v="Ribe" />
		<tag k="place" v="farm" />
		<tag k="ssr:stedsnr" v="425529" />
	</node>
	<node lat="58.15889999601569" lon="8.246097223776303" id="-28537">
		<tag k="name" v="Åmbunes" />
		<tag k="place" v="farm" />
		<tag k="ssr:stedsnr" v="425543" />
	</node>
	<node lat="58.280619445804014" lon="8.402611105655305" id="-28539">
		<tag k="name" v="Rydningen" />
		<tag k="place" v="farm" />
		<tag k="ssr:stedsnr" v="425747" />
	</node>
	<node lat="58.27810277546218" lon="8.320294445793511" id="-28560">
		<tag k="name" v="Myrland" />
		<tag k="place" v="farm" />
		<tag k="ssr:stedsnr" v="446397" />
	</node>
	<node lat="58.17900278000489" lon="8.240805563444942" id="-28561">
		<tag k="name" v="Øresland" />
		<tag k="place" v="hamlet" />
		<tag k="ssr:stedsnr" v="446531" />
	</node>
	<node lat="58.26175555200903" lon="8.355050004271991" id="-28591">
		<tag k="name" v="Fyresmoen" />
		<tag k="place" v="farm" />
		<tag k="ssr:stedsnr" v="474011" />
	</node>
	<node lat="58.24010833327704" lon="8.363450001739393" id="-28593">
		<tag k="name" v="Grøgårdsmyr" />
		<tag k="place" v="quarter" />
		<tag k="ssr:stedsnr" v="485205" />
	</node>
	<node lat="58.192855553464945" lon="8.239244441691666" id="-28594">
		<tag k="name" v="Moen" />
		<tag k="place" v="farm" />
		<tag k="ssr:stedsnr" v="485314" />
	</node>
	<node lat="58.15765073758118" lon="8.225688523886209" id="-28599">
		<tag k="fixme" v="consider place=hamlet" />
		<tag k="name" v="Åmland" />
		<tag k="place" v="farm" />
		<tag k="ssr:stedsnr" v="485523" />
	</node>
	<node lat="58.20262500152308" lon="8.345555554885092" id="-28611">
		<tag k="fixme" v="consider place=hamlet" />
		<tag k="name" v="Øvre Stutti" />
		<tag k="place" v="farm" />
		<tag k="ssr:stedsnr" v="506825" />
	</node>
	<node lat="58.26512499744759" lon="8.305452783458163" id="-28637">
		<tag k="name" v="Plassen" />
		<tag k="place" v="farm" />
		<tag k="ssr:stedsnr" v="507361" />
	</node>
	<node lat="58.25767500032917" lon="8.398944448925963" id="-28653">
		<tag k="name" v="Ålebekk" />
		<tag k="place" v="farm" />
		<tag k="ssr:stedsnr" v="507855" />
	</node>
	<node lat="58.1876916641677" lon="8.23625000590757" id="-28661">
		<tag k="fixme" v="consider place=hamlet" />
		<tag k="name" v="Kjøstveit" />
		<tag k="place" v="farm" />
		<tag k="ssr:stedsnr" v="546404" />
	</node>
	<node lat="58.18056111146124" lon="8.201072222173062" id="-28662">
		<tag k="fixme" v="consider place=hamlet" />
		<tag k="name" v="Erviga" />
		<tag k="place" v="farm" />
		<tag k="ssr:stedsnr" v="546406" />
	</node>
	<node lat="58.21735832990328" lon="8.332661109434534" id="-28663">
		<tag k="name" v="Torskebekk" />
		<tag k="place" v="isolated_dwelling" />
		<tag k="ssr:stedsnr" v="546408" />
	</node>
	<node lat="58.21864722205879" lon="8.270197218214312" id="-28665">
		<tag k="name" v="Kolverhaugen" />
		<tag k="place" v="farm" />
		<tag k="ssr:stedsnr" v="546431" />
	</node>
	<node lat="58.20302777577299" lon="8.365622223084042" id="-28668">
		<tag k="name" v="Nyberg" />
		<tag k="place" v="farm" />
		<tag k="ssr:stedsnr" v="546377" />
	</node>
	<node lat="58.1628055575179" lon="8.236155557807619" id="-28670">
		<tag k="name" v="Myra" />
		<tag k="place" v="farm" />
		<tag k="ssr:stedsnr" v="546579" />
	</node>
	<node lat="58.164477219124365" lon="8.22064380006308" id="-28671">
		<tag k="fixme" v="consider place=hamlet" />
		<tag k="name" v="Indre Årsnes" />
		<tag k="place" v="farm" />
		<tag k="ssr:stedsnr" v="546581" />
	</node>
	<node lat="58.168187455455524" lon="8.192733816910279" id="-28672">
		<tag k="fixme" v="consider place=hamlet" />
		<tag k="name" v="Kvåse" />
		<tag k="place" v="farm" />
		<tag k="ssr:stedsnr" v="546582" />
	</node>
	<node lat="58.24134999771155" lon="8.355225007394504" id="-28727">
		<tag k="name" v="Engekjerr" />
		<tag k="place" v="quarter" />
		<tag k="ssr:stedsnr" v="689920" />
	</node>
	<node lat="58.30024444194298" lon="8.40194166732116" id="-28729">
		<tag k="name" v="Vatne" />
		<tag k="place" v="farm" />
		<tag k="ssr:stedsnr" v="689741" />
	</node>
	<node lat="58.14126111046468" lon="8.233574998821728" id="-28747">
		<tag k="name" v="Myra" />
		<tag k="place" v="farm" />
		<tag k="ssr:stedsnr" v="567179" />
	</node>
	<node lat="58.180627776640186" lon="8.308611111111375" id="-28773">
		<tag k="name" v="Skaftet" />
		<tag k="place" v="farm" />
		<tag k="ssr:stedsnr" v="567458" />
	</node>
	<node lat="58.24397777459842" lon="8.376283333024485" id="-28780">
		<tag k="name" v="Rosenberg" />
		<tag k="place" v="quarter" />
		<tag k="ssr:stedsnr" v="567806" />
	</node>
	<node lat="58.23873610719645" lon="8.358024998476335" id="-28781">
		<tag k="building" v="commercial" />
		<tag k="name" v="Asko" />
		<tag k="ssr:stedsnr" v="567807" />
	</node>
	<node lat="58.202583333377504" lon="8.252166659454728" id="-28805">
		<tag k="name" v="Breivig" />
		<tag k="place" v="farm" />
		<tag k="ssr:stedsnr" v="606373" />
	</node>
	<node lat="58.18565000249616" lon="8.300594441522174" id="-28807">
		<tag k="name" v="Sømminga" />
		<tag k="place" v="farm" />
		<tag k="ssr:stedsnr" v="606386" />
	</node>
	<node lat="58.18323333539816" lon="8.161372227429208" id="-28809">
		<tag k="fixme" v="consider place=hamlet" />
		<tag k="name" v="Sydinga" />
		<tag k="place" v="farm" />
		<tag k="ssr:stedsnr" v="606418" />
	</node>
	<node lat="58.16402499737836" lon="8.202122224974655" id="-28812">
		<tag k="name" v="Slåttane" />
		<tag k="place" v="farm" />
		<tag k="ssr:stedsnr" v="606613" />
	</node>
	<node lat="58.16771110732585" lon="8.21475277543459" id="-28813">
		<tag k="name" v="Olabyen" />
		<tag k="place" v="isolated_dwelling" />
		<tag k="ssr:stedsnr" v="606617" />
	</node>
	<node lat="58.16936944208375" lon="8.219561113551263" id="-28814">
		<tag k="name" v="Hovdedalen" />
		<tag k="place" v="farm" />
		<tag k="ssr:stedsnr" v="606597" />
	</node>
	<node lat="58.172100000551346" lon="8.220688882139811" id="-28815">
		<tag k="fixme" v="consider place=hamlet" />
		<tag k="name" v="Opseng" />
		<tag k="place" v="farm" />
		<tag k="ssr:stedsnr" v="606599" />
	</node>
	<node lat="58.2618000002" lon="8.346941672540542" id="-28817">
		<tag k="name" v="Sandvad" />
		<tag k="place" v="farm" />
		<tag k="ssr:stedsnr" v="606707" />
	</node>
	<node lat="58.14991667089299" lon="8.217616671456168" id="-28834">
		<tag k="leisure" v="pitch" />
		<tag k="name" v="Høvåg stadion" />
		<tag k="ssr:stedsnr" v="627599" />
	</node>
	<node lat="58.26770555916227" lon="8.34428611895689" id="-28867">
		<tag k="alt_name" v="Hesthavn" />
		<tag k="name" v="Hesthagen" />
		<tag k="place" v="farm" />
		<tag k="ssr:stedsnr" v="628809" />
	</node>
	<node lat="58.25976667110032" lon="8.361111108402126" id="-28869">
		<tag k="fixme" v="consider place=hamlet" />
		<tag k="name" v="Møglestu" />
		<tag k="place" v="village" />
		<tag k="ssr:stedsnr" v="628815" />
	</node>
	<node lat="58.254858336070114" lon="8.387494447185317" id="-28870">
		<tag k="name" v="Tingsaker nedre" />
		<tag k="place" v="farm" />
		<tag k="ssr:stedsnr" v="628817" />
	</node>
	<node lat="58.28503888729589" lon="8.297655560266243" id="-28873">
		<tag k="name" v="Nordheim" />
		<tag k="place" v="farm" />
		<tag k="ssr:stedsnr" v="628798" />
	</node>
	<node lat="58.17817499989324" lon="8.237347224224965" id="-28890">
		<tag k="name" v="Nyglestea" />
		<tag k="place" v="farm" />
		<tag k="ssr:stedsnr" v="667412" />
	</node>
	<node lat="58.207097217842666" lon="8.356680549116247" id="-28891">
		<tag k="name" v="Rønningen" />
		<tag k="place" v="farm" />
		<tag k="ssr:stedsnr" v="667431" />
	</node>
	<node lat="58.16797222579286" lon="8.154352778109354" id="-28895">
		<tag k="fixme" v="consider place=hamlet" />
		<tag k="name" v="Rosselia" />
		<tag k="place" v="farm" />
		<tag k="ssr:stedsnr" v="667401" />
	</node>
	<node lat="58.15507840417867" lon="8.2437509327088" id="-28897">
		<tag k="name" v="Jakteviga" />
		<tag k="place" v="farm" />
		<tag k="ssr:stedsnr" v="667534" />
	</node>
	<node lat="58.23757499901851" lon="8.244811109510133" id="-28965">
		<tag k="alt_name" v="Hanes" />
		<tag k="name" v="Hones" />
		<tag k="place" v="farm" />
		<tag k="ssr:stedsnr" v="728228" />
	</node>
	<node lat="58.23911419331132" lon="8.387337199308913" id="-28967">
		<tag k="name" v="Støa" />
		<tag k="place" v="isolated_dwelling" />
		<tag k="ssr:stedsnr" v="728271" />
	</node>
	<node lat="58.20998303397995" lon="8.25465765315564" id="-28973">
		<tag k="name" v="Kornnes" />
		<tag k="place" v="farm" />
		<tag k="ssr:stedsnr" v="728481" />
	</node>
	<node lat="58.21101666523458" lon="8.284052773845762" id="-28974">
		<tag k="name" v="Holvika" />
		<tag k="place" v="farm" />
		<tag k="ssr:stedsnr" v="728483" />
	</node>
	<node lat="58.26544166409149" lon="8.269374994674457" id="-28975">
		<tag k="fixme" v="consider place=hamlet" />
		<tag k="name" v="Nordbø" />
		<tag k="place" v="farm" />
		<tag k="ssr:stedsnr" v="728678" />
	</node>
	<node lat="58.165522225937686" lon="8.17250277588189" id="-28976">
		<tag k="fixme" v="consider place=hamlet" />
		<tag k="name" v="Melåen" />
		<tag k="place" v="farm" />
		<tag k="ssr:stedsnr" v="728577" />
	</node>
	<node lat="58.215386111823726" lon="8.328336105298987" id="-28980">
		<tag k="name" v="Follevig" />
		<tag k="place" v="isolated_dwelling" />
		<tag k="ssr:stedsnr" v="749008" />
	</node>
	<node lat="58.15933055761749" lon="8.259727778000174" id="-28984">
		<tag k="name" v="Melhagen" />
		<tag k="place" v="farm" />
		<tag k="ssr:stedsnr" v="749204" />
	</node>
	<node lat="58.266061010451324" lon="8.356558732998206" id="-29017">
		<tag k="fixme" v="consider place=hamlet" />
		<tag k="name" v="Prestegården" />
		<tag k="place" v="farm" />
		<tag k="ssr:stedsnr" v="749858" />
	</node>
	<node lat="58.18544166880015" lon="8.223497213835993" id="-29043">
		<tag k="fixme" v="consider place=hamlet" />
		<tag k="name" v="Kalland" />
		<tag k="place" v="farm" />
		<tag k="ssr:stedsnr" v="910427" />
	</node>
	<node lat="58.261086109348255" lon="8.368227775923009" id="-29050">
		<tag k="alt_name" v="Møglestu gård" />
		<tag k="name" v="Møglestu" />
		<tag k="place" v="farm" />
		<tag k="ssr:stedsnr" v="785365" />
	</node>
	<node lat="58.26978333535179" lon="8.412052776144131" id="-29052">
		<tag k="alt_name" v="Heldal" />
		<tag k="name" v="Helldal" />
		<tag k="place" v="village" />
		<tag k="ssr:stedsnr" v="910715" />
	</node>
	<node lat="58.23748611001945" lon="8.28790277308564" id="-29056">
		<tag k="fixme" v="consider place=hamlet" />
		<tag k="name" v="Bjelland" />
		<tag k="place" v="farm" />
		<tag k="ssr:stedsnr" v="788261" />
	</node>
	<node lat="58.18113333110398" lon="8.266422227233821" id="-29059">
		<tag k="fixme" v="consider place=hamlet" />
		<tag k="name" v="Haugevig" />
		<tag k="place" v="farm" />
		<tag k="ssr:stedsnr" v="788399" />
	</node>
	<node lat="58.27534751195198" lon="8.300292421145496" id="-29060">
		<tag k="alt_name" v="Eikeland, yt;Ytre Eigeland" />
		<tag k="fixme" v="consider place=hamlet" />
		<tag k="name" v="Ytre Eikeland" />
		<tag k="place" v="farm" />
		<tag k="ssr:stedsnr" v="788718" />
	</node>
	<node lat="58.11372499965074" lon="8.210127785189131" id="-29068">
		<tag k="name" v="Ulvøysund" />
		<tag k="place" v="hamlet" />
		<tag k="ssr:stedsnr" v="789521" />
	</node>
	<node lat="58.1722777800565" lon="8.149388881656115" id="-29071">
		<tag k="fixme" v="consider place=hamlet" />
		<tag k="name" v="Grundebua" />
		<tag k="place" v="farm" />
		<tag k="ssr:stedsnr" v="789421" />
	</node>
	<node lat="58.278402773658556" lon="8.323397215903068" id="-29074">
		<tag k="name" v="Storemyr" />
		<tag k="place" v="farm" />
		<tag k="ssr:stedsnr" v="911758" />
	</node>
	<node lat="58.28853055987044" lon="8.425930563361248" id="-29075">
		<tag k="alt_name" v="Byttingsmyr" />
		<tag k="name" v="Bytingsmyra" />
		<tag k="place" v="farm" />
		<tag k="ssr:stedsnr" v="911764" />
	</node>
	<node lat="58.31617222613128" lon="8.308316660056873" id="-29093">
		<tag k="name" v="Fiskebekk" />
		<tag k="place" v="locality" />
		<tag k="ssr:stedsnr" v="810285" />
	</node>
	<node lat="58.21530212421978" lon="8.274159143109774" id="-29096">
		<tag k="name" v="Skibbuvollen" />
		<tag k="place" v="isolated_dwelling" />
		<tag k="ssr:stedsnr" v="810703" />
	</node>
	<node lat="58.2246777755757" lon="8.377597226328193" id="-29106">
		<tag k="name" v="Dyttesundlandet" />
		<tag k="place" v="isolated_dwelling" />
		<tag k="ssr:stedsnr" v="810622" />
	</node>
	<node lat="58.256303807091804" lon="8.383036984545834" id="-29109">
		<tag k="name" v="Solheim" />
		<tag k="place" v="farm" />
		<tag k="ssr:stedsnr" v="810938" />
	</node>
	<node lat="58.2253972235474" lon="8.372930551475559" id="-29117">
		<tag k="name" v="Haugenes" />
		<tag k="place" v="isolated_dwelling" />
		<tag k="ssr:stedsnr" v="845792" />
	</node>
	<node lat="58.22725833408768" lon="8.298244443600389" id="-29123">
		<tag k="name" v="Augland" />
		<tag k="place" v="farm" />
		<tag k="ssr:stedsnr" v="850285" />
	</node>
	<node lat="58.30016666551516" lon="8.37112778398293" id="-29124">
		<tag k="name" v="Langodden" />
		<tag k="place" v="isolated_dwelling" />
		<tag k="ssr:stedsnr" v="850287" />
	</node>
	<node lat="58.1889972261438" lon="8.292255554664687" id="-29127">
		<tag k="name" v="Kjøbmannsvig" />
		<tag k="place" v="farm" />
		<tag k="ssr:stedsnr" v="850410" />
	</node>
	<node lat="58.21734166981898" lon="8.25127222466529" id="-29130">
		<tag k="name" v="Steindal" />
		<tag k="place" v="farm" />
		<tag k="ssr:stedsnr" v="850484" />
	</node>
	<node lat="58.15101388909112" lon="8.207274998330433" id="-29132">
		<tag k="name" v="Nesane" />
		<tag k="place" v="farm" />
		<tag k="ssr:stedsnr" v="850579" />
	</node>
	<node lat="58.255821180867855" lon="8.41470075941168" id="-29134">
		<tag k="fixme" v="consider place=hamlet" />
		<tag k="name" v="Langedal" />
		<tag k="place" v="farm" />
		<tag k="ssr:stedsnr" v="850689" />
	</node>
	<node lat="58.26659444200555" lon="8.397511107713887" id="-29135">
		<tag k="name" v="Kleivsmyr" />
		<tag k="place" v="farm" />
		<tag k="ssr:stedsnr" v="850695" />
	</node>
	<node lat="58.26414722220322" lon="8.421247218146927" id="-29136">
		<tag k="fixme" v="consider place=hamlet" />
		<tag k="name" v="Dyvig" />
		<tag k="place" v="farm" />
		<tag k="ssr:stedsnr" v="850696" />
	</node>
	<node lat="58.19209722237707" lon="8.288461118943095" id="-29170">
		<tag k="name" v="Kamperhaug" />
		<tag k="place" v="farm" />
		<tag k="ssr:stedsnr" v="871508" />
	</node>
	<node lat="58.2150944450745" lon="8.383938896707711" id="-29173">
		<tag k="name" v="Justøy bibelcamping" />
		<tag k="ssr:stedsnr" v="871706" />
		<tag k="tourism" v="camp_site" />
	</node>
	<node lat="58.12862777895366" lon="8.228725001001623" id="-29189">
		<tag k="name" v="Sandane" />
		<tag k="place" v="farm" />
		<tag k="ssr:stedsnr" v="871875" />
	</node>
	<node lat="58.24156389155846" lon="8.365491666699459" id="-29197">
		<tag k="name" v="Solfjell" />
		<tag k="place" v="quarter" />
		<tag k="ssr:stedsnr" v="931659" />
	</node>
	<node lat="58.16809998761953" lon="8.253727054017856" id="-29208">
		<tag k="fixme" v="consider place=hamlet" />
		<tag k="name" v="Nedre Høvåg" />
		<tag k="place" v="farm" />
		<tag k="ssr:stedsnr" v="931371" />
	</node>
	<node lat="58.188388889367445" lon="8.203436116184344" id="-29237">
		<tag k="name" v="Hestkleiv" />
		<tag k="place" v="farm" />
		<tag k="ssr:stedsnr" v="932077" />
	</node>
	<node lat="58.28074722056283" lon="8.313433332239635" id="-29254">
		<tag k="name" v="Bjørnekjerrknekken" />
		<tag k="place" v="farm" />
		<tag k="ssr:stedsnr" v="932365" />
	</node>
	<node lat="58.32286388645158" lon="8.362305548361793" id="-29256">
		<tag k="name" v="Kringlemyr" />
		<tag k="place" v="farm" />
		<tag k="ssr:stedsnr" v="932295" />
	</node>
	<node lat="58.22543889080582" lon="8.352247227862453" id="-29259">
		<tag k="name" v="Vestre Sundet" />
		<tag k="place" v="farm" />
		<tag k="ssr:stedsnr" v="932334" />
	</node>
	<node lat="58.286191669678715" lon="8.293958333972554" id="-29277">
		<tag k="name" v="Myrheim" />
		<tag k="place" v="farm" />
		<tag k="ssr:stedsnr" v="932791" />
	</node>
	<node lat="58.13995277458956" lon="8.211494442949279" id="-29287">
		<tag k="name" v="Solborg" />
		<tag k="place" v="farm" />
		<tag k="ssr:stedsnr" v="932908" />
	</node>
	<node lat="58.241947223969376" lon="8.357955552507054" id="-29288">
		<tag k="name" v="Furulia" />
		<tag k="place" v="quarter" />
		<tag k="ssr:stedsnr" v="932916" />
	</node>
	<node lat="58.25566111404029" lon="8.360702775260382" id="-29289">
		<tag k="name" v="Holta" />
		<tag k="place" v="farm" />
		<tag k="ssr:stedsnr" v="932920" />
	</node>
	<node lat="58.25479166874259" lon="8.371466673089362" id="-29290">
		<tag k="fixme" v="consider place=hamlet" />
		<tag k="name" v="Lofthus" />
		<tag k="place" v="farm" />
		<tag k="ssr:stedsnr" v="932922" />
	</node>
	<node lat="58.255766670613866" lon="8.384566671437998" id="-29291">
		<tag k="name" v="Solheim" />
		<tag k="place" v="farm" />
		<tag k="ssr:stedsnr" v="932929" />
	</node>
	<node lat="58.15479444570097" lon="8.259758332183951" id="-29297">
		<tag k="name" v="Bjørnholmen" />
		<tag k="place" v="farm" />
		<tag k="ssr:stedsnr" v="910581" />
	</node>
	<node lat="58.14567499933862" lon="8.208933341124322" id="-29298">
		<tag k="name" v="Opsebakken" />
		<tag k="place" v="farm" />
		<tag k="ssr:stedsnr" v="910589" />
	</node>
	<node lat="58.17285832948503" lon="8.23325832638613" id="-29301">
		<tag k="name" v="Røsnes" />
		<tag k="place" v="farm" />
		<tag k="ssr:stedsnr" v="910608" />
	</node>
	<node lat="58.23616509003076" lon="8.354934372992657" id="-29308">
		<tag k="name" v="Tømmervig" />
		<tag k="place" v="farm" />
		<tag k="ssr:stedsnr" v="931641" />
	</node>
	<node lat="58.15209167050078" lon="8.28054444053097" id="-29320">
		<tag k="name" v="Hvalholmsund" />
		<tag k="place" v="farm" />
		<tag k="ssr:stedsnr" v="932043" />
	</node>
	<node lat="58.2798555516746" lon="8.401574994493075" id="-29340">
		<tag k="name" v="Sagebakken" />
		<tag k="place" v="farm" />
		<tag k="ssr:stedsnr" v="932831" />
	</node>
	<node lat="58.20805001869675" lon="8.31276834186947" id="-29351">
		<tag k="name" v="Fjelldalsøya" />
		<tag k="place" v="hamlet" />
		<tag k="ssr:stedsnr" v="971097" />
	</node>
	<node lat="58.20952215073142" lon="8.322527369679937" id="-29352">
		<tag k="fixme" v="consider place=hamlet" />
		<tag k="name" v="Grisøya" />
		<tag k="place" v="farm" />
		<tag k="ssr:stedsnr" v="971098" />
	</node>
	<node lat="58.20271769522069" lon="8.327480135858673" id="-29353">
		<tag k="fixme" v="consider place=hamlet" />
		<tag k="name" v="Kragsøy" />
		<tag k="place" v="farm" />
		<tag k="ssr:stedsnr" v="971099" />
	</node>
	<node lat="58.1965042070677" lon="8.350078749095276" id="-29354">
		<tag k="fixme" v="consider place=hamlet" />
		<tag k="name" v="Brekkestø" />
		<tag k="place" v="farm" />
		<tag k="ssr:stedsnr" v="971100" />
	</node>
	<node lat="58.23465503453232" lon="8.385930412372877" id="-29355">
		<tag k="fixme" v="consider place=hamlet" />
		<tag k="name" v="Skogerøen" />
		<tag k="place" v="farm" />
		<tag k="ssr:stedsnr" v="971147" />
	</node>
	<node lat="58.25686669766877" lon="8.431162601719748" id="-29356">
		<tag k="fixme" v="consider place=hamlet" />
		<tag k="name" v="Kallenes" />
		<tag k="place" v="farm" />
		<tag k="ssr:stedsnr" v="971148" />
	</node>
	<node lat="58.27149761105916" lon="8.410105412929518" id="-29357">
		<tag k="fixme" v="consider place=hamlet" />
		<tag k="name" v="Heldal" />
		<tag k="place" v="farm" />
		<tag k="ssr:stedsnr" v="971150" />
	</node>
	<node lat="58.216505120108714" lon="8.284926789834698" id="-29358">
		<tag k="fixme" v="consider place=hamlet" />
		<tag k="name" v="Vallesværdalen" />
		<tag k="place" v="farm" />
		<tag k="ssr:stedsnr" v="971151" />
	</node>
	<node lat="58.21560202512387" lon="8.253668913706136" id="-29359">
		<tag k="fixme" v="consider place=hamlet" />
		<tag k="name" v="Søndre Steindal" />
		<tag k="place" v="farm" />
		<tag k="ssr:stedsnr" v="971152" />
	</node>
	<node lat="58.21921137433953" lon="8.251776938189558" id="-29360">
		<tag k="fixme" v="consider place=hamlet" />
		<tag k="name" v="Nordre Steindal" />
		<tag k="place" v="farm" />
		<tag k="ssr:stedsnr" v="971153" />
	</node>
	<node lat="58.217412608437314" lon="8.254213489249377" id="-29361">
		<tag k="name" v="Steindal" />
		<tag k="place" v="hamlet" />
		<tag k="ssr:stedsnr" v="971155" />
	</node>
	<node lat="58.213235920224705" lon="8.271005900215936" id="-29362">
		<tag k="name" v="Vallesverd" />
		<tag k="place" v="hamlet" />
		<tag k="ssr:stedsnr" v="971156" />
	</node>
	<node lat="58.208436934096994" lon="8.204299300239303" id="-29363">
		<tag k="fixme" v="consider place=hamlet" />
		<tag k="name" v="Uldalen" />
		<tag k="place" v="farm" />
		<tag k="ssr:stedsnr" v="971157" />
	</node>
	<node lat="58.16532753243372" lon="8.205901914541379" id="-29364">
		<tag k="fixme" v="consider place=hamlet" />
		<tag k="name" v="Eidjord" />
		<tag k="place" v="farm" />
		<tag k="ssr:stedsnr" v="971158" />
	</node>
	<node lat="58.11885716813647" lon="8.209579518866093" id="-29365">
		<tag k="fixme" v="consider place=hamlet" />
		<tag k="name" v="Ulvøen" />
		<tag k="place" v="farm" />
		<tag k="ssr:stedsnr" v="971161" />
	</node>
	<node lat="58.14499351922126" lon="8.252092529729572" id="-29366">
		<tag k="fixme" v="consider place=hamlet" />
		<tag k="name" v="Grimsøen" />
		<tag k="place" v="farm" />
		<tag k="ssr:stedsnr" v="971162" />
	</node>
	<node lat="58.15303598261176" lon="8.271128775290817" id="-29367">
		<tag k="fixme" v="consider place=hamlet" />
		<tag k="name" v="Ytre Tronderøen" />
		<tag k="place" v="farm" />
		<tag k="ssr:stedsnr" v="971164" />
	</node>
	<node lat="58.15646743110935" lon="8.266632276632269" id="-29368">
		<tag k="fixme" v="consider place=hamlet" />
		<tag k="name" v="Indre Tronderøen" />
		<tag k="place" v="farm" />
		<tag k="ssr:stedsnr" v="971165" />
	</node>
	<node lat="58.17063013225553" lon="8.251773883291985" id="-29369">
		<tag k="name" v="Høvåg" />
		<tag k="place" v="hamlet" />
		<tag k="ssr:stedsnr" v="971166" />
	</node>
	<node lat="58.17250118083223" lon="8.23362924193255" id="-29370">
		<tag k="fixme" v="consider place=hamlet" />
		<tag k="name" v="Rossekjær" />
		<tag k="place" v="farm" />
		<tag k="ssr:stedsnr" v="971167" />
	</node>
	<node lat="58.185443456743776" lon="8.316501773413378" id="-29371">
		<tag k="fixme" v="consider place=hamlet" />
		<tag k="name" v="Åkerøen" />
		<tag k="place" v="farm" />
		<tag k="ssr:stedsnr" v="971171" />
	</node>
	<node lat="58.17114205276172" lon="8.251156839934989" id="-29389">
		<tag k="name" v="Øvre Høvåg" />
		<tag k="place" v="farm" />
		<tag k="ssr:stedsnr" v="989978" />
	</node>
	<node lat="58.14063610893099" lon="8.231463890203472" id="-29400">
		<tag k="name" v="Spannskjerr" />
		<tag k="place" v="farm" />
		<tag k="ssr:stedsnr" v="529" />
	</node>
	<node lat="58.24427221932815" lon="8.362733337491015" id="-29450">
		<tag k="alt_name" v="Borkedalen-barnesk" />
		<tag k="amenity" v="school" />
		<tag k="name" v="Borkedalen-barneskole" />
		<tag k="ssr:stedsnr" v="21922" />
	</node>
	<node lat="58.25131666676043" lon="8.372944436940749" id="-29452">
		<tag k="name" v="Stene" />
		<tag k="place" v="farm" />
		<tag k="ssr:stedsnr" v="21930" />
	</node>
	<node lat="58.25798610832621" lon="8.391422229523561" id="-29460">
		<tag k="name" v="Tingsaker øvre" />
		<tag k="place" v="farm" />
		<tag k="ssr:stedsnr" v="22329" />
	</node>
	<node lat="58.187989830327645" lon="8.200310031228728" id="-29474">
		<tag k="name" v="Auren" />
		<tag k="place" v="farm" />
		<tag k="ssr:stedsnr" v="22070" />
	</node>
	<node lat="58.19311110821647" lon="8.313919437961243" id="-29497">
		<tag k="name" v="Kringlevollen" />
		<tag k="place" v="isolated_dwelling" />
		<tag k="ssr:stedsnr" v="22469" />
	</node>
	<node lat="58.29462499792397" lon="8.367338885097409" id="-29499">
		<tag k="historic" v="shieling" />
		<tag k="name" v="Lillebuene" />
		<tag k="place" v="isolated_dwelling" />
		<tag k="ssr:stedsnr" v="22757" />
	</node>
	<node lat="58.28825189225116" lon="8.287989376318468" id="-29505">
		<tag k="alt_name" v="Skjerpe" />
		<tag k="name" v="Skjærpe" />
		<tag k="place" v="isolated_dwelling" />
		<tag k="ssr:stedsnr" v="61295" />
	</node>
	<node lat="58.212950004436216" lon="8.367049996363052" id="-29508">
		<tag k="name" v="Bergsvoll" />
		<tag k="place" v="farm" />
		<tag k="ssr:stedsnr" v="60457" />
	</node>
	<node lat="58.235849998705746" lon="8.360569450786596" id="-29510">
		<tag k="building" v="industrial" />
		<tag k="industrial" v="factory" />
		<tag k="name" v="Treullfab" />
		<tag k="ssr:stedsnr" v="61241" />
	</node>
	<node lat="58.21827254557818" lon="8.315820978607109" id="-29512">
		<tag k="alt_name" v="Kosvik" />
		<tag k="fixme" v="consider place=hamlet" />
		<tag k="name" v="Kosvig" />
		<tag k="place" v="farm" />
		<tag k="ssr:stedsnr" v="61432" />
	</node>
	<node lat="58.15548535214141" lon="8.185089109545432" id="-29515">
		<tag k="fixme" v="consider place=hamlet" />
		<tag k="name" v="Vesterhus" />
		<tag k="place" v="farm" />
		<tag k="ssr:stedsnr" v="61549" />
	</node>
	<node lat="58.14916046686951" lon="8.229171362931917" id="-29516">
		<tag k="fixme" v="consider place=hamlet" />
		<tag k="name" v="Frillestad" />
		<tag k="place" v="farm" />
		<tag k="ssr:stedsnr" v="61565" />
	</node>
	<node lat="58.21523611202585" lon="8.325802782035758" id="-29518">
		<tag k="name" v="Ramsdalen" />
		<tag k="place" v="farm" />
		<tag k="ssr:stedsnr" v="82016" />
	</node>
	<node lat="58.14848333260241" lon="8.24856944632616" id="-29562">
		<tag k="name" v="Svinebeida" />
		<tag k="place" v="isolated_dwelling" />
		<tag k="ssr:stedsnr" v="82563" />
	</node>
	<node lat="58.29834999785476" lon="8.437036109230718" id="-29574">
		<tag k="name" v="Øygarden" />
		<tag k="place" v="farm" />
		<tag k="ssr:stedsnr" v="82807" />
	</node>
	<node lat="58.24416389336224" lon="8.370233332005727" id="-29577">
		<tag k="name" v="Solgård" />
		<tag k="place" v="quarter" />
		<tag k="ssr:stedsnr" v="82815" />
	</node>
	<node lat="58.24025555438252" lon="8.364711110468088" id="-29578">
		<tag k="name" v="Grøgårdsmyr" />
		<tag k="place" v="farm" />
		<tag k="ssr:stedsnr" v="82818" />
	</node>
	<node lat="58.28177222666038" lon="8.308930551703748" id="-29579">
		<tag k="name" v="Støa" />
		<tag k="place" v="farm" />
		<tag k="ssr:stedsnr" v="82821" />
	</node>
	<node lat="58.27855833598928" lon="8.420147230030809" id="-29580">
		<tag k="amenity" v="nursing_home" />
		<tag k="name" v="Sykehjem" />
		<tag k="ssr:stedsnr" v="82884" />
	</node>
	<node lat="58.193461107806776" lon="8.291963894157755" id="-29603">
		<tag k="fixme" v="consider place=hamlet" />
		<tag k="name" v="Flesi" />
		<tag k="place" v="farm" />
		<tag k="ssr:stedsnr" v="121387" />
	</node>
	<node lat="58.201811112663535" lon="8.350991674334685" id="-29604">
		<tag k="alt_name" v="Tuene" />
		<tag k="name" v="Tune" />
		<tag k="place" v="farm" />
		<tag k="ssr:stedsnr" v="121390" />
	</node>
	<node lat="58.2119583355001" lon="8.286569447413974" id="-29606">
		<tag k="name" v="Holmen" />
		<tag k="place" v="farm" />
		<tag k="ssr:stedsnr" v="121491" />
	</node>
	<node lat="58.20565000296469" lon="8.290027771497286" id="-29607">
		<tag k="name" v="Årdalen" />
		<tag k="place" v="farm" />
		<tag k="ssr:stedsnr" v="121493" />
	</node>
	<node lat="58.21093055389454" lon="8.365899993656031" id="-29609">
		<tag k="name" v="Fjellheim" />
		<tag k="place" v="farm" />
		<tag k="ssr:stedsnr" v="121460" />
	</node>
	<node lat="58.18524721970482" lon="8.208530549805674" id="-29618">
		<tag k="historic" v="shieling" />
		<tag k="name" v="Ormestøl" />
		<tag k="place" v="isolated_dwelling" />
		<tag k="ssr:stedsnr" v="142123" />
	</node>
	<node lat="58.15447222591462" lon="8.188961102873986" id="-29628">
		<tag k="name" v="Neset" />
		<tag k="place" v="farm" />
		<tag k="ssr:stedsnr" v="142240" />
	</node>
	<node lat="58.152566665373215" lon="8.184586112879478" id="-29629">
		<tag k="name" v="Ytre Vesterhus" />
		<tag k="place" v="farm" />
		<tag k="ssr:stedsnr" v="142241" />
	</node>
	<node lat="58.26248611263983" lon="8.41824166077538" id="-29671">
		<tag k="name" v="Bastuholmen" />
		<tag k="place" v="farm" />
		<tag k="ssr:stedsnr" v="142771" />
	</node>
	<node lat="58.266602775382744" lon="8.39719443823539" id="-29673">
		<tag k="name" v="Steinkar" />
		<tag k="place" v="farm" />
		<tag k="ssr:stedsnr" v="142871" />
	</node>
	<node lat="58.290205555737614" lon="8.370355557175655" id="-29677">
		<tag k="name" v="Østre Buene" />
		<tag k="old_name" v="Øsre Buene" />
		<tag k="place" v="locality" />
		<tag k="ssr:stedsnr" v="143741" />
	</node>
	<node lat="58.31575277825903" lon="8.398427774732175" id="-29682">
		<tag k="name" v="Hytta" />
		<tag k="place" v="isolated_dwelling" />
		<tag k="ssr:stedsnr" v="143251" />
	</node>
	<node lat="58.188719446152035" lon="8.197177785241081" id="-29704">
		<tag k="fixme" v="consider place=hamlet" />
		<tag k="name" v="Isefjær" />
		<tag k="place" v="farm" />
		<tag k="ssr:stedsnr" v="182373" />
	</node>
	<node lat="58.20397221919634" lon="8.274086116175734" id="-29705">
		<tag k="name" v="Ingridsnes" />
		<tag k="place" v="farm" />
		<tag k="ssr:stedsnr" v="182388" />
	</node>
	<node lat="58.17123611460216" lon="8.245897225960602" id="-29706">
		<tag k="name" v="Høvåg" />
		<tag k="place" v="village" />
		<tag k="ssr:stedsnr" v="182608" />
	</node>
	<node lat="58.16095136686574" lon="8.268585088402844" id="-29707">
		<tag k="fixme" v="consider place=hamlet" />
		<tag k="name" v="Blikssund" />
		<tag k="place" v="farm" />
		<tag k="ssr:stedsnr" v="182615" />
	</node>
	<node lat="58.27665277464798" lon="8.399113886136591" id="-29710">
		<tag k="name" v="Teinemyr" />
		<tag k="place" v="isolated_dwelling" />
		<tag k="ssr:stedsnr" v="182715" />
	</node>
	<node lat="58.140126841380614" lon="8.245828615208026" id="-29711">
		<tag k="fixme" v="consider place=hamlet" />
		<tag k="name" v="Hellenes" />
		<tag k="place" v="farm" />
		<tag k="ssr:stedsnr" v="182580" />
	</node>
	<node lat="58.14910000381177" lon="8.162894438088205" id="-29712">
		<tag k="alt_name" v="Randvikdalen" />
		<tag k="fixme" v="consider place=hamlet" />
		<tag k="name" v="Randvigdalen" />
		<tag k="place" v="farm" />
		<tag k="ssr:stedsnr" v="182585" />
	</node>
	<node lat="58.29056388802504" lon="8.4342083413304" id="-29768">
		<tag k="name" v="Sandvigmoen" />
		<tag k="place" v="farm" />
		<tag k="ssr:stedsnr" v="204786" />
	</node>
	<node lat="58.26206111108817" lon="8.3962805549889" id="-29769">
		<tag k="building" v="commercial" />
		<tag k="name" v="E18-senteret" />
		<tag k="ssr:stedsnr" v="204857" />
	</node>
	<node lat="58.18943333285765" lon="8.164641665012262" id="-29771">
		<tag k="historic" v="shieling" />
		<tag k="name" v="Snelldalen" />
		<tag k="place" v="isolated_dwelling" />
		<tag k="ssr:stedsnr" v="204956" />
	</node>
	<node lat="58.129099999135974" lon="8.224424999802313" id="-29780">
		<tag k="fixme" v="consider place=hamlet" />
		<tag k="name" v="Gløtningsvåg" />
		<tag k="place" v="farm" />
		<tag k="ssr:stedsnr" v="303558" />
	</node>
	<node lat="58.29900555260277" lon="8.396361111449313" id="-29782">
		<tag k="name" v="Bustølen" />
		<tag k="place" v="isolated_dwelling" />
		<tag k="ssr:stedsnr" v="303290" />
	</node>
	<node lat="58.24100277712661" lon="8.329766674448443" id="-29788">
		<tag k="name" v="Kleivsmoen" />
		<tag k="place" v="quarter" />
		<tag k="ssr:stedsnr" v="303350" />
	</node>
	<node lat="58.28363333410368" lon="8.425861111943572" id="-29790">
		<tag k="name" v="Kaldvellheia" />
		<tag k="place" v="farm" />
		<tag k="ssr:stedsnr" v="304754" />
	</node>
	<node lat="58.16966127185216" lon="8.245842331471643" id="-29802">
		<tag k="fixme" v="consider place=hamlet" />
		<tag k="name" v="Øvre Høvåg" />
		<tag k="place" v="farm" />
		<tag k="ssr:stedsnr" v="324362" />
	</node>
	<node lat="58.15399444360674" lon="8.223483335915397" id="-29833">
		<tag k="name" v="Krågenes" />
		<tag k="place" v="farm" />
		<tag k="ssr:stedsnr" v="325198" />
	</node>
	<node lat="58.26146944495042" lon="8.363730558881233" id="-29839">
		<tag k="amenity" v="sports_centre" />
		<tag k="name" v="Møglestuhallen" />
		<tag k="ssr:stedsnr" v="325805" />
	</node>
	<node lat="58.19760455962521" lon="8.34889572406595" id="-29844">
		<tag k="name" v="Brekkekjær pensjonat" />
		<tag k="ssr:stedsnr" v="325352" />
		<tag k="tourism" v="guest_house" />
	</node>
	<node lat="58.24941389223056" lon="8.374877778965887" id="-29852">
		<tag k="name" v="Bellevue" />
		<tag k="place" v="farm" />
		<tag k="ssr:stedsnr" v="325926" />
	</node>
	<node lat="58.27299722413851" lon="8.414919441596314" id="-29854">
		<tag k="name" v="Tjoremyra" />
		<tag k="place" v="farm" />
		<tag k="ssr:stedsnr" v="325844" />
	</node>
	<node lat="58.277836113927464" lon="8.407674996215817" id="-29855">
		<tag k="name" v="Nyberg" />
		<tag k="place" v="farm" />
		<tag k="ssr:stedsnr" v="325845" />
	</node>
	<node lat="58.23640833264356" lon="8.209494436642224" id="-29866">
		<tag k="alt_name" v="Stemmene" />
		<tag k="name" v="Stemmane" />
		<tag k="place" v="farm" />
		<tag k="ssr:stedsnr" v="364273" />
	</node>
	<node lat="58.21552222666166" lon="8.201741659492537" id="-29870">
		<tag k="name" v="Uldalen" />
		<tag k="place" v="isolated_dwelling" />
		<tag k="ssr:stedsnr" v="364459" />
	</node>
	<node lat="58.218412851561965" lon="8.306957090872567" id="-29871">
		<tag k="name" v="Stranda" />
		<tag k="place" v="farm" />
		<tag k="ssr:stedsnr" v="364460" />
	</node>
	<node lat="58.13483610785452" lon="8.210822220278665" id="-29875">
		<tag k="name" v="Longnes" />
		<tag k="place" v="farm" />
		<tag k="ssr:stedsnr" v="364541" />
	</node>
	<node lat="58.25793888837638" lon="8.367824993156225" id="-29878">
		<tag k="fixme" v="consider place=hamlet" />
		<tag k="name" v="Møglestu" />
		<tag k="place" v="farm" />
		<tag k="ssr:stedsnr" v="364723" />
	</node>
	<node lat="58.25875555261124" lon="8.262558339825919" id="-29879">
		<tag k="alt_name" v="Buene" />
		<tag k="name" v="Torkelsbuene" />
		<tag k="place" v="isolated_dwelling" />
		<tag k="ssr:stedsnr" v="364725" />
	</node>
	<node lat="58.212872391330016" lon="8.368706958113446" id="-29880">
		<tag k="fixme" v="consider place=hamlet" />
		<tag k="name" v="Mebø" />
		<tag k="place" v="farm" />
		<tag k="ssr:stedsnr" v="364472" />
	</node>
	<node lat="58.13603434389352" lon="8.246076394691412" id="-29881">
		<tag k="fixme" v="consider place=hamlet" />
		<tag k="name" v="Natvig" />
		<tag k="place" v="farm" />
		<tag k="ssr:stedsnr" v="364566" />
	</node>
	<node lat="58.158099997846946" lon="8.255766673394652" id="-29882">
		<tag k="name" v="Snekkeviga" />
		<tag k="place" v="farm" />
		<tag k="ssr:stedsnr" v="364580" />
	</node>
	<node lat="58.153094445651924" lon="8.209047216570294" id="-29883">
		<tag k="name" v="Fløndalen" />
		<tag k="place" v="farm" />
		<tag k="ssr:stedsnr" v="364583" />
	</node>
	<node lat="58.168039388138" lon="8.163404675942349" id="-29886">
		<tag k="fixme" v="consider place=hamlet" />
		<tag k="name" v="Sagåsen" />
		<tag k="place" v="farm" />
		<tag k="ssr:stedsnr" v="364612" />
	</node>
	<node lat="58.17536666308462" lon="8.232111112050571" id="-29887">
		<tag k="name" v="Skibbusdalen" />
		<tag k="place" v="farm" />
		<tag k="ssr:stedsnr" v="364619" />
	</node>
	<node lat="58.16036110903913" lon="8.264119439841389" id="-29901">
		<tag k="name" v="Skarpevollen" />
		<tag k="place" v="isolated_dwelling" />
		<tag k="ssr:stedsnr" v="385284" />
	</node>
	<node lat="58.19925833406289" lon="8.261619444780672" id="-29902">
		<tag k="name" v="Brovig" />
		<tag k="place" v="isolated_dwelling" />
		<tag k="ssr:stedsnr" v="385136" />
	</node>
	<node lat="58.159069442753434" lon="8.21698888532008" id="-29903">
		<tag k="amenity" v="school" />
		<tag k="name" v="Høvåg skole" />
		<tag k="ssr:stedsnr" v="385224" />
	</node>
	<node lat="58.30189444731585" lon="8.395383330753669" id="-29943">
		<tag k="name" v="Slåttemyrplassen" />
		<tag k="place" v="farm" />
		<tag k="ssr:stedsnr" v="385790" />
	</node>
	<node lat="58.225841663043056" lon="8.373049996387332" id="-29949">
		<tag k="name" v="Vassdalen" />
		<tag k="place" v="farm" />
		<tag k="ssr:stedsnr" v="385637" />
	</node>
	<node lat="58.259308334139675" lon="8.382736108418198" id="-29952">
		<tag k="name" v="Kirkemoen" />
		<tag k="place" v="farm" />
		<tag k="ssr:stedsnr" v="385934" />
	</node>
	<node lat="58.22242222057942" lon="8.304769443952786" id="-29953">
		<tag k="name" v="Veddervoll" />
		<tag k="place" v="farm" />
		<tag k="ssr:stedsnr" v="386428" />
	</node>
	<node lat="58.179458334659124" lon="8.245147222417549" id="-29960">
		<tag k="fixme" v="consider place=hamlet" />
		<tag k="name" v="Østre Øresland" />
		<tag k="place" v="farm" />
		<tag k="ssr:stedsnr" v="425580" />
	</node>
	<node lat="58.180674997179224" lon="8.239474995496645" id="-29962">
		<tag k="fixme" v="consider place=hamlet" />
		<tag k="name" v="Vestre Øresland" />
		<tag k="place" v="farm" />
		<tag k="ssr:stedsnr" v="425590" />
	</node>
	<node lat="58.277758333808706" lon="8.419950003490522" id="-29971">
		<tag k="fixme" v="consider place=hamlet" />
		<tag k="name" v="Kaldvell" />
		<tag k="place" v="farm" />
		<tag k="ssr:stedsnr" v="425742" />
	</node>
	<node lat="58.11751111500104" lon="8.206436111299054" id="-29974">
		<tag k="name" v="Kampedalen" />
		<tag k="place" v="farm" />
		<tag k="ssr:stedsnr" v="425489" />
	</node>
	<node lat="58.1663166641193" lon="8.259130548664087" id="-29977">
		<tag k="name" v="Kvanneid" />
		<tag k="place" v="farm" />
		<tag k="ssr:stedsnr" v="425599" />
	</node>
	<node lat="58.16415278168481" lon="8.179183335305998" id="-29979">
		<tag k="name" v="Åna" />
		<tag k="place" v="farm" />
		<tag k="ssr:stedsnr" v="425613" />
	</node>
	<node lat="58.162888889277916" lon="8.21080833022225" id="-30004">
		<tag k="name" v="Eidjord" />
		<tag k="place" v="farm" />
		<tag k="ssr:stedsnr" v="446246" />
	</node>
	<node lat="58.31019166327802" lon="8.428222226507195" id="-30037">
		<tag k="name" v="Olstad" />
		<tag k="place" v="locality" />
		<tag k="ssr:stedsnr" v="446644" />
	</node>
	<node lat="58.24567222125684" lon="8.373269441258934" id="-30052">
		<tag k="name" v="Sandsmyra" />
		<tag k="place" v="farm" />
		<tag k="ssr:stedsnr" v="446815" />
	</node>
	<node lat="58.26714444048049" lon="8.401630557024179" id="-30053">
		<tag k="name" v="Kirkemyr" />
		<tag k="place" v="farm" />
		<tag k="ssr:stedsnr" v="446869" />
	</node>
	<node lat="58.219236109529945" lon="8.34023055995686" id="-30070">
		<tag k="name" v="Karistangen" />
		<tag k="place" v="isolated_dwelling" />
		<tag k="ssr:stedsnr" v="506633" />
	</node>
	<node lat="58.156088889952315" lon="8.22459166207647" id="-30109">
		<tag k="name" v="Salbustad" />
		<tag k="place" v="farm" />
		<tag k="ssr:stedsnr" v="507189" />
	</node>
	<node lat="58.19814444621852" lon="8.365841670070218" id="-30115">
		<tag k="name" v="Hammervoll hytteområde" />
		<tag k="place" v="neighbourhood" />
		<tag k="ssr:stedsnr" v="507447" />
	</node>
	<node lat="58.258683337408215" lon="8.380336116434323" id="-30118">
		<tag k="name" v="Solkollen" />
		<tag k="place" v="quarter" />
		<tag k="ssr:stedsnr" v="507939" />
	</node>
	<node lat="58.15253333533035" lon="8.20035556324387" id="-30126">
		<tag k="name" v="Krossnes" />
		<tag k="place" v="farm" />
		<tag k="ssr:stedsnr" v="546531" />
	</node>
	<node lat="58.188308334611996" lon="8.258155562459267" id="-30127">
		<tag k="name" v="Myra" />
		<tag k="place" v="farm" />
		<tag k="ssr:stedsnr" v="546343" />
	</node>
	<node lat="58.240927779879215" lon="8.373508328970937" id="-30130">
		<tag k="building" v="industrial" />
		<tag k="industrial" v="factory" />
		<tag k="name" v="Fossbekk" />
		<tag k="ssr:stedsnr" v="546240" />
	</node>
	<node lat="58.23611666532502" lon="8.321019442374789" id="-30133">
		<tag k="fixme" v="consider place=hamlet" />
		<tag k="name" v="Kjerlingland" />
		<tag k="place" v="farm" />
		<tag k="ssr:stedsnr" v="546247" />
	</node>
	<node lat="58.322088884840525" lon="8.323313891561007" id="-30135">
		<tag k="fixme" v="consider place=hamlet" />
		<tag k="name" v="Froholt" />
		<tag k="place" v="farm" />
		<tag k="ssr:stedsnr" v="546260" />
	</node>
	<node lat="58.22455278061661" lon="8.311475001526862" id="-30138">
		<tag k="alt_name" v="Nyland, vestre" />
		<tag k="name" v="Vestre Nyland" />
		<tag k="place" v="farm" />
		<tag k="ssr:stedsnr" v="546275" />
	</node>
	<node lat="58.26370836423738" lon="8.37433268774286" id="-30140">
		<tag k="fixme" v="consider place=hamlet" />
		<tag k="name" v="Bjørkestøl" />
		<tag k="place" v="farm" />
		<tag k="ssr:stedsnr" v="546680" />
	</node>
	<node lat="58.174583330450304" lon="8.240486106143187" id="-30152">
		<tag k="name" v="Fidjane" />
		<tag k="place" v="farm" />
		<tag k="ssr:stedsnr" v="567068" />
	</node>
	<node lat="58.26010278052374" lon="8.35584167021491" id="-30166">
		<tag k="name" v="Moen" />
		<tag k="place" v="farm" />
		<tag k="ssr:stedsnr" v="567837" />
	</node>
	<node lat="58.167402775503966" lon="8.160916660424133" id="-30171">
		<tag k="name" v="Rossedalen" />
		<tag k="place" v="farm" />
		<tag k="ssr:stedsnr" v="567249" />
	</node>
	<node lat="58.18730555369776" lon="8.315336117846027" id="-30203">
		<tag k="name" v="Vesterberg" />
		<tag k="place" v="farm" />
		<tag k="ssr:stedsnr" v="567477" />
	</node>
	<node lat="58.2565888896775" lon="8.395425005789177" id="-30210">
		<tag k="name" v="Reise" />
		<tag k="place" v="farm" />
		<tag k="ssr:stedsnr" v="567631" />
	</node>
	<node lat="58.25130277926297" lon="8.377058326783933" id="-30211">
		<tag k="name" v="Øvrebyen" />
		<tag k="place" v="quarter" />
		<tag k="ssr:stedsnr" v="567634" />
	</node>
	<node lat="58.25485555587009" lon="8.387422230599505" id="-30214">
		<tag k="alt_name" v="Tingsaker nedre" />
		<tag k="name" v="Nedre Tingsaker" />
		<tag k="place" v="farm" />
		<tag k="ssr:stedsnr" v="567647" />
	</node>
	<node lat="58.21571666510635" lon="8.294483331551994" id="-30228">
		<tag k="name" v="Sandviga" />
		<tag k="place" v="farm" />
		<tag k="ssr:stedsnr" v="606424" />
	</node>
	<node lat="58.130714018323935" lon="8.238509406780834" id="-30229">
		<tag k="name" v="Skotteviga" />
		<tag k="place" v="isolated_dwelling" />
		<tag k="ssr:stedsnr" v="606503" />
	</node>
	<node lat="58.15756666476654" lon="8.234774996021484" id="-30238">
		<tag k="name" v="Småvigane" />
		<tag k="place" v="farm" />
		<tag k="ssr:stedsnr" v="606560" />
	</node>
	<node lat="58.141180558544136" lon="8.24365277638368" id="-30249">
		<tag k="name" v="Seljevoll" />
		<tag k="place" v="farm" />
		<tag k="ssr:stedsnr" v="627591" />
	</node>
	<node lat="58.24757221880731" lon="8.213233328854665" id="-30264">
		<tag k="name" v="Øygarden" />
		<tag k="place" v="locality" />
		<tag k="ssr:stedsnr" v="628339" />
	</node>
	<node lat="58.29268888567473" lon="8.432238892239736" id="-30288">
		<tag k="name" v="Fredheim" />
		<tag k="place" v="farm" />
		<tag k="ssr:stedsnr" v="628780" />
	</node>
	<node lat="58.32051944849213" lon="8.347941669390293" id="-30307">
		<tag k="fixme" v="consider place=hamlet" />
		<tag k="name" v="Grimenes" />
		<tag k="place" v="farm" />
		<tag k="ssr:stedsnr" v="667278" />
	</node>
	<node lat="58.223215886055165" lon="8.3012523166802" id="-30308">
		<tag k="fixme" v="consider place=hamlet" />
		<tag k="name" v="Fjelldal" />
		<tag k="place" v="farm" />
		<tag k="ssr:stedsnr" v="667427" />
	</node>
	<node lat="58.138802780088064" lon="8.226433338452592" id="-30309">
		<tag k="fixme" v="consider place=hamlet" />
		<tag k="name" v="Ytre Årsnes" />
		<tag k="place" v="farm" />
		<tag k="ssr:stedsnr" v="667522" />
	</node>
	<node lat="58.19333055860585" lon="8.242680555477792" id="-30311">
		<tag k="fixme" v="consider place=hamlet" />
		<tag k="name" v="Årdalen" />
		<tag k="place" v="farm" />
		<tag k="ssr:stedsnr" v="667363" />
	</node>
	<node lat="58.19917423259137" lon="8.231184571638984" id="-30315">
		<tag k="name" v="Beintjørn" />
		<tag k="place" v="farm" />
		<tag k="ssr:stedsnr" v="667443" />
	</node>
	<node lat="58.20865833588206" lon="8.202674997957505" id="-30316">
		<tag k="name" v="Urdalen" />
		<tag k="place" v="farm" />
		<tag k="ssr:stedsnr" v="667454" />
	</node>
	<node lat="58.20856389325697" lon="8.249266668211012" id="-30317">
		<tag k="name" v="Sagvollen" />
		<tag k="place" v="farm" />
		<tag k="ssr:stedsnr" v="667459" />
	</node>
	<node lat="58.21110555110542" lon="8.340880547644758" id="-30319">
		<tag k="fixme" v="consider place=hamlet" />
		<tag k="name" v="Subbernes" />
		<tag k="place" v="farm" />
		<tag k="ssr:stedsnr" v="667468" />
	</node>
	<node lat="58.14827344897103" lon="8.213334555170945" id="-30321">
		<tag k="fixme" v="consider place=hamlet" />
		<tag k="name" v="Hæstad" />
		<tag k="place" v="farm" />
		<tag k="ssr:stedsnr" v="667547" />
	</node>
	<node lat="58.1469555570214" lon="8.185591668642415" id="-30322">
		<tag k="fixme" v="consider place=hamlet" />
		<tag k="name" v="Randvig" />
		<tag k="place" v="farm" />
		<tag k="ssr:stedsnr" v="667548" />
	</node>
	<node lat="58.20650351672156" lon="8.310304229711262" id="-30326">
		<tag k="fixme" v="consider place=hamlet" />
		<tag k="name" v="Fjelldalsøya, vestre" />
		<tag k="place" v="farm" />
		<tag k="ssr:stedsnr" v="728489" />
	</node>
	<node lat="58.11663314797654" lon="8.209832744395177" id="-30327">
		<tag k="name" v="Storvoll" />
		<tag k="place" v="farm" />
		<tag k="ssr:stedsnr" v="728497" />
	</node>
	<node lat="58.172738885619175" lon="8.243902785569983" id="-30328">
		<tag k="alt_name" v="Øresland, øvre" />
		<tag k="name" v="Øvre Øresland" />
		<tag k="place" v="farm" />
		<tag k="ssr:stedsnr" v="728589" />
	</node>
	<node lat="58.23211389084488" lon="8.198891660635134" id="-30331">
		<tag k="name" v="Sjømyr" />
		<tag k="place" v="farm" />
		<tag k="ssr:stedsnr" v="728233" />
	</node>
	<node lat="58.18836376740454" lon="8.31467484844144" id="-30338">
		<tag k="name" v="Gården" />
		<tag k="place" v="farm" />
		<tag k="ssr:stedsnr" v="728350" />
	</node>
	<node lat="58.197452194248825" lon="8.35339340553847" id="-30339">
		<tag k="name" v="Brekkheim" />
		<tag k="place" v="farm" />
		<tag k="ssr:stedsnr" v="728357" />
	</node>
	<node lat="58.2034305576238" lon="8.299613885397228" id="-30340">
		<tag k="name" v="Kvarsnes" />
		<tag k="place" v="farm" />
		<tag k="ssr:stedsnr" v="728362" />
	</node>
	<node lat="58.21669722218496" lon="8.276916665178636" id="-30341">
		<tag k="name" v="Moi" />
		<tag k="place" v="farm" />
		<tag k="ssr:stedsnr" v="728443" />
	</node>
	<node lat="58.217319441592906" lon="8.27281666449892" id="-30342">
		<tag k="fixme" v="consider place=hamlet" />
		<tag k="name" v="Østre Vallesverd" />
		<tag k="place" v="farm" />
		<tag k="ssr:stedsnr" v="728445" />
	</node>
	<node lat="58.2071222199179" lon="8.362186115489365" id="-30343">
		<tag k="fixme" v="consider place=hamlet" />
		<tag k="name" v="Berge" />
		<tag k="place" v="farm" />
		<tag k="ssr:stedsnr" v="728453" />
	</node>
	<node lat="58.12749722572802" lon="8.220369438371403" id="-30346">
		<tag k="fixme" v="consider place=hamlet" />
		<tag k="name" v="Kviviga" />
		<tag k="place" v="farm" />
		<tag k="ssr:stedsnr" v="728535" />
	</node>
	<node lat="58.25162777560716" lon="8.420425002285752" id="-30348">
		<tag k="fixme" v="consider place=hamlet" />
		<tag k="name" v="Klingsund" />
		<tag k="place" v="farm" />
		<tag k="ssr:stedsnr" v="728662" />
	</node>
	<node lat="58.19966388603952" lon="8.374116664299141" id="-30349">
		<tag k="name" v="Skagerak camping" />
		<tag k="place" v="isolated_dwelling" />
		<tag k="ssr:stedsnr" v="749492" />
	</node>
	<node lat="58.195869442631505" lon="8.344394439961835" id="-30351">
		<tag k="name" v="Naudesund" />
		<tag k="place" v="farm" />
		<tag k="ssr:stedsnr" v="749494" />
	</node>
	<node lat="58.140374998889925" lon="8.225605550490807" id="-30369">
		<tag k="name" v="Jørens" />
		<tag k="place" v="farm" />
		<tag k="ssr:stedsnr" v="749191" />
	</node>
	<node lat="58.125599999432936" lon="8.230627771063498" id="-30374">
		<tag k="name" v="Skottevig Feriesenter" />
		<tag k="old_name" v="Skottevig camping" />
		<tag k="ssr:stedsnr" v="749387" />
		<tag k="tourism" v="camp_site" />
	</node>
	<node lat="58.116944445952875" lon="8.204591673138815" id="-30387">
		<tag k="name" v="Evensviga" />
		<tag k="place" v="farm" />
		<tag k="ssr:stedsnr" v="749354" />
	</node>
	<node lat="58.19955000270508" lon="8.355705562872107" id="-30406">
		<tag k="name" v="Nedre Stutti" />
		<tag k="place" v="farm" />
		<tag k="ssr:stedsnr" v="749853" />
	</node>
	<node lat="58.2478805524892" lon="8.222419443447336" id="-30415">
		<tag k="name" v="Spilling" />
		<tag k="place" v="locality" />
		<tag k="ssr:stedsnr" v="750289" />
	</node>
	<node lat="58.26770555916227" lon="8.34428611895689" id="-30430">
		<tag k="name" v="Skibeli" />
		<tag k="place" v="farm" />
		<tag k="ssr:stedsnr" v="769974" />
	</node>
	<node lat="58.20109722309667" lon="8.245080551600154" id="-30432">
		<tag k="fixme" v="consider place=hamlet" />
		<tag k="name" v="Vestre Vallesverd" />
		<tag k="place" v="farm" />
		<tag k="ssr:stedsnr" v="788481" />
	</node>
	<node lat="58.24848055540881" lon="8.21993610511197" id="-30435">
		<tag k="fixme" v="consider place=hamlet" />
		<tag k="name" v="Kornbrekke" />
		<tag k="place" v="farm" />
		<tag k="ssr:stedsnr" v="788339" />
	</node>
	<node lat="58.31964998949314" lon="8.302543424301797" id="-30439">
		<tag k="fixme" v="consider place=hamlet" />
		<tag k="name" v="Tingsbekk" />
		<tag k="place" v="farm" />
		<tag k="ssr:stedsnr" v="789285" />
	</node>
	<node lat="58.21870555532943" lon="8.35054721652361" id="-30445">
		<tag k="name" v="Espeviga" />
		<tag k="place" v="farm" />
		<tag k="ssr:stedsnr" v="789449" />
	</node>
	<node lat="58.2223392912502" lon="8.368587159473543" id="-30446">
		<tag k="fixme" v="consider place=hamlet" />
		<tag k="name" v="Østerøya" />
		<tag k="place" v="farm" />
		<tag k="ssr:stedsnr" v="789453" />
	</node>
	<node lat="58.16521111054012" lon="8.201383328604228" id="-30451">
		<tag k="name" v="Eidjord" />
		<tag k="place" v="farm" />
		<tag k="ssr:stedsnr" v="789613" />
	</node>
	<node lat="58.15289999959125" lon="8.241127770050323" id="-30453">
		<tag k="name" v="Åmlandsneset" />
		<tag k="place" v="farm" />
		<tag k="ssr:stedsnr" v="789566" />
	</node>
	<node lat="58.1886583304725" lon="8.20827222789174" id="-30457">
		<tag k="name" v="Ommundskjerr" />
		<tag k="place" v="isolated_dwelling" />
		<tag k="ssr:stedsnr" v="810115" />
	</node>
	<node lat="58.28458333213093" lon="8.292699995678332" id="-30524">
		<tag k="name" v="Lissisplass" />
		<tag k="place" v="farm" />
		<tag k="ssr:stedsnr" v="810842" />
	</node>
	<node lat="58.2181388905637" lon="8.305463895064435" id="-30544">
		<tag k="name" v="Østerhaven" />
		<tag k="place" v="farm" />
		<tag k="ssr:stedsnr" v="850459" />
	</node>
	<node lat="58.21849722162505" lon="8.249413880614116" id="-30545">
		<tag k="name" v="Hommerkleiv" />
		<tag k="place" v="farm" />
		<tag k="ssr:stedsnr" v="850475" />
	</node>
	<node lat="58.13788611466679" lon="8.221861118873381" id="-30548">
		<tag k="name" v="Myra" />
		<tag k="place" v="farm" />
		<tag k="ssr:stedsnr" v="849566" />
	</node>
	<node lat="58.27442777786836" lon="8.32406944927413" id="-30550">
		<tag k="name" v="Sørheim" />
		<tag k="place" v="farm" />
		<tag k="ssr:stedsnr" v="849759" />
	</node>
	<node lat="58.12032778047337" lon="8.208825006434754" id="-30554">
		<tag k="alt_name" v="Såvika" />
		<tag k="name" v="Såviga" />
		<tag k="place" v="farm" />
		<tag k="ssr:stedsnr" v="850512" />
	</node>
	<node lat="58.151910500850676" lon="8.230339002541394" id="-30556">
		<tag k="name" v="Hesleviga" />
		<tag k="place" v="farm" />
		<tag k="ssr:stedsnr" v="850560" />
	</node>
	<node lat="58.15035833470187" lon="8.238463889023985" id="-30559">
		<tag k="name" v="Ramsdalen" />
		<tag k="place" v="farm" />
		<tag k="ssr:stedsnr" v="850574" />
	</node>
	<node lat="58.16558333361436" lon="8.249205554069622" id="-30578">
		<tag k="name" v="Martinshaven" />
		<tag k="place" v="farm" />
		<tag k="ssr:stedsnr" v="871342" />
	</node>
	<node lat="58.163738885120814" lon="8.267750005171715" id="-30580">
		<tag k="name" v="Maristrand" />
		<tag k="place" v="isolated_dwelling" />
		<tag k="ssr:stedsnr" v="871344" />
	</node>
	<node lat="58.279308331828986" lon="8.413688883969131" id="-30621">
		<tag k="name" v="Egelund" />
		<tag k="place" v="farm" />
		<tag k="ssr:stedsnr" v="871845" />
	</node>
	<node lat="58.26521944490553" lon="8.393425006018257" id="-30622">
		<tag k="name" v="Gaupemyr" />
		<tag k="place" v="farm" />
		<tag k="ssr:stedsnr" v="871855" />
	</node>
	<node lat="58.22384999727781" lon="8.365655549213022" id="-30631">
		<tag k="fixme" v="multiple name tags, choose one and add the other to alt_name" />
		<tag k="name" v="Østerhus;Vedrushaven" />
		<tag k="old_name" v="Østerøen" />
		<tag k="place" v="farm" />
		<tag k="ssr:stedsnr" v="872905" />
	</node>
	<node lat="58.214753299618586" lon="8.298579019417224" id="-30637">
		<tag k="fixme" v="consider place=hamlet" />
		<tag k="name" v="Nasledalen" />
		<tag k="place" v="farm" />
		<tag k="ssr:stedsnr" v="971141" />
	</node>
	<node lat="58.259389704970104" lon="8.268596259969732" id="-30638">
		<tag k="fixme" v="consider place=hamlet" />
		<tag k="name" v="Torkelsbuene" />
		<tag k="place" v="farm" />
		<tag k="ssr:stedsnr" v="971142" />
	</node>
	<node lat="58.263847244468984" lon="8.277345624281107" id="-30639">
		<tag k="fixme" v="consider place=hamlet" />
		<tag k="name" v="Storehei" />
		<tag k="place" v="farm" />
		<tag k="ssr:stedsnr" v="971144" />
	</node>
	<node lat="58.28233630223594" lon="8.298345104105145" id="-30640">
		<tag k="name" v="Eikeland" />
		<tag k="place" v="hamlet" />
		<tag k="ssr:stedsnr" v="971145" />
	</node>
	<node lat="58.2855562224356" lon="8.287021298130282" id="-30641">
		<tag k="fixme" v="consider place=hamlet" />
		<tag k="name" v="Røgskår" />
		<tag k="place" v="farm" />
		<tag k="ssr:stedsnr" v="971146" />
	</node>
	<node lat="58.16955042973059" lon="8.24801254858109" id="-30648">
		<tag k="name" v="Øvre Høvåg" />
		<tag k="place" v="farm" />
		<tag k="ssr:stedsnr" v="989175" />
	</node>
	<node lat="58.261734778558896" lon="8.374436047695658" id="-30720">
		<tag k="name" v="Åbål" />
		<tag k="place" v="farm" />
		<tag k="ssr:stedsnr" v="1074847" />
	</node>
	<node lat="58.15125341714139" lon="8.254818471043906" id="-30722">
		<tag k="alt_name" v="Kittilsholmen" />
		<tag k="name" v="Kittelsholmen" />
		<tag k="place" v="farm" />
		<tag k="ssr:stedsnr" v="1077506" />
	</node>
	<node lat="58.25941989236777" lon="8.36166759150292" id="-30723">
		<tag k="name" v="Flaten" />
		<tag k="old_name" v="Møglestu" />
		<tag k="place" v="farm" />
		<tag k="ssr:stedsnr" v="1078078" />
	</node>
	<node lat="58.221973804903335" lon="8.368930583750178" id="-30725">
		<tag k="name" v="Østerøy Gård" />
		<tag k="place" v="farm" />
		<tag k="ssr:stedsnr" v="1079517" />
	</node>
	<node lat="58.319601263576814" lon="8.302350818242687" id="-30728">
		<tag k="name" v="Tingsbekk" />
		<tag k="place" v="farm" />
		<tag k="ssr:stedsnr" v="1080611" />
	</node>
	<node lat="58.22248367234654" lon="8.366864199657066" id="-30729">
		<tag k="name" v="Østerøya" />
		<tag k="place" v="farm" />
		<tag k="ssr:stedsnr" v="1080612" />
	</node>
	<node lat="58.22140360820674" lon="8.356240247207129" id="-30730">
		<tag k="name" v="Østerøya" />
		<tag k="place" v="farm" />
		<tag k="ssr:stedsnr" v="1080613" />
	</node>
	<node lat="58.222284844281205" lon="8.35758266735829" id="-30731">
		<tag k="name" v="Østerøya" />
		<tag k="place" v="farm" />
		<tag k="ssr:stedsnr" v="1080614" />
	</node>
	<node lat="58.221218659822895" lon="8.371011494805991" id="-30732">
		<tag k="name" v="Østerøya" />
		<tag k="place" v="farm" />
		<tag k="ssr:stedsnr" v="1080615" />
	</node>
	<node lat="58.2233723378709" lon="8.35968809732488" id="-30733">
		<tag k="name" v="Østerøya" />
		<tag k="place" v="farm" />
		<tag k="ssr:stedsnr" v="1080616" />
	</node>
	<node lat="58.22542126496059" lon="8.36322650479507" id="-30734">
		<tag k="name" v="Fløyheia" />
		<tag k="place" v="farm" />
		<tag k="ssr:stedsnr" v="1080618" />
	</node>
	<node lat="58.18120142149127" lon="8.153665466665718" id="-30735">
		<tag k="leisure" v="pitch" />
		<tag k="name" v="Sørlandets travpark" />
		<tag k="ssr:stedsnr" v="1081873" />
	</node>
	<node lat="58.15840587735743" lon="8.281540620778523" id="-30737">
		<tag k="alt_name" v="Knatten" />
		<tag k="name" v="Kjesund" />
		<tag k="place" v="farm" />
		<tag k="ssr:stedsnr" v="1082405" />
	</node>
	<node lat="58.15840587735743" lon="8.281540620778523" id="-30738">
		<tag k="alt_name" v="Knatten 2" />
		<tag k="name" v="Kjesund" />
		<tag k="place" v="farm" />
		<tag k="ssr:stedsnr" v="1082423" />
	</node>
</osm>
