<?xml version="1.0" encoding="UTF-8"?>
<osm version="0.6" generator="osmapis">
	<node lat="60.817570917089704" lon="4.870710070385606" id="-72779">
		<tag k="name" v="Børilden" />
		<tag k="place" v="farm" />
		<tag k="ssr:stedsnr" v="8098" />
	</node>
	<node lat="60.804966664171545" lon="4.929855549732965" id="-72782">
		<tag k="name" v="Flotevika" />
		<tag k="place" v="farm" />
		<tag k="ssr:stedsnr" v="9021" />
	</node>
	<node lat="60.79729744359127" lon="5.0022047043709215" id="-72785">
		<tag k="name" v="Kaland" />
		<tag k="place" v="farm" />
		<tag k="ssr:stedsnr" v="24336" />
	</node>
	<node lat="60.80177777802201" lon="4.999494439225056" id="-72812">
		<tag k="name" v="Kaland" />
		<tag k="place" v="quarter" />
		<tag k="ssr:stedsnr" v="69005" />
	</node>
	<node lat="60.8116854922865" lon="4.998250213464803" id="-72816">
		<tag k="name" v="Leirvågen" />
		<tag k="place" v="farm" />
		<tag k="ssr:stedsnr" v="69025" />
	</node>
	<node lat="60.76184460293036" lon="4.890560776529855" id="-72826">
		<tag k="name" v="Lerøyna" />
		<tag k="place" v="farm" />
		<tag k="ssr:stedsnr" v="69207" />
	</node>
	<node lat="60.765527777104566" lon="4.945733325093333" id="-72830">
		<tag k="name" v="Solend" />
		<tag k="place" v="farm" />
		<tag k="ssr:stedsnr" v="85373" />
	</node>
	<node lat="60.81411667053279" lon="4.806227783880412" id="-72831">
		<tag k="name" v="Krossøyna" />
		<tag k="place" v="farm" />
		<tag k="ssr:stedsnr" v="85528" />
	</node>
	<node lat="60.79644868256299" lon="5.024475117412239" id="-72832">
		<tag k="name" v="Litlås" />
		<tag k="place" v="farm" />
		<tag k="ssr:stedsnr" v="85282" />
	</node>
	<node lat="60.79843611475763" lon="4.9976194480975416" id="-72833">
		<tag k="name" v="Kaland" />
		<tag k="place" v="farm" />
		<tag k="ssr:stedsnr" v="85284" />
	</node>
	<node lat="60.79559722184928" lon="4.864269448858995" id="-72836">
		<tag k="name" v="Øksneset" />
		<tag k="place" v="farm" />
		<tag k="ssr:stedsnr" v="87639" />
	</node>
	<node lat="60.78344166394461" lon="4.931797221297481" id="-72846">
		<tag k="name" v="Samuel Lervågs plass" />
		<tag k="place" v="square" />
		<tag k="ssr:stedsnr" v="121409" />
	</node>
	<node lat="60.77396633954763" lon="4.8756613223101475" id="-72859">
		<tag k="name" v="Dyrneset" />
		<tag k="place" v="farm" />
		<tag k="ssr:stedsnr" v="130225" />
	</node>
	<node lat="60.80775555434133" lon="4.923013888255243" id="-72862">
		<tag k="name" v="Ulvøyna" />
		<tag k="place" v="farm" />
		<tag k="ssr:stedsnr" v="146403" />
	</node>
	<node lat="60.74571944742527" lon="4.968897223474859" id="-72863">
		<tag k="name" v="Litlelindås" />
		<tag k="place" v="farm" />
		<tag k="ssr:stedsnr" v="146407" />
	</node>
	<node lat="60.77417499882886" lon="4.943158335378247" id="-72864">
		<tag k="name" v="Leikvoll" />
		<tag k="place" v="farm" />
		<tag k="ssr:stedsnr" v="146413" />
	</node>
	<node lat="60.798686113591444" lon="4.9354222139493045" id="-72869">
		<tag k="name" v="Kilstraumen" />
		<tag k="place" v="farm" />
		<tag k="ssr:stedsnr" v="166226" />
	</node>
	<node lat="60.79016003713238" lon="4.9263412031150144" id="-72886">
		<tag k="name" v="Sætre" />
		<tag k="place" v="farm" />
		<tag k="ssr:stedsnr" v="251027" />
	</node>
	<node lat="60.764255395920564" lon="4.9514916364126655" id="-72899">
		<tag k="name" v="Solend" />
		<tag k="place" v="farm" />
		<tag k="ssr:stedsnr" v="251230" />
	</node>
	<node lat="60.75005833314393" lon="4.990647214895595" id="-72901">
		<tag k="name" v="Søre Njøta" />
		<tag k="place" v="farm" />
		<tag k="ssr:stedsnr" v="206422" />
	</node>
	<node lat="60.76288055810659" lon="5.001561117089796" id="-72902">
		<tag k="name" v="Monslaupen" />
		<tag k="place" v="farm" />
		<tag k="ssr:stedsnr" v="206424" />
	</node>
	<node lat="60.80535277495851" lon="4.981336111508795" id="-72903">
		<tag k="name" v="Fonnes" />
		<tag k="place" v="farm" />
		<tag k="ssr:stedsnr" v="206350" />
	</node>
	<node lat="60.76973888745783" lon="4.90394444669778" id="-72905">
		<tag k="name" v="Træsbakken" />
		<tag k="place" v="farm" />
		<tag k="ssr:stedsnr" v="206839" />
	</node>
	<node lat="60.802069441000164" lon="4.819558337108651" id="-72906">
		<tag k="name" v="Sævrøyna" />
		<tag k="place" v="farm" />
		<tag k="ssr:stedsnr" v="207617" />
	</node>
	<node lat="60.773722220425334" lon="4.944808327348836" id="-72926">
		<tag k="name" v="Leikvoll" />
		<tag k="place" v="farm" />
		<tag k="ssr:stedsnr" v="268453" />
	</node>
	<node lat="60.77424721819882" lon="4.9397416590061685" id="-72927">
		<tag k="name" v="Leikvoll" />
		<tag k="place" v="farm" />
		<tag k="ssr:stedsnr" v="268491" />
	</node>
	<node lat="60.81357500364107" lon="4.998297216571148" id="-72928">
		<tag k="name" v="Leirvågen" />
		<tag k="place" v="farm" />
		<tag k="ssr:stedsnr" v="268353" />
	</node>
	<node lat="60.79664800044117" lon="5.0224919658800795" id="-72929">
		<tag k="name" v="Litlås" />
		<tag k="place" v="farm" />
		<tag k="ssr:stedsnr" v="268355" />
	</node>
	<node lat="60.800788887940136" lon="4.970872224039828" id="-72931">
		<tag k="name" v="Fonnes" />
		<tag k="place" v="farm" />
		<tag k="ssr:stedsnr" v="449347" />
	</node>
	<node lat="60.80603610794193" lon="4.922486109096267" id="-72933">
		<tag k="name" v="Ulvøyna" />
		<tag k="place" v="farm" />
		<tag k="ssr:stedsnr" v="450440" />
	</node>
	<node lat="60.797281206934834" lon="4.864017584162388" id="-72936">
		<tag k="name" v="Øksneset" />
		<tag k="place" v="farm" />
		<tag k="ssr:stedsnr" v="451649" />
	</node>
	<node lat="60.785938887246864" lon="4.868355561542961" id="-72937">
		<tag k="name" v="Rebnor" />
		<tag k="place" v="farm" />
		<tag k="ssr:stedsnr" v="451774" />
	</node>
	<node lat="60.7561611129169" lon="4.918394447627259" id="-72966">
		<tag k="name" v="Hopland" />
		<tag k="place" v="farm" />
		<tag k="ssr:stedsnr" v="328473" />
	</node>
	<node lat="60.81178611229615" lon="4.808541664622313" id="-72967">
		<tag k="name" v="Krossøyna" />
		<tag k="place" v="farm" />
		<tag k="ssr:stedsnr" v="328609" />
	</node>
	<node lat="60.81760555370501" lon="4.872622225208398" id="-72968">
		<tag k="name" v="Børilden" />
		<tag k="place" v="farm" />
		<tag k="ssr:stedsnr" v="328615" />
	</node>
	<node lat="60.76519166945558" lon="4.954127780526257" id="-72970">
		<tag k="name" v="Solend" />
		<tag k="place" v="farm" />
		<tag k="ssr:stedsnr" v="329484" />
	</node>
	<node lat="60.796861109612806" lon="4.8662055541977995" id="-72971">
		<tag k="name" v="Øksneset" />
		<tag k="place" v="farm" />
		<tag k="ssr:stedsnr" v="329605" />
	</node>
	<node lat="60.786602776578846" lon="4.866972223038263" id="-72991">
		<tag k="name" v="Rebnor" />
		<tag k="place" v="hamlet" />
		<tag k="ssr:stedsnr" v="372002" />
	</node>
	<node lat="60.751223141289664" lon="4.987077534023017" id="-72993">
		<tag k="name" v="Søre Njøta" />
		<tag k="place" v="farm" />
		<tag k="ssr:stedsnr" v="372168" />
	</node>
	<node lat="60.76032499854221" lon="4.906099993115837" id="-73039">
		<tag k="name" v="Brekka" />
		<tag k="place" v="farm" />
		<tag k="ssr:stedsnr" v="433208" />
	</node>
	<node lat="60.75553333690025" lon="4.922744446255448" id="-73045">
		<tag k="name" v="Hopland" />
		<tag k="place" v="farm" />
		<tag k="ssr:stedsnr" v="450530" />
	</node>
	<node lat="60.81305555970211" lon="4.8032916719668055" id="-73046">
		<tag k="name" v="Krossøyna" />
		<tag k="place" v="farm" />
		<tag k="ssr:stedsnr" v="450631" />
	</node>
	<node lat="60.79491727329162" lon="4.9492522841523625" id="-73066">
		<tag k="name" v="Utkilen" />
		<tag k="place" v="farm" />
		<tag k="ssr:stedsnr" v="494015" />
	</node>
	<node lat="60.76136666320671" lon="4.916677772377677" id="-73068">
		<tag k="name" v="Tuftene" />
		<tag k="place" v="farm" />
		<tag k="ssr:stedsnr" v="494180" />
	</node>
	<node lat="60.75754166384076" lon="4.917116668048996" id="-73070">
		<tag k="name" v="Hopland" />
		<tag k="place" v="farm" />
		<tag k="ssr:stedsnr" v="510508" />
	</node>
	<node lat="60.7576500034719" lon="4.915058336889755" id="-73071">
		<tag k="name" v="Hopland" />
		<tag k="place" v="farm" />
		<tag k="ssr:stedsnr" v="510510" />
	</node>
	<node lat="60.76437222455582" lon="4.953680550270303" id="-73072">
		<tag k="name" v="Solend" />
		<tag k="place" v="farm" />
		<tag k="ssr:stedsnr" v="510472" />
	</node>
	<node lat="60.777180558926865" lon="4.934244449452669" id="-73073">
		<tag k="name" v="Årås" />
		<tag k="place" v="farm" />
		<tag k="ssr:stedsnr" v="511447" />
	</node>
	<node lat="60.74624753021795" lon="4.966468424585053" id="-73074">
		<tag k="name" v="Litlelindås" />
		<tag k="place" v="farm" />
		<tag k="ssr:stedsnr" v="511451" />
	</node>
	<node lat="60.78173889286485" lon="4.975847226771735" id="-73106">
		<tag k="name" v="Synnevågen" />
		<tag k="place" v="farm" />
		<tag k="ssr:stedsnr" v="570312" />
	</node>
	<node lat="60.77928889286668" lon="4.975802771541621" id="-73107">
		<tag k="name" v="Synnevågen" />
		<tag k="place" v="farm" />
		<tag k="ssr:stedsnr" v="570313" />
	</node>
	<node lat="60.785263891981785" lon="4.8701249983452595" id="-73110">
		<tag k="name" v="Rebnor" />
		<tag k="place" v="farm" />
		<tag k="ssr:stedsnr" v="572764" />
	</node>
	<node lat="60.76077500048886" lon="4.913241669404072" id="-73111">
		<tag k="name" v="Austrheim" />
		<tag k="place" v="farm" />
		<tag k="ssr:stedsnr" v="572770" />
	</node>
	<node lat="60.7676111102173" lon="4.907494451177344" id="-73112">
		<tag k="name" v="Austrheim" />
		<tag k="place" v="farm" />
		<tag k="ssr:stedsnr" v="572772" />
	</node>
	<node lat="60.79257777622856" lon="4.923972224179328" id="-73126">
		<tag k="name" v="Sætre" />
		<tag k="place" v="farm" />
		<tag k="ssr:stedsnr" v="632477" />
	</node>
	<node lat="60.75908611107633" lon="4.980425002834342" id="-73127">
		<tag k="name" v="Nordre Njøta" />
		<tag k="place" v="farm" />
		<tag k="ssr:stedsnr" v="692435" />
	</node>
	<node lat="60.80221944859983" lon="4.814536106476682" id="-73128">
		<tag k="name" v="Sævrøyna" />
		<tag k="place" v="farm" />
		<tag k="ssr:stedsnr" v="692619" />
	</node>
	<node lat="60.78349680039711" lon="4.922821262633701" id="-73131">
		<tag k="name" v="Åråsvågen" />
		<tag k="place" v="farm" />
		<tag k="ssr:stedsnr" v="693471" />
	</node>
	<node lat="60.77543055249293" lon="4.939536107918045" id="-73132">
		<tag k="name" v="Leikvoll" />
		<tag k="place" v="farm" />
		<tag k="ssr:stedsnr" v="693510" />
	</node>
	<node lat="60.8011888932579" lon="4.86518334139733" id="-73133">
		<tag k="name" v="Øksneset" />
		<tag k="place" v="farm" />
		<tag k="ssr:stedsnr" v="693646" />
	</node>
	<node lat="60.75917499836046" lon="4.919205551999757" id="-73134">
		<tag k="name" v="Austrheim" />
		<tag k="place" v="farm" />
		<tag k="ssr:stedsnr" v="693755" />
	</node>
	<node lat="60.75841111295244" lon="4.910758329544391" id="-73135">
		<tag k="name" v="Bergsvika" />
		<tag k="place" v="farm" />
		<tag k="ssr:stedsnr" v="693756" />
	</node>
	<node lat="60.75492777344678" lon="4.912713889565929" id="-73150">
		<tag k="name" v="Marka" />
		<tag k="place" v="farm" />
		<tag k="ssr:stedsnr" v="880135" />
	</node>
	<node lat="60.773899196366244" lon="5.005551209787049" id="-73159">
		<tag k="name" v="Straumstad" />
		<tag k="place" v="farm" />
		<tag k="ssr:stedsnr" v="676198" />
	</node>
	<node lat="60.759876093885744" lon="4.9429635945602195" id="-73160">
		<tag k="name" v="Førland" />
		<tag k="place" v="farm" />
		<tag k="ssr:stedsnr" v="676210" />
	</node>
	<node lat="60.801477777263706" lon="4.814969448777145" id="-73162">
		<tag k="name" v="Sævrøyna" />
		<tag k="place" v="farm" />
		<tag k="ssr:stedsnr" v="692615" />
	</node>
	<node lat="60.74491666682068" lon="4.9584527828328" id="-73163">
		<tag k="name" v="Litlelindås" />
		<tag k="place" v="farm" />
		<tag k="ssr:stedsnr" v="693476" />
	</node>
	<node lat="60.76367499836668" lon="4.91238055477132" id="-73173">
		<tag k="name" v="Austrheim" />
		<tag k="place" v="quarter" />
		<tag k="ssr:stedsnr" v="889109" />
	</node>
	<node lat="60.76928104699053" lon="4.935276296577938" id="-73179">
		<tag k="name" v="Hjertås" />
		<tag k="place" v="farm" />
		<tag k="ssr:stedsnr" v="736201" />
	</node>
	<node lat="60.7669888873394" lon="4.947555549555696" id="-73181">
		<tag k="name" v="Rabben" />
		<tag k="place" v="farm" />
		<tag k="ssr:stedsnr" v="736228" />
	</node>
	<node lat="60.80301388641139" lon="4.979800000810363" id="-73184">
		<tag k="name" v="Fonnes" />
		<tag k="place" v="quarter" />
		<tag k="ssr:stedsnr" v="737024" />
	</node>
	<node lat="60.82088084668511" lon="4.817064842515163" id="-73201">
		<tag k="name" v="Krossøyna" />
		<tag k="place" v="farm" />
		<tag k="ssr:stedsnr" v="753583" />
	</node>
	<node lat="60.804327781229766" lon="4.912441661837523" id="-73204">
		<tag k="name" v="Nothuset" />
		<tag k="place" v="locality" />
		<tag k="ssr:stedsnr" v="895899" />
	</node>
	<node lat="60.81003055389498" lon="5.001830561431847" id="-73207">
		<tag k="name" v="Stølen" />
		<tag k="place" v="farm" />
		<tag k="ssr:stedsnr" v="772906" />
	</node>
	<node lat="60.746036113136455" lon="4.967544450573714" id="-73220">
		<tag k="name" v="Litlelindås" />
		<tag k="place" v="hamlet" />
		<tag k="ssr:stedsnr" v="795780" />
	</node>
	<node lat="60.76455756944163" lon="5.000225585392345" id="-73223">
		<tag k="name" v="Monslaupen" />
		<tag k="place" v="farm" />
		<tag k="ssr:stedsnr" v="797216" />
	</node>
	<node lat="60.77740833506337" lon="4.932741660625586" id="-73226">
		<tag k="name" v="Årås" />
		<tag k="place" v="quarter" />
		<tag k="ssr:stedsnr" v="797224" />
	</node>
	<node lat="60.803646361458156" lon="4.979193911047775" id="-73240">
		<tag k="name" v="Fonnes" />
		<tag k="place" v="farm" />
		<tag k="ssr:stedsnr" v="858017" />
	</node>
	<node lat="60.7973750013932" lon="5.01865555932615" id="-73242">
		<tag k="alt_name" v="Åse" />
		<tag k="name" v="Litlås" />
		<tag k="place" v="farm" />
		<tag k="ssr:stedsnr" v="858023" />
	</node>
	<node lat="60.763552780326506" lon="4.957305557938736" id="-73250">
		<tag k="name" v="Solheim" />
		<tag k="place" v="farm" />
		<tag k="ssr:stedsnr" v="858218" />
	</node>
	<node lat="60.777074286273134" lon="4.934614891417957" id="-73252">
		<tag k="name" v="Årås" />
		<tag k="place" v="farm" />
		<tag k="ssr:stedsnr" v="858230" />
	</node>
	<node lat="60.758144443478585" lon="4.982655550274035" id="-73256">
		<tag k="name" v="Nordre Njøta" />
		<tag k="place" v="farm" />
		<tag k="ssr:stedsnr" v="874473" />
	</node>
	<node lat="60.79950000353399" lon="4.999330547652339" id="-73257">
		<tag k="name" v="Kaland" />
		<tag k="place" v="farm" />
		<tag k="ssr:stedsnr" v="874365" />
	</node>
	<node lat="60.79675555675445" lon="4.949502780508301" id="-73258">
		<tag k="name" v="Utkilen" />
		<tag k="place" v="farm" />
		<tag k="ssr:stedsnr" v="874375" />
	</node>
	<node lat="60.782766669974535" lon="4.9742333322071675" id="-73259">
		<tag k="name" v="Synnevågen" />
		<tag k="place" v="farm" />
		<tag k="ssr:stedsnr" v="874378" />
	</node>
	<node lat="60.76365278188073" lon="4.939558338301071" id="-73260">
		<tag k="name" v="Førland" />
		<tag k="place" v="farm" />
		<tag k="ssr:stedsnr" v="875459" />
	</node>
	<node lat="60.7914638859917" lon="4.922947218069826" id="-73261">
		<tag k="name" v="Sætre" />
		<tag k="place" v="farm" />
		<tag k="ssr:stedsnr" v="875468" />
	</node>
	<node lat="60.78655555482292" lon="4.9374888829258134" id="-73275">
		<tag k="name" v="Mastrevikane" />
		<tag k="place" v="quarter" />
		<tag k="ssr:stedsnr" v="918021" />
	</node>
	<node lat="60.74945833154843" lon="4.992080562001831" id="-73282">
		<tag k="name" v="Søre Njøta" />
		<tag k="place" v="farm" />
		<tag k="ssr:stedsnr" v="934413" />
	</node>
	<node lat="60.76010277887061" lon="4.982958332721693" id="-73283">
		<tag k="name" v="Nordre Njøta" />
		<tag k="place" v="farm" />
		<tag k="ssr:stedsnr" v="934414" />
	</node>
	<node lat="60.75229444623871" lon="4.915413888723798" id="-73284">
		<tag k="name" v="Hopland" />
		<tag k="place" v="farm" />
		<tag k="ssr:stedsnr" v="935510" />
	</node>
	<node lat="60.79519166912002" lon="4.9254777730784625" id="-73287">
		<tag k="name" v="Budalen" />
		<tag k="place" v="farm" />
		<tag k="ssr:stedsnr" v="936447" />
	</node>
	<node lat="60.76198809606245" lon="4.903087902450152" id="-73305">
		<tag k="name" v="Bergsvika" />
		<tag k="place" v="farm" />
		<tag k="ssr:stedsnr" v="8230" />
	</node>
	<node lat="60.7560944455106" lon="4.915069439381597" id="-73309">
		<tag k="name" v="Bakken" />
		<tag k="place" v="farm" />
		<tag k="ssr:stedsnr" v="8171" />
	</node>
	<node lat="60.80127777442384" lon="4.977927782829516" id="-73315">
		<tag k="name" v="Fonnes" />
		<tag k="place" v="farm" />
		<tag k="ssr:stedsnr" v="24344" />
	</node>
	<node lat="60.80728610654521" lon="4.981822216139325" id="-73316">
		<tag k="name" v="Fonnes" />
		<tag k="place" v="farm" />
		<tag k="ssr:stedsnr" v="24346" />
	</node>
	<node lat="60.750316669076774" lon="4.99036388714608" id="-73317">
		<tag k="name" v="Søre Njøta" />
		<tag k="place" v="farm" />
		<tag k="ssr:stedsnr" v="24448" />
	</node>
	<node lat="60.812188889418195" lon="4.993527780429098" id="-73318">
		<tag k="name" v="Leirvågen" />
		<tag k="place" v="farm" />
		<tag k="ssr:stedsnr" v="25366" />
	</node>
	<node lat="60.76095278034065" lon="4.9407361107425904" id="-73319">
		<tag k="name" v="Førland" />
		<tag k="place" v="farm" />
		<tag k="ssr:stedsnr" v="25437" />
	</node>
	<node lat="60.76117222427184" lon="4.944377782286964" id="-73320">
		<tag k="name" v="Førland" />
		<tag k="place" v="farm" />
		<tag k="ssr:stedsnr" v="25443" />
	</node>
	<node lat="60.82001666335947" lon="4.803791666167675" id="-73321">
		<tag k="name" v="Rongeværet" />
		<tag k="place" v="farm" />
		<tag k="ssr:stedsnr" v="25654" />
	</node>
	<node lat="60.82226666501022" lon="4.784219437585671" id="-73322">
		<tag k="name" v="Rongeværet" />
		<tag k="place" v="farm" />
		<tag k="ssr:stedsnr" v="25656" />
	</node>
	<node lat="60.78632500335646" lon="4.869369440977623" id="-73323">
		<tag k="name" v="Rebnor" />
		<tag k="place" v="farm" />
		<tag k="ssr:stedsnr" v="26718" />
	</node>
	<node lat="60.736908330464836" lon="4.969469440534929" id="-73345">
		<tag k="name" v="Snekkevika" />
		<tag k="place" v="farm" />
		<tag k="ssr:stedsnr" v="67777" />
	</node>
	<node lat="60.75489443997799" lon="4.915119442508302" id="-73358">
		<tag k="name" v="Marka" />
		<tag k="place" v="farm" />
		<tag k="ssr:stedsnr" v="69169" />
	</node>
	<node lat="60.74624721844066" lon="4.960902783741004" id="-73362">
		<tag k="name" v="Litlelindås" />
		<tag k="place" v="farm" />
		<tag k="ssr:stedsnr" v="86450" />
	</node>
	<node lat="60.78306388733762" lon="4.9446500042518" id="-73363">
		<tag k="name" v="Vikane" />
		<tag k="place" v="farm" />
		<tag k="ssr:stedsnr" v="86457" />
	</node>
	<node lat="60.78963889117248" lon="4.931016657791909" id="-73364">
		<tag k="name" v="Sætre" />
		<tag k="place" v="farm" />
		<tag k="ssr:stedsnr" v="86467" />
	</node>
	<node lat="60.7502277817273" lon="4.9181833349250805" id="-73365">
		<tag k="name" v="Hopland" />
		<tag k="place" v="farm" />
		<tag k="ssr:stedsnr" v="86534" />
	</node>
	<node lat="60.76136944605152" lon="4.916594450175285" id="-73367">
		<tag k="name" v="Austrheim" />
		<tag k="place" v="farm" />
		<tag k="ssr:stedsnr" v="87760" />
	</node>
	<node lat="60.78056033585005" lon="4.9478201427898485" id="-73394">
		<tag k="name" v="Vikane" />
		<tag k="place" v="farm" />
		<tag k="ssr:stedsnr" v="129249" />
	</node>
	<node lat="60.78328509420815" lon="4.974446737946632" id="-73395">
		<tag k="name" v="Synnevågen" />
		<tag k="place" v="farm" />
		<tag k="ssr:stedsnr" v="129255" />
	</node>
	<node lat="60.7959361142166" lon="4.864147219445081" id="-73408">
		<tag k="name" v="Øksneset" />
		<tag k="place" v="farm" />
		<tag k="ssr:stedsnr" v="147612" />
	</node>
	<node lat="60.797294443787536" lon="4.953980554216419" id="-73409">
		<tag k="name" v="Utkilen" />
		<tag k="place" v="farm" />
		<tag k="ssr:stedsnr" v="166227" />
	</node>
	<node lat="60.75283055211394" lon="4.9499500051879775" id="-73428">
		<tag k="name" v="Solvang" />
		<tag k="place" v="farm" />
		<tag k="ssr:stedsnr" v="190163" />
	</node>
	<node lat="60.756994439925684" lon="4.923647218286422" id="-73443">
		<tag k="name" v="Hopland" />
		<tag k="place" v="farm" />
		<tag k="ssr:stedsnr" v="207480" />
	</node>
	<node lat="60.75388610990213" lon="4.916841665735518" id="-73444">
		<tag k="name" v="Hopland" />
		<tag k="place" v="farm" />
		<tag k="ssr:stedsnr" v="207483" />
	</node>
	<node lat="60.78638055141308" lon="4.941999994567277" id="-73445">
		<tag k="name" v="Sætre" />
		<tag k="place" v="farm" />
		<tag k="ssr:stedsnr" v="207433" />
	</node>
	<node lat="60.7630805531133" lon="4.9505861142573995" id="-73446">
		<tag k="name" v="Solend" />
		<tag k="place" v="farm" />
		<tag k="ssr:stedsnr" v="207443" />
	</node>
	<node lat="60.78765517392394" lon="4.866218827759331" id="-73448">
		<tag k="name" v="Rebnor" />
		<tag k="place" v="farm" />
		<tag k="ssr:stedsnr" v="208754" />
	</node>
	<node lat="60.784822217984065" lon="4.868763893278603" id="-73449">
		<tag k="name" v="Rebnor" />
		<tag k="place" v="farm" />
		<tag k="ssr:stedsnr" v="208758" />
	</node>
	<node lat="60.760375000830834" lon="4.911458340848713" id="-73450">
		<tag k="name" v="Bergsvika" />
		<tag k="place" v="farm" />
		<tag k="ssr:stedsnr" v="208764" />
	</node>
	<node lat="60.80900268877686" lon="4.832868474293349" id="-73451">
		<tag k="name" v="Langøyna" />
		<tag k="place" v="farm" />
		<tag k="ssr:stedsnr" v="267582" />
	</node>
	<node lat="60.787324998203154" lon="4.938736109659994" id="-73453">
		<tag k="name" v="Sætre" />
		<tag k="place" v="farm" />
		<tag k="ssr:stedsnr" v="268466" />
	</node>
	<node lat="60.788069441906075" lon="4.9410805569423255" id="-73454">
		<tag k="name" v="Sætre" />
		<tag k="place" v="farm" />
		<tag k="ssr:stedsnr" v="268468" />
	</node>
	<node lat="60.76740833612583" lon="4.956311118631601" id="-73455">
		<tag k="name" v="Solend" />
		<tag k="place" v="farm" />
		<tag k="ssr:stedsnr" v="268487" />
	</node>
	<node lat="60.7627222223053" lon="4.901577776985473" id="-73456">
		<tag k="name" v="Bergsvika" />
		<tag k="place" v="farm" />
		<tag k="ssr:stedsnr" v="269768" />
	</node>
	<node lat="60.78558610807583" lon="4.872113882246399" id="-73457">
		<tag k="name" v="Rebnor" />
		<tag k="place" v="farm" />
		<tag k="ssr:stedsnr" v="269775" />
	</node>
	<node lat="60.76022046283557" lon="4.914981153036616" id="-73458">
		<tag k="name" v="Austrheim" />
		<tag k="place" v="farm" />
		<tag k="ssr:stedsnr" v="269781" />
	</node>
	<node lat="60.76450555718491" lon="4.918227781917091" id="-73459">
		<tag k="name" v="Austrheim" />
		<tag k="place" v="farm" />
		<tag k="ssr:stedsnr" v="269782" />
	</node>
	<node lat="60.7524222224398" lon="4.915875007265943" id="-73462">
		<tag k="name" v="Hopland" />
		<tag k="place" v="farm" />
		<tag k="ssr:stedsnr" v="287269" />
	</node>
	<node lat="60.78152778233534" lon="4.972900001792173" id="-73487">
		<tag k="name" v="Synnevågen" />
		<tag k="place" v="farm" />
		<tag k="ssr:stedsnr" v="327340" />
	</node>
	<node lat="60.79595277380592" lon="4.949988893705569" id="-73488">
		<tag k="name" v="Utkilen" />
		<tag k="place" v="farm" />
		<tag k="ssr:stedsnr" v="327347" />
	</node>
	<node lat="60.80635277837341" lon="4.982938880376612" id="-73489">
		<tag k="name" v="Fonnes" />
		<tag k="place" v="farm" />
		<tag k="ssr:stedsnr" v="327350" />
	</node>
	<node lat="60.75982500122462" lon="4.984269443714948" id="-73490">
		<tag k="name" v="Nordre Njøta" />
		<tag k="place" v="farm" />
		<tag k="ssr:stedsnr" v="327442" />
	</node>
	<node lat="60.770266008095206" lon="4.933204116172331" id="-73494">
		<tag k="alt_name" v="Slettebakken" />
		<tag k="name" v="Hjertås" />
		<tag k="place" v="farm" />
		<tag k="ssr:stedsnr" v="329449" />
	</node>
	<node lat="60.78870278122986" lon="4.926605549810848" id="-73495">
		<tag k="name" v="Sætre" />
		<tag k="place" v="farm" />
		<tag k="ssr:stedsnr" v="329461" />
	</node>
	<node lat="60.80706002121729" lon="4.912462610262674" id="-73507">
		<tag k="name" v="Kvalvågen" />
		<tag k="place" v="farm" />
		<tag k="ssr:stedsnr" v="372043" />
	</node>
	<node lat="60.77142499626928" lon="4.894425007992663" id="-73510">
		<tag k="name" v="Breidvik" />
		<tag k="place" v="farm" />
		<tag k="ssr:stedsnr" v="372256" />
	</node>
	<node lat="60.80306944388943" lon="4.9852888873095855" id="-73518">
		<tag k="name" v="Fonnes" />
		<tag k="place" v="farm" />
		<tag k="ssr:stedsnr" v="388338" />
	</node>
	<node lat="60.75165833513234" lon="4.988686105305496" id="-73519">
		<tag k="name" v="Søre Njøta" />
		<tag k="place" v="farm" />
		<tag k="ssr:stedsnr" v="388417" />
	</node>
	<node lat="60.763788893330855" lon="4.957186111841784" id="-73520">
		<tag k="name" v="Solend" />
		<tag k="place" v="farm" />
		<tag k="ssr:stedsnr" v="388424" />
	</node>
	<node lat="60.821455552277634" lon="4.816491669192414" id="-73521">
		<tag k="name" v="Krossøyna" />
		<tag k="place" v="farm" />
		<tag k="ssr:stedsnr" v="388585" />
	</node>
	<node lat="60.7652138889753" lon="4.950294449059973" id="-73524">
		<tag k="name" v="Solend" />
		<tag k="place" v="farm" />
		<tag k="ssr:stedsnr" v="389507" />
	</node>
	<node lat="60.78957499759724" lon="4.86621944211716" id="-73525">
		<tag k="name" v="Rebnor" />
		<tag k="place" v="farm" />
		<tag k="ssr:stedsnr" v="390732" />
	</node>
	<node lat="60.77505493862391" lon="4.943353379035098" id="-73552">
		<tag k="name" v="Leikvoll" />
		<tag k="place" v="farm" />
		<tag k="ssr:stedsnr" v="493194" />
	</node>
	<node lat="60.79059999841455" lon="4.924702776657" id="-73562">
		<tag k="name" v="Sætre" />
		<tag k="place" v="farm" />
		<tag k="ssr:stedsnr" v="510446" />
	</node>
	<node lat="60.834730559845404" lon="4.877688887411819" id="-73563">
		<tag k="name" v="Børilden" />
		<tag k="place" v="farm" />
		<tag k="ssr:stedsnr" v="510635" />
	</node>
	<node lat="60.802461107018914" lon="4.813405553936311" id="-73564">
		<tag k="name" v="Sævrøyna" />
		<tag k="place" v="farm" />
		<tag k="ssr:stedsnr" v="510656" />
	</node>
	<node lat="60.80499612910364" lon="4.920879861437117" id="-73568">
		<tag k="name" v="Skorholmen" />
		<tag k="place" v="farm" />
		<tag k="ssr:stedsnr" v="511441" />
	</node>
	<node lat="60.76183055276462" lon="4.9148361098156705" id="-73569">
		<tag k="name" v="Austrheim" />
		<tag k="place" v="farm" />
		<tag k="ssr:stedsnr" v="511711" />
	</node>
	<node lat="60.76203333798463" lon="4.904077784431046" id="-73570">
		<tag k="name" v="Bergsvika" />
		<tag k="place" v="farm" />
		<tag k="ssr:stedsnr" v="511714" />
	</node>
	<node lat="60.76240833197381" lon="4.901605563201125" id="-73571">
		<tag k="name" v="Bergsvika" />
		<tag k="place" v="farm" />
		<tag k="ssr:stedsnr" v="511717" />
	</node>
	<node lat="60.80935555597466" lon="4.904813888710145" id="-73601">
		<tag k="name" v="Toftegård" />
		<tag k="place" v="farm" />
		<tag k="ssr:stedsnr" v="554029" />
	</node>
	<node lat="60.76770083785905" lon="5.0088056378259" id="-73603">
		<tag k="name" v="Bakka" />
		<tag k="place" v="farm" />
		<tag k="ssr:stedsnr" v="554228" />
	</node>
	<node lat="60.75881008145861" lon="4.984410127345794" id="-73604">
		<tag k="name" v="Nordre Njøta" />
		<tag k="place" v="farm" />
		<tag k="ssr:stedsnr" v="554179" />
	</node>
	<node lat="60.756199732717164" lon="4.914912096021442" id="-73606">
		<tag k="name" v="Hopland" />
		<tag k="place" v="farm" />
		<tag k="ssr:stedsnr" v="570450" />
	</node>
	<node lat="60.75208610925083" lon="4.91245832504364" id="-73629">
		<tag k="name" v="Hoplandssjøen" />
		<tag k="place" v="isolated_dwelling" />
		<tag k="ssr:stedsnr" v="615141" />
	</node>
	<node lat="60.75935000439476" lon="4.9173388882830436" id="-73630">
		<tag k="name" v="Åsen" />
		<tag k="place" v="farm" />
		<tag k="ssr:stedsnr" v="615187" />
	</node>
	<node lat="60.76533333405544" lon="4.922975006523889" id="-73631">
		<tag k="name" v="Solhaugen" />
		<tag k="place" v="farm" />
		<tag k="ssr:stedsnr" v="615188" />
	</node>
	<node lat="60.815391668391406" lon="4.8892250011870635" id="-73633">
		<tag k="name" v="Børilden" />
		<tag k="place" v="farm" />
		<tag k="ssr:stedsnr" v="631618" />
	</node>
	<node lat="60.798524540118564" lon="4.9362279874204855" id="-73636">
		<tag k="name" v="Kilstraumen" />
		<tag k="place" v="farm" />
		<tag k="ssr:stedsnr" v="632457" />
	</node>
	<node lat="60.803336108216456" lon="4.925908330224586" id="-73637">
		<tag k="name" v="Ulvøyna" />
		<tag k="place" v="farm" />
		<tag k="ssr:stedsnr" v="632465" />
	</node>
	<node lat="60.77356388876264" lon="4.874611106301329" id="-73638">
		<tag k="name" v="Dyrneset" />
		<tag k="place" v="farm" />
		<tag k="ssr:stedsnr" v="632707" />
	</node>
	<node lat="60.77462500035352" lon="4.924991662494107" id="-73659">
		<tag k="leisure" v="pitch" />
		<tag k="name" v="Idrettsplass" />
		<tag k="ssr:stedsnr" v="712855" />
	</node>
	<node lat="60.7594805552728" lon="4.914844440993547" id="-73671">
		<tag k="name" v="Hopland" />
		<tag k="place" v="hamlet" />
		<tag k="ssr:stedsnr" v="736170" />
	</node>
	<node lat="60.79376869381308" lon="4.925824689645227" id="-73680">
		<tag k="name" v="Budalen" />
		<tag k="place" v="farm" />
		<tag k="ssr:stedsnr" v="737010" />
	</node>
	<node lat="60.774872218452444" lon="5.0017555538039975" id="-73685">
		<tag k="name" v="Straumstad" />
		<tag k="place" v="farm" />
		<tag k="ssr:stedsnr" v="752335" />
	</node>
	<node lat="60.807972222316" lon="4.910977773022618" id="-73687">
		<tag k="name" v="Kvalvågen" />
		<tag k="place" v="hamlet" />
		<tag k="ssr:stedsnr" v="753869" />
	</node>
	<node lat="60.7605722257354" lon="4.907341668215248" id="-73692">
		<tag k="name" v="Bergsvika" />
		<tag k="place" v="farm" />
		<tag k="ssr:stedsnr" v="754736" />
	</node>
	<node lat="60.80381110764235" lon="4.980413891829426" id="-73712">
		<tag k="name" v="Fonnes" />
		<tag k="place" v="farm" />
		<tag k="ssr:stedsnr" v="813325" />
	</node>
	<node lat="60.78223333192654" lon="4.946147215016524" id="-73713">
		<tag k="name" v="Vikane" />
		<tag k="place" v="farm" />
		<tag k="ssr:stedsnr" v="814480" />
	</node>
	<node lat="60.76065833083565" lon="4.90058611977827" id="-73715">
		<tag k="name" v="Bergsvika" />
		<tag k="place" v="farm" />
		<tag k="ssr:stedsnr" v="815752" />
	</node>
	<node lat="60.759444447742574" lon="4.948161118046121" id="-73723">
		<tag k="name" v="Ørnetua" />
		<tag k="place" v="farm" />
		<tag k="ssr:stedsnr" v="834855" />
	</node>
	<node lat="60.79642500194559" lon="5.0227194486906255" id="-73730">
		<tag k="name" v="Litlås" />
		<tag k="place" v="farm" />
		<tag k="ssr:stedsnr" v="834959" />
	</node>
	<node lat="60.76669166685285" lon="4.90515833261913" id="-73738">
		<tag k="name" v="Neset" />
		<tag k="place" v="farm" />
		<tag k="ssr:stedsnr" v="858246" />
	</node>
	<node lat="60.80316326107646" lon="4.811917946787622" id="-73739">
		<tag k="name" v="Sævrøyna" />
		<tag k="place" v="farm" />
		<tag k="ssr:stedsnr" v="874644" />
	</node>
	<node lat="60.79502777475045" lon="4.931488885289324" id="-73741">
		<tag k="name" v="Budalen" />
		<tag k="place" v="farm" />
		<tag k="ssr:stedsnr" v="875445" />
	</node>
	<node lat="60.763874996581315" lon="4.886452783170333" id="-73742">
		<tag k="name" v="Lerøyna" />
		<tag k="place" v="farm" />
		<tag k="ssr:stedsnr" v="875716" />
	</node>
	<node lat="60.762786107117456" lon="4.911188898500036" id="-73743">
		<tag k="name" v="Austrheim" />
		<tag k="place" v="farm" />
		<tag k="ssr:stedsnr" v="875731" />
	</node>
	<node lat="60.76641111061709" lon="4.949408335235333" id="-73744">
		<tag k="name" v="Solend" />
		<tag k="place" v="farm" />
		<tag k="ssr:stedsnr" v="875481" />
	</node>
	<node lat="60.80394380036361" lon="4.928850293458068" id="-73745">
		<tag k="name" v="Ulvøyna" />
		<tag k="place" v="farm" />
		<tag k="ssr:stedsnr" v="875450" />
	</node>
	<node lat="60.804216663115525" lon="4.9796277861381055" id="-73754">
		<tag k="name" v="Fonnes" />
		<tag k="place" v="farm" />
		<tag k="ssr:stedsnr" v="918988" />
	</node>
	<node lat="60.804105556746514" lon="4.9836749970993965" id="-73756">
		<tag k="name" v="Fonnes" />
		<tag k="place" v="farm" />
		<tag k="ssr:stedsnr" v="934332" />
	</node>
	<node lat="60.821529338401334" lon="4.782990639397024" id="-73757">
		<tag k="name" v="Rongeværet" />
		<tag k="place" v="farm" />
		<tag k="ssr:stedsnr" v="935613" />
	</node>
	<node lat="60.82169444800876" lon="4.818358326644682" id="-73758">
		<tag k="name" v="Krossøyna" />
		<tag k="place" v="farm" />
		<tag k="ssr:stedsnr" v="935617" />
	</node>
	<node lat="60.78710833448587" lon="4.928022220749018" id="-73760">
		<tag k="name" v="Sætre" />
		<tag k="place" v="farm" />
		<tag k="ssr:stedsnr" v="936473" />
	</node>
	<node lat="60.78341388702502" lon="4.932352771382698" id="-73783">
		<tag k="name" v="Austrheimparken" />
		<tag k="place" v="square" />
		<tag k="ssr:stedsnr" v="970640" />
	</node>
</osm>
