<?xml version="1.0" encoding="UTF-8"?>
<osm version="0.6" generator="osmapis">
	<node lat="60.83081388628093" lon="4.8593944371454505" id="-74327">
		<tag k="name" v="Storenesvågen" />
		<tag k="natural" v="bay" />
		<tag k="ssr:stedsnr" v="8103" />
	</node>
	<node lat="60.836313887428474" lon="4.909133334263379" id="-74328">
		<tag k="alt_name" v="Islendingen, høge" />
		<tag k="name" v="Høge Islendingen" />
		<tag k="place" v="islet" />
		<tag k="ssr:stedsnr" v="8107" />
	</node>
	<node lat="60.8096888881277" lon="4.906758329594804" id="-74333">
		<tag k="name" v="Setevika" />
		<tag k="natural" v="bay" />
		<tag k="ssr:stedsnr" v="44207" />
	</node>
	<node lat="60.80470277758682" lon="4.7763027754088725" id="-74338">
		<tag k="fixme" v="consider seamark:type=rock or natural=shoal" />
		<tag k="name" v="Tareskjeret" />
		<tag k="place" v="islet" />
		<tag k="ssr:stedsnr" v="45987" />
	</node>
	<node lat="60.8114527749846" lon="4.888247214894486" id="-74339">
		<tag k="name" v="Ærholmosen" />
		<tag k="natural" v="strait" />
		<tag k="ssr:stedsnr" v="45884" />
	</node>
	<node lat="60.81463888759363" lon="4.917322214088134" id="-74340">
		<tag k="name" v="Krossneset" />
		<tag k="natural" v="cape" />
		<tag k="ssr:stedsnr" v="45886" />
	</node>
	<node lat="60.80949444276129" lon="4.798755552009918" id="-74346">
		<tag k="fixme" v="consider seamark:type=rock or natural=shoal" />
		<tag k="name" v="Maiskjeret" />
		<tag k="place" v="islet" />
		<tag k="ssr:stedsnr" v="69066" />
	</node>
	<node lat="60.81444999709122" lon="4.774650000546573" id="-74352">
		<tag k="fixme" v="consider seamark:type=rock or natural=shoal" />
		<tag k="name" v="Teistholmskjeret" />
		<tag k="place" v="islet" />
		<tag k="ssr:stedsnr" v="69085" />
	</node>
	<node lat="60.77259166999592" lon="4.971477776416751" id="-74355">
		<tag k="name" v="Larsholmen" />
		<tag k="place" v="islet" />
		<tag k="ssr:stedsnr" v="69202" />
	</node>
	<node lat="60.755541666980164" lon="4.902605559525665" id="-74368">
		<tag k="name" v="Bergsvikhavnen" />
		<tag k="natural" v="beach" />
		<tag k="ssr:stedsnr" v="105873" />
	</node>
	<node lat="60.83386111193664" lon="4.895825003425951" id="-74371">
		<tag k="name" v="Nordre Stongevågen" />
		<tag k="natural" v="bay" />
		<tag k="ssr:stedsnr" v="105908" />
	</node>
	<node lat="60.757922224279106" lon="4.893925008842277" id="-74373">
		<tag k="name" v="Høgholmen" />
		<tag k="place" v="islet" />
		<tag k="ssr:stedsnr" v="105975" />
	</node>
	<node lat="60.806255553024464" lon="4.811155560542211" id="-74377">
		<tag k="name" v="Bukkholmen" />
		<tag k="place" v="islet" />
		<tag k="ssr:stedsnr" v="251050" />
	</node>
	<node lat="60.81632778169455" lon="4.9045888971803455" id="-74383">
		<tag k="alt_name" v="Rasmusholmen" />
		<tag k="name" v="Søre Rasmusholmen" />
		<tag k="place" v="islet" />
		<tag k="ssr:stedsnr" v="251096" />
	</node>
	<node lat="60.76478611351945" lon="4.973541667612058" id="-74393">
		<tag k="name" v="Kalvstangen" />
		<tag k="natural" v="cape" />
		<tag k="ssr:stedsnr" v="251972" />
	</node>
	<node lat="60.79013055131151" lon="4.856969448922731" id="-74394">
		<tag k="name" v="Bønesholmen" />
		<tag k="place" v="islet" />
		<tag k="ssr:stedsnr" v="129001" />
	</node>
	<node lat="60.82896944185645" lon="4.898280555036257" id="-74410">
		<tag k="name" v="Kampestøholmen" />
		<tag k="place" v="islet" />
		<tag k="ssr:stedsnr" v="166208" />
	</node>
	<node lat="60.737394442615994" lon="4.9829083387475235" id="-74416">
		<tag k="name" v="Stokkenesvågen" />
		<tag k="natural" v="bay" />
		<tag k="ssr:stedsnr" v="166861" />
	</node>
	<node lat="60.79392777770795" lon="4.927688889270604" id="-74417">
		<tag k="name" v="Lyngtræneset" />
		<tag k="natural" v="cape" />
		<tag k="ssr:stedsnr" v="166867" />
	</node>
	<node lat="60.800002774148595" lon="4.819508337237495" id="-74420">
		<tag k="name" v="Sævrøyvågen" />
		<tag k="natural" v="bay" />
		<tag k="ssr:stedsnr" v="166903" />
	</node>
	<node lat="60.76918610951746" lon="4.872697223934076" id="-74421">
		<tag k="fixme" v="consider seamark:type=rock or natural=shoal" />
		<tag k="name" v="Svartskjeret" />
		<tag k="place" v="islet" />
		<tag k="ssr:stedsnr" v="166957" />
	</node>
	<node lat="60.836630554032396" lon="4.878816665052981" id="-74425">
		<tag k="name" v="Beinstaren" />
		<tag k="natural" v="shoal" />
		<tag k="place" v="locality" />
		<tag k="ssr:stedsnr" v="177656" />
	</node>
	<node lat="60.81578055473656" lon="4.836691666489889" id="-74430">
		<tag k="alt_name" v="Haugklubben" />
		<tag k="name" v="Nordre Haugklubben" />
		<tag k="place" v="islet" />
		<tag k="ssr:stedsnr" v="190076" />
	</node>
	<node lat="60.75481944858604" lon="4.900425007599389" id="-74434">
		<tag k="name" v="Hestneset" />
		<tag k="natural" v="cape" />
		<tag k="ssr:stedsnr" v="190166" />
	</node>
	<node lat="60.80414722234378" lon="4.8328333253232865" id="-74452">
		<tag k="name" v="Tjeldholmen" />
		<tag k="place" v="islet" />
		<tag k="ssr:stedsnr" v="227990" />
	</node>
	<node lat="60.80796944665527" lon="4.824500001165691" id="-74453">
		<tag k="name" v="Eidholmen" />
		<tag k="place" v="islet" />
		<tag k="ssr:stedsnr" v="227994" />
	</node>
	<node lat="60.830841665473436" lon="4.868622229981985" id="-74461">
		<tag k="name" v="Kluftesanden" />
		<tag k="natural" v="bay" />
		<tag k="ssr:stedsnr" v="238609" />
	</node>
	<node lat="60.83384999787371" lon="4.875288886851966" id="-74462">
		<tag k="name" v="Beinsundet" />
		<tag k="natural" v="strait" />
		<tag k="ssr:stedsnr" v="238633" />
	</node>
	<node lat="60.72493361031028" lon="5.049838252786043" id="-74475">
		<tag k="bay" v="fjord" />
		<tag k="name" v="Lurefjorden" />
		<tag k="natural" v="bay" />
		<tag k="ssr:stedsnr" v="287590" />
	</node>
	<node lat="60.82130000098378" lon="4.798944445613865" id="-74476">
		<tag k="name" v="Nautøyvågen" />
		<tag k="natural" v="bay" />
		<tag k="ssr:stedsnr" v="287929" />
	</node>
	<node lat="60.80570555958686" lon="4.840133329410027" id="-74477">
		<tag k="name" v="Grusholmen" />
		<tag k="place" v="islet" />
		<tag k="ssr:stedsnr" v="287994" />
	</node>
	<node lat="60.79796667084665" lon="4.9235444502581185" id="-74478">
		<tag k="name" v="Ilneset" />
		<tag k="natural" v="cape" />
		<tag k="ssr:stedsnr" v="288902" />
	</node>
	<node lat="60.79128611101652" lon="4.7847166577540765" id="-74481">
		<tag k="name" v="Lyngokseskjerflua" />
		<tag k="natural" v="shoal" />
		<tag k="place" v="locality" />
		<tag k="ssr:stedsnr" v="461850" />
	</node>
	<node lat="60.81830277551086" lon="4.892166663548932" id="-74482">
		<tag k="fixme" v="consider seamark:type=rock or natural=shoal" />
		<tag k="name" v="Smådynene" />
		<tag k="place" v="islet" />
		<tag k="ssr:stedsnr" v="298607" />
	</node>
	<node lat="60.82471388570327" lon="4.855052781514684" id="-74483">
		<tag k="name" v="Holmetaren" />
		<tag k="natural" v="shoal" />
		<tag k="place" v="locality" />
		<tag k="ssr:stedsnr" v="298611" />
	</node>
	<node lat="60.831530554586614" lon="4.811269444029276" id="-74486">
		<tag k="alt_name" v="Tjørholmen, s" />
		<tag k="name" v="Søre Tjørholmen" />
		<tag k="place" v="islet" />
		<tag k="ssr:stedsnr" v="311134" />
	</node>
	<node lat="60.83337778067119" lon="4.807900002838907" id="-74487">
		<tag k="alt_name" v="Tjørholmen, nordre" />
		<tag k="name" v="Nordre Tjørholmen" />
		<tag k="place" v="islet" />
		<tag k="ssr:stedsnr" v="311135" />
	</node>
	<node lat="60.80359444161929" lon="4.817513881587005" id="-74498">
		<tag k="name" v="Neset" />
		<tag k="natural" v="cape" />
		<tag k="ssr:stedsnr" v="469846" />
	</node>
	<node lat="60.798608334035656" lon="4.860833339962935" id="-74499">
		<tag k="name" v="Kalveneset" />
		<tag k="natural" v="cape" />
		<tag k="ssr:stedsnr" v="469848" />
	</node>
	<node lat="60.74945277779127" lon="4.918005547153444" id="-74504">
		<tag k="name" v="Storsteinen" />
		<tag k="natural" v="cape" />
		<tag k="ssr:stedsnr" v="469957" />
	</node>
	<node lat="60.831519448016316" lon="4.817997218739622" id="-74506">
		<tag k="name" v="Tjørholmskallen" />
		<tag k="natural" v="shoal" />
		<tag k="place" v="locality" />
		<tag k="ssr:stedsnr" v="328216" />
	</node>
	<node lat="60.83046944508568" lon="4.878419447192424" id="-74517">
		<tag k="name" v="Lauvholmen" />
		<tag k="place" v="islet" />
		<tag k="ssr:stedsnr" v="348204" />
	</node>
	<node lat="60.796533332826336" lon="4.940161119601407" id="-74519">
		<tag k="name" v="Grisholmen" />
		<tag k="place" v="islet" />
		<tag k="ssr:stedsnr" v="348225" />
	</node>
	<node lat="60.77534167032078" lon="4.981586116092317" id="-74521">
		<tag k="name" v="Juvika" />
		<tag k="natural" v="bay" />
		<tag k="ssr:stedsnr" v="348903" />
	</node>
	<node lat="60.75866388685418" lon="4.880880564155191" id="-74522">
		<tag k="fixme" v="consider seamark:type=rock or natural=shoal" />
		<tag k="name" v="Færøyskjeret" />
		<tag k="place" v="islet" />
		<tag k="ssr:stedsnr" v="348958" />
	</node>
	<node lat="60.76099721908054" lon="4.8536444423987275" id="-74523">
		<tag k="fixme" v="consider seamark:type=rock or natural=shoal" />
		<tag k="name" v="Otreskjeret" />
		<tag k="place" v="islet" />
		<tag k="ssr:stedsnr" v="348966" />
	</node>
	<node lat="60.7904277818471" lon="4.817344435986967" id="-74525">
		<tag k="name" v="Høgholmen" />
		<tag k="place" v="islet" />
		<tag k="ssr:stedsnr" v="348978" />
	</node>
	<node lat="60.807172226547166" lon="4.790686114142016" id="-74526">
		<tag k="name" v="Litle Brattholmen" />
		<tag k="place" v="islet" />
		<tag k="ssr:stedsnr" v="348804" />
	</node>
	<node lat="60.80619721975828" lon="4.90436666262151" id="-74527">
		<tag k="name" v="Seteneset" />
		<tag k="natural" v="cape" />
		<tag k="ssr:stedsnr" v="348875" />
	</node>
	<node lat="60.828352778137464" lon="4.869572217724614" id="-74530">
		<tag k="name" v="Ternevika" />
		<tag k="natural" v="bay" />
		<tag k="ssr:stedsnr" v="359602" />
	</node>
	<node lat="60.75530000306227" lon="5.005891673146425" id="-74532">
		<tag k="name" v="Kiken" />
		<tag k="natural" v="cape" />
		<tag k="ssr:stedsnr" v="372167" />
	</node>
	<node lat="60.77923610751756" lon="4.863452772718853" id="-74534">
		<tag k="alt_name" v="Bukkholmsundet" />
		<tag k="name" v="Bukkholmstraumen" />
		<tag k="natural" v="strait" />
		<tag k="ssr:stedsnr" v="372220" />
	</node>
	<node lat="60.7629999971752" lon="4.857552782573553" id="-74543">
		<tag k="name" v="Flatholmen" />
		<tag k="place" v="islet" />
		<tag k="ssr:stedsnr" v="408837" />
	</node>
	<node lat="60.80706111429521" lon="4.824158340807267" id="-74546">
		<tag k="name" v="Sivertholmen" />
		<tag k="place" v="islet" />
		<tag k="ssr:stedsnr" v="409998" />
	</node>
	<node lat="60.784786107885104" lon="4.860969448429023" id="-74549">
		<tag k="name" v="Hjeltneset" />
		<tag k="natural" v="cape" />
		<tag k="ssr:stedsnr" v="433002" />
	</node>
	<node lat="60.785527778742946" lon="4.839944435476557" id="-74551">
		<tag k="name" v="Flatholmen" />
		<tag k="place" v="islet" />
		<tag k="ssr:stedsnr" v="433006" />
	</node>
	<node lat="60.81359444633054" lon="4.844800006895896" id="-74552">
		<tag k="name" v="Stussøyskaget" />
		<tag k="place" v="islet" />
		<tag k="ssr:stedsnr" v="433104" />
	</node>
	<node lat="60.81281944327155" lon="4.92180000388216" id="-74554">
		<tag k="name" v="Alisholmen" />
		<tag k="place" v="islet" />
		<tag k="ssr:stedsnr" v="433107" />
	</node>
	<node lat="60.82921110778404" lon="4.806638885387136" id="-74555">
		<tag k="name" v="Krossøygavlen" />
		<tag k="natural" v="cape" />
		<tag k="ssr:stedsnr" v="433110" />
	</node>
	<node lat="60.831688889533616" lon="4.856925000753541" id="-74556">
		<tag k="name" v="Storeneset" />
		<tag k="natural" v="cape" />
		<tag k="ssr:stedsnr" v="433114" />
	</node>
	<node lat="60.82251388928582" lon="4.8584638931946476" id="-74557">
		<tag k="name" v="Litleholmen" />
		<tag k="place" v="islet" />
		<tag k="ssr:stedsnr" v="433128" />
	</node>
	<node lat="60.819766666832585" lon="4.78891665752018" id="-74558">
		<tag k="name" v="Ramsholmen" />
		<tag k="place" v="islet" />
		<tag k="ssr:stedsnr" v="433132" />
	</node>
	<node lat="60.80662778181304" lon="4.828350007615449" id="-74571">
		<tag k="name" v="Hjeltholmen" />
		<tag k="place" v="islet" />
		<tag k="ssr:stedsnr" v="494051" />
	</node>
	<node lat="60.82909444587091" lon="4.7807999945011" id="-74573">
		<tag k="name" v="Røvelskjeret" />
		<tag k="place" v="islet" />
		<tag k="ssr:stedsnr" v="494101" />
	</node>
	<node lat="60.749330558916476" lon="4.916908330492658" id="-74575">
		<tag k="name" v="Kjerringa" />
		<tag k="natural" v="shoal" />
		<tag k="place" v="locality" />
		<tag k="ssr:stedsnr" v="449817" />
	</node>
	<node lat="60.80461094704212" lon="4.919375377622377" id="-74576">
		<tag k="name" v="Skåtenesvågen" />
		<tag k="natural" v="bay" />
		<tag k="ssr:stedsnr" v="452565" />
	</node>
	<node lat="60.820080554150806" lon="4.8335055568807626" id="-74578">
		<tag k="name" v="Terneskjerflua" />
		<tag k="natural" v="shoal" />
		<tag k="place" v="locality" />
		<tag k="ssr:stedsnr" v="675131" />
	</node>
	<node lat="60.81001110950959" lon="4.945849999277168" id="-74579">
		<tag k="name" v="Vardetangen" />
		<tag k="natural" v="cape" />
		<tag k="ssr:stedsnr" v="469211" />
	</node>
	<node lat="60.81367778038613" lon="5.008791669838769" id="-74581">
		<tag k="name" v="Nordre Dyrøyvågen" />
		<tag k="natural" v="bay" />
		<tag k="ssr:stedsnr" v="469879" />
	</node>
	<node lat="60.814119445638596" lon="4.978991675367974" id="-74583">
		<tag k="name" v="Breineset" />
		<tag k="natural" v="cape" />
		<tag k="ssr:stedsnr" v="469916" />
	</node>
	<node lat="60.804995082812994" lon="4.91771035452774" id="-74584">
		<tag k="name" v="Leirvika" />
		<tag k="natural" v="bay" />
		<tag k="ssr:stedsnr" v="469918" />
	</node>
	<node lat="60.81498611335741" lon="4.891391663631541" id="-74585">
		<tag k="name" v="Bukta" />
		<tag k="natural" v="bay" />
		<tag k="ssr:stedsnr" v="469920" />
	</node>
	<node lat="60.76304722169354" lon="4.851661111201257" id="-74587">
		<tag k="fixme" v="consider seamark:type=rock or natural=shoal" />
		<tag k="name" v="Eimberskjeret" />
		<tag k="place" v="islet" />
		<tag k="ssr:stedsnr" v="469982" />
	</node>
	<node lat="60.8126472244291" lon="4.976405553599656" id="-74588">
		<tag k="name" v="Grønevikane" />
		<tag k="natural" v="bay" />
		<tag k="ssr:stedsnr" v="470909" />
	</node>
	<node lat="60.80719444662622" lon="4.919505553844362" id="-74590">
		<tag k="name" v="Hammarsholmen" />
		<tag k="place" v="islet" />
		<tag k="ssr:stedsnr" v="470915" />
	</node>
	<node lat="60.80535555555772" lon="4.781224994951993" id="-74593">
		<tag k="fixme" v="consider seamark:type=rock or natural=shoal" />
		<tag k="name" v="Klubbeskjeret" />
		<tag k="place" v="islet" />
		<tag k="ssr:stedsnr" v="676077" />
	</node>
	<node lat="60.81220833028051" lon="4.881372222711804" id="-74599">
		<tag k="name" v="Kalvsflua" />
		<tag k="place" v="locality" />
		<tag k="seamark:type" v="rock" />
		<tag k="ssr:stedsnr" v="480567" />
	</node>
	<node lat="60.813877775226636" lon="4.838730554319788" id="-74600">
		<tag k="name" v="Søre Haugklubben" />
		<tag k="place" v="islet" />
		<tag k="ssr:stedsnr" v="480879" />
	</node>
	<node lat="60.76956944525956" lon="4.958955561778538" id="-74602">
		<tag k="name" v="Buneset" />
		<tag k="natural" v="cape" />
		<tag k="ssr:stedsnr" v="493202" />
	</node>
	<node lat="60.77411666883353" lon="4.850286103945561" id="-74608">
		<tag k="alt_name" v="Allersholmen" />
		<tag k="name" v="Halsholmen" />
		<tag k="place" v="islet" />
		<tag k="ssr:stedsnr" v="494220" />
	</node>
	<node lat="60.82304444776408" lon="4.817486111196857" id="-74619">
		<tag k="name" v="Håvika" />
		<tag k="natural" v="bay" />
		<tag k="ssr:stedsnr" v="522786" />
	</node>
	<node lat="60.83054999967179" lon="4.858580563326257" id="-74625">
		<tag k="name" v="Skarveneset" />
		<tag k="natural" v="cape" />
		<tag k="ssr:stedsnr" v="530918" />
	</node>
	<node lat="60.79720833316922" lon="4.861374991937189" id="-74626">
		<tag k="name" v="Båteneset" />
		<tag k="natural" v="cape" />
		<tag k="ssr:stedsnr" v="530922" />
	</node>
	<node lat="60.75939444516243" lon="5.016416660771041" id="-74627">
		<tag k="name" v="Austneset" />
		<tag k="natural" v="cape" />
		<tag k="ssr:stedsnr" v="530925" />
	</node>
	<node lat="60.76279999946488" lon="4.896213893405316" id="-74628">
		<tag k="name" v="Bergsvikvågen" />
		<tag k="natural" v="bay" />
		<tag k="ssr:stedsnr" v="530929" />
	</node>
	<node lat="60.82172020097302" lon="4.770505642270581" id="-74630">
		<tag k="name" v="Nesholmen" />
		<tag k="place" v="islet" />
		<tag k="ssr:stedsnr" v="530824" />
	</node>
	<node lat="60.80971389314214" lon="4.919441669533321" id="-74632">
		<tag k="name" v="Kvalvågstraumen" />
		<tag k="natural" v="strait" />
		<tag k="ssr:stedsnr" v="530887" />
	</node>
	<node lat="60.732350004331295" lon="4.9882027719986475" id="-74635">
		<tag k="name" v="Langetangen" />
		<tag k="natural" v="cape" />
		<tag k="ssr:stedsnr" v="552793" />
	</node>
	<node lat="60.82196944052504" lon="4.805691675115942" id="-74636">
		<tag k="name" v="Gardsendosen" />
		<tag k="natural" v="strait" />
		<tag k="ssr:stedsnr" v="554111" />
	</node>
	<node lat="60.78193055842093" lon="4.950911117265659" id="-74653">
		<tag k="name" v="Lyngneset" />
		<tag k="natural" v="cape" />
		<tag k="ssr:stedsnr" v="590228" />
	</node>
	<node lat="60.80571944603604" lon="4.808261116410915" id="-74655">
		<tag k="fixme" v="consider seamark:type=rock or natural=shoal" />
		<tag k="name" v="Lyngskjeret" />
		<tag k="place" v="islet" />
		<tag k="ssr:stedsnr" v="590919" />
	</node>
	<node lat="60.76948055954214" lon="5.015877780077956" id="-74657">
		<tag k="name" v="Vaulen" />
		<tag k="natural" v="bay" />
		<tag k="ssr:stedsnr" v="590873" />
	</node>
	<node lat="60.814836115249086" lon="4.901669445895507" id="-74661">
		<tag k="name" v="Gudmundsholmen" />
		<tag k="place" v="islet" />
		<tag k="ssr:stedsnr" v="591909" />
	</node>
	<node lat="60.75023333240463" lon="4.966791662471036" id="-74674">
		<tag k="name" v="Skutevika" />
		<tag k="natural" v="bay" />
		<tag k="ssr:stedsnr" v="651245" />
	</node>
	<node lat="60.73947499989922" lon="4.997919439527116" id="-74675">
		<tag k="name" v="Flatholmen" />
		<tag k="place" v="islet" />
		<tag k="ssr:stedsnr" v="651246" />
	</node>
	<node lat="60.8098999983471" lon="4.915625005039676" id="-74677">
		<tag k="name" v="Kylleren" />
		<tag k="natural" v="bay" />
		<tag k="ssr:stedsnr" v="651906" />
	</node>
	<node lat="60.80594722152131" lon="4.819575004980445" id="-74678">
		<tag k="name" v="Høgholmen" />
		<tag k="place" v="islet" />
		<tag k="ssr:stedsnr" v="652000" />
	</node>
	<node lat="60.83302500057774" lon="4.854338892953984" id="-74681">
		<tag k="fixme" v="consider seamark:type=rock or natural=shoal" />
		<tag k="name" v="Svartskjeret" />
		<tag k="place" v="islet" />
		<tag k="ssr:stedsnr" v="675104" />
	</node>
	<node lat="60.835450001363434" lon="4.869405561122225" id="-74682">
		<tag k="name" v="Sætreneset" />
		<tag k="natural" v="cape" />
		<tag k="ssr:stedsnr" v="675109" />
	</node>
	<node lat="60.83426389004391" lon="4.864308329970369" id="-74683">
		<tag k="name" v="Svartskjervågen" />
		<tag k="natural" v="bay" />
		<tag k="ssr:stedsnr" v="675111" />
	</node>
	<node lat="60.80717777472138" lon="4.851300001514266" id="-74686">
		<tag k="alt_name" v="Kalven, s" />
		<tag k="name" v="Søre Kalven" />
		<tag k="place" v="islet" />
		<tag k="ssr:stedsnr" v="676039" />
	</node>
	<node lat="60.80488888534747" lon="4.87223054806991" id="-74687">
		<tag k="fixme" v="consider seamark:type=rock or natural=shoal" />
		<tag k="name" v="Seisnappane" />
		<tag k="place" v="islet" />
		<tag k="ssr:stedsnr" v="676043" />
	</node>
	<node lat="60.813977781860515" lon="4.907375002001827" id="-74694">
		<tag k="name" v="Dankertholmen" />
		<tag k="place" v="islet" />
		<tag k="ssr:stedsnr" v="894234" />
	</node>
	<node lat="60.799952774831205" lon="4.9473999947959095" id="-74695">
		<tag k="name" v="Beglholmen" />
		<tag k="place" v="islet" />
		<tag k="ssr:stedsnr" v="894240" />
	</node>
	<node lat="60.76201111373932" lon="4.98973056324299" id="-74696">
		<tag k="name" v="Skarvholmen" />
		<tag k="place" v="islet" />
		<tag k="ssr:stedsnr" v="894247" />
	</node>
	<node lat="60.77147778104077" lon="4.974266666101211" id="-74697">
		<tag k="name" v="Langholmen" />
		<tag k="place" v="islet" />
		<tag k="ssr:stedsnr" v="894258" />
	</node>
	<node lat="60.82285555501376" lon="4.804066663094873" id="-74703">
		<tag k="name" v="Kumlevågen" />
		<tag k="natural" v="bay" />
		<tag k="ssr:stedsnr" v="894845" />
	</node>
	<node lat="60.810194444186344" lon="4.844469445808259" id="-74705">
		<tag k="name" v="Blåbærholmen" />
		<tag k="place" v="islet" />
		<tag k="ssr:stedsnr" v="894858" />
	</node>
	<node lat="60.79331388685823" lon="4.89818888019094" id="-74706">
		<tag k="name" v="Sjevika" />
		<tag k="natural" v="bay" />
		<tag k="ssr:stedsnr" v="894926" />
	</node>
	<node lat="60.825672219310434" lon="4.80491667558042" id="-74708">
		<tag k="name" v="Risneset" />
		<tag k="natural" v="cape" />
		<tag k="ssr:stedsnr" v="894946" />
	</node>
	<node lat="60.80435277460825" lon="4.837152779089082" id="-74711">
		<tag k="name" v="Purkholmen" />
		<tag k="place" v="islet" />
		<tag k="ssr:stedsnr" v="894994" />
	</node>
	<node lat="60.78984166836711" lon="4.863050008873659" id="-74713">
		<tag k="name" v="Leirpollen" />
		<tag k="natural" v="bay" />
		<tag k="ssr:stedsnr" v="895979" />
	</node>
	<node lat="60.79633611361453" lon="4.9940888855904575" id="-74715">
		<tag k="name" v="Søre Fonnesvågen" />
		<tag k="natural" v="bay" />
		<tag k="ssr:stedsnr" v="895884" />
	</node>
	<node lat="60.784836113426735" lon="4.920061110805865" id="-74720">
		<tag k="name" v="Krabbholmen" />
		<tag k="place" v="islet" />
		<tag k="ssr:stedsnr" v="712200" />
	</node>
	<node lat="60.80486666768729" lon="4.949352769221807" id="-74722">
		<tag k="name" v="Solisholmen" />
		<tag k="place" v="islet" />
		<tag k="ssr:stedsnr" v="723527" />
	</node>
	<node lat="60.82562222252952" lon="4.806763893953248" id="-74724">
		<tag k="name" v="Risnesvågen" />
		<tag k="natural" v="bay" />
		<tag k="ssr:stedsnr" v="723877" />
	</node>
	<node lat="60.8172749959288" lon="4.783277770167622" id="-74737">
		<tag k="name" v="Hestholmen" />
		<tag k="place" v="islet" />
		<tag k="ssr:stedsnr" v="773923" />
	</node>
	<node lat="60.74198055797872" lon="5.01139444611799" id="-74739">
		<tag k="name" v="Neset" />
		<tag k="natural" v="cape" />
		<tag k="ssr:stedsnr" v="773953" />
	</node>
	<node lat="60.79840833702595" lon="4.927541662574985" id="-74742">
		<tag k="name" v="Skolmena" />
		<tag k="place" v="islet" />
		<tag k="ssr:stedsnr" v="783501" />
	</node>
	<node lat="60.81133333551036" lon="4.787708328177788" id="-74743">
		<tag k="name" v="Båteskjernakken" />
		<tag k="place" v="locality" />
		<tag k="seamark:type" v="rock" />
		<tag k="ssr:stedsnr" v="784920" />
	</node>
	<node lat="60.83765278181501" lon="4.898813891499513" id="-74744">
		<tag k="alt_name" v="Islendingen, låge" />
		<tag k="name" v="Låge Islendingen" />
		<tag k="place" v="islet" />
		<tag k="ssr:stedsnr" v="797106" />
	</node>
	<node lat="60.8169722211246" lon="4.903880551736095" id="-74768">
		<tag k="name" v="Rasmusholmane" />
		<tag k="place" v="islet" />
		<tag k="ssr:stedsnr" v="845607" />
	</node>
	<node lat="60.80612222055426" lon="4.870858331974967" id="-74769">
		<tag k="name" v="Seisnappholmen" />
		<tag k="place" v="islet" />
		<tag k="ssr:stedsnr" v="845613" />
	</node>
	<node lat="60.82714444619725" lon="4.7823444428854485" id="-74778">
		<tag k="name" v="Odden" />
		<tag k="natural" v="cape" />
		<tag k="ssr:stedsnr" v="858091" />
	</node>
	<node lat="60.83618333113437" lon="4.841699994227682" id="-74779">
		<tag k="name" v="Svaene" />
		<tag k="natural" v="shoal" />
		<tag k="place" v="locality" />
		<tag k="ssr:stedsnr" v="858095" />
	</node>
	<node lat="60.79751110829215" lon="4.855811105464169" id="-74783">
		<tag k="name" v="Teistholmen" />
		<tag k="place" v="islet" />
		<tag k="ssr:stedsnr" v="858977" />
	</node>
	<node lat="60.789747223443776" lon="4.986811115334555" id="-74790">
		<tag k="name" v="Grønnappen" />
		<tag k="natural" v="cape" />
		<tag k="ssr:stedsnr" v="894925" />
	</node>
	<node lat="60.772877775136635" lon="4.871186111277684" id="-74792">
		<tag k="name" v="Skaget" />
		<tag k="natural" v="cape" />
		<tag k="ssr:stedsnr" v="894972" />
	</node>
	<node lat="60.8062249961722" lon="4.798300005426" id="-74793">
		<tag k="name" v="Nesholmen" />
		<tag k="place" v="islet" />
		<tag k="ssr:stedsnr" v="895822" />
	</node>
	<node lat="60.83056944278086" lon="4.810105560350958" id="-74796">
		<tag k="name" v="Tjørholmsundet" />
		<tag k="natural" v="strait" />
		<tag k="ssr:stedsnr" v="918111" />
	</node>
	<node lat="60.74780000275323" lon="4.984150001167038" id="-74812">
		<tag k="name" v="Rumpa" />
		<tag k="natural" v="cape" />
		<tag k="ssr:stedsnr" v="955228" />
	</node>
	<node lat="60.763291670078814" lon="4.988916672923521" id="-74816">
		<tag k="fixme" v="consider seamark:type=rock or natural=shoal" />
		<tag k="name" v="Grønaskjeret" />
		<tag k="place" v="islet" />
		<tag k="ssr:stedsnr" v="955948" />
	</node>
	<node lat="60.835572904105724" lon="4.890632020090179" id="-74818">
		<tag k="name" v="Robbersundet" />
		<tag k="natural" v="strait" />
		<tag k="ssr:stedsnr" v="966646" />
	</node>
	<node lat="60.795022224597396" lon="4.815536105502619" id="-74819">
		<tag k="name" v="Humresundet" />
		<tag k="natural" v="strait" />
		<tag k="ssr:stedsnr" v="966994" />
	</node>
	<node lat="60.81928332779178" lon="4.772604199683191" id="-74821">
		<tag k="name" v="Sauøyparten" />
		<tag k="natural" v="cape" />
		<tag k="ssr:stedsnr" v="989213" />
	</node>
	<node lat="60.80968333440427" lon="4.811374994232864" id="-74826">
		<tag k="name" v="Skissøyholmen" />
		<tag k="place" v="islet" />
		<tag k="ssr:stedsnr" v="8075" />
	</node>
	<node lat="60.82286667098301" lon="4.897191669584966" id="-74827">
		<tag k="name" v="Gåsholmen" />
		<tag k="place" v="islet" />
		<tag k="ssr:stedsnr" v="8077" />
	</node>
	<node lat="60.758863890026795" lon="4.893625001923068" id="-74833">
		<tag k="name" v="Litleosen" />
		<tag k="natural" v="bay" />
		<tag k="ssr:stedsnr" v="8229" />
	</node>
	<node lat="60.7990111137767" lon="4.799416668141054" id="-74849">
		<tag k="name" v="Gygreholmboen" />
		<tag k="place" v="locality" />
		<tag k="seamark:type" v="rock" />
		<tag k="ssr:stedsnr" v="36884" />
	</node>
	<node lat="60.77282500074374" lon="5.008461116653587" id="-74850">
		<tag k="name" v="Havnen" />
		<tag k="natural" v="bay" />
		<tag k="ssr:stedsnr" v="44232" />
	</node>
	<node lat="60.8028611140753" lon="4.869622221329846" id="-74851">
		<tag k="name" v="Åløypet" />
		<tag k="place" v="islet" />
		<tag k="ssr:stedsnr" v="44212" />
	</node>
	<node lat="60.79329999583194" lon="4.838425005666939" id="-74853">
		<tag k="name" v="Nordre Lauvøyvågen" />
		<tag k="natural" v="bay" />
		<tag k="ssr:stedsnr" v="44838" />
	</node>
	<node lat="60.77977957548776" lon="4.9785502621717885" id="-74854">
		<tag k="name" v="Vågen" />
		<tag k="natural" v="bay" />
		<tag k="ssr:stedsnr" v="44844" />
	</node>
	<node lat="60.759227777078685" lon="5.03288333545704" id="-74856">
		<tag k="name" v="Rotevågen" />
		<tag k="natural" v="bay" />
		<tag k="ssr:stedsnr" v="44867" />
	</node>
	<node lat="60.817647218089746" lon="4.767377777470227" id="-74857">
		<tag k="fixme" v="consider seamark:type=rock or natural=shoal" />
		<tag k="name" v="Sauskjeret" />
		<tag k="place" v="islet" />
		<tag k="ssr:stedsnr" v="44930" />
	</node>
	<node lat="60.74321666523621" lon="4.9365861031530525" id="-74859">
		<tag k="name" v="Kvitaberget" />
		<tag k="natural" v="cape" />
		<tag k="ssr:stedsnr" v="44945" />
	</node>
	<node lat="60.825652779312485" lon="4.907105558370807" id="-74864">
		<tag k="fixme" v="consider seamark:type=rock or natural=shoal" />
		<tag k="name" v="Måseskjeret" />
		<tag k="place" v="islet" />
		<tag k="ssr:stedsnr" v="45894" />
	</node>
	<node lat="60.83321388655532" lon="4.85752500725598" id="-74867">
		<tag k="name" v="Stykket" />
		<tag k="natural" v="cape" />
		<tag k="ssr:stedsnr" v="56599" />
	</node>
	<node lat="60.810691664530914" lon="4.915783328459429" id="-74868">
		<tag k="name" v="Kyllaren" />
		<tag k="natural" v="bay" />
		<tag k="ssr:stedsnr" v="56555" />
	</node>
	<node lat="60.805019444474524" lon="4.912291663532087" id="-74869">
		<tag k="name" v="Kvalvågen" />
		<tag k="natural" v="bay" />
		<tag k="ssr:stedsnr" v="56560" />
	</node>
	<node lat="60.824147221727195" lon="4.713708333774447" id="-74871">
		<tag k="name" v="Midsete" />
		<tag k="natural" v="shoal" />
		<tag k="place" v="locality" />
		<tag k="ssr:stedsnr" v="56839" />
	</node>
	<node lat="60.791502781991156" lon="4.941566667012976" id="-74876">
		<tag k="name" v="Vikaosen" />
		<tag k="natural" v="strait" />
		<tag k="ssr:stedsnr" v="69020" />
	</node>
	<node lat="60.82120833199687" lon="4.822016668824555" id="-74882">
		<tag k="name" v="Krossøysundet" />
		<tag k="natural" v="strait" />
		<tag k="ssr:stedsnr" v="69112" />
	</node>
	<node lat="60.82071944438275" lon="4.864902776966352" id="-74883">
		<tag k="name" v="Børildvågen" />
		<tag k="natural" v="bay" />
		<tag k="ssr:stedsnr" v="69120" />
	</node>
	<node lat="60.76607777987375" lon="4.875311107426227" id="-74886">
		<tag k="name" v="Svartholmen" />
		<tag k="place" v="islet" />
		<tag k="ssr:stedsnr" v="69248" />
	</node>
	<node lat="60.76506388842741" lon="4.988800001639274" id="-74887">
		<tag k="name" v="Notholmen" />
		<tag k="place" v="islet" />
		<tag k="ssr:stedsnr" v="69956" />
	</node>
	<node lat="60.81595868291513" lon="5.002659082676999" id="-74889">
		<tag k="alt_name" v="Båtholmen" />
		<tag k="name" v="Båtevikholmen" />
		<tag k="place" v="islet" />
		<tag k="ssr:stedsnr" v="85139" />
	</node>
	<node lat="60.758233329461135" lon="5.013122228716783" id="-74899">
		<tag k="name" v="Midtneset" />
		<tag k="natural" v="cape" />
		<tag k="ssr:stedsnr" v="105244" />
	</node>
	<node lat="60.77822777351723" lon="4.8511111142311405" id="-74906">
		<tag k="name" v="Skipholmen" />
		<tag k="place" v="islet" />
		<tag k="ssr:stedsnr" v="105839" />
	</node>
	<node lat="60.80766667038156" lon="4.818366663149428" id="-74909">
		<tag k="fixme" v="consider seamark:type=rock or natural=shoal" />
		<tag k="name" v="Keipen" />
		<tag k="place" v="islet" />
		<tag k="ssr:stedsnr" v="105858" />
	</node>
	<node lat="60.808825002540594" lon="4.841011117868849" id="-74910">
		<tag k="name" v="Buskholmen" />
		<tag k="place" v="islet" />
		<tag k="ssr:stedsnr" v="105860" />
	</node>
	<node lat="60.7557472253276" lon="5.0251388871853475" id="-74912">
		<tag k="fixme" v="consider seamark:type=rock or natural=shoal" />
		<tag k="name" v="Gulenakken" />
		<tag k="place" v="islet" />
		<tag k="ssr:stedsnr" v="105944" />
	</node>
	<node lat="60.762780555622435" lon="4.984355557078642" id="-74914">
		<tag k="name" v="Ilnesvika" />
		<tag k="natural" v="bay" />
		<tag k="ssr:stedsnr" v="105953" />
	</node>
	<node lat="60.78049663801992" lon="4.86371590438223" id="-74916">
		<tag k="name" v="Straumsneset" />
		<tag k="natural" v="cape" />
		<tag k="ssr:stedsnr" v="106984" />
	</node>
	<node lat="60.790816665324655" lon="4.833797226798175" id="-74933">
		<tag k="name" v="Skjelsundet" />
		<tag k="natural" v="strait" />
		<tag k="ssr:stedsnr" v="130043" />
	</node>
	<node lat="60.81081944746157" lon="4.9569972226329995" id="-74937">
		<tag k="alt_name" v="Hageholmen" />
		<tag k="name" v="Høgholmen" />
		<tag k="place" v="islet" />
		<tag k="ssr:stedsnr" v="146780" />
	</node>
	<node lat="60.751944448805034" lon="4.983630559369737" id="-74941">
		<tag k="name" v="Klubbevika" />
		<tag k="natural" v="bay" />
		<tag k="ssr:stedsnr" v="166257" />
	</node>
	<node lat="60.770433334233324" lon="4.970519444246526" id="-74944">
		<tag k="name" v="Mariusholmen" />
		<tag k="place" v="islet" />
		<tag k="ssr:stedsnr" v="166244" />
	</node>
	<node lat="60.79328055257162" lon="4.965477784553746" id="-74945">
		<tag k="name" v="Olsneset" />
		<tag k="natural" v="cape" />
		<tag k="ssr:stedsnr" v="166247" />
	</node>
	<node lat="60.79721389228372" lon="4.939549990856652" id="-74946">
		<tag k="name" v="Kylleren" />
		<tag k="natural" v="bay" />
		<tag k="ssr:stedsnr" v="166884" />
	</node>
	<node lat="60.81128055214164" lon="4.806624998740853" id="-74950">
		<tag k="name" v="Kalvholmen" />
		<tag k="place" v="islet" />
		<tag k="ssr:stedsnr" v="166996" />
	</node>
	<node lat="60.816019369764994" lon="4.7881983555906125" id="-74954">
		<tag k="fixme" v="consider seamark:type=rock or natural=shoal" />
		<tag k="name" v="Knivskjeret" />
		<tag k="place" v="islet" />
		<tag k="ssr:stedsnr" v="175001" />
	</node>
	<node lat="60.81289444329704" lon="4.801933342103303" id="-74955">
		<tag k="name" v="Eikholmsundet" />
		<tag k="natural" v="strait" />
		<tag k="ssr:stedsnr" v="177893" />
	</node>
	<node lat="60.81731843565484" lon="4.792240607212081" id="-74960">
		<tag k="name" v="Rongeværosen" />
		<tag k="natural" v="strait" />
		<tag k="ssr:stedsnr" v="190133" />
	</node>
	<node lat="60.76560277731405" lon="4.891455552866221" id="-74968">
		<tag k="name" v="Lerøysundet" />
		<tag k="natural" v="strait" />
		<tag k="ssr:stedsnr" v="190245" />
	</node>
	<node lat="60.7939583311598" lon="4.860499998465011" id="-74970">
		<tag k="name" v="Kalveneset" />
		<tag k="natural" v="cape" />
		<tag k="ssr:stedsnr" v="191038" />
	</node>
	<node lat="60.80713333479863" lon="4.972844440870745" id="-74984">
		<tag k="name" v="Træsvika" />
		<tag k="natural" v="bay" />
		<tag k="ssr:stedsnr" v="219662" />
	</node>
	<node lat="60.80376666231541" lon="4.939799991563951" id="-74985">
		<tag k="name" v="Trollholmflua" />
		<tag k="natural" v="shoal" />
		<tag k="place" v="locality" />
		<tag k="ssr:stedsnr" v="219758" />
	</node>
	<node lat="60.78793610780226" lon="4.917941675490464" id="-74986">
		<tag k="name" v="Galten" />
		<tag k="natural" v="cape" />
		<tag k="ssr:stedsnr" v="226250" />
	</node>
	<node lat="60.826769440198504" lon="4.91111944904999" id="-74989">
		<tag k="name" v="Stongebøen" />
		<tag k="natural" v="bay" />
		<tag k="ssr:stedsnr" v="226950" />
	</node>
	<node lat="60.73306944770755" lon="4.975336109757386" id="-74990">
		<tag k="name" v="Skarpeneset" />
		<tag k="natural" v="cape" />
		<tag k="ssr:stedsnr" v="227857" />
	</node>
	<node lat="60.811760133164604" lon="4.974766057263695" id="-74994">
		<tag k="name" v="Rasmustangen" />
		<tag k="natural" v="cape" />
		<tag k="ssr:stedsnr" v="227879" />
	</node>
	<node lat="60.80975000082048" lon="4.8040277765699315" id="-74996">
		<tag k="name" v="Hønsevågen" />
		<tag k="natural" v="bay" />
		<tag k="ssr:stedsnr" v="227978" />
	</node>
	<node lat="60.80600277373904" lon="4.823688882529401" id="-74997">
		<tag k="name" v="Grønholmen" />
		<tag k="place" v="islet" />
		<tag k="ssr:stedsnr" v="227999" />
	</node>
	<node lat="60.82644721851546" lon="4.898416664651287" id="-75000">
		<tag k="name" v="Kahrsholmane" />
		<tag k="place" v="islet" />
		<tag k="ssr:stedsnr" v="287219" />
	</node>
	<node lat="60.83577222445497" lon="4.890941665699845" id="-75001">
		<tag k="name" v="Hammarsholmen" />
		<tag k="place" v="islet" />
		<tag k="ssr:stedsnr" v="287222" />
	</node>
	<node lat="60.76717777430031" lon="4.904058337450509" id="-75005">
		<tag k="name" v="Neset" />
		<tag k="natural" v="cape" />
		<tag k="ssr:stedsnr" v="287855" />
	</node>
	<node lat="60.78872777851429" lon="4.908225008642322" id="-75011">
		<tag k="name" v="Blodvika" />
		<tag k="natural" v="bay" />
		<tag k="ssr:stedsnr" v="287918" />
	</node>
	<node lat="60.7894555518293" lon="4.836119446080366" id="-75014">
		<tag k="name" v="Klauvholmen" />
		<tag k="place" v="islet" />
		<tag k="ssr:stedsnr" v="288987" />
	</node>
	<node lat="60.73848611157529" lon="4.988188886385902" id="-75016">
		<tag k="name" v="Naustnestangen" />
		<tag k="natural" v="cape" />
		<tag k="ssr:stedsnr" v="288864" />
	</node>
	<node lat="60.832269448747816" lon="4.841769437496343" id="-75017">
		<tag k="name" v="Tareskallen" />
		<tag k="natural" v="shoal" />
		<tag k="place" v="locality" />
		<tag k="ssr:stedsnr" v="298564" />
	</node>
	<node lat="60.74040555399951" lon="4.9913972271690525" id="-75043">
		<tag k="name" v="Steinholmane" />
		<tag k="place" v="islet" />
		<tag k="ssr:stedsnr" v="348230" />
	</node>
	<node lat="60.818286112250185" lon="4.783986107779509" id="-75044">
		<tag k="name" v="Kalvetrætåna" />
		<tag k="natural" v="cape" />
		<tag k="ssr:stedsnr" v="347949" />
	</node>
	<node lat="60.80554444916681" lon="4.831619452441001" id="-75045">
		<tag k="name" v="Langøysundet" />
		<tag k="natural" v="strait" />
		<tag k="ssr:stedsnr" v="348813" />
	</node>
	<node lat="60.76870555480673" lon="4.907399994535418" id="-75046">
		<tag k="name" v="Finnsvågen" />
		<tag k="natural" v="bay" />
		<tag k="ssr:stedsnr" v="348829" />
	</node>
	<node lat="60.76621666401618" lon="4.973011116662595" id="-75047">
		<tag k="name" v="Ilnesvågen" />
		<tag k="natural" v="bay" />
		<tag k="ssr:stedsnr" v="348833" />
	</node>
	<node lat="60.743802781829" lon="5.002600005704076" id="-75051">
		<tag k="name" v="Otrevika" />
		<tag k="natural" v="bay" />
		<tag k="ssr:stedsnr" v="348944" />
	</node>
	<node lat="60.80370000264857" lon="4.8095083393109554" id="-75057">
		<tag k="name" v="Sævrøysundet" />
		<tag k="natural" v="strait" />
		<tag k="ssr:stedsnr" v="372051" />
	</node>
	<node lat="60.7905555597692" lon="4.83881388195182" id="-75059">
		<tag k="name" v="Lauvøystraumen" />
		<tag k="natural" v="strait" />
		<tag k="ssr:stedsnr" v="373041" />
	</node>
	<node lat="60.84048333502589" lon="4.776161103041815" id="-75061">
		<tag k="name" v="Gudmundsskallen" />
		<tag k="natural" v="shoal" />
		<tag k="place" v="locality" />
		<tag k="ssr:stedsnr" v="373086" />
	</node>
	<node lat="60.834263886228925" lon="4.762600007466378" id="-75062">
		<tag k="name" v="Rongeværskallen" />
		<tag k="natural" v="shoal" />
		<tag k="place" v="locality" />
		<tag k="ssr:stedsnr" v="373377" />
	</node>
	<node lat="60.84926944692317" lon="4.7227055579642085" id="-75068">
		<tag k="name" v="Kråkeflua" />
		<tag k="natural" v="shoal" />
		<tag k="place" v="locality" />
		<tag k="ssr:stedsnr" v="389265" />
	</node>
	<node lat="60.817538890154175" lon="4.905116663376777" id="-75070">
		<tag k="name" v="Nordre Rasmusholmen" />
		<tag k="place" v="islet" />
		<tag k="ssr:stedsnr" v="391610" />
	</node>
	<node lat="60.76535833554358" lon="4.984211115429267" id="-75071">
		<tag k="fixme" v="consider seamark:type=rock or natural=shoal" />
		<tag k="name" v="Fella" />
		<tag k="place" v="islet" />
		<tag k="ssr:stedsnr" v="408222" />
	</node>
	<node lat="60.74117221859033" lon="5.0172333379459255" id="-75073">
		<tag k="name" v="Støvlefluholmen" />
		<tag k="place" v="islet" />
		<tag k="ssr:stedsnr" v="408228" />
	</node>
	<node lat="60.761538886272504" lon="5.015494447950231" id="-75074">
		<tag k="name" v="Åløypet" />
		<tag k="place" v="islet" />
		<tag k="ssr:stedsnr" v="408229" />
	</node>
	<node lat="60.82510555570344" lon="4.9039027777892175" id="-75076">
		<tag k="name" v="Små Krabbholmen" />
		<tag k="place" v="islet" />
		<tag k="ssr:stedsnr" v="408951" />
	</node>
	<node lat="60.761527780422924" lon="4.880705549364723" id="-75078">
		<tag k="name" v="Vaulen" />
		<tag k="natural" v="bay" />
		<tag k="ssr:stedsnr" v="408978" />
	</node>
	<node lat="60.81998333630425" lon="4.891305548303114" id="-75079">
		<tag k="fixme" v="consider seamark:type=rock or natural=shoal" />
		<tag k="name" v="Dyneskjera" />
		<tag k="place" v="islet" />
		<tag k="ssr:stedsnr" v="409225" />
	</node>
	<node lat="60.743499998265015" lon="5.01288611811914" id="-75082">
		<tag k="name" v="Alskogvika" />
		<tag k="natural" v="bay" />
		<tag k="ssr:stedsnr" v="409955" />
	</node>
	<node lat="60.75988332994118" lon="5.034152784298604" id="-75083">
		<tag k="fixme" v="consider seamark:type=rock or natural=shoal" />
		<tag k="name" v="Klungreskjeret" />
		<tag k="place" v="islet" />
		<tag k="ssr:stedsnr" v="409956" />
	</node>
	<node lat="60.746241663036685" lon="4.998150004016337" id="-75085">
		<tag k="name" v="Naustneset" />
		<tag k="natural" v="cape" />
		<tag k="ssr:stedsnr" v="431801" />
	</node>
	<node lat="60.80107221958794" lon="4.864202777117573" id="-75087">
		<tag k="name" v="Øksnesvågen" />
		<tag k="natural" v="bay" />
		<tag k="ssr:stedsnr" v="433046" />
	</node>
	<node lat="60.815783336768455" lon="4.783441673041877" id="-75091">
		<tag k="fixme" v="consider seamark:type=rock or natural=shoal" />
		<tag k="name" v="Høgholmen" />
		<tag k="place" v="islet" />
		<tag k="ssr:stedsnr" v="433073" />
	</node>
	<node lat="60.78493611488597" lon="4.948538889152797" id="-75096">
		<tag k="name" v="Geitholmen" />
		<tag k="place" v="islet" />
		<tag k="ssr:stedsnr" v="433223" />
	</node>
	<node lat="60.78847499695298" lon="4.856738890367268" id="-75098">
		<tag k="name" v="Bøneset" />
		<tag k="natural" v="cape" />
		<tag k="ssr:stedsnr" v="433981" />
	</node>
	<node lat="60.84140277504945" lon="4.867769438736116" id="-75100">
		<tag k="name" v="Beinsskallen" />
		<tag k="natural" v="shoal" />
		<tag k="place" v="locality" />
		<tag k="ssr:stedsnr" v="434345" />
	</node>
	<node lat="60.792633332598555" lon="4.781833331737482" id="-75109">
		<tag k="name" v="Tverrflua" />
		<tag k="natural" v="shoal" />
		<tag k="place" v="locality" />
		<tag k="ssr:stedsnr" v="521856" />
	</node>
	<node lat="60.81133055925492" lon="4.974038887054852" id="-75112">
		<tag k="fixme" v="consider seamark:type=rock or natural=shoal" />
		<tag k="name" v="Måseklubben" />
		<tag k="place" v="islet" />
		<tag k="ssr:stedsnr" v="530247" />
	</node>
	<node lat="60.810022221222226" lon="4.957555549199334" id="-75113">
		<tag k="name" v="Grunnholmen" />
		<tag k="place" v="islet" />
		<tag k="ssr:stedsnr" v="530257" />
	</node>
	<node lat="60.772805559193934" lon="5.010944452474445" id="-75114">
		<tag k="fixme" v="consider seamark:type=rock or natural=shoal" />
		<tag k="name" v="Flateskjeret" />
		<tag k="place" v="islet" />
		<tag k="ssr:stedsnr" v="530268" />
	</node>
	<node lat="60.79240277705011" lon="4.858255554441484" id="-75115">
		<tag k="name" v="Kattegat" />
		<tag k="natural" v="strait" />
		<tag k="ssr:stedsnr" v="530840" />
	</node>
	<node lat="60.76573055683791" lon="4.880991664583497" id="-75118">
		<tag k="name" v="Grønholmen" />
		<tag k="place" v="islet" />
		<tag k="ssr:stedsnr" v="530845" />
	</node>
	<node lat="60.74671111529677" lon="4.991930547717434" id="-75121">
		<tag k="name" v="Naustneset" />
		<tag k="natural" v="cape" />
		<tag k="ssr:stedsnr" v="530854" />
	</node>
	<node lat="60.78958610749443" lon="4.98390277762359" id="-75124">
		<tag k="name" v="Rotevågen" />
		<tag k="natural" v="bay" />
		<tag k="ssr:stedsnr" v="530863" />
	</node>
	<node lat="60.83243610642359" lon="4.858194436590709" id="-75128">
		<tag k="name" v="Stykkevågen" />
		<tag k="natural" v="bay" />
		<tag k="ssr:stedsnr" v="541600" />
	</node>
	<node lat="60.83706388940667" lon="4.711475005197" id="-75129">
		<tag k="name" v="Bøskallen" />
		<tag k="natural" v="shoal" />
		<tag k="place" v="locality" />
		<tag k="ssr:stedsnr" v="553752" />
	</node>
	<node lat="60.8359694446656" lon="4.893466664102315" id="-75133">
		<tag k="name" v="Skillingsholmane" />
		<tag k="place" v="islet" />
		<tag k="ssr:stedsnr" v="554098" />
	</node>
	<node lat="60.76372777709666" lon="4.895702775165226" id="-75135">
		<tag k="name" v="Kråka" />
		<tag k="place" v="islet" />
		<tag k="ssr:stedsnr" v="554215" />
	</node>
	<node lat="60.794224999339335" lon="4.805247230106856" id="-75136">
		<tag k="name" v="Ivarsskjeret" />
		<tag k="place" v="islet" />
		<tag k="ssr:stedsnr" v="554053" />
	</node>
	<node lat="60.83516666630706" lon="4.807036117369641" id="-75139">
		<tag k="name" v="Tjørholmrumpa" />
		<tag k="natural" v="shoal" />
		<tag k="place" v="locality" />
		<tag k="ssr:stedsnr" v="554401" />
	</node>
	<node lat="60.809897226616236" lon="4.974844446496336" id="-75152">
		<tag k="name" v="Hamaltangen" />
		<tag k="natural" v="cape" />
		<tag k="ssr:stedsnr" v="591891" />
	</node>
	<node lat="60.80788055379697" lon="4.809672229150047" id="-75155">
		<tag k="name" v="Baløykalven" />
		<tag k="place" v="island" />
		<tag k="ssr:stedsnr" v="591994" />
	</node>
	<node lat="60.77287500168362" lon="4.965083327317819" id="-75159">
		<tag k="name" v="Hansholmen" />
		<tag k="place" v="islet" />
		<tag k="ssr:stedsnr" v="614197" />
	</node>
	<node lat="60.81597560771758" lon="4.788220298085559" id="-75175">
		<tag k="fixme" v="consider seamark:type=rock or natural=shoal" />
		<tag k="name" v="Kniveskjeret" />
		<tag k="place" v="islet" />
		<tag k="ssr:stedsnr" v="650927" />
	</node>
	<node lat="60.801744444010275" lon="4.952616675460398" id="-75177">
		<tag k="fixme" v="consider seamark:type=rock or natural=shoal" />
		<tag k="name" v="Nordre Ervikskjera" />
		<tag k="place" v="islet" />
		<tag k="ssr:stedsnr" v="651228" />
	</node>
	<node lat="60.74251666758556" lon="4.939352784617267" id="-75178">
		<tag k="fixme" v="consider seamark:type=rock or natural=shoal" />
		<tag k="name" v="Sygneskjeret" />
		<tag k="place" v="islet" />
		<tag k="ssr:stedsnr" v="651255" />
	</node>
	<node lat="60.81025277839403" lon="4.90409722773123" id="-75181">
		<tag k="name" v="Ryggjeneset" />
		<tag k="natural" v="cape" />
		<tag k="ssr:stedsnr" v="651923" />
	</node>
	<node lat="60.74750278152139" lon="4.924594449245528" id="-75182">
		<tag k="name" v="Tjuvvika" />
		<tag k="natural" v="bay" />
		<tag k="ssr:stedsnr" v="651959" />
	</node>
	<node lat="60.82317222631334" lon="4.77767500112815" id="-75186">
		<tag k="name" v="Kusundet" />
		<tag k="natural" v="strait" />
		<tag k="ssr:stedsnr" v="651826" />
	</node>
	<node lat="60.83060555237157" lon="4.866919453291063" id="-75187">
		<tag k="name" v="Kluftholmen" />
		<tag k="place" v="islet" />
		<tag k="ssr:stedsnr" v="651827" />
	</node>
	<node lat="60.76672221999894" lon="4.9004666646777775" id="-75188">
		<tag k="name" v="Austre Purkholmen" />
		<tag k="place" v="islet" />
		<tag k="ssr:stedsnr" v="651973" />
	</node>
	<node lat="60.79116666226626" lon="4.851502771138453" id="-75189">
		<tag k="name" v="Skagen" />
		<tag k="place" v="island" />
		<tag k="ssr:stedsnr" v="651983" />
	</node>
	<node lat="60.83384444769182" lon="4.8516944431759965" id="-75190">
		<tag k="name" v="Svartskjerfluene" />
		<tag k="natural" v="shoal" />
		<tag k="place" v="locality" />
		<tag k="ssr:stedsnr" v="662594" />
	</node>
	<node lat="60.82068889295391" lon="4.886947217669661" id="-75191">
		<tag k="name" v="Dynekyllaren" />
		<tag k="natural" v="bay" />
		<tag k="ssr:stedsnr" v="662650" />
	</node>
	<node lat="60.81218888517451" lon="4.9613833337449424" id="-75195">
		<tag k="name" v="Krossnesholmen" />
		<tag k="place" v="islet" />
		<tag k="ssr:stedsnr" v="712891" />
	</node>
	<node lat="60.816038886495384" lon="4.984102776576036" id="-75196">
		<tag k="name" v="Juvika" />
		<tag k="natural" v="bay" />
		<tag k="ssr:stedsnr" v="712910" />
	</node>
	<node lat="60.75457777688405" lon="4.903391663819286" id="-75200">
		<tag k="name" v="Brøkneset" />
		<tag k="natural" v="cape" />
		<tag k="ssr:stedsnr" v="712859" />
	</node>
	<node lat="60.761502779621736" lon="4.894566663886892" id="-75201">
		<tag k="name" v="Buholmen" />
		<tag k="place" v="islet" />
		<tag k="ssr:stedsnr" v="712982" />
	</node>
	<node lat="60.787158336655004" lon="4.843119452547816" id="-75202">
		<tag k="name" v="Tingsholmen" />
		<tag k="place" v="islet" />
		<tag k="ssr:stedsnr" v="712985" />
	</node>
	<node lat="60.810405555956535" lon="4.8017222163368025" id="-75203">
		<tag k="name" v="Trollholmen" />
		<tag k="place" v="islet" />
		<tag k="ssr:stedsnr" v="712994" />
	</node>
	<node lat="60.80623055622862" lon="4.796080557954239" id="-75204">
		<tag k="name" v="Fyrsundet" />
		<tag k="natural" v="strait" />
		<tag k="ssr:stedsnr" v="712820" />
	</node>
	<node lat="60.76290277521887" lon="4.863174997553183" id="-75205">
		<tag k="name" v="Vardholmen" />
		<tag k="place" v="islet" />
		<tag k="ssr:stedsnr" v="712953" />
	</node>
	<node lat="60.81287222326264" lon="4.892716662059049" id="-75207">
		<tag k="name" v="Austnesfluene" />
		<tag k="natural" v="shoal" />
		<tag k="place" v="locality" />
		<tag k="ssr:stedsnr" v="723559" />
	</node>
	<node lat="60.81485555688358" lon="4.876627778299957" id="-75216">
		<tag k="name" v="Jarnneset" />
		<tag k="natural" v="cape" />
		<tag k="ssr:stedsnr" v="736092" />
	</node>
	<node lat="60.76758611571079" lon="4.896350002955636" id="-75218">
		<tag k="name" v="Austrheimsvågen" />
		<tag k="natural" v="bay" />
		<tag k="ssr:stedsnr" v="736259" />
	</node>
	<node lat="60.802619447386945" lon="4.8620111075194945" id="-75220">
		<tag k="name" v="Horsøyna" />
		<tag k="place" v="islet" />
		<tag k="ssr:stedsnr" v="736980" />
	</node>
	<node lat="60.77408333399829" lon="4.950299997966092" id="-75221">
		<tag k="name" v="Vaulen" />
		<tag k="natural" v="bay" />
		<tag k="ssr:stedsnr" v="736984" />
	</node>
	<node lat="60.80130278123502" lon="4.95609444902406" id="-75234">
		<tag k="name" v="Ervikholmen" />
		<tag k="place" v="islet" />
		<tag k="ssr:stedsnr" v="753849" />
	</node>
	<node lat="60.765316667423576" lon="4.883980560909878" id="-75241">
		<tag k="name" v="Småholmen" />
		<tag k="place" v="islet" />
		<tag k="ssr:stedsnr" v="772959" />
	</node>
	<node lat="60.83007778231561" lon="4.804575007739388" id="-75242">
		<tag k="name" v="Gavlen" />
		<tag k="natural" v="cape" />
		<tag k="ssr:stedsnr" v="772830" />
	</node>
	<node lat="60.82954722201746" lon="4.8566638845547825" id="-75247">
		<tag k="name" v="Torvneset" />
		<tag k="natural" v="cape" />
		<tag k="ssr:stedsnr" v="773931" />
	</node>
	<node lat="60.79168611093165" lon="4.834252773333387" id="-75248">
		<tag k="name" v="Nordre Lauvøyholmen" />
		<tag k="place" v="islet" />
		<tag k="ssr:stedsnr" v="773976" />
	</node>
	<node lat="60.8029027812022" lon="4.833119452001621" id="-75251">
		<tag k="name" v="Bjørnøysundet" />
		<tag k="natural" v="strait" />
		<tag k="ssr:stedsnr" v="773987" />
	</node>
	<node lat="60.80185278052735" lon="4.878125000763148" id="-75255">
		<tag k="fixme" v="consider seamark:type=rock or natural=shoal" />
		<tag k="name" v="Seisnappen" />
		<tag k="place" v="islet" />
		<tag k="ssr:stedsnr" v="797038" />
	</node>
	<node lat="60.758383336533605" lon="5.015391669286036" id="-75266">
		<tag k="name" v="Grunnevågen" />
		<tag k="natural" v="bay" />
		<tag k="ssr:stedsnr" v="833899" />
	</node>
	<node lat="60.81843333709762" lon="4.780936118276616" id="-75267">
		<tag k="name" v="Sjøbuosen" />
		<tag k="natural" v="strait" />
		<tag k="ssr:stedsnr" v="833957" />
	</node>
	<node lat="60.80075277865975" lon="4.938500002372295" id="-75268">
		<tag k="fixme" v="consider seamark:type=rock or natural=shoal" />
		<tag k="name" v="Trollholmskjeret" />
		<tag k="place" v="islet" />
		<tag k="ssr:stedsnr" v="834229" />
	</node>
	<node lat="60.742452780212496" lon="5.007849998977702" id="-75269">
		<tag k="name" v="Grønåsvika" />
		<tag k="natural" v="bay" />
		<tag k="ssr:stedsnr" v="834232" />
	</node>
	<node lat="60.765952779232634" lon="4.901186103844966" id="-75270">
		<tag k="name" v="Vestre Purkholmen" />
		<tag k="place" v="islet" />
		<tag k="ssr:stedsnr" v="834257" />
	</node>
	<node lat="60.81460277644959" lon="4.896547218158225" id="-75271">
		<tag k="name" v="Austretangen" />
		<tag k="natural" v="cape" />
		<tag k="ssr:stedsnr" v="834888" />
	</node>
	<node lat="60.75821666870281" lon="5.008813891157329" id="-75274">
		<tag k="name" v="Breivika" />
		<tag k="natural" v="bay" />
		<tag k="ssr:stedsnr" v="834933" />
	</node>
	<node lat="60.76311111451617" lon="5.025422218082997" id="-75278">
		<tag k="name" v="Breivika" />
		<tag k="natural" v="bay" />
		<tag k="ssr:stedsnr" v="834953" />
	</node>
	<node lat="60.817500001787515" lon="4.779152779744581" id="-75280">
		<tag k="name" v="Bukkholmen" />
		<tag k="place" v="islet" />
		<tag k="ssr:stedsnr" v="834926" />
	</node>
	<node lat="60.79331944406699" lon="4.831591664766032" id="-75282">
		<tag k="name" v="Porsneset" />
		<tag k="natural" v="cape" />
		<tag k="ssr:stedsnr" v="834999" />
	</node>
	<node lat="60.80099722292426" lon="4.904488897341657" id="-75284">
		<tag k="fixme" v="consider seamark:type=rock or natural=shoal" />
		<tag k="name" v="Tangane" />
		<tag k="place" v="islet" />
		<tag k="ssr:stedsnr" v="845554" />
	</node>
	<node lat="60.83371388835356" lon="4.881177770730177" id="-75285">
		<tag k="name" v="Beinsholmen" />
		<tag k="place" v="islet" />
		<tag k="ssr:stedsnr" v="858100" />
	</node>
	<node lat="60.827688891588345" lon="4.793527771740867" id="-75298">
		<tag k="name" v="Steinsøyflua" />
		<tag k="natural" v="shoal" />
		<tag k="place" v="locality" />
		<tag k="ssr:stedsnr" v="875280" />
	</node>
	<node lat="60.80321666625433" lon="4.806966671314627" id="-75311">
		<tag k="name" v="Sundflua" />
		<tag k="natural" v="shoal" />
		<tag k="place" v="locality" />
		<tag k="ssr:stedsnr" v="946764" />
	</node>
	<node lat="60.79530277621022" lon="4.789811119501102" id="-75312">
		<tag k="name" v="Lyngokseboen" />
		<tag k="place" v="locality" />
		<tag k="seamark:type" v="rock" />
		<tag k="ssr:stedsnr" v="946843" />
	</node>
	<node lat="60.78527222404283" lon="4.81265833626157" id="-75313">
		<tag k="name" v="Nordre Myrbærholmen" />
		<tag k="place" v="islet" />
		<tag k="ssr:stedsnr" v="954927" />
	</node>
	<node lat="60.81242777504984" lon="4.804125002619707" id="-75314">
		<tag k="name" v="Husøyna" />
		<tag k="place" v="island" />
		<tag k="ssr:stedsnr" v="955993" />
	</node>
	<node lat="60.81817423424332" lon="4.804794680749056" id="-75315">
		<tag k="name" v="Indre Kastholmen" />
		<tag k="place" v="islet" />
		<tag k="ssr:stedsnr" v="955831" />
	</node>
	<node lat="60.82054166524516" lon="4.778350001077987" id="-75316">
		<tag k="name" v="Kastevågen" />
		<tag k="natural" v="bay" />
		<tag k="ssr:stedsnr" v="955837" />
	</node>
	<node lat="60.82383611092089" lon="4.860497219255935" id="-75317">
		<tag k="name" v="Sengeneset" />
		<tag k="natural" v="cape" />
		<tag k="ssr:stedsnr" v="955840" />
	</node>
	<node lat="60.816027778311536" lon="4.800491667715866" id="-75318">
		<tag k="name" v="Kastholmsundet" />
		<tag k="natural" v="strait" />
		<tag k="ssr:stedsnr" v="955842" />
	</node>
	<node lat="60.79961110765803" lon="4.855524997815964" id="-75319">
		<tag k="name" v="Skarholmen" />
		<tag k="place" v="islet" />
		<tag k="ssr:stedsnr" v="955855" />
	</node>
	<node lat="60.79947221789042" lon="4.945052776295324" id="-75322">
		<tag k="name" v="Bøneset" />
		<tag k="natural" v="cape" />
		<tag k="ssr:stedsnr" v="955902" />
	</node>
	<node lat="60.80505277786407" lon="4.948336113241806" id="-75323">
		<tag k="name" v="Solisholmbukta" />
		<tag k="natural" v="bay" />
		<tag k="ssr:stedsnr" v="955907" />
	</node>
	<node lat="60.82019721884778" lon="4.769230546813206" id="-75324">
		<tag k="name" v="Vardholmen" />
		<tag k="place" v="islet" />
		<tag k="ssr:stedsnr" v="955928" />
	</node>
	<node lat="60.800224998999354" lon="4.956122224186713" id="-75328">
		<tag k="name" v="Ervikskjera" />
		<tag k="place" v="islet" />
		<tag k="ssr:stedsnr" v="966565" />
	</node>
	<node lat="60.83188055392698" lon="4.780416665986759" id="-75329">
		<tag k="name" v="Røvelskjerskallen" />
		<tag k="natural" v="shoal" />
		<tag k="place" v="locality" />
		<tag k="ssr:stedsnr" v="966855" />
	</node>
	<node lat="60.829788887354866" lon="4.780213883537706" id="-75330">
		<tag k="name" v="Røvelskjerflua" />
		<tag k="natural" v="shoal" />
		<tag k="place" v="locality" />
		<tag k="ssr:stedsnr" v="966856" />
	</node>
	<node lat="60.78932487338235" lon="4.857186701678315" id="-75405">
		<tag k="name" v="Bønesvika" />
		<tag k="natural" v="bay" />
		<tag k="ssr:stedsnr" v="1072113" />
	</node>
	<node lat="60.81358713526088" lon="4.7915949410072525" id="-75406">
		<tag k="name" v="Rongeværleia" />
		<tag k="natural" v="strait" />
		<tag k="ssr:stedsnr" v="1072114" />
	</node>
	<node lat="60.804769507809176" lon="4.796725441640382" id="-75407">
		<tag k="name" v="Brattholmflua" />
		<tag k="natural" v="shoal" />
		<tag k="place" v="locality" />
		<tag k="ssr:stedsnr" v="1072116" />
	</node>
	<node lat="60.81010390240417" lon="4.968386949669391" id="-75410">
		<tag k="name" v="Gylnakken" />
		<tag k="natural" v="cape" />
		<tag k="ssr:stedsnr" v="1072191" />
	</node>
	<node lat="60.80743355419428" lon="4.977475780190273" id="-75411">
		<tag k="name" v="Kolevika" />
		<tag k="natural" v="bay" />
		<tag k="ssr:stedsnr" v="1072192" />
	</node>
</osm>
