<?xml version="1.0" encoding="UTF-8"?>
<osm version="0.6" generator="osmapis">
	<node lat="60.74834999748579" lon="4.9524499946934615" id="-74422">
		<tag k="name" v="Storemyra" />
		<tag k="natural" v="wetland" />
		<tag k="ssr:stedsnr" v="166961" />
	</node>
	<node lat="60.795991664939216" lon="4.972283334274568" id="-74544">
		<tag k="name" v="Vadmyra" />
		<tag k="natural" v="wetland" />
		<tag k="ssr:stedsnr" v="408939" />
	</node>
	<node lat="60.79217778010393" lon="4.876627773431888" id="-74620">
		<tag k="name" v="Krossmyra" />
		<tag k="natural" v="wetland" />
		<tag k="ssr:stedsnr" v="529945" />
	</node>
	<node lat="60.80869166605502" lon="4.929997221475524" id="-74633">
		<tag k="name" v="Ulvøysteinen" />
		<tag k="natural" v="stone" />
		<tag k="ssr:stedsnr" v="530889" />
	</node>
	<node lat="60.753147218485786" lon="4.963894438345771" id="-74791">
		<tag k="name" v="Kannedalsmyra" />
		<tag k="natural" v="wetland" />
		<tag k="ssr:stedsnr" v="894967" />
	</node>
	<node lat="60.77881389149709" lon="4.872363884769887" id="-74861">
		<tag k="name" v="Grønåsmyra" />
		<tag k="natural" v="wetland" />
		<tag k="ssr:stedsnr" v="44964" />
	</node>
	<node lat="60.73786110755445" lon="4.956291674707113" id="-75184">
		<tag k="name" v="Herslaupsmyrane" />
		<tag k="natural" v="wetland" />
		<tag k="ssr:stedsnr" v="651876" />
	</node>
	<node lat="60.796150002390874" lon="5.039808337165139" id="-75193">
		<tag k="name" v="Austremyrane" />
		<tag k="natural" v="wetland" />
		<tag k="ssr:stedsnr" v="712885" />
	</node>
	<node lat="60.76423333273506" lon="4.926108339531619" id="-75276">
		<tag k="name" v="Skulehusmyra" />
		<tag k="natural" v="wetland" />
		<tag k="ssr:stedsnr" v="834942" />
	</node>
</osm>
