<?xml version="1.0" encoding="UTF-8"?>
<osm generator="osmapis" version="0.6">
	<node id="-645120" lat="60.8049961291" lon="4.92087986144">
		<tag k="fixme" v="consider place=hamlet" />
		<tag k="name" v="Skorholmen" />
		<tag k="place" v="farm" />
		<tag k="ssr:stedsnr" v="511441" />
	</node>
	<node id="-645119" lat="60.8347305598" lon="4.87768888741">
		<tag k="name" v="Børilden" />
		<tag k="place" v="farm" />
		<tag k="ssr:stedsnr" v="510635" />
	</node>
	<node id="-645118" lat="60.7925916654" lon="4.96528889704">
		<tag k="name" v="Olsvågen" />
		<tag k="natural" v="bay" />
		<tag k="ssr:stedsnr" v="510893" />
	</node>
	<node id="-645117" lat="60.7859805518" lon="4.85933055987">
		<tag k="name" v="Buvågen" />
		<tag k="natural" v="bay" />
		<tag k="ssr:stedsnr" v="510883" />
	</node>
	<node id="-645116" lat="60.787161113" lon="4.86587221441">
		<tag k="name" v="Orrhøyen" />
		<tag k="natural" v="hill" />
		<tag k="place" v="locality" />
		<tag k="ssr:stedsnr" v="510881" />
	</node>
	<node id="-645115" lat="60.7905999984" lon="4.92470277666">
		<tag k="name" v="Sætre" />
		<tag k="place" v="farm" />
		<tag k="ssr:stedsnr" v="510446" />
	</node>
	<node id="-645114" lat="60.7643722246" lon="4.95368055027">
		<tag k="name" v="Solend" />
		<tag k="place" v="farm" />
		<tag k="ssr:stedsnr" v="510472" />
	</node>
	<node id="-645113" lat="60.7998388865" lon="4.88112499394">
		<tag k="name" v="Makrelleneset" />
		<tag k="natural" v="cape" />
		<tag k="ssr:stedsnr" v="409877" />
	</node>
	<node id="-645112" lat="60.7445638881" lon="5.01351111293">
		<tag k="fixme" v="consider natural=peak for the most distinct mountains in the district" />
		<tag k="name" v="Varden" />
		<tag k="natural" v="hill" />
		<tag k="ssr:stedsnr" v="409867" />
	</node>
	<node id="-645111" lat="60.7719976262" lon="5.01386413706">
		<tag k="fixme" v="consider seamark:type=rock or natural=shoal" />
		<tag k="name" v="Vauleskjeret" />
		<tag k="place" v="islet" />
		<tag k="ssr:stedsnr" v="510167" />
	</node>
	<node id="-645110" lat="60.7598833299" lon="5.0341527843">
		<tag k="fixme" v="consider seamark:type=rock or natural=shoal" />
		<tag k="name" v="Klungreskjeret" />
		<tag k="place" v="islet" />
		<tag k="ssr:stedsnr" v="409956" />
	</node>
	<node id="-645109" lat="60.7434999983" lon="5.01288611812">
		<tag k="name" v="Alskogvika" />
		<tag k="natural" v="bay" />
		<tag k="ssr:stedsnr" v="409955" />
	</node>
	<node id="-645108" lat="60.8175388902" lon="4.90511666338">
		<tag k="name" v="Nordre Rasmusholmen" />
		<tag k="place" v="islet" />
		<tag k="ssr:stedsnr" v="391610" />
	</node>
	<node id="-645107" lat="60.765213889" lon="4.95029444906">
		<tag k="name" v="Solend" />
		<tag k="place" v="farm" />
		<tag k="ssr:stedsnr" v="389507" />
	</node>
	<node id="-645106" lat="60.8492694469" lon="4.72270555796">
		<tag k="name" v="Kråkeflua" />
		<tag k="natural" v="shoal" />
		<tag k="place" v="locality" />
		<tag k="ssr:stedsnr" v="389265" />
	</node>
	<node id="-645105" lat="60.7637888933" lon="4.95718611184">
		<tag k="name" v="Solend" />
		<tag k="place" v="farm" />
		<tag k="ssr:stedsnr" v="388424" />
	</node>
	<node id="-645104" lat="60.7516583351" lon="4.98868610531">
		<tag k="name" v="Søre Njøta" />
		<tag k="place" v="farm" />
		<tag k="ssr:stedsnr" v="388417" />
	</node>
	<node id="-645103" lat="60.7964722184" lon="4.98681944893">
		<tag k="name" v="Høgesåta" />
		<tag k="natural" v="hill" />
		<tag k="place" v="locality" />
		<tag k="ssr:stedsnr" v="373007" />
	</node>
	<node id="-645102" lat="60.7714249963" lon="4.89442500799">
		<tag k="name" v="Breidvik" />
		<tag k="place" v="farm" />
		<tag k="ssr:stedsnr" v="372256" />
	</node>
	<node id="-645101" lat="60.7839297168" lon="4.90724836116">
		<tag k="fixme" v="multiple name tags, choose one and add the other to alt_name" />
		<tag k="name" v="Klaravatnet;Rotevatnet" />
		<tag k="natural" v="water" />
		<tag k="ssr:stedsnr" v="372227" />
	</node>
	<node id="-645100" lat="60.7792361075" lon="4.86345277272">
		<tag k="alt_name" v="Bukkholmsundet" />
		<tag k="name" v="Bukkholmstraumen" />
		<tag k="natural" v="strait" />
		<tag k="ssr:stedsnr" v="372220" />
	</node>
	<node id="-645099" lat="60.7866027766" lon="4.86697222304">
		<tag k="name" v="Rebnor" />
		<tag k="place" v="hamlet" />
		<tag k="ssr:stedsnr" v="372002" />
	</node>
	<node id="-645098" lat="60.7512231413" lon="4.98707753402">
		<tag k="fixme" v="consider place=hamlet" />
		<tag k="name" v="Søre Njøta" />
		<tag k="place" v="farm" />
		<tag k="ssr:stedsnr" v="372168" />
	</node>
	<node id="-645097" lat="60.7553000031" lon="5.00589167315">
		<tag k="name" v="Kiken" />
		<tag k="natural" v="cape" />
		<tag k="ssr:stedsnr" v="372167" />
	</node>
	<node id="-645096" lat="60.7741166688" lon="4.85028610395">
		<tag k="alt_name" v="Allersholmen" />
		<tag k="name" v="Halsholmen" />
		<tag k="place" v="islet" />
		<tag k="ssr:stedsnr" v="494220" />
	</node>
	<node id="-645095" lat="60.7613666632" lon="4.91667777238">
		<tag k="name" v="Tuftene" />
		<tag k="place" v="farm" />
		<tag k="ssr:stedsnr" v="494180" />
	</node>
	<node id="-645094" lat="60.7533277804" lon="5.01844722488">
		<tag k="name" v="Grindholmen" />
		<tag k="place" v="islet" />
		<tag k="ssr:stedsnr" v="494142" />
	</node>
	<node id="-645093" lat="60.8290944459" lon="4.7807999945">
		<tag k="name" v="Røvelskjeret" />
		<tag k="place" v="islet" />
		<tag k="ssr:stedsnr" v="494101" />
	</node>
	<node id="-645092" lat="60.8088214731" lon="4.83167506425">
		<tag k="name" v="Langøyna" />
		<tag k="place" v="island" />
		<tag k="ssr:stedsnr" v="494091" />
	</node>
	<node id="-645091" lat="60.8123527749" lon="4.79642777801">
		<tag k="fixme" v="consider seamark:type=rock or natural=shoal" />
		<tag k="name" v="Eikholmen" />
		<tag k="place" v="islet" />
		<tag k="ssr:stedsnr" v="494069" />
	</node>
	<node id="-645090" lat="60.7970916634" lon="4.83478055918">
		<tag k="name" v="Søre Lamholmen" />
		<tag k="place" v="islet" />
		<tag k="ssr:stedsnr" v="494056" />
	</node>
	<node id="-645089" lat="60.8066277818" lon="4.82835000762">
		<tag k="name" v="Hjeltholmen" />
		<tag k="place" v="islet" />
		<tag k="ssr:stedsnr" v="494051" />
	</node>
	<node id="-645088" lat="60.8090694405" lon="4.8847583341">
		<tag k="name" v="Storekalven" />
		<tag k="place" v="islet" />
		<tag k="ssr:stedsnr" v="494048" />
	</node>
	<node id="-645087" lat="60.7949172733" lon="4.94925228415">
		<tag k="fixme" v="consider place=hamlet" />
		<tag k="name" v="Utkilen" />
		<tag k="place" v="farm" />
		<tag k="ssr:stedsnr" v="494015" />
	</node>
	<node id="-645086" lat="60.7946277751" lon="5.03251944906">
		<tag k="fixme" v="consider natural=peak for the most distinct mountains in the district" />
		<tag k="name" v="Litlåsfjellet" />
		<tag k="natural" v="hill" />
		<tag k="place" v="locality" />
		<tag k="ssr:stedsnr" v="494010" />
	</node>
	<node id="-645085" lat="60.8331166634" lon="4.91087500273">
		<tag k="name" v="Langeneset" />
		<tag k="natural" v="cape" />
		<tag k="ssr:stedsnr" v="493981" />
	</node>
	<node id="-645084" lat="60.782577775" lon="4.86222777952">
		<tag k="name" v="Nonkletten" />
		<tag k="natural" v="hill" />
		<tag k="place" v="locality" />
		<tag k="ssr:stedsnr" v="493226" />
	</node>
	<node id="-645083" lat="60.7794749974" lon="4.98716388031">
		<tag k="name" v="Bakkøyna" />
		<tag k="place" v="island" />
		<tag k="ssr:stedsnr" v="493198" />
	</node>
	<node id="-645082" lat="60.7750549386" lon="4.94335337904">
		<tag k="fixme" v="consider place=hamlet" />
		<tag k="name" v="Leikvoll" />
		<tag k="place" v="farm" />
		<tag k="ssr:stedsnr" v="493194" />
	</node>
	<node id="-645081" lat="60.8243500013" lon="4.9014249988">
		<tag k="name" v="Krabbesundet" />
		<tag k="natural" v="strait" />
		<tag k="ssr:stedsnr" v="493124" />
	</node>
	<node id="-645080" lat="60.786767546" lon="4.8725202235">
		<tag k="name" v="Rebnorsvatnet" />
		<tag k="natural" v="water" />
		<tag k="ssr:stedsnr" v="493002" />
	</node>
	<node id="-645079" lat="60.8283527781" lon="4.86957221772">
		<tag k="name" v="Ternevika" />
		<tag k="natural" v="bay" />
		<tag k="ssr:stedsnr" v="359602" />
	</node>
	<node id="-645078" lat="60.7586833372" lon="4.89166667257">
		<tag k="fixme" v="consider seamark:type=rock or natural=shoal" />
		<tag k="name" v="Nordra Katteskjeret" />
		<tag k="place" v="islet" />
		<tag k="ssr:stedsnr" v="348971" />
	</node>
	<node id="-645077" lat="60.7609972191" lon="4.8536444424">
		<tag k="fixme" v="consider seamark:type=rock or natural=shoal" />
		<tag k="name" v="Otreskjeret" />
		<tag k="place" v="islet" />
		<tag k="ssr:stedsnr" v="348966" />
	</node>
	<node id="-645076" lat="60.7586638869" lon="4.88088056416">
		<tag k="fixme" v="consider seamark:type=rock or natural=shoal" />
		<tag k="name" v="Færøyskjeret" />
		<tag k="place" v="islet" />
		<tag k="ssr:stedsnr" v="348958" />
	</node>
	<node id="-645075" lat="60.7753416703" lon="4.98158611609">
		<tag k="name" v="Juvika" />
		<tag k="natural" v="bay" />
		<tag k="ssr:stedsnr" v="348903" />
	</node>
	<node id="-645074" lat="60.8071722265" lon="4.79068611414">
		<tag k="name" v="Litle Brattholmen" />
		<tag k="place" v="islet" />
		<tag k="ssr:stedsnr" v="348804" />
	</node>
	<node id="-645073" lat="60.8243194477" lon="4.86860555813">
		<tag k="name" v="Storhaugen" />
		<tag k="natural" v="hill" />
		<tag k="place" v="locality" />
		<tag k="ssr:stedsnr" v="348802" />
	</node>
	<node id="-645072" lat="60.7867138911" lon="4.94600278466">
		<tag k="name" v="Kyrkjeholmane" />
		<tag k="place" v="islet" />
		<tag k="ssr:stedsnr" v="348226" />
	</node>
	<node id="-645071" lat="60.7965333328" lon="4.9401611196">
		<tag k="name" v="Grisholmen" />
		<tag k="place" v="islet" />
		<tag k="ssr:stedsnr" v="348225" />
	</node>
	<node id="-645070" lat="60.7903159127" lon="5.01816192064">
		<tag k="name" v="Lomstjørna" />
		<tag k="natural" v="water" />
		<tag k="ssr:stedsnr" v="348211" />
	</node>
	<node id="-645069" lat="60.8304694451" lon="4.87841944719">
		<tag k="name" v="Lauvholmen" />
		<tag k="place" v="islet" />
		<tag k="ssr:stedsnr" v="348204" />
	</node>
	<node id="-645068" lat="60.8252694464" lon="4.89740556094">
		<tag k="name" v="Krabbholmen" />
		<tag k="place" v="islet" />
		<tag k="ssr:stedsnr" v="348202" />
	</node>
	<node id="-645067" lat="60.7661611089" lon="5.00229722444">
		<tag k="name" v="Ryggen" />
		<tag k="natural" v="ridge" />
		<tag k="place" v="locality" />
		<tag k="ssr:stedsnr" v="347911" />
	</node>
	<node id="-645066" lat="60.8138777752" lon="4.83873055432">
		<tag k="name" v="Søre Haugklubben" />
		<tag k="place" v="islet" />
		<tag k="ssr:stedsnr" v="480879" />
	</node>
	<node id="-645065" lat="60.7968611096" lon="4.8662055542">
		<tag k="name" v="Øksneset" />
		<tag k="place" v="farm" />
		<tag k="ssr:stedsnr" v="329605" />
	</node>
	<node id="-645064" lat="60.7356250033" lon="4.98298889569">
		<tag k="name" v="Langetangsvågen" />
		<tag k="natural" v="bay" />
		<tag k="ssr:stedsnr" v="328841" />
	</node>
	<node id="-645063" lat="60.7886361142" lon="4.82521665917">
		<tag k="name" v="Storevardvika" />
		<tag k="natural" v="bay" />
		<tag k="ssr:stedsnr" v="328812" />
	</node>
	<node id="-645062" lat="60.831519448" lon="4.81799721874">
		<tag k="name" v="Tjørholmskallen" />
		<tag k="natural" v="shoal" />
		<tag k="place" v="locality" />
		<tag k="ssr:stedsnr" v="328216" />
	</node>
	<node id="-645061" lat="60.7598250012" lon="4.98426944371">
		<tag k="name" v="Nordre Njøta" />
		<tag k="place" v="farm" />
		<tag k="ssr:stedsnr" v="327442" />
	</node>
	<node id="-645060" lat="60.7801416659" lon="4.79807499599">
		<tag k="name" v="Senokseskallen" />
		<tag k="natural" v="shoal" />
		<tag k="place" v="locality" />
		<tag k="ssr:stedsnr" v="311019" />
	</node>
	<node id="-645059" lat="60.789513892" lon="4.82200832458">
		<tag k="fixme" v="consider natural=peak for the most distinct mountains in the district" />
		<tag k="name" v="Storevarden" />
		<tag k="natural" v="hill" />
		<tag k="ssr:stedsnr" v="470993" />
	</node>
	<node id="-645058" lat="60.8071944466" lon="4.91950555384">
		<tag k="name" v="Hammarsholmen" />
		<tag k="place" v="islet" />
		<tag k="ssr:stedsnr" v="470915" />
	</node>
	<node id="-645057" lat="60.8170638911" lon="4.89658054808">
		<tag k="name" v="Grunnosen" />
		<tag k="natural" v="strait" />
		<tag k="ssr:stedsnr" v="470910" />
	</node>
	<node id="-645056" lat="60.8126472244" lon="4.9764055536">
		<tag k="name" v="Grønevikane" />
		<tag k="natural" v="bay" />
		<tag k="ssr:stedsnr" v="470909" />
	</node>
	<node id="-645055" lat="60.7987777789" lon="4.96263332635">
		<tag k="name" v="Arihamrane" />
		<tag k="natural" v="ridge" />
		<tag k="place" v="locality" />
		<tag k="ssr:stedsnr" v="470897" />
	</node>
	<node id="-645054" lat="60.7911222216" lon="5.00702499117">
		<tag k="name" v="Straumshaugen" />
		<tag k="natural" v="hill" />
		<tag k="place" v="locality" />
		<tag k="ssr:stedsnr" v="470890" />
	</node>
	<node id="-645053" lat="60.7790138887" lon="4.92980277004">
		<tag k="fixme" v="consider natural=peak for the most distinct mountains in the district" />
		<tag k="name" v="Storenipa" />
		<tag k="natural" v="hill" />
		<tag k="ssr:stedsnr" v="470879" />
	</node>
	<node id="-645052" lat="60.7630472217" lon="4.8516611112">
		<tag k="fixme" v="consider seamark:type=rock or natural=shoal" />
		<tag k="name" v="Eimberskjeret" />
		<tag k="place" v="islet" />
		<tag k="ssr:stedsnr" v="469982" />
	</node>
	<node id="-645051" lat="60.7692138902" lon="4.99687221673">
		<tag k="name" v="Bakkavatnet" />
		<tag k="natural" v="water" />
		<tag k="ssr:stedsnr" v="469968" />
		<tag k="water" v="lake" />
	</node>
	<node id="-645050" lat="60.7473527789" lon="4.92902778344">
		<tag k="name" v="Åkerbrekkene" />
		<tag k="place" v="locality" />
		<tag k="ssr:stedsnr" v="469958" />
	</node>
	<node id="-645049" lat="60.7494527778" lon="4.91800554715">
		<tag k="name" v="Storsteinen" />
		<tag k="natural" v="cape" />
		<tag k="ssr:stedsnr" v="469957" />
	</node>
	<node id="-645048" lat="60.8184861086" lon="4.81980554986">
		<tag k="name" v="Nordre Harhaugen" />
		<tag k="natural" v="hill" />
		<tag k="place" v="locality" />
		<tag k="ssr:stedsnr" v="469949" />
	</node>
	<node id="-645047" lat="60.8089555533" lon="4.82383610731">
		<tag k="name" v="Kuhovudet" />
		<tag k="place" v="islet" />
		<tag k="ssr:stedsnr" v="469936" />
	</node>
	<node id="-645046" lat="60.8149861134" lon="4.89139166363">
		<tag k="name" v="Bukta" />
		<tag k="natural" v="bay" />
		<tag k="ssr:stedsnr" v="469920" />
	</node>
	<node id="-645045" lat="60.8049950828" lon="4.91771035453">
		<tag k="name" v="Leirvika" />
		<tag k="natural" v="bay" />
		<tag k="ssr:stedsnr" v="469918" />
	</node>
	<node id="-645044" lat="60.8141194456" lon="4.97899167537">
		<tag k="name" v="Breineset" />
		<tag k="natural" v="cape" />
		<tag k="ssr:stedsnr" v="469916" />
	</node>
	<node id="-645043" lat="60.7559722207" lon="4.94970556426">
		<tag k="name" v="Søra Reset" />
		<tag k="natural" v="ridge" />
		<tag k="place" v="locality" />
		<tag k="ssr:stedsnr" v="469908" />
	</node>
	<node id="-645042" lat="60.8136777804" lon="5.00879166984">
		<tag k="name" v="Nordre Dyrøyvågen" />
		<tag k="natural" v="bay" />
		<tag k="ssr:stedsnr" v="469879" />
	</node>
	<node id="-645041" lat="60.7637444441" lon="4.89905000431">
		<tag k="name" v="Kråkholet" />
		<tag k="natural" v="strait" />
		<tag k="ssr:stedsnr" v="469863" />
	</node>
	<node id="-645040" lat="60.7761444484" lon="4.95234166901">
		<tag k="name" v="Eldrihaugen" />
		<tag k="natural" v="hill" />
		<tag k="place" v="locality" />
		<tag k="ssr:stedsnr" v="469853" />
	</node>
	<node id="-645039" lat="60.798608334" lon="4.86083333996">
		<tag k="name" v="Kalveneset" />
		<tag k="natural" v="cape" />
		<tag k="ssr:stedsnr" v="469848" />
	</node>
	<node id="-645038" lat="60.8035944416" lon="4.81751388159">
		<tag k="name" v="Neset" />
		<tag k="natural" v="cape" />
		<tag k="ssr:stedsnr" v="469846" />
	</node>
	<node id="-645037" lat="60.7672472218" lon="4.90703055564">
		<tag k="name" v="Juberget" />
		<tag k="natural" v="hill" />
		<tag k="place" v="locality" />
		<tag k="ssr:stedsnr" v="469235" />
	</node>
	<node id="-645036" lat="60.8100111095" lon="4.94584999928">
		<tag k="name" v="Vardetangen" />
		<tag k="natural" v="cape" />
		<tag k="ssr:stedsnr" v="469211" />
	</node>
	<node id="-645035" lat="60.8090722216" lon="5.00355000689">
		<tag k="name" v="Søre Leirvågsdalen" />
		<tag k="natural" v="valley" />
		<tag k="place" v="locality" />
		<tag k="ssr:stedsnr" v="469199" />
	</node>
	<node id="-645034" lat="60.7996833296" lon="4.99519166225">
		<tag k="name" v="Skarphaugen" />
		<tag k="natural" v="hill" />
		<tag k="place" v="locality" />
		<tag k="ssr:stedsnr" v="469198" />
	</node>
	<node id="-645033" lat="60.8060250035" lon="4.92474166617">
		<tag k="name" v="Vardhaugen" />
		<tag k="natural" v="hill" />
		<tag k="place" v="locality" />
		<tag k="ssr:stedsnr" v="469196" />
	</node>
	<node id="-645032" lat="60.8024277765" lon="4.92347777348">
		<tag k="name" v="Renninga" />
		<tag k="natural" v="bay" />
		<tag k="ssr:stedsnr" v="288906" />
	</node>
	<node id="-645031" lat="60.7979666708" lon="4.92354445026">
		<tag k="name" v="Ilneset" />
		<tag k="natural" v="cape" />
		<tag k="ssr:stedsnr" v="288902" />
	</node>
	<node id="-645030" lat="60.7384861116" lon="4.98818888639">
		<tag k="name" v="Naustnestangen" />
		<tag k="natural" v="cape" />
		<tag k="ssr:stedsnr" v="288864" />
	</node>
	<node id="-645029" lat="60.762255557" lon="4.88491666329">
		<tag k="name" v="Stølshaugen" />
		<tag k="natural" v="hill" />
		<tag k="place" v="locality" />
		<tag k="ssr:stedsnr" v="287966" />
	</node>
	<node id="-645028" lat="60.7885499966" lon="4.86906667263">
		<tag k="name" v="Tunga" />
		<tag k="natural" v="cape" />
		<tag k="ssr:stedsnr" v="287923" />
	</node>
	<node id="-645027" lat="60.7887277785" lon="4.90822500864">
		<tag k="name" v="Blodvika" />
		<tag k="natural" v="bay" />
		<tag k="ssr:stedsnr" v="287918" />
	</node>
	<node id="-645026" lat="60.8033277777" lon="4.93326388531">
		<tag k="name" v="Grønetungene" />
		<tag k="natural" v="cape" />
		<tag k="ssr:stedsnr" v="287912" />
	</node>
	<node id="-645025" lat="60.814352777" lon="5.00301943653">
		<tag k="fixme" v="consider natural=peak for the most distinct mountains in the district" />
		<tag k="name" v="Salessåta" />
		<tag k="natural" v="hill" />
		<tag k="ssr:stedsnr" v="287869" />
	</node>
	<node id="-645024" lat="60.7836527808" lon="4.96809166715">
		<tag k="name" v="Ingridhaugen" />
		<tag k="natural" v="hill" />
		<tag k="place" v="locality" />
		<tag k="ssr:stedsnr" v="287866" />
	</node>
	<node id="-645023" lat="60.7671777743" lon="4.90405833745">
		<tag k="name" v="Neset" />
		<tag k="natural" v="cape" />
		<tag k="ssr:stedsnr" v="287855" />
	</node>
	<node id="-645022" lat="60.7404638856" lon="4.95618610809">
		<tag k="name" v="Bjørkhaugen" />
		<tag k="natural" v="hill" />
		<tag k="place" v="locality" />
		<tag k="ssr:stedsnr" v="287261" />
	</node>
	<node id="-645021" lat="60.8357722245" lon="4.8909416657">
		<tag k="name" v="Hammarsholmen" />
		<tag k="place" v="islet" />
		<tag k="ssr:stedsnr" v="287222" />
	</node>
	<node id="-645020" lat="60.8264472185" lon="4.89841666465">
		<tag k="name" v="Kahrsholmane" />
		<tag k="place" v="islet" />
		<tag k="ssr:stedsnr" v="287219" />
	</node>
	<node id="-645019" lat="60.791286111" lon="4.78471665775">
		<tag k="name" v="Lyngokseskjerflua" />
		<tag k="natural" v="shoal" />
		<tag k="place" v="locality" />
		<tag k="ssr:stedsnr" v="461850" />
	</node>
	<node id="-645018" lat="60.8037444418" lon="4.95085554953">
		<tag k="name" v="Torvneset" />
		<tag k="natural" v="cape" />
		<tag k="ssr:stedsnr" v="268856" />
	</node>
	<node id="-645017" lat="60.7880694419" lon="4.94108055694">
		<tag k="name" v="Sætre" />
		<tag k="place" v="farm" />
		<tag k="ssr:stedsnr" v="268468" />
	</node>
	<node id="-645016" lat="60.7873249982" lon="4.93873610966">
		<tag k="name" v="Sætre" />
		<tag k="place" v="farm" />
		<tag k="ssr:stedsnr" v="268466" />
	</node>
	<node id="-645015" lat="60.7737222204" lon="4.94480832735">
		<tag k="name" v="Leikvoll" />
		<tag k="place" v="farm" />
		<tag k="ssr:stedsnr" v="268453" />
	</node>
	<node id="-645014" lat="60.7966480004" lon="5.02249196588">
		<tag k="fixme" v="consider place=hamlet" />
		<tag k="name" v="Litlås" />
		<tag k="place" v="farm" />
		<tag k="ssr:stedsnr" v="268355" />
	</node>
	<node id="-645013" lat="60.8135750036" lon="4.99829721657">
		<tag k="name" v="Leirvågen" />
		<tag k="place" v="farm" />
		<tag k="ssr:stedsnr" v="268353" />
	</node>
	<node id="-645012" lat="60.7851388855" lon="4.80047778265">
		<tag k="name" v="Senoksen" />
		<tag k="place" v="islet" />
		<tag k="ssr:stedsnr" v="267804" />
	</node>
	<node id="-645011" lat="60.8017944412" lon="4.8131388963">
		<tag k="name" v="Nordre Sævrøyna" />
		<tag k="place" v="island" />
		<tag k="ssr:stedsnr" v="454474" />
	</node>
	<node id="-645010" lat="60.804610947" lon="4.91937537762">
		<tag k="name" v="Skåtenesvågen" />
		<tag k="natural" v="bay" />
		<tag k="ssr:stedsnr" v="452565" />
	</node>
	<node id="-645009" lat="60.7859388872" lon="4.86835556154">
		<tag k="name" v="Rebnor" />
		<tag k="place" v="farm" />
		<tag k="ssr:stedsnr" v="451774" />
	</node>
	<node id="-645008" lat="60.7730055547" lon="4.87536665789">
		<tag k="name" v="Dyrneset" />
		<tag k="natural" v="cape" />
		<tag k="ssr:stedsnr" v="451772" />
	</node>
	<node id="-645007" lat="60.7972812069" lon="4.86401758416">
		<tag k="fixme" v="consider place=hamlet" />
		<tag k="name" v="Øksneset" />
		<tag k="place" v="farm" />
		<tag k="ssr:stedsnr" v="451649" />
	</node>
	<node id="-645006" lat="60.7719305587" lon="4.86381110263">
		<tag k="name" v="Kluftholmen" />
		<tag k="place" v="islet" />
		<tag k="ssr:stedsnr" v="251263" />
	</node>
	<node id="-645005" lat="60.7947722198" lon="4.94428334111">
		<tag k="name" v="Dinesholmen" />
		<tag k="place" v="islet" />
		<tag k="ssr:stedsnr" v="450858" />
	</node>
	<node id="-645004" lat="60.8048638878" lon="4.92162222579">
		<tag k="name" v="Skorholmen" />
		<tag k="place" v="islet" />
		<tag k="ssr:stedsnr" v="450447" />
	</node>
	<node id="-645003" lat="60.8060361079" lon="4.9224861091">
		<tag k="name" v="Ulvøyna" />
		<tag k="place" v="farm" />
		<tag k="ssr:stedsnr" v="450440" />
	</node>
	<node id="-645002" lat="60.8007888879" lon="4.97087222404">
		<tag k="name" v="Fonnes" />
		<tag k="place" v="farm" />
		<tag k="ssr:stedsnr" v="449347" />
	</node>
	<node id="-645001" lat="60.8020499998" lon="4.96476666336">
		<tag k="name" v="Altersvatnet" />
		<tag k="natural" v="water" />
		<tag k="ssr:stedsnr" v="227874" />
		<tag k="water" v="lake" />
	</node>
	<node id="-645000" lat="60.7482444404" lon="5.00193055223">
		<tag k="name" v="Kjosevikhaugen" />
		<tag k="natural" v="hill" />
		<tag k="place" v="locality" />
		<tag k="ssr:stedsnr" v="227871" />
	</node>
	<node id="-644999" lat="60.7709805548" lon="4.99984443766">
		<tag k="name" v="Grønhaugen" />
		<tag k="natural" v="hill" />
		<tag k="place" v="locality" />
		<tag k="ssr:stedsnr" v="227868" />
	</node>
	<node id="-644998" lat="60.7330694477" lon="4.97533610976">
		<tag k="name" v="Skarpeneset" />
		<tag k="natural" v="cape" />
		<tag k="ssr:stedsnr" v="227857" />
	</node>
	<node id="-644997" lat="60.8247138857" lon="4.85505278151">
		<tag k="name" v="Holmetaren" />
		<tag k="natural" v="shoal" />
		<tag k="place" v="locality" />
		<tag k="ssr:stedsnr" v="298611" />
	</node>
	<node id="-644996" lat="60.8183027755" lon="4.89216666355">
		<tag k="fixme" v="consider seamark:type=rock or natural=shoal" />
		<tag k="name" v="Smådynene" />
		<tag k="place" v="islet" />
		<tag k="ssr:stedsnr" v="298607" />
	</node>
	<node id="-644995" lat="60.8322694487" lon="4.8417694375">
		<tag k="name" v="Tareskallen" />
		<tag k="natural" v="shoal" />
		<tag k="place" v="locality" />
		<tag k="ssr:stedsnr" v="298564" />
	</node>
	<node id="-644994" lat="60.7946638934" lon="4.79661667446">
		<tag k="name" v="Annfinnholmen" />
		<tag k="place" v="islet" />
		<tag k="ssr:stedsnr" v="191045" />
	</node>
	<node id="-644993" lat="60.7939583312" lon="4.86049999847">
		<tag k="name" v="Kalveneset" />
		<tag k="natural" v="cape" />
		<tag k="ssr:stedsnr" v="191038" />
	</node>
	<node id="-644992" lat="60.7981234231" lon="4.96912031592">
		<tag k="name" v="Ævatnet" />
		<tag k="natural" v="water" />
		<tag k="ssr:stedsnr" v="191012" />
	</node>
	<node id="-644991" lat="60.8094083306" lon="4.80027500542">
		<tag k="name" v="Små Trollholmen" />
		<tag k="place" v="islet" />
		<tag k="ssr:stedsnr" v="288992" />
	</node>
	<node id="-644990" lat="60.7894555518" lon="4.83611944608">
		<tag k="name" v="Klauvholmen" />
		<tag k="place" v="islet" />
		<tag k="ssr:stedsnr" v="288987" />
	</node>
	<node id="-644989" lat="60.797475002" lon="4.97814722267">
		<tag k="name" v="Krossen" />
		<tag k="place" v="locality" />
		<tag k="ssr:stedsnr" v="288895" />
	</node>
	<node id="-644988" lat="60.7462500013" lon="4.99814444609">
		<tag k="name" v="Stakken" />
		<tag k="place" v="locality" />
		<tag k="ssr:stedsnr" v="288888" />
	</node>
	<node id="-644987" lat="60.8123749999" lon="4.84443055286">
		<tag k="name" v="Midtskaget" />
		<tag k="place" v="island" />
		<tag k="ssr:stedsnr" v="287944" />
	</node>
	<node id="-644986" lat="60.821300001" lon="4.79894444561">
		<tag k="name" v="Nautøyvågen" />
		<tag k="natural" v="bay" />
		<tag k="ssr:stedsnr" v="287929" />
	</node>
	<node id="-644985" lat="60.8057055596" lon="4.84013332941">
		<tag k="name" v="Grusholmen" />
		<tag k="place" v="islet" />
		<tag k="ssr:stedsnr" v="287994" />
	</node>
	<node id="-644983" lat="60.7524222224" lon="4.91587500727">
		<tag k="name" v="Hopland" />
		<tag k="place" v="farm" />
		<tag k="ssr:stedsnr" v="287269" />
	</node>
	<node id="-644982" lat="60.7989111101" lon="4.98511389168">
		<tag k="fixme" v="consider natural=peak for the most distinct mountains in the district" />
		<tag k="name" v="Kråkesåta" />
		<tag k="natural" v="hill" />
		<tag k="ssr:stedsnr" v="287240" />
	</node>
	<node id="-644981" lat="60.8077166681" lon="4.92476110596">
		<tag k="name" v="Ærhaugen" />
		<tag k="natural" v="hill" />
		<tag k="place" v="locality" />
		<tag k="ssr:stedsnr" v="287237" />
	</node>
	<node id="-644980" lat="60.7951166638" lon="5.00696665946">
		<tag k="name" v="Høljedalshaugen" />
		<tag k="natural" v="hill" />
		<tag k="place" v="locality" />
		<tag k="ssr:stedsnr" v="287232" />
	</node>
	<node id="-644979" lat="60.8154111116" lon="4.99000277878">
		<tag k="fixme" v="consider natural=peak for the most distinct mountains in the district" />
		<tag k="name" v="Mulen" />
		<tag k="natural" v="hill" />
		<tag k="place" v="locality" />
		<tag k="ssr:stedsnr" v="177658" />
	</node>
	<node id="-644978" lat="60.836630554" lon="4.87881666505">
		<tag k="name" v="Beinstaren" />
		<tag k="natural" v="shoal" />
		<tag k="place" v="locality" />
		<tag k="ssr:stedsnr" v="177656" />
	</node>
	<node id="-644977" lat="60.7483499975" lon="4.95244999469">
		<tag k="name" v="Storemyra" />
		<tag k="natural" v="wetland" />
		<tag k="ssr:stedsnr" v="166961" />
	</node>
	<node id="-644976" lat="60.7691861095" lon="4.87269722393">
		<tag k="fixme" v="consider seamark:type=rock or natural=shoal" />
		<tag k="name" v="Svartskjeret" />
		<tag k="place" v="islet" />
		<tag k="ssr:stedsnr" v="166957" />
	</node>
	<node id="-644975" lat="60.8000027741" lon="4.81950833724">
		<tag k="name" v="Sævrøyvågen" />
		<tag k="natural" v="bay" />
		<tag k="ssr:stedsnr" v="166903" />
	</node>
	<node id="-644974" lat="60.7851472231" lon="4.98680277907">
		<tag k="fixme" v="consider natural=peak for the most distinct mountains in the district" />
		<tag k="name" v="Jakobsvarden" />
		<tag k="natural" v="hill" />
		<tag k="ssr:stedsnr" v="166874" />
	</node>
	<node id="-644973" lat="60.7824277736" lon="4.9891305607">
		<tag k="name" v="Langavatnet" />
		<tag k="natural" v="water" />
		<tag k="ssr:stedsnr" v="166873" />
		<tag k="water" v="lake" />
	</node>
	<node id="-644972" lat="60.7939277777" lon="4.92768888927">
		<tag k="name" v="Lyngtræneset" />
		<tag k="natural" v="cape" />
		<tag k="ssr:stedsnr" v="166867" />
	</node>
	<node id="-644971" lat="60.7373944426" lon="4.98290833875">
		<tag k="name" v="Stokkenesvågen" />
		<tag k="natural" v="bay" />
		<tag k="ssr:stedsnr" v="166861" />
	</node>
	<node id="-644970" lat="60.7427972258" lon="4.95416111382">
		<tag k="name" v="Eggena" />
		<tag k="natural" v="hill" />
		<tag k="place" v="locality" />
		<tag k="ssr:stedsnr" v="166857" />
	</node>
	<node id="-644969" lat="60.7519444488" lon="4.98363055937">
		<tag k="name" v="Klubbevika" />
		<tag k="natural" v="bay" />
		<tag k="ssr:stedsnr" v="166257" />
	</node>
	<node id="-644968" lat="60.7972944438" lon="4.95398055422">
		<tag k="name" v="Utkilen" />
		<tag k="place" v="farm" />
		<tag k="ssr:stedsnr" v="166227" />
	</node>
	<node id="-644967" lat="60.7986861136" lon="4.93542221395">
		<tag k="name" v="Kilstraumen" />
		<tag k="place" v="farm" />
		<tag k="ssr:stedsnr" v="166226" />
	</node>
	<node id="-644966" lat="60.7692527785" lon="5.00671387977">
		<tag k="name" v="Skjørhaugen" />
		<tag k="natural" v="hill" />
		<tag k="place" v="locality" />
		<tag k="ssr:stedsnr" v="166222" />
	</node>
	<node id="-644965" lat="60.8289694419" lon="4.89828055504">
		<tag k="name" v="Kampestøholmen" />
		<tag k="place" v="islet" />
		<tag k="ssr:stedsnr" v="166208" />
	</node>
	<node id="-644964" lat="60.7959361142" lon="4.86414721945">
		<tag k="name" v="Øksneset" />
		<tag k="place" v="farm" />
		<tag k="ssr:stedsnr" v="147612" />
	</node>
	<node id="-644963" lat="60.7457194474" lon="4.96889722347">
		<tag k="name" v="Litlelindås" />
		<tag k="place" v="farm" />
		<tag k="ssr:stedsnr" v="146407" />
	</node>
	<node id="-644962" lat="60.8077555543" lon="4.92301388826">
		<tag k="name" v="Ulvøyna" />
		<tag k="place" v="farm" />
		<tag k="ssr:stedsnr" v="146403" />
	</node>
	<node id="-644961" lat="60.7645055572" lon="4.91822778192">
		<tag k="name" v="Austrheim" />
		<tag k="place" v="farm" />
		<tag k="ssr:stedsnr" v="269782" />
	</node>
	<node id="-644960" lat="60.7602204628" lon="4.91498115304">
		<tag k="fixme" v="consider place=hamlet" />
		<tag k="name" v="Austrheim" />
		<tag k="place" v="farm" />
		<tag k="ssr:stedsnr" v="269781" />
	</node>
	<node id="-644959" lat="60.7855861081" lon="4.87211388225">
		<tag k="name" v="Rebnor" />
		<tag k="place" v="farm" />
		<tag k="ssr:stedsnr" v="269775" />
	</node>
	<node id="-644958" lat="60.7627222223" lon="4.90157777699">
		<tag k="name" v="Bergsvika" />
		<tag k="place" v="farm" />
		<tag k="ssr:stedsnr" v="269768" />
	</node>
	<node id="-644957" lat="60.7742472182" lon="4.93974165901">
		<tag k="name" v="Leikvoll" />
		<tag k="place" v="farm" />
		<tag k="ssr:stedsnr" v="268491" />
	</node>
	<node id="-644956" lat="60.7674083361" lon="4.95631111863">
		<tag k="name" v="Solend" />
		<tag k="place" v="farm" />
		<tag k="ssr:stedsnr" v="268487" />
	</node>
	<node id="-644955" lat="60.833436111" lon="4.89722222726">
		<tag k="name" v="Stongevågen" />
		<tag k="natural" v="bay" />
		<tag k="ssr:stedsnr" v="268085" />
	</node>
	<node id="-644954" lat="60.8090026888" lon="4.83286847429">
		<tag k="fixme" v="consider place=hamlet" />
		<tag k="name" v="Langøyna" />
		<tag k="place" v="farm" />
		<tag k="ssr:stedsnr" v="267582" />
	</node>
	<node id="-644953" lat="60.7908166653" lon="4.8337972268">
		<tag k="name" v="Skjelsundet" />
		<tag k="natural" v="strait" />
		<tag k="ssr:stedsnr" v="130043" />
	</node>
	<node id="-644952" lat="60.7950944461" lon="4.91627778217">
		<tag k="name" v="Grøndalen" />
		<tag k="natural" v="valley" />
		<tag k="place" v="locality" />
		<tag k="ssr:stedsnr" v="130039" />
	</node>
	<node id="-644951" lat="60.7927777794" lon="4.88489999857">
		<tag k="name" v="Teindalen" />
		<tag k="natural" v="valley" />
		<tag k="place" v="locality" />
		<tag k="ssr:stedsnr" v="130038" />
	</node>
	<node id="-644950" lat="60.7943138919" lon="4.93418889098">
		<tag k="name" v="Sætreosen" />
		<tag k="natural" v="bay" />
		<tag k="ssr:stedsnr" v="130014" />
	</node>
	<node id="-644948" lat="60.8237444441" lon="4.85839721322">
		<tag k="name" v="Senga" />
		<tag k="place" v="islet" />
		<tag k="ssr:stedsnr" v="129130" />
	</node>
	<node id="-644947" lat="60.8170833316" lon="4.91369722232">
		<tag k="name" v="Stavesundsholmen" />
		<tag k="place" v="islet" />
		<tag k="ssr:stedsnr" v="129111" />
	</node>
	<node id="-644946" lat="60.8134527736" lon="4.88936667586">
		<tag k="name" v="Vestre Tangen" />
		<tag k="natural" v="cape" />
		<tag k="ssr:stedsnr" v="129110" />
	</node>
	<node id="-644945" lat="60.8176055545" lon="4.98759444844">
		<tag k="name" v="Mulen" />
		<tag k="natural" v="cape" />
		<tag k="ssr:stedsnr" v="129103" />
	</node>
	<node id="-644944" lat="60.7880805532" lon="4.92144166228">
		<tag k="name" v="Smalevarden" />
		<tag k="natural" v="hill" />
		<tag k="place" v="locality" />
		<tag k="ssr:stedsnr" v="129036" />
	</node>
	<node id="-644943" lat="60.777283331" lon="4.81463611836">
		<tag k="name" v="Langøyfluene" />
		<tag k="natural" v="shoal" />
		<tag k="place" v="locality" />
		<tag k="ssr:stedsnr" v="129025" />
	</node>
	<node id="-644942" lat="60.8088250025" lon="4.84101111787">
		<tag k="name" v="Buskholmen" />
		<tag k="place" v="islet" />
		<tag k="ssr:stedsnr" v="105860" />
	</node>
	<node id="-644941" lat="60.8076666704" lon="4.81836666315">
		<tag k="fixme" v="consider seamark:type=rock or natural=shoal" />
		<tag k="name" v="Keipen" />
		<tag k="place" v="islet" />
		<tag k="ssr:stedsnr" v="105858" />
	</node>
	<node id="-644940" lat="60.8007305575" lon="5.00632499407">
		<tag k="name" v="Hyttena" />
		<tag k="place" v="locality" />
		<tag k="ssr:stedsnr" v="105932" />
	</node>
	<node id="-644939" lat="60.7831333298" lon="4.91855833663">
		<tag k="name" v="Gjerdhaugen" />
		<tag k="natural" v="hill" />
		<tag k="place" v="locality" />
		<tag k="ssr:stedsnr" v="105923" />
	</node>
	<node id="-644938" lat="60.8338611119" lon="4.89582500343">
		<tag k="name" v="Nordre Stongevågen" />
		<tag k="natural" v="bay" />
		<tag k="ssr:stedsnr" v="105908" />
	</node>
	<node id="-644937" lat="60.8303111086" lon="4.89060832969">
		<tag k="name" v="Robberholmen" />
		<tag k="place" v="islet" />
		<tag k="ssr:stedsnr" v="105907" />
	</node>
	<node id="-644936" lat="60.7647861135" lon="4.97354166761">
		<tag k="name" v="Kalvstangen" />
		<tag k="natural" v="cape" />
		<tag k="ssr:stedsnr" v="251972" />
	</node>
	<node id="-644935" lat="60.7671361079" lon="4.96547778146">
		<tag k="name" v="Notholmen" />
		<tag k="place" v="islet" />
		<tag k="ssr:stedsnr" v="251235" />
	</node>
	<node id="-644934" lat="60.7642553959" lon="4.95149163641">
		<tag k="fixme" v="consider place=hamlet" />
		<tag k="name" v="Solend" />
		<tag k="place" v="farm" />
		<tag k="ssr:stedsnr" v="251230" />
	</node>
	<node id="-644933" lat="60.7719388931" lon="4.95478332955">
		<tag k="name" v="Gassevågen" />
		<tag k="natural" v="bay" />
		<tag k="ssr:stedsnr" v="251214" />
	</node>
	<node id="-644932" lat="60.7708361144" lon="4.94517499676">
		<tag k="name" v="Blomhaugane" />
		<tag k="natural" v="hill" />
		<tag k="place" v="locality" />
		<tag k="ssr:stedsnr" v="251206" />
	</node>
	<node id="-644931" lat="60.7518055584" lon="5.00431110169">
		<tag k="name" v="Lerkeneset" />
		<tag k="natural" v="cape" />
		<tag k="ssr:stedsnr" v="251168" />
	</node>
	<node id="-644930" lat="60.8307694444" lon="4.85025278341">
		<tag k="name" v="Storefluene" />
		<tag k="natural" v="shoal" />
		<tag k="place" v="locality" />
		<tag k="ssr:stedsnr" v="251106" />
	</node>
	<node id="-644929" lat="60.8279250022" lon="4.80594166524">
		<tag k="name" v="Stokkevika" />
		<tag k="natural" v="bay" />
		<tag k="ssr:stedsnr" v="251103" />
	</node>
	<node id="-644928" lat="60.8163277817" lon="4.90458889718">
		<tag k="alt_name" v="Rasmusholmen" />
		<tag k="name" v="Søre Rasmusholmen" />
		<tag k="place" v="islet" />
		<tag k="ssr:stedsnr" v="251096" />
	</node>
	<node id="-644927" lat="60.8111194411" lon="4.94922500116">
		<tag k="name" v="Vardetangsholmane" />
		<tag k="place" v="islet" />
		<tag k="ssr:stedsnr" v="251094" />
	</node>
	<node id="-644926" lat="60.8101750018" lon="4.81940278187">
		<tag k="name" v="Selsøyna" />
		<tag k="place" v="islet" />
		<tag k="ssr:stedsnr" v="251075" />
	</node>
	<node id="-644925" lat="60.8004999993" lon="4.79766666595">
		<tag k="fixme" v="multiple name tags, choose one and add the other to alt_name" />
		<tag k="name" v="Gygreholmen;Jugholmen" />
		<tag k="place" v="islet" />
		<tag k="ssr:stedsnr" v="251053" />
	</node>
	<node id="-644924" lat="60.806255553" lon="4.81115556054">
		<tag k="name" v="Bukkholmen" />
		<tag k="place" v="islet" />
		<tag k="ssr:stedsnr" v="251050" />
	</node>
	<node id="-644923" lat="60.806311108" lon="4.88731666432">
		<tag k="name" v="Kalvsflua" />
		<tag k="natural" v="shoal" />
		<tag k="place" v="locality" />
		<tag k="ssr:stedsnr" v="251044" />
	</node>
	<node id="-644922" lat="60.7901600371" lon="4.92634120312">
		<tag k="fixme" v="consider place=hamlet" />
		<tag k="name" v="Sætre" />
		<tag k="place" v="farm" />
		<tag k="ssr:stedsnr" v="251027" />
	</node>
	<node id="-644921" lat="60.7945749978" lon="4.98435277874">
		<tag k="fixme" v="multiple name tags, choose one and add the other to alt_name" />
		<tag k="name" v="Midttangsvågen;Hegrevika" />
		<tag k="natural" v="bay" />
		<tag k="ssr:stedsnr" v="251024" />
	</node>
	<node id="-644920" lat="60.7789944473" lon="4.98044167307">
		<tag k="name" v="Brekkene" />
		<tag k="natural" v="slope" />
		<tag k="place" v="locality" />
		<tag k="ssr:stedsnr" v="86862" />
	</node>
	<node id="-644919" lat="60.813536112" lon="4.97151945181">
		<tag k="name" v="Vågsskjertaren" />
		<tag k="natural" v="shoal" />
		<tag k="place" v="locality" />
		<tag k="ssr:stedsnr" v="86805" />
	</node>
	<node id="-644918" lat="60.7896388912" lon="4.93101665779">
		<tag k="name" v="Sætre" />
		<tag k="place" v="farm" />
		<tag k="ssr:stedsnr" v="86467" />
	</node>
	<node id="-644917" lat="60.7830638873" lon="4.94465000425">
		<tag k="name" v="Vikane" />
		<tag k="place" v="farm" />
		<tag k="ssr:stedsnr" v="86457" />
	</node>
	<node id="-644916" lat="60.7696111118" lon="4.98224167102">
		<tag k="fixme" v="consider seamark:type=rock or natural=shoal" />
		<tag k="name" v="Kobbeskjeret" />
		<tag k="place" v="islet" />
		<tag k="ssr:stedsnr" v="85806" />
	</node>
	<node id="-644915" lat="60.7434138924" lon="4.98431110287">
		<tag k="name" v="Teinholmane" />
		<tag k="place" v="islet" />
		<tag k="ssr:stedsnr" v="249765" />
	</node>
	<node id="-644914" lat="60.7421638886" lon="4.94882222738">
		<tag k="name" v="Langavatnet" />
		<tag k="natural" v="water" />
		<tag k="ssr:stedsnr" v="249749" />
	</node>
	<node id="-644913" lat="60.8338499979" lon="4.87528888685">
		<tag k="name" v="Beinsundet" />
		<tag k="natural" v="strait" />
		<tag k="ssr:stedsnr" v="238633" />
	</node>
	<node id="-644912" lat="60.8308416655" lon="4.86862222998">
		<tag k="name" v="Kluftesanden" />
		<tag k="natural" v="bay" />
		<tag k="ssr:stedsnr" v="238609" />
	</node>
	<node id="-644911" lat="60.8241472217" lon="4.71370833377">
		<tag k="name" v="Midsete" />
		<tag k="natural" v="shoal" />
		<tag k="place" v="locality" />
		<tag k="ssr:stedsnr" v="56839" />
	</node>
	<node id="-644910" lat="60.8220777746" lon="4.76718055791">
		<tag k="name" v="Brimsesundet" />
		<tag k="natural" v="strait" />
		<tag k="ssr:stedsnr" v="230129" />
	</node>
	<node id="-644909" lat="60.8060027737" lon="4.82368888253">
		<tag k="name" v="Grønholmen" />
		<tag k="place" v="islet" />
		<tag k="ssr:stedsnr" v="227999" />
	</node>
	<node id="-644908" lat="60.8079694467" lon="4.82450000117">
		<tag k="name" v="Eidholmen" />
		<tag k="place" v="islet" />
		<tag k="ssr:stedsnr" v="227994" />
	</node>
	<node id="-644907" lat="60.8041472223" lon="4.83283332532">
		<tag k="name" v="Tjeldholmen" />
		<tag k="place" v="islet" />
		<tag k="ssr:stedsnr" v="227990" />
	</node>
	<node id="-644906" lat="60.8097500008" lon="4.80402777657">
		<tag k="name" v="Hønsevågen" />
		<tag k="natural" v="bay" />
		<tag k="ssr:stedsnr" v="227978" />
	</node>
	<node id="-644905" lat="60.7924722231" lon="4.850636114">
		<tag k="name" v="Litle Børo" />
		<tag k="place" v="island" />
		<tag k="ssr:stedsnr" v="227973" />
	</node>
	<node id="-644904" lat="60.8037638916" lon="4.97222222702">
		<tag k="name" v="Blautmyra" />
		<tag k="natural" v="wetland" />
		<tag k="ssr:stedsnr" v="227881" />
	</node>
	<node id="-644903" lat="60.8117601332" lon="4.97476605726">
		<tag k="name" v="Rasmustangen" />
		<tag k="natural" v="cape" />
		<tag k="ssr:stedsnr" v="227879" />
	</node>
	<node id="-644902" lat="60.7470027774" lon="4.93945833338">
		<tag k="name" v="Storenyken" />
		<tag k="natural" v="hill" />
		<tag k="place" v="locality" />
		<tag k="ssr:stedsnr" v="226973" />
	</node>
	<node id="-644901" lat="60.8267694402" lon="4.91111944905">
		<tag k="name" v="Stongebøen" />
		<tag k="natural" v="bay" />
		<tag k="ssr:stedsnr" v="226950" />
	</node>
	<node id="-644900" lat="60.7863250034" lon="4.86936944098">
		<tag k="name" v="Rebnor" />
		<tag k="place" v="farm" />
		<tag k="ssr:stedsnr" v="26718" />
	</node>
	<node id="-644899" lat="60.7525499988" lon="4.95348055326">
		<tag k="name" v="Grønåsen" />
		<tag k="natural" v="hill" />
		<tag k="place" v="locality" />
		<tag k="ssr:stedsnr" v="226262" />
	</node>
	<node id="-644898" lat="60.7516250005" lon="4.97786388625">
		<tag k="name" v="Nordra Skadvika" />
		<tag k="natural" v="bay" />
		<tag k="ssr:stedsnr" v="226260" />
	</node>
	<node id="-644897" lat="60.7879361078" lon="4.91794167549">
		<tag k="name" v="Galten" />
		<tag k="natural" v="cape" />
		<tag k="ssr:stedsnr" v="226250" />
	</node>
	<node id="-644896" lat="60.8141249956" lon="5.001722223">
		<tag k="name" v="Leirvågssanden" />
		<tag k="natural" v="shoal" />
		<tag k="place" v="locality" />
		<tag k="ssr:stedsnr" v="226234" />
	</node>
	<node id="-644895" lat="60.80515" lon="4.88921389533">
		<tag k="name" v="Litlekalven" />
		<tag k="place" v="islet" />
		<tag k="ssr:stedsnr" v="9024" />
	</node>
	<node id="-644894" lat="60.8049666642" lon="4.92985554973">
		<tag k="name" v="Flotevika" />
		<tag k="place" v="farm" />
		<tag k="ssr:stedsnr" v="9021" />
	</node>
	<node id="-644893" lat="60.8037666623" lon="4.93979999156">
		<tag k="name" v="Trollholmflua" />
		<tag k="natural" v="shoal" />
		<tag k="place" v="locality" />
		<tag k="ssr:stedsnr" v="219758" />
	</node>
	<node id="-644892" lat="60.8071333348" lon="4.97284444087">
		<tag k="name" v="Træsvika" />
		<tag k="natural" v="bay" />
		<tag k="ssr:stedsnr" v="219662" />
	</node>
	<node id="-645905" lat="60.7249336103" lon="5.04983825279">
		<tag k="bay" v="fjord" />
		<tag k="name" v="Lurefjorden" />
		<tag k="natural" v="bay" />
		<tag k="ssr:stedsnr" v="287590" />
	</node>
	<node id="-645902" lat="60.8074335542" lon="4.97747578019">
		<tag k="name" v="Kolevika" />
		<tag k="natural" v="bay" />
		<tag k="ssr:stedsnr" v="1072192" />
	</node>
	<node id="-645901" lat="60.8101039024" lon="4.96838694967">
		<tag k="name" v="Gylnakken" />
		<tag k="natural" v="cape" />
		<tag k="ssr:stedsnr" v="1072191" />
	</node>
	<node id="-645899" lat="60.7517088399" lon="4.98439271134">
		<tag k="man_made" v="quay" />
		<tag k="name" v="Njøta" />
		<tag k="place" v="locality" />
		<tag k="ssr:stedsnr" v="1072188" />
	</node>
	<node id="-645898" lat="60.8047695078" lon="4.79672544164">
		<tag k="name" v="Brattholmflua" />
		<tag k="natural" v="shoal" />
		<tag k="place" v="locality" />
		<tag k="ssr:stedsnr" v="1072116" />
	</node>
	<node id="-645897" lat="60.8135871353" lon="4.79159494101">
		<tag k="name" v="Rongeværleia" />
		<tag k="natural" v="strait" />
		<tag k="ssr:stedsnr" v="1072114" />
	</node>
	<node id="-645896" lat="60.7893248734" lon="4.85718670168">
		<tag k="name" v="Bønesvika" />
		<tag k="natural" v="bay" />
		<tag k="ssr:stedsnr" v="1072113" />
	</node>
	<node id="-645893" lat="60.8192833278" lon="4.77260419968">
		<tag k="name" v="Sauøyparten" />
		<tag k="natural" v="cape" />
		<tag k="ssr:stedsnr" v="989213" />
	</node>
	<node id="-645891" lat="60.7885321454" lon="4.83040829469">
		<tag k="amenity" v="ferry_terminal" />
		<tag k="name" v="Sævrøyna ferjekai" />
		<tag k="ssr:stedsnr" v="978596" />
	</node>
	<node id="-645890" lat="60.7950222246" lon="4.8155361055">
		<tag k="name" v="Humresundet" />
		<tag k="natural" v="strait" />
		<tag k="ssr:stedsnr" v="966994" />
	</node>
	<node id="-645889" lat="60.8355729041" lon="4.89063202009">
		<tag k="name" v="Robbersundet" />
		<tag k="natural" v="strait" />
		<tag k="ssr:stedsnr" v="966646" />
	</node>
	<node id="-645888" lat="60.7915749969" lon="4.83818333147">
		<tag k="bridge" v="yes" />
		<tag k="fixme" v="multiple name tags, choose one and add the other to alt_name" />
		<tag k="layer" v="1" />
		<tag k="name" v="Lauvøybrua;Lauvøystraumen" />
		<tag k="ssr:stedsnr" v="957106" />
	</node>
	<node id="-645887" lat="60.7286194482" lon="4.97261110209">
		<tag k="bridge" v="yes" />
		<tag k="layer" v="1" />
		<tag k="name" v="Fosnstraumen" />
		<tag k="ssr:stedsnr" v="957020" />
	</node>
	<node id="-645886" lat="60.812427775" lon="4.80412500262">
		<tag k="name" v="Husøyna" />
		<tag k="place" v="island" />
		<tag k="ssr:stedsnr" v="955993" />
	</node>
	<node id="-645885" lat="60.7507638903" lon="4.91638333686">
		<tag k="name" v="Juvikhaugen" />
		<tag k="natural" v="hill" />
		<tag k="place" v="locality" />
		<tag k="ssr:stedsnr" v="955978" />
	</node>
	<node id="-645884" lat="60.7632916701" lon="4.98891667292">
		<tag k="fixme" v="consider seamark:type=rock or natural=shoal" />
		<tag k="name" v="Grønaskjeret" />
		<tag k="place" v="islet" />
		<tag k="ssr:stedsnr" v="955948" />
	</node>
	<node id="-645883" lat="60.8182888917" lon="4.75882777431">
		<tag k="fixme" v="consider seamark:type=rock or natural=shoal" />
		<tag k="name" v="Søre Hagelskjeret" />
		<tag k="place" v="islet" />
		<tag k="ssr:stedsnr" v="955945" />
	</node>
	<node id="-645882" lat="60.8203027754" lon="4.77443055692">
		<tag k="name" v="Ditlholmen" />
		<tag k="place" v="islet" />
		<tag k="ssr:stedsnr" v="955930" />
	</node>
	<node id="-645881" lat="60.8201972188" lon="4.76923054681">
		<tag k="name" v="Vardholmen" />
		<tag k="place" v="islet" />
		<tag k="ssr:stedsnr" v="955928" />
	</node>
	<node id="-645880" lat="60.8050527779" lon="4.94833611324">
		<tag k="name" v="Solisholmbukta" />
		<tag k="natural" v="bay" />
		<tag k="ssr:stedsnr" v="955907" />
	</node>
	<node id="-645879" lat="60.7994722179" lon="4.9450527763">
		<tag k="name" v="Bøneset" />
		<tag k="natural" v="cape" />
		<tag k="ssr:stedsnr" v="955902" />
	</node>
	<node id="-645878" lat="60.7927277747" lon="5.0172555573">
		<tag k="name" v="Storhaugen" />
		<tag k="natural" v="hill" />
		<tag k="place" v="locality" />
		<tag k="ssr:stedsnr" v="955884" />
	</node>
	<node id="-645877" lat="60.7570833353" lon="4.94427222806">
		<tag k="name" v="Nordra Resest" />
		<tag k="natural" v="ridge" />
		<tag k="place" v="locality" />
		<tag k="ssr:stedsnr" v="955863" />
	</node>
	<node id="-645876" lat="60.7996111077" lon="4.85552499782">
		<tag k="name" v="Skarholmen" />
		<tag k="place" v="islet" />
		<tag k="ssr:stedsnr" v="955855" />
	</node>
	<node id="-645875" lat="60.8160277783" lon="4.80049166772">
		<tag k="name" v="Kastholmsundet" />
		<tag k="natural" v="strait" />
		<tag k="ssr:stedsnr" v="955842" />
	</node>
	<node id="-645874" lat="60.8238361109" lon="4.86049721926">
		<tag k="name" v="Sengeneset" />
		<tag k="natural" v="cape" />
		<tag k="ssr:stedsnr" v="955840" />
	</node>
	<node id="-645873" lat="60.8205416652" lon="4.77835000108">
		<tag k="name" v="Kastevågen" />
		<tag k="natural" v="bay" />
		<tag k="ssr:stedsnr" v="955837" />
	</node>
	<node id="-645872" lat="60.8181742342" lon="4.80479468075">
		<tag k="name" v="Indre Kastholmen" />
		<tag k="place" v="islet" />
		<tag k="ssr:stedsnr" v="955831" />
	</node>
	<node id="-645871" lat="60.7727777776" lon="4.91513611169">
		<tag k="name" v="Leddikhaugen" />
		<tag k="natural" v="hill" />
		<tag k="place" v="locality" />
		<tag k="ssr:stedsnr" v="955241" />
	</node>
	<node id="-645870" lat="60.7842496207" lon="4.91198526624">
		<tag k="name" v="Litletjørna" />
		<tag k="natural" v="water" />
		<tag k="ssr:stedsnr" v="955235" />
	</node>
	<node id="-645869" lat="60.7478000028" lon="4.98415000117">
		<tag k="name" v="Rumpa" />
		<tag k="natural" v="cape" />
		<tag k="ssr:stedsnr" v="955228" />
	</node>
	<node id="-645868" lat="60.7672414384" lon="5.01887094502">
		<tag k="name" v="Vaulevatnet" />
		<tag k="natural" v="water" />
		<tag k="ssr:stedsnr" v="955221" />
		<tag k="water" v="lake" />
	</node>
	<node id="-645867" lat="60.7594194402" lon="4.97846944735">
		<tag k="name" v="Storhaugen" />
		<tag k="natural" v="hill" />
		<tag k="place" v="locality" />
		<tag k="ssr:stedsnr" v="955216" />
	</node>
	<node id="-645866" lat="60.785272224" lon="4.81265833626">
		<tag k="name" v="Nordre Myrbærholmen" />
		<tag k="place" v="islet" />
		<tag k="ssr:stedsnr" v="954927" />
	</node>
	<node id="-645865" lat="60.7664111106" lon="4.94940833524">
		<tag k="name" v="Solend" />
		<tag k="place" v="farm" />
		<tag k="ssr:stedsnr" v="875481" />
	</node>
	<node id="-645864" lat="60.791463886" lon="4.92294721807">
		<tag k="name" v="Sætre" />
		<tag k="place" v="farm" />
		<tag k="ssr:stedsnr" v="875468" />
	</node>
	<node id="-645863" lat="60.7636527819" lon="4.9395583383">
		<tag k="name" v="Førland" />
		<tag k="place" v="farm" />
		<tag k="ssr:stedsnr" v="875459" />
	</node>
	<node id="-645862" lat="60.8039438004" lon="4.92885029346">
		<tag k="fixme" v="consider place=hamlet" />
		<tag k="name" v="Ulvøyna" />
		<tag k="place" v="farm" />
		<tag k="ssr:stedsnr" v="875450" />
	</node>
	<node id="-645861" lat="60.7950277748" lon="4.93148888529">
		<tag k="name" v="Budalen" />
		<tag k="place" v="farm" />
		<tag k="ssr:stedsnr" v="875445" />
	</node>
	<node id="-645860" lat="60.8031632611" lon="4.81191794679">
		<tag k="fixme" v="consider place=hamlet" />
		<tag k="name" v="Sævrøyna" />
		<tag k="place" v="farm" />
		<tag k="ssr:stedsnr" v="874644" />
	</node>
	<node id="-645859" lat="60.78276667" lon="4.97423333221">
		<tag k="name" v="Synnevågen" />
		<tag k="place" v="farm" />
		<tag k="ssr:stedsnr" v="874378" />
	</node>
	<node id="-645858" lat="60.7666916669" lon="4.90515833262">
		<tag k="name" v="Neset" />
		<tag k="place" v="farm" />
		<tag k="ssr:stedsnr" v="858246" />
	</node>
	<node id="-645857" lat="60.7654583304" lon="4.8623305509">
		<tag k="fixme" v="consider seamark:type=rock or natural=shoal" />
		<tag k="name" v="Kvannskjeret" />
		<tag k="place" v="islet" />
		<tag k="ssr:stedsnr" v="858244" />
	</node>
	<node id="-645856" lat="60.7739166681" lon="4.9166972308">
		<tag k="name" v="Kolmyra" />
		<tag k="natural" v="wetland" />
		<tag k="ssr:stedsnr" v="858195" />
	</node>
	<node id="-645855" lat="60.8202555595" lon="4.82476944656">
		<tag k="name" v="Horsøyna" />
		<tag k="place" v="islet" />
		<tag k="ssr:stedsnr" v="858112" />
	</node>
	<node id="-645854" lat="60.8337138884" lon="4.88117777073">
		<tag k="name" v="Beinsholmen" />
		<tag k="place" v="islet" />
		<tag k="ssr:stedsnr" v="858100" />
	</node>
	<node id="-645853" lat="60.8361833311" lon="4.84169999423">
		<tag k="name" v="Svaene" />
		<tag k="natural" v="shoal" />
		<tag k="place" v="locality" />
		<tag k="ssr:stedsnr" v="858095" />
	</node>
	<node id="-645852" lat="60.8271444462" lon="4.78234444289">
		<tag k="name" v="Odden" />
		<tag k="natural" v="cape" />
		<tag k="ssr:stedsnr" v="858091" />
	</node>
	<node id="-645851" lat="60.8119111105" lon="4.85490277073">
		<tag k="fixme" v="consider seamark:type=rock or natural=shoal" />
		<tag k="name" v="Djupefluskjeret" />
		<tag k="place" v="islet" />
		<tag k="ssr:stedsnr" v="858086" />
	</node>
	<node id="-645850" lat="60.7845000032" lon="4.89100000028">
		<tag k="name" v="Hammarsvatnet" />
		<tag k="natural" v="water" />
		<tag k="ssr:stedsnr" v="858029" />
	</node>
	<node id="-645849" lat="60.8061222206" lon="4.87085833197">
		<tag k="name" v="Seisnappholmen" />
		<tag k="place" v="islet" />
		<tag k="ssr:stedsnr" v="845613" />
	</node>
	<node id="-645848" lat="60.8169722211" lon="4.90388055174">
		<tag k="name" v="Rasmusholmane" />
		<tag k="place" v="islet" />
		<tag k="ssr:stedsnr" v="845607" />
	</node>
	<node id="-645847" lat="60.8009972229" lon="4.90448889734">
		<tag k="fixme" v="consider seamark:type=rock or natural=shoal" />
		<tag k="name" v="Tangane" />
		<tag k="place" v="islet" />
		<tag k="ssr:stedsnr" v="845554" />
	</node>
	<node id="-645846" lat="60.7933194441" lon="4.83159166477">
		<tag k="name" v="Porsneset" />
		<tag k="natural" v="cape" />
		<tag k="ssr:stedsnr" v="834999" />
	</node>
	<node id="-645845" lat="60.7613916706" lon="4.91908611383">
		<tag k="name" v="Hornmyra" />
		<tag k="natural" v="wetland" />
		<tag k="ssr:stedsnr" v="834944" />
	</node>
	<node id="-645844" lat="60.7642333327" lon="4.92610833953">
		<tag k="name" v="Skulehusmyra" />
		<tag k="natural" v="wetland" />
		<tag k="ssr:stedsnr" v="834942" />
	</node>
	<node id="-645843" lat="60.7641277769" lon="4.90534167088">
		<tag k="name" v="Skjåneset" />
		<tag k="natural" v="cape" />
		<tag k="ssr:stedsnr" v="834941" />
	</node>
	<node id="-645842" lat="60.7582166687" lon="5.00881389116">
		<tag k="name" v="Breivika" />
		<tag k="natural" v="bay" />
		<tag k="ssr:stedsnr" v="834933" />
	</node>
	<node id="-645841" lat="60.8146027764" lon="4.89654721816">
		<tag k="name" v="Austretangen" />
		<tag k="natural" v="cape" />
		<tag k="ssr:stedsnr" v="834888" />
	</node>
	<node id="-645840" lat="60.7424527802" lon="5.00784999898">
		<tag k="name" v="Grønåsvika" />
		<tag k="natural" v="bay" />
		<tag k="ssr:stedsnr" v="834232" />
	</node>
	<node id="-645839" lat="60.7583833365" lon="5.01539166929">
		<tag k="name" v="Grunnevågen" />
		<tag k="natural" v="bay" />
		<tag k="ssr:stedsnr" v="833899" />
	</node>
	<node id="-645838" lat="60.7606583308" lon="4.90058611978">
		<tag k="name" v="Bergsvika" />
		<tag k="place" v="farm" />
		<tag k="ssr:stedsnr" v="815752" />
	</node>
	<node id="-645837" lat="60.7822333319" lon="4.94614721502">
		<tag k="name" v="Vikane" />
		<tag k="place" v="farm" />
		<tag k="ssr:stedsnr" v="814480" />
	</node>
	<node id="-645836" lat="60.7543305535" lon="4.9793611054">
		<tag k="name" v="Ivarsholmen" />
		<tag k="place" v="islet" />
		<tag k="ssr:stedsnr" v="813828" />
	</node>
	<node id="-645835" lat="60.7930423502" lon="4.81461986663">
		<tag k="name" v="Litle Sveholmen" />
		<tag k="place" v="islet" />
		<tag k="ssr:stedsnr" v="798055" />
	</node>
	<node id="-645834" lat="60.8376527818" lon="4.8988138915">
		<tag k="alt_name" v="Islendingen, låge" />
		<tag k="name" v="Låge Islendingen" />
		<tag k="place" v="islet" />
		<tag k="ssr:stedsnr" v="797106" />
	</node>
	<node id="-645833" lat="60.8181472261" lon="4.83929721315">
		<tag k="fixme" v="consider seamark:type=rock or natural=shoal" />
		<tag k="name" v="Terneskjeret" />
		<tag k="place" v="islet" />
		<tag k="ssr:stedsnr" v="797094" />
	</node>
	<node id="-645832" lat="60.8022027763" lon="4.83058333748">
		<tag k="name" v="Bjørnøyna" />
		<tag k="place" v="islet" />
		<tag k="ssr:stedsnr" v="797048" />
	</node>
	<node id="-645831" lat="60.7774083351" lon="4.93274166063">
		<tag k="fixme" v="consider place=suburb, village or hamlet" />
		<tag k="name" v="Årås" />
		<tag k="place" v="quarter" />
		<tag k="ssr:stedsnr" v="797224" />
	</node>
	<node id="-645830" lat="60.7792249372" lon="4.89213368917">
		<tag k="name" v="Austrheimstjørna" />
		<tag k="natural" v="water" />
		<tag k="ssr:stedsnr" v="797223" />
	</node>
	<node id="-645829" lat="60.7813388866" lon="4.83903610411">
		<tag k="name" v="Niklasholmen" />
		<tag k="place" v="islet" />
		<tag k="ssr:stedsnr" v="797220" />
	</node>
	<node id="-645828" lat="60.7645575694" lon="5.00022558539">
		<tag k="fixme" v="consider place=hamlet" />
		<tag k="name" v="Monslaupen" />
		<tag k="place" v="farm" />
		<tag k="ssr:stedsnr" v="797216" />
	</node>
	<node id="-645827" lat="60.7821305515" lon="4.92791945296">
		<tag k="name" v="Breivika" />
		<tag k="natural" v="bay" />
		<tag k="ssr:stedsnr" v="875847" />
	</node>
	<node id="-645826" lat="60.8113333355" lon="4.78770832818">
		<tag k="name" v="Båteskjernakken" />
		<tag k="place" v="locality" />
		<tag k="seamark:type" v="rock" />
		<tag k="ssr:stedsnr" v="784920" />
	</node>
	<node id="-645825" lat="60.8080611151" lon="4.80332221314">
		<tag k="name" v="Baløyhavnen" />
		<tag k="natural" v="bay" />
		<tag k="ssr:stedsnr" v="784075" />
	</node>
	<node id="-645824" lat="60.798408337" lon="4.92754166257">
		<tag k="name" v="Skolmena" />
		<tag k="place" v="islet" />
		<tag k="ssr:stedsnr" v="783501" />
	</node>
	<node id="-645823" lat="60.8029027812" lon="4.833119452">
		<tag k="name" v="Bjørnøysundet" />
		<tag k="natural" v="strait" />
		<tag k="ssr:stedsnr" v="773987" />
	</node>
	<node id="-645822" lat="60.8093833362" lon="4.81039999988">
		<tag k="name" v="Slissesundholmen" />
		<tag k="place" v="island" />
		<tag k="ssr:stedsnr" v="773981" />
	</node>
	<node id="-645821" lat="60.76550833" lon="4.94037500012">
		<tag k="name" v="Tverrhaugen" />
		<tag k="natural" v="hill" />
		<tag k="place" v="locality" />
		<tag k="ssr:stedsnr" v="773834" />
	</node>
	<node id="-645820" lat="60.8055888886" lon="4.80213611076">
		<tag k="name" v="Baløyhaugen" />
		<tag k="natural" v="hill" />
		<tag k="place" v="locality" />
		<tag k="ssr:stedsnr" v="773977" />
	</node>
	<node id="-645819" lat="60.7916861109" lon="4.83425277333">
		<tag k="name" v="Nordre Lauvøyholmen" />
		<tag k="place" v="islet" />
		<tag k="ssr:stedsnr" v="773976" />
	</node>
	<node id="-645818" lat="60.741980558" lon="5.01139444612">
		<tag k="name" v="Neset" />
		<tag k="natural" v="cape" />
		<tag k="ssr:stedsnr" v="773953" />
	</node>
	<node id="-645817" lat="60.829547222" lon="4.85666388455">
		<tag k="name" v="Torvneset" />
		<tag k="natural" v="cape" />
		<tag k="ssr:stedsnr" v="773931" />
	</node>
	<node id="-645816" lat="60.7653166674" lon="4.88398056091">
		<tag k="name" v="Småholmen" />
		<tag k="place" v="islet" />
		<tag k="ssr:stedsnr" v="772959" />
	</node>
	<node id="-645815" lat="60.8038472239" lon="4.99863610582">
		<tag k="fixme" v="consider natural=peak for the most distinct mountains in the district" />
		<tag k="name" v="Ekornsåta" />
		<tag k="natural" v="hill" />
		<tag k="ssr:stedsnr" v="772883" />
	</node>
	<node id="-645814" lat="60.7627861071" lon="4.9111888985">
		<tag k="name" v="Austrheim" />
		<tag k="place" v="farm" />
		<tag k="ssr:stedsnr" v="875731" />
	</node>
	<node id="-645813" lat="60.7638749966" lon="4.88645278317">
		<tag k="name" v="Lerøyna" />
		<tag k="place" v="farm" />
		<tag k="ssr:stedsnr" v="875716" />
	</node>
	<node id="-645812" lat="60.8294000016" lon="4.80616388605">
		<tag k="name" v="Gavletua" />
		<tag k="natural" v="hill" />
		<tag k="place" v="locality" />
		<tag k="ssr:stedsnr" v="772831" />
	</node>
	<node id="-645811" lat="60.8300777823" lon="4.80457500774">
		<tag k="name" v="Gavlen" />
		<tag k="natural" v="cape" />
		<tag k="ssr:stedsnr" v="772830" />
	</node>
	<node id="-645810" lat="60.8095444414" lon="5.01197221562">
		<tag k="name" v="Ilemyra" />
		<tag k="natural" v="wetland" />
		<tag k="ssr:stedsnr" v="772880" />
	</node>
	<node id="-645809" lat="60.7348638874" lon="4.96632222063">
		<tag k="name" v="Straumskletten" />
		<tag k="natural" v="hill" />
		<tag k="place" v="locality" />
		<tag k="ssr:stedsnr" v="772244" />
	</node>
	<node id="-645808" lat="60.8039055583" lon="5.00827777825">
		<tag k="name" v="Kistehaugane" />
		<tag k="natural" v="hill" />
		<tag k="place" v="locality" />
		<tag k="ssr:stedsnr" v="772220" />
	</node>
	<node id="-645807" lat="60.8092416675" lon="4.96255833576">
		<tag k="name" v="Årvika" />
		<tag k="natural" v="bay" />
		<tag k="ssr:stedsnr" v="764620" />
	</node>
	<node id="-645806" lat="60.7605722257" lon="4.90734166822">
		<tag k="name" v="Bergsvika" />
		<tag k="place" v="farm" />
		<tag k="ssr:stedsnr" v="754736" />
	</node>
	<node id="-645805" lat="60.8266583298" lon="4.88406110259">
		<tag k="name" v="Tuholmen" />
		<tag k="place" v="islet" />
		<tag k="ssr:stedsnr" v="754091" />
	</node>
	<node id="-645804" lat="60.8079722223" lon="4.91097777302">
		<tag k="name" v="Kvalvågen" />
		<tag k="place" v="hamlet" />
		<tag k="ssr:stedsnr" v="753869" />
	</node>
	<node id="-645803" lat="60.8013027812" lon="4.95609444902">
		<tag k="name" v="Ervikholmen" />
		<tag k="place" v="islet" />
		<tag k="ssr:stedsnr" v="753849" />
	</node>
	<node id="-645802" lat="60.7852361088" lon="4.94681389371">
		<tag k="name" v="Kyrkjevika" />
		<tag k="natural" v="bay" />
		<tag k="ssr:stedsnr" v="753840" />
	</node>
	<node id="-645801" lat="60.8055305563" lon="4.93185555733">
		<tag k="name" v="Flotevika" />
		<tag k="natural" v="bay" />
		<tag k="ssr:stedsnr" v="753787" />
	</node>
	<node id="-645800" lat="60.8208808467" lon="4.81706484252">
		<tag k="fixme" v="consider place=hamlet" />
		<tag k="name" v="Krossøyna" />
		<tag k="place" v="farm" />
		<tag k="ssr:stedsnr" v="753583" />
	</node>
	<node id="-645799" lat="60.7592888871" lon="4.89212222054">
		<tag k="name" v="Teistholmen" />
		<tag k="place" v="islet" />
		<tag k="ssr:stedsnr" v="752835" />
	</node>
	<node id="-645798" lat="60.7654991918" lon="5.02642725374">
		<tag k="name" v="Matholmflua" />
		<tag k="natural" v="shoal" />
		<tag k="place" v="locality" />
		<tag k="ssr:stedsnr" v="752167" />
	</node>
	<node id="-645797" lat="60.7868263629" lon="4.98824087007">
		<tag k="name" v="Kalandsosen" />
		<tag k="natural" v="bay" />
		<tag k="ssr:stedsnr" v="752166" />
	</node>
	<node id="-645796" lat="60.8057722255" lon="4.77587222218">
		<tag k="fixme" v="consider seamark:type=rock or natural=shoal" />
		<tag k="name" v="Terneskjeret" />
		<tag k="place" v="islet" />
		<tag k="ssr:stedsnr" v="737080" />
	</node>
	<node id="-645795" lat="60.7979555529" lon="4.8282722295">
		<tag k="name" v="Gogatosen" />
		<tag k="natural" v="strait" />
		<tag k="ssr:stedsnr" v="737047" />
	</node>
	<node id="-645794" lat="60.798425003" lon="4.81517777968">
		<tag k="name" v="Trøvika" />
		<tag k="natural" v="bay" />
		<tag k="ssr:stedsnr" v="737043" />
	</node>
	<node id="-645793" lat="60.7991166673" lon="4.83135278">
		<tag k="name" v="Nordre Lamholmen" />
		<tag k="place" v="islet" />
		<tag k="ssr:stedsnr" v="737041" />
	</node>
	<node id="-645792" lat="60.7945722219" lon="4.89466110449">
		<tag k="name" v="Ulvikane" />
		<tag k="natural" v="bay" />
		<tag k="ssr:stedsnr" v="737036" />
	</node>
	<node id="-645791" lat="60.8030138864" lon="4.97980000081">
		<tag k="fixme" v="consider place=suburb, village or hamlet" />
		<tag k="name" v="Fonnes" />
		<tag k="place" v="quarter" />
		<tag k="ssr:stedsnr" v="737024" />
	</node>
	<node id="-645790" lat="60.7937686938" lon="4.92582468965">
		<tag k="fixme" v="consider place=hamlet" />
		<tag k="name" v="Budalen" />
		<tag k="place" v="farm" />
		<tag k="ssr:stedsnr" v="737010" />
	</node>
	<node id="-645789" lat="60.7966361117" lon="4.94420832438">
		<tag k="name" v="Kilstraumen" />
		<tag k="natural" v="strait" />
		<tag k="ssr:stedsnr" v="737007" />
	</node>
	<node id="-645788" lat="60.774083334" lon="4.95029999797">
		<tag k="name" v="Vaulen" />
		<tag k="natural" v="bay" />
		<tag k="ssr:stedsnr" v="736984" />
	</node>
	<node id="-645787" lat="60.8026194474" lon="4.86201110752">
		<tag k="name" v="Horsøyna" />
		<tag k="place" v="islet" />
		<tag k="ssr:stedsnr" v="736980" />
	</node>
	<node id="-645786" lat="60.8306055524" lon="4.86691945329">
		<tag k="name" v="Kluftholmen" />
		<tag k="place" v="islet" />
		<tag k="ssr:stedsnr" v="651827" />
	</node>
	<node id="-645785" lat="60.8231722263" lon="4.77767500113">
		<tag k="name" v="Kusundet" />
		<tag k="natural" v="strait" />
		<tag k="ssr:stedsnr" v="651826" />
	</node>
	<node id="-645784" lat="60.819265953" lon="4.80535791253">
		<tag k="name" v="Kastholmen" />
		<tag k="place" v="islet" />
		<tag k="ssr:stedsnr" v="651823" />
	</node>
	<node id="-645783" lat="60.8059472215" lon="4.81957500498">
		<tag k="name" v="Høgholmen" />
		<tag k="place" v="islet" />
		<tag k="ssr:stedsnr" v="652000" />
	</node>
	<node id="-645782" lat="60.7911666623" lon="4.85150277114">
		<tag k="name" v="Skagen" />
		<tag k="place" v="island" />
		<tag k="ssr:stedsnr" v="651983" />
	</node>
	<node id="-645781" lat="60.76672222" lon="4.90046666468">
		<tag k="name" v="Austre Purkholmen" />
		<tag k="place" v="islet" />
		<tag k="ssr:stedsnr" v="651973" />
	</node>
	<node id="-645780" lat="60.7475027815" lon="4.92459444925">
		<tag k="name" v="Tjuvvika" />
		<tag k="natural" v="bay" />
		<tag k="ssr:stedsnr" v="651959" />
	</node>
	<node id="-645779" lat="60.7364666684" lon="4.95553889755">
		<tag k="name" v="Store Herslaupen" />
		<tag k="natural" v="hill" />
		<tag k="place" v="locality" />
		<tag k="ssr:stedsnr" v="651247" />
	</node>
	<node id="-645778" lat="60.7394749999" lon="4.99791943953">
		<tag k="name" v="Flatholmen" />
		<tag k="place" v="islet" />
		<tag k="ssr:stedsnr" v="651246" />
	</node>
	<node id="-645777" lat="60.7502333324" lon="4.96679166247">
		<tag k="name" v="Skutevika" />
		<tag k="natural" v="bay" />
		<tag k="ssr:stedsnr" v="651245" />
	</node>
	<node id="-645776" lat="60.7482666673" lon="4.97560277791">
		<tag k="name" v="Notholmen" />
		<tag k="place" v="islet" />
		<tag k="ssr:stedsnr" v="651243" />
	</node>
	<node id="-645775" lat="60.7903999986" lon="4.91643888618">
		<tag k="name" v="Sætrevika" />
		<tag k="natural" v="bay" />
		<tag k="ssr:stedsnr" v="651239" />
	</node>
	<node id="-645774" lat="60.801744444" lon="4.95261667546">
		<tag k="fixme" v="consider seamark:type=rock or natural=shoal" />
		<tag k="name" v="Nordre Ervikskjera" />
		<tag k="place" v="islet" />
		<tag k="ssr:stedsnr" v="651228" />
	</node>
	<node id="-645773" lat="60.773127782" lon="4.98860277449">
		<tag k="fixme" v="consider natural=peak for the most distinct mountains in the district" />
		<tag k="name" v="Storevarden" />
		<tag k="natural" v="hill" />
		<tag k="ssr:stedsnr" v="651225" />
	</node>
	<node id="-645772" lat="60.8127527756" lon="4.99771666401">
		<tag k="name" v="Bøhaugen" />
		<tag k="natural" v="hill" />
		<tag k="place" v="locality" />
		<tag k="ssr:stedsnr" v="651219" />
	</node>
	<node id="-645771" lat="60.8159756077" lon="4.78822029809">
		<tag k="fixme" v="consider seamark:type=rock or natural=shoal" />
		<tag k="name" v="Kniveskjeret" />
		<tag k="place" v="islet" />
		<tag k="ssr:stedsnr" v="650927" />
	</node>
	<node id="-645770" lat="60.7632249964" lon="5.01014721856">
		<tag k="name" v="Bakkavågen" />
		<tag k="natural" v="bay" />
		<tag k="ssr:stedsnr" v="650884" />
	</node>
	<node id="-645769" lat="60.7925777762" lon="4.92397222418">
		<tag k="name" v="Sætre" />
		<tag k="place" v="farm" />
		<tag k="ssr:stedsnr" v="632477" />
	</node>
	<node id="-645767" lat="60.7864888848" lon="4.95667777321">
		<tag k="name" v="Torvneset" />
		<tag k="natural" v="cape" />
		<tag k="ssr:stedsnr" v="631877" />
	</node>
	<node id="-645766" lat="60.8153916684" lon="4.88922500119">
		<tag k="name" v="Børilden" />
		<tag k="place" v="farm" />
		<tag k="ssr:stedsnr" v="631618" />
	</node>
	<node id="-645765" lat="60.7624444423" lon="4.99427500511">
		<tag k="name" v="Havneholmen" />
		<tag k="place" v="islet" />
		<tag k="ssr:stedsnr" v="630802" />
	</node>
	<node id="-645764" lat="60.7354055996" lon="5.00779986505">
		<tag k="name" v="Kjeholmen" />
		<tag k="place" v="islet" />
		<tag k="ssr:stedsnr" v="630185" />
	</node>
	<node id="-645763" lat="60.7566060045" lon="4.94028745077">
		<tag k="name" v="Førlandsvatnet" />
		<tag k="natural" v="water" />
		<tag k="ssr:stedsnr" v="615151" />
	</node>
	<node id="-645762" lat="60.7520861093" lon="4.91245832504">
		<tag k="name" v="Hoplandssjøen" />
		<tag k="place" v="isolated_dwelling" />
		<tag k="ssr:stedsnr" v="615141" />
	</node>
	<node id="-645761" lat="60.7653333341" lon="4.92297500652">
		<tag k="name" v="Solhaugen" />
		<tag k="place" v="farm" />
		<tag k="ssr:stedsnr" v="615188" />
	</node>
	<node id="-645760" lat="60.7593500044" lon="4.91733888828">
		<tag k="name" v="Åsen" />
		<tag k="place" v="farm" />
		<tag k="ssr:stedsnr" v="615187" />
	</node>
	<node id="-645759" lat="60.794711107" lon="4.8208749943">
		<tag k="name" v="Sævrøyna" />
		<tag k="place" v="island" />
		<tag k="ssr:stedsnr" v="615056" />
	</node>
	<node id="-645758" lat="60.7933944469" lon="4.85356388705">
		<tag k="name" v="Stora Børo" />
		<tag k="place" v="islet" />
		<tag k="ssr:stedsnr" v="615054" />
	</node>
	<node id="-645757" lat="60.808583337" lon="4.85953054968">
		<tag k="fixme" v="consider seamark:type=rock or natural=shoal" />
		<tag k="name" v="Øksnesskjera" />
		<tag k="place" v="islet" />
		<tag k="ssr:stedsnr" v="615044" />
	</node>
	<node id="-645756" lat="60.8065169146" lon="4.92528164682">
		<tag k="name" v="Ulvøyna" />
		<tag k="place" v="island" />
		<tag k="ssr:stedsnr" v="615042" />
	</node>
	<node id="-645755" lat="60.7728750017" lon="4.96508332732">
		<tag k="name" v="Hansholmen" />
		<tag k="place" v="islet" />
		<tag k="ssr:stedsnr" v="614197" />
	</node>
	<node id="-645754" lat="60.7888722191" lon="4.88408055761">
		<tag k="name" v="Storenipa" />
		<tag k="natural" v="hill" />
		<tag k="place" v="locality" />
		<tag k="ssr:stedsnr" v="614041" />
	</node>
	<node id="-645753" lat="60.742538891" lon="5.02171389727">
		<tag k="name" v="Leiholmen" />
		<tag k="place" v="islet" />
		<tag k="ssr:stedsnr" v="613770" />
	</node>
	<node id="-645752" lat="60.7331472207" lon="4.98946667048">
		<tag k="name" v="Gjerdsneset" />
		<tag k="natural" v="cape" />
		<tag k="ssr:stedsnr" v="613769" />
	</node>
	<node id="-645751" lat="60.8078805538" lon="4.80967222915">
		<tag k="name" v="Baløykalven" />
		<tag k="place" v="island" />
		<tag k="ssr:stedsnr" v="591994" />
	</node>
	<node id="-645750" lat="60.7867583366" lon="4.8391444391">
		<tag k="name" v="Brattholmen" />
		<tag k="place" v="islet" />
		<tag k="ssr:stedsnr" v="591986" />
	</node>
	<node id="-645749" lat="60.8148361152" lon="4.9016694459">
		<tag k="name" v="Gudmundsholmen" />
		<tag k="place" v="islet" />
		<tag k="ssr:stedsnr" v="591909" />
	</node>
	<node id="-645748" lat="60.8001472204" lon="4.91736667438">
		<tag k="name" v="Kansardalen" />
		<tag k="natural" v="valley" />
		<tag k="place" v="locality" />
		<tag k="ssr:stedsnr" v="591894" />
	</node>
	<node id="-645747" lat="60.8098972266" lon="4.9748444465">
		<tag k="name" v="Hamaltangen" />
		<tag k="natural" v="cape" />
		<tag k="ssr:stedsnr" v="591891" />
	</node>
	<node id="-645746" lat="60.7478499958" lon="4.96497499202">
		<tag k="name" v="Storehaugen" />
		<tag k="natural" v="hill" />
		<tag k="place" v="locality" />
		<tag k="ssr:stedsnr" v="591859" />
	</node>
	<node id="-645745" lat="60.7694805595" lon="5.01587778008">
		<tag k="name" v="Vaulen" />
		<tag k="natural" v="bay" />
		<tag k="ssr:stedsnr" v="590873" />
	</node>
	<node id="-645744" lat="60.7953222244" lon="4.95392222812">
		<tag k="name" v="Stølshaugen" />
		<tag k="natural" v="hill" />
		<tag k="place" v="locality" />
		<tag k="ssr:stedsnr" v="590865" />
	</node>
	<node id="-645743" lat="60.7639416694" lon="4.9483916599">
		<tag k="name" v="Brubrekka" />
		<tag k="natural" v="slope" />
		<tag k="place" v="locality" />
		<tag k="ssr:stedsnr" v="590852" />
	</node>
	<node id="-645742" lat="60.7599138931" lon="4.90268610612">
		<tag k="name" v="Stølshaugen" />
		<tag k="natural" v="hill" />
		<tag k="place" v="locality" />
		<tag k="ssr:stedsnr" v="590843" />
	</node>
	<node id="-645741" lat="60.7917833304" lon="4.959983336">
		<tag k="fixme" v="consider natural=peak for the most distinct mountains in the district" />
		<tag k="name" v="Nipa" />
		<tag k="natural" v="hill" />
		<tag k="ssr:stedsnr" v="590839" />
	</node>
	<node id="-645740" lat="60.8044388919" lon="4.8686999981">
		<tag k="name" v="Høgholmen" />
		<tag k="place" v="islet" />
		<tag k="ssr:stedsnr" v="590832" />
	</node>
	<node id="-645739" lat="60.8322027785" lon="4.86057222482">
		<tag k="name" v="Stykkemyra" />
		<tag k="natural" v="wetland" />
		<tag k="ssr:stedsnr" v="590824" />
	</node>
	<node id="-645738" lat="60.7537361074" lon="4.98182222649">
		<tag k="name" v="Klubben" />
		<tag k="natural" v="hill" />
		<tag k="place" v="locality" />
		<tag k="ssr:stedsnr" v="590961" />
	</node>
	<node id="-645737" lat="60.7635750033" lon="5.01935277574">
		<tag k="name" v="Kuhalen" />
		<tag k="natural" v="hill" />
		<tag k="place" v="locality" />
		<tag k="ssr:stedsnr" v="590959" />
	</node>
	<node id="-645736" lat="60.7819305584" lon="4.95091111727">
		<tag k="name" v="Lyngneset" />
		<tag k="natural" v="cape" />
		<tag k="ssr:stedsnr" v="590228" />
	</node>
	<node id="-645735" lat="60.7676111102" lon="4.90749445118">
		<tag k="name" v="Austrheim" />
		<tag k="place" v="farm" />
		<tag k="ssr:stedsnr" v="572772" />
	</node>
	<node id="-645734" lat="60.7607750005" lon="4.9132416694">
		<tag k="name" v="Austrheim" />
		<tag k="place" v="farm" />
		<tag k="ssr:stedsnr" v="572770" />
	</node>
	<node id="-645733" lat="60.785263892" lon="4.87012499835">
		<tag k="name" v="Rebnor" />
		<tag k="place" v="farm" />
		<tag k="ssr:stedsnr" v="572764" />
	</node>
	<node id="-645732" lat="60.7796479315" lon="4.96880218128">
		<tag k="name" v="Brattholmen" />
		<tag k="place" v="islet" />
		<tag k="ssr:stedsnr" v="571844" />
	</node>
	<node id="-645731" lat="60.7669516689" lon="4.90049044296">
		<tag k="name" v="Purkholmane" />
		<tag k="place" v="islet" />
		<tag k="ssr:stedsnr" v="570830" />
	</node>
	<node id="-645730" lat="60.7354416656" lon="4.95394722048">
		<tag k="name" v="Herslaupsflua" />
		<tag k="natural" v="shoal" />
		<tag k="place" v="locality" />
		<tag k="ssr:stedsnr" v="570823" />
	</node>
	<node id="-645729" lat="60.8127333371" lon="4.75032221554">
		<tag k="name" v="Vårtorskeskallen" />
		<tag k="natural" v="shoal" />
		<tag k="place" v="locality" />
		<tag k="ssr:stedsnr" v="570802" />
	</node>
	<node id="-645728" lat="60.7561997327" lon="4.91491209602">
		<tag k="fixme" v="consider place=hamlet" />
		<tag k="name" v="Hopland" />
		<tag k="place" v="farm" />
		<tag k="ssr:stedsnr" v="570450" />
	</node>
	<node id="-645727" lat="60.7704388899" lon="4.88019721531">
		<tag k="name" v="Austre Lamholmen" />
		<tag k="place" v="islet" />
		<tag k="ssr:stedsnr" v="554264" />
	</node>
	<node id="-645726" lat="60.7677008379" lon="5.00880563783">
		<tag k="fixme" v="consider place=hamlet" />
		<tag k="name" v="Bakka" />
		<tag k="place" v="farm" />
		<tag k="ssr:stedsnr" v="554228" />
	</node>
	<node id="-645725" lat="60.7637277771" lon="4.89570277517">
		<tag k="name" v="Kråka" />
		<tag k="place" v="islet" />
		<tag k="ssr:stedsnr" v="554215" />
	</node>
	<node id="-645724" lat="60.8351666663" lon="4.80703611737">
		<tag k="name" v="Tjørholmrumpa" />
		<tag k="natural" v="shoal" />
		<tag k="place" v="locality" />
		<tag k="ssr:stedsnr" v="554401" />
	</node>
	<node id="-645723" lat="60.8359694447" lon="4.8934666641">
		<tag k="name" v="Skillingsholmane" />
		<tag k="place" v="islet" />
		<tag k="ssr:stedsnr" v="554098" />
	</node>
	<node id="-645722" lat="60.8188361143" lon="4.91938055075">
		<tag k="name" v="Hundevåka" />
		<tag k="old_name" v="Hundevågsholmane;Hundvåkeholmen" />
		<tag k="place" v="islet" />
		<tag k="ssr:stedsnr" v="554090" />
	</node>
	<node id="-645721" lat="60.7588100815" lon="4.98441012735">
		<tag k="fixme" v="consider place=hamlet" />
		<tag k="name" v="Nordre Njøta" />
		<tag k="place" v="farm" />
		<tag k="ssr:stedsnr" v="554179" />
	</node>
	<node id="-645720" lat="60.809355556" lon="4.90481388871">
		<tag k="name" v="Toftegård" />
		<tag k="place" v="farm" />
		<tag k="ssr:stedsnr" v="554029" />
	</node>
	<node id="-645719" lat="60.7895429591" lon="4.88871127823">
		<tag k="name" v="Auretjørna" />
		<tag k="natural" v="water" />
		<tag k="ssr:stedsnr" v="554023" />
	</node>
	<node id="-645718" lat="60.7863916621" lon="4.97583610651">
		<tag k="name" v="Trasthaugen" />
		<tag k="natural" v="hill" />
		<tag k="place" v="locality" />
		<tag k="ssr:stedsnr" v="554018" />
	</node>
	<node id="-645717" lat="60.8161527777" lon="4.77912221736">
		<tag k="fixme" v="consider seamark:type=rock or natural=shoal" />
		<tag k="name" v="Sveholmen" />
		<tag k="place" v="islet" />
		<tag k="ssr:stedsnr" v="554071" />
	</node>
	<node id="-645716" lat="60.7942249993" lon="4.80524723011">
		<tag k="name" v="Ivarsskjeret" />
		<tag k="place" v="islet" />
		<tag k="ssr:stedsnr" v="554053" />
	</node>
	<node id="-645715" lat="60.8370638894" lon="4.7114750052">
		<tag k="name" v="Bøskallen" />
		<tag k="natural" v="shoal" />
		<tag k="place" v="locality" />
		<tag k="ssr:stedsnr" v="553752" />
	</node>
	<node id="-645714" lat="60.7323500043" lon="4.988202772">
		<tag k="name" v="Langetangen" />
		<tag k="natural" v="cape" />
		<tag k="ssr:stedsnr" v="552793" />
	</node>
	<node id="-645713" lat="60.7488068102" lon="4.95907069261">
		<tag k="alt_name" v="Lindåsvatnet" />
		<tag k="name" v="Litlelindåsvatnet" />
		<tag k="natural" v="water" />
		<tag k="ssr:stedsnr" v="552785" />
	</node>
	<node id="-645712" lat="60.8324361064" lon="4.85819443659">
		<tag k="name" v="Stykkevågen" />
		<tag k="natural" v="bay" />
		<tag k="ssr:stedsnr" v="541600" />
	</node>
	<node id="-645711" lat="60.730633333" lon="4.97098334173">
		<tag k="name" v="Fosnstraumen" />
		<tag k="natural" v="strait" />
		<tag k="ssr:stedsnr" v="530937" />
	</node>
	<node id="-645710" lat="60.7627999995" lon="4.89621389341">
		<tag k="name" v="Bergsvikvågen" />
		<tag k="natural" v="bay" />
		<tag k="ssr:stedsnr" v="530929" />
	</node>
	<node id="-645709" lat="60.7593944452" lon="5.01641666077">
		<tag k="name" v="Austneset" />
		<tag k="natural" v="cape" />
		<tag k="ssr:stedsnr" v="530925" />
	</node>
	<node id="-645708" lat="60.7972083332" lon="4.86137499194">
		<tag k="name" v="Båteneset" />
		<tag k="natural" v="cape" />
		<tag k="ssr:stedsnr" v="530922" />
	</node>
	<node id="-645707" lat="60.8305499997" lon="4.85858056333">
		<tag k="name" v="Skarveneset" />
		<tag k="natural" v="cape" />
		<tag k="ssr:stedsnr" v="530918" />
	</node>
	<node id="-645706" lat="60.8086916661" lon="4.92999722148">
		<tag k="name" v="Ulvøysteinen" />
		<tag k="natural" v="stone" />
		<tag k="ssr:stedsnr" v="530889" />
	</node>
	<node id="-645705" lat="60.8097138931" lon="4.91944166953">
		<tag k="name" v="Kvalvågstraumen" />
		<tag k="natural" v="strait" />
		<tag k="ssr:stedsnr" v="530887" />
	</node>
	<node id="-645704" lat="60.8107805537" lon="4.98695834251">
		<tag k="name" v="Leirvågsleitet" />
		<tag k="natural" v="slope" />
		<tag k="place" v="locality" />
		<tag k="ssr:stedsnr" v="530885" />
	</node>
	<node id="-645703" lat="60.7832704226" lon="4.87851786229">
		<tag k="name" v="Lonevatnet" />
		<tag k="natural" v="water" />
		<tag k="ssr:stedsnr" v="530984" />
		<tag k="water" v="lake" />
	</node>
	<node id="-645702" lat="60.7888138856" lon="4.82753056477">
		<tag k="name" v="Halvardneset" />
		<tag k="natural" v="cape" />
		<tag k="ssr:stedsnr" v="530979" />
	</node>
	<node id="-645701" lat="60.800961109" lon="4.98208888498">
		<tag k="name" v="Sjågodthaugen" />
		<tag k="natural" v="hill" />
		<tag k="place" v="locality" />
		<tag k="ssr:stedsnr" v="530878" />
	</node>
	<node id="-645700" lat="60.7895861075" lon="4.98390277762">
		<tag k="name" v="Rotevågen" />
		<tag k="natural" v="bay" />
		<tag k="ssr:stedsnr" v="530863" />
	</node>
	<node id="-645699" lat="60.794697219" lon="4.88428610761">
		<tag k="name" v="Midthaugen" />
		<tag k="natural" v="hill" />
		<tag k="place" v="locality" />
		<tag k="ssr:stedsnr" v="530859" />
	</node>
	<node id="-645698" lat="60.7840000007" lon="4.88371943987">
		<tag k="name" v="Høshaugane" />
		<tag k="natural" v="hill" />
		<tag k="place" v="locality" />
		<tag k="ssr:stedsnr" v="530858" />
	</node>
	<node id="-645697" lat="60.7467111153" lon="4.99193054772">
		<tag k="name" v="Naustneset" />
		<tag k="natural" v="cape" />
		<tag k="ssr:stedsnr" v="530854" />
	</node>
	<node id="-645696" lat="60.7696083323" lon="4.91529443556">
		<tag k="name" v="Slettebakken" />
		<tag k="natural" v="slope" />
		<tag k="place" v="locality" />
		<tag k="ssr:stedsnr" v="530846" />
	</node>
	<node id="-645695" lat="60.7657305568" lon="4.88099166458">
		<tag k="name" v="Grønholmen" />
		<tag k="place" v="islet" />
		<tag k="ssr:stedsnr" v="530845" />
	</node>
	<node id="-645694" lat="60.7803138917" lon="4.98832221509">
		<tag k="name" v="Geitarhaugen" />
		<tag k="natural" v="hill" />
		<tag k="place" v="locality" />
		<tag k="ssr:stedsnr" v="530844" />
	</node>
	<node id="-645693" lat="60.7796972207" lon="4.95861943788">
		<tag k="name" v="Nyhavnsholmen" />
		<tag k="place" v="islet" />
		<tag k="ssr:stedsnr" v="530843" />
	</node>
	<node id="-645692" lat="60.7924027771" lon="4.85825555444">
		<tag k="name" v="Kattegat" />
		<tag k="natural" v="strait" />
		<tag k="ssr:stedsnr" v="530840" />
	</node>
	<node id="-645691" lat="60.7497999968" lon="4.92285556101">
		<tag k="name" v="Litlenyken" />
		<tag k="natural" v="hill" />
		<tag k="place" v="locality" />
		<tag k="ssr:stedsnr" v="530282" />
	</node>
	<node id="-645690" lat="60.7877333292" lon="4.89190277885">
		<tag k="name" v="Ørnekulten" />
		<tag k="natural" v="hill" />
		<tag k="place" v="locality" />
		<tag k="ssr:stedsnr" v="530276" />
	</node>
	<node id="-645689" lat="60.741963892" lon="4.97525832839">
		<tag k="fixme" v="consider natural=peak for the most distinct mountains in the district" />
		<tag k="name" v="Nipen" />
		<tag k="natural" v="hill" />
		<tag k="ssr:stedsnr" v="530274" />
	</node>
	<node id="-645688" lat="60.7728055592" lon="5.01094445247">
		<tag k="fixme" v="consider seamark:type=rock or natural=shoal" />
		<tag k="name" v="Flateskjeret" />
		<tag k="place" v="islet" />
		<tag k="ssr:stedsnr" v="530268" />
	</node>
	<node id="-645687" lat="60.8100222212" lon="4.9575555492">
		<tag k="name" v="Grunnholmen" />
		<tag k="place" v="islet" />
		<tag k="ssr:stedsnr" v="530257" />
	</node>
	<node id="-645686" lat="60.8113305593" lon="4.97403888705">
		<tag k="fixme" v="consider seamark:type=rock or natural=shoal" />
		<tag k="name" v="Måseklubben" />
		<tag k="place" v="islet" />
		<tag k="ssr:stedsnr" v="530247" />
	</node>
	<node id="-645685" lat="60.7921777801" lon="4.87662777343">
		<tag k="name" v="Krossmyra" />
		<tag k="natural" v="wetland" />
		<tag k="ssr:stedsnr" v="529945" />
	</node>
	<node id="-645684" lat="60.7994055548" lon="5.03243056177">
		<tag k="name" v="Austrerindane" />
		<tag k="natural" v="ridge" />
		<tag k="place" v="locality" />
		<tag k="ssr:stedsnr" v="529958" />
	</node>
	<node id="-645683" lat="60.8067444442" lon="5.00871945022">
		<tag k="name" v="Høghaugane" />
		<tag k="natural" v="hill" />
		<tag k="place" v="locality" />
		<tag k="ssr:stedsnr" v="529900" />
	</node>
	<node id="-645682" lat="60.8230444478" lon="4.8174861112">
		<tag k="name" v="Håvika" />
		<tag k="natural" v="bay" />
		<tag k="ssr:stedsnr" v="522786" />
	</node>
	<node id="-645681" lat="60.8289666667" lon="4.8480555544">
		<tag k="name" v="Vestreflua" />
		<tag k="natural" v="shoal" />
		<tag k="place" v="locality" />
		<tag k="ssr:stedsnr" v="522772" />
	</node>
	<node id="-645680" lat="60.8007638919" lon="4.92847777393">
		<tag k="name" v="Skjelvika" />
		<tag k="natural" v="bay" />
		<tag k="ssr:stedsnr" v="522722" />
	</node>
	<node id="-645679" lat="60.7926333326" lon="4.78183333174">
		<tag k="name" v="Tverrflua" />
		<tag k="natural" v="shoal" />
		<tag k="place" v="locality" />
		<tag k="ssr:stedsnr" v="521856" />
	</node>
	<node id="-645678" lat="60.788474997" lon="4.85673889037">
		<tag k="name" v="Bøneset" />
		<tag k="natural" v="cape" />
		<tag k="ssr:stedsnr" v="433981" />
	</node>
	<node id="-645677" lat="60.7867499975" lon="4.83394165833">
		<tag k="name" v="Skaget" />
		<tag k="natural" v="cape" />
		<tag k="ssr:stedsnr" v="433980" />
	</node>
	<node id="-645676" lat="60.7961305527" lon="4.8148888972">
		<tag k="name" v="Humresundholmen" />
		<tag k="place" v="islet" />
		<tag k="ssr:stedsnr" v="434045" />
	</node>
	<node id="-645675" lat="60.7755166632" lon="5.00839722912">
		<tag k="name" v="Bakkøysundet" />
		<tag k="natural" v="strait" />
		<tag k="ssr:stedsnr" v="433190" />
	</node>
	<node id="-645674" lat="60.8138750032" lon="5.0131249941">
		<tag k="name" v="Dyrøyna" />
		<tag k="natural" v="cape" />
		<tag k="ssr:stedsnr" v="433095" />
	</node>
	<node id="-645672" lat="60.8071888889" lon="4.78475277233">
		<tag k="name" v="Trettholmen" />
		<tag k="place" v="islet" />
		<tag k="ssr:stedsnr" v="433090" />
	</node>
	<node id="-645671" lat="60.8157833368" lon="4.78344167304">
		<tag k="fixme" v="consider seamark:type=rock or natural=shoal" />
		<tag k="name" v="Høgholmen" />
		<tag k="place" v="islet" />
		<tag k="ssr:stedsnr" v="433073" />
	</node>
	<node id="-645670" lat="60.7968444483" lon="4.776566671">
		<tag k="name" v="Skjåflua" />
		<tag k="natural" v="shoal" />
		<tag k="place" v="locality" />
		<tag k="ssr:stedsnr" v="433067" />
	</node>
	<node id="-645669" lat="60.7953416659" lon="4.77657778378">
		<tag k="name" v="Storeboen" />
		<tag k="natural" v="shoal" />
		<tag k="place" v="locality" />
		<tag k="ssr:stedsnr" v="433066" />
	</node>
	<node id="-645667" lat="60.8010722196" lon="4.86420277712">
		<tag k="name" v="Øksnesvågen" />
		<tag k="natural" v="bay" />
		<tag k="ssr:stedsnr" v="433046" />
	</node>
	<node id="-645666" lat="60.8076416696" lon="4.84616110718">
		<tag k="name" v="Stussøyna" />
		<tag k="place" v="islet" />
		<tag k="ssr:stedsnr" v="433044" />
	</node>
	<node id="-645665" lat="60.746241663" lon="4.99815000402">
		<tag k="name" v="Naustneset" />
		<tag k="natural" v="cape" />
		<tag k="ssr:stedsnr" v="431801" />
	</node>
	<node id="-645664" lat="60.7384999985" lon="4.94630833399">
		<tag k="name" v="Prestholmen" />
		<tag k="place" v="islet" />
		<tag k="ssr:stedsnr" v="431798" />
	</node>
	<node id="-645663" lat="60.7374305594" lon="4.99845834155">
		<tag k="name" v="Kjeøyna" />
		<tag k="place" v="island" />
		<tag k="ssr:stedsnr" v="431796" />
	</node>
	<node id="-645662" lat="60.8070611143" lon="4.82415834081">
		<tag k="name" v="Sivertholmen" />
		<tag k="place" v="islet" />
		<tag k="ssr:stedsnr" v="409998" />
	</node>
	<node id="-645661" lat="60.7924194453" lon="4.92778888341">
		<tag k="name" v="Klubbeneset" />
		<tag k="natural" v="cape" />
		<tag k="ssr:stedsnr" v="409850" />
	</node>
	<node id="-645660" lat="60.8199833363" lon="4.8913055483">
		<tag k="fixme" v="consider seamark:type=rock or natural=shoal" />
		<tag k="name" v="Dyneskjera" />
		<tag k="place" v="islet" />
		<tag k="ssr:stedsnr" v="409225" />
	</node>
	<node id="-645659" lat="60.7615277804" lon="4.88070554936">
		<tag k="name" v="Vaulen" />
		<tag k="natural" v="bay" />
		<tag k="ssr:stedsnr" v="408978" />
	</node>
	<node id="-645658" lat="60.7630222259" lon="4.86911110217">
		<tag k="name" v="Knoppsteinen" />
		<tag k="natural" v="stone" />
		<tag k="ssr:stedsnr" v="408968" />
	</node>
	<node id="-645657" lat="60.8251055557" lon="4.90390277779">
		<tag k="name" v="Små Krabbholmen" />
		<tag k="place" v="islet" />
		<tag k="ssr:stedsnr" v="408951" />
	</node>
	<node id="-645656" lat="60.7863333326" lon="4.91478610712">
		<tag k="name" v="Gullsmedneset" />
		<tag k="natural" v="cape" />
		<tag k="ssr:stedsnr" v="408943" />
	</node>
	<node id="-645655" lat="60.7959916649" lon="4.97228333427">
		<tag k="name" v="Vadmyra" />
		<tag k="natural" v="wetland" />
		<tag k="ssr:stedsnr" v="408939" />
	</node>
	<node id="-645654" lat="60.7629999972" lon="4.85755278257">
		<tag k="name" v="Flatholmen" />
		<tag k="place" v="islet" />
		<tag k="ssr:stedsnr" v="408837" />
	</node>
	<node id="-645653" lat="60.7803361145" lon="4.90716666306">
		<tag k="name" v="Langedalshaugen" />
		<tag k="natural" v="hill" />
		<tag k="place" v="locality" />
		<tag k="ssr:stedsnr" v="408254" />
	</node>
	<node id="-645652" lat="60.7615388863" lon="5.01549444795">
		<tag k="name" v="Åløypet" />
		<tag k="place" v="islet" />
		<tag k="ssr:stedsnr" v="408229" />
	</node>
	<node id="-645651" lat="60.7411722186" lon="5.01723333795">
		<tag k="name" v="Støvlefluholmen" />
		<tag k="place" v="islet" />
		<tag k="ssr:stedsnr" v="408228" />
	</node>
	<node id="-645650" lat="60.7620027745" lon="5.00430554963">
		<tag k="name" v="Hellhaugen" />
		<tag k="natural" v="hill" />
		<tag k="place" v="locality" />
		<tag k="ssr:stedsnr" v="408223" />
	</node>
	<node id="-645649" lat="60.7653583355" lon="4.98421111543">
		<tag k="fixme" v="consider seamark:type=rock or natural=shoal" />
		<tag k="name" v="Fella" />
		<tag k="place" v="islet" />
		<tag k="ssr:stedsnr" v="408222" />
	</node>
	<node id="-645648" lat="60.7895749976" lon="4.86621944212">
		<tag k="name" v="Rebnor" />
		<tag k="place" v="farm" />
		<tag k="ssr:stedsnr" v="390732" />
	</node>
	<node id="-645647" lat="60.762416668" lon="4.97325833722">
		<tag k="name" v="Austre Kalvsundet" />
		<tag k="natural" v="strait" />
		<tag k="ssr:stedsnr" v="388828" />
	</node>
	<node id="-645646" lat="60.812044949" lon="4.9703126049">
		<tag k="fixme" v="consider seamark:type=rock or natural=shoal" />
		<tag k="name" v="Vågsskjeret" />
		<tag k="place" v="islet" />
		<tag k="ssr:stedsnr" v="388795" />
	</node>
	<node id="-645645" lat="60.8214555523" lon="4.81649166919">
		<tag k="name" v="Krossøyna" />
		<tag k="place" v="farm" />
		<tag k="ssr:stedsnr" v="388585" />
	</node>
	<node id="-645644" lat="60.8030694439" lon="4.98528888731">
		<tag k="name" v="Fonnes" />
		<tag k="place" v="farm" />
		<tag k="ssr:stedsnr" v="388338" />
	</node>
	<node id="-645643" lat="60.7427944256" lon="5.01123382532">
		<tag k="name" v="Njøteneset" />
		<tag k="natural" v="cape" />
		<tag k="ssr:stedsnr" v="388150" />
	</node>
	<node id="-645641" lat="60.8342638862" lon="4.76260000747">
		<tag k="name" v="Rongeværskallen" />
		<tag k="natural" v="shoal" />
		<tag k="place" v="locality" />
		<tag k="ssr:stedsnr" v="373377" />
	</node>
	<node id="-645640" lat="60.840483335" lon="4.77616110304">
		<tag k="name" v="Gudmundsskallen" />
		<tag k="natural" v="shoal" />
		<tag k="place" v="locality" />
		<tag k="ssr:stedsnr" v="373086" />
	</node>
	<node id="-645639" lat="60.7940049612" lon="4.82197850095">
		<tag k="name" v="Storavatnet" />
		<tag k="natural" v="water" />
		<tag k="ssr:stedsnr" v="373047" />
	</node>
	<node id="-645638" lat="60.7905555598" lon="4.83881388195">
		<tag k="name" v="Lauvøystraumen" />
		<tag k="natural" v="strait" />
		<tag k="ssr:stedsnr" v="373041" />
	</node>
	<node id="-645637" lat="60.7933861132" lon="4.87687499465">
		<tag k="name" v="Stølshaugen" />
		<tag k="natural" v="hill" />
		<tag k="place" v="locality" />
		<tag k="ssr:stedsnr" v="373036" />
	</node>
	<node id="-645636" lat="60.7720694487" lon="4.82667499933">
		<tag k="name" v="Kyrkjeflua" />
		<tag k="natural" v="shoal" />
		<tag k="place" v="locality" />
		<tag k="ssr:stedsnr" v="372248" />
	</node>
	<node id="-645635" lat="60.8037000026" lon="4.80950833931">
		<tag k="name" v="Sævrøysundet" />
		<tag k="natural" v="strait" />
		<tag k="ssr:stedsnr" v="372051" />
	</node>
	<node id="-645634" lat="60.8070600212" lon="4.91246261026">
		<tag k="fixme" v="consider place=hamlet" />
		<tag k="name" v="Kvalvågen" />
		<tag k="place" v="farm" />
		<tag k="ssr:stedsnr" v="372043" />
	</node>
	<node id="-645633" lat="60.8033944423" lon="4.91351111147">
		<tag k="name" v="Makrellevågen" />
		<tag k="natural" v="bay" />
		<tag k="ssr:stedsnr" v="372042" />
	</node>
	<node id="-645632" lat="60.791836111" lon="4.90756945115">
		<tag k="name" v="Åråsvågen" />
		<tag k="natural" v="bay" />
		<tag k="ssr:stedsnr" v="372034" />
	</node>
	<node id="-645631" lat="60.7326277782" lon="4.99920555722">
		<tag k="name" v="Lindåsflua" />
		<tag k="natural" v="shoal" />
		<tag k="place" v="locality" />
		<tag k="ssr:stedsnr" v="370789" />
	</node>
	<node id="-645630" lat="60.7904277818" lon="4.81734443599">
		<tag k="name" v="Høgholmen" />
		<tag k="place" v="islet" />
		<tag k="ssr:stedsnr" v="348978" />
	</node>
	<node id="-645629" lat="60.7438027818" lon="5.0026000057">
		<tag k="name" v="Otrevika" />
		<tag k="natural" v="bay" />
		<tag k="ssr:stedsnr" v="348944" />
	</node>
	<node id="-645628" lat="60.8197695538" lon="4.75995260037">
		<tag k="fixme" v="consider seamark:type=rock or natural=shoal" />
		<tag k="name" v="Nordre Hagelskjeret" />
		<tag k="place" v="islet" />
		<tag k="ssr:stedsnr" v="348939" />
	</node>
	<node id="-645627" lat="60.7624277739" lon="4.91125278088">
		<tag k="name" v="Lia" />
		<tag k="natural" v="slope" />
		<tag k="place" v="locality" />
		<tag k="ssr:stedsnr" v="348933" />
	</node>
	<node id="-645626" lat="60.766216664" lon="4.97301111666">
		<tag k="name" v="Ilnesvågen" />
		<tag k="natural" v="bay" />
		<tag k="ssr:stedsnr" v="348833" />
	</node>
	<node id="-645625" lat="60.7687055548" lon="4.90739999454">
		<tag k="name" v="Finnsvågen" />
		<tag k="natural" v="bay" />
		<tag k="ssr:stedsnr" v="348829" />
	</node>
	<node id="-645624" lat="60.8055444492" lon="4.83161945244">
		<tag k="name" v="Langøysundet" />
		<tag k="natural" v="strait" />
		<tag k="ssr:stedsnr" v="348813" />
	</node>
	<node id="-645623" lat="60.8061972198" lon="4.90436666262">
		<tag k="name" v="Seteneset" />
		<tag k="natural" v="cape" />
		<tag k="ssr:stedsnr" v="348875" />
	</node>
	<node id="-645622" lat="60.740405554" lon="4.99139722717">
		<tag k="name" v="Steinholmane" />
		<tag k="place" v="islet" />
		<tag k="ssr:stedsnr" v="348230" />
	</node>
	<node id="-645621" lat="60.8182861123" lon="4.78398610778">
		<tag k="name" v="Kalvetrætåna" />
		<tag k="natural" v="cape" />
		<tag k="ssr:stedsnr" v="347949" />
	</node>
	<node id="-645620" lat="60.8170222256" lon="4.92241111332">
		<tag k="name" v="Hundevåkeflua" />
		<tag k="natural" v="shoal" />
		<tag k="place" v="locality" />
		<tag k="ssr:stedsnr" v="340685" />
	</node>
	<node id="-645619" lat="60.7651916695" lon="4.95412778053">
		<tag k="name" v="Solend" />
		<tag k="place" v="farm" />
		<tag k="ssr:stedsnr" v="329484" />
	</node>
	<node id="-645618" lat="60.7887027812" lon="4.92660554981">
		<tag k="name" v="Sætre" />
		<tag k="place" v="farm" />
		<tag k="ssr:stedsnr" v="329461" />
	</node>
	<node id="-645617" lat="60.7702660081" lon="4.93320411617">
		<tag k="name" v="Hjertås" />
		<tag k="place" v="farm" />
		<tag k="ssr:stedsnr" v="329449" />
	</node>
	<node id="-645616" lat="60.8185611119" lon="4.90916388798">
		<tag k="name" v="Stavesundet" />
		<tag k="natural" v="strait" />
		<tag k="ssr:stedsnr" v="328735" />
	</node>
	<node id="-645615" lat="60.8176055537" lon="4.87262222521">
		<tag k="name" v="Børilden" />
		<tag k="place" v="farm" />
		<tag k="ssr:stedsnr" v="328615" />
	</node>
	<node id="-645614" lat="60.8117861123" lon="4.80854166462">
		<tag k="name" v="Krossøyna" />
		<tag k="place" v="farm" />
		<tag k="ssr:stedsnr" v="328609" />
	</node>
	<node id="-645613" lat="60.7561611129" lon="4.91839444763">
		<tag k="name" v="Hopland" />
		<tag k="place" v="farm" />
		<tag k="ssr:stedsnr" v="328473" />
	</node>
	<node id="-645612" lat="60.8063527784" lon="4.98293888038">
		<tag k="name" v="Fonnes" />
		<tag k="place" v="farm" />
		<tag k="ssr:stedsnr" v="327350" />
	</node>
	<node id="-645611" lat="60.7959527738" lon="4.94998889371">
		<tag k="name" v="Utkilen" />
		<tag k="place" v="farm" />
		<tag k="ssr:stedsnr" v="327347" />
	</node>
	<node id="-645610" lat="60.7815277823" lon="4.97290000179">
		<tag k="name" v="Synnevågen" />
		<tag k="place" v="farm" />
		<tag k="ssr:stedsnr" v="327340" />
	</node>
	<node id="-645609" lat="60.7391113102" lon="4.99778371066">
		<tag k="name" v="Flatholmen" />
		<tag k="place" v="islet" />
		<tag k="ssr:stedsnr" v="327179" />
	</node>
	<node id="-645608" lat="60.7774777773" lon="4.9426305631">
		<tag k="name" v="Stonghaugen" />
		<tag k="natural" v="hill" />
		<tag k="place" v="locality" />
		<tag k="ssr:stedsnr" v="312218" />
	</node>
	<node id="-645606" lat="60.7710555521" lon="4.97257778256">
		<tag k="name" v="Magnholmen" />
		<tag k="place" v="islet" />
		<tag k="ssr:stedsnr" v="312185" />
	</node>
	<node id="-645605" lat="60.7744338703" lon="4.93673609882">
		<tag k="name" v="Åråsvatnet" />
		<tag k="natural" v="water" />
		<tag k="ssr:stedsnr" v="312181" />
	</node>
	<node id="-645604" lat="60.7684694415" lon="4.94275276953">
		<tag k="name" v="Hjartåselva" />
		<tag k="ssr:stedsnr" v="312178" />
		<tag k="waterway" v="stream" />
	</node>
	<node id="-645603" lat="60.7560166684" lon="5.03391110481">
		<tag k="name" v="Torskhelleren" />
		<tag k="natural" v="cape" />
		<tag k="ssr:stedsnr" v="312158" />
	</node>
	<node id="-645602" lat="60.7511222213" lon="4.96264165973">
		<tag k="name" v="Førlandsvågen" />
		<tag k="natural" v="bay" />
		<tag k="ssr:stedsnr" v="312151" />
	</node>
	<node id="-645601" lat="60.7565361148" lon="4.97105554617">
		<tag k="name" v="Fugletuene" />
		<tag k="natural" v="hill" />
		<tag k="place" v="locality" />
		<tag k="ssr:stedsnr" v="312148" />
	</node>
	<node id="-645600" lat="60.757561112" lon="4.99974999959">
		<tag k="name" v="Njøtøyna" />
		<tag k="place" v="islet" />
		<tag k="ssr:stedsnr" v="312146" />
	</node>
	<node id="-645599" lat="60.8057083342" lon="4.79157778209">
		<tag k="name" v="Brattholmen" />
		<tag k="place" v="islet" />
		<tag k="ssr:stedsnr" v="312077" />
	</node>
	<node id="-645598" lat="60.8180055527" lon="4.77585276921">
		<tag k="name" v="Sauøyna" />
		<tag k="place" v="islet" />
		<tag k="ssr:stedsnr" v="312063" />
	</node>
	<node id="-645597" lat="60.7988333313" lon="4.78705278139">
		<tag k="name" v="Lyngoksen" />
		<tag k="place" v="island" />
		<tag k="ssr:stedsnr" v="312059" />
	</node>
	<node id="-645596" lat="60.7993277784" lon="4.8476305542">
		<tag k="name" v="Øyholmen" />
		<tag k="place" v="islet" />
		<tag k="ssr:stedsnr" v="312054" />
	</node>
	<node id="-645595" lat="60.7993500006" lon="4.91602777201">
		<tag k="name" v="Kviteberget" />
		<tag k="natural" v="hill" />
		<tag k="place" v="locality" />
		<tag k="ssr:stedsnr" v="312019" />
	</node>
	<node id="-645594" lat="60.8233750028" lon="4.79913611807">
		<tag k="name" v="Steinsøyna" />
		<tag k="place" v="islet" />
		<tag k="ssr:stedsnr" v="311152" />
	</node>
	<node id="-645593" lat="60.8253138915" lon="4.77930555604">
		<tag k="name" v="Kuøyna" />
		<tag k="place" v="island" />
		<tag k="ssr:stedsnr" v="311146" />
	</node>
	<node id="-645592" lat="60.8215555541" lon="4.75330833625">
		<tag k="fixme" v="consider seamark:type=rock or natural=shoal" />
		<tag k="name" v="Nordreskjeret" />
		<tag k="place" v="islet" />
		<tag k="ssr:stedsnr" v="311144" />
	</node>
	<node id="-645591" lat="60.8281388855" lon="4.87265000893">
		<tag k="name" v="Klufta" />
		<tag k="natural" v="strait" />
		<tag k="ssr:stedsnr" v="311141" />
	</node>
	<node id="-645590" lat="60.8258222178" lon="4.81544721631">
		<tag k="name" v="Grjotvika" />
		<tag k="natural" v="bay" />
		<tag k="ssr:stedsnr" v="311136" />
	</node>
	<node id="-645589" lat="60.8333777807" lon="4.80790000284">
		<tag k="alt_name" v="Tjørholmen, nordre" />
		<tag k="name" v="Nordre Tjørholmen" />
		<tag k="place" v="islet" />
		<tag k="ssr:stedsnr" v="311135" />
	</node>
	<node id="-645588" lat="60.8315305546" lon="4.81126944403">
		<tag k="alt_name" v="Tjørholmen, s" />
		<tag k="name" v="Søre Tjørholmen" />
		<tag k="place" v="islet" />
		<tag k="ssr:stedsnr" v="311134" />
	</node>
	<node id="-645587" lat="60.7393416691" lon="4.98432499111">
		<tag k="name" v="Naustnesvågen" />
		<tag k="natural" v="bay" />
		<tag k="ssr:stedsnr" v="310777" />
	</node>
	<node id="-645586" lat="60.73773611" lon="5.02875833095">
		<tag k="name" v="Stridsholmen" />
		<tag k="place" v="islet" />
		<tag k="ssr:stedsnr" v="310776" />
	</node>
	<node id="-645585" lat="60.7603750008" lon="4.91145834085">
		<tag k="name" v="Bergsvika" />
		<tag k="place" v="farm" />
		<tag k="ssr:stedsnr" v="208764" />
	</node>
	<node id="-645584" lat="60.784822218" lon="4.86876389328">
		<tag k="name" v="Rebnor" />
		<tag k="place" v="farm" />
		<tag k="ssr:stedsnr" v="208758" />
	</node>
	<node id="-645583" lat="60.7876551739" lon="4.86621882776">
		<tag k="fixme" v="consider place=hamlet" />
		<tag k="name" v="Rebnor" />
		<tag k="place" v="farm" />
		<tag k="ssr:stedsnr" v="208754" />
	</node>
	<node id="-645582" lat="60.7998583303" lon="4.86703332678">
		<tag k="name" v="Øksneset" />
		<tag k="natural" v="cape" />
		<tag k="ssr:stedsnr" v="208617" />
	</node>
	<node id="-645581" lat="60.7995194467" lon="4.9395972278">
		<tag k="name" v="Trollholmen" />
		<tag k="place" v="islet" />
		<tag k="ssr:stedsnr" v="207861" />
	</node>
	<node id="-645580" lat="60.7930638872" lon="4.89937778127">
		<tag k="name" v="Helleren" />
		<tag k="natural" v="cape" />
		<tag k="ssr:stedsnr" v="207855" />
	</node>
	<node id="-645579" lat="60.7865611103" lon="4.94603888958">
		<tag k="name" v="Viksholmane" />
		<tag k="place" v="islet" />
		<tag k="ssr:stedsnr" v="207853" />
	</node>
	<node id="-645578" lat="60.802069441" lon="4.81955833711">
		<tag k="name" v="Sævrøyna" />
		<tag k="place" v="farm" />
		<tag k="ssr:stedsnr" v="207617" />
	</node>
	<node id="-645577" lat="60.7538861099" lon="4.91684166574">
		<tag k="name" v="Hopland" />
		<tag k="place" v="farm" />
		<tag k="ssr:stedsnr" v="207483" />
	</node>
	<node id="-645576" lat="60.7569944399" lon="4.92364721829">
		<tag k="name" v="Hopland" />
		<tag k="place" v="farm" />
		<tag k="ssr:stedsnr" v="207480" />
	</node>
	<node id="-645575" lat="60.7630805531" lon="4.95058611426">
		<tag k="name" v="Solend" />
		<tag k="place" v="farm" />
		<tag k="ssr:stedsnr" v="207443" />
	</node>
	<node id="-645574" lat="60.7863805514" lon="4.94199999457">
		<tag k="name" v="Sætre" />
		<tag k="place" v="farm" />
		<tag k="ssr:stedsnr" v="207433" />
	</node>
	<node id="-645573" lat="60.7697388875" lon="4.9039444467">
		<tag k="name" v="Træsbakken" />
		<tag k="place" v="farm" />
		<tag k="ssr:stedsnr" v="206839" />
	</node>
	<node id="-645572" lat="60.7629027791" lon="4.88092777839">
		<tag k="name" v="Knoppsteinen" />
		<tag k="natural" v="hill" />
		<tag k="place" v="locality" />
		<tag k="ssr:stedsnr" v="206837" />
	</node>
	<node id="-645571" lat="60.7628805581" lon="5.00156111709">
		<tag k="name" v="Monslaupen" />
		<tag k="place" v="farm" />
		<tag k="ssr:stedsnr" v="206424" />
	</node>
	<node id="-645570" lat="60.7500583331" lon="4.9906472149">
		<tag k="name" v="Søre Njøta" />
		<tag k="place" v="farm" />
		<tag k="ssr:stedsnr" v="206422" />
	</node>
	<node id="-645569" lat="60.805352775" lon="4.98133611151">
		<tag k="name" v="Fonnes" />
		<tag k="place" v="farm" />
		<tag k="ssr:stedsnr" v="206350" />
	</node>
	<node id="-645567" lat="60.7656027773" lon="4.89145555287">
		<tag k="name" v="Lerøysundet" />
		<tag k="natural" v="strait" />
		<tag k="ssr:stedsnr" v="190245" />
	</node>
	<node id="-645566" lat="60.7763444487" lon="4.90094722345">
		<tag k="name" v="Jamnhaugen" />
		<tag k="natural" v="hill" />
		<tag k="place" v="locality" />
		<tag k="ssr:stedsnr" v="190227" />
	</node>
	<node id="-645565" lat="60.7786999988" lon="4.8772750085">
		<tag k="name" v="Grønåsen" />
		<tag k="natural" v="hill" />
		<tag k="place" v="locality" />
		<tag k="ssr:stedsnr" v="190224" />
	</node>
	<node id="-645564" lat="60.7548194486" lon="4.9004250076">
		<tag k="name" v="Hestneset" />
		<tag k="natural" v="cape" />
		<tag k="ssr:stedsnr" v="190166" />
	</node>
	<node id="-645563" lat="60.7528305521" lon="4.94995000519">
		<tag k="name" v="Solvang" />
		<tag k="place" v="farm" />
		<tag k="ssr:stedsnr" v="190163" />
	</node>
	<node id="-645561" lat="60.8173184357" lon="4.79224060721">
		<tag k="name" v="Rongeværosen" />
		<tag k="natural" v="strait" />
		<tag k="ssr:stedsnr" v="190133" />
	</node>
	<node id="-645560" lat="60.8164777802" lon="4.75055833431">
		<tag k="name" v="Gygra" />
		<tag k="natural" v="shoal" />
		<tag k="place" v="locality" />
		<tag k="ssr:stedsnr" v="190129" />
	</node>
	<node id="-645559" lat="60.8234000028" lon="4.77011388405">
		<tag k="name" v="Skagøyna" />
		<tag k="place" v="islet" />
		<tag k="ssr:stedsnr" v="190127" />
	</node>
	<node id="-645558" lat="60.8211999994" lon="4.84700277353">
		<tag k="name" v="Børildosen" />
		<tag k="natural" v="strait" />
		<tag k="ssr:stedsnr" v="190120" />
	</node>
	<node id="-645557" lat="60.8262055596" lon="4.86410277886">
		<tag k="name" v="Torvenesvågen" />
		<tag k="natural" v="bay" />
		<tag k="ssr:stedsnr" v="190118" />
	</node>
	<node id="-645556" lat="60.8160194428" lon="4.84635000885">
		<tag k="name" v="Lyngholmen" />
		<tag k="place" v="islet" />
		<tag k="ssr:stedsnr" v="190096" />
	</node>
	<node id="-645554" lat="60.8157805547" lon="4.83669166649">
		<tag k="alt_name" v="Haugklubben" />
		<tag k="name" v="Nordre Haugklubben" />
		<tag k="place" v="islet" />
		<tag k="ssr:stedsnr" v="190076" />
	</node>
	<node id="-645553" lat="60.8026249967" lon="4.83566110976">
		<tag k="name" v="Litle Bjørnøyna" />
		<tag k="place" v="islet" />
		<tag k="ssr:stedsnr" v="190053" />
	</node>
	<node id="-645552" lat="60.8060000018" lon="4.90028055328">
		<tag k="name" v="Skjåholmen" />
		<tag k="place" v="islet" />
		<tag k="ssr:stedsnr" v="190047" />
	</node>
	<node id="-645551" lat="60.8036802443" lon="4.96743489656">
		<tag k="name" v="Purkebolsvatnet" />
		<tag k="natural" v="water" />
		<tag k="ssr:stedsnr" v="190040" />
	</node>
	<node id="-645550" lat="60.7875999983" lon="4.90061111535">
		<tag k="name" v="Ulvikevatnet" />
		<tag k="natural" v="water" />
		<tag k="ssr:stedsnr" v="190033" />
	</node>
	<node id="-645549" lat="60.790200003" lon="4.95995833426">
		<tag k="name" v="Storhaugen" />
		<tag k="natural" v="hill" />
		<tag k="place" v="locality" />
		<tag k="ssr:stedsnr" v="190026" />
	</node>
	<node id="-645548" lat="60.7768250003" lon="4.80313056123">
		<tag k="name" v="Langøyskallen" />
		<tag k="natural" v="shoal" />
		<tag k="place" v="locality" />
		<tag k="ssr:stedsnr" v="190016" />
	</node>
	<node id="-645547" lat="60.804830553" lon="4.73252778038">
		<tag k="bay" v="fjord" />
		<tag k="name" v="Fedjefjorden" />
		<tag k="natural" v="bay" />
		<tag k="ssr:stedsnr" v="189713" />
	</node>
	<node id="-645546" lat="60.8128944433" lon="4.8019333421">
		<tag k="name" v="Eikholmsundet" />
		<tag k="natural" v="strait" />
		<tag k="ssr:stedsnr" v="177893" />
	</node>
	<node id="-645544" lat="60.8160193698" lon="4.78819835559">
		<tag k="fixme" v="consider seamark:type=rock or natural=shoal" />
		<tag k="name" v="Knivskjeret" />
		<tag k="place" v="islet" />
		<tag k="ssr:stedsnr" v="175001" />
	</node>
	<node id="-645543" lat="60.814849997" lon="4.81419444094">
		<tag k="name" v="Skrubbærholmen" />
		<tag k="place" v="islet" />
		<tag k="ssr:stedsnr" v="166935" />
	</node>
	<node id="-645542" lat="60.8159833301" lon="4.88935000058">
		<tag k="name" v="Storhaugen" />
		<tag k="natural" v="hill" />
		<tag k="place" v="locality" />
		<tag k="ssr:stedsnr" v="166897" />
	</node>
	<node id="-645541" lat="60.8114277819" lon="4.96211666099">
		<tag k="name" v="Glasvika" />
		<tag k="natural" v="bay" />
		<tag k="ssr:stedsnr" v="166891" />
	</node>
	<node id="-645540" lat="60.7972138923" lon="4.93954999086">
		<tag k="name" v="Kylleren" />
		<tag k="natural" v="bay" />
		<tag k="ssr:stedsnr" v="166884" />
	</node>
	<node id="-645539" lat="60.8112805521" lon="4.80662499874">
		<tag k="name" v="Kalvholmen" />
		<tag k="place" v="islet" />
		<tag k="ssr:stedsnr" v="166996" />
	</node>
	<node id="-645538" lat="60.7928499968" lon="4.80529722351">
		<tag k="fixme" v="consider seamark:type=rock or natural=shoal" />
		<tag k="name" v="Litlenakken" />
		<tag k="place" v="islet" />
		<tag k="ssr:stedsnr" v="166989" />
	</node>
	<node id="-645537" lat="60.7870055529" lon="4.8588777833">
		<tag k="name" v="Rebnorsvågen" />
		<tag k="natural" v="bay" />
		<tag k="ssr:stedsnr" v="166981" />
	</node>
	<node id="-645536" lat="60.7567861088" lon="4.90669999778">
		<tag k="name" v="Kolsihaugen" />
		<tag k="natural" v="hill" />
		<tag k="place" v="locality" />
		<tag k="ssr:stedsnr" v="166849" />
	</node>
	<node id="-645535" lat="60.778294447" lon="4.9872888818">
		<tag k="name" v="Reset" />
		<tag k="natural" v="ridge" />
		<tag k="place" v="locality" />
		<tag k="ssr:stedsnr" v="166843" />
	</node>
	<node id="-645534" lat="60.764358332" lon="4.85815277513">
		<tag k="name" v="Sengen" />
		<tag k="place" v="island" />
		<tag k="ssr:stedsnr" v="166816" />
	</node>
	<node id="-645533" lat="60.7932805526" lon="4.96547778455">
		<tag k="name" v="Olsneset" />
		<tag k="natural" v="cape" />
		<tag k="ssr:stedsnr" v="166247" />
	</node>
	<node id="-645532" lat="60.7704333342" lon="4.97051944425">
		<tag k="name" v="Mariusholmen" />
		<tag k="place" v="islet" />
		<tag k="ssr:stedsnr" v="166244" />
	</node>
	<node id="-645531" lat="60.7580999994" lon="5.03126389423">
		<tag k="name" v="Arevatnet" />
		<tag k="natural" v="water" />
		<tag k="ssr:stedsnr" v="166233" />
		<tag k="water" v="lake" />
	</node>
	<node id="-645530" lat="60.7911333362" lon="4.98331666625">
		<tag k="name" v="Grønnapprinden" />
		<tag k="natural" v="ridge" />
		<tag k="place" v="locality" />
		<tag k="ssr:stedsnr" v="166230" />
	</node>
	<node id="-645529" lat="60.8483391582" lon="4.75318602421">
		<tag k="fixme" v="consider seamark:type=rock or natural=shoal" />
		<tag k="name" v="Grimeskjeret" />
		<tag k="place" v="islet" />
		<tag k="ssr:stedsnr" v="157317" />
	</node>
	<node id="-645528" lat="60.8189305537" lon="4.75474165879">
		<tag k="fixme" v="consider seamark:type=rock or natural=shoal" />
		<tag k="name" v="Vetegygraflua" />
		<tag k="place" v="islet" />
		<tag k="ssr:stedsnr" v="157314" />
	</node>
	<node id="-645527" lat="60.8152277796" lon="4.77318610403">
		<tag k="name" v="Teistholmen" />
		<tag k="place" v="islet" />
		<tag k="ssr:stedsnr" v="146791" />
	</node>
	<node id="-645526" lat="60.792655552" lon="4.8652722202">
		<tag k="name" v="Tungevågen" />
		<tag k="natural" v="bay" />
		<tag k="ssr:stedsnr" v="146782" />
	</node>
	<node id="-645525" lat="60.8161000041" lon="4.89211945032">
		<tag k="name" v="Austneset" />
		<tag k="natural" v="cape" />
		<tag k="ssr:stedsnr" v="146781" />
	</node>
	<node id="-645524" lat="60.8108194475" lon="4.95699722263">
		<tag k="alt_name" v="Hageholmen" />
		<tag k="name" v="Høgholmen" />
		<tag k="place" v="islet" />
		<tag k="ssr:stedsnr" v="146780" />
	</node>
	<node id="-645523" lat="60.7526638921" lon="4.95983888773">
		<tag k="name" v="Hola" />
		<tag k="natural" v="bay" />
		<tag k="ssr:stedsnr" v="146826" />
	</node>
	<node id="-645522" lat="60.7634805596" lon="4.9658472148">
		<tag k="name" v="Vestre Kalvsundet" />
		<tag k="natural" v="strait" />
		<tag k="ssr:stedsnr" v="146823" />
	</node>
	<node id="-645521" lat="60.7949714334" lon="5.03158403512">
		<tag k="name" v="Mongstadvarden" />
		<tag k="natural" v="hill" />
		<tag k="place" v="locality" />
		<tag k="ssr:stedsnr" v="146744" />
	</node>
	<node id="-645520" lat="60.7741749988" lon="4.94315833538">
		<tag k="name" v="Leikvoll" />
		<tag k="place" v="farm" />
		<tag k="ssr:stedsnr" v="146413" />
	</node>
	<node id="-645519" lat="60.8016097663" lon="5.01531593957">
		<tag k="name" v="Mongstadhaugen" />
		<tag k="natural" v="hill" />
		<tag k="place" v="locality" />
		<tag k="ssr:stedsnr" v="145182" />
	</node>
	<node id="-645518" lat="60.7476786694" lon="4.99269663635">
		<tag k="name" v="Naustvika" />
		<tag k="natural" v="bay" />
		<tag k="ssr:stedsnr" v="145180" />
	</node>
	<node id="-645517" lat="60.7739663395" lon="4.87566132231">
		<tag k="fixme" v="consider place=hamlet" />
		<tag k="name" v="Dyrneset" />
		<tag k="place" v="farm" />
		<tag k="ssr:stedsnr" v="130225" />
	</node>
	<node id="-645516" lat="60.7684833315" lon="4.83596112036">
		<tag k="name" v="Vardholmeboen" />
		<tag k="natural" v="shoal" />
		<tag k="place" v="locality" />
		<tag k="ssr:stedsnr" v="130220" />
	</node>
	<node id="-645515" lat="60.761333333" lon="4.97498610458">
		<tag k="name" v="Skutevika" />
		<tag k="natural" v="bay" />
		<tag k="ssr:stedsnr" v="130189" />
	</node>
	<node id="-645514" lat="60.7675361149" lon="4.97369722418">
		<tag k="name" v="Ilneset" />
		<tag k="natural" v="cape" />
		<tag k="ssr:stedsnr" v="130187" />
	</node>
	<node id="-645513" lat="60.7590111103" lon="4.97234444599">
		<tag k="name" v="Njøtesundet" />
		<tag k="natural" v="strait" />
		<tag k="ssr:stedsnr" v="130148" />
	</node>
	<node id="-645512" lat="60.7832850942" lon="4.97444673795">
		<tag k="fixme" v="consider place=hamlet" />
		<tag k="name" v="Synnevågen" />
		<tag k="place" v="farm" />
		<tag k="ssr:stedsnr" v="129255" />
	</node>
	<node id="-645511" lat="60.7805603359" lon="4.94782014279">
		<tag k="fixme" v="consider place=hamlet" />
		<tag k="name" v="Vikane" />
		<tag k="place" v="farm" />
		<tag k="ssr:stedsnr" v="129249" />
	</node>
	<node id="-645510" lat="60.7806499961" lon="4.91489999234">
		<tag k="name" v="Rasmusvatnet" />
		<tag k="natural" v="water" />
		<tag k="ssr:stedsnr" v="129247" />
	</node>
	<node id="-645509" lat="60.7801499985" lon="4.90461388873">
		<tag k="name" v="Øykedalen" />
		<tag k="natural" v="valley" />
		<tag k="place" v="locality" />
		<tag k="ssr:stedsnr" v="129244" />
	</node>
	<node id="-645508" lat="60.795841665" lon="4.87150277764">
		<tag k="name" v="Fosnøyna" />
		<tag k="place" v="island" />
		<tag k="ssr:stedsnr" v="129241" />
	</node>
	<node id="-645507" lat="60.7614277763" lon="4.84601666432">
		<tag k="name" v="Søreskjeret" />
		<tag k="place" v="islet" />
		<tag k="ssr:stedsnr" v="129223" />
	</node>
	<node id="-645506" lat="60.7901305513" lon="4.85696944892">
		<tag k="name" v="Bønesholmen" />
		<tag k="place" v="islet" />
		<tag k="ssr:stedsnr" v="129001" />
	</node>
	<node id="-645505" lat="60.7834416639" lon="4.9317972213">
		<tag k="name" v="Samuel Lervågs plass" />
		<tag k="place" v="square" />
		<tag k="ssr:stedsnr" v="121409" />
	</node>
	<node id="-645504" lat="60.8075222223" lon="4.81623888277">
		<tag k="name" v="Rotøyna" />
		<tag k="place" v="island" />
		<tag k="ssr:stedsnr" v="106995" />
	</node>
	<node id="-645503" lat="60.780496638" lon="4.86371590438">
		<tag k="name" v="Straumsneset" />
		<tag k="natural" v="cape" />
		<tag k="ssr:stedsnr" v="106984" />
	</node>
	<node id="-645502" lat="60.8119083357" lon="4.96520278041">
		<tag k="name" v="Krossneset" />
		<tag k="natural" v="cape" />
		<tag k="ssr:stedsnr" v="106893" />
	</node>
	<node id="-645501" lat="60.7579222243" lon="4.89392500884">
		<tag k="name" v="Høgholmen" />
		<tag k="place" v="islet" />
		<tag k="ssr:stedsnr" v="105975" />
	</node>
	<node id="-645500" lat="60.761119445" lon="4.87154444373">
		<tag k="name" v="Nordre Skotholmen" />
		<tag k="place" v="islet" />
		<tag k="ssr:stedsnr" v="105967" />
	</node>
	<node id="-645499" lat="60.7627805556" lon="4.98435555708">
		<tag k="name" v="Ilnesvika" />
		<tag k="natural" v="bay" />
		<tag k="ssr:stedsnr" v="105953" />
	</node>
	<node id="-645498" lat="60.7532111087" lon="4.91067500021">
		<tag k="name" v="Stallhaugen" />
		<tag k="natural" v="hill" />
		<tag k="place" v="locality" />
		<tag k="ssr:stedsnr" v="105949" />
	</node>
	<node id="-645497" lat="60.7557472253" lon="5.02513888719">
		<tag k="fixme" v="consider seamark:type=rock or natural=shoal" />
		<tag k="name" v="Gulenakken" />
		<tag k="place" v="islet" />
		<tag k="ssr:stedsnr" v="105944" />
	</node>
	<node id="-645496" lat="60.7605305555" lon="4.95480277146">
		<tag k="name" v="Vassdalen" />
		<tag k="natural" v="valley" />
		<tag k="place" v="locality" />
		<tag k="ssr:stedsnr" v="105876" />
	</node>
	<node id="-645495" lat="60.755541667" lon="4.90260555953">
		<tag k="name" v="Bergsvikhavnen" />
		<tag k="natural" v="beach" />
		<tag k="place" v="locality" />
		<tag k="ssr:stedsnr" v="105873" />
	</node>
	<node id="-645494" lat="60.8197812677" lon="4.77048445663">
		<tag k="name" v="Vardholmsundet" />
		<tag k="natural" v="strait" />
		<tag k="ssr:stedsnr" v="105851" />
	</node>
	<node id="-645493" lat="60.8253055556" lon="4.78111945052">
		<tag k="name" v="Svehaugen" />
		<tag k="natural" v="hill" />
		<tag k="place" v="locality" />
		<tag k="ssr:stedsnr" v="105843" />
	</node>
	<node id="-645492" lat="60.7782277735" lon="4.85111111423">
		<tag k="name" v="Skipholmen" />
		<tag k="place" v="islet" />
		<tag k="ssr:stedsnr" v="105839" />
	</node>
	<node id="-645491" lat="60.762388887" lon="4.93740000707">
		<tag k="name" v="Svehaugen" />
		<tag k="natural" v="hill" />
		<tag k="place" v="locality" />
		<tag k="ssr:stedsnr" v="105276" />
	</node>
	<node id="-645490" lat="60.7924833302" lon="4.88897500587">
		<tag k="name" v="Ulvikemyra" />
		<tag k="natural" v="wetland" />
		<tag k="ssr:stedsnr" v="105267" />
	</node>
	<node id="-645489" lat="60.7931666682" lon="4.89407499415">
		<tag k="name" v="Sjevikhaugen" />
		<tag k="natural" v="hill" />
		<tag k="place" v="locality" />
		<tag k="ssr:stedsnr" v="105264" />
	</node>
	<node id="-645488" lat="60.7381166677" lon="4.96932777107">
		<tag k="name" v="Tindhaugen" />
		<tag k="natural" v="hill" />
		<tag k="place" v="locality" />
		<tag k="ssr:stedsnr" v="105254" />
	</node>
	<node id="-645487" lat="60.7383777798" lon="4.95145277942">
		<tag k="name" v="Litle Herslaupen" />
		<tag k="natural" v="hill" />
		<tag k="place" v="locality" />
		<tag k="ssr:stedsnr" v="105253" />
	</node>
	<node id="-645486" lat="60.7951916644" lon="4.97331944911">
		<tag k="name" v="Søre Straumhaugen" />
		<tag k="natural" v="hill" />
		<tag k="place" v="locality" />
		<tag k="ssr:stedsnr" v="105251" />
	</node>
	<node id="-645485" lat="60.7931166625" lon="4.91884999657">
		<tag k="name" v="Pytthaugen" />
		<tag k="natural" v="hill" />
		<tag k="place" v="locality" />
		<tag k="ssr:stedsnr" v="105248" />
	</node>
	<node id="-645484" lat="60.7582333295" lon="5.01312222872">
		<tag k="name" v="Midtneset" />
		<tag k="natural" v="cape" />
		<tag k="ssr:stedsnr" v="105244" />
	</node>
	<node id="-645483" lat="60.7657801517" lon="5.00013319856">
		<tag k="name" v="Monslaupvatnet" />
		<tag k="natural" v="water" />
		<tag k="ssr:stedsnr" v="105242" />
		<tag k="water" v="lake" />
	</node>
	<node id="-645482" lat="60.8011916631" lon="4.9736722203">
		<tag k="name" v="Klebakkvatnet" />
		<tag k="natural" v="water" />
		<tag k="ssr:stedsnr" v="105238" />
		<tag k="water" v="lake" />
	</node>
	<node id="-645481" lat="60.8202944473" lon="4.89877777087">
		<tag k="name" v="Steinholmen" />
		<tag k="place" v="islet" />
		<tag k="ssr:stedsnr" v="105214" />
	</node>
	<node id="-645480" lat="60.7694499987" lon="4.98413611424">
		<tag k="name" v="Monslaupsundet" />
		<tag k="natural" v="strait" />
		<tag k="ssr:stedsnr" v="102889" />
	</node>
	<node id="-645479" lat="60.7613694461" lon="4.91659445018">
		<tag k="name" v="Austrheim" />
		<tag k="place" v="farm" />
		<tag k="ssr:stedsnr" v="87760" />
	</node>
	<node id="-645478" lat="60.7955972218" lon="4.86426944886">
		<tag k="name" v="Øksneset" />
		<tag k="place" v="farm" />
		<tag k="ssr:stedsnr" v="87639" />
	</node>
	<node id="-645477" lat="60.7502277817" lon="4.91818333493">
		<tag k="name" v="Hopland" />
		<tag k="place" v="farm" />
		<tag k="ssr:stedsnr" v="86534" />
	</node>
	<node id="-645476" lat="60.7462472184" lon="4.96090278374">
		<tag k="name" v="Litlelindås" />
		<tag k="place" v="farm" />
		<tag k="ssr:stedsnr" v="86450" />
	</node>
	<node id="-645475" lat="60.8141166705" lon="4.80622778388">
		<tag k="name" v="Krossøyna" />
		<tag k="place" v="farm" />
		<tag k="ssr:stedsnr" v="85528" />
	</node>
	<node id="-645474" lat="60.7655277771" lon="4.94573332509">
		<tag k="name" v="Solend" />
		<tag k="place" v="farm" />
		<tag k="ssr:stedsnr" v="85373" />
	</node>
	<node id="-645473" lat="60.7984361148" lon="4.9976194481">
		<tag k="name" v="Kaland" />
		<tag k="place" v="farm" />
		<tag k="ssr:stedsnr" v="85284" />
	</node>
	<node id="-645472" lat="60.7964486826" lon="5.02447511741">
		<tag k="name" v="Litlås" />
		<tag k="place" v="farm" />
		<tag k="ssr:stedsnr" v="85282" />
	</node>
	<node id="-645471" lat="60.8159586829" lon="5.00265908268">
		<tag k="alt_name" v="Båtholmen" />
		<tag k="name" v="Båtevikholmen" />
		<tag k="place" v="islet" />
		<tag k="ssr:stedsnr" v="85139" />
	</node>
	<node id="-645470" lat="60.7967500044" lon="4.88851388709">
		<tag k="name" v="Langaneset" />
		<tag k="natural" v="cape" />
		<tag k="ssr:stedsnr" v="69983" />
	</node>
	<node id="-645469" lat="60.7650638884" lon="4.98880000164">
		<tag k="name" v="Notholmen" />
		<tag k="place" v="islet" />
		<tag k="ssr:stedsnr" v="69956" />
	</node>
	<node id="-645468" lat="60.7660777799" lon="4.87531110743">
		<tag k="name" v="Svartholmen" />
		<tag k="place" v="islet" />
		<tag k="ssr:stedsnr" v="69248" />
	</node>
	<node id="-645467" lat="60.76653333" lon="4.8474138826">
		<tag k="fixme" v="consider seamark:type=rock or natural=shoal" />
		<tag k="name" v="Vardholmeskjeret" />
		<tag k="place" v="islet" />
		<tag k="ssr:stedsnr" v="69244" />
	</node>
	<node id="-645466" lat="60.7815805566" lon="4.94953888263">
		<tag k="name" v="Vikasanden" />
		<tag k="natural" v="bay" />
		<tag k="ssr:stedsnr" v="69234" />
	</node>
	<node id="-645465" lat="60.778411114" lon="4.96192777066">
		<tag k="name" v="Kluftholmen" />
		<tag k="place" v="islet" />
		<tag k="ssr:stedsnr" v="69230" />
	</node>
	<node id="-645464" lat="60.7835500039" lon="4.92892776858">
		<tag k="name" v="Kyrkjehaugen" />
		<tag k="natural" v="hill" />
		<tag k="place" v="locality" />
		<tag k="ssr:stedsnr" v="69225" />
	</node>
	<node id="-645463" lat="60.7618446029" lon="4.89056077653">
		<tag k="fixme" v="consider place=hamlet" />
		<tag k="name" v="Lerøyna" />
		<tag k="place" v="farm" />
		<tag k="ssr:stedsnr" v="69207" />
	</node>
	<node id="-645462" lat="60.7702000008" lon="4.93330832774">
		<tag k="name" v="Slettebakken" />
		<tag k="place" v="isolated_dwelling" />
		<tag k="ssr:stedsnr" v="69200" />
	</node>
	<node id="-645461" lat="60.7505277765" lon="5.00565833748">
		<tag k="name" v="Åvika" />
		<tag k="natural" v="bay" />
		<tag k="ssr:stedsnr" v="69182" />
	</node>
	<node id="-645460" lat="60.75489444" lon="4.91511944251">
		<tag k="name" v="Marka" />
		<tag k="place" v="farm" />
		<tag k="ssr:stedsnr" v="69169" />
	</node>
	<node id="-645459" lat="60.8200648066" lon="4.80019585151">
		<tag k="name" v="Nautøyna" />
		<tag k="place" v="islet" />
		<tag k="ssr:stedsnr" v="69127" />
	</node>
	<node id="-645458" lat="60.8207194444" lon="4.86490277697">
		<tag k="name" v="Børildvågen" />
		<tag k="natural" v="bay" />
		<tag k="ssr:stedsnr" v="69120" />
	</node>
	<node id="-645457" lat="60.821208332" lon="4.82201666882">
		<tag k="name" v="Krossøysundet" />
		<tag k="natural" v="strait" />
		<tag k="ssr:stedsnr" v="69112" />
	</node>
	<node id="-645456" lat="60.77259167" lon="4.97147777642">
		<tag k="name" v="Larsholmen" />
		<tag k="place" v="islet" />
		<tag k="ssr:stedsnr" v="69202" />
	</node>
	<node id="-645455" lat="60.8176166697" lon="4.99524999403">
		<tag k="name" v="Leirvågssundet" />
		<tag k="natural" v="strait" />
		<tag k="ssr:stedsnr" v="69087" />
	</node>
	<node id="-645454" lat="60.8144499971" lon="4.77465000055">
		<tag k="fixme" v="consider seamark:type=rock or natural=shoal" />
		<tag k="name" v="Teistholmskjeret" />
		<tag k="place" v="islet" />
		<tag k="ssr:stedsnr" v="69085" />
	</node>
	<node id="-645453" lat="60.8112166706" lon="4.77598055178">
		<tag k="fixme" v="consider seamark:type=rock or natural=shoal" />
		<tag k="name" v="Riungane" />
		<tag k="place" v="islet" />
		<tag k="ssr:stedsnr" v="69082" />
	</node>
	<node id="-645452" lat="60.8295750043" lon="4.91329444359">
		<tag k="name" v="Søre Stongevågen" />
		<tag k="natural" v="bay" />
		<tag k="ssr:stedsnr" v="69080" />
	</node>
	<node id="-645451" lat="60.8315000008" lon="4.90019167539">
		<tag k="name" v="Storestonga" />
		<tag k="place" v="island" />
		<tag k="ssr:stedsnr" v="69079" />
	</node>
	<node id="-645450" lat="60.8118972194" lon="4.80948334197">
		<tag k="name" v="Søra Kjerringa" />
		<tag k="place" v="islet" />
		<tag k="ssr:stedsnr" v="69074" />
	</node>
	<node id="-645449" lat="60.8175345181" lon="4.80597655805">
		<tag k="name" v="Søre Kastholmsundet" />
		<tag k="natural" v="strait" />
		<tag k="ssr:stedsnr" v="69068" />
	</node>
	<node id="-645448" lat="60.8105861129" lon="4.79196667063">
		<tag k="fixme" v="consider seamark:type=rock or natural=shoal" />
		<tag k="name" v="Båteskjeret" />
		<tag k="place" v="islet" />
		<tag k="ssr:stedsnr" v="69067" />
	</node>
	<node id="-645447" lat="60.8094944428" lon="4.79875555201">
		<tag k="fixme" v="consider seamark:type=rock or natural=shoal" />
		<tag k="name" v="Maiskjeret" />
		<tag k="place" v="islet" />
		<tag k="ssr:stedsnr" v="69066" />
	</node>
	<node id="-645446" lat="60.7899972211" lon="4.80118333411">
		<tag k="fixme" v="consider seamark:type=rock or natural=shoal" />
		<tag k="name" v="Svartskjeret" />
		<tag k="place" v="islet" />
		<tag k="ssr:stedsnr" v="69064" />
	</node>
	<node id="-645445" lat="60.792977782" lon="4.82563889185">
		<tag k="name" v="Skotneshaugen" />
		<tag k="natural" v="hill" />
		<tag k="place" v="locality" />
		<tag k="ssr:stedsnr" v="69057" />
	</node>
	<node id="-645444" lat="60.7944000042" lon="4.90904721407">
		<tag k="name" v="Vikingatræet" />
		<tag k="natural" v="cape" />
		<tag k="ssr:stedsnr" v="69049" />
	</node>
	<node id="-645443" lat="60.8121333372" lon="4.89827777157">
		<tag k="name" v="Ærholmen" />
		<tag k="place" v="islet" />
		<tag k="ssr:stedsnr" v="69030" />
	</node>
	<node id="-645442" lat="60.8116854923" lon="4.99825021346">
		<tag k="fixme" v="consider place=hamlet" />
		<tag k="name" v="Leirvågen" />
		<tag k="place" v="farm" />
		<tag k="ssr:stedsnr" v="69025" />
	</node>
	<node id="-645440" lat="60.791502782" lon="4.94156666701">
		<tag k="name" v="Vikaosen" />
		<tag k="natural" v="strait" />
		<tag k="ssr:stedsnr" v="69020" />
	</node>
	<node id="-645439" lat="60.7773086823" lon="4.86077749492">
		<tag k="name" v="Svartholmen" />
		<tag k="place" v="islet" />
		<tag k="ssr:stedsnr" v="69009" />
	</node>
	<node id="-645438" lat="60.801777778" lon="4.99949443923">
		<tag k="fixme" v="consider place=suburb, village or hamlet" />
		<tag k="name" v="Kaland" />
		<tag k="place" v="quarter" />
		<tag k="ssr:stedsnr" v="69005" />
	</node>
	<node id="-645437" lat="60.7369083305" lon="4.96946944053">
		<tag k="name" v="Snekkevika" />
		<tag k="place" v="farm" />
		<tag k="ssr:stedsnr" v="67777" />
	</node>
	<node id="-645436" lat="60.7964055572" lon="4.99324722556">
		<tag k="name" v="Midtsjøen" />
		<tag k="place" v="locality" />
		<tag k="ssr:stedsnr" v="56630" />
	</node>
	<node id="-645435" lat="60.8332138866" lon="4.85752500726">
		<tag k="name" v="Stykket" />
		<tag k="natural" v="cape" />
		<tag k="ssr:stedsnr" v="56599" />
	</node>
	<node id="-645434" lat="60.8050194445" lon="4.91229166353">
		<tag k="name" v="Kvalvågen" />
		<tag k="natural" v="bay" />
		<tag k="ssr:stedsnr" v="56560" />
	</node>
	<node id="-645433" lat="60.8106916645" lon="4.91578332846">
		<tag k="name" v="Kyllaren" />
		<tag k="natural" v="bay" />
		<tag k="ssr:stedsnr" v="56555" />
	</node>
	<node id="-645431" lat="60.8146638852" lon="5.00485833988">
		<tag k="amenity" v="ferry_terminal" />
		<tag k="name" v="Leirvågen ferjekai" />
		<tag k="ssr:stedsnr" v="47106" />
	</node>
	<node id="-645430" lat="60.8032055559" lon="4.84742222677">
		<tag k="name" v="Mankholmen" />
		<tag k="place" v="islet" />
		<tag k="ssr:stedsnr" v="45996" />
	</node>
	<node id="-645429" lat="60.8047027776" lon="4.77630277541">
		<tag k="fixme" v="consider seamark:type=rock or natural=shoal" />
		<tag k="name" v="Tareskjeret" />
		<tag k="place" v="islet" />
		<tag k="ssr:stedsnr" v="45987" />
	</node>
	<node id="-645428" lat="60.7927472227" lon="4.81377222426">
		<tag k="name" v="Midtre Sveholmen" />
		<tag k="place" v="islet" />
		<tag k="ssr:stedsnr" v="45985" />
	</node>
	<node id="-645427" lat="60.8256527793" lon="4.90710555837">
		<tag k="fixme" v="consider seamark:type=rock or natural=shoal" />
		<tag k="name" v="Måseskjeret" />
		<tag k="place" v="islet" />
		<tag k="ssr:stedsnr" v="45894" />
	</node>
	<node id="-645426" lat="60.8146388876" lon="4.91732221409">
		<tag k="name" v="Krossneset" />
		<tag k="natural" v="cape" />
		<tag k="ssr:stedsnr" v="45886" />
	</node>
	<node id="-645425" lat="60.811452775" lon="4.88824721489">
		<tag k="name" v="Ærholmosen" />
		<tag k="natural" v="strait" />
		<tag k="ssr:stedsnr" v="45884" />
	</node>
	<node id="-645424" lat="60.7418916687" lon="4.94156389675">
		<tag k="name" v="Kvernhusvågen" />
		<tag k="natural" v="bay" />
		<tag k="ssr:stedsnr" v="45856" />
	</node>
	<node id="-645423" lat="60.7607194428" lon="4.87484999662">
		<tag k="name" v="Søre Skotholmen" />
		<tag k="place" v="islet" />
		<tag k="ssr:stedsnr" v="44973" />
	</node>
	<node id="-645422" lat="60.7523805593" lon="4.91100554659">
		<tag k="name" v="Hoplandsvika" />
		<tag k="natural" v="bay" />
		<tag k="ssr:stedsnr" v="44971" />
	</node>
	<node id="-645421" lat="60.7788138915" lon="4.87236388477">
		<tag k="name" v="Grønåsmyra" />
		<tag k="natural" v="wetland" />
		<tag k="ssr:stedsnr" v="44964" />
	</node>
	<node id="-645420" lat="60.759824999" lon="4.9155138914">
		<tag k="name" v="Leitet" />
		<tag k="natural" v="hill" />
		<tag k="place" v="locality" />
		<tag k="ssr:stedsnr" v="44957" />
	</node>
	<node id="-645419" lat="60.7432166652" lon="4.93658610315">
		<tag k="name" v="Kvitaberget" />
		<tag k="natural" v="cape" />
		<tag k="ssr:stedsnr" v="44945" />
	</node>
	<node id="-645418" lat="60.8221499986" lon="4.77658056435">
		<tag k="name" v="Ørnhaugane" />
		<tag k="natural" v="hill" />
		<tag k="place" v="locality" />
		<tag k="ssr:stedsnr" v="44931" />
	</node>
	<node id="-645417" lat="60.8176472181" lon="4.76737777747">
		<tag k="fixme" v="consider seamark:type=rock or natural=shoal" />
		<tag k="name" v="Sauskjeret" />
		<tag k="place" v="islet" />
		<tag k="ssr:stedsnr" v="44930" />
	</node>
	<node id="-645416" lat="60.8041888928" lon="5.01249443509">
		<tag k="name" v="Storospa" />
		<tag k="place" v="locality" />
		<tag k="ssr:stedsnr" v="44902" />
	</node>
	<node id="-645415" lat="60.7592277771" lon="5.03288333546">
		<tag k="name" v="Rotevågen" />
		<tag k="natural" v="bay" />
		<tag k="ssr:stedsnr" v="44867" />
	</node>
	<node id="-645414" lat="60.7654750011" lon="4.96432778384">
		<tag k="name" v="Solesjøen" />
		<tag k="natural" v="bay" />
		<tag k="ssr:stedsnr" v="44849" />
	</node>
	<node id="-645413" lat="60.7797795755" lon="4.97855026217">
		<tag k="name" v="Vågen" />
		<tag k="natural" v="bay" />
		<tag k="ssr:stedsnr" v="44844" />
	</node>
	<node id="-645412" lat="60.7932999958" lon="4.83842500567">
		<tag k="name" v="Nordre Lauvøyvågen" />
		<tag k="natural" v="bay" />
		<tag k="ssr:stedsnr" v="44838" />
	</node>
	<node id="-645411" lat="60.7520055576" lon="4.9704999953">
		<tag k="name" v="Kvernhushaugane" />
		<tag k="natural" v="hill" />
		<tag k="place" v="locality" />
		<tag k="ssr:stedsnr" v="44251" />
	</node>
	<node id="-645410" lat="60.7728250007" lon="5.00846111665">
		<tag k="name" v="Havnen" />
		<tag k="natural" v="bay" />
		<tag k="ssr:stedsnr" v="44232" />
	</node>
	<node id="-645409" lat="60.8028611141" lon="4.86962222133">
		<tag k="name" v="Åløypet" />
		<tag k="place" v="islet" />
		<tag k="ssr:stedsnr" v="44212" />
	</node>
	<node id="-645408" lat="60.8096888881" lon="4.90675832959">
		<tag k="name" v="Setevika" />
		<tag k="natural" v="bay" />
		<tag k="ssr:stedsnr" v="44207" />
	</node>
	<node id="-645407" lat="60.8316500006" lon="4.84558888128">
		<tag k="name" v="Boflua" />
		<tag k="natural" v="shoal" />
		<tag k="place" v="locality" />
		<tag k="ssr:stedsnr" v="36792" />
	</node>
	<node id="-645406" lat="60.7990111138" lon="4.79941666814">
		<tag k="name" v="Gygreholmboen" />
		<tag k="place" v="locality" />
		<tag k="seamark:type" v="rock" />
		<tag k="ssr:stedsnr" v="36884" />
	</node>
	<node id="-645405" lat="60.8133638917" lon="4.91144723105">
		<tag k="name" v="Staveneset" />
		<tag k="natural" v="cape" />
		<tag k="ssr:stedsnr" v="25813" />
	</node>
	<node id="-645404" lat="60.822266665" lon="4.78421943759">
		<tag k="name" v="Rongeværet" />
		<tag k="place" v="farm" />
		<tag k="ssr:stedsnr" v="25656" />
	</node>
	<node id="-645403" lat="60.8200166634" lon="4.80379166617">
		<tag k="name" v="Rongeværet" />
		<tag k="place" v="farm" />
		<tag k="ssr:stedsnr" v="25654" />
	</node>
	<node id="-645402" lat="60.7611722243" lon="4.94437778229">
		<tag k="name" v="Førland" />
		<tag k="place" v="farm" />
		<tag k="ssr:stedsnr" v="25443" />
	</node>
	<node id="-645401" lat="60.7609527803" lon="4.94073611074">
		<tag k="name" v="Førland" />
		<tag k="place" v="farm" />
		<tag k="ssr:stedsnr" v="25437" />
	</node>
	<node id="-645400" lat="60.8121888894" lon="4.99352778043">
		<tag k="name" v="Leirvågen" />
		<tag k="place" v="farm" />
		<tag k="ssr:stedsnr" v="25366" />
	</node>
	<node id="-645399" lat="60.7503166691" lon="4.99036388715">
		<tag k="name" v="Søre Njøta" />
		<tag k="place" v="farm" />
		<tag k="ssr:stedsnr" v="24448" />
	</node>
	<node id="-645398" lat="60.8072861065" lon="4.98182221614">
		<tag k="name" v="Fonnes" />
		<tag k="place" v="farm" />
		<tag k="ssr:stedsnr" v="24346" />
	</node>
	<node id="-645397" lat="60.8012777744" lon="4.97792778283">
		<tag k="name" v="Fonnes" />
		<tag k="place" v="farm" />
		<tag k="ssr:stedsnr" v="24344" />
	</node>
	<node id="-645396" lat="60.7972974436" lon="5.00220470437">
		<tag k="fixme" v="consider place=hamlet" />
		<tag k="name" v="Kaland" />
		<tag k="place" v="farm" />
		<tag k="ssr:stedsnr" v="24336" />
	</node>
	<node id="-645395" lat="60.8063277766" lon="4.770475007">
		<tag k="fixme" v="consider seamark:type=rock or natural=shoal" />
		<tag k="name" v="Langøyskjeret" />
		<tag k="place" v="islet" />
		<tag k="ssr:stedsnr" v="9055" />
	</node>
	<node id="-645394" lat="60.7685361088" lon="4.88051388242">
		<tag k="name" v="Vestre Lamholmen" />
		<tag k="place" v="islet" />
		<tag k="ssr:stedsnr" v="8279" />
	</node>
	<node id="-645393" lat="60.7693500021" lon="4.88082777795">
		<tag k="name" v="Midtre Lamholmen" />
		<tag k="place" v="islet" />
		<tag k="ssr:stedsnr" v="8278" />
	</node>
	<node id="-645392" lat="60.770255554" lon="4.8715249929">
		<tag k="name" v="Einholmen" />
		<tag k="place" v="islet" />
		<tag k="ssr:stedsnr" v="8274" />
	</node>
	<node id="-645391" lat="60.7807249966" lon="4.96176389143">
		<tag k="name" v="Kastholmen" />
		<tag k="place" v="islet" />
		<tag k="ssr:stedsnr" v="8259" />
	</node>
	<node id="-645390" lat="60.7816527799" lon="4.87748054665">
		<tag k="name" v="Såtene" />
		<tag k="natural" v="hill" />
		<tag k="place" v="locality" />
		<tag k="ssr:stedsnr" v="8248" />
	</node>
	<node id="-645389" lat="60.7605361142" lon="4.93192499048">
		<tag k="name" v="Snapphaugane" />
		<tag k="natural" v="hill" />
		<tag k="place" v="locality" />
		<tag k="ssr:stedsnr" v="8238" />
	</node>
	<node id="-645388" lat="60.7619880961" lon="4.90308790245">
		<tag k="fixme" v="consider place=hamlet" />
		<tag k="name" v="Bergsvika" />
		<tag k="place" v="farm" />
		<tag k="ssr:stedsnr" v="8230" />
	</node>
	<node id="-645387" lat="60.75886389" lon="4.89362500192">
		<tag k="name" v="Litleosen" />
		<tag k="natural" v="bay" />
		<tag k="ssr:stedsnr" v="8229" />
	</node>
	<node id="-645386" lat="60.7732083357" lon="4.98878888506">
		<tag k="name" v="Stølane" />
		<tag k="natural" v="hill" />
		<tag k="place" v="locality" />
		<tag k="ssr:stedsnr" v="8214" />
	</node>
	<node id="-645385" lat="60.7560944455" lon="4.91506943938">
		<tag k="name" v="Bakken" />
		<tag k="place" v="farm" />
		<tag k="ssr:stedsnr" v="8171" />
	</node>
	<node id="-645384" lat="60.8232444483" lon="4.79256666321">
		<tag k="name" v="Lamholmen" />
		<tag k="place" v="islet" />
		<tag k="ssr:stedsnr" v="8134" />
	</node>
	<node id="-645383" lat="60.8363138874" lon="4.90913333426">
		<tag k="alt_name" v="Islendingen, høge" />
		<tag k="name" v="Høge Islendingen" />
		<tag k="place" v="islet" />
		<tag k="ssr:stedsnr" v="8107" />
	</node>
	<node id="-645382" lat="60.8308138863" lon="4.85939443715">
		<tag k="name" v="Storenesvågen" />
		<tag k="natural" v="bay" />
		<tag k="ssr:stedsnr" v="8103" />
	</node>
	<node id="-645381" lat="60.8175709171" lon="4.87071007039">
		<tag k="fixme" v="consider place=hamlet" />
		<tag k="name" v="Børilden" />
		<tag k="place" v="farm" />
		<tag k="ssr:stedsnr" v="8098" />
	</node>
	<node id="-645380" lat="60.822866671" lon="4.89719166958">
		<tag k="name" v="Gåsholmen" />
		<tag k="place" v="islet" />
		<tag k="ssr:stedsnr" v="8077" />
	</node>
	<node id="-645379" lat="60.8096833344" lon="4.81137499423">
		<tag k="name" v="Skissøyholmen" />
		<tag k="place" v="islet" />
		<tag k="ssr:stedsnr" v="8075" />
	</node>
	<node id="-645378" lat="60.8141611102" lon="4.80353056254">
		<tag k="name" v="Kårøyna" />
		<tag k="place" v="islet" />
		<tag k="ssr:stedsnr" v="8074" />
	</node>
	<node id="-645377" lat="60.7885777809" lon="4.9114111176">
		<tag k="name" v="Netholmen" />
		<tag k="place" v="islet" />
		<tag k="ssr:stedsnr" v="8034" />
	</node>
	<node id="-645376" lat="60.7880583321" lon="4.81461944883">
		<tag k="name" v="Litlelangøyna" />
		<tag k="place" v="island" />
		<tag k="ssr:stedsnr" v="8008" />
	</node>
	<node id="-645375" lat="60.783413887" lon="4.93235277138">
		<tag k="name" v="Austrheimparken" />
		<tag k="place" v="square" />
		<tag k="ssr:stedsnr" v="970640" />
	</node>
	<node id="-645374" lat="60.8297888874" lon="4.78021388354">
		<tag k="name" v="Røvelskjerflua" />
		<tag k="natural" v="shoal" />
		<tag k="place" v="locality" />
		<tag k="ssr:stedsnr" v="966856" />
	</node>
	<node id="-645373" lat="60.8318805539" lon="4.78041666599">
		<tag k="name" v="Røvelskjerskallen" />
		<tag k="natural" v="shoal" />
		<tag k="place" v="locality" />
		<tag k="ssr:stedsnr" v="966855" />
	</node>
	<node id="-645372" lat="60.800224999" lon="4.95612222419">
		<tag k="name" v="Ervikskjera" />
		<tag k="place" v="islet" />
		<tag k="ssr:stedsnr" v="966565" />
	</node>
	<node id="-645371" lat="60.8032166663" lon="4.80696667131">
		<tag k="name" v="Sundflua" />
		<tag k="natural" v="shoal" />
		<tag k="place" v="locality" />
		<tag k="ssr:stedsnr" v="946764" />
	</node>
	<node id="-645370" lat="60.7953027762" lon="4.7898111195">
		<tag k="name" v="Lyngokseboen" />
		<tag k="place" v="locality" />
		<tag k="seamark:type" v="rock" />
		<tag k="ssr:stedsnr" v="946843" />
	</node>
	<node id="-645369" lat="60.821694448" lon="4.81835832664">
		<tag k="name" v="Krossøyna" />
		<tag k="place" v="farm" />
		<tag k="ssr:stedsnr" v="935617" />
	</node>
	<node id="-645368" lat="60.8215293384" lon="4.7829906394">
		<tag k="fixme" v="consider place=hamlet" />
		<tag k="name" v="Rongeværet" />
		<tag k="place" v="farm" />
		<tag k="ssr:stedsnr" v="935613" />
	</node>
	<node id="-645367" lat="60.7522944462" lon="4.91541388872">
		<tag k="name" v="Hopland" />
		<tag k="place" v="farm" />
		<tag k="ssr:stedsnr" v="935510" />
	</node>
	<node id="-645366" lat="60.7601027789" lon="4.98295833272">
		<tag k="name" v="Nordre Njøta" />
		<tag k="place" v="farm" />
		<tag k="ssr:stedsnr" v="934414" />
	</node>
	<node id="-645365" lat="60.7494583315" lon="4.992080562">
		<tag k="name" v="Søre Njøta" />
		<tag k="place" v="farm" />
		<tag k="ssr:stedsnr" v="934413" />
	</node>
	<node id="-645364" lat="60.8041055567" lon="4.9836749971">
		<tag k="name" v="Fonnes" />
		<tag k="place" v="farm" />
		<tag k="ssr:stedsnr" v="934332" />
	</node>
	<node id="-645363" lat="60.8145138853" lon="4.76190000112">
		<tag k="name" v="Smørboen" />
		<tag k="natural" v="shoal" />
		<tag k="place" v="locality" />
		<tag k="ssr:stedsnr" v="919076" />
	</node>
	<node id="-645362" lat="60.8088361137" lon="4.78667499905">
		<tag k="name" v="Ingeborgholmen" />
		<tag k="place" v="islet" />
		<tag k="ssr:stedsnr" v="919073" />
	</node>
	<node id="-645361" lat="60.7921484173" lon="4.81146218302">
		<tag k="name" v="Store Sveholmen" />
		<tag k="place" v="islet" />
		<tag k="ssr:stedsnr" v="919058" />
	</node>
	<node id="-645360" lat="60.7963777751" lon="4.9335583321">
		<tag k="name" v="Skolmene" />
		<tag k="place" v="islet" />
		<tag k="ssr:stedsnr" v="919010" />
	</node>
	<node id="-645359" lat="60.7865555548" lon="4.93748888293">
		<tag k="fixme" v="consider place=suburb, village or hamlet" />
		<tag k="name" v="Mastrevikane" />
		<tag k="place" v="quarter" />
		<tag k="ssr:stedsnr" v="918021" />
	</node>
	<node id="-645358" lat="60.8212583344" lon="4.76681110464">
		<tag k="name" v="Brimsøyna" />
		<tag k="place" v="islet" />
		<tag k="ssr:stedsnr" v="918127" />
	</node>
	<node id="-645357" lat="60.8219805576" lon="4.7781138932">
		<tag k="name" v="Rongeværet" />
		<tag k="place" v="island" />
		<tag k="ssr:stedsnr" v="918126" />
	</node>
	<node id="-645356" lat="60.8211499959" lon="4.87112499505">
		<tag k="name" v="Børilden" />
		<tag k="place" v="island" />
		<tag k="ssr:stedsnr" v="918122" />
	</node>
	<node id="-645355" lat="60.8252166696" lon="4.81119443921">
		<tag k="name" v="Risselen" />
		<tag k="natural" v="hill" />
		<tag k="place" v="locality" />
		<tag k="ssr:stedsnr" v="918113" />
	</node>
	<node id="-645354" lat="60.8305694428" lon="4.81010556035">
		<tag k="name" v="Tjørholmsundet" />
		<tag k="natural" v="strait" />
		<tag k="ssr:stedsnr" v="918111" />
	</node>
	<node id="-645353" lat="60.8199972191" lon="4.74679443966">
		<tag k="name" v="Mikkelsboen" />
		<tag k="natural" v="shoal" />
		<tag k="place" v="locality" />
		<tag k="ssr:stedsnr" v="918103" />
	</node>
	<node id="-645352" lat="60.7636749984" lon="4.91238055477">
		<tag k="fixme" v="consider place=suburb, village or hamlet" />
		<tag k="name" v="Austrheim" />
		<tag k="place" v="quarter" />
		<tag k="ssr:stedsnr" v="889109" />
	</node>
	<node id="-645351" lat="60.8045388901" lon="4.8070972167">
		<tag k="name" v="Grønakjerringa" />
		<tag k="place" v="islet" />
		<tag k="ssr:stedsnr" v="886865" />
	</node>
	<node id="-645350" lat="60.8276888916" lon="4.79352777174">
		<tag k="name" v="Steinsøyflua" />
		<tag k="natural" v="shoal" />
		<tag k="place" v="locality" />
		<tag k="ssr:stedsnr" v="875280" />
	</node>
	<node id="-645349" lat="60.7967555568" lon="4.94950278051">
		<tag k="name" v="Utkilen" />
		<tag k="place" v="farm" />
		<tag k="ssr:stedsnr" v="874375" />
	</node>
	<node id="-645348" lat="60.7995000035" lon="4.99933054765">
		<tag k="name" v="Kaland" />
		<tag k="place" v="farm" />
		<tag k="ssr:stedsnr" v="874365" />
	</node>
	<node id="-645347" lat="60.7581444435" lon="4.98265555027">
		<tag k="name" v="Nordre Njøta" />
		<tag k="place" v="farm" />
		<tag k="ssr:stedsnr" v="874473" />
	</node>
	<node id="-645346" lat="60.8198249988" lon="4.81805554772">
		<tag k="name" v="Storhogen" />
		<tag k="natural" v="hill" />
		<tag k="place" v="locality" />
		<tag k="ssr:stedsnr" v="873713" />
	</node>
	<node id="-645345" lat="60.7925549677" lon="4.84479166982">
		<tag k="name" v="Lauvøyna" />
		<tag k="place" v="island" />
		<tag k="ssr:stedsnr" v="858979" />
	</node>
	<node id="-645344" lat="60.7975111083" lon="4.85581110546">
		<tag k="name" v="Teistholmen" />
		<tag k="place" v="islet" />
		<tag k="ssr:stedsnr" v="858977" />
	</node>
	<node id="-645343" lat="60.7597662643" lon="4.95144830985">
		<tag k="name" v="Solevatnet" />
		<tag k="natural" v="water" />
		<tag k="ssr:stedsnr" v="858177" />
	</node>
	<node id="-645342" lat="60.7572249997" lon="5.02363889354">
		<tag k="name" v="Lamøyna" />
		<tag k="place" v="islet" />
		<tag k="ssr:stedsnr" v="858174" />
	</node>
	<node id="-645341" lat="60.7770742863" lon="4.93461489142">
		<tag k="fixme" v="consider place=hamlet" />
		<tag k="name" v="Årås" />
		<tag k="place" v="farm" />
		<tag k="ssr:stedsnr" v="858230" />
	</node>
	<node id="-645340" lat="60.7676887623" lon="4.98697974071">
		<tag k="name" v="Monslaupen" />
		<tag k="natural" v="strait" />
		<tag k="ssr:stedsnr" v="858222" />
	</node>
	<node id="-645339" lat="60.7635527803" lon="4.95730555794">
		<tag k="name" v="Solheim" />
		<tag k="place" v="farm" />
		<tag k="ssr:stedsnr" v="858218" />
	</node>
	<node id="-645338" lat="60.8222194441" lon="4.90700277092">
		<tag k="name" v="Litlestonga" />
		<tag k="place" v="island" />
		<tag k="ssr:stedsnr" v="858070" />
	</node>
	<node id="-645337" lat="60.7973750014" lon="5.01865555933">
		<tag k="alt_name" v="Åse" />
		<tag k="name" v="Litlås" />
		<tag k="place" v="farm" />
		<tag k="ssr:stedsnr" v="858023" />
	</node>
	<node id="-645336" lat="60.7771777823" lon="4.84800000279">
		<tag k="name" v="Flatten" />
		<tag k="place" v="islet" />
		<tag k="ssr:stedsnr" v="858018" />
	</node>
	<node id="-645335" lat="60.8036463615" lon="4.97919391105">
		<tag k="fixme" v="consider place=hamlet" />
		<tag k="name" v="Fonnes" />
		<tag k="place" v="farm" />
		<tag k="ssr:stedsnr" v="858017" />
	</node>
	<node id="-645334" lat="60.7998666686" lon="4.98889166169">
		<tag k="name" v="Søre Fonnesvågen" />
		<tag k="natural" v="bay" />
		<tag k="ssr:stedsnr" v="858015" />
	</node>
	<node id="-645333" lat="60.7824944438" lon="4.8513555497">
		<tag k="name" v="Ulvøyna" />
		<tag k="place" v="islet" />
		<tag k="ssr:stedsnr" v="858008" />
	</node>
	<node id="-645331" lat="60.7964250019" lon="5.02271944869">
		<tag k="name" v="Litlås" />
		<tag k="place" v="farm" />
		<tag k="ssr:stedsnr" v="834959" />
	</node>
	<node id="-645330" lat="60.7631111145" lon="5.02542221808">
		<tag k="name" v="Breivika" />
		<tag k="natural" v="bay" />
		<tag k="ssr:stedsnr" v="834953" />
	</node>
	<node id="-645329" lat="60.817037508" lon="4.80154040704">
		<tag k="name" v="Ytre Kastholmen" />
		<tag k="place" v="islet" />
		<tag k="ssr:stedsnr" v="834927" />
	</node>
	<node id="-645328" lat="60.8175000018" lon="4.77915277974">
		<tag k="name" v="Bukkholmen" />
		<tag k="place" v="islet" />
		<tag k="ssr:stedsnr" v="834926" />
	</node>
	<node id="-645327" lat="60.7391527808" lon="4.96368888932">
		<tag k="name" v="Tindmyrane" />
		<tag k="natural" v="wetland" />
		<tag k="ssr:stedsnr" v="834858" />
	</node>
	<node id="-645326" lat="60.7594444477" lon="4.94816111805">
		<tag k="name" v="Ørnetua" />
		<tag k="place" v="farm" />
		<tag k="ssr:stedsnr" v="834855" />
	</node>
	<node id="-645325" lat="60.7659527792" lon="4.90118610384">
		<tag k="name" v="Vestre Purkholmen" />
		<tag k="place" v="islet" />
		<tag k="ssr:stedsnr" v="834257" />
	</node>
	<node id="-645324" lat="60.8007527787" lon="4.93850000237">
		<tag k="fixme" v="consider seamark:type=rock or natural=shoal" />
		<tag k="name" v="Trollholmskjeret" />
		<tag k="place" v="islet" />
		<tag k="ssr:stedsnr" v="834229" />
	</node>
	<node id="-645323" lat="60.8184333371" lon="4.78093611828">
		<tag k="name" v="Sjøbuosen" />
		<tag k="natural" v="strait" />
		<tag k="ssr:stedsnr" v="833957" />
	</node>
	<node id="-645322" lat="60.7617861105" lon="4.99935833755">
		<tag k="name" v="Brurebykset" />
		<tag k="place" v="locality" />
		<tag k="ssr:stedsnr" v="833906" />
	</node>
	<node id="-645321" lat="60.7871083345" lon="4.92802222075">
		<tag k="name" v="Sætre" />
		<tag k="place" v="farm" />
		<tag k="ssr:stedsnr" v="936473" />
	</node>
	<node id="-645320" lat="60.7951916691" lon="4.92547777308">
		<tag k="name" v="Budalen" />
		<tag k="place" v="farm" />
		<tag k="ssr:stedsnr" v="936447" />
	</node>
	<node id="-645319" lat="60.7945416679" lon="4.99074167512">
		<tag k="name" v="Midttangen" />
		<tag k="natural" v="cape" />
		<tag k="ssr:stedsnr" v="935799" />
	</node>
	<node id="-645318" lat="60.7984305587" lon="4.91291389408">
		<tag k="name" v="Sætre" />
		<tag k="natural" v="hill" />
		<tag k="place" v="locality" />
		<tag k="ssr:stedsnr" v="935866" />
	</node>
	<node id="-645317" lat="60.7459916689" lon="4.98394999106">
		<tag k="fixme" v="consider seamark:type=rock or natural=shoal" />
		<tag k="name" v="Skarveskjeret" />
		<tag k="place" v="islet" />
		<tag k="ssr:stedsnr" v="935840" />
	</node>
	<node id="-645316" lat="60.7352027815" lon="4.96932499838">
		<tag k="name" v="Snekkevika" />
		<tag k="natural" v="bay" />
		<tag k="ssr:stedsnr" v="819253" />
	</node>
	<node id="-645315" lat="60.7992305555" lon="4.94578055088">
		<tag k="name" v="Buneset" />
		<tag k="natural" v="cape" />
		<tag k="ssr:stedsnr" v="814870" />
	</node>
	<node id="-645314" lat="60.8086763112" lon="4.94333125199">
		<tag k="fixme" v="consider seamark:type=rock or natural=shoal" />
		<tag k="name" v="Hagelskjeret" />
		<tag k="place" v="islet" />
		<tag k="ssr:stedsnr" v="814810" />
	</node>
	<node id="-645313" lat="60.8101333325" lon="4.94927499552">
		<tag k="fixme" v="consider seamark:type=rock or natural=shoal" />
		<tag k="name" v="Vardetangsskjeret" />
		<tag k="place" v="islet" />
		<tag k="ssr:stedsnr" v="814809" />
	</node>
	<node id="-645312" lat="60.8120083329" lon="4.9703499937">
		<tag k="fixme" v="consider seamark:type=rock or natural=shoal" />
		<tag k="name" v="Midttangen" />
		<tag k="place" v="islet" />
		<tag k="ssr:stedsnr" v="814806" />
	</node>
	<node id="-645311" lat="60.8038111076" lon="4.98041389183">
		<tag k="name" v="Fonnes" />
		<tag k="place" v="farm" />
		<tag k="ssr:stedsnr" v="813325" />
	</node>
	<node id="-645310" lat="60.8011250026" lon="4.90432499183">
		<tag k="name" v="Vikingatræholmen" />
		<tag k="place" v="islet" />
		<tag k="ssr:stedsnr" v="798052" />
	</node>
	<node id="-645309" lat="60.7679638908" lon="4.95428611094">
		<tag k="name" v="Åsen" />
		<tag k="natural" v="hill" />
		<tag k="place" v="locality" />
		<tag k="ssr:stedsnr" v="797192" />
	</node>
	<node id="-645308" lat="60.7514666629" lon="4.97817500495">
		<tag k="name" v="Skavika" />
		<tag k="natural" v="bay" />
		<tag k="ssr:stedsnr" v="797173" />
	</node>
	<node id="-645307" lat="60.759869445" lon="5.02711388388">
		<tag k="name" v="Arehaugen" />
		<tag k="natural" v="hill" />
		<tag k="place" v="locality" />
		<tag k="ssr:stedsnr" v="797166" />
	</node>
	<node id="-645306" lat="60.7638722972" lon="4.9157285238">
		<tag k="alt_name" v="Austrheim" />
		<tag k="amenity" v="place_of_worship" />
		<tag k="denomination" v="lutheran" />
		<tag k="name" v="Austrheim kyrkje" />
		<tag k="religion" v="christian" />
		<tag k="ssr:stedsnr" v="797208" />
	</node>
	<node id="-645305" lat="60.8018527805" lon="4.87812500076">
		<tag k="fixme" v="consider seamark:type=rock or natural=shoal" />
		<tag k="name" v="Seisnappen" />
		<tag k="place" v="islet" />
		<tag k="ssr:stedsnr" v="797038" />
	</node>
	<node id="-645304" lat="60.7754416678" lon="4.84100000333">
		<tag k="name" v="Grønholmen" />
		<tag k="place" v="islet" />
		<tag k="ssr:stedsnr" v="797024" />
	</node>
	<node id="-645303" lat="60.7460361131" lon="4.96754445057">
		<tag k="name" v="Litlelindås" />
		<tag k="place" v="hamlet" />
		<tag k="ssr:stedsnr" v="795780" />
	</node>
	<node id="-645302" lat="60.7332861153" lon="4.97224722824">
		<tag k="name" v="Bukkholmen" />
		<tag k="place" v="islet" />
		<tag k="ssr:stedsnr" v="795778" />
	</node>
	<node id="-645301" lat="60.7649777778" lon="4.9307555512">
		<tag k="name" v="Trollåsane" />
		<tag k="natural" v="hill" />
		<tag k="place" v="locality" />
		<tag k="ssr:stedsnr" v="919195" />
	</node>
	<node id="-645300" lat="60.7550027737" lon="4.90279166724">
		<tag k="name" v="Bergsvikhavnen" />
		<tag k="natural" v="bay" />
		<tag k="ssr:stedsnr" v="919147" />
	</node>
	<node id="-645299" lat="60.7514719202" lon="4.93213977335">
		<tag k="name" v="Litlavatnet" />
		<tag k="natural" v="water" />
		<tag k="ssr:stedsnr" v="919141" />
	</node>
	<node id="-645298" lat="60.797736109" lon="4.8444166706">
		<tag k="name" v="Rebnorssundet" />
		<tag k="natural" v="strait" />
		<tag k="ssr:stedsnr" v="919052" />
	</node>
	<node id="-645297" lat="60.8062027815" lon="4.80343333346">
		<tag k="name" v="Baløyna" />
		<tag k="place" v="islet" />
		<tag k="ssr:stedsnr" v="919046" />
	</node>
	<node id="-645296" lat="60.8077055576" lon="4.95133055575">
		<tag k="name" v="Vardetua" />
		<tag k="natural" v="hill" />
		<tag k="place" v="locality" />
		<tag k="ssr:stedsnr" v="919036" />
	</node>
	<node id="-645295" lat="60.8042166631" lon="4.97962778614">
		<tag k="name" v="Fonnes" />
		<tag k="place" v="farm" />
		<tag k="ssr:stedsnr" v="918988" />
	</node>
	<node id="-645294" lat="60.8155527744" lon="4.98273333052">
		<tag k="name" v="Langeneset" />
		<tag k="natural" v="cape" />
		<tag k="ssr:stedsnr" v="918985" />
	</node>
	<node id="-645293" lat="60.7797246326" lon="4.85917478047">
		<tag k="name" v="Bukkholmen" />
		<tag k="place" v="islet" />
		<tag k="ssr:stedsnr" v="918245" />
	</node>
	<node id="-645292" lat="60.7765916675" lon="4.97918055378">
		<tag k="name" v="Lamholmen" />
		<tag k="place" v="islet" />
		<tag k="ssr:stedsnr" v="918214" />
	</node>
	<node id="-645291" lat="60.8053638898" lon="4.968500007">
		<tag k="name" v="Skarshaugen" />
		<tag k="natural" v="hill" />
		<tag k="place" v="locality" />
		<tag k="ssr:stedsnr" v="773871" />
	</node>
	<node id="-645290" lat="60.7976833307" lon="4.9870166647">
		<tag k="name" v="Hestneset" />
		<tag k="natural" v="cape" />
		<tag k="ssr:stedsnr" v="773865" />
	</node>
	<node id="-645289" lat="60.8206916685" lon="4.81073056007">
		<tag k="name" v="Ramsberghaugen" />
		<tag k="natural" v="hill" />
		<tag k="place" v="locality" />
		<tag k="ssr:stedsnr" v="773927" />
	</node>
	<node id="-645288" lat="60.8172749959" lon="4.78327777017">
		<tag k="name" v="Hestholmen" />
		<tag k="place" v="islet" />
		<tag k="ssr:stedsnr" v="773923" />
	</node>
	<node id="-645287" lat="60.7936388907" lon="4.78529722601">
		<tag k="fixme" v="consider seamark:type=rock or natural=shoal" />
		<tag k="name" v="Lyngokseskjera" />
		<tag k="place" v="islet" />
		<tag k="ssr:stedsnr" v="772937" />
	</node>
	<node id="-645286" lat="60.7819111071" lon="4.98485554908">
		<tag k="name" v="Sjoelva" />
		<tag k="ssr:stedsnr" v="772920" />
		<tag k="waterway" v="river" />
	</node>
	<node id="-645285" lat="60.8100305539" lon="5.00183056143">
		<tag k="name" v="Stølen" />
		<tag k="place" v="farm" />
		<tag k="ssr:stedsnr" v="772906" />
	</node>
	<node id="-645284" lat="60.7699416706" lon="4.9317138841">
		<tag k="name" v="Hjertås" />
		<tag k="place" v="farm" />
		<tag k="ssr:stedsnr" v="772260" />
	</node>
	<node id="-645283" lat="60.7748722185" lon="5.0017555538">
		<tag k="name" v="Straumstad" />
		<tag k="place" v="farm" />
		<tag k="ssr:stedsnr" v="752335" />
	</node>
	<node id="-645281" lat="60.8128722233" lon="4.89271666206">
		<tag k="name" v="Austnesfluene" />
		<tag k="natural" v="shoal" />
		<tag k="place" v="locality" />
		<tag k="ssr:stedsnr" v="723559" />
	</node>
	<node id="-645280" lat="60.7921388912" lon="4.8184888847">
		<tag k="fixme" v="consider natural=peak for the most distinct mountains in the district" />
		<tag k="name" v="Litlevarden" />
		<tag k="natural" v="hill" />
		<tag k="ssr:stedsnr" v="895989" />
	</node>
	<node id="-645279" lat="60.7898416684" lon="4.86305000887">
		<tag k="name" v="Leirpollen" />
		<tag k="natural" v="bay" />
		<tag k="ssr:stedsnr" v="895979" />
	</node>
	<node id="-645278" lat="60.8043277812" lon="4.91244166184">
		<tag k="name" v="Nothuset" />
		<tag k="place" v="locality" />
		<tag k="ssr:stedsnr" v="895899" />
	</node>
	<node id="-645277" lat="60.7534777813" lon="4.99869721733">
		<tag k="name" v="Ospeskarhaugen" />
		<tag k="natural" v="hill" />
		<tag k="place" v="locality" />
		<tag k="ssr:stedsnr" v="895888" />
	</node>
	<node id="-645276" lat="60.7955472216" lon="5.01574166183">
		<tag k="name" v="Litlåsdalen" />
		<tag k="natural" v="valley" />
		<tag k="place" v="locality" />
		<tag k="ssr:stedsnr" v="895885" />
	</node>
	<node id="-645275" lat="60.7963361136" lon="4.99408888559">
		<tag k="name" v="Søre Fonnesvågen" />
		<tag k="natural" v="bay" />
		<tag k="ssr:stedsnr" v="895884" />
	</node>
	<node id="-645274" lat="60.8062249962" lon="4.79830000543">
		<tag k="name" v="Nesholmen" />
		<tag k="place" v="islet" />
		<tag k="ssr:stedsnr" v="895822" />
	</node>
	<node id="-645273" lat="60.8014888899" lon="4.85320278513">
		<tag k="name" v="Søre Lyngholmen" />
		<tag k="place" v="islet" />
		<tag k="ssr:stedsnr" v="894998" />
	</node>
	<node id="-645272" lat="60.8043527746" lon="4.83715277909">
		<tag k="name" v="Purkholmen" />
		<tag k="place" v="islet" />
		<tag k="ssr:stedsnr" v="894994" />
	</node>
	<node id="-645271" lat="60.7728777751" lon="4.87118611128">
		<tag k="name" v="Skaget" />
		<tag k="natural" v="cape" />
		<tag k="ssr:stedsnr" v="894972" />
	</node>
	<node id="-645270" lat="60.7531472185" lon="4.96389443835">
		<tag k="name" v="Kannedalsmyra" />
		<tag k="natural" v="wetland" />
		<tag k="ssr:stedsnr" v="894967" />
	</node>
	<node id="-645269" lat="60.8256722193" lon="4.80491667558">
		<tag k="name" v="Risneset" />
		<tag k="natural" v="cape" />
		<tag k="ssr:stedsnr" v="894946" />
	</node>
	<node id="-645268" lat="60.8063055529" lon="4.86133611688">
		<tag k="name" v="Øksa" />
		<tag k="natural" v="cape" />
		<tag k="ssr:stedsnr" v="894933" />
	</node>
	<node id="-645267" lat="60.7933138869" lon="4.89818888019">
		<tag k="name" v="Sjevika" />
		<tag k="natural" v="bay" />
		<tag k="ssr:stedsnr" v="894926" />
	</node>
	<node id="-645266" lat="60.7897472234" lon="4.98681111533">
		<tag k="name" v="Grønnappen" />
		<tag k="natural" v="cape" />
		<tag k="ssr:stedsnr" v="894925" />
	</node>
	<node id="-645265" lat="60.810405556" lon="4.80172221634">
		<tag k="name" v="Trollholmen" />
		<tag k="place" v="islet" />
		<tag k="ssr:stedsnr" v="712994" />
	</node>
	<node id="-645264" lat="60.7871583367" lon="4.84311945255">
		<tag k="name" v="Tingsholmen" />
		<tag k="place" v="islet" />
		<tag k="ssr:stedsnr" v="712985" />
	</node>
	<node id="-645263" lat="60.7615027796" lon="4.89456666389">
		<tag k="name" v="Buholmen" />
		<tag k="place" v="islet" />
		<tag k="ssr:stedsnr" v="712982" />
	</node>
	<node id="-645262" lat="60.7708861107" lon="4.96361945045">
		<tag k="name" v="Gassetangen" />
		<tag k="natural" v="cape" />
		<tag k="ssr:stedsnr" v="712959" />
	</node>
	<node id="-645261" lat="60.7629027752" lon="4.86317499755">
		<tag k="name" v="Vardholmen" />
		<tag k="place" v="islet" />
		<tag k="ssr:stedsnr" v="712953" />
	</node>
	<node id="-645260" lat="60.7603638863" lon="4.98535277628">
		<tag k="name" v="Grindhaugen" />
		<tag k="natural" v="hill" />
		<tag k="place" v="locality" />
		<tag k="ssr:stedsnr" v="894879" />
	</node>
	<node id="-645259" lat="60.8101944442" lon="4.84446944581">
		<tag k="name" v="Blåbærholmen" />
		<tag k="place" v="islet" />
		<tag k="ssr:stedsnr" v="894858" />
	</node>
	<node id="-645258" lat="60.8178235251" lon="4.80060245753">
		<tag k="name" v="Nordre Kastholmsundet" />
		<tag k="natural" v="strait" />
		<tag k="ssr:stedsnr" v="894846" />
	</node>
	<node id="-645257" lat="60.822855555" lon="4.80406666309">
		<tag k="name" v="Kumlevågen" />
		<tag k="natural" v="bay" />
		<tag k="ssr:stedsnr" v="894845" />
	</node>
	<node id="-645256" lat="60.7848361134" lon="4.92006111081">
		<tag k="name" v="Krabbholmen" />
		<tag k="place" v="islet" />
		<tag k="ssr:stedsnr" v="712200" />
	</node>
	<node id="-645255" lat="60.771477781" lon="4.9742666661">
		<tag k="name" v="Langholmen" />
		<tag k="place" v="islet" />
		<tag k="ssr:stedsnr" v="894258" />
	</node>
	<node id="-645254" lat="60.7620111137" lon="4.98973056324">
		<tag k="name" v="Skarvholmen" />
		<tag k="place" v="islet" />
		<tag k="ssr:stedsnr" v="894247" />
	</node>
	<node id="-645253" lat="60.7999527748" lon="4.9473999948">
		<tag k="name" v="Beglholmen" />
		<tag k="place" v="islet" />
		<tag k="ssr:stedsnr" v="894240" />
	</node>
	<node id="-645252" lat="60.8139777819" lon="4.907375002">
		<tag k="name" v="Dankertholmen" />
		<tag k="place" v="islet" />
		<tag k="ssr:stedsnr" v="894234" />
	</node>
	<node id="-645251" lat="60.812219444" lon="5.0085388837">
		<tag k="name" v="Sanddalen" />
		<tag k="natural" v="valley" />
		<tag k="place" v="locality" />
		<tag k="ssr:stedsnr" v="894227" />
	</node>
	<node id="-645250" lat="60.800344446" lon="4.78239999413">
		<tag k="name" v="Kalven" />
		<tag k="place" v="islet" />
		<tag k="ssr:stedsnr" v="708109" />
	</node>
	<node id="-645249" lat="60.7796527742" lon="4.9945861195">
		<tag k="name" v="Straumstadvatnet" />
		<tag k="natural" v="water" />
		<tag k="ssr:stedsnr" v="695617" />
		<tag k="water" v="lake" />
	</node>
	<node id="-645248" lat="60.7795416686" lon="4.95733333716">
		<tag k="name" v="Nyhavnen" />
		<tag k="natural" v="bay" />
		<tag k="ssr:stedsnr" v="693770" />
	</node>
	<node id="-645247" lat="60.758411113" lon="4.91075832954">
		<tag k="name" v="Bergsvika" />
		<tag k="place" v="farm" />
		<tag k="ssr:stedsnr" v="693756" />
	</node>
	<node id="-645246" lat="60.7591749984" lon="4.919205552">
		<tag k="name" v="Austrheim" />
		<tag k="place" v="farm" />
		<tag k="ssr:stedsnr" v="693755" />
	</node>
	<node id="-645245" lat="60.7449166668" lon="4.95845278283">
		<tag k="name" v="Litlelindås" />
		<tag k="place" v="farm" />
		<tag k="ssr:stedsnr" v="693476" />
	</node>
	<node id="-645244" lat="60.7834968004" lon="4.92282126263">
		<tag k="fixme" v="consider place=hamlet" />
		<tag k="name" v="Åråsvågen" />
		<tag k="place" v="farm" />
		<tag k="ssr:stedsnr" v="693471" />
	</node>
	<node id="-645243" lat="60.7919361095" lon="4.93020278327">
		<tag k="name" v="Sætrebukta" />
		<tag k="natural" v="bay" />
		<tag k="ssr:stedsnr" v="693857" />
	</node>
	<node id="-645242" lat="60.7590861111" lon="4.98042500283">
		<tag k="name" v="Nordre Njøta" />
		<tag k="place" v="farm" />
		<tag k="ssr:stedsnr" v="692435" />
	</node>
	<node id="-645241" lat="60.7549611121" lon="4.99175555446">
		<tag k="name" v="Njøta" />
		<tag k="place" v="island" />
		<tag k="ssr:stedsnr" v="676167" />
	</node>
	<node id="-645240" lat="60.7542527821" lon="4.93492500687">
		<tag k="name" v="Nonkletten" />
		<tag k="natural" v="hill" />
		<tag k="place" v="locality" />
		<tag k="ssr:stedsnr" v="676157" />
	</node>
	<node id="-645239" lat="60.7598760939" lon="4.94296359456">
		<tag k="fixme" v="consider place=hamlet" />
		<tag k="name" v="Førland" />
		<tag k="place" v="farm" />
		<tag k="ssr:stedsnr" v="676210" />
	</node>
	<node id="-645238" lat="60.8053555556" lon="4.78122499495">
		<tag k="fixme" v="consider seamark:type=rock or natural=shoal" />
		<tag k="name" v="Klubbeskjeret" />
		<tag k="place" v="islet" />
		<tag k="ssr:stedsnr" v="676077" />
	</node>
	<node id="-645237" lat="60.803216665" lon="4.77891389743">
		<tag k="fixme" v="consider seamark:type=rock or natural=shoal" />
		<tag k="name" v="Leieskjeret" />
		<tag k="place" v="islet" />
		<tag k="ssr:stedsnr" v="676076" />
	</node>
	<node id="-645236" lat="60.8163166653" lon="4.82706945216">
		<tag k="name" v="Rotøyna" />
		<tag k="place" v="islet" />
		<tag k="ssr:stedsnr" v="676065" />
	</node>
	<node id="-645235" lat="60.8012055583" lon="4.95923056185">
		<tag k="name" v="Ervika" />
		<tag k="natural" v="bay" />
		<tag k="ssr:stedsnr" v="676009" />
	</node>
	<node id="-645234" lat="60.83426389" lon="4.86430832997">
		<tag k="name" v="Svartskjervågen" />
		<tag k="natural" v="bay" />
		<tag k="ssr:stedsnr" v="675111" />
	</node>
	<node id="-645233" lat="60.8354500014" lon="4.86940556112">
		<tag k="name" v="Sætreneset" />
		<tag k="natural" v="cape" />
		<tag k="ssr:stedsnr" v="675109" />
	</node>
	<node id="-645232" lat="60.8330250006" lon="4.85433889295">
		<tag k="fixme" v="consider seamark:type=rock or natural=shoal" />
		<tag k="name" v="Svartskjeret" />
		<tag k="place" v="islet" />
		<tag k="ssr:stedsnr" v="675104" />
	</node>
	<node id="-645231" lat="60.7929527805" lon="4.97309721571">
		<tag k="name" v="Fonnesstraumen" />
		<tag k="natural" v="strait" />
		<tag k="ssr:stedsnr" v="675026" />
	</node>
	<node id="-645230" lat="60.7549277734" lon="4.91271388957">
		<tag k="name" v="Marka" />
		<tag k="place" v="farm" />
		<tag k="ssr:stedsnr" v="880135" />
	</node>
	<node id="-645228" lat="60.8229888911" lon="4.81167499607">
		<tag k="name" v="Krossøyna" />
		<tag k="place" v="island" />
		<tag k="ssr:stedsnr" v="736131" />
	</node>
	<node id="-645227" lat="60.8148555569" lon="4.8766277783">
		<tag k="name" v="Jarnneset" />
		<tag k="natural" v="cape" />
		<tag k="ssr:stedsnr" v="736092" />
	</node>
	<node id="-645226" lat="60.8085219346" lon="4.97249910902">
		<tag k="name" v="Nordre Fonnesvågen" />
		<tag k="natural" v="bay" />
		<tag k="ssr:stedsnr" v="736088" />
	</node>
	<node id="-645225" lat="60.8142361074" lon="4.81926388332">
		<tag k="name" v="Teistholmen" />
		<tag k="place" v="islet" />
		<tag k="ssr:stedsnr" v="736075" />
	</node>
	<node id="-645223" lat="60.7378611076" lon="4.95629167471">
		<tag k="name" v="Herslaupsmyrane" />
		<tag k="natural" v="wetland" />
		<tag k="ssr:stedsnr" v="651876" />
	</node>
	<node id="-645222" lat="60.7341638892" lon="4.98104166624">
		<tag k="name" v="Lamholmen" />
		<tag k="place" v="islet" />
		<tag k="ssr:stedsnr" v="651872" />
	</node>
	<node id="-645221" lat="60.8102527784" lon="4.90409722773">
		<tag k="name" v="Ryggjeneset" />
		<tag k="natural" v="cape" />
		<tag k="ssr:stedsnr" v="651923" />
	</node>
	<node id="-645220" lat="60.807574999" lon="4.96180555965">
		<tag k="name" v="Kvernhuselva" />
		<tag k="ssr:stedsnr" v="651919" />
		<tag k="waterway" v="river" />
	</node>
	<node id="-645219" lat="60.7987675985" lon="4.9803632122">
		<tag k="name" v="Vestretjørna" />
		<tag k="natural" v="water" />
		<tag k="ssr:stedsnr" v="651917" />
	</node>
	<node id="-645218" lat="60.8098999983" lon="4.91562500504">
		<tag k="name" v="Kylleren" />
		<tag k="natural" v="bay" />
		<tag k="ssr:stedsnr" v="651906" />
	</node>
	<node id="-645217" lat="60.7425166676" lon="4.93935278462">
		<tag k="fixme" v="consider seamark:type=rock or natural=shoal" />
		<tag k="name" v="Sygneskjeret" />
		<tag k="place" v="islet" />
		<tag k="ssr:stedsnr" v="651255" />
	</node>
	<node id="-645216" lat="60.7703722265" lon="4.89467222285">
		<tag k="name" v="Breivika" />
		<tag k="natural" v="bay" />
		<tag k="ssr:stedsnr" v="647876" />
	</node>
	<node id="-645215" lat="60.7998777752" lon="4.87098054788">
		<tag k="name" v="Austevågane" />
		<tag k="natural" v="bay" />
		<tag k="ssr:stedsnr" v="647489" />
	</node>
	<node id="-645214" lat="60.8132722265" lon="4.80804166036">
		<tag k="name" v="Nordra Kjerringa" />
		<tag k="place" v="islet" />
		<tag k="ssr:stedsnr" v="734073" />
	</node>
	<node id="-645213" lat="60.7877277792" lon="4.81482223093">
		<tag k="name" v="Litle Langøyna" />
		<tag k="place" v="island" />
		<tag k="ssr:stedsnr" v="642841" />
	</node>
	<node id="-645212" lat="60.7735638888" lon="4.8746111063">
		<tag k="name" v="Dyrneset" />
		<tag k="place" v="farm" />
		<tag k="ssr:stedsnr" v="632707" />
	</node>
	<node id="-645211" lat="60.8033361082" lon="4.92590833022">
		<tag k="name" v="Ulvøyna" />
		<tag k="place" v="farm" />
		<tag k="ssr:stedsnr" v="632465" />
	</node>
	<node id="-645210" lat="60.7985245401" lon="4.93622798742">
		<tag k="fixme" v="consider place=hamlet" />
		<tag k="name" v="Kilstraumen" />
		<tag k="place" v="farm" />
		<tag k="ssr:stedsnr" v="632457" />
	</node>
	<node id="-645209" lat="60.8256222225" lon="4.80676389395">
		<tag k="name" v="Risnesvågen" />
		<tag k="natural" v="bay" />
		<tag k="ssr:stedsnr" v="723877" />
	</node>
	<node id="-645208" lat="60.8048666677" lon="4.94935276922">
		<tag k="name" v="Solisholmen" />
		<tag k="place" v="islet" />
		<tag k="ssr:stedsnr" v="723527" />
	</node>
	<node id="-645207" lat="60.8408972194" lon="4.87649166908">
		<tag k="name" v="Beinsflua" />
		<tag k="natural" v="shoal" />
		<tag k="place" v="locality" />
		<tag k="ssr:stedsnr" v="615365" />
	</node>
	<node id="-645206" lat="60.7713777774" lon="4.81902776985">
		<tag k="name" v="Kyrkjefluskallen" />
		<tag k="natural" v="shoal" />
		<tag k="place" v="locality" />
		<tag k="ssr:stedsnr" v="615221" />
	</node>
	<node id="-645205" lat="60.7819455673" lon="4.89610388387">
		<tag k="name" v="Klåretjørna" />
		<tag k="natural" v="water" />
		<tag k="ssr:stedsnr" v="615202" />
	</node>
	<node id="-645204" lat="60.7845666698" lon="4.81408888">
		<tag k="name" v="Myrbærholmane" />
		<tag k="place" v="islet" />
		<tag k="ssr:stedsnr" v="614005" />
	</node>
	<node id="-645203" lat="60.8214305543" lon="4.81972776913">
		<tag k="name" v="Sjokletten" />
		<tag k="natural" v="hill" />
		<tag k="place" v="locality" />
		<tag k="ssr:stedsnr" v="712944" />
	</node>
	<node id="-645202" lat="60.8160388865" lon="4.98410277658">
		<tag k="name" v="Juvika" />
		<tag k="natural" v="bay" />
		<tag k="ssr:stedsnr" v="712910" />
	</node>
	<node id="-645201" lat="60.8121888852" lon="4.96138333374">
		<tag k="name" v="Krossnesholmen" />
		<tag k="place" v="islet" />
		<tag k="ssr:stedsnr" v="712891" />
	</node>
	<node id="-645200" lat="60.8006305574" lon="4.98898888799">
		<tag k="name" v="Merkesåen" />
		<tag k="ssr:stedsnr" v="712889" />
		<tag k="waterway" v="river" />
	</node>
	<node id="-645199" lat="60.7961500024" lon="5.03980833717">
		<tag k="name" v="Austremyrane" />
		<tag k="natural" v="wetland" />
		<tag k="ssr:stedsnr" v="712885" />
	</node>
	<node id="-645198" lat="60.7545777769" lon="4.90339166382">
		<tag k="name" v="Brøkneset" />
		<tag k="natural" v="cape" />
		<tag k="ssr:stedsnr" v="712859" />
	</node>
	<node id="-645197" lat="60.7715638894" lon="4.88227777151">
		<tag k="name" v="Litla Dyrneset" />
		<tag k="natural" v="cape" />
		<tag k="ssr:stedsnr" v="712858" />
	</node>
	<node id="-645196" lat="60.7746250004" lon="4.92499166249">
		<tag k="leisure" v="pitch" />
		<tag k="name" v="Idrettsplass" />
		<tag k="ssr:stedsnr" v="712855" />
	</node>
	<node id="-645195" lat="60.769297223" lon="4.90321388695">
		<tag k="name" v="Træsbakken" />
		<tag k="natural" v="slope" />
		<tag k="place" v="locality" />
		<tag k="ssr:stedsnr" v="712852" />
	</node>
	<node id="-645194" lat="60.8062305562" lon="4.79608055795">
		<tag k="name" v="Fyrsundet" />
		<tag k="natural" v="strait" />
		<tag k="ssr:stedsnr" v="712820" />
	</node>
	<node id="-645193" lat="60.7438305558" lon="5.00619721709">
		<tag k="name" v="Store Otrevikshaugen" />
		<tag k="natural" v="hill" />
		<tag k="place" v="locality" />
		<tag k="ssr:stedsnr" v="590955" />
	</node>
	<node id="-645192" lat="60.805719446" lon="4.80826111641">
		<tag k="fixme" v="consider seamark:type=rock or natural=shoal" />
		<tag k="name" v="Lyngskjeret" />
		<tag k="place" v="islet" />
		<tag k="ssr:stedsnr" v="590919" />
	</node>
	<node id="-645191" lat="60.7888444461" lon="4.98453888055">
		<tag k="name" v="Jessholmen" />
		<tag k="place" v="islet" />
		<tag k="ssr:stedsnr" v="711933" />
	</node>
	<node id="-645190" lat="60.7656222208" lon="4.91699444418">
		<tag k="name" v="Skråhaugen" />
		<tag k="natural" v="hill" />
		<tag k="place" v="locality" />
		<tag k="ssr:stedsnr" v="590256" />
	</node>
	<node id="-645189" lat="60.7792888929" lon="4.97580277154">
		<tag k="name" v="Synnevågen" />
		<tag k="place" v="farm" />
		<tag k="ssr:stedsnr" v="570313" />
	</node>
	<node id="-645188" lat="60.7817388929" lon="4.97584722677">
		<tag k="name" v="Synnevågen" />
		<tag k="place" v="farm" />
		<tag k="ssr:stedsnr" v="570312" />
	</node>
	<node id="-645187" lat="60.8272833358" lon="4.8516027836">
		<tag k="name" v="Litleboen" />
		<tag k="natural" v="shoal" />
		<tag k="place" v="locality" />
		<tag k="ssr:stedsnr" v="554115" />
	</node>
	<node id="-645186" lat="60.8219694405" lon="4.80569167512">
		<tag k="name" v="Gardsendosen" />
		<tag k="natural" v="strait" />
		<tag k="ssr:stedsnr" v="554111" />
	</node>
	<node id="-645185" lat="60.8011888933" lon="4.8651833414">
		<tag k="name" v="Øksneset" />
		<tag k="place" v="farm" />
		<tag k="ssr:stedsnr" v="693646" />
	</node>
	<node id="-645184" lat="60.7754305525" lon="4.93953610792">
		<tag k="name" v="Leikvoll" />
		<tag k="place" v="farm" />
		<tag k="ssr:stedsnr" v="693510" />
	</node>
	<node id="-645183" lat="60.7558166675" lon="4.97432499615">
		<tag k="name" v="Grønåsen" />
		<tag k="natural" v="cape" />
		<tag k="ssr:stedsnr" v="692841" />
	</node>
	<node id="-645182" lat="60.7434388919" lon="4.93898056278">
		<tag k="name" v="Vikasanden" />
		<tag k="natural" v="bay" />
		<tag k="ssr:stedsnr" v="692837" />
	</node>
	<node id="-645181" lat="60.8022194486" lon="4.81453610648">
		<tag k="name" v="Sævrøyna" />
		<tag k="place" v="farm" />
		<tag k="ssr:stedsnr" v="692619" />
	</node>
	<node id="-645180" lat="60.8014777773" lon="4.81496944878">
		<tag k="name" v="Sævrøyna" />
		<tag k="place" v="farm" />
		<tag k="ssr:stedsnr" v="692615" />
	</node>
	<node id="-645179" lat="60.759383331" lon="4.88549444668">
		<tag k="name" v="Færøyna" />
		<tag k="place" v="island" />
		<tag k="ssr:stedsnr" v="691839" />
	</node>
	<node id="-645178" lat="60.7510888902" lon="4.94410277988">
		<tag k="name" v="Oksla" />
		<tag k="natural" v="hill" />
		<tag k="place" v="locality" />
		<tag k="ssr:stedsnr" v="530960" />
	</node>
	<node id="-645177" lat="60.821720201" lon="4.77050564227">
		<tag k="name" v="Nesholmen" />
		<tag k="place" v="islet" />
		<tag k="ssr:stedsnr" v="530824" />
	</node>
	<node id="-645176" lat="60.802461107" lon="4.81340555394">
		<tag k="name" v="Sævrøyna" />
		<tag k="place" v="farm" />
		<tag k="ssr:stedsnr" v="510656" />
	</node>
	<node id="-645175" lat="60.7576500035" lon="4.91505833689">
		<tag k="name" v="Hopland" />
		<tag k="place" v="farm" />
		<tag k="ssr:stedsnr" v="510510" />
	</node>
	<node id="-645174" lat="60.7575416638" lon="4.91711666805">
		<tag k="name" v="Hopland" />
		<tag k="place" v="farm" />
		<tag k="ssr:stedsnr" v="510508" />
	</node>
	<node id="-645173" lat="60.772316668" lon="4.90666111947">
		<tag k="name" v="Resnipa" />
		<tag k="natural" v="hill" />
		<tag k="place" v="locality" />
		<tag k="ssr:stedsnr" v="736260" />
	</node>
	<node id="-645172" lat="60.7675861157" lon="4.89635000296">
		<tag k="name" v="Austrheimsvågen" />
		<tag k="natural" v="bay" />
		<tag k="ssr:stedsnr" v="736259" />
	</node>
	<node id="-645171" lat="60.7743499979" lon="4.88226666843">
		<tag k="name" v="Langbalen" />
		<tag k="natural" v="hill" />
		<tag k="place" v="locality" />
		<tag k="ssr:stedsnr" v="736255" />
	</node>
	<node id="-645170" lat="60.7772916695" lon="4.91617500701">
		<tag k="name" v="Makdalshaugen" />
		<tag k="natural" v="hill" />
		<tag k="place" v="locality" />
		<tag k="ssr:stedsnr" v="736232" />
	</node>
	<node id="-645169" lat="60.7793888925" lon="4.84662500054">
		<tag k="name" v="Ådnøyna" />
		<tag k="place" v="islet" />
		<tag k="ssr:stedsnr" v="736231" />
	</node>
	<node id="-645168" lat="60.7669888873" lon="4.94755554956">
		<tag k="name" v="Rabben" />
		<tag k="place" v="farm" />
		<tag k="ssr:stedsnr" v="736228" />
	</node>
	<node id="-645167" lat="60.7662527812" lon="4.89120556089">
		<tag k="name" v="Sauøyna" />
		<tag k="place" v="islet" />
		<tag k="ssr:stedsnr" v="736225" />
	</node>
	<node id="-645166" lat="60.7616972212" lon="4.85698888279">
		<tag k="name" v="Høgholmen" />
		<tag k="place" v="islet" />
		<tag k="ssr:stedsnr" v="736222" />
	</node>
	<node id="-645165" lat="60.7695694453" lon="4.95895556178">
		<tag k="name" v="Buneset" />
		<tag k="natural" v="cape" />
		<tag k="ssr:stedsnr" v="493202" />
	</node>
	<node id="-645164" lat="60.7589763334" lon="4.92396543586">
		<tag k="name" v="Åsetjørna" />
		<tag k="natural" v="water" />
		<tag k="ssr:stedsnr" v="676152" />
	</node>
	<node id="-645163" lat="60.7554111067" lon="4.92438332612">
		<tag k="name" v="Sømhaugen" />
		<tag k="natural" v="hill" />
		<tag k="place" v="locality" />
		<tag k="ssr:stedsnr" v="676151" />
	</node>
	<node id="-645162" lat="60.775091664" lon="4.86093333157">
		<tag k="name" v="Geitarøyna" />
		<tag k="place" v="islet" />
		<tag k="ssr:stedsnr" v="676235" />
	</node>
	<node id="-645161" lat="60.7738991964" lon="5.00555120979">
		<tag k="fixme" v="consider place=hamlet" />
		<tag k="name" v="Straumstad" />
		<tag k="place" v="farm" />
		<tag k="ssr:stedsnr" v="676198" />
	</node>
	<node id="-645160" lat="60.7746361068" lon="4.97120832996">
		<tag k="name" v="Børholmane" />
		<tag k="place" v="islet" />
		<tag k="ssr:stedsnr" v="676192" />
	</node>
	<node id="-645159" lat="60.8048888853" lon="4.87223054807">
		<tag k="fixme" v="consider seamark:type=rock or natural=shoal" />
		<tag k="name" v="Seisnappane" />
		<tag k="place" v="islet" />
		<tag k="ssr:stedsnr" v="676043" />
	</node>
	<node id="-645158" lat="60.8071777747" lon="4.85130000151">
		<tag k="alt_name" v="Kalven, s" />
		<tag k="name" v="Søre Kalven" />
		<tag k="place" v="islet" />
		<tag k="ssr:stedsnr" v="676039" />
	</node>
	<node id="-645157" lat="60.8154861123" lon="4.855058332">
		<tag k="name" v="Djupeflua" />
		<tag k="natural" v="shoal" />
		<tag k="place" v="locality" />
		<tag k="ssr:stedsnr" v="676083" />
	</node>
	<node id="-645156" lat="60.8200805542" lon="4.83350555688">
		<tag k="name" v="Terneskjerflua" />
		<tag k="natural" v="shoal" />
		<tag k="place" v="locality" />
		<tag k="ssr:stedsnr" v="675131" />
	</node>
	<node id="-645155" lat="60.8122083303" lon="4.88137222271">
		<tag k="name" v="Kalvsflua" />
		<tag k="place" v="locality" />
		<tag k="seamark:type" v="rock" />
		<tag k="ssr:stedsnr" v="480567" />
	</node>
	<node id="-645154" lat="60.7623055567" lon="4.88232499106">
		<tag k="name" v="Lerøyna" />
		<tag k="place" v="island" />
		<tag k="ssr:stedsnr" v="736219" />
	</node>
	<node id="-645153" lat="60.769281047" lon="4.93527629658">
		<tag k="fixme" v="consider place=hamlet" />
		<tag k="name" v="Hjertås" />
		<tag k="place" v="farm" />
		<tag k="ssr:stedsnr" v="736201" />
	</node>
	<node id="-645152" lat="60.7594805553" lon="4.91484444099">
		<tag k="name" v="Hopland" />
		<tag k="place" v="hamlet" />
		<tag k="ssr:stedsnr" v="736170" />
	</node>
	<node id="-645151" lat="60.7513500025" lon="4.93610278188">
		<tag k="name" v="Rennemyra" />
		<tag k="natural" v="wetland" />
		<tag k="ssr:stedsnr" v="736160" />
	</node>
	<node id="-645150" lat="60.820688893" lon="4.88694721767">
		<tag k="name" v="Dynekyllaren" />
		<tag k="natural" v="bay" />
		<tag k="ssr:stedsnr" v="662650" />
	</node>
	<node id="-645149" lat="60.8338444477" lon="4.85169444318">
		<tag k="name" v="Svartskjerfluene" />
		<tag k="natural" v="shoal" />
		<tag k="place" v="locality" />
		<tag k="ssr:stedsnr" v="662594" />
	</node>
	<node id="-645148" lat="60.7933361068" lon="4.94948610812">
		<tag k="name" v="Brattebrekkene" />
		<tag k="natural" v="hill" />
		<tag k="place" v="locality" />
		<tag k="ssr:stedsnr" v="662537" />
	</node>
	<node id="-645147" lat="60.7555333369" lon="4.92274444626">
		<tag k="name" v="Hopland" />
		<tag k="place" v="farm" />
		<tag k="ssr:stedsnr" v="450530" />
	</node>
	<node id="-645146" lat="60.8130555597" lon="4.80329167197">
		<tag k="name" v="Krossøyna" />
		<tag k="place" v="farm" />
		<tag k="ssr:stedsnr" v="450631" />
	</node>
	<node id="-645145" lat="60.7493305589" lon="4.91690833049">
		<tag k="name" v="Kjerringa" />
		<tag k="natural" v="shoal" />
		<tag k="place" v="locality" />
		<tag k="ssr:stedsnr" v="449817" />
	</node>
	<node id="-645144" lat="60.841402775" lon="4.86776943874">
		<tag k="name" v="Beinsskallen" />
		<tag k="natural" v="shoal" />
		<tag k="place" v="locality" />
		<tag k="ssr:stedsnr" v="434345" />
	</node>
	<node id="-645143" lat="60.842205553" lon="4.71985000672">
		<tag k="name" v="Mefjordboen" />
		<tag k="natural" v="shoal" />
		<tag k="place" v="locality" />
		<tag k="ssr:stedsnr" v="434342" />
	</node>
	<node id="-645142" lat="60.7980055572" lon="4.86945834036">
		<tag k="name" v="Austevågen" />
		<tag k="natural" v="bay" />
		<tag k="ssr:stedsnr" v="434030" />
	</node>
	<node id="-645141" lat="60.7734694417" lon="4.89802500121">
		<tag k="name" v="Breivikvarden" />
		<tag k="natural" v="hill" />
		<tag k="place" v="locality" />
		<tag k="ssr:stedsnr" v="433232" />
	</node>
	<node id="-645140" lat="60.7849361149" lon="4.94853888915">
		<tag k="name" v="Geitholmen" />
		<tag k="place" v="islet" />
		<tag k="ssr:stedsnr" v="433223" />
	</node>
	<node id="-645139" lat="60.7628527756" lon="4.96855278623">
		<tag k="name" v="Kalven" />
		<tag k="place" v="islet" />
		<tag k="ssr:stedsnr" v="433209" />
	</node>
	<node id="-645138" lat="60.7603249985" lon="4.90609999312">
		<tag k="name" v="Brekka" />
		<tag k="place" v="farm" />
		<tag k="ssr:stedsnr" v="433208" />
	</node>
	<node id="-645137" lat="60.8197666668" lon="4.78891665752">
		<tag k="name" v="Ramsholmen" />
		<tag k="place" v="islet" />
		<tag k="ssr:stedsnr" v="433132" />
	</node>
	<node id="-645136" lat="60.8225138893" lon="4.85846389319">
		<tag k="name" v="Litleholmen" />
		<tag k="place" v="islet" />
		<tag k="ssr:stedsnr" v="433128" />
	</node>
	<node id="-645135" lat="60.8312333292" lon="4.91697778408">
		<tag k="name" v="Oksebotaren" />
		<tag k="natural" v="shoal" />
		<tag k="place" v="locality" />
		<tag k="ssr:stedsnr" v="433118" />
	</node>
	<node id="-645134" lat="60.8316888895" lon="4.85692500075">
		<tag k="name" v="Storeneset" />
		<tag k="natural" v="cape" />
		<tag k="ssr:stedsnr" v="433114" />
	</node>
	<node id="-645133" lat="60.8292111078" lon="4.80663888539">
		<tag k="name" v="Krossøygavlen" />
		<tag k="natural" v="cape" />
		<tag k="ssr:stedsnr" v="433110" />
	</node>
	<node id="-645132" lat="60.8128194433" lon="4.92180000388">
		<tag k="name" v="Alisholmen" />
		<tag k="place" v="islet" />
		<tag k="ssr:stedsnr" v="433107" />
	</node>
	<node id="-645131" lat="60.8155222231" lon="4.95206667181">
		<tag k="name" v="Drogeflua" />
		<tag k="natural" v="shoal" />
		<tag k="place" v="locality" />
		<tag k="ssr:stedsnr" v="433106" />
	</node>
	<node id="-645130" lat="60.8135944463" lon="4.8448000069">
		<tag k="name" v="Stussøyskaget" />
		<tag k="place" v="islet" />
		<tag k="ssr:stedsnr" v="433104" />
	</node>
	<node id="-645129" lat="60.7855277787" lon="4.83994443548">
		<tag k="name" v="Flatholmen" />
		<tag k="place" v="islet" />
		<tag k="ssr:stedsnr" v="433006" />
	</node>
	<node id="-645128" lat="60.783680557" lon="4.82330278407">
		<tag k="name" v="Langøyna" />
		<tag k="place" v="island" />
		<tag k="ssr:stedsnr" v="433004" />
	</node>
	<node id="-645127" lat="60.7847861079" lon="4.86096944843">
		<tag k="name" v="Hjeltneset" />
		<tag k="natural" v="cape" />
		<tag k="ssr:stedsnr" v="433002" />
	</node>
	<node id="-645125" lat="60.762408332" lon="4.9016055632">
		<tag k="name" v="Bergsvika" />
		<tag k="place" v="farm" />
		<tag k="ssr:stedsnr" v="511717" />
	</node>
	<node id="-645124" lat="60.762033338" lon="4.90407778443">
		<tag k="name" v="Bergsvika" />
		<tag k="place" v="farm" />
		<tag k="ssr:stedsnr" v="511714" />
	</node>
	<node id="-645123" lat="60.7618305528" lon="4.91483610982">
		<tag k="name" v="Austrheim" />
		<tag k="place" v="farm" />
		<tag k="ssr:stedsnr" v="511711" />
	</node>
	<node id="-645122" lat="60.7462475302" lon="4.96646842459">
		<tag k="fixme" v="consider place=hamlet" />
		<tag k="name" v="Litlelindås" />
		<tag k="place" v="farm" />
		<tag k="ssr:stedsnr" v="511451" />
	</node>
	<node id="-645121" lat="60.7771805589" lon="4.93424444945">
		<tag k="name" v="Årås" />
		<tag k="place" v="farm" />
		<tag k="ssr:stedsnr" v="511447" />
	</node>
</osm>
