<?xml version="1.0" encoding="UTF-8"?>
<<<<<<< HEAD
<osm version="0.6" generator="osmapis">
	<node lat="60.74216388864855" lon="4.948822227377622" id="-32752">
		<tag k="name" v="Langavatnet" />
=======
<osm generator="osmapis" version="0.6">
	<node id="-653696" lat="60.7744338703" lon="4.93673609882">
		<tag k="name" v="Åråsvatnet" />
		<tag k="natural" v="water" />
		<tag k="ssr:stedsnr" v="312181" />
	</node>
	<node id="-653311" lat="60.807574999" lon="4.96180555965">
		<tag k="name" v="Kvernhuselva" />
		<tag k="ssr:stedsnr" v="651919" />
		<tag k="waterway" v="river" />
	</node>
	<node id="-653310" lat="60.7987675985" lon="4.9803632122">
		<tag k="name" v="Vestretjørna" />
		<tag k="natural" v="water" />
		<tag k="ssr:stedsnr" v="651917" />
	</node>
	<node id="-653434" lat="60.7597662643" lon="4.95144830985">
		<tag k="name" v="Solevatnet" />
		<tag k="natural" v="water" />
		<tag k="ssr:stedsnr" v="858177" />
	</node>
	<node id="-653695" lat="60.7684694415" lon="4.94275276953">
		<tag k="name" v="Hjartåselva" />
		<tag k="ssr:stedsnr" v="312178" />
		<tag k="waterway" v="stream" />
	</node>
	<node id="-653941" lat="60.7845000032" lon="4.89100000028">
		<tag k="name" v="Hammarsvatnet" />
		<tag k="natural" v="water" />
		<tag k="ssr:stedsnr" v="858029" />
	</node>
	<node id="-653171" lat="60.786767546" lon="4.8725202235">
		<tag k="name" v="Rebnorsvatnet" />
		<tag k="natural" v="water" />
		<tag k="ssr:stedsnr" v="493002" />
	</node>
	<node id="-653810" lat="60.7895429591" lon="4.88871127823">
		<tag k="name" v="Auretjørna" />
		<tag k="natural" v="water" />
		<tag k="ssr:stedsnr" v="554023" />
	</node>
	<node id="-653296" lat="60.7819455673" lon="4.89610388387">
		<tag k="name" v="Klåretjørna" />
		<tag k="natural" v="water" />
		<tag k="ssr:stedsnr" v="615202" />
	</node>
	<node id="-653804" lat="60.7488068102" lon="4.95907069261">
		<tag k="alt_name" v="Lindåsvatnet" />
		<tag k="name" v="Litlelindåsvatnet" />
		<tag k="natural" v="water" />
		<tag k="ssr:stedsnr" v="552785" />
	</node>
	<node id="-653291" lat="60.8006305574" lon="4.98898888799">
		<tag k="name" v="Merkesåen" />
		<tag k="ssr:stedsnr" v="712889" />
		<tag k="waterway" v="river" />
	</node>
	<node id="-653161" lat="60.7903159127" lon="5.01816192064">
		<tag k="name" v="Lomstjørna" />
		<tag k="natural" v="water" />
		<tag k="ssr:stedsnr" v="348211" />
	</node>
	<node id="-653794" lat="60.7832704226" lon="4.87851786229">
		<tag k="name" v="Lonevatnet" />
		<tag k="natural" v="water" />
		<tag k="ssr:stedsnr" v="530984" />
		<tag k="water" v="lake" />
	</node>
	<node id="-653921" lat="60.7792249372" lon="4.89213368917">
		<tag k="name" v="Austrheimstjørna" />
>>>>>>> e1d4bc35ff8a6074a6f2e91616a996b547c36f15
		<tag k="natural" v="water" />
		<tag k="ssr:stedsnr" v="249749" />
	</node>
<<<<<<< HEAD
	<node lat="60.782427773561366" lon="4.989130560704736" id="-32796">
		<tag k="name" v="Langavatnet" />
=======
	<node id="-653142" lat="60.7692138902" lon="4.99687221673">
		<tag k="name" v="Bakkavatnet" />
>>>>>>> e1d4bc35ff8a6074a6f2e91616a996b547c36f15
		<tag k="natural" v="water" />
		<tag k="ssr:stedsnr" v="166873" />
		<tag k="water" v="lake" />
	</node>
<<<<<<< HEAD
	<node lat="60.79812342313212" lon="4.969120315920369" id="-32813">
		<tag k="name" v="Ævatnet" />
=======
	<node id="-653390" lat="60.7514719202" lon="4.93213977335">
		<tag k="name" v="Litlavatnet" />
		<tag k="natural" v="water" />
		<tag k="ssr:stedsnr" v="919141" />
	</node>
	<node id="-653005" lat="60.7421638886" lon="4.94882222738">
		<tag k="name" v="Langavatnet" />
>>>>>>> e1d4bc35ff8a6074a6f2e91616a996b547c36f15
		<tag k="natural" v="water" />
		<tag k="ssr:stedsnr" v="191012" />
	</node>
<<<<<<< HEAD
	<node lat="60.76846944150661" lon="4.94275276953487" id="-32868">
		<tag k="name" v="Hjartåselva" />
		<tag k="ssr:stedsnr" v="312178" />
		<tag k="waterway" v="stream" />
	</node>
	<node lat="60.77443387032385" lon="4.936736098819361" id="-32869">
		<tag k="name" v="Åråsvatnet" />
=======
	<node id="-653642" lat="60.8036802443" lon="4.96743489656">
		<tag k="name" v="Purkebolsvatnet" />
		<tag k="natural" v="water" />
		<tag k="ssr:stedsnr" v="190040" />
	</node>
	<node id="-653641" lat="60.7875999983" lon="4.90061111535">
		<tag k="name" v="Ulvikevatnet" />
>>>>>>> e1d4bc35ff8a6074a6f2e91616a996b547c36f15
		<tag k="natural" v="water" />
		<tag k="ssr:stedsnr" v="312181" />
	</node>
<<<<<<< HEAD
	<node lat="60.790315912730144" lon="5.01816192064083" id="-32895">
		<tag k="name" v="Lomstjørna" />
		<tag k="natural" v="water" />
		<tag k="ssr:stedsnr" v="348211" />
	</node>
	<node lat="60.78392971678783" lon="4.9072483611574045" id="-32910">
		<tag k="fixme" v="multiple name tags, choose one and add the other to alt_name" />
		<tag k="name" v="Rotevatnet;Klaravatnet" />
=======
	<node id="-653255" lat="60.7589763334" lon="4.92396543586">
		<tag k="name" v="Åsetjørna" />
		<tag k="natural" v="water" />
		<tag k="ssr:stedsnr" v="676152" />
	</node>
	<node id="-653377" lat="60.7819111071" lon="4.98485554908">
		<tag k="name" v="Sjoelva" />
		<tag k="ssr:stedsnr" v="772920" />
		<tag k="waterway" v="river" />
	</node>
	<node id="-653119" lat="60.7885499966" lon="4.86906667263">
		<tag k="name" v="Tunga" />
		<tag k="natural" v="cape" />
		<tag k="ssr:stedsnr" v="287923" />
	</node>
	<node id="-653622" lat="60.7580999994" lon="5.03126389423">
		<tag k="name" v="Arevatnet" />
>>>>>>> e1d4bc35ff8a6074a6f2e91616a996b547c36f15
		<tag k="natural" v="water" />
		<tag k="ssr:stedsnr" v="372227" />
	</node>
<<<<<<< HEAD
	<node lat="60.76921389023502" lon="4.996872216730681" id="-32961">
		<tag k="name" v="Bakkavatnet" />
		<tag k="natural" v="water" />
		<tag k="ssr:stedsnr" v="469968" />
		<tag k="water" v="lake" />
	</node>
	<node lat="60.786767546022155" lon="4.872520223504531" id="-32975">
		<tag k="name" v="Rebnorsvatnet" />
=======
	<node id="-653192" lat="60.7839297168" lon="4.90724836116">
		<tag k="fixme" v="multiple name tags, choose one and add the other to alt_name" />
		<tag k="name" v="Klaravatnet;Rotevatnet" />
		<tag k="natural" v="water" />
		<tag k="ssr:stedsnr" v="372227" />
	</node>
	<node id="-653092" lat="60.8020499998" lon="4.96476666336">
		<tag k="name" v="Altersvatnet" />
>>>>>>> e1d4bc35ff8a6074a6f2e91616a996b547c36f15
		<tag k="natural" v="water" />
		<tag k="ssr:stedsnr" v="493002" />
	</node>
<<<<<<< HEAD
	<node lat="60.74880681024082" lon="4.959070692609553" id="-33008">
		<tag k="alt_name" v="Lindåsvatnet" />
		<tag k="name" v="Litlelindåsvatnet" />
=======
	<node id="-653730" lat="60.7940049612" lon="4.82197850095">
		<tag k="name" v="Storavatnet" />
>>>>>>> e1d4bc35ff8a6074a6f2e91616a996b547c36f15
		<tag k="natural" v="water" />
		<tag k="ssr:stedsnr" v="552785" />
	</node>
<<<<<<< HEAD
	<node lat="60.781945567277326" lon="4.896103883869679" id="-33037">
		<tag k="name" v="Klåretjørna" />
=======
	<node id="-653601" lat="60.7806499961" lon="4.91489999234">
		<tag k="name" v="Rasmusvatnet" />
>>>>>>> e1d4bc35ff8a6074a6f2e91616a996b547c36f15
		<tag k="natural" v="water" />
		<tag k="ssr:stedsnr" v="615202" />
	</node>
<<<<<<< HEAD
	<node lat="60.75897633344263" lon="4.9239654358560205" id="-33064">
		<tag k="name" v="Åsetjørna" />
=======
	<node id="-653854" lat="60.7566060045" lon="4.94028745077">
		<tag k="name" v="Førlandsvatnet" />
>>>>>>> e1d4bc35ff8a6074a6f2e91616a996b547c36f15
		<tag k="natural" v="water" />
		<tag k="ssr:stedsnr" v="676152" />
	</node>
<<<<<<< HEAD
	<node lat="60.779652774224" lon="4.994586119504167" id="-33084">
=======
	<node id="-653340" lat="60.7796527742" lon="4.9945861195">
>>>>>>> e1d4bc35ff8a6074a6f2e91616a996b547c36f15
		<tag k="name" v="Straumstadvatnet" />
		<tag k="natural" v="water" />
		<tag k="ssr:stedsnr" v="695617" />
		<tag k="water" v="lake" />
	</node>
<<<<<<< HEAD
	<node lat="60.751471920195144" lon="4.93213977334589" id="-33139">
		<tag k="name" v="Litlavatnet" />
=======
	<node id="-653083" lat="60.7981234231" lon="4.96912031592">
		<tag k="name" v="Ævatnet" />
>>>>>>> e1d4bc35ff8a6074a6f2e91616a996b547c36f15
		<tag k="natural" v="water" />
		<tag k="ssr:stedsnr" v="919141" />
	</node>
<<<<<<< HEAD
	<node lat="60.78450000315093" lon="4.8910000002807195" id="-33150">
		<tag k="name" v="Hammarsvatnet" />
=======
	<node id="-653961" lat="60.7842496207" lon="4.91198526624">
		<tag k="name" v="Litletjørna" />
>>>>>>> e1d4bc35ff8a6074a6f2e91616a996b547c36f15
		<tag k="natural" v="water" />
		<tag k="ssr:stedsnr" v="858029" />
	</node>
<<<<<<< HEAD
	<node lat="60.75976626425224" lon="4.951448309848159" id="-33155">
		<tag k="name" v="Solevatnet" />
		<tag k="natural" v="water" />
		<tag k="ssr:stedsnr" v="858177" />
	</node>
	<node lat="60.76724143843643" lon="5.018870945021182" id="-33185">
=======
	<node id="-653064" lat="60.7824277736" lon="4.9891305607">
		<tag k="name" v="Langavatnet" />
		<tag k="natural" v="water" />
		<tag k="ssr:stedsnr" v="166873" />
		<tag k="water" v="lake" />
	</node>
	<node id="-653959" lat="60.7672414384" lon="5.01887094502">
>>>>>>> e1d4bc35ff8a6074a6f2e91616a996b547c36f15
		<tag k="name" v="Vaulevatnet" />
		<tag k="natural" v="water" />
		<tag k="ssr:stedsnr" v="955221" />
		<tag k="water" v="lake" />
	</node>
<<<<<<< HEAD
	<node lat="60.78424962072328" lon="4.911985266236595" id="-33187">
		<tag k="name" v="Litletjørna" />
=======
	<node id="-653574" lat="60.7657801517" lon="5.00013319856">
		<tag k="name" v="Monslaupvatnet" />
>>>>>>> e1d4bc35ff8a6074a6f2e91616a996b547c36f15
		<tag k="natural" v="water" />
		<tag k="ssr:stedsnr" v="955235" />
	</node>
<<<<<<< HEAD
	<node lat="60.801191663134304" lon="4.973672220296624" id="-33270">
=======
	<node id="-653573" lat="60.8011916631" lon="4.9736722203">
>>>>>>> e1d4bc35ff8a6074a6f2e91616a996b547c36f15
		<tag k="name" v="Klebakkvatnet" />
		<tag k="natural" v="water" />
		<tag k="ssr:stedsnr" v="105238" />
		<tag k="water" v="lake" />
	</node>
<<<<<<< HEAD
	<node lat="60.76578015170512" lon="5.000133198559331" id="-33271">
		<tag k="name" v="Monslaupvatnet" />
		<tag k="natural" v="water" />
		<tag k="ssr:stedsnr" v="105242" />
		<tag k="water" v="lake" />
	</node>
	<node lat="60.78064999609238" lon="4.914899992343757" id="-33298">
		<tag k="name" v="Rasmusvatnet" />
		<tag k="natural" v="water" />
		<tag k="ssr:stedsnr" v="129247" />
	</node>
	<node lat="60.75809999943562" lon="5.031263894233832" id="-33316">
		<tag k="name" v="Arevatnet" />
		<tag k="natural" v="water" />
		<tag k="ssr:stedsnr" v="166233" />
		<tag k="water" v="lake" />
	</node>
	<node lat="60.787599998293935" lon="4.900611115345309" id="-33335">
		<tag k="name" v="Ulvikevatnet" />
		<tag k="natural" v="water" />
		<tag k="ssr:stedsnr" v="190033" />
	</node>
	<node lat="60.80368024429821" lon="4.967434896559944" id="-33336">
		<tag k="name" v="Purkebolsvatnet" />
		<tag k="natural" v="water" />
		<tag k="ssr:stedsnr" v="190040" />
	</node>
	<node lat="60.80204999983633" lon="4.964766663360465" id="-33366">
		<tag k="name" v="Altersvatnet" />
		<tag k="natural" v="water" />
		<tag k="ssr:stedsnr" v="227874" />
		<tag k="water" v="lake" />
	</node>
	<node lat="60.78854999657128" lon="4.869066672631031" id="-33385">
		<tag k="name" v="Tunga" />
		<tag k="natural" v="cape" />
		<tag k="ssr:stedsnr" v="287923" />
	</node>
	<node lat="60.79400496115206" lon="4.821978500947566" id="-33433">
		<tag k="name" v="Storavatnet" />
		<tag k="natural" v="water" />
		<tag k="ssr:stedsnr" v="373047" />
	</node>
	<node lat="60.78327042259594" lon="4.8785178622921705" id="-33499">
		<tag k="name" v="Lonevatnet" />
		<tag k="natural" v="water" />
		<tag k="ssr:stedsnr" v="530984" />
		<tag k="water" v="lake" />
	</node>
	<node lat="60.789542959119935" lon="4.888711278234858" id="-33503">
		<tag k="name" v="Auretjørna" />
		<tag k="natural" v="water" />
		<tag k="ssr:stedsnr" v="554023" />
	</node>
	<node lat="60.75660600447635" lon="4.940287450766565" id="-33536">
		<tag k="name" v="Førlandsvatnet" />
		<tag k="natural" v="water" />
		<tag k="ssr:stedsnr" v="615151" />
	</node>
	<node lat="60.798767598453814" lon="4.980363212195784" id="-33552">
		<tag k="name" v="Vestretjørna" />
		<tag k="natural" v="water" />
		<tag k="ssr:stedsnr" v="651917" />
	</node>
	<node lat="60.8075749989578" lon="4.961805559653613" id="-33553">
		<tag k="name" v="Kvernhuselva" />
		<tag k="ssr:stedsnr" v="651919" />
		<tag k="waterway" v="river" />
	</node>
	<node lat="60.80063055738868" lon="4.988988887990032" id="-33567">
		<tag k="name" v="Merkesåen" />
		<tag k="ssr:stedsnr" v="712889" />
		<tag k="waterway" v="river" />
	</node>
	<node lat="60.78191110714518" lon="4.9848555490755455" id="-33617">
		<tag k="name" v="Sjoelva" />
		<tag k="ssr:stedsnr" v="772920" />
		<tag k="waterway" v="river" />
	</node>
	<node lat="60.77922493719591" lon="4.892133689169786" id="-33631">
		<tag k="name" v="Austrheimstjørna" />
		<tag k="natural" v="water" />
		<tag k="ssr:stedsnr" v="797223" />
	</node>
=======
>>>>>>> e1d4bc35ff8a6074a6f2e91616a996b547c36f15
</osm>
