<?xml version="1.0" encoding="UTF-8"?>
<<<<<<< HEAD
<osm version="0.6" generator="osmapis">
	<node lat="61.29280094673845" lon="4.783502751057288" id="-29429">
		<tag k="alt_name" v="Austnesholmen" />
		<tag k="name" v="Austnesholmen lykt" />
		<tag k="ssr:date" v="2020-09-08" />
		<tag k="ssr:gruppe" v="navigasjon" />
		<tag k="ssr:hovedgruppe" v="infrastruktur" />
		<tag k="ssr:stedsnr" v="8096" />
		<tag k="ssr:type" v="fyrlykt" />
	</node>
	<node lat="61.268875003842005" lon="4.81505832689229" id="-29453">
		<tag k="name" v="Geita ø.pynt" />
		<tag k="ssr:date" v="2019-12-27" />
		<tag k="ssr:gruppe" v="navigasjon" />
		<tag k="ssr:hovedgruppe" v="infrastruktur" />
		<tag k="ssr:stedsnr" v="234865" />
		<tag k="ssr:type" v="lanterne" />
	</node>
	<node lat="61.28054128713574" lon="4.631934022651585" id="-29525">
		<tag k="name" v="Årebrottet" />
		<tag k="ssr:date" v="2019-12-27" />
		<tag k="ssr:gruppe" v="navigasjon" />
		<tag k="ssr:hovedgruppe" v="infrastruktur" />
		<tag k="ssr:stedsnr" v="100625" />
		<tag k="ssr:type" v="lanterne" />
	</node>
	<node lat="61.33235480844411" lon="5.054825745610367" id="-29548">
		<tag k="alt_name" v="Granesund" />
		<tag k="name" v="Granesund lykt" />
		<tag k="ssr:date" v="2020-09-08" />
		<tag k="ssr:gruppe" v="navigasjon" />
		<tag k="ssr:hovedgruppe" v="infrastruktur" />
		<tag k="ssr:stedsnr" v="250127" />
		<tag k="ssr:type" v="fyrlykt" />
	</node>
	<node lat="61.282044511868136" lon="4.643307069753111" id="-29577">
		<tag k="alt_name" v="Hovden" />
		<tag k="name" v="Hovden lykt" />
		<tag k="ssr:date" v="2019-12-27" />
		<tag k="ssr:gruppe" v="navigasjon" />
		<tag k="ssr:hovedgruppe" v="infrastruktur" />
		<tag k="ssr:stedsnr" v="250314" />
		<tag k="ssr:type" v="fyrlykt" />
	</node>
	<node lat="61.2850692083962" lon="4.609314260030921" id="-29650">
		<tag k="name" v="Merra lanterne" />
		<tag k="ssr:date" v="2019-12-27" />
		<tag k="ssr:gruppe" v="navigasjon" />
		<tag k="ssr:hovedgruppe" v="infrastruktur" />
		<tag k="ssr:stedsnr" v="173173" />
		<tag k="ssr:type" v="lanterne" />
	</node>
	<node lat="61.4824329777468" lon="5.230596780565972" id="-29664">
		<tag k="alt_name" v="Flokenes" />
		<tag k="name" v="Flokeneset" />
		<tag k="ssr:date" v="2019-12-27" />
		<tag k="ssr:gruppe" v="navigasjon" />
		<tag k="ssr:hovedgruppe" v="infrastruktur" />
		<tag k="ssr:stedsnr" v="190069" />
		<tag k="ssr:type" v="fyrlykt" />
	</node>
	<node lat="61.34848888956575" lon="5.0532222272877" id="-29676">
		<tag k="alt_name" v="Askvoll" />
		<tag k="name" v="Askvoll kommune" />
		<tag k="ssr:date" v="2019-12-27" />
		<tag k="ssr:gruppe" v="administrativeIndelinger" />
		<tag k="ssr:hovedgruppe" v="offentligAdministrasjon" />
		<tag k="ssr:stedsnr" v="268861" />
		<tag k="ssr:type" v="kommune" />
	</node>
	<node lat="61.31004166694911" lon="4.596702773426583" id="-29829">
		<tag k="name" v="Hola" />
		<tag k="ssr:date" v="2019-12-27" />
		<tag k="ssr:gruppe" v="sjøbunn" />
		<tag k="ssr:hovedgruppe" v="sjø" />
		<tag k="ssr:stedsnr" v="477137" />
		<tag k="ssr:type" v="søkkISjø" />
	</node>
	<node lat="61.37638133203346" lon="4.835165289090387" id="-29955">
		<tag k="alt_name" v="Tussen" />
		<tag k="name" v="Tussen lykt" />
		<tag k="ssr:date" v="2020-09-08" />
		<tag k="ssr:gruppe" v="navigasjon" />
		<tag k="ssr:hovedgruppe" v="infrastruktur" />
		<tag k="ssr:stedsnr" v="493323" />
		<tag k="ssr:type" v="fyrlykt" />
	</node>
	<node lat="61.376177773631234" lon="5.026383340831799" id="-30012">
		<tag k="alt_name" v="Trætanes" />
		<tag k="name" v="Trætanes lykt" />
		<tag k="old_name" v="Tretteneset" />
		<tag k="ssr:date" v="2019-12-27" />
		<tag k="ssr:gruppe" v="navigasjon" />
		<tag k="ssr:hovedgruppe" v="infrastruktur" />
		<tag k="ssr:stedsnr" v="675229" />
		<tag k="ssr:type" v="fyrlykt" />
	</node>
	<node lat="61.37109721933979" lon="4.895222231762611" id="-30014">
		<tag k="alt_name" v="Hindøysund" />
		<tag k="name" v="Hindøysund lykt" />
		<tag k="old_name" v="Hindøysundet" />
		<tag k="ssr:date" v="2019-12-27" />
		<tag k="ssr:gruppe" v="navigasjon" />
		<tag k="ssr:hovedgruppe" v="infrastruktur" />
		<tag k="ssr:stedsnr" v="675236" />
		<tag k="ssr:type" v="fyrlykt" />
	</node>
	<node lat="61.414966602018396" lon="4.975370043074935" id="-30018">
		<tag k="alt_name" v="Stavenes" />
		<tag k="name" v="Stavenes lykt" />
		<tag k="ssr:date" v="2020-09-08" />
		<tag k="ssr:gruppe" v="navigasjon" />
		<tag k="ssr:hovedgruppe" v="infrastruktur" />
		<tag k="ssr:stedsnr" v="675315" />
		<tag k="ssr:type" v="fyrlykt" />
	</node>
	<node lat="61.293473079968074" lon="4.649999510939529" id="-30111">
		<tag k="alt_name" v="Olsund" />
		<tag k="name" v="Olsund lykt" />
		<tag k="ssr:date" v="2019-12-27" />
		<tag k="ssr:gruppe" v="navigasjon" />
		<tag k="ssr:hovedgruppe" v="infrastruktur" />
		<tag k="ssr:stedsnr" v="553416" />
		<tag k="ssr:type" v="fyrlykt" />
	</node>
	<node lat="61.299914771507055" lon="4.632392485299259" id="-30176">
		<tag k="alt_name" v="Gjørines lykt;Gjørines;Gjørøyneset" />
		<tag k="name" v="Gjørøyneset lykt" />
=======
<osm generator="osmapis" version="0.6">
	<node id="-685696" lat="61.3002361125" lon="4.90315555967">
		<tag k="alt_name" v="Raudøy" />
		<tag k="name" v="Raudøy lykt" />
>>>>>>> e1d4bc35ff8a6074a6f2e91616a996b547c36f15
		<tag k="ssr:date" v="2019-12-27" />
		<tag k="ssr:gruppe" v="navigasjon" />
		<tag k="ssr:hovedgruppe" v="infrastruktur" />
		<tag k="ssr:stedsnr" v="614413" />
		<tag k="ssr:type" v="fyrlykt" />
	</node>
<<<<<<< HEAD
	<node lat="61.29515836395763" lon="4.593303424126646" id="-30270">
		<tag k="alt_name" v="Sandøy lykt" />
		<tag k="name" v="Sandøy" />
		<tag k="old_name" v="Sandøyna" />
		<tag k="ssr:date" v="2020-09-08" />
		<tag k="ssr:gruppe" v="navigasjon" />
		<tag k="ssr:hovedgruppe" v="infrastruktur" />
		<tag k="ssr:stedsnr" v="675454" />
		<tag k="ssr:type" v="fyrlykt" />
	</node>
	<node lat="61.386800001552444" lon="4.925250006848448" id="-30317">
		<tag k="alt_name" v="Heggøy;Heggøy lykt" />
		<tag k="name" v="Heggøyna lykt" />
		<tag k="ssr:date" v="2019-12-27" />
		<tag k="ssr:gruppe" v="navigasjon" />
		<tag k="ssr:hovedgruppe" v="infrastruktur" />
		<tag k="ssr:stedsnr" v="735304" />
		<tag k="ssr:type" v="fyrlykt" />
	</node>
	<node lat="61.38796309761828" lon="4.961359220827889" id="-30380">
		<tag k="name" v="Raudøy vestpynt" />
		<tag k="old_name" v="Raudøyna" />
		<tag k="ssr:date" v="2020-09-08" />
		<tag k="ssr:gruppe" v="navigasjon" />
		<tag k="ssr:hovedgruppe" v="infrastruktur" />
		<tag k="ssr:stedsnr" v="796219" />
		<tag k="ssr:type" v="fyrlykt" />
	</node>
	<node lat="61.285916568366076" lon="4.777356913528811" id="-30507">
		<tag k="alt_name" v="Austnes" />
		<tag k="name" v="Austnes lykt" />
		<tag k="ssr:date" v="2020-09-03" />
=======
	<node id="-684016" lat="61.3322555599" lon="5.05477777899">
		<tag k="alt_name" v="Granesund" />
		<tag k="name" v="Granesund lykt" />
		<tag k="ssr:date" v="2019-12-27" />
>>>>>>> e1d4bc35ff8a6074a6f2e91616a996b547c36f15
		<tag k="ssr:gruppe" v="navigasjon" />
		<tag k="ssr:hovedgruppe" v="infrastruktur" />
		<tag k="ssr:stedsnr" v="858089" />
		<tag k="ssr:type" v="fyrlykt" />
	</node>
<<<<<<< HEAD
	<node lat="61.27041281396087" lon="4.813485822147743" id="-30612">
		<tag k="name" v="Instegeita" />
		<tag k="ssr:date" v="2019-12-27" />
		<tag k="ssr:gruppe" v="veg" />
		<tag k="ssr:hovedgruppe" v="infrastruktur" />
		<tag k="ssr:stedsnr" v="974060" />
		<tag k="ssr:type" v="adressenavn" />
	</node>
	<node lat="61.26916417541332" lon="4.811125984570891" id="-30831">
		<tag k="alt_name" v="Geita" />
		<tag k="name" v="Geita fyr" />
=======
	<node id="-684639" lat="61.3868000016" lon="4.92525000685">
		<tag k="alt_name" v="Heggøy;Heggøy lykt" />
		<tag k="name" v="Heggøyna lykt" />
>>>>>>> e1d4bc35ff8a6074a6f2e91616a996b547c36f15
		<tag k="ssr:date" v="2019-12-27" />
		<tag k="ssr:gruppe" v="navigasjon" />
		<tag k="ssr:hovedgruppe" v="infrastruktur" />
		<tag k="ssr:stedsnr" v="129140" />
		<tag k="ssr:type" v="fyrstasjon" />
	</node>
<<<<<<< HEAD
	<node lat="61.27021111418582" lon="4.725388894546484" id="-30910">
		<tag k="name" v="Harrbakålen" />
=======
	<node id="-685917" lat="61.4103536213" lon="4.83093630391">
		<tag k="name" v="Blåna lanterne" />
>>>>>>> e1d4bc35ff8a6074a6f2e91616a996b547c36f15
		<tag k="ssr:date" v="2019-12-27" />
		<tag k="ssr:gruppe" v="sjøbunn" />
		<tag k="ssr:hovedgruppe" v="sjø" />
		<tag k="ssr:stedsnr" v="174195" />
		<tag k="ssr:type" v="renneKløftISjø" />
	</node>
<<<<<<< HEAD
	<node lat="61.30023611254756" lon="4.9031555596686225" id="-31221">
		<tag k="alt_name" v="Raudøy" />
		<tag k="name" v="Raudøy lykt" />
=======
	<node id="-685402" lat="61.4824329777" lon="5.23059678057">
		<tag k="alt_name" v="Flokenes" />
		<tag k="name" v="Flokeneset" />
>>>>>>> e1d4bc35ff8a6074a6f2e91616a996b547c36f15
		<tag k="ssr:date" v="2019-12-27" />
		<tag k="ssr:gruppe" v="navigasjon" />
		<tag k="ssr:hovedgruppe" v="infrastruktur" />
		<tag k="ssr:stedsnr" v="403179" />
		<tag k="ssr:type" v="fyrlykt" />
	</node>
<<<<<<< HEAD
	<node lat="61.410353621278325" lon="4.830936303914388" id="-31402">
		<tag k="name" v="Blåna lanterne" />
=======
	<node id="-684324" lat="61.3761583365" lon="4.83473054746">
		<tag k="alt_name" v="Tussen" />
		<tag k="name" v="Tussen lykt" />
		<tag k="ssr:date" v="2019-12-27" />
		<tag k="ssr:gruppe" v="navigasjon" />
		<tag k="ssr:hovedgruppe" v="infrastruktur" />
		<tag k="ssr:stedsnr" v="493323" />
		<tag k="ssr:type" v="fyrlykt" />
	</node>
	<node id="-685014" lat="61.3192777741" lon="4.73231388065">
		<tag k="name" v="Hamntaren lanterne" />
>>>>>>> e1d4bc35ff8a6074a6f2e91616a996b547c36f15
		<tag k="ssr:date" v="2019-12-27" />
		<tag k="ssr:gruppe" v="navigasjon" />
		<tag k="ssr:hovedgruppe" v="infrastruktur" />
		<tag k="ssr:stedsnr" v="598778" />
		<tag k="ssr:type" v="lanterne" />
	</node>
<<<<<<< HEAD
	<node lat="61.300091665014435" lon="4.903099999496926" id="-31599">
		<tag k="alt_name" v="Rauøy" />
		<tag k="name" v="Rauøy lykt" />
		<tag k="old_name" v="Raudøyna" />
		<tag k="ssr:date" v="2021-06-08" />
=======
	<node id="-684046" lat="61.2820445119" lon="4.64330706975">
		<tag k="alt_name" v="Hovden" />
		<tag k="name" v="Hovden lykt" />
		<tag k="ssr:date" v="2019-12-27" />
		<tag k="ssr:gruppe" v="navigasjon" />
		<tag k="ssr:hovedgruppe" v="infrastruktur" />
		<tag k="ssr:stedsnr" v="250314" />
		<tag k="ssr:type" v="fyrlykt" />
	</node>
	<node id="-686278" lat="69.6388889725" lon="30.5666644427">
		<tag k="fixme" v="multiple name tags, choose one and add the other to alt_name" />
		<tag k="loc_name:se" v="Norgga gonagasriika" />
		<tag k="loc_name:sma" v="Nöörjen gånkarïjhke" />
		<tag k="loc_name:smj" v="Vuona gånågisrijkka" />
		<tag k="name" v="Noreg;Norge" />
		<tag k="name:en" v="Norway" />
		<tag k="name:no" v="Noreg;Norge" />
		<tag k="ssr:date" v="2020-06-04" />
		<tag k="ssr:gruppe" v="administrativeIndelinger" />
		<tag k="ssr:hovedgruppe" v="offentligAdministrasjon" />
		<tag k="ssr:stedsnr" v="26330" />
		<tag k="ssr:type" v="nasjon" />
	</node>
	<node id="-684449" lat="61.3761777736" lon="5.02638334083">
		<tag k="alt_name" v="Trætanes" />
		<tag k="name" v="Trætanes lykt" />
		<tag k="old_name" v="Tretteneset" />
		<tag k="ssr:date" v="2019-12-27" />
		<tag k="ssr:gruppe" v="navigasjon" />
		<tag k="ssr:hovedgruppe" v="infrastruktur" />
		<tag k="ssr:stedsnr" v="675229" />
		<tag k="ssr:type" v="fyrlykt" />
	</node>
	<node id="-686275" lat="60.3866658713" lon="5.33255753121">
		<tag k="name" v="Vestland fylke" />
		<tag k="ssr:date" v="2020-01-13" />
		<tag k="ssr:gruppe" v="administrativeIndelinger" />
		<tag k="ssr:hovedgruppe" v="offentligAdministrasjon" />
		<tag k="ssr:stedsnr" v="1074408" />
		<tag k="ssr:type" v="fylke" />
	</node>
	<node id="-684609" lat="61.2999147715" lon="4.6323924853">
		<tag k="alt_name" v="Gjørines lykt;Gjørines;Gjørøyneset" />
		<tag k="name" v="Gjørøyneset lykt" />
		<tag k="ssr:date" v="2019-12-27" />
>>>>>>> e1d4bc35ff8a6074a6f2e91616a996b547c36f15
		<tag k="ssr:gruppe" v="navigasjon" />
		<tag k="ssr:hovedgruppe" v="infrastruktur" />
		<tag k="ssr:stedsnr" v="797091" />
		<tag k="ssr:type" v="fyrlykt" />
	</node>
<<<<<<< HEAD
	<node lat="61.31927777412138" lon="4.73231388065128" id="-31771">
		<tag k="name" v="Hamntaren lanterne" />
=======
	<node id="-684192" lat="61.3484888896" lon="5.05322222729">
		<tag k="alt_name" v="Askvoll" />
		<tag k="name" v="Askvoll kommune" />
		<tag k="ssr:date" v="2019-12-27" />
		<tag k="ssr:gruppe" v="administrativeIndelinger" />
		<tag k="ssr:hovedgruppe" v="offentligAdministrasjon" />
		<tag k="ssr:stedsnr" v="268861" />
		<tag k="ssr:type" v="kommune" />
	</node>
	<node id="-683964" lat="61.2688750038" lon="4.81505832689">
		<tag k="name" v="Geita ø.pynt" />
>>>>>>> e1d4bc35ff8a6074a6f2e91616a996b547c36f15
		<tag k="ssr:date" v="2019-12-27" />
		<tag k="ssr:gruppe" v="navigasjon" />
		<tag k="ssr:hovedgruppe" v="infrastruktur" />
		<tag k="ssr:stedsnr" v="962815" />
		<tag k="ssr:type" v="lanterne" />
	</node>
<<<<<<< HEAD
	<node lat="61.31624115185544" lon="4.775765960243711" id="-31774">
		<tag k="name" v="Alden" />
=======
	<node id="-685371" lat="61.2850692084" lon="4.60931426003">
		<tag k="name" v="Merra lanterne" />
>>>>>>> e1d4bc35ff8a6074a6f2e91616a996b547c36f15
		<tag k="ssr:date" v="2019-12-27" />
		<tag k="ssr:gruppe" v="veg" />
		<tag k="ssr:hovedgruppe" v="infrastruktur" />
		<tag k="ssr:stedsnr" v="971699" />
		<tag k="ssr:type" v="adressenavn" />
	</node>
<<<<<<< HEAD
	<node lat="61.39438829646994" lon="4.92677428640391" id="-31775">
		<tag k="name" v="Heggøyna" />
=======
	<node id="-686259" lat="61.3273286162" lon="5.0966277498">
		<tag k="name" v="Dørhellevegen" />
>>>>>>> e1d4bc35ff8a6074a6f2e91616a996b547c36f15
		<tag k="ssr:date" v="2019-12-27" />
		<tag k="ssr:gruppe" v="veg" />
		<tag k="ssr:hovedgruppe" v="infrastruktur" />
		<tag k="ssr:stedsnr" v="971701" />
		<tag k="ssr:type" v="adressenavn" />
	</node>
<<<<<<< HEAD
	<node lat="61.41299528446215" lon="4.897123343270797" id="-31776">
		<tag k="name" v="Smælværet" />
=======
	<node id="-686258" lat="61.2848508186" lon="4.63267782159">
		<tag k="name" v="Hellersøyvegen" />
>>>>>>> e1d4bc35ff8a6074a6f2e91616a996b547c36f15
		<tag k="ssr:date" v="2019-12-27" />
		<tag k="ssr:gruppe" v="veg" />
		<tag k="ssr:hovedgruppe" v="infrastruktur" />
		<tag k="ssr:stedsnr" v="971702" />
		<tag k="ssr:type" v="adressenavn" />
	</node>
<<<<<<< HEAD
	<node lat="61.3683606536259" lon="4.883443520146384" id="-31777">
		<tag k="name" v="Hindøyna" />
=======
	<node id="-686257" lat="61.3460691515" lon="4.62413745784">
		<tag k="name" v="Herlandsneset" />
>>>>>>> e1d4bc35ff8a6074a6f2e91616a996b547c36f15
		<tag k="ssr:date" v="2019-12-27" />
		<tag k="ssr:gruppe" v="veg" />
		<tag k="ssr:hovedgruppe" v="infrastruktur" />
		<tag k="ssr:stedsnr" v="971704" />
		<tag k="ssr:type" v="adressenavn" />
	</node>
<<<<<<< HEAD
	<node lat="61.28917476466132" lon="4.676932500000554" id="-31778">
		<tag k="name" v="Bjørnøysundet" />
=======
	<node id="-686256" lat="61.3215579706" lon="4.97239558172">
		<tag k="name" v="Herlandsvegen" />
>>>>>>> e1d4bc35ff8a6074a6f2e91616a996b547c36f15
		<tag k="ssr:date" v="2019-12-27" />
		<tag k="ssr:gruppe" v="veg" />
		<tag k="ssr:hovedgruppe" v="infrastruktur" />
		<tag k="ssr:stedsnr" v="971709" />
		<tag k="ssr:type" v="adressenavn" />
	</node>
<<<<<<< HEAD
	<node lat="61.372591053436565" lon="5.03163471161164" id="-31781">
=======
	<node id="-686255" lat="61.3725910534" lon="5.03163471161">
>>>>>>> e1d4bc35ff8a6074a6f2e91616a996b547c36f15
		<tag k="name" v="Follevågvegen" />
		<tag k="ssr:date" v="2019-12-27" />
		<tag k="ssr:gruppe" v="veg" />
		<tag k="ssr:hovedgruppe" v="infrastruktur" />
		<tag k="ssr:stedsnr" v="991102" />
		<tag k="ssr:type" v="adressenavn" />
	</node>
<<<<<<< HEAD
	<node lat="61.32155797057717" lon="4.972395581720747" id="-31782">
		<tag k="name" v="Herlandsvegen" />
=======
	<node id="-684462" lat="61.3710972193" lon="4.89522223176">
		<tag k="alt_name" v="Hindøysund" />
		<tag k="name" v="Hindøysund lykt" />
		<tag k="old_name" v="Hindøysundet" />
		<tag k="ssr:date" v="2019-12-27" />
		<tag k="ssr:gruppe" v="navigasjon" />
		<tag k="ssr:hovedgruppe" v="infrastruktur" />
		<tag k="ssr:stedsnr" v="675236" />
		<tag k="ssr:type" v="fyrlykt" />
	</node>
	<node id="-684076" lat="61.2691641754" lon="4.81112598457">
		<tag k="alt_name" v="Geita" />
		<tag k="name" v="Geita fyr" />
		<tag k="ssr:date" v="2019-12-27" />
		<tag k="ssr:gruppe" v="navigasjon" />
		<tag k="ssr:hovedgruppe" v="infrastruktur" />
		<tag k="ssr:stedsnr" v="129140" />
		<tag k="ssr:type" v="fyrstasjon" />
	</node>
	<node id="-686251" lat="61.270412814" lon="4.81348582215">
		<tag k="name" v="Instegeita" />
>>>>>>> e1d4bc35ff8a6074a6f2e91616a996b547c36f15
		<tag k="ssr:date" v="2019-12-27" />
		<tag k="ssr:gruppe" v="veg" />
		<tag k="ssr:hovedgruppe" v="infrastruktur" />
		<tag k="ssr:stedsnr" v="991103" />
		<tag k="ssr:type" v="adressenavn" />
	</node>
<<<<<<< HEAD
	<node lat="61.34606915145578" lon="4.624137457837448" id="-31783">
		<tag k="name" v="Herlandsneset" />
=======
	<node id="-686122" lat="61.300091665" lon="4.9030999995">
		<tag k="alt_name" v="Rauøy" />
		<tag k="name" v="Rauøy lykt" />
		<tag k="old_name" v="Raudøyna" />
		<tag k="ssr:date" v="2019-12-27" />
		<tag k="ssr:gruppe" v="navigasjon" />
		<tag k="ssr:hovedgruppe" v="infrastruktur" />
		<tag k="ssr:stedsnr" v="797091" />
		<tag k="ssr:type" v="fyrlykt" />
	</node>
	<node id="-686244" lat="61.2891747647" lon="4.6769325">
		<tag k="name" v="Bjørnøysundet" />
>>>>>>> e1d4bc35ff8a6074a6f2e91616a996b547c36f15
		<tag k="ssr:date" v="2019-12-27" />
		<tag k="ssr:gruppe" v="veg" />
		<tag k="ssr:hovedgruppe" v="infrastruktur" />
		<tag k="ssr:stedsnr" v="991104" />
		<tag k="ssr:type" v="adressenavn" />
	</node>
<<<<<<< HEAD
	<node lat="61.28485081861232" lon="4.632677821593884" id="-31784">
		<tag k="name" v="Hellersøyvegen" />
=======
	<node id="-686243" lat="61.3683606536" lon="4.88344352015">
		<tag k="name" v="Hindøyna" />
>>>>>>> e1d4bc35ff8a6074a6f2e91616a996b547c36f15
		<tag k="ssr:date" v="2019-12-27" />
		<tag k="ssr:gruppe" v="veg" />
		<tag k="ssr:hovedgruppe" v="infrastruktur" />
		<tag k="ssr:stedsnr" v="991105" />
		<tag k="ssr:type" v="adressenavn" />
	</node>
<<<<<<< HEAD
	<node lat="61.327328616180544" lon="5.096627749798504" id="-31785">
		<tag k="name" v="Dørhellevegen" />
=======
	<node id="-686242" lat="61.4129952845" lon="4.89712334327">
		<tag k="name" v="Smælværet" />
>>>>>>> e1d4bc35ff8a6074a6f2e91616a996b547c36f15
		<tag k="ssr:date" v="2019-12-27" />
		<tag k="ssr:gruppe" v="veg" />
		<tag k="ssr:hovedgruppe" v="infrastruktur" />
		<tag k="ssr:stedsnr" v="991106" />
		<tag k="ssr:type" v="adressenavn" />
	</node>
<<<<<<< HEAD
	<node lat="61.291033033778575" lon="4.855374230333804" id="-31794">
		<tag k="name" v="Kvitingshamn" />
		<tag k="ssr:date" v="2019-12-27" />
		<tag k="ssr:gruppe" v="sjøbunn" />
		<tag k="ssr:hovedgruppe" v="sjø" />
		<tag k="ssr:stedsnr" v="1072928" />
		<tag k="ssr:type" v="hylleISjø" />
	</node>
	<node lat="60.38666587132831" lon="5.332557531214444" id="-31801">
		<tag k="name" v="Vestland fylke" />
		<tag k="ssr:date" v="2021-06-08" />
		<tag k="ssr:gruppe" v="administrativeIndelinger" />
		<tag k="ssr:hovedgruppe" v="offentligAdministrasjon" />
		<tag k="ssr:stedsnr" v="1074408" />
		<tag k="ssr:type" v="fylke" />
=======
	<node id="-686241" lat="61.3943882965" lon="4.9267742864">
		<tag k="name" v="Heggøyna" />
		<tag k="ssr:date" v="2019-12-27" />
		<tag k="ssr:gruppe" v="veg" />
		<tag k="ssr:hovedgruppe" v="infrastruktur" />
		<tag k="ssr:stedsnr" v="971701" />
		<tag k="ssr:type" v="adressenavn" />
	</node>
	<node id="-686240" lat="61.3162411519" lon="4.77576596024">
		<tag k="name" v="Alden" />
		<tag k="ssr:date" v="2019-12-27" />
		<tag k="ssr:gruppe" v="veg" />
		<tag k="ssr:hovedgruppe" v="infrastruktur" />
		<tag k="ssr:stedsnr" v="971699" />
		<tag k="ssr:type" v="adressenavn" />
	</node>
	<node id="-685232" lat="61.2805412871" lon="4.63193402265">
		<tag k="name" v="Årebrottet" />
		<tag k="ssr:date" v="2019-12-27" />
		<tag k="ssr:gruppe" v="navigasjon" />
		<tag k="ssr:hovedgruppe" v="infrastruktur" />
		<tag k="ssr:stedsnr" v="100625" />
		<tag k="ssr:type" v="lanterne" />
	</node>
	<node id="-685854" lat="61.29347308" lon="4.64999951094">
		<tag k="alt_name" v="Olsund" />
		<tag k="name" v="Olsund lykt" />
		<tag k="ssr:date" v="2019-12-27" />
		<tag k="ssr:gruppe" v="navigasjon" />
		<tag k="ssr:hovedgruppe" v="infrastruktur" />
		<tag k="ssr:stedsnr" v="553416" />
		<tag k="ssr:type" v="fyrlykt" />
	</node>
	<node id="-684830" lat="61.3876249964" lon="4.96103334214">
		<tag k="name" v="Raudøy vestpynt" />
		<tag k="old_name" v="Raudøyna" />
		<tag k="ssr:date" v="2019-12-27" />
		<tag k="ssr:gruppe" v="navigasjon" />
		<tag k="ssr:hovedgruppe" v="infrastruktur" />
		<tag k="ssr:stedsnr" v="796219" />
		<tag k="ssr:type" v="fyrlykt" />
	</node>
	<node id="-684694" lat="61.2951638913" lon="4.59324167295">
		<tag k="alt_name" v="Sandøy lykt" />
		<tag k="name" v="Sandøy" />
		<tag k="old_name" v="Sandøyna" />
		<tag k="ssr:date" v="2019-12-27" />
		<tag k="ssr:gruppe" v="navigasjon" />
		<tag k="ssr:hovedgruppe" v="infrastruktur" />
		<tag k="ssr:stedsnr" v="675454" />
		<tag k="ssr:type" v="fyrlykt" />
	</node>
	<node id="-686222" lat="61.2858611126" lon="4.77700832664">
		<tag k="alt_name" v="Austnes" />
		<tag k="name" v="Austnes lykt" />
		<tag k="ssr:date" v="2019-12-27" />
		<tag k="ssr:gruppe" v="navigasjon" />
		<tag k="ssr:hovedgruppe" v="infrastruktur" />
		<tag k="ssr:stedsnr" v="858089" />
		<tag k="ssr:type" v="fyrlykt" />
	</node>
	<node id="-684429" lat="61.3232333328" lon="5.07841387974">
		<tag k="alt_name" v="Langenes" />
		<tag k="name" v="Langenes lykt" />
		<tag k="ssr:date" v="2019-12-27" />
		<tag k="ssr:gruppe" v="navigasjon" />
		<tag k="ssr:hovedgruppe" v="infrastruktur" />
		<tag k="ssr:stedsnr" v="736188" />
		<tag k="ssr:type" v="fyrlykt" />
	</node>
	<node id="-684682" lat="61.4150472252" lon="4.97571944945">
		<tag k="alt_name" v="Stavenes" />
		<tag k="name" v="Stavenes lykt" />
		<tag k="ssr:date" v="2019-12-27" />
		<tag k="ssr:gruppe" v="navigasjon" />
		<tag k="ssr:hovedgruppe" v="infrastruktur" />
		<tag k="ssr:stedsnr" v="675315" />
		<tag k="ssr:type" v="fyrlykt" />
	</node>
	<node id="-685062" lat="61.292688891" lon="4.78343610712">
		<tag k="alt_name" v="Austnesholmen" />
		<tag k="name" v="Austnesholmen lykt" />
		<tag k="ssr:date" v="2019-12-27" />
		<tag k="ssr:gruppe" v="navigasjon" />
		<tag k="ssr:hovedgruppe" v="infrastruktur" />
		<tag k="ssr:stedsnr" v="8096" />
		<tag k="ssr:type" v="fyrlykt" />
>>>>>>> e1d4bc35ff8a6074a6f2e91616a996b547c36f15
	</node>
</osm>
