<?xml version="1.0" encoding="UTF-8"?>
<osm generator="osmapis" version="0.6">
	<node id="-118784" lat="65.1102138886" lon="12.2975694339">
		<tag k="name" v="Næverlidammen" />
		<tag k="natural" v="water" />
		<tag k="ssr:stedsnr" v="906447" />
	</node>
	<node id="-120827" lat="65.119255553" lon="12.2368222188">
		<tag k="name" v="Manabekken" />
		<tag k="ssr:stedsnr" v="967550" />
		<tag k="waterway" v="stream" />
	</node>
	<node id="-118776" lat="65.1873444454" lon="12.2056638925">
		<tag k="name" v="Smålibekken" />
		<tag k="ssr:stedsnr" v="906331" />
		<tag k="waterway" v="stream" />
	</node>
	<node id="-118770" lat="65.0611638918" lon="12.2926611159">
		<tag k="name" v="Mellombekken" />
		<tag k="ssr:stedsnr" v="906293" />
		<tag k="waterway" v="stream" />
	</node>
	<node id="-120817" lat="65.0054277763" lon="12.4721749935">
		<tag k="name" v="Finn-Anderstjønna" />
		<tag k="natural" v="water" />
		<tag k="ssr:stedsnr" v="966948" />
	</node>
	<node id="-120813" lat="65.0359361083" lon="12.1715416584">
		<tag k="name" v="Straumbekken" />
		<tag k="ssr:stedsnr" v="966881" />
		<tag k="waterway" v="stream" />
	</node>
	<node id="-120810" lat="65.2847638899" lon="12.4108555457">
		<tag k="name" v="Smiodden" />
		<tag k="natural" v="cape" />
		<tag k="ssr:stedsnr" v="966843" />
	</node>
	<node id="-118761" lat="65.0684027762" lon="12.4618305559">
		<tag k="name" v="Åelva" />
		<tag k="ssr:stedsnr" v="743463" />
		<tag k="waterway" v="river" />
	</node>
	<node id="-120800" lat="65.0819305517" lon="12.2857500008">
		<tag k="name" v="Aspneselva" />
		<tag k="ssr:stedsnr" v="966484" />
		<tag k="waterway" v="stream" />
	</node>
	<node id="-118751" lat="65.2181999985" lon="12.6675916587">
		<tag k="name" v="Tverråa" />
		<tag k="ssr:stedsnr" v="743312" />
		<tag k="waterway" v="stream" />
	</node>
	<node id="-120796" lat="65.1515194413" lon="12.4325138943">
		<tag k="name" v="Krumtjønna" />
		<tag k="natural" v="water" />
		<tag k="ssr:stedsnr" v="966301" />
	</node>
	<node id="-118744" lat="65.0529027738" lon="12.6075222255">
		<tag k="alt_name" v="Austerengtjørna" />
		<tag k="name" v="Austerengtjønna" />
		<tag k="natural" v="water" />
		<tag k="ssr:stedsnr" v="742466" />
	</node>
	<node id="-118743" lat="65.0531750008" lon="12.6279722154">
		<tag k="alt_name" v="Hemmingslitjørna" />
		<tag k="name" v="Hemmingslitjønna" />
		<tag k="natural" v="water" />
		<tag k="ssr:stedsnr" v="742465" />
	</node>
	<node id="-120790" lat="65.01625556" lon="12.748316663">
		<tag k="name" v="Storholmen" />
		<tag k="place" v="islet" />
		<tag k="ssr:stedsnr" v="966428" />
	</node>
	<node id="-120789" lat="65.0550722251" lon="12.3676694404">
		<tag k="name" v="Stordalsbekken" />
		<tag k="ssr:stedsnr" v="966385" />
		<tag k="waterway" v="stream" />
	</node>
	<node id="-118740" lat="65.1532944437" lon="12.9982527776">
		<tag k="alt_name:no" v="Kalvvatnet, øvre" />
		<tag k="name" v="Øvre Kalvvatnet - Gaelmiejaevrie" />
		<tag k="name:no" v="Øvre Kalvvatnet" />
		<tag k="name:sma" v="Gaelmiejaevrie" />
		<tag k="natural" v="water" />
		<tag k="ssr:stedsnr" v="742519" />
		<tag k="water" v="lake" />
	</node>
	<node id="-120786" lat="65.2675583318" lon="12.4089861189">
		<tag k="name" v="Helvikvatn" />
		<tag k="natural" v="water" />
		<tag k="ssr:stedsnr" v="966195" />
	</node>
	<node id="-118737" lat="65.0729277786" lon="11.9881750017">
		<tag k="alt_name" v="Tosvikbuelva" />
		<tag k="name" v="Tosvikbogelva" />
		<tag k="ssr:stedsnr" v="742060" />
		<tag k="waterway" v="stream" />
	</node>
	<node id="-118734" lat="65.0333388895" lon="12.5568861061">
		<tag k="name" v="Røyrneset" />
		<tag k="natural" v="cape" />
		<tag k="ssr:stedsnr" v="904876" />
	</node>
	<node id="-118432" lat="65.0211555542" lon="12.7357138788">
		<tag k="name" v="Hamptjønna" />
		<tag k="natural" v="water" />
		<tag k="ssr:stedsnr" v="600363" />
	</node>
	<node id="-120765" lat="65.0702472239" lon="12.1021722119">
		<tag k="name" v="Storvika" />
		<tag k="natural" v="bay" />
		<tag k="ssr:stedsnr" v="964249" />
	</node>
	<node id="-118715" lat="65.2130277793" lon="12.8118777746">
		<tag k="name" v="Agnettjønna" />
		<tag k="natural" v="water" />
		<tag k="ssr:stedsnr" v="903438" />
		<tag k="water" v="lake" />
	</node>
	<node id="-118714" lat="65.2508472249" lon="12.5603361119">
		<tag k="name" v="Ospskogbekken" />
		<tag k="ssr:stedsnr" v="903348" />
		<tag k="waterway" v="stream" />
	</node>
	<node id="-118712" lat="65.0612222226" lon="12.044730549">
		<tag k="name" v="Saglifossen" />
		<tag k="natural" v="waterfall" />
		<tag k="ssr:stedsnr" v="902902" />
	</node>
	<node id="-120758" lat="65.1191083334" lon="12.6485833324">
		<tag k="name" v="Langtjønna" />
		<tag k="natural" v="water" />
		<tag k="ssr:stedsnr" v="951900" />
	</node>
	<node id="-118709" lat="65.0367944442" lon="12.5358277709">
		<tag k="name" v="Skrabekkjen" />
		<tag k="ssr:stedsnr" v="906973" />
		<tag k="waterway" v="stream" />
	</node>
	<node id="-118708" lat="65.0526055572" lon="12.2516250006">
		<tag k="name" v="Krokelva" />
		<tag k="ssr:stedsnr" v="906967" />
		<tag k="waterway" v="stream" />
	</node>
	<node id="-120755" lat="65.048150004" lon="12.3040500033">
		<tag k="name" v="Småvatnan" />
		<tag k="natural" v="water" />
		<tag k="ssr:stedsnr" v="865518" />
	</node>
	<node id="-120748" lat="65.1387555536" lon="12.1440138821">
		<tag k="name" v="Sætervatnet" />
		<tag k="natural" v="water" />
		<tag k="ssr:stedsnr" v="864995" />
	</node>
	<node id="-120747" lat="65.1316166625" lon="11.9872638874">
		<tag k="fixme" v="multiple name tags, choose one and add the other to alt_name" />
		<tag k="name" v="Strandelva;Sæterbekken" />
		<tag k="ssr:stedsnr" v="864990" />
		<tag k="waterway" v="stream" />
	</node>
	<node id="-120741" lat="65.1882027799" lon="12.1537055518">
		<tag k="alt_name" v="Solstadelva" />
		<tag k="name" v="Solstadbekken" />
		<tag k="ssr:stedsnr" v="864922" />
		<tag k="waterway" v="stream" />
	</node>
	<node id="-120730" lat="64.9817749991" lon="12.5033111066">
		<tag k="name" v="Finnmarkelva" />
		<tag k="ssr:stedsnr" v="864872" />
		<tag k="waterway" v="stream" />
	</node>
	<node id="-118681" lat="65.0203222193" lon="12.7499638828">
		<tag k="name" v="Fossholmen" />
		<tag k="place" v="islet" />
		<tag k="ssr:stedsnr" v="724383" />
	</node>
	<node id="-120727" lat="65.0241277801" lon="12.5480999944">
		<tag k="alt_name" v="Kvernelva" />
		<tag k="name" v="Kvennelva" />
		<tag k="ssr:stedsnr" v="864782" />
		<tag k="waterway" v="river" />
	</node>
	<node id="-120724" lat="65.0182999994" lon="12.6887916612">
		<tag k="name" v="Mesundtangen" />
		<tag k="natural" v="cape" />
		<tag k="ssr:stedsnr" v="864668" />
	</node>
	<node id="-120718" lat="65.2004277774" lon="12.7731000028">
		<tag k="alt_name" v="Kolsvikvatnet" />
		<tag k="name" v="Kollsvikvatnet" />
		<tag k="natural" v="water" />
		<tag k="ssr:stedsnr" v="864636" />
	</node>
	<node id="-120715" lat="65.1043333294" lon="12.9385888916">
		<tag k="name" v="Mellavatnet - Skaaloevaajjanjaevrie" />
		<tag k="name:no" v="Mellavatnet" />
		<tag k="name:sma" v="Skaaloevaajjanjaevrie" />
		<tag k="natural" v="water" />
		<tag k="ssr:stedsnr" v="864599" />
		<tag k="water" v="lake" />
	</node>
	<node id="-118666" lat="65.0064638884" lon="12.3040194362">
		<tag k="name" v="Sørvasselva" />
		<tag k="ssr:stedsnr" v="722373" />
		<tag k="waterway" v="stream" />
	</node>
	<node id="-118665" lat="65.0460249974" lon="12.0423222191">
		<tag k="name" v="Storodden" />
		<tag k="natural" v="cape" />
		<tag k="ssr:stedsnr" v="722012" />
	</node>
	<node id="-120710" lat="65.0776916636" lon="12.4705944342">
		<tag k="name" v="Hopen" />
		<tag k="natural" v="bay" />
		<tag k="ssr:stedsnr" v="864501" />
	</node>
	<node id="-120706" lat="65.0674083293" lon="12.3548111021">
		<tag k="name" v="Hellifossen" />
		<tag k="natural" v="waterfall" />
		<tag k="ssr:stedsnr" v="864478" />
	</node>
	<node id="-118656" lat="65.1471583327" lon="12.0148138935">
		<tag k="name" v="Klobekken" />
		<tag k="ssr:stedsnr" v="682919" />
		<tag k="waterway" v="stream" />
	</node>
	<node id="-118653" lat="64.9754166635" lon="12.2763777761">
		<tag k="name" v="Storvatnet" />
		<tag k="natural" v="water" />
		<tag k="ssr:stedsnr" v="682869" />
		<tag k="water" v="lake" />
	</node>
	<node id="-118648" lat="65.1471555571" lon="12.4998083297">
		<tag k="name" v="Langdalselva" />
		<tag k="ssr:stedsnr" v="682363" />
		<tag k="waterway" v="stream" />
	</node>
	<node id="-118645" lat="65.0734861077" lon="12.2433749969">
		<tag k="name" v="Nordelva" />
		<tag k="ssr:stedsnr" v="682470" />
		<tag k="waterway" v="stream" />
	</node>
	<node id="-120691" lat="65.2430944438" lon="12.5215888866">
		<tag k="alt_name" v="Håkontjørna" />
		<tag k="name" v="Håkontjønna" />
		<tag k="natural" v="water" />
		<tag k="ssr:stedsnr" v="864234" />
	</node>
	<node id="-120688" lat="65.2490805553" lon="12.5803777753">
		<tag k="alt_name" v="Storbugen" />
		<tag k="name" v="Storbogen" />
		<tag k="natural" v="bay" />
		<tag k="ssr:stedsnr" v="864205" />
	</node>
	<node id="-118639" lat="65.1137750028" lon="12.629577773">
		<tag k="name" v="Storvassbukta" />
		<tag k="natural" v="bay" />
		<tag k="ssr:stedsnr" v="682405" />
	</node>
	<node id="-120685" lat="65.0262638876" lon="12.69270001">
		<tag k="name" v="Hallarvika" />
		<tag k="natural" v="bay" />
		<tag k="ssr:stedsnr" v="864669" />
	</node>
	<node id="-120683" lat="65.2900555545" lon="12.415269455">
		<tag k="name" v="Myrmarkvatnet" />
		<tag k="natural" v="water" />
		<tag k="ssr:stedsnr" v="864180" />
		<tag k="water" v="lake" />
	</node>
	<node id="-120680" lat="64.9586333361" lon="12.7535000082">
		<tag k="name" v="Nilsfinntjønnin - Bueleksjællanjaevrieh" />
		<tag k="name:no" v="Nilsfinntjønnin" />
		<tag k="name:sma" v="Bueleksjællanjaevrieh" />
		<tag k="natural" v="water" />
		<tag k="ssr:stedsnr" v="864123" />
	</node>
	<node id="-120676" lat="65.0711083365" lon="12.0537916674">
		<tag k="alt_name" v="Kjellvatnet" />
		<tag k="name" v="Kjeldeidvatnet" />
		<tag k="natural" v="water" />
		<tag k="ssr:stedsnr" v="864070" />
	</node>
	<node id="-120668" lat="65.0845361104" lon="12.6917083428">
		<tag k="name" v="Grøntjønna" />
		<tag k="natural" v="water" />
		<tag k="ssr:stedsnr" v="864456" />
	</node>
	<node id="-118619" lat="65.2442333294" lon="12.6570388841">
		<tag k="name" v="Stillelva" />
		<tag k="natural" v="water" />
		<tag k="ssr:stedsnr" v="663722" />
		<tag k="water" v="lake" />
	</node>
	<node id="-120665" lat="65.1255638885" lon="12.5646944354">
		<tag k="name" v="Leiråa" />
		<tag k="ssr:stedsnr" v="864432" />
		<tag k="waterway" v="stream" />
	</node>
	<node id="-118073" lat="65.153047226" lon="12.3756499965">
		<tag k="name" v="Silen" />
		<tag k="ssr:stedsnr" v="299053" />
		<tag k="waterway" v="stream" />
	</node>
	<node id="-118609" lat="65.1483638866" lon="12.6483333365">
		<tag k="name" v="Jonasbekken" />
		<tag k="ssr:stedsnr" v="663670" />
		<tag k="waterway" v="stream" />
	</node>
	<node id="-118606" lat="65.1112611117" lon="12.6103277856">
		<tag k="name" v="Tollibekkfossen" />
		<tag k="natural" v="waterfall" />
		<tag k="ssr:stedsnr" v="663665" />
	</node>
	<node id="-120652" lat="65.0535111132" lon="12.4875638821">
		<tag k="name" v="Odden" />
		<tag k="natural" v="cape" />
		<tag k="ssr:stedsnr" v="846571" />
	</node>
	<node id="-120650" lat="65.0677694406" lon="12.4530611096">
		<tag k="name" v="Kalåbekken" />
		<tag k="ssr:stedsnr" v="846549" />
		<tag k="waterway" v="stream" />
	</node>
	<node id="-120646" lat="65.0590083306" lon="12.5268416686">
		<tag k="name" v="Bjørbekkodden" />
		<tag k="natural" v="cape" />
		<tag k="ssr:stedsnr" v="846515" />
	</node>
	<node id="-120633" lat="65.0418999968" lon="12.2761749909">
		<tag k="name" v="Tjønnan" />
		<tag k="natural" v="water" />
		<tag k="ssr:stedsnr" v="846239" />
		<tag k="water" v="lake" />
	</node>
	<node id="-118408" lat="65.1093972233" lon="12.608044455">
		<tag k="name" v="Lonet" />
		<tag k="place" v="locality" />
		<tag k="ssr:stedsnr" v="560368" />
	</node>
	<node id="-120620" lat="65.043391664" lon="12.6686166732">
		<tag k="name" v="Kvennfossen" />
		<tag k="natural" v="waterfall" />
		<tag k="ssr:stedsnr" v="845885" />
	</node>
	<node id="-118407" lat="65.1462500028" lon="12.6651277794">
		<tag k="name" v="Sommarstjønna" />
		<tag k="natural" v="water" />
		<tag k="ssr:stedsnr" v="560354" />
	</node>
	<node id="-120616" lat="65.2570611119" lon="12.6226055472">
		<tag k="name" v="Lessbuneset" />
		<tag k="natural" v="cape" />
		<tag k="ssr:stedsnr" v="845761" />
	</node>
	<node id="-118564" lat="65.2543083321" lon="12.6249361162">
		<tag k="name" v="Storbuneset" />
		<tag k="natural" v="cape" />
		<tag k="ssr:stedsnr" v="724711" />
	</node>
	<node id="-118563" lat="65.2446444451" lon="12.6585055656">
		<tag k="name" v="Storfossnessan" />
		<tag k="natural" v="cape" />
		<tag k="ssr:stedsnr" v="724705" />
	</node>
	<node id="-118562" lat="65.2386916628" lon="12.6572638882">
		<tag k="name" v="Stokkvika" />
		<tag k="natural" v="bay" />
		<tag k="ssr:stedsnr" v="724698" />
	</node>
	<node id="-120603" lat="65.2489444435" lon="12.440905555">
		<tag k="name" v="Eideelva" />
		<tag k="ssr:stedsnr" v="845231" />
		<tag k="waterway" v="river" />
	</node>
	<node id="-120602" lat="65.2439694429" lon="12.4842277777">
		<tag k="name" v="Aspvikholmene" />
		<tag k="place" v="islet" />
		<tag k="ssr:stedsnr" v="845228" />
	</node>
	<node id="-120599" lat="65.2667722192" lon="12.3979833409">
		<tag k="name" v="Trongvikvatn" />
		<tag k="natural" v="water" />
		<tag k="ssr:stedsnr" v="845202" />
	</node>
	<node id="-120597" lat="65.2272249986" lon="12.8006888874">
		<tag k="name" v="Trollholbekken" />
		<tag k="ssr:stedsnr" v="845073" />
		<tag k="waterway" v="stream" />
	</node>
	<node id="-120594" lat="65.0357055565" lon="12.5565083439">
		<tag k="name" v="Fuglstadholmen" />
		<tag k="place" v="islet" />
		<tag k="ssr:stedsnr" v="844880" />
	</node>
	<node id="-120593" lat="65.0393666647" lon="12.5692194452">
		<tag k="name" v="Krodalbekken" />
		<tag k="ssr:stedsnr" v="844874" />
		<tag k="waterway" v="stream" />
	</node>
	<node id="-120587" lat="65.0149527754" lon="12.7203861013">
		<tag k="name" v="Åbjørlonet" />
		<tag k="natural" v="water" />
		<tag k="ssr:stedsnr" v="844364" />
		<tag k="water" v="lake" />
	</node>
	<node id="-118538" lat="65.1341305536" lon="12.588241677">
		<tag k="name" v="Urdåa" />
		<tag k="ssr:stedsnr" v="724660" />
		<tag k="waterway" v="stream" />
	</node>
	<node id="-120579" lat="65.0459388896" lon="12.3502083366">
		<tag k="name" v="Nervassdammen" />
		<tag k="ssr:stedsnr" v="845387" />
		<tag k="waterway" v="dam" />
	</node>
	<node id="-118528" lat="65.294655559" lon="12.5632972277">
		<tag k="name" v="Rognvalstraumen" />
		<tag k="natural" v="strait" />
		<tag k="ssr:stedsnr" v="724309" />
	</node>
	<node id="-120575" lat="65.0824111096" lon="12.504416664">
		<tag k="name" v="Flobotnet" />
		<tag k="natural" v="bay" />
		<tag k="ssr:stedsnr" v="843735" />
	</node>
	<node id="-120573" lat="65.1573666691" lon="12.1627944485">
		<tag k="name" v="Dyrgrova" />
		<tag k="ssr:stedsnr" v="843729" />
		<tag k="waterway" v="stream" />
	</node>
	<node id="-118524" lat="65.0632722256" lon="12.3014694349">
		<tag k="name" v="Stormyra" />
		<tag k="ssr:stedsnr" v="724428" />
		<tag k="waterway" v="stream" />
	</node>
	<node id="-120565" lat="65.0625472177" lon="12.4741388956">
		<tag k="name" v="Syltmælen" />
		<tag k="natural" v="cape" />
		<tag k="ssr:stedsnr" v="843534" />
	</node>
	<node id="-118515" lat="65.1884166649" lon="12.7735749973">
		<tag k="name" v="Middagsbekken" />
		<tag k="ssr:stedsnr" v="724034" />
		<tag k="waterway" v="stream" />
	</node>
	<node id="-118514" lat="65.0799194465" lon="12.3430805545">
		<tag k="name" v="Fallbekken" />
		<tag k="ssr:stedsnr" v="724264" />
		<tag k="waterway" v="stream" />
	</node>
	<node id="-120553" lat="65.021402774" lon="12.7824527827">
		<tag k="name" v="Hesjebekken" />
		<tag k="ssr:stedsnr" v="804741" />
		<tag k="waterway" v="stream" />
	</node>
	<node id="-118504" lat="65.0036694402" lon="12.494036121">
		<tag k="name" v="Finnanderstjønna" />
		<tag k="natural" v="water" />
		<tag k="ssr:stedsnr" v="621613" />
	</node>
	<node id="-118503" lat="65.1324388847" lon="13.0138583287">
		<tag k="name" v="Baarmoenjaevrie" />
		<tag k="name:sma" v="Baarmoenjaevrie" />
		<tag k="natural" v="water" />
		<tag k="ssr:stedsnr" v="621603" />
	</node>
	<node id="-118501" lat="65.1093944418" lon="12.4883000061">
		<tag k="name" v="Kolmilbekkjen" />
		<tag k="ssr:stedsnr" v="723675" />
		<tag k="waterway" v="stream" />
	</node>
	<node id="-120547" lat="65.0906027818" lon="12.6989000025">
		<tag k="name" v="Flåtjønna" />
		<tag k="natural" v="water" />
		<tag k="ssr:stedsnr" v="804444" />
	</node>
	<node id="-120545" lat="65.0006055592" lon="12.5048249965">
		<tag k="name" v="Storfjellelva" />
		<tag k="ssr:stedsnr" v="804595" />
		<tag k="waterway" v="stream" />
	</node>
	<node id="-120542" lat="65.1703833376" lon="12.4678749908">
		<tag k="name" v="Kringlivatnet" />
		<tag k="natural" v="water" />
		<tag k="ssr:stedsnr" v="804322" />
	</node>
	<node id="-120540" lat="65.1902305546" lon="12.2381194525">
		<tag k="name" v="Røytvollvatnet" />
		<tag k="natural" v="water" />
		<tag k="ssr:stedsnr" v="804297" />
	</node>
	<node id="-120539" lat="65.20029167" lon="12.4874527766">
		<tag k="name" v="Nervatnet" />
		<tag k="natural" v="water" />
		<tag k="ssr:stedsnr" v="804295" />
	</node>
	<node id="-120537" lat="65.2724138872" lon="12.4126333383">
		<tag k="name" v="Grindgardsvatnet" />
		<tag k="natural" v="water" />
		<tag k="ssr:stedsnr" v="804279" />
	</node>
	<node id="-120535" lat="65.1428222231" lon="12.7068388904">
		<tag k="alt_name" v="Skavvatnet, heimre" />
		<tag k="name" v="Heimre Skavvatnet" />
		<tag k="natural" v="water" />
		<tag k="ssr:stedsnr" v="804402" />
	</node>
	<node id="-120534" lat="65.1433750016" lon="12.6714111103">
		<tag k="alt_name" v="Pertjørna" />
		<tag k="name" v="Petjønna" />
		<tag k="natural" v="water" />
		<tag k="ssr:stedsnr" v="804399" />
	</node>
	<node id="-120529" lat="65.1323805569" lon="12.6901666715">
		<tag k="alt_name" v="Heimer Skavvasselva" />
		<tag k="name" v="Sørkavvasselva" />
		<tag k="ssr:stedsnr" v="804387" />
		<tag k="waterway" v="stream" />
	</node>
	<node id="-120526" lat="65.257366666" lon="12.4658999927">
		<tag k="name" v="Bjørnvikelva" />
		<tag k="ssr:stedsnr" v="804187" />
		<tag k="waterway" v="stream" />
	</node>
	<node id="-120525" lat="65.1247777803" lon="12.1756916773">
		<tag k="name" v="Kveinåa" />
		<tag k="ssr:stedsnr" v="803928" />
		<tag k="waterway" v="stream" />
	</node>
	<node id="-118473" lat="65.1024777755" lon="12.212352787">
		<tag k="name" v="Svartbekken" />
		<tag k="ssr:stedsnr" v="722639" />
		<tag k="waterway" v="stream" />
	</node>
	<node id="-120518" lat="64.9915999989" lon="12.4618944519">
		<tag k="name" v="Lauvlitjørnin" />
		<tag k="natural" v="water" />
		<tag k="ssr:stedsnr" v="803872" />
	</node>
	<node id="-120515" lat="64.9939805566" lon="12.0836861064">
		<tag k="name" v="Sjølstadvatnet" />
		<tag k="natural" v="water" />
		<tag k="ssr:stedsnr" v="803662" />
		<tag k="water" v="lake" />
	</node>
	<node id="-120511" lat="65.1009694428" lon="12.3209250047">
		<tag k="name" v="Sørelva" />
		<tag k="ssr:stedsnr" v="803395" />
		<tag k="waterway" v="stream" />
	</node>
	<node id="-118457" lat="65.2467999989" lon="12.5825972267">
		<tag k="name" v="Storbugråna" />
		<tag k="ssr:stedsnr" v="721343" />
		<tag k="waterway" v="stream" />
	</node>
	<node id="-118456" lat="65.2560527753" lon="12.5426111031">
		<tag k="name" v="Kjerringmarkbukta" />
		<tag k="natural" v="bay" />
		<tag k="ssr:stedsnr" v="721341" />
	</node>
	<node id="-120497" lat="65.0848499964" lon="12.0122749979">
		<tag k="name" v="Heimertjønna" />
		<tag k="natural" v="water" />
		<tag k="ssr:stedsnr" v="785876" />
	</node>
	<node id="-120491" lat="65.148736112" lon="12.0130750048">
		<tag k="name" v="Skavstrandbekken" />
		<tag k="ssr:stedsnr" v="785810" />
		<tag k="waterway" v="stream" />
	</node>
	<node id="-120484" lat="65.1152666705" lon="12.2103972125">
		<tag k="name" v="Seterbekken" />
		<tag k="ssr:stedsnr" v="785556" />
		<tag k="waterway" v="stream" />
	</node>
	<node id="-120480" lat="65.0606055576" lon="12.5326027701">
		<tag k="name" v="Langnesodden" />
		<tag k="natural" v="cape" />
		<tag k="ssr:stedsnr" v="785499" />
	</node>
	<node id="-118042" lat="65.0196000017" lon="12.5507111194">
		<tag k="alt_name" v="Kleivnestjørna" />
		<tag k="name" v="Kleivnestjønna" />
		<tag k="natural" v="water" />
		<tag k="ssr:stedsnr" v="500670" />
	</node>
	<node id="-118424" lat="65.0155722254" lon="12.6846333265">
		<tag k="name" v="Djupvika" />
		<tag k="natural" v="bay" />
		<tag k="ssr:stedsnr" v="570318" />
	</node>
	<node id="-118420" lat="65.0634055579" lon="12.2970249944">
		<tag k="name" v="Nordbekken" />
		<tag k="ssr:stedsnr" v="299479" />
		<tag k="waterway" v="stream" />
	</node>
	<node id="-118419" lat="65.0816611117" lon="12.2771888853">
		<tag k="name" v="Nordengmyra" />
		<tag k="ssr:stedsnr" v="299476" />
		<tag k="waterway" v="stream" />
	</node>
	<node id="-120466" lat="65.1468361126" lon="12.187299991">
		<tag k="name" v="Markavatnet" />
		<tag k="natural" v="water" />
		<tag k="ssr:stedsnr" v="785010" />
	</node>
	<node id="-118417" lat="65.1309611116" lon="12.9868250102">
		<tag k="name" v="Gaelmiegaaloe" />
		<tag k="name:sma" v="Gaelmiegaaloe" />
		<tag k="natural" v="bay" />
		<tag k="ssr:stedsnr" v="560557" />
	</node>
	<node id="-118413" lat="65.0596638873" lon="12.9654249907">
		<tag k="name" v="Kalvvatnet - Gaejsienjaevrie" />
		<tag k="name:no" v="Kalvvatnet" />
		<tag k="name:sma" v="Gaejsienjaevrie" />
		<tag k="natural" v="water" />
		<tag k="ssr:stedsnr" v="560518" />
		<tag k="water" v="lake" />
	</node>
	<node id="-118412" lat="65.0846055562" lon="12.9315555588">
		<tag k="name" v="Kalvfjellelva - Gaelpienjohke" />
		<tag k="name:no" v="Kalvfjellelva" />
		<tag k="name:sma" v="Gaelpienjohke" />
		<tag k="ssr:stedsnr" v="560516" />
		<tag k="waterway" v="stream" />
	</node>
	<node id="-118409" lat="65.0475333325" lon="12.4834805589">
		<tag k="name" v="Marfossen" />
		<tag k="natural" v="waterfall" />
		<tag k="ssr:stedsnr" v="560508" />
	</node>
	<node id="-120456" lat="65.1351166637" lon="12.6320861206">
		<tag k="name" v="Vassenden" />
		<tag k="natural" v="bay" />
		<tag k="ssr:stedsnr" v="784699" />
	</node>
	<node id="-120455" lat="65.1344666622" lon="12.6683000016">
		<tag k="name" v="Nedre Trollskarvatn" />
		<tag k="natural" v="water" />
		<tag k="ssr:stedsnr" v="784693" />
	</node>
	<node id="-118405" lat="65.0721805598" lon="12.3635027814">
		<tag k="name" v="Stillelva" />
		<tag k="place" v="locality" />
		<tag k="ssr:stedsnr" v="560469" />
	</node>
	<node id="-120452" lat="65.1117611119" lon="12.6533583439">
		<tag k="name" v="Finnkristenodden" />
		<tag k="natural" v="cape" />
		<tag k="ssr:stedsnr" v="784688" />
	</node>
	<node id="-118402" lat="65.161508333" lon="12.2900333231">
		<tag k="name" v="Brubekken" />
		<tag k="ssr:stedsnr" v="560274" />
		<tag k="waterway" v="stream" />
	</node>
	<node id="-118401" lat="65.1942833299" lon="12.2425500067">
		<tag k="name" v="Lonbekken" />
		<tag k="ssr:stedsnr" v="560272" />
		<tag k="waterway" v="stream" />
	</node>
	<node id="-118399" lat="65.0698722214" lon="12.0958388882">
		<tag k="name" v="Horsbergvatnet" />
		<tag k="natural" v="water" />
		<tag k="ssr:stedsnr" v="560067" />
		<tag k="water" v="lake" />
	</node>
	<node id="-118393" lat="65.0435111125" lon="12.2105555565">
		<tag k="name" v="Sørengvatnet" />
		<tag k="natural" v="water" />
		<tag k="ssr:stedsnr" v="560118" />
	</node>
	<node id="-118390" lat="65.1039916667" lon="12.1779027757">
		<tag k="name" v="Sagstellingsbekken" />
		<tag k="ssr:stedsnr" v="299637" />
		<tag k="waterway" v="stream" />
	</node>
	<node id="-120284" lat="65.0585000004" lon="12.6275583312">
		<tag k="name" v="Lomlitjønna" />
		<tag k="natural" v="water" />
		<tag k="ssr:stedsnr" v="621483" />
	</node>
	<node id="-118384" lat="65.0236138888" lon="12.7610666682">
		<tag k="name" v="Fossengholmen" />
		<tag k="place" v="islet" />
		<tag k="ssr:stedsnr" v="299434" />
	</node>
	<node id="-120431" lat="65.2455805512" lon="12.4511055561">
		<tag k="name" v="Lunnvika" />
		<tag k="natural" v="bay" />
		<tag k="ssr:stedsnr" v="784230" />
	</node>
	<node id="-118382" lat="65.0410138918" lon="12.1525083319">
		<tag k="name" v="Middagstadelva" />
		<tag k="ssr:stedsnr" v="542965" />
		<tag k="waterway" v="stream" />
	</node>
	<node id="-120428" lat="65.214205559" lon="12.4388972327">
		<tag k="name" v="Møllebogelva" />
		<tag k="ssr:stedsnr" v="784098" />
		<tag k="waterway" v="stream" />
	</node>
	<node id="-117965" lat="65.0279500033" lon="12.1223444472">
		<tag k="name" v="Storgrønlandsfossen" />
		<tag k="natural" v="waterfall" />
		<tag k="ssr:stedsnr" v="360023" />
	</node>
	<node id="-120422" lat="65.1984361113" lon="12.2293722307">
		<tag k="name" v="Steinbekken" />
		<tag k="ssr:stedsnr" v="783298" />
		<tag k="waterway" v="stream" />
	</node>
	<node id="-117350" lat="65.0836250031" lon="12.909636112">
		<tag k="name" v="Kalvkruvatnet - Gaelpienjaevrie" />
		<tag k="name:no" v="Kalvkruvatnet" />
		<tag k="name:sma" v="Gaelpienjaevrie" />
		<tag k="natural" v="water" />
		<tag k="ssr:stedsnr" v="14424" />
		<tag k="water" v="lake" />
	</node>
	<node id="-117349" lat="65.0400083341" lon="12.6385250076">
		<tag k="name" v="Storåfossen" />
		<tag k="natural" v="waterfall" />
		<tag k="ssr:stedsnr" v="14411" />
	</node>
	<node id="-120410" lat="65.0357111101" lon="12.5994500079">
		<tag k="name" v="Midtre Trofoss" />
		<tag k="natural" v="waterfall" />
		<tag k="ssr:stedsnr" v="782838" />
	</node>
	<node id="-120402" lat="65.2140916699" lon="12.8252416635">
		<tag k="name" v="Ner-Skrovadalsvatnet" />
		<tag k="natural" v="water" />
		<tag k="ssr:stedsnr" v="782421" />
		<tag k="water" v="lake" />
	</node>
	<node id="-117347" lat="65.0310972236" lon="12.2939388964">
		<tag k="name" v="Tverråtjønna" />
		<tag k="natural" v="water" />
		<tag k="ssr:stedsnr" v="14402" />
	</node>
	<node id="-118350" lat="65.0625000008" lon="12.5410527745">
		<tag k="name" v="Bruneset" />
		<tag k="natural" v="cape" />
		<tag k="ssr:stedsnr" v="540966" />
	</node>
	<node id="-118349" lat="65.051288893" lon="12.5593277705">
		<tag k="name" v="Kvennbekkjen" />
		<tag k="ssr:stedsnr" v="540960" />
		<tag k="waterway" v="stream" />
	</node>
	<node id="-120386" lat="65.1933277804" lon="12.9993194488">
		<tag k="name" v="Mellomvatnet - Jarpejaevrie" />
		<tag k="name:no" v="Mellomvatnet" />
		<tag k="name:sma" v="Jarpejaevrie" />
		<tag k="natural" v="water" />
		<tag k="ssr:stedsnr" v="743537" />
	</node>
	<node id="-120385" lat="65.0247888852" lon="12.8335249999">
		<tag k="name" v="Kjerringdalselva" />
		<tag k="ssr:stedsnr" v="743534" />
		<tag k="waterway" v="river" />
	</node>
	<node id="-120382" lat="65.2070472209" lon="12.7891083369">
		<tag k="alt_name" v="Bogaelva;Bugaelva" />
		<tag k="name" v="Bogelva" />
		<tag k="ssr:stedsnr" v="743605" />
		<tag k="waterway" v="river" />
	</node>
	<node id="-120378" lat="65.0573333355" lon="12.5287111152">
		<tag k="name" v="Aunvatnet" />
		<tag k="natural" v="water" />
		<tag k="ssr:stedsnr" v="743448" />
		<tag k="water" v="lake" />
	</node>
	<node id="-120375" lat="65.0558250027" lon="12.3622888904">
		<tag k="name" v="Svartåsfossen" />
		<tag k="natural" v="waterfall" />
		<tag k="ssr:stedsnr" v="743492" />
	</node>
	<node id="-120374" lat="65.0629916681" lon="12.3038444482">
		<tag k="alt_name" v="Bugaelva" />
		<tag k="name" v="Bogaelva" />
		<tag k="ssr:stedsnr" v="743491" />
		<tag k="waterway" v="stream" />
	</node>
	<node id="-120370" lat="65.2017861138" lon="12.6201194478">
		<tag k="alt_name" v="Søbergsvatnet, litle" />
		<tag k="name" v="Litle Søbergsvatnet" />
		<tag k="natural" v="water" />
		<tag k="ssr:stedsnr" v="743288" />
	</node>
	<node id="-120368" lat="65.21543056" lon="12.5357666682">
		<tag k="name" v="Sagvatnet" />
		<tag k="natural" v="water" />
		<tag k="ssr:stedsnr" v="743275" />
		<tag k="water" v="lake" />
	</node>
	<node id="-118319" lat="65.0277277761" lon="12.3323027739">
		<tag k="alt_name" v="Mellomtjørna" />
		<tag k="name" v="Mellomtjønna" />
		<tag k="natural" v="water" />
		<tag k="ssr:stedsnr" v="682539" />
	</node>
	<node id="-118317" lat="65.0636500023" lon="12.8365805568">
		<tag k="name" v="Oksdalsneset" />
		<tag k="natural" v="cape" />
		<tag k="ssr:stedsnr" v="682571" />
	</node>
	<node id="-118023" lat="65.1966916622" lon="12.5205166707">
		<tag k="name" v="Botnelva" />
		<tag k="ssr:stedsnr" v="500297" />
		<tag k="waterway" v="stream" />
	</node>
	<node id="-118311" lat="65.1290666642" lon="12.5715444438">
		<tag k="name" v="Urdbogen" />
		<tag k="natural" v="bay" />
		<tag k="ssr:stedsnr" v="682383" />
	</node>
	<node id="-120356" lat="65.0208111149" lon="12.6782194417">
		<tag k="name" v="Åbjørvatnet - Diedtjienjaevrie" />
		<tag k="name:no" v="Åbjørvatnet" />
		<tag k="name:sma" v="Diedtjienjaevrie" />
		<tag k="natural" v="water" />
		<tag k="ssr:stedsnr" v="742592" />
		<tag k="water" v="lake" />
	</node>
	<node id="-120354" lat="65.0361361097" lon="12.6976222264">
		<tag k="alt_name" v="Skjervika" />
		<tag k="name" v="Skjærvika" />
		<tag k="natural" v="bay" />
		<tag k="ssr:stedsnr" v="742571" />
	</node>
	<node id="-120352" lat="65.1351249973" lon="13.0809111158">
		<tag k="name" v="Njöölvenjaevrie" />
		<tag k="name:sma" v="Njöölvenjaevrie" />
		<tag k="natural" v="water" />
		<tag k="ssr:stedsnr" v="742531" />
		<tag k="water" v="lake" />
	</node>
	<node id="-120351" lat="65.0378555534" lon="12.8422694475">
		<tag k="name" v="Mellomengelva" />
		<tag k="ssr:stedsnr" v="742484" />
		<tag k="waterway" v="stream" />
	</node>
	<node id="-120349" lat="65.1082499989" lon="12.5707388781">
		<tag k="alt_name" v="Landvindstjørna" />
		<tag k="name" v="Landvindstjønna" />
		<tag k="natural" v="water" />
		<tag k="ssr:stedsnr" v="742350" />
	</node>
	<node id="-118300" lat="65.2918638895" lon="12.5623361156">
		<tag k="name" v="Siristakkvatnet" />
		<tag k="natural" v="water" />
		<tag k="ssr:stedsnr" v="682248" />
	</node>
	<node id="-120346" lat="64.9935500043" lon="12.8806111082">
		<tag k="name" v="Øvre Kjerringtjønna" />
		<tag k="natural" v="water" />
		<tag k="ssr:stedsnr" v="742134" />
	</node>
	<node id="-120344" lat="65.0746249999" lon="12.009008333">
		<tag k="alt_name" v="Ugrunsvatnet" />
		<tag k="name" v="Urdgrunnvatnet" />
		<tag k="natural" v="water" />
		<tag k="ssr:stedsnr" v="742051" />
	</node>
	<node id="-120341" lat="65.1071500002" lon="12.1385499999">
		<tag k="name" v="Litlehornvatnet" />
		<tag k="natural" v="water" />
		<tag k="ssr:stedsnr" v="743026" />
	</node>
	<node id="-118289" lat="65.0107916662" lon="12.1004388845">
		<tag k="fixme" v="multiple name tags, choose one and add the other to alt_name" />
		<tag k="name" v="Årsanddalstjønna;Tjønna" />
		<tag k="natural" v="water" />
		<tag k="ssr:stedsnr" v="682200" />
	</node>
	<node id="-120335" lat="65.0199277793" lon="12.6908694427">
		<tag k="name" v="Mesundet" />
		<tag k="natural" v="strait" />
		<tag k="ssr:stedsnr" v="630343" />
	</node>
	<node id="-120334" lat="65.2592999985" lon="12.5304277696">
		<tag k="name" v="Røyrneset" />
		<tag k="natural" v="cape" />
		<tag k="ssr:stedsnr" v="622675" />
	</node>
	<node id="-118283" lat="65.1071972192" lon="11.9447472236">
		<tag k="alt_name" v="Lomtjørna" />
		<tag k="name" v="Lomtjønna" />
		<tag k="natural" v="water" />
		<tag k="ssr:stedsnr" v="682031" />
	</node>
	<node id="-118282" lat="65.1040166679" lon="12.198383343">
		<tag k="name" v="Hornelva" />
		<tag k="ssr:stedsnr" v="682030" />
		<tag k="waterway" v="river" />
	</node>
	<node id="-118280" lat="65.0723833342" lon="12.0086500093">
		<tag k="alt_name" v="Svartvatnet" />
		<tag k="name" v="Svarttjønna" />
		<tag k="natural" v="water" />
		<tag k="ssr:stedsnr" v="682076" />
	</node>
	<node id="-117675" lat="65.1184083305" lon="12.141669454">
		<tag k="name" v="Bjønnåvatnet" />
		<tag k="natural" v="water" />
		<tag k="ssr:stedsnr" v="196011" />
	</node>
	<node id="-120312" lat="65.1614833316" lon="12.1339361131">
		<tag k="alt_name" v="Litlheilsbekken, nordre" />
		<tag k="name" v="Nordre Litlheilsbekken" />
		<tag k="ssr:stedsnr" v="621889" />
		<tag k="waterway" v="stream" />
	</node>
	<node id="-120311" lat="64.9920888923" lon="12.2882027752">
		<tag k="name" v="Elseburbekken" />
		<tag k="ssr:stedsnr" v="621881" />
		<tag k="waterway" v="stream" />
	</node>
	<node id="-118261" lat="65.0920555515" lon="12.5918472255">
		<tag k="alt_name" v="Langtjørna" />
		<tag k="name" v="Langtjønna" />
		<tag k="natural" v="water" />
		<tag k="ssr:stedsnr" v="500519" />
	</node>
	<node id="-120305" lat="65.0136499962" lon="12.6440027701">
		<tag k="name" v="Grønvikbekken" />
		<tag k="ssr:stedsnr" v="621662" />
		<tag k="waterway" v="stream" />
	</node>
	<node id="-118253" lat="65.1253166681" lon="13.0440861211">
		<tag k="name" v="Sloeptjenjaevrie" />
		<tag k="name:sma" v="Sloeptjenjaevrie" />
		<tag k="natural" v="water" />
		<tag k="ssr:stedsnr" v="499494" />
		<tag k="water" v="lake" />
	</node>
	<node id="-120294" lat="65.0828749966" lon="12.8367555557">
		<tag k="name" v="Oksdalselva" />
		<tag k="ssr:stedsnr" v="621553" />
		<tag k="waterway" v="river" />
	</node>
	<node id="-120293" lat="65.0497083352" lon="12.3573500058">
		<tag k="name" v="Storsteinan" />
		<tag k="ssr:stedsnr" v="621551" />
		<tag k="waterway" v="stream" />
	</node>
	<node id="-120292" lat="65.0488277801" lon="12.6728083244">
		<tag k="name" v="Båtelva" />
		<tag k="ssr:stedsnr" v="621529" />
		<tag k="waterway" v="river" />
	</node>
	<node id="-120291" lat="65.0403166707" lon="12.3379666749">
		<tag k="name" v="Nervatnet" />
		<tag k="natural" v="water" />
		<tag k="ssr:stedsnr" v="621527" />
		<tag k="water" v="lake" />
	</node>
	<node id="-120290" lat="65.0400083294" lon="12.5174666746">
		<tag k="name" v="Gautmoelva" />
		<tag k="ssr:stedsnr" v="621522" />
		<tag k="waterway" v="stream" />
	</node>
	<node id="-120289" lat="65.0408833336" lon="12.4746500009">
		<tag k="name" v="Marfosselva" />
		<tag k="ssr:stedsnr" v="621520" />
		<tag k="waterway" v="river" />
	</node>
	<node id="-120287" lat="65.0730249986" lon="12.4947888882">
		<tag k="name" v="Floet" />
		<tag k="natural" v="water" />
		<tag k="ssr:stedsnr" v="621495" />
		<tag k="water" v="lake" />
	</node>
	<node id="-118238" lat="65.0736055528" lon="12.4456000036">
		<tag k="name" v="Strandahullet" />
		<tag k="natural" v="beach" />
		<tag k="ssr:stedsnr" v="481575" />
	</node>
	<node id="-118236" lat="65.1371277751" lon="12.605855545">
		<tag k="name" v="Tverrbekken" />
		<tag k="ssr:stedsnr" v="481664" />
		<tag k="waterway" v="stream" />
	</node>
	<node id="-120283" lat="65.065744442" lon="12.3545166635">
		<tag k="name" v="Lonan" />
		<tag k="place" v="locality" />
		<tag k="ssr:stedsnr" v="621477" />
	</node>
	<node id="-120273" lat="65.1174416639" lon="12.6458944373">
		<tag k="name" v="Langtjønna" />
		<tag k="natural" v="water" />
		<tag k="ssr:stedsnr" v="621398" />
	</node>
	<node id="-120270" lat="65.1719777821" lon="12.5630694402">
		<tag k="name" v="Doggfallelva" />
		<tag k="ssr:stedsnr" v="621357" />
		<tag k="waterway" v="stream" />
	</node>
	<node id="-120269" lat="65.1510333317" lon="12.2696083384">
		<tag k="name" v="Nonslivatnet" />
		<tag k="natural" v="water" />
		<tag k="ssr:stedsnr" v="621354" />
	</node>
	<node id="-118217" lat="65.2255305593" lon="12.6734083283">
		<tag k="name" v="Mastermotjønna" />
		<tag k="natural" v="water" />
		<tag k="ssr:stedsnr" v="481013" />
	</node>
	<node id="-120263" lat="65.2131666698" lon="12.6521138801">
		<tag k="alt_name" v="Småtjørnan" />
		<tag k="name" v="Småtjønnan" />
		<tag k="natural" v="water" />
		<tag k="ssr:stedsnr" v="621283" />
	</node>
	<node id="-120262" lat="65.2124805569" lon="12.7035999923">
		<tag k="alt_name" v="Finnkjerrtjørna" />
		<tag k="name" v="Finnskjærtjønna" />
		<tag k="natural" v="water" />
		<tag k="ssr:stedsnr" v="621281" />
	</node>
	<node id="-118212" lat="65.0129222177" lon="12.7169027804">
		<tag k="name" v="Åbjørneset" />
		<tag k="natural" v="cape" />
		<tag k="ssr:stedsnr" v="479365" />
	</node>
	<node id="-120259" lat="65.2032749957" lon="12.5002111093">
		<tag k="name" v="Langvatnet" />
		<tag k="natural" v="water" />
		<tag k="ssr:stedsnr" v="621266" />
	</node>
	<node id="-120255" lat="65.2817583366" lon="12.3912777861">
		<tag k="name" v="Nordfjellelva" />
		<tag k="ssr:stedsnr" v="621238" />
		<tag k="waterway" v="stream" />
	</node>
	<node id="-120254" lat="65.2365055555" lon="12.5172388822">
		<tag k="name" v="Urstjønnelva" />
		<tag k="ssr:stedsnr" v="621227" />
		<tag k="waterway" v="stream" />
	</node>
	<node id="-120248" lat="65.0266055568" lon="12.1516611014">
		<tag k="alt_name" v="Litlgrønlandsvatnan, øvre" />
		<tag k="name" v="Øvre Litlgrønlandsvatnan" />
		<tag k="natural" v="water" />
		<tag k="ssr:stedsnr" v="621163" />
	</node>
	<node id="-120239" lat="65.0764611083" lon="12.1767416639">
		<tag k="name" v="Hornvatnet" />
		<tag k="natural" v="water" />
		<tag k="ssr:stedsnr" v="621075" />
	</node>
	<node id="-120238" lat="65.065377781" lon="11.8939666697">
		<tag k="name" v="Bjønnåa" />
		<tag k="ssr:stedsnr" v="621071" />
		<tag k="waterway" v="stream" />
	</node>
	<node id="-120236" lat="65.0853416668" lon="12.1960083309">
		<tag k="alt_name" v="Tosktjørna" />
		<tag k="name" v="Tosktjønna" />
		<tag k="natural" v="water" />
		<tag k="ssr:stedsnr" v="621057" />
	</node>
	<node id="-120233" lat="65.0635527771" lon="12.7685416585">
		<tag k="name" v="Kverntjønna - Goernenjaevrie" />
		<tag k="name:no" v="Kverntjønna" />
		<tag k="name:sma" v="Goernenjaevrie" />
		<tag k="natural" v="water" />
		<tag k="ssr:stedsnr" v="621561" />
		<tag k="water" v="lake" />
	</node>
	<node id="-120232" lat="65.0779611069" lon="12.085274994">
		<tag k="fixme" v="multiple name tags, choose one and add the other to alt_name" />
		<tag k="name" v="Jensenvatnet;Sørtjønna" />
		<tag k="natural" v="water" />
		<tag k="ssr:stedsnr" v="621078" />
	</node>
	<node id="-118178" lat="65.065761107" lon="12.3124972271">
		<tag k="name" v="Djupdalsbekken" />
		<tag k="ssr:stedsnr" v="663440" />
		<tag k="waterway" v="stream" />
	</node>
	<node id="-120224" lat="65.0616055577" lon="12.449222231">
		<tag k="name" v="Liabekken" />
		<tag k="ssr:stedsnr" v="602892" />
		<tag k="waterway" v="stream" />
	</node>
	<node id="-118175" lat="65.0799666655" lon="12.2799694458">
		<tag k="name" v="Dambekken" />
		<tag k="ssr:stedsnr" v="663427" />
		<tag k="waterway" v="stream" />
	</node>
	<node id="-120222" lat="65.0389166691" lon="12.6636583322">
		<tag k="name" v="Vika" />
		<tag k="natural" v="bay" />
		<tag k="ssr:stedsnr" v="602866" />
	</node>
	<node id="-118682" lat="65.0194611095" lon="12.7469666765">
		<tag k="name" v="Hestholmen" />
		<tag k="place" v="islet" />
		<tag k="ssr:stedsnr" v="724384" />
	</node>
	<node id="-120218" lat="65.1329166697" lon="12.0058277809">
		<tag k="name" v="Blessabekken" />
		<tag k="ssr:stedsnr" v="602848" />
		<tag k="waterway" v="stream" />
	</node>
	<node id="-118166" lat="65.1447555542" lon="12.2448277736">
		<tag k="name" v="Lessanden" />
		<tag k="natural" v="beach" />
		<tag k="ssr:stedsnr" v="663531" />
	</node>
	<node id="-118165" lat="65.046394445" lon="12.522477788">
		<tag k="name" v="Åsahøla" />
		<tag k="place" v="locality" />
		<tag k="ssr:stedsnr" v="663500" />
	</node>
	<node id="-119133" lat="65.2508777739" lon="12.5850305537">
		<tag k="name" v="Mjosundet" />
		<tag k="natural" v="strait" />
		<tag k="ssr:stedsnr" v="15714" />
	</node>
	<node id="-118154" lat="65.2552666632" lon="12.6737972312">
		<tag k="name" v="Grasvika" />
		<tag k="natural" v="bay" />
		<tag k="ssr:stedsnr" v="663171" />
	</node>
	<node id="-118153" lat="65.268841671" lon="12.5776694463">
		<tag k="name" v="Dunderlibukta" />
		<tag k="natural" v="bay" />
		<tag k="ssr:stedsnr" v="663342" />
	</node>
	<node id="-120197" lat="65.0881499973" lon="12.2011972167">
		<tag k="name" v="Tverlibekken" />
		<tag k="ssr:stedsnr" v="602636" />
		<tag k="waterway" v="stream" />
	</node>
	<node id="-118147" lat="65.0429250033" lon="12.5849083234">
		<tag k="name" v="Krådalsbekkjen" />
		<tag k="ssr:stedsnr" v="661970" />
		<tag k="waterway" v="stream" />
	</node>
	<node id="-120193" lat="65.1081611152" lon="12.2493861075">
		<tag k="name" v="Middagsbekken" />
		<tag k="ssr:stedsnr" v="602592" />
		<tag k="waterway" v="stream" />
	</node>
	<node id="-120192" lat="65.0660527805" lon="12.4646277778">
		<tag k="name" v="Eirikstrand" />
		<tag k="natural" v="beach" />
		<tag k="ssr:stedsnr" v="602574" />
	</node>
	<node id="-118143" lat="65.0597055553" lon="12.4831861006">
		<tag k="name" v="Grøttneset" />
		<tag k="natural" v="cape" />
		<tag k="ssr:stedsnr" v="661503" />
	</node>
	<node id="-120189" lat="65.1366111156" lon="12.2273999923">
		<tag k="name" v="Dalabekken" />
		<tag k="ssr:stedsnr" v="602535" />
		<tag k="waterway" v="stream" />
	</node>
	<node id="-118140" lat="65.1035666706" lon="12.6061222323">
		<tag k="name" v="Tjønnbotn" />
		<tag k="ssr:stedsnr" v="661207" />
		<tag k="waterway" v="stream" />
	</node>
	<node id="-120187" lat="65.044177774" lon="12.5357444417">
		<tag k="name" v="Smihøla" />
		<tag k="place" v="locality" />
		<tag k="ssr:stedsnr" v="602529" />
	</node>
	<node id="-120185" lat="65.0213805569" lon="12.0847416677">
		<tag k="name" v="Langmyrbekken" />
		<tag k="ssr:stedsnr" v="602512" />
		<tag k="waterway" v="stream" />
	</node>
	<node id="-120184" lat="65.1252500017" lon="11.9691361121">
		<tag k="name" v="Blessabekken" />
		<tag k="ssr:stedsnr" v="602506" />
		<tag k="waterway" v="stream" />
	</node>
	<node id="-118676" lat="65.0278722214" lon="12.3781305531">
		<tag k="name" v="Austerengdalselva" />
		<tag k="ssr:stedsnr" v="724355" />
		<tag k="waterway" v="stream" />
	</node>
	<node id="-120168" lat="65.0228555592" lon="12.762288891">
		<tag k="name" v="Fossenglonet" />
		<tag k="natural" v="bay" />
		<tag k="ssr:stedsnr" v="602422" />
	</node>
	<node id="-118118" lat="64.9989000027" lon="12.2505138853">
		<tag k="name" v="Dorgtjønna" />
		<tag k="natural" v="water" />
		<tag k="ssr:stedsnr" v="439886" />
	</node>
	<node id="-118115" lat="65.079527777" lon="12.0634861046">
		<tag k="name" v="Kjeldosen" />
		<tag k="natural" v="bay" />
		<tag k="ssr:stedsnr" v="439058" />
	</node>
	<node id="-120162" lat="65.2726750013" lon="12.4163888886">
		<tag k="name" v="Vasskrokodden" />
		<tag k="natural" v="cape" />
		<tag k="ssr:stedsnr" v="602191" />
	</node>
	<node id="-118113" lat="65.069944442" lon="12.2433416677">
		<tag k="name" v="Mellomelva" />
		<tag k="ssr:stedsnr" v="421606" />
		<tag k="waterway" v="stream" />
	</node>
	<node id="-120159" lat="65.1602583342" lon="12.6971055601">
		<tag k="name" v="Jokråbekken" />
		<tag k="ssr:stedsnr" v="602037" />
		<tag k="waterway" v="stream" />
	</node>
	<node id="-120158" lat="65.1383722177" lon="12.6844972298">
		<tag k="name" v="Sør Skavvasselva" />
		<tag k="ssr:stedsnr" v="602032" />
		<tag k="waterway" v="stream" />
	</node>
	<node id="-118106" lat="65.2138972228" lon="12.6704861193">
		<tag k="name" v="Bjørnstakkbekken" />
		<tag k="ssr:stedsnr" v="421022" />
		<tag k="waterway" v="stream" />
	</node>
	<node id="-120151" lat="65.0773833316" lon="12.4924750036">
		<tag k="name" v="Eitervikodden" />
		<tag k="natural" v="cape" />
		<tag k="ssr:stedsnr" v="600693" />
	</node>
	<node id="-120150" lat="65.0758305581" lon="12.5032111108">
		<tag k="name" v="Floskjæret" />
		<tag k="place" v="islet" />
		<tag k="ssr:stedsnr" v="600690" />
	</node>
	<node id="-120147" lat="65.0609166689" lon="12.4723361179">
		<tag k="name" v="Sjystranda" />
		<tag k="natural" v="beach" />
		<tag k="ssr:stedsnr" v="600480" />
	</node>
	<node id="-118088" lat="65.2185361103" lon="12.8489833314">
		<tag k="name" v="Kvitdalselva" />
		<tag k="ssr:stedsnr" v="418441" />
		<tag k="waterway" v="river" />
	</node>
	<node id="-118087" lat="65.2507472257" lon="12.5930749943">
		<tag k="name" v="Sørmarkodden" />
		<tag k="natural" v="cape" />
		<tag k="ssr:stedsnr" v="418330" />
	</node>
	<node id="-118074" lat="65.1313888885" lon="12.3616805495">
		<tag k="name" v="Øresdalbekken" />
		<tag k="ssr:stedsnr" v="299076" />
		<tag k="waterway" v="stream" />
	</node>
	<node id="-120121" lat="65.1792111088" lon="12.1425750029">
		<tag k="alt_name" v="Steinbrubekken" />
		<tag k="name" v="Steinlibekken" />
		<tag k="ssr:stedsnr" v="560921" />
		<tag k="waterway" v="stream" />
	</node>
	<node id="-120120" lat="65.1738166646" lon="12.1905611088">
		<tag k="name" v="Tverrelva" />
		<tag k="ssr:stedsnr" v="560916" />
		<tag k="waterway" v="stream" />
	</node>
	<node id="-118069" lat="65.1366027823" lon="12.679141663">
		<tag k="name" v="Øvre Trollskarvatn" />
		<tag k="natural" v="water" />
		<tag k="ssr:stedsnr" v="299031" />
	</node>
	<node id="-120116" lat="65.1387166664" lon="11.9406333255">
		<tag k="alt_name" v="Sørdalselva" />
		<tag k="name" v="Sørelva" />
		<tag k="ssr:stedsnr" v="560886" />
		<tag k="waterway" v="stream" />
	</node>
	<node id="-120114" lat="65.142099999" lon="11.9795444492">
		<tag k="name" v="Fjellvatnet" />
		<tag k="natural" v="water" />
		<tag k="ssr:stedsnr" v="560993" />
	</node>
	<node id="-120112" lat="65.1313000012" lon="12.1204777812">
		<tag k="name" v="Løvikelva" />
		<tag k="ssr:stedsnr" v="560979" />
		<tag k="waterway" v="stream" />
	</node>
	<node id="-120111" lat="65.1278555602" lon="11.9858583286">
		<tag k="name" v="Vadelva" />
		<tag k="ssr:stedsnr" v="560975" />
		<tag k="waterway" v="stream" />
	</node>
	<node id="-120108" lat="65.2060694422" lon="13.021194439">
		<tag k="name" v="Groenesbaahkoenjaevrie" />
		<tag k="name:sma" v="Groenesbaahkoenjaevrie" />
		<tag k="natural" v="water" />
		<tag k="ssr:stedsnr" v="560540" />
		<tag k="water" v="lake" />
	</node>
	<node id="-120107" lat="65.0601472228" lon="12.2832805547">
		<tag k="alt_name" v="Masterbekken" />
		<tag k="name" v="Masterelva" />
		<tag k="ssr:stedsnr" v="560497" />
		<tag k="waterway" v="stream" />
	</node>
	<node id="-120103" lat="65.1168638888" lon="12.9639749949">
		<tag k="name" v="Kalvelva - Stijkenjeanoe" />
		<tag k="name:no" v="Kalvelva" />
		<tag k="name:sma" v="Stijkenjeanoe" />
		<tag k="ssr:stedsnr" v="560568" />
		<tag k="waterway" v="river" />
	</node>
	<node id="-118054" lat="65.0029499999" lon="12.2870333286">
		<tag k="name" v="Svartvatnet" />
		<tag k="natural" v="water" />
		<tag k="ssr:stedsnr" v="500680" />
		<tag k="water" v="lake" />
	</node>
	<node id="-118052" lat="65.1593027795" lon="13.0335444483">
		<tag k="name" v="Brennelvflya" />
		<tag k="natural" v="water" />
		<tag k="ssr:stedsnr" v="500618" />
	</node>
	<node id="-118049" lat="65.0155833358" lon="12.7531138817">
		<tag k="name" v="Lissåneset" />
		<tag k="natural" v="cape" />
		<tag k="ssr:stedsnr" v="500606" />
	</node>
	<node id="-118048" lat="65.0245694486" lon="12.7680861215">
		<tag k="name" v="Åbjøra" />
		<tag k="ssr:stedsnr" v="500601" />
		<tag k="waterway" v="river" />
	</node>
	<node id="-120093" lat="65.2204416675" lon="12.4469944348">
		<tag k="name" v="Nervatnet" />
		<tag k="natural" v="water" />
		<tag k="ssr:stedsnr" v="560235" />
	</node>
	<node id="-120090" lat="65.1167277789" lon="12.6252500088">
		<tag k="name" v="Glømelva" />
		<tag k="ssr:stedsnr" v="560385" />
		<tag k="waterway" v="river" />
	</node>
	<node id="-120088" lat="65.0288083326" lon="12.0686888822">
		<tag k="alt_name" v="Lessvatn" />
		<tag k="name" v="Litlvatnet" />
		<tag k="natural" v="water" />
		<tag k="ssr:stedsnr" v="560134" />
	</node>
	<node id="-120087" lat="65.0531166678" lon="12.098925001">
		<tag k="alt_name" v="Lessvatnet" />
		<tag k="name" v="Litlvatnet" />
		<tag k="natural" v="water" />
		<tag k="ssr:stedsnr" v="560099" />
	</node>
	<node id="-118038" lat="65.1506750042" lon="12.3854249958">
		<tag k="alt_name" v="Kjerringpissbekken" />
		<tag k="name" v="Kjerringpissa" />
		<tag k="ssr:stedsnr" v="500407" />
		<tag k="waterway" v="stream" />
	</node>
	<node id="-118036" lat="65.1382194422" lon="12.23253611">
		<tag k="name" v="Bøkestadelva" />
		<tag k="ssr:stedsnr" v="500400" />
		<tag k="waterway" v="stream" />
	</node>
	<node id="-120083" lat="65.2448277807" lon="12.4934138963">
		<tag k="name" v="Eidvatnet" />
		<tag k="natural" v="water" />
		<tag k="ssr:stedsnr" v="560200" />
		<tag k="water" v="lake" />
	</node>
	<node id="-120077" lat="65.0982277746" lon="12.0916499893">
		<tag k="name" v="Aunelva" />
		<tag k="ssr:stedsnr" v="560050" />
		<tag k="waterway" v="stream" />
	</node>
	<node id="-120071" lat="65.0045805561" lon="12.2097305542">
		<tag k="name" v="Brursløret" />
		<tag k="natural" v="waterfall" />
		<tag k="ssr:stedsnr" v="542949" />
	</node>
	<node id="-120070" lat="64.9757833292" lon="12.2145888867">
		<tag k="name" v="Holmvatnet" />
		<tag k="natural" v="water" />
		<tag k="ssr:stedsnr" v="542947" />
	</node>
	<node id="-120069" lat="65.0379888919" lon="12.463172214">
		<tag k="name" v="Alslibekken" />
		<tag k="ssr:stedsnr" v="542916" />
		<tag k="waterway" v="stream" />
	</node>
	<node id="-120068" lat="65.0320527766" lon="12.4670972241">
		<tag k="name" v="Lessneset" />
		<tag k="natural" v="cape" />
		<tag k="ssr:stedsnr" v="542906" />
	</node>
	<node id="-120067" lat="65.0651944446" lon="12.223625004">
		<tag k="name" v="Rapbekken" />
		<tag k="ssr:stedsnr" v="542901" />
		<tag k="waterway" v="stream" />
	</node>
	<node id="-118017" lat="65.2376222258" lon="12.6602277839">
		<tag k="name" v="Sørengvatnet" />
		<tag k="natural" v="water" />
		<tag k="ssr:stedsnr" v="500251" />
	</node>
	<node id="-120063" lat="65.0264472197" lon="12.4602333364">
		<tag k="name" v="Sjåengbekken" />
		<tag k="ssr:stedsnr" v="542879" />
		<tag k="waterway" v="stream" />
	</node>
	<node id="-118014" lat="65.0040805536" lon="12.2178222167">
		<tag k="name" v="Storåa" />
		<tag k="ssr:stedsnr" v="500213" />
		<tag k="waterway" v="stream" />
	</node>
	<node id="-118011" lat="65.2891805513" lon="12.5697277787">
		<tag k="name" v="Sørstrauman" />
		<tag k="natural" v="water" />
		<tag k="ssr:stedsnr" v="500256" />
		<tag k="water" v="lake" />
	</node>
	<node id="-120055" lat="65.2504861128" lon="12.6380972306">
		<tag k="name" v="Tømmerhavna" />
		<tag k="natural" v="bay" />
		<tag k="ssr:stedsnr" v="542720" />
	</node>
	<node id="-118005" lat="65.2684361136" lon="12.5234361157">
		<tag k="alt_name" v="Lessengelva" />
		<tag k="name" v="Lislengelva" />
		<tag k="ssr:stedsnr" v="500173" />
		<tag k="waterway" v="stream" />
	</node>
	<node id="-120052" lat="65.0578916694" lon="12.5013777856">
		<tag k="name" v="Øvja" />
		<tag k="ssr:stedsnr" v="542504" />
		<tag k="waterway" v="river" />
	</node>
	<node id="-118003" lat="65.2676194417" lon="12.40932223">
		<tag k="name" v="Helvikvatnet" />
		<tag k="natural" v="water" />
		<tag k="ssr:stedsnr" v="500156" />
	</node>
	<node id="-118002" lat="65.0389361099" lon="12.0631805562">
		<tag k="alt_name" v="Bruntjørna" />
		<tag k="name" v="Brontjønna" />
		<tag k="natural" v="water" />
		<tag k="ssr:stedsnr" v="500155" />
	</node>
	<node id="-120042" lat="65.1401055557" lon="12.644058331">
		<tag k="name" v="Svarttjønna" />
		<tag k="natural" v="water" />
		<tag k="ssr:stedsnr" v="542656" />
	</node>
	<node id="-117992" lat="65.0988611113" lon="12.8242888959">
		<tag k="name" v="Oksdalsvatnet - Oksdaelienjaevrie" />
		<tag k="name:no" v="Oksdalsvatnet" />
		<tag k="name:sma" v="Oksdaelienjaevrie" />
		<tag k="natural" v="water" />
		<tag k="ssr:stedsnr" v="499500" />
	</node>
	<node id="-120036" lat="65.1947722228" lon="12.7266611068">
		<tag k="name" v="Ripnovbekken" />
		<tag k="ssr:stedsnr" v="542024" />
		<tag k="waterway" v="stream" />
	</node>
	<node id="-117987" lat="65.1030305582" lon="12.306091668">
		<tag k="name" v="Midtelva" />
		<tag k="ssr:stedsnr" v="499323" />
		<tag k="waterway" v="stream" />
	</node>
	<node id="-120033" lat="65.0600722222" lon="12.3212555601">
		<tag k="name" v="Kvennelva" />
		<tag k="ssr:stedsnr" v="542283" />
		<tag k="waterway" v="stream" />
	</node>
	<node id="-117983" lat="65.0836138885" lon="12.011480554">
		<tag k="name" v="Steinbekken" />
		<tag k="ssr:stedsnr" v="360861" />
		<tag k="waterway" v="stream" />
	</node>
	<node id="-117979" lat="65.0957611144" lon="11.9939694436">
		<tag k="name" v="Meieribekken" />
		<tag k="ssr:stedsnr" v="360813" />
		<tag k="waterway" v="stream" />
	</node>
	<node id="-117977" lat="65.1193805557" lon="12.174891664">
		<tag k="name" v="Åslibekken" />
		<tag k="ssr:stedsnr" v="360602" />
		<tag k="waterway" v="stream" />
	</node>
	<node id="-117973" lat="65.0518500034" lon="12.4873527801">
		<tag k="name" v="Sagosen" />
		<tag k="natural" v="bay" />
		<tag k="ssr:stedsnr" v="360566" />
	</node>
	<node id="-117972" lat="65.1120666694" lon="12.2270388841">
		<tag k="name" v="Grobekken" />
		<tag k="ssr:stedsnr" v="360558" />
		<tag k="waterway" v="stream" />
	</node>
	<node id="-120015" lat="65.2544833336" lon="12.5236361118">
		<tag k="name" v="Øvereidelva" />
		<tag k="ssr:stedsnr" v="541202" />
		<tag k="waterway" v="river" />
	</node>
	<node id="-120013" lat="65.2699027746" lon="12.3995972129">
		<tag k="name" v="Fiskhusbekken" />
		<tag k="ssr:stedsnr" v="541191" />
		<tag k="waterway" v="stream" />
	</node>
	<node id="-117964" lat="65.0363833317" lon="12.6580222186">
		<tag k="name" v="Storvika" />
		<tag k="natural" v="bay" />
		<tag k="ssr:stedsnr" v="359873" />
	</node>
	<node id="-120011" lat="65.0344472247" lon="12.5956166654">
		<tag k="name" v="Nedre Trofoss" />
		<tag k="natural" v="waterfall" />
		<tag k="ssr:stedsnr" v="540847" />
	</node>
	<node id="-120007" lat="65.2779722205" lon="12.5714055619">
		<tag k="name" v="Lessundet" />
		<tag k="natural" v="strait" />
		<tag k="ssr:stedsnr" v="540331" />
	</node>
	<node id="-117949" lat="65.1081444401" lon="12.2023666712">
		<tag k="name" v="Strupen" />
		<tag k="place" v="locality" />
		<tag k="ssr:stedsnr" v="358605" />
	</node>
	<node id="-117948" lat="65.0150444435" lon="12.7132361111">
		<tag k="name" v="Naustvika" />
		<tag k="natural" v="bay" />
		<tag k="ssr:stedsnr" v="358361" />
	</node>
	<node id="-119992" lat="65.2500388915" lon="12.5814666672">
		<tag k="name" v="Vintereidet" />
		<tag k="natural" v="strait" />
		<tag k="ssr:stedsnr" v="539304" />
	</node>
	<node id="-119990" lat="65.2005055516" lon="12.7763777724">
		<tag k="name" v="Vasskroken" />
		<tag k="natural" v="bay" />
		<tag k="ssr:stedsnr" v="539395" />
	</node>
	<node id="-117939" lat="65.0292444459" lon="12.5092611123">
		<tag k="name" v="Dammen" />
		<tag k="ssr:stedsnr" v="481940" />
		<tag k="waterway" v="dam" />
	</node>
	<node id="-118301" lat="65.2349888847" lon="12.6544027702">
		<tag k="name" v="Storelva" />
		<tag k="ssr:stedsnr" v="682252" />
		<tag k="waterway" v="stream" />
	</node>
	<node id="-119980" lat="65.1927111115" lon="12.2513888873">
		<tag k="name" v="Fiskerosen" />
		<tag k="natural" v="bay" />
		<tag k="ssr:stedsnr" v="439263" />
	</node>
	<node id="-119967" lat="65.0754333332" lon="11.9994361162">
		<tag k="alt_name" v="Forrvatnet" />
		<tag k="name" v="Furuvatnet" />
		<tag k="natural" v="water" />
		<tag k="ssr:stedsnr" v="439037" />
	</node>
	<node id="-117918" lat="65.0216222185" lon="12.0662305625">
		<tag k="name" v="Storstibekken" />
		<tag k="ssr:stedsnr" v="481522" />
		<tag k="waterway" v="stream" />
	</node>
	<node id="-119965" lat="65.2481027817" lon="12.6208333352">
		<tag k="name" v="Storvatnet" />
		<tag k="natural" v="water" />
		<tag k="ssr:stedsnr" v="439177" />
		<tag k="water" v="lake" />
	</node>
	<node id="-119964" lat="65.0843527767" lon="12.5560611135">
		<tag k="name" v="Brennbekken" />
		<tag k="ssr:stedsnr" v="421981" />
		<tag k="waterway" v="stream" />
	</node>
	<node id="-117911" lat="65.0210388874" lon="12.751988889">
		<tag k="name" v="Gardsfossen" />
		<tag k="natural" v="waterfall" />
		<tag k="ssr:stedsnr" v="481431" />
	</node>
	<node id="-119958" lat="65.0526305528" lon="12.4195527715">
		<tag k="name" v="Snøgrova" />
		<tag k="ssr:stedsnr" v="421903" />
		<tag k="waterway" v="stream" />
	</node>
	<node id="-117909" lat="65.0040694456" lon="12.3930444367">
		<tag k="name" v="Terråktjønnan" />
		<tag k="natural" v="water" />
		<tag k="ssr:stedsnr" v="481394" />
		<tag k="water" v="lake" />
	</node>
	<node id="-119955" lat="65.0254777741" lon="12.4635277857">
		<tag k="name" v="Sørneset" />
		<tag k="natural" v="cape" />
		<tag k="ssr:stedsnr" v="421884" />
	</node>
	<node id="-117906" lat="65.0797111096" lon="12.3660500002">
		<tag k="name" v="Kvernhusfossen" />
		<tag k="natural" v="waterfall" />
		<tag k="ssr:stedsnr" v="481307" />
	</node>
	<node id="-117905" lat="65.2599166645" lon="12.557291665">
		<tag k="name" v="Ospvika" />
		<tag k="natural" v="bay" />
		<tag k="ssr:stedsnr" v="481378" />
	</node>
	<node id="-117903" lat="65.2528777753" lon="12.4281194541">
		<tag k="name" v="Sjettøva" />
		<tag k="natural" v="water" />
		<tag k="ssr:stedsnr" v="481241" />
	</node>
	<node id="-119948" lat="65.0704444435" lon="12.4949166619">
		<tag k="name" v="Hestvikodden" />
		<tag k="natural" v="cape" />
		<tag k="ssr:stedsnr" v="421729" />
	</node>
	<node id="-119942" lat="65.060788892" lon="12.5299416568">
		<tag k="name" v="Mjolkvika" />
		<tag k="natural" v="bay" />
		<tag k="ssr:stedsnr" v="421551" />
	</node>
	<node id="-119941" lat="65.1839138888" lon="12.1421166714">
		<tag k="name" v="Sørelva" />
		<tag k="ssr:stedsnr" v="421675" />
		<tag k="waterway" v="stream" />
	</node>
	<node id="-117886" lat="65.0307277767" lon="12.03970833">
		<tag k="name" v="Gråmarkodden" />
		<tag k="natural" v="cape" />
		<tag k="ssr:stedsnr" v="479016" />
	</node>
	<node id="-118293" lat="65.2770805549" lon="12.3704694548">
		<tag k="name" v="Peraksellitjønna" />
		<tag k="natural" v="water" />
		<tag k="ssr:stedsnr" v="682259" />
	</node>
	<node id="-117610" lat="65.258194444" lon="12.6329972228">
		<tag k="name" v="Harkøya" />
		<tag k="place" v="islet" />
		<tag k="ssr:stedsnr" v="136211" />
	</node>
	<node id="-117880" lat="65.2823500014" lon="12.4668222151">
		<tag k="name" v="Grønnlitjønnan" />
		<tag k="natural" v="water" />
		<tag k="ssr:stedsnr" v="318216" />
	</node>
	<node id="-117879" lat="65.2310111098" lon="12.703616666">
		<tag k="alt_name" v="Dyrbenktjørna" />
		<tag k="name" v="Dyrbenktjønna" />
		<tag k="natural" v="water" />
		<tag k="ssr:stedsnr" v="318215" />
	</node>
	<node id="-117876" lat="65.0317277809" lon="12.4847666614">
		<tag k="name" v="Lissåa" />
		<tag k="ssr:stedsnr" v="317560" />
		<tag k="waterway" v="stream" />
	</node>
	<node id="-119917" lat="65.142013888" lon="12.2400055617">
		<tag k="name" v="Hagbartodden" />
		<tag k="natural" v="cape" />
		<tag k="ssr:stedsnr" v="420584" />
	</node>
	<node id="-119916" lat="65.1465916709" lon="12.2417777723">
		<tag k="name" v="Bubekken" />
		<tag k="ssr:stedsnr" v="420582" />
		<tag k="waterway" v="stream" />
	</node>
	<node id="-117861" lat="65.1596611088" lon="12.1871027853">
		<tag k="name" v="Tjønnan" />
		<tag k="natural" v="water" />
		<tag k="ssr:stedsnr" v="299770" />
	</node>
	<node id="-119897" lat="65.0796499987" lon="12.0811083276">
		<tag k="name" v="Tjønnhalsen" />
		<tag k="natural" v="strait" />
		<tag k="ssr:stedsnr" v="419842" />
	</node>
	<node id="-118628" lat="65.2476444426" lon="12.6574361091">
		<tag k="name" v="Sagpøla" />
		<tag k="place" v="locality" />
		<tag k="ssr:stedsnr" v="299733" />
	</node>
	<node id="-119883" lat="65.0813944404" lon="12.4814361032">
		<tag k="name" v="Heimenhestvik" />
		<tag k="natural" v="bay" />
		<tag k="ssr:stedsnr" v="418682" />
	</node>
	<node id="-117831" lat="64.9948499977" lon="12.2308999994">
		<tag k="alt_name" v="Geitafossvatnet" />
		<tag k="name" v="Geitvatnet" />
		<tag k="natural" v="water" />
		<tag k="ssr:stedsnr" v="257903" />
	</node>
	<node id="-117829" lat="65.0059250019" lon="12.3864361082">
		<tag k="name" v="Marfosstjønnan" />
		<tag k="natural" v="water" />
		<tag k="ssr:stedsnr" v="257668" />
	</node>
	<node id="-117827" lat="65.0043361091" lon="12.6962222247">
		<tag k="alt_name" v="Nonselva, øvre" />
		<tag k="name" v="Øvre Nonselva" />
		<tag k="ssr:stedsnr" v="257617" />
		<tag k="waterway" v="stream" />
	</node>
	<node id="-119872" lat="65.1667444405" lon="12.8848583425">
		<tag k="name" v="Grytendalsvatnan - Grovhtemehkienjaevrieh" />
		<tag k="name:no" v="Grytendalsvatnan" />
		<tag k="name:sma" v="Grovhtemehkienjaevrieh" />
		<tag k="natural" v="water" />
		<tag k="ssr:stedsnr" v="379518" />
		<tag k="water" v="lake" />
	</node>
	<node id="-117821" lat="65.0542805538" lon="12.5577749959">
		<tag k="name" v="Kapplandselva" />
		<tag k="ssr:stedsnr" v="257502" />
		<tag k="waterway" v="stream" />
	</node>
	<node id="-119868" lat="65.0607583353" lon="12.5603083435">
		<tag k="alt_name" v="Svarttjørna" />
		<tag k="name" v="Svarttjønna" />
		<tag k="natural" v="water" />
		<tag k="ssr:stedsnr" v="379431" />
	</node>
	<node id="-119866" lat="65.1207777786" lon="12.710375001">
		<tag k="name" v="Øvervatnet" />
		<tag k="natural" v="water" />
		<tag k="ssr:stedsnr" v="379388" />
	</node>
	<node id="-117817" lat="65.2540027797" lon="12.523419451">
		<tag k="name" v="Øvereidet" />
		<tag k="natural" v="strait" />
		<tag k="ssr:stedsnr" v="257168" />
	</node>
	<node id="-119863" lat="65.1390750028" lon="12.6586749972">
		<tag k="name" v="Øverengtjønna" />
		<tag k="natural" v="water" />
		<tag k="ssr:stedsnr" v="379365" />
	</node>
	<node id="-117812" lat="65.0358361077" lon="12.1346861103">
		<tag k="alt_name" v="Grønlandselva, l" />
		<tag k="name" v="Litle Grønlandselva" />
		<tag k="ssr:stedsnr" v="257153" />
		<tag k="waterway" v="stream" />
	</node>
	<node id="-119858" lat="65.1480555528" lon="12.3914472267">
		<tag k="name" v="Seteråa" />
		<tag k="ssr:stedsnr" v="379322" />
		<tag k="waterway" v="stream" />
	</node>
	<node id="-119855" lat="65.1563111096" lon="12.2692750048">
		<tag k="name" v="Nonslibekken" />
		<tag k="ssr:stedsnr" v="379285" />
		<tag k="waterway" v="stream" />
	</node>
	<node id="-117802" lat="65.2763249978" lon="12.532191666">
		<tag k="name" v="Lalielva" />
		<tag k="ssr:stedsnr" v="257263" />
		<tag k="waterway" v="stream" />
	</node>
	<node id="-117799" lat="65.0080916635" lon="12.1662305606">
		<tag k="name" v="Storvikelva" />
		<tag k="ssr:stedsnr" v="257206" />
		<tag k="waterway" v="stream" />
	</node>
	<node id="-117787" lat="65.1871833323" lon="12.7303666629">
		<tag k="name" v="Skråvådalselva" />
		<tag k="ssr:stedsnr" v="440580" />
		<tag k="waterway" v="stream" />
	</node>
	<node id="-117785" lat="65.169919443" lon="12.9759055553">
		<tag k="name" v="Kvannelva - Faatnoejohke" />
		<tag k="name:no" v="Kvannelva" />
		<tag k="name:sma" v="Faatnoejohke" />
		<tag k="ssr:stedsnr" v="440539" />
		<tag k="waterway" v="stream" />
	</node>
	<node id="-119831" lat="65.1813638877" lon="12.2289666649">
		<tag k="name" v="Fiskeroselva" />
		<tag k="ssr:stedsnr" v="378896" />
		<tag k="waterway" v="stream" />
	</node>
	<node id="-119828" lat="64.9779555559" lon="12.3011805566">
		<tag k="alt_name" v="Lomtjørna" />
		<tag k="name" v="Lomtjønna" />
		<tag k="natural" v="water" />
		<tag k="ssr:stedsnr" v="378858" />
	</node>
	<node id="-119826" lat="65.0267916624" lon="12.748275003">
		<tag k="name" v="Kvernelva" />
		<tag k="ssr:stedsnr" v="378774" />
		<tag k="waterway" v="river" />
	</node>
	<node id="-117777" lat="65.1466194456" lon="12.6794916749">
		<tag k="alt_name" v="Liatjørna" />
		<tag k="name" v="Liatjønna" />
		<tag k="natural" v="water" />
		<tag k="ssr:stedsnr" v="440351" />
	</node>
	<node id="-119824" lat="65.0128749997" lon="12.6992166601">
		<tag k="name" v="Vassholmen" />
		<tag k="place" v="islet" />
		<tag k="ssr:stedsnr" v="378651" />
	</node>
	<node id="-119823" lat="65.0172944486" lon="12.5026805618">
		<tag k="fixme" v="multiple name tags, choose one and add the other to alt_name" />
		<tag k="name" v="Sætertjønna;Moatjønna" />
		<tag k="natural" v="water" />
		<tag k="ssr:stedsnr" v="378642" />
	</node>
	<node id="-117774" lat="65.0256000006" lon="12.0411277749">
		<tag k="name" v="Storvåvatnet" />
		<tag k="natural" v="water" />
		<tag k="ssr:stedsnr" v="440191" />
		<tag k="water" v="lake" />
	</node>
	<node id="-117933" lat="65.0210288852" lon="12.6178322495">
		<tag k="name" v="Skoterkovret" />
		<tag k="natural" v="water" />
		<tag k="ssr:stedsnr" v="481877" />
	</node>
	<node id="-119819" lat="65.1072611085" lon="12.9081666704">
		<tag k="name" v="Ringfossen - Ringkenfuersie" />
		<tag k="name:no" v="Ringfossen" />
		<tag k="name:sma" v="Ringkenfuersie" />
		<tag k="natural" v="waterfall" />
		<tag k="ssr:stedsnr" v="378592" />
	</node>
	<node id="-117770" lat="65.0976694455" lon="12.1373888906">
		<tag k="name" v="Tjønnan" />
		<tag k="natural" v="water" />
		<tag k="ssr:stedsnr" v="440082" />
	</node>
	<node id="-119817" lat="65.0070500005" lon="12.7243444362">
		<tag k="name" v="Nesholmen" />
		<tag k="place" v="islet" />
		<tag k="ssr:stedsnr" v="378561" />
	</node>
	<node id="-119816" lat="65.0126583303" lon="12.7675333239">
		<tag k="name" v="Lissåa" />
		<tag k="ssr:stedsnr" v="378552" />
		<tag k="waterway" v="stream" />
	</node>
	<node id="-119815" lat="65.0275249983" lon="12.7928666738">
		<tag k="name" v="Survikbekken" />
		<tag k="ssr:stedsnr" v="378543" />
		<tag k="waterway" v="stream" />
	</node>
	<node id="-119812" lat="65.0448555578" lon="12.5733888865">
		<tag k="name" v="Blindåa" />
		<tag k="ssr:stedsnr" v="378508" />
		<tag k="waterway" v="river" />
	</node>
	<node id="-119811" lat="65.0339361088" lon="12.4375250087">
		<tag k="name" v="Djupbekken" />
		<tag k="ssr:stedsnr" v="378505" />
		<tag k="waterway" v="stream" />
	</node>
	<node id="-117761" lat="65.0747277795" lon="12.5743027871">
		<tag k="name" v="Tverråa" />
		<tag k="ssr:stedsnr" v="439762" />
		<tag k="waterway" v="river" />
	</node>
	<node id="-117759" lat="64.9858805583" lon="12.2083027733">
		<tag k="name" v="Kollelva" />
		<tag k="ssr:stedsnr" v="439663" />
		<tag k="waterway" v="stream" />
	</node>
	<node id="-117589" lat="65.0039249964" lon="12.2228805648">
		<tag k="name" v="Trollskardvatnet" />
		<tag k="natural" v="water" />
		<tag k="ssr:stedsnr" v="117932" />
	</node>
	<node id="-117756" lat="65.007952779" lon="12.668977777">
		<tag k="alt_name" v="Nonselva, yt;Ytter-Nonselva" />
		<tag k="name" v="Ytre Nonselva" />
		<tag k="ssr:stedsnr" v="439551" />
		<tag k="waterway" v="stream" />
	</node>
	<node id="-119800" lat="65.115824999" lon="12.649436101">
		<tag k="name" v="Kverntjønnan" />
		<tag k="natural" v="water" />
		<tag k="ssr:stedsnr" v="378399" />
	</node>
	<node id="-117751" lat="65.0874083321" lon="13.0204861179">
		<tag k="name" v="Nilsinetjørnin - Gaelpientjonneh" />
		<tag k="name:no" v="Nilsinetjørnin" />
		<tag k="name:sma" v="Gaelpientjonneh" />
		<tag k="natural" v="water" />
		<tag k="ssr:stedsnr" v="439482" />
	</node>
	<node id="-119793" lat="65.2056861133" lon="12.504616659">
		<tag k="name" v="Sagelva" />
		<tag k="ssr:stedsnr" v="378259" />
		<tag k="waterway" v="stream" />
	</node>
	<node id="-119791" lat="65.188069447" lon="12.4315750098">
		<tag k="name" v="Leirosen" />
		<tag k="natural" v="bay" />
		<tag k="ssr:stedsnr" v="378254" />
	</node>
	<node id="-117740" lat="65.1143250004" lon="12.6699138815">
		<tag k="name" v="Millavatnet" />
		<tag k="natural" v="water" />
		<tag k="ssr:stedsnr" v="439359" />
	</node>
	<node id="-119786" lat="65.2708972248" lon="12.5807611186">
		<tag k="name" v="Godvatnet" />
		<tag k="natural" v="water" />
		<tag k="ssr:stedsnr" v="378226" />
		<tag k="water" v="lake" />
	</node>
	<node id="-117736" lat="65.0500055592" lon="12.5819555563">
		<tag k="name" v="Øvre Sevasstjønna" />
		<tag k="natural" v="water" />
		<tag k="ssr:stedsnr" v="297958" />
	</node>
	<node id="-119777" lat="65.0994694443" lon="12.0652500068">
		<tag k="name" v="Gårdseteelva" />
		<tag k="ssr:stedsnr" v="378014" />
		<tag k="waterway" v="stream" />
	</node>
	<node id="-117726" lat="65.0879972241" lon="12.487569442">
		<tag k="name" v="Grovabekken" />
		<tag k="ssr:stedsnr" v="297697" />
		<tag k="waterway" v="stream" />
	</node>
	<node id="-118039" lat="65.1580166692" lon="12.4219861167">
		<tag k="fixme" v="multiple name tags, choose one and add the other to alt_name" />
		<tag k="name" v="Kromvatnet;Sætervatnet" />
		<tag k="natural" v="water" />
		<tag k="ssr:stedsnr" v="500409" />
	</node>
	<node id="-117721" lat="64.9970666679" lon="12.3181611007">
		<tag k="name" v="Sørengtjønna" />
		<tag k="natural" v="water" />
		<tag k="ssr:stedsnr" v="297347" />
	</node>
	<node id="-119767" lat="65.0667138919" lon="12.4640138885">
		<tag k="name" v="Rossdalodden" />
		<tag k="natural" v="cape" />
		<tag k="ssr:stedsnr" v="360537" />
	</node>
	<node id="-119765" lat="65.0605611132" lon="12.5214916753">
		<tag k="name" v="Bjørbekkjen" />
		<tag k="ssr:stedsnr" v="360525" />
		<tag k="waterway" v="stream" />
	</node>
	<node id="-119764" lat="65.0710138877" lon="12.4580472294">
		<tag k="name" v="Kalåa" />
		<tag k="place" v="locality" />
		<tag k="ssr:stedsnr" v="360524" />
	</node>
	<node id="-117714" lat="65.1563722239" lon="12.2815250061">
		<tag k="name" v="Treskotjønnan" />
		<tag k="natural" v="water" />
		<tag k="ssr:stedsnr" v="297116" />
		<tag k="water" v="lake" />
	</node>
	<node id="-119761" lat="65.0438916707" lon="12.5092083411">
		<tag k="name" v="Knutholmen" />
		<tag k="place" v="islet" />
		<tag k="ssr:stedsnr" v="360490" />
	</node>
	<node id="-118264" lat="65.0710499983" lon="12.3442444495">
		<tag k="name" v="Fallbekkvatnet" />
		<tag k="natural" v="water" />
		<tag k="ssr:stedsnr" v="500543" />
	</node>
	<node id="-119754" lat="65.2707805573" lon="12.5739361106">
		<tag k="name" v="Valskiftodden" />
		<tag k="natural" v="cape" />
		<tag k="ssr:stedsnr" v="360334" />
	</node>
	<node id="-117704" lat="65.2347166692" lon="12.4284305461">
		<tag k="name" v="Vikaelva" />
		<tag k="ssr:stedsnr" v="297024" />
		<tag k="waterway" v="stream" />
	</node>
	<node id="-117698" lat="64.9742166659" lon="12.2210694476">
		<tag k="name" v="Nonsvatnet" />
		<tag k="natural" v="water" />
		<tag k="ssr:stedsnr" v="197838" />
	</node>
	<node id="-117693" lat="65.0501305594" lon="12.2273250003">
		<tag k="name" v="Kvernhuselva" />
		<tag k="ssr:stedsnr" v="197534" />
		<tag k="waterway" v="stream" />
	</node>
	<node id="-117689" lat="65.1210611099" lon="12.5602749954">
		<tag k="name" v="Tverråa" />
		<tag k="ssr:stedsnr" v="197431" />
		<tag k="waterway" v="stream" />
	</node>
	<node id="-119731" lat="65.1907861157" lon="12.7956527732">
		<tag k="name" v="Småklubbholmen" />
		<tag k="place" v="islet" />
		<tag k="ssr:stedsnr" v="359036" />
	</node>
	<node id="-117682" lat="65.2039277732" lon="12.4960833396">
		<tag k="fixme" v="multiple name tags, choose one and add the other to alt_name" />
		<tag k="name" v="Storengvatnet;Øvervatnet" />
		<tag k="natural" v="water" />
		<tag k="ssr:stedsnr" v="197305" />
	</node>
	<node id="-119728" lat="65.0480305553" lon="12.5732555499">
		<tag k="name" v="Nedre Sevasstjønna" />
		<tag k="natural" v="water" />
		<tag k="ssr:stedsnr" v="358950" />
	</node>
	<node id="-119723" lat="65.2644194419" lon="12.5449111035">
		<tag k="name" v="Buvika" />
		<tag k="natural" v="bay" />
		<tag k="ssr:stedsnr" v="358338" />
	</node>
	<node id="-119721" lat="65.0069333344" lon="12.7388555533">
		<tag k="name" v="Møllebekken" />
		<tag k="ssr:stedsnr" v="358366" />
		<tag k="waterway" v="stream" />
	</node>
	<node id="-118257" lat="65.0722166692" lon="12.0699249917">
		<tag k="name" v="Laupåsvatnet" />
		<tag k="natural" v="water" />
		<tag k="ssr:stedsnr" v="500088" />
	</node>
	<node id="-117663" lat="65.06373889" lon="12.3269111034">
		<tag k="name" v="Kvernbekken" />
		<tag k="ssr:stedsnr" v="178461" />
		<tag k="waterway" v="stream" />
	</node>
	<node id="-119708" lat="65.2335750045" lon="12.6478083253">
		<tag k="name" v="Søbergfossen" />
		<tag k="natural" v="waterfall" />
		<tag k="ssr:stedsnr" v="357305" />
	</node>
	<node id="-117649" lat="65.0584055527" lon="12.1665138819">
		<tag k="name" v="Hornelva" />
		<tag k="ssr:stedsnr" v="177917" />
		<tag k="waterway" v="stream" />
	</node>
	<node id="-119692" lat="65.039244446" lon="12.836308331">
		<tag k="name" v="Trongslibekken" />
		<tag k="ssr:stedsnr" v="323036" />
		<tag k="waterway" v="stream" />
	</node>
	<node id="-119691" lat="65.2519444459" lon="12.8362194448">
		<tag k="name" v="Skarvbekken" />
		<tag k="ssr:stedsnr" v="319993" />
		<tag k="waterway" v="stream" />
	</node>
	<node id="-117636" lat="65.0790611107" lon="12.4832222236">
		<tag k="name" v="Aspneset" />
		<tag k="natural" v="cape" />
		<tag k="ssr:stedsnr" v="175721" />
	</node>
	<node id="-117635" lat="65.0760583298" lon="12.4761638811">
		<tag k="name" v="Aspnestjønna" />
		<tag k="natural" v="water" />
		<tag k="ssr:stedsnr" v="175718" />
	</node>
	<node id="-117634" lat="65.0822888886" lon="12.510541661">
		<tag k="name" v="Flodalselva" />
		<tag k="ssr:stedsnr" v="175716" />
		<tag k="waterway" v="stream" />
	</node>
	<node id="-117633" lat="65.0948999981" lon="12.5334805572">
		<tag k="name" v="Svarttjønnbekken" />
		<tag k="ssr:stedsnr" v="175706" />
		<tag k="waterway" v="stream" />
	</node>
	<node id="-119678" lat="64.9940777748" lon="12.4727861185">
		<tag k="name" v="Lauvlibekken" />
		<tag k="ssr:stedsnr" v="318873" />
		<tag k="waterway" v="stream" />
	</node>
	<node id="-117625" lat="65.087805557" lon="12.0105444501">
		<tag k="name" v="Sandvikbekken" />
		<tag k="ssr:stedsnr" v="299865" />
		<tag k="waterway" v="stream" />
	</node>
	<node id="-119670" lat="65.0553333298" lon="12.3360277874">
		<tag k="alt_name" v="Svartåstjørna" />
		<tag k="name" v="Svartåstjønna" />
		<tag k="natural" v="water" />
		<tag k="ssr:stedsnr" v="318509" />
	</node>
	<node id="-119668" lat="65.083386115" lon="12.2209000036">
		<tag k="name" v="Horntjønna" />
		<tag k="natural" v="water" />
		<tag k="ssr:stedsnr" v="318446" />
	</node>
	<node id="-119663" lat="65.1333805579" lon="12.6161222286">
		<tag k="alt_name" v="Urvoldvatn;Urvollvatnet" />
		<tag k="name" v="Urdvollvatnet" />
		<tag k="natural" v="water" />
		<tag k="ssr:stedsnr" v="318359" />
		<tag k="water" v="lake" />
	</node>
	<node id="-119662" lat="65.1118805525" lon="12.2686916757">
		<tag k="name" v="Saltbuvikbekken" />
		<tag k="ssr:stedsnr" v="318354" />
		<tag k="waterway" v="stream" />
	</node>
	<node id="-119659" lat="65.1423305538" lon="12.2436527815">
		<tag k="name" v="Bøkestadvatnet" />
		<tag k="natural" v="water" />
		<tag k="ssr:stedsnr" v="318337" />
	</node>
	<node id="-119658" lat="65.1472138908" lon="12.4860499929">
		<tag k="alt_name" v="Kvamdalsvatnet, l" />
		<tag k="fixme" v="multiple name tags, choose one and add the other to alt_name" />
		<tag k="name" v="Lesskverndalsvatnet;Litle Kvamdalsvatnet" />
		<tag k="natural" v="water" />
		<tag k="ssr:stedsnr" v="318333" />
	</node>
	<node id="-117605" lat="65.1000416646" lon="12.1015555481">
		<tag k="name" v="Olderneselva" />
		<tag k="ssr:stedsnr" v="136021" />
		<tag k="waterway" v="stream" />
	</node>
	<node id="-117603" lat="65.0129944419" lon="12.725747232">
		<tag k="name" v="Åbjørneset" />
		<tag k="natural" v="cape" />
		<tag k="ssr:stedsnr" v="135502" />
	</node>
	<node id="-119650" lat="65.1791000033" lon="12.4577083269">
		<tag k="name" v="Kringlielva" />
		<tag k="ssr:stedsnr" v="318295" />
		<tag k="waterway" v="stream" />
	</node>
	<node id="-117599" lat="65.0271527796" lon="12.1436305545">
		<tag k="alt_name" v="Litlgrønlandsvatnan, midtre" />
		<tag k="name" v="Midtre Litlgrønlandsvatnan" />
		<tag k="natural" v="water" />
		<tag k="ssr:stedsnr" v="135152" />
	</node>
	<node id="-117595" lat="65.1108500041" lon="12.1771833345">
		<tag k="name" v="Tverråa" />
		<tag k="ssr:stedsnr" v="135013" />
		<tag k="waterway" v="stream" />
	</node>
	<node id="-119640" lat="65.0296611075" lon="12.1208277688">
		<tag k="name" v="Årsandelva" />
		<tag k="ssr:stedsnr" v="318132" />
		<tag k="waterway" v="stream" />
	</node>
	<node id="-117590" lat="64.9900055528" lon="12.2021666739">
		<tag k="name" v="Lonbekken" />
		<tag k="ssr:stedsnr" v="117935" />
		<tag k="waterway" v="stream" />
	</node>
	<node id="-119637" lat="65.0489750028" lon="12.095775009">
		<tag k="alt_name" v="Svarttjørna" />
		<tag k="name" v="Svarttjønna" />
		<tag k="natural" v="water" />
		<tag k="ssr:stedsnr" v="318107" />
	</node>
	<node id="-117588" lat="65.0401444462" lon="12.5284805481">
		<tag k="name" v="Kristofferholmen" />
		<tag k="place" v="islet" />
		<tag k="ssr:stedsnr" v="117931" />
	</node>
	<node id="-117585" lat="65.04396944" lon="12.5144944518">
		<tag k="name" v="Åsaneset" />
		<tag k="natural" v="cape" />
		<tag k="ssr:stedsnr" v="117529" />
	</node>
	<node id="-119632" lat="65.1086805571" lon="12.133083329">
		<tag k="name" v="Hestnesbekken" />
		<tag k="ssr:stedsnr" v="318010" />
		<tag k="waterway" v="stream" />
	</node>
	<node id="-119629" lat="65.2149361114" lon="12.4430249898">
		<tag k="name" v="Sørvatnet" />
		<tag k="natural" v="water" />
		<tag k="ssr:stedsnr" v="318228" />
	</node>
	<node id="-119627" lat="65.2297888853" lon="12.4290888944">
		<tag k="name" v="Osen" />
		<tag k="natural" v="bay" />
		<tag k="ssr:stedsnr" v="318221" />
	</node>
	<node id="-119626" lat="65.2892333293" lon="12.5488416555">
		<tag k="name" v="Rognvardselva" />
		<tag k="ssr:stedsnr" v="318197" />
		<tag k="waterway" v="stream" />
	</node>
	<node id="-117576" lat="65.0418777793" lon="12.3026333274">
		<tag k="name" v="Småvatnan" />
		<tag k="natural" v="water" />
		<tag k="ssr:stedsnr" v="117306" />
		<tag k="water" v="lake" />
	</node>
	<node id="-117574" lat="65.0543777809" lon="12.658788888">
		<tag k="name" v="Fosslitjønna" />
		<tag k="natural" v="water" />
		<tag k="ssr:stedsnr" v="115840" />
	</node>
	<node id="-119619" lat="65.0742749984" lon="12.0408500013">
		<tag k="alt_name" v="Ytter-Kjelleidet;Kjelleidet" />
		<tag k="name" v="Kjeldeidet" />
		<tag k="natural" v="strait" />
		<tag k="ssr:stedsnr" v="317060" />
	</node>
	<node id="-119618" lat="65.0168083349" lon="12.7487388785">
		<tag k="name" v="Åbjørholman" />
		<tag k="place" v="islet" />
		<tag k="ssr:stedsnr" v="318538" />
	</node>
	<node id="-118239" lat="65.1849666658" lon="12.626858332">
		<tag k="name" v="Mehammerelva" />
		<tag k="ssr:stedsnr" v="481702" />
		<tag k="waterway" v="stream" />
	</node>
	<node id="-117555" lat="65.0127805595" lon="12.7483722135">
		<tag k="alt_name" v="Hesttjørna" />
		<tag k="name" v="Hesttjønna" />
		<tag k="natural" v="water" />
		<tag k="ssr:stedsnr" v="257574" />
	</node>
	<node id="-119603" lat="65.1734944456" lon="12.9688527865">
		<tag k="name" v="Faatnoenjaevrie" />
		<tag k="name:sma" v="Faatnoenjaevrie" />
		<tag k="natural" v="water" />
		<tag k="ssr:stedsnr" v="197584" />
	</node>
	<node id="-119597" lat="65.1369249974" lon="12.6779916586">
		<tag k="name" v="Trollskardvatnan" />
		<tag k="natural" v="water" />
		<tag k="ssr:stedsnr" v="197401" />
	</node>
	<node id="-117546" lat="65.1342000036" lon="12.6563138961">
		<tag k="alt_name" v="Trollskarelva" />
		<tag k="name" v="Trollskardelva" />
		<tag k="ssr:stedsnr" v="257389" />
		<tag k="waterway" v="stream" />
	</node>
	<node id="-117543" lat="65.1405805555" lon="12.6110666702">
		<tag k="name" v="Matkroktjønna" />
		<tag k="natural" v="water" />
		<tag k="ssr:stedsnr" v="257426" />
	</node>
	<node id="-117542" lat="65.1449583375" lon="12.5076027759">
		<tag k="name" v="Bjønnåa" />
		<tag k="ssr:stedsnr" v="257350" />
		<tag k="waterway" v="stream" />
	</node>
	<node id="-119601" lat="64.9754250032" lon="12.2025083384">
		<tag k="name" v="Skardbekken" />
		<tag k="ssr:stedsnr" v="197651" />
		<tag k="waterway" v="stream" />
	</node>
	<node id="-117537" lat="65.259205554" lon="12.6089527761">
		<tag k="fixme" v="multiple name tags, choose one and add the other to alt_name" />
		<tag k="name" v="Osen;Votnosen" />
		<tag k="natural" v="bay" />
		<tag k="ssr:stedsnr" v="257197" />
	</node>
	<node id="-117536" lat="65.0262249956" lon="12.1240805536">
		<tag k="name" v="Storgrønlandselva" />
		<tag k="ssr:stedsnr" v="257180" />
		<tag k="waterway" v="stream" />
	</node>
	<node id="-119581" lat="65.2325444474" lon="12.6761500037">
		<tag k="name" v="Bjørndalsbekken" />
		<tag k="ssr:stedsnr" v="197259" />
		<tag k="waterway" v="stream" />
	</node>
	<node id="-119574" lat="65.2663583349" lon="12.3971499907">
		<tag k="name" v="Trongvikvatnet" />
		<tag k="natural" v="water" />
		<tag k="ssr:stedsnr" v="197146" />
	</node>
	<node id="-117521" lat="65.0891638854" lon="12.1459916631">
		<tag k="name" v="Amundstjønna" />
		<tag k="natural" v="water" />
		<tag k="ssr:stedsnr" v="257069" />
	</node>
	<node id="-119567" lat="64.9888138885" lon="12.3177000079">
		<tag k="name" v="Fuglvasselva" />
		<tag k="ssr:stedsnr" v="196862" />
		<tag k="waterway" v="river" />
	</node>
	<node id="-119564" lat="65.0440694478" lon="12.5594527853">
		<tag k="name" v="Lissåa" />
		<tag k="ssr:stedsnr" v="196448" />
		<tag k="waterway" v="stream" />
	</node>
	<node id="-119563" lat="65.0276277744" lon="12.4633611201">
		<tag k="name" v="Storneset" />
		<tag k="natural" v="cape" />
		<tag k="ssr:stedsnr" v="196556" />
	</node>
	<node id="-117514" lat="64.9986750031" lon="12.25923055">
		<tag k="name" v="Mellomvatnet" />
		<tag k="natural" v="water" />
		<tag k="ssr:stedsnr" v="75902" />
	</node>
	<node id="-117513" lat="65.0333388861" lon="12.6465388779">
		<tag k="name" v="Storåa" />
		<tag k="ssr:stedsnr" v="75800" />
		<tag k="waterway" v="river" />
	</node>
	<node id="-119559" lat="65.1055805574" lon="12.6057777727">
		<tag k="alt_name" v="Sandskardtjørna" />
		<tag k="name" v="Sandskartjønna" />
		<tag k="natural" v="water" />
		<tag k="ssr:stedsnr" v="196345" />
	</node>
	<node id="-119557" lat="65.0817111101" lon="12.0812361163">
		<tag k="alt_name" v="Hjelmslivatnet" />
		<tag k="name" v="Hjelmstigvatnet" />
		<tag k="natural" v="water" />
		<tag k="ssr:stedsnr" v="196086" />
	</node>
	<node id="-117508" lat="65.2785999976" lon="12.4075833227">
		<tag k="fixme" v="multiple name tags, choose one and add the other to alt_name" />
		<tag k="name" v="Granåselva;Myrmarkelva" />
		<tag k="ssr:stedsnr" v="75234" />
		<tag k="waterway" v="stream" />
	</node>
	<node id="-119555" lat="65.0726055572" lon="12.0172500062">
		<tag k="name" v="Falktjønna" />
		<tag k="natural" v="water" />
		<tag k="ssr:stedsnr" v="196060" />
	</node>
	<node id="-119553" lat="65.028666665" lon="12.139538888">
		<tag k="alt_name" v="Litlgrønlandsvatnan, nedre" />
		<tag k="name" v="Nedre Litlgrønlandsvatnan" />
		<tag k="natural" v="water" />
		<tag k="ssr:stedsnr" v="196170" />
	</node>
	<node id="-117502" lat="65.2455583315" lon="12.6441277796">
		<tag k="alt_name" v="Oterbogtjørna" />
		<tag k="name" v="Oterbugtjønna" />
		<tag k="natural" v="water" />
		<tag k="ssr:stedsnr" v="75201" />
	</node>
	<node id="-119544" lat="65.0624777792" lon="12.2052805561">
		<tag k="name" v="Sørstuelva" />
		<tag k="ssr:stedsnr" v="178889" />
		<tag k="waterway" v="stream" />
	</node>
	<node id="-117495" lat="65.0696305514" lon="12.4808055598">
		<tag k="name" v="Kalvstranda" />
		<tag k="natural" v="cape" />
		<tag k="ssr:stedsnr" v="239734" />
	</node>
	<node id="-117494" lat="65.0677694413" lon="12.5305888784">
		<tag k="name" v="Asplibekken" />
		<tag k="ssr:stedsnr" v="239726" />
		<tag k="waterway" v="stream" />
	</node>
	<node id="-117491" lat="65.0701944404" lon="12.2334694457">
		<tag k="name" v="Heimerelva" />
		<tag k="ssr:stedsnr" v="239611" />
		<tag k="waterway" v="stream" />
	</node>
	<node id="-117486" lat="65.0672944464" lon="12.4310361091">
		<tag k="name" v="Grønlitjønna" />
		<tag k="natural" v="water" />
		<tag k="ssr:stedsnr" v="239554" />
	</node>
	<node id="-119591" lat="65.2882000017" lon="12.3422944425">
		<tag k="alt_name" v="Mulingsbekken" />
		<tag k="name" v="Mulingselva" />
		<tag k="ssr:stedsnr" v="197328" />
		<tag k="waterway" v="stream" />
	</node>
	<node id="-119522" lat="65.1418916703" lon="12.2697416673">
		<tag k="name" v="Hestvikbekken" />
		<tag k="ssr:stedsnr" v="178432" />
		<tag k="waterway" v="stream" />
	</node>
	<node id="-117468" lat="65.0394388907" lon="12.5311527734">
		<tag k="name" v="Hammarshøla" />
		<tag k="place" v="locality" />
		<tag k="ssr:stedsnr" v="238936" />
	</node>
	<node id="-119509" lat="65.2171583326" lon="12.6792027672">
		<tag k="name" v="Valåsbekken" />
		<tag k="ssr:stedsnr" v="178036" />
		<tag k="waterway" v="stream" />
	</node>
	<node id="-119507" lat="65.0276138916" lon="12.1439611182">
		<tag k="name" v="Grønlandsvatnan" />
		<tag k="natural" v="water" />
		<tag k="ssr:stedsnr" v="177889" />
		<tag k="water" v="lake" />
	</node>
	<node id="-119506" lat="65.0256999985" lon="12.1776944403">
		<tag k="name" v="Djupvikelva" />
		<tag k="ssr:stedsnr" v="177884" />
		<tag k="waterway" v="stream" />
	</node>
	<node id="-119505" lat="65.2445638859" lon="12.2946083383">
		<tag k="name" v="Indre Storvikodden" />
		<tag k="ssr:stedsnr" v="177832" />
		<tag k="waterway" v="stream" />
	</node>
	<node id="-117453" lat="65.1094833307" lon="12.6053666607">
		<tag k="name" v="Sandskarbekken" />
		<tag k="ssr:stedsnr" v="238675" />
		<tag k="waterway" v="stream" />
	</node>
	<node id="-117449" lat="65.1156138859" lon="12.5768027836">
		<tag k="name" v="Tverråfosstjønna" />
		<tag k="natural" v="water" />
		<tag k="ssr:stedsnr" v="238611" />
	</node>
	<node id="-117448" lat="65.0249250015" lon="12.7976638917">
		<tag k="name" v="Survikholmen" />
		<tag k="place" v="islet" />
		<tag k="ssr:stedsnr" v="238431" />
	</node>
	<node id="-117437" lat="65.0834472185" lon="12.3715861166">
		<tag k="name" v="Lonet" />
		<tag k="natural" v="water" />
		<tag k="ssr:stedsnr" v="238298" />
		<tag k="water" v="lake" />
	</node>
	<node id="-119482" lat="65.0069305561" lon="12.7302694394">
		<tag k="name" v="Møllebekklonet" />
		<tag k="natural" v="bay" />
		<tag k="ssr:stedsnr" v="176352" />
	</node>
	<node id="-119481" lat="65.2585361102" lon="12.6103694447">
		<tag k="name" v="Geitneset" />
		<tag k="natural" v="cape" />
		<tag k="ssr:stedsnr" v="176341" />
	</node>
	<node id="-119479" lat="65.2757611109" lon="12.5683111167">
		<tag k="name" v="Fjellbukta" />
		<tag k="natural" v="bay" />
		<tag k="ssr:stedsnr" v="176316" />
	</node>
	<node id="-119478" lat="65.2748638879" lon="12.5724027775">
		<tag k="name" v="Storsundet" />
		<tag k="natural" v="strait" />
		<tag k="ssr:stedsnr" v="176315" />
	</node>
	<node id="-119471" lat="65.0691916677" lon="12.0532638984">
		<tag k="name" v="Inner-Kjelleidet" />
		<tag k="natural" v="strait" />
		<tag k="ssr:stedsnr" v="176086" />
	</node>
	<node id="-119469" lat="65.0507638906" lon="12.0938333433">
		<tag k="name" v="Lessvasselva" />
		<tag k="ssr:stedsnr" v="176060" />
		<tag k="waterway" v="stream" />
	</node>
	<node id="-117420" lat="65.2706277798" lon="12.4043305603">
		<tag k="name" v="Trongan" />
		<tag k="natural" v="bay" />
		<tag k="ssr:stedsnr" v="238182" />
	</node>
	<node id="-117418" lat="65.038983329" lon="12.6973888869">
		<tag k="name" v="Bjørnvika" />
		<tag k="natural" v="bay" />
		<tag k="ssr:stedsnr" v="238045" />
	</node>
	<node id="-119465" lat="65.0341555519" lon="12.0839416579">
		<tag k="name" v="Lessengelva" />
		<tag k="ssr:stedsnr" v="176028" />
		<tag k="waterway" v="stream" />
	</node>
	<node id="-117412" lat="65.0932916694" lon="12.2002750068">
		<tag k="name" v="Toskbekken" />
		<tag k="ssr:stedsnr" v="237639" />
		<tag k="waterway" v="stream" />
	</node>
	<node id="-119458" lat="65.2049194422" lon="12.7702555521">
		<tag k="name" v="Sandan" />
		<tag k="natural" v="water" />
		<tag k="ssr:stedsnr" v="175303" />
		<tag k="water" v="lake" />
	</node>
	<node id="-117406" lat="65.0109194463" lon="12.7160916655">
		<tag k="name" v="Vavika" />
		<tag k="natural" v="bay" />
		<tag k="ssr:stedsnr" v="55362" />
	</node>
	<node id="-117404" lat="65.1988555514" lon="12.2156250072">
		<tag k="name" v="Mølnhuslibekken" />
		<tag k="ssr:stedsnr" v="55308" />
		<tag k="waterway" v="stream" />
	</node>
	<node id="-117399" lat="65.2142499988" lon="12.8511694378">
		<tag k="name" v="Skrovadalselva" />
		<tag k="ssr:stedsnr" v="54462" />
		<tag k="waterway" v="river" />
	</node>
	<node id="-119444" lat="65.0276361097" lon="12.5014888792">
		<tag k="name" v="Tverråa" />
		<tag k="ssr:stedsnr" v="136777" />
		<tag k="waterway" v="river" />
	</node>
	<node id="-119442" lat="65.1895333329" lon="12.9156444395">
		<tag k="name" v="Trekanttjønna" />
		<tag k="natural" v="water" />
		<tag k="ssr:stedsnr" v="136601" />
		<tag k="water" v="lake" />
	</node>
	<node id="-119441" lat="65.2248555571" lon="12.8774944553">
		<tag k="name" v="Kvitdalsvatnet" />
		<tag k="natural" v="water" />
		<tag k="ssr:stedsnr" v="136600" />
		<tag k="water" v="lake" />
	</node>
	<node id="-117392" lat="65.042336113" lon="12.1161472279">
		<tag k="name" v="Engesbekken" />
		<tag k="ssr:stedsnr" v="237061" />
		<tag k="waterway" v="stream" />
	</node>
	<node id="-117391" lat="65.0790916653" lon="12.0738166577">
		<tag k="name" v="Osen" />
		<tag k="place" v="locality" />
		<tag k="ssr:stedsnr" v="236851" />
	</node>
	<node id="-117869" lat="65.0248777762" lon="12.2079305456">
		<tag k="name" v="Migåa" />
		<tag k="ssr:stedsnr" v="317154" />
		<tag k="waterway" v="stream" />
	</node>
	<node id="-119435" lat="65.0756999991" lon="12.3867277671">
		<tag k="name" v="Tverråa" />
		<tag k="ssr:stedsnr" v="136478" />
		<tag k="waterway" v="stream" />
	</node>
	<node id="-117868" lat="64.9833416662" lon="12.8834166613">
		<tag k="name" v="Fosstjønna" />
		<tag k="natural" v="water" />
		<tag k="ssr:stedsnr" v="317123" />
	</node>
	<node id="-119427" lat="65.2222388874" lon="12.5226222283">
		<tag k="name" v="Øvre Urdstjønna" />
		<tag k="natural" v="water" />
		<tag k="ssr:stedsnr" v="136288" />
	</node>
	<node id="-117376" lat="65.129119449" lon="12.2124472122">
		<tag k="name" v="Åsaunelva" />
		<tag k="ssr:stedsnr" v="236511" />
		<tag k="waterway" v="stream" />
	</node>
	<node id="-119422" lat="65.1510444464" lon="12.6684583293">
		<tag k="name" v="Reppavatnet" />
		<tag k="natural" v="water" />
		<tag k="ssr:stedsnr" v="136365" />
	</node>
	<node id="-117373" lat="65.1974777744" lon="12.2334888939">
		<tag k="name" v="Revmodalsbekken" />
		<tag k="ssr:stedsnr" v="236307" />
		<tag k="waterway" v="stream" />
	</node>
	<node id="-117370" lat="65.0615166705" lon="12.0747000019">
		<tag k="name" v="Kvitneselva" />
		<tag k="ssr:stedsnr" v="236252" />
		<tag k="waterway" v="stream" />
	</node>
	<node id="-117369" lat="65.0660277773" lon="12.1043250022">
		<tag k="name" v="Ørbekkjen" />
		<tag k="ssr:stedsnr" v="236229" />
		<tag k="waterway" v="stream" />
	</node>
	<node id="-117368" lat="65.2547111145" lon="12.5811888943">
		<tag k="name" v="Hattvikholmen" />
		<tag k="place" v="islet" />
		<tag k="ssr:stedsnr" v="235358" />
	</node>
	<node id="-119415" lat="65.2552916676" lon="12.5600194509">
		<tag k="name" v="Fjellvatnet" />
		<tag k="natural" v="water" />
		<tag k="ssr:stedsnr" v="136183" />
		<tag k="water" v="lake" />
	</node>
	<node id="-119414" lat="65.2647861116" lon="12.5254666721">
		<tag k="name" v="Burånelva" />
		<tag k="ssr:stedsnr" v="136176" />
		<tag k="waterway" v="stream" />
	</node>
	<node id="-117362" lat="65.1991694456" lon="12.7450861169">
		<tag k="alt_name" v="Hundflågbekken" />
		<tag k="name" v="Hundflaugbekken" />
		<tag k="ssr:stedsnr" v="15624" />
		<tag k="waterway" v="stream" />
	</node>
	<node id="-119409" lat="65.2316750033" lon="12.6628722134">
		<tag k="name" v="Bjørnstokkelva" />
		<tag k="ssr:stedsnr" v="136261" />
		<tag k="waterway" v="stream" />
	</node>
	<node id="-117360" lat="65.047875" lon="12.2592500089">
		<tag k="name" v="Gammelsagelva" />
		<tag k="ssr:stedsnr" v="15523" />
		<tag k="waterway" v="stream" />
	</node>
	<node id="-117359" lat="65.0583416657" lon="12.357799998">
		<tag k="name" v="Svartåspøyla" />
		<tag k="natural" v="water" />
		<tag k="ssr:stedsnr" v="15508" />
	</node>
	<node id="-119406" lat="65.0928111131" lon="11.9501750107">
		<tag k="fixme" v="multiple name tags, choose one and add the other to alt_name" />
		<tag k="name" v="Horsfjordelva;Sagelva" />
		<tag k="ssr:stedsnr" v="136052" />
		<tag k="waterway" v="stream" />
	</node>
	<node id="-117351" lat="64.9771805574" lon="12.3314722182">
		<tag k="alt_name" v="Mellomtjørna" />
		<tag k="name" v="Mellomtjønna" />
		<tag k="natural" v="water" />
		<tag k="ssr:stedsnr" v="14801" />
	</node>
	<node id="-119398" lat="65.200938891" lon="12.2095916717">
		<tag k="name" v="Skauvikvatnet" />
		<tag k="natural" v="water" />
		<tag k="ssr:stedsnr" v="135896" />
	</node>
	<node id="-118545" lat="65.1243166655" lon="12.2399555497">
		<tag k="name" v="Vikestadbekken" />
		<tag k="ssr:stedsnr" v="724539" />
		<tag k="waterway" v="stream" />
	</node>
	<node id="-117348" lat="65.0390333308" lon="12.4106888881">
		<tag k="name" v="Austerengtjønna" />
		<tag k="natural" v="water" />
		<tag k="ssr:stedsnr" v="14404" />
	</node>
	<node id="-119395" lat="64.9857750044" lon="12.4761250034">
		<tag k="name" v="Metjørnin" />
		<tag k="natural" v="water" />
		<tag k="ssr:stedsnr" v="135840" />
	</node>
	<node id="-117344" lat="65.0916583293" lon="11.9621833399">
		<tag k="name" v="Svartåstjønna" />
		<tag k="natural" v="water" />
		<tag k="ssr:stedsnr" v="14026" />
	</node>
	<node id="-117343" lat="65.065033335" lon="12.5499555544">
		<tag k="name" v="Røyrneset" />
		<tag k="natural" v="cape" />
		<tag k="ssr:stedsnr" v="299972" />
	</node>
	<node id="-119386" lat="65.0529361083" lon="12.6698194517">
		<tag k="name" v="Storfossen" />
		<tag k="natural" v="waterfall" />
		<tag k="ssr:stedsnr" v="135458" />
	</node>
	<node id="-119384" lat="65.1183166637" lon="12.6636000051">
		<tag k="alt_name" v="Sjålitjønna" />
		<tag k="name" v="Skjålitjørna" />
		<tag k="natural" v="water" />
		<tag k="ssr:stedsnr" v="135366" />
	</node>
	<node id="-119383" lat="65.1088416636" lon="12.6391388923">
		<tag k="alt_name" v="Glømvatnet;Nedre Glømmvatn" />
		<tag k="name" v="Nervatnet" />
		<tag k="natural" v="water" />
		<tag k="ssr:stedsnr" v="135357" />
		<tag k="water" v="lake" />
	</node>
	<node id="-119381" lat="65.0824749964" lon="12.0040472159">
		<tag k="alt_name" v="Sørtjørnan" />
		<tag k="name" v="Sørtjønna" />
		<tag k="natural" v="water" />
		<tag k="ssr:stedsnr" v="135058" />
	</node>
	<node id="-119374" lat="65.0566861135" lon="12.4294361163">
		<tag k="name" v="Grautbekken" />
		<tag k="ssr:stedsnr" v="117890" />
		<tag k="waterway" v="stream" />
	</node>
	<node id="-117515" lat="65.0295250015" lon="12.0558305458">
		<tag k="alt_name" v="Bugen" />
		<tag k="name" v="Bogen" />
		<tag k="natural" v="bay" />
		<tag k="ssr:stedsnr" v="75824" />
	</node>
	<node id="-119351" lat="65.2461694451" lon="12.6309805462">
		<tag k="name" v="Oterbugen" />
		<tag k="natural" v="bay" />
		<tag k="ssr:stedsnr" v="117723" />
	</node>
	<node id="-119337" lat="65.0246861137" lon="12.8083416736">
		<tag k="name" v="Mensfossen" />
		<tag k="natural" v="waterfall" />
		<tag k="ssr:stedsnr" v="117429" />
	</node>
	<node id="-119335" lat="65.1473638928" lon="12.2093472154">
		<tag k="name" v="Markaelva" />
		<tag k="ssr:stedsnr" v="117550" />
		<tag k="waterway" v="stream" />
	</node>
	<node id="-119326" lat="65.1881527797" lon="12.7873916692">
		<tag k="name" v="Svarttjønna" />
		<tag k="ssr:stedsnr" v="117041" />
		<tag k="waterway" v="stream" />
	</node>
	<node id="-118191" lat="65.0485944447" lon="12.4822194522">
		<tag k="name" v="Marfossholmen" />
		<tag k="place" v="islet" />
		<tag k="ssr:stedsnr" v="663596" />
	</node>
	<node id="-119319" lat="65.0371805528" lon="12.5577472288">
		<tag k="name" v="Laukholmbukta" />
		<tag k="natural" v="bay" />
		<tag k="ssr:stedsnr" v="115863" />
	</node>
	<node id="-117849" lat="65.023902778" lon="12.321944454">
		<tag k="name" v="Mellomvassdammen" />
		<tag k="ssr:stedsnr" v="299264" />
		<tag k="waterway" v="dam" />
	</node>
	<node id="-117507" lat="65.2773527744" lon="12.4440166594">
		<tag k="name" v="Hardangselva" />
		<tag k="ssr:stedsnr" v="75233" />
		<tag k="waterway" v="stream" />
	</node>
	<node id="-119291" lat="65.2628888879" lon="12.5643805545">
		<tag k="name" v="Fiskbekken" />
		<tag k="ssr:stedsnr" v="76180" />
		<tag k="waterway" v="stream" />
	</node>
	<node id="-119290" lat="65.0338777777" lon="12.1671000077">
		<tag k="name" v="Straumelva" />
		<tag k="ssr:stedsnr" v="76171" />
		<tag k="waterway" v="stream" />
	</node>
	<node id="-119285" lat="65.1467694429" lon="12.1867249943">
		<tag k="alt_name" v="Markavatnet, nedre" />
		<tag k="name" v="Nedre Markavatnet" />
		<tag k="natural" v="water" />
		<tag k="ssr:stedsnr" v="75997" />
		<tag k="water" v="lake" />
	</node>
	<node id="-118525" lat="65.0626055562" lon="12.2896361043">
		<tag k="name" v="Moabekken" />
		<tag k="ssr:stedsnr" v="724429" />
		<tag k="waterway" v="stream" />
	</node>
	<node id="-119276" lat="65.1543472234" lon="12.1885916643">
		<tag k="alt_name" v="Markavatnet, øvre" />
		<tag k="name" v="Øvre Markavatnet" />
		<tag k="natural" v="water" />
		<tag k="ssr:stedsnr" v="75921" />
		<tag k="water" v="lake" />
	</node>
	<node id="-119274" lat="65.1564000014" lon="12.1335083387">
		<tag k="alt_name" v="Litlheilsbekken, s" />
		<tag k="name" v="Søre Litlheilsbekken" />
		<tag k="ssr:stedsnr" v="75916" />
		<tag k="waterway" v="stream" />
	</node>
	<node id="-118404" lat="65.0871055587" lon="12.5088000055">
		<tag k="alt_name" v="Lessdambekken" />
		<tag k="name" v="Litldambekken" />
		<tag k="ssr:stedsnr" v="560409" />
		<tag k="waterway" v="stream" />
	</node>
	<node id="-119268" lat="65.0119638903" lon="12.5080861193">
		<tag k="alt_name" v="Langmyrtjørna" />
		<tag k="name" v="Langmyrtjønna" />
		<tag k="natural" v="water" />
		<tag k="ssr:stedsnr" v="75663" />
	</node>
	<node id="-119267" lat="65.0163861137" lon="12.5170138903">
		<tag k="alt_name" v="Tjørnlitjørna" />
		<tag k="name" v="Tjønnlitjønna" />
		<tag k="natural" v="water" />
		<tag k="ssr:stedsnr" v="75662" />
	</node>
	<node id="-119265" lat="65.0222916702" lon="12.6708750017">
		<tag k="name" v="Flekkvika" />
		<tag k="natural" v="bay" />
		<tag k="ssr:stedsnr" v="75655" />
	</node>
	<node id="-119262" lat="65.0304888879" lon="12.5775472198">
		<tag k="name" v="Teinfossen" />
		<tag k="natural" v="waterfall" />
		<tag k="ssr:stedsnr" v="75638" />
	</node>
	<node id="-119260" lat="65.0344500035" lon="12.6719750033">
		<tag k="name" v="Bunestangen" />
		<tag k="natural" v="cape" />
		<tag k="ssr:stedsnr" v="75633" />
	</node>
	<node id="-119256" lat="65.1315000037" lon="12.7240583428">
		<tag k="name" v="Skavvatnet" />
		<tag k="natural" v="water" />
		<tag k="ssr:stedsnr" v="75574" />
		<tag k="water" v="lake" />
	</node>
	<node id="-119255" lat="65.0384611143" lon="12.6205777765">
		<tag k="name" v="Brattfossen" />
		<tag k="natural" v="waterfall" />
		<tag k="ssr:stedsnr" v="75506" />
	</node>
	<node id="-119249" lat="65.0855722195" lon="12.3792111014">
		<tag k="name" v="Terråkelva" />
		<tag k="ssr:stedsnr" v="75426" />
		<tag k="waterway" v="river" />
	</node>
	<node id="-119247" lat="65.1181361082" lon="12.6501611174">
		<tag k="name" v="Akeleietjønna" />
		<tag k="natural" v="water" />
		<tag k="ssr:stedsnr" v="75395" />
	</node>
	<node id="-119245" lat="65.1697277813" lon="12.7056416612">
		<tag k="name" v="Engeselva" />
		<tag k="ssr:stedsnr" v="75349" />
		<tag k="waterway" v="stream" />
	</node>
	<node id="-119243" lat="65.1799500024" lon="12.39483056">
		<tag k="alt_name" v="Mølnbekken" />
		<tag k="name" v="Møllebekken" />
		<tag k="ssr:stedsnr" v="75321" />
		<tag k="waterway" v="stream" />
	</node>
	<node id="-119241" lat="65.1722500033" lon="12.2522249927">
		<tag k="name" v="Skjelsvikelva" />
		<tag k="ssr:stedsnr" v="75311" />
		<tag k="waterway" v="stream" />
	</node>
	<node id="-119236" lat="64.9796972186" lon="12.8883833425">
		<tag k="name" v="Nedre Kjerringtjønna" />
		<tag k="natural" v="water" />
		<tag k="ssr:stedsnr" v="75145" />
	</node>
	<node id="-119233" lat="65.0822555518" lon="12.018833342">
		<tag k="name" v="Husvatnet" />
		<tag k="natural" v="water" />
		<tag k="ssr:stedsnr" v="75055" />
	</node>
	<node id="-119226" lat="64.9959583354" lon="12.2283916756">
		<tag k="name" v="Bukktjønna" />
		<tag k="natural" v="water" />
		<tag k="ssr:stedsnr" v="57929" />
	</node>
	<node id="-119210" lat="65.0789916645" lon="12.4535861056">
		<tag k="name" v="Bottelstrand" />
		<tag k="natural" v="beach" />
		<tag k="ssr:stedsnr" v="57520" />
	</node>
	<node id="-118170" lat="65.0227111138" lon="12.8053388927">
		<tag k="name" v="Sørhjelmbekken" />
		<tag k="ssr:stedsnr" v="663397" />
		<tag k="waterway" v="stream" />
	</node>
	<node id="-119184" lat="65.2400472235" lon="12.6673527833">
		<tag k="name" v="Groholbekken" />
		<tag k="ssr:stedsnr" v="56747" />
		<tag k="waterway" v="stream" />
	</node>
	<node id="-118742" lat="65.1180388931" lon="12.8687305586">
		<tag k="alt_name:no" v="Ringvatnet, øvre" />
		<tag k="name" v="Øvre Ringvatnet - Ringkenjaevrie" />
		<tag k="name:no" v="Øvre Ringvatnet" />
		<tag k="name:sma" v="Ringkenjaevrie" />
		<tag k="natural" v="water" />
		<tag k="ssr:stedsnr" v="742524" />
		<tag k="water" v="lake" />
	</node>
	<node id="-119176" lat="65.0536416675" lon="12.4798472308">
		<tag k="name" v="Kvennbekken" />
		<tag k="ssr:stedsnr" v="56608" />
		<tag k="waterway" v="stream" />
	</node>
	<node id="-119175" lat="65.0553361146" lon="12.4832416646">
		<tag k="name" v="Olderholmen" />
		<tag k="place" v="islet" />
		<tag k="ssr:stedsnr" v="56607" />
	</node>
	<node id="-119172" lat="65.0228611118" lon="12.7792388941">
		<tag k="name" v="Seterlonet" />
		<tag k="natural" v="bay" />
		<tag k="ssr:stedsnr" v="56412" />
	</node>
	<node id="-119169" lat="65.2055388881" lon="12.4737166752">
		<tag k="name" v="Stormyrbekken" />
		<tag k="ssr:stedsnr" v="56387" />
		<tag k="waterway" v="stream" />
	</node>
	<node id="-119168" lat="65.2007805564" lon="12.4857055496">
		<tag k="name" v="Vasskroken" />
		<tag k="natural" v="bay" />
		<tag k="ssr:stedsnr" v="56382" />
	</node>
	<node id="-119161" lat="65.2617805547" lon="12.5567527735">
		<tag k="name" v="Fiskbekkvika" />
		<tag k="natural" v="bay" />
		<tag k="ssr:stedsnr" v="55332" />
	</node>
	<node id="-118505" lat="65.2252249958" lon="13.0281333341">
		<tag k="name" v="Øvervatnet - Mehkienjaevrie" />
		<tag k="name:no" v="Øvervatnet" />
		<tag k="name:sma" v="Mehkienjaevrie" />
		<tag k="natural" v="water" />
		<tag k="ssr:stedsnr" v="621630" />
		<tag k="water" v="lake" />
	</node>
	<node id="-119156" lat="65.0357555572" lon="12.6017416644">
		<tag k="name" v="Øvre Trofoss" />
		<tag k="natural" v="waterfall" />
		<tag k="ssr:stedsnr" v="54878" />
	</node>
	<node id="-119137" lat="65.1490249959" lon="12.1464722173">
		<tag k="fixme" v="multiple name tags, choose one and add the other to alt_name" />
		<tag k="name" v="Ramntjønnan;Rabbtjønnan" />
		<tag k="natural" v="water" />
		<tag k="ssr:stedsnr" v="15889" />
	</node>
	<node id="-119136" lat="65.1465750024" lon="11.9640194427">
		<tag k="name" v="Nordelva" />
		<tag k="ssr:stedsnr" v="15883" />
		<tag k="waterway" v="stream" />
	</node>
	<node id="-119135" lat="65.2096277739" lon="12.9936916706">
		<tag k="name" v="Holmvatnet - Såålejaevrie" />
		<tag k="name:no" v="Holmvatnet" />
		<tag k="name:sma" v="Såålejaevrie" />
		<tag k="natural" v="water" />
		<tag k="ssr:stedsnr" v="15781" />
		<tag k="water" v="lake" />
	</node>
	<node id="-120549" lat="65.0771388848" lon="12.6345916719">
		<tag k="name" v="Skarstadfuglvatnet" />
		<tag k="natural" v="water" />
		<tag k="ssr:stedsnr" v="804473" />
		<tag k="water" v="lake" />
	</node>
	<node id="-119132" lat="65.0565555596" lon="12.4472694358">
		<tag k="name" v="Rossdalelva" />
		<tag k="ssr:stedsnr" v="15494" />
		<tag k="waterway" v="stream" />
	</node>
	<node id="-119129" lat="65.1070722178" lon="12.2320388878">
		<tag k="name" v="Eiterbekken" />
		<tag k="ssr:stedsnr" v="15442" />
		<tag k="waterway" v="stream" />
	</node>
	<node id="-119127" lat="65.108438885" lon="12.3182527747">
		<tag k="name" v="Sagelva" />
		<tag k="ssr:stedsnr" v="15435" />
		<tag k="waterway" v="stream" />
	</node>
	<node id="-119124" lat="65.1835805557" lon="12.8008305605">
		<tag k="name" v="Grytendalsfossen" />
		<tag k="natural" v="waterfall" />
		<tag k="ssr:stedsnr" v="15567" />
	</node>
	<node id="-119122" lat="65.2712166627" lon="12.3923055611">
		<tag k="name" v="Svartvatnet" />
		<tag k="natural" v="water" />
		<tag k="ssr:stedsnr" v="15265" />
	</node>
	<node id="-119120" lat="65.2157027768" lon="12.4585111009">
		<tag k="name" v="Øvervatnet" />
		<tag k="natural" v="water" />
		<tag k="ssr:stedsnr" v="15253" />
	</node>
	<node id="-119119" lat="65.2815777807" lon="12.3801194538">
		<tag k="name" v="Nordfjellvatnet" />
		<tag k="natural" v="water" />
		<tag k="ssr:stedsnr" v="15252" />
	</node>
	<node id="-119115" lat="65.279630554" lon="12.5531305539">
		<tag k="name" v="Mølnvatnet" />
		<tag k="natural" v="water" />
		<tag k="ssr:stedsnr" v="15240" />
	</node>
	<node id="-117815" lat="65.2662999978" lon="12.4513944402">
		<tag k="alt_name" v="Østerlielva" />
		<tag k="name" v="Austrelielva" />
		<tag k="ssr:stedsnr" v="257160" />
		<tag k="waterway" v="stream" />
	</node>
	<node id="-119101" lat="65.1628305542" lon="12.5086750035">
		<tag k="alt_name" v="Jutulvatnet" />
		<tag k="name" v="Jøtulvatnet" />
		<tag k="natural" v="water" />
		<tag k="ssr:stedsnr" v="15318" />
		<tag k="water" v="lake" />
	</node>
	<node id="-119097" lat="65.1897277763" lon="12.2247388964">
		<tag k="name" v="Røytvollelva" />
		<tag k="ssr:stedsnr" v="15308" />
		<tag k="waterway" v="stream" />
	</node>
	<node id="-119090" lat="64.9924277793" lon="12.2209138863">
		<tag k="alt_name" v="Geitafossen" />
		<tag k="name" v="Geitfossen" />
		<tag k="natural" v="waterfall" />
		<tag k="ssr:stedsnr" v="14842" />
	</node>
	<node id="-119083" lat="65.1126916703" lon="11.9548499955">
		<tag k="name" v="Olesnikkarbekken" />
		<tag k="ssr:stedsnr" v="14933" />
		<tag k="waterway" v="stream" />
	</node>
	<node id="-119082" lat="65.1497833366" lon="13.0486277785">
		<tag k="name" v="Njöölvenguevtelenjaevrieh" />
		<tag k="name:sma" v="Njöölvenguevtelenjaevrieh" />
		<tag k="natural" v="water" />
		<tag k="ssr:stedsnr" v="14494" />
		<tag k="water" v="lake" />
	</node>
	<node id="-118492" lat="65.1441583288" lon="12.2485388928">
		<tag k="name" v="Storsanden" />
		<tag k="natural" v="beach" />
		<tag k="ssr:stedsnr" v="723528" />
	</node>
	<node id="-119078" lat="65.0375138915" lon="12.7021472233">
		<tag k="name" v="Bjønnåa" />
		<tag k="ssr:stedsnr" v="14553" />
		<tag k="waterway" v="stream" />
	</node>
	<node id="-119077" lat="65.0181861144" lon="12.3201166751">
		<tag k="alt_name" v="Mellomvatnet" />
		<tag k="name" v="Mellavatnet" />
		<tag k="natural" v="water" />
		<tag k="ssr:stedsnr" v="14552" />
		<tag k="water" v="lake" />
	</node>
	<node id="-119076" lat="65.028797218" lon="12.5651555556">
		<tag k="name" v="Lonfossen" />
		<tag k="natural" v="waterfall" />
		<tag k="ssr:stedsnr" v="14550" />
	</node>
	<node id="-119075" lat="65.0240805527" lon="12.5078638895">
		<tag k="alt_name" v="Gautmoelva" />
		<tag k="name" v="Moaelva" />
		<tag k="ssr:stedsnr" v="14545" />
		<tag k="waterway" v="stream" />
	</node>
	<node id="-119074" lat="65.0404361067" lon="12.6801361207">
		<tag k="name" v="Naustneset" />
		<tag k="natural" v="cape" />
		<tag k="ssr:stedsnr" v="14537" />
	</node>
	<node id="-119079" lat="65.0141277787" lon="12.5797861146">
		<tag k="name" v="Skavlåa" />
		<tag k="ssr:stedsnr" v="14569" />
		<tag k="waterway" v="stream" />
	</node>
	<node id="-119053" lat="65.0631194434" lon="12.2017305452">
		<tag k="name" v="Sandbekken" />
		<tag k="ssr:stedsnr" v="966903" />
		<tag k="waterway" v="stream" />
	</node>
	<node id="-119016" lat="65.06283889" lon="12.1975527701">
		<tag k="name" v="Kvernelva" />
		<tag k="ssr:stedsnr" v="906909" />
		<tag k="waterway" v="stream" />
	</node>
	<node id="-117457" lat="65.099666663" lon="12.4412222129">
		<tag k="name" v="Høgsetbekken" />
		<tag k="ssr:stedsnr" v="238688" />
		<tag k="waterway" v="stream" />
	</node>
	<node id="-119000" lat="65.1503916649" lon="12.4076916733">
		<tag k="name" v="Tverrbekken" />
		<tag k="ssr:stedsnr" v="906316" />
		<tag k="waterway" v="stream" />
	</node>
	<node id="-117713" lat="65.1609944441" lon="12.2666249997">
		<tag k="name" v="Nergårdselva" />
		<tag k="ssr:stedsnr" v="297087" />
		<tag k="waterway" v="stream" />
	</node>
	<node id="-118137" lat="65.0550277748" lon="12.1219305509">
		<tag k="name" v="Granåsbekkjen" />
		<tag k="ssr:stedsnr" v="661044" />
		<tag k="waterway" v="stream" />
	</node>
	<node id="-118980" lat="65.071497221" lon="12.0060777834">
		<tag k="name" v="Sagelva" />
		<tag k="ssr:stedsnr" v="904115" />
		<tag k="waterway" v="stream" />
	</node>
	<node id="-118979" lat="65.2068944445" lon="12.7701972281">
		<tag k="name" v="Kolsvikelva" />
		<tag k="ssr:stedsnr" v="903269" />
		<tag k="waterway" v="river" />
	</node>
	<node id="-118211" lat="65.2595666664" lon="12.6010972144">
		<tag k="name" v="Lombekken" />
		<tag k="ssr:stedsnr" v="479356" />
		<tag k="waterway" v="stream" />
	</node>
	<node id="-118974" lat="65.0383305531" lon="12.348244454">
		<tag k="alt_name" v="Flytjørnan" />
		<tag k="name" v="Flytjønna" />
		<tag k="natural" v="water" />
		<tag k="ssr:stedsnr" v="864522" />
	</node>
	<node id="-118966" lat="65.0330388878" lon="12.469002787">
		<tag k="name" v="Lessnestjønna" />
		<tag k="natural" v="water" />
		<tag k="ssr:stedsnr" v="846903" />
	</node>
	<node id="-118964" lat="65.1801472188" lon="12.4543944341">
		<tag k="name" v="Grønlibekken" />
		<tag k="ssr:stedsnr" v="845308" />
		<tag k="waterway" v="stream" />
	</node>
	<node id="-118957" lat="65.1931805576" lon="12.7725611043">
		<tag k="name" v="Sørmarkelva" />
		<tag k="ssr:stedsnr" v="804612" />
		<tag k="waterway" v="stream" />
	</node>
	<node id="-118952" lat="65.1504555587" lon="12.4149222149">
		<tag k="alt_name" v="Tverrbekktjørna" />
		<tag k="name" v="Tverrbekktjønna" />
		<tag k="natural" v="water" />
		<tag k="ssr:stedsnr" v="804361" />
	</node>
	<node id="-118946" lat="65.1661499969" lon="13.0529444393">
		<tag k="name" v="Brennelva" />
		<tag k="ssr:stedsnr" v="803760" />
		<tag k="waterway" v="river" />
	</node>
	<node id="-118945" lat="65.0287888897" lon="12.3001416747">
		<tag k="name" v="Tverråa" />
		<tag k="ssr:stedsnr" v="803753" />
		<tag k="waterway" v="river" />
	</node>
	<node id="-118944" lat="65.017055557" lon="12.5752333259">
		<tag k="alt_name" v="Skottheitjørna" />
		<tag k="name" v="Skottheitjønna" />
		<tag k="natural" v="water" />
		<tag k="ssr:stedsnr" v="803629" />
	</node>
	<node id="-118943" lat="65.0116305594" lon="12.5246027752">
		<tag k="name" v="Fuglstadvatnet" />
		<tag k="natural" v="water" />
		<tag k="ssr:stedsnr" v="803627" />
	</node>
	<node id="-118942" lat="65.0130999972" lon="12.4513638958">
		<tag k="name" v="Bjørnholbekken" />
		<tag k="ssr:stedsnr" v="803620" />
		<tag k="waterway" v="stream" />
	</node>
	<node id="-118941" lat="65.0785166676" lon="12.5586055615">
		<tag k="name" v="Aunelva" />
		<tag k="ssr:stedsnr" v="803424" />
		<tag k="waterway" v="river" />
	</node>
	<node id="-118940" lat="65.0886000004" lon="12.5385666602">
		<tag k="name" v="Damtjønna" />
		<tag k="natural" v="water" />
		<tag k="ssr:stedsnr" v="803422" />
	</node>
	<node id="-118936" lat="65.2348888871" lon="12.5249472283">
		<tag k="alt_name" v="Urdstjørna" />
		<tag k="name" v="Urstjønna" />
		<tag k="natural" v="water" />
		<tag k="ssr:stedsnr" v="803227" />
	</node>
	<node id="-117783" lat="65.0502166664" lon="12.4742777711">
		<tag k="alt_name" v="Kvennbekken" />
		<tag k="name" v="Kvernbekken" />
		<tag k="ssr:stedsnr" v="440502" />
		<tag k="waterway" v="stream" />
	</node>
	<node id="-118915" lat="65.1452055591" lon="11.9875750074">
		<tag k="alt_name" v="Bjørnbekken" />
		<tag k="name" v="Bjørnelva" />
		<tag k="ssr:stedsnr" v="925915" />
		<tag k="waterway" v="stream" />
	</node>
	<node id="-118909" lat="64.9703583359" lon="12.2386694505">
		<tag k="name" v="Langtjønna" />
		<tag k="natural" v="water" />
		<tag k="ssr:stedsnr" v="925867" />
	</node>
	<node id="-118908" lat="64.9691250027" lon="12.2602333355">
		<tag k="name" v="Storfjellvatnet" />
		<tag k="natural" v="water" />
		<tag k="ssr:stedsnr" v="925863" />
	</node>
	<node id="-118903" lat="65.0182861105" lon="12.6671583271">
		<tag k="name" v="Grønvika" />
		<tag k="natural" v="bay" />
		<tag k="ssr:stedsnr" v="925663" />
	</node>
	<node id="-118902" lat="65.0064833364" lon="12.322169448">
		<tag k="name" v="Sørvatnet" />
		<tag k="natural" v="water" />
		<tag k="ssr:stedsnr" v="925655" />
		<tag k="water" v="lake" />
	</node>
	<node id="-118901" lat="65.0080194449" lon="12.3168138952">
		<tag k="name" v="Tønna" />
		<tag k="natural" v="cape" />
		<tag k="ssr:stedsnr" v="925652" />
	</node>
	<node id="-118899" lat="65.0199416705" lon="12.5702999973">
		<tag k="name" v="Sprangbekken" />
		<tag k="ssr:stedsnr" v="925643" />
		<tag k="waterway" v="stream" />
	</node>
	<node id="-118898" lat="65.0311527813" lon="12.6781111088">
		<tag k="alt_name" v="Fornestangen" />
		<tag k="name" v="Fornesodden" />
		<tag k="natural" v="cape" />
		<tag k="ssr:stedsnr" v="925640" />
	</node>
	<node id="-118897" lat="65.038936108" lon="12.6724444498">
		<tag k="alt_name" v="Vintertangen" />
		<tag k="name" v="Tangan" />
		<tag k="natural" v="cape" />
		<tag k="ssr:stedsnr" v="925636" />
	</node>
	<node id="-118894" lat="65.2078527814" lon="12.8672416689">
		<tag k="alt_name:no" v="Skrovadalsvatnet" />
		<tag k="name" v="Skråvadalsvatnet - Skråavanjaevrie" />
		<tag k="name:no" v="Skråvadalsvatnet" />
		<tag k="name:sma" v="Skråavanjaevrie" />
		<tag k="natural" v="water" />
		<tag k="ssr:stedsnr" v="925629" />
		<tag k="water" v="lake" />
	</node>
	<node id="-118893" lat="65.0099722262" lon="12.5610222232">
		<tag k="name" v="Skavlåvatnet" />
		<tag k="natural" v="water" />
		<tag k="ssr:stedsnr" v="925602" />
	</node>
	<node id="-118892" lat="65.1769333291" lon="13.0024888891">
		<tag k="name" v="Nedrevatnet - Spaenjiegaaloenjaevrie" />
		<tag k="name:no" v="Nedrevatnet" />
		<tag k="name:sma" v="Spaenjiegaaloenjaevrie" />
		<tag k="natural" v="water" />
		<tag k="ssr:stedsnr" v="925580" />
		<tag k="water" v="lake" />
	</node>
	<node id="-118889" lat="65.033150001" lon="12.3279305502">
		<tag k="name" v="Fuglvatnan" />
		<tag k="natural" v="water" />
		<tag k="ssr:stedsnr" v="925523" />
		<tag k="water" v="lake" />
	</node>
	<node id="-118879" lat="65.1447638856" lon="12.6589861005">
		<tag k="name" v="Otertjønna" />
		<tag k="natural" v="water" />
		<tag k="ssr:stedsnr" v="925407" />
	</node>
	<node id="-118874" lat="65.1789444449" lon="12.4670305491">
		<tag k="name" v="Merkebekken" />
		<tag k="ssr:stedsnr" v="925344" />
		<tag k="waterway" v="stream" />
	</node>
	<node id="-118872" lat="65.1754916649" lon="12.3701861093">
		<tag k="name" v="Tolåa" />
		<tag k="ssr:stedsnr" v="925336" />
		<tag k="waterway" v="stream" />
	</node>
	<node id="-118871" lat="65.2146250002" lon="12.6186666661">
		<tag k="name" v="Søbergsvatnet" />
		<tag k="natural" v="water" />
		<tag k="ssr:stedsnr" v="925319" />
		<tag k="water" v="lake" />
	</node>
	<node id="-118844" lat="65.0941083353" lon="12.0766027814">
		<tag k="name" v="Lysfjordvatnet" />
		<tag k="natural" v="water" />
		<tag k="ssr:stedsnr" v="925052" />
		<tag k="water" v="lake" />
	</node>
	<node id="-118837" lat="65.1141750031" lon="12.9080527813">
		<tag k="alt_name:no" v="Ringvatnet, nedre" />
		<tag k="name" v="Nedre Ringvatnet - Ringkenvueliejaevrie" />
		<tag k="name:no" v="Nedre Ringvatnet" />
		<tag k="name:sma" v="Ringkenvueliejaevrie" />
		<tag k="natural" v="water" />
		<tag k="ssr:stedsnr" v="924532" />
		<tag k="water" v="lake" />
	</node>
	<node id="-118830" lat="65.0863027812" lon="11.9490194346">
		<tag k="name" v="Kjærstadvatnet" />
		<tag k="natural" v="water" />
		<tag k="ssr:stedsnr" v="924037" />
		<tag k="water" v="lake" />
	</node>
	<node id="-118829" lat="65.2430138918" lon="12.6589916627">
		<tag k="name" v="Storfallet" />
		<tag k="ssr:stedsnr" v="784738" />
		<tag k="waterway" v="rapids" />
	</node>
	<node id="-118818" lat="65.0345361113" lon="12.8188861034">
		<tag k="name" v="Urfossen" />
		<tag k="natural" v="waterfall" />
		<tag k="ssr:stedsnr" v="912036" />
	</node>
	<node id="-118817" lat="65.0737999993" lon="12.5061555464">
		<tag k="name" v="Karivik" />
		<tag k="natural" v="bay" />
		<tag k="ssr:stedsnr" v="906750" />
	</node>
	<node id="-118802" lat="65.1126666692" lon="12.659983341">
		<tag k="name" v="Mellomvasstraumen" />
		<tag k="natural" v="strait" />
		<tag k="ssr:stedsnr" v="906686" />
	</node>
	<node id="-118790" lat="65.0474638877" lon="12.5023611096">
		<tag k="name" v="Horstadneset" />
		<tag k="natural" v="cape" />
		<tag k="ssr:stedsnr" v="906532" />
	</node>
	<node id="-120834" lat="65.2799027808" lon="12.3798555543">
		<tag k="name" v="Fugltjønnan" />
		<tag k="natural" v="water" />
		<tag k="ssr:stedsnr" v="967942" />
	</node>
	<node id="-118443" lat="65.2545527753" lon="12.4709388814">
		<tag k="name" v="Kromelva" />
		<tag k="ssr:stedsnr" v="602215" />
		<tag k="waterway" v="stream" />
	</node>
</osm>
