<?xml version="1.0" encoding="UTF-8"?>
<osm generator="osmapis" version="0.6">
	<node id="-118271" lat="65.1653000006" lon="12.1221833241">
		<tag k="name" v="Langmark" />
		<tag k="place" v="farm" />
		<tag k="ssr:stedsnr" v="500913" />
	</node>
	<node id="-119806" lat="65.078402775" lon="12.2809611063">
		<tag k="alt_name" v="Strand" />
		<tag k="name" v="Aspnesstranda" />
		<tag k="place" v="isolated_dwelling" />
		<tag k="ssr:stedsnr" v="378449" />
	</node>
	<node id="-119293" lat="65.2722746031" lon="12.5448104393">
		<tag k="alt_name" v="Fjellet" />
		<tag k="name" v="Kvatsteinbukta" />
		<tag k="place" v="locality" />
		<tag k="ssr:stedsnr" v="76259" />
	</node>
	<node id="-119722" lat="65.0646277779" lon="12.0945444398">
		<tag k="name" v="Kjesvika" />
		<tag k="place" v="locality" />
		<tag k="ssr:stedsnr" v="358227" />
	</node>
	<node id="-118265" lat="65.1127083301" lon="12.3361444482">
		<tag k="name" v="Grønholmen" />
		<tag k="place" v="farm" />
		<tag k="ssr:stedsnr" v="500467" />
	</node>
	<node id="-118820" lat="65.0989555549" lon="12.3291749934">
		<tag k="name" v="Hildringsaunet" />
		<tag k="place" v="locality" />
		<tag k="ssr:stedsnr" v="764518" />
	</node>
	<node id="-119798" lat="65.1809111147" lon="12.2655388831">
		<tag k="fixme" v="consider place=hamlet" />
		<tag k="name" v="Skjelsviksjøen" />
		<tag k="place" v="village" />
		<tag k="ssr:stedsnr" v="378310" />
	</node>
	<node id="-117749" lat="65.063963892" lon="12.2913527709">
		<tag k="alt_name" v="Myren" />
		<tag k="name" v="Myra" />
		<tag k="place" v="farm" />
		<tag k="ssr:stedsnr" v="439452" />
	</node>
	<node id="-120820" lat="65.1799083315" lon="12.2632555631">
		<tag k="name" v="Nordli" />
		<tag k="place" v="isolated_dwelling" />
		<tag k="ssr:stedsnr" v="967047" />
	</node>
	<node id="-117780" lat="65.1234527735" lon="12.3708916612">
		<tag k="name" v="Øksninga" />
		<tag k="place" v="farm" />
		<tag k="ssr:stedsnr" v="440390" />
	</node>
	<node id="-119281" lat="65.1167055531" lon="11.9970166564">
		<tag k="fixme" v="consider place=hamlet" />
		<tag k="name" v="Nordhorsfjord" />
		<tag k="place" v="village" />
		<tag k="ssr:stedsnr" v="75961" />
	</node>
	<node id="-119280" lat="65.1150499983" lon="11.987750005">
		<tag k="name" v="Hagan" />
		<tag k="place" v="farm" />
		<tag k="ssr:stedsnr" v="75959" />
	</node>
	<node id="-118184" lat="65.1200333291" lon="12.2420944431">
		<tag k="name" v="Strandmo" />
		<tag k="place" v="isolated_dwelling" />
		<tag k="ssr:stedsnr" v="663571" />
	</node>
	<node id="-120297" lat="65.01666064" lon="12.7361091788">
		<tag k="fixme" v="consider place=hamlet" />
		<tag k="name" v="Åbjøra - Diedtjie" />
		<tag k="name:no" v="Åbjøra" />
		<tag k="name:sma" v="Diedtjie" />
		<tag k="place" v="farm" />
		<tag k="ssr:stedsnr" v="621578" />
	</node>
	<node id="-120806" lat="65.2513166661" lon="12.6678444473">
		<tag k="barrier" v="fence" />
		<tag k="name" v="Hestgjerdet" />
		<tag k="ssr:stedsnr" v="966734" />
	</node>
	<node id="-118757" lat="65.1102916701" lon="12.48881388">
		<tag k="name" v="Myra" />
		<tag k="place" v="farm" />
		<tag k="ssr:stedsnr" v="743412" />
	</node>
	<node id="-118019" lat="65.267011114" lon="12.3942916619">
		<tag k="name" v="Olderåsen" />
		<tag k="place" v="isolated_dwelling" />
		<tag k="ssr:stedsnr" v="500271" />
	</node>
	<node id="-119362" lat="65.180588892" lon="12.1252833321">
		<tag k="name" v="Fjordgløtt" />
		<tag k="place" v="farm" />
		<tag k="ssr:stedsnr" v="117689" />
	</node>
	<node id="-119570" lat="65.113199998" lon="11.9854500002">
		<tag k="name" v="Bakkely" />
		<tag k="place" v="farm" />
		<tag k="ssr:stedsnr" v="196949" />
	</node>
	<node id="-118532" lat="65.1163111084" lon="12.2311388873">
		<tag k="name" v="Moen" />
		<tag k="place" v="isolated_dwelling" />
		<tag k="ssr:stedsnr" v="724567" />
	</node>
	<node id="-118010" lat="65.1024916668" lon="11.9776305624">
		<tag k="alt_name" v="Myrvold" />
		<tag k="name" v="Myrvoll" />
		<tag k="place" v="farm" />
		<tag k="ssr:stedsnr" v="500045" />
	</node>
	<node id="-117722" lat="65.1028277775" lon="11.9826416732">
		<tag k="name" v="Sletten" />
		<tag k="place" v="farm" />
		<tag k="ssr:stedsnr" v="297483" />
	</node>
	<node id="-120399" lat="65.1639250022" lon="12.2718083249">
		<tag k="name" v="Nergård" />
		<tag k="place" v="farm" />
		<tag k="ssr:stedsnr" v="782063" />
	</node>
	<node id="-120280" lat="65.0905611147" lon="12.3150333266">
		<tag k="name" v="Hjartøysundet" />
		<tag k="place" v="isolated_dwelling" />
		<tag k="ssr:stedsnr" v="621457" />
	</node>
	<node id="-117668" lat="65.1888111081" lon="12.1650194398">
		<tag k="name" v="Tryggstad" />
		<tag k="place" v="farm" />
		<tag k="ssr:stedsnr" v="178653" />
	</node>
	<node id="-117718" lat="65.1969055599" lon="12.2368194516">
		<tag k="name" v="Sørhaugen" />
		<tag k="place" v="farm" />
		<tag k="ssr:stedsnr" v="297316" />
	</node>
	<node id="-120277" lat="65.1160277748" lon="12.522122229">
		<tag k="name" v="Moen" />
		<tag k="place" v="farm" />
		<tag k="ssr:stedsnr" v="621427" />
	</node>
	<node id="-119665" lat="65.1058212922" lon="12.3264897691">
		<tag k="fixme" v="consider place=hamlet" />
		<tag k="name" v="Hildringen" />
		<tag k="place" v="farm" />
		<tag k="ssr:stedsnr" v="318400" />
	</node>
	<node id="-119630" lat="65.1257055575" lon="12.135024995">
		<tag k="name" v="Bursvikbotn" />
		<tag k="place" v="farm" />
		<tag k="ssr:stedsnr" v="317959" />
	</node>
	<node id="-120274" lat="65.1199038736" lon="12.5337564962">
		<tag k="name" v="Løenget" />
		<tag k="place" v="farm" />
		<tag k="ssr:stedsnr" v="621413" />
	</node>
	<node id="-120272" lat="65.1401284665" lon="12.4687560406">
		<tag k="fixme" v="consider place=hamlet" />
		<tag k="name" v="Reppa" />
		<tag k="place" v="farm" />
		<tag k="ssr:stedsnr" v="621385" />
	</node>
	<node id="-118735" lat="65.1125444469" lon="12.094000007">
		<tag k="fixme" v="consider place=hamlet" />
		<tag k="name" v="Lysfjord" />
		<tag k="place" v="village" />
		<tag k="ssr:stedsnr" v="742009" />
	</node>
	<node id="-120782" lat="65.0742333347" lon="12.3477111195">
		<tag k="name" v="Furumo" />
		<tag k="place" v="isolated_dwelling" />
		<tag k="ssr:stedsnr" v="966286" />
	</node>
	<node id="-117988" lat="65.1010166687" lon="12.4233527883">
		<tag k="alt_name" v="Nordskogan" />
		<tag k="name" v="Nordskogen" />
		<tag k="place" v="farm" />
		<tag k="ssr:stedsnr" v="499327" />
	</node>
	<node id="-120779" lat="65.1980416621" lon="12.2455972318">
		<tag k="name" v="Røytvoll" />
		<tag k="place" v="isolated_dwelling" />
		<tag k="ssr:stedsnr" v="965349" />
	</node>
	<node id="-120841" lat="65.1315028871" lon="12.2540248878">
		<tag k="fixme" v="consider place=hamlet" />
		<tag k="name" v="Kalvika" />
		<tag k="place" v="farm" />
		<tag k="ssr:stedsnr" v="989063" />
	</node>
	<node id="-120264" lat="65.1668138914" lon="12.2832472186">
		<tag k="name" v="Holmstranda" />
		<tag k="place" v="isolated_dwelling" />
		<tag k="ssr:stedsnr" v="621298" />
	</node>
	<node id="-119116" lat="65.2829361149" lon="12.4110861218">
		<tag k="name" v="Myrmarka" />
		<tag k="place" v="locality" />
		<tag k="ssr:stedsnr" v="15241" />
	</node>
	<node id="-119232" lat="65.0743249989" lon="11.9468805549">
		<tag k="name" v="Bogen" />
		<tag k="place" v="farm" />
		<tag k="ssr:stedsnr" v="75052" />
	</node>
	<node id="-120767" lat="65.1514055557" lon="12.2291277688">
		<tag k="name" v="Husmannli" />
		<tag k="place" v="locality" />
		<tag k="ssr:stedsnr" v="964677" />
	</node>
	<node id="-117694" lat="65.0478583332" lon="12.5208055614">
		<tag k="name" v="Åsen" />
		<tag k="place" v="farm" />
		<tag k="ssr:stedsnr" v="197540" />
	</node>
	<node id="-118773" lat="65.0873999961" lon="12.3714999983">
		<tag k="name" v="Nordre Terråk" />
		<tag k="place" v="quarter" />
		<tag k="ssr:stedsnr" v="906324" />
	</node>
	<node id="-119228" lat="65.2550361086" lon="11.6989805557">
		<tag k="fixme" v="consider place=hamlet" />
		<tag k="name" v="Gimsa" />
		<tag k="place" v="farm" />
		<tag k="ssr:stedsnr" v="59049" />
	</node>
	<node id="-119199" lat="65.187880554" lon="12.2615583312">
		<tag k="name" v="Vonstad" />
		<tag k="place" v="isolated_dwelling" />
		<tag k="ssr:stedsnr" v="57054" />
	</node>
	<node id="-120759" lat="65.1922249983" lon="12.2531888794">
		<tag k="name" v="Fiskerosen" />
		<tag k="place" v="farm" />
		<tag k="ssr:stedsnr" v="953721" />
	</node>
	<node id="-118786" lat="65.067141662" lon="12.4673805655">
		<tag k="building" v="industrial" />
		<tag k="name" v="Sylten sag" />
		<tag k="ssr:stedsnr" v="906580" />
	</node>
	<node id="-118852" lat="65.0023805581" lon="12.0896194357">
		<tag k="name" v="Digermulsetra" />
		<tag k="place" v="isolated_dwelling" />
		<tag k="ssr:stedsnr" v="925198" />
	</node>
	<node id="-118707" lat="65.0607083345" lon="12.2063055564">
		<tag k="name" v="Olderskogen" />
		<tag k="place" v="isolated_dwelling" />
		<tag k="ssr:stedsnr" v="906966" />
	</node>
	<node id="-118194" lat="65.102369441" lon="12.0819222218">
		<tag k="name" v="Løvhaug" />
		<tag k="place" v="farm" />
		<tag k="ssr:stedsnr" v="663877" />
	</node>
	<node id="-118675" lat="65.2258472232" lon="12.3678500031">
		<tag k="name" v="Nergarden" />
		<tag k="place" v="farm" />
		<tag k="ssr:stedsnr" v="723812" />
	</node>
	<node id="-119216" lat="65.1859222241" lon="12.1273916709">
		<tag k="name" v="Bortgården" />
		<tag k="place" v="farm" />
		<tag k="ssr:stedsnr" v="57652" />
	</node>
	<node id="-119215" lat="65.0725333315" lon="12.2512611088">
		<tag k="name" v="Nordteigen" />
		<tag k="place" v="locality" />
		<tag k="ssr:stedsnr" v="57582" />
	</node>
	<node id="-118701" lat="65.0215805544" lon="12.1876361158">
		<tag k="name" v="Bakken" />
		<tag k="place" v="farm" />
		<tag k="ssr:stedsnr" v="906882" />
	</node>
	<node id="-119212" lat="65.1181972258" lon="12.2344972178">
		<tag k="name" v="Asphaug" />
		<tag k="place" v="farm" />
		<tag k="ssr:stedsnr" v="57548" />
	</node>
	<node id="-120746" lat="65.1404023405" lon="12.1203749774">
		<tag k="fixme" v="consider place=hamlet" />
		<tag k="name" v="Storheil" />
		<tag k="place" v="farm" />
		<tag k="ssr:stedsnr" v="864987" />
	</node>
	<node id="-119209" lat="65.1378583319" lon="12.2295222301">
		<tag k="name" v="Vollan" />
		<tag k="place" v="farm" />
		<tag k="ssr:stedsnr" v="57491" />
	</node>
	<node id="-119720" lat="65.192863892" lon="12.2495249913">
		<tag k="name" v="Stranda" />
		<tag k="place" v="isolated_dwelling" />
		<tag k="ssr:stedsnr" v="358299" />
	</node>
	<node id="-119719" lat="65.1935499994" lon="12.2489666583">
		<tag k="name" v="Borgen" />
		<tag k="place" v="isolated_dwelling" />
		<tag k="ssr:stedsnr" v="358297" />
	</node>
	<node id="-120740" lat="65.1902265788" lon="12.1687363706">
		<tag k="fixme" v="consider place=hamlet" />
		<tag k="name" v="Hall" />
		<tag k="place" v="farm" />
		<tag k="ssr:stedsnr" v="864921" />
	</node>
	<node id="-119622" lat="65.0854180553" lon="11.9718321427">
		<tag k="fixme" v="consider place=hamlet" />
		<tag k="name" v="Kjærstad" />
		<tag k="place" v="farm" />
		<tag k="ssr:stedsnr" v="317046" />
	</node>
	<node id="-119202" lat="65.1285027742" lon="12.3731916577">
		<tag k="name" v="Nystad" />
		<tag k="place" v="locality" />
		<tag k="ssr:stedsnr" v="57079" />
	</node>
	<node id="-119200" lat="65.0869055569" lon="12.0244361092">
		<tag k="name" v="Hålop" />
		<tag k="place" v="farm" />
		<tag k="ssr:stedsnr" v="57057" />
	</node>
	<node id="-120223" lat="65.0301638871" lon="12.1850111211">
		<tag k="name" v="Skarholdt" />
		<tag k="place" v="farm" />
		<tag k="ssr:stedsnr" v="602869" />
	</node>
	<node id="-119710" lat="65.1267333293" lon="12.2460222203">
		<tag k="name" v="Solvang" />
		<tag k="place" v="farm" />
		<tag k="ssr:stedsnr" v="357508" />
	</node>
	<node id="-119877" lat="65.1243658902" lon="12.3756357858">
		<tag k="fixme" v="consider place=hamlet" />
		<tag k="name" v="Øksninga" />
		<tag k="place" v="farm" />
		<tag k="ssr:stedsnr" v="410178" />
	</node>
	<node id="-119196" lat="65.0436277792" lon="12.1594527814">
		<tag k="name" v="Roparenget" />
		<tag k="place" v="isolated_dwelling" />
		<tag k="ssr:stedsnr" v="56962" />
	</node>
	<node id="-119987" lat="65.1393416695" lon="12.4692444378">
		<tag k="name" v="Reppa" />
		<tag k="place" v="farm" />
		<tag k="ssr:stedsnr" v="523654" />
	</node>
	<node id="-117743" lat="65.0807972354" lon="12.3631253204">
		<tag k="fixme" v="consider place=hamlet" />
		<tag k="name" v="Terråk" />
		<tag k="place" v="farm" />
		<tag k="ssr:stedsnr" v="439392" />
	</node>
	<node id="-119108" lat="65.1318888876" lon="12.324702767">
		<tag k="name" v="Liasjøen" />
		<tag k="place" v="farm" />
		<tag k="ssr:stedsnr" v="15350" />
	</node>
	<node id="-119701" lat="65.2278138899" lon="12.4442666665">
		<tag k="name" v="Skogstutomta" />
		<tag k="place" v="locality" />
		<tag k="ssr:stedsnr" v="357022" />
	</node>
	<node id="-117652" lat="65.0862972223" lon="12.0281472264">
		<tag k="name" v="Hålop" />
		<tag k="place" v="farm" />
		<tag k="ssr:stedsnr" v="178072" />
	</node>
	<node id="-119187" lat="65.2528638847" lon="12.3009111005">
		<tag k="name" v="Lundmo" />
		<tag k="place" v="farm" />
		<tag k="ssr:stedsnr" v="56864" />
	</node>
	<node id="-118162" lat="65.0587444445" lon="12.490350002">
		<tag k="name" v="Øvjemo" />
		<tag k="place" v="isolated_dwelling" />
		<tag k="ssr:stedsnr" v="663486" />
	</node>
	<node id="-120720" lat="65.0347673169" lon="12.5502627218">
		<tag k="fixme" v="consider place=hamlet" />
		<tag k="name" v="Fuglstad" />
		<tag k="place" v="farm" />
		<tag k="ssr:stedsnr" v="864651" />
	</node>
	<node id="-117647" lat="65.2293558209" lon="12.2909180975">
		<tag k="name" v="Sørøya" />
		<tag k="place" v="locality" />
		<tag k="ssr:stedsnr" v="177852" />
	</node>
	<node id="-117646" lat="65.0961305562" lon="12.4072500002">
		<tag k="name" v="Vassås" />
		<tag k="place" v="hamlet" />
		<tag k="ssr:stedsnr" v="177666" />
	</node>
	<node id="-120205" lat="65.1891083321" lon="12.1715416715">
		<tag k="name" v="Heimgården" />
		<tag k="place" v="farm" />
		<tag k="ssr:stedsnr" v="602683" />
	</node>
	<node id="-120716" lat="65.0049305551" lon="12.5249611029">
		<tag k="name" v="Fuglstadsætra" />
		<tag k="place" v="isolated_dwelling" />
		<tag k="ssr:stedsnr" v="864613" />
	</node>
	<node id="-119179" lat="65.1189666702" lon="12.518505547">
		<tag k="name" v="Sjøhaugen" />
		<tag k="place" v="isolated_dwelling" />
		<tag k="ssr:stedsnr" v="56691" />
	</node>
	<node id="-120471" lat="65.0893527755" lon="12.3708888871">
		<tag k="building" v="industrial" />
		<tag k="industrial" v="factory" />
		<tag k="name" v="Bindalsbruket" />
		<tag k="ssr:stedsnr" v="785289" />
	</node>
	<node id="-120199" lat="65.0970722247" lon="12.4070666697">
		<tag k="name" v="Plassen" />
		<tag k="place" v="farm" />
		<tag k="ssr:stedsnr" v="602641" />
	</node>
	<node id="-119867" lat="65.0637472266" lon="12.5353027754">
		<tag k="name" v="Bruvoll" />
		<tag k="place" v="farm" />
		<tag k="ssr:stedsnr" v="379423" />
	</node>
	<node id="-117995" lat="65.0438695617" lon="12.672682751">
		<tag k="fixme" v="consider place=hamlet" />
		<tag k="name" v="Granbostad" />
		<tag k="place" v="farm" />
		<tag k="ssr:stedsnr" v="499401" />
	</node>
	<node id="-120702" lat="65.1574598479" lon="12.6794493786">
		<tag k="name" v="Innerreppen" />
		<tag k="place" v="locality" />
		<tag k="ssr:stedsnr" v="864356" />
	</node>
	<node id="-118651" lat="65.0589250486" lon="12.4752841581">
		<tag k="alt_name" v="Strand" />
		<tag k="fixme" v="consider place=hamlet" />
		<tag k="name" v="Stranda" />
		<tag k="place" v="farm" />
		<tag k="ssr:stedsnr" v="682521" />
	</node>
	<node id="-119674" lat="64.9855833304" lon="12.1839111015">
		<tag k="name" v="Sætermoen" />
		<tag k="place" v="farm" />
		<tag k="ssr:stedsnr" v="318647" />
	</node>
	<node id="-118847" lat="65.0573972226" lon="12.0910666701">
		<tag k="name" v="Oldervika" />
		<tag k="place" v="farm" />
		<tag k="ssr:stedsnr" v="925110" />
	</node>
	<node id="-120696" lat="65.2132998159" lon="12.681257368">
		<tag k="name" v="Søbergslia" />
		<tag k="place" v="locality" />
		<tag k="ssr:stedsnr" v="864277" />
	</node>
	<node id="-119153" lat="65.1306888874" lon="12.2216972203">
		<tag k="name" v="Nystad" />
		<tag k="place" v="farm" />
		<tag k="ssr:stedsnr" v="54546" />
	</node>
	<node id="-118128" lat="65.0846534543" lon="11.9732735793">
		<tag k="name" v="Nordkjærstad" />
		<tag k="place" v="farm" />
		<tag k="ssr:stedsnr" v="660540" />
	</node>
	<node id="-118125" lat="65.1907911565" lon="12.1592921453">
		<tag k="fixme" v="consider place=hamlet" />
		<tag k="name" v="Solstad" />
		<tag k="place" v="farm" />
		<tag k="ssr:stedsnr" v="439929" />
	</node>
	<node id="-118636" lat="65.0391921657" lon="12.0907875844">
		<tag k="alt_name" v="Dybvik" />
		<tag k="fixme" v="consider place=hamlet" />
		<tag k="name" v="Djupvika" />
		<tag k="place" v="farm" />
		<tag k="ssr:stedsnr" v="682155" />
	</node>
	<node id="-120682" lat="65.2592499639" lon="12.3843380628">
		<tag k="fixme" v="consider place=hamlet" />
		<tag k="name" v="Båtneset" />
		<tag k="place" v="farm" />
		<tag k="ssr:stedsnr" v="864138" />
	</node>
	<node id="-117769" lat="65.0956258172" lon="11.9991683646">
		<tag k="alt_name" v="Kjærstadbakken" />
		<tag k="fixme" v="consider place=hamlet" />
		<tag k="name" v="Bakken" />
		<tag k="place" v="farm" />
		<tag k="ssr:stedsnr" v="440054" />
	</node>
	<node id="-119143" lat="65.0559440829" lon="12.2161565255">
		<tag k="fixme" v="consider place=hamlet" />
		<tag k="name" v="Sandvika" />
		<tag k="place" v="farm" />
		<tag k="ssr:stedsnr" v="35486" />
	</node>
	<node id="-120678" lat="65.0608194399" lon="12.213461117">
		<tag k="name" v="Alslia" />
		<tag k="place" v="farm" />
		<tag k="ssr:stedsnr" v="864089" />
	</node>
	<node id="-118117" lat="65.051002775" lon="12.1101583382">
		<tag k="alt_name" v="Langengen" />
		<tag k="name" v="Langenget" />
		<tag k="place" v="farm" />
		<tag k="ssr:stedsnr" v="439086" />
	</node>
	<node id="-119652" lat="65.1827083337" lon="12.3460194379">
		<tag k="fixme" v="multiple name tags, choose one and add the other to alt_name" />
		<tag k="name" v="Husvika;Nyheim" />
		<tag k="place" v="farm" />
		<tag k="ssr:stedsnr" v="318309" />
	</node>
	<node id="-117734" lat="65.0341305521" lon="12.5414138945">
		<tag k="name" v="Sletten" />
		<tag k="place" v="farm" />
		<tag k="ssr:stedsnr" v="297865" />
	</node>
	<node id="-120673" lat="65.0996166644" lon="11.9527333369">
		<tag k="name" v="Heimly" />
		<tag k="place" v="farm" />
		<tag k="ssr:stedsnr" v="864019" />
	</node>
	<node id="-120672" lat="65.1061805547" lon="11.9769916767">
		<tag k="name" v="Kjellvang" />
		<tag k="place" v="farm" />
		<tag k="ssr:stedsnr" v="864017" />
	</node>
	<node id="-120671" lat="65.0992305578" lon="12.0049527872">
		<tag k="alt_name" v="Skjevelnes" />
		<tag k="name" v="Skjevelneset" />
		<tag k="place" v="farm" />
		<tag k="ssr:stedsnr" v="864012" />
	</node>
	<node id="-118245" lat="65.2512222209" lon="12.2893694358">
		<tag k="name" v="Solvang" />
		<tag k="place" v="farm" />
		<tag k="ssr:stedsnr" v="481868" />
	</node>
	<node id="-119610" lat="65.13661489" lon="12.1815460042">
		<tag k="fixme" v="consider place=hamlet" />
		<tag k="name" v="Holten" />
		<tag k="place" v="farm" />
		<tag k="ssr:stedsnr" v="197983" />
	</node>
	<node id="-119130" lat="65.1098361133" lon="12.3288750055">
		<tag k="name" v="Bakken" />
		<tag k="place" v="farm" />
		<tag k="ssr:stedsnr" v="15447" />
	</node>
	<node id="-119305" lat="65.1383777735" lon="12.0160166717">
		<tag k="name" v="Oppdalsmoen" />
		<tag k="place" v="farm" />
		<tag k="ssr:stedsnr" v="76985" />
	</node>
	<node id="-118103" lat="65.0967916642" lon="12.4201805572">
		<tag k="name" v="England" />
		<tag k="place" v="locality" />
		<tag k="ssr:stedsnr" v="420714" />
	</node>
	<node id="-119125" lat="65.1314420318" lon="12.6430315648">
		<tag k="alt_name" v="Urvold" />
		<tag k="fixme" v="consider place=hamlet" />
		<tag k="name" v="Urdvollan" />
		<tag k="place" v="farm" />
		<tag k="ssr:stedsnr" v="15396" />
	</node>
	<node id="-117683" lat="65.2003251743" lon="12.4803824214">
		<tag k="fixme" v="consider place=hamlet" />
		<tag k="name" v="Selfjord" />
		<tag k="place" v="farm" />
		<tag k="ssr:stedsnr" v="197306" />
	</node>
	<node id="-120837" lat="65.1113134938" lon="12.0932105448">
		<tag k="fixme" v="consider place=hamlet" />
		<tag k="name" v="Lysfjord" />
		<tag k="place" v="farm" />
		<tag k="ssr:stedsnr" v="989008" />
	</node>
	<node id="-119631" lat="65.1080527816" lon="11.9953611092">
		<tag k="name" v="Hals" />
		<tag k="place" v="isolated_dwelling" />
		<tag k="ssr:stedsnr" v="318004" />
	</node>
	<node id="-120142" lat="65.1962916632" lon="12.2304583312">
		<tag k="name" v="Sandmoen" />
		<tag k="place" v="farm" />
		<tag k="ssr:stedsnr" v="600305" />
	</node>
	<node id="-118605" lat="65.1152444481" lon="12.5032972225">
		<tag k="name" v="Myrvang" />
		<tag k="place" v="farm" />
		<tag k="ssr:stedsnr" v="663662" />
	</node>
	<node id="-119628" lat="65.2276323409" lon="12.3615579553">
		<tag k="fixme" v="consider place=hamlet" />
		<tag k="name" v="Skotnes" />
		<tag k="place" v="farm" />
		<tag k="ssr:stedsnr" v="318225" />
	</node>
	<node id="-118091" lat="65.0819111079" lon="11.9861833323">
		<tag k="name" v="Åkergård" />
		<tag k="place" v="farm" />
		<tag k="ssr:stedsnr" v="418524" />
	</node>
	<node id="-118602" lat="65.0576138931" lon="12.5357583353">
		<tag k="name" v="Oppgården" />
		<tag k="place" v="farm" />
		<tag k="ssr:stedsnr" v="663505" />
	</node>
	<node id="-119113" lat="65.1182335063" lon="12.4169856837">
		<tag k="fixme" v="consider place=hamlet" />
		<tag k="name" v="Øyå" />
		<tag k="place" v="farm" />
		<tag k="ssr:stedsnr" v="15386" />
	</node>
	<node id="-120135" lat="65.2044249995" lon="12.7718805599">
		<tag k="name" v="Kolsvik kraftlag" />
		<tag k="place" v="farm" />
		<tag k="ssr:stedsnr" v="586191" />
	</node>
	<node id="-120134" lat="65.1264705002" lon="12.1661247375">
		<tag k="alt_name" v="Bursvikbotten;Bursvikbotn" />
		<tag k="fixme" v="consider place=hamlet" />
		<tag k="name" v="Bursvikbotnet" />
		<tag k="place" v="farm" />
		<tag k="ssr:stedsnr" v="573101" />
	</node>
	<node id="-119109" lat="65.1368810205" lon="12.225192206">
		<tag k="fixme" v="consider place=hamlet" />
		<tag k="name" v="Bøkestad" />
		<tag k="place" v="farm" />
		<tag k="ssr:stedsnr" v="15355" />
	</node>
	<node id="-120132" lat="65.0402916623" lon="12.0987333339">
		<tag k="name" v="Neset" />
		<tag k="place" v="locality" />
		<tag k="ssr:stedsnr" v="570835" />
	</node>
	<node id="-117571" lat="65.1314092696" lon="12.2136806498">
		<tag k="fixme" v="consider place=hamlet" />
		<tag k="name" v="Åsaunet" />
		<tag k="place" v="farm" />
		<tag k="ssr:stedsnr" v="115516" />
	</node>
	<node id="-119106" lat="65.1771252615" lon="12.2634893614">
		<tag k="fixme" v="consider place=hamlet" />
		<tag k="name" v="Skreddervika" />
		<tag k="place" v="farm" />
		<tag k="ssr:stedsnr" v="15338" />
	</node>
	<node id="-119105" lat="65.1834283069" lon="12.2623948505">
		<tag k="fixme" v="consider place=hamlet" />
		<tag k="name" v="Aspvika" />
		<tag k="place" v="farm" />
		<tag k="ssr:stedsnr" v="15337" />
	</node>
	<node id="-119104" lat="65.1831305552" lon="12.4569111209">
		<tag k="name" v="Elvan" />
		<tag k="place" v="isolated_dwelling" />
		<tag k="ssr:stedsnr" v="15330" />
	</node>
	<node id="-118589" lat="65.1688333302" lon="12.2719527879">
		<tag k="name" v="Staulaplassen" />
		<tag k="place" v="locality" />
		<tag k="ssr:stedsnr" v="661109" />
	</node>
	<node id="-120123" lat="65.1604239403" lon="11.9877885548">
		<tag k="fixme" v="consider place=hamlet" />
		<tag k="name" v="Otervika" />
		<tag k="place" v="farm" />
		<tag k="ssr:stedsnr" v="560930" />
	</node>
	<node id="-119098" lat="65.1643690759" lon="12.2710914499">
		<tag k="fixme" v="consider place=hamlet" />
		<tag k="name" v="Åkvika" />
		<tag k="place" v="farm" />
		<tag k="ssr:stedsnr" v="15309" />
	</node>
	<node id="-120331" lat="65.1499027757" lon="12.2178194435">
		<tag k="name" v="Skogset" />
		<tag k="place" v="farm" />
		<tag k="ssr:stedsnr" v="621988" />
	</node>
	<node id="-118584" lat="65.1221722191" lon="12.1725055485">
		<tag k="name" v="Kveinsjøen" />
		<tag k="place" v="isolated_dwelling" />
		<tag k="ssr:stedsnr" v="877127" />
	</node>
	<node id="-120631" lat="65.0842194425" lon="11.9978888925">
		<tag k="name" v="Hålop" />
		<tag k="place" v="farm" />
		<tag k="ssr:stedsnr" v="846051" />
	</node>
	<node id="-117557" lat="65.2100916697" lon="12.7690944424">
		<tag k="name" v="Kollsvika" />
		<tag k="place" v="farm" />
		<tag k="ssr:stedsnr" v="257636" />
	</node>
	<node id="-118309" lat="65.0973343332" lon="12.4225811864">
		<tag k="fixme" v="consider place=hamlet" />
		<tag k="name" v="Vassås" />
		<tag k="place" v="farm" />
		<tag k="ssr:stedsnr" v="682479" />
	</node>
	<node id="-117341" lat="65.0593972265" lon="12.2475138936">
		<tag k="name" v="Valvika" />
		<tag k="place" v="isolated_dwelling" />
		<tag k="ssr:stedsnr" v="217462" />
	</node>
	<node id="-120113" lat="65.1371138858" lon="12.0207583262">
		<tag k="name" v="Oppdalsstranda" />
		<tag k="place" v="farm" />
		<tag k="ssr:stedsnr" v="560991" />
	</node>
	<node id="-117550" lat="65.0832111108" lon="12.3509666641">
		<tag k="name" v="Stokkvika" />
		<tag k="place" v="isolated_dwelling" />
		<tag k="ssr:stedsnr" v="257462" />
	</node>
	<node id="-119517" lat="65.1903388906" lon="12.2231000095">
		<tag k="name" v="Fossenget" />
		<tag k="place" v="isolated_dwelling" />
		<tag k="ssr:stedsnr" v="178299" />
	</node>
	<node id="-118060" lat="65.2560583362" lon="12.3013388944">
		<tag k="name" v="Nordheim" />
		<tag k="place" v="farm" />
		<tag k="ssr:stedsnr" v="501141" />
	</node>
	<node id="-120106" lat="64.98343333" lon="12.1858611077">
		<tag k="name" v="Kollsæter" />
		<tag k="place" v="farm" />
		<tag k="ssr:stedsnr" v="560630" />
	</node>
	<node id="-120028" lat="65.0567000004" lon="12.1855305549">
		<tag k="name" v="Stien" />
		<tag k="place" v="isolated_dwelling" />
		<tag k="ssr:stedsnr" v="541920" />
	</node>
	<node id="-120102" lat="65.057991668" lon="12.486738897">
		<tag k="alt_name" v="Øyra" />
		<tag k="name" v="Øra" />
		<tag k="place" v="farm" />
		<tag k="ssr:stedsnr" v="560450" />
	</node>
	<node id="-118053" lat="65.240158334" lon="12.8140250057">
		<tag k="fixme" v="consider place=hamlet" />
		<tag k="name" v="Finnlia" />
		<tag k="place" v="farm" />
		<tag k="ssr:stedsnr" v="500651" />
	</node>
	<node id="-119588" lat="65.0570611098" lon="12.5074972314">
		<tag k="name" v="Svartdalsmoen" />
		<tag k="place" v="farm" />
		<tag k="ssr:stedsnr" v="197483" />
	</node>
	<node id="-119587" lat="65.0570661277" lon="12.5337373035">
		<tag k="fixme" v="consider place=hamlet" />
		<tag k="name" v="Aunet" />
		<tag k="place" v="farm" />
		<tag k="ssr:stedsnr" v="197479" />
	</node>
	<node id="-119301" lat="65.118699175" lon="12.5240564554">
		<tag k="fixme" v="consider place=hamlet" />
		<tag k="name" v="Bangstad" />
		<tag k="place" v="farm" />
		<tag k="ssr:stedsnr" v="76417" />
	</node>
	<node id="-119582" lat="65.2117202639" lon="12.4448977509">
		<tag k="alt_name" v="Trætvika" />
		<tag k="name" v="Trettvika" />
		<tag k="place" v="locality" />
		<tag k="ssr:stedsnr" v="197274" />
	</node>
	<node id="-117441" lat="65.0900083364" lon="12.3853777751">
		<tag k="name" v="Neset" />
		<tag k="place" v="quarter" />
		<tag k="ssr:stedsnr" v="238315" />
	</node>
	<node id="-120092" lat="65.0873444421" lon="12.3881444529">
		<tag k="leisure" v="pitch" />
		<tag k="name" v="Elvaplassen" />
		<tag k="ssr:stedsnr" v="560399" />
	</node>
	<node id="-117530" lat="65.2403833365" lon="12.6936083356">
		<tag k="name" v="Aunvollen" />
		<tag k="place" v="locality" />
		<tag k="ssr:stedsnr" v="257244" />
	</node>
	<node id="-117529" lat="65.2236833335" lon="12.3488944525">
		<tag k="name" v="Sponvika" />
		<tag k="place" v="farm" />
		<tag k="ssr:stedsnr" v="257241" />
	</node>
	<node id="-118423" lat="65.2512694427" lon="12.2869472176">
		<tag k="name" v="Myrvoll" />
		<tag k="place" v="farm" />
		<tag k="ssr:stedsnr" v="561152" />
	</node>
	<node id="-117524" lat="65.0412972216" lon="12.1161888904">
		<tag k="alt_name" v="Juvikenget" />
		<tag k="name" v="Djupvikenget" />
		<tag k="place" v="isolated_dwelling" />
		<tag k="ssr:stedsnr" v="257135" />
	</node>
	<node id="-117806" lat="65.2056951628" lon="12.3234978637">
		<tag k="fixme" v="consider place=hamlet" />
		<tag k="name" v="Stavøya" />
		<tag k="place" v="farm" />
		<tag k="ssr:stedsnr" v="257273" />
	</node>
	<node id="-118546" lat="65.1261166663" lon="12.235416668">
		<tag k="name" v="Vangberg" />
		<tag k="place" v="farm" />
		<tag k="ssr:stedsnr" v="724544" />
	</node>
	<node id="-118307" lat="65.1829083346" lon="12.3611555533">
		<tag k="fixme" v="multiple name tags, choose one and add the other to alt_name" />
		<tag k="name" v="Imøysæter;Sætran" />
		<tag k="place" v="farm" />
		<tag k="ssr:stedsnr" v="682347" />
	</node>
	<node id="-120080" lat="65.005769441" lon="12.1850250073">
		<tag k="name" v="Storvika" />
		<tag k="place" v="isolated_dwelling" />
		<tag k="ssr:stedsnr" v="560178" />
	</node>
	<node id="-118539" lat="65.1836972186" lon="12.1636000066">
		<tag k="name" v="Moen" />
		<tag k="place" v="isolated_dwelling" />
		<tag k="ssr:stedsnr" v="724669" />
	</node>
	<node id="-120586" lat="65.2000472202" lon="12.233027771">
		<tag k="name" v="Solli" />
		<tag k="place" v="isolated_dwelling" />
		<tag k="ssr:stedsnr" v="844299" />
	</node>
	<node id="-119852" lat="65.273436107" lon="12.4176083277">
		<tag k="name" v="Vasskroken" />
		<tag k="place" v="farm" />
		<tag k="ssr:stedsnr" v="379240" />
	</node>
	<node id="-117510" lat="65.226952782" lon="12.3776694443">
		<tag k="alt_name" v="Sommerset" />
		<tag k="name" v="Sommarset" />
		<tag k="place" v="farm" />
		<tag k="ssr:stedsnr" v="75236" />
	</node>
	<node id="-118020" lat="65.2740362081" lon="12.3981819148">
		<tag k="fixme" v="consider place=hamlet" />
		<tag k="name" v="Granåsen" />
		<tag k="place" v="farm" />
		<tag k="ssr:stedsnr" v="500274" />
	</node>
	<node id="-119254" lat="65.0422444422" lon="12.5391111106">
		<tag k="name" v="Sørgården" />
		<tag k="place" v="farm" />
		<tag k="ssr:stedsnr" v="75504" />
	</node>
	<node id="-118530" lat="65.2042887882" lon="12.2365477983">
		<tag k="fixme" v="consider place=hamlet" />
		<tag k="name" v="Sandvik" />
		<tag k="place" v="farm" />
		<tag k="ssr:stedsnr" v="724340" />
	</node>
	<node id="-117919" lat="65.0600027735" lon="12.4874055531">
		<tag k="name" v="Plassen" />
		<tag k="place" v="locality" />
		<tag k="ssr:stedsnr" v="481528" />
	</node>
	<node id="-117953" lat="65.0517138847" lon="12.5460833399">
		<tag k="name" v="Klevhaugen" />
		<tag k="place" v="locality" />
		<tag k="ssr:stedsnr" v="358963" />
	</node>
	<node id="-119550" lat="65.1585749968" lon="12.1268694461">
		<tag k="fixme" v="consider place=hamlet" />
		<tag k="name" v="Litlheil" />
		<tag k="place" v="farm" />
		<tag k="ssr:stedsnr" v="181448" />
	</node>
	<node id="-119549" lat="65.1993355819" lon="11.9610702188">
		<tag k="fixme" v="consider place=hamlet" />
		<tag k="name" v="Gimlinga" />
		<tag k="place" v="farm" />
		<tag k="ssr:stedsnr" v="180044" />
	</node>
	<node id="-120572" lat="65.160425001" lon="12.2203861145">
		<tag k="name" v="Bjørnlia" />
		<tag k="place" v="locality" />
		<tag k="ssr:stedsnr" v="843716" />
	</node>
	<node id="-120570" lat="65.2569138893" lon="12.3269694418">
		<tag k="name" v="Melkarvika" />
		<tag k="place" v="locality" />
		<tag k="ssr:stedsnr" v="843871" />
	</node>
	<node id="-120567" lat="65.1286388858" lon="12.2522805618">
		<tag k="name" v="Østgård" />
		<tag k="place" v="farm" />
		<tag k="ssr:stedsnr" v="843553" />
	</node>
	<node id="-120564" lat="65.1973555588" lon="12.2177527735">
		<tag k="name" v="Djupdalsmoen" />
		<tag k="place" v="locality" />
		<tag k="ssr:stedsnr" v="843302" />
	</node>
	<node id="-118910" lat="65.1596472216" lon="12.1271805594">
		<tag k="alt_name" v="Litlheil" />
		<tag k="name" v="Lilleheil" />
		<tag k="place" v="farm" />
		<tag k="ssr:stedsnr" v="925909" />
	</node>
	<node id="-117489" lat="65.1314388872" lon="12.1778666578">
		<tag k="name" v="Granli" />
		<tag k="place" v="farm" />
		<tag k="ssr:stedsnr" v="239585" />
	</node>
	<node id="-118789" lat="65.0575138906" lon="12.516238898">
		<tag k="name" v="Heimstad" />
		<tag k="place" v="farm" />
		<tag k="ssr:stedsnr" v="906529" />
	</node>
	<node id="-117487" lat="65.1219861113" lon="12.2335055514">
		<tag k="name" v="Utgården" />
		<tag k="place" v="farm" />
		<tag k="ssr:stedsnr" v="239555" />
	</node>
	<node id="-120843" lat="65.1235291465" lon="12.1908318269">
		<tag k="fixme" v="consider place=hamlet" />
		<tag k="name" v="Kveinå" />
		<tag k="place" v="farm" />
		<tag k="ssr:stedsnr" v="989065" />
	</node>
	<node id="-120557" lat="65.2113694479" lon="12.7705472287">
		<tag k="fixme" v="consider place=hamlet" />
		<tag k="name" v="Kollsvika" />
		<tag k="place" v="farm" />
		<tag k="ssr:stedsnr" v="829181" />
	</node>
	<node id="-119019" lat="65.050802777" lon="12.1875444528">
		<tag k="historic" v="shieling" />
		<tag k="name" v="Sandviksætran" />
		<tag k="place" v="locality" />
		<tag k="ssr:stedsnr" v="906926" />
	</node>
	<node id="-117994" lat="65.0396472247" lon="12.3285666587">
		<tag k="alt_name" v="Terråksætran" />
		<tag k="name" v="Terråksæter" />
		<tag k="place" v="isolated_dwelling" />
		<tag k="ssr:stedsnr" v="499399" />
	</node>
	<node id="-119529" lat="65.1212083325" lon="12.2379000076">
		<tag k="name" v="Nergården" />
		<tag k="place" v="farm" />
		<tag k="ssr:stedsnr" v="178546" />
	</node>
	<node id="-118208" lat="65.1972277792" lon="12.2446027824">
		<tag k="name" v="Langåsen" />
		<tag k="place" v="locality" />
		<tag k="ssr:stedsnr" v="479306" />
	</node>
	<node id="-119527" lat="65.0560666686" lon="12.5328666588">
		<tag k="name" v="Heimgården" />
		<tag k="place" v="farm" />
		<tag k="ssr:stedsnr" v="178515" />
	</node>
	<node id="-119540" lat="65.1327654297" lon="12.6332414584">
		<tag k="name" v="Urvollvik" />
		<tag k="place" v="locality" />
		<tag k="ssr:stedsnr" v="178646" />
	</node>
	<node id="-120548" lat="65.0631999959" lon="12.4652805555">
		<tag k="name" v="Rossdalen" />
		<tag k="place" v="farm" />
		<tag k="ssr:stedsnr" v="804471" />
	</node>
	<node id="-118566" lat="65.0671027744" lon="12.5513694422">
		<tag k="name" v="Gjerde" />
		<tag k="place" v="locality" />
		<tag k="ssr:stedsnr" v="724982" />
	</node>
	<node id="-118498" lat="65.1745666646" lon="12.2510083338">
		<tag k="name" v="Nordgård" />
		<tag k="place" v="farm" />
		<tag k="ssr:stedsnr" v="723659" />
	</node>
	<node id="-118497" lat="65.1700861146" lon="12.2533694374">
		<tag k="name" v="Fagermo" />
		<tag k="place" v="farm" />
		<tag k="ssr:stedsnr" v="723657" />
	</node>
	<node id="-119519" lat="65.0249666667" lon="12.7781638873">
		<tag k="name" v="Buåsen" />
		<tag k="place" v="locality" />
		<tag k="ssr:stedsnr" v="178398" />
	</node>
	<node id="-118328" lat="64.9891580436" lon="12.2055883707">
		<tag k="fixme" v="consider place=hamlet" />
		<tag k="name" v="Kolla" />
		<tag k="place" v="farm" />
		<tag k="ssr:stedsnr" v="682724" />
	</node>
	<node id="-120029" lat="65.0581222231" lon="12.1607027693">
		<tag k="name" v="Osen" />
		<tag k="place" v="farm" />
		<tag k="ssr:stedsnr" v="541921" />
	</node>
	<node id="-119004" lat="65.1462722216" lon="12.1993277682">
		<tag k="name" v="Storenget" />
		<tag k="place" v="isolated_dwelling" />
		<tag k="ssr:stedsnr" v="906554" />
	</node>
	<node id="-119515" lat="65.0869416668" lon="12.3851722153">
		<tag k="name" v="Elva" />
		<tag k="place" v="locality" />
		<tag k="ssr:stedsnr" v="178291" />
	</node>
	<node id="-118490" lat="65.1176499953" lon="12.4983138979">
		<tag k="name" v="Bergtun" />
		<tag k="place" v="farm" />
		<tag k="ssr:stedsnr" v="723338" />
	</node>
	<node id="-120025" lat="65.2310305565" lon="12.2921749951">
		<tag k="name" v="Risøy" />
		<tag k="place" v="farm" />
		<tag k="ssr:stedsnr" v="541854" />
	</node>
	<node id="-119332" lat="65.1153944472" lon="12.4972250082">
		<tag k="name" v="Vollen" />
		<tag k="place" v="farm" />
		<tag k="ssr:stedsnr" v="117376" />
	</node>
	<node id="-120022" lat="65.1127083355" lon="12.4890166602">
		<tag k="name" v="Løkroken" />
		<tag k="place" v="isolated_dwelling" />
		<tag k="ssr:stedsnr" v="541692" />
	</node>
	<node id="-119766" lat="65.1255777818" lon="12.2407611047">
		<tag k="name" v="Måsåkran" />
		<tag k="place" v="farm" />
		<tag k="ssr:stedsnr" v="360527" />
	</node>
	<node id="-120020" lat="65.1193888925" lon="12.5264583428">
		<tag k="name" v="Haugen" />
		<tag k="place" v="farm" />
		<tag k="ssr:stedsnr" v="541687" />
	</node>
	<node id="-118669" lat="65.1313916706" lon="12.2249749951">
		<tag k="name" v="Åslia" />
		<tag k="place" v="farm" />
		<tag k="ssr:stedsnr" v="722553" />
	</node>
	<node id="-117458" lat="65.0994305578" lon="12.4238666601">
		<tag k="barrier" v="fence" />
		<tag k="name" v="Tosgjerdet" />
		<tag k="ssr:stedsnr" v="238693" />
	</node>
	<node id="-118480" lat="65.0815861127" lon="12.0704555458">
		<tag k="name" v="Åsheim" />
		<tag k="place" v="isolated_dwelling" />
		<tag k="ssr:stedsnr" v="722866" />
	</node>
	<node id="-120528" lat="65.1139833303" lon="12.233355546">
		<tag k="alt_name" v="Sørheim" />
		<tag k="name" v="Søheim" />
		<tag k="place" v="farm" />
		<tag k="ssr:stedsnr" v="804385" />
	</node>
	<node id="-119160" lat="65.192133334" lon="12.2510972168">
		<tag k="name" v="Gunnheim" />
		<tag k="place" v="isolated_dwelling" />
		<tag k="ssr:stedsnr" v="55297" />
	</node>
	<node id="-117454" lat="65.1182361137" lon="12.5196527833">
		<tag k="name" v="Sjøveien" />
		<tag k="place" v="farm" />
		<tag k="ssr:stedsnr" v="238678" />
	</node>
	<node id="-118989" lat="65.1322472246" lon="12.255494445">
		<tag k="name" v="Nordgård" />
		<tag k="place" v="farm" />
		<tag k="ssr:stedsnr" v="904522" />
	</node>
	<node id="-117450" lat="65.2577333351" lon="11.6970333352">
		<tag k="name" v="Gimsa" />
		<tag k="place" v="farm" />
		<tag k="ssr:stedsnr" v="58054" />
	</node>
	<node id="-120519" lat="65.1548250028" lon="12.0203000071">
		<tag k="name" v="Solbakken" />
		<tag k="place" v="farm" />
		<tag k="ssr:stedsnr" v="803899" />
	</node>
	<node id="-117446" lat="65.0425083304" lon="12.3391111024">
		<tag k="name" v="Bøckmannhytta" />
		<tag k="place" v="isolated_dwelling" />
		<tag k="ssr:stedsnr" v="238384" />
	</node>
	<node id="-119493" lat="65.2183361109" lon="12.4452499908">
		<tag k="name" v="Myrvoll" />
		<tag k="place" v="farm" />
		<tag k="ssr:stedsnr" v="177092" />
	</node>
	<node id="-120002" lat="65.1621361084" lon="12.2695916739">
		<tag k="name" v="Gjerdet" />
		<tag k="place" v="farm" />
		<tag k="ssr:stedsnr" v="540095" />
	</node>
	<node id="-120513" lat="65.0849805576" lon="12.3692333283">
		<tag k="name" v="Terråk" />
		<tag k="place" v="village" />
		<tag k="ssr:stedsnr" v="803442" />
	</node>
	<node id="-118462" lat="65.1323361089" lon="12.2291999962">
		<tag k="name" v="Granly" />
		<tag k="place" v="isolated_dwelling" />
		<tag k="ssr:stedsnr" v="722568" />
	</node>
	<node id="-118973" lat="65.0478000012" lon="12.5024138827">
		<tag k="fixme" v="consider place=hamlet" />
		<tag k="name" v="Åbygda" />
		<tag k="place" v="village" />
		<tag k="ssr:stedsnr" v="864517" />
	</node>
	<node id="-119434" lat="65.0789842619" lon="12.4643340489">
		<tag k="fixme" v="consider place=hamlet" />
		<tag k="name" v="Heimen" />
		<tag k="place" v="farm" />
		<tag k="ssr:stedsnr" v="136476" />
	</node>
	<node id="-117946" lat="65.2105611126" lon="12.2130000071">
		<tag k="name" v="Løvoll" />
		<tag k="place" v="farm" />
		<tag k="ssr:stedsnr" v="358314" />
	</node>
	<node id="-120533" lat="65.1215169831" lon="12.24256876">
		<tag k="fixme" v="consider place=hamlet" />
		<tag k="name" v="Vikestad" />
		<tag k="place" v="farm" />
		<tag k="ssr:stedsnr" v="804395" />
	</node>
	<node id="-117352" lat="65.0531919707" lon="12.1407700508">
		<tag k="fixme" v="consider place=hamlet" />
		<tag k="name" v="Horsberg" />
		<tag k="place" v="farm" />
		<tag k="ssr:stedsnr" v="15121" />
	</node>
	<node id="-117941" lat="65.2182138896" lon="12.4439083382">
		<tag k="name" v="Nygård" />
		<tag k="place" v="farm" />
		<tag k="ssr:stedsnr" v="339557" />
	</node>
	<node id="-119476" lat="65.1958138861" lon="12.2413027792">
		<tag k="name" v="Storgjerdet" />
		<tag k="place" v="farm" />
		<tag k="ssr:stedsnr" v="176290" />
	</node>
	<node id="-118586" lat="65.1023611082" lon="11.9635416565">
		<tag k="name" v="Staulan" />
		<tag k="place" v="farm" />
		<tag k="ssr:stedsnr" v="660511" />
	</node>
	<node id="-119985" lat="65.1840800319" lon="12.625659905">
		<tag k="alt_name" v="Mehammeren" />
		<tag k="name" v="Mehammaren" />
		<tag k="place" v="locality" />
		<tag k="ssr:stedsnr" v="439289" />
	</node>
	<node id="-118447" lat="65.1162361069" lon="12.4986694486">
		<tag k="name" v="Oppgarden" />
		<tag k="place" v="farm" />
		<tag k="ssr:stedsnr" v="602363" />
	</node>
	<node id="-119981" lat="65.1686000007" lon="12.2564138863">
		<tag k="name" v="Buenget" />
		<tag k="place" v="farm" />
		<tag k="ssr:stedsnr" v="439274" />
	</node>
	<node id="-120021" lat="65.1137027748" lon="12.49258611">
		<tag k="name" v="Hatlan" />
		<tag k="place" v="farm" />
		<tag k="ssr:stedsnr" v="541691" />
	</node>
	<node id="-120488" lat="65.1897611076" lon="12.1520416722">
		<tag k="name" v="Torvhaugan" />
		<tag k="place" v="farm" />
		<tag k="ssr:stedsnr" v="785662" />
	</node>
	<node id="-119461" lat="65.1270416688" lon="12.2330388888">
		<tag k="amenity" v="school" />
		<tag k="name" v="Bindalseidet skole" />
		<tag k="ssr:stedsnr" v="175537" />
	</node>
	<node id="-117923" lat="65.1850722247" lon="12.1639305564">
		<tag k="name" v="Fredheimen" />
		<tag k="place" v="isolated_dwelling" />
		<tag k="ssr:stedsnr" v="481679" />
	</node>
	<node id="-118018" lat="65.218860765" lon="12.446425538">
		<tag k="fixme" v="consider place=hamlet" />
		<tag k="name" v="Setran" />
		<tag k="place" v="farm" />
		<tag k="ssr:stedsnr" v="500267" />
	</node>
	<node id="-117401" lat="65.2269472238" lon="12.3640722241">
		<tag k="name" v="Oppgarden" />
		<tag k="place" v="farm" />
		<tag k="ssr:stedsnr" v="54858" />
	</node>
	<node id="-119447" lat="65.1508583321" lon="12.0214888935">
		<tag k="name" v="Tingstad" />
		<tag k="place" v="farm" />
		<tag k="ssr:stedsnr" v="136892" />
	</node>
	<node id="-118934" lat="65.2439194437" lon="12.2904388909">
		<tag k="name" v="Storvika" />
		<tag k="place" v="farm" />
		<tag k="ssr:stedsnr" v="803203" />
	</node>
	<node id="-117485" lat="65.1419888887" lon="12.2066944372">
		<tag k="name" v="Kalvikenget" />
		<tag k="place" v="isolated_dwelling" />
		<tag k="ssr:stedsnr" v="239520" />
	</node>
	<node id="-119503" lat="65.1597472208" lon="12.1800388837">
		<tag k="name" v="Fjellgården" />
		<tag k="place" v="locality" />
		<tag k="ssr:stedsnr" v="177779" />
	</node>
	<node id="-117393" lat="65.1936361145" lon="12.2428555532">
		<tag k="name" v="Fagervoll" />
		<tag k="place" v="farm" />
		<tag k="ssr:stedsnr" v="237317" />
	</node>
	<node id="-119952" lat="65.250463889" lon="12.2944249927">
		<tag k="name" v="Nyrud" />
		<tag k="place" v="locality" />
		<tag k="ssr:stedsnr" v="421871" />
	</node>
	<node id="-118927" lat="65.1831999958" lon="12.124197227">
		<tag k="fixme" v="consider place=hamlet" />
		<tag k="name" v="Holm" />
		<tag k="place" v="village" />
		<tag k="ssr:stedsnr" v="925942" />
	</node>
	<node id="-119438" lat="65.0501354869" lon="12.5086243784">
		<tag k="alt_name" v="Horstad" />
		<tag k="fixme" v="consider place=hamlet" />
		<tag k="name" v="Hårstad" />
		<tag k="place" v="farm" />
		<tag k="ssr:stedsnr" v="136509" />
	</node>
	<node id="-117613" lat="65.1255250033" lon="12.2333694387">
		<tag k="fixme" v="consider place=hamlet" />
		<tag k="name" v="Bindalseidet" />
		<tag k="place" v="village" />
		<tag k="ssr:stedsnr" v="136411" />
	</node>
	<node id="-119436" lat="65.0621415419" lon="12.4793099035">
		<tag k="alt_name" v="Sylten" />
		<tag k="fixme" v="consider place=hamlet" />
		<tag k="name" v="Sylta" />
		<tag k="place" v="farm" />
		<tag k="ssr:stedsnr" v="136481" />
	</node>
	<node id="-118978" lat="65.1228805541" lon="12.1211555536">
		<tag k="name" v="Lian" />
		<tag k="place" v="isolated_dwelling" />
		<tag k="ssr:stedsnr" v="877106" />
	</node>
	<node id="-120458" lat="65.0714583288" lon="12.4605638912">
		<tag k="name" v="Finnheimen" />
		<tag k="place" v="locality" />
		<tag k="ssr:stedsnr" v="785532" />
	</node>
	<node id="-118921" lat="65.1572027753" lon="12.0221694411">
		<tag k="name" v="Myre" />
		<tag k="place" v="farm" />
		<tag k="ssr:stedsnr" v="925926" />
	</node>
	<node id="-119944" lat="65.123380555" lon="12.2328777748">
		<tag k="name" v="Nordli" />
		<tag k="place" v="isolated_dwelling" />
		<tag k="ssr:stedsnr" v="421555" />
	</node>
	<node id="-117895" lat="65.2260972252" lon="12.3710694528">
		<tag k="name" v="Bakken" />
		<tag k="place" v="isolated_dwelling" />
		<tag k="ssr:stedsnr" v="479846" />
	</node>
	<node id="-120745" lat="65.1285000045" lon="12.0154916645">
		<tag k="name" v="Granheim" />
		<tag k="place" v="farm" />
		<tag k="ssr:stedsnr" v="864969" />
	</node>
	<node id="-119429" lat="65.116583728" lon="12.4969163259">
		<tag k="fixme" v="consider place=hamlet" />
		<tag k="name" v="Helstad" />
		<tag k="place" v="farm" />
		<tag k="ssr:stedsnr" v="136443" />
	</node>
	<node id="-118916" lat="65.1457595079" lon="12.0196863993">
		<tag k="fixme" v="consider place=hamlet" />
		<tag k="name" v="Oppdal" />
		<tag k="place" v="farm" />
		<tag k="ssr:stedsnr" v="925917" />
	</node>
	<node id="-117782" lat="65.1392611068" lon="12.5102916626">
		<tag k="building" v="industrial" />
		<tag k="name" v="Reppasaga" />
		<tag k="ssr:stedsnr" v="440400" />
	</node>
	<node id="-119937" lat="65.0819138874" lon="12.362491677">
		<tag k="building" v="commercial" />
		<tag k="name" v="Terråkgård" />
		<tag k="ssr:stedsnr" v="421288" />
	</node>
	<node id="-120447" lat="65.1152999975" lon="12.5855388803">
		<tag k="barrier" v="fence" />
		<tag k="name" v="Reingaran" />
		<tag k="ssr:stedsnr" v="784612" />
	</node>
	<node id="-119934" lat="65.0515055518" lon="12.5107055619">
		<tag k="name" v="Nordgården" />
		<tag k="place" v="locality" />
		<tag k="ssr:stedsnr" v="421501" />
	</node>
	<node id="-118396" lat="65.1021749987" lon="11.9621833326">
		<tag k="name" v="Fagerstrand" />
		<tag k="place" v="farm" />
		<tag k="ssr:stedsnr" v="560019" />
	</node>
	<node id="-118634" lat="65.0172709463" lon="12.193764186">
		<tag k="fixme" v="consider place=hamlet" />
		<tag k="name" v="Forneset" />
		<tag k="place" v="farm" />
		<tag k="ssr:stedsnr" v="682207" />
	</node>
	<node id="-119231" lat="65.1049027814" lon="11.9940250047">
		<tag k="fixme" v="consider place=hamlet" />
		<tag k="name" v="Sørhorsfjord" />
		<tag k="place" v="village" />
		<tag k="ssr:stedsnr" v="75017" />
	</node>
	<node id="-119316" lat="65.2006805515" lon="12.2390083416">
		<tag k="name" v="Fredly" />
		<tag k="place" v="farm" />
		<tag k="ssr:stedsnr" v="115333" />
	</node>
	<node id="-117366" lat="65.1047555589" lon="11.9987611057">
		<tag k="amenity" v="school" />
		<tag k="name" v="Kjella skole" />
		<tag k="ssr:stedsnr" v="224001" />
	</node>
	<node id="-118389" lat="65.0713000015" lon="12.2435666763">
		<tag k="name" v="Fellesteigen" />
		<tag k="place" v="locality" />
		<tag k="ssr:stedsnr" v="299629" />
	</node>
	<node id="-119250" lat="65.0548416663" lon="12.5141861118">
		<tag k="name" v="Kvernmoen" />
		<tag k="place" v="farm" />
		<tag k="ssr:stedsnr" v="75464" />
	</node>
	<node id="-118291" lat="65.0767249959" lon="12.0660611005">
		<tag k="name" v="Kjella" />
		<tag k="place" v="farm" />
		<tag k="ssr:stedsnr" v="682097" />
	</node>
	<node id="-117522" lat="65.0891472202" lon="12.0260194468">
		<tag k="name" v="Hålop" />
		<tag k="place" v="farm" />
		<tag k="ssr:stedsnr" v="257072" />
	</node>
	<node id="-117357" lat="65.1313339496" lon="12.3309221608">
		<tag k="alt_name" v="Lien" />
		<tag k="fixme" v="consider place=hamlet" />
		<tag k="name" v="Lia" />
		<tag k="place" v="farm" />
		<tag k="ssr:stedsnr" v="15411" />
	</node>
	<node id="-119915" lat="65.1181000013" lon="12.5134388813">
		<tag k="name" v="Myran" />
		<tag k="place" v="farm" />
		<tag k="ssr:stedsnr" v="420701" />
	</node>
	<node id="-117864" lat="65.0482111139" lon="12.1745000089">
		<tag k="name" v="Hesthagan" />
		<tag k="place" v="isolated_dwelling" />
		<tag k="ssr:stedsnr" v="299914" />
	</node>
	<node id="-118887" lat="65.0616912502" lon="12.2175985213">
		<tag k="fixme" v="consider place=hamlet" />
		<tag k="name" v="Alslia" />
		<tag k="place" v="farm" />
		<tag k="ssr:stedsnr" v="925510" />
	</node>
	<node id="-118207" lat="65.1976222221" lon="12.2474277806">
		<tag k="name" v="Villaen" />
		<tag k="place" v="isolated_dwelling" />
		<tag k="ssr:stedsnr" v="479303" />
	</node>
	<node id="-120454" lat="65.1718277812" lon="12.2423805478">
		<tag k="name" v="Hagan" />
		<tag k="place" v="farm" />
		<tag k="ssr:stedsnr" v="784692" />
	</node>
	<node id="-118368" lat="65.1180722229" lon="12.2373333251">
		<tag k="name" v="Nyheimen" />
		<tag k="place" v="farm" />
		<tag k="ssr:stedsnr" v="542565" />
	</node>
	<node id="-120415" lat="65.1991111141" lon="12.243380549">
		<tag k="name" v="Nyheimen" />
		<tag k="place" v="farm" />
		<tag k="ssr:stedsnr" v="783284" />
	</node>
	<node id="-117342" lat="65.1176361116" lon="12.4957333299">
		<tag k="name" v="Helstadløkken" />
		<tag k="place" v="farm" />
		<tag k="ssr:stedsnr" v="218529" />
	</node>
	<node id="-120421" lat="65.1970499958" lon="12.2395277726">
		<tag k="name" v="Haugen" />
		<tag k="place" v="isolated_dwelling" />
		<tag k="ssr:stedsnr" v="783281" />
	</node>
	<node id="-119388" lat="65.0456284867" lon="12.5405488242">
		<tag k="fixme" v="consider place=hamlet" />
		<tag k="name" v="Skarstad" />
		<tag k="place" v="farm" />
		<tag k="ssr:stedsnr" v="135471" />
	</node>
	<node id="-119857" lat="65.1305666691" lon="12.2547388862">
		<tag k="name" v="Kalvika" />
		<tag k="place" v="hamlet" />
		<tag k="ssr:stedsnr" v="379312" />
	</node>
	<node id="-119516" lat="65.0915027805" lon="12.3363388929">
		<tag k="name" v="Hjartøya" />
		<tag k="place" v="farm" />
		<tag k="ssr:stedsnr" v="178295" />
	</node>
	<node id="-117617" lat="65.1739947614" lon="12.2457076818">
		<tag k="fixme" v="consider place=hamlet" />
		<tag k="name" v="Skjelsvika" />
		<tag k="place" v="farm" />
		<tag k="ssr:stedsnr" v="136343" />
	</node>
	<node id="-119891" lat="65.1645861072" lon="12.2697388881">
		<tag k="name" v="Bakkejord" />
		<tag k="place" v="farm" />
		<tag k="ssr:stedsnr" v="419086" />
	</node>
	<node id="-117944" lat="65.1657416685" lon="12.2751138817">
		<tag k="name" v="Skogly" />
		<tag k="place" v="farm" />
		<tag k="ssr:stedsnr" v="358120" />
	</node>
	<node id="-117837" lat="65.250569941" lon="12.3050989965">
		<tag k="fixme" v="consider place=hamlet" />
		<tag k="name" v="Gaupa" />
		<tag k="place" v="farm" />
		<tag k="ssr:stedsnr" v="258163" />
	</node>
	<node id="-118348" lat="65.0756999964" lon="12.0703694544">
		<tag k="name" v="Skogheim" />
		<tag k="place" v="isolated_dwelling" />
		<tag k="ssr:stedsnr" v="540839" />
	</node>
	<node id="-119371" lat="65.2256222199" lon="12.3615722208">
		<tag k="name" v="Haugen" />
		<tag k="place" v="farm" />
		<tag k="ssr:stedsnr" v="117859" />
	</node>
	<node id="-120394" lat="65.1881166703" lon="12.1476499899">
		<tag k="name" v="Gjerdet" />
		<tag k="place" v="isolated_dwelling" />
		<tag k="ssr:stedsnr" v="756102" />
	</node>
	<node id="-117833" lat="65.1794527803" lon="12.1232388829">
		<tag k="name" v="Ørnhagen" />
		<tag k="place" v="farm" />
		<tag k="ssr:stedsnr" v="257928" />
	</node>
	<node id="-119879" lat="65.0846944473" lon="11.9892972168">
		<tag k="alt_name" v="Nordaunet" />
		<tag k="name" v="Nordaune" />
		<tag k="place" v="farm" />
		<tag k="ssr:stedsnr" v="439030" />
	</node>
	<node id="-120390" lat="65.1609333308" lon="12.0192833392">
		<tag k="name" v="Kjellsand" />
		<tag k="place" v="farm" />
		<tag k="ssr:stedsnr" v="743896" />
	</node>
	<node id="-118853" lat="65.2497927064" lon="12.4438178598">
		<tag k="fixme" v="consider place=hamlet" />
		<tag k="name" v="Eidet" />
		<tag k="place" v="farm" />
		<tag k="ssr:stedsnr" v="925224" />
	</node>
	<node id="-119876" lat="65.076736111" lon="12.0660638916">
		<tag k="name" v="Nystad" />
		<tag k="place" v="farm" />
		<tag k="ssr:stedsnr" v="399456" />
	</node>
	<node id="-119430" lat="65.0729527801" lon="12.2632555465">
		<tag k="name" v="Alslimoen" />
		<tag k="place" v="isolated_dwelling" />
		<tag k="ssr:stedsnr" v="136451" />
	</node>
	<node id="-119874" lat="65.1342694472" lon="12.0112416718">
		<tag k="name" v="Heimtun" />
		<tag k="place" v="farm" />
		<tag k="ssr:stedsnr" v="379958" />
	</node>
	<node id="-119361" lat="65.1895275177" lon="12.1581555824">
		<tag k="name" v="Solstad" />
		<tag k="place" v="farm" />
		<tag k="ssr:stedsnr" v="117685" />
	</node>
	<node id="-119360" lat="65.1871444459" lon="12.1725999959">
		<tag k="name" v="Sørgården" />
		<tag k="place" v="farm" />
		<tag k="ssr:stedsnr" v="117683" />
	</node>
	<node id="-119648" lat="65.199800055" lon="12.242208961">
		<tag k="fixme" v="consider place=hamlet" />
		<tag k="name" v="Røytvoll" />
		<tag k="place" v="farm" />
		<tag k="ssr:stedsnr" v="318277" />
	</node>
	<node id="-118846" lat="65.0685194403" lon="11.92271389">
		<tag k="alt_name" v="Sætervik" />
		<tag k="name" v="Sætervika" />
		<tag k="place" v="isolated_dwelling" />
		<tag k="ssr:stedsnr" v="925094" />
	</node>
	<node id="-117429" lat="65.0595472245" lon="12.2740194447">
		<tag k="name" v="Saltbunesset" />
		<tag k="place" v="locality" />
		<tag k="ssr:stedsnr" v="238280" />
	</node>
	<node id="-120379" lat="65.1025750045" lon="11.9879555532">
		<tag k="name" v="Heimstad" />
		<tag k="place" v="farm" />
		<tag k="ssr:stedsnr" v="743452" />
	</node>
	<node id="-118842" lat="65.1042583374" lon="11.9538694485">
		<tag k="name" v="Nordli" />
		<tag k="place" v="farm" />
		<tag k="ssr:stedsnr" v="925037" />
	</node>
	<node id="-119647" lat="65.1978333309" lon="12.2261694489">
		<tag k="name" v="Steinbekklia" />
		<tag k="place" v="farm" />
		<tag k="ssr:stedsnr" v="318276" />
	</node>
	<node id="-119352" lat="65.1195722226" lon="12.521513895">
		<tag k="name" v="Spansklien" />
		<tag k="place" v="farm" />
		<tag k="ssr:stedsnr" v="117663" />
	</node>
	<node id="-117476" lat="65.0887761202" lon="12.0222743826">
		<tag k="fixme" v="consider place=hamlet" />
		<tag k="name" v="Hålop" />
		<tag k="place" v="farm" />
		<tag k="ssr:stedsnr" v="239058" />
	</node>
	<node id="-120373" lat="65.1358113985" lon="12.3375066674">
		<tag k="alt_name" v="Skårn" />
		<tag k="fixme" v="consider place=hamlet" />
		<tag k="name" v="Skåren" />
		<tag k="place" v="farm" />
		<tag k="ssr:stedsnr" v="743352" />
	</node>
	<node id="-117630" lat="65.2099472259" lon="12.7684222231">
		<tag k="name" v="Kollsvika" />
		<tag k="place" v="farm" />
		<tag k="ssr:stedsnr" v="161205" />
	</node>
	<node id="-118321" lat="65.0550838172" lon="12.2463724777">
		<tag k="fixme" v="consider place=hamlet" />
		<tag k="name" v="Breivika" />
		<tag k="place" v="farm" />
		<tag k="ssr:stedsnr" v="682549" />
	</node>
	<node id="-118320" lat="65.0385111088" lon="12.5478833224">
		<tag k="alt_name" v="Blinnes" />
		<tag k="name" v="Blindneset" />
		<tag k="place" v="farm" />
		<tag k="ssr:stedsnr" v="682542" />
	</node>
	<node id="-118792" lat="65.1370777822" lon="12.223100002">
		<tag k="name" v="Dalmo" />
		<tag k="place" v="farm" />
		<tag k="ssr:stedsnr" v="906551" />
	</node>
	<node id="-120366" lat="65.0447480354" lon="12.1492473896">
		<tag k="fixme" v="consider place=hamlet" />
		<tag k="name" v="Årsand" />
		<tag k="place" v="farm" />
		<tag k="ssr:stedsnr" v="743149" />
	</node>
	<node id="-119853" lat="65.2727794895" lon="12.429729119">
		<tag k="fixme" v="consider place=hamlet" />
		<tag k="name" v="Hardangen" />
		<tag k="place" v="farm" />
		<tag k="ssr:stedsnr" v="379243" />
	</node>
	<node id="-120364" lat="65.1358416638" lon="12.5901611009">
		<tag k="name" v="Urdeidet" />
		<tag k="place" v="isolated_dwelling" />
		<tag k="ssr:stedsnr" v="743392" />
	</node>
	<node id="-118315" lat="65.083688889" lon="12.866441661">
		<tag k="name" v="Klarem" />
		<tag k="place" v="locality" />
		<tag k="ssr:stedsnr" v="682561" />
	</node>
	<node id="-118313" lat="65.1296333293" lon="12.3766083415">
		<tag k="name" v="Dalen" />
		<tag k="place" v="farm" />
		<tag k="ssr:stedsnr" v="682393" />
	</node>
	<node id="-117800" lat="65.2308848559" lon="12.4320387288">
		<tag k="alt_name" v="Heimark" />
		<tag k="fixme" v="consider place=hamlet" />
		<tag k="name" v="Hesimarka" />
		<tag k="place" v="farm" />
		<tag k="ssr:stedsnr" v="257255" />
	</node>
	<node id="-118823" lat="65.13091944" lon="12.251430565">
		<tag k="name" v="Sørgård" />
		<tag k="place" v="farm" />
		<tag k="ssr:stedsnr" v="782516" />
	</node>
	<node id="-120457" lat="65.1635194426" lon="12.1860555618">
		<tag k="name" v="Gammelfjellgården" />
		<tag k="place" v="locality" />
		<tag k="ssr:stedsnr" v="784774" />
	</node>
	<node id="-119845" lat="65.0987611082" lon="12.0631833315">
		<tag k="name" v="Gårdsete" />
		<tag k="place" v="farm" />
		<tag k="ssr:stedsnr" v="379034" />
	</node>
	<node id="-118308" lat="65.0978861074" lon="12.4100499962">
		<tag k="name" v="Solheim" />
		<tag k="place" v="farm" />
		<tag k="ssr:stedsnr" v="682476" />
	</node>
	<node id="-118819" lat="65.0674027768" lon="12.3056305566">
		<tag k="name" v="Bogen" />
		<tag k="place" v="isolated_dwelling" />
		<tag k="ssr:stedsnr" v="763497" />
	</node>
	<node id="-118306" lat="65.1663666706" lon="12.2387416642">
		<tag k="name" v="Vesterheim" />
		<tag k="place" v="farm" />
		<tag k="ssr:stedsnr" v="682338" />
	</node>
	<node id="-119841" lat="65.1229500002" lon="12.1967611082">
		<tag k="fixme" v="consider place=hamlet" />
		<tag k="name" v="Kveinå" />
		<tag k="old_name" v="Kveina" />
		<tag k="place" v="village" />
		<tag k="ssr:stedsnr" v="378945" />
	</node>
	<node id="-117790" lat="65.1179749968" lon="12.5081833359">
		<tag k="name" v="Aunvikmoen" />
		<tag k="place" v="farm" />
		<tag k="ssr:stedsnr" v="443787" />
	</node>
	<node id="-119837" lat="65.2075525306" lon="12.2154481331">
		<tag k="fixme" v="consider place=hamlet" />
		<tag k="name" v="Skauvika" />
		<tag k="place" v="farm" />
		<tag k="ssr:stedsnr" v="378939" />
	</node>
	<node id="-118299" lat="65.1876832388" lon="12.4098646926">
		<tag k="fixme" v="consider place=hamlet" />
		<tag k="name" v="Seterneset" />
		<tag k="place" v="farm" />
		<tag k="ssr:stedsnr" v="682279" />
	</node>
	<node id="-118297" lat="65.2757500012" lon="12.4211999935">
		<tag k="name" v="Høgli" />
		<tag k="place" v="farm" />
		<tag k="ssr:stedsnr" v="682268" />
	</node>
	<node id="-117819" lat="65.1605777808" lon="12.2298722326">
		<tag k="name" v="Grønlia" />
		<tag k="place" v="farm" />
		<tag k="ssr:stedsnr" v="257308" />
	</node>
	<node id="-120343" lat="65.08105599" lon="11.9782875269">
		<tag k="alt_name" v="Aunet" />
		<tag k="fixme" v="consider place=hamlet" />
		<tag k="name" v="Aune" />
		<tag k="place" v="farm" />
		<tag k="ssr:stedsnr" v="742038" />
	</node>
	<node id="-118806" lat="65.1735999981" lon="12.2461555485">
		<tag k="name" v="Sørgård" />
		<tag k="place" v="isolated_dwelling" />
		<tag k="ssr:stedsnr" v="906696" />
	</node>
	<node id="-119317" lat="65.1025944422" lon="11.9879972172">
		<tag k="name" v="Heimstad" />
		<tag k="place" v="farm" />
		<tag k="ssr:stedsnr" v="115493" />
	</node>
	<node id="-118804" lat="65.1194138851" lon="12.5125944456">
		<tag k="name" v="Sjybergan" />
		<tag k="place" v="isolated_dwelling" />
		<tag k="ssr:stedsnr" v="906690" />
	</node>
	<node id="-120339" lat="65.1253194447" lon="12.3712722143">
		<tag k="name" v="Øksninga" />
		<tag k="place" v="farm" />
		<tag k="ssr:stedsnr" v="653171" />
	</node>
	<node id="-120337" lat="65.1400416663" lon="12.4697972231">
		<tag k="name" v="Reppa" />
		<tag k="place" v="farm" />
		<tag k="ssr:stedsnr" v="644613" />
	</node>
	<node id="-120845" lat="65.122909659" lon="12.7202846028">
		<tag k="name" v="Glømmen" />
		<tag k="place" v="locality" />
		<tag k="ssr:stedsnr" v="989074" />
	</node>
	<node id="-120844" lat="65.1231092028" lon="12.2132595342">
		<tag k="fixme" v="consider place=hamlet" />
		<tag k="name" v="Røttingen" />
		<tag k="place" v="farm" />
		<tag k="ssr:stedsnr" v="989072" />
	</node>
	<node id="-117771" lat="65.0954583365" lon="12.0877916718">
		<tag k="name" v="Amundslia" />
		<tag k="place" v="isolated_dwelling" />
		<tag k="ssr:stedsnr" v="440085" />
	</node>
	<node id="-120842" lat="65.1492466902" lon="12.2036017523">
		<tag k="name" v="Mark" />
		<tag k="place" v="locality" />
		<tag k="ssr:stedsnr" v="989064" />
	</node>
	<node id="-118793" lat="65.1467416634" lon="12.2141861163">
		<tag k="name" v="Kleivenget" />
		<tag k="place" v="isolated_dwelling" />
		<tag k="ssr:stedsnr" v="906552" />
	</node>
	<node id="-120840" lat="65.1939069449" lon="12.154562152">
		<tag k="name" v="Skaret" />
		<tag k="place" v="farm" />
		<tag k="ssr:stedsnr" v="989062" />
	</node>
	<node id="-119070" lat="65.0804361155" lon="11.9611249985">
		<tag k="name" v="Berg" />
		<tag k="place" v="farm" />
		<tag k="ssr:stedsnr" v="14049" />
	</node>
	<node id="-120838" lat="65.1808634431" lon="12.1220929683">
		<tag k="fixme" v="consider place=hamlet" />
		<tag k="name" v="Holm" />
		<tag k="place" v="farm" />
		<tag k="ssr:stedsnr" v="989010" />
	</node>
	<node id="-120325" lat="65.1285638892" lon="12.1990527703">
		<tag k="fixme" v="multiple name tags, choose one and add the other to alt_name" />
		<tag k="name" v="Saglia;Åsaunmoen" />
		<tag k="place" v="farm" />
		<tag k="ssr:stedsnr" v="621949" />
	</node>
	<node id="-120836" lat="65.1194918084" lon="12.0040395873">
		<tag k="fixme" v="consider place=hamlet" />
		<tag k="name" v="Nordhorsfjord" />
		<tag k="place" v="farm" />
		<tag k="ssr:stedsnr" v="989007" />
	</node>
	<node id="-120835" lat="65.1041665615" lon="11.992629284">
		<tag k="fixme" v="consider place=hamlet" />
		<tag k="name" v="Sørhorsfjord" />
		<tag k="place" v="farm" />
		<tag k="ssr:stedsnr" v="989006" />
	</node>
	<node id="-119810" lat="65.0373890466" lon="12.5254008402">
		<tag k="fixme" v="consider place=hamlet" />
		<tag k="name" v="Gautmoen" />
		<tag k="place" v="farm" />
		<tag k="ssr:stedsnr" v="378496" />
	</node>
	<node id="-118785" lat="65.124069444" lon="12.2337472284">
		<tag k="name" v="Skogtrøen" />
		<tag k="place" v="farm" />
		<tag k="ssr:stedsnr" v="906576" />
	</node>
</osm>
