<?xml version="1.0" encoding="UTF-8"?>
<<<<<<< HEAD
<osm version="0.6" generator="osmapis">
	<node lat="65.24168611063563" lon="12.364386104780623" id="-7513">
		<tag k="historic" v="boundary_stone" />
		<tag k="man_made" v="cairn" />
		<tag k="name" v="Vallmerksteinen" />
		<tag k="place" v="locality" />
		<tag k="ssr:stedsnr" v="542874" />
	</node>
	<node lat="65.08141111503228" lon="12.33721944664124" id="-8903">
=======
<osm generator="osmapis" version="0.6">
	<node id="-119805" lat="65.081411115" lon="12.3372194466">
>>>>>>> e1d4bc35ff8a6074a6f2e91616a996b547c36f15
		<tag k="fixme" v="specify shooting=range, clay_pigeon etc" />
		<tag k="leisure" v="pitch" />
		<tag k="name" v="Benkan" />
		<tag k="sport" v="shooting" />
		<tag k="ssr:stedsnr" v="378447" />
	</node>
	<node id="-120061" lat="65.2416861106" lon="12.3643861048">
		<tag k="historic" v="boundary_stone" />
		<tag k="man_made" v="cairn" />
		<tag k="name" v="Vallmerksteinen" />
		<tag k="place" v="locality" />
		<tag k="ssr:stedsnr" v="542874" />
	</node>
</osm>
