<?xml version="1.0" encoding="UTF-8"?>
<<<<<<< HEAD
<osm version="0.6" generator="osmapis">
	<node lat="64.99918888616304" lon="12.318788888589475" id="-6573">
		<tag k="landuse" v="meadow" />
		<tag k="name" v="Sørengan" />
		<tag k="ssr:stedsnr" v="236346" />
	</node>
	<node lat="65.23805000182779" lon="12.519555546090517" id="-6589">
		<tag k="name" v="Spinnarsteinen" />
		<tag k="natural" v="stone" />
		<tag k="ssr:stedsnr" v="238205" />
	</node>
	<node lat="65.11699721933685" lon="12.502333334064815" id="-6595">
		<tag k="name" v="Lissjorda" />
		<tag k="place" v="locality" />
		<tag k="ssr:stedsnr" v="238364" />
	</node>
	<node lat="65.04156111176653" lon="12.658888890538456" id="-6602">
		<tag k="name" v="Langmyra" />
		<tag k="natural" v="wetland" />
		<tag k="ssr:stedsnr" v="238855" />
	</node>
	<node lat="65.25435000098575" lon="12.306402781436079" id="-6603">
		<tag k="name" v="Olderskogen" />
		<tag k="place" v="locality" />
		<tag k="ssr:stedsnr" v="238858" />
	</node>
	<node lat="65.1990305566191" lon="12.23387777618359" id="-6626">
		<tag k="name" v="Nordmoen" />
		<tag k="place" v="locality" />
		<tag k="ssr:stedsnr" v="55309" />
	</node>
	<node lat="65.05918055536627" lon="12.459022213449762" id="-6630">
		<tag k="name" v="Rågresslandet" />
		<tag k="place" v="locality" />
		<tag k="ssr:stedsnr" v="239942" />
	</node>
	<node lat="65.06426944441858" lon="12.203683343478518" id="-6635">
		<tag k="name" v="Hestmyra" />
		<tag k="natural" v="wetland" />
		<tag k="ssr:stedsnr" v="239921" />
	</node>
	<node lat="65.01767222490066" lon="12.754252787753268" id="-6645">
		<tag k="name" v="Kråmyra" />
		<tag k="natural" v="wetland" />
		<tag k="ssr:stedsnr" v="56403" />
	</node>
	<node lat="65.02875833718744" lon="12.183983325993372" id="-6656">
		<tag k="alt_name" v="Skarbakkmyra" />
		<tag k="name" v="Skardbakkmyra" />
		<tag k="natural" v="wetland" />
		<tag k="ssr:stedsnr" v="56879" />
	</node>
	<node lat="65.14987500148287" lon="12.142669439771854" id="-6659">
		<tag k="name" v="Heilsætran" />
		<tag k="place" v="locality" />
		<tag k="ssr:stedsnr" v="56769" />
	</node>
	<node lat="65.13451944486442" lon="12.321972212274417" id="-6666">
		<tag k="name" v="Almliåsmyra" />
		<tag k="natural" v="wetland" />
		<tag k="ssr:stedsnr" v="57409" />
	</node>
	<node lat="65.16635833392986" lon="12.00469999230722" id="-6673">
		<tag k="name" v="Storsteinan" />
		<tag k="natural" v="stone" />
		<tag k="ssr:stedsnr" v="57801" />
	</node>
	<node lat="65.04547499677562" lon="12.222827786877016" id="-6722">
		<tag k="name" v="Sørengan" />
		<tag k="place" v="locality" />
		<tag k="ssr:stedsnr" v="76500" />
	</node>
	<node lat="65.05924444066704" lon="12.478800002617577" id="-6743">
		<tag k="name" v="Sandøyra" />
		<tag k="place" v="locality" />
		<tag k="ssr:stedsnr" v="117522" />
	</node>
	<node lat="65.05862777486959" lon="12.503291668989206" id="-6744">
		<tag k="name" v="Øvjeenget" />
		<tag k="place" v="locality" />
		<tag k="ssr:stedsnr" v="117525" />
	</node>
	<node lat="65.05347499778043" lon="12.515900007747891" id="-6745">
		<tag k="name" v="Svortmyra" />
		<tag k="place" v="locality" />
		<tag k="ssr:stedsnr" v="117526" />
	</node>
	<node lat="65.23419166251367" lon="12.344138896729387" id="-6816">
		<tag k="alt_name" v="Nordhagen" />
		<tag k="name" v="Nordhagan" />
		<tag k="place" v="locality" />
		<tag k="ssr:stedsnr" v="257240" />
	</node>
	<node lat="65.0095055524579" lon="12.734308337493207" id="-6831">
		<tag k="name" v="Engesmyra" />
		<tag k="natural" v="wetland" />
		<tag k="ssr:stedsnr" v="257575" />
	</node>
	<node lat="65.07102500102248" lon="11.918836114310597" id="-6847">
		<tag k="name" v="Heimersætran" />
		<tag k="place" v="locality" />
		<tag k="ssr:stedsnr" v="168409" />
	</node>
	<node lat="65.26730278159812" lon="12.356425010109746" id="-6853">
		<tag k="name" v="Mølnmarka" />
		<tag k="place" v="locality" />
		<tag k="ssr:stedsnr" v="175763" />
	</node>
	<node lat="65.12945000127253" lon="12.185913884429317" id="-6860">
		<tag k="name" v="Lautmyra" />
		<tag k="natural" v="wetland" />
		<tag k="ssr:stedsnr" v="176562" />
	</node>
	<node lat="65.0495305584639" lon="12.5885083240654" id="-6865">
		<tag k="landuse" v="meadow" />
		<tag k="name" v="Heimerenget" />
		<tag k="ssr:stedsnr" v="176955" />
	</node>
	<node lat="65.18211667019133" lon="12.35194722109216" id="-6878">
		<tag k="name" v="Stormyra" />
		<tag k="natural" v="wetland" />
		<tag k="ssr:stedsnr" v="178071" />
	</node>
	<node lat="65.11224444339537" lon="12.30090556132361" id="-6883">
		<tag k="name" v="Sæteråsmyra" />
		<tag k="natural" v="wetland" />
		<tag k="ssr:stedsnr" v="178411" />
	</node>
	<node lat="65.13709722587465" lon="12.324036121324573" id="-6884">
		<tag k="name" v="Høgåsmyra" />
		<tag k="natural" v="wetland" />
		<tag k="ssr:stedsnr" v="178414" />
	</node>
	<node lat="65.14312221905372" lon="12.277072219291732" id="-6890">
		<tag k="name" v="Hestvikmyra" />
		<tag k="natural" v="wetland" />
		<tag k="ssr:stedsnr" v="178438" />
	</node>
	<node lat="65.14284444732148" lon="12.284350005411426" id="-6891">
		<tag k="name" v="Fornesmyra" />
		<tag k="natural" v="wetland" />
		<tag k="ssr:stedsnr" v="178440" />
	</node>
	<node lat="65.11956666475213" lon="12.557925008208969" id="-6896">
		<tag k="name" v="Kvernmyra" />
		<tag k="natural" v="wetland" />
		<tag k="ssr:stedsnr" v="178563" />
	</node>
	<node lat="65.06208888983465" lon="12.459597212409385" id="-6899">
		<tag k="name" v="Valan" />
		<tag k="place" v="locality" />
		<tag k="ssr:stedsnr" v="178906" />
	</node>
	<node lat="65.26344444655881" lon="12.349730562951997" id="-6903">
		<tag k="historic" v="shieling" />
		<tag k="name" v="Gaupsetran" />
		<tag k="place" v="locality" />
		<tag k="ssr:stedsnr" v="197157" />
	</node>
	<node lat="65.26038888515008" lon="12.580402781294447" id="-6905">
		<tag k="name" v="Votnmyra" />
		<tag k="natural" v="wetland" />
		<tag k="ssr:stedsnr" v="197203" />
	</node>
	<node lat="65.06938611374048" lon="11.910663890056513" id="-6925">
		<tag k="name" v="Gammelsetran" />
		<tag k="place" v="locality" />
		<tag k="ssr:stedsnr" v="229403" />
	</node>
	<node lat="65.16180555766395" lon="12.250363879673898" id="-6931">
		<tag k="name" v="Stormyra" />
		<tag k="natural" v="wetland" />
		<tag k="ssr:stedsnr" v="236648" />
	</node>
	<node lat="65.07526944674872" lon="12.362558326508424" id="-6946">
		<tag k="name" v="Nonsmarka" />
		<tag k="place" v="locality" />
		<tag k="ssr:stedsnr" v="238287" />
	</node>
	<node lat="65.10306666317692" lon="12.315650003905029" id="-6949">
		<tag k="name" v="Langmyra" />
		<tag k="natural" v="wetland" />
		<tag k="ssr:stedsnr" v="238419" />
	</node>
	<node lat="65.18206944768906" lon="12.451669437301833" id="-6953">
		<tag k="name" v="Tafsholet" />
		<tag k="natural" v="wetland" />
		<tag k="ssr:stedsnr" v="238309" />
	</node>
	<node lat="65.03633333701447" lon="12.184772229454927" id="-6961">
		<tag k="name" v="Vakkerenget" />
		<tag k="place" v="locality" />
		<tag k="ssr:stedsnr" v="238905" />
	</node>
	<node lat="65.03323888846775" lon="12.124333337820604" id="-6965">
		<tag k="name" v="Høgbakkmyra" />
		<tag k="natural" v="wetland" />
		<tag k="ssr:stedsnr" v="239033" />
	</node>
	<node lat="65.18649999805068" lon="12.250441665521935" id="-6969">
		<tag k="name" v="Stormyra" />
		<tag k="natural" v="wetland" />
		<tag k="ssr:stedsnr" v="239308" />
	</node>
	<node lat="65.13215833161559" lon="12.163969443269792" id="-6978">
		<tag k="name" v="Møllevikmarka" />
		<tag k="place" v="locality" />
		<tag k="ssr:stedsnr" v="239588" />
	</node>
	<node lat="65.02610277346064" lon="12.454302783500749" id="-6980">
		<tag k="name" v="Vintermyrene" />
		<tag k="natural" v="wetland" />
		<tag k="ssr:stedsnr" v="239915" />
	</node>
	<node lat="65.16091944047116" lon="12.243594445926453" id="-7038">
		<tag k="landuse" v="meadow" />
		<tag k="name" v="Åkvikstorenget" />
		<tag k="ssr:stedsnr" v="297683" />
	</node>
	<node lat="65.20998888720418" lon="12.693855560017871" id="-7043">
		<tag k="name" v="Rundmyra" />
		<tag k="natural" v="wetland" />
		<tag k="ssr:stedsnr" v="299028" />
	</node>
	<node lat="65.18363055650663" lon="12.443044438788025" id="-7047">
		<tag k="name" v="Elvamyrene" />
		<tag k="natural" v="wetland" />
		<tag k="ssr:stedsnr" v="299329" />
	</node>
	<node lat="65.21175555628506" lon="12.4596527720216" id="-7048">
		<tag k="name" v="Mariamyra" />
		<tag k="natural" v="wetland" />
		<tag k="ssr:stedsnr" v="299423" />
	</node>
	<node lat="65.07596666425322" lon="11.969511112789032" id="-7049">
		<tag k="name" v="Oteråsmyra" />
		<tag k="natural" v="wetland" />
		<tag k="ssr:stedsnr" v="299506" />
	</node>
	<node lat="65.13030555901622" lon="11.982936119444751" id="-7050">
		<tag k="name" v="Langmarkmyra" />
		<tag k="natural" v="wetland" />
		<tag k="ssr:stedsnr" v="299510" />
	</node>
	<node lat="65.17824166328381" lon="12.16426665877625" id="-7052">
		<tag k="name" v="Solstadurda" />
		<tag k="natural" v="scree" />
		<tag k="ssr:stedsnr" v="299711" />
	</node>
	<node lat="65.19926111317238" lon="12.16342777520246" id="-7053">
		<tag k="name" v="Stormyra" />
		<tag k="natural" v="wetland" />
		<tag k="ssr:stedsnr" v="299729" />
	</node>
	<node lat="65.12212777690013" lon="12.538930548728056" id="-7055">
		<tag k="name" v="Heimermyra" />
		<tag k="natural" v="wetland" />
		<tag k="ssr:stedsnr" v="299602" />
	</node>
	<node lat="65.0721166704409" lon="12.23694722530851" id="-7056">
		<tag k="name" v="Sætermarka" />
		<tag k="place" v="locality" />
		<tag k="ssr:stedsnr" v="299626" />
	</node>
	<node lat="65.17837221798301" lon="12.244422225214656" id="-7058">
		<tag k="name" v="Langåsmyra" />
		<tag k="natural" v="wetland" />
		<tag k="ssr:stedsnr" v="299677" />
	</node>
	<node lat="65.17863888852698" lon="12.255488879367304" id="-7061">
		<tag k="name" v="Lesshagan" />
		<tag k="place" v="locality" />
		<tag k="ssr:stedsnr" v="299685" />
	</node>
	<node lat="65.1200444405846" lon="12.505594440866806" id="-7062">
		<tag k="name" v="Kalvgarden" />
		<tag k="place" v="locality" />
		<tag k="ssr:stedsnr" v="299686" />
	</node>
	<node lat="65.15620277553273" lon="12.017044440835155" id="-7066">
		<tag k="name" v="Oterura" />
		<tag k="natural" v="scree" />
		<tag k="ssr:stedsnr" v="299825" />
	</node>
	<node lat="65.06386666782517" lon="12.233088896846397" id="-7074">
		<tag k="name" v="Reingardssteinan" />
		<tag k="natural" v="stone" />
		<tag k="ssr:stedsnr" v="299888" />
	</node>
	<node lat="65.08185833469875" lon="12.067402785812817" id="-7127">
		<tag k="name" v="Bukkaforet" />
		<tag k="place" v="locality" />
		<tag k="ssr:stedsnr" v="357856" />
	</node>
	<node lat="65.21089722269375" lon="12.671852776524673" id="-7146">
		<tag k="name" v="Bjørnstakkenget" />
		<tag k="natural" v="wetland" />
		<tag k="ssr:stedsnr" v="359022" />
	</node>
	<node lat="65.10528888614766" lon="12.442377770265118" id="-7150">
		<tag k="name" v="Mulingsmyra" />
		<tag k="natural" v="wetland" />
		<tag k="ssr:stedsnr" v="359703" />
	</node>
	<node lat="65.10145278081559" lon="12.441447217605115" id="-7152">
		<tag k="name" v="Høgsetmarka" />
		<tag k="place" v="locality" />
		<tag k="ssr:stedsnr" v="359705" />
	</node>
	<node lat="65.08090277379635" lon="12.345769440340309" id="-7162">
		<tag k="name" v="Sørmyra" />
		<tag k="natural" v="wetland" />
		<tag k="ssr:stedsnr" v="360262" />
	</node>
	<node lat="65.0346444482346" lon="12.060147227807851" id="-7166">
		<tag k="name" v="Langmyra" />
=======
<osm generator="osmapis" version="0.6">
	<node id="-118778" lat="65.1217999973" lon="12.4420222145">
		<tag k="name" v="Kalvviksteinen" />
		<tag k="natural" v="stone" />
		<tag k="ssr:stedsnr" v="906343" />
	</node>
	<node id="-120823" lat="65.1013694414" lon="12.1941999968">
		<tag k="name" v="Slåttmyra" />
		<tag k="natural" v="wetland" />
		<tag k="ssr:stedsnr" v="967579" />
	</node>
	<node id="-118772" lat="65.0738472235" lon="12.3857305628">
		<tag k="landuse" v="meadow" />
		<tag k="name" v="Slåtten" />
		<tag k="ssr:stedsnr" v="906301" />
	</node>
	<node id="-118771" lat="65.0700756455" lon="12.3520778668">
		<tag k="name" v="Hellifossmyra" />
>>>>>>> e1d4bc35ff8a6074a6f2e91616a996b547c36f15
		<tag k="natural" v="wetland" />
		<tag k="ssr:stedsnr" v="479014" />
	</node>
<<<<<<< HEAD
	<node lat="65.07175833572853" lon="12.086122225936231" id="-7178">
=======
	<node id="-118766" lat="65.1302250037" lon="11.9692999908">
>>>>>>> e1d4bc35ff8a6074a6f2e91616a996b547c36f15
		<tag k="historic" v="shieling" />
		<tag k="name" v="Sætervollen" />
		<tag k="place" v="locality" />
		<tag k="ssr:stedsnr" v="479861" />
	</node>
	<node lat="65.22760555862462" lon="12.34448888350129" id="-7179">
		<tag k="name" v="Buengskogen" />
		<tag k="place" v="locality" />
		<tag k="ssr:stedsnr" v="479862" />
	</node>
<<<<<<< HEAD
	<node lat="65.05209722506025" lon="12.577850005649644" id="-7181">
=======
	<node id="-120812" lat="65.2712416711" lon="12.528352771">
>>>>>>> e1d4bc35ff8a6074a6f2e91616a996b547c36f15
		<tag k="landuse" v="meadow" />
		<tag k="name" v="Skarstadfjellslåtten" />
		<tag k="ssr:stedsnr" v="479966" />
	</node>
<<<<<<< HEAD
	<node lat="65.0549999953859" lon="12.557069451228521" id="-7183">
		<tag k="name" v="Karimyra" />
		<tag k="natural" v="wetland" />
		<tag k="ssr:stedsnr" v="479976" />
	</node>
	<node lat="65.14322777453967" lon="12.196011108736997" id="-7191">
		<tag k="landuse" v="meadow" />
		<tag k="name" v="Bakenget" />
		<tag k="ssr:stedsnr" v="481539" />
	</node>
	<node lat="65.10396389256489" lon="12.302405566201084" id="-7211">
		<tag k="landuse" v="meadow" />
		<tag k="name" v="Ugrasmarka" />
		<tag k="ssr:stedsnr" v="481430" />
	</node>
	<node lat="65.18122499805834" lon="12.175311120911065" id="-7225">
		<tag k="name" v="Langurda" />
=======
	<node id="-118759" lat="65.0910453599" lon="12.5780991438">
		<tag k="alt_name" v="Aunsetran" />
		<tag k="historic" v="shieling" />
		<tag k="name" v="Aunsætra" />
		<tag k="place" v="locality" />
		<tag k="ssr:stedsnr" v="743425" />
	</node>
	<node id="-120803" lat="65.1346277786" lon="12.6174388868">
		<tag k="name" v="Bjørnsteinen" />
		<tag k="natural" v="stone" />
		<tag k="ssr:stedsnr" v="966697" />
	</node>
	<node id="-120802" lat="65.1198527816" lon="12.5256361217">
		<tag k="name" v="Pialitten" />
		<tag k="place" v="locality" />
		<tag k="ssr:stedsnr" v="966689" />
	</node>
	<node id="-120798" lat="65.1917833306" lon="12.5018194539">
		<tag k="name" v="Oterura" />
>>>>>>> e1d4bc35ff8a6074a6f2e91616a996b547c36f15
		<tag k="natural" v="scree" />
		<tag k="ssr:stedsnr" v="481686" />
	</node>
<<<<<<< HEAD
	<node lat="65.20536666981327" lon="12.182433341741742" id="-7234">
		<tag k="name" v="Ganvikmyra" />
		<tag k="natural" v="wetland" />
		<tag k="ssr:stedsnr" v="481701" />
	</node>
	<node lat="65.14171666511872" lon="11.99824167565971" id="-7236">
		<tag k="name" v="Gammelhesja" />
		<tag k="place" v="locality" />
		<tag k="ssr:stedsnr" v="481794" />
	</node>
	<node lat="65.19557499858064" lon="12.352316669091039" id="-7238">
		<tag k="name" v="Stormyrhallan" />
=======
	<node id="-118749" lat="65.1915805598" lon="12.7941250011">
		<tag k="name" v="Småklubbnesjan" />
		<tag k="place" v="locality" />
		<tag k="ssr:stedsnr" v="906029" />
	</node>
	<node id="-118747" lat="65.0306861133" lon="12.6679277851">
		<tag k="historic" v="shieling" />
		<tag k="name" v="Granbostadsetra" />
		<tag k="place" v="locality" />
		<tag k="ssr:stedsnr" v="742567" />
	</node>
	<node id="-120792" lat="65.1276472243" lon="12.5634972218">
		<tag k="name" v="Jordfallsmyra" />
		<tag k="natural" v="wetland" />
		<tag k="ssr:stedsnr" v="966598" />
	</node>
	<node id="-118733" lat="65.0899944424" lon="12.5802722264">
		<tag k="name" v="Funtmyra" />
>>>>>>> e1d4bc35ff8a6074a6f2e91616a996b547c36f15
		<tag k="natural" v="wetland" />
		<tag k="ssr:stedsnr" v="481859" />
	</node>
<<<<<<< HEAD
	<node lat="65.28423333333473" lon="12.415713887183227" id="-7240">
		<tag k="name" v="Måssteinen" />
		<tag k="natural" v="stone" />
		<tag k="ssr:stedsnr" v="481847" />
	</node>
	<node lat="65.2328444462831" lon="12.265208323826055" id="-7241">
=======
	<node id="-118731" lat="65.0726000038" lon="12.1037527846">
		<tag k="name" v="Almurda" />
		<tag k="natural" v="scree" />
		<tag k="ssr:stedsnr" v="904851" />
	</node>
	<node id="-120777" lat="65.0381555562" lon="12.56706112">
>>>>>>> e1d4bc35ff8a6074a6f2e91616a996b547c36f15
		<tag k="name" v="Stormyra" />
		<tag k="natural" v="wetland" />
		<tag k="ssr:stedsnr" v="481854" />
	</node>
<<<<<<< HEAD
	<node lat="65.23325277537617" lon="12.262008338006433" id="-7242">
		<tag k="name" v="Kjelmyra" />
		<tag k="natural" v="wetland" />
		<tag k="ssr:stedsnr" v="481855" />
	</node>
	<node lat="65.02228055112424" lon="12.448916666274052" id="-7246">
		<tag k="name" v="Husmyra" />
		<tag k="natural" v="wetland" />
		<tag k="ssr:stedsnr" v="481886" />
	</node>
	<node lat="65.04118610711117" lon="12.180824998599858" id="-7248">
		<tag k="name" v="Straumura" />
		<tag k="natural" v="scree" />
		<tag k="ssr:stedsnr" v="481915" />
	</node>
	<node lat="64.99336388908" lon="12.20506944716918" id="-7249">
		<tag k="name" v="Rønningen" />
		<tag k="place" v="locality" />
		<tag k="ssr:stedsnr" v="481932" />
	</node>
	<node lat="65.07285833583511" lon="12.00040278496065" id="-7251">
		<tag k="name" v="Storenget" />
=======
	<node id="-118728" lat="65.1672166642" lon="12.2219444369">
		<tag k="name" v="Mørnhusmarka" />
		<tag k="place" v="locality" />
		<tag k="ssr:stedsnr" v="904690" />
	</node>
	<node id="-120772" lat="65.2708249973" lon="12.3751777839">
		<tag k="name" v="Langmyrstrupen" />
		<tag k="natural" v="wetland" />
		<tag k="ssr:stedsnr" v="964726" />
	</node>
	<node id="-120770" lat="65.1627916644" lon="12.1960888886">
		<tag k="landuse" v="meadow" />
		<tag k="name" v="Sjåenget" />
		<tag k="ssr:stedsnr" v="964689" />
	</node>
	<node id="-120766" lat="65.1950944461" lon="12.2178388985">
		<tag k="name" v="Borklimyra" />
		<tag k="natural" v="wetland" />
		<tag k="ssr:stedsnr" v="964330" />
	</node>
	<node id="-120760" lat="65.1651472176" lon="12.2807472318">
		<tag k="name" v="Hestmarka" />
>>>>>>> e1d4bc35ff8a6074a6f2e91616a996b547c36f15
		<tag k="place" v="locality" />
		<tag k="ssr:stedsnr" v="418104" />
	</node>
<<<<<<< HEAD
	<node lat="65.0312611133133" lon="12.056325000750732" id="-7255">
		<tag k="name" v="Gråmarkmyra" />
		<tag k="natural" v="wetland" />
		<tag k="ssr:stedsnr" v="418012" />
	</node>
	<node lat="65.26821388953364" lon="12.342219446320968" id="-7258">
		<tag k="name" v="Flatmarka" />
=======
	<node id="-118693" lat="64.9860305561" lon="12.2098611119">
		<tag k="name" v="Dosen" />
>>>>>>> e1d4bc35ff8a6074a6f2e91616a996b547c36f15
		<tag k="place" v="locality" />
		<tag k="ssr:stedsnr" v="418736" />
	</node>
<<<<<<< HEAD
	<node lat="65.22993333731554" lon="12.361111111316767" id="-7259">
		<tag k="name" v="Skittenbakkskogen" />
=======
	<node id="-118684" lat="65.1175111089" lon="12.3903638918">
		<tag k="name" v="Åsmarkmoen" />
>>>>>>> e1d4bc35ff8a6074a6f2e91616a996b547c36f15
		<tag k="place" v="locality" />
		<tag k="ssr:stedsnr" v="418840" />
	</node>
<<<<<<< HEAD
	<node lat="65.26392777567507" lon="12.337758322736393" id="-7260">
		<tag k="name" v="Stordya" />
=======
	<node id="-118677" lat="65.2061027738" lon="12.4864333389">
		<tag k="name" v="Bjørnakselmyra" />
>>>>>>> e1d4bc35ff8a6074a6f2e91616a996b547c36f15
		<tag k="natural" v="wetland" />
		<tag k="ssr:stedsnr" v="418852" />
	</node>
<<<<<<< HEAD
	<node lat="65.23482499752538" lon="12.529969449449322" id="-7261">
		<tag k="name" v="Nesan" />
=======
	<node id="-120722" lat="65.0272583351" lon="12.5874111198">
		<tag k="alt_name" v="Vargemyra" />
		<tag k="name" v="Vargmyra" />
>>>>>>> e1d4bc35ff8a6074a6f2e91616a996b547c36f15
		<tag k="natural" v="wetland" />
		<tag k="ssr:stedsnr" v="419039" />
	</node>
<<<<<<< HEAD
	<node lat="65.13972500187505" lon="12.14075834293222" id="-7263">
=======
	<node id="-118673" lat="65.0513222263" lon="12.5918000011">
>>>>>>> e1d4bc35ff8a6074a6f2e91616a996b547c36f15
		<tag k="landuse" v="meadow" />
		<tag k="name" v="Heilssetran" />
		<tag k="ssr:stedsnr" v="419593" />
	</node>
<<<<<<< HEAD
	<node lat="65.04629167051797" lon="12.545161110621306" id="-7267">
		<tag k="name" v="Reitan" />
		<tag k="place" v="locality" />
		<tag k="ssr:stedsnr" v="419944" />
	</node>
	<node lat="65.04765000233823" lon="12.578699994968755" id="-7268">
		<tag k="name" v="Lissåmarka" />
		<tag k="place" v="locality" />
		<tag k="ssr:stedsnr" v="419946" />
	</node>
	<node lat="65.14024999611362" lon="12.238941665110183" id="-7273">
		<tag k="name" v="Krokmyra" />
=======
	<node id="-120712" lat="65.0291444448" lon="12.8206916569">
		<tag k="name" v="Reingardsmyra" />
		<tag k="natural" v="wetland" />
		<tag k="ssr:stedsnr" v="864560" />
	</node>
	<node id="-118663" lat="65.0640361127" lon="12.5418638833">
		<tag k="name" v="Brumyra" />
>>>>>>> e1d4bc35ff8a6074a6f2e91616a996b547c36f15
		<tag k="natural" v="wetland" />
		<tag k="ssr:stedsnr" v="420585" />
	</node>
<<<<<<< HEAD
	<node lat="65.0379583329494" lon="12.178425001553133" id="-7277">
		<tag k="name" v="Straummyra" />
=======
	<node id="-120708" lat="65.0703055584" lon="12.5581888918">
		<tag k="alt_name" v="Gjerdemyra" />
		<tag k="name" v="Gjerdmyra" />
>>>>>>> e1d4bc35ff8a6074a6f2e91616a996b547c36f15
		<tag k="natural" v="wetland" />
		<tag k="ssr:stedsnr" v="420885" />
	</node>
<<<<<<< HEAD
	<node lat="65.1387277751323" lon="12.476175001453202" id="-7282">
		<tag k="name" v="Bugarden" />
		<tag k="place" v="locality" />
		<tag k="ssr:stedsnr" v="421289" />
	</node>
	<node lat="65.09767499875333" lon="12.313727774052088" id="-7285">
		<tag k="landuse" v="meadow" />
		<tag k="name" v="Rolandenget" />
		<tag k="ssr:stedsnr" v="421402" />
	</node>
	<node lat="65.04772221884268" lon="12.535927774477303" id="-7288">
		<tag k="name" v="Vollan" />
		<tag k="place" v="locality" />
		<tag k="ssr:stedsnr" v="421506" />
	</node>
	<node lat="65.17983333223567" lon="12.206419437690945" id="-7290">
		<tag k="name" v="Tverrlimyra" />
=======
	<node id="-118655" lat="65.1593305597" lon="12.1760694353">
		<tag k="name" v="Pefjellmyra" />
		<tag k="natural" v="wetland" />
		<tag k="ssr:stedsnr" v="682912" />
	</node>
	<node id="-119679" lat="64.9959833322" lon="12.5046250074">
		<tag k="name" v="Stormyran" />
		<tag k="natural" v="wetland" />
		<tag k="ssr:stedsnr" v="318874" />
	</node>
	<node id="-118643" lat="65.1076250012" lon="12.6010888973">
		<tag k="alt_name" v="Sandskarmyra" />
		<tag k="name" v="Sandskardmyra" />
>>>>>>> e1d4bc35ff8a6074a6f2e91616a996b547c36f15
		<tag k="natural" v="wetland" />
		<tag k="ssr:stedsnr" v="421620" />
	</node>
<<<<<<< HEAD
	<node lat="65.10198611538057" lon="11.945244438359888" id="-7294">
		<tag k="name" v="Storenget" />
=======
	<node id="-120690" lat="65.2414638864" lon="12.6684750088">
		<tag k="name" v="Groholmyra" />
		<tag k="natural" v="wetland" />
		<tag k="ssr:stedsnr" v="864231" />
	</node>
	<node id="-118629" lat="65.1315861136" lon="11.994575008">
		<tag k="name" v="Mellommarka" />
>>>>>>> e1d4bc35ff8a6074a6f2e91616a996b547c36f15
		<tag k="place" v="locality" />
		<tag k="ssr:stedsnr" v="439012" />
	</node>
<<<<<<< HEAD
	<node lat="65.14375833263483" lon="12.21540277376043" id="-7317">
		<tag k="alt_name" v="Tjørnmyra, yt" />
		<tag k="name" v="Ytter-Tjønnmyra" />
=======
	<node id="-118627" lat="65.1992611132" lon="12.1634277752">
		<tag k="name" v="Stormyra" />
>>>>>>> e1d4bc35ff8a6074a6f2e91616a996b547c36f15
		<tag k="natural" v="wetland" />
		<tag k="ssr:stedsnr" v="439990" />
	</node>
<<<<<<< HEAD
	<node lat="65.0453833334898" lon="12.677780549181984" id="-7332">
		<tag k="name" v="Pemyra" />
=======
	<node id="-118625" lat="65.0433583325" lon="12.6593805515">
		<tag k="name" v="Hollimyra" />
>>>>>>> e1d4bc35ff8a6074a6f2e91616a996b547c36f15
		<tag k="natural" v="wetland" />
		<tag k="ssr:stedsnr" v="478365" />
	</node>
<<<<<<< HEAD
	<node lat="65.04345833452211" lon="12.541049996821416" id="-7333">
		<tag k="name" v="Geilin" />
		<tag k="place" v="locality" />
		<tag k="ssr:stedsnr" v="479209" />
	</node>
	<node lat="65.21461944884706" lon="12.453116665275918" id="-7340">
		<tag k="name" v="Brenna" />
		<tag k="place" v="locality" />
		<tag k="ssr:stedsnr" v="481106" />
	</node>
	<node lat="65.20678333645701" lon="12.51002222168799" id="-7345">
		<tag k="landuse" v="meadow" />
		<tag k="name" v="Storenget" />
		<tag k="ssr:stedsnr" v="481410" />
	</node>
	<node lat="65.04974166632984" lon="12.22944721890979" id="-7369">
		<tag k="name" v="Heimerenget" />
=======
	<node id="-120662" lat="65.0635027747" lon="12.2269611149">
		<tag k="name" v="Rapet" />
		<tag k="place" v="locality" />
		<tag k="ssr:stedsnr" v="846897" />
	</node>
	<node id="-118610" lat="65.1892888884" lon="12.1859250102">
		<tag k="name" v="Hans-Nilsåurda" />
		<tag k="natural" v="scree" />
		<tag k="ssr:stedsnr" v="663677" />
	</node>
	<node id="-120655" lat="65.1825055537" lon="12.1447583369">
		<tag k="name" v="Grannlimyra" />
		<tag k="natural" v="wetland" />
		<tag k="ssr:stedsnr" v="846668" />
	</node>
	<node id="-120649" lat="65.137069448" lon="12.2141055649">
		<tag k="name" v="Langåsmyra" />
		<tag k="natural" v="wetland" />
		<tag k="ssr:stedsnr" v="846525" />
	</node>
	<node id="-120644" lat="65.1307138903" lon="11.9781250048">
		<tag k="name" v="Sætran" />
>>>>>>> e1d4bc35ff8a6074a6f2e91616a996b547c36f15
		<tag k="place" v="locality" />
		<tag k="ssr:stedsnr" v="481962" />
	</node>
<<<<<<< HEAD
	<node lat="65.08341666760717" lon="12.558827786351097" id="-7373">
		<tag k="name" v="Brenna" />
=======
	<node id="-118593" lat="65.2665166655" lon="12.3906666558">
		<tag k="name" v="Fjøsglenna" />
>>>>>>> e1d4bc35ff8a6074a6f2e91616a996b547c36f15
		<tag k="place" v="locality" />
		<tag k="ssr:stedsnr" v="481978" />
	</node>
<<<<<<< HEAD
	<node lat="65.10476388557784" lon="11.937369442918618" id="-7379">
		<tag k="name" v="Støvelmyra" />
		<tag k="natural" v="wetland" />
		<tag k="ssr:stedsnr" v="500035" />
	</node>
	<node lat="65.14345555754322" lon="12.22328611566824" id="-7391">
		<tag k="alt_name" v="Tjørnmyra, indre" />
		<tag k="name" v="Inner-Tjønnmyra" />
		<tag k="natural" v="wetland" />
		<tag k="ssr:stedsnr" v="500403" />
	</node>
	<node lat="65.12281944446967" lon="11.989325006392061" id="-7414">
		<tag k="name" v="Stormyra" />
=======
	<node id="-118590" lat="65.2296694413" lon="12.3508777811">
		<tag k="name" v="Torvmyra" />
		<tag k="natural" v="wetland" />
		<tag k="ssr:stedsnr" v="661853" />
	</node>
	<node id="-118587" lat="65.0403194456" lon="12.119902775">
		<tag k="name" v="Engesmyra" />
		<tag k="natural" v="wetland" />
		<tag k="ssr:stedsnr" v="661058" />
	</node>
	<node id="-120634" lat="65.0809500029" lon="12.3805972188">
		<tag k="name" v="Lysmyra" />
		<tag k="natural" v="wetland" />
		<tag k="ssr:stedsnr" v="846267" />
	</node>
	<node id="-118577" lat="65.1200444406" lon="12.5055944409">
		<tag k="name" v="Kalvgarden" />
		<tag k="place" v="locality" />
		<tag k="ssr:stedsnr" v="299686" />
	</node>
	<node id="-120624" lat="65.067966666" lon="12.5440361072">
		<tag k="name" v="Limyra" />
		<tag k="natural" v="wetland" />
		<tag k="ssr:stedsnr" v="845978" />
	</node>
	<node id="-118573" lat="65.178372218" lon="12.2444222252">
		<tag k="name" v="Langåsmyra" />
		<tag k="natural" v="wetland" />
		<tag k="ssr:stedsnr" v="299677" />
	</node>
	<node id="-118567" lat="65.0849277811" lon="12.5679750024">
		<tag k="landuse" v="meadow" />
		<tag k="name" v="Lessenget" />
		<tag k="ssr:stedsnr" v="724986" />
	</node>
	<node id="-120614" lat="65.1831472227" lon="12.6204750094">
		<tag k="landuse" v="meadow" />
		<tag k="name" v="Dyrbenken" />
		<tag k="ssr:stedsnr" v="845745" />
	</node>
	<node id="-120608" lat="65.1241972228" lon="12.5420083304">
		<tag k="name" v="Krokmyra" />
>>>>>>> e1d4bc35ff8a6074a6f2e91616a996b547c36f15
		<tag k="natural" v="wetland" />
		<tag k="ssr:stedsnr" v="681947" />
	</node>
<<<<<<< HEAD
	<node lat="65.27031666861252" lon="12.371169452298139" id="-7441">
		<tag k="name" v="Langmyra" />
=======
	<node id="-120607" lat="65.1198861096" lon="12.5391777856">
		<tag k="name" v="Gorrmyra" />
>>>>>>> e1d4bc35ff8a6074a6f2e91616a996b547c36f15
		<tag k="natural" v="wetland" />
		<tag k="ssr:stedsnr" v="682273" />
	</node>
<<<<<<< HEAD
	<node lat="65.2556500047015" lon="12.617705547374994" id="-7459">
		<tag k="name" v="Stormyra" />
=======
	<node id="-120606" lat="65.1784138913" lon="12.4049305663">
		<tag k="name" v="Ålbekknesjan" />
>>>>>>> e1d4bc35ff8a6074a6f2e91616a996b547c36f15
		<tag k="natural" v="wetland" />
		<tag k="ssr:stedsnr" v="682732" />
	</node>
<<<<<<< HEAD
	<node lat="65.05563611188691" lon="12.122966672084488" id="-7476">
		<tag k="name" v="Hattmyra" />
=======
	<node id="-120600" lat="65.277013888" lon="12.4278666693">
		<tag k="name" v="Furuhaugmyra" />
>>>>>>> e1d4bc35ff8a6074a6f2e91616a996b547c36f15
		<tag k="natural" v="wetland" />
		<tag k="ssr:stedsnr" v="540063" />
	</node>
<<<<<<< HEAD
	<node lat="65.10285833314131" lon="12.214125008424094" id="-7478">
		<tag k="name" v="Knutsetran" />
=======
	<node id="-118543" lat="65.0484138921" lon="12.5324694426">
		<tag k="name" v="Kaukneset" />
>>>>>>> e1d4bc35ff8a6074a6f2e91616a996b547c36f15
		<tag k="place" v="locality" />
		<tag k="ssr:stedsnr" v="540622" />
	</node>
<<<<<<< HEAD
	<node lat="65.0228694409058" lon="12.784608333632965" id="-7499">
		<tag k="historic" v="shieling" />
		<tag k="name" v="Åbjørseter" />
=======
	<node id="-120590" lat="65.140705556" lon="12.1840694398">
		<tag k="landuse" v="meadow" />
		<tag k="name" v="Bakenget" />
		<tag k="ssr:stedsnr" v="844607" />
	</node>
	<node id="-118533" lat="65.1134888929" lon="12.2141472257">
		<tag k="name" v="Hanssetran" />
>>>>>>> e1d4bc35ff8a6074a6f2e91616a996b547c36f15
		<tag k="place" v="locality" />
		<tag k="ssr:stedsnr" v="542410" />
	</node>
<<<<<<< HEAD
	<node lat="65.11108332960119" lon="12.303499996022028" id="-7503">
		<tag k="name" v="Kalmyra" />
=======
	<node id="-120571" lat="65.1628916693" lon="12.2559555664">
		<tag k="name" v="Raumyra" />
>>>>>>> e1d4bc35ff8a6074a6f2e91616a996b547c36f15
		<tag k="natural" v="wetland" />
		<tag k="ssr:stedsnr" v="542422" />
	</node>
<<<<<<< HEAD
	<node lat="65.07338611133777" lon="12.236094448661827" id="-7505">
		<tag k="name" v="Tøffelstein" />
		<tag k="natural" v="stone" />
		<tag k="ssr:stedsnr" v="542604" />
	</node>
	<node lat="65.22035833273387" lon="12.456477767712052" id="-7562">
		<tag k="name" v="Grøftholmyra" />
=======
	<node id="-118519" lat="65.1807277749" lon="12.3849888782">
		<tag k="name" v="Kråkvikmyra" />
>>>>>>> e1d4bc35ff8a6074a6f2e91616a996b547c36f15
		<tag k="natural" v="wetland" />
		<tag k="ssr:stedsnr" v="602100" />
	</node>
<<<<<<< HEAD
	<node lat="65.08211944224631" lon="12.342113881173152" id="-7565">
		<tag k="landuse" v="meadow" />
		<tag k="name" v="Kvennenget" />
		<tag k="ssr:stedsnr" v="602303" />
	</node>
	<node lat="65.13861666685806" lon="12.335577770163676" id="-7570">
		<tag k="name" v="Dalstrøa" />
=======
	<node id="-120566" lat="65.0819138864" lon="11.9609972316">
		<tag k="name" v="Brenna" />
		<tag k="place" v="locality" />
		<tag k="ssr:stedsnr" v="843548" />
	</node>
	<node id="-120559" lat="65.0772249969" lon="11.9934194494">
		<tag k="name" v="Lessenget" />
		<tag k="place" v="locality" />
		<tag k="ssr:stedsnr" v="843111" />
	</node>
	<node id="-118496" lat="65.1201861071" lon="12.5167916704">
		<tag k="name" v="Kalvgarden" />
>>>>>>> e1d4bc35ff8a6074a6f2e91616a996b547c36f15
		<tag k="place" v="locality" />
		<tag k="ssr:stedsnr" v="602454" />
	</node>
<<<<<<< HEAD
	<node lat="65.18509722093492" lon="12.185575006921821" id="-7581">
		<tag k="name" v="Storrevvaurda" />
		<tag k="natural" v="scree" />
		<tag k="ssr:stedsnr" v="602697" />
	</node>
	<node lat="65.15106388755879" lon="12.001583343842741" id="-7583">
		<tag k="name" v="Kasperengan" />
=======
	<node id="-118489" lat="65.1252666696" lon="12.4497361055">
		<tag k="name" v="Oterbekkmarka" />
>>>>>>> e1d4bc35ff8a6074a6f2e91616a996b547c36f15
		<tag k="place" v="locality" />
		<tag k="ssr:stedsnr" v="602811" />
	</node>
<<<<<<< HEAD
	<node lat="65.04780833014267" lon="12.62305833334288" id="-7586">
		<tag k="landuse" v="meadow" />
		<tag k="name" v="Bjørkenget" />
		<tag k="ssr:stedsnr" v="602858" />
	</node>
	<node lat="65.10368333563062" lon="12.076558334478355" id="-7593">
=======
	<node id="-118488" lat="65.1874861099" lon="12.4221583248">
		<tag k="name" v="Naustvikmyrene" />
		<tag k="natural" v="wetland" />
		<tag k="ssr:stedsnr" v="723310" />
	</node>
	<node id="-118485" lat="65.1036833356" lon="12.0765583345">
>>>>>>> e1d4bc35ff8a6074a6f2e91616a996b547c36f15
		<tag k="name" v="Lysfjordmyran" />
		<tag k="natural" v="wetland" />
		<tag k="ssr:stedsnr" v="621015" />
	</node>
<<<<<<< HEAD
	<node lat="65.26651666550815" lon="12.390666655809436" id="-7647">
		<tag k="name" v="Fjøsglenna" />
		<tag k="place" v="locality" />
		<tag k="ssr:stedsnr" v="661731" />
	</node>
	<node lat="65.27693888468899" lon="12.435794441700498" id="-7654">
		<tag k="name" v="Moamyra" />
		<tag k="natural" v="wetland" />
		<tag k="ssr:stedsnr" v="663196" />
	</node>
	<node lat="65.10762500117137" lon="12.601088897297108" id="-7689">
		<tag k="alt_name" v="Sandskarmyra" />
		<tag k="name" v="Sandskardmyra" />
		<tag k="natural" v="wetland" />
		<tag k="ssr:stedsnr" v="682420" />
	</node>
	<node lat="65.15933055973592" lon="12.17606943525802" id="-7704">
		<tag k="name" v="Pefjellmyra" />
		<tag k="natural" v="wetland" />
		<tag k="ssr:stedsnr" v="682912" />
	</node>
	<node lat="65.06403611270467" lon="12.541863883252853" id="-7709">
		<tag k="name" v="Brumyra" />
		<tag k="natural" v="wetland" />
		<tag k="ssr:stedsnr" v="698972" />
	</node>
	<node lat="65.12067500314242" lon="12.068850003901115" id="-7725">
=======
	<node id="-118479" lat="65.1206750031" lon="12.0688500039">
>>>>>>> e1d4bc35ff8a6074a6f2e91616a996b547c36f15
		<tag k="name" v="Kjellengan" />
		<tag k="place" v="locality" />
		<tag k="ssr:stedsnr" v="722854" />
	</node>
<<<<<<< HEAD
	<node lat="65.27456111421449" lon="12.38094722977566" id="-7728">
		<tag k="name" v="Heian" />
		<tag k="place" v="locality" />
		<tag k="ssr:stedsnr" v="722775" />
	</node>
	<node lat="65.27114166782566" lon="12.351822219600882" id="-7729">
=======
	<node id="-118472" lat="65.1042444482" lon="12.2228194436">
		<tag k="name" v="Bertelsmyra" />
		<tag k="natural" v="wetland" />
		<tag k="ssr:stedsnr" v="722632" />
	</node>
	<node id="-118467" lat="65.2711416678" lon="12.3518222196">
>>>>>>> e1d4bc35ff8a6074a6f2e91616a996b547c36f15
		<tag k="name" v="Urmyra" />
		<tag k="natural" v="wetland" />
		<tag k="ssr:stedsnr" v="722781" />
	</node>
<<<<<<< HEAD
	<node lat="65.18748610992301" lon="12.4221583247567" id="-7730">
		<tag k="name" v="Naustvikmyrene" />
		<tag k="natural" v="wetland" />
		<tag k="ssr:stedsnr" v="723310" />
	</node>
	<node lat="65.12526666961274" lon="12.449736105519474" id="-7731">
		<tag k="name" v="Oterbekkmarka" />
=======
	<node id="-118466" lat="65.2745611142" lon="12.3809472298">
		<tag k="name" v="Heian" />
>>>>>>> e1d4bc35ff8a6074a6f2e91616a996b547c36f15
		<tag k="place" v="locality" />
		<tag k="ssr:stedsnr" v="723322" />
	</node>
<<<<<<< HEAD
	<node lat="65.11751110893796" lon="12.390363891805105" id="-7750">
		<tag k="name" v="Åsmarkmoen" />
=======
	<node id="-118461" lat="65.0665027778" lon="12.1004361143">
		<tag k="name" v="Øren" />
>>>>>>> e1d4bc35ff8a6074a6f2e91616a996b547c36f15
		<tag k="place" v="locality" />
		<tag k="ssr:stedsnr" v="724392" />
	</node>
<<<<<<< HEAD
	<node lat="65.11348889287582" lon="12.214147225678278" id="-7757">
		<tag k="name" v="Hanssetran" />
=======
	<node id="-120506" lat="65.0102694419" lon="12.4556249974">
		<tag k="name" v="Klubbskogen" />
>>>>>>> e1d4bc35ff8a6074a6f2e91616a996b547c36f15
		<tag k="place" v="locality" />
		<tag k="ssr:stedsnr" v="724571" />
	</node>
<<<<<<< HEAD
	<node lat="65.27670555942169" lon="12.55059444266398" id="-7808">
		<tag k="name" v="Granvollan" />
		<tag k="place" v="locality" />
		<tag k="ssr:stedsnr" v="904331" />
	</node>
	<node lat="65.16721666415798" lon="12.221944436893729" id="-7816">
		<tag k="name" v="Mørnhusmarka" />
		<tag k="place" v="locality" />
		<tag k="ssr:stedsnr" v="904690" />
	</node>
	<node lat="65.08999444235339" lon="12.580272226435175" id="-7822">
		<tag k="name" v="Funtmyra" />
=======
	<node id="-120505" lat="65.0144611116" lon="12.4426944516">
		<tag k="name" v="Geitamyra" />
		<tag k="natural" v="wetland" />
		<tag k="ssr:stedsnr" v="785958" />
	</node>
	<node id="-120500" lat="65.0237833314" lon="12.4551111012">
		<tag k="landuse" v="meadow" />
		<tag k="name" v="Sjåenget" />
		<tag k="ssr:stedsnr" v="785885" />
	</node>
	<node id="-120499" lat="65.2465000032" lon="12.2886361191">
		<tag k="name" v="Veltmyra" />
>>>>>>> e1d4bc35ff8a6074a6f2e91616a996b547c36f15
		<tag k="natural" v="wetland" />
		<tag k="ssr:stedsnr" v="904988" />
	</node>
<<<<<<< HEAD
	<node lat="65.19178333060765" lon="12.501819453893527" id="-7823">
		<tag k="name" v="Oterura" />
		<tag k="natural" v="scree" />
		<tag k="ssr:stedsnr" v="966327" />
	</node>
	<node lat="65.23065555515531" lon="12.676402769965103" id="-7827">
		<tag k="name" v="Piprørmyra" />
		<tag k="natural" v="wetland" />
		<tag k="ssr:stedsnr" v="906011" />
	</node>
	<node lat="65.03144722586529" lon="12.120036109138299" id="-7828">
		<tag k="name" v="Nettamyra" />
=======
	<node id="-120498" lat="65.1014777768" lon="12.0934944384">
		<tag k="name" v="Oldernesjan" />
		<tag k="place" v="locality" />
		<tag k="ssr:stedsnr" v="785877" />
	</node>
	<node id="-120435" lat="65.0724888859" lon="12.3596916597">
		<tag k="name" v="Nonsmyra" />
		<tag k="natural" v="wetland" />
		<tag k="ssr:stedsnr" v="784309" />
	</node>
	<node id="-120776" lat="65.0412111086" lon="12.5789611166">
		<tag k="name" v="Heibakkmyra" />
		<tag k="natural" v="wetland" />
		<tag k="ssr:stedsnr" v="964841" />
	</node>
	<node id="-118446" lat="65.117783331" lon="12.4038777778">
		<tag k="name" v="Steinsteinan" />
		<tag k="natural" v="stone" />
		<tag k="ssr:stedsnr" v="602360" />
	</node>
	<node id="-118441" lat="65.2167277802" lon="12.4534388811">
		<tag k="name" v="Kråmyra" />
>>>>>>> e1d4bc35ff8a6074a6f2e91616a996b547c36f15
		<tag k="natural" v="wetland" />
		<tag k="ssr:stedsnr" v="906019" />
	</node>
<<<<<<< HEAD
	<node lat="65.19158055978454" lon="12.794125001136623" id="-7829">
		<tag k="name" v="Småklubbnesjan" />
		<tag k="place" v="locality" />
		<tag k="ssr:stedsnr" v="906029" />
	</node>
	<node lat="65.07007564547229" lon="12.352077866844484" id="-7834">
		<tag k="name" v="Hellifossmyra" />
=======
	<node id="-120481" lat="65.1406388915" lon="12.2097305479">
		<tag k="name" v="Kalvikenglimyra" />
		<tag k="natural" v="wetland" />
		<tag k="ssr:stedsnr" v="785501" />
	</node>
	<node id="-120473" lat="65.1103888893" lon="12.2952638986">
		<tag k="name" v="Næverlimyra" />
>>>>>>> e1d4bc35ff8a6074a6f2e91616a996b547c36f15
		<tag k="natural" v="wetland" />
		<tag k="ssr:stedsnr" v="906295" />
	</node>
<<<<<<< HEAD
	<node lat="65.12179999733152" lon="12.442022214479387" id="-7841">
		<tag k="name" v="Kalvviksteinen" />
		<tag k="natural" v="stone" />
		<tag k="ssr:stedsnr" v="906343" />
	</node>
	<node lat="65.12031666602408" lon="12.611483326655938" id="-7858">
		<tag k="name" v="Sør Vikamarka" />
		<tag k="place" v="locality" />
		<tag k="ssr:stedsnr" v="906681" />
	</node>
	<node lat="65.11296666994282" lon="12.503463889351764" id="-7865">
		<tag k="name" v="Brenna" />
		<tag k="place" v="locality" />
		<tag k="ssr:stedsnr" v="906697" />
	</node>
	<node lat="65.20385555552947" lon="12.179330547179385" id="-7868">
		<tag k="name" v="Stakkmyra" />
=======
	<node id="-120469" lat="65.0747972188" lon="12.3338749947">
		<tag k="historic" v="shieling" />
		<tag k="name" v="Gammelsetran" />
		<tag k="place" v="locality" />
		<tag k="ssr:stedsnr" v="785267" />
	</node>
	<node id="-120464" lat="65.0460111143" lon="12.1780250077">
		<tag k="name" v="Hesthagmyra" />
		<tag k="natural" v="wetland" />
		<tag k="ssr:stedsnr" v="784962" />
	</node>
	<node id="-120451" lat="65.1275833327" lon="12.6277611186">
		<tag k="name" v="Hattmyra" />
>>>>>>> e1d4bc35ff8a6074a6f2e91616a996b547c36f15
		<tag k="natural" v="wetland" />
		<tag k="ssr:stedsnr" v="906734" />
	</node>
<<<<<<< HEAD
	<node lat="65.1892583307059" lon="12.621338881858627" id="-7869">
		<tag k="historic" v="shieling" />
		<tag k="name" v="Mehammersetran" />
=======
	<node id="-120449" lat="65.1170750009" lon="12.5246249984">
		<tag k="name" v="Stavekra" />
>>>>>>> e1d4bc35ff8a6074a6f2e91616a996b547c36f15
		<tag k="place" v="locality" />
		<tag k="ssr:stedsnr" v="906736" />
	</node>
<<<<<<< HEAD
	<node lat="65.25147221940931" lon="12.613122231766914" id="-7870">
		<tag k="name" v="Småtjønnskogan" />
=======
	<node id="-120445" lat="65.0238416673" lon="12.7507083243">
		<tag k="name" v="Valan" />
>>>>>>> e1d4bc35ff8a6074a6f2e91616a996b547c36f15
		<tag k="place" v="locality" />
		<tag k="ssr:stedsnr" v="906748" />
	</node>
<<<<<<< HEAD
	<node lat="65.14784722612785" lon="12.019747215964466" id="-7877">
		<tag k="name" v="Tinahagan" />
		<tag k="place" v="locality" />
		<tag k="ssr:stedsnr" v="906830" />
	</node>
	<node lat="65.1523194447752" lon="12.224827777873717" id="-7899">
		<tag k="landuse" v="meadow" />
		<tag k="name" v="Krokenget" />
		<tag k="ssr:stedsnr" v="782664" />
	</node>
	<node lat="65.27279444867162" lon="12.421847226035686" id="-7909">
		<tag k="name" v="Grindgardsmyra" />
=======
	<node id="-120442" lat="65.0897333368" lon="12.3191472274">
		<tag k="name" v="Uran" />
		<tag k="natural" v="scree" />
		<tag k="ssr:stedsnr" v="784426" />
	</node>
	<node id="-118392" lat="65.1310583309" lon="12.5522277869">
		<tag k="name" v="Damvikmyra" />
>>>>>>> e1d4bc35ff8a6074a6f2e91616a996b547c36f15
		<tag k="natural" v="wetland" />
		<tag k="ssr:stedsnr" v="784199" />
	</node>
<<<<<<< HEAD
	<node lat="65.0724888859423" lon="12.359691659705435" id="-7912">
		<tag k="name" v="Nonsmyra" />
=======
	<node id="-120439" lat="65.1270861095" lon="12.4125166749">
		<tag k="name" v="Nordmarkmyra" />
>>>>>>> e1d4bc35ff8a6074a6f2e91616a996b547c36f15
		<tag k="natural" v="wetland" />
		<tag k="ssr:stedsnr" v="784368" />
	</node>
<<<<<<< HEAD
	<node lat="65.07479721881583" lon="12.333874994681732" id="-7927">
		<tag k="historic" v="shieling" />
		<tag k="name" v="Gammelsetran" />
=======
	<node id="-118388" lat="65.0721166704" lon="12.2369472253">
		<tag k="name" v="Sætermarka" />
		<tag k="place" v="locality" />
		<tag k="ssr:stedsnr" v="299626" />
	</node>
	<node id="-118718" lat="65.2767055594" lon="12.5505944427">
		<tag k="name" v="Granvollan" />
		<tag k="place" v="locality" />
		<tag k="ssr:stedsnr" v="904331" />
	</node>
	<node id="-120430" lat="65.2727944487" lon="12.421847226">
		<tag k="name" v="Grindgardsmyra" />
		<tag k="natural" v="wetland" />
		<tag k="ssr:stedsnr" v="784199" />
	</node>
	<node id="-118377" lat="65.1195527757" lon="12.1750972302">
		<tag k="name" v="Åslimarka" />
>>>>>>> e1d4bc35ff8a6074a6f2e91616a996b547c36f15
		<tag k="place" v="locality" />
		<tag k="ssr:stedsnr" v="785267" />
	</node>
<<<<<<< HEAD
	<node lat="65.14063889149288" lon="12.209730547910537" id="-7933">
		<tag k="name" v="Kalvikenglimyra" />
		<tag k="natural" v="wetland" />
		<tag k="ssr:stedsnr" v="785501" />
	</node>
	<node lat="65.14365277609474" lon="12.235949997697558" id="-7953">
		<tag k="name" v="Langlimyra" />
=======
	<node id="-118373" lat="65.1252555562" lon="12.5561222268">
		<tag k="name" v="Rodalsmyra" />
		<tag k="natural" v="wetland" />
		<tag k="ssr:stedsnr" v="542578" />
	</node>
	<node id="-118372" lat="65.0446361113" lon="12.4762333285">
		<tag k="landuse" v="meadow" />
		<tag k="name" v="Merraenget" />
		<tag k="ssr:stedsnr" v="542576" />
	</node>
	<node id="-120416" lat="65.0281361149" lon="12.0778333387">
		<tag k="name" v="Bjørndalsmyra" />
>>>>>>> e1d4bc35ff8a6074a6f2e91616a996b547c36f15
		<tag k="natural" v="wetland" />
		<tag k="ssr:stedsnr" v="804364" />
	</node>
<<<<<<< HEAD
	<node lat="65.16289166933296" lon="12.255955566378027" id="-7970">
		<tag k="name" v="Raumyra" />
		<tag k="natural" v="wetland" />
		<tag k="ssr:stedsnr" v="843711" />
	</node>
	<node lat="65.14070555603544" lon="12.184069439836305" id="-7981">
		<tag k="landuse" v="meadow" />
		<tag k="name" v="Bakenget" />
		<tag k="ssr:stedsnr" v="844607" />
	</node>
	<node lat="65.23215277944549" lon="12.340902785342069" id="-7996">
		<tag k="alt_name" v="Sørhagen" />
		<tag k="name" v="Sørhagan" />
=======
	<node id="-118367" lat="65.1195499988" lon="12.2462861187">
		<tag k="name" v="Strandvollan" />
		<tag k="place" v="locality" />
		<tag k="ssr:stedsnr" v="542560" />
	</node>
	<node id="-118365" lat="65.0733861113" lon="12.2360944487">
		<tag k="name" v="Tøffelstein" />
		<tag k="natural" v="stone" />
		<tag k="ssr:stedsnr" v="542604" />
	</node>
	<node id="-118364" lat="65.1110833296" lon="12.303499996">
		<tag k="name" v="Kalmyra" />
		<tag k="natural" v="wetland" />
		<tag k="ssr:stedsnr" v="542422" />
	</node>
	<node id="-120411" lat="65.2614527756" lon="12.3300694427">
		<tag k="name" v="Småliamarka" />
>>>>>>> e1d4bc35ff8a6074a6f2e91616a996b547c36f15
		<tag k="place" v="locality" />
		<tag k="ssr:stedsnr" v="925246" />
	</node>
<<<<<<< HEAD
	<node lat="65.2770138879789" lon="12.427866669300403" id="-8001">
		<tag k="name" v="Furuhaugmyra" />
		<tag k="natural" v="wetland" />
		<tag k="ssr:stedsnr" v="845208" />
	</node>
	<node lat="65.17841389132417" lon="12.404930566325056" id="-8006">
		<tag k="name" v="Ålbekknesjan" />
		<tag k="natural" v="wetland" />
		<tag k="ssr:stedsnr" v="845292" />
	</node>
	<node lat="65.11988610957302" lon="12.539177785555392" id="-8011">
		<tag k="name" v="Gorrmyra" />
=======
	<node id="-118360" lat="65.0228694409" lon="12.7846083336">
		<tag k="historic" v="shieling" />
		<tag k="name" v="Åbjørseter" />
		<tag k="place" v="locality" />
		<tag k="ssr:stedsnr" v="542410" />
	</node>
	<node id="-120404" lat="65.1523194448" lon="12.2248277779">
		<tag k="landuse" v="meadow" />
		<tag k="name" v="Krokenget" />
		<tag k="ssr:stedsnr" v="782664" />
	</node>
	<node id="-118347" lat="65.2309777799" lon="12.3553666579">
		<tag k="name" v="Stormyra" />
>>>>>>> e1d4bc35ff8a6074a6f2e91616a996b547c36f15
		<tag k="natural" v="wetland" />
		<tag k="ssr:stedsnr" v="845624" />
	</node>
<<<<<<< HEAD
	<node lat="65.02721944603876" lon="12.06044722979366" id="-8094">
		<tag k="name" v="Storstien" />
=======
	<node id="-118345" lat="65.2350444483" lon="12.5081944392">
		<tag k="name" v="Eide skog" />
>>>>>>> e1d4bc35ff8a6074a6f2e91616a996b547c36f15
		<tag k="place" v="locality" />
		<tag k="ssr:stedsnr" v="904019" />
	</node>
<<<<<<< HEAD
	<node lat="65.19452499868807" lon="12.205152774856824" id="-8098">
		<tag k="name" v="Skuddlimyra" />
=======
	<node id="-118343" lat="65.1303527733" lon="12.5428083354">
		<tag k="name" v="Kalvvikmyra" />
>>>>>>> e1d4bc35ff8a6074a6f2e91616a996b547c36f15
		<tag k="natural" v="wetland" />
		<tag k="ssr:stedsnr" v="904305" />
	</node>
<<<<<<< HEAD
	<node lat="65.12948610680516" lon="12.224130552023567" id="-8102">
		<tag k="name" v="Åsaunet" />
		<tag k="place" v="locality" />
		<tag k="ssr:stedsnr" v="904515" />
	</node>
	<node lat="65.07260000375199" lon="12.103752784592402" id="-8107">
		<tag k="name" v="Almurda" />
=======
	<node id="-118339" lat="65.2117555563" lon="12.459652772">
		<tag k="name" v="Mariamyra" />
		<tag k="natural" v="wetland" />
		<tag k="ssr:stedsnr" v="299423" />
	</node>
	<node id="-118336" lat="65.1876972237" lon="12.4878833328">
		<tag k="name" v="Tennskjærura" />
>>>>>>> e1d4bc35ff8a6074a6f2e91616a996b547c36f15
		<tag k="natural" v="scree" />
		<tag k="ssr:stedsnr" v="904851" />
	</node>
<<<<<<< HEAD
	<node lat="65.24470833316937" lon="12.685997223557036" id="-8108">
		<tag k="name" v="Langmyra" />
=======
	<node id="-118335" lat="65.1836305565" lon="12.4430444388">
		<tag k="name" v="Elvamyrene" />
>>>>>>> e1d4bc35ff8a6074a6f2e91616a996b547c36f15
		<tag k="natural" v="wetland" />
		<tag k="ssr:stedsnr" v="906158" />
	</node>
<<<<<<< HEAD
	<node lat="65.24753888650359" lon="12.69496945073879" id="-8109">
		<tag k="name" v="Myrsundet" />
=======
	<node id="-118329" lat="65.2556500047" lon="12.6177055474">
		<tag k="name" v="Stormyra" />
>>>>>>> e1d4bc35ff8a6074a6f2e91616a996b547c36f15
		<tag k="natural" v="wetland" />
		<tag k="ssr:stedsnr" v="906164" />
	</node>
	<node lat="65.24238333373204" lon="12.685786112642859" id="-8110">
		<tag k="name" v="Bjørkmyra" />
		<tag k="natural" v="wetland" />
		<tag k="ssr:stedsnr" v="906053" />
	</node>
<<<<<<< HEAD
	<node lat="65.07384722348887" lon="12.385730562848526" id="-8117">
		<tag k="landuse" v="meadow" />
		<tag k="name" v="Slåtten" />
		<tag k="ssr:stedsnr" v="906301" />
	</node>
	<node lat="65.11526944661055" lon="12.281388899430713" id="-8151">
		<tag k="alt_name" v="Rennurda" />
		<tag k="name" v="Rennura" />
		<tag k="natural" v="scree" />
		<tag k="ssr:stedsnr" v="925391" />
	</node>
	<node lat="65.14554166262295" lon="12.011194448909668" id="-8165">
		<tag k="name" v="Svartskogen" />
		<tag k="place" v="locality" />
		<tag k="ssr:stedsnr" v="925913" />
	</node>
	<node lat="65.16279166443366" lon="12.196088888641993" id="-8177">
		<tag k="landuse" v="meadow" />
		<tag k="name" v="Sjåenget" />
		<tag k="ssr:stedsnr" v="964689" />
	</node>
	<node lat="65.04121110862258" lon="12.578961116614835" id="-8179">
		<tag k="name" v="Heibakkmyra" />
=======
	<node id="-118298" lat="65.2703166686" lon="12.3711694523">
		<tag k="name" v="Langmyra" />
>>>>>>> e1d4bc35ff8a6074a6f2e91616a996b547c36f15
		<tag k="natural" v="wetland" />
		<tag k="ssr:stedsnr" v="964841" />
	</node>
<<<<<<< HEAD
	<node lat="65.0381555562259" lon="12.56706111998308" id="-8180">
=======
	<node id="-118279" lat="65.1228194445" lon="11.9893250064">
>>>>>>> e1d4bc35ff8a6074a6f2e91616a996b547c36f15
		<tag k="name" v="Stormyra" />
		<tag k="natural" v="wetland" />
		<tag k="ssr:stedsnr" v="964843" />
	</node>
<<<<<<< HEAD
	<node lat="65.1276472243454" lon="12.563497221771499" id="-8189">
		<tag k="name" v="Jordfallsmyra" />
=======
	<node id="-118263" lat="65.0624928831" lon="12.5450447235">
		<tag k="name" v="Bukkamyra" />
>>>>>>> e1d4bc35ff8a6074a6f2e91616a996b547c36f15
		<tag k="natural" v="wetland" />
		<tag k="ssr:stedsnr" v="966598" />
	</node>
<<<<<<< HEAD
	<node lat="65.11122777950446" lon="12.496550001663488" id="-8190">
		<tag k="name" v="Klokkarmyra" />
		<tag k="natural" v="wetland" />
		<tag k="ssr:stedsnr" v="966705" />
	</node>
	<node lat="65.16710833026055" lon="12.237905546739189" id="-8280">
		<tag k="name" v="Hesthagan" />
=======
	<node id="-118246" lat="65.0497416663" lon="12.2294472189">
		<tag k="name" v="Heimerenget" />
>>>>>>> e1d4bc35ff8a6074a6f2e91616a996b547c36f15
		<tag k="place" v="locality" />
		<tag k="ssr:stedsnr" v="54707" />
	</node>
<<<<<<< HEAD
	<node lat="65.23896388732491" lon="12.504386107336947" id="-8287">
		<tag k="name" v="Stråmyra" />
=======
	<node id="-118244" lat="65.1955749986" lon="12.3523166691">
		<tag k="name" v="Stormyrhallan" />
>>>>>>> e1d4bc35ff8a6074a6f2e91616a996b547c36f15
		<tag k="natural" v="wetland" />
		<tag k="ssr:stedsnr" v="56198" />
	</node>
<<<<<<< HEAD
	<node lat="65.11176944838527" lon="12.613977770259654" id="-8290">
		<tag k="name" v="Svartåsmyra" />
=======
	<node id="-118242" lat="65.2332527754" lon="12.262008338">
		<tag k="name" v="Kjelmyra" />
>>>>>>> e1d4bc35ff8a6074a6f2e91616a996b547c36f15
		<tag k="natural" v="wetland" />
		<tag k="ssr:stedsnr" v="56694" />
	</node>
<<<<<<< HEAD
	<node lat="65.24901667122504" lon="12.289402772869867" id="-8298">
		<tag k="name" v="Samuelmyra" />
		<tag k="natural" v="wetland" />
		<tag k="ssr:stedsnr" v="56866" />
	</node>
	<node lat="65.17093055418134" lon="12.261936106516014" id="-8301">
		<tag k="name" v="Lessjordet" />
=======
	<node id="-118241" lat="65.2328444463" lon="12.2652083238">
		<tag k="name" v="Stormyra" />
		<tag k="natural" v="wetland" />
		<tag k="ssr:stedsnr" v="481854" />
	</node>
	<node id="-118223" lat="65.2067833365" lon="12.5100222217">
		<tag k="landuse" v="meadow" />
		<tag k="name" v="Storenget" />
		<tag k="ssr:stedsnr" v="481410" />
	</node>
	<node id="-118219" lat="65.2146194488" lon="12.4531166653">
		<tag k="name" v="Brenna" />
>>>>>>> e1d4bc35ff8a6074a6f2e91616a996b547c36f15
		<tag k="place" v="locality" />
		<tag k="ssr:stedsnr" v="57049" />
	</node>
<<<<<<< HEAD
	<node lat="65.18401666288989" lon="12.247383323290824" id="-8304">
		<tag k="name" v="Trettmyra" />
		<tag k="natural" v="wetland" />
		<tag k="ssr:stedsnr" v="57352" />
	</node>
	<node lat="65.0748777802664" lon="11.986277775186458" id="-8306">
		<tag k="name" v="Dalamyra" />
		<tag k="natural" v="wetland" />
		<tag k="ssr:stedsnr" v="57461" />
	</node>
	<node lat="65.11758055902304" lon="12.232027784729903" id="-8309">
		<tag k="name" v="Mana" />
=======
	<node id="-118214" lat="65.2276055586" lon="12.3444888835">
		<tag k="name" v="Buengskogen" />
		<tag k="place" v="locality" />
		<tag k="ssr:stedsnr" v="479862" />
	</node>
	<node id="-118213" lat="65.0717583357" lon="12.0861222259">
		<tag k="historic" v="shieling" />
		<tag k="name" v="Sætervollen" />
>>>>>>> e1d4bc35ff8a6074a6f2e91616a996b547c36f15
		<tag k="place" v="locality" />
		<tag k="ssr:stedsnr" v="57543" />
	</node>
<<<<<<< HEAD
	<node lat="65.28084999701223" lon="12.415924996066051" id="-8330">
		<tag k="name" v="Myrmarkmyra" />
		<tag k="natural" v="wetland" />
		<tag k="ssr:stedsnr" v="75229" />
	</node>
	<node lat="65.23298055962549" lon="12.434149995761524" id="-8372">
		<tag k="name" v="Haugan" />
=======
	<node id="-118206" lat="65.0434583345" lon="12.5410499968">
		<tag k="name" v="Geilin" />
>>>>>>> e1d4bc35ff8a6074a6f2e91616a996b547c36f15
		<tag k="place" v="locality" />
		<tag k="ssr:stedsnr" v="115020" />
	</node>
<<<<<<< HEAD
	<node lat="65.02418333415251" lon="12.045875008698367" id="-8373">
		<tag k="name" v="Favnvedmyra" />
=======
	<node id="-118205" lat="65.0453833335" lon="12.6777805492">
		<tag k="name" v="Pemyra" />
>>>>>>> e1d4bc35ff8a6074a6f2e91616a996b547c36f15
		<tag k="natural" v="wetland" />
		<tag k="ssr:stedsnr" v="115021" />
	</node>
<<<<<<< HEAD
	<node lat="65.0547861116324" lon="12.54908610905365" id="-8384">
		<tag k="name" v="Finnhyttemyra" />
=======
	<node id="-120245" lat="65.0345416697" lon="12.0942583318">
		<tag k="name" v="Dammyra" />
>>>>>>> e1d4bc35ff8a6074a6f2e91616a996b547c36f15
		<tag k="natural" v="wetland" />
		<tag k="ssr:stedsnr" v="115963" />
	</node>
<<<<<<< HEAD
	<node lat="65.18681110987306" lon="12.335483334744737" id="-8386">
		<tag k="name" v="Spjøtnesmarka" />
=======
	<node id="-118195" lat="65.0863861099" lon="12.0170749994">
		<tag k="name" v="Nylenna" />
>>>>>>> e1d4bc35ff8a6074a6f2e91616a996b547c36f15
		<tag k="place" v="locality" />
		<tag k="ssr:stedsnr" v="117056" />
	</node>
<<<<<<< HEAD
	<node lat="65.23693889282325" lon="12.515777769585595" id="-8387">
		<tag k="landuse" v="meadow" />
		<tag k="name" v="Rafaelenget" />
		<tag k="ssr:stedsnr" v="117242" />
	</node>
	<node lat="65.11897499747876" lon="12.49953333672949" id="-8390">
		<tag k="name" v="Krommen" />
		<tag k="place" v="locality" />
		<tag k="ssr:stedsnr" v="117377" />
	</node>
	<node lat="65.18798055902974" lon="12.251797232741703" id="-8395">
		<tag k="name" v="Husmyra" />
=======
	<node id="-118190" lat="65.1294222195" lon="12.1535333404">
		<tag k="name" v="Vargura" />
		<tag k="natural" v="scree" />
		<tag k="ssr:stedsnr" v="663592" />
	</node>
	<node id="-118189" lat="65.1202194452" lon="12.2029472178">
		<tag k="name" v="Raudura" />
		<tag k="natural" v="scree" />
		<tag k="ssr:stedsnr" v="663585" />
	</node>
	<node id="-118185" lat="65.1146055524" lon="12.2189805495">
		<tag k="name" v="Stormyrån" />
>>>>>>> e1d4bc35ff8a6074a6f2e91616a996b547c36f15
		<tag k="natural" v="wetland" />
		<tag k="ssr:stedsnr" v="117346" />
	</node>
<<<<<<< HEAD
	<node lat="65.13057500102133" lon="12.145519451129458" id="-8410">
		<tag k="landuse" v="meadow" />
		<tag k="name" v="Smålienget" />
		<tag k="ssr:stedsnr" v="117596" />
	</node>
	<node lat="65.1311916683321" lon="12.16925000779246" id="-8411">
		<tag k="landuse" v="meadow" />
		<tag k="name" v="Engan" />
		<tag k="ssr:stedsnr" v="117599" />
	</node>
	<node lat="65.04516111257458" lon="12.667241670076486" id="-8421">
		<tag k="name" v="Sommarfjøsmyra" />
		<tag k="natural" v="wetland" />
		<tag k="ssr:stedsnr" v="117865" />
	</node>
	<node lat="65.06340832942946" lon="12.208602787893161" id="-8423">
		<tag k="name" v="Løvollteigen" />
=======
	<node id="-118181" lat="65.0691055572" lon="12.4545361166">
		<tag k="historic" v="shieling" />
		<tag k="name" v="Kalåsetran" />
		<tag k="place" v="locality" />
		<tag k="ssr:stedsnr" v="663550" />
	</node>
	<node id="-120226" lat="65.0620249978" lon="12.4681000077">
		<tag k="name" v="Sjøstranda" />
>>>>>>> e1d4bc35ff8a6074a6f2e91616a996b547c36f15
		<tag k="place" v="locality" />
		<tag k="ssr:stedsnr" v="117891" />
	</node>
<<<<<<< HEAD
	<node lat="65.06415555245204" lon="12.215841658759226" id="-8424">
		<tag k="name" v="Sveet" />
=======
	<node id="-120225" lat="65.0608916666" lon="12.4554250093">
		<tag k="name" v="Liaholmen" />
>>>>>>> e1d4bc35ff8a6074a6f2e91616a996b547c36f15
		<tag k="place" v="locality" />
		<tag k="ssr:stedsnr" v="117893" />
	</node>
<<<<<<< HEAD
	<node lat="65.04120278000629" lon="12.148827769947408" id="-8426">
		<tag k="name" v="Middagstadmarka" />
		<tag k="place" v="locality" />
		<tag k="ssr:stedsnr" v="117949" />
	</node>
	<node lat="65.07112499701331" lon="12.035686113234261" id="-8508">
		<tag k="name" v="Brennmyra" />
		<tag k="natural" v="wetland" />
		<tag k="ssr:stedsnr" v="176140" />
	</node>
	<node lat="65.25097222475902" lon="12.603119451602916" id="-8509">
		<tag k="name" v="Sørmarkstaulan" />
=======
	<node id="-120219" lat="65.0478083301" lon="12.6230583333">
		<tag k="landuse" v="meadow" />
		<tag k="name" v="Bjørkenget" />
		<tag k="ssr:stedsnr" v="602858" />
	</node>
	<node id="-118168" lat="65.2076305511" lon="12.4995305587">
		<tag k="name" v="Kistmarka" />
>>>>>>> e1d4bc35ff8a6074a6f2e91616a996b547c36f15
		<tag k="place" v="locality" />
		<tag k="ssr:stedsnr" v="176216" />
	</node>
<<<<<<< HEAD
	<node lat="65.21191389203392" lon="12.20457221833036" id="-8513">
		<tag k="name" v="Rønningan" />
=======
	<node id="-120213" lat="65.1510638876" lon="12.0015833438">
		<tag k="name" v="Kasperengan" />
>>>>>>> e1d4bc35ff8a6074a6f2e91616a996b547c36f15
		<tag k="place" v="locality" />
		<tag k="ssr:stedsnr" v="176333" />
	</node>
<<<<<<< HEAD
	<node lat="65.14287222317868" lon="12.42897777545649" id="-8517">
		<tag k="name" v="Granskogen" />
		<tag k="place" v="locality" />
		<tag k="ssr:stedsnr" v="178271" />
	</node>
	<node lat="65.14146944299425" lon="12.462905546319224" id="-8518">
		<tag k="name" v="Moan" />
=======
	<node id="-118163" lat="65.0493305584" lon="12.5077694413">
		<tag k="name" v="Sørjorda" />
>>>>>>> e1d4bc35ff8a6074a6f2e91616a996b547c36f15
		<tag k="place" v="locality" />
		<tag k="ssr:stedsnr" v="178274" />
	</node>
<<<<<<< HEAD
	<node lat="65.07882500296692" lon="12.352619448110842" id="-8519">
=======
	<node id="-118161" lat="65.1341111107" lon="11.9702527723">
		<tag k="name" v="Uran" />
		<tag k="natural" v="scree" />
		<tag k="ssr:stedsnr" v="663476" />
	</node>
	<node id="-120208" lat="65.0991194429" lon="12.4324083281">
>>>>>>> e1d4bc35ff8a6074a6f2e91616a996b547c36f15
		<tag k="name" v="Stormyra" />
		<tag k="natural" v="wetland" />
		<tag k="ssr:stedsnr" v="178278" />
	</node>
<<<<<<< HEAD
	<node lat="65.22037222372052" lon="12.450405558015254" id="-8527">
		<tag k="name" v="Gjørndalsmyra" />
=======
	<node id="-118155" lat="65.2769388847" lon="12.4357944417">
		<tag k="name" v="Moamyra" />
>>>>>>> e1d4bc35ff8a6074a6f2e91616a996b547c36f15
		<tag k="natural" v="wetland" />
		<tag k="ssr:stedsnr" v="177098" />
	</node>
<<<<<<< HEAD
	<node lat="65.18225833597184" lon="12.455144451495832" id="-8531">
		<tag k="landuse" v="meadow" />
		<tag k="name" v="Elvan" />
		<tag k="ssr:stedsnr" v="177288" />
	</node>
	<node lat="65.05446111393536" lon="12.178375000299862" id="-8543">
		<tag k="name" v="Stisteinen" />
		<tag k="natural" v="stone" />
		<tag k="ssr:stedsnr" v="177922" />
	</node>
	<node lat="65.21234166831961" lon="12.677077774020052" id="-8544">
		<tag k="name" v="Øverenget" />
=======
	<node id="-120196" lat="65.0628694424" lon="12.1344611171">
		<tag k="name" v="Osasætran" />
		<tag k="place" v="locality" />
		<tag k="ssr:stedsnr" v="602630" />
	</node>
	<node id="-120195" lat="65.1081249971" lon="12.2208222215">
		<tag k="name" v="Gammelsetran" />
		<tag k="place" v="locality" />
		<tag k="ssr:stedsnr" v="602610" />
	</node>
	<node id="-120190" lat="65.143091668" lon="12.2388138935">
		<tag k="name" v="Vassmyra" />
>>>>>>> e1d4bc35ff8a6074a6f2e91616a996b547c36f15
		<tag k="natural" v="wetland" />
		<tag k="ssr:stedsnr" v="178031" />
	</node>
<<<<<<< HEAD
	<node lat="65.04628611097914" lon="12.485063888794809" id="-8552">
		<tag k="name" v="Heibakkmyra" />
		<tag k="natural" v="wetland" />
		<tag k="ssr:stedsnr" v="178574" />
	</node>
	<node lat="65.12358888515537" lon="12.552608327752935" id="-8553">
		<tag k="name" v="Stormyra" />
		<tag k="natural" v="wetland" />
		<tag k="ssr:stedsnr" v="178575" />
	</node>
	<node lat="65.06284166832148" lon="12.52364165846818" id="-8556">
		<tag k="name" v="Langenget" />
		<tag k="place" v="locality" />
		<tag k="ssr:stedsnr" v="178543" />
	</node>
	<node lat="64.99092499752464" lon="12.20164167186604" id="-8574">
		<tag k="name" v="Lonet" />
=======
	<node id="-118139" lat="65.075319441" lon="12.0239972229">
		<tag k="name" v="Kråkengmyra" />
		<tag k="natural" v="wetland" />
		<tag k="ssr:stedsnr" v="661116" />
	</node>
	<node id="-118134" lat="65.0227194484" lon="12.0513916758">
		<tag k="name" v="Stigamarka" />
		<tag k="place" v="locality" />
		<tag k="ssr:stedsnr" v="661019" />
	</node>
	<node id="-120180" lat="65.0821194422" lon="12.3421138812">
		<tag k="landuse" v="meadow" />
		<tag k="name" v="Kvennenget" />
		<tag k="ssr:stedsnr" v="602303" />
	</node>
	<node id="-120178" lat="65.0821472236" lon="12.2702194499">
		<tag k="landuse" v="meadow" />
		<tag k="name" v="Engan" />
		<tag k="ssr:stedsnr" v="602471" />
	</node>
	<node id="-118129" lat="65.1956555588" lon="12.7720194356">
		<tag k="name" v="Sørmarka" />
>>>>>>> e1d4bc35ff8a6074a6f2e91616a996b547c36f15
		<tag k="place" v="locality" />
		<tag k="ssr:stedsnr" v="178929" />
	</node>
<<<<<<< HEAD
	<node lat="65.03492222275909" lon="12.486716673844146" id="-8576">
		<tag k="name" v="Lissåmarka" />
=======
	<node id="-120174" lat="65.1386166669" lon="12.3355777702">
		<tag k="name" v="Dalstrøa" />
>>>>>>> e1d4bc35ff8a6074a6f2e91616a996b547c36f15
		<tag k="place" v="locality" />
		<tag k="ssr:stedsnr" v="178931" />
	</node>
<<<<<<< HEAD
	<node lat="65.15621111003709" lon="12.238749999252509" id="-8608">
		<tag k="name" v="Storengmyra" />
=======
	<node id="-120167" lat="65.2203583327" lon="12.4564777677">
		<tag k="name" v="Grøftholmyra" />
>>>>>>> e1d4bc35ff8a6074a6f2e91616a996b547c36f15
		<tag k="natural" v="wetland" />
		<tag k="ssr:stedsnr" v="197383" />
	</node>
<<<<<<< HEAD
	<node lat="65.12982777561415" lon="11.978786102350032" id="-8644">
		<tag k="name" v="Sætermyra" />
		<tag k="natural" v="wetland" />
		<tag k="ssr:stedsnr" v="197980" />
	</node>
	<node lat="65.26811944639388" lon="12.566974989961468" id="-8649">
		<tag k="name" v="Stormyra" />
		<tag k="natural" v="wetland" />
		<tag k="ssr:stedsnr" v="198142" />
	</node>
	<node lat="65.22453889280823" lon="12.454838879867594" id="-8667">
		<tag k="name" v="Finnhyttemarka" />
=======
	<node id="-118114" lat="65.1798333322" lon="12.2064194377">
		<tag k="name" v="Tverrlimyra" />
		<tag k="natural" v="wetland" />
		<tag k="ssr:stedsnr" v="421620" />
	</node>
	<node id="-118112" lat="65.0477222188" lon="12.5359277745">
		<tag k="name" v="Vollan" />
		<tag k="place" v="locality" />
		<tag k="ssr:stedsnr" v="421506" />
	</node>
	<node id="-118110" lat="65.1334638907" lon="12.3302305504">
		<tag k="name" v="Staulmyra" />
		<tag k="natural" v="wetland" />
		<tag k="ssr:stedsnr" v="421419" />
	</node>
	<node id="-118109" lat="65.0976749988" lon="12.3137277741">
		<tag k="landuse" v="meadow" />
		<tag k="name" v="Rolandenget" />
		<tag k="ssr:stedsnr" v="421402" />
	</node>
	<node id="-120155" lat="65.1986388877" lon="12.7355138832">
		<tag k="name" v="Røyrsteinen" />
		<tag k="natural" v="stone" />
		<tag k="ssr:stedsnr" v="602026" />
	</node>
	<node id="-118104" lat="65.060430552" lon="12.1878944518">
		<tag k="name" v="Brenna" />
>>>>>>> e1d4bc35ff8a6074a6f2e91616a996b547c36f15
		<tag k="place" v="locality" />
		<tag k="ssr:stedsnr" v="297059" />
	</node>
<<<<<<< HEAD
	<node lat="65.04975833674844" lon="12.104538880952388" id="-8669">
		<tag k="name" v="Langengmarka" />
=======
	<node id="-118098" lat="65.0476500023" lon="12.578699995">
		<tag k="name" v="Lissåmarka" />
>>>>>>> e1d4bc35ff8a6074a6f2e91616a996b547c36f15
		<tag k="place" v="locality" />
		<tag k="ssr:stedsnr" v="297064" />
	</node>
<<<<<<< HEAD
	<node lat="65.16737222559658" lon="12.191941656797649" id="-8675">
		<tag k="name" v="Strandmarka" />
=======
	<node id="-118097" lat="65.0462916705" lon="12.5451611106">
		<tag k="name" v="Reitan" />
>>>>>>> e1d4bc35ff8a6074a6f2e91616a996b547c36f15
		<tag k="place" v="locality" />
		<tag k="ssr:stedsnr" v="297696" />
	</node>
<<<<<<< HEAD
	<node lat="65.05749166437737" lon="12.554052772176972" id="-8682">
		<tag k="name" v="Brenna" />
=======
	<node id="-120143" lat="65.0710583367" lon="12.5574333261">
		<tag k="name" v="Svartholmarka" />
>>>>>>> e1d4bc35ff8a6074a6f2e91616a996b547c36f15
		<tag k="place" v="locality" />
		<tag k="ssr:stedsnr" v="297967" />
	</node>
<<<<<<< HEAD
	<node lat="65.04193888761156" lon="12.696013884464817" id="-8689">
		<tag k="name" v="Granbostadura" />
		<tag k="natural" v="scree" />
		<tag k="ssr:stedsnr" v="299041" />
	</node>
	<node lat="65.18769722367426" lon="12.487883332779314" id="-8696">
		<tag k="name" v="Tennskjærura" />
		<tag k="natural" v="scree" />
		<tag k="ssr:stedsnr" v="299336" />
	</node>
	<node lat="65.20471388868947" lon="12.512791664902927" id="-8708">
		<tag k="landuse" v="meadow" />
		<tag k="name" v="Lessenget" />
		<tag k="ssr:stedsnr" v="299414" />
	</node>
	<node lat="65.0167194405557" lon="12.104308338616807" id="-8711">
		<tag k="name" v="Sørdalsmyra" />
=======
	<node id="-118092" lat="65.2343694465" lon="12.4302583382">
		<tag k="name" v="Vikamyra" />
>>>>>>> e1d4bc35ff8a6074a6f2e91616a996b547c36f15
		<tag k="natural" v="wetland" />
		<tag k="ssr:stedsnr" v="299519" />
	</node>
<<<<<<< HEAD
	<node lat="65.13105833094224" lon="12.552227786895227" id="-8715">
		<tag k="name" v="Damvikmyra" />
=======
	<node id="-118090" lat="65.1359249969" lon="12.2444083342">
		<tag k="name" v="Stormyra" />
>>>>>>> e1d4bc35ff8a6074a6f2e91616a996b547c36f15
		<tag k="natural" v="wetland" />
		<tag k="ssr:stedsnr" v="299651" />
	</node>
<<<<<<< HEAD
	<node lat="65.13158611363325" lon="11.994575008021346" id="-8719">
		<tag k="name" v="Mellommarka" />
=======
	<node id="-118082" lat="65.0728583358" lon="12.000402785">
		<tag k="name" v="Storenget" />
>>>>>>> e1d4bc35ff8a6074a6f2e91616a996b547c36f15
		<tag k="place" v="locality" />
		<tag k="ssr:stedsnr" v="299849" />
	</node>
<<<<<<< HEAD
	<node lat="65.01588333799529" lon="12.436755548943454" id="-8727">
		<tag k="landuse" v="meadow" />
		<tag k="name" v="Storenget" />
		<tag k="ssr:stedsnr" v="299946" />
	</node>
	<node lat="65.12690277825965" lon="12.116572211724376" id="-8729">
		<tag k="name" v="Kamsura" />
		<tag k="natural" v="scree" />
		<tag k="ssr:stedsnr" v="299798" />
	</node>
	<node lat="65.11517777481137" lon="12.503530560863604" id="-8733">
		<tag k="alt_name" v="Hobakkan" />
		<tag k="name" v="Hobakken" />
=======
	<node id="-118081" lat="65.0312611133" lon="12.0563250008">
		<tag k="name" v="Gråmarkmyra" />
		<tag k="natural" v="wetland" />
		<tag k="ssr:stedsnr" v="418012" />
	</node>
	<node id="-118071" lat="65.0419388876" lon="12.6960138845">
		<tag k="name" v="Granbostadura" />
		<tag k="natural" v="scree" />
		<tag k="ssr:stedsnr" v="299041" />
	</node>
	<node id="-118068" lat="65.2099888872" lon="12.69385556">
		<tag k="name" v="Rundmyra" />
		<tag k="natural" v="wetland" />
		<tag k="ssr:stedsnr" v="299028" />
	</node>
	<node id="-120115" lat="65.1360361118" lon="12.1545944347">
		<tag k="historic" v="shieling" />
		<tag k="name" v="Heilssætra" />
		<tag k="place" v="locality" />
		<tag k="ssr:stedsnr" v="560994" />
	</node>
	<node id="-118043" lat="65.0194625483" lon="12.4415772875">
		<tag k="historic" v="shieling" />
		<tag k="name" v="Hårstadsætra" />
>>>>>>> e1d4bc35ff8a6074a6f2e91616a996b547c36f15
		<tag k="place" v="locality" />
		<tag k="ssr:stedsnr" v="317365" />
	</node>
<<<<<<< HEAD
	<node lat="65.0586916680009" lon="12.135202769820971" id="-8742">
		<tag k="name" v="Svartåsmyran" />
=======
	<node id="-118037" lat="65.1434555575" lon="12.2232861157">
		<tag k="alt_name" v="Tjørnmyra, indre" />
		<tag k="name" v="Inner-Tjønnmyra" />
>>>>>>> e1d4bc35ff8a6074a6f2e91616a996b547c36f15
		<tag k="natural" v="wetland" />
		<tag k="ssr:stedsnr" v="318092" />
	</node>
<<<<<<< HEAD
	<node lat="64.99598333223159" lon="12.50462500736432" id="-8772">
		<tag k="name" v="Stormyran" />
		<tag k="natural" v="wetland" />
		<tag k="ssr:stedsnr" v="318874" />
	</node>
	<node lat="65.04978332873318" lon="12.539761119326355" id="-8780">
		<tag k="name" v="Lykkjimyra" />
=======
	<node id="-120072" lat="65.0213888901" lon="12.5057583317">
		<tag k="name" v="Brottet" />
>>>>>>> e1d4bc35ff8a6074a6f2e91616a996b547c36f15
		<tag k="place" v="locality" />
		<tag k="ssr:stedsnr" v="329969" />
	</node>
<<<<<<< HEAD
	<node lat="65.15222499621163" lon="12.221611120461942" id="-8791">
		<tag k="landuse" v="meadow" />
		<tag k="name" v="Halenget" />
		<tag k="ssr:stedsnr" v="357690" />
	</node>
	<node lat="65.16933333179897" lon="12.262997213649095" id="-8793">
		<tag k="name" v="Hansengmyra" />
=======
	<node id="-118009" lat="65.1047638856" lon="11.9373694429">
		<tag k="name" v="Støvelmyra" />
>>>>>>> e1d4bc35ff8a6074a6f2e91616a996b547c36f15
		<tag k="natural" v="wetland" />
		<tag k="ssr:stedsnr" v="358080" />
	</node>
<<<<<<< HEAD
	<node lat="65.16820000217137" lon="12.26425276939792" id="-8794">
		<tag k="landuse" v="meadow" />
		<tag k="name" v="Hansenget" />
		<tag k="ssr:stedsnr" v="358081" />
	</node>
	<node lat="65.25964166900194" lon="12.452427767995232" id="-8800">
		<tag k="landuse" v="meadow" />
		<tag k="name" v="Nebbenget" />
		<tag k="ssr:stedsnr" v="359193" />
	</node>
	<node lat="65.12345000170643" lon="12.539833338642875" id="-8809">
		<tag k="name" v="Mellommyra" />
		<tag k="natural" v="wetland" />
		<tag k="ssr:stedsnr" v="359596" />
	</node>
	<node lat="65.1740138900588" lon="12.225591666606068" id="-8813">
		<tag k="name" v="Stormyra" />
		<tag k="natural" v="wetland" />
		<tag k="ssr:stedsnr" v="359685" />
	</node>
	<node lat="65.09820278010466" lon="12.591266661532877" id="-8818">
		<tag k="name" v="Trongmyra" />
		<tag k="natural" v="wetland" />
		<tag k="ssr:stedsnr" v="359981" />
	</node>
	<node lat="65.23917222105014" lon="12.680441658002549" id="-8822">
		<tag k="name" v="Søbergsmyra" />
		<tag k="natural" v="wetland" />
		<tag k="ssr:stedsnr" v="360046" />
	</node>
	<node lat="65.18817221959559" lon="12.211352773361178" id="-8823">
		<tag k="name" v="Fagerlimyra" />
=======
	<node id="-118006" lat="65.124747225" lon="11.9555472285">
		<tag k="alt_name" v="Melkarsletta" />
		<tag k="historic" v="shieling" />
		<tag k="name" v="Melksletta" />
		<tag k="place" v="locality" />
		<tag k="ssr:stedsnr" v="499950" />
	</node>
	<node id="-120048" lat="65.1376500044" lon="12.3405111124">
		<tag k="name" v="Vørttrøa" />
		<tag k="place" v="locality" />
		<tag k="ssr:stedsnr" v="542432" />
	</node>
	<node id="-120018" lat="65.240297221" lon="12.4338472214">
		<tag k="name" v="Storbærmyra" />
		<tag k="natural" v="wetland" />
		<tag k="ssr:stedsnr" v="541240" />
	</node>
	<node id="-120039" lat="65.158938887" lon="12.3597222232">
		<tag k="name" v="Gleksurda" />
		<tag k="natural" v="scree" />
		<tag k="ssr:stedsnr" v="542054" />
	</node>
	<node id="-117975" lat="65.1210666679" lon="12.1593638983">
		<tag k="name" v="Hornura" />
		<tag k="natural" v="scree" />
		<tag k="ssr:stedsnr" v="360575" />
	</node>
	<node id="-117970" lat="65.0809027738" lon="12.3457694403">
		<tag k="name" v="Sørmyra" />
>>>>>>> e1d4bc35ff8a6074a6f2e91616a996b547c36f15
		<tag k="natural" v="wetland" />
		<tag k="ssr:stedsnr" v="360300" />
	</node>
<<<<<<< HEAD
	<node lat="65.25808611243757" lon="12.588033333885157" id="-8825">
		<tag k="name" v="Hattvikmyra" />
		<tag k="natural" v="wetland" />
		<tag k="ssr:stedsnr" v="360339" />
	</node>
	<node lat="65.12106666789221" lon="12.15936389826692" id="-8845">
		<tag k="name" v="Hornura" />
		<tag k="natural" v="scree" />
		<tag k="ssr:stedsnr" v="360575" />
	</node>
	<node lat="65.06423055749315" lon="12.232394445818935" id="-8857">
		<tag k="name" v="Reingardssteinteigen" />
=======
	<node id="-120008" lat="65.1028583331" lon="12.2141250084">
		<tag k="name" v="Knutsetran" />
		<tag k="place" v="locality" />
		<tag k="ssr:stedsnr" v="540622" />
	</node>
	<node id="-117958" lat="65.1014527808" lon="12.4414472176">
		<tag k="name" v="Høgsetmarka" />
>>>>>>> e1d4bc35ff8a6074a6f2e91616a996b547c36f15
		<tag k="place" v="locality" />
		<tag k="ssr:stedsnr" v="360885" />
	</node>
<<<<<<< HEAD
	<node lat="65.08556111027703" lon="12.00241110043428" id="-8862">
		<tag k="name" v="Hålopmyra" />
=======
	<node id="-117956" lat="65.1052888861" lon="12.4423777703">
		<tag k="name" v="Mulingsmyra" />
>>>>>>> e1d4bc35ff8a6074a6f2e91616a996b547c36f15
		<tag k="natural" v="wetland" />
		<tag k="ssr:stedsnr" v="378036" />
	</node>
<<<<<<< HEAD
	<node lat="65.02374444411163" lon="12.092602768766268" id="-8879">
		<tag k="name" v="Fjellmyra" />
=======
	<node id="-120001" lat="65.1614333364" lon="12.2651388985">
		<tag k="name" v="Småmyran" />
>>>>>>> e1d4bc35ff8a6074a6f2e91616a996b547c36f15
		<tag k="natural" v="wetland" />
		<tag k="ssr:stedsnr" v="378154" />
	</node>
<<<<<<< HEAD
	<node lat="65.1152944416827" lon="12.689391656251027" id="-8892">
		<tag k="historic" v="shieling" />
		<tag k="name" v="Glømsetra" />
		<tag k="place" v="locality" />
		<tag k="ssr:stedsnr" v="378394" />
	</node>
	<node lat="65.08704166919696" lon="12.574444450944036" id="-8901">
		<tag k="alt_name" v="Lessengmyra" />
		<tag k="name" v="Litlengmyra" />
=======
	<node id="-119999" lat="65.0556361119" lon="12.1229666721">
		<tag k="name" v="Hattmyra" />
		<tag k="natural" v="wetland" />
		<tag k="ssr:stedsnr" v="540063" />
	</node>
	<node id="-119996" lat="65.0342527817" lon="12.073177781">
		<tag k="name" v="Skarmyra" />
>>>>>>> e1d4bc35ff8a6074a6f2e91616a996b547c36f15
		<tag k="natural" v="wetland" />
		<tag k="ssr:stedsnr" v="378437" />
	</node>
<<<<<<< HEAD
	<node lat="65.04029167032385" lon="12.837983344034223" id="-8908">
		<tag k="landuse" v="meadow" />
		<tag k="name" v="Mellomenget" />
		<tag k="ssr:stedsnr" v="378541" />
	</node>
	<node lat="65.22201389154593" lon="12.448541676936044" id="-8946">
		<tag k="name" v="Åkergardvika" />
=======
	<node id="-119995" lat="65.2352472186" lon="12.6990833294">
		<tag k="landuse" v="meadow" />
		<tag k="name" v="Dyrbenken" />
		<tag k="ssr:stedsnr" v="540028" />
	</node>
	<node id="-117942" lat="65.0818583347" lon="12.0674027858">
		<tag k="name" v="Bukkaforet" />
		<tag k="place" v="locality" />
		<tag k="ssr:stedsnr" v="357856" />
	</node>
	<node id="-117940" lat="65.0834166676" lon="12.5588277864">
		<tag k="name" v="Brenna" />
>>>>>>> e1d4bc35ff8a6074a6f2e91616a996b547c36f15
		<tag k="place" v="locality" />
		<tag k="ssr:stedsnr" v="419057" />
	</node>
<<<<<<< HEAD
	<node lat="65.1359249969027" lon="12.244408334229211" id="-8949">
		<tag k="name" v="Stormyra" />
		<tag k="natural" v="wetland" />
		<tag k="ssr:stedsnr" v="418518" />
	</node>
	<node lat="65.23436944654647" lon="12.430258338178872" id="-8953">
		<tag k="name" v="Vikamyra" />
		<tag k="natural" v="wetland" />
		<tag k="ssr:stedsnr" v="419023" />
	</node>
	<node lat="65.16712222274346" lon="12.228027771068184" id="-8961">
		<tag k="name" v="Mørnhusmyra" />
=======
	<node id="-117938" lat="64.9933638891" lon="12.2050694472">
		<tag k="name" v="Rønningen" />
		<tag k="place" v="locality" />
		<tag k="ssr:stedsnr" v="481932" />
	</node>
	<node id="-117937" lat="65.0411861071" lon="12.1808249986">
		<tag k="name" v="Straumura" />
		<tag k="natural" v="scree" />
		<tag k="ssr:stedsnr" v="481915" />
	</node>
	<node id="-117935" lat="65.0222805511" lon="12.4489166663">
		<tag k="name" v="Husmyra" />
>>>>>>> e1d4bc35ff8a6074a6f2e91616a996b547c36f15
		<tag k="natural" v="wetland" />
		<tag k="ssr:stedsnr" v="419723" />
	</node>
<<<<<<< HEAD
	<node lat="65.25119444737355" lon="12.507049989858865" id="-8964">
		<tag k="name" v="Bjørnsteinen" />
		<tag k="natural" v="stone" />
		<tag k="ssr:stedsnr" v="420200" />
	</node>
	<node lat="65.20682499905297" lon="12.474280556256083" id="-8969">
		<tag k="name" v="Stormyra" />
		<tag k="natural" v="wetland" />
		<tag k="ssr:stedsnr" v="420377" />
	</node>
	<node lat="65.23501944910304" lon="12.274669438354188" id="-8987">
		<tag k="name" v="Haustlimyra" />
=======
	<node id="-117932" lat="65.2842333333" lon="12.4157138872">
		<tag k="name" v="Måssteinen" />
		<tag k="natural" v="stone" />
		<tag k="ssr:stedsnr" v="481847" />
	</node>
	<node id="-117928" lat="65.2053666698" lon="12.1824333417">
		<tag k="name" v="Ganvikmyra" />
		<tag k="natural" v="wetland" />
		<tag k="ssr:stedsnr" v="481701" />
	</node>
	<node id="-117927" lat="65.1812249981" lon="12.1753111209">
		<tag k="name" v="Langurda" />
		<tag k="natural" v="scree" />
		<tag k="ssr:stedsnr" v="481686" />
	</node>
	<node id="-117926" lat="65.1417166651" lon="11.9982416757">
		<tag k="name" v="Gammelhesja" />
		<tag k="place" v="locality" />
		<tag k="ssr:stedsnr" v="481794" />
	</node>
	<node id="-117922" lat="65.1432277745" lon="12.1960111087">
		<tag k="landuse" v="meadow" />
		<tag k="name" v="Bakenget" />
		<tag k="ssr:stedsnr" v="481539" />
	</node>
	<node id="-119966" lat="65.0769777762" lon="12.000374995">
		<tag k="name" v="Dalamyra" />
>>>>>>> e1d4bc35ff8a6074a6f2e91616a996b547c36f15
		<tag k="natural" v="wetland" />
		<tag k="ssr:stedsnr" v="420858" />
	</node>
<<<<<<< HEAD
	<node lat="65.06043055200887" lon="12.187894451810159" id="-8989">
		<tag k="name" v="Brenna" />
=======
	<node id="-119960" lat="65.0243833355" lon="12.496533332">
		<tag k="name" v="Merragrovnesjan" />
>>>>>>> e1d4bc35ff8a6074a6f2e91616a996b547c36f15
		<tag k="place" v="locality" />
		<tag k="ssr:stedsnr" v="420913" />
	</node>
<<<<<<< HEAD
	<node lat="65.13346389065714" lon="12.330230550408439" id="-8998">
		<tag k="name" v="Staulmyra" />
		<tag k="natural" v="wetland" />
		<tag k="ssr:stedsnr" v="421419" />
	</node>
	<node lat="65.07659444872307" lon="12.458438895367363" id="-9005">
		<tag k="name" v="Småmyran" />
=======
	<node id="-117910" lat="65.1039638926" lon="12.3024055662">
		<tag k="landuse" v="meadow" />
		<tag k="name" v="Ugrasmarka" />
		<tag k="ssr:stedsnr" v="481430" />
	</node>
	<node id="-119957" lat="65.0621166706" lon="12.207525008">
		<tag k="name" v="Skogtrøen" />
		<tag k="place" v="locality" />
		<tag k="ssr:stedsnr" v="421897" />
	</node>
	<node id="-119956" lat="65.0622138872" lon="12.4561722205">
		<tag k="name" v="Randimyra" />
>>>>>>> e1d4bc35ff8a6074a6f2e91616a996b547c36f15
		<tag k="natural" v="wetland" />
		<tag k="ssr:stedsnr" v="421553" />
	</node>
<<<<<<< HEAD
	<node lat="65.126511111009" lon="12.546038878552038" id="-9008">
		<tag k="name" v="Hestgardsmyra" />
		<tag k="natural" v="wetland" />
		<tag k="ssr:stedsnr" v="421577" />
	</node>
	<node lat="65.06221388715875" lon="12.456172220491961" id="-9010">
		<tag k="name" v="Randimyra" />
=======
	<node id="-117898" lat="65.0549999954" lon="12.5570694512">
		<tag k="name" v="Karimyra" />
		<tag k="natural" v="wetland" />
		<tag k="ssr:stedsnr" v="479976" />
	</node>
	<node id="-117896" lat="65.0520972251" lon="12.5778500056">
		<tag k="landuse" v="meadow" />
		<tag k="name" v="Skarstadfjellslåtten" />
		<tag k="ssr:stedsnr" v="479966" />
	</node>
	<node id="-119943" lat="65.0765944487" lon="12.4584388954">
		<tag k="name" v="Småmyran" />
>>>>>>> e1d4bc35ff8a6074a6f2e91616a996b547c36f15
		<tag k="natural" v="wetland" />
		<tag k="ssr:stedsnr" v="421896" />
	</node>
<<<<<<< HEAD
	<node lat="65.06211667064615" lon="12.207525007950638" id="-9011">
		<tag k="name" v="Skogtrøen" />
=======
	<node id="-119938" lat="65.1387277751" lon="12.4761750015">
		<tag k="name" v="Bugarden" />
>>>>>>> e1d4bc35ff8a6074a6f2e91616a996b547c36f15
		<tag k="place" v="locality" />
		<tag k="ssr:stedsnr" v="421897" />
	</node>
<<<<<<< HEAD
	<node lat="65.02438333548257" lon="12.496533332047104" id="-9013">
		<tag k="name" v="Merragrovnesjan" />
		<tag k="place" v="locality" />
		<tag k="ssr:stedsnr" v="421951" />
	</node>
	<node lat="65.07697777616052" lon="12.0003749950282" id="-9023">
		<tag k="name" v="Dalamyra" />
=======
	<node id="-117885" lat="65.0346444482" lon="12.0601472278">
		<tag k="name" v="Langmyra" />
		<tag k="natural" v="wetland" />
		<tag k="ssr:stedsnr" v="479014" />
	</node>
	<node id="-119927" lat="65.0379583329" lon="12.1784250016">
		<tag k="name" v="Straummyra" />
>>>>>>> e1d4bc35ff8a6074a6f2e91616a996b547c36f15
		<tag k="natural" v="wetland" />
		<tag k="ssr:stedsnr" v="439036" />
	</node>
<<<<<<< HEAD
	<node lat="65.06249288309098" lon="12.545044723467756" id="-9081">
		<tag k="name" v="Bukkamyra" />
=======
	<node id="-119921" lat="65.2350194491" lon="12.2746694384">
		<tag k="name" v="Haustlimyra" />
>>>>>>> e1d4bc35ff8a6074a6f2e91616a996b547c36f15
		<tag k="natural" v="wetland" />
		<tag k="ssr:stedsnr" v="500528" />
	</node>
<<<<<<< HEAD
	<node lat="65.12474722497096" lon="11.955547228485138" id="-9092">
		<tag k="alt_name" v="Melkarsletta" />
		<tag k="historic" v="shieling" />
		<tag k="name" v="Melksletta" />
		<tag k="place" v="locality" />
		<tag k="ssr:stedsnr" v="499950" />
	</node>
	<node lat="65.01946254831823" lon="12.441577287468341" id="-9119">
		<tag k="historic" v="shieling" />
		<tag k="name" v="Hårstadsætra" />
		<tag k="place" v="locality" />
		<tag k="ssr:stedsnr" v="500674" />
	</node>
	<node lat="65.1303527733372" lon="12.542808335418318" id="-9134">
		<tag k="name" v="Kalvvikmyra" />
		<tag k="natural" v="wetland" />
		<tag k="ssr:stedsnr" v="535627" />
	</node>
	<node lat="65.23504444832359" lon="12.508194439167324" id="-9137">
		<tag k="name" v="Eide skog" />
		<tag k="place" v="locality" />
		<tag k="ssr:stedsnr" v="540020" />
	</node>
	<node lat="65.23524721863753" lon="12.699083329382148" id="-9138">
		<tag k="landuse" v="meadow" />
		<tag k="name" v="Dyrbenken" />
		<tag k="ssr:stedsnr" v="540028" />
	</node>
	<node lat="65.03425278166723" lon="12.073177781040497" id="-9139">
		<tag k="alt_name" v="Skarmyra" />
		<tag k="name" v="Skardmyra" />
=======
	<node id="-117871" lat="65.1151777748" lon="12.5035305609">
		<tag k="alt_name" v="Hobakkan" />
		<tag k="name" v="Hobakken" />
		<tag k="place" v="locality" />
		<tag k="ssr:stedsnr" v="317365" />
	</node>
	<node id="-119918" lat="65.1402499961" lon="12.2389416651">
		<tag k="name" v="Krokmyra" />
		<tag k="natural" v="wetland" />
		<tag k="ssr:stedsnr" v="420585" />
	</node>
	<node id="-119909" lat="65.2068249991" lon="12.4742805563">
		<tag k="name" v="Stormyra" />
		<tag k="natural" v="wetland" />
		<tag k="ssr:stedsnr" v="420377" />
	</node>
	<node id="-119908" lat="65.2511944474" lon="12.5070499899">
		<tag k="name" v="Bjørnsteinen" />
		<tag k="natural" v="stone" />
		<tag k="ssr:stedsnr" v="420200" />
	</node>
	<node id="-117859" lat="65.1782416633" lon="12.1642666588">
		<tag k="name" v="Solstadurda" />
		<tag k="natural" v="scree" />
		<tag k="ssr:stedsnr" v="299711" />
	</node>
	<node id="-117857" lat="65.1562027755" lon="12.0170444408">
		<tag k="name" v="Oterura" />
		<tag k="natural" v="scree" />
		<tag k="ssr:stedsnr" v="299825" />
	</node>
	<node id="-117854" lat="65.1221277769" lon="12.5389305487">
		<tag k="name" v="Heimermyra" />
		<tag k="natural" v="wetland" />
		<tag k="ssr:stedsnr" v="299602" />
	</node>
	<node id="-117853" lat="65.0167194406" lon="12.1043083386">
		<tag k="name" v="Sørdalsmyra" />
>>>>>>> e1d4bc35ff8a6074a6f2e91616a996b547c36f15
		<tag k="natural" v="wetland" />
		<tag k="ssr:stedsnr" v="540029" />
	</node>
<<<<<<< HEAD
	<node lat="65.16143333639688" lon="12.265138898500288" id="-9144">
		<tag k="name" v="Småmyran" />
		<tag k="natural" v="wetland" />
		<tag k="ssr:stedsnr" v="540090" />
	</node>
	<node lat="65.23097777990499" lon="12.355366657850613" id="-9146">
		<tag k="name" v="Stormyra" />
=======
	<node id="-117851" lat="65.130305559" lon="11.9829361194">
		<tag k="name" v="Langmarkmyra" />
>>>>>>> e1d4bc35ff8a6074a6f2e91616a996b547c36f15
		<tag k="natural" v="wetland" />
		<tag k="ssr:stedsnr" v="540833" />
	</node>
<<<<<<< HEAD
	<node lat="65.24029722102226" lon="12.433847221356457" id="-9159">
		<tag k="name" v="Storbærmyra" />
		<tag k="natural" v="wetland" />
		<tag k="ssr:stedsnr" v="541240" />
	</node>
	<node lat="65.04463611126556" lon="12.476233328460562" id="-9165">
		<tag k="landuse" v="meadow" />
		<tag k="name" v="Merraenget" />
		<tag k="ssr:stedsnr" v="542576" />
	</node>
	<node lat="65.12525555620834" lon="12.556122226805677" id="-9166">
		<tag k="name" v="Rodalsmyra" />
=======
	<node id="-117850" lat="65.0759666643" lon="11.9695111128">
		<tag k="name" v="Oteråsmyra" />
		<tag k="natural" v="wetland" />
		<tag k="ssr:stedsnr" v="299506" />
	</node>
	<node id="-119896" lat="65.1397250019" lon="12.1407583429">
		<tag k="landuse" v="meadow" />
		<tag k="name" v="Heilssetran" />
		<tag k="ssr:stedsnr" v="419593" />
	</node>
	<node id="-117846" lat="65.2047138887" lon="12.5127916649">
		<tag k="landuse" v="meadow" />
		<tag k="name" v="Lessenget" />
		<tag k="ssr:stedsnr" v="299414" />
	</node>
	<node id="-119889" lat="65.2220138915" lon="12.4485416769">
		<tag k="name" v="Åkergardvika" />
		<tag k="place" v="locality" />
		<tag k="ssr:stedsnr" v="419057" />
	</node>
	<node id="-119886" lat="65.2639277757" lon="12.3377583227">
		<tag k="name" v="Stordya" />
>>>>>>> e1d4bc35ff8a6074a6f2e91616a996b547c36f15
		<tag k="natural" v="wetland" />
		<tag k="ssr:stedsnr" v="542578" />
	</node>
<<<<<<< HEAD
	<node lat="65.11955277574033" lon="12.175097230230822" id="-9170">
		<tag k="name" v="Åslimarka" />
=======
	<node id="-119885" lat="65.2299333373" lon="12.3611111113">
		<tag k="name" v="Skittenbakkskogen" />
>>>>>>> e1d4bc35ff8a6074a6f2e91616a996b547c36f15
		<tag k="place" v="locality" />
		<tag k="ssr:stedsnr" v="542590" />
	</node>
<<<<<<< HEAD
	<node lat="65.13765000435212" lon="12.340511112387086" id="-9188">
		<tag k="name" v="Vørttrøa" />
=======
	<node id="-119884" lat="65.2682138895" lon="12.3422194463">
		<tag k="name" v="Flatmarka" />
>>>>>>> e1d4bc35ff8a6074a6f2e91616a996b547c36f15
		<tag k="place" v="locality" />
		<tag k="ssr:stedsnr" v="542432" />
	</node>
<<<<<<< HEAD
	<node lat="65.15893888695402" lon="12.359722223172271" id="-9189">
		<tag k="name" v="Gleksurda" />
		<tag k="natural" v="scree" />
		<tag k="ssr:stedsnr" v="542054" />
	</node>
	<node lat="65.11954999880032" lon="12.24628611866409" id="-9192">
		<tag k="name" v="Strandvollan" />
		<tag k="place" v="locality" />
		<tag k="ssr:stedsnr" v="542560" />
	</node>
	<node lat="65.02138889014734" lon="12.505758331709092" id="-9206">
		<tag k="name" v="Brottet" />
		<tag k="place" v="locality" />
		<tag k="ssr:stedsnr" v="542951" />
	</node>
	<node lat="65.13603611177375" lon="12.154594434668974" id="-9267">
=======
	<node id="-119882" lat="65.2348249975" lon="12.5299694494">
		<tag k="name" v="Nesan" />
		<tag k="natural" v="wetland" />
		<tag k="ssr:stedsnr" v="419039" />
	</node>
	<node id="-117789" lat="65.0693861137" lon="11.9106638901">
		<tag k="name" v="Gammelsetran" />
		<tag k="place" v="locality" />
		<tag k="ssr:stedsnr" v="229403" />
	</node>
	<node id="-117768" lat="65.1437583326" lon="12.2154027738">
		<tag k="alt_name" v="Tjørnmyra, yt" />
		<tag k="name" v="Ytter-Tjønnmyra" />
		<tag k="natural" v="wetland" />
		<tag k="ssr:stedsnr" v="439990" />
	</node>
	<node id="-119814" lat="65.0402916703" lon="12.837983344">
		<tag k="landuse" v="meadow" />
		<tag k="name" v="Mellomenget" />
		<tag k="ssr:stedsnr" v="378541" />
	</node>
	<node id="-119803" lat="65.0870416692" lon="12.5744444509">
		<tag k="alt_name" v="Lessengmyra" />
		<tag k="name" v="Litlengmyra" />
		<tag k="natural" v="wetland" />
		<tag k="ssr:stedsnr" v="378437" />
	</node>
	<node id="-119799" lat="65.1152944417" lon="12.6893916563">
>>>>>>> e1d4bc35ff8a6074a6f2e91616a996b547c36f15
		<tag k="historic" v="shieling" />
		<tag k="name" v="Heilssætra" />
		<tag k="place" v="locality" />
		<tag k="ssr:stedsnr" v="560994" />
	</node>
<<<<<<< HEAD
	<node lat="65.07105833667927" lon="12.557433326087292" id="-9278">
		<tag k="name" v="Svartholmarka" />
=======
	<node id="-117737" lat="65.0574916644" lon="12.5540527722">
		<tag k="name" v="Brenna" />
>>>>>>> e1d4bc35ff8a6074a6f2e91616a996b547c36f15
		<tag k="place" v="locality" />
		<tag k="ssr:stedsnr" v="600225" />
	</node>
<<<<<<< HEAD
	<node lat="65.19863888766987" lon="12.735513883224499" id="-9295">
		<tag k="name" v="Røyrsteinen" />
		<tag k="natural" v="stone" />
		<tag k="ssr:stedsnr" v="602026" />
	</node>
	<node lat="65.2167277802461" lon="12.453438881052882" id="-9302">
		<tag k="name" v="Kråmyra" />
		<tag k="natural" v="wetland" />
		<tag k="ssr:stedsnr" v="602102" />
	</node>
	<node lat="65.11778333095548" lon="12.403877777835708" id="-9313">
		<tag k="name" v="Steinsteinan" />
		<tag k="natural" v="stone" />
		<tag k="ssr:stedsnr" v="602360" />
	</node>
	<node lat="65.0821472235611" lon="12.270219449922319" id="-9317">
		<tag k="landuse" v="meadow" />
		<tag k="name" v="Engan" />
		<tag k="ssr:stedsnr" v="602471" />
	</node>
	<node lat="65.10812499714332" lon="12.220822221514624" id="-9319">
		<tag k="name" v="Gammelsetran" />
		<tag k="place" v="locality" />
		<tag k="ssr:stedsnr" v="602610" />
	</node>
	<node lat="65.14309166799092" lon="12.238813893509976" id="-9322">
		<tag k="name" v="Vassmyra" />
=======
	<node id="-119779" lat="65.0237444441" lon="12.0926027688">
		<tag k="name" v="Fjellmyra" />
		<tag k="natural" v="wetland" />
		<tag k="ssr:stedsnr" v="378154" />
	</node>
	<node id="-119778" lat="65.0855611103" lon="12.0024111004">
		<tag k="name" v="Hålopmyra" />
		<tag k="natural" v="wetland" />
		<tag k="ssr:stedsnr" v="378036" />
	</node>
	<node id="-119774" lat="65.1019861154" lon="11.9452444384">
		<tag k="name" v="Storenget" />
		<tag k="place" v="locality" />
		<tag k="ssr:stedsnr" v="439012" />
	</node>
	<node id="-117725" lat="65.1673722256" lon="12.1919416568">
		<tag k="name" v="Strandmarka" />
		<tag k="place" v="locality" />
		<tag k="ssr:stedsnr" v="297696" />
	</node>
	<node id="-117723" lat="65.1609194405" lon="12.2435944459">
		<tag k="landuse" v="meadow" />
		<tag k="name" v="Åkvikstorenget" />
		<tag k="ssr:stedsnr" v="297683" />
	</node>
	<node id="-119770" lat="65.0642305575" lon="12.2323944458">
		<tag k="name" v="Reingardssteinteigen" />
		<tag k="place" v="locality" />
		<tag k="ssr:stedsnr" v="360885" />
	</node>
	<node id="-117711" lat="65.0497583367" lon="12.104538881">
		<tag k="name" v="Langengmarka" />
		<tag k="place" v="locality" />
		<tag k="ssr:stedsnr" v="297064" />
	</node>
	<node id="-117709" lat="65.2245388928" lon="12.4548388799">
		<tag k="name" v="Finnhyttemarka" />
		<tag k="place" v="locality" />
		<tag k="ssr:stedsnr" v="297059" />
	</node>
	<node id="-119755" lat="65.2580861124" lon="12.5880333339">
		<tag k="name" v="Hattvikmyra" />
		<tag k="natural" v="wetland" />
		<tag k="ssr:stedsnr" v="360339" />
	</node>
	<node id="-119751" lat="65.1881722196" lon="12.2113527734">
		<tag k="name" v="Fagerlimyra" />
		<tag k="natural" v="wetland" />
		<tag k="ssr:stedsnr" v="360300" />
	</node>
	<node id="-119750" lat="65.0982027801" lon="12.5912666615">
		<tag k="name" v="Trongmyra" />
		<tag k="natural" v="wetland" />
		<tag k="ssr:stedsnr" v="359981" />
	</node>
	<node id="-119748" lat="65.2391722211" lon="12.680441658">
		<tag k="name" v="Søbergsmyra" />
>>>>>>> e1d4bc35ff8a6074a6f2e91616a996b547c36f15
		<tag k="natural" v="wetland" />
		<tag k="ssr:stedsnr" v="602544" />
	</node>
<<<<<<< HEAD
	<node lat="65.09911944288942" lon="12.432408328118468" id="-9328">
=======
	<node id="-119742" lat="65.1740138901" lon="12.2255916666">
>>>>>>> e1d4bc35ff8a6074a6f2e91616a996b547c36f15
		<tag k="name" v="Stormyra" />
		<tag k="natural" v="wetland" />
		<tag k="ssr:stedsnr" v="602691" />
	</node>
<<<<<<< HEAD
	<node lat="65.06286944242486" lon="12.134461117095986" id="-9333">
		<tag k="name" v="Osasætran" />
		<tag k="place" v="locality" />
		<tag k="ssr:stedsnr" v="602630" />
	</node>
	<node lat="65.21135278188568" lon="12.668916676394645" id="-9338">
		<tag k="name" v="Moltmyra" />
=======
	<node id="-119739" lat="65.1234500017" lon="12.5398333386">
		<tag k="name" v="Mellommyra" />
		<tag k="natural" v="wetland" />
		<tag k="ssr:stedsnr" v="359596" />
	</node>
	<node id="-117686" lat="65.2603888852" lon="12.5804027813">
		<tag k="name" v="Votnmyra" />
>>>>>>> e1d4bc35ff8a6074a6f2e91616a996b547c36f15
		<tag k="natural" v="wetland" />
		<tag k="ssr:stedsnr" v="602727" />
	</node>
<<<<<<< HEAD
	<node lat="65.23734722451307" lon="12.65489722629959" id="-9339">
		<tag k="landuse" v="meadow" />
		<tag k="name" v="Finnhytteenget" />
		<tag k="ssr:stedsnr" v="602728" />
	</node>
	<node lat="65.06089166661661" lon="12.455425009304204" id="-9346">
		<tag k="name" v="Liaholmen" />
		<tag k="place" v="locality" />
		<tag k="ssr:stedsnr" v="602893" />
	</node>
	<node lat="65.06202499783615" lon="12.468100007720048" id="-9348">
		<tag k="name" v="Sjøstranda" />
		<tag k="place" v="locality" />
		<tag k="ssr:stedsnr" v="602911" />
	</node>
	<node lat="65.03454166966854" lon="12.094258331752174" id="-9369">
		<tag k="name" v="Dammyra" />
=======
	<node id="-119733" lat="65.259641669" lon="12.452427768">
		<tag k="landuse" v="meadow" />
		<tag k="name" v="Nebbenget" />
		<tag k="ssr:stedsnr" v="359193" />
	</node>
	<node id="-119730" lat="65.2108972227" lon="12.6718527765">
		<tag k="name" v="Bjørnstakkenget" />
		<tag k="natural" v="wetland" />
		<tag k="ssr:stedsnr" v="359022" />
	</node>
	<node id="-117672" lat="65.0620888898" lon="12.4595972124">
		<tag k="name" v="Valan" />
		<tag k="place" v="locality" />
		<tag k="ssr:stedsnr" v="178906" />
	</node>
	<node id="-119717" lat="65.1682000022" lon="12.2642527694">
		<tag k="landuse" v="meadow" />
		<tag k="name" v="Hansenget" />
		<tag k="ssr:stedsnr" v="358081" />
	</node>
	<node id="-119716" lat="65.1693333318" lon="12.2629972136">
		<tag k="name" v="Hansengmyra" />
		<tag k="natural" v="wetland" />
		<tag k="ssr:stedsnr" v="358080" />
	</node>
	<node id="-117667" lat="65.1235888852" lon="12.5526083278">
		<tag k="name" v="Stormyra" />
>>>>>>> e1d4bc35ff8a6074a6f2e91616a996b547c36f15
		<tag k="natural" v="wetland" />
		<tag k="ssr:stedsnr" v="621147" />
	</node>
<<<<<<< HEAD
	<node lat="65.19565555878421" lon="12.772019435572846" id="-9424">
		<tag k="name" v="Sørmarka" />
		<tag k="place" v="locality" />
		<tag k="ssr:stedsnr" v="660434" />
	</node>
	<node lat="65.0753194409864" lon="12.0239972228914" id="-9427">
		<tag k="name" v="Kråkengmyra" />
=======
	<node id="-117666" lat="65.046286111" lon="12.4850638888">
		<tag k="name" v="Heibakkmyra" />
		<tag k="natural" v="wetland" />
		<tag k="ssr:stedsnr" v="178574" />
	</node>
	<node id="-117665" lat="65.1195666648" lon="12.5579250082">
		<tag k="name" v="Kvernmyra" />
>>>>>>> e1d4bc35ff8a6074a6f2e91616a996b547c36f15
		<tag k="natural" v="wetland" />
		<tag k="ssr:stedsnr" v="661116" />
	</node>
<<<<<<< HEAD
	<node lat="65.022719448445" lon="12.051391675827787" id="-9429">
		<tag k="name" v="Stigamarka" />
		<tag k="place" v="locality" />
		<tag k="ssr:stedsnr" v="661019" />
	</node>
	<node lat="65.04031944564422" lon="12.119902775005777" id="-9434">
		<tag k="name" v="Engesmyra" />
=======
	<node id="-119712" lat="65.1522249962" lon="12.2216111205">
		<tag k="landuse" v="meadow" />
		<tag k="name" v="Halenget" />
		<tag k="ssr:stedsnr" v="357690" />
	</node>
	<node id="-117659" lat="65.1370972259" lon="12.3240361213">
		<tag k="name" v="Høgåsmyra" />
>>>>>>> e1d4bc35ff8a6074a6f2e91616a996b547c36f15
		<tag k="natural" v="wetland" />
		<tag k="ssr:stedsnr" v="661058" />
	</node>
<<<<<<< HEAD
	<node lat="65.22966944129335" lon="12.35087778110217" id="-9441">
		<tag k="name" v="Torvmyra" />
=======
	<node id="-117658" lat="65.1122444434" lon="12.3009055613">
		<tag k="name" v="Sæteråsmyra" />
>>>>>>> e1d4bc35ff8a6074a6f2e91616a996b547c36f15
		<tag k="natural" v="wetland" />
		<tag k="ssr:stedsnr" v="661853" />
	</node>
<<<<<<< HEAD
	<node lat="65.12021944515357" lon="12.202947217821077" id="-9447">
		<tag k="name" v="Raudura" />
		<tag k="natural" v="scree" />
		<tag k="ssr:stedsnr" v="663585" />
	</node>
	<node lat="65.12942221949255" lon="12.153533340404623" id="-9448">
		<tag k="name" v="Vargura" />
		<tag k="natural" v="scree" />
		<tag k="ssr:stedsnr" v="663592" />
	</node>
	<node lat="65.20763055114712" lon="12.499530558721222" id="-9466">
		<tag k="name" v="Kistmarka" />
=======
	<node id="-117651" lat="65.1821166702" lon="12.3519472211">
		<tag k="name" v="Stormyra" />
		<tag k="natural" v="wetland" />
		<tag k="ssr:stedsnr" v="178071" />
	</node>
	<node id="-117650" lat="65.0544611139" lon="12.1783750003">
		<tag k="name" v="Stisteinen" />
		<tag k="natural" v="stone" />
		<tag k="ssr:stedsnr" v="177922" />
	</node>
	<node id="-119694" lat="65.0497833287" lon="12.5397611193">
		<tag k="name" v="Lykkjimyra" />
>>>>>>> e1d4bc35ff8a6074a6f2e91616a996b547c36f15
		<tag k="place" v="locality" />
		<tag k="ssr:stedsnr" v="663375" />
	</node>
<<<<<<< HEAD
	<node lat="65.04933055835907" lon="12.507769441290595" id="-9472">
		<tag k="name" v="Sørjorda" />
		<tag k="place" v="locality" />
		<tag k="ssr:stedsnr" v="663492" />
	</node>
	<node lat="65.13411111073064" lon="11.970252772307935" id="-9478">
		<tag k="name" v="Uran" />
		<tag k="natural" v="scree" />
		<tag k="ssr:stedsnr" v="663476" />
	</node>
	<node lat="65.06910555717926" lon="12.454536116600261" id="-9480">
		<tag k="historic" v="shieling" />
		<tag k="name" v="Kalåsetran" />
		<tag k="place" v="locality" />
		<tag k="ssr:stedsnr" v="663550" />
	</node>
	<node lat="65.11460555240372" lon="12.218980549535337" id="-9484">
		<tag k="name" v="Stormyrån" />
		<tag k="natural" v="wetland" />
		<tag k="ssr:stedsnr" v="663573" />
	</node>
	<node lat="65.18928888839837" lon="12.18592501024502" id="-9492">
		<tag k="name" v="Hans-Nilsåurda" />
=======
	<node id="-117632" lat="65.015883338" lon="12.4367555489">
		<tag k="landuse" v="meadow" />
		<tag k="name" v="Storenget" />
		<tag k="ssr:stedsnr" v="299946" />
	</node>
	<node id="-117631" lat="65.071025001" lon="11.9188361143">
		<tag k="name" v="Heimersætran" />
		<tag k="place" v="locality" />
		<tag k="ssr:stedsnr" v="168409" />
	</node>
	<node id="-117628" lat="65.0638666678" lon="12.2330888968">
		<tag k="name" v="Reingardssteinan" />
		<tag k="natural" v="stone" />
		<tag k="ssr:stedsnr" v="299888" />
	</node>
	<node id="-117622" lat="65.1269027783" lon="12.1165722117">
		<tag k="name" v="Kamsura" />
>>>>>>> e1d4bc35ff8a6074a6f2e91616a996b547c36f15
		<tag k="natural" v="scree" />
		<tag k="ssr:stedsnr" v="663677" />
	</node>
<<<<<<< HEAD
	<node lat="65.04335833249802" lon="12.659380551477158" id="-9501">
		<tag k="name" v="Hollimyra" />
		<tag k="natural" v="wetland" />
		<tag k="ssr:stedsnr" v="663868" />
	</node>
	<node lat="65.08638610991831" lon="12.017074999370228" id="-9504">
		<tag k="name" v="Nylenna" />
=======
	<node id="-119634" lat="65.058691668" lon="12.1352027698">
		<tag k="name" v="Svartåsmyran" />
		<tag k="natural" v="wetland" />
		<tag k="ssr:stedsnr" v="318092" />
	</node>
	<node id="-117584" lat="65.0534749978" lon="12.5159000077">
		<tag k="name" v="Svortmyra" />
		<tag k="place" v="locality" />
		<tag k="ssr:stedsnr" v="117526" />
	</node>
	<node id="-117583" lat="65.0586277749" lon="12.503291669">
		<tag k="name" v="Øvjeenget" />
>>>>>>> e1d4bc35ff8a6074a6f2e91616a996b547c36f15
		<tag k="place" v="locality" />
		<tag k="ssr:stedsnr" v="663880" />
	</node>
<<<<<<< HEAD
	<node lat="65.06650277782123" lon="12.100436114303287" id="-9514">
		<tag k="name" v="Øren" />
=======
	<node id="-117582" lat="65.0592444407" lon="12.4788000026">
		<tag k="name" v="Sandøyra" />
>>>>>>> e1d4bc35ff8a6074a6f2e91616a996b547c36f15
		<tag k="place" v="locality" />
		<tag k="ssr:stedsnr" v="722234" />
	</node>
<<<<<<< HEAD
	<node lat="65.10424444824439" lon="12.222819443590366" id="-9520">
		<tag k="name" v="Bertelsmyra" />
		<tag k="natural" v="wetland" />
		<tag k="ssr:stedsnr" v="722632" />
	</node>
	<node lat="65.0513222263344" lon="12.59180000111075" id="-9532">
=======
	<node id="-117575" lat="65.2369388928" lon="12.5157777696">
>>>>>>> e1d4bc35ff8a6074a6f2e91616a996b547c36f15
		<tag k="landuse" v="meadow" />
		<tag k="name" v="Mellaenget" />
		<tag k="ssr:stedsnr" v="722969" />
	</node>
<<<<<<< HEAD
	<node lat="65.12018610712393" lon="12.516791670385471" id="-9539">
		<tag k="name" v="Kalvgarden" />
		<tag k="place" v="locality" />
		<tag k="ssr:stedsnr" v="723654" />
	</node>
	<node lat="65.18072777493657" lon="12.384988878244554" id="-9548">
		<tag k="name" v="Kråkvikmyra" />
=======
	<node id="-119615" lat="65.2681194464" lon="12.56697499">
		<tag k="name" v="Stormyra" />
		<tag k="natural" v="wetland" />
		<tag k="ssr:stedsnr" v="198142" />
	</node>
	<node id="-119946" lat="65.126511111" lon="12.5460388786">
		<tag k="name" v="Hestgardsmyra" />
		<tag k="natural" v="wetland" />
		<tag k="ssr:stedsnr" v="421577" />
	</node>
	<node id="-119608" lat="65.1298277756" lon="11.9787861024">
		<tag k="name" v="Sætermyra" />
>>>>>>> e1d4bc35ff8a6074a6f2e91616a996b547c36f15
		<tag k="natural" v="wetland" />
		<tag k="ssr:stedsnr" v="724041" />
	</node>
<<<<<<< HEAD
	<node lat="65.20610277375943" lon="12.486433338865748" id="-9556">
		<tag k="name" v="Bjørnakselmyra" />
=======
	<node id="-117556" lat="65.0095055525" lon="12.7343083375">
		<tag k="name" v="Engesmyra" />
>>>>>>> e1d4bc35ff8a6074a6f2e91616a996b547c36f15
		<tag k="natural" v="wetland" />
		<tag k="ssr:stedsnr" v="724364" />
	</node>
<<<<<<< HEAD
	<node lat="65.04841389209908" lon="12.53246944255675" id="-9562">
		<tag k="name" v="Kaukneset" />
		<tag k="place" v="locality" />
		<tag k="ssr:stedsnr" v="724498" />
	</node>
	<node lat="64.9860305560629" lon="12.209861111879773" id="-9579">
		<tag k="name" v="Dosen" />
		<tag k="place" v="locality" />
		<tag k="ssr:stedsnr" v="724959" />
	</node>
	<node lat="65.08492778114004" lon="12.567975002387707" id="-9593">
		<tag k="landuse" v="meadow" />
		<tag k="name" v="Lessenget" />
		<tag k="ssr:stedsnr" v="724986" />
	</node>
	<node lat="65.09104535994729" lon="12.578099143839154" id="-9601">
		<tag k="alt_name" v="Aunsetran" />
=======
	<node id="-119595" lat="65.15621111" lon="12.2387499993">
		<tag k="name" v="Storengmyra" />
		<tag k="natural" v="wetland" />
		<tag k="ssr:stedsnr" v="197383" />
	</node>
	<node id="-118576" lat="65.1786388885" lon="12.2554888794">
		<tag k="name" v="Lesshagan" />
		<tag k="place" v="locality" />
		<tag k="ssr:stedsnr" v="299685" />
	</node>
	<node id="-119577" lat="65.2634444466" lon="12.349730563">
>>>>>>> e1d4bc35ff8a6074a6f2e91616a996b547c36f15
		<tag k="historic" v="shieling" />
		<tag k="name" v="Aunsætra" />
		<tag k="place" v="locality" />
		<tag k="ssr:stedsnr" v="743425" />
	</node>
<<<<<<< HEAD
	<node lat="65.03068611329087" lon="12.667927785082323" id="-9613">
		<tag k="historic" v="shieling" />
		<tag k="name" v="Granbostadsetra" />
=======
	<node id="-117528" lat="65.2341916625" lon="12.3441388967">
		<tag k="alt_name" v="Nordhagen" />
		<tag k="name" v="Nordhagan" />
>>>>>>> e1d4bc35ff8a6074a6f2e91616a996b547c36f15
		<tag k="place" v="locality" />
		<tag k="ssr:stedsnr" v="742567" />
	</node>
<<<<<<< HEAD
	<node lat="65.13022500373935" lon="11.969299990780952" id="-9643">
		<tag k="historic" v="shieling" />
		<tag k="name" v="Oppdalssætra" />
		<tag k="place" v="locality" />
		<tag k="ssr:stedsnr" v="743969" />
	</node>
	<node lat="65.02813611485642" lon="12.07783333870331" id="-9649">
		<tag k="name" v="Bjørndalsmyra" />
=======
	<node id="-117505" lat="65.280849997" lon="12.4159249961">
		<tag k="name" v="Myrmarkmyra" />
>>>>>>> e1d4bc35ff8a6074a6f2e91616a996b547c36f15
		<tag k="natural" v="wetland" />
		<tag k="ssr:stedsnr" v="783019" />
	</node>
<<<<<<< HEAD
	<node lat="65.2614527755662" lon="12.330069442696248" id="-9654">
		<tag k="name" v="Småliamarka" />
=======
	<node id="-117500" lat="65.0591805554" lon="12.4590222134">
		<tag k="name" v="Rågresslandet" />
>>>>>>> e1d4bc35ff8a6074a6f2e91616a996b547c36f15
		<tag k="place" v="locality" />
		<tag k="ssr:stedsnr" v="782840" />
	</node>
<<<<<<< HEAD
	<node lat="65.1170750009242" lon="12.524624998396439" id="-9659">
		<tag k="name" v="Stavekra" />
=======
	<node id="-119547" lat="65.0349222228" lon="12.4867166738">
		<tag k="name" v="Lissåmarka" />
>>>>>>> e1d4bc35ff8a6074a6f2e91616a996b547c36f15
		<tag k="place" v="locality" />
		<tag k="ssr:stedsnr" v="784684" />
	</node>
<<<<<<< HEAD
	<node lat="65.12758333269875" lon="12.627761118578858" id="-9661">
		<tag k="name" v="Hattmyra" />
=======
	<node id="-117498" lat="65.0642694444" lon="12.2036833435">
		<tag k="name" v="Hestmyra" />
>>>>>>> e1d4bc35ff8a6074a6f2e91616a996b547c36f15
		<tag k="natural" v="wetland" />
		<tag k="ssr:stedsnr" v="784686" />
	</node>
<<<<<<< HEAD
	<node lat="65.20959722115072" lon="12.483838879493971" id="-9674">
		<tag k="name" v="Tinnanmyrene" />
		<tag k="natural" v="wetland" />
		<tag k="ssr:stedsnr" v="784410" />
	</node>
	<node lat="65.12708610951664" lon="12.412516674922427" id="-9676">
		<tag k="name" v="Nordmarkmyra" />
		<tag k="natural" v="wetland" />
		<tag k="ssr:stedsnr" v="784368" />
	</node>
	<node lat="65.20284444421306" lon="12.167941659203375" id="-9678">
		<tag k="name" v="Gråstein" />
		<tag k="natural" v="stone" />
		<tag k="ssr:stedsnr" v="784731" />
	</node>
	<node lat="65.0897333367853" lon="12.319147227351099" id="-9683">
		<tag k="name" v="Uran" />
		<tag k="natural" v="scree" />
		<tag k="ssr:stedsnr" v="784426" />
	</node>
	<node lat="65.02384166725143" lon="12.750708324270233" id="-9686">
		<tag k="name" v="Valan" />
=======
	<node id="-119545" lat="64.9909249975" lon="12.2016416719">
		<tag k="name" v="Lonet" />
		<tag k="place" v="locality" />
		<tag k="ssr:stedsnr" v="178929" />
	</node>
	<node id="-117490" lat="65.1321583316" lon="12.1639694433">
		<tag k="name" v="Møllevikmarka" />
		<tag k="place" v="locality" />
		<tag k="ssr:stedsnr" v="239588" />
	</node>
	<node id="-119528" lat="65.0628416683" lon="12.5236416585">
		<tag k="name" v="Langenget" />
>>>>>>> e1d4bc35ff8a6074a6f2e91616a996b547c36f15
		<tag k="place" v="locality" />
		<tag k="ssr:stedsnr" v="784438" />
	</node>
<<<<<<< HEAD
	<node lat="65.04601111425477" lon="12.178025007692266" id="-9689">
		<tag k="name" v="Hesthagmyra" />
=======
	<node id="-119525" lat="65.1428444473" lon="12.2843500054">
		<tag k="name" v="Fornesmyra" />
>>>>>>> e1d4bc35ff8a6074a6f2e91616a996b547c36f15
		<tag k="natural" v="wetland" />
		<tag k="ssr:stedsnr" v="784962" />
	</node>
<<<<<<< HEAD
	<node lat="65.11038888927226" lon="12.295263898581302" id="-9694">
		<tag k="name" v="Næverlimyra" />
=======
	<node id="-119524" lat="65.1431222191" lon="12.2770722193">
		<tag k="name" v="Hestvikmyra" />
>>>>>>> e1d4bc35ff8a6074a6f2e91616a996b547c36f15
		<tag k="natural" v="wetland" />
		<tag k="ssr:stedsnr" v="785386" />
	</node>
<<<<<<< HEAD
	<node lat="65.10147777675112" lon="12.093494438393943" id="-9713">
		<tag k="name" v="Oldernesjan" />
		<tag k="place" v="locality" />
		<tag k="ssr:stedsnr" v="785877" />
	</node>
	<node lat="65.24650000322303" lon="12.288636119117049" id="-9714">
		<tag k="name" v="Veltmyra" />
=======
	<node id="-117473" lat="65.0332388885" lon="12.1243333378">
		<tag k="name" v="Høgbakkmyra" />
>>>>>>> e1d4bc35ff8a6074a6f2e91616a996b547c36f15
		<tag k="natural" v="wetland" />
		<tag k="ssr:stedsnr" v="785881" />
	</node>
<<<<<<< HEAD
	<node lat="65.02378333136136" lon="12.45511110123338" id="-9715">
		<tag k="landuse" v="meadow" />
		<tag k="name" v="Sjåenget" />
		<tag k="ssr:stedsnr" v="785885" />
	</node>
	<node lat="65.01446111156363" lon="12.44269445158872" id="-9716">
		<tag k="name" v="Geitamyra" />
=======
	<node id="-119514" lat="65.078825003" lon="12.3526194481">
		<tag k="name" v="Stormyra" />
>>>>>>> e1d4bc35ff8a6074a6f2e91616a996b547c36f15
		<tag k="natural" v="wetland" />
		<tag k="ssr:stedsnr" v="785958" />
	</node>
<<<<<<< HEAD
	<node lat="65.01026944192493" lon="12.455624997412777" id="-9717">
		<tag k="name" v="Klubbskogen" />
=======
	<node id="-119513" lat="65.141469443" lon="12.4629055463">
		<tag k="name" v="Moan" />
>>>>>>> e1d4bc35ff8a6074a6f2e91616a996b547c36f15
		<tag k="place" v="locality" />
		<tag k="ssr:stedsnr" v="785960" />
	</node>
<<<<<<< HEAD
	<node lat="65.07722499691633" lon="11.993419449362626" id="-9775">
		<tag k="name" v="Lessenget" />
=======
	<node id="-119512" lat="65.1428722232" lon="12.4289777755">
		<tag k="name" v="Granskogen" />
>>>>>>> e1d4bc35ff8a6074a6f2e91616a996b547c36f15
		<tag k="place" v="locality" />
		<tag k="ssr:stedsnr" v="843111" />
	</node>
<<<<<<< HEAD
	<node lat="65.08191388639726" lon="11.960997231632943" id="-9786">
		<tag k="name" v="Brenna" />
=======
	<node id="-117462" lat="65.254350001" lon="12.3064027814">
		<tag k="name" v="Olderskogen" />
>>>>>>> e1d4bc35ff8a6074a6f2e91616a996b547c36f15
		<tag k="place" v="locality" />
		<tag k="ssr:stedsnr" v="843548" />
	</node>
<<<<<<< HEAD
	<node lat="65.06796666596915" lon="12.544036107157961" id="-9801">
		<tag k="name" v="Limyra" />
=======
	<node id="-117461" lat="65.0415611118" lon="12.6588888905">
		<tag k="name" v="Langmyra" />
>>>>>>> e1d4bc35ff8a6074a6f2e91616a996b547c36f15
		<tag k="natural" v="wetland" />
		<tag k="ssr:stedsnr" v="845978" />
	</node>
<<<<<<< HEAD
	<node lat="65.12419722284973" lon="12.542008330371385" id="-9807">
		<tag k="name" v="Krokmyra" />
=======
	<node id="-119508" lat="65.2123416683" lon="12.677077774">
		<tag k="name" v="Øverenget" />
>>>>>>> e1d4bc35ff8a6074a6f2e91616a996b547c36f15
		<tag k="natural" v="wetland" />
		<tag k="ssr:stedsnr" v="845635" />
	</node>
<<<<<<< HEAD
	<node lat="65.1831472227004" lon="12.620475009368064" id="-9815">
=======
	<node id="-119500" lat="65.182258336" lon="12.4551444515">
>>>>>>> e1d4bc35ff8a6074a6f2e91616a996b547c36f15
		<tag k="landuse" v="meadow" />
		<tag k="name" v="Dyrbenken" />
		<tag k="ssr:stedsnr" v="845745" />
	</node>
<<<<<<< HEAD
	<node lat="65.0809500028861" lon="12.380597218773248" id="-9827">
		<tag k="name" v="Lysmyra" />
=======
	<node id="-117447" lat="65.1030666632" lon="12.3156500039">
		<tag k="name" v="Langmyra" />
>>>>>>> e1d4bc35ff8a6074a6f2e91616a996b547c36f15
		<tag k="natural" v="wetland" />
		<tag k="ssr:stedsnr" v="846267" />
	</node>
<<<<<<< HEAD
	<node lat="65.13071389032832" lon="11.978125004777326" id="-9834">
		<tag k="name" v="Sætran" />
		<tag k="place" v="locality" />
		<tag k="ssr:stedsnr" v="846479" />
	</node>
	<node lat="65.1370694480272" lon="12.214105564877446" id="-9838">
		<tag k="name" v="Langåsmyra" />
=======
	<node id="-119494" lat="65.2203722237" lon="12.450405558">
		<tag k="name" v="Gjørndalsmyra" />
>>>>>>> e1d4bc35ff8a6074a6f2e91616a996b547c36f15
		<tag k="natural" v="wetland" />
		<tag k="ssr:stedsnr" v="846525" />
	</node>
<<<<<<< HEAD
	<node lat="65.06350277469603" lon="12.226961114928784" id="-9842">
		<tag k="name" v="Rapet" />
=======
	<node id="-117445" lat="65.1169972193" lon="12.5023333341">
		<tag k="name" v="Lissjorda" />
>>>>>>> e1d4bc35ff8a6074a6f2e91616a996b547c36f15
		<tag k="place" v="locality" />
		<tag k="ssr:stedsnr" v="846897" />
	</node>
<<<<<<< HEAD
	<node lat="65.18250555367241" lon="12.144758336924818" id="-9844">
		<tag k="name" v="Grannlimyra" />
		<tag k="natural" v="wetland" />
		<tag k="ssr:stedsnr" v="846668" />
	</node>
	<node lat="65.24146388638148" lon="12.668475008793104" id="-9857">
		<tag k="name" v="Groholmyra" />
=======
	<node id="-119490" lat="65.0495305585" lon="12.5885083241">
		<tag k="landuse" v="meadow" />
		<tag k="name" v="Heimerenget" />
		<tag k="ssr:stedsnr" v="176955" />
	</node>
	<node id="-117440" lat="65.1820694477" lon="12.4516694373">
		<tag k="name" v="Tafsholet" />
>>>>>>> e1d4bc35ff8a6074a6f2e91616a996b547c36f15
		<tag k="natural" v="wetland" />
		<tag k="ssr:stedsnr" v="864231" />
	</node>
<<<<<<< HEAD
	<node lat="65.02914444478296" lon="12.820691656851405" id="-9866">
		<tag k="name" v="Reingardsmyra" />
=======
	<node id="-119483" lat="65.1294500013" lon="12.1859138844">
		<tag k="name" v="Lautmyra" />
>>>>>>> e1d4bc35ff8a6074a6f2e91616a996b547c36f15
		<tag k="natural" v="wetland" />
		<tag k="ssr:stedsnr" v="864560" />
	</node>
<<<<<<< HEAD
	<node lat="65.07030555844891" lon="12.558188891818597" id="-9876">
		<tag k="alt_name" v="Gjerdemyra" />
		<tag k="name" v="Gjerdmyra" />
=======
	<node id="-117434" lat="65.1840166629" lon="12.2473833233">
		<tag k="name" v="Trettmyra" />
>>>>>>> e1d4bc35ff8a6074a6f2e91616a996b547c36f15
		<tag k="natural" v="wetland" />
		<tag k="ssr:stedsnr" v="864490" />
	</node>
<<<<<<< HEAD
	<node lat="65.0272583351143" lon="12.587411119843216" id="-9894">
		<tag k="alt_name" v="Vargemyra" />
		<tag k="name" v="Vargmyra" />
		<tag k="natural" v="wetland" />
		<tag k="ssr:stedsnr" v="864660" />
	</node>
	<node lat="65.19509444610053" lon="12.217838898485539" id="-9940">
		<tag k="name" v="Borklimyra" />
		<tag k="natural" v="wetland" />
		<tag k="ssr:stedsnr" v="964330" />
	</node>
	<node lat="65.219097220713" lon="12.475086115413324" id="-9942">
		<tag k="name" v="Sætran skog" />
=======
	<node id="-117433" lat="65.0752694467" lon="12.3625583265">
		<tag k="name" v="Nonsmarka" />
		<tag k="place" v="locality" />
		<tag k="ssr:stedsnr" v="238287" />
	</node>
	<node id="-119480" lat="65.211913892" lon="12.2045722183">
		<tag k="name" v="Rønningan" />
>>>>>>> e1d4bc35ff8a6074a6f2e91616a996b547c36f15
		<tag k="place" v="locality" />
		<tag k="ssr:stedsnr" v="964017" />
	</node>
<<<<<<< HEAD
	<node lat="65.22696388739047" lon="12.441363884031254" id="-9944">
		<tag k="name" v="Strandskogan" />
=======
	<node id="-119473" lat="65.2509722248" lon="12.6031194516">
		<tag k="name" v="Sørmarkstaulan" />
>>>>>>> e1d4bc35ff8a6074a6f2e91616a996b547c36f15
		<tag k="place" v="locality" />
		<tag k="ssr:stedsnr" v="964024" />
	</node>
<<<<<<< HEAD
	<node lat="65.16514721757808" lon="12.280747231818472" id="-9948">
		<tag k="name" v="Hestmarka" />
		<tag k="place" v="locality" />
		<tag k="ssr:stedsnr" v="964130" />
	</node>
	<node lat="65.27082499731894" lon="12.375177783931695" id="-9952">
		<tag k="name" v="Langmyrstrupen" />
=======
	<node id="-119472" lat="65.071124997" lon="12.0356861132">
		<tag k="name" v="Brennmyra" />
		<tag k="natural" v="wetland" />
		<tag k="ssr:stedsnr" v="176140" />
	</node>
	<node id="-117423" lat="65.1345194449" lon="12.3219722123">
		<tag k="name" v="Almliåsmyra" />
>>>>>>> e1d4bc35ff8a6074a6f2e91616a996b547c36f15
		<tag k="natural" v="wetland" />
		<tag k="ssr:stedsnr" v="964726" />
	</node>
<<<<<<< HEAD
	<node lat="65.21608888554996" lon="12.68125556571258" id="-9959">
		<tag k="landuse" v="meadow" />
		<tag k="name" v="Torvaldenget" />
		<tag k="ssr:stedsnr" v="966024" />
	</node>
	<node lat="65.15430555558882" lon="12.181894445010972" id="-9961">
		<tag k="name" v="Sørmarka" />
=======
	<node id="-117421" lat="65.2380500018" lon="12.5195555461">
		<tag k="name" v="Spinnarsteinen" />
		<tag k="natural" v="stone" />
		<tag k="ssr:stedsnr" v="238205" />
	</node>
	<node id="-117417" lat="65.1498750015" lon="12.1426694398">
		<tag k="name" v="Heilsætran" />
>>>>>>> e1d4bc35ff8a6074a6f2e91616a996b547c36f15
		<tag k="place" v="locality" />
		<tag k="ssr:stedsnr" v="966766" />
	</node>
<<<<<<< HEAD
	<node lat="65.27243333551625" lon="12.559933326027586" id="-9980">
		<tag k="landuse" v="meadow" />
		<tag k="name" v="Sjåenget" />
		<tag k="ssr:stedsnr" v="966371" />
	</node>
	<node lat="65.11985278164889" lon="12.525636121672346" id="-9985">
		<tag k="name" v="Pialitten" />
=======
	<node id="-119463" lat="65.2673027816" lon="12.3564250101">
		<tag k="name" v="Mølnmarka" />
		<tag k="place" v="locality" />
		<tag k="ssr:stedsnr" v="175763" />
	</node>
	<node id="-117405" lat="65.1990305566" lon="12.2338777762">
		<tag k="name" v="Nordmoen" />
>>>>>>> e1d4bc35ff8a6074a6f2e91616a996b547c36f15
		<tag k="place" v="locality" />
		<tag k="ssr:stedsnr" v="966689" />
	</node>
	<node lat="65.13462777860389" lon="12.617438886784075" id="-9986">
		<tag k="name" v="Bjørnsteinen" />
		<tag k="natural" v="stone" />
		<tag k="ssr:stedsnr" v="966697" />
	</node>
	<node lat="65.27124167112692" lon="12.528352771004956" id="-9992">
		<tag k="landuse" v="meadow" />
		<tag k="name" v="Lessenget" />
		<tag k="ssr:stedsnr" v="966848" />
	</node>
	<node lat="65.12590833638265" lon="11.979500009214588" id="-10004">
		<tag k="name" v="Blessamyra" />
		<tag k="natural" v="wetland" />
		<tag k="ssr:stedsnr" v="967471" />
	</node>
	<node lat="65.12321389095293" lon="12.176550008340286" id="-10009">
		<tag k="landuse" v="meadow" />
		<tag k="name" v="Lessenget" />
		<tag k="ssr:stedsnr" v="967566" />
	</node>
	<node lat="65.10136944140898" lon="12.194199996771369" id="-10010">
		<tag k="name" v="Slåttmyra" />
		<tag k="natural" v="wetland" />
		<tag k="ssr:stedsnr" v="967579" />
	</node>
	<node lat="65.13342222635573" lon="12.003202779231486" id="-10012">
		<tag k="name" v="Langmarkmyra" />
		<tag k="natural" v="wetland" />
		<tag k="ssr:stedsnr" v="967760" />
	</node>
	<node id="-117400" lat="65.1671083303" lon="12.2379055467">
		<tag k="name" v="Hesthagan" />
		<tag k="place" v="locality" />
		<tag k="ssr:stedsnr" v="54707" />
	</node>
	<node id="-117382" lat="65.1618055577" lon="12.2503638797">
		<tag k="name" v="Stormyra" />
		<tag k="natural" v="wetland" />
		<tag k="ssr:stedsnr" v="236648" />
	</node>
	<node id="-117374" lat="64.9991888862" lon="12.3187888886">
		<tag k="landuse" v="meadow" />
		<tag k="name" v="Sørengan" />
		<tag k="ssr:stedsnr" v="236346" />
	</node>
	<node id="-119376" lat="65.0641555525" lon="12.2158416588">
		<tag k="name" v="Sveet" />
		<tag k="place" v="locality" />
		<tag k="ssr:stedsnr" v="117893" />
	</node>
	<node id="-119375" lat="65.0634083294" lon="12.2086027879">
		<tag k="name" v="Løvollteigen" />
		<tag k="place" v="locality" />
		<tag k="ssr:stedsnr" v="117891" />
	</node>
	<node id="-119373" lat="65.0451611126" lon="12.6672416701">
		<tag k="name" v="Sommarfjøsmyra" />
		<tag k="natural" v="wetland" />
		<tag k="ssr:stedsnr" v="117865" />
	</node>
	<node id="-119370" lat="65.04120278" lon="12.1488277699">
		<tag k="name" v="Middagstadmarka" />
		<tag k="place" v="locality" />
		<tag k="ssr:stedsnr" v="117949" />
	</node>
	<node id="-119350" lat="65.1311916683" lon="12.1692500078">
		<tag k="landuse" v="meadow" />
		<tag k="name" v="Engan" />
		<tag k="ssr:stedsnr" v="117599" />
	</node>
	<node id="-119349" lat="65.130575001" lon="12.1455194511">
		<tag k="landuse" v="meadow" />
		<tag k="name" v="Smålienget" />
		<tag k="ssr:stedsnr" v="117596" />
	</node>
	<node id="-119333" lat="65.1189749975" lon="12.4995333367">
		<tag k="name" v="Krommen" />
		<tag k="place" v="locality" />
		<tag k="ssr:stedsnr" v="117377" />
	</node>
	<node id="-119331" lat="65.187980559" lon="12.2517972327">
		<tag k="name" v="Husmyra" />
		<tag k="natural" v="wetland" />
		<tag k="ssr:stedsnr" v="117346" />
	</node>
	<node id="-119899" lat="65.1671222227" lon="12.2280277711">
		<tag k="name" v="Mørnhusmyra" />
		<tag k="natural" v="wetland" />
		<tag k="ssr:stedsnr" v="419723" />
	</node>
	<node id="-119327" lat="65.1868111099" lon="12.3354833347">
		<tag k="name" v="Spjøtnesmarka" />
		<tag k="place" v="locality" />
		<tag k="ssr:stedsnr" v="117056" />
	</node>
	<node id="-119321" lat="65.0547861116" lon="12.5490861091">
		<tag k="name" v="Finnhyttemyra" />
		<tag k="natural" v="wetland" />
		<tag k="ssr:stedsnr" v="115963" />
	</node>
	<node id="-119312" lat="65.0241833342" lon="12.0458750087">
		<tag k="name" v="Favnvedmyra" />
		<tag k="natural" v="wetland" />
		<tag k="ssr:stedsnr" v="115021" />
	</node>
	<node id="-119311" lat="65.2329805596" lon="12.4341499958">
		<tag k="name" v="Haugan" />
		<tag k="place" v="locality" />
		<tag k="ssr:stedsnr" v="115020" />
	</node>
	<node id="-119302" lat="65.0454749968" lon="12.2228277869">
		<tag k="name" v="Sørengan" />
		<tag k="place" v="locality" />
		<tag k="ssr:stedsnr" v="76500" />
	</node>
	<node id="-117497" lat="65.0261027735" lon="12.4543027835">
		<tag k="name" v="Vintermyrene" />
		<tag k="natural" v="wetland" />
		<tag k="ssr:stedsnr" v="239915" />
	</node>
	<node id="-119219" lat="65.1663583339" lon="12.0046999923">
		<tag k="name" v="Storsteinan" />
		<tag k="natural" v="stone" />
		<tag k="ssr:stedsnr" v="57801" />
	</node>
	<node id="-119211" lat="65.117580559" lon="12.2320277847">
		<tag k="name" v="Mana" />
		<tag k="place" v="locality" />
		<tag k="ssr:stedsnr" v="57543" />
	</node>
	<node id="-119205" lat="65.0748777803" lon="11.9862777752">
		<tag k="name" v="Dalamyra" />
		<tag k="natural" v="wetland" />
		<tag k="ssr:stedsnr" v="57461" />
	</node>
	<node id="-119198" lat="65.1709305542" lon="12.2619361065">
		<tag k="name" v="Lessjordet" />
		<tag k="place" v="locality" />
		<tag k="ssr:stedsnr" v="57049" />
	</node>
	<node id="-119193" lat="65.0287583372" lon="12.183983326">
		<tag k="name" v="Skarbakkmyra" />
		<tag k="natural" v="wetland" />
		<tag k="ssr:stedsnr" v="56879" />
	</node>
	<node id="-119189" lat="65.2490166712" lon="12.2894027729">
		<tag k="name" v="Samuelmyra" />
		<tag k="natural" v="wetland" />
		<tag k="ssr:stedsnr" v="56866" />
	</node>
	<node id="-119180" lat="65.1117694484" lon="12.6139777703">
		<tag k="name" v="Svartåsmyra" />
		<tag k="natural" v="wetland" />
		<tag k="ssr:stedsnr" v="56694" />
	</node>
	<node id="-119170" lat="65.0176722249" lon="12.7542527878">
		<tag k="name" v="Kråmyra" />
		<tag k="natural" v="wetland" />
		<tag k="ssr:stedsnr" v="56403" />
	</node>
	<node id="-119167" lat="65.2389638873" lon="12.5043861073">
		<tag k="name" v="Stråmyra" />
		<tag k="natural" v="wetland" />
		<tag k="ssr:stedsnr" v="56198" />
	</node>
	<node id="-120211" lat="65.1850972209" lon="12.1855750069">
		<tag k="name" v="Storrevvaurda" />
		<tag k="natural" v="scree" />
		<tag k="ssr:stedsnr" v="602697" />
	</node>
	<node id="-117477" lat="65.1864999981" lon="12.2504416655">
		<tag k="name" v="Stormyra" />
		<tag k="natural" v="wetland" />
		<tag k="ssr:stedsnr" v="239308" />
	</node>
	<node id="-117466" lat="65.036333337" lon="12.1847722295">
		<tag k="name" v="Vakkerenget" />
		<tag k="place" v="locality" />
		<tag k="ssr:stedsnr" v="238905" />
	</node>
	<node id="-119065" lat="65.1334222264" lon="12.0032027792">
		<tag k="name" v="Langmarkmyra" />
		<tag k="natural" v="wetland" />
		<tag k="ssr:stedsnr" v="967760" />
	</node>
	<node id="-119062" lat="65.123213891" lon="12.1765500083">
		<tag k="landuse" v="meadow" />
		<tag k="name" v="Lessenget" />
		<tag k="ssr:stedsnr" v="967566" />
	</node>
	<node id="-119060" lat="65.1259083364" lon="11.9795000092">
		<tag k="name" v="Blessamyra" />
		<tag k="natural" v="wetland" />
		<tag k="ssr:stedsnr" v="967471" />
	</node>
	<node id="-119052" lat="65.1543055556" lon="12.181894445">
		<tag k="name" v="Sørmarka" />
		<tag k="place" v="locality" />
		<tag k="ssr:stedsnr" v="966766" />
	</node>
	<node id="-119050" lat="65.1112277795" lon="12.4965500017">
		<tag k="name" v="Klokkarmyra" />
		<tag k="natural" v="wetland" />
		<tag k="ssr:stedsnr" v="966705" />
	</node>
	<node id="-119048" lat="65.2724333355" lon="12.559933326">
		<tag k="landuse" v="meadow" />
		<tag k="name" v="Sjåenget" />
		<tag k="ssr:stedsnr" v="966371" />
	</node>
	<node id="-119038" lat="65.2160888855" lon="12.6812555657">
		<tag k="landuse" v="meadow" />
		<tag k="name" v="Torvaldenget" />
		<tag k="ssr:stedsnr" v="966024" />
	</node>
	<node id="-119030" lat="65.2269638874" lon="12.441363884">
		<tag k="name" v="Strandskogan" />
		<tag k="place" v="locality" />
		<tag k="ssr:stedsnr" v="964024" />
	</node>
	<node id="-119028" lat="65.2190972207" lon="12.4750861154">
		<tag k="name" v="Sætran skog" />
		<tag k="place" v="locality" />
		<tag k="ssr:stedsnr" v="964017" />
	</node>
	<node id="-119015" lat="65.120316666" lon="12.6114833267">
		<tag k="name" v="Sør Vikamarka" />
		<tag k="place" v="locality" />
		<tag k="ssr:stedsnr" v="906681" />
	</node>
	<node id="-119001" lat="65.2423833337" lon="12.6857861126">
		<tag k="name" v="Bjørkmyra" />
		<tag k="natural" v="wetland" />
		<tag k="ssr:stedsnr" v="906053" />
	</node>
	<node id="-118999" lat="65.2475388865" lon="12.6949694507">
		<tag k="name" v="Myrsundet" />
		<tag k="natural" v="wetland" />
		<tag k="ssr:stedsnr" v="906164" />
	</node>
	<node id="-118998" lat="65.2447083332" lon="12.6859972236">
		<tag k="name" v="Langmyra" />
		<tag k="natural" v="wetland" />
		<tag k="ssr:stedsnr" v="906158" />
	</node>
	<node id="-118997" lat="65.0314472259" lon="12.1200361091">
		<tag k="name" v="Nettamyra" />
		<tag k="natural" v="wetland" />
		<tag k="ssr:stedsnr" v="906019" />
	</node>
	<node id="-118996" lat="65.2306555552" lon="12.67640277">
		<tag k="name" v="Piprørmyra" />
		<tag k="natural" v="wetland" />
		<tag k="ssr:stedsnr" v="906011" />
	</node>
	<node id="-118988" lat="65.1294861068" lon="12.224130552">
		<tag k="name" v="Åsaunet" />
		<tag k="place" v="locality" />
		<tag k="ssr:stedsnr" v="904515" />
	</node>
	<node id="-118985" lat="65.1945249987" lon="12.2051527749">
		<tag k="name" v="Skuddlimyra" />
		<tag k="natural" v="wetland" />
		<tag k="ssr:stedsnr" v="904305" />
	</node>
	<node id="-118981" lat="65.027219446" lon="12.0604472298">
		<tag k="name" v="Storstien" />
		<tag k="place" v="locality" />
		<tag k="ssr:stedsnr" v="904019" />
	</node>
	<node id="-120440" lat="65.2095972212" lon="12.4838388795">
		<tag k="name" v="Tinnanmyrene" />
		<tag k="natural" v="wetland" />
		<tag k="ssr:stedsnr" v="784410" />
	</node>
	<node id="-118953" lat="65.1436527761" lon="12.2359499977">
		<tag k="name" v="Langlimyra" />
		<tag k="natural" v="wetland" />
		<tag k="ssr:stedsnr" v="804364" />
	</node>
	<node id="-118914" lat="65.1455416626" lon="12.0111944489">
		<tag k="name" v="Svartskogen" />
		<tag k="place" v="locality" />
		<tag k="ssr:stedsnr" v="925913" />
	</node>
	<node id="-118877" lat="65.1152694466" lon="12.2813888994">
		<tag k="alt_name" v="Rennurda" />
		<tag k="name" v="Rennura" />
		<tag k="natural" v="scree" />
		<tag k="ssr:stedsnr" v="925391" />
	</node>
	<node id="-118859" lat="65.2321527794" lon="12.3409027853">
		<tag k="alt_name" v="Sørhagen" />
		<tag k="name" v="Sørhagan" />
		<tag k="place" v="locality" />
		<tag k="ssr:stedsnr" v="925246" />
	</node>
	<node id="-118451" lat="65.2373472245" lon="12.6548972263">
		<tag k="landuse" v="meadow" />
		<tag k="name" v="Finnhytteenget" />
		<tag k="ssr:stedsnr" v="602728" />
	</node>
	<node id="-118450" lat="65.2113527819" lon="12.6689166764">
		<tag k="name" v="Moltmyra" />
		<tag k="natural" v="wetland" />
		<tag k="ssr:stedsnr" v="602727" />
	</node>
	<node id="-118826" lat="65.2028444442" lon="12.1679416592">
		<tag k="name" v="Gråstein" />
		<tag k="natural" v="stone" />
		<tag k="ssr:stedsnr" v="784731" />
	</node>
	<node id="-118815" lat="65.2514722194" lon="12.6131222318">
		<tag k="name" v="Småtjønnskogan" />
		<tag k="place" v="locality" />
		<tag k="ssr:stedsnr" v="906748" />
	</node>
	<node id="-118813" lat="65.1478472261" lon="12.019747216">
		<tag k="name" v="Tinahagan" />
		<tag k="place" v="locality" />
		<tag k="ssr:stedsnr" v="906830" />
	</node>
	<node id="-118807" lat="65.1129666699" lon="12.5034638894">
		<tag k="name" v="Brenna" />
		<tag k="place" v="locality" />
		<tag k="ssr:stedsnr" v="906697" />
	</node>
	<node id="-118800" lat="65.1892583307" lon="12.6213388819">
		<tag k="historic" v="shieling" />
		<tag k="name" v="Mehammersetran" />
		<tag k="place" v="locality" />
		<tag k="ssr:stedsnr" v="906736" />
	</node>
	<node id="-118799" lat="65.2038555555" lon="12.1793305472">
		<tag k="name" v="Stakkmyra" />
		<tag k="natural" v="wetland" />
		<tag k="ssr:stedsnr" v="906734" />
	</node>
</osm>
