<?xml version="1.0" encoding="UTF-8"?>
<osm generator="osmapis" version="0.6">
	<node id="-625152" lat="65.0205111123" lon="12.1038527785">
		<tag k="highway" v="path" />
		<tag k="name" v="Dyrstien" />
		<tag k="ssr:stedsnr" v="785482" />
	</node>
	<node id="-623989" lat="65.1270583364" lon="12.1600888953">
		<tag k="layer" v="-1" />
		<tag k="name" v="Botn" />
		<tag k="ssr:stedsnr" v="469115" />
		<tag k="tunnel" v="yes" />
	</node>
	<node id="-622962" lat="65.1812888891" lon="12.390947215">
		<tag k="ford" v="yes" />
		<tag k="name" v="Øvervadet" />
		<tag k="place" v="locality" />
		<tag k="ssr:stedsnr" v="56037" />
	</node>
	<node id="-622957" lat="65.1133777822" lon="12.0014611029">
		<tag k="fixme" v="verify maritime location" />
		<tag k="mooring" v="yes" />
		<tag k="name" v="Jæktsette" />
		<tag k="place" v="locality" />
		<tag k="ssr:stedsnr" v="55801" />
	</node>
	<node id="-623333" lat="65.1165500011" lon="12.123269442">
		<tag k="layer" v="-1" />
		<tag k="name" v="Hestneset" />
		<tag k="ssr:stedsnr" v="165482" />
		<tag k="tunnel" v="yes" />
	</node>
	<node id="-623332" lat="65.1249611148" lon="12.1170277698">
		<tag k="layer" v="-1" />
		<tag k="name" v="Løvik" />
		<tag k="ssr:stedsnr" v="165322" />
		<tag k="tunnel" v="yes" />
	</node>
	<node id="-622816" lat="65.0432527767" lon="12.1762638929">
		<tag k="layer" v="-1" />
		<tag k="name" v="Kollstraumen" />
		<tag k="ssr:stedsnr" v="894316" />
		<tag k="tunnel" v="yes" />
	</node>
	<node id="-623326" lat="65.0849999959" lon="12.4799527799">
		<tag k="layer" v="-1" />
		<tag k="name" v="Heimatunnelen" />
		<tag k="ssr:stedsnr" v="141168" />
		<tag k="tunnel" v="yes" />
	</node>
	<node id="-623573" lat="65.171719448" lon="12.1293861125">
		<tag k="highway" v="path" />
		<tag k="name" v="Stien" />
		<tag k="ssr:stedsnr" v="236656" />
	</node>
	<node id="-622928" lat="65.0548333318" lon="12.2485305518">
		<tag k="landuse" v="harbour" />
		<tag k="name" v="Breivikhamna" />
		<tag k="seamark:type" v="harbour" />
		<tag k="ssr:stedsnr" v="35542" />
	</node>
	<node id="-623567" lat="65.0290083336" lon="12.0586305527">
		<tag k="highway" v="path" />
		<tag k="name" v="Lesstien" />
		<tag k="ssr:stedsnr" v="236012" />
	</node>
	<node id="-624717" lat="65.1099027771" lon="12.4988222312">
		<tag k="highway" v="path" />
		<tag k="name" v="Hagavegen" />
		<tag k="ssr:stedsnr" v="663679" />
	</node>
	<node id="-622795" lat="65.1259194484" lon="12.1610638816">
		<tag k="layer" v="-1" />
		<tag k="name" v="Møllevik" />
		<tag k="ssr:stedsnr" v="408368" />
		<tag k="tunnel" v="yes" />
	</node>
	<node id="-624202" lat="65.0416222179" lon="12.5678277784">
		<tag k="highway" v="path" />
		<tag k="name" v="Heiaveien" />
		<tag k="ssr:stedsnr" v="540865" />
	</node>
	<node id="-624967" lat="65.0542527764" lon="12.4636027841">
		<tag k="man_made" v="cairn" />
		<tag k="name" v="Varden" />
		<tag k="place" v="locality" />
		<tag k="ssr:stedsnr" v="724921" />
	</node>
	<node id="-623936" lat="65.0967305513" lon="12.406344442">
		<tag k="fixme" v="verify maritime location" />
		<tag k="mooring" v="yes" />
		<tag k="name" v="Gangstøa" />
		<tag k="place" v="locality" />
		<tag k="ssr:stedsnr" v="439414" />
	</node>
	<node id="-622383" lat="65.1818222266" lon="12.3884138919">
		<tag k="ford" v="yes" />
		<tag k="name" v="Nervadet" />
		<tag k="place" v="locality" />
		<tag k="ssr:stedsnr" v="299042" />
	</node>
	<node id="-623654" lat="65.186169443" lon="12.2219555474">
		<tag k="highway" v="path" />
		<tag k="name" v="Buvegen" />
		<tag k="ssr:stedsnr" v="239313" />
	</node>
	<node id="-624417" lat="65.0545999987" lon="12.5416777703">
		<tag k="highway" v="path" />
		<tag k="name" v="Geitastien" />
		<tag k="ssr:stedsnr" v="600974" />
	</node>
	<node id="-625180" lat="64.9905972204" lon="12.2219999948">
		<tag k="highway" v="path" />
		<tag k="name" v="Finnstien" />
		<tag k="ssr:stedsnr" v="785948" />
	</node>
	<node id="-622610" lat="65.1179000006" lon="12.4942611017">
		<tag k="man_made" v="quay" />
		<tag k="name" v="Helstadsjyen" />
		<tag k="place" v="locality" />
		<tag k="ssr:stedsnr" v="359360" />
	</node>
	<node id="-624002" lat="65.2504111093" lon="12.4330944406">
		<tag k="fixme" v="verify maritime location" />
		<tag k="mooring" v="yes" />
		<tag k="name" v="Jørgenstøa" />
		<tag k="place" v="locality" />
		<tag k="ssr:stedsnr" v="481243" />
	</node>
</osm>
