<?xml version="1.0" encoding="UTF-8"?>
<osm generator="osmapis" version="0.6">
	<node id="-624640" lat="65.1893833347" lon="12.373183332">
		<tag k="name" v="Mjosundet" />
		<tag k="natural" v="strait" />
		<tag k="ssr:stedsnr" v="257281" />
	</node>
	<node id="-624639" lat="65.2089138906" lon="12.2305833442">
		<tag k="name" v="Klampvika" />
		<tag k="natural" v="bay" />
		<tag k="ssr:stedsnr" v="257279" />
	</node>
	<node id="-624637" lat="65.2078277819" lon="12.442400003">
		<tag k="alt_name" v="Røyrodden" />
		<tag k="name" v="Rørodden" />
		<tag k="natural" v="cape" />
		<tag k="ssr:stedsnr" v="257272" />
	</node>
	<node id="-624636" lat="65.2187055586" lon="12.3162166725">
		<tag k="name" v="Stavøytangen" />
		<tag k="natural" v="cape" />
		<tag k="ssr:stedsnr" v="257267" />
	</node>
	<node id="-626683" lat="65.1129083352" lon="12.4029611147">
		<tag k="name" v="Husvik" />
		<tag k="natural" v="bay" />
		<tag k="ssr:stedsnr" v="966296" />
	</node>
	<node id="-626682" lat="65.0822722187" lon="12.3359861159">
		<tag k="name" v="Mastervikodden" />
		<tag k="natural" v="cape" />
		<tag k="ssr:stedsnr" v="966290" />
	</node>
	<node id="-626681" lat="65.1378777777" lon="12.4327722164">
		<tag k="fixme" v="consider seamark:type=rock or natural=shoal" />
		<tag k="name" v="Nisnesskjæret" />
		<tag k="place" v="islet" />
		<tag k="ssr:stedsnr" v="966288" />
	</node>
	<node id="-626677" lat="65.2648916661" lon="12.4069694484">
		<tag k="name" v="Helvika" />
		<tag k="natural" v="bay" />
		<tag k="ssr:stedsnr" v="966200" />
	</node>
	<node id="-624627" lat="65.2388000025" lon="12.2703750011">
		<tag k="alt_name" v="Gaupgavlen" />
		<tag k="name" v="Gavlen" />
		<tag k="natural" v="cape" />
		<tag k="ssr:stedsnr" v="257227" />
	</node>
	<node id="-624626" lat="65.230877775" lon="12.2854750085">
		<tag k="name" v="Risøysundet" />
		<tag k="natural" v="strait" />
		<tag k="ssr:stedsnr" v="257226" />
	</node>
	<node id="-624621" lat="65.2553444444" lon="12.5718750039">
		<tag k="alt_name" v="Raumuren" />
		<tag k="name" v="Raudmuren" />
		<tag k="natural" v="cape" />
		<tag k="ssr:stedsnr" v="257178" />
	</node>
	<node id="-626668" lat="65.0675027777" lon="12.0810750087">
		<tag k="name" v="Johanvikodden" />
		<tag k="natural" v="cape" />
		<tag k="ssr:stedsnr" v="965255" />
	</node>
	<node id="-624617" lat="65.2636083291" lon="12.4204083388">
		<tag k="name" v="Vågan" />
		<tag k="natural" v="bay" />
		<tag k="ssr:stedsnr" v="257158" />
	</node>
	<node id="-626663" lat="65.1149583352" lon="12.099138892">
		<tag k="name" v="Nausthaugodden" />
		<tag k="natural" v="cape" />
		<tag k="ssr:stedsnr" v="964801" />
	</node>
	<node id="-624614" lat="65.2610361117" lon="12.3941499933">
		<tag k="name" v="Leirvikholmen" />
		<tag k="place" v="islet" />
		<tag k="ssr:stedsnr" v="257134" />
	</node>
	<node id="-624612" lat="65.050522225" lon="12.1174638813">
		<tag k="alt_name" v="Langnesodden" />
		<tag k="name" v="Langengodden" />
		<tag k="natural" v="cape" />
		<tag k="ssr:stedsnr" v="257112" />
	</node>
	<node id="-624611" lat="65.0512416688" lon="12.1379638973">
		<tag k="name" v="Horsbergholmen" />
		<tag k="place" v="islet" />
		<tag k="ssr:stedsnr" v="257110" />
	</node>
	<node id="-624610" lat="65.056905558" lon="12.1633055554">
		<tag k="name" v="Osen" />
		<tag k="natural" v="bay" />
		<tag k="ssr:stedsnr" v="257107" />
	</node>
	<node id="-624635" lat="65.2211833325" lon="12.3530888943">
		<tag k="name" v="Målodden" />
		<tag k="natural" v="cape" />
		<tag k="ssr:stedsnr" v="257265" />
	</node>
	<node id="-623610" lat="65.1372527791" lon="12.5902138906">
		<tag k="fixme" v="consider seamark:type=rock or natural=shoal" />
		<tag k="name" v="Ureidskjæret" />
		<tag k="place" v="islet" />
		<tag k="ssr:stedsnr" v="177725" />
	</node>
	<node id="-624601" lat="65.0879944416" lon="12.4402861068">
		<tag k="name" v="Larsvikodden" />
		<tag k="natural" v="cape" />
		<tag k="ssr:stedsnr" v="257467" />
	</node>
	<node id="-624600" lat="65.0868055552" lon="12.4134444389">
		<tag k="name" v="Kattvika" />
		<tag k="natural" v="bay" />
		<tag k="ssr:stedsnr" v="257465" />
	</node>
	<node id="-624598" lat="65.1156305585" lon="12.4408999978">
		<tag k="bay" v="fjord" />
		<tag k="name" v="Øyfjorden" />
		<tag k="natural" v="bay" />
		<tag k="ssr:stedsnr" v="257459" />
	</node>
	<node id="-623375" lat="65.0380722213" lon="12.1856611067">
		<tag k="name" v="Innerstraumen" />
		<tag k="natural" v="strait" />
		<tag k="ssr:stedsnr" v="299903" />
	</node>
	<node id="-624595" lat="65.1340138867" lon="12.4742249981">
		<tag k="alt_name" v="Eldhustangan" />
		<tag k="name" v="Eldhustangen" />
		<tag k="natural" v="cape" />
		<tag k="ssr:stedsnr" v="257409" />
	</node>
	<node id="-624594" lat="65.0794999982" lon="12.0390638823">
		<tag k="name" v="Båtsvika" />
		<tag k="natural" v="bay" />
		<tag k="ssr:stedsnr" v="257062" />
	</node>
	<node id="-626636" lat="65.3173527736" lon="11.4270500057">
		<tag k="name" v="Kravslua" />
		<tag k="natural" v="shoal" />
		<tag k="place" v="locality" />
		<tag k="ssr:stedsnr" v="935694" />
	</node>
	<node id="-626635" lat="65.2554083324" lon="12.3727611128">
		<tag k="name" v="Klubbholmen" />
		<tag k="place" v="islet" />
		<tag k="ssr:stedsnr" v="926171" />
	</node>
	<node id="-626634" lat="65.1349166666" lon="12.1088499985">
		<tag k="name" v="Grannen" />
		<tag k="natural" v="cape" />
		<tag k="ssr:stedsnr" v="925980" />
	</node>
	<node id="-626632" lat="65.133252776" lon="12.0229861058">
		<tag k="name" v="Storvika" />
		<tag k="natural" v="bay" />
		<tag k="ssr:stedsnr" v="925976" />
	</node>
	<node id="-626631" lat="65.3295777762" lon="11.4965555543">
		<tag k="name" v="Ytreleirbåen" />
		<tag k="natural" v="shoal" />
		<tag k="place" v="locality" />
		<tag k="ssr:stedsnr" v="925953" />
	</node>
	<node id="-626630" lat="65.3087250011" lon="11.5356500021">
		<tag k="name" v="Mardalstaren" />
		<tag k="natural" v="shoal" />
		<tag k="place" v="locality" />
		<tag k="ssr:stedsnr" v="925944" />
	</node>
	<node id="-626628" lat="65.1796527747" lon="11.9705611071">
		<tag k="bay" v="fjord" />
		<tag k="name" v="Røingen" />
		<tag k="natural" v="bay" />
		<tag k="ssr:stedsnr" v="925943" />
	</node>
	<node id="-624577" lat="65.1379611154" lon="12.3474472184">
		<tag k="fixme" v="consider seamark:type=rock or natural=shoal" />
		<tag k="name" v="Skårnskjæran" />
		<tag k="place" v="islet" />
		<tag k="ssr:stedsnr" v="239423" />
	</node>
	<node id="-626624" lat="65.1579444449" lon="12.1192555478">
		<tag k="alt_name" v="Lilleheilsvika" />
		<tag k="name" v="Litlheilsvika" />
		<tag k="natural" v="bay" />
		<tag k="ssr:stedsnr" v="925928" />
	</node>
	<node id="-626623" lat="65.276633336" lon="11.6146222262">
		<tag k="name" v="Terjan" />
		<tag k="place" v="island" />
		<tag k="ssr:stedsnr" v="925929" />
	</node>
	<node id="-626621" lat="65.2508083308" lon="11.6673333331">
		<tag k="fixme" v="consider seamark:type=rock or natural=shoal" />
		<tag k="name" v="Sørøybraken" />
		<tag k="place" v="islet" />
		<tag k="ssr:stedsnr" v="925923" />
	</node>
	<node id="-626620" lat="65.2746250031" lon="11.6326888835">
		<tag k="fixme" v="consider seamark:type=rock or natural=shoal" />
		<tag k="name" v="Laukholmskjeret" />
		<tag k="place" v="islet" />
		<tag k="ssr:stedsnr" v="925925" />
	</node>
	<node id="-626618" lat="65.2539416627" lon="11.6674555491">
		<tag k="fixme" v="consider seamark:type=rock or natural=shoal" />
		<tag k="name" v="Nordøybraken" />
		<tag k="place" v="islet" />
		<tag k="ssr:stedsnr" v="925922" />
	</node>
	<node id="-626614" lat="65.1551888858" lon="12.1185277707">
		<tag k="name" v="Brokengvika" />
		<tag k="natural" v="bay" />
		<tag k="ssr:stedsnr" v="925910" />
	</node>
	<node id="-626613" lat="65.2511666686" lon="11.6945555472">
		<tag k="name" v="Stordraget" />
		<tag k="place" v="islet" />
		<tag k="ssr:stedsnr" v="925911" />
	</node>
	<node id="-626612" lat="65.2527333289" lon="11.7013999987">
		<tag k="name" v="Gimsa" />
		<tag k="place" v="island" />
		<tag k="ssr:stedsnr" v="925912" />
	</node>
	<node id="-624560" lat="65.2377361144" lon="12.3574999939">
		<tag k="name" v="Storskavvika" />
		<tag k="natural" v="bay" />
		<tag k="ssr:stedsnr" v="238868" />
	</node>
	<node id="-626607" lat="65.1174055572" lon="12.1226194487">
		<tag k="name" v="Hestneset" />
		<tag k="natural" v="cape" />
		<tag k="ssr:stedsnr" v="925816" />
	</node>
	<node id="-624556" lat="65.2239666671" lon="12.3437944385">
		<tag k="name" v="Risvikhøvelen" />
		<tag k="natural" v="beach" />
		<tag k="place" v="locality" />
		<tag k="ssr:stedsnr" v="238847" />
	</node>
	<node id="-626595" lat="65.2182277748" lon="12.779516672">
		<tag k="name" v="Mellomneset" />
		<tag k="natural" v="cape" />
		<tag k="ssr:stedsnr" v="925610" />
	</node>
	<node id="-623259" lat="65.2096111132" lon="12.4029388963">
		<tag k="alt_name" v="Ganflua" />
		<tag k="fixme" v="consider seamark:type=rock or natural=shoal" />
		<tag k="name" v="Gandflua" />
		<tag k="place" v="islet" />
		<tag k="ssr:stedsnr" v="279640" />
	</node>
	<node id="-624539" lat="65.1235000005" lon="12.5022416595">
		<tag k="name" v="Hikkilsbergodden" />
		<tag k="natural" v="cape" />
		<tag k="ssr:stedsnr" v="238363" />
	</node>
	<node id="-626583" lat="65.055252781" lon="12.2513888804">
		<tag k="name" v="Breivikbukta" />
		<tag k="natural" v="bay" />
		<tag k="ssr:stedsnr" v="925506" />
	</node>
	<node id="-624534" lat="65.1842277777" lon="12.4541888963">
		<tag k="name" v="Elvavika" />
		<tag k="natural" v="bay" />
		<tag k="ssr:stedsnr" v="238308" />
	</node>
	<node id="-626581" lat="65.0927888861" lon="12.3881361169">
		<tag k="fixme" v="multiple name tags, choose one and add the other to alt_name" />
		<tag k="name" v="Nesaodden;Terråkodden" />
		<tag k="natural" v="cape" />
		<tag k="ssr:stedsnr" v="925474" />
	</node>
	<node id="-626580" lat="65.0948055596" lon="12.3419055467">
		<tag k="fixme" v="multiple name tags, choose one and add the other to alt_name" />
		<tag k="name" v="Hjartøyodden;Nordhaugodden" />
		<tag k="natural" v="cape" />
		<tag k="ssr:stedsnr" v="925471" />
	</node>
	<node id="-626579" lat="65.0924805592" lon="12.3338361217">
		<tag k="name" v="Hjartøyhamna" />
		<tag k="natural" v="bay" />
		<tag k="ssr:stedsnr" v="925469" />
	</node>
	<node id="-624529" lat="65.1376861151" lon="12.4529138846">
		<tag k="name" v="Kalvvikodden" />
		<tag k="natural" v="cape" />
		<tag k="ssr:stedsnr" v="238286" />
	</node>
	<node id="-626576" lat="65.1306361155" lon="12.3903000021">
		<tag k="name" v="Langstranda" />
		<tag k="natural" v="beach" />
		<tag k="place" v="locality" />
		<tag k="ssr:stedsnr" v="925402" />
	</node>
	<node id="-626574" lat="65.1396527815" lon="12.3800500069">
		<tag k="name" v="Reppsundet" />
		<tag k="natural" v="strait" />
		<tag k="ssr:stedsnr" v="925377" />
	</node>
	<node id="-626573" lat="65.136780558" lon="12.4625694539">
		<tag k="alt_name" v="Nausthammarn" />
		<tag k="name" v="Nausthammaren" />
		<tag k="natural" v="cape" />
		<tag k="ssr:stedsnr" v="925362" />
	</node>
	<node id="-626568" lat="65.1983972235" lon="12.3550416679">
		<tag k="name" v="Jektvika" />
		<tag k="natural" v="bay" />
		<tag k="ssr:stedsnr" v="925304" />
	</node>
	<node id="-626567" lat="65.1940749992" lon="12.3264138891">
		<tag k="name" v="Knutsvikodden" />
		<tag k="natural" v="cape" />
		<tag k="ssr:stedsnr" v="925293" />
	</node>
	<node id="-626566" lat="65.2049166709" lon="12.4211527688">
		<tag k="alt_name" v="Balmuskjæret" />
		<tag k="fixme" v="consider seamark:type=rock or natural=shoal" />
		<tag k="name" v="Balmugskjeran" />
		<tag k="place" v="islet" />
		<tag k="ssr:stedsnr" v="925285" />
	</node>
	<node id="-626563" lat="65.2212388853" lon="12.4452361141">
		<tag k="alt_name" v="Sætervika" />
		<tag k="name" v="Setervika" />
		<tag k="natural" v="bay" />
		<tag k="ssr:stedsnr" v="925269" />
	</node>
	<node id="-624514" lat="65.2285972237" lon="12.2548638906">
		<tag k="name" v="Gavlodden" />
		<tag k="natural" v="cape" />
		<tag k="ssr:stedsnr" v="237360" />
	</node>
	<node id="-624449" lat="65.080405558" lon="12.4515694486">
		<tag k="alt_name" v="Bottelstrandodden" />
		<tag k="name" v="Bothildstrandodden" />
		<tag k="natural" v="cape" />
		<tag k="ssr:stedsnr" v="197453" />
	</node>
	<node id="-626559" lat="65.227875" lon="12.2613555463">
		<tag k="name" v="Målvika" />
		<tag k="natural" v="bay" />
		<tag k="ssr:stedsnr" v="925252" />
	</node>
	<node id="-626558" lat="65.225786115" lon="12.3424111087">
		<tag k="name" v="Buengstranda" />
		<tag k="natural" v="beach" />
		<tag k="place" v="locality" />
		<tag k="ssr:stedsnr" v="925248" />
	</node>
	<node id="-626556" lat="65.23335" lon="12.3002777748">
		<tag k="alt_name" v="Brennholmen" />
		<tag k="name" v="Brennholman" />
		<tag k="place" v="islet" />
		<tag k="ssr:stedsnr" v="925238" />
	</node>
	<node id="-626555" lat="65.2284083326" lon="12.2907777782">
		<tag k="name" v="Risøya" />
		<tag k="place" v="islet" />
		<tag k="ssr:stedsnr" v="925237" />
	</node>
	<node id="-626552" lat="65.2450416663" lon="12.4633694345">
		<tag k="name" v="Gardsodden" />
		<tag k="natural" v="cape" />
		<tag k="ssr:stedsnr" v="925226" />
	</node>
	<node id="-626549" lat="65.2639361116" lon="12.3147583345">
		<tag k="name" v="Gauphagan" />
		<tag k="natural" v="beach" />
		<tag k="place" v="locality" />
		<tag k="ssr:stedsnr" v="925157" />
	</node>
	<node id="-626548" lat="65.0416194413" lon="12.0989500055">
		<tag k="alt_name" v="Dybvikvågen" />
		<tag k="name" v="Djupvikvågen" />
		<tag k="natural" v="bay" />
		<tag k="ssr:stedsnr" v="925154" />
	</node>
	<node id="-626547" lat="65.0410194414" lon="12.1771333408">
		<tag k="name" v="Kollstraumen" />
		<tag k="natural" v="strait" />
		<tag k="ssr:stedsnr" v="925155" />
	</node>
	<node id="-624496" lat="65.0700111111" lon="12.0818388935">
		<tag k="name" v="Hålopvika" />
		<tag k="natural" v="bay" />
		<tag k="ssr:stedsnr" v="236255" />
	</node>
	<node id="-626543" lat="65.0699527809" lon="12.0302277682">
		<tag k="name" v="Amundsholet" />
		<tag k="natural" v="bay" />
		<tag k="ssr:stedsnr" v="925090" />
	</node>
	<node id="-626541" lat="65.1058750026" lon="11.9978388975">
		<tag k="name" v="Horsfjordvika" />
		<tag k="natural" v="bay" />
		<tag k="ssr:stedsnr" v="925042" />
	</node>
	<node id="-626538" lat="65.1976944423" lon="11.8950750018">
		<tag k="alt_name" v="Hovdskjer" />
		<tag k="name" v="Hovdskjeret" />
		<tag k="natural" v="shoal" />
		<tag k="place" v="locality" />
		<tag k="ssr:stedsnr" v="924920" />
	</node>
	<node id="-626537" lat="65.1904249966" lon="12.1368249953">
		<tag k="name" v="Longstranda" />
		<tag k="natural" v="beach" />
		<tag k="place" v="locality" />
		<tag k="ssr:stedsnr" v="924894" />
	</node>
	<node id="-626536" lat="65.2459749963" lon="11.4968638829">
		<tag k="name" v="Ternholmen" />
		<tag k="place" v="islet" />
		<tag k="ssr:stedsnr" v="924653" />
	</node>
	<node id="-626529" lat="65.0899083308" lon="12.0670027737">
		<tag k="name" v="Teårsvika" />
		<tag k="natural" v="bay" />
		<tag k="ssr:stedsnr" v="924055" />
	</node>
	<node id="-624480" lat="65.1311611135" lon="12.1096083334">
		<tag k="name" v="Flaget" />
		<tag k="natural" v="strait" />
		<tag k="ssr:stedsnr" v="217413" />
	</node>
	<node id="-626527" lat="64.9964583376" lon="12.1933138832">
		<tag k="name" v="Kolløya" />
		<tag k="place" v="islet" />
		<tag k="ssr:stedsnr" v="925730" />
	</node>
	<node id="-624474" lat="65.1296055547" lon="12.0176444497">
		<tag k="name" v="Vallskiftet" />
		<tag k="natural" v="cape" />
		<tag k="ssr:stedsnr" v="197982" />
	</node>
	<node id="-624472" lat="65.3190138902" lon="11.3803194446">
		<tag k="name" v="Djupråsskallen" />
		<tag k="natural" v="shoal" />
		<tag k="place" v="locality" />
		<tag k="ssr:stedsnr" v="197944" />
	</node>
	<node id="-626519" lat="65.0447972258" lon="12.1649916705">
		<tag k="name" v="Øyavalen" />
		<tag k="natural" v="bay" />
		<tag k="ssr:stedsnr" v="906963" />
	</node>
	<node id="-626518" lat="65.0451777778" lon="12.1743638928">
		<tag k="name" v="Bekkvika" />
		<tag k="natural" v="bay" />
		<tag k="ssr:stedsnr" v="906964" />
	</node>
	<node id="-626517" lat="65.0470722223" lon="12.1342777693">
		<tag k="fixme" v="consider seamark:type=rock or natural=shoal" />
		<tag k="name" v="Hagasandskjeran" />
		<tag k="place" v="islet" />
		<tag k="ssr:stedsnr" v="906961" />
	</node>
	<node id="-626515" lat="65.0482138881" lon="12.1712916727">
		<tag k="name" v="Straumodden" />
		<tag k="natural" v="cape" />
		<tag k="ssr:stedsnr" v="906929" />
	</node>
	<node id="-626514" lat="65.0491833377" lon="12.1791333322">
		<tag k="name" v="Kvitnesbukta" />
		<tag k="natural" v="bay" />
		<tag k="ssr:stedsnr" v="906927" />
	</node>
	<node id="-626512" lat="65.0521777765" lon="12.1421416632">
		<tag k="name" v="Kjesvika" />
		<tag k="natural" v="bay" />
		<tag k="ssr:stedsnr" v="906923" />
	</node>
	<node id="-624269" lat="65.3417833299" lon="11.420705547">
		<tag k="name" v="Kvingraslua" />
		<tag k="natural" v="shoal" />
		<tag k="place" v="locality" />
		<tag k="ssr:stedsnr" v="268676" />
	</node>
	<node id="-623927" lat="65.1322138866" lon="12.39365555">
		<tag k="name" v="Indre Langstrandodden" />
		<tag k="natural" v="cape" />
		<tag k="ssr:stedsnr" v="57078" />
	</node>
	<node id="-626504" lat="65.0892055549" lon="12.070891669">
		<tag k="name" v="Skarvurvika" />
		<tag k="natural" v="bay" />
		<tag k="ssr:stedsnr" v="906875" />
	</node>
	<node id="-626502" lat="65.2238333319" lon="12.3421333299">
		<tag k="name" v="Risvika" />
		<tag k="natural" v="bay" />
		<tag k="ssr:stedsnr" v="906867" />
	</node>
	<node id="-626501" lat="65.1555277757" lon="12.0269472185">
		<tag k="name" v="Indre Bjørnskjæret" />
		<tag k="natural" v="cape" />
		<tag k="ssr:stedsnr" v="906834" />
	</node>
	<node id="-626499" lat="65.1868277794" lon="12.1161249974">
		<tag k="name" v="Båtvika" />
		<tag k="natural" v="bay" />
		<tag k="ssr:stedsnr" v="906820" />
	</node>
	<node id="-626497" lat="65.1436305541" lon="12.0297000057">
		<tag k="name" v="Stien" />
		<tag k="natural" v="cape" />
		<tag k="ssr:stedsnr" v="906811" />
	</node>
	<node id="-626496" lat="65.1443583357" lon="12.0310305516">
		<tag k="name" v="Lessvika" />
		<tag k="natural" v="bay" />
		<tag k="ssr:stedsnr" v="906812" />
	</node>
	<node id="-624444" lat="65.1165999971" lon="12.4868916746">
		<tag k="name" v="Helstadvika" />
		<tag k="natural" v="bay" />
		<tag k="ssr:stedsnr" v="197390" />
	</node>
	<node id="-624442" lat="65.1287083351" lon="12.5317694439">
		<tag k="name" v="Kalvvika" />
		<tag k="natural" v="bay" />
		<tag k="ssr:stedsnr" v="197406" />
	</node>
	<node id="-624441" lat="65.265324999" lon="11.7446777689">
		<tag k="fixme" v="consider seamark:type=rock or natural=shoal" />
		<tag k="name" v="Kalvan" />
		<tag k="place" v="islet" />
		<tag k="ssr:stedsnr" v="197402" />
	</node>
	<node id="-624439" lat="65.1880861081" lon="12.3453083289">
		<tag k="name" v="Imøya" />
		<tag k="place" v="island" />
		<tag k="ssr:stedsnr" v="197282" />
	</node>
	<node id="-624438" lat="65.1912250039" lon="12.3768805647">
		<tag k="name" v="Byggøya" />
		<tag k="place" v="islet" />
		<tag k="ssr:stedsnr" v="197278" />
	</node>
	<node id="-624435" lat="65.2272527797" lon="12.2738499998">
		<tag k="name" v="Slåttvikodden" />
		<tag k="natural" v="cape" />
		<tag k="ssr:stedsnr" v="197252" />
	</node>
	<node id="-624432" lat="65.2416583314" lon="12.3087749972">
		<tag k="alt_name" v="Høla" />
		<tag k="bay" v="fjord" />
		<tag k="name" v="Gauphola" />
		<tag k="natural" v="bay" />
		<tag k="ssr:stedsnr" v="197228" />
	</node>
	<node id="-624429" lat="65.2650361069" lon="12.4328750012">
		<tag k="name" v="Gorholmen" />
		<tag k="place" v="islet" />
		<tag k="ssr:stedsnr" v="197149" />
	</node>
	<node id="-626475" lat="65.062627776" lon="12.2574416637">
		<tag k="fixme" v="consider seamark:type=rock or natural=shoal" />
		<tag k="name" v="Brevikskjæran" />
		<tag k="place" v="islet" />
		<tag k="ssr:stedsnr" v="906637" />
	</node>
	<node id="-626474" lat="65.0704972198" lon="12.2595805493">
		<tag k="fixme" v="consider seamark:type=rock or natural=shoal" />
		<tag k="name" v="Endeskjæret" />
		<tag k="place" v="islet" />
		<tag k="ssr:stedsnr" v="906636" />
	</node>
	<node id="-624423" lat="65.1751500011" lon="12.3582083413">
		<tag k="name" v="Kråksundet" />
		<tag k="natural" v="strait" />
		<tag k="ssr:stedsnr" v="197331" />
	</node>
	<node id="-624421" lat="65.1594750032" lon="12.3013555475">
		<tag k="name" v="Rundsteinvika" />
		<tag k="natural" v="bay" />
		<tag k="ssr:stedsnr" v="197324" />
	</node>
	<node id="-626468" lat="65.1131638871" lon="12.2549305455">
		<tag k="name" v="Langstranda" />
		<tag k="natural" v="beach" />
		<tag k="place" v="locality" />
		<tag k="ssr:stedsnr" v="906601" />
	</node>
	<node id="-624418" lat="65.1966638906" lon="12.4356194435">
		<tag k="bay" v="fjord" />
		<tag k="name" v="Selfjorden" />
		<tag k="natural" v="bay" />
		<tag k="ssr:stedsnr" v="197310" />
	</node>
	<node id="-624417" lat="65.2032166635" lon="12.4011111158">
		<tag k="alt_name" v="Stavøyskjeran" />
		<tag k="fixme" v="consider seamark:type=rock or natural=shoal" />
		<tag k="name" v="Stavøyskjærene" />
		<tag k="place" v="islet" />
		<tag k="ssr:stedsnr" v="197308" />
	</node>
	<node id="-624414" lat="65.1988027796" lon="12.4679833408">
		<tag k="alt_name" v="Jobonodden" />
		<tag k="name" v="Jobondodden" />
		<tag k="natural" v="cape" />
		<tag k="ssr:stedsnr" v="197304" />
	</node>
	<node id="-624412" lat="65.0922444425" lon="12.0300583305">
		<tag k="alt_name" v="Bjørnskjeret" />
		<tag k="fixme" v="consider seamark:type=rock or natural=shoal" />
		<tag k="name" v="Bjørnskjæret" />
		<tag k="place" v="islet" />
		<tag k="ssr:stedsnr" v="197048" />
	</node>
	<node id="-624411" lat="65.352250003" lon="11.4231249957">
		<tag k="fixme" v="consider seamark:type=rock or natural=shoal" />
		<tag k="name" v="Ytrenordbåen" />
		<tag k="place" v="islet" />
		<tag k="ssr:stedsnr" v="196955" />
	</node>
	<node id="-626457" lat="65.0789277772" lon="12.2846861077">
		<tag k="name" v="Langmyrvik" />
		<tag k="natural" v="bay" />
		<tag k="ssr:stedsnr" v="906474" />
	</node>
	<node id="-626456" lat="65.1384416624" lon="12.2688222186">
		<tag k="name" v="Laksnothullet" />
		<tag k="natural" v="bay" />
		<tag k="ssr:stedsnr" v="906465" />
	</node>
	<node id="-624407" lat="65.3290749976" lon="11.4053527817">
		<tag k="name" v="Skjerbåtaren" />
		<tag k="natural" v="shoal" />
		<tag k="place" v="locality" />
		<tag k="ssr:stedsnr" v="196943" />
	</node>
	<node id="-626454" lat="65.114416669" lon="12.3293166679">
		<tag k="name" v="Båsodden" />
		<tag k="natural" v="cape" />
		<tag k="ssr:stedsnr" v="906439" />
	</node>
	<node id="-626453" lat="65.1115472256" lon="12.3386305602">
		<tag k="name" v="Grønholmodden" />
		<tag k="natural" v="cape" />
		<tag k="ssr:stedsnr" v="906438" />
	</node>
	<node id="-624404" lat="65.2281000017" lon="11.5465833404">
		<tag k="name" v="Ytterljostarefallet" />
		<tag k="natural" v="shoal" />
		<tag k="place" v="locality" />
		<tag k="ssr:stedsnr" v="196649" />
	</node>
	<node id="-626451" lat="65.0885305568" lon="12.3313111144">
		<tag k="name" v="Løvik" />
		<tag k="natural" v="bay" />
		<tag k="ssr:stedsnr" v="906414" />
	</node>
	<node id="-626450" lat="65.1992583327" lon="12.5011250055">
		<tag k="name" v="Andersvika" />
		<tag k="natural" v="bay" />
		<tag k="ssr:stedsnr" v="906401" />
	</node>
	<node id="-624255" lat="65.0419500004" lon="12.1027000058">
		<tag k="name" v="Nesaodden" />
		<tag k="natural" v="cape" />
		<tag k="ssr:stedsnr" v="175004" />
	</node>
	<node id="-624398" lat="65.0799555529" lon="12.2915722277">
		<tag k="alt_name" v="Aspnesodden" />
		<tag k="name" v="Aspneset" />
		<tag k="natural" v="cape" />
		<tag k="ssr:stedsnr" v="196397" />
	</node>
	<node id="-624397" lat="65.0947583367" lon="12.4722666646">
		<tag k="name" v="Osan" />
		<tag k="natural" v="bay" />
		<tag k="ssr:stedsnr" v="196393" />
	</node>
	<node id="-626438" lat="65.0595194412" lon="12.2695583302">
		<tag k="name" v="Saltbuneset" />
		<tag k="natural" v="cape" />
		<tag k="ssr:stedsnr" v="906291" />
	</node>
	<node id="-626436" lat="65.2495555547" lon="12.415230554">
		<tag k="name" v="Oksbåsen" />
		<tag k="natural" v="bay" />
		<tag k="ssr:stedsnr" v="906230" />
	</node>
	<node id="-626425" lat="65.2611638874" lon="12.3943694544">
		<tag k="name" v="Lervikholmen" />
		<tag k="place" v="islet" />
		<tag k="ssr:stedsnr" v="904729" />
	</node>
	<node id="-624376" lat="65.2483750013" lon="12.303419436">
		<tag k="name" v="Melkarvika" />
		<tag k="natural" v="bay" />
		<tag k="ssr:stedsnr" v="178853" />
	</node>
	<node id="-624374" lat="65.1536111146" lon="12.117230561">
		<tag k="name" v="Vikaskjæret" />
		<tag k="natural" v="cape" />
		<tag k="ssr:stedsnr" v="178799" />
	</node>
	<node id="-624366" lat="65.132475002" lon="12.570150001">
		<tag k="name" v="Strandaodden" />
		<tag k="natural" v="cape" />
		<tag k="ssr:stedsnr" v="178654" />
	</node>
	<node id="-626406" lat="65.0779833337" lon="12.040972219">
		<tag k="name" v="Breivika" />
		<tag k="natural" v="bay" />
		<tag k="ssr:stedsnr" v="904124" />
	</node>
	<node id="-626403" lat="65.1666694404" lon="12.2944305581">
		<tag k="name" v="Brubekkvika" />
		<tag k="natural" v="bay" />
		<tag k="ssr:stedsnr" v="904098" />
	</node>
	<node id="-626402" lat="65.1509861069" lon="12.2941249918">
		<tag k="name" v="Inner-Jensinevika" />
		<tag k="natural" v="bay" />
		<tag k="ssr:stedsnr" v="904096" />
	</node>
	<node id="-624251" lat="65.0521111125" lon="12.1828833416">
		<tag k="fixme" v="consider seamark:type=rock or natural=shoal" />
		<tag k="name" v="Kvitnesskjeret" />
		<tag k="place" v="islet" />
		<tag k="ssr:stedsnr" v="156384" />
	</node>
	<node id="-624347" lat="65.1319861079" lon="12.3142805578">
		<tag k="name" v="Merkesodden" />
		<tag k="natural" v="cape" />
		<tag k="ssr:stedsnr" v="178436" />
	</node>
	<node id="-624345" lat="65.1413666656" lon="12.2789249952">
		<tag k="name" v="Melkarvika" />
		<tag k="natural" v="bay" />
		<tag k="ssr:stedsnr" v="178430" />
	</node>
	<node id="-624344" lat="65.1333666697" lon="12.3079055453">
		<tag k="name" v="Kjellholmen" />
		<tag k="place" v="islet" />
		<tag k="ssr:stedsnr" v="178420" />
	</node>
	<node id="-624343" lat="65.1308750025" lon="12.3261861015">
		<tag k="name" v="Bryggodden" />
		<tag k="natural" v="cape" />
		<tag k="ssr:stedsnr" v="178417" />
	</node>
	<node id="-624249" lat="65.2960416692" lon="11.6032055651">
		<tag k="name" v="Flaget" />
		<tag k="natural" v="shoal" />
		<tag k="place" v="locality" />
		<tag k="ssr:stedsnr" v="149087" />
	</node>
	<node id="-626388" lat="65.320805559" lon="11.4076111187">
		<tag k="name" v="Skallen" />
		<tag k="natural" v="shoal" />
		<tag k="place" v="locality" />
		<tag k="ssr:stedsnr" v="875669" />
	</node>
	<node id="-626384" lat="65.1342305523" lon="12.493322221">
		<tag k="alt_name" v="Stordvardneset" />
		<tag k="name" v="Storvalnesodden" />
		<tag k="natural" v="cape" />
		<tag k="ssr:stedsnr" v="865404" />
	</node>
	<node id="-626383" lat="65.2517194487" lon="12.583283328">
		<tag k="name" v="Mjosundholmen" />
		<tag k="place" v="islet" />
		<tag k="ssr:stedsnr" v="865210" />
	</node>
	<node id="-626382" lat="65.2523638874" lon="12.6251250085">
		<tag k="alt_name" v="Martnasodden" />
		<tag k="name" v="Oddan" />
		<tag k="natural" v="cape" />
		<tag k="ssr:stedsnr" v="865192" />
	</node>
	<node id="-626381" lat="65.2542250034" lon="12.4429138811">
		<tag k="name" v="Brenneset" />
		<tag k="natural" v="cape" />
		<tag k="ssr:stedsnr" v="865189" />
	</node>
	<node id="-626379" lat="65.256183334" lon="12.3262611131">
		<tag k="name" v="Melkarvikodden" />
		<tag k="natural" v="cape" />
		<tag k="ssr:stedsnr" v="865177" />
	</node>
	<node id="-626378" lat="65.1431249971" lon="12.1162333414">
		<tag k="name" v="Heilsvika" />
		<tag k="natural" v="bay" />
		<tag k="ssr:stedsnr" v="864996" />
	</node>
	<node id="-624326" lat="65.2318722253" lon="12.7985833398">
		<tag k="name" v="Hans-Olsåodden" />
		<tag k="natural" v="cape" />
		<tag k="ssr:stedsnr" v="178076" />
	</node>
	<node id="-626372" lat="65.3174249961" lon="11.5081583418">
		<tag k="name" v="Kåsfallet" />
		<tag k="natural" v="shoal" />
		<tag k="place" v="locality" />
		<tag k="ssr:stedsnr" v="864939" />
	</node>
	<node id="-626369" lat="65.1898749961" lon="11.8524749896">
		<tag k="name" v="Hunden" />
		<tag k="place" v="islet" />
		<tag k="ssr:stedsnr" v="864916" />
	</node>
	<node id="-626368" lat="65.2683111069" lon="11.5412416694">
		<tag k="alt_name" v="Ljosbraken" />
		<tag k="name" v="Ljøsbraken" />
		<tag k="place" v="islet" />
		<tag k="ssr:stedsnr" v="864917" />
	</node>
	<node id="-626366" lat="65.2567694469" lon="11.62465556">
		<tag k="alt_name" v="Midtsædingsskjeret" />
		<tag k="fixme" v="consider seamark:type=rock or natural=shoal" />
		<tag k="name" v="Sengskjeret" />
		<tag k="place" v="islet" />
		<tag k="ssr:stedsnr" v="864904" />
	</node>
	<node id="-626365" lat="65.2588222185" lon="11.6905333272">
		<tag k="fixme" v="consider seamark:type=rock or natural=shoal" />
		<tag k="name" v="Orsteinslua" />
		<tag k="place" v="islet" />
		<tag k="ssr:stedsnr" v="864905" />
	</node>
	<node id="-626364" lat="65.258108337" lon="11.6281277856">
		<tag k="fixme" v="consider seamark:type=rock or natural=shoal" />
		<tag k="name" v="Storsædingsskjeret" />
		<tag k="place" v="islet" />
		<tag k="ssr:stedsnr" v="864901" />
	</node>
	<node id="-626359" lat="65.2069500011" lon="12.1336166744">
		<tag k="alt_name" v="Bindalsfjord" />
		<tag k="bay" v="fjord" />
		<tag k="name" v="Bindalsfjorden" />
		<tag k="natural" v="bay" />
		<tag k="ssr:stedsnr" v="864843" />
	</node>
	<node id="-626358" lat="65.3942277746" lon="11.0917500103">
		<tag k="name" v="Storgrunnen" />
		<tag k="natural" v="shoal" />
		<tag k="place" v="locality" />
		<tag k="ssr:stedsnr" v="864794" />
	</node>
	<node id="-626356" lat="65.2418444488" lon="11.646474993">
		<tag k="fixme" v="consider seamark:type=rock or natural=shoal" />
		<tag k="name" v="Kvitskjærslua" />
		<tag k="place" v="islet" />
		<tag k="ssr:stedsnr" v="864704" />
	</node>
	<node id="-626355" lat="65.2528861145" lon="11.5397999906">
		<tag k="fixme" v="consider seamark:type=rock or natural=shoal" />
		<tag k="name" v="Langfallet" />
		<tag k="place" v="islet" />
		<tag k="ssr:stedsnr" v="864702" />
	</node>
	<node id="-624306" lat="65.1892361089" lon="12.4291305589">
		<tag k="name" v="Økshammerodden" />
		<tag k="natural" v="cape" />
		<tag k="ssr:stedsnr" v="177299" />
	</node>
	<node id="-624294" lat="65.1148444465" lon="11.9932611097">
		<tag k="name" v="Auka" />
		<tag k="natural" v="cape" />
		<tag k="ssr:stedsnr" v="176808" />
	</node>
	<node id="-624280" lat="65.0688444418" lon="12.0852250008">
		<tag k="name" v="Innervika" />
		<tag k="natural" v="bay" />
		<tag k="ssr:stedsnr" v="176232" />
	</node>
	<node id="-626326" lat="65.1404499965" lon="12.5952305478">
		<tag k="name" v="Steinbukta" />
		<tag k="natural" v="bay" />
		<tag k="ssr:stedsnr" v="864402" />
	</node>
	<node id="-623555" lat="65.0460805521" lon="12.1373333376">
		<tag k="name" v="Hagasandvika" />
		<tag k="natural" v="bay" />
		<tag k="ssr:stedsnr" v="359966" />
	</node>
	<node id="-626319" lat="65.1991694402" lon="12.310455563">
		<tag k="alt_name" v="Ovdin" />
		<tag k="name" v="Ovden" />
		<tag k="natural" v="cape" />
		<tag k="ssr:stedsnr" v="864287" />
	</node>
	<node id="-626317" lat="65.2034111082" lon="12.466811113">
		<tag k="fixme" v="multiple name tags, choose one and add the other to alt_name" />
		<tag k="name" v="Breivika;Sauvika" />
		<tag k="natural" v="bay" />
		<tag k="ssr:stedsnr" v="864275" />
	</node>
	<node id="-624268" lat="65.3219277786" lon="11.4216750058">
		<tag k="name" v="Hornslua" />
		<tag k="natural" v="shoal" />
		<tag k="place" v="locality" />
		<tag k="ssr:stedsnr" v="268675" />
	</node>
	<node id="-624266" lat="65.0892249972" lon="11.9868055461">
		<tag k="name" v="Jordfallbukta" />
		<tag k="natural" v="bay" />
		<tag k="ssr:stedsnr" v="175510" />
	</node>
	<node id="-624265" lat="65.0967444418" lon="11.9282027685">
		<tag k="name" v="Leirbugen" />
		<tag k="place" v="locality" />
		<tag k="ssr:stedsnr" v="175384" />
	</node>
	<node id="-624263" lat="65.2683361143" lon="12.3871194495">
		<tag k="name" v="Lausvika" />
		<tag k="natural" v="bay" />
		<tag k="ssr:stedsnr" v="175761" />
	</node>
	<node id="-626310" lat="65.2377694452" lon="12.3152666686">
		<tag k="alt_name" v="Hovøyklubben" />
		<tag k="name" v="Klubben" />
		<tag k="natural" v="cape" />
		<tag k="ssr:stedsnr" v="864219" />
	</node>
	<node id="-626308" lat="65.2477305585" lon="12.3715694435">
		<tag k="name" v="Hovøyodden" />
		<tag k="natural" v="cape" />
		<tag k="ssr:stedsnr" v="864197" />
	</node>
	<node id="-626307" lat="65.2360972244" lon="12.3243138868">
		<tag k="name" v="Hovøysundet" />
		<tag k="natural" v="strait" />
		<tag k="ssr:stedsnr" v="864196" />
	</node>
	<node id="-626306" lat="65.2422138866" lon="12.3392416684">
		<tag k="name" v="Hovøya" />
		<tag k="place" v="island" />
		<tag k="ssr:stedsnr" v="864192" />
	</node>
	<node id="-624257" lat="65.2095111154" lon="12.7615083264">
		<tag k="name" v="Blyskjæret" />
		<tag k="natural" v="cape" />
		<tag k="ssr:stedsnr" v="175267" />
	</node>
	<node id="-626303" lat="65.264424998" lon="12.4091249999">
		<tag k="name" v="Valholmen" />
		<tag k="place" v="islet" />
		<tag k="ssr:stedsnr" v="864124" />
	</node>
	<node id="-624252" lat="65.0823111106" lon="12.3385499951">
		<tag k="name" v="Mastervika" />
		<tag k="natural" v="bay" />
		<tag k="ssr:stedsnr" v="157516" />
	</node>
	<node id="-626299" lat="65.0674777751" lon="11.9989444467">
		<tag k="alt_name" v="Simlebotnet;Sømlibotnet;Semmelbotn" />
		<tag k="name" v="Simlebotn" />
		<tag k="natural" v="bay" />
		<tag k="ssr:stedsnr" v="864080" />
	</node>
	<node id="-624250" lat="65.1710472235" lon="11.8263583348">
		<tag k="name" v="Litltaren" />
		<tag k="natural" v="shoal" />
		<tag k="place" v="locality" />
		<tag k="ssr:stedsnr" v="149109" />
	</node>
	<node id="-626297" lat="65.0888722184" lon="12.0348222115">
		<tag k="name" v="Hålopvika" />
		<tag k="natural" v="bay" />
		<tag k="ssr:stedsnr" v="864068" />
	</node>
	<node id="-624247" lat="65.1325499983" lon="12.084425004">
		<tag k="name" v="Heggbærneset" />
		<tag k="natural" v="cape" />
		<tag k="ssr:stedsnr" v="136972" />
	</node>
	<node id="-624246" lat="65.2522527803" lon="11.5087388985">
		<tag k="name" v="Skafttaren" />
		<tag k="place" v="islet" />
		<tag k="ssr:stedsnr" v="136907" />
	</node>
	<node id="-624245" lat="65.1616750015" lon="12.1169166733">
		<tag k="fixme" v="multiple name tags, choose one and add the other to alt_name" />
		<tag k="name" v="Hagaskjøtvika;Kvarddagsvika" />
		<tag k="natural" v="bay" />
		<tag k="ssr:stedsnr" v="136903" />
	</node>
	<node id="-624244" lat="65.2599361082" lon="11.7018333432">
		<tag k="fixme" v="consider seamark:type=rock or natural=shoal" />
		<tag k="name" v="Småskjeran" />
		<tag k="place" v="islet" />
		<tag k="ssr:stedsnr" v="136900" />
	</node>
	<node id="-624243" lat="65.2526972208" lon="11.5465277735">
		<tag k="alt_name" v="Langfallhaug" />
		<tag k="fixme" v="consider seamark:type=rock or natural=shoal" />
		<tag k="name" v="Langfallhaugen" />
		<tag k="place" v="islet" />
		<tag k="ssr:stedsnr" v="136896" />
	</node>
	<node id="-626290" lat="65.0468055578" lon="12.1311666745">
		<tag k="name" v="Kabelvika" />
		<tag k="natural" v="bay" />
		<tag k="ssr:stedsnr" v="846950" />
	</node>
	<node id="-624239" lat="65.2531249999" lon="12.2901055506">
		<tag k="alt_name" v="Fornes" />
		<tag k="name" v="Fornesodden" />
		<tag k="natural" v="cape" />
		<tag k="ssr:stedsnr" v="136704" />
	</node>
	<node id="-624238" lat="65.2568333367" lon="12.4445611131">
		<tag k="name" v="Bjørnvika" />
		<tag k="natural" v="bay" />
		<tag k="ssr:stedsnr" v="136700" />
	</node>
	<node id="-626281" lat="65.1428749977" lon="12.027197217">
		<tag k="name" v="Laksberget" />
		<tag k="natural" v="cape" />
		<tag k="ssr:stedsnr" v="846797" />
	</node>
	<node id="-626278" lat="65.1958694425" lon="12.1519250074">
		<tag k="name" v="Mulholmen" />
		<tag k="natural" v="cape" />
		<tag k="ssr:stedsnr" v="846707" />
	</node>
	<node id="-626275" lat="65.1223527816" lon="12.1537333311">
		<tag k="name" v="Røyrneset" />
		<tag k="natural" v="cape" />
		<tag k="ssr:stedsnr" v="846587" />
	</node>
	<node id="-624221" lat="65.12771111" lon="12.4261027833">
		<tag k="name" v="Finnvika" />
		<tag k="natural" v="bay" />
		<tag k="ssr:stedsnr" v="136408" />
	</node>
	<node id="-624219" lat="65.2715249994" lon="11.7407999905">
		<tag k="name" v="Kvanktarskolten" />
		<tag k="natural" v="shoal" />
		<tag k="place" v="locality" />
		<tag k="ssr:stedsnr" v="136397" />
	</node>
	<node id="-624218" lat="65.1148861153" lon="12.2635833413">
		<tag k="name" v="Saltbuvika" />
		<tag k="natural" v="bay" />
		<tag k="ssr:stedsnr" v="136394" />
	</node>
	<node id="-624217" lat="65.2693583354" lon="12.8380277857">
		<tag k="alt_name:no" v="Tosenfjorden" />
		<tag k="bay" v="fjord" />
		<tag k="name" v="Tosen - Dåasa" />
		<tag k="name:no" v="Tosen" />
		<tag k="name:sma" v="Dåasa" />
		<tag k="natural" v="bay" />
		<tag k="ssr:stedsnr" v="136388" />
	</node>
	<node id="-624216" lat="65.1575111156" lon="12.6579250004">
		<tag k="name" v="Reppaholet" />
		<tag k="natural" v="bay" />
		<tag k="ssr:stedsnr" v="136382" />
	</node>
	<node id="-624214" lat="65.1344388849" lon="12.3534833343">
		<tag k="name" v="Skåravika" />
		<tag k="natural" v="bay" />
		<tag k="ssr:stedsnr" v="136356" />
	</node>
	<node id="-624213" lat="65.1366694484" lon="12.4686361093">
		<tag k="name" v="Storvika" />
		<tag k="natural" v="bay" />
		<tag k="ssr:stedsnr" v="136354" />
	</node>
	<node id="-624211" lat="65.1819638873" lon="12.272249997">
		<tag k="name" v="Skjelsvikholmen" />
		<tag k="place" v="islet" />
		<tag k="ssr:stedsnr" v="136348" />
	</node>
	<node id="-624210" lat="65.1954611091" lon="12.6700361092">
		<tag k="name" v="Oksbåsen" />
		<tag k="natural" v="bay" />
		<tag k="ssr:stedsnr" v="136344" />
	</node>
	<node id="-624227" lat="65.0684305543" lon="12.3202194422">
		<tag k="name" v="Kvernhusodden" />
		<tag k="natural" v="cape" />
		<tag k="ssr:stedsnr" v="136454" />
	</node>
	<node id="-624205" lat="65.2124666707" lon="12.431616665">
		<tag k="name" v="Møllebogen" />
		<tag k="natural" v="bay" />
		<tag k="ssr:stedsnr" v="136284" />
	</node>
	<node id="-626252" lat="65.1735527788" lon="12.3414749915">
		<tag k="name" v="Nakknesodden" />
		<tag k="natural" v="cape" />
		<tag k="ssr:stedsnr" v="846050" />
	</node>
	<node id="-626251" lat="65.1711111104" lon="12.3580250013">
		<tag k="name" v="Matkrokodden" />
		<tag k="natural" v="cape" />
		<tag k="ssr:stedsnr" v="846047" />
	</node>
	<node id="-624200" lat="65.2449999969" lon="12.5104749937">
		<tag k="name" v="Storbukta" />
		<tag k="natural" v="bay" />
		<tag k="ssr:stedsnr" v="136239" />
	</node>
	<node id="-624198" lat="65.2522472267" lon="12.3379138813">
		<tag k="bay" v="fjord" />
		<tag k="name" v="Hardangsfjorden" />
		<tag k="natural" v="bay" />
		<tag k="ssr:stedsnr" v="136188" />
	</node>
	<node id="-626245" lat="65.0599416678" lon="12.2501888871">
		<tag k="name" v="Landskjæret" />
		<tag k="place" v="islet" />
		<tag k="ssr:stedsnr" v="845967" />
	</node>
	<node id="-626244" lat="65.0418583309" lon="12.1756833388">
		<tag k="name" v="Inner-Straumodden" />
		<tag k="natural" v="cape" />
		<tag k="ssr:stedsnr" v="845961" />
	</node>
	<node id="-626243" lat="65.0536694466" lon="12.1575666599">
		<tag k="name" v="Båtvika" />
		<tag k="natural" v="bay" />
		<tag k="ssr:stedsnr" v="845921" />
	</node>
	<node id="-624194" lat="65.2650694481" lon="12.3624805649">
		<tag k="name" v="Svarthopneset" />
		<tag k="natural" v="cape" />
		<tag k="ssr:stedsnr" v="136166" />
	</node>
	<node id="-624193" lat="65.2638000028" lon="12.43695834">
		<tag k="name" v="Nebbengbukta" />
		<tag k="natural" v="bay" />
		<tag k="ssr:stedsnr" v="136152" />
	</node>
	<node id="-626240" lat="65.222836115" lon="12.3604000038">
		<tag k="name" v="Skotnesvika" />
		<tag k="natural" v="bay" />
		<tag k="ssr:stedsnr" v="845876" />
	</node>
	<node id="-624188" lat="65.1228777739" lon="12.1211527748">
		<tag k="name" v="Skjevika" />
		<tag k="natural" v="bay" />
		<tag k="ssr:stedsnr" v="135956" />
	</node>
	<node id="-624187" lat="65.1216111076" lon="12.0133888982">
		<tag k="alt_name" v="Sjåskjæret" />
		<tag k="fixme" v="consider seamark:type=rock or natural=shoal" />
		<tag k="name" v="Skjåskjeret" />
		<tag k="place" v="islet" />
		<tag k="ssr:stedsnr" v="135947" />
	</node>
	<node id="-624186" lat="65.1143555595" lon="11.9926361037">
		<tag k="name" v="Sukkbukta" />
		<tag k="natural" v="bay" />
		<tag k="ssr:stedsnr" v="135940" />
	</node>
	<node id="-626231" lat="65.0937833372" lon="12.4126777791">
		<tag k="fixme" v="consider seamark:type=rock or natural=shoal" />
		<tag k="name" v="Linskjeret" />
		<tag k="place" v="islet" />
		<tag k="ssr:stedsnr" v="845676" />
	</node>
	<node id="-623881" lat="65.1147472204" lon="11.9989888949">
		<tag k="name" v="Innerstranda" />
		<tag k="natural" v="beach" />
		<tag k="place" v="locality" />
		<tag k="ssr:stedsnr" v="55804" />
	</node>
	<node id="-624180" lat="65.1836194436" lon="11.8653055449">
		<tag k="name" v="Sørflesin" />
		<tag k="place" v="islet" />
		<tag k="ssr:stedsnr" v="135893" />
	</node>
	<node id="-624179" lat="65.1848805574" lon="11.8436055561">
		<tag k="name" v="Melsteinen" />
		<tag k="place" v="island" />
		<tag k="ssr:stedsnr" v="135892" />
	</node>
	<node id="-624177" lat="65.2187083316" lon="11.7307111161">
		<tag k="bay" v="fjord" />
		<tag k="name" v="Gimsafjorden" />
		<tag k="natural" v="bay" />
		<tag k="ssr:stedsnr" v="135817" />
	</node>
	<node id="-624176" lat="65.1884666701" lon="12.4014583299">
		<tag k="name" v="Oterneset" />
		<tag k="natural" v="cape" />
		<tag k="ssr:stedsnr" v="135759" />
	</node>
	<node id="-624174" lat="65.0479305533" lon="12.1739583299">
		<tag k="name" v="Kvitnesodden" />
		<tag k="natural" v="cape" />
		<tag k="ssr:stedsnr" v="135752" />
	</node>
	<node id="-624173" lat="65.237741663" lon="11.7005999926">
		<tag k="fixme" v="consider seamark:type=rock or natural=shoal" />
		<tag k="name" v="Storhjelmen" />
		<tag k="place" v="islet" />
		<tag k="ssr:stedsnr" v="135660" />
	</node>
	<node id="-626219" lat="65.137013893" lon="12.4599222271">
		<tag k="name" v="Kalvvika" />
		<tag k="natural" v="bay" />
		<tag k="ssr:stedsnr" v="845290" />
	</node>
	<node id="-626218" lat="65.2534638896" lon="12.4201194517">
		<tag k="name" v="Jamtvika" />
		<tag k="natural" v="bay" />
		<tag k="ssr:stedsnr" v="845237" />
	</node>
	<node id="-626215" lat="65.2624194437" lon="12.39604167">
		<tag k="name" v="Leirvika" />
		<tag k="natural" v="bay" />
		<tag k="ssr:stedsnr" v="845215" />
	</node>
	<node id="-626212" lat="65.216613892" lon="12.7823500024">
		<tag k="name" v="Ospvika" />
		<tag k="natural" v="bay" />
		<tag k="ssr:stedsnr" v="845077" />
	</node>
	<node id="-624162" lat="65.0955833298" lon="12.3343638833">
		<tag k="fixme" v="consider seamark:type=rock or natural=shoal" />
		<tag k="name" v="Kobbskjeret" />
		<tag k="place" v="islet" />
		<tag k="ssr:stedsnr" v="135371" />
	</node>
	<node id="-624157" lat="65.0688416669" lon="12.0828999951">
		<tag k="name" v="Møllebogen" />
		<tag k="natural" v="bay" />
		<tag k="ssr:stedsnr" v="135064" />
	</node>
	<node id="-624155" lat="65.0876611123" lon="12.064719434">
		<tag k="name" v="Teårsneset" />
		<tag k="natural" v="cape" />
		<tag k="ssr:stedsnr" v="135053" />
	</node>
	<node id="-624152" lat="65.1130222223" lon="12.0067666664">
		<tag k="name" v="Horsfjordøya" />
		<tag k="place" v="island" />
		<tag k="ssr:stedsnr" v="135006" />
	</node>
	<node id="-626196" lat="65.0673638887" lon="12.0780194347">
		<tag k="name" v="Johanvika" />
		<tag k="natural" v="bay" />
		<tag k="ssr:stedsnr" v="844226" />
	</node>
	<node id="-626195" lat="65.1806805526" lon="12.3622833427">
		<tag k="name" v="Langstranda" />
		<tag k="natural" v="beach" />
		<tag k="place" v="locality" />
		<tag k="ssr:stedsnr" v="844044" />
	</node>
	<node id="-626190" lat="65.2627416642" lon="12.3941916641">
		<tag k="name" v="Trongvika" />
		<tag k="natural" v="bay" />
		<tag k="ssr:stedsnr" v="843764" />
	</node>
	<node id="-624138" lat="65.2328888909" lon="12.2926222156">
		<tag k="fixme" v="consider seamark:type=rock or natural=shoal" />
		<tag k="name" v="Lesskjæret" />
		<tag k="place" v="islet" />
		<tag k="ssr:stedsnr" v="117854" />
	</node>
	<node id="-624137" lat="65.2552249964" lon="12.3845166691">
		<tag k="name" v="Lessholmen" />
		<tag k="place" v="islet" />
		<tag k="ssr:stedsnr" v="117835" />
	</node>
	<node id="-623532" lat="65.2466083348" lon="12.4878555527">
		<tag k="name" v="Aspvika" />
		<tag k="natural" v="bay" />
		<tag k="ssr:stedsnr" v="359204" />
	</node>
	<node id="-626174" lat="65.2244777739" lon="12.4327777799">
		<tag k="fixme" v="consider seamark:type=rock or natural=shoal" />
		<tag k="name" v="Barfluskjæret" />
		<tag k="place" v="islet" />
		<tag k="ssr:stedsnr" v="843046" />
	</node>
	<node id="-626172" lat="65.2214805539" lon="12.7864722212">
		<tag k="alt_name" v="Bugaskjæret" />
		<tag k="fixme" v="consider seamark:type=rock or natural=shoal" />
		<tag k="name" v="Buaskjæret" />
		<tag k="place" v="islet" />
		<tag k="ssr:stedsnr" v="825647" />
	</node>
	<node id="-626171" lat="65.1187500028" lon="12.5069055664">
		<tag k="alt_name" v="Aunvika" />
		<tag k="name" v="Aunevika" />
		<tag k="natural" v="bay" />
		<tag k="ssr:stedsnr" v="825511" />
	</node>
	<node id="-626169" lat="65.139311115" lon="12.0209444526">
		<tag k="name" v="Oppdalsvika" />
		<tag k="natural" v="bay" />
		<tag k="ssr:stedsnr" v="804987" />
	</node>
	<node id="-626168" lat="65.2570583375" lon="11.5735583267">
		<tag k="alt_name" v="Ljøsbrakskolten" />
		<tag k="name" v="Ljosbrakskolten" />
		<tag k="natural" v="shoal" />
		<tag k="place" v="locality" />
		<tag k="ssr:stedsnr" v="804893" />
	</node>
	<node id="-626165" lat="65.2222111101" lon="12.7914555551">
		<tag k="alt_name" v="Røyrneset" />
		<tag k="name" v="Rørneset" />
		<tag k="natural" v="cape" />
		<tag k="ssr:stedsnr" v="804596" />
	</node>
	<node id="-623478" lat="65.2175194438" lon="12.7729333398">
		<tag k="fixme" v="consider seamark:type=rock or natural=shoal" />
		<tag k="name" v="Flatskjæret" />
		<tag k="place" v="islet" />
		<tag k="ssr:stedsnr" v="331057" />
	</node>
	<node id="-626161" lat="65.0606805518" lon="12.2524972268">
		<tag k="fixme" v="consider seamark:type=rock or natural=shoal" />
		<tag k="name" v="Mellomskjæret" />
		<tag k="place" v="islet" />
		<tag k="ssr:stedsnr" v="804480" />
	</node>
	<node id="-626154" lat="65.1306194437" lon="12.4613611094">
		<tag k="name" v="Øytangen" />
		<tag k="natural" v="cape" />
		<tag k="ssr:stedsnr" v="804393" />
	</node>
	<node id="-626153" lat="65.1214861069" lon="12.5117861152">
		<tag k="name" v="Bangstadvika" />
		<tag k="natural" v="bay" />
		<tag k="ssr:stedsnr" v="804391" />
	</node>
	<node id="-626152" lat="65.2730166631" lon="11.7200055465">
		<tag k="name" v="Kartaren" />
		<tag k="natural" v="shoal" />
		<tag k="place" v="locality" />
		<tag k="ssr:stedsnr" v="804388" />
	</node>
	<node id="-624103" lat="65.082666666" lon="12.2958444517">
		<tag k="name" v="Steinodden" />
		<tag k="natural" v="cape" />
		<tag k="ssr:stedsnr" v="117468" />
	</node>
	<node id="-624102" lat="65.1404805545" lon="12.2736916604">
		<tag k="name" v="Hestvika" />
		<tag k="natural" v="bay" />
		<tag k="ssr:stedsnr" v="117462" />
	</node>
	<node id="-624099" lat="65.2096361127" lon="12.4416583323">
		<tag k="name" v="Trætvikosen" />
		<tag k="natural" v="bay" />
		<tag k="ssr:stedsnr" v="117453" />
	</node>
	<node id="-626139" lat="65.1893138853" lon="12.4176249898">
		<tag k="name" v="Innervika" />
		<tag k="natural" v="bay" />
		<tag k="ssr:stedsnr" v="804288" />
	</node>
	<node id="-626136" lat="65.2527000044" lon="12.3046916678">
		<tag k="name" v="Teinringsosen" />
		<tag k="natural" v="bay" />
		<tag k="ssr:stedsnr" v="804207" />
	</node>
	<node id="-626135" lat="65.2585055527" lon="12.413802784">
		<tag k="name" v="Håvikneset" />
		<tag k="natural" v="cape" />
		<tag k="ssr:stedsnr" v="804199" />
	</node>
	<node id="-626133" lat="65.2591027791" lon="12.4411916691">
		<tag k="name" v="Nebbengneset" />
		<tag k="natural" v="cape" />
		<tag k="ssr:stedsnr" v="804184" />
	</node>
	<node id="-626131" lat="65.2616500043" lon="12.3779999899">
		<tag k="name" v="Grønviksundet" />
		<tag k="natural" v="strait" />
		<tag k="ssr:stedsnr" v="804157" />
	</node>
	<node id="-626130" lat="65.1229166627" lon="12.1399861079">
		<tag k="bay" v="fjord" />
		<tag k="name" v="Bursvikbotn" />
		<tag k="natural" v="bay" />
		<tag k="ssr:stedsnr" v="803961" />
	</node>
	<node id="-626127" lat="65.2954000035" lon="11.5399222295">
		<tag k="alt_name" v="Torghattaran" />
		<tag k="name" v="Torghattaren" />
		<tag k="natural" v="shoal" />
		<tag k="place" v="locality" />
		<tag k="ssr:stedsnr" v="803915" />
	</node>
	<node id="-626126" lat="65.2758499995" lon="11.6265722291">
		<tag k="name" v="Laukholmen" />
		<tag k="place" v="islet" />
		<tag k="ssr:stedsnr" v="803913" />
	</node>
	<node id="-624074" lat="65.2668250002" lon="12.3831416641">
		<tag k="name" v="Staurnesodden" />
		<tag k="natural" v="cape" />
		<tag k="ssr:stedsnr" v="115721" />
	</node>
	<node id="-624067" lat="65.1161749956" lon="12.0928722293">
		<tag k="name" v="Lysfjordvik" />
		<tag k="natural" v="bay" />
		<tag k="ssr:stedsnr" v="115807" />
	</node>
	<node id="-624066" lat="65.0628249989" lon="12.1004416641">
		<tag k="fixme" v="consider seamark:type=rock or natural=shoal" />
		<tag k="name" v="Stølskjeret" />
		<tag k="place" v="islet" />
		<tag k="ssr:stedsnr" v="115258" />
	</node>
	<node id="-624203" lat="65.2144527797" lon="12.3773194533">
		<tag k="bay" v="fjord" />
		<tag k="name" v="Skotnesfjorden" />
		<tag k="natural" v="bay" />
		<tag k="ssr:stedsnr" v="136280" />
	</node>
	<node id="-626112" lat="65.0925999975" lon="12.3229861011">
		<tag k="name" v="Hjartøysundet" />
		<tag k="natural" v="strait" />
		<tag k="ssr:stedsnr" v="803431" />
	</node>
	<node id="-626108" lat="65.1009000001" lon="12.3333583401">
		<tag k="name" v="Hundholmen" />
		<tag k="place" v="islet" />
		<tag k="ssr:stedsnr" v="803394" />
	</node>
	<node id="-626107" lat="65.1943666687" lon="12.2598749978">
		<tag k="name" v="Fiskerosodden" />
		<tag k="natural" v="cape" />
		<tag k="ssr:stedsnr" v="803287" />
	</node>
	<node id="-626106" lat="65.2211750006" lon="12.3563861163">
		<tag k="name" v="Nesodden" />
		<tag k="natural" v="cape" />
		<tag k="ssr:stedsnr" v="803238" />
	</node>
	<node id="-624056" lat="65.2562861135" lon="12.4392833393">
		<tag k="name" v="Hardangsvågen" />
		<tag k="natural" v="bay" />
		<tag k="ssr:stedsnr" v="102969" />
	</node>
	<node id="-626102" lat="65.0544166675" lon="12.1582055538">
		<tag k="name" v="Åkervika" />
		<tag k="natural" v="bay" />
		<tag k="ssr:stedsnr" v="803107" />
	</node>
	<node id="-624053" lat="65.2759027791" lon="11.5902833413">
		<tag k="name" v="Svartskjertaren" />
		<tag k="natural" v="shoal" />
		<tag k="place" v="locality" />
		<tag k="ssr:stedsnr" v="88065" />
	</node>
	<node id="-624045" lat="65.1152833348" lon="12.2386249979">
		<tag k="name" v="Kråknesvika" />
		<tag k="natural" v="bay" />
		<tag k="ssr:stedsnr" v="76363" />
	</node>
	<node id="-624044" lat="65.1178861096" lon="12.3097944415">
		<tag k="name" v="Mulingsodden" />
		<tag k="natural" v="cape" />
		<tag k="ssr:stedsnr" v="76354" />
	</node>
	<node id="-626091" lat="65.2441111106" lon="12.3729499932">
		<tag k="name" v="Ytterneskroken" />
		<tag k="natural" v="bay" />
		<tag k="ssr:stedsnr" v="785875" />
	</node>
	<node id="-624042" lat="65.137677775" lon="12.4368638971">
		<tag k="name" v="Nisneset" />
		<tag k="natural" v="cape" />
		<tag k="ssr:stedsnr" v="76319" />
	</node>
	<node id="-624041" lat="65.2689694482" lon="12.4259499986">
		<tag k="name" v="Hardangsbukta" />
		<tag k="natural" v="bay" />
		<tag k="ssr:stedsnr" v="76264" />
	</node>
	<node id="-624039" lat="65.2533555587" lon="12.4453944392">
		<tag k="name" v="Brennosen" />
		<tag k="natural" v="bay" />
		<tag k="ssr:stedsnr" v="76192" />
	</node>
	<node id="-626086" lat="65.1268027791" lon="12.0165027719">
		<tag k="name" v="Nordsjøbukta" />
		<tag k="natural" v="bay" />
		<tag k="ssr:stedsnr" v="785849" />
	</node>
	<node id="-625675" lat="65.0640499967" lon="12.0730250067">
		<tag k="alt_name" v="Kvitnes" />
		<tag k="name" v="Kvitnesodden" />
		<tag k="natural" v="cape" />
		<tag k="ssr:stedsnr" v="682087" />
	</node>
	<node id="-626084" lat="65.1776222217" lon="12.1120694359">
		<tag k="name" v="Korsvika" />
		<tag k="natural" v="bay" />
		<tag k="ssr:stedsnr" v="785802" />
	</node>
	<node id="-624035" lat="65.2663138851" lon="12.4363027668">
		<tag k="name" v="Austrelibukta" />
		<tag k="natural" v="bay" />
		<tag k="ssr:stedsnr" v="76149" />
	</node>
	<node id="-624034" lat="65.0962666705" lon="12.0169916611">
		<tag k="name" v="Hålopneset" />
		<tag k="natural" v="cape" />
		<tag k="ssr:stedsnr" v="76054" />
	</node>
	<node id="-624030" lat="65.1193777819" lon="12.0675666597">
		<tag k="name" v="Stavran" />
		<tag k="natural" v="cape" />
		<tag k="ssr:stedsnr" v="75972" />
	</node>
	<node id="-624029" lat="65.3433611141" lon="11.3962138949">
		<tag k="name" v="Biskallan" />
		<tag k="natural" v="shoal" />
		<tag k="place" v="locality" />
		<tag k="ssr:stedsnr" v="75963" />
	</node>
	<node id="-624026" lat="65.3276249962" lon="11.4011249966">
		<tag k="name" v="Skjerbåen" />
		<tag k="natural" v="shoal" />
		<tag k="place" v="locality" />
		<tag k="ssr:stedsnr" v="75956" />
	</node>
	<node id="-624025" lat="65.1935777759" lon="11.9134999972">
		<tag k="alt_name" v="Ljøstaren" />
		<tag k="name" v="Ljostaren" />
		<tag k="natural" v="shoal" />
		<tag k="place" v="locality" />
		<tag k="ssr:stedsnr" v="75947" />
	</node>
	<node id="-624024" lat="65.1600277735" lon="12.0233249939">
		<tag k="name" v="Slettnesodden" />
		<tag k="natural" v="cape" />
		<tag k="ssr:stedsnr" v="75925" />
	</node>
	<node id="-624022" lat="65.2524972234" lon="11.6916055562">
		<tag k="name" v="Svindraget" />
		<tag k="place" v="islet" />
		<tag k="ssr:stedsnr" v="75918" />
	</node>
	<node id="-626069" lat="65.1319527787" lon="12.3102555523">
		<tag k="fixme" v="consider seamark:type=rock or natural=shoal" />
		<tag k="name" v="Langskjæran" />
		<tag k="place" v="islet" />
		<tag k="ssr:stedsnr" v="785410" />
	</node>
	<node id="-626068" lat="65.1316861134" lon="12.3162944476">
		<tag k="name" v="Skåraenget" />
		<tag k="natural" v="cape" />
		<tag k="ssr:stedsnr" v="785397" />
	</node>
	<node id="-623854" lat="65.1670527741" lon="12.2782694497">
		<tag k="name" v="Linesodden" />
		<tag k="natural" v="cape" />
		<tag k="ssr:stedsnr" v="54113" />
	</node>
	<node id="-624018" lat="65.0861638916" lon="12.3169861089">
		<tag k="name" v="Klubben" />
		<tag k="natural" v="cape" />
		<tag k="ssr:stedsnr" v="75837" />
	</node>
	<node id="-624017" lat="65.1152861089" lon="12.3926805625">
		<tag k="alt_name" v="Jæktvika" />
		<tag k="name" v="Jektvika" />
		<tag k="natural" v="bay" />
		<tag k="ssr:stedsnr" v="75835" />
	</node>
	<node id="-624016" lat="65.2013694407" lon="12.4685777723">
		<tag k="name" v="Jektvika" />
		<tag k="natural" v="bay" />
		<tag k="ssr:stedsnr" v="75827" />
	</node>
	<node id="-626061" lat="65.0607333345" lon="12.274233329">
		<tag k="name" v="Saltbunesvika" />
		<tag k="natural" v="bay" />
		<tag k="ssr:stedsnr" v="785261" />
	</node>
	<node id="-626058" lat="65.0582055564" lon="12.2289000008">
		<tag k="name" v="Storodden" />
		<tag k="natural" v="cape" />
		<tag k="ssr:stedsnr" v="784972" />
	</node>
	<node id="-626055" lat="65.0582416689" lon="12.1916750029">
		<tag k="name" v="Porsberget" />
		<tag k="natural" v="cape" />
		<tag k="ssr:stedsnr" v="784921" />
	</node>
	<node id="-626053" lat="65.223441671" lon="12.3708999977">
		<tag k="name" v="Åkervikodden" />
		<tag k="natural" v="cape" />
		<tag k="ssr:stedsnr" v="784861" />
	</node>
	<node id="-626049" lat="65.2015666692" lon="12.1637416723">
		<tag k="name" v="Porsvik" />
		<tag k="natural" v="bay" />
		<tag k="ssr:stedsnr" v="784733" />
	</node>
	<node id="-626048" lat="65.2050555519" lon="12.1776611189">
		<tag k="name" v="Ganvik" />
		<tag k="natural" v="bay" />
		<tag k="ssr:stedsnr" v="784732" />
	</node>
	<node id="-626045" lat="65.1404861136" lon="12.5959111198">
		<tag k="name" v="Matkroken" />
		<tag k="natural" v="beach" />
		<tag k="place" v="locality" />
		<tag k="ssr:stedsnr" v="784709" />
	</node>
	<node id="-623996" lat="65.0775222239" lon="12.4438083234">
		<tag k="alt_name" v="Gårvika" />
		<tag k="name" v="Gorrvika" />
		<tag k="natural" v="bay" />
		<tag k="ssr:stedsnr" v="75482" />
	</node>
	<node id="-623992" lat="65.1068999996" lon="12.4803111188">
		<tag k="name" v="Tive" />
		<tag k="name:sma" v="Tive" />
		<tag k="natural" v="bay" />
		<tag k="ssr:stedsnr" v="75400" />
	</node>
	<node id="-623986" lat="65.1798000023" lon="12.3410138906">
		<tag k="name" v="Husvika" />
		<tag k="natural" v="bay" />
		<tag k="ssr:stedsnr" v="75318" />
	</node>
	<node id="-624531" lat="65.1187166656" lon="12.4290805566">
		<tag k="name" v="Olavik" />
		<tag k="natural" v="bay" />
		<tag k="ssr:stedsnr" v="238292" />
	</node>
	<node id="-623982" lat="65.2185249976" lon="12.3310055479">
		<tag k="name" v="Skotnessundet" />
		<tag k="natural" v="strait" />
		<tag k="ssr:stedsnr" v="75270" />
	</node>
	<node id="-626029" lat="65.1997638935" lon="12.4759527711">
		<tag k="name" v="Lesslonet" />
		<tag k="natural" v="bay" />
		<tag k="ssr:stedsnr" v="784421" />
	</node>
	<node id="-626026" lat="65.1273333316" lon="12.4197500016">
		<tag k="name" v="Finnvik" />
		<tag k="natural" v="bay" />
		<tag k="ssr:stedsnr" v="784366" />
	</node>
	<node id="-623977" lat="65.2246583292" lon="12.3799805504">
		<tag k="alt_name" v="Sommersetskjæret" />
		<tag k="fixme" v="consider seamark:type=rock or natural=shoal" />
		<tag k="name" v="Sommarsetskjeret" />
		<tag k="place" v="islet" />
		<tag k="ssr:stedsnr" v="75235" />
	</node>
	<node id="-623974" lat="65.2244138925" lon="12.4203444447">
		<tag k="alt_name" v="Bjørnstokkskjera" />
		<tag k="fixme" v="consider seamark:type=rock or natural=shoal" />
		<tag k="name" v="Bjørnstokkskjæret" />
		<tag k="place" v="islet" />
		<tag k="ssr:stedsnr" v="75231" />
	</node>
	<node id="-626021" lat="65.1358250015" lon="12.5007999907">
		<tag k="name" v="Oldervika" />
		<tag k="natural" v="bay" />
		<tag k="ssr:stedsnr" v="784307" />
	</node>
	<node id="-626020" lat="65.2499055527" lon="12.4342666769">
		<tag k="fixme" v="consider seamark:type=rock or natural=shoal" />
		<tag k="name" v="Storskjæret" />
		<tag k="place" v="islet" />
		<tag k="ssr:stedsnr" v="784236" />
	</node>
	<node id="-623846" lat="65.1383305514" lon="12.027319452">
		<tag k="fixme" v="consider seamark:type=rock or natural=shoal" />
		<tag k="name" v="Klakken" />
		<tag k="place" v="islet" />
		<tag k="ssr:stedsnr" v="15991" />
	</node>
	<node id="-623968" lat="65.0474416673" lon="12.1619083401">
		<tag k="fixme" v="multiple name tags, choose one and add the other to alt_name" />
		<tag k="name" v="Rotholmen;Tenholmen" />
		<tag k="place" v="islet" />
		<tag k="ssr:stedsnr" v="75107" />
	</node>
	<node id="-623963" lat="65.1054694433" lon="11.981619448">
		<tag k="name" v="Lone" />
		<tag k="natural" v="bay" />
		<tag k="ssr:stedsnr" v="75015" />
	</node>
	<node id="-623958" lat="65.0893805526" lon="12.0302138811">
		<tag k="name" v="Hålopsjøen" />
		<tag k="natural" v="beach" />
		<tag k="place" v="locality" />
		<tag k="ssr:stedsnr" v="57877" />
	</node>
	<node id="-623957" lat="65.0875833318" lon="12.0310388861">
		<tag k="name" v="Osen" />
		<tag k="natural" v="bay" />
		<tag k="ssr:stedsnr" v="57878" />
	</node>
	<node id="-623956" lat="65.2307944466" lon="12.2961611201">
		<tag k="name" v="Dalagervika" />
		<tag k="natural" v="bay" />
		<tag k="ssr:stedsnr" v="57852" />
	</node>
	<node id="-623951" lat="65.1322249974" lon="12.111044435">
		<tag k="name" v="Leirbogen" />
		<tag k="natural" v="bay" />
		<tag k="ssr:stedsnr" v="57792" />
	</node>
	<node id="-625997" lat="65.0787277815" lon="12.0626472149">
		<tag k="name" v="Forrneset" />
		<tag k="natural" v="cape" />
		<tag k="ssr:stedsnr" v="782831" />
	</node>
	<node id="-625995" lat="65.2656777762" lon="12.3850638885">
		<tag k="name" v="Sørvika" />
		<tag k="natural" v="bay" />
		<tag k="ssr:stedsnr" v="782713" />
	</node>
	<node id="-625994" lat="65.2567111096" lon="12.3744722147">
		<tag k="name" v="Johannesvika" />
		<tag k="natural" v="bay" />
		<tag k="ssr:stedsnr" v="782711" />
	</node>
	<node id="-625993" lat="65.0863388909" lon="12.4177722255">
		<tag k="fixme" v="consider seamark:type=rock or natural=shoal" />
		<tag k="name" v="Kattvikskjæret" />
		<tag k="place" v="islet" />
		<tag k="ssr:stedsnr" v="782709" />
	</node>
	<node id="-623943" lat="65.1315722249" lon="12.3052638911">
		<tag k="name" v="Storsteinodden" />
		<tag k="natural" v="cape" />
		<tag k="ssr:stedsnr" v="57419" />
	</node>
	<node id="-623942" lat="65.1315111152" lon="12.2636166597">
		<tag k="name" v="Bryggodden" />
		<tag k="natural" v="cape" />
		<tag k="ssr:stedsnr" v="57415" />
	</node>
	<node id="-625982" lat="65.0437138879" lon="12.1010750019">
		<tag k="name" v="Tyttbærhammaren" />
		<tag k="natural" v="cape" />
		<tag k="ssr:stedsnr" v="782004" />
	</node>
	<node id="-623929" lat="65.1406555558" lon="12.3420111136">
		<tag k="name" v="Sandvika" />
		<tag k="natural" v="bay" />
		<tag k="ssr:stedsnr" v="57081" />
	</node>
	<node id="-625976" lat="65.2799416646" lon="11.528044451">
		<tag k="name" v="Uerskjertaren" />
		<tag k="natural" v="shoal" />
		<tag k="place" v="locality" />
		<tag k="ssr:stedsnr" v="756055" />
	</node>
	<node id="-625975" lat="65.2504999985" lon="12.3746416654">
		<tag k="alt_name" v="Hovøyholmen" />
		<tag k="name" v="Hovøyholman" />
		<tag k="place" v="islet" />
		<tag k="ssr:stedsnr" v="744132" />
	</node>
	<node id="-625973" lat="65.3122083338" lon="11.4493083393">
		<tag k="fixme" v="consider seamark:type=rock or natural=shoal" />
		<tag k="name" v="Svartoksen" />
		<tag k="place" v="islet" />
		<tag k="ssr:stedsnr" v="743926" />
	</node>
	<node id="-625972" lat="65.2884416677" lon="11.6098750085">
		<tag k="fixme" v="consider seamark:type=rock or natural=shoal" />
		<tag k="name" v="Lislsvartskjeret" />
		<tag k="place" v="islet" />
		<tag k="ssr:stedsnr" v="743921" />
	</node>
	<node id="-625970" lat="65.2539250027" lon="11.6253555644">
		<tag k="fixme" v="consider seamark:type=rock or natural=shoal" />
		<tag k="name" v="Lislsædingsskjeret" />
		<tag k="place" v="islet" />
		<tag k="ssr:stedsnr" v="743890" />
	</node>
	<node id="-625969" lat="65.0749277777" lon="12.32538055">
		<tag k="name" v="Djupvika" />
		<tag k="natural" v="bay" />
		<tag k="ssr:stedsnr" v="743773" />
	</node>
	<node id="-625968" lat="65.2534333323" lon="12.4021944389">
		<tag k="name" v="Jektvika" />
		<tag k="natural" v="bay" />
		<tag k="ssr:stedsnr" v="743686" />
	</node>
	<node id="-623918" lat="65.2412666675" lon="12.3247805657">
		<tag k="name" v="Kalvhodet" />
		<tag k="natural" v="cape" />
		<tag k="ssr:stedsnr" v="56870" />
	</node>
	<node id="-623917" lat="65.2424444473" lon="12.32542501">
		<tag k="name" v="Ytre Hovøyvika" />
		<tag k="natural" v="bay" />
		<tag k="ssr:stedsnr" v="56869" />
	</node>
	<node id="-623907" lat="65.1019027817" lon="12.4198777724">
		<tag k="name" v="Nordsjyen" />
		<tag k="natural" v="beach" />
		<tag k="place" v="locality" />
		<tag k="ssr:stedsnr" v="56714" />
	</node>
	<node id="-626224" lat="65.1242472232" lon="12.5216888935">
		<tag k="name" v="Heimer-Kalvika" />
		<tag k="natural" v="bay" />
		<tag k="ssr:stedsnr" v="845363" />
	</node>
	<node id="-625948" lat="65.1121555534" lon="12.3964027853">
		<tag k="name" v="Staurnesodden" />
		<tag k="natural" v="cape" />
		<tag k="ssr:stedsnr" v="743417" />
	</node>
	<node id="-625945" lat="65.1133138915" lon="12.3329305538">
		<tag k="name" v="Båsen" />
		<tag k="natural" v="bay" />
		<tag k="ssr:stedsnr" v="743376" />
	</node>
	<node id="-625941" lat="65.1686916658" lon="12.292163879">
		<tag k="alt_name" v="Degerneset" />
		<tag k="name" v="Digerneset" />
		<tag k="natural" v="cape" />
		<tag k="ssr:stedsnr" v="743327" />
	</node>
	<node id="-623890" lat="65.2584499982" lon="12.4508138814">
		<tag k="name" v="Innersjøen" />
		<tag k="natural" v="bay" />
		<tag k="ssr:stedsnr" v="56185" />
	</node>
	<node id="-625934" lat="65.2081444418" lon="12.4567333421">
		<tag k="name" v="Heggbærvika" />
		<tag k="natural" v="bay" />
		<tag k="ssr:stedsnr" v="743274" />
	</node>
	<node id="-625932" lat="65.2458750005" lon="12.3395638994">
		<tag k="alt_name" v="Kobbeleiet" />
		<tag k="name" v="Kobbleivika" />
		<tag k="natural" v="bay" />
		<tag k="ssr:stedsnr" v="743223" />
	</node>
	<node id="-625931" lat="65.258200001" lon="12.3122805485">
		<tag k="alt_name" v="Nordeidet" />
		<tag k="name" v="Gaupeidet" />
		<tag k="place" v="locality" />
		<tag k="ssr:stedsnr" v="743154" />
	</node>
	<node id="-625929" lat="65.2610166686" lon="12.4036861108">
		<tag k="name" v="Båtnesøya" />
		<tag k="place" v="islet" />
		<tag k="ssr:stedsnr" v="743146" />
	</node>
	<node id="-625924" lat="65.1013000009" lon="12.009105551">
		<tag k="name" v="Skjevelnesodden" />
		<tag k="natural" v="cape" />
		<tag k="ssr:stedsnr" v="743023" />
	</node>
	<node id="-625923" lat="65.1273555535" lon="12.1561249898">
		<tag k="name" v="Møllevika" />
		<tag k="natural" v="bay" />
		<tag k="ssr:stedsnr" v="742971" />
	</node>
	<node id="-625922" lat="65.3823055539" lon="11.2598916663">
		<tag k="name" v="Sørblaen" />
		<tag k="natural" v="shoal" />
		<tag k="place" v="locality" />
		<tag k="ssr:stedsnr" v="742963" />
	</node>
	<node id="-625921" lat="65.1905805515" lon="11.8825611088">
		<tag k="fixme" v="consider seamark:type=rock or natural=shoal" />
		<tag k="name" v="Rundflesa" />
		<tag k="place" v="islet" />
		<tag k="ssr:stedsnr" v="742940" />
	</node>
	<node id="-625920" lat="65.1888305574" lon="12.1231277688">
		<tag k="name" v="Skjerodden" />
		<tag k="natural" v="cape" />
		<tag k="ssr:stedsnr" v="742928" />
	</node>
	<node id="-623867" lat="65.2327472189" lon="12.3386722146">
		<tag k="name" v="Netakroken" />
		<tag k="natural" v="cape" />
		<tag k="ssr:stedsnr" v="54867" />
	</node>
	<node id="-623863" lat="65.0827138845" lon="11.9738944509">
		<tag k="name" v="Kjærstadstraumen" />
		<tag k="natural" v="strait" />
		<tag k="ssr:stedsnr" v="54548" />
	</node>
	<node id="-623859" lat="65.2052527787" lon="12.755219434">
		<tag k="name" v="Storrapvika" />
		<tag k="natural" v="bay" />
		<tag k="ssr:stedsnr" v="54303" />
	</node>
	<node id="-623856" lat="65.2327999969" lon="12.4253861007">
		<tag k="name" v="Lessvika" />
		<tag k="natural" v="bay" />
		<tag k="ssr:stedsnr" v="54047" />
	</node>
	<node id="-625902" lat="65.1052777746" lon="12.4954249919">
		<tag k="name" v="Gjosvika" />
		<tag k="natural" v="bay" />
		<tag k="ssr:stedsnr" v="742365" />
	</node>
	<node id="-623852" lat="65.2220527734" lon="12.4436888952">
		<tag k="name" v="Hestvika" />
		<tag k="natural" v="bay" />
		<tag k="ssr:stedsnr" v="54052" />
	</node>
	<node id="-623847" lat="65.127688886" lon="12.0560277858">
		<tag k="bay" v="fjord" />
		<tag k="name" v="Kjella" />
		<tag k="natural" v="bay" />
		<tag k="ssr:stedsnr" v="15992" />
	</node>
	<node id="-625894" lat="65.1166444469" lon="12.0936250035">
		<tag k="name" v="Lysfjordvika" />
		<tag k="natural" v="bay" />
		<tag k="ssr:stedsnr" v="742010" />
	</node>
	<node id="-623845" lat="65.2555222249" lon="11.5930777743">
		<tag k="name" v="Hundtaren" />
		<tag k="natural" v="shoal" />
		<tag k="place" v="locality" />
		<tag k="ssr:stedsnr" v="15896" />
	</node>
	<node id="-623842" lat="65.2785000041" lon="11.6115499938">
		<tag k="name" v="Sandholmen" />
		<tag k="place" v="islet" />
		<tag k="ssr:stedsnr" v="15924" />
	</node>
	<node id="-623841" lat="65.2536277737" lon="11.4729666665">
		<tag k="name" v="Larvan" />
		<tag k="natural" v="shoal" />
		<tag k="place" v="locality" />
		<tag k="ssr:stedsnr" v="15909" />
	</node>
	<node id="-623836" lat="65.2612583365" lon="12.3501638968">
		<tag k="name" v="Sæterodden" />
		<tag k="natural" v="cape" />
		<tag k="ssr:stedsnr" v="15718" />
	</node>
	<node id="-623833" lat="65.0659027793" lon="12.295652771">
		<tag k="name" v="Nordodden" />
		<tag k="natural" v="cape" />
		<tag k="ssr:stedsnr" v="15493" />
	</node>
	<node id="-625880" lat="65.2391472264" lon="12.3321472151">
		<tag k="name" v="Hovøyvika" />
		<tag k="natural" v="bay" />
		<tag k="ssr:stedsnr" v="724882" />
	</node>
	<node id="-625877" lat="65.2535805585" lon="12.2981666734">
		<tag k="name" v="Kobbneset" />
		<tag k="natural" v="cape" />
		<tag k="ssr:stedsnr" v="724872" />
	</node>
	<node id="-625876" lat="65.0879166707" lon="12.0666083431">
		<tag k="name" v="Teårsvika" />
		<tag k="natural" v="bay" />
		<tag k="ssr:stedsnr" v="724870" />
	</node>
	<node id="-623822" lat="65.1134749975" lon="12.2478888812">
		<tag k="name" v="Vikestadvågen" />
		<tag k="natural" v="bay" />
		<tag k="ssr:stedsnr" v="15389" />
	</node>
	<node id="-625874" lat="65.2368055523" lon="12.3094249922">
		<tag k="name" v="Klubbsundet" />
		<tag k="natural" v="strait" />
		<tag k="ssr:stedsnr" v="724864" />
	</node>
	<node id="-625873" lat="65.2046416691" lon="12.3112611033">
		<tag k="name" v="Kvalvika" />
		<tag k="natural" v="bay" />
		<tag k="ssr:stedsnr" v="724860" />
	</node>
	<node id="-625871" lat="65.0980833291" lon="12.0059277687">
		<tag k="name" v="Petterberget" />
		<tag k="natural" v="cape" />
		<tag k="ssr:stedsnr" v="724834" />
	</node>
	<node id="-625870" lat="65.1654638932" lon="12.015088895">
		<tag k="name" v="Skogvika" />
		<tag k="natural" v="bay" />
		<tag k="ssr:stedsnr" v="724802" />
	</node>
	<node id="-623818" lat="65.1477638869" lon="12.6102333267">
		<tag k="alt_name" v="Matkrokodden" />
		<tag k="name" v="Matkroken" />
		<tag k="natural" v="cape" />
		<tag k="ssr:stedsnr" v="15358" />
	</node>
	<node id="-623479" lat="65.180963886" lon="12.1160277723">
		<tag k="alt_name" v="Lessvik" />
		<tag k="name" v="Litlevik" />
		<tag k="natural" v="bay" />
		<tag k="ssr:stedsnr" v="338357" />
	</node>
	<node id="-623811" lat="65.1856555592" lon="12.4459499956">
		<tag k="name" v="Elvaodden" />
		<tag k="natural" v="cape" />
		<tag k="ssr:stedsnr" v="15328" />
	</node>
	<node id="-623810" lat="65.1701750015" lon="12.2830222246">
		<tag k="alt_name" v="Tennskjeret" />
		<tag k="fixme" v="consider seamark:type=rock or natural=shoal" />
		<tag k="name" v="Tennskjæret" />
		<tag k="place" v="islet" />
		<tag k="ssr:stedsnr" v="15324" />
	</node>
	<node id="-625855" lat="65.126697221" lon="12.1540694422">
		<tag k="name" v="Møllevikskjæret" />
		<tag k="place" v="islet" />
		<tag k="ssr:stedsnr" v="724575" />
	</node>
	<node id="-623803" lat="65.1920694483" lon="12.3668527785">
		<tag k="name" v="Hellvika" />
		<tag k="natural" v="bay" />
		<tag k="ssr:stedsnr" v="15275" />
	</node>
	<node id="-624576" lat="65.1169861073" lon="12.3798416609">
		<tag k="name" v="Munken" />
		<tag k="place" v="islet" />
		<tag k="ssr:stedsnr" v="239401" />
	</node>
	<node id="-623798" lat="65.2333750014" lon="12.423449995">
		<tag k="alt_name" v="Heismarkvika" />
		<tag k="name" v="Hesimarkvika" />
		<tag k="natural" v="bay" />
		<tag k="ssr:stedsnr" v="15243" />
	</node>
	<node id="-625842" lat="65.1345138849" lon="12.356211114">
		<tag k="name" v="Hamarn" />
		<tag k="natural" v="cape" />
		<tag k="ssr:stedsnr" v="724416" />
	</node>
	<node id="-625841" lat="65.2067694413" lon="12.4578750035">
		<tag k="name" v="Kalvstranda" />
		<tag k="natural" v="beach" />
		<tag k="place" v="locality" />
		<tag k="ssr:stedsnr" v="724408" />
	</node>
	<node id="-625840" lat="65.2085361135" lon="12.4185944361">
		<tag k="fixme" v="consider seamark:type=rock or natural=shoal" />
		<tag k="name" v="Galten" />
		<tag k="place" v="islet" />
		<tag k="ssr:stedsnr" v="724404" />
	</node>
	<node id="-623791" lat="65.2696694432" lon="12.5435694379">
		<tag k="name" v="Fjellbukta" />
		<tag k="natural" v="bay" />
		<tag k="ssr:stedsnr" v="15158" />
	</node>
	<node id="-623787" lat="65.1193583288" lon="12.0096138954">
		<tag k="name" v="Haugaodden" />
		<tag k="natural" v="cape" />
		<tag k="ssr:stedsnr" v="14957" />
	</node>
	<node id="-625834" lat="65.1995500012" lon="12.4726055641">
		<tag k="name" v="Lonet" />
		<tag k="natural" v="bay" />
		<tag k="ssr:stedsnr" v="724377" />
	</node>
	<node id="-625833" lat="65.1995444424" lon="12.4969333366">
		<tag k="name" v="Andersbotnet" />
		<tag k="natural" v="bay" />
		<tag k="ssr:stedsnr" v="724367" />
	</node>
	<node id="-623783" lat="65.1655305557" lon="12.1164305462">
		<tag k="name" v="Tyttebærneset" />
		<tag k="natural" v="cape" />
		<tag k="ssr:stedsnr" v="14867" />
	</node>
	<node id="-625827" lat="65.1368888914" lon="12.4705583297">
		<tag k="name" v="Sylbergodden" />
		<tag k="natural" v="cape" />
		<tag k="ssr:stedsnr" v="724278" />
	</node>
	<node id="-623778" lat="65.221394445" lon="11.5812222243">
		<tag k="name" v="Innerljostarefallet" />
		<tag k="natural" v="shoal" />
		<tag k="place" v="locality" />
		<tag k="ssr:stedsnr" v="14574" />
	</node>
	<node id="-625825" lat="65.1137250019" lon="12.4081944404">
		<tag k="name" v="Engesvik" />
		<tag k="natural" v="bay" />
		<tag k="ssr:stedsnr" v="724263" />
	</node>
	<node id="-623825" lat="65.1305499971" lon="12.3173249964">
		<tag k="fixme" v="multiple name tags, choose one and add the other to alt_name" />
		<tag k="name" v="Spjotnesodden;Spjøtneset" />
		<tag k="natural" v="cape" />
		<tag k="ssr:stedsnr" v="15410" />
	</node>
	<node id="-625818" lat="65.1752333378" lon="12.3508916584">
		<tag k="name" v="Merkeodden" />
		<tag k="natural" v="cape" />
		<tag k="ssr:stedsnr" v="724048" />
	</node>
	<node id="-625815" lat="65.1891499969" lon="12.3770805542">
		<tag k="name" v="Melkarvika" />
		<tag k="natural" v="bay" />
		<tag k="ssr:stedsnr" v="724036" />
	</node>
	<node id="-623764" lat="65.0947138928" lon="12.4200194403">
		<tag k="name" v="Baulibukta" />
		<tag k="natural" v="bay" />
		<tag k="ssr:stedsnr" v="14344" />
	</node>
	<node id="-625800" lat="65.0435555585" lon="12.1503888818">
		<tag k="name" v="Sagholmen" />
		<tag k="natural" v="cape" />
		<tag k="ssr:stedsnr" v="723932" />
	</node>
	<node id="-623751" lat="65.1762186921" lon="12.1101860902">
		<tag k="fixme" v="consider seamark:type=rock or natural=shoal" />
		<tag k="name" v="Skjæran" />
		<tag k="place" v="islet" />
		<tag k="ssr:stedsnr" v="989194" />
	</node>
	<node id="-625795" lat="65.1208388874" lon="12.516369442">
		<tag k="fixme" v="consider seamark:type=rock or natural=shoal" />
		<tag k="name" v="Storskjeret" />
		<tag k="place" v="islet" />
		<tag k="ssr:stedsnr" v="723345" />
	</node>
	<node id="-623467" lat="65.3001499986" lon="11.564802779">
		<tag k="name" v="Stabban" />
		<tag k="natural" v="shoal" />
		<tag k="place" v="locality" />
		<tag k="ssr:stedsnr" v="318931" />
	</node>
	<node id="-623807" lat="65.1594499961" lon="12.351027785">
		<tag k="name" v="Kråka" />
		<tag k="natural" v="cape" />
		<tag k="ssr:stedsnr" v="15314" />
	</node>
	<node id="-623736" lat="65.0560666655" lon="12.0998972307">
		<tag k="name" v="Lessvassbogen" />
		<tag k="natural" v="bay" />
		<tag k="ssr:stedsnr" v="479039" />
	</node>
	<node id="-623732" lat="65.0928611119" lon="11.9967194398">
		<tag k="name" v="Jordfallan" />
		<tag k="natural" v="shoal" />
		<tag k="place" v="locality" />
		<tag k="ssr:stedsnr" v="478528" />
	</node>
	<node id="-625779" lat="65.0902083354" lon="12.4168916568">
		<tag k="name" v="Åa" />
		<tag k="natural" v="strait" />
		<tag k="ssr:stedsnr" v="722767" />
	</node>
	<node id="-625769" lat="65.1340444418" lon="12.2614999943">
		<tag k="fixme" v="consider seamark:type=rock or natural=shoal" />
		<tag k="name" v="Storskjeret" />
		<tag k="place" v="islet" />
		<tag k="ssr:stedsnr" v="722563" />
	</node>
	<node id="-623823" lat="65.1177249983" lon="12.2498805586">
		<tag k="name" v="Holmodden" />
		<tag k="natural" v="cape" />
		<tag k="ssr:stedsnr" v="15391" />
	</node>
	<node id="-623714" lat="65.254325001" lon="11.6995305469">
		<tag k="name" v="Gimsa" />
		<tag k="place" v="island" />
		<tag k="ssr:stedsnr" v="379862" />
	</node>
	<node id="-625759" lat="65.181038893" lon="12.3749916579">
		<tag k="name" v="Kråkvikran" />
		<tag k="natural" v="bay" />
		<tag k="ssr:stedsnr" v="722046" />
	</node>
	<node id="-623710" lat="65.0686500027" lon="12.4960444464">
		<tag k="alt_name" v="Sylten Hestvik" />
		<tag k="name" v="Hestvika" />
		<tag k="natural" v="bay" />
		<tag k="ssr:stedsnr" v="379432" />
	</node>
	<node id="-625756" lat="65.1143055591" lon="11.996136109">
		<tag k="name" v="Båtneset" />
		<tag k="natural" v="cape" />
		<tag k="ssr:stedsnr" v="722836" />
	</node>
	<node id="-625751" lat="65.2584249959" lon="12.4178250048">
		<tag k="name" v="Solvika" />
		<tag k="natural" v="bay" />
		<tag k="ssr:stedsnr" v="683155" />
	</node>
	<node id="-625750" lat="65.1297305592" lon="12.0809000057">
		<tag k="name" v="Heggvika" />
		<tag k="natural" v="bay" />
		<tag k="ssr:stedsnr" v="682974" />
	</node>
	<node id="-625748" lat="65.1915638906" lon="11.9246527835">
		<tag k="name" v="Storskolten" />
		<tag k="natural" v="shoal" />
		<tag k="place" v="locality" />
		<tag k="ssr:stedsnr" v="682943" />
	</node>
	<node id="-625747" lat="65.1922444466" lon="12.1493361058">
		<tag k="name" v="Solstadvika" />
		<tag k="natural" v="bay" />
		<tag k="ssr:stedsnr" v="682935" />
	</node>
	<node id="-625745" lat="65.2547833355" lon="11.7092999976">
		<tag k="fixme" v="consider seamark:type=rock or natural=shoal" />
		<tag k="name" v="Langskjeran" />
		<tag k="place" v="islet" />
		<tag k="ssr:stedsnr" v="682929" />
	</node>
	<node id="-625744" lat="65.257880554" lon="11.7047305506">
		<tag k="name" v="Toppholmen" />
		<tag k="place" v="islet" />
		<tag k="ssr:stedsnr" v="682927" />
	</node>
	<node id="-625743" lat="65.1748416676" lon="12.1148555491">
		<tag k="name" v="Fantvika" />
		<tag k="natural" v="bay" />
		<tag k="ssr:stedsnr" v="682924" />
	</node>
	<node id="-625742" lat="65.1647499979" lon="12.1151638905">
		<tag k="name" v="Langmarkvika" />
		<tag k="natural" v="bay" />
		<tag k="ssr:stedsnr" v="682921" />
	</node>
	<node id="-623692" lat="65.2530222248" lon="12.3777916578">
		<tag k="name" v="Storholmen" />
		<tag k="place" v="islet" />
		<tag k="ssr:stedsnr" v="379171" />
	</node>
	<node id="-623691" lat="65.2517527771" lon="12.41821112">
		<tag k="fixme" v="consider seamark:type=rock or natural=shoal" />
		<tag k="name" v="Jamtvikskjæran" />
		<tag k="place" v="islet" />
		<tag k="ssr:stedsnr" v="379165" />
	</node>
	<node id="-623689" lat="65.2498527822" lon="12.3618305592">
		<tag k="alt_name" v="Løftingsodden" />
		<tag k="name" v="Lyftingsodden" />
		<tag k="natural" v="cape" />
		<tag k="ssr:stedsnr" v="379154" />
	</node>
	<node id="-625736" lat="65.266463893" lon="12.4264333284">
		<tag k="name" v="Hestneset" />
		<tag k="natural" v="cape" />
		<tag k="ssr:stedsnr" v="682737" />
	</node>
	<node id="-625671" lat="65.0965499973" lon="12.0199666586">
		<tag k="alt_name" v="Refsnesodden;Revsnesodden" />
		<tag k="name" v="Refsnes" />
		<tag k="natural" v="cape" />
		<tag k="ssr:stedsnr" v="682048" />
	</node>
	<node id="-623683" lat="65.1113166704" lon="11.989822219">
		<tag k="name" v="Båtneset" />
		<tag k="natural" v="cape" />
		<tag k="ssr:stedsnr" v="378953" />
	</node>
	<node id="-623681" lat="65.2006583306" lon="11.9571250069">
		<tag k="name" v="Gimlinga" />
		<tag k="place" v="island" />
		<tag k="ssr:stedsnr" v="378942" />
	</node>
	<node id="-623677" lat="65.1944916689" lon="11.8899138992">
		<tag k="fixme" v="consider seamark:type=rock or natural=shoal" />
		<tag k="name" v="Langskjeret" />
		<tag k="place" v="islet" />
		<tag k="ssr:stedsnr" v="378938" />
	</node>
	<node id="-623676" lat="65.1838138925" lon="12.1135361192">
		<tag k="name" v="Holmen" />
		<tag k="natural" v="cape" />
		<tag k="ssr:stedsnr" v="378929" />
	</node>
	<node id="-623675" lat="65.2829250024" lon="11.5641777883">
		<tag k="name" v="Svartskjerbåen" />
		<tag k="natural" v="shoal" />
		<tag k="place" v="locality" />
		<tag k="ssr:stedsnr" v="378927" />
	</node>
	<node id="-623674" lat="65.1983250034" lon="11.9768249929">
		<tag k="name" v="Gimlingholman" />
		<tag k="place" v="islet" />
		<tag k="ssr:stedsnr" v="378920" />
	</node>
	<node id="-625717" lat="65.0907493992" lon="12.3289649156">
		<tag k="name" v="Hjartøya" />
		<tag k="place" v="island" />
		<tag k="ssr:stedsnr" v="682474" />
	</node>
	<node id="-623667" lat="65.1840305522" lon="12.3648722245">
		<tag k="alt_name" v="Sætervika" />
		<tag k="name" v="Setervika" />
		<tag k="natural" v="bay" />
		<tag k="ssr:stedsnr" v="378806" />
	</node>
	<node id="-625713" lat="65.1184638887" lon="12.3460749987">
		<tag k="bay" v="fjord" />
		<tag k="name" v="Terråkfjorden" />
		<tag k="natural" v="bay" />
		<tag k="ssr:stedsnr" v="682418" />
	</node>
	<node id="-623794" lat="65.2954305542" lon="12.4230694415">
		<tag k="name" v="Skardbukta" />
		<tag k="natural" v="bay" />
		<tag k="ssr:stedsnr" v="15193" />
	</node>
	<node id="-625705" lat="65.1644750029" lon="12.5733249962">
		<tag k="name" v="Mjølbingneset" />
		<tag k="natural" v="cape" />
		<tag k="ssr:stedsnr" v="682375" />
	</node>
	<node id="-625703" lat="65.1600861151" lon="12.6500138808">
		<tag k="name" v="Greisneset" />
		<tag k="natural" v="cape" />
		<tag k="ssr:stedsnr" v="682372" />
	</node>
	<node id="-623793" lat="65.2550166642" lon="12.6354333383">
		<tag k="name" v="Hestøya" />
		<tag k="place" v="islet" />
		<tag k="ssr:stedsnr" v="15180" />
	</node>
	<node id="-623649" lat="65.0579416668" lon="12.2243166694">
		<tag k="name" v="Barkvik" />
		<tag k="natural" v="bay" />
		<tag k="ssr:stedsnr" v="378487" />
	</node>
	<node id="-623792" lat="65.2516222216" lon="12.5676416653">
		<tag k="name" v="Langdalsstranda" />
		<tag k="natural" v="beach" />
		<tag k="place" v="locality" />
		<tag k="ssr:stedsnr" v="15164" />
	</node>
	<node id="-625694" lat="65.2118444416" lon="12.2304277723">
		<tag k="name" v="Skauvikneset" />
		<tag k="natural" v="cape" />
		<tag k="ssr:stedsnr" v="682267" />
	</node>
	<node id="-623644" lat="65.085066664" lon="12.3644694337">
		<tag k="name" v="Terråkvika" />
		<tag k="natural" v="bay" />
		<tag k="ssr:stedsnr" v="378440" />
	</node>
	<node id="-625691" lat="65.2235555523" lon="12.436544434">
		<tag k="alt_name" v="Barfluodden" />
		<tag k="name" v="Bardfluodden" />
		<tag k="natural" v="cape" />
		<tag k="ssr:stedsnr" v="682263" />
	</node>
	<node id="-623634" lat="65.1659777744" lon="12.2741416597">
		<tag k="name" v="Åkvika" />
		<tag k="natural" v="bay" />
		<tag k="ssr:stedsnr" v="378293" />
	</node>
	<node id="-625681" lat="65.2553055561" lon="12.5845416646">
		<tag k="name" v="Hattvika" />
		<tag k="natural" v="bay" />
		<tag k="ssr:stedsnr" v="682185" />
	</node>
	<node id="-623629" lat="65.1888027776" lon="12.3814500039">
		<tag k="fixme" v="multiple name tags, choose one and add the other to alt_name" />
		<tag k="name" v="Byggøyodden;Sørodden" />
		<tag k="natural" v="cape" />
		<tag k="ssr:stedsnr" v="378246" />
	</node>
	<node id="-623628" lat="65.2051055577" lon="12.3333388876">
		<tag k="name" v="Stavøyholmen" />
		<tag k="place" v="islet" />
		<tag k="ssr:stedsnr" v="378240" />
	</node>
	<node id="-623627" lat="65.2096972257" lon="12.3195055559">
		<tag k="name" v="Stavøya" />
		<tag k="place" v="island" />
		<tag k="ssr:stedsnr" v="378236" />
	</node>
	<node id="-625674" lat="65.071916671" lon="11.9423027888">
		<tag k="name" v="Bogen" />
		<tag k="natural" v="bay" />
		<tag k="ssr:stedsnr" v="682079" />
	</node>
	<node id="-624471" lat="65.3159472178" lon="11.4799083409">
		<tag k="name" v="Langtaran" />
		<tag k="natural" v="shoal" />
		<tag k="place" v="locality" />
		<tag k="ssr:stedsnr" v="197942" />
	</node>
	<node id="-623623" lat="65.2346194422" lon="12.3506499977">
		<tag k="alt_name" v="Sør Skavvika" />
		<tag k="name" v="Skavika" />
		<tag k="natural" v="bay" />
		<tag k="ssr:stedsnr" v="378218" />
	</node>
	<node id="-623620" lat="65.2391944423" lon="12.2599249982">
		<tag k="alt_name" v="Ospvika" />
		<tag k="name" v="Aspvika" />
		<tag k="natural" v="bay" />
		<tag k="ssr:stedsnr" v="378191" />
	</node>
	<node id="-625667" lat="65.0833527808" lon="12.0616055627">
		<tag k="alt_name" v="Kvitholmen" />
		<tag k="name" v="Kvitfjellholmen" />
		<tag k="place" v="islet" />
		<tag k="ssr:stedsnr" v="681075" />
	</node>
	<node id="-623618" lat="65.0215333373" lon="12.1916805542">
		<tag k="name" v="Fornesbukta" />
		<tag k="natural" v="bay" />
		<tag k="ssr:stedsnr" v="378161" />
	</node>
	<node id="-625665" lat="65.1628166642" lon="12.3027166757">
		<tag k="alt_name" v="Sakskjeret" />
		<tag k="fixme" v="consider seamark:type=rock or natural=shoal" />
		<tag k="name" v="Saksskjeret" />
		<tag k="place" v="islet" />
		<tag k="ssr:stedsnr" v="682313" />
	</node>
	<node id="-625662" lat="65.045027774" lon="12.1697611042">
		<tag k="name" v="Lessvalen" />
		<tag k="natural" v="bay" />
		<tag k="ssr:stedsnr" v="663957" />
	</node>
	<node id="-625661" lat="65.0439277776" lon="12.155025003">
		<tag k="name" v="Roparengvika" />
		<tag k="natural" v="bay" />
		<tag k="ssr:stedsnr" v="663952" />
	</node>
	<node id="-625659" lat="65.0557361137" lon="12.169444453">
		<tag k="name" v="Refshalsen" />
		<tag k="natural" v="cape" />
		<tag k="ssr:stedsnr" v="663911" />
	</node>
	<node id="-625658" lat="65.0251499989" lon="12.1917833291">
		<tag k="name" v="Kobbskjærodden" />
		<tag k="natural" v="cape" />
		<tag k="ssr:stedsnr" v="663886" />
	</node>
	<node id="-623609" lat="65.1024888865" lon="12.4288833387">
		<tag k="name" v="Hestvika" />
		<tag k="natural" v="bay" />
		<tag k="ssr:stedsnr" v="177719" />
	</node>
	<node id="-623922" lat="65.0481027816" lon="12.1581277852">
		<tag k="fixme" v="consider seamark:type=rock or natural=shoal" />
		<tag k="name" v="Kumpelistå" />
		<tag k="place" v="islet" />
		<tag k="ssr:stedsnr" v="56927" />
	</node>
	<node id="-625654" lat="65.2556944485" lon="12.2974305474">
		<tag k="name" v="Nesaøyra" />
		<tag k="natural" v="cape" />
		<tag k="ssr:stedsnr" v="663870" />
	</node>
	<node id="-625652" lat="65.2518833299" lon="12.3020138874">
		<tag k="name" v="Gardseidet" />
		<tag k="place" v="locality" />
		<tag k="ssr:stedsnr" v="663866" />
	</node>
	<node id="-625651" lat="65.2414416682" lon="12.2917444472">
		<tag k="name" v="Ytre Storvikodden" />
		<tag k="natural" v="cape" />
		<tag k="ssr:stedsnr" v="663863" />
	</node>
	<node id="-625650" lat="65.2348916691" lon="12.3060472124">
		<tag k="name" v="Lessholmen" />
		<tag k="place" v="islet" />
		<tag k="ssr:stedsnr" v="663862" />
	</node>
	<node id="-625648" lat="65.136966667" lon="12.468447216">
		<tag k="name" v="Reppavika" />
		<tag k="natural" v="bay" />
		<tag k="ssr:stedsnr" v="663824" />
	</node>
	<node id="-625647" lat="65.1571611129" lon="12.1194916731">
		<tag k="name" v="Laksskjæret" />
		<tag k="natural" v="cape" />
		<tag k="ssr:stedsnr" v="663798" />
	</node>
	<node id="-623596" lat="65.2535777817" lon="12.3032833253">
		<tag k="name" v="Mellomeidet" />
		<tag k="place" v="locality" />
		<tag k="ssr:stedsnr" v="360853" />
	</node>
	<node id="-623595" lat="65.2406361106" lon="12.3230277676">
		<tag k="name" v="Kalvvika" />
		<tag k="natural" v="bay" />
		<tag k="ssr:stedsnr" v="360852" />
	</node>
	<node id="-625642" lat="65.1939499968" lon="12.1497166697">
		<tag k="name" v="Klakken" />
		<tag k="natural" v="shoal" />
		<tag k="place" v="locality" />
		<tag k="ssr:stedsnr" v="663714" />
	</node>
	<node id="-623593" lat="65.0945333341" lon="12.0082611211">
		<tag k="name" v="Juvik" />
		<tag k="natural" v="bay" />
		<tag k="ssr:stedsnr" v="360816" />
	</node>
	<node id="-625638" lat="65.1081972239" lon="12.479944445">
		<tag k="name" v="Skjellingsstranda" />
		<tag k="natural" v="beach" />
		<tag k="place" v="locality" />
		<tag k="ssr:stedsnr" v="663682" />
	</node>
	<node id="-623588" lat="65.1221000018" lon="12.1483333408">
		<tag k="name" v="Vikan" />
		<tag k="natural" v="bay" />
		<tag k="ssr:stedsnr" v="360576" />
	</node>
	<node id="-623583" lat="65.1115500033" lon="12.2357666678">
		<tag k="name" v="Livnesleira" />
		<tag k="natural" v="bay" />
		<tag k="ssr:stedsnr" v="360550" />
	</node>
	<node id="-623574" lat="65.1084694475" lon="11.9716499952">
		<tag k="name" v="Straummarka" />
		<tag k="natural" v="beach" />
		<tag k="place" v="locality" />
		<tag k="ssr:stedsnr" v="360458" />
	</node>
	<node id="-623569" lat="65.0864666624" lon="12.3203416731">
		<tag k="name" v="Klubbvikodden" />
		<tag k="natural" v="cape" />
		<tag k="ssr:stedsnr" v="360369" />
	</node>
	<node id="-623563" lat="65.0835472243" lon="12.3455972158">
		<tag k="fixme" v="consider seamark:type=rock or natural=shoal" />
		<tag k="name" v="Stokkvikskjeret" />
		<tag k="place" v="islet" />
		<tag k="ssr:stedsnr" v="360260" />
	</node>
	<node id="-623559" lat="65.1826250042" lon="12.331119453">
		<tag k="name" v="Lauvvika" />
		<tag k="natural" v="bay" />
		<tag k="ssr:stedsnr" v="360044" />
	</node>
	<node id="-625606" lat="65.1087611106" lon="11.9777666649">
		<tag k="fixme" v="consider seamark:type=rock or natural=shoal" />
		<tag k="name" v="Straumskjæret" />
		<tag k="place" v="islet" />
		<tag k="ssr:stedsnr" v="663469" />
	</node>
	<node id="-625603" lat="65.0786944484" lon="12.2862666721">
		<tag k="fixme" v="consider seamark:type=rock or natural=shoal" />
		<tag k="name" v="Strandaskjæran" />
		<tag k="place" v="islet" />
		<tag k="ssr:stedsnr" v="663431" />
	</node>
	<node id="-623554" lat="65.0207166709" lon="12.1964333408">
		<tag k="name" v="Naustodden" />
		<tag k="natural" v="cape" />
		<tag k="ssr:stedsnr" v="359879" />
	</node>
	<node id="-625601" lat="65.1396527794" lon="12.270227769">
		<tag k="name" v="Langstranda" />
		<tag k="natural" v="beach" />
		<tag k="place" v="locality" />
		<tag k="ssr:stedsnr" v="663423" />
	</node>
	<node id="-623551" lat="65.1767638879" lon="12.6126166631">
		<tag k="fixme" v="consider seamark:type=rock or natural=shoal" />
		<tag k="name" v="Mehammerskjæret" />
		<tag k="place" v="islet" />
		<tag k="ssr:stedsnr" v="359719" />
	</node>
	<node id="-625598" lat="65.1191000021" lon="12.3746222163">
		<tag k="fixme" v="consider seamark:type=rock or natural=shoal" />
		<tag k="name" v="Bruraskjæret" />
		<tag k="place" v="islet" />
		<tag k="ssr:stedsnr" v="663406" />
	</node>
	<node id="-623549" lat="65.104616665" lon="12.4339500013">
		<tag k="fixme" v="consider seamark:type=rock or natural=shoal" />
		<tag k="name" v="Britdalsskjeret" />
		<tag k="place" v="islet" />
		<tag k="ssr:stedsnr" v="359704" />
	</node>
	<node id="-625596" lat="65.0980527798" lon="12.3306305548">
		<tag k="fixme" v="consider seamark:type=rock or natural=shoal" />
		<tag k="name" v="Aunskjæret" />
		<tag k="place" v="islet" />
		<tag k="ssr:stedsnr" v="663389" />
	</node>
	<node id="-623546" lat="65.1067499984" lon="12.4761555475">
		<tag k="name" v="Sørendan" />
		<tag k="natural" v="cape" />
		<tag k="ssr:stedsnr" v="359692" />
	</node>
	<node id="-623544" lat="65.107302775" lon="12.4824388844">
		<tag k="name" v="Tiveodden" />
		<tag k="natural" v="cape" />
		<tag k="ssr:stedsnr" v="359688" />
	</node>
	<node id="-625591" lat="65.1408138884" lon="12.5181416749">
		<tag k="name" v="Bjønnåneset" />
		<tag k="natural" v="cape" />
		<tag k="ssr:stedsnr" v="663284" />
	</node>
	<node id="-625590" lat="65.1186027779" lon="12.4263361028">
		<tag k="name" v="Sjøvik" />
		<tag k="natural" v="bay" />
		<tag k="ssr:stedsnr" v="663276" />
	</node>
	<node id="-625589" lat="65.2491499991" lon="12.4320833421">
		<tag k="name" v="Heimerodden" />
		<tag k="natural" v="cape" />
		<tag k="ssr:stedsnr" v="663224" />
	</node>
	<node id="-623536" lat="65.1955111082" lon="12.468619437">
		<tag k="name" v="Mellomholmen" />
		<tag k="place" v="islet" />
		<tag k="ssr:stedsnr" v="359400" />
	</node>
	<node id="-625582" lat="65.2157861151" lon="12.4239750022">
		<tag k="fixme" v="consider seamark:type=rock or natural=shoal" />
		<tag k="name" v="Møllebogskjæret" />
		<tag k="place" v="islet" />
		<tag k="ssr:stedsnr" v="663104" />
	</node>
	<node id="-625581" lat="65.140986114" lon="12.3416166709">
		<tag k="fixme" v="consider seamark:type=rock or natural=shoal" />
		<tag k="name" v="Sandvikskjæret" />
		<tag k="place" v="islet" />
		<tag k="ssr:stedsnr" v="663081" />
	</node>
	<node id="-625580" lat="65.2189750002" lon="12.779574993">
		<tag k="name" v="Mellomnesodden" />
		<tag k="natural" v="cape" />
		<tag k="ssr:stedsnr" v="663069" />
	</node>
	<node id="-623530" lat="65.2663833326" lon="12.4341611172">
		<tag k="name" v="Østerlibukta" />
		<tag k="natural" v="bay" />
		<tag k="ssr:stedsnr" v="359195" />
	</node>
	<node id="-625577" lat="65.1741722187" lon="12.2736194534">
		<tag k="fixme" v="consider seamark:type=rock or natural=shoal" />
		<tag k="name" v="Petter-Håksåskjæret" />
		<tag k="place" v="islet" />
		<tag k="ssr:stedsnr" v="663054" />
	</node>
	<node id="-625576" lat="65.1710027757" lon="12.2732000028">
		<tag k="name" v="Steinodden" />
		<tag k="natural" v="cape" />
		<tag k="ssr:stedsnr" v="663052" />
	</node>
	<node id="-625572" lat="65.0793027742" lon="12.0674916698">
		<tag k="name" v="Kjellosen" />
		<tag k="natural" v="bay" />
		<tag k="ssr:stedsnr" v="661854" />
	</node>
	<node id="-623523" lat="65.2029611145" lon="12.6948499965">
		<tag k="name" v="Søberglisjøen" />
		<tag k="natural" v="bay" />
		<tag k="ssr:stedsnr" v="359021" />
	</node>
	<node id="-625569" lat="65.1099500034" lon="11.996997224">
		<tag k="name" v="Halsastraumen" />
		<tag k="natural" v="strait" />
		<tag k="ssr:stedsnr" v="661810" />
	</node>
	<node id="-623519" lat="65.1141055518" lon="12.001533332">
		<tag k="name" v="Innerstrandstraumen" />
		<tag k="natural" v="strait" />
		<tag k="ssr:stedsnr" v="358813" />
	</node>
	<node id="-623518" lat="65.1147444431" lon="11.991880547">
		<tag k="name" v="Aukbukta" />
		<tag k="natural" v="bay" />
		<tag k="ssr:stedsnr" v="358811" />
	</node>
	<node id="-623500" lat="65.0499666696" lon="12.1182944514">
		<tag k="name" v="Langnesvika" />
		<tag k="natural" v="bay" />
		<tag k="ssr:stedsnr" v="358059" />
	</node>
	<node id="-623496" lat="65.2585361133" lon="12.3732583302">
		<tag k="name" v="Geitholmbukta" />
		<tag k="natural" v="bay" />
		<tag k="ssr:stedsnr" v="357731" />
	</node>
	<node id="-625541" lat="65.2805027821" lon="11.480144442">
		<tag k="name" v="Vegtaren" />
		<tag k="natural" v="shoal" />
		<tag k="place" v="locality" />
		<tag k="ssr:stedsnr" v="634868" />
	</node>
	<node id="-625540" lat="65.281149998" lon="11.5426750074">
		<tag k="name" v="Skreibåan" />
		<tag k="natural" v="shoal" />
		<tag k="place" v="locality" />
		<tag k="ssr:stedsnr" v="634081" />
	</node>
	<node id="-625537" lat="65.2576638862" lon="12.3698555625">
		<tag k="name" v="Geitholmen" />
		<tag k="place" v="islet" />
		<tag k="ssr:stedsnr" v="622173" />
	</node>
	<node id="-625534" lat="65.1308499969" lon="12.0806861008">
		<tag k="name" v="Heggvikodden" />
		<tag k="natural" v="cape" />
		<tag k="ssr:stedsnr" v="621974" />
	</node>
	<node id="-625533" lat="65.1245500034" lon="12.0974638942">
		<tag k="bay" v="fjord" />
		<tag k="name" v="Lysfjorden" />
		<tag k="natural" v="bay" />
		<tag k="ssr:stedsnr" v="621972" />
	</node>
	<node id="-625532" lat="65.1203083364" lon="12.115669451">
		<tag k="name" v="Heilsholman" />
		<tag k="place" v="islet" />
		<tag k="ssr:stedsnr" v="621966" />
	</node>
	<node id="-625531" lat="65.1176611128" lon="12.0098305599">
		<tag k="fixme" v="consider seamark:type=rock or natural=shoal" />
		<tag k="name" v="Kristenskjeret" />
		<tag k="place" v="islet" />
		<tag k="ssr:stedsnr" v="621962" />
	</node>
	<node id="-623423" lat="65.2002388926" lon="12.3513777759">
		<tag k="name" v="Jektvikodden" />
		<tag k="natural" v="cape" />
		<tag k="ssr:stedsnr" v="318267" />
	</node>
	<node id="-625812" lat="65.0550250028" lon="12.1590222248">
		<tag k="name" v="Åkervikodden" />
		<tag k="natural" v="cape" />
		<tag k="ssr:stedsnr" v="723887" />
	</node>
	<node id="-625526" lat="65.2933527775" lon="11.5532222177">
		<tag k="name" v="Uttorgtaren" />
		<tag k="natural" v="shoal" />
		<tag k="place" v="locality" />
		<tag k="ssr:stedsnr" v="621927" />
	</node>
	<node id="-625525" lat="65.2652777776" lon="11.5218305455">
		<tag k="fixme" v="consider seamark:type=rock or natural=shoal" />
		<tag k="name" v="Langslua" />
		<tag k="place" v="islet" />
		<tag k="ssr:stedsnr" v="621925" />
	</node>
	<node id="-625523" lat="65.1979249978" lon="12.1582638952">
		<tag k="name" v="Hallvika" />
		<tag k="natural" v="bay" />
		<tag k="ssr:stedsnr" v="621921" />
	</node>
	<node id="-625522" lat="65.2716472256" lon="11.6162722263">
		<tag k="fixme" v="consider seamark:type=rock or natural=shoal" />
		<tag k="name" v="Nonskjeret" />
		<tag k="place" v="islet" />
		<tag k="ssr:stedsnr" v="621907" />
	</node>
	<node id="-625521" lat="65.2690666701" lon="11.6273555476">
		<tag k="name" v="Tosbyholmen" />
		<tag k="place" v="islet" />
		<tag k="ssr:stedsnr" v="621908" />
	</node>
	<node id="-625519" lat="65.1640833292" lon="12.116088893">
		<tag k="name" v="Hestneset" />
		<tag k="natural" v="cape" />
		<tag k="ssr:stedsnr" v="621901" />
	</node>
	<node id="-623470" lat="65.331752779" lon="11.4794638862">
		<tag k="name" v="Brotsluan" />
		<tag k="natural" v="shoal" />
		<tag k="place" v="locality" />
		<tag k="ssr:stedsnr" v="318944" />
	</node>
	<node id="-623469" lat="65.3177500034" lon="11.4392138981">
		<tag k="fixme" v="consider seamark:type=rock or natural=shoal" />
		<tag k="name" v="Kvigan" />
		<tag k="place" v="islet" />
		<tag k="ssr:stedsnr" v="318941" />
	</node>
	<node id="-623468" lat="65.315602774" lon="11.4482277677">
		<tag k="fixme" v="consider seamark:type=rock or natural=shoal" />
		<tag k="name" v="Oksskjeret" />
		<tag k="place" v="islet" />
		<tag k="ssr:stedsnr" v="318940" />
	</node>
	<node id="-625515" lat="65.1109111102" lon="12.4497111005">
		<tag k="name" v="Mulingsodden" />
		<tag k="natural" v="cape" />
		<tag k="ssr:stedsnr" v="621799" />
	</node>
	<node id="-623466" lat="65.2769138854" lon="11.5712055612">
		<tag k="fixme" v="consider seamark:type=rock or natural=shoal" />
		<tag k="name" v="Svartskjeret" />
		<tag k="place" v="islet" />
		<tag k="ssr:stedsnr" v="318928" />
	</node>
	<node id="-623465" lat="65.2830333344" lon="11.6146972266">
		<tag k="name" v="Skattkjeften" />
		<tag k="place" v="islet" />
		<tag k="ssr:stedsnr" v="318925" />
	</node>
	<node id="-623464" lat="65.29691389" lon="11.5268055478">
		<tag k="alt_name" v="Svartbarsluan" />
		<tag k="name" v="Svartbardsluan" />
		<tag k="natural" v="shoal" />
		<tag k="place" v="locality" />
		<tag k="ssr:stedsnr" v="318922" />
	</node>
	<node id="-623463" lat="65.1612250011" lon="11.9845111138">
		<tag k="name" v="Otervika" />
		<tag k="natural" v="bay" />
		<tag k="ssr:stedsnr" v="318912" />
	</node>
	<node id="-623462" lat="65.2645861083" lon="11.5325638965">
		<tag k="fixme" v="consider seamark:type=rock or natural=shoal" />
		<tag k="name" v="Skarvskjeret" />
		<tag k="place" v="islet" />
		<tag k="ssr:stedsnr" v="318910" />
	</node>
	<node id="-623461" lat="65.2756472203" lon="11.612613896">
		<tag k="fixme" v="consider seamark:type=rock or natural=shoal" />
		<tag k="name" v="Flatskjeret" />
		<tag k="place" v="islet" />
		<tag k="ssr:stedsnr" v="318909" />
	</node>
	<node id="-623456" lat="65.242486112" lon="12.2906666564">
		<tag k="name" v="Storvika" />
		<tag k="natural" v="bay" />
		<tag k="ssr:stedsnr" v="318791" />
	</node>
	<node id="-623455" lat="65.057383331" lon="12.1550888889">
		<tag k="alt_name" v="Lonet" />
		<tag k="name" v="Lone" />
		<tag k="natural" v="bay" />
		<tag k="ssr:stedsnr" v="318782" />
	</node>
	<node id="-623454" lat="65.0923333308" lon="12.0182305521">
		<tag k="name" v="Sandvika" />
		<tag k="natural" v="bay" />
		<tag k="old_name" v="Hollupvik" />
		<tag k="ssr:stedsnr" v="318780" />
	</node>
	<node id="-624087" lat="65.1285972178" lon="12.4182194437">
		<tag k="name" v="Finvikodden" />
		<tag k="natural" v="cape" />
		<tag k="ssr:stedsnr" v="117322" />
	</node>
	<node id="-623450" lat="65.2142444425" lon="12.7895111069">
		<tag k="name" v="Kollsvikbugen" />
		<tag k="natural" v="bay" />
		<tag k="ssr:stedsnr" v="318589" />
	</node>
	<node id="-623444" lat="65.076905554" lon="12.316791657">
		<tag k="name" v="Rotholmen" />
		<tag k="place" v="islet" />
		<tag k="ssr:stedsnr" v="318428" />
	</node>
	<node id="-623442" lat="65.1354361072" lon="12.5588500035">
		<tag k="alt_name" v="Urholmen" />
		<tag k="name" v="Urdholmen" />
		<tag k="place" v="islet" />
		<tag k="ssr:stedsnr" v="318365" />
	</node>
	<node id="-623439" lat="65.1143111097" lon="12.2410555497">
		<tag k="name" v="Kråkneset" />
		<tag k="natural" v="cape" />
		<tag k="ssr:stedsnr" v="318350" />
	</node>
	<node id="-623435" lat="65.1476638854" lon="12.5292972249">
		<tag k="alt_name" v="Jøtulbukta, yt" />
		<tag k="fixme" v="multiple name tags, choose one and add the other to alt_name" />
		<tag k="name" v="Jøtulbukta;Ytre Jøtulbukta" />
		<tag k="natural" v="bay" />
		<tag k="ssr:stedsnr" v="318332" />
	</node>
	<node id="-623434" lat="65.1494555513" lon="12.5410444512">
		<tag k="name" v="Jøtulneset" />
		<tag k="natural" v="cape" />
		<tag k="ssr:stedsnr" v="318331" />
	</node>
	<node id="-625481" lat="65.0886055545" lon="12.3287944515">
		<tag k="name" v="Klubbvika" />
		<tag k="natural" v="bay" />
		<tag k="ssr:stedsnr" v="621458" />
	</node>
	<node id="-623431" lat="65.1832277776" lon="12.3689777719">
		<tag k="name" v="Sæterodden" />
		<tag k="natural" v="cape" />
		<tag k="ssr:stedsnr" v="318312" />
	</node>
	<node id="-623429" lat="65.1787472182" lon="12.2722138812">
		<tag k="name" v="Vikaneset" />
		<tag k="natural" v="cape" />
		<tag k="ssr:stedsnr" v="318307" />
	</node>
	<node id="-623424" lat="65.198641664" lon="12.2516166564">
		<tag k="name" v="Neset" />
		<tag k="natural" v="cape" />
		<tag k="ssr:stedsnr" v="318274" />
	</node>
	<node id="-625471" lat="65.116791666" lon="12.2734111091">
		<tag k="alt_name" v="Rennurdodden" />
		<tag k="name" v="Rennurodden" />
		<tag k="natural" v="cape" />
		<tag k="ssr:stedsnr" v="621365" />
	</node>
	<node id="-623422" lat="65.2038888919" lon="12.6951305547">
		<tag k="alt_name" v="Søberglistøen" />
		<tag k="name" v="Søberglistølen" />
		<tag k="natural" v="cape" />
		<tag k="ssr:stedsnr" v="318265" />
	</node>
	<node id="-623421" lat="65.2066749981" lon="12.3279972176">
		<tag k="name" v="Naustvika" />
		<tag k="natural" v="bay" />
		<tag k="ssr:stedsnr" v="318243" />
	</node>
	<node id="-625467" lat="65.1514083337" lon="12.541152771">
		<tag k="alt_name" v="Jøtulbukta, in" />
		<tag k="name" v="Indre Jøtulbukta" />
		<tag k="natural" v="bay" />
		<tag k="ssr:stedsnr" v="621343" />
	</node>
	<node id="-625461" lat="65.1951888922" lon="12.341008335">
		<tag k="name" v="Ytterstranda" />
		<tag k="natural" v="beach" />
		<tag k="place" v="locality" />
		<tag k="ssr:stedsnr" v="621272" />
	</node>
	<node id="-625460" lat="65.2005000025" lon="12.3154999947">
		<tag k="fixme" v="multiple name tags, choose one and add the other to alt_name" />
		<tag k="name" v="Langflåten;Ovdvika" />
		<tag k="natural" v="bay" />
		<tag k="ssr:stedsnr" v="621271" />
	</node>
	<node id="-623411" lat="65.2404055571" lon="12.5097805635">
		<tag k="alt_name" v="Urdstjørnbukta" />
		<tag k="name" v="Urstjønnbukta" />
		<tag k="natural" v="bay" />
		<tag k="ssr:stedsnr" v="318194" />
	</node>
	<node id="-625458" lat="65.2704000037" lon="12.3268944483">
		<tag k="name" v="Koven" />
		<tag k="natural" v="bay" />
		<tag k="ssr:stedsnr" v="621254" />
	</node>
	<node id="-625457" lat="65.2075000026" lon="12.4261583438">
		<tag k="alt_name" v="Trætneset" />
		<tag k="name" v="Trettneset" />
		<tag k="natural" v="cape" />
		<tag k="ssr:stedsnr" v="621249" />
	</node>
	<node id="-623408" lat="65.2633527765" lon="12.4028083373">
		<tag k="name" v="Valen" />
		<tag k="natural" v="strait" />
		<tag k="ssr:stedsnr" v="318119" />
	</node>
	<node id="-625453" lat="65.2283527753" lon="12.3360999958">
		<tag k="name" v="Hesttangneset" />
		<tag k="natural" v="cape" />
		<tag k="ssr:stedsnr" v="621223" />
	</node>
	<node id="-625452" lat="65.2326000019" lon="12.3347055554">
		<tag k="name" v="Skogholmen" />
		<tag k="place" v="islet" />
		<tag k="ssr:stedsnr" v="621219" />
	</node>
	<node id="-625451" lat="65.2305472238" lon="12.3258194364">
		<tag k="name" v="Flatholmen" />
		<tag k="place" v="islet" />
		<tag k="ssr:stedsnr" v="621218" />
	</node>
	<node id="-625449" lat="65.2479777792" lon="12.3448138838">
		<tag k="name" v="Kobbeleieholmen" />
		<tag k="place" v="islet" />
		<tag k="ssr:stedsnr" v="621201" />
	</node>
	<node id="-625447" lat="65.0329138888" lon="12.1862416676">
		<tag k="alt_name" v="Isnaustbukta" />
		<tag k="name" v="Isnaustet" />
		<tag k="natural" v="bay" />
		<tag k="ssr:stedsnr" v="621153" />
	</node>
	<node id="-623398" lat="65.2454305584" lon="11.5278638984">
		<tag k="name" v="Langtaren" />
		<tag k="natural" v="shoal" />
		<tag k="place" v="locality" />
		<tag k="ssr:stedsnr" v="317604" />
	</node>
	<node id="-623409" lat="65.2666388915" lon="12.3831611043">
		<tag k="name" v="Staulneset" />
		<tag k="natural" v="cape" />
		<tag k="ssr:stedsnr" v="318128" />
	</node>
	<node id="-625444" lat="65.2612527775" lon="12.359186106">
		<tag k="name" v="Andersbuhalsen" />
		<tag k="natural" v="cape" />
		<tag k="ssr:stedsnr" v="621142" />
	</node>
	<node id="-625442" lat="65.2608138928" lon="12.4358416712">
		<tag k="name" v="Skogsøya" />
		<tag k="place" v="islet" />
		<tag k="ssr:stedsnr" v="621127" />
	</node>
	<node id="-625441" lat="65.2624499959" lon="12.3586305532">
		<tag k="name" v="Granåshopen" />
		<tag k="natural" v="bay" />
		<tag k="ssr:stedsnr" v="621124" />
	</node>
	<node id="-625437" lat="65.0825583357" lon="12.0367083352">
		<tag k="name" v="Naustvika" />
		<tag k="natural" v="bay" />
		<tag k="ssr:stedsnr" v="621064" />
	</node>
	<node id="-625433" lat="65.114327782" lon="12.1030055596">
		<tag k="name" v="Sandvika" />
		<tag k="natural" v="bay" />
		<tag k="ssr:stedsnr" v="621005" />
	</node>
	<node id="-625432" lat="65.240661109" lon="11.5849861097">
		<tag k="fixme" v="consider seamark:type=rock or natural=shoal" />
		<tag k="name" v="Gåsflesin" />
		<tag k="place" v="islet" />
		<tag k="ssr:stedsnr" v="620648" />
	</node>
	<node id="-625429" lat="65.0554083338" lon="12.2565555644">
		<tag k="name" v="Ørnneset" />
		<tag k="natural" v="cape" />
		<tag k="ssr:stedsnr" v="602961" />
	</node>
	<node id="-623379" lat="64.9947361121" lon="12.207749994">
		<tag k="name" v="Kristaverodden" />
		<tag k="natural" v="cape" />
		<tag k="ssr:stedsnr" v="299937" />
	</node>
	<node id="-623378" lat="64.9956222181" lon="12.2101333434">
		<tag k="name" v="Sandvika" />
		<tag k="natural" v="bay" />
		<tag k="ssr:stedsnr" v="299935" />
	</node>
	<node id="-625425" lat="65.0158888905" lon="12.2121444343">
		<tag k="name" v="Trollskardbukta" />
		<tag k="natural" v="bay" />
		<tag k="ssr:stedsnr" v="602939" />
	</node>
	<node id="-623376" lat="65.0530499966" lon="12.1497305497">
		<tag k="name" v="Valvika" />
		<tag k="natural" v="bay" />
		<tag k="ssr:stedsnr" v="299909" />
	</node>
	<node id="-624088" lat="65.1305805578" lon="12.4350527875">
		<tag k="name" v="Rotneset" />
		<tag k="natural" v="cape" />
		<tag k="ssr:stedsnr" v="117324" />
	</node>
	<node id="-623405" lat="65.0615750017" lon="12.1035027701">
		<tag k="alt_name" v="Vardvassvika" />
		<tag k="name" v="Varvassvika" />
		<tag k="natural" v="bay" />
		<tag k="ssr:stedsnr" v="318095" />
	</node>
	<node id="-623370" lat="65.096488889" lon="12.0637055509">
		<tag k="name" v="Gårdsetekråen" />
		<tag k="natural" v="bay" />
		<tag k="ssr:stedsnr" v="299863" />
	</node>
	<node id="-623369" lat="65.2402138898" lon="12.3243027768">
		<tag k="name" v="Klubbstranda" />
		<tag k="natural" v="beach" />
		<tag k="place" v="locality" />
		<tag k="ssr:stedsnr" v="299858" />
	</node>
	<node id="-623368" lat="65.2254361075" lon="12.3890916691">
		<tag k="name" v="Tømmervika" />
		<tag k="natural" v="bay" />
		<tag k="ssr:stedsnr" v="299852" />
	</node>
	<node id="-625413" lat="65.2302833309" lon="12.2889305574">
		<tag k="name" v="Jensenvika" />
		<tag k="natural" v="bay" />
		<tag k="ssr:stedsnr" v="602846" />
	</node>
	<node id="-625412" lat="65.0963805514" lon="12.0026222242">
		<tag k="name" v="Meieriodden" />
		<tag k="natural" v="cape" />
		<tag k="ssr:stedsnr" v="602826" />
	</node>
	<node id="-625408" lat="65.1752722245" lon="12.1133194547">
		<tag k="name" v="Fantvikstranda" />
		<tag k="natural" v="beach" />
		<tag k="place" v="locality" />
		<tag k="ssr:stedsnr" v="602807" />
	</node>
	<node id="-623355" lat="65.1307166654" lon="12.5720472132">
		<tag k="name" v="Stranda" />
		<tag k="natural" v="beach" />
		<tag k="place" v="locality" />
		<tag k="ssr:stedsnr" v="299700" />
	</node>
	<node id="-623346" lat="65.0921055534" lon="12.4227666684">
		<tag k="name" v="Bauliodden" />
		<tag k="natural" v="cape" />
		<tag k="ssr:stedsnr" v="299645" />
	</node>
	<node id="-623947" lat="65.1229166661" lon="12.1596749948">
		<tag k="fixme" v="consider seamark:type=rock or natural=shoal" />
		<tag k="name" v="Botnaskjæran" />
		<tag k="place" v="islet" />
		<tag k="ssr:stedsnr" v="57565" />
	</node>
	<node id="-623340" lat="65.1272194467" lon="12.1478500013">
		<tag k="name" v="Urstranda" />
		<tag k="natural" v="beach" />
		<tag k="place" v="locality" />
		<tag k="ssr:stedsnr" v="299597" />
	</node>
	<node id="-623399" lat="65.2391472237" lon="11.5014861075">
		<tag k="fixme" v="consider seamark:type=rock or natural=shoal" />
		<tag k="name" v="Nonsskjæret" />
		<tag k="place" v="islet" />
		<tag k="ssr:stedsnr" v="317621" />
	</node>
	<node id="-623331" lat="65.1414888902" lon="12.2813916588">
		<tag k="name" v="Djupvika" />
		<tag k="natural" v="bay" />
		<tag k="ssr:stedsnr" v="299466" />
	</node>
	<node id="-625372" lat="65.0709888865" lon="12.324202768">
		<tag k="name" v="Langstranda" />
		<tag k="natural" v="beach" />
		<tag k="place" v="locality" />
		<tag k="ssr:stedsnr" v="602467" />
	</node>
	<node id="-625369" lat="65.2051972247" lon="12.409574998">
		<tag k="fixme" v="consider seamark:type=rock or natural=shoal" />
		<tag k="name" v="Syingen" />
		<tag k="place" v="islet" />
		<tag k="ssr:stedsnr" v="602449" />
	</node>
	<node id="-623319" lat="65.089566668" lon="12.3655861043">
		<tag k="fixme" v="consider seamark:type=rock or natural=shoal" />
		<tag k="name" v="Terråkskjeret" />
		<tag k="place" v="islet" />
		<tag k="ssr:stedsnr" v="299325" />
	</node>
	<node id="-625363" lat="65.1194861082" lon="12.510741656">
		<tag k="name" v="Kjerringvikan" />
		<tag k="natural" v="bay" />
		<tag k="ssr:stedsnr" v="602369" />
	</node>
	<node id="-623313" lat="65.268205558" lon="12.4156249935">
		<tag k="name" v="Tømmervika" />
		<tag k="natural" v="bay" />
		<tag k="ssr:stedsnr" v="299219" />
	</node>
	<node id="-625360" lat="65.1179722244" lon="12.3797027676">
		<tag k="name" v="Storodden" />
		<tag k="natural" v="cape" />
		<tag k="ssr:stedsnr" v="602434" />
	</node>
	<node id="-625355" lat="65.2527916662" lon="12.4234361097">
		<tag k="name" v="Sjettøvalen" />
		<tag k="natural" v="bay" />
		<tag k="ssr:stedsnr" v="602231" />
	</node>
	<node id="-625347" lat="65.1837138868" lon="12.3835722267">
		<tag k="name" v="Oterodden" />
		<tag k="natural" v="cape" />
		<tag k="ssr:stedsnr" v="602050" />
	</node>
	<node id="-625343" lat="65.1910888897" lon="12.3691611026">
		<tag k="name" v="Mjosundodden" />
		<tag k="natural" v="cape" />
		<tag k="ssr:stedsnr" v="602038" />
	</node>
	<node id="-623292" lat="65.2622833324" lon="12.363738896">
		<tag k="name" v="Fætosen" />
		<tag k="natural" v="bay" />
		<tag k="ssr:stedsnr" v="297744" />
	</node>
	<node id="-625339" lat="65.1972749988" lon="12.7290916614">
		<tag k="name" v="Ripnovodden" />
		<tag k="natural" v="cape" />
		<tag k="ssr:stedsnr" v="602027" />
	</node>
	<node id="-625332" lat="65.0800805528" lon="12.0646944478">
		<tag k="name" v="Kvitholmen" />
		<tag k="place" v="islet" />
		<tag k="ssr:stedsnr" v="600846" />
	</node>
	<node id="-623731" lat="65.0878972217" lon="11.983377779">
		<tag k="name" v="Hamnbukta" />
		<tag k="natural" v="bay" />
		<tag k="ssr:stedsnr" v="478526" />
	</node>
	<node id="-625328" lat="65.0903499957" lon="12.4063361045">
		<tag k="name" v="Løkvika" />
		<tag k="natural" v="bay" />
		<tag k="ssr:stedsnr" v="600666" />
	</node>
	<node id="-623274" lat="65.0446972201" lon="12.1211222255">
		<tag k="name" v="Djupvika" />
		<tag k="natural" v="bay" />
		<tag k="ssr:stedsnr" v="297083" />
	</node>
	<node id="-623272" lat="65.2228194456" lon="12.4411638851">
		<tag k="name" v="Oldervika" />
		<tag k="natural" v="bay" />
		<tag k="ssr:stedsnr" v="297062" />
	</node>
	<node id="-625315" lat="65.0784694464" lon="12.0456916746">
		<tag k="fixme" v="consider seamark:type=rock or natural=shoal" />
		<tag k="name" v="Tennskjeran" />
		<tag k="place" v="islet" />
		<tag k="ssr:stedsnr" v="600134" />
	</node>
	<node id="-625314" lat="65.2259083355" lon="12.4353222251">
		<tag k="name" v="Hevelstranda" />
		<tag k="natural" v="beach" />
		<tag k="place" v="locality" />
		<tag k="ssr:stedsnr" v="600039" />
	</node>
	<node id="-625313" lat="65.1727333293" lon="12.3606416636">
		<tag k="name" v="Matkroken" />
		<tag k="natural" v="bay" />
		<tag k="ssr:stedsnr" v="600035" />
	</node>
	<node id="-625309" lat="65.2048611107" lon="12.7531138863">
		<tag k="name" v="Storrapodden" />
		<tag k="natural" v="cape" />
		<tag k="ssr:stedsnr" v="599277" />
	</node>
	<node id="-625307" lat="65.2130638916" lon="12.7673472152">
		<tag k="name" v="Innerodden" />
		<tag k="natural" v="cape" />
		<tag k="ssr:stedsnr" v="599242" />
	</node>
	<node id="-625305" lat="65.1666333314" lon="11.9833722251">
		<tag k="name" v="Otervikflua" />
		<tag k="natural" v="shoal" />
		<tag k="place" v="locality" />
		<tag k="ssr:stedsnr" v="573120" />
	</node>
	<node id="-623256" lat="65.1904611087" lon="12.1243916703">
		<tag k="alt_name" v="Skjæret" />
		<tag k="name" v="Røskjeret" />
		<tag k="natural" v="cape" />
		<tag k="ssr:stedsnr" v="270122" />
	</node>
	<node id="-625303" lat="65.1865638917" lon="11.7946722202">
		<tag k="name" v="Steinstaren" />
		<tag k="natural" v="shoal" />
		<tag k="place" v="locality" />
		<tag k="ssr:stedsnr" v="573096" />
	</node>
	<node id="-623385" lat="65.0847166687" lon="11.9810638984">
		<tag k="alt_name" v="Kjærstadvalen" />
		<tag k="bay" v="fjord" />
		<tag k="name" v="Valen" />
		<tag k="natural" v="bay" />
		<tag k="ssr:stedsnr" v="317044" />
	</node>
	<node id="-624408" lat="65.3467805578" lon="11.4349833403">
		<tag k="name" v="Indrenordbåen" />
		<tag k="natural" v="shoal" />
		<tag k="place" v="locality" />
		<tag k="ssr:stedsnr" v="196945" />
	</node>
	<node id="-625292" lat="65.2071277795" lon="12.1812916738">
		<tag k="alt_name" v="Skjerdingen;Sjælingan" />
		<tag k="name" v="Skjærdingen" />
		<tag k="place" v="islet" />
		<tag k="ssr:stedsnr" v="560946" />
	</node>
	<node id="-625290" lat="65.3009305515" lon="11.4675749944">
		<tag k="bay" v="fjord" />
		<tag k="name" v="Sørleia" />
		<tag k="natural" v="bay" />
		<tag k="ssr:stedsnr" v="560942" />
	</node>
	<node id="-625289" lat="65.186325004" lon="11.9164638809">
		<tag k="name" v="Langdjupslua" />
		<tag k="natural" v="shoal" />
		<tag k="place" v="locality" />
		<tag k="ssr:stedsnr" v="560938" />
	</node>
	<node id="-625288" lat="65.2817027783" lon="11.6090527686">
		<tag k="name" v="Terjenykken" />
		<tag k="place" v="islet" />
		<tag k="ssr:stedsnr" v="560936" />
	</node>
	<node id="-625287" lat="65.284366666" lon="11.5988083313">
		<tag k="name" v="Sandøysluan" />
		<tag k="natural" v="shoal" />
		<tag k="place" v="locality" />
		<tag k="ssr:stedsnr" v="560937" />
	</node>
	<node id="-625286" lat="65.2773472254" lon="11.4801000005">
		<tag k="name" v="Vegtaren" />
		<tag k="natural" v="shoal" />
		<tag k="place" v="locality" />
		<tag k="ssr:stedsnr" v="560934" />
	</node>
	<node id="-625284" lat="65.2702777764" lon="11.5575916681">
		<tag k="name" v="Kobbslua" />
		<tag k="natural" v="shoal" />
		<tag k="place" v="locality" />
		<tag k="ssr:stedsnr" v="560931" />
	</node>
	<node id="-625283" lat="65.1996499963" lon="12.1607805461">
		<tag k="alt_name" v="Harryodden" />
		<tag k="name" v="Hareodden" />
		<tag k="natural" v="cape" />
		<tag k="ssr:stedsnr" v="560932" />
	</node>
	<node id="-625282" lat="65.2743249965" lon="11.6197083228">
		<tag k="name" v="Heimlandet" />
		<tag k="place" v="islet" />
		<tag k="ssr:stedsnr" v="560924" />
	</node>
	<node id="-625279" lat="65.2579499973" lon="11.6929111061">
		<tag k="fixme" v="consider seamark:type=rock or natural=shoal" />
		<tag k="name" v="Orsteinholmen" />
		<tag k="place" v="islet" />
		<tag k="ssr:stedsnr" v="560910" />
	</node>
	<node id="-625278" lat="65.152050003" lon="12.0352999916">
		<tag k="alt_name" v="Brunesskjeret" />
		<tag k="fixme" v="consider seamark:type=rock or natural=shoal" />
		<tag k="name" v="Brunesskjæret" />
		<tag k="place" v="islet" />
		<tag k="ssr:stedsnr" v="560900" />
	</node>
	<node id="-625277" lat="65.1479249992" lon="12.0315277752">
		<tag k="alt_name" v="Brudeneset" />
		<tag k="name" v="Bruneset" />
		<tag k="natural" v="cape" />
		<tag k="ssr:stedsnr" v="560897" />
	</node>
	<node id="-625276" lat="65.1311527822" lon="12.6137749985">
		<tag k="name" v="Bjørnvika" />
		<tag k="natural" v="bay" />
		<tag k="ssr:stedsnr" v="560790" />
	</node>
	<node id="-625275" lat="65.0099888883" lon="12.1884750092">
		<tag k="name" v="Hesthagabukta" />
		<tag k="natural" v="bay" />
		<tag k="ssr:stedsnr" v="560777" />
	</node>
	<node id="-625274" lat="65.2363083303" lon="11.5026722199">
		<tag k="name" v="Nordstorslua" />
		<tag k="natural" v="shoal" />
		<tag k="place" v="locality" />
		<tag k="ssr:stedsnr" v="560673" />
	</node>
	<node id="-625273" lat="65.2346277819" lon="11.7064472154">
		<tag k="fixme" v="consider seamark:type=rock or natural=shoal" />
		<tag k="name" v="Lisshjelmen" />
		<tag k="place" v="islet" />
		<tag k="ssr:stedsnr" v="560666" />
	</node>
	<node id="-624403" lat="65.2449000027" lon="11.572316662">
		<tag k="name" v="Gåsflestaren" />
		<tag k="natural" v="shoal" />
		<tag k="place" v="locality" />
		<tag k="ssr:stedsnr" v="196629" />
	</node>
	<node id="-625258" lat="65.0604305512" lon="12.2472750057">
		<tag k="name" v="Valvikodden" />
		<tag k="natural" v="cape" />
		<tag k="ssr:stedsnr" v="560476" />
	</node>
	<node id="-625257" lat="65.0673027769" lon="12.305869448">
		<tag k="name" v="Bogaodden" />
		<tag k="natural" v="cape" />
		<tag k="ssr:stedsnr" v="560473" />
	</node>
	<node id="-625254" lat="65.0668000021" lon="12.3133194396">
		<tag k="name" v="Djupdalsvika" />
		<tag k="natural" v="bay" />
		<tag k="ssr:stedsnr" v="560447" />
	</node>
	<node id="-625252" lat="65.0933027759" lon="12.4819416586">
		<tag k="name" v="Grovaodden" />
		<tag k="natural" v="cape" />
		<tag k="ssr:stedsnr" v="560430" />
	</node>
	<node id="-625249" lat="65.0892972246" lon="12.4505305663">
		<tag k="name" v="Leirdalsodden" />
		<tag k="natural" v="cape" />
		<tag k="ssr:stedsnr" v="560404" />
	</node>
	<node id="-625245" lat="65.1051277814" lon="12.486136115">
		<tag k="name" v="Båtnesodden" />
		<tag k="natural" v="cape" />
		<tag k="ssr:stedsnr" v="560380" />
	</node>
	<node id="-625241" lat="65.1771138855" lon="12.3523861012">
		<tag k="name" v="Kistvika" />
		<tag k="natural" v="bay" />
		<tag k="ssr:stedsnr" v="560300" />
	</node>
	<node id="-625237" lat="65.2052527771" lon="12.463266663">
		<tag k="name" v="Djupvika" />
		<tag k="natural" v="bay" />
		<tag k="ssr:stedsnr" v="560265" />
	</node>
	<node id="-625236" lat="65.2082000024" lon="12.3125249914">
		<tag k="name" v="Kvalvika" />
		<tag k="natural" v="bay" />
		<tag k="ssr:stedsnr" v="560243" />
	</node>
	<node id="-625235" lat="65.2682472222" lon="12.3797638926">
		<tag k="name" v="Dalavika" />
		<tag k="natural" v="bay" />
		<tag k="ssr:stedsnr" v="560238" />
	</node>
	<node id="-625233" lat="65.2463416711" lon="12.4776499989">
		<tag k="name" v="Almlibukta" />
		<tag k="natural" v="bay" />
		<tag k="ssr:stedsnr" v="560201" />
	</node>
	<node id="-625231" lat="65.2872250004" lon="12.4233361076">
		<tag k="name" v="Rundneset" />
		<tag k="natural" v="cape" />
		<tag k="ssr:stedsnr" v="560181" />
	</node>
	<node id="-625228" lat="65.2577805538" lon="12.6167361054">
		<tag k="fixme" v="consider seamark:type=rock or natural=shoal" />
		<tag k="name" v="Storskjeret" />
		<tag k="place" v="islet" />
		<tag k="ssr:stedsnr" v="560172" />
	</node>
	<node id="-625227" lat="65.2526888862" lon="12.6269666692">
		<tag k="name" v="Hestsundet" />
		<tag k="natural" v="strait" />
		<tag k="ssr:stedsnr" v="560170" />
	</node>
	<node id="-625223" lat="65.0506333306" lon="12.1709416633">
		<tag k="alt_name" v="Forrholmen" />
		<tag k="name" v="Furuholmen" />
		<tag k="place" v="islet" />
		<tag k="ssr:stedsnr" v="560094" />
	</node>
	<node id="-625220" lat="65.0862277775" lon="12.0404055468">
		<tag k="alt_name" v="Sjøholmen" />
		<tag k="name" v="Skjåholmen" />
		<tag k="place" v="islet" />
		<tag k="ssr:stedsnr" v="560061" />
	</node>
	<node id="-625417" lat="65.246622219" lon="12.2794527816">
		<tag k="name" v="Porsvika" />
		<tag k="natural" v="beach" />
		<tag k="place" v="locality" />
		<tag k="ssr:stedsnr" v="602865" />
	</node>
	<node id="-625204" lat="65.0656499993" lon="12.2410333382">
		<tag k="name" v="Heimerelvodden" />
		<tag k="natural" v="cape" />
		<tag k="ssr:stedsnr" v="542895" />
	</node>
	<node id="-625197" lat="65.2314111155" lon="12.2984277721">
		<tag k="name" v="Tomtodden" />
		<tag k="natural" v="cape" />
		<tag k="ssr:stedsnr" v="542853" />
	</node>
	<node id="-625196" lat="65.2259416706" lon="12.2902805604">
		<tag k="fixme" v="consider seamark:type=rock or natural=shoal" />
		<tag k="name" v="Risøydraget" />
		<tag k="place" v="islet" />
		<tag k="ssr:stedsnr" v="542831" />
	</node>
	<node id="-625195" lat="65.1575722267" lon="12.0254055525">
		<tag k="name" v="Ytter-Bjørnskjæret" />
		<tag k="natural" v="cape" />
		<tag k="ssr:stedsnr" v="542809" />
	</node>
	<node id="-623365" lat="65.1493944468" lon="12.0269027876">
		<tag k="name" v="Osen" />
		<tag k="natural" v="bay" />
		<tag k="ssr:stedsnr" v="299819" />
	</node>
	<node id="-625180" lat="65.0534249957" lon="12.4848472311">
		<tag k="name" v="Oldervika" />
		<tag k="natural" v="bay" />
		<tag k="ssr:stedsnr" v="542571" />
	</node>
	<node id="-625171" lat="65.1420583364" lon="12.3362944343">
		<tag k="name" v="Skårnnakkodden" />
		<tag k="natural" v="cape" />
		<tag k="ssr:stedsnr" v="542436" />
	</node>
	<node id="-625166" lat="65.1167250023" lon="12.3845333332">
		<tag k="name" v="Aspvika" />
		<tag k="natural" v="bay" />
		<tag k="ssr:stedsnr" v="542418" />
	</node>
	<node id="-623703" lat="65.1325638927" lon="12.5848694388">
		<tag k="name" v="Ørnhaugbukta" />
		<tag k="natural" v="bay" />
		<tag k="ssr:stedsnr" v="379353" />
	</node>
	<node id="-625156" lat="65.2791972188" lon="11.5306499899">
		<tag k="name" v="Norduerskjertaran" />
		<tag k="natural" v="shoal" />
		<tag k="place" v="locality" />
		<tag k="ssr:stedsnr" v="542220" />
	</node>
	<node id="-625155" lat="65.1384444467" lon="12.3458111049">
		<tag k="name" v="Nisvika" />
		<tag k="natural" v="bay" />
		<tag k="ssr:stedsnr" v="542084" />
	</node>
	<node id="-625151" lat="65.1872722262" lon="12.3653555572">
		<tag k="name" v="Mellomodden" />
		<tag k="natural" v="cape" />
		<tag k="ssr:stedsnr" v="542033" />
	</node>
	<node id="-625148" lat="65.0435333306" lon="12.1741944361">
		<tag k="name" v="Ytter-Straumen" />
		<tag k="natural" v="strait" />
		<tag k="ssr:stedsnr" v="541954" />
	</node>
	<node id="-623700" lat="65.1447027802" lon="12.2863499993">
		<tag k="name" v="Fornesbukta" />
		<tag k="natural" v="bay" />
		<tag k="ssr:stedsnr" v="379328" />
	</node>
	<node id="-625134" lat="65.1890638921" lon="12.4203805592">
		<tag k="name" v="Naustvika" />
		<tag k="natural" v="bay" />
		<tag k="ssr:stedsnr" v="541323" />
	</node>
	<node id="-625133" lat="65.1889527824" lon="12.433216663">
		<tag k="name" v="Leirosodden" />
		<tag k="natural" v="cape" />
		<tag k="ssr:stedsnr" v="541321" />
	</node>
	<node id="-624036" lat="65.2590333331" lon="12.4075027695">
		<tag k="name" v="Øysundet" />
		<tag k="natural" v="strait" />
		<tag k="ssr:stedsnr" v="76151" />
	</node>
	<node id="-625109" lat="65.0764583305" lon="12.0568361142">
		<tag k="name" v="Sneringsvika" />
		<tag k="natural" v="bay" />
		<tag k="ssr:stedsnr" v="540123" />
	</node>
	<node id="-625108" lat="65.154894441" lon="12.2980611043">
		<tag k="name" v="Ytter-Jensinevika" />
		<tag k="natural" v="bay" />
		<tag k="ssr:stedsnr" v="540110" />
	</node>
	<node id="-625105" lat="65.0494166703" lon="12.1188055496">
		<tag k="fixme" v="consider seamark:type=rock or natural=shoal" />
		<tag k="name" v="Langengskjeran" />
		<tag k="place" v="islet" />
		<tag k="ssr:stedsnr" v="540065" />
	</node>
	<node id="-625092" lat="65.17543333" lon="12.3640527716">
		<tag k="name" v="Tolåodden" />
		<tag k="natural" v="cape" />
		<tag k="ssr:stedsnr" v="539031" />
	</node>
	<node id="-625085" lat="65.1963972264" lon="12.1494500081">
		<tag k="alt_name" v="Solstadskjera" />
		<tag k="name" v="Solstadskjæran" />
		<tag k="place" v="locality" />
		<tag k="seamark:type" v="rock" />
		<tag k="ssr:stedsnr" v="513113" />
	</node>
	<node id="-625084" lat="65.255180556" lon="12.4114444468">
		<tag k="name" v="Haukneset" />
		<tag k="natural" v="cape" />
		<tag k="ssr:stedsnr" v="501163" />
	</node>
	<node id="-625083" lat="65.2517916699" lon="12.2964333359">
		<tag k="name" v="Gaupvågen" />
		<tag k="natural" v="bay" />
		<tag k="ssr:stedsnr" v="501160" />
	</node>
	<node id="-625080" lat="65.1965833371" lon="12.154427779">
		<tag k="alt_name" v="Mulholmvika" />
		<tag k="name" v="Muholmvika" />
		<tag k="natural" v="bay" />
		<tag k="ssr:stedsnr" v="500925" />
	</node>
	<node id="-625079" lat="65.2778138869" lon="11.61733334">
		<tag k="name" v="Storkråkøya" />
		<tag k="place" v="islet" />
		<tag k="ssr:stedsnr" v="500923" />
	</node>
	<node id="-625078" lat="65.2790361137" lon="11.6168750005">
		<tag k="name" v="Lislkråkøya" />
		<tag k="place" v="islet" />
		<tag k="ssr:stedsnr" v="500922" />
	</node>
	<node id="-625077" lat="65.2717499997" lon="11.6285638917">
		<tag k="name" v="Blomsterholmen" />
		<tag k="place" v="islet" />
		<tag k="ssr:stedsnr" v="500920" />
	</node>
	<node id="-625075" lat="65.1823611126" lon="12.1155944536">
		<tag k="name" v="Holmsvågen" />
		<tag k="natural" v="bay" />
		<tag k="ssr:stedsnr" v="500916" />
	</node>
	<node id="-625073" lat="65.2524083368" lon="11.6682861158">
		<tag k="fixme" v="consider seamark:type=rock or natural=shoal" />
		<tag k="name" v="Raudbrakan" />
		<tag k="place" v="islet" />
		<tag k="ssr:stedsnr" v="500912" />
	</node>
	<node id="-625072" lat="65.2502138928" lon="11.7017388849">
		<tag k="name" v="Sauøya" />
		<tag k="place" v="islet" />
		<tag k="ssr:stedsnr" v="500907" />
	</node>
	<node id="-623688" lat="65.2640944482" lon="12.355475005">
		<tag k="name" v="Svarthopen" />
		<tag k="natural" v="bay" />
		<tag k="ssr:stedsnr" v="379134" />
	</node>
	<node id="-625070" lat="65.2308250041" lon="12.4247888796">
		<tag k="name" v="Naustodden" />
		<tag k="natural" v="cape" />
		<tag k="ssr:stedsnr" v="500820" />
	</node>
	<node id="-625069" lat="64.9946250021" lon="12.1916749987">
		<tag k="name" v="Øysundet" />
		<tag k="natural" v="strait" />
		<tag k="ssr:stedsnr" v="500749" />
	</node>
	<node id="-624686" lat="65.2551611097" lon="12.384152773">
		<tag k="name" v="Lislholmen" />
		<tag k="place" v="islet" />
		<tag k="ssr:stedsnr" v="258174" />
	</node>
	<node id="-625046" lat="65.076505552" lon="12.4314166731">
		<tag k="alt_name" v="Ulvika" />
		<tag k="name" v="Urdvika" />
		<tag k="natural" v="bay" />
		<tag k="ssr:stedsnr" v="500489" />
	</node>
	<node id="-625043" lat="65.1165111087" lon="12.3861916592">
		<tag k="name" v="Øksningstranda" />
		<tag k="natural" v="beach" />
		<tag k="place" v="locality" />
		<tag k="ssr:stedsnr" v="500413" />
	</node>
	<node id="-625037" lat="65.1324749984" lon="12.3025694401">
		<tag k="name" v="Liaholmen" />
		<tag k="place" v="islet" />
		<tag k="ssr:stedsnr" v="500384" />
	</node>
	<node id="-624706" lat="65.0703194471" lon="12.0179916745">
		<tag k="name" v="Hålopvelta" />
		<tag k="natural" v="beach" />
		<tag k="place" v="locality" />
		<tag k="ssr:stedsnr" v="418113" />
	</node>
	<node id="-625034" lat="65.1733611146" lon="12.3410138796">
		<tag k="name" v="Nakkneset" />
		<tag k="natural" v="cape" />
		<tag k="ssr:stedsnr" v="500344" />
	</node>
	<node id="-625032" lat="65.2027166629" lon="12.3227916756">
		<tag k="name" v="Steinvika" />
		<tag k="natural" v="bay" />
		<tag k="ssr:stedsnr" v="500322" />
	</node>
	<node id="-625031" lat="65.1999666687" lon="12.334980553">
		<tag k="name" v="Stavøysundet" />
		<tag k="natural" v="strait" />
		<tag k="ssr:stedsnr" v="500320" />
	</node>
	<node id="-623594" lat="65.229247224" lon="12.2951888934">
		<tag k="name" v="Karlsenvika" />
		<tag k="natural" v="bay" />
		<tag k="ssr:stedsnr" v="360836" />
	</node>
	<node id="-625029" lat="65.1862500028" lon="12.3278249911">
		<tag k="name" v="Spjotnesvika" />
		<tag k="natural" v="bay" />
		<tag k="ssr:stedsnr" v="500312" />
	</node>
	<node id="-625028" lat="65.1954333361" lon="12.4680555478">
		<tag k="alt_name" v="Sagholmene" />
		<tag k="name" v="Sagholman" />
		<tag k="place" v="islet" />
		<tag k="ssr:stedsnr" v="500301" />
	</node>
	<node id="-625027" lat="65.1964888862" lon="12.498800001">
		<tag k="alt_name" v="Sagbotnet" />
		<tag k="bay" v="fjord" />
		<tag k="name" v="Sagbotn" />
		<tag k="natural" v="bay" />
		<tag k="ssr:stedsnr" v="500299" />
	</node>
	<node id="-625025" lat="65.202580559" lon="12.2544027705">
		<tag k="fixme" v="consider seamark:type=rock or natural=shoal" />
		<tag k="name" v="Røytvollskjeran" />
		<tag k="place" v="islet" />
		<tag k="ssr:stedsnr" v="500289" />
	</node>
	<node id="-625020" lat="65.2261361143" lon="12.3929638926">
		<tag k="name" v="Andalsneset" />
		<tag k="natural" v="cape" />
		<tag k="ssr:stedsnr" v="500262" />
	</node>
	<node id="-625017" lat="65.2458777761" lon="12.5027500059">
		<tag k="name" v="Fornesodden" />
		<tag k="natural" v="cape" />
		<tag k="ssr:stedsnr" v="500234" />
	</node>
	<node id="-625012" lat="65.2582500005" lon="12.3090916598">
		<tag k="name" v="Nordeidbukta" />
		<tag k="natural" v="bay" />
		<tag k="ssr:stedsnr" v="500161" />
	</node>
	<node id="-625009" lat="65.261680555" lon="12.3681805514">
		<tag k="alt_name" v="Fursaltøya" />
		<tag k="name" v="Fulsaltøya" />
		<tag k="place" v="islet" />
		<tag k="ssr:stedsnr" v="500144" />
	</node>
	<node id="-625005" lat="65.0920666621" lon="12.0070166759">
		<tag k="name" v="Valvika" />
		<tag k="natural" v="bay" />
		<tag k="ssr:stedsnr" v="500053" />
	</node>
	<node id="-625002" lat="65.1058111068" lon="12.0067611068">
		<tag k="name" v="Bryggodden" />
		<tag k="natural" v="cape" />
		<tag k="ssr:stedsnr" v="500020" />
	</node>
	<node id="-625001" lat="65.1173250032" lon="12.0080194538">
		<tag k="name" v="Kalsvika" />
		<tag k="natural" v="bay" />
		<tag k="ssr:stedsnr" v="499957" />
	</node>
	<node id="-624994" lat="65.1013499967" lon="12.4650749977">
		<tag k="name" v="Skiftesvika" />
		<tag k="natural" v="bay" />
		<tag k="ssr:stedsnr" v="499330" />
	</node>
	<node id="-624989" lat="65.2340138856" lon="11.6486888806">
		<tag k="name" v="Kvitskjærfallet" />
		<tag k="natural" v="shoal" />
		<tag k="place" v="locality" />
		<tag k="ssr:stedsnr" v="499622" />
	</node>
	<node id="-624988" lat="65.2394694433" lon="11.6797472167">
		<tag k="fixme" v="consider seamark:type=rock or natural=shoal" />
		<tag k="name" v="Storslua" />
		<tag k="place" v="islet" />
		<tag k="ssr:stedsnr" v="499604" />
	</node>
	<node id="-624984" lat="65.0581583316" lon="12.2162805634">
		<tag k="name" v="Sandvikholmen" />
		<tag k="place" v="islet" />
		<tag k="ssr:stedsnr" v="481963" />
	</node>
	<node id="-624977" lat="65.2108833296" lon="12.7644972205">
		<tag k="name" v="Ytterodden" />
		<tag k="natural" v="cape" />
		<tag k="ssr:stedsnr" v="481883" />
	</node>
	<node id="-624973" lat="65.2319222259" lon="12.2984111062">
		<tag k="name" v="Osen" />
		<tag k="natural" v="bay" />
		<tag k="ssr:stedsnr" v="481858" />
	</node>
	<node id="-624967" lat="65.1680472214" lon="11.9951277865">
		<tag k="name" v="Ole-Hansåvika" />
		<tag k="natural" v="bay" />
		<tag k="ssr:stedsnr" v="481799" />
	</node>
	<node id="-624941" lat="65.0698194475" lon="11.9879083346">
		<tag k="name" v="Klemmneset" />
		<tag k="natural" v="cape" />
		<tag k="ssr:stedsnr" v="481506" />
	</node>
	<node id="-624940" lat="65.1340055568" lon="12.3115277788">
		<tag k="name" v="Melkvika" />
		<tag k="natural" v="bay" />
		<tag k="ssr:stedsnr" v="481476" />
	</node>
	<node id="-624938" lat="65.1283888911" lon="12.3397749973">
		<tag k="name" v="Hestgardsneset" />
		<tag k="natural" v="cape" />
		<tag k="ssr:stedsnr" v="481467" />
	</node>
	<node id="-624937" lat="65.2108416686" lon="12.4271166701">
		<tag k="name" v="Lunnvika" />
		<tag k="natural" v="bay" />
		<tag k="ssr:stedsnr" v="481455" />
	</node>
	<node id="-624935" lat="65.1243111154" lon="12.3556694379">
		<tag k="name" v="Naustodden" />
		<tag k="natural" v="cape" />
		<tag k="ssr:stedsnr" v="481446" />
	</node>
	<node id="-623665" lat="64.9977694412" lon="12.1955111089">
		<tag k="bay" v="fjord" />
		<tag k="name" v="Kollbotnet" />
		<tag k="natural" v="bay" />
		<tag k="ssr:stedsnr" v="378693" />
	</node>
	<node id="-625030" lat="65.1948194412" lon="12.3682944403">
		<tag k="name" v="Hellvikodden" />
		<tag k="natural" v="cape" />
		<tag k="ssr:stedsnr" v="500319" />
	</node>
	<node id="-624923" lat="65.1300805576" lon="12.4087611184">
		<tag k="name" v="Småvikene" />
		<tag k="natural" v="bay" />
		<tag k="ssr:stedsnr" v="481306" />
	</node>
	<node id="-624919" lat="65.2496611117" lon="12.4100916633">
		<tag k="name" v="Akervika" />
		<tag k="natural" v="bay" />
		<tag k="ssr:stedsnr" v="481240" />
	</node>
	<node id="-624917" lat="65.1338777782" lon="12.3800305619">
		<tag k="name" v="Ytre Langstrandodden" />
		<tag k="natural" v="cape" />
		<tag k="ssr:stedsnr" v="481091" />
	</node>
	<node id="-624915" lat="65.1940638881" lon="12.7132416591">
		<tag k="name" v="Smågjeddeklompen" />
		<tag k="natural" v="cape" />
		<tag k="ssr:stedsnr" v="481026" />
	</node>
	<node id="-624913" lat="65.0714861098" lon="11.9372888861">
		<tag k="name" v="Småvikerne" />
		<tag k="natural" v="bay" />
		<tag k="ssr:stedsnr" v="471414" />
	</node>
	<node id="-624908" lat="65.2226138852" lon="11.7287805486">
		<tag k="name" v="Djuptaren" />
		<tag k="natural" v="shoal" />
		<tag k="place" v="locality" />
		<tag k="ssr:stedsnr" v="453960" />
	</node>
	<node id="-624907" lat="65.1095999971" lon="11.9805750025">
		<tag k="alt_name" v="Strømmen" />
		<tag k="name" v="Horsfjordstraumen" />
		<tag k="natural" v="strait" />
		<tag k="ssr:stedsnr" v="452883" />
	</node>
	<node id="-624906" lat="65.1706249964" lon="12.0667888832">
		<tag k="name" v="Løvgrunnen" />
		<tag k="natural" v="shoal" />
		<tag k="place" v="locality" />
		<tag k="ssr:stedsnr" v="452120" />
	</node>
	<node id="-624890" lat="65.0459805533" lon="12.1658111197">
		<tag k="name" v="Årsandøya" />
		<tag k="place" v="island" />
		<tag k="ssr:stedsnr" v="440175" />
	</node>
	<node id="-624884" lat="65.3092805575" lon="11.5126638991">
		<tag k="name" v="Hakkataren" />
		<tag k="natural" v="shoal" />
		<tag k="place" v="locality" />
		<tag k="ssr:stedsnr" v="439931" />
	</node>
	<node id="-624881" lat="65.1834334491" lon="12.1099012055">
		<tag k="fixme" v="consider seamark:type=rock or natural=shoal" />
		<tag k="name" v="Holmsskjæran" />
		<tag k="place" v="islet" />
		<tag k="ssr:stedsnr" v="439923" />
	</node>
	<node id="-624879" lat="65.1590388845" lon="11.9738166664">
		<tag k="alt_name" v="Otervika, litle" />
		<tag k="name" v="Liss-Otervika" />
		<tag k="natural" v="bay" />
		<tag k="ssr:stedsnr" v="439910" />
	</node>
	<node id="-624878" lat="65.1670194429" lon="11.9898611048">
		<tag k="name" v="Oterneset" />
		<tag k="natural" v="cape" />
		<tag k="ssr:stedsnr" v="439905" />
	</node>
	<node id="-624877" lat="65.2509361123" lon="11.6031666729">
		<tag k="fixme" v="consider seamark:type=rock or natural=shoal" />
		<tag k="name" v="Flatskjeret" />
		<tag k="place" v="islet" />
		<tag k="ssr:stedsnr" v="439904" />
	</node>
	<node id="-624876" lat="65.156000001" lon="12.1188138949">
		<tag k="alt_name" v="Brokenghammarn" />
		<tag k="name" v="Brokenghammaren" />
		<tag k="natural" v="cape" />
		<tag k="ssr:stedsnr" v="439900" />
	</node>
	<node id="-624874" lat="65.1534055547" lon="12.1163944355">
		<tag k="name" v="Sørvika" />
		<tag k="natural" v="bay" />
		<tag k="ssr:stedsnr" v="439897" />
	</node>
	<node id="-624679" lat="65.1102500035" lon="11.9878666653">
		<tag k="alt_name" v="Øya" />
		<tag k="name" v="Møllerøya" />
		<tag k="natural" v="cape" />
		<tag k="ssr:stedsnr" v="257960" />
	</node>
	<node id="-624872" lat="65.1440499958" lon="12.2931250087">
		<tag k="alt_name" v="Fornes" />
		<tag k="name" v="Fornesodden" />
		<tag k="natural" v="cape" />
		<tag k="ssr:stedsnr" v="439792" />
	</node>
	<node id="-624861" lat="65.0602277739" lon="12.2714611158">
		<tag k="name" v="Saltbunesodden" />
		<tag k="natural" v="cape" />
		<tag k="ssr:stedsnr" v="439458" />
	</node>
	<node id="-624858" lat="65.0817500039" lon="12.3314694389">
		<tag k="name" v="Melkarneset" />
		<tag k="natural" v="cape" />
		<tag k="ssr:stedsnr" v="439429" />
	</node>
	<node id="-624850" lat="65.1615333376" lon="12.6510722205">
		<tag k="alt_name" v="Ingerneset" />
		<tag k="name" v="Innerneset" />
		<tag k="natural" v="cape" />
		<tag k="ssr:stedsnr" v="439319" />
	</node>
	<node id="-624849" lat="65.1851388907" lon="12.3258194355">
		<tag k="name" v="Spjotneset" />
		<tag k="natural" v="cape" />
		<tag k="ssr:stedsnr" v="439293" />
	</node>
	<node id="-624847" lat="65.1832611095" lon="12.4347805485">
		<tag k="name" v="Bjørnvika" />
		<tag k="natural" v="bay" />
		<tag k="ssr:stedsnr" v="439282" />
	</node>
	<node id="-624845" lat="65.1693861079" lon="12.2826361082">
		<tag k="alt_name" v="Forrholmen" />
		<tag k="name" v="Furuholmen" />
		<tag k="place" v="islet" />
		<tag k="ssr:stedsnr" v="439276" />
	</node>
	<node id="-624842" lat="65.1872750032" lon="12.266361111">
		<tag k="name" v="Flottvika" />
		<tag k="natural" v="bay" />
		<tag k="ssr:stedsnr" v="439246" />
	</node>
	<node id="-624841" lat="65.1914138911" lon="12.4820333299">
		<tag k="alt_name" v="Tenneskjeret" />
		<tag k="fixme" v="consider seamark:type=rock or natural=shoal" />
		<tag k="name" v="Tennskjæret" />
		<tag k="place" v="islet" />
		<tag k="ssr:stedsnr" v="439242" />
	</node>
	<node id="-624840" lat="65.1901805594" lon="12.4845444381">
		<tag k="alt_name" v="Tennskjerklubben" />
		<tag k="name" v="Tennskjærklubben" />
		<tag k="natural" v="cape" />
		<tag k="ssr:stedsnr" v="439240" />
	</node>
	<node id="-624839" lat="65.2057833308" lon="12.4578361144">
		<tag k="name" v="Kalvstrandodden" />
		<tag k="natural" v="cape" />
		<tag k="ssr:stedsnr" v="439229" />
	</node>
	<node id="-624838" lat="65.2139833324" lon="12.4285583383">
		<tag k="alt_name" v="Møllebogneset" />
		<tag k="name" v="Møllebogodden" />
		<tag k="natural" v="cape" />
		<tag k="ssr:stedsnr" v="439222" />
	</node>
	<node id="-624837" lat="65.2287495581" lon="12.4283673125">
		<tag k="name" v="Osodden" />
		<tag k="natural" v="cape" />
		<tag k="ssr:stedsnr" v="439217" />
	</node>
	<node id="-624832" lat="65.2844972236" lon="12.4143777843">
		<tag k="name" v="Dambukta" />
		<tag k="natural" v="bay" />
		<tag k="ssr:stedsnr" v="439162" />
	</node>
	<node id="-624672" lat="65.148213885" lon="12.1117305555">
		<tag k="fixme" v="consider seamark:type=rock or natural=shoal" />
		<tag k="name" v="Vikaskjeret" />
		<tag k="place" v="islet" />
		<tag k="ssr:stedsnr" v="257921" />
	</node>
	<node id="-624830" lat="65.026002779" lon="12.1873083334">
		<tag k="name" v="Djupvika" />
		<tag k="natural" v="bay" />
		<tag k="ssr:stedsnr" v="439132" />
	</node>
	<node id="-624816" lat="65.0462499976" lon="12.1447583428">
		<tag k="name" v="Serinaodden" />
		<tag k="natural" v="cape" />
		<tag k="ssr:stedsnr" v="421959" />
	</node>
	<node id="-624809" lat="65.0821444418" lon="12.0397249891">
		<tag k="name" v="Rognholmen" />
		<tag k="place" v="islet" />
		<tag k="ssr:stedsnr" v="421879" />
	</node>
	<node id="-624808" lat="65.2462222207" lon="12.3785749911">
		<tag k="name" v="Finnkristenvika" />
		<tag k="natural" v="bay" />
		<tag k="ssr:stedsnr" v="421873" />
	</node>
	<node id="-624806" lat="65.2085388918" lon="12.3062333231">
		<tag k="fixme" v="consider seamark:type=rock or natural=shoal" />
		<tag k="name" v="Stavøyskjæret" />
		<tag k="place" v="islet" />
		<tag k="ssr:stedsnr" v="421864" />
	</node>
	<node id="-624805" lat="65.192408333" lon="12.3249194428">
		<tag k="name" v="Knutsvika" />
		<tag k="natural" v="bay" />
		<tag k="ssr:stedsnr" v="421861" />
	</node>
	<node id="-624804" lat="65.1607861125" lon="12.1158638898">
		<tag k="fixme" v="consider seamark:type=rock or natural=shoal" />
		<tag k="name" v="Storskjæret" />
		<tag k="place" v="islet" />
		<tag k="ssr:stedsnr" v="421821" />
	</node>
	<node id="-624797" lat="65.079377775" lon="12.4243611026">
		<tag k="name" v="Vargsteinvika" />
		<tag k="natural" v="bay" />
		<tag k="ssr:stedsnr" v="421561" />
	</node>
	<node id="-624790" lat="65.0725138905" lon="12.3239805664">
		<tag k="name" v="Langstrandodden" />
		<tag k="natural" v="cape" />
		<tag k="ssr:stedsnr" v="421453" />
	</node>
	<node id="-624788" lat="65.0767638919" lon="12.3209027806">
		<tag k="fixme" v="consider seamark:type=rock or natural=shoal" />
		<tag k="name" v="Sandskjæran" />
		<tag k="place" v="islet" />
		<tag k="ssr:stedsnr" v="421444" />
	</node>
	<node id="-624787" lat="65.1351944434" lon="12.2646972191">
		<tag k="fixme" v="consider seamark:type=rock or natural=shoal" />
		<tag k="name" v="Storskjæret" />
		<tag k="place" v="islet" />
		<tag k="ssr:stedsnr" v="421429" />
	</node>
	<node id="-624784" lat="65.0853222189" lon="12.3605111061">
		<tag k="name" v="Sørnaustodden" />
		<tag k="natural" v="cape" />
		<tag k="ssr:stedsnr" v="421298" />
	</node>
	<node id="-623381" lat="65.0459611072" lon="12.1407361176">
		<tag k="name" v="Sandvika" />
		<tag k="natural" v="bay" />
		<tag k="ssr:stedsnr" v="299961" />
	</node>
	<node id="-624776" lat="65.2268111094" lon="12.7939611088">
		<tag k="fixme" v="consider seamark:type=rock or natural=shoal" />
		<tag k="name" v="Røyrnesskjæret" />
		<tag k="place" v="islet" />
		<tag k="ssr:stedsnr" v="421059" />
	</node>
	<node id="-624769" lat="65.0550666695" lon="12.161058327">
		<tag k="fixme" v="consider seamark:type=rock or natural=shoal" />
		<tag k="name" v="Åkervikskjeret" />
		<tag k="place" v="islet" />
		<tag k="ssr:stedsnr" v="420923" />
	</node>
	<node id="-624766" lat="65.2237111104" lon="12.3722805591">
		<tag k="name" v="Åkervika" />
		<tag k="natural" v="bay" />
		<tag k="ssr:stedsnr" v="420860" />
	</node>
	<node id="-624751" lat="65.1962166667" lon="12.4658666659">
		<tag k="name" v="Ytterholmen" />
		<tag k="place" v="islet" />
		<tag k="ssr:stedsnr" v="420397" />
	</node>
	<node id="-624749" lat="65.1260388878" lon="12.5212361178">
		<tag k="name" v="Kalvikodden" />
		<tag k="natural" v="cape" />
		<tag k="ssr:stedsnr" v="420350" />
	</node>
	<node id="-624747" lat="65.12075833" lon="12.4333861204">
		<tag k="name" v="Haltlan" />
		<tag k="natural" v="beach" />
		<tag k="place" v="locality" />
		<tag k="ssr:stedsnr" v="420322" />
	</node>
	<node id="-624316" lat="65.225427774" lon="12.3857805654">
		<tag k="name" v="Tømmervikodden" />
		<tag k="natural" v="cape" />
		<tag k="ssr:stedsnr" v="177856" />
	</node>
	<node id="-624727" lat="65.1665388919" lon="12.2777305628">
		<tag k="name" v="Kalvstranda" />
		<tag k="natural" v="beach" />
		<tag k="place" v="locality" />
		<tag k="ssr:stedsnr" v="419136" />
	</node>
	<node id="-624722" lat="65.0579305593" lon="12.1095916591">
		<tag k="name" v="Bukkastellet" />
		<tag k="natural" v="cape" />
		<tag k="ssr:stedsnr" v="419053" />
	</node>
	<node id="-624743" lat="65.1872361117" lon="12.4361694375">
		<tag k="name" v="Bjørnvikodden" />
		<tag k="natural" v="cape" />
		<tag k="ssr:stedsnr" v="420296" />
	</node>
	<node id="-624470" lat="65.1499111154" lon="12.0258888788">
		<tag k="alt_name" v="Brunesvika" />
		<tag k="name" v="Brudenesbukta" />
		<tag k="natural" v="bay" />
		<tag k="ssr:stedsnr" v="197900" />
	</node>
	<node id="-626754" lat="64.9978305578" lon="12.2106416626">
		<tag k="name" v="Kalvvika" />
		<tag k="natural" v="bay" />
		<tag k="ssr:stedsnr" v="967936" />
	</node>
	<node id="-624705" lat="65.0769472258" lon="12.0438888863">
		<tag k="name" v="Tømmervika" />
		<tag k="natural" v="bay" />
		<tag k="ssr:stedsnr" v="418106" />
	</node>
	<node id="-624703" lat="65.0702388892" lon="12.0015222314">
		<tag k="name" v="Klemvika" />
		<tag k="natural" v="bay" />
		<tag k="ssr:stedsnr" v="418105" />
	</node>
	<node id="-626750" lat="65.0852416692" lon="12.0399277867">
		<tag k="name" v="Klakken" />
		<tag k="natural" v="shoal" />
		<tag k="place" v="locality" />
		<tag k="ssr:stedsnr" v="967842" />
	</node>
	<node id="-626749" lat="65.0934388894" lon="12.007225004">
		<tag k="name" v="Valviktrappen" />
		<tag k="natural" v="cape" />
		<tag k="ssr:stedsnr" v="967798" />
	</node>
	<node id="-626747" lat="65.1583638892" lon="12.1159444536">
		<tag k="name" v="Lilleheilsodden" />
		<tag k="natural" v="cape" />
		<tag k="ssr:stedsnr" v="967770" />
	</node>
	<node id="-624308" lat="65.208161114" lon="12.4222388991">
		<tag k="fixme" v="consider seamark:type=rock or natural=shoal" />
		<tag k="name" v="Trætnesskjæret" />
		<tag k="place" v="islet" />
		<tag k="ssr:stedsnr" v="177437" />
	</node>
	<node id="-624692" lat="65.2712916644" lon="12.3832361086">
		<tag k="name" v="Dalen" />
		<tag k="natural" v="bay" />
		<tag k="ssr:stedsnr" v="479755" />
	</node>
	<node id="-624690" lat="65.0655388852" lon="12.0554333328">
		<tag k="name" v="Sagvika" />
		<tag k="natural" v="bay" />
		<tag k="ssr:stedsnr" v="267864" />
	</node>
	<node id="-624689" lat="65.06401389" lon="12.0456416708">
		<tag k="name" v="Sagbugta" />
		<tag k="natural" v="bay" />
		<tag k="ssr:stedsnr" v="267862" />
	</node>
	<node id="-624688" lat="65.2572111074" lon="12.4088083309">
		<tag k="name" v="Svalgrasvika" />
		<tag k="natural" v="bay" />
		<tag k="ssr:stedsnr" v="258182" />
	</node>
	<node id="-624687" lat="65.2528833373" lon="12.4351333443">
		<tag k="name" v="Lavika" />
		<tag k="natural" v="bay" />
		<tag k="ssr:stedsnr" v="258179" />
	</node>
	<node id="-626734" lat="65.1208499963" lon="12.3669416718">
		<tag k="name" v="Holmen" />
		<tag k="place" v="islet" />
		<tag k="ssr:stedsnr" v="967394" />
	</node>
	<node id="-624685" lat="65.2508750039" lon="12.4250305536">
		<tag k="name" v="Grindnesodden" />
		<tag k="natural" v="cape" />
		<tag k="ssr:stedsnr" v="258168" />
	</node>
	<node id="-624684" lat="65.2569694468" lon="12.5475611041">
		<tag k="name" v="Kvitneset" />
		<tag k="natural" v="cape" />
		<tag k="old_name" v="Kvitnesset" />
		<tag k="ssr:stedsnr" v="258167" />
	</node>
	<node id="-624469" lat="65.0536388852" lon="12.1101944351">
		<tag k="bay" v="fjord" />
		<tag k="name" v="Sørfjorden" />
		<tag k="natural" v="bay" />
		<tag k="ssr:stedsnr" v="197792" />
	</node>
	<node id="-624681" lat="65.1216861073" lon="12.1215444485">
		<tag k="name" v="Røyrneset" />
		<tag k="natural" v="cape" />
		<tag k="ssr:stedsnr" v="257969" />
	</node>
	<node id="-624680" lat="65.1278333335" lon="12.114375008">
		<tag k="name" v="Løvika" />
		<tag k="natural" v="bay" />
		<tag k="ssr:stedsnr" v="257968" />
	</node>
	<node id="-626727" lat="65.0595138897" lon="12.2369472253">
		<tag k="name" v="Rotvik" />
		<tag k="natural" v="bay" />
		<tag k="ssr:stedsnr" v="966965" />
	</node>
	<node id="-624678" lat="65.2859861078" lon="11.4191611035">
		<tag k="name" v="Okstaren" />
		<tag k="natural" v="shoal" />
		<tag k="place" v="locality" />
		<tag k="ssr:stedsnr" v="257941" />
	</node>
	<node id="-624677" lat="65.2748750038" lon="11.5247388847">
		<tag k="fixme" v="consider seamark:type=rock or natural=shoal" />
		<tag k="name" v="Uerskjeret" />
		<tag k="place" v="islet" />
		<tag k="ssr:stedsnr" v="257938" />
	</node>
	<node id="-624675" lat="65.1623666649" lon="11.9858777844">
		<tag k="name" v="Setningsodden" />
		<tag k="natural" v="cape" />
		<tag k="ssr:stedsnr" v="257932" />
	</node>
	<node id="-624674" lat="65.2575277785" lon="11.6964027733">
		<tag k="name" v="Langholmen" />
		<tag k="place" v="islet" />
		<tag k="ssr:stedsnr" v="257930" />
	</node>
	<node id="-626720" lat="65.2337361103" lon="12.2858555573">
		<tag k="fixme" v="consider seamark:type=rock or natural=shoal" />
		<tag k="name" v="Haustliskjæret" />
		<tag k="place" v="islet" />
		<tag k="ssr:stedsnr" v="966853" />
	</node>
	<node id="-624670" lat="65.2440277757" lon="11.6520249997">
		<tag k="fixme" v="consider seamark:type=rock or natural=shoal" />
		<tag k="name" v="Kvitskjæret" />
		<tag k="place" v="islet" />
		<tag k="ssr:stedsnr" v="257711" />
	</node>
	<node id="-624669" lat="65.1920666639" lon="12.4142166712">
		<tag k="alt_name" v="Klubbodden" />
		<tag k="name" v="Klubben" />
		<tag k="natural" v="cape" />
		<tag k="ssr:stedsnr" v="257827" />
	</node>
	<node id="-626713" lat="65.1337305525" lon="12.5556750046">
		<tag k="name" v="Lessurholmen" />
		<tag k="place" v="islet" />
		<tag k="ssr:stedsnr" v="966708" />
	</node>
	<node id="-626711" lat="65.1142111133" lon="12.4812694366">
		<tag k="name" v="Sørvika" />
		<tag k="natural" v="bay" />
		<tag k="ssr:stedsnr" v="966699" />
	</node>
	<node id="-624662" lat="65.0745277797" lon="12.5073361128">
		<tag k="name" v="Sætervika" />
		<tag k="natural" v="bay" />
		<tag k="ssr:stedsnr" v="257505" />
	</node>
	<node id="-625423" lat="65.0539250024" lon="12.1582361033">
		<tag k="name" v="Båtvikodden" />
		<tag k="natural" v="cape" />
		<tag k="ssr:stedsnr" v="602916" />
	</node>
	<node id="-626708" lat="65.0987777789" lon="12.4005888882">
		<tag k="name" v="Klavaodden-Forrodden" />
		<tag k="natural" v="cape" />
		<tag k="ssr:stedsnr" v="966661" />
	</node>
	<node id="-626707" lat="65.0938972193" lon="12.4056111207">
		<tag k="name" v="Grøttnesodden" />
		<tag k="natural" v="cape" />
		<tag k="ssr:stedsnr" v="966658" />
	</node>
	<node id="-624643" lat="65.2020388851" lon="12.4077499976">
		<tag k="alt_name" v="Sandskjeret" />
		<tag k="fixme" v="multiple name tags, choose one and add the other to alt_name; consider seamark:type=rock or natural=shoal" />
		<tag k="name" v="Saltskjeret;Sandskjæret" />
		<tag k="place" v="islet" />
		<tag k="ssr:stedsnr" v="257303" />
	</node>
	<node id="-626702" lat="65.0794861095" lon="12.2891944478">
		<tag k="name" v="Klompen" />
		<tag k="natural" v="cape" />
		<tag k="ssr:stedsnr" v="966485" />
	</node>
	<node id="-624653" lat="65.1232944464" lon="12.4035416726">
		<tag k="name" v="Øksninga" />
		<tag k="place" v="island" />
		<tag k="ssr:stedsnr" v="257400" />
	</node>
	<node id="-623786" lat="65.1225055595" lon="12.0116777724">
		<tag k="alt_name" v="Nordsjøbukta" />
		<tag k="name" v="Nordsjøen" />
		<tag k="natural" v="bay" />
		<tag k="ssr:stedsnr" v="14950" />
	</node>
	<node id="-626699" lat="65.0863138885" lon="12.3217500049">
		<tag k="name" v="Klubbvik" />
		<tag k="natural" v="bay" />
		<tag k="ssr:stedsnr" v="966420" />
	</node>
	<node id="-626697" lat="65.1991805599" lon="12.4792361011">
		<tag k="name" v="Sommervika" />
		<tag k="natural" v="bay" />
		<tag k="ssr:stedsnr" v="966415" />
	</node>
	<node id="-626695" lat="65.1159111145" lon="12.4890138854">
		<tag k="name" v="Heimervika" />
		<tag k="natural" v="bay" />
		<tag k="ssr:stedsnr" v="966370" />
	</node>
	<node id="-626693" lat="65.1167361141" lon="12.4193666569">
		<tag k="fixme" v="consider seamark:type=rock or natural=shoal" />
		<tag k="name" v="Strandskjæret" />
		<tag k="place" v="islet" />
		<tag k="ssr:stedsnr" v="966368" />
	</node>
	<node id="-626692" lat="65.1229111152" lon="12.4455888989">
		<tag k="name" v="Svensvik" />
		<tag k="natural" v="bay" />
		<tag k="ssr:stedsnr" v="966357" />
	</node>
	<node id="-626691" lat="65.1274027793" lon="12.4294833435">
		<tag k="name" v="Råna" />
		<tag k="natural" v="bay" />
		<tag k="ssr:stedsnr" v="966354" />
	</node>
</osm>
