<?xml version="1.0" encoding="UTF-8"?>
<osm version="0.6" generator="osmapis">
	<node lat="61.017343319313646" lon="11.174252236120871" id="-35657">
		<tag k="name" v="Kamphellinga" />
		<tag k="ssr:date" v="2019-12-27" />
		<tag k="ssr:gruppe" v="veg" />
		<tag k="ssr:hovedgruppe" v="infrastruktur" />
		<tag k="ssr:stedsnr" v="988673" />
		<tag k="ssr:type" v="adressenavn" />
	</node>
	<node lat="61.014883436502814" lon="11.166042586968135" id="-35658">
		<tag k="name" v="Farmenvollen" />
		<tag k="ssr:date" v="2019-12-27" />
		<tag k="ssr:gruppe" v="veg" />
		<tag k="ssr:hovedgruppe" v="infrastruktur" />
		<tag k="ssr:stedsnr" v="988674" />
		<tag k="ssr:type" v="adressenavn" />
	</node>
	<node lat="61.022745321455005" lon="11.175011960954444" id="-35660">
		<tag k="name" v="Gamle Brennsætervegen" />
		<tag k="ssr:date" v="2019-12-27" />
		<tag k="ssr:gruppe" v="veg" />
		<tag k="ssr:hovedgruppe" v="infrastruktur" />
		<tag k="ssr:stedsnr" v="988676" />
		<tag k="ssr:type" v="adressenavn" />
	</node>
	<node lat="61.09999165044084" lon="11.05993423757555" id="-35661">
		<tag k="name" v="Prestsætervegen" />
		<tag k="ssr:date" v="2019-12-27" />
		<tag k="ssr:gruppe" v="veg" />
		<tag k="ssr:hovedgruppe" v="infrastruktur" />
		<tag k="ssr:stedsnr" v="988677" />
		<tag k="ssr:type" v="adressenavn" />
	</node>
	<node lat="60.95218917746929" lon="11.160166784439637" id="-36149">
		<tag k="name" v="Tørbustilvegen" />
		<tag k="ssr:date" v="2019-12-27" />
		<tag k="ssr:gruppe" v="veg" />
		<tag k="ssr:hovedgruppe" v="infrastruktur" />
		<tag k="ssr:stedsnr" v="988703" />
		<tag k="ssr:type" v="adressenavn" />
	</node>
	<node lat="60.946015899631625" lon="11.162839802881743" id="-36151">
		<tag k="name" v="Måsætervegen" />
		<tag k="ssr:date" v="2019-12-27" />
		<tag k="ssr:gruppe" v="veg" />
		<tag k="ssr:hovedgruppe" v="infrastruktur" />
		<tag k="ssr:stedsnr" v="988669" />
		<tag k="ssr:type" v="adressenavn" />
	</node>
	<node lat="60.950523615732784" lon="11.161131978918386" id="-36152">
		<tag k="name" v="Søndre St. Olav" />
		<tag k="ssr:date" v="2019-12-27" />
		<tag k="ssr:gruppe" v="veg" />
		<tag k="ssr:hovedgruppe" v="infrastruktur" />
		<tag k="ssr:stedsnr" v="988670" />
		<tag k="ssr:type" v="adressenavn" />
	</node>
	<node lat="61.10537283173627" lon="11.060659428089785" id="-36155">
		<tag k="name" v="Stangvollvegen" />
		<tag k="ssr:date" v="2019-12-27" />
		<tag k="ssr:gruppe" v="veg" />
		<tag k="ssr:hovedgruppe" v="infrastruktur" />
		<tag k="ssr:stedsnr" v="988678" />
		<tag k="ssr:type" v="adressenavn" />
	</node>
	<node lat="60.81516469488015" lon="11.052592718707086" id="-36156">
		<tag k="name" v="Vollgutua" />
		<tag k="ssr:date" v="2019-12-27" />
		<tag k="ssr:gruppe" v="veg" />
		<tag k="ssr:hovedgruppe" v="infrastruktur" />
		<tag k="ssr:stedsnr" v="988725" />
		<tag k="ssr:type" v="adressenavn" />
	</node>
	<node lat="60.90730959746913" lon="11.096611094520329" id="-36157">
		<tag k="name" v="Gråbendalsvegen" />
		<tag k="ssr:date" v="2019-12-27" />
		<tag k="ssr:gruppe" v="veg" />
		<tag k="ssr:hovedgruppe" v="infrastruktur" />
		<tag k="ssr:stedsnr" v="988704" />
		<tag k="ssr:type" v="adressenavn" />
	</node>
	<node lat="60.943971172729505" lon="11.106482551317304" id="-36158">
		<tag k="name" v="Langholsvegen" />
		<tag k="ssr:date" v="2019-12-27" />
		<tag k="ssr:gruppe" v="veg" />
		<tag k="ssr:hovedgruppe" v="infrastruktur" />
		<tag k="ssr:stedsnr" v="988705" />
		<tag k="ssr:type" v="adressenavn" />
	</node>
	<node lat="61.030327307533575" lon="11.182371400576532" id="-36163">
		<tag k="name" v="Nordre Brennsætervegen" />
		<tag k="ssr:date" v="2019-12-27" />
		<tag k="ssr:gruppe" v="veg" />
		<tag k="ssr:hovedgruppe" v="infrastruktur" />
		<tag k="ssr:stedsnr" v="988710" />
		<tag k="ssr:type" v="adressenavn" />
	</node>
	<node lat="61.06047700811349" lon="11.159219010653889" id="-36164">
		<tag k="name" v="Jomfrudalsvegen" />
		<tag k="ssr:date" v="2019-12-27" />
		<tag k="ssr:gruppe" v="veg" />
		<tag k="ssr:hovedgruppe" v="infrastruktur" />
		<tag k="ssr:stedsnr" v="988711" />
		<tag k="ssr:type" v="adressenavn" />
	</node>
	<node lat="61.08037818319441" lon="11.129437791916384" id="-36165">
		<tag k="name" v="Åstholmvegen" />
		<tag k="ssr:date" v="2019-12-27" />
		<tag k="ssr:gruppe" v="veg" />
		<tag k="ssr:hovedgruppe" v="infrastruktur" />
		<tag k="ssr:stedsnr" v="988712" />
		<tag k="ssr:type" v="adressenavn" />
	</node>
	<node lat="61.10428610406792" lon="11.0635243322448" id="-36167">
		<tag k="name" v="Bubekkvegen" />
		<tag k="ssr:date" v="2019-12-27" />
		<tag k="ssr:gruppe" v="veg" />
		<tag k="ssr:hovedgruppe" v="infrastruktur" />
		<tag k="ssr:stedsnr" v="988714" />
		<tag k="ssr:type" v="adressenavn" />
	</node>
	<node lat="60.92924592200019" lon="11.135474602807992" id="-36168">
		<tag k="name" v="Svartdalsvegen" />
		<tag k="ssr:date" v="2019-12-27" />
		<tag k="ssr:gruppe" v="veg" />
		<tag k="ssr:hovedgruppe" v="infrastruktur" />
		<tag k="ssr:stedsnr" v="988715" />
		<tag k="ssr:type" v="adressenavn" />
	</node>
	<node lat="61.1025203257091" lon="11.057284670859133" id="-36169">
		<tag k="name" v="Eggedalsvegen" />
		<tag k="ssr:date" v="2019-12-27" />
		<tag k="ssr:gruppe" v="veg" />
		<tag k="ssr:hovedgruppe" v="infrastruktur" />
		<tag k="ssr:stedsnr" v="988717" />
		<tag k="ssr:type" v="adressenavn" />
	</node>
	<node lat="60.89575365650851" lon="11.204607182356062" id="-36171">
		<tag k="name" v="Ormsætermyrvegen" />
		<tag k="ssr:date" v="2019-12-27" />
		<tag k="ssr:gruppe" v="veg" />
		<tag k="ssr:hovedgruppe" v="infrastruktur" />
		<tag k="ssr:stedsnr" v="988719" />
		<tag k="ssr:type" v="adressenavn" />
	</node>
	<node lat="60.829561886276856" lon="11.138477793051468" id="-36178">
		<tag k="name" v="Skogsrudvegen" />
		<tag k="ssr:date" v="2019-12-27" />
		<tag k="ssr:gruppe" v="veg" />
		<tag k="ssr:hovedgruppe" v="infrastruktur" />
		<tag k="ssr:stedsnr" v="988728" />
		<tag k="ssr:type" v="adressenavn" />
	</node>
	<node lat="60.82925819574006" lon="11.140013235364107" id="-36179">
		<tag k="name" v="Jevnevegen" />
		<tag k="ssr:date" v="2019-12-27" />
		<tag k="ssr:gruppe" v="veg" />
		<tag k="ssr:hovedgruppe" v="infrastruktur" />
		<tag k="ssr:stedsnr" v="988729" />
		<tag k="ssr:type" v="adressenavn" />
	</node>
	<node lat="60.882308665668944" lon="11.179510134243639" id="-36184">
		<tag k="name" v="Øvre Kirkeby" />
		<tag k="ssr:date" v="2020-05-06" />
		<tag k="ssr:gruppe" v="veg" />
		<tag k="ssr:hovedgruppe" v="infrastruktur" />
		<tag k="ssr:stedsnr" v="988742" />
		<tag k="ssr:type" v="adressenavn" />
	</node>
	<node lat="60.891246307654576" lon="11.198723821562549" id="-36186">
		<tag k="name" v="Ormsætertajet" />
		<tag k="ssr:date" v="2019-12-27" />
		<tag k="ssr:gruppe" v="veg" />
		<tag k="ssr:hovedgruppe" v="infrastruktur" />
		<tag k="ssr:stedsnr" v="988744" />
		<tag k="ssr:type" v="adressenavn" />
	</node>
	<node lat="60.87563177961108" lon="11.1275197179018" id="-36192">
		<tag k="name" v="Berglia" />
		<tag k="ssr:date" v="2019-12-27" />
		<tag k="ssr:gruppe" v="veg" />
		<tag k="ssr:hovedgruppe" v="infrastruktur" />
		<tag k="ssr:stedsnr" v="988751" />
		<tag k="ssr:type" v="adressenavn" />
	</node>
	<node lat="60.84078543187059" lon="11.084585677801243" id="-36642">
		<tag k="name" v="Hagastubben" />
		<tag k="ssr:date" v="2021-08-24" />
		<tag k="ssr:gruppe" v="veg" />
		<tag k="ssr:hovedgruppe" v="infrastruktur" />
		<tag k="ssr:stedsnr" v="1082036" />
		<tag k="ssr:type" v="adressenavn" />
	</node>
	<node lat="60.841449081849674" lon="11.200599488980721" id="-36645">
		<tag k="name" v="Sandevegen" />
		<tag k="ssr:date" v="2021-11-11" />
		<tag k="ssr:gruppe" v="veg" />
		<tag k="ssr:hovedgruppe" v="infrastruktur" />
		<tag k="ssr:stedsnr" v="1082886" />
		<tag k="ssr:type" v="adressenavn" />
	</node>
</osm>
