<?xml version="1.0" encoding="UTF-8"?>
<osm generator="osmapis" version="0.6">
	<node id="-121856" lat="65.365291666" lon="13.0017027884">
		<tag k="name" v="Tjyvmyra" />
		<tag k="natural" v="wetland" />
		<tag k="ssr:stedsnr" v="721542" />
	</node>
	<node id="-121343" lat="65.3916583364" lon="12.4576555567">
		<tag k="name" v="Jøtmyra" />
		<tag k="natural" v="wetland" />
		<tag k="ssr:stedsnr" v="660207" />
	</node>
	<node id="-121854" lat="65.3245194405" lon="13.0075638919">
		<tag k="name" v="Brattmelen" />
		<tag k="place" v="locality" />
		<tag k="ssr:stedsnr" v="721540" />
	</node>
	<node id="-120826" lat="65.3371916629" lon="12.5133750026">
		<tag k="historic" v="shieling" />
		<tag k="name" v="Gjerdhaugen" />
		<tag k="place" v="locality" />
		<tag k="ssr:stedsnr" v="297953" />
	</node>
	<node id="-120824" lat="65.4125055568" lon="12.2728388904">
		<tag k="historic" v="shieling" />
		<tag k="name" v="Aunenget" />
		<tag k="place" v="locality" />
		<tag k="ssr:stedsnr" v="297872" />
	</node>
	<node id="-122871" lat="65.3800333309" lon="12.6016194354">
		<tag k="name" v="Småheimyra" />
		<tag k="natural" v="wetland" />
		<tag k="ssr:stedsnr" v="57586" />
	</node>
	<node id="-122870" lat="65.3673749997" lon="12.5684166642">
		<tag k="name" v="Valdskiftmyra" />
		<tag k="natural" v="wetland" />
		<tag k="ssr:stedsnr" v="57577" />
	</node>
	<node id="-123893" lat="65.4167805529" lon="12.6046416643">
		<tag k="name" v="Trappmyra" />
		<tag k="natural" v="wetland" />
		<tag k="ssr:stedsnr" v="422488" />
	</node>
	<node id="-120304" lat="65.5213888902" lon="12.3578444531">
		<tag k="name" v="Flyan" />
		<tag k="natural" v="wetland" />
		<tag k="ssr:stedsnr" v="236181" />
	</node>
	<node id="-122863" lat="65.4302749958" lon="12.6464083375">
		<tag k="name" v="Innerenget" />
		<tag k="place" v="locality" />
		<tag k="ssr:stedsnr" v="57392" />
	</node>
	<node id="-121838" lat="65.496425" lon="12.3101388805">
		<tag k="name" v="Smibakkan" />
		<tag k="place" v="locality" />
		<tag k="ssr:stedsnr" v="721253" />
	</node>
	<node id="-120813" lat="65.267736113" lon="12.6135833377">
		<tag k="name" v="Granvollan" />
		<tag k="place" v="locality" />
		<tag k="ssr:stedsnr" v="297363" />
	</node>
	<node id="-122860" lat="65.3663638862" lon="12.6822916731">
		<tag k="name" v="Oddmyra" />
		<tag k="natural" v="wetland" />
		<tag k="ssr:stedsnr" v="57192" />
	</node>
	<node id="-121321" lat="65.3947333346" lon="12.5653666595">
		<tag k="name" v="Klomningsmyran" />
		<tag k="natural" v="wetland" />
		<tag k="ssr:stedsnr" v="422736" />
	</node>
	<node id="-123878" lat="65.392380557" lon="12.6187527775">
		<tag k="name" v="Stakkskogan" />
		<tag k="place" v="locality" />
		<tag k="ssr:stedsnr" v="421585" />
	</node>
	<node id="-122341" lat="65.3926249959" lon="12.5587583235">
		<tag k="name" v="Bjønnåkeren" />
		<tag k="place" v="locality" />
		<tag k="ssr:stedsnr" v="786754" />
	</node>
	<node id="-120803" lat="65.5201388919" lon="12.3773416768">
		<tag k="name" v="Jobekselmyra" />
		<tag k="natural" v="wetland" />
		<tag k="ssr:stedsnr" v="297195" />
	</node>
	<node id="-120801" lat="65.5330111124" lon="12.2573861128">
		<tag k="landuse" v="meadow" />
		<tag k="name" v="Osmyra" />
		<tag k="ssr:stedsnr" v="297166" />
	</node>
	<node id="-120800" lat="65.2890055528" lon="12.939711115">
		<tag k="name" v="Kerstimyra" />
		<tag k="natural" v="wetland" />
		<tag k="ssr:stedsnr" v="297165" />
	</node>
	<node id="-123216" lat="65.2639500022" lon="12.7639666668">
		<tag k="name" v="Langmyra" />
		<tag k="natural" v="wetland" />
		<tag k="ssr:stedsnr" v="300377" />
	</node>
	<node id="-123557" lat="65.5211722264" lon="12.2690833313">
		<tag k="landuse" v="meadow" />
		<tag k="name" v="Nylandet" />
		<tag k="ssr:stedsnr" v="357109" />
	</node>
	<node id="-121307" lat="65.2688888866" lon="12.6565111053">
		<tag k="landuse" v="meadow" />
		<tag k="name" v="Nedre Bergenget" />
		<tag k="ssr:stedsnr" v="421325" />
	</node>
	<node id="-123866" lat="65.4035083313" lon="12.6704388898">
		<tag k="name" v="Urdvikdalen" />
		<tag k="natural" v="wetland" />
		<tag k="ssr:stedsnr" v="421184" />
	</node>
	<node id="-121304" lat="65.2434555542" lon="12.7676055505">
		<tag k="name" v="Skogan" />
		<tag k="place" v="locality" />
		<tag k="ssr:stedsnr" v="421313" />
	</node>
	<node id="-123467" lat="65.4801694432" lon="12.4024861088">
		<tag k="name" v="Sørmarkmyran" />
		<tag k="natural" v="wetland" />
		<tag k="ssr:stedsnr" v="318304" />
	</node>
	<node id="-122324" lat="65.3954666642" lon="12.5562305542">
		<tag k="name" v="Torvskjåen" />
		<tag k="natural" v="wetland" />
		<tag k="ssr:stedsnr" v="908782" />
	</node>
	<node id="-120787" lat="65.5877111072" lon="12.6053166589">
		<tag k="name" v="Forsengan" />
		<tag k="place" v="locality" />
		<tag k="ssr:stedsnr" v="296779" />
	</node>
	<node id="-123344" lat="65.392111108" lon="12.5647916564">
		<tag k="name" v="Olderskogan" />
		<tag k="place" v="locality" />
		<tag k="ssr:stedsnr" v="179726" />
	</node>
	<node id="-123854" lat="65.4674055577" lon="12.1577527742">
		<tag k="name" v="Fjellsøymarka" />
		<tag k="place" v="locality" />
		<tag k="ssr:stedsnr" v="420368" />
	</node>
	<node id="-120269" lat="65.3953999962" lon="12.5060749957">
		<tag k="name" v="Stormyra" />
		<tag k="natural" v="wetland" />
		<tag k="ssr:stedsnr" v="235244" />
	</node>
	<node id="-120268" lat="65.3915611095" lon="12.5003694514">
		<tag k="name" v="Stimyra" />
		<tag k="natural" v="wetland" />
		<tag k="ssr:stedsnr" v="235238" />
	</node>
	<node id="-120779" lat="65.3442194491" lon="12.5017916566">
		<tag k="name" v="Lessengmyra" />
		<tag k="natural" v="wetland" />
		<tag k="ssr:stedsnr" v="296603" />
	</node>
	<node id="-120266" lat="65.3213583296" lon="12.9737055579">
		<tag k="name" v="Høgmoengan" />
		<tag k="natural" v="wetland" />
		<tag k="ssr:stedsnr" v="235068" />
	</node>
	<node id="-122824" lat="65.3628888859" lon="12.7158305508">
		<tag k="name" v="Nordmarka" />
		<tag k="place" v="locality" />
		<tag k="ssr:stedsnr" v="56130" />
	</node>
	<node id="-123334" lat="65.3138861141" lon="12.623122215">
		<tag k="name" v="Hesimyra" />
		<tag k="natural" v="wetland" />
		<tag k="ssr:stedsnr" v="178783" />
	</node>
	<node id="-121846" lat="65.3699500006" lon="12.5204333387">
		<tag k="name" v="Haramyra" />
		<tag k="natural" v="wetland" />
		<tag k="ssr:stedsnr" v="721457" />
	</node>
	<node id="-121794" lat="65.5586051704" lon="12.3110155983">
		<tag k="name" v="Langmyra" />
		<tag k="natural" v="wetland" />
		<tag k="ssr:stedsnr" v="599791" />
	</node>
	<node id="-124235" lat="65.4108611156" lon="12.6541833232">
		<tag k="name" v="Tjønna" />
		<tag k="natural" v="wetland" />
		<tag k="ssr:stedsnr" v="604484" />
	</node>
	<node id="-123125" lat="65.4126055585" lon="12.5418750039">
		<tag k="name" v="Sonnienget" />
		<tag k="natural" v="wetland" />
		<tag k="ssr:stedsnr" v="119535" />
	</node>
	<node id="-123142" lat="65.4970499988" lon="12.391597226">
		<tag k="fixme" v="multiple name tags, choose one and add the other to alt_name" />
		<tag k="name" v="Bjørklimyra;Gåsheimyra" />
		<tag k="natural" v="wetland" />
		<tag k="ssr:stedsnr" v="135249" />
	</node>
	<node id="-123316" lat="65.3191138854" lon="12.9325888855">
		<tag k="name" v="Gjeitura" />
		<tag k="natural" v="scree" />
		<tag k="ssr:stedsnr" v="178246" />
	</node>
	<node id="-124851" lat="65.3416805532" lon="12.6402555655">
		<tag k="name" v="Sagmyra" />
		<tag k="natural" v="wetland" />
		<tag k="ssr:stedsnr" v="847689" />
	</node>
	<node id="-122290" lat="65.2741694457" lon="12.6603833309">
		<tag k="name" v="Staulan" />
		<tag k="place" v="locality" />
		<tag k="ssr:stedsnr" v="906341" />
	</node>
	<node id="-123825" lat="65.3440250043" lon="12.4960500078">
		<tag k="name" v="Vassåsmyra" />
		<tag k="natural" v="wetland" />
		<tag k="ssr:stedsnr" v="418594" />
	</node>
	<node id="-122799" lat="65.4974694433" lon="12.3552277693">
		<tag k="landuse" v="meadow" />
		<tag k="name" v="Bjønnstakkan" />
		<tag k="ssr:stedsnr" v="54293" />
	</node>
	<node id="-122286" lat="65.5840722188" lon="12.5751527715">
		<tag k="name" v="Storurda" />
		<tag k="natural" v="scree" />
		<tag k="ssr:stedsnr" v="744871" />
	</node>
	<node id="-121772" lat="65.2666083292" lon="12.5949583426">
		<tag k="name" v="Brennmyra" />
		<tag k="natural" v="wetland" />
		<tag k="ssr:stedsnr" v="570274" />
	</node>
	<node id="-121259" lat="65.2620416647" lon="12.7929249932">
		<tag k="name" v="Stormyra" />
		<tag k="natural" v="wetland" />
		<tag k="ssr:stedsnr" v="501997" />
	</node>
	<node id="-122281" lat="65.2738166672" lon="12.6480111127">
		<tag k="landuse" v="meadow" />
		<tag k="name" v="Åkrokenget" />
		<tag k="ssr:stedsnr" v="906374" />
	</node>
	<node id="-120231" lat="65.3531388848" lon="12.7216222244">
		<tag k="name" v="Forsmarka" />
		<tag k="place" v="locality" />
		<tag k="ssr:stedsnr" v="15114" />
	</node>
	<node id="-120224" lat="65.4630861108" lon="12.1648749936">
		<tag k="name" v="Klubbøyvalen" />
		<tag k="place" v="locality" />
		<tag k="ssr:stedsnr" v="222302" />
	</node>
	<node id="-122783" lat="65.4951222263" lon="12.3313333421">
		<tag k="name" v="Libakkan" />
		<tag k="place" v="locality" />
		<tag k="ssr:stedsnr" v="54192" />
	</node>
	<node id="-123806" lat="65.4165083355" lon="12.5001027856">
		<tag k="name" v="Røysblesa" />
		<tag k="natural" v="scree" />
		<tag k="ssr:stedsnr" v="418243" />
	</node>
	<node id="-122781" lat="65.5219083329" lon="12.2830777843">
		<tag k="landuse" v="meadow" />
		<tag k="name" v="Skallin" />
		<tag k="ssr:stedsnr" v="54098" />
	</node>
	<node id="-124828" lat="65.3615166711" lon="12.5654749967">
		<tag k="name" v="Mellomtrongmyra" />
		<tag k="natural" v="wetland" />
		<tag k="ssr:stedsnr" v="846881" />
	</node>
	<node id="-124312" lat="65.4506166648" lon="12.3190361022">
		<tag k="name" v="Åsmyran" />
		<tag k="natural" v="wetland" />
		<tag k="ssr:stedsnr" v="621479" />
	</node>
	<node id="-124841" lat="65.2769416662" lon="12.7780888938">
		<tag k="name" v="Tverrliskogan" />
		<tag k="place" v="locality" />
		<tag k="ssr:stedsnr" v="847418" />
	</node>
	<node id="-122771" lat="65.304372221" lon="12.5130611026">
		<tag k="name" v="Åneset" />
		<tag k="natural" v="wetland" />
		<tag k="ssr:stedsnr" v="53564" />
	</node>
	<node id="-122768" lat="65.435861109" lon="12.4933805611">
		<tag k="name" v="Krokbekkmyra" />
		<tag k="natural" v="wetland" />
		<tag k="ssr:stedsnr" v="53344" />
	</node>
	<node id="-124303" lat="65.3854972247" lon="12.6053416645">
		<tag k="name" v="Vollan" />
		<tag k="place" v="locality" />
		<tag k="ssr:stedsnr" v="621404" />
	</node>
	<node id="-120718" lat="65.2600916632" lon="12.7792500096">
		<tag k="name" v="Brekkmyra" />
		<tag k="natural" v="wetland" />
		<tag k="ssr:stedsnr" v="179372" />
	</node>
	<node id="-122765" lat="65.4235388872" lon="12.0738333278">
		<tag k="landuse" v="meadow" />
		<tag k="name" v="Yttertjønna" />
		<tag k="ssr:stedsnr" v="299994" />
	</node>
	<node id="-124812" lat="65.2841999979" lon="12.8314305578">
		<tag k="name" v="Åsmyra" />
		<tag k="natural" v="wetland" />
		<tag k="ssr:stedsnr" v="846364" />
	</node>
	<node id="-124226" lat="65.3604027747" lon="12.5349694404">
		<tag k="name" v="Sandvikmyra" />
		<tag k="natural" v="wetland" />
		<tag k="ssr:stedsnr" v="602860" />
	</node>
	<node id="-122762" lat="65.2181561778" lon="12.7300607341">
		<tag k="name" v="Langurda" />
		<tag k="natural" v="scree" />
		<tag k="ssr:stedsnr" v="36644" />
	</node>
	<node id="-120711" lat="65.3939999974" lon="12.605944447">
		<tag k="name" v="Tullhaugmyra" />
		<tag k="natural" v="wetland" />
		<tag k="ssr:stedsnr" v="178569" />
	</node>
	<node id="-122945" lat="65.4289333355" lon="12.6022138869">
		<tag k="name" v="Nevernesmyra" />
		<tag k="natural" v="wetland" />
		<tag k="old_name" v="Nemnesmyra" />
		<tag k="ssr:stedsnr" v="75391" />
	</node>
	<node id="-124801" lat="65.3793750008" lon="12.7083055564">
		<tag k="name" v="Lamarkmyra" />
		<tag k="natural" v="wetland" />
		<tag k="ssr:stedsnr" v="846156" />
	</node>
	<node id="-120704" lat="65.268008336" lon="12.6631472206">
		<tag k="landuse" v="meadow" />
		<tag k="name" v="Øvre Bergenget" />
		<tag k="ssr:stedsnr" v="178315" />
	</node>
	<node id="-123712" lat="65.3378083308" lon="12.5247500036">
		<tag k="name" v="Tømmeråsmyra" />
		<tag k="natural" v="wetland" />
		<tag k="ssr:stedsnr" v="378363" />
	</node>
	<node id="-123106" lat="65.3728611132" lon="12.6181777823">
		<tag k="name" v="Lomtjønnmyra" />
		<tag k="natural" v="wetland" />
		<tag k="ssr:stedsnr" v="117629" />
	</node>
	<node id="-120701" lat="65.2961916705" lon="12.5677611201">
		<tag k="name" v="Oddamyra" />
		<tag k="natural" v="wetland" />
		<tag k="ssr:stedsnr" v="178306" />
	</node>
	<node id="-122748" lat="65.4667222244" lon="12.1768583413">
		<tag k="name" v="Brannøyvalen" />
		<tag k="place" v="locality" />
		<tag k="ssr:stedsnr" v="16680" />
	</node>
	<node id="-121721" lat="65.370861115" lon="12.5989083274">
		<tag k="name" v="Stormyra" />
		<tag k="natural" v="wetland" />
		<tag k="ssr:stedsnr" v="299644" />
	</node>
	<node id="-124791" lat="65.4588972182" lon="12.164227777">
		<tag k="name" v="Innergjerdet" />
		<tag k="place" v="locality" />
		<tag k="ssr:stedsnr" v="845762" />
	</node>
	<node id="-121718" lat="65.3819916679" lon="12.6102666678">
		<tag k="name" v="Øvre Storbekkgranskogmyra" />
		<tag k="natural" v="wetland" />
		<tag k="ssr:stedsnr" v="299624" />
	</node>
	<node id="-120692" lat="65.3030972176" lon="12.7500472297">
		<tag k="name" v="Staulengmyra" />
		<tag k="natural" v="wetland" />
		<tag k="ssr:stedsnr" v="177172" />
	</node>
	<node id="-123941" lat="65.5238749971" lon="12.3041277694">
		<tag k="name" v="Makadalsurda" />
		<tag k="natural" v="scree" />
		<tag k="ssr:stedsnr" v="539075" />
	</node>
	<node id="-121200" lat="65.3180333372" lon="12.9847388821">
		<tag k="name" v="Sørmarka" />
		<tag k="place" v="locality" />
		<tag k="ssr:stedsnr" v="500038" />
	</node>
	<node id="-124263" lat="65.4503027811" lon="12.8145861173">
		<tag k="name" v="Nordmarka" />
		<tag k="place" v="locality" />
		<tag k="ssr:stedsnr" v="621062" />
	</node>
	<node id="-122213" lat="65.492475003" lon="12.35151666">
		<tag k="name" v="Jøsmyra" />
		<tag k="natural" v="wetland" />
		<tag k="ssr:stedsnr" v="904583" />
	</node>
	<node id="-123236" lat="65.5148777802" lon="12.2595944386">
		<tag k="name" v="Kleivåsmyra" />
		<tag k="natural" v="wetland" />
		<tag k="ssr:stedsnr" v="175135" />
	</node>
	<node id="-123234" lat="65.5307611143" lon="12.3406999989">
		<tag k="name" v="Staulan" />
		<tag k="natural" v="wetland" />
		<tag k="ssr:stedsnr" v="175128" />
	</node>
	<node id="-121697" lat="65.3191555551" lon="12.6574777876">
		<tag k="landuse" v="meadow" />
		<tag k="name" v="Bakkenget" />
		<tag k="ssr:stedsnr" v="542807" />
	</node>
	<node id="-123744" lat="65.2665833366" lon="12.8055749991">
		<tag k="name" v="Hestamarka" />
		<tag k="place" v="locality" />
		<tag k="ssr:stedsnr" v="379063" />
	</node>
	<node id="-120670" lat="65.3643194483" lon="12.5716888993">
		<tag k="name" v="Holåsmyra" />
		<tag k="natural" v="wetland" />
		<tag k="ssr:stedsnr" v="299869" />
	</node>
	<node id="-121691" lat="65.3931000018" lon="12.6824527809">
		<tag k="name" v="Hestmyra" />
		<tag k="natural" v="wetland" />
		<tag k="ssr:stedsnr" v="542181" />
	</node>
	<node id="-121690" lat="65.366497219" lon="12.6821527867">
		<tag k="name" v="Oddmyra" />
		<tag k="natural" v="wetland" />
		<tag k="ssr:stedsnr" v="542174" />
	</node>
	<node id="-121689" lat="65.2541777774" lon="12.6930611114">
		<tag k="landuse" v="meadow" />
		<tag k="name" v="Beinengan" />
		<tag k="ssr:stedsnr" v="542162" />
	</node>
	<node id="-122712" lat="65.3614555598" lon="12.6865972243">
		<tag k="name" v="Langåsmyra" />
		<tag k="natural" v="wetland" />
		<tag k="ssr:stedsnr" v="15375" />
	</node>
	<node id="-124757" lat="65.5427166664" lon="12.5506694382">
		<tag k="name" v="Lars-Jenså-steinen" />
		<tag k="natural" v="stone" />
		<tag k="ssr:stedsnr" v="843779" />
	</node>
	<node id="-121172" lat="65.4287444405" lon="12.6479250056">
		<tag k="name" v="Innerenget" />
		<tag k="place" v="locality" />
		<tag k="ssr:stedsnr" v="361515" />
	</node>
	<node id="-123875" lat="65.3822805583" lon="12.6775944528">
		<tag k="landuse" v="meadow" />
		<tag k="name" v="Kalvgarden" />
		<tag k="ssr:stedsnr" v="421379" />
	</node>
	<node id="-122192" lat="65.5947111071" lon="12.5853361175">
		<tag k="name" v="Lessfjellmarka" />
		<tag k="place" v="locality" />
		<tag k="ssr:stedsnr" v="903787" />
	</node>
	<node id="-120655" lat="65.3243888916" lon="12.4604499977">
		<tag k="name" v="Lamurda" />
		<tag k="natural" v="scree" />
		<tag k="ssr:stedsnr" v="136321" />
	</node>
	<node id="-122190" lat="65.4220472191" lon="12.7796611205">
		<tag k="name" v="Vargmyra" />
		<tag k="natural" v="wetland" />
		<tag k="ssr:stedsnr" v="903932" />
	</node>
	<node id="-124025" lat="65.2879527745" lon="12.6170083425">
		<tag k="name" v="Votnengmyra" />
		<tag k="natural" v="wetland" />
		<tag k="ssr:stedsnr" v="542836" />
	</node>
	<node id="-122187" lat="65.5973833303" lon="12.5380555641">
		<tag k="name" v="Sjømyra" />
		<tag k="natural" v="wetland" />
		<tag k="ssr:stedsnr" v="903774" />
	</node>
	<node id="-122185" lat="65.3078055535" lon="12.4781527696">
		<tag k="name" v="Kartmyra" />
		<tag k="natural" v="wetland" />
		<tag k="ssr:stedsnr" v="903544" />
	</node>
	<node id="-124329" lat="65.4404583363" lon="12.2807944485">
		<tag k="name" v="Finnvikmyran" />
		<tag k="natural" v="wetland" />
		<tag k="ssr:stedsnr" v="621548" />
	</node>
	<node id="-120615" lat="65.376713889" lon="12.5663694338">
		<tag k="name" v="Myrenget" />
		<tag k="natural" v="wetland" />
		<tag k="ssr:stedsnr" v="117602" />
	</node>
	<node id="-121154" lat="65.3376833305" lon="12.7176944456">
		<tag k="name" v="Austdalsmyra" />
		<tag k="natural" v="wetland" />
		<tag k="ssr:stedsnr" v="359906" />
	</node>
	<node id="-124225" lat="65.2825916653" lon="12.6409083352">
		<tag k="name" v="Stakkstongmyra" />
		<tag k="natural" v="wetland" />
		<tag k="ssr:stedsnr" v="602857" />
	</node>
	<node id="-122176" lat="65.4137444484" lon="12.4555138996">
		<tag k="name" v="Sjøenget" />
		<tag k="natural" v="wetland" />
		<tag k="ssr:stedsnr" v="903341" />
	</node>
	<node id="-122175" lat="65.4298222247" lon="12.4979277771">
		<tag k="name" v="Stormyra" />
		<tag k="natural" v="wetland" />
		<tag k="ssr:stedsnr" v="903332" />
	</node>
	<node id="-124732" lat="65.3432888897" lon="12.9819472264">
		<tag k="name" v="Røyrvollmyra" />
		<tag k="natural" v="wetland" />
		<tag k="ssr:stedsnr" v="843370" />
	</node>
	<node id="-124218" lat="65.3162083336" lon="12.648591673">
		<tag k="name" v="Rafeljordet" />
		<tag k="place" v="locality" />
		<tag k="ssr:stedsnr" v="602803" />
	</node>
	<node id="-120632" lat="65.2897027775" lon="12.6231777794">
		<tag k="landuse" v="meadow" />
		<tag k="name" v="Knutenget" />
		<tag k="ssr:stedsnr" v="117839" />
	</node>
	<node id="-120628" lat="65.2943583324" lon="12.6229305449">
		<tag k="name" v="Sandstimyra" />
		<tag k="natural" v="wetland" />
		<tag k="ssr:stedsnr" v="117829" />
	</node>
	<node id="-120626" lat="65.3148138888" lon="12.6369944346">
		<tag k="landuse" v="meadow" />
		<tag k="name" v="Åsenget" />
		<tag k="ssr:stedsnr" v="117806" />
	</node>
	<node id="-123955" lat="65.5377861146" lon="12.2538083338">
		<tag k="landuse" v="meadow" />
		<tag k="name" v="Langheia" />
		<tag k="ssr:stedsnr" v="539624" />
	</node>
	<node id="-123183" lat="65.3023222191" lon="12.5701694475">
		<tag k="name" v="Grønlandet" />
		<tag k="place" v="locality" />
		<tag k="ssr:stedsnr" v="136236" />
	</node>
	<node id="-124717" lat="65.3524916653" lon="12.9988250006">
		<tag k="name" v="Øverenget" />
		<tag k="natural" v="beach" />
		<tag k="ssr:stedsnr" v="842547" />
		<tag k="surface" v="sand" />
	</node>
	<node id="-121644" lat="65.3669055556" lon="12.5257333232">
		<tag k="name" v="Skogengmyra" />
		<tag k="natural" v="wetland" />
		<tag k="ssr:stedsnr" v="539444" />
	</node>
	<node id="-124715" lat="65.3074972235" lon="12.4736972237">
		<tag k="name" v="Krokbekkmyra" />
		<tag k="natural" v="wetland" />
		<tag k="ssr:stedsnr" v="842568" />
	</node>
	<node id="-122152" lat="65.4181166638" lon="12.6358166704">
		<tag k="name" v="Storsteinurda" />
		<tag k="natural" v="scree" />
		<tag k="ssr:stedsnr" v="726505" />
	</node>
	<node id="-124199" lat="65.298719445" lon="12.592888882">
		<tag k="landuse" v="meadow" />
		<tag k="name" v="Lessenget" />
		<tag k="ssr:stedsnr" v="602324" />
	</node>
	<node id="-124197" lat="65.4862694466" lon="12.2382333438">
		<tag k="name" v="Salhusmarka" />
		<tag k="place" v="locality" />
		<tag k="ssr:stedsnr" v="602291" />
	</node>
	<node id="-121124" lat="65.3278555573" lon="12.5469527749">
		<tag k="name" v="Mølnhusenget" />
		<tag k="place" v="locality" />
		<tag k="ssr:stedsnr" v="483713" />
	</node>
	<node id="-123171" lat="65.4186777794" lon="12.0617416663">
		<tag k="alt_name" v="Svartskogen" />
		<tag k="name" v="Svartskogan" />
		<tag k="place" v="locality" />
		<tag k="ssr:stedsnr" v="136066" />
	</node>
	<node id="-121633" lat="65.2960750038" lon="12.5493499973">
		<tag k="name" v="Rundmyra" />
		<tag k="natural" v="wetland" />
		<tag k="ssr:stedsnr" v="299348" />
	</node>
	<node id="-121118" lat="65.2842666708" lon="13.0579500029">
		<tag k="name" v="Nesjan" />
		<tag k="natural" v="wetland" />
		<tag k="ssr:stedsnr" v="483239" />
	</node>
	<node id="-120392" lat="65.2834611123" lon="12.6055527846">
		<tag k="landuse" v="meadow" />
		<tag k="name" v="Heienget" />
		<tag k="ssr:stedsnr" v="56828" />
	</node>
	<node id="-122652" lat="65.4285722222" lon="12.6403499997">
		<tag k="name" v="Heimerenget" />
		<tag k="place" v="locality" />
		<tag k="ssr:stedsnr" v="968512" />
	</node>
	<node id="-122133" lat="65.4795666633" lon="12.102877768">
		<tag k="name" v="Vikervassmyra" />
		<tag k="natural" v="wetland" />
		<tag k="ssr:stedsnr" v="724365" />
	</node>
	<node id="-123662" lat="65.3947333354" lon="12.5793666633">
		<tag k="name" v="Stormyra" />
		<tag k="natural" v="wetland" />
		<tag k="ssr:stedsnr" v="361742" />
	</node>
	<node id="-124465" lat="65.5209805558" lon="12.5229944506">
		<tag k="name" v="Stormyra" />
		<tag k="natural" v="wetland" />
		<tag k="ssr:stedsnr" v="782092" />
	</node>
	<node id="-124049" lat="65.3402777787" lon="12.5312888918">
		<tag k="name" v="Bunesmyra" />
		<tag k="natural" v="wetland" />
		<tag k="ssr:stedsnr" v="543680" />
	</node>
	<node id="-123656" lat="65.2855305594" lon="13.0564611017">
		<tag k="name" v="Langmyra" />
		<tag k="natural" v="wetland" />
		<tag k="ssr:stedsnr" v="361230" />
	</node>
	<node id="-123654" lat="65.2827916643" lon="12.6629361148">
		<tag k="name" v="Stormyra" />
		<tag k="natural" v="wetland" />
		<tag k="ssr:stedsnr" v="360847" />
	</node>
	<node id="-123653" lat="65.357694448" lon="12.5879583354">
		<tag k="name" v="Nedbrautskogan" />
		<tag k="place" v="locality" />
		<tag k="ssr:stedsnr" v="360838" />
	</node>
	<node id="-120579" lat="65.5383861113" lon="12.5802388923">
		<tag k="name" v="Garnsteinan" />
		<tag k="natural" v="stone" />
		<tag k="ssr:stedsnr" v="258940" />
	</node>
	<node id="-124534" lat="65.2949499958" lon="12.5527888784">
		<tag k="name" v="Rognvalan" />
		<tag k="place" v="locality" />
		<tag k="ssr:stedsnr" v="784381" />
	</node>
	<node id="-124673" lat="65.3079888891" lon="12.4779416744">
		<tag k="name" v="Kartmyra" />
		<tag k="natural" v="wetland" />
		<tag k="ssr:stedsnr" v="804335" />
	</node>
	<node id="-124210" lat="65.3959749961" lon="12.6020583423">
		<tag k="name" v="Spellarosmyra" />
		<tag k="natural" v="wetland" />
		<tag k="ssr:stedsnr" v="602597" />
	</node>
	<node id="-124669" lat="65.4721416635" lon="12.9486416715">
		<tag k="name" v="Kjemskogen" />
		<tag k="place" v="locality" />
		<tag k="ssr:stedsnr" v="804099" />
	</node>
	<node id="-121083" lat="65.2760416642" lon="12.6532972164">
		<tag k="name" v="Storbukta" />
		<tag k="natural" v="wetland" />
		<tag k="ssr:stedsnr" v="481347" />
	</node>
	<node id="-123641" lat="65.3671777801" lon="12.5551194363">
		<tag k="name" v="Tuvmyra" />
		<tag k="natural" v="wetland" />
		<tag k="ssr:stedsnr" v="360589" />
	</node>
	<node id="-122615" lat="65.4346999974" lon="12.2852416705">
		<tag k="name" v="Blåura" />
		<tag k="natural" v="scree" />
		<tag k="ssr:stedsnr" v="965512" />
	</node>
	<node id="-121078" lat="65.4367194465" lon="12.1162694442">
		<tag k="name" v="Torgmarka" />
		<tag k="place" v="locality" />
		<tag k="ssr:stedsnr" v="481334" />
	</node>
	<node id="-122613" lat="65.591100003" lon="12.5902083303">
		<tag k="name" v="Kjerksteinen" />
		<tag k="natural" v="stone" />
		<tag k="ssr:stedsnr" v="964766" />
	</node>
	<node id="-122100" lat="65.5082083378" lon="12.3367472143">
		<tag k="name" v="Mjøsungan" />
		<tag k="natural" v="wetland" />
		<tag k="ssr:stedsnr" v="721154" />
	</node>
	<node id="-123123" lat="65.4259138902" lon="12.6065666629">
		<tag k="name" v="Skogan" />
		<tag k="place" v="locality" />
		<tag k="ssr:stedsnr" v="119525" />
	</node>
	<node id="-120562" lat="65.3586175514" lon="12.7294158534">
		<tag k="alt_name" v="Tarmaune;Fjelldalen" />
		<tag k="historic" v="shieling" />
		<tag k="name" v="Tarmaunet" />
		<tag k="place" v="locality" />
		<tag k="ssr:stedsnr" v="258122" />
	</node>
	<node id="-122323" lat="65.3952111122" lon="12.5494500057">
		<tag k="name" v="Sjymyra" />
		<tag k="natural" v="wetland" />
		<tag k="ssr:stedsnr" v="908780" />
	</node>
	<node id="-123630" lat="65.3266027784" lon="12.7021166636">
		<tag k="name" v="Kammyra" />
		<tag k="natural" v="wetland" />
		<tag k="ssr:stedsnr" v="360142" />
	</node>
	<node id="-122604" lat="65.5290805597" lon="12.2829361222">
		<tag k="name" v="Nonsurda" />
		<tag k="natural" v="scree" />
		<tag k="ssr:stedsnr" v="964123" />
	</node>
	<node id="-122090" lat="65.2872277779" lon="12.6325361017">
		<tag k="name" v="Svelimyran" />
		<tag k="natural" v="wetland" />
		<tag k="ssr:stedsnr" v="906854" />
	</node>
	<node id="-122089" lat="65.2860500042" lon="12.6209555476">
		<tag k="name" v="Strupmyra" />
		<tag k="natural" v="wetland" />
		<tag k="ssr:stedsnr" v="906849" />
	</node>
	<node id="-121064" lat="65.2572249963" lon="12.6953527746">
		<tag k="name" v="Trøenget" />
		<tag k="place" v="locality" />
		<tag k="ssr:stedsnr" v="481189" />
	</node>
	<node id="-123118" lat="65.3587388861" lon="12.628811106">
		<tag k="landuse" v="meadow" />
		<tag k="name" v="Heimerlaenget" />
		<tag k="ssr:stedsnr" v="119887" />
	</node>
	<node id="-123621" lat="65.2965833356" lon="13.0483333403">
		<tag k="name" v="Slåtten" />
		<tag k="place" v="locality" />
		<tag k="ssr:stedsnr" v="360182" />
	</node>
	<node id="-123430" lat="65.3986416674" lon="12.0209694544">
		<tag k="name" v="Langmyra" />
		<tag k="natural" v="wetland" />
		<tag k="ssr:stedsnr" v="317198" />
	</node>
	<node id="-121058" lat="65.2495138933" lon="12.7354361108">
		<tag k="name" v="Moamyran" />
		<tag k="natural" v="wetland" />
		<tag k="ssr:stedsnr" v="481175" />
	</node>
	<node id="-122591" lat="65.3213194489" lon="12.9781111043">
		<tag k="name" v="Stormyra" />
		<tag k="natural" v="wetland" />
		<tag k="ssr:stedsnr" v="963056" />
	</node>
	<node id="-121075" lat="65.2728722241" lon="12.6449055457">
		<tag k="name" v="Kringelmyra" />
		<tag k="natural" v="wetland" />
		<tag k="ssr:stedsnr" v="481386" />
	</node>
	<node id="-121051" lat="65.4706027788" lon="12.1539499995">
		<tag k="landuse" v="meadow" />
		<tag k="name" v="Hjørnstuheia" />
		<tag k="ssr:stedsnr" v="479733" />
	</node>
	<node id="-124633" lat="65.3484583373" lon="12.7013472275">
		<tag k="name" v="Endebotnmyra" />
		<tag k="natural" v="wetland" />
		<tag k="ssr:stedsnr" v="803371" />
	</node>
	<node id="-121045" lat="65.5167138888" lon="12.2707416669">
		<tag k="landuse" v="meadow" />
		<tag k="name" v="Treingsmyra" />
		<tag k="ssr:stedsnr" v="479132" />
	</node>
	<node id="-121043" lat="65.5345555573" lon="12.2743749934">
		<tag k="name" v="Hubudalsura" />
		<tag k="natural" v="scree" />
		<tag k="ssr:stedsnr" v="479111" />
	</node>
	<node id="-123088" lat="65.2443944487" lon="12.7066916606">
		<tag k="name" v="Kjemman" />
		<tag k="place" v="locality" />
		<tag k="ssr:stedsnr" v="117195" />
	</node>
	<node id="-122579" lat="65.371055558" lon="12.6581666595">
		<tag k="name" v="Sellimyra" />
		<tag k="natural" v="wetland" />
		<tag k="ssr:stedsnr" v="906464" />
	</node>
	<node id="-123853" lat="65.3006083359" lon="12.6795111077">
		<tag k="name" v="Stormyra" />
		<tag k="natural" v="wetland" />
		<tag k="ssr:stedsnr" v="420163" />
	</node>
	<node id="-122059" lat="65.3658888846" lon="12.5782138878">
		<tag k="alt_name" v="Nedremarkmyran" />
		<tag k="name" v="Nermarkmyran" />
		<tag k="natural" v="wetland" />
		<tag k="ssr:stedsnr" v="682367" />
	</node>
	<node id="-124839" lat="65.2707527734" lon="12.7900972198">
		<tag k="name" v="Korsura" />
		<tag k="natural" v="scree" />
		<tag k="ssr:stedsnr" v="847392" />
	</node>
	<node id="-122568" lat="65.3308083373" lon="12.6783750028">
		<tag k="landuse" v="meadow" />
		<tag k="name" v="Heimerenget" />
		<tag k="ssr:stedsnr" v="906156" />
	</node>
	<node id="-121031" lat="65.3271500035" lon="12.9611250078">
		<tag k="name" v="Lone" />
		<tag k="place" v="locality" />
		<tag k="ssr:stedsnr" v="478590" />
	</node>
	<node id="-120609" lat="65.3108222249" lon="12.7642222286">
		<tag k="name" v="Nilskota" />
		<tag k="place" v="locality" />
		<tag k="ssr:stedsnr" v="117208" />
	</node>
	<node id="-124790" lat="65.4648055588" lon="12.1327222332">
		<tag k="name" v="Buhågjen" />
		<tag k="place" v="locality" />
		<tag k="ssr:stedsnr" v="845755" />
	</node>
	<node id="-123583" lat="65.3256361126" lon="12.9895916566">
		<tag k="name" v="Tortenbakken" />
		<tag k="place" v="locality" />
		<tag k="ssr:stedsnr" v="357514" />
	</node>
	<node id="-121022" lat="65.349830552" lon="12.9831222272">
		<tag k="name" v="Svartvassmyra" />
		<tag k="natural" v="wetland" />
		<tag k="ssr:stedsnr" v="477543" />
	</node>
	<node id="-122556" lat="65.3882472248" lon="12.515519439">
		<tag k="name" v="Stormyran" />
		<tag k="natural" v="wetland" />
		<tag k="ssr:stedsnr" v="904003" />
	</node>
	<node id="-123329" lat="65.2881111089" lon="12.6264527875">
		<tag k="name" v="Sprengemyra" />
		<tag k="natural" v="wetland" />
		<tag k="ssr:stedsnr" v="178827" />
	</node>
	<node id="-122630" lat="65.2633527797" lon="12.6707861018">
		<tag k="name" v="Kjærmomyran" />
		<tag k="natural" v="wetland" />
		<tag k="ssr:stedsnr" v="966276" />
	</node>
	<node id="-121528" lat="65.2784500019" lon="12.6376277861">
		<tag k="name" v="Bjørnåsmyra" />
		<tag k="natural" v="wetland" />
		<tag k="ssr:stedsnr" v="299398" />
	</node>
	<node id="-121015" lat="65.2931333347" lon="12.5905805552">
		<tag k="fixme" v="multiple name tags, choose one and add the other to alt_name" />
		<tag k="name" v="Dammyra;Damstormyra" />
		<tag k="natural" v="wetland" />
		<tag k="ssr:stedsnr" v="318191" />
	</node>
	<node id="-124598" lat="65.2509638917" lon="12.7414222321">
		<tag k="name" v="Røbbmyra" />
		<tag k="natural" v="wetland" />
		<tag k="ssr:stedsnr" v="786350" />
	</node>
	<node id="-122548" lat="65.3365638862" lon="12.9797972133">
		<tag k="name" v="Tverdalsmyra" />
		<tag k="natural" v="wetland" />
		<tag k="ssr:stedsnr" v="903420" />
	</node>
	<node id="-123058" lat="65.4932999961" lon="12.3529249992">
		<tag k="name" v="Gjøsmyra" />
		<tag k="natural" v="wetland" />
		<tag k="ssr:stedsnr" v="115294" />
	</node>
	<node id="-122544" lat="65.32985" lon="13.000524992">
		<tag k="name" v="Rismålsurda" />
		<tag k="natural" v="scree" />
		<tag k="ssr:stedsnr" v="903406" />
	</node>
	<node id="-121519" lat="65.38684722" lon="12.5512638946">
		<tag k="name" v="Raudmyra" />
		<tag k="natural" v="wetland" />
		<tag k="ssr:stedsnr" v="483772" />
	</node>
	<node id="-121518" lat="65.3914416696" lon="12.5828777674">
		<tag k="name" v="Svartvassmyra" />
		<tag k="natural" v="wetland" />
		<tag k="ssr:stedsnr" v="483758" />
	</node>
	<node id="-121517" lat="65.4154499979" lon="12.6439444504">
		<tag k="name" v="Yttermarka" />
		<tag k="place" v="locality" />
		<tag k="ssr:stedsnr" v="483518" />
	</node>
	<node id="-124588" lat="65.3918333339" lon="12.6480027718">
		<tag k="name" v="Stormyra" />
		<tag k="natural" v="wetland" />
		<tag k="ssr:stedsnr" v="785566" />
	</node>
	<node id="-125042" lat="65.4129638892" lon="12.0964638831">
		<tag k="landuse" v="meadow" />
		<tag k="name" v="Karusdammen" />
		<tag k="ssr:stedsnr" v="966977" />
	</node>
	<node id="-120320" lat="65.4591500036" lon="12.8857888819">
		<tag k="name" v="Dyrbergan" />
		<tag k="natural" v="wetland" />
		<tag k="ssr:stedsnr" v="236508" />
	</node>
	<node id="-124073" lat="65.3963333328" lon="12.6230027812">
		<tag k="name" v="Lalimyra" />
		<tag k="natural" v="wetland" />
		<tag k="ssr:stedsnr" v="560392" />
	</node>
	<node id="-124188" lat="65.3566388929" lon="12.6780527696">
		<tag k="name" v="Buåsmyra" />
		<tag k="natural" v="wetland" />
		<tag k="ssr:stedsnr" v="602119" />
	</node>
	<node id="-121070" lat="65.3135055565" lon="12.9340388947">
		<tag k="name" v="Hestvikskogen" />
		<tag k="place" v="locality" />
		<tag k="ssr:stedsnr" v="481276" />
	</node>
	<node id="-122021" lat="65.460830557" lon="12.1452499952">
		<tag k="name" v="Gærnskogen" />
		<tag k="place" v="locality" />
		<tag k="ssr:stedsnr" v="906759" />
	</node>
	<node id="-124580" lat="65.4339388858" lon="12.6591722158">
		<tag k="name" v="Vakkerskogen" />
		<tag k="place" v="locality" />
		<tag k="ssr:stedsnr" v="785377" />
	</node>
	<node id="-124241" lat="65.4112694438" lon="12.5387055555">
		<tag k="name" v="Skogan" />
		<tag k="place" v="locality" />
		<tag k="ssr:stedsnr" v="604506" />
	</node>
	<node id="-121506" lat="65.4829305572" lon="12.1042138853">
		<tag k="name" v="Langmyra" />
		<tag k="natural" v="wetland" />
		<tag k="ssr:stedsnr" v="481405" />
	</node>
	<node id="-123553" lat="65.5377611149" lon="12.5831611029">
		<tag k="name" v="Gal-Ola-steinan" />
		<tag k="natural" v="stone" />
		<tag k="ssr:stedsnr" v="356863" />
	</node>
	<node id="-123550" lat="65.5747472203" lon="12.3051499987">
		<tag k="name" v="Storhornsmyra" />
		<tag k="natural" v="wetland" />
		<tag k="ssr:stedsnr" v="356809" />
	</node>
	<node id="-120477" lat="65.2731694405" lon="12.7767333238">
		<tag k="name" v="Skottlarsura" />
		<tag k="natural" v="scree" />
		<tag k="ssr:stedsnr" v="240425" />
	</node>
	<node id="-121497" lat="65.3074138851" lon="12.7391833411">
		<tag k="name" v="Åglømmen" />
		<tag k="natural" v="wetland" />
		<tag k="ssr:stedsnr" v="481157" />
	</node>
	<node id="-122520" lat="65.399105557" lon="12.5508944454">
		<tag k="name" v="Mormyra" />
		<tag k="natural" v="wetland" />
		<tag k="ssr:stedsnr" v="847729" />
	</node>
	<node id="-123031" lat="65.4371888926" lon="12.5091527698">
		<tag k="name" v="Sjømyra" />
		<tag k="natural" v="wetland" />
		<tag k="ssr:stedsnr" v="114357" />
	</node>
	<node id="-123541" lat="65.3207333335" lon="12.9947333232">
		<tag k="name" v="Fosslimyra" />
		<tag k="natural" v="wetland" />
		<tag k="ssr:stedsnr" v="356034" />
	</node>
	<node id="-122514" lat="65.2993083345" lon="12.6489833324">
		<tag k="landuse" v="meadow" />
		<tag k="name" v="Gunnarenget" />
		<tag k="ssr:stedsnr" v="846824" />
	</node>
	<node id="-123025" lat="65.3515388873" lon="12.9798944475">
		<tag k="historic" v="shieling" />
		<tag k="name" v="Petraløa" />
		<tag k="place" v="locality" />
		<tag k="ssr:stedsnr" v="113486" />
	</node>
	<node id="-124121" lat="65.5462527755" lon="12.5736027744">
		<tag k="name" v="Langurda" />
		<tag k="natural" v="scree" />
		<tag k="ssr:stedsnr" v="561956" />
	</node>
	<node id="-121998" lat="65.4476416669" lon="12.1310388906">
		<tag k="name" v="Susåsmyra" />
		<tag k="natural" v="wetland" />
		<tag k="ssr:stedsnr" v="663319" />
	</node>
	<node id="-124042" lat="65.2773833317" lon="12.7909583414">
		<tag k="name" v="Soleivollan" />
		<tag k="place" v="locality" />
		<tag k="ssr:stedsnr" v="543397" />
	</node>
	<node id="-121992" lat="65.2933833293" lon="12.5976666581">
		<tag k="landuse" v="meadow" />
		<tag k="name" v="Lamoenget" />
		<tag k="ssr:stedsnr" v="663303" />
	</node>
	<node id="-124549" lat="65.3123944453" lon="12.5879388813">
		<tag k="landuse" v="meadow" />
		<tag k="name" v="Svanheim" />
		<tag k="ssr:stedsnr" v="784820" />
	</node>
	<node id="-122499" lat="65.432769442" lon="12.4791194482">
		<tag k="name" v="Tromsmyra" />
		<tag k="natural" v="wetland" />
		<tag k="ssr:stedsnr" v="843307" />
	</node>
	<node id="-120448" lat="65.342591663" lon="12.7026972312">
		<tag k="name" v="Raudmyra" />
		<tag k="natural" v="wetland" />
		<tag k="ssr:stedsnr" v="238915" />
	</node>
	<node id="-123413" lat="65.4049611144" lon="12.5766555512">
		<tag k="name" v="Straum-marka" />
		<tag k="place" v="locality" />
		<tag k="ssr:stedsnr" v="300711" />
	</node>
	<node id="-124537" lat="65.2719083307" lon="12.6395722123">
		<tag k="name" v="Stormyra" />
		<tag k="natural" v="wetland" />
		<tag k="ssr:stedsnr" v="784398" />
	</node>
	<node id="-120440" lat="65.3607527749" lon="12.5872250011">
		<tag k="name" v="Trongmyra" />
		<tag k="natural" v="wetland" />
		<tag k="ssr:stedsnr" v="238845" />
	</node>
	<node id="-120438" lat="65.3092166638" lon="12.6349833254">
		<tag k="name" v="Holmmyra" />
		<tag k="natural" v="wetland" />
		<tag k="ssr:stedsnr" v="238836" />
	</node>
	<node id="-124533" lat="65.2969083295" lon="12.5451916651">
		<tag k="name" v="Langmyra" />
		<tag k="natural" v="wetland" />
		<tag k="ssr:stedsnr" v="784378" />
	</node>
	<node id="-123046" lat="65.406211112" lon="12.4417000086">
		<tag k="historic" v="shieling" />
		<tag k="name" v="Sommerfjøsvollen" />
		<tag k="place" v="locality" />
		<tag k="ssr:stedsnr" v="114778" />
	</node>
	<node id="-121458" lat="65.3097083362" lon="12.6394277747">
		<tag k="name" v="Stormyra" />
		<tag k="natural" v="wetland" />
		<tag k="ssr:stedsnr" v="663850" />
	</node>
	<node id="-121967" lat="65.4370166662" lon="12.5177138937">
		<tag k="name" v="Grønlimyra" />
		<tag k="natural" v="wetland" />
		<tag k="ssr:stedsnr" v="660340" />
	</node>
	<node id="-125036" lat="65.313361114" lon="12.6717555557">
		<tag k="name" v="Gullskogan" />
		<tag k="place" v="locality" />
		<tag k="ssr:stedsnr" v="966339" />
	</node>
	<node id="-124522" lat="65.2482055565" lon="12.698527782">
		<tag k="name" v="Nesjan" />
		<tag k="place" v="locality" />
		<tag k="ssr:stedsnr" v="784185" />
	</node>
	<node id="-125033" lat="65.2757444464" lon="12.6028166696">
		<tag k="name" v="Grottjønnmyra" />
		<tag k="natural" v="wetland" />
		<tag k="ssr:stedsnr" v="966388" />
	</node>
	<node id="-121448" lat="65.3014055597" lon="12.5324833425">
		<tag k="landuse" v="meadow" />
		<tag k="name" v="Osplienget" />
		<tag k="ssr:stedsnr" v="663821" />
	</node>
	<node id="-120422" lat="65.4817749998" lon="12.0991111003">
		<tag k="name" v="Trollåsmyra" />
		<tag k="natural" v="wetland" />
		<tag k="ssr:stedsnr" v="238403" />
	</node>
	<node id="-124005" lat="65.3834166679" lon="12.485622232">
		<tag k="name" v="Skjørtjønnmarka" />
		<tag k="place" v="locality" />
		<tag k="ssr:stedsnr" v="542394" />
	</node>
	<node id="-125028" lat="65.3176416626" lon="12.7526916666">
		<tag k="name" v="Helljorda" />
		<tag k="place" v="locality" />
		<tag k="ssr:stedsnr" v="966151" />
	</node>
	<node id="-120418" lat="65.275644442" lon="12.6498138801">
		<tag k="landuse" v="meadow" />
		<tag k="name" v="Sørenget" />
		<tag k="ssr:stedsnr" v="238378" />
	</node>
	<node id="-120415" lat="65.2667333311" lon="12.6583138889">
		<tag k="landuse" v="meadow" />
		<tag k="name" v="Damenget" />
		<tag k="ssr:stedsnr" v="238334" />
	</node>
	<node id="-123996" lat="65.4189555548" lon="12.2212222321">
		<tag k="name" v="Stormyra" />
		<tag k="natural" v="wetland" />
		<tag k="ssr:stedsnr" v="541668" />
	</node>
	<node id="-123578" lat="65.328680559" lon="12.9529527711">
		<tag k="name" v="Moen" />
		<tag k="place" v="locality" />
		<tag k="ssr:stedsnr" v="357448" />
	</node>
	<node id="-121946" lat="65.4106166638" lon="12.0748666703">
		<tag k="landuse" v="meadow" />
		<tag k="name" v="Havstrandflyet" />
		<tag k="ssr:stedsnr" v="724965" />
	</node>
	<node id="-123342" lat="65.4021638849" lon="12.5757277737">
		<tag k="name" v="Sjymyra" />
		<tag k="natural" v="wetland" />
		<tag k="ssr:stedsnr" v="179696" />
	</node>
	<node id="-122687" lat="65.2622444423" lon="12.622305546">
		<tag k="name" v="Piprøyrmyra" />
		<tag k="natural" v="wetland" />
		<tag k="ssr:stedsnr" v="15149" />
	</node>
	<node id="-122022" lat="65.4607472241" lon="12.1617583257">
		<tag k="name" v="Yttergjerdet" />
		<tag k="place" v="locality" />
		<tag k="ssr:stedsnr" v="906760" />
	</node>
	<node id="-123150" lat="65.3843611122" lon="12.5741638988">
		<tag k="name" v="Djupmyra" />
		<tag k="natural" v="wetland" />
		<tag k="ssr:stedsnr" v="135375" />
	</node>
	<node id="-121421" lat="65.2680944416" lon="12.6185416741">
		<tag k="name" v="Dyrstimyra" />
		<tag k="natural" v="wetland" />
		<tag k="ssr:stedsnr" v="663361" />
	</node>
	<node id="-121931" lat="65.3791805555" lon="12.5512250096">
		<tag k="name" v="Bjønnholmyra" />
		<tag k="natural" v="wetland" />
		<tag k="ssr:stedsnr" v="724583" />
	</node>
	<node id="-124490" lat="65.4503388922" lon="12.8071527675">
		<tag k="name" v="Stimyra" />
		<tag k="natural" v="wetland" />
		<tag k="ssr:stedsnr" v="782493" />
	</node>
	<node id="-121417" lat="65.2591000036" lon="12.7231138822">
		<tag k="name" v="Småmyra" />
		<tag k="natural" v="wetland" />
		<tag k="ssr:stedsnr" v="663245" />
	</node>
	<node id="-121416" lat="65.2584694408" lon="12.7081722184">
		<tag k="name" v="Olderskogen" />
		<tag k="place" v="locality" />
		<tag k="ssr:stedsnr" v="663243" />
	</node>
	<node id="-124483" lat="65.470230554" lon="12.350722232">
		<tag k="landuse" v="meadow" />
		<tag k="name" v="Elvesletten" />
		<tag k="ssr:stedsnr" v="782334" />
	</node>
	<node id="-124993" lat="65.5194861091" lon="12.2596722167">
		<tag k="landuse" v="meadow" />
		<tag k="name" v="Stampmyra" />
		<tag k="ssr:stedsnr" v="964163" />
	</node>
	<node id="-125039" lat="65.270313888" lon="12.6511499909">
		<tag k="name" v="Lessengmyra" />
		<tag k="natural" v="wetland" />
		<tag k="ssr:stedsnr" v="966350" />
	</node>
	<node id="-123962" lat="65.3163111135" lon="12.4693500027">
		<tag k="name" v="Gravmyra" />
		<tag k="natural" v="wetland" />
		<tag k="ssr:stedsnr" v="539538" />
	</node>
	<node id="-123572" lat="65.4468888932" lon="12.4639250099">
		<tag k="name" v="Tennskogen" />
		<tag k="place" v="locality" />
		<tag k="ssr:stedsnr" v="357386" />
	</node>
	<node id="-124750" lat="65.5270833327" lon="12.28829723">
		<tag k="name" v="Mølnhusurda" />
		<tag k="natural" v="scree" />
		<tag k="ssr:stedsnr" v="843459" />
	</node>
	<node id="-120373" lat="65.4831055576" lon="12.1360305574">
		<tag k="landuse" v="meadow" />
		<tag k="name" v="Dammen" />
		<tag k="ssr:stedsnr" v="237547" />
	</node>
	<node id="-121395" lat="65.4120388919" lon="12.2828027696">
		<tag k="historic" v="shieling" />
		<tag k="name" v="Buvollen" />
		<tag k="place" v="locality" />
		<tag k="ssr:stedsnr" v="661890" />
	</node>
	<node id="-121906" lat="65.4499333378" lon="12.1360138913">
		<tag k="name" v="Nordhusmarka" />
		<tag k="place" v="locality" />
		<tag k="ssr:stedsnr" v="723723" />
	</node>
	<node id="-122803" lat="65.3343722203" lon="12.9789777679">
		<tag k="name" v="Hevelbakkmyra" />
		<tag k="natural" v="wetland" />
		<tag k="ssr:stedsnr" v="54439" />
	</node>
	<node id="-123993" lat="65.3549305522" lon="12.703061103">
		<tag k="name" v="Fiskmyra" />
		<tag k="natural" v="wetland" />
		<tag k="ssr:stedsnr" v="541139" />
	</node>
	<node id="-124203" lat="65.2994222265" lon="12.554238891">
		<tag k="name" v="Kristenlistormyra" />
		<tag k="natural" v="wetland" />
		<tag k="ssr:stedsnr" v="602329" />
	</node>
	<node id="-121880" lat="65.4729793479" lon="12.3424233417">
		<tag k="landuse" v="meadow" />
		<tag k="name" v="Aspvoll" />
		<tag k="ssr:stedsnr" v="722624" />
	</node>
	<node id="-123947" lat="65.3096972229" lon="13.0173999978">
		<tag k="name" v="Hestmyra" />
		<tag k="natural" v="wetland" />
		<tag k="ssr:stedsnr" v="539095" />
	</node>
	<node id="-120360" lat="65.3822277781" lon="12.4988444506">
		<tag k="name" v="Langmyra" />
		<tag k="natural" v="wetland" />
		<tag k="ssr:stedsnr" v="54504" />
	</node>
	<node id="-124454" lat="65.4371472259" lon="12.3973444348">
		<tag k="name" v="Øvre-Elvan" />
		<tag k="natural" v="wetland" />
		<tag k="ssr:stedsnr" v="781434" />
	</node>
	<node id="-121893" lat="65.3491305529" lon="12.6918083348">
		<tag k="name" v="Øveråsmyra" />
		<tag k="natural" v="wetland" />
		<tag k="ssr:stedsnr" v="723148" />
	</node>
	<node id="-123427" lat="65.4854805555" lon="12.3141833354">
		<tag k="landuse" v="meadow" />
		<tag k="name" v="Storgråvollen" />
		<tag k="ssr:stedsnr" v="308926" />
	</node>
	<node id="-121377" lat="65.5205944435" lon="12.2643833438">
		<tag k="name" v="Vassmyra" />
		<tag k="natural" v="wetland" />
		<tag k="ssr:stedsnr" v="661127" />
	</node>
	<node id="-121376" lat="65.5229666636" lon="12.2594388779">
		<tag k="name" v="Kristenmyra" />
		<tag k="natural" v="wetland" />
		<tag k="ssr:stedsnr" v="661126" />
	</node>
	<node id="-123056" lat="65.4982277749" lon="12.2533833296">
		<tag k="name" v="Langtrappa" />
		<tag k="place" v="locality" />
		<tag k="ssr:stedsnr" v="115262" />
	</node>
	<node id="-121374" lat="65.5196555578" lon="12.2705638947">
		<tag k="landuse" v="meadow" />
		<tag k="name" v="Gåsvollan" />
		<tag k="ssr:stedsnr" v="661115" />
	</node>
	<node id="-124957" lat="65.5267499979" lon="12.3497305597">
		<tag k="name" v="Eidamyran" />
		<tag k="natural" v="wetland" />
		<tag k="ssr:stedsnr" v="865943" />
	</node>
	<node id="-123226" lat="65.5268916642" lon="12.2665583272">
		<tag k="name" v="Holbekkmyra" />
		<tag k="natural" v="wetland" />
		<tag k="ssr:stedsnr" v="175086" />
	</node>
	<node id="-123416" lat="65.2771611121" lon="12.7693444374">
		<tag k="name" v="Landskogan" />
		<tag k="place" v="locality" />
		<tag k="ssr:stedsnr" v="301401" />
	</node>
	<node id="-121877" lat="65.4763111108" lon="12.3734416558">
		<tag k="landuse" v="meadow" />
		<tag k="name" v="Mølnhusvollen" />
		<tag k="ssr:stedsnr" v="722517" />
	</node>
	<node id="-121364" lat="65.5900999969" lon="12.5775638807">
		<tag k="landuse" v="meadow" />
		<tag k="name" v="Storenget" />
		<tag k="ssr:stedsnr" v="660765" />
	</node>
	<node id="-124590" lat="65.374508333" lon="12.5460444533">
		<tag k="name" v="Skamyra" />
		<tag k="natural" v="wetland" />
		<tag k="ssr:stedsnr" v="785574" />
	</node>
	<node id="-123405" lat="65.3438472253" lon="12.7467138884">
		<tag k="historic" v="shieling" />
		<tag k="name" v="Dyrmoen" />
		<tag k="place" v="locality" />
		<tag k="ssr:stedsnr" v="198095" />
	</node>
	<node id="-124428" lat="65.5584249993" lon="12.2708250034">
		<tag k="name" v="Aunmyran" />
		<tag k="natural" v="wetland" />
		<tag k="ssr:stedsnr" v="743984" />
	</node>
	<node id="-123402" lat="65.2641888925" lon="12.661047217">
		<tag k="name" v="Aunmyran" />
		<tag k="natural" v="wetland" />
		<tag k="ssr:stedsnr" v="198124" />
	</node>
	<node id="-123230" lat="65.5259972232" lon="12.2587722181">
		<tag k="landuse" v="meadow" />
		<tag k="name" v="Trollskardmyra" />
		<tag k="ssr:stedsnr" v="175120" />
	</node>
	<node id="-122887" lat="65.4245583344" lon="12.6077249995">
		<tag k="name" v="Skoganmyra" />
		<tag k="natural" v="wetland" />
		<tag k="ssr:stedsnr" v="58526" />
	</node>
	<node id="-122886" lat="65.4238805536" lon="12.6353611188">
		<tag k="name" v="Laukviksmyra" />
		<tag k="natural" v="wetland" />
		<tag k="ssr:stedsnr" v="58522" />
	</node>
	<node id="-124931" lat="65.3124972214" lon="12.8961861114">
		<tag k="alt_name" v="Storura" />
		<tag k="name" v="Storurda" />
		<tag k="natural" v="scree" />
		<tag k="ssr:stedsnr" v="865027" />
	</node>
	<node id="-122882" lat="65.2517722259" lon="12.7462999979">
		<tag k="landuse" v="meadow" />
		<tag k="name" v="Sommersetenget" />
		<tag k="ssr:stedsnr" v="58364" />
	</node>
</osm>
