<?xml version="1.0" encoding="UTF-8"?>
<osm version="0.6" generator="osmapis">
	<node lat="65.27891666381464" lon="12.819858330813187" id="-13726">
		<tag k="alt_name" v="Dagslåttelven" />
		<tag k="name" v="Dagslåttelva" />
		<tag k="ssr:stedsnr" v="15057" />
		<tag k="waterway" v="river" />
	</node>
	<node lat="65.30708333570094" lon="12.629708339340455" id="-13731">
		<tag k="name" v="Skogtjønna" />
		<tag k="natural" v="water" />
		<tag k="ssr:stedsnr" v="15203" />
	</node>
	<node lat="65.29944444353302" lon="12.537194448484248" id="-13732">
		<tag k="name" v="Hestmarkvatnet" />
		<tag k="natural" v="water" />
		<tag k="ssr:stedsnr" v="15209" />
	</node>
	<node lat="65.29359166399041" lon="12.671674989366341" id="-13734">
		<tag k="name" v="Markaelva" />
		<tag k="ssr:stedsnr" v="15217" />
		<tag k="waterway" v="stream" />
	</node>
	<node lat="65.48693333116876" lon="12.995508342884197" id="-13736">
		<tag k="name" v="Kjembekkvatnet" />
		<tag k="natural" v="water" />
		<tag k="ssr:stedsnr" v="15174" />
		<tag k="water" v="lake" />
	</node>
	<node lat="65.36255555597494" lon="12.533177785172535" id="-13740">
		<tag k="alt_name" v="Mevatnet" />
		<tag k="name" v="Medvatnet" />
		<tag k="natural" v="water" />
		<tag k="ssr:stedsnr" v="15367" />
		<tag k="water" v="lake" />
	</node>
	<node lat="65.44468888710803" lon="12.49797499441717" id="-13744">
		<tag k="loc_name" v="Buneppelvatnet" />
		<tag k="name" v="Svartvatnet" />
		<tag k="natural" v="water" />
		<tag k="ssr:stedsnr" v="15502" />
	</node>
	<node lat="65.53946111536315" lon="12.543091670824845" id="-13750">
		<tag k="alt_name" v="Nubbekken" />
		<tag k="name" v="Nubbelva" />
		<tag k="ssr:stedsnr" v="15966" />
		<tag k="waterway" v="stream" />
	</node>
	<node lat="65.52940277411857" lon="12.254972217908673" id="-13751">
		<tag k="name" v="Oselva" />
		<tag k="ssr:stedsnr" v="15967" />
		<tag k="waterway" v="stream" />
	</node>
	<node lat="65.5434472193649" lon="12.313758322714383" id="-13765">
		<tag k="name" v="Bjørklibekkjen" />
		<tag k="ssr:stedsnr" v="53788" />
		<tag k="waterway" v="stream" />
	</node>
	<node lat="65.41250555683882" lon="12.272838890442076" id="-13780">
		<tag k="name" v="Stakkengbekken" />
		<tag k="ssr:stedsnr" v="55871" />
		<tag k="waterway" v="stream" />
	</node>
	<node lat="65.40328333622473" lon="12.26082500386713" id="-13781">
		<tag k="name" v="Vassbotnelva" />
		<tag k="ssr:stedsnr" v="55577" />
		<tag k="waterway" v="river" />
	</node>
	<node lat="65.25478888592245" lon="12.72739722475566" id="-13783">
		<tag k="name" v="Hevelbekken" />
		<tag k="ssr:stedsnr" v="56166" />
		<tag k="waterway" v="stream" />
	</node>
	<node lat="65.30837778061849" lon="12.56147499573632" id="-13795">
		<tag k="name" v="Lomtjønna" />
		<tag k="natural" v="water" />
		<tag k="ssr:stedsnr" v="56813" />
	</node>
	<node lat="65.35882222452305" lon="12.554841669672149" id="-13802">
		<tag k="name" v="Vika" />
		<tag k="natural" v="bay" />
		<tag k="ssr:stedsnr" v="56877" />
	</node>
	<node lat="65.36683610930649" lon="12.535313886565705" id="-13806">
		<tag k="name" v="Jamdalshøla" />
		<tag k="natural" v="water" />
		<tag k="ssr:stedsnr" v="57572" />
		<tag k="water" v="lake" />
	</node>
	<node lat="65.38088611309658" lon="12.598141672489994" id="-13809">
		<tag k="name" v="Matkråbekken" />
		<tag k="ssr:stedsnr" v="57587" />
		<tag k="waterway" v="stream" />
	</node>
	<node lat="65.38296944436858" lon="12.644383326072125" id="-13810">
		<tag k="name" v="Gravelva" />
		<tag k="ssr:stedsnr" v="57588" />
		<tag k="waterway" v="stream" />
	</node>
	<node lat="65.32448610895989" lon="12.553883331154731" id="-13816">
		<tag k="name" v="Middagsholmen" />
		<tag k="place" v="islet" />
		<tag k="ssr:stedsnr" v="58706" />
	</node>
	<node lat="65.30015555121923" lon="12.573375008734427" id="-13832">
		<tag k="name" v="Strauman" />
		<tag k="natural" v="water" />
		<tag k="ssr:stedsnr" v="75200" />
		<tag k="water" v="lake" />
	</node>
	<node lat="65.3334499969295" lon="12.674383332806588" id="-13837">
		<tag k="name" v="Sandodden" />
		<tag k="natural" v="cape" />
		<tag k="ssr:stedsnr" v="75258" />
	</node>
	<node lat="65.31518333455752" lon="12.581008334664611" id="-13838">
		<tag k="name" v="Svantjønnan" />
		<tag k="natural" v="water" />
		<tag k="ssr:stedsnr" v="75266" />
		<tag k="water" v="lake" />
	</node>
	<node lat="65.42675000397702" lon="12.42721110456488" id="-13841">
		<tag k="name" v="Strandelva" />
		<tag k="ssr:stedsnr" v="75403" />
		<tag k="waterway" v="stream" />
	</node>
	<node lat="65.24847500045689" lon="12.747780546381401" id="-13845">
		<tag k="fixme" v="multiple name tags, choose one and add the other to alt_name" />
		<tag k="name" v="Sommarsetvatnet;Øvre Moavatnet" />
		<tag k="natural" v="water" />
		<tag k="ssr:stedsnr" v="75598" />
	</node>
	<node lat="65.42355555682286" lon="12.875336115413875" id="-13847">
		<tag k="loc_name" v="Ner-Breivatnet" />
		<tag k="name" v="Nedre Breivatnet" />
		<tag k="natural" v="water" />
		<tag k="ssr:stedsnr" v="76119" />
		<tag k="water" v="lake" />
	</node>
	<node lat="65.27848888931707" lon="12.66815277929818" id="-13849">
		<tag k="loc_name" v="Nordtjønna" />
		<tag k="name" v="Nordretjønna" />
		<tag k="natural" v="water" />
		<tag k="ssr:stedsnr" v="76155" />
	</node>
	<node lat="65.24966110888087" lon="12.695183340664444" id="-13855">
		<tag k="alt_name" v="Møllevatnet" />
		<tag k="name" v="Mølnvatnet" />
		<tag k="natural" v="water" />
		<tag k="ssr:stedsnr" v="76508" />
	</node>
	<node lat="65.52901111178691" lon="12.633327771974253" id="-13856">
		<tag k="name" v="Lislfjordelva" />
		<tag k="ssr:stedsnr" v="76791" />
		<tag k="waterway" v="stream" />
	</node>
	<node lat="65.60814999661113" lon="12.579377783406779" id="-13858">
		<tag k="name" v="Langvatnet" />
		<tag k="natural" v="water" />
		<tag k="ssr:stedsnr" v="76909" />
		<tag k="water" v="lake" />
	</node>
	<node lat="65.39128332944335" lon="12.466908343028484" id="-13870">
		<tag k="name" v="Bjørnneset" />
		<tag k="natural" v="cape" />
		<tag k="ssr:stedsnr" v="235234" />
	</node>
	<node lat="65.33234166686451" lon="12.974150000550443" id="-13873">
		<tag k="name" v="Kvennaneset" />
		<tag k="natural" v="cape" />
		<tag k="ssr:stedsnr" v="235431" />
	</node>
	<node lat="65.37533333113095" lon="12.47414999343959" id="-13874">
		<tag k="name" v="Navahalsen" />
		<tag k="natural" v="isthmus" />
		<tag k="place" v="locality" />
		<tag k="ssr:stedsnr" v="235460" />
	</node>
	<node lat="65.3047361106377" lon="12.477738886245929" id="-13876">
		<tag k="name" v="Nordvatnet" />
		<tag k="natural" v="water" />
		<tag k="ssr:stedsnr" v="235592" />
		<tag k="water" v="lake" />
	</node>
	<node lat="65.55395277823698" lon="12.264913879501671" id="-13880">
		<tag k="name" v="Strømsneset" />
		<tag k="natural" v="cape" />
		<tag k="ssr:stedsnr" v="235772" />
	</node>
	<node lat="65.43897500417306" lon="12.786963881321084" id="-13886">
		<tag k="name" v="Kvennbekken" />
		<tag k="ssr:stedsnr" v="235960" />
		<tag k="waterway" v="stream" />
	</node>
	<node lat="65.37618055166648" lon="12.525269451549303" id="-13898">
		<tag k="name" v="Tveitvatnet" />
		<tag k="natural" v="water" />
		<tag k="ssr:stedsnr" v="236467" />
		<tag k="water" v="lake" />
	</node>
	<node lat="65.34407777879392" lon="12.980361106779357" id="-13903">
		<tag k="name" v="Stam-Ola-trappen" />
		<tag k="natural" v="cape" />
		<tag k="ssr:stedsnr" v="114408" />
	</node>
	<node lat="65.49569721970278" lon="12.313069442952083" id="-13912">
		<tag k="name" v="Syltervatnet" />
		<tag k="natural" v="water" />
		<tag k="ssr:stedsnr" v="115273" />
	</node>
	<node lat="65.44753333156531" lon="12.32213333806832" id="-13934">
		<tag k="name" v="Krokåa" />
		<tag k="ssr:stedsnr" v="236874" />
		<tag k="waterway" v="river" />
	</node>
	<node lat="65.44031388455511" lon="12.332280565607029" id="-13935">
		<tag k="name" v="Kvenngroelva" />
		<tag k="ssr:stedsnr" v="236882" />
		<tag k="waterway" v="river" />
	</node>
	<node lat="65.29826944256067" lon="13.022741674661402" id="-13942">
		<tag k="name" v="Brattbekken" />
		<tag k="ssr:stedsnr" v="117218" />
		<tag k="waterway" v="stream" />
	</node>
	<node lat="65.31600277824019" lon="12.591366672998879" id="-13953">
		<tag k="name" v="Heimer Skråvåa" />
		<tag k="ssr:stedsnr" v="117811" />
		<tag k="waterway" v="stream" />
	</node>
	<node lat="65.36212222141391" lon="12.537927787787996" id="-13954">
		<tag k="name" v="Mjosundet" />
		<tag k="natural" v="strait" />
		<tag k="ssr:stedsnr" v="117867" />
	</node>
	<node lat="65.41966944590736" lon="12.632938891107694" id="-13963">
		<tag k="name" v="Laukvikbekken" />
		<tag k="ssr:stedsnr" v="119522" />
		<tag k="waterway" v="stream" />
	</node>
	<node lat="65.35440000046532" lon="12.59580832802257" id="-13968">
		<tag k="name" v="Grannesbukta" />
		<tag k="natural" v="bay" />
		<tag k="ssr:stedsnr" v="119883" />
	</node>
	<node lat="65.30601389319384" lon="12.753619449772657" id="-13979">
		<tag k="name" v="Grunnvassnesjan" />
		<tag k="natural" v="cape" />
		<tag k="ssr:stedsnr" v="238172" />
	</node>
	<node lat="65.29995277454762" lon="12.560163890231275" id="-13980">
		<tag k="name" v="Grønlandet" />
		<tag k="natural" v="beach" />
		<tag k="ssr:stedsnr" v="238319" />
	</node>
	<node lat="65.30041389240502" lon="12.584444446595551" id="-13981">
		<tag k="name" v="Otertuvstraumen" />
		<tag k="natural" v="strait" />
		<tag k="ssr:stedsnr" v="238325" />
	</node>
	<node lat="65.3180916693842" lon="12.675158340001122" id="-13986">
		<tag k="name" v="Gullskogbekken" />
		<tag k="ssr:stedsnr" v="238335" />
		<tag k="waterway" v="stream" />
	</node>
	<node lat="65.51955277493708" lon="12.142594444893563" id="-13995">
		<tag k="name" v="Brattåsvatnet" />
		<tag k="natural" v="water" />
		<tag k="ssr:stedsnr" v="238920" />
	</node>
	<node lat="65.35716388844973" lon="12.559447218368492" id="-14005">
		<tag k="name" v="Renna" />
		<tag k="ssr:stedsnr" v="238869" />
		<tag k="waterway" v="stream" />
	</node>
	<node lat="65.36687500032119" lon="12.55977221977234" id="-14020">
		<tag k="name" v="Finneset" />
		<tag k="natural" v="cape" />
		<tag k="ssr:stedsnr" v="239609" />
	</node>
	<node lat="65.42691666531663" lon="12.898700006688133" id="-14049">
		<tag k="name" v="Lauvvasselva" />
		<tag k="ssr:stedsnr" v="136099" />
		<tag k="waterway" v="stream" />
	</node>
	<node lat="65.31662500033336" lon="12.566294452183323" id="-14053">
		<tag k="name" v="Vassenden" />
		<tag k="natural" v="bay" />
		<tag k="ssr:stedsnr" v="136304" />
	</node>
	<node lat="65.42726389187206" lon="12.638097214919597" id="-14075">
		<tag k="name" v="Råkdalsbekken" />
		<tag k="ssr:stedsnr" v="240511" />
		<tag k="waterway" v="stream" />
	</node>
	<node lat="65.35099722591299" lon="12.62009166474713" id="-14085">
		<tag k="name" v="Holmbukta" />
		<tag k="natural" v="bay" />
		<tag k="ssr:stedsnr" v="240660" />
	</node>
	<node lat="65.29052777465009" lon="12.940791674073363" id="-14100">
		<tag k="name" v="Fossan" />
		<tag k="ssr:stedsnr" v="175123" />
		<tag k="waterway" v="rapids" />
	</node>
	<node lat="65.44612499821004" lon="12.484974996128223" id="-14106">
		<tag k="name" v="Nøkktjønna" />
		<tag k="natural" v="water" />
		<tag k="ssr:stedsnr" v="175404" />
	</node>
	<node lat="65.32840833585477" lon="12.9645500032332" id="-14108">
		<tag k="name" v="Storengneset" />
		<tag k="natural" v="cape" />
		<tag k="ssr:stedsnr" v="175468" />
	</node>
	<node lat="65.32871111240996" lon="12.967683326536747" id="-14109">
		<tag k="name" v="Melan" />
		<tag k="natural" v="cape" />
		<tag k="ssr:stedsnr" v="175401" />
	</node>
	<node lat="65.5158555539969" lon="12.762666664581012" id="-14111">
		<tag k="name" v="Nord Langtjønna" />
		<tag k="natural" v="water" />
		<tag k="ssr:stedsnr" v="175531" />
	</node>
	<node lat="65.55262499983044" lon="12.272527772091037" id="-14115">
		<tag k="name" v="Siriodden" />
		<tag k="natural" v="cape" />
		<tag k="ssr:stedsnr" v="175756" />
	</node>
	<node lat="65.53850000087843" lon="12.527697226528112" id="-14116">
		<tag k="name" v="Lomtjønnan" />
		<tag k="natural" v="water" />
		<tag k="ssr:stedsnr" v="175764" />
		<tag k="water" v="pond" />
	</node>
	<node lat="65.31218055731499" lon="12.77301388757563" id="-14126">
		<tag k="name" v="Forsvasselva" />
		<tag k="ssr:stedsnr" v="177153" />
		<tag k="waterway" v="stream" />
	</node>
	<node lat="65.29838055531539" lon="13.034019444703937" id="-14131">
		<tag k="name" v="Sivtjønna" />
		<tag k="natural" v="water" />
		<tag k="ssr:stedsnr" v="178202" />
	</node>
	<node lat="65.33779659602779" lon="12.745177286731247" id="-14135">
		<tag k="name" v="Stakktjønna" />
		<tag k="natural" v="water" />
		<tag k="ssr:stedsnr" v="178155" />
	</node>
	<node lat="65.28436666460419" lon="13.064416659277116" id="-14149">
		<tag k="name" v="Finnkåtelva" />
		<tag k="ssr:stedsnr" v="179217" />
		<tag k="waterway" v="stream" />
	</node>
	<node lat="65.29128889122728" lon="13.044950003439814" id="-14150">
		<tag k="name" v="Melkarneset" />
		<tag k="natural" v="cape" />
		<tag k="ssr:stedsnr" v="179226" />
	</node>
	<node lat="65.26637500077409" lon="12.739438882861839" id="-14153">
		<tag k="name" v="Strømsfjellbekken" />
		<tag k="ssr:stedsnr" v="179365" />
		<tag k="waterway" v="stream" />
	</node>
	<node lat="65.32264444386779" lon="12.560969440884275" id="-14154">
		<tag k="name" v="Langodden" />
		<tag k="natural" v="cape" />
		<tag k="ssr:stedsnr" v="179666" />
	</node>
	<node lat="65.42434444577181" lon="12.589072229721689" id="-14163">
		<tag k="name" v="Hommellivatnet" />
		<tag k="natural" v="water" />
		<tag k="ssr:stedsnr" v="196332" />
	</node>
	<node lat="65.40755000139899" lon="12.728055545396568" id="-14172">
		<tag k="fixme" v="multiple name tags, choose one and add the other to alt_name" />
		<tag k="name" v="Storvatnet;Langvatnet" />
		<tag k="natural" v="water" />
		<tag k="ssr:stedsnr" v="197110" />
		<tag k="water" v="lake" />
	</node>
	<node lat="65.31315555201402" lon="12.809769437245961" id="-14173">
		<tag k="name" v="Dagslåttvatnet" />
		<tag k="natural" v="water" />
		<tag k="ssr:stedsnr" v="197018" />
	</node>
	<node lat="65.3192944479487" lon="12.964280559976318" id="-14176">
		<tag k="name" v="Middagsbekken" />
		<tag k="ssr:stedsnr" v="197027" />
		<tag k="waterway" v="stream" />
	</node>
	<node lat="65.3379055520917" lon="12.638436102449363" id="-14181">
		<tag k="name" v="Granlibekken" />
		<tag k="ssr:stedsnr" v="197403" />
		<tag k="waterway" v="stream" />
	</node>
	<node lat="65.33966667056855" lon="12.490961118822403" id="-14182">
		<tag k="alt_name" v="Åstjørna" />
		<tag k="name" v="Åstjønna" />
		<tag k="natural" v="water" />
		<tag k="ssr:stedsnr" v="197404" />
	</node>
	<node lat="65.34500555982501" lon="12.65775555611707" id="-14184">
		<tag k="name" v="Sausvatnet" />
		<tag k="natural" v="water" />
		<tag k="ssr:stedsnr" v="197414" />
		<tag k="water" v="lake" />
	</node>
	<node lat="65.47517778208135" lon="12.959552780404927" id="-14186">
		<tag k="name" v="Kjembekken" />
		<tag k="ssr:stedsnr" v="197188" />
		<tag k="waterway" v="stream" />
	</node>
	<node lat="65.3355055549947" lon="12.528791667486159" id="-14191">
		<tag k="name" v="Bunesfallan" />
		<tag k="natural" v="waterfall" />
		<tag k="ssr:stedsnr" v="197399" />
	</node>
	<node lat="65.44151389223516" lon="12.418466674835829" id="-14192">
		<tag k="name" v="Takhaugvatnet" />
		<tag k="natural" v="water" />
		<tag k="ssr:stedsnr" v="197523" />
	</node>
	<node lat="65.26611666585372" lon="12.63331667458069" id="-14204">
		<tag k="alt_name" v="Kalbekkvika" />
		<tag k="name" v="Kaldbekkvika" />
		<tag k="natural" v="bay" />
		<tag k="ssr:stedsnr" v="198123" />
	</node>
	<node lat="65.58222777705596" lon="12.610008325462008" id="-14208">
		<tag k="name" v="Jovasselva" />
		<tag k="ssr:stedsnr" v="198880" />
		<tag k="waterway" v="stream" />
	</node>
	<node lat="65.58193889228849" lon="12.47822498987152" id="-14209">
		<tag k="name" v="Vestrebotnvatnan" />
		<tag k="natural" v="water" />
		<tag k="ssr:stedsnr" v="198892" />
	</node>
	<node lat="65.40424722348806" lon="12.787027777312979" id="-14223">
		<tag k="name" v="Lappskardbekken" />
		<tag k="ssr:stedsnr" v="235814" />
		<tag k="waterway" v="stream" />
	</node>
	<node lat="65.30520833144688" lon="13.020741664966724" id="-14232">
		<tag k="name" v="Lessvatnet" />
		<tag k="natural" v="water" />
		<tag k="ssr:stedsnr" v="236099" />
		<tag k="water" v="lake" />
	</node>
	<node lat="65.52355555370326" lon="12.364205545739459" id="-14237">
		<tag k="name" v="Valen" />
		<tag k="natural" v="bay" />
		<tag k="ssr:stedsnr" v="236143" />
	</node>
	<node lat="65.52555832996514" lon="12.358961101777638" id="-14238">
		<tag k="name" v="Storstranda" />
		<tag k="natural" v="beach" />
		<tag k="ssr:stedsnr" v="236144" />
	</node>
	<node lat="65.38176110929835" lon="12.518586107201264" id="-14243">
		<tag k="name" v="Neset" />
		<tag k="natural" v="cape" />
		<tag k="ssr:stedsnr" v="236459" />
	</node>
	<node lat="65.36213333138114" lon="12.52760278201722" id="-14249">
		<tag k="name" v="Gårbugen" />
		<tag k="natural" v="bay" />
		<tag k="ssr:stedsnr" v="236554" />
	</node>
	<node lat="65.49556944782579" lon="12.103980553460785" id="-14250">
		<tag k="name" v="Sørvingelskogvatnet" />
		<tag k="natural" v="water" />
		<tag k="ssr:stedsnr" v="236845" />
	</node>
	<node lat="65.27561110761962" lon="12.579280549993927" id="-14254">
		<tag k="name" v="Naustodden" />
		<tag k="natural" v="cape" />
		<tag k="ssr:stedsnr" v="237336" />
	</node>
	<node lat="65.47402221819486" lon="12.324738884666735" id="-14256">
		<tag k="name" v="Andersvikskjæret" />
		<tag k="place" v="islet" />
		<tag k="ssr:stedsnr" v="237604" />
	</node>
	<node lat="65.47006666298526" lon="12.116677781167581" id="-14314">
		<tag k="name" v="Kvassnesosen" />
		<tag k="natural" v="bay" />
		<tag k="ssr:stedsnr" v="257082" />
	</node>
	<node lat="65.48324444693182" lon="12.906672217316599" id="-14315">
		<tag k="name" v="Henrikdalselva" />
		<tag k="ssr:stedsnr" v="257202" />
		<tag k="waterway" v="river" />
	</node>
	<node lat="65.46232500060584" lon="12.407111119880238" id="-14322">
		<tag k="name" v="Vandalsvikelva" />
		<tag k="ssr:stedsnr" v="257507" />
		<tag k="waterway" v="stream" />
	</node>
	<node lat="65.41348055596985" lon="12.609447218783375" id="-14323">
		<tag k="alt_name" v="Lessvatnet" />
		<tag k="name" v="Lislvatnet" />
		<tag k="natural" v="water" />
		<tag k="ssr:stedsnr" v="257509" />
	</node>
	<node lat="65.3884361155217" lon="12.552341670254798" id="-14326">
		<tag k="alt_name" v="Mølntjørna" />
		<tag k="name" v="Mølntjønna" />
		<tag k="natural" v="water" />
		<tag k="ssr:stedsnr" v="257521" />
	</node>
	<node lat="65.39246389082689" lon="12.492961104337649" id="-14327">
		<tag k="alt_name" v="Indrevatnet" />
		<tag k="name" v="Innervatnet" />
		<tag k="natural" v="water" />
		<tag k="ssr:stedsnr" v="257525" />
	</node>
	<node lat="65.34583055677041" lon="12.4586250054903" id="-14334">
		<tag k="alt_name" v="Kromvatnet" />
		<tag k="name" v="Krumvatnet" />
		<tag k="natural" v="water" />
		<tag k="ssr:stedsnr" v="257404" />
	</node>
	<node lat="65.41277500063546" lon="12.408536106100303" id="-14340">
		<tag k="alt_name" v="Lessvatnet" />
		<tag k="name" v="Lislvatnet" />
		<tag k="natural" v="water" />
		<tag k="ssr:stedsnr" v="257482" />
	</node>
	<node lat="65.22632777642762" lon="12.736941667194415" id="-14342">
		<tag k="name" v="Bjørnbekken" />
		<tag k="ssr:stedsnr" v="257630" />
		<tag k="waterway" v="stream" />
	</node>
	<node lat="65.4466055601076" lon="12.775186101044179" id="-14344">
		<tag k="name" v="Titingsforsen" />
		<tag k="natural" v="waterfall" />
		<tag k="ssr:stedsnr" v="258083" />
	</node>
	<node lat="65.36239999680883" lon="12.930780565834334" id="-14348">
		<tag k="loc_name" v="Bjønnstokkvatnan" />
		<tag k="name" v="Bjørnstokkvatnan" />
		<tag k="natural" v="water" />
		<tag k="ssr:stedsnr" v="258117" />
		<tag k="water" v="lake" />
	</node>
	<node lat="65.33699166385888" lon="12.909924998769014" id="-14350">
		<tag k="name" v="Lissåa" />
		<tag k="ssr:stedsnr" v="258125" />
		<tag k="waterway" v="stream" />
	</node>
	<node lat="65.47039722447747" lon="12.906563892062414" id="-14372">
		<tag k="name" v="Bjønnholmen" />
		<tag k="place" v="islet" />
		<tag k="ssr:stedsnr" v="296696" />
	</node>
	<node lat="65.4547888868484" lon="12.433650010480507" id="-14373">
		<tag k="name" v="Vandalsvikelva" />
		<tag k="ssr:stedsnr" v="296698" />
		<tag k="waterway" v="river" />
	</node>
	<node lat="65.4811472240558" lon="12.102422232904425" id="-14391">
		<tag k="name" v="Raudsteintjønna" />
		<tag k="natural" v="water" />
		<tag k="ssr:stedsnr" v="299410" />
	</node>
	<node lat="65.25707222380312" lon="12.65319165682746" id="-14402">
		<tag k="name" v="Dignershalsen" />
		<tag k="natural" v="bay" />
		<tag k="ssr:stedsnr" v="299740" />
	</node>
	<node lat="65.27345555512296" lon="12.759047223800028" id="-14418">
		<tag k="name" v="Elvan" />
		<tag k="ssr:stedsnr" v="301399" />
		<tag k="waterway" v="stream" />
	</node>
	<node lat="65.28110555297324" lon="13.024113890095657" id="-14443">
		<tag k="name" v="Storfjelltjønna" />
		<tag k="natural" v="water" />
		<tag k="ssr:stedsnr" v="318054" />
	</node>
	<node lat="65.46853055415785" lon="12.914608336703216" id="-14448">
		<tag k="name" v="Kvernbekken" />
		<tag k="ssr:stedsnr" v="318065" />
		<tag k="waterway" v="stream" />
	</node>
	<node lat="65.44536389204087" lon="12.419469448935994" id="-14454">
		<tag k="alt_name" v="Kravvikelva" />
		<tag k="name" v="Kravikelva" />
		<tag k="ssr:stedsnr" v="318512" />
		<tag k="waterway" v="stream" />
	</node>
	<node lat="65.4573833363084" lon="12.484866663172774" id="-14463">
		<tag k="name" v="Drogsøyvatnet" />
		<tag k="natural" v="water" />
		<tag k="ssr:stedsnr" v="318450" />
	</node>
	<node lat="65.31999166496217" lon="12.747102775439267" id="-14464">
		<tag k="name" v="Juvatnet" />
		<tag k="natural" v="water" />
		<tag k="ssr:stedsnr" v="319004" />
		<tag k="water" v="lake" />
	</node>
	<node lat="65.36206944541367" lon="12.947472218719678" id="-14465">
		<tag k="name" v="Kaffevatnet" />
		<tag k="natural" v="water" />
		<tag k="ssr:stedsnr" v="319106" />
	</node>
	<node lat="65.3373722257972" lon="12.849366664587592" id="-14466">
		<tag k="name" v="Leiråvatnet" />
		<tag k="natural" v="water" />
		<tag k="ssr:stedsnr" v="319112" />
		<tag k="water" v="lake" />
	</node>
	<node lat="65.334605552366" lon="12.739791655881104" id="-14468">
		<tag k="name" v="Davidskjåvatnet" />
		<tag k="natural" v="water" />
		<tag k="ssr:stedsnr" v="319121" />
	</node>
	<node lat="65.34055555879215" lon="12.98484165728942" id="-14469">
		<tag k="alt_name" v="Heimer-Mølnvatnet" />
		<tag k="name" v="Mølnvatnet" />
		<tag k="natural" v="water" />
		<tag k="ssr:stedsnr" v="319124" />
	</node>
	<node lat="65.34398055628158" lon="12.935386111812294" id="-14470">
		<tag k="loc_name" v="Bjønnstokkelva" />
		<tag k="name" v="Bjørnstokkelva" />
		<tag k="ssr:stedsnr" v="319125" />
		<tag k="waterway" v="river" />
	</node>
	<node lat="65.51062221921485" lon="12.76398056003658" id="-14474">
		<tag k="alt_name" v="Langtjønnan" />
		<tag k="name" v="Langvatnet" />
		<tag k="natural" v="water" />
		<tag k="ssr:stedsnr" v="319627" />
	</node>
	<node lat="65.60846389132354" lon="12.437694435597466" id="-14477">
		<tag k="name" v="Småvatnan" />
		<tag k="natural" v="water" />
		<tag k="ssr:stedsnr" v="319917" />
		<tag k="water" v="lake" />
	</node>
	<node lat="65.58960555855569" lon="12.556002775056085" id="-14479">
		<tag k="name" v="Blesbekken" />
		<tag k="ssr:stedsnr" v="319899" />
		<tag k="waterway" v="stream" />
	</node>
	<node lat="65.58541388437006" lon="12.657275009790755" id="-14480">
		<tag k="name" v="Jovatnan" />
		<tag k="natural" v="water" />
		<tag k="ssr:stedsnr" v="319900" />
		<tag k="water" v="lake" />
	</node>
	<node lat="65.37900833626247" lon="12.52364721910366" id="-14501">
		<tag k="name" v="Oternesholmen" />
		<tag k="place" v="islet" />
		<tag k="ssr:stedsnr" v="357471" />
	</node>
	<node lat="65.59184722499873" lon="12.541119452581574" id="-14506">
		<tag k="name" v="Klausmarkelva" />
		<tag k="ssr:stedsnr" v="357765" />
		<tag k="waterway" v="river" />
	</node>
	<node lat="65.34518333231496" lon="12.729252778110906" id="-14516">
		<tag k="name" v="Langneset" />
		<tag k="natural" v="cape" />
		<tag k="ssr:stedsnr" v="359205" />
	</node>
	<node lat="65.38876388600795" lon="12.526763890994271" id="-14548">
		<tag k="fixme" v="multiple name tags, choose one and add the other to alt_name" />
		<tag k="name" v="Hølinesvatnet;Finnvikvatnet" />
		<tag k="natural" v="water" />
		<tag k="ssr:stedsnr" v="370430" />
		<tag k="water" v="lake" />
	</node>
	<node lat="65.39416666440752" lon="12.868305553746364" id="-14577">
		<tag k="name" v="Midtre Breivatnet" />
		<tag k="natural" v="water" />
		<tag k="ssr:stedsnr" v="379107" />
		<tag k="water" v="lake" />
	</node>
	<node lat="65.30903888713507" lon="12.962349989999886" id="-14583">
		<tag k="name" v="Selilibekken" />
		<tag k="ssr:stedsnr" v="379030" />
		<tag k="waterway" v="stream" />
	</node>
	<node lat="65.45724999767914" lon="12.961452782000988" id="-14584">
		<tag k="loc_name" v="Ner-Grunnvatnet" />
		<tag k="name" v="Nedre Grunnvatnet" />
		<tag k="natural" v="water" />
		<tag k="ssr:stedsnr" v="379083" />
		<tag k="water" v="lake" />
	</node>
	<node lat="65.4488249957352" lon="12.863361106301214" id="-14585">
		<tag k="name" v="Lomtjønnan" />
		<tag k="natural" v="water" />
		<tag k="ssr:stedsnr" v="379089" />
	</node>
	<node lat="65.42491666538761" lon="12.400391661326488" id="-14587">
		<tag k="name" v="Marensbekken" />
		<tag k="ssr:stedsnr" v="379378" />
		<tag k="waterway" v="stream" />
	</node>
	<node lat="65.423205555772" lon="12.419325001564497" id="-14588">
		<tag k="name" v="Sjøbekken" />
		<tag k="ssr:stedsnr" v="379380" />
		<tag k="waterway" v="stream" />
	</node>
	<node lat="65.57114166545017" lon="12.485266675479654" id="-14595">
		<tag k="name" v="Mangåvatnet" />
		<tag k="natural" v="water" />
		<tag k="ssr:stedsnr" v="379986" />
	</node>
	<node lat="65.30071666837563" lon="12.490291675649107" id="-14602">
		<tag k="name" v="Storstrandneset" />
		<tag k="natural" v="cape" />
		<tag k="ssr:stedsnr" v="417602" />
	</node>
	<node lat="65.46575555157374" lon="12.794416673341699" id="-14611">
		<tag k="name" v="Lomtjønna" />
		<tag k="natural" v="water" />
		<tag k="ssr:stedsnr" v="418484" />
	</node>
	<node lat="65.39530833717245" lon="12.173533342726405" id="-14621">
		<tag k="name" v="Mølnrasbekken" />
		<tag k="ssr:stedsnr" v="419816" />
		<tag k="waterway" v="stream" />
	</node>
	<node lat="65.25056666606302" lon="12.720480559237734" id="-14632">
		<tag k="name" v="Mekastjønna" />
		<tag k="natural" v="water" />
		<tag k="ssr:stedsnr" v="421155" />
	</node>
	<node lat="65.24945277436258" lon="12.781705554025365" id="-14635">
		<tag k="name" v="Lessengbekken" />
		<tag k="ssr:stedsnr" v="421315" />
		<tag k="waterway" v="stream" />
	</node>
	<node lat="65.38114166527053" lon="12.61714722316178" id="-14645">
		<tag k="name" v="Svahyllbekken" />
		<tag k="ssr:stedsnr" v="421612" />
		<tag k="waterway" v="stream" />
	</node>
	<node lat="65.2939194436232" lon="13.055436102884991" id="-14653">
		<tag k="name" v="Supervassbekken" />
		<tag k="ssr:stedsnr" v="422208" />
		<tag k="waterway" v="stream" />
	</node>
	<node lat="65.40025277860387" lon="12.577002771986372" id="-14662">
		<tag k="name" v="Granholman" />
		<tag k="place" v="islet" />
		<tag k="ssr:stedsnr" v="422710" />
	</node>
	<node lat="65.41752778179573" lon="12.438850009267366" id="-14674">
		<tag k="name" v="Salttjønna" />
		<tag k="natural" v="water" />
		<tag k="ssr:stedsnr" v="478339" />
	</node>
	<node lat="65.49081944451709" lon="12.754758338243237" id="-14680">
		<tag k="name" v="Kjembekken" />
		<tag k="ssr:stedsnr" v="478558" />
		<tag k="waterway" v="stream" />
	</node>
	<node lat="65.41039444572043" lon="12.47202499566531" id="-14681">
		<tag k="name" v="Mølnhusbekken" />
		<tag k="ssr:stedsnr" v="478733" />
		<tag k="waterway" v="stream" />
	</node>
	<node lat="65.41228889184903" lon="12.76436944894686" id="-14686">
		<tag k="name" v="Steinbekken" />
		<tag k="ssr:stedsnr" v="478798" />
		<tag k="waterway" v="stream" />
	</node>
	<node lat="65.4318361129366" lon="12.207063896413855" id="-14692">
		<tag k="name" v="Indrosen" />
		<tag k="natural" v="bay" />
		<tag k="ssr:stedsnr" v="439010" />
	</node>
	<node lat="65.28366944063903" lon="12.631805550211256" id="-14697">
		<tag k="alt_name" v="Nedrengbekken" />
		<tag k="name" v="Nerengbekken" />
		<tag k="ssr:stedsnr" v="439210" />
		<tag k="waterway" v="stream" />
	</node>
	<node lat="65.49004444138795" lon="12.269463895372867" id="-14698">
		<tag k="name" v="Trælvikosen" />
		<tag k="natural" v="bay" />
		<tag k="ssr:stedsnr" v="439257" />
	</node>
	<node lat="65.30723333259985" lon="12.606119434823565" id="-14701">
		<tag k="alt_name" v="Lessvatnet" />
		<tag k="name" v="Lislvatnet" />
		<tag k="natural" v="water" />
		<tag k="ssr:stedsnr" v="439269" />
	</node>
	<node lat="65.38273055731412" lon="12.562108331176661" id="-14704">
		<tag k="name" v="Krokvatnet" />
		<tag k="natural" v="water" />
		<tag k="ssr:stedsnr" v="439368" />
	</node>
	<node lat="65.29940833040284" lon="12.82473056290651" id="-14715">
		<tag k="name" v="Storbekkvatnet" />
		<tag k="natural" v="water" />
		<tag k="ssr:stedsnr" v="440051" />
	</node>
	<node lat="65.29792500271694" lon="12.847594454615477" id="-14717">
		<tag k="name" v="Mølnforselva" />
		<tag k="ssr:stedsnr" v="440061" />
		<tag k="waterway" v="stream" />
	</node>
	<node lat="65.29713055633077" lon="12.932661105883525" id="-14718">
		<tag k="name" v="Tjeldvikelva" />
		<tag k="ssr:stedsnr" v="440067" />
		<tag k="waterway" v="river" />
	</node>
	<node lat="65.43560277549598" lon="12.334508333456192" id="-14721">
		<tag k="alt_name" v="Kverngrorvatnet" />
		<tag k="name" v="Kvenngrovvatnet" />
		<tag k="natural" v="water" />
		<tag k="ssr:stedsnr" v="440466" />
	</node>
	<node lat="65.33102777507239" lon="12.901424993101614" id="-14728">
		<tag k="name" v="Leiråa" />
		<tag k="ssr:stedsnr" v="440658" />
		<tag k="waterway" v="river" />
	</node>
	<node lat="65.30582222160068" lon="12.75889444447307" id="-14769">
		<tag k="name" v="Feskarodden" />
		<tag k="natural" v="cape" />
		<tag k="ssr:stedsnr" v="663177" />
	</node>
	<node lat="65.30091944725214" lon="13.02645000491793" id="-14772">
		<tag k="name" v="Tafsneset" />
		<tag k="natural" v="cape" />
		<tag k="ssr:stedsnr" v="663185" />
	</node>
	<node lat="65.33328333258248" lon="12.744416670753658" id="-14774">
		<tag k="name" v="Ol-Gunnarskjåvatnet" />
		<tag k="natural" v="water" />
		<tag k="ssr:stedsnr" v="663216" />
	</node>
	<node lat="65.29974999911707" lon="12.580022213428746" id="-14778">
		<tag k="name" v="Lendebugen" />
		<tag k="natural" v="bay" />
		<tag k="ssr:stedsnr" v="663300" />
	</node>
	<node lat="65.26835833507072" lon="12.632819447867535" id="-14779">
		<tag k="name" v="Kalbekken" />
		<tag k="ssr:stedsnr" v="663353" />
		<tag k="waterway" v="stream" />
	</node>
	<node lat="65.28965000132106" lon="12.667497223635552" id="-14795">
		<tag k="name" v="Nessan" />
		<tag k="natural" v="cape" />
		<tag k="ssr:stedsnr" v="663834" />
	</node>
	<node lat="65.36224444492349" lon="12.600833336201859" id="-14797">
		<tag k="loc_name" v="Ytterrørlivatnet" />
		<tag k="name" v="Ytre Rødlivatnet" />
		<tag k="natural" v="water" />
		<tag k="ssr:stedsnr" v="663859" />
		<tag k="water" v="lake" />
	</node>
	<node lat="65.36431111095987" lon="12.536691664954489" id="-14798">
		<tag k="name" v="Nesholmen" />
		<tag k="place" v="islet" />
		<tag k="ssr:stedsnr" v="663869" />
	</node>
	<node lat="65.36090277391841" lon="12.54144167339684" id="-14799">
		<tag k="name" v="Nervika" />
		<tag k="natural" v="bay" />
		<tag k="ssr:stedsnr" v="663876" />
	</node>
	<node lat="65.36125833110455" lon="12.552205560817226" id="-14801">
		<tag k="name" v="Lessbjørbugen" />
		<tag k="natural" v="bay" />
		<tag k="ssr:stedsnr" v="663881" />
	</node>
	<node lat="65.36111389153743" lon="13.000686116364685" id="-14828">
		<tag k="name" v="Sandneset" />
		<tag k="natural" v="cape" />
		<tag k="ssr:stedsnr" v="478568" />
	</node>
	<node lat="65.4846722230293" lon="12.328900000603038" id="-14839">
		<tag k="name" v="Toknbekkskjæret" />
		<tag k="place" v="islet" />
		<tag k="ssr:stedsnr" v="479587" />
	</node>
	<node lat="65.30360832992673" lon="12.717897229070074" id="-14842">
		<tag k="name" v="Lessvatnet" />
		<tag k="natural" v="water" />
		<tag k="ssr:stedsnr" v="481167" />
	</node>
	<node lat="65.327261107014" lon="12.704055547412894" id="-14844">
		<tag k="name" v="Kamelva" />
		<tag k="ssr:stedsnr" v="481176" />
		<tag k="waterway" v="stream" />
	</node>
	<node lat="65.3659388888105" lon="12.554072227473721" id="-14855">
		<tag k="name" v="Hundtjønna" />
		<tag k="natural" v="water" />
		<tag k="ssr:stedsnr" v="481610" />
	</node>
	<node lat="65.40023889181577" lon="12.537886115249783" id="-14868">
		<tag k="name" v="Mølnvatnet" />
		<tag k="natural" v="water" />
		<tag k="ssr:stedsnr" v="491691" />
	</node>
	<node lat="65.37335277479515" lon="12.61800278667699" id="-14881">
		<tag k="alt_name" v="Lomtjørna" />
		<tag k="name" v="Lomtjønna" />
		<tag k="natural" v="water" />
		<tag k="ssr:stedsnr" v="500496" />
	</node>
	<node lat="65.40708333241756" lon="12.245666676410929" id="-14882">
		<tag k="name" v="Vassbotnvatnet" />
		<tag k="natural" v="water" />
		<tag k="ssr:stedsnr" v="500498" />
		<tag k="water" v="lake" />
	</node>
	<node lat="65.2313249985354" lon="12.95827777335185" id="-14884">
		<tag k="name" v="Kalklavdalsvatnet - Sealmanjaevrie" />
		<tag k="name:no" v="Kalklavdalsvatnet" />
		<tag k="name:sma" v="Sealmanjaevrie" />
		<tag k="natural" v="water" />
		<tag k="ssr:stedsnr" v="500649" />
		<tag k="water" v="lake" />
	</node>
	<node lat="65.35517500283413" lon="12.592016671934704" id="-14886">
		<tag k="name" v="Granneset" />
		<tag k="natural" v="cape" />
		<tag k="ssr:stedsnr" v="500397" />
	</node>
	<node lat="65.4128166690257" lon="12.591380556510027" id="-14891">
		<tag k="name" v="Kjerstivatnet" />
		<tag k="natural" v="water" />
		<tag k="ssr:stedsnr" v="500542" />
	</node>
	<node lat="65.43539722109567" lon="12.41684723028995" id="-14893">
		<tag k="alt_name" v="Lomstjørna" />
		<tag k="name" v="Lomstjønna" />
		<tag k="natural" v="water" />
		<tag k="ssr:stedsnr" v="500553" />
	</node>
	<node lat="65.28525000366515" lon="12.689033330740308" id="-14894">
		<tag k="name" v="Granlibekken" />
		<tag k="ssr:stedsnr" v="500750" />
		<tag k="waterway" v="stream" />
	</node>
	<node lat="65.3836777789994" lon="12.854500007700079" id="-14902">
		<tag k="loc_name" v="Øver-Breivatnet" />
		<tag k="name" v="Øvre Breivatnet" />
		<tag k="natural" v="water" />
		<tag k="ssr:stedsnr" v="501104" />
		<tag k="water" v="lake" />
	</node>
	<node lat="65.35906110893873" lon="12.996263886891882" id="-14903">
		<tag k="name" v="Godvatnet" />
		<tag k="natural" v="water" />
		<tag k="ssr:stedsnr" v="501105" />
	</node>
	<node lat="65.46552777837863" lon="12.891233343303886" id="-14925">
		<tag k="name" v="Lessholmen" />
		<tag k="place" v="islet" />
		<tag k="ssr:stedsnr" v="539505" />
	</node>
	<node lat="65.48414999933057" lon="12.754249990500686" id="-14926">
		<tag k="name" v="Bjønnbekken" />
		<tag k="ssr:stedsnr" v="539528" />
		<tag k="waterway" v="stream" />
	</node>
	<node lat="65.33148055770775" lon="12.948952770780462" id="-14929">
		<tag k="name" v="Aunstranda" />
		<tag k="natural" v="cape" />
		<tag k="ssr:stedsnr" v="539426" />
	</node>
	<node lat="65.55283889160361" lon="12.521613886598486" id="-14937">
		<tag k="name" v="Vassbogelva" />
		<tag k="ssr:stedsnr" v="539805" />
		<tag k="waterway" v="stream" />
	</node>
	<node lat="65.5658449122128" lon="12.295471320556324" id="-14938">
		<tag k="name" v="Galtvika" />
		<tag k="natural" v="bay" />
		<tag k="ssr:stedsnr" v="539809" />
	</node>
	<node lat="65.30294166430075" lon="12.740833333688197" id="-14945">
		<tag k="name" v="Sanengbukta" />
		<tag k="natural" v="bay" />
		<tag k="ssr:stedsnr" v="541175" />
	</node>
	<node lat="65.38855832943761" lon="12.624075009491404" id="-14962">
		<tag k="name" v="Skvarbekken" />
		<tag k="ssr:stedsnr" v="542575" />
		<tag k="waterway" v="stream" />
	</node>
	<node lat="65.38272777541579" lon="12.55745833281962" id="-14963">
		<tag k="name" v="Hålåneset" />
		<tag k="natural" v="cape" />
		<tag k="ssr:stedsnr" v="542583" />
	</node>
	<node lat="65.37223333440606" lon="12.534333335300959" id="-14964">
		<tag k="name" v="Tveithøla" />
		<tag k="natural" v="water" />
		<tag k="ssr:stedsnr" v="542586" />
		<tag k="water" v="lake" />
	</node>
	<node lat="65.39946389077528" lon="12.571972225437607" id="-14983">
		<tag k="name" v="Lumesodden" />
		<tag k="natural" v="cape" />
		<tag k="ssr:stedsnr" v="543702" />
	</node>
	<node lat="65.40590833218604" lon="12.563511110389879" id="-14984">
		<tag k="name" v="Leirvika" />
		<tag k="natural" v="bay" />
		<tag k="ssr:stedsnr" v="543713" />
	</node>
	<node lat="65.39440555649645" lon="12.573969437273263" id="-14985">
		<tag k="name" v="Aksettjønnan" />
		<tag k="natural" v="water" />
		<tag k="ssr:stedsnr" v="543720" />
		<tag k="water" v="lake" />
	</node>
	<node lat="65.29084444182394" lon="12.694924989495904" id="-14998">
		<tag k="name" v="Storbekken" />
		<tag k="ssr:stedsnr" v="560199" />
		<tag k="waterway" v="stream" />
	</node>
	<node lat="65.35354999716212" lon="12.507508342089556" id="-14999">
		<tag k="name" v="Skogvatnet" />
		<tag k="natural" v="water" />
		<tag k="ssr:stedsnr" v="560303" />
		<tag k="water" v="lake" />
	</node>
	<node lat="65.40206944402406" lon="12.618455560112174" id="-15003">
		<tag k="name" v="Skogkjekstjønna" />
		<tag k="natural" v="water" />
		<tag k="ssr:stedsnr" v="560504" />
	</node>
	<node lat="65.39868611090562" lon="12.54449444888549" id="-15004">
		<tag k="alt_name" v="Lessvatnet" />
		<tag k="name" v="Lislvatnet" />
		<tag k="natural" v="water" />
		<tag k="ssr:stedsnr" v="560506" />
	</node>
	<node lat="65.49793055294484" lon="12.677858324557157" id="-15006">
		<tag k="loc_name" v="Vesterdalsvatnan" />
		<tag k="name" v="Vestredalsvatnan" />
		<tag k="natural" v="water" />
		<tag k="ssr:stedsnr" v="560246" />
	</node>
	<node lat="65.37774722341172" lon="12.623372218657176" id="-15014">
		<tag k="name" v="Steinbekken" />
		<tag k="ssr:stedsnr" v="560411" />
		<tag k="waterway" v="stream" />
	</node>
	<node lat="65.41947500213412" lon="12.587150008364143" id="-15015">
		<tag k="name" v="Bergvikvatnet" />
		<tag k="natural" v="water" />
		<tag k="ssr:stedsnr" v="560416" />
	</node>
	<node lat="65.29711111261044" lon="12.722194447972681" id="-15024">
		<tag k="name" v="Langbekken" />
		<tag k="ssr:stedsnr" v="561039" />
		<tag k="waterway" v="stream" />
	</node>
	<node lat="65.28677499819128" lon="12.824675010034866" id="-15026">
		<tag k="name" v="Engevatnet" />
		<tag k="natural" v="water" />
		<tag k="ssr:stedsnr" v="561050" />
	</node>
	<node lat="65.3436805543625" lon="12.762719446427168" id="-15031">
		<tag k="name" v="Tosholvatnet" />
		<tag k="natural" v="water" />
		<tag k="ssr:stedsnr" v="561114" />
	</node>
	<node lat="65.59257499579888" lon="12.583691661905679" id="-15035">
		<tag k="name" v="Storfjordelva" />
		<tag k="ssr:stedsnr" v="561910" />
		<tag k="waterway" v="river" />
	</node>
	<node lat="65.45878888747403" lon="12.122116666964102" id="-15043">
		<tag k="name" v="Korngårdosen" />
		<tag k="natural" v="bay" />
		<tag k="ssr:stedsnr" v="681092" />
	</node>
	<node lat="65.43523055585824" lon="12.205880564444058" id="-15054">
		<tag k="alt_name" v="Ytterosen" />
		<tag k="name" v="Ytrosen" />
		<tag k="natural" v="bay" />
		<tag k="ssr:stedsnr" v="682032" />
	</node>
	<node lat="65.29020833686826" lon="12.734030562340944" id="-15058">
		<tag k="name" v="Seterbekken" />
		<tag k="ssr:stedsnr" v="682050" />
		<tag k="waterway" v="stream" />
	</node>
	<node lat="65.27262777672814" lon="12.672666661155445" id="-15063">
		<tag k="fixme" v="multiple name tags, choose one and add the other to alt_name" />
		<tag k="name" v="Sagdammen;Mølntjønna" />
		<tag k="natural" v="water" />
		<tag k="ssr:stedsnr" v="682156" />
	</node>
	<node lat="65.31871944684403" lon="12.629600005975329" id="-15065">
		<tag k="name" v="Valdskiftbekken" />
		<tag k="ssr:stedsnr" v="682328" />
		<tag k="waterway" v="stream" />
	</node>
	<node lat="65.32356388614298" lon="12.54572222886139" id="-15069">
		<tag k="name" v="Fuglvatnet" />
		<tag k="natural" v="water" />
		<tag k="ssr:stedsnr" v="682294" />
		<tag k="water" v="lake" />
	</node>
	<node lat="65.3041777758198" lon="12.517005547919922" id="-15070">
		<tag k="alt_name" v="Gårdstjørna" />
		<tag k="loc_name" v="Ånestjønna" />
		<tag k="name" v="Gårdstjønna" />
		<tag k="natural" v="water" />
		<tag k="ssr:stedsnr" v="682225" />
	</node>
	<node lat="65.28177499665581" lon="12.598222220327957" id="-15073">
		<tag k="name" v="Trollvatnet" />
		<tag k="natural" v="water" />
		<tag k="ssr:stedsnr" v="682245" />
	</node>
	<node lat="65.37541944205002" lon="12.455155564026333" id="-15078">
		<tag k="name" v="Småvatnan" />
		<tag k="natural" v="water" />
		<tag k="ssr:stedsnr" v="682473" />
	</node>
	<node lat="65.47831111159805" lon="12.388883325989255" id="-15079">
		<tag k="alt_name" v="Storbutjørna;Storbuvatnet" />
		<tag k="name" v="Storbutjønna" />
		<tag k="natural" v="water" />
		<tag k="ssr:stedsnr" v="682351" />
	</node>
	<node lat="65.43910278165959" lon="12.47966110167905" id="-15088">
		<tag k="alt_name" v="Nedre Svanvatnet" />
		<tag k="loc_name" v="Nersvanvatnet" />
		<tag k="name" v="Nedresvanvatnet" />
		<tag k="natural" v="water" />
		<tag k="ssr:stedsnr" v="682443" />
	</node>
	<node lat="65.4296166633213" lon="12.298963882491988" id="-15096">
		<tag k="name" v="Blåakseltjønna" />
		<tag k="natural" v="water" />
		<tag k="ssr:stedsnr" v="682532" />
	</node>
	<node lat="65.43657500378792" lon="12.405816666869015" id="-15097">
		<tag k="name" v="Holvatnet" />
		<tag k="natural" v="water" />
		<tag k="ssr:stedsnr" v="682533" />
	</node>
	<node lat="65.25656389092525" lon="12.695444453241233" id="-15102">
		<tag k="alt_name" v="Auneelva" />
		<tag k="name" v="Aunelva" />
		<tag k="ssr:stedsnr" v="682734" />
		<tag k="waterway" v="river" />
	</node>
	<node lat="65.5686499974368" lon="12.508555552392709" id="-15107">
		<tag k="name" v="Mangåan" />
		<tag k="ssr:stedsnr" v="682993" />
		<tag k="waterway" v="stream" />
	</node>
	<node lat="65.50684722328944" lon="12.965666658164965" id="-15116">
		<tag k="name" v="Henriksvatnet" />
		<tag k="natural" v="water" />
		<tag k="ssr:stedsnr" v="683622" />
		<tag k="water" v="lake" />
	</node>
	<node lat="65.60627778118877" lon="12.508555552165587" id="-15118">
		<tag k="name" v="Kveldtuvvatnet" />
		<tag k="natural" v="water" />
		<tag k="ssr:stedsnr" v="683902" />
	</node>
	<node lat="65.24946388707207" lon="12.740244454327916" id="-15123">
		<tag k="loc_name" v="Lissmoavatnet" />
		<tag k="name" v="Nedre Moavatnet" />
		<tag k="natural" v="water" />
		<tag k="ssr:stedsnr" v="683986" />
	</node>
	<node lat="65.41296666284445" lon="12.520677778842616" id="-15131">
		<tag k="name" v="Naustviklielva" />
		<tag k="ssr:stedsnr" v="600268" />
		<tag k="waterway" v="stream" />
	</node>
	<node lat="65.28878610822997" lon="12.575080553521763" id="-15136">
		<tag k="name" v="Storstranda" />
		<tag k="natural" v="beach" />
		<tag k="ssr:stedsnr" v="602206" />
	</node>
	<node lat="65.28676944010653" lon="12.820924998149309" id="-15146">
		<tag k="name" v="Neset" />
		<tag k="natural" v="cape" />
		<tag k="ssr:stedsnr" v="602403" />
	</node>
	<node lat="65.28583889299944" lon="12.819972215791916" id="-15147">
		<tag k="name" v="Korsurdalsneset" />
		<tag k="natural" v="cape" />
		<tag k="ssr:stedsnr" v="602405" />
	</node>
	<node lat="65.3972722224523" lon="12.60680833979201" id="-15148">
		<tag k="name" v="Gårbugen" />
		<tag k="natural" v="bay" />
		<tag k="ssr:stedsnr" v="602603" />
	</node>
	<node lat="65.28225000335323" lon="13.059511112374105" id="-15156">
		<tag k="name" v="Storåa" />
		<tag k="ssr:stedsnr" v="604220" />
		<tag k="waterway" v="stream" />
	</node>
	<node lat="65.42889167006186" lon="12.561977778331592" id="-15162">
		<tag k="name" v="Staulvågbekken" />
		<tag k="ssr:stedsnr" v="604517" />
		<tag k="waterway" v="stream" />
	</node>
	<node lat="65.35331944134938" lon="12.605261103229994" id="-15164">
		<tag k="name" v="Skjønnvika" />
		<tag k="natural" v="bay" />
		<tag k="ssr:stedsnr" v="604664" />
	</node>
	<node lat="65.35148333417894" lon="12.643591658426004" id="-15165">
		<tag k="name" v="Granvika" />
		<tag k="natural" v="bay" />
		<tag k="ssr:stedsnr" v="604669" />
	</node>
	<node lat="65.3162416705792" lon="12.758916658707513" id="-15171">
		<tag k="name" v="Lissjuvatnet" />
		<tag k="natural" v="water" />
		<tag k="ssr:stedsnr" v="621009" />
	</node>
	<node lat="65.31486388988853" lon="12.82046111143452" id="-15172">
		<tag k="name" v="Hestvatnet" />
		<tag k="natural" v="water" />
		<tag k="ssr:stedsnr" v="621011" />
	</node>
	<node lat="65.4865861107278" lon="12.757113891525734" id="-15180">
		<tag k="fixme" v="multiple name tags, choose one and add the other to alt_name" />
		<tag k="name" v="Granåselva;Langåselva" />
		<tag k="ssr:stedsnr" v="621184" />
		<tag k="waterway" v="river" />
	</node>
	<node lat="65.31994166233365" lon="12.597363898758914" id="-15182">
		<tag k="name" v="Skrovbekken" />
		<tag k="ssr:stedsnr" v="621315" />
		<tag k="waterway" v="stream" />
	</node>
	<node lat="65.41343055722503" lon="12.712566674555777" id="-15189">
		<tag k="name" v="Langvatnet" />
		<tag k="natural" v="water" />
		<tag k="ssr:stedsnr" v="621486" />
	</node>
	<node lat="65.45167221947437" lon="12.364000001931139" id="-15190">
		<tag k="alt_name" v="Nedre Sæterstivatnet" />
		<tag k="name" v="Nedresæterstigvatnet" />
		<tag k="natural" v="water" />
		<tag k="ssr:stedsnr" v="621489" />
		<tag k="water" v="lake" />
	</node>
	<node lat="65.40606944271251" lon="12.54060555001032" id="-15194">
		<tag k="name" v="Krokvatnet" />
		<tag k="natural" v="water" />
		<tag k="ssr:stedsnr" v="621506" />
	</node>
	<node lat="65.44094999605481" lon="12.436063879274762" id="-15197">
		<tag k="name" v="Aspåselva" />
		<tag k="ssr:stedsnr" v="621525" />
		<tag k="waterway" v="stream" />
	</node>
	<node lat="65.30966944399361" lon="12.687258323941148" id="-15199">
		<tag k="alt_name" v="Fjelltjørna" />
		<tag k="name" v="Fjelltjønna" />
		<tag k="natural" v="water" />
		<tag k="ssr:stedsnr" v="621729" />
	</node>
	<node lat="65.32259999613647" lon="12.900425003860668" id="-15201">
		<tag k="name" v="Lissola-vatnet" />
		<tag k="natural" v="water" />
		<tag k="ssr:stedsnr" v="622004" />
	</node>
	<node lat="65.3766666637874" lon="12.752661118028367" id="-15203">
		<tag k="name" v="Svartvatnet" />
		<tag k="natural" v="water" />
		<tag k="ssr:stedsnr" v="622107" />
	</node>
	<node lat="65.53156944710089" lon="12.59230834179923" id="-15213">
		<tag k="alt_name" v="Seiltelva" />
		<tag k="name" v="Seltelva" />
		<tag k="ssr:stedsnr" v="622783" />
		<tag k="waterway" v="stream" />
	</node>
	<node lat="65.52726110759046" lon="12.472338891304107" id="-15214">
		<tag k="loc_name" v="Størielva" />
		<tag k="name" v="Styrjelva" />
		<tag k="ssr:stedsnr" v="622789" />
		<tag k="waterway" v="river" />
	</node>
	<node lat="65.55453610745225" lon="12.475450003019096" id="-15217">
		<tag k="name" v="Elnåselva" />
		<tag k="ssr:stedsnr" v="622980" />
		<tag k="waterway" v="stream" />
	</node>
	<node lat="65.37405000047038" lon="12.514666670407907" id="-15236">
		<tag k="name" v="Oldervika" />
		<tag k="natural" v="bay" />
		<tag k="ssr:stedsnr" v="660508" />
	</node>
	<node lat="65.3575472223432" lon="12.51902223007428" id="-15237">
		<tag k="name" v="Bjørnneset" />
		<tag k="natural" v="cape" />
		<tag k="ssr:stedsnr" v="660545" />
	</node>
	<node lat="65.30235277576048" lon="12.522994448070286" id="-15238">
		<tag k="name" v="Skjulstjønna" />
		<tag k="natural" v="water" />
		<tag k="ssr:stedsnr" v="660551" />
	</node>
	<node lat="65.56276667065426" lon="12.287269445869502" id="-15241">
		<tag k="name" v="Istervikja" />
		<tag k="natural" v="bay" />
		<tag k="ssr:stedsnr" v="660813" />
	</node>
	<node lat="65.51006666461235" lon="12.573158330632854" id="-15242">
		<tag k="name" v="Heselva" />
		<tag k="ssr:stedsnr" v="660829" />
		<tag k="waterway" v="stream" />
	</node>
	<node lat="65.49640833543383" lon="12.10646111392383" id="-15254">
		<tag k="name" v="Nordvingelskogvatnet" />
		<tag k="natural" v="water" />
		<tag k="ssr:stedsnr" v="661849" />
	</node>
	<node lat="65.49076666772373" lon="12.385974995136369" id="-15256">
		<tag k="name" v="Vallidalsbekken" />
		<tag k="ssr:stedsnr" v="661899" />
		<tag k="waterway" v="stream" />
	</node>
	<node lat="65.32782499764225" lon="12.742091660362288" id="-15257">
		<tag k="name" v="Juvasselva" />
		<tag k="ssr:stedsnr" v="663204" />
		<tag k="waterway" v="river" />
	</node>
	<node lat="65.43424166362956" lon="12.439675008898963" id="-15265">
		<tag k="name" v="Bakkosen" />
		<tag k="natural" v="bay" />
		<tag k="ssr:stedsnr" v="663403" />
	</node>
	<node lat="65.39734444520559" lon="12.622158328094718" id="-15271">
		<tag k="name" v="Lalitjønna" />
		<tag k="natural" v="water" />
		<tag k="ssr:stedsnr" v="663587" />
	</node>
	<node lat="65.408152773887" lon="12.23283889670209" id="-15275">
		<tag k="name" v="Skardvatnet" />
		<tag k="natural" v="water" />
		<tag k="ssr:stedsnr" v="663652" />
	</node>
	<node lat="65.30413055238614" lon="12.606316661017066" id="-15278">
		<tag k="name" v="Storsundet" />
		<tag k="natural" v="bay" />
		<tag k="ssr:stedsnr" v="663843" />
	</node>
	<node lat="65.30648055183799" lon="12.607283339358679" id="-15279">
		<tag k="name" v="Estraumen" />
		<tag k="natural" v="strait" />
		<tag k="ssr:stedsnr" v="663847" />
	</node>
	<node lat="65.26657499865007" lon="12.641269446813718" id="-15284">
		<tag k="name" v="Vikran" />
		<tag k="natural" v="bay" />
		<tag k="ssr:stedsnr" v="663793" />
	</node>
	<node lat="65.3304111065804" lon="12.656261120440497" id="-15296">
		<tag k="name" v="Olderneset" />
		<tag k="natural" v="cape" />
		<tag k="ssr:stedsnr" v="664696" />
	</node>
	<node lat="65.44814444433486" lon="12.73591110148854" id="-15314">
		<tag k="name" v="Klavbekken" />
		<tag k="ssr:stedsnr" v="682075" />
		<tag k="waterway" v="stream" />
	</node>
	<node lat="65.32858888474514" lon="12.56830277385695" id="-15320">
		<tag k="alt_name" v="Sagelva" />
		<tag k="name" v="Sagbekken" />
		<tag k="ssr:stedsnr" v="682281" />
		<tag k="waterway" v="stream" />
	</node>
	<node lat="65.31690555634395" lon="12.704444437584343" id="-15328">
		<tag k="name" v="Fjelltjønna" />
		<tag k="natural" v="water" />
		<tag k="ssr:stedsnr" v="682312" />
	</node>
	<node lat="65.52089999697714" lon="12.515688885001527" id="-15350">
		<tag k="name" v="Gavlelva" />
		<tag k="ssr:stedsnr" v="683780" />
		<tag k="waterway" v="stream" />
	</node>
	<node lat="65.61071944486922" lon="12.538619444311587" id="-15351">
		<tag k="name" v="Janbekken" />
		<tag k="ssr:stedsnr" v="683927" />
		<tag k="waterway" v="stream" />
	</node>
	<node lat="65.40140277560994" lon="12.444561100775864" id="-15361">
		<tag k="name" v="Grøndalselva" />
		<tag k="ssr:stedsnr" v="721186" />
		<tag k="waterway" v="stream" />
	</node>
	<node lat="65.43588333232853" lon="12.815738878285195" id="-15368">
		<tag k="name" v="Grovbekken" />
		<tag k="ssr:stedsnr" v="721529" />
		<tag k="waterway" v="stream" />
	</node>
	<node lat="65.28528055630073" lon="12.572961109438285" id="-15390">
		<tag k="name" v="Lesstranda" />
		<tag k="natural" v="beach" />
		<tag k="ssr:stedsnr" v="724306" />
	</node>
	<node lat="65.36578055192419" lon="12.537694450900892" id="-15404">
		<tag k="name" v="Nebbåsfallet" />
		<tag k="ssr:stedsnr" v="724592" />
		<tag k="waterway" v="rapids" />
	</node>
	<node lat="65.36926389296437" lon="12.535000001808774" id="-15405">
		<tag k="name" v="Saghøla" />
		<tag k="natural" v="water" />
		<tag k="ssr:stedsnr" v="724595" />
		<tag k="water" v="lake" />
	</node>
	<node lat="65.31306666650852" lon="12.585561115786414" id="-15408">
		<tag k="name" v="Svantjønna" />
		<tag k="natural" v="water" />
		<tag k="ssr:stedsnr" v="724811" />
	</node>
	<node lat="65.43846666381135" lon="12.126499990189243" id="-15425">
		<tag k="alt_name" v="Valnesosen" />
		<tag k="name" v="Valosen" />
		<tag k="natural" v="bay" />
		<tag k="ssr:stedsnr" v="742012" />
	</node>
	<node lat="65.38722500353119" lon="12.670136120889602" id="-15434">
		<tag k="name" v="Lislvatnet" />
		<tag k="natural" v="water" />
		<tag k="ssr:stedsnr" v="742348" />
	</node>
	<node lat="65.38988055362711" lon="12.423263889759507" id="-15442">
		<tag k="name" v="Bordvikvatnet" />
		<tag k="natural" v="water" />
		<tag k="ssr:stedsnr" v="742448" />
	</node>
	<node lat="65.44350833556247" lon="12.739569440279029" id="-15445">
		<tag k="name" v="Klavbekkvatnet" />
		<tag k="natural" v="water" />
		<tag k="ssr:stedsnr" v="743094" />
	</node>
	<node lat="65.31014444748952" lon="12.490897216000352" id="-15455">
		<tag k="fixme" v="multiple name tags, choose one and add the other to alt_name" />
		<tag k="name" v="Brennmarktjønna;Svarttjønna" />
		<tag k="natural" v="water" />
		<tag k="ssr:stedsnr" v="743345" />
	</node>
	<node lat="65.39718888787287" lon="12.569641676740579" id="-15458">
		<tag k="name" v="Ospdalsvatnet" />
		<tag k="natural" v="water" />
		<tag k="ssr:stedsnr" v="743507" />
	</node>
	<node lat="65.50275278206149" lon="12.644494449741643" id="-15462">
		<tag k="name" v="Bulandsvatnet" />
		<tag k="natural" v="water" />
		<tag k="ssr:stedsnr" v="743785" />
	</node>
	<node lat="65.55581667059423" lon="12.252277774589457" id="-15484">
		<tag k="name" v="Hestneset" />
		<tag k="natural" v="cape" />
		<tag k="ssr:stedsnr" v="781771" />
	</node>
	<node lat="65.32924999814597" lon="12.963841670050835" id="-15495">
		<tag k="name" v="Tverålineset" />
		<tag k="natural" v="cape" />
		<tag k="ssr:stedsnr" v="782367" />
	</node>
	<node lat="65.35672778074749" lon="12.510669446506908" id="-15496">
		<tag k="name" v="Tafsvika" />
		<tag k="natural" v="bay" />
		<tag k="ssr:stedsnr" v="782518" />
	</node>
	<node lat="65.4094527757667" lon="12.244555563507994" id="-15507">
		<tag k="name" v="Auså" />
		<tag k="place" v="islet" />
		<tag k="ssr:stedsnr" v="784671" />
	</node>
	<node lat="65.30425832959266" lon="12.604675006932581" id="-15516">
		<tag k="name" v="Straumnesan" />
		<tag k="natural" v="cape" />
		<tag k="ssr:stedsnr" v="784853" />
	</node>
	<node lat="65.36374722093085" lon="12.57899165832415" id="-15518">
		<tag k="name" v="Rørvasselva" />
		<tag k="ssr:stedsnr" v="784862" />
		<tag k="waterway" v="stream" />
	</node>
	<node lat="65.29712222089675" lon="13.039388880071142" id="-15524">
		<tag k="name" v="Røyrbukta" />
		<tag k="natural" v="bay" />
		<tag k="ssr:stedsnr" v="785202" />
	</node>
	<node lat="65.32256666646438" lon="12.557863880827075" id="-15537">
		<tag k="name" v="Indre Storholmen" />
		<tag k="place" v="islet" />
		<tag k="ssr:stedsnr" v="786704" />
	</node>
	<node lat="65.36341666780383" lon="12.605652786809097" id="-15542">
		<tag k="name" v="Stegelva" />
		<tag k="ssr:stedsnr" v="786856" />
		<tag k="waterway" v="stream" />
	</node>
	<node lat="65.3517166698796" lon="13.000797219279248" id="-15548">
		<tag k="name" v="Øverengelva" />
		<tag k="ssr:stedsnr" v="902580" />
		<tag k="waterway" v="river" />
	</node>
	<node lat="65.34254166426463" lon="12.979788895121109" id="-15554">
		<tag k="name" v="Mærratjern" />
		<tag k="natural" v="water" />
		<tag k="ssr:stedsnr" v="903381" />
		<tag k="water" v="lake" />
	</node>
	<node lat="65.32979999574475" lon="12.95544167421461" id="-15558">
		<tag k="name" v="Elvkråen" />
		<tag k="natural" v="water" />
		<tag k="ssr:stedsnr" v="903444" />
		<tag k="water" v="lake" />
	</node>
	<node lat="65.35724444334623" lon="12.97575832853189" id="-15566">
		<tag k="name" v="Forsan" />
		<tag k="natural" v="waterfall" />
		<tag k="ssr:stedsnr" v="903543" />
	</node>
	<node lat="65.34077222058677" lon="12.496563886285715" id="-15581">
		<tag k="name" v="Tømneset" />
		<tag k="natural" v="cape" />
		<tag k="ssr:stedsnr" v="803375" />
	</node>
	<node lat="65.33070555302696" lon="12.52071389657185" id="-15589">
		<tag k="name" v="Tverråen" />
		<tag k="ssr:stedsnr" v="903764" />
		<tag k="waterway" v="stream" />
	</node>
	<node lat="65.26744722374764" lon="12.690677772523522" id="-15604">
		<tag k="name" v="Sørenskogvatnet" />
		<tag k="natural" v="water" />
		<tag k="ssr:stedsnr" v="804175" />
	</node>
	<node lat="65.33544722538801" lon="12.506127772411544" id="-15606">
		<tag k="name" v="Mølnhusbekken" />
		<tag k="ssr:stedsnr" v="903948" />
		<tag k="waterway" v="stream" />
	</node>
	<node lat="65.55989444705573" lon="12.283277775471147" id="-15608">
		<tag k="name" v="Svartvikja" />
		<tag k="natural" v="bay" />
		<tag k="ssr:stedsnr" v="903823" />
	</node>
	<node lat="65.40005555571193" lon="12.57583610853353" id="-15612">
		<tag k="name" v="Rugåsvatnet" />
		<tag k="natural" v="water" />
		<tag k="ssr:stedsnr" v="804524" />
	</node>
	<node lat="65.56374444517274" lon="12.579927775720154" id="-15613">
		<tag k="name" v="Storvikelva" />
		<tag k="ssr:stedsnr" v="903861" />
		<tag k="waterway" v="stream" />
	</node>
	<node lat="65.54897777833233" lon="12.248988885189254" id="-15625">
		<tag k="name" v="Sandoselva" />
		<tag k="ssr:stedsnr" v="804975" />
		<tag k="waterway" v="stream" />
	</node>
	<node lat="65.51609444658936" lon="12.615805557507226" id="-15632">
		<tag k="name" v="Bulandelva" />
		<tag k="ssr:stedsnr" v="903838" />
		<tag k="waterway" v="stream" />
	</node>
	<node lat="65.32722222195171" lon="12.90817776827647" id="-15639">
		<tag k="name" v="Leirbekkjen" />
		<tag k="ssr:stedsnr" v="904160" />
		<tag k="waterway" v="stream" />
	</node>
	<node lat="65.30698611476251" lon="13.020244445264662" id="-15640">
		<tag k="name" v="Bjønnstokkvika" />
		<tag k="natural" v="bay" />
		<tag k="ssr:stedsnr" v="904136" />
	</node>
	<node lat="65.42259444573749" lon="12.050733334015238" id="-15656">
		<tag k="name" v="Holmstrandvatnet" />
		<tag k="natural" v="water" />
		<tag k="ssr:stedsnr" v="906021" />
	</node>
	<node lat="65.34395000373574" lon="12.744083333928812" id="-15661">
		<tag k="name" v="Kråkfossen" />
		<tag k="natural" v="waterfall" />
		<tag k="ssr:stedsnr" v="906143" />
	</node>
	<node lat="65.3328111076558" lon="12.67603056088062" id="-15665">
		<tag k="name" v="Lauvstrand" />
		<tag k="natural" v="beach" />
		<tag k="ssr:stedsnr" v="906157" />
	</node>
	<node lat="65.29446666500877" lon="12.583966670950327" id="-15677">
		<tag k="name" v="Stakkdalsbekken" />
		<tag k="ssr:stedsnr" v="906334" />
		<tag k="waterway" v="stream" />
	</node>
	<node lat="65.32410555108287" lon="12.725638898604977" id="-15705">
		<tag k="name" v="Grønlitjønna" />
		<tag k="natural" v="water" />
		<tag k="ssr:stedsnr" v="906931" />
	</node>
	<node lat="65.41725000264549" lon="12.588452782096159" id="-15713">
		<tag k="name" v="Agnettjønna" />
		<tag k="natural" v="water" />
		<tag k="ssr:stedsnr" v="908528" />
	</node>
	<node lat="65.40224166410823" lon="12.571736119536741" id="-15717">
		<tag k="name" v="Svanvasstraumen" />
		<tag k="ssr:stedsnr" v="908746" />
		<tag k="waterway" v="stream" />
	</node>
	<node lat="65.39376944291723" lon="12.540150000422544" id="-15719">
		<tag k="name" v="Tåvika" />
		<tag k="natural" v="bay" />
		<tag k="ssr:stedsnr" v="908750" />
	</node>
	<node lat="65.30611666810893" lon="12.480247233149758" id="-15720">
		<tag k="name" v="Grytstibekken" />
		<tag k="ssr:stedsnr" v="842537" />
		<tag k="waterway" v="stream" />
	</node>
	<node lat="65.26468333347701" lon="12.649494447329806" id="-15746">
		<tag k="name" v="Svarttjønnbekkbukta" />
		<tag k="natural" v="bay" />
		<tag k="ssr:stedsnr" v="845378" />
	</node>
	<node lat="65.30068333097026" lon="12.870566658938865" id="-15762">
		<tag k="name" v="Rafossen" />
		<tag k="natural" v="waterfall" />
		<tag k="ssr:stedsnr" v="846377" />
	</node>
	<node lat="65.43033610901453" lon="12.651450007794507" id="-15764">
		<tag k="name" v="Kråbekken" />
		<tag k="ssr:stedsnr" v="846394" />
		<tag k="waterway" v="stream" />
	</node>
	<node lat="65.38286389296394" lon="12.567477781627952" id="-15767">
		<tag k="name" v="Værlamneset" />
		<tag k="natural" v="cape" />
		<tag k="ssr:stedsnr" v="846582" />
	</node>
	<node lat="65.3152388858144" lon="12.581194442166929" id="-15771">
		<tag k="name" v="Ytre Svantjønna" />
		<tag k="natural" v="bay" />
		<tag k="ssr:stedsnr" v="846809" />
	</node>
	<node lat="65.28213611213326" lon="13.061213899729221" id="-15783">
		<tag k="name" v="Kjeldån" />
		<tag k="ssr:stedsnr" v="847226" />
		<tag k="waterway" v="stream" />
	</node>
	<node lat="65.29188055877893" lon="13.049861113241391" id="-15784">
		<tag k="name" v="Neset" />
		<tag k="natural" v="cape" />
		<tag k="ssr:stedsnr" v="847234" />
	</node>
	<node lat="65.32359721929961" lon="12.659680549801903" id="-15789">
		<tag k="name" v="Myrholmen" />
		<tag k="place" v="islet" />
		<tag k="ssr:stedsnr" v="847710" />
	</node>
	<node lat="65.43440000256969" lon="12.112469436263162" id="-15801">
		<tag k="alt_name" v="Lille Torgvatnet;Less Torgvatnet" />
		<tag k="name" v="Ytrevatnet" />
		<tag k="natural" v="water" />
		<tag k="ssr:stedsnr" v="864006" />
	</node>
	<node lat="65.3034972198699" lon="12.507969446762834" id="-15814">
		<tag k="alt_name" v="Mølntjørna" />
		<tag k="name" v="Mølntjønna" />
		<tag k="natural" v="water" />
		<tag k="ssr:stedsnr" v="864200" />
	</node>
	<node lat="65.31829444361495" lon="12.641986119537444" id="-15819">
		<tag k="name" v="Sauselva" />
		<tag k="ssr:stedsnr" v="864299" />
		<tag k="waterway" v="river" />
	</node>
	<node lat="65.3713638918445" lon="12.554686102837325" id="-15820">
		<tag k="fixme" v="multiple name tags, choose one and add the other to alt_name" />
		<tag k="loc_name" v="Flåtvatnet" />
		<tag k="name" v="Flatvatnet;Flottvatnet" />
		<tag k="natural" v="water" />
		<tag k="ssr:stedsnr" v="864452" />
	</node>
	<node lat="65.45635555643442" lon="12.369463882603089" id="-15824">
		<tag k="alt_name" v="Øvre Sæterstivatnet" />
		<tag k="name" v="Øvresæterstigvatnet" />
		<tag k="natural" v="water" />
		<tag k="ssr:stedsnr" v="864496" />
		<tag k="water" v="lake" />
	</node>
	<node lat="65.46295000411901" lon="12.40097778582188" id="-15831">
		<tag k="alt_name" v="Vandalsviksvartvatnet" />
		<tag k="name" v="Svartvatnet" />
		<tag k="natural" v="water" />
		<tag k="ssr:stedsnr" v="864514" />
		<tag k="water" v="lake" />
	</node>
	<node lat="65.3073444455943" lon="12.763508336456665" id="-15832">
		<tag k="name" v="Grunnvatnet" />
		<tag k="natural" v="water" />
		<tag k="ssr:stedsnr" v="865041" />
	</node>
	<node lat="65.33234166686451" lon="12.974150000550443" id="-15842">
		<tag k="name" v="Tverråa" />
		<tag k="ssr:stedsnr" v="865698" />
		<tag k="waterway" v="river" />
	</node>
	<node lat="65.54879166660298" lon="12.533352768211838" id="-15852">
		<tag k="alt_name" v="Vassbogvatnet" />
		<tag k="name" v="Vassbugvatnet" />
		<tag k="natural" v="water" />
		<tag k="ssr:stedsnr" v="865986" />
	</node>
	<node lat="65.36375833140225" lon="12.999044439659894" id="-15857">
		<tag k="name" v="Storneset" />
		<tag k="natural" v="cape" />
		<tag k="ssr:stedsnr" v="917539" />
	</node>
	<node lat="65.34709444829042" lon="12.979247213765596" id="-15862">
		<tag k="name" v="Svartvasselva" />
		<tag k="ssr:stedsnr" v="902559" />
		<tag k="waterway" v="river" />
	</node>
	<node lat="65.32996110780127" lon="12.981313885502312" id="-15873">
		<tag k="name" v="Gærn-Benjamenbekken" />
		<tag k="ssr:stedsnr" v="903410" />
		<tag k="waterway" v="stream" />
	</node>
	<node lat="65.42472778036742" lon="12.778186116165488" id="-15879">
		<tag k="name" v="Vargneset" />
		<tag k="natural" v="cape" />
		<tag k="ssr:stedsnr" v="903931" />
	</node>
	<node lat="65.34548055920685" lon="12.727530551070151" id="-15893">
		<tag k="name" v="Stillelva" />
		<tag k="ssr:stedsnr" v="906217" />
		<tag k="waterway" v="river" />
	</node>
	<node lat="65.4209388861452" lon="12.06206943563455" id="-15908">
		<tag k="name" v="Svartskogvatnet" />
		<tag k="natural" v="water" />
		<tag k="ssr:stedsnr" v="906954" />
	</node>
	<node lat="65.35885555644636" lon="12.57292500284778" id="-15912">
		<tag k="name" v="Nausttomta" />
		<tag k="natural" v="bay" />
		<tag k="ssr:stedsnr" v="906866" />
	</node>
	<node lat="65.40583333216051" lon="12.56785000599881" id="-15921">
		<tag k="name" v="Fjøsvika" />
		<tag k="natural" v="bay" />
		<tag k="ssr:stedsnr" v="908761" />
	</node>
	<node lat="65.29625833461809" lon="12.715080554237328" id="-15938">
		<tag k="name" v="Skalhaugbekken" />
		<tag k="ssr:stedsnr" v="925227" />
		<tag k="waterway" v="stream" />
	</node>
	<node lat="65.45278889080062" lon="12.411075002293439" id="-15948">
		<tag k="name" v="Svartvatnet" />
		<tag k="natural" v="water" />
		<tag k="ssr:stedsnr" v="925711" />
		<tag k="water" v="lake" />
	</node>
	<node lat="65.38287777923924" lon="12.58403056055478" id="-15949">
		<tag k="alt_name" v="Lessvatnet" />
		<tag k="name" v="Lislvatnet" />
		<tag k="natural" v="water" />
		<tag k="ssr:stedsnr" v="925712" />
	</node>
	<node lat="65.38169999587902" lon="12.770158334395624" id="-15956">
		<tag k="name" v="Titingsvatnet" />
		<tag k="natural" v="water" />
		<tag k="ssr:stedsnr" v="926103" />
		<tag k="water" v="lake" />
	</node>
	<node lat="65.3509916674844" lon="12.985933331122688" id="-15957">
		<tag k="name" v="Svartvatnet" />
		<tag k="natural" v="water" />
		<tag k="ssr:stedsnr" v="926110" />
	</node>
	<node lat="65.61311667021782" lon="12.529363879138023" id="-15959">
		<tag k="name" v="Langvatnet" />
		<tag k="natural" v="water" />
		<tag k="ssr:stedsnr" v="926808" />
	</node>
	<node lat="65.54961388537666" lon="12.650033331663698" id="-15961">
		<tag k="name" v="Sørtrolltjønna" />
		<tag k="natural" v="water" />
		<tag k="ssr:stedsnr" v="926976" />
	</node>
	<node lat="65.39122778165331" lon="12.46417777319592" id="-15967">
		<tag k="name" v="Tennosen" />
		<tag k="natural" v="strait" />
		<tag k="ssr:stedsnr" v="963239" />
	</node>
	<node lat="65.54098888513397" lon="12.268113889282445" id="-15968">
		<tag k="name" v="Kvennbekkjen" />
		<tag k="ssr:stedsnr" v="963627" />
		<tag k="waterway" v="stream" />
	</node>
	<node lat="65.3939777795706" lon="12.522255557877783" id="-15976">
		<tag k="name" v="Sevtjønna" />
		<tag k="natural" v="water" />
		<tag k="ssr:stedsnr" v="964009" />
	</node>
	<node lat="65.49490555838405" lon="12.348675007746653" id="-15983">
		<tag k="name" v="Åneselva" />
		<tag k="ssr:stedsnr" v="964304" />
		<tag k="waterway" v="stream" />
	</node>
	<node lat="65.47169721831781" lon="12.079358339623438" id="-15992">
		<tag k="name" v="Utviktjønna" />
		<tag k="natural" v="water" />
		<tag k="ssr:stedsnr" v="965427" />
	</node>
	<node lat="65.4411111119191" lon="12.190833325792934" id="-15994">
		<tag k="name" v="Svartskjæret" />
		<tag k="place" v="islet" />
		<tag k="ssr:stedsnr" v="965398" />
	</node>
	<node lat="65.4584952167426" lon="12.788051235319893" id="-16049">
		<tag k="loc_name" v="Storelva" />
		<tag k="name" v="Lomsdalselva" />
		<tag k="ssr:stedsnr" v="989577" />
		<tag k="waterway" v="river" />
	</node>
	<node lat="65.48109722032714" lon="12.100330564045125" id="-16171">
		<tag k="name" v="Blåvatnet" />
		<tag k="natural" v="water" />
		<tag k="ssr:stedsnr" v="257063" />
	</node>
	<node lat="65.31061944595884" lon="12.526125007336635" id="-16182">
		<tag k="alt_name" v="Lessvatnet" />
		<tag k="name" v="Lislvatnet" />
		<tag k="natural" v="water" />
		<tag k="ssr:stedsnr" v="257337" />
	</node>
	<node lat="65.34887778040608" lon="12.44226665841205" id="-16191">
		<tag k="name" v="Krumelva" />
		<tag k="ssr:stedsnr" v="14282" />
		<tag k="waterway" v="river" />
	</node>
	<node lat="65.44817500040587" lon="12.353430563477612" id="-16194">
		<tag k="alt_name" v="Sæterstielva" />
		<tag k="name" v="Sæterstigelva" />
		<tag k="ssr:stedsnr" v="14369" />
		<tag k="waterway" v="stream" />
	</node>
	<node lat="65.39979444063245" lon="12.627316667068877" id="-16206">
		<tag k="name" v="Åsbekken" />
		<tag k="ssr:stedsnr" v="15517" />
		<tag k="waterway" v="stream" />
	</node>
	<node lat="65.40018055776943" lon="12.67577500605777" id="-16207">
		<tag k="name" v="Storelva" />
		<tag k="ssr:stedsnr" v="15521" />
		<tag k="waterway" v="stream" />
	</node>
	<node lat="65.4401500002763" lon="12.983266659859138" id="-16208">
		<tag k="name" v="Øvre Grunnvasselva" />
		<tag k="ssr:stedsnr" v="15078" />
		<tag k="waterway" v="river" />
	</node>
	<node lat="65.28527500318556" lon="12.768474999208683" id="-16215">
		<tag k="name" v="Landgrunnvatnet" />
		<tag k="natural" v="water" />
		<tag k="ssr:stedsnr" v="15045" />
	</node>
	<node lat="65.30293055926968" lon="13.02908889646342" id="-16217">
		<tag k="name" v="Sautjønna" />
		<tag k="natural" v="water" />
		<tag k="ssr:stedsnr" v="15050" />
	</node>
	<node lat="65.29958888600801" lon="13.02788333739287" id="-16218">
		<tag k="name" v="Brattbekktjønna" />
		<tag k="natural" v="water" />
		<tag k="ssr:stedsnr" v="15052" />
		<tag k="water" v="lake" />
	</node>
	<node lat="65.43222777464973" lon="12.927119435007782" id="-16223">
		<tag k="name" v="Lauvvatnet" />
		<tag k="natural" v="water" />
		<tag k="ssr:stedsnr" v="15092" />
	</node>
	<node lat="65.43627500103126" lon="12.588536118866196" id="-16226">
		<tag k="name" v="Nævernesvatnet" />
		<tag k="natural" v="water" />
		<tag k="ssr:stedsnr" v="15436" />
	</node>
	<node lat="65.39536110697757" lon="12.591044438950377" id="-16235">
		<tag k="name" v="Bruvatnet" />
		<tag k="natural" v="water" />
		<tag k="ssr:stedsnr" v="15527" />
	</node>
	<node lat="65.44209444072762" lon="12.402549995960378" id="-16236">
		<tag k="name" v="Djupelva" />
		<tag k="ssr:stedsnr" v="15528" />
		<tag k="waterway" v="river" />
	</node>
	<node lat="65.4371305532415" lon="12.293413881295827" id="-16237">
		<tag k="name" v="Krokåa" />
		<tag k="ssr:stedsnr" v="15530" />
		<tag k="waterway" v="stream" />
	</node>
	<node lat="65.40444166642015" lon="12.56720278290927" id="-16238">
		<tag k="name" v="Svanvatnet" />
		<tag k="natural" v="water" />
		<tag k="ssr:stedsnr" v="15532" />
	</node>
	<node lat="65.55543055268839" lon="12.592341676910372" id="-16247">
		<tag k="name" v="Storvikvatnet" />
		<tag k="natural" v="water" />
		<tag k="ssr:stedsnr" v="15984" />
	</node>
	<node lat="65.50708610811733" lon="12.256713880994269" id="-16258">
		<tag k="fixme" v="multiple name tags, choose one and add the other to alt_name" />
		<tag k="name" v="Vikerelva;Vassengelva" />
		<tag k="ssr:stedsnr" v="16782" />
		<tag k="waterway" v="stream" />
	</node>
	<node lat="65.58652499963927" lon="12.577505546881426" id="-16263">
		<tag k="name" v="Vassengvatnet" />
		<tag k="natural" v="water" />
		<tag k="ssr:stedsnr" v="16894" />
	</node>
	<node lat="65.25053055138626" lon="12.693122216924193" id="-16267">
		<tag k="name" v="Mølnvatnet" />
		<tag k="natural" v="water" />
		<tag k="ssr:stedsnr" v="257198" />
	</node>
	<node lat="65.30254444133222" lon="12.72934167309024" id="-16268">
		<tag k="alt_name" v="Markavatnan" />
		<tag k="name" v="Markavatnet" />
		<tag k="natural" v="water" />
		<tag k="ssr:stedsnr" v="257212" />
		<tag k="water" v="lake" />
	</node>
	<node lat="65.35413611422605" lon="12.992938891908823" id="-16282">
		<tag k="name" v="Govasselva" />
		<tag k="ssr:stedsnr" v="53531" />
		<tag k="waterway" v="river" />
	</node>
	<node lat="65.52904167014334" lon="12.539441664480657" id="-16288">
		<tag k="name" v="Råna" />
		<tag k="ssr:stedsnr" v="53893" />
		<tag k="waterway" v="stream" />
	</node>
	<node lat="65.52129999980089" lon="12.310844452759222" id="-16300">
		<tag k="name" v="Vinterbekkjen" />
		<tag k="ssr:stedsnr" v="54088" />
		<tag k="waterway" v="stream" />
	</node>
	<node lat="65.4843055594851" lon="12.622702785911695" id="-16307">
		<tag k="name" v="Kvitneselva" />
		<tag k="ssr:stedsnr" v="257316" />
		<tag k="waterway" v="stream" />
	</node>
	<node lat="65.37521388874075" lon="12.52111943853655" id="-16309">
		<tag k="name" v="Soleivikran" />
		<tag k="natural" v="bay" />
		<tag k="ssr:stedsnr" v="54511" />
	</node>
	<node lat="65.50437222230485" lon="12.7662666772492" id="-16324">
		<tag k="name" v="Nertjønna" />
		<tag k="natural" v="water" />
		<tag k="ssr:stedsnr" v="54549" />
	</node>
	<node lat="65.49213611534394" lon="12.762536106072638" id="-16327">
		<tag k="name" v="Hestneselva" />
		<tag k="ssr:stedsnr" v="54562" />
		<tag k="waterway" v="river" />
	</node>
	<node lat="65.41926666610306" lon="12.277288883803182" id="-16332">
		<tag k="name" v="Hoplibekken" />
		<tag k="ssr:stedsnr" v="54897" />
		<tag k="waterway" v="stream" />
	</node>
	<node lat="65.34264444259996" lon="12.491388895938206" id="-16333">
		<tag k="name" v="Vikran" />
		<tag k="natural" v="cape" />
		<tag k="ssr:stedsnr" v="55000" />
	</node>
	<node lat="65.26169722464037" lon="12.60475276786024" id="-16335">
		<tag k="name" v="Hallbrubekken" />
		<tag k="ssr:stedsnr" v="55348" />
		<tag k="waterway" v="stream" />
	</node>
	<node lat="65.3113222232967" lon="12.700808339947347" id="-16349">
		<tag k="name" v="Finnkåtbekken" />
		<tag k="ssr:stedsnr" v="56152" />
		<tag k="waterway" v="stream" />
	</node>
	<node lat="65.30319444250613" lon="12.71074443507642" id="-16350">
		<tag k="name" v="Tjønna" />
		<tag k="natural" v="water" />
		<tag k="ssr:stedsnr" v="56155" />
		<tag k="water" v="lake" />
	</node>
	<node lat="65.31001389252853" lon="12.763730566016225" id="-16353">
		<tag k="name" v="Kotabukta" />
		<tag k="natural" v="bay" />
		<tag k="ssr:stedsnr" v="56164" />
	</node>
	<node lat="65.4230777810594" lon="12.069508329545146" id="-16359">
		<tag k="name" v="Dammen" />
		<tag k="natural" v="water" />
		<tag k="ssr:stedsnr" v="56999" />
	</node>
	<node lat="65.35514999874312" lon="12.587697227679381" id="-16362">
		<tag k="name" v="Ytre Grannesbukta" />
		<tag k="natural" v="bay" />
		<tag k="ssr:stedsnr" v="56847" />
	</node>
	<node lat="65.28411111087689" lon="12.643838885343657" id="-16363">
		<tag k="name" v="Svelibekken" />
		<tag k="ssr:stedsnr" v="56863" />
		<tag k="waterway" v="stream" />
	</node>
	<node lat="65.32172777618258" lon="12.909408335128973" id="-16376">
		<tag k="name" v="Leirbekken" />
		<tag k="ssr:stedsnr" v="57354" />
		<tag k="waterway" v="stream" />
	</node>
	<node lat="65.4129666677197" lon="12.538697230476656" id="-16388">
		<tag k="name" v="Grotjønna" />
		<tag k="natural" v="water" />
		<tag k="ssr:stedsnr" v="58535" />
	</node>
	<node lat="65.32882222636592" lon="12.658013884142907" id="-16393">
		<tag k="name" v="Lessandvika" />
		<tag k="natural" v="bay" />
		<tag k="ssr:stedsnr" v="58732" />
	</node>
	<node lat="65.40481666979971" lon="12.571066666618792" id="-16395">
		<tag k="name" v="Storholmen" />
		<tag k="place" v="islet" />
		<tag k="ssr:stedsnr" v="58744" />
	</node>
	<node lat="65.30078333542376" lon="12.675013888700434" id="-16411">
		<tag k="name" v="Åsbekken" />
		<tag k="ssr:stedsnr" v="75196" />
		<tag k="waterway" v="stream" />
	</node>
	<node lat="65.4143388880741" lon="12.658316672136573" id="-16425">
		<tag k="loc_name" v="Ingelvikbekken" />
		<tag k="name" v="Engelvikbekken" />
		<tag k="ssr:stedsnr" v="75476" />
		<tag k="waterway" v="stream" />
	</node>
	<node lat="65.40382500266044" lon="12.461497213539364" id="-16429">
		<tag k="alt_name" v="Hallarauntjørna" />
		<tag k="name" v="Hallarauntjønna" />
		<tag k="natural" v="water" />
		<tag k="ssr:stedsnr" v="75491" />
	</node>
	<node lat="65.41723333711361" lon="12.600805566363027" id="-16439">
		<tag k="name" v="Stordalsvatnet" />
		<tag k="natural" v="water" />
		<tag k="ssr:stedsnr" v="75441" />
	</node>
	<node lat="65.36929166477432" lon="12.531147229478732" id="-16440">
		<tag k="alt_name" v="Skoghøla" />
		<tag k="name" v="Skoghølen" />
		<tag k="place" v="locality" />
		<tag k="ssr:stedsnr" v="75446" />
	</node>
	<node lat="65.4137083365787" lon="12.207916665412956" id="-16443">
		<tag k="name" v="Rodalselva" />
		<tag k="ssr:stedsnr" v="76076" />
		<tag k="waterway" v="stream" />
	</node>
	<node lat="65.46826110855659" lon="12.90656110072845" id="-16444">
		<tag k="name" v="Storholmen" />
		<tag k="place" v="islet" />
		<tag k="ssr:stedsnr" v="76090" />
	</node>
	<node lat="65.32426388986518" lon="13.000969444623683" id="-16445">
		<tag k="name" v="Kromåa" />
		<tag k="ssr:stedsnr" v="76021" />
		<tag k="waterway" v="stream" />
	</node>
	<node lat="65.31654166892089" lon="12.877486101127802" id="-16446">
		<tag k="name" v="Svarttjønna" />
		<tag k="natural" v="water" />
		<tag k="ssr:stedsnr" v="76024" />
	</node>
	<node lat="65.36106111222485" lon="12.601519439141775" id="-16448">
		<tag k="name" v="Rørlivatnan" />
		<tag k="natural" v="water" />
		<tag k="ssr:stedsnr" v="76336" />
		<tag k="water" v="lake" />
	</node>
	<node lat="65.50250000211706" lon="12.91591389812702" id="-16452">
		<tag k="name" v="Geehpvealma" />
		<tag k="name:sma" v="Geehpvealma" />
		<tag k="ssr:stedsnr" v="76651" />
		<tag k="waterway" v="stream" />
	</node>
	<node lat="65.26196944182409" lon="12.640780562673884" id="-16455">
		<tag k="name" v="Jansholmen" />
		<tag k="place" v="islet" />
		<tag k="ssr:stedsnr" v="76168" />
	</node>
	<node lat="65.5545888914796" lon="12.629933333630259" id="-16473">
		<tag k="name" v="Nordtrolltjønna" />
		<tag k="natural" v="water" />
		<tag k="ssr:stedsnr" v="76969" />
	</node>
	<node lat="65.28753888674217" lon="12.844497227731152" id="-16480">
		<tag k="name" v="Steinvikbekken" />
		<tag k="ssr:stedsnr" v="82371" />
		<tag k="waterway" v="stream" />
	</node>
	<node lat="65.32539166796329" lon="12.98252221763594" id="-16496">
		<tag k="name" v="Gravarneset" />
		<tag k="natural" v="cape" />
		<tag k="ssr:stedsnr" v="114592" />
	</node>
	<node lat="65.32585555448959" lon="12.975658325029318" id="-16497">
		<tag k="name" v="Olderneset" />
		<tag k="natural" v="cape" />
		<tag k="ssr:stedsnr" v="114593" />
	</node>
	<node lat="65.44992222345614" lon="12.820027773051159" id="-16500">
		<tag k="name" v="Ner-stillelva" />
		<tag k="natural" v="water" />
		<tag k="ssr:stedsnr" v="114552" />
		<tag k="water" v="lake" />
	</node>
	<node lat="65.44253889288775" lon="12.827761110513606" id="-16501">
		<tag k="name" v="Stillelva" />
		<tag k="natural" v="water" />
		<tag k="ssr:stedsnr" v="114553" />
		<tag k="water" v="lake" />
	</node>
	<node lat="65.43498610805788" lon="12.810141675570275" id="-16502">
		<tag k="name" v="Sæterdalsbekken" />
		<tag k="ssr:stedsnr" v="114560" />
		<tag k="waterway" v="stream" />
	</node>
	<node lat="65.47048888782786" lon="12.26711944156075" id="-16505">
		<tag k="name" v="Tverstranda" />
		<tag k="natural" v="beach" />
		<tag k="ssr:stedsnr" v="114753" />
	</node>
	<node lat="65.55301111477078" lon="12.272097220656272" id="-16506">
		<tag k="name" v="Sirivikja" />
		<tag k="natural" v="bay" />
		<tag k="ssr:stedsnr" v="114762" />
	</node>
	<node lat="65.6007305514574" lon="12.592397220815739" id="-16510">
		<tag k="name" v="Lesstjønnan" />
		<tag k="natural" v="water" />
		<tag k="ssr:stedsnr" v="114811" />
	</node>
	<node lat="65.53340277454565" lon="12.265680544832263" id="-16513">
		<tag k="name" v="Torvskjåbekken" />
		<tag k="ssr:stedsnr" v="115127" />
		<tag k="waterway" v="stream" />
	</node>
	<node lat="65.37255833099687" lon="12.510761117239497" id="-16522">
		<tag k="name" v="Skoghylla" />
		<tag k="natural" v="cape" />
		<tag k="ssr:stedsnr" v="115483" />
	</node>
	<node lat="65.33162222635399" lon="12.698091667609544" id="-16534">
		<tag k="name" v="Dalelva" />
		<tag k="ssr:stedsnr" v="117189" />
		<tag k="waterway" v="stream" />
	</node>
	<node lat="65.2856416629895" lon="12.695197215837894" id="-16537">
		<tag k="name" v="Finnmyrbekken" />
		<tag k="ssr:stedsnr" v="117148" />
		<tag k="waterway" v="stream" />
	</node>
	<node lat="65.50519999784234" lon="12.117405556997696" id="-16538">
		<tag k="name" v="Silvikosen" />
		<tag k="natural" v="bay" />
		<tag k="ssr:stedsnr" v="117349" />
	</node>
	<node lat="65.24244444881766" lon="12.759449997140782" id="-16539">
		<tag k="name" v="Hundtjønna" />
		<tag k="natural" v="water" />
		<tag k="ssr:stedsnr" v="117350" />
	</node>
	<node lat="65.3940694487776" lon="12.69238054841979" id="-16542">
		<tag k="name" v="Lessfjelltjønna" />
		<tag k="natural" v="water" />
		<tag k="ssr:stedsnr" v="117232" />
	</node>
	<node lat="65.38883055529227" lon="12.6686833355435" id="-16543">
		<tag k="name" v="Leirbekken" />
		<tag k="ssr:stedsnr" v="117243" />
		<tag k="waterway" v="stream" />
	</node>
	<node lat="65.29382499874022" lon="13.03922777319611" id="-16544">
		<tag k="name" v="Taumstadodden" />
		<tag k="natural" v="cape" />
		<tag k="ssr:stedsnr" v="117245" />
	</node>
	<node lat="65.38544721991694" lon="12.694536116844349" id="-16555">
		<tag k="name" v="Dønnesbekken" />
		<tag k="ssr:stedsnr" v="117407" />
		<tag k="waterway" v="stream" />
	</node>
	<node lat="65.51232777649349" lon="12.38929166263121" id="-16579">
		<tag k="name" v="Juvikbekken" />
		<tag k="ssr:stedsnr" v="119297" />
		<tag k="waterway" v="stream" />
	</node>
	<node lat="65.33606388784524" lon="12.581494450513174" id="-16587">
		<tag k="name" v="Lomtjønna" />
		<tag k="natural" v="water" />
		<tag k="ssr:stedsnr" v="119701" />
	</node>
	<node lat="65.47967499780782" lon="12.409716664103914" id="-16604">
		<tag k="fixme" v="multiple name tags, choose one and add the other to alt_name" />
		<tag k="name" v="Skomovikvatnan;Skomovikvatnet" />
		<tag k="natural" v="water" />
		<tag k="ssr:stedsnr" v="135289" />
	</node>
	<node lat="65.46465277813442" lon="12.876505554286327" id="-16622">
		<tag k="name" v="Trolldalstjønna" />
		<tag k="natural" v="water" />
		<tag k="ssr:stedsnr" v="136084" />
	</node>
	<node lat="65.31609166730048" lon="12.660155553461518" id="-16625">
		<tag k="name" v="Mølnhusbekken" />
		<tag k="ssr:stedsnr" v="136340" />
		<tag k="waterway" v="stream" />
	</node>
	<node lat="65.54594722224547" lon="12.452408338605318" id="-16635">
		<tag k="name" v="Skardåvatnet" />
		<tag k="natural" v="water" />
		<tag k="ssr:stedsnr" v="136964" />
	</node>
	<node lat="65.55038333015264" lon="12.2938027717336" id="-16636">
		<tag k="name" v="Lundselva" />
		<tag k="ssr:stedsnr" v="136975" />
		<tag k="waterway" v="stream" />
	</node>
	<node lat="65.59775277492368" lon="12.58295000083618" id="-16638">
		<tag k="name" v="Auselva" />
		<tag k="ssr:stedsnr" v="136924" />
		<tag k="waterway" v="stream" />
	</node>
	<node lat="65.53350000366544" lon="12.478108332255125" id="-16639">
		<tag k="name" v="Sommarsetelva" />
		<tag k="ssr:stedsnr" v="136939" />
		<tag k="waterway" v="stream" />
	</node>
	<node lat="65.54916111154103" lon="12.403311109379604" id="-16640">
		<tag k="name" v="Ølkona" />
		<tag k="ssr:stedsnr" v="136983" />
		<tag k="waterway" v="stream" />
	</node>
	<node lat="65.57586388480507" lon="12.279161115445246" id="-16645">
		<tag k="name" v="Hornsvatnet" />
		<tag k="natural" v="water" />
		<tag k="ssr:stedsnr" v="137863" />
		<tag k="water" v="lake" />
	</node>
	<node lat="65.41505277363405" lon="12.206263878235882" id="-16664">
		<tag k="name" v="Rodalselva" />
		<tag k="ssr:stedsnr" v="165730" />
		<tag k="waterway" v="stream" />
	</node>
	<node lat="65.47637777863463" lon="12.769455546817332" id="-16682">
		<tag k="name" v="Rånbekken" />
		<tag k="ssr:stedsnr" v="175547" />
		<tag k="waterway" v="stream" />
	</node>
	<node lat="65.37304166399161" lon="12.712258334057317" id="-16723">
		<tag k="name" v="Trodalsbekken" />
		<tag k="ssr:stedsnr" v="178177" />
		<tag k="waterway" v="stream" />
	</node>
	<node lat="65.25744722193811" lon="12.805777784611237" id="-16730">
		<tag k="name" v="Jektvikosen" />
		<tag k="natural" v="bay" />
		<tag k="ssr:stedsnr" v="178331" />
	</node>
	<node lat="65.32136666402002" lon="12.657647228207967" id="-16738">
		<tag k="name" v="Holmen" />
		<tag k="place" v="islet" />
		<tag k="ssr:stedsnr" v="178794" />
	</node>
	<node lat="65.3707638922672" lon="12.534494436628176" id="-16741">
		<tag k="name" v="Rothøla" />
		<tag k="natural" v="water" />
		<tag k="ssr:stedsnr" v="178588" />
		<tag k="water" v="lake" />
	</node>
	<node lat="65.40932222111944" lon="12.6533083339879" id="-16754">
		<tag k="name" v="Engelvikelva" />
		<tag k="ssr:stedsnr" v="179468" />
		<tag k="waterway" v="stream" />
	</node>
	<node lat="65.45025278050107" lon="12.12531389126711" id="-16769">
		<tag k="name" v="Tettøyvatnet" />
		<tag k="natural" v="water" />
		<tag k="ssr:stedsnr" v="196121" />
		<tag k="water" v="lake" />
	</node>
	<node lat="65.48878333738297" lon="12.358961109992416" id="-16773">
		<tag k="name" v="Skillelva" />
		<tag k="ssr:stedsnr" v="196244" />
		<tag k="waterway" v="stream" />
	</node>
	<node lat="65.37883055124432" lon="12.488966669969885" id="-16777">
		<tag k="alt_name" v="Skjørtjørna" />
		<tag k="name" v="Skjørtjønna" />
		<tag k="natural" v="water" />
		<tag k="ssr:stedsnr" v="196341" />
		<tag k="water" v="lake" />
	</node>
	<node lat="65.40468888619516" lon="12.425624998681316" id="-16781">
		<tag k="name" v="Sørlielva" />
		<tag k="ssr:stedsnr" v="196368" />
		<tag k="waterway" v="stream" />
	</node>
	<node lat="65.44103333152844" lon="12.40981945144897" id="-16794">
		<tag k="alt_name" v="Ragnhildråvatnet" />
		<tag k="name" v="Ragnelråvatnet" />
		<tag k="natural" v="water" />
		<tag k="ssr:stedsnr" v="197525" />
	</node>
	<node lat="65.43860277737585" lon="12.390102781982211" id="-16799">
		<tag k="alt_name" v="Trollkirkedalselva" />
		<tag k="loc_name" v="Trollkjerkedalselva" />
		<tag k="name" v="Trollkyrkjedalselva" />
		<tag k="ssr:stedsnr" v="197550" />
		<tag k="waterway" v="river" />
	</node>
	<node lat="65.30177778219146" lon="12.498258328583896" id="-16800">
		<tag k="name" v="Ursvatnet" />
		<tag k="natural" v="water" />
		<tag k="ssr:stedsnr" v="197332" />
	</node>
	<node lat="65.44415000292418" lon="12.503419445017698" id="-16801">
		<tag k="name" v="Lagunen" />
		<tag k="natural" v="water" />
		<tag k="ssr:stedsnr" v="197519" />
	</node>
	<node lat="65.30723055482838" lon="12.74368611509645" id="-16815">
		<tag k="alt_name" v="Åglømmen" />
		<tag k="name" v="Åglømelva" />
		<tag k="ssr:stedsnr" v="258036" />
		<tag k="waterway" v="stream" />
	</node>
	<node lat="65.34266388819756" lon="12.985619436134963" id="-16817">
		<tag k="name" v="Indre Mølnvatnet" />
		<tag k="natural" v="water" />
		<tag k="ssr:stedsnr" v="258138" />
	</node>
	<node lat="65.51030277736143" lon="12.91924999989245" id="-16829">
		<tag k="name" v="Geephjohke" />
		<tag k="name:sma" v="Geephjohke" />
		<tag k="ssr:stedsnr" v="258654" />
		<tag k="waterway" v="stream" />
	</node>
	<node lat="65.43937222312307" lon="12.440944443593732" id="-16864">
		<tag k="name" v="Sæterosen" />
		<tag k="natural" v="bay" />
		<tag k="ssr:stedsnr" v="296341" />
	</node>
	<node lat="65.46763610772165" lon="12.78745556179502" id="-16869">
		<tag k="name" v="Durmålsvatnet" />
		<tag k="natural" v="water" />
		<tag k="ssr:stedsnr" v="296476" />
	</node>
	<node lat="65.57656666798495" lon="12.570538889176223" id="-16870">
		<tag k="name" v="Rånbekken" />
		<tag k="ssr:stedsnr" v="296738" />
		<tag k="waterway" v="stream" />
	</node>
	<node lat="65.51427222475026" lon="12.264330557252379" id="-16885">
		<tag k="name" v="Bremenholm" />
		<tag k="natural" v="cape" />
		<tag k="ssr:stedsnr" v="297178" />
	</node>
	<node lat="65.44459722542075" lon="12.350186102602361" id="-16895">
		<tag k="name" v="Storbekken" />
		<tag k="ssr:stedsnr" v="297880" />
		<tag k="waterway" v="stream" />
	</node>
	<node lat="65.33559721799115" lon="12.74800000218952" id="-16900">
		<tag k="name" v="Svarttjønna" />
		<tag k="natural" v="water" />
		<tag k="ssr:stedsnr" v="299224" />
	</node>
	<node lat="65.30265555781983" lon="12.72130832773493" id="-16902">
		<tag k="name" v="Røyrvarpa" />
		<tag k="natural" v="bay" />
		<tag k="ssr:stedsnr" v="299154" />
	</node>
	<node lat="65.25618889233662" lon="12.68841944203244" id="-16905">
		<tag k="name" v="Skjenselsneset" />
		<tag k="natural" v="cape" />
		<tag k="ssr:stedsnr" v="299176" />
	</node>
	<node lat="65.38433333330214" lon="12.602799996261417" id="-16924">
		<tag k="name" v="Lessåa" />
		<tag k="ssr:stedsnr" v="299635" />
		<tag k="waterway" v="stream" />
	</node>
	<node lat="65.34553055851283" lon="12.637266660018305" id="-16941">
		<tag k="name" v="Liksanden" />
		<tag k="natural" v="beach" />
		<tag k="ssr:stedsnr" v="301636" />
	</node>
	<node lat="65.32604444413391" lon="12.556983338316893" id="-16946">
		<tag k="name" v="Heimre Storholmen" />
		<tag k="place" v="islet" />
		<tag k="ssr:stedsnr" v="301679" />
	</node>
	<node lat="65.32558889185506" lon="12.545511109051285" id="-16947">
		<tag k="name" v="Ytre Storholmen" />
		<tag k="place" v="islet" />
		<tag k="ssr:stedsnr" v="301682" />
	</node>
	<node lat="65.36187500232356" lon="13.001272225369032" id="-16950">
		<tag k="name" v="Sørelva" />
		<tag k="ssr:stedsnr" v="310559" />
		<tag k="waterway" v="river" />
	</node>
	<node lat="65.38921944377107" lon="12.43721943395267" id="-16953">
		<tag k="name" v="Bordvikelva" />
		<tag k="ssr:stedsnr" v="317431" />
		<tag k="waterway" v="stream" />
	</node>
	<node lat="65.30330555136015" lon="12.611949989344218" id="-16958">
		<tag k="alt_name" v="Breidvassbukta" />
		<tag k="name" v="Breivassbukta" />
		<tag k="natural" v="bay" />
		<tag k="ssr:stedsnr" v="318170" />
	</node>
	<node lat="65.43445555833982" lon="12.501125003950484" id="-16966">
		<tag k="alt_name" v="Engeelva" />
		<tag k="name" v="Engjaelva" />
		<tag k="ssr:stedsnr" v="318399" />
		<tag k="waterway" v="stream" />
	</node>
	<node lat="65.40964167066436" lon="12.822558337480535" id="-16969">
		<tag k="loc_name" v="Ner-Lappskardvatnet" />
		<tag k="name" v="Nedre Lappskardvatnet" />
		<tag k="natural" v="water" />
		<tag k="ssr:stedsnr" v="318089" />
		<tag k="water" v="lake" />
	</node>
	<node lat="65.289233329303" lon="12.548841655459537" id="-16978">
		<tag k="name" v="Rognvardselva" />
		<tag k="ssr:stedsnr" v="318197" />
		<tag k="waterway" v="stream" />
	</node>
	<node lat="65.33365555423278" lon="12.529244438006147" id="-16981">
		<tag k="name" v="Kråelva" />
		<tag k="ssr:stedsnr" v="318275" />
		<tag k="waterway" v="river" />
	</node>
	<node lat="65.39494999594545" lon="12.462355560395139" id="-16986">
		<tag k="name" v="Langvatnet" />
		<tag k="natural" v="water" />
		<tag k="ssr:stedsnr" v="318452" />
	</node>
	<node lat="65.44711111511903" lon="12.407663898660546" id="-16990">
		<tag k="alt_name" v="Gråtervatnet" />
		<tag k="name" v="Gotervatnet" />
		<tag k="natural" v="water" />
		<tag k="ssr:stedsnr" v="318463" />
	</node>
	<node lat="65.52141944102536" lon="12.625555564309723" id="-17007">
		<tag k="name" v="Mølnhuselva" />
		<tag k="ssr:stedsnr" v="319785" />
		<tag k="waterway" v="stream" />
	</node>
	<node lat="65.51483333722577" lon="12.60354443499656" id="-17008">
		<tag k="name" v="Storengelva" />
		<tag k="ssr:stedsnr" v="319786" />
		<tag k="waterway" v="stream" />
	</node>
	<node lat="65.25194444590197" lon="12.836219444788227" id="-17011">
		<tag k="name" v="Skarvbekken" />
		<tag k="ssr:stedsnr" v="319993" />
		<tag k="waterway" v="stream" />
	</node>
	<node lat="65.38680555274095" lon="12.458511116491977" id="-17024">
		<tag k="name" v="Lavika" />
		<tag k="natural" v="bay" />
		<tag k="ssr:stedsnr" v="357216" />
	</node>
	<node lat="65.4716916666064" lon="12.757416657316282" id="-17049">
		<tag k="name" v="Stibekken" />
		<tag k="ssr:stedsnr" v="357523" />
		<tag k="waterway" v="stream" />
	</node>
	<node lat="65.4447583371466" lon="12.777305560930117" id="-17055">
		<tag k="name" v="Lonet" />
		<tag k="natural" v="water" />
		<tag k="ssr:stedsnr" v="357932" />
		<tag k="water" v="lake" />
	</node>
	<node lat="65.34407500280174" lon="12.67307777316025" id="-17074">
		<tag k="name" v="Brattlinubben" />
		<tag k="natural" v="cape" />
		<tag k="ssr:stedsnr" v="359126" />
	</node>
	<node lat="65.3043583316518" lon="12.733672212696773" id="-17077">
		<tag k="name" v="Starrmyroddan" />
		<tag k="natural" v="cape" />
		<tag k="ssr:stedsnr" v="359150" />
	</node>
	<node lat="65.289072223195" lon="12.670188895885696" id="-17078">
		<tag k="name" v="Glømmen" />
		<tag k="natural" v="bay" />
		<tag k="ssr:stedsnr" v="359153" />
	</node>
	<node lat="65.34037529748834" lon="12.67662267827972" id="-17087">
		<tag k="name" v="Neråsstøen" />
		<tag k="natural" v="beach" />
		<tag k="ssr:stedsnr" v="360133" />
	</node>
	<node lat="65.25748889000528" lon="12.678097212562106" id="-17090">
		<tag k="name" v="Nevervika" />
		<tag k="natural" v="bay" />
		<tag k="ssr:stedsnr" v="360144" />
	</node>
	<node lat="65.25515555107425" lon="12.687752779500315" id="-17091">
		<tag k="name" v="Mølnfossen" />
		<tag k="natural" v="waterfall" />
		<tag k="ssr:stedsnr" v="360146" />
	</node>
	<node lat="65.2937888858576" lon="13.030155561510501" id="-17095">
		<tag k="name" v="Seljelundrånbekken" />
		<tag k="ssr:stedsnr" v="360178" />
		<tag k="waterway" v="stream" />
	</node>
	<node lat="65.29608888633446" lon="13.028247232496247" id="-17096">
		<tag k="name" v="Slipnesbekken" />
		<tag k="ssr:stedsnr" v="360179" />
		<tag k="waterway" v="stream" />
	</node>
	<node lat="65.29635555398212" lon="13.034427778296351" id="-17097">
		<tag k="name" v="Lendingan" />
		<tag k="natural" v="water" />
		<tag k="ssr:stedsnr" v="360181" />
		<tag k="water" v="lake" />
	</node>
	<node lat="65.41216388958757" lon="12.44226111461326" id="-17106">
		<tag k="name" v="Svarthopelva" />
		<tag k="ssr:stedsnr" v="360392" />
		<tag k="waterway" v="stream" />
	</node>
	<node lat="65.30457222482255" lon="12.603036113300863" id="-17115">
		<tag k="name" v="Gårbugen" />
		<tag k="natural" v="bay" />
		<tag k="ssr:stedsnr" v="360832" />
	</node>
	<node lat="65.36144444771723" lon="12.53274444272413" id="-17119">
		<tag k="name" v="Likvika" />
		<tag k="natural" v="bay" />
		<tag k="ssr:stedsnr" v="360849" />
	</node>
	<node lat="65.32776666576095" lon="12.533150005521973" id="-17127">
		<tag k="name" v="Fuglvassdammen" />
		<tag k="natural" v="water" />
		<tag k="ssr:stedsnr" v="361710" />
		<tag k="water" v="lake" />
	</node>
	<node lat="65.43058333359394" lon="12.112824989928054" id="-17139">
		<tag k="alt_name" v="Stor-Torgvatnet;Store Torgvatnet" />
		<tag k="name" v="Storvatnet" />
		<tag k="natural" v="water" />
		<tag k="ssr:stedsnr" v="378010" />
	</node>
	<node lat="65.34543611464089" lon="12.504775010137395" id="-17166">
		<tag k="name" v="Lislengtjønna" />
		<tag k="natural" v="water" />
		<tag k="ssr:stedsnr" v="378380" />
	</node>
	<node lat="65.41472222118996" lon="12.604397211994081" id="-17171">
		<tag k="alt_name" v="Mølntjørna" />
		<tag k="name" v="Mølntjønna" />
		<tag k="natural" v="water" />
		<tag k="ssr:stedsnr" v="378439" />
	</node>
	<node lat="65.39831944294329" lon="12.272330563591904" id="-17174">
		<tag k="fixme" v="multiple name tags, choose one and add the other to alt_name" />
		<tag k="name" v="Kvervelva;Aunelva" />
		<tag k="ssr:stedsnr" v="378461" />
		<tag k="waterway" v="river" />
	</node>
	<node lat="65.40931388731333" lon="12.775855556982716" id="-17176">
		<tag k="loc_name" v="Fjellelva" />
		<tag k="name" v="Titingsdalselva" />
		<tag k="ssr:stedsnr" v="379097" />
		<tag k="waterway" v="river" />
	</node>
	<node lat="65.28613888784047" lon="13.07379166849823" id="-17181">
		<tag k="name" v="Butjønna" />
		<tag k="natural" v="water" />
		<tag k="ssr:stedsnr" v="379048" />
	</node>
	<node lat="65.26590555307062" lon="12.785463891431657" id="-17184">
		<tag k="name" v="Lissvatnet" />
		<tag k="natural" v="water" />
		<tag k="ssr:stedsnr" v="379064" />
		<tag k="water" v="lake" />
	</node>
	<node lat="65.40016666437353" lon="12.487591669365539" id="-17185">
		<tag k="name" v="Aunvatnet" />
		<tag k="natural" v="water" />
		<tag k="ssr:stedsnr" v="379471" />
	</node>
	<node lat="65.56318611065468" lon="12.294272220215756" id="-17188">
		<tag k="name" v="Mosvatnet" />
		<tag k="natural" v="water" />
		<tag k="ssr:stedsnr" v="379868" />
		<tag k="water" v="lake" />
	</node>
	<node lat="65.58650833586488" lon="12.518911118246844" id="-17191">
		<tag k="name" v="Lomtjønna" />
		<tag k="natural" v="water" />
		<tag k="ssr:stedsnr" v="379888" />
	</node>
	<node lat="65.29217777780823" lon="12.827472221542479" id="-17196">
		<tag k="name" v="Storbekken" />
		<tag k="ssr:stedsnr" v="379660" />
		<tag k="waterway" v="stream" />
	</node>
	<node lat="65.50696944091487" lon="12.691861102478105" id="-17197">
		<tag k="alt_name" v="Vestredalsvatnet" />
		<tag k="name" v="Vesterdalsvatnet" />
		<tag k="natural" v="water" />
		<tag k="ssr:stedsnr" v="379748" />
		<tag k="water" v="lake" />
	</node>
	<node lat="65.32043889286689" lon="12.56405276847419" id="-17230">
		<tag k="name" v="Merravikran" />
		<tag k="natural" v="bay" />
		<tag k="ssr:stedsnr" v="418491" />
	</node>
	<node lat="65.50197500144513" lon="12.360200005468581" id="-17232">
		<tag k="name" v="Einvollbekkjen" />
		<tag k="ssr:stedsnr" v="418283" />
		<tag k="waterway" v="stream" />
	</node>
	<node lat="65.32441944043727" lon="12.983047232051307" id="-17235">
		<tag k="name" v="Teinesholmen" />
		<tag k="place" v="island" />
		<tag k="ssr:stedsnr" v="418548" />
	</node>
	<node lat="65.3085611154487" lon="12.49931110466019" id="-17241">
		<tag k="name" v="Hevlholbekken" />
		<tag k="ssr:stedsnr" v="418507" />
		<tag k="waterway" v="stream" />
	</node>
	<node lat="65.35111944201756" lon="12.507091668898571" id="-17243">
		<tag k="name" v="Karneset" />
		<tag k="natural" v="cape" />
		<tag k="ssr:stedsnr" v="418528" />
	</node>
	<node lat="65.36155000382745" lon="12.9990194552168" id="-17244">
		<tag k="name" v="Smølneset" />
		<tag k="natural" v="cape" />
		<tag k="ssr:stedsnr" v="418534" />
	</node>
	<node lat="65.56574166396865" lon="12.547247225330908" id="-17250">
		<tag k="name" v="Vallskardbekken" />
		<tag k="ssr:stedsnr" v="418726" />
		<tag k="waterway" v="stream" />
	</node>
	<node lat="65.33637500315896" lon="12.558516677165697" id="-17300">
		<tag k="name" v="Novtjønna" />
		<tag k="natural" v="water" />
		<tag k="ssr:stedsnr" v="422692" />
	</node>
	<node lat="65.30550278084249" lon="12.639094443432645" id="-17320">
		<tag k="name" v="Skogelva" />
		<tag k="ssr:stedsnr" v="439169" />
		<tag k="waterway" v="river" />
	</node>
	<node lat="65.24810278172274" lon="12.620833335249346" id="-17323">
		<tag k="name" v="Storvatnet" />
		<tag k="natural" v="water" />
		<tag k="ssr:stedsnr" v="439177" />
		<tag k="water" v="lake" />
	</node>
	<node lat="65.29283610874154" lon="12.496041667142638" id="-17325">
		<tag k="name" v="Dalelva" />
		<tag k="ssr:stedsnr" v="439199" />
		<tag k="waterway" v="stream" />
	</node>
	<node lat="65.34310278012657" lon="12.482144451850091" id="-17331">
		<tag k="name" v="Remkleivvatnet" />
		<tag k="natural" v="water" />
		<tag k="ssr:stedsnr" v="439342" />
		<tag k="water" v="lake" />
	</node>
	<node lat="65.34803055471212" lon="12.631302768062998" id="-17332">
		<tag k="name" v="Hongbekkvika" />
		<tag k="natural" v="bay" />
		<tag k="ssr:stedsnr" v="439347" />
	</node>
	<node lat="65.35063610986705" lon="12.694019437620149" id="-17333">
		<tag k="alt_name" v="Øvråselva" />
		<tag k="name" v="Øveråselva" />
		<tag k="ssr:stedsnr" v="439349" />
		<tag k="waterway" v="stream" />
	</node>
	<node lat="65.27574722172501" lon="12.72811110339942" id="-17339">
		<tag k="name" v="Kåvabekken" />
		<tag k="ssr:stedsnr" v="440077" />
		<tag k="waterway" v="stream" />
	</node>
	<node lat="65.39738888751685" lon="12.643777775103683" id="-17347">
		<tag k="name" v="Skvarbakkbekken" />
		<tag k="ssr:stedsnr" v="440488" />
		<tag k="waterway" v="stream" />
	</node>
	<node lat="65.3976888905143" lon="12.588913892752021" id="-17349">
		<tag k="name" v="Roparnesstraumen" />
		<tag k="ssr:stedsnr" v="440497" />
		<tag k="waterway" v="stream" />
	</node>
	<node lat="65.51373333310221" lon="12.266313894965434" id="-17353">
		<tag k="alt_name" v="Tilremvatnet" />
		<tag k="name" v="Tilremsvatnet" />
		<tag k="natural" v="water" />
		<tag k="ssr:stedsnr" v="440780" />
	</node>
	<node lat="65.25759166535495" lon="12.884841674664827" id="-17365">
		<tag k="name" v="Kaldklavvatnet" />
		<tag k="natural" v="water" />
		<tag k="ssr:stedsnr" v="440988" />
	</node>
	<node lat="65.47086944309018" lon="12.277772229835973" id="-17370">
		<tag k="name" v="Oterbekken" />
		<tag k="ssr:stedsnr" v="660730" />
		<tag k="waterway" v="stream" />
	</node>
	<node lat="65.30627221902276" lon="12.770402772220283" id="-17389">
		<tag k="name" v="Røyrneset" />
		<tag k="natural" v="cape" />
		<tag k="ssr:stedsnr" v="481190" />
	</node>
	<node lat="65.34092222292989" lon="12.753433329185524" id="-17395">
		<tag k="name" v="Tverråa" />
		<tag k="ssr:stedsnr" v="481158" />
		<tag k="waterway" v="river" />
	</node>
	<node lat="65.28929444342127" lon="12.819880548477789" id="-17405">
		<tag k="name" v="Nessråna" />
		<tag k="ssr:stedsnr" v="481401" />
		<tag k="waterway" v="river" />
	</node>
	<node lat="65.4002750006181" lon="12.602572230558392" id="-17406">
		<tag k="name" v="Aunodden" />
		<tag k="natural" v="cape" />
		<tag k="ssr:stedsnr" v="481589" />
	</node>
	<node lat="65.30435833139175" lon="12.60820556085302" id="-17422">
		<tag k="name" v="Strauman" />
		<tag k="natural" v="strait" />
		<tag k="ssr:stedsnr" v="481850" />
	</node>
	<node lat="65.30532777391193" lon="12.611574991948086" id="-17423">
		<tag k="name" v="Storsundneset" />
		<tag k="natural" v="cape" />
		<tag k="ssr:stedsnr" v="481851" />
	</node>
	<node lat="65.32196111313797" lon="12.658947226632149" id="-17425">
		<tag k="name" v="Kalvneset" />
		<tag k="natural" v="cape" />
		<tag k="ssr:stedsnr" v="481798" />
	</node>
	<node lat="65.30716111163403" lon="12.61046388441894" id="-17430">
		<tag k="name" v="Estraumodden" />
		<tag k="natural" v="cape" />
		<tag k="ssr:stedsnr" v="481853" />
	</node>
	<node lat="65.34475278083079" lon="12.638133324913385" id="-17445">
		<tag k="name" v="Sagbekken" />
		<tag k="ssr:stedsnr" v="483669" />
		<tag k="waterway" v="stream" />
	</node>
	<node lat="65.42426944179854" lon="12.767766667589004" id="-17454">
		<tag k="name" v="Snyfjellbekken" />
		<tag k="ssr:stedsnr" v="660923" />
		<tag k="waterway" v="stream" />
	</node>
	<node lat="65.2941944432446" lon="13.043511111484094" id="-17465">
		<tag k="fixme" v="multiple name tags, choose one and add the other to alt_name" />
		<tag k="name" v="Tosdalsvatnet;Storvatnet" />
		<tag k="natural" v="water" />
		<tag k="ssr:stedsnr" v="500060" />
		<tag k="water" v="lake" />
	</node>
	<node lat="65.37895000234016" lon="12.70705277518841" id="-17475">
		<tag k="name" v="Øyrelva" />
		<tag k="ssr:stedsnr" v="500436" />
		<tag k="waterway" v="river" />
	</node>
	<node lat="65.44248889048387" lon="12.548997222864177" id="-17476">
		<tag k="name" v="Dyrnesvatnet" />
		<tag k="natural" v="water" />
		<tag k="ssr:stedsnr" v="500559" />
	</node>
	<node lat="65.44206389091559" lon="12.480922229268268" id="-17479">
		<tag k="alt_name" v="Sevvatnet" />
		<tag k="name" v="Sivvatnet" />
		<tag k="natural" v="water" />
		<tag k="ssr:stedsnr" v="500574" />
	</node>
	<node lat="65.49207777792108" lon="12.614191661414331" id="-17488">
		<tag k="name" v="Draugvikvatnan" />
		<tag k="natural" v="water" />
		<tag k="ssr:stedsnr" v="500360" />
	</node>
	<node lat="65.30970000093643" lon="12.473813881232495" id="-17490">
		<tag k="name" v="Krokbekken" />
		<tag k="ssr:stedsnr" v="500372" />
		<tag k="waterway" v="stream" />
	</node>
	<node lat="65.35112499783645" lon="12.497141667653608" id="-17492">
		<tag k="alt_name" v="Lessvatnet" />
		<tag k="name" v="Lislvatnet" />
		<tag k="natural" v="water" />
		<tag k="ssr:stedsnr" v="500380" />
	</node>
	<node lat="65.37654444797182" lon="12.539397222245011" id="-17493">
		<tag k="alt_name" v="Lesshølivatnet" />
		<tag k="name" v="Lislhølivatnet" />
		<tag k="natural" v="water" />
		<tag k="ssr:stedsnr" v="500511" />
	</node>
	<node lat="65.37480555653597" lon="12.509966666106154" id="-17494">
		<tag k="name" v="Hyllvatnet" />
		<tag k="natural" v="water" />
		<tag k="ssr:stedsnr" v="500513" />
	</node>
	<node lat="65.26547778121405" lon="12.674150007587093" id="-17507">
		<tag k="name" v="Svartvatnet" />
		<tag k="natural" v="water" />
		<tag k="ssr:stedsnr" v="501139" />
	</node>
	<node lat="65.58265000309677" lon="12.510641663978118" id="-17512">
		<tag k="name" v="Kvannskardelva" />
		<tag k="ssr:stedsnr" v="501861" />
		<tag k="waterway" v="stream" />
	</node>
	<node lat="65.53450277454702" lon="12.312169443004931" id="-17518">
		<tag k="name" v="Permølnhuselva" />
		<tag k="ssr:stedsnr" v="501961" />
		<tag k="waterway" v="stream" />
	</node>
	<node lat="65.44071666439952" lon="12.81908889678459" id="-17539">
		<tag k="name" v="Storbekken" />
		<tag k="ssr:stedsnr" v="539499" />
		<tag k="waterway" v="stream" />
	</node>
	<node lat="65.53778611455039" lon="12.253808333795375" id="-17545">
		<tag k="name" v="Kuvikodden" />
		<tag k="natural" v="cape" />
		<tag k="ssr:stedsnr" v="539552" />
	</node>
	<node lat="65.55384721875716" lon="12.321419442510622" id="-17547">
		<tag k="name" v="Hestmyrstranda" />
		<tag k="natural" v="beach" />
		<tag k="ssr:stedsnr" v="539560" />
	</node>
	<node lat="65.55903333719473" lon="12.284472227719501" id="-17552">
		<tag k="name" v="Holmen" />
		<tag k="place" v="islet" />
		<tag k="ssr:stedsnr" v="539815" />
	</node>
	<node lat="65.53271111519597" lon="12.584538886543681" id="-17558">
		<tag k="name" v="Seiltåa" />
		<tag k="ssr:stedsnr" v="539855" />
		<tag k="waterway" v="stream" />
	</node>
	<node lat="65.42237777470122" lon="12.785108343098578" id="-17560">
		<tag k="name" v="Rogndalbekken" />
		<tag k="ssr:stedsnr" v="539931" />
		<tag k="waterway" v="stream" />
	</node>
	<node lat="65.44036944771405" lon="12.123636107747565" id="-17576">
		<tag k="name" v="Buåshammartjønna" />
		<tag k="natural" v="water" />
		<tag k="ssr:stedsnr" v="541329" />
	</node>
	<node lat="65.42317500169621" lon="12.22070833730809" id="-17589">
		<tag k="name" v="Oterbekken" />
		<tag k="ssr:stedsnr" v="541670" />
		<tag k="waterway" v="stream" />
	</node>
	<node lat="65.32555000189144" lon="12.688524994502203" id="-17597">
		<tag k="name" v="Vika" />
		<tag k="natural" v="bay" />
		<tag k="ssr:stedsnr" v="542150" />
	</node>
	<node lat="65.3349666631565" lon="12.674355561755949" id="-17600">
		<tag k="name" v="Sandbukta" />
		<tag k="natural" v="bay" />
		<tag k="ssr:stedsnr" v="542158" />
	</node>
	<node lat="65.29819166881816" lon="13.043044453883567" id="-17604">
		<tag k="name" v="Hardskardbekken" />
		<tag k="ssr:stedsnr" v="542198" />
		<tag k="waterway" v="stream" />
	</node>
	<node lat="65.33489722053245" lon="12.748511115136651" id="-17605">
		<tag k="name" v="Mølntjønna" />
		<tag k="natural" v="water" />
		<tag k="ssr:stedsnr" v="542199" />
	</node>
	<node lat="65.28958611391172" lon="12.573025003667302" id="-17609">
		<tag k="name" v="Storstrandbukta" />
		<tag k="natural" v="bay" />
		<tag k="ssr:stedsnr" v="542319" />
	</node>
	<node lat="65.3086722229799" lon="12.602791669706388" id="-17620">
		<tag k="name" v="Djupbekken" />
		<tag k="ssr:stedsnr" v="542847" />
		<tag k="waterway" v="stream" />
	</node>
	<node lat="65.30249722248737" lon="12.590497220522145" id="-17627">
		<tag k="name" v="Straumneset" />
		<tag k="natural" v="cape" />
		<tag k="ssr:stedsnr" v="542821" />
	</node>
	<node lat="65.35340000341048" lon="12.602644437307623" id="-17667">
		<tag k="name" v="Sandvika" />
		<tag k="natural" v="bay" />
		<tag k="ssr:stedsnr" v="560313" />
	</node>
	<node lat="65.35190833477166" lon="12.619277772020883" id="-17668">
		<tag k="alt_name" v="Holmene" />
		<tag k="name" v="Holman" />
		<tag k="place" v="islet" />
		<tag k="ssr:stedsnr" v="560316" />
	</node>
	<node lat="65.37191110795177" lon="12.484644443669396" id="-17671">
		<tag k="name" v="Djupvatnet" />
		<tag k="natural" v="water" />
		<tag k="ssr:stedsnr" v="560421" />
	</node>
	<node lat="65.43113055151188" lon="12.524502787479554" id="-17673">
		<tag k="alt_name" v="Engavatnet" />
		<tag k="name" v="Engjavatnet" />
		<tag k="natural" v="water" />
		<tag k="ssr:stedsnr" v="560390" />
	</node>
	<node lat="65.40645555614277" lon="12.674077780995074" id="-17674">
		<tag k="alt_name" v="Engelviktjønna" />
		<tag k="name" v="Engelvikvatnet" />
		<tag k="natural" v="water" />
		<tag k="ssr:stedsnr" v="560462" />
	</node>
	<node lat="65.41150833028155" lon="12.615208334086851" id="-17676">
		<tag k="fixme" v="multiple name tags, choose one and add the other to alt_name" />
		<tag k="name" v="Storvatnet;Opsjøvatnet" />
		<tag k="natural" v="water" />
		<tag k="ssr:stedsnr" v="560468" />
	</node>
	<node lat="65.47105000361432" lon="12.653844436898297" id="-17677">
		<tag k="name" v="Oterbekken" />
		<tag k="ssr:stedsnr" v="560472" />
		<tag k="waterway" v="stream" />
	</node>
	<node lat="65.39117778161489" lon="12.570411114803784" id="-17678">
		<tag k="name" v="Svartvatnet" />
		<tag k="natural" v="water" />
		<tag k="ssr:stedsnr" v="560480" />
	</node>
	<node lat="65.24097222553166" lon="12.754605545890751" id="-17680">
		<tag k="alt_name" v="Hammerlivatnet" />
		<tag k="loc_name" v="Hammarslivatnet" />
		<tag k="name" v="Hammarlivatnet" />
		<tag k="natural" v="water" />
		<tag k="ssr:stedsnr" v="560579" />
	</node>
	<node lat="65.45373379631123" lon="12.86735858625272" id="-17684">
		<tag k="name" v="Medheiforsen" />
		<tag k="natural" v="waterfall" />
		<tag k="ssr:stedsnr" v="561071" />
	</node>
	<node lat="65.47004999942708" lon="12.944686112461504" id="-17685">
		<tag k="loc_name" v="Ner-Grunnvasselva" />
		<tag k="name" v="Nedre Grunnvasselva" />
		<tag k="ssr:stedsnr" v="561075" />
		<tag k="waterway" v="river" />
	</node>
	<node lat="65.45766642789353" lon="12.879851159448586" id="-17686">
		<tag k="name" v="Lomsdalselva" />
		<tag k="ssr:stedsnr" v="561081" />
		<tag k="waterway" v="river" />
	</node>
	<node lat="65.43461944451954" lon="12.836419448997" id="-17687">
		<tag k="name" v="Breivasselva" />
		<tag k="ssr:stedsnr" v="561085" />
		<tag k="waterway" v="river" />
	</node>
	<node lat="65.5044249960413" lon="12.731952786850513" id="-17698">
		<tag k="name" v="Søre Vesterdalselva" />
		<tag k="ssr:stedsnr" v="561651" />
		<tag k="waterway" v="river" />
	</node>
	<node lat="65.3842555575644" lon="12.53878056613116" id="-17699">
		<tag k="alt_name" v="Sjåvika" />
		<tag k="name" v="Skjåvika" />
		<tag k="natural" v="bay" />
		<tag k="ssr:stedsnr" v="561674" />
	</node>
	<node lat="65.61811111329801" lon="12.530194450942048" id="-17704">
		<tag k="name" v="Klavesmarkelva" />
		<tag k="ssr:stedsnr" v="561924" />
		<tag k="waterway" v="river" />
	</node>
	<node lat="65.52936388906431" lon="12.327225003302985" id="-17705">
		<tag k="alt_name" v="Stiksbugelva" />
		<tag k="name" v="Steksbugelva" />
		<tag k="ssr:stedsnr" v="561932" />
		<tag k="waterway" v="stream" />
	</node>
	<node lat="65.58153610989756" lon="12.605386112066899" id="-17706">
		<tag k="name" v="Holman" />
		<tag k="place" v="islet" />
		<tag k="ssr:stedsnr" v="561874" />
	</node>
	<node lat="65.49822777383872" lon="12.323211102162892" id="-17720">
		<tag k="name" v="Skilleelva" />
		<tag k="ssr:stedsnr" v="599164" />
		<tag k="waterway" v="stream" />
	</node>
	<node lat="65.5231888904713" lon="12.290302776606117" id="-17738">
		<tag k="name" v="Kolåsbekkjen" />
		<tag k="ssr:stedsnr" v="599442" />
		<tag k="waterway" v="stream" />
	</node>
	<node lat="65.4536166697971" lon="12.761230546460112" id="-17739">
		<tag k="name" v="Mølnbekken" />
		<tag k="ssr:stedsnr" v="599512" />
		<tag k="waterway" v="stream" />
	</node>
	<node lat="65.3550083301269" lon="12.513605547986376" id="-17742">
		<tag k="name" v="Langneset" />
		<tag k="natural" v="cape" />
		<tag k="ssr:stedsnr" v="599529" />
	</node>
	<node lat="65.5597388894999" lon="12.298336115043044" id="-17752">
		<tag k="name" v="Lundsbugjen" />
		<tag k="natural" v="bay" />
		<tag k="ssr:stedsnr" v="599801" />
	</node>
	<node lat="65.32280278009767" lon="13.00872500337665" id="-17755">
		<tag k="name" v="Kromåneset" />
		<tag k="natural" v="cape" />
		<tag k="ssr:stedsnr" v="600248" />
	</node>
	<node lat="65.29694167003906" lon="12.728108341627728" id="-17782">
		<tag k="name" v="Svartflaugbekken" />
		<tag k="ssr:stedsnr" v="602128" />
		<tag k="waterway" v="stream" />
	</node>
	<node lat="65.319430553465" lon="12.740169454663707" id="-17784">
		<tag k="name" v="Kvennhattbekken" />
		<tag k="ssr:stedsnr" v="602144" />
		<tag k="waterway" v="stream" />
	</node>
	<node lat="65.31383889072687" lon="12.781355563125366" id="-17785">
		<tag k="name" v="Forsvassforsen" />
		<tag k="natural" v="waterfall" />
		<tag k="ssr:stedsnr" v="602153" />
	</node>
	<node lat="65.38351388619584" lon="12.624077782600832" id="-17789">
		<tag k="name" v="Åneset" />
		<tag k="natural" v="cape" />
		<tag k="ssr:stedsnr" v="602634" />
	</node>
	<node lat="65.2925722263512" lon="13.062336117133464" id="-17821">
		<tag k="name" v="Tverråa" />
		<tag k="ssr:stedsnr" v="604229" />
		<tag k="waterway" v="stream" />
	</node>
	<node lat="65.33273333587735" lon="12.657708338801115" id="-17829">
		<tag k="name" v="Bjønnmyrskjæret" />
		<tag k="place" v="islet" />
		<tag k="ssr:stedsnr" v="604732" />
	</node>
	<node lat="65.43703055416736" lon="12.832386110004304" id="-17842">
		<tag k="name" v="Breivassforsen" />
		<tag k="natural" v="waterfall" />
		<tag k="ssr:stedsnr" v="621069" />
	</node>
	<node lat="65.30586110702122" lon="12.689299989307399" id="-17854">
		<tag k="alt_name" v="Kvennbekken" />
		<tag k="name" v="Kvernbekken" />
		<tag k="ssr:stedsnr" v="621200" />
		<tag k="waterway" v="stream" />
	</node>
	<node lat="65.4212249970939" lon="12.507425006636147" id="-17859">
		<tag k="name" v="Vardtjønna" />
		<tag k="natural" v="water" />
		<tag k="ssr:stedsnr" v="621456" />
	</node>
	<node lat="65.32453055732994" lon="12.663036112622413" id="-17867">
		<tag k="name" v="Skogholmen" />
		<tag k="place" v="islet" />
		<tag k="ssr:stedsnr" v="621318" />
	</node>
	<node lat="65.34680555864765" lon="12.522449993092325" id="-17873">
		<tag k="alt_name" v="Fugellielva" />
		<tag k="name" v="Fugllielva" />
		<tag k="ssr:stedsnr" v="621389" />
		<tag k="waterway" v="river" />
	</node>
	<node lat="65.38545277728434" lon="12.619036110945258" id="-17875">
		<tag k="name" v="Strengivatnet" />
		<tag k="natural" v="water" />
		<tag k="ssr:stedsnr" v="621395" />
		<tag k="water" v="lake" />
	</node>
	<node lat="65.45878332968196" lon="12.43300000561508" id="-17879">
		<tag k="name" v="Vandalsvikvatnet" />
		<tag k="natural" v="water" />
		<tag k="ssr:stedsnr" v="621499" />
		<tag k="water" v="lake" />
	</node>
	<node lat="65.41693333318212" lon="12.392519437257183" id="-17883">
		<tag k="alt_name" v="Govatnet" />
		<tag k="name" v="Godvatnet" />
		<tag k="natural" v="water" />
		<tag k="ssr:stedsnr" v="621469" />
		<tag k="water" v="lake" />
	</node>
	<node lat="65.27097500357624" lon="12.606686118933453" id="-17890">
		<tag k="name" v="Votntjønna" />
		<tag k="natural" v="water" />
		<tag k="ssr:stedsnr" v="622160" />
	</node>
	<node lat="65.50119999929395" lon="12.785774991739359" id="-17895">
		<tag k="name" v="Søre Austerdalselva" />
		<tag k="ssr:stedsnr" v="622637" />
		<tag k="waterway" v="river" />
	</node>
	<node lat="65.27498888657775" lon="13.11754999086795" id="-17896">
		<tag k="name" v="Kjerringtjønna" />
		<tag k="natural" v="water" />
		<tag k="ssr:stedsnr" v="622989" />
	</node>
	<node lat="65.49704815351352" lon="12.774414128685606" id="-17919">
		<tag k="name" v="Hestnestjønna" />
		<tag k="natural" v="water" />
		<tag k="ssr:stedsnr" v="660555" />
	</node>
	<node lat="65.36319443992357" lon="12.998419451143674" id="-17921">
		<tag k="name" v="Nordelva" />
		<tag k="ssr:stedsnr" v="660565" />
		<tag k="waterway" v="river" />
	</node>
	<node lat="65.31883333764424" lon="12.46868055009467" id="-17922">
		<tag k="name" v="Gravbekken" />
		<tag k="ssr:stedsnr" v="660567" />
		<tag k="waterway" v="stream" />
	</node>
	<node lat="65.355241667803" lon="12.524594448258194" id="-17927">
		<tag k="name" v="Fugellitjønna" />
		<tag k="natural" v="water" />
		<tag k="ssr:stedsnr" v="660519" />
	</node>
	<node lat="65.32396944130709" lon="12.993819449634092" id="-17942">
		<tag k="name" v="Storhaugneset" />
		<tag k="natural" v="cape" />
		<tag k="ssr:stedsnr" v="720050" />
	</node>
	<node lat="65.50993333056122" lon="12.28118610268044" id="-17952">
		<tag k="name" v="Vannverksdammen" />
		<tag k="natural" v="water" />
		<tag k="ssr:stedsnr" v="721340" />
	</node>
	<node lat="65.47003333588368" lon="12.352752779591912" id="-17953">
		<tag k="name" v="Krokdalsbekken" />
		<tag k="ssr:stedsnr" v="721362" />
		<tag k="waterway" v="stream" />
	</node>
	<node lat="65.3818972215646" lon="12.51523611198209" id="-17955">
		<tag k="name" v="Sjøfossen" />
		<tag k="ssr:stedsnr" v="721480" />
		<tag k="waterway" v="rapids" />
	</node>
	<node lat="65.53778888751322" lon="12.261908333916054" id="-17968">
		<tag k="name" v="Kuvikbekkjen" />
		<tag k="ssr:stedsnr" v="721553" />
		<tag k="waterway" v="stream" />
	</node>
	<node lat="65.58168611475294" lon="12.301958325831412" id="-17970">
		<tag k="name" v="Sjøvollen" />
		<tag k="natural" v="beach" />
		<tag k="ssr:stedsnr" v="721558" />
	</node>
	<node lat="65.44580833730228" lon="12.758963898910558" id="-17978">
		<tag k="name" v="Sørfjelltjønnan" />
		<tag k="natural" v="water" />
		<tag k="ssr:stedsnr" v="721942" />
	</node>
	<node lat="65.48819722385437" lon="12.251433329714844" id="-17989">
		<tag k="name" v="Slettaunosen" />
		<tag k="natural" v="bay" />
		<tag k="ssr:stedsnr" v="722436" />
	</node>
	<node lat="65.28671666806865" lon="12.683844437264536" id="-18007">
		<tag k="name" v="Ravnrevnebekken" />
		<tag k="ssr:stedsnr" v="723171" />
		<tag k="waterway" v="stream" />
	</node>
	<node lat="65.27031388799384" lon="12.651149990906244" id="-18031">
		<tag k="name" v="Svarttjønnbekkenget" />
		<tag k="ssr:stedsnr" v="724346" />
		<tag k="waterway" v="stream" />
	</node>
	<node lat="65.35979444748618" lon="12.558213881564686" id="-18039">
		<tag k="name" v="Kalvneset" />
		<tag k="natural" v="cape" />
		<tag k="ssr:stedsnr" v="724878" />
	</node>
	<node lat="65.36141111100359" lon="12.541716662355768" id="-18046">
		<tag k="name" v="Bjørbugen" />
		<tag k="natural" v="bay" />
		<tag k="ssr:stedsnr" v="724873" />
	</node>
	<node lat="65.32627777718004" lon="12.536552783921913" id="-18054">
		<tag k="name" v="Langnesodden" />
		<tag k="natural" v="cape" />
		<tag k="ssr:stedsnr" v="725637" />
	</node>
	<node lat="65.3602722229825" lon="12.603830566366092" id="-18058">
		<tag k="name" v="Sommereidet" />
		<tag k="natural" v="isthmus" />
		<tag k="place" v="locality" />
		<tag k="ssr:stedsnr" v="725850" />
	</node>
	<node lat="65.39832500436547" lon="12.592819444739028" id="-18059">
		<tag k="name" v="Roparneset" />
		<tag k="natural" v="cape" />
		<tag k="ssr:stedsnr" v="725670" />
	</node>
	<node lat="65.42091667060073" lon="12.545149991749728" id="-18062">
		<tag k="name" v="Fjellbekken" />
		<tag k="ssr:stedsnr" v="726536" />
		<tag k="waterway" v="stream" />
	</node>
	<node lat="65.34722500080842" lon="12.497400008832283" id="-18076">
		<tag k="name" v="Langvatnet" />
		<tag k="natural" v="water" />
		<tag k="ssr:stedsnr" v="742335" />
		<tag k="water" v="lake" />
	</node>
	<node lat="65.4895111082967" lon="12.621947222175162" id="-18080">
		<tag k="name" v="Tverrelva" />
		<tag k="ssr:stedsnr" v="742281" />
		<tag k="waterway" v="stream" />
	</node>
	<node lat="65.3202750039443" lon="12.899638894919011" id="-18090">
		<tag k="name" v="Storola-vatnet" />
		<tag k="natural" v="water" />
		<tag k="ssr:stedsnr" v="743021" />
	</node>
	<node lat="65.43793888664092" lon="12.482936102046326" id="-18093">
		<tag k="alt_name" v="Øvre Svanvatnet" />
		<tag k="loc_name" v="Øversvanvatnet" />
		<tag k="name" v="Øvresvanvatnet" />
		<tag k="natural" v="water" />
		<tag k="ssr:stedsnr" v="743419" />
	</node>
	<node lat="65.2643916649293" lon="12.773808324249043" id="-18098">
		<tag k="name" v="Storvatnet" />
		<tag k="natural" v="water" />
		<tag k="ssr:stedsnr" v="743079" />
	</node>
	<node lat="65.29812499729877" lon="12.559827784984359" id="-18103">
		<tag k="name" v="Djupgrunnvatnet" />
		<tag k="natural" v="water" />
		<tag k="ssr:stedsnr" v="743227" />
	</node>
	<node lat="65.39880278017554" lon="12.603716665289136" id="-18109">
		<tag k="name" v="Aunvatnet" />
		<tag k="natural" v="water" />
		<tag k="ssr:stedsnr" v="743449" />
	</node>
	<node lat="65.5391222240885" lon="12.456583326914014" id="-18116">
		<tag k="alt_name" v="Skardåelva" />
		<tag k="name" v="Skardåa" />
		<tag k="ssr:stedsnr" v="743964" />
		<tag k="waterway" v="stream" />
	</node>
	<node lat="65.32265832903342" lon="12.997741666178781" id="-18134">
		<tag k="name" v="Storfossen" />
		<tag k="natural" v="waterfall" />
		<tag k="ssr:stedsnr" v="781043" />
	</node>
	<node lat="65.27694444406296" lon="12.588994438787706" id="-18170">
		<tag k="name" v="Lessengelva" />
		<tag k="ssr:stedsnr" v="783348" />
		<tag k="waterway" v="stream" />
	</node>
	<node lat="65.39523611124642" lon="12.677180561383553" id="-18179">
		<tag k="name" v="Mølnhuselva" />
		<tag k="ssr:stedsnr" v="784204" />
		<tag k="waterway" v="stream" />
	</node>
	<node lat="65.33997920520095" lon="12.750535274606365" id="-18185">
		<tag k="name" v="Storskjåtjønna" />
		<tag k="natural" v="water" />
		<tag k="ssr:stedsnr" v="784159" />
		<tag k="water" v="lake" />
	</node>
	<node lat="65.26492500037706" lon="12.693019448745055" id="-18192">
		<tag k="name" v="Stranda" />
		<tag k="natural" v="beach" />
		<tag k="ssr:stedsnr" v="784304" />
	</node>
	<node lat="65.4229527810681" lon="12.081166660552226" id="-18217">
		<tag k="name" v="Ingeborgtjønna" />
		<tag k="natural" v="water" />
		<tag k="ssr:stedsnr" v="784984" />
	</node>
	<node lat="65.37610555775052" lon="12.531688884445822" id="-18228">
		<tag k="name" v="Husvika" />
		<tag k="natural" v="bay" />
		<tag k="ssr:stedsnr" v="785567" />
	</node>
	<node lat="65.36834999735285" lon="12.537236121149459" id="-18230">
		<tag k="name" v="Nepåselva" />
		<tag k="ssr:stedsnr" v="785575" />
		<tag k="waterway" v="river" />
	</node>
	<node lat="65.44910833300204" lon="12.121833330527142" id="-18231">
		<tag k="name" v="Tettøya" />
		<tag k="natural" v="isthmus" />
		<tag k="place" v="locality" />
		<tag k="ssr:stedsnr" v="785743" />
	</node>
	<node lat="65.32611666314212" lon="12.630738885728599" id="-18239">
		<tag k="name" v="Fjellbekken" />
		<tag k="ssr:stedsnr" v="786734" />
		<tag k="waterway" v="stream" />
	</node>
	<node lat="65.39347500377708" lon="12.58206666351737" id="-18242">
		<tag k="name" v="Svartvassholmen" />
		<tag k="place" v="islet" />
		<tag k="ssr:stedsnr" v="786748" />
	</node>
	<node lat="65.37112499658805" lon="12.455905558130127" id="-18259">
		<tag k="alt_name" v="Svartvatnet" />
		<tag k="name" v="Svartvatnan" />
		<tag k="natural" v="water" />
		<tag k="ssr:stedsnr" v="803430" />
	</node>
	<node lat="65.3726944439266" lon="12.451138884995396" id="-18260">
		<tag k="alt_name" v="Bjørkskarvatnet" />
		<tag k="name" v="Bjørkskardvatnet" />
		<tag k="natural" v="water" />
		<tag k="ssr:stedsnr" v="803432" />
	</node>
	<node lat="65.32195832921481" lon="12.97985833207428" id="-18271">
		<tag k="name" v="Sommarfjøsbekken" />
		<tag k="ssr:stedsnr" v="804036" />
		<tag k="waterway" v="stream" />
	</node>
	<node lat="65.29911666832527" lon="12.727686113143346" id="-18272">
		<tag k="name" v="Storvassbukta" />
		<tag k="natural" v="bay" />
		<tag k="ssr:stedsnr" v="804040" />
	</node>
	<node lat="65.35356666593206" lon="12.730938886915796" id="-18277">
		<tag k="fixme" v="multiple name tags, choose one and add the other to alt_name" />
		<tag k="name" v="Fjelldalsvatnet;Tarmaunvatnet" />
		<tag k="natural" v="water" />
		<tag k="ssr:stedsnr" v="804134" />
	</node>
	<node lat="65.26545833134561" lon="12.746277781341135" id="-18280">
		<tag k="name" v="Barstadelva" />
		<tag k="ssr:stedsnr" v="804088" />
		<tag k="waterway" v="stream" />
	</node>
	<node lat="65.45803611116693" lon="12.889894434259276" id="-18282">
		<tag k="name" v="Dyrbergtjønna" />
		<tag k="natural" v="water" />
		<tag k="ssr:stedsnr" v="804095" />
	</node>
	<node lat="65.52945278217969" lon="12.944772218275086" id="-18286">
		<tag k="name" v="Geehpjaevrie" />
		<tag k="name:sma" v="Geehpjaevrie" />
		<tag k="natural" v="water" />
		<tag k="ssr:stedsnr" v="804663" />
		<tag k="water" v="lake" />
	</node>
	<node lat="65.5592361111349" lon="12.542833339197193" id="-18297">
		<tag k="name" v="Mølnbekken" />
		<tag k="ssr:stedsnr" v="804990" />
		<tag k="waterway" v="stream" />
	</node>
	<node lat="65.56321389297024" lon="12.485830550914327" id="-18299">
		<tag k="name" v="Fornesvatnet" />
		<tag k="natural" v="water" />
		<tag k="ssr:stedsnr" v="804994" />
	</node>
	<node lat="65.31069166772383" lon="13.01934167489408" id="-18320">
		<tag k="name" v="Hestmyrbekken" />
		<tag k="ssr:stedsnr" v="843116" />
		<tag k="waterway" v="stream" />
	</node>
	<node lat="65.38287222657922" lon="12.453575007053363" id="-18323">
		<tag k="name" v="Mølnhusodden" />
		<tag k="natural" v="cape" />
		<tag k="ssr:stedsnr" v="843032" />
	</node>
	<node lat="65.39517222119463" lon="12.466447220949155" id="-18330">
		<tag k="name" v="Roparvika" />
		<tag k="natural" v="bay" />
		<tag k="ssr:stedsnr" v="843221" />
	</node>
	<node lat="65.39592246139837" lon="12.500964690549923" id="-18331">
		<tag k="name" v="Innervatnet" />
		<tag k="natural" v="water" />
		<tag k="ssr:stedsnr" v="843223" />
	</node>
	<node lat="65.48109166879988" lon="12.767888894826088" id="-18342">
		<tag k="name" v="Lessengbekken" />
		<tag k="ssr:stedsnr" v="843560" />
		<tag k="waterway" v="stream" />
	</node>
	<node lat="65.36036111485379" lon="12.99941111851138" id="-18344">
		<tag k="name" v="Storneset" />
		<tag k="natural" v="cape" />
		<tag k="ssr:stedsnr" v="843565" />
	</node>
	<node lat="65.36168055842748" lon="12.520783333100573" id="-18349">
		<tag k="name" v="Lessvatnet" />
		<tag k="natural" v="water" />
		<tag k="ssr:stedsnr" v="843575" />
	</node>
	<node lat="65.47872777987995" lon="12.382877775245687" id="-18355">
		<tag k="name" v="Akeleietjønna" />
		<tag k="natural" v="water" />
		<tag k="ssr:stedsnr" v="844502" />
	</node>
	<node lat="65.49501944310238" lon="12.135027780875388" id="-18361">
		<tag k="name" v="Nordmarkvatnet" />
		<tag k="natural" v="water" />
		<tag k="ssr:stedsnr" v="844830" />
	</node>
	<node lat="65.35781944888637" lon="12.71652777478366" id="-18367">
		<tag k="name" v="Elva" />
		<tag k="ssr:stedsnr" v="845149" />
		<tag k="waterway" v="river" />
	</node>
	<node lat="65.3037027743657" lon="12.66936667448252" id="-18370">
		<tag k="name" v="Granskarbekken" />
		<tag k="ssr:stedsnr" v="845174" />
		<tag k="waterway" v="stream" />
	</node>
	<node lat="65.26090833782867" lon="12.656769437457596" id="-18376">
		<tag k="name" v="Digerneshalsbukta" />
		<tag k="natural" v="bay" />
		<tag k="ssr:stedsnr" v="845376" />
	</node>
	<node lat="65.30411111481094" lon="12.610030564303155" id="-18392">
		<tag k="name" v="Bjørkholmen" />
		<tag k="place" v="islet" />
		<tag k="ssr:stedsnr" v="846836" />
	</node>
	<node lat="65.357769444398" lon="12.611802771007442" id="-18403">
		<tag k="name" v="Innerrørlivatnet" />
		<tag k="natural" v="water" />
		<tag k="ssr:stedsnr" v="847869" />
		<tag k="water" v="lake" />
	</node>
	<node lat="65.39369166973616" lon="12.59679721452952" id="-18410">
		<tag k="name" v="Brustokkstraumen" />
		<tag k="ssr:stedsnr" v="847742" />
		<tag k="waterway" v="stream" />
	</node>
	<node lat="65.47735278079683" lon="12.096619443066606" id="-18413">
		<tag k="name" v="Vikervatnet" />
		<tag k="natural" v="water" />
		<tag k="ssr:stedsnr" v="864072" />
	</node>
	<node lat="65.28028055272837" lon="12.570588879106099" id="-18424">
		<tag k="name" v="Godvasseidet" />
		<tag k="natural" v="isthmus" />
		<tag k="place" v="locality" />
		<tag k="ssr:stedsnr" v="864237" />
	</node>
	<node lat="65.42794444480323" lon="12.408891661063787" id="-18426">
		<tag k="name" v="Kaldbekken" />
		<tag k="ssr:stedsnr" v="864425" />
		<tag k="waterway" v="stream" />
	</node>
	<node lat="65.47946666891984" lon="12.421650001346636" id="-18431">
		<tag k="name" v="Skomovikelva" />
		<tag k="ssr:stedsnr" v="864324" />
		<tag k="waterway" v="stream" />
	</node>
	<node lat="65.33533611245088" lon="12.683777780043252" id="-18438">
		<tag k="name" v="Storelva" />
		<tag k="ssr:stedsnr" v="864271" />
		<tag k="waterway" v="river" />
	</node>
	<node lat="65.41472777468154" lon="12.469708338801455" id="-18445">
		<tag k="name" v="Sjøvatnet" />
		<tag k="natural" v="water" />
		<tag k="ssr:stedsnr" v="864466" />
	</node>
	<node lat="65.38962499886377" lon="12.467216658718733" id="-18447">
		<tag k="alt_name" v="Novavatnet" />
		<tag k="name" v="Navavatnet" />
		<tag k="natural" v="water" />
		<tag k="ssr:stedsnr" v="864524" />
		<tag k="water" v="lake" />
	</node>
	<node lat="65.31453055280681" lon="12.796966670986281" id="-18457">
		<tag k="name" v="Forsvatnet" />
		<tag k="natural" v="water" />
		<tag k="ssr:stedsnr" v="865023" />
	</node>
	<node lat="65.40704444221598" lon="12.80971389790365" id="-18468">
		<tag k="loc_name" v="Øver-Lappskardvatnet" />
		<tag k="name" v="Øvre Lappskardvatnet" />
		<tag k="natural" v="water" />
		<tag k="ssr:stedsnr" v="865125" />
		<tag k="water" v="lake" />
	</node>
	<node lat="65.31773055528711" lon="13.00380556613659" id="-18471">
		<tag k="name" v="Storelva" />
		<tag k="ssr:stedsnr" v="865700" />
		<tag k="waterway" v="river" />
	</node>
	<node lat="65.48243611071445" lon="12.668758325459482" id="-18481">
		<tag k="name" v="Lislbørjelva" />
		<tag k="ssr:stedsnr" v="924254" />
		<tag k="waterway" v="stream" />
	</node>
	<node lat="65.41840555974827" lon="12.416649991600067" id="-18487">
		<tag k="name" v="Grønlielva" />
		<tag k="ssr:stedsnr" v="924359" />
		<tag k="waterway" v="stream" />
	</node>
	<node lat="65.3189638928755" lon="12.58957221982534" id="-18495">
		<tag k="alt_name" v="Ytre Skråvåa" />
		<tag k="loc_name" v="Ytterskrovbekken" />
		<tag k="name" v="Ytreskrovbekken" />
		<tag k="ssr:stedsnr" v="925299" />
		<tag k="waterway" v="stream" />
	</node>
	<node lat="65.31653333258176" lon="12.550197224262051" id="-18497">
		<tag k="name" v="Starrbukta" />
		<tag k="natural" v="bay" />
		<tag k="ssr:stedsnr" v="925301" />
	</node>
	<node lat="65.2950305539342" lon="12.57390832417576" id="-18510">
		<tag k="name" v="Bergshaugvatnet" />
		<tag k="natural" v="water" />
		<tag k="ssr:stedsnr" v="925244" />
	</node>
	<node lat="65.30387500422623" lon="12.451163899768737" id="-18519">
		<tag k="fixme" v="multiple name tags, choose one and add the other to alt_name" />
		<tag k="name" v="Gravfjelltjønna;Gravtjønna" />
		<tag k="natural" v="water" />
		<tag k="ssr:stedsnr" v="925337" />
	</node>
	<node lat="65.28389166968685" lon="12.574633336187949" id="-18536">
		<tag k="name" v="Storbukta" />
		<tag k="natural" v="bay" />
		<tag k="ssr:stedsnr" v="925729" />
	</node>
	<node lat="65.27081388646252" lon="12.651713895150078" id="-18548">
		<tag k="alt_name" v="Åkrabekken" />
		<tag k="name" v="Åkrokbekken" />
		<tag k="ssr:stedsnr" v="926146" />
		<tag k="waterway" v="stream" />
	</node>
	<node lat="65.26291944085469" lon="12.786638880406175" id="-18555">
		<tag k="name" v="Landelva" />
		<tag k="ssr:stedsnr" v="926998" />
		<tag k="waterway" v="stream" />
	</node>
	<node lat="65.57253055662802" lon="12.574233333445639" id="-18570">
		<tag k="name" v="Fornesbekken" />
		<tag k="ssr:stedsnr" v="963784" />
		<tag k="waterway" v="stream" />
	</node>
	<node lat="65.41850555932979" lon="12.767741660267243" id="-18572">
		<tag k="name" v="Storbekken" />
		<tag k="ssr:stedsnr" v="963970" />
		<tag k="waterway" v="stream" />
	</node>
	<node lat="65.51625277911543" lon="12.26109444924806" id="-18586">
		<tag k="name" v="Vassvika" />
		<tag k="natural" v="bay" />
		<tag k="ssr:stedsnr" v="964176" />
	</node>
	<node lat="65.59485555575714" lon="12.598452781638567" id="-18598">
		<tag k="name" v="Trollkløvbekken" />
		<tag k="ssr:stedsnr" v="964781" />
		<tag k="waterway" v="stream" />
	</node>
	<node lat="65.4271500005583" lon="12.279724996611096" id="-18602">
		<tag k="name" v="Hoplivatnet" />
		<tag k="natural" v="water" />
		<tag k="ssr:stedsnr" v="964851" />
	</node>
	<node lat="65.27470277719941" lon="12.585086102851323" id="-18605">
		<tag k="name" v="Neset" />
		<tag k="natural" v="cape" />
		<tag k="ssr:stedsnr" v="965359" />
	</node>
	<node lat="65.25660555637481" lon="12.68243889162086" id="-18615">
		<tag k="name" v="Larsodden" />
		<tag k="natural" v="cape" />
		<tag k="ssr:stedsnr" v="966172" />
	</node>
	<node lat="65.3560333341532" lon="12.611572225528462" id="-18649">
		<tag k="name" v="Vintereidet" />
		<tag k="natural" v="isthmus" />
		<tag k="place" v="locality" />
		<tag k="ssr:stedsnr" v="968873" />
	</node>
</osm>
