<?xml version="1.0" encoding="UTF-8"?>
<osm version="0.6" generator="osmapis">
	<node lat="65.34175555342453" lon="12.748505562704981" id="-13416">
		<tag k="highway" v="path" />
		<tag k="name" v="Sneivegen" />
		<tag k="ssr:stedsnr" v="238153" />
	</node>
	<node lat="65.46963055742778" lon="12.200499997546864" id="-13832">
		<tag k="man_made" v="quay" />
		<tag k="name" v="Masterberget" />
		<tag k="place" v="locality" />
		<tag k="ssr:stedsnr" v="178510" />
	</node>
	<node lat="65.47111367078932" lon="12.206842284005614" id="-13938">
		<tag k="bridge" v="yes" />
		<tag k="layer" v="1" />
		<tag k="name" v="Frøkenosbrua" />
		<tag k="ssr:stedsnr" v="238382" />
	</node>
	<node lat="65.28572222029663" lon="12.825516674231825" id="-13940">
		<tag k="highway" v="path" />
		<tag k="name" v="Engebuvegen" />
		<tag k="ssr:stedsnr" v="238392" />
	</node>
	<node lat="65.33299331087649" lon="12.946765655646399" id="-14122">
		<tag k="layer" v="-1" />
		<tag k="name" v="Bjørnstokktunnelen" />
		<tag k="ssr:stedsnr" v="469143" />
		<tag k="tunnel" v="yes" />
	</node>
	<node lat="65.43900833465219" lon="12.835711101715814" id="-14191">
		<tag k="highway" v="path" />
		<tag k="name" v="Heststien" />
		<tag k="ssr:stedsnr" v="478550" />
	</node>
	<node lat="65.4664472206322" lon="12.197838878654187" id="-14219">
		<tag k="man_made" v="quay" />
		<tag k="name" v="Stranda" />
		<tag k="place" v="locality" />
		<tag k="ssr:stedsnr" v="481536" />
	</node>
	<node lat="65.49549167056122" lon="12.769750005376075" id="-14748">
		<tag k="highway" v="path" />
		<tag k="name" v="Bjønnstien" />
		<tag k="ssr:stedsnr" v="599549" />
	</node>
	<node lat="65.37508611314009" lon="12.70076111005037" id="-14878">
		<tag k="landuse" v="industrial" />
		<tag k="name" v="Langfjord kraftstasjon" />
		<tag k="power" v="plant" />
		<tag k="ssr:stedsnr" v="663236" />
	</node>
	<node lat="65.37434444527229" lon="12.538224992009452" id="-14895">
		<tag k="highway" v="path" />
		<tag k="name" v="Tveitstien" />
		<tag k="ssr:stedsnr" v="663606" />
	</node>
	<node lat="65.46222222440143" lon="12.206666674072613" id="-14901">
		<tag k="ford" v="yes" />
		<tag k="name" v="Hestvadet" />
		<tag k="place" v="locality" />
		<tag k="ssr:stedsnr" v="663891" />
	</node>
	<node lat="65.583483268359" lon="12.302017495437333" id="-15447">
		<tag k="amenity" v="ferry_terminal" />
		<tag k="name" v="Horn" />
		<tag k="ssr:stedsnr" v="926885" />
	</node>
	<node lat="65.30916272920342" lon="13.01821901055537" id="-15474">
		<tag k="alt_name" v="Tosen" />
		<tag k="layer" v="-1" />
		<tag k="name" v="Tosentunnelen" />
		<tag k="ssr:stedsnr" v="875592" />
		<tag k="tunnel" v="yes" />
	</node>
	<node lat="65.44141110878662" lon="12.835447212715929" id="-15491">
		<tag k="highway" v="path" />
		<tag k="name" v="Lomsdalsstien" />
		<tag k="ssr:stedsnr" v="903521" />
	</node>
	<node lat="65.5556861102118" lon="12.518983337119641" id="-15859">
		<tag k="name" v="Storhamna" />
		<tag k="place" v="locality" />
		<tag k="ssr:stedsnr" v="53851" />
	</node>
	<node lat="65.30056111429617" lon="12.495477779607596" id="-16237">
		<tag k="highway" v="path" />
		<tag k="name" v="Geitstien" />
		<tag k="ssr:stedsnr" v="175539" />
	</node>
	<node lat="65.51260555990578" lon="12.13608610095672" id="-16264">
		<tag k="highway" v="path" />
		<tag k="name" v="Kristoffertrappen" />
		<tag k="ssr:stedsnr" v="177935" />
	</node>
	<node lat="65.34765000014595" lon="12.724311118833525" id="-16638">
		<tag k="ford" v="yes" />
		<tag k="name" v="Stivadet" />
		<tag k="place" v="locality" />
		<tag k="ssr:stedsnr" v="360196" />
	</node>
	<node lat="65.46595990881244" lon="12.187158212624187" id="-16656">
		<tag k="bridge" v="yes" />
		<tag k="layer" v="1" />
		<tag k="loc_name" v="Brønnøysundbrua" />
		<tag k="name" v="Brønnøysund bru" />
		<tag k="ssr:stedsnr" v="360868" />
	</node>
	<node lat="65.46185555202979" lon="12.216255559762104" id="-16767">
		<tag k="aeroway" v="aerodrome" />
		<tag k="alt_name" v="Brønnøy" />
		<tag k="name" v="Brønnøysund lufthavn, Brønnøy" />
		<tag k="old_name" v="Brønnøysund lufthavn" />
		<tag k="ssr:stedsnr" v="405583" />
	</node>
	<node lat="65.44773610762076" lon="12.778283339848862" id="-16789">
		<tag k="highway" v="path" />
		<tag k="name" v="Stitrappen" />
		<tag k="ssr:stedsnr" v="418931" />
	</node>
	<node lat="65.39071944797709" lon="12.771847213897793" id="-16804">
		<tag k="highway" v="path" />
		<tag k="name" v="Tettingstien" />
		<tag k="ssr:stedsnr" v="418769" />
	</node>
	<node lat="65.51583848452843" lon="12.525916776417239" id="-16908">
		<tag k="fixme" v="verify maritime location" />
		<tag k="mooring" v="yes" />
		<tag k="name" v="Gavlsjøen" />
		<tag k="place" v="locality" />
		<tag k="ssr:stedsnr" v="440774" />
	</node>
	<node lat="65.26618888443551" lon="12.778780556034166" id="-17616">
		<tag k="highway" v="path" />
		<tag k="name" v="Vasslistegan" />
		<tag k="ssr:stedsnr" v="725340" />
	</node>
	<node lat="65.30788888815235" lon="13.015861100493025" id="-17907">
		<tag k="highway" v="path" />
		<tag k="name" v="Illstien" />
		<tag k="ssr:stedsnr" v="843115" />
	</node>
	<node lat="65.49846944084177" lon="12.105819441869784" id="-17954">
		<tag k="ford" v="yes" />
		<tag k="name" v="Vadet" />
		<tag k="place" v="locality" />
		<tag k="ssr:stedsnr" v="844845" />
	</node>
	<node lat="65.46168333697204" lon="12.194722212494451" id="-18216">
		<tag k="landuse" v="harbour" />
		<tag k="name" v="Fiskerihavna" />
		<tag k="seamark:type" v="harbour" />
		<tag k="ssr:stedsnr" v="967853" />
	</node>
</osm>
