<?xml version="1.0" encoding="UTF-8"?>
<osm version="0.6" generator="osmapis">
	<node lat="65.42090501115214" lon="12.411562525661884" id="-6190">
		<tag k="alt_name" v="Govasmark" />
		<tag k="fixme" v="consider place=hamlet" />
		<tag k="name" v="Godvassmarka" />
		<tag k="place" v="farm" />
		<tag k="ssr:stedsnr" v="14309" />
	</node>
	<node lat="65.44315277372714" lon="12.301930548167729" id="-6194">
		<tag k="alt_name" v="Krokåen" />
		<tag k="name" v="Krokåa" />
		<tag k="place" v="farm" />
		<tag k="ssr:stedsnr" v="14370" />
	</node>
	<node lat="65.4554694432728" lon="12.475424996761955" id="-6195">
		<tag k="name" v="Fagervika" />
		<tag k="place" v="farm" />
		<tag k="ssr:stedsnr" v="14377" />
	</node>
	<node lat="65.32602499918916" lon="12.958050001077076" id="-6196">
		<tag k="alt_name" v="Tosbotn" />
		<tag k="fixme" v="consider place=hamlet" />
		<tag k="name" v="Tosbotnet" />
		<tag k="place" v="village" />
		<tag k="ssr:stedsnr" v="15002" />
	</node>
	<node lat="65.31187222440738" lon="12.600783336096463" id="-6212">
		<tag k="name" v="Fjellset" />
		<tag k="place" v="farm" />
		<tag k="ssr:stedsnr" v="15311" />
	</node>
	<node lat="65.4037805573291" lon="12.641738884287033" id="-6218">
		<tag k="fixme" v="multiple name tags, choose one and add the other to alt_name" />
		<tag k="name" v="Røyrvikneset;Granly" />
		<tag k="place" v="farm" />
		<tag k="ssr:stedsnr" v="15513" />
	</node>
	<node lat="65.24997499712667" lon="12.707558325267476" id="-6224">
		<tag k="alt_name" v="Hongbarstad" />
		<tag k="name" v="Skogly" />
		<tag k="place" v="farm" />
		<tag k="ssr:stedsnr" v="15715" />
	</node>
	<node lat="65.43139444610777" lon="12.420088887837363" id="-6238">
		<tag k="name" v="Trøan" />
		<tag k="place" v="isolated_dwelling" />
		<tag k="ssr:stedsnr" v="235456" />
	</node>
	<node lat="65.5786972248076" lon="12.30207500121395" id="-6243">
		<tag k="name" v="Aspåsen" />
		<tag k="place" v="isolated_dwelling" />
		<tag k="ssr:stedsnr" v="235817" />
	</node>
	<node lat="65.55228333766799" lon="12.240274994621203" id="-6276">
		<tag k="name" v="Einvolden" />
		<tag k="place" v="farm" />
		<tag k="ssr:stedsnr" v="236746" />
	</node>
	<node lat="65.46468309125821" lon="12.207915918326602" id="-6312">
		<tag k="amenity" v="nursing_home" />
		<tag k="name" v="Brønnøy sykehjem" />
		<tag k="ssr:stedsnr" v="238556" />
	</node>
	<node lat="65.49900555790758" lon="12.314330547117613" id="-6355">
		<tag k="name" v="Engelshågjen" />
		<tag k="place" v="farm" />
		<tag k="ssr:stedsnr" v="54285" />
	</node>
	<node lat="65.2924583354525" lon="12.65517221960462" id="-6386">
		<tag k="name" v="Lillebo" />
		<tag k="place" v="farm" />
		<tag k="ssr:stedsnr" v="56823" />
	</node>
	<node lat="65.40921388648745" lon="12.591152768115887" id="-6419">
		<tag k="name" v="Raudbergan" />
		<tag k="place" v="farm" />
		<tag k="ssr:stedsnr" v="240524" />
	</node>
	<node lat="65.32927221924793" lon="12.554555558638436" id="-6422">
		<tag k="name" v="Øvergården" />
		<tag k="place" v="locality" />
		<tag k="ssr:stedsnr" v="240706" />
	</node>
	<node lat="65.42383055386226" lon="12.089955550567035" id="-6429">
		<tag k="name" v="Moen" />
		<tag k="place" v="farm" />
		<tag k="ssr:stedsnr" v="75014" />
	</node>
	<node lat="65.4242749979516" lon="12.117274994292822" id="-6430">
		<tag k="name" v="Gullvika" />
		<tag k="place" v="farm" />
		<tag k="ssr:stedsnr" v="75019" />
	</node>
	<node lat="65.4753173374473" lon="12.152702318174589" id="-6434">
		<tag k="name" v="Saltermarka" />
		<tag k="place" v="farm" />
		<tag k="ssr:stedsnr" v="75066" />
	</node>
	<node lat="65.48978333227244" lon="12.107180555410489" id="-6461">
		<tag k="name" v="Torgnesvika" />
		<tag k="place" v="farm" />
		<tag k="ssr:stedsnr" v="76863" />
	</node>
	<node lat="65.54576388694282" lon="12.254041675013946" id="-6466">
		<tag k="name" v="Ytretuva" />
		<tag k="place" v="farm" />
		<tag k="ssr:stedsnr" v="76962" />
	</node>
	<node lat="65.49545277846678" lon="12.318522228028554" id="-6475">
		<tag k="name" v="Syltern" />
		<tag k="place" v="farm" />
		<tag k="ssr:stedsnr" v="102771" />
	</node>
	<node lat="65.47040556004703" lon="12.34059444592374" id="-6495">
		<tag k="name" v="Lundvang" />
		<tag k="place" v="farm" />
		<tag k="ssr:stedsnr" v="115373" />
	</node>
	<node lat="65.49147222645992" lon="12.33827777827335" id="-6511">
		<tag k="name" v="Stakstø" />
		<tag k="place" v="farm" />
		<tag k="ssr:stedsnr" v="117311" />
	</node>
	<node lat="65.41370000344665" lon="12.557419445016343" id="-6534">
		<tag k="name" v="Lauten" />
		<tag k="place" v="farm" />
		<tag k="ssr:stedsnr" v="119529" />
	</node>
	<node lat="65.49106111491541" lon="12.321024994991232" id="-6548">
		<tag k="name" v="Åsheim" />
		<tag k="place" v="farm" />
		<tag k="ssr:stedsnr" v="135266" />
	</node>
	<node lat="65.35223589122474" lon="12.671952063035349" id="-6549">
		<tag k="fixme" v="consider place=hamlet" />
		<tag k="name" v="Haugen" />
		<tag k="place" v="farm" />
		<tag k="ssr:stedsnr" v="135301" />
	</node>
	<node lat="65.4014888932352" lon="12.269824999093162" id="-6550">
		<tag k="name" v="Nordli" />
		<tag k="place" v="farm" />
		<tag k="ssr:stedsnr" v="135403" />
	</node>
	<node lat="65.39014508621474" lon="12.629594966236938" id="-6551">
		<tag k="alt_name" v="Dønnesli" />
		<tag k="fixme" v="consider place=hamlet" />
		<tag k="name" v="Dønneslia" />
		<tag k="place" v="farm" />
		<tag k="ssr:stedsnr" v="135453" />
	</node>
	<node lat="65.39289167096304" lon="12.611363886744032" id="-6552">
		<tag k="alt_name" v="Straum" />
		<tag k="fixme" v="consider place=hamlet" />
		<tag k="name" v="Strøm" />
		<tag k="place" v="farm" />
		<tag k="ssr:stedsnr" v="135460" />
	</node>
	<node lat="65.30646388663381" lon="12.720805554721846" id="-6553">
		<tag k="alt_name" v="Indremarken" />
		<tag k="name" v="Innermarka" />
		<tag k="place" v="farm" />
		<tag k="ssr:stedsnr" v="136014" />
	</node>
	<node lat="65.42879444800131" lon="12.075272226669933" id="-6556">
		<tag k="alt_name" v="Gangstø" />
		<tag k="name" v="Gongstøa" />
		<tag k="place" v="farm" />
		<tag k="ssr:stedsnr" v="136037" />
	</node>
	<node lat="65.44126666796873" lon="12.822236102018007" id="-6567">
		<tag k="fixme" v="consider place=hamlet" />
		<tag k="name" v="Strompdalen" />
		<tag k="old_name" v="Stropdalen" />
		<tag k="place" v="farm" />
		<tag k="ssr:stedsnr" v="136101" />
	</node>
	<node lat="65.502600001157" lon="12.30619166465138" id="-6575">
		<tag k="name" v="Syltern" />
		<tag k="place" v="farm" />
		<tag k="ssr:stedsnr" v="136814" />
	</node>
	<node lat="65.55637702869554" lon="12.300316320705168" id="-6576">
		<tag k="fixme" v="consider place=hamlet" />
		<tag k="name" v="Lund" />
		<tag k="place" v="farm" />
		<tag k="ssr:stedsnr" v="136998" />
	</node>
	<node lat="65.49015555856299" lon="12.32423054576519" id="-6598">
		<tag k="alt_name" v="Stokkvold;Stokkvollen" />
		<tag k="name" v="Stokkvoll" />
		<tag k="place" v="farm" />
		<tag k="ssr:stedsnr" v="257293" />
	</node>
	<node lat="65.38802955096993" lon="12.177583310918639" id="-6599">
		<tag k="fixme" v="consider place=hamlet" />
		<tag k="name" v="Trælnes" />
		<tag k="place" v="farm" />
		<tag k="ssr:stedsnr" v="257232" />
	</node>
	<node lat="65.29033333736506" lon="12.63867221513912" id="-6600">
		<tag k="alt_name" v="Sveli" />
		<tag k="fixme" v="consider place=hamlet" />
		<tag k="name" v="Svelia" />
		<tag k="place" v="farm" />
		<tag k="ssr:stedsnr" v="257236" />
	</node>
	<node lat="65.32218069804118" lon="12.649422787379478" id="-6606">
		<tag k="fixme" v="consider place=hamlet" />
		<tag k="name" v="Saus" />
		<tag k="place" v="farm" />
		<tag k="ssr:stedsnr" v="257326" />
	</node>
	<node lat="65.38339523617924" lon="12.640997428048204" id="-6614">
		<tag k="name" v="Graven" />
		<tag k="place" v="hamlet" />
		<tag k="ssr:stedsnr" v="257431" />
	</node>
	<node lat="65.4311666678749" lon="12.624869440437347" id="-6615">
		<tag k="fixme" v="consider place=hamlet" />
		<tag k="name" v="Råken" />
		<tag k="place" v="farm" />
		<tag k="ssr:stedsnr" v="257432" />
	</node>
	<node lat="65.37883610707628" lon="12.18778333188392" id="-6617">
		<tag k="name" v="Linsæte" />
		<tag k="place" v="farm" />
		<tag k="ssr:stedsnr" v="157863" />
	</node>
	<node lat="65.3821500027503" lon="12.471641664908695" id="-6620">
		<tag k="alt_name" v="Austvik" />
		<tag k="name" v="Austvika" />
		<tag k="place" v="farm" />
		<tag k="ssr:stedsnr" v="257454" />
	</node>
	<node lat="65.373119443716" lon="12.533583339113928" id="-6624">
		<tag k="name" v="Tveitan" />
		<tag k="place" v="isolated_dwelling" />
		<tag k="ssr:stedsnr" v="257481" />
	</node>
	<node lat="65.51090000378778" lon="12.562961111785514" id="-6643">
		<tag k="name" v="Fagerlia" />
		<tag k="place" v="farm" />
		<tag k="ssr:stedsnr" v="258787" />
	</node>
	<node lat="65.52080138171915" lon="12.462243155435472" id="-6645">
		<tag k="fixme" v="consider place=hamlet" />
		<tag k="name" v="Okan" />
		<tag k="place" v="farm" />
		<tag k="ssr:stedsnr" v="258800" />
	</node>
	<node lat="65.56364143637964" lon="12.32160001947865" id="-6648">
		<tag k="fixme" v="consider place=hamlet" />
		<tag k="name" v="Sandvik" />
		<tag k="place" v="farm" />
		<tag k="ssr:stedsnr" v="258884" />
	</node>
	<node lat="65.49766111136789" lon="12.30891110436679" id="-6660">
		<tag k="name" v="Syltern" />
		<tag k="place" v="farm" />
		<tag k="ssr:stedsnr" v="162757" />
	</node>
	<node lat="65.53376110788474" lon="12.153338898810743" id="-6661">
		<tag k="name" v="Sørslåttøya" />
		<tag k="place" v="farm" />
		<tag k="ssr:stedsnr" v="162760" />
	</node>
	<node lat="65.47483888736272" lon="12.125830559294194" id="-6662">
		<tag k="name" v="Sauren" />
		<tag k="place" v="farm" />
		<tag k="ssr:stedsnr" v="163612" />
	</node>
	<node lat="65.29961110896383" lon="12.735538892331526" id="-6697">
		<tag k="historic" v="shieling" />
		<tag k="name" v="Markasætran" />
		<tag k="place" v="isolated_dwelling" />
		<tag k="ssr:stedsnr" v="177125" />
	</node>
	<node lat="65.2509027770913" lon="12.705558334779203" id="-6704">
		<tag k="name" v="Nordeng" />
		<tag k="place" v="isolated_dwelling" />
		<tag k="ssr:stedsnr" v="178169" />
	</node>
	<node lat="65.39136110857272" lon="12.614452785690576" id="-6714">
		<tag k="name" v="Aunet" />
		<tag k="place" v="farm" />
		<tag k="ssr:stedsnr" v="178567" />
	</node>
	<node lat="65.39565833510936" lon="12.57766387927454" id="-6724">
		<tag k="name" v="Vestad" />
		<tag k="place" v="farm" />
		<tag k="ssr:stedsnr" v="179713" />
	</node>
	<node lat="65.40588333006477" lon="12.102858327167452" id="-6732">
		<tag k="name" v="Inner-Torget" />
		<tag k="place" v="farm" />
		<tag k="ssr:stedsnr" v="264868" />
	</node>
	<node lat="65.46813610983838" lon="12.20745832552433" id="-6733">
		<tag k="name" v="Brønnøysund" />
		<tag k="place" v="town" />
		<tag k="ssr:stedsnr" v="196102" />
	</node>
	<node lat="65.39379444471395" lon="12.098841668534288" id="-6737">
		<tag k="name" v="Innerhatten" />
		<tag k="place" v="farm" />
		<tag k="ssr:stedsnr" v="196209" />
	</node>
	<node lat="65.31770277868269" lon="12.911141663572344" id="-6741">
		<tag k="name" v="Forvika" />
		<tag k="place" v="farm" />
		<tag k="ssr:stedsnr" v="197019" />
	</node>
	<node lat="65.3432822599607" lon="12.68172183954028" id="-6746">
		<tag k="fixme" v="consider place=hamlet" />
		<tag k="name" v="Nerås" />
		<tag k="place" v="farm" />
		<tag k="ssr:stedsnr" v="197302" />
	</node>
	<node lat="65.32588055200142" lon="12.918163888763319" id="-6759">
		<tag k="alt_name" v="Borkamo" />
		<tag k="fixme" v="consider place=hamlet" />
		<tag k="name" v="Borkamoen" />
		<tag k="place" v="farm" />
		<tag k="ssr:stedsnr" v="198008" />
	</node>
	<node lat="65.50663583122135" lon="12.127649843908666" id="-6769">
		<tag k="fixme" v="multiple name tags, choose one and add the other to alt_name" />
		<tag k="name" v="Stortorgnes;Bakkan" />
		<tag k="place" v="farm" />
		<tag k="ssr:stedsnr" v="222627" />
	</node>
	<node lat="65.42499722420831" lon="12.44139722055639" id="-6774">
		<tag k="name" v="Fagerbakken" />
		<tag k="place" v="farm" />
		<tag k="ssr:stedsnr" v="235335" />
	</node>
	<node lat="65.48098333194147" lon="12.332041656627434" id="-6809">
		<tag k="name" v="Bjønnvik" />
		<tag k="place" v="farm" />
		<tag k="ssr:stedsnr" v="237631" />
	</node>
	<node lat="65.37705277795109" lon="12.206366662300452" id="-6825">
		<tag k="name" v="Åsheim" />
		<tag k="place" v="farm" />
		<tag k="ssr:stedsnr" v="238785" />
	</node>
	<node lat="65.37778055213592" lon="12.205858342783142" id="-6826">
		<tag k="name" v="Strømsås" />
		<tag k="place" v="farm" />
		<tag k="ssr:stedsnr" v="238787" />
	</node>
	<node lat="65.45951666935818" lon="12.447222226047115" id="-6865">
		<tag k="name" v="Solheim" />
		<tag k="place" v="farm" />
		<tag k="ssr:stedsnr" v="257506" />
	</node>
	<node lat="65.43502222630022" lon="12.594905562959223" id="-6871">
		<tag k="name" v="Vasskroken" />
		<tag k="place" v="farm" />
		<tag k="ssr:stedsnr" v="257455" />
	</node>
	<node lat="65.43926110897047" lon="12.58721387824802" id="-6872">
		<tag k="alt_name" v="Nævernes" />
		<tag k="name" v="Nevernes" />
		<tag k="place" v="hamlet" />
		<tag k="ssr:stedsnr" v="257456" />
	</node>
	<node lat="65.47603333409567" lon="12.435908325139591" id="-6903">
		<tag k="name" v="Nyheim" />
		<tag k="place" v="isolated_dwelling" />
		<tag k="ssr:stedsnr" v="296720" />
	</node>
	<node lat="65.48901666452038" lon="12.432105556930118" id="-6904">
		<tag k="name" v="Myrvang" />
		<tag k="place" v="isolated_dwelling" />
		<tag k="ssr:stedsnr" v="296721" />
	</node>
	<node lat="65.56254444472735" lon="12.302619452218256" id="-6906">
		<tag k="name" v="Hagvåg" />
		<tag k="place" v="farm" />
		<tag k="ssr:stedsnr" v="296783" />
	</node>
	<node lat="65.44654226838009" lon="12.33144698237898" id="-6917">
		<tag k="fixme" v="consider place=hamlet" />
		<tag k="name" v="Veddal" />
		<tag k="place" v="farm" />
		<tag k="ssr:stedsnr" v="299402" />
	</node>
	<node lat="65.41110555633936" lon="12.077397212452924" id="-6929">
		<tag k="name" v="Moan" />
		<tag k="place" v="farm" />
		<tag k="ssr:stedsnr" v="299933" />
	</node>
	<node lat="65.39091389315738" lon="12.545736104667425" id="-6947">
		<tag k="name" v="Sørgården" />
		<tag k="place" v="farm" />
		<tag k="ssr:stedsnr" v="301740" />
	</node>
	<node lat="65.393119443849" lon="12.552680556916282" id="-6956">
		<tag k="fixme" v="consider place=hamlet" />
		<tag k="name" v="Akset" />
		<tag k="place" v="farm" />
		<tag k="ssr:stedsnr" v="317423" />
	</node>
	<node lat="65.46713221938404" lon="12.770037914794194" id="-6966">
		<tag k="fixme" v="consider place=hamlet" />
		<tag k="name" v="Storbørja" />
		<tag k="place" v="farm" />
		<tag k="ssr:stedsnr" v="318152" />
	</node>
	<node lat="65.47634166960087" lon="12.364902769002494" id="-6971">
		<tag k="name" v="Innerskomo" />
		<tag k="place" v="farm" />
		<tag k="ssr:stedsnr" v="318314" />
	</node>
	<node lat="65.39754398491792" lon="12.48551916333731" id="-6977">
		<tag k="fixme" v="consider place=hamlet" />
		<tag k="name" v="Akselberg" />
		<tag k="place" v="farm" />
		<tag k="ssr:stedsnr" v="318447" />
	</node>
	<node lat="65.54308723554723" lon="12.097801487144745" id="-7001">
		<tag k="fixme" v="consider place=hamlet" />
		<tag k="name" v="Varholmen" />
		<tag k="place" v="farm" />
		<tag k="ssr:stedsnr" v="325967" />
	</node>
	<node lat="65.47029722598896" lon="12.360133334230184" id="-7016">
		<tag k="name" v="Fagerheim" />
		<tag k="place" v="isolated_dwelling" />
		<tag k="ssr:stedsnr" v="357348" />
	</node>
	<node lat="65.4741944467772" lon="12.29004445252018" id="-7019">
		<tag k="name" v="Lenvik" />
		<tag k="place" v="farm" />
		<tag k="ssr:stedsnr" v="357416" />
	</node>
	<node lat="65.46014722367906" lon="12.428808332003868" id="-7027">
		<tag k="name" v="Sætermo" />
		<tag k="place" v="isolated_dwelling" />
		<tag k="ssr:stedsnr" v="357702" />
	</node>
	<node lat="65.44411389308596" lon="12.30856388837523" id="-7033">
		<tag k="name" v="Buvoll" />
		<tag k="place" v="farm" />
		<tag k="ssr:stedsnr" v="358512" />
	</node>
	<node lat="65.45630000222148" lon="12.332983339187658" id="-7065">
		<tag k="name" v="Solheim" />
		<tag k="place" v="isolated_dwelling" />
		<tag k="ssr:stedsnr" v="478413" />
	</node>
	<node lat="65.25688333751837" lon="12.7053777826492" id="-7101">
		<tag k="name" v="Nesset" />
		<tag k="place" v="isolated_dwelling" />
		<tag k="ssr:stedsnr" v="481188" />
	</node>
	<node lat="65.48831588339387" lon="12.296030145528672" id="-7136">
		<tag k="fixme" v="consider place=hamlet" />
		<tag k="name" v="Aunet" />
		<tag k="place" v="farm" />
		<tag k="ssr:stedsnr" v="378264" />
	</node>
	<node lat="65.49311388957557" lon="12.248213894559079" id="-7137">
		<tag k="name" v="Slettaunet" />
		<tag k="place" v="farm" />
		<tag k="ssr:stedsnr" v="378277" />
	</node>
	<node lat="65.32793333256406" lon="12.468536106643795" id="-7138">
		<tag k="alt_name" v="Graven lille" />
		<tag k="loc_name" v="Lislgraven" />
		<tag k="name" v="Lislgrava" />
		<tag k="place" v="locality" />
		<tag k="ssr:stedsnr" v="378278" />
	</node>
	<node lat="65.40868055876699" lon="12.539680560387415" id="-7145">
		<tag k="name" v="Vollan" />
		<tag k="place" v="farm" />
		<tag k="ssr:stedsnr" v="378482" />
	</node>
	<node lat="65.34670536909563" lon="12.742126692827041" id="-7154">
		<tag k="fixme" v="consider place=hamlet" />
		<tag k="name" v="Aslakaunet" />
		<tag k="place" v="farm" />
		<tag k="ssr:stedsnr" v="379127" />
	</node>
	<node lat="65.40113333634915" lon="12.106949998511375" id="-7155">
		<tag k="name" v="Aspnes" />
		<tag k="place" v="farm" />
		<tag k="ssr:stedsnr" v="481499" />
	</node>
	<node lat="65.5180166681942" lon="12.369311117381377" id="-7165">
		<tag k="name" v="Eida" />
		<tag k="place" v="farm" />
		<tag k="ssr:stedsnr" v="379776" />
	</node>
	<node lat="65.50006111013427" lon="12.257238880331688" id="-7166">
		<tag k="name" v="Mosseim" />
		<tag k="place" v="farm" />
		<tag k="ssr:stedsnr" v="379778" />
	</node>
	<node lat="65.32015833118324" lon="12.653180552180853" id="-7178">
		<tag k="name" v="Bjørnstad" />
		<tag k="place" v="farm" />
		<tag k="ssr:stedsnr" v="481800" />
	</node>
	<node lat="65.47224166904516" lon="12.339372232549726" id="-7226">
		<tag k="name" v="Aspehaug" />
		<tag k="place" v="farm" />
		<tag k="ssr:stedsnr" v="419609" />
	</node>
	<node lat="65.39161389327653" lon="12.261527779233388" id="-7227">
		<tag k="name" v="Sørås" />
		<tag k="place" v="farm" />
		<tag k="ssr:stedsnr" v="419611" />
	</node>
	<node lat="65.47444999881405" lon="12.346083332358761" id="-7228">
		<tag k="name" v="Nygård" />
		<tag k="place" v="farm" />
		<tag k="ssr:stedsnr" v="419616" />
	</node>
	<node lat="65.40853888852763" lon="12.546955562216215" id="-7261">
		<tag k="name" v="Gimle" />
		<tag k="place" v="farm" />
		<tag k="ssr:stedsnr" v="422506" />
	</node>
	<node lat="65.32538889073626" lon="12.653702775639852" id="-7265">
		<tag k="name" v="Alvheim" />
		<tag k="place" v="farm" />
		<tag k="ssr:stedsnr" v="422698" />
	</node>
	<node lat="65.49047950137933" lon="12.284889236961643" id="-7285">
		<tag k="alt_name" v="Trælvik" />
		<tag k="fixme" v="consider place=hamlet" />
		<tag k="name" v="Trælvika" />
		<tag k="place" v="farm" />
		<tag k="ssr:stedsnr" v="439259" />
	</node>
	<node lat="65.46312777959511" lon="12.450022232436913" id="-7293">
		<tag k="alt_name" v="Vandalsvik" />
		<tag k="fixme" v="consider place=hamlet" />
		<tag k="name" v="Vandalsvika" />
		<tag k="place" v="farm" />
		<tag k="ssr:stedsnr" v="439446" />
	</node>
	<node lat="65.40480833586311" lon="12.050472220653882" id="-7303">
		<tag k="alt_name" v="Vikran" />
		<tag k="name" v="Torgvikran" />
		<tag k="place" v="farm" />
		<tag k="ssr:stedsnr" v="440093" />
	</node>
	<node lat="65.43226110725806" lon="12.559919452666405" id="-7304">
		<tag k="name" v="Lundvang" />
		<tag k="place" v="farm" />
		<tag k="ssr:stedsnr" v="440415" />
	</node>
	<node lat="65.396158335091" lon="12.65842776934002" id="-7307">
		<tag k="name" v="Småvollan" />
		<tag k="place" v="farm" />
		<tag k="ssr:stedsnr" v="440496" />
	</node>
	<node lat="65.57308888466378" lon="12.261558338060293" id="-7317">
		<tag k="name" v="Storvika" />
		<tag k="place" v="farm" />
		<tag k="ssr:stedsnr" v="440890" />
	</node>
	<node lat="65.33733055552096" lon="12.49391388598088" id="-7321">
		<tag k="name" v="Hongset" />
		<tag k="place" v="hamlet" />
		<tag k="ssr:stedsnr" v="451366" />
	</node>
	<node lat="65.52720277839833" lon="12.259469434476035" id="-7323">
		<tag k="name" v="Myra" />
		<tag k="place" v="farm" />
		<tag k="ssr:stedsnr" v="453823" />
	</node>
	<node lat="65.40137777672406" lon="12.53051943417865" id="-7325">
		<tag k="name" v="Aspåsen" />
		<tag k="place" v="isolated_dwelling" />
		<tag k="ssr:stedsnr" v="673691" />
	</node>
	<node lat="65.48713055801065" lon="12.070433337163841" id="-7327">
		<tag k="name" v="Bolvær" />
		<tag k="place" v="farm" />
		<tag k="ssr:stedsnr" v="466681" />
	</node>
	<node lat="65.4367111122262" lon="12.589983343990129" id="-7345">
		<tag k="name" v="Vollan" />
		<tag k="place" v="farm" />
		<tag k="ssr:stedsnr" v="481464" />
	</node>
	<node lat="65.3011305583691" lon="12.684916664964026" id="-7349">
		<tag k="loc_name" v="Oppgarden" />
		<tag k="name" v="Nordfjellmark" />
		<tag k="place" v="isolated_dwelling" />
		<tag k="ssr:stedsnr" v="481163" />
	</node>
	<node lat="65.42605833558869" lon="12.56168054507347" id="-7382">
		<tag k="name" v="Fagerbakk" />
		<tag k="place" v="farm" />
		<tag k="ssr:stedsnr" v="681378" />
	</node>
	<node lat="65.48644166440968" lon="12.071461105790934" id="-7385">
		<tag k="name" v="Bolværet" />
		<tag k="place" v="farm" />
		<tag k="ssr:stedsnr" v="499046" />
	</node>
	<node lat="65.384788887891" lon="12.675586117927374" id="-7396">
		<tag k="name" v="Skogstrand" />
		<tag k="place" v="farm" />
		<tag k="ssr:stedsnr" v="500433" />
	</node>
	<node lat="65.31037500364046" lon="12.634449999203865" id="-7401">
		<tag k="name" v="Skogrud" />
		<tag k="place" v="farm" />
		<tag k="ssr:stedsnr" v="500333" />
	</node>
	<node lat="65.31606944445966" lon="12.643172216460092" id="-7402">
		<tag k="name" v="Granhaug" />
		<tag k="place" v="farm" />
		<tag k="ssr:stedsnr" v="500335" />
	</node>
	<node lat="65.35350846623484" lon="12.521728919689368" id="-7403">
		<tag k="alt_name" v="Fuglvassli" />
		<tag k="fixme" v="consider place=hamlet" />
		<tag k="loc_name" v="Fuggllia" />
		<tag k="name" v="Fugllia" />
		<tag k="place" v="farm" />
		<tag k="ssr:stedsnr" v="500379" />
	</node>
	<node lat="65.37729145215097" lon="12.697878847528088" id="-7406">
		<tag k="fixme" v="consider place=hamlet" />
		<tag k="name" v="Langfjordøyra" />
		<tag k="place" v="farm" />
		<tag k="ssr:stedsnr" v="500505" />
	</node>
	<node lat="65.39411111095862" lon="12.260533327954416" id="-7411">
		<tag k="name" v="Nystad" />
		<tag k="place" v="farm" />
		<tag k="ssr:stedsnr" v="500534" />
	</node>
	<node lat="65.41357065820833" lon="12.626754059402478" id="-7413">
		<tag k="alt_name" v="Bakkan" />
		<tag k="fixme" v="consider place=hamlet" />
		<tag k="name" v="Bakken" />
		<tag k="place" v="farm" />
		<tag k="ssr:stedsnr" v="500539" />
	</node>
	<node lat="65.46744999559971" lon="12.773391669915226" id="-7435">
		<tag k="name" v="Granheim" />
		<tag k="place" v="isolated_dwelling" />
		<tag k="ssr:stedsnr" v="682202" />
	</node>
	<node lat="65.3909564872265" lon="12.592587929250767" id="-7442">
		<tag k="fixme" v="consider place=hamlet" />
		<tag k="name" v="Bru" />
		<tag k="place" v="farm" />
		<tag k="ssr:stedsnr" v="682535" />
	</node>
	<node lat="65.4426782201979" lon="12.436855709282247" id="-7444">
		<tag k="alt_name" v="Aspås" />
		<tag k="fixme" v="consider place=hamlet" />
		<tag k="name" v="Aspåsen" />
		<tag k="place" v="farm" />
		<tag k="ssr:stedsnr" v="682545" />
	</node>
	<node lat="65.35748610798053" lon="12.638344433393575" id="-7451">
		<tag k="alt_name" v="Drevlien" />
		<tag k="fixme" v="consider place=hamlet" />
		<tag k="name" v="Drevlia" />
		<tag k="place" v="farm" />
		<tag k="ssr:stedsnr" v="682361" />
	</node>
	<node lat="65.34971697097906" lon="12.665041762801943" id="-7454">
		<tag k="fixme" v="multiple name tags, choose one and add the other to alt_name" />
		<tag k="name" v="Skardet;Haugen" />
		<tag k="place" v="farm" />
		<tag k="ssr:stedsnr" v="682398" />
	</node>
	<node lat="65.43154444153632" lon="12.509927771468899" id="-7455">
		<tag k="alt_name" v="Enge øvre" />
		<tag k="loc_name" v="Øverengja" />
		<tag k="name" v="Øvrengja" />
		<tag k="place" v="farm" />
		<tag k="ssr:stedsnr" v="682438" />
	</node>
	<node lat="65.35511880228773" lon="12.718722194381836" id="-7472">
		<tag k="alt_name" v="Elven" />
		<tag k="name" v="Elva" />
		<tag k="place" v="locality" />
		<tag k="ssr:stedsnr" v="683098" />
	</node>
	<node lat="65.50765371980881" lon="12.126035696106806" id="-7474">
		<tag k="fixme" v="multiple name tags, choose one and add the other to alt_name" />
		<tag k="name" v="Ballsaren;Stortorgnes" />
		<tag k="place" v="farm" />
		<tag k="ssr:stedsnr" v="683180" />
	</node>
	<node lat="65.5096555535509" lon="12.301869444200634" id="-7479">
		<tag k="name" v="Burengan" />
		<tag k="place" v="farm" />
		<tag k="ssr:stedsnr" v="683775" />
	</node>
	<node lat="65.57235084170156" lon="12.301918039372152" id="-7482">
		<tag k="alt_name" v="Horn Store" />
		<tag k="fixme" v="consider place=hamlet" />
		<tag k="name" v="Storhorn" />
		<tag k="place" v="farm" />
		<tag k="ssr:stedsnr" v="683892" />
	</node>
	<node lat="65.41158611272166" lon="12.541044433989086" id="-7486">
		<tag k="name" v="Hillstad" />
		<tag k="place" v="farm" />
		<tag k="ssr:stedsnr" v="523760" />
	</node>
	<node lat="65.29437778001616" lon="12.677119450529444" id="-7521">
		<tag k="name" v="Bergtun" />
		<tag k="place" v="farm" />
		<tag k="ssr:stedsnr" v="541166" />
	</node>
	<node lat="65.46461944045001" lon="12.152352766773282" id="-7540">
		<tag k="amenity" v="school" />
		<tag k="name" v="Nordhus skole" />
		<tag k="ssr:stedsnr" v="542723" />
	</node>
	<node lat="65.3276472235712" lon="12.554019454085719" id="-7553">
		<tag k="name" v="Innergården" />
		<tag k="place" v="locality" />
		<tag k="ssr:stedsnr" v="543665" />
	</node>
	<node lat="65.41444444776774" lon="12.081855566004005" id="-7564">
		<tag k="alt_name" v="Einvollen" />
		<tag k="name" v="Einvollan" />
		<tag k="place" v="farm" />
		<tag k="ssr:stedsnr" v="560037" />
	</node>
	<node lat="65.29509166459631" lon="12.60799443464162" id="-7575">
		<tag k="fixme" v="consider place=hamlet" />
		<tag k="name" v="Damman" />
		<tag k="place" v="farm" />
		<tag k="ssr:stedsnr" v="560204" />
	</node>
	<node lat="65.31683888546809" lon="12.590797231797202" id="-7580">
		<tag k="alt_name" v="Svanvoll" />
		<tag k="name" v="Svanvollen" />
		<tag k="place" v="farm" />
		<tag k="ssr:stedsnr" v="560293" />
	</node>
	<node lat="65.32600666976646" lon="12.693634321456585" id="-7581">
		<tag k="alt_name" v="Vassbotnet" />
		<tag k="fixme" v="consider place=hamlet" />
		<tag k="name" v="Vassbotn" />
		<tag k="place" v="farm" />
		<tag k="ssr:stedsnr" v="560295" />
	</node>
	<node lat="65.47175278172253" lon="12.34333332601405" id="-7582">
		<tag k="name" v="Ytterskomo" />
		<tag k="place" v="farm" />
		<tag k="ssr:stedsnr" v="560301" />
	</node>
	<node lat="65.40461666437933" lon="12.26945833868543" id="-7583">
		<tag k="alt_name" v="Kverving" />
		<tag k="name" v="Kvervet" />
		<tag k="place" v="farm" />
		<tag k="ssr:stedsnr" v="560402" />
	</node>
	<node lat="65.33724521193263" lon="12.487285063525674" id="-7588">
		<tag k="alt_name" v="Hongset nedre" />
		<tag k="fixme" v="consider place=hamlet" />
		<tag k="loc_name" v="Nerhongset" />
		<tag k="name" v="Nedrehongset" />
		<tag k="place" v="farm" />
		<tag k="ssr:stedsnr" v="560343" />
	</node>
	<node lat="65.37908610680823" lon="12.563780555138854" id="-7589">
		<tag k="alt_name" v="Tomasli" />
		<tag k="fixme" v="multiple name tags, choose one and add the other to alt_name; consider place=hamlet" />
		<tag k="name" v="Tåmmåslian;Lian" />
		<tag k="place" v="farm" />
		<tag k="ssr:stedsnr" v="560383" />
	</node>
	<node lat="65.42445555201769" lon="12.077077779598099" id="-7606">
		<tag k="name" v="Ytter-Torget" />
		<tag k="place" v="farm" />
		<tag k="ssr:stedsnr" v="689856" />
	</node>
	<node lat="65.36545278138604" lon="12.712575009714914" id="-7608">
		<tag k="name" v="Tarmaunsjøen" />
		<tag k="place" v="isolated_dwelling" />
		<tag k="ssr:stedsnr" v="693376" />
	</node>
	<node lat="65.4077027820885" lon="12.554122221537861" id="-7611">
		<tag k="name" v="Hillstad" />
		<tag k="place" v="farm" />
		<tag k="ssr:stedsnr" v="584708" />
	</node>
	<node lat="65.40963889327163" lon="12.54775833141785" id="-7612">
		<tag k="name" v="Hillstad" />
		<tag k="place" v="farm" />
		<tag k="ssr:stedsnr" v="584711" />
	</node>
	<node lat="65.4454499994078" lon="12.43350833639456" id="-7623">
		<tag k="name" v="Åsheim" />
		<tag k="place" v="isolated_dwelling" />
		<tag k="ssr:stedsnr" v="599353" />
	</node>
	<node lat="65.32128611076851" lon="12.646636103164248" id="-7662">
		<tag k="name" v="Saus" />
		<tag k="place" v="farm" />
		<tag k="ssr:stedsnr" v="602809" />
	</node>
	<node lat="65.42402778029258" lon="12.54701389800779" id="-7674">
		<tag k="name" v="Engalia" />
		<tag k="place" v="farm" />
		<tag k="ssr:stedsnr" v="604518" />
	</node>
	<node lat="65.37883552045817" lon="12.20404452698487" id="-7687">
		<tag k="name" v="Sletten" />
		<tag k="place" v="farm" />
		<tag k="ssr:stedsnr" v="621226" />
	</node>
	<node lat="65.45116666553645" lon="12.312352777637768" id="-7697">
		<tag k="name" v="Åsan" />
		<tag k="place" v="farm" />
		<tag k="ssr:stedsnr" v="621482" />
	</node>
	<node lat="65.33902080224485" lon="12.500263775954418" id="-7701">
		<tag k="alt_name" v="Åsen" />
		<tag k="fixme" v="consider place=hamlet" />
		<tag k="name" v="Engesåsen" />
		<tag k="place" v="farm" />
		<tag k="ssr:stedsnr" v="621370" />
	</node>
	<node lat="65.40999006316478" lon="12.549000347034738" id="-7704">
		<tag k="name" v="Hillstad" />
		<tag k="place" v="farm" />
		<tag k="ssr:stedsnr" v="621509" />
	</node>
	<node lat="65.41062778009666" lon="12.470019447125141" id="-7706">
		<tag k="alt_name" v="Nordeng" />
		<tag k="name" v="Nordenga" />
		<tag k="place" v="farm" />
		<tag k="ssr:stedsnr" v="621516" />
	</node>
	<node lat="65.50913055117384" lon="12.127600000263083" id="-7716">
		<tag k="name" v="Haugen" />
		<tag k="place" v="farm" />
		<tag k="ssr:stedsnr" v="622203" />
	</node>
	<node lat="65.51436666253487" lon="12.317833325987948" id="-7721">
		<tag k="alt_name" v="Brattås" />
		<tag k="name" v="Brattåsen" />
		<tag k="place" v="farm" />
		<tag k="ssr:stedsnr" v="622772" />
	</node>
	<node lat="65.33711110714967" lon="12.489025000542208" id="-7724">
		<tag k="name" v="Hongset" />
		<tag k="place" v="farm" />
		<tag k="ssr:stedsnr" v="642817" />
	</node>
	<node lat="65.4054000006561" lon="12.521866673304558" id="-7726">
		<tag k="name" v="Naustvika" />
		<tag k="place" v="farm" />
		<tag k="ssr:stedsnr" v="707459" />
	</node>
	<node lat="65.47017221848706" lon="12.35545832971408" id="-7736">
		<tag k="name" v="Heimdal" />
		<tag k="place" v="isolated_dwelling" />
		<tag k="ssr:stedsnr" v="660378" />
	</node>
	<node lat="65.38560555976333" lon="12.171261104674583" id="-7752">
		<tag k="name" v="Sjøvolden" />
		<tag k="place" v="farm" />
		<tag k="ssr:stedsnr" v="661795" />
	</node>
	<node lat="65.35138055448398" lon="12.685677776317682" id="-7760">
		<tag k="name" v="Bjerkhaug" />
		<tag k="place" v="isolated_dwelling" />
		<tag k="ssr:stedsnr" v="663133" />
	</node>
	<node lat="65.27502499640127" lon="12.66147777804557" id="-7764">
		<tag k="name" v="Sommersetåsen" />
		<tag k="place" v="isolated_dwelling" />
		<tag k="ssr:stedsnr" v="663307" />
	</node>
	<node lat="65.41412500353337" lon="12.55535556660193" id="-7792">
		<tag k="name" v="Åsan" />
		<tag k="place" v="farm" />
		<tag k="ssr:stedsnr" v="665538" />
	</node>
	<node lat="65.41402499748152" lon="12.555236107788827" id="-7793">
		<tag k="name" v="Åsrud" />
		<tag k="place" v="farm" />
		<tag k="ssr:stedsnr" v="665540" />
	</node>
	<node lat="65.41127777651346" lon="12.540836113275258" id="-7794">
		<tag k="amenity" v="school" />
		<tag k="name" v="Hilstad skole" />
		<tag k="ssr:stedsnr" v="665542" />
	</node>
	<node lat="65.51732024840372" lon="12.367890878962843" id="-7795">
		<tag k="fixme" v="consider place=hamlet" />
		<tag k="name" v="Eida" />
		<tag k="place" v="farm" />
		<tag k="ssr:stedsnr" v="709754" />
	</node>
	<node lat="65.4869555544597" lon="12.107138897198663" id="-7798">
		<tag k="name" v="Stranda" />
		<tag k="place" v="farm" />
		<tag k="ssr:stedsnr" v="681068" />
	</node>
	<node lat="65.39298889286272" lon="12.079005556264908" id="-7800">
		<tag k="name" v="Ytre Hatten" />
		<tag k="place" v="farm" />
		<tag k="ssr:stedsnr" v="681208" />
	</node>
	<node lat="65.49121666561106" lon="12.238772214619535" id="-7802">
		<tag k="fixme" v="consider place=suburb, village or hamlet" />
		<tag k="name" v="Salhus" />
		<tag k="place" v="quarter" />
		<tag k="ssr:stedsnr" v="681263" />
	</node>
	<node lat="65.38813125639959" lon="12.449668111551619" id="-7804">
		<tag k="alt_name" v="Bordvik" />
		<tag k="fixme" v="consider place=hamlet" />
		<tag k="name" v="Bordvika" />
		<tag k="place" v="farm" />
		<tag k="ssr:stedsnr" v="681467" />
	</node>
	<node lat="65.46545832940434" lon="12.089083328316253" id="-7813">
		<tag k="alt_name" v="Nordaunet;Nord Aunet" />
		<tag k="name" v="Aunet" />
		<tag k="place" v="farm" />
		<tag k="ssr:stedsnr" v="682104" />
	</node>
	<node lat="65.45310277830123" lon="12.329400009509502" id="-7825">
		<tag k="alt_name" v="Grønvoll" />
		<tag k="name" v="Grønvollen" />
		<tag k="place" v="farm" />
		<tag k="ssr:stedsnr" v="682503" />
	</node>
	<node lat="65.38638055145013" lon="12.227619437817507" id="-7827">
		<tag k="name" v="Åsheim" />
		<tag k="place" v="farm" />
		<tag k="ssr:stedsnr" v="682505" />
	</node>
	<node lat="65.40754444472175" lon="12.530994436639146" id="-7831">
		<tag k="name" v="Naustviklia" />
		<tag k="place" v="farm" />
		<tag k="ssr:stedsnr" v="682525" />
	</node>
	<node lat="65.40926665807937" lon="12.467076593416424" id="-7834">
		<tag k="fixme" v="consider place=hamlet" />
		<tag k="name" v="Hallaraunet" />
		<tag k="place" v="farm" />
		<tag k="ssr:stedsnr" v="682529" />
	</node>
	<node lat="65.56348055788486" lon="12.286336115630274" id="-7843">
		<tag k="name" v="Aun" />
		<tag k="place" v="locality" />
		<tag k="ssr:stedsnr" v="682916" />
	</node>
	<node lat="65.41096388987688" lon="12.545305557391785" id="-7853">
		<tag k="name" v="Hillstad" />
		<tag k="place" v="farm" />
		<tag k="ssr:stedsnr" v="706661" />
	</node>
	<node lat="65.48861944405408" lon="12.314986113968649" id="-7854">
		<tag k="name" v="Syltern" />
		<tag k="place" v="farm" />
		<tag k="ssr:stedsnr" v="709714" />
	</node>
	<node lat="65.46073333634885" lon="12.151005563390806" id="-7886">
		<tag k="name" v="Havsekra" />
		<tag k="place" v="farm" />
		<tag k="ssr:stedsnr" v="723720" />
	</node>
	<node lat="65.31724722562984" lon="12.64448610760825" id="-7905">
		<tag k="name" v="Lyngås" />
		<tag k="place" v="farm" />
		<tag k="ssr:stedsnr" v="724807" />
	</node>
	<node lat="65.5014361096085" lon="12.324827775883298" id="-7920">
		<tag k="name" v="Svartåsen" />
		<tag k="place" v="isolated_dwelling" />
		<tag k="ssr:stedsnr" v="903170" />
	</node>
	<node lat="65.38802778190093" lon="12.167383328056692" id="-7925">
		<tag k="name" v="Nordnes" />
		<tag k="place" v="farm" />
		<tag k="ssr:stedsnr" v="742195" />
	</node>
	<node lat="65.40986110912928" lon="12.438219438091053" id="-7932">
		<tag k="name" v="Svalheim" />
		<tag k="place" v="farm" />
		<tag k="ssr:stedsnr" v="742437" />
	</node>
	<node lat="65.39105579792049" lon="12.638350626595653" id="-7933">
		<tag k="fixme" v="consider place=hamlet" />
		<tag k="name" v="Krekan" />
		<tag k="place" v="farm" />
		<tag k="ssr:stedsnr" v="742440" />
	</node>
	<node lat="65.50372499940013" lon="12.259055555224615" id="-7934">
		<tag k="name" v="Skjefstad" />
		<tag k="place" v="farm" />
		<tag k="ssr:stedsnr" v="903253" />
	</node>
	<node lat="65.42508611131196" lon="12.060569440127331" id="-7936">
		<tag k="name" v="Nordvika" />
		<tag k="place" v="farm" />
		<tag k="ssr:stedsnr" v="743039" />
	</node>
	<node lat="65.29841111426045" lon="12.64616666010973" id="-7944">
		<tag k="alt_name" v="Skogmo" />
		<tag k="name" v="Skogmoen" />
		<tag k="place" v="farm" />
		<tag k="ssr:stedsnr" v="743236" />
	</node>
	<node lat="65.32085226606789" lon="12.467574436754997" id="-7946">
		<tag k="alt_name" v="Graven store;Storgraven" />
		<tag k="fixme" v="consider place=hamlet" />
		<tag k="name" v="Storgrava" />
		<tag k="place" v="farm" />
		<tag k="ssr:stedsnr" v="743289" />
	</node>
	<node lat="65.3357888877741" lon="12.705324991630887" id="-7947">
		<tag k="alt_name" v="Grønlienga" />
		<tag k="name" v="Grønlienget" />
		<tag k="place" v="farm" />
		<tag k="ssr:stedsnr" v="743302" />
	</node>
	<node lat="65.43741388565118" lon="12.568283325079484" id="-7948">
		<tag k="name" v="Kalsnes" />
		<tag k="place" v="farm" />
		<tag k="ssr:stedsnr" v="743413" />
	</node>
	<node lat="65.3392888926815" lon="12.676677771995276" id="-7952">
		<tag k="fixme" v="consider place=hamlet" />
		<tag k="name" v="Sausvatn" />
		<tag k="place" v="village" />
		<tag k="ssr:stedsnr" v="743386" />
	</node>
	<node lat="65.42992500402522" lon="12.40914721600853" id="-7958">
		<tag k="name" v="Klimpen" />
		<tag k="place" v="farm" />
		<tag k="ssr:stedsnr" v="743481" />
	</node>
	<node lat="65.44514999716999" lon="12.546872217365715" id="-7959">
		<tag k="alt_name" v="Dyrnes" />
		<tag k="fixme" v="consider place=hamlet" />
		<tag k="name" v="Dyrneset" />
		<tag k="place" v="farm" />
		<tag k="ssr:stedsnr" v="743485" />
	</node>
	<node lat="65.51115555987131" lon="12.134080564969018" id="-7969">
		<tag k="name" v="Kjerringberget" />
		<tag k="place" v="farm" />
		<tag k="ssr:stedsnr" v="744148" />
	</node>
	<node lat="65.48713333681262" lon="12.436527768976232" id="-7981">
		<tag k="name" v="Lillevik" />
		<tag k="place" v="isolated_dwelling" />
		<tag k="ssr:stedsnr" v="903730" />
	</node>
	<node lat="65.47465833349993" lon="12.367730565785562" id="-8006">
		<tag k="name" v="Plukkdalen" />
		<tag k="place" v="farm" />
		<tag k="ssr:stedsnr" v="904486" />
	</node>
	<node lat="65.39698333349682" lon="12.260600008924449" id="-8007">
		<tag k="name" v="Midtli" />
		<tag k="place" v="farm" />
		<tag k="ssr:stedsnr" v="904575" />
	</node>
	<node lat="65.3562388922528" lon="12.724880548284347" id="-8022">
		<tag k="name" v="Skjålia" />
		<tag k="place" v="isolated_dwelling" />
		<tag k="ssr:stedsnr" v="906137" />
	</node>
	<node lat="65.3695527744436" lon="12.667833332212107" id="-8032">
		<tag k="name" v="Frydenlund" />
		<tag k="place" v="farm" />
		<tag k="ssr:stedsnr" v="906245" />
	</node>
	<node lat="65.48416944533099" lon="12.101266663603916" id="-8048">
		<tag k="name" v="Åsberg" />
		<tag k="place" v="farm" />
		<tag k="ssr:stedsnr" v="906399" />
	</node>
	<node lat="65.37715555473375" lon="12.182850000900638" id="-8057">
		<tag k="name" v="Moen" />
		<tag k="place" v="farm" />
		<tag k="ssr:stedsnr" v="906817" />
	</node>
	<node lat="65.3878694481648" lon="12.233944438978526" id="-8058">
		<tag k="amenity" v="nursing_home" />
		<tag k="name" v="Brønnøytunet" />
		<tag k="ssr:stedsnr" v="906828" />
	</node>
	<node lat="65.45631111497524" lon="12.20188333577412" id="-8061">
		<tag k="name" v="Hovøy nordre" />
		<tag k="place" v="farm" />
		<tag k="ssr:stedsnr" v="906890" />
	</node>
	<node lat="65.47751389079387" lon="12.333822216292004" id="-8094">
		<tag k="name" v="Moen" />
		<tag k="place" v="farm" />
		<tag k="ssr:stedsnr" v="783615" />
	</node>
	<node lat="65.48927777781563" lon="12.319716667231472" id="-8096">
		<tag k="name" v="Langås" />
		<tag k="place" v="farm" />
		<tag k="ssr:stedsnr" v="783600" />
	</node>
	<node lat="65.34027777867509" lon="12.531288891785467" id="-8139">
		<tag k="name" v="Grindgarden" />
		<tag k="place" v="locality" />
		<tag k="ssr:stedsnr" v="786709" />
	</node>
	<node lat="65.3587552579769" lon="12.509611693768543" id="-8157">
		<tag k="fixme" v="consider place=hamlet" />
		<tag k="name" v="Forbergskogen" />
		<tag k="place" v="farm" />
		<tag k="ssr:stedsnr" v="803314" />
	</node>
	<node lat="65.49416486875383" lon="12.420483370298852" id="-8161">
		<tag k="alt_name" v="Salbu;Saltbua" />
		<tag k="fixme" v="consider place=hamlet" />
		<tag k="name" v="Salbua" />
		<tag k="place" v="farm" />
		<tag k="ssr:stedsnr" v="803264" />
	</node>
	<node lat="65.42290749701105" lon="12.078074525289873" id="-8171">
		<tag k="fixme" v="consider place=hamlet" />
		<tag k="name" v="Ytter-Torget" />
		<tag k="place" v="farm" />
		<tag k="ssr:stedsnr" v="804065" />
	</node>
	<node lat="65.42997221948428" lon="12.517452769753994" id="-8174">
		<tag k="alt_name" v="Enge nedre" />
		<tag k="loc_name" v="Nerengja" />
		<tag k="name" v="Nedrengja" />
		<tag k="place" v="farm" />
		<tag k="ssr:stedsnr" v="804428" />
	</node>
	<node lat="65.40022778003964" lon="12.42567499647628" id="-8175">
		<tag k="fixme" v="multiple name tags, choose one and add the other to alt_name" />
		<tag k="name" v="Grøndalen;Grøndalshaugen" />
		<tag k="place" v="isolated_dwelling" />
		<tag k="ssr:stedsnr" v="804461" />
	</node>
	<node lat="65.52686010831563" lon="12.588633350479293" id="-8183">
		<tag k="alt_name" v="Sildkoven" />
		<tag k="fixme" v="consider place=hamlet" />
		<tag k="name" v="Sildkovan" />
		<tag k="place" v="farm" />
		<tag k="ssr:stedsnr" v="804813" />
	</node>
	<node lat="65.54095984857726" lon="12.2562706737306" id="-8190">
		<tag k="name" v="Lundssjøen" />
		<tag k="place" v="locality" />
		<tag k="ssr:stedsnr" v="804966" />
	</node>
	<node lat="65.45472560782142" lon="12.157098264553724" id="-8198">
		<tag k="fixme" v="consider place=hamlet" />
		<tag k="name" v="Kvaløya" />
		<tag k="place" v="farm" />
		<tag k="ssr:stedsnr" v="924089" />
	</node>
	<node lat="65.42570020172697" lon="12.539540058362563" id="-8206">
		<tag k="alt_name" v="Hegge lille" />
		<tag k="fixme" v="consider place=hamlet" />
		<tag k="name" v="Lislhegge" />
		<tag k="place" v="farm" />
		<tag k="ssr:stedsnr" v="924350" />
	</node>
	<node lat="65.42770555930677" lon="12.546347221292555" id="-8207">
		<tag k="alt_name" v="Lien" />
		<tag k="fixme" v="consider place=hamlet" />
		<tag k="name" v="Oggårdslia" />
		<tag k="place" v="farm" />
		<tag k="ssr:stedsnr" v="924351" />
	</node>
	<node lat="65.41032222603612" lon="12.205366670255225" id="-8217">
		<tag k="name" v="Sandmo" />
		<tag k="place" v="farm" />
		<tag k="ssr:stedsnr" v="925072" />
	</node>
	<node lat="65.41651590514925" lon="12.205157482616869" id="-8218">
		<tag k="fixme" v="consider place=hamlet" />
		<tag k="name" v="Rodal" />
		<tag k="place" v="farm" />
		<tag k="ssr:stedsnr" v="925074" />
	</node>
	<node lat="65.43490292939663" lon="12.771843106764281" id="-8231">
		<tag k="fixme" v="consider place=hamlet" />
		<tag k="name" v="Sørfjellet" />
		<tag k="place" v="farm" />
		<tag k="ssr:stedsnr" v="925086" />
	</node>
	<node lat="65.3975277797892" lon="12.266724995645557" id="-8243">
		<tag k="name" v="Bjørkvollmoen" />
		<tag k="place" v="farm" />
		<tag k="ssr:stedsnr" v="844612" />
	</node>
	<node lat="65.29690191709048" lon="12.690846715631277" id="-8245">
		<tag k="alt_name" v="Nordfjellmark" />
		<tag k="fixme" v="consider place=hamlet" />
		<tag k="name" v="Nordfjellmarka" />
		<tag k="place" v="farm" />
		<tag k="ssr:stedsnr" v="925228" />
	</node>
	<node lat="65.27627819549669" lon="12.599530097402754" id="-8249">
		<tag k="fixme" v="consider place=hamlet" />
		<tag k="name" v="Godvasslia" />
		<tag k="place" v="farm" />
		<tag k="ssr:stedsnr" v="925267" />
	</node>
	<node lat="65.29339057544082" lon="12.652600970565624" id="-8252">
		<tag k="alt_name" v="Pålskog;Skog" />
		<tag k="fixme" v="consider place=hamlet" />
		<tag k="name" v="Pålskogen" />
		<tag k="place" v="farm" />
		<tag k="ssr:stedsnr" v="925234" />
	</node>
	<node lat="65.37682221777861" lon="12.190011121297838" id="-8262">
		<tag k="name" v="Strand" />
		<tag k="place" v="farm" />
		<tag k="ssr:stedsnr" v="925257" />
	</node>
	<node lat="65.46962778177517" lon="12.150361111614778" id="-8265">
		<tag k="name" v="Trudvang" />
		<tag k="place" v="farm" />
		<tag k="ssr:stedsnr" v="845394" />
	</node>
	<node lat="65.36656389141986" lon="12.690686112247167" id="-8268">
		<tag k="name" v="Lyngstad" />
		<tag k="place" v="farm" />
		<tag k="ssr:stedsnr" v="925384" />
	</node>
	<node lat="65.35888332955895" lon="12.54911388260547" id="-8271">
		<tag k="alt_name" v="Sandvik" />
		<tag k="fixme" v="consider place=hamlet" />
		<tag k="name" v="Sandvika" />
		<tag k="place" v="farm" />
		<tag k="ssr:stedsnr" v="925357" />
	</node>
	<node lat="65.41798611287113" lon="12.61207501005647" id="-8273">
		<tag k="alt_name" v="Opsjøen" />
		<tag k="fixme" v="consider place=hamlet" />
		<tag k="name" v="Oppsjøen" />
		<tag k="place" v="farm" />
		<tag k="ssr:stedsnr" v="925467" />
	</node>
	<node lat="65.40473889284306" lon="12.595333339159065" id="-8286">
		<tag k="name" v="Aunet" />
		<tag k="place" v="farm" />
		<tag k="ssr:stedsnr" v="925537" />
	</node>
	<node lat="65.39882777982545" lon="12.565933323080724" id="-8287">
		<tag k="name" v="Rønningstad" />
		<tag k="place" v="farm" />
		<tag k="ssr:stedsnr" v="925538" />
	</node>
	<node lat="65.50286110770935" lon="12.394302787746954" id="-8300">
		<tag k="name" v="Høgmo" />
		<tag k="place" v="farm" />
		<tag k="ssr:stedsnr" v="847323" />
	</node>
	<node lat="65.41735278115688" lon="12.551174991461272" id="-8302">
		<tag k="name" v="Sørhegge" />
		<tag k="place" v="farm" />
		<tag k="ssr:stedsnr" v="847512" />
	</node>
	<node lat="65.55156666289814" lon="12.236774998158339" id="-8315">
		<tag k="alt_name" v="Havnvik" />
		<tag k="name" v="Hamnvika" />
		<tag k="place" v="farm" />
		<tag k="ssr:stedsnr" v="925991" />
	</node>
	<node lat="65.51511944479712" lon="12.326888882474119" id="-8324">
		<tag k="alt_name" v="Skårvoll" />
		<tag k="name" v="Skorvollan" />
		<tag k="place" v="farm" />
		<tag k="ssr:stedsnr" v="926800" />
	</node>
	<node lat="65.5341361077549" lon="12.47566110907947" id="-8326">
		<tag k="name" v="Sommarset" />
		<tag k="place" v="locality" />
		<tag k="ssr:stedsnr" v="926930" />
	</node>
	<node lat="65.5182861079642" lon="12.316630561348457" id="-8327">
		<tag k="name" v="Fjellheim" />
		<tag k="place" v="farm" />
		<tag k="ssr:stedsnr" v="926947" />
	</node>
	<node lat="65.57661572947615" lon="12.316914102993712" id="-8328">
		<tag k="alt_name" v="Horn Lille" />
		<tag k="fixme" v="consider place=hamlet" />
		<tag k="name" v="Lislhorn" />
		<tag k="place" v="farm" />
		<tag k="ssr:stedsnr" v="926899" />
	</node>
	<node lat="65.42263610729104" lon="12.101333326983223" id="-8339">
		<tag k="name" v="Lavollen" />
		<tag k="place" v="farm" />
		<tag k="ssr:stedsnr" v="864034" />
	</node>
	<node lat="65.35737586225332" lon="12.655103477817908" id="-8344">
		<tag k="fixme" v="consider place=hamlet" />
		<tag k="name" v="Djupaunet" />
		<tag k="place" v="farm" />
		<tag k="ssr:stedsnr" v="864340" />
	</node>
	<node lat="65.45451388998487" lon="12.048197217103729" id="-8346">
		<tag k="name" v="Pervika" />
		<tag k="place" v="farm" />
		<tag k="ssr:stedsnr" v="864100" />
	</node>
	<node lat="65.24683333088589" lon="12.707575005221502" id="-8349">
		<tag k="fixme" v="consider place=hamlet" />
		<tag k="name" v="Hongbarstad" />
		<tag k="place" v="farm" />
		<tag k="ssr:stedsnr" v="864208" />
	</node>
	<node lat="65.33061667018117" lon="12.96057777010096" id="-8366">
		<tag k="name" v="Tverålia" />
		<tag k="place" v="farm" />
		<tag k="ssr:stedsnr" v="903400" />
	</node>
	<node lat="65.51497170755611" lon="12.344960107936648" id="-8381">
		<tag k="fixme" v="consider place=hamlet" />
		<tag k="name" v="Skåren" />
		<tag k="place" v="farm" />
		<tag k="ssr:stedsnr" v="904300" />
	</node>
	<node lat="65.33877777814645" lon="12.707522223661394" id="-8425">
		<tag k="name" v="Austdalen" />
		<tag k="place" v="farm" />
		<tag k="ssr:stedsnr" v="925306" />
	</node>
	<node lat="65.3145999972697" lon="12.596841676553357" id="-8426">
		<tag k="name" v="Heia" />
		<tag k="place" v="farm" />
		<tag k="ssr:stedsnr" v="925325" />
	</node>
	<node lat="65.42456944659753" lon="12.227336117963914" id="-8438">
		<tag k="name" v="Karijorda" />
		<tag k="place" v="farm" />
		<tag k="ssr:stedsnr" v="925431" />
	</node>
	<node lat="65.3780359316082" lon="12.457096448874937" id="-8439">
		<tag k="fixme" v="consider place=hamlet" />
		<tag k="name" v="Navan" />
		<tag k="place" v="farm" />
		<tag k="ssr:stedsnr" v="925434" />
	</node>
	<node lat="65.50423333020858" lon="12.40790000738379" id="-8450">
		<tag k="name" v="Kjellsand" />
		<tag k="place" v="farm" />
		<tag k="ssr:stedsnr" v="925839" />
	</node>
	<node lat="65.33232500404831" lon="12.88017777588462" id="-8457">
		<tag k="name" v="Leiråvatnet" />
		<tag k="place" v="isolated_dwelling" />
		<tag k="ssr:stedsnr" v="926118" />
	</node>
	<node lat="65.40025833574178" lon="12.484147223896052" id="-8460">
		<tag k="name" v="Julsaunet" />
		<tag k="place" v="farm" />
		<tag k="ssr:stedsnr" v="946830" />
	</node>
	<node lat="65.32491944625616" lon="12.968813885408668" id="-8466">
		<tag k="name" v="Bakken" />
		<tag k="place" v="farm" />
		<tag k="ssr:stedsnr" v="963634" />
	</node>
	<node lat="65.49524444799947" lon="12.247316673349758" id="-8476">
		<tag k="name" v="Fagerborg" />
		<tag k="place" v="farm" />
		<tag k="ssr:stedsnr" v="964825" />
	</node>
	<node lat="65.50904444424407" lon="12.397816677136358" id="-8508">
		<tag k="name" v="Heimen" />
		<tag k="place" v="farm" />
		<tag k="ssr:stedsnr" v="968316" />
	</node>
	<node lat="65.4294813084017" lon="12.406023499102467" id="-8515">
		<tag k="fixme" v="consider place=hamlet" />
		<tag k="name" v="Klimpen" />
		<tag k="place" v="farm" />
		<tag k="ssr:stedsnr" v="977042" />
	</node>
	<node lat="65.40642335734093" lon="12.508333594569907" id="-8516">
		<tag k="fixme" v="consider place=hamlet" />
		<tag k="name" v="Naustvika" />
		<tag k="place" v="farm" />
		<tag k="ssr:stedsnr" v="977043" />
	</node>
	<node lat="65.47531515331457" lon="12.150912105668398" id="-8517">
		<tag k="fixme" v="consider place=hamlet" />
		<tag k="name" v="Saltermarka" />
		<tag k="place" v="farm" />
		<tag k="ssr:stedsnr" v="977059" />
	</node>
	<node lat="65.47366044044087" lon="12.344816532196633" id="-8518">
		<tag k="fixme" v="consider place=hamlet" />
		<tag k="name" v="Ytter-Skomo" />
		<tag k="place" v="farm" />
		<tag k="ssr:stedsnr" v="977094" />
	</node>
	<node lat="65.47779487892115" lon="12.126414314395268" id="-8519">
		<tag k="fixme" v="consider place=hamlet" />
		<tag k="name" v="Sauren" />
		<tag k="place" v="farm" />
		<tag k="ssr:stedsnr" v="976998" />
	</node>
	<node lat="65.26809145480156" lon="12.869374087453275" id="-8522">
		<tag k="name" v="Kalklaven" />
		<tag k="place" v="locality" />
		<tag k="ssr:stedsnr" v="989582" />
	</node>
	<node lat="65.32735873521995" lon="12.95840001017065" id="-8523">
		<tag k="fixme" v="consider place=hamlet" />
		<tag k="name" v="Tosbotnet" />
		<tag k="place" v="farm" />
		<tag k="ssr:stedsnr" v="989583" />
	</node>
	<node lat="65.25375741534748" lon="12.792859099021978" id="-8525">
		<tag k="fixme" v="consider place=hamlet" />
		<tag k="name" v="Lande" />
		<tag k="place" v="farm" />
		<tag k="ssr:stedsnr" v="989586" />
	</node>
	<node lat="65.3562674309451" lon="12.62479371859623" id="-8528">
		<tag k="name" v="Indre Rødli" />
		<tag k="place" v="farm" />
		<tag k="ssr:stedsnr" v="14248" />
	</node>
	<node lat="65.41591944572939" lon="12.436658328023142" id="-8541">
		<tag k="alt_name" v="Yttereng" />
		<tag k="loc_name" v="Ytterenga" />
		<tag k="name" v="Ytrenga" />
		<tag k="place" v="farm" />
		<tag k="ssr:stedsnr" v="14347" />
	</node>
	<node lat="65.32082222356217" lon="12.679363891039987" id="-8542">
		<tag k="alt_name" v="Flatmovassbotnet" />
		<tag k="name" v="Flatmo" />
		<tag k="place" v="farm" />
		<tag k="ssr:stedsnr" v="15332" />
	</node>
	<node lat="65.43118611018505" lon="12.63179167350441" id="-8546">
		<tag k="name" v="Myrheim" />
		<tag k="place" v="farm" />
		<tag k="ssr:stedsnr" v="14297" />
	</node>
	<node lat="65.41866667090586" lon="12.041258340117393" id="-8560">
		<tag k="alt_name" v="Holmstrand" />
		<tag k="name" v="Holmstranda" />
		<tag k="place" v="farm" />
		<tag k="ssr:stedsnr" v="15049" />
	</node>
	<node lat="65.36489776935986" lon="12.693440247440384" id="-8569">
		<tag k="alt_name" v="Sjøli" />
		<tag k="fixme" v="consider place=hamlet" />
		<tag k="name" v="Sjølian" />
		<tag k="place" v="farm" />
		<tag k="ssr:stedsnr" v="15381" />
	</node>
	<node lat="65.37206110648074" lon="12.679680563162036" id="-8570">
		<tag k="alt_name" v="Haugli" />
		<tag k="name" v="Hauglia" />
		<tag k="place" v="farm" />
		<tag k="ssr:stedsnr" v="15465" />
	</node>
	<node lat="65.41248055960371" lon="12.62919999333711" id="-8573">
		<tag k="name" v="Trøan" />
		<tag k="place" v="farm" />
		<tag k="ssr:stedsnr" v="15489" />
	</node>
	<node lat="65.49070833135475" lon="12.156347224501516" id="-8586">
		<tag k="alt_name" v="Hestmark" />
		<tag k="name" v="Hestmarka" />
		<tag k="place" v="farm" />
		<tag k="ssr:stedsnr" v="15885" />
	</node>
	<node lat="65.55048257152205" lon="12.268399934195129" id="-8593">
		<tag k="fixme" v="consider place=hamlet" />
		<tag k="name" v="Mo" />
		<tag k="place" v="farm" />
		<tag k="ssr:stedsnr" v="15977" />
	</node>
	<node lat="65.50589999759238" lon="12.241847232159385" id="-8605">
		<tag k="name" v="Vikran" />
		<tag k="place" v="farm" />
		<tag k="ssr:stedsnr" v="16785" />
	</node>
	<node lat="65.5112722231116" lon="12.313002782157287" id="-8607">
		<tag k="name" v="Heståsen" />
		<tag k="place" v="farm" />
		<tag k="ssr:stedsnr" v="16793" />
	</node>
	<node lat="65.54078889258282" lon="12.091902771464303" id="-8609">
		<tag k="name" v="Varholmen" />
		<tag k="place" v="farm" />
		<tag k="ssr:stedsnr" v="21966" />
	</node>
	<node lat="65.37741944707543" lon="12.204219440064513" id="-8610">
		<tag k="name" v="Strømsnes" />
		<tag k="place" v="farm" />
		<tag k="ssr:stedsnr" v="24862" />
	</node>
	<node lat="65.4445472251001" lon="12.439530553875862" id="-8616">
		<tag k="name" v="Lysholt" />
		<tag k="place" v="isolated_dwelling" />
		<tag k="ssr:stedsnr" v="53394" />
	</node>
	<node lat="65.43726666700103" lon="12.442205546710664" id="-8620">
		<tag k="name" v="Evensgård" />
		<tag k="place" v="isolated_dwelling" />
		<tag k="ssr:stedsnr" v="53447" />
	</node>
	<node lat="65.3324722195115" lon="12.953774997666919" id="-8642">
		<tag k="name" v="Aunenget" />
		<tag k="place" v="farm" />
		<tag k="ssr:stedsnr" v="54431" />
	</node>
	<node lat="65.35431666910048" lon="12.674711121550136" id="-8666">
		<tag k="name" v="Flatås" />
		<tag k="place" v="isolated_dwelling" />
		<tag k="ssr:stedsnr" v="56139" />
	</node>
	<node lat="65.3365055586235" lon="12.675788890532795" id="-8667">
		<tag k="amenity" v="school" />
		<tag k="name" v="Øverbygda skole" />
		<tag k="ssr:stedsnr" v="56151" />
	</node>
	<node lat="65.26003055435396" lon="12.711658341985173" id="-8673">
		<tag k="name" v="Vårtun" />
		<tag k="place" v="isolated_dwelling" />
		<tag k="ssr:stedsnr" v="56232" />
	</node>
	<node lat="65.45788055561104" lon="12.20512777730975" id="-8704">
		<tag k="name" v="Vårtun" />
		<tag k="place" v="farm" />
		<tag k="ssr:stedsnr" v="57887" />
	</node>
	<node lat="65.50804166683945" lon="12.399605551228255" id="-8710">
		<tag k="name" v="Nævervik" />
		<tag k="place" v="farm" />
		<tag k="ssr:stedsnr" v="58327" />
	</node>
	<node lat="65.36003611263989" lon="12.649858339899614" id="-8715">
		<tag k="name" v="Åkerli" />
		<tag k="place" v="farm" />
		<tag k="ssr:stedsnr" v="58665" />
	</node>
	<node lat="65.32394166359038" lon="12.654602783128157" id="-8720">
		<tag k="name" v="Vangen" />
		<tag k="place" v="farm" />
		<tag k="ssr:stedsnr" v="58717" />
	</node>
	<node lat="65.39695833414248" lon="12.562016673046806" id="-8723">
		<tag k="name" v="Åsvang" />
		<tag k="place" v="farm" />
		<tag k="ssr:stedsnr" v="58754" />
	</node>
	<node lat="65.42333333637" lon="12.141963883850806" id="-8728">
		<tag k="fixme" v="consider place=hamlet" />
		<tag k="name" v="Ormøya" />
		<tag k="place" v="farm" />
		<tag k="ssr:stedsnr" v="75026" />
	</node>
	<node lat="65.24973888710083" lon="12.749599991046924" id="-8736">
		<tag k="alt_name" v="Sommersetmoen" />
		<tag k="name" v="Sommarsetmoen" />
		<tag k="place" v="isolated_dwelling" />
		<tag k="ssr:stedsnr" v="75594" />
	</node>
	<node lat="65.49778799753204" lon="12.34122660927896" id="-8754">
		<tag k="fixme" v="consider place=hamlet" />
		<tag k="name" v="Skille" />
		<tag k="place" v="farm" />
		<tag k="ssr:stedsnr" v="75276" />
	</node>
	<node lat="65.41238889084921" lon="12.620902774655105" id="-8765">
		<tag k="name" v="Bjørknes" />
		<tag k="place" v="farm" />
		<tag k="ssr:stedsnr" v="75479" />
	</node>
	<node lat="65.401808700929" lon="12.556393783643326" id="-8767">
		<tag k="alt_name" v="Rugås" />
		<tag k="fixme" v="consider place=hamlet" />
		<tag k="name" v="Rugåsen" />
		<tag k="place" v="farm" />
		<tag k="ssr:stedsnr" v="75486" />
	</node>
	<node lat="65.39234444487809" lon="12.636480545600728" id="-8769">
		<tag k="name" v="Nordås" />
		<tag k="place" v="farm" />
		<tag k="ssr:stedsnr" v="75496" />
	</node>
	<node lat="65.26962777872623" lon="12.634522226710205" id="-8775">
		<tag k="fixme" v="multiple name tags, choose one and add the other to alt_name" />
		<tag k="loc_name" v="Tjønneset" />
		<tag k="name" v="Tjørnneset;Kjønnes" />
		<tag k="place" v="farm" />
		<tag k="ssr:stedsnr" v="76166" />
	</node>
	<node lat="65.34703611400761" lon="12.727180556129131" id="-8780">
		<tag k="name" v="Solbakken" />
		<tag k="place" v="isolated_dwelling" />
		<tag k="ssr:stedsnr" v="76130" />
	</node>
	<node lat="65.39855771330944" lon="12.65028059641019" id="-8785">
		<tag k="alt_name" v="Røyrviken" />
		<tag k="fixme" v="consider place=hamlet" />
		<tag k="name" v="Røyrvikran" />
		<tag k="place" v="farm" />
		<tag k="ssr:stedsnr" v="76503" />
	</node>
	<node lat="65.51749164618401" lon="12.519127270538695" id="-8791">
		<tag k="fixme" v="consider place=hamlet" />
		<tag k="name" v="Gavlen" />
		<tag k="place" v="farm" />
		<tag k="ssr:stedsnr" v="76785" />
	</node>
	<node lat="65.25919166690547" lon="12.804241662891355" id="-8797">
		<tag k="alt_name" v="Gjektvika" />
		<tag k="name" v="Jektvika" />
		<tag k="place" v="farm" />
		<tag k="ssr:stedsnr" v="76980" />
	</node>
	<node lat="65.58244722394221" lon="12.283808339997632" id="-8801">
		<tag k="fixme" v="multiple name tags, choose one and add the other to alt_name" />
		<tag k="name" v="Sletten;Soltun" />
		<tag k="place" v="farm" />
		<tag k="ssr:stedsnr" v="76913" />
	</node>
	<node lat="65.53243333289907" lon="12.583494440295388" id="-8804">
		<tag k="name" v="Selta" />
		<tag k="place" v="locality" />
		<tag k="ssr:stedsnr" v="76942" />
	</node>
	<node lat="65.4631500008628" lon="12.201216662338531" id="-8805">
		<tag k="fixme" v="consider place=suburb, village or hamlet" />
		<tag k="name" v="Tautra" />
		<tag k="place" v="quarter" />
		<tag k="ssr:stedsnr" v="81600" />
	</node>
	<node lat="65.47910833494488" lon="12.33311944999902" id="-8806">
		<tag k="name" v="Moen" />
		<tag k="place" v="hamlet" />
		<tag k="ssr:stedsnr" v="81602" />
	</node>
	<node lat="65.5412611107866" lon="12.095127770935594" id="-8809">
		<tag k="name" v="Varholmen" />
		<tag k="place" v="farm" />
		<tag k="ssr:stedsnr" v="82968" />
	</node>
	<node lat="65.52713888760009" lon="12.351872212463183" id="-8811">
		<tag k="name" v="Eida" />
		<tag k="place" v="farm" />
		<tag k="ssr:stedsnr" v="102766" />
	</node>
	<node lat="65.496305557814" lon="12.246924995911932" id="-8854">
		<tag k="name" v="Bjønnåsen" />
		<tag k="place" v="farm" />
		<tag k="ssr:stedsnr" v="115828" />
	</node>
	<node lat="65.44360833534554" lon="12.333713878735553" id="-8857">
		<tag k="name" v="Trøskog" />
		<tag k="place" v="farm" />
		<tag k="ssr:stedsnr" v="115861" />
	</node>
	<node lat="65.37744444795233" lon="12.188652776310688" id="-8887">
		<tag k="name" v="Møretun" />
		<tag k="place" v="farm" />
		<tag k="ssr:stedsnr" v="117804" />
	</node>
	<node lat="65.26207221931169" lon="12.78761111077215" id="-8899">
		<tag k="name" v="Solheim" />
		<tag k="place" v="farm" />
		<tag k="ssr:stedsnr" v="119400" />
	</node>
	<node lat="65.4018944475816" lon="12.55300556325653" id="-8905">
		<tag k="name" v="Lienget" />
		<tag k="place" v="farm" />
		<tag k="ssr:stedsnr" v="119730" />
	</node>
	<node lat="65.48190023797427" lon="12.669143255784554" id="-8909">
		<tag k="alt_name" v="Lillebørja" />
		<tag k="fixme" v="consider place=hamlet" />
		<tag k="name" v="Lislbørja" />
		<tag k="place" v="farm" />
		<tag k="ssr:stedsnr" v="135275" />
	</node>
	<node lat="65.47171666719564" lon="12.354066657149712" id="-8911">
		<tag k="name" v="Hytter" />
		<tag k="place" v="neighbourhood" />
		<tag k="ssr:stedsnr" v="135284" />
	</node>
	<node lat="65.42989166820892" lon="12.566133324525044" id="-8914">
		<tag k="name" v="Lundhaug" />
		<tag k="place" v="farm" />
		<tag k="ssr:stedsnr" v="135369" />
	</node>
	<node lat="65.42759703305289" lon="12.441228343469598" id="-8916">
		<tag k="fixme" v="consider place=hamlet" />
		<tag k="name" v="Halsen" />
		<tag k="place" v="farm" />
		<tag k="ssr:stedsnr" v="135376" />
	</node>
	<node lat="65.47776667096458" lon="12.153691657090038" id="-8922">
		<tag k="name" v="Lauvvika" />
		<tag k="place" v="farm" />
		<tag k="ssr:stedsnr" v="135067" />
	</node>
	<node lat="65.34849415965006" lon="12.681139248973201" id="-8930">
		<tag k="alt_name" v="Ås Øvre" />
		<tag k="fixme" v="consider place=hamlet" />
		<tag k="name" v="Øverås" />
		<tag k="old_name" v="Øvrås" />
		<tag k="place" v="farm" />
		<tag k="ssr:stedsnr" v="135349" />
	</node>
	<node lat="65.25745677675575" lon="12.709988281319843" id="-8939">
		<tag k="fixme" v="consider place=hamlet" />
		<tag k="name" v="Tosaunet" />
		<tag k="place" v="farm" />
		<tag k="ssr:stedsnr" v="136213" />
	</node>
	<node lat="65.2779277786056" lon="12.594283336362233" id="-8944">
		<tag k="name" v="Lislenga" />
		<tag k="place" v="farm" />
		<tag k="ssr:stedsnr" v="136271" />
	</node>
	<node lat="65.48909166249844" lon="12.111219433573316" id="-8946">
		<tag k="fixme" v="consider place=hamlet" />
		<tag k="name" v="Lisltorgnes" />
		<tag k="place" v="farm" />
		<tag k="ssr:stedsnr" v="136883" />
	</node>
	<node lat="65.3663249982756" lon="12.661730553828482" id="-8952">
		<tag k="name" v="Slettbakk" />
		<tag k="place" v="farm" />
		<tag k="ssr:stedsnr" v="136389" />
	</node>
	<node lat="65.4073666687463" lon="12.551930557219732" id="-8953">
		<tag k="name" v="Hommelstø" />
		<tag k="place" v="village" />
		<tag k="ssr:stedsnr" v="136480" />
	</node>
	<node lat="65.40940555880015" lon="12.563941665265729" id="-8954">
		<tag k="alt_name" v="Rugåsnes" />
		<tag k="name" v="Rugåsneset" />
		<tag k="place" v="farm" />
		<tag k="ssr:stedsnr" v="136482" />
	</node>
	<node lat="65.57305833652906" lon="12.569586121394872" id="-8966">
		<tag k="alt_name" v="Fornes" />
		<tag k="name" v="Forneset" />
		<tag k="place" v="farm" />
		<tag k="ssr:stedsnr" v="136987" />
	</node>
	<node lat="65.26051666750244" lon="12.731927778979887" id="-8968">
		<tag k="name" v="Halsenget" />
		<tag k="place" v="isolated_dwelling" />
		<tag k="ssr:stedsnr" v="136990" />
	</node>
	<node lat="65.51171111319718" lon="12.130233323217277" id="-8974">
		<tag k="name" v="Stortorgnes" />
		<tag k="place" v="farm" />
		<tag k="ssr:stedsnr" v="161702" />
	</node>
	<node lat="65.47891111442472" lon="12.368038894087022" id="-8975">
		<tag k="name" v="Innerskomo" />
		<tag k="place" v="farm" />
		<tag k="ssr:stedsnr" v="162751" />
	</node>
	<node lat="65.5072166643478" lon="12.368841660150183" id="-8994">
		<tag k="name" v="Solglimt" />
		<tag k="place" v="isolated_dwelling" />
		<tag k="ssr:stedsnr" v="175299" />
	</node>
	<node lat="65.33071944334797" lon="12.96826111253174" id="-9000">
		<tag k="name" v="Granbakkan" />
		<tag k="place" v="farm" />
		<tag k="ssr:stedsnr" v="175400" />
	</node>
	<node lat="65.5768222175886" lon="12.312722231260844" id="-9010">
		<tag k="name" v="Bjørkheim" />
		<tag k="place" v="farm" />
		<tag k="ssr:stedsnr" v="175794" />
	</node>
	<node lat="65.50100460704137" lon="12.259005357518069" id="-9017">
		<tag k="name" v="Mosseim" />
		<tag k="place" v="farm" />
		<tag k="ssr:stedsnr" v="178292" />
	</node>
	<node lat="65.35064722570438" lon="12.679483342216054" id="-9024">
		<tag k="name" v="Meås" />
		<tag k="place" v="isolated_dwelling" />
		<tag k="ssr:stedsnr" v="177144" />
	</node>
	<node lat="65.3218944439533" lon="12.652961102311998" id="-9054">
		<tag k="name" v="Slettvoll" />
		<tag k="place" v="farm" />
		<tag k="ssr:stedsnr" v="178791" />
	</node>
	<node lat="65.31850555636763" lon="12.653799999839979" id="-9056">
		<tag k="name" v="Flatmo" />
		<tag k="place" v="farm" />
		<tag k="ssr:stedsnr" v="178798" />
	</node>
	<node lat="65.30055278111726" lon="12.646919453229467" id="-9063">
		<tag k="name" v="Myrva" />
		<tag k="place" v="farm" />
		<tag k="ssr:stedsnr" v="178838" />
	</node>
	<node lat="65.41445278046491" lon="12.284255546657109" id="-9078">
		<tag k="name" v="Lidarende" />
		<tag k="place" v="isolated_dwelling" />
		<tag k="ssr:stedsnr" v="196395" />
	</node>
	<node lat="65.45131389139841" lon="12.192358332135116" id="-9083">
		<tag k="name" v="Bakken" />
		<tag k="place" v="farm" />
		<tag k="ssr:stedsnr" v="196006" />
	</node>
	<node lat="65.47668333030157" lon="12.130750000279011" id="-9086">
		<tag k="name" v="Sauren" />
		<tag k="place" v="farm" />
		<tag k="ssr:stedsnr" v="196076" />
	</node>
	<node lat="65.4891249985604" lon="12.34733889439338" id="-9090">
		<tag k="alt_name" v="Skillevik" />
		<tag k="name" v="Skillvika" />
		<tag k="place" v="farm" />
		<tag k="ssr:stedsnr" v="196249" />
	</node>
	<node lat="65.38103930398971" lon="12.5087811957648" id="-9095">
		<tag k="fixme" v="consider place=hamlet" />
		<tag k="name" v="Høliaunet" />
		<tag k="place" v="farm" />
		<tag k="ssr:stedsnr" v="196342" />
	</node>
	<node lat="65.38430539106011" lon="12.51728356687815" id="-9096">
		<tag k="alt_name" v="Hølines" />
		<tag k="fixme" v="consider place=hamlet" />
		<tag k="name" v="Hølineset" />
		<tag k="place" v="farm" />
		<tag k="ssr:stedsnr" v="196343" />
	</node>
	<node lat="65.38658333365328" lon="12.581688894270258" id="-9097">
		<tag k="alt_name" v="Peenget" />
		<tag k="loc_name" v="Peenga" />
		<tag k="name" v="Perenga" />
		<tag k="place" v="farm" />
		<tag k="ssr:stedsnr" v="196344" />
	</node>
	<node lat="65.46097783874663" lon="12.778572607750986" id="-9107">
		<tag k="name" v="Grunnan" />
		<tag k="place" v="locality" />
		<tag k="ssr:stedsnr" v="197195" />
	</node>
	<node lat="65.32712136807422" lon="12.548244851433996" id="-9108">
		<tag k="alt_name" v="Storlien" />
		<tag k="fixme" v="consider place=hamlet" />
		<tag k="name" v="Storlia" />
		<tag k="place" v="farm" />
		<tag k="ssr:stedsnr" v="197279" />
	</node>
	<node lat="65.36669416041482" lon="12.655684528523231" id="-9109">
		<tag k="fixme" v="consider place=hamlet" />
		<tag k="name" v="Håkaunet" />
		<tag k="place" v="farm" />
		<tag k="ssr:stedsnr" v="197388" />
	</node>
	<node lat="65.43979444793133" lon="12.429338890841551" id="-9118">
		<tag k="name" v="Fageråsen" />
		<tag k="place" v="farm" />
		<tag k="ssr:stedsnr" v="197529" />
	</node>
	<node lat="65.44238055268455" lon="12.306563880160668" id="-9120">
		<tag k="alt_name" v="Flatmo" />
		<tag k="name" v="Flatmoen" />
		<tag k="place" v="farm" />
		<tag k="ssr:stedsnr" v="197542" />
	</node>
	<node lat="65.52261944344592" lon="12.258991674999738" id="-9124">
		<tag k="name" v="Myra" />
		<tag k="place" v="farm" />
		<tag k="ssr:stedsnr" v="197964" />
	</node>
	<node lat="65.51801389274836" lon="12.572136106812389" id="-9133">
		<tag k="name" v="Solvang" />
		<tag k="place" v="farm" />
		<tag k="ssr:stedsnr" v="198787" />
	</node>
	<node lat="65.4877416676287" lon="12.357052774577665" id="-9140">
		<tag k="name" v="Ytterskomo" />
		<tag k="place" v="farm" />
		<tag k="ssr:stedsnr" v="223765" />
	</node>
	<node lat="65.47656208530164" lon="12.363495963907692" id="-9141">
		<tag k="name" v="Innerskomo" />
		<tag k="place" v="farm" />
		<tag k="ssr:stedsnr" v="223766" />
	</node>
	<node lat="65.48205555996266" lon="12.367138882413526" id="-9142">
		<tag k="name" v="Ytterskomo" />
		<tag k="place" v="farm" />
		<tag k="ssr:stedsnr" v="223767" />
	</node>
	<node lat="65.50097903585227" lon="12.115370156713366" id="-9144">
		<tag k="fixme" v="multiple name tags, choose one and add the other to alt_name" />
		<tag k="name" v="Stortorgnes;Heia" />
		<tag k="place" v="farm" />
		<tag k="ssr:stedsnr" v="283734" />
	</node>
	<node lat="65.46731388529034" lon="12.088272231602007" id="-9152">
		<tag k="name" v="Nystad" />
		<tag k="place" v="isolated_dwelling" />
		<tag k="ssr:stedsnr" v="297266" />
	</node>
	<node lat="65.49848055339802" lon="12.260038888214835" id="-9158">
		<tag k="name" v="Mosseim" />
		<tag k="place" v="farm" />
		<tag k="ssr:stedsnr" v="296214" />
	</node>
	<node lat="65.52208889092773" lon="12.275091663141161" id="-9184">
		<tag k="name" v="Floten" />
		<tag k="place" v="farm" />
		<tag k="ssr:stedsnr" v="297138" />
	</node>
	<node lat="65.29444722115743" lon="12.688636103846024" id="-9203">
		<tag k="name" v="Myrstad" />
		<tag k="place" v="isolated_dwelling" />
		<tag k="ssr:stedsnr" v="299171" />
	</node>
	<node lat="65.46840555655298" lon="12.21495277772759" id="-9220">
		<tag k="leisure" v="pitch" />
		<tag k="name" v="Brønnøysund Stadion" />
		<tag k="ssr:stedsnr" v="299539" />
	</node>
	<node lat="65.48495833698678" lon="12.103122231108488" id="-9222">
		<tag k="name" v="Åsheim" />
		<tag k="place" v="farm" />
		<tag k="ssr:stedsnr" v="299415" />
	</node>
	<node lat="65.28956388558973" lon="12.654358328239587" id="-9231">
		<tag k="name" v="Veitran" />
		<tag k="place" v="farm" />
		<tag k="ssr:stedsnr" v="299842" />
	</node>
	<node lat="65.3826277823355" lon="12.221791662805488" id="-9235">
		<tag k="name" v="Myrvold" />
		<tag k="place" v="farm" />
		<tag k="ssr:stedsnr" v="299816" />
	</node>
	<node lat="65.42093888967173" lon="12.433738882778277" id="-9262">
		<tag k="name" v="Grønlia" />
		<tag k="place" v="farm" />
		<tag k="ssr:stedsnr" v="317381" />
	</node>
	<node lat="65.39978055527845" lon="12.525661111461075" id="-9265">
		<tag k="fixme" v="multiple name tags, choose one and add the other to alt_name" />
		<tag k="name" v="Skogholt;Skogheim" />
		<tag k="place" v="farm" />
		<tag k="ssr:stedsnr" v="318520" />
	</node>
	<node lat="65.4101777776297" lon="12.102288884514463" id="-9269">
		<tag k="name" v="Inner-Torget" />
		<tag k="place" v="farm" />
		<tag k="ssr:stedsnr" v="318058" />
	</node>
	<node lat="65.47053333666366" lon="12.24854444871734" id="-9277">
		<tag k="name" v="Trælvikoddan" />
		<tag k="place" v="farm" />
		<tag k="ssr:stedsnr" v="318296" />
	</node>
	<node lat="65.32019810399457" lon="12.665014777052686" id="-9278">
		<tag k="fixme" v="consider place=hamlet" />
		<tag k="name" v="Flatmoen" />
		<tag k="place" v="farm" />
		<tag k="ssr:stedsnr" v="318298" />
	</node>
	<node lat="65.43833889128254" lon="12.435011103137102" id="-9280">
		<tag k="fixme" v="consider place=hamlet" />
		<tag k="name" v="Seterlandet" />
		<tag k="place" v="village" />
		<tag k="ssr:stedsnr" v="318409" />
	</node>
	<node lat="65.46758889314326" lon="12.133305558410214" id="-9284">
		<tag k="alt_name" v="Tofte" />
		<tag k="fixme" v="consider place=hamlet" />
		<tag k="name" v="Toft" />
		<tag k="place" v="village" />
		<tag k="ssr:stedsnr" v="318082" />
	</node>
	<node lat="65.33944444059452" lon="12.642541658889767" id="-9290">
		<tag k="alt_name" v="Granli" />
		<tag k="name" v="Granlia" />
		<tag k="place" v="isolated_dwelling" />
		<tag k="ssr:stedsnr" v="318356" />
	</node>
	<node lat="65.379011111191" lon="12.520008335725443" id="-9293">
		<tag k="alt_name" v="Harknes" />
		<tag k="name" v="Harkneset" />
		<tag k="place" v="farm" />
		<tag k="ssr:stedsnr" v="318378" />
	</node>
	<node lat="65.40798579855566" lon="12.6552320617188" id="-9298">
		<tag k="fixme" v="consider place=hamlet" />
		<tag k="loc_name" v="Ingelvika" />
		<tag k="name" v="Engelvika" />
		<tag k="place" v="farm" />
		<tag k="ssr:stedsnr" v="318468" />
	</node>
	<node lat="65.3730916664413" lon="12.673222211529481" id="-9301">
		<tag k="name" v="Nyrud" />
		<tag k="place" v="farm" />
		<tag k="ssr:stedsnr" v="318425" />
	</node>
	<node lat="65.34527500080125" lon="12.737124991809655" id="-9307">
		<tag k="name" v="Sanden" />
		<tag k="place" v="isolated_dwelling" />
		<tag k="ssr:stedsnr" v="319117" />
	</node>
	<node lat="65.50659167080119" lon="12.330263891860147" id="-9318">
		<tag k="name" v="Åsheim" />
		<tag k="place" v="farm" />
		<tag k="ssr:stedsnr" v="319777" />
	</node>
	<node lat="65.51186944712923" lon="12.321336100980316" id="-9320">
		<tag k="alt_name" v="Budal" />
		<tag k="name" v="Budalen" />
		<tag k="place" v="farm" />
		<tag k="ssr:stedsnr" v="319792" />
	</node>
	<node lat="65.53611049171803" lon="12.416777086452676" id="-9323">
		<tag k="alt_name" v="Fruerlia" />
		<tag k="name" v="Frulia" />
		<tag k="place" v="locality" />
		<tag k="ssr:stedsnr" v="319946" />
	</node>
	<node lat="65.52184166614185" lon="12.28890555806838" id="-9324">
		<tag k="name" v="Einvollan" />
		<tag k="place" v="farm" />
		<tag k="ssr:stedsnr" v="319957" />
	</node>
	<node lat="65.41148055681668" lon="12.095231118422786" id="-9326">
		<tag k="fixme" v="consider place=hamlet" />
		<tag k="name" v="Inner-Torget" />
		<tag k="place" v="farm" />
		<tag k="ssr:stedsnr" v="325881" />
	</node>
	<node lat="65.39601944143664" lon="12.465566658232484" id="-9327">
		<tag k="fixme" v="consider tourism=alpine_hut or tourism=chalet" />
		<tag k="name" v="Navavatnhytta" />
		<tag k="ssr:stedsnr" v="329223" />
		<tag k="tourism" v="wilderness_hut" />
	</node>
	<node lat="65.46799166996024" lon="12.356652775364822" id="-9329">
		<tag k="name" v="Innerskomo" />
		<tag k="place" v="farm" />
		<tag k="ssr:stedsnr" v="344757" />
	</node>
	<node lat="65.49345277370274" lon="12.313150005433894" id="-9330">
		<tag k="name" v="Syltern" />
		<tag k="place" v="farm" />
		<tag k="ssr:stedsnr" v="344761" />
	</node>
	<node lat="65.35833889229839" lon="12.510924996092152" id="-9331">
		<tag k="name" v="Forbergskogen" />
		<tag k="place" v="farm" />
		<tag k="ssr:stedsnr" v="344789" />
	</node>
	<node lat="65.49157777549695" lon="12.425433322672658" id="-9362">
		<tag k="name" v="Nyland" />
		<tag k="place" v="isolated_dwelling" />
		<tag k="ssr:stedsnr" v="357728" />
	</node>
	<node lat="65.4794611094256" lon="12.333861111979635" id="-9371">
		<tag k="name" v="Moen" />
		<tag k="place" v="farm" />
		<tag k="ssr:stedsnr" v="358622" />
	</node>
	<node lat="65.34175833294339" lon="12.68531944674793" id="-9393">
		<tag k="name" v="Rubeng" />
		<tag k="place" v="farm" />
		<tag k="ssr:stedsnr" v="360135" />
	</node>
	<node lat="65.25759999816441" lon="12.69671666239729" id="-9398">
		<tag k="name" v="Åsmo" />
		<tag k="place" v="isolated_dwelling" />
		<tag k="ssr:stedsnr" v="360148" />
	</node>
	<node lat="65.38539721796684" lon="12.636652769896957" id="-9411">
		<tag k="name" v="Utheim" />
		<tag k="place" v="farm" />
		<tag k="ssr:stedsnr" v="360600" />
	</node>
	<node lat="65.46774999640918" lon="12.205713888228594" id="-9412">
		<tag k="amenity" v="townhall" />
		<tag k="name" v="Brønnøy rådhus" />
		<tag k="ssr:stedsnr" v="360495" />
	</node>
	<node lat="65.38755555527156" lon="12.633938889035942" id="-9413">
		<tag k="name" v="Bråten" />
		<tag k="place" v="farm" />
		<tag k="ssr:stedsnr" v="360570" />
	</node>
	<node lat="65.32559166510089" lon="12.656883327071279" id="-9446">
		<tag k="name" v="Hulderheim" />
		<tag k="place" v="farm" />
		<tag k="ssr:stedsnr" v="361719" />
	</node>
	<node lat="65.47372237171325" lon="12.159282682124777" id="-9457">
		<tag k="alt_name" v="Fjellsøy" />
		<tag k="fixme" v="consider place=hamlet" />
		<tag k="name" v="Fjellsøya" />
		<tag k="place" v="farm" />
		<tag k="ssr:stedsnr" v="378071" />
	</node>
	<node lat="65.46991005679925" lon="12.083931527170973" id="-9461">
		<tag k="fixme" v="consider place=hamlet" />
		<tag k="name" v="Rødhylla" />
		<tag k="place" v="farm" />
		<tag k="ssr:stedsnr" v="378060" />
	</node>
	<node lat="65.4570250017016" lon="12.211802773084935" id="-9471">
		<tag k="name" v="Solvang" />
		<tag k="place" v="farm" />
		<tag k="ssr:stedsnr" v="378100" />
	</node>
	<node lat="65.45421666898632" lon="12.197313891435796" id="-9472">
		<tag k="fixme" v="multiple name tags, choose one and add the other to alt_name" />
		<tag k="name" v="Hauøya;Hovøy søndre" />
		<tag k="place" v="farm" />
		<tag k="ssr:stedsnr" v="378104" />
	</node>
	<node lat="65.39358290169514" lon="12.680156181920827" id="-9481">
		<tag k="alt_name" v="Dalaune" />
		<tag k="fixme" v="consider place=hamlet" />
		<tag k="loc_name" v="Dålaunet" />
		<tag k="name" v="Dalaunet" />
		<tag k="place" v="farm" />
		<tag k="ssr:stedsnr" v="378493" />
	</node>
	<node lat="65.45749202614525" lon="12.490255051066185" id="-9488">
		<tag k="alt_name" v="Drogsøy" />
		<tag k="fixme" v="consider place=hamlet" />
		<tag k="name" v="Drogsøya" />
		<tag k="place" v="farm" />
		<tag k="ssr:stedsnr" v="378452" />
	</node>
	<node lat="65.44279166881553" lon="12.29447499198305" id="-9492">
		<tag k="name" v="Haugen" />
		<tag k="place" v="farm" />
		<tag k="ssr:stedsnr" v="378524" />
	</node>
	<node lat="65.3317000026089" lon="12.938605551392895" id="-9496">
		<tag k="alt_name" v="Bekkevold" />
		<tag k="name" v="Bekkevoll" />
		<tag k="place" v="farm" />
		<tag k="ssr:stedsnr" v="379001" />
	</node>
	<node lat="65.32716110849755" lon="12.924675009548006" id="-9497">
		<tag k="name" v="Solåsen" />
		<tag k="place" v="isolated_dwelling" />
		<tag k="ssr:stedsnr" v="379007" />
	</node>
	<node lat="65.28322222651242" lon="12.839016658976638" id="-9505">
		<tag k="name" v="Enget" />
		<tag k="place" v="farm" />
		<tag k="ssr:stedsnr" v="379053" />
	</node>
	<node lat="65.3680749956143" lon="12.597633331104596" id="-9511">
		<tag k="name" v="Ytterrørlia" />
		<tag k="place" v="farm" />
		<tag k="ssr:stedsnr" v="379335" />
	</node>
	<node lat="65.5440277737815" lon="12.262927778987082" id="-9522">
		<tag k="name" v="Indretuva" />
		<tag k="place" v="farm" />
		<tag k="ssr:stedsnr" v="379947" />
	</node>
	<node lat="65.26504166659475" lon="12.605144435859458" id="-9528">
		<tag k="name" v="Vatnan" />
		<tag k="place" v="farm" />
		<tag k="ssr:stedsnr" v="402758" />
	</node>
	<node lat="65.35671388836913" lon="12.672411112811167" id="-9577">
		<tag k="name" v="Solum" />
		<tag k="place" v="isolated_dwelling" />
		<tag k="ssr:stedsnr" v="420121" />
	</node>
	<node lat="65.29826666733582" lon="12.698341664449277" id="-9578">
		<tag k="name" v="Nystad" />
		<tag k="place" v="isolated_dwelling" />
		<tag k="ssr:stedsnr" v="420125" />
	</node>
	<node lat="65.26139444804274" lon="12.715888882283256" id="-9583">
		<tag k="name" v="Fredheim" />
		<tag k="place" v="isolated_dwelling" />
		<tag k="ssr:stedsnr" v="420256" />
	</node>
	<node lat="65.46323610858968" lon="12.204761103538788" id="-9590">
		<tag k="name" v="Farmen" />
		<tag k="place" v="quarter" />
		<tag k="ssr:stedsnr" v="420573" />
	</node>
	<node lat="65.30124722652543" lon="12.67846944214369" id="-9599">
		<tag k="name" v="Bjørkås" />
		<tag k="place" v="isolated_dwelling" />
		<tag k="ssr:stedsnr" v="421322" />
	</node>
	<node lat="65.48940000279005" lon="12.307880559788302" id="-9625">
		<tag k="name" v="Solbakken" />
		<tag k="place" v="farm" />
		<tag k="ssr:stedsnr" v="429941" />
	</node>
	<node lat="65.45761388540102" lon="12.048508322368757" id="-9630">
		<tag k="name" v="Nordburøya" />
		<tag k="place" v="farm" />
		<tag k="ssr:stedsnr" v="439073" />
	</node>
	<node lat="65.30313610831087" lon="12.643986113994982" id="-9634">
		<tag k="alt_name" v="Myrvoll" />
		<tag k="name" v="Myrvollen" />
		<tag k="place" v="farm" />
		<tag k="ssr:stedsnr" v="439166" />
	</node>
	<node lat="65.46754028699955" lon="12.298025586091638" id="-9644">
		<tag k="fixme" v="consider place=hamlet" />
		<tag k="name" v="Kjølsøya" />
		<tag k="place" v="farm" />
		<tag k="ssr:stedsnr" v="439278" />
	</node>
	<node lat="65.47565833350589" lon="12.297130553763125" id="-9645">
		<tag k="alt_name" v="Kjønvik" />
		<tag k="name" v="Tjørnvika" />
		<tag k="place" v="farm" />
		<tag k="ssr:stedsnr" v="439287" />
	</node>
	<node lat="65.41864444252496" lon="12.397333335787966" id="-9654">
		<tag k="name" v="Vasslia" />
		<tag k="place" v="isolated_dwelling" />
		<tag k="ssr:stedsnr" v="439424" />
	</node>
	<node lat="65.36574167020855" lon="12.48582778840467" id="-9665">
		<tag k="fixme" v="consider place=hamlet" />
		<tag k="name" v="Remman" />
		<tag k="place" v="farm" />
		<tag k="ssr:stedsnr" v="440363" />
	</node>
	<node lat="65.36862499831294" lon="12.66815278719694" id="-9666">
		<tag k="alt_name" v="Sommerset" />
		<tag k="name" v="Sommarset" />
		<tag k="place" v="farm" />
		<tag k="ssr:stedsnr" v="440368" />
	</node>
	<node lat="65.36881666696122" lon="12.65165555513696" id="-9667">
		<tag k="alt_name" v="Meby" />
		<tag k="name" v="Medby" />
		<tag k="place" v="farm" />
		<tag k="ssr:stedsnr" v="440372" />
	</node>
	<node lat="65.43339585868651" lon="12.429348592335174" id="-9669">
		<tag k="alt_name" v="Bakken" />
		<tag k="fixme" v="consider place=hamlet" />
		<tag k="loc_name" v="Seterbakken" />
		<tag k="name" v="Sæterbakken" />
		<tag k="place" v="farm" />
		<tag k="ssr:stedsnr" v="440471" />
	</node>
	<node lat="65.5799333361325" lon="12.557144436587548" id="-9675">
		<tag k="name" v="Sørmarka" />
		<tag k="place" v="farm" />
		<tag k="ssr:stedsnr" v="440867" />
	</node>
	<node lat="65.25465832916373" lon="12.789472229131423" id="-9677">
		<tag k="fixme" v="consider place=hamlet" />
		<tag k="name" v="Lande" />
		<tag k="place" v="village" />
		<tag k="ssr:stedsnr" v="440992" />
	</node>
	<node lat="65.25530277517133" lon="12.786880564248726" id="-9678">
		<tag k="building" v="civic" />
		<tag k="name" v="Tosen" />
		<tag k="ssr:stedsnr" v="440993" />
	</node>
	<node lat="65.26229444322855" lon="12.730752780637493" id="-9679">
		<tag k="name" v="Trøen" />
		<tag k="place" v="farm" />
		<tag k="ssr:stedsnr" v="440995" />
	</node>
	<node lat="65.55236111035427" lon="12.527502771440155" id="-9682">
		<tag k="name" v="Vassbugen" />
		<tag k="place" v="locality" />
		<tag k="ssr:stedsnr" v="440983" />
	</node>
	<node lat="65.42907222420945" lon="12.108072219868363" id="-9700">
		<tag k="name" v="Myrset" />
		<tag k="place" v="farm" />
		<tag k="ssr:stedsnr" v="500043" />
	</node>
	<node lat="65.38815833777905" lon="12.182061110802735" id="-9707">
		<tag k="name" v="Lia" />
		<tag k="place" v="farm" />
		<tag k="ssr:stedsnr" v="500237" />
	</node>
	<node lat="65.48040018064455" lon="12.441029674526812" id="-9712">
		<tag k="alt_name" v="Skomovik" />
		<tag k="fixme" v="consider place=hamlet" />
		<tag k="name" v="Skomovika" />
		<tag k="place" v="farm" />
		<tag k="ssr:stedsnr" v="500366" />
	</node>
	<node lat="65.43448888809493" lon="12.620616665000542" id="-9717">
		<tag k="name" v="Neset" />
		<tag k="place" v="farm" />
		<tag k="ssr:stedsnr" v="500453" />
	</node>
	<node lat="65.40804166710768" lon="12.442233326718997" id="-9719">
		<tag k="fixme" v="consider place=hamlet" />
		<tag k="name" v="Svarthopen" />
		<tag k="place" v="farm" />
		<tag k="ssr:stedsnr" v="500548" />
	</node>
	<node lat="65.44664606007204" lon="12.518596307795196" id="-9722">
		<tag k="fixme" v="consider place=hamlet" />
		<tag k="name" v="Groven" />
		<tag k="place" v="farm" />
		<tag k="ssr:stedsnr" v="500560" />
	</node>
	<node lat="65.50072499857501" lon="12.388150007946985" id="-9731">
		<tag k="name" v="Gåslia" />
		<tag k="place" v="isolated_dwelling" />
		<tag k="ssr:stedsnr" v="500826" />
	</node>
	<node lat="65.55681944220268" lon="12.247705562826951" id="-9736">
		<tag k="name" v="Nordodden" />
		<tag k="place" v="farm" />
		<tag k="ssr:stedsnr" v="500988" />
	</node>
	<node lat="65.31868333228691" lon="12.750886116454833" id="-9742">
		<tag k="name" v="Juvatnet" />
		<tag k="place" v="locality" />
		<tag k="ssr:stedsnr" v="501007" />
	</node>
	<node lat="65.26993117955004" lon="12.822727779265607" id="-9743">
		<tag k="name" v="Dagslåtten" />
		<tag k="place" v="hamlet" />
		<tag k="ssr:stedsnr" v="501066" />
	</node>
	<node lat="65.50073333522182" lon="12.332805557729564" id="-9750">
		<tag k="name" v="Skille" />
		<tag k="place" v="farm" />
		<tag k="ssr:stedsnr" v="501770" />
	</node>
	<node lat="65.4903666630847" lon="12.3062444338877" id="-9764">
		<tag k="name" v="Syltern" />
		<tag k="place" v="farm" />
		<tag k="ssr:stedsnr" v="526751" />
	</node>
	<node lat="65.46197499564387" lon="12.031069440101591" id="-9766">
		<tag k="name" v="Langøya" />
		<tag k="place" v="farm" />
		<tag k="ssr:stedsnr" v="527657" />
	</node>
	<node lat="65.44050277665512" lon="12.29687500972325" id="-9768">
		<tag k="name" v="Elvenes" />
		<tag k="place" v="farm" />
		<tag k="ssr:stedsnr" v="540501" />
	</node>
	<node lat="65.52184444151186" lon="12.274447225766249" id="-9773">
		<tag k="name" v="Matstuberget" />
		<tag k="place" v="locality" />
		<tag k="ssr:stedsnr" v="539093" />
	</node>
	<node lat="65.44814722415619" lon="12.3263444479571" id="-9781">
		<tag k="name" v="Leitvoll" />
		<tag k="place" v="farm" />
		<tag k="ssr:stedsnr" v="539860" />
	</node>
	<node lat="65.43711626346065" lon="12.432024399541065" id="-9789">
		<tag k="alt_name" v="Sørsæteren" />
		<tag k="fixme" v="consider place=hamlet" />
		<tag k="name" v="Sørsætra" />
		<tag k="place" v="farm" />
		<tag k="ssr:stedsnr" v="539376" />
	</node>
	<node lat="65.29291388826782" lon="12.692222229290188" id="-9817">
		<tag k="name" v="Fjelltun" />
		<tag k="place" v="isolated_dwelling" />
		<tag k="ssr:stedsnr" v="541127" />
	</node>
	<node lat="65.30186111305231" lon="12.71573333990327" id="-9820">
		<tag k="name" v="Markabu" />
		<tag k="place" v="isolated_dwelling" />
		<tag k="ssr:stedsnr" v="541158" />
	</node>
	<node lat="65.26786388816161" lon="12.684511115288892" id="-9821">
		<tag k="name" v="Åsan" />
		<tag k="place" v="farm" />
		<tag k="ssr:stedsnr" v="541289" />
	</node>
	<node lat="65.38860833274869" lon="12.61420833356653" id="-9826">
		<tag k="name" v="Minnetun" />
		<tag k="place" v="farm" />
		<tag k="ssr:stedsnr" v="542573" />
	</node>
	<node lat="65.32048333244737" lon="12.669577780097272" id="-9854">
		<tag k="name" v="Nordli" />
		<tag k="place" v="farm" />
		<tag k="ssr:stedsnr" v="542332" />
	</node>
	<node lat="65.35560555283271" lon="12.629524996501788" id="-9880">
		<tag k="name" v="Bakketun" />
		<tag k="place" v="farm" />
		<tag k="ssr:stedsnr" v="543851" />
	</node>
	<node lat="65.38702500175197" lon="12.231491670286722" id="-9883">
		<tag k="amenity" v="school" />
		<tag k="name" v="Fredheim" />
		<tag k="ssr:stedsnr" v="560456" />
	</node>
	<node lat="65.23384999540393" lon="12.753900006867015" id="-9891">
		<tag k="loc_name" v="Hammarslia" />
		<tag k="name" v="Hammarlia" />
		<tag k="place" v="locality" />
		<tag k="ssr:stedsnr" v="560592" />
	</node>
	<node lat="65.42417499630304" lon="12.071858322521093" id="-9892">
		<tag k="name" v="Skardet" />
		<tag k="place" v="farm" />
		<tag k="ssr:stedsnr" v="560018" />
	</node>
	<node lat="65.27237508241367" lon="12.680854089038597" id="-9897">
		<tag k="alt_name" v="Torbergskogen" />
		<tag k="fixme" v="consider place=hamlet" />
		<tag k="name" v="Sørenskog" />
		<tag k="place" v="farm" />
		<tag k="ssr:stedsnr" v="560123" />
	</node>
	<node lat="65.28786111489396" lon="12.596650009433157" id="-9899">
		<tag k="fixme" v="consider place=hamlet" />
		<tag k="name" v="Vassbygda" />
		<tag k="place" v="village" />
		<tag k="ssr:stedsnr" v="560213" />
	</node>
	<node lat="65.46259412420497" lon="12.151240018316223" id="-9905">
		<tag k="fixme" v="consider place=hamlet" />
		<tag k="name" v="Nordhus" />
		<tag k="place" v="farm" />
		<tag k="ssr:stedsnr" v="560082" />
	</node>
	<node lat="65.3140583318997" lon="12.631200000394042" id="-9911">
		<tag k="alt_name" v="Fossmo" />
		<tag k="name" v="Fossmoen" />
		<tag k="place" v="farm" />
		<tag k="ssr:stedsnr" v="560275" />
	</node>
	<node lat="65.48075277888101" lon="12.629138887773228" id="-9912">
		<tag k="alt_name" v="Kvitnes" />
		<tag k="name" v="Kvitneset" />
		<tag k="place" v="farm" />
		<tag k="ssr:stedsnr" v="560276" />
	</node>
	<node lat="65.26359437453918" lon="12.60778545957513" id="-9919">
		<tag k="name" v="Votnan" />
		<tag k="place" v="farm" />
		<tag k="ssr:stedsnr" v="561141" />
	</node>
	<node lat="65.47691388451209" lon="12.755975002221552" id="-9932">
		<tag k="name" v="Langåsen" />
		<tag k="place" v="locality" />
		<tag k="ssr:stedsnr" v="561174" />
	</node>
	<node lat="65.46109166243254" lon="12.774494451404486" id="-9933">
		<tag k="fixme" v="consider place=hamlet" />
		<tag k="name" v="Børiøyra" />
		<tag k="place" v="farm" />
		<tag k="ssr:stedsnr" v="561178" />
	</node>
	<node lat="65.58833519985704" lon="12.569839033451785" id="-9943">
		<tag k="alt_name" v="Storfjord" />
		<tag k="fixme" v="consider place=hamlet" />
		<tag k="name" v="Storfjorden" />
		<tag k="place" v="farm" />
		<tag k="ssr:stedsnr" v="561884" />
	</node>
	<node lat="65.57765000412664" lon="12.29825833602957" id="-9944">
		<tag k="name" v="Sjøgård" />
		<tag k="place" v="farm" />
		<tag k="ssr:stedsnr" v="561885" />
	</node>
	<node lat="65.56355277820036" lon="12.549036114236191" id="-9952">
		<tag k="name" v="Myra" />
		<tag k="place" v="locality" />
		<tag k="ssr:stedsnr" v="561994" />
	</node>
	<node lat="65.52204999900404" lon="12.273952770070174" id="-9957">
		<tag k="fixme" v="consider place=hamlet" />
		<tag k="name" v="Tilrem" />
		<tag k="place" v="farm" />
		<tag k="ssr:stedsnr" v="561942" />
	</node>
	<node lat="65.54701666487324" lon="12.550633328734792" id="-9960">
		<tag k="name" v="Almlia" />
		<tag k="place" v="locality" />
		<tag k="ssr:stedsnr" v="561965" />
	</node>
	<node lat="65.51575833349372" lon="12.524875005619528" id="-9973">
		<tag k="name" v="Birkelund" />
		<tag k="place" v="farm" />
		<tag k="ssr:stedsnr" v="599093" />
	</node>
	<node lat="65.4975000043385" lon="12.262866672717431" id="-9977">
		<tag k="name" v="Røytgården" />
		<tag k="place" v="farm" />
		<tag k="ssr:stedsnr" v="599233" />
	</node>
	<node lat="65.29238889324185" lon="12.656486110575996" id="-10037">
		<tag k="name" v="Steinhaug" />
		<tag k="place" v="farm" />
		<tag k="ssr:stedsnr" v="602830" />
	</node>
	<node lat="65.43330277352851" lon="12.627697226099649" id="-10070">
		<tag k="alt_name" v="Østre Nes" />
		<tag k="loc_name" v="Austerneset" />
		<tag k="name" v="Austreneset" />
		<tag k="place" v="farm" />
		<tag k="ssr:stedsnr" v="621391" />
	</node>
	<node lat="65.47479444563697" lon="12.086080551705493" id="-10085">
		<tag k="name" v="Gjerdet" />
		<tag k="place" v="farm" />
		<tag k="ssr:stedsnr" v="621063" />
	</node>
	<node lat="65.36763333202154" lon="12.546211111302815" id="-10092">
		<tag k="fixme" v="consider place=hamlet" />
		<tag k="loc_name" v="Næbåsen" />
		<tag k="name" v="Nebbåsen" />
		<tag k="place" v="farm" />
		<tag k="ssr:stedsnr" v="621347" />
	</node>
	<node lat="65.33157752230585" lon="12.532704827842252" id="-10100">
		<tag k="alt_name" v="Kråen" />
		<tag k="fixme" v="consider place=hamlet" />
		<tag k="name" v="Kråa" />
		<tag k="place" v="farm" />
		<tag k="ssr:stedsnr" v="621261" />
	</node>
	<node lat="65.42444166787222" lon="12.557691666931923" id="-10105">
		<tag k="name" v="Åkervika" />
		<tag k="place" v="farm" />
		<tag k="ssr:stedsnr" v="621397" />
	</node>
	<node lat="65.39342500177654" lon="12.610452787400586" id="-10112">
		<tag k="name" v="Bruaunet" />
		<tag k="place" v="farm" />
		<tag k="ssr:stedsnr" v="621528" />
	</node>
	<node lat="65.55827777662408" lon="12.29597499222528" id="-10119">
		<tag k="alt_name" v="Valberg" />
		<tag k="name" v="Valberget" />
		<tag k="place" v="farm" />
		<tag k="ssr:stedsnr" v="621999" />
	</node>
	<node lat="65.50856389240253" lon="12.32213888052082" id="-10124">
		<tag k="name" v="Bakken" />
		<tag k="place" v="farm" />
		<tag k="ssr:stedsnr" v="622782" />
	</node>
	<node lat="65.49759444848947" lon="12.314841664406032" id="-10137">
		<tag k="name" v="Syltern" />
		<tag k="place" v="farm" />
		<tag k="ssr:stedsnr" v="647745" />
	</node>
	<node lat="65.53230000395746" lon="12.14862500513947" id="-10138">
		<tag k="name" v="Lisslåttøya" />
		<tag k="place" v="farm" />
		<tag k="ssr:stedsnr" v="647754" />
	</node>
	<node lat="65.49563333416566" lon="12.258391669790889" id="-10156">
		<tag k="name" v="Heimstad" />
		<tag k="place" v="farm" />
		<tag k="ssr:stedsnr" v="660254" />
	</node>
	<node lat="65.41545659649165" lon="12.443272769410598" id="-10161">
		<tag k="name" v="Kvernstad" />
		<tag k="place" v="farm" />
		<tag k="ssr:stedsnr" v="660351" />
	</node>
	<node lat="65.38902222283039" lon="12.618283329143546" id="-10203">
		<tag k="name" v="Vonheim" />
		<tag k="place" v="farm" />
		<tag k="ssr:stedsnr" v="663595" />
	</node>
	<node lat="65.39188055897678" lon="12.606008344249217" id="-10204">
		<tag k="name" v="Aasen" />
		<tag k="place" v="farm" />
		<tag k="ssr:stedsnr" v="663598" />
	</node>
	<node lat="65.26922222369846" lon="12.773316656475712" id="-10256">
		<tag k="historic" v="shieling" />
		<tag k="name" v="Landsætran" />
		<tag k="place" v="isolated_dwelling" />
		<tag k="ssr:stedsnr" v="664356" />
	</node>
	<node lat="65.4212305601333" lon="12.547383330112547" id="-10268">
		<tag k="name" v="Hundkjerka" />
		<tag k="place" v="farm" />
		<tag k="ssr:stedsnr" v="665555" />
	</node>
	<node lat="65.4382861133058" lon="12.780227783702584" id="-10269">
		<tag k="loc_name" v="Kolbeinsfjellet;Titingsdalen" />
		<tag k="name" v="Kolbeinfjellet" />
		<tag k="place" v="locality" />
		<tag k="ssr:stedsnr" v="665327" />
	</node>
	<node lat="65.54429167045897" lon="12.251063885268945" id="-10300">
		<tag k="name" v="Westerheim" />
		<tag k="place" v="farm" />
		<tag k="ssr:stedsnr" v="721556" />
	</node>
	<node lat="65.52159489360459" lon="12.253810539102778" id="-10311">
		<tag k="name" v="Tilrem markedsplass" />
		<tag k="place" v="locality" />
		<tag k="ssr:stedsnr" v="722150" />
	</node>
	<node lat="65.50178055934893" lon="12.120811100925167" id="-10321">
		<tag k="name" v="Skjevika" />
		<tag k="place" v="farm" />
		<tag k="ssr:stedsnr" v="722867" />
	</node>
	<node lat="65.26076111468998" lon="12.707202784291994" id="-10330">
		<tag k="name" v="Nordli" />
		<tag k="place" v="isolated_dwelling" />
		<tag k="ssr:stedsnr" v="723244" />
	</node>
	<node lat="65.41156388671597" lon="12.210838889806551" id="-10343">
		<tag k="name" v="Elvemo" />
		<tag k="place" v="farm" />
		<tag k="ssr:stedsnr" v="723716" />
	</node>
	<node lat="65.34001388472429" lon="12.680336114556766" id="-10346">
		<tag k="name" v="Lauvset" />
		<tag k="place" v="farm" />
		<tag k="ssr:stedsnr" v="724134" />
	</node>
	<node lat="65.48430277743027" lon="12.222469454505752" id="-10352">
		<tag k="amenity" v="school" />
		<tag k="name" v="Brønnøy sentralskole" />
		<tag k="ssr:stedsnr" v="724232" />
	</node>
	<node lat="65.4032612543581" lon="12.52749206785332" id="-10361">
		<tag k="name" v="Naustvika" />
		<tag k="place" v="farm" />
		<tag k="ssr:stedsnr" v="724410" />
	</node>
	<node lat="65.37759444232896" lon="12.18564443861982" id="-10366">
		<tag k="name" v="Lilleåsen" />
		<tag k="place" v="farm" />
		<tag k="ssr:stedsnr" v="724779" />
	</node>
	<node lat="65.47271111350099" lon="12.080338882792365" id="-10405">
		<tag k="alt_name" v="Utvik" />
		<tag k="name" v="Utvika" />
		<tag k="place" v="farm" />
		<tag k="ssr:stedsnr" v="742069" />
	</node>
	<node lat="65.4776472224266" lon="12.166105558733303" id="-10406">
		<tag k="alt_name" v="Sjåvik" />
		<tag k="name" v="Skjåvika" />
		<tag k="place" v="farm" />
		<tag k="ssr:stedsnr" v="742077" />
	</node>
	<node lat="65.37390555426036" lon="12.65214722228328" id="-10420">
		<tag k="alt_name" v="Vatne" />
		<tag k="loc_name" v="Håkaunvatnet" />
		<tag k="name" v="Vatnet" />
		<tag k="place" v="farm" />
		<tag k="ssr:stedsnr" v="743427" />
	</node>
	<node lat="65.49911388739228" lon="12.314469447406605" id="-10421">
		<tag k="name" v="Syltern" />
		<tag k="place" v="farm" />
		<tag k="ssr:stedsnr" v="742254" />
	</node>
	<node lat="65.47148055923856" lon="12.27837777187678" id="-10424">
		<tag k="name" v="Otervika" />
		<tag k="place" v="farm" />
		<tag k="ssr:stedsnr" v="742274" />
	</node>
	<node lat="65.43203888871633" lon="12.61463332787896" id="-10427">
		<tag k="alt_name" v="Råknes" />
		<tag k="name" v="Råkneset" />
		<tag k="place" v="farm" />
		<tag k="ssr:stedsnr" v="742351" />
	</node>
	<node lat="65.42679079122313" lon="12.485656436454613" id="-10428">
		<tag k="fixme" v="consider place=hamlet" />
		<tag k="name" v="Brattås" />
		<tag k="place" v="farm" />
		<tag k="ssr:stedsnr" v="742362" />
	</node>
	<node lat="65.35008266760349" lon="12.478671458939765" id="-10431">
		<tag k="alt_name" v="Krommen" />
		<tag k="fixme" v="consider place=hamlet" />
		<tag k="name" v="Krummen" />
		<tag k="place" v="farm" />
		<tag k="ssr:stedsnr" v="742288" />
	</node>
	<node lat="65.30223611020536" lon="12.874324993526987" id="-10443">
		<tag k="name" v="Kråkhaugen" />
		<tag k="place" v="farm" />
		<tag k="ssr:stedsnr" v="743059" />
	</node>
	<node lat="65.29186595399774" lon="13.05492862419089" id="-10446">
		<tag k="alt_name" v="Tosdal" />
		<tag k="fixme" v="consider place=hamlet" />
		<tag k="name" v="Tosdalen" />
		<tag k="place" v="farm" />
		<tag k="ssr:stedsnr" v="743075" />
	</node>
	<node lat="65.3064583345976" lon="12.511724991829132" id="-10451">
		<tag k="alt_name" v="Kristenli" />
		<tag k="name" v="Kristenlia" />
		<tag k="place" v="locality" />
		<tag k="ssr:stedsnr" v="743343" />
	</node>
	<node lat="65.31371666557345" lon="12.476925005838076" id="-10452">
		<tag k="name" v="Brennmarka" />
		<tag k="place" v="locality" />
		<tag k="ssr:stedsnr" v="743344" />
	</node>
	<node lat="65.40545555667899" lon="12.520827767658856" id="-10456">
		<tag k="name" v="Naustvika" />
		<tag k="place" v="farm" />
		<tag k="ssr:stedsnr" v="743472" />
	</node>
	<node lat="65.26473333295905" lon="12.811772217931717" id="-10463">
		<tag k="fixme" v="multiple name tags, choose one and add the other to alt_name" />
		<tag k="name" v="Hesthagen;Steinjord" />
		<tag k="place" v="farm" />
		<tag k="ssr:stedsnr" v="743997" />
	</node>
	<node lat="65.49209444874215" lon="12.10860278095584" id="-10464">
		<tag k="name" v="Trappen" />
		<tag k="place" v="farm" />
		<tag k="ssr:stedsnr" v="743873" />
	</node>
	<node lat="65.57397222522438" lon="12.30998055519891" id="-10467">
		<tag k="name" v="Åsheim" />
		<tag k="place" v="farm" />
		<tag k="ssr:stedsnr" v="744895" />
	</node>
	<node lat="65.52202221902662" lon="12.273927782993038" id="-10470">
		<tag k="fixme" v="consider place=hamlet" />
		<tag k="name" v="Tilrem" />
		<tag k="place" v="village" />
		<tag k="ssr:stedsnr" v="756827" />
	</node>
	<node lat="65.51654721886655" lon="12.366969453325225" id="-10477">
		<tag k="name" v="Eida" />
		<tag k="place" v="farm" />
		<tag k="ssr:stedsnr" v="769737" />
	</node>
	<node lat="65.43796111538123" lon="12.441361103616998" id="-10483">
		<tag k="name" v="Molund" />
		<tag k="place" v="isolated_dwelling" />
		<tag k="ssr:stedsnr" v="781389" />
	</node>
	<node lat="65.54432222616333" lon="12.262716671930157" id="-10484">
		<tag k="name" v="Nygård" />
		<tag k="place" v="farm" />
		<tag k="ssr:stedsnr" v="781578" />
	</node>
	<node lat="65.32447777526166" lon="12.92254722827155" id="-10496">
		<tag k="name" v="Sætran" />
		<tag k="place" v="isolated_dwelling" />
		<tag k="ssr:stedsnr" v="782128" />
	</node>
	<node lat="65.34088889257295" lon="12.496391669532873" id="-10506">
		<tag k="name" v="Tømnes" />
		<tag k="place" v="isolated_dwelling" />
		<tag k="ssr:stedsnr" v="782481" />
	</node>
	<node lat="65.35062559701441" lon="12.513693722907536" id="-10511">
		<tag k="name" v="Fagernes" />
		<tag k="place" v="farm" />
		<tag k="ssr:stedsnr" v="782524" />
	</node>
	<node lat="65.4122638852921" lon="12.499277777638707" id="-10518">
		<tag k="name" v="Breivik" />
		<tag k="place" v="locality" />
		<tag k="ssr:stedsnr" v="782687" />
	</node>
	<node lat="65.38234166831812" lon="12.22436389492515" id="-10539">
		<tag k="name" v="Solbakken" />
		<tag k="place" v="farm" />
		<tag k="ssr:stedsnr" v="784807" />
	</node>
	<node lat="65.37855000433971" lon="12.19643333465144" id="-10557">
		<tag k="name" v="Løveng" />
		<tag k="place" v="farm" />
		<tag k="ssr:stedsnr" v="785211" />
	</node>
	<node lat="65.47000833454415" lon="12.203550010068136" id="-10569">
		<tag k="name" v="Torvet" />
		<tag k="place" v="square" />
		<tag k="ssr:stedsnr" v="785495" />
	</node>
	<node lat="65.35878055333569" lon="12.674336120691123" id="-10592">
		<tag k="fixme" v="multiple name tags, choose one and add the other to alt_name" />
		<tag k="name" v="Buåsen;Haugås" />
		<tag k="place" v="farm" />
		<tag k="ssr:stedsnr" v="803325" />
	</node>
	<node lat="65.37915880312373" lon="12.675695056857629" id="-10600">
		<tag k="alt_name" v="Langfjord" />
		<tag k="fixme" v="consider place=hamlet" />
		<tag k="name" v="Langfjorden" />
		<tag k="place" v="farm" />
		<tag k="ssr:stedsnr" v="803383" />
	</node>
	<node lat="65.42121666262872" lon="12.596130545179967" id="-10601">
		<tag k="name" v="Homla" />
		<tag k="place" v="isolated_dwelling" />
		<tag k="ssr:stedsnr" v="803428" />
	</node>
	<node lat="65.41991353418372" lon="12.554284974504554" id="-10605">
		<tag k="fixme" v="consider place=hamlet" />
		<tag k="name" v="Hegge" />
		<tag k="old_name" v="Storhegge;Hegge store" />
		<tag k="place" v="farm" />
		<tag k="ssr:stedsnr" v="803434" />
	</node>
	<node lat="65.33932500031595" lon="12.510402768945957" id="-10606">
		<tag k="alt_name" v="Hongset øvre" />
		<tag k="fixme" v="consider place=hamlet" />
		<tag k="loc_name" v="Øverhongset" />
		<tag k="name" v="Øvrehongset" />
		<tag k="place" v="farm" />
		<tag k="ssr:stedsnr" v="803354" />
	</node>
	<node lat="65.30334444364058" lon="12.932038889552741" id="-10613">
		<tag k="historic" v="shieling" />
		<tag k="name" v="Tjeldvikseteren" />
		<tag k="place" v="isolated_dwelling" />
		<tag k="ssr:stedsnr" v="804050" />
	</node>
	<node lat="65.4937722256322" lon="12.111791659475188" id="-10616">
		<tag k="alt_name" v="Bugjerd;Budder" />
		<tag k="name" v="Bugjerdet" />
		<tag k="place" v="farm" />
		<tag k="ssr:stedsnr" v="804869" />
	</node>
	<node lat="65.56882777617824" lon="12.304711108186792" id="-10618">
		<tag k="name" v="Åsen" />
		<tag k="place" v="farm" />
		<tag k="ssr:stedsnr" v="804884" />
	</node>
	<node lat="65.46983055726999" lon="12.915441660385817" id="-10622">
		<tag k="fixme" v="consider place=hamlet" />
		<tag k="name" v="Lomsdalen" />
		<tag k="place" v="farm" />
		<tag k="ssr:stedsnr" v="804098" />
	</node>
	<node lat="65.43115151627943" lon="12.441552979810956" id="-10636">
		<tag k="fixme" v="consider place=hamlet" />
		<tag k="name" v="Stranden" />
		<tag k="place" v="farm" />
		<tag k="ssr:stedsnr" v="804495" />
	</node>
	<node lat="65.25993055342572" lon="12.72580832524099" id="-10649">
		<tag k="name" v="Fossheim" />
		<tag k="place" v="farm" />
		<tag k="ssr:stedsnr" v="804999" />
	</node>
	<node lat="65.53567777362075" lon="12.451008340407833" id="-10652">
		<tag k="name" v="Troa" />
		<tag k="place" v="locality" />
		<tag k="ssr:stedsnr" v="804937" />
	</node>
	<node lat="65.51925278044074" lon="12.576608324083912" id="-10653">
		<tag k="alt_name" v="Engelsnes" />
		<tag k="name" v="Engelsneset" />
		<tag k="place" v="farm" />
		<tag k="ssr:stedsnr" v="805785" />
	</node>
	<node lat="65.54353888644373" lon="12.096113899159853" id="-10655">
		<tag k="name" v="Varholmen" />
		<tag k="place" v="farm" />
		<tag k="ssr:stedsnr" v="810977" />
	</node>
	<node lat="65.53596110661364" lon="12.153358341434934" id="-10660">
		<tag k="name" v="Nordslåttøya" />
		<tag k="place" v="farm" />
		<tag k="ssr:stedsnr" v="829730" />
	</node>
	<node lat="65.4375027792916" lon="12.427622223240117" id="-10665">
		<tag k="name" v="Gjerdet" />
		<tag k="place" v="farm" />
		<tag k="ssr:stedsnr" v="842430" />
	</node>
	<node lat="65.39531944169514" lon="12.26678334087151" id="-10714">
		<tag k="name" v="Forsmo" />
		<tag k="place" v="farm" />
		<tag k="ssr:stedsnr" v="844632" />
	</node>
	<node lat="65.35164444187879" lon="12.689458331816475" id="-10721">
		<tag k="name" v="Olderås" />
		<tag k="place" v="isolated_dwelling" />
		<tag k="ssr:stedsnr" v="845146" />
	</node>
	<node lat="65.34883888608196" lon="12.674636111744254" id="-10724">
		<tag k="name" v="Sjåeng" />
		<tag k="place" v="isolated_dwelling" />
		<tag k="ssr:stedsnr" v="845156" />
	</node>
	<node lat="65.37868055183961" lon="12.199219441931309" id="-10725">
		<tag k="name" v="Nybø" />
		<tag k="place" v="farm" />
		<tag k="ssr:stedsnr" v="845824" />
	</node>
	<node lat="65.38193611454093" lon="12.220272228904435" id="-10731">
		<tag k="name" v="Engen" />
		<tag k="place" v="farm" />
		<tag k="ssr:stedsnr" v="845834" />
	</node>
	<node lat="65.34079721854522" lon="12.68929444287848" id="-10744">
		<tag k="name" v="Svartdalen" />
		<tag k="place" v="farm" />
		<tag k="ssr:stedsnr" v="846138" />
	</node>
	<node lat="65.296319440986" lon="12.495774990207028" id="-10780">
		<tag k="name" v="Lisltåmmåslia" />
		<tag k="place" v="locality" />
		<tag k="ssr:stedsnr" v="864221" />
	</node>
	<node lat="65.38093055810785" lon="12.217213889178463" id="-10785">
		<tag k="name" v="Trælnesengan" />
		<tag k="place" v="farm" />
		<tag k="ssr:stedsnr" v="864233" />
	</node>
	<node lat="65.49684745791848" lon="12.252774828139106" id="-10793">
		<tag k="name" v="Aunan" />
		<tag k="place" v="farm" />
		<tag k="ssr:stedsnr" v="864283" />
	</node>
	<node lat="65.38674792224626" lon="12.241495161867098" id="-10802">
		<tag k="alt_name" v="Reinfjord Lille" />
		<tag k="fixme" v="consider place=hamlet" />
		<tag k="name" v="Lislreinfjorden" />
		<tag k="place" v="farm" />
		<tag k="ssr:stedsnr" v="864493" />
	</node>
	<node lat="65.40619444039044" lon="12.536313897273184" id="-10809">
		<tag k="name" v="Krokan" />
		<tag k="place" v="farm" />
		<tag k="ssr:stedsnr" v="864509" />
	</node>
	<node lat="65.38114722246839" lon="12.570133336830816" id="-10813">
		<tag k="name" v="Åsenget" />
		<tag k="place" v="farm" />
		<tag k="ssr:stedsnr" v="864424" />
	</node>
	<node lat="65.3781722196938" lon="12.657511105763144" id="-10819">
		<tag k="alt_name" v="Aspli" />
		<tag k="fixme" v="consider place=hamlet" />
		<tag k="name" v="Asplia" />
		<tag k="place" v="farm" />
		<tag k="ssr:stedsnr" v="864453" />
	</node>
	<node lat="65.37123847230102" lon="12.471714603311025" id="-10823">
		<tag k="fixme" v="consider place=hamlet" />
		<tag k="name" v="Hopen" />
		<tag k="place" v="farm" />
		<tag k="ssr:stedsnr" v="864467" />
	</node>
	<node lat="65.4495194472955" lon="12.335463893219456" id="-10826">
		<tag k="name" v="Veddal" />
		<tag k="place" v="farm" />
		<tag k="ssr:stedsnr" v="864486" />
	</node>
	<node lat="65.43378888568637" lon="12.254100010330813" id="-10831">
		<tag k="fixme" v="consider place=hamlet" />
		<tag k="name" v="Kråknes" />
		<tag k="place" v="farm" />
		<tag k="ssr:stedsnr" v="864538" />
	</node>
	<node lat="65.26252221161712" lon="12.73919511317712" id="-10843">
		<tag k="fixme" v="consider place=hamlet" />
		<tag k="name" v="Barstad" />
		<tag k="place" v="farm" />
		<tag k="ssr:stedsnr" v="865074" />
	</node>
	<node lat="65.46702327778064" lon="12.76103220164823" id="-10852">
		<tag k="fixme" v="consider place=hamlet" />
		<tag k="name" v="Granåsen" />
		<tag k="place" v="farm" />
		<tag k="ssr:stedsnr" v="865207" />
	</node>
	<node lat="65.50244458269266" lon="12.257464318370701" id="-10861">
		<tag k="alt_name" v="Skarås;Skarsås" />
		<tag k="fixme" v="consider place=hamlet" />
		<tag k="name" v="Skardsåsen" />
		<tag k="place" v="farm" />
		<tag k="ssr:stedsnr" v="865791" />
	</node>
	<node lat="65.6047294394492" lon="12.536728001245487" id="-10863">
		<tag k="fixme" v="consider place=hamlet" />
		<tag k="name" v="Klavesmarka" />
		<tag k="place" v="farm" />
		<tag k="ssr:stedsnr" v="865902" />
	</node>
	<node lat="65.52749444542235" lon="12.262808328551088" id="-10872">
		<tag k="name" v="Osbråten" />
		<tag k="place" v="farm" />
		<tag k="ssr:stedsnr" v="865942" />
	</node>
	<node lat="65.51744046750899" lon="12.338249012208117" id="-10875">
		<tag k="name" v="Skåren" />
		<tag k="place" v="farm" />
		<tag k="ssr:stedsnr" v="865946" />
	</node>
	<node lat="65.4921666624957" lon="12.310555556852893" id="-10887">
		<tag k="name" v="Syltern" />
		<tag k="place" v="farm" />
		<tag k="ssr:stedsnr" v="951758" />
	</node>
	<node lat="65.42933333699041" lon="12.439725002121234" id="-10894">
		<tag k="name" v="Sørstrand" />
		<tag k="place" v="farm" />
		<tag k="ssr:stedsnr" v="963449" />
	</node>
	<node lat="65.46625833073787" lon="12.355769445890159" id="-10902">
		<tag k="name" v="Staulan" />
		<tag k="place" v="quarter" />
		<tag k="ssr:stedsnr" v="964431" />
	</node>
	<node lat="65.50353467116386" lon="12.7596484253862" id="-10922">
		<tag k="name" v="Langåssætra" />
		<tag k="place" v="locality" />
		<tag k="ssr:stedsnr" v="964528" />
	</node>
	<node lat="65.46103482263254" lon="12.083700537371653" id="-10938">
		<tag k="name" v="Sør Aunet" />
		<tag k="place" v="locality" />
		<tag k="ssr:stedsnr" v="965268" />
	</node>
	<node lat="65.29535833197654" lon="12.682611118582674" id="-10952">
		<tag k="name" v="Ånes" />
		<tag k="place" v="isolated_dwelling" />
		<tag k="ssr:stedsnr" v="966162" />
	</node>
	<node lat="65.37837500213502" lon="12.209325000665254" id="-10963">
		<tag k="name" v="Opheim" />
		<tag k="place" v="farm" />
		<tag k="ssr:stedsnr" v="966796" />
	</node>
	<node lat="65.38120277700341" lon="12.218069454515438" id="-10964">
		<tag k="name" v="Vold" />
		<tag k="place" v="farm" />
		<tag k="ssr:stedsnr" v="966815" />
	</node>
	<node lat="65.4643916696537" lon="12.183394440780335" id="-10980">
		<tag k="name" v="Sørmarka" />
		<tag k="place" v="locality" />
		<tag k="ssr:stedsnr" v="967850" />
	</node>
	<node lat="65.41177499715079" lon="12.553827772411312" id="-10986">
		<tag k="name" v="Heggdalen" />
		<tag k="place" v="farm" />
		<tag k="ssr:stedsnr" v="968524" />
	</node>
	<node lat="65.48641874830528" lon="12.068102043634921" id="-10996">
		<tag k="fixme" v="consider place=hamlet" />
		<tag k="name" v="Bolværet" />
		<tag k="place" v="farm" />
		<tag k="ssr:stedsnr" v="976999" />
	</node>
	<node lat="65.49590272157998" lon="12.105905308704289" id="-10997">
		<tag k="fixme" v="consider place=hamlet" />
		<tag k="name" v="Stortorgnes" />
		<tag k="place" v="farm" />
		<tag k="ssr:stedsnr" v="977000" />
	</node>
	<node lat="65.49674874422651" lon="12.303343969041801" id="-10998">
		<tag k="fixme" v="consider place=hamlet" />
		<tag k="name" v="Syltern" />
		<tag k="place" v="farm" />
		<tag k="ssr:stedsnr" v="977002" />
	</node>
	<node lat="65.47498331561788" lon="12.352124517017646" id="-10999">
		<tag k="name" v="Skomo" />
		<tag k="place" v="hamlet" />
		<tag k="ssr:stedsnr" v="977005" />
	</node>
	<node lat="65.35893187496913" lon="12.510592733804764" id="-11000">
		<tag k="name" v="Forbergskog" />
		<tag k="place" v="farm" />
		<tag k="ssr:stedsnr" v="977008" />
	</node>
	<node lat="65.408535387959" lon="12.549391899240282" id="-11001">
		<tag k="fixme" v="consider place=hamlet" />
		<tag k="name" v="Hillstad" />
		<tag k="place" v="farm" />
		<tag k="ssr:stedsnr" v="977028" />
	</node>
	<node lat="65.3586510809728" lon="12.60144826089889" id="-11002">
		<tag k="fixme" v="consider place=hamlet" />
		<tag k="name" v="Inner-Rørlia" />
		<tag k="place" v="farm" />
		<tag k="ssr:stedsnr" v="977033" />
	</node>
	<node lat="65.3643498671772" lon="12.592031713588973" id="-11003">
		<tag k="fixme" v="consider place=hamlet" />
		<tag k="name" v="Ytter-Rørlia" />
		<tag k="place" v="farm" />
		<tag k="ssr:stedsnr" v="977034" />
	</node>
	<node lat="65.50145624389737" lon="12.255061856939088" id="-11004">
		<tag k="fixme" v="consider place=hamlet" />
		<tag k="name" v="Mosseim" />
		<tag k="place" v="farm" />
		<tag k="ssr:stedsnr" v="977037" />
	</node>
	<node lat="65.46847374737969" lon="12.360483567534827" id="-11005">
		<tag k="fixme" v="consider place=hamlet" />
		<tag k="name" v="Inner-Skomo" />
		<tag k="place" v="farm" />
		<tag k="ssr:stedsnr" v="977093" />
	</node>
	<node lat="65.36000242771068" lon="12.606096895006244" id="-11006">
		<tag k="name" v="Rørlia" />
		<tag k="place" v="hamlet" />
		<tag k="ssr:stedsnr" v="977116" />
	</node>
	<node lat="65.26160959151136" lon="12.608090935323803" id="-11007">
		<tag k="fixme" v="consider place=hamlet" />
		<tag k="name" v="Votnan" />
		<tag k="place" v="farm" />
		<tag k="ssr:stedsnr" v="977117" />
	</node>
	<node lat="65.35114858864347" lon="12.513411663455013" id="-11008">
		<tag k="name" v="Velfjord camping og hytter" />
		<tag k="ssr:stedsnr" v="988415" />
		<tag k="tourism" v="camp_site" />
	</node>
	<node lat="65.21648917509697" lon="12.728048103368726" id="-11009">
		<tag k="name" v="Langurda" />
		<tag k="place" v="locality" />
		<tag k="ssr:stedsnr" v="989594" />
	</node>
	<node lat="65.48326409873283" lon="12.584227696779097" id="-11010">
		<tag k="name" v="Draugvika" />
		<tag k="place" v="locality" />
		<tag k="ssr:stedsnr" v="989596" />
	</node>
	<node lat="65.56540383037068" lon="12.576795256301805" id="-11011">
		<tag k="name" v="Storvika" />
		<tag k="place" v="locality" />
		<tag k="ssr:stedsnr" v="989598" />
	</node>
	<node lat="65.43878766648442" lon="12.433586138667614" id="-11012">
		<tag k="fixme" v="consider place=hamlet" />
		<tag k="name" v="Nordsætra" />
		<tag k="place" v="farm" />
		<tag k="ssr:stedsnr" v="989604" />
	</node>
	<node lat="65.41914522737905" lon="12.575036266733933" id="-11014">
		<tag k="alt_name" v="Flagholmen" />
		<tag k="fixme" v="consider place=hamlet" />
		<tag k="name" v="Holmen" />
		<tag k="place" v="farm" />
		<tag k="ssr:stedsnr" v="989611" />
	</node>
	<node lat="65.45655135348257" lon="12.556924144128041" id="-11015">
		<tag k="fixme" v="consider place=hamlet" />
		<tag k="name" v="Mortenøya" />
		<tag k="place" v="farm" />
		<tag k="ssr:stedsnr" v="989612" />
	</node>
	<node lat="65.43781148792897" lon="12.586680969669661" id="-11016">
		<tag k="alt_name" v="Nævernes" />
		<tag k="fixme" v="consider place=hamlet" />
		<tag k="name" v="Nevernes" />
		<tag k="place" v="farm" />
		<tag k="ssr:stedsnr" v="989613" />
	</node>
	<node lat="65.43857001992947" lon="12.222030452667331" id="-11017">
		<tag k="alt_name" v="Svenøy" />
		<tag k="fixme" v="consider place=hamlet" />
		<tag k="name" v="Svennøya" />
		<tag k="place" v="farm" />
		<tag k="ssr:stedsnr" v="989617" />
	</node>
	<node lat="65.40059191647468" lon="12.025966318765434" id="-11018">
		<tag k="name" v="Helløya" />
		<tag k="place" v="locality" />
		<tag k="ssr:stedsnr" v="989622" />
	</node>
	<node lat="65.4670383455139" lon="12.132785410230717" id="-11019">
		<tag k="fixme" v="consider place=hamlet" />
		<tag k="name" v="Toft" />
		<tag k="place" v="farm" />
		<tag k="ssr:stedsnr" v="989623" />
	</node>
	<node lat="65.49092889553894" lon="12.229305984858344" id="-11020">
		<tag k="fixme" v="consider place=hamlet" />
		<tag k="name" v="Salhus" />
		<tag k="place" v="farm" />
		<tag k="ssr:stedsnr" v="989624" />
	</node>
</osm>
