<?xml version="1.0" encoding="UTF-8"?>
<osm version="0.6" generator="osmapis">
	<node lat="63.79411944250173" lon="10.93602778712891" id="-98924">
		<tag k="historic" v="shieling" />
		<tag k="name" v="Nordseteren" />
		<tag k="place" v="locality" />
		<tag k="ssr:stedsnr" v="25480" />
	</node>
	<node lat="63.81299722003135" lon="10.942758335559727" id="-98929">
		<tag k="name" v="Geitmyra" />
		<tag k="natural" v="wetland" />
		<tag k="ssr:stedsnr" v="25594" />
	</node>
	<node lat="63.80999999900184" lon="10.95211110734329" id="-98930">
		<tag k="name" v="Madsmyrin" />
		<tag k="natural" v="wetland" />
		<tag k="ssr:stedsnr" v="25597" />
	</node>
	<node lat="63.80804444541882" lon="10.928036106668525" id="-98931">
		<tag k="name" v="Setermyra" />
		<tag k="natural" v="wetland" />
		<tag k="ssr:stedsnr" v="25601" />
	</node>
	<node lat="63.81550278013591" lon="10.708524995625767" id="-98954">
		<tag k="name" v="Slettet" />
		<tag k="natural" v="wetland" />
		<tag k="ssr:stedsnr" v="47379" />
	</node>
	<node lat="63.85690000389014" lon="10.892008328067092" id="-98955">
		<tag k="name" v="Aslakmyra" />
		<tag k="natural" v="wetland" />
		<tag k="ssr:stedsnr" v="47603" />
	</node>
	<node lat="63.78848888962753" lon="10.8317666730156" id="-98986">
		<tag k="name" v="Vakkermyra" />
		<tag k="natural" v="wetland" />
		<tag k="ssr:stedsnr" v="75802" />
	</node>
	<node lat="63.78970555284997" lon="10.945961121059655" id="-98994">
		<tag k="name" v="Bolmyra" />
		<tag k="natural" v="wetland" />
		<tag k="ssr:stedsnr" v="86502" />
	</node>
	<node lat="63.797108328909495" lon="10.955205553702816" id="-98997">
		<tag k="name" v="Raudmyra" />
		<tag k="natural" v="wetland" />
		<tag k="ssr:stedsnr" v="86612" />
	</node>
	<node lat="63.7877750014066" lon="10.81072222956109" id="-99020">
		<tag k="name" v="Storhaugmyra" />
		<tag k="natural" v="wetland" />
		<tag k="ssr:stedsnr" v="108475" />
	</node>
	<node lat="63.86165555894241" lon="10.926913896078258" id="-99028">
		<tag k="name" v="Jakobmyra" />
		<tag k="natural" v="wetland" />
		<tag k="ssr:stedsnr" v="109770" />
	</node>
	<node lat="63.866375002148985" lon="10.966733330874925" id="-99029">
		<tag k="name" v="Bjønnamyra" />
		<tag k="natural" v="wetland" />
		<tag k="ssr:stedsnr" v="109776" />
	</node>
	<node lat="63.89481944310968" lon="11.146622225931068" id="-99032">
		<tag k="name" v="Håbergsmyra" />
		<tag k="natural" v="wetland" />
		<tag k="ssr:stedsnr" v="110335" />
	</node>
	<node lat="63.75038889001674" lon="10.934999991193049" id="-99055">
		<tag k="name" v="Stormyra" />
		<tag k="natural" v="wetland" />
		<tag k="ssr:stedsnr" v="146566" />
	</node>
	<node lat="63.88754444556741" lon="10.904013895793348" id="-99066">
		<tag k="name" v="Bolmsetura" />
		<tag k="natural" v="scree" />
		<tag k="ssr:stedsnr" v="149065" />
	</node>
	<node lat="63.85679722609775" lon="10.851205546349926" id="-99078">
		<tag k="name" v="Månmyra" />
		<tag k="natural" v="wetland" />
		<tag k="ssr:stedsnr" v="256696" />
	</node>
	<node lat="63.867989521389774" lon="11.398873129984816" id="-99089">
		<tag k="name" v="Lensmyra" />
		<tag k="natural" v="wetland" />
		<tag k="ssr:stedsnr" v="257169" />
	</node>
	<node lat="63.87618888677272" lon="10.982044454336743" id="-99092">
		<tag k="name" v="Storraudmyra" />
		<tag k="natural" v="wetland" />
		<tag k="ssr:stedsnr" v="257738" />
	</node>
	<node lat="63.87643055856357" lon="10.922808323881695" id="-99093">
		<tag k="name" v="Langmyra" />
		<tag k="natural" v="wetland" />
		<tag k="ssr:stedsnr" v="257739" />
	</node>
	<node lat="63.85305000165344" lon="10.878100001798039" id="-99105">
		<tag k="name" v="Nord-Volldalsmyra" />
		<tag k="natural" v="wetland" />
		<tag k="ssr:stedsnr" v="169603" />
	</node>
	<node lat="63.85662222321559" lon="10.884483336597354" id="-99106">
		<tag k="name" v="Raudmyra" />
		<tag k="natural" v="wetland" />
		<tag k="ssr:stedsnr" v="169605" />
	</node>
	<node lat="63.802500003834055" lon="10.902638883984453" id="-99107">
		<tag k="name" v="Bruraholet" />
		<tag k="natural" v="wetland" />
		<tag k="ssr:stedsnr" v="169513" />
	</node>
	<node lat="63.81732777621109" lon="10.91406110484225" id="-99130">
		<tag k="name" v="Saltmyra" />
		<tag k="natural" v="wetland" />
		<tag k="ssr:stedsnr" v="267428" />
	</node>
	<node lat="63.77520277720193" lon="10.98453332642131" id="-99131">
		<tag k="name" v="Hamnaura" />
		<tag k="natural" v="scree" />
		<tag k="ssr:stedsnr" v="267860" />
	</node>
	<node lat="63.808255554920166" lon="10.934013891638587" id="-99136">
		<tag k="name" v="Elenmyra" />
		<tag k="natural" v="wetland" />
		<tag k="ssr:stedsnr" v="268602" />
	</node>
	<node lat="63.79699166377492" lon="10.950486111956657" id="-99137">
		<tag k="name" v="Slåttmyra" />
		<tag k="natural" v="wetland" />
		<tag k="ssr:stedsnr" v="268606" />
	</node>
	<node lat="63.83600277880317" lon="10.984083324792714" id="-99140">
		<tag k="name" v="Storfurumyra" />
		<tag k="natural" v="wetland" />
		<tag k="ssr:stedsnr" v="208849" />
	</node>
	<node lat="63.86834999656584" lon="11.094405548070018" id="-99141">
		<tag k="name" v="Tavelsmyra" />
		<tag k="natural" v="wetland" />
		<tag k="ssr:stedsnr" v="208776" />
	</node>
	<node lat="63.87576111245433" lon="10.983383342758962" id="-99143">
		<tag k="name" v="Stor-Raudmyra" />
		<tag k="natural" v="wetland" />
		<tag k="ssr:stedsnr" v="208782" />
	</node>
	<node lat="63.87673055566364" lon="10.994641665387853" id="-99146">
		<tag k="name" v="Nord-Grasmyra" />
		<tag k="natural" v="wetland" />
		<tag k="ssr:stedsnr" v="208792" />
	</node>
	<node lat="63.867561115277596" lon="11.020963887588467" id="-99151">
		<tag k="name" v="Lauvstakkmyra" />
		<tag k="natural" v="wetland" />
		<tag k="ssr:stedsnr" v="269798" />
	</node>
	<node lat="63.89149166635602" lon="10.924177772240354" id="-99153">
		<tag k="name" v="Bjørnamyra" />
		<tag k="natural" v="wetland" />
		<tag k="ssr:stedsnr" v="269858" />
	</node>
	<node lat="63.843936109784366" lon="11.318044445803782" id="-99176">
		<tag k="landuse" v="meadow" />
		<tag k="name" v="Litjenget" />
		<tag k="ssr:stedsnr" v="228883" />
	</node>
	<node lat="63.82458889137722" lon="10.824711108406886" id="-99179">
		<tag k="name" v="Lonmyra" />
		<tag k="natural" v="wetland" />
		<tag k="ssr:stedsnr" v="229582" />
	</node>
	<node lat="63.85555833372584" lon="10.942849996339822" id="-99183">
		<tag k="name" v="Tårrymyrin" />
		<tag k="natural" v="wetland" />
		<tag k="ssr:stedsnr" v="230690" />
	</node>
	<node lat="63.757291667793844" lon="10.92459721690591" id="-99195">
		<tag k="name" v="Sagmyra" />
		<tag k="natural" v="wetland" />
		<tag k="ssr:stedsnr" v="450595" />
	</node>
	<node lat="63.87802499711174" lon="10.986044434245185" id="-99202">
		<tag k="name" v="Mastumyra" />
		<tag k="natural" v="wetland" />
		<tag k="ssr:stedsnr" v="451788" />
	</node>
	<node lat="63.87235000117569" lon="10.982674998065512" id="-99203">
		<tag k="name" v="Litjraudmyra" />
		<tag k="natural" v="wetland" />
		<tag k="ssr:stedsnr" v="451799" />
	</node>
	<node lat="63.82955833733923" lon="10.690774994544324" id="-99210">
		<tag k="name" v="Århønmyra" />
		<tag k="natural" v="wetland" />
		<tag k="ssr:stedsnr" v="453035" />
	</node>
	<node lat="63.8231638856318" lon="10.70998889490492" id="-99211">
		<tag k="name" v="Halvgåttmyra" />
		<tag k="natural" v="wetland" />
		<tag k="ssr:stedsnr" v="453040" />
	</node>
	<node lat="63.80914444651923" lon="10.941030546548324" id="-99229">
		<tag k="fixme" v="multiple name tags, choose one and add the other to alt_name" />
		<tag k="name" v="Leiarmyra;Setermyra" />
		<tag k="natural" v="wetland" />
		<tag k="ssr:stedsnr" v="256811" />
	</node>
	<node lat="63.827988889584425" lon="10.956708333407613" id="-99233">
		<tag k="name" v="Nesmyra" />
		<tag k="natural" v="wetland" />
		<tag k="ssr:stedsnr" v="267433" />
	</node>
	<node lat="63.86492777492515" lon="10.922686114494699" id="-99261">
		<tag k="name" v="Bringstadmyra" />
		<tag k="natural" v="wetland" />
		<tag k="ssr:stedsnr" v="291806" />
	</node>
	<node lat="63.802180552817646" lon="10.918661101503456" id="-99297">
		<tag k="alt_name" v="Smedmyrin" />
		<tag k="name" v="Smedmyra" />
		<tag k="natural" v="wetland" />
		<tag k="ssr:stedsnr" v="317816" />
	</node>
	<node lat="63.847222218509465" lon="10.899063890174684" id="-99327">
		<tag k="name" v="Krokbekkmyra" />
		<tag k="natural" v="wetland" />
		<tag k="ssr:stedsnr" v="472591" />
	</node>
	<node lat="63.836394446834525" lon="10.773958327349032" id="-99348">
		<tag k="name" v="Tjønnmyra" />
		<tag k="natural" v="wetland" />
		<tag k="ssr:stedsnr" v="473544" />
	</node>
	<node lat="63.8478416638512" lon="11.174238880218105" id="-99353">
		<tag k="name" v="Litjenget" />
		<tag k="place" v="locality" />
		<tag k="ssr:stedsnr" v="348766" />
	</node>
	<node lat="63.7910722221911" lon="10.801177769188328" id="-99358">
		<tag k="name" v="Bjørkmyra" />
		<tag k="natural" v="wetland" />
		<tag k="ssr:stedsnr" v="351466" />
	</node>
	<node lat="63.84659722260321" lon="11.442350001571127" id="-99367">
		<tag k="name" v="Tjønnmyra" />
		<tag k="natural" v="wetland" />
		<tag k="ssr:stedsnr" v="352760" />
	</node>
	<node lat="63.781902778913164" lon="10.823588887673107" id="-99386">
		<tag k="name" v="Kirkmyra" />
		<tag k="natural" v="wetland" />
		<tag k="ssr:stedsnr" v="378775" />
	</node>
	<node lat="63.86066666784609" lon="11.001058335535511" id="-99396">
		<tag k="name" v="Sørdalsmyra" />
		<tag k="natural" v="wetland" />
		<tag k="ssr:stedsnr" v="390746" />
	</node>
	<node lat="63.88554444665746" lon="11.098566667387134" id="-99414">
		<tag k="name" v="Fuglmyra" />
		<tag k="natural" v="wetland" />
		<tag k="ssr:stedsnr" v="404611" />
	</node>
	<node lat="63.869366663391006" lon="10.953963893912308" id="-99426">
		<tag k="name" v="Karimyra" />
		<tag k="natural" v="wetland" />
		<tag k="ssr:stedsnr" v="411796" />
	</node>
	<node lat="63.847138886914585" lon="11.44878611482753" id="-99435">
		<tag k="name" v="Postmyra" />
		<tag k="natural" v="wetland" />
		<tag k="ssr:stedsnr" v="413787" />
	</node>
	<node lat="63.83098055750721" lon="10.928611105971402" id="-99456">
		<tag k="name" v="Slåttmyra" />
		<tag k="natural" v="wetland" />
		<tag k="ssr:stedsnr" v="450512" />
	</node>
	<node lat="63.828083336044" lon="11.002619437531731" id="-99549">
		<tag k="name" v="Limyra" />
		<tag k="natural" v="wetland" />
		<tag k="ssr:stedsnr" v="511828" />
	</node>
	<node lat="63.85034166988708" lon="10.849869442608052" id="-99574">
		<tag k="name" v="Vasslettet" />
		<tag k="natural" v="wetland" />
		<tag k="ssr:stedsnr" v="533619" />
	</node>
	<node lat="63.80013055359277" lon="10.851263880112667" id="-99575">
		<tag k="name" v="Kumyra" />
		<tag k="natural" v="wetland" />
		<tag k="ssr:stedsnr" v="533516" />
	</node>
	<node lat="63.86946111455548" lon="10.884455553879873" id="-99577">
		<tag k="name" v="Snaumyra" />
		<tag k="natural" v="wetland" />
		<tag k="ssr:stedsnr" v="533809" />
	</node>
	<node lat="63.85865833304075" lon="10.957452785031863" id="-99581">
		<tag k="name" v="Bjelkmyrin" />
		<tag k="natural" v="wetland" />
		<tag k="ssr:stedsnr" v="533775" />
	</node>
	<node lat="63.86635833573721" lon="10.9115305533614" id="-99584">
		<tag k="name" v="Langmyra" />
		<tag k="natural" v="wetland" />
		<tag k="ssr:stedsnr" v="533782" />
	</node>
	<node lat="63.788330555070075" lon="10.964061113280396" id="-99610">
		<tag k="name" v="Dammyra" />
		<tag k="natural" v="wetland" />
		<tag k="ssr:stedsnr" v="692453" />
	</node>
	<node lat="63.83480833186299" lon="10.934266669411208" id="-99611">
		<tag k="name" v="Bjørkmyra" />
		<tag k="natural" v="wetland" />
		<tag k="ssr:stedsnr" v="692460" />
	</node>
	<node lat="63.78031388733993" lon="10.953208324671484" id="-99612">
		<tag k="name" v="Holbekkmyra" />
		<tag k="natural" v="wetland" />
		<tag k="ssr:stedsnr" v="692461" />
	</node>
	<node lat="63.75575833323454" lon="10.937652779439144" id="-99613">
		<tag k="name" v="Trosetstormyra" />
		<tag k="natural" v="wetland" />
		<tag k="ssr:stedsnr" v="692540" />
	</node>
	<node lat="63.815483328848316" lon="10.961502781512007" id="-99614">
		<tag k="name" v="Limyra" />
		<tag k="natural" v="wetland" />
		<tag k="ssr:stedsnr" v="692563" />
	</node>
	<node lat="63.825608331168525" lon="10.914069446799722" id="-99617">
		<tag k="name" v="Langmyra" />
		<tag k="natural" v="wetland" />
		<tag k="ssr:stedsnr" v="571504" />
	</node>
	<node lat="63.879922225212816" lon="11.091347221423462" id="-99618">
		<tag k="loc_name" v="Bjørnamyra" />
		<tag k="name" v="Bjønnamyra" />
		<tag k="natural" v="wetland" />
		<tag k="ssr:stedsnr" v="693760" />
	</node>
	<node lat="63.84095833274777" lon="11.046108325269902" id="-99619">
		<tag k="name" v="Torvmyra" />
		<tag k="natural" v="wetland" />
		<tag k="ssr:stedsnr" v="572856" />
	</node>
	<node lat="63.833469446885275" lon="11.00982221316666" id="-99620">
		<tag k="name" v="Langmyra" />
		<tag k="natural" v="wetland" />
		<tag k="ssr:stedsnr" v="572859" />
	</node>
	<node lat="63.84947222013348" lon="10.967072227455445" id="-99642">
		<tag k="landuse" v="quarry" />
		<tag k="name" v="Neverbrottet" />
		<tag k="ssr:stedsnr" v="593703" />
	</node>
	<node lat="63.85147222544786" lon="10.963491667491594" id="-99644">
		<tag k="name" v="Syttentjønnmyra" />
		<tag k="natural" v="wetland" />
		<tag k="ssr:stedsnr" v="594704" />
	</node>
	<node lat="63.8146111108382" lon="10.861236111201654" id="-99658">
		<tag k="name" v="Stormyra" />
		<tag k="natural" v="wetland" />
		<tag k="ssr:stedsnr" v="620829" />
	</node>
	<node lat="63.82686111498352" lon="10.944455560867395" id="-99667">
		<tag k="name" v="Memyrin" />
		<tag k="natural" v="wetland" />
		<tag k="ssr:stedsnr" v="631481" />
	</node>
	<node lat="63.804697223143705" lon="10.840913882714341" id="-99696">
		<tag k="name" v="Bosmarmyra" />
		<tag k="natural" v="wetland" />
		<tag k="ssr:stedsnr" v="654444" />
	</node>
	<node lat="63.86685555288542" lon="10.934355545532213" id="-99698">
		<tag k="name" v="Rotmyra" />
		<tag k="natural" v="wetland" />
		<tag k="ssr:stedsnr" v="654806" />
	</node>
	<node lat="63.85536944659241" lon="10.97151667157013" id="-99700">
		<tag k="name" v="Bløktmyrin" />
		<tag k="natural" v="wetland" />
		<tag k="ssr:stedsnr" v="654740" />
	</node>
	<node lat="63.809391666762345" lon="10.664416668766144" id="-99763">
		<tag k="name" v="Kasperslettet" />
		<tag k="natural" v="wetland" />
		<tag k="ssr:stedsnr" v="897364" />
	</node>
	<node lat="63.856508330444" lon="10.949344435331774" id="-99774">
		<tag k="name" v="Merraholmyra" />
		<tag k="natural" v="wetland" />
		<tag k="ssr:stedsnr" v="898725" />
	</node>
	<node lat="63.863844443536586" lon="10.868049999789944" id="-99783">
		<tag k="name" v="Tjurumyra" />
		<tag k="natural" v="wetland" />
		<tag k="ssr:stedsnr" v="898788" />
	</node>
	<node lat="63.864005558753696" lon="10.913363889859015" id="-99784">
		<tag k="name" v="Kringelmyra" />
		<tag k="natural" v="wetland" />
		<tag k="ssr:stedsnr" v="898797" />
	</node>
	<node lat="63.867436110641684" lon="10.975163880413033" id="-99787">
		<tag k="name" v="Marimyrin" />
		<tag k="natural" v="wetland" />
		<tag k="ssr:stedsnr" v="715803" />
	</node>
	<node lat="63.95048055382559" lon="11.290986112664207" id="-99797">
		<tag k="name" v="Venåsmyra" />
		<tag k="natural" v="wetland" />
		<tag k="ssr:stedsnr" v="899189" />
	</node>
	<node lat="63.93802500303227" lon="11.26673333907618" id="-99813">
		<tag k="name" v="Langmyra" />
		<tag k="natural" v="wetland" />
		<tag k="ssr:stedsnr" v="742042" />
	</node>
	<node lat="63.81103055809126" lon="10.928777773766402" id="-99836">
		<tag k="name" v="Langmoltmyra" />
		<tag k="natural" v="wetland" />
		<tag k="ssr:stedsnr" v="753566" />
	</node>
	<node lat="63.92361666240782" lon="11.308886101679862" id="-99867">
		<tag k="name" v="Tømtåsmyra" />
		<tag k="natural" v="wetland" />
		<tag k="ssr:stedsnr" v="787299" />
	</node>
	<node lat="63.78639721991671" lon="10.89779722710589" id="-99881">
		<tag k="name" v="Slåttmyra" />
		<tag k="natural" v="wetland" />
		<tag k="ssr:stedsnr" v="803813" />
	</node>
	<node lat="63.85491111361691" lon="10.961013895944768" id="-99930">
		<tag k="name" v="Stuttingsmyra" />
		<tag k="natural" v="wetland" />
		<tag k="ssr:stedsnr" v="924632" />
	</node>
	<node lat="63.8678083305928" lon="10.920633328194445" id="-99938">
		<tag k="alt_name" v="Andersmyrin" />
		<tag k="name" v="Andersmyra" />
		<tag k="natural" v="wetland" />
		<tag k="ssr:stedsnr" v="924700" />
	</node>
	<node lat="63.8150277821205" lon="10.948074994560663" id="-99961">
		<tag k="name" v="Røymyra" />
		<tag k="natural" v="wetland" />
		<tag k="ssr:stedsnr" v="875582" />
	</node>
	<node lat="63.89342777721534" lon="10.923025000059104" id="-99962">
		<tag k="name" v="Kistura" />
		<tag k="natural" v="scree" />
		<tag k="ssr:stedsnr" v="875812" />
	</node>
	<node lat="63.841263884823476" lon="10.952308327647682" id="-99986">
		<tag k="name" v="Høgfosslettet" />
		<tag k="natural" v="wetland" />
		<tag k="ssr:stedsnr" v="898764" />
	</node>
	<node lat="63.88594166613251" lon="11.139377768839259" id="-100001">
		<tag k="name" v="Stormyra" />
		<tag k="natural" v="wetland" />
		<tag k="ssr:stedsnr" v="924512" />
	</node>
	<node lat="63.87833055674413" lon="10.912980545949264" id="-100015">
		<tag k="name" v="Hevelmyra" />
		<tag k="natural" v="wetland" />
		<tag k="ssr:stedsnr" v="924680" />
	</node>
	<node lat="63.87930833004729" lon="10.97836110323504" id="-100024">
		<tag k="name" v="Jongråsmyra" />
		<tag k="natural" v="wetland" />
		<tag k="ssr:stedsnr" v="936738" />
	</node>
	<node lat="63.8615749968405" lon="11.122402768930161" id="-100041">
		<tag k="loc_name" v="Hotjønnmyra" />
		<tag k="name" v="Langjakelmyra" />
		<tag k="natural" v="wetland" />
		<tag k="ssr:stedsnr" v="956655" />
	</node>
	<node lat="63.75603055451993" lon="10.88694444158467" id="-100044">
		<tag k="name" v="Traugmyrin" />
		<tag k="natural" v="wetland" />
		<tag k="ssr:stedsnr" v="957394" />
	</node>
	<node lat="63.776238887224885" lon="10.83282778328588" id="-100048">
		<tag k="name" v="Buslettet" />
		<tag k="natural" v="wetland" />
		<tag k="ssr:stedsnr" v="958492" />
	</node>
	<node lat="63.847372219242644" lon="10.851380559029497" id="-100049">
		<tag k="name" v="Stormånen" />
		<tag k="natural" v="wetland" />
		<tag k="ssr:stedsnr" v="958619" />
	</node>
	<node lat="63.85442778104812" lon="11.00072499803844" id="-100050">
		<tag k="name" v="Tjuruverkmyra" />
		<tag k="natural" v="wetland" />
		<tag k="ssr:stedsnr" v="958796" />
	</node>
	<node lat="63.804713889766354" lon="10.936786112104889" id="-100101">
		<tag k="name" v="Slåttmyra" />
		<tag k="natural" v="wetland" />
		<tag k="ssr:stedsnr" v="14826" />
	</node>
	<node lat="63.79048333292283" lon="10.81598055377574" id="-100104">
		<tag k="name" v="Setermyra" />
		<tag k="natural" v="wetland" />
		<tag k="ssr:stedsnr" v="14848" />
	</node>
	<node lat="63.80021666902788" lon="10.985169438605302" id="-100111">
		<tag k="name" v="Sundsetmyra" />
		<tag k="natural" v="wetland" />
		<tag k="ssr:stedsnr" v="25850" />
	</node>
	<node lat="63.86333055235927" lon="11.018574998993666" id="-100116">
		<tag k="name" v="Furumyra" />
		<tag k="natural" v="wetland" />
		<tag k="ssr:stedsnr" v="26741" />
	</node>
	<node lat="63.862452780144125" lon="10.998922232147255" id="-100117">
		<tag k="name" v="Slåttamyra" />
		<tag k="natural" v="wetland" />
		<tag k="ssr:stedsnr" v="26742" />
	</node>
	<node lat="63.86663055279393" lon="10.887755553053367" id="-100160">
		<tag k="name" v="Nordslettet" />
		<tag k="natural" v="wetland" />
		<tag k="ssr:stedsnr" v="48785" />
	</node>
	<node lat="63.84655555223315" lon="11.426980550094221" id="-100161">
		<tag k="name" v="Stormyra" />
		<tag k="natural" v="wetland" />
		<tag k="ssr:stedsnr" v="49038" />
	</node>
	<node lat="63.94861666552621" lon="11.297741670075556" id="-100163">
		<tag k="name" v="Hestmyra" />
		<tag k="natural" v="wetland" />
		<tag k="ssr:stedsnr" v="49221" />
	</node>
	<node lat="63.877802774781344" lon="10.987411113424013" id="-100193">
		<tag k="name" v="Masstumyra" />
		<tag k="natural" v="wetland" />
		<tag k="ssr:stedsnr" v="75758" />
	</node>
	<node lat="63.88128611333239" lon="10.928250002937727" id="-100198">
		<tag k="name" v="Vasshevlan" />
		<tag k="natural" v="wetland" />
		<tag k="ssr:stedsnr" v="75746" />
	</node>
	<node lat="63.87014444138947" lon="11.515875003197788" id="-100201">
		<tag k="name" v="Grindbergsmyra" />
		<tag k="natural" v="wetland" />
		<tag k="ssr:stedsnr" v="82528" />
	</node>
	<node lat="63.86864722534555" lon="11.487372222266421" id="-100205">
		<tag k="name" v="Floåsfjellet" />
		<tag k="place" v="locality" />
		<tag k="ssr:stedsnr" v="83949" />
	</node>
	<node lat="63.83674722066242" lon="11.0236222187058" id="-100209">
		<tag k="historic" v="shieling" />
		<tag k="name" v="Grandsetran" />
		<tag k="place" v="locality" />
		<tag k="ssr:stedsnr" v="87843" />
	</node>
	<node lat="63.869513891176965" lon="10.988433332082636" id="-100212">
		<tag k="name" v="Naustmyra" />
		<tag k="natural" v="wetland" />
		<tag k="ssr:stedsnr" v="87780" />
	</node>
	<node lat="63.817944443479675" lon="10.705066661092149" id="-100214">
		<tag k="name" v="Gammelsetermyra" />
		<tag k="natural" v="wetland" />
		<tag k="ssr:stedsnr" v="89039" />
	</node>
	<node lat="63.82616111085524" lon="10.86345000753146" id="-100244">
		<tag k="name" v="Langmyrin" />
		<tag k="natural" v="wetland" />
		<tag k="ssr:stedsnr" v="108737" />
	</node>
	<node lat="63.853416667984526" lon="10.948161118959208" id="-100249">
		<tag k="name" v="Støttingmyra" />
		<tag k="natural" v="wetland" />
		<tag k="ssr:stedsnr" v="109685" />
	</node>
	<node lat="63.847980552860705" lon="10.923988896547767" id="-100250">
		<tag k="name" v="Spellbakkmyra" />
		<tag k="natural" v="wetland" />
		<tag k="ssr:stedsnr" v="109689" />
	</node>
	<node lat="63.86842778210607" lon="10.908127769910365" id="-100252">
		<tag k="name" v="Buamyra" />
		<tag k="natural" v="wetland" />
		<tag k="ssr:stedsnr" v="109740" />
	</node>
	<node lat="63.85691666995067" lon="11.478522228274656" id="-100253">
		<tag k="name" v="Søråsmyra" />
		<tag k="natural" v="wetland" />
		<tag k="ssr:stedsnr" v="109743" />
	</node>
	<node lat="63.87035277854267" lon="10.902199997567402" id="-100254">
		<tag k="name" v="Tromyra" />
		<tag k="natural" v="wetland" />
		<tag k="ssr:stedsnr" v="109761" />
	</node>
	<node lat="63.82685555176183" lon="10.887533337823761" id="-100287">
		<tag k="name" v="Rognåsmyrin" />
		<tag k="natural" v="wetland" />
		<tag k="ssr:stedsnr" v="135648" />
	</node>
	<node lat="63.885475001942964" lon="10.917172216511144" id="-100289">
		<tag k="name" v="Fuglsandan" />
		<tag k="natural" v="wetland" />
		<tag k="ssr:stedsnr" v="135697" />
	</node>
	<node lat="63.82718611258444" lon="11.015174998557368" id="-100316">
		<tag k="name" v="Lauparmyra" />
		<tag k="natural" v="wetland" />
		<tag k="ssr:stedsnr" v="147830" />
	</node>
	<node lat="63.820683333242286" lon="10.699905547395653" id="-100318">
		<tag k="name" v="Sandbekkmyra" />
		<tag k="natural" v="wetland" />
		<tag k="ssr:stedsnr" v="149033" />
	</node>
	<node lat="63.95612778180349" lon="11.317991668171382" id="-100351">
		<tag k="landuse" v="meadow" />
		<tag k="name" v="Rønningen" />
		<tag k="ssr:stedsnr" v="167384" />
	</node>
	<node lat="63.926230552357154" lon="11.211377786518126" id="-100353">
		<tag k="name" v="Oterurda" />
		<tag k="natural" v="scree" />
		<tag k="ssr:stedsnr" v="167635" />
	</node>
	<node lat="63.814319443329964" lon="10.911524994999075" id="-100358">
		<tag k="name" v="Ludvigøra" />
		<tag k="place" v="locality" />
		<tag k="ssr:stedsnr" v="169525" />
	</node>
	<node lat="63.83879167088972" lon="10.919227774221225" id="-100364">
		<tag k="name" v="Sellibudalsholtan" />
		<tag k="natural" v="wetland" />
		<tag k="ssr:stedsnr" v="169767" />
	</node>
	<node lat="63.897686111113444" lon="10.958516671692236" id="-100380">
		<tag k="name" v="Raudmyra" />
		<tag k="natural" v="wetland" />
		<tag k="ssr:stedsnr" v="195541" />
	</node>
	<node lat="63.829394444831266" lon="10.928149994500775" id="-100430">
		<tag k="name" v="Setermyra" />
		<tag k="natural" v="wetland" />
		<tag k="ssr:stedsnr" v="207471" />
	</node>
	<node lat="63.859133330542214" lon="10.914652785979804" id="-100510">
		<tag k="name" v="Snusmonsmyra" />
		<tag k="natural" v="wetland" />
		<tag k="ssr:stedsnr" v="290714" />
	</node>
	<node lat="63.85110555158757" lon="10.950599990739029" id="-100518">
		<tag k="name" v="Fiskløysmyra" />
		<tag k="natural" v="wetland" />
		<tag k="ssr:stedsnr" v="291737" />
	</node>
	<node lat="63.83883888819203" lon="10.936319439601291" id="-100519">
		<tag k="name" v="Stormyra" />
		<tag k="natural" v="wetland" />
		<tag k="ssr:stedsnr" v="291762" />
	</node>
	<node lat="63.78391944146457" lon="10.799566662787928" id="-100542">
		<tag k="name" v="Hestmyra" />
		<tag k="natural" v="wetland" />
		<tag k="ssr:stedsnr" v="317690" />
	</node>
	<node lat="63.86560832923312" lon="11.42994721871269" id="-100554">
		<tag k="name" v="Salbergsmyra" />
		<tag k="place" v="locality" />
		<tag k="ssr:stedsnr" v="326955" />
	</node>
	<node lat="63.871836115289895" lon="11.489513891398637" id="-100555">
		<tag k="name" v="Skardmyra" />
		<tag k="natural" v="wetland" />
		<tag k="ssr:stedsnr" v="326961" />
	</node>
	<node lat="63.7858777743521" lon="10.915213890215522" id="-100559">
		<tag k="historic" v="shieling" />
		<tag k="name" v="Kvennhusseteren" />
		<tag k="place" v="locality" />
		<tag k="ssr:stedsnr" v="328449" />
	</node>
	<node lat="63.83478610791685" lon="10.93946389050388" id="-100560">
		<tag k="name" v="Raudmyra" />
		<tag k="natural" v="wetland" />
		<tag k="ssr:stedsnr" v="328463" />
	</node>
	<node lat="63.81322500078425" lon="10.714819442912592" id="-100590">
		<tag k="name" v="Korsvegmyra" />
		<tag k="natural" v="wetland" />
		<tag k="ssr:stedsnr" v="350335" />
	</node>
	<node lat="63.80722499872303" lon="10.805466659822217" id="-100593">
		<tag k="name" v="Ratåsmyra" />
		<tag k="natural" v="wetland" />
		<tag k="ssr:stedsnr" v="351428" />
	</node>
	<node lat="63.844561109993684" lon="10.975405562207417" id="-100598">
		<tag k="name" v="Nydammyra" />
		<tag k="natural" v="wetland" />
		<tag k="ssr:stedsnr" v="351724" />
	</node>
	<node lat="63.86193055426123" lon="10.860638883423412" id="-100600">
		<tag k="name" v="Skaftamyra" />
		<tag k="natural" v="wetland" />
		<tag k="ssr:stedsnr" v="351791" />
	</node>
	<node lat="63.91269166233937" lon="11.244175009776983" id="-100606">
		<tag k="name" v="Stormyra" />
		<tag k="natural" v="wetland" />
		<tag k="ssr:stedsnr" v="353090" />
	</node>
	<node lat="63.861408330975685" lon="10.984341669590568" id="-100636">
		<tag k="name" v="Stormyra" />
		<tag k="natural" v="wetland" />
		<tag k="ssr:stedsnr" v="377701" />
	</node>
	<node lat="63.82055555781614" lon="10.914644435950425" id="-100659">
		<tag k="historic" v="shieling" />
		<tag k="name" v="Dørgåsseteren" />
		<tag k="place" v="locality" />
		<tag k="ssr:stedsnr" v="389528" />
	</node>
	<node lat="63.87185833379933" lon="11.234038886785967" id="-100674">
		<tag k="name" v="Buabakken" />
		<tag k="place" v="locality" />
		<tag k="ssr:stedsnr" v="403598" />
	</node>
	<node lat="63.835369441162676" lon="10.757438894575994" id="-100716">
		<tag k="name" v="Olaslettet" />
		<tag k="natural" v="wetland" />
		<tag k="ssr:stedsnr" v="412496" />
	</node>
	<node lat="63.858011111092765" lon="10.908972226610569" id="-100717">
		<tag k="name" v="Rotbakkslettet" />
		<tag k="natural" v="wetland" />
		<tag k="ssr:stedsnr" v="412561" />
	</node>
	<node lat="63.86379722240442" lon="10.885358324979377" id="-100728">
		<tag k="name" v="Sørslettet" />
		<tag k="natural" v="wetland" />
		<tag k="ssr:stedsnr" v="412758" />
	</node>
	<node lat="63.86823888997398" lon="10.96864167586777" id="-100729">
		<tag k="name" v="Tjuruhellan" />
		<tag k="natural" v="wetland" />
		<tag k="ssr:stedsnr" v="412762" />
	</node>
	<node lat="63.83240555820506" lon="10.819030554070501" id="-100730">
		<tag k="name" v="Seterslettet" />
		<tag k="natural" v="wetland" />
		<tag k="ssr:stedsnr" v="412531" />
	</node>
	<node lat="63.90439721939567" lon="11.321233337564125" id="-100788">
		<tag k="name" v="Bossnesmarka" />
		<tag k="place" v="locality" />
		<tag k="ssr:stedsnr" v="447126" />
	</node>
	<node lat="63.78733055406913" lon="10.952597228927731" id="-100820">
		<tag k="name" v="Våtmyrin" />
		<tag k="natural" v="wetland" />
		<tag k="ssr:stedsnr" v="510479" />
	</node>
	<node lat="63.836194443989044" lon="10.952086109768683" id="-100824">
		<tag k="historic" v="shieling" />
		<tag k="name" v="Hamstadseteren" />
		<tag k="place" v="locality" />
		<tag k="ssr:stedsnr" v="510496" />
	</node>
	<node lat="63.86113333179502" lon="10.98190555478845" id="-100830">
		<tag k="name" v="Ytter-Gorrmyra" />
		<tag k="natural" v="wetland" />
		<tag k="ssr:stedsnr" v="511724" />
	</node>
	<node lat="63.8358277746235" lon="10.747483336676313" id="-100876">
		<tag k="name" v="Loppslettet" />
		<tag k="natural" v="wetland" />
		<tag k="ssr:stedsnr" v="533544" />
	</node>
	<node lat="63.955319448812425" lon="11.292227773068172" id="-100882">
		<tag k="name" v="Raudmyra" />
		<tag k="natural" v="wetland" />
		<tag k="ssr:stedsnr" v="534221" />
	</node>
	<node lat="63.747883333087195" lon="10.839574998693111" id="-100896">
		<tag k="name" v="Holbekkmyra" />
		<tag k="natural" v="wetland" />
		<tag k="ssr:stedsnr" v="558164" />
	</node>
	<node lat="63.817294442654386" lon="10.948769444708153" id="-100930">
		<tag k="name" v="Prekstolen" />
		<tag k="natural" v="stone" />
		<tag k="ssr:stedsnr" v="570429" />
	</node>
	<node lat="63.82386944079224" lon="10.955102771743112" id="-100932">
		<tag k="name" v="Bjørnamyra" />
		<tag k="natural" v="wetland" />
		<tag k="ssr:stedsnr" v="570435" />
	</node>
	<node lat="63.82414722480716" lon="10.79997221740663" id="-100962">
		<tag k="name" v="Kveldhoggmyra" />
		<tag k="natural" v="wetland" />
		<tag k="ssr:stedsnr" v="593534" />
	</node>
	<node lat="63.94114875480462" lon="11.268525271956506" id="-100983">
		<tag k="alt_name" v="Ersåsen, øvre;Ersås" />
		<tag k="historic" v="shieling" />
		<tag k="name" v="Øvre Ersåsen" />
		<tag k="place" v="locality" />
		<tag k="ssr:stedsnr" v="620051" />
	</node>
	<node lat="63.83967778086198" lon="10.77992778117899" id="-100998">
		<tag k="name" v="Langmyra" />
		<tag k="natural" v="wetland" />
		<tag k="ssr:stedsnr" v="620647" />
	</node>
	<node lat="63.882233335499265" lon="11.209386119642897" id="-101007">
		<tag k="name" v="Raudmyra" />
		<tag k="natural" v="wetland" />
		<tag k="ssr:stedsnr" v="620659" />
	</node>
	<node lat="63.77746111442813" lon="10.971299999065279" id="-101017">
		<tag k="historic" v="shieling" />
		<tag k="name" v="Saltvikseteren" />
		<tag k="place" v="locality" />
		<tag k="ssr:stedsnr" v="631476" />
	</node>
	<node lat="63.76553333545979" lon="10.914074997744628" id="-101019">
		<tag k="name" v="Nydammyra" />
		<tag k="natural" v="wetland" />
		<tag k="ssr:stedsnr" v="631563" />
	</node>
	<node lat="63.769477781062754" lon="10.94688054961703" id="-101020">
		<tag k="historic" v="shieling" />
		<tag k="name" v="Skavlsseteren" />
		<tag k="place" v="locality" />
		<tag k="ssr:stedsnr" v="631566" />
	</node>
	<node lat="63.83593333044137" lon="11.00296111798202" id="-101023">
		<tag k="historic" v="shieling" />
		<tag k="name" v="Sponåssetran" />
		<tag k="place" v="locality" />
		<tag k="ssr:stedsnr" v="632815" />
	</node>
	<node lat="63.90968055481838" lon="11.220386112684213" id="-101050">
		<tag k="name" v="Bølsmyra" />
		<tag k="natural" v="wetland" />
		<tag k="ssr:stedsnr" v="656237" />
	</node>
	<node lat="63.807283337476505" lon="10.825986108850547" id="-101054">
		<tag k="name" v="Raudmyra" />
		<tag k="natural" v="wetland" />
		<tag k="ssr:stedsnr" v="654448" />
	</node>
	<node lat="63.85013889125997" lon="10.904691667229487" id="-101057">
		<tag k="name" v="Tjuruvermyra" />
		<tag k="natural" v="wetland" />
		<tag k="ssr:stedsnr" v="654601" />
	</node>
	<node lat="63.842891670552916" lon="10.925780560242373" id="-101064">
		<tag k="name" v="Litjfossmyra" />
		<tag k="natural" v="wetland" />
		<tag k="ssr:stedsnr" v="654744" />
	</node>
	<node lat="63.81932778132698" lon="10.901772212727115" id="-101065">
		<tag k="name" v="Dørgåsmyra" />
		<tag k="natural" v="wetland" />
		<tag k="ssr:stedsnr" v="654751" />
	</node>
	<node lat="63.84617777393222" lon="11.434452774856885" id="-101073">
		<tag k="name" v="Solemsmyra" />
		<tag k="natural" v="wetland" />
		<tag k="ssr:stedsnr" v="655760" />
	</node>
	<node lat="63.81195277646143" lon="10.806455548557365" id="-101090">
		<tag k="name" v="Langenslettet" />
		<tag k="natural" v="wetland" />
		<tag k="ssr:stedsnr" v="715468" />
	</node>
	<node lat="63.82466666397288" lon="10.751980553288918" id="-101091">
		<tag k="name" v="Holmyra" />
		<tag k="natural" v="wetland" />
		<tag k="ssr:stedsnr" v="715546" />
	</node>
	<node lat="63.80408611017584" lon="10.659213888007626" id="-101093">
		<tag k="name" v="Mortensetermyra" />
		<tag k="natural" v="wetland" />
		<tag k="ssr:stedsnr" v="715402" />
	</node>
	<node lat="63.86411944697657" lon="10.893780547165186" id="-101099">
		<tag k="name" v="Merkesmyra" />
		<tag k="natural" v="wetland" />
		<tag k="ssr:stedsnr" v="715795" />
	</node>
	<node lat="63.87428333325047" lon="10.974147212310472" id="-101100">
		<tag k="name" v="Pålmyra" />
		<tag k="natural" v="wetland" />
		<tag k="ssr:stedsnr" v="715800" />
	</node>
	<node lat="63.878427778244614" lon="11.169577770334005" id="-101138">
		<tag k="name" v="Lomyra" />
		<tag k="natural" v="wetland" />
		<tag k="ssr:stedsnr" v="742678" />
	</node>
	<node lat="63.77875833221365" lon="10.922563889944625" id="-101144">
		<tag k="historic" v="shieling" />
		<tag k="name" v="Stabergseteren" />
		<tag k="place" v="locality" />
		<tag k="ssr:stedsnr" v="753422" />
	</node>
	<node lat="63.791611108984156" lon="10.923069446157353" id="-101145">
		<tag k="name" v="Høgmyra" />
		<tag k="natural" v="wetland" />
		<tag k="ssr:stedsnr" v="753430" />
	</node>
	<node lat="63.828886112643374" lon="10.9307250061849" id="-101146">
		<tag k="historic" v="shieling" />
		<tag k="name" v="Melvollseteren" />
		<tag k="place" v="locality" />
		<tag k="ssr:stedsnr" v="753433" />
	</node>
	<node lat="63.87939166323045" lon="10.97179167045813" id="-101188">
		<tag k="name" v="Jongråsmyra" />
		<tag k="natural" v="wetland" />
		<tag k="ssr:stedsnr" v="775799" />
	</node>
	<node lat="63.87403333542024" lon="10.962772223804878" id="-101189">
		<tag k="name" v="Stoggåsmyra" />
		<tag k="natural" v="wetland" />
		<tag k="ssr:stedsnr" v="775800" />
	</node>
	<node lat="63.87207500327803" lon="10.910977787600727" id="-101195">
		<tag k="name" v="Raudmyra" />
		<tag k="natural" v="wetland" />
		<tag k="ssr:stedsnr" v="776775" />
	</node>
	<node lat="63.85381666533925" lon="11.380155557600286" id="-101199">
		<tag k="name" v="Gavlsmarka" />
		<tag k="place" v="locality" />
		<tag k="ssr:stedsnr" v="777041" />
	</node>
	<node lat="63.83500833599365" lon="10.917577768963806" id="-101244">
		<tag k="historic" v="shieling" />
		<tag k="name" v="Åringseteren" />
		<tag k="place" v="locality" />
		<tag k="ssr:stedsnr" v="814529" />
	</node>
	<node lat="63.84549722240916" lon="11.055113885351807" id="-101245">
		<tag k="alt_name" v="Dukletseteren" />
		<tag k="historic" v="shieling" />
		<tag k="loc_name" v="Dukletsetran" />
		<tag k="name" v="Duklettseteren" />
		<tag k="place" v="locality" />
		<tag k="ssr:stedsnr" v="814867" />
	</node>
	<node lat="63.860433337125606" lon="11.023908341907738" id="-101247">
		<tag k="name" v="Båtsbandmyra" />
		<tag k="natural" v="wetland" />
		<tag k="ssr:stedsnr" v="815761" />
	</node>
	<node lat="63.831061113511744" lon="10.690030558490506" id="-101251">
		<tag k="name" v="Langmyra" />
		<tag k="natural" v="wetland" />
		<tag k="ssr:stedsnr" v="817063" />
	</node>
	<node lat="63.851516664237536" lon="10.878152780798745" id="-101289">
		<tag k="name" v="Sør-Volldalsmyra" />
		<tag k="natural" v="wetland" />
		<tag k="ssr:stedsnr" v="837618" />
	</node>
	<node lat="63.850788893076675" lon="11.369291662634279" id="-101292">
		<tag k="name" v="Flaget" />
		<tag k="place" v="locality" />
		<tag k="ssr:stedsnr" v="838040" />
	</node>
	<node lat="63.87995833243983" lon="11.149411120934293" id="-101326">
		<tag k="name" v="Åsmyra" />
		<tag k="natural" v="wetland" />
		<tag k="ssr:stedsnr" v="864727" />
	</node>
	<node lat="63.78811110942269" lon="10.860502773711099" id="-101329">
		<tag k="name" v="Raudmyra" />
		<tag k="natural" v="wetland" />
		<tag k="ssr:stedsnr" v="864784" />
	</node>
	<node lat="63.81988055266788" lon="10.921936120602645" id="-101341">
		<tag k="name" v="Holbekkemyra" />
		<tag k="natural" v="wetland" />
		<tag k="ssr:stedsnr" v="874501" />
	</node>
	<node lat="63.86296111230131" lon="10.9910361044019" id="-101349">
		<tag k="name" v="Inner-Gorrmyra" />
		<tag k="natural" v="wetland" />
		<tag k="ssr:stedsnr" v="876798" />
	</node>
	<node lat="63.873402775195615" lon="10.9916583329571" id="-101358">
		<tag k="name" v="Sør-Grasmyra" />
		<tag k="natural" v="wetland" />
		<tag k="ssr:stedsnr" v="936753" />
	</node>
	<node lat="63.83431944742027" lon="10.996030555678363" id="-101362">
		<tag k="historic" v="shieling" />
		<tag k="name" v="Lauvbulia" />
		<tag k="place" v="locality" />
		<tag k="ssr:stedsnr" v="936824" />
	</node>
	<node lat="63.79973611200032" lon="10.831558338035299" id="-101387">
		<tag k="name" v="Dammyra" />
		<tag k="natural" v="wetland" />
		<tag k="ssr:stedsnr" v="958457" />
	</node>
	<node lat="63.80250277998532" lon="10.77389445393852" id="-101389">
		<tag k="name" v="Langmyra" />
		<tag k="natural" v="wetland" />
		<tag k="ssr:stedsnr" v="958475" />
	</node>
	<node lat="63.823105556034136" lon="10.756649989917278" id="-101391">
		<tag k="name" v="Kormyra" />
		<tag k="natural" v="wetland" />
		<tag k="ssr:stedsnr" v="958572" />
	</node>
	<node lat="63.860833329696945" lon="10.872916676023431" id="-101396">
		<tag k="name" v="Bærmyra" />
		<tag k="natural" v="wetland" />
		<tag k="ssr:stedsnr" v="958814" />
	</node>
	<node lat="63.84250278096671" lon="11.439316666275909" id="-101398">
		<tag k="name" v="Fuglmyra" />
		<tag k="natural" v="wetland" />
		<tag k="ssr:stedsnr" v="959766" />
	</node>
</osm>
