<?xml version="1.0" encoding="UTF-8"?>
<osm generator="osmapis" version="0.6">
	<node id="-694911" lat="63.7924472184" lon="10.738802779">
		<tag k="bridge" v="yes" />
		<tag k="layer" v="1" />
		<tag k="name" v="Strykbrua" />
		<tag k="ssr:stedsnr" v="714851" />
	</node>
	<node id="-696309" lat="63.8451388915" lon="10.7274277741">
		<tag k="fixme" v="verify maritime location" />
		<tag k="mooring" v="yes" />
		<tag k="name" v="Rasinusstøa" />
		<tag k="place" v="locality" />
		<tag k="ssr:stedsnr" v="817094" />
	</node>
	<node id="-695923" lat="63.9582444463" lon="11.3354444481">
		<tag k="junction" v="yes" />
		<tag k="name" v="Gangstadkorsen" />
		<tag k="place" v="locality" />
		<tag k="ssr:stedsnr" v="438890" />
	</node>
	<node id="-694890" lat="63.8746666688" lon="11.0428166693">
		<tag k="man_made" v="quay" />
		<tag k="name" v="Venneshamn" />
		<tag k="place" v="locality" />
		<tag k="ssr:stedsnr" v="708573" />
	</node>
	<node id="-696159" lat="63.8459499983" lon="11.0953861187">
		<tag k="barrier" v="toll_booth" />
		<tag k="name" v="Skarnsundbrua" />
		<tag k="ssr:stedsnr" v="654597" />
	</node>
	<node id="-694876" lat="63.8682638902" lon="11.212513892">
		<tag k="junction" v="yes" />
		<tag k="name" v="Tømte" />
		<tag k="place" v="locality" />
		<tag k="ssr:stedsnr" v="706648" />
	</node>
	<node id="-696267" lat="63.8210777733" lon="11.016925003">
		<tag k="landuse" v="harbour" />
		<tag k="name" v="Mosvikhamna" />
		<tag k="seamark:type" v="harbour" />
		<tag k="ssr:stedsnr" v="785013" />
	</node>
	<node id="-695879" lat="63.8591472178" lon="10.9809638897">
		<tag k="man_made" v="cairn" />
		<tag k="name" v="Storstein" />
		<tag k="place" v="locality" />
		<tag k="ssr:stedsnr" v="412726" />
	</node>
	<node id="-694337" lat="63.8451888925" lon="11.0905138899">
		<tag k="bridge" v="yes" />
		<tag k="layer" v="1" />
		<tag k="name" v="Vangsbrua" />
		<tag k="ssr:stedsnr" v="109539" />
	</node>
	<node id="-696252" lat="63.8722527817" lon="10.8979194357">
		<tag k="bridge" v="yes" />
		<tag k="layer" v="1" />
		<tag k="name" v="Tverråbrua" />
		<tag k="ssr:stedsnr" v="775839" />
	</node>
	<node id="-696251" lat="63.742991664" lon="10.9262361175">
		<tag k="bridge" v="yes" />
		<tag k="layer" v="1" />
		<tag k="name" v="Sliperbrua" />
		<tag k="ssr:stedsnr" v="775836" />
	</node>
	<node id="-695863" lat="63.8502333341" lon="10.8026250024">
		<tag k="bridge" v="yes" />
		<tag k="layer" v="1" />
		<tag k="name" v="Fossbrua" />
		<tag k="ssr:stedsnr" v="411837" />
	</node>
	<node id="-694579" lat="63.8600611148" lon="11.3990666618">
		<tag k="bridge" v="yes" />
		<tag k="layer" v="1" />
		<tag k="name" v="Skolebrua" />
		<tag k="ssr:stedsnr" v="472569" />
	</node>
	<node id="-695218" lat="63.8724916696" lon="11.2982138879">
		<tag k="bridge" v="yes" />
		<tag k="layer" v="1" />
		<tag k="name" v="Nesbrua" />
		<tag k="ssr:stedsnr" v="898579" />
	</node>
	<node id="-695219" lat="63.9033916675" lon="11.1931527874">
		<tag k="bridge" v="yes" />
		<tag k="layer" v="1" />
		<tag k="name" v="Fossembrua" />
		<tag k="ssr:stedsnr" v="898585" />
	</node>
	<node id="-694960" lat="63.814374996" lon="10.6842638841">
		<tag k="bridge" v="yes" />
		<tag k="layer" v="1" />
		<tag k="name" v="Prestvågvassbrua" />
		<tag k="ssr:stedsnr" v="653853" />
	</node>
	<node id="-695469" lat="63.8189888914" lon="10.878661114">
		<tag k="bridge" v="yes" />
		<tag k="layer" v="1" />
		<tag k="name" v="Prestseterbrua" />
		<tag k="ssr:stedsnr" v="108839" />
	</node>
	<node id="-696491" lat="63.8571932976" lon="11.4014919169">
		<tag k="name" v="Røra stasjon" />
		<tag k="railway" v="station" />
		<tag k="ssr:stedsnr" v="1076232" />
		<tag k="train" v="yes" />
	</node>
	<node id="-694961" lat="63.8521194481" lon="10.8126138813">
		<tag k="bridge" v="yes" />
		<tag k="layer" v="1" />
		<tag k="name" v="Hindbergaunbrua" />
		<tag k="ssr:stedsnr" v="653861" />
	</node>
	<node id="-696347" lat="63.8852055527" lon="11.0051416653">
		<tag k="bridge" v="yes" />
		<tag k="layer" v="1" />
		<tag k="name" v="Hognesbekkbrua" />
		<tag k="ssr:stedsnr" v="836848" />
	</node>
	<node id="-695963" lat="63.8738000002" lon="11.2938194447">
		<tag k="bridge" v="yes" />
		<tag k="layer" v="1" />
		<tag k="name" v="Granabrua" />
		<tag k="ssr:stedsnr" v="533605" />
	</node>
	<node id="-695192" lat="63.8411388927" lon="10.9391611185">
		<tag k="ford" v="yes" />
		<tag k="name" v="Setervaet" />
		<tag k="place" v="locality" />
		<tag k="ssr:stedsnr" v="836767" />
	</node>
	<node id="-695190" lat="63.8985027752" lon="10.9342333382">
		<tag k="fixme" v="verify maritime location" />
		<tag k="mooring" v="yes" />
		<tag k="name" v="Andersstøa" />
		<tag k="place" v="locality" />
		<tag k="ssr:stedsnr" v="936786" />
	</node>
	<node id="-695185" lat="63.8528222244" lon="11.07769444">
		<tag k="alt_name" v="Vangsstøa" />
		<tag k="fixme" v="verify maritime location" />
		<tag k="mooring" v="yes" />
		<tag k="name" v="Støa" />
		<tag k="place" v="locality" />
		<tag k="ssr:stedsnr" v="935862" />
	</node>
	<node id="-694915" lat="63.9623444448" lon="11.3176138942">
		<tag k="bridge" v="yes" />
		<tag k="layer" v="1" />
		<tag k="name" v="Bergengbrua" />
		<tag k="ssr:stedsnr" v="715597" />
	</node>
</osm>
