<?xml version="1.0" encoding="UTF-8"?>
<osm generator="osmapis" version="0.6">
	<node id="-794622" lat="63.8075472211" lon="10.9850472304">
		<tag k="name" v="Sjurlia" />
		<tag k="natural" v="slope" />
		<tag k="place" v="locality" />
		<tag k="ssr:stedsnr" v="207848" />
	</node>
	<node id="-794620" lat="63.7959277812" lon="10.9218305517">
		<tag k="name" v="Nordseterlia" />
		<tag k="natural" v="slope" />
		<tag k="place" v="locality" />
		<tag k="ssr:stedsnr" v="207584" />
	</node>
	<node id="-794618" lat="63.7844555579" lon="10.9536916618">
		<tag k="fixme" v="consider natural=peak for the most distinct mountains in the district" />
		<tag k="name" v="Svartdalshøgda" />
		<tag k="natural" v="hill" />
		<tag k="place" v="locality" />
		<tag k="ssr:stedsnr" v="207456" />
	</node>
	<node id="-794617" lat="63.7760972256" lon="10.9335111154">
		<tag k="fixme" v="consider natural=peak for the most distinct mountains in the district" />
		<tag k="name" v="Fuglleiken" />
		<tag k="natural" v="hill" />
		<tag k="place" v="locality" />
		<tag k="ssr:stedsnr" v="207452" />
	</node>
	<node id="-794615" lat="63.8640194449" lon="11.4747861033">
		<tag k="fixme" v="consider natural=peak for the most distinct mountains in the district" />
		<tag k="name" v="Floåshalla" />
		<tag k="natural" v="hill" />
		<tag k="place" v="locality" />
		<tag k="ssr:stedsnr" v="204968" />
	</node>
	<node id="-794610" lat="63.7830861071" lon="10.952877772">
		<tag k="name" v="Svartdalen" />
		<tag k="natural" v="valley" />
		<tag k="place" v="locality" />
		<tag k="ssr:stedsnr" v="196763" />
	</node>
	<node id="-794609" lat="63.7929388886" lon="10.9284249999">
		<tag k="fixme" v="consider natural=peak for the most distinct mountains in the district" />
		<tag k="name" v="Nordseterlia" />
		<tag k="natural" v="hill" />
		<tag k="place" v="locality" />
		<tag k="ssr:stedsnr" v="196863" />
	</node>
	<node id="-794602" lat="63.8412194477" lon="10.9041138863">
		<tag k="name" v="Heibrottet" />
		<tag k="natural" v="hill" />
		<tag k="place" v="locality" />
		<tag k="ssr:stedsnr" v="196652" />
	</node>
	<node id="-794601" lat="63.8412444425" lon="10.8791305551">
		<tag k="fixme" v="consider natural=peak for the most distinct mountains in the district" />
		<tag k="name" v="Røsheia" />
		<tag k="natural" v="hill" />
		<tag k="place" v="locality" />
		<tag k="ssr:stedsnr" v="196648" />
	</node>
	<node id="-794596" lat="63.8420166699" lon="11.0492555612">
		<tag k="name" v="Buseterdalen" />
		<tag k="natural" v="valley" />
		<tag k="place" v="locality" />
		<tag k="ssr:stedsnr" v="196593" />
	</node>
	<node id="-794579" lat="63.8570222184" lon="10.9134027716">
		<tag k="name" v="Sagslættet" />
		<tag k="place" v="locality" />
		<tag k="ssr:stedsnr" v="195650" />
	</node>
	<node id="-794572" lat="63.9104722193" lon="11.2150416766">
		<tag k="fixme" v="consider natural=peak for the most distinct mountains in the district" />
		<tag k="name" v="Høgkammen" />
		<tag k="natural" v="hill" />
		<tag k="place" v="locality" />
		<tag k="ssr:stedsnr" v="171221" />
	</node>
	<node id="-794571" lat="63.8784111149" lon="11.2549750042">
		<tag k="name" v="Storhaugen" />
		<tag k="natural" v="hill" />
		<tag k="place" v="locality" />
		<tag k="ssr:stedsnr" v="170978" />
	</node>
	<node id="-794565" lat="63.8629861137" lon="10.8548694392">
		<tag k="fixme" v="consider natural=peak for the most distinct mountains in the district" />
		<tag k="name" v="Åsen" />
		<tag k="natural" v="hill" />
		<tag k="place" v="locality" />
		<tag k="ssr:stedsnr" v="169788" />
	</node>
	<node id="-794564" lat="63.8796416655" lon="10.9062888814">
		<tag k="name" v="Styggholet" />
		<tag k="natural" v="valley" />
		<tag k="place" v="locality" />
		<tag k="ssr:stedsnr" v="169787" />
	</node>
	<node id="-794555" lat="63.8067694478" lon="10.8305527859">
		<tag k="name" v="Heståsberga" />
		<tag k="natural" v="hill" />
		<tag k="place" v="locality" />
		<tag k="ssr:stedsnr" v="169440" />
	</node>
	<node id="-794553" lat="63.8296805514" lon="10.8054527868">
		<tag k="name" v="Åltjønndalen" />
		<tag k="natural" v="valley" />
		<tag k="place" v="locality" />
		<tag k="ssr:stedsnr" v="169572" />
	</node>
	<node id="-794526" lat="63.848183333" lon="11.1029055619">
		<tag k="name" v="Ellanhaugen" />
		<tag k="natural" v="hill" />
		<tag k="place" v="locality" />
		<tag k="ssr:stedsnr" v="160064" />
	</node>
	<node id="-794525" lat="63.7632333323" lon="10.9667999994">
		<tag k="name" v="Hammarlirenna" />
		<tag k="natural" v="valley" />
		<tag k="place" v="locality" />
		<tag k="ssr:stedsnr" v="158374" />
	</node>
	<node id="-794521" lat="63.8346388857" lon="11.0151249913">
		<tag k="name" v="Rundtommen" />
		<tag k="natural" v="hill" />
		<tag k="place" v="locality" />
		<tag k="ssr:stedsnr" v="147824" />
	</node>
	<node id="-794516" lat="63.8065222201" lon="10.9811055564">
		<tag k="name" v="Erikdalen" />
		<tag k="natural" v="valley" />
		<tag k="place" v="locality" />
		<tag k="ssr:stedsnr" v="146838" />
	</node>
	<node id="-794515" lat="63.80316111" lon="10.9814444543">
		<tag k="name" v="Sundsethaugen" />
		<tag k="natural" v="hill" />
		<tag k="place" v="locality" />
		<tag k="ssr:stedsnr" v="146831" />
	</node>
	<node id="-794514" lat="63.8003805531" lon="10.9287138902">
		<tag k="fixme" v="consider natural=peak for the most distinct mountains in the district" />
		<tag k="name" v="Lonmyrhalla" />
		<tag k="natural" v="hill" />
		<tag k="place" v="locality" />
		<tag k="ssr:stedsnr" v="146586" />
	</node>
	<node id="-794512" lat="63.8593805519" lon="11.4880000076">
		<tag k="fixme" v="consider natural=peak for the most distinct mountains in the district" />
		<tag k="name" v="Tronesåsen" />
		<tag k="natural" v="hill" />
		<tag k="place" v="locality" />
		<tag k="ssr:stedsnr" v="143959" />
	</node>
	<node id="-794505" lat="63.7965222228" lon="10.9344166614">
		<tag k="name" v="Sjursdalen" />
		<tag k="natural" v="valley" />
		<tag k="place" v="locality" />
		<tag k="ssr:stedsnr" v="135842" />
	</node>
	<node id="-794500" lat="63.8373750002" lon="10.7883000068">
		<tag k="name" v="Tjønnmyrhalla" />
		<tag k="natural" v="hill" />
		<tag k="place" v="locality" />
		<tag k="ssr:stedsnr" v="135667" />
	</node>
	<node id="-794498" lat="63.8239250009" lon="10.9400361062">
		<tag k="fixme" v="consider natural=peak for the most distinct mountains in the district" />
		<tag k="name" v="Brennåsen" />
		<tag k="natural" v="hill" />
		<tag k="place" v="locality" />
		<tag k="ssr:stedsnr" v="135653" />
	</node>
	<node id="-794496" lat="63.8395861117" lon="11.018372224">
		<tag k="fixme" v="consider natural=peak for the most distinct mountains in the district" />
		<tag k="name" v="Storlia" />
		<tag k="natural" v="hill" />
		<tag k="place" v="locality" />
		<tag k="ssr:stedsnr" v="135639" />
	</node>
	<node id="-794485" lat="63.7747805542" lon="10.8161083426">
		<tag k="fixme" v="consider natural=peak for the most distinct mountains in the district" />
		<tag k="name" v="Middagsåsen" />
		<tag k="natural" v="hill" />
		<tag k="place" v="locality" />
		<tag k="ssr:stedsnr" v="134775" />
	</node>
	<node id="-794483" lat="63.8595916648" lon="10.9023055487">
		<tag k="name" v="Storslættet" />
		<tag k="place" v="locality" />
		<tag k="ssr:stedsnr" v="134671" />
	</node>
	<node id="-794469" lat="63.9138694409" lon="11.2653249953">
		<tag k="name" v="Granakammen" />
		<tag k="natural" v="hill" />
		<tag k="place" v="locality" />
		<tag k="ssr:stedsnr" v="110070" />
	</node>
	<node id="-794456" lat="63.8556333311" lon="10.9097305549">
		<tag k="name" v="Rotbakken" />
		<tag k="natural" v="valley" />
		<tag k="place" v="locality" />
		<tag k="ssr:stedsnr" v="108695" />
	</node>
	<node id="-794455" lat="63.8588472252" lon="10.8933222314">
		<tag k="fixme" v="consider natural=peak for the most distinct mountains in the district" />
		<tag k="name" v="Storslettåsen" />
		<tag k="natural" v="hill" />
		<tag k="place" v="locality" />
		<tag k="ssr:stedsnr" v="108693" />
	</node>
	<node id="-794453" lat="63.8365750032" lon="10.8349749927">
		<tag k="name" v="Sunnmøringsdalen" />
		<tag k="natural" v="valley" />
		<tag k="place" v="locality" />
		<tag k="ssr:stedsnr" v="108588" />
	</node>
	<node id="-794451" lat="63.8015361146" lon="10.8661472156">
		<tag k="fixme" v="consider natural=peak for the most distinct mountains in the district" />
		<tag k="name" v="Stallan" />
		<tag k="natural" v="hill" />
		<tag k="place" v="locality" />
		<tag k="ssr:stedsnr" v="108534" />
	</node>
	<node id="-794447" lat="63.8103138881" lon="10.8144277877">
		<tag k="name" v="Vergdalen" />
		<tag k="natural" v="valley" />
		<tag k="place" v="locality" />
		<tag k="ssr:stedsnr" v="108443" />
	</node>
	<node id="-794445" lat="63.7697194481" lon="10.8191805477">
		<tag k="name" v="Bjønnheia" />
		<tag k="natural" v="hill" />
		<tag k="place" v="locality" />
		<tag k="ssr:stedsnr" v="108354" />
	</node>
	<node id="-794444" lat="63.7541027751" lon="10.8403777759">
		<tag k="name" v="Ålvasslia" />
		<tag k="natural" v="slope" />
		<tag k="place" v="locality" />
		<tag k="ssr:stedsnr" v="108352" />
	</node>
	<node id="-794437" lat="63.8250805559" lon="11.0212444426">
		<tag k="name" v="Litjgranddalen" />
		<tag k="natural" v="valley" />
		<tag k="place" v="locality" />
		<tag k="ssr:stedsnr" v="105042" />
	</node>
	<node id="-794435" lat="63.8235833343" lon="10.8484277719">
		<tag k="name" v="Lauvtjønnlia" />
		<tag k="natural" v="slope" />
		<tag k="place" v="locality" />
		<tag k="ssr:stedsnr" v="108754" />
	</node>
	<node id="-794406" lat="63.8335000039" lon="11.0175416709">
		<tag k="fixme" v="consider natural=peak for the most distinct mountains in the district" />
		<tag k="name" v="Høgsvehalla" />
		<tag k="natural" v="hill" />
		<tag k="place" v="locality" />
		<tag k="ssr:stedsnr" v="87852" />
	</node>
	<node id="-794402" lat="63.8270361114" lon="11.0431583338">
		<tag k="name" v="Brekkfallet" />
		<tag k="natural" v="hill" />
		<tag k="place" v="locality" />
		<tag k="ssr:stedsnr" v="87777" />
	</node>
	<node id="-794375" lat="63.773811112" lon="10.8930166736">
		<tag k="name" v="Torsvasslia" />
		<tag k="natural" v="slope" />
		<tag k="place" v="locality" />
		<tag k="ssr:stedsnr" v="74766" />
	</node>
	<node id="-794374" lat="63.7718194431" lon="10.9513888858">
		<tag k="fixme" v="consider natural=peak for the most distinct mountains in the district" />
		<tag k="name" v="Skavlsåsen" />
		<tag k="natural" v="hill" />
		<tag k="place" v="locality" />
		<tag k="ssr:stedsnr" v="74763" />
	</node>
	<node id="-794370" lat="63.8424194427" lon="10.9426111134">
		<tag k="name" v="Hamstadseterlia" />
		<tag k="natural" v="slope" />
		<tag k="place" v="locality" />
		<tag k="ssr:stedsnr" v="74642" />
	</node>
	<node id="-794368" lat="63.8989777773" lon="11.1820888853">
		<tag k="name" v="Storhaugen" />
		<tag k="natural" v="hill" />
		<tag k="place" v="locality" />
		<tag k="ssr:stedsnr" v="74556" />
	</node>
	<node id="-793216" lat="63.7693916636" lon="10.866527771">
		<tag k="name" v="Litjknukdalen" />
		<tag k="natural" v="valley" />
		<tag k="place" v="locality" />
		<tag k="ssr:stedsnr" v="229388" />
	</node>
	<node id="-794356" lat="63.8820083302" lon="11.0959805588">
		<tag k="name" v="Møkkagardshalla" />
		<tag k="natural" v="slope" />
		<tag k="place" v="locality" />
		<tag k="ssr:stedsnr" v="59551" />
	</node>
	<node id="-794351" lat="63.8951388895" lon="11.1157583347">
		<tag k="fixme" v="consider natural=peak for the most distinct mountains in the district" />
		<tag k="name" v="Hoåskammen" />
		<tag k="natural" v="hill" />
		<tag k="place" v="locality" />
		<tag k="ssr:stedsnr" v="49387" />
	</node>
	<node id="-793213" lat="63.8058083346" lon="10.8044888951">
		<tag k="fixme" v="consider natural=peak for the most distinct mountains in the district" />
		<tag k="name" v="Ratåsen" />
		<tag k="natural" v="hill" />
		<tag k="place" v="locality" />
		<tag k="ssr:stedsnr" v="229427" />
	</node>
	<node id="-794345" lat="63.9337277794" lon="11.2498277794">
		<tag k="name" v="Bjønnaspranget" />
		<tag k="natural" v="valley" />
		<tag k="place" v="locality" />
		<tag k="ssr:stedsnr" v="49090" />
	</node>
	<node id="-794344" lat="63.9437722191" lon="11.2791416672">
		<tag k="name" v="Ådalen" />
		<tag k="natural" v="valley" />
		<tag k="place" v="locality" />
		<tag k="ssr:stedsnr" v="49088" />
	</node>
	<node id="-794341" lat="63.872827782" lon="10.9034166604">
		<tag k="name" v="Langslia" />
		<tag k="natural" v="slope" />
		<tag k="place" v="locality" />
		<tag k="ssr:stedsnr" v="48772" />
	</node>
	<node id="-794340" lat="63.8027611072" lon="10.8857555541">
		<tag k="name" v="Røyholet" />
		<tag k="place" v="locality" />
		<tag k="ssr:stedsnr" v="48479" />
	</node>
	<node id="-794338" lat="63.8671027773" lon="10.8736222189">
		<tag k="name" v="Bjønnahaugen" />
		<tag k="natural" v="hill" />
		<tag k="place" v="locality" />
		<tag k="ssr:stedsnr" v="47791" />
	</node>
	<node id="-794334" lat="63.8021777813" lon="10.8403555619">
		<tag k="name" v="Oksholet" />
		<tag k="place" v="locality" />
		<tag k="ssr:stedsnr" v="47445" />
	</node>
	<node id="-794333" lat="63.8578111147" lon="11.1857138964">
		<tag k="name" v="Undersåkerdalen" />
		<tag k="natural" v="valley" />
		<tag k="place" v="locality" />
		<tag k="ssr:stedsnr" v="50441" />
	</node>
	<node id="-794330" lat="63.9080416632" lon="11.1686361055">
		<tag k="name" v="Kvitsteinen" />
		<tag k="natural" v="hill" />
		<tag k="place" v="locality" />
		<tag k="ssr:stedsnr" v="46663" />
	</node>
	<node id="-794307" lat="63.8471388857" lon="10.7381722154">
		<tag k="name" v="Kvalan" />
		<tag k="natural" v="hill" />
		<tag k="place" v="locality" />
		<tag k="ssr:stedsnr" v="28098" />
	</node>
	<node id="-794298" lat="63.8444222188" lon="11.083277782">
		<tag k="name" v="Kjellhåmmåren" />
		<tag k="natural" v="hill" />
		<tag k="place" v="locality" />
		<tag k="ssr:stedsnr" v="26352" />
	</node>
	<node id="-794294" lat="63.7941972189" lon="10.8835361153">
		<tag k="name" v="Dalslia" />
		<tag k="natural" v="slope" />
		<tag k="place" v="locality" />
		<tag k="ssr:stedsnr" v="25607" />
	</node>
	<node id="-794290" lat="63.8153861134" lon="10.9536083308">
		<tag k="name" v="Ålia" />
		<tag k="natural" v="slope" />
		<tag k="place" v="locality" />
		<tag k="ssr:stedsnr" v="25592" />
	</node>
	<node id="-794289" lat="63.8137555578" lon="10.9700388866">
		<tag k="fixme" v="consider natural=peak for the most distinct mountains in the district" />
		<tag k="name" v="Nyenghalla" />
		<tag k="natural" v="hill" />
		<tag k="place" v="locality" />
		<tag k="ssr:stedsnr" v="25591" />
	</node>
	<node id="-794288" lat="63.8138944404" lon="10.9394194501">
		<tag k="name" v="Geitmyrberga" />
		<tag k="natural" v="hill" />
		<tag k="place" v="locality" />
		<tag k="ssr:stedsnr" v="25589" />
	</node>
	<node id="-794286" lat="63.8174888868" lon="10.941433334">
		<tag k="name" v="Elvlia" />
		<tag k="natural" v="slope" />
		<tag k="place" v="locality" />
		<tag k="ssr:stedsnr" v="25495" />
	</node>
	<node id="-794280" lat="63.8023083377" lon="10.782563896">
		<tag k="name" v="Storsletthøgda" />
		<tag k="natural" v="hill" />
		<tag k="place" v="locality" />
		<tag k="ssr:stedsnr" v="14833" />
	</node>
	<node id="-794276" lat="63.7720861133" lon="10.8076388845">
		<tag k="fixme" v="consider natural=peak for the most distinct mountains in the district" />
		<tag k="name" v="Seterkammen" />
		<tag k="natural" v="hill" />
		<tag k="place" v="locality" />
		<tag k="ssr:stedsnr" v="14785" />
	</node>
	<node id="-794271" lat="63.8694194465" lon="11.1003138985">
		<tag k="name" v="Høgklumpen" />
		<tag k="natural" v="hill" />
		<tag k="place" v="locality" />
		<tag k="ssr:stedsnr" v="14691" />
	</node>
	<node id="-794264" lat="63.8699416646" lon="10.9994583378">
		<tag k="alt_name" v="Langdalen" />
		<tag k="name" v="Langsdalen" />
		<tag k="natural" v="valley" />
		<tag k="place" v="locality" />
		<tag k="ssr:stedsnr" v="14653" />
	</node>
	<node id="-794259" lat="63.8470694442" lon="11.0284472217">
		<tag k="name" v="Storlia" />
		<tag k="natural" v="slope" />
		<tag k="place" v="locality" />
		<tag k="ssr:stedsnr" v="14584" />
	</node>
	<node id="-794233" lat="63.8498416645" lon="10.891252785">
		<tag k="name" v="Heiseterdalen" />
		<tag k="natural" v="valley" />
		<tag k="place" v="locality" />
		<tag k="ssr:stedsnr" v="958634" />
	</node>
	<node id="-794232" lat="63.8432833313" lon="10.8774555495">
		<tag k="name" v="Gryta" />
		<tag k="natural" v="valley" />
		<tag k="place" v="locality" />
		<tag k="ssr:stedsnr" v="958628" />
	</node>
	<node id="-794230" lat="63.8222583337" lon="10.7693222246">
		<tag k="name" v="Skansporten" />
		<tag k="natural" v="valley" />
		<tag k="place" v="locality" />
		<tag k="ssr:stedsnr" v="958573" />
	</node>
	<node id="-794218" lat="63.8351166643" lon="11.0294611183">
		<tag k="fixme" v="consider natural=peak for the most distinct mountains in the district" />
		<tag k="name" v="Grønåsan" />
		<tag k="natural" v="hill" />
		<tag k="place" v="locality" />
		<tag k="ssr:stedsnr" v="936819" />
	</node>
	<node id="-794192" lat="63.7992361134" lon="10.8758583263">
		<tag k="alt_name" v="Jobubrenna" />
		<tag k="fixme" v="consider natural=peak for the most distinct mountains in the district" />
		<tag k="name" v="Jobubrennet" />
		<tag k="natural" v="hill" />
		<tag k="place" v="locality" />
		<tag k="ssr:stedsnr" v="863835" />
	</node>
	<node id="-794185" lat="63.8378111108" lon="10.8276638982">
		<tag k="name" v="Hindbergbrennet" />
		<tag k="natural" v="slope" />
		<tag k="place" v="locality" />
		<tag k="ssr:stedsnr" v="837572" />
	</node>
	<node id="-794184" lat="63.8292694487" lon="10.797791673">
		<tag k="fixme" v="consider natural=peak for the most distinct mountains in the district" />
		<tag k="name" v="Åltjønnkammen" />
		<tag k="natural" v="hill" />
		<tag k="place" v="locality" />
		<tag k="ssr:stedsnr" v="837568" />
	</node>
	<node id="-794183" lat="63.7991833307" lon="10.8851861211">
		<tag k="name" v="Bukkhammaren" />
		<tag k="natural" v="hill" />
		<tag k="place" v="locality" />
		<tag k="ssr:stedsnr" v="837506" />
	</node>
	<node id="-794182" lat="63.8035083351" lon="10.882230551">
		<tag k="name" v="Fugelleiken" />
		<tag k="place" v="locality" />
		<tag k="ssr:stedsnr" v="837503" />
	</node>
	<node id="-794167" lat="63.8560081914" lon="11.0466957672">
		<tag k="name" v="Skavdalen" />
		<tag k="natural" v="valley" />
		<tag k="place" v="locality" />
		<tag k="ssr:stedsnr" v="815853" />
	</node>
	<node id="-794163" lat="63.8685388916" lon="11.4797333262">
		<tag k="name" v="Raudflohalla" />
		<tag k="natural" v="hill" />
		<tag k="place" v="locality" />
		<tag k="ssr:stedsnr" v="811953" />
	</node>
	<node id="-794160" lat="63.8101694421" lon="10.7843805541">
		<tag k="name" v="Grøttjønndalen" />
		<tag k="natural" v="valley" />
		<tag k="place" v="locality" />
		<tag k="ssr:stedsnr" v="803818" />
	</node>
	<node id="-794159" lat="63.8383305599" lon="10.8472277772">
		<tag k="fixme" v="consider natural=peak for the most distinct mountains in the district" />
		<tag k="name" v="Bjørnkammen" />
		<tag k="natural" v="hill" />
		<tag k="place" v="locality" />
		<tag k="ssr:stedsnr" v="803814" />
	</node>
	<node id="-794151" lat="63.8609944411" lon="11.5243694512">
		<tag k="fixme" v="consider natural=peak for the most distinct mountains in the district" />
		<tag k="name" v="Marsteinsvola" />
		<tag k="natural" v="hill" />
		<tag k="place" v="locality" />
		<tag k="ssr:stedsnr" v="803166" />
	</node>
	<node id="-794146" lat="63.9444194449" lon="11.2619277842">
		<tag k="name" v="Båtsvollen" />
		<tag k="place" v="locality" />
		<tag k="ssr:stedsnr" v="924904" />
	</node>
	<node id="-794139" lat="63.7898750031" lon="10.9473583371">
		<tag k="fixme" v="consider natural=peak for the most distinct mountains in the district" />
		<tag k="name" v="Sørheia" />
		<tag k="natural" v="hill" />
		<tag k="place" v="locality" />
		<tag k="ssr:stedsnr" v="924848" />
	</node>
	<node id="-794137" lat="63.8832861146" lon="11.2050277854">
		<tag k="fixme" v="consider natural=peak for the most distinct mountains in the district" />
		<tag k="name" v="Høgåsen" />
		<tag k="natural" v="hill" />
		<tag k="place" v="locality" />
		<tag k="ssr:stedsnr" v="924796" />
	</node>
	<node id="-794126" lat="63.8385805534" lon="10.8772999917">
		<tag k="name" v="Solskinshøgda" />
		<tag k="natural" v="hill" />
		<tag k="place" v="locality" />
		<tag k="ssr:stedsnr" v="924659" />
	</node>
	<node id="-794124" lat="63.8309944439" lon="10.7814305545">
		<tag k="fixme" v="consider natural=peak for the most distinct mountains in the district" />
		<tag k="name" v="Fingerbølfjellet" />
		<tag k="natural" v="hill" />
		<tag k="place" v="locality" />
		<tag k="ssr:stedsnr" v="924647" />
	</node>
	<node id="-794123" lat="63.8289972208" lon="10.721788885">
		<tag k="name" v="Dugurdmålhaugen" />
		<tag k="natural" v="hill" />
		<tag k="place" v="locality" />
		<tag k="ssr:stedsnr" v="924642" />
	</node>
	<node id="-794117" lat="63.8480333368" lon="10.8569972222">
		<tag k="name" v="Åringbudalen" />
		<tag k="natural" v="valley" />
		<tag k="place" v="locality" />
		<tag k="ssr:stedsnr" v="924614" />
	</node>
	<node id="-794093" lat="63.7437861094" lon="10.8857583392">
		<tag k="name" v="Holsaglia" />
		<tag k="natural" v="slope" />
		<tag k="place" v="locality" />
		<tag k="ssr:stedsnr" v="923190" />
	</node>
	<node id="-794086" lat="63.7869750036" lon="10.8570666725">
		<tag k="name" v="Skjelingberget" />
		<tag k="natural" v="hill" />
		<tag k="place" v="locality" />
		<tag k="ssr:stedsnr" v="776475" />
	</node>
	<node id="-794085" lat="63.7823083327" lon="10.7964305556">
		<tag k="name" v="Kilsberget" />
		<tag k="natural" v="hill" />
		<tag k="place" v="locality" />
		<tag k="ssr:stedsnr" v="776459" />
	</node>
	<node id="-794084" lat="63.7738833329" lon="10.8011916673">
		<tag k="name" v="Tommerdalen" />
		<tag k="natural" v="valley" />
		<tag k="place" v="locality" />
		<tag k="ssr:stedsnr" v="776458" />
	</node>
	<node id="-794083" lat="63.7808166632" lon="10.8407527761">
		<tag k="name" v="Røvasslia" />
		<tag k="natural" v="slope" />
		<tag k="place" v="locality" />
		<tag k="ssr:stedsnr" v="776454" />
	</node>
	<node id="-794082" lat="63.851280552" lon="10.9303749955">
		<tag k="name" v="Tålåbergskaret" />
		<tag k="natural" v="valley" />
		<tag k="place" v="locality" />
		<tag k="ssr:stedsnr" v="775746" />
	</node>
	<node id="-794063" lat="63.8630750027" lon="11.5048305556">
		<tag k="name" v="Yssedalen" />
		<tag k="natural" v="valley" />
		<tag k="place" v="locality" />
		<tag k="ssr:stedsnr" v="742154" />
	</node>
	<node id="-794057" lat="63.8659611123" lon="10.9445027683">
		<tag k="fixme" v="consider natural=peak for the most distinct mountains in the district" />
		<tag k="name" v="Nonsåsen" />
		<tag k="natural" v="hill" />
		<tag k="place" v="locality" />
		<tag k="ssr:stedsnr" v="741771" />
	</node>
	<node id="-794048" lat="63.8904444457" lon="11.2684361131">
		<tag k="name" v="Skjennhaugen" />
		<tag k="natural" v="hill" />
		<tag k="place" v="locality" />
		<tag k="ssr:stedsnr" v="899119" />
	</node>
	<node id="-794047" lat="63.9310944465" lon="11.2509999903">
		<tag k="name" v="Hoåsen" />
		<tag k="natural" v="hill" />
		<tag k="place" v="locality" />
		<tag k="ssr:stedsnr" v="899081" />
	</node>
	<node id="-794046" lat="63.9403888873" lon="11.2559083418">
		<tag k="name" v="Tempelbrattet" />
		<tag k="natural" v="slope" />
		<tag k="place" v="locality" />
		<tag k="ssr:stedsnr" v="899078" />
	</node>
	<node id="-794041" lat="63.8541250041" lon="10.9938694477">
		<tag k="fixme" v="consider natural=peak for the most distinct mountains in the district" />
		<tag k="name" v="Langvasshøgda" />
		<tag k="natural" v="hill" />
		<tag k="place" v="locality" />
		<tag k="ssr:stedsnr" v="898778" />
	</node>
	<node id="-794040" lat="63.8423194479" lon="11.0090388869">
		<tag k="fixme" v="consider natural=peak for the most distinct mountains in the district" />
		<tag k="name" v="Svintåsen" />
		<tag k="natural" v="hill" />
		<tag k="place" v="locality" />
		<tag k="ssr:stedsnr" v="898771" />
	</node>
	<node id="-794037" lat="63.7790194416" lon="10.9044361072">
		<tag k="name" v="Småheiin" />
		<tag k="natural" v="hill" />
		<tag k="place" v="locality" />
		<tag k="ssr:stedsnr" v="898495" />
	</node>
	<node id="-794034" lat="63.7888416665" lon="10.8565888829">
		<tag k="name" v="Nakkstadseterlia" />
		<tag k="natural" v="slope" />
		<tag k="place" v="locality" />
		<tag k="ssr:stedsnr" v="898481" />
	</node>
	<node id="-794033" lat="63.827283332" lon="10.8203333382">
		<tag k="name" v="Furudalen" />
		<tag k="natural" v="valley" />
		<tag k="place" v="locality" />
		<tag k="ssr:stedsnr" v="897549" />
	</node>
	<node id="-794032" lat="63.8452333342" lon="10.8223472267">
		<tag k="name" v="Storsteindalen" />
		<tag k="natural" v="valley" />
		<tag k="place" v="locality" />
		<tag k="ssr:stedsnr" v="897487" />
	</node>
	<node id="-794027" lat="63.8784111105" lon="10.9079694375">
		<tag k="fixme" v="consider natural=peak for the most distinct mountains in the district" />
		<tag k="name" v="Hevlan" />
		<tag k="natural" v="hill" />
		<tag k="place" v="locality" />
		<tag k="ssr:stedsnr" v="715787" />
	</node>
	<node id="-794026" lat="63.8493000021" lon="11.0211833412">
		<tag k="name" v="Marikåpdalen" />
		<tag k="natural" v="valley" />
		<tag k="place" v="locality" />
		<tag k="ssr:stedsnr" v="715783" />
	</node>
	<node id="-794022" lat="63.7677861078" lon="10.8356527721">
		<tag k="name" v="Litjknuken" />
		<tag k="natural" v="hill" />
		<tag k="place" v="locality" />
		<tag k="ssr:stedsnr" v="715376" />
	</node>
	<node id="-793981" lat="63.8818777774" lon="10.9160611038">
		<tag k="name" v="Bjørnaholet" />
		<tag k="natural" v="valley" />
		<tag k="place" v="locality" />
		<tag k="ssr:stedsnr" v="693810" />
	</node>
	<node id="-793230" lat="63.8946222232" lon="11.1900277815">
		<tag k="name" v="Tronstadhaugen" />
		<tag k="natural" v="hill" />
		<tag k="place" v="locality" />
		<tag k="ssr:stedsnr" v="231347" />
	</node>
	<node id="-793957" lat="63.8551777751" lon="11.1642388864">
		<tag k="name" v="Svartberget" />
		<tag k="natural" v="hill" />
		<tag k="place" v="locality" />
		<tag k="ssr:stedsnr" v="656307" />
	</node>
	<node id="-793955" lat="63.9303305531" lon="11.2637277757">
		<tag k="name" v="Hestberghalla" />
		<tag k="natural" v="hill" />
		<tag k="place" v="locality" />
		<tag k="ssr:stedsnr" v="656062" />
	</node>
	<node id="-793934" lat="63.790427774" lon="10.9557694421">
		<tag k="name" v="Blomåstjønnlia" />
		<tag k="natural" v="slope" />
		<tag k="place" v="locality" />
		<tag k="ssr:stedsnr" v="631464" />
	</node>
	<node id="-793924" lat="63.8397333317" lon="11.1101888832">
		<tag k="name" v="Bjønndalen" />
		<tag k="natural" v="valley" />
		<tag k="place" v="locality" />
		<tag k="ssr:stedsnr" v="717311" />
	</node>
	<node id="-793923" lat="63.8451055553" lon="11.1260749926">
		<tag k="name" v="Dalan" />
		<tag k="natural" v="valley" />
		<tag k="place" v="locality" />
		<tag k="ssr:stedsnr" v="717310" />
	</node>
	<node id="-793920" lat="63.9113611114" lon="11.1928944376">
		<tag k="name" v="Krokaberget" />
		<tag k="natural" v="hill" />
		<tag k="place" v="locality" />
		<tag k="ssr:stedsnr" v="717246" />
	</node>
	<node id="-793914" lat="63.9168472188" lon="11.2658111169">
		<tag k="fixme" v="consider natural=peak for the most distinct mountains in the district" />
		<tag k="name" v="Midtåsen" />
		<tag k="natural" v="hill" />
		<tag k="place" v="locality" />
		<tag k="ssr:stedsnr" v="717068" />
	</node>
	<node id="-793910" lat="63.8756388919" lon="10.9627833384">
		<tag k="name" v="Småtellhaugen" />
		<tag k="natural" v="hill" />
		<tag k="place" v="locality" />
		<tag k="ssr:stedsnr" v="715801" />
	</node>
	<node id="-793906" lat="63.794524997" lon="10.7996666676">
		<tag k="name" v="Blomlia" />
		<tag k="natural" v="slope" />
		<tag k="place" v="locality" />
		<tag k="ssr:stedsnr" v="715494" />
	</node>
	<node id="-793905" lat="63.7959194403" lon="10.7203611059">
		<tag k="fixme" v="consider natural=peak for the most distinct mountains in the district" />
		<tag k="name" v="Furukammen" />
		<tag k="natural" v="hill" />
		<tag k="place" v="locality" />
		<tag k="ssr:stedsnr" v="715483" />
	</node>
	<node id="-793901" lat="63.8133888879" lon="10.8412749993">
		<tag k="name" v="Båtsvikdalen" />
		<tag k="natural" v="valley" />
		<tag k="place" v="locality" />
		<tag k="ssr:stedsnr" v="715464" />
	</node>
	<node id="-793897" lat="63.7633527767" lon="10.886074994">
		<tag k="name" v="Varghidalen" />
		<tag k="natural" v="valley" />
		<tag k="place" v="locality" />
		<tag k="ssr:stedsnr" v="592432" />
	</node>
	<node id="-793853" lat="63.7939694438" lon="10.6724944365">
		<tag k="name" v="Valdskiftdalen" />
		<tag k="natural" v="valley" />
		<tag k="place" v="locality" />
		<tag k="ssr:stedsnr" v="559462" />
	</node>
	<node id="-793842" lat="63.7952111081" lon="10.943855556">
		<tag k="name" v="Steinmyrdalen" />
		<tag k="natural" v="valley" />
		<tag k="place" v="locality" />
		<tag k="ssr:stedsnr" v="692575" />
	</node>
	<node id="-793831" lat="63.8500361099" lon="10.9285166697">
		<tag k="name" v="Rognholet" />
		<tag k="natural" v="valley" />
		<tag k="place" v="locality" />
		<tag k="ssr:stedsnr" v="533771" />
	</node>
	<node id="-793830" lat="63.8315750025" lon="10.8489722272">
		<tag k="name" v="Åringbudalen" />
		<tag k="natural" v="valley" />
		<tag k="place" v="locality" />
		<tag k="ssr:stedsnr" v="533768" />
	</node>
	<node id="-793827" lat="63.8766444455" lon="10.9347944461">
		<tag k="fixme" v="consider natural=peak for the most distinct mountains in the district" />
		<tag k="name" v="Litjbrennåsen" />
		<tag k="natural" v="hill" />
		<tag k="place" v="locality" />
		<tag k="ssr:stedsnr" v="533813" />
	</node>
	<node id="-793822" lat="63.8554777738" lon="11.0944305608">
		<tag k="fixme" v="consider natural=peak for the most distinct mountains in the district" />
		<tag k="name" v="Vangskammen" />
		<tag k="natural" v="hill" />
		<tag k="place" v="locality" />
		<tag k="ssr:stedsnr" v="529025" />
	</node>
	<node id="-793795" lat="63.8606972208" lon="11.5032666582">
		<tag k="name" v="Yssedalen" />
		<tag k="natural" v="valley" />
		<tag k="place" v="locality" />
		<tag k="ssr:stedsnr" v="507702" />
	</node>
	<node id="-793784" lat="63.8210111133" lon="10.9143333355">
		<tag k="fixme" v="consider natural=peak for the most distinct mountains in the district" />
		<tag k="name" v="Dørgåsen" />
		<tag k="natural" v="hill" />
		<tag k="place" v="locality" />
		<tag k="ssr:stedsnr" v="681831" />
	</node>
	<node id="-793774" lat="63.8533194461" lon="10.9278805455">
		<tag k="name" v="Jomfrunakken" />
		<tag k="natural" v="hill" />
		<tag k="place" v="locality" />
		<tag k="ssr:stedsnr" v="681645" />
	</node>
	<node id="-793772" lat="63.8404444441" lon="10.9252111093">
		<tag k="name" v="Holbekkdalen" />
		<tag k="natural" v="valley" />
		<tag k="place" v="locality" />
		<tag k="ssr:stedsnr" v="681692" />
	</node>
	<node id="-793743" lat="63.8011249969" lon="10.950005559">
		<tag k="name" v="Dalslia" />
		<tag k="natural" v="slope" />
		<tag k="place" v="locality" />
		<tag k="ssr:stedsnr" v="483603" />
	</node>
	<node id="-793742" lat="63.7824138858" lon="10.8503722318">
		<tag k="name" v="Brattkneppa" />
		<tag k="natural" v="slope" />
		<tag k="place" v="locality" />
		<tag k="ssr:stedsnr" v="473509" />
	</node>
	<node id="-793720" lat="63.8131027769" lon="10.9980166635">
		<tag k="name" v="Trøahaugen" />
		<tag k="natural" v="hill" />
		<tag k="place" v="locality" />
		<tag k="ssr:stedsnr" v="450813" />
	</node>
	<node id="-793717" lat="63.7963249974" lon="10.943138881">
		<tag k="fixme" v="consider natural=peak for the most distinct mountains in the district" />
		<tag k="name" v="Steinmyrdalsåsen" />
		<tag k="natural" v="hill" />
		<tag k="place" v="locality" />
		<tag k="ssr:stedsnr" v="450623" />
	</node>
	<node id="-793695" lat="63.8889583324" lon="10.9481555626">
		<tag k="name" v="Langdalen" />
		<tag k="natural" v="valley" />
		<tag k="place" v="locality" />
		<tag k="ssr:stedsnr" v="511792" />
	</node>
	<node id="-793692" lat="63.9062694454" lon="11.1257722215">
		<tag k="name" v="Kjerringberga" />
		<tag k="natural" v="hill" />
		<tag k="place" v="locality" />
		<tag k="ssr:stedsnr" v="413316" />
	</node>
	<node id="-793685" lat="63.8065583338" lon="10.9260055513">
		<tag k="fixme" v="consider natural=peak for the most distinct mountains in the district" />
		<tag k="name" v="Kolmilåsen" />
		<tag k="natural" v="hill" />
		<tag k="place" v="locality" />
		<tag k="ssr:stedsnr" v="510623" />
	</node>
	<node id="-793684" lat="63.8077138876" lon="10.9590694485">
		<tag k="fixme" v="consider natural=peak for the most distinct mountains in the district" />
		<tag k="name" v="Bjørnåsan" />
		<tag k="natural" v="hill" />
		<tag k="place" v="locality" />
		<tag k="ssr:stedsnr" v="510618" />
	</node>
	<node id="-793683" lat="63.8100027794" lon="10.9585361096">
		<tag k="name" v="Høgsvedalen" />
		<tag k="natural" v="valley" />
		<tag k="place" v="locality" />
		<tag k="ssr:stedsnr" v="510615" />
	</node>
	<node id="-793682" lat="63.7660638885" lon="10.9258333293">
		<tag k="name" v="Gammelseterlia" />
		<tag k="natural" v="slope" />
		<tag k="place" v="locality" />
		<tag k="ssr:stedsnr" v="510586" />
	</node>
	<node id="-793680" lat="63.8493333307" lon="11.0540861202">
		<tag k="name" v="Staurlia" />
		<tag k="natural" v="slope" />
		<tag k="place" v="locality" />
		<tag k="ssr:stedsnr" v="510887" />
	</node>
	<node id="-793677" lat="63.8237888907" lon="10.9283472275">
		<tag k="name" v="Dørgåsneset" />
		<tag k="place" v="locality" />
		<tag k="ssr:stedsnr" v="510501" />
	</node>
	<node id="-793646" lat="63.8247972222" lon="10.8830611072">
		<tag k="fixme" v="consider natural=peak for the most distinct mountains in the district" />
		<tag k="name" v="Rognåsen" />
		<tag k="natural" v="hill" />
		<tag k="place" v="locality" />
		<tag k="ssr:stedsnr" v="499773" />
	</node>
	<node id="-793642" lat="63.7781888907" lon="10.8906333359">
		<tag k="fixme" v="consider natural=peak for the most distinct mountains in the district" />
		<tag k="name" v="Storsteinheia" />
		<tag k="natural" v="hill" />
		<tag k="place" v="locality" />
		<tag k="ssr:stedsnr" v="499754" />
	</node>
	<node id="-793639" lat="63.8375055562" lon="11.0387611039">
		<tag k="name" v="Breivikdalen" />
		<tag k="natural" v="valley" />
		<tag k="place" v="locality" />
		<tag k="ssr:stedsnr" v="499599" />
	</node>
	<node id="-793638" lat="63.8567333354" lon="10.9606111035">
		<tag k="fixme" v="consider natural=peak for the most distinct mountains in the district" />
		<tag k="name" v="Lessingbakken" />
		<tag k="natural" v="hill" />
		<tag k="place" v="locality" />
		<tag k="ssr:stedsnr" v="499589" />
	</node>
	<node id="-793631" lat="63.7904027796" lon="10.6827138958">
		<tag k="fixme" v="consider natural=peak for the most distinct mountains in the district" />
		<tag k="name" v="Høglia" />
		<tag k="natural" v="hill" />
		<tag k="place" v="locality" />
		<tag k="ssr:stedsnr" v="499349" />
	</node>
	<node id="-793630" lat="63.8943027743" lon="11.1681944466">
		<tag k="fixme" v="multiple name tags, choose one and add the other to alt_name" />
		<tag k="name" v="Hikkillen;Himmelberget" />
		<tag k="natural" v="hill" />
		<tag k="place" v="locality" />
		<tag k="ssr:stedsnr" v="499499" />
	</node>
	<node id="-793621" lat="63.8238000043" lon="10.6974916726">
		<tag k="fixme" v="consider natural=peak for the most distinct mountains in the district" />
		<tag k="name" v="Middagsfjellet" />
		<tag k="natural" v="hill" />
		<tag k="place" v="locality" />
		<tag k="ssr:stedsnr" v="498549" />
	</node>
	<node id="-793620" lat="63.7423916664" lon="10.8555305494">
		<tag k="name" v="Trolldalen" />
		<tag k="natural" v="valley" />
		<tag k="place" v="locality" />
		<tag k="ssr:stedsnr" v="498181" />
	</node>
	<node id="-793618" lat="63.8856638851" lon="11.0772888807">
		<tag k="name" v="Noremsberga" />
		<tag k="natural" v="hill" />
		<tag k="place" v="locality" />
		<tag k="ssr:stedsnr" v="362520" />
	</node>
	<node id="-793616" lat="63.965352774" lon="11.2893694394">
		<tag k="name" v="Munklåtten" />
		<tag k="place" v="locality" />
		<tag k="ssr:stedsnr" v="352207" />
	</node>
	<node id="-793614" lat="63.9110472256" lon="11.1783277748">
		<tag k="alt_name" v="Brunsberga" />
		<tag k="name" v="Brunsberget" />
		<tag k="natural" v="hill" />
		<tag k="place" v="locality" />
		<tag k="ssr:stedsnr" v="349651" />
	</node>
	<node id="-793598" lat="63.8278027803" lon="10.7117861181">
		<tag k="name" v="Inntjønnlia" />
		<tag k="natural" v="slope" />
		<tag k="place" v="locality" />
		<tag k="ssr:stedsnr" v="332031" />
	</node>
	<node id="-793588" lat="63.8898249989" lon="11.1423305632">
		<tag k="name" v="Rogndalen" />
		<tag k="natural" v="valley" />
		<tag k="place" v="locality" />
		<tag k="ssr:stedsnr" v="474324" />
	</node>
	<node id="-793584" lat="63.8425361079" lon="10.7530805647">
		<tag k="name" v="Stormyrhøgda" />
		<tag k="natural" v="hill" />
		<tag k="place" v="locality" />
		<tag k="ssr:stedsnr" v="317619" />
	</node>
	<node id="-793579" lat="63.9614805592" lon="11.3153749996">
		<tag k="name" v="Bergenget" />
		<tag k="natural" v="hill" />
		<tag k="place" v="locality" />
		<tag k="ssr:stedsnr" v="474154" />
	</node>
	<node id="-793574" lat="63.8749361138" lon="10.9042027788">
		<tag k="name" v="Joholet" />
		<tag k="natural" v="valley" />
		<tag k="place" v="locality" />
		<tag k="ssr:stedsnr" v="473793" />
	</node>
	<node id="-793572" lat="63.8469666645" lon="11.3896499987">
		<tag k="name" v="Bålhaugen" />
		<tag k="natural" v="hill" />
		<tag k="place" v="locality" />
		<tag k="ssr:stedsnr" v="473045" />
	</node>
	<node id="-793571" lat="63.8587555567" lon="11.0216694461">
		<tag k="name" v="Slåttdalen" />
		<tag k="natural" v="valley" />
		<tag k="place" v="locality" />
		<tag k="ssr:stedsnr" v="472768" />
	</node>
	<node id="-793569" lat="63.8569333374" lon="10.8622416731">
		<tag k="name" v="Røsvasshalla" />
		<tag k="natural" v="slope" />
		<tag k="place" v="locality" />
		<tag k="ssr:stedsnr" v="472677" />
	</node>
	<node id="-793566" lat="63.8382722258" lon="10.7883694429">
		<tag k="name" v="Vasslidalen" />
		<tag k="natural" v="valley" />
		<tag k="place" v="locality" />
		<tag k="ssr:stedsnr" v="473546" />
	</node>
	<node id="-793563" lat="63.8147472218" lon="10.9002194495">
		<tag k="name" v="Bjønndalen" />
		<tag k="natural" v="valley" />
		<tag k="place" v="locality" />
		<tag k="ssr:stedsnr" v="472490" />
	</node>
	<node id="-793562" lat="63.8074611144" lon="10.8412500082">
		<tag k="fixme" v="consider natural=peak for the most distinct mountains in the district" />
		<tag k="name" v="Stokkleivlia" />
		<tag k="natural" v="hill" />
		<tag k="place" v="locality" />
		<tag k="ssr:stedsnr" v="472423" />
	</node>
	<node id="-793561" lat="63.8037944406" lon="10.7957972277">
		<tag k="name" v="Lidalen" />
		<tag k="natural" v="valley" />
		<tag k="place" v="locality" />
		<tag k="ssr:stedsnr" v="472420" />
	</node>
	<node id="-793559" lat="63.7573444483" lon="10.8364416747">
		<tag k="fixme" v="consider natural=peak for the most distinct mountains in the district" />
		<tag k="name" v="Sliperseterhatten" />
		<tag k="natural" v="hill" />
		<tag k="place" v="locality" />
		<tag k="ssr:stedsnr" v="472329" />
	</node>
	<node id="-793557" lat="63.7586250017" lon="10.88475">
		<tag k="name" v="Ålvassdalen" />
		<tag k="natural" v="valley" />
		<tag k="place" v="locality" />
		<tag k="ssr:stedsnr" v="471401" />
	</node>
	<node id="-793538" lat="63.8776888873" lon="11.2028083383">
		<tag k="name" v="Raudberget" />
		<tag k="natural" v="hill" />
		<tag k="place" v="locality" />
		<tag k="ssr:stedsnr" v="292405" />
	</node>
	<node id="-793532" lat="63.8309722266" lon="10.8785249985">
		<tag k="name" v="Høgberga" />
		<tag k="natural" v="hill" />
		<tag k="place" v="locality" />
		<tag k="ssr:stedsnr" v="290711" />
	</node>
	<node id="-793530" lat="63.966658336" lon="11.2975083428">
		<tag k="name" v="Rossdalen" />
		<tag k="natural" v="valley" />
		<tag k="place" v="locality" />
		<tag k="ssr:stedsnr" v="288362" />
	</node>
	<node id="-793523" lat="63.8998305576" lon="10.9516722297">
		<tag k="name" v="Finsvikdalen" />
		<tag k="natural" v="valley" />
		<tag k="place" v="locality" />
		<tag k="ssr:stedsnr" v="269852" />
	</node>
	<node id="-793502" lat="63.8421249977" lon="10.758469444">
		<tag k="name" v="Hovdlia" />
		<tag k="natural" v="slope" />
		<tag k="place" v="locality" />
		<tag k="ssr:stedsnr" v="453099" />
	</node>
	<node id="-793498" lat="63.8353527795" lon="11.0396916613">
		<tag k="name" v="Furufjellet" />
		<tag k="natural" v="hill" />
		<tag k="place" v="locality" />
		<tag k="ssr:stedsnr" v="451865" />
	</node>
	<node id="-793496" lat="63.8661277782" lon="10.9878500076">
		<tag k="name" v="Stormyrdalen" />
		<tag k="natural" v="valley" />
		<tag k="place" v="locality" />
		<tag k="ssr:stedsnr" v="451801" />
	</node>
	<node id="-793493" lat="63.8897500032" lon="10.9231972287">
		<tag k="name" v="Langdrovla" />
		<tag k="natural" v="valley" />
		<tag k="place" v="locality" />
		<tag k="ssr:stedsnr" v="451855" />
	</node>
	<node id="-793492" lat="63.89352778" lon="10.960863895">
		<tag k="name" v="Høgberget" />
		<tag k="natural" v="hill" />
		<tag k="place" v="locality" />
		<tag k="ssr:stedsnr" v="451851" />
	</node>
	<node id="-793488" lat="63.7999694448" lon="10.9945277798">
		<tag k="name" v="Stabergkleiva" />
		<tag k="natural" v="slope" />
		<tag k="place" v="locality" />
		<tag k="ssr:stedsnr" v="450845" />
	</node>
	<node id="-793487" lat="63.7871749997" lon="10.9212861081">
		<tag k="name" v="Busthaugen" />
		<tag k="natural" v="hill" />
		<tag k="place" v="locality" />
		<tag k="ssr:stedsnr" v="450499" />
	</node>
	<node id="-793483" lat="63.9168527756" lon="11.2761027675">
		<tag k="fixme" v="consider natural=peak for the most distinct mountains in the district" />
		<tag k="name" v="Gullhelligkammen" />
		<tag k="natural" v="hill" />
		<tag k="place" v="locality" />
		<tag k="ssr:stedsnr" v="232072" />
	</node>
	<node id="-793480" lat="63.8799638929" lon="11.2243166749">
		<tag k="fixme" v="consider natural=peak for the most distinct mountains in the district" />
		<tag k="name" v="Volkammen" />
		<tag k="natural" v="hill" />
		<tag k="place" v="locality" />
		<tag k="ssr:stedsnr" v="231472" />
	</node>
	<node id="-793479" lat="63.9351083308" lon="11.2116027806">
		<tag k="name" v="Galgsøykammen" />
		<tag k="natural" v="hill" />
		<tag k="place" v="locality" />
		<tag k="ssr:stedsnr" v="231320" />
	</node>
	<node id="-793476" lat="63.8459833361" lon="10.8677361129">
		<tag k="name" v="Storslottet" />
		<tag k="natural" v="hill" />
		<tag k="place" v="locality" />
		<tag k="ssr:stedsnr" v="229606" />
	</node>
	<node id="-793475" lat="63.8509666705" lon="10.8440166617">
		<tag k="name" v="Vasslettet" />
		<tag k="place" v="locality" />
		<tag k="ssr:stedsnr" v="229521" />
	</node>
	<node id="-793474" lat="63.8011694431" lon="10.8888305648">
		<tag k="fixme" v="consider natural=peak for the most distinct mountains in the district" />
		<tag k="name" v="Gammeltømmeråsen" />
		<tag k="natural" v="hill" />
		<tag k="place" v="locality" />
		<tag k="ssr:stedsnr" v="229504" />
	</node>
	<node id="-793465" lat="63.7500555517" lon="10.8634722254">
		<tag k="name" v="Koltjønnlia" />
		<tag k="natural" v="slope" />
		<tag k="place" v="locality" />
		<tag k="ssr:stedsnr" v="439947" />
	</node>
	<node id="-793461" lat="63.8136055586" lon="10.7471166656">
		<tag k="name" v="Otertjønnhøgda" />
		<tag k="natural" v="hill" />
		<tag k="place" v="locality" />
		<tag k="ssr:stedsnr" v="439838" />
	</node>
	<node id="-793460" lat="63.788522219" lon="10.8453472178">
		<tag k="alt_name" v="Lomtjønnhaugen" />
		<tag k="name" v="Ramberget" />
		<tag k="natural" v="hill" />
		<tag k="place" v="locality" />
		<tag k="ssr:stedsnr" v="439768" />
	</node>
	<node id="-793453" lat="63.830652779" lon="10.7661833302">
		<tag k="name" v="Nonsheia" />
		<tag k="natural" v="hill" />
		<tag k="place" v="locality" />
		<tag k="ssr:stedsnr" v="439659" />
	</node>
	<node id="-793446" lat="63.8250472199" lon="10.9634666665">
		<tag k="fixme" v="consider natural=peak for the most distinct mountains in the district" />
		<tag k="name" v="Aunåsen" />
		<tag k="natural" v="hill" />
		<tag k="place" v="locality" />
		<tag k="ssr:stedsnr" v="196634" />
	</node>
	<node id="-793445" lat="63.8545472241" lon="10.9166361125">
		<tag k="name" v="Saghaugen" />
		<tag k="natural" v="hill" />
		<tag k="place" v="locality" />
		<tag k="ssr:stedsnr" v="196602" />
	</node>
	<node id="-793442" lat="63.8436777777" lon="11.4445111209">
		<tag k="name" v="Lauvhaugen" />
		<tag k="natural" v="hill" />
		<tag k="place" v="locality" />
		<tag k="ssr:stedsnr" v="196127" />
	</node>
	<node id="-793434" lat="63.9062805563" lon="11.1996111114">
		<tag k="name" v="Fossembrottet" />
		<tag k="natural" v="hill" />
		<tag k="place" v="locality" />
		<tag k="ssr:stedsnr" v="292230" />
	</node>
	<node id="-793428" lat="63.8717194435" lon="10.9672666629">
		<tag k="name" v="Brydalen" />
		<tag k="natural" v="valley" />
		<tag k="place" v="locality" />
		<tag k="ssr:stedsnr" v="291801" />
	</node>
	<node id="-793422" lat="63.8546277759" lon="11.0345583419">
		<tag k="name" v="Tømmerdalen" />
		<tag k="natural" v="valley" />
		<tag k="place" v="locality" />
		<tag k="ssr:stedsnr" v="290749" />
	</node>
	<node id="-793420" lat="63.8200333303" lon="10.8079611162">
		<tag k="name" v="Drillsbekken" />
		<tag k="natural" v="valley" />
		<tag k="place" v="locality" />
		<tag k="ssr:stedsnr" v="290508" />
	</node>
	<node id="-793416" lat="63.7266277816" lon="10.8385833378">
		<tag k="name" v="Sjuttukleiva" />
		<tag k="natural" v="slope" />
		<tag k="place" v="locality" />
		<tag k="ssr:stedsnr" v="290290" />
	</node>
	<node id="-795428" lat="63.8751722249" lon="11.1338916757">
		<tag k="name" v="Farbuåsen" />
		<tag k="natural" v="hill" />
		<tag k="place" v="locality" />
		<tag k="ssr:stedsnr" v="960411" />
	</node>
	<node id="-795424" lat="63.8483083328" lon="11.4316388823">
		<tag k="fixme" v="consider natural=peak for the most distinct mountains in the district" />
		<tag k="name" v="Stormyråsen" />
		<tag k="natural" v="hill" />
		<tag k="place" v="locality" />
		<tag k="ssr:stedsnr" v="959040" />
	</node>
	<node id="-795420" lat="63.8264888888" lon="10.8499638866">
		<tag k="name" v="Åringbuslettet" />
		<tag k="place" v="locality" />
		<tag k="ssr:stedsnr" v="958776" />
	</node>
	<node id="-795419" lat="63.8596555525" lon="10.8765694444">
		<tag k="name" v="Uggtjønnlia" />
		<tag k="natural" v="slope" />
		<tag k="place" v="locality" />
		<tag k="ssr:stedsnr" v="958722" />
	</node>
	<node id="-795418" lat="63.7954277753" lon="10.8545500006">
		<tag k="name" v="Jamtlia" />
		<tag k="natural" v="slope" />
		<tag k="place" v="locality" />
		<tag k="ssr:stedsnr" v="958528" />
	</node>
	<node id="-793365" lat="63.8939527818" lon="10.9546805583">
		<tag k="fixme" v="consider natural=peak for the most distinct mountains in the district" />
		<tag k="name" v="Tømmerdalshalla" />
		<tag k="natural" v="hill" />
		<tag k="place" v="locality" />
		<tag k="ssr:stedsnr" v="147816" />
	</node>
	<node id="-793364" lat="63.8558666702" lon="11.0767972133">
		<tag k="loc_name" v="Urdberget" />
		<tag k="name" v="Olberga" />
		<tag k="natural" v="hill" />
		<tag k="place" v="locality" />
		<tag k="ssr:stedsnr" v="146857" />
	</node>
	<node id="-793362" lat="63.8092888887" lon="10.9458250014">
		<tag k="fixme" v="consider natural=peak for the most distinct mountains in the district" />
		<tag k="name" v="Leiarmyråsen" />
		<tag k="natural" v="hill" />
		<tag k="place" v="locality" />
		<tag k="ssr:stedsnr" v="146569" />
	</node>
	<node id="-793359" lat="63.8813722255" lon="10.9242722154">
		<tag k="fixme" v="consider natural=peak for the most distinct mountains in the district" />
		<tag k="name" v="Hevlan" />
		<tag k="natural" v="hill" />
		<tag k="place" v="locality" />
		<tag k="ssr:stedsnr" v="269831" />
	</node>
	<node id="-795405" lat="63.8399166662" lon="11.3665444412">
		<tag k="name" v="Nordbergsmarka" />
		<tag k="natural" v="slope" />
		<tag k="place" v="locality" />
		<tag k="ssr:stedsnr" v="956937" />
	</node>
	<node id="-793353" lat="63.7360111118" lon="10.9137944484">
		<tag k="name" v="Nybrentdalen" />
		<tag k="natural" v="valley" />
		<tag k="place" v="locality" />
		<tag k="ssr:stedsnr" v="268594" />
	</node>
	<node id="-793352" lat="63.8273416702" lon="10.9174277842">
		<tag k="fixme" v="consider natural=peak for the most distinct mountains in the district" />
		<tag k="name" v="Brannen" />
		<tag k="natural" v="hill" />
		<tag k="place" v="locality" />
		<tag k="ssr:stedsnr" v="268500" />
	</node>
	<node id="-795390" lat="63.8332777766" lon="10.9141027839">
		<tag k="name" v="Tjuruverkdalen" />
		<tag k="natural" v="valley" />
		<tag k="place" v="locality" />
		<tag k="ssr:stedsnr" v="875502" />
	</node>
	<node id="-795389" lat="63.8371194435" lon="10.95922222">
		<tag k="name" v="Høgbergnosa" />
		<tag k="natural" v="hill" />
		<tag k="place" v="locality" />
		<tag k="ssr:stedsnr" v="875500" />
	</node>
	<node id="-795387" lat="63.8088361072" lon="10.9959194367">
		<tag k="name" v="Sørengkleiva" />
		<tag k="natural" v="slope" />
		<tag k="place" v="locality" />
		<tag k="ssr:stedsnr" v="874850" />
	</node>
	<node id="-795379" lat="63.8734777788" lon="10.9221166745">
		<tag k="fixme" v="consider natural=peak for the most distinct mountains in the district" />
		<tag k="name" v="Storbrennåsen" />
		<tag k="natural" v="hill" />
		<tag k="place" v="locality" />
		<tag k="ssr:stedsnr" v="864733" />
	</node>
	<node id="-793328" lat="63.8953138904" lon="11.1867000051">
		<tag k="name" v="Ryggahaugen" />
		<tag k="natural" v="hill" />
		<tag k="place" v="locality" />
		<tag k="ssr:stedsnr" v="110317" />
	</node>
	<node id="-795374" lat="63.8677666643" lon="11.4791250054">
		<tag k="fixme" v="consider natural=peak for the most distinct mountains in the district" />
		<tag k="name" v="Floåsen" />
		<tag k="natural" v="hill" />
		<tag k="place" v="locality" />
		<tag k="ssr:stedsnr" v="864148" />
	</node>
	<node id="-793323" lat="63.8900333354" lon="11.1438249928">
		<tag k="fixme" v="consider natural=peak for the most distinct mountains in the district" />
		<tag k="name" v="Høgkammen" />
		<tag k="natural" v="hill" />
		<tag k="place" v="locality" />
		<tag k="ssr:stedsnr" v="257849" />
	</node>
	<node id="-795366" lat="63.8410111148" lon="10.7787499945">
		<tag k="fixme" v="consider natural=peak for the most distinct mountains in the district" />
		<tag k="name" v="Bjørnkammen" />
		<tag k="natural" v="hill" />
		<tag k="place" v="locality" />
		<tag k="ssr:stedsnr" v="863688" />
	</node>
	<node id="-793310" lat="63.7782194469" lon="10.9641277748">
		<tag k="fixme" v="consider natural=peak for the most distinct mountains in the district" />
		<tag k="name" v="Aunåsen" />
		<tag k="natural" v="hill" />
		<tag k="place" v="locality" />
		<tag k="ssr:stedsnr" v="256764" />
	</node>
	<node id="-795356" lat="63.8501027791" lon="11.3568694378">
		<tag k="alt_name" v="Kvernkilhaugen" />
		<tag k="name" v="Kverkillberget" />
		<tag k="natural" v="hill" />
		<tag k="place" v="locality" />
		<tag k="ssr:stedsnr" v="863136" />
	</node>
	<node id="-795355" lat="63.7664555517" lon="10.847516664">
		<tag k="fixme" v="consider natural=peak for the most distinct mountains in the district" />
		<tag k="name" v="Litjknuken" />
		<tag k="natural" v="hill" />
		<tag k="place" v="locality" />
		<tag k="ssr:stedsnr" v="863784" />
	</node>
	<node id="-793305" lat="63.86215" lon="10.8795833327">
		<tag k="name" v="Røsvasshalla" />
		<tag k="natural" v="hill" />
		<tag k="place" v="locality" />
		<tag k="ssr:stedsnr" v="256688" />
	</node>
	<node id="-793304" lat="63.8669916676" lon="11.0089166589">
		<tag k="fixme" v="consider natural=peak for the most distinct mountains in the district" />
		<tag k="name" v="Kremma" />
		<tag k="natural" v="hill" />
		<tag k="place" v="locality" />
		<tag k="ssr:stedsnr" v="256686" />
	</node>
	<node id="-793303" lat="63.8679333347" lon="10.9554055463">
		<tag k="fixme" v="consider natural=peak for the most distinct mountains in the district" />
		<tag k="name" v="Karimyråsen" />
		<tag k="natural" v="hill" />
		<tag k="place" v="locality" />
		<tag k="ssr:stedsnr" v="256683" />
	</node>
	<node id="-793301" lat="63.7706416691" lon="10.7902833287">
		<tag k="name" v="Bjørvikdalen" />
		<tag k="natural" v="valley" />
		<tag k="place" v="locality" />
		<tag k="ssr:stedsnr" v="256744" />
	</node>
	<node id="-793300" lat="63.7710055543" lon="10.8001249912">
		<tag k="fixme" v="consider natural=peak for the most distinct mountains in the district" />
		<tag k="name" v="Furukammen" />
		<tag k="natural" v="hill" />
		<tag k="place" v="locality" />
		<tag k="ssr:stedsnr" v="256736" />
	</node>
	<node id="-795345" lat="63.9055472238" lon="11.2176055489">
		<tag k="fixme" v="consider natural=peak for the most distinct mountains in the district" />
		<tag k="name" v="Inngjardshålån" />
		<tag k="natural" v="hill" />
		<tag k="place" v="locality" />
		<tag k="ssr:stedsnr" v="839248" />
	</node>
	<node id="-795342" lat="63.8914166662" lon="11.128491666">
		<tag k="name" v="Snertinghalla" />
		<tag k="natural" v="slope" />
		<tag k="place" v="locality" />
		<tag k="ssr:stedsnr" v="838448" />
	</node>
	<node id="-793293" lat="63.8435222205" lon="11.0379333337">
		<tag k="fixme" v="multiple name tags, choose one and add the other to alt_name" />
		<tag k="name" v="Einmjølklia;Tortlia" />
		<tag k="natural" v="slope" />
		<tag k="place" v="locality" />
		<tag k="ssr:stedsnr" v="256610" />
	</node>
	<node id="-795339" lat="63.9283666677" lon="11.2679305536">
		<tag k="name" v="Sveberget" />
		<tag k="natural" v="hill" />
		<tag k="place" v="locality" />
		<tag k="ssr:stedsnr" v="838087" />
	</node>
	<node id="-795337" lat="63.862238887" lon="10.92038888">
		<tag k="name" v="Jakobmyrdalen" />
		<tag k="natural" v="valley" />
		<tag k="place" v="locality" />
		<tag k="ssr:stedsnr" v="837825" />
	</node>
	<node id="-795336" lat="63.8473472245" lon="11.0011416756">
		<tag k="name" v="Heiklompan" />
		<tag k="natural" v="hill" />
		<tag k="place" v="locality" />
		<tag k="ssr:stedsnr" v="837780" />
	</node>
	<node id="-793280" lat="63.8425611086" lon="10.734266674">
		<tag k="name" v="Beindalen" />
		<tag k="natural" v="valley" />
		<tag k="place" v="locality" />
		<tag k="ssr:stedsnr" v="89107" />
	</node>
	<node id="-793277" lat="63.8242027756" lon="10.9137805629">
		<tag k="name" v="Oksdalsberget" />
		<tag k="natural" v="hill" />
		<tag k="place" v="locality" />
		<tag k="ssr:stedsnr" v="86524" />
	</node>
	<node id="-793275" lat="63.8294027784" lon="10.9418972319">
		<tag k="name" v="Husdalen" />
		<tag k="natural" v="valley" />
		<tag k="place" v="locality" />
		<tag k="ssr:stedsnr" v="85406" />
	</node>
	<node id="-793264" lat="63.8516027764" lon="10.9063611043">
		<tag k="name" v="Simalia" />
		<tag k="natural" v="slope" />
		<tag k="place" v="locality" />
		<tag k="ssr:stedsnr" v="74653" />
	</node>
	<node id="-795292" lat="63.8290583323" lon="10.9233416586">
		<tag k="name" v="Seterkammen" />
		<tag k="natural" v="hill" />
		<tag k="place" v="locality" />
		<tag k="ssr:stedsnr" v="814525" />
	</node>
	<node id="-793234" lat="63.8633972192" lon="11.2214583294">
		<tag k="name" v="Sjøsveberga" />
		<tag k="natural" v="hill" />
		<tag k="place" v="locality" />
		<tag k="ssr:stedsnr" v="231535" />
	</node>
	<node id="-795278" lat="63.8389694487" lon="10.9923805494">
		<tag k="name" v="Grasdalen" />
		<tag k="natural" v="valley" />
		<tag k="place" v="locality" />
		<tag k="ssr:stedsnr" v="803690" />
	</node>
	<node id="-793225" lat="63.8524222201" lon="10.9941166727">
		<tag k="name" v="Langvassdalen" />
		<tag k="natural" v="valley" />
		<tag k="place" v="locality" />
		<tag k="ssr:stedsnr" v="230749" />
	</node>
	<node id="-793223" lat="63.8581138849" lon="10.9966722301">
		<tag k="name" v="Småtjønnstrupen" />
		<tag k="natural" v="valley" />
		<tag k="place" v="locality" />
		<tag k="ssr:stedsnr" v="230741" />
	</node>
	<node id="-793222" lat="63.8622583302" lon="10.9064999933">
		<tag k="fixme" v="consider natural=peak for the most distinct mountains in the district" />
		<tag k="name" v="Svartåsen" />
		<tag k="natural" v="hill" />
		<tag k="place" v="locality" />
		<tag k="ssr:stedsnr" v="230768" />
	</node>
	<node id="-793219" lat="63.8468527765" lon="10.9066833253">
		<tag k="name" v="Mastertreholet" />
		<tag k="natural" v="valley" />
		<tag k="place" v="locality" />
		<tag k="ssr:stedsnr" v="229749" />
	</node>
	<node id="-793217" lat="63.8112583349" lon="10.8582583369">
		<tag k="name" v="Stormyrberga" />
		<tag k="natural" v="hill" />
		<tag k="place" v="locality" />
		<tag k="ssr:stedsnr" v="229499" />
	</node>
	<node id="-795264" lat="63.8514833367" lon="11.0102694451">
		<tag k="fixme" v="consider natural=peak for the most distinct mountains in the district" />
		<tag k="name" v="Selsetheia" />
		<tag k="natural" v="hill" />
		<tag k="place" v="locality" />
		<tag k="ssr:stedsnr" v="802704" />
	</node>
	<node id="-793215" lat="63.7990138932" lon="10.8115694412">
		<tag k="fixme" v="consider natural=peak for the most distinct mountains in the district" />
		<tag k="name" v="Damåsen" />
		<tag k="natural" v="hill" />
		<tag k="place" v="locality" />
		<tag k="ssr:stedsnr" v="229438" />
	</node>
	<node id="-795413" lat="63.8116111095" lon="10.8444138937">
		<tag k="fixme" v="consider natural=peak for the most distinct mountains in the district" />
		<tag k="name" v="Lauvbrattåsen" />
		<tag k="natural" v="hill" />
		<tag k="place" v="locality" />
		<tag k="ssr:stedsnr" v="958464" />
	</node>
	<node id="-793204" lat="63.8295888861" lon="11.0247722267">
		<tag k="fixme" v="consider natural=peak for the most distinct mountains in the district" />
		<tag k="name" v="Korpåsen" />
		<tag k="natural" v="hill" />
		<tag k="place" v="locality" />
		<tag k="ssr:stedsnr" v="26803" />
	</node>
	<node id="-795247" lat="63.844780554" lon="11.4137055643">
		<tag k="name" v="Koahalla" />
		<tag k="natural" v="slope" />
		<tag k="place" v="locality" />
		<tag k="ssr:stedsnr" v="777039" />
	</node>
	<node id="-795246" lat="63.844936112" lon="11.4314333409">
		<tag k="name" v="Stormyrhaugen" />
		<tag k="natural" v="hill" />
		<tag k="place" v="locality" />
		<tag k="ssr:stedsnr" v="777038" />
	</node>
	<node id="-795238" lat="63.8787555511" lon="10.9371527862">
		<tag k="fixme" v="consider natural=peak for the most distinct mountains in the district" />
		<tag k="name" v="Aspåsen" />
		<tag k="natural" v="hill" />
		<tag k="place" v="locality" />
		<tag k="ssr:stedsnr" v="775810" />
	</node>
	<node id="-795235" lat="63.7484944449" lon="10.9022333372">
		<tag k="fixme" v="consider natural=peak for the most distinct mountains in the district" />
		<tag k="name" v="Svartbekkåsen" />
		<tag k="natural" v="hill" />
		<tag k="place" v="locality" />
		<tag k="ssr:stedsnr" v="775367" />
	</node>
	<node id="-795233" lat="63.8435138872" lon="11.1630722313">
		<tag k="name" v="Rostadbakken" />
		<tag k="natural" v="slope" />
		<tag k="place" v="locality" />
		<tag k="ssr:stedsnr" v="773766" />
	</node>
	<node id="-793181" lat="63.7876972208" lon="10.8176694389">
		<tag k="fixme" v="consider natural=peak for the most distinct mountains in the district" />
		<tag k="name" v="Midtåsen" />
		<tag k="natural" v="hill" />
		<tag k="place" v="locality" />
		<tag k="ssr:stedsnr" v="14711" />
	</node>
	<node id="-795209" lat="63.8696638862" lon="11.0047361109">
		<tag k="fixme" v="consider natural=peak for the most distinct mountains in the district" />
		<tag k="name" v="Brattåsen" />
		<tag k="natural" v="hill" />
		<tag k="place" v="locality" />
		<tag k="ssr:stedsnr" v="754780" />
	</node>
	<node id="-795208" lat="63.863322222" lon="11.0382638919">
		<tag k="name" v="Fuglleiken" />
		<tag k="natural" v="hill" />
		<tag k="place" v="locality" />
		<tag k="ssr:stedsnr" v="754773" />
	</node>
	<node id="-795206" lat="63.8606833336" lon="11.0354388802">
		<tag k="name" v="Svartbrenndalskammen" />
		<tag k="natural" v="ridge" />
		<tag k="place" v="locality" />
		<tag k="ssr:stedsnr" v="754753" />
	</node>
	<node id="-795197" lat="63.7502666628" lon="10.9135277701">
		<tag k="name" v="Kolbotn" />
		<tag k="natural" v="valley" />
		<tag k="place" v="locality" />
		<tag k="ssr:stedsnr" v="753550" />
	</node>
	<node id="-795196" lat="63.7699416639" lon="10.9547083378">
		<tag k="name" v="Svartdalen" />
		<tag k="natural" v="valley" />
		<tag k="place" v="locality" />
		<tag k="ssr:stedsnr" v="753533" />
	</node>
	<node id="-795195" lat="63.8290583347" lon="10.9169361057">
		<tag k="name" v="Masterdalen" />
		<tag k="natural" v="valley" />
		<tag k="place" v="locality" />
		<tag k="ssr:stedsnr" v="753440" />
	</node>
	<node id="-795190" lat="63.8585777774" lon="11.473063885">
		<tag k="fixme" v="consider natural=peak for the most distinct mountains in the district" />
		<tag k="name" v="Søråshalla" />
		<tag k="natural" v="hill" />
		<tag k="place" v="locality" />
		<tag k="ssr:stedsnr" v="750951" />
	</node>
	<node id="-795186" lat="63.8102916683" lon="10.9176888824">
		<tag k="name" v="Nordskallen" />
		<tag k="natural" v="hill" />
		<tag k="place" v="locality" />
		<tag k="ssr:stedsnr" v="742831" />
	</node>
	<node id="-795185" lat="63.8124305589" lon="10.8998944418">
		<tag k="name" v="Skallen" />
		<tag k="natural" v="hill" />
		<tag k="place" v="locality" />
		<tag k="ssr:stedsnr" v="742826" />
	</node>
	<node id="-795184" lat="63.8674444483" lon="10.8880583316">
		<tag k="name" v="Langdalen" />
		<tag k="natural" v="valley" />
		<tag k="place" v="locality" />
		<tag k="ssr:stedsnr" v="742795" />
	</node>
	<node id="-795176" lat="63.8346944408" lon="10.7638138919">
		<tag k="alt_name" v="Meiholkammen" />
		<tag k="name" v="Meiholheia" />
		<tag k="natural" v="hill" />
		<tag k="place" v="locality" />
		<tag k="ssr:stedsnr" v="742647" />
	</node>
	<node id="-795171" lat="63.891247221" lon="11.200436116">
		<tag k="name" v="Hestenghaugen" />
		<tag k="natural" v="hill" />
		<tag k="place" v="locality" />
		<tag k="ssr:stedsnr" v="742502" />
	</node>
	<node id="-795169" lat="63.8855361138" lon="11.1168777783">
		<tag k="fixme" v="consider natural=peak for the most distinct mountains in the district" />
		<tag k="name" v="Høgåsen" />
		<tag k="natural" v="hill" />
		<tag k="place" v="locality" />
		<tag k="ssr:stedsnr" v="742496" />
	</node>
	<node id="-795160" lat="63.8220638863" lon="10.716955553">
		<tag k="name" v="Durmålshøgda" />
		<tag k="natural" v="hill" />
		<tag k="place" v="locality" />
		<tag k="ssr:stedsnr" v="741586" />
	</node>
	<node id="-795157" lat="63.8761083359" lon="10.9262444349">
		<tag k="name" v="Verskaret" />
		<tag k="natural" v="valley" />
		<tag k="place" v="locality" />
		<tag k="ssr:stedsnr" v="654837" />
	</node>
	<node id="-795155" lat="63.8485055527" lon="10.9876777783">
		<tag k="fixme" v="consider natural=peak for the most distinct mountains in the district" />
		<tag k="name" v="Langvassåsen" />
		<tag k="natural" v="hill" />
		<tag k="place" v="locality" />
		<tag k="ssr:stedsnr" v="654792" />
	</node>
	<node id="-795154" lat="63.8569833324" lon="11.0320416763">
		<tag k="name" v="Tortlia" />
		<tag k="natural" v="slope" />
		<tag k="place" v="locality" />
		<tag k="ssr:stedsnr" v="654777" />
	</node>
	<node id="-795152" lat="63.8343916672" lon="10.9072527872">
		<tag k="name" v="Åringsletta" />
		<tag k="place" v="locality" />
		<tag k="ssr:stedsnr" v="654764" />
	</node>
	<node id="-795151" lat="63.8296166622" lon="10.8622055556">
		<tag k="name" v="Tjuvholet" />
		<tag k="natural" v="valley" />
		<tag k="place" v="locality" />
		<tag k="ssr:stedsnr" v="654763" />
	</node>
	<node id="-795149" lat="63.8239944402" lon="10.8697333393">
		<tag k="name" v="Kattmagalia" />
		<tag k="natural" v="slope" />
		<tag k="place" v="locality" />
		<tag k="ssr:stedsnr" v="654757" />
	</node>
	<node id="-795145" lat="63.8246472241" lon="10.8180888816">
		<tag k="name" v="Tortdalen" />
		<tag k="natural" v="valley" />
		<tag k="place" v="locality" />
		<tag k="ssr:stedsnr" v="654578" />
	</node>
	<node id="-795139" lat="63.8492166674" lon="10.871999999">
		<tag k="name" v="Svartdalen" />
		<tag k="natural" v="valley" />
		<tag k="place" v="locality" />
		<tag k="ssr:stedsnr" v="654558" />
	</node>
	<node id="-795137" lat="63.7916805517" lon="10.8188694524">
		<tag k="name" v="Asphaugen" />
		<tag k="natural" v="hill" />
		<tag k="place" v="locality" />
		<tag k="ssr:stedsnr" v="654480" />
	</node>
	<node id="-795108" lat="63.8453388857" lon="10.7558611106">
		<tag k="name" v="Margretedalen" />
		<tag k="natural" v="valley" />
		<tag k="place" v="locality" />
		<tag k="ssr:stedsnr" v="635072" />
	</node>
	<node id="-795107" lat="63.8283027787" lon="10.9960777781">
		<tag k="name" v="Blåtårnet" />
		<tag k="natural" v="hill" />
		<tag k="place" v="locality" />
		<tag k="ssr:stedsnr" v="632821" />
	</node>
	<node id="-795102" lat="63.7381055563" lon="10.9242361049">
		<tag k="name" v="Myrenget" />
		<tag k="place" v="locality" />
		<tag k="ssr:stedsnr" v="631592" />
	</node>
	<node id="-795097" lat="63.7934111144" lon="10.8329583426">
		<tag k="name" v="Storlia" />
		<tag k="natural" v="hill" />
		<tag k="place" v="locality" />
		<tag k="ssr:stedsnr" v="620852" />
	</node>
	<node id="-795094" lat="63.8237333378" lon="10.7623972262">
		<tag k="name" v="Koren" />
		<tag k="natural" v="valley" />
		<tag k="place" v="locality" />
		<tag k="ssr:stedsnr" v="620805" />
	</node>
	<node id="-795092" lat="63.7604527809" lon="10.8525416685">
		<tag k="name" v="Ålvasslia" />
		<tag k="natural" v="slope" />
		<tag k="place" v="locality" />
		<tag k="ssr:stedsnr" v="620778" />
	</node>
	<node id="-795091" lat="63.7735388881" lon="10.9156194381">
		<tag k="fixme" v="consider natural=peak for the most distinct mountains in the district" />
		<tag k="name" v="Gørtjønnåsen" />
		<tag k="natural" v="hill" />
		<tag k="place" v="locality" />
		<tag k="ssr:stedsnr" v="620771" />
	</node>
	<node id="-795090" lat="63.7738333366" lon="10.8427666589">
		<tag k="fixme" v="consider natural=peak for the most distinct mountains in the district" />
		<tag k="name" v="Storknuken" />
		<tag k="natural" v="hill" />
		<tag k="place" v="locality" />
		<tag k="ssr:stedsnr" v="620748" />
	</node>
	<node id="-795084" lat="63.8783166633" lon="11.1469027738">
		<tag k="name" v="Åsbrottet" />
		<tag k="natural" v="hill" />
		<tag k="place" v="locality" />
		<tag k="ssr:stedsnr" v="620668" />
	</node>
	<node id="-795082" lat="63.8357222215" lon="10.9949444353">
		<tag k="fixme" v="consider natural=peak for the most distinct mountains in the district" />
		<tag k="name" v="Svintåsan" />
		<tag k="natural" v="hill" />
		<tag k="place" v="locality" />
		<tag k="ssr:stedsnr" v="620655" />
	</node>
	<node id="-795055" lat="63.8141305512" lon="11.0033222292">
		<tag k="name" v="Mohaugen" />
		<tag k="natural" v="hill" />
		<tag k="place" v="locality" />
		<tag k="ssr:stedsnr" v="603001" />
	</node>
	<node id="-795054" lat="63.8532138915" lon="11.1757583301">
		<tag k="name" v="Hegdalsåsen" />
		<tag k="natural" v="hill" />
		<tag k="place" v="locality" />
		<tag k="ssr:stedsnr" v="595459" />
	</node>
	<node id="-795048" lat="63.8892749983" lon="11.2428444517">
		<tag k="name" v="Midtfjellet" />
		<tag k="natural" v="hill" />
		<tag k="place" v="locality" />
		<tag k="ssr:stedsnr" v="595100" />
	</node>
	<node id="-795046" lat="63.8456249997" lon="10.9868777859">
		<tag k="name" v="Fjelldalen" />
		<tag k="natural" v="valley" />
		<tag k="place" v="locality" />
		<tag k="ssr:stedsnr" v="594763" />
	</node>
	<node id="-795045" lat="63.8550083333" lon="11.0112222323">
		<tag k="fixme" v="consider natural=peak for the most distinct mountains in the district" />
		<tag k="name" v="Storhalla" />
		<tag k="natural" v="hill" />
		<tag k="place" v="locality" />
		<tag k="ssr:stedsnr" v="594749" />
	</node>
	<node id="-795044" lat="63.8381416696" lon="10.9674027722">
		<tag k="name" v="Høgbergan" />
		<tag k="natural" v="hill" />
		<tag k="place" v="locality" />
		<tag k="ssr:stedsnr" v="594740" />
	</node>
	<node id="-795042" lat="63.863324999" lon="10.8756555472">
		<tag k="name" v="Bjønnlia" />
		<tag k="natural" v="slope" />
		<tag k="place" v="locality" />
		<tag k="ssr:stedsnr" v="593740" />
	</node>
	<node id="-795041" lat="63.8434777752" lon="10.915297212">
		<tag k="name" v="Heilia" />
		<tag k="natural" v="slope" />
		<tag k="place" v="locality" />
		<tag k="ssr:stedsnr" v="593711" />
	</node>
	<node id="-795037" lat="63.8263194484" lon="10.7985555622">
		<tag k="name" v="Bjønndalen" />
		<tag k="natural" v="valley" />
		<tag k="place" v="locality" />
		<tag k="ssr:stedsnr" v="593540" />
	</node>
	<node id="-795035" lat="63.8347500033" lon="10.841855564">
		<tag k="fixme" v="consider natural=peak for the most distinct mountains in the district" />
		<tag k="name" v="Hemelainenbakken" />
		<tag k="natural" v="hill" />
		<tag k="place" v="locality" />
		<tag k="ssr:stedsnr" v="593533" />
	</node>
	<node id="-795029" lat="63.9139972264" lon="11.3127472197">
		<tag k="name" v="Hummeldalen" />
		<tag k="natural" v="valley" />
		<tag k="place" v="locality" />
		<tag k="ssr:stedsnr" v="591366" />
	</node>
	<node id="-795003" lat="63.8731138898" lon="11.0803111067">
		<tag k="name" v="Rogndalshalla" />
		<tag k="natural" v="cliff" />
		<tag k="ssr:stedsnr" v="572787" />
	</node>
	<node id="-795002" lat="63.876183332" lon="11.1028027798">
		<tag k="name" v="Andorahaugen" />
		<tag k="natural" v="hill" />
		<tag k="place" v="locality" />
		<tag k="ssr:stedsnr" v="572782" />
	</node>
	<node id="-794999" lat="63.8049138893" lon="10.9134833341">
		<tag k="name" v="Tjønnlia" />
		<tag k="natural" v="slope" />
		<tag k="place" v="locality" />
		<tag k="ssr:stedsnr" v="571586" />
	</node>
	<node id="-794998" lat="63.7591944488" lon="10.9648111211">
		<tag k="name" v="Hammerlia" />
		<tag k="natural" v="slope" />
		<tag k="place" v="locality" />
		<tag k="ssr:stedsnr" v="571568" />
	</node>
	<node id="-794996" lat="63.8233527782" lon="10.9136388815">
		<tag k="name" v="Oksdalen" />
		<tag k="natural" v="valley" />
		<tag k="place" v="locality" />
		<tag k="ssr:stedsnr" v="570434" />
	</node>
	<node id="-794994" lat="63.8618166684" lon="11.4943249905">
		<tag k="name" v="Svartdalen" />
		<tag k="natural" v="valley" />
		<tag k="place" v="locality" />
		<tag k="ssr:stedsnr" v="568951" />
	</node>
	<node id="-794971" lat="63.8508666656" lon="10.9212249929">
		<tag k="name" v="Agnetskardet" />
		<tag k="natural" v="valley" />
		<tag k="place" v="locality" />
		<tag k="ssr:stedsnr" v="559645" />
	</node>
	<node id="-794969" lat="63.8406194466" lon="11.1383333332">
		<tag k="name" v="Ulvinbakken" />
		<tag k="natural" v="slope" />
		<tag k="place" v="locality" />
		<tag k="ssr:stedsnr" v="559684" />
	</node>
	<node id="-794966" lat="63.8904666689" lon="10.9117499956">
		<tag k="name" v="Rundhaugen" />
		<tag k="natural" v="hill" />
		<tag k="place" v="locality" />
		<tag k="ssr:stedsnr" v="559550" />
	</node>
	<node id="-794964" lat="63.8103166704" lon="10.702936106">
		<tag k="fixme" v="consider natural=peak for the most distinct mountains in the district" />
		<tag k="name" v="Nyfjellet" />
		<tag k="natural" v="hill" />
		<tag k="place" v="locality" />
		<tag k="ssr:stedsnr" v="559429" />
	</node>
	<node id="-794955" lat="63.8458916664" lon="11.124197227">
		<tag k="name" v="Aunberga" />
		<tag k="natural" v="hill" />
		<tag k="place" v="locality" />
		<tag k="ssr:stedsnr" v="535315" />
	</node>
	<node id="-794954" lat="63.876180557" lon="11.2137694494">
		<tag k="name" v="Dalengsåsen" />
		<tag k="natural" v="hill" />
		<tag k="place" v="locality" />
		<tag k="ssr:stedsnr" v="535452" />
	</node>
	<node id="-794947" lat="63.7938388915" lon="10.8238277726">
		<tag k="name" v="Storlibakken" />
		<tag k="natural" v="slope" />
		<tag k="place" v="locality" />
		<tag k="ssr:stedsnr" v="533484" />
	</node>
	<node id="-794945" lat="63.8485499995" lon="11.0232277802">
		<tag k="name" v="Rundhaugen" />
		<tag k="natural" v="hill" />
		<tag k="place" v="locality" />
		<tag k="ssr:stedsnr" v="533779" />
	</node>
	<node id="-794944" lat="63.845833335" lon="10.932347229">
		<tag k="name" v="Hamstadseterlia" />
		<tag k="natural" v="slope" />
		<tag k="place" v="locality" />
		<tag k="ssr:stedsnr" v="533776" />
	</node>
	<node id="-794939" lat="63.8020361073" lon="10.8141361091">
		<tag k="fixme" v="consider natural=peak for the most distinct mountains in the district" />
		<tag k="name" v="Liltkjelåsen" />
		<tag k="natural" v="hill" />
		<tag k="place" v="locality" />
		<tag k="ssr:stedsnr" v="533453" />
	</node>
	<node id="-794938" lat="63.8121666696" lon="10.833233328">
		<tag k="fixme" v="consider natural=peak for the most distinct mountains in the district" />
		<tag k="name" v="Langdansen" />
		<tag k="natural" v="hill" />
		<tag k="place" v="locality" />
		<tag k="ssr:stedsnr" v="533450" />
	</node>
	<node id="-794937" lat="63.8025944474" lon="10.8334166621">
		<tag k="fixme" v="consider natural=peak for the most distinct mountains in the district" />
		<tag k="name" v="Liabrenna" />
		<tag k="natural" v="hill" />
		<tag k="place" v="locality" />
		<tag k="ssr:stedsnr" v="533444" />
	</node>
	<node id="-795358" lat="63.8379000002" lon="10.6869944473">
		<tag k="alt_name" v="Hovdklompen" />
		<tag k="name" v="Hovdklumpen" />
		<tag k="natural" v="hill" />
		<tag k="place" v="locality" />
		<tag k="ssr:stedsnr" v="863487" />
	</node>
	<node id="-793308" lat="63.7612027778" lon="10.9318583263">
		<tag k="name" v="Kvernhuslia" />
		<tag k="natural" v="slope" />
		<tag k="place" v="locality" />
		<tag k="ssr:stedsnr" v="256762" />
	</node>
	<node id="-794916" lat="63.9571527796" lon="11.2936916656">
		<tag k="name" v="Lyarhaugen" />
		<tag k="natural" v="hill" />
		<tag k="place" v="locality" />
		<tag k="ssr:stedsnr" v="655231" />
	</node>
	<node id="-794909" lat="63.7567972184" lon="10.8917555537">
		<tag k="fixme" v="consider natural=peak for the most distinct mountains in the district" />
		<tag k="name" v="Trosetseteråsen" />
		<tag k="natural" v="hill" />
		<tag k="place" v="locality" />
		<tag k="ssr:stedsnr" v="438792" />
	</node>
	<node id="-794892" lat="63.8379833373" lon="11.4253138791">
		<tag k="name" v="Koabjørga" />
		<tag k="natural" v="hill" />
		<tag k="place" v="locality" />
		<tag k="ssr:stedsnr" v="438232" />
	</node>
	<node id="-794881" lat="63.8584055601" lon="11.1736861114">
		<tag k="name" v="Skogtrøkammen" />
		<tag k="natural" v="hill" />
		<tag k="place" v="locality" />
		<tag k="ssr:stedsnr" v="414469" />
	</node>
	<node id="-794877" lat="63.8707361122" lon="11.1830583435">
		<tag k="name" v="Sandhaugen" />
		<tag k="natural" v="hill" />
		<tag k="place" v="locality" />
		<tag k="ssr:stedsnr" v="413465" />
	</node>
	<node id="-794875" lat="63.8817361126" lon="11.1353333299">
		<tag k="name" v="Kjølen" />
		<tag k="natural" v="hill" />
		<tag k="place" v="locality" />
		<tag k="ssr:stedsnr" v="413440" />
	</node>
	<node id="-794870" lat="63.8796944419" lon="10.9511583346">
		<tag k="name" v="Langdalen" />
		<tag k="natural" v="valley" />
		<tag k="place" v="locality" />
		<tag k="ssr:stedsnr" v="412791" />
	</node>
	<node id="-794866" lat="63.8184666669" lon="10.894374999">
		<tag k="name" v="Nord - Sagdalshøgda" />
		<tag k="natural" v="ridge" />
		<tag k="place" v="locality" />
		<tag k="ssr:stedsnr" v="412694" />
	</node>
	<node id="-794862" lat="63.8452499978" lon="10.8362694432">
		<tag k="name" v="Erikselttet" />
		<tag k="place" v="locality" />
		<tag k="ssr:stedsnr" v="412481" />
	</node>
	<node id="-794859" lat="63.8089861082" lon="10.8773694374">
		<tag k="name" v="Litjmeltingdalen" />
		<tag k="natural" v="valley" />
		<tag k="place" v="locality" />
		<tag k="ssr:stedsnr" v="412472" />
	</node>
	<node id="-794858" lat="63.7814722226" lon="10.9022805482">
		<tag k="name" v="Strokkdalen" />
		<tag k="natural" v="valley" />
		<tag k="place" v="locality" />
		<tag k="ssr:stedsnr" v="412467" />
	</node>
	<node id="-794857" lat="63.7893499983" lon="10.9015194498">
		<tag k="name" v="Åltjønndalen" />
		<tag k="natural" v="valley" />
		<tag k="place" v="locality" />
		<tag k="ssr:stedsnr" v="412466" />
	</node>
	<node id="-794849" lat="63.8520027769" lon="10.9134055618">
		<tag k="name" v="Rotbakkskaret" />
		<tag k="natural" v="valley" />
		<tag k="place" v="locality" />
		<tag k="ssr:stedsnr" v="411764" />
	</node>
	<node id="-794848" lat="63.8407444415" lon="10.9338750005">
		<tag k="name" v="Skankdalen" />
		<tag k="natural" v="valley" />
		<tag k="place" v="locality" />
		<tag k="ssr:stedsnr" v="411762" />
	</node>
	<node id="-794847" lat="63.8562638912" lon="10.9674388978">
		<tag k="fixme" v="consider natural=peak for the most distinct mountains in the district" />
		<tag k="name" v="Bløktmyrhalla" />
		<tag k="natural" v="hill" />
		<tag k="place" v="locality" />
		<tag k="ssr:stedsnr" v="411760" />
	</node>
	<node id="-794842" lat="63.8752388869" lon="11.2239222143">
		<tag k="name" v="Bringsbakken" />
		<tag k="natural" v="slope" />
		<tag k="place" v="locality" />
		<tag k="ssr:stedsnr" v="409753" />
	</node>
	<node id="-794839" lat="63.9680527766" lon="11.2969166623">
		<tag k="name" v="Gauphaugen" />
		<tag k="natural" v="hill" />
		<tag k="place" v="locality" />
		<tag k="ssr:stedsnr" v="409381" />
	</node>
	<node id="-794837" lat="63.7459138855" lon="10.9466638844">
		<tag k="name" v="Raudberget" />
		<tag k="natural" v="hill" />
		<tag k="place" v="locality" />
		<tag k="ssr:stedsnr" v="408592" />
	</node>
	<node id="-794836" lat="63.8753888851" lon="10.8787416572">
		<tag k="fixme" v="consider natural=peak for the most distinct mountains in the district" />
		<tag k="name" v="Høgberga" />
		<tag k="natural" v="hill" />
		<tag k="place" v="locality" />
		<tag k="ssr:stedsnr" v="408514" />
	</node>
	<node id="-794835" lat="63.8714249994" lon="10.8592638803">
		<tag k="name" v="Kolla" />
		<tag k="natural" v="hill" />
		<tag k="place" v="locality" />
		<tag k="ssr:stedsnr" v="408513" />
	</node>
	<node id="-795341" lat="63.8968583369" lon="11.2058027781">
		<tag k="fixme" v="consider natural=peak for the most distinct mountains in the district" />
		<tag k="name" v="Øverenghøgda" />
		<tag k="natural" v="hill" />
		<tag k="place" v="locality" />
		<tag k="ssr:stedsnr" v="838379" />
	</node>
	<node id="-794827" lat="63.8556305576" lon="11.4054722168">
		<tag k="name" v="Hellemshaugan" />
		<tag k="natural" v="hill" />
		<tag k="place" v="locality" />
		<tag k="ssr:stedsnr" v="405778" />
	</node>
	<node id="-794795" lat="63.8187388906" lon="10.9943944497">
		<tag k="name" v="Fallet" />
		<tag k="natural" v="slope" />
		<tag k="place" v="locality" />
		<tag k="ssr:stedsnr" v="390848" />
	</node>
	<node id="-794792" lat="63.8706638882" lon="11.0278694377">
		<tag k="name" v="Skaret" />
		<tag k="natural" v="valley" />
		<tag k="place" v="locality" />
		<tag k="ssr:stedsnr" v="390762" />
	</node>
	<node id="-794790" lat="63.7918583345" lon="10.979316662">
		<tag k="fixme" v="consider natural=peak for the most distinct mountains in the district" />
		<tag k="name" v="Stabergsåsen" />
		<tag k="natural" v="hill" />
		<tag k="place" v="locality" />
		<tag k="ssr:stedsnr" v="389843" />
	</node>
	<node id="-794786" lat="63.8428166681" lon="11.051013896">
		<tag k="name" v="Seterlia" />
		<tag k="natural" v="slope" />
		<tag k="place" v="locality" />
		<tag k="ssr:stedsnr" v="388847" />
	</node>
	<node id="-794784" lat="63.9495027808" lon="11.2623777868">
		<tag k="name" v="Hemrebakken" />
		<tag k="natural" v="slope" />
		<tag k="place" v="locality" />
		<tag k="ssr:stedsnr" v="378925" />
	</node>
	<node id="-794781" lat="63.7859694437" lon="10.8857944543">
		<tag k="name" v="Svartberget" />
		<tag k="natural" v="hill" />
		<tag k="place" v="locality" />
		<tag k="ssr:stedsnr" v="378779" />
	</node>
	<node id="-794779" lat="63.7861527756" lon="10.8090861168">
		<tag k="name" v="Storhaugen" />
		<tag k="natural" v="hill" />
		<tag k="place" v="locality" />
		<tag k="ssr:stedsnr" v="378771" />
	</node>
	<node id="-794770" lat="63.8588750037" lon="11.3531055492">
		<tag k="name" v="Haugdalen" />
		<tag k="natural" v="valley" />
		<tag k="place" v="locality" />
		<tag k="ssr:stedsnr" v="378145" />
	</node>
	<node id="-794765" lat="63.7975916641" lon="10.9107444492">
		<tag k="alt_name" v="Storbrandhaugen" />
		<tag k="name" v="Brandhaugen" />
		<tag k="natural" v="hill" />
		<tag k="place" v="locality" />
		<tag k="ssr:stedsnr" v="377846" />
	</node>
	<node id="-794758" lat="63.756408337" lon="10.9028611087">
		<tag k="alt_name" v="Almlidalshaugen" />
		<tag k="fixme" v="consider natural=peak for the most distinct mountains in the district" />
		<tag k="name" v="Slipergomsen" />
		<tag k="natural" v="hill" />
		<tag k="place" v="locality" />
		<tag k="ssr:stedsnr" v="377775" />
	</node>
	<node id="-794757" lat="63.7676166673" lon="10.8119166616">
		<tag k="fixme" v="consider natural=peak for the most distinct mountains in the district" />
		<tag k="name" v="Slettheia" />
		<tag k="natural" v="hill" />
		<tag k="place" v="locality" />
		<tag k="ssr:stedsnr" v="377756" />
	</node>
	<node id="-794756" lat="63.8591027785" lon="11.0942333359">
		<tag k="fixme" v="consider natural=peak for the most distinct mountains in the district" />
		<tag k="name" v="Tittinghalla" />
		<tag k="natural" v="hill" />
		<tag k="place" v="locality" />
		<tag k="ssr:stedsnr" v="377711" />
	</node>
	<node id="-794752" lat="63.8486472181" lon="11.0457916602">
		<tag k="name" v="Brasetdalen" />
		<tag k="natural" v="valley" />
		<tag k="place" v="locality" />
		<tag k="ssr:stedsnr" v="377651" />
	</node>
	<node id="-794751" lat="63.8432111073" lon="11.023755563">
		<tag k="name" v="Tungdalen" />
		<tag k="natural" v="valley" />
		<tag k="place" v="locality" />
		<tag k="ssr:stedsnr" v="377642" />
	</node>
	<node id="-794748" lat="63.8009861075" lon="10.6849305652">
		<tag k="name" v="Lomtjønnhøgda" />
		<tag k="natural" v="hill" />
		<tag k="place" v="locality" />
		<tag k="ssr:stedsnr" v="377444" />
	</node>
	<node id="-794746" lat="63.7340250008" lon="10.8531888821">
		<tag k="alt_name" v="Brannhaugen" />
		<tag k="name" v="Brennhaugen" />
		<tag k="natural" v="hill" />
		<tag k="place" v="locality" />
		<tag k="ssr:stedsnr" v="377118" />
	</node>
	<node id="-794738" lat="63.839963891" lon="11.1136249998">
		<tag k="name" v="Klippvedberget" />
		<tag k="natural" v="hill" />
		<tag k="place" v="locality" />
		<tag k="ssr:stedsnr" v="353332" />
	</node>
	<node id="-794733" lat="63.919886111" lon="11.2594500098">
		<tag k="name" v="Høgåsen" />
		<tag k="natural" v="hill" />
		<tag k="place" v="locality" />
		<tag k="ssr:stedsnr" v="353089" />
	</node>
	<node id="-794731" lat="63.9014388901" lon="11.1902027803">
		<tag k="name" v="Røahaugen" />
		<tag k="natural" v="hill" />
		<tag k="place" v="locality" />
		<tag k="ssr:stedsnr" v="352295" />
	</node>
	<node id="-794727" lat="63.8620750039" lon="10.9336472238">
		<tag k="fixme" v="consider natural=peak for the most distinct mountains in the district" />
		<tag k="name" v="Vennessvean" />
		<tag k="natural" v="hill" />
		<tag k="place" v="locality" />
		<tag k="ssr:stedsnr" v="351827" />
	</node>
	<node id="-794718" lat="63.7806555589" lon="10.8297416665">
		<tag k="name" v="Gaupholet" />
		<tag k="natural" v="valley" />
		<tag k="place" v="locality" />
		<tag k="ssr:stedsnr" v="351474" />
	</node>
	<node id="-794715" lat="63.7818916706" lon="10.7694166575">
		<tag k="fixme" v="consider natural=peak for the most distinct mountains in the district" />
		<tag k="name" v="Øyakammen" />
		<tag k="natural" v="hill" />
		<tag k="place" v="locality" />
		<tag k="ssr:stedsnr" v="351460" />
	</node>
	<node id="-794711" lat="63.8432916657" lon="11.3464249923">
		<tag k="name" v="Svarvadalen" />
		<tag k="natural" v="valley" />
		<tag k="place" v="locality" />
		<tag k="ssr:stedsnr" v="348884" />
	</node>
	<node id="-794683" lat="63.8112027792" lon="10.9530805583">
		<tag k="fixme" v="consider natural=peak for the most distinct mountains in the district" />
		<tag k="name" v="Einarhogget" />
		<tag k="natural" v="hill" />
		<tag k="place" v="locality" />
		<tag k="ssr:stedsnr" v="328583" />
	</node>
	<node id="-794676" lat="63.8613361084" lon="11.4995777866">
		<tag k="name" v="Svartdalen" />
		<tag k="natural" v="valley" />
		<tag k="place" v="locality" />
		<tag k="ssr:stedsnr" v="325528" />
	</node>
	<node id="-794658" lat="63.8764361097" lon="10.89544167">
		<tag k="fixme" v="consider natural=peak for the most distinct mountains in the district" />
		<tag k="name" v="Svartåsen" />
		<tag k="natural" v="hill" />
		<tag k="place" v="locality" />
		<tag k="ssr:stedsnr" v="317647" />
	</node>
	<node id="-794657" lat="63.83971667" lon="10.9212972297">
		<tag k="fixme" v="consider natural=peak for the most distinct mountains in the district" />
		<tag k="name" v="Tjønnlikammen" />
		<tag k="natural" v="hill" />
		<tag k="place" v="locality" />
		<tag k="ssr:stedsnr" v="317625" />
	</node>
	<node id="-794654" lat="63.8695111079" lon="11.2052083391">
		<tag k="name" v="Kyrstighaugen" />
		<tag k="natural" v="hill" />
		<tag k="place" v="locality" />
		<tag k="ssr:stedsnr" v="317683" />
	</node>
	<node id="-794649" lat="63.8470388855" lon="11.0122361113">
		<tag k="fixme" v="consider natural=peak for the most distinct mountains in the district" />
		<tag k="name" v="Bergsfjellet" />
		<tag k="natural" v="hill" />
		<tag k="place" v="locality" />
		<tag k="ssr:stedsnr" v="317585" />
	</node>
	<node id="-794648" lat="63.9010527795" lon="10.9418361093">
		<tag k="name" v="Ramsberget" />
		<tag k="natural" v="hill" />
		<tag k="place" v="locality" />
		<tag k="ssr:stedsnr" v="317446" />
	</node>
	<node id="-794642" lat="63.8714138847" lon="11.4905222218">
		<tag k="name" v="Raudfloskardet" />
		<tag k="natural" v="valley" />
		<tag k="place" v="locality" />
		<tag k="ssr:stedsnr" v="317170" />
	</node>
	<node id="-794640" lat="63.8869083336" lon="11.2472138852">
		<tag k="fixme" v="multiple name tags, choose one and add the other to alt_name; consider natural=peak for the most distinct mountains in the district" />
		<tag k="name" v="Kvistadvåttan;Våttåkammen" />
		<tag k="natural" v="hill" />
		<tag k="place" v="locality" />
		<tag k="ssr:stedsnr" v="317057" />
	</node>
	<node id="-794636" lat="63.8861305569" lon="10.9109027732">
		<tag k="fixme" v="consider natural=peak for the most distinct mountains in the district" />
		<tag k="name" v="Bjørkåsen" />
		<tag k="natural" v="hill" />
		<tag k="place" v="locality" />
		<tag k="ssr:stedsnr" v="210073" />
	</node>
	<node id="-794635" lat="63.8274805552" lon="10.7027472312">
		<tag k="name" v="Tjurrumyrdalen" />
		<tag k="natural" v="valley" />
		<tag k="place" v="locality" />
		<tag k="ssr:stedsnr" v="210039" />
	</node>
	<node id="-794632" lat="63.8941666623" lon="10.9461805628">
		<tag k="fixme" v="consider natural=peak for the most distinct mountains in the district" />
		<tag k="name" v="Blomdalskammen" />
		<tag k="natural" v="hill" />
		<tag k="place" v="locality" />
		<tag k="ssr:stedsnr" v="208838" />
	</node>
	<node id="-794631" lat="63.8846194425" lon="10.9356444458">
		<tag k="name" v="Grasholet" />
		<tag k="natural" v="valley" />
		<tag k="place" v="locality" />
		<tag k="ssr:stedsnr" v="208836" />
	</node>
	<node id="-794629" lat="63.863352782" lon="11.0033166742">
		<tag k="name" v="Brennvassdalen" />
		<tag k="natural" v="valley" />
		<tag k="place" v="locality" />
		<tag k="ssr:stedsnr" v="208787" />
	</node>
	<node id="-794628" lat="63.8615750043" lon="11.0218055612">
		<tag k="name" v="Vassdalen" />
		<tag k="natural" v="valley" />
		<tag k="place" v="locality" />
		<tag k="ssr:stedsnr" v="208785" />
	</node>
</osm>
