<?xml version="1.0" encoding="UTF-8"?>
<<<<<<< HEAD
<osm version="0.6" generator="osmapis">
	<node lat="63.86446666274911" lon="11.170252778708244" id="-34874">
		<tag k="amenity" v="community_centre" />
		<tag k="name" v="Øynheim" />
		<tag k="ssr:stedsnr" v="269343" />
	</node>
	<node lat="63.880008334041584" lon="11.108016663237931" id="-34985">
		<tag k="amenity" v="community_centre" />
		<tag k="name" v="Stokkan grendehus" />
		<tag k="ssr:stedsnr" v="464791" />
	</node>
	<node lat="63.81990407112055" lon="11.006601323463494" id="-35040">
		<tag k="amenity" v="community_centre" />
		<tag k="name" v="Mossvang" />
		<tag k="ssr:stedsnr" v="344595" />
	</node>
	<node lat="63.87514830393759" lon="11.268193480440637" id="-35244">
=======
<osm generator="osmapis" version="0.6">
	<node id="-793760" lat="63.8718242442" lon="11.2759666697">
		<tag k="alt_name" v="Inderøy" />
		<tag k="amenity" v="place_of_worship" />
		<tag k="denomination" v="lutheran" />
		<tag k="name" v="Sakshaug kyrkje" />
		<tag k="religion" v="christian" />
		<tag k="ssr:stedsnr" v="499129" />
	</node>
	<node id="-794175" lat="63.81820889" lon="10.9928261195">
		<tag k="alt_name" v="Mosvik" />
		<tag k="amenity" v="place_of_worship" />
		<tag k="denomination" v="lutheran" />
		<tag k="name" v="Mosvik kirke" />
		<tag k="old_name" v="Vinje" />
		<tag k="religion" v="christian" />
		<tag k="ssr:stedsnr" v="936488" />
	</node>
	<node id="-793629" lat="63.8737333379" lon="11.4871861076">
		<tag k="name" v="Klingerhaugen" />
		<tag k="ssr:stedsnr" v="499139" />
		<tag k="tourism" v="attraction" />
	</node>
	<node id="-795452" lat="63.966909925" lon="11.348124399">
		<tag k="amenity" v="place_of_worship" />
		<tag k="denomination" v="lutheran" />
		<tag k="name" v="Hustad kirke" />
		<tag k="religion" v="christian" />
		<tag k="ssr:stedsnr" v="973236" />
	</node>
	<node id="-794395" lat="63.8616638849" lon="11.4166388876">
		<tag k="name" v="Åsakammen" />
		<tag k="ssr:stedsnr" v="83944" />
		<tag k="tourism" v="attraction" />
	</node>
	<node id="-795450" lat="63.8607298821" lon="11.3964658694">
		<tag k="amenity" v="community_centre" />
		<tag k="name" v="Røra samfunnshus" />
		<tag k="ssr:stedsnr" v="973230" />
	</node>
	<node id="-795352" lat="63.8503845503" lon="11.4079314789">
		<tag k="alt_name" v="Røra" />
		<tag k="amenity" v="place_of_worship" />
		<tag k="denomination" v="lutheran" />
		<tag k="name" v="Salberg kirke" />
		<tag k="religion" v="christian" />
		<tag k="ssr:stedsnr" v="863124" />
	</node>
	<node id="-794932" lat="63.8751483039" lon="11.2681934804">
		<tag k="amenity" v="place_of_worship" />
		<tag k="denomination" v="lutheran" />
		<tag k="name" v="Sakshaug" />
		<tag k="religion" v="christian" />
		<tag k="ssr:stedsnr" v="526726" />
	</node>
	<node id="-793843" lat="63.8774472241" lon="11.2863166747">
		<tag k="amenity" v="community_centre" />
		<tag k="fixme" v="multiple name tags, choose one and add the other to alt_name" />
		<tag k="name" v="Akset kultur- og skolesamfunn;Inderøy kulturhus" />
		<tag k="ssr:stedsnr" v="545014" />
	</node>
	<node id="-794704" lat="63.8199040711" lon="11.0066013235">
		<tag k="amenity" v="community_centre" />
		<tag k="name" v="Mossvang" />
		<tag k="ssr:stedsnr" v="344595" />
	</node>
	<node id="-795464" lat="63.8219397075" lon="11.0150618691">
		<tag k="amenity" v="place_of_worship" />
		<tag k="fixme" v="specify religion=*, denomination=*, building=* etc" />
		<tag k="name" v="Mosvik bedehus" />
		<tag k="ssr:stedsnr" v="973283" />
	</node>
	<node id="-795469" lat="63.8362060877" lon="10.6757942545">
		<tag k="amenity" v="community_centre" />
		<tag k="name" v="Trongsundet grendehus" />
		<tag k="ssr:stedsnr" v="973722" />
	</node>
	<node id="-795468" lat="63.7911628437" lon="10.9873790024">
		<tag k="amenity" v="community_centre" />
		<tag k="name" v="Åstun grendehus" />
		<tag k="ssr:stedsnr" v="973720" />
	</node>
	<node id="-795467" lat="63.8786556994" lon="11.2878508404">
		<tag k="amenity" v="community_centre" />
		<tag k="name" v="Sakshaug flerbrukshus" />
		<tag k="ssr:stedsnr" v="973715" />
	</node>
	<node id="-793354" lat="63.8644666627" lon="11.1702527787">
		<tag k="amenity" v="community_centre" />
		<tag k="name" v="Øynheim" />
		<tag k="ssr:stedsnr" v="269343" />
	</node>
	<node id="-795465" lat="63.860763631" lon="11.1548531354">
		<tag k="amenity" v="place_of_worship" />
		<tag k="fixme" v="specify religion=*, denomination=*, building=* etc" />
		<tag k="name" v="Utøy bedehus" />
		<tag k="ssr:stedsnr" v="973285" />
	</node>
	<node id="-795373" lat="63.8578166678" lon="11.3153083279">
		<tag k="amenity" v="community_centre" />
		<tag k="name" v="Sund folkehøgskole" />
		<tag k="ssr:stedsnr" v="864143" />
	</node>
	<node id="-795462" lat="63.8142295501" lon="11.0002366111">
>>>>>>> e1d4bc35ff8a6074a6f2e91616a996b547c36f15
		<tag k="amenity" v="place_of_worship" />
		<tag k="denomination" v="lutheran" />
		<tag k="name" v="Sakshaug" />
		<tag k="religion" v="christian" />
		<tag k="ssr:stedsnr" v="526726" />
	</node>
<<<<<<< HEAD
	<node lat="63.87744722406564" lon="11.286316674692246" id="-35269">
=======
	<node id="-793541" lat="63.880008334" lon="11.1080166632">
>>>>>>> e1d4bc35ff8a6074a6f2e91616a996b547c36f15
		<tag k="amenity" v="community_centre" />
		<tag k="fixme" v="multiple name tags, choose one and add the other to alt_name" />
		<tag k="name" v="Akset kultur- og skolesamfunn;Inderøy kulturhus" />
		<tag k="ssr:stedsnr" v="545014" />
	</node>
<<<<<<< HEAD
	<node lat="63.925193578994694" lon="11.252866009164759" id="-35270">
		<tag k="amenity" v="community_centre" />
		<tag k="name" v="Malihaugen" />
		<tag k="old_name" v="Malihaug" />
		<tag k="ssr:stedsnr" v="559004" />
	</node>
	<node lat="63.85781666780356" lon="11.31530832789511" id="-35605">
		<tag k="amenity" v="community_centre" />
		<tag k="name" v="Sund folkehøgskole" />
		<tag k="ssr:stedsnr" v="864143" />
	</node>
	<node lat="63.893108329036416" lon="10.968488895568417" id="-35647">
=======
	<node id="-794978" lat="63.946690653" lon="11.3274756232">
		<tag k="alt_name" v="Sandvollan" />
		<tag k="amenity" v="place_of_worship" />
		<tag k="denomination" v="lutheran" />
		<tag k="name" v="Heggstad kirke" />
		<tag k="religion" v="christian" />
		<tag k="ssr:stedsnr" v="559931" />
	</node>
	<node id="-794113" lat="63.893108329" lon="10.9684888956">
>>>>>>> e1d4bc35ff8a6074a6f2e91616a996b547c36f15
		<tag k="amenity" v="place_of_worship" />
		<tag k="denomination" v="lutheran" />
		<tag k="name" v="Vestvik kirke" />
		<tag k="old_name" v="Verran;Framverran" />
		<tag k="religion" v="christian" />
		<tag k="ssr:stedsnr" v="924522" />
	</node>
<<<<<<< HEAD
	<node lat="63.81820889001486" lon="10.992826119544135" id="-35667">
		<tag k="alt_name" v="Mosvik" />
		<tag k="amenity" v="place_of_worship" />
		<tag k="denomination" v="lutheran" />
		<tag k="name" v="Mosvik kirke" />
		<tag k="old_name" v="Vinje" />
		<tag k="religion" v="christian" />
		<tag k="ssr:stedsnr" v="936488" />
	</node>
	<node lat="63.79116284365796" lon="10.987379002446342" id="-35704">
		<tag k="amenity" v="community_centre" />
		<tag k="name" v="Åstun grendehus" />
		<tag k="ssr:stedsnr" v="973720" />
	</node>
	<node lat="63.83620608771019" lon="10.675794254462394" id="-35705">
		<tag k="amenity" v="community_centre" />
		<tag k="name" v="Trongsundet grendehus" />
		<tag k="ssr:stedsnr" v="973722" />
	</node>
	<node lat="63.86166388491102" lon="11.41663888755574" id="-35830">
		<tag k="name" v="Åsakammen" />
		<tag k="ssr:stedsnr" v="83944" />
		<tag k="tourism" v="attraction" />
	</node>
	<node lat="63.87182424419379" lon="11.275966669694151" id="-36371">
		<tag k="alt_name" v="Inderøy" />
		<tag k="amenity" v="place_of_worship" />
		<tag k="denomination" v="lutheran" />
		<tag k="name" v="Sakshaug kyrkje" />
		<tag k="religion" v="christian" />
		<tag k="ssr:stedsnr" v="499129" />
	</node>
	<node lat="63.87373333787307" lon="11.487186107645872" id="-36373">
		<tag k="name" v="Klingerhaugen" />
		<tag k="ssr:stedsnr" v="499139" />
		<tag k="tourism" v="attraction" />
	</node>
	<node lat="63.94669065298069" lon="11.32747562324711" id="-36471">
		<tag k="alt_name" v="Sandvollan" />
		<tag k="amenity" v="place_of_worship" />
		<tag k="denomination" v="lutheran" />
		<tag k="name" v="Heggstad kirke" />
		<tag k="religion" v="christian" />
		<tag k="ssr:stedsnr" v="559931" />
	</node>
	<node lat="63.85038455028395" lon="11.407931478866185" id="-36820">
		<tag k="alt_name" v="Røra" />
		<tag k="amenity" v="place_of_worship" />
		<tag k="denomination" v="lutheran" />
		<tag k="name" v="Salberg kirke" />
		<tag k="religion" v="christian" />
		<tag k="ssr:stedsnr" v="863124" />
	</node>
=======
>>>>>>> e1d4bc35ff8a6074a6f2e91616a996b547c36f15
</osm>
