<?xml version="1.0" encoding="UTF-8"?>
<osm version="0.6" generator="osmapis">
	<node lat="63.85566111026353" lon="11.46260832552117" id="-50770">
		<tag k="name" v="Finnheimen" />
		<tag k="place" v="locality" />
		<tag k="ssr:stedsnr" v="230746" />
	</node>
	<node lat="63.852241664856294" lon="11.121358339753039" id="-50776">
		<tag k="fixme" v="consider place=hamlet" />
		<tag k="name" v="Leira" />
		<tag k="place" v="farm" />
		<tag k="ssr:stedsnr" v="231336" />
	</node>
	<node lat="63.745044444964144" lon="10.91908056323875" id="-50780">
		<tag k="name" v="Sliperdalen" />
		<tag k="place" v="farm" />
		<tag k="ssr:stedsnr" v="13162" />
	</node>
	<node lat="63.89878611563337" lon="11.164891663459896" id="-50783">
		<tag k="alt_name" v="Bergsåsen" />
		<tag k="name" v="Bergåsen" />
		<tag k="place" v="farm" />
		<tag k="ssr:stedsnr" v="13571" />
	</node>
	<node lat="63.962884957078515" lon="11.272460399893642" id="-50784">
		<tag k="name" v="Ålbergsjøen" />
		<tag k="place" v="farm" />
		<tag k="ssr:stedsnr" v="13869" />
	</node>
	<node lat="63.847696253808856" lon="11.405435264184733" id="-50786">
		<tag k="fixme" v="consider place=hamlet" />
		<tag k="name" v="Koa" />
		<tag k="place" v="farm" />
		<tag k="ssr:stedsnr" v="14108" />
	</node>
	<node lat="63.78273194144988" lon="10.81372511642128" id="-50789">
		<tag k="fixme" v="consider place=hamlet" />
		<tag k="name" v="Kilen" />
		<tag k="place" v="farm" />
		<tag k="ssr:stedsnr" v="14712" />
	</node>
	<node lat="63.855633389095125" lon="11.132320015633839" id="-50791">
		<tag k="fixme" v="consider place=hamlet" />
		<tag k="name" v="Kjellåsen" />
		<tag k="place" v="farm" />
		<tag k="ssr:stedsnr" v="14601" />
	</node>
	<node lat="63.84728485739984" lon="11.161310791512292" id="-50794">
		<tag k="fixme" v="consider place=hamlet" />
		<tag k="name" v="Rostad" />
		<tag k="place" v="farm" />
		<tag k="ssr:stedsnr" v="14628" />
	</node>
	<node lat="63.834008594400565" lon="10.968088837917062" id="-50795">
		<tag k="fixme" v="consider place=hamlet" />
		<tag k="name" v="Hamstad" />
		<tag k="place" v="farm" />
		<tag k="ssr:stedsnr" v="14640" />
	</node>
	<node lat="63.86798333101375" lon="10.986047219157234" id="-50796">
		<tag k="name" v="Tjuruhellan" />
		<tag k="place" v="isolated_dwelling" />
		<tag k="ssr:stedsnr" v="14657" />
	</node>
	<node lat="63.8797911586932" lon="11.128657780632063" id="-50798">
		<tag k="fixme" v="consider place=hamlet" />
		<tag k="name" v="Hallset" />
		<tag k="place" v="farm" />
		<tag k="ssr:stedsnr" v="14672" />
	</node>
	<node lat="63.877797218267624" lon="11.046486107263476" id="-50799">
		<tag k="name" v="Odden" />
		<tag k="place" v="farm" />
		<tag k="ssr:stedsnr" v="14673" />
	</node>
	<node lat="63.87783888946298" lon="11.02433332833873" id="-50800">
		<tag k="name" v="Svedjan" />
		<tag k="place" v="farm" />
		<tag k="ssr:stedsnr" v="14676" />
	</node>
	<node lat="63.96033333100418" lon="11.293666669669882" id="-50801">
		<tag k="name" v="Nyheim" />
		<tag k="place" v="farm" />
		<tag k="ssr:stedsnr" v="14874" />
	</node>
	<node lat="63.8726757953615" lon="11.221560233920746" id="-50810">
		<tag k="name" v="Hjulstad" />
		<tag k="place" v="hamlet" />
		<tag k="ssr:stedsnr" v="26372" />
	</node>
	<node lat="63.88932726501055" lon="11.189660993954421" id="-50811">
		<tag k="fixme" v="consider place=hamlet" />
		<tag k="name" v="Gausa" />
		<tag k="place" v="farm" />
		<tag k="ssr:stedsnr" v="26374" />
	</node>
	<node lat="63.90072778031252" lon="11.173869451917094" id="-50812">
		<tag k="name" v="Berg" />
		<tag k="place" v="farm" />
		<tag k="ssr:stedsnr" v="26375" />
	</node>
	<node lat="63.82766666926605" lon="10.984669449665509" id="-50814">
		<tag k="name" v="Dalsveet" />
		<tag k="place" v="farm" />
		<tag k="ssr:stedsnr" v="26808" />
	</node>
	<node lat="63.82338888498209" lon="11.018725008731009" id="-50815">
		<tag k="fixme" v="consider place=hamlet" />
		<tag k="name" v="Litl-Grande" />
		<tag k="place" v="farm" />
		<tag k="ssr:stedsnr" v="26809" />
	</node>
	<node lat="63.835141665516105" lon="10.7037472179126" id="-50817">
		<tag k="name" v="Litlaunet" />
		<tag k="place" v="farm" />
		<tag k="ssr:stedsnr" v="28042" />
	</node>
	<node lat="63.925060758367145" lon="11.267544416690024" id="-50832">
		<tag k="name" v="Verstad" />
		<tag k="place" v="farm" />
		<tag k="ssr:stedsnr" v="49110" />
	</node>
	<node lat="63.86935555707927" lon="11.285352786601415" id="-50833">
		<tag k="name" v="Vangslia" />
		<tag k="place" v="quarter" />
		<tag k="ssr:stedsnr" v="50089" />
	</node>
	<node lat="63.877148763001856" lon="11.287244551633048" id="-50834">
		<tag k="amenity" v="school" />
		<tag k="name" v="Inderøy videregående skole" />
		<tag k="ssr:stedsnr" v="55175" />
	</node>
	<node lat="63.863377777982926" lon="11.219386112786955" id="-50838">
		<tag k="loc_name" v="Sjøsveet nedre" />
		<tag k="name" v="Nedre Sjøsveet" />
		<tag k="place" v="isolated_dwelling" />
		<tag k="ssr:stedsnr" v="241162" />
	</node>
	<node lat="63.87292222613555" lon="11.29700555696405" id="-50840">
		<tag k="name" v="Vaggplassen" />
		<tag k="place" v="square" />
		<tag k="ssr:stedsnr" v="242682" />
	</node>
	<node lat="63.92492499992874" lon="11.27873611051984" id="-50841">
		<tag k="name" v="Flatåsgjerdet" />
		<tag k="place" v="farm" />
		<tag k="ssr:stedsnr" v="74008" />
	</node>
	<node lat="63.92106428831137" lon="11.287380183611077" id="-50842">
		<tag k="alt_name" v="Flatås, nedre;Flatås" />
		<tag k="fixme" v="consider place=hamlet" />
		<tag k="name" v="Nedre Flatås" />
		<tag k="place" v="farm" />
		<tag k="ssr:stedsnr" v="74009" />
	</node>
	<node lat="63.883948597965485" lon="11.283900558294606" id="-50844">
		<tag k="fixme" v="consider place=hamlet" />
		<tag k="name" v="Li" />
		<tag k="place" v="farm" />
		<tag k="ssr:stedsnr" v="74073" />
	</node>
	<node lat="63.89647777425935" lon="11.182341663526499" id="-50846">
		<tag k="name" v="Nord-Lyngstad" />
		<tag k="place" v="farm" />
		<tag k="ssr:stedsnr" v="74557" />
	</node>
	<node lat="63.851438889466515" lon="11.091588891507165" id="-50847">
		<tag k="name" v="Vangshaugen" />
		<tag k="place" v="farm" />
		<tag k="ssr:stedsnr" v="74660" />
	</node>
	<node lat="63.854560531122026" lon="11.048042217003564" id="-50848">
		<tag k="fixme" v="multiple name tags, choose one and add the other to alt_name" />
		<tag k="name" v="Småhaugan;Småvikhaugen" />
		<tag k="place" v="locality" />
		<tag k="ssr:stedsnr" v="74662" />
	</node>
	<node lat="63.771883334693975" lon="10.974541663834184" id="-50853">
		<tag k="name" v="Brattreit" />
		<tag k="place" v="farm" />
		<tag k="ssr:stedsnr" v="74774" />
	</node>
	<node lat="63.886564144060166" lon="11.302736117104471" id="-50854">
		<tag k="name" v="Hamsås" />
		<tag k="place" v="farm" />
		<tag k="ssr:stedsnr" v="75056" />
	</node>
	<node lat="63.867849629571246" lon="11.385924144876775" id="-50855">
		<tag k="alt_name" v="Kletten" />
		<tag k="fixme" v="consider place=hamlet" />
		<tag k="name" v="Grindberg" />
		<tag k="place" v="farm" />
		<tag k="ssr:stedsnr" v="75156" />
	</node>
	<node lat="63.86559594742557" lon="11.36142207945174" id="-50856">
		<tag k="alt_name" v="Rol, austre" />
		<tag k="fixme" v="multiple name tags, choose one and add the other to alt_name" />
		<tag k="name" v="Rol;Austre Rol" />
		<tag k="place" v="farm" />
		<tag k="ssr:stedsnr" v="75159" />
	</node>
	<node lat="63.87034633590128" lon="11.40297444978948" id="-50857">
		<tag k="name" v="Søre Lorås" />
		<tag k="place" v="farm" />
		<tag k="ssr:stedsnr" v="75170" />
	</node>
	<node lat="63.88879722353413" lon="11.427355562306143" id="-50865">
		<tag k="name" v="Søre Røskje" />
		<tag k="place" v="farm" />
		<tag k="ssr:stedsnr" v="83816" />
	</node>
	<node lat="63.85251388642936" lon="11.04494722038596" id="-50867">
		<tag k="name" v="Finnheimen" />
		<tag k="place" v="locality" />
		<tag k="ssr:stedsnr" v="85828" />
	</node>
	<node lat="63.877311112362406" lon="11.106883325552893" id="-50871">
		<tag k="name" v="Stokkan" />
		<tag k="place" v="farm" />
		<tag k="ssr:stedsnr" v="87775" />
	</node>
	<node lat="63.87225278057735" lon="11.366094439800621" id="-50887">
		<tag k="name" v="Heggstad" />
		<tag k="place" v="farm" />
		<tag k="ssr:stedsnr" v="107904" />
	</node>
	<node lat="63.83992221921251" lon="11.321622224334325" id="-50888">
		<tag k="name" v="Austvika" />
		<tag k="place" v="farm" />
		<tag k="ssr:stedsnr" v="107880" />
	</node>
	<node lat="63.84971388508802" lon="11.029338888755754" id="-50897">
		<tag k="historic" v="shieling" />
		<tag k="name" v="Selsetseteren" />
		<tag k="place" v="isolated_dwelling" />
		<tag k="ssr:stedsnr" v="109729" />
	</node>
	<node lat="63.85789722405579" lon="10.981724997543818" id="-50898">
		<tag k="historic" v="shieling" />
		<tag k="name" v="Revdalsseteren" />
		<tag k="place" v="isolated_dwelling" />
		<tag k="ssr:stedsnr" v="109733" />
	</node>
	<node lat="63.74158311709636" lon="10.92332913356514" id="-50907">
		<tag k="fixme" v="consider place=hamlet" />
		<tag k="name" v="Slipra" />
		<tag k="place" v="farm" />
		<tag k="ssr:stedsnr" v="134162" />
	</node>
	<node lat="63.962613893438046" lon="11.376466657997717" id="-50908">
		<tag k="name" v="Holmen" />
		<tag k="place" v="farm" />
		<tag k="ssr:stedsnr" v="134902" />
	</node>
	<node lat="63.90859861429374" lon="11.25171993945788" id="-50909">
		<tag k="fixme" v="consider place=hamlet" />
		<tag k="name" v="Sætran" />
		<tag k="place" v="farm" />
		<tag k="ssr:stedsnr" v="135104" />
	</node>
	<node lat="63.844246248079344" lon="11.387559213960657" id="-50910">
		<tag k="alt_name" v="Austad, søre" />
		<tag k="fixme" v="multiple name tags, choose one and add the other to alt_name" />
		<tag k="name" v="Austad;Søre Austad" />
		<tag k="place" v="farm" />
		<tag k="ssr:stedsnr" v="135117" />
	</node>
	<node lat="63.84118128996777" lon="11.36585349837032" id="-50911">
		<tag k="fixme" v="consider place=hamlet" />
		<tag k="name" v="Nordberg" />
		<tag k="place" v="farm" />
		<tag k="ssr:stedsnr" v="135226" />
	</node>
	<node lat="63.872884287415694" lon="11.129527202036819" id="-50912">
		<tag k="name" v="Farbua" />
		<tag k="place" v="hamlet" />
		<tag k="ssr:stedsnr" v="135717" />
	</node>
	<node lat="63.86621538260819" lon="11.177904858022895" id="-50913">
		<tag k="fixme" v="consider place=hamlet" />
		<tag k="name" v="Haugberg" />
		<tag k="place" v="farm" />
		<tag k="ssr:stedsnr" v="135725" />
	</node>
	<node lat="63.86558055469678" lon="11.166572222544833" id="-50914">
		<tag k="name" v="Melhus" />
		<tag k="place" v="farm" />
		<tag k="ssr:stedsnr" v="135726" />
	</node>
	<node lat="63.841927781500246" lon="11.125091672795362" id="-50917">
		<tag k="name" v="Nessanden" />
		<tag k="place" v="farm" />
		<tag k="ssr:stedsnr" v="135621" />
	</node>
	<node lat="63.828060283343845" lon="10.992374749203572" id="-50919">
		<tag k="fixme" v="consider place=hamlet" />
		<tag k="name" v="Øksnåsen" />
		<tag k="place" v="farm" />
		<tag k="ssr:stedsnr" v="135655" />
	</node>
	<node lat="63.833705553974504" lon="10.693916671732048" id="-50922">
		<tag k="fixme" v="multiple name tags, choose one and add the other to alt_name" />
		<tag k="loc_name" v="Ytterhovd" />
		<tag k="name" v="Hovd vestre;Hovd" />
		<tag k="place" v="farm" />
		<tag k="ssr:stedsnr" v="255486" />
	</node>
	<node lat="63.87175833420021" lon="11.083449996622408" id="-50925">
		<tag k="name" v="Jåset" />
		<tag k="place" v="farm" />
		<tag k="ssr:stedsnr" v="146710" />
	</node>
	<node lat="63.72616666300558" lon="10.86915278009935" id="-50927">
		<tag k="fixme" v="consider place=hamlet" />
		<tag k="name" v="Kalddalen" />
		<tag k="place" v="farm" />
		<tag k="ssr:stedsnr" v="256123" />
	</node>
	<node lat="63.927574253247776" lon="11.28641444682565" id="-50928">
		<tag k="fixme" v="consider place=hamlet" />
		<tag k="name" v="Andset" />
		<tag k="place" v="farm" />
		<tag k="ssr:stedsnr" v="256029" />
	</node>
	<node lat="63.933597460109226" lon="11.224799443446468" id="-50930">
		<tag k="alt_name" v="Naustvoll" />
		<tag k="fixme" v="consider place=hamlet" />
		<tag k="name" v="Naustvollan" />
		<tag k="place" v="farm" />
		<tag k="ssr:stedsnr" v="256053" />
	</node>
	<node lat="63.823066668249524" lon="11.011833336760942" id="-50931">
		<tag k="name" v="Voll" />
		<tag k="place" v="farm" />
		<tag k="ssr:stedsnr" v="147756" />
	</node>
	<node lat="63.81858333588141" lon="10.986144439790863" id="-50932">
		<tag k="name" v="Kvernbakken" />
		<tag k="place" v="farm" />
		<tag k="ssr:stedsnr" v="147757" />
	</node>
	<node lat="63.85795696653094" lon="11.4483957575396" id="-50933">
		<tag k="fixme" v="consider place=hamlet" />
		<tag k="name" v="Nordheia" />
		<tag k="place" v="farm" />
		<tag k="ssr:stedsnr" v="256144" />
	</node>
	<node lat="63.85601502156639" lon="11.182880484365342" id="-50936">
		<tag k="name" v="Undersåker" />
		<tag k="place" v="hamlet" />
		<tag k="ssr:stedsnr" v="256627" />
	</node>
	<node lat="63.853119445649284" lon="11.144105565684983" id="-50937">
		<tag k="name" v="Sollia" />
		<tag k="place" v="farm" />
		<tag k="ssr:stedsnr" v="256628" />
	</node>
	<node lat="63.8386157490408" lon="11.055627236147274" id="-50938">
		<tag k="fixme" v="consider place=hamlet" />
		<tag k="name" v="Dukletten" />
		<tag k="place" v="farm" />
		<tag k="ssr:stedsnr" v="256635" />
	</node>
	<node lat="63.82439167084564" lon="10.98964166101611" id="-50939">
		<tag k="name" v="Bergli" />
		<tag k="place" v="farm" />
		<tag k="ssr:stedsnr" v="256643" />
	</node>
	<node lat="63.883769445931755" lon="10.955958325360864" id="-50941">
		<tag k="name" v="Geitåsaunet" />
		<tag k="place" v="farm" />
		<tag k="ssr:stedsnr" v="256669" />
	</node>
	<node lat="63.878699995837614" lon="10.879283337168237" id="-50942">
		<tag k="name" v="Steinen" />
		<tag k="place" v="farm" />
		<tag k="ssr:stedsnr" v="256673" />
	</node>
	<node lat="63.86490555565562" lon="11.136455561591173" id="-50947">
		<tag k="name" v="Bruåsgjerdet" />
		<tag k="place" v="farm" />
		<tag k="ssr:stedsnr" v="256700" />
	</node>
	<node lat="63.82095833239358" lon="10.967552778406244" id="-50948">
		<tag k="name" v="Oppheim" />
		<tag k="place" v="farm" />
		<tag k="ssr:stedsnr" v="256779" />
	</node>
	<node lat="63.79161666330625" lon="10.934041670125206" id="-50950">
		<tag k="name" v="Nordsetran" />
		<tag k="place" v="locality" />
		<tag k="ssr:stedsnr" v="256830" />
	</node>
	<node lat="63.968392935503694" lon="11.29077515489898" id="-50951">
		<tag k="fixme" v="consider place=hamlet" />
		<tag k="name" v="Stornes" />
		<tag k="place" v="farm" />
		<tag k="ssr:stedsnr" v="256840" />
	</node>
	<node lat="63.75127222622537" lon="10.949486118935381" id="-50955">
		<tag k="alt_name" v="Trosetaunet;Ås" />
		<tag k="name" v="Åssveet" />
		<tag k="place" v="farm" />
		<tag k="ssr:stedsnr" v="256946" />
	</node>
	<node lat="63.854579811518796" lon="11.43162672263875" id="-50956">
		<tag k="fixme" v="consider place=hamlet" />
		<tag k="name" v="Lekset" />
		<tag k="place" v="farm" />
		<tag k="ssr:stedsnr" v="257147" />
	</node>
	<node lat="63.92649833333866" lon="11.258042246498988" id="-50968">
		<tag k="name" v="Store Verstad" />
		<tag k="place" v="farm" />
		<tag k="ssr:stedsnr" v="162980" />
	</node>
	<node lat="63.84543611043501" lon="10.802219452901365" id="-50969">
		<tag k="name" v="Svean" />
		<tag k="place" v="isolated_dwelling" />
		<tag k="ssr:stedsnr" v="165410" />
	</node>
	<node lat="63.860283334433845" lon="10.931947216521053" id="-50975">
		<tag k="historic" v="shieling" />
		<tag k="name" v="Vennesseteren" />
		<tag k="place" v="isolated_dwelling" />
		<tag k="ssr:stedsnr" v="169819" />
	</node>
	<node lat="63.852155557616484" lon="11.358772230511951" id="-50976">
		<tag k="name" v="Kuruhaugen" />
		<tag k="place" v="farm" />
		<tag k="ssr:stedsnr" v="170002" />
	</node>
	<node lat="63.934949409506984" lon="11.312277560010411" id="-50978">
		<tag k="fixme" v="consider place=hamlet" />
		<tag k="name" v="Åsen" />
		<tag k="place" v="farm" />
		<tag k="ssr:stedsnr" v="196050" />
	</node>
	<node lat="63.818950002398275" lon="11.01106110706286" id="-50985">
		<tag k="name" v="Alstad" />
		<tag k="place" v="farm" />
		<tag k="ssr:stedsnr" v="196805" />
	</node>
	<node lat="63.89022463721915" lon="11.169853174234246" id="-51007">
		<tag k="fixme" v="consider place=hamlet" />
		<tag k="name" v="Reitan" />
		<tag k="place" v="farm" />
		<tag k="ssr:stedsnr" v="269349" />
	</node>
	<node lat="63.90476944236219" lon="11.312566661350946" id="-51017">
		<tag k="loc_name" v="Verdal indre" />
		<tag k="name" v="Indre Verdal" />
		<tag k="place" v="farm" />
		<tag k="ssr:stedsnr" v="221726" />
	</node>
	<node lat="63.89751111235227" lon="11.30608055355818" id="-51019">
		<tag k="loc_name" v="Verdal nordre" />
		<tag k="name" v="Nordre Verdal" />
		<tag k="place" v="farm" />
		<tag k="ssr:stedsnr" v="221825" />
	</node>
	<node lat="63.86828611380863" lon="11.213727777314121" id="-51030">
		<tag k="building" v="industrial" />
		<tag k="name" v="Røviktømtet" />
		<tag k="ssr:stedsnr" v="271662" />
	</node>
	<node lat="63.85603333558711" lon="11.20003889041721" id="-51040">
		<tag k="name" v="Kvamsholmen" />
		<tag k="place" v="farm" />
		<tag k="ssr:stedsnr" v="231484" />
	</node>
	<node lat="63.905633332991826" lon="11.188722217597034" id="-51041">
		<tag k="name" v="Ner-By" />
		<tag k="place" v="farm" />
		<tag k="ssr:stedsnr" v="231339" />
	</node>
	<node lat="63.90038333274097" lon="11.189227774242054" id="-51042">
		<tag k="name" v="By" />
		<tag k="place" v="farm" />
		<tag k="ssr:stedsnr" v="231388" />
	</node>
	<node lat="63.89485136663084" lon="11.193304238384554" id="-51043">
		<tag k="fixme" v="consider place=hamlet" />
		<tag k="name" v="Tronstad" />
		<tag k="place" v="farm" />
		<tag k="ssr:stedsnr" v="231389" />
	</node>
	<node lat="63.85217500295976" lon="11.186575006400444" id="-51045">
		<tag k="name" v="Simastøa" />
		<tag k="place" v="isolated_dwelling" />
		<tag k="ssr:stedsnr" v="231514" />
	</node>
	<node lat="63.87285857674247" lon="11.29057570412612" id="-51046">
		<tag k="name" v="Lehnhaugen" />
		<tag k="place" v="quarter" />
		<tag k="ssr:stedsnr" v="232102" />
	</node>
	<node lat="63.86034444510838" lon="11.397074995004964" id="-51048">
		<tag k="amenity" v="school" />
		<tag k="name" v="Røra skole" />
		<tag k="ssr:stedsnr" v="237178" />
	</node>
	<node lat="63.781863888480714" lon="10.983891663318543" id="-51053">
		<tag k="name" v="Aunet" />
		<tag k="place" v="farm" />
		<tag k="ssr:stedsnr" v="450856" />
	</node>
	<node lat="63.88130555335456" lon="10.965983329746939" id="-51057">
		<tag k="name" v="Selliaunet" />
		<tag k="place" v="locality" />
		<tag k="ssr:stedsnr" v="451829" />
	</node>
	<node lat="63.77255000036834" lon="10.980333326140958" id="-51058">
		<tag k="name" v="Arntplassen" />
		<tag k="place" v="locality" />
		<tag k="ssr:stedsnr" v="451833" />
	</node>
	<node lat="63.8383611122178" lon="10.710416676854187" id="-51063">
		<tag k="fixme" v="multiple name tags, choose one and add the other to alt_name" />
		<tag k="name" v="Hovd;Østerhovd" />
		<tag k="place" v="farm" />
		<tag k="ssr:stedsnr" v="453053" />
	</node>
	<node lat="63.84628889185929" lon="10.793972229711098" id="-51069">
		<tag k="name" v="Solvang" />
		<tag k="place" v="farm" />
		<tag k="ssr:stedsnr" v="256604" />
	</node>
	<node lat="63.88886944267539" lon="10.982308342599186" id="-51073">
		<tag k="name" v="Myrvoll" />
		<tag k="place" v="farm" />
		<tag k="ssr:stedsnr" v="256508" />
	</node>
	<node lat="63.85818889336802" lon="11.167427772993625" id="-51074">
		<tag k="name" v="Jystadgjerdet" />
		<tag k="place" v="farm" />
		<tag k="ssr:stedsnr" v="256703" />
	</node>
	<node lat="63.75237777555737" lon="10.95136667477049" id="-51075">
		<tag k="name" v="Litl-Troset" />
		<tag k="place" v="farm" />
		<tag k="ssr:stedsnr" v="256759" />
	</node>
	<node lat="63.821236110171995" lon="11.004905557714073" id="-51079">
		<tag k="fixme" v="consider place=hamlet" />
		<tag k="name" v="Mosvik" />
		<tag k="place" v="village" />
		<tag k="ssr:stedsnr" v="256771" />
	</node>
	<node lat="63.95143889200816" lon="11.322772216722646" id="-51081">
		<tag k="name" v="Hestenget" />
		<tag k="place" v="farm" />
		<tag k="ssr:stedsnr" v="256905" />
	</node>
	<node lat="63.9476187915006" lon="11.329473782998715" id="-51082">
		<tag k="fixme" v="consider place=hamlet" />
		<tag k="name" v="Heggstad" />
		<tag k="place" v="farm" />
		<tag k="ssr:stedsnr" v="256909" />
	</node>
	<node lat="63.93426388817623" lon="11.343288890115815" id="-51083">
		<tag k="name" v="Laberget" />
		<tag k="place" v="farm" />
		<tag k="ssr:stedsnr" v="257055" />
	</node>
	<node lat="63.87480833381266" lon="11.005727785473836" id="-51087">
		<tag k="name" v="Solberg" />
		<tag k="place" v="farm" />
		<tag k="ssr:stedsnr" v="269791" />
	</node>
	<node lat="63.87232222559303" lon="11.36866666675817" id="-51101">
		<tag k="loc_name" v="Sørlia øvre" />
		<tag k="name" v="Øvre Sørlia" />
		<tag k="place" v="farm" />
		<tag k="ssr:stedsnr" v="284733" />
	</node>
	<node lat="63.85699722498028" lon="11.403975005062144" id="-51108">
		<tag k="name" v="Hellemshaugan" />
		<tag k="place" v="quarter" />
		<tag k="ssr:stedsnr" v="292028" />
	</node>
	<node lat="63.90101111169362" lon="11.259172217182375" id="-51109">
		<tag k="fixme" v="consider place=hamlet" />
		<tag k="name" v="Herstad" />
		<tag k="place" v="farm" />
		<tag k="ssr:stedsnr" v="292092" />
	</node>
	<node lat="63.89021110918492" lon="11.275455554558834" id="-51110">
		<tag k="name" v="Nyborg" />
		<tag k="place" v="farm" />
		<tag k="ssr:stedsnr" v="292097" />
	</node>
	<node lat="63.860988885191695" lon="11.156238893806112" id="-51118">
		<tag k="amenity" v="school" />
		<tag k="name" v="Utøy skole" />
		<tag k="ssr:stedsnr" v="464650" />
	</node>
	<node lat="63.87162500234759" lon="11.296166660193322" id="-51129">
		<tag k="name" v="Straumen" />
		<tag k="place" v="village" />
		<tag k="ssr:stedsnr" v="317147" />
	</node>
	<node lat="63.898874425886255" lon="11.194848605032139" id="-51130">
		<tag k="alt_name" v="Litleby;Lilleby" />
		<tag k="name" v="Litl-By" />
		<tag k="place" v="farm" />
		<tag k="ssr:stedsnr" v="317518" />
	</node>
	<node lat="63.88858889005542" lon="10.975238896320484" id="-51131">
		<tag k="name" v="Grana" />
		<tag k="place" v="isolated_dwelling" />
		<tag k="ssr:stedsnr" v="317493" />
	</node>
	<node lat="63.83170833659609" lon="10.941447231281344" id="-51133">
		<tag k="name" v="Myrland" />
		<tag k="place" v="farm" />
		<tag k="ssr:stedsnr" v="317608" />
	</node>
	<node lat="63.825455551831205" lon="10.998394440921002" id="-51134">
		<tag k="name" v="Gustad" />
		<tag k="place" v="farm" />
		<tag k="ssr:stedsnr" v="317610" />
	</node>
	<node lat="63.943650000898224" lon="11.330291673045494" id="-51136">
		<tag k="alt_name" v="Kløvstad, nordre;Klefstad" />
		<tag k="name" v="Nordre Kløvstad" />
		<tag k="place" v="farm" />
		<tag k="ssr:stedsnr" v="317904" />
	</node>
	<node lat="63.96721944638964" lon="11.284016675586265" id="-51142">
		<tag k="name" v="Bjørkli" />
		<tag k="place" v="isolated_dwelling" />
		<tag k="ssr:stedsnr" v="317844" />
	</node>
	<node lat="63.870833335089905" lon="11.50797223160466" id="-51144">
		<tag k="historic" v="shieling" />
		<tag k="name" v="Stubbsetran" />
		<tag k="place" v="isolated_dwelling" />
		<tag k="ssr:stedsnr" v="325522" />
	</node>
	<node lat="63.89003611521092" lon="10.947700001886053" id="-51146">
		<tag k="name" v="Høgsveet" />
		<tag k="place" v="locality" />
		<tag k="ssr:stedsnr" v="329809" />
	</node>
	<node lat="63.81851666628275" lon="10.669647230022479" id="-51151">
		<tag k="name" v="Olastuflata" />
		<tag k="place" v="locality" />
		<tag k="ssr:stedsnr" v="332043" />
	</node>
	<node lat="63.861480560061864" lon="11.162752771610204" id="-51161">
		<tag k="loc_name" v="Jystad nedre" />
		<tag k="name" v="Nordre Jystad" />
		<tag k="place" v="farm" />
		<tag k="ssr:stedsnr" v="342581" />
	</node>
	<node lat="63.86008888830087" lon="11.16269167142251" id="-51162">
		<tag k="alt_name" v="Jystad søndre" />
		<tag k="name" v="Søndre Jystad" />
		<tag k="place" v="farm" />
		<tag k="ssr:stedsnr" v="342582" />
	</node>
	<node lat="63.843566663787286" lon="10.935419445296555" id="-51165">
		<tag k="historic" v="shieling" />
		<tag k="name" v="Gammelseteren" />
		<tag k="place" v="isolated_dwelling" />
		<tag k="ssr:stedsnr" v="472754" />
	</node>
	<node lat="63.86854721885801" lon="11.214336117413621" id="-51166">
		<tag k="name" v="Tømte" />
		<tag k="place" v="quarter" />
		<tag k="ssr:stedsnr" v="343347" />
	</node>
	<node lat="63.850758330055314" lon="11.150611103082966" id="-51168">
		<tag k="alt_name" v="Ulvengjerdet" />
		<tag k="name" v="Ulvingjardet" />
		<tag k="place" v="farm" />
		<tag k="ssr:stedsnr" v="344049" />
	</node>
	<node lat="63.949706452883824" lon="11.33408009082222" id="-51174">
		<tag k="alt_name" v="Sandvollan samfunnshus" />
		<tag k="amenity" v="school" />
		<tag k="name" v="Sandvollan skole" />
		<tag k="old_name" v="Midtun" />
		<tag k="ssr:stedsnr" v="344909" />
	</node>
	<node lat="63.9480888920554" lon="11.283552787344943" id="-51186">
		<tag k="name" v="Manem" />
		<tag k="place" v="farm" />
		<tag k="ssr:stedsnr" v="473999" />
	</node>
	<node lat="63.95113888683737" lon="11.336211103661881" id="-51187">
		<tag k="alt_name" v="Øvre Skjelvan;Skjelvan øvre" />
		<tag k="name" v="Øver-Skjelva" />
		<tag k="place" v="farm" />
		<tag k="ssr:stedsnr" v="474180" />
	</node>
	<node lat="63.8482527746864" lon="10.837419441092807" id="-51193">
		<tag k="historic" v="shieling" />
		<tag k="name" v="Aunseteren" />
		<tag k="place" v="isolated_dwelling" />
		<tag k="ssr:stedsnr" v="351512" />
	</node>
	<node lat="63.8512777781798" lon="11.14821945067974" id="-51195">
		<tag k="name" v="Skogheim" />
		<tag k="place" v="farm" />
		<tag k="ssr:stedsnr" v="474299" />
	</node>
	<node lat="63.88066944125847" lon="11.185480559458224" id="-51196">
		<tag k="name" v="Oksålgjerdet" />
		<tag k="place" v="farm" />
		<tag k="ssr:stedsnr" v="474359" />
	</node>
	<node lat="63.877986937676596" lon="11.26199402349841" id="-51199">
		<tag k="fixme" v="consider place=hamlet" />
		<tag k="name" v="Berg" />
		<tag k="place" v="farm" />
		<tag k="ssr:stedsnr" v="353108" />
	</node>
	<node lat="63.87679999687142" lon="11.290947227463674" id="-51200">
		<tag k="name" v="Årfallvegen" />
		<tag k="place" v="quarter" />
		<tag k="ssr:stedsnr" v="353111" />
	</node>
	<node lat="63.877358332706955" lon="11.226183341560066" id="-51206">
		<tag k="alt_name" v="Volmoen" />
		<tag k="name" v="Moen" />
		<tag k="place" v="farm" />
		<tag k="ssr:stedsnr" v="378175" />
	</node>
	<node lat="63.833048340919994" lon="10.972875241223758" id="-51207">
		<tag k="name" v="Lidarheim" />
		<tag k="place" v="farm" />
		<tag k="ssr:stedsnr" v="378703" />
	</node>
	<node lat="63.875633330021735" lon="11.004788881814143" id="-51208">
		<tag k="alt_name" v="Bakken" />
		<tag k="name" v="Hokstad" />
		<tag k="place" v="farm" />
		<tag k="ssr:stedsnr" v="378717" />
	</node>
	<node lat="63.876602731562116" lon="10.95177246063088" id="-51209">
		<tag k="fixme" v="consider place=hamlet" />
		<tag k="name" v="Rognlia" />
		<tag k="place" v="farm" />
		<tag k="ssr:stedsnr" v="378718" />
	</node>
	<node lat="63.79723333064515" lon="10.96974167124063" id="-51218">
		<tag k="name" v="Høgsvea" />
		<tag k="place" v="locality" />
		<tag k="ssr:stedsnr" v="389620" />
	</node>
	<node lat="63.86758055198516" lon="11.104005551985017" id="-51220">
		<tag k="name" v="Ytteraunet" />
		<tag k="place" v="locality" />
		<tag k="ssr:stedsnr" v="390752" />
	</node>
	<node lat="63.899972225189124" lon="11.194127771602847" id="-51240">
		<tag k="alt_name" v="Søndre By" />
		<tag k="loc_name" v="By søndre" />
		<tag k="name" v="Svenskgjerdet" />
		<tag k="place" v="farm" />
		<tag k="ssr:stedsnr" v="405836" />
	</node>
	<node lat="63.85314722384711" lon="10.81178333193492" id="-51242">
		<tag k="name" v="Kvernhuset" />
		<tag k="place" v="locality" />
		<tag k="ssr:stedsnr" v="408505" />
	</node>
	<node lat="63.912738888337785" lon="11.183605564509378" id="-51253">
		<tag k="name" v="Kjerknes" />
		<tag k="place" v="farm" />
		<tag k="ssr:stedsnr" v="413409" />
	</node>
	<node lat="63.868655559836576" lon="11.14199445445306" id="-51254">
		<tag k="name" v="Stavran" />
		<tag k="place" v="farm" />
		<tag k="ssr:stedsnr" v="413437" />
	</node>
	<node lat="63.876311110111985" lon="11.274386106493873" id="-51257">
		<tag k="name" v="Fagerbakken" />
		<tag k="place" v="farm" />
		<tag k="ssr:stedsnr" v="414085" />
	</node>
	<node lat="63.835594441379435" lon="10.68015000163787" id="-51258">
		<tag k="name" v="Våde" />
		<tag k="place" v="farm" />
		<tag k="ssr:stedsnr" v="423590" />
	</node>
	<node lat="63.90804722306317" lon="11.322377782185521" id="-51259">
		<tag k="name" v="Verdalsleiret" />
		<tag k="place" v="isolated_dwelling" />
		<tag k="ssr:stedsnr" v="438102" />
	</node>
	<node lat="63.918609406714424" lon="11.296174675180719" id="-51260">
		<tag k="alt_name" v="Refsås" />
		<tag k="fixme" v="consider place=hamlet" />
		<tag k="name" v="Refsåsen" />
		<tag k="place" v="farm" />
		<tag k="ssr:stedsnr" v="438002" />
	</node>
	<node lat="63.83492499605016" lon="10.693688883633884" id="-51261">
		<tag k="fixme" v="consider place=hamlet" />
		<tag k="name" v="Trongsundet" />
		<tag k="place" v="village" />
		<tag k="ssr:stedsnr" v="438472" />
	</node>
	<node lat="63.80272499588843" lon="11.009986111746592" id="-51263">
		<tag k="name" v="Sundsetneset" />
		<tag k="place" v="farm" />
		<tag k="ssr:stedsnr" v="438849" />
	</node>
	<node lat="63.91265998057035" lon="11.208044763712428" id="-51265">
		<tag k="fixme" v="consider place=hamlet" />
		<tag k="name" v="Vistven" />
		<tag k="place" v="farm" />
		<tag k="ssr:stedsnr" v="439494" />
	</node>
	<node lat="63.88200113708732" lon="10.948498028829611" id="-51267">
		<tag k="fixme" v="consider place=hamlet" />
		<tag k="name" v="Geitåsen" />
		<tag k="place" v="farm" />
		<tag k="ssr:stedsnr" v="439707" />
	</node>
	<node lat="63.881588849835985" lon="11.019236218492473" id="-51268">
		<tag k="alt_name" v="Grande, øvre" />
		<tag k="name" v="Øvre Grande" />
		<tag k="place" v="farm" />
		<tag k="ssr:stedsnr" v="439718" />
	</node>
	<node lat="63.877855425899604" lon="11.012703710231142" id="-51269">
		<tag k="fixme" v="consider place=hamlet" />
		<tag k="name" v="Følstad" />
		<tag k="place" v="farm" />
		<tag k="ssr:stedsnr" v="439719" />
	</node>
	<node lat="63.87199722464435" lon="11.166066663474265" id="-51270">
		<tag k="name" v="Vollan" />
		<tag k="place" v="farm" />
		<tag k="ssr:stedsnr" v="439748" />
	</node>
	<node lat="63.82358055298117" lon="10.969969443264768" id="-51274">
		<tag k="name" v="Søraunet" />
		<tag k="place" v="locality" />
		<tag k="ssr:stedsnr" v="450521" />
	</node>
	<node lat="63.87051944490075" lon="11.239141658955475" id="-51285">
		<tag k="loc_name" v="Risan Østre" />
		<tag k="name" v="Austre Risan" />
		<tag k="place" v="farm" />
		<tag k="ssr:stedsnr" v="464704" />
	</node>
	<node lat="63.90565833655648" lon="11.307716669964146" id="-51288">
		<tag k="loc_name" v="Verdal østre" />
		<tag k="name" v="Østre Verdal" />
		<tag k="place" v="farm" />
		<tag k="ssr:stedsnr" v="464766" />
	</node>
	<node lat="63.837945937168605" lon="11.414058845671756" id="-51299">
		<tag k="name" v="Aunet" />
		<tag k="place" v="farm" />
		<tag k="ssr:stedsnr" v="470925" />
	</node>
	<node lat="63.84390277496735" lon="11.311452768330478" id="-51300">
		<tag k="name" v="Sørvika" />
		<tag k="place" v="farm" />
		<tag k="ssr:stedsnr" v="470863" />
	</node>
	<node lat="63.86992499665624" lon="11.267019443943013" id="-51305">
		<tag k="name" v="Svebakken" />
		<tag k="place" v="farm" />
		<tag k="ssr:stedsnr" v="474109" />
	</node>
	<node lat="63.87329166614755" lon="11.298094449843035" id="-51308">
		<tag k="name" v="Limsteinplassen" />
		<tag k="place" v="square" />
		<tag k="ssr:stedsnr" v="484704" />
	</node>
	<node lat="63.73946666693326" lon="10.938599992991136" id="-51309">
		<tag k="name" v="Langfjæran" />
		<tag k="place" v="farm" />
		<tag k="ssr:stedsnr" v="680149" />
	</node>
	<node lat="63.919533592238864" lon="11.233069741429617" id="-51313">
		<tag k="fixme" v="consider place=hamlet" />
		<tag k="name" v="Glømstad" />
		<tag k="place" v="farm" />
		<tag k="ssr:stedsnr" v="681001" />
	</node>
	<node lat="63.88907222183111" lon="11.414022212663866" id="-51314">
		<tag k="name" v="Brekka" />
		<tag k="place" v="farm" />
		<tag k="ssr:stedsnr" v="681087" />
	</node>
	<node lat="63.88981110700513" lon="11.308541656249671" id="-51315">
		<tag k="alt_name" v="Rønningen" />
		<tag k="name" v="Selbu" />
		<tag k="place" v="farm" />
		<tag k="ssr:stedsnr" v="681090" />
	</node>
	<node lat="63.905113886344445" lon="11.327133332163351" id="-51316">
		<tag k="name" v="Austheim" />
		<tag k="place" v="isolated_dwelling" />
		<tag k="ssr:stedsnr" v="681116" />
	</node>
	<node lat="63.8431158391889" lon="11.380252720364265" id="-51317">
		<tag k="fixme" v="consider place=hamlet" />
		<tag k="name" v="Følstad" />
		<tag k="place" v="farm" />
		<tag k="ssr:stedsnr" v="681118" />
	</node>
	<node lat="63.84444255658204" lon="11.340359020087464" id="-51318">
		<tag k="name" v="Svarva" />
		<tag k="place" v="hamlet" />
		<tag k="ssr:stedsnr" v="681129" />
	</node>
	<node lat="63.847118757686346" lon="11.380150603854405" id="-51319">
		<tag k="name" v="Hellberg" />
		<tag k="place" v="hamlet" />
		<tag k="ssr:stedsnr" v="681134" />
	</node>
	<node lat="63.844036675486514" lon="11.371745271325901" id="-51320">
		<tag k="fixme" v="consider place=hamlet" />
		<tag k="name" v="Steinstad" />
		<tag k="place" v="farm" />
		<tag k="ssr:stedsnr" v="681135" />
	</node>
	<node lat="63.90575934051019" lon="11.194407605438926" id="-51321">
		<tag k="fixme" v="consider place=hamlet" />
		<tag k="name" v="Fossem" />
		<tag k="place" v="farm" />
		<tag k="ssr:stedsnr" v="499437" />
	</node>
	<node lat="63.90221667016873" lon="11.191102768608754" id="-51322">
		<tag k="name" v="By" />
		<tag k="place" v="farm" />
		<tag k="ssr:stedsnr" v="499439" />
	</node>
	<node lat="63.87285042904892" lon="11.217355993880975" id="-51325">
		<tag k="fixme" v="consider place=hamlet" />
		<tag k="name" v="Øver-Hjulstad" />
		<tag k="place" v="farm" />
		<tag k="ssr:stedsnr" v="499699" />
	</node>
	<node lat="63.80997777837221" lon="10.973694440932425" id="-51326">
		<tag k="name" v="Trøa" />
		<tag k="place" v="farm" />
		<tag k="ssr:stedsnr" v="499803" />
	</node>
	<node lat="63.88894807116738" lon="11.18734913101029" id="-51331">
		<tag k="name" v="Vester-Gausa" />
		<tag k="place" v="farm" />
		<tag k="ssr:stedsnr" v="681536" />
	</node>
	<node lat="63.901837256121716" lon="11.137666418522318" id="-51336">
		<tag k="fixme" v="consider place=hamlet" />
		<tag k="name" v="Letnesvågen" />
		<tag k="place" v="farm" />
		<tag k="ssr:stedsnr" v="681502" />
	</node>
	<node lat="63.84158770523229" lon="11.106983926758694" id="-51337">
		<tag k="fixme" v="consider place=hamlet" />
		<tag k="name" v="Rottvoll" />
		<tag k="place" v="farm" />
		<tag k="ssr:stedsnr" v="681636" />
	</node>
	<node lat="63.785213792082565" lon="10.98361647634606" id="-51341">
		<tag k="fixme" v="consider place=hamlet" />
		<tag k="name" v="Langaunet" />
		<tag k="place" v="farm" />
		<tag k="ssr:stedsnr" v="681777" />
	</node>
	<node lat="63.774865389042795" lon="10.980943455804224" id="-51342">
		<tag k="fixme" v="consider place=hamlet" />
		<tag k="name" v="Saltvika" />
		<tag k="place" v="farm" />
		<tag k="ssr:stedsnr" v="681800" />
	</node>
	<node lat="63.826802780997085" lon="11.033858325760516" id="-51345">
		<tag k="name" v="Dalen" />
		<tag k="place" v="farm" />
		<tag k="ssr:stedsnr" v="681833" />
	</node>
	<node lat="63.8074055595943" lon="10.999513892113397" id="-51349">
		<tag k="name" v="Neset" />
		<tag k="place" v="farm" />
		<tag k="ssr:stedsnr" v="681846" />
	</node>
	<node lat="63.78615277717374" lon="10.999002768109577" id="-51350">
		<tag k="name" v="Alfer" />
		<tag k="place" v="isolated_dwelling" />
		<tag k="ssr:stedsnr" v="681871" />
	</node>
	<node lat="63.86847221880593" lon="11.109447225025084" id="-51353">
		<tag k="name" v="Farbugjerdet" />
		<tag k="place" v="farm" />
		<tag k="ssr:stedsnr" v="681752" />
	</node>
	<node lat="63.962829776554315" lon="11.28516024991775" id="-51354">
		<tag k="name" v="Grønnesby" />
		<tag k="place" v="hamlet" />
		<tag k="ssr:stedsnr" v="681886" />
	</node>
	<node lat="63.96144031072729" lon="11.322849494178968" id="-51355">
		<tag k="fixme" v="consider place=hamlet" />
		<tag k="name" v="Skjelvågen" />
		<tag k="place" v="farm" />
		<tag k="ssr:stedsnr" v="681889" />
	</node>
	<node lat="63.97099999798098" lon="11.342683338097997" id="-51356">
		<tag k="name" v="Haugen" />
		<tag k="place" v="farm" />
		<tag k="ssr:stedsnr" v="681969" />
	</node>
	<node lat="63.916055551172576" lon="11.311219445231186" id="-51357">
		<tag k="name" v="Svian" />
		<tag k="place" v="farm" />
		<tag k="ssr:stedsnr" v="507126" />
	</node>
	<node lat="63.864855555783045" lon="11.030222215441665" id="-51362">
		<tag k="name" v="Storsveet" />
		<tag k="place" v="locality" />
		<tag k="ssr:stedsnr" v="511746" />
	</node>
	<node lat="63.89271944067249" lon="10.958688898028539" id="-51364">
		<tag k="name" v="Kleiva" />
		<tag k="place" v="locality" />
		<tag k="ssr:stedsnr" v="511817" />
	</node>
	<node lat="63.90287777367782" lon="10.959838879149451" id="-51370">
		<tag k="name" v="Vestvikneset hytteområde" />
		<tag k="place" v="neighbourhood" />
		<tag k="ssr:stedsnr" v="525413" />
	</node>
	<node lat="63.87592729152564" lon="11.371756694427605" id="-51379">
		<tag k="name" v="Holmgjerdet" />
		<tag k="place" v="farm" />
		<tag k="ssr:stedsnr" v="526781" />
	</node>
	<node lat="63.8640055536707" lon="11.216322225211895" id="-51383">
		<tag k="name" v="Markaplassen" />
		<tag k="place" v="locality" />
		<tag k="ssr:stedsnr" v="531775" />
	</node>
	<node lat="63.746030557144664" lon="10.943247212706016" id="-51403">
		<tag k="name" v="Åssveet" />
		<tag k="place" v="isolated_dwelling" />
		<tag k="ssr:stedsnr" v="559137" />
	</node>
	<node lat="63.89719999977197" lon="11.194544449871575" id="-51405">
		<tag k="name" v="Geilvoll" />
		<tag k="place" v="farm" />
		<tag k="ssr:stedsnr" v="559540" />
	</node>
	<node lat="63.93906388492777" lon="11.316194441795368" id="-51406">
		<tag k="name" v="Bakken" />
		<tag k="place" v="isolated_dwelling" />
		<tag k="ssr:stedsnr" v="560047" />
	</node>
	<node lat="63.820923876150374" lon="11.013188235311395" id="-51408">
		<tag k="name" v="Strandheim" />
		<tag k="place" v="farm" />
		<tag k="ssr:stedsnr" v="559811" />
	</node>
	<node lat="63.861000830026626" lon="11.312139071960587" id="-51410">
		<tag k="fixme" v="consider place=hamlet" />
		<tag k="name" v="Sund" />
		<tag k="place" v="farm" />
		<tag k="ssr:stedsnr" v="560143" />
	</node>
	<node lat="63.866244446030876" lon="11.386988883303864" id="-51411">
		<tag k="name" v="Fines" />
		<tag k="place" v="farm" />
		<tag k="ssr:stedsnr" v="560146" />
	</node>
	<node lat="63.90741044854726" lon="11.27536845321162" id="-51412">
		<tag k="fixme" v="consider place=hamlet" />
		<tag k="name" v="Vatn" />
		<tag k="place" v="farm" />
		<tag k="ssr:stedsnr" v="560086" />
	</node>
	<node lat="63.77975833470465" lon="10.942602778239543" id="-51414">
		<tag k="name" v="Langaunsetran" />
		<tag k="place" v="locality" />
		<tag k="ssr:stedsnr" v="560778" />
	</node>
	<node lat="63.88291111141171" lon="11.383399995300067" id="-51416">
		<tag k="name" v="Grandvollen" />
		<tag k="place" v="farm" />
		<tag k="ssr:stedsnr" v="690818" />
	</node>
	<node lat="63.889897226095414" lon="11.430144440037985" id="-51417">
		<tag k="name" v="Østre Røskje" />
		<tag k="place" v="farm" />
		<tag k="ssr:stedsnr" v="690819" />
	</node>
	<node lat="63.878825001208746" lon="11.416527779772604" id="-51418">
		<tag k="alt_name" v="Berg østre" />
		<tag k="name" v="Østre Berg" />
		<tag k="place" v="farm" />
		<tag k="ssr:stedsnr" v="690955" />
	</node>
	<node lat="63.88022778119215" lon="11.03379722841389" id="-51434">
		<tag k="name" v="Båsen" />
		<tag k="place" v="locality" />
		<tag k="ssr:stedsnr" v="572797" />
	</node>
	<node lat="63.84498888971888" lon="11.14192500801625" id="-51435">
		<tag k="loc_name" v="Nedre Ulvin;Ulven nedre" />
		<tag k="name" v="Nedre Ulven" />
		<tag k="place" v="farm" />
		<tag k="ssr:stedsnr" v="585105" />
	</node>
	<node lat="63.858216670233524" lon="11.400024992155162" id="-51437">
		<tag k="name" v="Flata" />
		<tag k="place" v="quarter" />
		<tag k="ssr:stedsnr" v="585340" />
	</node>
	<node lat="63.894422218176054" lon="11.265336105887267" id="-51441">
		<tag k="loc_name" v="Ås søndre" />
		<tag k="name" v="Nordre Ås" />
		<tag k="place" v="farm" />
		<tag k="ssr:stedsnr" v="585809" />
	</node>
	<node lat="63.956908329475205" lon="11.331827786139558" id="-51456">
		<tag k="name" v="Myrmo" />
		<tag k="place" v="farm" />
		<tag k="ssr:stedsnr" v="595162" />
	</node>
	<node lat="63.92271323150687" lon="11.219082936283776" id="-51459">
		<tag k="fixme" v="consider place=hamlet" />
		<tag k="name" v="Skjemstad" />
		<tag k="place" v="farm" />
		<tag k="ssr:stedsnr" v="620002" />
	</node>
	<node lat="63.883177781364516" lon="11.298411117185987" id="-51460">
		<tag k="name" v="Ringve" />
		<tag k="place" v="farm" />
		<tag k="ssr:stedsnr" v="620079" />
	</node>
	<node lat="63.90332500151735" lon="11.266241667294134" id="-51461">
		<tag k="name" v="Nerenget" />
		<tag k="place" v="farm" />
		<tag k="ssr:stedsnr" v="620106" />
	</node>
	<node lat="63.9093611192318" lon="11.184060284367138" id="-51463">
		<tag k="fixme" v="consider place=hamlet" />
		<tag k="name" v="Kjerknes" />
		<tag k="place" v="farm" />
		<tag k="ssr:stedsnr" v="620503" />
	</node>
	<node lat="63.85089225793828" lon="11.126427765906135" id="-51464">
		<tag k="fixme" v="consider place=hamlet" />
		<tag k="name" v="Leira" />
		<tag k="place" v="farm" />
		<tag k="ssr:stedsnr" v="620619" />
	</node>
	<node lat="63.87020125959642" lon="11.254286699411992" id="-51470">
		<tag k="fixme" v="consider place=hamlet" />
		<tag k="name" v="Sundnes" />
		<tag k="place" v="farm" />
		<tag k="ssr:stedsnr" v="627563" />
	</node>
	<node lat="63.92143055941984" lon="11.325277773962911" id="-51471">
		<tag k="name" v="Sjømarka" />
		<tag k="place" v="farm" />
		<tag k="ssr:stedsnr" v="628112" />
	</node>
	<node lat="63.89733333399332" lon="10.969291675644227" id="-51475">
		<tag k="name" v="Sveet" />
		<tag k="place" v="locality" />
		<tag k="ssr:stedsnr" v="632804" />
	</node>
	<node lat="63.95166944477365" lon="11.253816670382653" id="-51497">
		<tag k="name" v="Langenget" />
		<tag k="place" v="isolated_dwelling" />
		<tag k="ssr:stedsnr" v="652588" />
	</node>
	<node lat="63.861930556679695" lon="11.208780548394389" id="-51499">
		<tag k="name" v="Marka" />
		<tag k="place" v="isolated_dwelling" />
		<tag k="ssr:stedsnr" v="652736" />
	</node>
	<node lat="63.843213891232736" lon="11.370213878958387" id="-51508">
		<tag k="name" v="Steinstad" />
		<tag k="place" v="farm" />
		<tag k="ssr:stedsnr" v="655041" />
	</node>
	<node lat="63.85298611089277" lon="11.128424994341426" id="-51511">
		<tag k="name" v="Leira" />
		<tag k="place" v="farm" />
		<tag k="ssr:stedsnr" v="656305" />
	</node>
	<node lat="63.875425002011696" lon="11.221916657473516" id="-51515">
		<tag k="name" v="Grønlia" />
		<tag k="place" v="farm" />
		<tag k="ssr:stedsnr" v="656440" />
	</node>
	<node lat="63.88325000423337" lon="11.108172224052877" id="-51524">
		<tag k="name" v="Skogvoll" />
		<tag k="place" v="farm" />
		<tag k="ssr:stedsnr" v="665585" />
	</node>
	<node lat="63.852052780627766" lon="11.098161104405348" id="-51526">
		<tag k="loc_name" v="Vang Nordre" />
		<tag k="name" v="Nordre Vang" />
		<tag k="place" v="farm" />
		<tag k="ssr:stedsnr" v="890078" />
	</node>
	<node lat="63.877904368181156" lon="11.285780217967645" id="-51532">
		<tag k="amenity" v="school" />
		<tag k="name" v="Inderøy ungdomsskole" />
		<tag k="ssr:stedsnr" v="891732" />
	</node>
	<node lat="63.9308704949577" lon="11.235494376256623" id="-51535">
		<tag k="loc_name" v="Vist øvre" />
		<tag k="name" v="Øvre Vist" />
		<tag k="place" v="farm" />
		<tag k="ssr:stedsnr" v="891932" />
	</node>
	<node lat="63.92106151283207" lon="11.317275208062384" id="-51537">
		<tag k="fixme" v="consider place=hamlet" />
		<tag k="name" v="Brakstad" />
		<tag k="place" v="farm" />
		<tag k="ssr:stedsnr" v="681009" />
	</node>
	<node lat="63.89318162324711" lon="11.247090796737206" id="-51538">
		<tag k="fixme" v="consider place=hamlet" />
		<tag k="name" v="Reitan" />
		<tag k="place" v="farm" />
		<tag k="ssr:stedsnr" v="681078" />
	</node>
	<node lat="63.87100499180995" lon="11.245431867368556" id="-51541">
		<tag k="name" v="Risan" />
		<tag k="old_name" v="Hestrisan;Hestrisan" />
		<tag k="place" v="farm" />
		<tag k="ssr:stedsnr" v="681163" />
	</node>
	<node lat="63.84733611040217" lon="11.177352770282962" id="-51544">
		<tag k="alt_name" v="Hegdalsneset" />
		<tag k="name" v="Heggdalsnes" />
		<tag k="place" v="farm" />
		<tag k="ssr:stedsnr" v="681659" />
	</node>
	<node lat="63.84986355967293" lon="11.13662017755732" id="-51545">
		<tag k="fixme" v="consider place=hamlet" />
		<tag k="name" v="Ulvin" />
		<tag k="place" v="farm" />
		<tag k="ssr:stedsnr" v="681661" />
	</node>
	<node lat="63.82678117041655" lon="11.005215346520696" id="-51549">
		<tag k="fixme" v="consider place=hamlet" />
		<tag k="name" v="Reitan" />
		<tag k="place" v="farm" />
		<tag k="ssr:stedsnr" v="681676" />
	</node>
	<node lat="63.80067777735757" lon="10.975500003415549" id="-51550">
		<tag k="fixme" v="consider place=hamlet" />
		<tag k="name" v="Øvre Sundset" />
		<tag k="place" v="farm" />
		<tag k="ssr:stedsnr" v="681858" />
	</node>
	<node lat="63.86810555532897" lon="11.072736120907823" id="-51552">
		<tag k="alt_name" v="Flata" />
		<tag k="name" v="Noremsflata" />
		<tag k="place" v="farm" />
		<tag k="ssr:stedsnr" v="681756" />
	</node>
	<node lat="63.94480396368219" lon="11.367231325349435" id="-51553">
		<tag k="name" v="Gjørvsjøen" />
		<tag k="place" v="farm" />
		<tag k="ssr:stedsnr" v="681924" />
	</node>
	<node lat="63.75633611048786" lon="10.962841660484518" id="-51554">
		<tag k="name" v="Brattåkeren" />
		<tag k="place" v="farm" />
		<tag k="ssr:stedsnr" v="681935" />
	</node>
	<node lat="63.97332777979247" lon="11.365913898195283" id="-51555">
		<tag k="name" v="Tangen" />
		<tag k="place" v="farm" />
		<tag k="ssr:stedsnr" v="688554" />
	</node>
	<node lat="63.83591944354314" lon="10.685233340373237" id="-51560">
		<tag k="name" v="Myrvang" />
		<tag k="place" v="farm" />
		<tag k="ssr:stedsnr" v="696074" />
	</node>
	<node lat="63.80237500063596" lon="10.908827787226278" id="-51567">
		<tag k="historic" v="shieling" />
		<tag k="name" v="Oppegårdseteren" />
		<tag k="place" v="isolated_dwelling" />
		<tag k="ssr:stedsnr" v="897484" />
	</node>
	<node lat="63.86005833063782" lon="10.858716668718007" id="-51573">
		<tag k="historic" v="shieling" />
		<tag k="name" v="Vikaseteren" />
		<tag k="place" v="isolated_dwelling" />
		<tag k="ssr:stedsnr" v="897764" />
	</node>
	<node lat="63.8558777753501" lon="11.110933323312716" id="-51574">
		<tag k="name" v="Dalen" />
		<tag k="place" v="farm" />
		<tag k="ssr:stedsnr" v="711032" />
	</node>
	<node lat="63.79114167053354" lon="10.862947226723294" id="-51579">
		<tag k="historic" v="shieling" />
		<tag k="name" v="Nakkstadseteren" />
		<tag k="place" v="isolated_dwelling" />
		<tag k="ssr:stedsnr" v="898483" />
	</node>
	<node lat="63.75612500158252" lon="10.834855556683259" id="-51589">
		<tag k="historic" v="shieling" />
		<tag k="name" v="Sliperseter" />
		<tag k="place" v="isolated_dwelling" />
		<tag k="ssr:stedsnr" v="715379" />
	</node>
	<node lat="63.84578888950019" lon="11.31616666002563" id="-51591">
		<tag k="name" v="Gjermstad" />
		<tag k="place" v="farm" />
		<tag k="ssr:stedsnr" v="899030" />
	</node>
	<node lat="63.90955833513945" lon="11.19787500774622" id="-51592">
		<tag k="name" v="Fossemsveet" />
		<tag k="place" v="isolated_dwelling" />
		<tag k="ssr:stedsnr" v="717245" />
	</node>
	<node lat="63.84904444132604" lon="11.10966665666929" id="-51596">
		<tag k="name" v="Stavran" />
		<tag k="place" v="farm" />
		<tag k="ssr:stedsnr" v="717304" />
	</node>
	<node lat="63.895422223843234" lon="10.93871666255574" id="-51604">
		<tag k="name" v="Dalaunet" />
		<tag k="place" v="locality" />
		<tag k="ssr:stedsnr" v="726590" />
	</node>
	<node lat="63.743469445170184" lon="10.949372229230832" id="-51605">
		<tag k="name" v="Kleiva" />
		<tag k="place" v="isolated_dwelling" />
		<tag k="ssr:stedsnr" v="741187" />
	</node>
	<node lat="63.91198889215886" lon="11.190358338576218" id="-51606">
		<tag k="fixme" v="consider place=hamlet" />
		<tag k="name" v="Kjerknesvågen" />
		<tag k="place" v="village" />
		<tag k="ssr:stedsnr" v="741604" />
	</node>
	<node lat="63.90072777735462" lon="11.173866659415262" id="-51607">
		<tag k="name" v="Ner-Berg" />
		<tag k="place" v="farm" />
		<tag k="ssr:stedsnr" v="741605" />
	</node>
	<node lat="63.90235000290742" lon="11.166247227762659" id="-51608">
		<tag k="name" v="Aunan" />
		<tag k="place" v="farm" />
		<tag k="ssr:stedsnr" v="741608" />
	</node>
	<node lat="63.89936021354656" lon="11.122648421875471" id="-51611">
		<tag k="fixme" v="consider place=hamlet" />
		<tag k="name" v="Letnes" />
		<tag k="place" v="farm" />
		<tag k="ssr:stedsnr" v="741640" />
	</node>
	<node lat="63.837338885077536" lon="11.379252780634312" id="-51613">
		<tag k="building" v="industrial" />
		<tag k="industrial" v="factory" />
		<tag k="name" v="Hylla kalkverk" />
		<tag k="ssr:stedsnr" v="742226" />
	</node>
	<node lat="63.8841891384157" lon="11.17456864204985" id="-51616">
		<tag k="fixme" v="consider place=hamlet" />
		<tag k="name" v="Jugle" />
		<tag k="place" v="farm" />
		<tag k="ssr:stedsnr" v="742498" />
	</node>
	<node lat="63.8504055527738" lon="10.801474990214633" id="-51618">
		<tag k="name" v="Brusveet" />
		<tag k="place" v="farm" />
		<tag k="ssr:stedsnr" v="742610" />
	</node>
	<node lat="63.83419444471862" lon="11.03992222554419" id="-51620">
		<tag k="name" v="Aunet" />
		<tag k="place" v="farm" />
		<tag k="ssr:stedsnr" v="742643" />
	</node>
	<node lat="63.890469441232696" lon="11.089438882836358" id="-51621">
		<tag k="name" v="Åkervika" />
		<tag k="place" v="farm" />
		<tag k="ssr:stedsnr" v="742510" />
	</node>
	<node lat="63.87540277904852" lon="11.017377768277791" id="-51623">
		<tag k="name" v="Granlund" />
		<tag k="place" v="farm" />
		<tag k="ssr:stedsnr" v="742684" />
	</node>
	<node lat="63.95260311034271" lon="11.356988689542606" id="-51626">
		<tag k="name" v="Bjørka" />
		<tag k="place" v="hamlet" />
		<tag k="ssr:stedsnr" v="742905" />
	</node>
	<node lat="63.94515816968954" lon="11.350954268017247" id="-51627">
		<tag k="fixme" v="consider place=hamlet" />
		<tag k="name" v="Gjørv" />
		<tag k="place" v="farm" />
		<tag k="ssr:stedsnr" v="742930" />
	</node>
	<node lat="63.9469186281473" lon="11.361646186733703" id="-51628">
		<tag k="alt_name" v="Bjørkå, søre;Bjerkan" />
		<tag k="name" v="Søre Bjørka" />
		<tag k="old_name" v="Søre Bjørkå" />
		<tag k="place" v="farm" />
		<tag k="ssr:stedsnr" v="742932" />
	</node>
	<node lat="63.84865833406464" lon="11.100211113896064" id="-51629">
		<tag k="fixme" v="consider place=hamlet" />
		<tag k="name" v="Utøya" />
		<tag k="place" v="village" />
		<tag k="ssr:stedsnr" v="749561" />
	</node>
	<node lat="63.86365277714001" lon="11.4069666607652" id="-51632">
		<tag k="fixme" v="consider place=hamlet" />
		<tag k="name" v="Steinen" />
		<tag k="place" v="farm" />
		<tag k="ssr:stedsnr" v="750949" />
	</node>
	<node lat="63.74263333680332" lon="10.931255561329555" id="-51634">
		<tag k="name" v="Grindvollen" />
		<tag k="place" v="isolated_dwelling" />
		<tag k="ssr:stedsnr" v="753558" />
	</node>
	<node lat="63.864058331509504" lon="11.178983333535653" id="-51637">
		<tag k="loc_name" v="Kvam ytre" />
		<tag k="name" v="Ytre Kvam" />
		<tag k="place" v="farm" />
		<tag k="ssr:stedsnr" v="767645" />
	</node>
	<node lat="63.86460555725833" lon="11.259027775076378" id="-51648">
		<tag k="name" v="Talgøra" />
		<tag k="place" v="isolated_dwelling" />
		<tag k="ssr:stedsnr" v="773704" />
	</node>
	<node lat="63.95131389149895" lon="11.331194438059146" id="-51655">
		<tag k="name" v="Bjørklund" />
		<tag k="place" v="farm" />
		<tag k="ssr:stedsnr" v="777163" />
	</node>
	<node lat="63.85129444482462" lon="11.113924999779293" id="-51657">
		<tag k="name" v="Stavran" />
		<tag k="place" v="farm" />
		<tag k="ssr:stedsnr" v="778302" />
	</node>
	<node lat="63.852619431776084" lon="11.34835394940365" id="-51660">
		<tag k="fixme" v="consider place=hamlet" />
		<tag k="name" v="Kuru" />
		<tag k="place" v="farm" />
		<tag k="ssr:stedsnr" v="802170" />
	</node>
	<node lat="63.74443888943149" lon="10.942305546229138" id="-51661">
		<tag k="fixme" v="multiple name tags, choose one and add the other to alt_name" />
		<tag k="name" v="Sliperåsen;Fjellheim" />
		<tag k="place" v="isolated_dwelling" />
		<tag k="ssr:stedsnr" v="802183" />
	</node>
	<node lat="63.86160221287507" lon="11.139009516066452" id="-51666">
		<tag k="fixme" v="consider place=hamlet" />
		<tag k="name" v="Bruåsen" />
		<tag k="place" v="farm" />
		<tag k="ssr:stedsnr" v="802768" />
	</node>
	<node lat="63.9653972214473" lon="11.303927768766636" id="-51667">
		<tag k="name" v="Langås" />
		<tag k="place" v="isolated_dwelling" />
		<tag k="ssr:stedsnr" v="802906" />
	</node>
	<node lat="63.96485833361449" lon="11.329708333750098" id="-51668">
		<tag k="name" v="Sveberg" />
		<tag k="place" v="isolated_dwelling" />
		<tag k="ssr:stedsnr" v="802910" />
	</node>
	<node lat="63.8648015138169" lon="11.375439160343086" id="-51669">
		<tag k="fixme" v="consider place=hamlet" />
		<tag k="name" v="Kletten" />
		<tag k="place" v="farm" />
		<tag k="ssr:stedsnr" v="803161" />
	</node>
	<node lat="63.832863212788084" lon="11.024086199404653" id="-51674">
		<tag k="name" v="Damsveet" />
		<tag k="place" v="locality" />
		<tag k="ssr:stedsnr" v="803657" />
	</node>
	<node lat="63.86713333319298" lon="11.519433327769171" id="-51675">
		<tag k="historic" v="shieling" />
		<tag k="name" v="Heggstadvollen" />
		<tag k="place" v="isolated_dwelling" />
		<tag k="ssr:stedsnr" v="810709" />
	</node>
	<node lat="63.886527773548686" lon="11.304297225363399" id="-51676">
		<tag k="fixme" v="consider place=hamlet" />
		<tag k="name" v="Hamsås" />
		<tag k="place" v="farm" />
		<tag k="ssr:stedsnr" v="811112" />
	</node>
	<node lat="63.803163888788156" lon="10.947383330531174" id="-51677">
		<tag k="name" v="Auna" />
		<tag k="place" v="locality" />
		<tag k="ssr:stedsnr" v="814631" />
	</node>
	<node lat="63.95231187057511" lon="11.334788235294042" id="-51687">
		<tag k="alt_name" v="Skjelvan" />
		<tag k="fixme" v="consider place=hamlet" />
		<tag k="name" v="Skjelva" />
		<tag k="place" v="farm" />
		<tag k="ssr:stedsnr" v="830831" />
	</node>
	<node lat="63.82272499683921" lon="10.675924996277034" id="-51689">
		<tag k="name" v="Fitjan" />
		<tag k="place" v="locality" />
		<tag k="ssr:stedsnr" v="923546" />
	</node>
	<node lat="63.89350000430402" lon="11.11016389072738" id="-51690">
		<tag k="name" v="Letnesgjerdet" />
		<tag k="place" v="farm" />
		<tag k="ssr:stedsnr" v="924534" />
	</node>
	<node lat="63.92781944345027" lon="11.263058325790682" id="-51691">
		<tag k="name" v="Verstadhaugen" />
		<tag k="place" v="farm" />
		<tag k="ssr:stedsnr" v="924034" />
	</node>
	<node lat="63.94267222284182" lon="11.306674993264258" id="-51692">
		<tag k="fixme" v="multiple name tags, choose one and add the other to alt_name" />
		<tag k="name" v="Nyåker;Skogly" />
		<tag k="place" v="farm" />
		<tag k="ssr:stedsnr" v="924045" />
	</node>
	<node lat="63.88155277521503" lon="11.269863883148789" id="-51693">
		<tag k="name" v="Granheim" />
		<tag k="place" v="isolated_dwelling" />
		<tag k="ssr:stedsnr" v="924051" />
	</node>
	<node lat="63.895150508839784" lon="11.26586876249308" id="-51694">
		<tag k="fixme" v="consider place=hamlet" />
		<tag k="name" v="Ås" />
		<tag k="place" v="farm" />
		<tag k="ssr:stedsnr" v="924061" />
	</node>
	<node lat="63.90368333698766" lon="11.300250002656004" id="-51695">
		<tag k="name" v="Vangen" />
		<tag k="place" v="farm" />
		<tag k="ssr:stedsnr" v="924083" />
	</node>
	<node lat="63.91348847214895" lon="11.274148728550033" id="-51696">
		<tag k="name" v="Gran" />
		<tag k="place" v="hamlet" />
		<tag k="ssr:stedsnr" v="924086" />
	</node>
	<node lat="63.91038055544844" lon="11.257513882608034" id="-51697">
		<tag k="name" v="Myrholt" />
		<tag k="place" v="isolated_dwelling" />
		<tag k="ssr:stedsnr" v="924092" />
	</node>
	<node lat="63.863036112626894" lon="11.482697215158897" id="-51698">
		<tag k="name" v="Floåsen" />
		<tag k="place" v="isolated_dwelling" />
		<tag k="ssr:stedsnr" v="924139" />
	</node>
	<node lat="63.868508332616045" lon="11.22471387938256" id="-51699">
		<tag k="name" v="Hågån" />
		<tag k="place" v="isolated_dwelling" />
		<tag k="ssr:stedsnr" v="924142" />
	</node>
	<node lat="63.83741388507721" lon="11.36290554634345" id="-51700">
		<tag k="name" v="Krokmarka" />
		<tag k="place" v="farm" />
		<tag k="ssr:stedsnr" v="924216" />
	</node>
	<node lat="63.85870464860582" lon="11.322687695761951" id="-51705">
		<tag k="fixme" v="consider place=hamlet" />
		<tag k="name" v="Rol" />
		<tag k="place" v="farm" />
		<tag k="ssr:stedsnr" v="838003" />
	</node>
	<node lat="63.90567500457323" lon="10.951958325061481" id="-51710">
		<tag k="name" v="Neset" />
		<tag k="place" v="farm" />
		<tag k="ssr:stedsnr" v="924479" />
	</node>
	<node lat="63.853786113829756" lon="11.082688896141025" id="-51714">
		<tag k="fixme" v="multiple name tags, choose one and add the other to alt_name" />
		<tag k="name" v="Svean;Solvang;Vangsaunet" />
		<tag k="place" v="farm" />
		<tag k="ssr:stedsnr" v="924634" />
	</node>
	<node lat="63.83237964494414" lon="10.947486958421015" id="-51718">
		<tag k="fixme" v="consider place=hamlet" />
		<tag k="name" v="Årningan" />
		<tag k="place" v="farm" />
		<tag k="ssr:stedsnr" v="924649" />
	</node>
	<node lat="63.88457221920706" lon="11.021175006565512" id="-51720">
		<tag k="alt_name" v="Grande, nedre" />
		<tag k="fixme" v="multiple name tags, choose one and add the other to alt_name" />
		<tag k="name" v="Grande;Nedre Grande" />
		<tag k="place" v="farm" />
		<tag k="ssr:stedsnr" v="924692" />
	</node>
	<node lat="63.955705553780895" lon="11.324433341130563" id="-51724">
		<tag k="name" v="Oppheim" />
		<tag k="place" v="farm" />
		<tag k="ssr:stedsnr" v="924884" />
	</node>
	<node lat="63.97318610943346" lon="11.29003888268855" id="-51730">
		<tag k="name" v="Stornesøra" />
		<tag k="place" v="isolated_dwelling" />
		<tag k="ssr:stedsnr" v="924971" />
	</node>
	<node lat="63.97163333074183" lon="11.280208330200965" id="-51731">
		<tag k="name" v="Aunet" />
		<tag k="place" v="isolated_dwelling" />
		<tag k="ssr:stedsnr" v="924972" />
	</node>
	<node lat="63.814802780760836" lon="11.004144448042966" id="-51732">
		<tag k="name" v="Fagerheim" />
		<tag k="place" v="isolated_dwelling" />
		<tag k="ssr:stedsnr" v="847126" />
	</node>
	<node lat="63.887733063292444" lon="11.189020687262818" id="-51733">
		<tag k="name" v="Nerenget" />
		<tag k="place" v="farm" />
		<tag k="ssr:stedsnr" v="863549" />
	</node>
	<node lat="63.88590277419549" lon="11.086777776666231" id="-51735">
		<tag k="name" v="Nordset" />
		<tag k="place" v="farm" />
		<tag k="ssr:stedsnr" v="863559" />
	</node>
	<node lat="63.96614922029334" lon="11.367139707974545" id="-51736">
		<tag k="alt_name" v="Krokhus" />
		<tag k="fixme" v="consider place=hamlet" />
		<tag k="name" v="Krokshus" />
		<tag k="place" v="farm" />
		<tag k="ssr:stedsnr" v="863860" />
	</node>
	<node lat="63.87340833394066" lon="11.241819452043693" id="-51739">
		<tag k="name" v="Vist" />
		<tag k="place" v="farm" />
		<tag k="ssr:stedsnr" v="864157" />
	</node>
	<node lat="63.868575001329546" lon="11.5175388948611" id="-51740">
		<tag k="name" v="Grindbergsvollen" />
		<tag k="place" v="locality" />
		<tag k="ssr:stedsnr" v="932506" />
	</node>
	<node lat="63.87149225814207" lon="11.379192080907332" id="-51744">
		<tag k="name" v="Nedre Lorås" />
		<tag k="place" v="farm" />
		<tag k="ssr:stedsnr" v="933962" />
	</node>
	<node lat="63.95985675585776" lon="11.335698426735023" id="-51745">
		<tag k="fixme" v="consider place=hamlet" />
		<tag k="name" v="Gangstad" />
		<tag k="place" v="farm" />
		<tag k="ssr:stedsnr" v="935350" />
	</node>
	<node lat="63.86505177910704" lon="11.18771656870106" id="-51746">
		<tag k="name" v="Kvam" />
		<tag k="place" v="hamlet" />
		<tag k="ssr:stedsnr" v="935384" />
	</node>
	<node lat="63.86929166783004" lon="11.268105564608101" id="-51758">
		<tag k="loc_name" v="Svebakken nedre" />
		<tag k="name" v="Nedre Svebakken" />
		<tag k="place" v="farm" />
		<tag k="ssr:stedsnr" v="891719" />
	</node>
	<node lat="63.87429166517032" lon="11.077994450344395" id="-51762">
		<tag k="name" v="Holtet" />
		<tag k="place" v="isolated_dwelling" />
		<tag k="ssr:stedsnr" v="894029" />
	</node>
	<node lat="63.90741111532034" lon="11.168363896697821" id="-51768">
		<tag k="name" v="Hagen" />
		<tag k="place" v="farm" />
		<tag k="ssr:stedsnr" v="899307" />
	</node>
	<node lat="63.87141666379267" lon="11.294663884547132" id="-51771">
		<tag k="name" v="Nilsplassen" />
		<tag k="place" v="square" />
		<tag k="ssr:stedsnr" v="909704" />
	</node>
	<node lat="63.88920277954457" lon="11.16639443846403" id="-51778">
		<tag k="name" v="Øver-Reitan" />
		<tag k="place" v="farm" />
		<tag k="ssr:stedsnr" v="924514" />
	</node>
	<node lat="63.85792222287228" lon="10.829833342568513" id="-51780">
		<tag k="name" v="Rein" />
		<tag k="place" v="isolated_dwelling" />
		<tag k="ssr:stedsnr" v="924705" />
	</node>
	<node lat="63.864408337311154" lon="11.073072217775469" id="-51781">
		<tag k="name" v="Håmmåren" />
		<tag k="place" v="isolated_dwelling" />
		<tag k="ssr:stedsnr" v="924707" />
	</node>
	<node lat="63.87078954530858" lon="11.154075613701162" id="-51782">
		<tag k="name" v="Klepp" />
		<tag k="place" v="hamlet" />
		<tag k="ssr:stedsnr" v="924719" />
	</node>
	<node lat="63.85051516547025" lon="10.810302454127612" id="-51783">
		<tag k="fixme" v="consider place=hamlet" />
		<tag k="name" v="Hindbergaunet" />
		<tag k="place" v="farm" />
		<tag k="ssr:stedsnr" v="924607" />
	</node>
	<node lat="63.84089444626865" lon="11.122633328154127" id="-51786">
		<tag k="name" v="Aunet" />
		<tag k="place" v="farm" />
		<tag k="ssr:stedsnr" v="924618" />
	</node>
	<node lat="63.8734987404359" lon="10.94472757819141" id="-51788">
		<tag k="fixme" v="consider place=hamlet" />
		<tag k="name" v="Markhusan" />
		<tag k="place" v="farm" />
		<tag k="ssr:stedsnr" v="924673" />
	</node>
	<node lat="63.777486110813335" lon="10.98765555473273" id="-51794">
		<tag k="name" v="Saltvikhamna" />
		<tag k="place" v="hamlet" />
		<tag k="ssr:stedsnr" v="924778" />
	</node>
	<node lat="63.96275555874007" lon="11.30561112044083" id="-51796">
		<tag k="name" v="Skogåker" />
		<tag k="place" v="farm" />
		<tag k="ssr:stedsnr" v="924867" />
	</node>
	<node lat="63.863313892669176" lon="11.510600005804728" id="-51797">
		<tag k="name" v="Loråsvollen" />
		<tag k="place" v="locality" />
		<tag k="ssr:stedsnr" v="933738" />
	</node>
	<node lat="63.84131666624069" lon="10.708205550070883" id="-51811">
		<tag k="name" v="Saltbutangen" />
		<tag k="place" v="farm" />
		<tag k="ssr:stedsnr" v="954197" />
	</node>
	<node lat="63.797280552281144" lon="10.891972215536573" id="-51816">
		<tag k="historic" v="shieling" />
		<tag k="name" v="Framgårdseteren" />
		<tag k="place" v="isolated_dwelling" />
		<tag k="ssr:stedsnr" v="958525" />
	</node>
	<node lat="63.87140277670149" lon="11.29203610124385" id="-51824">
		<tag k="name" v="Nervang" />
		<tag k="place" v="quarter" />
		<tag k="ssr:stedsnr" v="960093" />
	</node>
	<node lat="63.88170277889974" lon="11.0766916703006" id="-51828">
		<tag k="fixme" v="consider place=hamlet" />
		<tag k="name" v="Norem" />
		<tag k="place" v="farm" />
		<tag k="ssr:stedsnr" v="969540" />
	</node>
	<node lat="63.85520833741593" lon="11.182786119952253" id="-51829">
		<tag k="name" v="Østre Undersaker" />
		<tag k="place" v="farm" />
		<tag k="ssr:stedsnr" v="969798" />
	</node>
	<node lat="63.87853555207111" lon="11.291003504868417" id="-51830">
		<tag k="amenity" v="kindergarten" />
		<tag k="name" v="Sakshaug barnehage" />
		<tag k="ssr:stedsnr" v="972986" />
	</node>
	<node lat="63.89663440681207" lon="11.186426609282405" id="-51831">
		<tag k="amenity" v="kindergarten" />
		<tag k="name" v="Lyngstad barnehage" />
		<tag k="ssr:stedsnr" v="972988" />
	</node>
	<node lat="63.88873423423714" lon="11.285534616121637" id="-51832">
		<tag k="name" v="Ferstad" />
		<tag k="place" v="hamlet" />
		<tag k="ssr:stedsnr" v="972998" />
	</node>
	<node lat="63.8498417641623" lon="11.348081306942676" id="-51833">
		<tag k="fixme" v="consider place=hamlet" />
		<tag k="name" v="Kverkillen" />
		<tag k="place" v="farm" />
		<tag k="ssr:stedsnr" v="972999" />
	</node>
	<node lat="63.87945287974242" lon="11.420833990497238" id="-51834">
		<tag k="name" v="Berg" />
		<tag k="place" v="hamlet" />
		<tag k="ssr:stedsnr" v="973190" />
	</node>
	<node lat="63.85800256215718" lon="11.403004931916012" id="-51835">
		<tag k="fixme" v="consider place=hamlet" />
		<tag k="name" v="Hellem" />
		<tag k="place" v="farm" />
		<tag k="ssr:stedsnr" v="973201" />
	</node>
	<node lat="63.876146432521324" lon="11.28862296924902" id="-51838">
		<tag k="amenity" v="townhall" />
		<tag k="name" v="Inderøy rådhus" />
		<tag k="ssr:stedsnr" v="973724" />
	</node>
	<node lat="63.73350555119829" lon="10.899599998464796" id="-51841">
		<tag k="name" v="Isberget" />
		<tag k="place" v="isolated_dwelling" />
		<tag k="ssr:stedsnr" v="13143" />
	</node>
	<node lat="63.852125102008074" lon="11.32029108018375" id="-51842">
		<tag k="name" v="Vika" />
		<tag k="place" v="farm" />
		<tag k="ssr:stedsnr" v="13152" />
	</node>
	<node lat="63.74979444591896" lon="10.946547213756363" id="-51844">
		<tag k="alt_name" v="Litl-Troset" />
		<tag k="name" v="Sliperåsen" />
		<tag k="place" v="farm" />
		<tag k="ssr:stedsnr" v="13161" />
	</node>
	<node lat="63.85903055574752" lon="11.20320833913605" id="-51845">
		<tag k="fixme" v="multiple name tags, choose one and add the other to alt_name" />
		<tag k="name" v="Kvamsfjæra;Svebakken" />
		<tag k="place" v="farm" />
		<tag k="ssr:stedsnr" v="13741" />
	</node>
	<node lat="63.92425833054707" lon="11.212958336542133" id="-51847">
		<tag k="name" v="Vesterli" />
		<tag k="place" v="farm" />
		<tag k="ssr:stedsnr" v="14460" />
	</node>
	<node lat="63.89291667096208" lon="11.112013897547406" id="-51848">
		<tag k="name" v="Sørgjerdet" />
		<tag k="place" v="farm" />
		<tag k="ssr:stedsnr" v="14479" />
	</node>
	<node lat="63.940526893464295" lon="11.327842480892029" id="-51850">
		<tag k="alt_name" v="Klefstad" />
		<tag k="fixme" v="consider place=hamlet" />
		<tag k="name" v="Kløvstad" />
		<tag k="place" v="farm" />
		<tag k="ssr:stedsnr" v="14042" />
	</node>
	<node lat="63.892294205960326" lon="11.257826521540562" id="-51851">
		<tag k="fixme" v="consider place=hamlet" />
		<tag k="name" v="Hastad" />
		<tag k="place" v="farm" />
		<tag k="ssr:stedsnr" v="14062" />
	</node>
	<node lat="63.89130440290534" lon="11.28561137100101" id="-51852">
		<tag k="alt_name" v="Ferstad, østre" />
		<tag k="fixme" v="multiple name tags, choose one and add the other to alt_name" />
		<tag k="name" v="Ferstad;Østre Ferstad" />
		<tag k="place" v="farm" />
		<tag k="ssr:stedsnr" v="14068" />
	</node>
	<node lat="63.908417350788966" lon="11.29800484198865" id="-51854">
		<tag k="fixme" v="consider place=hamlet" />
		<tag k="name" v="Skogset" />
		<tag k="place" v="farm" />
		<tag k="ssr:stedsnr" v="14081" />
	</node>
	<node lat="63.9151888886568" lon="11.316813885590635" id="-51855">
		<tag k="name" v="Dalen" />
		<tag k="place" v="isolated_dwelling" />
		<tag k="ssr:stedsnr" v="14085" />
	</node>
	<node lat="63.86989948185443" lon="11.466915686481745" id="-51856">
		<tag k="fixme" v="consider place=hamlet" />
		<tag k="name" v="Raudfloa" />
		<tag k="place" v="farm" />
		<tag k="ssr:stedsnr" v="14152" />
	</node>
	<node lat="63.87462498188192" lon="11.206533410313503" id="-51858">
		<tag k="fixme" v="consider place=hamlet" />
		<tag k="name" v="Kjesbua" />
		<tag k="place" v="farm" />
		<tag k="ssr:stedsnr" v="14645" />
	</node>
	<node lat="63.88716944272708" lon="11.001049992129813" id="-51861">
		<tag k="fixme" v="consider place=hamlet" />
		<tag k="name" v="Framverran" />
		<tag k="place" v="village" />
		<tag k="ssr:stedsnr" v="14679" />
	</node>
	<node lat="63.88478449129337" lon="10.972946424630203" id="-51862">
		<tag k="fixme" v="consider place=hamlet" />
		<tag k="name" v="Sellia" />
		<tag k="place" v="farm" />
		<tag k="ssr:stedsnr" v="14681" />
	</node>
	<node lat="63.87387123110844" lon="11.031013881714689" id="-51864">
		<tag k="alt_name" v="Revdal" />
		<tag k="fixme" v="consider place=hamlet" />
		<tag k="name" v="Revdalen" />
		<tag k="place" v="farm" />
		<tag k="ssr:stedsnr" v="14692" />
	</node>
	<node lat="63.86862222448149" lon="11.015038896537721" id="-51865">
		<tag k="name" v="Fuglleiken" />
		<tag k="place" v="locality" />
		<tag k="ssr:stedsnr" v="14694" />
	</node>
	<node lat="63.81679994328723" lon="10.990240239243318" id="-51867">
		<tag k="fixme" v="consider place=hamlet" />
		<tag k="name" v="Vinnan" />
		<tag k="place" v="farm" />
		<tag k="ssr:stedsnr" v="14793" />
	</node>
	<node lat="63.779416667373916" lon="10.980972231017375" id="-51869">
		<tag k="name" v="Saltvikberget" />
		<tag k="place" v="farm" />
		<tag k="ssr:stedsnr" v="14749" />
	</node>
	<node lat="63.80986110741325" lon="11.00100834226385" id="-51870">
		<tag k="name" v="Tørvik" />
		<tag k="place" v="farm" />
		<tag k="ssr:stedsnr" v="14810" />
	</node>
	<node lat="63.792883332461464" lon="11.003683328417695" id="-51873">
		<tag k="name" v="Lauvlia" />
		<tag k="place" v="isolated_dwelling" />
		<tag k="ssr:stedsnr" v="14837" />
	</node>
	<node lat="63.86258889132093" lon="11.510980555161709" id="-51876">
		<tag k="historic" v="shieling" />
		<tag k="name" v="Røskjevollen" />
		<tag k="place" v="isolated_dwelling" />
		<tag k="ssr:stedsnr" v="22691" />
	</node>
	<node lat="63.79566111195016" lon="10.968169447810032" id="-51879">
		<tag k="name" v="Storsveet" />
		<tag k="place" v="locality" />
		<tag k="ssr:stedsnr" v="25617" />
	</node>
	<node lat="63.875686109085635" lon="11.010938898074842" id="-51883">
		<tag k="name" v="Fredly" />
		<tag k="place" v="farm" />
		<tag k="ssr:stedsnr" v="26729" />
	</node>
	<node lat="63.82431388543669" lon="10.984636105745503" id="-51884">
		<tag k="alt_name" v="Berg vestre" />
		<tag k="name" v="Vestre Berg" />
		<tag k="place" v="farm" />
		<tag k="ssr:stedsnr" v="26737" />
	</node>
	<node lat="63.87071944347006" lon="11.301183337098822" id="-51910">
		<tag k="loc_name" v="Sandbogen" />
		<tag k="name" v="Sandvågen" />
		<tag k="place" v="quarter" />
		<tag k="ssr:stedsnr" v="41710" />
	</node>
	<node lat="63.93616666505662" lon="11.301647220645581" id="-51911">
		<tag k="loc_name" v="Hjellan søndre" />
		<tag k="name" v="Søndre Hjellan" />
		<tag k="place" v="farm" />
		<tag k="ssr:stedsnr" v="41952" />
	</node>
	<node lat="63.85456388500513" lon="11.086652774616958" id="-51914">
		<tag k="name" v="Aunet" />
		<tag k="place" v="farm" />
		<tag k="ssr:stedsnr" v="45969" />
	</node>
	<node lat="63.8302444441783" lon="10.819266664376334" id="-51915">
		<tag k="historic" v="shieling" />
		<tag k="name" v="Hindbergseteren" />
		<tag k="place" v="isolated_dwelling" />
		<tag k="ssr:stedsnr" v="47581" />
	</node>
	<node lat="63.78305278033937" lon="10.868058334559597" id="-51923">
		<tag k="historic" v="shieling" />
		<tag k="name" v="Heiseteren" />
		<tag k="place" v="isolated_dwelling" />
		<tag k="ssr:stedsnr" v="48465" />
	</node>
	<node lat="63.8766000029808" lon="11.267088888077861" id="-51927">
		<tag k="fixme" v="consider place=hamlet" />
		<tag k="name" v="Sakshaug" />
		<tag k="place" v="farm" />
		<tag k="ssr:stedsnr" v="49124" />
	</node>
	<node lat="63.874919445239854" lon="11.255097220943227" id="-51929">
		<tag k="name" v="Kvistadbakkan" />
		<tag k="place" v="quarter" />
		<tag k="ssr:stedsnr" v="49128" />
	</node>
	<node lat="63.85676666440697" lon="11.183150009713271" id="-51934">
		<tag k="name" v="Vestre Undersåker" />
		<tag k="place" v="farm" />
		<tag k="ssr:stedsnr" v="59442" />
	</node>
	<node lat="63.837731692264455" lon="11.372776900009972" id="-51935">
		<tag k="alt_name" v="Hammer" />
		<tag k="fixme" v="consider place=hamlet" />
		<tag k="name" v="Hammar" />
		<tag k="place" v="farm" />
		<tag k="ssr:stedsnr" v="74239" />
	</node>
	<node lat="63.85219471829858" lon="11.414846984934197" id="-51936">
		<tag k="fixme" v="consider place=hamlet" />
		<tag k="name" v="Salberg" />
		<tag k="place" v="farm" />
		<tag k="ssr:stedsnr" v="74122" />
	</node>
	<node lat="63.884024825436725" lon="11.290567792319463" id="-51938">
		<tag k="fixme" v="consider place=hamlet" />
		<tag k="name" v="Ring" />
		<tag k="place" v="farm" />
		<tag k="ssr:stedsnr" v="74083" />
	</node>
	<node lat="63.89894999934509" lon="11.228080558912184" id="-51939">
		<tag k="name" v="Liberg" />
		<tag k="place" v="farm" />
		<tag k="ssr:stedsnr" v="74086" />
	</node>
	<node lat="63.89493391936563" lon="11.226970389347736" id="-51940">
		<tag k="fixme" v="consider place=hamlet" />
		<tag k="name" v="Råstad" />
		<tag k="place" v="farm" />
		<tag k="ssr:stedsnr" v="74087" />
	</node>
	<node lat="63.89608196218034" lon="11.321982357314987" id="-51941">
		<tag k="name" v="Bossnes" />
		<tag k="place" v="hamlet" />
		<tag k="ssr:stedsnr" v="74093" />
	</node>
	<node lat="63.9668922091587" lon="11.346334346753771" id="-51942">
		<tag k="fixme" v="consider place=hamlet" />
		<tag k="name" v="Hustad" />
		<tag k="place" v="farm" />
		<tag k="ssr:stedsnr" v="74867" />
	</node>
	<node lat="63.842327605642346" lon="11.068983997907543" id="-51944">
		<tag k="fixme" v="consider place=hamlet" />
		<tag k="name" v="Kjerringvika" />
		<tag k="place" v="farm" />
		<tag k="ssr:stedsnr" v="74646" />
	</node>
	<node lat="63.93776795638664" lon="11.238044402189328" id="-51946">
		<tag k="fixme" v="consider place=hamlet" />
		<tag k="name" v="Agle" />
		<tag k="place" v="farm" />
		<tag k="ssr:stedsnr" v="75036" />
	</node>
	<node lat="63.93527732828444" lon="11.298080840708392" id="-51947">
		<tag k="name" v="Hjellan" />
		<tag k="place" v="hamlet" />
		<tag k="ssr:stedsnr" v="75041" />
	</node>
	<node lat="63.76805338776488" lon="10.969449466316801" id="-51948">
		<tag k="fixme" v="consider place=hamlet" />
		<tag k="name" v="Skavlen" />
		<tag k="place" v="farm" />
		<tag k="ssr:stedsnr" v="74784" />
	</node>
	<node lat="63.90395766443258" lon="11.258954385767034" id="-51949">
		<tag k="fixme" v="consider place=hamlet" />
		<tag k="name" v="Herstad" />
		<tag k="place" v="farm" />
		<tag k="ssr:stedsnr" v="75100" />
	</node>
	<node lat="63.88200498855986" lon="11.16905871405007" id="-51951">
		<tag k="fixme" v="consider place=hamlet" />
		<tag k="name" v="Ulstad" />
		<tag k="place" v="farm" />
		<tag k="ssr:stedsnr" v="75736" />
	</node>
	<node lat="63.878281229870026" lon="11.11120554497838" id="-51952">
		<tag k="name" v="Stokkan" />
		<tag k="place" v="hamlet" />
		<tag k="ssr:stedsnr" v="75754" />
	</node>
	<node lat="63.885175004258684" lon="11.008077767998422" id="-51954">
		<tag k="name" v="Haugtun" />
		<tag k="place" v="farm" />
		<tag k="ssr:stedsnr" v="75759" />
	</node>
	<node lat="63.870527547143745" lon="11.139049032358965" id="-51955">
		<tag k="fixme" v="consider place=hamlet" />
		<tag k="name" v="Stavran" />
		<tag k="place" v="farm" />
		<tag k="ssr:stedsnr" v="75777" />
	</node>
	<node lat="63.94960833482859" lon="11.323805555396698" id="-51957">
		<tag k="name" v="Brekka" />
		<tag k="place" v="isolated_dwelling" />
		<tag k="ssr:stedsnr" v="75943" />
	</node>
	<node lat="63.80017500209554" lon="10.785233335852475" id="-51960">
		<tag k="fixme" v="consider place=hamlet" />
		<tag k="name" v="Liaunet" />
		<tag k="place" v="farm" />
		<tag k="ssr:stedsnr" v="229436" />
	</node>
	<node lat="63.877795649298285" lon="11.398801008120882" id="-51963">
		<tag k="name" v="Øvre Lorås" />
		<tag k="place" v="farm" />
		<tag k="ssr:stedsnr" v="83948" />
	</node>
	<node lat="63.86299167032306" lon="11.480208342881818" id="-51966">
		<tag k="fixme" v="consider place=hamlet" />
		<tag k="name" v="Floåsen" />
		<tag k="place" v="farm" />
		<tag k="ssr:stedsnr" v="83954" />
	</node>
	<node lat="63.82213333705913" lon="11.008933341470366" id="-51967">
		<tag k="name" v="Grande" />
		<tag k="place" v="farm" />
		<tag k="ssr:stedsnr" v="87349" />
	</node>
	<node lat="63.84737499987075" lon="10.771183337186628" id="-51974">
		<tag k="name" v="Dalberget" />
		<tag k="place" v="locality" />
		<tag k="ssr:stedsnr" v="89102" />
	</node>
	<node lat="63.89573888547189" lon="11.26603332960066" id="-51979">
		<tag k="loc_name" v="Ås nordre" />
		<tag k="name" v="Øvre Ås" />
		<tag k="place" v="farm" />
		<tag k="ssr:stedsnr" v="100817" />
	</node>
	<node lat="63.878183329287225" lon="11.112672212521543" id="-51980">
		<tag k="loc_name" v="Stokkan østre" />
		<tag k="name" v="Østre Stokkan" />
		<tag k="place" v="farm" />
		<tag k="ssr:stedsnr" v="100837" />
	</node>
	<node lat="63.86496666420217" lon="11.217966671184868" id="-51991">
		<tag k="name" v="Øsebekken" />
		<tag k="place" v="farm" />
		<tag k="ssr:stedsnr" v="106766" />
	</node>
	<node lat="63.85081406586367" lon="11.405287485735519" id="-52012">
		<tag k="fixme" v="consider place=hamlet" />
		<tag k="name" v="Salberg" />
		<tag k="place" v="farm" />
		<tag k="ssr:stedsnr" v="110033" />
	</node>
	<node lat="63.88015833760633" lon="11.247986114860229" id="-52013">
		<tag k="name" v="Kvistad" />
		<tag k="place" v="farm" />
		<tag k="ssr:stedsnr" v="110098" />
	</node>
	<node lat="63.973830555313725" lon="11.358555549973115" id="-52015">
		<tag k="name" v="Stranda" />
		<tag k="place" v="farm" />
		<tag k="ssr:stedsnr" v="110226" />
	</node>
	<node lat="63.87566944308814" lon="11.12276945150948" id="-52016">
		<tag k="fixme" v="consider place=hamlet" />
		<tag k="name" v="Noremsaunet" />
		<tag k="place" v="farm" />
		<tag k="ssr:stedsnr" v="110432" />
	</node>
	<node lat="63.87306388955837" lon="11.237702786480362" id="-52017">
		<tag k="name" v="Solvang" />
		<tag k="place" v="farm" />
		<tag k="ssr:stedsnr" v="110448" />
	</node>
	<node lat="63.894913886802286" lon="11.111655549945102" id="-52020">
		<tag k="name" v="Nordgjerdet" />
		<tag k="place" v="farm" />
		<tag k="ssr:stedsnr" v="134588" />
	</node>
	<node lat="63.89551046438837" lon="11.13506540730693" id="-52021">
		<tag k="name" v="Snertingen" />
		<tag k="place" v="hamlet" />
		<tag k="ssr:stedsnr" v="134589" />
	</node>
	<node lat="63.90014346795736" lon="11.146025671588777" id="-52022">
		<tag k="fixme" v="consider place=hamlet" />
		<tag k="name" v="Fola" />
		<tag k="place" v="farm" />
		<tag k="ssr:stedsnr" v="134590" />
	</node>
	<node lat="63.89421110736076" lon="11.185608338938694" id="-52023">
		<tag k="name" v="Sør-Lyngstad" />
		<tag k="place" v="farm" />
		<tag k="ssr:stedsnr" v="134593" />
	</node>
	<node lat="63.9424813567838" lon="11.318090212048881" id="-52029">
		<tag k="name" v="Berg" />
		<tag k="place" v="hamlet" />
		<tag k="ssr:stedsnr" v="135039" />
	</node>
	<node lat="63.88764589488156" lon="11.399891669558833" id="-52030">
		<tag k="name" v="Grandan" />
		<tag k="place" v="hamlet" />
		<tag k="ssr:stedsnr" v="135054" />
	</node>
	<node lat="63.90331939998787" lon="11.308701636444516" id="-52031">
		<tag k="name" v="Verdal" />
		<tag k="place" v="hamlet" />
		<tag k="ssr:stedsnr" v="135094" />
	</node>
	<node lat="63.90249318242721" lon="11.23589445606254" id="-52032">
		<tag k="fixme" v="consider place=hamlet" />
		<tag k="name" v="Kråkåsen" />
		<tag k="place" v="farm" />
		<tag k="ssr:stedsnr" v="135101" />
	</node>
	<node lat="63.85901226171634" lon="11.401720989210297" id="-52034">
		<tag k="name" v="Røra" />
		<tag k="place" v="village" />
		<tag k="ssr:stedsnr" v="135147" />
	</node>
	<node lat="63.871757102913" lon="11.226399267930413" id="-52035">
		<tag k="fixme" v="consider place=hamlet" />
		<tag k="name" v="Hjulstad" />
		<tag k="place" v="farm" />
		<tag k="ssr:stedsnr" v="135157" />
	</node>
	<node lat="63.874332264938104" lon="11.269786106050464" id="-52037">
		<tag k="name" v="Sakshaug" />
		<tag k="place" v="hamlet" />
		<tag k="ssr:stedsnr" v="135174" />
	</node>
	<node lat="63.91798333317067" lon="11.20473334276334" id="-52038">
		<tag k="name" v="Skjemstadaunet" />
		<tag k="place" v="farm" />
		<tag k="ssr:stedsnr" v="135513" />
	</node>
	<node lat="63.88591802130963" lon="11.21466160857729" id="-52039">
		<tag k="fixme" v="multiple name tags, choose one and add the other to alt_name" />
		<tag k="name" v="Terdalen;Lundemo" />
		<tag k="place" v="farm" />
		<tag k="ssr:stedsnr" v="135527" />
	</node>
	<node lat="63.89130308774845" lon="10.965069350100356" id="-52040">
		<tag k="fixme" v="consider place=hamlet" />
		<tag k="name" v="Vestvika" />
		<tag k="place" v="farm" />
		<tag k="ssr:stedsnr" v="135529" />
	</node>
	<node lat="63.876802777595096" lon="11.197983341674638" id="-52043">
		<tag k="name" v="Brekka" />
		<tag k="place" v="farm" />
		<tag k="ssr:stedsnr" v="135683" />
	</node>
	<node lat="63.879899979212716" lon="11.081295927018711" id="-52045">
		<tag k="fixme" v="consider place=hamlet" />
		<tag k="name" v="Norem" />
		<tag k="place" v="farm" />
		<tag k="ssr:stedsnr" v="135699" />
	</node>
	<node lat="63.87588554445976" lon="11.03634802020234" id="-52046">
		<tag k="alt_name" v="Vennes, s;Vennes, søndre" />
		<tag k="name" v="Søre Vennes" />
		<tag k="place" v="farm" />
		<tag k="ssr:stedsnr" v="135700" />
	</node>
	<node lat="63.96123055650161" lon="11.334330564466418" id="-52051">
		<tag k="alt_name" v="Gangstad, nedre" />
		<tag k="name" v="Ner-Gangstad" />
		<tag k="place" v="farm" />
		<tag k="ssr:stedsnr" v="135878" />
	</node>
	<node lat="63.958555553293586" lon="11.374591671332967" id="-52052">
		<tag k="name" v="Sveet" />
		<tag k="place" v="farm" />
		<tag k="ssr:stedsnr" v="135884" />
	</node>
	<node lat="63.950141979026604" lon="11.343506340394205" id="-52053">
		<tag k="fixme" v="consider place=hamlet" />
		<tag k="name" v="Flakkenberg" />
		<tag k="place" v="farm" />
		<tag k="ssr:stedsnr" v="135914" />
	</node>
	<node lat="63.75791111245382" lon="10.897591658898685" id="-52054">
		<tag k="name" v="Trosetsetran" />
		<tag k="place" v="isolated_dwelling" />
		<tag k="ssr:stedsnr" v="135780" />
	</node>
	<node lat="63.83482777626989" lon="10.974663893640969" id="-52057">
		<tag k="name" v="Gjerde" />
		<tag k="place" v="farm" />
		<tag k="ssr:stedsnr" v="146487" />
	</node>
	<node lat="63.87946111073665" lon="11.024902784381839" id="-52063">
		<tag k="alt_name" v="Følstad nedre" />
		<tag k="name" v="Nedre Følstad" />
		<tag k="place" v="farm" />
		<tag k="ssr:stedsnr" v="147746" />
	</node>
	<node lat="63.86983055403705" lon="11.073108336051863" id="-52064">
		<tag k="name" v="Sandvika" />
		<tag k="place" v="farm" />
		<tag k="ssr:stedsnr" v="147749" />
	</node>
	<node lat="63.831916668627265" lon="11.048044436127627" id="-52065">
		<tag k="name" v="Kveldstad" />
		<tag k="place" v="isolated_dwelling" />
		<tag k="ssr:stedsnr" v="147751" />
	</node>
	<node lat="63.888236108765724" lon="10.967663897344645" id="-52069">
		<tag k="name" v="Dalen" />
		<tag k="place" v="locality" />
		<tag k="ssr:stedsnr" v="147796" />
	</node>
	<node lat="63.839452781534796" lon="10.693011110952769" id="-52071">
		<tag k="name" v="Glenna" />
		<tag k="place" v="farm" />
		<tag k="ssr:stedsnr" v="149051" />
	</node>
	<node lat="63.844536113272" lon="11.14411388141854" id="-52085">
		<tag k="loc_name" v="Ulven øvre" />
		<tag k="name" v="Øvre Ulvin" />
		<tag k="place" v="farm" />
		<tag k="ssr:stedsnr" v="162042" />
	</node>
	<node lat="63.864519445149384" lon="11.359738894444204" id="-52093">
		<tag k="name" v="Nygjerdet" />
		<tag k="place" v="isolated_dwelling" />
		<tag k="ssr:stedsnr" v="167899" />
	</node>
	<node lat="63.858497220728225" lon="10.884494448403988" id="-52108">
		<tag k="historic" v="shieling" />
		<tag k="name" v="Grandseteren" />
		<tag k="place" v="isolated_dwelling" />
		<tag k="ssr:stedsnr" v="169691" />
	</node>
	<node lat="63.946983337193615" lon="11.322083331275751" id="-52113">
		<tag k="name" v="Nordberg" />
		<tag k="place" v="isolated_dwelling" />
		<tag k="ssr:stedsnr" v="170190" />
	</node>
	<node lat="63.87536944540991" lon="11.27868332811766" id="-52114">
		<tag k="fixme" v="consider place=hamlet" />
		<tag k="name" v="Sakshaug" />
		<tag k="place" v="farm" />
		<tag k="ssr:stedsnr" v="171086" />
	</node>
	<node lat="63.87194444757534" lon="11.27399721357881" id="-52115">
		<tag k="fixme" v="consider place=hamlet" />
		<tag k="name" v="Sakshaug" />
		<tag k="place" v="farm" />
		<tag k="ssr:stedsnr" v="171087" />
	</node>
	<node lat="63.86010152029483" lon="11.191829168809964" id="-52118">
		<tag k="name" v="Kvam" />
		<tag k="place" v="farm" />
		<tag k="ssr:stedsnr" v="171488" />
	</node>
	<node lat="63.8817055535236" lon="11.088402770935595" id="-52120">
		<tag k="name" v="Nordal" />
		<tag k="place" v="isolated_dwelling" />
		<tag k="ssr:stedsnr" v="180546" />
	</node>
	<node lat="63.87998279070765" lon="11.251274103535906" id="-52126">
		<tag k="fixme" v="consider place=hamlet" />
		<tag k="name" v="Kvistad" />
		<tag k="place" v="farm" />
		<tag k="ssr:stedsnr" v="196193" />
	</node>
	<node lat="63.77910141292967" lon="10.752283077284117" id="-52127">
		<tag k="fixme" v="consider place=hamlet" />
		<tag k="name" v="Øya" />
		<tag k="place" v="farm" />
		<tag k="ssr:stedsnr" v="195782" />
	</node>
	<node lat="63.906555554799354" lon="11.229011111472062" id="-52130">
		<tag k="fixme" v="consider place=hamlet" />
		<tag k="name" v="Bøl" />
		<tag k="place" v="farm" />
		<tag k="ssr:stedsnr" v="196087" />
	</node>
	<node lat="63.923891174474555" lon="11.22970504974005" id="-52131">
		<tag k="fixme" v="consider place=hamlet" />
		<tag k="name" v="Vistaunet" />
		<tag k="place" v="farm" />
		<tag k="ssr:stedsnr" v="196001" />
	</node>
	<node lat="63.91973055864604" lon="11.264158327073865" id="-52132">
		<tag k="name" v="Svian" />
		<tag k="place" v="farm" />
		<tag k="ssr:stedsnr" v="196003" />
	</node>
	<node lat="63.92400277321" lon="11.341575008238543" id="-52133">
		<tag k="name" v="Sjøvoll" />
		<tag k="place" v="farm" />
		<tag k="ssr:stedsnr" v="196008" />
	</node>
	<node lat="63.928159697394236" lon="11.335703763882533" id="-52134">
		<tag k="fixme" v="consider place=hamlet" />
		<tag k="loc_name" v="Bartnes østre;Østre Bartnes" />
		<tag k="name" v="Bartnes" />
		<tag k="place" v="farm" />
		<tag k="ssr:stedsnr" v="196016" />
	</node>
	<node lat="63.88246682964298" lon="11.414762673637213" id="-52135">
		<tag k="fixme" v="consider place=hamlet" />
		<tag k="name" v="Lunnan" />
		<tag k="place" v="farm" />
		<tag k="ssr:stedsnr" v="196070" />
	</node>
	<node lat="63.887800432463976" lon="11.293547986066303" id="-52136">
		<tag k="alt_name" v="Hald" />
		<tag k="fixme" v="consider place=hamlet" />
		<tag k="name" v="Hall" />
		<tag k="place" v="farm" />
		<tag k="ssr:stedsnr" v="196072" />
	</node>
	<node lat="63.86506491586393" lon="11.445427447397897" id="-52138">
		<tag k="fixme" v="consider place=hamlet" />
		<tag k="name" v="Lundsaunet" />
		<tag k="place" v="farm" />
		<tag k="ssr:stedsnr" v="196172" />
	</node>
	<node lat="63.88859353140754" lon="11.214321093214972" id="-52141">
		<tag k="fixme" v="consider place=hamlet" />
		<tag k="name" v="Oppem" />
		<tag k="place" v="farm" />
		<tag k="ssr:stedsnr" v="196494" />
	</node>
	<node lat="63.885750003112754" lon="10.998911105386151" id="-52142">
		<tag k="name" v="Kleiva" />
		<tag k="place" v="farm" />
		<tag k="ssr:stedsnr" v="196500" />
	</node>
	<node lat="63.89526067995654" lon="11.197728331989588" id="-52143">
		<tag k="alt_name" v="Tronstad østre;Tronstad" />
		<tag k="name" v="Østre Tronstad" />
		<tag k="place" v="farm" />
		<tag k="ssr:stedsnr" v="196505" />
	</node>
	<node lat="63.886838888148596" lon="10.944663893196314" id="-52144">
		<tag k="name" v="Aunet" />
		<tag k="place" v="farm" />
		<tag k="ssr:stedsnr" v="196515" />
	</node>
	<node lat="63.84864999890851" lon="11.0895305535736" id="-52148">
		<tag k="name" v="Ner-Vang" />
		<tag k="place" v="farm" />
		<tag k="ssr:stedsnr" v="196600" />
	</node>
	<node lat="63.87772073485635" lon="11.036704728629047" id="-52150">
		<tag k="alt_name" v="Vennes, nordre;Vennes" />
		<tag k="name" v="Nordre Vennes" />
		<tag k="place" v="farm" />
		<tag k="ssr:stedsnr" v="196700" />
	</node>
	<node lat="63.78977777626583" lon="10.732347225271752" id="-52151">
		<tag k="name" v="Meltingsetran" />
		<tag k="place" v="farm" />
		<tag k="ssr:stedsnr" v="196744" />
	</node>
	<node lat="63.840501889622814" lon="11.125450534774702" id="-52153">
		<tag k="fixme" v="consider place=hamlet" />
		<tag k="name" v="Får" />
		<tag k="place" v="farm" />
		<tag k="ssr:stedsnr" v="196637" />
	</node>
	<node lat="63.944109785283764" lon="11.285782759230036" id="-52157">
		<tag k="fixme" v="consider place=hamlet" />
		<tag k="name" v="Manem" />
		<tag k="place" v="farm" />
		<tag k="ssr:stedsnr" v="196915" />
	</node>
	<node lat="63.950938887370455" lon="11.375072213708961" id="-52158">
		<tag k="name" v="Korsen" />
		<tag k="place" v="farm" />
		<tag k="ssr:stedsnr" v="196919" />
	</node>
	<node lat="63.96486944267106" lon="11.308402777065385" id="-52159">
		<tag k="alt_name" v="Breidvik" />
		<tag k="name" v="Breivika" />
		<tag k="place" v="farm" />
		<tag k="ssr:stedsnr" v="196872" />
	</node>
	<node lat="63.95945555479781" lon="11.30429999279508" id="-52160">
		<tag k="name" v="Grassveet" />
		<tag k="place" v="isolated_dwelling" />
		<tag k="ssr:stedsnr" v="196893" />
	</node>
	<node lat="63.956263888856654" lon="11.314227787711108" id="-52161">
		<tag k="name" v="Brattli" />
		<tag k="place" v="isolated_dwelling" />
		<tag k="ssr:stedsnr" v="196896" />
	</node>
	<node lat="63.87848490996855" lon="11.371645467084955" id="-52162">
		<tag k="alt_name" v="Grandan" />
		<tag k="name" v="Grandholmen" />
		<tag k="place" v="farm" />
		<tag k="ssr:stedsnr" v="204950" />
	</node>
	<node lat="63.83150555494065" lon="11.032380561490461" id="-52171">
		<tag k="name" v="Flatskogen" />
		<tag k="place" v="farm" />
		<tag k="ssr:stedsnr" v="208854" />
	</node>
	<node lat="63.96306944468125" lon="11.310441674846787" id="-52189">
		<tag k="fixme" v="consider place=suburb, village or hamlet" />
		<tag k="name" v="Småland" />
		<tag k="place" v="quarter" />
		<tag k="ssr:stedsnr" v="222381" />
	</node>
	<node lat="63.86640278058479" lon="11.298305565759973" id="-52190">
		<tag k="name" v="Lillesund" />
		<tag k="place" v="isolated_dwelling" />
		<tag k="ssr:stedsnr" v="222810" />
	</node>
	<node lat="63.87134722440158" lon="11.07614444543374" id="-52204">
		<tag k="alt_name" v="Noremsanden" />
		<tag k="name" v="Noremssanden" />
		<tag k="place" v="isolated_dwelling" />
		<tag k="ssr:stedsnr" v="226019" />
	</node>
	<node lat="63.85419166448191" lon="10.837138897968732" id="-52234">
		<tag k="name" v="Røsliplassan" />
		<tag k="place" v="locality" />
		<tag k="ssr:stedsnr" v="290465" />
	</node>
	<node lat="63.84447777541" lon="11.018997212132717" id="-52245">
		<tag k="historic" v="shieling" />
		<tag k="name" v="Bergsseteren" />
		<tag k="place" v="isolated_dwelling" />
		<tag k="ssr:stedsnr" v="291768" />
	</node>
	<node lat="63.968423907025716" lon="11.351737036497576" id="-52247">
		<tag k="fixme" v="consider place=hamlet" />
		<tag k="name" v="Hustad" />
		<tag k="place" v="farm" />
		<tag k="ssr:stedsnr" v="292209" />
	</node>
	<node lat="63.91810547099572" lon="11.240986028071326" id="-52250">
		<tag k="alt_name" v="Hestveiten" />
		<tag k="fixme" v="consider place=hamlet" />
		<tag k="name" v="Hestveit" />
		<tag k="place" v="farm" />
		<tag k="ssr:stedsnr" v="317001" />
	</node>
	<node lat="63.91670833378672" lon="11.28110833729326" id="-52251">
		<tag k="alt_name" v="Granås" />
		<tag k="name" v="Granåsen" />
		<tag k="place" v="farm" />
		<tag k="ssr:stedsnr" v="317092" />
	</node>
	<node lat="63.86328610708985" lon="11.219394453441058" id="-52252">
		<tag k="loc_name" v="Sjøsveet øvre;Øvre Sjøsveet" />
		<tag k="name" v="Sjøsveet" />
		<tag k="place" v="farm" />
		<tag k="ssr:stedsnr" v="317136" />
	</node>
	<node lat="63.878452550067536" lon="11.30010842208186" id="-52254">
		<tag k="fixme" v="consider place=hamlet" />
		<tag k="name" v="Røset" />
		<tag k="place" v="farm" />
		<tag k="ssr:stedsnr" v="317176" />
	</node>
	<node lat="63.87826303855361" lon="11.25727651882733" id="-52255">
		<tag k="name" v="Berg" />
		<tag k="place" v="farm" />
		<tag k="ssr:stedsnr" v="317177" />
	</node>
	<node lat="63.90652959853656" lon="11.163606043172614" id="-52256">
		<tag k="fixme" v="consider place=hamlet" />
		<tag k="name" v="Kjellvika" />
		<tag k="place" v="farm" />
		<tag k="ssr:stedsnr" v="317462" />
	</node>
	<node lat="63.835832235481504" lon="11.051732650284182" id="-52259">
		<tag k="fixme" v="consider place=hamlet" />
		<tag k="name" v="Braset" />
		<tag k="place" v="farm" />
		<tag k="ssr:stedsnr" v="317599" />
	</node>
	<node lat="63.84780565968243" lon="11.139792451031859" id="-52260">
		<tag k="fixme" v="consider place=hamlet" />
		<tag k="name" v="Tronhus" />
		<tag k="place" v="farm" />
		<tag k="ssr:stedsnr" v="317615" />
	</node>
	<node lat="63.87028333607651" lon="10.859702770324708" id="-52265">
		<tag k="name" v="Storsteinvika" />
		<tag k="place" v="farm" />
		<tag k="ssr:stedsnr" v="317685" />
	</node>
	<node lat="63.86756088013991" lon="11.182717605672844" id="-52266">
		<tag k="name" v="Vester-Kvam" />
		<tag k="place" v="farm" />
		<tag k="ssr:stedsnr" v="317689" />
	</node>
	<node lat="63.95328055520429" lon="11.291149990185911" id="-52274">
		<tag k="name" v="Venås" />
		<tag k="place" v="farm" />
		<tag k="ssr:stedsnr" v="317898" />
	</node>
	<node lat="63.960960853966384" lon="11.27599027541398" id="-52275">
		<tag k="name" v="Ålberg" />
		<tag k="place" v="hamlet" />
		<tag k="ssr:stedsnr" v="317867" />
	</node>
	<node lat="63.95360037055743" lon="11.263248684710312" id="-52276">
		<tag k="fixme" v="consider place=hamlet" />
		<tag k="name" v="Hemre" />
		<tag k="place" v="farm" />
		<tag k="ssr:stedsnr" v="317869" />
	</node>
	<node lat="63.8255972219792" lon="11.03954167327253" id="-52285">
		<tag k="name" v="Balvik" />
		<tag k="place" v="isolated_dwelling" />
		<tag k="ssr:stedsnr" v="329732" />
	</node>
	<node lat="63.771686108349975" lon="10.9781277832122" id="-52286">
		<tag k="name" v="Skavlslia" />
		<tag k="place" v="locality" />
		<tag k="ssr:stedsnr" v="329795" />
	</node>
	<node lat="63.8029930575502" lon="10.985859699650849" id="-52295">
		<tag k="alt_name" v="Sundset nordre" />
		<tag k="name" v="Nordre Sundset" />
		<tag k="place" v="farm" />
		<tag k="ssr:stedsnr" v="344563" />
	</node>
	<node lat="63.819450000070965" lon="11.006872223243992" id="-52296">
		<tag k="amenity" v="school" />
		<tag k="name" v="Mosvik skole" />
		<tag k="old_name" v="Haven" />
		<tag k="ssr:stedsnr" v="344567" />
	</node>
	<node lat="63.911247225156025" lon="11.194422227519242" id="-52309">
		<tag k="name" v="Kroken" />
		<tag k="place" v="farm" />
		<tag k="ssr:stedsnr" v="349652" />
	</node>
	<node lat="63.86666944319052" lon="10.86930555486299" id="-52312">
		<tag k="name" v="Sandhaug" />
		<tag k="place" v="farm" />
		<tag k="ssr:stedsnr" v="350776" />
	</node>
	<node lat="63.851661114491904" lon="10.837475003751106" id="-52315">
		<tag k="name" v="Sundflødt" />
		<tag k="place" v="locality" />
		<tag k="ssr:stedsnr" v="351548" />
	</node>
	<node lat="63.81678055677713" lon="10.786958338047379" id="-52316">
		<tag k="historic" v="shieling" />
		<tag k="name" v="Liaunseteren" />
		<tag k="place" v="isolated_dwelling" />
		<tag k="ssr:stedsnr" v="351549" />
	</node>
	<node lat="63.850888885351424" lon="10.902197222421007" id="-52317">
		<tag k="historic" v="shieling" />
		<tag k="name" v="Simaseteren" />
		<tag k="place" v="isolated_dwelling" />
		<tag k="ssr:stedsnr" v="351572" />
	</node>
	<node lat="63.84624866920945" lon="11.329499103379295" id="-52321">
		<tag k="fixme" v="consider place=hamlet" />
		<tag k="name" v="Hø" />
		<tag k="place" v="farm" />
		<tag k="ssr:stedsnr" v="352024" />
	</node>
	<node lat="63.937944442044866" lon="11.312511101403395" id="-52322">
		<tag k="alt_name" v="Klefstad" />
		<tag k="name" v="Kløvstad" />
		<tag k="place" v="farm" />
		<tag k="ssr:stedsnr" v="352076" />
	</node>
	<node lat="63.91900278054527" lon="11.20746665823621" id="-52323">
		<tag k="name" v="Skjemstadaunet" />
		<tag k="place" v="quarter" />
		<tag k="ssr:stedsnr" v="352230" />
	</node>
	<node lat="63.85690000131417" lon="11.1426944490921" id="-52328">
		<tag k="fixme" v="consider place=hamlet" />
		<tag k="name" v="Lyng" />
		<tag k="place" v="farm" />
		<tag k="ssr:stedsnr" v="353331" />
	</node>
	<node lat="63.86977222659061" lon="11.2997833269968" id="-52333">
		<tag k="name" v="Herman Löchens plass" />
		<tag k="place" v="square" />
		<tag k="ssr:stedsnr" v="363671" />
	</node>
	<node lat="63.92985000161726" lon="11.328594442502858" id="-52334">
		<tag k="name" v="Nordgård" />
		<tag k="place" v="farm" />
		<tag k="ssr:stedsnr" v="377021" />
	</node>
	<node lat="63.92571776329945" lon="11.261826666139978" id="-52335">
		<tag k="name" v="Verstad" />
		<tag k="place" v="hamlet" />
		<tag k="ssr:stedsnr" v="377007" />
	</node>
	<node lat="63.93090903533251" lon="11.287812041918254" id="-52336">
		<tag k="fixme" v="consider place=hamlet" />
		<tag k="name" v="Fjerstad" />
		<tag k="place" v="farm" />
		<tag k="ssr:stedsnr" v="377018" />
	</node>
	<node lat="63.89825555843105" lon="11.308694453319896" id="-52337">
		<tag k="name" v="Verdal" />
		<tag k="place" v="farm" />
		<tag k="ssr:stedsnr" v="377085" />
	</node>
	<node lat="63.89658809191301" lon="11.296056389191232" id="-52338">
		<tag k="fixme" v="consider place=hamlet" />
		<tag k="name" v="Ingål" />
		<tag k="place" v="farm" />
		<tag k="ssr:stedsnr" v="377086" />
	</node>
	<node lat="63.886832126104274" lon="11.267043449467556" id="-52339">
		<tag k="fixme" v="consider place=hamlet" />
		<tag k="name" v="Heggåsen" />
		<tag k="place" v="farm" />
		<tag k="ssr:stedsnr" v="377066" />
	</node>
	<node lat="63.85288119075635" lon="11.33146411163162" id="-52340">
		<tag k="fixme" v="consider place=hamlet" />
		<tag k="name" v="Leirdal" />
		<tag k="place" v="farm" />
		<tag k="ssr:stedsnr" v="377129" />
	</node>
	<node lat="63.842006337998185" lon="11.351083119398147" id="-52342">
		<tag k="name" v="Ystad" />
		<tag k="place" v="hamlet" />
		<tag k="ssr:stedsnr" v="377226" />
	</node>
	<node lat="63.88782778052334" lon="10.960619453265247" id="-52343">
		<tag k="name" v="Nymoen" />
		<tag k="place" v="farm" />
		<tag k="ssr:stedsnr" v="377528" />
	</node>
	<node lat="63.84423974232004" lon="11.133857607496093" id="-52349">
		<tag k="fixme" v="consider place=hamlet" />
		<tag k="name" v="Ulvin" />
		<tag k="place" v="farm" />
		<tag k="ssr:stedsnr" v="377672" />
	</node>
	<node lat="63.81061666574655" lon="10.975463897333611" id="-52357">
		<tag k="name" v="Svean" />
		<tag k="place" v="farm" />
		<tag k="ssr:stedsnr" v="377826" />
	</node>
	<node lat="63.805817879352034" lon="10.953491040156608" id="-52360">
		<tag k="fixme" v="consider place=hamlet" />
		<tag k="name" v="Nakkstad" />
		<tag k="place" v="farm" />
		<tag k="ssr:stedsnr" v="377834" />
	</node>
	<node lat="63.95325833267523" lon="11.333524991787735" id="-52364">
		<tag k="alt_name" v="Nedre Skjelvan;Skjelvan nedre;Ner-Skjelva" />
		<tag k="name" v="Skjelva" />
		<tag k="place" v="farm" />
		<tag k="ssr:stedsnr" v="377896" />
	</node>
	<node lat="63.872165437918724" lon="11.292614956022373" id="-52368">
		<tag k="fixme" v="consider place=hamlet" />
		<tag k="name" v="Sundfær" />
		<tag k="place" v="farm" />
		<tag k="ssr:stedsnr" v="378182" />
	</node>
	<node lat="63.82184815778319" lon="11.008576670507342" id="-52369">
		<tag k="fixme" v="consider place=hamlet" />
		<tag k="name" v="Stor-Grande" />
		<tag k="place" v="farm" />
		<tag k="ssr:stedsnr" v="378845" />
	</node>
	<node lat="63.92194114741205" lon="11.282770865151699" id="-52374">
		<tag k="name" v="Flatås" />
		<tag k="place" v="hamlet" />
		<tag k="ssr:stedsnr" v="389317" />
	</node>
	<node lat="63.74281944664335" lon="10.939255564283417" id="-52376">
		<tag k="name" v="Solbakken" />
		<tag k="place" v="isolated_dwelling" />
		<tag k="ssr:stedsnr" v="389607" />
	</node>
	<node lat="63.887738885100326" lon="11.002936100869723" id="-52378">
		<tag k="name" v="Bukta" />
		<tag k="old_name" v="Bugten" />
		<tag k="place" v="locality" />
		<tag k="ssr:stedsnr" v="390756" />
	</node>
	<node lat="63.85246111285246" lon="11.09704721811876" id="-52403">
		<tag k="loc_name" v="Vang Nordre" />
		<tag k="name" v="Østre Vang" />
		<tag k="place" v="farm" />
		<tag k="ssr:stedsnr" v="405067" />
	</node>
	<node lat="63.802291666471675" lon="10.98543610233049" id="-52405">
		<tag k="loc_name" v="Sundset søndre" />
		<tag k="name" v="Søndre Sundset" />
		<tag k="place" v="farm" />
		<tag k="ssr:stedsnr" v="405579" />
	</node>
	<node lat="63.88032778226841" lon="11.029833326934915" id="-52413">
		<tag k="name" v="Vollteigen" />
		<tag k="place" v="isolated_dwelling" />
		<tag k="ssr:stedsnr" v="408059" />
	</node>
	<node lat="63.87967693557858" lon="11.289965595766958" id="-52417">
		<tag k="fixme" v="consider place=hamlet" />
		<tag k="name" v="Årfallet" />
		<tag k="place" v="farm" />
		<tag k="ssr:stedsnr" v="409732" />
	</node>
	<node lat="63.96688333123287" lon="11.303772220569542" id="-52443">
		<tag k="name" v="Hammer" />
		<tag k="place" v="farm" />
		<tag k="ssr:stedsnr" v="413255" />
	</node>
	<node lat="63.96990833347624" lon="11.302916672439327" id="-52444">
		<tag k="name" v="Brenne" />
		<tag k="place" v="farm" />
		<tag k="ssr:stedsnr" v="413260" />
	</node>
	<node lat="63.867777777653544" lon="11.294794439236071" id="-52447">
		<tag k="alt_name" v="Sundsnesset" />
		<tag k="name" v="Sundsneset" />
		<tag k="place" v="quarter" />
		<tag k="ssr:stedsnr" v="414117" />
	</node>
	<node lat="63.87305833307611" lon="11.01509445164068" id="-52449">
		<tag k="name" v="Brakstad" />
		<tag k="place" v="farm" />
		<tag k="ssr:stedsnr" v="439695" />
	</node>
	<node lat="63.92925661808242" lon="11.270810207025578" id="-52450">
		<tag k="fixme" v="consider place=hamlet" />
		<tag k="name" v="Katterås" />
		<tag k="place" v="farm" />
		<tag k="ssr:stedsnr" v="438038" />
	</node>
	<node lat="63.93100551813916" lon="11.23129918777981" id="-52451">
		<tag k="name" v="Vist" />
		<tag k="place" v="hamlet" />
		<tag k="ssr:stedsnr" v="438040" />
	</node>
	<node lat="63.91481388879672" lon="11.267391664828198" id="-52452">
		<tag k="alt_name" v="Aunet" />
		<tag k="name" v="Granaaunet" />
		<tag k="place" v="farm" />
		<tag k="ssr:stedsnr" v="438105" />
	</node>
	<node lat="63.84903022357703" lon="11.38340279117968" id="-52453">
		<tag k="alt_name" v="Gavoll" />
		<tag k="fixme" v="consider place=hamlet" />
		<tag k="name" v="Gavl" />
		<tag k="place" v="farm" />
		<tag k="ssr:stedsnr" v="438117" />
	</node>
	<node lat="63.737769441044286" lon="10.90853612055173" id="-52454">
		<tag k="alt_name" v="Taraldsgård" />
		<tag k="name" v="Taraldsgården" />
		<tag k="place" v="farm" />
		<tag k="ssr:stedsnr" v="438125" />
	</node>
	<node lat="63.74930421507202" lon="10.955482185051611" id="-52455">
		<tag k="fixme" v="consider place=hamlet" />
		<tag k="name" v="Nedre Troset" />
		<tag k="place" v="farm" />
		<tag k="ssr:stedsnr" v="438139" />
	</node>
	<node lat="63.905816662440934" lon="11.176277772543667" id="-52456">
		<tag k="fixme" v="multiple name tags, choose one and add the other to alt_name" />
		<tag k="name" v="Kjerknes;Melen" />
		<tag k="place" v="farm" />
		<tag k="ssr:stedsnr" v="438508" />
	</node>
	<node lat="63.8878160769008" lon="11.427098655652996" id="-52457">
		<tag k="name" v="Røskje" />
		<tag k="place" v="hamlet" />
		<tag k="ssr:stedsnr" v="438076" />
	</node>
	<node lat="63.835997226786944" lon="10.708258329384506" id="-52459">
		<tag k="name" v="Hove" />
		<tag k="place" v="farm" />
		<tag k="ssr:stedsnr" v="438461" />
	</node>
	<node lat="63.84321589751872" lon="11.113599008204634" id="-52460">
		<tag k="fixme" v="consider place=hamlet" />
		<tag k="name" v="Nes" />
		<tag k="place" v="farm" />
		<tag k="ssr:stedsnr" v="438653" />
	</node>
	<node lat="63.85299444651184" lon="11.10753334010161" id="-52463">
		<tag k="name" v="Åsvang" />
		<tag k="place" v="farm" />
		<tag k="ssr:stedsnr" v="438666" />
	</node>
	<node lat="63.88650627445908" lon="11.18206546673684" id="-52464">
		<tag k="name" v="Oksål" />
		<tag k="place" v="hamlet" />
		<tag k="ssr:stedsnr" v="438527" />
	</node>
	<node lat="63.89093611356349" lon="10.975608337949446" id="-52465">
		<tag k="name" v="Sørvika" />
		<tag k="place" v="farm" />
		<tag k="ssr:stedsnr" v="438531" />
	</node>
	<node lat="63.89780832925586" lon="11.114561116261136" id="-52466">
		<tag k="name" v="Letnessjøen" />
		<tag k="place" v="farm" />
		<tag k="ssr:stedsnr" v="438544" />
	</node>
	<node lat="63.894594445199914" lon="11.117599999160324" id="-52467">
		<tag k="name" v="Letnesaunet" />
		<tag k="place" v="farm" />
		<tag k="ssr:stedsnr" v="438546" />
	</node>
	<node lat="63.77461944770408" lon="10.965399998311876" id="-52469">
		<tag k="historic" v="shieling" />
		<tag k="name" v="Hamnasetran" />
		<tag k="place" v="isolated_dwelling" />
		<tag k="ssr:stedsnr" v="438784" />
	</node>
	<node lat="63.755148229599065" lon="10.948663989674046" id="-52470">
		<tag k="alt_name" v="Troset, øvre" />
		<tag k="fixme" v="consider place=hamlet" />
		<tag k="name" v="Øvre Troset" />
		<tag k="place" v="farm" />
		<tag k="ssr:stedsnr" v="438790" />
	</node>
	<node lat="63.95780277430282" lon="11.371705551589832" id="-52474">
		<tag k="name" v="Slottet" />
		<tag k="place" v="isolated_dwelling" />
		<tag k="ssr:stedsnr" v="438892" />
	</node>
	<node lat="63.881188582075005" lon="11.428706624377993" id="-52475">
		<tag k="name" v="Berg" />
		<tag k="place" v="farm" />
		<tag k="ssr:stedsnr" v="439042" />
	</node>
	<node lat="63.85487533158384" lon="11.324870458068936" id="-52476">
		<tag k="fixme" v="consider place=hamlet" />
		<tag k="name" v="Haugan" />
		<tag k="place" v="farm" />
		<tag k="ssr:stedsnr" v="439124" />
	</node>
	<node lat="63.87904510531879" lon="11.186889103632565" id="-52478">
		<tag k="fixme" v="consider place=hamlet" />
		<tag k="name" v="Almenningen" />
		<tag k="place" v="farm" />
		<tag k="ssr:stedsnr" v="439691" />
	</node>
	<node lat="63.819941078741266" lon="10.97937729234241" id="-52482">
		<tag k="fixme" v="consider place=hamlet" />
		<tag k="name" v="Oppgrande" />
		<tag k="place" v="farm" />
		<tag k="ssr:stedsnr" v="439841" />
	</node>
	<node lat="63.79500222475198" lon="10.761987350486917" id="-52483">
		<tag k="name" v="Meltingen" />
		<tag k="place" v="hamlet" />
		<tag k="ssr:stedsnr" v="439889" />
	</node>
	<node lat="63.8767333330141" lon="11.42872223121949" id="-52490">
		<tag k="name" v="Bergsaunet" />
		<tag k="place" v="farm" />
		<tag k="ssr:stedsnr" v="447936" />
	</node>
	<node lat="63.924816664237426" lon="11.3020027819838" id="-52496">
		<tag k="alt_name" v="Tømtås" />
		<tag k="name" v="Tømtåsen" />
		<tag k="place" v="farm" />
		<tag k="ssr:stedsnr" v="499003" />
	</node>
	<node lat="63.926761107159564" lon="11.262930548496051" id="-52497">
		<tag k="name" v="Lia" />
		<tag k="place" v="farm" />
		<tag k="ssr:stedsnr" v="499014" />
	</node>
	<node lat="63.886377780091756" lon="11.431655560035322" id="-52498">
		<tag k="name" v="Øvre" />
		<tag k="place" v="farm" />
		<tag k="ssr:stedsnr" v="499050" />
	</node>
	<node lat="63.88935000153079" lon="11.281127768930826" id="-52499">
		<tag k="alt_name" v="Ferstad, vestre" />
		<tag k="name" v="Vestre Ferstad" />
		<tag k="place" v="farm" />
		<tag k="ssr:stedsnr" v="499063" />
	</node>
	<node lat="63.87455555470797" lon="11.274455559205407" id="-52500">
		<tag k="name" v="Sakshaug" />
		<tag k="place" v="hamlet" />
		<tag k="ssr:stedsnr" v="510736" />
	</node>
	<node lat="63.846266639586716" lon="11.387741074285875" id="-52501">
		<tag k="alt_name" v="Austad, midtre" />
		<tag k="fixme" v="multiple name tags, choose one and add the other to alt_name" />
		<tag k="name" v="Austad;Midtre Austad" />
		<tag k="place" v="farm" />
		<tag k="ssr:stedsnr" v="499086" />
	</node>
	<node lat="63.84541798957066" lon="11.321193947117754" id="-52502">
		<tag k="name" v="Hø" />
		<tag k="place" v="farm" />
		<tag k="ssr:stedsnr" v="499097" />
	</node>
	<node lat="63.797035814521514" lon="11.000954436501948" id="-52507">
		<tag k="fixme" v="consider place=hamlet" />
		<tag k="name" v="Laukaunet" />
		<tag k="place" v="farm" />
		<tag k="ssr:stedsnr" v="499817" />
	</node>
	<node lat="63.89081833780401" lon="11.17146787832032" id="-52508">
		<tag k="name" v="Ner-Reitan" />
		<tag k="place" v="farm" />
		<tag k="ssr:stedsnr" v="499458" />
	</node>
	<node lat="63.88843582473111" lon="10.991111796770499" id="-52509">
		<tag k="fixme" v="consider place=hamlet" />
		<tag k="name" v="Gipling" />
		<tag k="place" v="farm" />
		<tag k="ssr:stedsnr" v="499475" />
	</node>
	<node lat="63.8451416706462" lon="11.050519437410703" id="-52510">
		<tag k="name" v="Stjerna" />
		<tag k="place" v="locality" />
		<tag k="ssr:stedsnr" v="499580" />
	</node>
	<node lat="63.75405277830755" lon="10.950772229986153" id="-52513">
		<tag k="name" v="Ås" />
		<tag k="place" v="isolated_dwelling" />
		<tag k="ssr:stedsnr" v="499761" />
	</node>
	<node lat="63.76030971536531" lon="10.955108385170083" id="-52514">
		<tag k="alt_name" v="Hammer" />
		<tag k="fixme" v="consider place=hamlet" />
		<tag k="name" v="Hamran" />
		<tag k="place" v="farm" />
		<tag k="ssr:stedsnr" v="499769" />
	</node>
	<node lat="63.804843429347535" lon="10.820059605608586" id="-52518">
		<tag k="fixme" v="consider place=hamlet" />
		<tag k="name" v="Lia" />
		<tag k="place" v="farm" />
		<tag k="ssr:stedsnr" v="499828" />
	</node>
	<node lat="63.78198889281161" lon="10.988850008946283" id="-52525">
		<tag k="name" v="Fagerli" />
		<tag k="place" v="farm" />
		<tag k="ssr:stedsnr" v="510886" />
	</node>
	<node lat="63.84925986688731" lon="11.091407368704441" id="-52528">
		<tag k="name" v="Vang" />
		<tag k="place" v="hamlet" />
		<tag k="ssr:stedsnr" v="511322" />
	</node>
	<node lat="63.824980554078984" lon="10.670133333898677" id="-52531">
		<tag k="name" v="Furuneset" />
		<tag k="place" v="farm" />
		<tag k="ssr:stedsnr" v="514045" />
	</node>
	<node lat="63.84958333463433" lon="11.092822224006662" id="-52539">
		<tag k="loc_name" v="Vang mellom" />
		<tag k="name" v="Mellom-Vang" />
		<tag k="place" v="farm" />
		<tag k="ssr:stedsnr" v="526074" />
	</node>
	<node lat="63.8856527753094" lon="11.1812472283769" id="-52543">
		<tag k="alt_name" v="Oksål søndre" />
		<tag k="name" v="Søndre Oksål" />
		<tag k="place" v="farm" />
		<tag k="ssr:stedsnr" v="526826" />
	</node>
	<node lat="63.88706389094564" lon="11.183041657614515" id="-52544">
		<tag k="alt_name" v="Oksål vestre" />
		<tag k="name" v="Vestre Oksål" />
		<tag k="place" v="farm" />
		<tag k="ssr:stedsnr" v="526827" />
	</node>
	<node lat="63.81901388843826" lon="10.78582500183455" id="-52559">
		<tag k="name" v="Fjellstua" />
		<tag k="place" v="locality" />
		<tag k="ssr:stedsnr" v="533582" />
	</node>
	<node lat="63.818069442454316" lon="10.718247212807258" id="-52565">
		<tag k="historic" v="shieling" />
		<tag k="name" v="Hovedseteren" />
		<tag k="place" v="isolated_dwelling" />
		<tag k="ssr:stedsnr" v="533553" />
	</node>
	<node lat="63.87063611044806" lon="10.944941664608036" id="-52569">
		<tag k="historic" v="shieling" />
		<tag k="name" v="Følstadseteren" />
		<tag k="place" v="isolated_dwelling" />
		<tag k="ssr:stedsnr" v="533838" />
	</node>
	<node lat="63.9734361078511" lon="11.359200002631873" id="-52571">
		<tag k="name" v="Bernvågen" />
		<tag k="place" v="hamlet" />
		<tag k="ssr:stedsnr" v="534241" />
	</node>
	<node lat="63.89325277902565" lon="11.171925003742768" id="-52572">
		<tag k="name" v="Høgberget" />
		<tag k="place" v="farm" />
		<tag k="ssr:stedsnr" v="535331" />
	</node>
	<node lat="63.86979167095312" lon="11.299702783730648" id="-52574">
		<tag k="name" v="Straumtorget" />
		<tag k="place" v="square" />
		<tag k="ssr:stedsnr" v="539298" />
	</node>
	<node lat="63.92623524744666" lon="11.31503008991797" id="-52578">
		<tag k="fixme" v="consider place=hamlet" />
		<tag k="name" v="Hol" />
		<tag k="place" v="farm" />
		<tag k="ssr:stedsnr" v="559018" />
	</node>
	<node lat="63.881194445651815" lon="11.384122224009353" id="-52580">
		<tag k="name" v="Leirbakken" />
		<tag k="place" v="farm" />
		<tag k="ssr:stedsnr" v="559077" />
	</node>
	<node lat="63.88654722019679" lon="11.314141675224993" id="-52581">
		<tag k="name" v="Fjæran" />
		<tag k="place" v="isolated_dwelling" />
		<tag k="ssr:stedsnr" v="559079" />
	</node>
	<node lat="63.892549999293" lon="11.278494439114892" id="-52582">
		<tag k="name" v="Lynghaug" />
		<tag k="place" v="farm" />
		<tag k="ssr:stedsnr" v="559080" />
	</node>
	<node lat="63.8465388879723" lon="10.769458334265313" id="-52586">
		<tag k="name" v="Skalvik" />
		<tag k="place" v="isolated_dwelling" />
		<tag k="ssr:stedsnr" v="559638" />
	</node>
	<node lat="63.83279655179881" lon="11.04751463190441" id="-52590">
		<tag k="fixme" v="consider place=hamlet" />
		<tag k="name" v="Brevika" />
		<tag k="place" v="farm" />
		<tag k="ssr:stedsnr" v="559676" />
	</node>
	<node lat="63.881972225478904" lon="11.007930549774127" id="-52591">
		<tag k="name" v="Ringstad" />
		<tag k="place" v="farm" />
		<tag k="ssr:stedsnr" v="559712" />
	</node>
	<node lat="63.86556666733947" lon="10.855630553917633" id="-52592">
		<tag k="name" v="Vikasanden" />
		<tag k="place" v="farm" />
		<tag k="ssr:stedsnr" v="559718" />
	</node>
	<node lat="63.860624544121215" lon="11.162331182540978" id="-52593">
		<tag k="name" v="Jystad" />
		<tag k="place" v="hamlet" />
		<tag k="ssr:stedsnr" v="559729" />
	</node>
	<node lat="63.81215277700217" lon="10.993919439073983" id="-52594">
		<tag k="name" v="Nervika" />
		<tag k="place" v="hamlet" />
		<tag k="ssr:stedsnr" v="559833" />
	</node>
	<node lat="63.82323118397691" lon="10.98981209643719" id="-52595">
		<tag k="alt_name" v="Berg østre" />
		<tag k="fixme" v="consider place=hamlet" />
		<tag k="name" v="Berg" />
		<tag k="place" v="farm" />
		<tag k="ssr:stedsnr" v="559682" />
	</node>
	<node lat="63.80434166944174" lon="10.96026110583822" id="-52598">
		<tag k="name" v="Dalshaugen" />
		<tag k="place" v="farm" />
		<tag k="ssr:stedsnr" v="559851" />
	</node>
	<node lat="63.804963889928786" lon="10.810272225113783" id="-52599">
		<tag k="name" v="Storåsen" />
		<tag k="place" v="locality" />
		<tag k="ssr:stedsnr" v="559854" />
	</node>
	<node lat="63.969699995800774" lon="11.33801667599697" id="-52600">
		<tag k="loc_name" v="Naustbukta" />
		<tag k="name" v="Bukta" />
		<tag k="place" v="isolated_dwelling" />
		<tag k="ssr:stedsnr" v="559877" />
	</node>
	<node lat="63.94593295228867" lon="11.289998833557885" id="-52601">
		<tag k="alt_name" v="Manem, øvre" />
		<tag k="fixme" v="multiple name tags, choose one and add the other to alt_name" />
		<tag k="name" v="Manem;Øvre Manem" />
		<tag k="place" v="farm" />
		<tag k="ssr:stedsnr" v="559921" />
	</node>
	<node lat="63.948036109836536" lon="11.28322777906828" id="-52602">
		<tag k="name" v="Nygård" />
		<tag k="place" v="farm" />
		<tag k="ssr:stedsnr" v="559924" />
	</node>
	<node lat="63.94145555344381" lon="11.274058328197638" id="-52604">
		<tag k="alt_name" v="Ersåsen, nedre" />
		<tag k="name" v="Nedre Ersåsen" />
		<tag k="place" v="farm" />
		<tag k="ssr:stedsnr" v="560048" />
	</node>
	<node lat="63.87416103620845" lon="11.300004547884736" id="-52605">
		<tag k="fixme" v="consider place=hamlet" />
		<tag k="name" v="Nes" />
		<tag k="place" v="farm" />
		<tag k="ssr:stedsnr" v="560175" />
	</node>
	<node lat="63.87553123676948" lon="11.234066769745299" id="-52606">
		<tag k="fixme" v="consider place=hamlet" />
		<tag k="name" v="Volan" />
		<tag k="place" v="farm" />
		<tag k="ssr:stedsnr" v="560177" />
	</node>
	<node lat="63.86754974456159" lon="11.173299218732444" id="-52607">
		<tag k="name" v="Hokstad" />
		<tag k="place" v="hamlet" />
		<tag k="ssr:stedsnr" v="560723" />
	</node>
	<node lat="63.89618234557065" lon="11.18277474301837" id="-52615">
		<tag k="fixme" v="consider place=hamlet" />
		<tag k="name" v="Lyngstad" />
		<tag k="place" v="farm" />
		<tag k="ssr:stedsnr" v="572367" />
	</node>
	<node lat="63.803019824660865" lon="10.985871738332074" id="-52616">
		<tag k="name" v="Sundset" />
		<tag k="place" v="farm" />
		<tag k="ssr:stedsnr" v="572371" />
	</node>
	<node lat="63.87783611445178" lon="11.077499998257958" id="-52634">
		<tag k="name" v="Noremssjøen" />
		<tag k="place" v="locality" />
		<tag k="ssr:stedsnr" v="590016" />
	</node>
	<node lat="63.85746389211367" lon="10.82794166205881" id="-52638">
		<tag k="name" v="Tomasheimen" />
		<tag k="place" v="farm" />
		<tag k="ssr:stedsnr" v="593484" />
	</node>
	<node lat="63.85051944710064" lon="10.887008337479168" id="-52642">
		<tag k="historic" v="shieling" />
		<tag k="name" v="Heiseteren" />
		<tag k="place" v="isolated_dwelling" />
		<tag k="ssr:stedsnr" v="593547" />
	</node>
	<node lat="63.843666668171736" lon="11.388433339414346" id="-52647">
		<tag k="name" v="Austadlia" />
		<tag k="place" v="quarter" />
		<tag k="ssr:stedsnr" v="595027" />
	</node>
	<node lat="63.83932777471153" lon="11.139586109993287" id="-52648">
		<tag k="name" v="Mariaplassen" />
		<tag k="place" v="locality" />
		<tag k="ssr:stedsnr" v="595270" />
	</node>
	<node lat="63.914269442215954" lon="11.19512222299821" id="-52649">
		<tag k="name" v="Randa" />
		<tag k="place" v="farm" />
		<tag k="ssr:stedsnr" v="595221" />
	</node>
	<node lat="63.90004721898725" lon="11.184780558308915" id="-52650">
		<tag k="fixme" v="consider place=hamlet" />
		<tag k="name" v="By" />
		<tag k="place" v="farm" />
		<tag k="ssr:stedsnr" v="595329" />
	</node>
	<node lat="63.7296999987468" lon="10.838819434996557" id="-52653">
		<tag k="historic" v="shieling" />
		<tag k="name" v="Kalddalssetran" />
		<tag k="place" v="isolated_dwelling" />
		<tag k="ssr:stedsnr" v="605765" />
	</node>
	<node lat="63.93658055442724" lon="11.287361101474142" id="-52657">
		<tag k="name" v="Lauvhaugen" />
		<tag k="place" v="farm" />
		<tag k="ssr:stedsnr" v="620059" />
	</node>
	<node lat="63.943044443749265" lon="11.357150007333974" id="-52658">
		<tag k="alt_name" v="Sollia" />
		<tag k="name" v="Solli" />
		<tag k="place" v="isolated_dwelling" />
		<tag k="ssr:stedsnr" v="620066" />
	</node>
	<node lat="63.85991091853517" lon="11.408468652340211" id="-52659">
		<tag k="name" v="Åsen" />
		<tag k="place" v="locality" />
		<tag k="ssr:stedsnr" v="620132" />
	</node>
	<node lat="63.86537222014987" lon="11.458883343108683" id="-52660">
		<tag k="name" v="Stamnes" />
		<tag k="place" v="farm" />
		<tag k="ssr:stedsnr" v="620152" />
	</node>
	<node lat="63.88586944407179" lon="11.167216675840994" id="-52661">
		<tag k="name" v="Høyem" />
		<tag k="place" v="farm" />
		<tag k="ssr:stedsnr" v="620519" />
	</node>
	<node lat="63.88623833667547" lon="11.003934180042823" id="-52662">
		<tag k="name" v="Litl-Grande" />
		<tag k="place" v="farm" />
		<tag k="ssr:stedsnr" v="620525" />
	</node>
	<node lat="63.8890500034692" lon="11.085197218018306" id="-52663">
		<tag k="name" v="Nordvik" />
		<tag k="place" v="farm" />
		<tag k="ssr:stedsnr" v="620529" />
	</node>
	<node lat="63.90206281114404" lon="11.177270440954418" id="-52665">
		<tag k="name" v="Øver-Berg" />
		<tag k="place" v="farm" />
		<tag k="ssr:stedsnr" v="620496" />
	</node>
	<node lat="63.847534537286236" lon="10.805071382291604" id="-52667">
		<tag k="alt_name" v="Hindbergan" />
		<tag k="fixme" v="consider place=hamlet" />
		<tag k="name" v="Hindberg" />
		<tag k="place" v="farm" />
		<tag k="ssr:stedsnr" v="620598" />
	</node>
	<node lat="63.84224999617261" lon="10.764019436416289" id="-52672">
		<tag k="name" v="Haugan" />
		<tag k="place" v="farm" />
		<tag k="ssr:stedsnr" v="620650" />
	</node>
	<node lat="63.857688892779834" lon="11.046977784758372" id="-52676">
		<tag k="name" v="Skavdalen" />
		<tag k="place" v="isolated_dwelling" />
		<tag k="ssr:stedsnr" v="620704" />
	</node>
	<node lat="63.95776666424447" lon="11.321152785521003" id="-52679">
		<tag k="name" v="Moberg" />
		<tag k="place" v="farm" />
		<tag k="ssr:stedsnr" v="620878" />
	</node>
	<node lat="63.8703583297258" lon="11.183775000607795" id="-52681">
		<tag k="name" v="Sandhaugen" />
		<tag k="place" v="farm" />
		<tag k="ssr:stedsnr" v="620728" />
	</node>
	<node lat="63.8703805580236" lon="11.20538056076324" id="-52682">
		<tag k="name" v="Sneve" />
		<tag k="place" v="farm" />
		<tag k="ssr:stedsnr" v="620730" />
	</node>
	<node lat="63.78790278134897" lon="10.725636103154697" id="-52683">
		<tag k="name" v="Seteråsen" />
		<tag k="place" v="farm" />
		<tag k="ssr:stedsnr" v="620744" />
	</node>
	<node lat="63.818749998455374" lon="10.966888890321668" id="-52685">
		<tag k="name" v="Haugan" />
		<tag k="place" v="farm" />
		<tag k="ssr:stedsnr" v="620798" />
	</node>
	<node lat="63.819311107154526" lon="10.945019450176227" id="-52691">
		<tag k="name" v="Kolabakken" />
		<tag k="place" v="locality" />
		<tag k="ssr:stedsnr" v="631477" />
	</node>
	<node lat="63.86356388770599" lon="11.072444452822506" id="-52702">
		<tag k="name" v="Strandheim" />
		<tag k="place" v="farm" />
		<tag k="ssr:stedsnr" v="645760" />
	</node>
	<node lat="63.87766944191113" lon="11.110019435627569" id="-52703">
		<tag k="loc_name" v="Stokkan vestre" />
		<tag k="name" v="Vestre Stokkan" />
		<tag k="place" v="farm" />
		<tag k="ssr:stedsnr" v="645855" />
	</node>
	<node lat="63.87688015574711" lon="11.372192718786179" id="-52704">
		<tag k="name" v="Sørholmen" />
		<tag k="place" v="farm" />
		<tag k="ssr:stedsnr" v="647772" />
	</node>
	<node lat="63.88448610890321" lon="11.011586118678085" id="-52710">
		<tag k="amenity" v="school" />
		<tag k="name" v="Innherred kristne skole" />
		<tag k="old_name" v="Framverran skole" />
		<tag k="ssr:stedsnr" v="647575" />
	</node>
	<node lat="63.903294443901395" lon="11.143577768823352" id="-52712">
		<tag k="name" v="Sauvika" />
		<tag k="place" v="isolated_dwelling" />
		<tag k="ssr:stedsnr" v="651026" />
	</node>
	<node lat="63.85290277773489" lon="11.18775833389545" id="-52716">
		<tag k="name" v="Naustgjerdet" />
		<tag k="place" v="locality" />
		<tag k="ssr:stedsnr" v="652767" />
	</node>
	<node lat="63.87465555829807" lon="11.296455562992378" id="-52717">
		<tag k="name" v="Nessveet" />
		<tag k="old_name" v="Næssveet" />
		<tag k="place" v="quarter" />
		<tag k="ssr:stedsnr" v="656082" />
	</node>
	<node lat="63.87136944168012" lon="11.262469441495371" id="-52719">
		<tag k="name" v="Fjordnes" />
		<tag k="place" v="farm" />
		<tag k="ssr:stedsnr" v="656109" />
	</node>
	<node lat="63.79936666742384" lon="10.67529444534724" id="-52723">
		<tag k="historic" v="shieling" />
		<tag k="name" v="Hårfjellseteran" />
		<tag k="place" v="isolated_dwelling" />
		<tag k="ssr:stedsnr" v="654380" />
	</node>
	<node lat="63.79151111309477" lon="10.878144441960648" id="-52725">
		<tag k="historic" v="shieling" />
		<tag k="name" v="Dalseteren" />
		<tag k="place" v="isolated_dwelling" />
		<tag k="ssr:stedsnr" v="654500" />
	</node>
	<node lat="63.8485166632095" lon="10.808677775411343" id="-52733">
		<tag k="name" v="Elverum" />
		<tag k="place" v="farm" />
		<tag k="ssr:stedsnr" v="654580" />
	</node>
	<node lat="63.84858889102835" lon="11.309191667444571" id="-52742">
		<tag k="name" v="Stranda" />
		<tag k="place" v="farm" />
		<tag k="ssr:stedsnr" v="655020" />
	</node>
	<node lat="63.963733335795524" lon="11.315136112371885" id="-52745">
		<tag k="name" v="Kastvollen" />
		<tag k="place" v="isolated_dwelling" />
		<tag k="ssr:stedsnr" v="656160" />
	</node>
	<node lat="63.94754444877941" lon="11.337947219887127" id="-52746">
		<tag k="name" v="Vollan" />
		<tag k="place" v="farm" />
		<tag k="ssr:stedsnr" v="656171" />
	</node>
	<node lat="63.80843610898297" lon="10.917686117981425" id="-52749">
		<tag k="historic" v="shieling" />
		<tag k="name" v="Vinnasetran" />
		<tag k="place" v="isolated_dwelling" />
		<tag k="ssr:stedsnr" v="662268" />
	</node>
	<node lat="63.84153055105723" lon="10.788741671393788" id="-52757">
		<tag k="name" v="Nyenget" />
		<tag k="place" v="locality" />
		<tag k="ssr:stedsnr" v="715589" />
	</node>
	<node lat="63.95517222363932" lon="11.275083339224075" id="-52768">
		<tag k="name" v="Dalen" />
		<tag k="place" v="farm" />
		<tag k="ssr:stedsnr" v="716245" />
	</node>
	<node lat="63.86255278134401" lon="11.15825556011416" id="-52771">
		<tag k="name" v="Skogly" />
		<tag k="place" v="farm" />
		<tag k="ssr:stedsnr" v="716991" />
	</node>
	<node lat="63.87758888562052" lon="11.28019721936574" id="-52772">
		<tag k="name" v="Vennalia" />
		<tag k="place" v="quarter" />
		<tag k="ssr:stedsnr" v="717091" />
	</node>
	<node lat="63.89842731604473" lon="11.300313574084347" id="-52773">
		<tag k="fixme" v="consider place=hamlet" />
		<tag k="name" v="Ingål" />
		<tag k="place" v="farm" />
		<tag k="ssr:stedsnr" v="717095" />
	</node>
	<node lat="63.93133135847176" lon="11.276742650241426" id="-52778">
		<tag k="fixme" v="consider place=hamlet" />
		<tag k="name" v="Raudmold" />
		<tag k="place" v="farm" />
		<tag k="ssr:stedsnr" v="741060" />
	</node>
	<node lat="63.93008041398917" lon="11.224874907658757" id="-52779">
		<tag k="alt_name" v="Vist, nedre" />
		<tag k="fixme" v="multiple name tags, choose one and add the other to alt_name" />
		<tag k="name" v="Vist;Nedre Vist" />
		<tag k="place" v="farm" />
		<tag k="ssr:stedsnr" v="741061" />
	</node>
	<node lat="63.738427777076055" lon="10.934577770164982" id="-52780">
		<tag k="name" v="Naustvollen" />
		<tag k="place" v="isolated_dwelling" />
		<tag k="ssr:stedsnr" v="741169" />
	</node>
	<node lat="63.861537454947296" lon="11.176666919550575" id="-52786">
		<tag k="fixme" v="consider place=hamlet" />
		<tag k="name" v="Melhus" />
		<tag k="old_name" v="Melby" />
		<tag k="place" v="farm" />
		<tag k="ssr:stedsnr" v="741777" />
	</node>
	<node lat="63.93890000374537" lon="11.322569446515965" id="-52787">
		<tag k="name" v="Heimstad" />
		<tag k="place" v="farm" />
		<tag k="ssr:stedsnr" v="742049" />
	</node>
	<node lat="63.86157089997279" lon="11.379844879252737" id="-52788">
		<tag k="fixme" v="consider place=hamlet" />
		<tag k="name" v="Hallan" />
		<tag k="old_name" v="Langenget" />
		<tag k="place" v="farm" />
		<tag k="ssr:stedsnr" v="742144" />
	</node>
	<node lat="63.87120999569536" lon="11.410959134437938" id="-52791">
		<tag k="fixme" v="consider place=hamlet" />
		<tag k="name" v="Gjellsås" />
		<tag k="place" v="farm" />
		<tag k="ssr:stedsnr" v="742162" />
	</node>
	<node lat="63.88652850822448" lon="11.112640285245138" id="-52792">
		<tag k="fixme" v="consider place=hamlet" />
		<tag k="name" v="Fjeset" />
		<tag k="place" v="farm" />
		<tag k="ssr:stedsnr" v="742514" />
	</node>
	<node lat="63.841266670801595" lon="11.062927774708674" id="-52794">
		<tag k="name" v="Buenget" />
		<tag k="place" v="farm" />
		<tag k="ssr:stedsnr" v="742615" />
	</node>
	<node lat="63.85271944572368" lon="11.097358327231095" id="-52795">
		<tag k="name" v="Øver-Vang" />
		<tag k="place" v="farm" />
		<tag k="ssr:stedsnr" v="742627" />
	</node>
	<node lat="63.87476111127521" lon="11.041541659564324" id="-52797">
		<tag k="fixme" v="consider place=hamlet" />
		<tag k="name" v="Venneshamn" />
		<tag k="place" v="village" />
		<tag k="ssr:stedsnr" v="742724" />
	</node>
	<node lat="63.866266667570706" lon="11.198319454403665" id="-52798">
		<tag k="alt_name" v="Smørbekken;Stene" />
		<tag k="name" v="Steine" />
		<tag k="place" v="farm" />
		<tag k="ssr:stedsnr" v="742730" />
	</node>
	<node lat="63.79129721866641" lon="11.003588896661643" id="-52803">
		<tag k="name" v="Duksøra" />
		<tag k="place" v="isolated_dwelling" />
		<tag k="ssr:stedsnr" v="742858" />
	</node>
	<node lat="63.79436229551582" lon="10.955448601337558" id="-52804">
		<tag k="fixme" v="consider place=hamlet" />
		<tag k="name" v="Blomåsen" />
		<tag k="place" v="farm" />
		<tag k="ssr:stedsnr" v="742859" />
	</node>
	<node lat="63.79295760440761" lon="10.989709596921832" id="-52805">
		<tag k="fixme" v="consider place=hamlet" />
		<tag k="name" v="Staberg" />
		<tag k="place" v="farm" />
		<tag k="ssr:stedsnr" v="742860" />
	</node>
	<node lat="63.88738888485401" lon="11.425763892875173" id="-52806">
		<tag k="name" v="Nordre Røskje" />
		<tag k="place" v="farm" />
		<tag k="ssr:stedsnr" v="750782" />
	</node>
	<node lat="63.81194722083871" lon="10.987308327921728" id="-52815">
		<tag k="name" v="Ulvenget" />
		<tag k="place" v="isolated_dwelling" />
		<tag k="ssr:stedsnr" v="753838" />
	</node>
	<node lat="63.8517650960259" lon="11.176752474276634" id="-52817">
		<tag k="fixme" v="consider place=hamlet" />
		<tag k="name" v="Heggdal" />
		<tag k="place" v="farm" />
		<tag k="ssr:stedsnr" v="754384" />
	</node>
	<node lat="63.89578333238637" lon="11.138450004787186" id="-52826">
		<tag k="fixme" v="consider place=hamlet" />
		<tag k="name" v="Østre Snertingen" />
		<tag k="place" v="farm" />
		<tag k="ssr:stedsnr" v="889791" />
	</node>
	<node lat="63.777269441392654" lon="10.987702784211876" id="-52827">
		<tag k="name" v="Saltvikhamn" />
		<tag k="place" v="farm" />
		<tag k="ssr:stedsnr" v="768371" />
	</node>
	<node lat="63.958166663214726" lon="11.332341660299905" id="-52836">
		<tag k="name" v="Gangstadhaugen" />
		<tag k="place" v="quarter" />
		<tag k="ssr:stedsnr" v="769936" />
	</node>
	<node lat="63.870713884638924" lon="11.364538883665979" id="-52842">
		<tag k="name" v="Raudfossen" />
		<tag k="place" v="farm" />
		<tag k="ssr:stedsnr" v="774898" />
	</node>
	<node lat="63.85074999789185" lon="10.835172223942475" id="-52849">
		<tag k="name" v="Vassende" />
		<tag k="place" v="locality" />
		<tag k="ssr:stedsnr" v="776499" />
	</node>
	<node lat="63.819252780942676" lon="10.883577778119884" id="-52852">
		<tag k="historic" v="shieling" />
		<tag k="name" v="Prestseteren" />
		<tag k="place" v="isolated_dwelling" />
		<tag k="ssr:stedsnr" v="776728" />
	</node>
	<node lat="63.85964722654419" lon="11.32828334015651" id="-52854">
		<tag k="name" v="Rolshamn" />
		<tag k="place" v="isolated_dwelling" />
		<tag k="ssr:stedsnr" v="777002" />
	</node>
	<node lat="63.909544447083356" lon="11.18288889784992" id="-52858">
		<tag k="name" v="Kjerknes" />
		<tag k="place" v="farm" />
		<tag k="ssr:stedsnr" v="777386" />
	</node>
	<node lat="63.86772778194317" lon="11.264272225236779" id="-52859">
		<tag k="name" v="Sundvoll" />
		<tag k="place" v="farm" />
		<tag k="ssr:stedsnr" v="778114" />
	</node>
	<node lat="63.861869445192205" lon="11.175530562089609" id="-52860">
		<tag k="name" v="Melhus" />
		<tag k="place" v="farm" />
		<tag k="ssr:stedsnr" v="778476" />
	</node>
	<node lat="63.87213333437121" lon="11.145024997416062" id="-52861">
		<tag k="alt_name" v="Ås søre" />
		<tag k="name" v="Søre Ås" />
		<tag k="place" v="farm" />
		<tag k="ssr:stedsnr" v="787533" />
	</node>
	<node lat="63.8960972240813" lon="11.242833330429384" id="-52863">
		<tag k="name" v="Brenne" />
		<tag k="place" v="isolated_dwelling" />
		<tag k="ssr:stedsnr" v="803070" />
	</node>
	<node lat="63.86601666924484" lon="11.25632777151982" id="-52865">
		<tag k="name" v="Jektvollen" />
		<tag k="place" v="farm" />
		<tag k="ssr:stedsnr" v="803174" />
	</node>
	<node lat="63.87456659874269" lon="11.389721511159312" id="-52866">
		<tag k="name" v="Lorås" />
		<tag k="place" v="hamlet" />
		<tag k="ssr:stedsnr" v="803176" />
	</node>
	<node lat="63.85654169079683" lon="11.322212799852537" id="-52868">
		<tag k="fixme" v="consider place=hamlet" />
		<tag k="name" v="Rol" />
		<tag k="place" v="farm" />
		<tag k="ssr:stedsnr" v="803148" />
	</node>
	<node lat="63.863725001417414" lon="11.406805547846359" id="-52869">
		<tag k="name" v="Stein" />
		<tag k="place" v="farm" />
		<tag k="ssr:stedsnr" v="803158" />
	</node>
	<node lat="63.84077588993929" lon="11.389572476770676" id="-52871">
		<tag k="fixme" v="consider place=suburb, village or hamlet" />
		<tag k="name" v="Hylla" />
		<tag k="place" v="quarter" />
		<tag k="ssr:stedsnr" v="803244" />
	</node>
	<node lat="63.88616111156152" lon="11.159641671381124" id="-52872">
		<tag k="name" v="Reitbakken" />
		<tag k="place" v="farm" />
		<tag k="ssr:stedsnr" v="803543" />
	</node>
	<node lat="63.88916411577238" lon="11.187929816379588" id="-52873">
		<tag k="name" v="Øster-Gausa" />
		<tag k="place" v="farm" />
		<tag k="ssr:stedsnr" v="803545" />
	</node>
	<node lat="63.823673624858245" lon="10.97828397114068" id="-52874">
		<tag k="fixme" v="consider place=hamlet" />
		<tag k="name" v="Melvoll" />
		<tag k="place" v="farm" />
		<tag k="ssr:stedsnr" v="803668" />
	</node>
	<node lat="63.87964722583236" lon="11.135272226052713" id="-52876">
		<tag k="name" v="Langheim" />
		<tag k="place" v="farm" />
		<tag k="ssr:stedsnr" v="803698" />
	</node>
	<node lat="63.84848811228692" lon="10.788067070554288" id="-52877">
		<tag k="fixme" v="consider place=hamlet" />
		<tag k="name" v="Forsølan" />
		<tag k="place" v="farm" />
		<tag k="ssr:stedsnr" v="803631" />
	</node>
	<node lat="63.861728553629206" lon="10.842582231201314" id="-52878">
		<tag k="fixme" v="consider place=hamlet" />
		<tag k="name" v="Vika" />
		<tag k="place" v="farm" />
		<tag k="ssr:stedsnr" v="803728" />
	</node>
	<node lat="63.87415277692216" lon="11.148111113649957" id="-52879">
		<tag k="alt_name" v="Ås nordre" />
		<tag k="fixme" v="multiple name tags, choose one and add the other to alt_name" />
		<tag k="name" v="Ås;Nordre Ås" />
		<tag k="place" v="farm" />
		<tag k="ssr:stedsnr" v="803740" />
	</node>
	<node lat="63.870540481080795" lon="11.038592552486902" id="-52880">
		<tag k="fixme" v="consider place=hamlet" />
		<tag k="name" v="Selset" />
		<tag k="place" v="farm" />
		<tag k="ssr:stedsnr" v="803742" />
	</node>
	<node lat="63.86686388733703" lon="11.042369451971544" id="-52881">
		<tag k="name" v="Kvernavika" />
		<tag k="place" v="farm" />
		<tag k="ssr:stedsnr" v="803743" />
	</node>
	<node lat="63.871697224999245" lon="11.179422224204101" id="-52882">
		<tag k="name" v="Sandan" />
		<tag k="place" v="farm" />
		<tag k="ssr:stedsnr" v="803749" />
	</node>
	<node lat="63.86738342754186" lon="11.186779547931765" id="-52883">
		<tag k="fixme" v="multiple name tags, choose one and add the other to alt_name" />
		<tag k="name" v="Østre Kvam;Oppigarden" />
		<tag k="place" v="farm" />
		<tag k="ssr:stedsnr" v="803752" />
	</node>
	<node lat="63.80989722302743" lon="10.970233341317956" id="-52888">
		<tag k="name" v="Holet" />
		<tag k="place" v="farm" />
		<tag k="ssr:stedsnr" v="803839" />
	</node>
	<node lat="63.812475002326245" lon="10.965072226569562" id="-52889">
		<tag k="name" v="Oppgardssveet" />
		<tag k="place" v="farm" />
		<tag k="ssr:stedsnr" v="803843" />
	</node>
	<node lat="63.9550500009074" lon="11.295094435237534" id="-52891">
		<tag k="name" v="Rekstad" />
		<tag k="place" v="isolated_dwelling" />
		<tag k="ssr:stedsnr" v="803898" />
	</node>
	<node lat="63.840322219519045" lon="11.091780556283203" id="-52897">
		<tag k="name" v="Vangshylla" />
		<tag k="place" v="hamlet" />
		<tag k="ssr:stedsnr" v="814869" />
	</node>
	<node lat="63.841377782114435" lon="10.710005563504115" id="-52901">
		<tag k="name" v="Saltbua" />
		<tag k="place" v="farm" />
		<tag k="ssr:stedsnr" v="817058" />
	</node>
	<node lat="63.85333333208138" lon="11.08473055826321" id="-52904">
		<tag k="fixme" v="multiple name tags, choose one and add the other to alt_name" />
		<tag k="loc_name" v="Vang - Nordre" />
		<tag k="name" v="Sørli;Nordre Vang" />
		<tag k="place" v="farm" />
		<tag k="ssr:stedsnr" v="827057" />
	</node>
	<node lat="63.87262777473338" lon="11.366680550594161" id="-52918">
		<tag k="loc_name" v="Sørlia nedre" />
		<tag k="name" v="Sjølia" />
		<tag k="place" v="farm" />
		<tag k="ssr:stedsnr" v="830711" />
	</node>
	<node lat="63.89712687934339" lon="11.187364200441507" id="-52922">
		<tag k="alt_name" v="Lyngstad samfunnshus" />
		<tag k="amenity" v="school" />
		<tag k="name" v="Lyngstad skole" />
		<tag k="ssr:stedsnr" v="830821" />
	</node>
	<node lat="63.79500000177051" lon="10.998925004091491" id="-52925">
		<tag k="name" v="Nytrøa" />
		<tag k="place" v="isolated_dwelling" />
		<tag k="ssr:stedsnr" v="833021" />
	</node>
	<node lat="63.852258331567924" lon="11.113369439567949" id="-52926">
		<tag k="name" v="Utenget" />
		<tag k="place" v="farm" />
		<tag k="ssr:stedsnr" v="833022" />
	</node>
	<node lat="63.86919401233491" lon="11.300802945529345" id="-52930">
		<tag k="name" v="Einhaugen" />
		<tag k="place" v="quarter" />
		<tag k="ssr:stedsnr" v="834742" />
	</node>
	<node lat="63.77159166986144" lon="10.873533324081691" id="-52931">
		<tag k="historic" v="shieling" />
		<tag k="name" v="Trygstadseteren" />
		<tag k="place" v="isolated_dwelling" />
		<tag k="ssr:stedsnr" v="836359" />
	</node>
	<node lat="63.87615000248518" lon="11.245022226058163" id="-52940">
		<tag k="name" v="Sørteigan" />
		<tag k="place" v="farm" />
		<tag k="ssr:stedsnr" v="838119" />
	</node>
	<node lat="63.881161112392604" lon="11.292200008734527" id="-52942">
		<tag k="name" v="Røsetberga" />
		<tag k="place" v="quarter" />
		<tag k="ssr:stedsnr" v="839088" />
	</node>
	<node lat="63.864438889423724" lon="11.246086102552578" id="-52943">
		<tag k="name" v="Nesgård" />
		<tag k="place" v="farm" />
		<tag k="ssr:stedsnr" v="839113" />
	</node>
	<node lat="63.90845000432032" lon="11.180622225586921" id="-52944">
		<tag k="name" v="Skogstad" />
		<tag k="place" v="farm" />
		<tag k="ssr:stedsnr" v="839323" />
	</node>
	<node lat="63.87955555228541" lon="11.163016670324271" id="-52945">
		<tag k="fixme" v="consider place=hamlet" />
		<tag k="name" v="Ulstad" />
		<tag k="place" v="farm" />
		<tag k="ssr:stedsnr" v="839419" />
	</node>
	<node lat="63.88485555820009" lon="11.43106944300218" id="-52946">
		<tag k="name" v="Skei" />
		<tag k="place" v="farm" />
		<tag k="ssr:stedsnr" v="844971" />
	</node>
	<node lat="63.87069166676379" lon="11.29613055665685" id="-52947">
		<tag k="name" v="Kolhagan" />
		<tag k="place" v="square" />
		<tag k="ssr:stedsnr" v="849742" />
	</node>
	<node lat="63.84770555508499" lon="11.060816666846767" id="-52948">
		<tag k="name" v="Skjærvika" />
		<tag k="place" v="isolated_dwelling" />
		<tag k="ssr:stedsnr" v="863656" />
	</node>
	<node lat="63.85533610704711" lon="11.141161104500432" id="-52949">
		<tag k="name" v="Lyng" />
		<tag k="place" v="farm" />
		<tag k="ssr:stedsnr" v="863672" />
	</node>
	<node lat="63.88132777788531" lon="11.272208339411257" id="-52950">
		<tag k="name" v="Saksmoen" />
		<tag k="place" v="isolated_dwelling" />
		<tag k="ssr:stedsnr" v="863070" />
	</node>
	<node lat="63.84988622190309" lon="11.391852339057056" id="-52951">
		<tag k="alt_name" v="Austad, nordre" />
		<tag k="fixme" v="multiple name tags, choose one and add the other to alt_name" />
		<tag k="name" v="Austad;Nordre Austad" />
		<tag k="place" v="farm" />
		<tag k="ssr:stedsnr" v="863121" />
	</node>
	<node lat="63.92186320364918" lon="11.279032969482836" id="-52953">
		<tag k="alt_name" v="Flatås, øvre;Flatås" />
		<tag k="name" v="Øvre Flatås" />
		<tag k="place" v="farm" />
		<tag k="ssr:stedsnr" v="863007" />
	</node>
	<node lat="63.85787222347859" lon="11.47438611721479" id="-52955">
		<tag k="name" v="Søråsen" />
		<tag k="place" v="isolated_dwelling" />
		<tag k="ssr:stedsnr" v="863143" />
	</node>
	<node lat="63.863303609914645" lon="11.07871669712425" id="-52957">
		<tag k="fixme" v="consider place=hamlet" />
		<tag k="name" v="Ørdalen" />
		<tag k="place" v="farm" />
		<tag k="ssr:stedsnr" v="863732" />
	</node>
	<node lat="63.84500287069372" lon="11.138920515047504" id="-52958">
		<tag k="name" v="Ulvin" />
		<tag k="place" v="hamlet" />
		<tag k="ssr:stedsnr" v="863684" />
	</node>
	<node lat="63.83978888475514" lon="10.720972213572637" id="-52959">
		<tag k="name" v="Langemo" />
		<tag k="place" v="farm" />
		<tag k="ssr:stedsnr" v="863685" />
	</node>
	<node lat="63.80127500259656" lon="10.99174999885295" id="-52962">
		<tag k="name" v="Holte" />
		<tag k="place" v="farm" />
		<tag k="ssr:stedsnr" v="863817" />
	</node>
	<node lat="63.942891581765316" lon="11.231913423080838" id="-52965">
		<tag k="fixme" v="consider place=hamlet" />
		<tag k="name" v="Vikan" />
		<tag k="place" v="farm" />
		<tag k="ssr:stedsnr" v="864041" />
	</node>
	<node lat="63.9562388933671" lon="11.276586101654793" id="-52967">
		<tag k="name" v="Kvernmo" />
		<tag k="place" v="farm" />
		<tag k="ssr:stedsnr" v="863881" />
	</node>
	<node lat="63.959933337760255" lon="11.337708338678782" id="-52968">
		<tag k="alt_name" v="Gangstad, øvre" />
		<tag k="name" v="Øver-Gangstad" />
		<tag k="place" v="farm" />
		<tag k="ssr:stedsnr" v="863885" />
	</node>
	<node lat="63.85444166905703" lon="11.438430555806717" id="-52969">
		<tag k="name" v="Heia" />
		<tag k="place" v="farm" />
		<tag k="ssr:stedsnr" v="864133" />
	</node>
	<node lat="63.874544442857164" lon="11.16259722949767" id="-52971">
		<tag k="name" v="Lia" />
		<tag k="place" v="farm" />
		<tag k="ssr:stedsnr" v="864729" />
	</node>
	<node lat="63.87688889001288" lon="11.127997231180286" id="-52972">
		<tag k="name" v="Heggdalsaunet" />
		<tag k="place" v="locality" />
		<tag k="ssr:stedsnr" v="864730" />
	</node>
	<node lat="63.78478055444471" lon="10.995555558483469" id="-52975">
		<tag k="alt_name" v="Bekken" />
		<tag k="name" v="Olderbakken" />
		<tag k="place" v="farm" />
		<tag k="ssr:stedsnr" v="864810" />
	</node>
	<node lat="63.8158222181633" lon="10.980258342529762" id="-52976">
		<tag k="name" v="Rønningan" />
		<tag k="place" v="farm" />
		<tag k="ssr:stedsnr" v="864840" />
	</node>
	<node lat="63.81516110811036" lon="10.97728610486578" id="-52977">
		<tag k="name" v="Oppgard" />
		<tag k="place" v="farm" />
		<tag k="ssr:stedsnr" v="864841" />
	</node>
	<node lat="63.824638886749874" lon="10.972297216036209" id="-52981">
		<tag k="name" v="Aunbakken" />
		<tag k="place" v="locality" />
		<tag k="ssr:stedsnr" v="874510" />
	</node>
	<node lat="63.79802777446146" lon="10.98320278052969" id="-52984">
		<tag k="name" v="Dalsvevollen" />
		<tag k="place" v="locality" />
		<tag k="ssr:stedsnr" v="874856" />
	</node>
	<node lat="63.8144388867991" lon="10.98024999264432" id="-52985">
		<tag k="name" v="Myra" />
		<tag k="place" v="isolated_dwelling" />
		<tag k="ssr:stedsnr" v="874858" />
	</node>
	<node lat="63.78264167043472" lon="10.993680550156629" id="-52987">
		<tag k="name" v="Forset" />
		<tag k="place" v="locality" />
		<tag k="ssr:stedsnr" v="874853" />
	</node>
	<node lat="63.80416111142155" lon="10.951797222392466" id="-52992">
		<tag k="name" v="Stordalstrøa" />
		<tag k="place" v="locality" />
		<tag k="ssr:stedsnr" v="935607" />
	</node>
	<node lat="63.86367500062733" lon="11.249047216332091" id="-52994">
		<tag k="name" v="Sundnesneset" />
		<tag k="place" v="quarter" />
		<tag k="ssr:stedsnr" v="889379" />
	</node>
	<node lat="63.780347222413404" lon="10.987275000571913" id="-52996">
		<tag k="name" v="Nyborg" />
		<tag k="place" v="isolated_dwelling" />
		<tag k="ssr:stedsnr" v="935868" />
	</node>
	<node lat="63.8662536122074" lon="11.215175349302195" id="-52999">
		<tag k="fixme" v="consider place=hamlet" />
		<tag k="name" v="Røvika" />
		<tag k="place" v="farm" />
		<tag k="ssr:stedsnr" v="936315" />
	</node>
	<node lat="63.832747222867326" lon="11.035138880498687" id="-53002">
		<tag k="name" v="Setervang" />
		<tag k="place" v="farm" />
		<tag k="ssr:stedsnr" v="936832" />
	</node>
	<node lat="63.895950630068974" lon="11.134593444971589" id="-53003">
		<tag k="fixme" v="consider place=hamlet" />
		<tag k="name" v="Vestre Snertingen" />
		<tag k="place" v="farm" />
		<tag k="ssr:stedsnr" v="949172" />
	</node>
	<node lat="63.848469443009655" lon="11.08965554824593" id="-53009">
		<tag k="loc_name" v="Vang Vestre" />
		<tag k="name" v="Vestre Vang" />
		<tag k="place" v="farm" />
		<tag k="ssr:stedsnr" v="951071" />
	</node>
	<node lat="63.83777414933759" lon="11.3619468726084" id="-53020">
		<tag k="fixme" v="consider place=hamlet" />
		<tag k="name" v="Krokan" />
		<tag k="place" v="farm" />
		<tag k="ssr:stedsnr" v="956946" />
	</node>
	<node lat="63.86096111446122" lon="11.20961944570376" id="-53035">
		<tag k="alt_name" v="Rydningen" />
		<tag k="name" v="Rønningen" />
		<tag k="place" v="farm" />
		<tag k="ssr:stedsnr" v="960483" />
	</node>
	<node lat="63.8637068679061" lon="11.391369129025525" id="-53036">
		<tag k="leisure" v="pitch" />
		<tag k="name" v="Røra stadion" />
		<tag k="ssr:stedsnr" v="973228" />
	</node>
	<node lat="63.92215264253733" lon="11.250660131691875" id="-53038">
		<tag k="leisure" v="pitch" />
		<tag k="loc_name" v="Petter Northug stadion" />
		<tag k="name" v="Inderøy skistadion" />
		<tag k="ssr:stedsnr" v="973235" />
	</node>
	<node lat="63.87733585107004" lon="11.282570971271324" id="-53041">
		<tag k="leisure" v="pitch" />
		<tag k="name" v="Inderøy idrettspark" />
		<tag k="ssr:stedsnr" v="972959" />
	</node>
	<node lat="63.840155530310156" lon="11.095052592092772" id="-53042">
		<tag k="fixme" v="consider place=hamlet" />
		<tag k="name" v="Vangshylla" />
		<tag k="place" v="farm" />
		<tag k="ssr:stedsnr" v="972968" />
	</node>
	<node lat="63.87326704719494" lon="11.146772138043968" id="-53043">
		<tag k="fixme" v="consider place=hamlet" />
		<tag k="name" v="Ås" />
		<tag k="place" v="farm" />
		<tag k="ssr:stedsnr" v="972969" />
	</node>
	<node lat="63.90151697062788" lon="11.176143516879918" id="-53044">
		<tag k="fixme" v="consider place=hamlet" />
		<tag k="name" v="Berg" />
		<tag k="place" v="farm" />
		<tag k="ssr:stedsnr" v="972979" />
	</node>
	<node lat="63.895238056390426" lon="11.220755854765239" id="-53045">
		<tag k="fixme" v="consider place=hamlet" />
		<tag k="name" v="Råstadaunet" />
		<tag k="place" v="farm" />
		<tag k="ssr:stedsnr" v="972980" />
	</node>
	<node lat="63.92508936490742" lon="11.245872149998815" id="-53046">
		<tag k="name" v="Inngjerd" />
		<tag k="place" v="locality" />
		<tag k="ssr:stedsnr" v="972981" />
	</node>
	<node lat="63.87898041891785" lon="11.285312560130997" id="-53047">
		<tag k="amenity" v="school" />
		<tag k="name" v="Sakshaug skole" />
		<tag k="ssr:stedsnr" v="972985" />
	</node>
	<node lat="63.8205001661688" lon="10.997025593048864" id="-53049">
		<tag k="leisure" v="pitch" />
		<tag k="name" v="Mosvik stadion" />
		<tag k="ssr:stedsnr" v="973280" />
	</node>
	<node lat="63.818840581057614" lon="11.005799911998848" id="-53052">
		<tag k="amenity" v="kindergarten" />
		<tag k="name" v="Mosvik barnehage" />
		<tag k="ssr:stedsnr" v="973286" />
	</node>
	<node lat="63.84766074076734" lon="11.388722136631527" id="-53053">
		<tag k="name" v="Austad" />
		<tag k="place" v="hamlet" />
		<tag k="ssr:stedsnr" v="973216" />
	</node>
	<node lat="63.86208573992347" lon="11.392087352495938" id="-53054">
		<tag k="amenity" v="kindergarten" />
		<tag k="name" v="Røra barnehage" />
		<tag k="ssr:stedsnr" v="973224" />
	</node>
	<node lat="63.949543321094595" lon="11.335563830356877" id="-53055">
		<tag k="amenity" v="kindergarten" />
		<tag k="name" v="Sandvollan barnehage" />
		<tag k="ssr:stedsnr" v="973256" />
	</node>
	<node lat="63.94128915284629" lon="11.268932885828885" id="-53057">
		<tag k="fixme" v="consider place=hamlet" />
		<tag k="name" v="Ersåsen" />
		<tag k="place" v="farm" />
		<tag k="ssr:stedsnr" v="973260" />
	</node>
	<node lat="63.80216386094933" lon="10.983811074757412" id="-53058">
		<tag k="name" v="Sundset" />
		<tag k="place" v="hamlet" />
		<tag k="ssr:stedsnr" v="973261" />
	</node>
	<node lat="63.87713201159131" lon="11.039241782761696" id="-53059">
		<tag k="fixme" v="consider place=hamlet" />
		<tag k="name" v="Vennes" />
		<tag k="place" v="farm" />
		<tag k="ssr:stedsnr" v="973273" />
	</node>
	<node lat="63.883562177347244" lon="11.022321411410267" id="-53060">
		<tag k="name" v="Grande" />
		<tag k="place" v="hamlet" />
		<tag k="ssr:stedsnr" v="973274" />
	</node>
	<node lat="63.83398914312379" lon="10.696598420477567" id="-53061">
		<tag k="fixme" v="consider place=hamlet" />
		<tag k="name" v="Hovd" />
		<tag k="place" v="farm" />
		<tag k="ssr:stedsnr" v="973275" />
	</node>
	<node lat="63.822941561686555" lon="10.987668179040828" id="-53062">
		<tag k="name" v="Berg" />
		<tag k="place" v="hamlet" />
		<tag k="ssr:stedsnr" v="973276" />
	</node>
	<node lat="63.92756629710743" lon="11.334550671493442" id="-53063">
		<tag k="name" v="Bartnes" />
		<tag k="place" v="hamlet" />
		<tag k="ssr:stedsnr" v="973277" />
	</node>
	<node lat="63.81499185973201" lon="11.00201315677578" id="-53072">
		<tag k="amenity" v="nursing_home" />
		<tag k="name" v="Omsorgs- og aktivitetssenter i Mosvik" />
		<tag k="ssr:stedsnr" v="1078781" />
	</node>
	<node lat="63.90461282412894" lon="11.173819659005064" id="-53073">
		<tag k="name" v="Kjerknesaunet" />
		<tag k="old_name" v="AUNVOLD" />
		<tag k="place" v="farm" />
		<tag k="ssr:stedsnr" v="1079715" />
	</node>
	<node lat="63.880322585575726" lon="11.282139138177214" id="-53074">
		<tag k="aerialway" v="drag_lift" />
		<tag k="fixme" v="consider the other aerialway types" />
		<tag k="name" v="Prestlia" />
		<tag k="ssr:stedsnr" v="1079910" />
	</node>
	<node lat="63.87934704527518" lon="11.287333723489015" id="-53075">
		<tag k="building" v="commercial" />
		<tag k="name" v="Spiren" />
		<tag k="ssr:stedsnr" v="1079911" />
	</node>
	<node lat="63.87560708633663" lon="11.28936599249233" id="-53076">
		<tag k="amenity" v="nursing_home" />
		<tag k="name" v="Inderøy helsehus" />
		<tag k="ssr:stedsnr" v="1079912" />
	</node>
	<node lat="63.87140205460421" lon="11.297631111130253" id="-53077">
		<tag k="amenity" v="nursing_home" />
		<tag k="name" v="Inderøy helsebygg" />
		<tag k="ssr:stedsnr" v="1079928" />
	</node>
	<node lat="63.8471672744584" lon="11.159974631131458" id="-53078">
		<tag k="amenity" v="school" />
		<tag k="name" v="Rostad skole" />
		<tag k="ssr:stedsnr" v="1079929" />
	</node>
	<node lat="63.876132354910155" lon="11.260465006667504" id="-53079">
		<tag k="name" v="Bergsli" />
		<tag k="place" v="quarter" />
		<tag k="ssr:stedsnr" v="1079931" />
	</node>
	<node lat="63.865724131443045" lon="11.393624664109208" id="-53080">
		<tag k="alt_name" v="Lensmyra industriområde" />
		<tag k="name" v="Røra  Næringspark" />
		<tag k="place" v="quarter" />
		<tag k="ssr:stedsnr" v="1079932" />
	</node>
	<node lat="63.88782372822305" lon="11.400163162177593" id="-53081">
		<tag k="building" v="industrial" />
		<tag k="industrial" v="factory" />
		<tag k="name" v="Røra bakeri" />
		<tag k="ssr:stedsnr" v="1079933" />
	</node>
	<node lat="63.85740464861268" lon="11.399652514238184" id="-53082">
		<tag k="building" v="industrial" />
		<tag k="industrial" v="factory" />
		<tag k="name" v="Røra fabrikker" />
		<tag k="ssr:stedsnr" v="1079935" />
	</node>
	<node lat="63.810607065272535" lon="10.99640827184475" id="-53083">
		<tag k="building" v="industrial" />
		<tag k="industrial" v="factory" />
		<tag k="name" v="Norsk Limtre" />
		<tag k="ssr:stedsnr" v="1079946" />
	</node>
	<node lat="63.838677571743276" lon="11.410621770176286" id="-53084">
		<tag k="name" v="Koa Camping" />
		<tag k="ssr:stedsnr" v="1080034" />
		<tag k="tourism" v="camp_site" />
	</node>
	<node lat="63.820699141133325" lon="10.993867097635457" id="-53085">
		<tag k="name" v="Unnlenna" />
		<tag k="place" v="farm" />
		<tag k="ssr:stedsnr" v="1080035" />
	</node>
	<node lat="63.81080619901267" lon="10.994645991188015" id="-53086">
		<tag k="name" v="Nervika industriområde" />
		<tag k="place" v="quarter" />
		<tag k="ssr:stedsnr" v="1080036" />
	</node>
	<node lat="63.89969580187863" lon="11.297456757033414" id="-53087">
		<tag k="amenity" v="kindergarten" />
		<tag k="name" v="Eventyrskogen naturbarnehage" />
		<tag k="ssr:stedsnr" v="1080037" />
	</node>
	<node lat="63.95858055146702" lon="11.328245224586796" id="-53088">
		<tag k="amenity" v="kindergarten" />
		<tag k="name" v="Markvoll barnehage" />
		<tag k="ssr:stedsnr" v="1080038" />
	</node>
	<node lat="63.86007563280423" lon="11.150840823483634" id="-53089">
		<tag k="name" v="Utøy industriområde" />
		<tag k="place" v="quarter" />
		<tag k="ssr:stedsnr" v="1080039" />
	</node>
	<node lat="63.86707747107057" lon="11.29559746653251" id="-53090">
		<tag k="amenity" v="kindergarten" />
		<tag k="name" v="Inderøy familiebarnehage" />
		<tag k="ssr:stedsnr" v="1080040" />
	</node>
	<node lat="63.87353813452968" lon="11.29756051542708" id="-53091">
		<tag k="building" v="commercial" />
		<tag k="name" v="Straumsenteret" />
		<tag k="ssr:stedsnr" v="1080041" />
	</node>
	<node lat="63.87420123584858" lon="11.292009045054678" id="-53092">
		<tag k="amenity" v="kindergarten" />
		<tag k="name" v="Kribelin barnehage" />
		<tag k="ssr:stedsnr" v="1080042" />
	</node>
	<node lat="63.8657224248023" lon="11.04339631602322" id="-53093">
		<tag k="building" v="industrial" />
		<tag k="industrial" v="factory" />
		<tag k="name" v="Biosirk Norge" />
		<tag k="ssr:stedsnr" v="1079978" />
	</node>
	<node lat="63.80861630717263" lon="10.981568521190669" id="-53094">
		<tag k="leisure" v="pitch" />
		<tag k="name" v="Litjdalen skytebane" />
		<tag k="ssr:stedsnr" v="1079979" />
	</node>
	<node lat="63.8742810817849" lon="11.004539216776502" id="-53095">
		<tag k="leisure" v="pitch" />
		<tag k="name" v="Solberg skytebane" />
		<tag k="ssr:stedsnr" v="1079982" />
	</node>
	<node lat="63.86502430292234" lon="11.25666933859393" id="-53098">
		<tag k="name" v="Jegtvolden fjordhotell" />
		<tag k="ssr:stedsnr" v="1080086" />
		<tag k="tourism" v="hotel" />
	</node>
	<node lat="63.8799257508477" lon="11.268289934270973" id="-53099">
		<tag k="name" v="Øyna Kulturlandskapshotell" />
		<tag k="ssr:stedsnr" v="1080087" />
		<tag k="tourism" v="hotel" />
	</node>
	<node lat="63.90561239687575" lon="11.161377264447902" id="-53100">
		<tag k="name" v="Kjelvika" />
		<tag k="place" v="farm" />
		<tag k="ssr:stedsnr" v="1081524" />
	</node>
	<node lat="63.89319004504774" lon="11.193957524027953" id="-53101">
		<tag k="alt_name" v="Tronstad" />
		<tag k="name" v="Vestre Tronstad" />
		<tag k="place" v="farm" />
		<tag k="ssr:stedsnr" v="1081930" />
	</node>
</osm>
