<?xml version="1.0" encoding="UTF-8"?>
<<<<<<< HEAD
<osm version="0.6" generator="osmapis">
	<node lat="63.82400277398249" lon="10.8621777848938" id="-34637">
		<tag k="name" v="Tjuvholbekken" />
		<tag k="ssr:stedsnr" v="229759" />
		<tag k="waterway" v="stream" />
	</node>
	<node lat="63.84893888699782" lon="11.389658338280928" id="-34641">
		<tag k="name" v="Osbekken" />
		<tag k="ssr:stedsnr" v="231045" />
		<tag k="waterway" v="stream" />
	</node>
	<node lat="63.748402775453" lon="10.84676388936694" id="-34649">
		<tag k="name" v="Høgfossen" />
		<tag k="natural" v="waterfall" />
		<tag k="ssr:stedsnr" v="13168" />
	</node>
	<node lat="63.81420277425103" lon="10.690838889146255" id="-34650">
		<tag k="name" v="Prestvågvatnet" />
=======
<osm generator="osmapis" version="0.6">
	<node id="-794624" lat="63.8602694452" lon="11.038572227">
		<tag k="name" v="Kvitbekken" />
		<tag k="ssr:stedsnr" v="208774" />
		<tag k="waterway" v="stream" />
	</node>
	<node id="-794108" lat="63.7917472267" lon="10.7102999905">
		<tag k="name" v="Stamtjønna" />
		<tag k="natural" v="water" />
		<tag k="ssr:stedsnr" v="924392" />
	</node>
	<node id="-794103" lat="63.8532888904" lon="11.4476500094">
		<tag k="name" v="Metjønna" />
		<tag k="natural" v="water" />
		<tag k="ssr:stedsnr" v="924118" />
	</node>
	<node id="-793590" lat="63.8662416661" lon="11.2207750081">
		<tag k="name" v="Havelva" />
		<tag k="ssr:stedsnr" v="474487" />
		<tag k="waterway" v="stream" />
	</node>
	<node id="-793585" lat="63.7731750035" lon="10.7842611047">
		<tag k="alt_name" v="Meltingen" />
		<tag k="name" v="Meltingvatnet" />
		<tag k="natural" v="water" />
		<tag k="ssr:stedsnr" v="317709" />
		<tag k="water" v="lake" />
	</node>
	<node id="-794608" lat="63.8050611153" lon="10.7572305537">
		<tag k="name" v="Andtjønna" />
		<tag k="natural" v="water" />
		<tag k="ssr:stedsnr" v="196823" />
	</node>
	<node id="-794607" lat="63.8102138901" lon="10.851900007">
		<tag k="name" v="Mossa" />
		<tag k="ssr:stedsnr" v="196814" />
		<tag k="waterway" v="river" />
	</node>
	<node id="-794094" lat="63.7241055583" lon="10.8492305605">
		<tag k="name" v="Seterstøbekken" />
		<tag k="ssr:stedsnr" v="923220" />
		<tag k="waterway" v="stream" />
	</node>
	<node id="-794605" lat="63.8728944472" lon="10.8902166581">
		<tag k="name" v="Vikavatnet" />
		<tag k="natural" v="water" />
		<tag k="ssr:stedsnr" v="196679" />
	</node>
	<node id="-794092" lat="63.7472749979" lon="10.9208138893">
		<tag k="name" v="Sliperelva" />
		<tag k="ssr:stedsnr" v="923185" />
		<tag k="waterway" v="stream" />
	</node>
	<node id="-794603" lat="63.8393388895" lon="10.9520388929">
		<tag k="name" v="Høgfossen" />
		<tag k="natural" v="waterfall" />
		<tag k="ssr:stedsnr" v="196656" />
	</node>
	<node id="-793576" lat="63.7467333299" lon="10.8704083253">
		<tag k="name" v="Koltjønna" />
		<tag k="natural" v="water" />
		<tag k="ssr:stedsnr" v="316172" />
	</node>
	<node id="-794740" lat="63.859969442" lon="11.1782055523">
		<tag k="name" v="Melhuselva" />
		<tag k="ssr:stedsnr" v="353490" />
		<tag k="waterway" v="stream" />
	</node>
	<node id="-793573" lat="63.8440277792" lon="10.9197138833">
		<tag k="name" v="Heibekken" />
		<tag k="ssr:stedsnr" v="473731" />
		<tag k="waterway" v="stream" />
	</node>
	<node id="-794595" lat="63.842897226" lon="10.9906833238">
		<tag k="name" v="Brandrostjønna" />
		<tag k="natural" v="water" />
		<tag k="ssr:stedsnr" v="196587" />
	</node>
	<node id="-794594" lat="63.8056638931" lon="10.6871583385">
		<tag k="name" v="Lomtjønnin" />
		<tag k="natural" v="water" />
		<tag k="ssr:stedsnr" v="196422" />
	</node>
	<node id="-793424" lat="63.8057750013" lon="10.6874000025">
		<tag k="name" v="Vestre Lomtjønna" />
		<tag k="natural" v="water" />
		<tag k="ssr:stedsnr" v="291414" />
	</node>
	<node id="-795101" lat="63.8645833314" lon="11.4874527721">
		<tag k="name" v="Floåstjønna" />
		<tag k="natural" v="water" />
		<tag k="ssr:stedsnr" v="629969" />
	</node>
	<node id="-793564" lat="63.842838885" lon="10.8070749945">
		<tag k="name" v="Langneset" />
		<tag k="natural" v="cape" />
		<tag k="ssr:stedsnr" v="472498" />
	</node>
	<node id="-794072" lat="63.816897225" lon="10.7627833273">
		<tag k="name" v="Fjellvatna" />
		<tag k="natural" v="water" />
		<tag k="ssr:stedsnr" v="742808" />
	</node>
	<node id="-794583" lat="63.7776277741" lon="10.8542333273">
		<tag k="name" v="Gilbergtjønna" />
		<tag k="natural" v="water" />
		<tag k="ssr:stedsnr" v="195786" />
	</node>
	<node id="-794070" lat="63.7877250006" lon="10.7550472302">
		<tag k="alt_name" v="Sauøya" />
		<tag k="name" v="Sauøyin" />
		<tag k="place" v="islet" />
		<tag k="ssr:stedsnr" v="742754" />
	</node>
	<node id="-794578" lat="63.8309277759" lon="10.7074944503">
		<tag k="name" v="Inntjønna" />
		<tag k="natural" v="water" />
		<tag k="ssr:stedsnr" v="195519" />
	</node>
	<node id="-794576" lat="63.7424388871" lon="10.876244438">
		<tag k="name" v="Kjerkgårdsvatna" />
		<tag k="natural" v="water" />
		<tag k="ssr:stedsnr" v="195158" />
	</node>
	<node id="-795085" lat="63.8597916703" lon="11.0090333321">
		<tag k="name" v="Selsetstamtjønna" />
		<tag k="natural" v="water" />
		<tag k="ssr:stedsnr" v="620702" />
	</node>
	<node id="-794058" lat="63.8612500002" lon="10.9403499963">
		<tag k="name" v="Vennesvassbekken" />
		<tag k="ssr:stedsnr" v="741773" />
		<tag k="waterway" v="stream" />
	</node>
	<node id="-795081" lat="63.8327305571" lon="10.8906722208">
		<tag k="name" v="Svarttjønnbekken" />
		<tag k="ssr:stedsnr" v="620654" />
		<tag k="waterway" v="stream" />
	</node>
	<node id="-794056" lat="63.8612222208" lon="11.0178888883">
		<tag k="name" v="Storsvebekken" />
		<tag k="ssr:stedsnr" v="741769" />
		<tag k="waterway" v="stream" />
	</node>
	<node id="-795158" lat="63.8563166693" lon="11.4523305579">
		<tag k="name" v="Solemstjønna" />
		<tag k="natural" v="water" />
		<tag k="ssr:stedsnr" v="741176" />
	</node>
	<node id="-794566" lat="63.8666944438" lon="10.850716667">
		<tag k="name" v="Tangen" />
		<tag k="natural" v="cape" />
		<tag k="ssr:stedsnr" v="169789" />
	</node>
	<node id="-794053" lat="63.7382750023" lon="10.8719777731">
		<tag k="name" v="Liabekken" />
		<tag k="ssr:stedsnr" v="741174" />
		<tag k="waterway" v="stream" />
	</node>
	<node id="-794562" lat="63.8221083362" lon="10.8798361062">
		<tag k="name" v="Kattmagalona" />
		<tag k="natural" v="water" />
		<tag k="ssr:stedsnr" v="169744" />
		<tag k="water" v="lake" />
	</node>
	<node id="-794561" lat="63.8470277787" lon="10.9375194368">
		<tag k="name" v="Grøttjønnbekken" />
		<tag k="ssr:stedsnr" v="169729" />
		<tag k="waterway" v="stream" />
	</node>
	<node id="-793534" lat="63.8585305568" lon="10.9281305558">
		<tag k="name" v="Agnetlona" />
		<tag k="natural" v="water" />
		<tag k="ssr:stedsnr" v="290716" />
		<tag k="water" v="lake" />
	</node>
	<node id="-794557" lat="63.857444442" lon="10.902563896">
		<tag k="name" v="Heibekken" />
		<tag k="ssr:stedsnr" v="169600" />
		<tag k="waterway" v="stream" />
	</node>
	<node id="-794556" lat="63.790355556" lon="10.7976472148">
		<tag k="name" v="Nerstraumen" />
		<tag k="natural" v="strait" />
		<tag k="ssr:stedsnr" v="169474" />
	</node>
	<node id="-793531" lat="63.7902055552" lon="10.7222083266">
		<tag k="name" v="Seterdalsbekken" />
		<tag k="ssr:stedsnr" v="290413" />
		<tag k="waterway" v="stream" />
	</node>
	<node id="-794042" lat="63.8516694475" lon="11.0371888958">
		<tag k="name" v="Bergseterbekken" />
		<tag k="ssr:stedsnr" v="898779" />
		<tag k="waterway" v="stream" />
	</node>
	<node id="-793525" lat="63.828113887" lon="11.0231472202">
		<tag k="name" v="Litjgrandbekken" />
		<tag k="ssr:stedsnr" v="269870" />
		<tag k="waterway" v="stream" />
	</node>
	<node id="-794036" lat="63.7891222184" lon="10.872208328">
		<tag k="name" v="Røsvassbekken" />
		<tag k="ssr:stedsnr" v="898484" />
		<tag k="waterway" v="stream" />
	</node>
	<node id="-795056" lat="63.748997226" lon="10.8923694519">
		<tag k="name" v="Gåstjønna" />
>>>>>>> e1d4bc35ff8a6074a6f2e91616a996b547c36f15
		<tag k="natural" v="water" />
		<tag k="ssr:stedsnr" v="13474" />
	</node>
<<<<<<< HEAD
	<node lat="63.781572219848904" lon="10.919208329434442" id="-34658">
		<tag k="name" v="Bjørstadvatnet" />
=======
	<node id="-793517" lat="63.7854638856" lon="10.8509333321">
		<tag k="name" v="Røsvatnet" />
>>>>>>> e1d4bc35ff8a6074a6f2e91616a996b547c36f15
		<tag k="natural" v="water" />
		<tag k="ssr:stedsnr" v="14721" />
	</node>
<<<<<<< HEAD
	<node lat="63.833372218724264" lon="10.99135278365432" id="-34660">
		<tag k="name" v="Lauvburtjønna" />
=======
	<node id="-794664" lat="63.7553861117" lon="10.8597916656">
		<tag k="name" v="Ålvatnet" />
		<tag k="natural" v="water" />
		<tag k="ssr:stedsnr" v="317738" />
		<tag k="water" v="lake" />
	</node>
	<node id="-793510" lat="63.8400694454" lon="10.8033361158">
		<tag k="name" v="Hindbergvatnet" />
>>>>>>> e1d4bc35ff8a6074a6f2e91616a996b547c36f15
		<tag k="natural" v="water" />
		<tag k="ssr:stedsnr" v="14609" />
	</node>
<<<<<<< HEAD
	<node lat="63.88076388642106" lon="10.890988893843152" id="-34665">
		<tag k="name" v="Steinatjønna" />
		<tag k="natural" v="water" />
		<tag k="ssr:stedsnr" v="14668" />
	</node>
	<node lat="63.770950003917065" lon="10.821013893863032" id="-34717">
		<tag k="name" v="Lomtjønna" />
=======
	<node id="-793509" lat="63.8466055549" lon="10.8883888929">
		<tag k="name" v="Heibekken" />
		<tag k="ssr:stedsnr" v="256607" />
		<tag k="waterway" v="stream" />
	</node>
	<node id="-795039" lat="63.8380805556" lon="10.8754166727">
		<tag k="name" v="Solskinstjønna" />
>>>>>>> e1d4bc35ff8a6074a6f2e91616a996b547c36f15
		<tag k="natural" v="water" />
		<tag k="ssr:stedsnr" v="74757" />
	</node>
<<<<<<< HEAD
	<node lat="63.77141944233406" lon="10.725805548772884" id="-34718">
		<tag k="name" v="Sagfjorden" />
		<tag k="natural" v="strait" />
		<tag k="ssr:stedsnr" v="74761" />
	</node>
	<node lat="63.82948055751974" lon="10.753344444512413" id="-34726">
		<tag k="name" v="Indre Gløatjønna" />
		<tag k="natural" v="water" />
		<tag k="ssr:stedsnr" v="75707" />
	</node>
	<node lat="63.836219441959024" lon="10.740244441364089" id="-34728">
		<tag k="name" v="Småtjønnin" />
		<tag k="natural" v="water" />
		<tag k="ssr:stedsnr" v="75718" />
	</node>
	<node lat="63.790944445148355" lon="10.906263889183444" id="-34730">
		<tag k="name" v="Åltjønnbekken" />
		<tag k="ssr:stedsnr" v="75905" />
		<tag k="waterway" v="stream" />
	</node>
	<node lat="63.79638610901219" lon="10.802130553408633" id="-34731">
		<tag k="name" v="Åfjorden" />
		<tag k="natural" v="bay" />
		<tag k="ssr:stedsnr" v="75907" />
	</node>
	<node lat="63.794316669244374" lon="10.73717223017306" id="-34732">
		<tag k="name" v="Stryka" />
		<tag k="natural" v="water" />
		<tag k="ssr:stedsnr" v="75910" />
	</node>
	<node lat="63.765161111404964" lon="10.872302781593758" id="-34757">
		<tag k="name" v="Litjtorsvatnet" />
		<tag k="natural" v="water" />
		<tag k="ssr:stedsnr" v="108407" />
	</node>
	<node lat="63.78765833328608" lon="10.845994448358393" id="-34758">
		<tag k="name" v="Rambergtjønna" />
		<tag k="natural" v="water" />
		<tag k="ssr:stedsnr" v="108473" />
	</node>
	<node lat="63.790538887061615" lon="10.81947499230367" id="-34760">
		<tag k="name" v="Nordlitjønna" />
=======
	<node id="-793497" lat="63.8344000035" lon="10.9829472293">
		<tag k="name" v="Hamstadtjønna" />
		<tag k="natural" v="water" />
		<tag k="ssr:stedsnr" v="451862" />
	</node>
	<node id="-795032" lat="63.7603499956" lon="10.836552784">
		<tag k="name" v="Slipersetertjønna" />
		<tag k="natural" v="water" />
		<tag k="ssr:stedsnr" v="593317" />
	</node>
	<node id="-795031" lat="63.7564888931" lon="10.9005611153">
		<tag k="name" v="Svartbekken" />
		<tag k="ssr:stedsnr" v="592337" />
		<tag k="waterway" v="stream" />
	</node>
	<node id="-795033" lat="63.806130553" lon="10.8976083337">
		<tag k="name" v="Røssettjønnbekken" />
		<tag k="ssr:stedsnr" v="593478" />
		<tag k="waterway" v="stream" />
	</node>
	<node id="-794953" lat="63.8560361097" lon="10.8710000027">
		<tag k="name" v="Uggtjønnbekken" />
		<tag k="ssr:stedsnr" v="533630" />
		<tag k="waterway" v="stream" />
	</node>
	<node id="-794510" lat="63.7662027737" lon="10.9458305456">
		<tag k="name" v="Nøkkeltjønna" />
		<tag k="natural" v="water" />
		<tag k="ssr:stedsnr" v="135782" />
	</node>
	<node id="-794373" lat="63.7714194423" lon="10.7258055488">
		<tag k="name" v="Sagfjorden" />
		<tag k="natural" v="strait" />
		<tag k="ssr:stedsnr" v="74761" />
	</node>
	<node id="-793333" lat="63.8590805571" lon="10.9508888789">
		<tag k="name" v="Litlgørtjønna" />
		<tag k="natural" v="water" />
		<tag k="ssr:stedsnr" v="134736" />
	</node>
	<node id="-793478" lat="63.8258361105" lon="10.7211722304">
		<tag k="name" v="Dyrtjønna" />
>>>>>>> e1d4bc35ff8a6074a6f2e91616a996b547c36f15
		<tag k="natural" v="water" />
		<tag k="ssr:stedsnr" v="108477" />
	</node>
<<<<<<< HEAD
	<node lat="63.85571666313054" lon="11.02908056409869" id="-34761">
		<tag k="name" v="Rundtjønna" />
		<tag k="natural" v="water" />
		<tag k="ssr:stedsnr" v="108773" />
	</node>
	<node lat="63.870841663029665" lon="10.87504443879427" id="-34762">
		<tag k="name" v="Langlona" />
		<tag k="natural" v="water" />
		<tag k="ssr:stedsnr" v="108778" />
		<tag k="water" v="lake" />
	</node>
	<node lat="63.78661667077957" lon="10.797933339122498" id="-34783">
=======
	<node id="-793921" lat="63.9164638885" lon="11.2123777822">
		<tag k="name" v="Hengjaelva" />
		<tag k="ssr:stedsnr" v="717258" />
		<tag k="waterway" v="stream" />
	</node>
	<node id="-794091" lat="63.7409694405" lon="10.8474944464">
		<tag k="name" v="Korgtjønna" />
		<tag k="natural" v="water" />
		<tag k="ssr:stedsnr" v="923170" />
	</node>
	<node id="-794495" lat="63.7816416628" lon="10.7680916594">
		<tag k="name" v="Storøya" />
		<tag k="place" v="island" />
		<tag k="ssr:stedsnr" v="135731" />
	</node>
	<node id="-794494" lat="63.7866166708" lon="10.7979333391">
>>>>>>> e1d4bc35ff8a6074a6f2e91616a996b547c36f15
		<tag k="name" v="Bjørkvatnet" />
		<tag k="natural" v="bay" />
		<tag k="ssr:stedsnr" v="135729" />
	</node>
<<<<<<< HEAD
	<node lat="63.78164166282159" lon="10.7680916593887" id="-34784">
		<tag k="name" v="Storøya" />
		<tag k="place" v="island" />
		<tag k="ssr:stedsnr" v="135731" />
	</node>
	<node lat="63.731102778363294" lon="10.837613884738774" id="-34794">
		<tag k="name" v="Kalddalstjønna" />
		<tag k="natural" v="water" />
		<tag k="ssr:stedsnr" v="256122" />
	</node>
	<node lat="63.840069445357884" lon="10.8033361158335" id="-34808">
		<tag k="name" v="Hindbergvatnet" />
=======
	<node id="-794773" lat="63.8264833289" lon="10.7422444509">
		<tag k="name" v="Ytre Gløatjønna" />
		<tag k="natural" v="water" />
		<tag k="ssr:stedsnr" v="378681" />
	</node>
	<node id="-795004" lat="63.8326861091" lon="11.0436666762">
		<tag k="name" v="Aunbekken" />
		<tag k="ssr:stedsnr" v="572794" />
		<tag k="waterway" v="stream" />
	</node>
	<node id="-793463" lat="63.8141944413" lon="10.7912194477">
		<tag k="name" v="Agnettjønna" />
>>>>>>> e1d4bc35ff8a6074a6f2e91616a996b547c36f15
		<tag k="natural" v="water" />
		<tag k="ssr:stedsnr" v="256656" />
	</node>
<<<<<<< HEAD
	<node lat="63.80711110687587" lon="10.768813887342844" id="-34817">
		<tag k="name" v="Grøttjønna" />
=======
	<node id="-793462" lat="63.812499996" lon="10.74948612">
		<tag k="name" v="Otertjønna" />
>>>>>>> e1d4bc35ff8a6074a6f2e91616a996b547c36f15
		<tag k="natural" v="water" />
		<tag k="ssr:stedsnr" v="256790" />
	</node>
<<<<<<< HEAD
	<node lat="63.77141110860721" lon="10.933894451080649" id="-34822">
		<tag k="name" v="Slipertjønna" />
=======
	<node id="-793973" lat="63.8908277737" lon="10.9332249987">
		<tag k="name" v="Dalaunvatnet" />
		<tag k="natural" v="water" />
		<tag k="ssr:stedsnr" v="681553" />
	</node>
	<node id="-794484" lat="63.8523972236" lon="11.0009777715">
		<tag k="name" v="Perstjønna" />
>>>>>>> e1d4bc35ff8a6074a6f2e91616a996b547c36f15
		<tag k="natural" v="water" />
		<tag k="ssr:stedsnr" v="256749" />
	</node>
<<<<<<< HEAD
	<node lat="63.785463885568696" lon="10.850933332104463" id="-34827">
		<tag k="name" v="Røsvatnet" />
		<tag k="natural" v="water" />
		<tag k="ssr:stedsnr" v="257804" />
	</node>
	<node lat="63.781386113597364" lon="10.962947225785639" id="-34830">
=======
	<node id="-793971" lat="63.8329277743" lon="10.7444305642">
>>>>>>> e1d4bc35ff8a6074a6f2e91616a996b547c36f15
		<tag k="name" v="Stamtjønna" />
		<tag k="natural" v="water" />
		<tag k="ssr:stedsnr" v="257831" />
	</node>
<<<<<<< HEAD
	<node lat="63.7903555560423" lon="10.79764721484829" id="-34839">
		<tag k="name" v="Nerstraumen" />
		<tag k="natural" v="strait" />
		<tag k="ssr:stedsnr" v="169474" />
	</node>
	<node lat="63.87021944518016" lon="11.374224990277577" id="-34845">
		<tag k="name" v="Loråsbekken" />
		<tag k="ssr:stedsnr" v="265945" />
		<tag k="waterway" v="stream" />
	</node>
	<node lat="63.907702779424646" lon="11.265636120481616" id="-34847">
		<tag k="name" v="Granavatnet" />
		<tag k="natural" v="water" />
		<tag k="ssr:stedsnr" v="196111" />
	</node>
	<node lat="63.91788610936589" lon="11.220813882101519" id="-34848">
		<tag k="name" v="Skjemstadvatnet" />
		<tag k="natural" v="water" />
		<tag k="ssr:stedsnr" v="196113" />
	</node>
	<node lat="63.81021389013001" lon="10.851900007012034" id="-34854">
		<tag k="name" v="Mossa" />
		<tag k="ssr:stedsnr" v="196814" />
		<tag k="waterway" v="river" />
	</node>
	<node lat="63.805061115306216" lon="10.757230553674898" id="-34855">
		<tag k="name" v="Andtjønna" />
=======
	<node id="-794478" lat="63.7476472223" lon="10.8808472156">
		<tag k="name" v="Barsenggrunnen" />
		<tag k="natural" v="water" />
		<tag k="ssr:stedsnr" v="134179" />
	</node>
	<node id="-794855" lat="63.7849555516" lon="10.7956249916">
		<tag k="name" v="Øverstraumen" />
		<tag k="natural" v="strait" />
		<tag k="ssr:stedsnr" v="412441" />
	</node>
	<node id="-794472" lat="63.9529472182" lon="11.286913888">
		<tag k="name" v="Hølbekken" />
		<tag k="ssr:stedsnr" v="110200" />
		<tag k="waterway" v="stream" />
	</node>
	<node id="-794468" lat="63.8497222191" lon="10.9737027813">
		<tag k="name" v="Langvassbekken" />
		<tag k="ssr:stedsnr" v="109694" />
		<tag k="waterway" v="stream" />
	</node>
	<node id="-793953" lat="63.7815666625" lon="10.7348611047">
		<tag k="name" v="Kringelholmen" />
		<tag k="place" v="islet" />
		<tag k="ssr:stedsnr" v="654467" />
	</node>
	<node id="-793952" lat="63.7983555587" lon="10.8177555601">
		<tag k="name" v="Dammen" />
		<tag k="ssr:stedsnr" v="654455" />
		<tag k="waterway" v="dam" />
	</node>
	<node id="-794973" lat="63.7780305528" lon="10.820333343">
		<tag k="name" v="Kvernbekken" />
		<tag k="ssr:stedsnr" v="559762" />
		<tag k="waterway" v="stream" />
	</node>
	<node id="-794972" lat="63.8450999964" lon="11.0208611161">
		<tag k="name" v="Bergsetertjønna" />
>>>>>>> e1d4bc35ff8a6074a6f2e91616a996b547c36f15
		<tag k="natural" v="water" />
		<tag k="ssr:stedsnr" v="196823" />
	</node>
<<<<<<< HEAD
	<node lat="63.8281138869618" lon="11.023147220184574" id="-34881">
		<tag k="name" v="Litjgrandbekken" />
		<tag k="ssr:stedsnr" v="269870" />
		<tag k="waterway" v="stream" />
	</node>
	<node lat="63.825836110472075" lon="10.721172230430287" id="-34904">
		<tag k="name" v="Dyrtjønna" />
=======
	<node id="-794239" lat="63.7484027755" lon="10.8467638894">
		<tag k="name" v="Høgfossen" />
		<tag k="natural" v="waterfall" />
		<tag k="ssr:stedsnr" v="13168" />
	</node>
	<node id="-794458" lat="63.870841663" lon="10.8750444388">
		<tag k="name" v="Langlona" />
>>>>>>> e1d4bc35ff8a6074a6f2e91616a996b547c36f15
		<tag k="natural" v="water" />
		<tag k="ssr:stedsnr" v="230519" />
	</node>
<<<<<<< HEAD
	<node lat="63.77448333383599" lon="10.862925007510928" id="-34905">
		<tag k="name" v="Hundtjønnbekken" />
		<tag k="ssr:stedsnr" v="230484" />
		<tag k="waterway" v="stream" />
	</node>
	<node lat="63.76064166426863" lon="10.922452782403195" id="-34918">
		<tag k="name" v="Starbusdammen" />
		<tag k="ssr:stedsnr" v="450596" />
		<tag k="waterway" v="dam" />
	</node>
	<node lat="63.84660555492707" lon="10.888388892878975" id="-34938">
		<tag k="name" v="Heibekken" />
		<tag k="ssr:stedsnr" v="256607" />
		<tag k="waterway" v="stream" />
	</node>
	<node lat="63.769455552466354" lon="10.846700003781173" id="-34945">
		<tag k="name" v="Knuktjønna" />
=======
	<node id="-794454" lat="63.8498249967" lon="10.8654777744">
		<tag k="name" v="Storslottbekken" />
		<tag k="ssr:stedsnr" v="108624" />
		<tag k="waterway" v="stream" />
	</node>
	<node id="-794452" lat="63.8355611131" lon="10.8118888803">
		<tag k="name" v="Dammen" />
		<tag k="ssr:stedsnr" v="108587" />
		<tag k="waterway" v="dam" />
	</node>
	<node id="-793486" lat="63.7606416643" lon="10.9224527824">
		<tag k="name" v="Starbusdammen" />
		<tag k="ssr:stedsnr" v="450596" />
		<tag k="waterway" v="dam" />
	</node>
	<node id="-794450" lat="63.7905388871" lon="10.8194749923">
		<tag k="name" v="Nordlitjønna" />
		<tag k="natural" v="water" />
		<tag k="ssr:stedsnr" v="108477" />
	</node>
	<node id="-793937" lat="63.7540694425" lon="10.9259111084">
		<tag k="name" v="Elvkroken" />
		<tag k="place" v="locality" />
		<tag k="ssr:stedsnr" v="631571" />
	</node>
	<node id="-794448" lat="63.7876583333" lon="10.8459944484">
		<tag k="name" v="Rambergtjønna" />
>>>>>>> e1d4bc35ff8a6074a6f2e91616a996b547c36f15
		<tag k="natural" v="water" />
		<tag k="ssr:stedsnr" v="256763" />
	</node>
<<<<<<< HEAD
	<node lat="63.79020555515589" lon="10.722208326557144" id="-34972">
		<tag k="name" v="Seterdalsbekken" />
		<tag k="ssr:stedsnr" v="290413" />
		<tag k="waterway" v="stream" />
	</node>
	<node lat="63.7568638931259" lon="10.842394454471357" id="-34973">
		<tag k="name" v="Sliperseterbekken" />
		<tag k="ssr:stedsnr" v="290332" />
		<tag k="waterway" v="stream" />
	</node>
	<node lat="63.7731750034772" lon="10.784261104702754" id="-35003">
		<tag k="alt_name" v="Meltingen" />
		<tag k="name" v="Meltingvatnet" />
=======
	<node id="-793423" lat="63.823141664" lon="10.781874996">
		<tag k="name" v="Heitjønna" />
		<tag k="natural" v="water" />
		<tag k="ssr:stedsnr" v="291553" />
	</node>
	<node id="-794446" lat="63.7651611114" lon="10.8723027816">
		<tag k="name" v="Litjtorsvatnet" />
>>>>>>> e1d4bc35ff8a6074a6f2e91616a996b547c36f15
		<tag k="natural" v="water" />
		<tag k="ssr:stedsnr" v="317709" />
		<tag k="water" v="lake" />
	</node>
<<<<<<< HEAD
	<node lat="63.804099999727306" lon="10.824655559333996" id="-35008">
		<tag k="name" v="Liafossen" />
		<tag k="natural" v="waterfall" />
		<tag k="ssr:stedsnr" v="317818" />
	</node>
	<node lat="63.79772222184384" lon="10.849563889178496" id="-35009">
		<tag k="name" v="Gåstjønna" />
=======
	<node id="-793421" lat="63.8210944474" lon="10.8430138967">
		<tag k="name" v="Austre Lauvtjønna" />
>>>>>>> e1d4bc35ff8a6074a6f2e91616a996b547c36f15
		<tag k="natural" v="water" />
		<tag k="ssr:stedsnr" v="317821" />
	</node>
<<<<<<< HEAD
	<node lat="63.78738611511212" lon="10.929474991077425" id="-35013">
		<tag k="name" v="Bjørstadvassneset" />
=======
	<node id="-793419" lat="63.7866805601" lon="10.7930749919">
		<tag k="name" v="Trondsneset" />
>>>>>>> e1d4bc35ff8a6074a6f2e91616a996b547c36f15
		<tag k="natural" v="cape" />
		<tag k="ssr:stedsnr" v="328454" />
	</node>
<<<<<<< HEAD
	<node lat="63.842838885023" lon="10.807074994483028" id="-35025">
		<tag k="name" v="Langneset" />
=======
	<node id="-793418" lat="63.7953972183" lon="10.796199996">
		<tag k="name" v="Liaunnesa" />
>>>>>>> e1d4bc35ff8a6074a6f2e91616a996b547c36f15
		<tag k="natural" v="cape" />
		<tag k="ssr:stedsnr" v="472498" />
	</node>
<<<<<<< HEAD
	<node lat="63.84402777923884" lon="10.919713883330374" id="-35050">
		<tag k="name" v="Heibekken" />
		<tag k="ssr:stedsnr" v="473731" />
		<tag k="waterway" v="stream" />
	</node>
	<node lat="63.866241666111435" lon="11.220775008127243" id="-35069">
		<tag k="name" v="Havelva" />
		<tag k="ssr:stedsnr" v="474487" />
		<tag k="waterway" v="stream" />
	</node>
	<node lat="63.82648332891934" lon="10.742244450949718" id="-35082">
		<tag k="name" v="Ytre Gløatjønna" />
=======
	<node id="-793417" lat="63.7568638931" lon="10.8423944545">
		<tag k="name" v="Sliperseterbekken" />
		<tag k="ssr:stedsnr" v="290332" />
		<tag k="waterway" v="stream" />
	</node>
	<node id="-793928" lat="63.8178027804" lon="10.6923555634">
		<tag k="name" v="Litltjønna" />
>>>>>>> e1d4bc35ff8a6074a6f2e91616a996b547c36f15
		<tag k="natural" v="water" />
		<tag k="ssr:stedsnr" v="378681" />
	</node>
<<<<<<< HEAD
	<node lat="63.825455553166044" lon="10.806161120051883" id="-35083">
		<tag k="name" v="Åltjønna" />
		<tag k="natural" v="water" />
		<tag k="ssr:stedsnr" v="378683" />
	</node>
	<node lat="63.80082777691652" lon="10.82308056333298" id="-35116">
		<tag k="name" v="Lona" />
=======
	<node id="-794949" lat="63.8138138889" lon="10.8775583381">
		<tag k="name" v="Finneset" />
		<tag k="natural" v="cape" />
		<tag k="ssr:stedsnr" v="533521" />
	</node>
	<node id="-794436" lat="63.8557166631" lon="11.0290805641">
		<tag k="name" v="Rundtjønna" />
>>>>>>> e1d4bc35ff8a6074a6f2e91616a996b547c36f15
		<tag k="natural" v="water" />
		<tag k="ssr:stedsnr" v="412404" />
		<tag k="water" v="lake" />
	</node>
<<<<<<< HEAD
	<node lat="63.784955551618445" lon="10.79562499163402" id="-35117">
		<tag k="name" v="Øverstraumen" />
		<tag k="natural" v="strait" />
		<tag k="ssr:stedsnr" v="412441" />
	</node>
	<node lat="63.85395833485269" lon="11.420986105270343" id="-35119">
		<tag k="name" v="Salbergsdammen" />
		<tag k="ssr:stedsnr" v="413037" />
		<tag k="waterway" v="dam" />
	</node>
	<node lat="63.85354166958502" lon="11.395622220638282" id="-35120">
		<tag k="name" v="Salbergsbekken" />
		<tag k="ssr:stedsnr" v="413038" />
		<tag k="waterway" v="stream" />
	</node>
	<node lat="63.77288888922146" lon="10.828116666130441" id="-35130">
		<tag k="name" v="Kilastamnan" />
		<tag k="natural" v="water" />
		<tag k="ssr:stedsnr" v="438762" />
	</node>
	<node lat="63.87376388851249" lon="11.495844451687189" id="-35132">
		<tag k="name" v="Bjørbekken" />
		<tag k="ssr:stedsnr" v="439152" />
		<tag k="waterway" v="stream" />
	</node>
	<node lat="63.80854444519293" lon="10.83733333719582" id="-35139">
		<tag k="name" v="Stokkleivvatnet" />
		<tag k="natural" v="water" />
		<tag k="ssr:stedsnr" v="439857" />
	</node>
	<node lat="63.834400003485484" lon="10.982947229291673" id="-35145">
		<tag k="name" v="Hamstadtjønna" />
		<tag k="natural" v="water" />
		<tag k="ssr:stedsnr" v="451862" />
	</node>
	<node lat="63.8109833351451" lon="10.82116944644943" id="-35170">
		<tag k="name" v="Langentjønna" />
		<tag k="natural" v="water" />
		<tag k="ssr:stedsnr" v="472414" />
	</node>
	<node lat="63.789744447473886" lon="10.83243610791762" id="-35195">
		<tag k="name" v="Gulltjønna" />
		<tag k="natural" v="water" />
		<tag k="ssr:stedsnr" v="499843" />
	</node>
	<node lat="63.890827773743126" lon="10.933224998712348" id="-35201">
		<tag k="name" v="Dalaunvatnet" />
		<tag k="natural" v="water" />
		<tag k="ssr:stedsnr" v="681553" />
	</node>
	<node lat="63.83907222231893" lon="10.889775006575045" id="-35207">
=======
	<node id="-794434" lat="63.8463555543" lon="10.9533277789">
		<tag k="name" v="Svarttjønnbekken" />
		<tag k="ssr:stedsnr" v="108750" />
		<tag k="waterway" v="stream" />
	</node>
	<node id="-794433" lat="63.8172638892" lon="10.8803583328">
		<tag k="name" v="Tverrelva" />
		<tag k="ssr:stedsnr" v="108745" />
		<tag k="waterway" v="river" />
	</node>
	<node id="-794391" lat="63.7909444451" lon="10.9062638892">
		<tag k="name" v="Åltjønnbekken" />
		<tag k="ssr:stedsnr" v="75905" />
		<tag k="waterway" v="stream" />
	</node>
	<node id="-794940" lat="63.8055888889" lon="10.747252775">
		<tag k="name" v="Bjønnatjønna" />
		<tag k="natural" v="water" />
		<tag k="ssr:stedsnr" v="533458" />
	</node>
	<node id="-793913" lat="63.9232027772" lon="11.2576805572">
		<tag k="name" v="Skålpundtjønna" />
		<tag k="natural" v="water" />
		<tag k="ssr:stedsnr" v="717061" />
	</node>
	<node id="-794936" lat="63.7694333303" lon="10.8950083396">
		<tag k="name" v="Rypneset" />
		<tag k="natural" v="cape" />
		<tag k="ssr:stedsnr" v="532392" />
	</node>
	<node id="-794935" lat="63.7649138917" lon="10.8840777798">
		<tag k="name" v="Torsvassbekken" />
		<tag k="ssr:stedsnr" v="532383" />
		<tag k="waterway" v="stream" />
	</node>
	<node id="-795100" lat="63.8838805524" lon="11.3929750094">
		<tag k="name" v="Lorvikbekken" />
		<tag k="ssr:stedsnr" v="629801" />
		<tag k="waterway" v="stream" />
	</node>
	<node id="-794405" lat="63.8328277808" lon="10.9807083277">
		<tag k="name" v="Svartolabekken" />
		<tag k="ssr:stedsnr" v="87848" />
		<tag k="waterway" v="stream" />
	</node>
	<node id="-795427" lat="63.8523833325" lon="11.1323388909">
		<tag k="name" v="Hågåelva" />
		<tag k="ssr:stedsnr" v="960290" />
		<tag k="waterway" v="stream" />
	</node>
	<node id="-794398" lat="63.8494861118" lon="11.4071111103">
		<tag k="alt_name" v="Koaelva" />
		<tag k="name" v="Koabekken" />
		<tag k="ssr:stedsnr" v="83951" />
		<tag k="waterway" v="stream" />
	</node>
	<node id="-793477" lat="63.824002774" lon="10.8621777849">
		<tag k="name" v="Tjuvholbekken" />
		<tag k="ssr:stedsnr" v="229759" />
		<tag k="waterway" v="stream" />
	</node>
	<node id="-794908" lat="63.7611333365" lon="10.9013333326">
>>>>>>> e1d4bc35ff8a6074a6f2e91616a996b547c36f15
		<tag k="name" v="Svarttjønna" />
		<tag k="natural" v="water" />
		<tag k="ssr:stedsnr" v="681689" />
	</node>
<<<<<<< HEAD
	<node lat="63.82110555888777" lon="10.924033338010494" id="-35211">
		<tag k="name" v="Holbekken" />
		<tag k="ssr:stedsnr" v="681829" />
		<tag k="waterway" v="stream" />
	</node>
	<node lat="63.820036107525894" lon="10.798011104616513" id="-35214">
		<tag k="name" v="Stordrilen" />
		<tag k="natural" v="water" />
		<tag k="ssr:stedsnr" v="681835" />
	</node>
	<node lat="63.801563886945175" lon="10.754005565085892" id="-35215">
		<tag k="name" v="Steintjønna" />
		<tag k="natural" v="water" />
		<tag k="ssr:stedsnr" v="681838" />
	</node>
	<node lat="63.80431389205884" lon="10.725502784385611" id="-35216">
		<tag k="name" v="Medbakktjønna" />
		<tag k="natural" v="water" />
		<tag k="ssr:stedsnr" v="681839" />
	</node>
	<node lat="63.78830000076191" lon="10.913433331124397" id="-35219">
		<tag k="name" v="Åltjønna" />
=======
	<node id="-794393" lat="63.7943166692" lon="10.7371722302">
		<tag k="name" v="Stryka" />
		<tag k="natural" v="water" />
		<tag k="ssr:stedsnr" v="75910" />
	</node>
	<node id="-794392" lat="63.796386109" lon="10.8021305534">
		<tag k="name" v="Åfjorden" />
		<tag k="natural" v="bay" />
		<tag k="ssr:stedsnr" v="75907" />
	</node>
	<node id="-795415" lat="63.7908472192" lon="10.7602638786">
		<tag k="name" v="Småholman" />
		<tag k="place" v="islet" />
		<tag k="ssr:stedsnr" v="958488" />
	</node>
	<node id="-793366" lat="63.8829249983" lon="10.9946611042">
		<tag k="name" v="Hognesbekken" />
		<tag k="ssr:stedsnr" v="147754" />
		<tag k="waterway" v="stream" />
	</node>
	<node id="-794389" lat="63.8854277764" lon="10.9077194508">
		<tag k="name" v="Oltjønna" />
>>>>>>> e1d4bc35ff8a6074a6f2e91616a996b547c36f15
		<tag k="natural" v="water" />
		<tag k="ssr:stedsnr" v="681876" />
	</node>
<<<<<<< HEAD
	<node lat="63.8675999961566" lon="10.903661107859737" id="-35220">
		<tag k="name" v="Gåstjønna" />
=======
	<node id="-794900" lat="63.8469055545" lon="10.9727222162">
		<tag k="name" v="Stamtjønna" />
>>>>>>> e1d4bc35ff8a6074a6f2e91616a996b547c36f15
		<tag k="natural" v="water" />
		<tag k="ssr:stedsnr" v="681735" />
	</node>
	<node lat="63.76491389167221" lon="10.88407777981136" id="-35252">
		<tag k="name" v="Torsvassbekken" />
		<tag k="ssr:stedsnr" v="532383" />
		<tag k="waterway" v="stream" />
	</node>
	<node lat="63.76943333025595" lon="10.895008339630001" id="-35253">
		<tag k="name" v="Rypneset" />
		<tag k="natural" v="cape" />
		<tag k="ssr:stedsnr" v="532392" />
	</node>
	<node lat="63.813813888881846" lon="10.87755833805398" id="-35259">
		<tag k="name" v="Finneset" />
		<tag k="natural" v="cape" />
		<tag k="ssr:stedsnr" v="533521" />
	</node>
<<<<<<< HEAD
	<node lat="63.82026666583286" lon="10.830397224825564" id="-35277">
		<tag k="name" v="Vestre Lauvtjønna" />
=======
	<node id="-795411" lat="63.8072472177" lon="10.6989666761">
		<tag k="name" v="Austre Lomtjønna" />
>>>>>>> e1d4bc35ff8a6074a6f2e91616a996b547c36f15
		<tag k="natural" v="water" />
		<tag k="old_name" v="Lauvtjørna, yt;Lauvtjønnin" />
		<tag k="ssr:stedsnr" v="559813" />
	</node>
<<<<<<< HEAD
	<node lat="63.816886115040056" lon="10.84529167460274" id="-35281">
		<tag k="name" v="Langen" />
		<tag k="natural" v="water" />
		<tag k="ssr:stedsnr" v="560819" />
		<tag k="water" v="lake" />
	</node>
	<node lat="63.8713416660917" lon="11.460144450002055" id="-35287">
		<tag k="name" v="Kafstadtjønna" />
		<tag k="natural" v="water" />
		<tag k="ssr:stedsnr" v="690961" />
	</node>
	<node lat="63.80673889300026" lon="10.97398055167133" id="-35288">
		<tag k="name" v="Sagfossen" />
		<tag k="natural" v="waterfall" />
		<tag k="ssr:stedsnr" v="692573" />
	</node>
	<node lat="63.82180277965558" lon="10.98791667342433" id="-35300">
=======
	<node id="-794386" lat="63.8371194459" lon="10.9201027795">
		<tag k="name" v="Årningtjønna" />
		<tag k="natural" v="water" />
		<tag k="ssr:stedsnr" v="75727" />
	</node>
	<node id="-793873" lat="63.8218027797" lon="10.9879166734">
>>>>>>> e1d4bc35ff8a6074a6f2e91616a996b547c36f15
		<tag k="name" v="Skjerva" />
		<tag k="ssr:stedsnr" v="572863" />
		<tag k="waterway" v="river" />
	</node>
<<<<<<< HEAD
	<node lat="63.76034999563817" lon="10.83655278401737" id="-35317">
		<tag k="name" v="Slipersetertjønna" />
=======
	<node id="-793360" lat="63.8370583355" lon="10.9323249946">
		<tag k="name" v="Tjønnbekken" />
		<tag k="ssr:stedsnr" v="146455" />
		<tag k="waterway" v="stream" />
	</node>
	<node id="-793560" lat="63.8109833351" lon="10.8211694464">
		<tag k="name" v="Langentjønna" />
>>>>>>> e1d4bc35ff8a6074a6f2e91616a996b547c36f15
		<tag k="natural" v="water" />
		<tag k="ssr:stedsnr" v="472414" />
	</node>
<<<<<<< HEAD
	<node lat="63.88388055236242" lon="11.3929750094419" id="-35340">
		<tag k="name" v="Lorvikbekken" />
		<tag k="ssr:stedsnr" v="629801" />
		<tag k="waterway" v="stream" />
	</node>
	<node lat="63.904616665920635" lon="11.192047223521518" id="-35378">
		<tag k="name" v="Byaelva" />
		<tag k="ssr:stedsnr" v="656227" />
		<tag k="waterway" v="stream" />
	</node>
	<node lat="63.903011111746494" lon="11.15222222231785" id="-35381">
		<tag k="name" v="Langengelva" />
		<tag k="ssr:stedsnr" v="656321" />
		<tag k="waterway" v="stream" />
	</node>
	<node lat="63.83292777425835" lon="10.74443056416922" id="-35415">
		<tag k="name" v="Stamtjønna" />
=======
	<node id="-794669" lat="63.7977222218" lon="10.8495638892">
		<tag k="name" v="Gåstjønna" />
		<tag k="natural" v="water" />
		<tag k="ssr:stedsnr" v="317821" />
	</node>
	<node id="-795153" lat="63.8470722207" lon="10.9174972316">
		<tag k="name" v="Heidammen" />
		<tag k="ssr:stedsnr" v="654772" />
		<tag k="waterway" v="dam" />
	</node>
	<node id="-793349" lat="63.8186583335" lon="10.7846944525">
		<tag k="name" v="Fjellvassbekken" />
		<tag k="ssr:stedsnr" v="135809" />
		<tag k="waterway" v="stream" />
	</node>
	<node id="-793348" lat="63.8186666636" lon="10.742533333">
		<tag k="name" v="Svarttjønna" />
>>>>>>> e1d4bc35ff8a6074a6f2e91616a996b547c36f15
		<tag k="natural" v="water" />
		<tag k="ssr:stedsnr" v="681669" />
	</node>
<<<<<<< HEAD
	<node lat="63.8263749957131" lon="10.853394437612696" id="-35416">
		<tag k="name" v="Tjuvholbekken" />
		<tag k="ssr:stedsnr" v="681673" />
		<tag k="waterway" v="stream" />
	</node>
	<node lat="63.802563888793124" lon="10.806258339329693" id="-35419">
		<tag k="alt_name" v="Arnfinntjørna;Anfinntjønna" />
		<tag k="name" v="Liatjønna" />
=======
	<node id="-793859" lat="63.7819027783" lon="10.7214527875">
		<tag k="name" v="Slåttdalsneset" />
		<tag k="natural" v="cape" />
		<tag k="ssr:stedsnr" v="560765" />
	</node>
	<node id="-793857" lat="63.816886115" lon="10.8452916746">
		<tag k="name" v="Langen" />
>>>>>>> e1d4bc35ff8a6074a6f2e91616a996b547c36f15
		<tag k="natural" v="water" />
		<tag k="ssr:stedsnr" v="681869" />
	</node>
<<<<<<< HEAD
	<node lat="63.781686114201875" lon="10.919405550664148" id="-35425">
		<tag k="name" v="Ytter-Bjørstadvatnet" />
=======
	<node id="-793854" lat="63.8572416638" lon="10.990844451">
		<tag k="name" v="Småtjønnin" />
>>>>>>> e1d4bc35ff8a6074a6f2e91616a996b547c36f15
		<tag k="natural" v="water" />
		<tag k="ssr:stedsnr" v="692446" />
		<tag k="water" v="lake" />
	</node>
<<<<<<< HEAD
	<node lat="63.789122218421596" lon="10.872208328048382" id="-35448">
		<tag k="name" v="Røsvassbekken" />
		<tag k="ssr:stedsnr" v="898484" />
		<tag k="waterway" v="stream" />
	</node>
	<node lat="63.851669447531634" lon="11.037188895776639" id="-35453">
		<tag k="name" v="Bergseterbekken" />
		<tag k="ssr:stedsnr" v="898779" />
		<tag k="waterway" v="stream" />
	</node>
	<node lat="63.905191669475855" lon="11.186272227549548" id="-35469">
		<tag k="name" v="Bergselva" />
		<tag k="ssr:stedsnr" v="899248" />
		<tag k="waterway" v="stream" />
	</node>
	<node lat="63.900083330297136" lon="11.206344444433485" id="-35478">
		<tag k="name" v="Litjbråtelva" />
		<tag k="ssr:stedsnr" v="741595" />
		<tag k="waterway" v="stream" />
	</node>
	<node lat="63.83493333480657" lon="11.018669442185526" id="-35487">
		<tag k="name" v="Langmyrtjønna" />
=======
	<node id="-794876" lat="63.8721861149" lon="11.2145944393">
		<tag k="name" v="Bølelva" />
		<tag k="ssr:stedsnr" v="413461" />
		<tag k="waterway" v="stream" />
	</node>
	<node id="-794902" lat="63.8577361108" lon="10.921836112">
		<tag k="name" v="Agnettjønna" />
		<tag k="natural" v="water" />
		<tag k="ssr:stedsnr" v="438656" />
	</node>
	<node id="-795385" lat="63.788680554" lon="10.9334777797">
		<tag k="name" v="Inner-Bjørstadvatnet" />
		<tag k="natural" v="water" />
		<tag k="ssr:stedsnr" v="874485" />
		<tag k="water" v="lake" />
	</node>
	<node id="-794872" lat="63.8535416696" lon="11.3956222206">
		<tag k="name" v="Salbergsbekken" />
		<tag k="ssr:stedsnr" v="413038" />
		<tag k="waterway" v="stream" />
	</node>
	<node id="-794871" lat="63.8539583349" lon="11.4209861053">
		<tag k="name" v="Salbergsdammen" />
		<tag k="ssr:stedsnr" v="413037" />
		<tag k="waterway" v="dam" />
	</node>
	<node id="-793334" lat="63.8648888905" lon="10.9653527762">
		<tag k="name" v="Vennesvatnet" />
>>>>>>> e1d4bc35ff8a6074a6f2e91616a996b547c36f15
		<tag k="natural" v="water" />
		<tag k="ssr:stedsnr" v="742639" />
	</node>
<<<<<<< HEAD
	<node lat="63.78559166496578" lon="10.825163885482695" id="-35490">
		<tag k="name" v="Geiltjønna" />
=======
	<node id="-793845" lat="63.7446861147" lon="10.8523777698">
		<tag k="name" v="Gåstjønna" />
>>>>>>> e1d4bc35ff8a6074a6f2e91616a996b547c36f15
		<tag k="natural" v="water" />
		<tag k="ssr:stedsnr" v="742741" />
	</node>
<<<<<<< HEAD
	<node lat="63.81689722503622" lon="10.7627833272798" id="-35492">
		<tag k="name" v="Fjellvatna" />
		<tag k="natural" v="water" />
		<tag k="ssr:stedsnr" v="742808" />
	</node>
	<node lat="63.86202222291658" lon="11.484816665356826" id="-35499">
		<tag k="name" v="Svarttjønna" />
		<tag k="natural" v="water" />
		<tag k="ssr:stedsnr" v="750947" />
	</node>
	<node lat="63.85290277995733" lon="11.016336103521274" id="-35530">
		<tag k="name" v="Heitjønna" />
=======
	<node id="-793331" lat="63.8702194452" lon="11.3742249903">
		<tag k="name" v="Loråsbekken" />
		<tag k="ssr:stedsnr" v="265945" />
		<tag k="waterway" v="stream" />
	</node>
	<node id="-793841" lat="63.806738893" lon="10.9739805517">
		<tag k="name" v="Sagfossen" />
		<tag k="natural" v="waterfall" />
		<tag k="ssr:stedsnr" v="692573" />
	</node>
	<node id="-793839" lat="63.7816861142" lon="10.9194055507">
		<tag k="name" v="Ytter-Bjørstadvatnet" />
>>>>>>> e1d4bc35ff8a6074a6f2e91616a996b547c36f15
		<tag k="natural" v="water" />
		<tag k="ssr:stedsnr" v="802703" />
	</node>
<<<<<<< HEAD
	<node lat="63.85133055228287" lon="10.984547219781273" id="-35532">
		<tag k="name" v="Langvatnet" />
=======
	<node id="-793838" lat="63.8713416661" lon="11.46014445">
		<tag k="name" v="Kafstadtjønna" />
>>>>>>> e1d4bc35ff8a6074a6f2e91616a996b547c36f15
		<tag k="natural" v="water" />
		<tag k="ssr:stedsnr" v="802706" />
	</node>
<<<<<<< HEAD
	<node lat="63.776047219340484" lon="10.94892222563865" id="-35533">
		<tag k="name" v="Djuptjønna" />
=======
	<node id="-794861" lat="63.809499996" lon="10.9062166572">
		<tag k="name" v="Solbekken" />
		<tag k="ssr:stedsnr" v="412476" />
		<tag k="waterway" v="stream" />
	</node>
	<node id="-793322" lat="63.7813861136" lon="10.9629472258">
		<tag k="name" v="Stamtjønna" />
>>>>>>> e1d4bc35ff8a6074a6f2e91616a996b547c36f15
		<tag k="natural" v="water" />
		<tag k="ssr:stedsnr" v="802813" />
	</node>
<<<<<<< HEAD
	<node lat="63.87806944619823" lon="10.942611108962172" id="-35538">
		<tag k="name" v="Geitåstjønna" />
=======
	<node id="-794856" lat="63.7824222199" lon="10.870063884">
		<tag k="name" v="Lomurtjønna" />
>>>>>>> e1d4bc35ff8a6074a6f2e91616a996b547c36f15
		<tag k="natural" v="water" />
		<tag k="ssr:stedsnr" v="803709" />
	</node>
<<<<<<< HEAD
	<node lat="63.79174722673345" lon="10.710299990519264" id="-35575">
		<tag k="name" v="Stamtjønna" />
=======
	<node id="-795367" lat="63.8377222255" lon="10.8644305563">
		<tag k="name" v="Solskinstjønnin" />
>>>>>>> e1d4bc35ff8a6074a6f2e91616a996b547c36f15
		<tag k="natural" v="water" />
		<tag k="ssr:stedsnr" v="924392" />
	</node>
<<<<<<< HEAD
	<node lat="63.83254722549764" lon="10.997230545673121" id="-35583">
		<tag k="name" v="Småtjønna" />
		<tag k="natural" v="water" />
		<tag k="ssr:stedsnr" v="924637" />
	</node>
	<node lat="63.841066663578054" lon="10.932552778616465" id="-35590">
		<tag k="name" v="Heibekken" />
		<tag k="ssr:stedsnr" v="924795" />
		<tag k="waterway" v="stream" />
	</node>
	<node lat="63.79250000232749" lon="10.892047213392248" id="-35594">
		<tag k="name" v="Stordalsvatnet" />
=======
	<node id="-794854" lat="63.8084416704" lon="10.7244805614">
		<tag k="name" v="Mebakkelva" />
		<tag k="ssr:stedsnr" v="412426" />
		<tag k="waterway" v="river" />
	</node>
	<node id="-793829" lat="63.8438888876" lon="10.9651749968">
		<tag k="name" v="Stamtjønnbekken" />
		<tag k="ssr:stedsnr" v="533763" />
		<tag k="waterway" v="stream" />
	</node>
	<node id="-794852" lat="63.8008277769" lon="10.8230805633">
		<tag k="name" v="Lona" />
>>>>>>> e1d4bc35ff8a6074a6f2e91616a996b547c36f15
		<tag k="natural" v="water" />
		<tag k="ssr:stedsnr" v="924850" />
		<tag k="water" v="lake" />
	</node>
<<<<<<< HEAD
	<node lat="63.79661388760505" lon="10.828091660797664" id="-35595">
		<tag k="name" v="Storlitjønna" />
		<tag k="natural" v="water" />
		<tag k="ssr:stedsnr" v="924854" />
	</node>
	<node lat="63.78712500290953" lon="10.787330549499588" id="-35596">
		<tag k="name" v="Bjørnsundet" />
		<tag k="natural" v="strait" />
		<tag k="ssr:stedsnr" v="924858" />
	</node>
	<node lat="63.830222219527165" lon="10.981466671772777" id="-35611">
		<tag k="name" v="Malidalsbekken" />
		<tag k="ssr:stedsnr" v="875824" />
		<tag k="waterway" v="stream" />
	</node>
	<node lat="63.873505558012496" lon="10.933794449960814" id="-35634">
		<tag k="name" v="Bekkan" />
		<tag k="ssr:stedsnr" v="898818" />
		<tag k="waterway" v="stream" />
	</node>
	<node lat="63.74096944051043" lon="10.847494446366841" id="-35640">
		<tag k="name" v="Korgtjønna" />
=======
	<node id="-793313" lat="63.8071111069" lon="10.7688138873">
		<tag k="name" v="Grøttjønna" />
		<tag k="natural" v="water" />
		<tag k="ssr:stedsnr" v="256790" />
	</node>
	<node id="-794064" lat="63.8660000006" lon="11.4705194482">
		<tag k="name" v="Raudflovatnet" />
		<tag k="natural" v="water" />
		<tag k="ssr:stedsnr" v="742156" />
	</node>
	<node id="-794846" lat="63.8133333309" lon="10.6730972303">
		<tag k="name" v="Prestvågelva" />
		<tag k="ssr:stedsnr" v="412352" />
		<tag k="waterway" v="river" />
	</node>
	<node id="-793309" lat="63.7694555525" lon="10.8467000038">
		<tag k="name" v="Knuktjønna" />
		<tag k="natural" v="water" />
		<tag k="ssr:stedsnr" v="256763" />
	</node>
	<node id="-794843" lat="63.794644445" lon="10.7206444445">
		<tag k="name" v="Furukambekken" />
		<tag k="ssr:stedsnr" v="411432" />
		<tag k="waterway" v="stream" />
	</node>
	<node id="-793302" lat="63.7714111086" lon="10.9338944511">
		<tag k="name" v="Slipertjønna" />
>>>>>>> e1d4bc35ff8a6074a6f2e91616a996b547c36f15
		<tag k="natural" v="water" />
		<tag k="ssr:stedsnr" v="923170" />
	</node>
<<<<<<< HEAD
	<node lat="63.747274997902" lon="10.92081388929016" id="-35641">
		<tag k="name" v="Sliperelva" />
		<tag k="ssr:stedsnr" v="923185" />
		<tag k="waterway" v="stream" />
	</node>
	<node lat="63.72410555834458" lon="10.849230560473163" id="-35643">
		<tag k="name" v="Seterstøbekken" />
		<tag k="ssr:stedsnr" v="923220" />
		<tag k="waterway" v="stream" />
	</node>
	<node lat="63.853288890392555" lon="11.44765000936408" id="-35644">
		<tag k="name" v="Metjønna" />
=======
	<node id="-794915" lat="63.8737638885" lon="11.4958444517">
		<tag k="name" v="Bjørbekken" />
		<tag k="ssr:stedsnr" v="439152" />
		<tag k="waterway" v="stream" />
	</node>
	<node id="-795338" lat="63.824794442" lon="10.9082250063">
		<tag k="name" v="Sautjønna" />
		<tag k="natural" v="water" />
		<tag k="ssr:stedsnr" v="837751" />
	</node>
	<node id="-793286" lat="63.7311027784" lon="10.8376138847">
		<tag k="name" v="Kalddalstjønna" />
		<tag k="natural" v="water" />
		<tag k="ssr:stedsnr" v="256122" />
	</node>
	<node id="-795096" lat="63.8059277801" lon="10.8605250031">
		<tag k="name" v="Frosktjønna" />
		<tag k="natural" v="water" />
		<tag k="ssr:stedsnr" v="620841" />
	</node>
	<node id="-794385" lat="63.836219442" lon="10.7402444414">
		<tag k="name" v="Småtjønnin" />
		<tag k="natural" v="water" />
		<tag k="ssr:stedsnr" v="75718" />
	</node>
	<node id="-793788" lat="63.8043138921" lon="10.7255027844">
		<tag k="name" v="Medbakktjønna" />
>>>>>>> e1d4bc35ff8a6074a6f2e91616a996b547c36f15
		<tag k="natural" v="water" />
		<tag k="ssr:stedsnr" v="924118" />
	</node>
<<<<<<< HEAD
	<node lat="63.84384722659409" lon="10.996791668740734" id="-35652">
		<tag k="name" v="Ringartjønna" />
=======
	<node id="-793787" lat="63.8015638869" lon="10.7540055651">
		<tag k="name" v="Steintjønna" />
>>>>>>> e1d4bc35ff8a6074a6f2e91616a996b547c36f15
		<tag k="natural" v="water" />
		<tag k="ssr:stedsnr" v="924613" />
	</node>
<<<<<<< HEAD
	<node lat="63.85066944019356" lon="10.941574990102628" id="-35655">
		<tag k="name" v="Storgørtjønna" />
=======
	<node id="-793786" lat="63.8200361075" lon="10.7980111046">
		<tag k="name" v="Stordrilen" />
>>>>>>> e1d4bc35ff8a6074a6f2e91616a996b547c36f15
		<tag k="natural" v="water" />
		<tag k="ssr:stedsnr" v="924623" />
	</node>
<<<<<<< HEAD
	<node lat="63.86952499551922" lon="10.897927783319318" id="-35657">
		<tag k="name" v="Gørpøyla" />
		<tag k="place" v="locality" />
		<tag k="ssr:stedsnr" v="924676" />
	</node>
	<node lat="63.88573055471615" lon="10.931733328250088" id="-35658">
		<tag k="name" v="Langdalsvatnet" />
=======
	<node id="-793972" lat="63.8263749957" lon="10.8533944376">
		<tag k="name" v="Tjuvholbekken" />
		<tag k="ssr:stedsnr" v="681673" />
		<tag k="waterway" v="stream" />
	</node>
	<node id="-793782" lat="63.7883000008" lon="10.9134333311">
		<tag k="name" v="Åltjønna" />
>>>>>>> e1d4bc35ff8a6074a6f2e91616a996b547c36f15
		<tag k="natural" v="water" />
		<tag k="ssr:stedsnr" v="924679" />
	</node>
<<<<<<< HEAD
	<node lat="63.82015833126468" lon="10.848108332754073" id="-35660">
		<tag k="name" v="Tomtjønna" />
=======
	<node id="-794383" lat="63.8294805575" lon="10.7533444445">
		<tag k="name" v="Indre Gløatjønna" />
		<tag k="natural" v="water" />
		<tag k="ssr:stedsnr" v="75707" />
	</node>
	<node id="-793780" lat="63.8025638888" lon="10.8062583393">
		<tag k="name" v="Anfinntjønna" />
>>>>>>> e1d4bc35ff8a6074a6f2e91616a996b547c36f15
		<tag k="natural" v="water" />
		<tag k="ssr:stedsnr" v="924803" />
	</node>
<<<<<<< HEAD
	<node lat="63.773916670845864" lon="10.902941661920842" id="-35661">
		<tag k="name" v="Torsvatnet" />
=======
	<node id="-795422" lat="63.8432027738" lon="10.9828916662">
		<tag k="name" v="Fållåbekken" />
		<tag k="ssr:stedsnr" v="958804" />
		<tag k="waterway" v="stream" />
	</node>
	<node id="-793777" lat="63.8675999962" lon="10.9036611079">
		<tag k="name" v="Gåstjønna" />
>>>>>>> e1d4bc35ff8a6074a6f2e91616a996b547c36f15
		<tag k="natural" v="water" />
		<tag k="ssr:stedsnr" v="924775" />
		<tag k="water" v="lake" />
	</node>
<<<<<<< HEAD
	<node lat="63.7908472191684" lon="10.760263878566946" id="-35686">
		<tag k="name" v="Småholman" />
		<tag k="place" v="islet" />
		<tag k="ssr:stedsnr" v="958488" />
	</node>
	<node lat="63.843202773789834" lon="10.982891666206326" id="-35691">
		<tag k="name" v="Fållåbekken" />
		<tag k="ssr:stedsnr" v="958804" />
		<tag k="waterway" v="stream" />
	</node>
	<node lat="63.85238333249649" lon="11.13233889085095" id="-35693">
		<tag k="name" v="Hågåelva" />
		<tag k="ssr:stedsnr" v="960290" />
		<tag k="waterway" v="stream" />
	</node>
	<node lat="63.85280555896916" lon="11.461363890363804" id="-35711">
		<tag k="name" v="Leklemvatnet" />
=======
	<node id="-794287" lat="63.7646777771" lon="10.9421388974">
		<tag k="name" v="Hammerdammen" />
		<tag k="ssr:stedsnr" v="25570" />
		<tag k="waterway" v="dam" />
	</node>
	<node id="-793771" lat="63.8390722223" lon="10.8897750066">
		<tag k="name" v="Svarttjønna" />
		<tag k="natural" v="water" />
		<tag k="ssr:stedsnr" v="681689" />
	</node>
	<node id="-794794" lat="63.8946749989" lon="10.9334138863">
		<tag k="name" v="Dalaunbekken" />
		<tag k="old_name" v="Dalaunkammen" />
		<tag k="ssr:stedsnr" v="390831" />
		<tag k="waterway" v="stream" />
	</node>
	<node id="-794278" lat="63.8220916643" lon="10.8660611017">
		<tag k="name" v="Kattmagan" />
>>>>>>> e1d4bc35ff8a6074a6f2e91616a996b547c36f15
		<tag k="natural" v="water" />
		<tag k="ssr:stedsnr" v="13157" />
	</node>
<<<<<<< HEAD
	<node lat="63.85314722561794" lon="10.852586117264728" id="-35714">
		<tag k="name" v="Røsvatnet" />
		<tag k="natural" v="water" />
		<tag k="ssr:stedsnr" v="13744" />
		<tag k="water" v="lake" />
	</node>
	<node lat="63.85093610979628" lon="10.958825001279537" id="-35717">
=======
	<node id="-793253" lat="63.8446555523" lon="10.8283611021">
		<tag k="name" v="Lomtjønna" />
		<tag k="natural" v="water" />
		<tag k="ssr:stedsnr" v="47515" />
	</node>
	<node id="-795078" lat="63.8408444427" lon="10.7608444447">
		<tag k="name" v="Otertjønna" />
		<tag k="natural" v="water" />
		<tag k="ssr:stedsnr" v="620644" />
	</node>
	<node id="-793761" lat="63.8723138886" lon="11.4663083324">
		<tag k="loc_name" v="Røflotjønna" />
>>>>>>> e1d4bc35ff8a6074a6f2e91616a996b547c36f15
		<tag k="name" v="Svarttjønna" />
		<tag k="natural" v="water" />
		<tag k="ssr:stedsnr" v="13670" />
	</node>
<<<<<<< HEAD
	<node lat="63.82209166425359" lon="10.86606110173002" id="-35736">
		<tag k="name" v="Kattmagan" />
=======
	<node id="-794783" lat="63.8133555523" lon="10.8819777674">
		<tag k="name" v="Litjmeltingen" />
>>>>>>> e1d4bc35ff8a6074a6f2e91616a996b547c36f15
		<tag k="natural" v="water" />
		<tag k="ssr:stedsnr" v="14798" />
	</node>
<<<<<<< HEAD
	<node lat="63.76467777714441" lon="10.942138897432176" id="-35745">
		<tag k="name" v="Hammerdammen" />
		<tag k="ssr:stedsnr" v="25570" />
		<tag k="waterway" v="dam" />
	</node>
	<node lat="63.84465555230407" lon="10.82836110205447" id="-35787">
		<tag k="name" v="Lomtjønna" />
=======
	<node id="-793212" lat="63.8078861141" lon="10.7770111066">
		<tag k="name" v="Grøttjønnbekken" />
		<tag k="ssr:stedsnr" v="229423" />
		<tag k="waterway" v="stream" />
	</node>
	<node id="-794266" lat="63.8807638864" lon="10.8909888938">
		<tag k="name" v="Steinatjønna" />
>>>>>>> e1d4bc35ff8a6074a6f2e91616a996b547c36f15
		<tag k="natural" v="water" />
		<tag k="ssr:stedsnr" v="47515" />
	</node>
<<<<<<< HEAD
	<node lat="63.83711944586232" lon="10.920102779495346" id="-35818">
		<tag k="name" v="Årningtjønna" />
=======
	<node id="-795288" lat="63.9514138925" lon="11.2878555611">
		<tag k="name" v="Venåstjønna" />
>>>>>>> e1d4bc35ff8a6074a6f2e91616a996b547c36f15
		<tag k="natural" v="water" />
		<tag k="ssr:stedsnr" v="75727" />
	</node>
<<<<<<< HEAD
	<node lat="63.780813892592036" lon="10.92889722922311" id="-35824">
		<tag k="name" v="Sautjønna" />
=======
	<node id="-794774" lat="63.8254555532" lon="10.8061611201">
		<tag k="name" v="Åltjønna" />
>>>>>>> e1d4bc35ff8a6074a6f2e91616a996b547c36f15
		<tag k="natural" v="water" />
		<tag k="ssr:stedsnr" v="75825" />
	</node>
<<<<<<< HEAD
	<node lat="63.88542777637408" lon="10.907719450844896" id="-35827">
		<tag k="name" v="Oltjønna" />
		<tag k="natural" v="water" />
		<tag k="ssr:stedsnr" v="75748" />
	</node>
	<node lat="63.84948611180376" lon="11.407111110317409" id="-35833">
		<tag k="alt_name" v="Koaelva" />
		<tag k="name" v="Koabekken" />
		<tag k="ssr:stedsnr" v="83951" />
		<tag k="waterway" v="stream" />
	</node>
	<node lat="63.83282778084299" lon="10.980708327683372" id="-35837">
		<tag k="name" v="Svartolabekken" />
		<tag k="ssr:stedsnr" v="87848" />
		<tag k="waterway" v="stream" />
	</node>
	<node lat="63.835561113146" lon="10.811888880318966" id="-35865">
		<tag k="name" v="Dammen" />
		<tag k="ssr:stedsnr" v="108587" />
		<tag k="waterway" v="dam" />
	</node>
	<node lat="63.849824996701706" lon="10.865477774373911" id="-35867">
		<tag k="name" v="Storslottbekken" />
		<tag k="ssr:stedsnr" v="108624" />
		<tag k="waterway" v="stream" />
	</node>
	<node lat="63.81726388924493" lon="10.880358332841029" id="-35870">
		<tag k="name" v="Tverrelva" />
		<tag k="ssr:stedsnr" v="108745" />
		<tag k="waterway" v="river" />
	</node>
	<node lat="63.84635555433389" lon="10.953327778927857" id="-35871">
		<tag k="name" v="Svarttjønnbekken" />
		<tag k="ssr:stedsnr" v="108750" />
		<tag k="waterway" v="stream" />
	</node>
	<node lat="63.849722219081116" lon="10.973702781322022" id="-35876">
		<tag k="name" v="Langvassbekken" />
		<tag k="ssr:stedsnr" v="109694" />
		<tag k="waterway" v="stream" />
	</node>
	<node lat="63.952947218239935" lon="11.28691388802912" id="-35882">
		<tag k="name" v="Hølbekken" />
		<tag k="ssr:stedsnr" v="110200" />
		<tag k="waterway" v="stream" />
	</node>
	<node lat="63.74764722233495" lon="10.880847215568267" id="-35887">
		<tag k="name" v="Barsenggrunnen" />
		<tag k="natural" v="water" />
		<tag k="ssr:stedsnr" v="134179" />
	</node>
	<node lat="63.85239722357539" lon="11.00097777146187" id="-35893">
		<tag k="name" v="Perstjønna" />
		<tag k="natural" v="water" />
		<tag k="ssr:stedsnr" v="134673" />
	</node>
	<node lat="63.85908055709215" lon="10.950888878868216" id="-35895">
		<tag k="name" v="Litlgørtjønna" />
=======
	<node id="-794905" lat="63.7728888892" lon="10.8281166661">
		<tag k="name" v="Kilastamnan" />
		<tag k="natural" v="water" />
		<tag k="ssr:stedsnr" v="438762" />
	</node>
	<node id="-794769" lat="63.9060249998" lon="11.2427083363">
		<tag k="name" v="Kråkåsvatnet" />
		<tag k="natural" v="water" />
		<tag k="ssr:stedsnr" v="378091" />
	</node>
	<node id="-795280" lat="63.8780694462" lon="10.942611109">
		<tag k="name" v="Geitåstjønna" />
		<tag k="natural" v="water" />
		<tag k="ssr:stedsnr" v="803709" />
	</node>
	<node id="-794766" lat="63.802494441" lon="10.8408611095">
		<tag k="name" v="Gåstjønnbekken" />
		<tag k="ssr:stedsnr" v="377848" />
		<tag k="waterway" v="stream" />
	</node>
	<node id="-795276" lat="63.7903194413" lon="10.843680563">
		<tag k="name" v="Lomtjønna" />
		<tag k="natural" v="water" />
		<tag k="ssr:stedsnr" v="803876" />
	</node>
	<node id="-794050" lat="63.9051916695" lon="11.1862722275">
		<tag k="name" v="Bergselva" />
		<tag k="ssr:stedsnr" v="899248" />
		<tag k="waterway" v="stream" />
	</node>
	<node id="-793226" lat="63.848938887" lon="11.3896583383">
		<tag k="name" v="Osbekken" />
		<tag k="ssr:stedsnr" v="231045" />
		<tag k="waterway" v="stream" />
	</node>
	<node id="-794903" lat="63.8576194419" lon="10.8807444369">
		<tag k="name" v="Uggtjønna" />
		<tag k="natural" v="water" />
		<tag k="ssr:stedsnr" v="438660" />
	</node>
	<node id="-794666" lat="63.8158361083" lon="10.7898388906">
		<tag k="name" v="Litjdrilen" />
		<tag k="natural" v="water" />
		<tag k="ssr:stedsnr" v="317772" />
	</node>
	<node id="-793537" lat="63.7791333306" lon="10.8676527748">
		<tag k="name" v="Hundtjønna" />
		<tag k="natural" v="water" />
		<tag k="ssr:stedsnr" v="291522" />
	</node>
	<node id="-794244" lat="63.8509361098" lon="10.9588250013">
		<tag k="name" v="Svarttjønna" />
		<tag k="natural" v="water" />
		<tag k="ssr:stedsnr" v="13670" />
	</node>
	<node id="-794390" lat="63.7808138926" lon="10.9288972292">
		<tag k="name" v="Sautjønna" />
		<tag k="natural" v="water" />
		<tag k="ssr:stedsnr" v="75825" />
	</node>
	<node id="-794242" lat="63.8531472256" lon="10.8525861173">
		<tag k="name" v="Røsvatnet" />
>>>>>>> e1d4bc35ff8a6074a6f2e91616a996b547c36f15
		<tag k="natural" v="water" />
		<tag k="ssr:stedsnr" v="134736" />
	</node>
<<<<<<< HEAD
	<node lat="63.86488889052492" lon="10.965352776231423" id="-35896">
		<tag k="name" v="Vennesvatnet" />
=======
	<node id="-795265" lat="63.8513305523" lon="10.9845472198">
		<tag k="name" v="Langvatnet" />
>>>>>>> e1d4bc35ff8a6074a6f2e91616a996b547c36f15
		<tag k="natural" v="water" />
		<tag k="ssr:stedsnr" v="134739" />
	</node>
<<<<<<< HEAD
	<node lat="63.818666663617115" lon="10.74253333301616" id="-35915">
		<tag k="name" v="Svarttjønna" />
=======
	<node id="-794240" lat="63.8142027743" lon="10.6908388891">
		<tag k="name" v="Prestvågvatnet" />
>>>>>>> e1d4bc35ff8a6074a6f2e91616a996b547c36f15
		<tag k="natural" v="water" />
		<tag k="ssr:stedsnr" v="135807" />
	</node>
<<<<<<< HEAD
	<node lat="63.818658333460085" lon="10.784694452523134" id="-35916">
		<tag k="name" v="Fjellvassbekken" />
		<tag k="ssr:stedsnr" v="135809" />
		<tag k="waterway" v="stream" />
	</node>
	<node lat="63.766202773726654" lon="10.945830545631429" id="-35923">
		<tag k="name" v="Nøkkeltjønna" />
=======
	<node id="-795263" lat="63.85290278" lon="11.0163361035">
		<tag k="name" v="Heitjønna" />
		<tag k="natural" v="water" />
		<tag k="ssr:stedsnr" v="802703" />
	</node>
	<node id="-795262" lat="63.7760472193" lon="10.9489222256">
		<tag k="name" v="Djuptjønna" />
>>>>>>> e1d4bc35ff8a6074a6f2e91616a996b547c36f15
		<tag k="natural" v="water" />
		<tag k="ssr:stedsnr" v="135782" />
	</node>
<<<<<<< HEAD
	<node lat="63.83705833546854" lon="10.932324994638206" id="-35926">
		<tag k="name" v="Tjønnbekken" />
		<tag k="ssr:stedsnr" v="146455" />
		<tag k="waterway" v="stream" />
	</node>
	<node lat="63.88292499833438" lon="10.994661104174241" id="-35934">
		<tag k="name" v="Hognesbekken" />
		<tag k="ssr:stedsnr" v="147754" />
		<tag k="waterway" v="stream" />
	</node>
	<node lat="63.80788611412269" lon="10.777011106584899" id="-35942">
		<tag k="name" v="Grøttjønnbekken" />
		<tag k="ssr:stedsnr" v="229423" />
		<tag k="waterway" v="stream" />
	</node>
	<node lat="63.806711106973474" lon="10.671750008286978" id="-35969">
		<tag k="name" v="Hårfjellelva" />
		<tag k="ssr:stedsnr" v="169377" />
		<tag k="waterway" v="river" />
	</node>
	<node lat="63.857444441957796" lon="10.902563896020242" id="-35973">
		<tag k="name" v="Heibekken" />
		<tag k="ssr:stedsnr" v="169600" />
		<tag k="waterway" v="stream" />
	</node>
	<node lat="63.84702777872188" lon="10.937519436791776" id="-35974">
		<tag k="name" v="Grøttjønnbekken" />
		<tag k="ssr:stedsnr" v="169729" />
		<tag k="waterway" v="stream" />
	</node>
	<node lat="63.82210833618219" lon="10.879836106165918" id="-35975">
		<tag k="name" v="Kattmagalona" />
=======
	<node id="-794236" lat="63.852805559" lon="11.4613638904">
		<tag k="name" v="Leklemvatnet" />
		<tag k="natural" v="water" />
		<tag k="ssr:stedsnr" v="13157" />
	</node>
	<node id="-795258" lat="63.7316055546" lon="10.8756472204">
		<tag k="name" v="Kalddalselva" />
		<tag k="ssr:stedsnr" v="802163" />
		<tag k="waterway" v="river" />
	</node>
	<node id="-794763" lat="63.8069777752" lon="10.9069222122">
		<tag k="name" v="Røsettjønna" />
		<tag k="natural" v="water" />
		<tag k="ssr:stedsnr" v="377832" />
	</node>
	<node id="-795254" lat="63.8302222195" lon="10.9814666718">
		<tag k="name" v="Malidalsbekken" />
		<tag k="ssr:stedsnr" v="875824" />
		<tag k="waterway" v="stream" />
	</node>
	<node id="-794228" lat="63.8249944418" lon="10.7273666653">
		<tag k="name" v="Iggeltjønna" />
		<tag k="natural" v="water" />
		<tag k="ssr:stedsnr" v="958564" />
	</node>
	<node id="-794739" lat="63.8715027816" lon="11.2299833291">
		<tag k="name" v="Volelva" />
		<tag k="ssr:stedsnr" v="353441" />
		<tag k="waterway" v="stream" />
	</node>
	<node id="-793712" lat="63.7970583315" lon="10.7443250081">
		<tag k="name" v="Svarttjønna" />
>>>>>>> e1d4bc35ff8a6074a6f2e91616a996b547c36f15
		<tag k="natural" v="water" />
		<tag k="ssr:stedsnr" v="169744" />
		<tag k="water" v="lake" />
	</node>
<<<<<<< HEAD
	<node lat="63.866694443789285" lon="10.850716666977167" id="-35980">
		<tag k="name" v="Tangen" />
		<tag k="natural" v="cape" />
		<tag k="ssr:stedsnr" v="169789" />
	</node>
	<node lat="63.74243888714417" lon="10.876244437953444" id="-35990">
		<tag k="name" v="Kjerkgårdsvatna" />
		<tag k="natural" v="water" />
		<tag k="ssr:stedsnr" v="195158" />
	</node>
	<node lat="63.83092777590069" lon="10.707494450279915" id="-35992">
		<tag k="name" v="Inntjønna" />
=======
	<node id="-793710" lat="63.8085444452" lon="10.8373333372">
		<tag k="name" v="Stokkleivvatnet" />
		<tag k="natural" v="water" />
		<tag k="ssr:stedsnr" v="439857" />
	</node>
	<node id="-793708" lat="63.9046166659" lon="11.1920472235">
		<tag k="name" v="Byaelva" />
		<tag k="ssr:stedsnr" v="656227" />
		<tag k="waterway" v="stream" />
	</node>
	<node id="-795410" lat="63.7492722235" lon="10.8456027867">
		<tag k="name" v="Ålvasslona" />
		<tag k="natural" v="water" />
		<tag k="ssr:stedsnr" v="958369" />
		<tag k="water" v="lake" />
	</node>
	<node id="-795242" lat="63.821975" lon="10.8181833424">
		<tag k="name" v="Hårdbandtjønna" />
>>>>>>> e1d4bc35ff8a6074a6f2e91616a996b547c36f15
		<tag k="natural" v="water" />
		<tag k="ssr:stedsnr" v="195519" />
	</node>
<<<<<<< HEAD
	<node lat="63.775613886049946" lon="10.73762499633812" id="-35996">
		<tag k="name" v="Furuøya" />
		<tag k="place" v="islet" />
		<tag k="ssr:stedsnr" v="195784" />
	</node>
	<node lat="63.77762777407536" lon="10.854233327316722" id="-35997">
		<tag k="name" v="Gilbergtjønna" />
		<tag k="natural" v="water" />
		<tag k="ssr:stedsnr" v="195786" />
	</node>
	<node lat="63.80566389312335" lon="10.68715833852552" id="-36008">
		<tag k="name" v="Lomtjønnin" />
		<tag k="natural" v="water" />
		<tag k="ssr:stedsnr" v="196422" />
	</node>
	<node lat="63.842897226044364" lon="10.990683323798676" id="-36014">
		<tag k="name" v="Brandrostjønna" />
		<tag k="natural" v="water" />
		<tag k="ssr:stedsnr" v="196587" />
	</node>
	<node lat="63.872894447210115" lon="10.890216658136705" id="-36017">
		<tag k="name" v="Vikavatnet" />
=======
	<node id="-793703" lat="63.9030111117" lon="11.1522222223">
		<tag k="name" v="Langengelva" />
		<tag k="ssr:stedsnr" v="656321" />
		<tag k="waterway" v="stream" />
	</node>
	<node id="-793702" lat="63.9055111086" lon="11.2818250048">
		<tag k="name" v="Granaelva" />
		<tag k="ssr:stedsnr" v="656093" />
		<tag k="waterway" v="stream" />
	</node>
	<node id="-795409" lat="63.7482472199" lon="10.8665833337">
		<tag k="name" v="Koltjønnlona" />
		<tag k="natural" v="water" />
		<tag k="ssr:stedsnr" v="957397" />
		<tag k="water" v="lake" />
	</node>
	<node id="-794721" lat="63.8318472186" lon="10.7305777772">
		<tag k="name" v="Stamtjønnbekken" />
		<tag k="ssr:stedsnr" v="351532" />
		<tag k="waterway" v="stream" />
	</node>
	<node id="-793183" lat="63.7815722198" lon="10.9192083294">
		<tag k="name" v="Bjørstadvatnet" />
		<tag k="natural" v="water" />
		<tag k="ssr:stedsnr" v="14721" />
	</node>
	<node id="-794205" lat="63.873505558" lon="10.93379445">
		<tag k="name" v="Bekkan" />
		<tag k="ssr:stedsnr" v="898818" />
		<tag k="waterway" v="stream" />
	</node>
	<node id="-793180" lat="63.8333722187" lon="10.9913527837">
		<tag k="name" v="Lauvburtjønna" />
		<tag k="natural" v="water" />
		<tag k="ssr:stedsnr" v="14609" />
	</node>
	<node id="-794554" lat="63.806711107" lon="10.6717500083">
		<tag k="name" v="Hårfjellelva" />
		<tag k="ssr:stedsnr" v="169377" />
		<tag k="waterway" v="river" />
	</node>
	<node id="-794755" lat="63.862741671" lon="10.9105583388">
		<tag k="name" v="Tverråa" />
		<tag k="ssr:stedsnr" v="377706" />
		<tag k="waterway" v="stream" />
	</node>
	<node id="-794980" lat="63.8202666658" lon="10.8303972248">
		<tag k="name" v="Vestre Lauvtjønna" />
		<tag k="natural" v="water" />
		<tag k="old_name" v="Lauvtjørna, yt;Lauvtjønnin" />
		<tag k="ssr:stedsnr" v="559813" />
	</node>
	<node id="-794671" lat="63.7968527769" lon="10.865000005">
		<tag k="name" v="Svarttjønna" />
		<tag k="natural" v="water" />
		<tag k="ssr:stedsnr" v="317831" />
	</node>
	<node id="-794197" lat="63.8853250009" lon="11.3898972148">
		<tag k="name" v="Lorvikelva" />
		<tag k="ssr:stedsnr" v="872811" />
		<tag k="waterway" v="stream" />
	</node>
	<node id="-794191" lat="63.7995444443" lon="10.9346472191">
		<tag k="name" v="Slira" />
		<tag k="ssr:stedsnr" v="863828" />
		<tag k="waterway" v="river" />
	</node>
	<node id="-793783" lat="63.8211055589" lon="10.924033338">
		<tag k="name" v="Holbekken" />
		<tag k="ssr:stedsnr" v="681829" />
		<tag k="waterway" v="stream" />
	</node>
	<node id="-793220" lat="63.7744833338" lon="10.8629250075">
		<tag k="name" v="Hundtjønnbekken" />
		<tag k="ssr:stedsnr" v="230484" />
		<tag k="waterway" v="stream" />
	</node>
	<node id="-793441" lat="63.9178861094" lon="11.2208138821">
		<tag k="name" v="Skjemstadvatnet" />
		<tag k="natural" v="water" />
		<tag k="ssr:stedsnr" v="196113" />
	</node>
	<node id="-795201" lat="63.8030805581" lon="10.9987666653">
		<tag k="name" v="Sundsetbekken" />
		<tag k="ssr:stedsnr" v="753829" />
		<tag k="waterway" v="stream" />
	</node>
	<node id="-794853" lat="63.8060194429" lon="10.7320305562">
		<tag k="name" v="Bjønnatjønnbekken" />
		<tag k="ssr:stedsnr" v="412422" />
		<tag k="waterway" v="stream" />
	</node>
	<node id="-793440" lat="63.9077027794" lon="11.2656361205">
		<tag k="name" v="Granavatnet" />
		<tag k="natural" v="water" />
		<tag k="ssr:stedsnr" v="196111" />
	</node>
	<node id="-794684" lat="63.7968555538" lon="10.9156138827">
		<tag k="name" v="Stordalsvatnet" />
>>>>>>> e1d4bc35ff8a6074a6f2e91616a996b547c36f15
		<tag k="natural" v="water" />
		<tag k="ssr:stedsnr" v="196679" />
	</node>
<<<<<<< HEAD
	<node lat="63.83933888951589" lon="10.952038892861784" id="-36024">
		<tag k="name" v="Høgfossen" />
		<tag k="natural" v="waterfall" />
		<tag k="ssr:stedsnr" v="196656" />
	</node>
	<node lat="63.86026944516592" lon="11.038572226959763" id="-36041">
		<tag k="name" v="Kvitbekken" />
		<tag k="ssr:stedsnr" v="208774" />
		<tag k="waterway" v="stream" />
	</node>
	<node lat="63.7953972182508" lon="10.796199996024162" id="-36100">
		<tag k="name" v="Liaunnesa" />
		<tag k="natural" v="cape" />
		<tag k="ssr:stedsnr" v="290419" />
	</node>
	<node lat="63.78668056005001" lon="10.793074991941198" id="-36101">
		<tag k="name" v="Trondsneset" />
		<tag k="natural" v="cape" />
		<tag k="ssr:stedsnr" v="290423" />
	</node>
	<node lat="63.821094447395915" lon="10.843013896722484" id="-36104">
		<tag k="name" v="Austre Lauvtjønna" />
		<tag k="natural" v="water" />
		<tag k="ssr:stedsnr" v="290511" />
	</node>
	<node lat="63.85853055680714" lon="10.928130555779948" id="-36106">
		<tag k="name" v="Agnetlona" />
=======
	<node id="-794681" lat="63.7873861151" lon="10.9294749911">
		<tag k="name" v="Bjørstadvassneset" />
		<tag k="natural" v="cape" />
		<tag k="ssr:stedsnr" v="328454" />
	</node>
	<node id="-793654" lat="63.8553611104" lon="11.0455305528">
		<tag k="name" v="Skavdalsbekken" />
		<tag k="ssr:stedsnr" v="388823" />
		<tag k="waterway" v="stream" />
	</node>
	<node id="-793653" lat="63.869944445" lon="11.4963222297">
		<tag k="name" v="Skardstjønna" />
		<tag k="natural" v="water" />
		<tag k="ssr:stedsnr" v="386957" />
	</node>
	<node id="-795188" lat="63.8620222229" lon="11.4848166654">
		<tag k="name" v="Svarttjønna" />
		<tag k="natural" v="water" />
		<tag k="ssr:stedsnr" v="750947" />
	</node>
	<node id="-793651" lat="63.7897444475" lon="10.8324361079">
		<tag k="name" v="Gulltjønna" />
		<tag k="natural" v="water" />
		<tag k="ssr:stedsnr" v="499843" />
	</node>
	<node id="-794162" lat="63.7819972263" lon="10.8082305605">
		<tag k="name" v="Storholmen" />
		<tag k="place" v="islet" />
		<tag k="ssr:stedsnr" v="803757" />
	</node>
	<node id="-794161" lat="63.7804138857" lon="10.8142583372">
		<tag k="name" v="Kilabukta" />
		<tag k="natural" v="bay" />
		<tag k="ssr:stedsnr" v="803755" />
	</node>
	<node id="-794672" lat="63.7910888914" lon="10.8559305567">
		<tag k="name" v="Smørtjønna" />
>>>>>>> e1d4bc35ff8a6074a6f2e91616a996b547c36f15
		<tag k="natural" v="water" />
		<tag k="ssr:stedsnr" v="290716" />
		<tag k="water" v="lake" />
	</node>
<<<<<<< HEAD
	<node lat="63.82314166395839" lon="10.781874996028467" id="-36108">
		<tag k="name" v="Heitjønna" />
=======
	<node id="-795183" lat="63.785591665" lon="10.8251638855">
		<tag k="name" v="Geiltjønna" />
>>>>>>> e1d4bc35ff8a6074a6f2e91616a996b547c36f15
		<tag k="natural" v="water" />
		<tag k="ssr:stedsnr" v="291553" />
	</node>
<<<<<<< HEAD
	<node lat="63.8057750013259" lon="10.687400002468548" id="-36109">
		<tag k="name" v="Vestre Lomtjønna" />
=======
	<node id="-794670" lat="63.7926000044" lon="10.9602777731">
		<tag k="name" v="Blomåstjønna" />
>>>>>>> e1d4bc35ff8a6074a6f2e91616a996b547c36f15
		<tag k="natural" v="water" />
		<tag k="ssr:stedsnr" v="291414" />
	</node>
<<<<<<< HEAD
	<node lat="63.779133330589126" lon="10.867652774802362" id="-36110">
		<tag k="name" v="Hundtjønna" />
		<tag k="natural" v="water" />
		<tag k="ssr:stedsnr" v="291522" />
	</node>
	<node lat="63.746733329917" lon="10.870408325317511" id="-36117">
		<tag k="name" v="Koltjønna" />
		<tag k="natural" v="water" />
		<tag k="ssr:stedsnr" v="316172" />
	</node>
	<node lat="63.81583610831339" lon="10.789838890599958" id="-36137">
		<tag k="name" v="Litjdrilen" />
		<tag k="natural" v="water" />
		<tag k="ssr:stedsnr" v="317772" />
	</node>
	<node lat="63.75538611172922" lon="10.859791665608348" id="-36138">
		<tag k="name" v="Ålvatnet" />
=======
	<node id="-793645" lat="63.7681805548" lon="10.8218916646">
		<tag k="name" v="Bjørntjønna" />
		<tag k="natural" v="water" />
		<tag k="ssr:stedsnr" v="499770" />
	</node>
	<node id="-794668" lat="63.8040999997" lon="10.8246555593">
		<tag k="name" v="Liafossen" />
		<tag k="natural" v="waterfall" />
		<tag k="ssr:stedsnr" v="317818" />
	</node>
	<node id="-794154" lat="63.8726194448" lon="11.5090611043">
		<tag k="name" v="Stubbsetertjønna" />
		<tag k="natural" v="water" />
		<tag k="ssr:stedsnr" v="803178" />
	</node>
	<node id="-793641" lat="63.7712055579" lon="10.921708325">
		<tag k="name" v="Gørtjønna" />
>>>>>>> e1d4bc35ff8a6074a6f2e91616a996b547c36f15
		<tag k="natural" v="water" />
		<tag k="ssr:stedsnr" v="499750" />
	</node>
<<<<<<< HEAD
	<node lat="63.792600004414126" lon="10.960277773146993" id="-36139">
		<tag k="name" v="Blomåstjønna" />
=======
	<node id="-793640" lat="63.8703472262" lon="10.9273194436">
		<tag k="name" v="Markhusvatnet" />
>>>>>>> e1d4bc35ff8a6074a6f2e91616a996b547c36f15
		<tag k="natural" v="water" />
		<tag k="ssr:stedsnr" v="317828" />
	</node>
<<<<<<< HEAD
	<node lat="63.79685277686138" lon="10.865000004967268" id="-36140">
		<tag k="name" v="Svarttjønna" />
		<tag k="natural" v="water" />
		<tag k="ssr:stedsnr" v="317831" />
	</node>
	<node lat="63.79108889141847" lon="10.855930556733105" id="-36141">
		<tag k="name" v="Smørtjønna" />
=======
	<node id="-795174" lat="63.8349333348" lon="11.0186694422">
		<tag k="name" v="Langmyrtjønna" />
		<tag k="natural" v="water" />
		<tag k="ssr:stedsnr" v="742639" />
	</node>
	<node id="-794142" lat="63.7871250029" lon="10.7873305495">
		<tag k="name" v="Bjørnsundet" />
		<tag k="natural" v="strait" />
		<tag k="ssr:stedsnr" v="924858" />
	</node>
	<node id="-794141" lat="63.7966138876" lon="10.8280916608">
		<tag k="name" v="Storlitjønna" />
>>>>>>> e1d4bc35ff8a6074a6f2e91616a996b547c36f15
		<tag k="natural" v="water" />
		<tag k="ssr:stedsnr" v="317832" />
	</node>
<<<<<<< HEAD
	<node lat="63.79685555384301" lon="10.915613882747909" id="-36150">
=======
	<node id="-794140" lat="63.7925000023" lon="10.8920472134">
>>>>>>> e1d4bc35ff8a6074a6f2e91616a996b547c36f15
		<tag k="name" v="Stordalsvatnet" />
		<tag k="natural" v="water" />
		<tag k="ssr:stedsnr" v="328593" />
		<tag k="water" v="lake" />
	</node>
<<<<<<< HEAD
	<node lat="63.83184721856525" lon="10.730577777191263" id="-36182">
		<tag k="name" v="Stamtjønnbekken" />
		<tag k="ssr:stedsnr" v="351532" />
		<tag k="waterway" v="stream" />
	</node>
	<node lat="63.87150278163445" lon="11.229983329120483" id="-36195">
		<tag k="name" v="Volelva" />
		<tag k="ssr:stedsnr" v="353441" />
		<tag k="waterway" v="stream" />
	</node>
	<node lat="63.85996944199811" lon="11.178205552286167" id="-36198">
		<tag k="name" v="Melhuselva" />
		<tag k="ssr:stedsnr" v="353490" />
		<tag k="waterway" v="stream" />
	</node>
	<node lat="63.86274167104434" lon="10.910558338776173" id="-36222">
		<tag k="name" v="Tverråa" />
		<tag k="ssr:stedsnr" v="377706" />
		<tag k="waterway" v="stream" />
	</node>
	<node lat="63.8069777751855" lon="10.9069222121791" id="-36227">
		<tag k="name" v="Røsettjønna" />
=======
	<node id="-794138" lat="63.8201583313" lon="10.8481083328">
		<tag k="name" v="Tomtjønna" />
>>>>>>> e1d4bc35ff8a6074a6f2e91616a996b547c36f15
		<tag k="natural" v="water" />
		<tag k="ssr:stedsnr" v="377832" />
	</node>
<<<<<<< HEAD
	<node lat="63.80249444103421" lon="10.840861109462393" id="-36230">
		<tag k="name" v="Gåstjønnbekken" />
		<tag k="ssr:stedsnr" v="377848" />
		<tag k="waterway" v="stream" />
	</node>
	<node lat="63.90602499980796" lon="11.24270833631311" id="-36233">
		<tag k="name" v="Kråkåsvatnet" />
		<tag k="natural" v="water" />
		<tag k="ssr:stedsnr" v="378091" />
	</node>
	<node lat="63.813355552323294" lon="10.881977767431158" id="-36238">
		<tag k="name" v="Litjmeltingen" />
=======
	<node id="-795161" lat="63.9000833303" lon="11.2063444444">
		<tag k="name" v="Litjbråtelva" />
		<tag k="ssr:stedsnr" v="741595" />
		<tag k="waterway" v="stream" />
	</node>
	<node id="-794136" lat="63.8410666636" lon="10.9325527786">
		<tag k="name" v="Heibekken" />
		<tag k="ssr:stedsnr" v="924795" />
		<tag k="waterway" v="stream" />
	</node>
	<node id="-794372" lat="63.7709500039" lon="10.8210138939">
		<tag k="name" v="Lomtjønna" />
		<tag k="natural" v="water" />
		<tag k="ssr:stedsnr" v="74757" />
	</node>
	<node id="-794134" lat="63.7739166708" lon="10.9029416619">
		<tag k="name" v="Torsvatnet" />
>>>>>>> e1d4bc35ff8a6074a6f2e91616a996b547c36f15
		<tag k="natural" v="water" />
		<tag k="ssr:stedsnr" v="378849" />
	</node>
<<<<<<< HEAD
	<node lat="63.869944444995085" lon="11.49632222965719" id="-36240">
		<tag k="name" v="Skardstjønna" />
		<tag k="natural" v="water" />
		<tag k="ssr:stedsnr" v="386957" />
	</node>
	<node lat="63.855361110370936" lon="11.045530552792655" id="-36241">
		<tag k="name" v="Skavdalsbekken" />
		<tag k="ssr:stedsnr" v="388823" />
		<tag k="waterway" v="stream" />
	</node>
	<node lat="63.89467499890125" lon="10.933413886296632" id="-36248">
		<tag k="name" v="Dalaunbekken" />
		<tag k="old_name" v="Dalaunkammen" />
		<tag k="ssr:stedsnr" v="390831" />
		<tag k="waterway" v="stream" />
	</node>
	<node lat="63.79464444497469" lon="10.72064444446911" id="-36289">
		<tag k="name" v="Furukambekken" />
		<tag k="ssr:stedsnr" v="411432" />
		<tag k="waterway" v="stream" />
	</node>
	<node lat="63.80601944289043" lon="10.732030556164139" id="-36293">
		<tag k="name" v="Bjønnatjønnbekken" />
		<tag k="ssr:stedsnr" v="412422" />
		<tag k="waterway" v="stream" />
	</node>
	<node lat="63.8084416704124" lon="10.724480561358186" id="-36294">
		<tag k="name" v="Mebakkelva" />
		<tag k="ssr:stedsnr" v="412426" />
		<tag k="waterway" v="river" />
	</node>
	<node lat="63.813333330908634" lon="10.67309723029076" id="-36297">
		<tag k="name" v="Prestvågelva" />
		<tag k="ssr:stedsnr" v="412352" />
		<tag k="waterway" v="river" />
	</node>
	<node lat="63.782422219926694" lon="10.870063884014373" id="-36298">
		<tag k="name" v="Lomurtjønna" />
=======
	<node id="-794129" lat="63.8857305547" lon="10.9317333283">
		<tag k="name" v="Langdalsvatnet" />
>>>>>>> e1d4bc35ff8a6074a6f2e91616a996b547c36f15
		<tag k="natural" v="water" />
		<tag k="ssr:stedsnr" v="412462" />
	</node>
<<<<<<< HEAD
	<node lat="63.809499995950794" lon="10.906216657243922" id="-36303">
		<tag k="name" v="Solbekken" />
		<tag k="ssr:stedsnr" v="412476" />
		<tag k="waterway" v="stream" />
	</node>
	<node lat="63.87218611489438" lon="11.214594439345007" id="-36313">
		<tag k="name" v="Bølelva" />
		<tag k="ssr:stedsnr" v="413461" />
		<tag k="waterway" v="stream" />
	</node>
	<node lat="63.85773611077746" lon="10.921836112046034" id="-36329">
		<tag k="name" v="Agnettjønna" />
=======
	<node id="-794128" lat="63.8695249955" lon="10.8979277833">
		<tag k="name" v="Gørpøyla" />
		<tag k="place" v="locality" />
		<tag k="ssr:stedsnr" v="924676" />
	</node>
	<node id="-795150" lat="63.8212555524" lon="10.8955305455">
		<tag k="name" v="Bjørktjønnin" />
>>>>>>> e1d4bc35ff8a6074a6f2e91616a996b547c36f15
		<tag k="natural" v="water" />
		<tag k="ssr:stedsnr" v="438656" />
	</node>
<<<<<<< HEAD
	<node lat="63.857619441879024" lon="10.88074443692724" id="-36330">
		<tag k="name" v="Uggtjønna" />
=======
	<node id="-794582" lat="63.775613886" lon="10.7376249963">
		<tag k="name" v="Furuøya" />
		<tag k="place" v="islet" />
		<tag k="ssr:stedsnr" v="195784" />
	</node>
	<node id="-794122" lat="63.8325472255" lon="10.9972305457">
		<tag k="name" v="Småtjønna" />
>>>>>>> e1d4bc35ff8a6074a6f2e91616a996b547c36f15
		<tag k="natural" v="water" />
		<tag k="ssr:stedsnr" v="438660" />
	</node>
<<<<<<< HEAD
	<node lat="63.846905554542595" lon="10.972722216249894" id="-36336">
		<tag k="name" v="Stamtjønna" />
=======
	<node id="-793649" lat="63.7985388918" lon="10.8849694407">
		<tag k="name" v="Smørbekken" />
		<tag k="ssr:stedsnr" v="499823" />
		<tag k="waterway" v="stream" />
	</node>
	<node id="-794119" lat="63.8506694402" lon="10.9415749901">
		<tag k="name" v="Storgørtjønna" />
>>>>>>> e1d4bc35ff8a6074a6f2e91616a996b547c36f15
		<tag k="natural" v="water" />
		<tag k="ssr:stedsnr" v="438641" />
	</node>
<<<<<<< HEAD
	<node lat="63.761133336501786" lon="10.901333332619616" id="-36339">
		<tag k="name" v="Svarttjønna" />
=======
	<node id="-795141" lat="63.7931194437" lon="10.671024996">
		<tag k="name" v="Valdskiftdalen" />
>>>>>>> e1d4bc35ff8a6074a6f2e91616a996b547c36f15
		<tag k="natural" v="water" />
		<tag k="ssr:stedsnr" v="438791" />
	</node>
<<<<<<< HEAD
	<node lat="63.81249999600348" lon="10.749486119998071" id="-36348">
		<tag k="name" v="Otertjønna" />
=======
	<node id="-794116" lat="63.8438472266" lon="10.9967916687">
		<tag k="name" v="Ringartjønna" />
>>>>>>> e1d4bc35ff8a6074a6f2e91616a996b547c36f15
		<tag k="natural" v="water" />
		<tag k="ssr:stedsnr" v="439839" />
	</node>
<<<<<<< HEAD
	<node lat="63.814194441348086" lon="10.791219447680072" id="-36349">
		<tag k="name" v="Agnettjønna" />
		<tag k="natural" v="water" />
		<tag k="ssr:stedsnr" v="439840" />
	</node>
	<node lat="63.797058331528255" lon="10.744325008102088" id="-36352">
		<tag k="name" v="Svarttjønna" />
		<tag k="natural" v="water" />
		<tag k="ssr:stedsnr" v="439890" />
	</node>
	<node lat="63.87034722624383" lon="10.927319443591564" id="-36363">
		<tag k="name" v="Markhusvatnet" />
		<tag k="natural" v="water" />
		<tag k="ssr:stedsnr" v="499647" />
	</node>
	<node lat="63.87231388861963" lon="11.466308332433375" id="-36372">
		<tag k="loc_name" v="Røflotjønna" />
		<tag k="name" v="Svarttjønna" />
		<tag k="natural" v="water" />
		<tag k="ssr:stedsnr" v="499133" />
	</node>
	<node lat="63.771205557883306" lon="10.921708324982877" id="-36379">
		<tag k="name" v="Gørtjønna" />
		<tag k="natural" v="water" />
		<tag k="ssr:stedsnr" v="499750" />
	</node>
	<node lat="63.76818055479143" lon="10.821891664550927" id="-36383">
		<tag k="name" v="Bjørntjønna" />
		<tag k="natural" v="water" />
		<tag k="ssr:stedsnr" v="499770" />
	</node>
	<node lat="63.79853889177898" lon="10.884969440682138" id="-36385">
		<tag k="name" v="Smørbekken" />
		<tag k="ssr:stedsnr" v="499823" />
		<tag k="waterway" v="stream" />
	</node>
	<node lat="63.80558888892241" lon="10.74725277504144" id="-36431">
		<tag k="name" v="Bjønnatjønna" />
		<tag k="natural" v="water" />
		<tag k="ssr:stedsnr" v="533458" />
	</node>
	<node lat="63.85603610967623" lon="10.871000002730414" id="-36435">
		<tag k="name" v="Uggtjønnbekken" />
		<tag k="ssr:stedsnr" v="533630" />
		<tag k="waterway" v="stream" />
	</node>
	<node lat="63.84388888756656" lon="10.965174996824821" id="-36436">
		<tag k="name" v="Stamtjønnbekken" />
		<tag k="ssr:stedsnr" v="533763" />
		<tag k="waterway" v="stream" />
	</node>
	<node lat="63.744686114690914" lon="10.85237776977836" id="-36444">
		<tag k="name" v="Gåstjønna" />
		<tag k="natural" v="water" />
		<tag k="ssr:stedsnr" v="558163" />
	</node>
	<node lat="63.84509999637082" lon="11.020861116110293" id="-36456">
		<tag k="name" v="Bergsetertjønna" />
		<tag k="natural" v="water" />
		<tag k="ssr:stedsnr" v="559648" />
	</node>
	<node lat="63.85724166378469" lon="10.990844451011474" id="-36457">
		<tag k="name" v="Småtjønnin" />
		<tag k="natural" v="water" />
		<tag k="ssr:stedsnr" v="559660" />
	</node>
	<node lat="63.778030552795144" lon="10.820333343041892" id="-36465">
		<tag k="name" v="Kvernbekken" />
		<tag k="ssr:stedsnr" v="559762" />
		<tag k="waterway" v="stream" />
	</node>
	<node lat="63.781902778335294" lon="10.721452787518867" id="-36476">
		<tag k="name" v="Slåttdalsneset" />
		<tag k="natural" v="cape" />
		<tag k="ssr:stedsnr" v="560765" />
	</node>
	<node lat="63.83268610913143" lon="11.043666676196239" id="-36487">
		<tag k="name" v="Aunbekken" />
		<tag k="ssr:stedsnr" v="572794" />
		<tag k="waterway" v="stream" />
	</node>
	<node lat="63.75648889307479" lon="10.900561115280327" id="-36503">
		<tag k="name" v="Svartbekken" />
		<tag k="ssr:stedsnr" v="592337" />
		<tag k="waterway" v="stream" />
	</node>
	<node lat="63.80613055297829" lon="10.897608333739578" id="-36505">
		<tag k="name" v="Røssettjønnbekken" />
		<tag k="ssr:stedsnr" v="593478" />
		<tag k="waterway" v="stream" />
	</node>
	<node lat="63.83808055555488" lon="10.875416672724416" id="-36512">
		<tag k="name" v="Solskinstjønna" />
		<tag k="natural" v="water" />
		<tag k="ssr:stedsnr" v="593677" />
	</node>
	<node lat="63.81780278042723" lon="10.692355563386506" id="-36522">
		<tag k="name" v="Litltjønna" />
		<tag k="natural" v="water" />
		<tag k="ssr:stedsnr" v="619536" />
	</node>
	<node lat="63.7489972259638" lon="10.892369451877384" id="-36523">
		<tag k="name" v="Gåstjønna" />
		<tag k="natural" v="water" />
		<tag k="ssr:stedsnr" v="619198" />
	</node>
	<node lat="63.840844442718165" lon="10.7608444446709" id="-36538">
		<tag k="name" v="Otertjønna" />
		<tag k="natural" v="water" />
		<tag k="ssr:stedsnr" v="620644" />
	</node>
	<node lat="63.8327305570817" lon="10.89067222075262" id="-36541">
		<tag k="name" v="Svarttjønnbekken" />
		<tag k="ssr:stedsnr" v="620654" />
		<tag k="waterway" v="stream" />
	</node>
	<node lat="63.859791670329685" lon="11.009033332105144" id="-36543">
		<tag k="name" v="Selsetstamtjønna" />
		<tag k="natural" v="water" />
		<tag k="ssr:stedsnr" v="620702" />
	</node>
	<node lat="63.805927780104255" lon="10.860525003094594" id="-36545">
		<tag k="name" v="Frosktjønna" />
		<tag k="natural" v="water" />
		<tag k="ssr:stedsnr" v="620841" />
	</node>
	<node lat="63.86458333143504" lon="11.48745277212958" id="-36556">
		<tag k="name" v="Floåstjønna" />
		<tag k="natural" v="water" />
		<tag k="ssr:stedsnr" v="629969" />
	</node>
	<node lat="63.754069442508495" lon="10.925911108398163" id="-36562">
		<tag k="name" v="Elvkroken" />
		<tag k="place" v="locality" />
		<tag k="ssr:stedsnr" v="631571" />
	</node>
	<node lat="63.90551110858548" lon="11.281825004828294" id="-36586">
		<tag k="name" v="Granaelva" />
		<tag k="ssr:stedsnr" v="656093" />
		<tag k="waterway" v="stream" />
	</node>
	<node lat="63.798355558734094" lon="10.817755560135476" id="-36596">
		<tag k="name" v="Dammen" />
		<tag k="ssr:stedsnr" v="654455" />
		<tag k="waterway" v="dam" />
	</node>
	<node lat="63.78156666249103" lon="10.734861104719853" id="-36597">
		<tag k="name" v="Kringelholmen" />
		<tag k="place" v="islet" />
		<tag k="ssr:stedsnr" v="654467" />
	</node>
	<node lat="63.821255552441926" lon="10.895530545502476" id="-36605">
		<tag k="name" v="Bjørktjønnin" />
		<tag k="natural" v="water" />
		<tag k="ssr:stedsnr" v="654761" />
	</node>
	<node lat="63.84707222073446" lon="10.917497231616265" id="-36608">
		<tag k="name" v="Heidammen" />
		<tag k="ssr:stedsnr" v="654772" />
		<tag k="waterway" v="dam" />
	</node>
	<node lat="63.92320277718833" lon="11.25768055724696" id="-36637">
		<tag k="name" v="Skålpundtjønna" />
		<tag k="natural" v="water" />
		<tag k="ssr:stedsnr" v="717061" />
	</node>
	<node lat="63.916463888538374" lon="11.21237778221885" id="-36643">
		<tag k="name" v="Hengjaelva" />
		<tag k="ssr:stedsnr" v="717258" />
		<tag k="waterway" v="stream" />
	</node>
	<node lat="63.73827500229987" lon="10.871977773063863" id="-36649">
		<tag k="name" v="Liabekken" />
		<tag k="ssr:stedsnr" v="741174" />
		<tag k="waterway" v="stream" />
	</node>
	<node lat="63.85631666928879" lon="11.45233055790766" id="-36650">
		<tag k="name" v="Solemstjønna" />
		<tag k="natural" v="water" />
		<tag k="ssr:stedsnr" v="741176" />
	</node>
	<node lat="63.861222220815165" lon="11.01788888825166" id="-36651">
		<tag k="name" v="Storsvebekken" />
		<tag k="ssr:stedsnr" v="741769" />
		<tag k="waterway" v="stream" />
	</node>
	<node lat="63.86125000016267" lon="10.940349996326217" id="-36653">
		<tag k="name" v="Vennesvassbekken" />
		<tag k="ssr:stedsnr" v="741773" />
		<tag k="waterway" v="stream" />
	</node>
	<node lat="63.866000000637214" lon="11.47051944820471" id="-36658">
		<tag k="name" v="Raudflovatnet" />
		<tag k="natural" v="water" />
		<tag k="ssr:stedsnr" v="742156" />
	</node>
	<node lat="63.78772500059138" lon="10.755047230151563" id="-36670">
		<tag k="alt_name" v="Sauøya" />
		<tag k="name" v="Sauøyin" />
		<tag k="place" v="islet" />
		<tag k="ssr:stedsnr" v="742754" />
	</node>
	<node lat="63.803080558113614" lon="10.998766665256658" id="-36682">
		<tag k="name" v="Sundsetbekken" />
		<tag k="ssr:stedsnr" v="753829" />
		<tag k="waterway" v="stream" />
	</node>
	<node lat="63.82197500002474" lon="10.818183342394558" id="-36718">
		<tag k="name" v="Hårdbandtjønna" />
		<tag k="natural" v="water" />
		<tag k="ssr:stedsnr" v="776548" />
	</node>
	<node lat="63.73160555456279" lon="10.875647220449562" id="-36730">
		<tag k="name" v="Kalddalselva" />
		<tag k="ssr:stedsnr" v="802163" />
		<tag k="waterway" v="river" />
	</node>
	<node lat="63.87261944482885" lon="11.509061104333954" id="-36735">
		<tag k="name" v="Stubbsetertjønna" />
		<tag k="natural" v="water" />
		<tag k="ssr:stedsnr" v="803178" />
	</node>
	<node lat="63.78041388565883" lon="10.814258337176181" id="-36752">
		<tag k="name" v="Kilabukta" />
		<tag k="natural" v="bay" />
		<tag k="ssr:stedsnr" v="803755" />
	</node>
	<node lat="63.781997226347634" lon="10.808230560535055" id="-36753">
		<tag k="name" v="Storholmen" />
		<tag k="place" v="islet" />
		<tag k="ssr:stedsnr" v="803757" />
	</node>
	<node lat="63.79031944128053" lon="10.843680563041106" id="-36758">
		<tag k="name" v="Lomtjønna" />
		<tag k="natural" v="water" />
		<tag k="ssr:stedsnr" v="803876" />
	</node>
	<node lat="63.95141389253848" lon="11.287855561104635" id="-36760">
		<tag k="name" v="Venåstjønna" />
		<tag k="natural" v="water" />
		<tag k="ssr:stedsnr" v="803914" />
	</node>
	<node lat="63.82479444197564" lon="10.90822500634594" id="-36806">
		<tag k="name" v="Sautjønna" />
		<tag k="natural" v="water" />
		<tag k="ssr:stedsnr" v="837751" />
	</node>
	<node lat="63.83772222548965" lon="10.864430556333417" id="-36829">
		<tag k="name" v="Solskinstjønnin" />
		<tag k="natural" v="water" />
		<tag k="ssr:stedsnr" v="863690" />
	</node>
	<node lat="63.79954444431656" lon="10.934647219096226" id="-36831">
		<tag k="name" v="Slira" />
		<tag k="ssr:stedsnr" v="863828" />
		<tag k="waterway" v="river" />
	</node>
=======
>>>>>>> e1d4bc35ff8a6074a6f2e91616a996b547c36f15
</osm>
