<?xml version="1.0" encoding="UTF-8"?>
<<<<<<< HEAD
<osm version="0.6" generator="osmapis">
	<node lat="63.85096966082439" lon="11.035689371985352" id="-35707">
=======
<osm generator="osmapis" version="0.6">
	<node id="-794942" lat="63.7331027775" lon="10.8844833418">
		<tag k="name" v="Kalddalen statsskog" />
		<tag k="place" v="locality" />
		<tag k="ssr:stedsnr" v="533299" />
	</node>
	<node id="-794845" lat="63.7838055513" lon="10.878486106">
		<tag k="name" v="Sliper og Høyfoss statsalmenning" />
		<tag k="place" v="locality" />
		<tag k="ssr:stedsnr" v="411333" />
	</node>
	<node id="-794679" lat="63.867861112" lon="11.494905558">
		<tag k="name" v="Heia statsallmenning" />
		<tag k="place" v="locality" />
		<tag k="ssr:stedsnr" v="326964" />
	</node>
	<node id="-795475" lat="63.8361294154" lon="10.8508690589">
>>>>>>> e1d4bc35ff8a6074a6f2e91616a996b547c36f15
		<tag k="fixme" v="consider boundary=protected_area and relevant protect_class if not nature reserve" />
		<tag k="leisure" v="nature_reserve" />
		<tag k="name" v="Skavdalen naturreservat" />
		<tag k="ssr:stedsnr" v="981193" />
	</node>
<<<<<<< HEAD
	<node lat="63.72228168375611" lon="10.84923487974302" id="-35708">
=======
	<node id="-795473" lat="63.7222816838" lon="10.8492348797">
>>>>>>> e1d4bc35ff8a6074a6f2e91616a996b547c36f15
		<tag k="fixme" v="consider boundary=protected_area and relevant protect_class if not nature reserve" />
		<tag k="leisure" v="nature_reserve" />
		<tag k="name" v="Kammen og Kalddalen naturreservat" />
		<tag k="ssr:stedsnr" v="981194" />
	</node>
<<<<<<< HEAD
	<node lat="63.86786111195413" lon="11.494905558016383" id="-36148">
		<tag k="name" v="Heia statsallmenning" />
		<tag k="place" v="locality" />
		<tag k="ssr:stedsnr" v="326964" />
	</node>
	<node lat="63.7838055513105" lon="10.878486106001139" id="-36288">
		<tag k="name" v="Sliper og Høyfoss statsalmenning" />
=======
	<node id="-795472" lat="63.8509696608" lon="11.035689372">
		<tag k="fixme" v="consider boundary=protected_area and relevant protect_class if not nature reserve" />
		<tag k="leisure" v="nature_reserve" />
		<tag k="name" v="Skavdalen naturreservat" />
		<tag k="ssr:stedsnr" v="981193" />
	</node>
	<node id="-794087" lat="63.8495361098" lon="11.0116111201">
		<tag k="name" v="Skavdal og Røshøy statsallmenning" />
>>>>>>> e1d4bc35ff8a6074a6f2e91616a996b547c36f15
		<tag k="place" v="locality" />
		<tag k="ssr:stedsnr" v="411333" />
	</node>
<<<<<<< HEAD
	<node lat="63.73310277749637" lon="10.884483341766982" id="-36426">
		<tag k="name" v="Kalddalen statsskog" />
		<tag k="place" v="locality" />
		<tag k="ssr:stedsnr" v="533299" />
	</node>
	<node lat="63.84953610983811" lon="11.011611120075306" id="-36719">
		<tag k="name" v="Skavdal og Røshøy statsallmenning" />
		<tag k="place" v="locality" />
		<tag k="ssr:stedsnr" v="776726" />
	</node>
=======
>>>>>>> e1d4bc35ff8a6074a6f2e91616a996b547c36f15
</osm>
