<?xml version="1.0" encoding="UTF-8"?>
<osm version="0.6" generator="osmapis">
	<node lat="63.86452500047922" lon="11.259858327143583" id="-92379">
		<tag k="name" v="Talgøra" />
		<tag k="natural" v="beach" />
		<tag k="ssr:stedsnr" v="231118" />
	</node>
	<node lat="63.96523333103635" lon="11.264036119924606" id="-92390">
		<tag k="name" v="Ålbergholmen" />
		<tag k="place" v="islet" />
		<tag k="ssr:stedsnr" v="13994" />
	</node>
	<node lat="63.84866666808751" lon="10.760027786502821" id="-92392">
		<tag k="name" v="Skalnestangen" />
		<tag k="natural" v="cape" />
		<tag k="ssr:stedsnr" v="14577" />
	</node>
	<node lat="63.84075833760543" lon="11.14767776978639" id="-92398">
		<tag k="alt_name" v="Rostadvika" />
		<tag k="name" v="Råvika" />
		<tag k="natural" v="bay" />
		<tag k="ssr:stedsnr" v="14625" />
	</node>
	<node lat="63.83109722104229" lon="10.679774990774842" id="-92421">
		<tag k="name" v="Sandbukta" />
		<tag k="natural" v="bay" />
		<tag k="ssr:stedsnr" v="28041" />
	</node>
	<node lat="63.89496944816268" lon="11.102477781967224" id="-92434">
		<tag k="name" v="Saltbuvika" />
		<tag k="natural" v="bay" />
		<tag k="ssr:stedsnr" v="44015" />
	</node>
	<node lat="63.85359999907783" lon="11.251530551992817" id="-92436">
		<tag k="name" v="Kvassen" />
		<tag k="natural" v="shoal" />
		<tag k="place" v="locality" />
		<tag k="ssr:stedsnr" v="45750" />
	</node>
	<node lat="63.93234999558871" lon="11.341841668808696" id="-92451">
		<tag k="name" v="Labergbukta" />
		<tag k="natural" v="bay" />
		<tag k="ssr:stedsnr" v="74027" />
	</node>
	<node lat="63.83925278030294" lon="11.132347222367118" id="-92467">
		<tag k="name" v="Slevika" />
		<tag k="natural" v="bay" />
		<tag k="ssr:stedsnr" v="75713" />
	</node>
	<node lat="63.90430555516826" lon="11.332708342550749" id="-92498">
		<tag k="name" v="Kobbøra" />
		<tag k="natural" v="shoal" />
		<tag k="place" v="locality" />
		<tag k="ssr:stedsnr" v="106372" />
	</node>
	<node lat="63.90245555502392" lon="11.120463893912643" id="-92513">
		<tag k="name" v="Jålåvika" />
		<tag k="natural" v="bay" />
		<tag k="ssr:stedsnr" v="110306" />
	</node>
	<node lat="63.985986114712574" lon="11.375074990788546" id="-92536">
		<tag k="name" v="Kalven" />
		<tag k="place" v="islet" />
		<tag k="ssr:stedsnr" v="135952" />
	</node>
	<node lat="63.864494443315984" lon="11.249149991605224" id="-92573">
		<tag k="name" v="Sundnes" />
		<tag k="natural" v="cape" />
		<tag k="old_name" v="Sund-nes" />
		<tag k="ssr:stedsnr" v="257187" />
	</node>
	<node lat="63.96488055650531" lon="11.27265833820552" id="-92586">
		<tag k="name" v="Byasjøen" />
		<tag k="natural" v="bay" />
		<tag k="ssr:stedsnr" v="167375" />
	</node>
	<node lat="63.867686107059676" lon="11.292950002014233" id="-92605">
		<tag k="name" v="Sundsneset" />
		<tag k="natural" v="cape" />
		<tag k="ssr:stedsnr" v="196177" />
	</node>
	<node lat="63.85627499872774" lon="11.053358338333485" id="-92615">
		<tag k="fixme" v="multiple name tags, choose one and add the other to alt_name" />
		<tag k="name" v="Øsneset;Finnjoneset" />
		<tag k="natural" v="cape" />
		<tag k="ssr:stedsnr" v="267871" />
	</node>
	<node lat="63.891758332980345" lon="10.978633331227345" id="-92625">
		<tag k="name" v="Sørvikbukta" />
		<tag k="natural" v="bay" />
		<tag k="ssr:stedsnr" v="208778" />
	</node>
	<node lat="63.733091663402554" lon="10.90917500723647" id="-92657">
		<tag k="name" v="Gurrudalsbukta" />
		<tag k="natural" v="bay" />
		<tag k="ssr:stedsnr" v="226285" />
	</node>
	<node lat="63.87090277430951" lon="11.360569435248188" id="-92698">
		<tag k="alt_name" v="Raudfossholmen" />
		<tag k="name" v="Klettholmen" />
		<tag k="place" v="islet" />
		<tag k="ssr:stedsnr" v="256172" />
	</node>
	<node lat="63.90614444368611" lon="11.14833610915635" id="-92699">
		<tag k="name" v="Letnesvågan" />
		<tag k="natural" v="bay" />
		<tag k="ssr:stedsnr" v="256475" />
	</node>
	<node lat="63.910086110318716" lon="11.134897227194465" id="-92700">
		<tag k="name" v="Korsholmen" />
		<tag k="place" v="islet" />
		<tag k="ssr:stedsnr" v="256477" />
	</node>
	<node lat="63.810763890057466" lon="11.00384999976147" id="-92717">
		<tag k="name" v="Per-Hansaholet" />
		<tag k="natural" v="bay" />
		<tag k="ssr:stedsnr" v="267810" />
	</node>
	<node lat="63.85636944029644" lon="11.20384722736445" id="-92750">
		<tag k="fixme" v="consider seamark:type=rock or natural=shoal" />
		<tag k="name" v="Saltbuskjæret" />
		<tag k="place" v="islet" />
		<tag k="ssr:stedsnr" v="292476" />
	</node>
	<node lat="63.82872778036935" lon="10.682400009039148" id="-92766">
		<tag k="alt_name" v="Kåvika" />
		<tag k="name" v="Vikan" />
		<tag k="natural" v="bay" />
		<tag k="ssr:stedsnr" v="316548" />
	</node>
	<node lat="63.83391389185042" lon="10.677019453090624" id="-92767">
		<tag k="name" v="Granholmen" />
		<tag k="place" v="islet" />
		<tag k="ssr:stedsnr" v="316550" />
	</node>
	<node lat="63.93793333614539" lon="11.361819435854738" id="-92768">
		<tag k="name" v="Gjørvsholmen" />
		<tag k="place" v="islet" />
		<tag k="ssr:stedsnr" v="317049" />
	</node>
	<node lat="63.979880553894816" lon="11.365644447998141" id="-92778">
		<tag k="name" v="Hustadøya" />
		<tag k="place" v="island" />
		<tag k="ssr:stedsnr" v="317954" />
	</node>
	<node lat="63.90688889026823" lon="11.131758327435563" id="-92784">
		<tag k="name" v="Vikavågen" />
		<tag k="natural" v="bay" />
		<tag k="ssr:stedsnr" v="469027" />
	</node>
	<node lat="63.870874997940575" lon="11.046636112308729" id="-92794">
		<tag k="name" v="Selsetvika" />
		<tag k="natural" v="bay" />
		<tag k="ssr:stedsnr" v="329707" />
	</node>
	<node lat="63.912777777457734" lon="11.140580546371886" id="-92795">
		<tag k="name" v="Korsholmflua" />
		<tag k="place" v="locality" />
		<tag k="seamark:type" v="rock" />
		<tag k="ssr:stedsnr" v="470736" />
	</node>
	<node lat="63.87262777561466" lon="11.304647229867559" id="-92796">
		<tag k="name" v="Sandvågen" />
		<tag k="natural" v="bay" />
		<tag k="ssr:stedsnr" v="470744" />
	</node>
	<node lat="63.855666666834445" lon="10.818661108909135" id="-92830">
		<tag k="name" v="Berga" />
		<tag k="natural" v="cape" />
		<tag k="ssr:stedsnr" v="347480" />
	</node>
	<node lat="63.916788886791906" lon="11.322524995802626" id="-92833">
		<tag k="name" v="Svartvika" />
		<tag k="natural" v="bay" />
		<tag k="ssr:stedsnr" v="348379" />
	</node>
	<node lat="63.96044166633996" lon="11.257652769422787" id="-92835">
		<tag k="fixme" v="consider seamark:type=rock or natural=shoal" />
		<tag k="loc_name" v="Ålbergskjæra" />
		<tag k="name" v="Hemreskjæra" />
		<tag k="place" v="islet" />
		<tag k="ssr:stedsnr" v="348504" />
	</node>
	<node lat="63.78356110806166" lon="10.785036119843681" id="-92842">
		<tag k="name" v="Øya" />
		<tag k="place" v="island" />
		<tag k="ssr:stedsnr" v="351473" />
	</node>
	<node lat="63.85838055902222" lon="11.072772216526902" id="-92877">
		<tag k="name" v="Ørdalneset" />
		<tag k="natural" v="cape" />
		<tag k="ssr:stedsnr" v="388850" />
	</node>
	<node lat="63.770066669352325" lon="10.905633326386237" id="-92968">
		<tag k="name" v="Flåttåstøa" />
		<tag k="natural" v="bay" />
		<tag k="ssr:stedsnr" v="471416" />
	</node>
	<node lat="63.82446388794556" lon="10.665238892228043" id="-92978">
		<tag k="name" v="Furuneset" />
		<tag k="natural" v="cape" />
		<tag k="ssr:stedsnr" v="680555" />
	</node>
	<node lat="63.97698888777415" lon="11.279436118162325" id="-92997">
		<tag k="alt_name" v="Stornesøra" />
		<tag k="name" v="Stornesørin" />
		<tag k="natural" v="shoal" />
		<tag k="place" v="locality" />
		<tag k="ssr:stedsnr" v="499983" />
	</node>
	<node lat="63.88623097355793" lon="11.022963699690534" id="-92999">
		<tag k="alt_name" v="Grandeørin" />
		<tag k="fixme" v="consider seamark:type=rock or natural=shoal" />
		<tag k="name" v="Grandørin" />
		<tag k="place" v="islet" />
		<tag k="ssr:stedsnr" v="681544" />
	</node>
	<node lat="63.90063333621462" lon="10.969583338612853" id="-93002">
		<tag k="name" v="Tåsteinen" />
		<tag k="natural" v="cape" />
		<tag k="ssr:stedsnr" v="681493" />
	</node>
	<node lat="63.872480555004486" lon="11.045538885283033" id="-93028">
		<tag k="loc_name" v="Finnefoten" />
		<tag k="name" v="Finnfoten" />
		<tag k="natural" v="bay" />
		<tag k="ssr:stedsnr" v="511719" />
	</node>
	<node lat="63.89418611116997" lon="10.974608332740923" id="-93030">
		<tag k="name" v="Naustneset" />
		<tag k="natural" v="cape" />
		<tag k="ssr:stedsnr" v="511815" />
	</node>
	<node lat="63.773069445724396" lon="10.72932222694965" id="-93054">
		<tag k="name" v="Furuøya" />
		<tag k="place" v="islet" />
		<tag k="ssr:stedsnr" v="533285" />
	</node>
	<node lat="63.97166110728173" lon="11.30205833996549" id="-93070">
		<tag k="name" v="Kvitklubben" />
		<tag k="natural" v="cape" />
		<tag k="ssr:stedsnr" v="540670" />
	</node>
	<node lat="63.90591666521926" lon="10.956644450495505" id="-93074">
		<tag k="name" v="Finnsvika" />
		<tag k="natural" v="bay" />
		<tag k="ssr:stedsnr" v="559506" />
	</node>
	<node lat="63.97639999862711" lon="11.290772228770672" id="-93085">
		<tag k="name" v="Midtøra" />
		<tag k="natural" v="cape" />
		<tag k="ssr:stedsnr" v="560981" />
	</node>
	<node lat="63.824655553939316" lon="11.037241661344172" id="-93105">
		<tag k="name" v="Balviktangen" />
		<tag k="natural" v="cape" />
		<tag k="ssr:stedsnr" v="572864" />
	</node>
	<node lat="63.72515555974285" lon="10.87505832383582" id="-93137">
		<tag k="name" v="Raudnosa" />
		<tag k="natural" v="cape" />
		<tag k="ssr:stedsnr" v="620173" />
	</node>
	<node lat="63.975433333429706" lon="11.284194446241276" id="-93144">
		<tag k="name" v="Ytterøra" />
		<tag k="natural" v="cape" />
		<tag k="ssr:stedsnr" v="620968" />
	</node>
	<node lat="63.734624996663314" lon="10.923013888287946" id="-93172">
		<tag k="name" v="Båtsmedtangen" />
		<tag k="natural" v="cape" />
		<tag k="ssr:stedsnr" v="650246" />
	</node>
	<node lat="63.90814444875625" lon="11.165111119224573" id="-93175">
		<tag k="name" v="Kjelviksjøen" />
		<tag k="natural" v="bay" />
		<tag k="ssr:stedsnr" v="652590" />
	</node>
	<node lat="63.86601110675464" lon="11.267713888660573" id="-93218">
		<tag k="name" v="Sundneshamn" />
		<tag k="natural" v="cape" />
		<tag k="ssr:stedsnr" v="681158" />
	</node>
	<node lat="63.86768888692098" lon="11.285933334386355" id="-93219">
		<tag k="name" v="Skoftin" />
		<tag k="place" v="islet" />
		<tag k="ssr:stedsnr" v="681162" />
	</node>
	<node lat="63.87297777478302" lon="11.334880556379007" id="-93221">
		<tag k="name" v="Rolsøya" />
		<tag k="place" v="islet" />
		<tag k="ssr:stedsnr" v="681168" />
	</node>
	<node lat="63.72417221876242" lon="10.867786109201292" id="-93235">
		<tag k="name" v="Kalddalsbukta" />
		<tag k="natural" v="bay" />
		<tag k="ssr:stedsnr" v="894295" />
	</node>
	<node lat="63.901997219077984" lon="10.966888884831036" id="-93238">
		<tag k="name" v="Aspvika" />
		<tag k="natural" v="bay" />
		<tag k="ssr:stedsnr" v="693822" />
	</node>
	<node lat="63.96723333452936" lon="11.264575005567565" id="-93241">
		<tag k="name" v="Skitgrunnen" />
		<tag k="natural" v="shoal" />
		<tag k="place" v="locality" />
		<tag k="ssr:stedsnr" v="895539" />
	</node>
	<node lat="63.93852778017082" lon="11.365058343086854" id="-93242">
		<tag k="name" v="Botnan" />
		<tag k="natural" v="bay" />
		<tag k="ssr:stedsnr" v="895449" />
	</node>
	<node lat="63.91024166537957" lon="10.960491665826774" id="-93243">
		<tag k="name" v="Småseigrunnen" />
		<tag k="natural" v="shoal" />
		<tag k="place" v="locality" />
		<tag k="ssr:stedsnr" v="895698" />
	</node>
	<node lat="63.89871666760714" lon="11.08588332762195" id="-93255">
		<tag k="name" v="Hoøygrunnen" />
		<tag k="natural" v="shoal" />
		<tag k="place" v="locality" />
		<tag k="ssr:stedsnr" v="712030" />
	</node>
	<node lat="63.87115277896743" lon="11.073297216700485" id="-93256">
		<tag k="name" v="Sandvika" />
		<tag k="natural" v="bay" />
		<tag k="ssr:stedsnr" v="712031" />
	</node>
	<node lat="63.905666663201536" lon="11.142527780222242" id="-93279">
		<tag k="name" v="Vagaholmen" />
		<tag k="natural" v="cape" />
		<tag k="ssr:stedsnr" v="717312" />
	</node>
	<node lat="63.86075277946394" lon="11.296944453330479" id="-93298">
		<tag k="name" v="Hundstangen" />
		<tag k="natural" v="cape" />
		<tag k="ssr:stedsnr" v="742140" />
	</node>
	<node lat="63.92882221871731" lon="11.34749165862043" id="-93338">
		<tag k="fixme" v="consider seamark:type=rock or natural=shoal" />
		<tag k="name" v="Bartnesskjæra" />
		<tag k="place" v="islet" />
		<tag k="ssr:stedsnr" v="773420" />
	</node>
	<node lat="63.85514166577045" lon="11.21948055460822" id="-93347">
		<tag k="name" v="Storholmen" />
		<tag k="place" v="islet" />
		<tag k="ssr:stedsnr" v="777062" />
	</node>
	<node lat="63.93635555509438" lon="11.213280548488408" id="-93362">
		<tag k="name" v="Galgsøya" />
		<tag k="place" v="island" />
		<tag k="ssr:stedsnr" v="803612" />
	</node>
	<node lat="63.837494440567625" lon="11.307924994682857" id="-93401">
		<tag k="alt_name" v="Høsholman" />
		<tag k="name" v="Høsholmen" />
		<tag k="place" v="islet" />
		<tag k="ssr:stedsnr" v="924218" />
	</node>
	<node lat="63.90291944071049" lon="10.966502781497907" id="-93409">
		<tag k="name" v="Aspvika" />
		<tag k="natural" v="bay" />
		<tag k="ssr:stedsnr" v="924469" />
	</node>
	<node lat="63.968738885320576" lon="11.311174999084916" id="-93429">
		<tag k="name" v="Klubben" />
		<tag k="place" v="islet" />
		<tag k="ssr:stedsnr" v="924863" />
	</node>
	<node lat="63.921772220108714" lon="11.205794453716234" id="-93468">
		<tag k="name" v="Finnbukta" />
		<tag k="natural" v="bay" />
		<tag k="ssr:stedsnr" v="896638" />
	</node>
	<node lat="63.800425004570634" lon="11.00952499449773" id="-93505">
		<tag k="name" v="Gråsteinvika" />
		<tag k="natural" v="bay" />
		<tag k="ssr:stedsnr" v="935854" />
	</node>
	<node lat="63.84086944154582" lon="11.153152779138807" id="-93525">
		<tag k="name" v="Rostadneset" />
		<tag k="natural" v="cape" />
		<tag k="ssr:stedsnr" v="956793" />
	</node>
	<node lat="63.7555333354193" lon="10.873508331335364" id="-93526">
		<tag k="name" v="Flåttåstøa" />
		<tag k="natural" v="bay" />
		<tag k="ssr:stedsnr" v="957393" />
	</node>
	<node lat="63.92960000362993" lon="11.207647215999824" id="-93570">
		<tag k="name" v="Galgsøysundet" />
		<tag k="natural" v="strait" />
		<tag k="ssr:stedsnr" v="14536" />
	</node>
	<node lat="63.97437777749264" lon="11.358327776283025" id="-93588">
		<tag k="name" v="Bernvågtangen" />
		<tag k="natural" v="cape" />
		<tag k="ssr:stedsnr" v="14979" />
	</node>
	<node lat="63.884069440671844" lon="11.373250007472194" id="-93603">
		<tag k="name" v="Leirvikleiret" />
		<tag k="natural" v="shoal" />
		<tag k="place" v="locality" />
		<tag k="ssr:stedsnr" v="46865" />
	</node>
	<node lat="63.72152222526203" lon="10.859691669342606" id="-93629">
		<tag k="fixme" v="consider seamark:type=rock or natural=shoal" />
		<tag k="name" v="Skomakaren" />
		<tag k="place" v="islet" />
		<tag k="ssr:stedsnr" v="44261" />
	</node>
	<node lat="63.90156111207184" lon="11.328702780263301" id="-93630">
		<tag k="name" v="Bossnesleiret" />
		<tag k="natural" v="shoal" />
		<tag k="place" v="locality" />
		<tag k="ssr:stedsnr" v="45390" />
	</node>
	<node lat="63.852852775865884" lon="10.861022224545964" id="-93639">
		<tag k="name" v="Storholmen" />
		<tag k="place" v="islet" />
		<tag k="ssr:stedsnr" v="47698" />
	</node>
	<node lat="63.97434166290905" lon="11.366263885659816" id="-93649">
		<tag k="name" v="Krokstangen" />
		<tag k="natural" v="cape" />
		<tag k="ssr:stedsnr" v="49284" />
	</node>
	<node lat="63.85091389164413" lon="11.307127770684241" id="-93660">
		<tag k="name" v="Vikaholmen" />
		<tag k="natural" v="cape" />
		<tag k="ssr:stedsnr" v="74130" />
	</node>
	<node lat="63.834509621806355" lon="10.678675879824805" id="-93696">
		<tag k="name" v="Krabbvågen" />
		<tag k="natural" v="bay" />
		<tag k="ssr:stedsnr" v="89038" />
	</node>
	<node lat="63.84761944079987" lon="11.211686109008285" id="-93716">
		<tag k="name" v="Seiflua" />
		<tag k="place" v="locality" />
		<tag k="seamark:type" v="rock" />
		<tag k="ssr:stedsnr" v="106799" />
	</node>
	<node lat="63.809444443155556" lon="11.320641676649073" id="-93718">
		<tag k="name" v="Fjordgrunntaren" />
		<tag k="natural" v="shoal" />
		<tag k="place" v="locality" />
		<tag k="ssr:stedsnr" v="107831" />
	</node>
	<node lat="63.862430555139774" lon="11.24570555242496" id="-93761">
		<tag k="alt_name" v="Sundnestangen" />
		<tag k="name" v="Sundnesneset" />
		<tag k="natural" v="cape" />
		<tag k="ssr:stedsnr" v="135139" />
	</node>
	<node lat="63.86546111282697" lon="11.229725003435018" id="-93764">
		<tag k="fixme" v="multiple name tags, choose one and add the other to alt_name" />
		<tag k="name" v="Hjulstadholmen;Vollholmen" />
		<tag k="place" v="islet" />
		<tag k="ssr:stedsnr" v="135159" />
	</node>
	<node lat="63.89658889267973" lon="10.97078054856306" id="-93828">
		<tag k="name" v="Vestvikbukta" />
		<tag k="natural" v="bay" />
		<tag k="ssr:stedsnr" v="165492" />
	</node>
	<node lat="63.73811944063369" lon="10.93486111321601" id="-93829">
		<tag k="name" v="Naustvollskjæret" />
		<tag k="natural" v="cape" />
		<tag k="ssr:stedsnr" v="165548" />
	</node>
	<node lat="63.937430553348435" lon="11.345041664880329" id="-93833">
		<tag k="fixme" v="consider seamark:type=rock or natural=shoal" />
		<tag k="name" v="Kløvstadleiret" />
		<tag k="place" v="islet" />
		<tag k="ssr:stedsnr" v="166434" />
	</node>
	<node lat="63.835822218548664" lon="11.228255554025461" id="-93837">
		<tag k="name" v="Skallen" />
		<tag k="natural" v="shoal" />
		<tag k="place" v="locality" />
		<tag k="ssr:stedsnr" v="167800" />
	</node>
	<node lat="63.757902776934706" lon="10.864402775631163" id="-93838">
		<tag k="name" v="Sandbukta" />
		<tag k="natural" v="bay" />
		<tag k="ssr:stedsnr" v="168398" />
	</node>
	<node lat="63.868366664993474" lon="11.231555549044836" id="-93857">
		<tag k="name" v="Volleiret" />
		<tag k="natural" v="shoal" />
		<tag k="place" v="locality" />
		<tag k="ssr:stedsnr" v="171491" />
	</node>
	<node lat="63.719277779286706" lon="10.848611109196995" id="-93865">
		<tag k="fixme" v="consider seamark:type=rock or natural=shoal" />
		<tag k="name" v="Raudsteinen" />
		<tag k="place" v="islet" />
		<tag k="ssr:stedsnr" v="195200" />
	</node>
	<node lat="63.80564722129381" lon="11.31318056080841" id="-93881">
		<tag k="alt_name" v="Fjordskjeret;Fjordgrunnskjæret" />
		<tag k="fixme" v="consider seamark:type=rock or natural=shoal" />
		<tag k="name" v="Fjordskjæret" />
		<tag k="place" v="islet" />
		<tag k="ssr:stedsnr" v="196263" />
	</node>
	<node lat="63.87957222479563" lon="11.044866674222304" id="-93918">
		<tag k="loc_name" v="Finnsvika" />
		<tag k="name" v="Finsvika" />
		<tag k="natural" v="bay" />
		<tag k="ssr:stedsnr" v="208767" />
	</node>
	<node lat="63.75029166388458" lon="10.95980000927354" id="-93925">
		<tag k="name" v="Kvernhusbukta" />
		<tag k="natural" v="bay" />
		<tag k="ssr:stedsnr" v="219364" />
	</node>
	<node lat="63.925172218923166" lon="11.344577772939115" id="-93954">
		<tag k="name" v="Bartnestangen" />
		<tag k="natural" v="cape" />
		<tag k="ssr:stedsnr" v="227428" />
	</node>
	<node lat="63.93772222355113" lon="11.35223333483415" id="-93955">
		<tag k="name" v="Kuklumpan" />
		<tag k="natural" v="cape" />
		<tag k="ssr:stedsnr" v="227430" />
	</node>
	<node lat="63.83929722503081" lon="10.695744436976094" id="-93956">
		<tag k="name" v="Glenntangen" />
		<tag k="natural" v="cape" />
		<tag k="ssr:stedsnr" v="227726" />
	</node>
	<node lat="63.75882499981619" lon="10.967958333363015" id="-93962">
		<tag k="name" v="Nygardsvika" />
		<tag k="natural" v="bay" />
		<tag k="ssr:stedsnr" v="279351" />
	</node>
	<node lat="63.84062499929295" lon="11.407438895195135" id="-93964">
		<tag k="name" v="Hærneset" />
		<tag k="natural" v="cape" />
		<tag k="ssr:stedsnr" v="283601" />
	</node>
	<node lat="63.90428888665375" lon="11.14376667169191" id="-93983">
		<tag k="name" v="Sandvikvågen" />
		<tag k="natural" v="bay" />
		<tag k="ssr:stedsnr" v="287017" />
	</node>
	<node lat="63.98238611406107" lon="11.358580552902534" id="-93986">
		<tag k="name" v="Geitolgrunnen" />
		<tag k="natural" v="shoal" />
		<tag k="place" v="locality" />
		<tag k="ssr:stedsnr" v="288256" />
	</node>
	<node lat="63.810272219080026" lon="11.33482500498172" id="-93987">
		<tag k="name" v="Skallen" />
		<tag k="natural" v="shoal" />
		<tag k="place" v="locality" />
		<tag k="ssr:stedsnr" v="288821" />
	</node>
	<node lat="63.85333888459116" lon="11.214788892756308" id="-94016">
		<tag k="name" v="Kvamsholmen" />
		<tag k="place" v="islet" />
		<tag k="ssr:stedsnr" v="317597" />
	</node>
	<node lat="63.82483888551229" lon="11.03357499081285" id="-94026">
		<tag k="name" v="Dalabukta" />
		<tag k="natural" v="bay" />
		<tag k="ssr:stedsnr" v="317769" />
	</node>
	<node lat="63.86587777622071" lon="10.851705557507143" id="-94067">
		<tag k="name" v="Sandabukta" />
		<tag k="natural" v="bay" />
		<tag k="ssr:stedsnr" v="347483" />
	</node>
	<node lat="63.93813610999578" lon="11.225374999365574" id="-94069">
		<tag k="name" v="Galgsøyvågen" />
		<tag k="natural" v="bay" />
		<tag k="ssr:stedsnr" v="349645" />
	</node>
	<node lat="63.8162055532669" lon="10.65821111123066" id="-94074">
		<tag k="name" v="Størvikbukta" />
		<tag k="natural" v="bay" />
		<tag k="ssr:stedsnr" v="351371" />
	</node>
	<node lat="63.83907500183317" lon="10.676269452047697" id="-94111">
		<tag k="name" v="Trongsundet" />
		<tag k="natural" v="strait" />
		<tag k="ssr:stedsnr" v="377468" />
	</node>
	<node lat="63.90105833011985" lon="10.937352779668215" id="-94112">
		<tag k="name" v="Ramsbergbukta" />
		<tag k="natural" v="bay" />
		<tag k="ssr:stedsnr" v="377500" />
	</node>
	<node lat="63.80452777387852" lon="11.006274990616104" id="-94122">
		<tag k="name" v="Sundsetvika" />
		<tag k="natural" v="bay" />
		<tag k="ssr:stedsnr" v="377818" />
	</node>
	<node lat="63.80853611539411" lon="11.010480561221641" id="-94124">
		<tag k="alt_name" v="Nestangen" />
		<tag k="name" v="Halsnes" />
		<tag k="natural" v="cape" />
		<tag k="ssr:stedsnr" v="377828" />
	</node>
	<node lat="63.97493611098242" lon="11.295211116584845" id="-94137">
		<tag k="name" v="Naustholmen" />
		<tag k="place" v="islet" />
		<tag k="ssr:stedsnr" v="378976" />
	</node>
	<node lat="63.75575833438045" lon="10.964030559544646" id="-94151">
		<tag k="name" v="Høylasstangen" />
		<tag k="natural" v="cape" />
		<tag k="ssr:stedsnr" v="400348" />
	</node>
	<node lat="63.75456666391557" lon="10.962922221345181" id="-94152">
		<tag k="name" v="Steinkaia" />
		<tag k="place" v="locality" />
		<tag k="seamark:type" v="rock" />
		<tag k="ssr:stedsnr" v="400351" />
	</node>
	<node lat="63.75731666595421" lon="10.965755557453926" id="-94153">
		<tag k="name" v="Brattåkerbukta" />
		<tag k="natural" v="bay" />
		<tag k="ssr:stedsnr" v="400353" />
	</node>
	<node lat="63.87943610863428" lon="11.306991658958918" id="-94188">
		<tag k="name" v="Røsethamna" />
		<tag k="natural" v="bay" />
		<tag k="ssr:stedsnr" v="409728" />
	</node>
	<node lat="63.839508334079945" lon="11.313922215227155" id="-94191">
		<tag k="fixme" v="consider seamark:type=rock or natural=shoal" />
		<tag k="name" v="Revet" />
		<tag k="place" v="islet" />
		<tag k="ssr:stedsnr" v="410815" />
	</node>
	<node lat="63.79669444577766" lon="10.90233889598453" id="-94206">
		<tag k="name" v="Storbukta" />
		<tag k="natural" v="bay" />
		<tag k="ssr:stedsnr" v="412475" />
	</node>
	<node lat="63.86671944670194" lon="11.305799993128295" id="-94254">
		<tag k="name" v="Sundsøya" />
		<tag k="place" v="islet" />
		<tag k="ssr:stedsnr" v="439129" />
	</node>
	<node lat="63.97076666313908" lon="11.304902771172879" id="-94264">
		<tag k="name" v="Brenntangen" />
		<tag k="natural" v="cape" />
		<tag k="ssr:stedsnr" v="439976" />
	</node>
	<node lat="63.972430554372494" lon="11.376541661467325" id="-94265">
		<tag k="name" v="Kroksvågen" />
		<tag k="natural" v="bay" />
		<tag k="ssr:stedsnr" v="439988" />
	</node>
	<node lat="63.89482778024594" lon="11.08169445042851" id="-94275">
		<tag k="name" v="Hoøya" />
		<tag k="place" v="islet" />
		<tag k="ssr:stedsnr" v="499491" />
	</node>
	<node lat="63.866336109434386" lon="11.04491666662599" id="-94306">
		<tag k="loc_name" v="Kvernavika" />
		<tag k="name" v="Kvennavika" />
		<tag k="natural" v="bay" />
		<tag k="ssr:stedsnr" v="511721" />
	</node>
	<node lat="63.83761111458007" lon="11.09429999428152" id="-94311">
		<tag k="alt_name" v="Vangsholmen" />
		<tag k="fixme" v="consider seamark:type=rock or natural=shoal" />
		<tag k="name" v="Storskjæret" />
		<tag k="place" v="islet" />
		<tag k="ssr:stedsnr" v="510888" />
	</node>
	<node lat="63.90615555658121" lon="11.089802787918924" id="-94350">
		<tag k="name" v="Fjordgrunnen" />
		<tag k="natural" v="shoal" />
		<tag k="place" v="locality" />
		<tag k="ssr:stedsnr" v="529020" />
	</node>
	<node lat="63.83254166613763" lon="11.405686115742121" id="-94381">
		<tag k="name" v="Hyllbukta" />
		<tag k="natural" v="bay" />
		<tag k="ssr:stedsnr" v="559215" />
	</node>
	<node lat="63.896066667906204" lon="11.005330559438793" id="-94474">
		<tag k="name" v="Giplingøya" />
		<tag k="place" v="islet" />
		<tag k="ssr:stedsnr" v="620535" />
	</node>
	<node lat="63.83946666433064" lon="11.091919452554905" id="-94479">
		<tag k="name" v="Vangshylla" />
		<tag k="natural" v="cape" />
		<tag k="ssr:stedsnr" v="620626" />
	</node>
	<node lat="63.904444441291794" lon="10.940730552375623" id="-94505">
		<tag k="name" v="Straumsnes" />
		<tag k="natural" v="cape" />
		<tag k="ssr:stedsnr" v="632784" />
	</node>
	<node lat="63.87340000401974" lon="10.862011108786092" id="-94526">
		<tag k="name" v="Gustvika" />
		<tag k="natural" v="bay" />
		<tag k="ssr:stedsnr" v="650454" />
	</node>
	<node lat="63.854130555261214" lon="11.311902768208876" id="-94527">
		<tag k="name" v="Vikaleiret" />
		<tag k="natural" v="shoal" />
		<tag k="place" v="locality" />
		<tag k="ssr:stedsnr" v="652828" />
	</node>
	<node lat="63.87194166909587" lon="11.308772227163956" id="-94528">
		<tag k="name" v="Ligrunnan" />
		<tag k="natural" v="shoal" />
		<tag k="place" v="locality" />
		<tag k="ssr:stedsnr" v="652721" />
	</node>
	<node lat="63.904219447351004" lon="11.137144439280725" id="-94567">
		<tag k="name" v="Midtivågen" />
		<tag k="natural" v="bay" />
		<tag k="ssr:stedsnr" v="712023" />
	</node>
	<node lat="63.844455554091965" lon="11.289902785479113" id="-94569">
		<tag k="name" v="Grøtnesgrunnen" />
		<tag k="natural" v="shoal" />
		<tag k="place" v="locality" />
		<tag k="ssr:stedsnr" v="713828" />
	</node>
	<node lat="63.863999998521756" lon="11.295947214987493" id="-94592">
		<tag k="name" v="Sundssanden" />
		<tag k="natural" v="beach" />
		<tag k="ssr:stedsnr" v="717100" />
	</node>
	<node lat="63.863915208579584" lon="11.06358054317213" id="-94616">
		<tag k="name" v="Skarnsundet" />
		<tag k="natural" v="strait" />
		<tag k="ssr:stedsnr" v="742723" />
	</node>
	<node lat="63.81072500105998" lon="11.002111105682292" id="-94633">
		<tag k="name" v="Katthølet" />
		<tag k="natural" v="bay" />
		<tag k="ssr:stedsnr" v="753793" />
	</node>
	<node lat="63.877501995205215" lon="11.074933183625152" id="-94638">
		<tag k="name" v="Noremssjøen" />
		<tag k="natural" v="bay" />
		<tag k="ssr:stedsnr" v="754751" />
	</node>
	<node lat="63.834069448126435" lon="11.055538898829937" id="-94640">
		<tag k="name" v="Litjbreivika" />
		<tag k="natural" v="bay" />
		<tag k="ssr:stedsnr" v="754769" />
	</node>
	<node lat="63.79260833184613" lon="11.004994448467441" id="-94663">
		<tag k="name" v="Sanden" />
		<tag k="natural" v="beach" />
		<tag k="ssr:stedsnr" v="772032" />
	</node>
	<node lat="63.839038888878775" lon="11.122666666990568" id="-94664">
		<tag k="name" v="Labergståa" />
		<tag k="natural" v="cape" />
		<tag k="ssr:stedsnr" v="772035" />
	</node>
	<node lat="63.86761944149387" lon="11.23739443511966" id="-94665">
		<tag k="name" v="Sundnesleiret" />
		<tag k="natural" v="shoal" />
		<tag k="place" v="locality" />
		<tag k="ssr:stedsnr" v="773744" />
	</node>
	<node lat="63.776791663778276" lon="10.987202784779004" id="-94737">
		<tag k="name" v="Hamnatangen" />
		<tag k="natural" v="cape" />
		<tag k="ssr:stedsnr" v="825316" />
	</node>
	<node lat="63.89219722113088" lon="10.977344434946723" id="-94764">
		<tag k="name" v="Kjelen" />
		<tag k="natural" v="bay" />
		<tag k="ssr:stedsnr" v="833505" />
	</node>
	<node lat="63.84219721982205" lon="11.228336108195554" id="-94765">
		<tag k="name" v="Rossegrunnen" />
		<tag k="natural" v="shoal" />
		<tag k="place" v="locality" />
		<tag k="ssr:stedsnr" v="834793" />
	</node>
	<node lat="63.973658334603144" lon="11.367408340251911" id="-94816">
		<tag k="name" v="Tangen" />
		<tag k="natural" v="cape" />
		<tag k="ssr:stedsnr" v="864989" />
	</node>
	<node lat="63.87331111534737" lon="11.049097230464433" id="-94831">
		<tag k="fixme" v="consider seamark:type=rock or natural=shoal" />
		<tag k="loc_name" v="Bruraskjæret" />
		<tag k="name" v="Bruraskjeret" />
		<tag k="place" v="islet" />
		<tag k="ssr:stedsnr" v="876788" />
	</node>
	<node lat="63.866725001099276" lon="10.846180554966484" id="-94862">
		<tag k="name" v="Fjordgrunnen" />
		<tag k="natural" v="shoal" />
		<tag k="place" v="locality" />
		<tag k="ssr:stedsnr" v="954475" />
	</node>
	<node lat="63.90774166947428" lon="11.325444443210673" id="-94863">
		<tag k="name" v="Verdalsleiret" />
		<tag k="natural" v="shoal" />
		<tag k="place" v="locality" />
		<tag k="ssr:stedsnr" v="955385" />
	</node>
	<node lat="63.83717499576057" lon="10.6806138863977" id="-94864">
		<tag k="name" v="Leirvika" />
		<tag k="natural" v="bay" />
		<tag k="ssr:stedsnr" v="956755" />
	</node>
</osm>
