<?xml version="1.0" encoding="UTF-8"?>
<osm version="0.6" generator="osmapis">
	<node lat="70.01795004208726" lon="29.305315409434034" id="-49340">
		<tag k="name" v="Vikstraumbukta" />
		<tag k="natural" v="bay" />
		<tag k="ssr:stedsnr" v="231846" />
	</node>
	<node lat="70.22884725024694" lon="28.739210173478394" id="-49341">
		<tag k="name" v="Jorbmejohka" />
		<tag k="name:se" v="Jorbmejohka" />
		<tag k="old_name:se" v="Jårbmejåkka" />
		<tag k="ssr:stedsnr" v="19802" />
		<tag k="waterway" v="stream" />
	</node>
	<node lat="70.17689447460246" lon="28.677565723562463" id="-49342">
		<tag k="name" v="Álddanjárga - Meskelv" />
		<tag k="name:no" v="Meskelv" />
		<tag k="name:se" v="Álddanjárga" />
		<tag k="place" v="hamlet" />
		<tag k="ssr:stedsnr" v="19839" />
	</node>
	<node lat="70.18437503455506" lon="28.97186005548146" id="-49343">
		<tag k="name" v="Guollejávrrit" />
		<tag k="name:se" v="Guollejávrrit" />
		<tag k="natural" v="water" />
		<tag k="old_name:se" v="Guollejavrit" />
		<tag k="ssr:stedsnr" v="19739" />
		<tag k="water" v="lake" />
	</node>
	<node lat="70.15588891657251" lon="28.565765750324562" id="-49344">
		<tag k="name" v="Njiđggujohka - Vesterelva" />
		<tag k="name:no" v="Vesterelva" />
		<tag k="name:se" v="Njiđggujohka" />
		<tag k="old_name:se" v="Njiđgojåkka" />
		<tag k="ssr:stedsnr" v="20451" />
		<tag k="waterway" v="river" />
	</node>
	<node lat="70.05410926355043" lon="29.049882625212675" id="-49345">
		<tag k="name" v="Byluft" />
		<tag k="name:no" v="Byluft" />
		<tag k="place" v="farm" />
		<tag k="ssr:stedsnr" v="20688" />
	</node>
	<node lat="70.04752781177814" lon="29.00796833665172" id="-49346">
		<tag k="name" v="Jeageloaivi" />
		<tag k="name:se" v="Jeageloaivi" />
		<tag k="natural" v="hill" />
		<tag k="old_name:se" v="Jægeloaivi" />
		<tag k="place" v="locality" />
		<tag k="ssr:stedsnr" v="20690" />
	</node>
	<node lat="70.3008472558324" lon="28.845782357789115" id="-49347">
		<tag k="fixme" v="consider natural=peak for the most distinct mountains in the district" />
		<tag k="name" v="Davitvárri" />
		<tag k="name:se" v="Davitvárri" />
		<tag k="natural" v="hill" />
		<tag k="old_name:se" v="Davitvarri" />
		<tag k="place" v="locality" />
		<tag k="ssr:stedsnr" v="20993" />
	</node>
	<node lat="70.30380003387408" lon="29.02107672873937" id="-49348">
		<tag k="fixme" v="consider natural=peak for the most distinct mountains in the district" />
		<tag k="name" v="Boaltunoaivi" />
		<tag k="name:se" v="Boaltunoaivi" />
		<tag k="natural" v="hill" />
		<tag k="old_name:se" v="Boaltonoaivi" />
		<tag k="place" v="locality" />
		<tag k="ssr:stedsnr" v="20997" />
	</node>
	<node lat="70.17069447366875" lon="28.75710180198417" id="-49349">
		<tag k="name" v="Marmenjárga - Mørmenes" />
		<tag k="name:no" v="Mørmenes" />
		<tag k="name:se" v="Marmenjárga" />
		<tag k="natural" v="cape" />
		<tag k="ssr:stedsnr" v="26507" />
	</node>
	<node lat="70.16532780477507" lon="28.781412906093898" id="-49350">
		<tag k="name" v="Ottereŋnjárga" />
		<tag k="name:se" v="Ottereŋnjárga" />
		<tag k="natural" v="cape" />
		<tag k="ssr:stedsnr" v="26484" />
	</node>
	<node lat="70.10301391921897" lon="28.56983520117756" id="-49351">
		<tag k="name" v="Sirddagohguolbba" />
		<tag k="name:se" v="Sirddagohguolbba" />
		<tag k="place" v="locality" />
		<tag k="ssr:stedsnr" v="26701" />
	</node>
	<node lat="70.19681391894909" lon="28.387021387368765" id="-49352">
		<tag k="name" v="Jorrinjávrrit" />
		<tag k="name:se" v="Jorrinjávrrit" />
		<tag k="natural" v="water" />
		<tag k="ssr:stedsnr" v="27031" />
	</node>
	<node lat="70.18858892341991" lon="28.93926841512919" id="-49353">
		<tag k="name" v="Stuorraroggejohka" />
		<tag k="name:se" v="Stuorraroggejohka" />
		<tag k="ssr:stedsnr" v="27103" />
		<tag k="waterway" v="stream" />
	</node>
	<node lat="70.08910836347924" lon="28.80598230507441" id="-49354">
		<tag k="name" v="Bealsagohppi" />
		<tag k="name:se" v="Bealsagohppi" />
		<tag k="natural" v="bay" />
		<tag k="ssr:stedsnr" v="28182" />
	</node>
	<node lat="70.07337781474689" lon="28.81239897318847" id="-49355">
		<tag k="name" v="Čohkki" />
		<tag k="name:se" v="Čohkki" />
		<tag k="natural" v="hill" />
		<tag k="place" v="locality" />
		<tag k="ssr:stedsnr" v="28223" />
	</node>
	<node lat="70.17773336151984" lon="28.77543790023398" id="-49356">
		<tag k="fixme" v="consider natural=peak for the most distinct mountains in the district" />
		<tag k="name" v="Uhcaváráš" />
		<tag k="name:se" v="Uhcaváráš" />
		<tag k="natural" v="hill" />
		<tag k="place" v="locality" />
		<tag k="ssr:stedsnr" v="28518" />
	</node>
	<node lat="70.07259725529866" lon="28.83897674945411" id="-49357">
		<tag k="name" v="Ájakanjunni" />
		<tag k="name:se" v="Ájakanjunni" />
		<tag k="natural" v="hill" />
		<tag k="place" v="locality" />
		<tag k="ssr:stedsnr" v="29218" />
	</node>
	<node lat="70.07311392224486" lon="28.853346182562024" id="-49358">
		<tag k="name" v="Ántenjárga" />
		<tag k="name:se" v="Ántenjárga" />
		<tag k="natural" v="cape" />
		<tag k="ssr:stedsnr" v="29231" />
	</node>
	<node lat="70.06377503251473" lon="28.87810171457224" id="-49359">
		<tag k="name" v="Boazoaivi" />
		<tag k="name:se" v="Boazoaivi" />
		<tag k="natural" v="hill" />
		<tag k="place" v="locality" />
		<tag k="ssr:stedsnr" v="29232" />
	</node>
	<node lat="70.06845558626156" lon="28.912796161248608" id="-49360">
		<tag k="name" v="Háššajávri" />
		<tag k="name:se" v="Háššajávri" />
		<tag k="natural" v="water" />
		<tag k="ssr:stedsnr" v="30529" />
	</node>
	<node lat="70.0699833684142" lon="28.900657277827683" id="-49361">
		<tag k="name" v="Birggetáhkku" />
		<tag k="name:se" v="Birggetáhkku" />
		<tag k="natural" v="water" />
		<tag k="ssr:stedsnr" v="30533" />
	</node>
	<node lat="70.06382225521966" lon="28.902273944748416" id="-49362">
		<tag k="name" v="Sikkájárbávttit" />
		<tag k="name:se" v="Sikkájárbávttit" />
		<tag k="natural" v="hill" />
		<tag k="place" v="locality" />
		<tag k="ssr:stedsnr" v="30537" />
	</node>
	<node lat="70.04744170934697" lon="29.141909942063965" id="-49363">
		<tag k="name" v="Nieidaváhnjárga" />
		<tag k="name:se" v="Nieidaváhnjárga" />
		<tag k="natural" v="cape" />
		<tag k="ssr:stedsnr" v="30628" />
	</node>
	<node lat="70.0237611506938" lon="29.13863494972413" id="-49364">
		<tag k="name" v="Pierasáttu" />
		<tag k="name:se" v="Pierasáttu" />
		<tag k="natural" v="beach" />
		<tag k="ssr:stedsnr" v="30639" />
	</node>
	<node lat="70.02924448144373" lon="29.17177380276926" id="-49365">
		<tag k="name" v="Sárairvvinjárga" />
		<tag k="name:se" v="Sárairvvinjárga" />
		<tag k="natural" v="cape" />
		<tag k="ssr:stedsnr" v="30642" />
	</node>
	<node lat="70.03375836875831" lon="29.151871051810076" id="-49366">
		<tag k="name" v="Njuorjjoaivi" />
		<tag k="name:se" v="Njuorjjoaivi" />
		<tag k="natural" v="hill" />
		<tag k="place" v="locality" />
		<tag k="ssr:stedsnr" v="30643" />
	</node>
	<node lat="70.01195281350545" lon="29.159532137887542" id="-49367">
		<tag k="name" v="Rággošnjárga - Steinnes" />
		<tag k="name:no" v="Steinnes" />
		<tag k="name:se" v="Rággošnjárga" />
		<tag k="natural" v="cape" />
		<tag k="ssr:stedsnr" v="30709" />
	</node>
	<node lat="70.1724555878742" lon="28.607318527330857" id="-49369">
		<tag k="fixme" v="consider seamark:type=rock or natural=shoal" />
		<tag k="name" v="Nyborgskjæret" />
		<tag k="name:no" v="Nyborgskjæret" />
		<tag k="place" v="islet" />
		<tag k="ssr:stedsnr" v="48322" />
	</node>
	<node lat="70.2258555796834" lon="28.494390803876197" id="-49370">
		<tag k="fixme" v="multiple name tags, choose one and add the other to alt_name; consider natural=peak for the most distinct mountains in the district" />
		<tag k="name" v="Stuorra Báffšovađđa;Stuorra Bákšavárri" />
		<tag k="name:se" v="Stuorra Báffšovađđa;Stuorra Bákšavárri" />
		<tag k="natural" v="hill" />
		<tag k="old_name:se" v="Bakšavarri, stuorra" />
		<tag k="place" v="locality" />
		<tag k="ssr:stedsnr" v="79794" />
	</node>
	<node lat="70.15860002948656" lon="28.92176006083969" id="-49371">
		<tag k="alt_name:se" v="Stuorragusinjunnás" />
		<tag k="fixme" v="consider natural=peak for the most distinct mountains in the district" />
		<tag k="name" v="Gusnjunis - Kunasen" />
		<tag k="name:no" v="Kunasen" />
		<tag k="name:se" v="Gusnjunis" />
		<tag k="natural" v="hill" />
		<tag k="place" v="locality" />
		<tag k="ssr:stedsnr" v="80645" />
	</node>
	<node lat="70.15676670273706" lon="28.835354543964517" id="-49372">
		<tag k="name" v="Giškananjohka" />
		<tag k="name:se" v="Giškananjohka" />
		<tag k="old_name:se" v="Giškanånjåkka" />
		<tag k="place" v="farm" />
		<tag k="ssr:stedsnr" v="80742" />
	</node>
	<node lat="69.99036947605825" lon="28.73925454458746" id="-49373">
		<tag k="fixme" v="consider natural=peak for the most distinct mountains in the district" />
		<tag k="name" v="Boillošoaivi" />
		<tag k="name:se" v="Boillošoaivi" />
		<tag k="natural" v="hill" />
		<tag k="old_name:se" v="Båilušoaivi" />
		<tag k="place" v="locality" />
		<tag k="ssr:stedsnr" v="80788" />
	</node>
	<node lat="70.08605003123176" lon="28.484004661548678" id="-49374">
		<tag k="name" v="Molonjoasjávri" />
		<tag k="name:se" v="Molonjoasjávri" />
		<tag k="natural" v="water" />
		<tag k="old_name:se" v="Målunjoasjavri" />
		<tag k="ssr:stedsnr" v="80799" />
	</node>
	<node lat="69.95559170130909" lon="28.825715599170426" id="-49375">
		<tag k="fixme" v="consider natural=peak for the most distinct mountains in the district" />
		<tag k="name" v="Láirabáŋkenoaivi" />
		<tag k="name:se" v="Láirabáŋkenoaivi" />
		<tag k="natural" v="hill" />
		<tag k="old_name:se" v="Lairabaŋkenoaivi" />
		<tag k="place" v="locality" />
		<tag k="ssr:stedsnr" v="80846" />
	</node>
	<node lat="70.12819447186959" lon="28.49479354410765" id="-49376">
		<tag k="name" v="Kattes Njiđgo" />
		<tag k="name:se" v="Kattes Njiđgo" />
		<tag k="ssr:stedsnr" v="85423" />
		<tag k="waterway" v="river" />
	</node>
	<node lat="70.18395558125773" lon="28.41066025519648" id="-49377">
		<tag k="name" v="Tredjebukta" />
		<tag k="name:no" v="Tredjebukta" />
		<tag k="natural" v="bay" />
		<tag k="ssr:stedsnr" v="85495" />
	</node>
	<node lat="70.159925029429" lon="28.903935085669165" id="-49378">
		<tag k="name" v="Mávnnosoaivi" />
		<tag k="name:se" v="Mávnnosoaivi" />
		<tag k="natural" v="hill" />
		<tag k="place" v="locality" />
		<tag k="ssr:stedsnr" v="86275" />
	</node>
	<node lat="70.1295000362543" lon="28.989612805269516" id="-49379">
		<tag k="alt_name:no" v="Nordkappskjæret" />
		<tag k="fixme" v="consider seamark:type=rock or natural=shoal" />
		<tag k="name" v="Nordkapp" />
		<tag k="name:no" v="Nordkapp" />
		<tag k="place" v="islet" />
		<tag k="ssr:stedsnr" v="86301" />
	</node>
	<node lat="70.21565002907268" lon="28.504590794388108" id="-49380">
		<tag k="name" v="Báišvađajeaggi" />
		<tag k="name:se" v="Báišvađajeaggi" />
		<tag k="natural" v="wetland" />
		<tag k="ssr:stedsnr" v="88186" />
	</node>
	<node lat="70.07570280875164" lon="28.84257119880375" id="-49381">
		<tag k="name" v="Ođđajohnjárga" />
		<tag k="name:se" v="Ođđajohnjárga" />
		<tag k="natural" v="cape" />
		<tag k="ssr:stedsnr" v="89219" />
	</node>
	<node lat="69.99590837345929" lon="29.12307106103851" id="-49382">
		<tag k="name" v="Skáiddileahki" />
		<tag k="name:se" v="Skáiddileahki" />
		<tag k="natural" v="valley" />
		<tag k="place" v="locality" />
		<tag k="ssr:stedsnr" v="91718" />
	</node>
	<node lat="70.1710416930144" lon="28.3449713913973" id="-49383">
		<tag k="name" v="Hávgoaijeakkit" />
		<tag k="name:se" v="Hávgoaijeakkit" />
		<tag k="natural" v="wetland" />
		<tag k="ssr:stedsnr" v="95481" />
	</node>
	<node lat="70.07470836890144" lon="28.96308503604992" id="-49386">
		<tag k="name" v="Naskholmgrunnen" />
		<tag k="name:no" v="Naskholmgrunnen" />
		<tag k="natural" v="shoal" />
		<tag k="place" v="locality" />
		<tag k="ssr:stedsnr" v="109127" />
	</node>
	<node lat="70.0897500259537" lon="28.64849071970442" id="-49387">
		<tag k="name" v="Reahpenguolbba" />
		<tag k="name:se" v="Reahpenguolbba" />
		<tag k="old_name:se" v="Ræppenguolba" />
		<tag k="place" v="locality" />
		<tag k="ssr:stedsnr" v="140803" />
	</node>
	<node lat="70.20177502994494" lon="28.400204715046492" id="-49388">
		<tag k="name" v="Jorranjávrrit" />
		<tag k="name:se" v="Jorranjávrrit" />
		<tag k="natural" v="water" />
		<tag k="old_name:se" v="Jårranjavrit" />
		<tag k="ssr:stedsnr" v="140836" />
	</node>
	<node lat="69.97254170574224" lon="28.82636283117908" id="-49389">
		<tag k="name" v="Láirabáŋkenjávri" />
		<tag k="name:se" v="Láirabáŋkenjávri" />
		<tag k="natural" v="water" />
		<tag k="old_name:se" v="Lairabaŋkenjavri" />
		<tag k="ssr:stedsnr" v="140838" />
		<tag k="water" v="lake" />
	</node>
	<node lat="70.21804446845857" lon="28.49277411948171" id="-49390">
		<tag k="alt_name:se" v="Báišvađaláttu" />
		<tag k="name" v="Bákšavárláttu" />
		<tag k="name:se" v="Bákšavárláttu" />
		<tag k="natural" v="water" />
		<tag k="old_name:se" v="Bakšavarladdo" />
		<tag k="ssr:stedsnr" v="140840" />
	</node>
	<node lat="70.17416392912735" lon="29.151701642828115" id="-49391">
		<tag k="name" v="Jakobselvmyran" />
		<tag k="name:no" v="Jakobselvmyran" />
		<tag k="natural" v="wetland" />
		<tag k="ssr:stedsnr" v="140740" />
	</node>
	<node lat="70.10126947519908" lon="28.39525470223211" id="-49392">
		<tag k="fixme" v="consider natural=peak for the most distinct mountains in the district" />
		<tag k="name" v="Reikejohgáisá" />
		<tag k="name:se" v="Reikejohgáisá" />
		<tag k="natural" v="hill" />
		<tag k="old_name:se" v="Reikejåkgaisa" />
		<tag k="place" v="locality" />
		<tag k="ssr:stedsnr" v="140788" />
	</node>
	<node lat="70.35411392101192" lon="29.124307267657787" id="-49393">
		<tag k="fixme" v="consider natural=peak for the most distinct mountains in the district" />
		<tag k="name" v="Njunesvárri" />
		<tag k="name:se" v="Njunesvárri" />
		<tag k="natural" v="hill" />
		<tag k="old_name:se" v="Njunesvarri" />
		<tag k="place" v="locality" />
		<tag k="ssr:stedsnr" v="141996" />
	</node>
	<node lat="70.12526114166498" lon="28.99663502423302" id="-49394">
		<tag k="fixme" v="consider seamark:type=rock or natural=shoal" />
		<tag k="name" v="Urralásis - Vardeskjæret" />
		<tag k="name:no" v="Vardeskjæret" />
		<tag k="name:se" v="Urralásis" />
		<tag k="place" v="islet" />
		<tag k="ssr:stedsnr" v="145081" />
	</node>
	<node lat="70.18546391370751" lon="28.574810217435758" id="-49395">
		<tag k="name" v="Johtinjohka" />
		<tag k="name:se" v="Johtinjohka" />
		<tag k="ssr:stedsnr" v="146414" />
		<tag k="waterway" v="stream" />
	</node>
</osm>
