<?xml version="1.0" encoding="UTF-8"?>
<<<<<<< HEAD
<osm version="0.6" generator="osmapis">
	<node lat="70.13878614082567" lon="28.936751734775385" id="-38444">
		<tag k="historic" v="heritage" />
		<tag k="name" v="Noaidegeaﾄ組i" />
		<tag k="name:se" v="Noaidegeaﾄ組i" />
		<tag k="place" v="locality" />
		<tag k="ssr:stedsnr" v="268291" />
	</node>
	<node lat="70.14495836554697" lon="28.8602406382203" id="-38515">
=======
<osm generator="osmapis" version="0.6">
	<node id="-917416" lat="70.1449583655" lon="28.8602406382">
>>>>>>> e1d4bc35ff8a6074a6f2e91616a996b547c36f15
		<tag k="alt_name:no" v="Nesseby kirke" />
		<tag k="amenity" v="place_of_worship" />
		<tag k="denomination" v="lutheran" />
		<tag k="name" v="Nesseby" />
		<tag k="name:no" v="Nesseby" />
		<tag k="religion" v="christian" />
		<tag k="ssr:stedsnr" v="451332" />
	</node>
<<<<<<< HEAD
	<node lat="70.1747361372141" lon="28.57581021135719" id="-38518">
=======
	<node id="-917292" lat="70.1747361372" lon="28.5758102114">
>>>>>>> e1d4bc35ff8a6074a6f2e91616a996b547c36f15
		<tag k="name" v="Amtmannsgammen" />
		<tag k="name:no" v="Amtmannsgammen" />
		<tag k="ssr:stedsnr" v="451474" />
		<tag k="tourism" v="museum" />
<<<<<<< HEAD
=======
	</node>
	<node id="-918226" lat="70.1778000232" lon="28.4660852507">
		<tag k="name" v="Russeleiren" />
		<tag k="name:no" v="Russeleiren" />
		<tag k="place" v="locality" />
		<tag k="ssr:stedsnr" v="813627" />
	</node>
	<node id="-917194" lat="70.1387861408" lon="28.9367517348">
		<tag k="historic" v="heritage" />
		<tag k="name" v="Noaidegeaﾄ組i" />
		<tag k="name:se" v="Noaidegeaﾄ組i" />
		<tag k="place" v="locality" />
		<tag k="ssr:stedsnr" v="268291" />
>>>>>>> e1d4bc35ff8a6074a6f2e91616a996b547c36f15
	</node>
	<node lat="70.09762867112724" lon="28.690962827903057" id="-38547">
		<tag k="name" v="Stuorrasiida - Storplassen" />
		<tag k="name:no" v="Storplassen" />
		<tag k="name:se" v="Stuorrasiida" />
		<tag k="place" v="locality" />
		<tag k="ssr:stedsnr" v="686762" />
	</node>
	<node lat="70.17780002324079" lon="28.466085250692657" id="-39342">
		<tag k="name" v="Russeleiren" />
		<tag k="name:no" v="Russeleiren" />
		<tag k="place" v="locality" />
		<tag k="ssr:stedsnr" v="813627" />
	</node>
</osm>
