<?xml version="1.0" encoding="UTF-8"?>
<<<<<<< HEAD
<osm version="0.6" generator="osmapis">
	<node lat="70.21565002907268" lon="28.504590794388108" id="-38322">
		<tag k="name" v="Báišvađajeaggi" />
		<tag k="name:se" v="Báišvađajeaggi" />
		<tag k="natural" v="wetland" />
		<tag k="ssr:stedsnr" v="88186" />
	</node>
	<node lat="70.1710416930144" lon="28.3449713913973" id="-38325">
		<tag k="name" v="Hávgoaijeakkit" />
		<tag k="name:se" v="Hávgoaijeakkit" />
		<tag k="natural" v="wetland" />
		<tag k="ssr:stedsnr" v="95481" />
	</node>
	<node lat="70.17416392912735" lon="29.151701642828115" id="-38333">
		<tag k="name" v="Jakobselvmyran" />
		<tag k="name:no" v="Jakobselvmyran" />
		<tag k="natural" v="wetland" />
		<tag k="ssr:stedsnr" v="140740" />
	</node>
	<node lat="70.1478194680164" lon="28.539707442544625" id="-38339">
		<tag k="landuse" v="meadow" />
		<tag k="name" v="Ivvárgieddi" />
		<tag k="name:se" v="Ivvárgieddi" />
		<tag k="ssr:stedsnr" v="147164" />
	</node>
	<node lat="70.11312503245934" lon="28.57357687268724" id="-38343">
		<tag k="landuse" v="meadow" />
		<tag k="name" v="Rikardgieddi" />
		<tag k="name:se" v="Rikardgieddi" />
		<tag k="ssr:stedsnr" v="148761" />
	</node>
	<node lat="70.07094447758217" lon="28.736015671199986" id="-38349">
		<tag k="name" v="Čeavrresjohjeaggi" />
		<tag k="name:se" v="Čeavrresjohjeaggi" />
		<tag k="natural" v="wetland" />
		<tag k="ssr:stedsnr" v="150173" />
	</node>
	<node lat="70.23705003668597" lon="29.20966554132481" id="-38369">
		<tag k="name" v="Aleksandersenmyra" />
		<tag k="name:no" v="Aleksandersenmyra" />
		<tag k="natural" v="wetland" />
		<tag k="ssr:stedsnr" v="262721" />
	</node>
	<node lat="70.12593614056483" lon="28.58889073354495" id="-38372">
		<tag k="name" v="Gáicajeaggi" />
		<tag k="name:se" v="Gáicajeaggi" />
		<tag k="natural" v="wetland" />
		<tag k="old_name:se" v="Gaicajæggi" />
		<tag k="ssr:stedsnr" v="262813" />
	</node>
	<node lat="70.07677780961815" lon="28.71483791009216" id="-38377">
		<tag k="name" v="Čeavrresjeaggi" />
		<tag k="name:se" v="Čeavrresjeaggi" />
		<tag k="natural" v="wetland" />
		<tag k="old_name:se" v="Čævresjæggi" />
		<tag k="ssr:stedsnr" v="262832" />
	</node>
	<node lat="70.15650003123507" lon="28.814196232783043" id="-38394">
		<tag k="landuse" v="meadow" />
		<tag k="name" v="Beakkagieddi" />
		<tag k="name:se" v="Beakkagieddi" />
		<tag k="ssr:stedsnr" v="269478" />
	</node>
	<node lat="70.17283613926905" lon="28.561210209493645" id="-38401">
		<tag k="name" v="Sykehjemsjorda" />
		<tag k="name:no" v="Sykehjemsjorda" />
		<tag k="place" v="locality" />
		<tag k="ssr:stedsnr" v="269487" />
	</node>
	<node lat="70.18916669588211" lon="28.499904672703998" id="-38424">
		<tag k="name" v="Lattenjeaggi" />
		<tag k="name:se" v="Lattenjeaggi" />
		<tag k="natural" v="wetland" />
		<tag k="ssr:stedsnr" v="452058" />
	</node>
	<node lat="70.07638058474073" lon="28.800196205637125" id="-38426">
		<tag k="landuse" v="meadow" />
		<tag k="name" v="Sullovuolášgieddi" />
		<tag k="name:se" v="Sullovuolášgieddi" />
		<tag k="ssr:stedsnr" v="453238" />
	</node>
	<node lat="70.11432225277466" lon="28.53084909139966" id="-38446">
		<tag k="name" v="Fárppaljeaggi" />
		<tag k="name:se" v="Fárppaljeaggi" />
		<tag k="natural" v="wetland" />
		<tag k="ssr:stedsnr" v="268311" />
	</node>
	<node lat="70.23362780520212" lon="28.399201959890753" id="-38455">
		<tag k="name" v="Klerkskogen" />
		<tag k="name:no" v="Klerkskogen" />
		<tag k="place" v="locality" />
		<tag k="ssr:stedsnr" v="459398" />
	</node>
	<node lat="70.17376669790585" lon="28.52061299458613" id="-38466">
		<tag k="name" v="Bivnokjeaggi" />
		<tag k="name:se" v="Bivnokjeaggi" />
		<tag k="natural" v="wetland" />
		<tag k="ssr:stedsnr" v="328660" />
	</node>
	<node lat="70.08376947619634" lon="28.71925179060728" id="-38472">
		<tag k="name" v="Čáhcekeatjeaggi" />
		<tag k="name:se" v="Čáhcekeatjeaggi" />
		<tag k="natural" v="wetland" />
		<tag k="ssr:stedsnr" v="332105" />
	</node>
	<node lat="70.15838057943243" lon="28.531790773769306" id="-38479">
		<tag k="name" v="Čohkajeaggi" />
		<tag k="name:se" v="Čohkajeaggi" />
		<tag k="natural" v="wetland" />
		<tag k="ssr:stedsnr" v="389147" />
	</node>
	<node lat="70.16175281619336" lon="28.976101709280144" id="-38486">
		<tag k="name" v="Juovvaoaijeakkit" />
		<tag k="name:se" v="Juovvaoaijeakkit" />
		<tag k="natural" v="wetland" />
		<tag k="ssr:stedsnr" v="391017" />
	</node>
	<node lat="70.12473891650724" lon="28.616165734656963" id="-38516">
		<tag k="name" v="Beakkageađgi" />
		<tag k="name:se" v="Beakkageađgi" />
		<tag k="natural" v="stone" />
		<tag k="ssr:stedsnr" v="451709" />
	</node>
	<node lat="70.16083058745208" lon="28.51729355230787" id="-38529">
		<tag k="name" v="Savdnjajeaggi" />
		<tag k="name:se" v="Savdnjajeaggi" />
=======
<osm generator="osmapis" version="0.6">
	<node id="-918015" lat="70.1594972565" lon="29.1141377773">
		<tag k="name" v="Ola Flåmyra" />
		<tag k="name:no" v="Ola Flåmyra" />
		<tag k="natural" v="wetland" />
		<tag k="ssr:stedsnr" v="565745" />
	</node>
	<node id="-917502" lat="70.1491889246" lon="28.9192322861">
		<tag k="name" v="Gudbajeaggi" />
		<tag k="name:se" v="Gudbajeaggi" />
		<tag k="natural" v="wetland" />
		<tag k="ssr:stedsnr" v="572312" />
	</node>
	<node id="-917501" lat="70.1626722554" lon="28.9332628395">
		<tag k="name" v="Guolbajeaggi" />
		<tag k="name:se" v="Guolbajeaggi" />
		<tag k="natural" v="wetland" />
		<tag k="ssr:stedsnr" v="572310" />
	</node>
	<node id="-918007" lat="70.1443555932" lon="29.0577044496">
		<tag k="name" v="Stuorrajeaggi - Stormyra" />
		<tag k="name:no" v="Stormyra" />
		<tag k="name:se" v="Stuorrajeaggi" />
		<tag k="natural" v="wetland" />
		<tag k="old_name:se" v="Stuorrajæggi" />
		<tag k="ssr:stedsnr" v="565659" />
	</node>
	<node id="-918003" lat="70.1604722491" lon="28.5524351998">
		<tag k="name" v="Rásánoaijeaggi" />
		<tag k="name:se" v="Rásánoaijeaggi" />
		<tag k="natural" v="wetland" />
		<tag k="old_name:se" v="Rasanoaijæggi" />
		<tag k="ssr:stedsnr" v="564860" />
	</node>
	<node id="-917483" lat="70.1137166964" lon="28.5685629785">
		<tag k="name" v="Gohppejeaggi" />
		<tag k="name:se" v="Gohppejeaggi" />
		<tag k="natural" v="wetland" />
		<tag k="ssr:stedsnr" v="694733" />
	</node>
	<node id="-917984" lat="70.0619000347" lon="28.992160013">
		<tag k="name" v="Bálddesgeađgi" />
		<tag k="name:se" v="Bálddesgeađgi" />
		<tag k="natural" v="stone" />
		<tag k="ssr:stedsnr" v="394543" />
	</node>
	<node id="-917754" lat="70.1765472503" lon="28.5082546708">
		<tag k="name" v="Vuonnabahjeaggi - Varangerbotnmyra" />
		<tag k="name:no" v="Varangerbotnmyra" />
		<tag k="name:se" v="Vuonnabahjeaggi" />
		<tag k="natural" v="wetland" />
		<tag k="ssr:stedsnr" v="80868" />
	</node>
	<node id="-917978" lat="70.1692166994" lon="28.8997461843">
		<tag k="name" v="Lavttajeaggi" />
		<tag k="name:se" v="Lavttajeaggi" />
		<tag k="natural" v="wetland" />
		<tag k="ssr:stedsnr" v="392030" />
	</node>
	<node id="-917976" lat="70.1898666914" lon="28.6433963042">
		<tag k="name" v="Andevannsmyra" />
		<tag k="name:no" v="Andevannsmyra" />
		<tag k="natural" v="wetland" />
		<tag k="ssr:stedsnr" v="391124" />
	</node>
	<node id="-917966" lat="70.1542389182" lon="28.4815046755">
		<tag k="name" v="Suoidnejeaggi" />
		<tag k="name:se" v="Suoidnejeaggi" />
		<tag k="natural" v="wetland" />
		<tag k="ssr:stedsnr" v="389321" />
	</node>
	<node id="-917965" lat="70.1583805794" lon="28.5317907738">
		<tag k="name" v="Čohkajeaggi" />
		<tag k="name:se" v="Čohkajeaggi" />
		<tag k="natural" v="wetland" />
		<tag k="ssr:stedsnr" v="389147" />
	</node>
	<node id="-917448" lat="70.2095472529" lon="28.5588157888">
		<tag k="name" v="Álljaveaijeaggi" />
		<tag k="name:se" v="Álljaveaijeaggi" />
		<tag k="natural" v="wetland" />
		<tag k="old_name:se" v="Alljavæjjæggi" />
		<tag k="ssr:stedsnr" v="686827" />
	</node>
	<node id="-917959" lat="70.1895555806" lon="28.555343546">
		<tag k="name" v="Gákkafielmmajeaggi" />
		<tag k="name:se" v="Gákkafielmmajeaggi" />
		<tag k="natural" v="wetland" />
		<tag k="old_name:se" v="Gaggafielmajæggi" />
		<tag k="ssr:stedsnr" v="383853" />
	</node>
	<node id="-917665" lat="70.1400500339" lon="29.0670738885">
		<tag k="name" v="Langhalsmyra" />
		<tag k="name:no" v="Langhalsmyra" />
>>>>>>> e1d4bc35ff8a6074a6f2e91616a996b547c36f15
		<tag k="natural" v="wetland" />
		<tag k="ssr:stedsnr" v="511309" />
	</node>
<<<<<<< HEAD
	<node lat="70.23019169424471" lon="28.408340838566133" id="-38538">
		<tag k="name" v="Álbmotsuovka" />
		<tag k="name:se" v="Álbmotsuovka" />
		<tag k="place" v="locality" />
		<tag k="ssr:stedsnr" v="519465" />
	</node>
	<node lat="70.20954725286904" lon="28.55881578884378" id="-38551">
		<tag k="name" v="Álljaveaijeaggi" />
		<tag k="name:se" v="Álljaveaijeaggi" />
		<tag k="natural" v="wetland" />
		<tag k="old_name:se" v="Alljavæjjæggi" />
		<tag k="ssr:stedsnr" v="686827" />
	</node>
	<node lat="70.1626722553599" lon="28.93326283954612" id="-38583">
		<tag k="name" v="Guolbajeaggi" />
		<tag k="name:se" v="Guolbajeaggi" />
		<tag k="natural" v="wetland" />
		<tag k="ssr:stedsnr" v="572310" />
	</node>
	<node lat="70.14918892457494" lon="28.919232286102087" id="-38584">
		<tag k="name" v="Gudbajeaggi" />
		<tag k="name:se" v="Gudbajeaggi" />
		<tag k="natural" v="wetland" />
		<tag k="ssr:stedsnr" v="572312" />
	</node>
	<node lat="70.113716696426" lon="28.56856297850319" id="-38596">
		<tag k="name" v="Gohppejeaggi" />
		<tag k="name:se" v="Gohppejeaggi" />
		<tag k="natural" v="wetland" />
		<tag k="ssr:stedsnr" v="694733" />
	</node>
	<node lat="70.15673614129902" lon="28.568351882095925" id="-38603">
		<tag k="landuse" v="meadow" />
		<tag k="name" v="Beakka-Hánnogieddi" />
		<tag k="name:se" v="Beakka-Hánnogieddi" />
		<tag k="ssr:stedsnr" v="695455" />
	</node>
	<node lat="70.17759169361268" lon="28.522890774657665" id="-38621">
		<tag k="name" v="Rovvejeaggi" />
		<tag k="name:se" v="Rovvejeaggi" />
		<tag k="natural" v="wetland" />
		<tag k="old_name:se" v="Råvvejæggi" />
		<tag k="ssr:stedsnr" v="625855" />
	</node>
	<node lat="70.18337502767322" lon="28.58627409943585" id="-38624">
		<tag k="name" v="Suovka" />
		<tag k="name:se" v="Suovka" />
		<tag k="place" v="locality" />
		<tag k="ssr:stedsnr" v="625860" />
	</node>
	<node lat="70.16787503219314" lon="28.86617675319612" id="-38634">
		<tag k="name" v="Holmmajeaggi" />
		<tag k="name:se" v="Holmmajeaggi" />
		<tag k="natural" v="wetland" />
		<tag k="ssr:stedsnr" v="632331" />
	</node>
	<node lat="70.22932503002477" lon="28.836004579882992" id="-38644">
		<tag k="name" v="Máttavárjeaggi" />
		<tag k="name:se" v="Máttavárjeaggi" />
		<tag k="natural" v="wetland" />
		<tag k="old_name:se" v="Maddavarjæggi" />
		<tag k="ssr:stedsnr" v="686690" />
	</node>
	<node lat="70.16513058213847" lon="28.84057399986486" id="-38668">
		<tag k="name" v="Huvvavárjeaggi" />
		<tag k="name:se" v="Huvvavárjeaggi" />
=======
	<node id="-917947" lat="70.1941000307" lon="29.0438016968">
		<tag k="name" v="Čoskajeaggi" />
		<tag k="name:se" v="Čoskajeaggi" />
		<tag k="natural" v="wetland" />
		<tag k="old_name:se" v="Čåskajæggi" />
		<tag k="ssr:stedsnr" v="383757" />
	</node>
	<node id="-917945" lat="70.1607472535" lon="28.9072934051">
		<tag k="fixme" v="multiple name tags, choose one and add the other to alt_name" />
		<tag k="name" v="Mávnnos jeaggi;Guolbbajeaggi" />
		<tag k="name:se" v="Mávnnos jeaggi;Guolbbajeaggi" />
		<tag k="natural" v="wetland" />
		<tag k="old_name:se" v="Guolbajæggi" />
		<tag k="ssr:stedsnr" v="383738" />
	</node>
	<node id="-917432" lat="70.22932503" lon="28.8360045799">
		<tag k="name" v="Máttavárjeaggi" />
		<tag k="name:se" v="Máttavárjeaggi" />
		<tag k="natural" v="wetland" />
		<tag k="old_name:se" v="Maddavarjæggi" />
		<tag k="ssr:stedsnr" v="686690" />
	</node>
	<node id="-917419" lat="70.0763805847" lon="28.8001962056">
		<tag k="landuse" v="meadow" />
		<tag k="name" v="Sullovuolášgieddi" />
		<tag k="name:se" v="Sullovuolášgieddi" />
		<tag k="ssr:stedsnr" v="453238" />
	</node>
	<node id="-917417" lat="70.1247389165" lon="28.6161657347">
		<tag k="name" v="Beakkageađgi" />
		<tag k="name:se" v="Beakkageađgi" />
		<tag k="natural" v="stone" />
		<tag k="ssr:stedsnr" v="451709" />
	</node>
	<node id="-917923" lat="70.1296028129" lon="28.6430907216">
		<tag k="landuse" v="meadow" />
		<tag k="name" v="Ráppotgieddi" />
		<tag k="name:se" v="Ráppotgieddi" />
		<tag k="old_name:se" v="Rabokgieddi" />
		<tag k="ssr:stedsnr" v="331039" />
	</node>
	<node id="-917922" lat="70.1630805893" lon="29.1090433235">
		<tag k="name" v="Henningmyra" />
		<tag k="name:no" v="Henningmyra" />
		<tag k="natural" v="wetland" />
		<tag k="ssr:stedsnr" v="331113" />
	</node>
	<node id="-917403" lat="70.2301916942" lon="28.4083408386">
		<tag k="name" v="Álbmotsuovka" />
		<tag k="name:se" v="Álbmotsuovka" />
		<tag k="place" v="locality" />
		<tag k="ssr:stedsnr" v="519465" />
	</node>
	<node id="-917913" lat="70.1737666979" lon="28.5206129946">
		<tag k="name" v="Bivnokjeaggi" />
		<tag k="name:se" v="Bivnokjeaggi" />
		<tag k="natural" v="wetland" />
		<tag k="ssr:stedsnr" v="328660" />
	</node>
	<node id="-917394" lat="70.0747111414" lon="28.8837545157">
		<tag k="name" v="Čillagálli" />
		<tag k="name:se" v="Čillagálli" />
		<tag k="natural" v="stone" />
		<tag k="ssr:stedsnr" v="515532" />
	</node>
	<node id="-917900" lat="70.1482778035" lon="28.5868490913">
		<tag k="alt_name:no" v="Vesterelvmyrene" />
		<tag k="name" v="Vesterelvmyran" />
		<tag k="name:no" v="Vesterelvmyran" />
		<tag k="natural" v="wetland" />
		<tag k="ssr:stedsnr" v="322848" />
	</node>
	<node id="-917897" lat="70.1131583635" lon="28.4231046813">
		<tag k="name" v="Reikejeaggi" />
		<tag k="name:se" v="Reikejeaggi" />
>>>>>>> e1d4bc35ff8a6074a6f2e91616a996b547c36f15
		<tag k="natural" v="wetland" />
		<tag k="old_name:se" v="Reikejæggi" />
		<tag k="ssr:stedsnr" v="322747" />
	</node>
<<<<<<< HEAD
	<node lat="70.12846392614644" lon="29.13142943136527" id="-38677">
		<tag k="name" v="Gammjur - Gamjorda" />
		<tag k="name:no" v="Gamjorda" />
		<tag k="name:se" v="Gammjur" />
		<tag k="place" v="locality" />
		<tag k="ssr:stedsnr" v="754320" />
	</node>
	<node lat="70.12081669492417" lon="28.569971317170918" id="-38681">
		<tag k="landuse" v="meadow" />
		<tag k="name" v="Leansmangieddi" />
		<tag k="name:se" v="Leansmangieddi" />
		<tag k="ssr:stedsnr" v="755763" />
	</node>
	<node lat="70.25170835803914" lon="28.639801864390463" id="-38700">
		<tag k="name" v="Gumppejeakkit" />
		<tag k="name:se" v="Gumppejeakkit" />
		<tag k="natural" v="wetland" />
		<tag k="old_name:se" v="Gumpejæggit" />
		<tag k="ssr:stedsnr" v="809962" />
	</node>
	<node lat="70.19787780537924" lon="28.573860223053117" id="-38713">
		<tag k="name" v="Balsajeaggi" />
		<tag k="name:se" v="Balsajeaggi" />
		<tag k="natural" v="wetland" />
		<tag k="ssr:stedsnr" v="817104" />
	</node>
	<node lat="70.12995558436404" lon="28.52818799224525" id="-38716">
		<tag k="name" v="Fávlerohtu" />
		<tag k="name:se" v="Fávlerohtu" />
		<tag k="old_name:se" v="Favleråtto" />
		<tag k="place" v="locality" />
		<tag k="ssr:stedsnr" v="929757" />
	</node>
	<node lat="70.133419472145" lon="28.493915772996267" id="-38720">
		<tag k="fixme" v="multiple name tags, choose one and add the other to alt_name" />
		<tag k="name" v="Njiđggujeaggi;Suoidnejeaggi" />
		<tag k="name:se" v="Njiđggujeaggi;Suoidnejeaggi" />
=======
	<node id="-917888" lat="70.0644250331" lon="28.915423945">
		<tag k="name" v="Sarvvesjeaggi" />
		<tag k="name:se" v="Sarvvesjeaggi" />
		<tag k="natural" v="wetland" />
		<tag k="old_name:se" v="Sarvesjæggi" />
		<tag k="ssr:stedsnr" v="322673" />
	</node>
	<node id="-917374" lat="70.1541889159" lon="28.7444406904">
		<tag k="landuse" v="meadow" />
		<tag k="name" v="Čuđiidgieddi" />
		<tag k="name:se" v="Čuđiidgieddi" />
		<tag k="ssr:stedsnr" v="511457" />
	</node>
	<node id="-917372" lat="70.1608305875" lon="28.5172935523">
		<tag k="name" v="Savdnjajeaggi" />
		<tag k="name:se" v="Savdnjajeaggi" />
		<tag k="natural" v="wetland" />
		<tag k="ssr:stedsnr" v="511309" />
	</node>
	<node id="-917883" lat="70.0655416993" lon="28.9474433695">
		<tag k="name" v="Irvigálli" />
		<tag k="name:se" v="Irvigálli" />
		<tag k="natural" v="stone" />
		<tag k="ssr:stedsnr" v="212557" />
	</node>
	<node id="-917370" lat="70.1345278148" lon="29.1200933032">
		<tag k="name" v="Bjerkbu" />
		<tag k="name:no" v="Bjerkbu" />
		<tag k="place" v="locality" />
		<tag k="ssr:stedsnr" v="511268" />
	</node>
	<node id="-917880" lat="70.1531139156" lon="28.567882418">
		<tag k="landuse" v="meadow" />
		<tag k="name" v="Ruošša-Iskkugieddi" />
		<tag k="name:se" v="Ruošša-Iskkugieddi" />
		<tag k="ssr:stedsnr" v="210455" />
	</node>
	<node id="-917877" lat="70.2138083622" lon="28.4610352714">
		<tag k="name" v="Oppdalmyra" />
		<tag k="name:no" v="Oppdalmyra" />
		<tag k="natural" v="wetland" />
		<tag k="ssr:stedsnr" v="209238" />
	</node>
	<node id="-917565" lat="70.022941709" lon="29.1304960481">
		<tag k="name" v="Pierasuovka" />
		<tag k="name:se" v="Pierasuovka" />
		<tag k="natural" v="wetland" />
		<tag k="ssr:stedsnr" v="758671" />
	</node>
	<node id="-917868" lat="70.1458944766" lon="28.9391628351">
		<tag k="name" v="Návccabávttjeakkit" />
		<tag k="name:se" v="Návccabávttjeakkit" />
>>>>>>> e1d4bc35ff8a6074a6f2e91616a996b547c36f15
		<tag k="natural" v="wetland" />
		<tag k="ssr:stedsnr" v="208269" />
	</node>
<<<<<<< HEAD
	<node lat="70.07088336630179" lon="28.860857279947375" id="-38723">
		<tag k="alt_name:no" v="Nyelvmyr" />
		<tag k="name" v="Ođđajohjeaggi - Nyelvmyra" />
		<tag k="name:no" v="Nyelvmyra" />
		<tag k="name:se" v="Ođđajohjeaggi" />
		<tag k="natural" v="wetland" />
		<tag k="ssr:stedsnr" v="929662" />
	</node>
	<node lat="70.20166669788566" lon="28.466901917458138" id="-38731">
		<tag k="name" v="Suovkajeaggi - Sukimyra" />
		<tag k="name:no" v="Sukimyra" />
		<tag k="name:se" v="Suovkajeaggi" />
=======
	<node id="-917347" lat="70.0860000305" lon="28.6922990167">
		<tag k="name" v="Gáibejeaggi" />
		<tag k="name:se" v="Gáibejeaggi" />
		<tag k="natural" v="wetland" />
		<tag k="old_name:se" v="Gaibejæggi" />
		<tag k="ssr:stedsnr" v="504798" />
	</node>
	<node id="-917344" lat="70.1616667019" lon="28.8700406493">
		<tag k="name" v="Guopmejeaggi" />
		<tag k="name:se" v="Guopmejeaggi" />
>>>>>>> e1d4bc35ff8a6074a6f2e91616a996b547c36f15
		<tag k="natural" v="wetland" />
		<tag k="old_name:se" v="Guobmejæggi" />
		<tag k="ssr:stedsnr" v="504721" />
	</node>
<<<<<<< HEAD
	<node lat="70.0625694843876" lon="28.960648912915026" id="-38742">
		<tag k="name" v="Háškagieddi - Skrapjord" />
		<tag k="name:no" v="Skrapjord" />
		<tag k="name:se" v="Háškagieddi" />
		<tag k="old_name:se" v="Haškagieddi;Haškágieddi" />
		<tag k="place" v="locality" />
		<tag k="ssr:stedsnr" v="930697" />
	</node>
	<node lat="70.16445836265936" lon="28.81238787994806" id="-38757">
		<tag k="name" v="Luohpoaijeaggi" />
		<tag k="name:se" v="Luohpoaijeaggi" />
		<tag k="natural" v="wetland" />
		<tag k="ssr:stedsnr" v="876471" />
	</node>
	<node lat="70.19074169076741" lon="28.476949131936504" id="-38759">
		<tag k="name" v="Rássarohtu - Grasskogen" />
		<tag k="name:no" v="Grasskogen" />
		<tag k="name:se" v="Rássarohtu" />
		<tag k="place" v="locality" />
		<tag k="ssr:stedsnr" v="877059" />
	</node>
	<node lat="70.09071947677981" lon="28.716876809806735" id="-38760">
		<tag k="name" v="Gearraljeaggi" />
		<tag k="name:se" v="Gearraljeaggi" />
		<tag k="natural" v="wetland" />
		<tag k="ssr:stedsnr" v="878110" />
	</node>
	<node lat="70.1400500338556" lon="29.067073888507416" id="-38787">
		<tag k="name" v="Langhalsmyra" />
		<tag k="name:no" v="Langhalsmyra" />
		<tag k="natural" v="wetland" />
		<tag k="ssr:stedsnr" v="19629" />
	</node>
	<node lat="70.11613058230262" lon="28.407290799659062" id="-38809">
		<tag k="name" v="Jeaggegeahči" />
		<tag k="name:se" v="Jeaggegeahči" />
		<tag k="natural" v="wetland" />
		<tag k="ssr:stedsnr" v="26364" />
	</node>
	<node lat="70.16452780138249" lon="28.549479659912148" id="-38815">
		<tag k="name" v="Mieskarohtu" />
		<tag k="name:se" v="Mieskarohtu" />
		<tag k="place" v="locality" />
		<tag k="ssr:stedsnr" v="27595" />
	</node>
	<node lat="70.15773058070349" lon="28.574557427945003" id="-38818">
		<tag k="landuse" v="meadow" />
		<tag k="name" v="Pieraš-Hánssagieddi" />
		<tag k="name:se" v="Pieraš-Hánssagieddi" />
		<tag k="ssr:stedsnr" v="27458" />
	</node>
	<node lat="70.22373335880921" lon="28.6502490910114" id="-38839">
		<tag k="name" v="Vuovdevađđa" />
		<tag k="name:se" v="Vuovdevađđa" />
		<tag k="natural" v="wetland" />
		<tag k="ssr:stedsnr" v="79786" />
	</node>
	<node lat="70.17654725027712" lon="28.508254670823852" id="-38868">
		<tag k="name" v="Vuonnabahjeaggi - Varangerbotnmyra" />
		<tag k="name:no" v="Varangerbotnmyra" />
		<tag k="name:se" v="Vuonnabahjeaggi" />
=======
	<node id="-917341" lat="70.157191693" lon="28.6421740673">
		<tag k="name" v="Duddapierjeaggi" />
		<tag k="name:se" v="Duddapierjeaggi" />
		<tag k="natural" v="wetland" />
		<tag k="old_name:se" v="Duddapierjæggi" />
		<tag k="ssr:stedsnr" v="504864" />
	</node>
	<node id="-917334" lat="70.1617528162" lon="28.9761017093">
		<tag k="name" v="Juovvaoaijeakkit" />
		<tag k="name:se" v="Juovvaoaijeakkit" />
		<tag k="natural" v="wetland" />
		<tag k="ssr:stedsnr" v="391017" />
	</node>
	<node id="-917333" lat="70.1241861393" lon="28.6106129561">
		<tag k="name" v="Čáhppesgeađgi" />
		<tag k="name:se" v="Čáhppesgeađgi" />
		<tag k="natural" v="stone" />
		<tag k="ssr:stedsnr" v="390670" />
	</node>
	<node id="-917844" lat="70.1407916956" lon="28.4780796908">
		<tag k="name" v="Stuorrajeaggi - Stormyra" />
		<tag k="name:no" v="Stormyra" />
		<tag k="name:se" v="Stuorrajeaggi" />
		<tag k="natural" v="wetland" />
		<tag k="old_name:se" v="Stuorrajæggi" />
		<tag k="ssr:stedsnr" v="201751" />
	</node>
	<node id="-917322" lat="70.0837694762" lon="28.7192517906">
		<tag k="name" v="Čáhcekeatjeaggi" />
		<tag k="name:se" v="Čáhcekeatjeaggi" />
		<tag k="natural" v="wetland" />
		<tag k="ssr:stedsnr" v="332105" />
	</node>
	<node id="-917644" lat="70.1907416908" lon="28.4769491319">
		<tag k="name" v="Rássarohtu - Grasskogen" />
		<tag k="name:no" v="Grasskogen" />
		<tag k="name:se" v="Rássarohtu" />
		<tag k="place" v="locality" />
		<tag k="ssr:stedsnr" v="877059" />
	</node>
	<node id="-917312" lat="70.2336278052" lon="28.3992019599">
		<tag k="name" v="Klerkskogen" />
		<tag k="name:no" v="Klerkskogen" />
		<tag k="place" v="locality" />
		<tag k="ssr:stedsnr" v="459398" />
	</node>
	<node id="-917821" lat="70.0709444776" lon="28.7360156712">
		<tag k="name" v="Čeavrresjohjeaggi" />
		<tag k="name:se" v="Čeavrresjohjeaggi" />
		<tag k="natural" v="wetland" />
		<tag k="ssr:stedsnr" v="150173" />
	</node>
	<node id="-917307" lat="70.1143222528" lon="28.5308490914">
		<tag k="name" v="Fárppaljeaggi" />
		<tag k="name:se" v="Fárppaljeaggi" />
		<tag k="natural" v="wetland" />
		<tag k="ssr:stedsnr" v="268311" />
	</node>
	<node id="-917808" lat="70.147819468" lon="28.5397074425">
		<tag k="landuse" v="meadow" />
		<tag k="name" v="Ivvárgieddi" />
		<tag k="name:se" v="Ivvárgieddi" />
		<tag k="ssr:stedsnr" v="147164" />
	</node>
	<node id="-917295" lat="70.1891666959" lon="28.4999046727">
		<tag k="name" v="Lattenjeaggi" />
		<tag k="name:se" v="Lattenjeaggi" />
>>>>>>> e1d4bc35ff8a6074a6f2e91616a996b547c36f15
		<tag k="natural" v="wetland" />
		<tag k="ssr:stedsnr" v="452058" />
	</node>
<<<<<<< HEAD
	<node lat="70.11685558181047" lon="28.547982432489157" id="-38875">
		<tag k="name" v="Hánnoaijeaggi" />
		<tag k="name:se" v="Hánnoaijeaggi" />
=======
	<node id="-917788" lat="70.1741639291" lon="29.1517016428">
		<tag k="name" v="Jakobselvmyran" />
		<tag k="name:no" v="Jakobselvmyran" />
		<tag k="natural" v="wetland" />
		<tag k="ssr:stedsnr" v="140740" />
	</node>
	<node id="-917779" lat="70.171041693" lon="28.3449713914">
		<tag k="name" v="Hávgoaijeakkit" />
		<tag k="name:se" v="Hávgoaijeakkit" />
		<tag k="natural" v="wetland" />
		<tag k="ssr:stedsnr" v="95481" />
	</node>
	<node id="-917775" lat="70.0463555985" lon="29.1285571639">
		<tag k="name" v="Nuortagálli" />
		<tag k="name:se" v="Nuortagálli" />
		<tag k="natural" v="stone" />
		<tag k="ssr:stedsnr" v="91641" />
	</node>
	<node id="-917773" lat="70.0743250308" lon="28.7165129084">
		<tag k="name" v="Gáibejeaggi" />
		<tag k="name:se" v="Gáibejeaggi" />
		<tag k="natural" v="wetland" />
		<tag k="ssr:stedsnr" v="89186" />
	</node>
	<node id="-917770" lat="70.2156500291" lon="28.5045907944">
		<tag k="name" v="Báišvađajeaggi" />
		<tag k="name:se" v="Báišvađajeaggi" />
		<tag k="natural" v="wetland" />
		<tag k="ssr:stedsnr" v="88186" />
	</node>
	<node id="-917768" lat="70.148375035" lon="29.0178544823">
		<tag k="name" v="Ruoššajeakkit - Russermyra" />
		<tag k="name:no" v="Russermyra" />
		<tag k="name:se" v="Ruoššajeakkit" />
		<tag k="natural" v="wetland" />
		<tag k="ssr:stedsnr" v="88020" />
	</node>
	<node id="-917242" lat="70.1585111404" lon="28.8231184341">
		<tag k="name" v="Mávrašjeaggi" />
		<tag k="name:se" v="Mávrašjeaggi" />
>>>>>>> e1d4bc35ff8a6074a6f2e91616a996b547c36f15
		<tag k="natural" v="wetland" />
		<tag k="ssr:stedsnr" v="208442" />
	</node>
<<<<<<< HEAD
	<node lat="70.1483750350305" lon="29.017854482299466" id="-38878">
		<tag k="name" v="Ruoššajeakkit - Russermyra" />
		<tag k="name:no" v="Russermyra" />
		<tag k="name:se" v="Ruoššajeakkit" />
		<tag k="natural" v="wetland" />
		<tag k="ssr:stedsnr" v="88020" />
	</node>
	<node lat="70.07432503084786" lon="28.71651290840226" id="-38881">
		<tag k="name" v="Gáibejeaggi" />
		<tag k="name:se" v="Gáibejeaggi" />
		<tag k="natural" v="wetland" />
		<tag k="ssr:stedsnr" v="89186" />
	</node>
	<node lat="70.04635559849827" lon="29.128557163887102" id="-38885">
		<tag k="name" v="Nuortagálli" />
		<tag k="name:se" v="Nuortagálli" />
		<tag k="natural" v="stone" />
		<tag k="ssr:stedsnr" v="91641" />
	</node>
	<node lat="70.0970861389092" lon="28.73571290804271" id="-38898">
		<tag k="name" v="Vieltegieddi" />
		<tag k="name:se" v="Vieltegieddi" />
		<tag k="place" v="locality" />
		<tag k="ssr:stedsnr" v="140781" />
	</node>
	<node lat="70.1407916956056" lon="28.478079690762513" id="-38939">
		<tag k="name" v="Stuorrajeaggi - Stormyra" />
		<tag k="name:no" v="Stormyra" />
		<tag k="name:se" v="Stuorrajeaggi" />
		<tag k="natural" v="wetland" />
		<tag k="old_name:se" v="Stuorrajæggi" />
		<tag k="ssr:stedsnr" v="201751" />
	</node>
	<node lat="70.14070002945107" lon="28.588251868290193" id="-38941">
		<tag k="name" v="Dutku" />
		<tag k="name:se" v="Dutku" />
		<tag k="natural" v="wetland" />
		<tag k="old_name:se" v="Dutko" />
		<tag k="ssr:stedsnr" v="201754" />
	</node>
	<node lat="70.14589447656397" lon="28.939162835105027" id="-38959">
		<tag k="name" v="Návccabávttjeakkit" />
		<tag k="name:se" v="Návccabávttjeakkit" />
		<tag k="natural" v="wetland" />
		<tag k="ssr:stedsnr" v="208269" />
	</node>
	<node lat="70.15851114040241" lon="28.82311843409938" id="-38963">
		<tag k="name" v="Mávrašjeaggi" />
		<tag k="name:se" v="Mávrašjeaggi" />
		<tag k="natural" v="wetland" />
		<tag k="ssr:stedsnr" v="208442" />
	</node>
	<node lat="70.21380836216768" lon="28.461035271395442" id="-38970">
		<tag k="name" v="Oppdalmyra" />
		<tag k="name:no" v="Oppdalmyra" />
		<tag k="natural" v="wetland" />
		<tag k="ssr:stedsnr" v="209238" />
	</node>
	<node lat="70.1531139155791" lon="28.56788241804708" id="-38973">
		<tag k="landuse" v="meadow" />
		<tag k="name" v="Ruošša-Iskkugieddi" />
		<tag k="name:se" v="Ruošša-Iskkugieddi" />
		<tag k="ssr:stedsnr" v="210455" />
	</node>
	<node lat="70.06554169927708" lon="28.947443369535605" id="-38978">
		<tag k="name" v="Irvigálli" />
		<tag k="name:se" v="Irvigálli" />
		<tag k="natural" v="stone" />
		<tag k="ssr:stedsnr" v="212557" />
	</node>
	<node lat="70.02620837148771" lon="29.153584923376236" id="-38979">
		<tag k="landuse" v="meadow" />
		<tag k="name" v="Ellegiettáš" />
		<tag k="name:se" v="Ellegiettáš" />
		<tag k="ssr:stedsnr" v="212646" />
	</node>
	<node lat="70.14827780350282" lon="28.586849091342287" id="-38986">
		<tag k="alt_name:no" v="Vesterelvmyrene" />
		<tag k="name" v="Vesterelvmyran" />
		<tag k="name:no" v="Vesterelvmyran" />
		<tag k="natural" v="wetland" />
		<tag k="ssr:stedsnr" v="322848" />
	</node>
	<node lat="70.06442503310761" lon="28.915423944966932" id="-38988">
		<tag k="name" v="Sarvvesjeaggi" />
		<tag k="name:se" v="Sarvvesjeaggi" />
		<tag k="natural" v="wetland" />
		<tag k="old_name:se" v="Sarvesjæggi" />
		<tag k="ssr:stedsnr" v="322673" />
	</node>
	<node lat="70.11315836347384" lon="28.423104681306874" id="-38994">
		<tag k="name" v="Reikejeaggi" />
		<tag k="name:se" v="Reikejeaggi" />
		<tag k="natural" v="wetland" />
		<tag k="old_name:se" v="Reikejæggi" />
		<tag k="ssr:stedsnr" v="322747" />
	</node>
	<node lat="70.16308058932312" lon="29.10904332348684" id="-39010">
		<tag k="name" v="Henningmyra" />
		<tag k="name:no" v="Henningmyra" />
		<tag k="natural" v="wetland" />
		<tag k="ssr:stedsnr" v="331113" />
	</node>
	<node lat="70.12960281291879" lon="28.64309072164416" id="-39014">
		<tag k="landuse" v="meadow" />
		<tag k="name" v="Ráppotgieddi" />
		<tag k="name:se" v="Ráppotgieddi" />
		<tag k="old_name:se" v="Rabokgieddi" />
		<tag k="ssr:stedsnr" v="331039" />
	</node>
	<node lat="70.19410003071943" lon="29.04380169675058" id="-39030">
		<tag k="name" v="Čoskajeaggi" />
		<tag k="name:se" v="Čoskajeaggi" />
=======
	<node id="-917226" lat="70.1131250325" lon="28.5735768727">
		<tag k="landuse" v="meadow" />
		<tag k="name" v="Rikardgieddi" />
		<tag k="name:se" v="Rikardgieddi" />
		<tag k="ssr:stedsnr" v="148761" />
	</node>
	<node id="-918249" lat="70.2076666919" lon="28.5926741028">
		<tag k="name" v="Stuorravađđa" />
		<tag k="name:se" v="Stuorravađđa" />
		<tag k="natural" v="wetland" />
		<tag k="ssr:stedsnr" v="868789" />
	</node>
	<node id="-917884" lat="70.0262083715" lon="29.1535849234">
		<tag k="landuse" v="meadow" />
		<tag k="name" v="Ellegiettáš" />
		<tag k="name:se" v="Ellegiettáš" />
		<tag k="ssr:stedsnr" v="212646" />
	</node>
	<node id="-917720" lat="70.2237333588" lon="28.650249091">
		<tag k="name" v="Vuovdevađđa" />
		<tag k="name:se" v="Vuovdevađđa" />
		<tag k="natural" v="wetland" />
		<tag k="ssr:stedsnr" v="79786" />
	</node>
	<node id="-917207" lat="70.0970861389" lon="28.735712908">
		<tag k="name" v="Vieltegieddi" />
		<tag k="name:se" v="Vieltegieddi" />
		<tag k="place" v="locality" />
		<tag k="ssr:stedsnr" v="140781" />
	</node>
	<node id="-917201" lat="70.1728361393" lon="28.5612102095">
		<tag k="name" v="Sykehjemsjorda" />
		<tag k="name:no" v="Sykehjemsjorda" />
		<tag k="place" v="locality" />
		<tag k="ssr:stedsnr" v="269487" />
	</node>
	<node id="-917200" lat="70.1565000312" lon="28.8141962328">
		<tag k="landuse" v="meadow" />
		<tag k="name" v="Beakkagieddi" />
		<tag k="name:se" v="Beakkagieddi" />
		<tag k="ssr:stedsnr" v="269478" />
	</node>
	<node id="-918220" lat="70.251708358" lon="28.6398018644">
		<tag k="name" v="Gumppejeakkit" />
		<tag k="name:se" v="Gumppejeakkit" />
		<tag k="natural" v="wetland" />
		<tag k="old_name:se" v="Gumpejæggit" />
		<tag k="ssr:stedsnr" v="809962" />
	</node>
	<node id="-918207" lat="70.2140805833" lon="28.6310157645">
		<tag k="name" v="Nieidavađđa" />
		<tag k="name:se" v="Nieidavađđa" />
		<tag k="natural" v="wetland" />
		<tag k="ssr:stedsnr" v="808831" />
	</node>
	<node id="-917693" lat="70.1645278014" lon="28.5494796599">
		<tag k="name" v="Mieskarohtu" />
		<tag k="name:se" v="Mieskarohtu" />
		<tag k="place" v="locality" />
		<tag k="ssr:stedsnr" v="27595" />
	</node>
	<node id="-917692" lat="70.1577305807" lon="28.5745574279">
		<tag k="landuse" v="meadow" />
		<tag k="name" v="Pieraš-Hánssagieddi" />
		<tag k="name:se" v="Pieraš-Hánssagieddi" />
		<tag k="ssr:stedsnr" v="27458" />
	</node>
	<node id="-917177" lat="70.1259361406" lon="28.5888907335">
		<tag k="name" v="Gáicajeaggi" />
		<tag k="name:se" v="Gáicajeaggi" />
		<tag k="natural" v="wetland" />
		<tag k="old_name:se" v="Gaicajæggi" />
		<tag k="ssr:stedsnr" v="262813" />
	</node>
	<node id="-917685" lat="70.1161305823" lon="28.4072907997">
		<tag k="name" v="Jeaggegeahči" />
		<tag k="name:se" v="Jeaggegeahči" />
		<tag k="natural" v="wetland" />
		<tag k="ssr:stedsnr" v="26364" />
	</node>
	<node id="-917172" lat="70.2370500367" lon="29.2096655413">
		<tag k="name" v="Aleksandersenmyra" />
		<tag k="name:no" v="Aleksandersenmyra" />
		<tag k="natural" v="wetland" />
		<tag k="ssr:stedsnr" v="262721" />
	</node>
	<node id="-917153" lat="70.1168555818" lon="28.5479824325">
		<tag k="name" v="Hánnoaijeaggi" />
		<tag k="name:se" v="Hánnoaijeaggi" />
		<tag k="natural" v="wetland" />
		<tag k="ssr:stedsnr" v="87741" />
	</node>
	<node id="-918174" lat="70.2335778023" lon="28.3923963943">
		<tag k="name" v="Klerkmyra" />
		<tag k="name:no" v="Klerkmyra" />
		<tag k="natural" v="wetland" />
		<tag k="ssr:stedsnr" v="756126" />
	</node>
	<node id="-918170" lat="70.1208166949" lon="28.5699713172">
		<tag k="landuse" v="meadow" />
		<tag k="name" v="Leansmangieddi" />
		<tag k="name:se" v="Leansmangieddi" />
		<tag k="ssr:stedsnr" v="755763" />
	</node>
	<node id="-918156" lat="70.1284639261" lon="29.1314294314">
		<tag k="name" v="Gammjur - Gamjorda" />
		<tag k="name:no" v="Gamjorda" />
		<tag k="name:se" v="Gammjur" />
		<tag k="place" v="locality" />
		<tag k="ssr:stedsnr" v="754320" />
	</node>
	<node id="-918153" lat="70.1737194715" lon="28.4985963422">
		<tag k="name" v="Bivnojeaggi" />
		<tag k="name:se" v="Bivnojeaggi" />
		<tag k="natural" v="wetland" />
		<tag k="ssr:stedsnr" v="752619" />
	</node>
	<node id="-917638" lat="70.0472250357" lon="29.0722960878">
		<tag k="name" v="Lavdnjejeaggi" />
		<tag k="name:se" v="Lavdnjejeaggi" />
		<tag k="natural" v="wetland" />
		<tag k="ssr:stedsnr" v="940749" />
	</node>
	<node id="-917628" lat="70.1568028034" lon="28.6374296224">
		<tag k="name" v="Duttapierjeaggi" />
		<tag k="name:se" v="Duttapierjeaggi" />
>>>>>>> e1d4bc35ff8a6074a6f2e91616a996b547c36f15
		<tag k="natural" v="wetland" />
		<tag k="ssr:stedsnr" v="938056" />
	</node>
<<<<<<< HEAD
	<node lat="70.16074725346238" lon="28.90729340510497" id="-39035">
		<tag k="fixme" v="multiple name tags, choose one and add the other to alt_name" />
		<tag k="name" v="Mávnnos jeaggi;Guolbbajeaggi" />
		<tag k="name:se" v="Mávnnos jeaggi;Guolbbajeaggi" />
=======
	<node id="-918128" lat="70.1651305821" lon="28.8405739999">
		<tag k="name" v="Huvvavárjeaggi" />
		<tag k="name:se" v="Huvvavárjeaggi" />
>>>>>>> e1d4bc35ff8a6074a6f2e91616a996b547c36f15
		<tag k="natural" v="wetland" />
		<tag k="old_name:se" v="Huvvavarjæggi" />
		<tag k="ssr:stedsnr" v="747716" />
	</node>
<<<<<<< HEAD
	<node lat="70.18955558064698" lon="28.55534354603329" id="-39043">
		<tag k="name" v="Gákkafielmmajeaggi" />
		<tag k="name:se" v="Gákkafielmmajeaggi" />
		<tag k="natural" v="wetland" />
		<tag k="old_name:se" v="Gaggafielmajæggi" />
		<tag k="ssr:stedsnr" v="383853" />
	</node>
	<node lat="70.15423891819432" lon="28.48150467545374" id="-39052">
		<tag k="name" v="Suoidnejeaggi" />
		<tag k="name:se" v="Suoidnejeaggi" />
		<tag k="natural" v="wetland" />
		<tag k="ssr:stedsnr" v="389321" />
	</node>
	<node lat="70.12418613932402" lon="28.61061295605191" id="-39060">
		<tag k="name" v="Čáhppesgeađgi" />
		<tag k="name:se" v="Čáhppesgeađgi" />
		<tag k="natural" v="stone" />
		<tag k="ssr:stedsnr" v="390670" />
	</node>
	<node lat="70.18986669137145" lon="28.64339630420365" id="-39062">
		<tag k="name" v="Andevannsmyra" />
		<tag k="name:no" v="Andevannsmyra" />
		<tag k="natural" v="wetland" />
		<tag k="ssr:stedsnr" v="391124" />
	</node>
	<node lat="70.16921669939015" lon="28.899746184270935" id="-39065">
		<tag k="name" v="Lavttajeaggi" />
		<tag k="name:se" v="Lavttajeaggi" />
		<tag k="natural" v="wetland" />
		<tag k="ssr:stedsnr" v="392030" />
	</node>
	<node lat="70.06190003467519" lon="28.99216001304102" id="-39071">
		<tag k="name" v="Bálddesgeađgi" />
		<tag k="name:se" v="Bálddesgeađgi" />
		<tag k="natural" v="stone" />
		<tag k="ssr:stedsnr" v="394543" />
	</node>
	<node lat="70.13371947046124" lon="28.57635742448278" id="-39080">
		<tag k="name" v="Lárajeaggi" />
		<tag k="name:se" v="Lárajeaggi" />
		<tag k="natural" v="wetland" />
		<tag k="old_name:se" v="Larajæggi" />
		<tag k="ssr:stedsnr" v="444756" />
	</node>
	<node lat="70.16166670190889" lon="28.870040649321137" id="-39102">
		<tag k="name" v="Guopmejeaggi" />
		<tag k="name:se" v="Guopmejeaggi" />
		<tag k="natural" v="wetland" />
		<tag k="old_name:se" v="Guobmejæggi" />
		<tag k="ssr:stedsnr" v="504721" />
	</node>
	<node lat="70.08600003052013" lon="28.692299016682096" id="-39104">
		<tag k="name" v="Gáibejeaggi" />
		<tag k="name:se" v="Gáibejeaggi" />
		<tag k="natural" v="wetland" />
		<tag k="old_name:se" v="Gaibejæggi" />
		<tag k="ssr:stedsnr" v="504798" />
	</node>
	<node lat="70.15719169298514" lon="28.642174067327012" id="-39113">
		<tag k="name" v="Duddapierjeaggi" />
		<tag k="name:se" v="Duddapierjeaggi" />
		<tag k="natural" v="wetland" />
		<tag k="old_name:se" v="Duddapierjæggi" />
		<tag k="ssr:stedsnr" v="504864" />
	</node>
	<node lat="70.13452781475014" lon="29.120093303194217" id="-39130">
		<tag k="name" v="Bjerkbu" />
		<tag k="name:no" v="Bjerkbu" />
		<tag k="place" v="locality" />
		<tag k="ssr:stedsnr" v="511268" />
	</node>
	<node lat="70.15418891593758" lon="28.74444069035052" id="-39132">
		<tag k="landuse" v="meadow" />
		<tag k="name" v="Čuđiidgieddi" />
		<tag k="name:se" v="Čuđiidgieddi" />
		<tag k="ssr:stedsnr" v="511457" />
	</node>
	<node lat="70.07471114138936" lon="28.88375451572072" id="-39153">
		<tag k="name" v="Čillagálli" />
		<tag k="name:se" v="Čillagálli" />
		<tag k="natural" v="stone" />
		<tag k="ssr:stedsnr" v="515532" />
	</node>
	<node lat="70.16047224913655" lon="28.552435199760986" id="-39168">
		<tag k="name" v="Rásánoaijeaggi" />
		<tag k="name:se" v="Rásánoaijeaggi" />
		<tag k="natural" v="wetland" />
		<tag k="old_name:se" v="Rasanoaijæggi" />
		<tag k="ssr:stedsnr" v="564860" />
	</node>
	<node lat="70.14435559324095" lon="29.05770444964771" id="-39174">
		<tag k="name" v="Stuorrajeaggi - Stormyra" />
		<tag k="name:no" v="Stormyra" />
		<tag k="name:se" v="Stuorrajeaggi" />
		<tag k="natural" v="wetland" />
		<tag k="old_name:se" v="Stuorrajæggi" />
		<tag k="ssr:stedsnr" v="565659" />
	</node>
	<node lat="70.15949725647091" lon="29.114137777299728" id="-39175">
		<tag k="name" v="Ola Flåmyra" />
		<tag k="name:no" v="Ola Flåmyra" />
		<tag k="natural" v="wetland" />
		<tag k="ssr:stedsnr" v="565745" />
	</node>
	<node lat="70.11810002710189" lon="28.42445468473187" id="-39178">
		<tag k="name" v="Loahkejeaggi" />
		<tag k="name:se" v="Loahkejeaggi" />
		<tag k="natural" v="wetland" />
		<tag k="old_name:se" v="Loakkejæggi" />
		<tag k="ssr:stedsnr" v="565792" />
	</node>
	<node lat="70.09602503427179" lon="28.777851793400558" id="-39180">
		<tag k="name" v="Juggejeaggi" />
		<tag k="name:se" v="Juggejeaggi" />
		<tag k="natural" v="wetland" />
		<tag k="old_name:se" v="Juggejæggi" />
		<tag k="ssr:stedsnr" v="565801" />
	</node>
	<node lat="70.12778059115726" lon="29.04961557714198" id="-39188">
		<tag k="name" v="Fuglåsmyra" />
		<tag k="name:no" v="Fuglåsmyra" />
		<tag k="natural" v="wetland" />
		<tag k="ssr:stedsnr" v="571245" />
	</node>
	<node lat="70.12321113831176" lon="28.429804684770755" id="-39192">
		<tag k="name" v="Skárfarohtu" />
		<tag k="name:se" v="Skárfarohtu" />
		<tag k="place" v="locality" />
		<tag k="ssr:stedsnr" v="572379" />
	</node>
	<node lat="70.11497225199693" lon="28.55714354261628" id="-39195">
		<tag k="landuse" v="meadow" />
		<tag k="name" v="Sarretgieddi" />
		<tag k="name:se" v="Sarretgieddi" />
		<tag k="ssr:stedsnr" v="572751" />
	</node>
	<node lat="70.04722781714558" lon="29.01212944971879" id="-39203">
		<tag k="name" v="Jeageloaijeaggi" />
		<tag k="name:se" v="Jeageloaijeaggi" />
		<tag k="natural" v="wetland" />
		<tag k="ssr:stedsnr" v="574269" />
	</node>
	<node lat="70.20301947587959" lon="28.569479664021223" id="-39228">
=======
	<node id="-917181" lat="70.0767778096" lon="28.7148379101">
		<tag k="name" v="Čeavrresjeaggi" />
		<tag k="name:se" v="Čeavrresjeaggi" />
		<tag k="natural" v="wetland" />
		<tag k="old_name:se" v="Čævresjæggi" />
		<tag k="ssr:stedsnr" v="262832" />
	</node>
	<node id="-917609" lat="70.1978778054" lon="28.5738602231">
		<tag k="name" v="Balsajeaggi" />
		<tag k="name:se" v="Balsajeaggi" />
		<tag k="natural" v="wetland" />
		<tag k="ssr:stedsnr" v="817104" />
	</node>
	<node id="-917608" lat="70.1574805874" lon="28.5820824249">
		<tag k="landuse" v="meadow" />
		<tag k="name" v="Junno-Máhte-gieddi" />
		<tag k="name:se" v="Junno-Máhte-gieddi" />
		<tag k="ssr:stedsnr" v="816454" />
	</node>
	<node id="-918115" lat="70.181155582" lon="28.3524964106">
		<tag k="name" v="Eatnančielggjeakkit" />
		<tag k="name:se" v="Eatnančielggjeakkit" />
		<tag k="natural" v="wetland" />
		<tag k="ssr:stedsnr" v="640556" />
	</node>
	<node id="-917597" lat="70.0625694844" lon="28.9606489129">
		<tag k="name" v="Háškagieddi - Skrapjord" />
		<tag k="name:no" v="Skrapjord" />
		<tag k="name:se" v="Háškagieddi" />
		<tag k="old_name:se" v="Haškagieddi;Haškágieddi" />
		<tag k="place" v="locality" />
		<tag k="ssr:stedsnr" v="930697" />
	</node>
	<node id="-918107" lat="70.1446444758" lon="28.5788685285">
		<tag k="name" v="Čohkaoaijeaggi" />
		<tag k="name:se" v="Čohkaoaijeaggi" />
		<tag k="natural" v="wetland" />
		<tag k="ssr:stedsnr" v="634467" />
	</node>
	<node id="-917587" lat="70.1334194721" lon="28.493915773">
		<tag k="fixme" v="multiple name tags, choose one and add the other to alt_name" />
		<tag k="name" v="Njiđggujeaggi;Suoidnejeaggi" />
		<tag k="name:se" v="Njiđggujeaggi;Suoidnejeaggi" />
		<tag k="natural" v="wetland" />
		<tag k="old_name:se" v="Suoidnejæggi" />
		<tag k="ssr:stedsnr" v="929861" />
	</node>
	<node id="-918098" lat="70.1678750322" lon="28.8661767532">
		<tag k="name" v="Holmmajeaggi" />
		<tag k="name:se" v="Holmmajeaggi" />
		<tag k="natural" v="wetland" />
		<tag k="ssr:stedsnr" v="632331" />
	</node>
	<node id="-917585" lat="70.2016666979" lon="28.4669019175">
		<tag k="name" v="Suovkajeaggi - Sukimyra" />
		<tag k="name:no" v="Sukimyra" />
		<tag k="name:se" v="Suovkajeaggi" />
		<tag k="natural" v="wetland" />
		<tag k="old_name:se" v="Suovkajæggi" />
		<tag k="ssr:stedsnr" v="929836" />
	</node>
	<node id="-917581" lat="70.1299555844" lon="28.5281879922">
		<tag k="name" v="Fávlerohtu" />
		<tag k="name:se" v="Fávlerohtu" />
		<tag k="old_name:se" v="Favleråtto" />
		<tag k="place" v="locality" />
		<tag k="ssr:stedsnr" v="929757" />
	</node>
	<node id="-917572" lat="70.0708833663" lon="28.8608572799">
		<tag k="alt_name:no" v="Nyelvmyr" />
		<tag k="name" v="Ođđajohjeaggi - Nyelvmyra" />
		<tag k="name:no" v="Nyelvmyra" />
		<tag k="name:se" v="Ođđajohjeaggi" />
		<tag k="natural" v="wetland" />
		<tag k="ssr:stedsnr" v="929662" />
	</node>
	<node id="-917568" lat="70.126113924" lon="29.0139961284">
		<tag k="name" v="Ceavccageađgi - Transteinen" />
		<tag k="name:no" v="Transteinen" />
		<tag k="name:se" v="Ceavccageađgi" />
		<tag k="natural" v="stone" />
		<tag k="ssr:stedsnr" v="810021" />
	</node>
	<node id="-918077" lat="70.1833750277" lon="28.5862740994">
		<tag k="name" v="Suovka" />
		<tag k="name:se" v="Suovka" />
		<tag k="place" v="locality" />
		<tag k="ssr:stedsnr" v="625860" />
	</node>
	<node id="-918074" lat="70.1775916936" lon="28.5228907747">
		<tag k="name" v="Rovvejeaggi" />
		<tag k="name:se" v="Rovvejeaggi" />
		<tag k="natural" v="wetland" />
		<tag k="old_name:se" v="Råvvejæggi" />
		<tag k="ssr:stedsnr" v="625855" />
	</node>
	<node id="-918071" lat="70.2030194759" lon="28.569479664">
>>>>>>> e1d4bc35ff8a6074a6f2e91616a996b547c36f15
		<tag k="name" v="Balsajeaggi" />
		<tag k="name:se" v="Balsajeaggi" />
		<tag k="natural" v="wetland" />
		<tag k="old_name:se" v="Balsajæggi" />
		<tag k="ssr:stedsnr" v="625831" />
	</node>
<<<<<<< HEAD
	<node lat="70.14464447578376" lon="28.578868528502355" id="-39251">
		<tag k="name" v="Čohkaoaijeaggi" />
		<tag k="name:se" v="Čohkaoaijeaggi" />
		<tag k="natural" v="wetland" />
		<tag k="ssr:stedsnr" v="634467" />
	</node>
	<node lat="70.1811555820381" lon="28.35249641059662" id="-39258">
		<tag k="name" v="Eatnančielggjeakkit" />
		<tag k="name:se" v="Eatnančielggjeakkit" />
		<tag k="natural" v="wetland" />
		<tag k="ssr:stedsnr" v="640556" />
	</node>
	<node lat="70.1737194714598" lon="28.498596342215638" id="-39293">
		<tag k="name" v="Bivnojeaggi" />
		<tag k="name:se" v="Bivnojeaggi" />
		<tag k="natural" v="wetland" />
		<tag k="ssr:stedsnr" v="752619" />
	</node>
	<node lat="70.23357780226516" lon="28.39239639430291" id="-39294">
		<tag k="name" v="Klerkmyra" />
		<tag k="name:no" v="Klerkmyra" />
		<tag k="natural" v="wetland" />
		<tag k="ssr:stedsnr" v="756126" />
	</node>
	<node lat="70.0229417089953" lon="29.130496048071077" id="-39314">
		<tag k="name" v="Pierasuovka" />
		<tag k="name:se" v="Pierasuovka" />
		<tag k="natural" v="wetland" />
		<tag k="ssr:stedsnr" v="758671" />
	</node>
	<node lat="70.21408058334721" lon="28.631015764509964" id="-39333">
		<tag k="name" v="Nieidavađđa" />
		<tag k="name:se" v="Nieidavađđa" />
		<tag k="natural" v="wetland" />
		<tag k="ssr:stedsnr" v="808831" />
	</node>
	<node lat="70.12611392397545" lon="29.01399612839439" id="-39339">
		<tag k="name" v="Ceavccageađgi - Transteinen" />
		<tag k="name:no" v="Transteinen" />
		<tag k="name:se" v="Ceavccageađgi" />
		<tag k="natural" v="stone" />
		<tag k="ssr:stedsnr" v="810021" />
	</node>
	<node lat="70.15748058743146" lon="28.582082424878827" id="-39352">
		<tag k="landuse" v="meadow" />
		<tag k="name" v="Junno-Máhte-gieddi" />
		<tag k="name:se" v="Junno-Máhte-gieddi" />
		<tag k="ssr:stedsnr" v="816454" />
	</node>
	<node lat="70.20766669187711" lon="28.592674102782638" id="-39367">
		<tag k="name" v="Stuorravađđa" />
		<tag k="name:se" v="Stuorravađđa" />
		<tag k="natural" v="wetland" />
		<tag k="ssr:stedsnr" v="868789" />
	</node>
	<node lat="70.17645558635608" lon="28.588124106289662" id="-39400">
=======
	<node id="-917552" lat="70.1567361413" lon="28.5683518821">
		<tag k="landuse" v="meadow" />
		<tag k="name" v="Beakka-Hánnogieddi" />
		<tag k="name:se" v="Beakka-Hánnogieddi" />
		<tag k="ssr:stedsnr" v="695455" />
	</node>
	<node id="-917256" lat="70.1337194705" lon="28.5763574245">
		<tag k="name" v="Lárajeaggi" />
		<tag k="name:se" v="Lárajeaggi" />
		<tag k="natural" v="wetland" />
		<tag k="old_name:se" v="Larajæggi" />
		<tag k="ssr:stedsnr" v="444756" />
	</node>
	<node id="-917542" lat="70.0705444766" lon="28.8882433948">
		<tag k="name" v="Gáldojogašgieddi" />
		<tag k="name:se" v="Gáldojogašgieddi" />
		<tag k="natural" v="wetland" />
		<tag k="ssr:stedsnr" v="880538" />
	</node>
	<node id="-917539" lat="70.0576750369" lon="28.972848909">
		<tag k="name" v="Guoŋurjeaggi" />
		<tag k="name:se" v="Guoŋurjeaggi" />
		<tag k="natural" v="wetland" />
		<tag k="ssr:stedsnr" v="878239" />
	</node>
	<node id="-917536" lat="70.0922416955" lon="28.7251378985">
		<tag k="name" v="Gearralgieddi" />
		<tag k="name:se" v="Gearralgieddi" />
		<tag k="place" v="locality" />
		<tag k="ssr:stedsnr" v="878142" />
	</node>
	<node id="-917535" lat="70.0907194768" lon="28.7168768098">
		<tag k="name" v="Gearraljeaggi" />
		<tag k="name:se" v="Gearraljeaggi" />
		<tag k="natural" v="wetland" />
		<tag k="ssr:stedsnr" v="878110" />
	</node>
	<node id="-917534" lat="70.1532222499" lon="28.5584102211">
		<tag k="name" v="Guhturrohtu" />
		<tag k="name:se" v="Guhturrohtu" />
		<tag k="place" v="locality" />
		<tag k="ssr:stedsnr" v="877443" />
	</node>
	<node id="-918043" lat="70.0472278171" lon="29.0121294497">
		<tag k="name" v="Jeageloaijeaggi" />
		<tag k="name:se" v="Jeageloaijeaggi" />
		<tag k="natural" v="wetland" />
		<tag k="ssr:stedsnr" v="574269" />
	</node>
	<node id="-917527" lat="70.1764555864" lon="28.5881241063">
>>>>>>> e1d4bc35ff8a6074a6f2e91616a996b547c36f15
		<tag k="name" v="Nyborgskogen" />
		<tag k="name:no" v="Nyborgskogen" />
		<tag k="place" v="locality" />
		<tag k="ssr:stedsnr" v="876495" />
	</node>
<<<<<<< HEAD
	<node lat="70.1532222498518" lon="28.558410221138946" id="-39406">
		<tag k="name" v="Guhturrohtu" />
		<tag k="name:se" v="Guhturrohtu" />
		<tag k="place" v="locality" />
		<tag k="ssr:stedsnr" v="877443" />
	</node>
	<node lat="70.09224169551004" lon="28.72513789847805" id="-39407">
		<tag k="name" v="Gearralgieddi" />
		<tag k="name:se" v="Gearralgieddi" />
		<tag k="place" v="locality" />
		<tag k="ssr:stedsnr" v="878142" />
	</node>
	<node lat="70.05767503693983" lon="28.97284890903933" id="-39408">
		<tag k="name" v="Guoŋurjeaggi" />
		<tag k="name:se" v="Guoŋurjeaggi" />
		<tag k="natural" v="wetland" />
		<tag k="ssr:stedsnr" v="878239" />
	</node>
	<node lat="70.07054447664585" lon="28.88824339479987" id="-39413">
		<tag k="name" v="Gáldojogašgieddi" />
		<tag k="name:se" v="Gáldojogašgieddi" />
		<tag k="natural" v="wetland" />
		<tag k="ssr:stedsnr" v="880538" />
	</node>
	<node lat="70.15680280336021" lon="28.637429622437455" id="-39428">
		<tag k="name" v="Duttapierjeaggi" />
		<tag k="name:se" v="Duttapierjeaggi" />
		<tag k="natural" v="wetland" />
		<tag k="ssr:stedsnr" v="938056" />
	</node>
	<node lat="70.04722503570495" lon="29.072296087822245" id="-39433">
		<tag k="name" v="Lavdnjejeaggi" />
		<tag k="name:se" v="Lavdnjejeaggi" />
		<tag k="natural" v="wetland" />
		<tag k="ssr:stedsnr" v="940749" />
=======
	<node id="-917525" lat="70.1644583627" lon="28.8123878799">
		<tag k="name" v="Luohpoaijeaggi" />
		<tag k="name:se" v="Luohpoaijeaggi" />
		<tag k="natural" v="wetland" />
		<tag k="ssr:stedsnr" v="876471" />
	</node>
	<node id="-918035" lat="70.114972252" lon="28.5571435426">
		<tag k="landuse" v="meadow" />
		<tag k="name" v="Sarretgieddi" />
		<tag k="name:se" v="Sarretgieddi" />
		<tag k="ssr:stedsnr" v="572751" />
	</node>
	<node id="-918033" lat="70.1232111383" lon="28.4298046848">
		<tag k="name" v="Skárfarohtu" />
		<tag k="name:se" v="Skárfarohtu" />
		<tag k="place" v="locality" />
		<tag k="ssr:stedsnr" v="572379" />
	</node>
	<node id="-918031" lat="70.1277805912" lon="29.0496155771">
		<tag k="name" v="Fuglåsmyra" />
		<tag k="name:no" v="Fuglåsmyra" />
		<tag k="natural" v="wetland" />
		<tag k="ssr:stedsnr" v="571245" />
	</node>
	<node id="-918020" lat="70.0960250343" lon="28.7778517934">
		<tag k="name" v="Juggejeaggi" />
		<tag k="name:se" v="Juggejeaggi" />
		<tag k="natural" v="wetland" />
		<tag k="old_name:se" v="Juggejæggi" />
		<tag k="ssr:stedsnr" v="565801" />
	</node>
	<node id="-917846" lat="70.1407000295" lon="28.5882518683">
		<tag k="name" v="Dutku" />
		<tag k="name:se" v="Dutku" />
		<tag k="natural" v="wetland" />
		<tag k="old_name:se" v="Dutko" />
		<tag k="ssr:stedsnr" v="201754" />
	</node>
	<node id="-918018" lat="70.1181000271" lon="28.4244546847">
		<tag k="name" v="Loahkejeaggi" />
		<tag k="name:se" v="Loahkejeaggi" />
		<tag k="natural" v="wetland" />
		<tag k="old_name:se" v="Loakkejæggi" />
		<tag k="ssr:stedsnr" v="565792" />
>>>>>>> e1d4bc35ff8a6074a6f2e91616a996b547c36f15
	</node>
</osm>
