<?xml version="1.0" encoding="UTF-8"?>
<osm version="0.6" generator="osmapis">
	<node lat="70.01795004208726" lon="29.305315409434034" id="-49340">
		<tag k="name" v="Vikstraumbukta" />
		<tag k="natural" v="bay" />
		<tag k="ssr:stedsnr" v="231846" />
	</node>
	<node lat="70.17069447366875" lon="28.75710180198417" id="-49349">
		<tag k="name" v="Marmenjárga - Mørmenes" />
		<tag k="name:no" v="Mørmenes" />
		<tag k="name:se" v="Marmenjárga" />
		<tag k="natural" v="cape" />
		<tag k="ssr:stedsnr" v="26507" />
	</node>
	<node lat="70.16532780477507" lon="28.781412906093898" id="-49350">
		<tag k="name" v="Ottereŋnjárga" />
		<tag k="name:se" v="Ottereŋnjárga" />
		<tag k="natural" v="cape" />
		<tag k="ssr:stedsnr" v="26484" />
	</node>
	<node lat="70.08910836347924" lon="28.80598230507441" id="-49354">
		<tag k="name" v="Bealsagohppi" />
		<tag k="name:se" v="Bealsagohppi" />
		<tag k="natural" v="bay" />
		<tag k="ssr:stedsnr" v="28182" />
	</node>
	<node lat="70.07311392224486" lon="28.853346182562024" id="-49358">
		<tag k="name" v="Ántenjárga" />
		<tag k="name:se" v="Ántenjárga" />
		<tag k="natural" v="cape" />
		<tag k="ssr:stedsnr" v="29231" />
	</node>
	<node lat="70.04744170934697" lon="29.141909942063965" id="-49363">
		<tag k="name" v="Nieidaváhnjárga" />
		<tag k="name:se" v="Nieidaváhnjárga" />
		<tag k="natural" v="cape" />
		<tag k="ssr:stedsnr" v="30628" />
	</node>
	<node lat="70.0237611506938" lon="29.13863494972413" id="-49364">
		<tag k="name" v="Pierasáttu" />
		<tag k="name:se" v="Pierasáttu" />
		<tag k="natural" v="beach" />
		<tag k="ssr:stedsnr" v="30639" />
	</node>
	<node lat="70.02924448144373" lon="29.17177380276926" id="-49365">
		<tag k="name" v="Sárairvvinjárga" />
		<tag k="name:se" v="Sárairvvinjárga" />
		<tag k="natural" v="cape" />
		<tag k="ssr:stedsnr" v="30642" />
	</node>
	<node lat="70.01195281350545" lon="29.159532137887542" id="-49367">
		<tag k="name" v="Rággošnjárga - Steinnes" />
		<tag k="name:no" v="Steinnes" />
		<tag k="name:se" v="Rággošnjárga" />
		<tag k="natural" v="cape" />
		<tag k="ssr:stedsnr" v="30709" />
	</node>
	<node lat="70.1724555878742" lon="28.607318527330857" id="-49369">
		<tag k="fixme" v="consider seamark:type=rock or natural=shoal" />
		<tag k="name" v="Nyborgskjæret" />
		<tag k="name:no" v="Nyborgskjæret" />
		<tag k="place" v="islet" />
		<tag k="ssr:stedsnr" v="48322" />
	</node>
	<node lat="70.1295000362543" lon="28.989612805269516" id="-49379">
		<tag k="alt_name:no" v="Nordkappskjæret" />
		<tag k="fixme" v="consider seamark:type=rock or natural=shoal" />
		<tag k="name" v="Nordkapp" />
		<tag k="name:no" v="Nordkapp" />
		<tag k="place" v="islet" />
		<tag k="ssr:stedsnr" v="86301" />
	</node>
	<node lat="70.07570280875164" lon="28.84257119880375" id="-49381">
		<tag k="name" v="Ođđajohnjárga" />
		<tag k="name:se" v="Ođđajohnjárga" />
		<tag k="natural" v="cape" />
		<tag k="ssr:stedsnr" v="89219" />
	</node>
	<node lat="70.07470836890144" lon="28.96308503604992" id="-49386">
		<tag k="name" v="Naskholmgrunnen" />
		<tag k="name:no" v="Naskholmgrunnen" />
		<tag k="natural" v="shoal" />
		<tag k="place" v="locality" />
		<tag k="ssr:stedsnr" v="109127" />
	</node>
	<node lat="70.12526114166498" lon="28.99663502423302" id="-49394">
		<tag k="fixme" v="consider seamark:type=rock or natural=shoal" />
		<tag k="name" v="Urralásis - Vardeskjæret" />
		<tag k="name:no" v="Vardeskjæret" />
		<tag k="name:se" v="Urralásis" />
		<tag k="place" v="islet" />
		<tag k="ssr:stedsnr" v="145081" />
	</node>
</osm>
