<?xml version="1.0" encoding="UTF-8"?>
<osm version="0.6" generator="osmapis">
	<node lat="70.04752781177814" lon="29.00796833665172" id="-49346">
		<tag k="name" v="Jeageloaivi" />
		<tag k="name:se" v="Jeageloaivi" />
		<tag k="natural" v="hill" />
		<tag k="old_name:se" v="Jægeloaivi" />
		<tag k="place" v="locality" />
		<tag k="ssr:stedsnr" v="20690" />
	</node>
	<node lat="70.3008472558324" lon="28.845782357789115" id="-49347">
		<tag k="fixme" v="consider natural=peak for the most distinct mountains in the district" />
		<tag k="name" v="Davitvárri" />
		<tag k="name:se" v="Davitvárri" />
		<tag k="natural" v="hill" />
		<tag k="old_name:se" v="Davitvarri" />
		<tag k="place" v="locality" />
		<tag k="ssr:stedsnr" v="20993" />
	</node>
	<node lat="70.30380003387408" lon="29.02107672873937" id="-49348">
		<tag k="fixme" v="consider natural=peak for the most distinct mountains in the district" />
		<tag k="name" v="Boaltunoaivi" />
		<tag k="name:se" v="Boaltunoaivi" />
		<tag k="natural" v="hill" />
		<tag k="old_name:se" v="Boaltonoaivi" />
		<tag k="place" v="locality" />
		<tag k="ssr:stedsnr" v="20997" />
	</node>
	<node lat="70.10301391921897" lon="28.56983520117756" id="-49351">
		<tag k="name" v="Sirddagohguolbba" />
		<tag k="name:se" v="Sirddagohguolbba" />
		<tag k="place" v="locality" />
		<tag k="ssr:stedsnr" v="26701" />
	</node>
	<node lat="70.07337781474689" lon="28.81239897318847" id="-49355">
		<tag k="name" v="Čohkki" />
		<tag k="name:se" v="Čohkki" />
		<tag k="natural" v="hill" />
		<tag k="place" v="locality" />
		<tag k="ssr:stedsnr" v="28223" />
	</node>
	<node lat="70.17773336151984" lon="28.77543790023398" id="-49356">
		<tag k="fixme" v="consider natural=peak for the most distinct mountains in the district" />
		<tag k="name" v="Uhcaváráš" />
		<tag k="name:se" v="Uhcaváráš" />
		<tag k="natural" v="hill" />
		<tag k="place" v="locality" />
		<tag k="ssr:stedsnr" v="28518" />
	</node>
	<node lat="70.07259725529866" lon="28.83897674945411" id="-49357">
		<tag k="name" v="Ájakanjunni" />
		<tag k="name:se" v="Ájakanjunni" />
		<tag k="natural" v="hill" />
		<tag k="place" v="locality" />
		<tag k="ssr:stedsnr" v="29218" />
	</node>
	<node lat="70.06377503251473" lon="28.87810171457224" id="-49359">
		<tag k="name" v="Boazoaivi" />
		<tag k="name:se" v="Boazoaivi" />
		<tag k="natural" v="hill" />
		<tag k="place" v="locality" />
		<tag k="ssr:stedsnr" v="29232" />
	</node>
	<node lat="70.06382225521966" lon="28.902273944748416" id="-49362">
		<tag k="name" v="Sikkájárbávttit" />
		<tag k="name:se" v="Sikkájárbávttit" />
		<tag k="natural" v="hill" />
		<tag k="place" v="locality" />
		<tag k="ssr:stedsnr" v="30537" />
	</node>
	<node lat="70.03375836875831" lon="29.151871051810076" id="-49366">
		<tag k="name" v="Njuorjjoaivi" />
		<tag k="name:se" v="Njuorjjoaivi" />
		<tag k="natural" v="hill" />
		<tag k="place" v="locality" />
		<tag k="ssr:stedsnr" v="30643" />
	</node>
	<node lat="70.2258555796834" lon="28.494390803876197" id="-49370">
		<tag k="fixme" v="multiple name tags, choose one and add the other to alt_name; consider natural=peak for the most distinct mountains in the district" />
		<tag k="name" v="Stuorra Báffšovađđa;Stuorra Bákšavárri" />
		<tag k="name:se" v="Stuorra Báffšovađđa;Stuorra Bákšavárri" />
		<tag k="natural" v="hill" />
		<tag k="old_name:se" v="Bakšavarri, stuorra" />
		<tag k="place" v="locality" />
		<tag k="ssr:stedsnr" v="79794" />
	</node>
	<node lat="70.15860002948656" lon="28.92176006083969" id="-49371">
		<tag k="alt_name:se" v="Stuorragusinjunnás" />
		<tag k="fixme" v="consider natural=peak for the most distinct mountains in the district" />
		<tag k="name" v="Gusnjunis - Kunasen" />
		<tag k="name:no" v="Kunasen" />
		<tag k="name:se" v="Gusnjunis" />
		<tag k="natural" v="hill" />
		<tag k="place" v="locality" />
		<tag k="ssr:stedsnr" v="80645" />
	</node>
	<node lat="69.99036947605825" lon="28.73925454458746" id="-49373">
		<tag k="fixme" v="consider natural=peak for the most distinct mountains in the district" />
		<tag k="name" v="Boillošoaivi" />
		<tag k="name:se" v="Boillošoaivi" />
		<tag k="natural" v="hill" />
		<tag k="old_name:se" v="Båilušoaivi" />
		<tag k="place" v="locality" />
		<tag k="ssr:stedsnr" v="80788" />
	</node>
	<node lat="69.95559170130909" lon="28.825715599170426" id="-49375">
		<tag k="fixme" v="consider natural=peak for the most distinct mountains in the district" />
		<tag k="name" v="Láirabáŋkenoaivi" />
		<tag k="name:se" v="Láirabáŋkenoaivi" />
		<tag k="natural" v="hill" />
		<tag k="old_name:se" v="Lairabaŋkenoaivi" />
		<tag k="place" v="locality" />
		<tag k="ssr:stedsnr" v="80846" />
	</node>
	<node lat="70.159925029429" lon="28.903935085669165" id="-49378">
		<tag k="name" v="Mávnnosoaivi" />
		<tag k="name:se" v="Mávnnosoaivi" />
		<tag k="natural" v="hill" />
		<tag k="place" v="locality" />
		<tag k="ssr:stedsnr" v="86275" />
	</node>
	<node lat="69.99590837345929" lon="29.12307106103851" id="-49382">
		<tag k="name" v="Skáiddileahki" />
		<tag k="name:se" v="Skáiddileahki" />
		<tag k="natural" v="valley" />
		<tag k="place" v="locality" />
		<tag k="ssr:stedsnr" v="91718" />
	</node>
	<node lat="70.0897500259537" lon="28.64849071970442" id="-49387">
		<tag k="name" v="Reahpenguolbba" />
		<tag k="name:se" v="Reahpenguolbba" />
		<tag k="old_name:se" v="Ræppenguolba" />
		<tag k="place" v="locality" />
		<tag k="ssr:stedsnr" v="140803" />
	</node>
	<node lat="70.10126947519908" lon="28.39525470223211" id="-49392">
		<tag k="fixme" v="consider natural=peak for the most distinct mountains in the district" />
		<tag k="name" v="Reikejohgáisá" />
		<tag k="name:se" v="Reikejohgáisá" />
		<tag k="natural" v="hill" />
		<tag k="old_name:se" v="Reikejåkgaisa" />
		<tag k="place" v="locality" />
		<tag k="ssr:stedsnr" v="140788" />
	</node>
	<node lat="70.35411392101192" lon="29.124307267657787" id="-49393">
		<tag k="fixme" v="consider natural=peak for the most distinct mountains in the district" />
		<tag k="name" v="Njunesvárri" />
		<tag k="name:se" v="Njunesvárri" />
		<tag k="natural" v="hill" />
		<tag k="old_name:se" v="Njunesvarri" />
		<tag k="place" v="locality" />
		<tag k="ssr:stedsnr" v="141996" />
	</node>
</osm>
