<?xml version="1.0" encoding="UTF-8"?>
<<<<<<< HEAD
<osm version="0.6" generator="osmapis">
	<node lat="70.22884725024694" lon="28.739210173478394" id="-38283">
		<tag k="name" v="Jorbmejohka" />
		<tag k="name:se" v="Jorbmejohka" />
		<tag k="old_name:se" v="Jårbmejåkka" />
		<tag k="ssr:stedsnr" v="19802" />
		<tag k="waterway" v="stream" />
	</node>
	<node lat="70.18437503455506" lon="28.97186005548146" id="-38285">
		<tag k="name" v="Guollejávrrit" />
		<tag k="name:se" v="Guollejávrrit" />
		<tag k="natural" v="water" />
		<tag k="old_name:se" v="Guollejavrit" />
		<tag k="ssr:stedsnr" v="19739" />
		<tag k="water" v="lake" />
	</node>
	<node lat="70.15588891657251" lon="28.565765750324562" id="-38286">
		<tag k="name" v="Njiđggujohka - Vesterelva" />
		<tag k="name:no" v="Vesterelva" />
		<tag k="name:se" v="Njiđggujohka" />
		<tag k="old_name:se" v="Njiđgojåkka" />
		<tag k="ssr:stedsnr" v="20451" />
		<tag k="waterway" v="river" />
	</node>
	<node lat="70.19681391894909" lon="28.387021387368765" id="-38294">
		<tag k="name" v="Jorrinjávrrit" />
		<tag k="name:se" v="Jorrinjávrrit" />
		<tag k="natural" v="water" />
		<tag k="ssr:stedsnr" v="27031" />
	</node>
	<node lat="70.18858892341991" lon="28.93926841512919" id="-38295">
		<tag k="name" v="Stuorraroggejohka" />
		<tag k="name:se" v="Stuorraroggejohka" />
		<tag k="ssr:stedsnr" v="27103" />
		<tag k="waterway" v="stream" />
	</node>
	<node lat="70.06845558626156" lon="28.912796161248608" id="-38302">
		<tag k="name" v="Háššajávri" />
		<tag k="name:se" v="Háššajávri" />
		<tag k="natural" v="water" />
		<tag k="ssr:stedsnr" v="30529" />
	</node>
	<node lat="70.0699833684142" lon="28.900657277827683" id="-38303">
		<tag k="name" v="Birggetáhkku" />
		<tag k="name:se" v="Birggetáhkku" />
		<tag k="natural" v="water" />
		<tag k="ssr:stedsnr" v="30533" />
	</node>
	<node lat="70.08605003123176" lon="28.484004661548678" id="-38316">
		<tag k="name" v="Molonjoasjávri" />
		<tag k="name:se" v="Molonjoasjávri" />
		<tag k="natural" v="water" />
		<tag k="old_name:se" v="Målunjoasjavri" />
		<tag k="ssr:stedsnr" v="80799" />
	</node>
	<node lat="70.12819447186959" lon="28.49479354410765" id="-38318">
		<tag k="name" v="Kattes Njiđgo" />
		<tag k="name:se" v="Kattes Njiđgo" />
		<tag k="ssr:stedsnr" v="85423" />
		<tag k="waterway" v="river" />
	</node>
	<node lat="70.18395558125773" lon="28.41066025519648" id="-38319">
		<tag k="name" v="Tredjebukta" />
		<tag k="name:no" v="Tredjebukta" />
		<tag k="natural" v="bay" />
		<tag k="ssr:stedsnr" v="85495" />
	</node>
	<node lat="70.20177502994494" lon="28.400204715046492" id="-38330">
		<tag k="name" v="Jorranjávrrit" />
		<tag k="name:se" v="Jorranjávrrit" />
		<tag k="natural" v="water" />
		<tag k="old_name:se" v="Jårranjavrit" />
		<tag k="ssr:stedsnr" v="140836" />
	</node>
	<node lat="69.97254170574224" lon="28.82636283117908" id="-38331">
		<tag k="name" v="Láirabáŋkenjávri" />
		<tag k="name:se" v="Láirabáŋkenjávri" />
		<tag k="natural" v="water" />
		<tag k="old_name:se" v="Lairabaŋkenjavri" />
		<tag k="ssr:stedsnr" v="140838" />
		<tag k="water" v="lake" />
	</node>
	<node lat="70.21804446845857" lon="28.49277411948171" id="-38332">
		<tag k="alt_name:se" v="Báišvađaláttu" />
		<tag k="name" v="Bákšavárláttu" />
		<tag k="name:se" v="Bákšavárláttu" />
		<tag k="natural" v="water" />
		<tag k="old_name:se" v="Bakšavarladdo" />
		<tag k="ssr:stedsnr" v="140840" />
	</node>
	<node lat="70.18546391370751" lon="28.574810217435758" id="-38337">
		<tag k="name" v="Johtinjohka" />
		<tag k="name:se" v="Johtinjohka" />
		<tag k="ssr:stedsnr" v="146414" />
		<tag k="waterway" v="stream" />
	</node>
	<node lat="70.08360003481232" lon="28.72472401466281" id="-38345">
		<tag k="name" v="Čáhcekeatjávri" />
		<tag k="name:se" v="Čáhcekeatjávri" />
=======
<osm generator="osmapis" version="0.6">
	<node id="-918016" lat="70.1968083668" lon="29.121493342">
		<tag k="name" v="Čoskajávri" />
		<tag k="name:se" v="Čoskajávri" />
		<tag k="natural" v="water" />
		<tag k="old_name:se" v="Čåskajavri" />
		<tag k="ssr:stedsnr" v="565756" />
		<tag k="water" v="lake" />
	</node>
	<node id="-918013" lat="70.061383362" lon="28.494326885">
		<tag k="name" v="Njiđggujávri" />
		<tag k="name:se" v="Njiđggujávri" />
		<tag k="natural" v="water" />
		<tag k="old_name:se" v="Njiđgojavri;Njiđgujávri" />
		<tag k="ssr:stedsnr" v="565713" />
		<tag k="water" v="lake" />
	</node>
	<node id="-918012" lat="70.2437666949" lon="28.8814823253">
		<tag k="name" v="Davitjohka" />
		<tag k="name:se" v="Davitjohka" />
		<tag k="old_name:se" v="Davitjåkka" />
		<tag k="ssr:stedsnr" v="565707" />
		<tag k="waterway" v="stream" />
	</node>
	<node id="-917498" lat="70.1821694697" lon="28.4122241493">
		<tag k="name" v="Andrebukta" />
		<tag k="name:no" v="Andrebukta" />
		<tag k="natural" v="bay" />
		<tag k="ssr:stedsnr" v="570529" />
	</node>
	<node id="-918008" lat="70.0592028109" lon="28.9660155792">
		<tag k="name" v="Sorbmejávri" />
		<tag k="name:se" v="Sorbmejávri" />
		<tag k="natural" v="water" />
		<tag k="old_name:se" v="Sårbmejavri" />
		<tag k="ssr:stedsnr" v="565666" />
	</node>
	<node id="-917728" lat="70.0534083672" lon="28.9919183556">
		<tag k="name" v="Niibereahpenjávri" />
		<tag k="name:se" v="Niibereahpenjávri" />
		<tag k="natural" v="water" />
		<tag k="old_name:se" v="Niiberæppenjavri" />
		<tag k="ssr:stedsnr" v="80658" />
	</node>
	<node id="-917492" lat="70.029413928" lon="29.0893182849">
		<tag k="name" v="Čivttajárjohka" />
		<tag k="name:se" v="Čivttajárjohka" />
		<tag k="ssr:stedsnr" v="697634" />
		<tag k="waterway" v="stream" />
	</node>
	<node id="-918002" lat="70.1884805871" lon="28.6269351958">
		<tag k="name" v="Ánnájávri - Andevatnet" />
		<tag k="name:no" v="Andevatnet" />
		<tag k="name:se" v="Ánnájávri" />
		<tag k="natural" v="water" />
		<tag k="old_name:se" v="Annajavri" />
		<tag k="ssr:stedsnr" v="564854" />
	</node>
	<node id="-918000" lat="70.1797028011" lon="28.4008408153">
		<tag k="name" v="Rovvejávri" />
		<tag k="name:se" v="Rovvejávri" />
		<tag k="natural" v="water" />
		<tag k="ssr:stedsnr" v="564850" />
		<tag k="water" v="lake" />
	</node>
	<node id="-917487" lat="70.0789666988" lon="28.7457740009">
		<tag k="name" v="Duvdegieddjávri" />
		<tag k="name:se" v="Duvdegieddjávri" />
		<tag k="natural" v="water" />
		<tag k="ssr:stedsnr" v="696183" />
		<tag k="water" v="lake" />
	</node>
	<node id="-917997" lat="70.2269861435" lon="28.7759323736">
		<tag k="name" v="Balddasvađajohka" />
		<tag k="name:se" v="Balddasvađajohka" />
		<tag k="old_name:se" v="Baldasvađajåkka" />
		<tag k="ssr:stedsnr" v="564814" />
		<tag k="waterway" v="stream" />
	</node>
	<node id="-917996" lat="70.13857503" lon="28.3626797106">
		<tag k="name" v="Hávgajávri" />
		<tag k="name:se" v="Hávgajávri" />
		<tag k="natural" v="water" />
		<tag k="old_name:se" v="Havgajavri" />
		<tag k="ssr:stedsnr" v="564753" />
	</node>
	<node id="-917993" lat="70.0664389223" lon="28.8898850503">
		<tag k="name" v="Viercajávri - Værvatnet" />
		<tag k="name:no" v="Værvatnet" />
		<tag k="name:se" v="Viercajávri" />
		<tag k="natural" v="water" />
		<tag k="old_name:se" v="Viercajavri" />
		<tag k="ssr:stedsnr" v="564667" />
	</node>
	<node id="-918131" lat="70.1960611448" lon="28.8503962315">
		<tag k="name" v="Gáhkkorjávri" />
		<tag k="name:se" v="Gáhkkorjávri" />
		<tag k="natural" v="water" />
		<tag k="old_name:se" v="Gakkurjavri" />
		<tag k="ssr:stedsnr" v="747743" />
	</node>
	<node id="-917986" lat="69.9959750402" lon="29.2140682198">
		<tag k="name" v="Borgejohka" />
		<tag k="name:se" v="Borgejohka" />
		<tag k="ssr:stedsnr" v="394732" />
		<tag k="waterway" v="stream" />
	</node>
	<node id="-917982" lat="70.0633055923" lon="28.8867183944">
		<tag k="name" v="Viercajárjohka" />
		<tag k="name:se" v="Viercajárjohka" />
		<tag k="ssr:stedsnr" v="394540" />
		<tag k="waterway" v="stream" />
	</node>
	<node id="-917466" lat="70.3043528098" lon="29.0956961667">
		<tag k="name" v="Lavdnjevárjohka - Torvhaugelva" />
		<tag k="name:no" v="Torvhaugelva" />
		<tag k="name:se" v="Lavdnjevárjohka" />
		<tag k="old_name:se" v="Lavdnjevarjåkka" />
		<tag k="ssr:stedsnr" v="687993" />
		<tag k="waterway" v="stream" />
	</node>
	<node id="-917465" lat="70.2845000348" lon="28.963515651">
		<tag k="name" v="Bearalveaijohka" />
		<tag k="name:se" v="Bearalveaijohka" />
		<tag k="old_name:se" v="Bæralvæjjåkka" />
		<tag k="ssr:stedsnr" v="687989" />
		<tag k="waterway" v="river" />
	</node>
	<node id="-917463" lat="69.8582805888" lon="28.3542879966">
		<tag k="name" v="Bihtošjohka" />
		<tag k="name:se" v="Bihtošjohka" />
		<tag k="old_name:se" v="Bittušjåkka" />
		<tag k="ssr:stedsnr" v="687856" />
		<tag k="waterway" v="stream" />
	</node>
	<node id="-917462" lat="69.9817889247" lon="28.8901655772">
		<tag k="name" v="Stohkkemuorjávri" />
		<tag k="name:se" v="Stohkkemuorjávri" />
		<tag k="natural" v="water" />
		<tag k="old_name:se" v="Ståkkemuorjavri" />
		<tag k="ssr:stedsnr" v="687845" />
	</node>
	<node id="-917459" lat="70.1736750309" lon="28.8262267839">
		<tag k="name" v="Bergebyvatna" />
		<tag k="name:no" v="Bergebyvatna" />
		<tag k="natural" v="water" />
		<tag k="ssr:stedsnr" v="687736" />
	</node>
	<node id="-917457" lat="70.1435639267" lon="29.1877016096">
		<tag k="name" v="Suolovárjávri" />
		<tag k="name:se" v="Suolovárjávri" />
		<tag k="natural" v="water" />
		<tag k="old_name:se" v="Suoluvarjavri" />
		<tag k="ssr:stedsnr" v="687656" />
	</node>
	<node id="-917455" lat="70.154866696" lon="28.9446628388">
		<tag k="name" v="Ruossabákjávri - Korsvatnet" />
		<tag k="name:no" v="Korsvatnet" />
		<tag k="name:se" v="Ruossabákjávri" />
		<tag k="natural" v="water" />
		<tag k="old_name:se" v="Ruossabakjavri" />
		<tag k="ssr:stedsnr" v="687646" />
	</node>
	<node id="-917191" lat="70.180469474" lon="28.415629714">
		<tag k="name" v="Førstebukta" />
		<tag k="name:no" v="Førstebukta" />
		<tag k="natural" v="bay" />
		<tag k="ssr:stedsnr" v="267547" />
	</node>
	<node id="-917453" lat="70.1354055878" lon="29.0632322268">
		<tag k="name" v="Dalavatnet" />
		<tag k="name:no" v="Dalavatnet" />
		<tag k="natural" v="water" />
		<tag k="ssr:stedsnr" v="687630" />
	</node>
	<node id="-917452" lat="70.0188000381" lon="28.9660377911">
		<tag k="name" v="Uhca Láhtajávri" />
		<tag k="name:se" v="Uhca Láhtajávri" />
		<tag k="natural" v="water" />
		<tag k="old_name:se" v="Lattajavri, ucca" />
		<tag k="ssr:stedsnr" v="687612" />
	</node>
	<node id="-917962" lat="70.1803639169" lon="28.790504564">
		<tag k="name" v="Njoaskevárjávri" />
		<tag k="name:se" v="Njoaskevárjávri" />
		<tag k="natural" v="water" />
		<tag k="old_name:se" v="Njoaskevarjavri" />
		<tag k="ssr:stedsnr" v="383875" />
	</node>
	<node id="-917960" lat="69.9717722575" lon="28.972982215">
		<tag k="name" v="Niibereahpenjávri" />
		<tag k="name:se" v="Niibereahpenjávri" />
		<tag k="natural" v="water" />
		<tag k="old_name:se" v="Niiberæppenjavri;Niibereappenjávri" />
		<tag k="ssr:stedsnr" v="383862" />
		<tag k="water" v="lake" />
	</node>
	<node id="-917446" lat="70.1913583604" lon="28.7513768141">
		<tag k="name" v="Galbajohjávri" />
		<tag k="name:se" v="Galbajohjávri" />
		<tag k="natural" v="water" />
		<tag k="old_name:se" v="Galbajåkjavri" />
		<tag k="ssr:stedsnr" v="686809" />
	</node>
	<node id="-917445" lat="70.238408361" lon="28.7278851747">
		<tag k="name" v="Geađgejohka" />
		<tag k="name:se" v="Geađgejohka" />
		<tag k="old_name:se" v="Gæđgejåkka" />
		<tag k="ssr:stedsnr" v="686802" />
		<tag k="waterway" v="stream" />
	</node>
	<node id="-917956" lat="70.065783363" lon="28.702465679">
		<tag k="name" v="Háškajávri" />
		<tag k="name:se" v="Háškajávri" />
		<tag k="natural" v="water" />
		<tag k="old_name:se" v="Haškajavri;Haskajávri" />
		<tag k="ssr:stedsnr" v="383819" />
		<tag k="water" v="lake" />
	</node>
	<node id="-918262" lat="70.0349778162" lon="28.7542545418">
		<tag k="name" v="Sálomunjávrrit" />
		<tag k="name:se" v="Sálomunjávrrit" />
		<tag k="natural" v="water" />
		<tag k="old_name:se" v="Salumunjavrit" />
		<tag k="ssr:stedsnr" v="869739" />
		<tag k="water" v="lake" />
	</node>
	<node id="-917442" lat="70.0659111409" lon="28.5923296109">
		<tag k="name" v="Reahpenjohka - Reppenelva" />
		<tag k="name:no" v="Reppenelva" />
		<tag k="name:se" v="Reahpenjohka" />
		<tag k="ssr:stedsnr" v="686787" />
		<tag k="waterway" v="river" />
	</node>
	<node id="-917440" lat="70.0958222557" lon="28.8089740027">
		<tag k="name" v="Bálkkotjávrrát" />
		<tag k="name:se" v="Bálkkotjávrrát" />
		<tag k="natural" v="water" />
		<tag k="old_name:se" v="Balkutjavrat" />
		<tag k="ssr:stedsnr" v="686773" />
	</node>
	<node id="-917438" lat="70.1372778079" lon="28.6224907297">
		<tag k="name" v="Rokkesisjávri" />
		<tag k="name:se" v="Rokkesisjávri" />
		<tag k="natural" v="water" />
		<tag k="old_name:se" v="Råggesisjavri" />
		<tag k="ssr:stedsnr" v="686749" />
	</node>
	<node id="-917437" lat="69.9687055867" lon="28.5256323845">
		<tag k="name" v="Guovžajávrrit" />
		<tag k="name:se" v="Guovžajávrrit" />
		<tag k="natural" v="water" />
		<tag k="old_name:se" v="Guovžajavrit" />
		<tag k="ssr:stedsnr" v="686743" />
	</node>
	<node id="-917435" lat="70.0294722509" lon="28.3271963855">
		<tag k="name" v="Savetjávrrit" />
		<tag k="name:se" v="Savetjávrrit" />
		<tag k="natural" v="water" />
		<tag k="old_name:se" v="Savetjavrit" />
		<tag k="ssr:stedsnr" v="686713" />
		<tag k="water" v="lake" />
	</node>
	<node id="-917434" lat="70.0572889267" lon="28.7982739818">
		<tag k="name" v="Stuorrajávri" />
		<tag k="name:se" v="Stuorrajávri" />
>>>>>>> e1d4bc35ff8a6074a6f2e91616a996b547c36f15
		<tag k="natural" v="water" />
		<tag k="old_name:se" v="Stuorrajavri" />
		<tag k="ssr:stedsnr" v="686707" />
	</node>
	<node id="-917919" lat="70.1740916922" lon="28.3781936111">
		<tag k="name" v="Hávgaguhkesjávri" />
		<tag k="name:se" v="Hávgaguhkesjávri" />
		<tag k="natural" v="water" />
		<tag k="old_name:se" v="Havgagukkesjavri" />
		<tag k="ssr:stedsnr" v="330690" />
		<tag k="water" v="lake" />
	</node>
<<<<<<< HEAD
	<node lat="70.05844725488848" lon="28.909115606213614" id="-38350">
		<tag k="name" v="Rámpagurjohka" />
		<tag k="name:se" v="Rámpagurjohka" />
		<tag k="ssr:stedsnr" v="151558" />
		<tag k="waterway" v="stream" />
	</node>
	<node lat="70.21346113601274" lon="28.64194352602877" id="-38358">
		<tag k="name" v="Nieidavárjávrrit" />
		<tag k="name:se" v="Nieidavárjávrrit" />
		<tag k="natural" v="water" />
		<tag k="old_name:se" v="Nieidavarjavrit" />
		<tag k="ssr:stedsnr" v="261805" />
	</node>
	<node lat="70.05827503789227" lon="28.948493374309386" id="-38363">
		<tag k="alt_name:se" v="Goikejávriláttu" />
		<tag k="name" v="Goikejárláttu" />
		<tag k="name:se" v="Goikejárláttu" />
		<tag k="natural" v="water" />
		<tag k="old_name:se" v="Gåikejarladdo" />
		<tag k="ssr:stedsnr" v="262664" />
	</node>
	<node lat="70.04899725769731" lon="29.049957211130582" id="-38364">
		<tag k="name" v="Oalgejohka" />
		<tag k="name:se" v="Oalgejohka" />
		<tag k="old_name:se" v="Oalgejåkka" />
		<tag k="ssr:stedsnr" v="262679" />
		<tag k="waterway" v="stream" />
	</node>
	<node lat="70.01379447546188" lon="28.55006572003337" id="-38367">
		<tag k="name" v="Áidneluoppal" />
		<tag k="name:se" v="Áidneluoppal" />
		<tag k="natural" v="water" />
		<tag k="old_name:se" v="Aidneluobbal" />
		<tag k="ssr:stedsnr" v="262714" />
		<tag k="water" v="lake" />
	</node>
	<node lat="70.21525003831174" lon="29.122015556617683" id="-38368">
		<tag k="name" v="Lámmejávrrit" />
		<tag k="name:se" v="Lámmejávrrit" />
		<tag k="natural" v="water" />
		<tag k="old_name:se" v="Lammejavrit" />
		<tag k="ssr:stedsnr" v="262718" />
		<tag k="water" v="lake" />
	</node>
	<node lat="70.06127503482878" lon="28.56304073749692" id="-38370">
		<tag k="name" v="Roggejávri" />
		<tag k="name:se" v="Roggejávri" />
		<tag k="natural" v="water" />
		<tag k="old_name:se" v="Råggejavri" />
		<tag k="ssr:stedsnr" v="262734" />
	</node>
	<node lat="70.13667503020567" lon="28.40358526590863" id="-38374">
		<tag k="name" v="Eassajávri" />
		<tag k="name:se" v="Eassajávri" />
		<tag k="natural" v="water" />
		<tag k="old_name:se" v="Æssajavri" />
		<tag k="ssr:stedsnr" v="262790" />
	</node>
	<node lat="70.25200557622514" lon="28.445218609351535" id="-38379">
		<tag k="name" v="Sáverkkejohka" />
		<tag k="name:se" v="Sáverkkejohka" />
		<tag k="old_name:se" v="Saverkejåkka" />
		<tag k="ssr:stedsnr" v="262963" />
		<tag k="waterway" v="stream" />
	</node>
	<node lat="70.22182502754647" lon="28.395240824288674" id="-38386">
		<tag k="alt_name:se" v="Jorrinjohka" />
		<tag k="name" v="Jorranjohka - Ringbekken" />
		<tag k="name:no" v="Ringbekken" />
		<tag k="name:se" v="Jorranjohka" />
		<tag k="old_name:se" v="Jårranjåkka" />
		<tag k="ssr:stedsnr" v="201797" />
		<tag k="waterway" v="stream" />
	</node>
	<node lat="70.0423750293659" lon="28.70193234537501" id="-38388">
		<tag k="name" v="Čuometláddot" />
		<tag k="name:se" v="Čuometláddot" />
		<tag k="natural" v="water" />
		<tag k="old_name:se" v="Čuometladdut" />
		<tag k="ssr:stedsnr" v="201699" />
	</node>
	<node lat="70.18046947395447" lon="28.41562971401587" id="-38390">
		<tag k="name" v="Førstebukta" />
		<tag k="name:no" v="Førstebukta" />
		<tag k="natural" v="bay" />
		<tag k="ssr:stedsnr" v="267547" />
	</node>
	<node lat="70.15950558622721" lon="28.828965671229685" id="-38400">
		<tag k="name" v="Makkirjohka" />
		<tag k="name:se" v="Makkirjohka" />
		<tag k="ssr:stedsnr" v="269470" />
		<tag k="waterway" v="stream" />
	</node>
	<node lat="70.15326669676365" lon="28.571810215239825" id="-38405">
		<tag k="name" v="Beaivvášjohka" />
		<tag k="name:se" v="Beaivvášjohka" />
		<tag k="ssr:stedsnr" v="270440" />
		<tag k="waterway" v="stream" />
	</node>
	<node lat="70.20651391467487" lon="28.45103526788279" id="-38422">
		<tag k="name" v="Villeláttu" />
		<tag k="name:se" v="Villeláttu" />
		<tag k="natural" v="water" />
		<tag k="ssr:stedsnr" v="452035" />
	</node>
	<node lat="70.18255002828336" lon="28.543649100859888" id="-38431">
		<tag k="alt_name:no" v="Bruelva" />
		<tag k="name" v="Rovvejohka - Nyborgelva" />
		<tag k="name:no" v="Nyborgelva" />
		<tag k="name:se" v="Rovvejohka" />
		<tag k="ssr:stedsnr" v="261797" />
		<tag k="waterway" v="river" />
	</node>
	<node lat="69.92752225892221" lon="28.59323791891583" id="-38438">
		<tag k="name" v="Ásllatjávri" />
		<tag k="name:se" v="Ásllatjávri" />
		<tag k="natural" v="water" />
		<tag k="old_name:se" v="Aslatjavri" />
		<tag k="ssr:stedsnr" v="262891" />
	</node>
	<node lat="69.93283892334937" lon="28.667737900804827" id="-38439">
		<tag k="name" v="Ádjájávri" />
		<tag k="name:se" v="Ádjájávri" />
		<tag k="natural" v="water" />
		<tag k="old_name:se" v="Addjajavri" />
		<tag k="ssr:stedsnr" v="262892" />
		<tag k="water" v="lake" />
	</node>
	<node lat="70.3152583677705" lon="28.97570175650866" id="-38443">
		<tag k="name" v="Jávrrašmievttajávrrit" />
		<tag k="name:se" v="Jávrrašmievttajávrrit" />
=======
	<node id="-917944" lat="70.0434417" lon="28.528665749">
		<tag k="name" v="Sikkájávrrit" />
		<tag k="name:se" v="Sikkájávrrit" />
		<tag k="natural" v="water" />
		<tag k="old_name:se" v="Siggajavrit" />
		<tag k="ssr:stedsnr" v="383715" />
		<tag k="water" v="lake" />
	</node>
	<node id="-917748" lat="70.0957333603" lon="28.35131028">
		<tag k="name" v="Heanddajávri" />
		<tag k="name:se" v="Heanddajávri" />
		<tag k="natural" v="water" />
		<tag k="old_name:se" v="Hændajavri" />
		<tag k="ssr:stedsnr" v="80806" />
	</node>
	<node id="-917942" lat="70.2230694742" lon="28.9159878608">
		<tag k="name" v="Máttavárjohka" />
		<tag k="name:se" v="Máttavárjohka" />
		<tag k="old_name:se" v="Maddavarjåkka" />
		<tag k="ssr:stedsnr" v="383692" />
		<tag k="waterway" v="stream" />
	</node>
	<node id="-917941" lat="70.0038028105" lon="28.5683990626">
		<tag k="name" v="Skoalmmajohka" />
		<tag k="name:se" v="Skoalmmajohka" />
		<tag k="old_name:se" v="Skoalmajåkka" />
		<tag k="ssr:stedsnr" v="383687" />
		<tag k="waterway" v="stream" />
	</node>
	<node id="-917940" lat="70.0410444812" lon="29.0366044377">
		<tag k="name" v="Guovžajávri - Bjørnvatnet" />
		<tag k="name:no" v="Bjørnvatnet" />
		<tag k="name:se" v="Guovžajávri" />
		<tag k="natural" v="water" />
		<tag k="old_name:se" v="Guovžajavri" />
		<tag k="ssr:stedsnr" v="383670" />
		<tag k="water" v="lake" />
	</node>
	<node id="-917426" lat="70.1785805853" lon="28.4395324674">
		<tag k="name" v="Hestedrikkvatn" />
		<tag k="name:no" v="Hestedrikkvatn" />
		<tag k="natural" v="water" />
		<tag k="ssr:stedsnr" v="512682" />
		<tag k="water" v="lake" />
	</node>
	<node id="-917672" lat="70.2098889212" lon="28.7964407059">
		<tag k="name" v="Gárddanjunláttu" />
		<tag k="name:se" v="Gárddanjunláttu" />
		<tag k="natural" v="water" />
		<tag k="old_name:se" v="Gardanjunladdo" />
		<tag k="ssr:stedsnr" v="19832" />
	</node>
	<node id="-917935" lat="70.0106944803" lon="29.1904543498">
		<tag k="name" v="Geassevázzinláttu" />
		<tag k="name:se" v="Geassevázzinláttu" />
		<tag k="natural" v="water" />
		<tag k="ssr:stedsnr" v="333693" />
	</node>
	<node id="-917934" lat="70.0041778185" lon="29.121001606">
		<tag k="name" v="Småvatna" />
		<tag k="name:no" v="Småvatna" />
		<tag k="natural" v="water" />
		<tag k="ssr:stedsnr" v="333676" />
	</node>
	<node id="-917661" lat="69.9568222553" lon="28.6047990254">
		<tag k="name" v="Dierggejárskáidi" />
		<tag k="name:se" v="Dierggejárskáidi" />
		<tag k="natural" v="cape" />
		<tag k="old_name:se" v="Diergejarskaidi" />
		<tag k="ssr:stedsnr" v="19765" />
	</node>
	<node id="-917746" lat="70.0860500312" lon="28.4840046615">
		<tag k="name" v="Molonjoasjávri" />
		<tag k="name:se" v="Molonjoasjávri" />
		<tag k="natural" v="water" />
		<tag k="old_name:se" v="Målunjoasjavri" />
		<tag k="ssr:stedsnr" v="80799" />
	</node>
	<node id="-917929" lat="70.0546889213" lon="29.0274211163">
		<tag k="name" v="Láirájohka" />
		<tag k="name:se" v="Láirájohka" />
		<tag k="ssr:stedsnr" v="332230" />
		<tag k="waterway" v="stream" />
	</node>
	<node id="-917927" lat="70.1556555827" lon="28.5732574145">
		<tag k="name" v="Beakka-Hánnojohka" />
		<tag k="name:se" v="Beakka-Hánnojohka" />
		<tag k="ssr:stedsnr" v="331436" />
		<tag k="waterway" v="stream" />
	</node>
	<node id="-917413" lat="70.1165583617" lon="28.5000602159">
		<tag k="name" v="Skikk-Ellenjárga" />
		<tag k="name:se" v="Skikk-Ellenjárga" />
		<tag k="natural" v="cape" />
		<tag k="ssr:stedsnr" v="450305" />
	</node>
	<node id="-917574" lat="70.0471389216" lon="28.8098045262">
		<tag k="name" v="Ođđajohka - Nyelva" />
		<tag k="name:no" v="Nyelva" />
		<tag k="name:se" v="Ođđajohka" />
		<tag k="ssr:stedsnr" v="929685" />
		<tag k="waterway" v="river" />
	</node>
	<node id="-918183" lat="70.1061944719" lon="28.5892768414">
		<tag k="name" v="Áidejohka" />
		<tag k="name:se" v="Áidejohka" />
		<tag k="ssr:stedsnr" v="875701" />
		<tag k="waterway" v="stream" />
	</node>
	<node id="-917409" lat="70.0326555963" lon="29.1135321816">
		<tag k="alt_name:no" v="Lille Fuglevatn;Fuglvatnet, l" />
		<tag k="name" v="Uhca Loddejávrráš - Lille Fuglvatnet" />
		<tag k="name:no" v="Lille Fuglvatnet" />
		<tag k="name:se" v="Uhca Loddejávrráš" />
		<tag k="natural" v="water" />
		<tag k="ssr:stedsnr" v="445608" />
		<tag k="water" v="lake" />
	</node>
	<node id="-917407" lat="70.1988305803" lon="28.4907907954">
		<tag k="alt_name:no" v="Seljevatnet" />
		<tag k="name" v="Suovkajávri - Sukivatnet" />
		<tag k="name:no" v="Sukivatnet" />
		<tag k="name:se" v="Suovkajávri" />
		<tag k="natural" v="water" />
		<tag k="old_name:se" v="Suovkajavri" />
		<tag k="ssr:stedsnr" v="444833" />
	</node>
	<node id="-917406" lat="69.9883417068" lon="29.0381794133">
		<tag k="alt_name:no" v="Fuglevatn" />
		<tag k="name" v="Loddejávri - Fuglevatnet" />
		<tag k="name:no" v="Fuglevatnet" />
		<tag k="name:se" v="Loddejávri" />
>>>>>>> e1d4bc35ff8a6074a6f2e91616a996b547c36f15
		<tag k="natural" v="water" />
		<tag k="old_name:se" v="Låddejavri" />
		<tag k="ssr:stedsnr" v="444830" />
		<tag k="water" v="lake" />
	</node>
<<<<<<< HEAD
	<node lat="70.15357780499995" lon="28.612485198355206" id="-38450">
		<tag k="name" v="Kiippárjohka" />
		<tag k="name:se" v="Kiippárjohka" />
		<tag k="ssr:stedsnr" v="270425" />
		<tag k="waterway" v="stream" />
	</node>
	<node lat="70.06083059028752" lon="28.848843400656094" id="-38451">
		<tag k="name" v="Varitjávri" />
		<tag k="name:se" v="Varitjávri" />
		<tag k="natural" v="water" />
		<tag k="ssr:stedsnr" v="271246" />
	</node>
	<node lat="70.23002224794504" lon="28.452304696692725" id="-38456">
		<tag k="name" v="Lávreboadnjájohka" />
		<tag k="name:se" v="Lávreboadnjájohka" />
		<tag k="ssr:stedsnr" v="459399" />
		<tag k="waterway" v="stream" />
	</node>
	<node lat="70.1720916883507" lon="28.349871396808616" id="-38457">
		<tag k="name" v="Hávgoailáddot" />
		<tag k="name:se" v="Hávgoailáddot" />
		<tag k="natural" v="water" />
		<tag k="ssr:stedsnr" v="459498" />
	</node>
	<node lat="70.02072781020155" lon="28.430560226991084" id="-38460">
		<tag k="name" v="Čáhppesskáidi" />
		<tag k="name:se" v="Čáhppesskáidi" />
		<tag k="natural" v="cape" />
		<tag k="old_name:se" v="Čappesskaidi;Cahppesskáidi" />
		<tag k="ssr:stedsnr" v="322682" />
	</node>
	<node lat="70.06330559231648" lon="28.886718394374316" id="-38490">
		<tag k="name" v="Viercajárjohka" />
		<tag k="name:se" v="Viercajárjohka" />
		<tag k="ssr:stedsnr" v="394540" />
		<tag k="waterway" v="stream" />
	</node>
	<node lat="70.0161889285317" lon="29.17112103900586" id="-38492">
		<tag k="name" v="Ceakkajohka" />
		<tag k="name:se" v="Ceakkajohka" />
		<tag k="ssr:stedsnr" v="394640" />
		<tag k="waterway" v="stream" />
	</node>
	<node lat="70.03951392679217" lon="28.780532317588424" id="-38496">
		<tag k="name" v="Galšajohka - Storbekken" />
		<tag k="name:no" v="Storbekken" />
		<tag k="name:se" v="Galšajohka" />
		<tag k="old_name:se" v="Galšajåkka" />
		<tag k="ssr:stedsnr" v="444707" />
		<tag k="waterway" v="stream" />
	</node>
	<node lat="70.02226669785462" lon="28.40119913219743" id="-38498">
		<tag k="name" v="Ivváránddejávri" />
		<tag k="name:se" v="Ivváránddejávri" />
		<tag k="natural" v="water" />
		<tag k="old_name:se" v="Ivvarandejavri" />
		<tag k="ssr:stedsnr" v="444678" />
	</node>
	<node lat="69.98834170680513" lon="29.038179413323945" id="-38500">
		<tag k="alt_name:no" v="Fuglevatn" />
		<tag k="name" v="Loddejávri - Fuglevatnet" />
		<tag k="name:no" v="Fuglevatnet" />
		<tag k="name:se" v="Loddejávri" />
		<tag k="natural" v="water" />
		<tag k="old_name:se" v="Låddejavri" />
		<tag k="ssr:stedsnr" v="444830" />
		<tag k="water" v="lake" />
	</node>
	<node lat="70.19883058030803" lon="28.490790795403726" id="-38501">
		<tag k="alt_name:no" v="Seljevatnet" />
		<tag k="name" v="Suovkajávri - Sukivatnet" />
		<tag k="name:no" v="Sukivatnet" />
		<tag k="name:se" v="Suovkajávri" />
		<tag k="natural" v="water" />
		<tag k="old_name:se" v="Suovkajavri" />
		<tag k="ssr:stedsnr" v="444833" />
	</node>
	<node lat="70.07484169960733" lon="28.690685144991846" id="-38505">
		<tag k="name" v="Čeavrresjávri" />
		<tag k="name:se" v="Čeavrresjávri" />
		<tag k="natural" v="water" />
		<tag k="old_name:se" v="Čævresjavri" />
		<tag k="ssr:stedsnr" v="444791" />
		<tag k="water" v="lake" />
	</node>
	<node lat="69.9070750322919" lon="28.61902955627252" id="-38506">
		<tag k="name" v="Ođđagopskáidi" />
		<tag k="name:se" v="Ođđagopskáidi" />
		<tag k="natural" v="cape" />
		<tag k="old_name:se" v="Åđđagåpskaidi;Ođđagohpskáidi" />
		<tag k="ssr:stedsnr" v="444878" />
	</node>
	<node lat="70.03265559633451" lon="29.11353218155754" id="-38508">
		<tag k="alt_name:no" v="Lille Fuglevatn;Fuglvatnet, l" />
		<tag k="name" v="Uhca Loddejávrráš - Lille Fuglvatnet" />
		<tag k="name:no" v="Lille Fuglvatnet" />
		<tag k="name:se" v="Uhca Loddejávrráš" />
		<tag k="natural" v="water" />
		<tag k="ssr:stedsnr" v="445608" />
		<tag k="water" v="lake" />
	</node>
	<node lat="70.11655836166678" lon="28.500060215910132" id="-38512">
		<tag k="name" v="Skikk-Ellenjárga" />
		<tag k="name:se" v="Skikk-Ellenjárga" />
		<tag k="natural" v="cape" />
		<tag k="ssr:stedsnr" v="450305" />
	</node>
	<node lat="70.07334169419893" lon="28.536832413718162" id="-38523">
		<tag k="name" v="Njiđggumohkki" />
		<tag k="name:se" v="Njiđggumohkki" />
		<tag k="natural" v="bay" />
		<tag k="old_name:se" v="Njiđgomåkki" />
		<tag k="ssr:stedsnr" v="504802" />
	</node>
	<node lat="70.0269278170347" lon="29.001498881310873" id="-38524">
		<tag k="name" v="Roggejávri" />
		<tag k="name:se" v="Roggejávri" />
		<tag k="natural" v="water" />
		<tag k="old_name:se" v="Råggejavri" />
		<tag k="ssr:stedsnr" v="505604" />
	</node>
	<node lat="70.13490003281031" lon="29.05433223317251" id="-38525">
		<tag k="name" v="Holmvatnet" />
		<tag k="name:no" v="Holmvatnet" />
		<tag k="natural" v="water" />
		<tag k="ssr:stedsnr" v="505671" />
	</node>
	<node lat="70.12456947460551" lon="28.585965747416118" id="-38532">
		<tag k="name" v="Gáicajohka" />
		<tag k="name:se" v="Gáicajohka" />
		<tag k="ssr:stedsnr" v="512726" />
		<tag k="waterway" v="stream" />
	</node>
	<node lat="70.23840836097735" lon="28.727885174682356" id="-38540">
		<tag k="name" v="Geađgejohka" />
		<tag k="name:se" v="Geađgejohka" />
		<tag k="old_name:se" v="Gæđgejåkka" />
		<tag k="ssr:stedsnr" v="686802" />
		<tag k="waterway" v="stream" />
	</node>
	<node lat="70.19135836037822" lon="28.75137681408862" id="-38541">
		<tag k="name" v="Galbajohjávri" />
		<tag k="name:se" v="Galbajohjávri" />
		<tag k="natural" v="water" />
		<tag k="old_name:se" v="Galbajåkjavri" />
		<tag k="ssr:stedsnr" v="686809" />
	</node>
	<node lat="70.02947225085352" lon="28.32719638549695" id="-38545">
		<tag k="name" v="Savetjávrrit" />
		<tag k="name:se" v="Savetjávrrit" />
		<tag k="natural" v="water" />
		<tag k="old_name:se" v="Savetjavrit" />
		<tag k="ssr:stedsnr" v="686713" />
		<tag k="water" v="lake" />
	</node>
	<node lat="70.13727780787607" lon="28.622490729691517" id="-38546">
		<tag k="name" v="Rokkesisjávri" />
		<tag k="name:se" v="Rokkesisjávri" />
		<tag k="natural" v="water" />
		<tag k="old_name:se" v="Råggesisjavri" />
		<tag k="ssr:stedsnr" v="686749" />
	</node>
	<node lat="70.09582225574303" lon="28.808974002741667" id="-38548">
		<tag k="name" v="Bálkkotjávrrát" />
		<tag k="name:se" v="Bálkkotjávrrát" />
		<tag k="natural" v="water" />
		<tag k="old_name:se" v="Balkutjavrat" />
		<tag k="ssr:stedsnr" v="686773" />
	</node>
	<node lat="70.13540558783102" lon="29.063232226751424" id="-38553">
		<tag k="name" v="Dalavatnet" />
		<tag k="name:no" v="Dalavatnet" />
		<tag k="natural" v="water" />
		<tag k="ssr:stedsnr" v="687630" />
	</node>
	<node lat="70.15486669598123" lon="28.944662838802394" id="-38555">
		<tag k="name" v="Ruossabákjávri - Korsvatnet" />
		<tag k="name:no" v="Korsvatnet" />
		<tag k="name:se" v="Ruossabákjávri" />
		<tag k="natural" v="water" />
		<tag k="old_name:se" v="Ruossabakjavri" />
		<tag k="ssr:stedsnr" v="687646" />
	</node>
	<node lat="70.14356392668019" lon="29.187701609562335" id="-38558">
		<tag k="name" v="Suolovárjávri" />
		<tag k="name:se" v="Suolovárjávri" />
		<tag k="natural" v="water" />
		<tag k="old_name:se" v="Suoluvarjavri" />
		<tag k="ssr:stedsnr" v="687656" />
	</node>
	<node lat="69.98178892468756" lon="28.890165577197447" id="-38560">
		<tag k="name" v="Stohkkemuorjávri" />
		<tag k="name:se" v="Stohkkemuorjávri" />
		<tag k="natural" v="water" />
		<tag k="old_name:se" v="Ståkkemuorjavri" />
		<tag k="ssr:stedsnr" v="687845" />
	</node>
	<node lat="69.85828058878322" lon="28.354287996566015" id="-38561">
		<tag k="name" v="Bihtošjohka" />
		<tag k="name:se" v="Bihtošjohka" />
		<tag k="old_name:se" v="Bittušjåkka" />
		<tag k="ssr:stedsnr" v="687856" />
		<tag k="waterway" v="stream" />
	</node>
	<node lat="70.28450003479104" lon="28.963515650953017" id="-38563">
		<tag k="name" v="Bearalveaijohka" />
		<tag k="name:se" v="Bearalveaijohka" />
		<tag k="old_name:se" v="Bæralvæjjåkka" />
		<tag k="ssr:stedsnr" v="687989" />
		<tag k="waterway" v="river" />
	</node>
	<node lat="70.30435280981531" lon="29.095696166666535" id="-38564">
		<tag k="name" v="Lavdnjevárjohka - Torvhaugelva" />
		<tag k="name:no" v="Torvhaugelva" />
		<tag k="name:se" v="Lavdnjevárjohka" />
		<tag k="old_name:se" v="Lavdnjevarjåkka" />
		<tag k="ssr:stedsnr" v="687993" />
		<tag k="waterway" v="stream" />
	</node>
	<node lat="70.06643892225671" lon="28.889885050303665" id="-38566">
		<tag k="name" v="Viercajávri - Værvatnet" />
		<tag k="name:no" v="Værvatnet" />
		<tag k="name:se" v="Viercajávri" />
		<tag k="natural" v="water" />
		<tag k="old_name:se" v="Viercajavri" />
		<tag k="ssr:stedsnr" v="564667" />
	</node>
	<node lat="70.24215558812689" lon="28.784462935875975" id="-38568">
		<tag k="name" v="Davvejohka" />
		<tag k="name:se" v="Davvejohka" />
		<tag k="old_name:se" v="Davvejåkka" />
		<tag k="ssr:stedsnr" v="564819" />
		<tag k="waterway" v="stream" />
	</node>
	<node lat="70.24376669492658" lon="28.881482325271694" id="-38571">
		<tag k="name" v="Davitjohka" />
		<tag k="name:se" v="Davitjohka" />
		<tag k="old_name:se" v="Davitjåkka" />
		<tag k="ssr:stedsnr" v="565707" />
		<tag k="waterway" v="stream" />
	</node>
	<node lat="70.0613833619639" lon="28.49432688495869" id="-38572">
		<tag k="name" v="Njiđggujávri" />
		<tag k="name:se" v="Njiđggujávri" />
		<tag k="natural" v="water" />
		<tag k="old_name:se" v="Njiđgojavri;Njiđgujávri" />
		<tag k="ssr:stedsnr" v="565713" />
		<tag k="water" v="lake" />
	</node>
	<node lat="70.06480003093958" lon="28.728957347200268" id="-38576">
		<tag k="name" v="Borggodahkesjávri" />
		<tag k="name:se" v="Borggodahkesjávri" />
		<tag k="natural" v="water" />
		<tag k="old_name:se" v="Bårgudakkesjavri" />
		<tag k="ssr:stedsnr" v="565814" />
	</node>
	<node lat="70.17298336378848" lon="28.55773243313293" id="-38586">
		<tag k="name" v="Iŋggá-Káreája" />
		<tag k="name:se" v="Iŋggá-Káreája" />
		<tag k="natural" v="spring" />
		<tag k="ssr:stedsnr" v="572499" />
	</node>
	<node lat="70.17155558564524" lon="28.825796210423086" id="-38589">
		<tag k="name" v="Guollejárláttu" />
		<tag k="name:se" v="Guollejárláttu" />
		<tag k="natural" v="water" />
		<tag k="ssr:stedsnr" v="573006" />
	</node>
	<node lat="70.00739448036646" lon="29.168421030937925" id="-38599">
		<tag k="name" v="Gohpijohka" />
		<tag k="name:se" v="Gohpijohka" />
		<tag k="ssr:stedsnr" v="576746" />
		<tag k="waterway" v="stream" />
	</node>
	<node lat="70.1645389175608" lon="28.328274173582237" id="-38601">
		<tag k="name" v="Hávgaláttu" />
		<tag k="name:se" v="Hávgaláttu" />
		<tag k="natural" v="water" />
		<tag k="ssr:stedsnr" v="580491" />
	</node>
	<node lat="70.0294139279974" lon="29.08931828487084" id="-38614">
		<tag k="name" v="Čivttajárjohka" />
		<tag k="name:se" v="Čivttajárjohka" />
		<tag k="ssr:stedsnr" v="697634" />
		<tag k="waterway" v="stream" />
	</node>
	<node lat="70.07351392261907" lon="28.781860101931514" id="-38619">
		<tag k="alt_name:se" v="Báŋkgohpijohka" />
		<tag k="name" v="Báŋkogohpejohka" />
		<tag k="name:se" v="Báŋkogohpejohka" />
		<tag k="old_name:se" v="Baŋkugåppejåkka" />
		<tag k="ssr:stedsnr" v="625807" />
		<tag k="waterway" v="stream" />
	</node>
	<node lat="70.08338614200574" lon="28.57762685341299" id="-38620">
		<tag k="name" v="Gárdejávri" />
		<tag k="name:se" v="Gárdejávri" />
		<tag k="natural" v="water" />
		<tag k="old_name:se" v="Gardejavri" />
		<tag k="ssr:stedsnr" v="625816" />
	</node>
	<node lat="70.18956391803626" lon="28.807257350256428" id="-38622">
		<tag k="name" v="Čoalbmejávri" />
		<tag k="name:se" v="Čoalbmejávri" />
		<tag k="natural" v="water" />
		<tag k="old_name:se" v="Čoalbmejavri" />
		<tag k="ssr:stedsnr" v="625857" />
	</node>
	<node lat="70.00325558781897" lon="28.462876868288326" id="-38625">
		<tag k="name" v="Geadjájávri" />
		<tag k="name:se" v="Geadjájávri" />
		<tag k="natural" v="water" />
		<tag k="old_name:se" v="Gæddajavri" />
		<tag k="ssr:stedsnr" v="625715" />
		<tag k="water" v="lake" />
	</node>
	<node lat="70.00692225733115" lon="29.11618495095322" id="-38627">
		<tag k="name" v="Duttajohka - Duddaelva" />
		<tag k="name:no" v="Duddaelva" />
		<tag k="name:se" v="Duttajohka" />
		<tag k="old_name:se" v="Duddajåkka" />
		<tag k="ssr:stedsnr" v="626609" />
		<tag k="waterway" v="stream" />
	</node>
	<node lat="70.03225003902527" lon="29.140693270790937" id="-38628">
		<tag k="name" v="Jámežiidjávri - Saravatnet" />
		<tag k="name:no" v="Saravatnet" />
		<tag k="name:se" v="Jámežiidjávri" />
		<tag k="natural" v="water" />
		<tag k="old_name:se" v="Jamežiidjavri" />
		<tag k="ssr:stedsnr" v="626697" />
		<tag k="water" v="lake" />
	</node>
	<node lat="70.15843058845026" lon="28.944115612153908" id="-38631">
		<tag k="name" v="Meahccejávri" />
		<tag k="name:se" v="Meahccejávri" />
		<tag k="natural" v="water" />
		<tag k="old_name:se" v="Mæccejavri" />
		<tag k="ssr:stedsnr" v="626754" />
	</node>
	<node lat="70.0572889266966" lon="28.798273981804858" id="-38641">
		<tag k="name" v="Stuorrajávri" />
		<tag k="name:se" v="Stuorrajávri" />
		<tag k="natural" v="water" />
		<tag k="old_name:se" v="Stuorrajavri" />
		<tag k="ssr:stedsnr" v="686707" />
	</node>
	<node lat="69.96870558665327" lon="28.525632384455427" id="-38643">
		<tag k="name" v="Guovžajávrrit" />
		<tag k="name:se" v="Guovžajávrrit" />
		<tag k="natural" v="water" />
		<tag k="old_name:se" v="Guovžajavrit" />
		<tag k="ssr:stedsnr" v="686743" />
	</node>
	<node lat="70.06591114092362" lon="28.5923296109359" id="-38646">
		<tag k="name" v="Reahpenjohka - Reppenelva" />
		<tag k="name:no" v="Reppenelva" />
		<tag k="name:se" v="Reahpenjohka" />
		<tag k="ssr:stedsnr" v="686787" />
		<tag k="waterway" v="river" />
	</node>
	<node lat="70.01880003811989" lon="28.96603779107851" id="-38650">
		<tag k="name" v="Uhca Láhtajávri" />
		<tag k="name:se" v="Uhca Láhtajávri" />
		<tag k="natural" v="water" />
		<tag k="old_name:se" v="Lattajavri, ucca" />
		<tag k="ssr:stedsnr" v="687612" />
	</node>
	<node lat="70.17367503094714" lon="28.826226783920486" id="-38651">
		<tag k="name" v="Bergebyvatna" />
		<tag k="name:no" v="Bergebyvatna" />
		<tag k="natural" v="water" />
		<tag k="ssr:stedsnr" v="687736" />
	</node>
	<node lat="70.17344725285075" lon="28.824823998493656" id="-38660">
		<tag k="name" v="Áppošborguollejávri" />
		<tag k="name:se" v="Áppošborguollejávri" />
		<tag k="natural" v="water" />
		<tag k="ssr:stedsnr" v="695006" />
		<tag k="water" v="lake" />
	</node>
	<node lat="70.07896669880323" lon="28.74577400086569" id="-38664">
		<tag k="name" v="Duvdegieddjávri" />
		<tag k="name:se" v="Duvdegieddjávri" />
		<tag k="natural" v="water" />
		<tag k="ssr:stedsnr" v="696183" />
		<tag k="water" v="lake" />
	</node>
	<node lat="70.08959169166368" lon="28.580935191131854" id="-38665">
		<tag k="name" v="Mohkkejávri" />
		<tag k="name:se" v="Mohkkejávri" />
		<tag k="natural" v="water" />
		<tag k="old_name:se" v="Måkkejavri" />
		<tag k="ssr:stedsnr" v="747807" />
	</node>
	<node lat="70.03967780474504" lon="28.438565777324108" id="-38667">
		<tag k="name" v="Bártnajávri" />
		<tag k="name:se" v="Bártnajávri" />
		<tag k="natural" v="water" />
		<tag k="old_name:se" v="Bardnajavri" />
		<tag k="ssr:stedsnr" v="747705" />
	</node>
	<node lat="69.9304916998972" lon="28.525307382898887" id="-38670">
		<tag k="name" v="Juggejávri" />
		<tag k="name:se" v="Juggejávri" />
		<tag k="natural" v="water" />
		<tag k="old_name:se" v="Juggejavri" />
		<tag k="ssr:stedsnr" v="747869" />
	</node>
	<node lat="70.15876391351554" lon="28.432229686334846" id="-38671">
		<tag k="name" v="Gávpotláttu" />
		<tag k="name:se" v="Gávpotláttu" />
		<tag k="natural" v="water" />
		<tag k="old_name:se" v="Gavputladdo" />
		<tag k="ssr:stedsnr" v="747870" />
	</node>
	<node lat="70.26033891063067" lon="28.436593610836894" id="-38673">
		<tag k="name" v="Guovžagorssajohka - Bjørnebekken" />
		<tag k="name:no" v="Bjørnebekken" />
		<tag k="name:se" v="Guovžagorssajohka" />
		<tag k="old_name:se" v="Guovžagårsajåkka" />
		<tag k="ssr:stedsnr" v="748965" />
		<tag k="waterway" v="stream" />
	</node>
	<node lat="70.00662781836031" lon="29.15161270806117" id="-38684">
		<tag k="name" v="Njálggajohka" />
		<tag k="name:se" v="Njálggajohka" />
		<tag k="ssr:stedsnr" v="758729" />
		<tag k="waterway" v="stream" />
	</node>
	<node lat="70.23526669654609" lon="28.53922967952086" id="-38688">
		<tag k="name" v="Rássejohka - Graselva" />
		<tag k="name:no" v="Graselva" />
		<tag k="name:se" v="Rássejohka" />
		<tag k="old_name:se" v="Rassejåkka" />
		<tag k="ssr:stedsnr" v="808442" />
		<tag k="waterway" v="river" />
	</node>
	<node lat="70.15950836885344" lon="29.12389054078049" id="-38695">
		<tag k="name" v="Gohpijohka - Klubbvikelva" />
		<tag k="name:no" v="Klubbvikelva" />
		<tag k="name:se" v="Gohpijohka" />
		<tag k="ssr:stedsnr" v="808739" />
		<tag k="waterway" v="stream" />
	</node>
	<node lat="70.18953892497647" lon="28.87364342669531" id="-38697">
		<tag k="name" v="Guopparjohka" />
		<tag k="name:se" v="Guopparjohka" />
		<tag k="old_name:se" v="Guobbarjåkka" />
		<tag k="ssr:stedsnr" v="808745" />
		<tag k="waterway" v="stream" />
	</node>
	<node lat="70.04713892164418" lon="28.809804526163045" id="-38725">
		<tag k="name" v="Ođđajohka - Nyelva" />
		<tag k="name:no" v="Nyelva" />
		<tag k="name:se" v="Ođđajohka" />
		<tag k="ssr:stedsnr" v="929685" />
		<tag k="waterway" v="river" />
	</node>
	<node lat="70.17683892050734" lon="29.110240554531952" id="-38726">
		<tag k="name" v="Čoskajohka" />
		<tag k="name:se" v="Čoskajohka" />
		<tag k="old_name:se" v="Čåskajåkka" />
		<tag k="ssr:stedsnr" v="929737" />
		<tag k="waterway" v="stream" />
	</node>
	<node lat="70.05885280862671" lon="28.47626300595927" id="-38728">
		<tag k="name" v="Mákkásuoidnejávri" />
		<tag k="name:se" v="Mákkásuoidnejávri" />
		<tag k="natural" v="water" />
		<tag k="old_name:se" v="Maggasuoidnejavri" />
		<tag k="ssr:stedsnr" v="929693" />
	</node>
	<node lat="70.02378336271332" lon="28.40472689862605" id="-38729">
		<tag k="name" v="Leidnonjohka" />
		<tag k="name:se" v="Leidnonjohka" />
		<tag k="old_name:se" v="Leidnunjåkka" />
		<tag k="ssr:stedsnr" v="929695" />
		<tag k="waterway" v="stream" />
	</node>
	<node lat="70.19397224988735" lon="28.601779632802355" id="-38730">
		<tag k="name" v="Gákkafielmmajohka" />
		<tag k="name:se" v="Gákkafielmmajohka" />
		<tag k="old_name:se" v="Gaggafielmajåkka" />
		<tag k="ssr:stedsnr" v="929833" />
		<tag k="waterway" v="stream" />
	</node>
	<node lat="70.13376114565438" lon="29.011048928199795" id="-38736">
		<tag k="name" v="Nordvivatnet" />
		<tag k="name:no" v="Nordvivatnet" />
		<tag k="natural" v="water" />
		<tag k="ssr:stedsnr" v="869677" />
	</node>
	<node lat="70.0178500343552" lon="28.71739899779959" id="-38737">
		<tag k="name" v="Čuometjávri" />
		<tag k="name:se" v="Čuometjávri" />
		<tag k="natural" v="water" />
		<tag k="old_name:se" v="Čuometjavri" />
		<tag k="ssr:stedsnr" v="869719" />
	</node>
	<node lat="70.17707502940645" lon="28.826907321380933" id="-38738">
		<tag k="name" v="Stuorra Guollejávri" />
		<tag k="name:se" v="Stuorra Guollejávri" />
		<tag k="natural" v="water" />
		<tag k="old_name:se" v="Guollejavri, stuorra" />
		<tag k="ssr:stedsnr" v="869766" />
	</node>
	<node lat="69.9761333708988" lon="28.676460112921784" id="-38739">
		<tag k="name" v="Látnjalakjávrrit" />
		<tag k="name:se" v="Látnjalakjávrrit" />
		<tag k="natural" v="water" />
		<tag k="old_name:se" v="Ladnjalakjavrit;Ladnjalakjávrrit" />
		<tag k="ssr:stedsnr" v="869777" />
		<tag k="water" v="lake" />
	</node>
	<node lat="69.96791947276468" lon="28.482910188073927" id="-38741">
		<tag k="name" v="Gumpeskáidi" />
		<tag k="name:se" v="Gumpeskáidi" />
		<tag k="natural" v="cape" />
		<tag k="old_name:se" v="Gumpeskaidi" />
		<tag k="ssr:stedsnr" v="869779" />
	</node>
	<node lat="70.1480250401298" lon="29.156059965455103" id="-38743">
		<tag k="name" v="Suolovárjohka" />
		<tag k="name:se" v="Suolovárjohka" />
		<tag k="old_name:se" v="Suoluvarjåkka" />
		<tag k="ssr:stedsnr" v="930664" />
		<tag k="waterway" v="stream" />
	</node>
	<node lat="70.1385666972945" lon="29.035907248885163" id="-38744">
		<tag k="name" v="Langvatnet" />
		<tag k="name:no" v="Langvatnet" />
		<tag k="natural" v="water" />
		<tag k="ssr:stedsnr" v="930665" />
	</node>
	<node lat="70.0516750387564" lon="29.092115532240467" id="-38746">
		<tag k="name" v="Hoaššajávri" />
		<tag k="name:se" v="Hoaššajávri" />
		<tag k="natural" v="water" />
		<tag k="old_name:se" v="Hoaššajavri" />
		<tag k="ssr:stedsnr" v="930677" />
	</node>
	<node lat="69.98156392911446" lon="29.225948766939297" id="-38748">
		<tag k="name" v="Gánddajávri" />
		<tag k="name:se" v="Gánddajávri" />
		<tag k="natural" v="water" />
		<tag k="old_name:se" v="Gandajavri" />
		<tag k="ssr:stedsnr" v="930844" />
		<tag k="water" v="lake" />
	</node>
	<node lat="69.98001948411716" lon="29.14398769173676" id="-38749">
		<tag k="name" v="Sáttojávri - Våkvatn" />
		<tag k="name:no" v="Våkvatn" />
		<tag k="name:se" v="Sáttojávri" />
		<tag k="natural" v="water" />
		<tag k="old_name:se" v="Saddujavri" />
		<tag k="ssr:stedsnr" v="930847" />
		<tag k="water" v="lake" />
	</node>
	<node lat="70.30436391883859" lon="29.223359992083413" id="-38752">
		<tag k="name" v="Suovvejároaivvejávri" />
		<tag k="name:se" v="Suovvejároaivvejávri" />
		<tag k="natural" v="water" />
		<tag k="old_name:se" v="Suovvejaroaivejavri" />
		<tag k="ssr:stedsnr" v="930984" />
		<tag k="water" v="lake" />
	</node>
	<node lat="70.32753891877095" lon="29.218987770163075" id="-38753">
		<tag k="name" v="Suovvejávri - Bergebyvatnet" />
		<tag k="name:no" v="Bergebyvatnet" />
		<tag k="name:se" v="Suovvejávri" />
		<tag k="natural" v="water" />
		<tag k="old_name:se" v="Suovvejavri" />
		<tag k="ssr:stedsnr" v="930993" />
		<tag k="water" v="lake" />
	</node>
	<node lat="70.31987781209735" lon="29.203384990649912" id="-38754">
		<tag k="name" v="Skoarrojohskáidi" />
		<tag k="name:se" v="Skoarrojohskáidi" />
		<tag k="natural" v="cape" />
		<tag k="old_name:se" v="Skoarrujåkskaidi" />
		<tag k="ssr:stedsnr" v="930995" />
	</node>
	<node lat="69.95565280905667" lon="28.51177685544428" id="-38764">
		<tag k="name" v="Kruvnnašluoppal" />
		<tag k="name:se" v="Kruvnnašluoppal" />
		<tag k="natural" v="water" />
		<tag k="old_name:se" v="Kruvnašluobbal" />
		<tag k="ssr:stedsnr" v="929754" />
	</node>
	<node lat="70.07596391674693" lon="28.614449066759533" id="-38765">
		<tag k="name" v="Beatnatjávri" />
		<tag k="name:se" v="Beatnatjávri" />
		<tag k="natural" v="water" />
		<tag k="old_name:se" v="Bædnatjavri" />
		<tag k="ssr:stedsnr" v="929796" />
	</node>
	<node lat="70.13848336360967" lon="28.514182458289753" id="-38776">
		<tag k="name" v="Bannaid Njiđgo" />
		<tag k="name:se" v="Bannaid Njiđgo" />
		<tag k="ssr:stedsnr" v="938911" />
		<tag k="waterway" v="river" />
	</node>
	<node lat="70.16333614225125" lon="28.859248982350465" id="-38788">
		<tag k="alt_name:se" v="Giškanjohka" />
		<tag k="name" v="Giškananjohka" />
		<tag k="name:se" v="Giškananjohka" />
		<tag k="old_name:se" v="Giškananjåkka" />
		<tag k="ssr:stedsnr" v="19714" />
		<tag k="waterway" v="stream" />
	</node>
	<node lat="70.19460003087008" lon="28.760426819697052" id="-38792">
		<tag k="name" v="Buorregárddanjávri" />
		<tag k="name:se" v="Buorregárddanjávri" />
		<tag k="natural" v="water" />
		<tag k="old_name:se" v="Buorregardanjavri" />
		<tag k="ssr:stedsnr" v="19821" />
	</node>
	<node lat="70.20988892122077" lon="28.796440705868207" id="-38793">
		<tag k="name" v="Gárddanjunláttu" />
		<tag k="name:se" v="Gárddanjunláttu" />
		<tag k="natural" v="water" />
		<tag k="old_name:se" v="Gardanjunladdo" />
		<tag k="ssr:stedsnr" v="19832" />
	</node>
	<node lat="69.97833058539636" lon="28.546585173847518" id="-38796">
		<tag k="name" v="Dierggejávri" />
		<tag k="name:se" v="Dierggejávri" />
		<tag k="natural" v="water" />
		<tag k="old_name:se" v="Diergejavri" />
		<tag k="ssr:stedsnr" v="19756" />
		<tag k="water" v="lake" />
	</node>
	<node lat="69.95220003468557" lon="28.485799071374966" id="-38798">
		<tag k="name" v="Kruvnnašjohka" />
		<tag k="name:se" v="Kruvnnašjohka" />
=======
	<node id="-917405" lat="70.1936389206" lon="28.7018712667">
		<tag k="name" v="Álddajohka - Meskelva" />
		<tag k="name:no" v="Meskelva" />
		<tag k="name:se" v="Álddajohka" />
		<tag k="old_name:se" v="Aldajåkka" />
		<tag k="ssr:stedsnr" v="444824" />
		<tag k="waterway" v="river" />
	</node>
	<node id="-917404" lat="70.0395139268" lon="28.7805323176">
		<tag k="name" v="Galšajohka - Storbekken" />
		<tag k="name:no" v="Storbekken" />
		<tag k="name:se" v="Galšajohka" />
		<tag k="old_name:se" v="Galšajåkka" />
		<tag k="ssr:stedsnr" v="444707" />
		<tag k="waterway" v="stream" />
	</node>
	<node id="-917999" lat="70.2421555881" lon="28.7844629359">
		<tag k="name" v="Davvejohka" />
		<tag k="name:se" v="Davvejohka" />
		<tag k="old_name:se" v="Davvejåkka" />
		<tag k="ssr:stedsnr" v="564819" />
		<tag k="waterway" v="stream" />
	</node>
	<node id="-917910" lat="70.2906055869" lon="28.9850434273">
		<tag k="name" v="Guorrojohka" />
		<tag k="name:se" v="Guorrojohka" />
		<tag k="old_name:se" v="Guorrujåkka" />
		<tag k="ssr:stedsnr" v="323992" />
		<tag k="waterway" v="stream" />
	</node>
	<node id="-917657" lat="69.9783305854" lon="28.5465851738">
		<tag k="name" v="Dierggejávri" />
		<tag k="name:se" v="Dierggejávri" />
		<tag k="natural" v="water" />
		<tag k="old_name:se" v="Diergejavri" />
		<tag k="ssr:stedsnr" v="19756" />
		<tag k="water" v="lake" />
	</node>
	<node id="-917905" lat="70.0119694795" lon="28.9816405549">
		<tag k="name" v="Nillájávri" />
		<tag k="name:se" v="Nillájávri" />
		<tag k="natural" v="water" />
		<tag k="old_name:se" v="Nillajavri" />
		<tag k="ssr:stedsnr" v="323593" />
	</node>
	<node id="-918251" lat="70.2200083619" lon="28.4524908165">
		<tag k="name" v="Suovkanjárga" />
		<tag k="name:se" v="Suovkanjárga" />
		<tag k="natural" v="cape" />
		<tag k="old_name:se" v="Suovkanjarga" />
		<tag k="ssr:stedsnr" v="868798" />
	</node>
	<node id="-917899" lat="70.2204111409" lon="28.378871391">
		<tag k="name" v="Missojohka" />
		<tag k="name:se" v="Missojohka" />
		<tag k="old_name:se" v="Missujåkka" />
		<tag k="ssr:stedsnr" v="322799" />
		<tag k="waterway" v="stream" />
	</node>
	<node id="-917384" lat="70.2078472431" lon="28.4164213876">
		<tag k="name" v="Roggejohka" />
		<tag k="name:no" v="Roggejohka" />
		<tag k="ssr:stedsnr" v="513135" />
		<tag k="waterway" v="stream" />
	</node>
	<node id="-917895" lat="69.9477139253" lon="28.6356906862">
		<tag k="name" v="Juovsajávri" />
		<tag k="name:se" v="Juovsajávri" />
		<tag k="natural" v="water" />
		<tag k="old_name:se" v="Juovsajavri" />
		<tag k="ssr:stedsnr" v="322742" />
		<tag k="water" v="lake" />
	</node>
	<node id="-917381" lat="70.1245694746" lon="28.5859657474">
		<tag k="name" v="Gáicajohka" />
		<tag k="name:se" v="Gáicajohka" />
		<tag k="ssr:stedsnr" v="512726" />
		<tag k="waterway" v="stream" />
	</node>
	<node id="-917654" lat="70.1633361423" lon="28.8592489824">
		<tag k="alt_name:se" v="Giškanjohka" />
		<tag k="name" v="Giškananjohka" />
		<tag k="name:se" v="Giškananjohka" />
		<tag k="old_name:se" v="Giškananjåkka" />
		<tag k="ssr:stedsnr" v="19714" />
		<tag k="waterway" v="stream" />
	</node>
	<node id="-917159" lat="70.1825500283" lon="28.5436491009">
		<tag k="alt_name:no" v="Bruelva" />
		<tag k="name" v="Rovvejohka - Nyborgelva" />
		<tag k="name:no" v="Nyborgelva" />
		<tag k="name:se" v="Rovvejohka" />
		<tag k="ssr:stedsnr" v="261797" />
		<tag k="waterway" v="river" />
	</node>
	<node id="-917889" lat="70.0207278102" lon="28.430560227">
		<tag k="name" v="Čáhppesskáidi" />
		<tag k="name:se" v="Čáhppesskáidi" />
		<tag k="natural" v="cape" />
		<tag k="old_name:se" v="Čappesskaidi;Cahppesskáidi" />
		<tag k="ssr:stedsnr" v="322682" />
	</node>
	<node id="-917886" lat="70.1778083597" lon="28.353482494">
		<tag k="name" v="Eatnančielggláddot" />
		<tag k="name:se" v="Eatnančielggláddot" />
		<tag k="natural" v="water" />
		<tag k="ssr:stedsnr" v="216512" />
	</node>
	<node id="-917373" lat="70.1148194731" lon="28.5179074277">
		<tag k="name" v="Stuorragorži - Storfossen" />
		<tag k="name:no" v="Storfossen" />
		<tag k="name:se" v="Stuorragorži" />
		<tag k="natural" v="waterfall" />
		<tag k="ssr:stedsnr" v="511317" />
	</node>
	<node id="-917878" lat="70.1676139212" lon="28.8932906291">
		<tag k="name" v="Lavttajohka" />
		<tag k="name:se" v="Lavttajohka" />
		<tag k="ssr:stedsnr" v="210031" />
		<tag k="waterway" v="stream" />
	</node>
	<node id="-917653" lat="70.0322250339" lon="29.1307349499">
		<tag k="fixme" v="multiple name tags, choose one and add the other to alt_name" />
		<tag k="name" v="Saravatn;Sárajávri" />
		<tag k="name:se" v="Saravatn;Sárajávri" />
		<tag k="natural" v="water" />
		<tag k="ssr:stedsnr" v="940633" />
		<tag k="water" v="lake" />
	</node>
	<node id="-917364" lat="69.9745917065" lon="29.3283042836">
		<tag k="name" v="Gáranasjávri" />
		<tag k="name:se" v="Gáranasjávri" />
		<tag k="natural" v="water" />
		<tag k="old_name:se" v="Garanasjavri" />
		<tag k="ssr:stedsnr" v="505842" />
		<tag k="water" v="lake" />
	</node>
	<node id="-917362" lat="70.026927817" lon="29.0014988813">
		<tag k="name" v="Roggejávri" />
		<tag k="name:se" v="Roggejávri" />
		<tag k="natural" v="water" />
		<tag k="old_name:se" v="Råggejavri" />
		<tag k="ssr:stedsnr" v="505604" />
	</node>
	<node id="-917873" lat="70.1112750327" lon="28.5889268588">
		<tag k="name" v="Guršojohka" />
		<tag k="name:se" v="Guršojohka" />
		<tag k="ssr:stedsnr" v="208730" />
		<tag k="waterway" v="stream" />
	</node>
	<node id="-917359" lat="70.0094278137" lon="28.9660933364">
		<tag k="name" v="Holvunjávrrit" />
		<tag k="name:se" v="Holvunjávrrit" />
		<tag k="natural" v="water" />
		<tag k="old_name:se" v="Hålvonjavrit" />
		<tag k="ssr:stedsnr" v="505590" />
		<tag k="water" v="lake" />
	</node>
	<node id="-917354" lat="70.1349000328" lon="29.0543322332">
		<tag k="name" v="Holmvatnet" />
		<tag k="name:no" v="Holmvatnet" />
		<tag k="natural" v="water" />
		<tag k="ssr:stedsnr" v="505671" />
	</node>
	<node id="-917352" lat="69.8760222552" lon="28.370951875">
		<tag k="name" v="Bihtošmarasjohka - Heilobekken" />
		<tag k="name:no" v="Heilobekken" />
		<tag k="name:se" v="Bihtošmarasjohka" />
		<tag k="old_name:se" v="Bittušmarasjåkka" />
		<tag k="ssr:stedsnr" v="504843" />
		<tag k="waterway" v="river" />
	</node>
	<node id="-917351" lat="70.1656500311" lon="28.4157908151">
		<tag k="name" v="Stuorrastivrranjávri - Storstyranvatn" />
		<tag k="name:no" v="Storstyranvatn" />
		<tag k="name:se" v="Stuorrastivrranjávri" />
		<tag k="natural" v="water" />
		<tag k="old_name:se" v="Stuorrastivranjavri" />
		<tag k="ssr:stedsnr" v="504837" />
		<tag k="water" v="lake" />
	</node>
	<node id="-917862" lat="70.0271167051" lon="28.8759489426">
		<tag k="name" v="Sáppenjávri" />
		<tag k="name:se" v="Sáppenjávri" />
		<tag k="natural" v="water" />
		<tag k="old_name:se" v="Sabbenjavri" />
		<tag k="ssr:stedsnr" v="202622" />
		<tag k="water" v="lake" />
	</node>
	<node id="-917348" lat="70.0733416942" lon="28.5368324137">
		<tag k="name" v="Njiđggumohkki" />
		<tag k="name:se" v="Njiđggumohkki" />
		<tag k="natural" v="bay" />
		<tag k="old_name:se" v="Njiđgomåkki" />
		<tag k="ssr:stedsnr" v="504802" />
	</node>
	<node id="-917346" lat="70.1341472535" lon="28.3702130485">
		<tag k="name" v="Guollejávri" />
		<tag k="name:se" v="Guollejávri" />
		<tag k="natural" v="water" />
		<tag k="old_name:se" v="Guollejavri" />
		<tag k="ssr:stedsnr" v="504752" />
	</node>
	<node id="-917345" lat="70.1637611451" lon="28.9824544863">
		<tag k="alt_name:se" v="Juovvaoaijávri" />
		<tag k="name" v="Juovvoaijávri" />
		<tag k="name:se" v="Juovvoaijávri" />
		<tag k="natural" v="water" />
		<tag k="old_name:se" v="Juovvoaijavri" />
		<tag k="ssr:stedsnr" v="504734" />
	</node>
	<node id="-917343" lat="70.015588922" lon="28.6684073585">
		<tag k="name" v="Luovveråđnjavri" />
		<tag k="name:se" v="Luovveråđnjavri" />
		<tag k="natural" v="water" />
		<tag k="ssr:stedsnr" v="504691" />
		<tag k="water" v="lake" />
	</node>
	<node id="-917854" lat="70.2218250275" lon="28.3952408243">
		<tag k="alt_name:se" v="Jorrinjohka" />
		<tag k="name" v="Jorranjohka - Ringbekken" />
		<tag k="name:no" v="Ringbekken" />
		<tag k="name:se" v="Jorranjohka" />
		<tag k="old_name:se" v="Jårranjåkka" />
		<tag k="ssr:stedsnr" v="201797" />
		<tag k="waterway" v="stream" />
	</node>
	<node id="-917338" lat="70.0161889285" lon="29.171121039">
		<tag k="name" v="Ceakkajohka" />
		<tag k="name:se" v="Ceakkajohka" />
		<tag k="ssr:stedsnr" v="394640" />
		<tag k="waterway" v="stream" />
	</node>
	<node id="-917845" lat="69.965586142" lon="28.6192156803">
		<tag k="name" v="Beaskajávri" />
		<tag k="name:se" v="Beaskajávri" />
		<tag k="natural" v="water" />
		<tag k="old_name:se" v="Bæskajavri" />
		<tag k="ssr:stedsnr" v="201752" />
		<tag k="water" v="lake" />
	</node>
	<node id="-918179" lat="70.0066278184" lon="29.1516127081">
		<tag k="name" v="Njálggajohka" />
		<tag k="name:se" v="Njálggajohka" />
		<tag k="ssr:stedsnr" v="758729" />
		<tag k="waterway" v="stream" />
	</node>
	<node id="-917560" lat="70.2603389106" lon="28.4365936108">
		<tag k="name" v="Guovžagorssajohka - Bjørnebekken" />
		<tag k="name:no" v="Bjørnebekken" />
		<tag k="name:se" v="Guovžagorssajohka" />
		<tag k="old_name:se" v="Guovžagårsajåkka" />
		<tag k="ssr:stedsnr" v="748965" />
		<tag k="waterway" v="stream" />
	</node>
	<node id="-917837" lat="69.9884805914" lon="28.5882268257">
		<tag k="name" v="Kildaljávri" />
		<tag k="name:se" v="Kildaljávri" />
		<tag k="natural" v="water" />
		<tag k="old_name:se" v="Kildaljavri" />
		<tag k="ssr:stedsnr" v="201744" />
	</node>
	<node id="-917835" lat="70.0423750294" lon="28.7019323454">
		<tag k="name" v="Čuometláddot" />
		<tag k="name:se" v="Čuometláddot" />
		<tag k="natural" v="water" />
		<tag k="old_name:se" v="Čuometladdut" />
		<tag k="ssr:stedsnr" v="201699" />
	</node>
	<node id="-917830" lat="70.0497722606" lon="29.0583627572">
		<tag k="name" v="Byluftelva" />
		<tag k="name:no" v="Byluftelva" />
		<tag k="ssr:stedsnr" v="151764" />
		<tag k="waterway" v="stream" />
	</node>
	<node id="-917827" lat="70.0056667066" lon="29.1966126768">
		<tag k="name" v="Gieđbmeláttu" />
		<tag k="name:se" v="Gieđbmeláttu" />
		<tag k="natural" v="water" />
		<tag k="ssr:stedsnr" v="151725" />
	</node>
	<node id="-917314" lat="70.1720916884" lon="28.3498713968">
		<tag k="name" v="Hávgoailáddot" />
		<tag k="name:se" v="Hávgoailáddot" />
		<tag k="natural" v="water" />
		<tag k="ssr:stedsnr" v="459498" />
	</node>
	<node id="-917313" lat="70.2300222479" lon="28.4523046967">
		<tag k="name" v="Lávreboadnjájohka" />
		<tag k="name:se" v="Lávreboadnjájohka" />
		<tag k="ssr:stedsnr" v="459399" />
		<tag k="waterway" v="stream" />
	</node>
	<node id="-918240" lat="70.1044444725" lon="28.8188517666">
		<tag k="name" v="Bakutjávri - Kalevatn" />
		<tag k="name:no" v="Kalevatn" />
		<tag k="name:se" v="Bakutjávri" />
		<tag k="natural" v="water" />
		<tag k="ssr:stedsnr" v="817239" />
	</node>
	<node id="-917822" lat="70.0584472549" lon="28.9091156062">
		<tag k="name" v="Rámpagurjohka" />
		<tag k="name:se" v="Rámpagurjohka" />
		<tag k="ssr:stedsnr" v="151558" />
		<tag k="waterway" v="stream" />
	</node>
	<node id="-917817" lat="70.055538927" lon="29.0125072361">
		<tag k="name" v="Háŋŋaláddot" />
		<tag k="name:se" v="Háŋŋaláddot" />
		<tag k="natural" v="water" />
		<tag k="ssr:stedsnr" v="149218" />
	</node>
	<node id="-917896" lat="69.9723194782" lon="28.6024684861">
		<tag k="name" v="Beaskaluobbalat" />
		<tag k="name:se" v="Beaskaluobbalat" />
		<tag k="natural" v="water" />
		<tag k="old_name:se" v="Bæskaluobbalat" />
		<tag k="ssr:stedsnr" v="322745" />
	</node>
	<node id="-917806" lat="70.1854639137" lon="28.5748102174">
		<tag k="name" v="Johtinjohka" />
		<tag k="name:se" v="Johtinjohka" />
		<tag k="ssr:stedsnr" v="146414" />
		<tag k="waterway" v="stream" />
	</node>
	<node id="-917293" lat="70.2065139147" lon="28.4510352679">
		<tag k="name" v="Villeláttu" />
		<tag k="name:se" v="Villeláttu" />
		<tag k="natural" v="water" />
		<tag k="ssr:stedsnr" v="452035" />
	</node>
	<node id="-917802" lat="70.1677666957" lon="28.5541518939">
		<tag k="fixme" v="multiple name tags, choose one and add the other to alt_name" />
		<tag k="name" v="Savdnjajeaggijohka;Girkojohka" />
		<tag k="name:se" v="Savdnjajeaggijohka;Girkojohka" />
		<tag k="old_name:se" v="Girkujåkka" />
		<tag k="ssr:stedsnr" v="140877" />
		<tag k="waterway" v="stream" />
	</node>
	<node id="-917801" lat="69.9382805909" lon="28.5276407188">
		<tag k="name" v="Juggejohka" />
		<tag k="name:se" v="Juggejohka" />
		<tag k="old_name:se" v="Juggejåkka" />
		<tag k="ssr:stedsnr" v="140860" />
		<tag k="waterway" v="river" />
	</node>
	<node id="-917800" lat="70.182777807" lon="28.7421351376">
		<tag k="name" v="Galbajohka" />
		<tag k="name:se" v="Galbajohka" />
		<tag k="old_name:se" v="Galbajåkka" />
		<tag k="ssr:stedsnr" v="140855" />
		<tag k="waterway" v="stream" />
	</node>
	<node id="-917798" lat="70.2180444685" lon="28.4927741195">
		<tag k="alt_name:se" v="Báišvađaláttu" />
		<tag k="name" v="Bákšavárláttu" />
		<tag k="name:se" v="Bákšavárláttu" />
		<tag k="natural" v="water" />
		<tag k="old_name:se" v="Bakšavarladdo" />
		<tag k="ssr:stedsnr" v="140840" />
	</node>
	<node id="-917797" lat="69.9725417057" lon="28.8263628312">
		<tag k="name" v="Láirabáŋkenjávri" />
		<tag k="name:se" v="Láirabáŋkenjávri" />
		<tag k="natural" v="water" />
		<tag k="old_name:se" v="Lairabaŋkenjavri" />
		<tag k="ssr:stedsnr" v="140838" />
		<tag k="water" v="lake" />
	</node>
	<node id="-917796" lat="70.2017750299" lon="28.400204715">
		<tag k="name" v="Jorranjávrrit" />
		<tag k="name:se" v="Jorranjávrrit" />
		<tag k="natural" v="water" />
		<tag k="old_name:se" v="Jårranjavrit" />
		<tag k="ssr:stedsnr" v="140836" />
	</node>
	<node id="-917794" lat="69.9916722639" lon="29.1574599166">
		<tag k="name" v="Ondronjávri" />
		<tag k="name:se" v="Ondronjávri" />
		<tag k="natural" v="water" />
		<tag k="old_name:se" v="Ondrejávri;Åndrunjavri" />
		<tag k="ssr:stedsnr" v="140828" />
		<tag k="water" v="lake" />
	</node>
	<node id="-917793" lat="70.2431861397" lon="28.5964352135">
		<tag k="name" v="Álljaveaijohka" />
		<tag k="name:se" v="Álljaveaijohka" />
		<tag k="old_name:se" v="Alljavæjjåkka" />
		<tag k="ssr:stedsnr" v="140820" />
		<tag k="waterway" v="river" />
	</node>
	<node id="-917280" lat="69.9070750323" lon="28.6190295563">
		<tag k="name" v="Ođđagopskáidi" />
		<tag k="name:se" v="Ođđagopskáidi" />
		<tag k="natural" v="cape" />
		<tag k="old_name:se" v="Åđđagåpskaidi;Ođđagohpskáidi" />
		<tag k="ssr:stedsnr" v="444878" />
	</node>
	<node id="-917279" lat="69.9375889206" lon="28.5502712665">
		<tag k="name" v="Njoaskejohka" />
		<tag k="name:se" v="Njoaskejohka" />
		<tag k="old_name:se" v="Njoaskejåkka" />
		<tag k="ssr:stedsnr" v="444873" />
		<tag k="waterway" v="river" />
	</node>
	<node id="-917790" lat="70.1411305825" lon="28.4252658044">
		<tag k="name" v="Vuoksajávri" />
		<tag k="name:se" v="Vuoksajávri" />
		<tag k="natural" v="water" />
		<tag k="old_name:se" v="Vuoksajavri" />
		<tag k="ssr:stedsnr" v="140758" />
		<tag k="water" v="lake" />
	</node>
	<node id="-917789" lat="69.976519475" lon="28.6454156814">
		<tag k="name" v="Kildalskáidi" />
		<tag k="name:se" v="Kildalskáidi" />
		<tag k="natural" v="cape" />
		<tag k="old_name:se" v="Kildalskaidi" />
		<tag k="ssr:stedsnr" v="140747" />
	</node>
	<node id="-917957" lat="70.0774305822" lon="28.4118741371">
		<tag k="name" v="Suolojávri" />
		<tag k="name:se" v="Suolojávri" />
		<tag k="natural" v="water" />
		<tag k="old_name:se" v="Suolujavri" />
		<tag k="ssr:stedsnr" v="383831" />
		<tag k="water" v="lake" />
	</node>
	<node id="-917271" lat="70.1798278069" lon="28.5623713249">
		<tag k="name" v="Gáhkkorjávri - Lomvatnet" />
		<tag k="name:no" v="Lomvatnet" />
		<tag k="name:se" v="Gáhkkorjávri" />
		<tag k="natural" v="water" />
		<tag k="old_name:se" v="Gakkurjavri" />
		<tag k="ssr:stedsnr" v="444857" />
	</node>
	<node id="-917269" lat="69.9638389241" lon="29.0717599472">
		<tag k="name" v="Loddejárskáidi" />
		<tag k="name:se" v="Loddejárskáidi" />
		<tag k="natural" v="cape" />
		<tag k="old_name:se" v="Låddejarskaidi;Loddejarskáidi" />
		<tag k="ssr:stedsnr" v="444843" />
	</node>
	<node id="-917268" lat="70.212700032" lon="28.692843502">
		<tag k="name" v="Lávvojohka" />
		<tag k="name:se" v="Lávvojohka" />
		<tag k="old_name:se" v="Lavvujåkka" />
		<tag k="ssr:stedsnr" v="444835" />
		<tag k="waterway" v="stream" />
	</node>
	<node id="-917266" lat="70.0222666979" lon="28.4011991322">
		<tag k="name" v="Ivváránddejávri" />
		<tag k="name:se" v="Ivváránddejávri" />
		<tag k="natural" v="water" />
		<tag k="old_name:se" v="Ivvarandejavri" />
		<tag k="ssr:stedsnr" v="444678" />
	</node>
	<node id="-917264" lat="70.0547778116" lon="28.8527572872">
		<tag k="name" v="Varitjávri" />
		<tag k="name:se" v="Varitjávri" />
		<tag k="natural" v="water" />
		<tag k="old_name:se" v="Varitjavri" />
		<tag k="ssr:stedsnr" v="444645" />
	</node>
	<node id="-917261" lat="70.1195944754" lon="28.3713241491">
		<tag k="alt_name:se" v="Guollejávri" />
		<tag k="name" v="Mihkojávri" />
		<tag k="name:se" v="Mihkojávri" />
		<tag k="natural" v="water" />
		<tag k="old_name:se" v="Mikkujavri" />
		<tag k="ssr:stedsnr" v="444771" />
	</node>
	<node id="-917258" lat="69.95236114" lon="28.3802463395">
		<tag k="name" v="Suolojárskáidi" />
		<tag k="name:se" v="Suolojárskáidi" />
		<tag k="natural" v="cape" />
		<tag k="old_name:se" v="Suolujarskaidi;Suolojárskaidi" />
		<tag k="ssr:stedsnr" v="444759" />
	</node>
	<node id="-917257" lat="69.976052807" lon="28.3526602494">
		<tag k="name" v="Niiladeanoluoppal" />
		<tag k="name:se" v="Niiladeanoluoppal" />
		<tag k="natural" v="water" />
		<tag k="old_name:se" v="Niiladænuluobbal" />
		<tag k="ssr:stedsnr" v="444757" />
	</node>
	<node id="-918280" lat="70.1058555816" lon="28.6003129534">
		<tag k="name" v="Cikkajohka" />
		<tag k="name:se" v="Cikkajohka" />
		<tag k="ssr:stedsnr" v="875480" />
		<tag k="waterway" v="stream" />
	</node>
	<node id="-917255" lat="70.179872251" lon="28.9461322906">
		<tag k="name" v="Stuorraguollejárjohka" />
		<tag k="name:se" v="Stuorraguollejárjohka" />
		<tag k="old_name:se" v="Storraguollejarjåkka" />
		<tag k="ssr:stedsnr" v="444744" />
		<tag k="waterway" v="stream" />
	</node>
	<node id="-917765" lat="70.1388667045" lon="29.2078932774">
		<tag k="name" v="Stálojohka" />
		<tag k="name:se" v="Stálojohka" />
		<tag k="ssr:stedsnr" v="87243" />
		<tag k="waterway" v="stream" />
	</node>
	<node id="-917250" lat="70.07180559" lon="28.894615606">
		<tag k="name" v="Gáldojogaš" />
		<tag k="name:se" v="Gáldojogaš" />
		<tag k="ssr:stedsnr" v="212519" />
		<tag k="waterway" v="stream" />
	</node>
	<node id="-918059" lat="70.1296694712" lon="28.4020324729">
		<tag k="name" v="Biehkanjávri" />
		<tag k="name:se" v="Biehkanjávri" />
		<tag k="natural" v="water" />
		<tag k="old_name:se" v="Biekkanjavri" />
		<tag k="ssr:stedsnr" v="625771" />
	</node>
	<node id="-918272" lat="70.0799111388" lon="28.5621546245">
		<tag k="name" v="Garvinjávri" />
		<tag k="name:se" v="Garvinjávri" />
		<tag k="natural" v="water" />
		<tag k="old_name:se" v="Garvinjavri" />
		<tag k="ssr:stedsnr" v="869835" />
	</node>
	<node id="-917632" lat="70.1384833636" lon="28.5141824583">
		<tag k="name" v="Bannaid Njiđgo" />
		<tag k="name:se" v="Bannaid Njiđgo" />
		<tag k="ssr:stedsnr" v="938911" />
		<tag k="waterway" v="river" />
	</node>
	<node id="-918270" lat="70.1042083637" lon="28.4741491082">
		<tag k="name" v="Čuovžajávri" />
		<tag k="name:se" v="Čuovžajávri" />
>>>>>>> e1d4bc35ff8a6074a6f2e91616a996b547c36f15
		<tag k="natural" v="water" />
		<tag k="old_name:se" v="Kruvnašjåkka" />
		<tag k="ssr:stedsnr" v="19758" />
	</node>
<<<<<<< HEAD
	<node lat="70.14568891621491" lon="28.45307969052695" id="-38799">
		<tag k="name" v="Uhcit Vuoksajávri" />
		<tag k="name:se" v="Uhcit Vuoksajávri" />
		<tag k="natural" v="water" />
		<tag k="old_name:se" v="Vuoksajavri, uccit" />
		<tag k="ssr:stedsnr" v="19760" />
	</node>
	<node lat="69.95682225532447" lon="28.604799025413065" id="-38800">
		<tag k="name" v="Dierggejárskáidi" />
		<tag k="name:se" v="Dierggejárskáidi" />
		<tag k="natural" v="cape" />
		<tag k="old_name:se" v="Diergejarskaidi" />
		<tag k="ssr:stedsnr" v="19765" />
	</node>
	<node lat="70.15949169393473" lon="28.347726958114027" id="-38804">
		<tag k="name" v="Cuokkojávri" />
		<tag k="name:se" v="Cuokkojávri" />
		<tag k="natural" v="water" />
		<tag k="old_name:se" v="Cuoggujavri;Cuoggujávri" />
		<tag k="ssr:stedsnr" v="19862" />
		<tag k="water" v="lake" />
	</node>
	<node lat="70.01112503903005" lon="29.204346025743522" id="-38805">
		<tag k="name" v="Suttesjohka - Åpenvikbekken" />
		<tag k="name:no" v="Åpenvikbekken" />
		<tag k="name:se" v="Suttesjohka" />
		<tag k="old_name:se" v="Suddesjåkka" />
		<tag k="ssr:stedsnr" v="20610" />
		<tag k="waterway" v="stream" />
	</node>
	<node lat="70.00682782042537" lon="29.13734326483127" id="-38806">
		<tag k="alt_name:se" v="Uvllášjohka" />
		<tag k="name" v="Ulvvešjohka" />
		<tag k="name:se" v="Ulvvešjohka" />
		<tag k="old_name:se" v="Ulvešjåkka" />
		<tag k="ssr:stedsnr" v="20615" />
		<tag k="waterway" v="stream" />
	</node>
	<node lat="70.14597225082483" lon="28.543288000170577" id="-38817">
		<tag k="name" v="Hánnonjárga" />
		<tag k="name:se" v="Hánnonjárga" />
		<tag k="natural" v="cape" />
		<tag k="ssr:stedsnr" v="27448" />
	</node>
	<node lat="70.00493893002097" lon="29.10749883045658" id="-38826">
		<tag k="name" v="Duttaláttu" />
		<tag k="name:se" v="Duttaláttu" />
		<tag k="natural" v="water" />
		<tag k="ssr:stedsnr" v="30690" />
	</node>
	<node lat="69.99434170681033" lon="29.17642102809272" id="-38829">
		<tag k="name" v="Suttesjohláttu" />
		<tag k="name:se" v="Suttesjohláttu" />
		<tag k="natural" v="water" />
		<tag k="ssr:stedsnr" v="30740" />
	</node>
	<node lat="70.1416555885313" lon="29.169368284218795" id="-38840">
		<tag k="name" v="Borrejohka" />
		<tag k="name:se" v="Borrejohka" />
		<tag k="old_name:se" v="Bårrejåkka" />
		<tag k="ssr:stedsnr" v="80650" />
		<tag k="waterway" v="stream" />
	</node>
	<node lat="70.06151392523711" lon="28.895673936899364" id="-38842">
		<tag k="name" v="Sikkájávrrit" />
		<tag k="name:se" v="Sikkájávrrit" />
		<tag k="natural" v="water" />
		<tag k="old_name:se" v="Siggajavrit" />
		<tag k="ssr:stedsnr" v="80656" />
	</node>
	<node lat="70.05340836718648" lon="28.99191835563888" id="-38843">
		<tag k="name" v="Niibereahpenjávri" />
		<tag k="name:se" v="Niibereahpenjávri" />
		<tag k="natural" v="water" />
		<tag k="old_name:se" v="Niiberæppenjavri" />
		<tag k="ssr:stedsnr" v="80658" />
	</node>
	<node lat="70.04353614427065" lon="28.878098940277898" id="-38844">
		<tag k="name" v="Sundejávri - Fogdevatnet" />
		<tag k="name:no" v="Fogdevatnet" />
		<tag k="name:se" v="Sundejávri" />
		<tag k="natural" v="water" />
		<tag k="old_name:se" v="Sundejavri" />
		<tag k="ssr:stedsnr" v="80662" />
		<tag k="water" v="lake" />
	</node>
	<node lat="70.04141670426323" lon="29.0825127331239" id="-38845">
		<tag k="alt_name:no" v="Svanevatn" />
		<tag k="name" v="Njukčajávri - Svanevatnet" />
		<tag k="name:no" v="Svanevatnet" />
		<tag k="name:se" v="Njukčajávri" />
		<tag k="natural" v="water" />
		<tag k="old_name:se" v="Njukčajavri" />
		<tag k="ssr:stedsnr" v="80669" />
	</node>
	<node lat="70.13098892395274" lon="29.16638217647333" id="-38846">
		<tag k="name" v="Stálojávri - Klubbvatnet" />
		<tag k="name:no" v="Klubbvatnet" />
		<tag k="name:se" v="Stálojávri" />
		<tag k="natural" v="water" />
		<tag k="ssr:stedsnr" v="80631" />
	</node>
	<node lat="70.0718139228196" lon="28.871443409065378" id="-38850">
		<tag k="alt_name:se" v="Ujjogaš" />
		<tag k="name" v="Viercajárjohka" />
		<tag k="name:se" v="Viercajárjohka" />
		<tag k="old_name:se" v="Viercajarjåkka" />
		<tag k="ssr:stedsnr" v="80679" />
		<tag k="waterway" v="stream" />
	</node>
	<node lat="69.9924639188345" lon="28.526899068195117" id="-38852">
		<tag k="name" v="Pavelluoppal" />
		<tag k="name:se" v="Pavelluoppal" />
		<tag k="natural" v="water" />
		<tag k="old_name:se" v="Pavelluobbal" />
		<tag k="ssr:stedsnr" v="80763" />
		<tag k="water" v="lake" />
	</node>
	<node lat="70.10700558878611" lon="28.55136574763513" id="-38854">
		<tag k="name" v="Stránci" />
		<tag k="name:se" v="Stránci" />
		<tag k="old_name:se" v="Stranci" />
		<tag k="ssr:stedsnr" v="80772" />
		<tag k="waterway" v="river" />
	</node>
	<node lat="70.17124169126882" lon="28.424132466641684" id="-38856">
		<tag k="name" v="Einárjávri - Einarvatn" />
		<tag k="name:no" v="Einarvatn" />
		<tag k="name:se" v="Einárjávri" />
		<tag k="natural" v="water" />
		<tag k="old_name:se" v="Einarjavri" />
		<tag k="ssr:stedsnr" v="80851" />
	</node>
	<node lat="70.06827503539695" lon="28.802365644626736" id="-38857">
		<tag k="alt_name:se" v="Fállegoahtesaijavri" />
		<tag k="name" v="Fállegoahccejávri" />
		<tag k="name:se" v="Fállegoahccejávri" />
		<tag k="natural" v="water" />
		<tag k="old_name:se" v="Fallegoaccejavri" />
		<tag k="ssr:stedsnr" v="80713" />
	</node>
	<node lat="70.03556948149047" lon="28.73382121679349" id="-38859">
=======
	<node id="-918269" lat="69.9476167006" lon="28.4927907354">
		<tag k="name" v="Kruvnnašskáidi" />
		<tag k="name:se" v="Kruvnnašskáidi" />
		<tag k="natural" v="cape" />
		<tag k="old_name:se" v="Kruvnašskaidi" />
		<tag k="ssr:stedsnr" v="869787" />
	</node>
	<node id="-918268" lat="69.9679194728" lon="28.4829101881">
		<tag k="name" v="Gumpeskáidi" />
		<tag k="name:se" v="Gumpeskáidi" />
		<tag k="natural" v="cape" />
		<tag k="old_name:se" v="Gumpeskaidi" />
		<tag k="ssr:stedsnr" v="869779" />
	</node>
	<node id="-918266" lat="69.9761333709" lon="28.6764601129">
		<tag k="name" v="Látnjalakjávrrit" />
		<tag k="name:se" v="Látnjalakjávrrit" />
		<tag k="natural" v="water" />
		<tag k="old_name:se" v="Ladnjalakjavrit;Ladnjalakjávrrit" />
		<tag k="ssr:stedsnr" v="869777" />
		<tag k="water" v="lake" />
	</node>
	<node id="-918265" lat="70.1770750294" lon="28.8269073214">
		<tag k="name" v="Stuorra Guollejávri" />
		<tag k="name:se" v="Stuorra Guollejávri" />
		<tag k="natural" v="water" />
		<tag k="old_name:se" v="Guollejavri, stuorra" />
		<tag k="ssr:stedsnr" v="869766" />
	</node>
	<node id="-918264" lat="70.1604694827" lon="29.0162266908">
		<tag k="name" v="Rássejohka" />
		<tag k="name:se" v="Rássejohka" />
		<tag k="old_name:se" v="Rassejåkka" />
		<tag k="ssr:stedsnr" v="869758" />
		<tag k="waterway" v="stream" />
	</node>
	<node id="-917751" lat="70.1712416913" lon="28.4241324666">
		<tag k="name" v="Einárjávri - Einarvatn" />
		<tag k="name:no" v="Einarvatn" />
		<tag k="name:se" v="Einárjávri" />
		<tag k="natural" v="water" />
		<tag k="old_name:se" v="Einarjavri" />
		<tag k="ssr:stedsnr" v="80851" />
	</node>
	<node id="-917238" lat="70.0101611428" lon="28.8055906206">
		<tag k="name" v="Suolojávri - Holmvatnet" />
		<tag k="name:no" v="Holmvatnet" />
		<tag k="name:se" v="Suolojávri" />
		<tag k="natural" v="water" />
		<tag k="old_name:se" v="Suolujavri" />
		<tag k="ssr:stedsnr" v="201661" />
		<tag k="water" v="lake" />
	</node>
	<node id="-917749" lat="70.0805944745" lon="28.6670629254">
		<tag k="name" v="Čeavrresjohka - Oterelva" />
		<tag k="name:no" v="Oterelva" />
		<tag k="name:se" v="Čeavrresjohka" />
		<tag k="old_name:se" v="Čævresjåkka" />
		<tag k="ssr:stedsnr" v="80811" />
		<tag k="waterway" v="stream" />
	</node>
	<node id="-917236" lat="70.2011916984" lon="28.9925739381">
		<tag k="name" v="Sarvvesjávri" />
		<tag k="name:se" v="Sarvvesjávri" />
		<tag k="natural" v="water" />
		<tag k="old_name:se" v="Sarvesjavri" />
		<tag k="ssr:stedsnr" v="201733" />
	</node>
	<node id="-918259" lat="70.0420778138" lon="29.1395460618">
		<tag k="alt_name:se" v="Sárajohka" />
		<tag k="name" v="Sárajárjohka" />
		<tag k="name:se" v="Sárajárjohka" />
		<tag k="old_name:se" v="Sarajarjåkka" />
		<tag k="ssr:stedsnr" v="869692" />
		<tag k="waterway" v="stream" />
	</node>
	<node id="-918258" lat="70.0511833651" lon="29.0218600019">
		<tag k="name" v="Riggejávri" />
		<tag k="name:se" v="Riggejávri" />
		<tag k="natural" v="water" />
		<tag k="old_name:se" v="Riggejavri" />
		<tag k="ssr:stedsnr" v="869688" />
		<tag k="water" v="lake" />
	</node>
	<node id="-918257" lat="70.1337611457" lon="29.0110489282">
		<tag k="name" v="Nordvivatnet" />
		<tag k="name:no" v="Nordvivatnet" />
		<tag k="natural" v="water" />
		<tag k="ssr:stedsnr" v="869677" />
	</node>
	<node id="-917743" lat="70.1070055888" lon="28.5513657476">
		<tag k="name" v="Stránci" />
		<tag k="name:se" v="Stránci" />
		<tag k="old_name:se" v="Stranci" />
		<tag k="ssr:stedsnr" v="80772" />
		<tag k="waterway" v="river" />
	</node>
	<node id="-917741" lat="69.9924639188" lon="28.5268990682">
		<tag k="name" v="Pavelluoppal" />
		<tag k="name:se" v="Pavelluoppal" />
		<tag k="natural" v="water" />
		<tag k="old_name:se" v="Pavelluobbal" />
		<tag k="ssr:stedsnr" v="80763" />
		<tag k="water" v="lake" />
	</node>
	<node id="-917227" lat="70.0836000348" lon="28.7247240147">
		<tag k="name" v="Čáhcekeatjávri" />
		<tag k="name:se" v="Čáhcekeatjávri" />
		<tag k="natural" v="water" />
		<tag k="ssr:stedsnr" v="150106" />
		<tag k="water" v="lake" />
	</node>
	<node id="-917738" lat="70.0355694815" lon="28.7338212168">
>>>>>>> e1d4bc35ff8a6074a6f2e91616a996b547c36f15
		<tag k="name" v="Guhkesjávri" />
		<tag k="name:se" v="Guhkesjávri" />
		<tag k="natural" v="water" />
		<tag k="old_name:se" v="Gukkesjavri" />
		<tag k="ssr:stedsnr" v="80722" />
		<tag k="water" v="lake" />
	</node>
<<<<<<< HEAD
	<node lat="70.09573336027944" lon="28.351310280022982" id="-38862">
		<tag k="name" v="Heanddajávri" />
		<tag k="name:se" v="Heanddajávri" />
		<tag k="natural" v="water" />
		<tag k="old_name:se" v="Hændajavri" />
		<tag k="ssr:stedsnr" v="80806" />
	</node>
	<node lat="70.08059447447789" lon="28.66706292539513" id="-38863">
		<tag k="name" v="Čeavrresjohka - Oterelva" />
		<tag k="name:no" v="Oterelva" />
		<tag k="name:se" v="Čeavrresjohka" />
		<tag k="old_name:se" v="Čævresjåkka" />
		<tag k="ssr:stedsnr" v="80811" />
		<tag k="waterway" v="stream" />
	</node>
	<node lat="70.1696833598886" lon="28.5372879955793" id="-38866">
		<tag k="name" v="Vuonnabahjohka - Hildurbekken" />
		<tag k="name:no" v="Hildurbekken" />
		<tag k="name:se" v="Vuonnabahjohka" />
		<tag k="ssr:stedsnr" v="80856" />
		<tag k="waterway" v="stream" />
	</node>
	<node lat="70.13886670454639" lon="29.207893277407035" id="-38872">
		<tag k="name" v="Stálojohka" />
		<tag k="name:se" v="Stálojohka" />
		<tag k="ssr:stedsnr" v="87243" />
		<tag k="waterway" v="stream" />
	</node>
	<node lat="70.17665836933386" lon="28.86633509621063" id="-38876">
		<tag k="name" v="Goikeguopparjohka" />
		<tag k="name:se" v="Goikeguopparjohka" />
		<tag k="ssr:stedsnr" v="88012" />
		<tag k="waterway" v="stream" />
	</node>
	<node lat="70.16976669447413" lon="28.82909066911026" id="-38877">
		<tag k="name" v="Huvvaláttu" />
		<tag k="name:se" v="Huvvaláttu" />
		<tag k="natural" v="water" />
		<tag k="ssr:stedsnr" v="88014" />
	</node>
	<node lat="70.19377224942677" lon="28.393674154016875" id="-38879">
		<tag k="name" v="Baktaláddot" />
		<tag k="name:se" v="Baktaláddot" />
		<tag k="natural" v="water" />
		<tag k="ssr:stedsnr" v="88031" />
	</node>
	<node lat="69.97651947500579" lon="28.64541568143201" id="-38894">
		<tag k="name" v="Kildalskáidi" />
		<tag k="name:se" v="Kildalskáidi" />
		<tag k="natural" v="cape" />
		<tag k="old_name:se" v="Kildalskaidi" />
		<tag k="ssr:stedsnr" v="140747" />
	</node>
	<node lat="70.1411305824582" lon="28.42526580435427" id="-38895">
		<tag k="name" v="Vuoksajávri" />
		<tag k="name:se" v="Vuoksajávri" />
		<tag k="natural" v="water" />
		<tag k="old_name:se" v="Vuoksajavri" />
		<tag k="ssr:stedsnr" v="140758" />
		<tag k="water" v="lake" />
	</node>
	<node lat="70.24318613969156" lon="28.59643521353532" id="-38901">
		<tag k="name" v="Álljaveaijohka" />
		<tag k="name:se" v="Álljaveaijohka" />
		<tag k="old_name:se" v="Alljavæjjåkka" />
		<tag k="ssr:stedsnr" v="140820" />
		<tag k="waterway" v="river" />
	</node>
	<node lat="69.99167226392892" lon="29.157459916597205" id="-38902">
		<tag k="name" v="Ondronjávri" />
		<tag k="name:se" v="Ondronjávri" />
		<tag k="natural" v="water" />
		<tag k="old_name:se" v="Ondrejávri;Åndrunjavri" />
		<tag k="ssr:stedsnr" v="140828" />
		<tag k="water" v="lake" />
	</node>
	<node lat="70.1827778070176" lon="28.742135137594918" id="-38904">
		<tag k="name" v="Galbajohka" />
		<tag k="name:se" v="Galbajohka" />
		<tag k="old_name:se" v="Galbajåkka" />
		<tag k="ssr:stedsnr" v="140855" />
		<tag k="waterway" v="stream" />
	</node>
	<node lat="69.93828059091572" lon="28.5276407187933" id="-38905">
		<tag k="name" v="Juggejohka" />
		<tag k="name:se" v="Juggejohka" />
		<tag k="old_name:se" v="Juggejåkka" />
		<tag k="ssr:stedsnr" v="140860" />
		<tag k="waterway" v="river" />
	</node>
	<node lat="70.16776669574698" lon="28.55415189390482" id="-38906">
		<tag k="fixme" v="multiple name tags, choose one and add the other to alt_name" />
		<tag k="name" v="Savdnjajeaggijohka;Girkojohka" />
		<tag k="name:se" v="Savdnjajeaggijohka;Girkojohka" />
		<tag k="old_name:se" v="Girkujåkka" />
		<tag k="ssr:stedsnr" v="140877" />
		<tag k="waterway" v="stream" />
	</node>
	<node lat="70.05553892702153" lon="29.012507236072974" id="-38918">
		<tag k="name" v="Háŋŋaláddot" />
		<tag k="name:se" v="Háŋŋaláddot" />
		<tag k="natural" v="water" />
		<tag k="ssr:stedsnr" v="149218" />
	</node>
	<node lat="70.00566670664271" lon="29.196612676815583" id="-38921">
		<tag k="name" v="Gieđbmeláttu" />
		<tag k="name:se" v="Gieđbmeláttu" />
		<tag k="natural" v="water" />
		<tag k="ssr:stedsnr" v="151725" />
	</node>
	<node lat="70.04977226058519" lon="29.058362757222653" id="-38925">
		<tag k="name" v="Byluftelva" />
		<tag k="name:no" v="Byluftelva" />
		<tag k="ssr:stedsnr" v="151764" />
		<tag k="waterway" v="stream" />
	</node>
	<node lat="70.0101611427874" lon="28.80559062064491" id="-38932">
		<tag k="name" v="Suolojávri - Holmvatnet" />
		<tag k="name:no" v="Holmvatnet" />
		<tag k="name:se" v="Suolojávri" />
		<tag k="natural" v="water" />
		<tag k="old_name:se" v="Suolujavri" />
		<tag k="ssr:stedsnr" v="201661" />
		<tag k="water" v="lake" />
	</node>
	<node lat="70.04401669394858" lon="28.472324087477375" id="-38934">
		<tag k="name" v="Savetjohka" />
		<tag k="name:se" v="Savetjohka" />
		<tag k="old_name:se" v="Savetjåkka" />
		<tag k="ssr:stedsnr" v="201675" />
		<tag k="waterway" v="river" />
	</node>
	<node lat="69.98848059143236" lon="28.588226825723748" id="-38937">
		<tag k="name" v="Kildaljávri" />
		<tag k="name:se" v="Kildaljávri" />
		<tag k="natural" v="water" />
		<tag k="old_name:se" v="Kildaljavri" />
		<tag k="ssr:stedsnr" v="201744" />
	</node>
	<node lat="69.96558614195456" lon="28.61921568026755" id="-38940">
		<tag k="name" v="Beaskajávri" />
		<tag k="name:se" v="Beaskajávri" />
		<tag k="natural" v="water" />
		<tag k="old_name:se" v="Bæskajavri" />
		<tag k="ssr:stedsnr" v="201752" />
		<tag k="water" v="lake" />
	</node>
	<node lat="70.20119169843758" lon="28.992573938123417" id="-38945">
		<tag k="name" v="Sarvvesjávri" />
		<tag k="name:se" v="Sarvvesjávri" />
=======
	<node id="-917543" lat="70.0597805877" lon="28.9865683468">
		<tag k="name" v="Niibereahpenjohka" />
		<tag k="name:se" v="Niibereahpenjohka" />
		<tag k="ssr:stedsnr" v="880586" />
		<tag k="waterway" v="stream" />
	</node>
	<node id="-917736" lat="70.0682750354" lon="28.8023656446">
		<tag k="alt_name:se" v="Fállegoahtesaijavri" />
		<tag k="name" v="Fállegoahccejávri" />
		<tag k="name:se" v="Fállegoahccejávri" />
		<tag k="natural" v="water" />
		<tag k="old_name:se" v="Fallegoaccejavri" />
		<tag k="ssr:stedsnr" v="80713" />
	</node>
	<node id="-917733" lat="70.0718139228" lon="28.8714434091">
		<tag k="alt_name:se" v="Ujjogaš" />
		<tag k="name" v="Viercajárjohka" />
		<tag k="name:se" v="Viercajárjohka" />
		<tag k="old_name:se" v="Viercajarjåkka" />
		<tag k="ssr:stedsnr" v="80679" />
		<tag k="waterway" v="stream" />
	</node>
	<node id="-917730" lat="70.0414167043" lon="29.0825127331">
		<tag k="alt_name:no" v="Svanevatn" />
		<tag k="name" v="Njukčajávri - Svanevatnet" />
		<tag k="name:no" v="Svanevatnet" />
		<tag k="name:se" v="Njukčajávri" />
		<tag k="natural" v="water" />
		<tag k="old_name:se" v="Njukčajavri" />
		<tag k="ssr:stedsnr" v="80669" />
	</node>
	<node id="-917729" lat="70.0435361443" lon="28.8780989403">
		<tag k="name" v="Sundejávri - Fogdevatnet" />
		<tag k="name:no" v="Fogdevatnet" />
		<tag k="name:se" v="Sundejávri" />
		<tag k="natural" v="water" />
		<tag k="old_name:se" v="Sundejavri" />
		<tag k="ssr:stedsnr" v="80662" />
		<tag k="water" v="lake" />
	</node>
	<node id="-917216" lat="70.0608305903" lon="28.8488434007">
		<tag k="name" v="Varitjávri" />
		<tag k="name:se" v="Varitjávri" />
		<tag k="natural" v="water" />
		<tag k="ssr:stedsnr" v="271246" />
	</node>
	<node id="-917727" lat="70.0615139252" lon="28.8956739369">
		<tag k="name" v="Sikkájávrrit" />
		<tag k="name:se" v="Sikkájávrrit" />
		<tag k="natural" v="water" />
		<tag k="old_name:se" v="Siggajavrit" />
		<tag k="ssr:stedsnr" v="80656" />
	</node>
	<node id="-917725" lat="70.1416555885" lon="29.1693682842">
		<tag k="name" v="Borrejohka" />
		<tag k="name:se" v="Borrejohka" />
		<tag k="old_name:se" v="Bårrejåkka" />
		<tag k="ssr:stedsnr" v="80650" />
		<tag k="waterway" v="stream" />
	</node>
	<node id="-917723" lat="70.130988924" lon="29.1663821765">
		<tag k="name" v="Stálojávri - Klubbvatnet" />
		<tag k="name:no" v="Klubbvatnet" />
		<tag k="name:se" v="Stálojávri" />
		<tag k="natural" v="water" />
		<tag k="ssr:stedsnr" v="80631" />
	</node>
	<node id="-917210" lat="70.1532666968" lon="28.5718102152">
		<tag k="name" v="Beaivvášjohka" />
		<tag k="name:se" v="Beaivvášjohka" />
		<tag k="ssr:stedsnr" v="270440" />
		<tag k="waterway" v="stream" />
	</node>
	<node id="-917206" lat="70.153577805" lon="28.6124851984">
		<tag k="name" v="Kiippárjohka" />
		<tag k="name:se" v="Kiippárjohka" />
		<tag k="ssr:stedsnr" v="270425" />
		<tag k="waterway" v="stream" />
	</node>
	<node id="-917625" lat="70.1197750313" lon="28.5731074201">
		<tag k="name" v="Skuvgejohka" />
		<tag k="name:se" v="Skuvgejohka" />
		<tag k="ssr:stedsnr" v="937773" />
		<tag k="waterway" v="stream" />
	</node>
	<node id="-917198" lat="70.1595055862" lon="28.8289656712">
		<tag k="name" v="Makkirjohka" />
		<tag k="name:se" v="Makkirjohka" />
		<tag k="ssr:stedsnr" v="269470" />
		<tag k="waterway" v="stream" />
	</node>
	<node id="-917511" lat="70.1645389176" lon="28.3282741736">
		<tag k="name" v="Hávgaláttu" />
		<tag k="name:se" v="Hávgaláttu" />
		<tag k="natural" v="water" />
		<tag k="ssr:stedsnr" v="580491" />
	</node>
	<node id="-917282" lat="70.0096278098" lon="28.8451933855">
		<tag k="name" v="Boncalanjávri" />
		<tag k="name:se" v="Boncalanjávri" />
		<tag k="natural" v="water" />
		<tag k="old_name:se" v="Båncalanjavri" />
		<tag k="ssr:stedsnr" v="445596" />
	</node>
	<node id="-917706" lat="70.0684555863" lon="28.9127961612">
		<tag k="name" v="Háššajávri" />
		<tag k="name:se" v="Háššajávri" />
		<tag k="natural" v="water" />
		<tag k="ssr:stedsnr" v="30529" />
	</node>
	<node id="-918261" lat="70.0178500344" lon="28.7173989978">
		<tag k="name" v="Čuometjávri" />
		<tag k="name:se" v="Čuometjávri" />
		<tag k="natural" v="water" />
		<tag k="old_name:se" v="Čuometjavri" />
		<tag k="ssr:stedsnr" v="869719" />
	</node>
	<node id="-917703" lat="70.00493893" lon="29.1074988305">
		<tag k="name" v="Duttaláttu" />
		<tag k="name:se" v="Duttaláttu" />
		<tag k="natural" v="water" />
		<tag k="ssr:stedsnr" v="30690" />
	</node>
	<node id="-917190" lat="70.3152583678" lon="28.9757017565">
		<tag k="name" v="Jávrrašmievttajávrrit" />
		<tag k="name:se" v="Jávrrašmievttajávrrit" />
		<tag k="natural" v="water" />
		<tag k="old_name:se" v="Javrašmievtajavrit" />
		<tag k="ssr:stedsnr" v="263995" />
		<tag k="water" v="lake" />
	</node>
	<node id="-918213" lat="70.1550778039" lon="28.3675491635">
		<tag k="name" v="Máttastivrranjávri" />
		<tag k="name:se" v="Máttastivrranjávri" />
		<tag k="natural" v="water" />
		<tag k="old_name:se" v="Maddastivranjavri" />
		<tag k="ssr:stedsnr" v="808862" />
	</node>
	<node id="-917187" lat="70.2520055762" lon="28.4452186094">
		<tag k="name" v="Sáverkkejohka" />
		<tag k="name:se" v="Sáverkkejohka" />
		<tag k="old_name:se" v="Saverkejåkka" />
		<tag k="ssr:stedsnr" v="262963" />
		<tag k="waterway" v="stream" />
	</node>
	<node id="-917707" lat="70.0699833684" lon="28.9006572778">
		<tag k="name" v="Birggetáhkku" />
		<tag k="name:se" v="Birggetáhkku" />
>>>>>>> e1d4bc35ff8a6074a6f2e91616a996b547c36f15
		<tag k="natural" v="water" />
		<tag k="ssr:stedsnr" v="30533" />
	</node>
<<<<<<< HEAD
	<node lat="70.17460836179639" lon="28.451490819933518" id="-38949">
		<tag k="name" v="Boncajávri" />
		<tag k="name:se" v="Boncajávri" />
		<tag k="natural" v="water" />
		<tag k="old_name:se" v="Båncajavri;Boanncåkjavri" />
		<tag k="ssr:stedsnr" v="201833" />
	</node>
	<node lat="70.02711670508535" lon="28.875948942600857" id="-38952">
		<tag k="name" v="Sáppenjávri" />
		<tag k="name:se" v="Sáppenjávri" />
		<tag k="natural" v="water" />
		<tag k="old_name:se" v="Sabbenjavri" />
		<tag k="ssr:stedsnr" v="202622" />
		<tag k="water" v="lake" />
	</node>
	<node lat="70.11536391579065" lon="28.507779648113864" id="-38962">
		<tag k="name" v="Bruggogorži" />
		<tag k="name:se" v="Bruggogorži" />
		<tag k="natural" v="waterfall" />
		<tag k="ssr:stedsnr" v="208326" />
	</node>
	<node lat="70.11127503273359" lon="28.588926858825463" id="-38966">
		<tag k="name" v="Guršojohka" />
		<tag k="name:se" v="Guršojohka" />
		<tag k="ssr:stedsnr" v="208730" />
		<tag k="waterway" v="stream" />
	</node>
	<node lat="70.16761392120344" lon="28.89329062912808" id="-38971">
		<tag k="name" v="Lavttajohka" />
		<tag k="name:se" v="Lavttajohka" />
		<tag k="ssr:stedsnr" v="210031" />
		<tag k="waterway" v="stream" />
	</node>
	<node lat="70.07180559001968" lon="28.894615606022025" id="-38977">
		<tag k="name" v="Gáldojogaš" />
		<tag k="name:se" v="Gáldojogaš" />
		<tag k="ssr:stedsnr" v="212519" />
		<tag k="waterway" v="stream" />
	</node>
	<node lat="70.1778083596965" lon="28.353482493956935" id="-38982">
		<tag k="name" v="Eatnančielggláddot" />
		<tag k="name:se" v="Eatnančielggláddot" />
		<tag k="natural" v="water" />
		<tag k="ssr:stedsnr" v="216512" />
	</node>
	<node lat="69.94771392531013" lon="28.635690686187505" id="-38992">
		<tag k="name" v="Juovsajávri" />
		<tag k="name:se" v="Juovsajávri" />
		<tag k="natural" v="water" />
		<tag k="old_name:se" v="Juovsajavri" />
		<tag k="ssr:stedsnr" v="322742" />
		<tag k="water" v="lake" />
	</node>
	<node lat="69.97231947823018" lon="28.60246848608438" id="-38993">
		<tag k="name" v="Beaskaluobbalat" />
		<tag k="name:se" v="Beaskaluobbalat" />
		<tag k="natural" v="water" />
		<tag k="old_name:se" v="Bæskaluobbalat" />
		<tag k="ssr:stedsnr" v="322745" />
	</node>
	<node lat="70.22041114085683" lon="28.378871390992103" id="-38996">
		<tag k="name" v="Missojohka" />
		<tag k="name:se" v="Missojohka" />
		<tag k="old_name:se" v="Missujåkka" />
		<tag k="ssr:stedsnr" v="322799" />
		<tag k="waterway" v="stream" />
	</node>
	<node lat="70.01196947950365" lon="28.981640554863247" id="-39000">
		<tag k="name" v="Nillájávri" />
		<tag k="name:se" v="Nillájávri" />
		<tag k="natural" v="water" />
		<tag k="old_name:se" v="Nillajavri" />
		<tag k="ssr:stedsnr" v="323593" />
	</node>
	<node lat="70.2906055868684" lon="28.985043427301584" id="-39005">
		<tag k="name" v="Guorrojohka" />
		<tag k="name:se" v="Guorrojohka" />
		<tag k="old_name:se" v="Guorrujåkka" />
		<tag k="ssr:stedsnr" v="323992" />
		<tag k="waterway" v="stream" />
	</node>
	<node lat="70.17409169223313" lon="28.37819361111189" id="-39011">
		<tag k="name" v="Hávgaguhkesjávri" />
		<tag k="name:se" v="Hávgaguhkesjávri" />
		<tag k="natural" v="water" />
		<tag k="old_name:se" v="Havgagukkesjavri" />
		<tag k="ssr:stedsnr" v="330690" />
		<tag k="water" v="lake" />
	</node>
	<node lat="70.15565558268077" lon="28.57325741449538" id="-39017">
		<tag k="name" v="Beakka-Hánnojohka" />
		<tag k="name:se" v="Beakka-Hánnojohka" />
		<tag k="ssr:stedsnr" v="331436" />
		<tag k="waterway" v="stream" />
	</node>
	<node lat="70.05468892130477" lon="29.02742111632937" id="-39019">
		<tag k="name" v="Láirájohka" />
		<tag k="name:se" v="Láirájohka" />
		<tag k="ssr:stedsnr" v="332230" />
		<tag k="waterway" v="stream" />
	</node>
	<node lat="70.00417781850636" lon="29.121001605956508" id="-39022">
		<tag k="name" v="Småvatna" />
		<tag k="name:no" v="Småvatna" />
		<tag k="natural" v="water" />
		<tag k="ssr:stedsnr" v="333676" />
	</node>
	<node lat="70.01069448031753" lon="29.19045434980356" id="-39023">
		<tag k="name" v="Geassevázzinláttu" />
		<tag k="name:se" v="Geassevázzinláttu" />
		<tag k="natural" v="water" />
		<tag k="ssr:stedsnr" v="333693" />
	</node>
	<node lat="70.041044481179" lon="29.03660443768284" id="-39027">
		<tag k="name" v="Guovžajávri - Bjørnvatnet" />
		<tag k="name:no" v="Bjørnvatnet" />
		<tag k="name:se" v="Guovžajávri" />
		<tag k="natural" v="water" />
		<tag k="old_name:se" v="Guovžajavri" />
		<tag k="ssr:stedsnr" v="383670" />
		<tag k="water" v="lake" />
	</node>
	<node lat="70.00380281054966" lon="28.56839906256487" id="-39028">
		<tag k="name" v="Skoalmmajohka" />
		<tag k="name:se" v="Skoalmmajohka" />
		<tag k="old_name:se" v="Skoalmajåkka" />
		<tag k="ssr:stedsnr" v="383687" />
		<tag k="waterway" v="stream" />
	</node>
	<node lat="70.22306947424676" lon="28.915987860820366" id="-39029">
		<tag k="name" v="Máttavárjohka" />
		<tag k="name:se" v="Máttavárjohka" />
		<tag k="old_name:se" v="Maddavarjåkka" />
		<tag k="ssr:stedsnr" v="383692" />
		<tag k="waterway" v="stream" />
	</node>
	<node lat="70.04344169999976" lon="28.528665749038126" id="-39034">
		<tag k="name" v="Sikkájávrrit" />
		<tag k="name:se" v="Sikkájávrrit" />
		<tag k="natural" v="water" />
		<tag k="old_name:se" v="Siggajavrit" />
		<tag k="ssr:stedsnr" v="383715" />
		<tag k="water" v="lake" />
	</node>
	<node lat="69.95066114146509" lon="28.45379907755761" id="-39038">
		<tag k="name" v="Kruvnnašjávri" />
		<tag k="name:se" v="Kruvnnašjávri" />
		<tag k="natural" v="water" />
		<tag k="old_name:se" v="Kruvnašjavri" />
		<tag k="ssr:stedsnr" v="383766" />
	</node>
	<node lat="70.11516391943807" lon="28.456882458192112" id="-39040">
		<tag k="name" v="Reikejohka" />
		<tag k="name:se" v="Reikejohka" />
		<tag k="old_name:se" v="Reikejåkka" />
		<tag k="ssr:stedsnr" v="383781" />
		<tag k="waterway" v="river" />
	</node>
	<node lat="69.97177225745718" lon="28.97298221499723" id="-39044">
		<tag k="name" v="Niibereahpenjávri" />
		<tag k="name:se" v="Niibereahpenjávri" />
		<tag k="natural" v="water" />
		<tag k="old_name:se" v="Niiberæppenjavri;Niibereappenjávri" />
		<tag k="ssr:stedsnr" v="383862" />
		<tag k="water" v="lake" />
	</node>
	<node lat="70.18036391689942" lon="28.790504563988506" id="-39046">
		<tag k="name" v="Njoaskevárjávri" />
		<tag k="name:se" v="Njoaskevárjávri" />
		<tag k="natural" v="water" />
		<tag k="old_name:se" v="Njoaskevarjavri" />
		<tag k="ssr:stedsnr" v="383875" />
	</node>
	<node lat="70.06578336302903" lon="28.702465679025586" id="-39047">
		<tag k="name" v="Háškajávri" />
		<tag k="name:se" v="Háškajávri" />
		<tag k="natural" v="water" />
		<tag k="old_name:se" v="Haškajavri;Haskajávri" />
		<tag k="ssr:stedsnr" v="383819" />
		<tag k="water" v="lake" />
	</node>
	<node lat="70.07743058217648" lon="28.41187413711321" id="-39048">
		<tag k="name" v="Suolojávri" />
		<tag k="name:se" v="Suolojávri" />
		<tag k="natural" v="water" />
		<tag k="old_name:se" v="Suolujavri" />
		<tag k="ssr:stedsnr" v="383831" />
		<tag k="water" v="lake" />
	</node>
	<node lat="69.99597504021466" lon="29.21406821982977" id="-39072">
		<tag k="name" v="Borgejohka" />
		<tag k="name:se" v="Borgejohka" />
		<tag k="ssr:stedsnr" v="394732" />
		<tag k="waterway" v="stream" />
	</node>
	<node lat="70.05477781159689" lon="28.8527572872428" id="-39076">
		<tag k="name" v="Varitjávri" />
		<tag k="name:se" v="Varitjávri" />
		<tag k="natural" v="water" />
		<tag k="old_name:se" v="Varitjavri" />
		<tag k="ssr:stedsnr" v="444645" />
	</node>
	<node lat="70.1798722509536" lon="28.946132290628558" id="-39079">
		<tag k="name" v="Stuorraguollejárjohka" />
		<tag k="name:se" v="Stuorraguollejárjohka" />
		<tag k="old_name:se" v="Storraguollejarjåkka" />
		<tag k="ssr:stedsnr" v="444744" />
		<tag k="waterway" v="stream" />
	</node>
	<node lat="69.97605280702182" lon="28.352660249351047" id="-39081">
		<tag k="name" v="Niiladeanoluoppal" />
		<tag k="name:se" v="Niiladeanoluoppal" />
		<tag k="natural" v="water" />
		<tag k="old_name:se" v="Niiladænuluobbal" />
		<tag k="ssr:stedsnr" v="444757" />
	</node>
	<node lat="69.95236113999279" lon="28.380246339532746" id="-39082">
		<tag k="name" v="Suolojárskáidi" />
		<tag k="name:se" v="Suolojárskáidi" />
		<tag k="natural" v="cape" />
		<tag k="old_name:se" v="Suolujarskaidi;Suolojárskaidi" />
		<tag k="ssr:stedsnr" v="444759" />
	</node>
	<node lat="70.11959447543578" lon="28.37132414909221" id="-39085">
		<tag k="alt_name:se" v="Guollejávri" />
		<tag k="name" v="Mihkojávri" />
		<tag k="name:se" v="Mihkojávri" />
		<tag k="natural" v="water" />
		<tag k="old_name:se" v="Mikkujavri" />
		<tag k="ssr:stedsnr" v="444771" />
	</node>
	<node lat="70.21270003201258" lon="28.692843501952588" id="-39087">
		<tag k="name" v="Lávvojohka" />
		<tag k="name:se" v="Lávvojohka" />
		<tag k="old_name:se" v="Lavvujåkka" />
		<tag k="ssr:stedsnr" v="444835" />
		<tag k="waterway" v="stream" />
	</node>
	<node lat="70.19363892057733" lon="28.701871266657783" id="-39088">
		<tag k="name" v="Álddajohka - Meskelva" />
		<tag k="name:no" v="Meskelva" />
		<tag k="name:se" v="Álddajohka" />
		<tag k="old_name:se" v="Aldajåkka" />
		<tag k="ssr:stedsnr" v="444824" />
		<tag k="waterway" v="river" />
	</node>
	<node lat="69.96383892409783" lon="29.071759947203375" id="-39089">
		<tag k="name" v="Loddejárskáidi" />
		<tag k="name:se" v="Loddejárskáidi" />
		<tag k="natural" v="cape" />
		<tag k="old_name:se" v="Låddejarskaidi;Loddejarskáidi" />
		<tag k="ssr:stedsnr" v="444843" />
	</node>
	<node lat="70.17982780688496" lon="28.562371324922914" id="-39091">
		<tag k="name" v="Gáhkkorjávri - Lomvatnet" />
		<tag k="name:no" v="Lomvatnet" />
		<tag k="name:se" v="Gáhkkorjávri" />
		<tag k="natural" v="water" />
		<tag k="old_name:se" v="Gakkurjavri" />
		<tag k="ssr:stedsnr" v="444857" />
	</node>
	<node lat="69.93758892058044" lon="28.55027126650058" id="-39095">
		<tag k="name" v="Njoaskejohka" />
		<tag k="name:se" v="Njoaskejohka" />
		<tag k="old_name:se" v="Njoaskejåkka" />
		<tag k="ssr:stedsnr" v="444873" />
		<tag k="waterway" v="river" />
	</node>
	<node lat="70.00962780976823" lon="28.845193385463016" id="-39097">
		<tag k="name" v="Boncalanjávri" />
		<tag k="name:se" v="Boncalanjávri" />
		<tag k="natural" v="water" />
		<tag k="old_name:se" v="Båncalanjavri" />
		<tag k="ssr:stedsnr" v="445596" />
	</node>
	<node lat="70.01558892199888" lon="28.668407358543124" id="-39101">
		<tag k="name" v="Luovveråđnjavri" />
		<tag k="name:se" v="Luovveråđnjavri" />
		<tag k="natural" v="water" />
		<tag k="ssr:stedsnr" v="504691" />
		<tag k="water" v="lake" />
	</node>
	<node lat="70.16376114506552" lon="28.982454486334394" id="-39103">
		<tag k="alt_name:se" v="Juovvaoaijávri" />
		<tag k="name" v="Juovvoaijávri" />
		<tag k="name:se" v="Juovvoaijávri" />
		<tag k="natural" v="water" />
		<tag k="old_name:se" v="Juovvoaijavri" />
		<tag k="ssr:stedsnr" v="504734" />
	</node>
	<node lat="70.13414725345987" lon="28.370213048507182" id="-39105">
		<tag k="name" v="Guollejávri" />
		<tag k="name:se" v="Guollejávri" />
		<tag k="natural" v="water" />
		<tag k="old_name:se" v="Guollejavri" />
		<tag k="ssr:stedsnr" v="504752" />
	</node>
	<node lat="70.16565003110584" lon="28.41579081514585" id="-39108">
		<tag k="name" v="Stuorrastivrranjávri - Storstyranvatn" />
		<tag k="name:no" v="Storstyranvatn" />
		<tag k="name:se" v="Stuorrastivrranjávri" />
		<tag k="natural" v="water" />
		<tag k="old_name:se" v="Stuorrastivranjavri" />
		<tag k="ssr:stedsnr" v="504837" />
		<tag k="water" v="lake" />
	</node>
	<node lat="69.87602225522885" lon="28.37095187502466" id="-39109">
		<tag k="name" v="Bihtošmarasjohka - Heilobekken" />
		<tag k="name:no" v="Heilobekken" />
		<tag k="name:se" v="Bihtošmarasjohka" />
		<tag k="old_name:se" v="Bittušmarasjåkka" />
		<tag k="ssr:stedsnr" v="504843" />
		<tag k="waterway" v="river" />
	</node>
	<node lat="70.00942781365521" lon="28.96609333636084" id="-39116">
		<tag k="name" v="Holvunjávrrit" />
		<tag k="name:se" v="Holvunjávrrit" />
		<tag k="natural" v="water" />
		<tag k="old_name:se" v="Hålvonjavrit" />
		<tag k="ssr:stedsnr" v="505590" />
		<tag k="water" v="lake" />
	</node>
	<node lat="69.97459170652343" lon="29.3283042835868" id="-39124">
		<tag k="name" v="Gáranasjávri" />
		<tag k="name:se" v="Gáranasjávri" />
		<tag k="natural" v="water" />
		<tag k="old_name:se" v="Garanasjavri" />
		<tag k="ssr:stedsnr" v="505842" />
		<tag k="water" v="lake" />
	</node>
	<node lat="70.11481947307416" lon="28.517907427747588" id="-39131">
		<tag k="name" v="Stuorragorži - Storfossen" />
		<tag k="name:no" v="Storfossen" />
		<tag k="name:se" v="Stuorragorži" />
		<tag k="natural" v="waterfall" />
		<tag k="ssr:stedsnr" v="511317" />
	</node>
	<node lat="70.20784724308088" lon="28.416421387586876" id="-39138">
		<tag k="name" v="Roggejohka" />
		<tag k="name:no" v="Roggejohka" />
		<tag k="ssr:stedsnr" v="513135" />
		<tag k="waterway" v="stream" />
	</node>
	<node lat="70.17858058526345" lon="28.43953246738677" id="-39140">
		<tag k="name" v="Hestedrikkvatn" />
		<tag k="name:no" v="Hestedrikkvatn" />
		<tag k="natural" v="water" />
		<tag k="ssr:stedsnr" v="512682" />
		<tag k="water" v="lake" />
	</node>
	<node lat="70.13857502998476" lon="28.362679710575065" id="-39164">
		<tag k="name" v="Hávgajávri" />
		<tag k="name:se" v="Hávgajávri" />
		<tag k="natural" v="water" />
		<tag k="old_name:se" v="Havgajavri" />
		<tag k="ssr:stedsnr" v="564753" />
	</node>
	<node lat="70.17970280108278" lon="28.400840815329136" id="-39165">
		<tag k="name" v="Rovvejávri" />
		<tag k="name:se" v="Rovvejávri" />
		<tag k="natural" v="water" />
		<tag k="ssr:stedsnr" v="564850" />
		<tag k="water" v="lake" />
	</node>
	<node lat="70.18848058707194" lon="28.626935195794374" id="-39167">
		<tag k="name" v="Ánnájávri - Andevatnet" />
		<tag k="name:no" v="Andevatnet" />
		<tag k="name:se" v="Ánnájávri" />
		<tag k="natural" v="water" />
		<tag k="old_name:se" v="Annajavri" />
		<tag k="ssr:stedsnr" v="564854" />
	</node>
	<node lat="70.22698614347469" lon="28.77593237360102" id="-39169">
		<tag k="name" v="Balddasvađajohka" />
		<tag k="name:se" v="Balddasvađajohka" />
		<tag k="old_name:se" v="Baldasvađajåkka" />
		<tag k="ssr:stedsnr" v="564814" />
		<tag k="waterway" v="stream" />
	</node>
	<node lat="70.05920281088348" lon="28.966015579159873" id="-39171">
		<tag k="name" v="Sorbmejávri" />
		<tag k="name:se" v="Sorbmejávri" />
		<tag k="natural" v="water" />
		<tag k="old_name:se" v="Sårbmejavri" />
		<tag k="ssr:stedsnr" v="565666" />
	</node>
	<node lat="70.13075836823151" lon="28.6132351761958" id="-39177">
		<tag k="name" v="Ráppotjávrrit" />
		<tag k="name:se" v="Ráppotjávrrit" />
		<tag k="natural" v="water" />
		<tag k="old_name:se" v="Rabbutjavrit;Rabokjavrit" />
		<tag k="ssr:stedsnr" v="565775" />
	</node>
	<node lat="70.19680836678704" lon="29.121493341965145" id="-39181">
		<tag k="name" v="Čoskajávri" />
		<tag k="name:se" v="Čoskajávri" />
		<tag k="natural" v="water" />
		<tag k="old_name:se" v="Čåskajavri" />
		<tag k="ssr:stedsnr" v="565756" />
		<tag k="water" v="lake" />
	</node>
	<node lat="69.94203336752372" lon="28.479179646876815" id="-39182">
		<tag k="name" v="Kruvnnašjohka" />
		<tag k="name:se" v="Kruvnnašjohka" />
		<tag k="old_name:se" v="Kruvnašjåkka" />
		<tag k="ssr:stedsnr" v="565866" />
		<tag k="waterway" v="stream" />
	</node>
	<node lat="70.18216946971604" lon="28.412224149302407" id="-39187">
		<tag k="name" v="Andrebukta" />
		<tag k="name:no" v="Andrebukta" />
		<tag k="natural" v="bay" />
		<tag k="ssr:stedsnr" v="570529" />
	</node>
	<node lat="70.14251113708666" lon="28.595343526858553" id="-39194">
		<tag k="name" v="Dutkojohka" />
		<tag k="name:se" v="Dutkojohka" />
		<tag k="old_name:se" v="Dutkojåkka" />
		<tag k="ssr:stedsnr" v="572732" />
		<tag k="waterway" v="stream" />
	</node>
	<node lat="70.13005280879501" lon="28.64049905966572" id="-39197">
		<tag k="name" v="Galbmagáldu" />
		<tag k="name:se" v="Galbmagáldu" />
		<tag k="natural" v="spring" />
		<tag k="ssr:stedsnr" v="573033" />
	</node>
	<node lat="70.1524694716822" lon="28.683790728613868" id="-39198">
		<tag k="name" v="Boazovárjávri" />
		<tag k="name:se" v="Boazovárjávri" />
		<tag k="natural" v="water" />
		<tag k="ssr:stedsnr" v="573038" />
		<tag k="water" v="lake" />
	</node>
	<node lat="70.06247225363678" lon="28.96952669408267" id="-39205">
		<tag k="name" v="Sorbmejávrrijohka" />
		<tag k="name:se" v="Sorbmejávrrijohka" />
		<tag k="ssr:stedsnr" v="576569" />
		<tag k="waterway" v="stream" />
	</node>
	<node lat="70.00825281815057" lon="29.097423838961127" id="-39206">
		<tag k="name" v="Ruoššoailáddot" />
		<tag k="name:se" v="Ruoššoailáddot" />
		<tag k="natural" v="water" />
		<tag k="ssr:stedsnr" v="576720" />
	</node>
	<node lat="70.09425559345665" lon="28.82036286651497" id="-39209">
		<tag k="name" v="Badjegieddjávri" />
		<tag k="name:se" v="Badjegieddjávri" />
		<tag k="natural" v="water" />
		<tag k="ssr:stedsnr" v="635142" />
		<tag k="water" v="lake" />
	</node>
	<node lat="70.08142225277938" lon="28.802815663791712" id="-39211">
		<tag k="name" v="Angaužžastatláttu" />
		<tag k="name:se" v="Angaužžastatláttu" />
		<tag k="natural" v="water" />
		<tag k="ssr:stedsnr" v="635154" />
	</node>
	<node lat="70.00693613835358" lon="28.51365741283907" id="-39212">
		<tag k="name" v="Goikeluobbalat" />
		<tag k="name:se" v="Goikeluobbalat" />
		<tag k="natural" v="water" />
		<tag k="old_name:se" v="Gåikeluobbalat" />
		<tag k="ssr:stedsnr" v="625695" />
	</node>
	<node lat="70.23787502421126" lon="28.56234632523103" id="-39213">
		<tag k="name" v="Rássejohskáidi" />
		<tag k="name:se" v="Rássejohskáidi" />
		<tag k="natural" v="cape" />
		<tag k="old_name:se" v="Rassejåkskaidi" />
		<tag k="ssr:stedsnr" v="625820" />
	</node>
	<node lat="70.212761139556" lon="28.426907481297143" id="-39214">
		<tag k="fixme" v="multiple name tags, choose one and add the other to alt_name" />
		<tag k="name" v="Luovttejohka;Suovkajohka - Sukielva;Luftjok - Louttijoki" />
		<tag k="name:fkv" v="Louttijoki" />
		<tag k="name:no" v="Sukielva;Luftjok" />
		<tag k="name:se" v="Luovttejohka;Suovkajohka" />
		<tag k="old_name:se" v="Suovkajåkka" />
		<tag k="ssr:stedsnr" v="625823" />
		<tag k="waterway" v="river" />
	</node>
	<node lat="70.18843613921354" lon="28.83735456084217" id="-39217">
		<tag k="name" v="Eahpárašjávri" />
		<tag k="name:se" v="Eahpárašjávri" />
		<tag k="natural" v="water" />
		<tag k="old_name:se" v="Æpparašjavri" />
		<tag k="ssr:stedsnr" v="625748" />
	</node>
	<node lat="70.12966947117135" lon="28.40203247294613" id="-39219">
		<tag k="name" v="Biehkanjávri" />
		<tag k="name:se" v="Biehkanjávri" />
		<tag k="natural" v="water" />
		<tag k="old_name:se" v="Biekkanjavri" />
		<tag k="ssr:stedsnr" v="625771" />
	</node>
	<node lat="70.15066946923979" lon="28.48389634376456" id="-39225">
		<tag k="name" v="Čámmájohka" />
		<tag k="name:se" v="Čámmájohka" />
		<tag k="old_name:se" v="Čammajåkka" />
		<tag k="ssr:stedsnr" v="625863" />
		<tag k="waterway" v="stream" />
	</node>
	<node lat="70.219541693479" lon="28.714332397508944" id="-39229">
		<tag k="name" v="Elijasjohka" />
		<tag k="name:se" v="Elijasjohka" />
		<tag k="old_name:se" v="Elijasjåkka" />
		<tag k="ssr:stedsnr" v="625845" />
		<tag k="waterway" v="stream" />
	</node>
	<node lat="70.17458336213416" lon="28.396010281974867" id="-39230">
		<tag k="name" v="Hávgajávri - Gjeddevatn" />
		<tag k="name:no" v="Gjeddevatn" />
		<tag k="name:se" v="Hávgajávri" />
		<tag k="natural" v="water" />
		<tag k="old_name:se" v="Havgajavri" />
		<tag k="ssr:stedsnr" v="625850" />
		<tag k="water" v="lake" />
	</node>
	<node lat="70.26899170232113" lon="29.10174057479181" id="-39231">
		<tag k="name" v="Suovvejohka - Bergebyelva" />
		<tag k="name:no" v="Bergebyelva" />
		<tag k="name:se" v="Suovvejohka" />
		<tag k="old_name:se" v="Suovvejåkka" />
		<tag k="ssr:stedsnr" v="626497" />
		<tag k="waterway" v="river" />
	</node>
	<node lat="70.18173614608524" lon="28.961179506569003" id="-39248">
		<tag k="name" v="Stuorraguollejávri" />
		<tag k="name:se" v="Stuorraguollejávri" />
		<tag k="natural" v="water" />
		<tag k="ssr:stedsnr" v="634012" />
		<tag k="water" v="lake" />
	</node>
	<node lat="70.05113892186615" lon="29.098146076165417" id="-39257">
		<tag k="name" v="Hoaššajohka" />
		<tag k="name:se" v="Hoaššajohka" />
		<tag k="ssr:stedsnr" v="636764" />
		<tag k="waterway" v="stream" />
	</node>
	<node lat="70.14968336801107" lon="28.8994489690377" id="-39262">
		<tag k="name" v="Sáltejávri" />
		<tag k="name:se" v="Sáltejávri" />
		<tag k="natural" v="water" />
		<tag k="old_name:se" v="Saltejavri" />
		<tag k="ssr:stedsnr" v="747644" />
	</node>
	<node lat="70.1431250331079" lon="29.019971133433227" id="-39264">
		<tag k="alt_name:no" v="Hammerneselva" />
		<tag k="name" v="Bealátjohka - Hammarneselva" />
		<tag k="name:no" v="Hammarneselva" />
		<tag k="name:se" v="Bealátjohka" />
		<tag k="old_name:se" v="Bælatjåkka" />
		<tag k="ssr:stedsnr" v="747651" />
		<tag k="waterway" v="stream" />
	</node>
	<node lat="70.05078336944563" lon="28.698057347393156" id="-39266">
		<tag k="name" v="Stuorrajávri" />
		<tag k="name:se" v="Stuorrajávri" />
		<tag k="natural" v="water" />
		<tag k="old_name:se" v="Stuorrajavri" />
		<tag k="ssr:stedsnr" v="747697" />
		<tag k="water" v="lake" />
	</node>
	<node lat="70.04859169241087" lon="28.428949118128227" id="-39267">
		<tag k="name" v="Savetluobbalat" />
		<tag k="name:se" v="Savetluobbalat" />
		<tag k="natural" v="water" />
		<tag k="ssr:stedsnr" v="747698" />
		<tag k="water" v="lake" />
	</node>
	<node lat="70.05723891610391" lon="28.405835227164662" id="-39268">
		<tag k="name" v="Rávdojávri" />
		<tag k="name:se" v="Rávdojávri" />
		<tag k="natural" v="water" />
		<tag k="old_name:se" v="Ravdujavri" />
		<tag k="ssr:stedsnr" v="747702" />
	</node>
	<node lat="70.07530003217384" lon="28.636687952186097" id="-39273">
		<tag k="name" v="Beaivejávri" />
		<tag k="name:se" v="Beaivejávri" />
		<tag k="natural" v="water" />
		<tag k="old_name:se" v="Bæivejavri" />
		<tag k="ssr:stedsnr" v="747801" />
		<tag k="water" v="lake" />
	</node>
	<node lat="70.15796114350375" lon="29.156590526966024" id="-39274">
		<tag k="name" v="Manuelkraken" />
		<tag k="name:no" v="Manuelkraken" />
		<tag k="ssr:stedsnr" v="747724" />
		<tag k="waterway" v="stream" />
	</node>
	<node lat="70.16506669708286" lon="28.934601729097295" id="-39275">
		<tag k="fixme" v="multiple name tags, choose one and add the other to alt_name" />
		<tag k="name" v="Buodka Láddot;Laktejávri" />
		<tag k="name:se" v="Buodka Láddot;Laktejávri" />
		<tag k="natural" v="water" />
		<tag k="old_name:se" v="Laktejavri" />
		<tag k="ssr:stedsnr" v="747728" />
	</node>
	<node lat="70.19606114479615" lon="28.850396231505876" id="-39276">
		<tag k="name" v="Gáhkkorjávri" />
		<tag k="name:se" v="Gáhkkorjávri" />
		<tag k="natural" v="water" />
		<tag k="old_name:se" v="Gakkurjavri" />
		<tag k="ssr:stedsnr" v="747743" />
	</node>
	<node lat="69.99495003581909" lon="28.83328783077916" id="-39279">
		<tag k="name" v="Stohkkeluoppal" />
		<tag k="name:se" v="Stohkkeluoppal" />
		<tag k="natural" v="water" />
		<tag k="old_name:se" v="Ståkkeluobbal" />
		<tag k="ssr:stedsnr" v="747832" />
	</node>
	<node lat="70.20416114046469" lon="28.763974046588924" id="-39280">
		<tag k="name" v="Snurrejávri" />
		<tag k="name:se" v="Snurrejávri" />
		<tag k="natural" v="water" />
		<tag k="old_name:se" v="Snurrejavri" />
		<tag k="ssr:stedsnr" v="747833" />
	</node>
	<node lat="70.17170778587408" lon="28.78531175278995" id="-39283">
		<tag k="name" v="Šoarátjohka - Sarabekken" />
		<tag k="name:no" v="Sarabekken" />
		<tag k="name:se" v="Šoarátjohka" />
		<tag k="old_name:se" v="Šoaratjåkka;Šoarajohka" />
		<tag k="ssr:stedsnr" v="747848" />
		<tag k="waterway" v="stream" />
	</node>
	<node lat="70.00109725335109" lon="28.9291933633863" id="-39284">
		<tag k="name" v="Stohkkemuorjávri" />
		<tag k="name:se" v="Stohkkemuorjávri" />
		<tag k="natural" v="water" />
		<tag k="old_name:se" v="Ståkkemuorjavri" />
		<tag k="ssr:stedsnr" v="748593" />
	</node>
	<node lat="70.01545281311856" lon="28.99725444316294" id="-39286">
		<tag k="name" v="Stuorra Láhtajávri" />
		<tag k="name:se" v="Stuorra Láhtajávri" />
		<tag k="natural" v="water" />
		<tag k="old_name:se" v="Lattajavri, stuorra" />
		<tag k="ssr:stedsnr" v="748605" />
		<tag k="water" v="lake" />
	</node>
	<node lat="70.32543336473329" lon="29.15981278631656" id="-39292">
		<tag k="name" v="Skoarrojohka - Skardelva" />
		<tag k="name:no" v="Skardelva" />
		<tag k="name:se" v="Skoarrojohka" />
		<tag k="old_name:se" v="Skoarrujåkka" />
		<tag k="ssr:stedsnr" v="748992" />
		<tag k="waterway" v="stream" />
	</node>
	<node lat="70.11738892119662" lon="28.50509355622731" id="-39296">
		<tag k="name" v="Jorransiste" />
		<tag k="name:se" v="Jorransiste" />
		<tag k="ssr:stedsnr" v="754374" />
		<tag k="waterway" v="river" />
	</node>
	<node lat="70.19523614179994" lon="28.37996027421711" id="-39303">
		<tag k="name" v="Baktaláddot" />
		<tag k="name:se" v="Baktaláddot" />
		<tag k="natural" v="water" />
		<tag k="ssr:stedsnr" v="755042" />
	</node>
	<node lat="70.17223058786034" lon="28.92465175383244" id="-39305">
		<tag k="name" v="Lavttajávri" />
		<tag k="name:se" v="Lavttajávri" />
		<tag k="natural" v="water" />
		<tag k="ssr:stedsnr" v="756019" />
	</node>
	<node lat="70.17151947607428" lon="28.921276734385543" id="-39306">
		<tag k="name" v="Lavtta Láttu" />
		<tag k="name:se" v="Lavtta Láttu" />
		<tag k="natural" v="water" />
		<tag k="ssr:stedsnr" v="756023" />
	</node>
	<node lat="70.19314447300725" lon="28.584015768130456" id="-39307">
		<tag k="name" v="Gákkafielbma" />
		<tag k="name:se" v="Gákkafielbma" />
		<tag k="ssr:stedsnr" v="756083" />
		<tag k="waterway" v="stream" />
	</node>
	<node lat="70.1227722489695" lon="28.4918852312414" id="-39309">
		<tag k="name" v="Njuolaid Njiđgo" />
		<tag k="name:se" v="Njuolaid Njiđgo" />
		<tag k="ssr:stedsnr" v="756927" />
		<tag k="waterway" v="river" />
	</node>
	<node lat="70.15155002549247" lon="28.44018524898967" id="-39317">
		<tag k="name" v="Gávpotjohka" />
		<tag k="name:se" v="Gávpotjohka" />
		<tag k="old_name:se" v="Gavputjåkka" />
		<tag k="ssr:stedsnr" v="808856" />
		<tag k="waterway" v="stream" />
	</node>
	<node lat="70.15507780393472" lon="28.367549163525954" id="-39319">
		<tag k="name" v="Máttastivrranjávri" />
		<tag k="name:se" v="Máttastivrranjávri" />
		<tag k="natural" v="water" />
		<tag k="old_name:se" v="Maddastivranjavri" />
		<tag k="ssr:stedsnr" v="808862" />
	</node>
	<node lat="70.00209169874016" lon="28.54534907988239" id="-39322">
		<tag k="name" v="Doaresluoppal" />
		<tag k="name:se" v="Doaresluoppal" />
		<tag k="natural" v="water" />
		<tag k="old_name:se" v="Doaresluobbal" />
		<tag k="ssr:stedsnr" v="808679" />
	</node>
	<node lat="70.03414724838736" lon="28.470224101495393" id="-39325">
		<tag k="name" v="Čáhppesjávri" />
		<tag k="name:se" v="Čáhppesjávri" />
		<tag k="natural" v="water" />
		<tag k="old_name:se" v="Čappesjavri" />
		<tag k="ssr:stedsnr" v="808712" />
	</node>
	<node lat="70.17464169892776" lon="28.940693387512134" id="-39326">
		<tag k="name" v="Uhcaguollejárjohka" />
		<tag k="name:se" v="Uhcaguollejárjohka" />
		<tag k="old_name:se" v="Uccaguollejarjåkka" />
		<tag k="ssr:stedsnr" v="808727" />
		<tag k="waterway" v="stream" />
	</node>
	<node lat="69.98112225771263" lon="28.57613794388773" id="-39327">
		<tag k="name" v="Beaskajohka" />
		<tag k="name:se" v="Beaskajohka" />
		<tag k="old_name:se" v="Bæskejåkka" />
		<tag k="ssr:stedsnr" v="808757" />
		<tag k="waterway" v="stream" />
	</node>
	<node lat="70.14556947734044" lon="28.687543492857095" id="-39329">
		<tag k="name" v="Ráhpenjoasjávri" />
		<tag k="name:se" v="Ráhpenjoasjávri" />
		<tag k="natural" v="water" />
		<tag k="old_name:se" v="Rappenjoasjavri" />
		<tag k="ssr:stedsnr" v="808765" />
	</node>
	<node lat="70.10444447253872" lon="28.81885176657374" id="-39355">
		<tag k="name" v="Bakutjávri - Kalevatn" />
		<tag k="name:no" v="Kalevatn" />
		<tag k="name:se" v="Bakutjávri" />
		<tag k="natural" v="water" />
		<tag k="ssr:stedsnr" v="817239" />
	</node>
	<node lat="70.22000836190527" lon="28.45249081645631" id="-39369">
		<tag k="name" v="Suovkanjárga" />
		<tag k="name:se" v="Suovkanjárga" />
		<tag k="natural" v="cape" />
		<tag k="old_name:se" v="Suovkanjarga" />
		<tag k="ssr:stedsnr" v="868798" />
	</node>
	<node lat="70.05118336511809" lon="29.021860001873552" id="-39371">
		<tag k="name" v="Riggejávri" />
		<tag k="name:se" v="Riggejávri" />
		<tag k="natural" v="water" />
		<tag k="old_name:se" v="Riggejavri" />
		<tag k="ssr:stedsnr" v="869688" />
		<tag k="water" v="lake" />
	</node>
	<node lat="70.03497781621756" lon="28.75425454178739" id="-39375">
		<tag k="name" v="Sálomunjávrrit" />
		<tag k="name:se" v="Sálomunjávrrit" />
		<tag k="natural" v="water" />
		<tag k="old_name:se" v="Salumunjavrit" />
		<tag k="ssr:stedsnr" v="869739" />
		<tag k="water" v="lake" />
	</node>
	<node lat="70.16046948268122" lon="29.016226690821085" id="-39377">
		<tag k="name" v="Rássejohka" />
		<tag k="name:se" v="Rássejohka" />
		<tag k="old_name:se" v="Rassejåkka" />
		<tag k="ssr:stedsnr" v="869758" />
		<tag k="waterway" v="stream" />
	</node>
	<node lat="69.9476167005775" lon="28.492790735408967" id="-39378">
		<tag k="name" v="Kruvnnašskáidi" />
		<tag k="name:se" v="Kruvnnašskáidi" />
		<tag k="natural" v="cape" />
		<tag k="old_name:se" v="Kruvnašskaidi" />
		<tag k="ssr:stedsnr" v="869787" />
	</node>
	<node lat="70.10420836372346" lon="28.47414910817978" id="-39379">
		<tag k="name" v="Čuovžajávri" />
		<tag k="name:se" v="Čuovžajávri" />
		<tag k="natural" v="water" />
		<tag k="old_name:se" v="Čuovžajavri" />
		<tag k="ssr:stedsnr" v="869800" />
	</node>
	<node lat="70.0420778137781" lon="29.139546061773757" id="-39380">
		<tag k="alt_name:se" v="Sárajohka" />
		<tag k="name" v="Sárajárjohka" />
		<tag k="name:se" v="Sárajárjohka" />
		<tag k="old_name:se" v="Sarajarjåkka" />
		<tag k="ssr:stedsnr" v="869692" />
		<tag k="waterway" v="stream" />
	</node>
	<node lat="70.07991113882578" lon="28.56215462447993" id="-39383">
		<tag k="name" v="Garvinjávri" />
		<tag k="name:se" v="Garvinjávri" />
		<tag k="natural" v="water" />
		<tag k="old_name:se" v="Garvinjavri" />
		<tag k="ssr:stedsnr" v="869835" />
	</node>
	<node lat="69.98729169823307" lon="28.841062841705476" id="-39384">
		<tag k="name" v="Seakkajávri" />
		<tag k="name:se" v="Seakkajávri" />
		<tag k="natural" v="water" />
		<tag k="old_name:se" v="Sæggajavri" />
		<tag k="ssr:stedsnr" v="869859" />
		<tag k="water" v="lake" />
	</node>
	<node lat="70.15498892440493" lon="28.91014341033303" id="-39389">
		<tag k="name" v="Meahccejohka" />
		<tag k="name:se" v="Meahccejohka" />
		<tag k="ssr:stedsnr" v="875277" />
		<tag k="waterway" v="stream" />
	</node>
	<node lat="70.10585558157618" lon="28.6003129533537" id="-39394">
		<tag k="name" v="Cikkajohka" />
		<tag k="name:se" v="Cikkajohka" />
		<tag k="ssr:stedsnr" v="875480" />
		<tag k="waterway" v="stream" />
	</node>
	<node lat="70.10619447187636" lon="28.58927684137741" id="-39396">
		<tag k="name" v="Áidejohka" />
		<tag k="name:se" v="Áidejohka" />
		<tag k="ssr:stedsnr" v="875701" />
		<tag k="waterway" v="stream" />
	</node>
	<node lat="70.1221000342606" lon="28.57512685460974" id="-39401">
		<tag k="name" v="Áitejohka" />
		<tag k="name:se" v="Áitejohka" />
		<tag k="ssr:stedsnr" v="876773" />
		<tag k="waterway" v="stream" />
	</node>
	<node lat="70.11788335789016" lon="28.545160209934227" id="-39402">
		<tag k="name" v="Hánnoailáttu" />
		<tag k="name:se" v="Hánnoailáttu" />
		<tag k="natural" v="water" />
		<tag k="ssr:stedsnr" v="876776" />
	</node>
	<node lat="70.17191391676457" lon="28.80437678781027" id="-39403">
		<tag k="name" v="Ándaras-Ballanjávri" />
		<tag k="name:se" v="Ándaras-Ballanjávri" />
		<tag k="natural" v="water" />
		<tag k="ssr:stedsnr" v="877014" />
	</node>
	<node lat="70.05978058769573" lon="28.986568346815787" id="-39415">
		<tag k="name" v="Niibereahpenjohka" />
		<tag k="name:se" v="Niibereahpenjohka" />
		<tag k="ssr:stedsnr" v="880586" />
		<tag k="waterway" v="stream" />
	</node>
	<node lat="70.11602780527677" lon="28.525907419381426" id="-39418">
		<tag k="name" v="Hoemgorži" />
		<tag k="name:se" v="Hoemgorži" />
		<tag k="natural" v="waterfall" />
		<tag k="ssr:stedsnr" v="936301" />
	</node>
	<node lat="70.1197750312937" lon="28.573107420108066" id="-39422">
		<tag k="name" v="Skuvgejohka" />
		<tag k="name:se" v="Skuvgejohka" />
		<tag k="ssr:stedsnr" v="937773" />
		<tag k="waterway" v="stream" />
	</node>
	<node lat="70.18882781141264" lon="28.581946313452907" id="-39425">
		<tag k="name" v="Benterjohka" />
		<tag k="name:se" v="Benterjohka" />
		<tag k="ssr:stedsnr" v="938086" />
		<tag k="waterway" v="stream" />
	</node>
	<node lat="70.18861947159283" lon="28.545296344773085" id="-39426">
		<tag k="name" v="Gákkafielbma" />
		<tag k="name:se" v="Gákkafielbma" />
		<tag k="ssr:stedsnr" v="938089" />
		<tag k="waterway" v="stream" />
	</node>
	<node lat="70.03222503385844" lon="29.130734949866742" id="-39430">
		<tag k="fixme" v="multiple name tags, choose one and add the other to alt_name" />
		<tag k="name" v="Sárajávri;Saravatn" />
		<tag k="name:se" v="Sárajávri;Saravatn" />
		<tag k="natural" v="water" />
		<tag k="ssr:stedsnr" v="940633" />
		<tag k="water" v="lake" />
	</node>
	<node lat="70.00609448017418" lon="29.16089325922625" id="-39434">
		<tag k="name" v="Gárraljohka" />
		<tag k="name:se" v="Gárraljohka" />
		<tag k="ssr:stedsnr" v="940701" />
		<tag k="waterway" v="stream" />
	</node>
	<node lat="69.99560837563007" lon="29.20755433969488" id="-39435">
		<tag k="name" v="Borgejohláttu" />
		<tag k="name:se" v="Borgejohláttu" />
		<tag k="natural" v="water" />
		<tag k="ssr:stedsnr" v="940725" />
=======
	<node id="-917184" lat="69.9275222589" lon="28.5932379189">
		<tag k="name" v="Ásllatjávri" />
		<tag k="name:se" v="Ásllatjávri" />
		<tag k="natural" v="water" />
		<tag k="old_name:se" v="Aslatjavri" />
		<tag k="ssr:stedsnr" v="262891" />
	</node>
	<node id="-918119" lat="70.0485916924" lon="28.4289491181">
		<tag k="name" v="Savetluobbalat" />
		<tag k="name:se" v="Savetluobbalat" />
		<tag k="natural" v="water" />
		<tag k="ssr:stedsnr" v="747698" />
		<tag k="water" v="lake" />
	</node>
	<node id="-917691" lat="70.1459722508" lon="28.5432880002">
		<tag k="name" v="Hánnonjárga" />
		<tag k="name:se" v="Hánnonjárga" />
		<tag k="natural" v="cape" />
		<tag k="ssr:stedsnr" v="27448" />
	</node>
	<node id="-917176" lat="70.1366750302" lon="28.4035852659">
		<tag k="name" v="Eassajávri" />
		<tag k="name:se" v="Eassajávri" />
		<tag k="natural" v="water" />
		<tag k="old_name:se" v="Æssajavri" />
		<tag k="ssr:stedsnr" v="262790" />
	</node>
	<node id="-918198" lat="69.9811222577" lon="28.5761379439">
		<tag k="name" v="Beaskajohka" />
		<tag k="name:se" v="Beaskajohka" />
		<tag k="old_name:se" v="Bæskejåkka" />
		<tag k="ssr:stedsnr" v="808757" />
		<tag k="waterway" v="stream" />
	</node>
	<node id="-917173" lat="70.0612750348" lon="28.5630407375">
		<tag k="name" v="Roggejávri" />
		<tag k="name:se" v="Roggejávri" />
		<tag k="natural" v="water" />
		<tag k="old_name:se" v="Råggejavri" />
		<tag k="ssr:stedsnr" v="262734" />
	</node>
	<node id="-918195" lat="70.1595083689" lon="29.1238905408">
		<tag k="name" v="Gohpijohka - Klubbvikelva" />
		<tag k="name:no" v="Klubbvikelva" />
		<tag k="name:se" v="Gohpijohka" />
		<tag k="ssr:stedsnr" v="808739" />
		<tag k="waterway" v="stream" />
	</node>
	<node id="-918194" lat="70.1746416989" lon="28.9406933875">
		<tag k="name" v="Uhcaguollejárjohka" />
		<tag k="name:se" v="Uhcaguollejárjohka" />
		<tag k="old_name:se" v="Uccaguollejarjåkka" />
		<tag k="ssr:stedsnr" v="808727" />
		<tag k="waterway" v="stream" />
	</node>
	<node id="-918193" lat="70.0341472484" lon="28.4702241015">
		<tag k="name" v="Čáhppesjávri" />
		<tag k="name:se" v="Čáhppesjávri" />
		<tag k="natural" v="water" />
		<tag k="old_name:se" v="Čappesjavri" />
		<tag k="ssr:stedsnr" v="808712" />
	</node>
	<node id="-917168" lat="70.0489972577" lon="29.0499572111">
		<tag k="name" v="Oalgejohka" />
		<tag k="name:se" v="Oalgejohka" />
		<tag k="old_name:se" v="Oalgejåkka" />
		<tag k="ssr:stedsnr" v="262679" />
		<tag k="waterway" v="stream" />
	</node>
	<node id="-917167" lat="70.0582750379" lon="28.9484933743">
		<tag k="alt_name:se" v="Goikejávriláttu" />
		<tag k="name" v="Goikejárláttu" />
		<tag k="name:se" v="Goikejárláttu" />
		<tag k="natural" v="water" />
		<tag k="old_name:se" v="Gåikejarladdo" />
		<tag k="ssr:stedsnr" v="262664" />
	</node>
	<node id="-917277" lat="70.0748416996" lon="28.690685145">
		<tag k="name" v="Čeavrresjávri" />
		<tag k="name:se" v="Čeavrresjávri" />
		<tag k="natural" v="water" />
		<tag k="old_name:se" v="Čævresjavri" />
		<tag k="ssr:stedsnr" v="444791" />
		<tag k="water" v="lake" />
	</node>
	<node id="-917676" lat="70.1558889166" lon="28.5657657503">
		<tag k="name" v="Njiđggujohka - Vesterelva" />
		<tag k="name:no" v="Vesterelva" />
		<tag k="name:se" v="Njiđggujohka" />
		<tag k="old_name:se" v="Njiđgojåkka" />
		<tag k="ssr:stedsnr" v="20451" />
		<tag k="waterway" v="river" />
	</node>
	<node id="-917675" lat="70.1594916939" lon="28.3477269581">
		<tag k="name" v="Cuokkojávri" />
		<tag k="name:se" v="Cuokkojávri" />
		<tag k="natural" v="water" />
		<tag k="old_name:se" v="Cuoggujavri;Cuoggujávri" />
		<tag k="ssr:stedsnr" v="19862" />
		<tag k="water" v="lake" />
	</node>
	<node id="-918185" lat="70.2352666965" lon="28.5392296795">
		<tag k="name" v="Rássejohka - Graselva" />
		<tag k="name:no" v="Graselva" />
		<tag k="name:se" v="Rássejohka" />
		<tag k="old_name:se" v="Rassejåkka" />
		<tag k="ssr:stedsnr" v="808442" />
		<tag k="waterway" v="river" />
	</node>
	<node id="-917160" lat="70.213461136" lon="28.641943526">
		<tag k="name" v="Nieidavárjávrrit" />
		<tag k="name:se" v="Nieidavárjávrrit" />
		<tag k="natural" v="water" />
		<tag k="old_name:se" v="Nieidavarjavrit" />
		<tag k="ssr:stedsnr" v="261805" />
	</node>
	<node id="-917671" lat="70.1946000309" lon="28.7604268197">
		<tag k="name" v="Buorregárddanjávri" />
		<tag k="name:se" v="Buorregárddanjávri" />
		<tag k="natural" v="water" />
		<tag k="old_name:se" v="Buorregardanjavri" />
		<tag k="ssr:stedsnr" v="19821" />
	</node>
	<node id="-917155" lat="70.1697666945" lon="28.8290906691">
		<tag k="name" v="Huvvaláttu" />
		<tag k="name:se" v="Huvvaláttu" />
		<tag k="natural" v="water" />
		<tag k="ssr:stedsnr" v="88014" />
	</node>
	<node id="-917154" lat="70.1766583693" lon="28.8663350962">
		<tag k="name" v="Goikeguopparjohka" />
		<tag k="name:se" v="Goikeguopparjohka" />
		<tag k="ssr:stedsnr" v="88012" />
		<tag k="waterway" v="stream" />
	</node>
	<node id="-918176" lat="70.122772249" lon="28.4918852312">
		<tag k="name" v="Njuolaid Njiđgo" />
		<tag k="name:se" v="Njuolaid Njiđgo" />
		<tag k="ssr:stedsnr" v="756927" />
		<tag k="waterway" v="river" />
	</node>
	<node id="-917151" lat="70.1281944719" lon="28.4947935441">
		<tag k="name" v="Kattes Njiđgo" />
		<tag k="name:se" v="Kattes Njiđgo" />
		<tag k="ssr:stedsnr" v="85423" />
		<tag k="waterway" v="river" />
	</node>
	<node id="-918173" lat="70.193144473" lon="28.5840157681">
		<tag k="name" v="Gákkafielbma" />
		<tag k="name:se" v="Gákkafielbma" />
		<tag k="ssr:stedsnr" v="756083" />
		<tag k="waterway" v="stream" />
	</node>
	<node id="-917660" lat="70.1456889162" lon="28.4530796905">
		<tag k="name" v="Uhcit Vuoksajávri" />
		<tag k="name:se" v="Uhcit Vuoksajávri" />
		<tag k="natural" v="water" />
		<tag k="old_name:se" v="Vuoksajavri, uccit" />
		<tag k="ssr:stedsnr" v="19760" />
	</node>
	<node id="-918171" lat="70.1722305879" lon="28.9246517538">
		<tag k="name" v="Lavttajávri" />
		<tag k="name:se" v="Lavttajávri" />
		<tag k="natural" v="water" />
		<tag k="ssr:stedsnr" v="756019" />
	</node>
	<node id="-917871" lat="70.1153639158" lon="28.5077796481">
		<tag k="name" v="Bruggogorži" />
		<tag k="name:se" v="Bruggogorži" />
		<tag k="natural" v="waterfall" />
		<tag k="ssr:stedsnr" v="208326" />
	</node>
	<node id="-918168" lat="70.1952361418" lon="28.3799602742">
		<tag k="name" v="Baktaláddot" />
		<tag k="name:se" v="Baktaláddot" />
		<tag k="natural" v="water" />
		<tag k="ssr:stedsnr" v="755042" />
	</node>
	<node id="-917655" lat="70.1843750346" lon="28.9718600555">
		<tag k="name" v="Guollejávrrit" />
		<tag k="name:se" v="Guollejávrrit" />
		<tag k="natural" v="water" />
		<tag k="old_name:se" v="Guollejavrit" />
		<tag k="ssr:stedsnr" v="19739" />
		<tag k="water" v="lake" />
	</node>
	<node id="-917142" lat="70.1885889234" lon="28.9392684151">
		<tag k="name" v="Stuorraroggejohka" />
		<tag k="name:se" v="Stuorraroggejohka" />
		<tag k="ssr:stedsnr" v="27103" />
		<tag k="waterway" v="stream" />
	</node>
	<node id="-917141" lat="70.1968139189" lon="28.3870213874">
		<tag k="name" v="Jorrinjávrrit" />
		<tag k="name:se" v="Jorrinjávrrit" />
		<tag k="natural" v="water" />
		<tag k="ssr:stedsnr" v="27031" />
	</node>
	<node id="-917138" lat="70.0068278204" lon="29.1373432648">
		<tag k="alt_name:se" v="Uvllášjohka" />
		<tag k="name" v="Ulvvešjohka" />
		<tag k="name:se" v="Ulvvešjohka" />
		<tag k="old_name:se" v="Ulvešjåkka" />
		<tag k="ssr:stedsnr" v="20615" />
		<tag k="waterway" v="stream" />
	</node>
	<node id="-917137" lat="70.011125039" lon="29.2043460257">
		<tag k="name" v="Suttesjohka - Åpenvikbekken" />
		<tag k="name:no" v="Åpenvikbekken" />
		<tag k="name:se" v="Suttesjohka" />
		<tag k="old_name:se" v="Suddesjåkka" />
		<tag k="ssr:stedsnr" v="20610" />
		<tag k="waterway" v="stream" />
	</node>
	<node id="-917136" lat="70.2288472502" lon="28.7392101735">
		<tag k="name" v="Jorbmejohka" />
		<tag k="name:se" v="Jorbmejohka" />
		<tag k="old_name:se" v="Jårbmejåkka" />
		<tag k="ssr:stedsnr" v="19802" />
		<tag k="waterway" v="stream" />
	</node>
	<node id="-918158" lat="70.1173889212" lon="28.5050935562">
		<tag k="name" v="Jorransiste" />
		<tag k="name:se" v="Jorransiste" />
		<tag k="ssr:stedsnr" v="754374" />
		<tag k="waterway" v="river" />
	</node>
	<node id="-917642" lat="70.1549889244" lon="28.9101434103">
		<tag k="name" v="Meahccejohka" />
		<tag k="name:se" v="Meahccejohka" />
		<tag k="ssr:stedsnr" v="875277" />
		<tag k="waterway" v="stream" />
	</node>
	<node id="-917240" lat="70.0440166939" lon="28.4723240875">
		<tag k="name" v="Savetjohka" />
		<tag k="name:se" v="Savetjohka" />
		<tag k="old_name:se" v="Savetjåkka" />
		<tag k="ssr:stedsnr" v="201675" />
		<tag k="waterway" v="river" />
	</node>
	<node id="-918152" lat="70.3254333647" lon="29.1598127863">
		<tag k="name" v="Skoarrojohka - Skardelva" />
		<tag k="name:no" v="Skardelva" />
		<tag k="name:se" v="Skoarrojohka" />
		<tag k="old_name:se" v="Skoarrujåkka" />
		<tag k="ssr:stedsnr" v="748992" />
		<tag k="waterway" v="stream" />
	</node>
	<node id="-917639" lat="69.9872916982" lon="28.8410628417">
		<tag k="name" v="Seakkajávri" />
		<tag k="name:se" v="Seakkajávri" />
		<tag k="natural" v="water" />
		<tag k="old_name:se" v="Sæggajavri" />
		<tag k="ssr:stedsnr" v="869859" />
		<tag k="water" v="lake" />
	</node>
	<node id="-917185" lat="69.9328389233" lon="28.6677379008">
		<tag k="name" v="Ádjájávri" />
		<tag k="name:se" v="Ádjájávri" />
		<tag k="natural" v="water" />
		<tag k="old_name:se" v="Addjajavri" />
		<tag k="ssr:stedsnr" v="262892" />
		<tag k="water" v="lake" />
	</node>
	<node id="-917636" lat="69.9956083756" lon="29.2075543397">
		<tag k="name" v="Borgejohláttu" />
		<tag k="name:se" v="Borgejohláttu" />
		<tag k="natural" v="water" />
		<tag k="ssr:stedsnr" v="940725" />
	</node>
	<node id="-917635" lat="70.0060944802" lon="29.1608932592">
		<tag k="name" v="Gárraljohka" />
		<tag k="name:se" v="Gárraljohka" />
		<tag k="ssr:stedsnr" v="940701" />
		<tag k="waterway" v="stream" />
	</node>
	<node id="-918146" lat="70.0010972534" lon="28.9291933634">
		<tag k="name" v="Stohkkemuorjávri" />
		<tag k="name:se" v="Stohkkemuorjávri" />
		<tag k="natural" v="water" />
		<tag k="old_name:se" v="Ståkkemuorjavri" />
		<tag k="ssr:stedsnr" v="748593" />
	</node>
	<node id="-918145" lat="70.1587639135" lon="28.4322296863">
		<tag k="name" v="Gávpotláttu" />
		<tag k="name:se" v="Gávpotláttu" />
		<tag k="natural" v="water" />
		<tag k="old_name:se" v="Gavputladdo" />
		<tag k="ssr:stedsnr" v="747870" />
	</node>
	<node id="-918144" lat="69.9304916999" lon="28.5253073829">
		<tag k="name" v="Juggejávri" />
		<tag k="name:se" v="Juggejávri" />
		<tag k="natural" v="water" />
		<tag k="old_name:se" v="Juggejavri" />
		<tag k="ssr:stedsnr" v="747869" />
	</node>
	<node id="-918143" lat="70.1718194741" lon="28.7848101253">
		<tag k="name" v="Šoarátjohka - Sarabekken" />
		<tag k="name:no" v="Sarabekken" />
		<tag k="name:se" v="Šoarátjohka" />
		<tag k="old_name:se" v="Šoaratjåkka;Šoarajohka" />
		<tag k="ssr:stedsnr" v="747848" />
		<tag k="waterway" v="stream" />
	</node>
	<node id="-917630" lat="70.1886194716" lon="28.5452963448">
		<tag k="name" v="Gákkafielbma" />
		<tag k="name:se" v="Gákkafielbma" />
		<tag k="ssr:stedsnr" v="938089" />
		<tag k="waterway" v="stream" />
	</node>
	<node id="-917629" lat="70.1888278114" lon="28.5819463135">
		<tag k="name" v="Benterjohka" />
		<tag k="name:se" v="Benterjohka" />
		<tag k="ssr:stedsnr" v="938086" />
		<tag k="waterway" v="stream" />
	</node>
	<node id="-918140" lat="70.2041611405" lon="28.7639740466">
		<tag k="name" v="Snurrejávri" />
		<tag k="name:se" v="Snurrejávri" />
		<tag k="natural" v="water" />
		<tag k="old_name:se" v="Snurrejavri" />
		<tag k="ssr:stedsnr" v="747833" />
	</node>
	<node id="-918139" lat="69.9949500358" lon="28.8332878308">
		<tag k="name" v="Stohkkeluoppal" />
		<tag k="name:se" v="Stohkkeluoppal" />
		<tag k="natural" v="water" />
		<tag k="old_name:se" v="Ståkkeluobbal" />
		<tag k="ssr:stedsnr" v="747832" />
	</node>
	<node id="-918137" lat="70.0895916917" lon="28.5809351911">
		<tag k="name" v="Mohkkejávri" />
		<tag k="name:se" v="Mohkkejávri" />
		<tag k="natural" v="water" />
		<tag k="old_name:se" v="Måkkejavri" />
		<tag k="ssr:stedsnr" v="747807" />
	</node>
	<node id="-918136" lat="70.0753000322" lon="28.6366879522">
		<tag k="name" v="Beaivejávri" />
		<tag k="name:se" v="Beaivejávri" />
		<tag k="natural" v="water" />
		<tag k="old_name:se" v="Bæivejavri" />
		<tag k="ssr:stedsnr" v="747801" />
		<tag k="water" v="lake" />
	</node>
	<node id="-917524" lat="70.0511389219" lon="29.0981460762">
		<tag k="name" v="Hoaššajohka" />
		<tag k="name:se" v="Hoaššajohka" />
		<tag k="ssr:stedsnr" v="636764" />
		<tag k="waterway" v="stream" />
	</node>
	<node id="-917620" lat="70.1160278053" lon="28.5259074194">
		<tag k="name" v="Hoemgorži" />
		<tag k="name:se" v="Hoemgorži" />
		<tag k="natural" v="waterfall" />
		<tag k="ssr:stedsnr" v="936301" />
	</node>
	<node id="-917950" lat="69.9506611415" lon="28.4537990776">
		<tag k="name" v="Kruvnnašjávri" />
		<tag k="name:se" v="Kruvnnašjávri" />
		<tag k="natural" v="water" />
		<tag k="old_name:se" v="Kruvnašjavri" />
		<tag k="ssr:stedsnr" v="383766" />
	</node>
	<node id="-918130" lat="70.1650666971" lon="28.9346017291">
		<tag k="fixme" v="multiple name tags, choose one and add the other to alt_name" />
		<tag k="name" v="Buodka Láddot;Laktejávri" />
		<tag k="name:se" v="Buodka Láddot;Laktejávri" />
		<tag k="natural" v="water" />
		<tag k="old_name:se" v="Laktejavri" />
		<tag k="ssr:stedsnr" v="747728" />
	</node>
	<node id="-918129" lat="70.1579611435" lon="29.156590527">
		<tag k="name" v="Manuelkraken" />
		<tag k="name:no" v="Manuelkraken" />
		<tag k="ssr:stedsnr" v="747724" />
		<tag k="waterway" v="stream" />
	</node>
	<node id="-917615" lat="70.3198778121" lon="29.2033849906">
		<tag k="name" v="Skoarrojohskáidi" />
		<tag k="name:se" v="Skoarrojohskáidi" />
		<tag k="natural" v="cape" />
		<tag k="old_name:se" v="Skoarrujåkskaidi" />
		<tag k="ssr:stedsnr" v="930995" />
	</node>
	<node id="-917614" lat="70.3275389188" lon="29.2189877702">
		<tag k="name" v="Suovvejávri - Bergebyvatnet" />
		<tag k="name:no" v="Bergebyvatnet" />
		<tag k="name:se" v="Suovvejávri" />
		<tag k="natural" v="water" />
		<tag k="old_name:se" v="Suovvejavri" />
		<tag k="ssr:stedsnr" v="930993" />
		<tag k="water" v="lake" />
	</node>
	<node id="-917613" lat="70.3043639188" lon="29.2233599921">
		<tag k="name" v="Suovvejároaivvejávri" />
		<tag k="name:se" v="Suovvejároaivvejávri" />
		<tag k="natural" v="water" />
		<tag k="old_name:se" v="Suovvejaroaivejavri" />
		<tag k="ssr:stedsnr" v="930984" />
		<tag k="water" v="lake" />
	</node>
	<node id="-918124" lat="70.1431250331" lon="29.0199711334">
		<tag k="alt_name:no" v="Hammerneselva" />
		<tag k="name" v="Bealátjohka - Hammarneselva" />
		<tag k="name:no" v="Hammarneselva" />
		<tag k="name:se" v="Bealátjohka" />
		<tag k="old_name:se" v="Bælatjåkka" />
		<tag k="ssr:stedsnr" v="747651" />
		<tag k="waterway" v="stream" />
	</node>
	<node id="-918122" lat="70.149683368" lon="28.899448969">
		<tag k="name" v="Sáltejávri" />
		<tag k="name:se" v="Sáltejávri" />
		<tag k="natural" v="water" />
		<tag k="old_name:se" v="Saltejavri" />
		<tag k="ssr:stedsnr" v="747644" />
	</node>
	<node id="-918121" lat="70.0396778047" lon="28.4385657773">
		<tag k="name" v="Bártnajávri" />
		<tag k="name:se" v="Bártnajávri" />
		<tag k="natural" v="water" />
		<tag k="old_name:se" v="Bardnajavri" />
		<tag k="ssr:stedsnr" v="747705" />
	</node>
	<node id="-918120" lat="70.0572389161" lon="28.4058352272">
		<tag k="name" v="Rávdojávri" />
		<tag k="name:se" v="Rávdojávri" />
		<tag k="natural" v="water" />
		<tag k="old_name:se" v="Ravdujavri" />
		<tag k="ssr:stedsnr" v="747702" />
	</node>
	<node id="-917607" lat="69.9800194841" lon="29.1439876917">
		<tag k="name" v="Sáttojávri - Våkvatn" />
		<tag k="name:no" v="Våkvatn" />
		<tag k="name:se" v="Sáttojávri" />
		<tag k="natural" v="water" />
		<tag k="old_name:se" v="Saddujavri" />
		<tag k="ssr:stedsnr" v="930847" />
		<tag k="water" v="lake" />
	</node>
	<node id="-918118" lat="70.0507833694" lon="28.6980573474">
		<tag k="name" v="Stuorrajávri" />
		<tag k="name:se" v="Stuorrajávri" />
		<tag k="natural" v="water" />
		<tag k="old_name:se" v="Stuorrajavri" />
		<tag k="ssr:stedsnr" v="747697" />
		<tag k="water" v="lake" />
	</node>
	<node id="-917606" lat="69.9815639291" lon="29.2259487669">
		<tag k="name" v="Gánddajávri" />
		<tag k="name:se" v="Gánddajávri" />
		<tag k="natural" v="water" />
		<tag k="old_name:se" v="Gandajavri" />
		<tag k="ssr:stedsnr" v="930844" />
		<tag k="water" v="lake" />
	</node>
	<node id="-917752" lat="70.1696833599" lon="28.5372879956">
		<tag k="name" v="Vuonnabahjohka - Hildurbekken" />
		<tag k="name:no" v="Hildurbekken" />
		<tag k="name:se" v="Vuonnabahjohka" />
		<tag k="ssr:stedsnr" v="80856" />
		<tag k="waterway" v="stream" />
	</node>
	<node id="-918109" lat="70.0942555935" lon="28.8203628665">
		<tag k="name" v="Badjegieddjávri" />
		<tag k="name:se" v="Badjegieddjávri" />
		<tag k="natural" v="water" />
		<tag k="ssr:stedsnr" v="635142" />
		<tag k="water" v="lake" />
	</node>
	<node id="-917596" lat="70.0516750388" lon="29.0921155322">
		<tag k="name" v="Hoaššajávri" />
		<tag k="name:se" v="Hoaššajávri" />
		<tag k="natural" v="water" />
		<tag k="old_name:se" v="Hoaššajavri" />
		<tag k="ssr:stedsnr" v="930677" />
	</node>
	<node id="-917594" lat="70.1385666973" lon="29.0359072489">
		<tag k="name" v="Langvatnet" />
		<tag k="name:no" v="Langvatnet" />
		<tag k="natural" v="water" />
		<tag k="ssr:stedsnr" v="930665" />
	</node>
	<node id="-917593" lat="70.1480250401" lon="29.1560599655">
		<tag k="name" v="Suolovárjohka" />
		<tag k="name:se" v="Suolovárjohka" />
		<tag k="old_name:se" v="Suoluvarjåkka" />
		<tag k="ssr:stedsnr" v="930664" />
		<tag k="waterway" v="stream" />
	</node>
	<node id="-918172" lat="70.1715194761" lon="28.9212767344">
		<tag k="name" v="Lavtta Láttu" />
		<tag k="name:se" v="Lavtta Láttu" />
		<tag k="natural" v="water" />
		<tag k="ssr:stedsnr" v="756023" />
	</node>
	<node id="-918065" lat="70.0735139226" lon="28.7818601019">
		<tag k="alt_name:se" v="Báŋkgohpijohka" />
		<tag k="name" v="Báŋkogohpejohka" />
		<tag k="name:se" v="Báŋkogohpejohka" />
		<tag k="old_name:se" v="Baŋkugåppejåkka" />
		<tag k="ssr:stedsnr" v="625807" />
		<tag k="waterway" v="stream" />
	</node>
	<node id="-917584" lat="70.0759639167" lon="28.6144490668">
		<tag k="name" v="Beatnatjávri" />
		<tag k="name:se" v="Beatnatjávri" />
		<tag k="natural" v="water" />
		<tag k="old_name:se" v="Bædnatjavri" />
		<tag k="ssr:stedsnr" v="929796" />
	</node>
	<node id="-918200" lat="70.1455694773" lon="28.6875434929">
		<tag k="name" v="Ráhpenjoasjávri" />
		<tag k="name:se" v="Ráhpenjoasjávri" />
		<tag k="natural" v="water" />
		<tag k="old_name:se" v="Rappenjoasjavri" />
		<tag k="ssr:stedsnr" v="808765" />
	</node>
	<node id="-917659" lat="69.9522000347" lon="28.4857990714">
		<tag k="name" v="Kruvnnašjohka" />
		<tag k="name:se" v="Kruvnnašjohka" />
		<tag k="natural" v="water" />
		<tag k="old_name:se" v="Kruvnašjåkka" />
		<tag k="ssr:stedsnr" v="19758" />
	</node>
	<node id="-917580" lat="69.9556528091" lon="28.5117768554">
		<tag k="name" v="Kruvnnašluoppal" />
		<tag k="name:se" v="Kruvnnašluoppal" />
		<tag k="natural" v="water" />
		<tag k="old_name:se" v="Kruvnašluobbal" />
		<tag k="ssr:stedsnr" v="929754" />
	</node>
	<node id="-917578" lat="70.1939722499" lon="28.6017796328">
		<tag k="name" v="Gákkafielmmajohka" />
		<tag k="name:se" v="Gákkafielmmajohka" />
		<tag k="old_name:se" v="Gaggafielmajåkka" />
		<tag k="ssr:stedsnr" v="929833" />
		<tag k="waterway" v="stream" />
	</node>
	<node id="-918088" lat="70.1584305885" lon="28.9441156122">
		<tag k="name" v="Meahccejávri" />
		<tag k="name:se" v="Meahccejávri" />
		<tag k="natural" v="water" />
		<tag k="old_name:se" v="Mæccejavri" />
		<tag k="ssr:stedsnr" v="626754" />
	</node>
	<node id="-917575" lat="70.0588528086" lon="28.476263006">
		<tag k="name" v="Mákkásuoidnejávri" />
		<tag k="name:se" v="Mákkásuoidnejávri" />
		<tag k="natural" v="water" />
		<tag k="old_name:se" v="Maggasuoidnejavri" />
		<tag k="ssr:stedsnr" v="929693" />
	</node>
	<node id="-918086" lat="70.032250039" lon="29.1406932708">
		<tag k="name" v="Jámežiidjávri - Saravatnet" />
		<tag k="name:no" v="Saravatnet" />
		<tag k="name:se" v="Jámežiidjávri" />
		<tag k="natural" v="water" />
		<tag k="old_name:se" v="Jamežiidjavri" />
		<tag k="ssr:stedsnr" v="626697" />
		<tag k="water" v="lake" />
	</node>
	<node id="-917857" lat="70.1746083618" lon="28.4514908199">
		<tag k="name" v="Boncajávri" />
		<tag k="name:se" v="Boncajávri" />
		<tag k="natural" v="water" />
		<tag k="old_name:se" v="Båncajavri;Boanncåkjavri" />
		<tag k="ssr:stedsnr" v="201833" />
	</node>
	<node id="-918082" lat="70.0069222573" lon="29.116184951">
		<tag k="name" v="Duttajohka - Duddaelva" />
		<tag k="name:no" v="Duddaelva" />
		<tag k="name:se" v="Duttajohka" />
		<tag k="old_name:se" v="Duddajåkka" />
		<tag k="ssr:stedsnr" v="626609" />
		<tag k="waterway" v="stream" />
	</node>
	<node id="-917576" lat="70.0237833627" lon="28.4047268986">
		<tag k="name" v="Leidnonjohka" />
		<tag k="name:se" v="Leidnonjohka" />
		<tag k="old_name:se" v="Leidnunjåkka" />
		<tag k="ssr:stedsnr" v="929695" />
		<tag k="waterway" v="stream" />
	</node>
	<node id="-918080" lat="70.2689917023" lon="29.1017405748">
		<tag k="name" v="Suovvejohka - Bergebyelva" />
		<tag k="name:no" v="Bergebyelva" />
		<tag k="name:se" v="Suovvejohka" />
		<tag k="old_name:se" v="Suovvejåkka" />
		<tag k="ssr:stedsnr" v="626497" />
		<tag k="waterway" v="river" />
	</node>
	<node id="-918078" lat="70.1506694692" lon="28.4838963438">
		<tag k="name" v="Čámmájohka" />
		<tag k="name:se" v="Čámmájohka" />
		<tag k="old_name:se" v="Čammajåkka" />
		<tag k="ssr:stedsnr" v="625863" />
		<tag k="waterway" v="stream" />
	</node>
	<node id="-918197" lat="70.189538925" lon="28.8736434267">
		<tag k="name" v="Guopparjohka" />
		<tag k="name:se" v="Guopparjohka" />
		<tag k="old_name:se" v="Guobbarjåkka" />
		<tag k="ssr:stedsnr" v="808745" />
		<tag k="waterway" v="stream" />
	</node>
	<node id="-918075" lat="70.189563918" lon="28.8072573503">
		<tag k="name" v="Čoalbmejávri" />
		<tag k="name:se" v="Čoalbmejávri" />
		<tag k="natural" v="water" />
		<tag k="old_name:se" v="Čoalbmejavri" />
		<tag k="ssr:stedsnr" v="625857" />
	</node>
	<node id="-918073" lat="70.1745833621" lon="28.396010282">
		<tag k="name" v="Hávgajávri - Gjeddevatn" />
		<tag k="name:no" v="Gjeddevatn" />
		<tag k="name:se" v="Hávgajávri" />
		<tag k="natural" v="water" />
		<tag k="old_name:se" v="Havgajavri" />
		<tag k="ssr:stedsnr" v="625850" />
		<tag k="water" v="lake" />
	</node>
	<node id="-918072" lat="70.2195416935" lon="28.7143323975">
		<tag k="name" v="Elijasjohka" />
		<tag k="name:se" v="Elijasjohka" />
		<tag k="old_name:se" v="Elijasjåkka" />
		<tag k="ssr:stedsnr" v="625845" />
		<tag k="waterway" v="stream" />
	</node>
	<node id="-917559" lat="70.0154528131" lon="28.9972544432">
		<tag k="name" v="Stuorra Láhtajávri" />
		<tag k="name:se" v="Stuorra Láhtajávri" />
		<tag k="natural" v="water" />
		<tag k="old_name:se" v="Lattajavri, stuorra" />
		<tag k="ssr:stedsnr" v="748605" />
		<tag k="water" v="lake" />
	</node>
	<node id="-917769" lat="70.1937722494" lon="28.393674154">
		<tag k="name" v="Baktaláddot" />
		<tag k="name:se" v="Baktaláddot" />
		<tag k="natural" v="water" />
		<tag k="ssr:stedsnr" v="88031" />
	</node>
	<node id="-918068" lat="70.2127611396" lon="28.4269074813">
		<tag k="fixme" v="multiple name tags, choose one and add the other to alt_name" />
		<tag k="name" v="Luovttejohka;Suovkajohka - Luftjok;Sukielva - Louttijoki" />
		<tag k="name:fkv" v="Louttijoki" />
		<tag k="name:no" v="Luftjok;Sukielva" />
		<tag k="name:se" v="Luovttejohka;Suovkajohka" />
		<tag k="old_name:se" v="Suovkajåkka" />
		<tag k="ssr:stedsnr" v="625823" />
		<tag k="waterway" v="river" />
	</node>
	<node id="-918067" lat="70.2378750242" lon="28.5623463252">
		<tag k="name" v="Rássejohskáidi" />
		<tag k="name:se" v="Rássejohskáidi" />
		<tag k="natural" v="cape" />
		<tag k="old_name:se" v="Rassejåkskaidi" />
		<tag k="ssr:stedsnr" v="625820" />
	</node>
	<node id="-918066" lat="70.083386142" lon="28.5776268534">
		<tag k="name" v="Gárdejávri" />
		<tag k="name:se" v="Gárdejávri" />
		<tag k="natural" v="water" />
		<tag k="old_name:se" v="Gardejavri" />
		<tag k="ssr:stedsnr" v="625816" />
	</node>
	<node id="-917171" lat="70.2152500383" lon="29.1220155566">
		<tag k="name" v="Lámmejávrrit" />
		<tag k="name:se" v="Lámmejávrrit" />
		<tag k="natural" v="water" />
		<tag k="old_name:se" v="Lammejavrit" />
		<tag k="ssr:stedsnr" v="262718" />
		<tag k="water" v="lake" />
	</node>
	<node id="-917549" lat="70.1734472529" lon="28.8248239985">
		<tag k="name" v="Áppošborguollejávri" />
		<tag k="name:se" v="Áppošborguollejávri" />
		<tag k="natural" v="water" />
		<tag k="ssr:stedsnr" v="695006" />
		<tag k="water" v="lake" />
	</node>
	<node id="-917170" lat="70.0137944755" lon="28.55006572">
		<tag k="name" v="Áidneluoppal" />
		<tag k="name:se" v="Áidneluoppal" />
		<tag k="natural" v="water" />
		<tag k="old_name:se" v="Aidneluobbal" />
		<tag k="ssr:stedsnr" v="262714" />
		<tag k="water" v="lake" />
	</node>
	<node id="-918057" lat="70.1884361392" lon="28.8373545608">
		<tag k="name" v="Eahpárašjávri" />
		<tag k="name:se" v="Eahpárašjávri" />
		<tag k="natural" v="water" />
		<tag k="old_name:se" v="Æpparašjavri" />
		<tag k="ssr:stedsnr" v="625748" />
	</node>
	<node id="-917952" lat="70.1151639194" lon="28.4568824582">
		<tag k="name" v="Reikejohka" />
		<tag k="name:se" v="Reikejohka" />
		<tag k="old_name:se" v="Reikejåkka" />
		<tag k="ssr:stedsnr" v="383781" />
		<tag k="waterway" v="river" />
	</node>
	<node id="-918055" lat="70.0032555878" lon="28.4628768683">
		<tag k="name" v="Geadjájávri" />
		<tag k="name:se" v="Geadjájávri" />
		<tag k="natural" v="water" />
		<tag k="old_name:se" v="Gæddajavri" />
		<tag k="ssr:stedsnr" v="625715" />
		<tag k="water" v="lake" />
	</node>
	<node id="-918054" lat="70.0069361384" lon="28.5136574128">
		<tag k="name" v="Goikeluobbalat" />
		<tag k="name:se" v="Goikeluobbalat" />
		<tag k="natural" v="water" />
		<tag k="old_name:se" v="Gåikeluobbalat" />
		<tag k="ssr:stedsnr" v="625695" />
	</node>
	<node id="-918049" lat="70.0073944804" lon="29.1684210309">
		<tag k="name" v="Gohpijohka" />
		<tag k="name:se" v="Gohpijohka" />
		<tag k="ssr:stedsnr" v="576746" />
		<tag k="waterway" v="stream" />
	</node>
	<node id="-918048" lat="70.0082528182" lon="29.097423839">
		<tag k="name" v="Ruoššoailáddot" />
		<tag k="name:se" v="Ruoššoailáddot" />
		<tag k="natural" v="water" />
		<tag k="ssr:stedsnr" v="576720" />
	</node>
	<node id="-918047" lat="70.0624722536" lon="28.9695266941">
		<tag k="name" v="Sorbmejávrrijohka" />
		<tag k="name:se" v="Sorbmejávrrijohka" />
		<tag k="ssr:stedsnr" v="576569" />
		<tag k="waterway" v="stream" />
	</node>
	<node id="-917570" lat="70.1768389205" lon="29.1102405545">
		<tag k="name" v="Čoskajohka" />
		<tag k="name:se" v="Čoskajohka" />
		<tag k="old_name:se" v="Čåskajåkka" />
		<tag k="ssr:stedsnr" v="929737" />
		<tag k="waterway" v="stream" />
	</node>
	<node id="-917531" lat="70.1719139168" lon="28.8043767878">
		<tag k="name" v="Ándaras-Ballanjávri" />
		<tag k="name:se" v="Ándaras-Ballanjávri" />
		<tag k="natural" v="water" />
		<tag k="ssr:stedsnr" v="877014" />
	</node>
	<node id="-917530" lat="70.1178833579" lon="28.5451602099">
		<tag k="name" v="Hánnoailáttu" />
		<tag k="name:se" v="Hánnoailáttu" />
		<tag k="natural" v="water" />
		<tag k="ssr:stedsnr" v="876776" />
	</node>
	<node id="-917147" lat="69.9943417068" lon="29.1764210281">
		<tag k="name" v="Suttesjohláttu" />
		<tag k="name:se" v="Suttesjohláttu" />
		<tag k="natural" v="water" />
		<tag k="ssr:stedsnr" v="30740" />
	</node>
	<node id="-918211" lat="70.1515500255" lon="28.440185249">
		<tag k="name" v="Gávpotjohka" />
		<tag k="name:se" v="Gávpotjohka" />
		<tag k="old_name:se" v="Gavputjåkka" />
		<tag k="ssr:stedsnr" v="808856" />
		<tag k="waterway" v="stream" />
	</node>
	<node id="-918038" lat="70.1524694717" lon="28.6837907286">
		<tag k="name" v="Boazovárjávri" />
		<tag k="name:se" v="Boazovárjávri" />
		<tag k="natural" v="water" />
		<tag k="ssr:stedsnr" v="573038" />
		<tag k="water" v="lake" />
	</node>
	<node id="-918037" lat="70.1300528088" lon="28.6404990597">
		<tag k="name" v="Galbmagáldu" />
		<tag k="name:se" v="Galbmagáldu" />
		<tag k="natural" v="spring" />
		<tag k="ssr:stedsnr" v="573033" />
	</node>
	<node id="-918036" lat="70.1715555856" lon="28.8257962104">
		<tag k="name" v="Guollejárláttu" />
		<tag k="name:se" v="Guollejárláttu" />
		<tag k="natural" v="water" />
		<tag k="ssr:stedsnr" v="573006" />
	</node>
	<node id="-917521" lat="70.0814222528" lon="28.8028156638">
		<tag k="name" v="Angaužžastatláttu" />
		<tag k="name:se" v="Angaužžastatláttu" />
		<tag k="natural" v="water" />
		<tag k="ssr:stedsnr" v="635154" />
	</node>
	<node id="-918032" lat="70.1729833638" lon="28.5577324331">
		<tag k="name" v="Iŋggá-Káreája" />
		<tag k="name:se" v="Iŋggá-Káreája" />
		<tag k="natural" v="spring" />
		<tag k="ssr:stedsnr" v="572499" />
	</node>
	<node id="-917518" lat="70.1817361461" lon="28.9611795066">
		<tag k="name" v="Stuorraguollejávri" />
		<tag k="name:se" v="Stuorraguollejávri" />
		<tag k="natural" v="water" />
		<tag k="ssr:stedsnr" v="634012" />
		<tag k="water" v="lake" />
	</node>
	<node id="-917529" lat="70.1221000343" lon="28.5751268546">
		<tag k="name" v="Áitejohka" />
		<tag k="name:se" v="Áitejohka" />
		<tag k="ssr:stedsnr" v="876773" />
		<tag k="waterway" v="stream" />
	</node>
	<node id="-917762" lat="70.1839555813" lon="28.4106602552">
		<tag k="name" v="Tredjebukta" />
		<tag k="name:no" v="Tredjebukta" />
		<tag k="natural" v="bay" />
		<tag k="ssr:stedsnr" v="85495" />
	</node>
	<node id="-918025" lat="69.9420333675" lon="28.4791796469">
		<tag k="name" v="Kruvnnašjohka" />
		<tag k="name:se" v="Kruvnnašjohka" />
		<tag k="old_name:se" v="Kruvnašjåkka" />
		<tag k="ssr:stedsnr" v="565866" />
		<tag k="waterway" v="stream" />
	</node>
	<node id="-918023" lat="70.0648000309" lon="28.7289573472">
		<tag k="name" v="Borggodahkesjávri" />
		<tag k="name:se" v="Borggodahkesjávri" />
		<tag k="natural" v="water" />
		<tag k="old_name:se" v="Bårgudakkesjavri" />
		<tag k="ssr:stedsnr" v="565814" />
	</node>
	<node id="-917507" lat="70.1425111371" lon="28.5953435269">
		<tag k="name" v="Dutkojohka" />
		<tag k="name:se" v="Dutkojohka" />
		<tag k="old_name:se" v="Dutkojåkka" />
		<tag k="ssr:stedsnr" v="572732" />
		<tag k="waterway" v="stream" />
	</node>
	<node id="-918189" lat="70.0020916987" lon="28.5453490799">
		<tag k="name" v="Doaresluoppal" />
		<tag k="name:se" v="Doaresluoppal" />
		<tag k="natural" v="water" />
		<tag k="old_name:se" v="Doaresluobbal" />
		<tag k="ssr:stedsnr" v="808679" />
	</node>
	<node id="-918017" lat="70.1307583682" lon="28.6132351762">
		<tag k="name" v="Ráppotjávrrit" />
		<tag k="name:se" v="Ráppotjávrrit" />
		<tag k="natural" v="water" />
		<tag k="old_name:se" v="Rabbutjavrit;Rabokjavrit" />
		<tag k="ssr:stedsnr" v="565775" />
>>>>>>> e1d4bc35ff8a6074a6f2e91616a996b547c36f15
	</node>
</osm>
