<?xml version="1.0" encoding="UTF-8"?>
<<<<<<< HEAD
<osm version="0.6" generator="osmapis">
	<node lat="70.19724446880483" lon="28.497335241847715" id="-38404">
		<tag k="highway" v="path" />
		<tag k="name" v="Sommerstien" />
		<tag k="name:no" v="Sommerstien" />
		<tag k="ssr:stedsnr" v="270051" />
	</node>
	<node lat="70.15402503277575" lon="28.993387828506364" id="-38449">
		<tag k="highway" v="path" />
		<tag k="name" v="Čoskaluodda" />
		<tag k="name:se" v="Čoskaluodda" />
		<tag k="ssr:stedsnr" v="270015" />
	</node>
	<node lat="70.18490002822146" lon="28.33809919044838" id="-38493">
		<tag k="highway" v="path" />
		<tag k="name" v="Jorrinmáđii" />
		<tag k="name:se" v="Jorrinmáđii" />
		<tag k="ssr:stedsnr" v="398504" />
	</node>
	<node lat="70.00136948570201" lon="29.21249044492739" id="-38537">
		<tag k="junction" v="yes" />
		<tag k="name" v="Bugøyneskrysset" />
		<tag k="name:no" v="Bugøyneskrysset" />
		<tag k="place" v="locality" />
		<tag k="ssr:stedsnr" v="515737" />
	</node>
	<node lat="70.01470003813183" lon="29.115226617065105" id="-38597">
=======
<osm generator="osmapis" version="0.6">
	<node id="-918044" lat="70.0147000381" lon="29.1152266171">
>>>>>>> e1d4bc35ff8a6074a6f2e91616a996b547c36f15
		<tag k="landuse" v="industrial" />
		<tag k="name" v="Gandvik kraftverk" />
		<tag k="name:no" v="Gandvik kraftverk" />
		<tag k="power" v="plant" />
		<tag k="ssr:stedsnr" v="576711" />
	</node>
<<<<<<< HEAD
	<node lat="70.19921946865382" lon="28.528137997701524" id="-38600">
=======
	<node id="-917401" lat="70.0013694857" lon="29.2124904449">
		<tag k="junction" v="yes" />
		<tag k="name" v="Bugøyneskrysset" />
		<tag k="name:no" v="Bugøyneskrysset" />
		<tag k="place" v="locality" />
		<tag k="ssr:stedsnr" v="515737" />
	</node>
	<node id="-917204" lat="70.1972444688" lon="28.4973352418">
>>>>>>> e1d4bc35ff8a6074a6f2e91616a996b547c36f15
		<tag k="highway" v="path" />
		<tag k="name" v="Sukiveien" />
		<tag k="name:no" v="Sukiveien" />
		<tag k="ssr:stedsnr" v="695054" />
	</node>
<<<<<<< HEAD
	<node lat="70.18201669985062" lon="28.61932408389826" id="-38772">
=======
	<node id="-917203" lat="70.1540250328" lon="28.9933878285">
>>>>>>> e1d4bc35ff8a6074a6f2e91616a996b547c36f15
		<tag k="highway" v="path" />
		<tag k="name" v="Kjærlighetsstien" />
		<tag k="name:no" v="Kjærlighetsstien" />
		<tag k="ssr:stedsnr" v="937524" />
	</node>
<<<<<<< HEAD
	<node lat="70.17286391806988" lon="28.741121266469083" id="-38775">
=======
	<node id="-917650" lat="70.1728639181" lon="28.7411212665">
>>>>>>> e1d4bc35ff8a6074a6f2e91616a996b547c36f15
		<tag k="fixme" v="verify maritime location" />
		<tag k="mooring" v="yes" />
		<tag k="name" v="Stuorraváhki - Storstøa" />
		<tag k="name:no" v="Storstøa" />
		<tag k="name:se" v="Stuorraváhki" />
		<tag k="place" v="locality" />
		<tag k="ssr:stedsnr" v="938508" />
	</node>
<<<<<<< HEAD
	<node lat="70.04564726395316" lon="29.15010438891468" id="-38887">
=======
	<node id="-917776" lat="70.045647264" lon="29.1501043889">
>>>>>>> e1d4bc35ff8a6074a6f2e91616a996b547c36f15
		<tag k="name" v="Nieidaváhki" />
		<tag k="name:se" v="Nieidaváhki" />
		<tag k="place" v="locality" />
		<tag k="ssr:stedsnr" v="91656" />
	</node>
<<<<<<< HEAD
	<node lat="70.1455000330048" lon="28.8812767623833" id="-39340">
=======
	<node id="-917551" lat="70.1992194687" lon="28.5281379977">
		<tag k="highway" v="path" />
		<tag k="name" v="Sukiveien" />
		<tag k="name:no" v="Sukiveien" />
		<tag k="ssr:stedsnr" v="695054" />
	</node>
	<node id="-917647" lat="70.1820166999" lon="28.6193240839">
		<tag k="highway" v="path" />
		<tag k="name" v="Kjærlighetsstien" />
		<tag k="name:no" v="Kjærlighetsstien" />
		<tag k="ssr:stedsnr" v="937524" />
	</node>
	<node id="-917987" lat="70.1849000282" lon="28.3380991904">
		<tag k="highway" v="path" />
		<tag k="name" v="Jorrinmáđii" />
		<tag k="name:se" v="Jorrinmáđii" />
		<tag k="ssr:stedsnr" v="398504" />
	</node>
	<node id="-917569" lat="70.145500033" lon="28.8812767624">
>>>>>>> e1d4bc35ff8a6074a6f2e91616a996b547c36f15
		<tag k="leisure" v="marina" />
		<tag k="name" v="Gazzanjárga" />
		<tag k="name:se" v="Gazzanjárga" />
		<tag k="ssr:stedsnr" v="810024" />
	</node>
</osm>
