<?xml version="1.0" encoding="UTF-8"?>
<osm generator="osmapis" version="0.6">
	<node id="-39725" lat="61.1337666703" lon="9.07871943735">
		<tag k="name" v="Øystre Slidre kommune" />
		<tag k="ssr:date" v="2019-12-27" />
		<tag k="ssr:gruppe" v="administrativeIndelinger" />
		<tag k="ssr:hovedgruppe" v="offentligAdministrasjon" />
		<tag k="ssr:stedsnr" v="936989" />
		<tag k="ssr:type" v="kommune" />
	</node>
	<node id="-39847" lat="61.2852043381" lon="9.12501388395">
		<tag k="name" v="Svarthamar" />
		<tag k="ssr:date" v="2019-12-27" />
		<tag k="ssr:gruppe" v="veg" />
		<tag k="ssr:hovedgruppe" v="infrastruktur" />
		<tag k="ssr:stedsnr" v="1014927" />
		<tag k="ssr:type" v="adressenavn" />
	</node>
	<node id="-39849" lat="61.227912178" lon="9.15433645253">
		<tag k="name" v="Kristianstølen" />
		<tag k="ssr:date" v="2019-12-27" />
		<tag k="ssr:gruppe" v="veg" />
		<tag k="ssr:hovedgruppe" v="infrastruktur" />
		<tag k="ssr:stedsnr" v="1016523" />
		<tag k="ssr:type" v="adressenavn" />
	</node>
	<node id="-40915" lat="61.07900887" lon="9.1324710267">
		<tag k="name" v="Haukåsvegen" />
		<tag k="ssr:date" v="2020-04-28" />
		<tag k="ssr:gruppe" v="veg" />
		<tag k="ssr:hovedgruppe" v="infrastruktur" />
		<tag k="ssr:stedsnr" v="1076666" />
		<tag k="ssr:type" v="adressenavn" />
	</node>
	<node id="-40914" lat="61.1400297782" lon="9.07532372912">
		<tag k="name" v="Vidsynreksla" />
		<tag k="ssr:date" v="2020-04-28" />
		<tag k="ssr:gruppe" v="veg" />
		<tag k="ssr:hovedgruppe" v="infrastruktur" />
		<tag k="ssr:stedsnr" v="1076665" />
		<tag k="ssr:type" v="adressenavn" />
	</node>
	<node id="-40913" lat="61.1388972852" lon="9.07762374673">
		<tag k="name" v="Haukhøvdvegen" />
		<tag k="ssr:date" v="2020-04-28" />
		<tag k="ssr:gruppe" v="veg" />
		<tag k="ssr:hovedgruppe" v="infrastruktur" />
		<tag k="ssr:stedsnr" v="1076664" />
		<tag k="ssr:type" v="adressenavn" />
	</node>
	<node id="-40912" lat="61.1401633232" lon="9.07731114669">
		<tag k="name" v="Heranglie" />
		<tag k="ssr:date" v="2020-04-28" />
		<tag k="ssr:gruppe" v="veg" />
		<tag k="ssr:hovedgruppe" v="infrastruktur" />
		<tag k="ssr:stedsnr" v="1076663" />
		<tag k="ssr:type" v="adressenavn" />
	</node>
	<node id="-40911" lat="61.1546905198" lon="9.07507997161">
		<tag k="name" v="Brynevegen" />
		<tag k="ssr:date" v="2020-04-28" />
		<tag k="ssr:gruppe" v="veg" />
		<tag k="ssr:hovedgruppe" v="infrastruktur" />
		<tag k="ssr:stedsnr" v="1076662" />
		<tag k="ssr:type" v="adressenavn" />
	</node>
	<node id="-40910" lat="61.1538365325" lon="9.07704732308">
		<tag k="name" v="Kjerrevegen" />
		<tag k="ssr:date" v="2020-04-28" />
		<tag k="ssr:gruppe" v="veg" />
		<tag k="ssr:hovedgruppe" v="infrastruktur" />
		<tag k="ssr:stedsnr" v="1076660" />
		<tag k="ssr:type" v="adressenavn" />
	</node>
	<node id="-40909" lat="61.2219129739" lon="8.93824023297">
		<tag k="name" v="Mørke" />
		<tag k="ssr:date" v="2020-04-28" />
		<tag k="ssr:gruppe" v="veg" />
		<tag k="ssr:hovedgruppe" v="infrastruktur" />
		<tag k="ssr:stedsnr" v="1076659" />
		<tag k="ssr:type" v="adressenavn" />
	</node>
	<node id="-40908" lat="60.7952487072" lon="11.0825912243">
		<tag k="name" v="Innlandet fylke" />
		<tag k="ssr:date" v="2020-01-13" />
		<tag k="ssr:gruppe" v="administrativeIndelinger" />
		<tag k="ssr:hovedgruppe" v="offentligAdministrasjon" />
		<tag k="ssr:stedsnr" v="1074406" />
		<tag k="ssr:type" v="fylke" />
	</node>
	<node id="-40906" lat="61.1852110192" lon="9.14763553145">
		<tag k="name" v="Gamasama" />
		<tag k="ssr:date" v="2019-12-27" />
		<tag k="ssr:gruppe" v="veg" />
		<tag k="ssr:hovedgruppe" v="infrastruktur" />
		<tag k="ssr:stedsnr" v="1016557" />
		<tag k="ssr:type" v="adressenavn" />
	</node>
	<node id="-40905" lat="61.2604885416" lon="8.94645740918">
		<tag k="name" v="Melbisheimstølen" />
		<tag k="ssr:date" v="2019-12-27" />
		<tag k="ssr:gruppe" v="veg" />
		<tag k="ssr:hovedgruppe" v="infrastruktur" />
		<tag k="ssr:stedsnr" v="1016395" />
		<tag k="ssr:type" v="adressenavn" />
	</node>
	<node id="-40904" lat="61.3364439202" lon="9.01209055562">
		<tag k="name" v="Brende Øddin" />
		<tag k="ssr:date" v="2019-12-27" />
		<tag k="ssr:gruppe" v="veg" />
		<tag k="ssr:hovedgruppe" v="infrastruktur" />
		<tag k="ssr:stedsnr" v="1014982" />
		<tag k="ssr:type" v="adressenavn" />
	</node>
	<node id="-40903" lat="61.3601310254" lon="8.91871641685">
		<tag k="name" v="Langeråk" />
		<tag k="ssr:date" v="2019-12-27" />
		<tag k="ssr:gruppe" v="veg" />
		<tag k="ssr:hovedgruppe" v="infrastruktur" />
		<tag k="ssr:stedsnr" v="1014962" />
		<tag k="ssr:type" v="adressenavn" />
	</node>
	<node id="-40902" lat="61.0867203967" lon="9.19196359301">
		<tag k="name" v="Bølstadtjednet" />
		<tag k="ssr:date" v="2019-12-27" />
		<tag k="ssr:gruppe" v="veg" />
		<tag k="ssr:hovedgruppe" v="infrastruktur" />
		<tag k="ssr:stedsnr" v="1014940" />
		<tag k="ssr:type" v="adressenavn" />
	</node>
	<node id="-39848" lat="61.1258856739" lon="9.25771738898">
		<tag k="name" v="Rabalsvatnet" />
		<tag k="ssr:date" v="2019-12-27" />
		<tag k="ssr:gruppe" v="veg" />
		<tag k="ssr:hovedgruppe" v="infrastruktur" />
		<tag k="ssr:stedsnr" v="1014930" />
		<tag k="ssr:type" v="adressenavn" />
	</node>
</osm>
