<?xml version="1.0" encoding="UTF-8"?>
<osm version="0.6" generator="osmapis">
	<node id="31264147" lat="68.2321709" lon="14.5646019" version="12" timestamp="2022-06-23T17:30:23Z" changeset="122768702" uid="3497659" user="NKA">
		<tag k="loc_name:se" v="Suolvearra" />
		<tag k="loc_name:smj" v="Spálavuolle" />
		<tag k="name" v="Svolvær" />
		<tag k="name:no" v="Svolvær" />
		<tag k="name:ru" v="Свольвер" />
		<tag k="name:se" v="Spållavuolle" />
		<tag k="place" v="town" />
		<tag k="population" v="4714" />
		<tag k="population:date" v="2021-01-01" />
		<tag k="ref:ssb_tettsted" v="7814" />
		<tag k="source:population" v="SSB - befolkning i tettstedet" />
		<tag k="ssr:stedsnr" v="320274" />
	</node>
	<node id="220018283" lat="68.2101202" lon="14.4773789" version="12" timestamp="2022-06-23T17:30:23Z" changeset="122768702" uid="3497659" user="NKA">
		<tag k="loc_name:se" v="Váhki;Vágit;Gávvalváhki" />
		<tag k="loc_name:smj" v="Gábelváhke" />
		<tag k="name" v="Kabelvåg" />
		<tag k="name:no" v="Kabelvåg" />
		<tag k="name:ru" v="Кабельвог" />
		<tag k="place" v="village" />
		<tag k="population" v="2203" />
		<tag k="population:date" v="2021-01-01" />
		<tag k="ref:ssb_tettsted" v="7812" />
		<tag k="source:population" v="SSB - befolkning i tettstedet" />
		<tag k="ssr:stedsnr" v="927245" />
	</node>
	<node id="249162242" lat="68.152888" lon="14.2007245" version="10" timestamp="2022-06-23T17:30:23Z" changeset="122768702" uid="3497659" user="NKA">
		<tag k="name" v="Henningsvær" />
		<tag k="name:ru" v="Хеннингсвер" />
		<tag k="place" v="village" />
		<tag k="population" v="505" />
		<tag k="population:date" v="2021-01-01" />
		<tag k="ref:ssb_tettsted" v="7813" />
		<tag k="source:population" v="SSB - befolkning i tettstedet" />
		<tag k="ssr:stedsnr" v="684330" />
		<tag k="wikidata" v="Q1605649" />
		<tag k="wikipedia" v="en:Henningsvær" />
	</node>
	<node id="249162257" lat="68.3275277" lon="14.3330913" version="3" timestamp="2022-06-23T17:30:23Z" changeset="122768702" uid="3497659" user="NKA">
		<tag k="name" v="Brenna" />
		<tag k="name:ru" v="Бренна" />
		<tag k="place" v="hamlet" />
		<tag k="ssr:stedsnr" v="419856" />
	</node>
	<node id="249162775" lat="68.2559283" lon="14.2710319" version="2" timestamp="2022-06-23T17:30:23Z" changeset="122768702" uid="3497659" user="NKA">
		<tag k="name" v="Kleppstad" />
		<tag k="old_name" v="Klepstad" />
		<tag k="place" v="hamlet" />
		<tag k="ssr:stedsnr" v="502139" />
	</node>
	<node id="249162777" lat="68.2896799" lon="14.3238756" version="2" timestamp="2022-06-23T17:30:23Z" changeset="122768702" uid="3497659" user="NKA">
		<tag k="name" v="Tøa" />
		<tag k="place" v="hamlet" />
		<tag k="ssr:stedsnr" v="381231" />
	</node>
	<node id="249162780" lat="68.2996492" lon="14.3197131" version="2" timestamp="2022-06-23T17:30:23Z" changeset="122768702" uid="3497659" user="NKA">
		<tag k="alt_name" v="Gravermark" />
		<tag k="name" v="Gravermarka" />
		<tag k="place" v="hamlet" />
		<tag k="ssr:stedsnr" v="502045" />
	</node>
	<node id="249162782" lat="68.2773793" lon="14.31649" version="3" timestamp="2022-06-23T17:30:23Z" changeset="122768702" uid="3497659" user="NKA">
		<tag k="name" v="Rystad" />
		<tag k="name:ru" v="Рыстад" />
		<tag k="place" v="hamlet" />
		<tag k="ssr:stedsnr" v="806224" />
	</node>
	<node id="274644581" lat="68.1967541" lon="14.3468322" version="2" timestamp="2022-06-23T17:30:23Z" changeset="122768702" uid="3497659" user="NKA">
		<tag k="name" v="Hopen" />
		<tag k="place" v="quarter" />
		<tag k="ssr:stedsnr" v="806385" />
	</node>
	<node id="886538264" lat="68.287294" lon="14.3382136" version="2" timestamp="2022-06-23T17:30:23Z" changeset="122768702" uid="3497659" user="NKA">
		<tag k="name" v="Sydalen" />
		<tag k="place" v="quarter" />
		<tag k="ssr:stedsnr" v="867236" />
	</node>
	<node id="947010324" lat="68.3009105" lon="15.092658" version="2" timestamp="2022-06-23T17:30:23Z" changeset="122768702" uid="3497659" user="NKA">
		<tag k="name" v="Holandshamn" />
		<tag k="place" v="hamlet" />
		<tag k="ssr:stedsnr" v="381078" />
	</node>
	<node id="947010542" lat="68.3025525" lon="15.1129349" version="4" timestamp="2022-06-23T17:30:23Z" changeset="122768702" uid="3497659" user="NKA">
		<tag k="name" v="Holand" />
		<tag k="place" v="farm" />
		<tag k="ssr:stedsnr" v="623071" />
	</node>
	<node id="1586225033" lat="68.3246055" lon="15.1387001" version="2" timestamp="2022-06-23T17:30:23Z" changeset="122768702" uid="3497659" user="NKA">
		<tag k="name" v="Lauvvika" />
		<tag k="place" v="farm" />
		<tag k="ssr:stedsnr" v="623944" />
	</node>
	<node id="1760320557" lat="68.3880715" lon="14.4179063" version="3" timestamp="2022-06-23T17:30:23Z" changeset="122768702" uid="3497659" user="NKA">
		<tag k="alt_name" v="Laukvik" />
		<tag k="name" v="Laukvika" />
		<tag k="name:ru" v="Лёуквика" />
		<tag k="place" v="village" />
		<tag k="ssr:stedsnr" v="320290" />
	</node>
	<node id="1809099443" lat="68.3397599" lon="14.1119166" version="3" timestamp="2022-06-23T17:30:23Z" changeset="122768702" uid="3497659" user="NKA">
		<tag k="name" v="Hov" />
		<tag k="name:ru" v="Хов" />
		<tag k="place" v="hamlet" />
		<tag k="ssr:stedsnr" v="138077" />
	</node>
	<node id="1809099444" lat="68.3401227" lon="14.0837694" version="2" timestamp="2022-06-23T17:30:23Z" changeset="122768702" uid="3497659" user="NKA">
		<tag k="name" v="Hovsund" />
		<tag k="place" v="hamlet" />
		<tag k="ssr:stedsnr" v="623901" />
	</node>
	<node id="2967403590" lat="68.4030447" lon="14.5182162" version="2" timestamp="2022-06-23T17:30:23Z" changeset="122768702" uid="3497659" user="NKA">
		<tag k="name" v="Delp" />
		<tag k="place" v="hamlet" />
		<tag k="ssr:stedsnr" v="199305" />
	</node>
	<node id="3378694921" lat="68.3287857" lon="14.6971239" version="3" timestamp="2022-06-23T17:30:23Z" changeset="122768702" uid="3497659" user="NKA">
		<tag k="name" v="Vestpollen" />
		<tag k="name:ru" v="Вестполлен" />
		<tag k="place" v="quarter" />
		<tag k="ssr:stedsnr" v="17433" />
	</node>
	<node id="3378710046" lat="68.286031" lon="14.6890663" version="3" timestamp="2022-06-23T17:30:23Z" changeset="122768702" uid="3497659" user="NKA">
		<tag k="alt_name" v="Vatterfjord" />
		<tag k="name" v="Vatterfjorden" />
		<tag k="name:ru" v="Ватерфьёрд" />
		<tag k="place" v="farm" />
		<tag k="ssr:stedsnr" v="745597" />
	</node>
	<node id="3382647971" lat="68.2090739" lon="14.392921" version="3" timestamp="2022-06-23T17:30:23Z" changeset="122768702" uid="3497659" user="NKA">
		<tag k="loc_name:se" v="Ørsváhki" />
		<tag k="name" v="Ørsvåg" />
		<tag k="name:no" v="Ørsvåg" />
		<tag k="name:ru" v="Ошвог" />
		<tag k="place" v="quarter" />
		<tag k="ssr:stedsnr" v="78434" />
	</node>
	<node id="3382736257" lat="68.204867" lon="14.240941" version="3" timestamp="2022-06-23T17:30:23Z" changeset="122768702" uid="3497659" user="NKA">
		<tag k="name" v="Rørvika" />
		<tag k="name:ru" v="Рорвик" />
		<tag k="place" v="hamlet" />
		<tag k="ssr:stedsnr" v="320472" />
	</node>
	<node id="3382942489" lat="68.1700188" lon="14.2129407" version="2" timestamp="2022-06-23T17:30:23Z" changeset="122768702" uid="3497659" user="NKA">
		<tag k="name" v="Festvåg" />
		<tag k="place" v="isolated_dwelling" />
		<tag k="ssr:stedsnr" v="199425" />
	</node>
	<node id="3384222433" lat="68.2686677" lon="14.169155" version="2" timestamp="2022-06-23T17:30:23Z" changeset="122768702" uid="3497659" user="NKA">
		<tag k="name" v="Sundklakk" />
		<tag k="place" v="hamlet" />
		<tag k="ssr:stedsnr" v="563229" />
	</node>
	<node id="3644084222" lat="68.3210693" lon="14.2331897" version="2" timestamp="2022-06-23T17:30:23Z" changeset="122768702" uid="3497659" user="NKA">
		<tag k="alt_name" v="Sand" />
		<tag k="name" v="Gimsøysand" />
		<tag k="place" v="hamlet" />
		<tag k="ssr:stedsnr" v="119291" />
	</node>
	<node id="3644084223" lat="68.3317898" lon="14.1687613" version="3" timestamp="2022-06-23T17:30:23Z" changeset="122768702" uid="3497659" user="NKA">
		<tag k="name" v="Saupstad" />
		<tag k="name:ru" v="Саупсад" />
		<tag k="place" v="hamlet" />
		<tag k="ssr:stedsnr" v="17079" />
	</node>
	<node id="3644084224" lat="68.3226528" lon="14.2014028" version="3" timestamp="2022-06-23T17:30:23Z" changeset="122768702" uid="3497659" user="NKA">
		<tag k="name" v="Vinje" />
		<tag k="name:ru" v="Винье" />
		<tag k="place" v="hamlet" />
		<tag k="ssr:stedsnr" v="77088" />
	</node>
	<node id="5020295201" lat="68.2076811" lon="14.453818" version="3" timestamp="2022-06-23T17:30:23Z" changeset="122768702" uid="3497659" user="NKA">
		<tag k="loc_name:se" v="Stuoraváhki" />
		<tag k="name" v="Storvågan" />
		<tag k="name:no" v="Storvågan" />
		<tag k="name:ru" v="Сторвоган" />
		<tag k="place" v="hamlet" />
		<tag k="ssr:stedsnr" v="381261" />
	</node>
	<node id="6205774432" lat="68.3572939" lon="14.7232319" version="2" timestamp="2022-06-23T17:30:23Z" changeset="122768702" uid="3497659" user="NKA">
		<tag k="name" v="Laupstad" />
		<tag k="place" v="quarter" />
		<tag k="ssr:stedsnr" v="927481" />
	</node>
	<node id="6205774438" lat="68.3133557" lon="14.9872337" version="2" timestamp="2022-06-23T17:30:23Z" changeset="122768702" uid="3497659" user="NKA">
		<tag k="name" v="Digermulen" />
		<tag k="place" v="quarter" />
		<tag k="ssr:stedsnr" v="450061" />
	</node>
	<node id="6205774459" lat="68.2800286" lon="14.931928" version="2" timestamp="2022-06-23T17:30:23Z" changeset="122768702" uid="3497659" user="NKA">
		<tag k="alt_name" v="Stormolla" />
		<tag k="name" v="Ulvågen" />
		<tag k="place" v="quarter" />
		<tag k="ssr:stedsnr" v="199578" />
	</node>
	<node id="6205774464" lat="68.3288777" lon="15.1872313" version="2" timestamp="2022-06-23T17:30:23Z" changeset="122768702" uid="3497659" user="NKA">
		<tag k="name" v="Storfjell" />
		<tag k="place" v="farm" />
		<tag k="ssr:stedsnr" v="441958" />
	</node>
	<node id="6205774486" lat="68.2328859" lon="14.8462703" version="2" timestamp="2022-06-23T17:30:23Z" changeset="122768702" uid="3497659" user="NKA">
		<tag k="name" v="Brettesnes" />
		<tag k="place" v="quarter" />
		<tag k="ssr:stedsnr" v="380292" />
	</node>
	<node id="9842164400" lat="68.3328028" lon="14.7129612" version="1" timestamp="2022-06-23T17:30:23Z" changeset="122768702" uid="3497659" user="NKA">
		<tag k="name" v="Nordvika" />
		<tag k="place" v="farm" />
		<tag k="ssr:stedsnr" v="78421" />
	</node>
	<node id="9842164401" lat="68.2430868" lon="14.5403663" version="1" timestamp="2022-06-23T17:30:23Z" changeset="122768702" uid="3497659" user="NKA">
		<tag k="name" v="Leirosbakken" />
		<tag k="place" v="isolated_dwelling" />
		<tag k="ssr:stedsnr" v="177903" />
	</node>
	<node id="9842164402" lat="68.2844722" lon="14.6765862" version="1" timestamp="2022-06-23T17:30:23Z" changeset="122768702" uid="3497659" user="NKA">
		<tag k="name" v="Gammelgården" />
		<tag k="place" v="farm" />
		<tag k="ssr:stedsnr" v="441620" />
	</node>
	<node id="9842164403" lat="68.3236528" lon="14.6974528" version="1" timestamp="2022-06-23T17:30:23Z" changeset="122768702" uid="3497659" user="NKA">
		<tag k="name" v="Kvalvik" />
		<tag k="place" v="farm" />
		<tag k="ssr:stedsnr" v="541834" />
	</node>
	<node id="9842164404" lat="68.3268068" lon="14.328432" version="1" timestamp="2022-06-23T17:30:23Z" changeset="122768702" uid="3497659" user="NKA">
		<tag k="alt_name" v="Brenna s;Sør Brenna" />
		<tag k="name" v="Søre Brenna" />
		<tag k="place" v="farm" />
		<tag k="ssr:stedsnr" v="745114" />
	</node>
	<node id="9842164405" lat="68.3047277" lon="15.0713138" version="1" timestamp="2022-06-23T17:30:23Z" changeset="122768702" uid="3497659" user="NKA">
		<tag k="name" v="Bakken" />
		<tag k="place" v="farm" />
		<tag k="ssr:stedsnr" v="946224" />
	</node>
	<node id="9842164406" lat="68.29615" lon="14.7001916" version="1" timestamp="2022-06-23T17:30:23Z" changeset="122768702" uid="3497659" user="NKA">
		<tag k="alt_name" v="Stordal" />
		<tag k="name" v="Stordalen" />
		<tag k="place" v="farm" />
		<tag k="ssr:stedsnr" v="320511" />
	</node>
	<node id="9842164407" lat="68.1888241" lon="14.7230052" version="1" timestamp="2022-06-23T17:30:23Z" changeset="122768702" uid="3497659" user="NKA">
		<tag k="name" v="Sandøya" />
		<tag k="place" v="locality" />
		<tag k="ssr:stedsnr" v="1076133" />
	</node>
	<node id="9842164408" lat="68.2539937" lon="14.6582545" version="1" timestamp="2022-06-23T17:30:23Z" changeset="122768702" uid="3497659" user="NKA">
		<tag k="name" v="Sletta" />
		<tag k="place" v="farm" />
		<tag k="ssr:stedsnr" v="386145" />
	</node>
	<node id="9842164409" lat="68.2986167" lon="15.0272761" version="1" timestamp="2022-06-23T17:30:23Z" changeset="122768702" uid="3497659" user="NKA">
		<tag k="alt_name" v="Litj Årstein;Årstein, l" />
		<tag k="name" v="Lilleårstein" />
		<tag k="place" v="farm" />
		<tag k="ssr:stedsnr" v="927064" />
	</node>
	<node id="9842164410" lat="68.2483223" lon="14.3296694" version="1" timestamp="2022-06-23T17:30:23Z" changeset="122768702" uid="3497659" user="NKA">
		<tag k="name" v="Storvika" />
		<tag k="place" v="farm" />
		<tag k="ssr:stedsnr" v="927517" />
	</node>
	<node id="9842164411" lat="68.2187856" lon="14.4951163" version="1" timestamp="2022-06-23T17:30:23Z" changeset="122768702" uid="3497659" user="NKA">
		<tag k="name" v="Åvika" />
		<tag k="place" v="farm" />
		<tag k="ssr:stedsnr" v="260236" />
	</node>
	<node id="9842164412" lat="68.2779252" lon="14.7266972" version="1" timestamp="2022-06-23T17:30:23Z" changeset="122768702" uid="3497659" user="NKA">
		<tag k="name" v="Følstad" />
		<tag k="place" v="farm" />
		<tag k="ssr:stedsnr" v="1076118" />
	</node>
	<node id="9842164413" lat="68.33245" lon="14.7618556" version="1" timestamp="2022-06-23T17:30:23Z" changeset="122768702" uid="3497659" user="NKA">
		<tag k="name" v="Grøttingsvollen" />
		<tag k="place" v="farm" />
		<tag k="ssr:stedsnr" v="867444" />
	</node>
	<node id="9842164414" lat="68.3051666" lon="15.0673063" version="1" timestamp="2022-06-23T17:30:23Z" changeset="122768702" uid="3497659" user="NKA">
		<tag k="name" v="Bjerkås" />
		<tag k="place" v="farm" />
		<tag k="ssr:stedsnr" v="754664" />
	</node>
	<node id="9842164415" lat="68.333325" lon="14.7601861" version="1" timestamp="2022-06-23T17:30:23Z" changeset="122768702" uid="3497659" user="NKA">
		<tag k="name" v="Vollen" />
		<tag k="place" v="farm" />
		<tag k="ssr:stedsnr" v="909866" />
	</node>
	<node id="9842164416" lat="68.304857" lon="14.9982821" version="1" timestamp="2022-06-23T17:30:23Z" changeset="122768702" uid="3497659" user="NKA">
		<tag k="alt_name" v="Breidvoll" />
		<tag k="name" v="Breivoll" />
		<tag k="place" v="farm" />
		<tag k="ssr:stedsnr" v="684501" />
	</node>
	<node id="9842201017" lat="68.309332" lon="15.0684785" version="1" timestamp="2022-06-23T17:30:23Z" changeset="122768702" uid="3497659" user="NKA">
		<tag k="name" v="Vatnvågen" />
		<tag k="place" v="hamlet" />
		<tag k="ssr:stedsnr" v="745065" />
	</node>
	<node id="9842201018" lat="68.2683829" lon="14.8150937" version="1" timestamp="2022-06-23T17:30:23Z" changeset="122768702" uid="3497659" user="NKA">
		<tag k="alt_name" v="Haversandsetra" />
		<tag k="historic" v="shieling" />
		<tag k="name" v="Haversandsætra" />
		<tag k="place" v="isolated_dwelling" />
		<tag k="ssr:stedsnr" v="78650" />
	</node>
	<node id="9842201019" lat="68.2403945" lon="14.2686278" version="1" timestamp="2022-06-23T17:30:23Z" changeset="122768702" uid="3497659" user="NKA">
		<tag k="name" v="Lyngværstranda" />
		<tag k="place" v="farm" />
		<tag k="ssr:stedsnr" v="260636" />
	</node>
	<node id="9842201020" lat="68.1680458" lon="14.7011231" version="1" timestamp="2022-06-23T17:30:23Z" changeset="122768702" uid="3497659" user="NKA">
		<tag k="name" v="Hattvika" />
		<tag k="place" v="farm" />
		<tag k="ssr:stedsnr" v="623185" />
	</node>
	<node id="9842201021" lat="68.26985" lon="14.5415332" version="1" timestamp="2022-06-23T17:30:23Z" changeset="122768702" uid="3497659" user="NKA">
		<tag k="name" v="Sætra" />
		<tag k="place" v="isolated_dwelling" />
		<tag k="ssr:stedsnr" v="138578" />
	</node>
	<node id="9842201022" lat="68.2486782" lon="14.5664588" version="1" timestamp="2022-06-23T17:30:23Z" changeset="122768702" uid="3497659" user="NKA">
		<tag k="name" v="Knutvika" />
		<tag k="place" v="farm" />
		<tag k="ssr:stedsnr" v="17385" />
	</node>
	<node id="9842201023" lat="68.2747889" lon="14.7633666" version="1" timestamp="2022-06-23T17:30:23Z" changeset="122768702" uid="3497659" user="NKA">
		<tag k="name" v="Sætren" />
		<tag k="place" v="isolated_dwelling" />
		<tag k="ssr:stedsnr" v="320548" />
	</node>
	<node id="9842201024" lat="68.3159173" lon="14.5944013" version="1" timestamp="2022-06-23T17:30:23Z" changeset="122768702" uid="3497659" user="NKA">
		<tag k="name" v="Vestpolleidet" />
		<tag k="place" v="farm" />
		<tag k="ssr:stedsnr" v="867547" />
	</node>
	<node id="9842201025" lat="68.300569" lon="14.9443509" version="1" timestamp="2022-06-23T17:30:23Z" changeset="122768702" uid="3497659" user="NKA">
		<tag k="alt_name" v="Molgavlen;Mollgavelen" />
		<tag k="name" v="Mollgavlen" />
		<tag k="place" v="farm" />
		<tag k="ssr:stedsnr" v="502514" />
	</node>
	<node id="9842201026" lat="68.2093724" lon="14.4668213" version="1" timestamp="2022-06-23T17:30:23Z" changeset="122768702" uid="3497659" user="NKA">
		<tag k="name" v="Smedvik" />
		<tag k="place" v="locality" />
		<tag k="ssr:stedsnr" v="1076105" />
	</node>
	<node id="9842201027" lat="68.2103002" lon="14.4885874" version="1" timestamp="2022-06-23T17:30:23Z" changeset="122768702" uid="3497659" user="NKA">
		<tag k="name" v="Prestskeia" />
		<tag k="place" v="locality" />
		<tag k="ssr:stedsnr" v="1076111" />
	</node>
	<node id="9842201028" lat="68.3039231" lon="15.0145657" version="1" timestamp="2022-06-23T17:30:23Z" changeset="122768702" uid="3497659" user="NKA">
		<tag k="name" v="Elvebakken" />
		<tag k="place" v="farm" />
		<tag k="ssr:stedsnr" v="389856" />
	</node>
	<node id="9842201029" lat="68.3025101" lon="15.0753621" version="1" timestamp="2022-06-23T17:30:23Z" changeset="122768702" uid="3497659" user="NKA">
		<tag k="name" v="Fjellberg" />
		<tag k="place" v="farm" />
		<tag k="ssr:stedsnr" v="208635" />
	</node>
	<node id="9842201030" lat="68.2975746" lon="14.9544007" version="1" timestamp="2022-06-23T17:30:23Z" changeset="122768702" uid="3497659" user="NKA">
		<tag k="alt_name" v="Sandavika" />
		<tag k="name" v="Sandvika" />
		<tag k="place" v="farm" />
		<tag k="ssr:stedsnr" v="138524" />
	</node>
	<node id="9842201031" lat="68.3347333" lon="14.7565785" version="1" timestamp="2022-06-23T17:30:23Z" changeset="122768702" uid="3497659" user="NKA">
		<tag k="name" v="Småmyr" />
		<tag k="place" v="farm" />
		<tag k="ssr:stedsnr" v="302837" />
	</node>
	<node id="9842201032" lat="68.3641361" lon="14.4696695" version="1" timestamp="2022-06-23T17:30:23Z" changeset="122768702" uid="3497659" user="NKA">
		<tag k="name" v="Olinagammtomta" />
		<tag k="place" v="locality" />
		<tag k="ssr:stedsnr" v="28030" />
	</node>
	<node id="9842201033" lat="68.2795545" lon="14.2523724" version="1" timestamp="2022-06-23T17:30:23Z" changeset="122768702" uid="3497659" user="NKA">
		<tag k="name" v="Barstrand" />
		<tag k="place" v="farm" />
		<tag k="ssr:stedsnr" v="1076135" />
	</node>
	<node id="9842201034" lat="68.2949245" lon="15.0883113" version="1" timestamp="2022-06-23T17:30:23Z" changeset="122768702" uid="3497659" user="NKA">
		<tag k="name" v="Sandnes" />
		<tag k="place" v="farm" />
		<tag k="ssr:stedsnr" v="78075" />
	</node>
	<node id="9842201035" lat="68.3129528" lon="14.9823444" version="1" timestamp="2022-06-23T17:30:23Z" changeset="122768702" uid="3497659" user="NKA">
		<tag k="name" v="Skogly" />
		<tag k="place" v="farm" />
		<tag k="ssr:stedsnr" v="874094" />
	</node>
	<node id="9842201036" lat="68.2785472" lon="14.6193361" version="1" timestamp="2022-06-23T17:30:23Z" changeset="122768702" uid="3497659" user="NKA">
		<tag k="name" v="Hellsætra" />
		<tag k="place" v="isolated_dwelling" />
		<tag k="ssr:stedsnr" v="623638" />
	</node>
	<node id="9842201037" lat="68.308" lon="14.9978416" version="1" timestamp="2022-06-23T17:30:23Z" changeset="122768702" uid="3497659" user="NKA">
		<tag k="name" v="Haugtun" />
		<tag k="place" v="farm" />
		<tag k="ssr:stedsnr" v="874092" />
	</node>
	<node id="9842201038" lat="68.3061055" lon="14.1202333" version="1" timestamp="2022-06-23T17:30:23Z" changeset="122768702" uid="3497659" user="NKA">
		<tag k="alt_name" v="Årstrand" />
		<tag k="name" v="Årrstranda" />
		<tag k="place" v="hamlet" />
		<tag k="ssr:stedsnr" v="745028" />
	</node>
	<node id="9842201039" lat="68.3241183" lon="15.1464794" version="1" timestamp="2022-06-23T17:30:23Z" changeset="122768702" uid="3497659" user="NKA">
		<tag k="name" v="Sæter" />
		<tag k="place" v="farm" />
		<tag k="ssr:stedsnr" v="339259" />
	</node>
	<node id="9842201040" lat="68.3019967" lon="15.0849359" version="1" timestamp="2022-06-23T17:30:23Z" changeset="122768702" uid="3497659" user="NKA">
		<tag k="name" v="Fagerstad" />
		<tag k="place" v="farm" />
		<tag k="ssr:stedsnr" v="390619" />
	</node>
	<node id="9842201041" lat="68.3525853" lon="14.4579333" version="1" timestamp="2022-06-23T17:30:23Z" changeset="122768702" uid="3497659" user="NKA">
		<tag k="alt_name" v="Vatnfjord" />
		<tag k="name" v="Vatnfjorden" />
		<tag k="place" v="hamlet" />
		<tag k="ssr:stedsnr" v="199406" />
	</node>
	<node id="9842201042" lat="68.300216" lon="14.8806303" version="1" timestamp="2022-06-23T17:30:23Z" changeset="122768702" uid="3497659" user="NKA">
		<tag k="alt_name" v="Silbogen" />
		<tag k="name" v="Sildbugen" />
		<tag k="place" v="farm" />
		<tag k="ssr:stedsnr" v="442527" />
	</node>
	<node id="9842201043" lat="68.2863167" lon="15.0808306" version="1" timestamp="2022-06-23T17:30:23Z" changeset="122768702" uid="3497659" user="NKA">
		<tag k="name" v="Rydningen" />
		<tag k="place" v="farm" />
		<tag k="ssr:stedsnr" v="381091" />
	</node>
	<node id="9842201044" lat="68.2673913" lon="15.010861" version="1" timestamp="2022-06-23T17:30:23Z" changeset="122768702" uid="3497659" user="NKA">
		<tag k="name" v="Nedre Årstein" />
		<tag k="place" v="farm" />
		<tag k="ssr:stedsnr" v="157994" />
	</node>
	<node id="9842201045" lat="68.3419687" lon="14.3388962" version="1" timestamp="2022-06-23T17:30:23Z" changeset="122768702" uid="3497659" user="NKA">
		<tag k="name" v="Festvåg" />
		<tag k="place" v="isolated_dwelling" />
		<tag k="ssr:stedsnr" v="138887" />
	</node>
	<node id="9842201046" lat="68.3214981" lon="14.2108819" version="1" timestamp="2022-06-23T17:30:23Z" changeset="122768702" uid="3497659" user="NKA">
		<tag k="name" v="Kleivan" />
		<tag k="place" v="farm" />
		<tag k="ssr:stedsnr" v="320129" />
	</node>
	<node id="9842201047" lat="68.3368955" lon="14.162863" version="1" timestamp="2022-06-23T17:30:23Z" changeset="122768702" uid="3497659" user="NKA">
		<tag k="name" v="Saupstad" />
		<tag k="place" v="farm" />
		<tag k="ssr:stedsnr" v="466654" />
	</node>
	<node id="9842201048" lat="68.31918" lon="14.8956102" version="1" timestamp="2022-06-23T17:30:23Z" changeset="122768702" uid="3497659" user="NKA">
		<tag k="alt_name" v="Røyrhopen" />
		<tag k="name" v="Rørhopen" />
		<tag k="place" v="farm" />
		<tag k="ssr:stedsnr" v="381553" />
	</node>
	<node id="9842201049" lat="68.2610055" lon="14.1932833" version="1" timestamp="2022-06-23T17:30:23Z" changeset="122768702" uid="3497659" user="NKA">
		<tag k="name" v="Jørndalen" />
		<tag k="place" v="farm" />
		<tag k="ssr:stedsnr" v="381151" />
	</node>
	<node id="9842201050" lat="68.1719566" lon="14.2446918" version="1" timestamp="2022-06-23T17:30:23Z" changeset="122768702" uid="3497659" user="NKA">
		<tag k="name" v="Gullvika" />
		<tag k="place" v="farm" />
		<tag k="ssr:stedsnr" v="260454" />
	</node>
	<node id="9842201051" lat="68.2397139" lon="14.2644138" version="1" timestamp="2022-06-23T17:30:23Z" changeset="122768702" uid="3497659" user="NKA">
		<tag k="name" v="Lyngvær" />
		<tag k="place" v="farm" />
		<tag k="ssr:stedsnr" v="483510" />
	</node>
	<node id="9842201052" lat="68.276525" lon="14.6672988" version="1" timestamp="2022-06-23T17:30:23Z" changeset="122768702" uid="3497659" user="NKA">
		<tag k="name" v="Kota" />
		<tag k="old_name" v="Litlvatterfjorden" />
		<tag k="place" v="farm" />
		<tag k="ssr:stedsnr" v="927571" />
	</node>
	<node id="9842201053" lat="68.3957902" lon="14.4848801" version="1" timestamp="2022-06-23T17:30:23Z" changeset="122768702" uid="3497659" user="NKA">
		<tag k="name" v="Gjersvoll" />
		<tag k="place" v="hamlet" />
		<tag k="ssr:stedsnr" v="77301" />
	</node>
	<node id="9842201054" lat="68.1978334" lon="14.7237638" version="1" timestamp="2022-06-23T17:30:23Z" changeset="122768702" uid="3497659" user="NKA">
		<tag k="alt_name" v="Grunnstad" />
		<tag k="name" v="Grundstad" />
		<tag k="place" v="farm" />
		<tag k="ssr:stedsnr" v="927144" />
	</node>
	<node id="9842201055" lat="68.2281206" lon="14.4474038" version="1" timestamp="2022-06-23T17:30:23Z" changeset="122768702" uid="3497659" user="NKA">
		<tag k="name" v="Sætra" />
		<tag k="place" v="isolated_dwelling" />
		<tag k="ssr:stedsnr" v="138332" />
	</node>
	<node id="9842201056" lat="68.37925" lon="14.4533249" version="1" timestamp="2022-06-23T17:30:23Z" changeset="122768702" uid="3497659" user="NKA">
		<tag k="name" v="Sandvoll" />
		<tag k="place" v="farm" />
		<tag k="ssr:stedsnr" v="866433" />
	</node>
	<node id="9842201057" lat="68.2515055" lon="14.3144612" version="1" timestamp="2022-06-23T17:30:23Z" changeset="122768702" uid="3497659" user="NKA">
		<tag k="name" v="Urda" />
		<tag k="place" v="farm" />
		<tag k="ssr:stedsnr" v="714957" />
	</node>
	<node id="9842201058" lat="68.3202268" lon="15.1842246" version="1" timestamp="2022-06-23T17:30:23Z" changeset="122768702" uid="3497659" user="NKA">
		<tag k="name" v="Hundsnesjordet" />
		<tag k="place" v="farm" />
		<tag k="ssr:stedsnr" v="441030" />
	</node>
	<node id="9842201059" lat="68.3448441" lon="15.2348409" version="1" timestamp="2022-06-23T17:30:23Z" changeset="122768702" uid="3497659" user="NKA">
		<tag k="name" v="Sommarset" />
		<tag k="place" v="farm" />
		<tag k="ssr:stedsnr" v="320975" />
	</node>
	<node id="9842201060" lat="68.1887361" lon="14.2244444" version="1" timestamp="2022-06-23T17:30:23Z" changeset="122768702" uid="3497659" user="NKA">
		<tag k="name" v="Djupfjorden" />
		<tag k="place" v="locality" />
		<tag k="ssr:stedsnr" v="350242" />
	</node>
	<node id="9842201061" lat="68.2633222" lon="14.7480528" version="1" timestamp="2022-06-23T17:30:23Z" changeset="122768702" uid="3497659" user="NKA">
		<tag k="historic" v="shieling" />
		<tag k="name" v="Landan" />
		<tag k="place" v="isolated_dwelling" />
		<tag k="ssr:stedsnr" v="756221" />
	</node>
	<node id="9842201062" lat="68.2427864" lon="14.6642156" version="1" timestamp="2022-06-23T17:30:23Z" changeset="122768702" uid="3497659" user="NKA">
		<tag k="name" v="Helle" />
		<tag k="place" v="farm" />
		<tag k="ssr:stedsnr" v="77268" />
	</node>
	<node id="9842201063" lat="68.2803556" lon="14.7268168" version="1" timestamp="2022-06-23T17:30:23Z" changeset="122768702" uid="3497659" user="NKA">
		<tag k="name" v="Følstadvika" />
		<tag k="place" v="farm" />
		<tag k="ssr:stedsnr" v="684596" />
	</node>
	<node id="9842201064" lat="68.2393171" lon="14.6438509" version="1" timestamp="2022-06-23T17:30:23Z" changeset="122768702" uid="3497659" user="NKA">
		<tag k="name" v="Børvågen" />
		<tag k="place" v="farm" />
		<tag k="ssr:stedsnr" v="684269" />
	</node>
	<node id="9842201065" lat="68.3472239" lon="15.2372142" version="1" timestamp="2022-06-23T17:30:23Z" changeset="122768702" uid="3497659" user="NKA">
		<tag k="name" v="Tortenbakkan" />
		<tag k="place" v="farm" />
		<tag k="ssr:stedsnr" v="867970" />
	</node>
	<node id="9842201066" lat="68.2797694" lon="14.7242584" version="1" timestamp="2022-06-23T17:30:23Z" changeset="122768702" uid="3497659" user="NKA">
		<tag k="name" v="Nord Følstad" />
		<tag k="place" v="farm" />
		<tag k="ssr:stedsnr" v="168117" />
	</node>
	<node id="9842201067" lat="68.3256552" lon="14.3987889" version="1" timestamp="2022-06-23T17:30:23Z" changeset="122768702" uid="3497659" user="NKA">
		<tag k="alt_name" v="Sundlandsfjord" />
		<tag k="name" v="Sunnlandsfjorden" />
		<tag k="place" v="farm" />
		<tag k="ssr:stedsnr" v="441084" />
	</node>
	<node id="9842201068" lat="68.2197833" lon="14.766725" version="1" timestamp="2022-06-23T17:30:23Z" changeset="122768702" uid="3497659" user="NKA">
		<tag k="name" v="Helland" />
		<tag k="place" v="locality" />
		<tag k="ssr:stedsnr" v="17256" />
	</node>
	<node id="9842201069" lat="68.354675" lon="14.4478861" version="1" timestamp="2022-06-23T17:30:23Z" changeset="122768702" uid="3497659" user="NKA">
		<tag k="name" v="Rundhaugen" />
		<tag k="place" v="isolated_dwelling" />
		<tag k="ssr:stedsnr" v="725713" />
	</node>
	<node id="9842201070" lat="68.2771278" lon="14.7276057" version="1" timestamp="2022-06-23T17:30:23Z" changeset="122768702" uid="3497659" user="NKA">
		<tag k="name" v="Sør Følstad" />
		<tag k="place" v="farm" />
		<tag k="ssr:stedsnr" v="927610" />
	</node>
	<node id="9842201071" lat="68.2689834" lon="14.2488057" version="1" timestamp="2022-06-23T17:30:23Z" changeset="122768702" uid="3497659" user="NKA">
		<tag k="alt_name" v="Indre Bardstrand;Bardstrand, in" />
		<tag k="name" v="Indre Barstrand" />
		<tag k="place" v="farm" />
		<tag k="ssr:stedsnr" v="199240" />
	</node>
	<node id="9842201072" lat="68.1649401" lon="14.6496668" version="1" timestamp="2022-06-23T17:30:23Z" changeset="122768702" uid="3497659" user="NKA">
		<tag k="name" v="Skrova" />
		<tag k="place" v="locality" />
		<tag k="ssr:stedsnr" v="1076134" />
	</node>
	<node id="9842201073" lat="68.1947445" lon="14.3355527" version="1" timestamp="2022-06-23T17:30:23Z" changeset="122768702" uid="3497659" user="NKA">
		<tag k="name" v="Austre Kalle" />
		<tag k="place" v="farm" />
		<tag k="ssr:stedsnr" v="224605" />
	</node>
	<node id="9842201074" lat="68.1855049" lon="14.743719" version="1" timestamp="2022-06-23T17:30:23Z" changeset="122768702" uid="3497659" user="NKA">
		<tag k="name" v="Gulbrandsøya" />
		<tag k="place" v="farm" />
		<tag k="ssr:stedsnr" v="1076132" />
	</node>
	<node id="9842201075" lat="68.3235167" lon="14.5289611" version="1" timestamp="2022-06-23T17:30:23Z" changeset="122768702" uid="3497659" user="NKA">
		<tag k="name" v="Indreidet" />
		<tag k="place" v="farm" />
		<tag k="ssr:stedsnr" v="502418" />
	</node>
	<node id="9842201076" lat="68.2694879" lon="14.1643343" version="1" timestamp="2022-06-23T17:30:23Z" changeset="122768702" uid="3497659" user="NKA">
		<tag k="alt_name" v="Sundklakkhamnen" />
		<tag k="name" v="Hamnen" />
		<tag k="place" v="farm" />
		<tag k="ssr:stedsnr" v="138243" />
	</node>
	<node id="9842201077" lat="68.190514" lon="14.3358165" version="1" timestamp="2022-06-23T17:30:23Z" changeset="122768702" uid="3497659" user="NKA">
		<tag k="name" v="Kalle" />
		<tag k="place" v="farm" />
		<tag k="ssr:stedsnr" v="563381" />
	</node>
	<node id="9842201078" lat="68.2469528" lon="14.5720612" version="1" timestamp="2022-06-23T17:30:23Z" changeset="122768702" uid="3497659" user="NKA">
		<tag k="name" v="Melkardalen" />
		<tag k="place" v="farm" />
		<tag k="ssr:stedsnr" v="259349" />
	</node>
	<node id="9842201079" lat="68.2853584" lon="14.8425249" version="1" timestamp="2022-06-23T17:30:23Z" changeset="122768702" uid="3497659" user="NKA">
		<tag k="alt_name" v="Mellagården" />
		<tag k="name" v="Mellomgården" />
		<tag k="place" v="farm" />
		<tag k="ssr:stedsnr" v="77630" />
	</node>
	<node id="9842201080" lat="68.2299527" lon="14.5386422" version="1" timestamp="2022-06-23T17:30:23Z" changeset="122768702" uid="3497659" user="NKA">
		<tag k="name" v="Tankanlegg" />
		<tag k="place" v="neighbourhood" />
		<tag k="ssr:stedsnr" v="359856" />
	</node>
	<node id="9842201081" lat="68.3232716" lon="14.1101794" version="1" timestamp="2022-06-23T17:30:23Z" changeset="122768702" uid="3497659" user="NKA">
		<tag k="name" v="Vik" />
		<tag k="place" v="hamlet" />
		<tag k="ssr:stedsnr" v="259076" />
	</node>
	<node id="9842201082" lat="68.3086133" lon="15.0696325" version="1" timestamp="2022-06-23T17:30:23Z" changeset="122768702" uid="3497659" user="NKA">
		<tag k="name" v="Nergård" />
		<tag k="place" v="farm" />
		<tag k="ssr:stedsnr" v="451658" />
	</node>
	<node id="9842201083" lat="68.2507143" lon="14.2983017" version="1" timestamp="2022-06-23T17:30:23Z" changeset="122768702" uid="3497659" user="NKA">
		<tag k="name" v="Moen" />
		<tag k="place" v="farm" />
		<tag k="ssr:stedsnr" v="229942" />
	</node>
	<node id="9842201084" lat="68.2789805" lon="14.2582584" version="1" timestamp="2022-06-23T17:30:23Z" changeset="122768702" uid="3497659" user="NKA">
		<tag k="name" v="Mellombarstrand" />
		<tag k="place" v="farm" />
		<tag k="ssr:stedsnr" v="241305" />
	</node>
	<node id="9842201085" lat="68.3092813" lon="14.9130433" version="1" timestamp="2022-06-23T17:30:23Z" changeset="122768702" uid="3497659" user="NKA">
		<tag k="name" v="Slåttholmen" />
		<tag k="place" v="farm" />
		<tag k="ssr:stedsnr" v="623528" />
	</node>
	<node id="9842201086" lat="68.2386186" lon="14.5345376" version="1" timestamp="2022-06-23T17:30:23Z" changeset="122768702" uid="3497659" user="NKA">
		<tag k="name" v="Leirosen" />
		<tag k="place" v="farm" />
		<tag k="ssr:stedsnr" v="238894" />
	</node>
	<node id="9842201087" lat="68.3223222" lon="14.6460668" version="1" timestamp="2022-06-23T17:30:23Z" changeset="122768702" uid="3497659" user="NKA">
		<tag k="name" v="Vestpollmarka" />
		<tag k="place" v="isolated_dwelling" />
		<tag k="ssr:stedsnr" v="502411" />
	</node>
	<node id="9842201088" lat="68.254469" lon="14.3253598" version="1" timestamp="2022-06-23T17:30:23Z" changeset="122768702" uid="3497659" user="NKA">
		<tag k="name" v="Vollan" />
		<tag k="place" v="farm" />
		<tag k="ssr:stedsnr" v="137105" />
	</node>
	<node id="9842201089" lat="68.3187222" lon="14.7084973" version="1" timestamp="2022-06-23T17:30:23Z" changeset="122768702" uid="3497659" user="NKA">
		<tag k="name" v="Jensplassen" />
		<tag k="place" v="locality" />
		<tag k="ssr:stedsnr" v="331416" />
	</node>
	<node id="9842201090" lat="68.2173111" lon="14.4430584" version="1" timestamp="2022-06-23T17:30:23Z" changeset="122768702" uid="3497659" user="NKA">
		<tag k="name" v="Solbakken" />
		<tag k="place" v="farm" />
		<tag k="ssr:stedsnr" v="381211" />
	</node>
	<node id="9842201091" lat="68.3308278" lon="14.5120222" version="1" timestamp="2022-06-23T17:30:23Z" changeset="122768702" uid="3497659" user="NKA">
		<tag k="name" v="Sandsletta" />
		<tag k="place" v="farm" />
		<tag k="ssr:stedsnr" v="163896" />
	</node>
	<node id="9842201092" lat="68.2390222" lon="14.4916278" version="1" timestamp="2022-06-23T17:30:23Z" changeset="122768702" uid="3497659" user="NKA">
		<tag k="name" v="Skogstua" />
		<tag k="place" v="isolated_dwelling" />
		<tag k="ssr:stedsnr" v="204833" />
	</node>
	<node id="9842201093" lat="68.1712517" lon="14.6869608" version="1" timestamp="2022-06-23T17:30:23Z" changeset="122768702" uid="3497659" user="NKA">
		<tag k="name" v="Capri" />
		<tag k="place" v="isolated_dwelling" />
		<tag k="ssr:stedsnr" v="88919" />
	</node>
	<node id="9842201094" lat="68.322075" lon="14.5011555" version="1" timestamp="2022-06-23T17:30:23Z" changeset="122768702" uid="3497659" user="NKA">
		<tag k="name" v="Løvland" />
		<tag k="place" v="farm" />
		<tag k="ssr:stedsnr" v="138551" />
	</node>
	<node id="9842201095" lat="68.1866918" lon="14.3400254" version="1" timestamp="2022-06-23T17:30:23Z" changeset="122768702" uid="3497659" user="NKA">
		<tag k="alt_name" v="Kalle" />
		<tag k="name" v="Vestre Kalle" />
		<tag k="place" v="farm" />
		<tag k="ssr:stedsnr" v="17408" />
	</node>
	<node id="9842201096" lat="68.3554669" lon="14.7470233" version="1" timestamp="2022-06-23T17:30:23Z" changeset="122768702" uid="3497659" user="NKA">
		<tag k="alt_name" v="Higravseidet" />
		<tag k="name" v="Eide" />
		<tag k="place" v="quarter" />
		<tag k="ssr:stedsnr" v="381471" />
	</node>
	<node id="9842201097" lat="68.2436165" lon="14.28491" version="1" timestamp="2022-06-23T17:30:23Z" changeset="122768702" uid="3497659" user="NKA">
		<tag k="name" v="Haugen" />
		<tag k="place" v="farm" />
		<tag k="ssr:stedsnr" v="1076136" />
	</node>
	<node id="9842201098" lat="68.305936" lon="15.068532" version="1" timestamp="2022-06-23T17:30:23Z" changeset="122768702" uid="3497659" user="NKA">
		<tag k="name" v="Mellanåsen" />
		<tag k="place" v="farm" />
		<tag k="ssr:stedsnr" v="936644" />
	</node>
	<node id="9842201099" lat="68.2518531" lon="14.3095139" version="1" timestamp="2022-06-23T17:30:23Z" changeset="122768702" uid="3497659" user="NKA">
		<tag k="alt_name" v="Olderfjord" />
		<tag k="name" v="Olderfjorden" />
		<tag k="place" v="farm" />
		<tag k="ssr:stedsnr" v="198119" />
	</node>
	<node id="9842201100" lat="68.3241147" lon="14.5105956" version="1" timestamp="2022-06-23T17:30:23Z" changeset="122768702" uid="3497659" user="NKA">
		<tag k="name" v="Ytreidet" />
		<tag k="place" v="farm" />
		<tag k="ssr:stedsnr" v="17444" />
	</node>
	<node id="9842201101" lat="68.3525425" lon="14.7454735" version="1" timestamp="2022-06-23T17:30:23Z" changeset="122768702" uid="3497659" user="NKA">
		<tag k="name" v="Varden" />
		<tag k="place" v="farm" />
		<tag k="ssr:stedsnr" v="106622" />
	</node>
	<node id="9842201102" lat="68.3933125" lon="14.4662723" version="1" timestamp="2022-06-23T17:30:23Z" changeset="122768702" uid="3497659" user="NKA">
		<tag k="name" v="Straumnes" />
		<tag k="place" v="quarter" />
		<tag k="ssr:stedsnr" v="17330" />
	</node>
	<node id="9842201103" lat="68.2410089" lon="14.7996598" version="1" timestamp="2022-06-23T17:30:23Z" changeset="122768702" uid="3497659" user="NKA">
		<tag k="name" v="Haversand" />
		<tag k="place" v="farm" />
		<tag k="ssr:stedsnr" v="684294" />
	</node>
	<node id="9842201104" lat="68.2969611" lon="14.2674418" version="1" timestamp="2022-06-23T17:30:23Z" changeset="122768702" uid="3497659" user="NKA">
		<tag k="name" v="Indre Gimsøysand" />
		<tag k="place" v="farm" />
		<tag k="ssr:stedsnr" v="770309" />
	</node>
	<node id="9842201105" lat="68.2982528" lon="14.8519167" version="1" timestamp="2022-06-23T17:30:23Z" changeset="122768702" uid="3497659" user="NKA">
		<tag k="name" v="Rekneset" />
		<tag k="place" v="farm" />
		<tag k="ssr:stedsnr" v="562512" />
	</node>
	<node id="9842201106" lat="68.2330179" lon="14.8195394" version="1" timestamp="2022-06-23T17:30:23Z" changeset="122768702" uid="3497659" user="NKA">
		<tag k="name" v="Våtvika" />
		<tag k="place" v="farm" />
		<tag k="ssr:stedsnr" v="339944" />
	</node>
	<node id="9842201107" lat="68.3186667" lon="14.5543666" version="1" timestamp="2022-06-23T17:30:23Z" changeset="122768702" uid="3497659" user="NKA">
		<tag k="name" v="Nilsjorda" />
		<tag k="place" v="isolated_dwelling" />
		<tag k="ssr:stedsnr" v="867545" />
	</node>
	<node id="9842201108" lat="68.2837694" lon="14.1995167" version="1" timestamp="2022-06-23T17:30:23Z" changeset="122768702" uid="3497659" user="NKA">
		<tag k="name" v="Jenndalen" />
		<tag k="place" v="farm" />
		<tag k="ssr:stedsnr" v="623074" />
	</node>
	<node id="9842201109" lat="68.2686611" lon="15.0168557" version="1" timestamp="2022-06-23T17:30:23Z" changeset="122768702" uid="3497659" user="NKA">
		<tag k="name" v="Damman" />
		<tag k="place" v="farm" />
		<tag k="ssr:stedsnr" v="571173" />
	</node>
	<node id="9842201110" lat="68.2714303" lon="15.0090002" version="1" timestamp="2022-06-23T17:30:23Z" changeset="122768702" uid="3497659" user="NKA">
		<tag k="name" v="Øvre Årstein" />
		<tag k="place" v="farm" />
		<tag k="ssr:stedsnr" v="279989" />
	</node>
	<node id="9842201111" lat="68.3020314" lon="15.0681941" version="1" timestamp="2022-06-23T17:30:23Z" changeset="122768702" uid="3497659" user="NKA">
		<tag k="name" v="Fagerbakken" />
		<tag k="place" v="farm" />
		<tag k="ssr:stedsnr" v="632608" />
	</node>
	<node id="9842201112" lat="68.2174242" lon="14.8012395" version="1" timestamp="2022-06-23T17:30:23Z" changeset="122768702" uid="3497659" user="NKA">
		<tag k="name" v="Vikan" />
		<tag k="place" v="farm" />
		<tag k="ssr:stedsnr" v="867241" />
	</node>
	<node id="9842201113" lat="68.2363171" lon="14.8142516" version="1" timestamp="2022-06-23T17:30:23Z" changeset="122768702" uid="3497659" user="NKA">
		<tag k="name" v="Valvollen" />
		<tag k="place" v="farm" />
		<tag k="ssr:stedsnr" v="866270" />
	</node>
	<node id="9842201114" lat="68.2647305" lon="14.2442721" version="1" timestamp="2022-06-23T17:30:23Z" changeset="122768702" uid="3497659" user="NKA">
		<tag k="name" v="Plassan" />
		<tag k="place" v="locality" />
		<tag k="ssr:stedsnr" v="446154" />
	</node>
	<node id="9842201115" lat="68.3185111" lon="14.6252166" version="1" timestamp="2022-06-23T17:30:23Z" changeset="122768702" uid="3497659" user="NKA">
		<tag k="alt_name" v="Mørkmyra" />
		<tag k="name" v="Mørkamyran" />
		<tag k="place" v="farm" />
		<tag k="ssr:stedsnr" v="138543" />
	</node>
	<node id="9842201116" lat="68.2707278" lon="15.0233" version="1" timestamp="2022-06-23T17:30:23Z" changeset="122768702" uid="3497659" user="NKA">
		<tag k="alt_name" v="Trollskardet" />
		<tag k="name" v="Trollskaret" />
		<tag k="place" v="farm" />
		<tag k="ssr:stedsnr" v="77097" />
	</node>
	<node id="9842201117" lat="68.3094017" lon="14.9935968" version="1" timestamp="2022-06-23T17:30:23Z" changeset="122768702" uid="3497659" user="NKA">
		<tag k="name" v="Myrvoll" />
		<tag k="place" v="farm" />
		<tag k="ssr:stedsnr" v="562493" />
	</node>
	<node id="9842201118" lat="68.3046925" lon="15.1022107" version="1" timestamp="2022-06-23T17:30:23Z" changeset="122768702" uid="3497659" user="NKA">
		<tag k="name" v="Vika" />
		<tag k="place" v="farm" />
		<tag k="ssr:stedsnr" v="87689" />
	</node>
	<node id="9842201119" lat="68.2825278" lon="14.8371694" version="1" timestamp="2022-06-23T17:30:23Z" changeset="122768702" uid="3497659" user="NKA">
		<tag k="alt_name" v="Yttergården" />
		<tag k="name" v="Ytregården" />
		<tag k="place" v="farm" />
		<tag k="ssr:stedsnr" v="441614" />
	</node>
	<node id="9842201120" lat="68.3361694" lon="14.7148611" version="1" timestamp="2022-06-23T17:30:23Z" changeset="122768702" uid="3497659" user="NKA">
		<tag k="name" v="Mettesnes" />
		<tag k="place" v="farm" />
		<tag k="ssr:stedsnr" v="138425" />
	</node>
	<node id="9842201121" lat="68.2971241" lon="15.0598287" version="1" timestamp="2022-06-23T17:30:23Z" changeset="122768702" uid="3497659" user="NKA">
		<tag k="alt_name" v="Pundslett" />
		<tag k="name" v="Pundsletta" />
		<tag k="place" v="hamlet" />
		<tag k="ssr:stedsnr" v="502066" />
	</node>
	<node id="9842201122" lat="68.2691083" lon="15.0133334" version="1" timestamp="2022-06-23T17:30:23Z" changeset="122768702" uid="3497659" user="NKA">
		<tag k="name" v="Nergården" />
		<tag k="place" v="farm" />
		<tag k="ssr:stedsnr" v="86190" />
	</node>
	<node id="9842201123" lat="68.3367187" lon="15.21153" version="1" timestamp="2022-06-23T17:30:23Z" changeset="122768702" uid="3497659" user="NKA">
		<tag k="name" v="Skogholt" />
		<tag k="place" v="farm" />
		<tag k="ssr:stedsnr" v="17963" />
	</node>
	<node id="9842201124" lat="68.1666659" lon="14.6617778" version="1" timestamp="2022-06-23T17:30:23Z" changeset="122768702" uid="3497659" user="NKA">
		<tag k="name" v="Heimværet" />
		<tag k="place" v="locality" />
		<tag k="ssr:stedsnr" v="331150" />
	</node>
	<node id="9842201125" lat="68.3249513" lon="15.1780879" version="1" timestamp="2022-06-23T17:30:23Z" changeset="122768702" uid="3497659" user="NKA">
		<tag k="name" v="Fjellheim" />
		<tag k="place" v="farm" />
		<tag k="ssr:stedsnr" v="320957" />
	</node>
	<node id="9842201126" lat="68.2092305" lon="14.4171667" version="1" timestamp="2022-06-23T17:30:23Z" changeset="122768702" uid="3497659" user="NKA">
		<tag k="name" v="Øra" />
		<tag k="place" v="farm" />
		<tag k="ssr:stedsnr" v="932803" />
	</node>
	<node id="9842201127" lat="68.2063438" lon="14.4265579" version="1" timestamp="2022-06-23T17:30:23Z" changeset="122768702" uid="3497659" user="NKA">
		<tag k="name" v="Ørsvågvær" />
		<tag k="place" v="hamlet" />
		<tag k="ssr:stedsnr" v="810846" />
	</node>
	<node id="9842201128" lat="68.2831517" lon="14.6673425" version="1" timestamp="2022-06-23T17:30:23Z" changeset="122768702" uid="3497659" user="NKA">
		<tag k="name" v="Sjøvold" />
		<tag k="place" v="farm" />
		<tag k="ssr:stedsnr" v="768837" />
	</node>
	<node id="9842201129" lat="68.2066666" lon="14.4281806" version="1" timestamp="2022-06-23T17:30:23Z" changeset="122768702" uid="3497659" user="NKA">
		<tag k="name" v="Smedplassen" />
		<tag k="place" v="farm" />
		<tag k="ssr:stedsnr" v="871800" />
	</node>
	<node id="9842201130" lat="68.271259" lon="15.0155702" version="1" timestamp="2022-06-23T17:30:23Z" changeset="122768702" uid="3497659" user="NKA">
		<tag k="alt_name" v="Årsteinen" />
		<tag k="name" v="Årstein" />
		<tag k="place" v="farm" />
		<tag k="ssr:stedsnr" v="199596" />
	</node>
	<node id="9842201131" lat="68.2897556" lon="14.2685194" version="1" timestamp="2022-06-23T17:30:23Z" changeset="122768702" uid="3497659" user="NKA">
		<tag k="name" v="Ytterjorda" />
		<tag k="place" v="farm" />
		<tag k="ssr:stedsnr" v="848335" />
	</node>
	<node id="9842201132" lat="68.2419055" lon="14.5210499" version="1" timestamp="2022-06-23T17:30:23Z" changeset="122768702" uid="3497659" user="NKA">
		<tag k="name" v="Kongsmarka" />
		<tag k="place" v="farm" />
		<tag k="ssr:stedsnr" v="745386" />
	</node>
	<node id="9842201133" lat="68.3016305" lon="15.0935056" version="1" timestamp="2022-06-23T17:30:23Z" changeset="122768702" uid="3497659" user="NKA">
		<tag k="name" v="Steinsvik" />
		<tag k="place" v="farm" />
		<tag k="ssr:stedsnr" v="704245" />
	</node>
	<node id="9842201134" lat="68.2525917" lon="14.5057194" version="1" timestamp="2022-06-23T17:30:23Z" changeset="122768702" uid="3497659" user="NKA">
		<tag k="name" v="Nøkkstua" />
		<tag k="place" v="isolated_dwelling" />
		<tag k="ssr:stedsnr" v="684647" />
	</node>
	<node id="9842201135" lat="68.3172195" lon="14.4952582" version="1" timestamp="2022-06-23T17:30:23Z" changeset="122768702" uid="3497659" user="NKA">
		<tag k="name" v="Haugen" />
		<tag k="place" v="farm" />
		<tag k="ssr:stedsnr" v="684540" />
	</node>
	<node id="9842201136" lat="68.1673306" lon="14.6841444" version="1" timestamp="2022-06-23T17:30:23Z" changeset="122768702" uid="3497659" user="NKA">
		<tag k="name" v="Alfheim" />
		<tag k="place" v="farm" />
		<tag k="ssr:stedsnr" v="634941" />
	</node>
	<node id="9842201137" lat="68.3020028" lon="15.0233111" version="1" timestamp="2022-06-23T17:30:23Z" changeset="122768702" uid="3497659" user="NKA">
		<tag k="name" v="Valen" />
		<tag k="place" v="hamlet" />
		<tag k="ssr:stedsnr" v="503429" />
	</node>
	<node id="9842201138" lat="68.3032625" lon="15.0892826" version="1" timestamp="2022-06-23T17:30:23Z" changeset="122768702" uid="3497659" user="NKA">
		<tag k="name" v="Fagerhaug" />
		<tag k="place" v="farm" />
		<tag k="ssr:stedsnr" v="511605" />
	</node>
	<node id="9842201139" lat="68.3362973" lon="14.5053751" version="1" timestamp="2022-06-23T17:30:23Z" changeset="122768702" uid="3497659" user="NKA">
		<tag k="name" v="Sandsletta" />
		<tag k="place" v="hamlet" />
		<tag k="ssr:stedsnr" v="927441" />
	</node>
	<node id="9842201140" lat="68.3067715" lon="15.069845" version="1" timestamp="2022-06-23T17:30:23Z" changeset="122768702" uid="3497659" user="NKA">
		<tag k="alt_name" v="Øveråsen" />
		<tag k="name" v="Åsen" />
		<tag k="place" v="farm" />
		<tag k="ssr:stedsnr" v="502049" />
	</node>
	<node id="9842201141" lat="68.2186481" lon="14.7978329" version="1" timestamp="2022-06-23T17:30:23Z" changeset="122768702" uid="3497659" user="NKA">
		<tag k="name" v="Tørrvikan" />
		<tag k="place" v="farm" />
		<tag k="ssr:stedsnr" v="502184" />
	</node>
	<node id="9842201142" lat="68.2934255" lon="14.8691994" version="1" timestamp="2022-06-23T17:30:23Z" changeset="122768702" uid="3497659" user="NKA">
		<tag k="alt_name" v="Øyhelle" />
		<tag k="name" v="Øyhell" />
		<tag k="place" v="farm" />
		<tag k="ssr:stedsnr" v="562597" />
	</node>
	<node id="9842201143" lat="68.3145077" lon="14.9909803" version="1" timestamp="2022-06-23T17:30:23Z" changeset="122768702" uid="3497659" user="NKA">
		<tag k="name" v="Haugen" />
		<tag k="place" v="farm" />
		<tag k="ssr:stedsnr" v="328065" />
	</node>
	<node id="9842201144" lat="68.3312617" lon="15.192439" version="1" timestamp="2022-06-23T17:30:23Z" changeset="122768702" uid="3497659" user="NKA">
		<tag k="name" v="Myrvika" />
		<tag k="place" v="farm" />
		<tag k="ssr:stedsnr" v="320959" />
	</node>
	<node id="9842201145" lat="68.3495657" lon="14.7452701" version="1" timestamp="2022-06-23T17:30:23Z" changeset="122768702" uid="3497659" user="NKA">
		<tag k="alt_name" v="Skjennvollen" />
		<tag k="name" v="Skinvollen" />
		<tag k="place" v="farm" />
		<tag k="ssr:stedsnr" v="684394" />
	</node>
	<node id="9842201146" lat="68.3315611" lon="15.0209443" version="1" timestamp="2022-06-23T17:30:23Z" changeset="122768702" uid="3497659" user="NKA">
		<tag k="name" v="Kjellarneset" />
		<tag k="old_name" v="SKELDERNES" />
		<tag k="place" v="farm" />
		<tag k="ssr:stedsnr" v="137943" />
	</node>
	<node id="9842201147" lat="68.2380611" lon="14.5559334" version="1" timestamp="2022-06-23T17:30:23Z" changeset="122768702" uid="3497659" user="NKA">
		<tag k="name" v="Solheim" />
		<tag k="place" v="neighbourhood" />
		<tag k="ssr:stedsnr" v="446866" />
	</node>
	<node id="9842201148" lat="68.3173639" lon="14.9956279" version="1" timestamp="2022-06-23T17:30:23Z" changeset="122768702" uid="3497659" user="NKA">
		<tag k="name" v="Gjerdet" />
		<tag k="place" v="farm" />
		<tag k="ssr:stedsnr" v="78547" />
	</node>
	<node id="9842201149" lat="68.3206083" lon="15.0001696" version="1" timestamp="2022-06-23T17:30:23Z" changeset="122768702" uid="3497659" user="NKA">
		<tag k="name" v="Osen" />
		<tag k="place" v="farm" />
		<tag k="ssr:stedsnr" v="78546" />
	</node>
	<node id="9842201150" lat="68.1670167" lon="14.6838805" version="1" timestamp="2022-06-23T17:30:23Z" changeset="122768702" uid="3497659" user="NKA">
		<tag k="name" v="Solvang" />
		<tag k="place" v="farm" />
		<tag k="ssr:stedsnr" v="684163" />
	</node>
	<node id="9842201151" lat="68.3294986" lon="14.0922829" version="1" timestamp="2022-06-23T17:30:23Z" changeset="122768702" uid="3497659" user="NKA">
		<tag k="alt_name" v="Panserholmen" />
		<tag k="name" v="Pannsarholmen" />
		<tag k="place" v="farm" />
		<tag k="ssr:stedsnr" v="927069" />
	</node>
	<node id="9842201152" lat="68.2456467" lon="14.3265534" version="1" timestamp="2022-06-23T17:30:23Z" changeset="122768702" uid="3497659" user="NKA">
		<tag k="name" v="Jorden" />
		<tag k="place" v="farm" />
		<tag k="ssr:stedsnr" v="745502" />
	</node>
	<node id="9842201153" lat="68.298493" lon="14.8721957" version="1" timestamp="2022-06-23T17:30:23Z" changeset="122768702" uid="3497659" user="NKA">
		<tag k="name" v="Sjøtun" />
		<tag k="place" v="farm" />
		<tag k="ssr:stedsnr" v="484226" />
	</node>
	<node id="9842201154" lat="68.3271334" lon="14.1003167" version="1" timestamp="2022-06-23T17:30:23Z" changeset="122768702" uid="3497659" user="NKA">
		<tag k="name" v="Kjerringmyra" />
		<tag k="place" v="farm" />
		<tag k="ssr:stedsnr" v="805093" />
	</node>
	<node id="9842201155" lat="68.2856222" lon="14.1572584" version="1" timestamp="2022-06-23T17:30:23Z" changeset="122768702" uid="3497659" user="NKA">
		<tag k="name" v="Elvebakken" />
		<tag k="place" v="farm" />
		<tag k="ssr:stedsnr" v="604478" />
	</node>
	<node id="9842201156" lat="68.3239805" lon="14.6767778" version="1" timestamp="2022-06-23T17:30:23Z" changeset="122768702" uid="3497659" user="NKA">
		<tag k="name" v="Farsvika" />
		<tag k="place" v="isolated_dwelling" />
		<tag k="ssr:stedsnr" v="908866" />
	</node>
	<node id="9842201157" lat="68.1999953" lon="14.3885443" version="1" timestamp="2022-06-23T17:30:23Z" changeset="122768702" uid="3497659" user="NKA">
		<tag k="name" v="Ørsnes" />
		<tag k="place" v="quarter" />
		<tag k="ssr:stedsnr" v="320479" />
	</node>
	<node id="9842201158" lat="68.3371417" lon="14.7453611" version="1" timestamp="2022-06-23T17:30:23Z" changeset="122768702" uid="3497659" user="NKA">
		<tag k="name" v="Liland" />
		<tag k="place" v="hamlet" />
		<tag k="ssr:stedsnr" v="806412" />
	</node>
	<node id="9842201159" lat="68.2917389" lon="14.2692805" version="1" timestamp="2022-06-23T17:30:23Z" changeset="122768702" uid="3497659" user="NKA">
		<tag k="alt_name" v="Bardstrand, yt;Ytre Bardstrand" />
		<tag k="name" v="Ytre Barstrand" />
		<tag k="place" v="hamlet" />
		<tag k="ssr:stedsnr" v="927207" />
	</node>
	<node id="9842201160" lat="68.3402" lon="14.3334911" version="1" timestamp="2022-06-23T17:30:23Z" changeset="122768702" uid="3497659" user="NKA">
		<tag k="name" v="Litlfestvåg" />
		<tag k="place" v="farm" />
		<tag k="ssr:stedsnr" v="684879" />
	</node>
	<node id="9842201161" lat="68.2429758" lon="14.314726" version="1" timestamp="2022-06-23T17:30:23Z" changeset="122768702" uid="3497659" user="NKA">
		<tag k="name" v="Litlhaugen" />
		<tag k="place" v="farm" />
		<tag k="ssr:stedsnr" v="17529" />
	</node>
	<node id="9842201162" lat="68.2321003" lon="14.5329194" version="1" timestamp="2022-06-23T17:30:23Z" changeset="122768702" uid="3497659" user="NKA">
		<tag k="name" v="Osan" />
		<tag k="place" v="quarter" />
		<tag k="ssr:stedsnr" v="259263" />
	</node>
	<node id="9842201163" lat="68.2524139" lon="14.3171166" version="1" timestamp="2022-06-23T17:30:23Z" changeset="122768702" uid="3497659" user="NKA">
		<tag k="name" v="Ytregård" />
		<tag k="place" v="farm" />
		<tag k="ssr:stedsnr" v="168947" />
	</node>
	<node id="9842201164" lat="68.2941212" lon="14.8683569" version="1" timestamp="2022-06-23T17:30:23Z" changeset="122768702" uid="3497659" user="NKA">
		<tag k="name" v="Myrvang" />
		<tag k="place" v="farm" />
		<tag k="ssr:stedsnr" v="666255" />
	</node>
	<node id="9842201165" lat="68.3010324" lon="14.8874088" version="1" timestamp="2022-06-23T17:30:23Z" changeset="122768702" uid="3497659" user="NKA">
		<tag k="name" v="Nordli" />
		<tag k="place" v="farm" />
		<tag k="ssr:stedsnr" v="727248" />
	</node>
	<node id="9842201166" lat="68.2924348" lon="14.863639" version="1" timestamp="2022-06-23T17:30:23Z" changeset="122768702" uid="3497659" user="NKA">
		<tag k="name" v="Rydningen" />
		<tag k="place" v="farm" />
		<tag k="ssr:stedsnr" v="423253" />
	</node>
	<node id="9842201167" lat="68.3504766" lon="15.2399881" version="1" timestamp="2022-06-23T17:30:23Z" changeset="122768702" uid="3497659" user="NKA">
		<tag k="name" v="Bjørnvika" />
		<tag k="place" v="farm" />
		<tag k="ssr:stedsnr" v="381908" />
	</node>
	<node id="9842201168" lat="68.2895111" lon="14.8540777" version="1" timestamp="2022-06-23T17:30:23Z" changeset="122768702" uid="3497659" user="NKA">
		<tag k="alt_name" v="Nordgården" />
		<tag k="name" v="Nordmarka" />
		<tag k="place" v="farm" />
		<tag k="ssr:stedsnr" v="442596" />
	</node>
	<node id="9842201169" lat="68.2080959" lon="14.7884535" version="1" timestamp="2022-06-23T17:30:23Z" changeset="122768702" uid="3497659" user="NKA">
		<tag k="name" v="Bjørndalen" />
		<tag k="place" v="locality" />
		<tag k="ssr:stedsnr" v="1076128" />
	</node>
	<node id="9842201170" lat="68.3296756" lon="14.3363611" version="1" timestamp="2022-06-23T17:30:23Z" changeset="122768702" uid="3497659" user="NKA">
		<tag k="alt_name" v="Brenna, n;Nord Brenna" />
		<tag k="name" v="Nordre Brenna" />
		<tag k="place" v="farm" />
		<tag k="ssr:stedsnr" v="199122" />
	</node>
	<node id="9842201171" lat="68.2418795" lon="14.5243937" version="1" timestamp="2022-06-23T17:30:23Z" changeset="122768702" uid="3497659" user="NKA">
		<tag k="name" v="Åslia" />
		<tag k="place" v="farm" />
		<tag k="ssr:stedsnr" v="507860" />
	</node>
	<node id="9842201172" lat="68.305775" lon="14.9001665" version="1" timestamp="2022-06-23T17:30:23Z" changeset="122768702" uid="3497659" user="NKA">
		<tag k="name" v="Øyhellehamnen" />
		<tag k="place" v="farm" />
		<tag k="ssr:stedsnr" v="441500" />
	</node>
	<node id="9842201173" lat="68.2118512" lon="14.4850005" version="1" timestamp="2022-06-23T17:30:23Z" changeset="122768702" uid="3497659" user="NKA">
		<tag k="name" v="Finneset" />
		<tag k="place" v="locality" />
		<tag k="ssr:stedsnr" v="1076110" />
	</node>
	<node id="9842201174" lat="68.2438083" lon="14.546636" version="1" timestamp="2022-06-23T17:30:23Z" changeset="122768702" uid="3497659" user="NKA">
		<tag k="name" v="Stranda" />
		<tag k="place" v="neighbourhood" />
		<tag k="ssr:stedsnr" v="927370" />
	</node>
	<node id="9842201175" lat="68.3184695" lon="14.7494416" version="1" timestamp="2022-06-23T17:30:23Z" changeset="122768702" uid="3497659" user="NKA">
		<tag k="name" v="Knutgamman" />
		<tag k="place" v="locality" />
		<tag k="ssr:stedsnr" v="392455" />
	</node>
	<node id="9842201176" lat="68.3254876" lon="14.6858036" version="1" timestamp="2022-06-23T17:30:23Z" changeset="122768702" uid="3497659" user="NKA">
		<tag k="alt_name" v="Jordnes" />
		<tag k="name" v="Jordneset" />
		<tag k="place" v="farm" />
		<tag k="ssr:stedsnr" v="381414" />
	</node>
	<node id="9842201177" lat="68.3075616" lon="14.9910386" version="1" timestamp="2022-06-23T17:30:23Z" changeset="122768702" uid="3497659" user="NKA">
		<tag k="name" v="Solstad" />
		<tag k="place" v="farm" />
		<tag k="ssr:stedsnr" v="389057" />
	</node>
	<node id="9842201178" lat="68.1988645" lon="14.777282" version="1" timestamp="2022-06-23T17:30:23Z" changeset="122768702" uid="3497659" user="NKA">
		<tag k="name" v="Haverdal" />
		<tag k="place" v="locality" />
		<tag k="ssr:stedsnr" v="623155" />
	</node>
	<node id="9842201179" lat="68.2506067" lon="14.663934" version="1" timestamp="2022-06-23T17:30:23Z" changeset="122768702" uid="3497659" user="NKA">
		<tag k="alt_name" v="Husvåg" />
		<tag k="name" v="Husvågen" />
		<tag k="place" v="farm" />
		<tag k="ssr:stedsnr" v="623683" />
	</node>
	<node id="9842201180" lat="68.2950194" lon="14.32076" version="1" timestamp="2022-06-23T17:30:23Z" changeset="122768702" uid="3497659" user="NKA">
		<tag k="name" v="Sletta" />
		<tag k="place" v="farm" />
		<tag k="ssr:stedsnr" v="623055" />
	</node>
	<node id="9842201181" lat="68.2290222" lon="14.2172333" version="1" timestamp="2022-06-23T17:30:23Z" changeset="122768702" uid="3497659" user="NKA">
		<tag k="name" v="Valhall" />
		<tag k="place" v="farm" />
		<tag k="ssr:stedsnr" v="529055" />
	</node>
	<node id="9842201182" lat="68.2958611" lon="14.8742916" version="1" timestamp="2022-06-23T17:30:23Z" changeset="122768702" uid="3497659" user="NKA">
		<tag k="name" v="Nordheim" />
		<tag k="place" v="farm" />
		<tag k="ssr:stedsnr" v="362267" />
	</node>
	<node id="9842201183" lat="68.3403556" lon="14.7134251" version="1" timestamp="2022-06-23T17:30:23Z" changeset="122768702" uid="3497659" user="NKA">
		<tag k="name" v="Dalhaug" />
		<tag k="place" v="farm" />
		<tag k="ssr:stedsnr" v="259382" />
	</node>
	<node id="9842201184" lat="68.2471944" lon="14.5451917" version="1" timestamp="2022-06-23T17:30:23Z" changeset="122768702" uid="3497659" user="NKA">
		<tag k="name" v="Knutmarka" />
		<tag k="place" v="farm" />
		<tag k="ssr:stedsnr" v="320352" />
	</node>
	<node id="9842201185" lat="68.2295277" lon="14.2145082" version="1" timestamp="2022-06-23T17:30:23Z" changeset="122768702" uid="3497659" user="NKA">
		<tag k="alt_name" v="Lyngvær" />
		<tag k="name" v="Lyngværet" />
		<tag k="place" v="farm" />
		<tag k="ssr:stedsnr" v="260593" />
	</node>
	<node id="9842201186" lat="68.3424472" lon="14.3474389" version="1" timestamp="2022-06-23T17:30:23Z" changeset="122768702" uid="3497659" user="NKA">
		<tag k="name" v="Rubertheimen" />
		<tag k="place" v="locality" />
		<tag k="ssr:stedsnr" v="684882" />
	</node>
	<node id="9842201187" lat="68.2797278" lon="14.1473278" version="1" timestamp="2022-06-23T17:30:23Z" changeset="122768702" uid="3497659" user="NKA">
		<tag k="alt_name" v="Storbukta" />
		<tag k="name" v="Storvika" />
		<tag k="place" v="farm" />
		<tag k="ssr:stedsnr" v="78244" />
	</node>
	<node id="9842201188" lat="68.2428444" lon="14.5827889" version="1" timestamp="2022-06-23T17:30:23Z" changeset="122768702" uid="3497659" user="NKA">
		<tag k="alt_name" v="Øverværet" />
		<tag k="name" v="Øvreværet" />
		<tag k="place" v="neighbourhood" />
		<tag k="ssr:stedsnr" v="320355" />
	</node>
	<node id="9842201189" lat="68.2494953" lon="14.2928999" version="1" timestamp="2022-06-23T17:30:23Z" changeset="122768702" uid="3497659" user="NKA">
		<tag k="name" v="Stranda" />
		<tag k="place" v="farm" />
		<tag k="ssr:stedsnr" v="806507" />
	</node>
	<node id="249785456" lat="68.1581333" lon="14.2111153" version="8" timestamp="2022-04-03T03:31:13Z" changeset="119252201" uid="715936" user="Gazer75">
		<tag k="highway" v="traffic_signals" />
		<tag k="traffic_signals:direction" v="forward" />
	</node>
	<node id="249785457" lat="68.1595338" lon="14.2144314" version="5" timestamp="2018-02-20T20:16:47Z" changeset="56531490" uid="3296383" user="Reitstoen_import" />
	<node id="3382950855" lat="68.1589001" lon="14.2130269" version="3" timestamp="2018-02-20T20:16:51Z" changeset="56531490" uid="3296383" user="Reitstoen_import">
		<tag k="highway" v="passing_place" />
	</node>
	<node id="5425391139" lat="68.1589961" lon="14.2132584" version="1" timestamp="2018-02-20T20:16:42Z" changeset="56531490" uid="3296383" user="Reitstoen_import" />
	<node id="5425391141" lat="68.1586913" lon="14.2125183" version="1" timestamp="2018-02-20T20:16:42Z" changeset="56531490" uid="3296383" user="Reitstoen_import" />
	<node id="249785459" lat="68.1599131" lon="14.2151536" version="6" timestamp="2022-04-03T03:31:13Z" changeset="119252201" uid="715936" user="Gazer75">
		<tag k="highway" v="traffic_signals" />
		<tag k="traffic_signals:direction" v="backward" />
	</node>
	<node id="1760113365" lat="68.1597723" lon="14.2149077" version="3" timestamp="2018-02-20T20:16:50Z" changeset="56531490" uid="3296383" user="Reitstoen_import" />
	<node id="249785556" lat="68.1675623" lon="14.2196777" version="6" timestamp="2018-02-16T20:10:59Z" changeset="56424547" uid="3296383" user="Reitstoen_import">
		<tag k="highway" v="traffic_signals" />
	</node>
	<node id="249785557" lat="68.1679758" lon="14.2212095" version="6" timestamp="2018-02-16T20:10:59Z" changeset="56424547" uid="3296383" user="Reitstoen_import">
		<tag k="highway" v="passing_place" />
	</node>
	<node id="1809307848" lat="68.167793" lon="14.2205178" version="3" timestamp="2018-02-16T20:11:02Z" changeset="56424547" uid="3296383" user="Reitstoen_import" />
	<node id="75165966" lat="68.1685551" lon="14.2230952" version="7" timestamp="2018-02-16T20:10:57Z" changeset="56424547" uid="3296383" user="Reitstoen_import">
		<tag k="highway" v="traffic_signals" />
	</node>
	<node id="249785558" lat="68.1682932" lon="14.2223443" version="5" timestamp="2018-02-16T20:10:59Z" changeset="56424547" uid="3296383" user="Reitstoen_import" />
	<node id="249785559" lat="68.1683811" lon="14.2226377" version="5" timestamp="2018-02-16T20:10:59Z" changeset="56424547" uid="3296383" user="Reitstoen_import" />
	<node id="249785560" lat="68.1684656" lon="14.2228816" version="5" timestamp="2018-02-16T20:10:59Z" changeset="56424547" uid="3296383" user="Reitstoen_import" />
	<node id="249785561" lat="68.168518" lon="14.2230114" version="5" timestamp="2018-02-16T20:10:59Z" changeset="56424547" uid="3296383" user="Reitstoen_import" />
	<node id="5417233585" lat="68.1680846" lon="14.2215836" version="1" timestamp="2018-02-16T20:10:57Z" changeset="56424547" uid="3296383" user="Reitstoen_import" />
	<node id="249162797" lat="68.2632394" lon="14.244512" version="4" timestamp="2019-08-01T22:24:09Z" changeset="72916773" uid="715936" user="Gazer75" />
	<node id="249162799" lat="68.2632056" lon="14.2452174" version="4" timestamp="2019-08-01T22:24:09Z" changeset="72916773" uid="715936" user="Gazer75" />
	<node id="249162800" lat="68.2632265" lon="14.2448325" version="4" timestamp="2019-08-01T22:24:09Z" changeset="72916773" uid="715936" user="Gazer75" />
	<node id="249162801" lat="68.2630819" lon="14.24669" version="4" timestamp="2019-08-01T22:24:09Z" changeset="72916773" uid="715936" user="Gazer75" />
	<node id="249162802" lat="68.2631815" lon="14.2455748" version="4" timestamp="2019-08-01T22:24:09Z" changeset="72916773" uid="715936" user="Gazer75" />
	<node id="249162825" lat="68.2631783" lon="14.2426693" version="4" timestamp="2019-08-01T22:24:09Z" changeset="72916773" uid="715936" user="Gazer75" />
	<node id="249162827" lat="68.2632448" lon="14.2440172" version="4" timestamp="2019-08-01T22:24:09Z" changeset="72916773" uid="715936" user="Gazer75" />
	<node id="249162828" lat="68.2631376" lon="14.2423381" version="5" timestamp="2019-08-01T22:24:09Z" changeset="72916773" uid="715936" user="Gazer75" />
	<node id="249162830" lat="68.2632374" lon="14.2435773" version="4" timestamp="2019-08-01T22:24:09Z" changeset="72916773" uid="715936" user="Gazer75" />
	<node id="5412963037" lat="68.2630964" lon="14.2420591" version="2" timestamp="2019-08-01T22:24:09Z" changeset="72916773" uid="715936" user="Gazer75" />
	<node id="6672739376" lat="68.26315" lon="14.2459624" version="1" timestamp="2019-08-01T22:24:09Z" changeset="72916773" uid="715936" user="Gazer75" />
	<node id="6672739377" lat="68.263215" lon="14.2430918" version="1" timestamp="2019-08-01T22:24:09Z" changeset="72916773" uid="715936" user="Gazer75" />
	<node id="3384208496" lat="68.2627358" lon="14.2502341" version="2" timestamp="2018-02-14T19:38:24Z" changeset="56363742" uid="3296383" user="Reitstoen_import">
		<tag k="man_made" v="surveillance" />
		<tag k="surveillance:type" v="camera" />
	</node>
	<node id="5412961915" lat="68.2624545" lon="14.2531099" version="1" timestamp="2018-02-14T19:37:46Z" changeset="56363742" uid="3296383" user="Reitstoen_import" />
	<node id="5412963036" lat="68.26299" lon="14.2476408" version="2" timestamp="2019-08-01T22:24:09Z" changeset="72916773" uid="715936" user="Gazer75" />
	<node id="249162806" lat="68.2615853" lon="14.2619004" version="9" timestamp="2019-08-01T22:24:09Z" changeset="72916773" uid="715936" user="Gazer75" />
	<node id="5412961916" lat="68.2616378" lon="14.2613734" version="2" timestamp="2019-08-01T22:24:09Z" changeset="72916773" uid="715936" user="Gazer75" />
	<node id="5418864136" lat="68.2388555" lon="14.5292223" version="1" timestamp="2018-02-17T20:08:43Z" changeset="56448932" uid="3296383" user="Reitstoen_import" />
	<node id="5418864137" lat="68.2389642" lon="14.5293127" version="2" timestamp="2019-12-25T23:43:52Z" changeset="78858504" uid="501707" user="Reitstoen" />
	<way id="23083941" version="13" timestamp="2022-01-24T06:56:00Z" changeset="116526664" uid="3497659" user="NKA">
		<tag k="bridge" v="yes" />
		<tag k="bridge:structure" v="beam" />
		<tag k="highway" v="trunk" />
		<tag k="lanes" v="2" />
		<tag k="layer" v="1" />
		<tag k="length" v="840" />
		<tag k="lit" v="no" />
		<tag k="maxspeed" v="80" />
		<tag k="name" v="Gimsøystraumbrua" />
		<tag k="ref" v="E 10" />
		<tag k="sidewalk" v="right" />
		<tag k="source:maxspeed" v="NO:rural" />
		<tag k="ssr:stedsnr" v="199161" />
		<tag k="surface" v="asphalt" />
		<tag k="width" v="7" />
		<nd ref="5412963037" />
		<nd ref="249162828" />
		<nd ref="249162825" />
		<nd ref="6672739377" />
		<nd ref="249162830" />
		<nd ref="249162827" />
		<nd ref="249162797" />
		<nd ref="249162800" />
		<nd ref="249162799" />
		<nd ref="249162802" />
		<nd ref="6672739376" />
		<nd ref="249162801" />
		<nd ref="5412963036" />
		<nd ref="3384208496" />
		<nd ref="5412961915" />
		<nd ref="5412961916" />
		<nd ref="249162806" />
	</way>
	<way id="71849873" version="9" timestamp="2022-01-24T06:56:00Z" changeset="116526664" uid="3497659" user="NKA">
		<tag k="bridge" v="yes" />
		<tag k="bridge:structure" v="beam" />
		<tag k="cycleway:both" v="no" />
		<tag k="highway" v="primary" />
		<tag k="layer" v="1" />
		<tag k="lit" v="yes" />
		<tag k="maxspeed" v="80" />
		<tag k="name" v="Engøysundbrua" />
		<tag k="ref" v="816" />
		<tag k="sidewalk" v="right" />
		<tag k="source:maxspeed" v="NO:rural" />
		<tag k="ssr:stedsnr" v="331214" />
		<tag k="surface" v="asphalt" />
		<tag k="width" v="4" />
		<nd ref="249785556" />
		<nd ref="1809307848" />
		<nd ref="249785557" />
		<nd ref="5417233585" />
		<nd ref="249785558" />
		<nd ref="249785559" />
		<nd ref="249785560" />
		<nd ref="249785561" />
		<nd ref="75165966" />
	</way>
	<way id="71849877" version="13" timestamp="2022-04-03T03:31:13Z" changeset="119252201" uid="715936" user="Gazer75">
		<tag k="bridge" v="yes" />
		<tag k="bridge:structure" v="beam" />
		<tag k="cycleway:both" v="no" />
		<tag k="highway" v="primary" />
		<tag k="lanes" v="1" />
		<tag k="layer" v="1" />
		<tag k="length" v="257" />
		<tag k="lit" v="yes" />
		<tag k="maxspeed" v="80" />
		<tag k="name" v="Henningsværbrua" />
		<tag k="note" v="Traffic light controls direction of bridge" />
		<tag k="oneway" v="alternating" />
		<tag k="ref" v="816" />
		<tag k="sidewalk" v="right" />
		<tag k="source:maxspeed" v="NO:rural" />
		<tag k="ssr:stedsnr" v="149734" />
		<tag k="surface" v="asphalt" />
		<tag k="width" v="4" />
		<tag k="wikidata" v="Q4585680" />
		<nd ref="249785456" />
		<nd ref="5425391141" />
		<nd ref="3382950855" />
		<nd ref="5425391139" />
		<nd ref="249785457" />
		<nd ref="1760113365" />
		<nd ref="249785459" />
	</way>
	<way id="562061195" version="2" timestamp="2022-01-24T06:56:00Z" changeset="116526664" uid="3497659" user="NKA">
		<tag k="bridge" v="yes" />
		<tag k="highway" v="residential" />
		<tag k="layer" v="1" />
		<tag k="name" v="Isbrua" />
		<tag k="ssr:stedsnr" v="932820" />
		<nd ref="5418864136" />
		<nd ref="5418864137" />
	</way>
</osm>
