<?xml version="1.0" encoding="UTF-8"?>
<osm version="0.6" generator="osmapis">
	<node id="839032911" lat="60.7014267" lon="8.9455109" version="8" timestamp="2022-04-02T07:04:06Z" changeset="119225034" uid="3497659" user="NKA">
		<tag k="name" v="Gol" />
		<tag k="place" v="town" />
		<tag k="population" v="3196" />
		<tag k="population:date" v="2021-01-01" />
		<tag k="ref:ssb_tettsted" v="2061" />
		<tag k="source:population" v="SSB - befolkning i tettstedet" />
		<tag k="ssr:stedsnr" v="68372" />
	</node>
	<node id="9576445819" lat="60.8156244" lon="8.7965285" version="2" timestamp="2022-04-02T07:04:06Z" changeset="119225034" uid="3497659" user="NKA">
		<tag k="alt_name" v="Skrøyvestølane" />
		<tag k="historic" v="shieling" />
		<tag k="loc_name" v="Rohovda" />
		<tag k="name" v="Skrøyvestølan" />
		<tag k="place" v="hamlet" />
		<tag k="ssr:stedsnr" v="919215" />
	</node>
	<node id="9576445822" lat="60.840775" lon="8.8577139" version="2" timestamp="2022-04-02T07:04:06Z" changeset="119225034" uid="3497659" user="NKA">
		<tag k="alt_name" v="Eikro seter" />
		<tag k="historic" v="shieling" />
		<tag k="name" v="Eikrestølen" />
		<tag k="place" v="hamlet" />
		<tag k="ssr:stedsnr" v="313450" />
	</node>
	<node id="9576461724" lat="60.8630692" lon="8.8504421" version="2" timestamp="2022-04-02T07:04:06Z" changeset="119225034" uid="3497659" user="NKA">
		<tag k="historic" v="shieling" />
		<tag k="name" v="Nørelie" />
		<tag k="place" v="hamlet" />
		<tag k="ssr:stedsnr" v="495400" />
	</node>
	<node id="9630921507" lat="60.832595" lon="8.8208004" version="1" timestamp="2022-04-02T07:04:06Z" changeset="119225034" uid="3497659" user="NKA">
		<tag k="alt_name" v="Hjartingstølane" />
		<tag k="historic" v="shieling" />
		<tag k="name" v="Hjartingstølan" />
		<tag k="place" v="hamlet" />
		<tag k="ssr:stedsnr" v="69208" />
	</node>
	<node id="9630921508" lat="60.8649889" lon="8.8461751" version="1" timestamp="2022-04-02T07:04:06Z" changeset="119225034" uid="3497659" user="NKA">
		<tag k="historic" v="shieling" />
		<tag k="name" v="Nystølen" />
		<tag k="place" v="isolated_dwelling" />
		<tag k="ssr:stedsnr" v="159512" />
	</node>
	<node id="9630921509" lat="60.8362327" lon="8.8504855" version="1" timestamp="2022-04-02T07:04:06Z" changeset="119225034" uid="3497659" user="NKA">
		<tag k="historic" v="shieling" />
		<tag k="name" v="Skagavollen" />
		<tag k="place" v="isolated_dwelling" />
		<tag k="ssr:stedsnr" v="524402" />
	</node>
	<node id="9630921510" lat="60.7269972" lon="8.8046718" version="1" timestamp="2022-04-02T07:04:06Z" changeset="119225034" uid="3497659" user="NKA">
		<tag k="name" v="Grovhaugen" />
		<tag k="place" v="isolated_dwelling" />
		<tag k="ssr:stedsnr" v="370852" />
	</node>
	<node id="9630921511" lat="60.7243146" lon="8.984009" version="1" timestamp="2022-04-02T07:04:06Z" changeset="119225034" uid="3497659" user="NKA">
		<tag k="name" v="Austre Rust" />
		<tag k="place" v="farm" />
		<tag k="ssr:stedsnr" v="128111" />
	</node>
	<node id="9630921512" lat="60.7904327" lon="8.8001024" version="1" timestamp="2022-04-02T07:04:06Z" changeset="119225034" uid="3497659" user="NKA">
		<tag k="name" v="Lii" />
		<tag k="place" v="farm" />
		<tag k="ssr:stedsnr" v="311033" />
	</node>
	<node id="9630921513" lat="60.6819783" lon="8.8368891" version="1" timestamp="2022-04-02T07:04:06Z" changeset="119225034" uid="3497659" user="NKA">
		<tag k="name" v="Rotneim" />
		<tag k="place" v="hamlet" />
		<tag k="ssr:stedsnr" v="659330" />
	</node>
	<node id="9630921514" lat="60.722329" lon="8.9493315" version="1" timestamp="2022-04-02T07:04:06Z" changeset="119225034" uid="3497659" user="NKA">
		<tag k="name" v="Elstad" />
		<tag k="place" v="farm" />
		<tag k="ssr:stedsnr" v="891222" />
	</node>
	<node id="9630921515" lat="60.76985" lon="9.0735" version="1" timestamp="2022-04-02T07:04:06Z" changeset="119225034" uid="3497659" user="NKA">
		<tag k="name" v="Haldorværelset" />
		<tag k="place" v="locality" />
		<tag k="ssr:stedsnr" v="554323" />
	</node>
	<node id="9630921516" lat="60.6817139" lon="9.0398695" version="1" timestamp="2022-04-02T07:04:06Z" changeset="119225034" uid="3497659" user="NKA">
		<tag k="alt_name" v="Uthallen" />
		<tag k="name" v="Uthalli" />
		<tag k="place" v="farm" />
		<tag k="ssr:stedsnr" v="598289" />
	</node>
	<node id="9630931317" lat="60.7513793" lon="9.2274148" version="1" timestamp="2022-04-02T07:04:06Z" changeset="119225034" uid="3497659" user="NKA">
		<tag k="historic" v="shieling" />
		<tag k="name" v="Nystølen" />
		<tag k="place" v="isolated_dwelling" />
		<tag k="ssr:stedsnr" v="494740" />
	</node>
	<node id="9630931318" lat="60.7378441" lon="8.8644109" version="1" timestamp="2022-04-02T07:04:06Z" changeset="119225034" uid="3497659" user="NKA">
		<tag k="alt_name" v="Søre Eldbjør" />
		<tag k="name" v="Søre Eldbjørgo" />
		<tag k="old_name" v="Sødre Eldbjør" />
		<tag k="place" v="farm" />
		<tag k="ssr:stedsnr" v="674169" />
	</node>
	<node id="9630931319" lat="60.7975694" lon="8.8442749" version="1" timestamp="2022-04-02T07:04:06Z" changeset="119225034" uid="3497659" user="NKA">
		<tag k="historic" v="shieling" />
		<tag k="name" v="Svellestølen" />
		<tag k="place" v="isolated_dwelling" />
		<tag k="ssr:stedsnr" v="119673" />
	</node>
	<node id="9630931320" lat="60.6715777" lon="8.805264" version="1" timestamp="2022-04-02T07:04:06Z" changeset="119225034" uid="3497659" user="NKA">
		<tag k="name" v="Eilevmoen" />
		<tag k="place" v="locality" />
		<tag k="ssr:stedsnr" v="358426" />
	</node>
	<node id="9630931321" lat="60.6825144" lon="8.8389937" version="1" timestamp="2022-04-02T07:04:06Z" changeset="119225034" uid="3497659" user="NKA">
		<tag k="name" v="Nedre Rotneim" />
		<tag k="place" v="farm" />
		<tag k="ssr:stedsnr" v="282926" />
	</node>
	<node id="9630931322" lat="60.7441783" lon="9.2525044" version="1" timestamp="2022-04-02T07:04:06Z" changeset="119225034" uid="3497659" user="NKA">
		<tag k="historic" v="shieling" />
		<tag k="name" v="Soknevollen" />
		<tag k="place" v="isolated_dwelling" />
		<tag k="ssr:stedsnr" v="1072081" />
	</node>
	<node id="9630931323" lat="60.7008333" lon="8.7979945" version="1" timestamp="2022-04-02T07:04:06Z" changeset="119225034" uid="3497659" user="NKA">
		<tag k="alt_name" v="Guråstølen" />
		<tag k="historic" v="shieling" />
		<tag k="name" v="Gurostølen" />
		<tag k="place" v="isolated_dwelling" />
		<tag k="ssr:stedsnr" v="795885" />
	</node>
	<node id="9630931324" lat="60.8018832" lon="8.9655858" version="1" timestamp="2022-04-02T07:04:06Z" changeset="119225034" uid="3497659" user="NKA">
		<tag k="historic" v="shieling" />
		<tag k="name" v="Vestre Einarset" />
		<tag k="place" v="isolated_dwelling" />
		<tag k="ssr:stedsnr" v="8503" />
	</node>
	<node id="9630931325" lat="60.6953091" lon="9.014334" version="1" timestamp="2022-04-02T07:04:06Z" changeset="119225034" uid="3497659" user="NKA">
		<tag k="name" v="Storebråten" />
		<tag k="place" v="farm" />
		<tag k="ssr:stedsnr" v="431314" />
	</node>
	<node id="9630931326" lat="60.7867496" lon="8.8979445" version="1" timestamp="2022-04-02T07:04:06Z" changeset="119225034" uid="3497659" user="NKA">
		<tag k="historic" v="shieling" />
		<tag k="name" v="Hovdestølen" />
		<tag k="place" v="isolated_dwelling" />
		<tag k="ssr:stedsnr" v="614281" />
	</node>
	<node id="9630931327" lat="60.7150472" lon="8.9805195" version="1" timestamp="2022-04-02T07:04:06Z" changeset="119225034" uid="3497659" user="NKA">
		<tag k="name" v="Vindfallet" />
		<tag k="place" v="locality" />
		<tag k="ssr:stedsnr" v="796347" />
	</node>
	<node id="9630931328" lat="60.6795472" lon="9.0213778" version="1" timestamp="2022-04-02T07:04:06Z" changeset="119225034" uid="3497659" user="NKA">
		<tag k="name" v="Vestheim" />
		<tag k="place" v="farm" />
		<tag k="ssr:stedsnr" v="310298" />
	</node>
	<node id="9630931329" lat="60.7933472" lon="8.8709074" version="1" timestamp="2022-04-02T07:04:06Z" changeset="119225034" uid="3497659" user="NKA">
		<tag k="alt_name" v="Jondalen seter;Jondalsætri" />
		<tag k="historic" v="shieling" />
		<tag k="name" v="Jondalstølen" />
		<tag k="place" v="isolated_dwelling" />
		<tag k="ssr:stedsnr" v="918315" />
	</node>
	<node id="9630931330" lat="60.723186" lon="8.7732306" version="1" timestamp="2022-04-02T07:04:06Z" changeset="119225034" uid="3497659" user="NKA">
		<tag k="alt_name" v="Maureleina" />
		<tag k="historic" v="shieling" />
		<tag k="name" v="Maureleini" />
		<tag k="place" v="isolated_dwelling" />
		<tag k="ssr:stedsnr" v="734811" />
	</node>
	<node id="9630931331" lat="60.6366744" lon="9.0774911" version="1" timestamp="2022-04-02T07:04:06Z" changeset="119225034" uid="3497659" user="NKA">
		<tag k="name" v="Rensla" />
		<tag k="place" v="locality" />
		<tag k="ssr:stedsnr" v="1072115" />
	</node>
	<node id="9630931332" lat="60.7312812" lon="9.1893719" version="1" timestamp="2022-04-02T07:04:06Z" changeset="119225034" uid="3497659" user="NKA">
		<tag k="name" v="Holet" />
		<tag k="place" v="isolated_dwelling" />
		<tag k="ssr:stedsnr" v="7160" />
	</node>
	<node id="9630931333" lat="60.7667956" lon="8.846096" version="1" timestamp="2022-04-02T07:04:06Z" changeset="119225034" uid="3497659" user="NKA">
		<tag k="name" v="Jondalen" />
		<tag k="place" v="farm" />
		<tag k="ssr:stedsnr" v="222786" />
	</node>
	<node id="9630931334" lat="60.7587294" lon="8.8158409" version="1" timestamp="2022-04-02T07:04:06Z" changeset="119225034" uid="3497659" user="NKA">
		<tag k="name" v="Slåtta" />
		<tag k="place" v="farm" />
		<tag k="ssr:stedsnr" v="676034" />
	</node>
	<node id="9630931335" lat="60.7398217" lon="8.8761545" version="1" timestamp="2022-04-02T07:04:06Z" changeset="119225034" uid="3497659" user="NKA">
		<tag k="name" v="Ro" />
		<tag k="place" v="locality" />
		<tag k="ssr:stedsnr" v="613180" />
	</node>
	<node id="9630931336" lat="60.7138033" lon="8.9488436" version="1" timestamp="2022-04-02T07:04:06Z" changeset="119225034" uid="3497659" user="NKA">
		<tag k="alt_name" v="Midtgård" />
		<tag k="name" v="Midtgard" />
		<tag k="place" v="farm" />
		<tag k="ssr:stedsnr" v="796122" />
	</node>
	<node id="9630931337" lat="60.7072472" lon="8.9171418" version="1" timestamp="2022-04-02T07:04:06Z" changeset="119225034" uid="3497659" user="NKA">
		<tag k="alt_name" v="Jorde" />
		<tag k="name" v="Jordet" />
		<tag k="place" v="farm" />
		<tag k="ssr:stedsnr" v="128342" />
	</node>
	<node id="9630931338" lat="60.78955" lon="9.1693861" version="1" timestamp="2022-04-02T07:04:06Z" changeset="119225034" uid="3497659" user="NKA">
		<tag k="historic" v="shieling" />
		<tag k="name" v="Gamlestølen" />
		<tag k="place" v="isolated_dwelling" />
		<tag k="ssr:stedsnr" v="919255" />
	</node>
	<node id="9630931339" lat="60.7858069" lon="8.9091513" version="1" timestamp="2022-04-02T07:04:06Z" changeset="119225034" uid="3497659" user="NKA">
		<tag k="historic" v="shieling" />
		<tag k="name" v="Fjellro" />
		<tag k="place" v="isolated_dwelling" />
		<tag k="ssr:stedsnr" v="493276" />
	</node>
	<node id="9630931340" lat="60.724363" lon="8.9530029" version="1" timestamp="2022-04-02T07:04:06Z" changeset="119225034" uid="3497659" user="NKA">
		<tag k="name" v="Marken" />
		<tag k="place" v="farm" />
		<tag k="ssr:stedsnr" v="952227" />
	</node>
	<node id="9630931341" lat="60.6726408" lon="9.0331669" version="1" timestamp="2022-04-02T07:04:06Z" changeset="119225034" uid="3497659" user="NKA">
		<tag k="name" v="Stegsrud" />
		<tag k="old_name" v="Stegerud" />
		<tag k="place" v="farm" />
		<tag k="ssr:stedsnr" v="796309" />
	</node>
	<node id="9630931342" lat="60.7040139" lon="8.900086" version="1" timestamp="2022-04-02T07:04:06Z" changeset="119225034" uid="3497659" user="NKA">
		<tag k="name" v="Farset" />
		<tag k="place" v="farm" />
		<tag k="ssr:stedsnr" v="250364" />
	</node>
	<node id="9630931343" lat="60.7368223" lon="8.8730259" version="1" timestamp="2022-04-02T07:04:06Z" changeset="119225034" uid="3497659" user="NKA">
		<tag k="name" v="Nordre Blakkestad" />
		<tag k="place" v="farm" />
		<tag k="ssr:stedsnr" v="646996" />
	</node>
	<node id="9630931344" lat="60.7566187" lon="8.7662753" version="1" timestamp="2022-04-02T07:04:06Z" changeset="119225034" uid="3497659" user="NKA">
		<tag k="historic" v="shieling" />
		<tag k="name" v="Sjauset" />
		<tag k="place" v="hamlet" />
		<tag k="ssr:stedsnr" v="9028" />
	</node>
	<node id="9630931345" lat="60.702102" lon="9.0368363" version="1" timestamp="2022-04-02T07:04:06Z" changeset="119225034" uid="3497659" user="NKA">
		<tag k="alt_name" v="Turkopp;Turkop" />
		<tag k="name" v="Turkupp" />
		<tag k="place" v="farm" />
		<tag k="ssr:stedsnr" v="492296" />
	</node>
	<node id="9630931346" lat="60.7217778" lon="9.115839" version="1" timestamp="2022-04-02T07:04:06Z" changeset="119225034" uid="3497659" user="NKA">
		<tag k="name" v="Hagarukan" />
		<tag k="place" v="isolated_dwelling" />
		<tag k="ssr:stedsnr" v="250350" />
	</node>
	<node id="9630931347" lat="60.7687574" lon="8.7583739" version="1" timestamp="2022-04-02T07:04:06Z" changeset="119225034" uid="3497659" user="NKA">
		<tag k="alt_name" v="Lian" />
		<tag k="name" v="Trondsgardlie" />
		<tag k="place" v="farm" />
		<tag k="ssr:stedsnr" v="311028" />
	</node>
	<node id="9630931348" lat="60.7223945" lon="8.7840751" version="1" timestamp="2022-04-02T07:04:06Z" changeset="119225034" uid="3497659" user="NKA">
		<tag k="historic" v="shieling" />
		<tag k="name" v="Ronestølen" />
		<tag k="place" v="isolated_dwelling" />
		<tag k="ssr:stedsnr" v="188837" />
	</node>
	<node id="9630931349" lat="60.6867422" lon="8.8528477" version="1" timestamp="2022-04-02T07:04:06Z" changeset="119225034" uid="3497659" user="NKA">
		<tag k="name" v="Bakko" />
		<tag k="place" v="farm" />
		<tag k="ssr:stedsnr" v="343417" />
	</node>
	<node id="9630931350" lat="60.7852417" lon="8.9905417" version="1" timestamp="2022-04-02T07:04:06Z" changeset="119225034" uid="3497659" user="NKA">
		<tag k="historic" v="shieling" />
		<tag k="name" v="Breidokkvollen" />
		<tag k="old_name" v="Breidokksetre;Breidokksætra" />
		<tag k="place" v="isolated_dwelling" />
		<tag k="ssr:stedsnr" v="413474" />
	</node>
	<node id="9630931351" lat="60.6856203" lon="9.0256316" version="1" timestamp="2022-04-02T07:04:06Z" changeset="119225034" uid="3497659" user="NKA">
		<tag k="name" v="Gudbrandsgard" />
		<tag k="place" v="farm" />
		<tag k="ssr:stedsnr" v="345011" />
	</node>
	<node id="9630931352" lat="60.7214557" lon="8.9028014" version="1" timestamp="2022-04-02T07:04:06Z" changeset="119225034" uid="3497659" user="NKA">
		<tag k="name" v="Glomsrud" />
		<tag k="place" v="farm" />
		<tag k="ssr:stedsnr" v="432121" />
	</node>
	<node id="9630931353" lat="60.6930367" lon="8.7969932" version="1" timestamp="2022-04-02T07:04:06Z" changeset="119225034" uid="3497659" user="NKA">
		<tag k="name" v="Finnesgarden" />
		<tag k="place" v="farm" />
		<tag k="ssr:stedsnr" v="552917" />
	</node>
	<node id="9630931354" lat="60.6844581" lon="8.8667736" version="1" timestamp="2022-04-02T07:04:06Z" changeset="119225034" uid="3497659" user="NKA">
		<tag k="alt_name" v="Fossebakken" />
		<tag k="name" v="Fossebråten" />
		<tag k="place" v="farm" />
		<tag k="ssr:stedsnr" v="249287" />
	</node>
	<node id="9630931355" lat="60.7850153" lon="8.9098979" version="1" timestamp="2022-04-02T07:04:06Z" changeset="119225034" uid="3497659" user="NKA">
		<tag k="historic" v="shieling" />
		<tag k="name" v="Tunnetjern" />
		<tag k="place" v="hamlet" />
		<tag k="ssr:stedsnr" v="979319" />
	</node>
	<node id="9630931356" lat="60.6985223" lon="9.2724666" version="1" timestamp="2022-04-02T07:04:06Z" changeset="119225034" uid="3497659" user="NKA">
		<tag k="historic" v="shieling" />
		<tag k="name" v="Andsjøstølan" />
		<tag k="place" v="hamlet" />
		<tag k="ssr:stedsnr" v="735699" />
	</node>
	<node id="9630931357" lat="60.6622747" lon="9.0439033" version="1" timestamp="2022-04-02T07:04:06Z" changeset="119225034" uid="3497659" user="NKA">
		<tag k="alt_name" v="Nordengene" />
		<tag k="name" v="Nordengjan" />
		<tag k="place" v="farm" />
		<tag k="ssr:stedsnr" v="49582" />
	</node>
	<node id="9630931358" lat="60.7111121" lon="8.9168058" version="1" timestamp="2022-04-02T07:04:06Z" changeset="119225034" uid="3497659" user="NKA">
		<tag k="name" v="Storla" />
		<tag k="place" v="farm" />
		<tag k="ssr:stedsnr" v="189338" />
	</node>
	<node id="9630931359" lat="60.7494288" lon="8.8125828" version="1" timestamp="2022-04-02T07:04:06Z" changeset="119225034" uid="3497659" user="NKA">
		<tag k="name" v="Nedre Mykleset" />
		<tag k="place" v="farm" />
		<tag k="ssr:stedsnr" v="646998" />
	</node>
	<node id="9630931360" lat="60.7018691" lon="9.0401687" version="1" timestamp="2022-04-02T07:04:06Z" changeset="119225034" uid="3497659" user="NKA">
		<tag k="name" v="Jonsrud" />
		<tag k="old_name" v="Jonshaugen" />
		<tag k="place" v="farm" />
		<tag k="ssr:stedsnr" v="674304" />
	</node>
	<node id="9630931361" lat="60.8181805" lon="8.8440278" version="1" timestamp="2022-04-02T07:04:06Z" changeset="119225034" uid="3497659" user="NKA">
		<tag k="historic" v="shieling" />
		<tag k="name" v="Hatteland" />
		<tag k="place" v="isolated_dwelling" />
		<tag k="ssr:stedsnr" v="373499" />
	</node>
	<node id="9630931362" lat="60.6863721" lon="8.826539" version="1" timestamp="2022-04-02T07:04:06Z" changeset="119225034" uid="3497659" user="NKA">
		<tag k="name" v="Hjelmen" />
		<tag k="place" v="locality" />
		<tag k="ssr:stedsnr" v="856922" />
	</node>
	<node id="9630931363" lat="60.7220445" lon="8.8815194" version="1" timestamp="2022-04-02T07:04:06Z" changeset="119225034" uid="3497659" user="NKA">
		<tag k="historic" v="shieling" />
		<tag k="name" v="Olsgardseter" />
		<tag k="place" v="isolated_dwelling" />
		<tag k="ssr:stedsnr" v="527193" />
	</node>
	<node id="9630931364" lat="60.7655241" lon="8.8473938" version="1" timestamp="2022-04-02T07:04:06Z" changeset="119225034" uid="3497659" user="NKA">
		<tag k="name" v="Vanberg" />
		<tag k="place" v="hamlet" />
		<tag k="ssr:stedsnr" v="615267" />
	</node>
	<node id="9630931365" lat="60.8322672" lon="8.9723205" version="1" timestamp="2022-04-02T07:04:06Z" changeset="119225034" uid="3497659" user="NKA">
		<tag k="alt_name" v="Torkjellstølen" />
		<tag k="historic" v="shieling" />
		<tag k="name" v="Torkjellen" />
		<tag k="place" v="isolated_dwelling" />
		<tag k="ssr:stedsnr" v="919441" />
	</node>
	<node id="9630931366" lat="60.7017956" lon="9.0073194" version="1" timestamp="2022-04-02T07:04:06Z" changeset="119225034" uid="3497659" user="NKA">
		<tag k="name" v="Øvre Frøysåk" />
		<tag k="place" v="farm" />
		<tag k="ssr:stedsnr" v="977519" />
	</node>
	<node id="9630931367" lat="60.6888343" lon="9.0345756" version="1" timestamp="2022-04-02T07:04:06Z" changeset="119225034" uid="3497659" user="NKA">
		<tag k="alt_name" v="Køsene;Køso" />
		<tag k="name" v="Kosin" />
		<tag k="place" v="farm" />
		<tag k="ssr:stedsnr" v="674272" />
	</node>
	<node id="9630931368" lat="60.7024917" lon="8.8956221" version="1" timestamp="2022-04-02T07:04:06Z" changeset="119225034" uid="3497659" user="NKA">
		<tag k="name" v="Brenno" />
		<tag k="place" v="farm" />
		<tag k="ssr:stedsnr" v="856342" />
	</node>
	<node id="9630931369" lat="60.7990909" lon="8.8459108" version="1" timestamp="2022-04-02T07:04:06Z" changeset="119225034" uid="3497659" user="NKA">
		<tag k="historic" v="shieling" />
		<tag k="name" v="Nordre Klepp seter" />
		<tag k="place" v="isolated_dwelling" />
		<tag k="ssr:stedsnr" v="59659" />
	</node>
	<node id="9630931370" lat="60.7731055" lon="9.1359056" version="1" timestamp="2022-04-02T07:04:06Z" changeset="119225034" uid="3497659" user="NKA">
		<tag k="historic" v="shieling" />
		<tag k="name" v="Svilestølan" />
		<tag k="place" v="hamlet" />
		<tag k="ssr:stedsnr" v="372318" />
	</node>
	<node id="9630931371" lat="60.8365872" lon="8.9996817" version="1" timestamp="2022-04-02T07:04:06Z" changeset="119225034" uid="3497659" user="NKA">
		<tag k="name" v="Lilleoset" />
		<tag k="place" v="isolated_dwelling" />
		<tag k="ssr:stedsnr" v="341539" />
	</node>
	<node id="9630931372" lat="60.7247944" lon="8.9629695" version="1" timestamp="2022-04-02T07:04:06Z" changeset="119225034" uid="3497659" user="NKA">
		<tag k="name" v="Bergli" />
		<tag k="place" v="farm" />
		<tag k="ssr:stedsnr" v="249136" />
	</node>
	<node id="9630931373" lat="60.7318889" lon="9.2681389" version="1" timestamp="2022-04-02T07:04:06Z" changeset="119225034" uid="3497659" user="NKA">
		<tag k="alt_name" v="Søndreli-Nystølen" />
		<tag k="historic" v="shieling" />
		<tag k="name" v="Søreli-Nystølen" />
		<tag k="place" v="isolated_dwelling" />
		<tag k="ssr:stedsnr" v="735529" />
	</node>
	<node id="9630931374" lat="60.7400694" lon="8.8149001" version="1" timestamp="2022-04-02T07:04:06Z" changeset="119225034" uid="3497659" user="NKA">
		<tag k="name" v="Båsheim" />
		<tag k="place" v="locality" />
		<tag k="ssr:stedsnr" v="525872" />
	</node>
	<node id="9630931375" lat="60.7689222" lon="8.900368" version="1" timestamp="2022-04-02T07:04:06Z" changeset="119225034" uid="3497659" user="NKA">
		<tag k="alt_name" v="Roskaret" />
		<tag k="historic" v="shieling" />
		<tag k="name" v="Roskardet" />
		<tag k="place" v="isolated_dwelling" />
		<tag k="ssr:stedsnr" v="69331" />
	</node>
	<node id="9630931376" lat="60.8032584" lon="8.9791927" version="1" timestamp="2022-04-02T07:04:06Z" changeset="119225034" uid="3497659" user="NKA">
		<tag k="historic" v="shieling" />
		<tag k="name" v="Haugen seter" />
		<tag k="place" v="isolated_dwelling" />
		<tag k="ssr:stedsnr" v="644378" />
	</node>
	<node id="9630931377" lat="60.7356278" lon="8.9278444" version="1" timestamp="2022-04-02T07:04:06Z" changeset="119225034" uid="3497659" user="NKA">
		<tag k="name" v="Kollen" />
		<tag k="place" v="locality" />
		<tag k="ssr:stedsnr" v="613151" />
	</node>
	<node id="9630931378" lat="60.6842244" lon="8.8453679" version="1" timestamp="2022-04-02T07:04:06Z" changeset="119225034" uid="3497659" user="NKA">
		<tag k="alt_name" v="Jorde;Martegarden" />
		<tag k="name" v="Jordet" />
		<tag k="place" v="farm" />
		<tag k="ssr:stedsnr" v="492265" />
	</node>
	<node id="9630931379" lat="60.7086" lon="9.0172583" version="1" timestamp="2022-04-02T07:04:06Z" changeset="119225034" uid="3497659" user="NKA">
		<tag k="name" v="Berget" />
		<tag k="place" v="farm" />
		<tag k="ssr:stedsnr" v="189346" />
	</node>
	<node id="9630931380" lat="60.7009534" lon="8.7837801" version="1" timestamp="2022-04-02T07:04:06Z" changeset="119225034" uid="3497659" user="NKA">
		<tag k="alt_name" v="Finnestøl" />
		<tag k="historic" v="shieling" />
		<tag k="name" v="Finnestølen" />
		<tag k="place" v="isolated_dwelling" />
		<tag k="ssr:stedsnr" v="127895" />
	</node>
	<node id="9630931381" lat="60.7518909" lon="8.8127428" version="1" timestamp="2022-04-02T07:04:06Z" changeset="119225034" uid="3497659" user="NKA">
		<tag k="alt_name" v="Tjennbardsbroten" />
		<tag k="name" v="Kinnebergbråten" />
		<tag k="place" v="farm" />
		<tag k="ssr:stedsnr" v="312056" />
	</node>
	<node id="9630931382" lat="60.8012868" lon="9.070131" version="1" timestamp="2022-04-02T07:04:06Z" changeset="119225034" uid="3497659" user="NKA">
		<tag k="historic" v="shieling" />
		<tag k="name" v="Saravollen" />
		<tag k="place" v="isolated_dwelling" />
		<tag k="ssr:stedsnr" v="372302" />
	</node>
	<node id="9630931383" lat="60.7830443" lon="8.9153884" version="1" timestamp="2022-04-02T07:04:06Z" changeset="119225034" uid="3497659" user="NKA">
		<tag k="historic" v="shieling" />
		<tag k="name" v="Veslevollen" />
		<tag k="place" v="isolated_dwelling" />
		<tag k="ssr:stedsnr" v="433240" />
	</node>
	<node id="9630931384" lat="60.6534778" lon="9.0978166" version="1" timestamp="2022-04-02T07:04:06Z" changeset="119225034" uid="3497659" user="NKA">
		<tag k="name" v="Bakkeskoghytta" />
		<tag k="place" v="isolated_dwelling" />
		<tag k="ssr:stedsnr" v="586382" />
	</node>
	<node id="9630931385" lat="60.7563629" lon="8.8552158" version="1" timestamp="2022-04-02T07:04:06Z" changeset="119225034" uid="3497659" user="NKA">
		<tag k="name" v="Hatten" />
		<tag k="place" v="hamlet" />
		<tag k="ssr:stedsnr" v="797276" />
	</node>
	<node id="9630931386" lat="60.7994583" lon="8.8677638" version="1" timestamp="2022-04-02T07:04:06Z" changeset="119225034" uid="3497659" user="NKA">
		<tag k="historic" v="shieling" />
		<tag k="name" v="Rasmusvollen" />
		<tag k="place" v="isolated_dwelling" />
		<tag k="ssr:stedsnr" v="614490" />
	</node>
	<node id="9630931387" lat="60.7575213" lon="8.7675166" version="1" timestamp="2022-04-02T07:04:06Z" changeset="119225034" uid="3497659" user="NKA">
		<tag k="historic" v="shieling" />
		<tag k="name" v="Rohaugstølen" />
		<tag k="place" v="isolated_dwelling" />
		<tag k="ssr:stedsnr" v="768894" />
	</node>
	<node id="9630931388" lat="60.6893464" lon="8.8613553" version="1" timestamp="2022-04-02T07:04:06Z" changeset="119225034" uid="3497659" user="NKA">
		<tag k="alt_name" v="Granlii" />
		<tag k="name" v="Granli" />
		<tag k="place" v="farm" />
		<tag k="ssr:stedsnr" v="282294" />
	</node>
	<node id="9630931389" lat="60.7054888" lon="9.1753362" version="1" timestamp="2022-04-02T07:04:06Z" changeset="119225034" uid="3497659" user="NKA">
		<tag k="historic" v="shieling" />
		<tag k="name" v="Eivindlie" />
		<tag k="place" v="isolated_dwelling" />
		<tag k="ssr:stedsnr" v="796372" />
	</node>
	<node id="9630931390" lat="60.7185164" lon="8.8295087" version="1" timestamp="2022-04-02T07:04:06Z" changeset="119225034" uid="3497659" user="NKA">
		<tag k="historic" v="shieling" />
		<tag k="name" v="Feten" />
		<tag k="place" v="isolated_dwelling" />
		<tag k="ssr:stedsnr" v="309861" />
	</node>
	<node id="9630931391" lat="60.802683" lon="9.0061158" version="1" timestamp="2022-04-02T07:04:06Z" changeset="119225034" uid="3497659" user="NKA">
		<tag k="alt_name" v="Vikovollen" />
		<tag k="historic" v="shieling" />
		<tag k="name" v="Jønnbustølen" />
		<tag k="place" v="isolated_dwelling" />
		<tag k="ssr:stedsnr" v="736288" />
	</node>
	<node id="9630931392" lat="60.7863421" lon="8.9058446" version="1" timestamp="2022-04-02T07:04:06Z" changeset="119225034" uid="3497659" user="NKA">
		<tag k="historic" v="shieling" />
		<tag k="name" v="Svartebråtstølen" />
		<tag k="old_name" v="Svartebråtsetra;Svartebråtsetre" />
		<tag k="place" v="isolated_dwelling" />
		<tag k="ssr:stedsnr" v="8304" />
	</node>
	<node id="9630931393" lat="60.8037122" lon="9.1076374" version="1" timestamp="2022-04-02T07:04:06Z" changeset="119225034" uid="3497659" user="NKA">
		<tag k="name" v="Nedre Røyseskogen" />
		<tag k="place" v="farm" />
		<tag k="ssr:stedsnr" v="1076479" />
	</node>
	<node id="9630931394" lat="60.8045241" lon="8.9730557" version="1" timestamp="2022-04-02T07:04:06Z" changeset="119225034" uid="3497659" user="NKA">
		<tag k="name" v="Kontakten" />
		<tag k="place" v="isolated_dwelling" />
		<tag k="ssr:stedsnr" v="584391" />
	</node>
	<node id="9630931395" lat="60.7374281" lon="9.1612148" version="1" timestamp="2022-04-02T07:04:06Z" changeset="119225034" uid="3497659" user="NKA">
		<tag k="alt_name" v="Søthaug" />
		<tag k="name" v="Søtehaug" />
		<tag k="place" v="locality" />
		<tag k="ssr:stedsnr" v="796155" />
	</node>
	<node id="9630931396" lat="60.7849419" lon="9.0000789" version="1" timestamp="2022-04-02T07:04:06Z" changeset="119225034" uid="3497659" user="NKA">
		<tag k="historic" v="shieling" />
		<tag k="name" v="Rust heimseter" />
		<tag k="place" v="isolated_dwelling" />
		<tag k="ssr:stedsnr" v="159286" />
	</node>
	<node id="9630931397" lat="60.7417242" lon="8.8715676" version="1" timestamp="2022-04-02T07:04:06Z" changeset="119225034" uid="3497659" user="NKA">
		<tag k="name" v="Nordre Løstegard" />
		<tag k="place" v="farm" />
		<tag k="ssr:stedsnr" v="829998" />
	</node>
	<node id="9630931398" lat="60.797948" lon="8.8244538" version="1" timestamp="2022-04-02T07:04:06Z" changeset="119225034" uid="3497659" user="NKA">
		<tag k="name" v="Holet" />
		<tag k="place" v="isolated_dwelling" />
		<tag k="ssr:stedsnr" v="858002" />
	</node>
	<node id="9630931399" lat="60.6491976" lon="9.0620151" version="1" timestamp="2022-04-02T07:04:06Z" changeset="119225034" uid="3497659" user="NKA">
		<tag k="alt_name" v="Lii" />
		<tag k="name" v="Lien" />
		<tag k="place" v="farm" />
		<tag k="ssr:stedsnr" v="110699" />
	</node>
	<node id="9630931400" lat="60.7379583" lon="9.2372524" version="1" timestamp="2022-04-02T07:04:06Z" changeset="119225034" uid="3497659" user="NKA">
		<tag k="historic" v="shieling" />
		<tag k="name" v="Tangevollen" />
		<tag k="place" v="isolated_dwelling" />
		<tag k="ssr:stedsnr" v="1072082" />
	</node>
	<node id="9630931401" lat="60.6920417" lon="8.8181417" version="1" timestamp="2022-04-02T07:04:06Z" changeset="119225034" uid="3497659" user="NKA">
		<tag k="name" v="Vestre Grov" />
		<tag k="place" v="farm" />
		<tag k="ssr:stedsnr" v="343414" />
	</node>
	<node id="9630931402" lat="60.7509012" lon="8.8307543" version="1" timestamp="2022-04-02T07:04:06Z" changeset="119225034" uid="3497659" user="NKA">
		<tag k="name" v="Slåttestølen" />
		<tag k="place" v="farm" />
		<tag k="ssr:stedsnr" v="615058" />
	</node>
	<node id="9630931403" lat="60.7225269" lon="8.9523263" version="1" timestamp="2022-04-02T07:04:06Z" changeset="119225034" uid="3497659" user="NKA">
		<tag k="alt_name" v="Trelverket" />
		<tag k="name" v="Treverket" />
		<tag k="place" v="farm" />
		<tag k="ssr:stedsnr" v="49468" />
	</node>
	<node id="9630931404" lat="60.7980632" lon="8.9935115" version="1" timestamp="2022-04-02T07:04:06Z" changeset="119225034" uid="3497659" user="NKA">
		<tag k="historic" v="shieling" />
		<tag k="loc_name" v="Espedokkvollen" />
		<tag k="name" v="Espedokki seter" />
		<tag k="place" v="isolated_dwelling" />
		<tag k="ssr:stedsnr" v="281284" />
	</node>
	<node id="9630931405" lat="60.7004765" lon="8.9119283" version="1" timestamp="2022-04-02T07:04:06Z" changeset="119225034" uid="3497659" user="NKA">
		<tag k="name" v="Furujordet" />
		<tag k="place" v="farm" />
		<tag k="ssr:stedsnr" v="118196" />
	</node>
	<node id="9630931406" lat="60.6785586" lon="9.1764672" version="1" timestamp="2022-04-02T07:04:06Z" changeset="119225034" uid="3497659" user="NKA">
		<tag k="name" v="Nyvollen" />
		<tag k="place" v="isolated_dwelling" />
		<tag k="ssr:stedsnr" v="917269" />
	</node>
	<node id="9630931407" lat="60.7864278" lon="8.9178667" version="1" timestamp="2022-04-02T07:04:06Z" changeset="119225034" uid="3497659" user="NKA">
		<tag k="historic" v="shieling" />
		<tag k="name" v="Bergavollen" />
		<tag k="place" v="isolated_dwelling" />
		<tag k="ssr:stedsnr" v="251293" />
	</node>
	<node id="9630931408" lat="60.7217389" lon="8.9758517" version="1" timestamp="2022-04-02T07:04:06Z" changeset="119225034" uid="3497659" user="NKA">
		<tag k="name" v="Olavsbråten" />
		<tag k="place" v="farm" />
		<tag k="ssr:stedsnr" v="950789" />
	</node>
	<node id="9630931409" lat="60.7072773" lon="9.0035411" version="1" timestamp="2022-04-02T07:04:06Z" changeset="119225034" uid="3497659" user="NKA">
		<tag k="name" v="Glenna" />
		<tag k="place" v="locality" />
		<tag k="ssr:stedsnr" v="857387" />
	</node>
	<node id="9630931410" lat="60.750875" lon="8.8160528" version="1" timestamp="2022-04-02T07:04:06Z" changeset="119225034" uid="3497659" user="NKA">
		<tag k="name" v="Ivarsrud" />
		<tag k="place" v="farm" />
		<tag k="ssr:stedsnr" v="494066" />
	</node>
	<node id="9630931411" lat="60.6921131" lon="9.0307687" version="1" timestamp="2022-04-02T07:04:06Z" changeset="119225034" uid="3497659" user="NKA">
		<tag k="alt_name" v="Ommundsli" />
		<tag k="name" v="Amundsli" />
		<tag k="place" v="farm" />
		<tag k="ssr:stedsnr" v="417298" />
	</node>
	<node id="9630931412" lat="60.7571813" lon="8.7705298" version="1" timestamp="2022-04-02T07:04:06Z" changeset="119225034" uid="3497659" user="NKA">
		<tag k="name" v="Nibstadvollen" />
		<tag k="place" v="isolated_dwelling" />
		<tag k="ssr:stedsnr" v="768898" />
	</node>
	<node id="9630931413" lat="60.6849829" lon="9.0282861" version="1" timestamp="2022-04-02T07:04:06Z" changeset="119225034" uid="3497659" user="NKA">
		<tag k="name" v="Lauvli" />
		<tag k="place" v="farm" />
		<tag k="ssr:stedsnr" v="466011" />
	</node>
	<node id="9630931414" lat="60.7609841" lon="8.8455108" version="1" timestamp="2022-04-02T07:04:06Z" changeset="119225034" uid="3497659" user="NKA">
		<tag k="name" v="Skogheim" />
		<tag k="place" v="farm" />
		<tag k="ssr:stedsnr" v="433286" />
	</node>
	<node id="9630931415" lat="60.7439622" lon="8.8761128" version="1" timestamp="2022-04-02T07:04:06Z" changeset="119225034" uid="3497659" user="NKA">
		<tag k="name" v="Frydlund" />
		<tag k="place" v="farm" />
		<tag k="ssr:stedsnr" v="310170" />
	</node>
	<node id="9630931416" lat="60.722775" lon="8.8757416" version="1" timestamp="2022-04-02T07:04:06Z" changeset="119225034" uid="3497659" user="NKA">
		<tag k="name" v="Holt" />
		<tag k="place" v="isolated_dwelling" />
		<tag k="ssr:stedsnr" v="735146" />
	</node>
	<node id="9630931417" lat="60.7181849" lon="8.9685059" version="1" timestamp="2022-04-02T07:04:06Z" changeset="119225034" uid="3497659" user="NKA">
		<tag k="name" v="Brenna" />
		<tag k="old_name" v="Brenno" />
		<tag k="place" v="farm" />
		<tag k="ssr:stedsnr" v="857140" />
	</node>
	<node id="9630931418" lat="60.838342" lon="8.8546257" version="1" timestamp="2022-04-02T07:04:06Z" changeset="119225034" uid="3497659" user="NKA">
		<tag k="historic" v="shieling" />
		<tag k="name" v="Brattebakken" />
		<tag k="place" v="isolated_dwelling" />
		<tag k="ssr:stedsnr" v="919448" />
	</node>
	<node id="9630931419" lat="60.7014088" lon="8.9077014" version="1" timestamp="2022-04-02T07:04:06Z" changeset="119225034" uid="3497659" user="NKA">
		<tag k="name" v="Skaga" />
		<tag k="place" v="farm" />
		<tag k="ssr:stedsnr" v="917281" />
	</node>
	<node id="9630931420" lat="60.6675361" lon="9.041032" version="1" timestamp="2022-04-02T07:04:06Z" changeset="119225034" uid="3497659" user="NKA">
		<tag k="name" v="Hovland" />
		<tag k="place" v="farm" />
		<tag k="ssr:stedsnr" v="222352" />
	</node>
	<node id="9630931421" lat="60.7921194" lon="8.8808583" version="1" timestamp="2022-04-02T07:04:06Z" changeset="119225034" uid="3497659" user="NKA">
		<tag k="alt_name" v="Rønnughaugvollen" />
		<tag k="name" v="Rønnhaugvollen" />
		<tag k="place" v="isolated_dwelling" />
		<tag k="ssr:stedsnr" v="372290" />
	</node>
	<node id="9630931422" lat="60.65788" lon="9.0522319" version="1" timestamp="2022-04-02T07:04:06Z" changeset="119225034" uid="3497659" user="NKA">
		<tag k="alt_name" v="Bakken" />
		<tag k="name" v="Engebakken" />
		<tag k="place" v="farm" />
		<tag k="ssr:stedsnr" v="249247" />
	</node>
	<node id="9630931423" lat="60.7846664" lon="9.000067" version="1" timestamp="2022-04-02T07:04:06Z" changeset="119225034" uid="3497659" user="NKA">
		<tag k="historic" v="shieling" />
		<tag k="name" v="Rustevollen" />
		<tag k="place" v="isolated_dwelling" />
		<tag k="ssr:stedsnr" v="766249" />
	</node>
	<node id="9630931424" lat="60.7058083" lon="8.9740584" version="1" timestamp="2022-04-02T07:04:06Z" changeset="119225034" uid="3497659" user="NKA">
		<tag k="name" v="Domholt" />
		<tag k="place" v="locality" />
		<tag k="ssr:stedsnr" v="709164" />
	</node>
	<node id="9630931425" lat="60.7122453" lon="8.9627126" version="1" timestamp="2022-04-02T07:04:06Z" changeset="119225034" uid="3497659" user="NKA">
		<tag k="alt_name" v="Bjørkedokken" />
		<tag k="name" v="Bjørkedokki" />
		<tag k="place" v="farm" />
		<tag k="ssr:stedsnr" v="857386" />
	</node>
	<node id="9630931426" lat="60.7189321" lon="8.8786203" version="1" timestamp="2022-04-02T07:04:06Z" changeset="119225034" uid="3497659" user="NKA">
		<tag k="alt_name" v="Øvre Langset" />
		<tag k="historic" v="shieling" />
		<tag k="name" v="Langset" />
		<tag k="place" v="isolated_dwelling" />
		<tag k="ssr:stedsnr" v="796131" />
	</node>
	<node id="9630931427" lat="60.6833421" lon="8.8480106" version="1" timestamp="2022-04-02T07:04:06Z" changeset="119225034" uid="3497659" user="NKA">
		<tag k="name" v="Søre Gutigard" />
		<tag k="place" v="farm" />
		<tag k="ssr:stedsnr" v="646365" />
	</node>
	<node id="9630931428" lat="60.7227889" lon="8.9276723" version="1" timestamp="2022-04-02T07:04:06Z" changeset="119225034" uid="3497659" user="NKA">
		<tag k="name" v="Eliberget" />
		<tag k="place" v="locality" />
		<tag k="ssr:stedsnr" v="466202" />
	</node>
	<node id="9630931429" lat="60.789354" lon="9.1319459" version="1" timestamp="2022-04-02T07:04:06Z" changeset="119225034" uid="3497659" user="NKA">
		<tag k="name" v="Nordbrenn" />
		<tag k="place" v="farm" />
		<tag k="ssr:stedsnr" v="281278" />
	</node>
	<node id="9630931430" lat="60.7000301" lon="8.9766519" version="1" timestamp="2022-04-02T07:04:06Z" changeset="119225034" uid="3497659" user="NKA">
		<tag k="name" v="Søre Nøreim" />
		<tag k="place" v="farm" />
		<tag k="ssr:stedsnr" v="963173" />
	</node>
	<node id="9630931431" lat="60.6834819" lon="8.8829711" version="1" timestamp="2022-04-02T07:04:06Z" changeset="119225034" uid="3497659" user="NKA">
		<tag k="name" v="Fossheim" />
		<tag k="place" v="farm" />
		<tag k="ssr:stedsnr" v="6314" />
	</node>
	<node id="9630931432" lat="60.7996223" lon="8.8441791" version="1" timestamp="2022-04-02T07:04:06Z" changeset="119225034" uid="3497659" user="NKA">
		<tag k="alt_name" v="Lauvsetstølen" />
		<tag k="historic" v="shieling" />
		<tag k="name" v="Rustevollen" />
		<tag k="place" v="isolated_dwelling" />
		<tag k="ssr:stedsnr" v="614001" />
	</node>
	<node id="9630931433" lat="60.7984449" lon="8.99201" version="1" timestamp="2022-04-02T07:04:06Z" changeset="119225034" uid="3497659" user="NKA">
		<tag k="historic" v="shieling" />
		<tag k="name" v="Moen seter" />
		<tag k="place" v="isolated_dwelling" />
		<tag k="ssr:stedsnr" v="827291" />
	</node>
	<node id="9630931434" lat="60.702015" lon="8.9541397" version="1" timestamp="2022-04-02T07:04:06Z" changeset="119225034" uid="3497659" user="NKA">
		<tag k="name" v="Breidokk" />
		<tag k="place" v="farm" />
		<tag k="ssr:stedsnr" v="967172" />
	</node>
	<node id="9630931435" lat="60.7743694" lon="9.0430333" version="1" timestamp="2022-04-02T07:04:06Z" changeset="119225034" uid="3497659" user="NKA">
		<tag k="historic" v="shieling" />
		<tag k="name" v="Slåttebu" />
		<tag k="place" v="isolated_dwelling" />
		<tag k="ssr:stedsnr" v="615278" />
	</node>
	<node id="9630931436" lat="60.7798972" lon="8.9733" version="1" timestamp="2022-04-02T07:04:06Z" changeset="119225034" uid="3497659" user="NKA">
		<tag k="name" v="Sevjabakken" />
		<tag k="place" v="locality" />
		<tag k="ssr:stedsnr" v="180733" />
	</node>
	<node id="9630931437" lat="60.7356694" lon="8.7894722" version="1" timestamp="2022-04-02T07:04:06Z" changeset="119225034" uid="3497659" user="NKA">
		<tag k="historic" v="shieling" />
		<tag k="name" v="Lislastølen" />
		<tag k="place" v="isolated_dwelling" />
		<tag k="ssr:stedsnr" v="67818" />
	</node>
	<node id="9630931438" lat="60.7905332" lon="8.8671925" version="1" timestamp="2022-04-02T07:04:06Z" changeset="119225034" uid="3497659" user="NKA">
		<tag k="alt_name" v="Lauvsetstølan" />
		<tag k="historic" v="shieling" />
		<tag k="name" v="Lauvset" />
		<tag k="place" v="isolated_dwelling" />
		<tag k="ssr:stedsnr" v="858269" />
	</node>
	<node id="9630931439" lat="60.691165" lon="8.8719809" version="1" timestamp="2022-04-02T07:04:06Z" changeset="119225034" uid="3497659" user="NKA">
		<tag k="alt_name" v="Øvre Gjeglheim" />
		<tag k="name" v="Øvre Jegleim" />
		<tag k="place" v="farm" />
		<tag k="ssr:stedsnr" v="48181" />
	</node>
	<node id="9630931440" lat="60.6646449" lon="9.041678" version="1" timestamp="2022-04-02T07:04:06Z" changeset="119225034" uid="3497659" user="NKA">
		<tag k="name" v="Haugen" />
		<tag k="place" v="farm" />
		<tag k="ssr:stedsnr" v="161400" />
	</node>
	<node id="9630931441" lat="60.6414078" lon="9.0598373" version="1" timestamp="2022-04-02T07:04:06Z" changeset="119225034" uid="3497659" user="NKA">
		<tag k="alt_name" v="Arnfinnmo" />
		<tag k="name" v="Arnfinnmoen" />
		<tag k="place" v="locality" />
		<tag k="ssr:stedsnr" v="783455" />
	</node>
	<node id="9630931442" lat="60.7913282" lon="8.8166878" version="1" timestamp="2022-04-02T07:04:06Z" changeset="119225034" uid="3497659" user="NKA">
		<tag k="name" v="Skogly" />
		<tag k="place" v="isolated_dwelling" />
		<tag k="ssr:stedsnr" v="554020" />
	</node>
	<node id="9630931443" lat="60.7936721" lon="8.8557668" version="1" timestamp="2022-04-02T07:04:06Z" changeset="119225034" uid="3497659" user="NKA">
		<tag k="name" v="Svartebråtvollen" />
		<tag k="place" v="isolated_dwelling" />
		<tag k="ssr:stedsnr" v="665698" />
	</node>
	<node id="9630931444" lat="60.698177" lon="8.9983718" version="1" timestamp="2022-04-02T07:04:06Z" changeset="119225034" uid="3497659" user="NKA">
		<tag k="name" v="Eiklund" />
		<tag k="place" v="farm" />
		<tag k="ssr:stedsnr" v="952180" />
	</node>
	<node id="9630931445" lat="60.6789704" lon="8.807788" version="1" timestamp="2022-04-02T07:04:06Z" changeset="119225034" uid="3497659" user="NKA">
		<tag k="name" v="Botten" />
		<tag k="place" v="farm" />
		<tag k="ssr:stedsnr" v="161377" />
	</node>
	<node id="9630931446" lat="60.6996861" lon="9.0049799" version="1" timestamp="2022-04-02T07:04:06Z" changeset="119225034" uid="3497659" user="NKA">
		<tag k="name" v="Nedre Hoftun" />
		<tag k="place" v="farm" />
		<tag k="ssr:stedsnr" v="102172" />
	</node>
	<node id="9630931447" lat="60.7481511" lon="8.8330648" version="1" timestamp="2022-04-02T07:04:06Z" changeset="119225034" uid="3497659" user="NKA">
		<tag k="alt_name" v="Raunedokken" />
		<tag k="name" v="Raunedokki" />
		<tag k="place" v="farm" />
		<tag k="ssr:stedsnr" v="127821" />
	</node>
	<node id="9630931448" lat="60.796495" lon="8.7982476" version="1" timestamp="2022-04-02T07:04:06Z" changeset="119225034" uid="3497659" user="NKA">
		<tag k="name" v="Sørbølhaugen" />
		<tag k="place" v="farm" />
		<tag k="ssr:stedsnr" v="312015" />
	</node>
	<node id="9630931449" lat="60.6532084" lon="9.0639416" version="1" timestamp="2022-04-02T07:04:06Z" changeset="119225034" uid="3497659" user="NKA">
		<tag k="name" v="Hjallen" />
		<tag k="place" v="farm" />
		<tag k="ssr:stedsnr" v="431303" />
	</node>
	<node id="9630931450" lat="60.7828528" lon="8.9462305" version="1" timestamp="2022-04-02T07:04:06Z" changeset="119225034" uid="3497659" user="NKA">
		<tag k="historic" v="shieling" />
		<tag k="name" v="Veslestølen" />
		<tag k="place" v="isolated_dwelling" />
		<tag k="ssr:stedsnr" v="362673" />
	</node>
	<node id="9630931451" lat="60.718362" lon="8.9434295" version="1" timestamp="2022-04-02T07:04:06Z" changeset="119225034" uid="3497659" user="NKA">
		<tag k="name" v="Moen" />
		<tag k="place" v="farm" />
		<tag k="ssr:stedsnr" v="527201" />
	</node>
	<node id="9630931452" lat="60.6472281" lon="9.0884181" version="1" timestamp="2022-04-02T07:04:06Z" changeset="119225034" uid="3497659" user="NKA">
		<tag k="name" v="Nedre Kastet" />
		<tag k="place" v="farm" />
		<tag k="ssr:stedsnr" v="480483" />
	</node>
	<node id="9630931453" lat="60.7339278" lon="8.8367139" version="1" timestamp="2022-04-02T07:04:06Z" changeset="119225034" uid="3497659" user="NKA">
		<tag k="historic" v="shieling" />
		<tag k="name" v="Marivollen" />
		<tag k="place" v="isolated_dwelling" />
		<tag k="ssr:stedsnr" v="431838" />
	</node>
	<node id="9630931454" lat="60.6983555" lon="8.9718862" version="1" timestamp="2022-04-02T07:04:06Z" changeset="119225034" uid="3497659" user="NKA">
		<tag k="name" v="Nørdre Nøreim" />
		<tag k="place" v="farm" />
		<tag k="ssr:stedsnr" v="174218" />
	</node>
	<node id="9630931455" lat="60.6936371" lon="8.887109" version="1" timestamp="2022-04-02T07:04:06Z" changeset="119225034" uid="3497659" user="NKA">
		<tag k="name" v="Rudningen" />
		<tag k="place" v="farm" />
		<tag k="ssr:stedsnr" v="422200" />
	</node>
	<node id="9630931456" lat="60.6351922" lon="9.0708758" version="1" timestamp="2022-04-02T07:04:06Z" changeset="119225034" uid="3497659" user="NKA">
		<tag k="alt_name" v="Hovind" />
		<tag k="name" v="Hovin" />
		<tag k="place" v="farm" />
		<tag k="ssr:stedsnr" v="963511" />
	</node>
	<node id="9630931457" lat="60.7153389" lon="8.9169668" version="1" timestamp="2022-04-02T07:04:06Z" changeset="119225034" uid="3497659" user="NKA">
		<tag k="name" v="Juven" />
		<tag k="place" v="farm" />
		<tag k="ssr:stedsnr" v="406194" />
	</node>
	<node id="9630931458" lat="60.78355" lon="8.7968056" version="1" timestamp="2022-04-02T07:04:06Z" changeset="119225034" uid="3497659" user="NKA">
		<tag k="name" v="Roflekk" />
		<tag k="place" v="locality" />
		<tag k="ssr:stedsnr" v="675021" />
	</node>
	<node id="9630931459" lat="60.715475" lon="8.9078222" version="1" timestamp="2022-04-02T07:04:06Z" changeset="119225034" uid="3497659" user="NKA">
		<tag k="name" v="Nedre Sagabråten" />
		<tag k="place" v="farm" />
		<tag k="ssr:stedsnr" v="41177" />
	</node>
	<node id="9630931460" lat="60.7011864" lon="9.0069921" version="1" timestamp="2022-04-02T07:04:06Z" changeset="119225034" uid="3497659" user="NKA">
		<tag k="name" v="Frøysåk" />
		<tag k="old_name" v="Frøysaak;Nordre Frøysaker;Nørdre Frøysåk" />
		<tag k="place" v="farm" />
		<tag k="ssr:stedsnr" v="310332" />
	</node>
	<node id="9630931461" lat="60.8369194" lon="8.9471527" version="1" timestamp="2022-04-02T07:04:06Z" changeset="119225034" uid="3497659" user="NKA">
		<tag k="name" v="Øvre Perhusvollen" />
		<tag k="place" v="farm" />
		<tag k="ssr:stedsnr" v="341535" />
	</node>
	<node id="9630931462" lat="60.6926023" lon="9.0306298" version="1" timestamp="2022-04-02T07:04:06Z" changeset="119225034" uid="3497659" user="NKA">
		<tag k="name" v="Steingrimsli" />
		<tag k="place" v="farm" />
		<tag k="ssr:stedsnr" v="795324" />
	</node>
	<node id="9630931463" lat="60.8000621" lon="8.9958744" version="1" timestamp="2022-04-02T07:04:06Z" changeset="119225034" uid="3497659" user="NKA">
		<tag k="historic" v="shieling" />
		<tag k="loc_name" v="Espedokkmyre" />
		<tag k="name" v="Espedokkmyri" />
		<tag k="place" v="isolated_dwelling" />
		<tag k="ssr:stedsnr" v="159267" />
	</node>
	<node id="9630931464" lat="60.8400427" lon="8.8536372" version="1" timestamp="2022-04-02T07:04:06Z" changeset="119225034" uid="3497659" user="NKA">
		<tag k="historic" v="shieling" />
		<tag k="name" v="Nystølen" />
		<tag k="place" v="isolated_dwelling" />
		<tag k="ssr:stedsnr" v="130412" />
	</node>
	<node id="9630931465" lat="60.7453611" lon="8.8344361" version="1" timestamp="2022-04-02T07:04:06Z" changeset="119225034" uid="3497659" user="NKA">
		<tag k="historic" v="shieling" />
		<tag k="name" v="Stuveset" />
		<tag k="place" v="hamlet" />
		<tag k="ssr:stedsnr" v="856809" />
	</node>
	<node id="9630931466" lat="60.6848791" lon="9.0396299" version="1" timestamp="2022-04-02T07:04:06Z" changeset="119225034" uid="3497659" user="NKA">
		<tag k="alt_name" v="Roen" />
		<tag k="name" v="Roni" />
		<tag k="place" v="farm" />
		<tag k="ssr:stedsnr" v="371280" />
	</node>
	<node id="9630931467" lat="60.7089707" lon="8.9581921" version="1" timestamp="2022-04-02T07:04:06Z" changeset="119225034" uid="3497659" user="NKA">
		<tag k="name" v="Larshus" />
		<tag k="place" v="farm" />
		<tag k="ssr:stedsnr" v="553349" />
	</node>
	<node id="9630931468" lat="60.6836343" lon="8.873856" version="1" timestamp="2022-04-02T07:04:06Z" changeset="119225034" uid="3497659" user="NKA">
		<tag k="name" v="Nedrebråten" />
		<tag k="place" v="farm" />
		<tag k="ssr:stedsnr" v="222069" />
	</node>
	<node id="9630931469" lat="60.7412166" lon="8.8225916" version="1" timestamp="2022-04-02T07:04:06Z" changeset="119225034" uid="3497659" user="NKA">
		<tag k="historic" v="shieling" />
		<tag k="name" v="Magnetunrudningen" />
		<tag k="place" v="isolated_dwelling" />
		<tag k="ssr:stedsnr" v="612795" />
	</node>
	<node id="9630931470" lat="60.7672961" lon="8.7615605" version="1" timestamp="2022-04-02T07:04:06Z" changeset="119225034" uid="3497659" user="NKA">
		<tag k="name" v="Olsgardlie" />
		<tag k="place" v="farm" />
		<tag k="ssr:stedsnr" v="42797" />
	</node>
	<node id="9630931471" lat="60.7213047" lon="8.8989115" version="1" timestamp="2022-04-02T07:04:06Z" changeset="119225034" uid="3497659" user="NKA">
		<tag k="name" v="Holtegard" />
		<tag k="place" v="hamlet" />
		<tag k="ssr:stedsnr" v="735118" />
	</node>
	<node id="9630931472" lat="60.8526733" lon="8.9107937" version="1" timestamp="2022-04-02T07:04:06Z" changeset="119225034" uid="3497659" user="NKA">
		<tag k="name" v="Søre Leikvollen" />
		<tag k="place" v="farm" />
		<tag k="ssr:stedsnr" v="1082436" />
	</node>
	<node id="9630931473" lat="60.7922193" lon="9.1823089" version="1" timestamp="2022-04-02T07:04:06Z" changeset="119225034" uid="3497659" user="NKA">
		<tag k="historic" v="shieling" />
		<tag k="name" v="Hølstølen" />
		<tag k="place" v="hamlet" />
		<tag k="ssr:stedsnr" v="797248" />
	</node>
	<node id="9630931474" lat="60.7809135" lon="8.9259572" version="1" timestamp="2022-04-02T07:04:06Z" changeset="119225034" uid="3497659" user="NKA">
		<tag k="historic" v="shieling" />
		<tag k="name" v="Søre Vermelie" />
		<tag k="place" v="isolated_dwelling" />
		<tag k="ssr:stedsnr" v="787675" />
	</node>
	<node id="9630931475" lat="60.7164167" lon="9.0415278" version="1" timestamp="2022-04-02T07:04:06Z" changeset="119225034" uid="3497659" user="NKA">
		<tag k="historic" v="shieling" />
		<tag k="name" v="Sygardshytta" />
		<tag k="place" v="isolated_dwelling" />
		<tag k="ssr:stedsnr" v="768816" />
	</node>
	<node id="9630931476" lat="60.705928" lon="9.0220104" version="1" timestamp="2022-04-02T07:04:06Z" changeset="119225034" uid="3497659" user="NKA">
		<tag k="alt_name" v="Halden;Nybråten" />
		<tag k="name" v="Halli" />
		<tag k="place" v="farm" />
		<tag k="ssr:stedsnr" v="857399" />
	</node>
	<node id="9630931477" lat="60.7273952" lon="8.8974163" version="1" timestamp="2022-04-02T07:04:06Z" changeset="119225034" uid="3497659" user="NKA">
		<tag k="name" v="Rese" />
		<tag k="place" v="farm" />
		<tag k="ssr:stedsnr" v="249133" />
	</node>
	<node id="9630931478" lat="60.741365" lon="8.8079817" version="1" timestamp="2022-04-02T07:04:06Z" changeset="119225034" uid="3497659" user="NKA">
		<tag k="historic" v="shieling" />
		<tag k="name" v="Røyselie" />
		<tag k="place" v="isolated_dwelling" />
		<tag k="ssr:stedsnr" v="612794" />
	</node>
	<node id="9630931479" lat="60.8051722" lon="9.1123555" version="1" timestamp="2022-04-02T07:04:06Z" changeset="119225034" uid="3497659" user="NKA">
		<tag k="name" v="Fjøsstølremmen" />
		<tag k="place" v="locality" />
		<tag k="ssr:stedsnr" v="493466" />
	</node>
	<node id="9630931480" lat="60.7004865" lon="9.0084737" version="1" timestamp="2022-04-02T07:04:06Z" changeset="119225034" uid="3497659" user="NKA">
		<tag k="name" v="Hoftun" />
		<tag k="place" v="farm" />
		<tag k="ssr:stedsnr" v="431349" />
	</node>
	<node id="9630931481" lat="60.7377758" lon="9.2343952" version="1" timestamp="2022-04-02T07:04:06Z" changeset="119225034" uid="3497659" user="NKA">
		<tag k="historic" v="shieling" />
		<tag k="name" v="Søre Brøtavollen" />
		<tag k="place" v="isolated_dwelling" />
		<tag k="ssr:stedsnr" v="1072083" />
	</node>
	<node id="9630931482" lat="60.7605381" lon="8.7834426" version="1" timestamp="2022-04-02T07:04:06Z" changeset="119225034" uid="3497659" user="NKA">
		<tag k="name" v="Nordre Brennhovd" />
		<tag k="place" v="farm" />
		<tag k="ssr:stedsnr" v="252045" />
	</node>
	<node id="9630931483" lat="60.7269959" lon="8.8834146" version="1" timestamp="2022-04-02T07:04:06Z" changeset="119225034" uid="3497659" user="NKA">
		<tag k="name" v="Sjåheim" />
		<tag k="place" v="farm" />
		<tag k="ssr:stedsnr" v="102207" />
	</node>
	<node id="9630931484" lat="60.8287389" lon="8.9796055" version="1" timestamp="2022-04-02T07:04:06Z" changeset="119225034" uid="3497659" user="NKA">
		<tag k="alt_name" v="Buidn" />
		<tag k="historic" v="shieling" />
		<tag k="name" v="Buin" />
		<tag k="old_name" v="Buinn" />
		<tag k="place" v="isolated_dwelling" />
		<tag k="ssr:stedsnr" v="483539" />
	</node>
	<node id="9630931485" lat="60.6899723" lon="8.8732407" version="1" timestamp="2022-04-02T07:04:06Z" changeset="119225034" uid="3497659" user="NKA">
		<tag k="alt_name" v="Nordre Gjeglheim;Nordre Jegleim" />
		<tag k="name" v="Nørdre Jegleim" />
		<tag k="place" v="farm" />
		<tag k="ssr:stedsnr" v="776194" />
	</node>
	<node id="9630931486" lat="60.6979838" lon="9.0324378" version="1" timestamp="2022-04-02T07:04:06Z" changeset="119225034" uid="3497659" user="NKA">
		<tag k="name" v="Nørdreli" />
		<tag k="place" v="farm" />
		<tag k="ssr:stedsnr" v="219317" />
	</node>
	<node id="9630931487" lat="60.746175" lon="8.8048278" version="1" timestamp="2022-04-02T07:04:06Z" changeset="119225034" uid="3497659" user="NKA">
		<tag k="historic" v="shieling" />
		<tag k="name" v="Myklelie" />
		<tag k="place" v="isolated_dwelling" />
		<tag k="ssr:stedsnr" v="249783" />
	</node>
	<node id="9630931488" lat="60.8105111" lon="8.8264389" version="1" timestamp="2022-04-02T07:04:06Z" changeset="119225034" uid="3497659" user="NKA">
		<tag k="name" v="Embretsgard" />
		<tag k="place" v="isolated_dwelling" />
		<tag k="ssr:stedsnr" v="341331" />
	</node>
	<node id="9630931489" lat="60.6947445" lon="9.0380361" version="1" timestamp="2022-04-02T07:04:06Z" changeset="119225034" uid="3497659" user="NKA">
		<tag k="name" v="Bergo" />
		<tag k="place" v="farm" />
		<tag k="ssr:stedsnr" v="128293" />
	</node>
	<node id="9630931490" lat="60.7799861" lon="9.1710445" version="1" timestamp="2022-04-02T07:04:06Z" changeset="119225034" uid="3497659" user="NKA">
		<tag k="alt_name" v="Varhaug" />
		<tag k="historic" v="shieling" />
		<tag k="name" v="Vardhaug" />
		<tag k="place" v="isolated_dwelling" />
		<tag k="ssr:stedsnr" v="615289" />
	</node>
	<node id="9630931491" lat="60.718448" lon="9.1870562" version="1" timestamp="2022-04-02T07:04:06Z" changeset="119225034" uid="3497659" user="NKA">
		<tag k="historic" v="shieling" />
		<tag k="name" v="Vestrelie" />
		<tag k="place" v="isolated_dwelling" />
		<tag k="ssr:stedsnr" v="674342" />
	</node>
	<node id="9630931492" lat="60.7456781" lon="9.2585643" version="1" timestamp="2022-04-02T07:04:06Z" changeset="119225034" uid="3497659" user="NKA">
		<tag k="historic" v="shieling" />
		<tag k="name" v="Bergaleina" />
		<tag k="place" v="isolated_dwelling" />
		<tag k="ssr:stedsnr" v="189474" />
	</node>
	<node id="9630931493" lat="60.6383833" lon="9.0595948" version="1" timestamp="2022-04-02T07:04:06Z" changeset="119225034" uid="3497659" user="NKA">
		<tag k="name" v="Renslemoen" />
		<tag k="place" v="farm" />
		<tag k="ssr:stedsnr" v="413508" />
	</node>
	<node id="9630931494" lat="60.690867" lon="8.8739853" version="1" timestamp="2022-04-02T07:04:06Z" changeset="119225034" uid="3497659" user="NKA">
		<tag k="alt_name" v="Gjeglheim" />
		<tag k="name" v="Jegleim" />
		<tag k="place" v="farm" />
		<tag k="ssr:stedsnr" v="189318" />
	</node>
	<node id="9630931495" lat="60.7576169" lon="8.863284" version="1" timestamp="2022-04-02T07:04:06Z" changeset="119225034" uid="3497659" user="NKA">
		<tag k="name" v="Berget" />
		<tag k="place" v="farm" />
		<tag k="ssr:stedsnr" v="494273" />
	</node>
	<node id="9630931496" lat="60.7183682" lon="8.9312027" version="1" timestamp="2022-04-02T07:04:06Z" changeset="119225034" uid="3497659" user="NKA">
		<tag k="name" v="Bratterud" />
		<tag k="place" v="isolated_dwelling" />
		<tag k="ssr:stedsnr" v="284189" />
	</node>
	<node id="9630931497" lat="60.6781652" lon="9.0655361" version="1" timestamp="2022-04-02T07:04:06Z" changeset="119225034" uid="3497659" user="NKA">
		<tag k="alt_name" v="Veikulseter;Veikul Sr" />
		<tag k="historic" v="shieling" />
		<tag k="name" v="Veikulstølan" />
		<tag k="place" v="isolated_dwelling" />
		<tag k="ssr:stedsnr" v="7300" />
	</node>
	<node id="9630931498" lat="60.7051729" lon="8.9079614" version="1" timestamp="2022-04-02T07:04:06Z" changeset="119225034" uid="3497659" user="NKA">
		<tag k="name" v="Haugstad" />
		<tag k="place" v="farm" />
		<tag k="ssr:stedsnr" v="796351" />
	</node>
	<node id="9630931499" lat="60.6851513" lon="8.8436083" version="1" timestamp="2022-04-02T07:04:06Z" changeset="119225034" uid="3497659" user="NKA">
		<tag k="name" v="Jonsgard" />
		<tag k="place" v="farm" />
		<tag k="ssr:stedsnr" v="525428" />
	</node>
	<node id="9630931500" lat="60.8520341" lon="8.9261279" version="1" timestamp="2022-04-02T07:04:06Z" changeset="119225034" uid="3497659" user="NKA">
		<tag k="alt_name" v="Roseter" />
		<tag k="historic" v="shieling" />
		<tag k="name" v="Rostølen" />
		<tag k="old_name" v="Råstølen" />
		<tag k="place" v="isolated_dwelling" />
		<tag k="ssr:stedsnr" v="737434" />
	</node>
	<node id="9630931501" lat="60.7394428" lon="9.2398771" version="1" timestamp="2022-04-02T07:04:06Z" changeset="119225034" uid="3497659" user="NKA">
		<tag k="historic" v="shieling" />
		<tag k="name" v="Frøysåkstølan" />
		<tag k="place" v="hamlet" />
		<tag k="ssr:stedsnr" v="917485" />
	</node>
	<node id="9630931502" lat="60.7842417" lon="8.9425555" version="1" timestamp="2022-04-02T07:04:06Z" changeset="119225034" uid="3497659" user="NKA">
		<tag k="name" v="Skutuset" />
		<tag k="place" v="neighbourhood" />
		<tag k="ssr:stedsnr" v="614284" />
	</node>
	<node id="9630931503" lat="60.8000731" lon="8.8670558" version="1" timestamp="2022-04-02T07:04:06Z" changeset="119225034" uid="3497659" user="NKA">
		<tag k="historic" v="shieling" />
		<tag k="loc_name" v="Raudbakkvollen" />
		<tag k="name" v="Raubakken seter" />
		<tag k="place" v="isolated_dwelling" />
		<tag k="ssr:stedsnr" v="180655" />
	</node>
	<node id="9630931504" lat="60.6795088" lon="8.8216057" version="1" timestamp="2022-04-02T07:04:06Z" changeset="119225034" uid="3497659" user="NKA">
		<tag k="name" v="Bergli" />
		<tag k="place" v="farm" />
		<tag k="ssr:stedsnr" v="950379" />
	</node>
	<node id="9630931505" lat="60.6969695" lon="8.8120695" version="1" timestamp="2022-04-02T07:04:06Z" changeset="119225034" uid="3497659" user="NKA">
		<tag k="alt_name" v="Tubbedokken" />
		<tag k="historic" v="shieling" />
		<tag k="name" v="Tubbedokki" />
		<tag k="place" v="isolated_dwelling" />
		<tag k="ssr:stedsnr" v="856901" />
	</node>
	<node id="9630931506" lat="60.7229902" lon="8.9834761" version="1" timestamp="2022-04-02T07:04:06Z" changeset="119225034" uid="3497659" user="NKA">
		<tag k="name" v="Rust" />
		<tag k="place" v="hamlet" />
		<tag k="ssr:stedsnr" v="39776" />
	</node>
	<node id="9630931507" lat="60.6894868" lon="8.8679058" version="1" timestamp="2022-04-02T07:04:06Z" changeset="119225034" uid="3497659" user="NKA">
		<tag k="name" v="Hanseplassen" />
		<tag k="place" v="farm" />
		<tag k="ssr:stedsnr" v="224144" />
	</node>
	<node id="9630931508" lat="60.7946146" lon="8.8033819" version="1" timestamp="2022-04-02T07:04:06Z" changeset="119225034" uid="3497659" user="NKA">
		<tag k="name" v="Sørbøl" />
		<tag k="place" v="farm" />
		<tag k="ssr:stedsnr" v="311002" />
	</node>
	<node id="9630931509" lat="60.6925472" lon="8.9104333" version="1" timestamp="2022-04-02T07:04:06Z" changeset="119225034" uid="3497659" user="NKA">
		<tag k="name" v="Musehaugen" />
		<tag k="place" v="farm" />
		<tag k="ssr:stedsnr" v="613342" />
	</node>
	<node id="9630931510" lat="60.6895582" lon="9.027404" version="1" timestamp="2022-04-02T07:04:06Z" changeset="119225034" uid="3497659" user="NKA">
		<tag k="name" v="Larsplass" />
		<tag k="place" v="farm" />
		<tag k="ssr:stedsnr" v="412656" />
	</node>
	<node id="9630931511" lat="60.718113" lon="8.9397444" version="1" timestamp="2022-04-02T07:04:06Z" changeset="119225034" uid="3497659" user="NKA">
		<tag k="name" v="Berg" />
		<tag k="place" v="hamlet" />
		<tag k="ssr:stedsnr" v="492889" />
	</node>
	<node id="9630931512" lat="60.6764381" lon="8.8169291" version="1" timestamp="2022-04-02T07:04:06Z" changeset="119225034" uid="3497659" user="NKA">
		<tag k="name" v="Håvålmoen" />
		<tag k="old_name" v="Håvardmoen;Hovelmoen;Haavaalmoen;Haavalmoen" />
		<tag k="place" v="farm" />
		<tag k="ssr:stedsnr" v="249953" />
	</node>
	<node id="9630931513" lat="60.852875" lon="8.9178056" version="1" timestamp="2022-04-02T07:04:06Z" changeset="119225034" uid="3497659" user="NKA">
		<tag k="historic" v="shieling" />
		<tag k="name" v="Jordesvollen" />
		<tag k="place" v="isolated_dwelling" />
		<tag k="ssr:stedsnr" v="70444" />
	</node>
	<node id="9630931514" lat="60.834384" lon="8.9983257" version="1" timestamp="2022-04-02T07:04:06Z" changeset="119225034" uid="3497659" user="NKA">
		<tag k="historic" v="shieling" />
		<tag k="name" v="Oset" />
		<tag k="place" v="isolated_dwelling" />
		<tag k="ssr:stedsnr" v="70412" />
	</node>
	<node id="9630931515" lat="60.8162881" lon="9.0011112" version="1" timestamp="2022-04-02T07:04:06Z" changeset="119225034" uid="3497659" user="NKA">
		<tag k="historic" v="shieling" />
		<tag k="name" v="Nøreimsvollen" />
		<tag k="place" v="isolated_dwelling" />
		<tag k="ssr:stedsnr" v="1072403" />
	</node>
	<node id="9630931516" lat="60.7962572" lon="9.0692404" version="1" timestamp="2022-04-02T07:04:06Z" changeset="119225034" uid="3497659" user="NKA">
		<tag k="historic" v="shieling" />
		<tag k="name" v="Møne" />
		<tag k="place" v="hamlet" />
		<tag k="ssr:stedsnr" v="251308" />
	</node>
	<node id="9630931517" lat="60.7093058" lon="8.8806276" version="1" timestamp="2022-04-02T07:04:06Z" changeset="119225034" uid="3497659" user="NKA">
		<tag k="historic" v="shieling" />
		<tag k="name" v="Skaran" />
		<tag k="old_name" v="Skarann" />
		<tag k="place" v="isolated_dwelling" />
		<tag k="ssr:stedsnr" v="857375" />
	</node>
	<node id="9630931518" lat="60.7793661" lon="8.9975998" version="1" timestamp="2022-04-02T07:04:06Z" changeset="119225034" uid="3497659" user="NKA">
		<tag k="name" v="Renslomyr" />
		<tag k="place" v="isolated_dwelling" />
		<tag k="ssr:stedsnr" v="706263" />
	</node>
	<node id="9630931519" lat="60.6807131" lon="9.026737" version="1" timestamp="2022-04-02T07:04:06Z" changeset="119225034" uid="3497659" user="NKA">
		<tag k="name" v="Plassen" />
		<tag k="place" v="farm" />
		<tag k="ssr:stedsnr" v="527130" />
	</node>
	<node id="9630931520" lat="60.7128242" lon="8.9198074" version="1" timestamp="2022-04-02T07:04:06Z" changeset="119225034" uid="3497659" user="NKA">
		<tag k="name" v="Lisla" />
		<tag k="place" v="farm" />
		<tag k="ssr:stedsnr" v="709156" />
	</node>
	<node id="9630931521" lat="60.8008083" lon="8.792775" version="1" timestamp="2022-04-02T07:04:06Z" changeset="119225034" uid="3497659" user="NKA">
		<tag k="historic" v="shieling" />
		<tag k="name" v="Mattislian" />
		<tag k="place" v="isolated_dwelling" />
		<tag k="ssr:stedsnr" v="312014" />
	</node>
	<node id="9630931522" lat="60.6914783" lon="8.8263839" version="1" timestamp="2022-04-02T07:04:06Z" changeset="119225034" uid="3497659" user="NKA">
		<tag k="name" v="Austre Grov" />
		<tag k="place" v="farm" />
		<tag k="ssr:stedsnr" v="768411" />
	</node>
	<node id="9630931523" lat="60.7505266" lon="8.8731866" version="1" timestamp="2022-04-02T07:04:06Z" changeset="119225034" uid="3497659" user="NKA">
		<tag k="name" v="Bakken" />
		<tag k="place" v="farm" />
		<tag k="ssr:stedsnr" v="191608" />
	</node>
	<node id="9630931524" lat="60.7193211" lon="8.8229132" version="1" timestamp="2022-04-02T07:04:06Z" changeset="119225034" uid="3497659" user="NKA">
		<tag k="historic" v="shieling" />
		<tag k="name" v="Veslestølen" />
		<tag k="place" v="isolated_dwelling" />
		<tag k="ssr:stedsnr" v="552882" />
	</node>
	<node id="9630931525" lat="60.7147705" lon="8.8101969" version="1" timestamp="2022-04-02T07:04:06Z" changeset="119225034" uid="3497659" user="NKA">
		<tag k="historic" v="shieling" />
		<tag k="name" v="Høysjøstølen" />
		<tag k="place" v="isolated_dwelling" />
		<tag k="ssr:stedsnr" v="127843" />
	</node>
	<node id="9630931526" lat="60.8523601" lon="8.9208537" version="1" timestamp="2022-04-02T07:04:06Z" changeset="119225034" uid="3497659" user="NKA">
		<tag k="name" v="Storebu" />
		<tag k="place" v="isolated_dwelling" />
		<tag k="ssr:stedsnr" v="664048" />
	</node>
	<node id="9630931527" lat="60.7257581" lon="8.8702779" version="1" timestamp="2022-04-02T07:04:06Z" changeset="119225034" uid="3497659" user="NKA">
		<tag k="alt_name" v="Storestøl" />
		<tag k="historic" v="shieling" />
		<tag k="name" v="Storestølen" />
		<tag k="place" v="isolated_dwelling" />
		<tag k="ssr:stedsnr" v="492118" />
	</node>
	<node id="9630931528" lat="60.764525" lon="8.8504" version="1" timestamp="2022-04-02T07:04:06Z" changeset="119225034" uid="3497659" user="NKA">
		<tag k="alt_name" v="Klep søndre" />
		<tag k="name" v="Søre Klepp" />
		<tag k="place" v="farm" />
		<tag k="ssr:stedsnr" v="251323" />
	</node>
	<node id="9630931529" lat="60.8020792" lon="8.9789635" version="1" timestamp="2022-04-02T07:04:06Z" changeset="119225034" uid="3497659" user="NKA">
		<tag k="alt_name" v="Kamben hotell" />
		<tag k="historic" v="shieling" />
		<tag k="name" v="Kamben" />
		<tag k="place" v="hamlet" />
		<tag k="ssr:stedsnr" v="129284" />
	</node>
	<node id="9630931530" lat="60.7545056" lon="8.9419472" version="1" timestamp="2022-04-02T07:04:06Z" changeset="119225034" uid="3497659" user="NKA">
		<tag k="alt_name" v="Værelse Sr" />
		<tag k="name" v="Værelset" />
		<tag k="place" v="locality" />
		<tag k="ssr:stedsnr" v="774978" />
	</node>
	<node id="9630931531" lat="60.7020112" lon="9.0451368" version="1" timestamp="2022-04-02T07:04:06Z" changeset="119225034" uid="3497659" user="NKA">
		<tag k="name" v="Haugen" />
		<tag k="place" v="farm" />
		<tag k="ssr:stedsnr" v="128294" />
	</node>
	<node id="9630931532" lat="60.7361563" lon="8.8751565" version="1" timestamp="2022-04-02T07:04:06Z" changeset="119225034" uid="3497659" user="NKA">
		<tag k="name" v="Blakkestad" />
		<tag k="place" v="farm" />
		<tag k="ssr:stedsnr" v="128139" />
	</node>
	<node id="9630931533" lat="60.7398385" lon="8.870345" version="1" timestamp="2022-04-02T07:04:06Z" changeset="119225034" uid="3497659" user="NKA">
		<tag k="name" v="Rakelgarden" />
		<tag k="place" v="farm" />
		<tag k="ssr:stedsnr" v="707997" />
	</node>
	<node id="9630931534" lat="60.6369284" lon="9.061274" version="1" timestamp="2022-04-02T07:04:06Z" changeset="119225034" uid="3497659" user="NKA">
		<tag k="name" v="Elvestad" />
		<tag k="place" v="hamlet" />
		<tag k="ssr:stedsnr" v="189444" />
	</node>
	<node id="9630931535" lat="60.7407452" lon="9.2448245" version="1" timestamp="2022-04-02T07:04:06Z" changeset="119225034" uid="3497659" user="NKA">
		<tag k="historic" v="shieling" />
		<tag k="name" v="Skarpetrø" />
		<tag k="place" v="isolated_dwelling" />
		<tag k="ssr:stedsnr" v="831794" />
	</node>
	<node id="9630931536" lat="60.7048806" lon="8.8558444" version="1" timestamp="2022-04-02T07:04:06Z" changeset="119225034" uid="3497659" user="NKA">
		<tag k="alt_name" v="Tjernsetstølen" />
		<tag k="historic" v="shieling" />
		<tag k="name" v="Tjernset" />
		<tag k="place" v="isolated_dwelling" />
		<tag k="ssr:stedsnr" v="7354" />
	</node>
	<node id="9630931537" lat="60.8156555" lon="8.8207251" version="1" timestamp="2022-04-02T07:04:06Z" changeset="119225034" uid="3497659" user="NKA">
		<tag k="alt_name" v="Veslestølen" />
		<tag k="historic" v="shieling" />
		<tag k="name" v="Øvre Vermelie" />
		<tag k="place" v="isolated_dwelling" />
		<tag k="ssr:stedsnr" v="372246" />
	</node>
	<node id="9630931538" lat="60.721964" lon="8.898542" version="1" timestamp="2022-04-02T07:04:06Z" changeset="119225034" uid="3497659" user="NKA">
		<tag k="alt_name" v="Pershus" />
		<tag k="name" v="Perhus" />
		<tag k="place" v="farm" />
		<tag k="ssr:stedsnr" v="41183" />
	</node>
	<node id="9630931539" lat="60.7828419" lon="8.9879278" version="1" timestamp="2022-04-02T07:04:06Z" changeset="119225034" uid="3497659" user="NKA">
		<tag k="alt_name" v="Espedokki;Høsavollen;Hosovollen Sr" />
		<tag k="historic" v="shieling" />
		<tag k="name" v="Espedokkvollen" />
		<tag k="place" v="isolated_dwelling" />
		<tag k="ssr:stedsnr" v="676248" />
	</node>
	<node id="9630931540" lat="60.7106802" lon="8.9143482" version="1" timestamp="2022-04-02T07:04:06Z" changeset="119225034" uid="3497659" user="NKA">
		<tag k="name" v="Gol prestegård" />
		<tag k="place" v="farm" />
		<tag k="ssr:stedsnr" v="1072319" />
	</node>
	<node id="9630931541" lat="60.7218575" lon="8.9368843" version="1" timestamp="2022-04-02T07:04:06Z" changeset="119225034" uid="3497659" user="NKA">
		<tag k="name" v="Graneid" />
		<tag k="place" v="farm" />
		<tag k="ssr:stedsnr" v="163175" />
	</node>
	<node id="9630931542" lat="60.6940334" lon="8.9379527" version="1" timestamp="2022-04-02T07:04:06Z" changeset="119225034" uid="3497659" user="NKA">
		<tag k="name" v="Slåtta" />
		<tag k="place" v="farm" />
		<tag k="ssr:stedsnr" v="917312" />
	</node>
	<node id="9630931543" lat="60.8003511" lon="8.8535147" version="1" timestamp="2022-04-02T07:04:06Z" changeset="119225034" uid="3497659" user="NKA">
		<tag k="alt_name" v="Nørdre Lauvsetstølen" />
		<tag k="historic" v="shieling" />
		<tag k="name" v="Mølnarvollen" />
		<tag k="place" v="isolated_dwelling" />
		<tag k="ssr:stedsnr" v="241648" />
	</node>
	<node id="9630931544" lat="60.7195512" lon="8.9623609" version="1" timestamp="2022-04-02T07:04:06Z" changeset="119225034" uid="3497659" user="NKA">
		<tag k="name" v="Dalen" />
		<tag k="place" v="farm" />
		<tag k="ssr:stedsnr" v="163179" />
	</node>
	<node id="9630931545" lat="60.8072444" lon="9.1230944" version="1" timestamp="2022-04-02T07:04:06Z" changeset="119225034" uid="3497659" user="NKA">
		<tag k="name" v="Fagervang" />
		<tag k="place" v="isolated_dwelling" />
		<tag k="ssr:stedsnr" v="433469" />
	</node>
	<node id="9630931546" lat="60.6913912" lon="9.0195401" version="1" timestamp="2022-04-02T07:04:06Z" changeset="119225034" uid="3497659" user="NKA">
		<tag k="name" v="Brøto" />
		<tag k="old_name" v="Søre Frøysåk;Søre Frøysåker" />
		<tag k="place" v="farm" />
		<tag k="ssr:stedsnr" v="310280" />
	</node>
	<node id="9630931547" lat="60.7405181" lon="9.1732452" version="1" timestamp="2022-04-02T07:04:06Z" changeset="119225034" uid="3497659" user="NKA">
		<tag k="historic" v="shieling" />
		<tag k="name" v="Endefjellstølen" />
		<tag k="place" v="isolated_dwelling" />
		<tag k="ssr:stedsnr" v="856172" />
	</node>
	<node id="9630931548" lat="60.7902011" lon="8.8465388" version="1" timestamp="2022-04-02T07:04:06Z" changeset="119225034" uid="3497659" user="NKA">
		<tag k="alt_name" v="Støi" />
		<tag k="name" v="Støe" />
		<tag k="place" v="isolated_dwelling" />
		<tag k="ssr:stedsnr" v="241633" />
	</node>
	<node id="9630931549" lat="60.7024778" lon="8.912275" version="1" timestamp="2022-04-02T07:04:06Z" changeset="119225034" uid="3497659" user="NKA">
		<tag k="name" v="Golreppen" />
		<tag k="old_name" v="Golsreppen" />
		<tag k="place" v="quarter" />
		<tag k="ssr:stedsnr" v="720352" />
	</node>
	<node id="9630931550" lat="60.6830722" lon="9.0400195" version="1" timestamp="2022-04-02T07:04:06Z" changeset="119225034" uid="3497659" user="NKA">
		<tag k="name" v="Viddi" />
		<tag k="place" v="isolated_dwelling" />
		<tag k="ssr:stedsnr" v="613304" />
	</node>
	<node id="9630931551" lat="60.8504763" lon="8.8935182" version="1" timestamp="2022-04-02T07:04:06Z" changeset="119225034" uid="3497659" user="NKA">
		<tag k="historic" v="shieling" />
		<tag k="name" v="Bakkevollen" />
		<tag k="old_name" v="Bakkesætra;Bakkesetre" />
		<tag k="place" v="isolated_dwelling" />
		<tag k="ssr:stedsnr" v="373462" />
	</node>
	<node id="9630931552" lat="60.7001305" lon="8.8585236" version="1" timestamp="2022-04-02T07:04:06Z" changeset="119225034" uid="3497659" user="NKA">
		<tag k="historic" v="shieling" />
		<tag k="name" v="Nedstedokk" />
		<tag k="place" v="isolated_dwelling" />
		<tag k="ssr:stedsnr" v="492289" />
	</node>
	<node id="9630931553" lat="60.7259413" lon="8.985009" version="1" timestamp="2022-04-02T07:04:06Z" changeset="119225034" uid="3497659" user="NKA">
		<tag k="name" v="Rusteplassen" />
		<tag k="old_name" v="Rustepladsen" />
		<tag k="place" v="farm" />
		<tag k="ssr:stedsnr" v="128110" />
	</node>
	<node id="9630931554" lat="60.7060132" lon="9.0153008" version="1" timestamp="2022-04-02T07:04:06Z" changeset="119225034" uid="3497659" user="NKA">
		<tag k="name" v="Brenno" />
		<tag k="place" v="farm" />
		<tag k="ssr:stedsnr" v="7369" />
	</node>
	<node id="9630931555" lat="60.8093555" lon="8.7898361" version="1" timestamp="2022-04-02T07:04:06Z" changeset="119225034" uid="3497659" user="NKA">
		<tag k="name" v="Røykingset" />
		<tag k="place" v="locality" />
		<tag k="ssr:stedsnr" v="372259" />
	</node>
	<node id="9630931556" lat="60.7116606" lon="8.9121601" version="1" timestamp="2022-04-02T07:04:06Z" changeset="119225034" uid="3497659" user="NKA">
		<tag k="name" v="Brekke" />
		<tag k="place" v="farm" />
		<tag k="ssr:stedsnr" v="7352" />
	</node>
	<node id="9630931557" lat="60.774518" lon="9.004345" version="1" timestamp="2022-04-02T07:04:06Z" changeset="119225034" uid="3497659" user="NKA">
		<tag k="name" v="Hjalleslette" />
		<tag k="place" v="farm" />
		<tag k="ssr:stedsnr" v="588554" />
	</node>
	<node id="9630931558" lat="60.7287" lon="9.2572973" version="1" timestamp="2022-04-02T07:04:06Z" changeset="119225034" uid="3497659" user="NKA">
		<tag k="alt_name" v="Urdevollen" />
		<tag k="historic" v="shieling" />
		<tag k="name" v="Brennesetre" />
		<tag k="place" v="hamlet" />
		<tag k="ssr:stedsnr" v="613550" />
	</node>
	<node id="9630931559" lat="60.6744167" lon="9.1274917" version="1" timestamp="2022-04-02T07:04:06Z" changeset="119225034" uid="3497659" user="NKA">
		<tag k="alt_name" v="Ommundhytta" />
		<tag k="name" v="Amundhytta" />
		<tag k="place" v="isolated_dwelling" />
		<tag k="ssr:stedsnr" v="174284" />
	</node>
	<node id="9630931560" lat="60.7819003" lon="8.9515861" version="1" timestamp="2022-04-02T07:04:06Z" changeset="119225034" uid="3497659" user="NKA">
		<tag k="alt_name" v="Bakken seter" />
		<tag k="historic" v="shieling" />
		<tag k="name" v="Bakkestølen" />
		<tag k="place" v="isolated_dwelling" />
		<tag k="ssr:stedsnr" v="190255" />
	</node>
	<node id="9630931561" lat="60.738825" lon="8.8418417" version="1" timestamp="2022-04-02T07:04:06Z" changeset="119225034" uid="3497659" user="NKA">
		<tag k="alt_name" v="Skøttestølen" />
		<tag k="historic" v="shieling" />
		<tag k="name" v="Skottestølen" />
		<tag k="place" v="isolated_dwelling" />
		<tag k="ssr:stedsnr" v="795821" />
	</node>
	<node id="9630931562" lat="60.6902474" lon="8.8749639" version="1" timestamp="2022-04-02T07:04:06Z" changeset="119225034" uid="3497659" user="NKA">
		<tag k="alt_name" v="Søre Gjeglheim" />
		<tag k="name" v="Søre Jegleim" />
		<tag k="place" v="farm" />
		<tag k="ssr:stedsnr" v="654569" />
	</node>
	<node id="9630931563" lat="60.698244" lon="8.8599928" version="1" timestamp="2022-04-02T07:04:06Z" changeset="119225034" uid="3497659" user="NKA">
		<tag k="name" v="Gjøta" />
		<tag k="place" v="farm" />
		<tag k="ssr:stedsnr" v="370370" />
	</node>
	<node id="9630931564" lat="60.6510235" lon="9.0633618" version="1" timestamp="2022-04-02T07:04:06Z" changeset="119225034" uid="3497659" user="NKA">
		<tag k="name" v="Liahaugen" />
		<tag k="place" v="farm" />
		<tag k="ssr:stedsnr" v="552308" />
	</node>
	<node id="9630931565" lat="60.6925457" lon="8.8614673" version="1" timestamp="2022-04-02T07:04:06Z" changeset="119225034" uid="3497659" user="NKA">
		<tag k="alt_name" v="Lauvdokken" />
		<tag k="name" v="Lauvdokki" />
		<tag k="place" v="farm" />
		<tag k="ssr:stedsnr" v="795372" />
	</node>
	<node id="9630931566" lat="60.7925306" lon="8.8670972" version="1" timestamp="2022-04-02T07:04:06Z" changeset="119225034" uid="3497659" user="NKA">
		<tag k="name" v="Jondalen hyttegrend" />
		<tag k="place" v="hamlet" />
		<tag k="ssr:stedsnr" v="519936" />
	</node>
	<node id="9630931567" lat="60.7021681" lon="9.1818206" version="1" timestamp="2022-04-02T07:04:06Z" changeset="119225034" uid="3497659" user="NKA">
		<tag k="name" v="Knutsvollen" />
		<tag k="place" v="isolated_dwelling" />
		<tag k="ssr:stedsnr" v="856374" />
	</node>
	<node id="9630931568" lat="60.7993674" lon="8.9981807" version="1" timestamp="2022-04-02T07:04:06Z" changeset="119225034" uid="3497659" user="NKA">
		<tag k="historic" v="shieling" />
		<tag k="name" v="Rustemyrvollen" />
		<tag k="place" v="isolated_dwelling" />
		<tag k="ssr:stedsnr" v="736286" />
	</node>
	<node id="9630931569" lat="60.6860812" lon="9.0408125" version="1" timestamp="2022-04-02T07:04:06Z" changeset="119225034" uid="3497659" user="NKA">
		<tag k="name" v="Skaret" />
		<tag k="place" v="farm" />
		<tag k="ssr:stedsnr" v="917254" />
	</node>
	<node id="9630931570" lat="60.6722579" lon="9.0392071" version="1" timestamp="2022-04-02T07:04:06Z" changeset="119225034" uid="3497659" user="NKA">
		<tag k="alt_name" v="Floget" />
		<tag k="name" v="Flaget" />
		<tag k="place" v="farm" />
		<tag k="ssr:stedsnr" v="492286" />
	</node>
	<node id="9630931571" lat="60.6977432" lon="8.9043471" version="1" timestamp="2022-04-02T07:04:06Z" changeset="119225034" uid="3497659" user="NKA">
		<tag k="name" v="Steinmoen" />
		<tag k="place" v="farm" />
		<tag k="ssr:stedsnr" v="370367" />
	</node>
	<node id="9630931572" lat="60.680875" lon="8.813811" version="1" timestamp="2022-04-02T07:04:06Z" changeset="119225034" uid="3497659" user="NKA">
		<tag k="name" v="Torhaugen" />
		<tag k="place" v="farm" />
		<tag k="ssr:stedsnr" v="890394" />
	</node>
	<node id="9630931573" lat="60.8000324" lon="8.8626251" version="1" timestamp="2022-04-02T07:04:06Z" changeset="119225034" uid="3497659" user="NKA">
		<tag k="historic" v="shieling" />
		<tag k="name" v="Blakkestadstølen" />
		<tag k="place" v="isolated_dwelling" />
		<tag k="ssr:stedsnr" v="544673" />
	</node>
	<node id="9630931574" lat="60.785976" lon="8.8903906" version="1" timestamp="2022-04-02T07:04:06Z" changeset="119225034" uid="3497659" user="NKA">
		<tag k="alt_name" v="Rosætri;Rosetra" />
		<tag k="historic" v="shieling" />
		<tag k="loc_name" v="Rosetre" />
		<tag k="name" v="Rostølen" />
		<tag k="place" v="isolated_dwelling" />
		<tag k="ssr:stedsnr" v="493275" />
	</node>
	<node id="9630931575" lat="60.7337111" lon="9.2113583" version="1" timestamp="2022-04-02T07:04:06Z" changeset="119225034" uid="3497659" user="NKA">
		<tag k="historic" v="shieling" />
		<tag k="name" v="Grøset" />
		<tag k="place" v="isolated_dwelling" />
		<tag k="ssr:stedsnr" v="7159" />
	</node>
	<node id="9630931576" lat="60.7124256" lon="8.9161866" version="1" timestamp="2022-04-02T07:04:06Z" changeset="119225034" uid="3497659" user="NKA">
		<tag k="name" v="Trondsgard" />
		<tag k="place" v="farm" />
		<tag k="ssr:stedsnr" v="224173" />
	</node>
	<node id="9630931577" lat="60.6817306" lon="8.8119166" version="1" timestamp="2022-04-02T07:04:06Z" changeset="119225034" uid="3497659" user="NKA">
		<tag k="name" v="Plassen" />
		<tag k="place" v="farm" />
		<tag k="ssr:stedsnr" v="734919" />
	</node>
	<node id="9630931578" lat="60.7290667" lon="8.8049722" version="1" timestamp="2022-04-02T07:04:06Z" changeset="119225034" uid="3497659" user="NKA">
		<tag k="historic" v="shieling" />
		<tag k="name" v="Habbeset" />
		<tag k="place" v="hamlet" />
		<tag k="ssr:stedsnr" v="612837" />
	</node>
	<node id="9630931579" lat="60.8178753" lon="8.9974226" version="1" timestamp="2022-04-02T07:04:06Z" changeset="119225034" uid="3497659" user="NKA">
		<tag k="historic" v="shieling" />
		<tag k="name" v="Ørterstølen" />
		<tag k="place" v="hamlet" />
		<tag k="ssr:stedsnr" v="251510" />
	</node>
	<node id="9630931580" lat="60.792447" lon="8.9275367" version="1" timestamp="2022-04-02T07:04:06Z" changeset="119225034" uid="3497659" user="NKA">
		<tag k="historic" v="shieling" />
		<tag k="name" v="Turkuppmyre" />
		<tag k="place" v="isolated_dwelling" />
		<tag k="ssr:stedsnr" v="241724" />
	</node>
	<node id="9630931581" lat="60.6838874" lon="8.8583779" version="1" timestamp="2022-04-02T07:04:06Z" changeset="119225034" uid="3497659" user="NKA">
		<tag k="name" v="Øynebråten" />
		<tag k="place" v="farm" />
		<tag k="ssr:stedsnr" v="795377" />
	</node>
	<node id="9630931582" lat="60.7222065" lon="8.8901876" version="1" timestamp="2022-04-02T07:04:06Z" changeset="119225034" uid="3497659" user="NKA">
		<tag k="historic" v="shieling" />
		<tag k="name" v="Holtegardsjordet" />
		<tag k="place" v="isolated_dwelling" />
		<tag k="ssr:stedsnr" v="648211" />
	</node>
	<node id="9630931583" lat="60.6996204" lon="9.0396459" version="1" timestamp="2022-04-02T07:04:06Z" changeset="119225034" uid="3497659" user="NKA">
		<tag k="alt_name" v="Rusten" />
		<tag k="name" v="Rusti" />
		<tag k="place" v="farm" />
		<tag k="ssr:stedsnr" v="67344" />
	</node>
	<node id="9630931584" lat="60.8033276" lon="8.9544487" version="1" timestamp="2022-04-02T07:04:06Z" changeset="119225034" uid="3497659" user="NKA">
		<tag k="historic" v="shieling" />
		<tag k="name" v="Austre Einarset" />
		<tag k="place" v="isolated_dwelling" />
		<tag k="ssr:stedsnr" v="858500" />
	</node>
	<node id="9630931585" lat="60.7598161" lon="9.0962111" version="1" timestamp="2022-04-02T07:04:06Z" changeset="119225034" uid="3497659" user="NKA">
		<tag k="historic" v="shieling" />
		<tag k="name" v="Steinstølan" />
		<tag k="place" v="isolated_dwelling" />
		<tag k="ssr:stedsnr" v="190294" />
	</node>
	<node id="9630931586" lat="60.7799117" lon="9.0573924" version="1" timestamp="2022-04-02T07:04:06Z" changeset="119225034" uid="3497659" user="NKA">
		<tag k="alt_name" v="Haug" />
		<tag k="name" v="Tubbehaugen" />
		<tag k="place" v="farm" />
		<tag k="ssr:stedsnr" v="190314" />
	</node>
	<node id="9630931587" lat="60.7533305" lon="8.7975834" version="1" timestamp="2022-04-02T07:04:06Z" changeset="119225034" uid="3497659" user="NKA">
		<tag k="name" v="Snekkerhaugen" />
		<tag k="place" v="farm" />
		<tag k="ssr:stedsnr" v="737048" />
	</node>
	<node id="9630931588" lat="60.6851332" lon="9.2486589" version="1" timestamp="2022-04-02T07:04:06Z" changeset="119225034" uid="3497659" user="NKA">
		<tag k="alt_name" v="Fisketjernstølen" />
		<tag k="historic" v="shieling" />
		<tag k="name" v="Fisketjernlie" />
		<tag k="place" v="isolated_dwelling" />
		<tag k="ssr:stedsnr" v="492679" />
	</node>
	<node id="9630931589" lat="60.7030004" lon="8.9280954" version="1" timestamp="2022-04-02T07:04:06Z" changeset="119225034" uid="3497659" user="NKA">
		<tag k="name" v="Hesla" />
		<tag k="place" v="farm" />
		<tag k="ssr:stedsnr" v="552353" />
	</node>
	<node id="9630931590" lat="60.7710753" lon="8.7496617" version="1" timestamp="2022-04-02T07:04:06Z" changeset="119225034" uid="3497659" user="NKA">
		<tag k="name" v="Lislalii" />
		<tag k="old_name" v="Litlelii" />
		<tag k="place" v="farm" />
		<tag k="ssr:stedsnr" v="311017" />
	</node>
	<node id="9630931591" lat="60.7193194" lon="8.8996555" version="1" timestamp="2022-04-02T07:04:06Z" changeset="119225034" uid="3497659" user="NKA">
		<tag k="name" v="Bleikfet" />
		<tag k="old_name" v="Bleiktvedt" />
		<tag k="place" v="farm" />
		<tag k="ssr:stedsnr" v="189116" />
	</node>
	<node id="9630931592" lat="60.6943641" lon="8.8364526" version="1" timestamp="2022-04-02T07:04:06Z" changeset="119225034" uid="3497659" user="NKA">
		<tag k="name" v="Hagen" />
		<tag k="place" v="farm" />
		<tag k="ssr:stedsnr" v="188916" />
	</node>
	<node id="9630931593" lat="60.6948729" lon="8.8936978" version="1" timestamp="2022-04-02T07:04:06Z" changeset="119225034" uid="3497659" user="NKA">
		<tag k="name" v="Svartebråten" />
		<tag k="place" v="farm" />
		<tag k="ssr:stedsnr" v="967160" />
	</node>
	<node id="9630931594" lat="60.7107639" lon="8.9247472" version="1" timestamp="2022-04-02T07:04:06Z" changeset="119225034" uid="3497659" user="NKA">
		<tag k="name" v="Teigen" />
		<tag k="place" v="farm" />
		<tag k="ssr:stedsnr" v="163144" />
	</node>
	<node id="9630931595" lat="60.7983352" lon="8.8437372" version="1" timestamp="2022-04-02T07:04:06Z" changeset="119225034" uid="3497659" user="NKA">
		<tag k="historic" v="shieling" />
		<tag k="name" v="Løstegardstølen" />
		<tag k="place" v="isolated_dwelling" />
		<tag k="ssr:stedsnr" v="604685" />
	</node>
	<node id="9630931596" lat="60.7780693" lon="8.7587125" version="1" timestamp="2022-04-02T07:04:06Z" changeset="119225034" uid="3497659" user="NKA">
		<tag k="alt_name" v="Strømstad" />
		<tag k="name" v="Straumstad" />
		<tag k="place" v="farm" />
		<tag k="ssr:stedsnr" v="8033" />
	</node>
	<node id="9630931597" lat="60.7679028" lon="9.1224305" version="1" timestamp="2022-04-02T07:04:06Z" changeset="119225034" uid="3497659" user="NKA">
		<tag k="name" v="Dunkehybelen" />
		<tag k="place" v="isolated_dwelling" />
		<tag k="ssr:stedsnr" v="737271" />
	</node>
	<node id="9630931598" lat="60.7863464" lon="8.9107292" version="1" timestamp="2022-04-02T07:04:06Z" changeset="119225034" uid="3497659" user="NKA">
		<tag k="historic" v="shieling" />
		<tag k="name" v="Eidsgardvollen" />
		<tag k="place" v="isolated_dwelling" />
		<tag k="ssr:stedsnr" v="119662" />
	</node>
	<node id="9630931599" lat="60.7237084" lon="8.9553061" version="1" timestamp="2022-04-02T07:04:06Z" changeset="119225034" uid="3497659" user="NKA">
		<tag k="name" v="Eidsgardbråten" />
		<tag k="place" v="farm" />
		<tag k="ssr:stedsnr" v="769184" />
	</node>
	<node id="9630931600" lat="60.6780445" lon="9.0303834" version="1" timestamp="2022-04-02T07:04:06Z" changeset="119225034" uid="3497659" user="NKA">
		<tag k="name" v="Dokken" />
		<tag k="place" v="farm" />
		<tag k="ssr:stedsnr" v="7296" />
	</node>
	<node id="9630931601" lat="60.7251722" lon="8.8971251" version="1" timestamp="2022-04-02T07:04:06Z" changeset="119225034" uid="3497659" user="NKA">
		<tag k="name" v="Svello" />
		<tag k="place" v="farm" />
		<tag k="ssr:stedsnr" v="796144" />
	</node>
	<node id="9630931602" lat="60.6958941" lon="8.8359764" version="1" timestamp="2022-04-02T07:04:06Z" changeset="119225034" uid="3497659" user="NKA">
		<tag k="name" v="Skarvegløtt" />
		<tag k="place" v="isolated_dwelling" />
		<tag k="ssr:stedsnr" v="846166" />
	</node>
	<node id="9630931603" lat="60.6582651" lon="9.153357" version="1" timestamp="2022-04-02T07:04:06Z" changeset="119225034" uid="3497659" user="NKA">
		<tag k="historic" v="shieling" />
		<tag k="name" v="Møne" />
		<tag k="place" v="isolated_dwelling" />
		<tag k="ssr:stedsnr" v="552314" />
	</node>
	<node id="9630931604" lat="60.7240032" lon="8.9582407" version="1" timestamp="2022-04-02T07:04:06Z" changeset="119225034" uid="3497659" user="NKA">
		<tag k="alt_name" v="Dokken" />
		<tag k="name" v="Dokki" />
		<tag k="place" v="hamlet" />
		<tag k="ssr:stedsnr" v="796140" />
	</node>
	<node id="9630931605" lat="60.739198" lon="8.8752933" version="1" timestamp="2022-04-02T07:04:06Z" changeset="119225034" uid="3497659" user="NKA">
		<tag k="name" v="Søre Ro" />
		<tag k="place" v="farm" />
		<tag k="ssr:stedsnr" v="161996" />
	</node>
	<node id="9630931606" lat="60.7467666" lon="8.7378195" version="1" timestamp="2022-04-02T07:04:06Z" changeset="119225034" uid="3497659" user="NKA">
		<tag k="historic" v="shieling" />
		<tag k="name" v="Jordheimstølen" />
		<tag k="place" v="isolated_dwelling" />
		<tag k="ssr:stedsnr" v="161877" />
	</node>
	<node id="9630931607" lat="60.7351229" lon="8.8779686" version="1" timestamp="2022-04-02T07:04:06Z" changeset="119225034" uid="3497659" user="NKA">
		<tag k="name" v="Austre Blakkestad" />
		<tag k="place" v="farm" />
		<tag k="ssr:stedsnr" v="41185" />
	</node>
	<node id="9630931608" lat="60.7978278" lon="8.9884778" version="1" timestamp="2022-04-02T07:04:06Z" changeset="119225034" uid="3497659" user="NKA">
		<tag k="historic" v="shieling" />
		<tag k="name" v="Bergavollen" />
		<tag k="place" v="isolated_dwelling" />
		<tag k="ssr:stedsnr" v="675313" />
	</node>
	<node id="9630931609" lat="60.8524508" lon="8.9079468" version="1" timestamp="2022-04-02T07:04:06Z" changeset="119225034" uid="3497659" user="NKA">
		<tag k="alt_name" v="Holtegardstølen" />
		<tag k="historic" v="shieling" />
		<tag k="name" v="Viljugreinvollen" />
		<tag k="place" v="isolated_dwelling" />
		<tag k="ssr:stedsnr" v="644501" />
	</node>
	<node id="9630931610" lat="60.7620778" lon="8.9276194" version="1" timestamp="2022-04-02T07:04:06Z" changeset="119225034" uid="3497659" user="NKA">
		<tag k="name" v="Golbergbui" />
		<tag k="place" v="isolated_dwelling" />
		<tag k="ssr:stedsnr" v="285549" />
	</node>
	<node id="9630931611" lat="60.8365723" lon="8.9668889" version="1" timestamp="2022-04-02T07:04:06Z" changeset="119225034" uid="3497659" user="NKA">
		<tag k="historic" v="shieling" />
		<tag k="name" v="Nedre Guriset" />
		<tag k="place" v="isolated_dwelling" />
		<tag k="ssr:stedsnr" v="615447" />
	</node>
	<node id="9630931612" lat="60.7539909" lon="8.7282069" version="1" timestamp="2022-04-02T07:04:06Z" changeset="119225034" uid="3497659" user="NKA">
		<tag k="historic" v="shieling" />
		<tag k="name" v="Hovdestølen" />
		<tag k="place" v="isolated_dwelling" />
		<tag k="ssr:stedsnr" v="191041" />
	</node>
	<node id="9630931613" lat="60.8021713" lon="8.8681641" version="1" timestamp="2022-04-02T07:04:06Z" changeset="119225034" uid="3497659" user="NKA">
		<tag k="name" v="Øyevollen" />
		<tag k="place" v="isolated_dwelling" />
		<tag k="ssr:stedsnr" v="159333" />
	</node>
	<node id="9630931614" lat="60.6344681" lon="9.0652108" version="1" timestamp="2022-04-02T07:04:06Z" changeset="119225034" uid="3497659" user="NKA">
		<tag k="alt_name" v="Søre Krusedokki;Søre Krusedokken" />
		<tag k="name" v="Krusedokki" />
		<tag k="place" v="farm" />
		<tag k="ssr:stedsnr" v="735455" />
	</node>
	<node id="9630931615" lat="60.6612548" lon="9.0453182" version="1" timestamp="2022-04-02T07:04:06Z" changeset="119225034" uid="3497659" user="NKA">
		<tag k="alt_name" v="Engene" />
		<tag k="name" v="Engjan" />
		<tag k="old_name" v="Enganne" />
		<tag k="place" v="hamlet" />
		<tag k="ssr:stedsnr" v="298745" />
	</node>
	<node id="9630931616" lat="60.7389166" lon="8.8960555" version="1" timestamp="2022-04-02T07:04:06Z" changeset="119225034" uid="3497659" user="NKA">
		<tag k="alt_name" v="Rasmushaug" />
		<tag k="name" v="Rasmushaugen" />
		<tag k="place" v="farm" />
		<tag k="ssr:stedsnr" v="249162" />
	</node>
	<node id="9630931617" lat="60.6881679" lon="8.8930199" version="1" timestamp="2022-04-02T07:04:06Z" changeset="119225034" uid="3497659" user="NKA">
		<tag k="name" v="Ringstad" />
		<tag k="place" v="farm" />
		<tag k="ssr:stedsnr" v="707085" />
	</node>
	<node id="9630931618" lat="60.7828333" lon="8.8771834" version="1" timestamp="2022-04-02T07:04:06Z" changeset="119225034" uid="3497659" user="NKA">
		<tag k="name" v="Meliskaret" />
		<tag k="place" v="farm" />
		<tag k="ssr:stedsnr" v="967043" />
	</node>
	<node id="9630931619" lat="60.8367142" lon="8.8450833" version="1" timestamp="2022-04-02T07:04:06Z" changeset="119225034" uid="3497659" user="NKA">
		<tag k="historic" v="shieling" />
		<tag k="name" v="Veslevollen" />
		<tag k="place" v="isolated_dwelling" />
		<tag k="ssr:stedsnr" v="159527" />
	</node>
	<node id="9630931620" lat="60.6878523" lon="8.8989681" version="1" timestamp="2022-04-02T07:04:06Z" changeset="119225034" uid="3497659" user="NKA">
		<tag k="name" v="Øvre Vermåker" />
		<tag k="place" v="farm" />
		<tag k="ssr:stedsnr" v="587128" />
	</node>
	<node id="9630931621" lat="60.6916551" lon="9.0364305" version="1" timestamp="2022-04-02T07:04:06Z" changeset="119225034" uid="3497659" user="NKA">
		<tag k="name" v="Haugen" />
		<tag k="place" v="farm" />
		<tag k="ssr:stedsnr" v="189887" />
	</node>
	<node id="9630931622" lat="60.7137988" lon="8.9574386" version="1" timestamp="2022-04-02T07:04:06Z" changeset="119225034" uid="3497659" user="NKA">
		<tag k="alt_name" v="Stølsdokken" />
		<tag k="name" v="Stølsdokki" />
		<tag k="place" v="farm" />
		<tag k="ssr:stedsnr" v="128095" />
	</node>
	<node id="9630931623" lat="60.761833" lon="8.8088019" version="1" timestamp="2022-04-02T07:04:06Z" changeset="119225034" uid="3497659" user="NKA">
		<tag k="alt_name" v="Volebråten" />
		<tag k="name" v="Volebrotane" />
		<tag k="place" v="locality" />
		<tag k="ssr:stedsnr" v="312050" />
	</node>
	<node id="9630931624" lat="60.7744693" lon="9.0719995" version="1" timestamp="2022-04-02T07:04:06Z" changeset="119225034" uid="3497659" user="NKA">
		<tag k="name" v="Johannesdalen" />
		<tag k="place" v="farm" />
		<tag k="ssr:stedsnr" v="554328" />
	</node>
	<node id="9630931625" lat="60.783346" lon="8.9557865" version="1" timestamp="2022-04-02T07:04:06Z" changeset="119225034" uid="3497659" user="NKA">
		<tag k="alt_name" v="Dypendalsvollen" />
		<tag k="historic" v="shieling" />
		<tag k="name" v="Djupedalsvollen" />
		<tag k="place" v="isolated_dwelling" />
		<tag k="ssr:stedsnr" v="372276" />
	</node>
	<node id="9630931626" lat="60.6824091" lon="9.0188421" version="1" timestamp="2022-04-02T07:04:06Z" changeset="119225034" uid="3497659" user="NKA">
		<tag k="alt_name" v="Skysskaffarengjo;Sersjantengjo" />
		<tag k="name" v="Engjo" />
		<tag k="old_name" v="Sesjantengann" />
		<tag k="place" v="farm" />
		<tag k="ssr:stedsnr" v="613299" />
	</node>
	<node id="9630931627" lat="60.7428018" lon="9.093799" version="1" timestamp="2022-04-02T07:04:06Z" changeset="119225034" uid="3497659" user="NKA">
		<tag k="historic" v="shieling" />
		<tag k="name" v="Gjøta" />
		<tag k="place" v="isolated_dwelling" />
		<tag k="ssr:stedsnr" v="67205" />
	</node>
	<node id="9630931628" lat="60.7166222" lon="8.8935973" version="1" timestamp="2022-04-02T07:04:06Z" changeset="119225034" uid="3497659" user="NKA">
		<tag k="name" v="Aslebråten" />
		<tag k="place" v="isolated_dwelling" />
		<tag k="ssr:stedsnr" v="917108" />
	</node>
	<node id="9630931629" lat="60.68827" lon="8.8528424" version="1" timestamp="2022-04-02T07:04:06Z" changeset="119225034" uid="3497659" user="NKA">
		<tag k="name" v="Brekko" />
		<tag k="place" v="farm" />
		<tag k="ssr:stedsnr" v="795375" />
	</node>
	<node id="9630931630" lat="60.7460591" lon="8.8663059" version="1" timestamp="2022-04-02T07:04:06Z" changeset="119225034" uid="3497659" user="NKA">
		<tag k="name" v="Langehaugen" />
		<tag k="place" v="farm" />
		<tag k="ssr:stedsnr" v="404992" />
	</node>
	<node id="9630931631" lat="60.7360834" lon="8.8779266" version="1" timestamp="2022-04-02T07:04:06Z" changeset="119225034" uid="3497659" user="NKA">
		<tag k="name" v="Søre Blakkestad" />
		<tag k="place" v="farm" />
		<tag k="ssr:stedsnr" v="714985" />
	</node>
	<node id="9630931632" lat="60.7233148" lon="9.297333" version="1" timestamp="2022-04-02T07:04:06Z" changeset="119225034" uid="3497659" user="NKA">
		<tag k="historic" v="shieling" />
		<tag k="name" v="Gamlevollen" />
		<tag k="place" v="isolated_dwelling" />
		<tag k="ssr:stedsnr" v="831797" />
	</node>
	<node id="9630931633" lat="60.7100389" lon="8.9165396" version="1" timestamp="2022-04-02T07:04:06Z" changeset="119225034" uid="3497659" user="NKA">
		<tag k="name" v="Hersgard" />
		<tag k="place" v="farm" />
		<tag k="ssr:stedsnr" v="735353" />
	</node>
	<node id="9630931634" lat="60.696736" lon="8.8922299" version="1" timestamp="2022-04-02T07:04:06Z" changeset="119225034" uid="3497659" user="NKA">
		<tag k="name" v="Skreddargarden" />
		<tag k="place" v="farm" />
		<tag k="ssr:stedsnr" v="492294" />
	</node>
	<node id="9630931635" lat="60.719875" lon="8.9653583" version="1" timestamp="2022-04-02T07:04:06Z" changeset="119225034" uid="3497659" user="NKA">
		<tag k="name" v="Bakko" />
		<tag k="place" v="farm" />
		<tag k="ssr:stedsnr" v="492333" />
	</node>
	<node id="9630931636" lat="60.8550891" lon="8.9135378" version="1" timestamp="2022-04-02T07:04:06Z" changeset="119225034" uid="3497659" user="NKA">
		<tag k="name" v="Myrvang" />
		<tag k="place" v="farm" />
		<tag k="ssr:stedsnr" v="524392" />
	</node>
	<node id="9630931637" lat="60.6944695" lon="9.0304556" version="1" timestamp="2022-04-02T07:04:06Z" changeset="119225034" uid="3497659" user="NKA">
		<tag k="loc_name" v="Liagardane" />
		<tag k="name" v="Liagardan" />
		<tag k="old_name" v="Liagardann" />
		<tag k="place" v="hamlet" />
		<tag k="ssr:stedsnr" v="902296" />
	</node>
	<node id="9630931638" lat="60.7820581" lon="8.9420075" version="1" timestamp="2022-04-02T07:04:06Z" changeset="119225034" uid="3497659" user="NKA">
		<tag k="alt_name" v="Skutuset;Storestøl" />
		<tag k="historic" v="shieling" />
		<tag k="name" v="Storestølen" />
		<tag k="place" v="isolated_dwelling" />
		<tag k="ssr:stedsnr" v="433244" />
	</node>
	<node id="9630931639" lat="60.7929513" lon="8.8607747" version="1" timestamp="2022-04-02T07:04:06Z" changeset="119225034" uid="3497659" user="NKA">
		<tag k="historic" v="shieling" />
		<tag k="name" v="Skagastølen" />
		<tag k="place" v="isolated_dwelling" />
		<tag k="ssr:stedsnr" v="180648" />
	</node>
	<node id="9630931640" lat="60.6814531" lon="8.8348431" version="1" timestamp="2022-04-02T07:04:06Z" changeset="119225034" uid="3497659" user="NKA">
		<tag k="name" v="Syversgarden" />
		<tag k="place" v="farm" />
		<tag k="ssr:stedsnr" v="890384" />
	</node>
	<node id="9630931641" lat="60.8031083" lon="8.9843444" version="1" timestamp="2022-04-02T07:04:06Z" changeset="119225034" uid="3497659" user="NKA">
		<tag k="name" v="Dokken seter" />
		<tag k="place" v="locality" />
		<tag k="ssr:stedsnr" v="402390" />
	</node>
	<node id="9630931642" lat="60.6942583" lon="9.0430039" version="1" timestamp="2022-04-02T07:04:06Z" changeset="119225034" uid="3497659" user="NKA">
		<tag k="name" v="Grangard" />
		<tag k="place" v="farm" />
		<tag k="ssr:stedsnr" v="856310" />
	</node>
	<node id="9630931643" lat="60.6969361" lon="8.9398722" version="1" timestamp="2022-04-02T07:04:06Z" changeset="119225034" uid="3497659" user="NKA">
		<tag k="name" v="Husøyne" />
		<tag k="place" v="locality" />
		<tag k="ssr:stedsnr" v="664205" />
	</node>
	<node id="9630931644" lat="60.810043" lon="8.8213955" version="1" timestamp="2022-04-02T07:04:06Z" changeset="119225034" uid="3497659" user="NKA">
		<tag k="historic" v="shieling" />
		<tag k="name" v="Nedre Vermelie" />
		<tag k="place" v="isolated_dwelling" />
		<tag k="ssr:stedsnr" v="676232" />
	</node>
	<node id="9630931645" lat="60.7417283" lon="8.873686" version="1" timestamp="2022-04-02T07:04:06Z" changeset="119225034" uid="3497659" user="NKA">
		<tag k="name" v="Løstegard" />
		<tag k="place" v="farm" />
		<tag k="ssr:stedsnr" v="613181" />
	</node>
	<node id="9630931646" lat="60.723562" lon="8.9022933" version="1" timestamp="2022-04-02T07:04:06Z" changeset="119225034" uid="3497659" user="NKA">
		<tag k="name" v="Steinsrud" />
		<tag k="place" v="farm" />
		<tag k="ssr:stedsnr" v="796145" />
	</node>
	<node id="9630931647" lat="60.7078204" lon="8.9261903" version="1" timestamp="2022-04-02T07:04:06Z" changeset="119225034" uid="3497659" user="NKA">
		<tag k="alt_name" v="Røyse" />
		<tag k="name" v="Nedre Røyse" />
		<tag k="place" v="locality" />
		<tag k="ssr:stedsnr" v="118195" />
	</node>
	<node id="9630931648" lat="60.6752583" lon="9.2016944" version="1" timestamp="2022-04-02T07:04:06Z" changeset="119225034" uid="3497659" user="NKA">
		<tag k="historic" v="shieling" />
		<tag k="name" v="Bjørnsonlie" />
		<tag k="old_name" v="Bjørnsanli;Bjørnsandii" />
		<tag k="place" v="isolated_dwelling" />
		<tag k="ssr:stedsnr" v="543277" />
	</node>
	<node id="9630931649" lat="60.747703" lon="8.8916473" version="1" timestamp="2022-04-02T07:04:06Z" changeset="119225034" uid="3497659" user="NKA">
		<tag k="name" v="Moen" />
		<tag k="place" v="farm" />
		<tag k="ssr:stedsnr" v="674185" />
	</node>
	<node id="9630931650" lat="60.7002881" lon="9.0113627" version="1" timestamp="2022-04-02T07:04:06Z" changeset="119225034" uid="3497659" user="NKA">
		<tag k="alt_name" v="Torejordet" />
		<tag k="name" v="Bråten" />
		<tag k="place" v="farm" />
		<tag k="ssr:stedsnr" v="41154" />
	</node>
	<node id="9630931651" lat="60.738667" lon="8.8651651" version="1" timestamp="2022-04-02T07:04:06Z" changeset="119225034" uid="3497659" user="NKA">
		<tag k="alt_name" v="Nørdre Eldbjør" />
		<tag k="name" v="Nørdre Eldbjørgo" />
		<tag k="place" v="farm" />
		<tag k="ssr:stedsnr" v="708784" />
	</node>
	<node id="9630931652" lat="60.8011795" lon="9.0639076" version="1" timestamp="2022-04-02T07:04:06Z" changeset="119225034" uid="3497659" user="NKA">
		<tag k="historic" v="shieling" />
		<tag k="name" v="Lyservollen" />
		<tag k="place" v="isolated_dwelling" />
		<tag k="ssr:stedsnr" v="190286" />
	</node>
	<node id="9630931653" lat="60.7440163" lon="8.9003315" version="1" timestamp="2022-04-02T07:04:06Z" changeset="119225034" uid="3497659" user="NKA">
		<tag k="name" v="Glomsrudbråten" />
		<tag k="place" v="farm" />
		<tag k="ssr:stedsnr" v="613163" />
	</node>
	<node id="9630931654" lat="60.8030452" lon="8.7894572" version="1" timestamp="2022-04-02T07:04:06Z" changeset="119225034" uid="3497659" user="NKA">
		<tag k="name" v="Plassen" />
		<tag k="place" v="isolated_dwelling" />
		<tag k="ssr:stedsnr" v="372262" />
	</node>
	<node id="9630931655" lat="60.7141722" lon="8.9550305" version="1" timestamp="2022-04-02T07:04:06Z" changeset="119225034" uid="3497659" user="NKA">
		<tag k="alt_name" v="Ransedokken" />
		<tag k="name" v="Ransedokki" />
		<tag k="place" v="farm" />
		<tag k="ssr:stedsnr" v="492097" />
	</node>
	<node id="9630931656" lat="60.7960985" lon="8.8034575" version="1" timestamp="2022-04-02T07:04:06Z" changeset="119225034" uid="3497659" user="NKA">
		<tag k="name" v="Nyhus" />
		<tag k="place" v="farm" />
		<tag k="ssr:stedsnr" v="544661" />
	</node>
	<node id="9630931657" lat="60.7583383" lon="8.7691546" version="1" timestamp="2022-04-02T07:04:06Z" changeset="119225034" uid="3497659" user="NKA">
		<tag k="historic" v="shieling" />
		<tag k="name" v="Heimattseter" />
		<tag k="place" v="isolated_dwelling" />
		<tag k="ssr:stedsnr" v="285830" />
	</node>
	<node id="9630931658" lat="60.7096462" lon="8.8399267" version="1" timestamp="2022-04-02T07:04:06Z" changeset="119225034" uid="3497659" user="NKA">
		<tag k="historic" v="shieling" />
		<tag k="name" v="Fagerdalen" />
		<tag k="place" v="isolated_dwelling" />
		<tag k="ssr:stedsnr" v="734860" />
	</node>
	<node id="9630931659" lat="60.814375" lon="8.828936" version="1" timestamp="2022-04-02T07:04:06Z" changeset="119225034" uid="3497659" user="NKA">
		<tag k="name" v="Skalbergslettet" />
		<tag k="place" v="isolated_dwelling" />
		<tag k="ssr:stedsnr" v="948356" />
	</node>
	<node id="9630931660" lat="60.6992956" lon="8.8972008" version="1" timestamp="2022-04-02T07:04:06Z" changeset="119225034" uid="3497659" user="NKA">
		<tag k="name" v="Bakken" />
		<tag k="place" v="farm" />
		<tag k="ssr:stedsnr" v="917285" />
	</node>
	<node id="9630931661" lat="60.6958071" lon="9.0060419" version="1" timestamp="2022-04-02T07:04:06Z" changeset="119225034" uid="3497659" user="NKA">
		<tag k="name" v="Øvre Eikle" />
		<tag k="place" v="farm" />
		<tag k="ssr:stedsnr" v="543579" />
	</node>
	<node id="9630931662" lat="60.6728178" lon="9.031634" version="1" timestamp="2022-04-02T07:04:06Z" changeset="119225034" uid="3497659" user="NKA">
		<tag k="name" v="Austheim" />
		<tag k="place" v="farm" />
		<tag k="ssr:stedsnr" v="466020" />
	</node>
	<node id="9630931663" lat="60.8054501" lon="8.8155826" version="1" timestamp="2022-04-02T07:04:06Z" changeset="119225034" uid="3497659" user="NKA">
		<tag k="name" v="Halli" />
		<tag k="place" v="isolated_dwelling" />
		<tag k="ssr:stedsnr" v="433236" />
	</node>
	<node id="9630931664" lat="60.788535" lon="8.8810361" version="1" timestamp="2022-04-02T07:04:06Z" changeset="119225034" uid="3497659" user="NKA">
		<tag k="historic" v="shieling" />
		<tag k="name" v="Melie" />
		<tag k="place" v="isolated_dwelling" />
		<tag k="ssr:stedsnr" v="251285" />
	</node>
	<node id="9630931665" lat="60.7862322" lon="8.9891622" version="1" timestamp="2022-04-02T07:04:06Z" changeset="119225034" uid="3497659" user="NKA">
		<tag k="alt_name" v="Ransedokki seter;Ransedokksætri" />
		<tag k="historic" v="shieling" />
		<tag k="name" v="Ransedokkstølen" />
		<tag k="place" v="isolated_dwelling" />
		<tag k="ssr:stedsnr" v="858259" />
	</node>
	<node id="9630931666" lat="60.6808063" lon="9.0322967" version="1" timestamp="2022-04-02T07:04:06Z" changeset="119225034" uid="3497659" user="NKA">
		<tag k="alt_name" v="Urene" />
		<tag k="name" v="Urdin" />
		<tag k="place" v="farm" />
		<tag k="ssr:stedsnr" v="735298" />
	</node>
	<node id="9630931667" lat="60.7247554" lon="9.0365606" version="1" timestamp="2022-04-02T07:04:06Z" changeset="119225034" uid="3497659" user="NKA">
		<tag k="name" v="Sandbekkhytta" />
		<tag k="place" v="isolated_dwelling" />
		<tag k="ssr:stedsnr" v="857150" />
	</node>
	<node id="9630931668" lat="60.7376271" lon="8.803331" version="1" timestamp="2022-04-02T07:04:06Z" changeset="119225034" uid="3497659" user="NKA">
		<tag k="historic" v="shieling" />
		<tag k="name" v="Gamlelie" />
		<tag k="place" v="isolated_dwelling" />
		<tag k="ssr:stedsnr" v="795823" />
	</node>
	<node id="9630931669" lat="60.6919571" lon="8.8794972" version="1" timestamp="2022-04-02T07:04:06Z" changeset="119225034" uid="3497659" user="NKA">
		<tag k="name" v="Østheim" />
		<tag k="place" v="farm" />
		<tag k="ssr:stedsnr" v="648137" />
	</node>
	<node id="9630931670" lat="60.7007833" lon="9.0065435" version="1" timestamp="2022-04-02T07:04:06Z" changeset="119225034" uid="3497659" user="NKA">
		<tag k="name" v="Nedre Frøysåk" />
		<tag k="place" v="farm" />
		<tag k="ssr:stedsnr" v="533385" />
	</node>
	<node id="9630931671" lat="60.694531" lon="8.9013789" version="1" timestamp="2022-04-02T07:04:06Z" changeset="119225034" uid="3497659" user="NKA">
		<tag k="alt_name" v="Billebroten" />
		<tag k="name" v="Billebråten" />
		<tag k="old_name" v="Gillebråten" />
		<tag k="place" v="farm" />
		<tag k="ssr:stedsnr" v="674297" />
	</node>
	<node id="9630931672" lat="60.7183639" lon="8.7764277" version="1" timestamp="2022-04-02T07:04:06Z" changeset="119225034" uid="3497659" user="NKA">
		<tag k="historic" v="shieling" />
		<tag k="name" v="Gamlevollen" />
		<tag k="place" v="isolated_dwelling" />
		<tag k="ssr:stedsnr" v="127846" />
	</node>
	<node id="9630931673" lat="60.7428449" lon="8.8712888" version="1" timestamp="2022-04-02T07:04:06Z" changeset="119225034" uid="3497659" user="NKA">
		<tag k="name" v="Ekrehaugen" />
		<tag k="place" v="farm" />
		<tag k="ssr:stedsnr" v="40994" />
	</node>
	<node id="9630931674" lat="60.7224004" lon="8.9336286" version="1" timestamp="2022-04-02T07:04:06Z" changeset="119225034" uid="3497659" user="NKA">
		<tag k="name" v="Berget" />
		<tag k="place" v="farm" />
		<tag k="ssr:stedsnr" v="613139" />
	</node>
	<node id="9630931675" lat="60.7043275" lon="8.9136639" version="1" timestamp="2022-04-02T07:04:06Z" changeset="119225034" uid="3497659" user="NKA">
		<tag k="alt_name" v="Nibstad;Nipstad" />
		<tag k="name" v="Nifstad" />
		<tag k="place" v="farm" />
		<tag k="ssr:stedsnr" v="465510" />
	</node>
	<node id="9630931676" lat="60.6910185" lon="9.0213047" version="1" timestamp="2022-04-02T07:04:06Z" changeset="119225034" uid="3497659" user="NKA">
		<tag k="name" v="Søre Brøto" />
		<tag k="old_name" v="Bråten" />
		<tag k="place" v="farm" />
		<tag k="ssr:stedsnr" v="977520" />
	</node>
	<node id="9630931677" lat="60.7835761" lon="9.0035008" version="1" timestamp="2022-04-02T07:04:06Z" changeset="119225034" uid="3497659" user="NKA">
		<tag k="alt_name" v="Vikostølen;Vikastølen" />
		<tag k="historic" v="shieling" />
		<tag k="name" v="Vikovollen" />
		<tag k="old_name" v="Viko seter" />
		<tag k="place" v="isolated_dwelling" />
		<tag k="ssr:stedsnr" v="615233" />
	</node>
	<node id="9630931678" lat="60.7829063" lon="8.9506628" version="1" timestamp="2022-04-02T07:04:06Z" changeset="119225034" uid="3497659" user="NKA">
		<tag k="alt_name" v="Skutuset" />
		<tag k="historic" v="shieling" />
		<tag k="name" v="Eidsvallvollen" />
		<tag k="place" v="isolated_dwelling" />
		<tag k="ssr:stedsnr" v="180731" />
	</node>
	<node id="9630931679" lat="60.6864028" lon="8.8942449" version="1" timestamp="2022-04-02T07:04:06Z" changeset="119225034" uid="3497659" user="NKA">
		<tag k="alt_name" v="Slåtten" />
		<tag k="name" v="Slåtta" />
		<tag k="place" v="farm" />
		<tag k="ssr:stedsnr" v="67317" />
	</node>
	<node id="9630931680" lat="60.6750361" lon="9.1927417" version="1" timestamp="2022-04-02T07:04:06Z" changeset="119225034" uid="3497659" user="NKA">
		<tag k="name" v="Hallgrimvollen" />
		<tag k="place" v="isolated_dwelling" />
		<tag k="ssr:stedsnr" v="917210" />
	</node>
	<node id="9630931681" lat="60.7849497" lon="9.0063212" version="1" timestamp="2022-04-02T07:04:06Z" changeset="119225034" uid="3497659" user="NKA">
		<tag k="historic" v="shieling" />
		<tag k="name" v="Rekkjeset" />
		<tag k="place" v="hamlet" />
		<tag k="ssr:stedsnr" v="372277" />
	</node>
	<node id="9630931682" lat="60.6999527" lon="9.0347639" version="1" timestamp="2022-04-02T07:04:06Z" changeset="119225034" uid="3497659" user="NKA">
		<tag k="name" v="Gladhus" />
		<tag k="place" v="farm" />
		<tag k="ssr:stedsnr" v="249321" />
	</node>
	<node id="9630931683" lat="60.686621" lon="8.8981041" version="1" timestamp="2022-04-02T07:04:06Z" changeset="119225034" uid="3497659" user="NKA">
		<tag k="name" v="Nedre Vermåker" />
		<tag k="place" v="farm" />
		<tag k="ssr:stedsnr" v="404071" />
	</node>
	<node id="9630931684" lat="60.7335553" lon="8.8408113" version="1" timestamp="2022-04-02T07:04:06Z" changeset="119225034" uid="3497659" user="NKA">
		<tag k="historic" v="shieling" />
		<tag k="name" v="Skåråsbråtstølen" />
		<tag k="place" v="isolated_dwelling" />
		<tag k="ssr:stedsnr" v="709188" />
	</node>
	<node id="9630931685" lat="60.8015" lon="8.8673528" version="1" timestamp="2022-04-02T07:04:06Z" changeset="119225034" uid="3497659" user="NKA">
		<tag k="historic" v="shieling" />
		<tag k="name" v="Bråtastølen" />
		<tag k="old_name" v="Bråtåstølen" />
		<tag k="place" v="isolated_dwelling" />
		<tag k="ssr:stedsnr" v="675502" />
	</node>
	<node id="9630931686" lat="60.8598167" lon="8.8821528" version="1" timestamp="2022-04-02T07:04:06Z" changeset="119225034" uid="3497659" user="NKA">
		<tag k="historic" v="shieling" />
		<tag k="name" v="Løggestølen" />
		<tag k="place" v="isolated_dwelling" />
		<tag k="ssr:stedsnr" v="616404" />
	</node>
	<node id="9630931687" lat="60.8190597" lon="8.8288136" version="1" timestamp="2022-04-02T07:04:06Z" changeset="119225034" uid="3497659" user="NKA">
		<tag k="historic" v="shieling" />
		<tag k="name" v="Maureset" />
		<tag k="place" v="hamlet" />
		<tag k="ssr:stedsnr" v="858240" />
	</node>
	<node id="9630931688" lat="60.6870266" lon="8.861187" version="1" timestamp="2022-04-02T07:04:06Z" changeset="119225034" uid="3497659" user="NKA">
		<tag k="alt_name" v="Gaukedokken" />
		<tag k="name" v="Gaukedokki" />
		<tag k="old_name" v="Gaukdokki" />
		<tag k="place" v="farm" />
		<tag k="ssr:stedsnr" v="310337" />
	</node>
	<node id="9630931689" lat="60.6934683" lon="9.0298723" version="1" timestamp="2022-04-02T07:04:06Z" changeset="119225034" uid="3497659" user="NKA">
		<tag k="name" v="Li" />
		<tag k="place" v="farm" />
		<tag k="ssr:stedsnr" v="102005" />
	</node>
	<node id="9630931690" lat="60.6735305" lon="9.0338584" version="1" timestamp="2022-04-02T07:04:06Z" changeset="119225034" uid="3497659" user="NKA">
		<tag k="name" v="Flagstad" />
		<tag k="place" v="farm" />
		<tag k="ssr:stedsnr" v="891018" />
	</node>
	<node id="9630931691" lat="60.6669583" lon="8.8310528" version="1" timestamp="2022-04-02T07:04:06Z" changeset="119225034" uid="3497659" user="NKA">
		<tag k="name" v="Ivarslie" />
		<tag k="place" v="locality" />
		<tag k="ssr:stedsnr" v="552988" />
	</node>
	<node id="9630931692" lat="60.7014952" lon="8.9178768" version="1" timestamp="2022-04-02T07:04:06Z" changeset="119225034" uid="3497659" user="NKA">
		<tag k="name" v="Nordberg" />
		<tag k="place" v="farm" />
		<tag k="ssr:stedsnr" v="6336" />
	</node>
	<node id="9630931693" lat="60.7841639" lon="9.0036722" version="1" timestamp="2022-04-02T07:04:06Z" changeset="119225034" uid="3497659" user="NKA">
		<tag k="historic" v="shieling" />
		<tag k="name" v="Vestre Rekkjeset" />
		<tag k="place" v="isolated_dwelling" />
		<tag k="ssr:stedsnr" v="341295" />
	</node>
	<node id="9630931694" lat="60.7225591" lon="8.9799567" version="1" timestamp="2022-04-02T07:04:06Z" changeset="119225034" uid="3497659" user="NKA">
		<tag k="name" v="Mellom-Rust" />
		<tag k="place" v="farm" />
		<tag k="ssr:stedsnr" v="603030" />
	</node>
	<node id="9630931695" lat="60.6697722" lon="9.1638166" version="1" timestamp="2022-04-02T07:04:06Z" changeset="119225034" uid="3497659" user="NKA">
		<tag k="name" v="Liahytta" />
		<tag k="place" v="isolated_dwelling" />
		<tag k="ssr:stedsnr" v="464387" />
	</node>
	<node id="9630931696" lat="60.7632334" lon="8.7802862" version="1" timestamp="2022-04-02T07:04:06Z" changeset="119225034" uid="3497659" user="NKA">
		<tag k="name" v="Hulbaklie" />
		<tag k="place" v="farm" />
		<tag k="ssr:stedsnr" v="798050" />
	</node>
	<node id="9630931697" lat="60.6948452" lon="8.8792296" version="1" timestamp="2022-04-02T07:04:06Z" changeset="119225034" uid="3497659" user="NKA">
		<tag k="alt_name" v="Steinsgard" />
		<tag k="name" v="Steingarden" />
		<tag k="old_name" v="Steingaarden" />
		<tag k="place" v="farm" />
		<tag k="ssr:stedsnr" v="786329" />
	</node>
	<node id="9630931698" lat="60.691325" lon="8.8419277" version="1" timestamp="2022-04-02T07:04:06Z" changeset="119225034" uid="3497659" user="NKA">
		<tag k="name" v="Urdsdalen" />
		<tag k="old_name" v="Ursdalen" />
		<tag k="place" v="farm" />
		<tag k="ssr:stedsnr" v="370912" />
	</node>
	<node id="9630931699" lat="60.7531639" lon="8.8047139" version="1" timestamp="2022-04-02T07:04:06Z" changeset="119225034" uid="3497659" user="NKA">
		<tag k="name" v="Søre Brennhovd" />
		<tag k="place" v="farm" />
		<tag k="ssr:stedsnr" v="555053" />
	</node>
	<node id="9630931700" lat="60.7161322" lon="8.9065841" version="1" timestamp="2022-04-02T07:04:06Z" changeset="119225034" uid="3497659" user="NKA">
		<tag k="alt_name" v="Trandeim" />
		<tag k="name" v="Trandheim" />
		<tag k="place" v="farm" />
		<tag k="ssr:stedsnr" v="674126" />
	</node>
	<node id="9630931701" lat="60.6832971" lon="8.827092" version="1" timestamp="2022-04-02T07:04:06Z" changeset="119225034" uid="3497659" user="NKA">
		<tag k="name" v="Bråten" />
		<tag k="place" v="farm" />
		<tag k="ssr:stedsnr" v="734921" />
	</node>
	<node id="9630931702" lat="60.798807" lon="8.7892176" version="1" timestamp="2022-04-02T07:04:06Z" changeset="119225034" uid="3497659" user="NKA">
		<tag k="name" v="Skarabakken" />
		<tag k="place" v="farm" />
		<tag k="ssr:stedsnr" v="494020" />
	</node>
	<node id="9630931703" lat="60.6969079" lon="9.002705" version="1" timestamp="2022-04-02T07:04:06Z" changeset="119225034" uid="3497659" user="NKA">
		<tag k="name" v="Nordre Eikle" />
		<tag k="place" v="farm" />
		<tag k="ssr:stedsnr" v="492316" />
	</node>
	<node id="9630931704" lat="60.8013793" lon="8.9695974" version="1" timestamp="2022-04-02T07:04:06Z" changeset="119225034" uid="3497659" user="NKA">
		<tag k="historic" v="shieling" />
		<tag k="name" v="Veslestølen" />
		<tag k="place" v="isolated_dwelling" />
		<tag k="ssr:stedsnr" v="524287" />
	</node>
	<node id="9630931705" lat="60.6994836" lon="9.0096512" version="1" timestamp="2022-04-02T07:04:06Z" changeset="119225034" uid="3497659" user="NKA">
		<tag k="name" v="Herad" />
		<tag k="place" v="quarter" />
		<tag k="ssr:stedsnr" v="902344" />
	</node>
	<node id="9630931706" lat="60.704043" lon="9.0178023" version="1" timestamp="2022-04-02T07:04:06Z" changeset="119225034" uid="3497659" user="NKA">
		<tag k="name" v="Bakken" />
		<tag k="place" v="farm" />
		<tag k="ssr:stedsnr" v="310378" />
	</node>
	<node id="9630931707" lat="60.752832" lon="8.8685306" version="1" timestamp="2022-04-02T07:04:06Z" changeset="119225034" uid="3497659" user="NKA">
		<tag k="alt_name" v="Rusten" />
		<tag k="name" v="Rusti" />
		<tag k="place" v="farm" />
		<tag k="ssr:stedsnr" v="190343" />
	</node>
	<node id="9630931708" lat="60.7586139" lon="8.8565556" version="1" timestamp="2022-04-02T07:04:06Z" changeset="119225034" uid="3497659" user="NKA">
		<tag k="name" v="Overhatten" />
		<tag k="place" v="farm" />
		<tag k="ssr:stedsnr" v="737267" />
	</node>
	<node id="9630931709" lat="60.6340572" lon="9.0774201" version="1" timestamp="2022-04-02T07:04:06Z" changeset="119225034" uid="3497659" user="NKA">
		<tag k="alt_name" v="Søre Rennsla" />
		<tag k="name" v="Søre Rensla" />
		<tag k="place" v="farm" />
		<tag k="ssr:stedsnr" v="249506" />
	</node>
	<node id="9630931710" lat="60.7226333" lon="9.1010666" version="1" timestamp="2022-04-02T07:04:06Z" changeset="119225034" uid="3497659" user="NKA">
		<tag k="alt_name" v="Haugarukan" />
		<tag k="name" v="Rukan" />
		<tag k="place" v="isolated_dwelling" />
		<tag k="ssr:stedsnr" v="492102" />
	</node>
	<node id="9630931711" lat="60.693255" lon="8.8448119" version="1" timestamp="2022-04-02T07:04:06Z" changeset="119225034" uid="3497659" user="NKA">
		<tag k="historic" v="shieling" />
		<tag k="name" v="Breidokkene" />
		<tag k="place" v="isolated_dwelling" />
		<tag k="ssr:stedsnr" v="482184" />
	</node>
	<node id="9630931712" lat="60.7546551" lon="8.7647488" version="1" timestamp="2022-04-02T07:04:06Z" changeset="119225034" uid="3497659" user="NKA">
		<tag k="name" v="Kråkehaug" />
		<tag k="place" v="farm" />
		<tag k="ssr:stedsnr" v="586873" />
	</node>
	<node id="9630931713" lat="60.7050222" lon="8.8392472" version="1" timestamp="2022-04-02T07:04:06Z" changeset="119225034" uid="3497659" user="NKA">
		<tag k="historic" v="shieling" />
		<tag k="name" v="Skjenhovdstølen" />
		<tag k="place" v="isolated_dwelling" />
		<tag k="ssr:stedsnr" v="603181" />
	</node>
	<node id="9630931714" lat="60.6935751" lon="8.8682453" version="1" timestamp="2022-04-02T07:04:06Z" changeset="119225034" uid="3497659" user="NKA">
		<tag k="name" v="Gjerdene" />
		<tag k="old_name" v="Kjernsæt" />
		<tag k="place" v="farm" />
		<tag k="ssr:stedsnr" v="795385" />
	</node>
	<node id="9630931715" lat="60.6939362" lon="8.9189279" version="1" timestamp="2022-04-02T07:04:06Z" changeset="119225034" uid="3497659" user="NKA">
		<tag k="name" v="Klemma" />
		<tag k="place" v="farm" />
		<tag k="ssr:stedsnr" v="67358" />
	</node>
	<node id="9630931716" lat="60.6861962" lon="9.2322348" version="1" timestamp="2022-04-02T07:04:06Z" changeset="119225034" uid="3497659" user="NKA">
		<tag k="historic" v="shieling" />
		<tag k="name" v="Røggjen" />
		<tag k="old_name" v="Røggin" />
		<tag k="place" v="isolated_dwelling" />
		<tag k="ssr:stedsnr" v="370715" />
	</node>
	<node id="9630931717" lat="60.8022311" lon="8.9919286" version="1" timestamp="2022-04-02T07:04:06Z" changeset="119225034" uid="3497659" user="NKA">
		<tag k="alt_name" v="Stakestølen;Stakesetra" />
		<tag k="historic" v="shieling" />
		<tag k="name" v="Rudningsvollen" />
		<tag k="place" v="isolated_dwelling" />
		<tag k="ssr:stedsnr" v="8501" />
	</node>
	<node id="9630931718" lat="60.7957361" lon="8.9805185" version="1" timestamp="2022-04-02T07:04:06Z" changeset="119225034" uid="3497659" user="NKA">
		<tag k="historic" v="shieling" />
		<tag k="name" v="Brastadstølen" />
		<tag k="place" v="isolated_dwelling" />
		<tag k="ssr:stedsnr" v="858281" />
	</node>
	<node id="9630931719" lat="60.6942889" lon="8.8962723" version="1" timestamp="2022-04-02T07:04:06Z" changeset="119225034" uid="3497659" user="NKA">
		<tag k="name" v="Tuppeskogen" />
		<tag k="place" v="hamlet" />
		<tag k="ssr:stedsnr" v="249340" />
	</node>
	<node id="9630931720" lat="60.8129603" lon="8.8211178" version="1" timestamp="2022-04-02T07:04:06Z" changeset="119225034" uid="3497659" user="NKA">
		<tag k="historic" v="shieling" />
		<tag k="name" v="Vermelian" />
		<tag k="place" v="isolated_dwelling" />
		<tag k="ssr:stedsnr" v="979537" />
	</node>
	<node id="9630931721" lat="60.7696433" lon="8.7540658" version="1" timestamp="2022-04-02T07:04:06Z" changeset="119225034" uid="3497659" user="NKA">
		<tag k="alt_name" v="Storøyne" />
		<tag k="name" v="Øynelie" />
		<tag k="place" v="farm" />
		<tag k="ssr:stedsnr" v="251023" />
	</node>
	<node id="9630931722" lat="60.6746401" lon="9.0301418" version="1" timestamp="2022-04-02T07:04:06Z" changeset="119225034" uid="3497659" user="NKA">
		<tag k="name" v="Strand" />
		<tag k="place" v="farm" />
		<tag k="ssr:stedsnr" v="466021" />
	</node>
	<node id="9630931723" lat="60.7810469" lon="9.0545624" version="1" timestamp="2022-04-02T07:04:06Z" changeset="119225034" uid="3497659" user="NKA">
		<tag k="alt_name" v="Norrhaug" />
		<tag k="loc_name" v="Norhaug" />
		<tag k="name" v="Nordhaug" />
		<tag k="place" v="farm" />
		<tag k="ssr:stedsnr" v="372326" />
	</node>
	<node id="9630931724" lat="60.7646701" lon="8.7741926" version="1" timestamp="2022-04-02T07:04:06Z" changeset="119225034" uid="3497659" user="NKA">
		<tag k="name" v="Bråten" />
		<tag k="place" v="farm" />
		<tag k="ssr:stedsnr" v="252041" />
	</node>
	<node id="9630931725" lat="60.6925474" lon="8.8940995" version="1" timestamp="2022-04-02T07:04:06Z" changeset="119225034" uid="3497659" user="NKA">
		<tag k="name" v="Smedsgarden" />
		<tag k="old_name" v="Smedsgården;Smedsgaarden" />
		<tag k="place" v="farm" />
		<tag k="ssr:stedsnr" v="100310" />
	</node>
	<node id="9630931726" lat="60.8502211" lon="8.8873623" version="1" timestamp="2022-04-02T07:04:06Z" changeset="119225034" uid="3497659" user="NKA">
		<tag k="alt_name" v="Bleiktvedt seter" />
		<tag k="name" v="Bleiktveit" />
		<tag k="place" v="farm" />
		<tag k="ssr:stedsnr" v="798386" />
	</node>
	<node id="9630931727" lat="60.7402639" lon="8.8592853" version="1" timestamp="2022-04-02T07:04:06Z" changeset="119225034" uid="3497659" user="NKA">
		<tag k="name" v="Magnetun" />
		<tag k="place" v="farm" />
		<tag k="ssr:stedsnr" v="552198" />
	</node>
	<node id="9630931728" lat="60.8035582" lon="8.9875214" version="1" timestamp="2022-04-02T07:04:06Z" changeset="119225034" uid="3497659" user="NKA">
		<tag k="historic" v="shieling" />
		<tag k="name" v="Rensel seter" />
		<tag k="place" v="isolated_dwelling" />
		<tag k="ssr:stedsnr" v="281392" />
	</node>
	<node id="9630931729" lat="60.7919416" lon="9.0615528" version="1" timestamp="2022-04-02T07:04:06Z" changeset="119225034" uid="3497659" user="NKA">
		<tag k="historic" v="shieling" />
		<tag k="name" v="Lægret" />
		<tag k="place" v="isolated_dwelling" />
		<tag k="ssr:stedsnr" v="69275" />
	</node>
	<node id="9630931730" lat="60.6830541" lon="8.8370741" version="1" timestamp="2022-04-02T07:04:06Z" changeset="119225034" uid="3497659" user="NKA">
		<tag k="name" v="Nordre Rotneim" />
		<tag k="place" v="farm" />
		<tag k="ssr:stedsnr" v="471195" />
	</node>
	<node id="9630931731" lat="60.7864222" lon="9.0087864" version="1" timestamp="2022-04-02T07:04:06Z" changeset="119225034" uid="3497659" user="NKA">
		<tag k="name" v="Myreng" />
		<tag k="place" v="farm" />
		<tag k="ssr:stedsnr" v="38294" />
	</node>
	<node id="9630931732" lat="60.8014998" lon="9.0674508" version="1" timestamp="2022-04-02T07:04:06Z" changeset="119225034" uid="3497659" user="NKA">
		<tag k="historic" v="shieling" />
		<tag k="name" v="Hovlandvollen" />
		<tag k="place" v="isolated_dwelling" />
		<tag k="ssr:stedsnr" v="1072067" />
	</node>
	<node id="9630931733" lat="60.7564204" lon="8.9880704" version="1" timestamp="2022-04-02T07:04:06Z" changeset="119225034" uid="3497659" user="NKA">
		<tag k="historic" v="shieling" />
		<tag k="name" v="Brautemo" />
		<tag k="place" v="hamlet" />
		<tag k="ssr:stedsnr" v="676344" />
	</node>
	<node id="9630931734" lat="60.6989909" lon="9.012367" version="1" timestamp="2022-04-02T07:04:06Z" changeset="119225034" uid="3497659" user="NKA">
		<tag k="name" v="Øvre Hoftun" />
		<tag k="place" v="farm" />
		<tag k="ssr:stedsnr" v="648184" />
	</node>
	<node id="9630931735" lat="60.6935841" lon="8.8998943" version="1" timestamp="2022-04-02T07:04:06Z" changeset="119225034" uid="3497659" user="NKA">
		<tag k="name" v="Knaldre" />
		<tag k="place" v="farm" />
		<tag k="ssr:stedsnr" v="795393" />
	</node>
	<node id="9630931736" lat="60.7414078" lon="8.8595998" version="1" timestamp="2022-04-02T07:04:06Z" changeset="119225034" uid="3497659" user="NKA">
		<tag k="name" v="Nordre Magnetun" />
		<tag k="place" v="farm" />
		<tag k="ssr:stedsnr" v="646992" />
	</node>
	<node id="9630931737" lat="60.6801686" lon="8.8435611" version="1" timestamp="2022-04-02T07:04:06Z" changeset="119225034" uid="3497659" user="NKA">
		<tag k="alt_name" v="Strand" />
		<tag k="name" v="Øynestrond" />
		<tag k="old_name" v="Øynesstranden og Granøen;(Øyne)Strandene og Grønøen" />
		<tag k="place" v="farm" />
		<tag k="ssr:stedsnr" v="310290" />
	</node>
	<node id="9630931738" lat="60.6844195" lon="8.8148499" version="1" timestamp="2022-04-02T07:04:06Z" changeset="119225034" uid="3497659" user="NKA">
		<tag k="name" v="Gjerdun" />
		<tag k="old_name" v="Skriu;Skriuen" />
		<tag k="place" v="farm" />
		<tag k="ssr:stedsnr" v="492916" />
	</node>
	<node id="9630931739" lat="60.765625" lon="8.7698083" version="1" timestamp="2022-04-02T07:04:06Z" changeset="119225034" uid="3497659" user="NKA">
		<tag k="alt_name" v="Lio" />
		<tag k="name" v="Lian" />
		<tag k="place" v="farm" />
		<tag k="ssr:stedsnr" v="859039" />
	</node>
	<node id="9630931740" lat="60.7393472" lon="8.8244777" version="1" timestamp="2022-04-02T07:04:06Z" changeset="119225034" uid="3497659" user="NKA">
		<tag k="name" v="Rustene" />
		<tag k="place" v="isolated_dwelling" />
		<tag k="ssr:stedsnr" v="40903" />
	</node>
	<node id="9630931741" lat="60.7376054" lon="9.2308341" version="1" timestamp="2022-04-02T07:04:06Z" changeset="119225034" uid="3497659" user="NKA">
		<tag k="historic" v="shieling" />
		<tag k="name" v="Nørdre Brøtavollen" />
		<tag k="place" v="isolated_dwelling" />
		<tag k="ssr:stedsnr" v="1072084" />
	</node>
	<node id="9630931742" lat="60.7080585" lon="8.9394898" version="1" timestamp="2022-04-02T07:04:06Z" changeset="119225034" uid="3497659" user="NKA">
		<tag k="alt_name" v="Rennsla" />
		<tag k="name" v="Renslo" />
		<tag k="place" v="farm" />
		<tag k="ssr:stedsnr" v="417397" />
	</node>
	<node id="9630931743" lat="60.6938115" lon="9.0298879" version="1" timestamp="2022-04-02T07:04:06Z" changeset="119225034" uid="3497659" user="NKA">
		<tag k="alt_name" v="Vilheimslii" />
		<tag k="name" v="Vilhelmsli" />
		<tag k="place" v="farm" />
		<tag k="ssr:stedsnr" v="958751" />
	</node>
	<node id="9630931744" lat="60.7186389" lon="8.9476388" version="1" timestamp="2022-04-02T07:04:06Z" changeset="119225034" uid="3497659" user="NKA">
		<tag k="name" v="Stake" />
		<tag k="place" v="farm" />
		<tag k="ssr:stedsnr" v="613129" />
	</node>
	<node id="9630931745" lat="60.7072842" lon="8.8819154" version="1" timestamp="2022-04-02T07:04:06Z" changeset="119225034" uid="3497659" user="NKA">
		<tag k="historic" v="shieling" />
		<tag k="name" v="Haugstadskaran" />
		<tag k="old_name" v="Jordoskaran;Skaran" />
		<tag k="place" v="isolated_dwelling" />
		<tag k="ssr:stedsnr" v="1072075" />
	</node>
	<node id="9630931746" lat="60.6811067" lon="8.8083443" version="1" timestamp="2022-04-02T07:04:06Z" changeset="119225034" uid="3497659" user="NKA">
		<tag k="name" v="Underberget" />
		<tag k="place" v="farm" />
		<tag k="ssr:stedsnr" v="6930" />
	</node>
	<node id="9630931747" lat="60.7078305" lon="8.8065445" version="1" timestamp="2022-04-02T07:04:06Z" changeset="119225034" uid="3497659" user="NKA">
		<tag k="historic" v="shieling" />
		<tag k="name" v="Haugastølen" />
		<tag k="place" v="isolated_dwelling" />
		<tag k="ssr:stedsnr" v="127880" />
	</node>
	<node id="9630931748" lat="60.7810694" lon="8.9213896" version="1" timestamp="2022-04-02T07:04:06Z" changeset="119225034" uid="3497659" user="NKA">
		<tag k="name" v="Nørdre Vermelie" />
		<tag k="place" v="farm" />
		<tag k="ssr:stedsnr" v="979313" />
	</node>
	<node id="9630931749" lat="60.725425" lon="8.9686889" version="1" timestamp="2022-04-02T07:04:06Z" changeset="119225034" uid="3497659" user="NKA">
		<tag k="name" v="Nymoen" />
		<tag k="place" v="farm" />
		<tag k="ssr:stedsnr" v="249137" />
	</node>
	<node id="9630931750" lat="60.8025334" lon="8.9593889" version="1" timestamp="2022-04-02T07:04:06Z" changeset="119225034" uid="3497659" user="NKA">
		<tag k="historic" v="shieling" />
		<tag k="name" v="Einarset" />
		<tag k="place" v="hamlet" />
		<tag k="ssr:stedsnr" v="345850" />
	</node>
	<node id="9630931751" lat="60.7419586" lon="8.8676109" version="1" timestamp="2022-04-02T07:04:06Z" changeset="119225034" uid="3497659" user="NKA">
		<tag k="name" v="Rohaugen" />
		<tag k="old_name" v="Haug" />
		<tag k="place" v="farm" />
		<tag k="ssr:stedsnr" v="492144" />
	</node>
	<node id="9630931752" lat="60.7978861" lon="8.8472889" version="1" timestamp="2022-04-02T07:04:06Z" changeset="119225034" uid="3497659" user="NKA">
		<tag k="historic" v="shieling" />
		<tag k="name" v="Hersgard seter" />
		<tag k="place" v="isolated_dwelling" />
		<tag k="ssr:stedsnr" v="665711" />
	</node>
	<node id="9630931753" lat="60.7809711" lon="8.9237723" version="1" timestamp="2022-04-02T07:04:06Z" changeset="119225034" uid="3497659" user="NKA">
		<tag k="historic" v="shieling" />
		<tag k="name" v="Vermelie" />
		<tag k="place" v="isolated_dwelling" />
		<tag k="ssr:stedsnr" v="919247" />
	</node>
	<node id="9630931754" lat="60.7434473" lon="8.9073066" version="1" timestamp="2022-04-02T07:04:06Z" changeset="119225034" uid="3497659" user="NKA">
		<tag k="name" v="Gården" />
		<tag k="place" v="farm" />
		<tag k="ssr:stedsnr" v="917140" />
	</node>
	<node id="9630931755" lat="60.70875" lon="9.296975" version="1" timestamp="2022-04-02T07:04:06Z" changeset="119225034" uid="3497659" user="NKA">
		<tag k="alt_name" v="Høvreslie" />
		<tag k="historic" v="shieling" />
		<tag k="name" v="Halling-Høvreslie" />
		<tag k="place" v="hamlet" />
		<tag k="ssr:stedsnr" v="250533" />
	</node>
	<node id="9630931756" lat="60.6992282" lon="8.9907249" version="1" timestamp="2022-04-02T07:04:06Z" changeset="119225034" uid="3497659" user="NKA">
		<tag k="name" v="Fredheim" />
		<tag k="place" v="farm" />
		<tag k="ssr:stedsnr" v="67349" />
	</node>
	<node id="9630931757" lat="60.7319056" lon="8.8338833" version="1" timestamp="2022-04-02T07:04:06Z" changeset="119225034" uid="3497659" user="NKA">
		<tag k="historic" v="shieling" />
		<tag k="name" v="Nystølen" />
		<tag k="place" v="isolated_dwelling" />
		<tag k="ssr:stedsnr" v="6829" />
	</node>
	<node id="9630931758" lat="60.7412931" lon="8.8916418" version="1" timestamp="2022-04-02T07:04:06Z" changeset="119225034" uid="3497659" user="NKA">
		<tag k="alt_name" v="Turkop" />
		<tag k="name" v="Turkupp" />
		<tag k="place" v="farm" />
		<tag k="ssr:stedsnr" v="310158" />
	</node>
	<node id="9630931759" lat="60.6839483" lon="8.859842" version="1" timestamp="2022-04-02T07:04:06Z" changeset="119225034" uid="3497659" user="NKA">
		<tag k="name" v="Øygarden" />
		<tag k="place" v="isolated_dwelling" />
		<tag k="ssr:stedsnr" v="829418" />
	</node>
	<node id="9630931760" lat="60.7716449" lon="9.0038979" version="1" timestamp="2022-04-02T07:04:06Z" changeset="119225034" uid="3497659" user="NKA">
		<tag k="name" v="Hamarstad" />
		<tag k="place" v="locality" />
		<tag k="ssr:stedsnr" v="69318" />
	</node>
	<node id="9630931761" lat="60.7578031" lon="9.2652789" version="1" timestamp="2022-04-02T07:04:06Z" changeset="119225034" uid="3497659" user="NKA">
		<tag k="alt_name" v="Vassvollan" />
		<tag k="historic" v="shieling" />
		<tag k="name" v="Vassvollen" />
		<tag k="place" v="isolated_dwelling" />
		<tag k="ssr:stedsnr" v="555786" />
	</node>
	<node id="9630931762" lat="60.7877031" lon="9.1345808" version="1" timestamp="2022-04-02T07:04:06Z" changeset="119225034" uid="3497659" user="NKA">
		<tag k="name" v="Brenn" />
		<tag k="place" v="hamlet" />
		<tag k="ssr:stedsnr" v="433255" />
	</node>
	<node id="9630931763" lat="60.7572389" lon="8.7230001" version="1" timestamp="2022-04-02T07:04:06Z" changeset="119225034" uid="3497659" user="NKA">
		<tag k="name" v="Bakkevollen" />
		<tag k="place" v="farm" />
		<tag k="ssr:stedsnr" v="587190" />
	</node>
	<node id="9630931764" lat="60.7212451" lon="8.9421889" version="1" timestamp="2022-04-02T07:04:06Z" changeset="119225034" uid="3497659" user="NKA">
		<tag k="alt_name" v="Espedokken" />
		<tag k="name" v="Espedokki" />
		<tag k="place" v="locality" />
		<tag k="ssr:stedsnr" v="189119" />
	</node>
	<node id="9630931765" lat="60.7922027" lon="8.8727918" version="1" timestamp="2022-04-02T07:04:06Z" changeset="119225034" uid="3497659" user="NKA">
		<tag k="historic" v="shieling" />
		<tag k="loc_name" v="Sagabråtvollen" />
		<tag k="name" v="Nordre Sagabråten seter" />
		<tag k="place" v="isolated_dwelling" />
		<tag k="ssr:stedsnr" v="241647" />
	</node>
	<node id="9630931766" lat="60.7909154" lon="9.0690908" version="1" timestamp="2022-04-02T07:04:06Z" changeset="119225034" uid="3497659" user="NKA">
		<tag k="name" v="Klanten" />
		<tag k="place" v="farm" />
		<tag k="ssr:stedsnr" v="281281" />
	</node>
	<node id="9630931767" lat="60.7143893" lon="8.9097976" version="1" timestamp="2022-04-02T07:04:06Z" changeset="119225034" uid="3497659" user="NKA">
		<tag k="name" v="Øvre Sagabråten" />
		<tag k="place" v="farm" />
		<tag k="ssr:stedsnr" v="527188" />
	</node>
	<node id="9630931768" lat="60.8013911" lon="8.9929543" version="1" timestamp="2022-04-02T07:04:06Z" changeset="119225034" uid="3497659" user="NKA">
		<tag k="historic" v="shieling" />
		<tag k="name" v="Ludderudvollen" />
		<tag k="place" v="isolated_dwelling" />
		<tag k="ssr:stedsnr" v="675309" />
	</node>
	<node id="9630931769" lat="60.7276251" lon="8.8792275" version="1" timestamp="2022-04-02T07:04:06Z" changeset="119225034" uid="3497659" user="NKA">
		<tag k="alt_name" v="Hornungset" />
		<tag k="name" v="Hodnungset" />
		<tag k="place" v="farm" />
		<tag k="ssr:stedsnr" v="492115" />
	</node>
	<node id="9630931770" lat="60.7026861" lon="9.0126029" version="1" timestamp="2022-04-02T07:04:06Z" changeset="119225034" uid="3497659" user="NKA">
		<tag k="name" v="Hovli" />
		<tag k="place" v="farm" />
		<tag k="ssr:stedsnr" v="431351" />
	</node>
	<node id="9630931771" lat="60.8382666" lon="8.9538278" version="1" timestamp="2022-04-02T07:04:06Z" changeset="119225034" uid="3497659" user="NKA">
		<tag k="alt_name" v="Stølsdokken seter" />
		<tag k="historic" v="shieling" />
		<tag k="name" v="Stølsdokki" />
		<tag k="place" v="isolated_dwelling" />
		<tag k="ssr:stedsnr" v="312442" />
	</node>
	<node id="9630931772" lat="60.7256305" lon="9.0614278" version="1" timestamp="2022-04-02T07:04:06Z" changeset="119225034" uid="3497659" user="NKA">
		<tag k="name" v="Gamle Sygardshytta" />
		<tag k="place" v="locality" />
		<tag k="ssr:stedsnr" v="829799" />
	</node>
	<node id="9630931773" lat="60.6934639" lon="8.9425694" version="1" timestamp="2022-04-02T07:04:06Z" changeset="119225034" uid="3497659" user="NKA">
		<tag k="name" v="Rundebråten" />
		<tag k="place" v="locality" />
		<tag k="ssr:stedsnr" v="239210" />
	</node>
	<node id="9630931774" lat="60.7470661" lon="8.8112003" version="1" timestamp="2022-04-02T07:04:06Z" changeset="119225034" uid="3497659" user="NKA">
		<tag k="name" v="Øvre Mykleset" />
		<tag k="place" v="farm" />
		<tag k="ssr:stedsnr" v="829892" />
	</node>
	<node id="9630931775" lat="60.7513834" lon="8.8614306" version="1" timestamp="2022-04-02T07:04:06Z" changeset="119225034" uid="3497659" user="NKA">
		<tag k="alt_name" v="Møllerplass" />
		<tag k="loc_name" v="Mølnarplassen" />
		<tag k="name" v="Mølnaplassen" />
		<tag k="place" v="farm" />
		<tag k="ssr:stedsnr" v="858294" />
	</node>
	<node id="9630931776" lat="60.7079919" lon="8.9205889" version="1" timestamp="2022-04-02T07:04:06Z" changeset="119225034" uid="3497659" user="NKA">
		<tag k="name" v="Bergheim" />
		<tag k="place" v="farm" />
		<tag k="ssr:stedsnr" v="360186" />
	</node>
	<node id="9630931777" lat="60.6990721" lon="8.9755757" version="1" timestamp="2022-04-02T07:04:06Z" changeset="119225034" uid="3497659" user="NKA">
		<tag k="name" v="Nøreim" />
		<tag k="place" v="farm" />
		<tag k="ssr:stedsnr" v="538185" />
	</node>
	<node id="9630931778" lat="60.7099028" lon="8.8024305" version="1" timestamp="2022-04-02T07:04:06Z" changeset="119225034" uid="3497659" user="NKA">
		<tag k="historic" v="shieling" />
		<tag k="name" v="Hansestølen" />
		<tag k="place" v="isolated_dwelling" />
		<tag k="ssr:stedsnr" v="482189" />
	</node>
	<node id="9630931779" lat="60.6805053" lon="8.7856638" version="1" timestamp="2022-04-02T07:04:06Z" changeset="119225034" uid="3497659" user="NKA">
		<tag k="name" v="Haugo" />
		<tag k="place" v="farm" />
		<tag k="ssr:stedsnr" v="431929" />
	</node>
	<node id="9630931780" lat="60.7463751" lon="8.8779259" version="1" timestamp="2022-04-02T07:04:06Z" changeset="119225034" uid="3497659" user="NKA">
		<tag k="name" v="Bakkerud" />
		<tag k="place" v="farm" />
		<tag k="ssr:stedsnr" v="613177" />
	</node>
	<node id="9630931781" lat="60.708077" lon="8.9172642" version="1" timestamp="2022-04-02T07:04:06Z" changeset="119225034" uid="3497659" user="NKA">
		<tag k="name" v="Eidsgard" />
		<tag k="place" v="farm" />
		<tag k="ssr:stedsnr" v="891163" />
	</node>
	<node id="9630931782" lat="60.6847027" lon="8.8400944" version="1" timestamp="2022-04-02T07:04:06Z" changeset="119225034" uid="3497659" user="NKA">
		<tag k="name" v="Teigen" />
		<tag k="place" v="farm" />
		<tag k="ssr:stedsnr" v="249915" />
	</node>
	<node id="9630931783" lat="60.7189271" lon="8.9013129" version="1" timestamp="2022-04-02T07:04:06Z" changeset="119225034" uid="3497659" user="NKA">
		<tag k="name" v="Eikro" />
		<tag k="place" v="farm" />
		<tag k="ssr:stedsnr" v="406182" />
	</node>
	<node id="9630931784" lat="60.7726825" lon="9.0067633" version="1" timestamp="2022-04-02T07:04:06Z" changeset="119225034" uid="3497659" user="NKA">
		<tag k="name" v="Fjellheim" />
		<tag k="place" v="farm" />
		<tag k="ssr:stedsnr" v="953610" />
	</node>
	<node id="9630931785" lat="60.75225" lon="8.96415" version="1" timestamp="2022-04-02T07:04:06Z" changeset="119225034" uid="3497659" user="NKA">
		<tag k="historic" v="shieling" />
		<tag k="name" v="Høgehaug" />
		<tag k="place" v="isolated_dwelling" />
		<tag k="ssr:stedsnr" v="858346" />
	</node>
	<node id="9630931786" lat="60.7267945" lon="8.8923721" version="1" timestamp="2022-04-02T07:04:06Z" changeset="119225034" uid="3497659" user="NKA">
		<tag k="name" v="Svang" />
		<tag k="place" v="farm" />
		<tag k="ssr:stedsnr" v="249148" />
	</node>
	<node id="9630931787" lat="60.7376667" lon="8.7500527" version="1" timestamp="2022-04-02T07:04:06Z" changeset="119225034" uid="3497659" user="NKA">
		<tag k="historic" v="shieling" />
		<tag k="name" v="Snuforinkje" />
		<tag k="place" v="isolated_dwelling" />
		<tag k="ssr:stedsnr" v="249802" />
	</node>
	<node id="9630931788" lat="60.756693" lon="8.7730091" version="1" timestamp="2022-04-02T07:04:06Z" changeset="119225034" uid="3497659" user="NKA">
		<tag k="name" v="Elbjørvollen" />
		<tag k="place" v="isolated_dwelling" />
		<tag k="ssr:stedsnr" v="768897" />
	</node>
	<node id="9630931789" lat="60.6759334" lon="9.0340778" version="1" timestamp="2022-04-02T07:04:06Z" changeset="119225034" uid="3497659" user="NKA">
		<tag k="name" v="Pytten" />
		<tag k="place" v="farm" />
		<tag k="ssr:stedsnr" v="310310" />
	</node>
	<node id="9630931790" lat="60.7158011" lon="8.9486785" version="1" timestamp="2022-04-02T07:04:06Z" changeset="119225034" uid="3497659" user="NKA">
		<tag k="name" v="Bråten" />
		<tag k="place" v="farm" />
		<tag k="ssr:stedsnr" v="406192" />
	</node>
	<node id="9630931791" lat="60.7202402" lon="8.7885139" version="1" timestamp="2022-04-02T07:04:06Z" changeset="119225034" uid="3497659" user="NKA">
		<tag k="alt_name" v="Nystølane" />
		<tag k="historic" v="shieling" />
		<tag k="name" v="Nystølan" />
		<tag k="place" v="isolated_dwelling" />
		<tag k="ssr:stedsnr" v="249830" />
	</node>
	<node id="9630931792" lat="60.6923373" lon="9.0100752" version="1" timestamp="2022-04-02T07:04:06Z" changeset="119225034" uid="3497659" user="NKA">
		<tag k="name" v="Søre Eikle" />
		<tag k="place" v="farm" />
		<tag k="ssr:stedsnr" v="856378" />
	</node>
	<node id="9630931793" lat="60.8376578" lon="8.8452904" version="1" timestamp="2022-04-02T07:04:06Z" changeset="119225034" uid="3497659" user="NKA">
		<tag k="historic" v="shieling" />
		<tag k="name" v="Hovdestølen" />
		<tag k="place" v="isolated_dwelling" />
		<tag k="ssr:stedsnr" v="524401" />
	</node>
	<node id="9630931794" lat="60.6984612" lon="8.802425" version="1" timestamp="2022-04-02T07:04:06Z" changeset="119225034" uid="3497659" user="NKA">
		<tag k="historic" v="shieling" />
		<tag k="name" v="Langeset" />
		<tag k="place" v="isolated_dwelling" />
		<tag k="ssr:stedsnr" v="916897" />
	</node>
	<node id="9630931795" lat="60.6752278" lon="9.0327251" version="1" timestamp="2022-04-02T07:04:06Z" changeset="119225034" uid="3497659" user="NKA">
		<tag k="name" v="Øvre Pytten" />
		<tag k="place" v="farm" />
		<tag k="ssr:stedsnr" v="224030" />
	</node>
	<node id="9630931796" lat="60.7608946" lon="8.8195228" version="1" timestamp="2022-04-02T07:04:06Z" changeset="119225034" uid="3497659" user="NKA">
		<tag k="name" v="Gladhus" />
		<tag k="place" v="farm" />
		<tag k="ssr:stedsnr" v="312035" />
	</node>
	<node id="9630931797" lat="60.7474417" lon="8.8507681" version="1" timestamp="2022-04-02T07:04:06Z" changeset="119225034" uid="3497659" user="NKA">
		<tag k="name" v="Haugo" />
		<tag k="place" v="farm" />
		<tag k="ssr:stedsnr" v="431202" />
	</node>
	<node id="9630931798" lat="60.6502445" lon="9.0668805" version="1" timestamp="2022-04-02T07:04:06Z" changeset="119225034" uid="3497659" user="NKA">
		<tag k="name" v="Trælup" />
		<tag k="place" v="locality" />
		<tag k="ssr:stedsnr" v="844456" />
	</node>
	<node id="9630931799" lat="60.784343" lon="8.9495513" version="1" timestamp="2022-04-02T07:04:06Z" changeset="119225034" uid="3497659" user="NKA">
		<tag k="historic" v="shieling" />
		<tag k="name" v="Stølsdokkvollen" />
		<tag k="place" v="isolated_dwelling" />
		<tag k="ssr:stedsnr" v="908784" />
	</node>
	<node id="9630931800" lat="60.699592" lon="8.9552968" version="1" timestamp="2022-04-02T07:04:06Z" changeset="119225034" uid="3497659" user="NKA">
		<tag k="name" v="Viko" />
		<tag k="place" v="farm" />
		<tag k="ssr:stedsnr" v="674309" />
	</node>
	<node id="9630931801" lat="60.7286667" lon="8.9752305" version="1" timestamp="2022-04-02T07:04:06Z" changeset="119225034" uid="3497659" user="NKA">
		<tag k="name" v="Brennli" />
		<tag k="place" v="farm" />
		<tag k="ssr:stedsnr" v="371155" />
	</node>
	<node id="9630931802" lat="60.6912055" lon="8.8822" version="1" timestamp="2022-04-02T07:04:06Z" changeset="119225034" uid="3497659" user="NKA">
		<tag k="name" v="Slåtto" />
		<tag k="place" v="farm" />
		<tag k="ssr:stedsnr" v="189320" />
	</node>
	<node id="9630931803" lat="60.6986916" lon="8.8346119" version="1" timestamp="2022-04-02T07:04:06Z" changeset="119225034" uid="3497659" user="NKA">
		<tag k="alt_name" v="Stavdokkene" />
		<tag k="historic" v="shieling" />
		<tag k="name" v="Stavdokki" />
		<tag k="place" v="isolated_dwelling" />
		<tag k="ssr:stedsnr" v="552913" />
	</node>
	<node id="9630931804" lat="60.7131829" lon="8.9372457" version="1" timestamp="2022-04-02T07:04:06Z" changeset="119225034" uid="3497659" user="NKA">
		<tag k="name" v="Svingen" />
		<tag k="place" v="farm" />
		<tag k="ssr:stedsnr" v="291340" />
	</node>
	<node id="9630931805" lat="60.7838501" lon="9.0475145" version="1" timestamp="2022-04-02T07:04:06Z" changeset="119225034" uid="3497659" user="NKA">
		<tag k="name" v="Kvanhøgd" />
		<tag k="place" v="farm" />
		<tag k="ssr:stedsnr" v="372281" />
	</node>
	<node id="9630931806" lat="60.7499111" lon="8.8088805" version="1" timestamp="2022-04-02T07:04:06Z" changeset="119225034" uid="3497659" user="NKA">
		<tag k="name" v="Grønvoll" />
		<tag k="place" v="locality" />
		<tag k="ssr:stedsnr" v="646999" />
	</node>
	<node id="9630931807" lat="60.7493722" lon="8.8585104" version="1" timestamp="2022-04-02T07:04:06Z" changeset="119225034" uid="3497659" user="NKA">
		<tag k="name" v="Eidsberget" />
		<tag k="place" v="farm" />
		<tag k="ssr:stedsnr" v="40991" />
	</node>
	<node id="9630931808" lat="60.7069021" lon="9.0113841" version="1" timestamp="2022-04-02T07:04:06Z" changeset="119225034" uid="3497659" user="NKA">
		<tag k="name" v="Nordre Brenno" />
		<tag k="place" v="farm" />
		<tag k="ssr:stedsnr" v="587175" />
	</node>
	<node id="9630931809" lat="60.8352896" lon="8.9746309" version="1" timestamp="2022-04-02T07:04:06Z" changeset="119225034" uid="3497659" user="NKA">
		<tag k="alt_name" v="Rolvstølen" />
		<tag k="historic" v="shieling" />
		<tag k="name" v="Rolfstølen" />
		<tag k="place" v="isolated_dwelling" />
		<tag k="ssr:stedsnr" v="919442" />
	</node>
	<node id="9630931810" lat="60.7093363" lon="8.9263554" version="1" timestamp="2022-04-02T07:04:06Z" changeset="119225034" uid="3497659" user="NKA">
		<tag k="name" v="Leikvollen" />
		<tag k="place" v="locality" />
		<tag k="ssr:stedsnr" v="917344" />
	</node>
	<node id="9630931811" lat="60.7174192" lon="8.9802574" version="1" timestamp="2022-04-02T07:04:06Z" changeset="119225034" uid="3497659" user="NKA">
		<tag k="name" v="Solli" />
		<tag k="place" v="farm" />
		<tag k="ssr:stedsnr" v="553337" />
	</node>
	<node id="9630931812" lat="60.800115" lon="8.8415784" version="1" timestamp="2022-04-02T07:04:06Z" changeset="119225034" uid="3497659" user="NKA">
		<tag k="historic" v="shieling" />
		<tag k="name" v="Gjerdingvollen" />
		<tag k="place" v="isolated_dwelling" />
		<tag k="ssr:stedsnr" v="180663" />
	</node>
	<node id="9630931813" lat="60.7364139" lon="8.8345222" version="1" timestamp="2022-04-02T07:04:06Z" changeset="119225034" uid="3497659" user="NKA">
		<tag k="historic" v="shieling" />
		<tag k="name" v="Nylie" />
		<tag k="place" v="isolated_dwelling" />
		<tag k="ssr:stedsnr" v="891201" />
	</node>
	<node id="9630931814" lat="60.8501031" lon="8.9083134" version="1" timestamp="2022-04-02T07:04:06Z" changeset="119225034" uid="3497659" user="NKA">
		<tag k="historic" v="shieling" />
		<tag k="name" v="Leikvollen" />
		<tag k="place" v="isolated_dwelling" />
		<tag k="ssr:stedsnr" v="859421" />
	</node>
	<node id="9630931815" lat="60.8490124" lon="8.894599" version="1" timestamp="2022-04-02T07:04:06Z" changeset="119225034" uid="3497659" user="NKA">
		<tag k="alt_name" v="Lagmannsgard seter" />
		<tag k="historic" v="shieling" />
		<tag k="name" v="Lagmannsgardstølen" />
		<tag k="place" v="isolated_dwelling" />
		<tag k="ssr:stedsnr" v="434418" />
	</node>
	<node id="9630931816" lat="60.65681" lon="9.0539912" version="1" timestamp="2022-04-02T07:04:06Z" changeset="119225034" uid="3497659" user="NKA">
		<tag k="alt_name" v="Engjan;Engene;Søre Engene" />
		<tag k="name" v="Søre Engjan" />
		<tag k="old_name" v="Søre Enganne;Enganne" />
		<tag k="place" v="farm" />
		<tag k="ssr:stedsnr" v="161396;552307" />
	</node>
	<node id="9630931817" lat="60.6386602" lon="9.0745579" version="1" timestamp="2022-04-02T07:04:06Z" changeset="119225034" uid="3497659" user="NKA">
		<tag k="alt_name" v="Nordre Rennsla" />
		<tag k="name" v="Nordre Rensla" />
		<tag k="place" v="farm" />
		<tag k="ssr:stedsnr" v="553458" />
	</node>
	<node id="9630931818" lat="60.7384843" lon="8.8716608" version="1" timestamp="2022-04-02T07:04:06Z" changeset="119225034" uid="3497659" user="NKA">
		<tag k="name" v="Arnegard" />
		<tag k="place" v="farm" />
		<tag k="ssr:stedsnr" v="404994" />
	</node>
	<node id="9630931819" lat="60.6890681" lon="8.816742" version="1" timestamp="2022-04-02T07:04:06Z" changeset="119225034" uid="3497659" user="NKA">
		<tag k="alt_name" v="Oterdokki;Otterdokken" />
		<tag k="name" v="Otterdokki" />
		<tag k="place" v="farm" />
		<tag k="ssr:stedsnr" v="67909" />
	</node>
	<node id="9630931820" lat="60.6964471" lon="8.9631328" version="1" timestamp="2022-04-02T07:04:06Z" changeset="119225034" uid="3497659" user="NKA">
		<tag k="name" v="Norheim" />
		<tag k="place" v="farm" />
		<tag k="ssr:stedsnr" v="464315" />
	</node>
	<node id="9630931821" lat="60.6845326" lon="8.8844716" version="1" timestamp="2022-04-02T07:04:06Z" changeset="119225034" uid="3497659" user="NKA">
		<tag k="name" v="Rustberggard" />
		<tag k="place" v="farm" />
		<tag k="ssr:stedsnr" v="161090" />
	</node>
	<node id="9630931822" lat="60.7440662" lon="8.8890489" version="1" timestamp="2022-04-02T07:04:06Z" changeset="119225034" uid="3497659" user="NKA">
		<tag k="name" v="Pålrud" />
		<tag k="place" v="farm" />
		<tag k="ssr:stedsnr" v="856195" />
	</node>
	<node id="9630931823" lat="60.7519152" lon="9.0363925" version="1" timestamp="2022-04-02T07:04:06Z" changeset="119225034" uid="3497659" user="NKA">
		<tag k="name" v="Stølsdokkhytta" />
		<tag k="place" v="isolated_dwelling" />
		<tag k="ssr:stedsnr" v="39758" />
	</node>
	<node id="9630931824" lat="60.7022333" lon="8.9767889" version="1" timestamp="2022-04-02T07:04:06Z" changeset="119225034" uid="3497659" user="NKA">
		<tag k="name" v="Velta" />
		<tag k="place" v="farm" />
		<tag k="ssr:stedsnr" v="795367" />
	</node>
	<node id="9630931825" lat="60.7494012" lon="8.8884591" version="1" timestamp="2022-04-02T07:04:06Z" changeset="119225034" uid="3497659" user="NKA">
		<tag k="name" v="Storebråten" />
		<tag k="place" v="farm" />
		<tag k="ssr:stedsnr" v="310173" />
	</node>
	<node id="9630931826" lat="60.6920416" lon="9.019802" version="1" timestamp="2022-04-02T07:04:06Z" changeset="119225034" uid="3497659" user="NKA">
		<tag k="name" v="Nørdre Brøto" />
		<tag k="old_name" v="Bråten" />
		<tag k="place" v="farm" />
		<tag k="ssr:stedsnr" v="1072079" />
	</node>
	<node id="9630931827" lat="60.7525952" lon="8.7559252" version="1" timestamp="2022-04-02T07:04:06Z" changeset="119225034" uid="3497659" user="NKA">
		<tag k="name" v="Gården" />
		<tag k="place" v="farm" />
		<tag k="ssr:stedsnr" v="919057" />
	</node>
	<node id="9630931828" lat="60.7178862" lon="8.9457333" version="1" timestamp="2022-04-02T07:04:06Z" changeset="119225034" uid="3497659" user="NKA">
		<tag k="loc_name" v="Åsgardane" />
		<tag k="name" v="Åsgardan" />
		<tag k="old_name" v="Aasgardann" />
		<tag k="place" v="hamlet" />
		<tag k="ssr:stedsnr" v="553122" />
	</node>
	<node id="9630931829" lat="60.7347193" lon="9.1346818" version="1" timestamp="2022-04-02T07:04:06Z" changeset="119225034" uid="3497659" user="NKA">
		<tag k="name" v="Koparviki" />
		<tag k="place" v="isolated_dwelling" />
		<tag k="ssr:stedsnr" v="432156" />
	</node>
	<node id="9630931830" lat="60.7590602" lon="8.7877108" version="1" timestamp="2022-04-02T07:04:06Z" changeset="119225034" uid="3497659" user="NKA">
		<tag k="alt_name" v="Brennhovd" />
		<tag k="name" v="Søre Brennhovd" />
		<tag k="place" v="farm" />
		<tag k="ssr:stedsnr" v="466850" />
	</node>
	<node id="9630931831" lat="60.7288714" lon="8.8725962" version="1" timestamp="2022-04-02T07:04:06Z" changeset="119225034" uid="3497659" user="NKA">
		<tag k="name" v="Svartebråten" />
		<tag k="place" v="farm" />
		<tag k="ssr:stedsnr" v="189139" />
	</node>
	<node id="9630931832" lat="60.7899143" lon="8.8718376" version="1" timestamp="2022-04-02T07:04:06Z" changeset="119225034" uid="3497659" user="NKA">
		<tag k="historic" v="shieling" />
		<tag k="loc_name" v="Skagavollen" />
		<tag k="name" v="Arnestølen" />
		<tag k="place" v="isolated_dwelling" />
		<tag k="ssr:stedsnr" v="241645" />
	</node>
	<node id="9630931833" lat="60.6832861" lon="8.842841" version="1" timestamp="2022-04-02T07:04:06Z" changeset="119225034" uid="3497659" user="NKA">
		<tag k="name" v="Gutigard" />
		<tag k="place" v="farm" />
		<tag k="ssr:stedsnr" v="950417" />
	</node>
	<node id="9630931834" lat="60.7137731" lon="8.910779" version="1" timestamp="2022-04-02T07:04:06Z" changeset="119225034" uid="3497659" user="NKA">
		<tag k="name" v="Olsgard" />
		<tag k="old_name" v="Ørsgard" />
		<tag k="place" v="farm" />
		<tag k="ssr:stedsnr" v="250132" />
	</node>
	<node id="9630931835" lat="60.7220103" lon="8.9468408" version="1" timestamp="2022-04-02T07:04:06Z" changeset="119225034" uid="3497659" user="NKA">
		<tag k="name" v="Rensla" />
		<tag k="old_name" v="Renset" />
		<tag k="place" v="farm" />
		<tag k="ssr:stedsnr" v="674124" />
	</node>
	<node id="9630931836" lat="60.768257" lon="8.8420699" version="1" timestamp="2022-04-02T07:04:06Z" changeset="119225034" uid="3497659" user="NKA">
		<tag k="name" v="Nordre Klepp" />
		<tag k="place" v="farm" />
		<tag k="ssr:stedsnr" v="8024" />
	</node>
	<node id="9630931837" lat="60.7424417" lon="8.8447612" version="1" timestamp="2022-04-02T07:04:06Z" changeset="119225034" uid="3497659" user="NKA">
		<tag k="name" v="Myte" />
		<tag k="place" v="isolated_dwelling" />
		<tag k="ssr:stedsnr" v="310166" />
	</node>
	<node id="9630931838" lat="60.8026708" lon="8.9773466" version="1" timestamp="2022-04-02T07:04:06Z" changeset="119225034" uid="3497659" user="NKA">
		<tag k="alt_name" v="Sollisetre" />
		<tag k="historic" v="shieling" />
		<tag k="name" v="Eidsvallvollen" />
		<tag k="place" v="isolated_dwelling" />
		<tag k="ssr:stedsnr" v="99375" />
	</node>
	<node id="9630931839" lat="60.7088051" lon="9.021422" version="1" timestamp="2022-04-02T07:04:06Z" changeset="119225034" uid="3497659" user="NKA">
		<tag k="name" v="Toppen" />
		<tag k="place" v="farm" />
		<tag k="ssr:stedsnr" v="796377" />
	</node>
	<node id="9630931840" lat="60.7211581" lon="8.9607131" version="1" timestamp="2022-04-02T07:04:06Z" changeset="119225034" uid="3497659" user="NKA">
		<tag k="name" v="Gjerden" />
		<tag k="place" v="farm" />
		<tag k="ssr:stedsnr" v="163177" />
	</node>
	<node id="9630931841" lat="60.8365181" lon="8.8477325" version="1" timestamp="2022-04-02T07:04:06Z" changeset="119225034" uid="3497659" user="NKA">
		<tag k="historic" v="shieling" />
		<tag k="name" v="Lauvsjø" />
		<tag k="place" v="hamlet" />
		<tag k="ssr:stedsnr" v="129205" />
	</node>
	<node id="9630931842" lat="60.7044472" lon="8.8241917" version="1" timestamp="2022-04-02T07:04:06Z" changeset="119225034" uid="3497659" user="NKA">
		<tag k="name" v="Lappeset" />
		<tag k="place" v="locality" />
		<tag k="ssr:stedsnr" v="856884" />
	</node>
	<node id="9630931843" lat="60.6945552" lon="8.9120484" version="1" timestamp="2022-04-02T07:04:06Z" changeset="119225034" uid="3497659" user="NKA">
		<tag k="name" v="Kristenbråten" />
		<tag k="place" v="farm" />
		<tag k="ssr:stedsnr" v="360189" />
	</node>
	<node id="9630931844" lat="60.8535251" lon="8.9157887" version="1" timestamp="2022-04-02T07:04:06Z" changeset="119225034" uid="3497659" user="NKA">
		<tag k="historic" v="shieling" />
		<tag k="name" v="Auenhauglie" />
		<tag k="place" v="hamlet" />
		<tag k="ssr:stedsnr" v="920434" />
	</node>
	<node id="9630931845" lat="60.6949944" lon="8.8868828" version="1" timestamp="2022-04-02T07:04:06Z" changeset="119225034" uid="3497659" user="NKA">
		<tag k="name" v="Rasmusgarden" />
		<tag k="place" v="farm" />
		<tag k="ssr:stedsnr" v="118180" />
	</node>
	<node id="9630931846" lat="60.7057899" lon="8.8166419" version="1" timestamp="2022-04-02T07:04:06Z" changeset="119225034" uid="3497659" user="NKA">
		<tag k="alt_name" v="Syverstøl" />
		<tag k="historic" v="shieling" />
		<tag k="name" v="Syverstølen" />
		<tag k="place" v="isolated_dwelling" />
		<tag k="ssr:stedsnr" v="431892" />
	</node>
	<node id="9630931847" lat="60.7560698" lon="8.7629395" version="1" timestamp="2022-04-02T07:04:06Z" changeset="119225034" uid="3497659" user="NKA">
		<tag k="name" v="Vangjerstølen" />
		<tag k="place" v="farm" />
		<tag k="ssr:stedsnr" v="586875" />
	</node>
	<node id="9630931848" lat="60.801375" lon="8.9805777" version="1" timestamp="2022-04-02T07:04:06Z" changeset="119225034" uid="3497659" user="NKA">
		<tag k="name" v="Veslestølen" />
		<tag k="place" v="locality" />
		<tag k="ssr:stedsnr" v="281385" />
	</node>
	<node id="9630931849" lat="60.7092167" lon="8.9336194" version="1" timestamp="2022-04-02T07:04:06Z" changeset="119225034" uid="3497659" user="NKA">
		<tag k="name" v="Petterbråten" />
		<tag k="place" v="quarter" />
		<tag k="ssr:stedsnr" v="847254" />
	</node>
	<node id="9630931850" lat="60.719778" lon="9.3075631" version="1" timestamp="2022-04-02T07:04:06Z" changeset="119225034" uid="3497659" user="NKA">
		<tag k="alt_name" v="Raudalen" />
		<tag k="historic" v="shieling" />
		<tag k="name" v="Rauddalen" />
		<tag k="place" v="hamlet" />
		<tag k="ssr:stedsnr" v="310543" />
	</node>
	<node id="9630931851" lat="60.7282673" lon="8.9075283" version="1" timestamp="2022-04-02T07:04:06Z" changeset="119225034" uid="3497659" user="NKA">
		<tag k="name" v="Gjesthus" />
		<tag k="place" v="farm" />
		<tag k="ssr:stedsnr" v="310136" />
	</node>
	<node id="9630931852" lat="60.8550651" lon="8.906187" version="1" timestamp="2022-04-02T07:04:06Z" changeset="119225034" uid="3497659" user="NKA">
		<tag k="alt_name" v="Rostølen" />
		<tag k="historic" v="shieling" />
		<tag k="name" v="Sortebergstølen" />
		<tag k="old_name" v="Råstølen" />
		<tag k="place" v="isolated_dwelling" />
		<tag k="ssr:stedsnr" v="677393" />
	</node>
	<node id="9630931853" lat="60.7037195" lon="8.8615473" version="1" timestamp="2022-04-02T07:04:06Z" changeset="119225034" uid="3497659" user="NKA">
		<tag k="alt_name" v="Halfarslett" />
		<tag k="name" v="Halvfarsletti" />
		<tag k="place" v="locality" />
		<tag k="ssr:stedsnr" v="249317" />
	</node>
	<node id="9630931854" lat="60.7114698" lon="8.8788517" version="1" timestamp="2022-04-02T07:04:06Z" changeset="119225034" uid="3497659" user="NKA">
		<tag k="historic" v="shieling" />
		<tag k="name" v="Rudningsskaran" />
		<tag k="old_name" v="Rudningsstølen;Botteskaran;Botteskarene;Nifstadskaran" />
		<tag k="place" v="isolated_dwelling" />
		<tag k="ssr:stedsnr" v="128324" />
	</node>
	<node id="9630931855" lat="60.7523889" lon="8.8103317" version="1" timestamp="2022-04-02T07:04:06Z" changeset="119225034" uid="3497659" user="NKA">
		<tag k="name" v="Nordli" />
		<tag k="place" v="farm" />
		<tag k="ssr:stedsnr" v="647000" />
	</node>
	<node id="9630931856" lat="60.7215815" lon="8.9563188" version="1" timestamp="2022-04-02T07:04:06Z" changeset="119225034" uid="3497659" user="NKA">
		<tag k="name" v="Haugen" />
		<tag k="place" v="farm" />
		<tag k="ssr:stedsnr" v="310133" />
	</node>
	<node id="9630931857" lat="60.7437694" lon="8.8668584" version="1" timestamp="2022-04-02T07:04:06Z" changeset="119225034" uid="3497659" user="NKA">
		<tag k="alt_name" v="Gjerdingene" />
		<tag k="name" v="Gjerdingan" />
		<tag k="place" v="farm" />
		<tag k="ssr:stedsnr" v="249167" />
	</node>
	<node id="9630931858" lat="60.7343202" lon="8.803915" version="1" timestamp="2022-04-02T07:04:06Z" changeset="119225034" uid="3497659" user="NKA">
		<tag k="historic" v="shieling" />
		<tag k="name" v="Helgeset" />
		<tag k="place" v="isolated_dwelling" />
		<tag k="ssr:stedsnr" v="249820" />
	</node>
	<node id="9630931859" lat="60.6977055" lon="8.9321611" version="1" timestamp="2022-04-02T07:04:06Z" changeset="119225034" uid="3497659" user="NKA">
		<tag k="alt_name" v="Glitremoen" />
		<tag k="name" v="Glitre" />
		<tag k="place" v="neighbourhood" />
		<tag k="ssr:stedsnr" v="188342" />
	</node>
	<node id="9630931860" lat="60.6883887" lon="9.0314258" version="1" timestamp="2022-04-02T07:04:06Z" changeset="119225034" uid="3497659" user="NKA">
		<tag k="alt_name" v="Søre Li;Søndreli" />
		<tag k="name" v="Søreli" />
		<tag k="place" v="farm" />
		<tag k="ssr:stedsnr" v="856305" />
	</node>
	<node id="9630931861" lat="60.7237349" lon="8.8851096" version="1" timestamp="2022-04-02T07:04:06Z" changeset="119225034" uid="3497659" user="NKA">
		<tag k="name" v="Bjørnebråten" />
		<tag k="place" v="farm" />
		<tag k="ssr:stedsnr" v="371159" />
	</node>
	<node id="9630931862" lat="60.6871745" lon="9.0384891" version="1" timestamp="2022-04-02T07:04:06Z" changeset="119225034" uid="3497659" user="NKA">
		<tag k="name" v="Hjalleskaret" />
		<tag k="place" v="farm" />
		<tag k="ssr:stedsnr" v="163003" />
	</node>
	<node id="9630931863" lat="60.8294944" lon="8.9813528" version="1" timestamp="2022-04-02T07:04:06Z" changeset="119225034" uid="3497659" user="NKA">
		<tag k="historic" v="shieling" />
		<tag k="name" v="Fjellro" />
		<tag k="place" v="isolated_dwelling" />
		<tag k="ssr:stedsnr" v="9445" />
	</node>
	<node id="9630931864" lat="60.6946361" lon="8.8632528" version="1" timestamp="2022-04-02T07:04:06Z" changeset="119225034" uid="3497659" user="NKA">
		<tag k="alt_name" v="Skaret" />
		<tag k="name" v="Skardet" />
		<tag k="place" v="locality" />
		<tag k="ssr:stedsnr" v="431354" />
	</node>
	<node id="9630931865" lat="60.7689612" lon="8.8384804" version="1" timestamp="2022-04-02T07:04:06Z" changeset="119225034" uid="3497659" user="NKA">
		<tag k="name" v="Solhaug" />
		<tag k="place" v="farm" />
		<tag k="ssr:stedsnr" v="43537" />
	</node>
	<node id="9630931866" lat="60.7800944" lon="9.0253389" version="1" timestamp="2022-04-02T07:04:06Z" changeset="119225034" uid="3497659" user="NKA">
		<tag k="historic" v="shieling" />
		<tag k="name" v="Fosshaug" />
		<tag k="place" v="isolated_dwelling" />
		<tag k="ssr:stedsnr" v="676305" />
	</node>
	<node id="9630931867" lat="60.699654" lon="9.2670768" version="1" timestamp="2022-04-02T07:04:06Z" changeset="119225034" uid="3497659" user="NKA">
		<tag k="name" v="Maurset" />
		<tag k="place" v="farm" />
		<tag k="ssr:stedsnr" v="664185" />
	</node>
	<node id="9630931868" lat="60.7662917" lon="8.8326806" version="1" timestamp="2022-04-02T07:04:06Z" changeset="119225034" uid="3497659" user="NKA">
		<tag k="name" v="Maradokki" />
		<tag k="place" v="locality" />
		<tag k="ssr:stedsnr" v="919037" />
	</node>
	<node id="9630931869" lat="60.7326139" lon="8.8841029" version="1" timestamp="2022-04-02T07:04:06Z" changeset="119225034" uid="3497659" user="NKA">
		<tag k="name" v="Svarteberg" />
		<tag k="place" v="farm" />
		<tag k="ssr:stedsnr" v="189149" />
	</node>
	<node id="9630931870" lat="60.7094851" lon="8.7853154" version="1" timestamp="2022-04-02T07:04:06Z" changeset="119225034" uid="3497659" user="NKA">
		<tag k="historic" v="shieling" />
		<tag k="name" v="Maristølen" />
		<tag k="place" v="isolated_dwelling" />
		<tag k="ssr:stedsnr" v="552894" />
	</node>
	<node id="9630931871" lat="60.7381965" lon="8.8660938" version="1" timestamp="2022-04-02T07:04:06Z" changeset="119225034" uid="3497659" user="NKA">
		<tag k="alt_name" v="Elbjør;Eldbjør" />
		<tag k="name" v="Eldbjørgo" />
		<tag k="place" v="farm" />
		<tag k="ssr:stedsnr" v="838329" />
	</node>
	<node id="9630931872" lat="60.8543535" lon="8.914063" version="1" timestamp="2022-04-02T07:04:06Z" changeset="119225034" uid="3497659" user="NKA">
		<tag k="historic" v="shieling" />
		<tag k="name" v="Glomsrudstølen" />
		<tag k="place" v="isolated_dwelling" />
		<tag k="ssr:stedsnr" v="99467" />
	</node>
	<node id="9630931873" lat="60.6897398" lon="8.8971531" version="1" timestamp="2022-04-02T07:04:06Z" changeset="119225034" uid="3497659" user="NKA">
		<tag k="name" v="Botn" />
		<tag k="place" v="farm" />
		<tag k="ssr:stedsnr" v="963369" />
	</node>
	<node id="9630931874" lat="60.80112" lon="8.7918128" version="1" timestamp="2022-04-02T07:04:06Z" changeset="119225034" uid="3497659" user="NKA">
		<tag k="name" v="Veslevollen" />
		<tag k="place" v="isolated_dwelling" />
		<tag k="ssr:stedsnr" v="523272" />
	</node>
	<node id="9630931875" lat="60.7852" lon="8.9043362" version="1" timestamp="2022-04-02T07:04:06Z" changeset="119225034" uid="3497659" user="NKA">
		<tag k="alt_name" v="Magnetun;Nordre Magnetun seter" />
		<tag k="historic" v="shieling" />
		<tag k="name" v="Magnetunstølen" />
		<tag k="place" v="isolated_dwelling" />
		<tag k="ssr:stedsnr" v="554266" />
	</node>
	<node id="9630931876" lat="60.8050042" lon="8.9777806" version="1" timestamp="2022-04-02T07:04:06Z" changeset="119225034" uid="3497659" user="NKA">
		<tag k="alt_name" v="Treverket seter;Trælverkestølen" />
		<tag k="historic" v="shieling" />
		<tag k="name" v="Treverkstølen" />
		<tag k="place" v="isolated_dwelling" />
		<tag k="ssr:stedsnr" v="797473" />
	</node>
	<node id="9630931877" lat="60.7241841" lon="9.1198088" version="1" timestamp="2022-04-02T07:04:06Z" changeset="119225034" uid="3497659" user="NKA">
		<tag k="historic" v="shieling" />
		<tag k="name" v="Velteruko" />
		<tag k="old_name" v="Vetlerukan" />
		<tag k="place" v="isolated_dwelling" />
		<tag k="ssr:stedsnr" v="917110" />
	</node>
	<node id="9630931878" lat="60.7109156" lon="9.0785679" version="1" timestamp="2022-04-02T07:04:06Z" changeset="119225034" uid="3497659" user="NKA">
		<tag k="name" v="Trollbu" />
		<tag k="place" v="isolated_dwelling" />
		<tag k="ssr:stedsnr" v="466182" />
	</node>
	<node id="9630931879" lat="60.689939" lon="8.8720172" version="1" timestamp="2022-04-02T07:04:06Z" changeset="119225034" uid="3497659" user="NKA">
		<tag k="name" v="Jordheim" />
		<tag k="place" v="farm" />
		<tag k="ssr:stedsnr" v="952140" />
	</node>
	<node id="9630931880" lat="60.7558401" lon="8.7758808" version="1" timestamp="2022-04-02T07:04:06Z" changeset="119225034" uid="3497659" user="NKA">
		<tag k="name" v="Tryhusvollen" />
		<tag k="place" v="isolated_dwelling" />
		<tag k="ssr:stedsnr" v="890896" />
	</node>
	<node id="9630931881" lat="60.7967824" lon="9.1531118" version="1" timestamp="2022-04-02T07:04:06Z" changeset="119225034" uid="3497659" user="NKA">
		<tag k="historic" v="shieling" />
		<tag k="name" v="Åsgard" />
		<tag k="place" v="hamlet" />
		<tag k="ssr:stedsnr" v="311344" />
	</node>
	<node id="9630931882" lat="60.8533658" lon="8.9139138" version="1" timestamp="2022-04-02T07:04:06Z" changeset="119225034" uid="3497659" user="NKA">
		<tag k="historic" v="shieling" />
		<tag k="name" v="Øvre Glomsrudstølen" />
		<tag k="place" v="isolated_dwelling" />
		<tag k="ssr:stedsnr" v="524393" />
	</node>
	<node id="9630931883" lat="60.6875333" lon="9.2368774" version="1" timestamp="2022-04-02T07:04:06Z" changeset="119225034" uid="3497659" user="NKA">
		<tag k="historic" v="shieling" />
		<tag k="name" v="Vollstadhaugen" />
		<tag k="place" v="isolated_dwelling" />
		<tag k="ssr:stedsnr" v="978962" />
	</node>
	<node id="9630931884" lat="60.7002556" lon="8.9362223" version="1" timestamp="2022-04-02T07:04:06Z" changeset="119225034" uid="3497659" user="NKA">
		<tag k="name" v="Eidsvall" />
		<tag k="place" v="farm" />
		<tag k="ssr:stedsnr" v="910920" />
	</node>
	<node id="9630931885" lat="60.7941584" lon="8.8626249" version="1" timestamp="2022-04-02T07:04:06Z" changeset="119225034" uid="3497659" user="NKA">
		<tag k="historic" v="shieling" />
		<tag k="name" v="Plassen" />
		<tag k="place" v="isolated_dwelling" />
		<tag k="ssr:stedsnr" v="372507" />
	</node>
	<node id="9630931886" lat="60.7221871" lon="8.9659436" version="1" timestamp="2022-04-02T07:04:06Z" changeset="119225034" uid="3497659" user="NKA">
		<tag k="alt_name" v="Rusten" />
		<tag k="name" v="Rusti" />
		<tag k="place" v="farm" />
		<tag k="ssr:stedsnr" v="67169" />
	</node>
	<node id="9630931887" lat="60.7238894" lon="8.9795698" version="1" timestamp="2022-04-02T07:04:06Z" changeset="119225034" uid="3497659" user="NKA">
		<tag k="name" v="Vestre Rust" />
		<tag k="place" v="farm" />
		<tag k="ssr:stedsnr" v="371150" />
	</node>
	<node id="9630931888" lat="60.7076622" lon="8.9195358" version="1" timestamp="2022-04-02T07:04:06Z" changeset="119225034" uid="3497659" user="NKA">
		<tag k="loc_name" v="Kjernbal" />
		<tag k="name" v="Kinneberg" />
		<tag k="place" v="farm" />
		<tag k="ssr:stedsnr" v="603195" />
	</node>
	<node id="9630931889" lat="60.6833713" lon="8.8399249" version="1" timestamp="2022-04-02T07:04:06Z" changeset="119225034" uid="3497659" user="NKA">
		<tag k="name" v="Perigard" />
		<tag k="place" v="farm" />
		<tag k="ssr:stedsnr" v="40439" />
	</node>
	<node id="9630931890" lat="60.7286279" lon="8.8930678" version="1" timestamp="2022-04-02T07:04:06Z" changeset="119225034" uid="3497659" user="NKA">
		<tag k="name" v="Bygdheim" />
		<tag k="place" v="farm" />
		<tag k="ssr:stedsnr" v="466199" />
	</node>
	<node id="9630931891" lat="60.7834071" lon="8.9974249" version="1" timestamp="2022-04-02T07:04:06Z" changeset="119225034" uid="3497659" user="NKA">
		<tag k="name" v="Bergavollen" />
		<tag k="place" v="farm" />
		<tag k="ssr:stedsnr" v="38305" />
	</node>
	<node id="9630931892" lat="60.7400311" lon="8.8747142" version="1" timestamp="2022-04-02T07:04:06Z" changeset="119225034" uid="3497659" user="NKA">
		<tag k="name" v="Nordre Ro" />
		<tag k="place" v="farm" />
		<tag k="ssr:stedsnr" v="654178" />
	</node>
	<node id="9630931893" lat="60.6951541" lon="8.8960949" version="1" timestamp="2022-04-02T07:04:06Z" changeset="119225034" uid="3497659" user="NKA">
		<tag k="name" v="Lybekk" />
		<tag k="place" v="farm" />
		<tag k="ssr:stedsnr" v="300219" />
	</node>
	<node id="9630931894" lat="60.7393093" lon="8.777813" version="1" timestamp="2022-04-02T07:04:06Z" changeset="119225034" uid="3497659" user="NKA">
		<tag k="alt_name" v="Smylistølane" />
		<tag k="historic" v="shieling" />
		<tag k="name" v="Smylistølan" />
		<tag k="place" v="hamlet" />
		<tag k="ssr:stedsnr" v="370811" />
	</node>
	<node id="9630931895" lat="60.6674661" lon="9.0324977" version="1" timestamp="2022-04-02T07:04:06Z" changeset="119225034" uid="3497659" user="NKA">
		<tag k="name" v="Vershølen" />
		<tag k="old_name" v="Versøyi" />
		<tag k="place" v="farm" />
		<tag k="ssr:stedsnr" v="526249" />
	</node>
	<node id="9630931896" lat="60.6915293" lon="8.8230885" version="1" timestamp="2022-04-02T07:04:06Z" changeset="119225034" uid="3497659" user="NKA">
		<tag k="name" v="Grov" />
		<tag k="place" v="hamlet" />
		<tag k="ssr:stedsnr" v="552925" />
	</node>
	<node id="9630931897" lat="60.7300306" lon="8.886275" version="1" timestamp="2022-04-02T07:04:06Z" changeset="119225034" uid="3497659" user="NKA">
		<tag k="name" v="Bråten" />
		<tag k="place" v="farm" />
		<tag k="ssr:stedsnr" v="432150" />
	</node>
	<node id="9630931898" lat="60.6953925" lon="8.8895035" version="1" timestamp="2022-04-02T07:04:06Z" changeset="119225034" uid="3497659" user="NKA">
		<tag k="alt_name" v="Turhus" />
		<tag k="name" v="Turrhus" />
		<tag k="place" v="farm" />
		<tag k="ssr:stedsnr" v="767297" />
	</node>
	<node id="9630931899" lat="60.6733482" lon="8.8025231" version="1" timestamp="2022-04-02T07:04:06Z" changeset="119225034" uid="3497659" user="NKA">
		<tag k="name" v="Kårmo" />
		<tag k="place" v="farm" />
		<tag k="ssr:stedsnr" v="404348" />
	</node>
	<node id="9630931900" lat="60.7382223" lon="8.9154055" version="1" timestamp="2022-04-02T07:04:06Z" changeset="119225034" uid="3497659" user="NKA">
		<tag k="name" v="Skreddarberget" />
		<tag k="place" v="farm" />
		<tag k="ssr:stedsnr" v="552184" />
	</node>
	<node id="9630931901" lat="60.7110227" lon="8.9219529" version="1" timestamp="2022-04-02T07:04:06Z" changeset="119225034" uid="3497659" user="NKA">
		<tag k="name" v="Lagmannsgard" />
		<tag k="old_name" v="Lagmansgard" />
		<tag k="place" v="farm" />
		<tag k="ssr:stedsnr" v="68377" />
	</node>
	<node id="9630931902" lat="60.8003928" lon="8.958228" version="1" timestamp="2022-04-02T07:04:06Z" changeset="119225034" uid="3497659" user="NKA">
		<tag k="alt_name" v="Lille Einarset" />
		<tag k="historic" v="shieling" />
		<tag k="name" v="Vesle Einarset" />
		<tag k="place" v="isolated_dwelling" />
		<tag k="ssr:stedsnr" v="69512" />
	</node>
	<node id="9630931903" lat="60.7907316" lon="8.8708404" version="1" timestamp="2022-04-02T07:04:06Z" changeset="119225034" uid="3497659" user="NKA">
		<tag k="alt_name" v="Lauvset" />
		<tag k="historic" v="shieling" />
		<tag k="name" v="Bakkevollen" />
		<tag k="place" v="isolated_dwelling" />
		<tag k="ssr:stedsnr" v="483674" />
	</node>
	<node id="9630931904" lat="60.7436144" lon="9.2501816" version="1" timestamp="2022-04-02T07:04:06Z" changeset="119225034" uid="3497659" user="NKA">
		<tag k="historic" v="shieling" />
		<tag k="name" v="Våset" />
		<tag k="place" v="isolated_dwelling" />
		<tag k="ssr:stedsnr" v="891847" />
	</node>
	<node id="9630931905" lat="60.8486431" lon="8.8997677" version="1" timestamp="2022-04-02T07:04:06Z" changeset="119225034" uid="3497659" user="NKA">
		<tag k="alt_name" v="Gjerden seter" />
		<tag k="historic" v="shieling" />
		<tag k="name" v="Gjerdestølen" />
		<tag k="place" v="isolated_dwelling" />
		<tag k="ssr:stedsnr" v="9459" />
	</node>
	<node id="9630931906" lat="60.7078506" lon="8.9279844" version="1" timestamp="2022-04-02T07:04:06Z" changeset="119225034" uid="3497659" user="NKA">
		<tag k="name" v="Elvestad" />
		<tag k="place" v="farm" />
		<tag k="ssr:stedsnr" v="785205" />
	</node>
	<node id="9630931907" lat="60.6938891" lon="9.0181543" version="1" timestamp="2022-04-02T07:04:06Z" changeset="119225034" uid="3497659" user="NKA">
		<tag k="name" v="Bruflat" />
		<tag k="place" v="farm" />
		<tag k="ssr:stedsnr" v="128257" />
	</node>
	<node id="9630931908" lat="60.7205132" lon="8.883037" version="1" timestamp="2022-04-02T07:04:06Z" changeset="119225034" uid="3497659" user="NKA">
		<tag k="historic" v="shieling" />
		<tag k="name" v="Holtegardsvollen" />
		<tag k="old_name" v="Hørtegardsvollen" />
		<tag k="place" v="isolated_dwelling" />
		<tag k="ssr:stedsnr" v="796133" />
	</node>
	<node id="9630931909" lat="60.7450611" lon="8.8390251" version="1" timestamp="2022-04-02T07:04:06Z" changeset="119225034" uid="3497659" user="NKA">
		<tag k="name" v="Grønlie" />
		<tag k="place" v="farm" />
		<tag k="ssr:stedsnr" v="856810" />
	</node>
	<node id="9630931910" lat="60.6979099" lon="8.8964376" version="1" timestamp="2022-04-02T07:04:06Z" changeset="119225034" uid="3497659" user="NKA">
		<tag k="alt_name" v="Lauvdokken" />
		<tag k="name" v="Lauvdokki" />
		<tag k="place" v="farm" />
		<tag k="ssr:stedsnr" v="370372" />
	</node>
	<node id="9630931911" lat="60.7251555" lon="8.8866972" version="1" timestamp="2022-04-02T07:04:06Z" changeset="119225034" uid="3497659" user="NKA">
		<tag k="loc_name" v="Øygardane" />
		<tag k="name" v="Øygardan" />
		<tag k="place" v="hamlet" />
		<tag k="ssr:stedsnr" v="674167" />
	</node>
	<node id="9630931912" lat="60.6960973" lon="8.8179837" version="1" timestamp="2022-04-02T07:04:06Z" changeset="119225034" uid="3497659" user="NKA">
		<tag k="historic" v="shieling" />
		<tag k="name" v="Helgeset" />
		<tag k="place" v="isolated_dwelling" />
		<tag k="ssr:stedsnr" v="127899" />
	</node>
	<node id="9630931913" lat="60.7082611" lon="8.8184138" version="1" timestamp="2022-04-02T07:04:06Z" changeset="119225034" uid="3497659" user="NKA">
		<tag k="historic" v="shieling" />
		<tag k="name" v="Nigardsleini" />
		<tag k="place" v="isolated_dwelling" />
		<tag k="ssr:stedsnr" v="6878" />
	</node>
	<node id="9630931914" lat="60.73534" lon="8.8699506" version="1" timestamp="2022-04-02T07:04:06Z" changeset="119225034" uid="3497659" user="NKA">
		<tag k="name" v="Bråten" />
		<tag k="place" v="farm" />
		<tag k="ssr:stedsnr" v="552183" />
	</node>
	<node id="9630931915" lat="60.799303" lon="9.0624003" version="1" timestamp="2022-04-02T07:04:06Z" changeset="119225034" uid="3497659" user="NKA">
		<tag k="historic" v="shieling" />
		<tag k="name" v="Fjøsstølen" />
		<tag k="place" v="isolated_dwelling" />
		<tag k="ssr:stedsnr" v="736291" />
	</node>
	<node id="9630931916" lat="60.6919417" lon="8.9200861" version="1" timestamp="2022-04-02T07:04:06Z" changeset="119225034" uid="3497659" user="NKA">
		<tag k="name" v="Personbråten" />
		<tag k="place" v="farm" />
		<tag k="ssr:stedsnr" v="648134" />
	</node>
	<node id="9630931917" lat="60.7382941" lon="8.9167359" version="1" timestamp="2022-04-02T07:04:06Z" changeset="119225034" uid="3497659" user="NKA">
		<tag k="name" v="Bekkestad" />
		<tag k="place" v="farm" />
		<tag k="ssr:stedsnr" v="735148" />
	</node>
	<node id="9630931918" lat="60.7215834" lon="8.9799357" version="1" timestamp="2022-04-02T07:04:06Z" changeset="119225034" uid="3497659" user="NKA">
		<tag k="name" v="Nedre Rust" />
		<tag k="place" v="farm" />
		<tag k="ssr:stedsnr" v="768836" />
	</node>
	<node id="9630931919" lat="60.7498513" lon="8.8363739" version="1" timestamp="2022-04-02T07:04:06Z" changeset="119225034" uid="3497659" user="NKA">
		<tag k="name" v="Smøttebråten" />
		<tag k="place" v="farm" />
		<tag k="ssr:stedsnr" v="161997" />
	</node>
	<node id="9630931920" lat="60.7293519" lon="8.8909256" version="1" timestamp="2022-04-02T07:04:06Z" changeset="119225034" uid="3497659" user="NKA">
		<tag k="alt_name" v="Håving" />
		<tag k="name" v="Hovin" />
		<tag k="place" v="farm" />
		<tag k="ssr:stedsnr" v="249146" />
	</node>
	<node id="9630931921" lat="60.6728055" lon="8.811275" version="1" timestamp="2022-04-02T07:04:06Z" changeset="119225034" uid="3497659" user="NKA">
		<tag k="name" v="Velta" />
		<tag k="place" v="isolated_dwelling" />
		<tag k="ssr:stedsnr" v="127955" />
	</node>
	<node id="9630931922" lat="60.7867044" lon="9.1391165" version="1" timestamp="2022-04-02T07:04:06Z" changeset="119225034" uid="3497659" user="NKA">
		<tag k="name" v="Søre Brenn" />
		<tag k="place" v="farm" />
		<tag k="ssr:stedsnr" v="341271" />
	</node>
	<node id="9630931923" lat="60.6843321" lon="9.028739" version="1" timestamp="2022-04-02T07:04:06Z" changeset="119225034" uid="3497659" user="NKA">
		<tag k="alt_name" v="Libråten" />
		<tag k="name" v="Liabråten" />
		<tag k="old_name" v="Skardet" />
		<tag k="place" v="farm" />
		<tag k="ssr:stedsnr" v="250290" />
	</node>
	<node id="9630931924" lat="60.6764305" lon="9.2030195" version="1" timestamp="2022-04-02T07:04:06Z" changeset="119225034" uid="3497659" user="NKA">
		<tag k="name" v="Gamlevollen" />
		<tag k="place" v="isolated_dwelling" />
		<tag k="ssr:stedsnr" v="68313" />
	</node>
	<node id="9630931925" lat="60.752165" lon="8.7525314" version="1" timestamp="2022-04-02T07:04:06Z" changeset="119225034" uid="3497659" user="NKA">
		<tag k="name" v="Veslegården" />
		<tag k="place" v="farm" />
		<tag k="ssr:stedsnr" v="768911" />
	</node>
	<node id="9630931926" lat="60.7551805" lon="8.8103779" version="1" timestamp="2022-04-02T07:04:06Z" changeset="119225034" uid="3497659" user="NKA">
		<tag k="name" v="Grønlio" />
		<tag k="place" v="hamlet" />
		<tag k="ssr:stedsnr" v="70026" />
	</node>
	<node id="9630931927" lat="60.6819661" lon="9.0319377" version="1" timestamp="2022-04-02T07:04:06Z" changeset="119225034" uid="3497659" user="NKA">
		<tag k="name" v="Bjørkerud" />
		<tag k="place" v="farm" />
		<tag k="ssr:stedsnr" v="648003" />
	</node>
	<node id="9630931928" lat="60.831996" lon="8.8349069" version="1" timestamp="2022-04-02T07:04:06Z" changeset="119225034" uid="3497659" user="NKA">
		<tag k="name" v="Botolvshaugen" />
		<tag k="place" v="farm" />
		<tag k="ssr:stedsnr" v="99491" />
	</node>
	<node id="9630931929" lat="60.7982111" lon="8.8501889" version="1" timestamp="2022-04-02T07:04:06Z" changeset="119225034" uid="3497659" user="NKA">
		<tag k="alt_name" v="Berget seter" />
		<tag k="historic" v="shieling" />
		<tag k="name" v="Bergestølen" />
		<tag k="place" v="isolated_dwelling" />
		<tag k="ssr:stedsnr" v="372508" />
	</node>
	<node id="9630931930" lat="60.6954929" lon="9.0081853" version="1" timestamp="2022-04-02T07:04:06Z" changeset="119225034" uid="3497659" user="NKA">
		<tag k="name" v="Eikle" />
		<tag k="place" v="hamlet" />
		<tag k="ssr:stedsnr" v="180668" />
	</node>
	<node id="9630931931" lat="60.8083966" lon="9.0038993" version="1" timestamp="2022-04-02T07:04:06Z" changeset="119225034" uid="3497659" user="NKA">
		<tag k="historic" v="shieling" />
		<tag k="name" v="Leikvollstølen" />
		<tag k="place" v="isolated_dwelling" />
		<tag k="ssr:stedsnr" v="1082483" />
	</node>
	<node id="9630931932" lat="60.7954083" lon="9.1595139" version="1" timestamp="2022-04-02T07:04:06Z" changeset="119225034" uid="3497659" user="NKA">
		<tag k="name" v="Fanterud" />
		<tag k="place" v="farm" />
		<tag k="ssr:stedsnr" v="190290" />
	</node>
	<node id="9630931933" lat="60.6922361" lon="8.9255449" version="1" timestamp="2022-04-02T07:04:06Z" changeset="119225034" uid="3497659" user="NKA">
		<tag k="name" v="Moen" />
		<tag k="place" v="farm" />
		<tag k="ssr:stedsnr" v="6361" />
	</node>
	<node id="9630931934" lat="60.7805651" lon="9.1654448" version="1" timestamp="2022-04-02T07:04:06Z" changeset="119225034" uid="3497659" user="NKA">
		<tag k="alt_name" v="Varhovd" />
		<tag k="historic" v="shieling" />
		<tag k="loc_name" v="Valhovd" />
		<tag k="name" v="Vardhovd" />
		<tag k="place" v="hamlet" />
		<tag k="ssr:stedsnr" v="585264" />
	</node>
	<node id="9630931935" lat="60.7236722" lon="9.1663249" version="1" timestamp="2022-04-02T07:04:06Z" changeset="119225034" uid="3497659" user="NKA">
		<tag k="alt_name" v="Holt;Holt Sr" />
		<tag k="historic" v="shieling" />
		<tag k="name" v="Holtstølen" />
		<tag k="place" v="isolated_dwelling" />
		<tag k="ssr:stedsnr" v="613131" />
	</node>
	<node id="9630931936" lat="60.7199309" lon="9.1528622" version="1" timestamp="2022-04-02T07:04:06Z" changeset="119225034" uid="3497659" user="NKA">
		<tag k="historic" v="shieling" />
		<tag k="name" v="Holtelie" />
		<tag k="place" v="isolated_dwelling" />
		<tag k="ssr:stedsnr" v="189323" />
	</node>
	<node id="9630931937" lat="60.7404341" lon="8.7805809" version="1" timestamp="2022-04-02T07:04:06Z" changeset="119225034" uid="3497659" user="NKA">
		<tag k="historic" v="shieling" />
		<tag k="name" v="Bakkevollen" />
		<tag k="place" v="isolated_dwelling" />
		<tag k="ssr:stedsnr" v="725047" />
	</node>
	<node id="9630931938" lat="60.6959259" lon="8.8994187" version="1" timestamp="2022-04-02T07:04:06Z" changeset="119225034" uid="3497659" user="NKA">
		<tag k="name" v="Fikkesletten" />
		<tag k="place" v="farm" />
		<tag k="ssr:stedsnr" v="785193" />
	</node>
	<node id="9630931939" lat="60.7870528" lon="8.8926969" version="1" timestamp="2022-04-02T07:04:06Z" changeset="119225034" uid="3497659" user="NKA">
		<tag k="historic" v="shieling" />
		<tag k="name" v="Ellingvollen" />
		<tag k="place" v="isolated_dwelling" />
		<tag k="ssr:stedsnr" v="544657" />
	</node>
	<node id="9630931940" lat="60.7416223" lon="8.8981001" version="1" timestamp="2022-04-02T07:04:06Z" changeset="119225034" uid="3497659" user="NKA">
		<tag k="name" v="Rasmusbråten" />
		<tag k="place" v="farm" />
		<tag k="ssr:stedsnr" v="552187" />
	</node>
	<node id="9630931941" lat="60.7256861" lon="8.8993699" version="1" timestamp="2022-04-02T07:04:06Z" changeset="119225034" uid="3497659" user="NKA">
		<tag k="name" v="Buksegarden" />
		<tag k="place" v="farm" />
		<tag k="ssr:stedsnr" v="891213" />
	</node>
	<node id="9630931942" lat="60.7534805" lon="8.8640058" version="1" timestamp="2022-04-02T07:04:06Z" changeset="119225034" uid="3497659" user="NKA">
		<tag k="name" v="Hattebråten" />
		<tag k="place" v="farm" />
		<tag k="ssr:stedsnr" v="494258" />
	</node>
	<node id="9630931943" lat="60.7136056" lon="9.0938917" version="1" timestamp="2022-04-02T07:04:06Z" changeset="119225034" uid="3497659" user="NKA">
		<tag k="alt_name" v="Bjørkeskar;Bjørkeskar Sr" />
		<tag k="historic" v="shieling" />
		<tag k="name" v="Bjørkeskardsstølen" />
		<tag k="place" v="isolated_dwelling" />
		<tag k="ssr:stedsnr" v="68359" />
	</node>
	<node id="9630931944" lat="60.8048921" lon="8.9802355" version="1" timestamp="2022-04-02T07:04:06Z" changeset="119225034" uid="3497659" user="NKA">
		<tag k="historic" v="shieling" />
		<tag k="name" v="Eldstad seter" />
		<tag k="place" v="isolated_dwelling" />
		<tag k="ssr:stedsnr" v="706341" />
	</node>
	<node id="9630931945" lat="60.7050103" lon="9.2872066" version="1" timestamp="2022-04-02T07:04:06Z" changeset="119225034" uid="3497659" user="NKA">
		<tag k="historic" v="shieling" />
		<tag k="name" v="Grønlie" />
		<tag k="place" v="isolated_dwelling" />
		<tag k="ssr:stedsnr" v="907176" />
	</node>
	<node id="9630931946" lat="60.7789555" lon="9.0182694" version="1" timestamp="2022-04-02T07:04:06Z" changeset="119225034" uid="3497659" user="NKA">
		<tag k="historic" v="shieling" />
		<tag k="name" v="Åsheim" />
		<tag k="place" v="isolated_dwelling" />
		<tag k="ssr:stedsnr" v="372330" />
	</node>
	<node id="9630931947" lat="60.800024" lon="8.8576278" version="1" timestamp="2022-04-02T07:04:06Z" changeset="119225034" uid="3497659" user="NKA">
		<tag k="historic" v="shieling" />
		<tag k="name" v="Svangvollen" />
		<tag k="place" v="isolated_dwelling" />
		<tag k="ssr:stedsnr" v="918541" />
	</node>
	<node id="9630931948" lat="60.7482562" lon="8.8119679" version="1" timestamp="2022-04-02T07:04:06Z" changeset="119225034" uid="3497659" user="NKA">
		<tag k="name" v="Mykleset" />
		<tag k="place" v="locality" />
		<tag k="ssr:stedsnr" v="734786" />
	</node>
	<node id="9630931949" lat="60.7496388" lon="8.8296337" version="1" timestamp="2022-04-02T07:04:06Z" changeset="119225034" uid="3497659" user="NKA">
		<tag k="name" v="Haugen" />
		<tag k="place" v="farm" />
		<tag k="ssr:stedsnr" v="555056" />
	</node>
	<node id="9630931950" lat="60.6819028" lon="8.9919444" version="1" timestamp="2022-04-02T07:04:06Z" changeset="119225034" uid="3497659" user="NKA">
		<tag k="name" v="Nøreimshytta" />
		<tag k="place" v="isolated_dwelling" />
		<tag k="ssr:stedsnr" v="7289" />
	</node>
	<node id="9630931951" lat="60.7408633" lon="8.8751494" version="1" timestamp="2022-04-02T07:04:06Z" changeset="119225034" uid="3497659" user="NKA">
		<tag k="name" v="Søre Løstegard" />
		<tag k="place" v="farm" />
		<tag k="ssr:stedsnr" v="222997" />
	</node>
	<node id="9630931952" lat="60.6757333" lon="8.8117544" version="1" timestamp="2022-04-02T07:04:06Z" changeset="119225034" uid="3497659" user="NKA">
		<tag k="name" v="Rødningen" />
		<tag k="place" v="farm" />
		<tag k="ssr:stedsnr" v="950368" />
	</node>
	<node id="9630931953" lat="60.7943905" lon="8.8729139" version="1" timestamp="2022-04-02T07:04:06Z" changeset="119225034" uid="3497659" user="NKA">
		<tag k="alt_name" v="Hornungsetvollen" />
		<tag k="historic" v="shieling" />
		<tag k="name" v="Hodnungsetvollen" />
		<tag k="place" v="isolated_dwelling" />
		<tag k="ssr:stedsnr" v="614486" />
	</node>
	<node id="9630931954" lat="60.7187084" lon="9.0598555" version="1" timestamp="2022-04-02T07:04:06Z" changeset="119225034" uid="3497659" user="NKA">
		<tag k="name" v="Sygardshytta" />
		<tag k="place" v="isolated_dwelling" />
		<tag k="ssr:stedsnr" v="796344" />
	</node>
	<node id="9630931955" lat="60.7650201" lon="8.9148401" version="1" timestamp="2022-04-02T07:04:06Z" changeset="119225034" uid="3497659" user="NKA">
		<tag k="alt_name" v="Løstegardskardet;Moskaret;Løstegårdskalet;Løstegardskaret" />
		<tag k="historic" v="shieling" />
		<tag k="name" v="Moskardet" />
		<tag k="place" v="isolated_dwelling" />
		<tag k="ssr:stedsnr" v="433294" />
	</node>
	<node id="9630931956" lat="60.6670662" lon="8.8145839" version="1" timestamp="2022-04-02T07:04:06Z" changeset="119225034" uid="3497659" user="NKA">
		<tag k="alt_name" v="Haugeplassen;Dorteplassen" />
		<tag k="name" v="Haugeplass" />
		<tag k="place" v="farm" />
		<tag k="ssr:stedsnr" v="613959" />
	</node>
	<node id="9630931957" lat="60.7223535" lon="8.8958688" version="1" timestamp="2022-04-02T07:04:06Z" changeset="119225034" uid="3497659" user="NKA">
		<tag k="name" v="Nordre Holtegard" />
		<tag k="place" v="farm" />
		<tag k="ssr:stedsnr" v="224193" />
	</node>
	<node id="9630931958" lat="60.701385" lon="9.0014919" version="1" timestamp="2022-04-02T07:04:06Z" changeset="119225034" uid="3497659" user="NKA">
		<tag k="name" v="Hagen" />
		<tag k="place" v="farm" />
		<tag k="ssr:stedsnr" v="41156" />
	</node>
	<node id="9630931959" lat="60.85246" lon="8.9150053" version="1" timestamp="2022-04-02T07:04:06Z" changeset="119225034" uid="3497659" user="NKA">
		<tag k="historic" v="shieling" />
		<tag k="name" v="Blakkestadvollen" />
		<tag k="place" v="isolated_dwelling" />
		<tag k="ssr:stedsnr" v="967042" />
	</node>
	<node id="9630931960" lat="60.683509" lon="8.8446998" version="1" timestamp="2022-04-02T07:04:06Z" changeset="119225034" uid="3497659" user="NKA">
		<tag k="name" v="Hansegard" />
		<tag k="place" v="farm" />
		<tag k="ssr:stedsnr" v="283363" />
	</node>
	<node id="9630931961" lat="60.7949334" lon="9.0682307" version="1" timestamp="2022-04-02T07:04:06Z" changeset="119225034" uid="3497659" user="NKA">
		<tag k="name" v="Gamlemøne" />
		<tag k="place" v="farm" />
		<tag k="ssr:stedsnr" v="1072070" />
	</node>
	<node id="9630931962" lat="60.7474553" lon="8.7418928" version="1" timestamp="2022-04-02T07:04:06Z" changeset="119225034" uid="3497659" user="NKA">
		<tag k="historic" v="shieling" />
		<tag k="name" v="Narveset" />
		<tag k="place" v="isolated_dwelling" />
		<tag k="ssr:stedsnr" v="309806" />
	</node>
	<node id="9630931963" lat="60.703266" lon="9.0097658" version="1" timestamp="2022-04-02T07:04:06Z" changeset="119225034" uid="3497659" user="NKA">
		<tag k="name" v="Frøytun" />
		<tag k="place" v="farm" />
		<tag k="ssr:stedsnr" v="492363" />
	</node>
	<node id="9630931964" lat="60.7025222" lon="8.8681278" version="1" timestamp="2022-04-02T07:04:06Z" changeset="119225034" uid="3497659" user="NKA">
		<tag k="name" v="Skålan" />
		<tag k="place" v="locality" />
		<tag k="ssr:stedsnr" v="552407" />
	</node>
	<node id="9630931965" lat="60.8180762" lon="8.8275846" version="1" timestamp="2022-04-02T07:04:06Z" changeset="119225034" uid="3497659" user="NKA">
		<tag k="name" v="Amundlie" />
		<tag k="place" v="farm" />
		<tag k="ssr:stedsnr" v="341359" />
	</node>
	<node id="9630931966" lat="60.7951512" lon="8.8638001" version="1" timestamp="2022-04-02T07:04:06Z" changeset="119225034" uid="3497659" user="NKA">
		<tag k="alt_name" v="Bråtestølen" />
		<tag k="historic" v="shieling" />
		<tag k="name" v="Bråtastølen" />
		<tag k="place" v="isolated_dwelling" />
		<tag k="ssr:stedsnr" v="736476" />
	</node>
	<node id="9630931967" lat="60.7428806" lon="8.8797556" version="1" timestamp="2022-04-02T07:04:06Z" changeset="119225034" uid="3497659" user="NKA">
		<tag k="name" v="Viljugrein" />
		<tag k="place" v="farm" />
		<tag k="ssr:stedsnr" v="188216" />
	</node>
	<node id="9630931968" lat="60.6724004" lon="8.7992364" version="1" timestamp="2022-04-02T07:04:06Z" changeset="119225034" uid="3497659" user="NKA">
		<tag k="alt_name" v="Rone" />
		<tag k="name" v="Roni" />
		<tag k="place" v="farm" />
		<tag k="ssr:stedsnr" v="917944" />
	</node>
	<node id="9630931969" lat="60.809762" lon="8.9836928" version="1" timestamp="2022-04-02T07:04:06Z" changeset="119225034" uid="3497659" user="NKA">
		<tag k="historic" v="shieling" />
		<tag k="name" v="Bjørnalie" />
		<tag k="place" v="isolated_dwelling" />
		<tag k="ssr:stedsnr" v="341403" />
	</node>
	<node id="9630931970" lat="60.6878528" lon="9.0173556" version="1" timestamp="2022-04-02T07:04:06Z" changeset="119225034" uid="3497659" user="NKA">
		<tag k="name" v="Eiknes" />
		<tag k="place" v="farm" />
		<tag k="ssr:stedsnr" v="431315" />
	</node>
	<node id="9630931971" lat="60.7516621" lon="8.7982407" version="1" timestamp="2022-04-02T07:04:06Z" changeset="119225034" uid="3497659" user="NKA">
		<tag k="name" v="Larsbråten" />
		<tag k="place" v="isolated_dwelling" />
		<tag k="ssr:stedsnr" v="70053" />
	</node>
	<node id="9630931972" lat="60.7997556" lon="8.8478668" version="1" timestamp="2022-04-02T07:04:06Z" changeset="119225034" uid="3497659" user="NKA">
		<tag k="alt_name" v="Kleppestølen" />
		<tag k="historic" v="shieling" />
		<tag k="name" v="Kleppstølen" />
		<tag k="place" v="isolated_dwelling" />
		<tag k="ssr:stedsnr" v="301654" />
	</node>
	<node id="9630931973" lat="60.8325431" lon="9.0029835" version="1" timestamp="2022-04-02T07:04:06Z" changeset="119225034" uid="3497659" user="NKA">
		<tag k="name" v="Vesle Skaugum" />
		<tag k="place" v="isolated_dwelling" />
		<tag k="ssr:stedsnr" v="737416" />
	</node>
	<node id="9630931974" lat="60.6847028" lon="9.0198639" version="1" timestamp="2022-04-02T07:04:06Z" changeset="119225034" uid="3497659" user="NKA">
		<tag k="name" v="Eggum" />
		<tag k="place" v="locality" />
		<tag k="ssr:stedsnr" v="770113" />
	</node>
	<node id="9630931975" lat="60.6877115" lon="9.035981" version="1" timestamp="2022-04-02T07:04:06Z" changeset="119225034" uid="3497659" user="NKA">
		<tag k="name" v="Brenno" />
		<tag k="place" v="farm" />
		<tag k="ssr:stedsnr" v="110262" />
	</node>
	<node id="9630931976" lat="60.7069778" lon="8.9539222" version="1" timestamp="2022-04-02T07:04:06Z" changeset="119225034" uid="3497659" user="NKA">
		<tag k="name" v="Hjallen" />
		<tag k="place" v="farm" />
		<tag k="ssr:stedsnr" v="128335" />
	</node>
	<node id="9630931977" lat="60.7484667" lon="8.8797528" version="1" timestamp="2022-04-02T07:04:06Z" changeset="119225034" uid="3497659" user="NKA">
		<tag k="name" v="Raudbakken" />
		<tag k="old_name" v="Raubakken;Raudbekken;Raubakke" />
		<tag k="place" v="farm" />
		<tag k="ssr:stedsnr" v="708195" />
	</node>
	<node id="9630931978" lat="60.6593077" lon="9.0478648" version="1" timestamp="2022-04-02T07:04:06Z" changeset="119225034" uid="3497659" user="NKA">
		<tag k="alt_name" v="Nedre Engene" />
		<tag k="name" v="Nedre Engjan" />
		<tag k="place" v="farm" />
		<tag k="ssr:stedsnr" v="352536" />
	</node>
	<node id="9630931979" lat="60.6622688" lon="9.1277289" version="1" timestamp="2022-04-02T07:04:06Z" changeset="119225034" uid="3497659" user="NKA">
		<tag k="alt_name" v="Hestedokkhytta" />
		<tag k="name" v="Hestedokki" />
		<tag k="place" v="isolated_dwelling" />
		<tag k="ssr:stedsnr" v="492228" />
	</node>
	<node id="9630931980" lat="60.7098381" lon="8.8975188" version="1" timestamp="2022-04-02T07:04:06Z" changeset="119225034" uid="3497659" user="NKA">
		<tag k="historic" v="shieling" />
		<tag k="name" v="Nygjerdun" />
		<tag k="place" v="isolated_dwelling" />
		<tag k="ssr:stedsnr" v="68363" />
	</node>
	<node id="9630931981" lat="60.6750483" lon="8.8058468" version="1" timestamp="2022-04-02T07:04:06Z" changeset="119225034" uid="3497659" user="NKA">
		<tag k="name" v="Eilevmoen" />
		<tag k="place" v="farm" />
		<tag k="ssr:stedsnr" v="795960" />
	</node>
	<node id="9630931982" lat="60.7402454" lon="8.8629188" version="1" timestamp="2022-04-02T07:04:06Z" changeset="119225034" uid="3497659" user="NKA">
		<tag k="name" v="Hagen" />
		<tag k="place" v="farm" />
		<tag k="ssr:stedsnr" v="40997" />
	</node>
	<node id="9630931983" lat="60.6499341" lon="9.057218" version="1" timestamp="2022-04-02T07:04:06Z" changeset="119225034" uid="3497659" user="NKA">
		<tag k="name" v="Tørrisdokki" />
		<tag k="place" v="farm" />
		<tag k="ssr:stedsnr" v="722459" />
	</node>
	<node id="9630931984" lat="60.7056937" lon="8.9226345" version="1" timestamp="2022-04-02T07:04:06Z" changeset="119225034" uid="3497659" user="NKA">
		<tag k="name" v="Golberg" />
		<tag k="place" v="farm" />
		<tag k="ssr:stedsnr" v="492348" />
	</node>
	<node id="9630931985" lat="60.6950631" lon="9.019349" version="1" timestamp="2022-04-02T07:04:06Z" changeset="119225034" uid="3497659" user="NKA">
		<tag k="name" v="Narvebråten" />
		<tag k="place" v="locality" />
		<tag k="ssr:stedsnr" v="977433" />
	</node>
	<node id="9630931986" lat="60.7122694" lon="8.9490634" version="1" timestamp="2022-04-02T07:04:06Z" changeset="119225034" uid="3497659" user="NKA">
		<tag k="name" v="Rudningen" />
		<tag k="place" v="farm" />
		<tag k="ssr:stedsnr" v="735362" />
	</node>
	<node id="9630931987" lat="60.7088722" lon="8.9192595" version="1" timestamp="2022-04-02T07:04:06Z" changeset="119225034" uid="3497659" user="NKA">
		<tag k="alt_name" v="Røyse" />
		<tag k="name" v="Øvre Røyse" />
		<tag k="place" v="farm" />
		<tag k="ssr:stedsnr" v="1076375" />
	</node>
	<node id="9630931988" lat="60.691668" lon="8.8206189" version="1" timestamp="2022-04-02T07:04:06Z" changeset="119225034" uid="3497659" user="NKA">
		<tag k="name" v="Mellom-Grov" />
		<tag k="place" v="farm" />
		<tag k="ssr:stedsnr" v="101437" />
	</node>
	<node id="9630931989" lat="60.6959323" lon="8.841274" version="1" timestamp="2022-04-02T07:04:06Z" changeset="119225034" uid="3497659" user="NKA">
		<tag k="name" v="Flatagrov" />
		<tag k="place" v="farm" />
		<tag k="ssr:stedsnr" v="916904" />
	</node>
	<node id="9630931990" lat="60.7472306" lon="8.8289417" version="1" timestamp="2022-04-02T07:04:06Z" changeset="119225034" uid="3497659" user="NKA">
		<tag k="name" v="Veslehaugen" />
		<tag k="place" v="farm" />
		<tag k="ssr:stedsnr" v="795795" />
	</node>
	<node id="9630931991" lat="60.6764168" lon="9.029668" version="1" timestamp="2022-04-02T07:04:06Z" changeset="119225034" uid="3497659" user="NKA">
		<tag k="alt_name" v="Danielsplass" />
		<tag k="name" v="Danielsplassen" />
		<tag k="place" v="farm" />
		<tag k="ssr:stedsnr" v="250288" />
	</node>
	<node id="9630931992" lat="60.8500721" lon="8.9126037" version="1" timestamp="2022-04-02T07:04:06Z" changeset="119225034" uid="3497659" user="NKA">
		<tag k="name" v="Vidsyn" />
		<tag k="place" v="farm" />
		<tag k="ssr:stedsnr" v="281482" />
	</node>
	<node id="9630931993" lat="60.7588092" lon="8.7666638" version="1" timestamp="2022-04-02T07:04:06Z" changeset="119225034" uid="3497659" user="NKA">
		<tag k="historic" v="shieling" />
		<tag k="name" v="Brennhovdseter" />
		<tag k="place" v="isolated_dwelling" />
		<tag k="ssr:stedsnr" v="709827" />
	</node>
</osm>
