<?xml version="1.0" encoding="UTF-8"?>
<osm version="0.6" generator="osmapis">
	<node lat="60.302541669148944" lon="10.433302784868998" id="-35176">
		<tag k="name" v="Sognsvegen" />
		<tag k="ssr:date" v="2019-12-27" />
		<tag k="ssr:gruppe" v="veg" />
		<tag k="ssr:hovedgruppe" v="infrastruktur" />
		<tag k="ssr:stedsnr" v="299861" />
		<tag k="ssr:type" v="vegstrekning" />
	</node>
	<node lat="60.29300555494658" lon="10.424327769285409" id="-35200">
		<tag k="name" v="Bergensbanen" />
		<tag k="ssr:date" v="2019-12-27" />
		<tag k="ssr:gruppe" v="bane" />
		<tag k="ssr:hovedgruppe" v="infrastruktur" />
		<tag k="ssr:stedsnr" v="337160" />
		<tag k="ssr:type" v="banestrekning" />
	</node>
	<node lat="60.23202222294631" lon="10.246966664479938" id="-35267">
		<tag k="name" v="Randsfjordbanen" />
		<tag k="ssr:date" v="2019-12-27" />
		<tag k="ssr:gruppe" v="bane" />
		<tag k="ssr:hovedgruppe" v="infrastruktur" />
		<tag k="ssr:stedsnr" v="511795" />
		<tag k="ssr:type" v="banestrekning" />
	</node>
	<node lat="60.24060000313414" lon="10.385875008168679" id="-35344">
		<tag k="name" v="Jevnaker kommune" />
		<tag k="ssr:date" v="2019-12-27" />
		<tag k="ssr:gruppe" v="administrativeIndelinger" />
		<tag k="ssr:hovedgruppe" v="offentligAdministrasjon" />
		<tag k="ssr:stedsnr" v="752931" />
		<tag k="ssr:type" v="kommune" />
	</node>
	<node lat="60.23867351066798" lon="10.400387021797867" id="-35436">
		<tag k="name" v="Sagvegen" />
		<tag k="ssr:date" v="2019-12-27" />
		<tag k="ssr:gruppe" v="veg" />
		<tag k="ssr:hovedgruppe" v="infrastruktur" />
		<tag k="ssr:stedsnr" v="1016027" />
		<tag k="ssr:type" v="adressenavn" />
	</node>
	<node lat="60.26917281496336" lon="10.474679536110802" id="-35437">
		<tag k="name" v="Ekornvegen" />
		<tag k="ssr:date" v="2019-12-27" />
		<tag k="ssr:gruppe" v="veg" />
		<tag k="ssr:hovedgruppe" v="infrastruktur" />
		<tag k="ssr:stedsnr" v="1016028" />
		<tag k="ssr:type" v="adressenavn" />
	</node>
	<node lat="60.23710993074559" lon="10.379772989548124" id="-35438">
		<tag k="name" v="Lidvangvegen" />
		<tag k="ssr:date" v="2019-12-27" />
		<tag k="ssr:gruppe" v="veg" />
		<tag k="ssr:hovedgruppe" v="infrastruktur" />
		<tag k="ssr:stedsnr" v="1013990" />
		<tag k="ssr:type" v="adressenavn" />
	</node>
	<node lat="60.237376035632096" lon="10.379509334902872" id="-35439">
		<tag k="name" v="Moløkkavegen" />
		<tag k="ssr:date" v="2019-12-27" />
		<tag k="ssr:gruppe" v="veg" />
		<tag k="ssr:hovedgruppe" v="infrastruktur" />
		<tag k="ssr:stedsnr" v="1014002" />
		<tag k="ssr:type" v="adressenavn" />
	</node>
	<node lat="60.23958688912944" lon="10.380494360456623" id="-35440">
		<tag k="name" v="E G Borchs gate" />
		<tag k="ssr:date" v="2019-12-27" />
		<tag k="ssr:gruppe" v="veg" />
		<tag k="ssr:hovedgruppe" v="infrastruktur" />
		<tag k="ssr:stedsnr" v="1014452" />
		<tag k="ssr:type" v="adressenavn" />
	</node>
	<node lat="60.24162490055568" lon="10.384168718012974" id="-35441">
		<tag k="name" v="Fjordvegen" />
		<tag k="ssr:date" v="2019-12-27" />
		<tag k="ssr:gruppe" v="veg" />
		<tag k="ssr:hovedgruppe" v="infrastruktur" />
		<tag k="ssr:stedsnr" v="1014037" />
		<tag k="ssr:type" v="adressenavn" />
	</node>
	<node lat="60.23946568658031" lon="10.385583550383755" id="-35442">
		<tag k="name" v="Torggata" />
		<tag k="ssr:date" v="2019-12-27" />
		<tag k="ssr:gruppe" v="veg" />
		<tag k="ssr:hovedgruppe" v="infrastruktur" />
		<tag k="ssr:stedsnr" v="1014222" />
		<tag k="ssr:type" v="adressenavn" />
	</node>
	<node lat="60.239239118736364" lon="10.390542642123862" id="-35443">
		<tag k="name" v="Storgata" />
		<tag k="ssr:date" v="2019-12-27" />
		<tag k="ssr:gruppe" v="veg" />
		<tag k="ssr:hovedgruppe" v="infrastruktur" />
		<tag k="ssr:stedsnr" v="1014232" />
		<tag k="ssr:type" v="adressenavn" />
	</node>
	<node lat="60.23944408963725" lon="10.382922121519567" id="-35444">
		<tag k="name" v="Kirkegata" />
		<tag k="ssr:date" v="2019-12-27" />
		<tag k="ssr:gruppe" v="veg" />
		<tag k="ssr:hovedgruppe" v="infrastruktur" />
		<tag k="ssr:stedsnr" v="1014125" />
		<tag k="ssr:type" v="adressenavn" />
	</node>
	<node lat="60.24087776755274" lon="10.387163124431645" id="-35445">
		<tag k="name" v="Nesgata" />
		<tag k="ssr:date" v="2019-12-27" />
		<tag k="ssr:gruppe" v="veg" />
		<tag k="ssr:hovedgruppe" v="infrastruktur" />
		<tag k="ssr:stedsnr" v="1014240" />
		<tag k="ssr:type" v="adressenavn" />
	</node>
	<node lat="60.24381724815429" lon="10.37710777413293" id="-35446">
		<tag k="name" v="Randsborg" />
		<tag k="ssr:date" v="2019-12-27" />
		<tag k="ssr:gruppe" v="veg" />
		<tag k="ssr:hovedgruppe" v="infrastruktur" />
		<tag k="ssr:stedsnr" v="1014265" />
		<tag k="ssr:type" v="adressenavn" />
	</node>
	<node lat="60.23984299597716" lon="10.386598722022756" id="-35447">
		<tag k="name" v="Brugata" />
		<tag k="ssr:date" v="2019-12-27" />
		<tag k="ssr:gruppe" v="veg" />
		<tag k="ssr:hovedgruppe" v="infrastruktur" />
		<tag k="ssr:stedsnr" v="1014379" />
		<tag k="ssr:type" v="adressenavn" />
	</node>
	<node lat="60.24140821177488" lon="10.385040260065695" id="-35448">
		<tag k="name" v="Enggata" />
		<tag k="ssr:date" v="2019-12-27" />
		<tag k="ssr:gruppe" v="veg" />
		<tag k="ssr:hovedgruppe" v="infrastruktur" />
		<tag k="ssr:stedsnr" v="1014404" />
		<tag k="ssr:type" v="adressenavn" />
	</node>
	<node lat="60.24184258701237" lon="10.383385281711421" id="-35449">
		<tag k="name" v="Bjerkegata" />
		<tag k="ssr:date" v="2019-12-27" />
		<tag k="ssr:gruppe" v="veg" />
		<tag k="ssr:hovedgruppe" v="infrastruktur" />
		<tag k="ssr:stedsnr" v="1014535" />
		<tag k="ssr:type" v="adressenavn" />
	</node>
	<node lat="60.239387474085085" lon="10.404145192899938" id="-35450">
		<tag k="name" v="Stampeengvegen" />
		<tag k="ssr:date" v="2019-12-27" />
		<tag k="ssr:gruppe" v="veg" />
		<tag k="ssr:hovedgruppe" v="infrastruktur" />
		<tag k="ssr:stedsnr" v="1016036" />
		<tag k="ssr:type" v="adressenavn" />
	</node>
	<node lat="60.238908941135215" lon="10.404674701934246" id="-35451">
		<tag k="name" v="Grønlandsvegen" />
		<tag k="ssr:date" v="2019-12-27" />
		<tag k="ssr:gruppe" v="veg" />
		<tag k="ssr:hovedgruppe" v="infrastruktur" />
		<tag k="ssr:stedsnr" v="1016038" />
		<tag k="ssr:type" v="adressenavn" />
	</node>
	<node lat="60.23743146331111" lon="10.403388909277695" id="-35452">
		<tag k="name" v="Melkevegen" />
		<tag k="ssr:date" v="2019-12-27" />
		<tag k="ssr:gruppe" v="veg" />
		<tag k="ssr:hovedgruppe" v="infrastruktur" />
		<tag k="ssr:stedsnr" v="1016039" />
		<tag k="ssr:type" v="adressenavn" />
	</node>
	<node lat="60.23915488382361" lon="10.39101396343395" id="-35453">
		<tag k="name" v="Glassverkvegen" />
		<tag k="ssr:date" v="2019-12-27" />
		<tag k="ssr:gruppe" v="veg" />
		<tag k="ssr:hovedgruppe" v="infrastruktur" />
		<tag k="ssr:stedsnr" v="1016040" />
		<tag k="ssr:type" v="adressenavn" />
	</node>
	<node lat="60.235654856825334" lon="10.407070163468907" id="-35454">
		<tag k="name" v="Gamlevegen" />
		<tag k="ssr:date" v="2019-12-27" />
		<tag k="ssr:gruppe" v="veg" />
		<tag k="ssr:hovedgruppe" v="infrastruktur" />
		<tag k="ssr:stedsnr" v="1016042" />
		<tag k="ssr:type" v="adressenavn" />
	</node>
	<node lat="60.239848947018736" lon="10.406344244008393" id="-35455">
		<tag k="name" v="Nils Bergs veg" />
		<tag k="ssr:date" v="2019-12-27" />
		<tag k="ssr:gruppe" v="veg" />
		<tag k="ssr:hovedgruppe" v="infrastruktur" />
		<tag k="ssr:stedsnr" v="1016044" />
		<tag k="ssr:type" v="adressenavn" />
	</node>
	<node lat="60.23809457789936" lon="10.403262362953333" id="-35456">
		<tag k="name" v="Forseths veg" />
		<tag k="ssr:date" v="2019-12-27" />
		<tag k="ssr:gruppe" v="veg" />
		<tag k="ssr:hovedgruppe" v="infrastruktur" />
		<tag k="ssr:stedsnr" v="1016045" />
		<tag k="ssr:type" v="adressenavn" />
	</node>
	<node lat="60.23808364792275" lon="10.401771106954747" id="-35457">
		<tag k="name" v="Meieribakken" />
		<tag k="ssr:date" v="2019-12-27" />
		<tag k="ssr:gruppe" v="veg" />
		<tag k="ssr:hovedgruppe" v="infrastruktur" />
		<tag k="ssr:stedsnr" v="1016046" />
		<tag k="ssr:type" v="adressenavn" />
	</node>
	<node lat="60.2368355165348" lon="10.406763505449854" id="-35458">
		<tag k="name" v="Grønlivegen" />
		<tag k="ssr:date" v="2019-12-27" />
		<tag k="ssr:gruppe" v="veg" />
		<tag k="ssr:hovedgruppe" v="infrastruktur" />
		<tag k="ssr:stedsnr" v="1016048" />
		<tag k="ssr:type" v="adressenavn" />
	</node>
	<node lat="60.227428753043334" lon="10.370263532768059" id="-35460">
		<tag k="name" v="Konvallveien" />
		<tag k="ssr:date" v="2019-12-27" />
		<tag k="ssr:gruppe" v="veg" />
		<tag k="ssr:hovedgruppe" v="infrastruktur" />
		<tag k="ssr:stedsnr" v="1016051" />
		<tag k="ssr:type" v="adressenavn" />
	</node>
	<node lat="60.240106885142076" lon="10.407693106325896" id="-35461">
		<tag k="name" v="Nygaten" />
		<tag k="ssr:date" v="2019-12-27" />
		<tag k="ssr:gruppe" v="veg" />
		<tag k="ssr:hovedgruppe" v="infrastruktur" />
		<tag k="ssr:stedsnr" v="1016052" />
		<tag k="ssr:type" v="adressenavn" />
	</node>
	<node lat="60.22520686488274" lon="10.37203738611693" id="-35462">
		<tag k="name" v="Samsmoveien" />
		<tag k="ssr:date" v="2019-12-27" />
		<tag k="ssr:gruppe" v="veg" />
		<tag k="ssr:hovedgruppe" v="infrastruktur" />
		<tag k="ssr:stedsnr" v="1016053" />
		<tag k="ssr:type" v="adressenavn" />
	</node>
	<node lat="60.2297097702839" lon="10.368259559756188" id="-35566">
		<tag k="name" v="Tulipanveien" />
		<tag k="ssr:date" v="2019-12-27" />
		<tag k="ssr:gruppe" v="veg" />
		<tag k="ssr:hovedgruppe" v="infrastruktur" />
		<tag k="ssr:stedsnr" v="1015924" />
		<tag k="ssr:type" v="adressenavn" />
	</node>
	<node lat="60.2297097702839" lon="10.368259559756188" id="-35567">
		<tag k="name" v="Krokusveien" />
		<tag k="ssr:date" v="2019-12-27" />
		<tag k="ssr:gruppe" v="veg" />
		<tag k="ssr:hovedgruppe" v="infrastruktur" />
		<tag k="ssr:stedsnr" v="1015925" />
		<tag k="ssr:type" v="adressenavn" />
	</node>
	<node lat="60.22797168949087" lon="10.3660098966451" id="-35568">
		<tag k="name" v="Liljeveien" />
		<tag k="ssr:date" v="2019-12-27" />
		<tag k="ssr:gruppe" v="veg" />
		<tag k="ssr:hovedgruppe" v="infrastruktur" />
		<tag k="ssr:stedsnr" v="1015926" />
		<tag k="ssr:type" v="adressenavn" />
	</node>
	<node lat="60.227740600803486" lon="10.3686826239928" id="-35569">
		<tag k="name" v="Blåklokkeveien" />
		<tag k="ssr:date" v="2019-12-27" />
		<tag k="ssr:gruppe" v="veg" />
		<tag k="ssr:hovedgruppe" v="infrastruktur" />
		<tag k="ssr:stedsnr" v="1015928" />
		<tag k="ssr:type" v="adressenavn" />
	</node>
	<node lat="60.24806037305589" lon="10.37290425983647" id="-35570">
		<tag k="name" v="Åkervegen" />
		<tag k="ssr:date" v="2019-12-27" />
		<tag k="ssr:gruppe" v="veg" />
		<tag k="ssr:hovedgruppe" v="infrastruktur" />
		<tag k="ssr:stedsnr" v="1015929" />
		<tag k="ssr:type" v="adressenavn" />
	</node>
	<node lat="60.24843729398136" lon="10.369120010120072" id="-35571">
		<tag k="name" v="Bassengvegen" />
		<tag k="ssr:date" v="2019-12-27" />
		<tag k="ssr:gruppe" v="veg" />
		<tag k="ssr:hovedgruppe" v="infrastruktur" />
		<tag k="ssr:stedsnr" v="1015930" />
		<tag k="ssr:type" v="adressenavn" />
	</node>
	<node lat="60.249183129335506" lon="10.372190044293818" id="-35572">
		<tag k="name" v="Skyttervegen" />
		<tag k="ssr:date" v="2019-12-27" />
		<tag k="ssr:gruppe" v="veg" />
		<tag k="ssr:hovedgruppe" v="infrastruktur" />
		<tag k="ssr:stedsnr" v="1015931" />
		<tag k="ssr:type" v="adressenavn" />
	</node>
	<node lat="60.24868136912051" lon="10.371783309341337" id="-35573">
		<tag k="name" v="Blinken" />
		<tag k="ssr:date" v="2019-12-27" />
		<tag k="ssr:gruppe" v="veg" />
		<tag k="ssr:hovedgruppe" v="infrastruktur" />
		<tag k="ssr:stedsnr" v="1015932" />
		<tag k="ssr:type" v="adressenavn" />
	</node>
	<node lat="60.24889743569404" lon="10.37050244920604" id="-35574">
		<tag k="name" v="Frydenlundsvegen" />
		<tag k="ssr:date" v="2019-12-27" />
		<tag k="ssr:gruppe" v="veg" />
		<tag k="ssr:hovedgruppe" v="infrastruktur" />
		<tag k="ssr:stedsnr" v="1015933" />
		<tag k="ssr:type" v="adressenavn" />
	</node>
	<node lat="60.248965287499864" lon="10.369407182280062" id="-35575">
		<tag k="name" v="Liavegen" />
		<tag k="ssr:date" v="2019-12-27" />
		<tag k="ssr:gruppe" v="veg" />
		<tag k="ssr:hovedgruppe" v="infrastruktur" />
		<tag k="ssr:stedsnr" v="1015934" />
		<tag k="ssr:type" v="adressenavn" />
	</node>
	<node lat="60.24812986020488" lon="10.367840850418052" id="-35576">
		<tag k="name" v="Skogvegen" />
		<tag k="ssr:date" v="2019-12-27" />
		<tag k="ssr:gruppe" v="veg" />
		<tag k="ssr:hovedgruppe" v="infrastruktur" />
		<tag k="ssr:stedsnr" v="1015935" />
		<tag k="ssr:type" v="adressenavn" />
	</node>
	<node lat="60.24203316171426" lon="10.37338089693648" id="-35577">
		<tag k="name" v="Fjellheimvegen" />
		<tag k="ssr:date" v="2019-12-27" />
		<tag k="ssr:gruppe" v="veg" />
		<tag k="ssr:hovedgruppe" v="infrastruktur" />
		<tag k="ssr:stedsnr" v="1015986" />
		<tag k="ssr:type" v="adressenavn" />
	</node>
	<node lat="60.242071492004904" lon="10.373911676801297" id="-35578">
		<tag k="name" v="Skolevegen" />
		<tag k="ssr:date" v="2019-12-27" />
		<tag k="ssr:gruppe" v="veg" />
		<tag k="ssr:hovedgruppe" v="infrastruktur" />
		<tag k="ssr:stedsnr" v="1015987" />
		<tag k="ssr:type" v="adressenavn" />
	</node>
	<node lat="60.23933044224336" lon="10.370382683908996" id="-35579">
		<tag k="name" v="Skolebakken" />
		<tag k="ssr:date" v="2019-12-27" />
		<tag k="ssr:gruppe" v="veg" />
		<tag k="ssr:hovedgruppe" v="infrastruktur" />
		<tag k="ssr:stedsnr" v="1015989" />
		<tag k="ssr:type" v="adressenavn" />
	</node>
	<node lat="60.24212320582059" lon="10.375766410784209" id="-35580">
		<tag k="name" v="Bakkelivegen" />
		<tag k="ssr:date" v="2019-12-27" />
		<tag k="ssr:gruppe" v="veg" />
		<tag k="ssr:hovedgruppe" v="infrastruktur" />
		<tag k="ssr:stedsnr" v="1015990" />
		<tag k="ssr:type" v="adressenavn" />
	</node>
	<node lat="60.23672472771748" lon="10.357870905099563" id="-35581">
		<tag k="name" v="Vinkelveien" />
		<tag k="ssr:date" v="2019-12-27" />
		<tag k="ssr:gruppe" v="veg" />
		<tag k="ssr:hovedgruppe" v="infrastruktur" />
		<tag k="ssr:stedsnr" v="1015993" />
		<tag k="ssr:type" v="adressenavn" />
	</node>
	<node lat="60.24212248641827" lon="10.374805370161498" id="-35582">
		<tag k="name" v="Ole B. Bergers veg" />
		<tag k="ssr:date" v="2019-12-27" />
		<tag k="ssr:gruppe" v="veg" />
		<tag k="ssr:hovedgruppe" v="infrastruktur" />
		<tag k="ssr:stedsnr" v="1015994" />
		<tag k="ssr:type" v="adressenavn" />
	</node>
	<node lat="60.24201341546617" lon="10.375089410330503" id="-35583">
		<tag k="name" v="Bergergata" />
		<tag k="ssr:date" v="2019-12-27" />
		<tag k="ssr:gruppe" v="veg" />
		<tag k="ssr:hovedgruppe" v="infrastruktur" />
		<tag k="ssr:stedsnr" v="1015995" />
		<tag k="ssr:type" v="adressenavn" />
	</node>
	<node lat="60.23855294878402" lon="10.357940948394335" id="-35584">
		<tag k="name" v="Myrbråtaveien" />
		<tag k="ssr:date" v="2019-12-27" />
		<tag k="ssr:gruppe" v="veg" />
		<tag k="ssr:hovedgruppe" v="infrastruktur" />
		<tag k="ssr:stedsnr" v="1015996" />
		<tag k="ssr:type" v="adressenavn" />
	</node>
	<node lat="60.23958218853101" lon="10.35659571042157" id="-35585">
		<tag k="name" v="Buttentjernsveien" />
		<tag k="ssr:date" v="2019-12-27" />
		<tag k="ssr:gruppe" v="veg" />
		<tag k="ssr:hovedgruppe" v="infrastruktur" />
		<tag k="ssr:stedsnr" v="1015997" />
		<tag k="ssr:type" v="adressenavn" />
	</node>
	<node lat="60.237049770741784" lon="10.35806358588267" id="-35586">
		<tag k="name" v="Bakkestupveien" />
		<tag k="ssr:date" v="2019-12-27" />
		<tag k="ssr:gruppe" v="veg" />
		<tag k="ssr:hovedgruppe" v="infrastruktur" />
		<tag k="ssr:stedsnr" v="1015999" />
		<tag k="ssr:type" v="adressenavn" />
	</node>
	<node lat="60.23774343786102" lon="10.358352351094359" id="-35587">
		<tag k="name" v="Plassenveien" />
		<tag k="ssr:date" v="2019-12-27" />
		<tag k="ssr:gruppe" v="veg" />
		<tag k="ssr:hovedgruppe" v="infrastruktur" />
		<tag k="ssr:stedsnr" v="1016001" />
		<tag k="ssr:type" v="adressenavn" />
	</node>
	<node lat="60.22571160004233" lon="10.367399980871816" id="-35588">
		<tag k="name" v="Kornblomstveien" />
		<tag k="ssr:date" v="2019-12-27" />
		<tag k="ssr:gruppe" v="veg" />
		<tag k="ssr:hovedgruppe" v="infrastruktur" />
		<tag k="ssr:stedsnr" v="1016002" />
		<tag k="ssr:type" v="adressenavn" />
	</node>
	<node lat="60.22618214053979" lon="10.363521825000946" id="-35589">
		<tag k="name" v="Symreveien" />
		<tag k="ssr:date" v="2019-12-27" />
		<tag k="ssr:gruppe" v="veg" />
		<tag k="ssr:hovedgruppe" v="infrastruktur" />
		<tag k="ssr:stedsnr" v="1016003" />
		<tag k="ssr:type" v="adressenavn" />
	</node>
	<node lat="60.24055281199901" lon="10.359421174218951" id="-35590">
		<tag k="name" v="Bergerbakkvegen" />
		<tag k="ssr:date" v="2019-12-27" />
		<tag k="ssr:gruppe" v="veg" />
		<tag k="ssr:hovedgruppe" v="infrastruktur" />
		<tag k="ssr:stedsnr" v="1016004" />
		<tag k="ssr:type" v="adressenavn" />
	</node>
	<node lat="60.22513351306325" lon="10.365501837035684" id="-35591">
		<tag k="name" v="Blålyngstien" />
		<tag k="ssr:date" v="2019-12-27" />
		<tag k="ssr:gruppe" v="veg" />
		<tag k="ssr:hovedgruppe" v="infrastruktur" />
		<tag k="ssr:stedsnr" v="1016005" />
		<tag k="ssr:type" v="adressenavn" />
	</node>
	<node lat="60.22630845626572" lon="10.36543689626385" id="-35592">
		<tag k="name" v="Rødkløverstien" />
		<tag k="ssr:date" v="2019-12-27" />
		<tag k="ssr:gruppe" v="veg" />
		<tag k="ssr:hovedgruppe" v="infrastruktur" />
		<tag k="ssr:stedsnr" v="1016007" />
		<tag k="ssr:type" v="adressenavn" />
	</node>
	<node lat="60.22644665688683" lon="10.365916410885019" id="-35593">
		<tag k="name" v="Fiolveien" />
		<tag k="ssr:date" v="2019-12-27" />
		<tag k="ssr:gruppe" v="veg" />
		<tag k="ssr:hovedgruppe" v="infrastruktur" />
		<tag k="ssr:stedsnr" v="1016008" />
		<tag k="ssr:type" v="adressenavn" />
	</node>
	<node lat="60.22618214053979" lon="10.363521825000946" id="-35594">
		<tag k="name" v="Løvtannveien" />
		<tag k="ssr:date" v="2019-12-27" />
		<tag k="ssr:gruppe" v="veg" />
		<tag k="ssr:hovedgruppe" v="infrastruktur" />
		<tag k="ssr:stedsnr" v="1016009" />
		<tag k="ssr:type" v="adressenavn" />
	</node>
	<node lat="60.22579262698966" lon="10.366374165728823" id="-35595">
		<tag k="name" v="Hvitveiskroken" />
		<tag k="ssr:date" v="2019-12-27" />
		<tag k="ssr:gruppe" v="veg" />
		<tag k="ssr:hovedgruppe" v="infrastruktur" />
		<tag k="ssr:stedsnr" v="1016012" />
		<tag k="ssr:type" v="adressenavn" />
	</node>
	<node lat="60.226704161009664" lon="10.369778455137672" id="-35596">
		<tag k="name" v="Roseveien" />
		<tag k="ssr:date" v="2019-12-27" />
		<tag k="ssr:gruppe" v="veg" />
		<tag k="ssr:hovedgruppe" v="infrastruktur" />
		<tag k="ssr:stedsnr" v="1016013" />
		<tag k="ssr:type" v="adressenavn" />
	</node>
	<node lat="60.24421506742991" lon="10.364865081284705" id="-35597">
		<tag k="name" v="Strengen" />
		<tag k="ssr:date" v="2019-12-27" />
		<tag k="ssr:gruppe" v="veg" />
		<tag k="ssr:hovedgruppe" v="infrastruktur" />
		<tag k="ssr:stedsnr" v="1016015" />
		<tag k="ssr:type" v="adressenavn" />
	</node>
	<node lat="60.22752477741807" lon="10.365241311227182" id="-35598">
		<tag k="name" v="Røsslyngveien" />
		<tag k="ssr:date" v="2019-12-27" />
		<tag k="ssr:gruppe" v="veg" />
		<tag k="ssr:hovedgruppe" v="infrastruktur" />
		<tag k="ssr:stedsnr" v="1016016" />
		<tag k="ssr:type" v="adressenavn" />
	</node>
	<node lat="60.234759424250164" lon="10.364443594497851" id="-35599">
		<tag k="name" v="Bergerfossvegen" />
		<tag k="ssr:date" v="2019-12-27" />
		<tag k="ssr:gruppe" v="veg" />
		<tag k="ssr:hovedgruppe" v="infrastruktur" />
		<tag k="ssr:stedsnr" v="1016017" />
		<tag k="ssr:type" v="adressenavn" />
	</node>
	<node lat="60.26829280899503" lon="10.474849982052064" id="-35600">
		<tag k="name" v="Haravegen" />
		<tag k="ssr:date" v="2019-12-27" />
		<tag k="ssr:gruppe" v="veg" />
		<tag k="ssr:hovedgruppe" v="infrastruktur" />
		<tag k="ssr:stedsnr" v="1016019" />
		<tag k="ssr:type" v="adressenavn" />
	</node>
	<node lat="60.267403484132686" lon="10.47832878331107" id="-35601">
		<tag k="name" v="Gaupefaret" />
		<tag k="ssr:date" v="2019-12-27" />
		<tag k="ssr:gruppe" v="veg" />
		<tag k="ssr:hovedgruppe" v="infrastruktur" />
		<tag k="ssr:stedsnr" v="1016021" />
		<tag k="ssr:type" v="adressenavn" />
	</node>
	<node lat="60.24507649634056" lon="10.364679794902623" id="-35602">
		<tag k="name" v="Bogavegen" />
		<tag k="ssr:date" v="2019-12-27" />
		<tag k="ssr:gruppe" v="veg" />
		<tag k="ssr:hovedgruppe" v="infrastruktur" />
		<tag k="ssr:stedsnr" v="1016023" />
		<tag k="ssr:type" v="adressenavn" />
	</node>
	<node lat="60.24584544057851" lon="10.364601661828953" id="-35603">
		<tag k="name" v="Pilen" />
		<tag k="ssr:date" v="2019-12-27" />
		<tag k="ssr:gruppe" v="veg" />
		<tag k="ssr:hovedgruppe" v="infrastruktur" />
		<tag k="ssr:stedsnr" v="1016024" />
		<tag k="ssr:type" v="adressenavn" />
	</node>
	<node lat="60.20306197781094" lon="10.557798854203778" id="-35604">
		<tag k="name" v="Svenåvegen" />
		<tag k="ssr:date" v="2019-12-27" />
		<tag k="ssr:gruppe" v="veg" />
		<tag k="ssr:hovedgruppe" v="infrastruktur" />
		<tag k="ssr:stedsnr" v="1016025" />
		<tag k="ssr:type" v="adressenavn" />
	</node>
	<node lat="60.24742700138331" lon="10.373024552100237" id="-35609">
		<tag k="name" v="Bergsetvegen" />
		<tag k="ssr:date" v="2019-12-27" />
		<tag k="ssr:gruppe" v="veg" />
		<tag k="ssr:hovedgruppe" v="infrastruktur" />
		<tag k="ssr:stedsnr" v="1015937" />
		<tag k="ssr:type" v="adressenavn" />
	</node>
	<node lat="60.24666313711471" lon="10.369906542412803" id="-35610">
		<tag k="name" v="Hammersborgvegen" />
		<tag k="ssr:date" v="2019-12-27" />
		<tag k="ssr:gruppe" v="veg" />
		<tag k="ssr:hovedgruppe" v="infrastruktur" />
		<tag k="ssr:stedsnr" v="1015938" />
		<tag k="ssr:type" v="adressenavn" />
	</node>
	<node lat="60.245988176024674" lon="10.374817343856186" id="-35611">
		<tag k="name" v="Dalstubben" />
		<tag k="ssr:date" v="2019-12-27" />
		<tag k="ssr:gruppe" v="veg" />
		<tag k="ssr:hovedgruppe" v="infrastruktur" />
		<tag k="ssr:stedsnr" v="1015939" />
		<tag k="ssr:type" v="adressenavn" />
	</node>
	<node lat="60.246020091619215" lon="10.372452660618636" id="-35612">
		<tag k="name" v="Bergstien" />
		<tag k="ssr:date" v="2019-12-27" />
		<tag k="ssr:gruppe" v="veg" />
		<tag k="ssr:hovedgruppe" v="infrastruktur" />
		<tag k="ssr:stedsnr" v="1015940" />
		<tag k="ssr:type" v="adressenavn" />
	</node>
	<node lat="60.24451700333386" lon="10.376026587075149" id="-35613">
		<tag k="name" v="Randsborggata" />
		<tag k="ssr:date" v="2019-12-27" />
		<tag k="ssr:gruppe" v="veg" />
		<tag k="ssr:hovedgruppe" v="infrastruktur" />
		<tag k="ssr:stedsnr" v="1015941" />
		<tag k="ssr:type" v="adressenavn" />
	</node>
	<node lat="60.23109449135343" lon="10.367116118264017" id="-35614">
		<tag k="name" v="Sandvegen" />
		<tag k="ssr:date" v="2019-12-27" />
		<tag k="ssr:gruppe" v="veg" />
		<tag k="ssr:hovedgruppe" v="infrastruktur" />
		<tag k="ssr:stedsnr" v="1015942" />
		<tag k="ssr:type" v="adressenavn" />
	</node>
	<node lat="60.2467536914676" lon="10.373809067061115" id="-35615">
		<tag k="name" v="Nordhagenvegen" />
		<tag k="ssr:date" v="2019-12-27" />
		<tag k="ssr:gruppe" v="veg" />
		<tag k="ssr:hovedgruppe" v="infrastruktur" />
		<tag k="ssr:stedsnr" v="1015943" />
		<tag k="ssr:type" v="adressenavn" />
	</node>
	<node lat="60.246034215729516" lon="10.374762910035537" id="-35616">
		<tag k="name" v="Markvegen" />
		<tag k="ssr:date" v="2019-12-27" />
		<tag k="ssr:gruppe" v="veg" />
		<tag k="ssr:hovedgruppe" v="infrastruktur" />
		<tag k="ssr:stedsnr" v="1015944" />
		<tag k="ssr:type" v="adressenavn" />
	</node>
	<node lat="60.2325997432836" lon="10.364436382305689" id="-35617">
		<tag k="name" v="Granvegen" />
		<tag k="ssr:date" v="2019-12-27" />
		<tag k="ssr:gruppe" v="veg" />
		<tag k="ssr:hovedgruppe" v="infrastruktur" />
		<tag k="ssr:stedsnr" v="1015945" />
		<tag k="ssr:type" v="adressenavn" />
	</node>
	<node lat="60.23589907301973" lon="10.365927299830611" id="-35618">
		<tag k="name" v="Kistefossvegen" />
		<tag k="ssr:date" v="2019-12-27" />
		<tag k="ssr:gruppe" v="veg" />
		<tag k="ssr:hovedgruppe" v="infrastruktur" />
		<tag k="ssr:stedsnr" v="1015946" />
		<tag k="ssr:type" v="adressenavn" />
	</node>
	<node lat="60.2322369379027" lon="10.362653893037848" id="-35619">
		<tag k="name" v="Myrvegen" />
		<tag k="ssr:date" v="2019-12-27" />
		<tag k="ssr:gruppe" v="veg" />
		<tag k="ssr:hovedgruppe" v="infrastruktur" />
		<tag k="ssr:stedsnr" v="1015948" />
		<tag k="ssr:type" v="adressenavn" />
	</node>
	<node lat="60.23256120899128" lon="10.365648118950215" id="-35620">
		<tag k="name" v="Furuvegen" />
		<tag k="ssr:date" v="2019-12-27" />
		<tag k="ssr:gruppe" v="veg" />
		<tag k="ssr:hovedgruppe" v="infrastruktur" />
		<tag k="ssr:stedsnr" v="1015950" />
		<tag k="ssr:type" v="adressenavn" />
	</node>
	<node lat="60.25944280639749" lon="10.438592172881787" id="-35621">
		<tag k="name" v="Prestmovegen" />
		<tag k="ssr:date" v="2019-12-27" />
		<tag k="ssr:gruppe" v="veg" />
		<tag k="ssr:hovedgruppe" v="infrastruktur" />
		<tag k="ssr:stedsnr" v="1015951" />
		<tag k="ssr:type" v="adressenavn" />
	</node>
	<node lat="60.25927475617743" lon="10.435304733165202" id="-35622">
		<tag k="name" v="Prestlia" />
		<tag k="ssr:date" v="2019-12-27" />
		<tag k="ssr:gruppe" v="veg" />
		<tag k="ssr:hovedgruppe" v="infrastruktur" />
		<tag k="ssr:stedsnr" v="1015952" />
		<tag k="ssr:type" v="adressenavn" />
	</node>
	<node lat="60.260294818275284" lon="10.436470286419592" id="-35623">
		<tag k="name" v="Åslia" />
		<tag k="ssr:date" v="2019-12-27" />
		<tag k="ssr:gruppe" v="veg" />
		<tag k="ssr:hovedgruppe" v="infrastruktur" />
		<tag k="ssr:stedsnr" v="1015954" />
		<tag k="ssr:type" v="adressenavn" />
	</node>
	<node lat="60.23853817299933" lon="10.367151949882922" id="-35636">
		<tag k="name" v="Utsikten" />
		<tag k="ssr:date" v="2019-12-27" />
		<tag k="ssr:gruppe" v="veg" />
		<tag k="ssr:hovedgruppe" v="infrastruktur" />
		<tag k="ssr:stedsnr" v="1015980" />
		<tag k="ssr:type" v="adressenavn" />
	</node>
	<node lat="60.23752682709384" lon="10.369508086597158" id="-35637">
		<tag k="name" v="Hønefossvegen" />
		<tag k="ssr:date" v="2019-12-27" />
		<tag k="ssr:gruppe" v="veg" />
		<tag k="ssr:hovedgruppe" v="infrastruktur" />
		<tag k="ssr:stedsnr" v="1015981" />
		<tag k="ssr:type" v="adressenavn" />
	</node>
	<node lat="60.23761758452682" lon="10.36991760571856" id="-35638">
		<tag k="name" v="Grindavegen" />
		<tag k="ssr:date" v="2019-12-27" />
		<tag k="ssr:gruppe" v="veg" />
		<tag k="ssr:hovedgruppe" v="infrastruktur" />
		<tag k="ssr:stedsnr" v="1015982" />
		<tag k="ssr:type" v="adressenavn" />
	</node>
	<node lat="60.23866350293087" lon="10.370373503208445" id="-35639">
		<tag k="name" v="Rundhaugvegen" />
		<tag k="ssr:date" v="2019-12-27" />
		<tag k="ssr:gruppe" v="veg" />
		<tag k="ssr:hovedgruppe" v="infrastruktur" />
		<tag k="ssr:stedsnr" v="1015984" />
		<tag k="ssr:type" v="adressenavn" />
	</node>
	<node lat="60.2407120858566" lon="10.36930219976822" id="-35640">
		<tag k="name" v="Bergerkneika" />
		<tag k="ssr:date" v="2019-12-27" />
		<tag k="ssr:gruppe" v="veg" />
		<tag k="ssr:hovedgruppe" v="infrastruktur" />
		<tag k="ssr:stedsnr" v="1015985" />
		<tag k="ssr:type" v="adressenavn" />
	</node>
	<node lat="60.269206657058405" lon="10.475225761693482" id="-35641">
		<tag k="name" v="Rådyrvegen" />
		<tag k="ssr:date" v="2019-12-27" />
		<tag k="ssr:gruppe" v="veg" />
		<tag k="ssr:hovedgruppe" v="infrastruktur" />
		<tag k="ssr:stedsnr" v="1016030" />
		<tag k="ssr:type" v="adressenavn" />
	</node>
	<node lat="60.24029130899228" lon="10.40864151854079" id="-35642">
		<tag k="name" v="Elvegata" />
		<tag k="ssr:date" v="2019-12-27" />
		<tag k="ssr:gruppe" v="veg" />
		<tag k="ssr:hovedgruppe" v="infrastruktur" />
		<tag k="ssr:stedsnr" v="1016031" />
		<tag k="ssr:type" v="adressenavn" />
	</node>
	<node lat="60.24002861246703" lon="10.407284977144807" id="-35643">
		<tag k="name" v="Krystallen" />
		<tag k="ssr:date" v="2019-12-27" />
		<tag k="ssr:gruppe" v="veg" />
		<tag k="ssr:hovedgruppe" v="infrastruktur" />
		<tag k="ssr:stedsnr" v="1016033" />
		<tag k="ssr:type" v="adressenavn" />
	</node>
	<node lat="60.23881077830582" lon="10.405788227860793" id="-35644">
		<tag k="name" v="Glassheimvegen" />
		<tag k="ssr:date" v="2019-12-27" />
		<tag k="ssr:gruppe" v="veg" />
		<tag k="ssr:hovedgruppe" v="infrastruktur" />
		<tag k="ssr:stedsnr" v="1016035" />
		<tag k="ssr:type" v="adressenavn" />
	</node>
	<node lat="60.222689810491644" lon="10.347253680779557" id="-35645">
		<tag k="name" v="Eggemoveien" />
		<tag k="ssr:date" v="2019-12-27" />
		<tag k="ssr:gruppe" v="veg" />
		<tag k="ssr:hovedgruppe" v="infrastruktur" />
		<tag k="ssr:stedsnr" v="1073336" />
		<tag k="ssr:type" v="adressenavn" />
	</node>
</osm>
