<?xml version="1.0" encoding="UTF-8"?>
<osm generator="osmapis" version="0.6">
	<node id="-183786" lat="60.1906698503" lon="9.69812802366">
		<tag k="fixme" v="consider boundary=protected_area and relevant protect_class if not nature reserve" />
		<tag k="leisure" v="nature_reserve" />
		<tag k="name" v="Knipetjennåsen naturreservat" />
		<tag k="ssr:stedsnr" v="971497" />
	</node>
	<node id="-182554" lat="60.1157972185" lon="9.61718888158">
		<tag k="historic" v="boundary_stone" />
		<tag k="man_made" v="cairn" />
		<tag k="name" v="Vikivollstein" />
		<tag k="place" v="locality" />
		<tag k="ssr:stedsnr" v="277658" />
	</node>
	<node id="-183321" lat="60.1809333373" lon="9.77794999619">
		<tag k="fixme" v="consider boundary=protected_area and relevant protect_class if not nature reserve" />
		<tag k="leisure" v="nature_reserve" />
		<tag k="name" v="Storrmyran naturreservat" />
		<tag k="ssr:stedsnr" v="508367" />
	</node>
	<node id="-183509" lat="60.1728861108" lon="9.49179999735">
		<tag k="historic" v="boundary_stone" />
		<tag k="man_made" v="cairn" />
		<tag k="name" v="Lakserudrøysa" />
		<tag k="place" v="locality" />
		<tag k="ssr:stedsnr" v="698658" />
	</node>
	<node id="-182739" lat="60.2457886964" lon="9.58384182178">
		<tag k="fixme" v="consider boundary=protected_area and relevant protect_class if not nature reserve" />
		<tag k="leisure" v="nature_reserve" />
		<tag k="name" v="Surtebergflaget naturreservat" />
		<tag k="ssr:stedsnr" v="981230" />
	</node>
	<node id="-182730" lat="60.3264783967" lon="9.55712842378">
		<tag k="fixme" v="consider boundary=protected_area and relevant protect_class if not nature reserve" />
		<tag k="leisure" v="nature_reserve" />
		<tag k="name" v="Hestgjuvnatten naturreservat" />
		<tag k="ssr:stedsnr" v="1072097" />
	</node>
	<node id="-182886" lat="60.2941099884" lon="9.53305821718">
		<tag k="fixme" v="consider boundary=protected_area and relevant protect_class if not nature reserve" />
		<tag k="leisure" v="nature_reserve" />
		<tag k="name" v="Laksejuv naturreservat" />
		<tag k="ssr:stedsnr" v="985572" />
	</node>
</osm>
