<?xml version="1.0" encoding="UTF-8"?>
<osm generator="osmapis" version="0.6">
	<node id="-183282" lat="60.1915138907" lon="9.74527499559">
		<tag k="name" v="Bleikmyrstykket" />
		<tag k="natural" v="wetland" />
		<tag k="ssr:stedsnr" v="459870" />
	</node>
	<node id="-183274" lat="60.2869388887" lon="9.64066944412">
		<tag k="name" v="Tråmyr" />
		<tag k="natural" v="wetland" />
		<tag k="ssr:stedsnr" v="459331" />
	</node>
	<node id="-183783" lat="60.2065277749" lon="9.53316111886">
		<tag k="name" v="Hekletjennmyr" />
		<tag k="natural" v="wetland" />
		<tag k="ssr:stedsnr" v="946839" />
	</node>
	<node id="-183779" lat="60.2235694486" lon="9.66755832848">
		<tag k="name" v="Dammyra" />
		<tag k="natural" v="wetland" />
		<tag k="ssr:stedsnr" v="946542" />
	</node>
	<node id="-183777" lat="60.2366805574" lon="9.63199999874">
		<tag k="landuse" v="meadow" />
		<tag k="name" v="Vinnaslåtta" />
		<tag k="ssr:stedsnr" v="945516" />
	</node>
	<node id="-183263" lat="60.1057805525" lon="9.82746111842">
		<tag k="name" v="Tubbemyr" />
		<tag k="natural" v="wetland" />
		<tag k="ssr:stedsnr" v="458669" />
	</node>
	<node id="-183774" lat="60.2381166632" lon="9.67428333666">
		<tag k="name" v="Gåranstillingmyra" />
		<tag k="natural" v="wetland" />
		<tag k="ssr:stedsnr" v="944968" />
	</node>
	<node id="-183770" lat="60.2489999962" lon="9.73654444128">
		<tag k="name" v="Langemyr" />
		<tag k="natural" v="wetland" />
		<tag k="ssr:stedsnr" v="944672" />
	</node>
	<node id="-183765" lat="60.1488666709" lon="9.57881389597">
		<tag k="historic" v="shieling" />
		<tag k="name" v="Persetra" />
		<tag k="place" v="locality" />
		<tag k="ssr:stedsnr" v="944349" />
	</node>
	<node id="-183248" lat="60.1662222207" lon="9.84446388218">
		<tag k="name" v="Nysetermyra" />
		<tag k="natural" v="wetland" />
		<tag k="ssr:stedsnr" v="430760" />
	</node>
	<node id="-183757" lat="60.1769749964" lon="9.83642500259">
		<tag k="historic" v="shieling" />
		<tag k="name" v="Gamlesetra" />
		<tag k="place" v="locality" />
		<tag k="ssr:stedsnr" v="943443" />
	</node>
	<node id="-183751" lat="60.2254277809" lon="9.52226945319">
		<tag k="name" v="Bøsetermyra" />
		<tag k="natural" v="wetland" />
		<tag k="ssr:stedsnr" v="932212" />
	</node>
	<node id="-182723" lat="60.1448611118" lon="9.56190832588">
		<tag k="name" v="Torkildsmyr" />
		<tag k="natural" v="wetland" />
		<tag k="ssr:stedsnr" v="885175" />
	</node>
	<node id="-182721" lat="60.2105611142" lon="9.67127500665">
		<tag k="name" v="Venemyr" />
		<tag k="natural" v="wetland" />
		<tag k="ssr:stedsnr" v="885118" />
	</node>
	<node id="-182720" lat="60.2453805517" lon="9.67686111159">
		<tag k="name" v="Salfaumyr" />
		<tag k="natural" v="wetland" />
		<tag k="ssr:stedsnr" v="884976" />
	</node>
	<node id="-182718" lat="60.1757638846" lon="9.74750833334">
		<tag k="landuse" v="meadow" />
		<tag k="name" v="Råenbråtan" />
		<tag k="ssr:stedsnr" v="884840" />
	</node>
	<node id="-183229" lat="60.2779333319" lon="9.74651665804">
		<tag k="name" v="Mastemyr" />
		<tag k="natural" v="wetland" />
		<tag k="ssr:stedsnr" v="249632" />
	</node>
	<node id="-183740" lat="60.1600500032" lon="9.76206111503">
		<tag k="name" v="Digermyr" />
		<tag k="natural" v="wetland" />
		<tag k="ssr:stedsnr" v="915763" />
	</node>
	<node id="-182714" lat="60.0954499956" lon="9.71004722598">
		<tag k="name" v="Gørrmyr" />
		<tag k="natural" v="wetland" />
		<tag k="ssr:stedsnr" v="884357" />
	</node>
	<node id="-182711" lat="60.1171944444" lon="9.63300000302">
		<tag k="historic" v="shieling" />
		<tag k="name" v="Hovdensetra" />
		<tag k="place" v="locality" />
		<tag k="ssr:stedsnr" v="884287" />
	</node>
	<node id="-182710" lat="60.1503722221" lon="9.58819444088">
		<tag k="landuse" v="meadow" />
		<tag k="name" v="Bakkebråtan" />
		<tag k="ssr:stedsnr" v="884270" />
	</node>
	<node id="-182599" lat="60.1833749969" lon="9.66042499573">
		<tag k="name" v="Veslesetermyra" />
		<tag k="natural" v="wetland" />
		<tag k="ssr:stedsnr" v="326691" />
	</node>
	<node id="-182695" lat="60.198038886" lon="9.60351111278">
		<tag k="name" v="Smedsrud" />
		<tag k="place" v="locality" />
		<tag k="ssr:stedsnr" v="399537" />
	</node>
	<node id="-182598" lat="60.1836638884" lon="9.77803333556">
		<tag k="name" v="Storrmyran" />
		<tag k="natural" v="wetland" />
		<tag k="ssr:stedsnr" v="326361" />
	</node>
	<node id="-182676" lat="60.103486108" lon="9.70893055948">
		<tag k="name" v="Persbråtamyra" />
		<tag k="natural" v="wetland" />
		<tag k="ssr:stedsnr" v="398349" />
	</node>
	<node id="-182683" lat="60.2207222197" lon="9.72406945052">
		<tag k="landuse" v="meadow" />
		<tag k="name" v="Steinhusbråten" />
		<tag k="ssr:stedsnr" v="398578" />
	</node>
	<node id="-183191" lat="60.2191805598" lon="9.62958889707">
		<tag k="name" v="Munkebakken" />
		<tag k="place" v="locality" />
		<tag k="ssr:stedsnr" v="218546" />
	</node>
	<node id="-182677" lat="60.1005750026" lon="9.72104166104">
		<tag k="name" v="Slåttemyr" />
		<tag k="natural" v="wetland" />
		<tag k="ssr:stedsnr" v="398351" />
	</node>
	<node id="-183188" lat="60.2555305582" lon="9.61655000509">
		<tag k="name" v="Møllejordet" />
		<tag k="place" v="locality" />
		<tag k="ssr:stedsnr" v="218000" />
	</node>
	<node id="-182675" lat="60.2084888905" lon="9.77912778199">
		<tag k="name" v="Svartemyr" />
		<tag k="natural" v="wetland" />
		<tag k="ssr:stedsnr" v="398339" />
	</node>
	<node id="-182673" lat="60.1121555599" lon="9.65498333046">
		<tag k="historic" v="shieling" />
		<tag k="name" v="Glasrudsetra" />
		<tag k="place" v="locality" />
		<tag k="ssr:stedsnr" v="398297" />
	</node>
	<node id="-182672" lat="60.1246944428" lon="9.63625000743">
		<tag k="name" v="Kalenemyr" />
		<tag k="natural" v="wetland" />
		<tag k="ssr:stedsnr" v="398294" />
	</node>
	<node id="-183183" lat="60.2925861102" lon="9.58797500743">
		<tag k="name" v="Reinemyrene" />
		<tag k="natural" v="wetland" />
		<tag k="ssr:stedsnr" v="217350" />
	</node>
	<node id="-183182" lat="60.1837249967" lon="9.55534721464">
		<tag k="name" v="Moen" />
		<tag k="place" v="locality" />
		<tag k="ssr:stedsnr" v="218140" />
	</node>
	<node id="-183179" lat="60.1880249989" lon="9.75805556193">
		<tag k="name" v="Drapstein" />
		<tag k="natural" v="stone" />
		<tag k="ssr:stedsnr" v="216865" />
	</node>
	<node id="-183171" lat="60.0898333369" lon="9.74722499719">
		<tag k="name" v="Grinimyr" />
		<tag k="natural" v="wetland" />
		<tag k="ssr:stedsnr" v="216366" />
	</node>
	<node id="-183680" lat="60.1840916664" lon="9.73619166467">
		<tag k="name" v="Kittilbråtamyr" />
		<tag k="natural" v="wetland" />
		<tag k="ssr:stedsnr" v="823715" />
	</node>
	<node id="-183679" lat="60.1218972179" lon="9.61079721414">
		<tag k="name" v="Stormyra" />
		<tag k="natural" v="wetland" />
		<tag k="ssr:stedsnr" v="823624" />
	</node>
	<node id="-183675" lat="60.2419583306" lon="9.70012500728">
		<tag k="name" v="Langemyr" />
		<tag k="natural" v="wetland" />
		<tag k="ssr:stedsnr" v="823412" />
	</node>
	<node id="-183671" lat="60.2075861134" lon="9.77194722575">
		<tag k="name" v="Stormyr" />
		<tag k="natural" v="wetland" />
		<tag k="ssr:stedsnr" v="823359" />
	</node>
	<node id="-183669" lat="60.2022638875" lon="9.76218332441">
		<tag k="historic" v="shieling" />
		<tag k="name" v="Sleviksetra" />
		<tag k="place" v="locality" />
		<tag k="ssr:stedsnr" v="823350" />
	</node>
	<node id="-183667" lat="60.1354111103" lon="9.66924723037">
		<tag k="name" v="Slåttemyr" />
		<tag k="natural" v="wetland" />
		<tag k="ssr:stedsnr" v="823281" />
	</node>
	<node id="-182642" lat="60.1836777777" lon="9.76626944782">
		<tag k="name" v="Stormyra" />
		<tag k="natural" v="wetland" />
		<tag k="ssr:stedsnr" v="369141" />
	</node>
	<node id="-183661" lat="60.1888361113" lon="9.58700000852">
		<tag k="name" v="Setermyr" />
		<tag k="natural" v="wetland" />
		<tag k="ssr:stedsnr" v="823067" />
	</node>
	<node id="-183271" lat="60.1503750033" lon="9.60751389362">
		<tag k="name" v="Kloppmyr" />
		<tag k="natural" v="wetland" />
		<tag k="ssr:stedsnr" v="459293" />
	</node>
	<node id="-183656" lat="60.1438750019" lon="9.85612499221">
		<tag k="historic" v="shieling" />
		<tag k="name" v="Vassendrudsetra" />
		<tag k="place" v="locality" />
		<tag k="ssr:stedsnr" v="822766" />
	</node>
	<node id="-182631" lat="60.209447219" lon="9.67794166119">
		<tag k="name" v="Langemyr" />
		<tag k="natural" v="wetland" />
		<tag k="ssr:stedsnr" v="339133" />
	</node>
	<node id="-182630" lat="60.2020833329" lon="9.67536111049">
		<tag k="historic" v="shieling" />
		<tag k="name" v="Bjertnessetra" />
		<tag k="place" v="locality" />
		<tag k="ssr:stedsnr" v="339132" />
	</node>
	<node id="-182628" lat="60.2469138914" lon="9.65656945287">
		<tag k="landuse" v="meadow" />
		<tag k="name" v="Kallebråtan" />
		<tag k="ssr:stedsnr" v="338981" />
	</node>
	<node id="-182627" lat="60.2480055536" lon="9.65314443849">
		<tag k="landuse" v="meadow" />
		<tag k="name" v="Perbråtan" />
		<tag k="ssr:stedsnr" v="338977" />
	</node>
	<node id="-183649" lat="60.2968027792" lon="9.59821943574">
		<tag k="name" v="Langemyr" />
		<tag k="natural" v="wetland" />
		<tag k="ssr:stedsnr" v="795691" />
	</node>
	<node id="-183035" lat="60.1232638913" lon="9.6750555633">
		<tag k="name" v="Breskemyra" />
		<tag k="natural" v="wetland" />
		<tag k="ssr:stedsnr" v="95293" />
	</node>
	<node id="-182621" lat="60.306199999" lon="9.63129444311">
		<tag k="name" v="Jakopsmyr" />
		<tag k="natural" v="wetland" />
		<tag k="ssr:stedsnr" v="338380" />
	</node>
	<node id="-182620" lat="60.2129722266" lon="9.66050833386">
		<tag k="name" v="Hellemyr" />
		<tag k="natural" v="wetland" />
		<tag k="ssr:stedsnr" v="338341" />
	</node>
	<node id="-182619" lat="60.2839527757" lon="9.64496666104">
		<tag k="name" v="Tretjennmyr" />
		<tag k="natural" v="wetland" />
		<tag k="ssr:stedsnr" v="338289" />
	</node>
	<node id="-182616" lat="60.1637944413" lon="9.73986389705">
		<tag k="name" v="Sandmostykket" />
		<tag k="place" v="locality" />
		<tag k="ssr:stedsnr" v="337855" />
	</node>
	<node id="-182612" lat="60.2697111127" lon="9.59326389368">
		<tag k="historic" v="shieling" />
		<tag k="name" v="Skolsetervollen" />
		<tag k="place" v="locality" />
		<tag k="ssr:stedsnr" v="337445" />
	</node>
	<node id="-182611" lat="60.0940361128" lon="9.73984721839">
		<tag k="name" v="Flåmyran" />
		<tag k="natural" v="wetland" />
		<tag k="ssr:stedsnr" v="337424" />
	</node>
	<node id="-182610" lat="60.0993222226" lon="9.78412776963">
		<tag k="historic" v="shieling" />
		<tag k="name" v="Jensseter" />
		<tag k="place" v="locality" />
		<tag k="ssr:stedsnr" v="337419" />
	</node>
	<node id="-182609" lat="60.2004916662" lon="9.77633888923">
		<tag k="name" v="Gutemyr" />
		<tag k="natural" v="wetland" />
		<tag k="ssr:stedsnr" v="337409" />
	</node>
	<node id="-182608" lat="60.1965055571" lon="9.76445000339">
		<tag k="name" v="Tørjermyr" />
		<tag k="natural" v="wetland" />
		<tag k="ssr:stedsnr" v="337405" />
	</node>
	<node id="-182605" lat="60.1834027744" lon="9.57840556305">
		<tag k="name" v="Kloppmyr" />
		<tag k="natural" v="wetland" />
		<tag k="ssr:stedsnr" v="337071" />
	</node>
	<node id="-182603" lat="60.1141972206" lon="9.83645833509">
		<tag k="name" v="Kroktjennmyra" />
		<tag k="natural" v="wetland" />
		<tag k="ssr:stedsnr" v="336765" />
	</node>
	<node id="-183625" lat="60.2057750007" lon="9.51428611355">
		<tag k="name" v="Storrmyra" />
		<tag k="natural" v="wetland" />
		<tag k="ssr:stedsnr" v="764870" />
	</node>
	<node id="-182600" lat="60.1926138858" lon="9.79875833842">
		<tag k="name" v="Lunnemyr" />
		<tag k="natural" v="wetland" />
		<tag k="ssr:stedsnr" v="336412" />
	</node>
	<node id="-183111" lat="60.2412499979" lon="9.65856943589">
		<tag k="name" v="Treputtmyra" />
		<tag k="natural" v="wetland" />
		<tag k="ssr:stedsnr" v="156986" />
	</node>
	<node id="-183622" lat="60.2422222244" lon="9.64766666308">
		<tag k="landuse" v="meadow" />
		<tag k="name" v="Vikbråtan" />
		<tag k="ssr:stedsnr" v="763743" />
	</node>
	<node id="-182597" lat="60.210563887" lon="9.51491945026">
		<tag k="name" v="Fosslisetermyra" />
		<tag k="natural" v="wetland" />
		<tag k="ssr:stedsnr" v="325225" />
	</node>
	<node id="-183620" lat="60.2213694437" lon="9.58578888677">
		<tag k="landuse" v="meadow" />
		<tag k="name" v="Gulslåtta" />
		<tag k="ssr:stedsnr" v="763630" />
	</node>
	<node id="-183615" lat="60.243566668" lon="9.67518332773">
		<tag k="name" v="Stillingmyra" />
		<tag k="natural" v="wetland" />
		<tag k="ssr:stedsnr" v="762969" />
	</node>
	<node id="-183614" lat="60.2397250002" lon="9.60167777027">
		<tag k="name" v="Jordesjorde" />
		<tag k="place" v="locality" />
		<tag k="ssr:stedsnr" v="762882" />
	</node>
	<node id="-183101" lat="60.269633336" lon="9.75083888127">
		<tag k="name" v="Jehansbråtamyr" />
		<tag k="natural" v="wetland" />
		<tag k="ssr:stedsnr" v="155638" />
	</node>
	<node id="-183612" lat="60.1912166703" lon="9.73567222944">
		<tag k="name" v="Gravningsmyr" />
		<tag k="natural" v="wetland" />
		<tag k="ssr:stedsnr" v="762856" />
	</node>
	<node id="-183099" lat="60.1960944486" lon="9.76950000208">
		<tag k="landuse" v="meadow" />
		<tag k="name" v="Brennbråtan" />
		<tag k="ssr:stedsnr" v="155376" />
	</node>
	<node id="-183609" lat="60.1798749994" lon="9.72266389217">
		<tag k="name" v="Oppkjøringsmyr" />
		<tag k="natural" v="wetland" />
		<tag k="ssr:stedsnr" v="762730" />
	</node>
	<node id="-183094" lat="60.1189861143" lon="9.7092638977">
		<tag k="name" v="Stormyra" />
		<tag k="natural" v="wetland" />
		<tag k="ssr:stedsnr" v="155078" />
	</node>
	<node id="-183093" lat="60.1258027775" lon="9.70629999607">
		<tag k="landuse" v="meadow" />
		<tag k="name" v="Erikbråten" />
		<tag k="ssr:stedsnr" v="155077" />
	</node>
	<node id="-183604" lat="60.2216472251" lon="9.75664166934">
		<tag k="name" v="Kjellarmyr" />
		<tag k="natural" v="wetland" />
		<tag k="ssr:stedsnr" v="762566" />
	</node>
	<node id="-183602" lat="60.1864444402" lon="9.61510554699">
		<tag k="name" v="Sunnelykkja" />
		<tag k="place" v="locality" />
		<tag k="ssr:stedsnr" v="762525" />
	</node>
	<node id="-183089" lat="60.1216833319" lon="9.85980277526">
		<tag k="alt_name" v="Vintervegmyra" />
		<tag k="name" v="Vinterveimyra" />
		<tag k="natural" v="wetland" />
		<tag k="ssr:stedsnr" v="154806" />
	</node>
	<node id="-183088" lat="60.109619442" lon="9.8009416581">
		<tag k="name" v="Sauterudhallen" />
		<tag k="place" v="locality" />
		<tag k="ssr:stedsnr" v="154671" />
	</node>
	<node id="-183599" lat="60.093430559" lon="9.75094999929">
		<tag k="name" v="Grisemyr" />
		<tag k="natural" v="wetland" />
		<tag k="ssr:stedsnr" v="762370" />
	</node>
	<node id="-183597" lat="60.100805558" lon="9.69595277356">
		<tag k="name" v="Reiersmyr" />
		<tag k="natural" v="wetland" />
		<tag k="ssr:stedsnr" v="762363" />
	</node>
	<node id="-182578" lat="60.1492027742" lon="9.5456166606">
		<tag k="name" v="Holløkmyra" />
		<tag k="natural" v="wetland" />
		<tag k="ssr:stedsnr" v="308376" />
	</node>
	<node id="-183077" lat="60.2804749996" lon="9.6076000028">
		<tag k="name" v="Jordesmyr" />
		<tag k="natural" v="wetland" />
		<tag k="ssr:stedsnr" v="127690" />
	</node>
	<node id="-183588" lat="60.1809194439" lon="9.6339305538">
		<tag k="name" v="Havna" />
		<tag k="place" v="locality" />
		<tag k="ssr:stedsnr" v="762057" />
	</node>
	<node id="-183585" lat="60.1484277742" lon="9.8770527692">
		<tag k="name" v="Delingsmyr" />
		<tag k="natural" v="wetland" />
		<tag k="ssr:stedsnr" v="761803" />
	</node>
	<node id="-183584" lat="60.1719444448" lon="9.79791666306">
		<tag k="name" v="Hyttemyr" />
		<tag k="natural" v="wetland" />
		<tag k="ssr:stedsnr" v="761498" />
	</node>
	<node id="-182556" lat="60.1588416689" lon="9.78043611957">
		<tag k="name" v="Damtjennmyr" />
		<tag k="natural" v="wetland" />
		<tag k="ssr:stedsnr" v="277850" />
	</node>
	<node id="-183258" lat="60.1863361126" lon="9.56380832912">
		<tag k="name" v="Urdaberget" />
		<tag k="natural" v="wetland" />
		<tag k="ssr:stedsnr" v="446259" />
	</node>
	<node id="-182552" lat="60.2179027796" lon="9.76480556345">
		<tag k="landuse" v="meadow" />
		<tag k="name" v="Dalabråten" />
		<tag k="ssr:stedsnr" v="277593" />
	</node>
	<node id="-182550" lat="60.2643611107" lon="9.5803277726">
		<tag k="historic" v="shieling" />
		<tag k="name" v="Gudbrandvollen" />
		<tag k="place" v="locality" />
		<tag k="ssr:stedsnr" v="277408" />
	</node>
	<node id="-183061" lat="60.1802250027" lon="9.78124999545">
		<tag k="name" v="Orremyr" />
		<tag k="natural" v="wetland" />
		<tag k="ssr:stedsnr" v="126132" />
	</node>
	<node id="-183060" lat="60.1791416631" lon="9.84638334055">
		<tag k="name" v="Saumyra" />
		<tag k="natural" v="wetland" />
		<tag k="ssr:stedsnr" v="126130" />
	</node>
	<node id="-183683" lat="60.1850416695" lon="9.75924722641">
		<tag k="name" v="Stormyr" />
		<tag k="natural" v="wetland" />
		<tag k="ssr:stedsnr" v="823828" />
	</node>
	<node id="-183053" lat="60.2056861126" lon="9.59888610423">
		<tag k="landuse" v="meadow" />
		<tag k="name" v="Larsbråten" />
		<tag k="ssr:stedsnr" v="96348" />
	</node>
	<node id="-182539" lat="60.1509027821" lon="9.61155000603">
		<tag k="name" v="Kloppmyr" />
		<tag k="natural" v="wetland" />
		<tag k="ssr:stedsnr" v="276922" />
	</node>
	<node id="-183050" lat="60.1786472218" lon="9.76559445107">
		<tag k="historic" v="shieling" />
		<tag k="name" v="Sømosetra" />
		<tag k="place" v="locality" />
		<tag k="ssr:stedsnr" v="95870" />
	</node>
	<node id="-182536" lat="60.245105557" lon="9.73994167153">
		<tag k="name" v="Slåttemyr" />
		<tag k="natural" v="wetland" />
		<tag k="ssr:stedsnr" v="276716" />
	</node>
	<node id="-183047" lat="60.1657638875" lon="9.78625832831">
		<tag k="name" v="Kastmyr" />
		<tag k="natural" v="wetland" />
		<tag k="ssr:stedsnr" v="95814" />
	</node>
	<node id="-183045" lat="60.1732805513" lon="9.68335277191">
		<tag k="name" v="Heia" />
		<tag k="place" v="locality" />
		<tag k="ssr:stedsnr" v="95733" />
	</node>
	<node id="-183044" lat="60.1940472246" lon="9.60725832465">
		<tag k="landuse" v="quarry" />
		<tag k="name" v="Braket" />
		<tag k="ssr:stedsnr" v="95490" />
	</node>
	<node id="-183042" lat="60.2700527804" lon="9.59034722668">
		<tag k="name" v="Geitemyr" />
		<tag k="natural" v="wetland" />
		<tag k="ssr:stedsnr" v="95381" />
	</node>
	<node id="-183041" lat="60.2506472264" lon="9.71100277349">
		<tag k="name" v="Lomtjennstein" />
		<tag k="natural" v="stone" />
		<tag k="ssr:stedsnr" v="95357" />
	</node>
	<node id="-182915" lat="60.182994447" lon="9.83460000384">
		<tag k="name" v="Flåmyran" />
		<tag k="natural" v="wetland" />
		<tag k="ssr:stedsnr" v="5128" />
	</node>
	<node id="-183037" lat="60.1990472225" lon="9.77202222766">
		<tag k="name" v="Gampemyr" />
		<tag k="natural" v="wetland" />
		<tag k="ssr:stedsnr" v="95324" />
	</node>
	<node id="-183036" lat="60.1983611091" lon="9.77761944336">
		<tag k="name" v="Steinbekkmyr" />
		<tag k="natural" v="wetland" />
		<tag k="ssr:stedsnr" v="95322" />
	</node>
	<node id="-183547" lat="60.2194249986" lon="9.67006945115">
		<tag k="name" v="Svendstykket" />
		<tag k="place" v="locality" />
		<tag k="ssr:stedsnr" v="703601" />
	</node>
	<node id="-183544" lat="60.214427777" lon="9.58621945269">
		<tag k="landuse" v="meadow" />
		<tag k="name" v="Ringnesslåtta" />
		<tag k="ssr:stedsnr" v="703370" />
	</node>
	<node id="-183543" lat="60.2023388876" lon="9.56578055381">
		<tag k="name" v="Damtjennmyra" />
		<tag k="natural" v="wetland" />
		<tag k="ssr:stedsnr" v="703369" />
	</node>
	<node id="-183029" lat="60.1827499988" lon="9.56911666863">
		<tag k="name" v="Jensrud" />
		<tag k="place" v="locality" />
		<tag k="ssr:stedsnr" v="95065" />
	</node>
	<node id="-183537" lat="60.1926499995" lon="9.76729999571">
		<tag k="name" v="Fjerdingsmyr" />
		<tag k="natural" v="wetland" />
		<tag k="ssr:stedsnr" v="701869" />
	</node>
	<node id="-183022" lat="60.1629361091" lon="9.58544722398">
		<tag k="name" v="Høljordet" />
		<tag k="place" v="locality" />
		<tag k="ssr:stedsnr" v="94649" />
	</node>
	<node id="-183533" lat="60.2686805531" lon="9.7048277702">
		<tag k="landuse" v="meadow" />
		<tag k="name" v="Asbråten" />
		<tag k="ssr:stedsnr" v="701695" />
	</node>
	<node id="-183526" lat="60.16321667" lon="9.58916667192">
		<tag k="landuse" v="meadow" />
		<tag k="name" v="Hølbråten" />
		<tag k="ssr:stedsnr" v="701638" />
	</node>
	<node id="-183525" lat="60.20024722" lon="9.7392527862">
		<tag k="landuse" v="meadow" />
		<tag k="name" v="Elvebråten" />
		<tag k="ssr:stedsnr" v="701597" />
	</node>
	<node id="-183521" lat="60.0999777767" lon="9.71522777033">
		<tag k="name" v="Småmyran" />
		<tag k="natural" v="wetland" />
		<tag k="ssr:stedsnr" v="701473" />
	</node>
	<node id="-183515" lat="60.1874055539" lon="9.67839166127">
		<tag k="name" v="Delingsmyr" />
		<tag k="natural" v="wetland" />
		<tag k="ssr:stedsnr" v="701064" />
	</node>
	<node id="-182533" lat="60.3128777798" lon="9.67688888111">
		<tag k="landuse" v="meadow" />
		<tag k="name" v="Drakonbråten" />
		<tag k="ssr:stedsnr" v="276578" />
	</node>
	<node id="-182996" lat="60.1990444403" lon="9.50994445201">
		<tag k="name" v="Hesjamyra" />
		<tag k="natural" v="wetland" />
		<tag k="ssr:stedsnr" v="65486" />
	</node>
	<node id="-182981" lat="60.2488083305" lon="9.65927777346">
		<tag k="name" v="Dammanmyra" />
		<tag k="natural" v="wetland" />
		<tag k="ssr:stedsnr" v="35982" />
	</node>
	<node id="-182977" lat="60.2388611125" lon="9.64643611719">
		<tag k="landuse" v="meadow" />
		<tag k="name" v="Grenslåtta" />
		<tag k="ssr:stedsnr" v="35760" />
	</node>
	<node id="-182975" lat="60.2320972226" lon="9.59641388576">
		<tag k="landuse" v="meadow" />
		<tag k="name" v="Lyngbråten" />
		<tag k="ssr:stedsnr" v="35696" />
	</node>
	<node id="-182970" lat="60.2443555596" lon="9.67053610948">
		<tag k="name" v="Fugleleikmyra" />
		<tag k="natural" v="wetland" />
		<tag k="ssr:stedsnr" v="34977" />
	</node>
	<node id="-182969" lat="60.1797472237" lon="9.7538194397">
		<tag k="name" v="Karlemyr" />
		<tag k="natural" v="wetland" />
		<tag k="ssr:stedsnr" v="34833" />
	</node>
	<node id="-183265" lat="60.1536916691" lon="9.59722777053">
		<tag k="landuse" v="meadow" />
		<tag k="name" v="Bakkebråten" />
		<tag k="ssr:stedsnr" v="458905" />
	</node>
	<node id="-183657" lat="60.1110194418" lon="9.81519721569">
		<tag k="name" v="Puttemyran" />
		<tag k="natural" v="wetland" />
		<tag k="ssr:stedsnr" v="822780" />
	</node>
	<node id="-183473" lat="60.1814638918" lon="9.54894166878">
		<tag k="name" v="Diplemyr" />
		<tag k="natural" v="wetland" />
		<tag k="old_name" v="Diolemyr" />
		<tag k="ssr:stedsnr" v="642133" />
	</node>
	<node id="-182959" lat="60.3074527736" lon="9.62792222938">
		<tag k="landuse" v="meadow" />
		<tag k="name" v="Jakopsbråtan" />
		<tag k="ssr:stedsnr" v="34404" />
	</node>
	<node id="-183469" lat="60.2513861124" lon="9.66761388259">
		<tag k="landuse" v="meadow" />
		<tag k="name" v="Jonbråtan" />
		<tag k="ssr:stedsnr" v="640985" />
	</node>
	<node id="-182956" lat="60.2484361093" lon="9.68680555529">
		<tag k="name" v="Blodfjellmyra" />
		<tag k="natural" v="wetland" />
		<tag k="ssr:stedsnr" v="34378" />
	</node>
	<node id="-182953" lat="60.2025361132" lon="9.77748889612">
		<tag k="landuse" v="meadow" />
		<tag k="name" v="Storebråten" />
		<tag k="ssr:stedsnr" v="34337" />
	</node>
	<node id="-183462" lat="60.1880888879" lon="9.7561305609">
		<tag k="name" v="Delingsmyr" />
		<tag k="natural" v="wetland" />
		<tag k="ssr:stedsnr" v="640866" />
	</node>
	<node id="-182948" lat="60.114188889" lon="9.64522221381">
		<tag k="historic" v="shieling" />
		<tag k="name" v="Torstenrudsetra" />
		<tag k="place" v="locality" />
		<tag k="ssr:stedsnr" v="34296" />
	</node>
	<node id="-182947" lat="60.1354722256" lon="9.66577777141">
		<tag k="name" v="Oksemyr" />
		<tag k="natural" v="wetland" />
		<tag k="ssr:stedsnr" v="34285" />
	</node>
	<node id="-183458" lat="60.1743861073" lon="9.7223333277">
		<tag k="name" v="Bygningsmyr" />
		<tag k="natural" v="wetland" />
		<tag k="ssr:stedsnr" v="640754" />
	</node>
	<node id="-183457" lat="60.1839722194" lon="9.7276444418">
		<tag k="name" v="Bjønnemyr" />
		<tag k="natural" v="wetland" />
		<tag k="ssr:stedsnr" v="640748" />
	</node>
	<node id="-183454" lat="60.3012805527" lon="9.69541944724">
		<tag k="historic" v="shieling" />
		<tag k="name" v="Ørgenviksetra" />
		<tag k="place" v="locality" />
		<tag k="ssr:stedsnr" v="640538" />
	</node>
	<node id="-183451" lat="60.1033444482" lon="9.77140555843">
		<tag k="name" v="Gjellemyran" />
		<tag k="natural" v="wetland" />
		<tag k="ssr:stedsnr" v="640411" />
	</node>
	<node id="-182936" lat="60.2858250028" lon="9.68718888948">
		<tag k="name" v="Løren" />
		<tag k="place" v="locality" />
		<tag k="ssr:stedsnr" v="33593" />
	</node>
	<node id="-182934" lat="60.1701222245" lon="9.49127222466">
		<tag k="name" v="Omsmyra" />
		<tag k="natural" v="wetland" />
		<tag k="ssr:stedsnr" v="30634" />
	</node>
	<node id="-183441" lat="60.1901833372" lon="9.62607778333">
		<tag k="landuse" v="meadow" />
		<tag k="name" v="Sundebråten" />
		<tag k="ssr:stedsnr" v="640050" />
	</node>
	<node id="-182926" lat="60.293762524" lon="9.59535450943">
		<tag k="alt_name" v="Søndre Langemyr" />
		<tag k="name" v="Søre Langemyr" />
		<tag k="natural" v="wetland" />
		<tag k="ssr:stedsnr" v="6683" />
	</node>
	<node id="-183432" lat="60.2580277764" lon="9.60040278138">
		<tag k="name" v="Juvbråtan" />
		<tag k="place" v="locality" />
		<tag k="ssr:stedsnr" v="629362" />
	</node>
	<node id="-183427" lat="60.1179944458" lon="9.71604166727">
		<tag k="name" v="Flaglimyra" />
		<tag k="natural" v="wetland" />
		<tag k="ssr:stedsnr" v="611850" />
	</node>
	<node id="-182907" lat="60.1562305555" lon="9.8124388971">
		<tag k="name" v="Fuglemyran" />
		<tag k="natural" v="wetland" />
		<tag k="ssr:stedsnr" v="4803" />
	</node>
	<node id="-183413" lat="60.1799083296" lon="9.82704167337">
		<tag k="name" v="Gampemyra" />
		<tag k="natural" v="wetland" />
		<tag k="ssr:stedsnr" v="611120" />
	</node>
	<node id="-183406" lat="60.169438886" lon="9.75402221659">
		<tag k="name" v="Kittilbråtamyra" />
		<tag k="natural" v="wetland" />
		<tag k="ssr:stedsnr" v="580825" />
	</node>
	<node id="-183405" lat="60.1841000006" lon="9.70953332674">
		<tag k="name" v="Flåbergmyr" />
		<tag k="natural" v="wetland" />
		<tag k="ssr:stedsnr" v="580747" />
	</node>
	<node id="-183402" lat="60.230561107" lon="9.75071388568">
		<tag k="name" v="Nipemyr" />
		<tag k="natural" v="wetland" />
		<tag k="ssr:stedsnr" v="580561" />
	</node>
	<node id="-182716" lat="60.17438333" lon="9.70644166622">
		<tag k="landuse" v="meadow" />
		<tag k="name" v="Øvre Ospesnarbråten" />
		<tag k="ssr:stedsnr" v="884710" />
	</node>
	<node id="-182545" lat="60.1158277814" lon="9.71822222561">
		<tag k="name" v="Igletjennmyra" />
		<tag k="natural" v="wetland" />
		<tag k="ssr:stedsnr" v="277063" />
	</node>
	<node id="-183395" lat="60.1076361072" lon="9.7061305555">
		<tag k="landuse" v="meadow" />
		<tag k="name" v="Storebråtan" />
		<tag k="ssr:stedsnr" v="580315" />
	</node>
	<node id="-183389" lat="60.1132472181" lon="9.78324166356">
		<tag k="name" v="Strykmyra" />
		<tag k="natural" v="wetland" />
		<tag k="ssr:stedsnr" v="580011" />
	</node>
	<node id="-183344" lat="60.1524388886" lon="9.59972222634">
		<tag k="name" v="Bakkebråtamyr" />
		<tag k="natural" v="wetland" />
		<tag k="ssr:stedsnr" v="519901" />
	</node>
	<node id="-183342" lat="60.1050583321" lon="9.81117222306">
		<tag k="name" v="Ollemyr" />
		<tag k="natural" v="wetland" />
		<tag k="ssr:stedsnr" v="519638" />
	</node>
	<node id="-183337" lat="60.1354638923" lon="9.62596665929">
		<tag k="historic" v="shieling" />
		<tag k="name" v="Ødegårdsetra" />
		<tag k="place" v="locality" />
		<tag k="ssr:stedsnr" v="519320" />
	</node>
	<node id="-183335" lat="60.190536112" lon="9.58960555607">
		<tag k="landuse" v="meadow" />
		<tag k="name" v="Hestebråten" />
		<tag k="ssr:stedsnr" v="519132" />
	</node>
	<node id="-183334" lat="60.1933805574" lon="9.58873610546">
		<tag k="landuse" v="meadow" />
		<tag k="name" v="Blåbærbråten" />
		<tag k="ssr:stedsnr" v="519130" />
	</node>
	<node id="-183332" lat="60.1280527737" lon="9.83484443834">
		<tag k="name" v="Porsmyr" />
		<tag k="natural" v="wetland" />
		<tag k="ssr:stedsnr" v="519077" />
	</node>
	<node id="-182561" lat="60.2059027818" lon="9.56479166103">
		<tag k="name" v="Ølløkmyra" />
		<tag k="natural" v="wetland" />
		<tag k="ssr:stedsnr" v="278359" />
	</node>
	<node id="-183329" lat="60.1803555547" lon="9.59673056449">
		<tag k="name" v="Bergajordet" />
		<tag k="place" v="locality" />
		<tag k="ssr:stedsnr" v="519048" />
	</node>
	<node id="-183325" lat="60.122691664" lon="9.80264444098">
		<tag k="name" v="Svarttjennbrenna" />
		<tag k="place" v="locality" />
		<tag k="ssr:stedsnr" v="518755" />
	</node>
	<node id="-182957" lat="60.2433305559" lon="9.68927500684">
		<tag k="landuse" v="meadow" />
		<tag k="name" v="Blodfjellbråten" />
		<tag k="ssr:stedsnr" v="34382" />
	</node>
	<node id="-183306" lat="60.2416027812" lon="9.70671943904">
		<tag k="name" v="Stormyra" />
		<tag k="natural" v="wetland" />
		<tag k="ssr:stedsnr" v="490230" />
	</node>
	<node id="-182560" lat="60.2107500027" lon="9.56566667329">
		<tag k="name" v="Snekkermyra" />
		<tag k="natural" v="wetland" />
		<tag k="ssr:stedsnr" v="278357" />
	</node>
</osm>
