<?xml version="1.0" encoding="UTF-8"?>
<osm generator="osmapis" version="0.6">
	<node id="-182654" lat="60.2881416672" lon="9.70006111436">
		<tag k="layer" v="-1" />
		<tag k="name" v="Haverstingtunnelen" />
		<tag k="ssr:stedsnr" v="370668" />
		<tag k="tunnel" v="yes" />
	</node>
	<node id="-183157" lat="60.2740638924" lon="9.75470833915">
		<tag k="name" v="Langebakklunnestaden" />
		<tag k="place" v="locality" />
		<tag k="ssr:stedsnr" v="216647" />
	</node>
	<node id="-183412" lat="60.2307805586" lon="9.60069444033">
		<tag k="bridge" v="yes" />
		<tag k="layer" v="1" />
		<tag k="name" v="Bølingen" />
		<tag k="ssr:stedsnr" v="592994" />
	</node>
	<node id="-183411" lat="60.2686749958" lon="9.69238610475">
		<tag k="bridge" v="yes" />
		<tag k="layer" v="1" />
		<tag k="name" v="Enderud" />
		<tag k="ssr:stedsnr" v="592993" />
	</node>
	<node id="-183277" lat="60.1746861144" lon="9.72729999772">
		<tag k="fixme" v="consider highway=path" />
		<tag k="highway" v="track" />
		<tag k="name" v="Svingveien" />
		<tag k="ssr:stedsnr" v="459735" />
	</node>
	<node id="-183788" lat="60.2881778943" lon="9.7163325068">
		<tag k="layer" v="-1" />
		<tag k="name" v="Ørgenviktunnelen" />
		<tag k="ssr:stedsnr" v="976066" />
		<tag k="tunnel" v="yes" />
	</node>
	<node id="-182634" lat="60.1782888899" lon="9.62814443684">
		<tag k="bridge" v="yes" />
		<tag k="layer" v="1" />
		<tag k="name" v="Sole" />
		<tag k="ssr:stedsnr" v="350972" />
	</node>
	<node id="-183529" lat="60.1328194476" lon="9.61602499676">
		<tag k="name" v="Lunnestaden" />
		<tag k="place" v="locality" />
		<tag k="ssr:stedsnr" v="701649" />
	</node>
	<node id="-183784" lat="60.1173805564" lon="9.7265055504">
		<tag k="bridge" v="yes" />
		<tag k="layer" v="1" />
		<tag k="name" v="Flaglien" />
		<tag k="ssr:stedsnr" v="957990" />
	</node>
	<node id="-183270" lat="60.1503194448" lon="9.60077777326">
		<tag k="junction" v="yes" />
		<tag k="name" v="Torget" />
		<tag k="place" v="locality" />
		<tag k="ssr:stedsnr" v="459292" />
	</node>
	<node id="-183264" lat="60.1605222215" lon="9.56716666188">
		<tag k="name" v="Lunnestaden" />
		<tag k="old_name" v="Lunnesraden" />
		<tag k="place" v="locality" />
		<tag k="ssr:stedsnr" v="458901" />
	</node>
	<node id="-183118" lat="60.1808777791" lon="9.61986111104">
		<tag k="bridge" v="yes" />
		<tag k="layer" v="1" />
		<tag k="name" v="Noresund" />
		<tag k="ssr:stedsnr" v="168987" />
	</node>
	<node id="-183626" lat="60.2114944451" lon="9.60819722885">
		<tag k="bridge" v="yes" />
		<tag k="layer" v="1" />
		<tag k="name" v="Sandum" />
		<tag k="ssr:stedsnr" v="774987" />
	</node>
	<node id="-182983" lat="60.1213361106" lon="9.74109166878">
		<tag k="bridge" v="yes" />
		<tag k="layer" v="1" />
		<tag k="name" v="Bråtestua" />
		<tag k="ssr:stedsnr" v="46990" />
	</node>
	<node id="-183105" lat="60.1711388858" lon="9.69049166369">
		<tag k="highway" v="path" />
		<tag k="name" v="Ospeskarveien" />
		<tag k="ssr:stedsnr" v="155819" />
	</node>
	<node id="-183356" lat="60.1237611116" lon="9.783838893">
		<tag k="bridge" v="yes" />
		<tag k="layer" v="1" />
		<tag k="name" v="Krøderen" />
		<tag k="ssr:stedsnr" v="532988" />
	</node>
	<node id="-183283" lat="60.1756388871" lon="9.73957500019">
		<tag k="junction" v="yes" />
		<tag k="name" v="Korset" />
		<tag k="place" v="locality" />
		<tag k="ssr:stedsnr" v="459874" />
	</node>
	<node id="-182954" lat="60.1989916664" lon="9.78940277642">
		<tag k="junction" v="yes" />
		<tag k="name" v="Svenskerunningen" />
		<tag k="place" v="locality" />
		<tag k="ssr:stedsnr" v="34346" />
	</node>
	<node id="-183719" lat="60.291186107" lon="9.68987778236">
		<tag k="name" v="Ørgenvika stasjon" />
		<tag k="railway" v="station" />
		<tag k="ssr:stedsnr" v="856689" />
		<tag k="train" v="yes" />
	</node>
	<node id="-182565" lat="60.11004444" lon="9.69345000258">
		<tag k="bridge" v="yes" />
		<tag k="layer" v="1" />
		<tag k="name" v="Brekka" />
		<tag k="ssr:stedsnr" v="289994" />
	</node>
	<node id="-182564" lat="60.1448000021" lon="9.76774167501">
		<tag k="bridge" v="yes" />
		<tag k="layer" v="1" />
		<tag k="name" v="Hervik" />
		<tag k="ssr:stedsnr" v="289991" />
	</node>
	<node id="-183455" lat="60.2639027803" lon="9.75386944413">
		<tag k="name" v="Vidjegranlunnestaden" />
		<tag k="place" v="locality" />
		<tag k="ssr:stedsnr" v="640680" />
	</node>
	<node id="-183196" lat="60.225772218" lon="9.60300555911">
		<tag k="bridge" v="yes" />
		<tag k="layer" v="1" />
		<tag k="name" v="Bjøre" />
		<tag k="ssr:stedsnr" v="228993" />
	</node>
	<node id="-183195" lat="60.1586916674" lon="9.62328333398">
		<tag k="bridge" v="yes" />
		<tag k="layer" v="1" />
		<tag k="name" v="Bjøre" />
		<tag k="ssr:stedsnr" v="228992" />
	</node>
	<node id="-183185" lat="60.2750277766" lon="9.58792777094">
		<tag k="ford" v="yes" />
		<tag k="name" v="Østenseterva" />
		<tag k="place" v="locality" />
		<tag k="ssr:stedsnr" v="217708" />
	</node>
	<node id="-183177" lat="60.1732055547" lon="9.70033888726">
		<tag k="highway" v="path" />
		<tag k="name" v="Ospesnarveien" />
		<tag k="ssr:stedsnr" v="216733" />
	</node>
	<node id="-183555" lat="60.2564833312" lon="9.61751389771">
		<tag k="bridge" v="yes" />
		<tag k="layer" v="1" />
		<tag k="name" v="Ringnes" />
		<tag k="ssr:stedsnr" v="714990" />
	</node>
</osm>
