<?xml version="1.0" encoding="UTF-8"?>
<osm generator="osmapis" version="0.6">
	<node id="-342271" lat="58.2487027754" lon="6.66258889037">
		<tag k="name" v="Bolshus" />
		<tag k="ssr:date" v="2016-05-10" />
		<tag k="ssr:gruppe" v="navigasjon" />
		<tag k="ssr:hovedgruppe" v="infrastruktur" />
		<tag k="ssr:stedsnr" v="182112" />
		<tag k="ssr:type" v="fyrlykt" />
	</node>
	<node id="-345085" lat="58.2658750001" lon="6.65709721761">
		<tag k="name" v="Torsøy" />
		<tag k="ssr:date" v="2016-05-11" />
		<tag k="ssr:gruppe" v="navigasjon" />
		<tag k="ssr:hovedgruppe" v="infrastruktur" />
		<tag k="ssr:stedsnr" v="965882" />
		<tag k="ssr:type" v="lanterne" />
	</node>
	<node id="-342903" lat="58.2962916687" lon="6.64894445235">
		<tag k="name" v="Tjørsvågbukten, Øvre" />
		<tag k="ssr:date" v="2016-05-10" />
		<tag k="ssr:gruppe" v="navigasjon" />
		<tag k="ssr:hovedgruppe" v="infrastruktur" />
		<tag k="ssr:stedsnr" v="482123" />
		<tag k="ssr:type" v="lanterne" />
	</node>
	<node id="-344182" lat="58.248649998" lon="6.53069999332">
		<tag k="name" v="Hidrasund" />
		<tag k="ssr:date" v="2016-05-11" />
		<tag k="ssr:gruppe" v="navigasjon" />
		<tag k="ssr:hovedgruppe" v="infrastruktur" />
		<tag k="ssr:stedsnr" v="756778" />
		<tag k="ssr:type" v="fyrlykt" />
	</node>
	<node id="-344809" lat="58.2565583328" lon="6.65731667066">
		<tag k="name" v="Håsund" />
		<tag k="ssr:date" v="2016-05-11" />
		<tag k="ssr:gruppe" v="navigasjon" />
		<tag k="ssr:hovedgruppe" v="infrastruktur" />
		<tag k="ssr:stedsnr" v="910309" />
		<tag k="ssr:type" v="fyrlykt" />
	</node>
	<node id="-340840" lat="58.2957972214" lon="6.64936944679">
		<tag k="name" v="Tjørsvågbukten, Nedre" />
		<tag k="ssr:date" v="2016-05-10" />
		<tag k="ssr:gruppe" v="navigasjon" />
		<tag k="ssr:hovedgruppe" v="infrastruktur" />
		<tag k="ssr:stedsnr" v="360103" />
		<tag k="ssr:type" v="lanterne" />
	</node>
	<node id="-343524" lat="58.2338361088" lon="6.64747500132">
		<tag k="name" v="Kokodden" />
		<tag k="ssr:date" v="2016-05-10" />
		<tag k="ssr:gruppe" v="navigasjon" />
		<tag k="ssr:hovedgruppe" v="infrastruktur" />
		<tag k="ssr:stedsnr" v="606137" />
		<tag k="ssr:type" v="fyrlykt" />
	</node>
	<node id="-342625" lat="58.2979027784" lon="6.66346111165">
		<tag k="loc_name" v="Flekkefjord" />
		<tag k="name" v="Flekkefjord kommune" />
		<tag k="ssr:date" v="2017-11-10" />
		<tag k="ssr:gruppe" v="administrativeIndelinger" />
		<tag k="ssr:hovedgruppe" v="offentligAdministrasjon" />
		<tag k="ssr:stedsnr" v="449467" />
		<tag k="ssr:type" v="kommune" />
	</node>
	<node id="-341719" lat="58.2334833365" lon="6.66490832728">
		<tag k="name" v="Risholmsund" />
		<tag k="ssr:date" v="2016-05-10" />
		<tag k="ssr:gruppe" v="navigasjon" />
		<tag k="ssr:hovedgruppe" v="infrastruktur" />
		<tag k="ssr:stedsnr" v="61121" />
		<tag k="ssr:type" v="fyrlykt" />
	</node>
	<node id="-344493" lat="58.2325749981" lon="6.5286055625">
		<tag k="name" v="Kirkehavn" />
		<tag k="ssr:date" v="2016-05-11" />
		<tag k="ssr:gruppe" v="navigasjon" />
		<tag k="ssr:hovedgruppe" v="infrastruktur" />
		<tag k="ssr:stedsnr" v="817799" />
		<tag k="ssr:type" v="fyrlykt" />
	</node>
	<node id="-344136" lat="58.2755861102" lon="6.38289165868">
		<tag k="name" v="Egdeholmen" />
		<tag k="old_name" v="Egderholmen" />
		<tag k="ssr:date" v="2016-05-11" />
		<tag k="ssr:gruppe" v="navigasjon" />
		<tag k="ssr:hovedgruppe" v="infrastruktur" />
		<tag k="ssr:stedsnr" v="728004" />
		<tag k="ssr:type" v="fyrlykt" />
	</node>
	<node id="-341697" lat="58.2144666639" lon="6.57789166957">
		<tag k="name" v="Rasvåg havn" />
		<tag k="ssr:date" v="2016-05-10" />
		<tag k="ssr:gruppe" v="navigasjon" />
		<tag k="ssr:hovedgruppe" v="infrastruktur" />
		<tag k="ssr:stedsnr" v="57641" />
		<tag k="ssr:type" v="lanterne" />
	</node>
	<node id="-341427" lat="58.2377307211" lon="6.64213989603">
		<tag k="name" v="Vardnesveien" />
		<tag k="ssr:date" v="2019-05-30" />
		<tag k="ssr:gruppe" v="veg" />
		<tag k="ssr:hovedgruppe" v="infrastruktur" />
		<tag k="ssr:stedsnr" v="1011202" />
		<tag k="ssr:type" v="adressenavn" />
	</node>
	<node id="-341426" lat="58.294236077" lon="6.70300283353">
		<tag k="name" v="Vardhei" />
		<tag k="ssr:date" v="2019-05-30" />
		<tag k="ssr:gruppe" v="veg" />
		<tag k="ssr:hovedgruppe" v="infrastruktur" />
		<tag k="ssr:stedsnr" v="1011188" />
		<tag k="ssr:type" v="adressenavn" />
	</node>
	<node id="-341425" lat="58.2295793623" lon="6.52786414744">
		<tag k="name" v="Ullerøy" />
		<tag k="ssr:date" v="2019-05-30" />
		<tag k="ssr:gruppe" v="veg" />
		<tag k="ssr:hovedgruppe" v="infrastruktur" />
		<tag k="ssr:stedsnr" v="1011151" />
		<tag k="ssr:type" v="adressenavn" />
	</node>
	<node id="-341424" lat="58.3300498867" lon="6.85683924511">
		<tag k="name" v="Jelevegen" />
		<tag k="ssr:date" v="2019-05-30" />
		<tag k="ssr:gruppe" v="veg" />
		<tag k="ssr:hovedgruppe" v="infrastruktur" />
		<tag k="ssr:stedsnr" v="1011150" />
		<tag k="ssr:type" v="adressenavn" />
	</node>
	<node id="-341423" lat="58.2965659731" lon="6.63857178922">
		<tag k="name" v="Storestøa" />
		<tag k="ssr:date" v="2019-05-30" />
		<tag k="ssr:gruppe" v="veg" />
		<tag k="ssr:hovedgruppe" v="infrastruktur" />
		<tag k="ssr:stedsnr" v="1011149" />
		<tag k="ssr:type" v="adressenavn" />
	</node>
	<node id="-341422" lat="58.2091503061" lon="6.58324244403">
		<tag k="name" v="Sandvika" />
		<tag k="ssr:date" v="2019-05-30" />
		<tag k="ssr:gruppe" v="veg" />
		<tag k="ssr:hovedgruppe" v="infrastruktur" />
		<tag k="ssr:stedsnr" v="1011145" />
		<tag k="ssr:type" v="adressenavn" />
	</node>
	<node id="-341421" lat="58.2046699144" lon="6.62892660795">
		<tag k="name" v="Indre Kalven" />
		<tag k="ssr:date" v="2019-05-30" />
		<tag k="ssr:gruppe" v="veg" />
		<tag k="ssr:hovedgruppe" v="infrastruktur" />
		<tag k="ssr:stedsnr" v="1011135" />
		<tag k="ssr:type" v="adressenavn" />
	</node>
	<node id="-341420" lat="58.3460085484" lon="6.66573683185">
		<tag k="name" v="Europaveg-39" />
		<tag k="ssr:date" v="2019-05-30" />
		<tag k="ssr:gruppe" v="veg" />
		<tag k="ssr:hovedgruppe" v="infrastruktur" />
		<tag k="ssr:stedsnr" v="1011107" />
		<tag k="ssr:type" v="adressenavn" />
	</node>
	<node id="-341419" lat="58.2610940176" lon="6.6580101679">
		<tag k="name" v="Kjeøy" />
		<tag k="ssr:date" v="2019-05-30" />
		<tag k="ssr:gruppe" v="veg" />
		<tag k="ssr:hovedgruppe" v="infrastruktur" />
		<tag k="ssr:stedsnr" v="1011101" />
		<tag k="ssr:type" v="adressenavn" />
	</node>
	<node id="-343845" lat="58.2376833364" lon="6.61220833701">
		<tag k="name" v="Lauvnes" />
		<tag k="ssr:date" v="2016-05-10" />
		<tag k="ssr:gruppe" v="navigasjon" />
		<tag k="ssr:hovedgruppe" v="infrastruktur" />
		<tag k="ssr:stedsnr" v="667141" />
		<tag k="ssr:type" v="lanterne" />
	</node>
	<node id="-344477" lat="58.265622226" lon="6.65694444332">
		<tag k="name" v="Torsøy" />
		<tag k="ssr:date" v="2016-05-11" />
		<tag k="ssr:gruppe" v="navigasjon" />
		<tag k="ssr:hovedgruppe" v="infrastruktur" />
		<tag k="ssr:stedsnr" v="789298" />
		<tag k="ssr:type" v="lanterne" />
	</node>
	<node id="-343194" lat="58.2343138861" lon="6.66763055659">
		<tag k="name" v="Risholmsund, Østre" />
		<tag k="ssr:date" v="2016-05-10" />
		<tag k="ssr:gruppe" v="navigasjon" />
		<tag k="ssr:hovedgruppe" v="infrastruktur" />
		<tag k="ssr:stedsnr" v="540943" />
		<tag k="ssr:type" v="lanterne" />
	</node>
	<node id="-340525" lat="58.2128250024" lon="6.56245832767">
		<tag k="name" v="Kåløysund, Øvre" />
		<tag k="ssr:date" v="2016-05-10" />
		<tag k="ssr:gruppe" v="navigasjon" />
		<tag k="ssr:hovedgruppe" v="infrastruktur" />
		<tag k="ssr:stedsnr" v="300694" />
		<tag k="ssr:type" v="lanterne" />
	</node>
	<node id="-343817" lat="58.2118999995" lon="6.5587250069">
		<tag k="name" v="Kåløysund, Nedre" />
		<tag k="ssr:date" v="2016-05-10" />
		<tag k="ssr:gruppe" v="navigasjon" />
		<tag k="ssr:hovedgruppe" v="infrastruktur" />
		<tag k="ssr:stedsnr" v="664680" />
		<tag k="ssr:type" v="lanterne" />
	</node>
	<node id="-344492" lat="58.2298027801" lon="6.49964443842">
		<tag k="name" v="Rossøy" />
		<tag k="ssr:date" v="2016-05-11" />
		<tag k="ssr:gruppe" v="navigasjon" />
		<tag k="ssr:hovedgruppe" v="infrastruktur" />
		<tag k="ssr:stedsnr" v="817798" />
		<tag k="ssr:type" v="fyrlykt" />
	</node>
	<node id="-342531" lat="58.287461107" lon="6.6577361039">
		<tag k="name" v="Grønsundet, Østre" />
		<tag k="ssr:date" v="2016-05-10" />
		<tag k="ssr:gruppe" v="navigasjon" />
		<tag k="ssr:hovedgruppe" v="infrastruktur" />
		<tag k="ssr:stedsnr" v="239136" />
		<tag k="ssr:type" v="lanterne" />
	</node>
	<node id="-345090" lat="58.2870000002" lon="6.65561665884">
		<tag k="name" v="Grønsundet, Vestre" />
		<tag k="ssr:date" v="2016-05-11" />
		<tag k="ssr:gruppe" v="navigasjon" />
		<tag k="ssr:hovedgruppe" v="infrastruktur" />
		<tag k="ssr:stedsnr" v="967141" />
		<tag k="ssr:type" v="lanterne" />
	</node>
	<node id="-344491" lat="58.2052722254" lon="6.57889166879">
		<tag k="name" v="Rasvåg" />
		<tag k="ssr:date" v="2016-05-11" />
		<tag k="ssr:gruppe" v="navigasjon" />
		<tag k="ssr:hovedgruppe" v="infrastruktur" />
		<tag k="ssr:stedsnr" v="813401" />
		<tag k="ssr:type" v="fyrlykt" />
	</node>
</osm>
