<?xml version="1.0" encoding="UTF-8"?>
<osm version="0.6" generator="osmapis">
	<node id="31264135" lat="66.0215451" lon="12.6317232" version="10" timestamp="2022-07-17T05:53:23Z" changeset="123708550" uid="3497659" user="NKA">
		<tag k="name" v="Sandnessjøen" />
		<tag k="name:ru" v="Санднессйоэн" />
		<tag k="place" v="town" />
		<tag k="population" v="6030" />
		<tag k="population:date" v="2021-01-01" />
		<tag k="ref:ssb_tettsted" v="7572" />
		<tag k="source:population" v="SSB - befolkning i tettstedet" />
		<tag k="ssr:stedsnr" v="622889" />
	</node>
	<node id="568847228" lat="65.823064" lon="12.4261163" version="3" timestamp="2022-07-17T05:53:23Z" changeset="123708550" uid="3497659" user="NKA">
		<tag k="name" v="Tjøtta" />
		<tag k="place" v="village" />
		<tag k="ssr:stedsnr" v="197516" />
	</node>
	<node id="1378844935" lat="65.7727952" lon="12.4660749" version="6" timestamp="2022-07-17T05:53:23Z" changeset="123708550" uid="3497659" user="NKA">
		<tag k="alt_name" v="Skjerset" />
		<tag k="name" v="Skjærset" />
		<tag k="place" v="farm" />
		<tag k="source" v="Lørdagskafeen på Mindland. Skulstad. Larsen." />
		<tag k="ssr:stedsnr" v="440047" />
	</node>
	<node id="1378844952" lat="65.7801713" lon="12.4759079" version="3" timestamp="2022-07-17T05:53:23Z" changeset="123708550" uid="3497659" user="NKA">
		<tag k="name" v="Solbakken" />
		<tag k="place" v="farm" />
		<tag k="ssr:stedsnr" v="396872" />
	</node>
	<node id="1690677008" lat="65.7735268" lon="12.4544758" version="4" timestamp="2022-07-17T05:53:23Z" changeset="123708550" uid="3497659" user="NKA">
		<tag k="name" v="Alfheim" />
		<tag k="place" v="farm" />
		<tag k="source" v="Lørdagskafeen på Mindland. Skulstad. Larsen." />
		<tag k="ssr:stedsnr" v="944544" />
	</node>
	<node id="1690677904" lat="65.7700816" lon="12.4525284" version="4" timestamp="2022-07-17T05:53:23Z" changeset="123708550" uid="3497659" user="NKA">
		<tag k="name" v="Falkhaugen" />
		<tag k="place" v="farm" />
		<tag k="source" v="Lørdagskafeen på Mindland. Skulstad. Larsen." />
		<tag k="ssr:stedsnr" v="440064" />
	</node>
	<node id="1690677921" lat="65.7734827" lon="12.4567932" version="4" timestamp="2022-07-17T05:53:23Z" changeset="123708550" uid="3497659" user="NKA">
		<tag k="name" v="Borg" />
		<tag k="place" v="farm" />
		<tag k="source" v="Lørdagskafeen på Mindland. Skulstad. Larsen." />
		<tag k="ssr:stedsnr" v="458590" />
	</node>
	<node id="1690677926" lat="65.7713009" lon="12.4550145" version="4" timestamp="2022-07-17T05:53:23Z" changeset="123708550" uid="3497659" user="NKA">
		<tag k="name" v="Einmoen" />
		<tag k="place" v="farm" />
		<tag k="source" v="Lørdagskafeen på Mindland. Skulstad. Larsen." />
		<tag k="ssr:stedsnr" v="640534" />
	</node>
	<node id="1690697317" lat="65.7678029" lon="12.4434895" version="4" timestamp="2022-07-17T05:53:23Z" changeset="123708550" uid="3497659" user="NKA">
		<tag k="name" v="Knausen" />
		<tag k="place" v="farm" />
		<tag k="source" v="Lørdagskafeen på Mindland. Skulstad. Larsen." />
		<tag k="ssr:stedsnr" v="76059" />
	</node>
	<node id="1690697345" lat="65.7656066" lon="12.4460528" version="4" timestamp="2022-07-17T05:53:23Z" changeset="123708550" uid="3497659" user="NKA">
		<tag k="name" v="Bakken" />
		<tag k="place" v="farm" />
		<tag k="source" v="Lørdagskafeen på Mindland. Skulstad. Larsen." />
		<tag k="ssr:stedsnr" v="700563" />
	</node>
	<node id="1690697349" lat="65.7778673" lon="12.475" version="6" timestamp="2022-07-17T05:53:23Z" changeset="123708550" uid="3497659" user="NKA">
		<tag k="alt_name" v="Brekka" />
		<tag k="name" v="Brækken" />
		<tag k="place" v="farm" />
		<tag k="source" v="Lørdagskafeen på Mindland. Skulstad. Larsen." />
		<tag k="ssr:stedsnr" v="440052" />
	</node>
	<node id="1690697398" lat="65.7616505" lon="12.404635" version="3" timestamp="2022-07-17T05:53:23Z" changeset="123708550" uid="3497659" user="NKA">
		<tag k="alt_name" v="Bergmo" />
		<tag k="name" v="Bergsmo" />
		<tag k="place" v="farm" />
		<tag k="ssr:stedsnr" v="561087" />
	</node>
	<node id="1690697405" lat="65.7751116" lon="12.4737448" version="4" timestamp="2022-07-17T05:53:23Z" changeset="123708550" uid="3497659" user="NKA">
		<tag k="alt_name" v="Stranda" />
		<tag k="name" v="Strand" />
		<tag k="place" v="locality" />
		<tag k="source" v="Lørdagskafeen på Mindland. Skulstad. Larsen." />
		<tag k="ssr:stedsnr" v="76047" />
	</node>
	<node id="1690697421" lat="65.7671247" lon="12.4389029" version="4" timestamp="2022-07-17T05:53:23Z" changeset="123708550" uid="3497659" user="NKA">
		<tag k="name" v="Moreng" />
		<tag k="place" v="farm" />
		<tag k="source" v="Lørdagskafeen på Mindland. Skulstad. Larsen." />
		<tag k="ssr:stedsnr" v="926038" />
	</node>
	<node id="1690697430" lat="65.7725351" lon="12.4118173" version="4" timestamp="2022-07-17T05:53:23Z" changeset="123708550" uid="3497659" user="NKA">
		<tag k="name" v="Nordgården" />
		<tag k="place" v="farm" />
		<tag k="ssr:stedsnr" v="336517" />
	</node>
	<node id="1690697454" lat="65.769444" lon="12.44396" version="4" timestamp="2022-07-17T05:53:23Z" changeset="123708550" uid="3497659" user="NKA">
		<tag k="name" v="Øvergården" />
		<tag k="place" v="farm" />
		<tag k="source" v="Lørdagskafeen på Mindland. Skulstad. Larsen." />
		<tag k="ssr:stedsnr" v="804063" />
	</node>
	<node id="1690697455" lat="65.7773215" lon="12.4785084" version="4" timestamp="2022-07-17T05:53:23Z" changeset="123708550" uid="3497659" user="NKA">
		<tag k="name" v="Nyrud" />
		<tag k="place" v="farm" />
		<tag k="ssr:stedsnr" v="153908" />
	</node>
	<node id="1690705561" lat="65.7837121" lon="12.4719507" version="3" timestamp="2022-07-17T05:53:23Z" changeset="123708550" uid="3497659" user="NKA">
		<tag k="name" v="Eidemoen" />
		<tag k="place" v="farm" />
		<tag k="ssr:stedsnr" v="396863" />
	</node>
	<node id="1690705567" lat="65.7824083" lon="12.4725086" version="3" timestamp="2022-07-17T05:53:23Z" changeset="123708550" uid="3497659" user="NKA">
		<tag k="name" v="Vollan" />
		<tag k="place" v="farm" />
		<tag k="ssr:stedsnr" v="440075" />
	</node>
	<node id="1690705574" lat="65.7884799" lon="12.4899215" version="3" timestamp="2022-07-17T05:53:23Z" changeset="123708550" uid="3497659" user="NKA">
		<tag k="name" v="Nord-Rota" />
		<tag k="place" v="farm" />
		<tag k="ssr:stedsnr" v="102196" />
	</node>
	<node id="1690705577" lat="65.7832302" lon="12.4858231" version="4" timestamp="2022-07-17T05:53:23Z" changeset="123708550" uid="3497659" user="NKA">
		<tag k="name" v="Osberg" />
		<tag k="place" v="farm" />
		<tag k="ssr:stedsnr" v="743074" />
	</node>
	<node id="1690705584" lat="65.7856682" lon="12.4774331" version="3" timestamp="2022-07-17T05:53:23Z" changeset="123708550" uid="3497659" user="NKA">
		<tag k="name" v="Folla" />
		<tag k="place" v="farm" />
		<tag k="ssr:stedsnr" v="76073" />
	</node>
	<node id="1815586506" lat="65.7565662" lon="12.4022737" version="3" timestamp="2022-07-17T05:53:23Z" changeset="123708550" uid="3497659" user="NKA">
		<tag k="name" v="Mindenes" />
		<tag k="place" v="farm" />
		<tag k="source" v="Lørdagskafeen på Mindland/Skulstad" />
		<tag k="ssr:stedsnr" v="760524" />
	</node>
	<node id="1815586511" lat="65.7587316" lon="12.4064965" version="3" timestamp="2022-07-17T05:53:23Z" changeset="123708550" uid="3497659" user="NKA">
		<tag k="alt_name" v="Mindenes" />
		<tag k="name" v="Mindnes" />
		<tag k="place" v="farm" />
		<tag k="source" v="Lørdagskafeen på Mindland/Skulstad" />
		<tag k="ssr:stedsnr" v="683074" />
	</node>
	<node id="1815586539" lat="65.763714" lon="12.4058803" version="3" timestamp="2022-07-17T05:53:23Z" changeset="123708550" uid="3497659" user="NKA">
		<tag k="name" v="Kræken" />
		<tag k="place" v="farm" />
		<tag k="source" v="Lørdagskafeen på Mindland/Skulstad" />
		<tag k="ssr:stedsnr" v="153566" />
	</node>
	<node id="1815606892" lat="65.7705742" lon="12.4078009" version="3" timestamp="2022-07-17T05:53:23Z" changeset="123708550" uid="3497659" user="NKA">
		<tag k="name" v="Haugen" />
		<tag k="place" v="farm" />
		<tag k="ssr:stedsnr" v="32527" />
	</node>
	<node id="1815606893" lat="65.7697694" lon="12.4102593" version="3" timestamp="2022-07-17T05:53:23Z" changeset="123708550" uid="3497659" user="NKA">
		<tag k="name" v="Sørgården" />
		<tag k="place" v="farm" />
		<tag k="ssr:stedsnr" v="457537" />
	</node>
	<node id="1816638707" lat="65.7845588" lon="12.4816836" version="2" timestamp="2022-07-17T05:53:23Z" changeset="123708550" uid="3497659" user="NKA">
		<tag k="name" v="Moen" />
		<tag k="place" v="locality" />
		<tag k="ssr:stedsnr" v="936340" />
	</node>
	<node id="1827651578" lat="65.7863826" lon="12.4534056" version="4" timestamp="2022-07-17T05:53:23Z" changeset="123708550" uid="3497659" user="NKA">
		<tag k="name" v="Solvoll" />
		<tag k="place" v="hamlet" />
		<tag k="ssr:stedsnr" v="804076" />
	</node>
	<node id="1831765799" lat="65.7850973" lon="12.4509961" version="2" timestamp="2022-07-17T05:53:23Z" changeset="123708550" uid="3497659" user="NKA">
		<tag k="name" v="Myrvoll" />
		<tag k="place" v="farm" />
		<tag k="ssr:stedsnr" v="93836" />
	</node>
	<node id="1845210834" lat="65.7900471" lon="12.4722741" version="2" timestamp="2022-07-17T05:53:23Z" changeset="123708550" uid="3497659" user="NKA">
		<tag k="name" v="Ådalen" />
		<tag k="place" v="farm" />
		<tag k="ssr:stedsnr" v="804003" />
	</node>
	<node id="2471897915" lat="65.7702737" lon="12.4136425" version="2" timestamp="2022-07-17T05:53:23Z" changeset="123708550" uid="3497659" user="NKA">
		<tag k="name" v="Brastad" />
		<tag k="place" v="hamlet" />
		<tag k="ssr:stedsnr" v="743051" />
	</node>
	<node id="2476945897" lat="65.7908474" lon="12.4542672" version="2" timestamp="2022-07-17T05:53:23Z" changeset="123708550" uid="3497659" user="NKA">
		<tag k="name" v="Elvebakken" />
		<tag k="place" v="farm" />
		<tag k="ssr:stedsnr" v="501002" />
	</node>
	<node id="2476945902" lat="65.7918153" lon="12.4537737" version="2" timestamp="2022-07-17T05:53:23Z" changeset="123708550" uid="3497659" user="NKA">
		<tag k="name" v="Fagermoen" />
		<tag k="place" v="farm" />
		<tag k="ssr:stedsnr" v="760895" />
	</node>
	<node id="3094747670" lat="65.9338813" lon="12.3592466" version="2" timestamp="2022-07-17T05:53:23Z" changeset="123708550" uid="3497659" user="NKA">
		<tag k="name" v="Austbø" />
		<tag k="place" v="village" />
		<tag k="ssr:stedsnr" v="76311" />
	</node>
	<node id="6205774440" lat="65.7976043" lon="12.5394073" version="2" timestamp="2022-07-17T05:53:23Z" changeset="123708550" uid="3497659" user="NKA">
		<tag k="name" v="Tro" />
		<tag k="place" v="hamlet" />
		<tag k="ssr:stedsnr" v="299078" />
	</node>
	<node id="6205774448" lat="65.8694235" lon="12.6168991" version="2" timestamp="2022-07-17T05:53:23Z" changeset="123708550" uid="3497659" user="NKA">
		<tag k="name" v="Bærøyvågen" />
		<tag k="place" v="hamlet" />
		<tag k="ssr:stedsnr" v="622402" />
	</node>
	<node id="9892683610" lat="65.8551808" lon="12.2418821" version="1" timestamp="2022-07-17T05:53:23Z" changeset="123708550" uid="3497659" user="NKA">
		<tag k="name" v="Tverrvika" />
		<tag k="place" v="farm" />
		<tag k="ssr:stedsnr" v="15460" />
	</node>
	<node id="9892683611" lat="65.9763056" lon="12.528111" version="1" timestamp="2022-07-17T05:53:23Z" changeset="123708550" uid="3497659" user="NKA">
		<tag k="name" v="Storåker" />
		<tag k="place" v="farm" />
		<tag k="ssr:stedsnr" v="501254" />
	</node>
	<node id="9892683612" lat="65.7980279" lon="12.5394082" version="1" timestamp="2022-07-17T05:53:23Z" changeset="123708550" uid="3497659" user="NKA">
		<tag k="name" v="Haugen" />
		<tag k="place" v="farm" />
		<tag k="ssr:stedsnr" v="926014" />
	</node>
	<node id="9892683613" lat="65.8484472" lon="12.24505" version="1" timestamp="2022-07-17T05:53:23Z" changeset="123708550" uid="3497659" user="NKA">
		<tag k="name" v="Juvika" />
		<tag k="place" v="farm" />
		<tag k="ssr:stedsnr" v="483616" />
	</node>
	<node id="9892683614" lat="65.7874972" lon="12.4892944" version="1" timestamp="2022-07-17T05:53:23Z" changeset="123708550" uid="3497659" user="NKA">
		<tag k="name" v="Vindstad" />
		<tag k="place" v="farm" />
		<tag k="ssr:stedsnr" v="976747" />
	</node>
	<node id="9892683615" lat="65.7869747" lon="12.4887574" version="1" timestamp="2022-07-17T05:53:23Z" changeset="123708550" uid="3497659" user="NKA">
		<tag k="name" v="Rota" />
		<tag k="place" v="locality" />
		<tag k="ssr:stedsnr" v="926048" />
	</node>
	<node id="9892683616" lat="65.7763561" lon="12.2689356" version="1" timestamp="2022-07-17T05:53:23Z" changeset="123708550" uid="3497659" user="NKA">
		<tag k="name" v="Sandvær" />
		<tag k="place" v="farm" />
		<tag k="ssr:stedsnr" v="1072413" />
	</node>
	<node id="9892687117" lat="65.9426" lon="12.4669222" version="1" timestamp="2022-07-17T05:53:23Z" changeset="123708550" uid="3497659" user="NKA">
		<tag k="name" v="Øvregården" />
		<tag k="place" v="farm" />
		<tag k="ssr:stedsnr" v="876768" />
	</node>
	<node id="9892687118" lat="65.8367451" lon="12.4641478" version="1" timestamp="2022-07-17T05:53:23Z" changeset="123708550" uid="3497659" user="NKA">
		<tag k="name" v="Kjerringstrand" />
		<tag k="place" v="farm" />
		<tag k="ssr:stedsnr" v="519180" />
	</node>
	<node id="9892687119" lat="65.7966722" lon="12.2239445" version="1" timestamp="2022-07-17T05:53:23Z" changeset="123708550" uid="3497659" user="NKA">
		<tag k="name" v="Skotsvær" />
		<tag k="place" v="farm" />
		<tag k="ssr:stedsnr" v="389355" />
	</node>
	<node id="9892687120" lat="65.8316694" lon="12.4092499" version="1" timestamp="2022-07-17T05:53:23Z" changeset="123708550" uid="3497659" user="NKA">
		<tag k="name" v="Korsneset" />
		<tag k="place" v="farm" />
		<tag k="ssr:stedsnr" v="813651" />
	</node>
	<node id="9892687121" lat="65.8504556" lon="12.2408028" version="1" timestamp="2022-07-17T05:53:23Z" changeset="123708550" uid="3497659" user="NKA">
		<tag k="name" v="Åkervik" />
		<tag k="place" v="farm" />
		<tag k="ssr:stedsnr" v="665641" />
	</node>
	<node id="9892687122" lat="65.8084056" lon="12.5716838" version="1" timestamp="2022-07-17T05:53:23Z" changeset="123708550" uid="3497659" user="NKA">
		<tag k="alt_name" v="Innerflatøya" />
		<tag k="name" v="Indre Flatøya" />
		<tag k="place" v="farm" />
		<tag k="ssr:stedsnr" v="699910" />
	</node>
	<node id="9892687123" lat="65.8026266" lon="12.5411622" version="1" timestamp="2022-07-17T05:53:23Z" changeset="123708550" uid="3497659" user="NKA">
		<tag k="name" v="Skavollen" />
		<tag k="place" v="farm" />
		<tag k="ssr:stedsnr" v="136046" />
	</node>
	<node id="9892687124" lat="65.9424374" lon="12.6442174" version="1" timestamp="2022-07-17T05:53:23Z" changeset="123708550" uid="3497659" user="NKA">
		<tag k="name" v="Rak" />
		<tag k="place" v="locality" />
		<tag k="ssr:stedsnr" v="743355" />
	</node>
	<node id="9892687125" lat="65.7972334" lon="12.5294083" version="1" timestamp="2022-07-17T05:53:23Z" changeset="123708550" uid="3497659" user="NKA">
		<tag k="name" v="Trosjøen" />
		<tag k="place" v="farm" />
		<tag k="ssr:stedsnr" v="602083" />
	</node>
	<node id="9892687126" lat="65.9462555" lon="12.4610112" version="1" timestamp="2022-07-17T05:53:23Z" changeset="123708550" uid="3497659" user="NKA">
		<tag k="name" v="Steirostranda" />
		<tag k="place" v="neighbourhood" />
		<tag k="ssr:stedsnr" v="459590" />
	</node>
	<node id="9892687127" lat="65.7926055" lon="12.4575501" version="1" timestamp="2022-07-17T05:53:23Z" changeset="123708550" uid="3497659" user="NKA">
		<tag k="name" v="Ervika" />
		<tag k="place" v="hamlet" />
		<tag k="ssr:stedsnr" v="501003" />
	</node>
	<node id="9892687128" lat="65.7902103" lon="12.4567393" version="1" timestamp="2022-07-17T05:53:23Z" changeset="123708550" uid="3497659" user="NKA">
		<tag k="alt_name" v="Ervika, øvre" />
		<tag k="name" v="Øvre Ervik" />
		<tag k="place" v="farm" />
		<tag k="ssr:stedsnr" v="319002" />
	</node>
	<node id="9892687129" lat="65.870508" lon="12.4793805" version="1" timestamp="2022-07-17T05:53:23Z" changeset="123708550" uid="3497659" user="NKA">
		<tag k="name" v="Offersøya" />
		<tag k="place" v="farm" />
		<tag k="ssr:stedsnr" v="1072412" />
	</node>
	<node id="9892687130" lat="65.9532694" lon="12.4963749" version="1" timestamp="2022-07-17T05:53:23Z" changeset="123708550" uid="3497659" user="NKA">
		<tag k="name" v="Rødal" />
		<tag k="place" v="farm" />
		<tag k="ssr:stedsnr" v="884993" />
	</node>
	<node id="9892687131" lat="65.8015111" lon="12.5616111" version="1" timestamp="2022-07-17T05:53:23Z" changeset="123708550" uid="3497659" user="NKA">
		<tag k="alt_name" v="Gården;Flatøya, yt" />
		<tag k="name" v="Ytre Flatøya" />
		<tag k="place" v="farm" />
		<tag k="ssr:stedsnr" v="258034" />
	</node>
	<node id="9892687132" lat="65.9490444" lon="12.5027112" version="1" timestamp="2022-07-17T05:53:23Z" changeset="123708550" uid="3497659" user="NKA">
		<tag k="alt_name" v="Elvemoen" />
		<tag k="name" v="Elvemo" />
		<tag k="place" v="farm" />
		<tag k="ssr:stedsnr" v="76313" />
	</node>
	<node id="9892687133" lat="65.7800717" lon="12.4803593" version="1" timestamp="2022-07-17T05:53:23Z" changeset="123708550" uid="3497659" user="NKA">
		<tag k="name" v="Nergården" />
		<tag k="place" v="farm" />
		<tag k="ssr:stedsnr" v="136056" />
	</node>
	<node id="9892687134" lat="65.9007055" lon="12.3973555" version="1" timestamp="2022-07-17T05:53:23Z" changeset="123708550" uid="3497659" user="NKA">
		<tag k="alt_name" v="Moen" />
		<tag k="name" v="Belsvågmoen" />
		<tag k="place" v="farm" />
		<tag k="ssr:stedsnr" v="865403" />
	</node>
	<node id="9892687135" lat="65.7866997" lon="12.5213778" version="1" timestamp="2022-07-17T05:53:23Z" changeset="123708550" uid="3497659" user="NKA">
		<tag k="name" v="Runeberg" />
		<tag k="place" v="farm" />
		<tag k="ssr:stedsnr" v="136068" />
	</node>
	<node id="9892687136" lat="65.9740778" lon="12.5217778" version="1" timestamp="2022-07-17T05:53:23Z" changeset="123708550" uid="3497659" user="NKA">
		<tag k="name" v="Husmogjerdet" />
		<tag k="place" v="farm" />
		<tag k="ssr:stedsnr" v="701533" />
	</node>
	<node id="9892687137" lat="65.7904139" lon="12.525525" version="1" timestamp="2022-07-17T05:53:23Z" changeset="123708550" uid="3497659" user="NKA">
		<tag k="name" v="Tro" />
		<tag k="place" v="hamlet" />
		<tag k="ssr:stedsnr" v="76068" />
	</node>
	<node id="9892687138" lat="65.8084027" lon="12.5668355" version="1" timestamp="2022-07-17T05:53:23Z" changeset="123708550" uid="3497659" user="NKA">
		<tag k="name" v="Flatøya" />
		<tag k="place" v="farm" />
		<tag k="ssr:stedsnr" v="1072406" />
	</node>
	<node id="9892687139" lat="65.9810777" lon="12.5981055" version="1" timestamp="2022-07-17T05:53:23Z" changeset="123708550" uid="3497659" user="NKA">
		<tag k="name" v="Nermoen" />
		<tag k="place" v="farm" />
		<tag k="ssr:stedsnr" v="640486" />
	</node>
	<node id="9892687140" lat="65.7944827" lon="12.5361346" version="1" timestamp="2022-07-17T05:53:23Z" changeset="123708550" uid="3497659" user="NKA">
		<tag k="name" v="Remman" />
		<tag k="place" v="farm" />
		<tag k="ssr:stedsnr" v="197014" />
	</node>
	<node id="9892687141" lat="66.0232341" lon="12.6650181" version="1" timestamp="2022-07-17T05:53:23Z" changeset="123708550" uid="3497659" user="NKA">
		<tag k="name" v="Volden" />
		<tag k="place" v="farm" />
		<tag k="ssr:stedsnr" v="637753" />
	</node>
	<node id="9892687142" lat="65.7712546" lon="12.451701" version="1" timestamp="2022-07-17T05:53:23Z" changeset="123708550" uid="3497659" user="NKA">
		<tag k="name" v="Hagen" />
		<tag k="place" v="locality" />
		<tag k="ssr:stedsnr" v="154598" />
	</node>
	<node id="9892687143" lat="65.9242444" lon="12.4357194" version="1" timestamp="2022-07-17T05:53:23Z" changeset="123708550" uid="3497659" user="NKA">
		<tag k="name" v="Kirkegjoten" />
		<tag k="place" v="farm" />
		<tag k="ssr:stedsnr" v="570603" />
	</node>
	<node id="9892687144" lat="65.8470583" lon="12.2436667" version="1" timestamp="2022-07-17T05:53:23Z" changeset="123708550" uid="3497659" user="NKA">
		<tag k="name" v="Vika" />
		<tag k="place" v="farm" />
		<tag k="ssr:stedsnr" v="804451" />
	</node>
	<node id="9892687145" lat="65.9243303" lon="12.4459874" version="1" timestamp="2022-07-17T05:53:23Z" changeset="123708550" uid="3497659" user="NKA">
		<tag k="name" v="Søvika" />
		<tag k="place" v="hamlet" />
		<tag k="ssr:stedsnr" v="501304" />
	</node>
	<node id="9892687146" lat="65.8837743" lon="12.2775865" version="1" timestamp="2022-07-17T05:53:23Z" changeset="123708550" uid="3497659" user="NKA">
		<tag k="name" v="Fagervollen" />
		<tag k="place" v="farm" />
		<tag k="ssr:stedsnr" v="603464" />
	</node>
	<node id="9892687147" lat="65.9283" lon="12.3364611" version="1" timestamp="2022-07-17T05:53:23Z" changeset="123708550" uid="3497659" user="NKA">
		<tag k="name" v="Altra" />
		<tag k="place" v="farm" />
		<tag k="ssr:stedsnr" v="394120" />
	</node>
	<node id="9892687148" lat="65.9795278" lon="12.5932528" version="1" timestamp="2022-07-17T05:53:23Z" changeset="123708550" uid="3497659" user="NKA">
		<tag k="name" v="Sørmoen" />
		<tag k="place" v="farm" />
		<tag k="ssr:stedsnr" v="944511" />
	</node>
	<node id="9892687149" lat="65.843219" lon="12.2606841" version="1" timestamp="2022-07-17T05:53:23Z" changeset="123708550" uid="3497659" user="NKA">
		<tag k="name" v="Søråkerøya" />
		<tag k="place" v="farm" />
		<tag k="ssr:stedsnr" v="768205" />
	</node>
	<node id="9892687150" lat="65.916479" lon="12.2834176" version="1" timestamp="2022-07-17T05:53:23Z" changeset="123708550" uid="3497659" user="NKA">
		<tag k="name" v="Åkerøya" />
		<tag k="place" v="farm" />
		<tag k="ssr:stedsnr" v="464213" />
	</node>
	<node id="9892687151" lat="65.9851743" lon="12.6044787" version="1" timestamp="2022-07-17T05:53:23Z" changeset="123708550" uid="3497659" user="NKA">
		<tag k="name" v="Botn" />
		<tag k="place" v="hamlet" />
		<tag k="ssr:stedsnr" v="926247" />
	</node>
	<node id="9892687152" lat="65.9174597" lon="12.2741428" version="1" timestamp="2022-07-17T05:53:23Z" changeset="123708550" uid="3497659" user="NKA">
		<tag k="name" v="Buøya" />
		<tag k="place" v="farm" />
		<tag k="ssr:stedsnr" v="646197" />
	</node>
	<node id="9892687153" lat="65.86995" lon="12.6155694" version="1" timestamp="2022-07-17T05:53:23Z" changeset="123708550" uid="3497659" user="NKA">
		<tag k="name" v="Gården" />
		<tag k="place" v="farm" />
		<tag k="ssr:stedsnr" v="906095" />
	</node>
	<node id="9892687154" lat="65.9247361" lon="12.3492472" version="1" timestamp="2022-07-17T05:53:23Z" changeset="123708550" uid="3497659" user="NKA">
		<tag k="name" v="Solvoll" />
		<tag k="place" v="farm" />
		<tag k="ssr:stedsnr" v="621338" />
	</node>
	<node id="9892687155" lat="65.9320657" lon="12.3571926" version="1" timestamp="2022-07-17T05:53:23Z" changeset="123708550" uid="3497659" user="NKA">
		<tag k="name" v="Austbøgården" />
		<tag k="place" v="farm" />
		<tag k="ssr:stedsnr" v="360423" />
	</node>
	<node id="9892687156" lat="65.8048166" lon="12.5420278" version="1" timestamp="2022-07-17T05:53:23Z" changeset="123708550" uid="3497659" user="NKA">
		<tag k="name" v="Nyheim" />
		<tag k="place" v="farm" />
		<tag k="ssr:stedsnr" v="967079" />
	</node>
	<node id="9892687157" lat="65.8403217" lon="12.2369601" version="1" timestamp="2022-07-17T05:53:23Z" changeset="123708550" uid="3497659" user="NKA">
		<tag k="name" v="Hestøygården" />
		<tag k="place" v="farm" />
		<tag k="ssr:stedsnr" v="119611" />
	</node>
	<node id="9892687158" lat="65.9014769" lon="12.5392412" version="1" timestamp="2022-07-17T05:53:23Z" changeset="123708550" uid="3497659" user="NKA">
		<tag k="name" v="Hamnes" />
		<tag k="place" v="hamlet" />
		<tag k="ssr:stedsnr" v="683346" />
	</node>
	<node id="9892687159" lat="65.9963488" lon="12.5379268" version="1" timestamp="2022-07-17T05:53:23Z" changeset="123708550" uid="3497659" user="NKA">
		<tag k="alt_name" v="Litlegården" />
		<tag k="name" v="Lillegården" />
		<tag k="place" v="neighbourhood" />
		<tag k="ssr:stedsnr" v="701607" />
	</node>
	<node id="9892687160" lat="66.0146" lon="12.6258556" version="1" timestamp="2022-07-17T05:53:23Z" changeset="123708550" uid="3497659" user="NKA">
		<tag k="name" v="Sandnes" />
		<tag k="place" v="farm" />
		<tag k="ssr:stedsnr" v="753362" />
	</node>
	<node id="9892687161" lat="65.9775521" lon="12.5623082" version="1" timestamp="2022-07-17T05:53:23Z" changeset="123708550" uid="3497659" user="NKA">
		<tag k="alt_name" v="Breidmo" />
		<tag k="name" v="Breimo" />
		<tag k="place" v="farm" />
		<tag k="ssr:stedsnr" v="683252" />
	</node>
	<node id="9892687162" lat="65.9301861" lon="12.4716639" version="1" timestamp="2022-07-17T05:53:23Z" changeset="123708550" uid="3497659" user="NKA">
		<tag k="alt_name" v="Årenga" />
		<tag k="name" v="Årengen" />
		<tag k="place" v="farm" />
		<tag k="ssr:stedsnr" v="743363" />
	</node>
	<node id="9892687163" lat="65.9578281" lon="12.526315" version="1" timestamp="2022-07-17T05:53:23Z" changeset="123708550" uid="3497659" user="NKA">
		<tag k="name" v="Dalen" />
		<tag k="place" v="farm" />
		<tag k="ssr:stedsnr" v="682318" />
	</node>
	<node id="9892687164" lat="65.9734205" lon="12.5676386" version="1" timestamp="2022-07-17T05:53:23Z" changeset="123708550" uid="3497659" user="NKA">
		<tag k="name" v="Øvre-Breimo" />
		<tag k="place" v="farm" />
		<tag k="ssr:stedsnr" v="519482" />
	</node>
	<node id="9892687165" lat="65.9509284" lon="12.4856477" version="1" timestamp="2022-07-17T05:53:23Z" changeset="123708550" uid="3497659" user="NKA">
		<tag k="name" v="Nymoen" />
		<tag k="place" v="farm" />
		<tag k="ssr:stedsnr" v="519990" />
	</node>
	<node id="9892687166" lat="65.8059084" lon="12.5518139" version="1" timestamp="2022-07-17T05:53:23Z" changeset="123708550" uid="3497659" user="NKA">
		<tag k="name" v="Åsvang" />
		<tag k="place" v="farm" />
		<tag k="ssr:stedsnr" v="481097" />
	</node>
	<node id="9892687167" lat="65.8664222" lon="12.4590861" version="1" timestamp="2022-07-17T05:53:23Z" changeset="123708550" uid="3497659" user="NKA">
		<tag k="name" v="Myren" />
		<tag k="place" v="farm" />
		<tag k="ssr:stedsnr" v="571279" />
	</node>
	<node id="9892687168" lat="65.8507387" lon="12.4966241" version="1" timestamp="2022-07-17T05:53:23Z" changeset="123708550" uid="3497659" user="NKA">
		<tag k="name" v="Fanavika" />
		<tag k="place" v="farm" />
		<tag k="ssr:stedsnr" v="458566" />
	</node>
	<node id="9892687169" lat="65.8724032" lon="12.4709473" version="1" timestamp="2022-07-17T05:53:23Z" changeset="123708550" uid="3497659" user="NKA">
		<tag k="name" v="Nyrud" />
		<tag k="place" v="hamlet" />
		<tag k="ssr:stedsnr" v="500458" />
	</node>
	<node id="9892687170" lat="65.9240834" lon="12.4490612" version="1" timestamp="2022-07-17T05:53:23Z" changeset="123708550" uid="3497659" user="NKA">
		<tag k="alt_name" v="Ytre Søvika" />
		<tag k="name" v="Wanggården" />
		<tag k="place" v="farm" />
		<tag k="ssr:stedsnr" v="440364" />
	</node>
	<node id="9892687171" lat="65.8653167" lon="12.4863251" version="1" timestamp="2022-07-17T05:53:23Z" changeset="123708550" uid="3497659" user="NKA">
		<tag k="name" v="Tømmervika" />
		<tag k="place" v="farm" />
		<tag k="ssr:stedsnr" v="440429" />
	</node>
	<node id="9892687172" lat="65.948844" lon="12.4973091" version="1" timestamp="2022-07-17T05:53:23Z" changeset="123708550" uid="3497659" user="NKA">
		<tag k="name" v="Djupdal" />
		<tag k="place" v="farm" />
		<tag k="ssr:stedsnr" v="398985" />
	</node>
	<node id="9892687173" lat="65.9818555" lon="12.5959862" version="1" timestamp="2022-07-17T05:53:23Z" changeset="123708550" uid="3497659" user="NKA">
		<tag k="name" v="Gården" />
		<tag k="place" v="farm" />
		<tag k="ssr:stedsnr" v="398404" />
	</node>
	<node id="9892687174" lat="65.981625" lon="12.6010056" version="1" timestamp="2022-07-17T05:53:23Z" changeset="123708550" uid="3497659" user="NKA">
		<tag k="name" v="Trøa" />
		<tag k="place" v="farm" />
		<tag k="ssr:stedsnr" v="398403" />
	</node>
	<node id="9892687175" lat="65.9598791" lon="12.4781599" version="1" timestamp="2022-07-17T05:53:23Z" changeset="123708550" uid="3497659" user="NKA">
		<tag k="name" v="Skogly" />
		<tag k="place" v="farm" />
		<tag k="ssr:stedsnr" v="379299" />
	</node>
	<node id="9892687176" lat="65.9300278" lon="12.3037166" version="1" timestamp="2022-07-17T05:53:23Z" changeset="123708550" uid="3497659" user="NKA">
		<tag k="name" v="Buøya" />
		<tag k="place" v="farm" />
		<tag k="ssr:stedsnr" v="101233" />
	</node>
	<node id="9892687177" lat="65.9552742" lon="12.539741" version="1" timestamp="2022-07-17T05:53:23Z" changeset="123708550" uid="3497659" user="NKA">
		<tag k="name" v="Øvre Markvoll" />
		<tag k="place" v="farm" />
		<tag k="ssr:stedsnr" v="155252" />
	</node>
	<node id="9892687178" lat="65.9511926" lon="12.5007259" version="1" timestamp="2022-07-17T05:53:23Z" changeset="123708550" uid="3497659" user="NKA">
		<tag k="name" v="Porsengåsen" />
		<tag k="place" v="farm" />
		<tag k="ssr:stedsnr" v="640988" />
	</node>
	<node id="9892687179" lat="65.8647417" lon="12.4687472" version="1" timestamp="2022-07-17T05:53:23Z" changeset="123708550" uid="3497659" user="NKA">
		<tag k="name" v="Klipen" />
		<tag k="place" v="farm" />
		<tag k="ssr:stedsnr" v="86312" />
	</node>
	<node id="9892687180" lat="65.8055904" lon="12.5415452" version="1" timestamp="2022-07-17T05:53:23Z" changeset="123708550" uid="3497659" user="NKA">
		<tag k="name" v="Vonheim" />
		<tag k="place" v="farm" />
		<tag k="ssr:stedsnr" v="299081" />
	</node>
	<node id="9892687181" lat="65.9502767" lon="12.4620123" version="1" timestamp="2022-07-17T05:53:23Z" changeset="123708550" uid="3497659" user="NKA">
		<tag k="name" v="Steiro" />
		<tag k="place" v="farm" />
		<tag k="ssr:stedsnr" v="267652" />
	</node>
	<node id="9892687182" lat="66.0062889" lon="12.5673945" version="1" timestamp="2022-07-17T05:53:23Z" changeset="123708550" uid="3497659" user="NKA">
		<tag k="name" v="Myrholt" />
		<tag k="place" v="farm" />
		<tag k="ssr:stedsnr" v="258892" />
	</node>
	<node id="9892687183" lat="65.9593363" lon="12.4636638" version="1" timestamp="2022-07-17T05:53:23Z" changeset="123708550" uid="3497659" user="NKA">
		<tag k="name" v="Karvestrand" />
		<tag k="place" v="farm" />
		<tag k="ssr:stedsnr" v="258285" />
	</node>
	<node id="9892687184" lat="65.7923328" lon="12.5254536" version="1" timestamp="2022-07-17T05:53:23Z" changeset="123708550" uid="3497659" user="NKA">
		<tag k="name" v="Jøsåsen" />
		<tag k="place" v="farm" />
		<tag k="ssr:stedsnr" v="926012" />
	</node>
	<node id="9892687185" lat="65.9500972" lon="12.4924971" version="1" timestamp="2022-07-17T05:53:23Z" changeset="123708550" uid="3497659" user="NKA">
		<tag k="name" v="Åsheim" />
		<tag k="place" v="farm" />
		<tag k="ssr:stedsnr" v="136338" />
	</node>
	<node id="9892687186" lat="65.8604028" lon="12.4302972" version="1" timestamp="2022-07-17T05:53:23Z" changeset="123708550" uid="3497659" user="NKA">
		<tag k="name" v="Sundet" />
		<tag k="place" v="farm" />
		<tag k="ssr:stedsnr" v="511294" />
	</node>
	<node id="9892687187" lat="65.8321062" lon="12.422907" version="1" timestamp="2022-07-17T05:53:23Z" changeset="123708550" uid="3497659" user="NKA">
		<tag k="alt_name" v="Sundet" />
		<tag k="name" v="Sundgårdene" />
		<tag k="place" v="farm" />
		<tag k="ssr:stedsnr" v="865502" />
	</node>
	<node id="9892687188" lat="65.87135" lon="12.4781001" version="1" timestamp="2022-07-17T05:53:23Z" changeset="123708550" uid="3497659" user="NKA">
		<tag k="name" v="Lunden" />
		<tag k="place" v="farm" />
		<tag k="ssr:stedsnr" v="76411" />
	</node>
	<node id="9892687189" lat="65.9642765" lon="12.4816473" version="1" timestamp="2022-07-17T05:53:23Z" changeset="123708550" uid="3497659" user="NKA">
		<tag k="name" v="Stokka" />
		<tag k="place" v="farm" />
		<tag k="ssr:stedsnr" v="76281" />
	</node>
	<node id="9892687190" lat="65.867275" lon="12.4460278" version="1" timestamp="2022-07-17T05:53:23Z" changeset="123708550" uid="3497659" user="NKA">
		<tag k="name" v="Heia" />
		<tag k="place" v="farm" />
		<tag k="ssr:stedsnr" v="258413" />
	</node>
	<node id="9892687191" lat="65.9267639" lon="12.4634055" version="1" timestamp="2022-07-17T05:53:23Z" changeset="123708550" uid="3497659" user="NKA">
		<tag k="name" v="Søvikstranda" />
		<tag k="place" v="farm" />
		<tag k="ssr:stedsnr" v="15361" />
	</node>
	<node id="9892687192" lat="65.8692335" lon="12.450579" version="1" timestamp="2022-07-17T05:53:23Z" changeset="123708550" uid="3497659" user="NKA">
		<tag k="name" v="Gammelgården" />
		<tag k="place" v="farm" />
		<tag k="ssr:stedsnr" v="197462" />
	</node>
	<node id="9892687193" lat="65.9337474" lon="12.4824846" version="1" timestamp="2022-07-17T05:53:23Z" changeset="123708550" uid="3497659" user="NKA">
		<tag k="alt_name" v="Helkna" />
		<tag k="name" v="Herten" />
		<tag k="place" v="hamlet" />
		<tag k="ssr:stedsnr" v="15360" />
	</node>
	<node id="9892687194" lat="65.9935181" lon="12.570415" version="1" timestamp="2022-07-17T05:53:23Z" changeset="123708550" uid="3497659" user="NKA">
		<tag k="name" v="Vintervold" />
		<tag k="place" v="farm" />
		<tag k="ssr:stedsnr" v="883505" />
	</node>
	<node id="9892687195" lat="65.8141299" lon="12.5426347" version="1" timestamp="2022-07-17T05:53:23Z" changeset="123708550" uid="3497659" user="NKA">
		<tag k="name" v="Rødøya" />
		<tag k="place" v="hamlet" />
		<tag k="ssr:stedsnr" v="561494" />
	</node>
	<node id="9892687196" lat="65.8648713" lon="12.4615489" version="1" timestamp="2022-07-17T05:53:23Z" changeset="123708550" uid="3497659" user="NKA">
		<tag k="name" v="Vågen" />
		<tag k="place" v="farm" />
		<tag k="ssr:stedsnr" v="925465" />
	</node>
	<node id="9892687197" lat="65.8753806" lon="12.499425" version="1" timestamp="2022-07-17T05:53:23Z" changeset="123708550" uid="3497659" user="NKA">
		<tag k="alt_name" v="Marka" />
		<tag k="name" v="Marken" />
		<tag k="place" v="farm" />
		<tag k="ssr:stedsnr" v="622383" />
	</node>
	<node id="9892687198" lat="65.9945627" lon="12.5806419" version="1" timestamp="2022-07-17T05:53:23Z" changeset="123708550" uid="3497659" user="NKA">
		<tag k="name" v="Nordbø" />
		<tag k="place" v="farm" />
		<tag k="ssr:stedsnr" v="640393" />
	</node>
	<node id="9892687199" lat="65.9347084" lon="12.4671362" version="1" timestamp="2022-07-17T05:53:23Z" changeset="123708550" uid="3497659" user="NKA">
		<tag k="name" v="Haravollen" />
		<tag k="place" v="farm" />
		<tag k="ssr:stedsnr" v="459684" />
	</node>
	<node id="9892687200" lat="65.9815056" lon="12.5755618" version="1" timestamp="2022-07-17T05:53:23Z" changeset="123708550" uid="3497659" user="NKA">
		<tag k="name" v="Sørra" />
		<tag k="place" v="hamlet" />
		<tag k="ssr:stedsnr" v="622263" />
	</node>
	<node id="9892687201" lat="65.8964333" lon="12.4560195" version="1" timestamp="2022-07-17T05:53:23Z" changeset="123708550" uid="3497659" user="NKA">
		<tag k="name" v="Klubben" />
		<tag k="place" v="farm" />
		<tag k="ssr:stedsnr" v="336443" />
	</node>
	<node id="9892687202" lat="65.9791756" lon="12.5261697" version="1" timestamp="2022-07-17T05:53:23Z" changeset="123708550" uid="3497659" user="NKA">
		<tag k="name" v="Husmo" />
		<tag k="place" v="farm" />
		<tag k="ssr:stedsnr" v="336151" />
	</node>
	<node id="9892687203" lat="65.9925782" lon="12.5598858" version="1" timestamp="2022-07-17T05:53:23Z" changeset="123708550" uid="3497659" user="NKA">
		<tag k="name" v="Kleiva" />
		<tag k="place" v="hamlet" />
		<tag k="ssr:stedsnr" v="424462" />
	</node>
	<node id="9892687204" lat="65.9703428" lon="12.5143245" version="1" timestamp="2022-07-17T05:53:23Z" changeset="123708550" uid="3497659" user="NKA">
		<tag k="name" v="Nyhus" />
		<tag k="place" v="farm" />
		<tag k="ssr:stedsnr" v="216440" />
	</node>
	<node id="9892687205" lat="66.023775" lon="12.6755445" version="1" timestamp="2022-07-17T05:53:23Z" changeset="123708550" uid="3497659" user="NKA">
		<tag k="name" v="Osodden" />
		<tag k="place" v="farm" />
		<tag k="ssr:stedsnr" v="819770" />
	</node>
	<node id="9892687206" lat="65.9981193" lon="12.5425039" version="1" timestamp="2022-07-17T05:53:23Z" changeset="123708550" uid="3497659" user="NKA">
		<tag k="name" v="Engan" />
		<tag k="place" v="quarter" />
		<tag k="ssr:stedsnr" v="15680" />
	</node>
	<node id="9892687207" lat="65.9222993" lon="12.4572368" version="1" timestamp="2022-07-17T05:53:23Z" changeset="123708550" uid="3497659" user="NKA">
		<tag k="alt_name" v="Søvika" />
		<tag k="name" v="Søvik" />
		<tag k="place" v="farm" />
		<tag k="ssr:stedsnr" v="743353" />
	</node>
	<node id="9892687208" lat="65.8357557" lon="12.4499945" version="1" timestamp="2022-07-17T05:53:23Z" changeset="123708550" uid="3497659" user="NKA">
		<tag k="name" v="Valan" />
		<tag k="place" v="farm" />
		<tag k="ssr:stedsnr" v="622466" />
	</node>
	<node id="9892687209" lat="65.9363013" lon="12.4676415" version="1" timestamp="2022-07-17T05:53:23Z" changeset="123708550" uid="3497659" user="NKA">
		<tag k="name" v="Engevollan" />
		<tag k="place" v="farm" />
		<tag k="ssr:stedsnr" v="823671" />
	</node>
	<node id="9892687210" lat="65.959396" lon="12.5170892" version="1" timestamp="2022-07-17T05:53:23Z" changeset="123708550" uid="3497659" user="NKA">
		<tag k="alt_name" v="Dalsmoen" />
		<tag k="name" v="Dalmoen" />
		<tag k="place" v="farm" />
		<tag k="ssr:stedsnr" v="15319" />
	</node>
	<node id="9892687211" lat="65.984125" lon="12.5050638" version="1" timestamp="2022-07-17T05:53:23Z" changeset="123708550" uid="3497659" user="NKA">
		<tag k="name" v="Moheim" />
		<tag k="place" v="farm" />
		<tag k="ssr:stedsnr" v="561268" />
	</node>
	<node id="9892687212" lat="65.9844462" lon="12.5165379" version="1" timestamp="2022-07-17T05:53:23Z" changeset="123708550" uid="3497659" user="NKA">
		<tag k="name" v="Novika" />
		<tag k="old_name" v="Nordvika" />
		<tag k="place" v="farm" />
		<tag k="ssr:stedsnr" v="15277" />
	</node>
	<node id="9892687213" lat="65.90655" lon="12.41245" version="1" timestamp="2022-07-17T05:53:23Z" changeset="123708550" uid="3497659" user="NKA">
		<tag k="name" v="Lia" />
		<tag k="place" v="farm" />
		<tag k="ssr:stedsnr" v="198315" />
	</node>
	<node id="9892687214" lat="65.8756106" lon="12.2607886" version="1" timestamp="2022-07-17T05:53:23Z" changeset="123708550" uid="3497659" user="NKA">
		<tag k="name" v="Skjåteigene" />
		<tag k="place" v="farm" />
		<tag k="ssr:stedsnr" v="334078" />
	</node>
	<node id="9892687215" lat="65.8929017" lon="12.3977495" version="1" timestamp="2022-07-17T05:53:23Z" changeset="123708550" uid="3497659" user="NKA">
		<tag k="name" v="Alstahaug" />
		<tag k="place" v="farm" />
		<tag k="ssr:stedsnr" v="299012" />
	</node>
	<node id="9892687216" lat="66.0142589" lon="12.6453709" version="1" timestamp="2022-07-17T05:53:23Z" changeset="123708550" uid="3497659" user="NKA">
		<tag k="name" v="Krokenåsen" />
		<tag k="natural" v="hill" />
		<tag k="place" v="neighbourhood" />
		<tag k="ssr:stedsnr" v="519998" />
	</node>
	<node id="9892687217" lat="65.9803567" lon="12.5090023" version="1" timestamp="2022-07-17T05:53:23Z" changeset="123708550" uid="3497659" user="NKA">
		<tag k="name" v="Sørnovika" />
		<tag k="place" v="hamlet" />
		<tag k="ssr:stedsnr" v="197284" />
	</node>
	<node id="9892687218" lat="65.9914945" lon="12.5878445" version="1" timestamp="2022-07-17T05:53:23Z" changeset="123708550" uid="3497659" user="NKA">
		<tag k="alt_name" v="Bjørklia" />
		<tag k="name" v="Bjørkli" />
		<tag k="place" v="farm" />
		<tag k="ssr:stedsnr" v="197659" />
	</node>
	<node id="9892687219" lat="65.859106" lon="12.6101527" version="1" timestamp="2022-07-17T05:53:23Z" changeset="123708550" uid="3497659" user="NKA">
		<tag k="name" v="Bærøya" />
		<tag k="place" v="farm" />
		<tag k="ssr:stedsnr" v="1072405" />
	</node>
	<node id="9892687220" lat="65.9559733" lon="12.5362778" version="1" timestamp="2022-07-17T05:53:23Z" changeset="123708550" uid="3497659" user="NKA">
		<tag k="name" v="Nedre Markvoll" />
		<tag k="place" v="farm" />
		<tag k="ssr:stedsnr" v="883320" />
	</node>
	<node id="9892687221" lat="66.0185528" lon="12.6020749" version="1" timestamp="2022-07-17T05:53:23Z" changeset="123708550" uid="3497659" user="NKA">
		<tag k="alt_name" v="Stamnesøyra" />
		<tag k="name" v="Stamnesøra" />
		<tag k="place" v="quarter" />
		<tag k="ssr:stedsnr" v="804892" />
	</node>
	<node id="9892687224" lat="66.0090682" lon="12.576089" version="1" timestamp="2022-07-17T05:53:23Z" changeset="123708550" uid="3497659" user="NKA">
		<tag k="name" v="Segelbergan" />
		<tag k="place" v="quarter" />
		<tag k="ssr:stedsnr" v="640923" />
	</node>
	<node id="9892687225" lat="65.8986195" lon="12.4029472" version="1" timestamp="2022-07-17T05:53:23Z" changeset="123708550" uid="3497659" user="NKA">
		<tag k="name" v="Kvernbakken" />
		<tag k="place" v="farm" />
		<tag k="ssr:stedsnr" v="570596" />
	</node>
	<node id="9892687226" lat="65.9213065" lon="12.4131245" version="1" timestamp="2022-07-17T05:53:23Z" changeset="123708550" uid="3497659" user="NKA">
		<tag k="name" v="Skjeggesnes" />
		<tag k="place" v="farm" />
		<tag k="ssr:stedsnr" v="865382" />
	</node>
	<node id="9892687227" lat="65.8648528" lon="12.4467584" version="1" timestamp="2022-07-17T05:53:23Z" changeset="123708550" uid="3497659" user="NKA">
		<tag k="name" v="Skjelosen" />
		<tag k="place" v="farm" />
		<tag k="ssr:stedsnr" v="743430" />
	</node>
	<node id="9892687228" lat="65.935025" lon="12.4716305" version="1" timestamp="2022-07-17T05:53:23Z" changeset="123708550" uid="3497659" user="NKA">
		<tag k="name" v="Bakken" />
		<tag k="place" v="farm" />
		<tag k="ssr:stedsnr" v="865358" />
	</node>
	<node id="9892687229" lat="65.940594" lon="12.4559605" version="1" timestamp="2022-07-17T05:53:23Z" changeset="123708550" uid="3497659" user="NKA">
		<tag k="name" v="Myrvoll" />
		<tag k="place" v="farm" />
		<tag k="ssr:stedsnr" v="865359" />
	</node>
	<node id="9892687230" lat="65.8575195" lon="12.6111779" version="1" timestamp="2022-07-17T05:53:23Z" changeset="123708550" uid="3497659" user="NKA">
		<tag k="name" v="Fjølvika" />
		<tag k="place" v="farm" />
		<tag k="ssr:stedsnr" v="389240" />
	</node>
	<node id="9892687231" lat="66.0163195" lon="12.6052824" version="1" timestamp="2022-07-17T05:53:23Z" changeset="123708550" uid="3497659" user="NKA">
		<tag k="name" v="Øren" />
		<tag k="place" v="neighbourhood" />
		<tag k="ssr:stedsnr" v="86415" />
	</node>
	<node id="9892687232" lat="65.9561361" lon="12.5397933" version="1" timestamp="2022-07-17T05:53:23Z" changeset="123708550" uid="3497659" user="NKA">
		<tag k="name" v="Markvoll" />
		<tag k="place" v="hamlet" />
		<tag k="ssr:stedsnr" v="865333" />
	</node>
	<node id="9892687233" lat="65.8549612" lon="12.4944777" version="1" timestamp="2022-07-17T05:53:23Z" changeset="123708550" uid="3497659" user="NKA">
		<tag k="name" v="Svinnes" />
		<tag k="place" v="hamlet" />
		<tag k="ssr:stedsnr" v="258422" />
	</node>
	<node id="9892687234" lat="65.930825" lon="12.463125" version="1" timestamp="2022-07-17T05:53:23Z" changeset="123708550" uid="3497659" user="NKA">
		<tag k="name" v="Nerneset" />
		<tag k="place" v="farm" />
		<tag k="ssr:stedsnr" v="640676" />
	</node>
	<node id="9892687235" lat="65.9836644" lon="12.5066188" version="1" timestamp="2022-07-17T05:53:23Z" changeset="123708550" uid="3497659" user="NKA">
		<tag k="name" v="Mølnsletta" />
		<tag k="place" v="farm" />
		<tag k="ssr:stedsnr" v="848053" />
	</node>
	<node id="9892687236" lat="65.8596445" lon="12.5232973" version="1" timestamp="2022-07-17T05:53:23Z" changeset="123708550" uid="3497659" user="NKA">
		<tag k="name" v="Bonholmen" />
		<tag k="place" v="farm" />
		<tag k="ssr:stedsnr" v="724055" />
	</node>
	<node id="9892687237" lat="65.8619417" lon="12.613836" version="1" timestamp="2022-07-17T05:53:23Z" changeset="123708550" uid="3497659" user="NKA">
		<tag k="name" v="Lavollen" />
		<tag k="place" v="farm" />
		<tag k="ssr:stedsnr" v="724095" />
	</node>
	<node id="9892687238" lat="65.9012167" lon="12.5210418" version="1" timestamp="2022-07-17T05:53:23Z" changeset="123708550" uid="3497659" user="NKA">
		<tag k="name" v="Mølnåsneset" />
		<tag k="place" v="farm" />
		<tag k="ssr:stedsnr" v="572760" />
	</node>
	<node id="9892687239" lat="65.7965591" lon="12.535134" version="1" timestamp="2022-07-17T05:53:23Z" changeset="123708550" uid="3497659" user="NKA">
		<tag k="name" v="Bergtun" />
		<tag k="place" v="farm" />
		<tag k="ssr:stedsnr" v="1078353" />
	</node>
	<node id="9892687240" lat="65.9022123" lon="12.5124989" version="1" timestamp="2022-07-17T05:53:23Z" changeset="123708550" uid="3497659" user="NKA">
		<tag k="name" v="Fjellmo" />
		<tag k="place" v="farm" />
		<tag k="ssr:stedsnr" v="622354" />
	</node>
	<node id="9892687241" lat="65.7684583" lon="12.449871" version="1" timestamp="2022-07-17T05:53:23Z" changeset="123708550" uid="3497659" user="NKA">
		<tag k="name" v="Mykkelbostad" />
		<tag k="place" v="hamlet" />
		<tag k="ssr:stedsnr" v="622044" />
	</node>
	<node id="9892687242" lat="65.8685176" lon="12.601086" version="1" timestamp="2022-07-17T05:53:23Z" changeset="123708550" uid="3497659" user="NKA">
		<tag k="alt_name" v="Haltøygården" />
		<tag k="name" v="Haltøya" />
		<tag k="place" v="farm" />
		<tag k="ssr:stedsnr" v="268232" />
	</node>
	<node id="9892687243" lat="65.9414933" lon="12.5090587" version="1" timestamp="2022-07-17T05:53:23Z" changeset="123708550" uid="3497659" user="NKA">
		<tag k="name" v="Tormodsvoll" />
		<tag k="place" v="farm" />
		<tag k="ssr:stedsnr" v="925358" />
	</node>
	<node id="9892687244" lat="65.7801888" lon="12.4717402" version="1" timestamp="2022-07-17T05:53:23Z" changeset="123708550" uid="3497659" user="NKA">
		<tag k="name" v="Nordbostad" />
		<tag k="place" v="hamlet" />
		<tag k="ssr:stedsnr" v="622053" />
	</node>
	<node id="9892687245" lat="65.9856941" lon="12.5116146" version="1" timestamp="2022-07-17T05:53:23Z" changeset="123708550" uid="3497659" user="NKA">
		<tag k="name" v="Myrheim" />
		<tag k="place" v="farm" />
		<tag k="ssr:stedsnr" v="180036" />
	</node>
	<node id="9892687246" lat="65.9028806" lon="12.51675" version="1" timestamp="2022-07-17T05:53:23Z" changeset="123708550" uid="3497659" user="NKA">
		<tag k="name" v="Jamtneset" />
		<tag k="place" v="farm" />
		<tag k="ssr:stedsnr" v="87747" />
	</node>
	<node id="9892687247" lat="65.9192473" lon="12.4257362" version="1" timestamp="2022-07-17T05:53:23Z" changeset="123708550" uid="3497659" user="NKA">
		<tag k="name" v="Jektvika" />
		<tag k="place" v="farm" />
		<tag k="ssr:stedsnr" v="91177" />
	</node>
	<node id="9892687248" lat="65.9383722" lon="12.4640888" version="1" timestamp="2022-07-17T05:53:23Z" changeset="123708550" uid="3497659" user="NKA">
		<tag k="name" v="Steinhaugen" />
		<tag k="place" v="farm" />
		<tag k="ssr:stedsnr" v="34676" />
	</node>
	<node id="9892687249" lat="65.9635611" lon="12.514339" version="1" timestamp="2022-07-17T05:53:23Z" changeset="123708550" uid="3497659" user="NKA">
		<tag k="name" v="Bekkevoll" />
		<tag k="place" v="farm" />
		<tag k="ssr:stedsnr" v="762240" />
	</node>
	<node id="9892687250" lat="65.9410192" lon="12.467058" version="1" timestamp="2022-07-17T05:53:23Z" changeset="123708550" uid="3497659" user="NKA">
		<tag k="name" v="Gårdvik" />
		<tag k="place" v="farm" />
		<tag k="ssr:stedsnr" v="34679" />
	</node>
	<node id="9892687251" lat="65.9933778" lon="12.5274749" version="1" timestamp="2022-07-17T05:53:23Z" changeset="123708550" uid="3497659" user="NKA">
		<tag k="name" v="Oterholt" />
		<tag k="place" v="farm" />
		<tag k="ssr:stedsnr" v="683606" />
	</node>
	<node id="9892687252" lat="66.0007" lon="12.5482223" version="1" timestamp="2022-07-17T05:53:23Z" changeset="123708550" uid="3497659" user="NKA">
		<tag k="name" v="Urvika" />
		<tag k="place" v="farm" />
		<tag k="ssr:stedsnr" v="570638" />
	</node>
	<node id="9892687253" lat="65.9805" lon="12.5286029" version="1" timestamp="2022-07-17T05:53:23Z" changeset="123708550" uid="3497659" user="NKA">
		<tag k="name" v="Vollan" />
		<tag k="place" v="farm" />
		<tag k="ssr:stedsnr" v="319251" />
	</node>
	<node id="9892687254" lat="65.9962605" lon="12.5449565" version="1" timestamp="2022-07-17T05:53:23Z" changeset="123708550" uid="3497659" user="NKA">
		<tag k="name" v="Haugerud" />
		<tag k="place" v="neighbourhood" />
		<tag k="ssr:stedsnr" v="34523" />
	</node>
	<node id="9892687255" lat="65.9387666" lon="12.4614944" version="1" timestamp="2022-07-17T05:53:23Z" changeset="123708550" uid="3497659" user="NKA">
		<tag k="name" v="Gårdhaugen" />
		<tag k="place" v="farm" />
		<tag k="ssr:stedsnr" v="209717" />
	</node>
	<node id="9892687256" lat="65.9024973" lon="12.502739" version="1" timestamp="2022-07-17T05:53:23Z" changeset="123708550" uid="3497659" user="NKA">
		<tag k="name" v="Asplund" />
		<tag k="place" v="farm" />
		<tag k="ssr:stedsnr" v="319352" />
	</node>
	<node id="9892687257" lat="66.0143555" lon="12.6361388" version="1" timestamp="2022-07-17T05:53:23Z" changeset="123708550" uid="3497659" user="NKA">
		<tag k="name" v="Kroken" />
		<tag k="place" v="neighbourhood" />
		<tag k="ssr:stedsnr" v="277887" />
	</node>
	<node id="9892687258" lat="65.9310908" lon="12.46637" version="1" timestamp="2022-07-17T05:53:23Z" changeset="123708550" uid="3497659" user="NKA">
		<tag k="name" v="Elvebakk" />
		<tag k="place" v="farm" />
		<tag k="ssr:stedsnr" v="94685" />
	</node>
	<node id="9892687259" lat="65.7956639" lon="12.5462693" version="1" timestamp="2022-07-17T05:53:23Z" changeset="123708550" uid="3497659" user="NKA">
		<tag k="name" v="Halssjøen" />
		<tag k="place" v="farm" />
		<tag k="ssr:stedsnr" v="663087" />
	</node>
	<node id="9892687260" lat="65.8858957" lon="12.2844029" version="1" timestamp="2022-07-17T05:53:23Z" changeset="123708550" uid="3497659" user="NKA">
		<tag k="name" v="Korsvegen" />
		<tag k="place" v="hamlet" />
		<tag k="ssr:stedsnr" v="925412" />
	</node>
	<node id="9892687261" lat="65.8351736" lon="12.5774463" version="1" timestamp="2022-07-17T05:53:23Z" changeset="123708550" uid="3497659" user="NKA">
		<tag k="name" v="Tangen" />
		<tag k="place" v="hamlet" />
		<tag k="ssr:stedsnr" v="501459" />
	</node>
	<node id="9892687262" lat="65.8036142" lon="12.5496631" version="1" timestamp="2022-07-17T05:53:23Z" changeset="123708550" uid="3497659" user="NKA">
		<tag k="name" v="Nerhalsen" />
		<tag k="place" v="farm" />
		<tag k="ssr:stedsnr" v="501014" />
	</node>
	<node id="9892687263" lat="65.8010666" lon="12.5466582" version="1" timestamp="2022-07-17T05:53:23Z" changeset="123708550" uid="3497659" user="NKA">
		<tag k="name" v="Myra" />
		<tag k="place" v="farm" />
		<tag k="ssr:stedsnr" v="15026" />
	</node>
	<node id="9892687264" lat="65.8055206" lon="12.5480572" version="1" timestamp="2022-07-17T05:53:23Z" changeset="123708550" uid="3497659" user="NKA">
		<tag k="name" v="Åsen" />
		<tag k="place" v="farm" />
		<tag k="ssr:stedsnr" v="76033" />
	</node>
	<node id="9892687265" lat="65.7982939" lon="12.5512631" version="1" timestamp="2022-07-17T05:53:23Z" changeset="123708550" uid="3497659" user="NKA">
		<tag k="name" v="Stevjen" />
		<tag k="place" v="farm" />
		<tag k="ssr:stedsnr" v="846076" />
	</node>
	<node id="9892687266" lat="65.8842668" lon="12.2822921" version="1" timestamp="2022-07-17T05:53:23Z" changeset="123708550" uid="3497659" user="NKA">
		<tag k="alt_name" v="Blomsøy" />
		<tag k="name" v="Blomsøya" />
		<tag k="place" v="farm" />
		<tag k="ssr:stedsnr" v="516095" />
	</node>
	<node id="9892687267" lat="65.8064908" lon="12.5637598" version="1" timestamp="2022-07-17T05:53:23Z" changeset="123708550" uid="3497659" user="NKA">
		<tag k="name" v="Heggåsen" />
		<tag k="place" v="farm" />
		<tag k="ssr:stedsnr" v="421085" />
	</node>
	<node id="9892687268" lat="65.8383111" lon="12.1552471" version="1" timestamp="2022-07-17T05:53:23Z" changeset="123708550" uid="3497659" user="NKA">
		<tag k="name" v="Langøya" />
		<tag k="place" v="farm" />
		<tag k="ssr:stedsnr" v="542066" />
	</node>
	<node id="9892687269" lat="66.0218139" lon="12.6641809" version="1" timestamp="2022-07-17T05:53:23Z" changeset="123708550" uid="3497659" user="NKA">
		<tag k="name" v="Horvneset" />
		<tag k="place" v="quarter" />
		<tag k="ssr:stedsnr" v="379890" />
	</node>
	<node id="9892687270" lat="65.8815228" lon="12.2803607" version="1" timestamp="2022-07-17T05:53:23Z" changeset="123708550" uid="3497659" user="NKA">
		<tag k="name" v="Ryken" />
		<tag k="place" v="farm" />
		<tag k="ssr:stedsnr" v="622366" />
	</node>
	<node id="9892687271" lat="65.8633488" lon="12.1749489" version="1" timestamp="2022-07-17T05:53:23Z" changeset="123708550" uid="3497659" user="NKA">
		<tag k="name" v="Skålværet" />
		<tag k="place" v="hamlet" />
		<tag k="ssr:stedsnr" v="725062" />
	</node>
	<node id="9892687272" lat="65.9338611" lon="12.3429834" version="1" timestamp="2022-07-17T05:53:23Z" changeset="123708550" uid="3497659" user="NKA">
		<tag k="alt_name" v="Altergården" />
		<tag k="name" v="Altra" />
		<tag k="place" v="farm" />
		<tag k="ssr:stedsnr" v="197347" />
	</node>
	<node id="9892687273" lat="65.9368631" lon="12.4657204" version="1" timestamp="2022-07-17T05:53:23Z" changeset="123708550" uid="3497659" user="NKA">
		<tag k="name" v="Lund" />
		<tag k="place" v="hamlet" />
		<tag k="ssr:stedsnr" v="804343" />
	</node>
	<node id="9892687274" lat="65.8569361" lon="12.2497973" version="1" timestamp="2022-07-17T05:53:23Z" changeset="123708550" uid="3497659" user="NKA">
		<tag k="name" v="Blomsøyvalen" />
		<tag k="place" v="hamlet" />
		<tag k="ssr:stedsnr" v="500480" />
	</node>
	<node id="9892687275" lat="65.8671602" lon="12.4669113" version="1" timestamp="2022-07-17T05:53:23Z" changeset="123708550" uid="3497659" user="NKA">
		<tag k="alt_name" v="Trøa" />
		<tag k="name" v="Trøen" />
		<tag k="place" v="farm" />
		<tag k="ssr:stedsnr" v="743432" />
	</node>
	<node id="9892687276" lat="65.879875" lon="12.2717445" version="1" timestamp="2022-07-17T05:53:23Z" changeset="123708550" uid="3497659" user="NKA">
		<tag k="name" v="Moen" />
		<tag k="place" v="farm" />
		<tag k="ssr:stedsnr" v="258383" />
	</node>
	<node id="9892687277" lat="65.7924199" lon="12.5316549" version="1" timestamp="2022-07-17T05:53:23Z" changeset="123708550" uid="3497659" user="NKA">
		<tag k="name" v="Bøen" />
		<tag k="place" v="farm" />
		<tag k="ssr:stedsnr" v="76023" />
	</node>
	<node id="9892687278" lat="65.9821167" lon="12.503586" version="1" timestamp="2022-07-17T05:53:23Z" changeset="123708550" uid="3497659" user="NKA">
		<tag k="name" v="Tingvoll" />
		<tag k="place" v="farm" />
		<tag k="ssr:stedsnr" v="683236" />
	</node>
	<node id="9892687279" lat="65.9241639" lon="12.4364028" version="1" timestamp="2022-07-17T05:53:23Z" changeset="123708550" uid="3497659" user="NKA">
		<tag k="name" v="Søvikmoen" />
		<tag k="place" v="neighbourhood" />
		<tag k="ssr:stedsnr" v="519683" />
	</node>
	<node id="9892687280" lat="65.9926528" lon="12.6183083" version="1" timestamp="2022-07-17T05:53:23Z" changeset="123708550" uid="3497659" user="NKA">
		<tag k="name" v="Nordenget" />
		<tag k="place" v="farm" />
		<tag k="ssr:stedsnr" v="683598" />
	</node>
	<node id="9892687281" lat="65.9957889" lon="12.5647305" version="1" timestamp="2022-07-17T05:53:23Z" changeset="123708550" uid="3497659" user="NKA">
		<tag k="name" v="Myrvang" />
		<tag k="place" v="farm" />
		<tag k="ssr:stedsnr" v="501601" />
	</node>
	<node id="9892687282" lat="65.9782167" lon="12.5238362" version="1" timestamp="2022-07-17T05:53:23Z" changeset="123708550" uid="3497659" user="NKA">
		<tag k="name" v="Krokan" />
		<tag k="place" v="farm" />
		<tag k="ssr:stedsnr" v="501259" />
	</node>
	<node id="9892687283" lat="65.9908528" lon="12.5286722" version="1" timestamp="2022-07-17T05:53:23Z" changeset="123708550" uid="3497659" user="NKA">
		<tag k="name" v="Porsmoen" />
		<tag k="place" v="farm" />
		<tag k="ssr:stedsnr" v="501603" />
	</node>
	<node id="9892687284" lat="66.011875" lon="12.6300805" version="1" timestamp="2022-07-17T05:53:23Z" changeset="123708550" uid="3497659" user="NKA">
		<tag k="name" v="Matstia" />
		<tag k="place" v="neighbourhood" />
		<tag k="ssr:stedsnr" v="155864" />
	</node>
	<node id="9892687285" lat="65.994225" lon="12.5876749" version="1" timestamp="2022-07-17T05:53:23Z" changeset="123708550" uid="3497659" user="NKA">
		<tag k="name" v="Nordheim" />
		<tag k="place" v="farm" />
		<tag k="ssr:stedsnr" v="379616" />
	</node>
	<node id="9892687286" lat="65.7565909" lon="12.4010305" version="1" timestamp="2022-07-17T05:53:23Z" changeset="123708550" uid="3497659" user="NKA">
		<tag k="name" v="Gjerdet" />
		<tag k="place" v="hamlet" />
		<tag k="ssr:stedsnr" v="258089" />
	</node>
	<node id="9892687287" lat="65.7954575" lon="12.543566" version="1" timestamp="2022-07-17T05:53:23Z" changeset="123708550" uid="3497659" user="NKA">
		<tag k="name" v="Halsen" />
		<tag k="place" v="farm" />
		<tag k="ssr:stedsnr" v="299074" />
	</node>
	<node id="9892687288" lat="66.0089222" lon="12.6505277" version="1" timestamp="2022-07-17T05:53:23Z" changeset="123708550" uid="3497659" user="NKA">
		<tag k="name" v="Siva" />
		<tag k="place" v="neighbourhood" />
		<tag k="ssr:stedsnr" v="76884" />
	</node>
	<node id="9892687289" lat="65.9664084" lon="12.5036111" version="1" timestamp="2022-07-17T05:53:23Z" changeset="123708550" uid="3497659" user="NKA">
		<tag k="name" v="Hellbekken" />
		<tag k="place" v="farm" />
		<tag k="ssr:stedsnr" v="76280" />
	</node>
	<node id="9892687290" lat="65.9289076" lon="12.4681839" version="1" timestamp="2022-07-17T05:53:23Z" changeset="123708550" uid="3497659" user="NKA">
		<tag k="name" v="Brovoll" />
		<tag k="place" v="farm" />
		<tag k="ssr:stedsnr" v="155628" />
	</node>
	<node id="9892687291" lat="65.9404612" lon="12.4662972" version="1" timestamp="2022-07-17T05:53:23Z" changeset="123708550" uid="3497659" user="NKA">
		<tag k="name" v="Skaret" />
		<tag k="place" v="farm" />
		<tag k="ssr:stedsnr" v="937785" />
	</node>
	<node id="9892687292" lat="65.994575" lon="12.6183307" version="1" timestamp="2022-07-17T05:53:23Z" changeset="123708550" uid="3497659" user="NKA">
		<tag k="name" v="Strandåsen" />
		<tag k="place" v="farm" />
		<tag k="ssr:stedsnr" v="875264" />
	</node>
	<node id="9892687293" lat="65.9311389" lon="12.3694139" version="1" timestamp="2022-07-17T05:53:23Z" changeset="123708550" uid="3497659" user="NKA">
		<tag k="name" v="Sørøya" />
		<tag k="place" v="farm" />
		<tag k="ssr:stedsnr" v="935660" />
	</node>
	<node id="9892687294" lat="65.9173867" lon="12.4182003" version="1" timestamp="2022-07-17T05:53:23Z" changeset="123708550" uid="3497659" user="NKA">
		<tag k="alt_name" v="Hellesvik" />
		<tag k="name" v="Hellesvika" />
		<tag k="place" v="hamlet" />
		<tag k="ssr:stedsnr" v="926323" />
	</node>
	<node id="9892687295" lat="65.8991558" lon="12.4513408" version="1" timestamp="2022-07-17T05:53:23Z" changeset="123708550" uid="3497659" user="NKA">
		<tag k="name" v="Einangen" />
		<tag k="place" v="hamlet" />
		<tag k="ssr:stedsnr" v="198329" />
	</node>
	<node id="9892687296" lat="65.8710068" lon="12.6167511" version="1" timestamp="2022-07-17T05:53:23Z" changeset="123708550" uid="3497659" user="NKA">
		<tag k="name" v="Fagerbakken" />
		<tag k="place" v="farm" />
		<tag k="ssr:stedsnr" v="785112" />
	</node>
	<node id="9892687297" lat="65.8432413" lon="12.2393333" version="1" timestamp="2022-07-17T05:53:23Z" changeset="123708550" uid="3497659" user="NKA">
		<tag k="name" v="Hestøya" />
		<tag k="place" v="farm" />
		<tag k="ssr:stedsnr" v="1072416" />
	</node>
	<node id="9892687298" lat="65.9529417" lon="12.4986666" version="1" timestamp="2022-07-17T05:53:23Z" changeset="123708550" uid="3497659" user="NKA">
		<tag k="alt_name" v="Rødmoen" />
		<tag k="name" v="Rømo" />
		<tag k="place" v="farm" />
		<tag k="ssr:stedsnr" v="865330" />
	</node>
	<node id="9892687299" lat="65.9639722" lon="12.5229278" version="1" timestamp="2022-07-17T05:53:23Z" changeset="123708550" uid="3497659" user="NKA">
		<tag k="name" v="Dalheim" />
		<tag k="place" v="hamlet" />
		<tag k="ssr:stedsnr" v="683273" />
	</node>
	<node id="9892687300" lat="65.8897917" lon="12.4085306" version="1" timestamp="2022-07-17T05:53:23Z" changeset="123708550" uid="3497659" user="NKA">
		<tag k="name" v="Brauten" />
		<tag k="place" v="farm" />
		<tag k="ssr:stedsnr" v="500442" />
	</node>
	<node id="9892687301" lat="65.8208194" lon="12.4219556" version="1" timestamp="2022-07-17T05:53:23Z" changeset="123708550" uid="3497659" user="NKA">
		<tag k="name" v="Prestegården" />
		<tag k="place" v="farm" />
		<tag k="ssr:stedsnr" v="822454" />
	</node>
	<node id="9892687302" lat="65.9138585" lon="12.4173223" version="1" timestamp="2022-07-17T05:53:23Z" changeset="123708550" uid="3497659" user="NKA">
		<tag k="name" v="Teigen" />
		<tag k="place" v="farm" />
		<tag k="ssr:stedsnr" v="683325" />
	</node>
	<node id="9892687303" lat="65.8273139" lon="12.4419278" version="1" timestamp="2022-07-17T05:53:23Z" changeset="123708550" uid="3497659" user="NKA">
		<tag k="name" v="Hamn gård" />
		<tag k="place" v="farm" />
		<tag k="ssr:stedsnr" v="579169" />
	</node>
	<node id="9892687304" lat="65.8601222" lon="12.608786" version="1" timestamp="2022-07-17T05:53:23Z" changeset="123708550" uid="3497659" user="NKA">
		<tag k="name" v="Vika" />
		<tag k="place" v="farm" />
		<tag k="ssr:stedsnr" v="602092" />
	</node>
	<node id="9892687305" lat="65.9313698" lon="12.4774474" version="1" timestamp="2022-07-17T05:53:23Z" changeset="123708550" uid="3497659" user="NKA">
		<tag k="name" v="Bakketun" />
		<tag k="place" v="farm" />
		<tag k="ssr:stedsnr" v="216623" />
	</node>
	<node id="9892687306" lat="65.8432547" lon="12.3434152" version="1" timestamp="2022-07-17T05:53:23Z" changeset="123708550" uid="3497659" user="NKA">
		<tag k="name" v="Rosøya" />
		<tag k="place" v="farm" />
		<tag k="ssr:stedsnr" v="100191" />
	</node>
	<node id="9892687307" lat="65.9055722" lon="12.4069635" version="1" timestamp="2022-07-17T05:53:23Z" changeset="123708550" uid="3497659" user="NKA">
		<tag k="name" v="Belsvåg" />
		<tag k="place" v="hamlet" />
		<tag k="ssr:stedsnr" v="136406" />
	</node>
	<node id="9892687308" lat="65.856442" lon="12.2455781" version="1" timestamp="2022-07-17T05:53:23Z" changeset="123708550" uid="3497659" user="NKA">
		<tag k="name" v="Skillevika" />
		<tag k="place" v="farm" />
		<tag k="ssr:stedsnr" v="119615" />
	</node>
	<node id="9892687309" lat="65.8990582" lon="12.3978622" version="1" timestamp="2022-07-17T05:53:23Z" changeset="123708550" uid="3497659" user="NKA">
		<tag k="name" v="Solvang" />
		<tag k="place" v="farm" />
		<tag k="ssr:stedsnr" v="154076" />
	</node>
	<node id="9892687310" lat="65.9921445" lon="12.5748778" version="1" timestamp="2022-07-17T05:53:23Z" changeset="123708550" uid="3497659" user="NKA">
		<tag k="alt_name" v="Sletta" />
		<tag k="name" v="Sletten" />
		<tag k="place" v="farm" />
		<tag k="ssr:stedsnr" v="318645" />
	</node>
	<node id="9892687311" lat="65.9937916" lon="12.5960194" version="1" timestamp="2022-07-17T05:53:23Z" changeset="123708550" uid="3497659" user="NKA">
		<tag k="alt_name" v="Myrmoen" />
		<tag k="name" v="Myrmo" />
		<tag k="place" v="farm" />
		<tag k="ssr:stedsnr" v="318644" />
	</node>
	<node id="9892687312" lat="65.865598" lon="12.4820446" version="1" timestamp="2022-07-17T05:53:23Z" changeset="123708550" uid="3497659" user="NKA">
		<tag k="name" v="Åsen" />
		<tag k="place" v="farm" />
		<tag k="ssr:stedsnr" v="561420" />
	</node>
	<node id="9892687313" lat="65.9828132" lon="12.6044851" version="1" timestamp="2022-07-17T05:53:23Z" changeset="123708550" uid="3497659" user="NKA">
		<tag k="name" v="Åsenget" />
		<tag k="place" v="farm" />
		<tag k="ssr:stedsnr" v="155432" />
	</node>
	<node id="9892687314" lat="65.9248764" lon="12.3359544" version="1" timestamp="2022-07-17T05:53:23Z" changeset="123708550" uid="3497659" user="NKA">
		<tag k="alt_name" v="Altervågen" />
		<tag k="name" v="Vågen" />
		<tag k="place" v="farm" />
		<tag k="ssr:stedsnr" v="25669" />
	</node>
	<node id="9892687315" lat="65.8388796" lon="12.2586707" version="1" timestamp="2022-07-17T05:53:23Z" changeset="123708550" uid="3497659" user="NKA">
		<tag k="name" v="Åkerøya" />
		<tag k="place" v="farm" />
		<tag k="ssr:stedsnr" v="646256" />
	</node>
	<node id="9892687316" lat="65.873225" lon="12.4806305" version="1" timestamp="2022-07-17T05:53:23Z" changeset="123708550" uid="3497659" user="NKA">
		<tag k="name" v="Skogland" />
		<tag k="place" v="farm" />
		<tag k="ssr:stedsnr" v="622384" />
	</node>
	<node id="9892687317" lat="65.8763637" lon="12.2607816" version="1" timestamp="2022-07-17T05:53:23Z" changeset="123708550" uid="3497659" user="NKA">
		<tag k="alt_name" v="Grønvika" />
		<tag k="name" v="Grønnvika" />
		<tag k="place" v="farm" />
		<tag k="ssr:stedsnr" v="743416" />
	</node>
	<node id="9892687318" lat="65.8613889" lon="12.5961918" version="1" timestamp="2022-07-17T05:53:23Z" changeset="123708550" uid="3497659" user="NKA">
		<tag k="name" v="Vikvold" />
		<tag k="place" v="farm" />
		<tag k="ssr:stedsnr" v="207234" />
	</node>
	<node id="9892687319" lat="65.8788806" lon="12.278961" version="1" timestamp="2022-07-17T05:53:23Z" changeset="123708550" uid="3497659" user="NKA">
		<tag k="name" v="Sørgården" />
		<tag k="place" v="farm" />
		<tag k="ssr:stedsnr" v="880089" />
	</node>
	<node id="9892687320" lat="65.8223833" lon="12.5755362" version="1" timestamp="2022-07-17T05:53:23Z" changeset="123708550" uid="3497659" user="NKA">
		<tag k="name" v="Valen" />
		<tag k="place" v="farm" />
		<tag k="ssr:stedsnr" v="622491" />
	</node>
	<node id="9892687321" lat="65.9348555" lon="12.4627918" version="1" timestamp="2022-07-17T05:53:23Z" changeset="123708550" uid="3497659" user="NKA">
		<tag k="name" v="Solheim" />
		<tag k="place" v="farm" />
		<tag k="ssr:stedsnr" v="640708" />
	</node>
	<node id="9892687322" lat="65.9952556" lon="12.5775639" version="1" timestamp="2022-07-17T05:53:23Z" changeset="123708550" uid="3497659" user="NKA">
		<tag k="alt_name" v="Nymoen" />
		<tag k="name" v="Nymo" />
		<tag k="place" v="hamlet" />
		<tag k="ssr:stedsnr" v="379623" />
	</node>
	<node id="9892687323" lat="65.9175194" lon="12.3387028" version="1" timestamp="2022-07-17T05:53:23Z" changeset="123708550" uid="3497659" user="NKA">
		<tag k="name" v="Langstrand" />
		<tag k="place" v="locality" />
		<tag k="ssr:stedsnr" v="76339" />
	</node>
	<node id="9892687324" lat="65.9357916" lon="12.3475167" version="1" timestamp="2022-07-17T05:53:23Z" changeset="123708550" uid="3497659" user="NKA">
		<tag k="name" v="Vollan" />
		<tag k="place" v="hamlet" />
		<tag k="ssr:stedsnr" v="136347" />
	</node>
	<node id="9892687325" lat="66.0015505" lon="12.5526855" version="1" timestamp="2022-07-17T05:53:23Z" changeset="123708550" uid="3497659" user="NKA">
		<tag k="alt_name" v="Urda" />
		<tag k="name" v="Ura" />
		<tag k="place" v="quarter" />
		<tag k="ssr:stedsnr" v="926890" />
	</node>
	<node id="9892687326" lat="65.9309211" lon="12.3405605" version="1" timestamp="2022-07-17T05:53:23Z" changeset="123708550" uid="3497659" user="NKA">
		<tag k="name" v="Hytten" />
		<tag k="place" v="isolated_dwelling" />
		<tag k="ssr:stedsnr" v="57440" />
	</node>
	<node id="9892687327" lat="65.9891528" lon="12.5696472" version="1" timestamp="2022-07-17T05:53:23Z" changeset="123708550" uid="3497659" user="NKA">
		<tag k="name" v="Solvoll" />
		<tag k="place" v="farm" />
		<tag k="ssr:stedsnr" v="804656" />
	</node>
	<node id="9892687328" lat="65.869133" lon="12.4755258" version="1" timestamp="2022-07-17T05:53:23Z" changeset="123708550" uid="3497659" user="NKA">
		<tag k="name" v="Gården" />
		<tag k="place" v="farm" />
		<tag k="ssr:stedsnr" v="814338" />
	</node>
	<node id="9892687329" lat="66.0173219" lon="12.6078281" version="1" timestamp="2022-07-17T05:53:23Z" changeset="123708550" uid="3497659" user="NKA">
		<tag k="name" v="Stamnes" />
		<tag k="place" v="quarter" />
		<tag k="ssr:stedsnr" v="753360" />
	</node>
	<node id="9892687330" lat="65.7892877" lon="12.5195133" version="1" timestamp="2022-07-17T05:53:23Z" changeset="123708550" uid="3497659" user="NKA">
		<tag k="name" v="Sørstua" />
		<tag k="place" v="farm" />
		<tag k="ssr:stedsnr" v="683041" />
	</node>
	<node id="9892687331" lat="65.9492084" lon="12.4655" version="1" timestamp="2022-07-17T05:53:23Z" changeset="123708550" uid="3497659" user="NKA">
		<tag k="name" v="Smiberget" />
		<tag k="place" v="farm" />
		<tag k="ssr:stedsnr" v="440334" />
	</node>
	<node id="9892687332" lat="65.8626389" lon="12.6101084" version="1" timestamp="2022-07-17T05:53:23Z" changeset="123708550" uid="3497659" user="NKA">
		<tag k="name" v="Aurstranda" />
		<tag k="place" v="farm" />
		<tag k="ssr:stedsnr" v="663113" />
	</node>
	<node id="9892687333" lat="65.9011979" lon="12.4937664" version="1" timestamp="2022-07-17T05:53:23Z" changeset="123708550" uid="3497659" user="NKA">
		<tag k="name" v="Skei" />
		<tag k="place" v="hamlet" />
		<tag k="ssr:stedsnr" v="907060" />
	</node>
	<node id="9892687334" lat="65.8585706" lon="12.61281" version="1" timestamp="2022-07-17T05:53:23Z" changeset="123708550" uid="3497659" user="NKA">
		<tag k="name" v="Haugestad" />
		<tag k="place" v="farm" />
		<tag k="ssr:stedsnr" v="785092" />
	</node>
	<node id="9892687335" lat="65.9041258" lon="12.5450414" version="1" timestamp="2022-07-17T05:53:23Z" changeset="123708550" uid="3497659" user="NKA">
		<tag k="name" v="Nygården" />
		<tag k="place" v="farm" />
		<tag k="ssr:stedsnr" v="55154" />
	</node>
	<node id="9892687336" lat="65.9560972" lon="12.5120694" version="1" timestamp="2022-07-17T05:53:23Z" changeset="123708550" uid="3497659" user="NKA">
		<tag k="alt_name" v="Grønåsen" />
		<tag k="name" v="Grønnåsen" />
		<tag k="place" v="farm" />
		<tag k="ssr:stedsnr" v="318289" />
	</node>
	<node id="6130516909" lat="66.0345377" lon="12.7219837" version="1" timestamp="2018-12-11T11:40:19Z" changeset="65372935" uid="7543313" user="ENTUR Fredrik Edler" />
	<node id="272276601" lat="66.0393761" lon="12.7194572" version="5" timestamp="2017-09-05T12:01:21Z" changeset="51747834" uid="5732597" user="ENTUR Johan Wiklund" />
	<node id="272276602" lat="66.0378261" lon="12.7202699" version="6" timestamp="2018-12-11T11:41:01Z" changeset="65372935" uid="7543313" user="ENTUR Fredrik Edler" />
	<node id="2167396200" lat="66.0386419" lon="12.7198309" version="2" timestamp="2017-09-05T12:02:18Z" changeset="51747834" uid="5732597" user="ENTUR Johan Wiklund" />
	<node id="5081412271" lat="66.0415225" lon="12.7183297" version="1" timestamp="2017-09-05T11:57:07Z" changeset="51747705" uid="5732597" user="ENTUR Johan Wiklund" />
	<way id="521526917" version="6" timestamp="2022-01-24T06:56:00Z" changeset="116526664" uid="3497659" user="NKA">
		<tag k="bridge" v="yes" />
		<tag k="bridge:structure" v="cable-stayed" />
		<tag k="highway" v="primary" />
		<tag k="layer" v="1" />
		<tag k="maxspeed" v="80" />
		<tag k="name" v="Helgelandsbrua" />
		<tag k="oneway" v="no" />
		<tag k="ref" v="17" />
		<tag k="ssr:stedsnr" v="815789" />
		<tag k="surface" v="asphalt" />
		<nd ref="6130516909" />
		<nd ref="272276602" />
		<nd ref="2167396200" />
		<nd ref="272276601" />
		<nd ref="5081412271" />
	</way>
</osm>
