<?xml version="1.0" encoding="UTF-8"?>
<osm generator="osmapis" version="0.6">
	<node id="-23677" lat="59.6405416631" lon="10.6370777741">
		<tag k="alt_name" v="Elle" />
		<tag k="name" v="Elle lykt" />
		<tag k="ssr:date" v="2016-05-10" />
		<tag k="ssr:gruppe" v="navigasjon" />
		<tag k="ssr:hovedgruppe" v="infrastruktur" />
		<tag k="ssr:stedsnr" v="428849" />
		<tag k="ssr:type" v="fyrlykt" />
	</node>
	<node id="-23930" lat="59.7092638869" lon="10.5890777788">
		<tag k="alt_name" v="Storegrunnen" />
		<tag k="name" v="Storegrunnen lykt" />
		<tag k="ssr:date" v="2016-05-11" />
		<tag k="ssr:gruppe" v="navigasjon" />
		<tag k="ssr:hovedgruppe" v="infrastruktur" />
		<tag k="ssr:stedsnr" v="853804" />
		<tag k="ssr:type" v="fyrlykt" />
	</node>
	<node id="-23913" lat="59.7010361146" lon="10.5816333398">
		<tag k="alt_name" v="Galleryggen" />
		<tag k="name" v="Galleryggen lykt" />
		<tag k="ssr:date" v="2016-05-11" />
		<tag k="ssr:gruppe" v="navigasjon" />
		<tag k="ssr:hovedgruppe" v="infrastruktur" />
		<tag k="ssr:stedsnr" v="843038" />
		<tag k="ssr:type" v="fyrlykt" />
	</node>
	<node id="-23773" lat="59.6786141818" lon="10.608733375">
		<tag k="alt_name" v="Kaholmen" />
		<tag k="name" v="Kaholmen lykt" />
		<tag k="ssr:date" v="2018-07-03" />
		<tag k="ssr:gruppe" v="navigasjon" />
		<tag k="ssr:hovedgruppe" v="infrastruktur" />
		<tag k="ssr:stedsnr" v="610870" />
		<tag k="ssr:type" v="fyrlykt" />
	</node>
	<node id="-23643" lat="59.7030916632" lon="10.5922694439">
		<tag k="alt_name" v="Askholmene" />
		<tag k="name" v="Askholmene lykt" />
		<tag k="ssr:date" v="2016-05-10" />
		<tag k="ssr:gruppe" v="navigasjon" />
		<tag k="ssr:hovedgruppe" v="infrastruktur" />
		<tag k="ssr:stedsnr" v="236053" />
		<tag k="ssr:type" v="fyrlykt" />
	</node>
	<node id="-23481" lat="59.6994595507" lon="10.6036118926">
		<tag k="name" v="Kjølstripen" />
		<tag k="ssr:date" v="2019-05-31" />
		<tag k="ssr:gruppe" v="veg" />
		<tag k="ssr:hovedgruppe" v="infrastruktur" />
		<tag k="ssr:stedsnr" v="1070891" />
		<tag k="ssr:type" v="adressenavn" />
	</node>
	<node id="-23507" lat="59.6666444418" lon="10.6356583248">
		<tag k="loc_name" v="Frogn" />
		<tag k="name" v="Frogn kommune" />
		<tag k="ssr:date" v="2016-05-10" />
		<tag k="ssr:gruppe" v="administrativeIndelinger" />
		<tag k="ssr:hovedgruppe" v="offentligAdministrasjon" />
		<tag k="ssr:stedsnr" v="24776" />
		<tag k="ssr:type" v="kommune" />
	</node>
	<node id="-23970" lat="59.6911972251" lon="10.5916861079">
		<tag k="alt_name" v="Søre Tronstadodden" />
		<tag k="name" v="Søre Tronstadodden lykt" />
		<tag k="ssr:date" v="2016-05-11" />
		<tag k="ssr:gruppe" v="navigasjon" />
		<tag k="ssr:hovedgruppe" v="infrastruktur" />
		<tag k="ssr:stedsnr" v="919054" />
		<tag k="ssr:type" v="fyrlykt" />
	</node>
	<node id="-23754" lat="59.6994722212" lon="10.5878333406">
		<tag k="alt_name" v="Askholmgrunnen" />
		<tag k="name" v="Askholmgrunnen lykt" />
		<tag k="ssr:date" v="2016-05-10" />
		<tag k="ssr:gruppe" v="navigasjon" />
		<tag k="ssr:hovedgruppe" v="infrastruktur" />
		<tag k="ssr:stedsnr" v="599045" />
		<tag k="ssr:type" v="fyrlykt" />
	</node>
	<node id="-23496" lat="59.7602141809" lon="10.5644729705">
		<tag k="name" v="Søndre Langåra" />
		<tag k="ssr:date" v="2019-05-30" />
		<tag k="ssr:gruppe" v="veg" />
		<tag k="ssr:hovedgruppe" v="infrastruktur" />
		<tag k="ssr:stedsnr" v="992137" />
		<tag k="ssr:type" v="adressenavn" />
	</node>
	<node id="-23495" lat="59.697202139" lon="10.6330016342">
		<tag k="name" v="Holmen" />
		<tag k="ssr:date" v="2019-05-30" />
		<tag k="ssr:gruppe" v="veg" />
		<tag k="ssr:hovedgruppe" v="infrastruktur" />
		<tag k="ssr:stedsnr" v="992136" />
		<tag k="ssr:type" v="adressenavn" />
	</node>
	<node id="-23492" lat="59.7204867358" lon="10.5843020453">
		<tag k="name" v="Digerud N lykt" />
		<tag k="ssr:date" v="2018-07-12" />
		<tag k="ssr:gruppe" v="navigasjon" />
		<tag k="ssr:hovedgruppe" v="infrastruktur" />
		<tag k="ssr:stedsnr" v="985740" />
		<tag k="ssr:type" v="fyrlykt" />
	</node>
	<node id="-23491" lat="59.7178973925" lon="10.586035433">
		<tag k="name" v="Digerud S lykt" />
		<tag k="ssr:date" v="2018-07-12" />
		<tag k="ssr:gruppe" v="navigasjon" />
		<tag k="ssr:hovedgruppe" v="infrastruktur" />
		<tag k="ssr:stedsnr" v="985739" />
		<tag k="ssr:type" v="fyrlykt" />
	</node>
	<node id="-23485" lat="59.7659395486" lon="10.7049475225">
		<tag k="name" v="Blåbærveien" />
		<tag k="ssr:date" v="2019-05-31" />
		<tag k="ssr:gruppe" v="veg" />
		<tag k="ssr:hovedgruppe" v="infrastruktur" />
		<tag k="ssr:stedsnr" v="1071817" />
		<tag k="ssr:type" v="adressenavn" />
	</node>
	<node id="-23484" lat="59.7702122631" lon="10.6982021382">
		<tag k="name" v="Garderbråtevegen" />
		<tag k="ssr:date" v="2019-05-31" />
		<tag k="ssr:gruppe" v="veg" />
		<tag k="ssr:hovedgruppe" v="infrastruktur" />
		<tag k="ssr:stedsnr" v="1071815" />
		<tag k="ssr:type" v="adressenavn" />
	</node>
	<node id="-23483" lat="59.6957016313" lon="10.6119790106">
		<tag k="name" v="Fokken" />
		<tag k="ssr:date" v="2019-05-31" />
		<tag k="ssr:gruppe" v="veg" />
		<tag k="ssr:hovedgruppe" v="infrastruktur" />
		<tag k="ssr:stedsnr" v="1070907" />
		<tag k="ssr:type" v="adressenavn" />
	</node>
	<node id="-23482" lat="59.6977859326" lon="10.6097335698">
		<tag k="name" v="Kapteinstien" />
		<tag k="ssr:date" v="2019-05-31" />
		<tag k="ssr:gruppe" v="veg" />
		<tag k="ssr:hovedgruppe" v="infrastruktur" />
		<tag k="ssr:stedsnr" v="1070892" />
		<tag k="ssr:type" v="adressenavn" />
	</node>
	<node id="-23993" lat="60.5908609473" lon="9.63819281559">
		<tag k="fixme" v="multiple name tags, choose one and add the other to alt_name" />
		<tag k="name" v="Austlandet;Østlandet" />
		<tag k="ssr:date" v="2018-01-09" />
		<tag k="ssr:gruppe" v="administrativeIndelinger" />
		<tag k="ssr:hovedgruppe" v="offentligAdministrasjon" />
		<tag k="ssr:stedsnr" v="974775" />
		<tag k="ssr:type" v="annenAdministrativInndeling" />
	</node>
	<node id="-23480" lat="59.6968008239" lon="10.6109656815">
		<tag k="name" v="Klyveren" />
		<tag k="ssr:date" v="2019-05-31" />
		<tag k="ssr:gruppe" v="veg" />
		<tag k="ssr:hovedgruppe" v="infrastruktur" />
		<tag k="ssr:stedsnr" v="1070889" />
		<tag k="ssr:type" v="adressenavn" />
	</node>
	<node id="-23479" lat="59.6900617991" lon="10.6622682098">
		<tag k="name" v="Ottarsrudgrenda" />
		<tag k="ssr:date" v="2019-05-31" />
		<tag k="ssr:gruppe" v="veg" />
		<tag k="ssr:hovedgruppe" v="infrastruktur" />
		<tag k="ssr:stedsnr" v="1070719" />
		<tag k="ssr:type" v="adressenavn" />
	</node>
	<node id="-23606" lat="59.7679722252" lon="10.5525833286">
		<tag k="name" v="Torpene lysbøye" />
		<tag k="ssr:date" v="2016-05-10" />
		<tag k="ssr:gruppe" v="navigasjon" />
		<tag k="ssr:hovedgruppe" v="infrastruktur" />
		<tag k="ssr:stedsnr" v="175025" />
		<tag k="ssr:type" v="fyrlykt" />
	</node>
	<node id="-23477" lat="59.6221343722" lon="10.6488054715">
		<tag k="name" v="Melkeveien" />
		<tag k="ssr:date" v="2019-05-31" />
		<tag k="ssr:gruppe" v="veg" />
		<tag k="ssr:hovedgruppe" v="infrastruktur" />
		<tag k="ssr:stedsnr" v="1070046" />
		<tag k="ssr:type" v="adressenavn" />
	</node>
	<node id="-23476" lat="59.6529647393" lon="10.6519298389">
		<tag k="name" v="Odalsparken" />
		<tag k="ssr:date" v="2019-05-31" />
		<tag k="ssr:gruppe" v="veg" />
		<tag k="ssr:hovedgruppe" v="infrastruktur" />
		<tag k="ssr:stedsnr" v="1066775" />
		<tag k="ssr:type" v="adressenavn" />
	</node>
	<node id="-23987" lat="59.6856787988" lon="10.6084636877">
		<tag k="alt_name" v="Langebåt" />
		<tag k="name" v="Langebåt lykt" />
		<tag k="ssr:date" v="2018-07-09" />
		<tag k="ssr:gruppe" v="navigasjon" />
		<tag k="ssr:hovedgruppe" v="infrastruktur" />
		<tag k="ssr:stedsnr" v="964067" />
		<tag k="ssr:type" v="fyrlykt" />
	</node>
	<node id="-23475" lat="59.6856186976" lon="10.6226500262">
		<tag k="name" v="Gylteholmen" />
		<tag k="ssr:date" v="2019-05-31" />
		<tag k="ssr:gruppe" v="veg" />
		<tag k="ssr:hovedgruppe" v="infrastruktur" />
		<tag k="ssr:stedsnr" v="1066560" />
		<tag k="ssr:type" v="adressenavn" />
	</node>
	<node id="-23478" lat="59.627917083" lon="10.6499189218">
		<tag k="name" v="Isdamveien" />
		<tag k="ssr:date" v="2019-05-31" />
		<tag k="ssr:gruppe" v="veg" />
		<tag k="ssr:hovedgruppe" v="infrastruktur" />
		<tag k="ssr:stedsnr" v="1070092" />
		<tag k="ssr:type" v="adressenavn" />
	</node>
	<node id="-23720" lat="59.7056333294" lon="10.5826861148">
		<tag k="alt_name" v="Torskekrakken" />
		<tag k="name" v="Torskekrakken lykt" />
		<tag k="ssr:date" v="2016-05-10" />
		<tag k="ssr:gruppe" v="navigasjon" />
		<tag k="ssr:hovedgruppe" v="infrastruktur" />
		<tag k="ssr:stedsnr" v="539032" />
		<tag k="ssr:type" v="fyrlykt" />
	</node>
	<node id="-23842" lat="59.6669600158" lon="10.619356446">
		<tag k="name" v="Drøbakgrunnen lykt" />
		<tag k="ssr:date" v="2016-12-30" />
		<tag k="ssr:gruppe" v="navigasjon" />
		<tag k="ssr:hovedgruppe" v="infrastruktur" />
		<tag k="ssr:stedsnr" v="706845" />
		<tag k="ssr:type" v="fyrlykt" />
	</node>
	<node id="-23453" lat="59.6920166657" lon="10.5908722223">
		<tag k="alt_name" v="Tronstadodden" />
		<tag k="name" v="Tronstadodden lykt" />
		<tag k="ssr:date" v="2016-05-10" />
		<tag k="ssr:gruppe" v="navigasjon" />
		<tag k="ssr:hovedgruppe" v="infrastruktur" />
		<tag k="ssr:stedsnr" v="390498" />
		<tag k="ssr:type" v="fyrlykt" />
	</node>
	<node id="-23448" lat="59.7566277814" lon="10.5669388938">
		<tag k="alt_name" v="Langåra" />
		<tag k="name" v="Langåra lykt" />
		<tag k="ssr:date" v="2016-05-10" />
		<tag k="ssr:gruppe" v="navigasjon" />
		<tag k="ssr:hovedgruppe" v="infrastruktur" />
		<tag k="ssr:stedsnr" v="372045" />
		<tag k="ssr:type" v="fyrlykt" />
	</node>
	<node id="-23564" lat="59.7253555596" lon="10.5781916654">
		<tag k="alt_name" v="Aspond" />
		<tag k="name" v="Aspond lykt" />
		<tag k="ssr:date" v="2016-05-10" />
		<tag k="ssr:gruppe" v="navigasjon" />
		<tag k="ssr:hovedgruppe" v="infrastruktur" />
		<tag k="ssr:stedsnr" v="115052" />
		<tag k="ssr:type" v="fyrlykt" />
	</node>
	<node id="-23433" lat="59.6740137411" lon="10.5832494257">
		<tag k="alt_name" v="Bergholmen vestre" />
		<tag k="name" v="Bergholmen V lanterne" />
		<tag k="ssr:date" v="2019-03-11" />
		<tag k="ssr:gruppe" v="navigasjon" />
		<tag k="ssr:hovedgruppe" v="infrastruktur" />
		<tag k="ssr:stedsnr" v="357059" />
		<tag k="ssr:type" v="fyrlykt" />
	</node>
	<node id="-23943" lat="59.6948722237" lon="10.6027694514">
		<tag k="alt_name" v="Båtstø" />
		<tag k="name" v="Båtstø lykt" />
		<tag k="ssr:date" v="2016-05-11" />
		<tag k="ssr:gruppe" v="navigasjon" />
		<tag k="ssr:hovedgruppe" v="infrastruktur" />
		<tag k="ssr:stedsnr" v="904077" />
		<tag k="ssr:type" v="fyrlykt" />
	</node>
</osm>
