<?xml version="1.0" encoding="UTF-8"?>
<<<<<<< HEAD
<osm version="0.6" generator="osmapis">
	<node lat="59.318161113826804" lon="5.721025006949142" id="-3266">
=======
<osm generator="osmapis" version="0.6">
	<node id="-38047" lat="59.3181611138" lon="5.72102500695">
>>>>>>> e1d4bc35ff8a6074a6f2e91616a996b547c36f15
		<tag k="loc_name" v="Saltvikberget" />
		<tag k="natural" v="hill" />
		<tag k="place" v="locality" />
		<tag k="ssr:date" v="2016-05-10" />
		<tag k="ssr:gruppe" v="høyder" />
		<tag k="ssr:hovedgruppe" v="terreng" />
		<tag k="ssr:stedsnr" v="25490" />
		<tag k="ssr:type" v="berg" />
<<<<<<< HEAD
	</node>
	<node lat="59.27661388823074" lon="5.5248083257139635" id="-3291">
		<tag k="old_name" v="Slettebø" />
=======
	</node>
	<node id="-38229" lat="59.2741861144" lon="5.52609166872">
		<tag k="old_name" v="Kårstø" />
		<tag k="place" v="hamlet" />
		<tag k="ssr:date" v="2016-05-10" />
		<tag k="ssr:gruppe" v="bebyggelsesområder" />
		<tag k="ssr:hovedgruppe" v="bebyggelse" />
		<tag k="ssr:stedsnr" v="117495" />
		<tag k="ssr:type" v="grend" />
	</node>
	<node id="-39321" lat="59.3552487657" lon="5.38339732737">
		<tag k="loc_name" v="Søre Høyeholmen" />
		<tag k="place" v="islet" />
		<tag k="ssr:date" v="2017-03-01" />
		<tag k="ssr:gruppe" v="kystkontur" />
		<tag k="ssr:hovedgruppe" v="sjø" />
		<tag k="ssr:stedsnr" v="974666" />
		<tag k="ssr:type" v="holmeISjø" />
	</node>
	<node id="-38709" lat="59.2768555595" lon="5.49900277911">
		<tag k="old_name" v="Slettå" />
>>>>>>> e1d4bc35ff8a6074a6f2e91616a996b547c36f15
		<tag k="place" v="farm" />
		<tag k="ssr:date" v="2016-05-10" />
		<tag k="ssr:gruppe" v="gardsbebyggelse" />
		<tag k="ssr:hovedgruppe" v="bebyggelse" />
<<<<<<< HEAD
		<tag k="ssr:stedsnr" v="235319" />
		<tag k="ssr:type" v="bruk" />
	</node>
	<node lat="59.27156944236525" lon="5.515963887897271" id="-3292">
		<tag k="natural" v="bay" />
		<tag k="old_name" v="Taravika" />
=======
		<tag k="ssr:stedsnr" v="417321" />
		<tag k="ssr:type" v="bruk" />
	</node>
	<node id="-38292" lat="59.3384138892" lon="5.74095833175">
		<tag k="loc_name" v="Sjurdstoneset" />
		<tag k="natural" v="cape" />
>>>>>>> e1d4bc35ff8a6074a6f2e91616a996b547c36f15
		<tag k="ssr:date" v="2016-05-10" />
		<tag k="ssr:gruppe" v="kystkontur" />
		<tag k="ssr:hovedgruppe" v="sjø" />
		<tag k="ssr:stedsnr" v="235322" />
		<tag k="ssr:type" v="vikISjø" />
	</node>
<<<<<<< HEAD
	<node lat="59.27158055559015" lon="5.511080557981728" id="-4001">
=======
	<node id="-38796" lat="59.2715805556" lon="5.51108055798">
>>>>>>> e1d4bc35ff8a6074a6f2e91616a996b547c36f15
		<tag k="natural" v="bay" />
		<tag k="old_name" v="Bekkjavika" />
		<tag k="ssr:date" v="2016-05-10" />
		<tag k="ssr:gruppe" v="kystkontur" />
		<tag k="ssr:hovedgruppe" v="sjø" />
		<tag k="ssr:stedsnr" v="538315" />
		<tag k="ssr:type" v="vikISjø" />
	</node>
<<<<<<< HEAD
	<node lat="59.38677777996789" lon="5.466541662361138" id="-4514">
		<tag k="natural" v="strait" />
		<tag k="old_name" v="Nordra Mjåsundet;Mjåsundet, nordre" />
		<tag k="ssr:date" v="2021-06-08" />
=======
	<node id="-36842" lat="59.2715694424" lon="5.5159638879">
		<tag k="natural" v="bay" />
		<tag k="old_name" v="Taravika" />
		<tag k="ssr:date" v="2016-05-10" />
>>>>>>> e1d4bc35ff8a6074a6f2e91616a996b547c36f15
		<tag k="ssr:gruppe" v="kystkontur" />
		<tag k="ssr:hovedgruppe" v="sjø" />
		<tag k="ssr:stedsnr" v="936690" />
		<tag k="ssr:type" v="sundISjø" />
	</node>
<<<<<<< HEAD
	<node lat="59.27418611437322" lon="5.526091668718798" id="-4707">
		<tag k="old_name" v="Kårstø" />
		<tag k="place" v="hamlet" />
=======
	<node id="-36841" lat="59.2766138882" lon="5.52480832571">
		<tag k="old_name" v="Slettebø" />
		<tag k="place" v="farm" />
>>>>>>> e1d4bc35ff8a6074a6f2e91616a996b547c36f15
		<tag k="ssr:date" v="2016-05-10" />
		<tag k="ssr:gruppe" v="bebyggelsesområder" />
		<tag k="ssr:hovedgruppe" v="bebyggelse" />
		<tag k="ssr:stedsnr" v="117495" />
		<tag k="ssr:type" v="grend" />
	</node>
<<<<<<< HEAD
	<node lat="59.338413889201384" lon="5.740958331747092" id="-4744">
		<tag k="loc_name" v="Sjurdstoneset" />
		<tag k="natural" v="cape" />
		<tag k="ssr:date" v="2016-05-10" />
=======
	<node id="-37894" lat="59.38677778" lon="5.46654166236">
		<tag k="natural" v="strait" />
		<tag k="old_name" v="Nordra Mjåsundet;Mjåsundet, nordre" />
		<tag k="ssr:date" v="2016-05-11" />
>>>>>>> e1d4bc35ff8a6074a6f2e91616a996b547c36f15
		<tag k="ssr:gruppe" v="kystkontur" />
		<tag k="ssr:hovedgruppe" v="sjø" />
		<tag k="ssr:stedsnr" v="146445" />
		<tag k="ssr:type" v="nesISjø" />
	</node>
<<<<<<< HEAD
	<node lat="59.27417221995057" lon="5.502808334148709" id="-4948">
=======
	<node id="-38563" lat="59.27417222" lon="5.50280833415">
>>>>>>> e1d4bc35ff8a6074a6f2e91616a996b547c36f15
		<tag k="natural" v="bay" />
		<tag k="old_name" v="Grønevik" />
		<tag k="ssr:date" v="2016-05-10" />
		<tag k="ssr:gruppe" v="kystkontur" />
		<tag k="ssr:hovedgruppe" v="sjø" />
		<tag k="ssr:stedsnr" v="356308" />
		<tag k="ssr:type" v="vikISjø" />
	</node>
<<<<<<< HEAD
	<node lat="59.27685555952062" lon="5.499002779106975" id="-5042">
		<tag k="old_name" v="Slettå" />
		<tag k="place" v="farm" />
		<tag k="ssr:date" v="2016-05-10" />
		<tag k="ssr:gruppe" v="gardsbebyggelse" />
		<tag k="ssr:hovedgruppe" v="bebyggelse" />
		<tag k="ssr:stedsnr" v="417321" />
		<tag k="ssr:type" v="bruk" />
	</node>
	<node lat="59.35524876565234" lon="5.383397327370077" id="-5759">
		<tag k="loc_name" v="Søre Høyeholmen" />
		<tag k="place" v="islet" />
		<tag k="ssr:date" v="2017-03-01" />
		<tag k="ssr:gruppe" v="kystkontur" />
		<tag k="ssr:hovedgruppe" v="sjø" />
		<tag k="ssr:stedsnr" v="974666" />
		<tag k="ssr:type" v="holmeISjø" />
	</node>
=======
>>>>>>> e1d4bc35ff8a6074a6f2e91616a996b547c36f15
</osm>
