<?xml version="1.0" encoding="UTF-8"?>
<osm version="0.6" generator="osmapis">
	<node lat="59.32457222068418" lon="5.6185694505683985" id="-4068">
		<tag k="alt_name" v="Raudholmen" />
		<tag k="name" v="Raudholmen lykt" />
		<tag k="ssr:date" v="2016-05-10" />
		<tag k="ssr:gruppe" v="navigasjon" />
		<tag k="ssr:hovedgruppe" v="infrastruktur" />
		<tag k="ssr:stedsnr" v="245146" />
		<tag k="ssr:type" v="fyrlykt" />
	</node>
	<node lat="59.390477782345215" lon="5.626538895985626" id="-4118">
		<tag k="alt_name" v="Høneholmen" />
		<tag k="name" v="Høneholmen lykt" />
		<tag k="ssr:date" v="2016-05-10" />
		<tag k="ssr:gruppe" v="navigasjon" />
		<tag k="ssr:hovedgruppe" v="infrastruktur" />
		<tag k="ssr:stedsnr" v="123078" />
		<tag k="ssr:type" v="fyrlykt" />
	</node>
	<node lat="59.437352781346185" lon="5.842944435379121" id="-4499">
		<tag k="name" v="Metteneset lanterne" />
		<tag k="ssr:date" v="2016-05-10" />
		<tag k="ssr:gruppe" v="navigasjon" />
		<tag k="ssr:hovedgruppe" v="infrastruktur" />
		<tag k="ssr:stedsnr" v="403925" />
		<tag k="ssr:type" v="lanterne" />
	</node>
	<node lat="59.42166667023169" lon="5.44795833038551" id="-4584">
		<tag k="alt_name" v="Tysvær" />
		<tag k="name" v="Tysvær kommune" />
		<tag k="ssr:date" v="2017-03-24" />
		<tag k="ssr:gruppe" v="administrativeIndelinger" />
		<tag k="ssr:hovedgruppe" v="offentligAdministrasjon" />
		<tag k="ssr:stedsnr" v="449785" />
		<tag k="ssr:type" v="kommune" />
	</node>
	<node lat="59.33728611441965" lon="5.874969449344182" id="-4925">
		<tag k="alt_name" v="Nedstrand" />
		<tag k="name" v="Nedstrand lykt" />
		<tag k="ssr:date" v="2016-05-11" />
		<tag k="ssr:gruppe" v="navigasjon" />
		<tag k="ssr:hovedgruppe" v="infrastruktur" />
		<tag k="ssr:stedsnr" v="730572" />
		<tag k="ssr:type" v="fyrlykt" />
	</node>
	<node lat="59.327000001455" lon="5.753183338630422" id="-5034">
		<tag k="alt_name" v="Muslandsvåg" />
		<tag k="name" v="Muslandsvåg lykt" />
		<tag k="ssr:date" v="2016-05-11" />
		<tag k="ssr:gruppe" v="navigasjon" />
		<tag k="ssr:hovedgruppe" v="infrastruktur" />
		<tag k="ssr:stedsnr" v="791211" />
		<tag k="ssr:type" v="fyrlykt" />
	</node>
	<node lat="59.38133055806084" lon="5.896822226014356" id="-5040">
		<tag k="alt_name" v="Frøvikneset" />
		<tag k="name" v="Frøvikneset lykt" />
		<tag k="ssr:date" v="2016-05-11" />
		<tag k="ssr:gruppe" v="navigasjon" />
		<tag k="ssr:hovedgruppe" v="infrastruktur" />
		<tag k="ssr:stedsnr" v="791399" />
		<tag k="ssr:type" v="fyrlykt" />
	</node>
	<node lat="59.303036115355546" lon="5.461316668183227" id="-5043">
		<tag k="alt_name" v="Urdholmen" />
		<tag k="name" v="Urdholmen lykt" />
		<tag k="old_name" v="Urholmen" />
		<tag k="ssr:date" v="2016-05-11" />
		<tag k="ssr:gruppe" v="navigasjon" />
		<tag k="ssr:hovedgruppe" v="infrastruktur" />
		<tag k="ssr:stedsnr" v="791938" />
		<tag k="ssr:type" v="fyrlykt" />
	</node>
	<node lat="59.26529387709687" lon="5.546189202619683" id="-5234">
		<tag k="alt_name" v="Årviksund" />
		<tag k="name" v="Årviksundet" />
		<tag k="ssr:date" v="2020-09-03" />
		<tag k="ssr:gruppe" v="navigasjon" />
		<tag k="ssr:hovedgruppe" v="infrastruktur" />
		<tag k="ssr:stedsnr" v="2257" />
		<tag k="ssr:type" v="fyrlykt" />
	</node>
	<node lat="59.26217222450093" lon="5.668750008060526" id="-5686">
		<tag k="alt_name" v="Toftøy" />
		<tag k="name" v="Toftøy lykt" />
		<tag k="ssr:date" v="2016-05-10" />
		<tag k="ssr:gruppe" v="navigasjon" />
		<tag k="ssr:hovedgruppe" v="infrastruktur" />
		<tag k="ssr:stedsnr" v="366247" />
		<tag k="ssr:type" v="fyrlykt" />
	</node>
	<node lat="58.9647333357896" lon="5.731188892301877" id="-5805">
		<tag k="alt_name" v="Rogaland" />
		<tag k="name" v="Rogaland fylke" />
		<tag k="ssr:date" v="2021-02-03" />
		<tag k="ssr:gruppe" v="administrativeIndelinger" />
		<tag k="ssr:hovedgruppe" v="offentligAdministrasjon" />
		<tag k="ssr:stedsnr" v="511115" />
		<tag k="ssr:type" v="fylke" />
	</node>
	<node lat="59.34155272352427" lon="5.857351877851563" id="-6446">
		<tag k="name" v="Djupakastet" />
		<tag k="ssr:date" v="2017-11-02" />
		<tag k="ssr:gruppe" v="sjøbunn" />
		<tag k="ssr:hovedgruppe" v="sjø" />
		<tag k="ssr:stedsnr" v="979833" />
		<tag k="ssr:type" v="søkkISjø" />
	</node>
	<node lat="59.34014375957426" lon="5.8612892741179" id="-6447">
		<tag k="name" v="Kjetlet" />
		<tag k="ssr:date" v="2017-11-02" />
		<tag k="ssr:gruppe" v="sjøbunn" />
		<tag k="ssr:hovedgruppe" v="sjø" />
		<tag k="ssr:stedsnr" v="979834" />
		<tag k="ssr:type" v="søkkISjø" />
	</node>
	<node lat="59.432041494166796" lon="5.385339469592195" id="-6450">
		<tag k="name" v="Veimshaugen" />
		<tag k="ssr:date" v="2019-05-30" />
		<tag k="ssr:gruppe" v="veg" />
		<tag k="ssr:hovedgruppe" v="infrastruktur" />
		<tag k="ssr:stedsnr" v="1028736" />
		<tag k="ssr:type" v="adressenavn" />
	</node>
	<node lat="59.42557295680489" lon="5.641886741304821" id="-6451">
		<tag k="name" v="Hålandsvegen" />
		<tag k="ssr:date" v="2019-05-30" />
		<tag k="ssr:gruppe" v="veg" />
		<tag k="ssr:hovedgruppe" v="infrastruktur" />
		<tag k="ssr:stedsnr" v="1028739" />
		<tag k="ssr:type" v="adressenavn" />
	</node>
	<node lat="59.42785140678341" lon="5.625643936617131" id="-6452">
		<tag k="name" v="Bjørkebakkane" />
		<tag k="ssr:date" v="2019-05-30" />
		<tag k="ssr:gruppe" v="veg" />
		<tag k="ssr:hovedgruppe" v="infrastruktur" />
		<tag k="ssr:stedsnr" v="1028744" />
		<tag k="ssr:type" v="adressenavn" />
	</node>
	<node lat="59.32379629972262" lon="5.488675929299455" id="-6453">
		<tag k="name" v="Ospeskar" />
		<tag k="ssr:date" v="2019-05-30" />
		<tag k="ssr:gruppe" v="veg" />
		<tag k="ssr:hovedgruppe" v="infrastruktur" />
		<tag k="ssr:stedsnr" v="1028747" />
		<tag k="ssr:type" v="adressenavn" />
	</node>
	<node lat="59.401111534602045" lon="5.429568404819409" id="-6454">
		<tag k="name" v="Eikeskogvegen" />
		<tag k="ssr:date" v="2019-05-30" />
		<tag k="ssr:gruppe" v="veg" />
		<tag k="ssr:hovedgruppe" v="infrastruktur" />
		<tag k="ssr:stedsnr" v="1028750" />
		<tag k="ssr:type" v="adressenavn" />
	</node>
	<node lat="59.413795240973926" lon="5.411123277346492" id="-6455">
		<tag k="name" v="Fjellhaug" />
		<tag k="ssr:date" v="2019-05-30" />
		<tag k="ssr:gruppe" v="veg" />
		<tag k="ssr:hovedgruppe" v="infrastruktur" />
		<tag k="ssr:stedsnr" v="1028751" />
		<tag k="ssr:type" v="adressenavn" />
	</node>
	<node lat="59.41432571960614" lon="5.406957558863526" id="-6456">
		<tag k="name" v="Hamrane" />
		<tag k="ssr:date" v="2019-05-30" />
		<tag k="ssr:gruppe" v="veg" />
		<tag k="ssr:hovedgruppe" v="infrastruktur" />
		<tag k="ssr:stedsnr" v="1028752" />
		<tag k="ssr:type" v="adressenavn" />
	</node>
	<node lat="59.42481631001196" lon="5.390892730177444" id="-6457">
		<tag k="name" v="Lyngvegen" />
		<tag k="ssr:date" v="2019-05-30" />
		<tag k="ssr:gruppe" v="veg" />
		<tag k="ssr:hovedgruppe" v="infrastruktur" />
		<tag k="ssr:stedsnr" v="1028753" />
		<tag k="ssr:type" v="adressenavn" />
	</node>
	<node lat="59.427422326555096" lon="5.389737253862183" id="-6458">
		<tag k="name" v="Granlivegen" />
		<tag k="ssr:date" v="2019-05-30" />
		<tag k="ssr:gruppe" v="veg" />
		<tag k="ssr:hovedgruppe" v="infrastruktur" />
		<tag k="ssr:stedsnr" v="1028754" />
		<tag k="ssr:type" v="adressenavn" />
	</node>
	<node lat="59.42872516290065" lon="5.386899356702875" id="-6459">
		<tag k="name" v="Furuvegen" />
		<tag k="ssr:date" v="2019-05-30" />
		<tag k="ssr:gruppe" v="veg" />
		<tag k="ssr:hovedgruppe" v="infrastruktur" />
		<tag k="ssr:stedsnr" v="1028755" />
		<tag k="ssr:type" v="adressenavn" />
	</node>
	<node lat="59.426416026671696" lon="5.3927456261035465" id="-6460">
		<tag k="name" v="Einervegen" />
		<tag k="ssr:date" v="2019-05-30" />
		<tag k="ssr:gruppe" v="veg" />
		<tag k="ssr:hovedgruppe" v="infrastruktur" />
		<tag k="ssr:stedsnr" v="1028756" />
		<tag k="ssr:type" v="adressenavn" />
	</node>
	<node lat="59.418041287466444" lon="5.389362228830796" id="-6461">
		<tag k="name" v="Høgenapvegen" />
		<tag k="ssr:date" v="2019-05-30" />
		<tag k="ssr:gruppe" v="veg" />
		<tag k="ssr:hovedgruppe" v="infrastruktur" />
		<tag k="ssr:stedsnr" v="1028757" />
		<tag k="ssr:type" v="adressenavn" />
	</node>
	<node lat="59.42392933676685" lon="5.391675063109645" id="-6462">
		<tag k="name" v="Fjellvegen" />
		<tag k="ssr:date" v="2019-05-30" />
		<tag k="ssr:gruppe" v="veg" />
		<tag k="ssr:hovedgruppe" v="infrastruktur" />
		<tag k="ssr:stedsnr" v="1028759" />
		<tag k="ssr:type" v="adressenavn" />
	</node>
	<node lat="59.42209354723092" lon="5.387683106789337" id="-6463">
		<tag k="name" v="Grendatunvegen" />
		<tag k="ssr:date" v="2019-05-30" />
		<tag k="ssr:gruppe" v="veg" />
		<tag k="ssr:hovedgruppe" v="infrastruktur" />
		<tag k="ssr:stedsnr" v="1028768" />
		<tag k="ssr:type" v="adressenavn" />
	</node>
	<node lat="59.423881822432115" lon="5.450516757004172" id="-6464">
		<tag k="name" v="Alvanutvegen" />
		<tag k="ssr:date" v="2019-05-30" />
		<tag k="ssr:gruppe" v="veg" />
		<tag k="ssr:hovedgruppe" v="infrastruktur" />
		<tag k="ssr:stedsnr" v="1028769" />
		<tag k="ssr:type" v="adressenavn" />
	</node>
	<node lat="59.42360883618758" lon="5.469990650780286" id="-6465">
		<tag k="name" v="Stølen" />
		<tag k="ssr:date" v="2019-05-30" />
		<tag k="ssr:gruppe" v="veg" />
		<tag k="ssr:hovedgruppe" v="infrastruktur" />
		<tag k="ssr:stedsnr" v="1028770" />
		<tag k="ssr:type" v="adressenavn" />
	</node>
	<node lat="59.426209916470995" lon="5.466369419607488" id="-6466">
		<tag k="name" v="Grovamyr" />
		<tag k="ssr:date" v="2019-05-30" />
		<tag k="ssr:gruppe" v="veg" />
		<tag k="ssr:hovedgruppe" v="infrastruktur" />
		<tag k="ssr:stedsnr" v="1028772" />
		<tag k="ssr:type" v="adressenavn" />
	</node>
	<node lat="59.419082644196585" lon="5.472612067765319" id="-6467">
		<tag k="name" v="Kophaug" />
		<tag k="ssr:date" v="2019-05-30" />
		<tag k="ssr:gruppe" v="veg" />
		<tag k="ssr:hovedgruppe" v="infrastruktur" />
		<tag k="ssr:stedsnr" v="1028773" />
		<tag k="ssr:type" v="adressenavn" />
	</node>
	<node lat="59.424311056718544" lon="5.470477945276914" id="-6468">
		<tag k="name" v="Smalamyr" />
		<tag k="ssr:date" v="2019-05-30" />
		<tag k="ssr:gruppe" v="veg" />
		<tag k="ssr:hovedgruppe" v="infrastruktur" />
		<tag k="ssr:stedsnr" v="1028774" />
		<tag k="ssr:type" v="adressenavn" />
	</node>
	<node lat="59.379675786977934" lon="5.473695727874634" id="-6469">
		<tag k="name" v="Padlane" />
		<tag k="ssr:date" v="2019-05-30" />
		<tag k="ssr:gruppe" v="veg" />
		<tag k="ssr:hovedgruppe" v="infrastruktur" />
		<tag k="ssr:stedsnr" v="1028775" />
		<tag k="ssr:type" v="adressenavn" />
	</node>
	<node lat="59.42122234991685" lon="5.471849076199972" id="-6470">
		<tag k="name" v="Kodlekleiv" />
		<tag k="ssr:date" v="2019-05-30" />
		<tag k="ssr:gruppe" v="veg" />
		<tag k="ssr:hovedgruppe" v="infrastruktur" />
		<tag k="ssr:stedsnr" v="1028777" />
		<tag k="ssr:type" v="adressenavn" />
	</node>
	<node lat="59.41815927799338" lon="5.38924651254448" id="-6471">
		<tag k="name" v="Stølsvegen" />
		<tag k="ssr:date" v="2019-05-30" />
		<tag k="ssr:gruppe" v="veg" />
		<tag k="ssr:hovedgruppe" v="infrastruktur" />
		<tag k="ssr:stedsnr" v="1028779" />
		<tag k="ssr:type" v="adressenavn" />
	</node>
	<node lat="59.4185642356629" lon="5.388133769834732" id="-6472">
		<tag k="name" v="Markavegen" />
		<tag k="ssr:date" v="2019-05-30" />
		<tag k="ssr:gruppe" v="veg" />
		<tag k="ssr:hovedgruppe" v="infrastruktur" />
		<tag k="ssr:stedsnr" v="1028781" />
		<tag k="ssr:type" v="adressenavn" />
	</node>
	<node lat="59.41768709912041" lon="5.391158727886858" id="-6473">
		<tag k="name" v="Bakkevegen" />
		<tag k="ssr:date" v="2019-05-30" />
		<tag k="ssr:gruppe" v="veg" />
		<tag k="ssr:hovedgruppe" v="infrastruktur" />
		<tag k="ssr:stedsnr" v="1028782" />
		<tag k="ssr:type" v="adressenavn" />
	</node>
	<node lat="59.41945010656982" lon="5.389691653651673" id="-6474">
		<tag k="name" v="Tunvegen" />
		<tag k="ssr:date" v="2019-05-30" />
		<tag k="ssr:gruppe" v="veg" />
		<tag k="ssr:hovedgruppe" v="infrastruktur" />
		<tag k="ssr:stedsnr" v="1028783" />
		<tag k="ssr:type" v="adressenavn" />
	</node>
	<node lat="59.42126064389878" lon="5.454865061984568" id="-6475">
		<tag k="name" v="Aksdalsvegen" />
		<tag k="ssr:date" v="2019-05-30" />
		<tag k="ssr:gruppe" v="veg" />
		<tag k="ssr:hovedgruppe" v="infrastruktur" />
		<tag k="ssr:stedsnr" v="1028785" />
		<tag k="ssr:type" v="adressenavn" />
	</node>
	<node lat="59.3221666030176" lon="5.598504286056294" id="-6476">
		<tag k="name" v="Hervikneset" />
		<tag k="ssr:date" v="2019-05-30" />
		<tag k="ssr:gruppe" v="veg" />
		<tag k="ssr:hovedgruppe" v="infrastruktur" />
		<tag k="ssr:stedsnr" v="1028488" />
		<tag k="ssr:type" v="adressenavn" />
	</node>
	<node lat="59.3297231630222" lon="5.611975574266272" id="-6477">
		<tag k="name" v="Forevegen" />
		<tag k="ssr:date" v="2019-05-30" />
		<tag k="ssr:gruppe" v="veg" />
		<tag k="ssr:hovedgruppe" v="infrastruktur" />
		<tag k="ssr:stedsnr" v="1028490" />
		<tag k="ssr:type" v="adressenavn" />
	</node>
	<node lat="59.33573397664916" lon="5.6786555160200916" id="-6478">
		<tag k="name" v="Espevik" />
		<tag k="ssr:date" v="2019-05-30" />
		<tag k="ssr:gruppe" v="veg" />
		<tag k="ssr:hovedgruppe" v="infrastruktur" />
		<tag k="ssr:stedsnr" v="1028492" />
		<tag k="ssr:type" v="adressenavn" />
	</node>
	<node lat="59.41211521007738" lon="5.367094075671434" id="-6479">
		<tag k="name" v="Førresfjordvegen" />
		<tag k="ssr:date" v="2019-05-30" />
		<tag k="ssr:gruppe" v="veg" />
		<tag k="ssr:hovedgruppe" v="infrastruktur" />
		<tag k="ssr:stedsnr" v="1028494" />
		<tag k="ssr:type" v="adressenavn" />
	</node>
	<node lat="59.397299664150836" lon="5.669348297038765" id="-6480">
		<tag k="name" v="Yrkjesvegen" />
		<tag k="ssr:date" v="2019-05-30" />
		<tag k="ssr:gruppe" v="veg" />
		<tag k="ssr:hovedgruppe" v="infrastruktur" />
		<tag k="ssr:stedsnr" v="1028496" />
		<tag k="ssr:type" v="adressenavn" />
	</node>
	<node lat="59.34614764599696" lon="5.864054361037784" id="-6481">
		<tag k="name" v="Nessavegen" />
		<tag k="ssr:date" v="2019-05-30" />
		<tag k="ssr:gruppe" v="veg" />
		<tag k="ssr:hovedgruppe" v="infrastruktur" />
		<tag k="ssr:stedsnr" v="1028498" />
		<tag k="ssr:type" v="adressenavn" />
	</node>
	<node lat="59.34675341894857" lon="5.8447892358285225" id="-6482">
		<tag k="name" v="Akslandsvegen" />
		<tag k="ssr:date" v="2019-05-30" />
		<tag k="ssr:gruppe" v="veg" />
		<tag k="ssr:hovedgruppe" v="infrastruktur" />
		<tag k="ssr:stedsnr" v="1028502" />
		<tag k="ssr:type" v="adressenavn" />
	</node>
	<node lat="59.34617069018203" lon="5.864163101893217" id="-6483">
		<tag k="name" v="Dalvavegen" />
		<tag k="ssr:date" v="2019-05-30" />
		<tag k="ssr:gruppe" v="veg" />
		<tag k="ssr:hovedgruppe" v="infrastruktur" />
		<tag k="ssr:stedsnr" v="1028505" />
		<tag k="ssr:type" v="adressenavn" />
	</node>
	<node lat="59.34518781409629" lon="5.75200588524005" id="-6484">
		<tag k="name" v="Muslandsvåg" />
		<tag k="ssr:date" v="2019-05-30" />
		<tag k="ssr:gruppe" v="veg" />
		<tag k="ssr:hovedgruppe" v="infrastruktur" />
		<tag k="ssr:stedsnr" v="1028507" />
		<tag k="ssr:type" v="adressenavn" />
	</node>
	<node lat="59.34431488170597" lon="5.850927064375629" id="-6485">
		<tag k="name" v="Stuvikneset" />
		<tag k="ssr:date" v="2019-05-30" />
		<tag k="ssr:gruppe" v="veg" />
		<tag k="ssr:hovedgruppe" v="infrastruktur" />
		<tag k="ssr:stedsnr" v="1028509" />
		<tag k="ssr:type" v="adressenavn" />
	</node>
	<node lat="59.36778241335872" lon="5.4763584695104175" id="-6486">
		<tag k="name" v="Førlandsvegen" />
		<tag k="ssr:date" v="2019-05-30" />
		<tag k="ssr:gruppe" v="veg" />
		<tag k="ssr:hovedgruppe" v="infrastruktur" />
		<tag k="ssr:stedsnr" v="1028513" />
		<tag k="ssr:type" v="adressenavn" />
	</node>
	<node lat="59.34274112811439" lon="5.635220368101321" id="-6487">
		<tag k="name" v="Borgøy" />
		<tag k="ssr:date" v="2019-05-30" />
		<tag k="ssr:gruppe" v="veg" />
		<tag k="ssr:hovedgruppe" v="infrastruktur" />
		<tag k="ssr:stedsnr" v="1028514" />
		<tag k="ssr:type" v="adressenavn" />
	</node>
	<node lat="59.317881317202044" lon="5.472842283214553" id="-6488">
		<tag k="name" v="Tysværvågvegen" />
		<tag k="ssr:date" v="2019-05-30" />
		<tag k="ssr:gruppe" v="veg" />
		<tag k="ssr:hovedgruppe" v="infrastruktur" />
		<tag k="ssr:stedsnr" v="1028517" />
		<tag k="ssr:type" v="adressenavn" />
	</node>
	<node lat="59.284607882854765" lon="5.524137888324712" id="-6489">
		<tag k="name" v="Falkeidvegen" />
		<tag k="ssr:date" v="2019-05-30" />
		<tag k="ssr:gruppe" v="veg" />
		<tag k="ssr:hovedgruppe" v="infrastruktur" />
		<tag k="ssr:stedsnr" v="1028519" />
		<tag k="ssr:type" v="adressenavn" />
	</node>
	<node lat="59.332366597882505" lon="5.434952060266211" id="-6490">
		<tag k="name" v="Hetland" />
		<tag k="ssr:date" v="2019-05-30" />
		<tag k="ssr:gruppe" v="veg" />
		<tag k="ssr:hovedgruppe" v="infrastruktur" />
		<tag k="ssr:stedsnr" v="1028522" />
		<tag k="ssr:type" v="adressenavn" />
	</node>
	<node lat="59.29365248411619" lon="5.526096425091213" id="-6491">
		<tag k="name" v="Hersdalsvegen" />
		<tag k="ssr:date" v="2019-05-30" />
		<tag k="ssr:gruppe" v="veg" />
		<tag k="ssr:hovedgruppe" v="infrastruktur" />
		<tag k="ssr:stedsnr" v="1028524" />
		<tag k="ssr:type" v="adressenavn" />
	</node>
	<node lat="59.27587784949115" lon="5.550011510092103" id="-6492">
		<tag k="name" v="Årvikvegen" />
		<tag k="ssr:date" v="2019-05-30" />
		<tag k="ssr:gruppe" v="veg" />
		<tag k="ssr:hovedgruppe" v="infrastruktur" />
		<tag k="ssr:stedsnr" v="1028527" />
		<tag k="ssr:type" v="adressenavn" />
	</node>
	<node lat="59.2973904643742" lon="5.469724912192693" id="-6493">
		<tag k="name" v="Eikje" />
		<tag k="ssr:date" v="2019-05-30" />
		<tag k="ssr:gruppe" v="veg" />
		<tag k="ssr:hovedgruppe" v="infrastruktur" />
		<tag k="ssr:stedsnr" v="1028530" />
		<tag k="ssr:type" v="adressenavn" />
	</node>
	<node lat="59.31328137816145" lon="5.434204722659078" id="-6494">
		<tag k="name" v="Havnavegen" />
		<tag k="ssr:date" v="2019-05-30" />
		<tag k="ssr:gruppe" v="veg" />
		<tag k="ssr:hovedgruppe" v="infrastruktur" />
		<tag k="ssr:stedsnr" v="1028533" />
		<tag k="ssr:type" v="adressenavn" />
	</node>
	<node lat="59.321558939758255" lon="5.5908178079031305" id="-6495">
		<tag k="name" v="Laupen" />
		<tag k="ssr:date" v="2019-05-30" />
		<tag k="ssr:gruppe" v="veg" />
		<tag k="ssr:hovedgruppe" v="infrastruktur" />
		<tag k="ssr:stedsnr" v="1028606" />
		<tag k="ssr:type" v="adressenavn" />
	</node>
	<node lat="59.310152599866015" lon="5.468556821967273" id="-6496">
		<tag k="name" v="Melkevikleitet" />
		<tag k="ssr:date" v="2019-05-30" />
		<tag k="ssr:gruppe" v="veg" />
		<tag k="ssr:hovedgruppe" v="infrastruktur" />
		<tag k="ssr:stedsnr" v="1028608" />
		<tag k="ssr:type" v="adressenavn" />
	</node>
	<node lat="59.424073929806184" lon="5.4360907389240705" id="-6497">
		<tag k="name" v="Stølsberg" />
		<tag k="ssr:date" v="2019-05-30" />
		<tag k="ssr:gruppe" v="veg" />
		<tag k="ssr:hovedgruppe" v="infrastruktur" />
		<tag k="ssr:stedsnr" v="1028623" />
		<tag k="ssr:type" v="adressenavn" />
	</node>
	<node lat="59.42050877485173" lon="5.415149204263301" id="-6498">
		<tag k="name" v="Helgelandsvegen" />
		<tag k="ssr:date" v="2019-05-30" />
		<tag k="ssr:gruppe" v="veg" />
		<tag k="ssr:hovedgruppe" v="infrastruktur" />
		<tag k="ssr:stedsnr" v="1028625" />
		<tag k="ssr:type" v="adressenavn" />
	</node>
	<node lat="59.423249745389136" lon="5.3853368649358595" id="-6499">
		<tag k="name" v="Førresfjorden brygge" />
		<tag k="ssr:date" v="2019-05-30" />
		<tag k="ssr:gruppe" v="veg" />
		<tag k="ssr:hovedgruppe" v="infrastruktur" />
		<tag k="ssr:stedsnr" v="1028626" />
		<tag k="ssr:type" v="adressenavn" />
	</node>
	<node lat="59.424088061832386" lon="5.396077715435117" id="-6500">
		<tag k="name" v="Rindane" />
		<tag k="ssr:date" v="2019-05-30" />
		<tag k="ssr:gruppe" v="veg" />
		<tag k="ssr:hovedgruppe" v="infrastruktur" />
		<tag k="ssr:stedsnr" v="1028627" />
		<tag k="ssr:type" v="adressenavn" />
	</node>
	<node lat="59.41225804469596" lon="5.367140955193424" id="-6501">
		<tag k="name" v="Skrestien" />
		<tag k="ssr:date" v="2019-05-30" />
		<tag k="ssr:gruppe" v="veg" />
		<tag k="ssr:hovedgruppe" v="infrastruktur" />
		<tag k="ssr:stedsnr" v="1028629" />
		<tag k="ssr:type" v="adressenavn" />
	</node>
	<node lat="59.41193516071298" lon="5.366852296063548" id="-6502">
		<tag k="name" v="Skrevegen" />
		<tag k="ssr:date" v="2019-05-30" />
		<tag k="ssr:gruppe" v="veg" />
		<tag k="ssr:hovedgruppe" v="infrastruktur" />
		<tag k="ssr:stedsnr" v="1028631" />
		<tag k="ssr:type" v="adressenavn" />
	</node>
	<node lat="59.42128066839906" lon="5.378475827283115" id="-6503">
		<tag k="name" v="Gardsvikvegen" />
		<tag k="ssr:date" v="2019-05-30" />
		<tag k="ssr:gruppe" v="veg" />
		<tag k="ssr:hovedgruppe" v="infrastruktur" />
		<tag k="ssr:stedsnr" v="1028632" />
		<tag k="ssr:type" v="adressenavn" />
	</node>
	<node lat="59.414614572331544" lon="5.3711433474905075" id="-6504">
		<tag k="name" v="Førresvegen" />
		<tag k="ssr:date" v="2019-05-30" />
		<tag k="ssr:gruppe" v="veg" />
		<tag k="ssr:hovedgruppe" v="infrastruktur" />
		<tag k="ssr:stedsnr" v="1028634" />
		<tag k="ssr:type" v="adressenavn" />
	</node>
	<node lat="59.4170388542655" lon="5.411615350272546" id="-6505">
		<tag k="name" v="Rundhaug" />
		<tag k="ssr:date" v="2019-05-30" />
		<tag k="ssr:gruppe" v="veg" />
		<tag k="ssr:hovedgruppe" v="infrastruktur" />
		<tag k="ssr:stedsnr" v="1028635" />
		<tag k="ssr:type" v="adressenavn" />
	</node>
	<node lat="59.33490101973869" lon="5.727176721306663" id="-6506">
		<tag k="name" v="Silgjerdsdalen" />
		<tag k="ssr:date" v="2019-05-30" />
		<tag k="ssr:gruppe" v="veg" />
		<tag k="ssr:hovedgruppe" v="infrastruktur" />
		<tag k="ssr:stedsnr" v="1028686" />
		<tag k="ssr:type" v="adressenavn" />
	</node>
	<node lat="59.438559466170496" lon="5.6098117181580704" id="-6507">
		<tag k="name" v="Erlandsvegen" />
		<tag k="ssr:date" v="2019-05-30" />
		<tag k="ssr:gruppe" v="veg" />
		<tag k="ssr:hovedgruppe" v="infrastruktur" />
		<tag k="ssr:stedsnr" v="1028688" />
		<tag k="ssr:type" v="adressenavn" />
	</node>
	<node lat="59.344653475886524" lon="5.87238805251591" id="-6508">
		<tag k="name" v="Leiråvegen" />
		<tag k="ssr:date" v="2019-05-30" />
		<tag k="ssr:gruppe" v="veg" />
		<tag k="ssr:hovedgruppe" v="infrastruktur" />
		<tag k="ssr:stedsnr" v="1028690" />
		<tag k="ssr:type" v="adressenavn" />
	</node>
	<node lat="59.349417034016206" lon="5.799839146455677" id="-6509">
		<tag k="name" v="Vassendvikvegen" />
		<tag k="ssr:date" v="2019-05-30" />
		<tag k="ssr:gruppe" v="veg" />
		<tag k="ssr:hovedgruppe" v="infrastruktur" />
		<tag k="ssr:stedsnr" v="1028473" />
		<tag k="ssr:type" v="adressenavn" />
	</node>
	<node lat="59.34458109137775" lon="5.854250308733251" id="-6510">
		<tag k="name" v="Stranda" />
		<tag k="ssr:date" v="2019-05-30" />
		<tag k="ssr:gruppe" v="veg" />
		<tag k="ssr:hovedgruppe" v="infrastruktur" />
		<tag k="ssr:stedsnr" v="1028475" />
		<tag k="ssr:type" v="adressenavn" />
	</node>
	<node lat="59.37602691042291" lon="5.88788731686207" id="-6511">
		<tag k="name" v="Ringjavegen" />
		<tag k="ssr:date" v="2019-05-30" />
		<tag k="ssr:gruppe" v="veg" />
		<tag k="ssr:hovedgruppe" v="infrastruktur" />
		<tag k="ssr:stedsnr" v="1028478" />
		<tag k="ssr:type" v="adressenavn" />
	</node>
	<node lat="59.341422903940014" lon="5.775833873168487" id="-6512">
		<tag k="name" v="Hinderåvåg" />
		<tag k="ssr:date" v="2019-05-30" />
		<tag k="ssr:gruppe" v="veg" />
		<tag k="ssr:hovedgruppe" v="infrastruktur" />
		<tag k="ssr:stedsnr" v="1028481" />
		<tag k="ssr:type" v="adressenavn" />
	</node>
	<node lat="59.37332648176469" lon="5.612332483543035" id="-6513">
		<tag k="name" v="Skogøyvegen" />
		<tag k="ssr:date" v="2019-05-30" />
		<tag k="ssr:gruppe" v="veg" />
		<tag k="ssr:hovedgruppe" v="infrastruktur" />
		<tag k="ssr:stedsnr" v="1028483" />
		<tag k="ssr:type" v="adressenavn" />
	</node>
	<node lat="59.32306496726087" lon="5.588376245570811" id="-6514">
		<tag k="name" v="Hundsnesvegen" />
		<tag k="ssr:date" v="2019-05-30" />
		<tag k="ssr:gruppe" v="veg" />
		<tag k="ssr:hovedgruppe" v="infrastruktur" />
		<tag k="ssr:stedsnr" v="1028485" />
		<tag k="ssr:type" v="adressenavn" />
	</node>
	<node lat="59.417344951056215" lon="5.385260567307732" id="-6515">
		<tag k="name" v="Småje" />
		<tag k="ssr:date" v="2019-05-30" />
		<tag k="ssr:gruppe" v="veg" />
		<tag k="ssr:hovedgruppe" v="infrastruktur" />
		<tag k="ssr:stedsnr" v="1028536" />
		<tag k="ssr:type" v="adressenavn" />
	</node>
	<node lat="59.319641669216686" lon="5.591610539688613" id="-6516">
		<tag k="name" v="Hervikvegen" />
		<tag k="ssr:date" v="2019-05-30" />
		<tag k="ssr:gruppe" v="veg" />
		<tag k="ssr:hovedgruppe" v="infrastruktur" />
		<tag k="ssr:stedsnr" v="1028538" />
		<tag k="ssr:type" v="adressenavn" />
	</node>
	<node lat="59.31257052483592" lon="5.43424335044542" id="-6517">
		<tag k="name" v="Myrvegen" />
		<tag k="ssr:date" v="2019-05-30" />
		<tag k="ssr:gruppe" v="veg" />
		<tag k="ssr:hovedgruppe" v="infrastruktur" />
		<tag k="ssr:stedsnr" v="1028540" />
		<tag k="ssr:type" v="adressenavn" />
	</node>
	<node lat="59.392127821095634" lon="5.518139308650674" id="-6518">
		<tag k="name" v="Sagbakkevegen" />
		<tag k="ssr:date" v="2019-05-30" />
		<tag k="ssr:gruppe" v="veg" />
		<tag k="ssr:hovedgruppe" v="infrastruktur" />
		<tag k="ssr:stedsnr" v="1028543" />
		<tag k="ssr:type" v="adressenavn" />
	</node>
	<node lat="59.333063203049946" lon="5.540621713526456" id="-6519">
		<tag k="name" v="Evjevegen" />
		<tag k="ssr:date" v="2019-05-30" />
		<tag k="ssr:gruppe" v="veg" />
		<tag k="ssr:hovedgruppe" v="infrastruktur" />
		<tag k="ssr:stedsnr" v="1028545" />
		<tag k="ssr:type" v="adressenavn" />
	</node>
	<node lat="59.33023977721397" lon="5.503521450253929" id="-6520">
		<tag k="name" v="Lønningsvegen" />
		<tag k="ssr:date" v="2019-05-30" />
		<tag k="ssr:gruppe" v="veg" />
		<tag k="ssr:hovedgruppe" v="infrastruktur" />
		<tag k="ssr:stedsnr" v="1028547" />
		<tag k="ssr:type" v="adressenavn" />
	</node>
	<node lat="59.33831937567429" lon="5.503101764868268" id="-6521">
		<tag k="name" v="Heskjadalen" />
		<tag k="ssr:date" v="2019-05-30" />
		<tag k="ssr:gruppe" v="veg" />
		<tag k="ssr:hovedgruppe" v="infrastruktur" />
		<tag k="ssr:stedsnr" v="1028548" />
		<tag k="ssr:type" v="adressenavn" />
	</node>
	<node lat="59.33839543644319" lon="5.406802753645197" id="-6522">
		<tag k="name" v="Hetlandsvågen" />
		<tag k="ssr:date" v="2019-05-30" />
		<tag k="ssr:gruppe" v="veg" />
		<tag k="ssr:hovedgruppe" v="infrastruktur" />
		<tag k="ssr:stedsnr" v="1028550" />
		<tag k="ssr:type" v="adressenavn" />
	</node>
	<node lat="59.33128542861561" lon="5.394448672867417" id="-6523">
		<tag k="name" v="Breivika" />
		<tag k="ssr:date" v="2019-05-30" />
		<tag k="ssr:gruppe" v="veg" />
		<tag k="ssr:hovedgruppe" v="infrastruktur" />
		<tag k="ssr:stedsnr" v="1028552" />
		<tag k="ssr:type" v="adressenavn" />
	</node>
	<node lat="59.35331401722602" lon="5.558440382585894" id="-6524">
		<tag k="name" v="Skoglandsvegen" />
		<tag k="ssr:date" v="2019-05-30" />
		<tag k="ssr:gruppe" v="veg" />
		<tag k="ssr:hovedgruppe" v="infrastruktur" />
		<tag k="ssr:stedsnr" v="1028554" />
		<tag k="ssr:type" v="adressenavn" />
	</node>
	<node lat="59.358456695176116" lon="5.543318437475626" id="-6525">
		<tag k="name" v="Sandbekken" />
		<tag k="ssr:date" v="2019-05-30" />
		<tag k="ssr:gruppe" v="veg" />
		<tag k="ssr:hovedgruppe" v="infrastruktur" />
		<tag k="ssr:stedsnr" v="1028556" />
		<tag k="ssr:type" v="adressenavn" />
	</node>
	<node lat="59.422871903318644" lon="5.3792895955187765" id="-6526">
		<tag k="name" v="Førreparken" />
		<tag k="ssr:date" v="2019-05-30" />
		<tag k="ssr:gruppe" v="veg" />
		<tag k="ssr:hovedgruppe" v="infrastruktur" />
		<tag k="ssr:stedsnr" v="1028560" />
		<tag k="ssr:type" v="adressenavn" />
	</node>
	<node lat="59.421377866521986" lon="5.446947328845058" id="-6527">
		<tag k="name" v="Rådhusvegen" />
		<tag k="ssr:date" v="2019-05-30" />
		<tag k="ssr:gruppe" v="veg" />
		<tag k="ssr:hovedgruppe" v="infrastruktur" />
		<tag k="ssr:stedsnr" v="1028562" />
		<tag k="ssr:type" v="adressenavn" />
	</node>
	<node lat="59.43361362083726" lon="5.477759593675773" id="-6528">
		<tag k="name" v="Litlaskogvegen" />
		<tag k="ssr:date" v="2019-05-30" />
		<tag k="ssr:gruppe" v="veg" />
		<tag k="ssr:hovedgruppe" v="infrastruktur" />
		<tag k="ssr:stedsnr" v="1028565" />
		<tag k="ssr:type" v="adressenavn" />
	</node>
	<node lat="59.38277782581351" lon="5.475266451616011" id="-6529">
		<tag k="name" v="Padlehaugen" />
		<tag k="ssr:date" v="2019-05-30" />
		<tag k="ssr:gruppe" v="veg" />
		<tag k="ssr:hovedgruppe" v="infrastruktur" />
		<tag k="ssr:stedsnr" v="1028567" />
		<tag k="ssr:type" v="adressenavn" />
	</node>
	<node lat="59.27676932045946" lon="5.475713375809419" id="-6530">
		<tag k="name" v="Tysværvegen" />
		<tag k="ssr:date" v="2019-05-30" />
		<tag k="ssr:gruppe" v="veg" />
		<tag k="ssr:hovedgruppe" v="infrastruktur" />
		<tag k="ssr:stedsnr" v="1028569" />
		<tag k="ssr:type" v="adressenavn" />
	</node>
	<node lat="59.31300014943236" lon="5.468903298850424" id="-6531">
		<tag k="name" v="Slåttevikvegen" />
		<tag k="ssr:date" v="2019-05-30" />
		<tag k="ssr:gruppe" v="veg" />
		<tag k="ssr:hovedgruppe" v="infrastruktur" />
		<tag k="ssr:stedsnr" v="1028570" />
		<tag k="ssr:type" v="adressenavn" />
	</node>
	<node lat="59.29411736623683" lon="5.443715690029571" id="-6532">
		<tag k="name" v="Gismarvikvegen" />
		<tag k="ssr:date" v="2019-05-30" />
		<tag k="ssr:gruppe" v="veg" />
		<tag k="ssr:hovedgruppe" v="infrastruktur" />
		<tag k="ssr:stedsnr" v="1028571" />
		<tag k="ssr:type" v="adressenavn" />
	</node>
	<node lat="59.399644573272056" lon="5.470603561767853" id="-6533">
		<tag k="name" v="Krabbatveitvegen" />
		<tag k="ssr:date" v="2019-05-30" />
		<tag k="ssr:gruppe" v="veg" />
		<tag k="ssr:hovedgruppe" v="infrastruktur" />
		<tag k="ssr:stedsnr" v="1028573" />
		<tag k="ssr:type" v="adressenavn" />
	</node>
	<node lat="59.29242336131427" lon="5.421825662674793" id="-6534">
		<tag k="name" v="Halsaneset" />
		<tag k="ssr:date" v="2019-05-30" />
		<tag k="ssr:gruppe" v="veg" />
		<tag k="ssr:hovedgruppe" v="infrastruktur" />
		<tag k="ssr:stedsnr" v="1028576" />
		<tag k="ssr:type" v="adressenavn" />
	</node>
	<node lat="59.29651799760126" lon="5.452011044549237" id="-6535">
		<tag k="name" v="Odlandsvegen" />
		<tag k="ssr:date" v="2019-05-30" />
		<tag k="ssr:gruppe" v="veg" />
		<tag k="ssr:hovedgruppe" v="infrastruktur" />
		<tag k="ssr:stedsnr" v="1028577" />
		<tag k="ssr:type" v="adressenavn" />
	</node>
	<node lat="59.278798443599044" lon="5.524262997802473" id="-6536">
		<tag k="name" v="Kårstøvegen" />
		<tag k="ssr:date" v="2019-05-30" />
		<tag k="ssr:gruppe" v="veg" />
		<tag k="ssr:hovedgruppe" v="infrastruktur" />
		<tag k="ssr:stedsnr" v="1028579" />
		<tag k="ssr:type" v="adressenavn" />
	</node>
	<node lat="59.3304639037092" lon="5.441279638372656" id="-6537">
		<tag k="name" v="Leirvollvegen" />
		<tag k="ssr:date" v="2019-05-30" />
		<tag k="ssr:gruppe" v="veg" />
		<tag k="ssr:hovedgruppe" v="infrastruktur" />
		<tag k="ssr:stedsnr" v="1028582" />
		<tag k="ssr:type" v="adressenavn" />
	</node>
	<node lat="59.3695129867392" lon="5.3855880625534835" id="-6538">
		<tag k="name" v="Øvredalsvegen" />
		<tag k="ssr:date" v="2019-05-30" />
		<tag k="ssr:gruppe" v="veg" />
		<tag k="ssr:hovedgruppe" v="infrastruktur" />
		<tag k="ssr:stedsnr" v="1028638" />
		<tag k="ssr:type" v="adressenavn" />
	</node>
	<node lat="59.38419783175575" lon="5.664130357517185" id="-6539">
		<tag k="name" v="Stølsvikvegen" />
		<tag k="ssr:date" v="2019-05-30" />
		<tag k="ssr:gruppe" v="veg" />
		<tag k="ssr:hovedgruppe" v="infrastruktur" />
		<tag k="ssr:stedsnr" v="1028641" />
		<tag k="ssr:type" v="adressenavn" />
	</node>
	<node lat="59.392884078291786" lon="5.5207256386670345" id="-6540">
		<tag k="name" v="Askelandsvegen" />
		<tag k="ssr:date" v="2019-05-30" />
		<tag k="ssr:gruppe" v="veg" />
		<tag k="ssr:hovedgruppe" v="infrastruktur" />
		<tag k="ssr:stedsnr" v="1028643" />
		<tag k="ssr:type" v="adressenavn" />
	</node>
	<node lat="59.41385151433454" lon="5.359198065446117" id="-6541">
		<tag k="name" v="Bratthammarvegen" />
		<tag k="ssr:date" v="2019-05-30" />
		<tag k="ssr:gruppe" v="veg" />
		<tag k="ssr:hovedgruppe" v="infrastruktur" />
		<tag k="ssr:stedsnr" v="1028646" />
		<tag k="ssr:type" v="adressenavn" />
	</node>
	<node lat="59.396822056916065" lon="5.487458447080075" id="-6542">
		<tag k="name" v="Amdalsvegen" />
		<tag k="ssr:date" v="2019-05-30" />
		<tag k="ssr:gruppe" v="veg" />
		<tag k="ssr:hovedgruppe" v="infrastruktur" />
		<tag k="ssr:stedsnr" v="1028648" />
		<tag k="ssr:type" v="adressenavn" />
	</node>
	<node lat="59.41118241032401" lon="5.40339730702303" id="-6543">
		<tag k="name" v="Frakkagjerdvegen" />
		<tag k="ssr:date" v="2019-05-30" />
		<tag k="ssr:gruppe" v="veg" />
		<tag k="ssr:hovedgruppe" v="infrastruktur" />
		<tag k="ssr:stedsnr" v="1028649" />
		<tag k="ssr:type" v="adressenavn" />
	</node>
	<node lat="59.419738834628234" lon="5.413495316253136" id="-6544">
		<tag k="name" v="Aksdalsbrekka" />
		<tag k="ssr:date" v="2019-05-30" />
		<tag k="ssr:gruppe" v="veg" />
		<tag k="ssr:hovedgruppe" v="infrastruktur" />
		<tag k="ssr:stedsnr" v="1028650" />
		<tag k="ssr:type" v="adressenavn" />
	</node>
	<node lat="59.42472524665303" lon="5.4436047136312" id="-6545">
		<tag k="name" v="Alvanutlia" />
		<tag k="ssr:date" v="2019-05-30" />
		<tag k="ssr:gruppe" v="veg" />
		<tag k="ssr:hovedgruppe" v="infrastruktur" />
		<tag k="ssr:stedsnr" v="1028651" />
		<tag k="ssr:type" v="adressenavn" />
	</node>
	<node lat="59.419408771159226" lon="5.475364058880746" id="-6546">
		<tag k="name" v="Hestaberg" />
		<tag k="ssr:date" v="2019-05-30" />
		<tag k="ssr:gruppe" v="veg" />
		<tag k="ssr:hovedgruppe" v="infrastruktur" />
		<tag k="ssr:stedsnr" v="1028652" />
		<tag k="ssr:type" v="adressenavn" />
	</node>
	<node lat="59.41355881584416" lon="5.388721936113639" id="-6547">
		<tag k="name" v="Nappatjørn" />
		<tag k="ssr:date" v="2019-05-30" />
		<tag k="ssr:gruppe" v="veg" />
		<tag k="ssr:hovedgruppe" v="infrastruktur" />
		<tag k="ssr:stedsnr" v="1028653" />
		<tag k="ssr:type" v="adressenavn" />
	</node>
	<node lat="59.41816726703214" lon="5.395714036868125" id="-6548">
		<tag k="name" v="Høgahaug" />
		<tag k="ssr:date" v="2019-05-30" />
		<tag k="ssr:gruppe" v="veg" />
		<tag k="ssr:hovedgruppe" v="infrastruktur" />
		<tag k="ssr:stedsnr" v="1028654" />
		<tag k="ssr:type" v="adressenavn" />
	</node>
	<node lat="59.418910993736645" lon="5.386719703317511" id="-6549">
		<tag k="name" v="Nesmarka" />
		<tag k="ssr:date" v="2019-05-30" />
		<tag k="ssr:gruppe" v="veg" />
		<tag k="ssr:hovedgruppe" v="infrastruktur" />
		<tag k="ssr:stedsnr" v="1028657" />
		<tag k="ssr:type" v="adressenavn" />
	</node>
	<node lat="59.419661695082986" lon="5.386430388779633" id="-6550">
		<tag k="name" v="Førreneset" />
		<tag k="ssr:date" v="2019-05-30" />
		<tag k="ssr:gruppe" v="veg" />
		<tag k="ssr:hovedgruppe" v="infrastruktur" />
		<tag k="ssr:stedsnr" v="1028658" />
		<tag k="ssr:type" v="adressenavn" />
	</node>
	<node lat="59.31084503496779" lon="5.468511950744097" id="-6551">
		<tag k="name" v="Melkevikvegen" />
		<tag k="ssr:date" v="2019-05-30" />
		<tag k="ssr:gruppe" v="veg" />
		<tag k="ssr:hovedgruppe" v="infrastruktur" />
		<tag k="ssr:stedsnr" v="1028659" />
		<tag k="ssr:type" v="adressenavn" />
	</node>
	<node lat="59.39736743046858" lon="5.4741000147583065" id="-6552">
		<tag k="name" v="Eikelund" />
		<tag k="ssr:date" v="2019-05-30" />
		<tag k="ssr:gruppe" v="veg" />
		<tag k="ssr:hovedgruppe" v="infrastruktur" />
		<tag k="ssr:stedsnr" v="1028660" />
		<tag k="ssr:type" v="adressenavn" />
	</node>
	<node lat="59.43502862004425" lon="5.383866220961855" id="-6553">
		<tag k="name" v="Nesheimsvegen" />
		<tag k="ssr:date" v="2019-05-30" />
		<tag k="ssr:gruppe" v="veg" />
		<tag k="ssr:hovedgruppe" v="infrastruktur" />
		<tag k="ssr:stedsnr" v="1028661" />
		<tag k="ssr:type" v="adressenavn" />
	</node>
	<node lat="59.42451735492206" lon="5.382881714726978" id="-6554">
		<tag k="name" v="Stakkestadvegen" />
		<tag k="ssr:date" v="2019-05-30" />
		<tag k="ssr:gruppe" v="veg" />
		<tag k="ssr:hovedgruppe" v="infrastruktur" />
		<tag k="ssr:stedsnr" v="1028662" />
		<tag k="ssr:type" v="adressenavn" />
	</node>
	<node lat="59.31293116189597" lon="5.466008455054603" id="-6555">
		<tag k="name" v="Sjonarvegen" />
		<tag k="ssr:date" v="2019-05-30" />
		<tag k="ssr:gruppe" v="veg" />
		<tag k="ssr:hovedgruppe" v="infrastruktur" />
		<tag k="ssr:stedsnr" v="1028664" />
		<tag k="ssr:type" v="adressenavn" />
	</node>
	<node lat="59.36174401751332" lon="5.392115449976026" id="-6556">
		<tag k="name" v="Høievegen" />
		<tag k="ssr:date" v="2019-05-30" />
		<tag k="ssr:gruppe" v="veg" />
		<tag k="ssr:hovedgruppe" v="infrastruktur" />
		<tag k="ssr:stedsnr" v="1028666" />
		<tag k="ssr:type" v="adressenavn" />
	</node>
	<node lat="59.41206285923892" lon="5.411104200071434" id="-6557">
		<tag k="name" v="Nånesvegen" />
		<tag k="ssr:date" v="2019-05-30" />
		<tag k="ssr:gruppe" v="veg" />
		<tag k="ssr:hovedgruppe" v="infrastruktur" />
		<tag k="ssr:stedsnr" v="1028667" />
		<tag k="ssr:type" v="adressenavn" />
	</node>
	<node lat="59.412235069852606" lon="5.409702366751662" id="-6558">
		<tag k="name" v="Asparsletta" />
		<tag k="ssr:date" v="2019-05-30" />
		<tag k="ssr:gruppe" v="veg" />
		<tag k="ssr:hovedgruppe" v="infrastruktur" />
		<tag k="ssr:stedsnr" v="1028669" />
		<tag k="ssr:type" v="adressenavn" />
	</node>
	<node lat="59.40937572062352" lon="5.406467194622227" id="-6559">
		<tag k="name" v="Asparhaugvegen" />
		<tag k="ssr:date" v="2019-05-30" />
		<tag k="ssr:gruppe" v="veg" />
		<tag k="ssr:hovedgruppe" v="infrastruktur" />
		<tag k="ssr:stedsnr" v="1028670" />
		<tag k="ssr:type" v="adressenavn" />
	</node>
	<node lat="59.37258468286509" lon="5.39791019622589" id="-6560">
		<tag k="name" v="Kallevikvegen" />
		<tag k="ssr:date" v="2019-05-30" />
		<tag k="ssr:gruppe" v="veg" />
		<tag k="ssr:hovedgruppe" v="infrastruktur" />
		<tag k="ssr:stedsnr" v="1028671" />
		<tag k="ssr:type" v="adressenavn" />
	</node>
	<node lat="59.48338235084171" lon="5.456962512722372" id="-6561">
		<tag k="name" v="Sundførvågen" />
		<tag k="ssr:date" v="2019-05-30" />
		<tag k="ssr:gruppe" v="veg" />
		<tag k="ssr:hovedgruppe" v="infrastruktur" />
		<tag k="ssr:stedsnr" v="1028673" />
		<tag k="ssr:type" v="adressenavn" />
	</node>
	<node lat="59.462321783065036" lon="5.477873096338806" id="-6562">
		<tag k="name" v="Sundførvegen" />
		<tag k="ssr:date" v="2019-05-30" />
		<tag k="ssr:gruppe" v="veg" />
		<tag k="ssr:hovedgruppe" v="infrastruktur" />
		<tag k="ssr:stedsnr" v="1028675" />
		<tag k="ssr:type" v="adressenavn" />
	</node>
	<node lat="59.4099289701264" lon="5.6169970543075065" id="-6563">
		<tag k="name" v="Straumsvegen" />
		<tag k="ssr:date" v="2019-05-30" />
		<tag k="ssr:gruppe" v="veg" />
		<tag k="ssr:hovedgruppe" v="infrastruktur" />
		<tag k="ssr:stedsnr" v="1028677" />
		<tag k="ssr:type" v="adressenavn" />
	</node>
	<node lat="59.427997034118825" lon="5.621568509000876" id="-6564">
		<tag k="name" v="Skjoldastraumsvegen" />
		<tag k="ssr:date" v="2019-05-30" />
		<tag k="ssr:gruppe" v="veg" />
		<tag k="ssr:hovedgruppe" v="infrastruktur" />
		<tag k="ssr:stedsnr" v="1028680" />
		<tag k="ssr:type" v="adressenavn" />
	</node>
	<node lat="59.45465925191289" lon="5.572708222384391" id="-6565">
		<tag k="name" v="Fikstveitvegen" />
		<tag k="ssr:date" v="2019-05-30" />
		<tag k="ssr:gruppe" v="veg" />
		<tag k="ssr:hovedgruppe" v="infrastruktur" />
		<tag k="ssr:stedsnr" v="1028682" />
		<tag k="ssr:type" v="adressenavn" />
	</node>
	<node lat="59.43392269725671" lon="5.611100741797272" id="-6566">
		<tag k="name" v="Nesvegen" />
		<tag k="ssr:date" v="2019-05-30" />
		<tag k="ssr:gruppe" v="veg" />
		<tag k="ssr:hovedgruppe" v="infrastruktur" />
		<tag k="ssr:stedsnr" v="1028684" />
		<tag k="ssr:type" v="adressenavn" />
	</node>
	<node lat="59.346955742160596" lon="5.869268494238478" id="-6567">
		<tag k="name" v="Øverland" />
		<tag k="ssr:date" v="2019-05-30" />
		<tag k="ssr:gruppe" v="veg" />
		<tag k="ssr:hovedgruppe" v="infrastruktur" />
		<tag k="ssr:stedsnr" v="1028692" />
		<tag k="ssr:type" v="adressenavn" />
	</node>
	<node lat="59.46201074703162" lon="5.466861956609994" id="-6568">
		<tag k="name" v="Våg" />
		<tag k="ssr:date" v="2019-05-30" />
		<tag k="ssr:gruppe" v="veg" />
		<tag k="ssr:hovedgruppe" v="infrastruktur" />
		<tag k="ssr:stedsnr" v="1028694" />
		<tag k="ssr:type" v="adressenavn" />
	</node>
	<node lat="59.4229515548545" lon="5.465675735454721" id="-6569">
		<tag k="name" v="Kvithaugvegen" />
		<tag k="ssr:date" v="2019-05-30" />
		<tag k="ssr:gruppe" v="veg" />
		<tag k="ssr:hovedgruppe" v="infrastruktur" />
		<tag k="ssr:stedsnr" v="1028695" />
		<tag k="ssr:type" v="adressenavn" />
	</node>
	<node lat="59.42763422631612" lon="5.467588833809643" id="-6570">
		<tag k="name" v="Kvednanesvegen" />
		<tag k="ssr:date" v="2019-05-30" />
		<tag k="ssr:gruppe" v="veg" />
		<tag k="ssr:hovedgruppe" v="infrastruktur" />
		<tag k="ssr:stedsnr" v="1028697" />
		<tag k="ssr:type" v="adressenavn" />
	</node>
	<node lat="59.45809670383311" lon="5.465126831566147" id="-6571">
		<tag k="name" v="Årek" />
		<tag k="ssr:date" v="2019-05-30" />
		<tag k="ssr:gruppe" v="veg" />
		<tag k="ssr:hovedgruppe" v="infrastruktur" />
		<tag k="ssr:stedsnr" v="1028698" />
		<tag k="ssr:type" v="adressenavn" />
	</node>
	<node lat="59.4152464669103" lon="5.59812498612435" id="-6572">
		<tag k="name" v="Romsalandsvegen" />
		<tag k="ssr:date" v="2019-05-30" />
		<tag k="ssr:gruppe" v="veg" />
		<tag k="ssr:hovedgruppe" v="infrastruktur" />
		<tag k="ssr:stedsnr" v="1028703" />
		<tag k="ssr:type" v="adressenavn" />
	</node>
	<node lat="59.419929858393296" lon="5.450040382194908" id="-6573">
		<tag k="name" v="Grindafjordvegen" />
		<tag k="ssr:date" v="2019-05-30" />
		<tag k="ssr:gruppe" v="veg" />
		<tag k="ssr:hovedgruppe" v="infrastruktur" />
		<tag k="ssr:stedsnr" v="1028705" />
		<tag k="ssr:type" v="adressenavn" />
	</node>
	<node lat="59.431520064588504" lon="5.636821348636397" id="-6574">
		<tag k="name" v="Dalbygda" />
		<tag k="ssr:date" v="2019-05-30" />
		<tag k="ssr:gruppe" v="veg" />
		<tag k="ssr:hovedgruppe" v="infrastruktur" />
		<tag k="ssr:stedsnr" v="1028707" />
		<tag k="ssr:type" v="adressenavn" />
	</node>
	<node lat="59.267177560327134" lon="5.669066063883316" id="-6575">
		<tag k="name" v="Toftøysundvegen" />
		<tag k="ssr:date" v="2019-05-30" />
		<tag k="ssr:gruppe" v="veg" />
		<tag k="ssr:hovedgruppe" v="infrastruktur" />
		<tag k="ssr:stedsnr" v="1028710" />
		<tag k="ssr:type" v="adressenavn" />
	</node>
	<node lat="59.353715141944775" lon="5.754066792376475" id="-6576">
		<tag k="name" v="Bjellandsvegen" />
		<tag k="ssr:date" v="2019-05-30" />
		<tag k="ssr:gruppe" v="veg" />
		<tag k="ssr:hovedgruppe" v="infrastruktur" />
		<tag k="ssr:stedsnr" v="1028713" />
		<tag k="ssr:type" v="adressenavn" />
	</node>
	<node lat="59.329389449503836" lon="5.720295265442121" id="-6577">
		<tag k="name" v="Nedstrandsvegen" />
		<tag k="ssr:date" v="2019-05-30" />
		<tag k="ssr:gruppe" v="veg" />
		<tag k="ssr:hovedgruppe" v="infrastruktur" />
		<tag k="ssr:stedsnr" v="1028715" />
		<tag k="ssr:type" v="adressenavn" />
	</node>
	<node lat="59.36517724594968" lon="5.664014737403135" id="-6578">
		<tag k="name" v="Sandviklia" />
		<tag k="ssr:date" v="2019-05-30" />
		<tag k="ssr:gruppe" v="veg" />
		<tag k="ssr:hovedgruppe" v="infrastruktur" />
		<tag k="ssr:stedsnr" v="1028718" />
		<tag k="ssr:type" v="adressenavn" />
	</node>
	<node lat="59.4017590036698" lon="5.63661547868828" id="-6579">
		<tag k="name" v="Lindanger" />
		<tag k="ssr:date" v="2019-05-30" />
		<tag k="ssr:gruppe" v="veg" />
		<tag k="ssr:hovedgruppe" v="infrastruktur" />
		<tag k="ssr:stedsnr" v="1028720" />
		<tag k="ssr:type" v="adressenavn" />
	</node>
	<node lat="59.34068393940312" lon="5.830173427834834" id="-6580">
		<tag k="name" v="Baustadvegen" />
		<tag k="ssr:date" v="2019-05-30" />
		<tag k="ssr:gruppe" v="veg" />
		<tag k="ssr:hovedgruppe" v="infrastruktur" />
		<tag k="ssr:stedsnr" v="1028722" />
		<tag k="ssr:type" v="adressenavn" />
	</node>
	<node lat="59.429123222422" lon="5.464301456042109" id="-6581">
		<tag k="name" v="Grindevegen" />
		<tag k="ssr:date" v="2019-05-30" />
		<tag k="ssr:gruppe" v="veg" />
		<tag k="ssr:hovedgruppe" v="infrastruktur" />
		<tag k="ssr:stedsnr" v="1028724" />
		<tag k="ssr:type" v="adressenavn" />
	</node>
	<node lat="59.33791504980845" lon="5.681911133532939" id="-6582">
		<tag k="name" v="Espeviklia" />
		<tag k="ssr:date" v="2019-05-30" />
		<tag k="ssr:gruppe" v="veg" />
		<tag k="ssr:hovedgruppe" v="infrastruktur" />
		<tag k="ssr:stedsnr" v="1028728" />
		<tag k="ssr:type" v="adressenavn" />
	</node>
	<node lat="59.430264894074064" lon="5.623351964899759" id="-6583">
		<tag k="name" v="Solheimsvegen" />
		<tag k="ssr:date" v="2019-05-30" />
		<tag k="ssr:gruppe" v="veg" />
		<tag k="ssr:hovedgruppe" v="infrastruktur" />
		<tag k="ssr:stedsnr" v="1028730" />
		<tag k="ssr:type" v="adressenavn" />
	</node>
	<node lat="59.28774476111841" lon="5.653885935436825" id="-6584">
		<tag k="name" v="Liarvågvegen" />
		<tag k="ssr:date" v="2019-05-30" />
		<tag k="ssr:gruppe" v="veg" />
		<tag k="ssr:hovedgruppe" v="infrastruktur" />
		<tag k="ssr:stedsnr" v="1028731" />
		<tag k="ssr:type" v="adressenavn" />
	</node>
	<node lat="59.42254375385872" lon="5.451424028613134" id="-6585">
		<tag k="name" v="Grasmyrvegen" />
		<tag k="ssr:date" v="2019-05-30" />
		<tag k="ssr:gruppe" v="veg" />
		<tag k="ssr:hovedgruppe" v="infrastruktur" />
		<tag k="ssr:stedsnr" v="1028786" />
		<tag k="ssr:type" v="adressenavn" />
	</node>
	<node lat="59.4111940718883" lon="5.405784985679013" id="-6586">
		<tag k="name" v="Asparhaug" />
		<tag k="ssr:date" v="2019-05-30" />
		<tag k="ssr:gruppe" v="veg" />
		<tag k="ssr:hovedgruppe" v="infrastruktur" />
		<tag k="ssr:stedsnr" v="1028788" />
		<tag k="ssr:type" v="adressenavn" />
	</node>
	<node lat="59.42288569585529" lon="5.452222845137032" id="-6587">
		<tag k="name" v="Buhaugvegen" />
		<tag k="ssr:date" v="2019-05-30" />
		<tag k="ssr:gruppe" v="veg" />
		<tag k="ssr:hovedgruppe" v="infrastruktur" />
		<tag k="ssr:stedsnr" v="1028790" />
		<tag k="ssr:type" v="adressenavn" />
	</node>
	<node lat="59.31852774538775" lon="5.594237681366588" id="-6588">
		<tag k="name" v="Gudbrandsvegen" />
		<tag k="ssr:date" v="2019-05-30" />
		<tag k="ssr:gruppe" v="veg" />
		<tag k="ssr:hovedgruppe" v="infrastruktur" />
		<tag k="ssr:stedsnr" v="1028791" />
		<tag k="ssr:type" v="adressenavn" />
	</node>
	<node lat="59.42326876216711" lon="5.388817495249371" id="-6589">
		<tag k="name" v="Lynghaug" />
		<tag k="ssr:date" v="2019-05-30" />
		<tag k="ssr:gruppe" v="veg" />
		<tag k="ssr:hovedgruppe" v="infrastruktur" />
		<tag k="ssr:stedsnr" v="1028792" />
		<tag k="ssr:type" v="adressenavn" />
	</node>
	<node lat="59.41986949185802" lon="5.3930369749389895" id="-6590">
		<tag k="name" v="Myrbakken" />
		<tag k="ssr:date" v="2019-05-30" />
		<tag k="ssr:gruppe" v="veg" />
		<tag k="ssr:hovedgruppe" v="infrastruktur" />
		<tag k="ssr:stedsnr" v="1028794" />
		<tag k="ssr:type" v="adressenavn" />
	</node>
	<node lat="59.42204187193059" lon="5.396344888550758" id="-6591">
		<tag k="name" v="Førresdalen" />
		<tag k="ssr:date" v="2019-05-30" />
		<tag k="ssr:gruppe" v="veg" />
		<tag k="ssr:hovedgruppe" v="infrastruktur" />
		<tag k="ssr:stedsnr" v="1028795" />
		<tag k="ssr:type" v="adressenavn" />
	</node>
	<node lat="59.315815872310495" lon="5.449818811158366" id="-6592">
		<tag k="name" v="Mjåsund" />
		<tag k="ssr:date" v="2019-05-30" />
		<tag k="ssr:gruppe" v="veg" />
		<tag k="ssr:hovedgruppe" v="infrastruktur" />
		<tag k="ssr:stedsnr" v="1028796" />
		<tag k="ssr:type" v="adressenavn" />
	</node>
	<node lat="59.42422664815423" lon="5.4391357150260555" id="-6593">
		<tag k="name" v="Tjordal" />
		<tag k="ssr:date" v="2019-05-30" />
		<tag k="ssr:gruppe" v="veg" />
		<tag k="ssr:hovedgruppe" v="infrastruktur" />
		<tag k="ssr:stedsnr" v="1028797" />
		<tag k="ssr:type" v="adressenavn" />
	</node>
	<node lat="59.38128029819374" lon="5.475545142843887" id="-6594">
		<tag k="name" v="Klovsteinvegen" />
		<tag k="ssr:date" v="2019-05-30" />
		<tag k="ssr:gruppe" v="veg" />
		<tag k="ssr:hovedgruppe" v="infrastruktur" />
		<tag k="ssr:stedsnr" v="1028798" />
		<tag k="ssr:type" v="adressenavn" />
	</node>
	<node lat="59.381100967805345" lon="5.472767810851983" id="-6595">
		<tag k="name" v="Saltvikvegen" />
		<tag k="ssr:date" v="2019-05-30" />
		<tag k="ssr:gruppe" v="veg" />
		<tag k="ssr:hovedgruppe" v="infrastruktur" />
		<tag k="ssr:stedsnr" v="1028799" />
		<tag k="ssr:type" v="adressenavn" />
	</node>
	<node lat="59.27707931402128" lon="5.484568649877403" id="-6596">
		<tag k="name" v="Susortvegen" />
		<tag k="ssr:date" v="2019-05-30" />
		<tag k="ssr:gruppe" v="veg" />
		<tag k="ssr:hovedgruppe" v="infrastruktur" />
		<tag k="ssr:stedsnr" v="1028800" />
		<tag k="ssr:type" v="adressenavn" />
	</node>
	<node lat="59.32378441557564" lon="5.488293658019374" id="-6597">
		<tag k="name" v="Svartmyrvegen" />
		<tag k="ssr:date" v="2019-05-30" />
		<tag k="ssr:gruppe" v="veg" />
		<tag k="ssr:hovedgruppe" v="infrastruktur" />
		<tag k="ssr:stedsnr" v="1028801" />
		<tag k="ssr:type" v="adressenavn" />
	</node>
	<node lat="59.28636953409763" lon="5.468763185227925" id="-6598">
		<tag k="name" v="Lervikvegen" />
		<tag k="ssr:date" v="2019-05-30" />
		<tag k="ssr:gruppe" v="veg" />
		<tag k="ssr:hovedgruppe" v="infrastruktur" />
		<tag k="ssr:stedsnr" v="1028802" />
		<tag k="ssr:type" v="adressenavn" />
	</node>
	<node lat="59.32492365087473" lon="5.487399271345686" id="-6599">
		<tag k="name" v="Bjørnsvikleitet" />
		<tag k="ssr:date" v="2019-05-30" />
		<tag k="ssr:gruppe" v="veg" />
		<tag k="ssr:hovedgruppe" v="infrastruktur" />
		<tag k="ssr:stedsnr" v="1028803" />
		<tag k="ssr:type" v="adressenavn" />
	</node>
	<node lat="59.28620800358117" lon="5.471805914031018" id="-6600">
		<tag k="name" v="Kalvatreet" />
		<tag k="ssr:date" v="2019-05-30" />
		<tag k="ssr:gruppe" v="veg" />
		<tag k="ssr:hovedgruppe" v="infrastruktur" />
		<tag k="ssr:stedsnr" v="1028805" />
		<tag k="ssr:type" v="adressenavn" />
	</node>
	<node lat="59.4299676575963" lon="5.611980633984411" id="-6601">
		<tag k="name" v="Haugen" />
		<tag k="ssr:date" v="2019-05-30" />
		<tag k="ssr:gruppe" v="veg" />
		<tag k="ssr:hovedgruppe" v="infrastruktur" />
		<tag k="ssr:stedsnr" v="1028808" />
		<tag k="ssr:type" v="adressenavn" />
	</node>
	<node lat="59.346113842913944" lon="5.8511221553246" id="-6602">
		<tag k="name" v="Stuvikleite" />
		<tag k="ssr:date" v="2019-05-30" />
		<tag k="ssr:gruppe" v="veg" />
		<tag k="ssr:hovedgruppe" v="infrastruktur" />
		<tag k="ssr:stedsnr" v="1028809" />
		<tag k="ssr:type" v="adressenavn" />
	</node>
	<node lat="59.422448775836344" lon="5.632031046331626" id="-6603">
		<tag k="name" v="Østenstadvegen" />
		<tag k="ssr:date" v="2019-05-30" />
		<tag k="ssr:gruppe" v="veg" />
		<tag k="ssr:hovedgruppe" v="infrastruktur" />
		<tag k="ssr:stedsnr" v="1028810" />
		<tag k="ssr:type" v="adressenavn" />
	</node>
	<node lat="59.42292895532262" lon="5.630581581734756" id="-6604">
		<tag k="name" v="Bådsvikvegen" />
		<tag k="ssr:date" v="2019-05-30" />
		<tag k="ssr:gruppe" v="veg" />
		<tag k="ssr:hovedgruppe" v="infrastruktur" />
		<tag k="ssr:stedsnr" v="1028813" />
		<tag k="ssr:type" v="adressenavn" />
	</node>
	<node lat="59.31223819943633" lon="5.46519449590932" id="-6605">
		<tag k="name" v="Urnesvegen" />
		<tag k="ssr:date" v="2019-05-30" />
		<tag k="ssr:gruppe" v="veg" />
		<tag k="ssr:hovedgruppe" v="infrastruktur" />
		<tag k="ssr:stedsnr" v="1028814" />
		<tag k="ssr:type" v="adressenavn" />
	</node>
	<node lat="59.42203722794134" lon="5.631472796804963" id="-6606">
		<tag k="name" v="Tømmeråsvegen" />
		<tag k="ssr:date" v="2019-05-30" />
		<tag k="ssr:gruppe" v="veg" />
		<tag k="ssr:hovedgruppe" v="infrastruktur" />
		<tag k="ssr:stedsnr" v="1028815" />
		<tag k="ssr:type" v="adressenavn" />
	</node>
	<node lat="59.36883444475391" lon="5.388956118788841" id="-6607">
		<tag k="name" v="Nuntunvegen" />
		<tag k="ssr:date" v="2019-05-30" />
		<tag k="ssr:gruppe" v="veg" />
		<tag k="ssr:hovedgruppe" v="infrastruktur" />
		<tag k="ssr:stedsnr" v="1028817" />
		<tag k="ssr:type" v="adressenavn" />
	</node>
	<node lat="59.368276498750284" lon="5.393996267099561" id="-6608">
		<tag k="name" v="Dalanesvegen" />
		<tag k="ssr:date" v="2019-05-30" />
		<tag k="ssr:gruppe" v="veg" />
		<tag k="ssr:hovedgruppe" v="infrastruktur" />
		<tag k="ssr:stedsnr" v="1028819" />
		<tag k="ssr:type" v="adressenavn" />
	</node>
	<node lat="59.419720828959576" lon="5.394748847663778" id="-6609">
		<tag k="name" v="Førresbrekka" />
		<tag k="ssr:date" v="2019-05-30" />
		<tag k="ssr:gruppe" v="veg" />
		<tag k="ssr:hovedgruppe" v="infrastruktur" />
		<tag k="ssr:stedsnr" v="1028821" />
		<tag k="ssr:type" v="adressenavn" />
	</node>
	<node lat="59.42218504236876" lon="5.378239529258159" id="-6610">
		<tag k="name" v="Vestli" />
		<tag k="ssr:date" v="2019-05-30" />
		<tag k="ssr:gruppe" v="veg" />
		<tag k="ssr:hovedgruppe" v="infrastruktur" />
		<tag k="ssr:stedsnr" v="1028822" />
		<tag k="ssr:type" v="adressenavn" />
	</node>
	<node lat="59.421261206261725" lon="5.388973087276231" id="-6611">
		<tag k="name" v="Førreåsen" />
		<tag k="ssr:date" v="2019-05-30" />
		<tag k="ssr:gruppe" v="veg" />
		<tag k="ssr:hovedgruppe" v="infrastruktur" />
		<tag k="ssr:stedsnr" v="1028824" />
		<tag k="ssr:type" v="adressenavn" />
	</node>
	<node lat="59.41724330909931" lon="5.393157492338519" id="-6612">
		<tag k="name" v="Gamlevegen" />
		<tag k="ssr:date" v="2019-05-30" />
		<tag k="ssr:gruppe" v="veg" />
		<tag k="ssr:hovedgruppe" v="infrastruktur" />
		<tag k="ssr:stedsnr" v="1028825" />
		<tag k="ssr:type" v="adressenavn" />
	</node>
	<node lat="59.35060226992035" lon="5.798429425440056" id="-6613">
		<tag k="name" v="Bjørkeli" />
		<tag k="ssr:date" v="2019-05-30" />
		<tag k="ssr:gruppe" v="veg" />
		<tag k="ssr:hovedgruppe" v="infrastruktur" />
		<tag k="ssr:stedsnr" v="1028827" />
		<tag k="ssr:type" v="adressenavn" />
	</node>
	<node lat="59.41490332735389" lon="5.414697873208345" id="-6614">
		<tag k="name" v="Frakkagjerddalen" />
		<tag k="ssr:date" v="2019-05-30" />
		<tag k="ssr:gruppe" v="veg" />
		<tag k="ssr:hovedgruppe" v="infrastruktur" />
		<tag k="ssr:stedsnr" v="1028828" />
		<tag k="ssr:type" v="adressenavn" />
	</node>
	<node lat="59.34635935964767" lon="5.850356016688524" id="-6615">
		<tag k="name" v="Stuvik" />
		<tag k="ssr:date" v="2019-05-30" />
		<tag k="ssr:gruppe" v="veg" />
		<tag k="ssr:hovedgruppe" v="infrastruktur" />
		<tag k="ssr:stedsnr" v="1028829" />
		<tag k="ssr:type" v="adressenavn" />
	</node>
	<node lat="59.35131017839548" lon="5.800069707854907" id="-6616">
		<tag k="name" v="Nypedalen" />
		<tag k="ssr:date" v="2019-05-30" />
		<tag k="ssr:gruppe" v="veg" />
		<tag k="ssr:hovedgruppe" v="infrastruktur" />
		<tag k="ssr:stedsnr" v="1028830" />
		<tag k="ssr:type" v="adressenavn" />
	</node>
	<node lat="59.31465835496469" lon="5.426137252188378" id="-6617">
		<tag k="name" v="Torvvegen" />
		<tag k="ssr:date" v="2020-02-18" />
		<tag k="ssr:gruppe" v="veg" />
		<tag k="ssr:hovedgruppe" v="infrastruktur" />
		<tag k="ssr:stedsnr" v="1075351" />
		<tag k="ssr:type" v="adressenavn" />
	</node>
</osm>
