<?xml version="1.0" encoding="UTF-8"?>
<<<<<<< HEAD
<osm version="0.6" generator="osmapis">
	<node lat="70.11097227301039" lon="29.93641512283357" id="-32133">
		<tag k="name" v="Hildonenslåtta" />
		<tag k="place" v="locality" />
		<tag k="ssr:stedsnr" v="30319" />
	</node>
	<node lat="70.08574449523555" lon="29.96718174717212" id="-32137">
		<tag k="name" v="Kaakkurijänkkä" />
		<tag k="name:fkv" v="Kaakkurijänkkä" />
		<tag k="natural" v="wetland" />
		<tag k="ssr:stedsnr" v="30465" />
	</node>
	<node lat="70.07538616260226" lon="30.001023399722968" id="-32138">
		<tag k="name" v="Ruijanjängät" />
		<tag k="name:fkv" v="Ruijanjängät" />
		<tag k="natural" v="wetland" />
		<tag k="old_name:fkv" v="Rujanjängät" />
		<tag k="ssr:stedsnr" v="30605" />
	</node>
	<node lat="70.3435250321018" lon="29.44537933533433" id="-32146">
		<tag k="name" v="Ovsttarjeaggi" />
		<tag k="name:se" v="Ovsttarjeaggi" />
		<tag k="natural" v="wetland" />
		<tag k="old_name:se" v="Åvstarjæggi" />
		<tag k="ssr:stedsnr" v="81916" />
	</node>
	<node lat="70.17900837178507" lon="29.221432168757435" id="-32159">
		<tag k="name" v="Karlsmyra - Kallenjänkkä" />
		<tag k="name:fkv" v="Kallenjänkkä" />
		<tag k="name:no" v="Karlsmyra" />
		<tag k="natural" v="wetland" />
		<tag k="ssr:stedsnr" v="140739" />
	</node>
	<node lat="70.09469726850293" lon="29.55770698305713" id="-32170">
		<tag k="name" v="Krumpestein" />
		<tag k="natural" v="stone" />
		<tag k="ssr:stedsnr" v="151017" />
	</node>
	<node lat="70.11520560565529" lon="29.972456754785846" id="-32174">
		<tag k="name" v="Helistøslåtta" />
		<tag k="place" v="locality" />
		<tag k="ssr:stedsnr" v="151313" />
	</node>
	<node lat="70.11254449729344" lon="29.922134570761038" id="-32175">
		<tag k="name" v="Løfgrenslåtta" />
		<tag k="place" v="locality" />
		<tag k="ssr:stedsnr" v="151315" />
	</node>
	<node lat="70.17184726094136" lon="29.25740158681014" id="-32225">
		<tag k="name" v="Lasse-Petter-slåtta - Petterinniitty" />
		<tag k="name:fkv" v="Petterinniitty" />
		<tag k="name:no" v="Lasse-Petter-slåtta" />
		<tag k="place" v="locality" />
		<tag k="ssr:stedsnr" v="455040" />
	</node>
	<node lat="70.0827250499062" lon="29.982995621586245" id="-32231">
		<tag k="name" v="Monstaskogen" />
		<tag k="place" v="locality" />
		<tag k="ssr:stedsnr" v="455376" />
	</node>
	<node lat="70.11015283270964" lon="30.1760399700344" id="-32239">
		<tag k="name" v="Kaakkurijänkkä" />
		<tag k="name:fkv" v="Kaakkurijänkkä" />
=======
<osm generator="osmapis" version="0.6">
	<node id="-846838" lat="70.2012206082" lon="30.3401459282">
		<tag k="name" v="Neitijänkkä" />
		<tag k="name:fkv" v="Neitijänkkä" />
		<tag k="natural" v="wetland" />
		<tag k="ssr:stedsnr" v="979572" />
	</node>
	<node id="-846827" lat="70.1125667164" lon="29.9790650911">
		<tag k="name" v="Keita" />
>>>>>>> e1d4bc35ff8a6074a6f2e91616a996b547c36f15
		<tag k="natural" v="wetland" />
		<tag k="ssr:stedsnr" v="455743" />
	</node>
<<<<<<< HEAD
	<node lat="70.16832226426475" lon="29.285107133071342" id="-32248">
		<tag k="name" v="Gjelhaugslåtta" />
		<tag k="place" v="locality" />
		<tag k="ssr:stedsnr" v="273023" />
	</node>
	<node lat="70.18441949804524" lon="30.266856606069755" id="-32294">
		<tag k="name" v="Helmerslåtta" />
		<tag k="place" v="locality" />
		<tag k="ssr:stedsnr" v="394631" />
	</node>
	<node lat="70.21141671771171" lon="30.33524823552913" id="-32338">
		<tag k="name" v="Pramminjänkkä" />
		<tag k="name:fkv" v="Pramminjänkkä" />
=======
	<node id="-846820" lat="70.1213139462" lon="30.2553954734">
		<tag k="name" v="Kjerringa og mannen" />
		<tag k="natural" v="stone" />
		<tag k="ssr:stedsnr" v="941706" />
	</node>
	<node id="-846813" lat="70.1020278312" lon="30.0890039219">
		<tag k="name" v="Kaldbekkmyra" />
>>>>>>> e1d4bc35ff8a6074a6f2e91616a996b547c36f15
		<tag k="natural" v="wetland" />
		<tag k="old_name:fkv" v="Braminjængæ" />
		<tag k="ssr:stedsnr" v="687496" />
	</node>
<<<<<<< HEAD
	<node lat="70.1200944973083" lon="30.10654834753621" id="-32344">
		<tag k="name" v="Storskog" />
		<tag k="place" v="locality" />
		<tag k="ssr:stedsnr" v="687556" />
	</node>
	<node lat="70.17323892843493" lon="29.213112739222296" id="-32361">
		<tag k="name" v="Lavdnjelutta" />
		<tag k="name:se" v="Lavdnjelutta" />
=======
	<node id="-846805" lat="70.1290500358" lon="29.2652904707">
		<tag k="name" v="Gvádasjeaggi" />
		<tag k="name:se" v="Gvádasjeaggi" />
>>>>>>> e1d4bc35ff8a6074a6f2e91616a996b547c36f15
		<tag k="natural" v="wetland" />
		<tag k="ssr:stedsnr" v="573099" />
	</node>
<<<<<<< HEAD
	<node lat="70.09812226428981" lon="29.621031945205683" id="-32363">
		<tag k="name" v="Bergelvmyra" />
=======
	<node id="-846792" lat="70.0751139374" lon="29.9608734166">
		<tag k="name" v="Torvmyra - Takajänkkä" />
		<tag k="name:fkv" v="Takajänkkä" />
		<tag k="name:no" v="Torvmyra" />
>>>>>>> e1d4bc35ff8a6074a6f2e91616a996b547c36f15
		<tag k="natural" v="wetland" />
		<tag k="ssr:stedsnr" v="576011" />
	</node>
<<<<<<< HEAD
	<node lat="70.11008893609954" lon="29.92469011518364" id="-32369">
		<tag k="name" v="Bekolaslåtta" />
=======
	<node id="-847300" lat="70.1200323356" lon="29.3046903247">
		<tag k="name" v="Mettäperä" />
		<tag k="name:fkv" v="Mettäperä" />
>>>>>>> e1d4bc35ff8a6074a6f2e91616a996b547c36f15
		<tag k="place" v="locality" />
		<tag k="ssr:stedsnr" v="576296" />
	</node>
<<<<<<< HEAD
	<node lat="70.11840005213276" lon="30.20539827333266" id="-32387">
		<tag k="name" v="Siket" />
=======
	<node id="-846777" lat="70.1251917085" lon="29.407348747">
		<tag k="name" v="Maritmyra" />
>>>>>>> e1d4bc35ff8a6074a6f2e91616a996b547c36f15
		<tag k="natural" v="wetland" />
		<tag k="ssr:stedsnr" v="698495" />
	</node>
<<<<<<< HEAD
	<node lat="70.26405281817047" lon="29.683248656526494" id="-32400">
		<tag k="name" v="Kompásjeaggi" />
		<tag k="name:se" v="Kompásjeaggi" />
		<tag k="natural" v="wetland" />
		<tag k="old_name:se" v="Kompasjæggi" />
		<tag k="ssr:stedsnr" v="626904" />
	</node>
	<node lat="70.11468339027206" lon="30.19345663263293" id="-32407">
		<tag k="name" v="Lillesiket" />
		<tag k="natural" v="wetland" />
		<tag k="ssr:stedsnr" v="637726" />
	</node>
	<node lat="70.1825278275663" lon="30.21805387294812" id="-32408">
		<tag k="name" v="Storsteinen" />
		<tag k="natural" v="stone" />
		<tag k="ssr:stedsnr" v="637734" />
	</node>
	<node lat="70.07241116285816" lon="29.96251509736806" id="-32418">
=======
	<node id="-847286" lat="70.0989361577" lon="30.0437456043">
		<tag k="name" v="Varskog" />
		<tag k="place" v="locality" />
		<tag k="ssr:stedsnr" v="870541" />
	</node>
	<node id="-846757" lat="70.0724111629" lon="29.9625150974">
>>>>>>> e1d4bc35ff8a6074a6f2e91616a996b547c36f15
		<tag k="name" v="Lillemyra" />
		<tag k="natural" v="wetland" />
		<tag k="ssr:stedsnr" v="698403" />
	</node>
<<<<<<< HEAD
	<node lat="70.07538060817045" lon="29.92387899400022" id="-32422">
=======
	<node id="-846755" lat="70.0753806082" lon="29.923878994">
>>>>>>> e1d4bc35ff8a6074a6f2e91616a996b547c36f15
		<tag k="name" v="Pikku-Louhikko" />
		<tag k="name:fkv" v="Pikku-Louhikko" />
		<tag k="natural" v="scree" />
		<tag k="ssr:stedsnr" v="698372" />
	</node>
<<<<<<< HEAD
	<node lat="70.20473893952662" lon="30.37990100279064" id="-32435">
		<tag k="name" v="Falkemyra - Juntinjänkä" />
		<tag k="name:fkv" v="Juntinjänkä" />
		<tag k="name:no" v="Falkemyra" />
=======
	<node id="-847265" lat="70.1160194965" lon="30.0740789202">
		<tag k="name" v="Majomyra" />
		<tag k="natural" v="wetland" />
		<tag k="ssr:stedsnr" v="819526" />
	</node>
	<node id="-847264" lat="70.0746139427" lon="29.9790150835">
		<tag k="name" v="Løfgreninjänkkä" />
		<tag k="name:fkv" v="Løfgreninjänkkä" />
>>>>>>> e1d4bc35ff8a6074a6f2e91616a996b547c36f15
		<tag k="natural" v="wetland" />
		<tag k="ssr:stedsnr" v="748574" />
	</node>
<<<<<<< HEAD
	<node lat="70.10248893474338" lon="29.556795890361602" id="-32440">
		<tag k="name" v="Legdemyra" />
=======
	<node id="-847262" lat="70.0678194932" lon="29.8987956749">
		<tag k="name" v="Sjåbuselvmyra" />
>>>>>>> e1d4bc35ff8a6074a6f2e91616a996b547c36f15
		<tag k="natural" v="wetland" />
		<tag k="ssr:stedsnr" v="758020" />
	</node>
<<<<<<< HEAD
	<node lat="70.08011115948423" lon="30.012578941557994" id="-32443">
		<tag k="name" v="Leenankivi" />
		<tag k="name:fkv" v="Leenankivi" />
		<tag k="natural" v="stone" />
		<tag k="ssr:stedsnr" v="758449" />
	</node>
	<node lat="70.11601949649875" lon="30.074078920196687" id="-32459">
		<tag k="name" v="Majomyra" />
=======
	<node id="-847259" lat="70.1050944974" lon="29.9489178813">
		<tag k="name" v="Mentyjærvislåtta" />
		<tag k="place" v="locality" />
		<tag k="ssr:stedsnr" v="819324" />
	</node>
	<node id="-846745" lat="70.1917278298" lon="30.1914816636">
		<tag k="name" v="Nedre Torvmælen" />
>>>>>>> e1d4bc35ff8a6074a6f2e91616a996b547c36f15
		<tag k="natural" v="wetland" />
		<tag k="ssr:stedsnr" v="819526" />
	</node>
<<<<<<< HEAD
	<node lat="70.11297504131542" lon="29.358779320347033" id="-32464">
		<tag k="name" v="Sudimyra - Čuđđejeaggi - Lauriniemenjänkkä" />
		<tag k="name:fkv" v="Lauriniemenjänkkä" />
		<tag k="name:no" v="Sudimyra" />
		<tag k="name:se" v="Čuđđejeaggi" />
=======
	<node id="-846738" lat="70.0752083882" lon="30.1238927763">
		<tag k="name" v="Stormyra" />
>>>>>>> e1d4bc35ff8a6074a6f2e91616a996b547c36f15
		<tag k="natural" v="wetland" />
		<tag k="old_name:se" v="Čuđđejæggi" />
		<tag k="ssr:stedsnr" v="929652" />
	</node>
<<<<<<< HEAD
	<node lat="70.09893615773822" lon="30.04374560432885" id="-32467">
		<tag k="name" v="Varskog" />
		<tag k="place" v="locality" />
		<tag k="ssr:stedsnr" v="870541" />
	</node>
	<node lat="70.11256671644306" lon="29.979065091092902" id="-32474">
		<tag k="name" v="Keita" />
=======
	<node id="-846735" lat="70.0731917134" lon="29.9456789911">
		<tag k="name" v="Pärinpääjänkkä" />
		<tag k="name:fkv" v="Pärinpääjänkkä" />
>>>>>>> e1d4bc35ff8a6074a6f2e91616a996b547c36f15
		<tag k="natural" v="wetland" />
		<tag k="ssr:stedsnr" v="930630" />
	</node>
<<<<<<< HEAD
	<node lat="70.07625005060665" lon="29.925081782399772" id="-32483">
=======
	<node id="-846732" lat="70.0762500506" lon="29.9250817824">
>>>>>>> e1d4bc35ff8a6074a6f2e91616a996b547c36f15
		<tag k="name" v="Iso-Louhikko" />
		<tag k="name:fkv" v="Iso-Louhikko" />
		<tag k="natural" v="scree" />
		<tag k="ssr:stedsnr" v="880406" />
	</node>
<<<<<<< HEAD
	<node lat="70.07319171337268" lon="29.945678991089014" id="-32486">
		<tag k="name" v="Pärinpääjänkkä" />
		<tag k="name:fkv" v="Pärinpääjänkkä" />
		<tag k="natural" v="wetland" />
		<tag k="ssr:stedsnr" v="880420" />
	</node>
	<node lat="70.19172782977465" lon="30.191481663575086" id="-32489">
		<tag k="name" v="Nedre Torvmælen" />
=======
	<node id="-846728" lat="70.1091361607" lon="29.9705039829">
		<tag k="name" v="Davidsenslåtta" />
		<tag k="place" v="locality" />
		<tag k="ssr:stedsnr" v="880285" />
	</node>
	<node id="-847218" lat="70.2040028278" lon="30.2339622093">
		<tag k="name" v="Pekkonniitty" />
		<tag k="name:fkv" v="Pekkonniitty" />
		<tag k="place" v="locality" />
		<tag k="ssr:stedsnr" v="758691" />
	</node>
	<node id="-846705" lat="70.1056917155" lon="30.101940022">
		<tag k="name" v="Konrad-si-myr" />
>>>>>>> e1d4bc35ff8a6074a6f2e91616a996b547c36f15
		<tag k="natural" v="wetland" />
		<tag k="ssr:stedsnr" v="880750" />
	</node>
<<<<<<< HEAD
	<node lat="70.12519170853284" lon="29.407348747019462" id="-32497">
		<tag k="name" v="Maritmyra" />
		<tag k="natural" v="wetland" />
		<tag k="ssr:stedsnr" v="930653" />
	</node>
	<node lat="70.12905003575396" lon="29.265290470731482" id="-32503">
		<tag k="name" v="Gvádasjeaggi" />
		<tag k="name:se" v="Gvádasjeaggi" />
=======
	<node id="-847216" lat="70.0801111595" lon="30.0125789416">
		<tag k="name" v="Leenankivi" />
		<tag k="name:fkv" v="Leenankivi" />
		<tag k="natural" v="stone" />
		<tag k="ssr:stedsnr" v="758449" />
	</node>
	<node id="-847208" lat="70.1024889347" lon="29.5567958904">
		<tag k="name" v="Legdemyra" />
>>>>>>> e1d4bc35ff8a6074a6f2e91616a996b547c36f15
		<tag k="natural" v="wetland" />
		<tag k="ssr:stedsnr" v="940106" />
	</node>
<<<<<<< HEAD
	<node lat="70.16279447836027" lon="29.293584907879367" id="-32525">
		<tag k="name" v="Andergå" />
=======
	<node id="-846685" lat="70.1184000521" lon="30.2053982733">
		<tag k="name" v="Siket" />
>>>>>>> e1d4bc35ff8a6074a6f2e91616a996b547c36f15
		<tag k="natural" v="wetland" />
		<tag k="ssr:stedsnr" v="30014" />
	</node>
<<<<<<< HEAD
	<node lat="70.07098338613166" lon="29.918970653604873" id="-32532">
		<tag k="name" v="Turvejänkkä" />
		<tag k="name:fkv" v="Turvejänkkä" />
=======
	<node id="-847193" lat="70.2047389395" lon="30.3799010028">
		<tag k="name" v="Falkemyra - Juntinjänkkä" />
		<tag k="name:fkv" v="Juntinjänkkä" />
		<tag k="name:no" v="Falkemyra" />
>>>>>>> e1d4bc35ff8a6074a6f2e91616a996b547c36f15
		<tag k="natural" v="wetland" />
		<tag k="ssr:stedsnr" v="30423" />
	</node>
<<<<<<< HEAD
	<node lat="70.15005838535045" lon="30.33506489154671" id="-32537">
		<tag k="name" v="Pärintakustajänkkä" />
		<tag k="name:fkv" v="Pärintakustajänkkä" />
		<tag k="natural" v="wetland" />
		<tag k="old_name:fkv" v="Pärintäkustaajänkkä" />
		<tag k="ssr:stedsnr" v="30699" />
	</node>
	<node lat="70.08161393873912" lon="29.95316508584642" id="-32546">
		<tag k="name" v="Stormyra - Maanlaita" />
		<tag k="name:fkv" v="Maanlaita" />
		<tag k="name:no" v="Stormyra" />
		<tag k="natural" v="wetland" />
		<tag k="ssr:stedsnr" v="80540" />
	</node>
	<node lat="70.10636393551097" lon="29.89039847765585" id="-32558">
		<tag k="name" v="Kibymyra" />
=======
	<node id="-847182" lat="70.1825278276" lon="30.2180538729">
		<tag k="name" v="Storsteinen" />
		<tag k="natural" v="stone" />
		<tag k="ssr:stedsnr" v="637734" />
	</node>
	<node id="-847181" lat="70.1146833903" lon="30.1934566326">
		<tag k="name" v="Lillesiket" />
>>>>>>> e1d4bc35ff8a6074a6f2e91616a996b547c36f15
		<tag k="natural" v="wetland" />
		<tag k="ssr:stedsnr" v="81629" />
	</node>
<<<<<<< HEAD
	<node lat="70.20029172603792" lon="30.377989878555027" id="-32566">
		<tag k="name" v="Juntinkenttä" />
		<tag k="name:fkv" v="Juntinkenttä" />
=======
	<node id="-847178" lat="70.1935722758" lon="30.2384149789">
		<tag k="name" v="Perinniitty" />
		<tag k="name:fkv" v="Perinniitty" />
>>>>>>> e1d4bc35ff8a6074a6f2e91616a996b547c36f15
		<tag k="place" v="locality" />
		<tag k="ssr:stedsnr" v="91668" />
	</node>
<<<<<<< HEAD
	<node lat="70.20375005477895" lon="30.252517752100044" id="-32571">
		<tag k="name" v="Villenniitty" />
		<tag k="name:fkv" v="Villenniitty" />
=======
	<node id="-846664" lat="70.1200944973" lon="30.1065483475">
		<tag k="name" v="Storskog" />
>>>>>>> e1d4bc35ff8a6074a6f2e91616a996b547c36f15
		<tag k="place" v="locality" />
		<tag k="ssr:stedsnr" v="91687" />
	</node>
<<<<<<< HEAD
	<node lat="70.07921671919462" lon="29.98928452738258" id="-32582">
		<tag k="name" v="Nikulainjänkkä" />
		<tag k="name:fkv" v="Nikulainjänkkä" />
=======
	<node id="-846656" lat="70.2114167177" lon="30.3352482355">
		<tag k="name" v="Pramminjänkkä" />
		<tag k="name:fkv" v="Pramminjänkkä" />
>>>>>>> e1d4bc35ff8a6074a6f2e91616a996b547c36f15
		<tag k="natural" v="wetland" />
		<tag k="old_name:fkv" v="Nikolainjänkkä" />
		<tag k="ssr:stedsnr" v="151425" />
	</node>
<<<<<<< HEAD
	<node lat="70.08995282477773" lon="29.823826293296356" id="-32586">
		<tag k="name" v="Torsvardmyra" />
=======
	<node id="-847165" lat="70.1773861512" lon="29.2465849323">
		<tag k="name" v="Djupholmyra - Syvähautanjänkkä" />
		<tag k="name:fkv" v="Syvähautanjänkkä" />
		<tag k="name:no" v="Djupholmyra" />
>>>>>>> e1d4bc35ff8a6074a6f2e91616a996b547c36f15
		<tag k="natural" v="wetland" />
		<tag k="ssr:stedsnr" v="151238" />
	</node>
<<<<<<< HEAD
	<node lat="70.091886154837" lon="29.842920724291147" id="-32588">
		<tag k="name" v="Eevanjänkä" />
		<tag k="name:fkv" v="Eevanjänkä" />
=======
	<node id="-847162" lat="70.2640528182" lon="29.6832486565">
		<tag k="name" v="Kompásjeaggi" />
		<tag k="name:se" v="Kompásjeaggi" />
>>>>>>> e1d4bc35ff8a6074a6f2e91616a996b547c36f15
		<tag k="natural" v="wetland" />
		<tag k="old_name:fkv" v="Evajänkkä" />
		<tag k="ssr:stedsnr" v="151249" />
	</node>
<<<<<<< HEAD
	<node lat="70.06920004500768" lon="29.838001273913914" id="-32591">
		<tag k="name" v="Myran" />
=======
	<node id="-846647" lat="70.1417694813" lon="29.3255932184">
		<tag k="name" v="Smørbakkmyra" />
>>>>>>> e1d4bc35ff8a6074a6f2e91616a996b547c36f15
		<tag k="natural" v="wetland" />
		<tag k="ssr:stedsnr" v="151294" />
	</node>
<<<<<<< HEAD
	<node lat="70.19626393847444" lon="30.247973289747478" id="-32597">
		<tag k="name" v="Niskanniitty" />
		<tag k="name:fkv" v="Niskanniitty" />
		<tag k="place" v="locality" />
		<tag k="ssr:stedsnr" v="151649" />
	</node>
	<node lat="70.10625005026881" lon="29.97283176305007" id="-32631">
		<tag k="name" v="Beldoslåtta" />
		<tag k="place" v="locality" />
		<tag k="ssr:stedsnr" v="273439" />
	</node>
	<node lat="70.19847227750174" lon="30.30457049023223" id="-32633">
		<tag k="name" v="Rapajänkkä" />
		<tag k="name:fkv" v="Rapajänkkä" />
=======
	<node id="-847146" lat="70.1466194962" lon="30.325975999">
		<tag k="name" v="Pikku Turvejänkkä" />
		<tag k="name:fkv" v="Pikku Turvejänkkä" />
>>>>>>> e1d4bc35ff8a6074a6f2e91616a996b547c36f15
		<tag k="natural" v="wetland" />
		<tag k="ssr:stedsnr" v="273703" />
	</node>
<<<<<<< HEAD
	<node lat="70.07099171987024" lon="30.11488997674303" id="-32637">
		<tag k="alt_name" v="Flågmyra" />
		<tag k="name" v="Flogmyra" />
=======
	<node id="-847145" lat="70.1013555948" lon="29.4269098183">
		<tag k="name" v="Paddebymyra" />
>>>>>>> e1d4bc35ff8a6074a6f2e91616a996b547c36f15
		<tag k="natural" v="wetland" />
		<tag k="ssr:stedsnr" v="273552" />
	</node>
<<<<<<< HEAD
	<node lat="70.17437504154282" lon="29.62218475063879" id="-32659">
		<tag k="name" v="Stormyra" />
=======
	<node id="-847144" lat="70.1539833726" lon="29.4808348279">
		<tag k="name" v="Varjejok" />
>>>>>>> e1d4bc35ff8a6074a6f2e91616a996b547c36f15
		<tag k="natural" v="wetland" />
		<tag k="ssr:stedsnr" v="323639" />
	</node>
<<<<<<< HEAD
	<node lat="70.08344449160718" lon="29.775290185416587" id="-32670">
		<tag k="name" v="Kuru-gryta" />
=======
	<node id="-847136" lat="70.0769639363" lon="29.9504512072">
		<tag k="name" v="Mellommyra" />
>>>>>>> e1d4bc35ff8a6074a6f2e91616a996b547c36f15
		<tag k="natural" v="wetland" />
		<tag k="ssr:stedsnr" v="333227" />
	</node>
<<<<<<< HEAD
	<node lat="70.14773337318114" lon="29.467332041204987" id="-32676">
		<tag k="name" v="Sumpen" />
=======
	<node id="-847135" lat="70.0755500478" lon="29.9376178689">
		<tag k="name" v="Midtmyra" />
>>>>>>> e1d4bc35ff8a6074a6f2e91616a996b547c36f15
		<tag k="natural" v="wetland" />
		<tag k="ssr:stedsnr" v="333983" />
	</node>
<<<<<<< HEAD
	<node lat="70.19475283159136" lon="30.238653872680256" id="-32684">
		<tag k="name" v="Johinniitty" />
		<tag k="name:fkv" v="Johinniitty" />
=======
	<node id="-847134" lat="70.1100889361" lon="29.9246901152">
		<tag k="name" v="Bekolaslåtta" />
>>>>>>> e1d4bc35ff8a6074a6f2e91616a996b547c36f15
		<tag k="place" v="locality" />
		<tag k="ssr:stedsnr" v="334628" />
	</node>
<<<<<<< HEAD
	<node lat="70.1369583717424" lon="29.27058768188975" id="-32691">
		<tag k="alt_name" v="Solvarmyra" />
		<tag k="name" v="Holmfjellmyra" />
		<tag k="natural" v="wetland" />
		<tag k="ssr:stedsnr" v="383634" />
	</node>
	<node lat="70.20039171737682" lon="30.328926034186534" id="-32692">
		<tag k="name" v="Bakmyra" />
=======
	<node id="-847133" lat="70.1088944933" lon="29.9181678993">
		<tag k="name" v="Hansenslåtta" />
		<tag k="place" v="locality" />
		<tag k="ssr:stedsnr" v="576289" />
	</node>
	<node id="-846616" lat="70.0853722735" lon="29.9808484117">
		<tag k="name" v="Eevanjänkä" />
		<tag k="name:fkv" v="Eevanjänkä" />
>>>>>>> e1d4bc35ff8a6074a6f2e91616a996b547c36f15
		<tag k="natural" v="wetland" />
		<tag k="ssr:stedsnr" v="383588" />
	</node>
<<<<<<< HEAD
	<node lat="70.12670004128815" lon="29.24614881998106" id="-32695">
		<tag k="alt_name" v="Kortemyrene" />
		<tag k="name" v="Kortemyran" />
		<tag k="natural" v="wetland" />
		<tag k="ssr:stedsnr" v="383644" />
	</node>
	<node lat="70.06686116168491" lon="29.961590067627455" id="-32718">
=======
	<node id="-847127" lat="70.0981222643" lon="29.6210319452">
		<tag k="name" v="Bergelvmyra" />
		<tag k="natural" v="wetland" />
		<tag k="ssr:stedsnr" v="576011" />
	</node>
	<node id="-847124" lat="70.131625039" lon="29.3199432329">
>>>>>>> e1d4bc35ff8a6074a6f2e91616a996b547c36f15
		<tag k="name" v="Skolemyra" />
		<tag k="natural" v="wetland" />
		<tag k="ssr:stedsnr" v="394449" />
	</node>
<<<<<<< HEAD
	<node lat="70.15986670580476" lon="29.449651494554313" id="-32725">
		<tag k="name" v="Osvaldmyra - Kurujänkkä" />
		<tag k="name:fkv" v="Kurujänkkä" />
		<tag k="name:no" v="Osvaldmyra" />
=======
	<node id="-847122" lat="70.1732389284" lon="29.2131127392">
		<tag k="name" v="Lavdnjelutta" />
		<tag k="name:se" v="Lavdnjelutta" />
>>>>>>> e1d4bc35ff8a6074a6f2e91616a996b547c36f15
		<tag k="natural" v="wetland" />
		<tag k="old_name:fkv" v="Gurrujänkkä" />
		<tag k="ssr:stedsnr" v="394957" />
	</node>
<<<<<<< HEAD
	<node lat="70.14667503482084" lon="29.359279329552784" id="-32729">
		<tag k="name" v="Oksemyra" />
		<tag k="natural" v="wetland" />
		<tag k="ssr:stedsnr" v="444637" />
	</node>
	<node lat="70.1108111502541" lon="29.32388765870949" id="-32751">
=======
	<node id="-846609" lat="70.1108111503" lon="29.3238876587">
>>>>>>> e1d4bc35ff8a6074a6f2e91616a996b547c36f15
		<tag k="name" v="Øra" />
		<tag k="natural" v="scree" />
		<tag k="ssr:stedsnr" v="515058" />
	</node>
<<<<<<< HEAD
	<node lat="70.14176948131683" lon="29.32559321842305" id="-32752">
		<tag k="name" v="Smørbakkmyra" />
=======
	<node id="-847117" lat="70.1945000503" lon="30.3222788155">
		<tag k="alt_name:no" v="Lommemyra" />
		<tag k="name" v="Lomemyra - Kaakkurijänkkä" />
		<tag k="name:fkv" v="Kaakkurijänkkä" />
		<tag k="name:no" v="Lomemyra" />
>>>>>>> e1d4bc35ff8a6074a6f2e91616a996b547c36f15
		<tag k="natural" v="wetland" />
		<tag k="ssr:stedsnr" v="515125" />
	</node>
<<<<<<< HEAD
	<node lat="70.06298615699168" lon="29.878026241519077" id="-32755">
		<tag k="name" v="Vargemyra" />
		<tag k="natural" v="wetland" />
		<tag k="ssr:stedsnr" v="516300" />
	</node>
	<node lat="70.08537227351246" lon="29.980848411669026" id="-32757">
		<tag k="name" v="Eevanjänkä" />
		<tag k="name:fkv" v="Eevanjänkä" />
		<tag k="natural" v="wetland" />
		<tag k="old_name:fkv" v="Eevanjänkkä" />
		<tag k="ssr:stedsnr" v="516387" />
	</node>
	<node lat="70.10402225884667" lon="29.392918173495914" id="-32768">
=======
	<node id="-847107" lat="70.1040222588" lon="29.3929181735">
>>>>>>> e1d4bc35ff8a6074a6f2e91616a996b547c36f15
		<tag k="alt_name:no" v="Karielmyra" />
		<tag k="name" v="Kargilmyra - Gárjiljeakkit" />
		<tag k="name:no" v="Kargilmyra" />
		<tag k="name:se" v="Gárjiljeakkit" />
		<tag k="natural" v="wetland" />
		<tag k="ssr:stedsnr" v="564660" />
	</node>
<<<<<<< HEAD
	<node lat="70.19450005033075" lon="30.32227881549595" id="-32780">
		<tag k="alt_name:no" v="Lommemyra" />
		<tag k="name" v="Lomemyra - Kaakkurijänkkä" />
		<tag k="name:fkv" v="Kaakkurijänkkä" />
		<tag k="name:no" v="Lomemyra" />
=======
	<node id="-846592" lat="70.184419498" lon="30.2668566061">
		<tag k="name" v="Helmerslåtta" />
		<tag k="place" v="locality" />
		<tag k="ssr:stedsnr" v="394631" />
	</node>
	<node id="-847101" lat="70.1598667058" lon="29.4496514946">
		<tag k="name" v="Osvaldmyra - Kurujänkkä" />
		<tag k="name:fkv" v="Kurujänkkä" />
		<tag k="name:no" v="Osvaldmyra" />
>>>>>>> e1d4bc35ff8a6074a6f2e91616a996b547c36f15
		<tag k="natural" v="wetland" />
		<tag k="ssr:stedsnr" v="566555" />
	</node>
<<<<<<< HEAD
	<node lat="70.13162503902227" lon="29.319943232913044" id="-32789">
=======
	<node id="-847096" lat="70.0668611617" lon="29.9615900676">
>>>>>>> e1d4bc35ff8a6074a6f2e91616a996b547c36f15
		<tag k="name" v="Skolemyra" />
		<tag k="natural" v="wetland" />
		<tag k="ssr:stedsnr" v="576082" />
	</node>
<<<<<<< HEAD
	<node lat="70.10889449333725" lon="29.91816789927787" id="-32790">
		<tag k="name" v="Hansenslåtta" />
		<tag k="place" v="locality" />
		<tag k="ssr:stedsnr" v="576289" />
	</node>
	<node lat="70.07555004777224" lon="29.937617868893934" id="-32798">
		<tag k="name" v="Midtmyra" />
=======
	<node id="-846571" lat="70.1947528316" lon="30.2386538727">
		<tag k="name" v="Johinniitty" />
		<tag k="name:fkv" v="Johinniitty" />
		<tag k="place" v="locality" />
		<tag k="ssr:stedsnr" v="334628" />
	</node>
	<node id="-846566" lat="70.0834444916" lon="29.7752901854">
		<tag k="name" v="Kuru-gryta" />
		<tag k="natural" v="wetland" />
		<tag k="ssr:stedsnr" v="333227" />
	</node>
	<node id="-846564" lat="70.1984722775" lon="30.3045704902">
		<tag k="name" v="Rapajänkkä" />
		<tag k="name:fkv" v="Rapajänkkä" />
>>>>>>> e1d4bc35ff8a6074a6f2e91616a996b547c36f15
		<tag k="natural" v="wetland" />
		<tag k="ssr:stedsnr" v="576437" />
	</node>
<<<<<<< HEAD
	<node lat="70.07696393630513" lon="29.950451207242015" id="-32799">
		<tag k="name" v="Mellommyra" />
=======
	<node id="-846561" lat="70.0709917199" lon="30.1148899767">
		<tag k="name" v="Flågmyra" />
>>>>>>> e1d4bc35ff8a6074a6f2e91616a996b547c36f15
		<tag k="natural" v="wetland" />
		<tag k="ssr:stedsnr" v="576438" />
	</node>
<<<<<<< HEAD
	<node lat="70.10569171553841" lon="30.10194002195326" id="-32800">
		<tag k="name" v="Konrad-si-myr" />
=======
	<node id="-846554" lat="70.1101528327" lon="30.17603997">
		<tag k="name" v="Kaakkurijänkkä" />
		<tag k="name:fkv" v="Kaakkurijänkkä" />
>>>>>>> e1d4bc35ff8a6074a6f2e91616a996b547c36f15
		<tag k="natural" v="wetland" />
		<tag k="ssr:stedsnr" v="576519" />
	</node>
<<<<<<< HEAD
	<node lat="70.14661949619712" lon="30.325975998995137" id="-32803">
		<tag k="name" v="Pikku Turvejänkkä" />
		<tag k="name:fkv" v="Pikku Turvejänkkä" />
=======
	<node id="-847065" lat="70.1267000413" lon="29.24614882">
		<tag k="alt_name" v="Kortemyrene" />
		<tag k="name" v="Kortemyran" />
>>>>>>> e1d4bc35ff8a6074a6f2e91616a996b547c36f15
		<tag k="natural" v="wetland" />
		<tag k="ssr:stedsnr" v="576723" />
	</node>
<<<<<<< HEAD
	<node lat="70.1539833725975" lon="29.48083482785126" id="-32806">
		<tag k="name" v="Varjejok" />
=======
	<node id="-847063" lat="70.1369583717" lon="29.2705876819">
		<tag k="alt_name" v="Solvarmyra" />
		<tag k="name" v="Holmfjellmyra" />
>>>>>>> e1d4bc35ff8a6074a6f2e91616a996b547c36f15
		<tag k="natural" v="wetland" />
		<tag k="ssr:stedsnr" v="576985" />
	</node>
<<<<<<< HEAD
	<node lat="70.10135559475967" lon="29.426909818273987" id="-32807">
		<tag k="name" v="Paddebymyra" />
		<tag k="natural" v="wetland" />
		<tag k="ssr:stedsnr" v="576989" />
	</node>
	<node lat="70.17738615115523" lon="29.246584932347925" id="-32817">
		<tag k="name" v="Djupholmyra - Syvähautanjänkkä" />
		<tag k="name:fkv" v="Syvähautanjänkkä" />
		<tag k="name:no" v="Djupholmyra" />
		<tag k="natural" v="wetland" />
		<tag k="ssr:stedsnr" v="636048" />
	</node>
	<node lat="70.1935722757972" lon="30.238414978925206" id="-32834">
		<tag k="name" v="Perinniitty" />
		<tag k="name:fkv" v="Perinniitty" />
		<tag k="place" v="locality" />
		<tag k="ssr:stedsnr" v="637664" />
	</node>
	<node lat="70.20400282778766" lon="30.23396220931259" id="-32861">
		<tag k="name" v="Pekkonniitty" />
		<tag k="name:fkv" v="Pekkonniitty" />
=======
	<node id="-847062" lat="70.2003917174" lon="30.3289260342">
		<tag k="name" v="Bakmyra" />
		<tag k="natural" v="wetland" />
		<tag k="ssr:stedsnr" v="383588" />
	</node>
	<node id="-846535" lat="70.0827250499" lon="29.9829956216">
		<tag k="name" v="Monstaskogen" />
		<tag k="place" v="locality" />
		<tag k="ssr:stedsnr" v="455376" />
	</node>
	<node id="-846527" lat="70.1718472609" lon="29.2574015868">
		<tag k="name" v="Lasse-Petter-slåtta - Petterinniitty" />
		<tag k="name:fkv" v="Petterinniitty" />
		<tag k="name:no" v="Lasse-Petter-slåtta" />
		<tag k="place" v="locality" />
		<tag k="ssr:stedsnr" v="455040" />
	</node>
	<node id="-847031" lat="70.1743750415" lon="29.6221847506">
		<tag k="name" v="Stormyra" />
		<tag k="natural" v="wetland" />
		<tag k="ssr:stedsnr" v="323639" />
	</node>
	<node id="-846517" lat="70.1466750348" lon="29.3592793296">
		<tag k="name" v="Oksemyra" />
		<tag k="natural" v="wetland" />
		<tag k="ssr:stedsnr" v="444637" />
	</node>
	<node id="-847047" lat="70.1477333732" lon="29.4673320412">
		<tag k="name" v="Sumpen" />
		<tag k="natural" v="wetland" />
		<tag k="ssr:stedsnr" v="333983" />
	</node>
	<node id="-846487" lat="70.1062500503" lon="29.9728317631">
		<tag k="name" v="Beldoslåtta" />
>>>>>>> e1d4bc35ff8a6074a6f2e91616a996b547c36f15
		<tag k="place" v="locality" />
		<tag k="ssr:stedsnr" v="758691" />
	</node>
<<<<<<< HEAD
	<node lat="70.10509449740204" lon="29.94891788133118" id="-32890">
		<tag k="name" v="Mentyjærvislåtta" />
=======
	<node id="-846481" lat="70.1683222643" lon="29.2851071331">
		<tag k="name" v="Gjelhaugslåtta" />
>>>>>>> e1d4bc35ff8a6074a6f2e91616a996b547c36f15
		<tag k="place" v="locality" />
		<tag k="ssr:stedsnr" v="819324" />
	</node>
<<<<<<< HEAD
	<node lat="70.06781949316877" lon="29.898795674948534" id="-32892">
		<tag k="name" v="Sjåbuselvmyra" />
=======
	<node id="-846615" lat="70.062986157" lon="29.8780262415">
		<tag k="name" v="Vargemyra" />
		<tag k="natural" v="wetland" />
		<tag k="ssr:stedsnr" v="516300" />
	</node>
	<node id="-846970" lat="70.0792167192" lon="29.9892845274">
		<tag k="name" v="Nikulainjänkkä" />
		<tag k="name:fkv" v="Nikulainjänkkä" />
>>>>>>> e1d4bc35ff8a6074a6f2e91616a996b547c36f15
		<tag k="natural" v="wetland" />
		<tag k="ssr:stedsnr" v="819439" />
	</node>
<<<<<<< HEAD
	<node lat="70.07511393738177" lon="29.960873416604628" id="-32894">
		<tag k="name" v="Torvmyra - Takajänkkä" />
		<tag k="name:fkv" v="Takajänkkä" />
		<tag k="name:no" v="Torvmyra" />
=======
	<node id="-846457" lat="70.3435250321" lon="29.4453793353">
		<tag k="name" v="Ovsttarjeaggi" />
		<tag k="name:se" v="Ovsttarjeaggi" />
>>>>>>> e1d4bc35ff8a6074a6f2e91616a996b547c36f15
		<tag k="natural" v="wetland" />
		<tag k="ssr:stedsnr" v="819456" />
	</node>
<<<<<<< HEAD
	<node lat="70.07461394269595" lon="29.97901508353518" id="-32895">
		<tag k="name" v="Løfgreninjänkkä" />
		<tag k="name:fkv" v="Løfgreninjänkkä" />
		<tag k="natural" v="wetland" />
		<tag k="ssr:stedsnr" v="819631" />
	</node>
	<node lat="70.10913616069443" lon="29.970503982909474" id="-32932">
		<tag k="name" v="Davidsenslåtta" />
=======
	<node id="-846962" lat="70.1125444973" lon="29.9221345708">
		<tag k="name" v="Løfgrenslåtta" />
		<tag k="place" v="locality" />
		<tag k="ssr:stedsnr" v="151315" />
	</node>
	<node id="-846961" lat="70.1152056057" lon="29.9724567548">
		<tag k="name" v="Helistøslåtta" />
>>>>>>> e1d4bc35ff8a6074a6f2e91616a996b547c36f15
		<tag k="place" v="locality" />
		<tag k="ssr:stedsnr" v="880285" />
	</node>
<<<<<<< HEAD
	<node lat="70.07520838818301" lon="30.123892776299147" id="-32935">
		<tag k="name" v="Stormyra" />
=======
	<node id="-846958" lat="70.069200045" lon="29.8380012739">
		<tag k="name" v="Myran" />
>>>>>>> e1d4bc35ff8a6074a6f2e91616a996b547c36f15
		<tag k="natural" v="wetland" />
		<tag k="ssr:stedsnr" v="880568" />
	</node>
<<<<<<< HEAD
	<node lat="70.12131394617694" lon="30.255395473422343" id="-32949">
		<tag k="name" v="Kjerringa og mannen" />
		<tag k="natural" v="stone" />
		<tag k="ssr:stedsnr" v="941706" />
	</node>
	<node lat="70.10202783119674" lon="30.089003921893127" id="-32959">
		<tag k="name" v="Kaldbekkmyra" />
=======
	<node id="-846955" lat="70.0918861548" lon="29.8429207243">
		<tag k="name" v="Eevanjänkä" />
		<tag k="name:fkv" v="Eevanjänkä" />
		<tag k="natural" v="wetland" />
		<tag k="old_name:fkv" v="Evajänkkä" />
		<tag k="ssr:stedsnr" v="151249" />
	</node>
	<node id="-846953" lat="70.0899528248" lon="29.8238262933">
		<tag k="name" v="Torsvardmyra" />
>>>>>>> e1d4bc35ff8a6074a6f2e91616a996b547c36f15
		<tag k="natural" v="wetland" />
		<tag k="ssr:stedsnr" v="941506" />
	</node>
<<<<<<< HEAD
	<node lat="70.12003233561173" lon="29.304690324690682" id="-32967">
		<tag k="name" v="Mettäperä" />
		<tag k="name:fkv" v="Mettäperä" />
		<tag k="place" v="locality" />
		<tag k="ssr:stedsnr" v="979477" />
	</node>
	<node lat="70.20122060819799" lon="30.340145928204088" id="-32976">
		<tag k="name" v="Neitijänkkä" />
		<tag k="name:fkv" v="Neitijänkkä" />
=======
	<node id="-846950" lat="70.1962639385" lon="30.2479732897">
		<tag k="name" v="Niskanniitty" />
		<tag k="name:fkv" v="Niskanniitty" />
		<tag k="place" v="locality" />
		<tag k="ssr:stedsnr" v="151649" />
	</node>
	<node id="-846947" lat="70.0946972685" lon="29.5577069831">
		<tag k="name" v="Krumpestein" />
		<tag k="natural" v="stone" />
		<tag k="ssr:stedsnr" v="151017" />
	</node>
	<node id="-846930" lat="70.1790083718" lon="29.2214321688">
		<tag k="name" v="Karlsmyra - Kallenjänkkä" />
		<tag k="name:fkv" v="Kallenjänkkä" />
		<tag k="name:no" v="Karlsmyra" />
>>>>>>> e1d4bc35ff8a6074a6f2e91616a996b547c36f15
		<tag k="natural" v="wetland" />
		<tag k="ssr:stedsnr" v="979572" />
	</node>
	<node id="-846924" lat="70.2037500548" lon="30.2525177521">
		<tag k="name" v="Villenniitty" />
		<tag k="name:fkv" v="Villenniitty" />
		<tag k="place" v="locality" />
		<tag k="ssr:stedsnr" v="91687" />
	</node>
	<node id="-846923" lat="70.200291726" lon="30.3779898786">
		<tag k="name" v="Juntinkenttä" />
		<tag k="name:fkv" v="Juntinkenttä" />
		<tag k="place" v="locality" />
		<tag k="ssr:stedsnr" v="91668" />
	</node>
	<node id="-846774" lat="70.1129750413" lon="29.3587793203">
		<tag k="name" v="Sudimyra - Čuđđejeaggi - Lauriniemenjänkkä" />
		<tag k="name:fkv" v="Lauriniemenjänkkä" />
		<tag k="name:no" v="Sudimyra" />
		<tag k="name:se" v="Čuđđejeaggi" />
		<tag k="natural" v="wetland" />
		<tag k="old_name:se" v="Čuđđejæggi" />
		<tag k="ssr:stedsnr" v="929652" />
	</node>
	<node id="-846901" lat="70.1063639355" lon="29.8903984777">
		<tag k="name" v="Kibymyra" />
		<tag k="natural" v="wetland" />
		<tag k="ssr:stedsnr" v="81629" />
	</node>
	<node id="-846887" lat="70.0816139387" lon="29.9531650858">
		<tag k="name" v="Stormyra - Maanlaita" />
		<tag k="name:fkv" v="Maanlaita" />
		<tag k="name:no" v="Stormyra" />
		<tag k="natural" v="wetland" />
		<tag k="ssr:stedsnr" v="80540" />
	</node>
	<node id="-846881" lat="70.0753861626" lon="30.0010233997">
		<tag k="name" v="Ruijanjängät" />
		<tag k="name:fkv" v="Ruijanjängät" />
		<tag k="natural" v="wetland" />
		<tag k="old_name:fkv" v="Rujanjängät" />
		<tag k="ssr:stedsnr" v="30605" />
	</node>
	<node id="-846875" lat="70.0857444952" lon="29.9671817472">
		<tag k="name" v="Kaakkurijänkkä" />
		<tag k="name:fkv" v="Kaakkurijänkkä" />
		<tag k="natural" v="wetland" />
		<tag k="ssr:stedsnr" v="30465" />
	</node>
	<node id="-846874" lat="70.0709833861" lon="29.9189706536">
		<tag k="name" v="Turvejänkkä" />
		<tag k="name:fkv" v="Turvejänkkä" />
		<tag k="natural" v="wetland" />
		<tag k="ssr:stedsnr" v="30423" />
	</node>
	<node id="-846870" lat="70.110972273" lon="29.9364151228">
		<tag k="name" v="Hildonenslåtta" />
		<tag k="place" v="locality" />
		<tag k="ssr:stedsnr" v="30319" />
	</node>
	<node id="-846861" lat="70.1500583854" lon="30.3350648915">
		<tag k="name" v="Pärintakustajänkkä" />
		<tag k="name:fkv" v="Pärintakustajänkkä" />
		<tag k="natural" v="wetland" />
		<tag k="old_name:fkv" v="Pärintäkustaajänkkä" />
		<tag k="ssr:stedsnr" v="30699" />
	</node>
	<node id="-846857" lat="70.1627944784" lon="29.2935849079">
		<tag k="name" v="Andergå" />
		<tag k="natural" v="wetland" />
		<tag k="ssr:stedsnr" v="30014" />
	</node>
</osm>
