<?xml version="1.0" encoding="UTF-8"?>
<osm version="0.6" generator="osmapis">
	<node lat="70.09415004440629" lon="29.771267981262792" id="-94495">
		<tag k="highway" v="path" />
		<tag k="name" v="Vintervegen" />
		<tag k="ssr:stedsnr" v="30213" />
	</node>
	<node lat="70.19690561083695" lon="30.32126768602794" id="-94504">
		<tag k="fixme" v="consider highway=path" />
		<tag k="highway" v="track" />
		<tag k="name" v="Maanlaita-vegen" />
		<tag k="ssr:stedsnr" v="30671" />
	</node>
	<node lat="70.0891306036625" lon="29.93385121299388" id="-94551">
		<tag k="fixme" v="verify maritime location" />
		<tag k="mooring" v="yes" />
		<tag k="name" v="Båtstø" />
		<tag k="place" v="locality" />
		<tag k="ssr:stedsnr" v="151466" />
	</node>
	<node lat="70.10548061011197" lon="30.150967756575298" id="-94579">
		<tag k="highway" v="path" />
		<tag k="name" v="Siribakkvegen" />
		<tag k="ssr:stedsnr" v="212509" />
	</node>
	<node lat="70.06420052875" lon="29.838877524164356" id="-94655">
		<tag k="aeroway" v="aerodrome" />
		<tag k="alt_name:no" v="Vadsø" />
		<tag k="name" v="Vadsø lufthavn - Čáhcesullo girdihámman - Vesisaaren lentohamina" />
		<tag k="name:fkv" v="Vesisaaren lentohamina" />
		<tag k="name:no" v="Vadsø lufthavn" />
		<tag k="name:se" v="Čáhcesullo girdihámman" />
		<tag k="ssr:stedsnr" v="383548" />
	</node>
	<node lat="70.17252503494262" lon="29.258584918066546" id="-94666">
		<tag k="ford" v="yes" />
		<tag k="name" v="Vadested" />
		<tag k="place" v="locality" />
		<tag k="ssr:stedsnr" v="394036" />
	</node>
	<node lat="70.07254449577287" lon="30.009323387002055" id="-94678">
		<tag k="fixme" v="consider highway=path" />
		<tag k="highway" v="track" />
		<tag k="name" v="Grusvegen" />
		<tag k="ssr:stedsnr" v="394583" />
	</node>
	<node lat="70.0730389385988" lon="30.033159491002746" id="-94706">
		<tag k="leisure" v="marina" />
		<tag k="name" v="Båtstø" />
		<tag k="ssr:stedsnr" v="455572" />
	</node>
	<node lat="70.13398892654688" lon="29.302873784359644" id="-94717">
		<tag k="fixme" v="consider highway=path" />
		<tag k="highway" v="track" />
		<tag k="name" v="Solvarvegen" />
		<tag k="ssr:stedsnr" v="515113" />
	</node>
	<node lat="70.07865004497673" lon="29.719270776507972" id="-94764">
		<tag k="junction" v="yes" />
		<tag k="name" v="Deinbolls plass" />
		<tag k="place" v="locality" />
		<tag k="ssr:stedsnr" v="576047" />
	</node>
	<node lat="70.13496948006045" lon="29.328365434696096" id="-94777">
		<tag k="fixme" v="consider highway=path" />
		<tag k="highway" v="track" />
		<tag k="name" v="Jordbruksveg" />
		<tag k="ssr:stedsnr" v="697098" />
	</node>
	<node lat="70.20322783394573" lon="30.355928781913875" id="-94797">
		<tag k="alt_name" v="Ulkoranta-vegen" />
		<tag k="fixme" v="consider highway=path" />
		<tag k="highway" v="track" />
		<tag k="name" v="Tavijoki-vegen" />
		<tag k="ssr:stedsnr" v="698648" />
	</node>
	<node lat="70.09476115613799" lon="29.621373605056725" id="-94807">
		<tag k="fixme" v="consider highway=path" />
		<tag k="highway" v="track" />
		<tag k="name" v="Elvedalsvegen" />
		<tag k="ssr:stedsnr" v="636009" />
	</node>
	<node lat="70.09238615950538" lon="29.53406254218347" id="-94812">
		<tag k="fixme" v="verify maritime location" />
		<tag k="mooring" v="yes" />
		<tag k="name" v="Båtstø" />
		<tag k="place" v="locality" />
		<tag k="ssr:stedsnr" v="636115" />
	</node>
	<node lat="70.07499172052819" lon="30.02436505897696" id="-94814">
		<tag k="highway" v="path" />
		<tag k="name" v="Sisäpääntie" />
		<tag k="name:fkv" v="Sisäpääntie" />
		<tag k="ssr:stedsnr" v="636405" />
	</node>
	<node lat="70.08551116145709" lon="30.01957893713218" id="-94834">
		<tag k="highway" v="path" />
		<tag k="name" v="Myllärintie" />
		<tag k="name:fkv" v="Myllärintie" />
		<tag k="ssr:stedsnr" v="698371" />
	</node>
	<node lat="70.11683616611106" lon="30.159051097897493" id="-94864">
		<tag k="highway" v="path" />
		<tag k="name" v="Storskogvegen" />
		<tag k="ssr:stedsnr" v="758758" />
	</node>
	<node lat="70.09776393967259" lon="29.751676327679284" id="-94874">
		<tag k="highway" v="path" />
		<tag k="name" v="Sommervegen" />
		<tag k="ssr:stedsnr" v="819224" />
	</node>
	<node lat="70.0714889361242" lon="29.937303978026563" id="-94916">
		<tag k="alt_name" v="Høivikvegen" />
		<tag k="highway" v="path" />
		<tag k="name" v="Høyvikveien" />
		<tag k="ssr:stedsnr" v="880415" />
	</node>
	<node lat="70.13881392728368" lon="29.33758488954246" id="-94936">
		<tag k="highway" v="path" />
		<tag k="name" v="Oksemyrvegen" />
		<tag k="ssr:stedsnr" v="940085" />
	</node>
	<node lat="70.07066671269595" lon="29.73730132037406" id="-94969">
		<tag k="man_made" v="quay" />
		<tag k="name" v="Dampskips kai" />
		<tag k="place" v="locality" />
		<tag k="ssr:stedsnr" v="30329" />
	</node>
	<node lat="70.0699306111467" lon="29.97131785782576" id="-95009">
		<tag k="fixme" v="consider highway=path" />
		<tag k="highway" v="track" />
		<tag k="name" v="Torvmarkvegen" />
		<tag k="ssr:stedsnr" v="91463" />
	</node>
	<node lat="70.09161948808706" lon="29.643334700139054" id="-95026">
		<tag k="fixme" v="consider highway=path" />
		<tag k="highway" v="track" />
		<tag k="name" v="Tyskvegen" />
		<tag k="ssr:stedsnr" v="151001" />
	</node>
	<node lat="70.06624449322447" lon="29.970578971375318" id="-95097">
		<tag k="leisure" v="marina" />
		<tag k="name" v="Småbåthamn" />
		<tag k="ssr:stedsnr" v="273631" />
	</node>
	<node lat="70.10738059491426" lon="29.401473716124418" id="-95130">
		<tag k="fixme" v="consider highway=path" />
		<tag k="highway" v="track" />
		<tag k="name" v="Traktorveg" />
		<tag k="ssr:stedsnr" v="333029" />
	</node>
	<node lat="70.19151116550435" lon="30.322676020984925" id="-95148">
		<tag k="highway" v="path" />
		<tag k="name" v="Berrelvvegen" />
		<tag k="ssr:stedsnr" v="334630" />
	</node>
	<node lat="70.07034449751293" lon="30.095976104690543" id="-95186">
		<tag k="landuse" v="harbour" />
		<tag k="name" v="Hamna" />
		<tag k="seamark:type" v="harbour" />
		<tag k="ssr:stedsnr" v="394556" />
	</node>
	<node lat="70.08898616013609" lon="30.06435947196519" id="-95189">
		<tag k="highway" v="path" />
		<tag k="name" v="Keitavegen" />
		<tag k="ssr:stedsnr" v="394571" />
	</node>
	<node lat="70.07463615467503" lon="29.741823550546357" id="-95227">
		<tag k="man_made" v="quay" />
		<tag k="name" v="Fiskerikai" />
		<tag k="place" v="locality" />
		<tag k="ssr:stedsnr" v="516194" />
	</node>
	<node lat="70.07563338742841" lon="30.03409281754095" id="-95230">
		<tag k="fixme" v="consider highway=path" />
		<tag k="highway" v="track" />
		<tag k="name" v="Talvitie" />
		<tag k="name:fkv" v="Talvitie" />
		<tag k="ssr:stedsnr" v="516399" />
	</node>
	<node lat="70.09689171455828" lon="29.735465227072588" id="-95257">
		<tag k="highway" v="path" />
		<tag k="name" v="Svanevassvegen" />
		<tag k="ssr:stedsnr" v="576040" />
	</node>
	<node lat="70.18613616063922" lon="30.334012135671568" id="-95262">
		<tag k="landuse" v="harbour" />
		<tag k="name" v="Hamn" />
		<tag k="seamark:type" v="harbour" />
		<tag k="ssr:stedsnr" v="576636" />
	</node>
	<node lat="70.11755838877738" lon="30.184217751610866" id="-95279">
		<tag k="highway" v="path" />
		<tag k="name" v="Falkelvvegen" />
		<tag k="ssr:stedsnr" v="576528" />
	</node>
	<node lat="70.07262781995136" lon="29.719295783414466" id="-95304">
		<tag k="landuse" v="harbour" />
		<tag k="name" v="Molokroken" />
		<tag k="seamark:type" v="harbour" />
		<tag k="ssr:stedsnr" v="636173" />
	</node>
	<node lat="70.10971392964153" lon="29.327426543285338" id="-95333">
		<tag k="leisure" v="marina" />
		<tag k="name" v="Hamna" />
		<tag k="ssr:stedsnr" v="758074" />
	</node>
	<node lat="70.07308615906948" lon="29.779326305919398" id="-95335">
		<tag k="leisure" v="marina" />
		<tag k="name" v="Småbåthamn" />
		<tag k="ssr:stedsnr" v="758223" />
	</node>
	<node lat="70.07149726541597" lon="29.746804099718826" id="-95339">
		<tag k="man_made" v="quay" />
		<tag k="name" v="Fiskerikai" />
		<tag k="place" v="locality" />
		<tag k="ssr:stedsnr" v="758375" />
	</node>
	<node lat="70.07728893569652" lon="29.716651348068" id="-95374">
		<tag k="leisure" v="marina" />
		<tag k="name" v="Småbåthamn" />
		<tag k="ssr:stedsnr" v="819179" />
	</node>
	<node lat="70.18486948230243" lon="29.263665492557287" id="-95417">
		<tag k="highway" v="path" />
		<tag k="name" v="Multebærveien - Hillatie" />
		<tag k="name:fkv" v="Hillatie" />
		<tag k="name:no" v="Multebærveien" />
		<tag k="ssr:stedsnr" v="880039" />
	</node>
	<node lat="70.07773060536132" lon="29.993965065330066" id="-95451">
		<tag k="alt_name" v="Kretturvegen" />
		<tag k="highway" v="path" />
		<tag k="name" v="Fjellvegen" />
		<tag k="ssr:stedsnr" v="941395" />
	</node>
	<node lat="70.06936949433603" lon="30.00483727576513" id="-95461">
		<tag k="fixme" v="verify maritime location" />
		<tag k="mooring" v="yes" />
		<tag k="name" v="Båtstø" />
		<tag k="place" v="locality" />
		<tag k="ssr:stedsnr" v="941586" />
	</node>
</osm>
