<?xml version="1.0" encoding="UTF-8"?>
<<<<<<< HEAD
<osm version="0.6" generator="osmapis">
	<node lat="70.08694863762217" lon="29.77605225847909" id="-32151">
		<tag k="name" v="Solbakken" />
		<tag k="place" v="farm" />
		<tag k="ssr:stedsnr" v="91222" />
	</node>
	<node lat="70.08281949462052" lon="29.733173545138367" id="-32179">
		<tag k="name" v="Prestelvtorget" />
		<tag k="place" v="quarter" />
		<tag k="ssr:stedsnr" v="151256" />
	</node>
	<node lat="70.07865559771389" lon="29.74353744152072" id="-32180">
		<tag k="leisure" v="pitch" />
		<tag k="name" v="Sentralidrettsanlegg" />
		<tag k="ssr:stedsnr" v="151261" />
	</node>
	<node lat="70.10528617091636" lon="30.194978837693977" id="-32189">
		<tag k="fixme" v="consider place=hamlet" />
		<tag k="name" v="Krampenes - Kramppinen" />
		<tag k="name:fkv" v="Kramppinen" />
		<tag k="name:no" v="Krampenes" />
		<tag k="place" v="village" />
		<tag k="ssr:stedsnr" v="263556" />
	</node>
	<node lat="70.09076948747003" lon="29.596548639501382" id="-32190">
		<tag k="name" v="Andersby" />
		<tag k="place" v="hamlet" />
		<tag k="ssr:stedsnr" v="263615" />
	</node>
	<node lat="70.07698060090655" lon="29.756265201617037" id="-32203">
		<tag k="amenity" v="kindergarten" />
		<tag k="name" v="Tomlebo barnehage" />
		<tag k="ssr:stedsnr" v="212177" />
	</node>
	<node lat="70.1176417055548" lon="29.27260434009726" id="-32241">
		<tag k="name" v="Ytre Klubben" />
		<tag k="old_name" v="Klubben, yt" />
		<tag k="place" v="hamlet" />
		<tag k="ssr:stedsnr" v="262645" />
	</node>
	<node lat="70.09906528549774" lon="29.487302571186863" id="-32243">
		<tag k="name" v="Fugleberg" />
		<tag k="place" v="farm" />
		<tag k="ssr:stedsnr" v="263612" />
	</node>
	<node lat="70.08810004507058" lon="29.738809654276597" id="-32249">
		<tag k="leisure" v="pitch" />
		<tag k="name" v="Vadsø skistadion" />
		<tag k="ssr:stedsnr" v="273206" />
	</node>
	<node lat="70.07363615644287" lon="29.774531865382222" id="-32257">
		<tag k="name" v="Ytrebyen" />
		<tag k="place" v="suburb" />
		<tag k="ssr:stedsnr" v="275485" />
	</node>
	<node lat="70.06666671569518" lon="29.961109533294987" id="-32258">
		<tag k="name" v="Salttjern" />
		<tag k="place" v="hamlet" />
		<tag k="ssr:stedsnr" v="303320" />
	</node>
	<node lat="70.08726393123793" lon="29.672709683637116" id="-32261">
		<tag k="name" v="Tomaselva" />
		<tag k="place" v="isolated_dwelling" />
		<tag k="ssr:stedsnr" v="323609" />
	</node>
	<node lat="70.07545282421354" lon="29.756298536737276" id="-32265">
		<tag k="amenity" v="school" />
		<tag k="name" v="Vadsø Barne- og Ungdomsskole" />
		<tag k="ssr:stedsnr" v="334162" />
	</node>
	<node lat="70.10722226685213" lon="29.64959305826278" id="-32283">
		<tag k="name" v="Tesnitten" />
		<tag k="place" v="isolated_dwelling" />
		<tag k="ssr:stedsnr" v="394032" />
	</node>
	<node lat="70.08043059959932" lon="29.726773564098174" id="-32286">
		<tag k="name" v="St. Hanshaugen" />
		<tag k="place" v="quarter" />
		<tag k="ssr:stedsnr" v="394214" />
	</node>
	<node lat="70.08014726847846" lon="29.747579088011026" id="-32287">
		<tag k="name" v="Campingplass" />
		<tag k="ssr:stedsnr" v="394217" />
		<tag k="tourism" v="camp_site" />
	</node>
	<node lat="70.06961583601436" lon="30.00211744652188" id="-32300">
		<tag k="alt_name" v="Salttjern, l" />
		<tag k="name" v="Lille Salttjern" />
		<tag k="place" v="farm" />
		<tag k="ssr:stedsnr" v="445491" />
	</node>
	<node lat="70.07748337873821" lon="29.769492961382593" id="-32308">
		<tag k="amenity" v="prison" />
		<tag k="name" v="Vadsø fengsel" />
		<tag k="old_name" v="Vadsø kretsfengsel" />
		<tag k="ssr:stedsnr" v="455341" />
	</node>
	<node lat="70.20707783750082" lon="30.45774539043609" id="-32348">
		<tag k="barrier" v="fence" />
		<tag k="name" v="Steingjerde - Kiviaita" />
		<tag k="name:fkv" v="Kiviaita" />
		<tag k="name:no" v="Steingjerde" />
		<tag k="old_name:fkv" v="Giviaida" />
		<tag k="ssr:stedsnr" v="687572" />
	</node>
	<node lat="70.18922505291762" lon="30.33423433854924" id="-32358">
		<tag k="fixme" v="consider place=hamlet" />
		<tag k="name" v="Skallelv - Gállojohka - Kallijoki" />
		<tag k="name:fkv" v="Kallijoki" />
		<tag k="name:no" v="Skallelv" />
		<tag k="name:se" v="Gállojohka" />
		<tag k="place" v="village" />
		<tag k="ssr:stedsnr" v="566559" />
	</node>
	<node lat="70.1340000382555" lon="29.30825712701461" id="-32375">
		<tag k="name" v="Feriehjem" />
=======
<osm generator="osmapis" version="0.6">
	<node id="-846837" lat="70.1856167791" lon="30.3418998">
		<tag k="loc_name:fkv" v="Niemi" />
		<tag k="name" v="Neset" />
		<tag k="name:no" v="Neset" />
		<tag k="place" v="hamlet" />
		<tag k="ssr:stedsnr" v="979570" />
	</node>
	<node id="-846833" lat="70.1441787308" lon="30.3525432169">
		<tag k="loc_name:fkv" v="Keila" />
		<tag k="loc_name:se" v="Lassa-vuolle" />
		<tag k="name" v="Falkekjeilen" />
		<tag k="name:no" v="Falkekjeilen" />
		<tag k="place" v="farm" />
		<tag k="ssr:stedsnr" v="979565" />
	</node>
	<node id="-846832" lat="70.078288178" lon="30.094118489">
		<tag k="loc_name:fkv" v="Kalvanto" />
		<tag k="name" v="Valen" />
		<tag k="name:no" v="Valen" />
		<tag k="place" v="hamlet" />
		<tag k="ssr:stedsnr" v="979563" />
	</node>
	<node id="-846829" lat="70.0897639375" lon="29.6412236087">
		<tag k="name" v="Laksebubukta" />
		<tag k="place" v="hamlet" />
		<tag k="ssr:stedsnr" v="940008" />
	</node>
	<node id="-847340" lat="69.6807751959" lon="19.0868014399">
		<tag k="fixme" v="consider place=hamlet" />
		<tag k="name" v="Krokelv" />
		<tag k="place" v="farm" />
		<tag k="ssr:stedsnr" v="1076826" />
	</node>
	<node id="-847339" lat="69.6548386171" lon="18.9540555979">
		<tag k="amenity" v="school" />
		<tag k="name" v="Ishavsbyen videregående skole" />
		<tag k="ssr:stedsnr" v="1075695" />
	</node>
	<node id="-846825" lat="70.1114889316" lon="29.3329765349">
		<tag k="name" v="Vestre Jakobselv - Ánnejohka - Annijoki" />
		<tag k="name:fkv" v="Annijoki" />
		<tag k="name:no" v="Vestre Jakobselv" />
		<tag k="name:se" v="Ánnejohka" />
		<tag k="place" v="village" />
		<tag k="ssr:stedsnr" v="929611" />
	</node>
	<node id="-847335" lat="70.0870076761" lon="29.6679449658">
		<tag k="loc_name:se" v="Vuor'jam-jokka;Vuorjánjohka" />
		<tag k="name" v="Tomaselv - Turvejoki" />
		<tag k="name:fkv" v="Turvejoki" />
		<tag k="name:no" v="Tomaselv" />
		<tag k="place" v="hamlet" />
		<tag k="ssr:stedsnr" v="1071926" />
	</node>
	<node id="-846822" lat="70.0758417133" lon="29.7310540989">
		<tag k="name" v="Indrebyen" />
		<tag k="place" v="suburb" />
		<tag k="ssr:stedsnr" v="942504" />
	</node>
	<node id="-846802" lat="70.1053250393" lon="29.339107103">
		<tag k="name" v="Finnes" />
		<tag k="place" v="farm" />
		<tag k="ssr:stedsnr" v="940082" />
	</node>
	<node id="-846801" lat="70.0865055996" lon="29.7127680181">
		<tag k="name" v="Fjellheim" />
		<tag k="place" v="quarter" />
		<tag k="ssr:stedsnr" v="940061" />
	</node>
	<node id="-846800" lat="70.0851194888" lon="29.7076652432">
		<tag k="amenity" v="kindergarten" />
		<tag k="name" v="Glimmerstua barnehage" />
		<tag k="ssr:stedsnr" v="940058" />
	</node>
	<node id="-847301" lat="70.1059036403" lon="29.3380150209">
		<tag k="name" v="Lauriniemi" />
		<tag k="name:fkv" v="Lauriniemi" />
		<tag k="place" v="hamlet" />
		<tag k="ssr:stedsnr" v="979482" />
	</node>
	<node id="-847297" lat="70.0938055987" lon="29.5364319909">
		<tag k="name" v="Makkenes" />
		<tag k="place" v="isolated_dwelling" />
		<tag k="ssr:stedsnr" v="874700" />
	</node>
	<node id="-847282" lat="70.0733306035" lon="30.0317122711">
		<tag k="fixme" v="consider place=hamlet" />
		<tag k="name" v="Golnes" />
		<tag k="place" v="village" />
		<tag k="ssr:stedsnr" v="870482" />
	</node>
	<node id="-847279" lat="70.0835972674" lon="29.7578013092">
		<tag k="name" v="Fossgård" />
		<tag k="place" v="farm" />
		<tag k="ssr:stedsnr" v="869567" />
	</node>
	<node id="-846764" lat="70.083469488" lon="29.6830735663">
		<tag k="name" v="Stykket" />
>>>>>>> e1d4bc35ff8a6074a6f2e91616a996b547c36f15
		<tag k="place" v="isolated_dwelling" />
		<tag k="ssr:stedsnr" v="697094" />
	</node>
<<<<<<< HEAD
	<node lat="70.08481116271467" lon="29.73101243817128" id="-32381">
		<tag k="name" v="Prestelv nord" />
		<tag k="place" v="quarter" />
		<tag k="ssr:stedsnr" v="698194" />
	</node>
	<node lat="70.06994448737795" lon="29.733995763859248" id="-32386">
		<tag k="building" v="commercial" />
		<tag k="name" v="Industriutleiebygget" />
		<tag k="ssr:stedsnr" v="698296" />
	</node>
	<node lat="70.07040282735748" lon="30.001328936481848" id="-32389">
		<tag k="name" v="Lille Salttjern - Pikkujärvi" />
		<tag k="name:fkv" v="Pikkujärvi" />
		<tag k="name:no" v="Lille Salttjern" />
		<tag k="place" v="hamlet" />
		<tag k="ssr:stedsnr" v="698576" />
	</node>
	<node lat="70.08419171227266" lon="29.749481872915958" id="-32404">
		<tag k="leisure" v="park" />
		<tag k="name" v="Parken" />
		<tag k="ssr:stedsnr" v="636227" />
	</node>
	<node lat="70.11125283121822" lon="30.15809277245575" id="-32423">
		<tag k="name" v="Fossen" />
		<tag k="place" v="isolated_dwelling" />
		<tag k="ssr:stedsnr" v="698721" />
	</node>
	<node lat="70.08346948804525" lon="29.683073566318612" id="-32426">
		<tag k="name" v="Stykket" />
		<tag k="place" v="isolated_dwelling" />
		<tag k="ssr:stedsnr" v="716982" />
	</node>
	<node lat="70.06248894007437" lon="29.856673479908732" id="-32432">
		<tag k="fixme" v="consider place=suburb, village or hamlet" />
		<tag k="name" v="Kiby" />
		<tag k="place" v="quarter" />
		<tag k="ssr:stedsnr" v="748524" />
	</node>
	<node lat="70.09770559726334" lon="29.667395804096948" id="-32439">
		<tag k="name" v="Rødekorshytta" />
		<tag k="place" v="isolated_dwelling" />
		<tag k="ssr:stedsnr" v="758004" />
	</node>
	<node lat="70.11705003671439" lon="29.2955765736699" id="-32453">
		<tag k="alt_name:no" v="Skitenelva;Skitnelv" />
		<tag k="name" v="Skittenelv - Baikajohka" />
		<tag k="name:no" v="Skittenelv" />
		<tag k="name:se" v="Baikajohka" />
=======
	<node id="-846762" lat="70.1112528312" lon="30.1580927725">
		<tag k="name" v="Fossen" />
		<tag k="place" v="isolated_dwelling" />
		<tag k="ssr:stedsnr" v="698721" />
	</node>
	<node id="-847272" lat="70.1074861479" lon="29.3610487596">
		<tag k="alt_name" v="Halsen, in" />
		<tag k="name" v="Indre Halsen" />
		<tag k="place" v="farm" />
		<tag k="ssr:stedsnr" v="868630" />
	</node>
	<node id="-847258" lat="70.0606056087" lon="29.8775901261">
		<tag k="name" v="Samuelby" />
		<tag k="place" v="locality" />
		<tag k="ssr:stedsnr" v="819320" />
	</node>
	<node id="-847256" lat="70.0714694952" lon="29.7189124413">
		<tag k="building" v="industrial" />
		<tag k="industrial" v="factory" />
		<tag k="name" v="Sildoljefabrikk" />
		<tag k="ssr:stedsnr" v="819181" />
	</node>
	<node id="-847245" lat="70.0995083733" lon="29.4367431497">
		<tag k="fixme" v="consider place=hamlet" />
		<tag k="name" v="Paddeby" />
		<tag k="place" v="village" />
		<tag k="ssr:stedsnr" v="809635" />
	</node>
	<node id="-847236" lat="70.1007389268" lon="29.3801820764">
		<tag k="alt_name:no" v="Kargil" />
		<tag k="name" v="Kariel - Gárjil - Karieli" />
		<tag k="name:fkv" v="Karieli" />
		<tag k="name:no" v="Kariel" />
		<tag k="name:se" v="Gárjil" />
>>>>>>> e1d4bc35ff8a6074a6f2e91616a996b547c36f15
		<tag k="place" v="hamlet" />
		<tag k="ssr:stedsnr" v="808638" />
	</node>
<<<<<<< HEAD
	<node lat="70.07595004964104" lon="29.747417997056015" id="-32481">
		<tag k="building" v="commercial" />
		<tag k="name" v="Statens hus" />
		<tag k="ssr:stedsnr" v="880141" />
	</node>
	<node lat="70.11148893156822" lon="29.332976534932698" id="-32492">
		<tag k="name" v="Vestre Jakobselv - Ánnejohka - Annijoki" />
		<tag k="name:fkv" v="Annijoki" />
		<tag k="name:no" v="Vestre Jakobselv" />
		<tag k="name:se" v="Ánnejohka" />
		<tag k="place" v="village" />
		<tag k="ssr:stedsnr" v="929611" />
	</node>
	<node lat="70.10532503929522" lon="29.339107102962107" id="-32504">
		<tag k="name" v="Finnes" />
		<tag k="place" v="farm" />
		<tag k="ssr:stedsnr" v="940082" />
	</node>
	<node lat="70.07898338211734" lon="29.736923559150128" id="-32526">
		<tag k="amenity" v="school" />
		<tag k="name" v="Vadsø videregående skole" />
		<tag k="ssr:stedsnr" v="30255" />
	</node>
	<node lat="70.06198894166607" lon="29.856295697532417" id="-32529">
		<tag k="fixme" v="consider place=hamlet" />
		<tag k="name" v="Været" />
		<tag k="place" v="village" />
		<tag k="ssr:stedsnr" v="30312" />
	</node>
	<node lat="70.06963338064381" lon="30.00303450415909" id="-32539">
		<tag k="name" v="Været" />
		<tag k="place" v="hamlet" />
		<tag k="ssr:stedsnr" v="30588" />
	</node>
	<node lat="70.08030560531951" lon="29.73093745015903" id="-32543">
		<tag k="name" v="Vadsø - Čáhcesuolu - Vesisaari" />
		<tag k="name:fkv" v="Vesisaari" />
		<tag k="name:no" v="Vadsø" />
		<tag k="name:se" v="Čáhcesuolu" />
		<tag k="place" v="town" />
		<tag k="ssr:stedsnr" v="80524" />
	</node>
	<node lat="70.07406672503303" lon="30.102784435469353" id="-32554">
		<tag k="alt_name:no" v="Ekkerøy" />
		<tag k="fixme" v="consider place=hamlet" />
		<tag k="name" v="Ekkerøya - Ekrea" />
		<tag k="name:fkv" v="Ekrea" />
		<tag k="name:no" v="Ekkerøya" />
		<tag k="place" v="village" />
		<tag k="ssr:stedsnr" v="81496" />
	</node>
	<node lat="70.12350559503405" lon="29.333618203380517" id="-32559">
		<tag k="amenity" v="nursing_home" />
		<tag k="name" v="Barnehjem" />
		<tag k="ssr:stedsnr" v="91093" />
	</node>
	<node lat="70.0675917124399" lon="29.748154082556027" id="-32564">
		<tag k="name" v="Lailas Gjestehus" />
		<tag k="ssr:stedsnr" v="91351" />
		<tag k="tourism" v="hotel" />
	</node>
	<node lat="70.08586949199183" lon="29.807920729333336" id="-32565">
		<tag k="amenity" v="sports_centre" />
		<tag k="name" v="Skytterhus" />
		<tag k="ssr:stedsnr" v="91244" />
	</node>
	<node lat="70.07921966914405" lon="30.09148330216643" id="-32576">
		<tag k="name" v="Valen" />
		<tag k="place" v="farm" />
		<tag k="ssr:stedsnr" v="141550" />
	</node>
	<node lat="70.07414449491196" lon="29.7486540924228" id="-32590">
		<tag k="amenity" v="townhall" />
		<tag k="name" v="Vadsø Rådhus" />
		<tag k="ssr:stedsnr" v="151198" />
	</node>
	<node lat="70.06844171510723" lon="29.7301152186152" id="-32592">
		<tag k="building" v="industrial" />
		<tag k="name" v="Forbrenningsovn" />
		<tag k="ssr:stedsnr" v="151330" />
	</node>
	<node lat="70.07686115798275" lon="29.76095963727051" id="-32593">
		<tag k="name" v="Stjerneplassen" />
		<tag k="place" v="neighbourhood" />
		<tag k="ssr:stedsnr" v="151346" />
	</node>
	<node lat="70.07623616094288" lon="29.759667982831942" id="-32594">
		<tag k="leisure" v="pitch" />
		<tag k="name" v="Idrettsplass" />
		<tag k="ssr:stedsnr" v="151347" />
	</node>
	<node lat="70.08486115286904" lon="29.715098564916882" id="-32612">
		<tag k="name" v="Prestelv vest" />
		<tag k="place" v="quarter" />
		<tag k="ssr:stedsnr" v="273066" />
	</node>
	<node lat="70.07773615714486" lon="29.738679090236165" id="-32613">
		<tag k="name" v="Karl Rasmussens plass" />
		<tag k="place" v="square" />
		<tag k="ssr:stedsnr" v="273148" />
	</node>
	<node lat="70.15475561526887" lon="30.34676765745009" id="-32615">
		<tag k="loc_name" v="Nyhamn" />
		<tag k="name" v="Nyhavn" />
		<tag k="place" v="farm" />
		<tag k="ssr:stedsnr" v="209422" />
	</node>
	<node lat="70.0660472746194" lon="29.945109528024638" id="-32648">
		<tag k="alt_name" v="Høivik" />
		<tag k="name" v="Høyvik" />
		<tag k="place" v="hamlet" />
		<tag k="ssr:stedsnr" v="323525" />
	</node>
	<node lat="70.12001392998951" lon="29.233668266134732" id="-32661">
		<tag k="alt_name" v="Indre Klubben" />
		<tag k="name" v="Klubben" />
		<tag k="old_name" v="Klubben, in" />
		<tag k="place" v="hamlet" />
		<tag k="ssr:stedsnr" v="323653" />
	</node>
	<node lat="70.07751115995653" lon="29.745570759725275" id="-32671">
		<tag k="amenity" v="kindergarten" />
		<tag k="name" v="Maurtua barnehage" />
		<tag k="ssr:stedsnr" v="333142" />
	</node>
	<node lat="70.08323337869386" lon="29.735929101007716" id="-32674">
		<tag k="amenity" v="nursing_home" />
		<tag k="name" v="Vadsø helse- og sosialsenter" />
		<tag k="ssr:stedsnr" v="333279" />
	</node>
	<node lat="70.082100043709" lon="29.723776334515122" id="-32675">
		<tag k="amenity" v="kindergarten" />
		<tag k="name" v="Stubben barnehage" />
		<tag k="ssr:stedsnr" v="333288" />
	</node>
	<node lat="70.12692782846787" lon="30.15507332604939" id="-32683">
		<tag k="barrier" v="fence" />
		<tag k="name" v="Reingjerde" />
		<tag k="ssr:stedsnr" v="334492" />
	</node>
	<node lat="70.15573084009333" lon="30.352197572766727" id="-32703">
		<tag k="name" v="Nyhavn" />
		<tag k="place" v="farm" />
		<tag k="ssr:stedsnr" v="384535" />
	</node>
	<node lat="70.08154727007013" lon="29.70646246911237" id="-32708">
		<tag k="amenity" v="school" />
		<tag k="name" v="Torsvarden skole" />
		<tag k="ssr:stedsnr" v="394041" />
	</node>
	<node lat="70.07453337732481" lon="29.749651312188757" id="-32713">
=======
	<node id="-846723" lat="70.0759500496" lon="29.7474179971">
		<tag k="building" v="commercial" />
		<tag k="name" v="Statens hus" />
		<tag k="ssr:stedsnr" v="880141" />
	</node>
	<node id="-847234" lat="70.1170500367" lon="29.2955765737">
		<tag k="alt_name:no" v="Skitenelva;Skitnelv" />
		<tag k="name" v="Skittenelv - Baikajohka" />
		<tag k="name:no" v="Skittenelv" />
		<tag k="name:se" v="Baikajohka" />
		<tag k="place" v="hamlet" />
		<tag k="ssr:stedsnr" v="808638" />
	</node>
	<node id="-847227" lat="70.0988222677" lon="29.4852986958">
		<tag k="name" v="Fugleberg" />
		<tag k="place" v="hamlet" />
		<tag k="ssr:stedsnr" v="758986" />
	</node>
	<node id="-846700" lat="70.1145833715" lon="29.3171293317">
		<tag k="name" v="Vestsida" />
		<tag k="place" v="hamlet" />
		<tag k="ssr:stedsnr" v="576065" />
	</node>
	<node id="-847209" lat="70.1100805985" lon="29.6482180517">
		<tag k="name" v="Gingengammen" />
		<tag k="place" v="isolated_dwelling" />
		<tag k="ssr:stedsnr" v="758034" />
	</node>
	<node id="-847207" lat="70.0977055973" lon="29.6673958041">
		<tag k="name" v="Rødekorshytta" />
		<tag k="place" v="isolated_dwelling" />
		<tag k="ssr:stedsnr" v="758004" />
	</node>
	<node id="-846686" lat="70.0704028274" lon="30.0013289365">
		<tag k="name" v="Lille Salttjern - Pikkujärvi" />
		<tag k="name:fkv" v="Pikkujärvi" />
		<tag k="name:no" v="Lille Salttjern" />
		<tag k="place" v="hamlet" />
		<tag k="ssr:stedsnr" v="698576" />
	</node>
	<node id="-847196" lat="70.0624889401" lon="29.8566734799">
		<tag k="fixme" v="consider place=suburb, village or hamlet" />
		<tag k="name" v="Kiby" />
		<tag k="place" v="quarter" />
		<tag k="ssr:stedsnr" v="748524" />
	</node>
	<node id="-846682" lat="70.0848111627" lon="29.7310124382">
		<tag k="name" v="Prestelv nord" />
		<tag k="place" v="quarter" />
		<tag k="ssr:stedsnr" v="698194" />
	</node>
	<node id="-846677" lat="70.1340000383" lon="29.308257127">
		<tag k="name" v="Feriehjem" />
		<tag k="place" v="isolated_dwelling" />
		<tag k="ssr:stedsnr" v="697094" />
	</node>
	<node id="-846668" lat="70.2070778375" lon="30.4577453904">
		<tag k="barrier" v="fence" />
		<tag k="name" v="Steingjerde - Kiviaita" />
		<tag k="name:fkv" v="Kiviaita" />
		<tag k="name:no" v="Steingjerde" />
		<tag k="old_name:fkv" v="Giviaida" />
		<tag k="ssr:stedsnr" v="687572" />
	</node>
	<node id="-847175" lat="70.076327822" lon="29.793101295">
		<tag k="amenity" v="school" />
		<tag k="name" v="Melkevarden skole" />
		<tag k="ssr:stedsnr" v="637374" />
	</node>
	<node id="-847166" lat="70.0841917123" lon="29.7494818729">
		<tag k="leisure" v="park" />
		<tag k="name" v="Parken" />
		<tag k="ssr:stedsnr" v="636227" />
	</node>
	<node id="-847150" lat="70.0982000363" lon="29.3954653977">
		<tag k="alt_name" v="Halsen, yt" />
		<tag k="name" v="Ytre Halsen" />
		<tag k="place" v="isolated_dwelling" />
		<tag k="ssr:stedsnr" v="625681" />
	</node>
	<node id="-846636" lat="70.0774833787" lon="29.7694929614">
		<tag k="amenity" v="prison" />
		<tag k="name" v="Vadsø fengsel" />
		<tag k="old_name" v="Vadsø kretsfengsel" />
		<tag k="ssr:stedsnr" v="455341" />
	</node>
	<node id="-846620" lat="70.0761056043" lon="30.103812226">
		<tag k="name" v="Været" />
		<tag k="place" v="hamlet" />
		<tag k="ssr:stedsnr" v="516547" />
	</node>
	<node id="-847125" lat="70.0777583838" lon="29.7494207691">
		<tag k="building" v="commercial" />
		<tag k="name" v="Norsk Rikskringkasting" />
		<tag k="ssr:stedsnr" v="576131" />
	</node>
	<node id="-847118" lat="70.1892250529" lon="30.3342343385">
		<tag k="fixme" v="consider place=hamlet" />
		<tag k="name" v="Skallelv - Gállojohka - Kallijoki" />
		<tag k="name:fkv" v="Kallijoki" />
		<tag k="name:no" v="Skallelv" />
		<tag k="name:se" v="Gállojohka" />
		<tag k="place" v="village" />
		<tag k="ssr:stedsnr" v="566559" />
	</node>
	<node id="-846586" lat="70.0801472685" lon="29.747579088">
		<tag k="name" v="Campingplass" />
		<tag k="ssr:stedsnr" v="394217" />
		<tag k="tourism" v="camp_site" />
	</node>
	<node id="-846585" lat="70.0804305996" lon="29.7267735641">
		<tag k="name" v="St. Hanshaugen" />
		<tag k="place" v="quarter" />
		<tag k="ssr:stedsnr" v="394214" />
	</node>
	<node id="-846584" lat="70.0745333773" lon="29.7496513122">
>>>>>>> e1d4bc35ff8a6074a6f2e91616a996b547c36f15
		<tag k="name" v="Rica Hotel Vadsø" />
		<tag k="ssr:stedsnr" v="394172" />
		<tag k="tourism" v="hotel" />
	</node>
<<<<<<< HEAD
	<node lat="70.07268595730152" lon="30.02602641100068" id="-32723">
=======
	<node id="-847091" lat="70.0726859573" lon="30.026026411">
>>>>>>> e1d4bc35ff8a6074a6f2e91616a996b547c36f15
		<tag k="fixme" v="consider place=hamlet" />
		<tag k="name" v="Sisäpää" />
		<tag k="name:fkv" v="Sisäpää" />
		<tag k="place" v="village" />
		<tag k="ssr:stedsnr" v="394578" />
	</node>
<<<<<<< HEAD
	<node lat="70.07610560429235" lon="30.103812226015414" id="-32760">
		<tag k="name" v="Været" />
		<tag k="place" v="hamlet" />
		<tag k="ssr:stedsnr" v="516547" />
	</node>
	<node lat="70.06738060579391" lon="29.970912283511716" id="-32769">
		<tag k="alt_name:no" v="Salttjern, store;Salttjern" />
		<tag k="name" v="Store Salttjern - Sáltejávri - Salttijärvi" />
		<tag k="name:fkv" v="Salttijärvi" />
		<tag k="name:no" v="Store Salttjern" />
		<tag k="name:se" v="Sáltejávri" />
=======
	<node id="-847085" lat="70.0815472701" lon="29.7064624691">
		<tag k="amenity" v="school" />
		<tag k="name" v="Torsvarden skole" />
		<tag k="ssr:stedsnr" v="394041" />
	</node>
	<node id="-847083" lat="70.1072222669" lon="29.6495930583">
		<tag k="name" v="Tesnitten" />
		<tag k="place" v="isolated_dwelling" />
		<tag k="ssr:stedsnr" v="394032" />
	</node>
	<node id="-847073" lat="70.1557308401" lon="30.3521975728">
		<tag k="name" v="Nyhavn" />
		<tag k="place" v="farm" />
		<tag k="ssr:stedsnr" v="384535" />
	</node>
	<node id="-846557" lat="70.0848611529" lon="29.7150985649">
		<tag k="name" v="Prestelv vest" />
		<tag k="place" v="quarter" />
		<tag k="ssr:stedsnr" v="273066" />
	</node>
	<node id="-847054" lat="70.1269278285" lon="30.155073326">
		<tag k="barrier" v="fence" />
		<tag k="name" v="Reingjerde" />
		<tag k="ssr:stedsnr" v="334492" />
	</node>
	<node id="-847048" lat="70.0754528242" lon="29.7562985367">
		<tag k="amenity" v="school" />
		<tag k="name" v="Vadsø Barne- og Ungdomsskole" />
		<tag k="ssr:stedsnr" v="334162" />
	</node>
	<node id="-847043" lat="70.0821000437" lon="29.7237763345">
		<tag k="amenity" v="kindergarten" />
		<tag k="name" v="Stubben barnehage" />
		<tag k="ssr:stedsnr" v="333288" />
	</node>
	<node id="-847042" lat="70.0832333787" lon="29.735929101">
		<tag k="amenity" v="nursing_home" />
		<tag k="name" v="Vadsø helse- og sosialsenter" />
		<tag k="ssr:stedsnr" v="333279" />
	</node>
	<node id="-847040" lat="70.07751116" lon="29.7455707597">
		<tag k="amenity" v="kindergarten" />
		<tag k="name" v="Maurtua barnehage" />
		<tag k="ssr:stedsnr" v="333142" />
	</node>
	<node id="-847033" lat="70.12001393" lon="29.2336682661">
		<tag k="alt_name" v="Indre Klubben" />
		<tag k="name" v="Klubben" />
		<tag k="old_name" v="Klubben, in" />
>>>>>>> e1d4bc35ff8a6074a6f2e91616a996b547c36f15
		<tag k="place" v="hamlet" />
		<tag k="ssr:stedsnr" v="323653" />
	</node>
<<<<<<< HEAD
	<node lat="70.11458337147425" lon="29.317129331705143" id="-32784">
		<tag k="name" v="Vestsida" />
		<tag k="place" v="hamlet" />
		<tag k="ssr:stedsnr" v="576065" />
	</node>
	<node lat="70.07775838375342" lon="29.74942076911769" id="-32791">
		<tag k="building" v="commercial" />
		<tag k="name" v="Norsk Rikskringkasting" />
		<tag k="ssr:stedsnr" v="576131" />
	</node>
	<node lat="70.0982000362884" lon="29.39546539770168" id="-32808">
		<tag k="alt_name" v="Halsen, yt" />
		<tag k="name" v="Ytre Halsen" />
		<tag k="place" v="isolated_dwelling" />
		<tag k="ssr:stedsnr" v="625681" />
	</node>
	<node lat="70.07632782203962" lon="29.793101295033278" id="-32828">
		<tag k="amenity" v="school" />
		<tag k="name" v="Melkevarden skole" />
		<tag k="ssr:stedsnr" v="637374" />
	</node>
	<node lat="70.11008059846684" lon="29.64821805174889" id="-32849">
		<tag k="name" v="Gingengammen" />
		<tag k="place" v="isolated_dwelling" />
		<tag k="ssr:stedsnr" v="758034" />
	</node>
	<node lat="70.09882226773821" lon="29.485298695771075" id="-32862">
		<tag k="name" v="Fugleberg" />
		<tag k="place" v="hamlet" />
		<tag k="ssr:stedsnr" v="758986" />
	</node>
	<node lat="70.10073892683945" lon="29.3801820763505" id="-32865">
		<tag k="alt_name:no" v="Kargil" />
		<tag k="name" v="Kariel - Gárjil - Karieli" />
		<tag k="name:fkv" v="Karieli" />
		<tag k="name:no" v="Kariel" />
		<tag k="name:se" v="Gárjil" />
		<tag k="place" v="hamlet" />
		<tag k="ssr:stedsnr" v="808671" />
	</node>
	<node lat="70.09950837327938" lon="29.43674314965657" id="-32875">
		<tag k="fixme" v="consider place=hamlet" />
		<tag k="name" v="Paddeby" />
		<tag k="place" v="village" />
		<tag k="ssr:stedsnr" v="809635" />
	</node>
	<node lat="70.0714694951627" lon="29.718912441307477" id="-32887">
		<tag k="building" v="industrial" />
		<tag k="industrial" v="factory" />
		<tag k="name" v="Sildoljefabrikk" />
		<tag k="ssr:stedsnr" v="819181" />
	</node>
	<node lat="70.06060560869867" lon="29.877590126125952" id="-32889">
		<tag k="name" v="Samuelby" />
		<tag k="place" v="locality" />
		<tag k="ssr:stedsnr" v="819320" />
	</node>
	<node lat="70.10748614785628" lon="29.361048759626343" id="-32899">
		<tag k="alt_name" v="Halsen, in" />
		<tag k="name" v="Indre Halsen" />
=======
	<node id="-846518" lat="70.0697750494" lon="30.0059233904">
		<tag k="alt_name" v="Salttjern, l" />
		<tag k="name" v="Lille Salttjern" />
		<tag k="place" v="isolated_dwelling" />
		<tag k="ssr:stedsnr" v="445491" />
	</node>
	<node id="-847023" lat="70.0872639312" lon="29.6727096836">
		<tag k="name" v="Tomaselva" />
		<tag k="place" v="isolated_dwelling" />
		<tag k="ssr:stedsnr" v="323609" />
	</node>
	<node id="-846508" lat="70.1547556153" lon="30.3467676575">
		<tag k="loc_name" v="Nyhamn" />
		<tag k="name" v="Nyhavn" />
		<tag k="place" v="farm" />
		<tag k="ssr:stedsnr" v="209422" />
	</node>
	<node id="-847018" lat="70.0660472746" lon="29.945109528">
		<tag k="alt_name" v="Høivik" />
		<tag k="name" v="Høyvik" />
		<tag k="place" v="hamlet" />
		<tag k="ssr:stedsnr" v="323525" />
	</node>
	<node id="-846504" lat="70.0736361564" lon="29.7745318654">
		<tag k="name" v="Ytrebyen" />
		<tag k="place" v="suburb" />
		<tag k="ssr:stedsnr" v="275485" />
	</node>
	<node id="-847014" lat="70.0666667157" lon="29.9611095333">
		<tag k="name" v="Salttjern" />
		<tag k="place" v="hamlet" />
		<tag k="ssr:stedsnr" v="303320" />
	</node>
	<node id="-846997" lat="70.0769806009" lon="29.7562652016">
		<tag k="amenity" v="kindergarten" />
		<tag k="name" v="Tomlebo barnehage" />
		<tag k="ssr:stedsnr" v="212177" />
	</node>
	<node id="-846483" lat="70.0881000451" lon="29.7388096543">
		<tag k="leisure" v="pitch" />
		<tag k="name" v="Vadsø skistadion" />
		<tag k="ssr:stedsnr" v="273206" />
	</node>
	<node id="-846482" lat="70.0777361571" lon="29.7386790902">
		<tag k="name" v="Karl Rasmussens plass" />
		<tag k="place" v="square" />
		<tag k="ssr:stedsnr" v="273148" />
	</node>
	<node id="-846472" lat="70.0907694875" lon="29.5965486395">
		<tag k="name" v="Andersby" />
		<tag k="place" v="hamlet" />
		<tag k="ssr:stedsnr" v="263615" />
	</node>
	<node id="-846471" lat="70.0990194891" lon="29.4870125697">
		<tag k="name" v="Fugleberg" />
		<tag k="place" v="isolated_dwelling" />
		<tag k="ssr:stedsnr" v="263612" />
	</node>
	<node id="-846469" lat="70.1052861709" lon="30.1949788377">
		<tag k="fixme" v="consider place=hamlet" />
		<tag k="name" v="Krampenes" />
		<tag k="place" v="village" />
		<tag k="ssr:stedsnr" v="263556" />
	</node>
	<node id="-846464" lat="70.1176417056" lon="29.2726043401">
		<tag k="name" v="Ytre Klubben" />
		<tag k="old_name" v="Klubben, yt" />
		<tag k="place" v="hamlet" />
		<tag k="ssr:stedsnr" v="262645" />
	</node>
	<node id="-846966" lat="70.0762361609" lon="29.7596679828">
		<tag k="leisure" v="pitch" />
		<tag k="name" v="Idrettsplass" />
		<tag k="ssr:stedsnr" v="151347" />
	</node>
	<node id="-846965" lat="70.076861158" lon="29.7609596373">
		<tag k="name" v="Stjerneplassen" />
		<tag k="place" v="neighbourhood" />
		<tag k="ssr:stedsnr" v="151346" />
	</node>
	<node id="-846964" lat="70.0684417151" lon="29.7301152186">
		<tag k="building" v="industrial" />
		<tag k="name" v="Forbrenningsovn" />
		<tag k="ssr:stedsnr" v="151330" />
	</node>
	<node id="-846957" lat="70.0786555977" lon="29.7435374415">
		<tag k="leisure" v="pitch" />
		<tag k="name" v="Sentralidrettsanlegg" />
		<tag k="ssr:stedsnr" v="151261" />
	</node>
	<node id="-846956" lat="70.0828194946" lon="29.7331735451">
		<tag k="name" v="Prestelvtorget" />
		<tag k="place" v="quarter" />
		<tag k="ssr:stedsnr" v="151256" />
	</node>
	<node id="-846695" lat="70.0673806058" lon="29.9709122835">
		<tag k="alt_name:no" v="Salttjern, store;Salttjern" />
		<tag k="name" v="Store Salttjern - Sáltejávri - Salttijärvi" />
		<tag k="name:fkv" v="Salttijärvi" />
		<tag k="name:no" v="Store Salttjern" />
		<tag k="name:se" v="Sáltejávri" />
		<tag k="place" v="hamlet" />
		<tag k="ssr:stedsnr" v="565518" />
	</node>
	<node id="-846952" lat="70.0741444949" lon="29.7486540924">
		<tag k="amenity" v="townhall" />
		<tag k="name" v="Vadsø Rådhus" />
		<tag k="ssr:stedsnr" v="151198" />
	</node>
	<node id="-846932" lat="70.0792196691" lon="30.0914833022">
		<tag k="name" v="Valen" />
>>>>>>> e1d4bc35ff8a6074a6f2e91616a996b547c36f15
		<tag k="place" v="farm" />
		<tag k="ssr:stedsnr" v="868630" />
	</node>
<<<<<<< HEAD
	<node lat="70.08359726735844" lon="29.757801309161874" id="-32907">
		<tag k="name" v="Fossgård" />
		<tag k="place" v="farm" />
		<tag k="ssr:stedsnr" v="869567" />
	</node>
	<node lat="70.07333060347692" lon="30.03171227114653" id="-32911">
		<tag k="fixme" v="consider place=hamlet" />
		<tag k="name" v="Golnes - Kullaselva" />
		<tag k="name:fkv" v="Kullaselva" />
		<tag k="name:no" v="Golnes" />
		<tag k="place" v="village" />
		<tag k="ssr:stedsnr" v="870482" />
	</node>
	<node lat="70.08976393745995" lon="29.641223608676352" id="-32944">
		<tag k="name" v="Laksebubukta" />
		<tag k="place" v="hamlet" />
		<tag k="ssr:stedsnr" v="940008" />
	</node>
	<node lat="70.08511948876176" lon="29.70766524317305" id="-32945">
		<tag k="amenity" v="kindergarten" />
		<tag k="name" v="Glimmerstua barnehage" />
		<tag k="ssr:stedsnr" v="940058" />
	</node>
	<node lat="70.08650559960428" lon="29.712768018136593" id="-32946">
		<tag k="name" v="Fjellheim" />
		<tag k="place" v="quarter" />
		<tag k="ssr:stedsnr" v="940061" />
	</node>
	<node lat="70.07584171334955" lon="29.731054098876655" id="-32963">
		<tag k="name" v="Indrebyen" />
		<tag k="place" v="suburb" />
		<tag k="ssr:stedsnr" v="942504" />
	</node>
	<node lat="70.10590364029532" lon="29.338015020878682" id="-32968">
		<tag k="name" v="Lauriniemi" />
		<tag k="name:fkv" v="Lauriniemi" />
		<tag k="place" v="hamlet" />
		<tag k="ssr:stedsnr" v="979482" />
	</node>
	<node lat="70.07828817799216" lon="30.094118488988958" id="-32970">
		<tag k="loc_name:fkv" v="Kalvanto" />
		<tag k="name" v="Valen" />
		<tag k="name:no" v="Valen" />
		<tag k="place" v="hamlet" />
		<tag k="ssr:stedsnr" v="979563" />
	</node>
	<node lat="70.14417873082749" lon="30.35254321689516" id="-32971">
		<tag k="loc_name:fkv" v="Keila" />
		<tag k="loc_name:se" v="Lassa-vuolle" />
		<tag k="name" v="Falkekjeilen" />
		<tag k="name:no" v="Falkekjeilen" />
		<tag k="place" v="farm" />
		<tag k="ssr:stedsnr" v="979565" />
	</node>
	<node lat="70.1856167790743" lon="30.341899800000547" id="-32975">
		<tag k="loc_name:fkv" v="Niemi" />
		<tag k="name" v="Neset" />
		<tag k="name:no" v="Neset" />
		<tag k="place" v="hamlet" />
		<tag k="ssr:stedsnr" v="979570" />
	</node>
	<node lat="70.08700767606868" lon="29.66794496575244" id="-33007">
		<tag k="loc_name:se" v="Vuor'jam-jokka;Vuorjánjohka" />
		<tag k="name" v="Tomaselv - Turvejoki" />
		<tag k="name:fkv" v="Turvejoki" />
		<tag k="name:no" v="Tomaselv" />
		<tag k="place" v="hamlet" />
		<tag k="ssr:stedsnr" v="1071926" />
	</node>
	<node lat="69.65483861708206" lon="18.954055597917613" id="-33011">
		<tag k="amenity" v="school" />
		<tag k="name" v="Ishavsbyen videregående skole" />
		<tag k="ssr:stedsnr" v="1075695" />
=======
	<node id="-846916" lat="70.0675917124" lon="29.7481540826">
		<tag k="name" v="Lailas Gjestehus" />
		<tag k="ssr:stedsnr" v="91351" />
		<tag k="tourism" v="hotel" />
	</node>
	<node id="-846913" lat="70.085869492" lon="29.8079207293">
		<tag k="amenity" v="sports_centre" />
		<tag k="name" v="Skytterhus" />
		<tag k="ssr:stedsnr" v="91244" />
	</node>
	<node id="-846912" lat="70.0869556031" lon="29.776312411">
		<tag k="name" v="Solbakken" />
		<tag k="place" v="isolated_dwelling" />
		<tag k="ssr:stedsnr" v="91222" />
	</node>
	<node id="-846909" lat="70.123505595" lon="29.3336182034">
		<tag k="amenity" v="nursing_home" />
		<tag k="name" v="Barnehjem" />
		<tag k="ssr:stedsnr" v="91093" />
	</node>
	<node id="-846895" lat="70.074066725" lon="30.1027844355">
		<tag k="fixme" v="consider place=hamlet" />
		<tag k="name" v="Ekkerøy" />
		<tag k="place" v="village" />
		<tag k="ssr:stedsnr" v="81496" />
	</node>
	<node id="-846684" lat="70.0699444874" lon="29.7339957639">
		<tag k="building" v="commercial" />
		<tag k="name" v="Industriutleiebygget" />
		<tag k="ssr:stedsnr" v="698296" />
	</node>
	<node id="-846885" lat="70.0803056053" lon="29.7309374502">
		<tag k="name" v="Vadsø - Čáhcesuolu - Vesisaari" />
		<tag k="name:fkv" v="Vesisaari" />
		<tag k="name:no" v="Vadsø" />
		<tag k="name:se" v="Čáhcesuolu" />
		<tag k="place" v="town" />
		<tag k="ssr:stedsnr" v="80524" />
	</node>
	<node id="-846880" lat="70.0696333806" lon="30.0030345042">
		<tag k="name" v="Været" />
		<tag k="place" v="hamlet" />
		<tag k="ssr:stedsnr" v="30588" />
	</node>
	<node id="-846867" lat="70.0619889417" lon="29.8562956975">
		<tag k="fixme" v="consider place=hamlet" />
		<tag k="name" v="Været" />
		<tag k="place" v="village" />
		<tag k="ssr:stedsnr" v="30312" />
	</node>
	<node id="-846864" lat="70.0789833821" lon="29.7369235592">
		<tag k="amenity" v="school" />
		<tag k="name" v="Vadsø videregående skole" />
		<tag k="ssr:stedsnr" v="30255" />
>>>>>>> e1d4bc35ff8a6074a6f2e91616a996b547c36f15
	</node>
</osm>
