<?xml version="1.0" encoding="UTF-8"?>
<osm version="0.6" generator="osmapis">
	<node lat="70.07081949328393" lon="30.05789002244983" id="-36878">
		<tag k="name" v="Varangerflua" />
		<tag k="natural" v="shoal" />
		<tag k="place" v="locality" />
		<tag k="ssr:stedsnr" v="25306" />
	</node>
	<node lat="70.11515559593057" lon="29.21035438351261" id="-36880">
		<tag k="name" v="Fálesgohppi" />
		<tag k="name:se" v="Fálesgohppi" />
		<tag k="natural" v="bay" />
		<tag k="ssr:stedsnr" v="26388" />
	</node>
	<node lat="70.07878616716883" lon="30.082809463101444" id="-36885">
		<tag k="name" v="Sollnesbukta" />
		<tag k="natural" v="bay" />
		<tag k="ssr:stedsnr" v="30568" />
	</node>
	<node lat="70.06934727622624" lon="30.15393163842506" id="-36886">
		<tag k="name" v="Kvalvika" />
		<tag k="natural" v="bay" />
		<tag k="ssr:stedsnr" v="30527" />
	</node>
	<node lat="70.07030838568829" lon="30.13762886323076" id="-36887">
		<tag k="name" v="Skipparvika" />
		<tag k="natural" v="bay" />
		<tag k="ssr:stedsnr" v="30545" />
	</node>
	<node lat="70.08976115136288" lon="29.605415289479797" id="-36899">
		<tag k="name" v="Andersbybukta" />
		<tag k="natural" v="bay" />
		<tag k="ssr:stedsnr" v="91009" />
	</node>
	<node lat="70.07109727410065" lon="29.77759852302672" id="-36919">
		<tag k="name" v="Austrehamna" />
		<tag k="natural" v="bay" />
		<tag k="ssr:stedsnr" v="147221" />
	</node>
	<node lat="70.0710889346418" lon="29.762245758651414" id="-36928">
		<tag k="name" v="Makkeleira" />
		<tag k="natural" v="bay" />
		<tag k="ssr:stedsnr" v="151365" />
	</node>
	<node lat="70.06953894035095" lon="29.780009633288273" id="-36929">
		<tag k="name" v="Yttersundet" />
		<tag k="natural" v="strait" />
		<tag k="ssr:stedsnr" v="151367" />
	</node>
	<node lat="70.20358894683376" lon="30.40187321074576" id="-36935">
		<tag k="name" v="Ulkoranta" />
		<tag k="name:fkv" v="Ulkoranta" />
		<tag k="natural" v="beach" />
		<tag k="old_name:fkv" v="Olgåranda" />
		<tag k="ssr:stedsnr" v="262573" />
	</node>
	<node lat="70.05746671393601" lon="29.810998490929766" id="-36952">
		<tag k="name" v="Salinengrunnen" />
		<tag k="natural" v="shoal" />
		<tag k="place" v="locality" />
		<tag k="ssr:stedsnr" v="207292" />
	</node>
	<node lat="70.08923060676095" lon="30.10121778852482" id="-36961">
		<tag k="name" v="Strandvassvalen" />
		<tag k="natural" v="beach" />
		<tag k="ssr:stedsnr" v="212575" />
	</node>
	<node lat="70.1750667239482" lon="30.33066489896181" id="-36963">
		<tag k="fixme" v="consider seamark:type=rock or natural=shoal" />
		<tag k="name" v="Skjæret" />
		<tag k="place" v="islet" />
		<tag k="ssr:stedsnr" v="212692" />
	</node>
	<node lat="70.16362505368018" lon="30.326967680960117" id="-36964">
		<tag k="name" v="Kallilahti" />
		<tag k="name:fkv" v="Kallilahti" />
		<tag k="natural" v="beach" />
		<tag k="ssr:stedsnr" v="212693" />
	</node>
	<node lat="70.06841116230481" lon="29.986070619866442" id="-36967">
		<tag k="name" v="Oterneset" />
		<tag k="natural" v="cape" />
		<tag k="ssr:stedsnr" v="451240" />
	</node>
	<node lat="70.1159583667952" lon="29.221001600030675" id="-36973">
		<tag k="name" v="Maŋŋegeahče" />
		<tag k="name:se" v="Maŋŋegeahče" />
		<tag k="natural" v="beach" />
		<tag k="ssr:stedsnr" v="455095" />
	</node>
	<node lat="70.06171671124207" lon="29.82603738772941" id="-36978">
		<tag k="name" v="Grunnesbukta" />
		<tag k="natural" v="bay" />
		<tag k="ssr:stedsnr" v="455247" />
	</node>
	<node lat="70.06890838635152" lon="29.99540396069207" id="-36981">
		<tag k="name" v="Storsjødammen" />
		<tag k="natural" v="bay" />
		<tag k="ssr:stedsnr" v="455584" />
	</node>
	<node lat="70.19854449583488" lon="30.3663148973993" id="-36984">
		<tag k="name" v="Tavijoenmukka" />
		<tag k="name:fkv" v="Tavijoenmukka" />
		<tag k="natural" v="bay" />
		<tag k="ssr:stedsnr" v="455628" />
	</node>
	<node lat="70.10393338747642" lon="30.174956648259368" id="-36989">
		<tag k="name" v="Bukta" />
		<tag k="natural" v="bay" />
		<tag k="ssr:stedsnr" v="455734" />
	</node>
	<node lat="70.07894449691496" lon="30.102726102002933" id="-36997">
		<tag k="name" v="Yttersida" />
		<tag k="natural" v="bay" />
		<tag k="ssr:stedsnr" v="268282" />
	</node>
	<node lat="70.06856671709117" lon="30.108898334244927" id="-36998">
		<tag k="name" v="Molla" />
		<tag k="natural" v="bay" />
		<tag k="ssr:stedsnr" v="268286" />
	</node>
	<node lat="70.06416671203498" lon="29.81811239383374" id="-37002">
		<tag k="name" v="Navarsbukta" />
		<tag k="natural" v="bay" />
		<tag k="ssr:stedsnr" v="273302" />
	</node>
	<node lat="70.06749727603675" lon="29.97454840065272" id="-37006">
		<tag k="name" v="Rapamukka" />
		<tag k="name:fkv" v="Rapamukka" />
		<tag k="natural" v="bay" />
		<tag k="ssr:stedsnr" v="273605" />
	</node>
	<node lat="70.10486116310219" lon="30.196951053077683" id="-37007">
		<tag k="name" v="Båtstø" />
		<tag k="natural" v="bay" />
		<tag k="ssr:stedsnr" v="273771" />
	</node>
	<node lat="70.09341393051608" lon="29.53427365271944" id="-37013">
		<tag k="alt_name" v="Makknes" />
		<tag k="name" v="Makkenes" />
		<tag k="natural" v="cape" />
		<tag k="ssr:stedsnr" v="323611" />
	</node>
	<node lat="70.06504727567285" lon="29.963831753480875" id="-37017">
		<tag k="fixme" v="consider seamark:type=rock or natural=shoal" />
		<tag k="name" v="Laassa" />
		<tag k="name:fkv" v="Laassa" />
		<tag k="place" v="islet" />
		<tag k="ssr:stedsnr" v="334602" />
	</node>
	<node lat="70.14169727794561" lon="30.359731526435606" id="-37018">
		<tag k="fixme" v="consider seamark:type=rock or natural=shoal" />
		<tag k="name" v="Jounalaassa" />
		<tag k="name:fkv" v="Jounalaassa" />
		<tag k="place" v="islet" />
		<tag k="ssr:stedsnr" v="334658" />
	</node>
	<node lat="70.06888339174832" lon="30.167362168417018" id="-37020">
		<tag k="name" v="Loddekeila" />
		<tag k="natural" v="bay" />
		<tag k="ssr:stedsnr" v="334513" />
	</node>
	<node lat="70.06963894290634" lon="30.102923331754987" id="-37021">
		<tag k="name" v="Neset" />
		<tag k="natural" v="cape" />
		<tag k="ssr:stedsnr" v="334547" />
	</node>
	<node lat="70.08530561481892" lon="30.26167324802548" id="-37022">
		<tag k="name" v="Korsneset" />
		<tag k="natural" v="cape" />
		<tag k="ssr:stedsnr" v="344250" />
	</node>
	<node lat="70.09111392523329" lon="29.008704474976128" id="-37023">
		<tag k="bay" v="fjord" />
		<tag k="name" v="Varangerfjorden - Várjavuonna - Varenkinvuono" />
		<tag k="name:fkv" v="Varenkinvuono" />
		<tag k="name:no" v="Varangerfjorden" />
		<tag k="name:se" v="Várjavuonna" />
		<tag k="natural" v="bay" />
		<tag k="ssr:stedsnr" v="383165" />
	</node>
	<node lat="70.19388616378615" lon="30.36002043568043" id="-37026">
		<tag k="name" v="Matoniemenmukka" />
		<tag k="name:fkv" v="Matoniemenmukka" />
		<tag k="natural" v="bay" />
		<tag k="old_name:fkv" v="Madåniemenmokka" />
		<tag k="ssr:stedsnr" v="384547" />
	</node>
	<node lat="70.04720005421984" lon="29.848217913963097" id="-37031">
		<tag k="name" v="Ytre Seigrunnen" />
		<tag k="natural" v="shoal" />
		<tag k="old_name" v="Seigrunnen, Ytre" />
		<tag k="place" v="locality" />
		<tag k="ssr:stedsnr" v="389313" />
	</node>
	<node lat="70.09100004913232" lon="29.602384731759507" id="-37033">
		<tag k="name" v="Badestrand" />
		<tag k="natural" v="beach" />
		<tag k="ssr:stedsnr" v="394010" />
	</node>
	<node lat="70.06239449740356" lon="29.915529009712664" id="-37044">
		<tag k="name" v="Isokari" />
		<tag k="name:fkv" v="Isokari" />
		<tag k="natural" v="beach" />
		<tag k="ssr:stedsnr" v="394609" />
	</node>
	<node lat="70.08307505402973" lon="30.23493713731823" id="-37046">
		<tag k="name" v="Ramnfloggrunnen" />
		<tag k="natural" v="shoal" />
		<tag k="place" v="locality" />
		<tag k="ssr:stedsnr" v="405237" />
	</node>
	<node lat="70.10783614844486" lon="29.27180156663846" id="-37047">
		<tag k="name" v="Skitnelvgrunnen" />
		<tag k="name:no" v="Skitnelvgrunnen" />
		<tag k="natural" v="shoal" />
		<tag k="place" v="locality" />
		<tag k="ssr:stedsnr" v="413091" />
	</node>
	<node lat="70.08253893633479" lon="29.66915968798611" id="-37048">
		<tag k="name" v="Laksbuneset" />
		<tag k="natural" v="cape" />
		<tag k="ssr:stedsnr" v="413989" />
	</node>
	<node lat="70.07620837986008" lon="29.634762495430195" id="-37049">
		<tag k="name" v="Lille Vadsøya" />
		<tag k="old_name" v="Vadsøya, l" />
		<tag k="place" v="island" />
		<tag k="ssr:stedsnr" v="444508" />
	</node>
	<node lat="70.0616917151471" lon="29.831156820454083" id="-37050">
		<tag k="name" v="Grunnes" />
		<tag k="natural" v="cape" />
		<tag k="ssr:stedsnr" v="444510" />
	</node>
	<node lat="70.09534171110133" lon="29.507162559533924" id="-37056">
		<tag k="name" v="Lomakaneset" />
		<tag k="natural" v="cape" />
		<tag k="ssr:stedsnr" v="455106" />
	</node>
	<node lat="70.06955838260203" lon="29.724104104681345" id="-37058">
		<tag k="name" v="Hysebukta" />
		<tag k="natural" v="bay" />
		<tag k="ssr:stedsnr" v="455305" />
	</node>
	<node lat="70.08918338141694" lon="29.597076404342538" id="-37073">
		<tag k="name" v="Andersbyneset" />
		<tag k="natural" v="cape" />
		<tag k="ssr:stedsnr" v="514182" />
	</node>
	<node lat="70.11128616603108" lon="30.206195516139367" id="-37092">
		<tag k="alt_name" v="Sandbukt" />
		<tag k="name" v="Sandbukta" />
		<tag k="natural" v="bay" />
		<tag k="ssr:stedsnr" v="687540" />
	</node>
	<node lat="70.13974172688891" lon="30.349034320948352" id="-37094">
		<tag k="name" v="Skallnes" />
		<tag k="natural" v="cape" />
		<tag k="old_name" v="Skallneset" />
		<tag k="ssr:stedsnr" v="687549" />
	</node>
	<node lat="70.16068616972395" lon="30.347323218059856" id="-37097">
		<tag k="fixme" v="consider seamark:type=rock or natural=shoal" />
		<tag k="name" v="Jarkoskjæret" />
		<tag k="place" v="islet" />
		<tag k="ssr:stedsnr" v="687565" />
	</node>
	<node lat="70.20040005282947" lon="30.3815621021778" id="-37100">
		<tag k="name" v="Sollnes - Sulaniemi" />
		<tag k="name:fkv" v="Sulaniemi" />
		<tag k="name:no" v="Sollnes" />
		<tag k="natural" v="cape" />
		<tag k="ssr:stedsnr" v="687579" />
	</node>
	<node lat="70.19667505016739" lon="30.413598195650376" id="-37101">
		<tag k="fixme" v="consider seamark:type=rock or natural=shoal" />
		<tag k="name" v="Kobbeskjæret" />
		<tag k="place" v="islet" />
		<tag k="ssr:stedsnr" v="687581" />
	</node>
	<node lat="70.07103893304081" lon="29.75029853090737" id="-37106">
		<tag k="name" v="Ørtangen" />
		<tag k="natural" v="cape" />
		<tag k="ssr:stedsnr" v="565506" />
	</node>
	<node lat="70.0944167122481" lon="29.516059791193133" id="-37134">
		<tag k="name" v="Sandskjærneset" />
		<tag k="natural" v="cape" />
		<tag k="ssr:stedsnr" v="698080" />
	</node>
	<node lat="70.09427782038249" lon="29.51888756980582" id="-37135">
		<tag k="name" v="Sandskjærbukta" />
		<tag k="natural" v="bay" />
		<tag k="ssr:stedsnr" v="698082" />
	</node>
	<node lat="70.09328893390425" lon="29.542520870108806" id="-37136">
		<tag k="name" v="Makkeleira" />
		<tag k="natural" v="bay" />
		<tag k="ssr:stedsnr" v="698085" />
	</node>
	<node lat="70.07369727243284" lon="30.039809482591767" id="-37139">
		<tag k="name" v="Saukkokallio" />
		<tag k="name:fkv" v="Saukkokallio" />
		<tag k="natural" v="cape" />
		<tag k="ssr:stedsnr" v="698574" />
	</node>
	<node lat="70.09342782761806" lon="30.11741500123981" id="-37165">
		<tag k="alt_name" v="Litleelvneset" />
		<tag k="name" v="Lilleelvneset" />
		<tag k="natural" v="cape" />
		<tag k="ssr:stedsnr" v="687536" />
	</node>
	<node lat="70.10538061136323" lon="30.16376220073718" id="-37175">
		<tag k="name" v="Sollnes" />
		<tag k="natural" v="cape" />
		<tag k="ssr:stedsnr" v="698727" />
	</node>
	<node lat="70.06682226638559" lon="29.746673524714364" id="-37178">
		<tag k="name" v="Vadsøya" />
		<tag k="place" v="island" />
		<tag k="ssr:stedsnr" v="747516" />
	</node>
	<node lat="70.18920560870612" lon="30.357195454707945" id="-37184">
		<tag k="name" v="Makkenes - Matoniemi" />
		<tag k="name:fkv" v="Matoniemi" />
		<tag k="name:no" v="Makkenes" />
		<tag k="natural" v="cape" />
		<tag k="old_name:fkv" v="Madåniemi" />
		<tag k="ssr:stedsnr" v="748565" />
	</node>
	<node lat="70.11890005636845" lon="30.238053818163774" id="-37198">
		<tag k="name" v="Jamtesanden" />
		<tag k="natural" v="beach" />
		<tag k="ssr:stedsnr" v="758730" />
	</node>
	<node lat="70.06663616361058" lon="29.972976184274447" id="-37213">
		<tag k="name" v="Pitkäkallionnokka" />
		<tag k="name:fkv" v="Pitkäkallionnokka" />
		<tag k="natural" v="cape" />
		<tag k="ssr:stedsnr" v="819624" />
	</node>
	<node lat="70.10147505060534" lon="30.148987211726258" id="-37224">
		<tag k="name" v="Storelvneset" />
		<tag k="natural" v="cape" />
		<tag k="ssr:stedsnr" v="930566" />
	</node>
	<node lat="70.08676116461314" lon="30.254045454263736" id="-37241">
		<tag k="name" v="Ramnflogmola" />
		<tag k="natural" v="bay" />
		<tag k="ssr:stedsnr" v="934171" />
	</node>
	<node lat="70.08505281727734" lon="29.55159586897786" id="-37246">
		<tag k="fixme" v="consider seamark:type=rock or natural=shoal" />
		<tag k="name" v="Sandskjæret" />
		<tag k="place" v="islet" />
		<tag k="ssr:stedsnr" v="930551" />
	</node>
	<node lat="70.10008059449875" lon="29.454604251748435" id="-37250">
		<tag k="name" v="Paddebybukta" />
		<tag k="natural" v="bay" />
		<tag k="ssr:stedsnr" v="931605" />
	</node>
	<node lat="70.18478061321325" lon="30.33422602064446" id="-37263">
		<tag k="name" v="Poikilaniemi" />
		<tag k="name:fkv" v="Poikilaniemi" />
		<tag k="natural" v="cape" />
		<tag k="old_name:fkv" v="Boigilanniemi" />
		<tag k="ssr:stedsnr" v="20566" />
	</node>
	<node lat="70.20671117050702" lon="30.450362062485976" id="-37265">
		<tag k="name" v="Laivanmukka" />
		<tag k="name:fkv" v="Laivanmukka" />
		<tag k="natural" v="bay" />
		<tag k="old_name:fkv" v="Laivanmokka" />
		<tag k="ssr:stedsnr" v="20581" />
	</node>
	<node lat="70.09457504613826" lon="29.519223679162113" id="-37266">
		<tag k="name" v="Sandskjær" />
		<tag k="natural" v="beach" />
		<tag k="ssr:stedsnr" v="20628" />
	</node>
	<node lat="70.05464727581126" lon="29.81787348762091" id="-37268">
		<tag k="name" v="Indre Seigrunnen" />
		<tag k="natural" v="shoal" />
		<tag k="old_name" v="Seigrunnen, Indre" />
		<tag k="place" v="locality" />
		<tag k="ssr:stedsnr" v="25297" />
	</node>
	<node lat="70.17893893942082" lon="30.329064902586683" id="-37287">
		<tag k="name" v="Kallilahti" />
		<tag k="name:fkv" v="Kallilahti" />
		<tag k="natural" v="beach" />
		<tag k="ssr:stedsnr" v="30693" />
	</node>
	<node lat="70.07461116462348" lon="30.04575947602381" id="-37289">
		<tag k="name" v="Solalaassa" />
		<tag k="name:fkv" v="Solalaassa" />
		<tag k="natural" v="cape" />
		<tag k="ssr:stedsnr" v="30585" />
	</node>
	<node lat="70.17579449622804" lon="30.356537107189748" id="-37292">
		<tag k="fixme" v="consider seamark:type=rock or natural=shoal" />
		<tag k="name" v="Langskjæret" />
		<tag k="place" v="islet" />
		<tag k="ssr:stedsnr" v="40225" />
	</node>
	<node lat="70.07285005198007" lon="29.739023537006048" id="-37293">
		<tag k="name" v="Hamna" />
		<tag k="natural" v="bay" />
		<tag k="ssr:stedsnr" v="80522" />
	</node>
	<node lat="70.1035694813163" lon="29.336301524159037" id="-37298">
		<tag k="alt_name:no" v="Finnesset" />
		<tag k="loc_name:se" v="Lávrranjárga" />
		<tag k="name" v="Finneset - Lauriniemi" />
		<tag k="name:fkv" v="Lauriniemi" />
		<tag k="name:no" v="Finneset" />
		<tag k="natural" v="cape" />
		<tag k="ssr:stedsnr" v="80675" />
	</node>
	<node lat="70.06988339117117" lon="30.164948293308978" id="-37354">
		<tag k="name" v="Skagodden" />
		<tag k="natural" v="cape" />
		<tag k="ssr:stedsnr" v="202478" />
	</node>
	<node lat="70.07018894540869" lon="30.124901091512243" id="-37386">
		<tag k="name" v="Storholla" />
		<tag k="natural" v="bay" />
		<tag k="ssr:stedsnr" v="273546" />
	</node>
	<node lat="70.06975005241927" lon="30.119703861838044" id="-37387">
		<tag k="fixme" v="consider seamark:type=rock or natural=shoal" />
		<tag k="name" v="Høghammarskjæret" />
		<tag k="place" v="islet" />
		<tag k="ssr:stedsnr" v="273548" />
	</node>
	<node lat="70.06791116040047" lon="30.099562222045332" id="-37389">
		<tag k="name" v="Finnes" />
		<tag k="natural" v="cape" />
		<tag k="ssr:stedsnr" v="273553" />
	</node>
	<node lat="70.18602227439888" lon="30.342570445464517" id="-37392">
		<tag k="name" v="Neset - Niemi" />
		<tag k="name:fkv" v="Niemi" />
		<tag k="name:no" v="Neset" />
		<tag k="natural" v="cape" />
		<tag k="ssr:stedsnr" v="273643" />
	</node>
	<node lat="70.18804727985003" lon="30.347131567914825" id="-37393">
		<tag k="name" v="Kreetanmukka" />
		<tag k="name:fkv" v="Kreetanmukka" />
		<tag k="natural" v="bay" />
		<tag k="ssr:stedsnr" v="273645" />
	</node>
	<node lat="70.15568894123209" lon="30.352912100774816" id="-37395">
		<tag k="name" v="Nyhavnneset" />
		<tag k="natural" v="cape" />
		<tag k="ssr:stedsnr" v="273730" />
	</node>
	<node lat="70.0711000436885" lon="29.71900409750147" id="-37400">
		<tag k="name" v="Skagen" />
		<tag k="natural" v="cape" />
		<tag k="ssr:stedsnr" v="323531" />
	</node>
	<node lat="70.11426670537021" lon="29.199512721036008" id="-37413">
		<tag k="name" v="Klubbnasen - Murggiidgeahči" />
		<tag k="name:no" v="Klubbnasen" />
		<tag k="name:se" v="Murggiidgeahči" />
		<tag k="natural" v="cape" />
		<tag k="ssr:stedsnr" v="323657" />
	</node>
	<node lat="70.09099448972208" lon="29.5872958517836" id="-37423">
		<tag k="name" v="Toftebukta" />
		<tag k="natural" v="bay" />
		<tag k="ssr:stedsnr" v="334014" />
	</node>
	<node lat="70.09214170830778" lon="29.572479189826232" id="-37424">
		<tag k="name" v="Kvelven" />
		<tag k="natural" v="bay" />
		<tag k="ssr:stedsnr" v="334015" />
	</node>
	<node lat="70.0659361665338" lon="29.968642847187564" id="-37431">
		<tag k="name" v="Karvosenniemi" />
		<tag k="name:fkv" v="Karvosenniemi" />
		<tag k="natural" v="cape" />
		<tag k="old_name:fkv" v="Garvosenniemi" />
		<tag k="ssr:stedsnr" v="334411" />
	</node>
	<node lat="70.06743615629166" lon="29.769309635562173" id="-37441">
		<tag k="alt_name" v="Kokneset" />
		<tag k="name" v="Kokkenes" />
		<tag k="natural" v="cape" />
		<tag k="ssr:stedsnr" v="383542" />
	</node>
	<node lat="70.09536115279" lon="29.484462584314226" id="-37460">
		<tag k="name" v="Båe" />
		<tag k="place" v="locality" />
		<tag k="seamark:type" v="rock" />
		<tag k="ssr:stedsnr" v="394088" />
	</node>
	<node lat="70.06324449275206" lon="29.931562326045558" id="-37465">
		<tag k="alt_name" v="Høivikneset" />
		<tag k="name" v="Høyvikneset" />
		<tag k="natural" v="cape" />
		<tag k="ssr:stedsnr" v="394611" />
	</node>
	<node lat="70.10216949918764" lon="30.188787169315678" id="-37467">
		<tag k="fixme" v="consider seamark:type=rock or natural=shoal" />
		<tag k="name" v="Flua" />
		<tag k="place" v="islet" />
		<tag k="ssr:stedsnr" v="394726" />
	</node>
	<node lat="70.07756116249222" lon="30.12132330683656" id="-37471">
		<tag k="name" v="Varbukta" />
		<tag k="natural" v="bay" />
		<tag k="ssr:stedsnr" v="394562" />
	</node>
	<node lat="70.0614000468137" lon="29.924753997637097" id="-37478">
		<tag k="alt_name" v="Sjåbusgrunnen" />
		<tag k="name" v="Skjåbugrunnen" />
		<tag k="natural" v="shoal" />
		<tag k="place" v="locality" />
		<tag k="ssr:stedsnr" v="444497" />
	</node>
	<node lat="70.07486672091765" lon="30.132617749912736" id="-37488">
		<tag k="fixme" v="multiple name tags, choose one and add the other to alt_name" />
		<tag k="name" v="Ekkerøya;Store Ekkerøya - Ekrea" />
		<tag k="name:fkv" v="Ekrea" />
		<tag k="name:no" v="Ekkerøya;Store Ekkerøya" />
		<tag k="place" v="island" />
		<tag k="ssr:stedsnr" v="505482" />
	</node>
	<node lat="70.11730283357157" lon="30.227648281244544" id="-37492">
		<tag k="name" v="Jamteberget" />
		<tag k="natural" v="cape" />
		<tag k="ssr:stedsnr" v="505540" />
	</node>
	<node lat="70.16744727849989" lon="30.337973233990937" id="-37495">
		<tag k="name" v="Skallbukta" />
		<tag k="natural" v="bay" />
		<tag k="ssr:stedsnr" v="505558" />
	</node>
	<node lat="70.48375003306245" lon="29.54015713483775" id="-37501">
		<tag k="name" v="Varangerhalvøya - Várnjárga - Varenkinniemi" />
		<tag k="name:fkv" v="Varenkinniemi" />
		<tag k="name:no" v="Varangerhalvøya" />
		<tag k="name:se" v="Várnjárga" />
		<tag k="natural" v="cape" />
		<tag k="ssr:stedsnr" v="506029" />
	</node>
	<node lat="70.10295005240667" lon="30.18880107396893" id="-37504">
		<tag k="name" v="Neset" />
		<tag k="natural" v="cape" />
		<tag k="ssr:stedsnr" v="516740" />
	</node>
	<node lat="70.0615361587905" lon="29.854890147478077" id="-37505">
		<tag k="name" v="Renna" />
		<tag k="natural" v="bay" />
		<tag k="ssr:stedsnr" v="516297" />
	</node>
	<node lat="70.07089727286768" lon="30.020190059821694" id="-37515">
		<tag k="name" v="Pikkujärvenniemi" />
		<tag k="name:fkv" v="Pikkujärvenniemi" />
		<tag k="natural" v="cape" />
		<tag k="ssr:stedsnr" v="516579" />
	</node>
	<node lat="70.06877505451496" lon="30.00130674030446" id="-37516">
		<tag k="name" v="Peder-sitt-nes" />
		<tag k="natural" v="cape" />
		<tag k="ssr:stedsnr" v="516582" />
	</node>
	<node lat="70.08648337260009" lon="29.60192362665605" id="-37518">
		<tag k="name" v="Makkstein" />
		<tag k="place" v="locality" />
		<tag k="seamark:type" v="rock" />
		<tag k="ssr:stedsnr" v="534990" />
	</node>
	<node lat="70.08617504971379" lon="29.640006935107515" id="-37523">
		<tag k="alt_name" v="Laksbukta" />
		<tag k="name" v="Laksebubukta" />
		<tag k="natural" v="bay" />
		<tag k="ssr:stedsnr" v="565531" />
	</node>
	<node lat="70.06458060464982" lon="29.939959544601745" id="-37538">
		<tag k="alt_name" v="Høivikbukta" />
		<tag k="name" v="Høyvikbukta" />
		<tag k="natural" v="bay" />
		<tag k="ssr:stedsnr" v="576621" />
	</node>
	<node lat="70.07805838362145" lon="30.12979832301683" id="-37546">
		<tag k="name" v="Sandvika" />
		<tag k="natural" v="bay" />
		<tag k="ssr:stedsnr" v="576574" />
	</node>
	<node lat="70.0861306089547" lon="30.095751110938878" id="-37547">
		<tag k="fixme" v="consider seamark:type=rock or natural=shoal" />
		<tag k="name" v="Krokskjæret" />
		<tag k="place" v="islet" />
		<tag k="ssr:stedsnr" v="576586" />
	</node>
	<node lat="70.07791671925953" lon="30.11263722646207" id="-37570">
		<tag k="name" v="Varnes" />
		<tag k="natural" v="cape" />
		<tag k="ssr:stedsnr" v="636591" />
	</node>
	<node lat="70.06104171163105" lon="29.904951230011932" id="-37577">
		<tag k="name" v="Pikkukari" />
		<tag k="name:fkv" v="Pikkukari" />
		<tag k="natural" v="beach" />
		<tag k="ssr:stedsnr" v="636649" />
	</node>
	<node lat="70.09490004119186" lon="29.417384817493875" id="-37578">
		<tag k="name" v="Paddebynes" />
		<tag k="natural" v="cape" />
		<tag k="ssr:stedsnr" v="636989" />
	</node>
	<node lat="70.12330561025554" lon="30.29423433421206" id="-37590">
		<tag k="name" v="Urnesodden" />
		<tag k="natural" v="cape" />
		<tag k="ssr:stedsnr" v="748551" />
	</node>
	<node lat="70.09030561007903" lon="30.239878795877846" id="-37591">
		<tag k="name" v="Lille Ekkerøy - Pikku-Ekrea" />
		<tag k="name:fkv" v="Pikku-Ekrea" />
		<tag k="name:no" v="Lille Ekkerøy" />
		<tag k="old_name:no" v="Ekkerøy, lille" />
		<tag k="place" v="island" />
		<tag k="ssr:stedsnr" v="748556" />
	</node>
	<node lat="70.10262782837235" lon="30.191362181225756" id="-37610">
		<tag k="name" v="Dampen" />
		<tag k="natural" v="bay" />
		<tag k="ssr:stedsnr" v="758738" />
	</node>
	<node lat="70.06258894195688" lon="29.822873489778324" id="-37614">
		<tag k="name" v="Navarsodden" />
		<tag k="natural" v="cape" />
		<tag k="ssr:stedsnr" v="808502" />
	</node>
	<node lat="70.14571116757169" lon="30.3563426386074" id="-37619">
		<tag k="alt_name:no" v="Falkekeila" />
		<tag k="name" v="Falkkeila - Falkkikeila" />
		<tag k="name:fkv" v="Falkkikeila" />
		<tag k="name:no" v="Falkkeila" />
		<tag k="natural" v="bay" />
		<tag k="ssr:stedsnr" v="809564" />
	</node>
	<node lat="70.12820838531552" lon="30.29361490848373" id="-37632">
		<tag k="name" v="Urnes" />
		<tag k="natural" v="cape" />
		<tag k="ssr:stedsnr" v="817905" />
	</node>
	<node lat="70.0601639389064" lon="29.87768736189794" id="-37655">
		<tag k="name" v="Samuelbyneset" />
		<tag k="natural" v="cape" />
		<tag k="ssr:stedsnr" v="869547" />
	</node>
	<node lat="70.07728616078099" lon="30.139001091207167" id="-37663">
		<tag k="alt_name" v="Vardneset" />
		<tag k="name" v="Varnes" />
		<tag k="natural" v="cape" />
		<tag k="ssr:stedsnr" v="870545" />
	</node>
	<node lat="70.07885004808034" lon="30.076026133044202" id="-37664">
		<tag k="name" v="Sollnes" />
		<tag k="natural" v="cape" />
		<tag k="ssr:stedsnr" v="870546" />
	</node>
	<node lat="70.09330838135541" lon="29.56092920023211" id="-37666">
		<tag k="name" v="Blåbærnes" />
		<tag k="natural" v="cape" />
		<tag k="ssr:stedsnr" v="870588" />
	</node>
	<node lat="70.0776500508261" lon="30.087834458514216" id="-37671">
		<tag k="fixme" v="multiple name tags, choose one and add the other to alt_name" />
		<tag k="name" v="Bukta;Innersida" />
		<tag k="natural" v="bay" />
		<tag k="ssr:stedsnr" v="874192" />
	</node>
	<node lat="70.06822227459719" lon="30.10489554107613" id="-37672">
		<tag k="name" v="Finneset" />
		<tag k="natural" v="cape" />
		<tag k="ssr:stedsnr" v="875301" />
	</node>
	<node lat="70.10843337366133" lon="29.329943224255317" id="-37679">
		<tag k="name" v="Sudines" />
		<tag k="natural" v="cape" />
		<tag k="ssr:stedsnr" v="880073" />
	</node>
	<node lat="70.06048894307037" lon="29.868054018271653" id="-37682">
		<tag k="name" v="Flua" />
		<tag k="natural" v="cape" />
		<tag k="ssr:stedsnr" v="880281" />
	</node>
	<node lat="70.13439172619013" lon="30.32540932279932" id="-37691">
		<tag k="name" v="Rullestrand" />
		<tag k="natural" v="beach" />
		<tag k="ssr:stedsnr" v="880740" />
	</node>
	<node lat="70.07047227953906" lon="30.156812178317285" id="-37707">
		<tag k="name" v="Skagen" />
		<tag k="natural" v="cape" />
		<tag k="ssr:stedsnr" v="941534" />
	</node>
	<node lat="70.07784171605263" lon="30.135028876408118" id="-37708">
		<tag k="name" v="Sandnes" />
		<tag k="natural" v="cape" />
		<tag k="ssr:stedsnr" v="941561" />
	</node>
	<node lat="70.10833818340346" lon="29.329114887063675" id="-37716">
		<tag k="name" v="Lauriniemennokka" />
		<tag k="name:fkv" v="Lauriniemennokka" />
		<tag k="natural" v="cape" />
		<tag k="ssr:stedsnr" v="979485" />
	</node>
	<node lat="70.10611437241987" lon="29.33358421589352" id="-37717">
		<tag k="name" v="Lauriniemenmukka" />
		<tag k="natural" v="bay" />
		<tag k="ssr:stedsnr" v="979486" />
	</node>
</osm>
